<?xml version="1.0" encoding="UTF-8"?>
<osm generator="osmapis" version="0.6">
	<node id="-487186" lat="60.714430557" lon="5.03044721878">
		<tag k="name" v="Greivhola" />
		<tag k="natural" v="bay" />
		<tag k="ssr:stedsnr" v="955698" />
	</node>
	<node id="-487185" lat="60.6768583369" lon="5.07397500687">
		<tag k="name" v="Lyngneset" />
		<tag k="natural" v="cape" />
		<tag k="ssr:stedsnr" v="955690" />
	</node>
	<node id="-487183" lat="60.6851888875" lon="5.05817221743">
		<tag k="name" v="Ytstebøvågen" />
		<tag k="natural" v="bay" />
		<tag k="ssr:stedsnr" v="955670" />
	</node>
	<node id="-487165" lat="60.7205527733" lon="4.90059721968">
		<tag k="name" v="Kubitholmen" />
		<tag k="place" v="islet" />
		<tag k="ssr:stedsnr" v="955492" />
	</node>
	<node id="-487162" lat="60.7259138851" lon="4.96022223062">
		<tag k="name" v="Gardvika" />
		<tag k="natural" v="bay" />
		<tag k="ssr:stedsnr" v="955483" />
	</node>
	<node id="-487161" lat="60.7289212429" lon="4.96875329068">
		<tag k="name" v="Ramsvika" />
		<tag k="natural" v="bay" />
		<tag k="ssr:stedsnr" v="955480" />
	</node>
	<node id="-487156" lat="60.7408111111" lon="4.90761944569">
		<tag k="name" v="Sannane" />
		<tag k="natural" v="bay" />
		<tag k="ssr:stedsnr" v="955384" />
	</node>
	<node id="-487155" lat="60.72890833" lon="4.91166388826">
		<tag k="name" v="Kiparneset" />
		<tag k="natural" v="cape" />
		<tag k="ssr:stedsnr" v="955380" />
	</node>
	<node id="-487153" lat="60.7007638873" lon="4.89383056206">
		<tag k="name" v="Nordre Grøningvågen" />
		<tag k="natural" v="bay" />
		<tag k="ssr:stedsnr" v="955364" />
	</node>
	<node id="-487148" lat="60.7250861131" lon="4.84618610955">
		<tag k="fixme" v="consider seamark:type=rock or natural=shoal" />
		<tag k="name" v="Svarteskjeret" />
		<tag k="place" v="islet" />
		<tag k="ssr:stedsnr" v="955286" />
	</node>
	<node id="-487146" lat="60.6453444426" lon="4.96790000141">
		<tag k="name" v="Skårnesvika" />
		<tag k="natural" v="bay" />
		<tag k="ssr:stedsnr" v="955267" />
	</node>
	<node id="-487145" lat="60.7092555589" lon="4.90474167052">
		<tag k="name" v="Ingholmsundet" />
		<tag k="natural" v="strait" />
		<tag k="ssr:stedsnr" v="955262" />
	</node>
	<node id="-487144" lat="60.7058777763" lon="4.90147499485">
		<tag k="name" v="Nålevågen" />
		<tag k="natural" v="bay" />
		<tag k="ssr:stedsnr" v="955260" />
	</node>
	<node id="-487143" lat="60.7314500016" lon="4.86322777242">
		<tag k="name" v="Kråka" />
		<tag k="place" v="islet" />
		<tag k="ssr:stedsnr" v="955210" />
	</node>
	<node id="-487142" lat="60.7415527817" lon="4.84935833416">
		<tag k="fixme" v="consider seamark:type=rock or natural=shoal" />
		<tag k="name" v="Brøringen" />
		<tag k="place" v="islet" />
		<tag k="ssr:stedsnr" v="955192" />
	</node>
	<node id="-487141" lat="60.6364999983" lon="5.14916111304">
		<tag k="name" v="Knappevika" />
		<tag k="natural" v="bay" />
		<tag k="ssr:stedsnr" v="954831" />
	</node>
	<node id="-487139" lat="60.6494121882" lon="5.12383384001">
		<tag k="name" v="Austhjelmvika" />
		<tag k="natural" v="bay" />
		<tag k="ssr:stedsnr" v="954787" />
	</node>
	<node id="-487138" lat="60.7117388852" lon="5.03628889019">
		<tag k="name" v="Litleneset" />
		<tag k="natural" v="cape" />
		<tag k="ssr:stedsnr" v="954673" />
	</node>
	<node id="-487137" lat="60.6679666695" lon="4.95546943638">
		<tag k="name" v="Træneset" />
		<tag k="natural" v="cape" />
		<tag k="ssr:stedsnr" v="954438" />
	</node>
	<node id="-487136" lat="60.7448861076" lon="4.87161388666">
		<tag k="fixme" v="consider seamark:type=rock or natural=shoal" />
		<tag k="name" v="Skarpskjeret" />
		<tag k="place" v="islet" />
		<tag k="ssr:stedsnr" v="935838" />
	</node>
	<node id="-487134" lat="60.6255527817" lon="5.06735277913">
		<tag k="name" v="Skarpeneset" />
		<tag k="natural" v="cape" />
		<tag k="ssr:stedsnr" v="935212" />
	</node>
	<node id="-487133" lat="60.7370111096" lon="4.93632500903">
		<tag k="name" v="Tjørnarholmen" />
		<tag k="place" v="islet" />
		<tag k="ssr:stedsnr" v="935192" />
	</node>
	<node id="-487132" lat="60.6346166652" lon="4.96516110398">
		<tag k="name" v="Årneset" />
		<tag k="natural" v="cape" />
		<tag k="ssr:stedsnr" v="934647" />
	</node>
	<node id="-487128" lat="60.6698527748" lon="4.93237776985">
		<tag k="name" v="Langholmane" />
		<tag k="place" v="islet" />
		<tag k="ssr:stedsnr" v="916996" />
	</node>
	<node id="-487127" lat="60.6769749964" lon="4.91397500233">
		<tag k="alt_name" v="Helleosen" />
		<tag k="name" v="Hellosen" />
		<tag k="natural" v="strait" />
		<tag k="ssr:stedsnr" v="916992" />
	</node>
	<node id="-487121" lat="60.6306916673" lon="5.0430055493">
		<tag k="name" v="Mangersneset" />
		<tag k="natural" v="cape" />
		<tag k="ssr:stedsnr" v="916963" />
	</node>
	<node id="-487119" lat="60.7251586219" lon="4.84580942427">
		<tag k="name" v="Svartskjeret" />
		<tag k="place" v="islet" />
		<tag k="ssr:stedsnr" v="916864" />
	</node>
	<node id="-487118" lat="60.7294916665" lon="4.8125638971">
		<tag k="name" v="Høgsteinsgrunnen" />
		<tag k="natural" v="shoal" />
		<tag k="place" v="locality" />
		<tag k="ssr:stedsnr" v="916860" />
	</node>
	<node id="-487117" lat="60.7371888867" lon="4.82562499852">
		<tag k="alt_name" v="Kråkebåen" />
		<tag k="name" v="Kråkeboen" />
		<tag k="natural" v="shoal" />
		<tag k="place" v="locality" />
		<tag k="ssr:stedsnr" v="916859" />
	</node>
	<node id="-487116" lat="60.7209333346" lon="4.90361111982">
		<tag k="name" v="Langholmen" />
		<tag k="place" v="islet" />
		<tag k="ssr:stedsnr" v="916854" />
	</node>
	<node id="-487115" lat="60.72505833" lon="5.0182805569">
		<tag k="alt_name" v="Fesøy" />
		<tag k="name" v="Fesøyna" />
		<tag k="place" v="island" />
		<tag k="ssr:stedsnr" v="916848" />
	</node>
	<node id="-487114" lat="60.6989499996" lon="4.87277499487">
		<tag k="alt_name" v="Marøybåen" />
		<tag k="name" v="Marøyboen" />
		<tag k="natural" v="shoal" />
		<tag k="place" v="locality" />
		<tag k="ssr:stedsnr" v="916839" />
	</node>
	<node id="-487113" lat="60.721025" lon="5.03716666594">
		<tag k="alt_name" v="Loddeskjeret;Loddå" />
		<tag k="name" v="Loddo" />
		<tag k="place" v="islet" />
		<tag k="ssr:stedsnr" v="916827" />
	</node>
	<node id="-487112" lat="60.7000777779" lon="5.06384999744">
		<tag k="name" v="Nordreholmen" />
		<tag k="place" v="islet" />
		<tag k="ssr:stedsnr" v="916819" />
	</node>
	<node id="-487109" lat="60.6887472239" lon="4.90583611398">
		<tag k="alt_name" v="Otterholmen" />
		<tag k="name" v="Otreholmen" />
		<tag k="place" v="islet" />
		<tag k="ssr:stedsnr" v="916802" />
	</node>
	<node id="-487106" lat="60.597338887" lon="5.15277499142">
		<tag k="name" v="Sæbøholmane" />
		<tag k="place" v="islet" />
		<tag k="ssr:stedsnr" v="916016" />
	</node>
	<node id="-487105" lat="60.6325935265" lon="4.97226665288">
		<tag k="name" v="Litlavik" />
		<tag k="natural" v="bay" />
		<tag k="ssr:stedsnr" v="874705" />
	</node>
	<node id="-487104" lat="60.647955556" lon="4.93391944618">
		<tag k="name" v="Skorpeneset" />
		<tag k="natural" v="cape" />
		<tag k="ssr:stedsnr" v="874701" />
	</node>
	<node id="-487103" lat="60.6648000022" lon="4.94690555542">
		<tag k="fixme" v="consider seamark:type=rock or natural=shoal" />
		<tag k="name" v="Svartskjeret" />
		<tag k="place" v="islet" />
		<tag k="ssr:stedsnr" v="874262" />
	</node>
	<node id="-487102" lat="60.6912361116" lon="4.92190278295">
		<tag k="name" v="Nordre Byngevågen" />
		<tag k="natural" v="bay" />
		<tag k="ssr:stedsnr" v="874257" />
	</node>
	<node id="-487101" lat="60.6935805574" lon="4.89600554799">
		<tag k="name" v="Søre Stokknesvågen" />
		<tag k="natural" v="bay" />
		<tag k="ssr:stedsnr" v="874254" />
	</node>
	<node id="-487100" lat="60.6990583363" lon="4.9235777763">
		<tag k="name" v="Bøvågen" />
		<tag k="natural" v="bay" />
		<tag k="ssr:stedsnr" v="870763" />
	</node>
	<node id="-487099" lat="60.7512249995" lon="4.82857499298">
		<tag k="name" v="Svartskjernakken" />
		<tag k="natural" v="shoal" />
		<tag k="place" v="locality" />
		<tag k="ssr:stedsnr" v="858205" />
	</node>
	<node id="-487098" lat="60.75196389" lon="4.86806944638">
		<tag k="alt_name" v="Bålskjeret" />
		<tag k="fixme" v="consider seamark:type=rock or natural=shoal" />
		<tag k="name" v="Bolleskjeret" />
		<tag k="place" v="islet" />
		<tag k="ssr:stedsnr" v="858202" />
	</node>
	<node id="-487097" lat="60.6512805582" lon="4.96581667457">
		<tag k="name" v="Flona" />
		<tag k="place" v="island" />
		<tag k="ssr:stedsnr" v="856994" />
	</node>
	<node id="-487092" lat="60.6378250022" lon="4.9503583283">
		<tag k="alt_name" v="Lamholmen, s" />
		<tag k="name" v="Søre Lamholmen" />
		<tag k="place" v="islet" />
		<tag k="ssr:stedsnr" v="856973" />
	</node>
	<node id="-487091" lat="60.6088557334" lon="5.07505346805">
		<tag k="alt_name" v="Bongno" />
		<tag k="name" v="Bogno" />
		<tag k="place" v="island" />
		<tag k="ssr:stedsnr" v="856970" />
	</node>
	<node id="-487090" lat="60.7432250003" lon="4.84583333151">
		<tag k="alt_name" v="Klovningen, l" />
		<tag k="name" v="Litle Klovning" />
		<tag k="place" v="islet" />
		<tag k="ssr:stedsnr" v="856883" />
	</node>
	<node id="-487089" lat="60.721763892" lon="4.888436107">
		<tag k="name" v="Tollarholmen" />
		<tag k="place" v="islet" />
		<tag k="ssr:stedsnr" v="856870" />
	</node>
	<node id="-487088" lat="60.7296000043" lon="4.83757499881">
		<tag k="name" v="Tverrfluene" />
		<tag k="natural" v="shoal" />
		<tag k="place" v="locality" />
		<tag k="ssr:stedsnr" v="856857" />
	</node>
	<node id="-487078" lat="60.6169361146" lon="5.08072777907">
		<tag k="name" v="Storneset" />
		<tag k="natural" v="cape" />
		<tag k="ssr:stedsnr" v="856058" />
	</node>
	<node id="-487077" lat="60.6530388859" lon="4.91709167034">
		<tag k="alt_name" v="Grøningen" />
		<tag k="name" v="Storegrøningen" />
		<tag k="place" v="islet" />
		<tag k="ssr:stedsnr" v="855990" />
	</node>
	<node id="-487076" lat="60.5849833324" lon="5.18571389364">
		<tag k="name" v="Vika" />
		<tag k="natural" v="bay" />
		<tag k="ssr:stedsnr" v="845621" />
	</node>
	<node id="-487074" lat="60.6228500017" lon="5.17629999662">
		<tag k="name" v="Likvika" />
		<tag k="natural" v="bay" />
		<tag k="ssr:stedsnr" v="835001" />
	</node>
	<node id="-487071" lat="60.5910305592" lon="5.17324166898">
		<tag k="name" v="Naustneset" />
		<tag k="natural" v="cape" />
		<tag k="ssr:stedsnr" v="834785" />
	</node>
	<node id="-487069" lat="60.6124722212" lon="5.18905277012">
		<tag k="name" v="Furevika" />
		<tag k="natural" v="bay" />
		<tag k="ssr:stedsnr" v="834776" />
	</node>
	<node id="-487063" lat="60.7252027816" lon="4.99693332668">
		<tag k="name" v="Saltviktangen" />
		<tag k="natural" v="cape" />
		<tag k="ssr:stedsnr" v="834702" />
	</node>
	<node id="-487062" lat="60.721144449" lon="5.02313611163">
		<tag k="name" v="Vestreholmane" />
		<tag k="place" v="islet" />
		<tag k="ssr:stedsnr" v="834700" />
	</node>
	<node id="-487061" lat="60.6784861103" lon="5.07186388104">
		<tag k="name" v="Supet" />
		<tag k="natural" v="strait" />
		<tag k="ssr:stedsnr" v="834667" />
	</node>
	<node id="-487060" lat="60.6740333308" lon="5.07397777363">
		<tag k="name" v="Grønevika" />
		<tag k="natural" v="bay" />
		<tag k="ssr:stedsnr" v="834665" />
	</node>
	<node id="-487053" lat="60.6372694438" lon="5.01421110869">
		<tag k="name" v="Brupollen" />
		<tag k="natural" v="bay" />
		<tag k="ssr:stedsnr" v="834598" />
	</node>
	<node id="-487052" lat="60.6577833354" lon="5.0939749957">
		<tag k="name" v="Monsholmen" />
		<tag k="place" v="islet" />
		<tag k="ssr:stedsnr" v="834589" />
	</node>
	<node id="-487050" lat="60.6542000033" lon="5.10132221739">
		<tag k="name" v="Hopøyna" />
		<tag k="place" v="island" />
		<tag k="ssr:stedsnr" v="834568" />
	</node>
	<node id="-487046" lat="60.6210472216" lon="5.07686111359">
		<tag k="name" v="Kråketangen" />
		<tag k="natural" v="cape" />
		<tag k="ssr:stedsnr" v="834509" />
	</node>
	<node id="-487043" lat="60.7269499983" lon="4.88536111958">
		<tag k="name" v="Kattholmen" />
		<tag k="place" v="islet" />
		<tag k="ssr:stedsnr" v="834485" />
	</node>
	<node id="-487041" lat="60.7185083309" lon="4.91262221636">
		<tag k="name" v="Naustneset" />
		<tag k="natural" v="cape" />
		<tag k="ssr:stedsnr" v="834470" />
	</node>
	<node id="-487038" lat="60.7146500018" lon="4.98023610446">
		<tag k="name" v="Nothusholmen" />
		<tag k="place" v="islet" />
		<tag k="ssr:stedsnr" v="834439" />
	</node>
	<node id="-487035" lat="60.7365888856" lon="4.89593054821">
		<tag k="name" v="Stølevika" />
		<tag k="natural" v="bay" />
		<tag k="ssr:stedsnr" v="834402" />
	</node>
	<node id="-487030" lat="60.6673361073" lon="4.92084444481">
		<tag k="name" v="Skarsholmane" />
		<tag k="place" v="islet" />
		<tag k="ssr:stedsnr" v="834302" />
	</node>
	<node id="-487029" lat="60.7093499998" lon="4.89696665911">
		<tag k="name" v="Nedresjøen" />
		<tag k="natural" v="bay" />
		<tag k="ssr:stedsnr" v="834270" />
	</node>
	<node id="-487028" lat="60.6963416637" lon="4.92447221704">
		<tag k="name" v="Akstadneset" />
		<tag k="natural" v="cape" />
		<tag k="ssr:stedsnr" v="834267" />
	</node>
	<node id="-487027" lat="60.7039166674" lon="4.92100277685">
		<tag k="name" v="Revneset" />
		<tag k="natural" v="cape" />
		<tag k="ssr:stedsnr" v="834266" />
	</node>
	<node id="-487024" lat="60.7488805527" lon="4.82884166264">
		<tag k="name" v="Litle Sandholmen" />
		<tag k="place" v="islet" />
		<tag k="ssr:stedsnr" v="834211" />
	</node>
	<node id="-487018" lat="60.6513805537" lon="4.93720555841">
		<tag k="name" v="Risholmen" />
		<tag k="place" v="islet" />
		<tag k="ssr:stedsnr" v="813676" />
	</node>
	<node id="-487017" lat="60.6549027747" lon="4.92853611906">
		<tag k="name" v="Grunnevågen" />
		<tag k="natural" v="bay" />
		<tag k="ssr:stedsnr" v="813673" />
	</node>
	<node id="-487016" lat="60.653474996" lon="4.955291675">
		<tag k="fixme" v="consider seamark:type=rock or natural=shoal" />
		<tag k="name" v="Steinen" />
		<tag k="place" v="islet" />
		<tag k="ssr:stedsnr" v="813674" />
	</node>
	<node id="-487015" lat="60.662550003" lon="4.90958055669">
		<tag k="name" v="Litla Arneset" />
		<tag k="natural" v="cape" />
		<tag k="ssr:stedsnr" v="813212" />
	</node>
	<node id="-487014" lat="60.6426083321" lon="4.98845554837">
		<tag k="name" v="Skrubbholmane" />
		<tag k="place" v="islet" />
		<tag k="ssr:stedsnr" v="813210" />
	</node>
	<node id="-487013" lat="60.6957222215" lon="4.88988333005">
		<tag k="name" v="Nordre Stokknesvågen" />
		<tag k="natural" v="bay" />
		<tag k="ssr:stedsnr" v="813204" />
	</node>
	<node id="-487012" lat="60.7326027752" lon="4.84365000274">
		<tag k="name" v="Bøboen" />
		<tag k="natural" v="shoal" />
		<tag k="place" v="locality" />
		<tag k="ssr:stedsnr" v="813171" />
	</node>
	<node id="-487011" lat="60.7220249976" lon="4.8699444437">
		<tag k="name" v="Stabbeflua" />
		<tag k="natural" v="shoal" />
		<tag k="place" v="locality" />
		<tag k="ssr:stedsnr" v="813169" />
	</node>
	<node id="-487010" lat="60.7242249975" lon="4.8809694364">
		<tag k="name" v="Dyreflua" />
		<tag k="natural" v="shoal" />
		<tag k="place" v="locality" />
		<tag k="ssr:stedsnr" v="813167" />
	</node>
	<node id="-487008" lat="60.6433805543" lon="4.95216112032">
		<tag k="name" v="Hølen" />
		<tag k="natural" v="bay" />
		<tag k="ssr:stedsnr" v="795995" />
	</node>
	<node id="-487004" lat="60.6346055552" lon="5.0285777856">
		<tag k="alt_name" v="Mangervågen" />
		<tag k="name" v="Mangersvågen" />
		<tag k="natural" v="bay" />
		<tag k="ssr:stedsnr" v="795980" />
	</node>
	<node id="-487002" lat="60.6381777796" lon="4.95850556177">
		<tag k="alt_name" v="Toskavågen" />
		<tag k="name" v="Toskevågen" />
		<tag k="natural" v="bay" />
		<tag k="ssr:stedsnr" v="795975" />
	</node>
	<node id="-487001" lat="60.6339750039" lon="5.02393332856">
		<tag k="name" v="Steinholmen" />
		<tag k="place" v="islet" />
		<tag k="ssr:stedsnr" v="795970" />
	</node>
	<node id="-486999" lat="60.6070416684" lon="5.06430000072">
		<tag k="name" v="Landsvikosen" />
		<tag k="natural" v="strait" />
		<tag k="ssr:stedsnr" v="795963" />
	</node>
	<node id="-486998" lat="60.7280527813" lon="4.88565000401">
		<tag k="name" v="Feitholmen" />
		<tag k="place" v="islet" />
		<tag k="ssr:stedsnr" v="795861" />
	</node>
	<node id="-486997" lat="60.7255416682" lon="4.85440000059">
		<tag k="name" v="Horsøyna" />
		<tag k="place" v="islet" />
		<tag k="ssr:stedsnr" v="795860" />
	</node>
	<node id="-486996" lat="60.722511108" lon="4.85233055045">
		<tag k="bay" v="fjord" />
		<tag k="name" v="Gullosen" />
		<tag k="natural" v="bay" />
		<tag k="ssr:stedsnr" v="795859" />
	</node>
	<node id="-486995" lat="60.7312666655" lon="4.87124999783">
		<tag k="name" v="Belarøyna" />
		<tag k="place" v="islet" />
		<tag k="ssr:stedsnr" v="795852" />
	</node>
	<node id="-486994" lat="60.7194694446" lon="4.87526111748">
		<tag k="name" v="Svelingane" />
		<tag k="place" v="islet" />
		<tag k="ssr:stedsnr" v="795841" />
	</node>
	<node id="-486993" lat="60.7300238344" lon="4.97085419234">
		<tag k="name" v="Fosnstraumen" />
		<tag k="natural" v="strait" />
		<tag k="ssr:stedsnr" v="795833" />
	</node>
	<node id="-486990" lat="60.7002583308" lon="5.05261944406">
		<tag k="name" v="Skjelvikneset" />
		<tag k="natural" v="cape" />
		<tag k="ssr:stedsnr" v="795805" />
	</node>
	<node id="-486985" lat="60.6404444441" lon="4.9452555603">
		<tag k="name" v="Klubbesøyna" />
		<tag k="place" v="island" />
		<tag k="ssr:stedsnr" v="784300" />
	</node>
	<node id="-486984" lat="60.6689888919" lon="4.93531388112">
		<tag k="name" v="Langholmane" />
		<tag k="place" v="islet" />
		<tag k="ssr:stedsnr" v="775251" />
	</node>
	<node id="-486981" lat="60.5959388853" lon="5.20523054699">
		<tag k="name" v="Juvika" />
		<tag k="natural" v="bay" />
		<tag k="ssr:stedsnr" v="774005" />
	</node>
	<node id="-486967" lat="60.6391638907" lon="5.01076944046">
		<tag k="name" v="Gerhardspollen" />
		<tag k="natural" v="bay" />
		<tag k="ssr:stedsnr" v="773574" />
	</node>
	<node id="-486964" lat="60.6201611088" lon="5.11081110388">
		<tag k="name" v="Vollevika" />
		<tag k="natural" v="bay" />
		<tag k="ssr:stedsnr" v="773498" />
	</node>
	<node id="-486963" lat="60.728447221" lon="4.88080556361">
		<tag k="name" v="Håøyane" />
		<tag k="place" v="island" />
		<tag k="ssr:stedsnr" v="773483" />
	</node>
	<node id="-486956" lat="60.7365555526" lon="4.90319444395">
		<tag k="name" v="Varneset" />
		<tag k="natural" v="cape" />
		<tag k="ssr:stedsnr" v="773398" />
	</node>
	<node id="-486954" lat="60.7424861134" lon="4.89774445202">
		<tag k="name" v="Ospholmen" />
		<tag k="place" v="islet" />
		<tag k="ssr:stedsnr" v="773389" />
	</node>
	<node id="-486953" lat="60.7278055592" lon="4.89026665766">
		<tag k="name" v="Vikane" />
		<tag k="natural" v="bay" />
		<tag k="ssr:stedsnr" v="773387" />
	</node>
	<node id="-486951" lat="60.7101750002" lon="4.92216667396">
		<tag k="name" v="Sjåsundet" />
		<tag k="natural" v="strait" />
		<tag k="ssr:stedsnr" v="773376" />
	</node>
	<node id="-486950" lat="60.6927611095" lon="4.89714444167">
		<tag k="name" v="Slåttholmen" />
		<tag k="place" v="islet" />
		<tag k="ssr:stedsnr" v="773363" />
	</node>
	<node id="-486946" lat="60.6543111128" lon="4.91978611771">
		<tag k="name" v="Steffatøka" />
		<tag k="place" v="islet" />
		<tag k="ssr:stedsnr" v="773321" />
	</node>
	<node id="-486945" lat="60.658355554" lon="4.9862944357">
		<tag k="name" v="Munkevika" />
		<tag k="natural" v="bay" />
		<tag k="ssr:stedsnr" v="773298" />
	</node>
	<node id="-486943" lat="60.6451472222" lon="4.94672500266">
		<tag k="name" v="Hølneset" />
		<tag k="natural" v="cape" />
		<tag k="ssr:stedsnr" v="773286" />
	</node>
	<node id="-486942" lat="60.654152592" lon="4.99231289118">
		<tag k="name" v="Tresholmen" />
		<tag k="place" v="islet" />
		<tag k="ssr:stedsnr" v="773279" />
	</node>
	<node id="-486941" lat="60.7094055567" lon="4.92029166123">
		<tag k="name" v="Rikstadholmen" />
		<tag k="place" v="islet" />
		<tag k="ssr:stedsnr" v="773274" />
	</node>
	<node id="-486940" lat="60.6977166666" lon="4.89906944764">
		<tag k="name" v="Grøningvågen" />
		<tag k="natural" v="bay" />
		<tag k="ssr:stedsnr" v="773273" />
	</node>
	<node id="-486939" lat="60.7307805516" lon="4.86200556491">
		<tag k="name" v="Varøysundet" />
		<tag k="natural" v="strait" />
		<tag k="ssr:stedsnr" v="773241" />
	</node>
	<node id="-486938" lat="60.7146749985" lon="4.8765916684">
		<tag k="name" v="Odalsneset" />
		<tag k="natural" v="cape" />
		<tag k="ssr:stedsnr" v="773232" />
	</node>
	<node id="-486937" lat="60.7481888875" lon="4.82412499706">
		<tag k="fixme" v="consider seamark:type=rock or natural=shoal" />
		<tag k="name" v="Svartskjeret" />
		<tag k="place" v="islet" />
		<tag k="ssr:stedsnr" v="773221" />
	</node>
	<node id="-486936" lat="60.6401758988" lon="5.1373306962">
		<tag k="name" v="Notlevågen" />
		<tag k="natural" v="bay" />
		<tag k="ssr:stedsnr" v="772823" />
	</node>
	<node id="-486933" lat="60.6332611138" lon="5.1570888934">
		<tag k="name" v="Båtevika" />
		<tag k="natural" v="bay" />
		<tag k="ssr:stedsnr" v="772818" />
	</node>
	<node id="-486925" lat="60.6060638863" lon="5.08784722283">
		<tag k="alt_name" v="Søre Bongnetangen" />
		<tag k="name" v="Søre Bognetangen" />
		<tag k="natural" v="cape" />
		<tag k="ssr:stedsnr" v="753600" />
	</node>
	<node id="-486924" lat="60.6174166702" lon="5.18954444332">
		<tag k="name" v="Salsbåen" />
		<tag k="natural" v="shoal" />
		<tag k="place" v="locality" />
		<tag k="ssr:stedsnr" v="752513" />
	</node>
	<node id="-486923" lat="60.6858222207" lon="5.06077500524">
		<tag k="name" v="Kuneset" />
		<tag k="natural" v="cape" />
		<tag k="ssr:stedsnr" v="752238" />
	</node>
	<node id="-486921" lat="60.7228333336" lon="4.96423610428">
		<tag k="name" v="Sætervik" />
		<tag k="natural" v="bay" />
		<tag k="ssr:stedsnr" v="752194" />
	</node>
	<node id="-486920" lat="60.6431277797" lon="5.00830277464">
		<tag k="name" v="Rossnestangen" />
		<tag k="natural" v="cape" />
		<tag k="ssr:stedsnr" v="751295" />
	</node>
	<node id="-486915" lat="60.7311502468" lon="4.9396991627">
		<tag k="name" v="Langøyna" />
		<tag k="place" v="islet" />
		<tag k="ssr:stedsnr" v="735051" />
	</node>
	<node id="-486913" lat="60.6338611144" lon="5.01468610825">
		<tag k="name" v="Vidholmane" />
		<tag k="place" v="islet" />
		<tag k="ssr:stedsnr" v="734971" />
	</node>
	<node id="-486910" lat="60.7398499996" lon="4.89124444139">
		<tag k="name" v="Villøyna" />
		<tag k="place" v="island" />
		<tag k="ssr:stedsnr" v="734864" />
	</node>
	<node id="-486907" lat="60.7124638871" lon="4.91707778475">
		<tag k="bay" v="fjord" />
		<tag k="name" v="Rikstadvågen" />
		<tag k="natural" v="bay" />
		<tag k="ssr:stedsnr" v="734822" />
	</node>
	<node id="-486906" lat="60.706075001" lon="4.92575834206">
		<tag k="fixme" v="multiple name tags, choose one and add the other to alt_name" />
		<tag k="name" v="Austrevågen;Øyvika" />
		<tag k="natural" v="bay" />
		<tag k="ssr:stedsnr" v="734821" />
	</node>
	<node id="-486905" lat="60.7040499998" lon="4.87874444929">
		<tag k="name" v="Kvolmosen" />
		<tag k="natural" v="strait" />
		<tag k="ssr:stedsnr" v="734815" />
	</node>
	<node id="-486900" lat="60.6750861136" lon="4.93847777053">
		<tag k="name" v="Tåna" />
		<tag k="natural" v="cape" />
		<tag k="ssr:stedsnr" v="734789" />
	</node>
	<node id="-486899" lat="60.6792249969" lon="4.93975276941">
		<tag k="name" v="Eltrevågen" />
		<tag k="natural" v="bay" />
		<tag k="ssr:stedsnr" v="734788" />
	</node>
	<node id="-486896" lat="60.6763666684" lon="4.89022777069">
		<tag k="alt_name" v="Nordra Flesa" />
		<tag k="name" v="Flesa" />
		<tag k="place" v="islet" />
		<tag k="ssr:stedsnr" v="723982" />
	</node>
	<node id="-486894" lat="60.6036583322" lon="5.19958888469">
		<tag k="name" v="Storsandvik" />
		<tag k="natural" v="bay" />
		<tag k="ssr:stedsnr" v="714004" />
	</node>
	<node id="-486893" lat="60.7289083368" lon="4.97020276904">
		<tag k="name" v="Ramsvikneset" />
		<tag k="natural" v="cape" />
		<tag k="ssr:stedsnr" v="712789" />
	</node>
	<node id="-486892" lat="60.6026055565" lon="5.15301110318">
		<tag k="fixme" v="consider seamark:type=rock or natural=shoal" />
		<tag k="name" v="Skutlebergskjeret" />
		<tag k="place" v="islet" />
		<tag k="ssr:stedsnr" v="712782" />
	</node>
	<node id="-486888" lat="60.5977166706" lon="5.1614916578">
		<tag k="name" v="Furevikknappen" />
		<tag k="natural" v="cape" />
		<tag k="ssr:stedsnr" v="712772" />
	</node>
	<node id="-486880" lat="60.7252888904" lon="5.00980555761">
		<tag k="name" v="Sildnesvika" />
		<tag k="natural" v="bay" />
		<tag k="ssr:stedsnr" v="712688" />
	</node>
	<node id="-486877" lat="60.673649998" lon="5.09006389106">
		<tag k="name" v="Hestneset" />
		<tag k="natural" v="cape" />
		<tag k="ssr:stedsnr" v="712665" />
	</node>
	<node id="-486876" lat="60.6854749973" lon="5.060080559">
		<tag k="name" v="Høyvika" />
		<tag k="natural" v="bay" />
		<tag k="ssr:stedsnr" v="712643" />
	</node>
	<node id="-486869" lat="60.6320138852" lon="5.04110833513">
		<tag k="name" v="Nesvågen" />
		<tag k="natural" v="bay" />
		<tag k="ssr:stedsnr" v="712570" />
	</node>
	<node id="-486866" lat="60.6558194481" lon="5.1119416735">
		<tag k="name" v="Mjølkevika" />
		<tag k="natural" v="bay" />
		<tag k="ssr:stedsnr" v="712555" />
	</node>
	<node id="-486860" lat="60.6222222211" lon="5.11196666619">
		<tag k="name" v="Nedrevika" />
		<tag k="natural" v="bay" />
		<tag k="ssr:stedsnr" v="712483" />
	</node>
	<node id="-486857" lat="60.721152781" lon="4.96983055402">
		<tag k="name" v="Setevika" />
		<tag k="natural" v="bay" />
		<tag k="ssr:stedsnr" v="712432" />
	</node>
	<node id="-486856" lat="60.7138861096" lon="4.98268055128">
		<tag k="name" v="Kastevika" />
		<tag k="natural" v="bay" />
		<tag k="ssr:stedsnr" v="712431" />
	</node>
	<node id="-486852" lat="60.7062166664" lon="4.92171111038">
		<tag k="name" v="Eidet" />
		<tag k="place" v="locality" />
		<tag k="ssr:stedsnr" v="712339" />
	</node>
	<node id="-486851" lat="60.7056333345" lon="4.92064999085">
		<tag k="name" v="Kleivvågen" />
		<tag k="natural" v="bay" />
		<tag k="ssr:stedsnr" v="712338" />
	</node>
	<node id="-486847" lat="60.6485055558" lon="4.99534445241">
		<tag k="fixme" v="consider seamark:type=rock or natural=shoal" />
		<tag k="name" v="Pernilleskjeret" />
		<tag k="place" v="islet" />
		<tag k="ssr:stedsnr" v="712260" />
	</node>
	<node id="-486846" lat="60.651936108" lon="4.95265555413">
		<tag k="name" v="Kalsvika" />
		<tag k="natural" v="bay" />
		<tag k="ssr:stedsnr" v="712257" />
	</node>
	<node id="-486844" lat="60.6309694478" lon="4.98562778195">
		<tag k="name" v="Breivika" />
		<tag k="natural" v="bay" />
		<tag k="ssr:stedsnr" v="712243" />
	</node>
	<node id="-486841" lat="60.6919861142" lon="4.90421666714">
		<tag k="name" v="Søre Kvolmetangen" />
		<tag k="natural" v="cape" />
		<tag k="ssr:stedsnr" v="712220" />
	</node>
	<node id="-486840" lat="60.743333331" lon="4.83443055841">
		<tag k="name" v="Øysteinhabnen" />
		<tag k="natural" v="strait" />
		<tag k="ssr:stedsnr" v="712196" />
	</node>
	<node id="-486839" lat="60.7424694467" lon="4.83855278397">
		<tag k="name" v="Storeklovningen" />
		<tag k="place" v="islet" />
		<tag k="ssr:stedsnr" v="712185" />
	</node>
	<node id="-486838" lat="60.7392666651" lon="4.87590277148">
		<tag k="name" v="Syltanestången" />
		<tag k="natural" v="cape" />
		<tag k="ssr:stedsnr" v="712181" />
	</node>
	<node id="-486833" lat="60.7492194469" lon="4.85591943498">
		<tag k="fixme" v="consider seamark:type=rock or natural=shoal" />
		<tag k="name" v="Skarpskjeret" />
		<tag k="place" v="islet" />
		<tag k="ssr:stedsnr" v="692832" />
	</node>
	<node id="-486832" lat="60.6548749992" lon="4.912002786">
		<tag k="fixme" v="consider seamark:type=rock or natural=shoal" />
		<tag k="name" v="Steinskjeret" />
		<tag k="place" v="islet" />
		<tag k="ssr:stedsnr" v="692670" />
	</node>
	<node id="-486831" lat="60.6624611141" lon="4.95335555233">
		<tag k="fixme" v="consider seamark:type=rock or natural=shoal" />
		<tag k="name" v="Leveren" />
		<tag k="place" v="islet" />
		<tag k="ssr:stedsnr" v="692221" />
	</node>
	<node id="-486830" lat="60.6318499961" lon="5.03488888658">
		<tag k="name" v="Nesflua" />
		<tag k="natural" v="shoal" />
		<tag k="place" v="locality" />
		<tag k="ssr:stedsnr" v="691293" />
	</node>
	<node id="-486829" lat="60.7511083316" lon="4.84546945014">
		<tag k="alt_name" v="Niklandsholmen" />
		<tag k="name" v="Niklansholmane" />
		<tag k="place" v="islet" />
		<tag k="ssr:stedsnr" v="676202" />
	</node>
	<node id="-486828" lat="60.7536361134" lon="4.87272499413">
		<tag k="name" v="Taren" />
		<tag k="natural" v="shoal" />
		<tag k="place" v="locality" />
		<tag k="ssr:stedsnr" v="676199" />
	</node>
	<node id="-486827" lat="60.65725" lon="4.98759721618">
		<tag k="name" v="Munkholmen" />
		<tag k="place" v="islet" />
		<tag k="ssr:stedsnr" v="674787" />
	</node>
	<node id="-486826" lat="60.6533968316" lon="4.92793349588">
		<tag k="alt_name" v="Grunnevågen, store" />
		<tag k="name" v="Store Grunnevågen" />
		<tag k="natural" v="bay" />
		<tag k="ssr:stedsnr" v="673986" />
	</node>
	<node id="-486825" lat="60.6492749978" lon="4.99901110246">
		<tag k="name" v="Skageneset" />
		<tag k="natural" v="cape" />
		<tag k="ssr:stedsnr" v="673977" />
	</node>
	<node id="-486824" lat="60.6348138875" lon="4.99335554755">
		<tag k="alt_name" v="Åbersholmen" />
		<tag k="name" v="Åbergsholmen" />
		<tag k="place" v="islet" />
		<tag k="ssr:stedsnr" v="673968" />
	</node>
	<node id="-486822" lat="60.6346305586" lon="5.0424472199">
		<tag k="name" v="Eriksholmen" />
		<tag k="place" v="islet" />
		<tag k="ssr:stedsnr" v="673960" />
	</node>
	<node id="-486821" lat="60.632516664" lon="4.99408055983">
		<tag k="name" v="Austra Tåna" />
		<tag k="natural" v="cape" />
		<tag k="ssr:stedsnr" v="673956" />
	</node>
	<node id="-486820" lat="60.7467555589" lon="4.81010833514">
		<tag k="name" v="Sandholmflua" />
		<tag k="natural" v="shoal" />
		<tag k="place" v="locality" />
		<tag k="ssr:stedsnr" v="673874" />
	</node>
	<node id="-486819" lat="60.7406999966" lon="4.92224444955">
		<tag k="name" v="Teistholmen" />
		<tag k="place" v="islet" />
		<tag k="ssr:stedsnr" v="673854" />
	</node>
	<node id="-486818" lat="60.7189500025" lon="4.89920277905">
		<tag k="alt_name" v="Syltavågen" />
		<tag k="bay" v="fjord" />
		<tag k="name" v="Syltvågen" />
		<tag k="natural" v="bay" />
		<tag k="ssr:stedsnr" v="673850" />
	</node>
	<node id="-486817" lat="60.7290166708" lon="5.00238888982">
		<tag k="name" v="Tangen" />
		<tag k="natural" v="cape" />
		<tag k="ssr:stedsnr" v="673837" />
	</node>
	<node id="-486815" lat="60.7049027821" lon="4.91561666301">
		<tag k="alt_name" v="Dregeneset" />
		<tag k="name" v="Drageneset" />
		<tag k="natural" v="cape" />
		<tag k="ssr:stedsnr" v="673828" />
	</node>
	<node id="-486809" lat="60.5947194442" lon="5.16672778381">
		<tag k="name" v="Haukelandsvika" />
		<tag k="natural" v="bay" />
		<tag k="ssr:stedsnr" v="651792" />
	</node>
	<node id="-486806" lat="60.5994305566" lon="5.20358889588">
		<tag k="name" v="Kalnes" />
		<tag k="natural" v="cape" />
		<tag k="ssr:stedsnr" v="651767" />
	</node>
	<node id="-486805" lat="60.6056749979" lon="5.14168333924">
		<tag k="name" v="Buvikneset" />
		<tag k="natural" v="cape" />
		<tag k="ssr:stedsnr" v="651760" />
	</node>
	<node id="-486804" lat="60.6057388863" lon="5.13958888536">
		<tag k="name" v="Tømmervika" />
		<tag k="natural" v="bay" />
		<tag k="ssr:stedsnr" v="651759" />
	</node>
	<node id="-486793" lat="60.7244194453" lon="5.02938055502">
		<tag k="name" v="Søreholmen" />
		<tag k="place" v="islet" />
		<tag k="ssr:stedsnr" v="651689" />
	</node>
	<node id="-486791" lat="60.6745944433" lon="5.07817777084">
		<tag k="name" v="Maurvollvika" />
		<tag k="natural" v="bay" />
		<tag k="ssr:stedsnr" v="651664" />
	</node>
	<node id="-486784" lat="60.6462999972" lon="5.00249722558">
		<tag k="name" v="Nordre Slåttholmen" />
		<tag k="place" v="islet" />
		<tag k="ssr:stedsnr" v="651611" />
	</node>
	<node id="-486783" lat="60.6451305586" lon="5.0053027803">
		<tag k="name" v="Søre Slåttholmen" />
		<tag k="place" v="islet" />
		<tag k="ssr:stedsnr" v="651610" />
	</node>
	<node id="-486777" lat="60.6062054087" lon="5.1175734602">
		<tag k="name" v="Grimsteinvika" />
		<tag k="natural" v="bay" />
		<tag k="ssr:stedsnr" v="651553" />
	</node>
	<node id="-486775" lat="60.7213583374" lon="4.89984444782">
		<tag k="name" v="Nordre Langholmen" />
		<tag k="place" v="islet" />
		<tag k="ssr:stedsnr" v="651502" />
	</node>
	<node id="-486774" lat="60.7275111152" lon="4.98681943722">
		<tag k="name" v="Nisevikane" />
		<tag k="natural" v="bay" />
		<tag k="ssr:stedsnr" v="651495" />
	</node>
	<node id="-486772" lat="60.7294250028" lon="4.97123611093">
		<tag k="name" v="Kåtevika" />
		<tag k="natural" v="bay" />
		<tag k="ssr:stedsnr" v="651478" />
	</node>
	<node id="-486770" lat="60.7204083371" lon="4.97043055363">
		<tag k="fixme" v="consider seamark:type=rock or natural=shoal" />
		<tag k="name" v="Setevikskjera" />
		<tag k="place" v="islet" />
		<tag k="ssr:stedsnr" v="651462" />
	</node>
	<node id="-486768" lat="60.7333027811" lon="4.93056389128">
		<tag k="name" v="Lokkevågneset" />
		<tag k="natural" v="cape" />
		<tag k="ssr:stedsnr" v="651417" />
	</node>
	<node id="-486767" lat="60.7392916703" lon="4.89887222734">
		<tag k="name" v="Varesundet" />
		<tag k="natural" v="strait" />
		<tag k="ssr:stedsnr" v="651413" />
	</node>
	<node id="-486766" lat="60.7206416629" lon="4.90759722682">
		<tag k="name" v="Stølevika" />
		<tag k="natural" v="bay" />
		<tag k="ssr:stedsnr" v="651394" />
	</node>
	<node id="-486765" lat="60.6982750004" lon="4.89970832761">
		<tag k="alt_name" v="Kvolmesundet" />
		<tag k="name" v="Kvolmesund" />
		<tag k="natural" v="strait" />
		<tag k="ssr:stedsnr" v="651385" />
	</node>
	<node id="-486764" lat="60.7003805568" lon="4.92109722441">
		<tag k="name" v="Krossneset" />
		<tag k="natural" v="cape" />
		<tag k="ssr:stedsnr" v="651382" />
	</node>
	<node id="-486761" lat="60.6912222184" lon="4.9112666624">
		<tag k="name" v="Nordre Byngja" />
		<tag k="natural" v="cape" />
		<tag k="ssr:stedsnr" v="651351" />
	</node>
	<node id="-486760" lat="60.6919027763" lon="4.91363611329">
		<tag k="name" v="Televika" />
		<tag k="natural" v="bay" />
		<tag k="ssr:stedsnr" v="651350" />
	</node>
	<node id="-486757" lat="60.6655444476" lon="4.90340833515">
		<tag k="name" v="Kvitsanden" />
		<tag k="natural" v="cape" />
		<tag k="ssr:stedsnr" v="651311" />
	</node>
	<node id="-486755" lat="60.6457361132" lon="4.96836389302">
		<tag k="name" v="Skårneset" />
		<tag k="natural" v="cape" />
		<tag k="ssr:stedsnr" v="651284" />
	</node>
	<node id="-486754" lat="60.7491166639" lon="4.85161388201">
		<tag k="name" v="Myrbærholmane" />
		<tag k="place" v="islet" />
		<tag k="ssr:stedsnr" v="651234" />
	</node>
	<node id="-486751" lat="60.7205805534" lon="5.02750833176">
		<tag k="name" v="Vestraneset" />
		<tag k="natural" v="cape" />
		<tag k="ssr:stedsnr" v="650660" />
	</node>
	<node id="-486750" lat="60.6701277763" lon="4.94859722406">
		<tag k="name" v="Sandholmen" />
		<tag k="place" v="islet" />
		<tag k="ssr:stedsnr" v="650401" />
	</node>
	<node id="-486748" lat="60.6982083292" lon="5.06835554809">
		<tag k="name" v="Rådmannsholmane" />
		<tag k="place" v="islet" />
		<tag k="ssr:stedsnr" v="631248" />
	</node>
	<node id="-486747" lat="60.7297888904" lon="4.97549445297">
		<tag k="name" v="Klubbeflua" />
		<tag k="natural" v="shoal" />
		<tag k="place" v="locality" />
		<tag k="ssr:stedsnr" v="631196" />
	</node>
	<node id="-486746" lat="60.7086750007" lon="4.92653332686">
		<tag k="name" v="Kastevik" />
		<tag k="natural" v="bay" />
		<tag k="ssr:stedsnr" v="631192" />
	</node>
	<node id="-486745" lat="60.7059388906" lon="4.87771667347">
		<tag k="name" v="Eldneset" />
		<tag k="natural" v="cape" />
		<tag k="ssr:stedsnr" v="631184" />
	</node>
	<node id="-486744" lat="60.6589000045" lon="4.98882500509">
		<tag k="name" v="Innhellevik" />
		<tag k="natural" v="bay" />
		<tag k="ssr:stedsnr" v="630265" />
	</node>
	<node id="-486743" lat="60.6266055563" lon="5.02360278597">
		<tag k="name" v="Roå" />
		<tag k="natural" v="shoal" />
		<tag k="place" v="locality" />
		<tag k="ssr:stedsnr" v="630260" />
	</node>
	<node id="-486742" lat="60.6236416651" lon="5.17393612009">
		<tag k="name" v="Solheimneset" />
		<tag k="natural" v="cape" />
		<tag k="ssr:stedsnr" v="630248" />
	</node>
	<node id="-486741" lat="60.6687166694" lon="4.95445832635">
		<tag k="name" v="Øyjordspollen" />
		<tag k="natural" v="bay" />
		<tag k="ssr:stedsnr" v="630241" />
	</node>
	<node id="-486740" lat="60.6982611112" lon="4.87455555448">
		<tag k="name" v="Søra Bøflua" />
		<tag k="natural" v="shoal" />
		<tag k="place" v="locality" />
		<tag k="ssr:stedsnr" v="630240" />
	</node>
	<node id="-486739" lat="60.6212777758" lon="5.07874165853">
		<tag k="name" v="Søre Bogevågen" />
		<tag k="natural" v="bay" />
		<tag k="ssr:stedsnr" v="630238" />
	</node>
	<node id="-486737" lat="60.6525972199" lon="4.99988333589">
		<tag k="fixme" v="consider seamark:type=rock or natural=shoal" />
		<tag k="name" v="Skarvskjeret" />
		<tag k="place" v="islet" />
		<tag k="ssr:stedsnr" v="630235" />
	</node>
	<node id="-486734" lat="60.7520388848" lon="4.83969445374">
		<tag k="alt_name" v="Svartskjeret, in;Indra Svartskjeret" />
		<tag k="fixme" v="consider seamark:type=rock or natural=shoal" />
		<tag k="name" v="Indre Svartskjeret" />
		<tag k="place" v="islet" />
		<tag k="ssr:stedsnr" v="615180" />
	</node>
	<node id="-486732" lat="60.6504388885" lon="4.93153333846">
		<tag k="name" v="Brakholmen" />
		<tag k="place" v="islet" />
		<tag k="ssr:stedsnr" v="612981" />
	</node>
	<node id="-486731" lat="60.6384194454" lon="5.00061389786">
		<tag k="name" v="Trettholmen" />
		<tag k="place" v="islet" />
		<tag k="ssr:stedsnr" v="612964" />
	</node>
	<node id="-486730" lat="60.6130527769" lon="5.06879999668">
		<tag k="alt_name" v="Bongnevågen" />
		<tag k="name" v="Bognevågen" />
		<tag k="natural" v="bay" />
		<tag k="ssr:stedsnr" v="612956" />
	</node>
	<node id="-486728" lat="60.7409583322" lon="4.91638888959">
		<tag k="alt_name" v="Mulliholmane" />
		<tag k="name" v="Mulliholmen" />
		<tag k="place" v="islet" />
		<tag k="ssr:stedsnr" v="612871" />
	</node>
	<node id="-486727" lat="60.7434527819" lon="4.90178333585">
		<tag k="loc_name" v="Rossnes" />
		<tag k="name" v="Rossneset" />
		<tag k="natural" v="cape" />
		<tag k="ssr:stedsnr" v="612869" />
	</node>
	<node id="-486726" lat="60.7423027781" lon="4.86876388957">
		<tag k="alt_name" v="Villangerosen" />
		<tag k="bay" v="fjord" />
		<tag k="name" v="Villangsosen" />
		<tag k="natural" v="bay" />
		<tag k="ssr:stedsnr" v="612867" />
	</node>
	<node id="-486725" lat="60.7388361142" lon="4.86926111741">
		<tag k="alt_name" v="Rikstadøy" />
		<tag k="name" v="Rikstadøyna" />
		<tag k="place" v="islet" />
		<tag k="ssr:stedsnr" v="612866" />
	</node>
	<node id="-486724" lat="60.7472000009" lon="4.86835276983">
		<tag k="alt_name" v="Tjørneholmen;Tjørnarholmane" />
		<tag k="name" v="Tjørnarholmen" />
		<tag k="place" v="islet" />
		<tag k="ssr:stedsnr" v="612865" />
	</node>
	<node id="-486723" lat="60.7441999963" lon="4.83443055618">
		<tag k="alt_name" v="Høgsteinen" />
		<tag k="name" v="Øysteinane" />
		<tag k="place" v="islet" />
		<tag k="ssr:stedsnr" v="612862" />
	</node>
	<node id="-486721" lat="60.7159638867" lon="5.02626943962">
		<tag k="name" v="Pinetangen" />
		<tag k="natural" v="cape" />
		<tag k="ssr:stedsnr" v="612817" />
	</node>
	<node id="-486720" lat="60.7097249964" lon="4.86735555092">
		<tag k="alt_name" v="Onglebåen" />
		<tag k="name" v="Ongleboen" />
		<tag k="natural" v="shoal" />
		<tag k="place" v="locality" />
		<tag k="ssr:stedsnr" v="612818" />
	</node>
	<node id="-486719" lat="60.7058594176" lon="4.89126952439">
		<tag k="name" v="Marøy" />
		<tag k="place" v="island" />
		<tag k="ssr:stedsnr" v="612816" />
	</node>
	<node id="-486717" lat="60.6965777759" lon="4.8944277801">
		<tag k="name" v="Kvolmo" />
		<tag k="place" v="island" />
		<tag k="ssr:stedsnr" v="612796" />
	</node>
	<node id="-486705" lat="60.6465777762" lon="5.11214167484">
		<tag k="name" v="Lyngholmen" />
		<tag k="place" v="islet" />
		<tag k="ssr:stedsnr" v="591593" />
	</node>
	<node id="-486699" lat="60.6348361093" lon="5.02584167189">
		<tag k="name" v="Ellingvika" />
		<tag k="natural" v="bay" />
		<tag k="ssr:stedsnr" v="591553" />
	</node>
	<node id="-486695" lat="60.6069277821" lon="5.11119444711">
		<tag k="name" v="Apalvika" />
		<tag k="natural" v="bay" />
		<tag k="ssr:stedsnr" v="591500" />
	</node>
	<node id="-486694" lat="60.6179972209" lon="5.07991388247">
		<tag k="name" v="Laksevika" />
		<tag k="natural" v="bay" />
		<tag k="ssr:stedsnr" v="591492" />
	</node>
	<node id="-486693" lat="60.7290972258" lon="4.90793054746">
		<tag k="name" v="Tjukktangen" />
		<tag k="natural" v="cape" />
		<tag k="ssr:stedsnr" v="591478" />
	</node>
	<node id="-486692" lat="60.719528598" lon="4.90938857436">
		<tag k="name" v="Nothusholmen" />
		<tag k="place" v="islet" />
		<tag k="ssr:stedsnr" v="591472" />
	</node>
	<node id="-486691" lat="60.7153472194" lon="4.91086666806">
		<tag k="name" v="Vågsholmen" />
		<tag k="place" v="islet" />
		<tag k="ssr:stedsnr" v="591469" />
	</node>
	<node id="-486687" lat="60.7279805569" lon="4.94851110283">
		<tag k="name" v="Skjelvika" />
		<tag k="natural" v="bay" />
		<tag k="ssr:stedsnr" v="591452" />
	</node>
	<node id="-486686" lat="60.7253361127" lon="4.95882221533">
		<tag k="name" v="Vinterstøa" />
		<tag k="natural" v="bay" />
		<tag k="ssr:stedsnr" v="591428" />
	</node>
	<node id="-486685" lat="60.7187611146" lon="4.9103500069">
		<tag k="name" v="Habnen" />
		<tag k="natural" v="bay" />
		<tag k="ssr:stedsnr" v="591348" />
	</node>
	<node id="-486684" lat="60.7013638936" lon="4.92137500674">
		<tag k="name" v="Sjoholmen" />
		<tag k="place" v="islet" />
		<tag k="ssr:stedsnr" v="591346" />
	</node>
	<node id="-486682" lat="60.696677781" lon="4.90556666271">
		<tag k="name" v="Breivika" />
		<tag k="natural" v="bay" />
		<tag k="ssr:stedsnr" v="591324" />
	</node>
	<node id="-486681" lat="60.6689666641" lon="4.90798610634">
		<tag k="name" v="Uttoska" />
		<tag k="natural" v="strait" />
		<tag k="ssr:stedsnr" v="591292" />
	</node>
	<node id="-486665" lat="60.6705388918" lon="4.89982777923">
		<tag k="alt_name" v="Duvene" />
		<tag k="name" v="Duena" />
		<tag k="place" v="islet" />
		<tag k="ssr:stedsnr" v="590450" />
	</node>
	<node id="-486659" lat="60.7430944473" lon="4.88847500112">
		<tag k="name" v="Breiavika" />
		<tag k="natural" v="bay" />
		<tag k="ssr:stedsnr" v="590405" />
	</node>
	<node id="-486658" lat="60.7414305528" lon="4.85811667112">
		<tag k="alt_name" v="Eggesholmane" />
		<tag k="name" v="Eggesholmen" />
		<tag k="place" v="islet" />
		<tag k="ssr:stedsnr" v="570820" />
	</node>
	<node id="-486657" lat="60.6025484859" lon="5.20005634006">
		<tag k="name" v="Sandvik" />
		<tag k="natural" v="bay" />
		<tag k="ssr:stedsnr" v="570602" />
	</node>
	<node id="-486655" lat="60.641841664" lon="5.11684166064">
		<tag k="name" v="Vågstaulvågen" />
		<tag k="natural" v="bay" />
		<tag k="ssr:stedsnr" v="569286" />
	</node>
	<node id="-486652" lat="60.7500583365" lon="4.82747777888">
		<tag k="fixme" v="consider seamark:type=rock or natural=shoal" />
		<tag k="name" v="Svartskjera" />
		<tag k="place" v="islet" />
		<tag k="ssr:stedsnr" v="554210" />
	</node>
	<node id="-486651" lat="60.6535583362" lon="4.9478027761">
		<tag k="name" v="Kalven" />
		<tag k="natural" v="cape" />
		<tag k="ssr:stedsnr" v="552995" />
	</node>
	<node id="-486649" lat="60.7465499988" lon="4.9019388826">
		<tag k="alt_name" v="Synnøy" />
		<tag k="name" v="Synnøyna" />
		<tag k="place" v="islet" />
		<tag k="ssr:stedsnr" v="552898" />
	</node>
	<node id="-486648" lat="60.7281638915" lon="4.96521389586">
		<tag k="bay" v="fjord" />
		<tag k="name" v="Straumsvågen" />
		<tag k="natural" v="bay" />
		<tag k="ssr:stedsnr" v="552864" />
	</node>
	<node id="-486644" lat="60.6654611078" lon="4.95934999282">
		<tag k="name" v="Trædsvågen" />
		<tag k="natural" v="bay" />
		<tag k="ssr:stedsnr" v="552815" />
	</node>
	<node id="-486640" lat="60.6090527792" lon="5.14561388226">
		<tag k="name" v="Sæbøvågen" />
		<tag k="natural" v="bay" />
		<tag k="ssr:stedsnr" v="552019" />
	</node>
	<node id="-486639" lat="60.657925003" lon="4.92461388772">
		<tag k="name" v="Uttosko" />
		<tag k="place" v="island" />
		<tag k="ssr:stedsnr" v="551988" />
	</node>
	<node id="-486638" lat="60.6907333366" lon="4.99726944591">
		<tag k="name" v="Radøy" />
		<tag k="place" v="island" />
		<tag k="ssr:stedsnr" v="551772" />
	</node>
	<node id="-486632" lat="60.7218722237" lon="5.02971110905">
		<tag k="name" v="Austraneset" />
		<tag k="natural" v="cape" />
		<tag k="ssr:stedsnr" v="530702" />
	</node>
	<node id="-486631" lat="60.7159333325" lon="5.02561389259">
		<tag k="alt_name" v="Nordre Vallersvågen" />
		<tag k="name" v="Nordre Valdersvåg" />
		<tag k="natural" v="bay" />
		<tag k="ssr:stedsnr" v="530688" />
	</node>
	<node id="-486623" lat="60.7071277785" lon="5.04386110944">
		<tag k="alt_name" v="Valdersnes" />
		<tag k="name" v="Vallersneset" />
		<tag k="natural" v="cape" />
		<tag k="ssr:stedsnr" v="530652" />
	</node>
	<node id="-486620" lat="60.6957027777" lon="5.08138889763">
		<tag k="name" v="Kjerkholmen" />
		<tag k="place" v="islet" />
		<tag k="ssr:stedsnr" v="530640" />
	</node>
	<node id="-486614" lat="60.6107527776" lon="5.08412500072">
		<tag k="name" v="Skutevikranen" />
		<tag k="natural" v="cape" />
		<tag k="ssr:stedsnr" v="530549" />
	</node>
	<node id="-486611" lat="60.6231750014" lon="5.07491111896">
		<tag k="name" v="Nordvågen" />
		<tag k="natural" v="bay" />
		<tag k="ssr:stedsnr" v="530528" />
	</node>
	<node id="-486603" lat="60.7366611088" lon="4.90001667315">
		<tag k="name" v="Svinevika" />
		<tag k="natural" v="bay" />
		<tag k="ssr:stedsnr" v="530432" />
	</node>
	<node id="-486602" lat="60.739319444" lon="4.8856833334">
		<tag k="name" v="Nordre Hamrevika" />
		<tag k="natural" v="bay" />
		<tag k="ssr:stedsnr" v="530422" />
	</node>
	<node id="-486600" lat="60.7420555596" lon="4.90237221336">
		<tag k="name" v="Vaulevågen" />
		<tag k="natural" v="bay" />
		<tag k="ssr:stedsnr" v="530412" />
	</node>
	<node id="-486599" lat="60.7331666709" lon="4.88219999861">
		<tag k="name" v="Stuttetången" />
		<tag k="natural" v="cape" />
		<tag k="ssr:stedsnr" v="530407" />
	</node>
	<node id="-486598" lat="60.7046694447" lon="4.91231110901">
		<tag k="name" v="Austre Skorpesundet" />
		<tag k="natural" v="strait" />
		<tag k="ssr:stedsnr" v="530397" />
	</node>
	<node id="-486597" lat="60.7055722212" lon="4.88951389387">
		<tag k="name" v="Skjåvika" />
		<tag k="natural" v="bay" />
		<tag k="ssr:stedsnr" v="530388" />
	</node>
	<node id="-486596" lat="60.7059083304" lon="4.91328055887">
		<tag k="name" v="Krossvika" />
		<tag k="natural" v="bay" />
		<tag k="ssr:stedsnr" v="530383" />
	</node>
	<node id="-486593" lat="60.6635555517" lon="4.96133054868">
		<tag k="name" v="Søre Træsvågen" />
		<tag k="natural" v="bay" />
		<tag k="ssr:stedsnr" v="530323" />
	</node>
	<node id="-486592" lat="60.6356805575" lon="4.96493333121">
		<tag k="name" v="Eidvika" />
		<tag k="natural" v="bay" />
		<tag k="ssr:stedsnr" v="530311" />
	</node>
	<node id="-486590" lat="60.7155527805" lon="4.8701972146">
		<tag k="name" v="Breivika" />
		<tag k="natural" v="bay" />
		<tag k="ssr:stedsnr" v="530267" />
	</node>
	<node id="-486589" lat="60.7429027772" lon="4.84551945181">
		<tag k="name" v="Lisleklovningen" />
		<tag k="place" v="islet" />
		<tag k="ssr:stedsnr" v="530244" />
	</node>
	<node id="-486588" lat="60.7341416686" lon="4.85461665809">
		<tag k="fixme" v="consider seamark:type=rock or natural=shoal" />
		<tag k="name" v="Skarveskjeret" />
		<tag k="place" v="islet" />
		<tag k="ssr:stedsnr" v="530241" />
	</node>
	<node id="-486584" lat="60.7325388895" lon="4.90155554828">
		<tag k="alt_name" v="Sylteholmen" />
		<tag k="name" v="Syltholmen" />
		<tag k="place" v="islet" />
		<tag k="ssr:stedsnr" v="529816" />
	</node>
	<node id="-486583" lat="60.6700000017" lon="4.90195554626">
		<tag k="name" v="Duesundet" />
		<tag k="natural" v="strait" />
		<tag k="ssr:stedsnr" v="529423" />
	</node>
	<node id="-486581" lat="60.6870777794" lon="4.9170666685">
		<tag k="name" v="Sandholmen" />
		<tag k="place" v="islet" />
		<tag k="ssr:stedsnr" v="529313" />
	</node>
	<node id="-486578" lat="60.7459861096" lon="4.91099721691">
		<tag k="name" v="Turraflua" />
		<tag k="natural" v="shoal" />
		<tag k="place" v="locality" />
		<tag k="ssr:stedsnr" v="510868" />
	</node>
	<node id="-486577" lat="60.7255500003" lon="4.95710278437">
		<tag k="name" v="Purka" />
		<tag k="natural" v="cape" />
		<tag k="ssr:stedsnr" v="510208" />
	</node>
	<node id="-486576" lat="60.651280554" lon="4.9713333334">
		<tag k="name" v="Bekkjeflua" />
		<tag k="natural" v="shoal" />
		<tag k="place" v="locality" />
		<tag k="ssr:stedsnr" v="509653" />
	</node>
	<node id="-486575" lat="60.7279194452" lon="5.0100722296">
		<tag k="alt_name" v="Nilsevika" />
		<tag k="name" v="Nilsevik" />
		<tag k="natural" v="bay" />
		<tag k="ssr:stedsnr" v="509251" />
	</node>
	<node id="-486574" lat="60.6557305515" lon="4.91528334163">
		<tag k="name" v="Grøningssundet" />
		<tag k="natural" v="strait" />
		<tag k="ssr:stedsnr" v="508703" />
	</node>
	<node id="-486569" lat="60.6427861132" lon="4.93703889269">
		<tag k="fixme" v="consider seamark:type=rock or natural=shoal" />
		<tag k="name" v="Svartskjeret" />
		<tag k="place" v="islet" />
		<tag k="ssr:stedsnr" v="491991" />
	</node>
	<node id="-486564" lat="60.6360277797" lon="5.00539444076">
		<tag k="name" v="Grønholmane" />
		<tag k="place" v="islet" />
		<tag k="ssr:stedsnr" v="491968" />
	</node>
	<node id="-486560" lat="60.7236388863" lon="4.89208889163">
		<tag k="name" v="Sjelkholmen" />
		<tag k="place" v="islet" />
		<tag k="ssr:stedsnr" v="491855" />
	</node>
	<node id="-486558" lat="60.739108332" lon="4.92672500267">
		<tag k="name" v="Langøyna" />
		<tag k="place" v="islet" />
		<tag k="ssr:stedsnr" v="491850" />
	</node>
	<node id="-486557" lat="60.738930557" lon="4.8847888893">
		<tag k="alt_name" v="Villangervågen" />
		<tag k="bay" v="fjord" />
		<tag k="name" v="Villangsvågen" />
		<tag k="natural" v="bay" />
		<tag k="ssr:stedsnr" v="491847" />
	</node>
	<node id="-486556" lat="60.730788892" lon="4.87872778636">
		<tag k="name" v="Kalvøyna" />
		<tag k="place" v="islet" />
		<tag k="ssr:stedsnr" v="491839" />
	</node>
	<node id="-486555" lat="60.7189916683" lon="4.90758888749">
		<tag k="name" v="Kjenesholmen" />
		<tag k="place" v="islet" />
		<tag k="ssr:stedsnr" v="491830" />
	</node>
	<node id="-486552" lat="60.7284000001" lon="4.95728889514">
		<tag k="alt_name" v="Ropeneset;Rapneset;Rappeneset" />
		<tag k="name" v="Rapeneset" />
		<tag k="natural" v="cape" />
		<tag k="ssr:stedsnr" v="491822" />
	</node>
	<node id="-486551" lat="60.7090138846" lon="4.90241666234">
		<tag k="name" v="Ingholmen" />
		<tag k="place" v="islet" />
		<tag k="ssr:stedsnr" v="491806" />
	</node>
	<node id="-486548" lat="60.6897999995" lon="4.91936666081">
		<tag k="name" v="Pollen" />
		<tag k="natural" v="bay" />
		<tag k="ssr:stedsnr" v="491774" />
	</node>
	<node id="-486541" lat="60.6763002645" lon="5.08462152393">
		<tag k="name" v="Grunnesundet" />
		<tag k="natural" v="strait" />
		<tag k="ssr:stedsnr" v="470690" />
	</node>
	<node id="-486535" lat="60.701413885" lon="5.06634444595">
		<tag k="name" v="Småholmen" />
		<tag k="place" v="islet" />
		<tag k="ssr:stedsnr" v="470625" />
	</node>
	<node id="-486526" lat="60.6184138887" lon="5.08140833807">
		<tag k="name" v="Djuvvika" />
		<tag k="natural" v="bay" />
		<tag k="ssr:stedsnr" v="470536" />
	</node>
	<node id="-486524" lat="60.6049472249" lon="5.0874694461">
		<tag k="name" v="Lindevika" />
		<tag k="natural" v="bay" />
		<tag k="ssr:stedsnr" v="470510" />
	</node>
	<node id="-486522" lat="60.7260083319" lon="4.88534167374">
		<tag k="fixme" v="consider seamark:type=rock or natural=shoal" />
		<tag k="loc_name" v="Kattholmskjer" />
		<tag k="name" v="Kattholmskjær" />
		<tag k="place" v="islet" />
		<tag k="ssr:stedsnr" v="470484" />
	</node>
	<node id="-486520" lat="60.7376000013" lon="4.90118055867">
		<tag k="name" v="Kvernhusvågen" />
		<tag k="natural" v="bay" />
		<tag k="ssr:stedsnr" v="470359" />
	</node>
	<node id="-486518" lat="60.6595555517" lon="4.91021111816">
		<tag k="alt_name" v="Arnesvågen, s" />
		<tag k="name" v="Store Arnesvågen" />
		<tag k="natural" v="bay" />
		<tag k="ssr:stedsnr" v="470268" />
	</node>
	<node id="-486515" lat="60.5957611102" lon="5.16474165918">
		<tag k="name" v="Grasholmen" />
		<tag k="place" v="islet" />
		<tag k="ssr:stedsnr" v="469793" />
	</node>
	<node id="-486513" lat="60.6154194473" lon="5.18769444042">
		<tag k="name" v="Bjervika" />
		<tag k="natural" v="bay" />
		<tag k="ssr:stedsnr" v="469773" />
	</node>
	<node id="-486503" lat="60.737891667" lon="4.90216388256">
		<tag k="name" v="Kvernhusneset" />
		<tag k="natural" v="cape" />
		<tag k="ssr:stedsnr" v="469422" />
	</node>
	<node id="-486502" lat="60.7439666675" lon="4.87922499683">
		<tag k="name" v="Borholmen" />
		<tag k="place" v="islet" />
		<tag k="ssr:stedsnr" v="469420" />
	</node>
	<node id="-486496" lat="60.6865527774" lon="4.92848055982">
		<tag k="name" v="Knappen" />
		<tag k="natural" v="cape" />
		<tag k="ssr:stedsnr" v="469330" />
	</node>
	<node id="-486495" lat="60.7064416688" lon="4.8873138897">
		<tag k="name" v="Gardsendvika" />
		<tag k="natural" v="bay" />
		<tag k="ssr:stedsnr" v="469255" />
	</node>
	<node id="-486494" lat="60.6942722212" lon="4.91418611416">
		<tag k="name" v="Vøvika" />
		<tag k="natural" v="bay" />
		<tag k="ssr:stedsnr" v="469253" />
	</node>
	<node id="-486489" lat="60.6151777813" lon="5.07245834155">
		<tag k="name" v="Blodflua" />
		<tag k="natural" v="shoal" />
		<tag k="place" v="locality" />
		<tag k="ssr:stedsnr" v="449611" />
	</node>
	<node id="-486487" lat="60.6494999963" lon="5.1099861116">
		<tag k="name" v="Revikneset" />
		<tag k="natural" v="cape" />
		<tag k="ssr:stedsnr" v="449272" />
	</node>
	<node id="-486485" lat="60.6791527801" lon="4.94168889405">
		<tag k="name" v="Hestholmen" />
		<tag k="place" v="islet" />
		<tag k="ssr:stedsnr" v="449241" />
	</node>
	<node id="-486482" lat="60.7357555543" lon="4.89862221472">
		<tag k="name" v="Høgholmen" />
		<tag k="place" v="islet" />
		<tag k="ssr:stedsnr" v="449212" />
	</node>
	<node id="-486480" lat="60.7497722211" lon="4.87801666045">
		<tag k="alt_name" v="Jibbersholmane;Jibbersholmen" />
		<tag k="name" v="Jibbesholmane" />
		<tag k="place" v="islet" />
		<tag k="ssr:stedsnr" v="433200" />
	</node>
	<node id="-486478" lat="60.6540417766" lon="4.99268152719">
		<tag k="alt_name" v="Træsholmen" />
		<tag k="name" v="Trædsholmen" />
		<tag k="place" v="islet" />
		<tag k="ssr:stedsnr" v="431986" />
	</node>
	<node id="-486477" lat="60.6404786528" lon="4.99144679168">
		<tag k="name" v="Maggo" />
		<tag k="place" v="islet" />
		<tag k="ssr:stedsnr" v="431974" />
	</node>
	<node id="-486475" lat="60.7220138872" lon="4.82275278418">
		<tag k="name" v="Svartskjersklakken" />
		<tag k="natural" v="shoal" />
		<tag k="place" v="locality" />
		<tag k="ssr:stedsnr" v="431875" />
	</node>
	<node id="-486474" lat="60.7327861113" lon="4.86660833528">
		<tag k="name" v="Lykta" />
		<tag k="place" v="islet" />
		<tag k="ssr:stedsnr" v="431871" />
	</node>
	<node id="-486473" lat="60.7357500031" lon="4.83945555205">
		<tag k="name" v="Kråkosen" />
		<tag k="natural" v="strait" />
		<tag k="ssr:stedsnr" v="431869" />
	</node>
	<node id="-486471" lat="60.7178277821" lon="4.86510277832">
		<tag k="alt_name" v="Forsøy" />
		<tag k="name" v="Forsøyna" />
		<tag k="place" v="island" />
		<tag k="ssr:stedsnr" v="431854" />
	</node>
	<node id="-486470" lat="60.721205553" lon="4.93257500879">
		<tag k="alt_name" v="Vågsbotnen, in;Indre Vågsbotn" />
		<tag k="name" v="Indre Vågsbotnen" />
		<tag k="natural" v="bay" />
		<tag k="ssr:stedsnr" v="431849" />
	</node>
	<node id="-486469" lat="60.7133249953" lon="5.03213610361">
		<tag k="name" v="Pino" />
		<tag k="natural" v="cape" />
		<tag k="ssr:stedsnr" v="431844" />
	</node>
	<node id="-486468" lat="60.7126388918" lon="4.90279999626">
		<tag k="name" v="Bøneset" />
		<tag k="natural" v="cape" />
		<tag k="ssr:stedsnr" v="431842" />
	</node>
	<node id="-486465" lat="60.7192222245" lon="5.03944166148">
		<tag k="name" v="Loddeflua" />
		<tag k="natural" v="shoal" />
		<tag k="place" v="locality" />
		<tag k="ssr:stedsnr" v="431830" />
	</node>
	<node id="-486463" lat="60.6964249975" lon="4.88505834104">
		<tag k="alt_name" v="Flatskjeret" />
		<tag k="fixme" v="consider seamark:type=rock or natural=shoal" />
		<tag k="name" v="Flataskjeret" />
		<tag k="place" v="islet" />
		<tag k="ssr:stedsnr" v="431818" />
	</node>
	<node id="-486457" lat="60.748599999" lon="4.84900000055">
		<tag k="name" v="Myrbærholmen" />
		<tag k="place" v="islet" />
		<tag k="ssr:stedsnr" v="267833" />
	</node>
	<node id="-486456" lat="60.6365916629" lon="4.95170000344">
		<tag k="fixme" v="consider seamark:type=rock or natural=shoal" />
		<tag k="name" v="Lamholmskjeret" />
		<tag k="place" v="islet" />
		<tag k="ssr:stedsnr" v="267676" />
	</node>
	<node id="-486455" lat="60.6955305544" lon="5.08191945249">
		<tag k="name" v="Kyrkjeholmen" />
		<tag k="place" v="islet" />
		<tag k="ssr:stedsnr" v="267217" />
	</node>
	<node id="-486454" lat="60.643580556" lon="4.99842222899">
		<tag k="fixme" v="consider seamark:type=rock or natural=shoal" />
		<tag k="name" v="Gulaskjeret" />
		<tag k="place" v="islet" />
		<tag k="ssr:stedsnr" v="267206" />
	</node>
	<node id="-486452" lat="60.6231194448" lon="5.07533332969">
		<tag k="name" v="Nordre Bogevågen" />
		<tag k="natural" v="bay" />
		<tag k="ssr:stedsnr" v="267197" />
	</node>
	<node id="-486451" lat="60.7196611072" lon="4.97203055448">
		<tag k="fixme" v="consider seamark:type=rock or natural=shoal" />
		<tag k="name" v="Treskarskjera" />
		<tag k="place" v="islet" />
		<tag k="ssr:stedsnr" v="267182" />
	</node>
	<node id="-486450" lat="60.7274972235" lon="4.88884721507">
		<tag k="name" v="Syltesundet" />
		<tag k="natural" v="strait" />
		<tag k="ssr:stedsnr" v="267176" />
	</node>
	<node id="-486447" lat="60.6351166672" lon="5.01736944477">
		<tag k="name" v="Mangersøyna" />
		<tag k="place" v="island" />
		<tag k="ssr:stedsnr" v="249967" />
	</node>
	<node id="-486446" lat="60.6274039439" lon="4.92504102345">
		<tag k="bay" v="fjord" />
		<tag k="name" v="Mangersfjorden" />
		<tag k="natural" v="bay" />
		<tag k="ssr:stedsnr" v="249958" />
	</node>
	<node id="-486445" lat="60.6113694487" lon="5.0816249989">
		<tag k="alt_name" v="Bongnestraumen" />
		<tag k="name" v="Bognestraumen" />
		<tag k="natural" v="strait" />
		<tag k="ssr:stedsnr" v="249954" />
	</node>
	<node id="-486442" lat="60.7115833323" lon="4.98516388288">
		<tag k="name" v="Norangspollen" />
		<tag k="natural" v="bay" />
		<tag k="ssr:stedsnr" v="249827" />
	</node>
	<node id="-486439" lat="60.6817305578" lon="4.93347778194">
		<tag k="name" v="Brømstøholmane" />
		<tag k="place" v="islet" />
		<tag k="ssr:stedsnr" v="249778" />
	</node>
	<node id="-486436" lat="60.6626833306" lon="4.94359999452">
		<tag k="name" v="Floskallane" />
		<tag k="natural" v="shoal" />
		<tag k="place" v="locality" />
		<tag k="ssr:stedsnr" v="249000" />
	</node>
	<node id="-486435" lat="60.6581361131" lon="4.90978888836">
		<tag k="alt_name" v="Stora Arneset" />
		<tag k="name" v="Arneset" />
		<tag k="natural" v="cape" />
		<tag k="ssr:stedsnr" v="248998" />
	</node>
	<node id="-486425" lat="60.6659055598" lon="5.08293055977">
		<tag k="alt_name" v="Snekkjevikneset" />
		<tag k="name" v="Snekkeviktangen" />
		<tag k="natural" v="cape" />
		<tag k="ssr:stedsnr" v="227571" />
	</node>
	<node id="-486420" lat="60.6158527744" lon="5.07909444151">
		<tag k="name" v="Straumsvika" />
		<tag k="natural" v="bay" />
		<tag k="ssr:stedsnr" v="227525" />
	</node>
	<node id="-486418" lat="60.7221944452" lon="4.90006667524">
		<tag k="name" v="Sjelkvika" />
		<tag k="natural" v="bay" />
		<tag k="ssr:stedsnr" v="227510" />
	</node>
	<node id="-486417" lat="60.7255861116" lon="4.92309444361">
		<tag k="name" v="Vaulen" />
		<tag k="natural" v="bay" />
		<tag k="ssr:stedsnr" v="227509" />
	</node>
	<node id="-486416" lat="60.7283888932" lon="4.90748611775">
		<tag k="name" v="Hamrevika" />
		<tag k="natural" v="bay" />
		<tag k="ssr:stedsnr" v="227507" />
	</node>
	<node id="-486415" lat="60.7130805556" lon="4.91732221409">
		<tag k="name" v="Hanevika" />
		<tag k="natural" v="bay" />
		<tag k="ssr:stedsnr" v="227501" />
	</node>
	<node id="-486414" lat="60.7230000042" lon="4.93051389248">
		<tag k="name" v="Klubben" />
		<tag k="natural" v="cape" />
		<tag k="ssr:stedsnr" v="227491" />
	</node>
	<node id="-486412" lat="60.7292888916" lon="4.96616666675">
		<tag k="name" v="Bøneset" />
		<tag k="natural" v="cape" />
		<tag k="ssr:stedsnr" v="227457" />
	</node>
	<node id="-486408" lat="60.7002500006" lon="4.89550000062">
		<tag k="name" v="Grøningen" />
		<tag k="natural" v="cape" />
		<tag k="ssr:stedsnr" v="227355" />
	</node>
	<node id="-486406" lat="60.6542249956" lon="4.91615277788">
		<tag k="alt_name" v="Litlegrøningen" />
		<tag k="name" v="Litle Grøningen" />
		<tag k="place" v="island" />
		<tag k="ssr:stedsnr" v="227313" />
	</node>
	<node id="-486404" lat="60.6615416659" lon="4.96650554975">
		<tag k="name" v="Vassvika" />
		<tag k="natural" v="bay" />
		<tag k="ssr:stedsnr" v="227289" />
	</node>
	<node id="-486403" lat="60.6353944481" lon="4.96184166448">
		<tag k="name" v="Avløypet" />
		<tag k="natural" v="cape" />
		<tag k="ssr:stedsnr" v="227279" />
	</node>
	<node id="-486402" lat="60.7492805531" lon="4.87519721376">
		<tag k="name" v="Furholmen" />
		<tag k="place" v="islet" />
		<tag k="ssr:stedsnr" v="227224" />
	</node>
	<node id="-486401" lat="60.722674997" lon="4.87545277653">
		<tag k="bay" v="fjord" />
		<tag k="name" v="Dyrøyosen" />
		<tag k="natural" v="bay" />
		<tag k="ssr:stedsnr" v="227218" />
	</node>
	<node id="-486400" lat="60.7138194413" lon="4.86953611458">
		<tag k="name" v="Knavågen" />
		<tag k="natural" v="bay" />
		<tag k="ssr:stedsnr" v="227219" />
	</node>
	<node id="-486392" lat="60.6076805565" lon="5.14641110782">
		<tag k="name" v="Vågsneset" />
		<tag k="natural" v="cape" />
		<tag k="ssr:stedsnr" v="226792" />
	</node>
	<node id="-486390" lat="60.7253861111" lon="4.99767222577">
		<tag k="name" v="Austre Saltvika" />
		<tag k="natural" v="bay" />
		<tag k="ssr:stedsnr" v="226753" />
	</node>
	<node id="-486389" lat="60.7131055523" lon="5.03379445328">
		<tag k="name" v="Skarpneset" />
		<tag k="natural" v="cape" />
		<tag k="ssr:stedsnr" v="226744" />
	</node>
	<node id="-486388" lat="60.7127388865" lon="5.03198054731">
		<tag k="name" v="Notneset" />
		<tag k="natural" v="cape" />
		<tag k="ssr:stedsnr" v="226742" />
	</node>
	<node id="-486386" lat="60.7186833318" lon="5.0187750048">
		<tag k="name" v="Djuvika" />
		<tag k="natural" v="bay" />
		<tag k="ssr:stedsnr" v="226718" />
	</node>
	<node id="-486384" lat="60.7158666637" lon="4.979119439">
		<tag k="name" v="Kjerringvika" />
		<tag k="natural" v="bay" />
		<tag k="ssr:stedsnr" v="226498" />
	</node>
	<node id="-486378" lat="60.6811916662" lon="4.93343887988">
		<tag k="name" v="Brømstølholmane" />
		<tag k="place" v="islet" />
		<tag k="ssr:stedsnr" v="226369" />
	</node>
	<node id="-486376" lat="60.7457555577" lon="4.83002499825">
		<tag k="name" v="Sandholmosen" />
		<tag k="natural" v="strait" />
		<tag k="ssr:stedsnr" v="207828" />
	</node>
	<node id="-486372" lat="60.6655777798" lon="5.10767778101">
		<tag k="name" v="Gulenakken" />
		<tag k="natural" v="cape" />
		<tag k="ssr:stedsnr" v="206258" />
	</node>
	<node id="-486371" lat="60.6506111111" lon="5.00923056439">
		<tag k="name" v="Naustneset" />
		<tag k="natural" v="cape" />
		<tag k="ssr:stedsnr" v="206254" />
	</node>
	<node id="-486369" lat="60.7320249997" lon="4.9343666594">
		<tag k="alt_name" v="Lokkevågen" />
		<tag k="name" v="Lokkevågane" />
		<tag k="natural" v="bay" />
		<tag k="ssr:stedsnr" v="206212" />
	</node>
	<node id="-486368" lat="60.7345888922" lon="4.84825832702">
		<tag k="fixme" v="consider seamark:type=rock or natural=shoal" />
		<tag k="name" v="Bøskjeret" />
		<tag k="place" v="islet" />
		<tag k="ssr:stedsnr" v="206208" />
	</node>
	<node id="-486366" lat="60.7107194469" lon="4.87416667322">
		<tag k="name" v="Hestholmvågen" />
		<tag k="natural" v="bay" />
		<tag k="ssr:stedsnr" v="206207" />
	</node>
	<node id="-486361" lat="60.6389194468" lon="4.94266944454">
		<tag k="alt_name" v="Lamholmen, nordre" />
		<tag k="name" v="Nordre Lamholmen" />
		<tag k="place" v="islet" />
		<tag k="ssr:stedsnr" v="188977" />
	</node>
	<node id="-486359" lat="60.6311111101" lon="4.99705555531">
		<tag k="name" v="Toskeflua" />
		<tag k="natural" v="shoal" />
		<tag k="place" v="locality" />
		<tag k="ssr:stedsnr" v="188973" />
	</node>
	<node id="-486358" lat="60.6131638877" lon="5.06437778366">
		<tag k="fixme" v="multiple name tags, choose one and add the other to alt_name" />
		<tag k="name" v="Nordre Bongnetangen;Øytangen" />
		<tag k="natural" v="cape" />
		<tag k="ssr:stedsnr" v="188970" />
	</node>
	<node id="-486357" lat="60.7451083317" lon="4.91918611786">
		<tag k="bay" v="fjord" />
		<tag k="name" v="Hoplandsosen" />
		<tag k="natural" v="bay" />
		<tag k="ssr:stedsnr" v="188895" />
	</node>
	<node id="-486356" lat="60.7476555527" lon="4.83142776944">
		<tag k="alt_name" v="Sandholmen" />
		<tag k="name" v="Sandholmane" />
		<tag k="place" v="islet" />
		<tag k="ssr:stedsnr" v="188884" />
	</node>
	<node id="-486355" lat="60.7174527783" lon="4.90615000566">
		<tag k="alt_name" v="Spadholmen" />
		<tag k="name" v="Bergholmen" />
		<tag k="place" v="islet" />
		<tag k="ssr:stedsnr" v="188854" />
	</node>
	<node id="-486354" lat="60.7170777779" lon="4.88015555549">
		<tag k="name" v="Hestøyna" />
		<tag k="place" v="islet" />
		<tag k="ssr:stedsnr" v="188852" />
	</node>
	<node id="-486352" lat="60.6941999963" lon="4.91125277261">
		<tag k="bay" v="fjord" />
		<tag k="name" v="Kobbevågen" />
		<tag k="natural" v="bay" />
		<tag k="ssr:stedsnr" v="188834" />
	</node>
	<node id="-486351" lat="60.694011112" lon="4.89136389599">
		<tag k="name" v="Stokkneset" />
		<tag k="natural" v="cape" />
		<tag k="ssr:stedsnr" v="188833" />
	</node>
	<node id="-486350" lat="60.7015194483" lon="5.06489999751">
		<tag k="name" v="Langholmen" />
		<tag k="place" v="islet" />
		<tag k="ssr:stedsnr" v="188828" />
	</node>
	<node id="-486349" lat="60.7059583291" lon="5.04506110376">
		<tag k="alt_name" v="Vallersvågen, s;Søre Vallersvåg" />
		<tag k="name" v="Søre Vallersvågen" />
		<tag k="natural" v="bay" />
		<tag k="ssr:stedsnr" v="188827" />
	</node>
	<node id="-486348" lat="60.7013194427" lon="4.88518333424">
		<tag k="name" v="Skaget" />
		<tag k="natural" v="cape" />
		<tag k="ssr:stedsnr" v="188823" />
	</node>
	<node id="-486344" lat="60.6923166685" lon="4.91352777992">
		<tag k="name" v="Grønholmen" />
		<tag k="place" v="islet" />
		<tag k="ssr:stedsnr" v="188813" />
	</node>
	<node id="-486334" lat="60.6244194473" lon="5.17020278127">
		<tag k="name" v="Solheimsvika" />
		<tag k="natural" v="bay" />
		<tag k="ssr:stedsnr" v="166724" />
	</node>
	<node id="-486333" lat="60.6060861073" lon="5.14176943599">
		<tag k="name" v="Buvika" />
		<tag k="natural" v="bay" />
		<tag k="ssr:stedsnr" v="166721" />
	</node>
	<node id="-486330" lat="60.7253416626" lon="5.02856388367">
		<tag k="name" v="Nordreholmen" />
		<tag k="place" v="islet" />
		<tag k="ssr:stedsnr" v="166688" />
	</node>
	<node id="-486316" lat="60.6396027775" lon="5.00748889681">
		<tag k="name" v="Krabbestraumen" />
		<tag k="natural" v="bay" />
		<tag k="ssr:stedsnr" v="166582" />
	</node>
	<node id="-486306" lat="60.7300250031" lon="4.9082138816">
		<tag k="name" v="Klentången" />
		<tag k="natural" v="cape" />
		<tag k="ssr:stedsnr" v="166495" />
	</node>
	<node id="-486305" lat="60.7183138929" lon="4.91058889355">
		<tag k="name" v="Kjenestangen" />
		<tag k="natural" v="cape" />
		<tag k="ssr:stedsnr" v="166491" />
	</node>
	<node id="-486303" lat="60.729766668" lon="4.97281388304">
		<tag k="name" v="Kåteneset" />
		<tag k="natural" v="cape" />
		<tag k="ssr:stedsnr" v="166488" />
	</node>
	<node id="-486300" lat="60.7286138929" lon="4.96613055679">
		<tag k="name" v="Bjørnevika" />
		<tag k="natural" v="bay" />
		<tag k="ssr:stedsnr" v="166478" />
	</node>
	<node id="-486299" lat="60.7288138847" lon="4.97695277027">
		<tag k="name" v="Klubben" />
		<tag k="natural" v="cape" />
		<tag k="ssr:stedsnr" v="166475" />
	</node>
	<node id="-486297" lat="60.6716166626" lon="4.94413888584">
		<tag k="name" v="Brurneset" />
		<tag k="natural" v="cape" />
		<tag k="ssr:stedsnr" v="166418" />
	</node>
	<node id="-486295" lat="60.7161916671" lon="4.91713611384">
		<tag k="name" v="Labbesneset" />
		<tag k="natural" v="cape" />
		<tag k="ssr:stedsnr" v="166392" />
	</node>
	<node id="-486294" lat="60.7010777822" lon="4.88903611394">
		<tag k="name" v="Hattevika" />
		<tag k="natural" v="bay" />
		<tag k="ssr:stedsnr" v="166379" />
	</node>
	<node id="-486288" lat="60.6661972246" lon="4.92075833181">
		<tag k="name" v="Lamvågen" />
		<tag k="natural" v="bay" />
		<tag k="ssr:stedsnr" v="166308" />
	</node>
	<node id="-486287" lat="60.7177916644" lon="4.85597499578">
		<tag k="fixme" v="consider seamark:type=rock or natural=shoal" />
		<tag k="name" v="Pakkeskjerene" />
		<tag k="place" v="islet" />
		<tag k="ssr:stedsnr" v="166299" />
	</node>
	<node id="-486286" lat="60.6572333371" lon="4.98411666332">
		<tag k="name" v="Djuvika" />
		<tag k="natural" v="bay" />
		<tag k="ssr:stedsnr" v="166287" />
	</node>
	<node id="-486283" lat="60.6530805541" lon="4.9409166667">
		<tag k="name" v="Risneset" />
		<tag k="natural" v="cape" />
		<tag k="ssr:stedsnr" v="166271" />
	</node>
	<node id="-486277" lat="60.6115833313" lon="5.08595277787">
		<tag k="alt_name" v="Skutevika" />
		<tag k="name" v="Skutevik" />
		<tag k="natural" v="bay" />
		<tag k="ssr:stedsnr" v="145621" />
	</node>
	<node id="-486276" lat="60.6672722261" lon="4.91878333552">
		<tag k="name" v="Skotsholmane" />
		<tag k="place" v="islet" />
		<tag k="ssr:stedsnr" v="145237" />
	</node>
	<node id="-486274" lat="60.6494611115" lon="4.96362777394">
		<tag k="alt_name" v="Toskasundet" />
		<tag k="name" v="Toskesundet" />
		<tag k="natural" v="strait" />
		<tag k="ssr:stedsnr" v="127994" />
	</node>
	<node id="-486273" lat="60.6520805567" lon="4.93786389308">
		<tag k="alt_name" v="Uttoskevågen" />
		<tag k="name" v="Uttoskavågen" />
		<tag k="natural" v="bay" />
		<tag k="ssr:stedsnr" v="127992" />
	</node>
	<node id="-486272" lat="60.6473305557" lon="4.98960278681">
		<tag k="name" v="Furholmen" />
		<tag k="place" v="islet" />
		<tag k="ssr:stedsnr" v="127979" />
	</node>
	<node id="-486271" lat="60.6503361123" lon="4.97831389112">
		<tag k="fixme" v="consider seamark:type=rock or natural=shoal" />
		<tag k="name" v="Nonskjeret" />
		<tag k="place" v="islet" />
		<tag k="ssr:stedsnr" v="127978" />
	</node>
	<node id="-486268" lat="60.7227694425" lon="4.86209999362">
		<tag k="name" v="Gullholmen" />
		<tag k="place" v="islet" />
		<tag k="ssr:stedsnr" v="127868" />
	</node>
	<node id="-486267" lat="60.7380555557" lon="4.90431111782">
		<tag k="bay" v="fjord" />
		<tag k="name" v="Storevågen" />
		<tag k="natural" v="bay" />
		<tag k="ssr:stedsnr" v="127861" />
	</node>
	<node id="-486266" lat="60.6565249982" lon="4.99285555668">
		<tag k="name" v="Kvalvika" />
		<tag k="natural" v="bay" />
		<tag k="ssr:stedsnr" v="127800" />
	</node>
	<node id="-486265" lat="60.7027250022" lon="4.9130499983">
		<tag k="name" v="Skorpo" />
		<tag k="place" v="islet" />
		<tag k="ssr:stedsnr" v="127826" />
	</node>
	<node id="-486264" lat="60.6798444431" lon="4.94777499423">
		<tag k="name" v="Kuvågen" />
		<tag k="natural" v="bay" />
		<tag k="ssr:stedsnr" v="127817" />
	</node>
	<node id="-486262" lat="60.6862055587" lon="4.92306667533">
		<tag k="name" v="Byngjo" />
		<tag k="natural" v="cape" />
		<tag k="ssr:stedsnr" v="127807" />
	</node>
	<node id="-486261" lat="60.6356999967" lon="5.15196389477">
		<tag k="name" v="Lyseknappen" />
		<tag k="natural" v="cape" />
		<tag k="ssr:stedsnr" v="127226" />
	</node>
	<node id="-486260" lat="60.6267500025" lon="5.17903333059">
		<tag k="name" v="Radsundet" />
		<tag k="natural" v="strait" />
		<tag k="ssr:stedsnr" v="127225" />
	</node>
	<node id="-486250" lat="60.6343027789" lon="5.02159166794">
		<tag k="name" v="Halvarholet" />
		<tag k="natural" v="bay" />
		<tag k="ssr:stedsnr" v="106571" />
	</node>
	<node id="-486249" lat="60.6547027803" lon="5.09891111854">
		<tag k="name" v="Hopen" />
		<tag k="natural" v="bay" />
		<tag k="ssr:stedsnr" v="106568" />
	</node>
	<node id="-486246" lat="60.6531361136" lon="5.10809722775">
		<tag k="name" v="Hagardsvika" />
		<tag k="natural" v="bay" />
		<tag k="ssr:stedsnr" v="106559" />
	</node>
	<node id="-486245" lat="60.6652444417" lon="5.07974444982">
		<tag k="name" v="Snekkevika" />
		<tag k="natural" v="bay" />
		<tag k="ssr:stedsnr" v="106555" />
	</node>
	<node id="-486243" lat="60.6106972259" lon="5.06357222654">
		<tag k="name" v="Sjåfluranen" />
		<tag k="natural" v="cape" />
		<tag k="ssr:stedsnr" v="106520" />
	</node>
	<node id="-486241" lat="60.6071833344" lon="5.09954444148">
		<tag k="name" v="Naustvika" />
		<tag k="natural" v="bay" />
		<tag k="ssr:stedsnr" v="106504" />
	</node>
	<node id="-486240" lat="60.6214083366" lon="5.07838055571">
		<tag k="name" v="Sørevågen" />
		<tag k="natural" v="bay" />
		<tag k="ssr:stedsnr" v="106501" />
	</node>
	<node id="-486239" lat="60.6251861139" lon="5.06970278269">
		<tag k="name" v="Morkevika" />
		<tag k="natural" v="bay" />
		<tag k="ssr:stedsnr" v="106500" />
	</node>
	<node id="-486238" lat="60.7292305524" lon="4.90586110463">
		<tag k="name" v="Vassvika" />
		<tag k="natural" v="bay" />
		<tag k="ssr:stedsnr" v="106494" />
	</node>
	<node id="-486237" lat="60.7207166677" lon="4.90521111807">
		<tag k="name" v="Sjenholmen" />
		<tag k="place" v="islet" />
		<tag k="ssr:stedsnr" v="106487" />
	</node>
	<node id="-486236" lat="60.7199972212" lon="4.90526667189">
		<tag k="name" v="Søre Langholmen" />
		<tag k="place" v="islet" />
		<tag k="ssr:stedsnr" v="106484" />
	</node>
	<node id="-486234" lat="60.7231805581" lon="4.96441943886">
		<tag k="name" v="Bogen" />
		<tag k="natural" v="bay" />
		<tag k="ssr:stedsnr" v="106462" />
	</node>
	<node id="-486232" lat="60.6053694457" lon="5.07863888465">
		<tag k="name" v="Sundet" />
		<tag k="natural" v="bay" />
		<tag k="ssr:stedsnr" v="106431" />
	</node>
	<node id="-486227" lat="60.6550888906" lon="4.91206111691">
		<tag k="name" v="Steinholmane" />
		<tag k="place" v="islet" />
		<tag k="ssr:stedsnr" v="106302" />
	</node>
	<node id="-486226" lat="60.6532500038" lon="4.91909722762">
		<tag k="name" v="Store Grøningen" />
		<tag k="place" v="island" />
		<tag k="ssr:stedsnr" v="106298" />
	</node>
	<node id="-486225" lat="60.7024277745" lon="4.91115000552">
		<tag k="name" v="Vestre Skorpesundet" />
		<tag k="natural" v="strait" />
		<tag k="ssr:stedsnr" v="106253" />
	</node>
	<node id="-486224" lat="60.7012833348" lon="4.89827777504">
		<tag k="name" v="Søre Heimvika" />
		<tag k="natural" v="bay" />
		<tag k="ssr:stedsnr" v="106252" />
	</node>
	<node id="-486223" lat="60.7418388898" lon="4.83275555076">
		<tag k="name" v="Heskita" />
		<tag k="place" v="islet" />
		<tag k="ssr:stedsnr" v="106218" />
	</node>
	<node id="-486222" lat="60.7440000005" lon="4.84601943889">
		<tag k="fixme" v="consider seamark:type=rock or natural=shoal" />
		<tag k="name" v="Magneskjera" />
		<tag k="place" v="islet" />
		<tag k="ssr:stedsnr" v="106194" />
	</node>
	<node id="-486221" lat="60.6434006357" lon="5.13391919592">
		<tag k="name" v="Sørevika" />
		<tag k="natural" v="bay" />
		<tag k="ssr:stedsnr" v="105836" />
	</node>
	<node id="-486220" lat="60.6387472196" lon="5.11736388986">
		<tag k="alt_name" v="Taulsvågen" />
		<tag k="name" v="Taulevågen" />
		<tag k="natural" v="bay" />
		<tag k="ssr:stedsnr" v="105832" />
	</node>
	<node id="-486218" lat="60.640797562" lon="5.13818468664">
		<tag k="name" v="Tolleshaugneset" />
		<tag k="natural" v="cape" />
		<tag k="ssr:stedsnr" v="105820" />
	</node>
	<node id="-486210" lat="60.7225638932" lon="5.02971944055">
		<tag k="name" v="Småneset" />
		<tag k="natural" v="cape" />
		<tag k="ssr:stedsnr" v="105719" />
	</node>
	<node id="-486209" lat="60.7223583376" lon="5.02836944471">
		<tag k="name" v="Vågen" />
		<tag k="natural" v="bay" />
		<tag k="ssr:stedsnr" v="105717" />
	</node>
	<node id="-486203" lat="60.7289861096" lon="4.97491110249">
		<tag k="name" v="Endrevika" />
		<tag k="natural" v="bay" />
		<tag k="ssr:stedsnr" v="105473" />
	</node>
	<node id="-486202" lat="60.7117138933" lon="4.98478333247">
		<tag k="name" v="Kylleren" />
		<tag k="natural" v="bay" />
		<tag k="ssr:stedsnr" v="105465" />
	</node>
	<node id="-486191" lat="60.7445500005" lon="4.91931666015">
		<tag k="name" v="Kråka" />
		<tag k="place" v="islet" />
		<tag k="ssr:stedsnr" v="85803" />
	</node>
	<node id="-486190" lat="60.6594888874" lon="4.90535278024">
		<tag k="name" v="Arnesflua" />
		<tag k="natural" v="shoal" />
		<tag k="place" v="locality" />
		<tag k="ssr:stedsnr" v="85636" />
	</node>
	<node id="-486189" lat="60.6482694442" lon="5.11500554924">
		<tag k="name" v="Mjåsundet" />
		<tag k="natural" v="strait" />
		<tag k="ssr:stedsnr" v="85219" />
	</node>
	<node id="-486188" lat="60.687847221" lon="4.92104999779">
		<tag k="name" v="Søre Byngevågen" />
		<tag k="natural" v="bay" />
		<tag k="ssr:stedsnr" v="85191" />
	</node>
	<node id="-486187" lat="60.6518416705" lon="5.00081945176">
		<tag k="fixme" v="consider seamark:type=rock or natural=shoal" />
		<tag k="name" v="Flatskjeret" />
		<tag k="place" v="islet" />
		<tag k="ssr:stedsnr" v="85186" />
	</node>
	<node id="-486186" lat="60.7147888934" lon="4.89074722924">
		<tag k="name" v="Bøknappen" />
		<tag k="place" v="islet" />
		<tag k="ssr:stedsnr" v="85172" />
	</node>
	<node id="-486185" lat="60.7215472224" lon="4.83337222028">
		<tag k="name" v="Grunneskallen" />
		<tag k="natural" v="shoal" />
		<tag k="place" v="locality" />
		<tag k="ssr:stedsnr" v="85161" />
	</node>
	<node id="-486180" lat="60.648344442" lon="4.94419444455">
		<tag k="name" v="Toska" />
		<tag k="place" v="island" />
		<tag k="ssr:stedsnr" v="67995" />
	</node>
	<node id="-486179" lat="60.6462055528" lon="5.00120555901">
		<tag k="alt_name" v="Slotsholmen" />
		<tag k="name" v="Slottsholmane" />
		<tag k="place" v="islet" />
		<tag k="ssr:stedsnr" v="67985" />
	</node>
	<node id="-486178" lat="60.6312861085" lon="5.04170278057">
		<tag k="name" v="Buneset" />
		<tag k="natural" v="cape" />
		<tag k="ssr:stedsnr" v="67971" />
	</node>
	<node id="-486177" lat="60.7245666654" lon="5.02860000085">
		<tag k="name" v="Leiholmane" />
		<tag k="place" v="islet" />
		<tag k="ssr:stedsnr" v="67845" />
	</node>
	<node id="-486176" lat="60.7129138862" lon="4.867516674">
		<tag k="name" v="Knappen" />
		<tag k="natural" v="cape" />
		<tag k="ssr:stedsnr" v="67844" />
	</node>
	<node id="-486175" lat="60.7145999968" lon="4.8686555526">
		<tag k="name" v="Onglesundet" />
		<tag k="natural" v="strait" />
		<tag k="ssr:stedsnr" v="67842" />
	</node>
	<node id="-486174" lat="60.7276722222" lon="4.91751389415">
		<tag k="name" v="Kjølleren" />
		<tag k="natural" v="bay" />
		<tag k="ssr:stedsnr" v="67830" />
	</node>
	<node id="-486173" lat="60.724944447" lon="4.96014721896">
		<tag k="alt_name" v="Nordangervågen" />
		<tag k="bay" v="fjord" />
		<tag k="name" v="Norangsvågen" />
		<tag k="natural" v="bay" />
		<tag k="ssr:stedsnr" v="67829" />
	</node>
	<node id="-486172" lat="60.7292138845" lon="4.94942499388">
		<tag k="name" v="Trollholmen" />
		<tag k="place" v="islet" />
		<tag k="ssr:stedsnr" v="67825" />
	</node>
	<node id="-486169" lat="60.6987999971" lon="4.90590000539">
		<tag k="name" v="Kvalheimsneset" />
		<tag k="natural" v="cape" />
		<tag k="ssr:stedsnr" v="67805" />
	</node>
	<node id="-486167" lat="60.68917778" lon="4.91222776957">
		<tag k="name" v="Lyngholmen" />
		<tag k="place" v="islet" />
		<tag k="ssr:stedsnr" v="67788" />
	</node>
	<node id="-486159" lat="60.6602777762" lon="4.90566945255">
		<tag k="alt_name" v="Kvitsandbåen" />
		<tag k="name" v="Kvitsandboen" />
		<tag k="natural" v="shoal" />
		<tag k="place" v="locality" />
		<tag k="ssr:stedsnr" v="66998" />
	</node>
	<node id="-486158" lat="60.6666992942" lon="4.89895348379">
		<tag k="name" v="Steinholmflua" />
		<tag k="natural" v="shoal" />
		<tag k="place" v="locality" />
		<tag k="ssr:stedsnr" v="66996" />
	</node>
	<node id="-486157" lat="60.668877781" lon="4.89878611148">
		<tag k="name" v="Steinholmen" />
		<tag k="place" v="islet" />
		<tag k="ssr:stedsnr" v="66992" />
	</node>
	<node id="-486156" lat="60.671374999" lon="4.92905000438">
		<tag k="name" v="Langholmflua" />
		<tag k="natural" v="shoal" />
		<tag k="place" v="locality" />
		<tag k="ssr:stedsnr" v="66991" />
	</node>
	<node id="-486155" lat="60.6736444419" lon="5.08212500906">
		<tag k="alt_name" v="Askelandstangen" />
		<tag k="name" v="Askelandsneset" />
		<tag k="natural" v="cape" />
		<tag k="ssr:stedsnr" v="66750" />
	</node>
	<node id="-486148" lat="60.6980722204" lon="5.06863334174">
		<tag k="name" v="Rådmannsøya" />
		<tag k="place" v="island" />
		<tag k="ssr:stedsnr" v="45597" />
	</node>
	<node id="-486146" lat="60.6995861069" lon="5.05263611328">
		<tag k="name" v="Skjelvika" />
		<tag k="natural" v="bay" />
		<tag k="ssr:stedsnr" v="45592" />
	</node>
	<node id="-486137" lat="60.7340273337" lon="4.94438042823">
		<tag k="name" v="Verholmen" />
		<tag k="place" v="islet" />
		<tag k="ssr:stedsnr" v="45394" />
	</node>
	<node id="-486136" lat="60.721069448" lon="4.93265833092">
		<tag k="name" v="Indre Vågsbotn" />
		<tag k="natural" v="bay" />
		<tag k="ssr:stedsnr" v="45382" />
	</node>
	<node id="-486135" lat="60.6973472191" lon="4.88621388541">
		<tag k="name" v="Rekevika" />
		<tag k="natural" v="bay" />
		<tag k="ssr:stedsnr" v="45370" />
	</node>
	<node id="-486134" lat="60.6672194425" lon="4.90274165785">
		<tag k="name" v="Kramvågen" />
		<tag k="natural" v="bay" />
		<tag k="ssr:stedsnr" v="45305" />
	</node>
	<node id="-486133" lat="60.7190527819" lon="4.87740000827">
		<tag k="name" v="Svelingsundet" />
		<tag k="natural" v="strait" />
		<tag k="ssr:stedsnr" v="45299" />
	</node>
	<node id="-486130" lat="60.6593216929" lon="4.98810748945">
		<tag k="name" v="Naustvågen" />
		<tag k="natural" v="bay" />
		<tag k="ssr:stedsnr" v="45284" />
	</node>
	<node id="-486128" lat="60.6450999999" lon="4.94259444499">
		<tag k="name" v="Djupekastet" />
		<tag k="natural" v="bay" />
		<tag k="ssr:stedsnr" v="45277" />
	</node>
	<node id="-486127" lat="60.7082527795" lon="4.92616388428">
		<tag k="name" v="Hestneset" />
		<tag k="natural" v="cape" />
		<tag k="ssr:stedsnr" v="45262" />
	</node>
	<node id="-486126" lat="60.7061944471" lon="4.91707221722">
		<tag k="name" v="Sjoarneset" />
		<tag k="natural" v="cape" />
		<tag k="ssr:stedsnr" v="45256" />
	</node>
	<node id="-486125" lat="60.737105559" lon="4.83871944791">
		<tag k="fixme" v="consider seamark:type=rock or natural=shoal" />
		<tag k="name" v="Kråkeskjeret" />
		<tag k="place" v="islet" />
		<tag k="ssr:stedsnr" v="45218" />
	</node>
	<node id="-486124" lat="60.7292388885" lon="4.87095833329">
		<tag k="name" v="Belarøysundet" />
		<tag k="natural" v="strait" />
		<tag k="ssr:stedsnr" v="45212" />
	</node>
	<node id="-486123" lat="60.726494441" lon="4.86277777291">
		<tag k="name" v="Tretholmen" />
		<tag k="place" v="islet" />
		<tag k="ssr:stedsnr" v="45206" />
	</node>
	<node id="-486122" lat="60.7200250031" lon="4.8558527735">
		<tag k="name" v="Skage" />
		<tag k="natural" v="cape" />
		<tag k="ssr:stedsnr" v="45207" />
	</node>
	<node id="-486121" lat="60.7279277772" lon="4.85455833517">
		<tag k="name" v="Bøøysundet" />
		<tag k="natural" v="strait" />
		<tag k="ssr:stedsnr" v="45203" />
	</node>
	<node id="-486115" lat="60.5898833322" lon="5.17705277222">
		<tag k="name" v="Tømmervika" />
		<tag k="natural" v="bay" />
		<tag k="ssr:stedsnr" v="44769" />
	</node>
	<node id="-486113" lat="60.6065361097" lon="5.14766111507">
		<tag k="fixme" v="consider seamark:type=rock or natural=shoal" />
		<tag k="name" v="Nothusskjeret" />
		<tag k="place" v="islet" />
		<tag k="ssr:stedsnr" v="44744" />
	</node>
	<node id="-486108" lat="60.7208833304" lon="5.01572221545">
		<tag k="fixme" v="consider seamark:type=rock or natural=shoal" />
		<tag k="name" v="Hageskjeret" />
		<tag k="place" v="islet" />
		<tag k="ssr:stedsnr" v="44701" />
	</node>
	<node id="-486098" lat="60.6025277791" lon="5.1545722299">
		<tag k="fixme" v="consider seamark:type=rock or natural=shoal" />
		<tag k="name" v="Skutebergskjeret" />
		<tag k="place" v="islet" />
		<tag k="ssr:stedsnr" v="25663" />
	</node>
	<node id="-486097" lat="60.5984138877" lon="5.16253888598">
		<tag k="alt_name" v="Furevika" />
		<tag k="name" v="Furevik" />
		<tag k="natural" v="bay" />
		<tag k="ssr:stedsnr" v="25662" />
	</node>
	<node id="-486096" lat="60.6065333353" lon="5.12204444366">
		<tag k="name" v="Stolane" />
		<tag k="natural" v="cape" />
		<tag k="ssr:stedsnr" v="25641" />
	</node>
	<node id="-486095" lat="60.6562388865" lon="4.90900834085">
		<tag k="fixme" v="consider seamark:type=rock or natural=shoal" />
		<tag k="name" v="Grøningskjeret" />
		<tag k="place" v="islet" />
		<tag k="ssr:stedsnr" v="24683" />
	</node>
	<node id="-486094" lat="60.6571555515" lon="5.09812778605">
		<tag k="name" v="Storholmen" />
		<tag k="place" v="islet" />
		<tag k="ssr:stedsnr" v="24254" />
	</node>
	<node id="-486093" lat="60.7114166671" lon="5.03824722227">
		<tag k="name" v="Juneset" />
		<tag k="natural" v="cape" />
		<tag k="ssr:stedsnr" v="24242" />
	</node>
	<node id="-486092" lat="60.7287638882" lon="4.88238611912">
		<tag k="name" v="Håholmen" />
		<tag k="place" v="islet" />
		<tag k="ssr:stedsnr" v="24184" />
	</node>
	<node id="-486091" lat="60.6346250018" lon="5.15640000161">
		<tag k="fixme" v="consider seamark:type=rock or natural=shoal" />
		<tag k="name" v="Kobbaskjeret" />
		<tag k="place" v="islet" />
		<tag k="ssr:stedsnr" v="23307" />
	</node>
	<node id="-486089" lat="60.6789027742" lon="5.07382500638">
		<tag k="name" v="Tangen" />
		<tag k="natural" v="cape" />
		<tag k="ssr:stedsnr" v="7065" />
	</node>
	<node id="-486088" lat="60.645136109" lon="4.93806110564">
		<tag k="alt_name" v="Endersholmen" />
		<tag k="name" v="Innersholmen" />
		<tag k="place" v="islet" />
		<tag k="ssr:stedsnr" v="6998" />
	</node>
	<node id="-486086" lat="60.6514250012" lon="5.00311944317">
		<tag k="name" v="Byrkjelandsvågen" />
		<tag k="natural" v="bay" />
		<tag k="ssr:stedsnr" v="6988" />
	</node>
	<node id="-486084" lat="60.7454944401" lon="4.88466388056">
		<tag k="name" v="Småholmane" />
		<tag k="place" v="islet" />
		<tag k="ssr:stedsnr" v="6882" />
	</node>
	<node id="-486083" lat="60.7364111147" lon="4.85878054949">
		<tag k="name" v="Vardøyna" />
		<tag k="place" v="island" />
		<tag k="ssr:stedsnr" v="6851" />
	</node>
	<node id="-486082" lat="60.7389444464" lon="4.83865555656">
		<tag k="alt_name" v="Kråka" />
		<tag k="name" v="Kråko" />
		<tag k="place" v="islet" />
		<tag k="ssr:stedsnr" v="6852" />
	</node>
	<node id="-486081" lat="60.7235916646" lon="5.01003889279">
		<tag k="name" v="Fesøysundet" />
		<tag k="natural" v="strait" />
		<tag k="ssr:stedsnr" v="6840" />
	</node>
	<node id="-486080" lat="60.7236027786" lon="4.92775555876">
		<tag k="alt_name" v="Vågsbotnen, yt;Ytre Vågsbotn" />
		<tag k="name" v="Ytre Vågsbotnen" />
		<tag k="natural" v="bay" />
		<tag k="ssr:stedsnr" v="6837" />
	</node>
	<node id="-486078" lat="60.6925277802" lon="4.92890833468">
		<tag k="bay" v="fjord" />
		<tag k="name" v="Makrellvågen" />
		<tag k="natural" v="bay" />
		<tag k="ssr:stedsnr" v="6806" />
	</node>
	<node id="-486076" lat="60.6192555518" lon="5.18310833755">
		<tag k="name" v="Salsneset" />
		<tag k="natural" v="cape" />
		<tag k="ssr:stedsnr" v="267495" />
	</node>
	<node id="-486070" lat="60.594183335" lon="5.15177777928">
		<tag k="bay" v="fjord" />
		<tag k="name" v="Radfjorden" />
		<tag k="natural" v="bay" />
		<tag k="ssr:stedsnr" v="552027" />
	</node>
	<node id="-486068" lat="60.7021436629" lon="4.88162499259">
		<tag k="name" v="Kvolmeneset" />
		<tag k="natural" v="cape" />
		<tag k="ssr:stedsnr" v="1072092" />
	</node>
	<node id="-486067" lat="60.6969039019" lon="4.90258248741">
		<tag k="name" v="Kvolmesundvågen" />
		<tag k="natural" v="bay" />
		<tag k="ssr:stedsnr" v="1072091" />
	</node>
	<node id="-486066" lat="60.7249336103" lon="5.04983825279">
		<tag k="bay" v="fjord" />
		<tag k="name" v="Lurefjorden" />
		<tag k="natural" v="bay" />
		<tag k="ssr:stedsnr" v="287590" />
	</node>
	<node id="-486063" lat="60.6049583294" lon="5.13429166308">
		<tag k="name" v="Knappen" />
		<tag k="natural" v="cape" />
		<tag k="ssr:stedsnr" v="895710" />
	</node>
	<node id="-486059" lat="60.7097611086" lon="5.04046389438">
		<tag k="name" v="Mortevågen" />
		<tag k="natural" v="bay" />
		<tag k="ssr:stedsnr" v="895614" />
	</node>
	<node id="-486056" lat="60.6454916676" lon="5.11427500491">
		<tag k="name" v="Grønholmen" />
		<tag k="place" v="islet" />
		<tag k="ssr:stedsnr" v="895571" />
	</node>
	<node id="-486051" lat="60.6128305602" lon="5.0739750039">
		<tag k="name" v="Ranen" />
		<tag k="natural" v="cape" />
		<tag k="ssr:stedsnr" v="895500" />
	</node>
	<node id="-486048" lat="60.6132805512" lon="5.07184165961">
		<tag k="name" v="Ranevika" />
		<tag k="natural" v="bay" />
		<tag k="ssr:stedsnr" v="895494" />
	</node>
	<node id="-486045" lat="60.6061472233" lon="5.08677222628">
		<tag k="name" v="Søre Øytangen" />
		<tag k="natural" v="cape" />
		<tag k="ssr:stedsnr" v="895493" />
	</node>
	<node id="-486041" lat="60.7372194416" lon="4.92268333408">
		<tag k="name" v="Jatevika" />
		<tag k="natural" v="bay" />
		<tag k="ssr:stedsnr" v="895361" />
	</node>
	<node id="-486039" lat="60.7022250032" lon="4.92001111546">
		<tag k="bay" v="fjord" />
		<tag k="name" v="Bøosen" />
		<tag k="natural" v="bay" />
		<tag k="ssr:stedsnr" v="895349" />
	</node>
	<node id="-486038" lat="60.7027805529" lon="4.89941111901">
		<tag k="name" v="Nordre Heimvika" />
		<tag k="natural" v="bay" />
		<tag k="ssr:stedsnr" v="895338" />
	</node>
	<node id="-486036" lat="60.6857111128" lon="4.92475832709">
		<tag k="name" v="Sørebyngja" />
		<tag k="natural" v="cape" />
		<tag k="ssr:stedsnr" v="895302" />
	</node>
	<node id="-486035" lat="60.6398777753" lon="4.95891110845">
		<tag k="name" v="Sømminga" />
		<tag k="natural" v="bay" />
		<tag k="ssr:stedsnr" v="895250" />
	</node>
	<node id="-486026" lat="60.6260416672" lon="5.16710833828">
		<tag k="name" v="Splintevika" />
		<tag k="natural" v="bay" />
		<tag k="ssr:stedsnr" v="894727" />
	</node>
	<node id="-486023" lat="60.7291524542" lon="4.96999686317">
		<tag k="name" v="Ildalsvika" />
		<tag k="natural" v="bay" />
		<tag k="ssr:stedsnr" v="894511" />
	</node>
	<node id="-486021" lat="60.745349999" lon="4.89816943805">
		<tag k="name" v="Rossneshavn" />
		<tag k="natural" v="bay" />
		<tag k="ssr:stedsnr" v="894465" />
	</node>
	<node id="-486017" lat="60.6749500006" lon="4.93721944878">
		<tag k="name" v="Vågeneståa" />
		<tag k="natural" v="cape" />
		<tag k="ssr:stedsnr" v="893425" />
	</node>
	<node id="-486013" lat="60.6875499958" lon="4.92210832913">
		<tag k="name" v="Byngjevågen" />
		<tag k="natural" v="bay" />
		<tag k="ssr:stedsnr" v="893327" />
	</node>
	<node id="-486000" lat="60.6470638891" lon="5.11317221801">
		<tag k="name" v="Klubben" />
		<tag k="place" v="islet" />
		<tag k="ssr:stedsnr" v="409606" />
	</node>
	<node id="-485997" lat="60.6407083308" lon="5.00719444416">
		<tag k="name" v="Rossnesbukta" />
		<tag k="natural" v="bay" />
		<tag k="ssr:stedsnr" v="409574" />
	</node>
	<node id="-485995" lat="60.6594722241" lon="5.09407500854">
		<tag k="name" v="Litleholmen" />
		<tag k="place" v="islet" />
		<tag k="ssr:stedsnr" v="409553" />
	</node>
	<node id="-485991" lat="60.6509527745" lon="5.00721110562">
		<tag k="name" v="Midtneset" />
		<tag k="natural" v="cape" />
		<tag k="ssr:stedsnr" v="409536" />
	</node>
	<node id="-485986" lat="60.7282277755" lon="4.96236110648">
		<tag k="name" v="Hola" />
		<tag k="natural" v="bay" />
		<tag k="ssr:stedsnr" v="409451" />
	</node>
	<node id="-485984" lat="60.7043416678" lon="4.91891944523">
		<tag k="name" v="Revnessundet" />
		<tag k="natural" v="strait" />
		<tag k="ssr:stedsnr" v="409368" />
	</node>
	<node id="-485983" lat="60.6936055522" lon="4.90872778401">
		<tag k="name" v="Småholmane" />
		<tag k="place" v="islet" />
		<tag k="ssr:stedsnr" v="409355" />
	</node>
	<node id="-485977" lat="60.6582416678" lon="4.98281110649">
		<tag k="name" v="Hellaneset" />
		<tag k="natural" v="cape" />
		<tag k="ssr:stedsnr" v="409299" />
	</node>
	<node id="-485976" lat="60.6659111145" lon="4.95822778421">
		<tag k="name" v="Træsvågen" />
		<tag k="natural" v="bay" />
		<tag k="ssr:stedsnr" v="409288" />
	</node>
	<node id="-485975" lat="60.6416512542" lon="4.9571397983">
		<tag k="name" v="Midthagen" />
		<tag k="place" v="islet" />
		<tag k="ssr:stedsnr" v="409286" />
	</node>
	<node id="-485974" lat="60.6374361157" lon="4.96177778244">
		<tag k="name" v="Breievika" />
		<tag k="natural" v="bay" />
		<tag k="ssr:stedsnr" v="409280" />
	</node>
	<node id="-485973" lat="60.7008916688" lon="4.88436389756">
		<tag k="name" v="Skagbukta" />
		<tag k="natural" v="bay" />
		<tag k="ssr:stedsnr" v="409267" />
	</node>
	<node id="-485972" lat="60.6419222223" lon="4.99883611552">
		<tag k="name" v="Mangersholmane" />
		<tag k="place" v="islet" />
		<tag k="ssr:stedsnr" v="409265" />
	</node>
	<node id="-485971" lat="60.7486888905" lon="4.85588610384">
		<tag k="name" v="Skarpholmen" />
		<tag k="place" v="islet" />
		<tag k="ssr:stedsnr" v="409246" />
	</node>
	<node id="-485970" lat="60.7147083324" lon="4.86619999894">
		<tag k="name" v="Anglesund" />
		<tag k="natural" v="strait" />
		<tag k="ssr:stedsnr" v="409245" />
	</node>
	<node id="-485962" lat="60.6872638871" lon="4.92537778243">
		<tag k="name" v="Breishovden" />
		<tag k="natural" v="cape" />
		<tag k="ssr:stedsnr" v="408470" />
	</node>
	<node id="-485960" lat="60.7357194479" lon="4.90059166144">
		<tag k="name" v="Melkevika" />
		<tag k="natural" v="bay" />
		<tag k="ssr:stedsnr" v="408442" />
	</node>
	<node id="-485959" lat="60.7425833294" lon="4.83903333531">
		<tag k="name" v="Store Klovning" />
		<tag k="place" v="islet" />
		<tag k="ssr:stedsnr" v="388819" />
	</node>
	<node id="-485958" lat="60.6061638874" lon="5.13506666179">
		<tag k="name" v="Kvalvika" />
		<tag k="natural" v="bay" />
		<tag k="ssr:stedsnr" v="388632" />
	</node>
	<node id="-485956" lat="60.6593861157" lon="5.09111667145">
		<tag k="name" v="Kulten" />
		<tag k="place" v="islet" />
		<tag k="ssr:stedsnr" v="388236" />
	</node>
	<node id="-485955" lat="60.664363891" lon="5.09447499253">
		<tag k="alt_name" v="Sætrevågen" />
		<tag k="name" v="Sætervågen" />
		<tag k="place" v="islet" />
		<tag k="ssr:stedsnr" v="388235" />
	</node>
	<node id="-485954" lat="60.7020250029" lon="5.05695556357">
		<tag k="name" v="Skjelvikflua" />
		<tag k="natural" v="shoal" />
		<tag k="place" v="locality" />
		<tag k="ssr:stedsnr" v="388225" />
	</node>
	<node id="-485953" lat="60.6563222245" lon="4.9985250056">
		<tag k="name" v="Skjenevik" />
		<tag k="natural" v="bay" />
		<tag k="ssr:stedsnr" v="388221" />
	</node>
	<node id="-485952" lat="60.6649888854" lon="4.90617499508">
		<tag k="name" v="Kvitsandneset" />
		<tag k="natural" v="cape" />
		<tag k="ssr:stedsnr" v="388211" />
	</node>
	<node id="-485950" lat="60.700777778" lon="4.86979444635">
		<tag k="name" v="Nordra Bøflua" />
		<tag k="natural" v="shoal" />
		<tag k="place" v="locality" />
		<tag k="ssr:stedsnr" v="388201" />
	</node>
	<node id="-485949" lat="60.7150166663" lon="4.9083722167">
		<tag k="name" v="Lyngneset" />
		<tag k="natural" v="cape" />
		<tag k="ssr:stedsnr" v="388182" />
	</node>
	<node id="-485948" lat="60.6327527784" lon="5.03084166057">
		<tag k="fixme" v="consider seamark:type=rock or natural=shoal" />
		<tag k="name" v="Fugleskjeret" />
		<tag k="place" v="islet" />
		<tag k="ssr:stedsnr" v="387293" />
	</node>
	<node id="-485946" lat="60.6148416649" lon="5.07895000872">
		<tag k="name" v="Straumsneset" />
		<tag k="natural" v="cape" />
		<tag k="ssr:stedsnr" v="371024" />
	</node>
	<node id="-485941" lat="60.7478749964" lon="4.88891110556">
		<tag k="name" v="Galteflua" />
		<tag k="natural" v="shoal" />
		<tag k="place" v="locality" />
		<tag k="ssr:stedsnr" v="370883" />
	</node>
	<node id="-485940" lat="60.7414255341" lon="4.83338864151">
		<tag k="fixme" v="multiple name tags, choose one and add the other to alt_name" />
		<tag k="name" v="Esjetårnet;Hesjetåna" />
		<tag k="place" v="islet" />
		<tag k="ssr:stedsnr" v="370880" />
	</node>
	<node id="-485939" lat="60.7274361068" lon="4.8724000008">
		<tag k="name" v="Dyrøya" />
		<tag k="place" v="island" />
		<tag k="ssr:stedsnr" v="370869" />
	</node>
	<node id="-485938" lat="60.7350055559" lon="4.88428056214">
		<tag k="name" v="Syltneset" />
		<tag k="natural" v="cape" />
		<tag k="ssr:stedsnr" v="370862" />
	</node>
	<node id="-485935" lat="60.7095638861" lon="4.87057222015">
		<tag k="name" v="Hestholmen" />
		<tag k="place" v="islet" />
		<tag k="ssr:stedsnr" v="370836" />
	</node>
	<node id="-485934" lat="60.7254396214" lon="4.99719810502">
		<tag k="name" v="Austra Saltvik" />
		<tag k="natural" v="bay" />
		<tag k="old_name" v="Saltvika, austre" />
		<tag k="ssr:stedsnr" v="370833" />
	</node>
	<node id="-485933" lat="60.7256388873" lon="4.99375833291">
		<tag k="alt_name" v="Saltvika, vestre" />
		<tag k="name" v="Vestre Saltvika" />
		<tag k="natural" v="bay" />
		<tag k="ssr:stedsnr" v="370830" />
	</node>
	<node id="-485931" lat="60.6922277778" lon="5.05914721635">
		<tag k="name" v="Slettosen" />
		<tag k="natural" v="strait" />
		<tag k="ssr:stedsnr" v="370797" />
	</node>
	<node id="-485929" lat="60.6632194409" lon="5.08887221733">
		<tag k="name" v="Taulsvågen" />
		<tag k="natural" v="bay" />
		<tag k="ssr:stedsnr" v="370774" />
	</node>
	<node id="-485928" lat="60.615986114" lon="5.12262221494">
		<tag k="name" v="Kvamsøyhøgda" />
		<tag k="place" v="islet" />
		<tag k="ssr:stedsnr" v="370064" />
	</node>
	<node id="-485926" lat="60.6065916677" lon="5.1070000044">
		<tag k="name" v="Apalneset" />
		<tag k="natural" v="cape" />
		<tag k="ssr:stedsnr" v="370020" />
	</node>
	<node id="-485918" lat="60.6062527756" lon="5.14348611423">
		<tag k="name" v="Stålvika" />
		<tag k="natural" v="bay" />
		<tag k="ssr:stedsnr" v="348739" />
	</node>
	<node id="-485912" lat="60.7113749986" lon="5.03931945368">
		<tag k="name" v="Tunneset" />
		<tag k="natural" v="cape" />
		<tag k="ssr:stedsnr" v="348602" />
	</node>
	<node id="-485907" lat="60.6626111129" lon="5.1101388885">
		<tag k="name" v="Sandvika" />
		<tag k="natural" v="bay" />
		<tag k="ssr:stedsnr" v="348548" />
	</node>
	<node id="-485902" lat="60.6195777798" lon="5.11402778496">
		<tag k="name" v="Storneset" />
		<tag k="natural" v="cape" />
		<tag k="ssr:stedsnr" v="348484" />
	</node>
	<node id="-485900" lat="60.7165416687" lon="4.9157500022">
		<tag k="name" v="Sjene" />
		<tag k="natural" v="bay" />
		<tag k="ssr:stedsnr" v="348472" />
	</node>
	<node id="-485898" lat="60.7171694478" lon="4.91162500414">
		<tag k="name" v="Kjeneset" />
		<tag k="natural" v="cape" />
		<tag k="ssr:stedsnr" v="348460" />
	</node>
	<node id="-485897" lat="60.7200666672" lon="4.96815833403">
		<tag k="name" v="Ostevika" />
		<tag k="natural" v="bay" />
		<tag k="ssr:stedsnr" v="348454" />
	</node>
	<node id="-485894" lat="60.7421222226" lon="4.87972499972">
		<tag k="name" v="Kuvika" />
		<tag k="natural" v="bay" />
		<tag k="ssr:stedsnr" v="348389" />
	</node>
	<node id="-485893" lat="60.732511107" lon="4.8959222156">
		<tag k="name" v="Leira" />
		<tag k="natural" v="bay" />
		<tag k="ssr:stedsnr" v="348384" />
	</node>
	<node id="-485892" lat="60.734230554" lon="4.88210277895">
		<tag k="name" v="Sætevika" />
		<tag k="natural" v="bay" />
		<tag k="ssr:stedsnr" v="348383" />
	</node>
	<node id="-485886" lat="60.6632500031" lon="4.90713334113">
		<tag k="alt_name" v="Arnesvågen, l" />
		<tag k="name" v="Litle Arnesvågen" />
		<tag k="natural" v="bay" />
		<tag k="ssr:stedsnr" v="348300" />
	</node>
	<node id="-485885" lat="60.6478722257" lon="4.99531389148">
		<tag k="name" v="Lisleholmen" />
		<tag k="place" v="islet" />
		<tag k="ssr:stedsnr" v="348284" />
	</node>
	<node id="-485884" lat="60.6558305591" lon="4.99570278359">
		<tag k="name" v="Skjeltevika" />
		<tag k="natural" v="bay" />
		<tag k="ssr:stedsnr" v="348277" />
	</node>
	<node id="-485883" lat="60.6366499963" lon="4.960124997">
		<tag k="name" v="Eidvikneset" />
		<tag k="natural" v="cape" />
		<tag k="ssr:stedsnr" v="348265" />
	</node>
	<node id="-485880" lat="60.7073666667" lon="4.88193611861">
		<tag k="name" v="Eldnesvågen" />
		<tag k="natural" v="bay" />
		<tag k="ssr:stedsnr" v="348254" />
	</node>
	<node id="-485879" lat="60.7059393874" lon="4.90294155959">
		<tag k="name" v="Nåla" />
		<tag k="place" v="island" />
		<tag k="ssr:stedsnr" v="348247" />
	</node>
	<node id="-485878" lat="60.7183694477" lon="4.85870000871">
		<tag k="name" v="Forsøyvågen" />
		<tag k="natural" v="bay" />
		<tag k="ssr:stedsnr" v="348216" />
	</node>
	<node id="-485876" lat="60.650603203" lon="5.12211066701">
		<tag k="name" v="Klokkeneset" />
		<tag k="natural" v="cape" />
		<tag k="ssr:stedsnr" v="347842" />
	</node>
	<node id="-485872" lat="60.6750472185" lon="4.94061111089">
		<tag k="name" v="Sandalsvågen" />
		<tag k="natural" v="bay" />
		<tag k="ssr:stedsnr" v="347432" />
	</node>
	<node id="-485870" lat="60.7168194451" lon="4.97799999185">
		<tag k="name" v="Straumsnesholmen" />
		<tag k="place" v="islet" />
		<tag k="ssr:stedsnr" v="328196" />
	</node>
	<node id="-485869" lat="60.7131202431" lon="4.87007134402">
		<tag k="name" v="Knavik" />
		<tag k="natural" v="bay" />
		<tag k="ssr:stedsnr" v="328192" />
	</node>
	<node id="-485868" lat="60.6411222257" lon="4.96385278367">
		<tag k="name" v="Botn" />
		<tag k="natural" v="bay" />
		<tag k="ssr:stedsnr" v="327645" />
	</node>
	<node id="-485867" lat="60.6571833349" lon="5.11332500687">
		<tag k="name" v="Fargarholmen" />
		<tag k="place" v="islet" />
		<tag k="ssr:stedsnr" v="327282" />
	</node>
	<node id="-485866" lat="60.6898691346" lon="5.05852579392">
		<tag k="name" v="Blomskogvik" />
		<tag k="natural" v="bay" />
		<tag k="ssr:stedsnr" v="327264" />
	</node>
	<node id="-485865" lat="60.6582705529" lon="4.99159790743">
		<tag k="name" v="Skuthamna" />
		<tag k="natural" v="bay" />
		<tag k="ssr:stedsnr" v="327258" />
	</node>
	<node id="-485864" lat="60.6432944432" lon="5.01079722138">
		<tag k="name" v="Vikingvågen" />
		<tag k="natural" v="bay" />
		<tag k="ssr:stedsnr" v="327255" />
	</node>
	<node id="-485863" lat="60.7523805599" lon="4.8725527755">
		<tag k="alt_name" v="Tareskjeret" />
		<tag k="fixme" v="consider seamark:type=rock or natural=shoal" />
		<tag k="name" v="Færøyskjeret" />
		<tag k="place" v="islet" />
		<tag k="ssr:stedsnr" v="312191" />
	</node>
	<node id="-485862" lat="60.6776361104" lon="4.87226666214">
		<tag k="name" v="Duveskallen" />
		<tag k="natural" v="shoal" />
		<tag k="place" v="locality" />
		<tag k="ssr:stedsnr" v="309998" />
	</node>
	<node id="-485861" lat="60.6732222208" lon="4.90304167204">
		<tag k="name" v="Skjeggholmen" />
		<tag k="place" v="islet" />
		<tag k="ssr:stedsnr" v="309997" />
	</node>
	<node id="-485858" lat="60.6309361102" lon="4.99028611061">
		<tag k="name" v="Vestra Tåna" />
		<tag k="natural" v="cape" />
		<tag k="ssr:stedsnr" v="309949" />
	</node>
	<node id="-485857" lat="60.7280666642" lon="4.84768333881">
		<tag k="name" v="Lamholmen" />
		<tag k="place" v="islet" />
		<tag k="ssr:stedsnr" v="309855" />
	</node>
	<node id="-485856" lat="60.7350833356" lon="4.87365833633">
		<tag k="name" v="Såto" />
		<tag k="place" v="islet" />
		<tag k="ssr:stedsnr" v="309848" />
	</node>
	<node id="-485855" lat="60.7308111083" lon="4.85357500347">
		<tag k="name" v="Bøøyna" />
		<tag k="place" v="island" />
		<tag k="ssr:stedsnr" v="309846" />
	</node>
	<node id="-485853" lat="60.7226027736" lon="4.96468332482">
		<tag k="name" v="Fiskemannssundet" />
		<tag k="natural" v="strait" />
		<tag k="ssr:stedsnr" v="309842" />
	</node>
	<node id="-485851" lat="60.7043194489" lon="4.90068333858">
		<tag k="name" v="Marøystraumen" />
		<tag k="natural" v="strait" />
		<tag k="ssr:stedsnr" v="309818" />
	</node>
	<node id="-485850" lat="60.7062511927" lon="4.90234795169">
		<tag k="name" v="Nåla" />
		<tag k="natural" v="cape" />
		<tag k="ssr:stedsnr" v="309815" />
	</node>
	<node id="-485849" lat="60.6994055519" lon="5.07064165855">
		<tag k="alt_name" v="Teigholmen" />
		<tag k="name" v="Sauholmen" />
		<tag k="place" v="islet" />
		<tag k="ssr:stedsnr" v="309803" />
	</node>
	<node id="-485842" lat="60.7101777795" lon="4.91267777234">
		<tag k="name" v="Trollvågen" />
		<tag k="natural" v="bay" />
		<tag k="ssr:stedsnr" v="45366" />
	</node>
	<node id="-485841" lat="60.7045138882" lon="4.89985833396">
		<tag k="name" v="Notevollen" />
		<tag k="natural" v="cape" />
		<tag k="ssr:stedsnr" v="45363" />
	</node>
	<node id="-485840" lat="60.695933338" lon="4.92639167369">
		<tag k="name" v="Hauglandsvågen" />
		<tag k="natural" v="bay" />
		<tag k="ssr:stedsnr" v="45354" />
	</node>
	<node id="-485836" lat="60.6481337948" lon="4.93381660281">
		<tag k="name" v="Skarpeneset" />
		<tag k="natural" v="cape" />
		<tag k="ssr:stedsnr" v="289246" />
	</node>
	<node id="-485835" lat="60.606502032" lon="5.11632800096">
		<tag k="name" v="Yste Grimstevika" />
		<tag k="natural" v="bay" />
		<tag k="ssr:stedsnr" v="288724" />
	</node>
	<node id="-485832" lat="60.6816666653" lon="5.06505277082">
		<tag k="name" v="Plesneset" />
		<tag k="natural" v="cape" />
		<tag k="ssr:stedsnr" v="288627" />
	</node>
	<node id="-485827" lat="60.6363194467" lon="5.01317222439">
		<tag k="name" v="Kjebogen" />
		<tag k="natural" v="bay" />
		<tag k="ssr:stedsnr" v="288549" />
	</node>
	<node id="-485826" lat="60.637580557" lon="5.00385833339">
		<tag k="name" v="Klubbetangen" />
		<tag k="natural" v="cape" />
		<tag k="ssr:stedsnr" v="288543" />
	</node>
	<node id="-485825" lat="60.639124997" lon="5.03363889299">
		<tag k="name" v="Mangerspollen" />
		<tag k="natural" v="bay" />
		<tag k="ssr:stedsnr" v="288540" />
	</node>
	<node id="-485820" lat="60.7251888865" lon="4.88803055363">
		<tag k="name" v="Brøringane" />
		<tag k="place" v="islet" />
		<tag k="ssr:stedsnr" v="288459" />
	</node>
	<node id="-485817" lat="60.7209027785" lon="4.89712223088">
		<tag k="name" v="Flatholmen" />
		<tag k="place" v="islet" />
		<tag k="ssr:stedsnr" v="288352" />
	</node>
	<node id="-485816" lat="60.7072944439" lon="4.91524999661">
		<tag k="name" v="Stølevågen" />
		<tag k="natural" v="bay" />
		<tag k="ssr:stedsnr" v="288337" />
	</node>
	<node id="-485815" lat="60.6909222261" lon="4.92259999071">
		<tag k="name" v="Notneset" />
		<tag k="natural" v="cape" />
		<tag k="ssr:stedsnr" v="288329" />
	</node>
	<node id="-485804" lat="60.6022777761" lon="5.19984444587">
		<tag k="name" v="Storsandane" />
		<tag k="natural" v="beach" />
		<tag k="place" v="locality" />
		<tag k="ssr:stedsnr" v="287793" />
	</node>
	<node id="-485801" lat="60.6063824792" lon="5.11897282407">
		<tag k="name" v="Inste Grimstevika" />
		<tag k="natural" v="bay" />
		<tag k="ssr:stedsnr" v="287738" />
	</node>
	<node id="-485797" lat="60.7419333315" lon="4.90044166945">
		<tag k="name" v="Ospholmneset" />
		<tag k="natural" v="cape" />
		<tag k="ssr:stedsnr" v="287456" />
	</node>
	<node id="-485796" lat="60.6685305535" lon="4.95108888921">
		<tag k="name" v="Krossholmen" />
		<tag k="place" v="islet" />
		<tag k="ssr:stedsnr" v="287449" />
	</node>
	<node id="-485794" lat="60.6092083373" lon="5.19162500061">
		<tag k="name" v="Storheimsstø" />
		<tag k="natural" v="bay" />
		<tag k="ssr:stedsnr" v="289002" />
	</node>
</osm>
