<?xml version="1.0" encoding="UTF-8"?>
<osm generator="osmapis" version="0.6">
	<node id="-486398" lat="60.6798722199" lon="4.99620555135">
		<tag k="name" v="Myking" />
		<tag k="place" v="farm" />
		<tag k="ssr:stedsnr" v="833437" />
	</node>
	<node id="-486397" lat="60.6774689591" lon="4.95114908623">
		<tag k="alt_name" v="Vågenes Øvre" />
		<tag k="fixme" v="consider place=hamlet" />
		<tag k="name" v="Øvre Vågenes" />
		<tag k="place" v="farm" />
		<tag k="ssr:stedsnr" v="833425" />
	</node>
	<node id="-485372" lat="60.6601611139" lon="5.02487223064">
		<tag k="alt_name" v="Tveiten øvre" />
		<tag k="fixme" v="consider place=hamlet" />
		<tag k="name" v="Øvre Tveiten" />
		<tag k="place" v="farm" />
		<tag k="ssr:stedsnr" v="409541" />
	</node>
	<node id="-485367" lat="60.7138222245" lon="4.97274445088">
		<tag k="name" v="Mjøs" />
		<tag k="place" v="farm" />
		<tag k="ssr:stedsnr" v="409471" />
	</node>
	<node id="-486387" lat="60.7091861119" lon="4.89162500697">
		<tag k="name" v="Marøy" />
		<tag k="place" v="farm" />
		<tag k="ssr:stedsnr" v="809765" />
	</node>
	<node id="-485203" lat="60.662569442" lon="5.03079166133">
		<tag k="alt_name" v="Tveiten nedre" />
		<tag k="fixme" v="consider place=hamlet" />
		<tag k="name" v="Nedre Tveiten" />
		<tag k="place" v="farm" />
		<tag k="ssr:stedsnr" v="288494" />
	</node>
	<node id="-486383" lat="60.654521663" lon="5.01797439227">
		<tag k="alt_name" v="Birkeland" />
		<tag k="fixme" v="consider place=hamlet" />
		<tag k="name" v="Byrkjeland" />
		<tag k="place" v="farm" />
		<tag k="ssr:stedsnr" v="795986" />
	</node>
	<node id="-485870" lat="60.6341611113" lon="5.12603889026">
		<tag k="name" v="Lunde" />
		<tag k="place" v="farm" />
		<tag k="ssr:stedsnr" v="468813" />
	</node>
	<node id="-485869" lat="60.6829777757" lon="4.93578054733">
		<tag k="name" v="Brømstølen" />
		<tag k="place" v="farm" />
		<tag k="ssr:stedsnr" v="468298" />
	</node>
	<node id="-485862" lat="60.6738574214" lon="4.94599470495">
		<tag k="fixme" v="consider place=hamlet" />
		<tag k="name" v="Nordre Vågenes" />
		<tag k="place" v="farm" />
		<tag k="ssr:stedsnr" v="449240" />
	</node>
	<node id="-485457" lat="60.663547218" lon="4.98130276985">
		<tag k="name" v="Hella" />
		<tag k="place" v="hamlet" />
		<tag k="ssr:stedsnr" v="6808" />
	</node>
	<node id="-485859" lat="60.7068577659" lon="4.89336478077">
		<tag k="name" v="Marøy" />
		<tag k="place" v="farm" />
		<tag k="ssr:stedsnr" v="445776" />
	</node>
	<node id="-486370" lat="60.711197219" lon="4.97760277156">
		<tag k="name" v="Mjøs" />
		<tag k="place" v="hamlet" />
		<tag k="ssr:stedsnr" v="795820" />
	</node>
	<node id="-485344" lat="60.6161361104" lon="5.15484166977">
		<tag k="name" v="Kråa" />
		<tag k="place" v="farm" />
		<tag k="ssr:stedsnr" v="408759" />
	</node>
	<node id="-486367" lat="60.6692416695" lon="4.97027500421">
		<tag k="name" v="Krossen" />
		<tag k="place" v="farm" />
		<tag k="ssr:stedsnr" v="795789" />
	</node>
	<node id="-486366" lat="60.6900749996" lon="5.03856110241">
		<tag k="name" v="Sletta" />
		<tag k="place" v="farm" />
		<tag k="ssr:stedsnr" v="795783" />
	</node>
	<node id="-486365" lat="60.6476952632" lon="5.10653774496">
		<tag k="fixme" v="consider place=hamlet" />
		<tag k="name" v="Frotaule" />
		<tag k="place" v="farm" />
		<tag k="ssr:stedsnr" v="795270" />
	</node>
	<node id="-486364" lat="60.6054333295" lon="5.19653611866">
		<tag k="name" v="Storsandane" />
		<tag k="place" v="farm" />
		<tag k="ssr:stedsnr" v="795047" />
	</node>
	<node id="-485850" lat="60.7130721947" lon="4.92287172944">
		<tag k="fixme" v="consider place=hamlet" />
		<tag k="name" v="Innsylta" />
		<tag k="place" v="farm" />
		<tag k="ssr:stedsnr" v="431856" />
	</node>
	<node id="-485331" lat="60.6900562814" lon="4.93467279143">
		<tag k="fixme" v="consider place=hamlet" />
		<tag k="name" v="Øvre Kvalheim" />
		<tag k="place" v="farm" />
		<tag k="ssr:stedsnr" v="388204" />
	</node>
	<node id="-485842" lat="60.6990333358" lon="4.92817777098">
		<tag k="fixme" v="consider place=suburb, village or hamlet" />
		<tag k="name" v="Bøvågen" />
		<tag k="place" v="quarter" />
		<tag k="ssr:stedsnr" v="431820" />
	</node>
	<node id="-485539" lat="60.5990888922" lon="5.20327221629">
		<tag k="name" v="Kallneset" />
		<tag k="place" v="farm" />
		<tag k="ssr:stedsnr" v="67045" />
	</node>
	<node id="-485327" lat="60.7073833339" lon="4.8915999947">
		<tag k="name" v="Marøy" />
		<tag k="place" v="farm" />
		<tag k="ssr:stedsnr" v="384760" />
	</node>
	<node id="-485837" lat="60.640708334" lon="5.13465555589">
		<tag k="name" v="Nøtlevågen" />
		<tag k="place" v="farm" />
		<tag k="ssr:stedsnr" v="431216" />
	</node>
	<node id="-485836" lat="60.6110749986" lon="5.14486110386">
		<tag k="name" v="Sæbøvågen" />
		<tag k="place" v="isolated_dwelling" />
		<tag k="ssr:stedsnr" v="431019" />
	</node>
	<node id="-485323" lat="60.6458194416" lon="5.08351388425">
		<tag k="fixme" v="consider place=hamlet" />
		<tag k="name" v="Sævdal" />
		<tag k="place" v="farm" />
		<tag k="ssr:stedsnr" v="370967" />
	</node>
	<node id="-485322" lat="60.6057055586" lon="5.08521666148">
		<tag k="name" v="Lindeviki" />
		<tag k="place" v="isolated_dwelling" />
		<tag k="ssr:stedsnr" v="370957" />
	</node>
	<node id="-485831" lat="60.702830554" lon="4.92797222229">
		<tag k="name" v="Nordbø" />
		<tag k="place" v="farm" />
		<tag k="ssr:stedsnr" v="267198" />
	</node>
	<node id="-485317" lat="60.7401750029" lon="4.91180833556">
		<tag k="name" v="Svena" />
		<tag k="place" v="farm" />
		<tag k="ssr:stedsnr" v="370861" />
	</node>
	<node id="-485316" lat="60.7169876034" lon="4.9203756949">
		<tag k="name" v="Sylta" />
		<tag k="place" v="hamlet" />
		<tag k="ssr:stedsnr" v="370855" />
	</node>
	<node id="-485827" lat="60.7108166693" lon="4.88592499081">
		<tag k="name" v="Marøy" />
		<tag k="place" v="farm" />
		<tag k="ssr:stedsnr" v="263761" />
	</node>
	<node id="-486338" lat="60.7110452964" lon="4.97795268452">
		<tag k="fixme" v="consider place=hamlet" />
		<tag k="name" v="Mjøs" />
		<tag k="place" v="farm" />
		<tag k="ssr:stedsnr" v="773462" />
	</node>
	<node id="-485451" lat="60.7274985731" lon="4.91288123204">
		<tag k="fixme" v="consider place=hamlet" />
		<tag k="name" v="Risnes" />
		<tag k="place" v="farm" />
		<tag k="ssr:stedsnr" v="989309" />
	</node>
	<node id="-485310" lat="60.6813211131" lon="5.05909833727">
		<tag k="fixme" v="consider place=hamlet" />
		<tag k="name" v="Instebø" />
		<tag k="place" v="farm" />
		<tag k="ssr:stedsnr" v="370786" />
	</node>
	<node id="-485821" lat="60.7255131525" lon="4.9744412696">
		<tag k="fixme" v="consider place=hamlet" />
		<tag k="name" v="Straume" />
		<tag k="place" v="farm" />
		<tag k="ssr:stedsnr" v="249836" />
	</node>
	<node id="-485819" lat="60.7083334184" lon="4.93122088796">
		<tag k="fixme" v="consider place=hamlet" />
		<tag k="name" v="Rikstad" />
		<tag k="place" v="farm" />
		<tag k="ssr:stedsnr" v="249818" />
	</node>
	<node id="-485305" lat="60.6924083371" lon="5.0402055473">
		<tag k="alt_name" v="Ytstebø" />
		<tag k="name" v="Ystebø" />
		<tag k="place" v="hamlet" />
		<tag k="ssr:stedsnr" v="358780" />
	</node>
	<node id="-485816" lat="60.6177630696" lon="5.14736850326">
		<tag k="fixme" v="consider place=hamlet" />
		<tag k="name" v="Kvamme" />
		<tag k="place" v="farm" />
		<tag k="ssr:stedsnr" v="249048" />
	</node>
	<node id="-485815" lat="60.60466146" lon="5.17507945276">
		<tag k="alt_name" v="Storheim" />
		<tag k="fixme" v="consider place=hamlet" />
		<tag k="name" v="Storeim" />
		<tag k="place" v="farm" />
		<tag k="ssr:stedsnr" v="249010" />
	</node>
	<node id="-485449" lat="60.7443650032" lon="4.8981318398">
		<tag k="fixme" v="consider place=hamlet" />
		<tag k="name" v="Rossnes" />
		<tag k="place" v="farm" />
		<tag k="ssr:stedsnr" v="989307" />
	</node>
	<node id="-485812" lat="60.6570199" lon="4.95607955906">
		<tag k="alt_name" v="Flone" />
		<tag k="fixme" v="consider place=hamlet" />
		<tag k="name" v="Floni" />
		<tag k="place" v="farm" />
		<tag k="ssr:stedsnr" v="248989" />
	</node>
	<node id="-485810" lat="60.6299727114" lon="5.14038569807">
		<tag k="fixme" v="consider place=hamlet" />
		<tag k="name" v="Dale" />
		<tag k="place" v="farm" />
		<tag k="ssr:stedsnr" v="248030" />
	</node>
	<node id="-485297" lat="60.6247194434" lon="5.14566388332">
		<tag k="name" v="Olsvoll" />
		<tag k="place" v="farm" />
		<tag k="ssr:stedsnr" v="348727" />
	</node>
	<node id="-485805" lat="60.6380999957" lon="5.11305000146">
		<tag k="name" v="Namtveit" />
		<tag k="place" v="farm" />
		<tag k="ssr:stedsnr" v="227596" />
	</node>
	<node id="-485289" lat="60.6428500021" lon="5.06282777581">
		<tag k="alt_name" v="Solend Søre" />
		<tag k="name" v="Søre Solend" />
		<tag k="place" v="farm" />
		<tag k="ssr:stedsnr" v="348580" />
	</node>
	<node id="-485799" lat="60.6672305586" lon="5.02509443655">
		<tag k="name" v="Helland" />
		<tag k="place" v="farm" />
		<tag k="ssr:stedsnr" v="227541" />
	</node>
	<node id="-486309" lat="60.5937611131" lon="5.18446388335">
		<tag k="alt_name" v="Vetås Nordre" />
		<tag k="name" v="Nordre Vetås" />
		<tag k="place" v="farm" />
		<tag k="ssr:stedsnr" v="772783" />
	</node>
	<node id="-486304" lat="60.6114638909" lon="5.16949999953">
		<tag k="alt_name" v="Tjore Indre" />
		<tag k="name" v="Indre Tjore" />
		<tag k="place" v="farm" />
		<tag k="ssr:stedsnr" v="773706" />
	</node>
	<node id="-485276" lat="60.7115527786" lon="4.97517778532">
		<tag k="name" v="Bakken" />
		<tag k="place" v="farm" />
		<tag k="ssr:stedsnr" v="348451" />
	</node>
	<node id="-486297" lat="60.705902778" lon="4.89910554927">
		<tag k="name" v="Marøy" />
		<tag k="place" v="farm" />
		<tag k="ssr:stedsnr" v="748780" />
	</node>
	<node id="-486296" lat="60.7090499999" lon="4.89252778605">
		<tag k="name" v="Marøy" />
		<tag k="place" v="farm" />
		<tag k="ssr:stedsnr" v="748777" />
	</node>
	<node id="-486295" lat="60.708930558" lon="4.89626944288">
		<tag k="name" v="Marøy" />
		<tag k="place" v="farm" />
		<tag k="ssr:stedsnr" v="748773" />
	</node>
	<node id="-486294" lat="60.7052222178" lon="4.89387499284">
		<tag k="name" v="Marøy" />
		<tag k="place" v="farm" />
		<tag k="ssr:stedsnr" v="748772" />
	</node>
	<node id="-486292" lat="60.6595261472" lon="5.07286337682">
		<tag k="alt_name" v="Kjeseter;Kjesæter" />
		<tag k="fixme" v="consider place=hamlet" />
		<tag k="name" v="Kjeset" />
		<tag k="place" v="farm" />
		<tag k="ssr:stedsnr" v="734982" />
	</node>
	<node id="-486290" lat="60.6402138328" lon="5.06988965825">
		<tag k="fixme" v="consider place=hamlet" />
		<tag k="name" v="Nøttveit" />
		<tag k="place" v="farm" />
		<tag k="ssr:stedsnr" v="734965" />
	</node>
	<node id="-486289" lat="60.6220333323" lon="5.08416945026">
		<tag k="name" v="Boga" />
		<tag k="place" v="farm" />
		<tag k="ssr:stedsnr" v="734951" />
	</node>
	<node id="-485776" lat="60.6441611136" lon="5.12506389726">
		<tag k="name" v="Askeland" />
		<tag k="place" v="farm" />
		<tag k="ssr:stedsnr" v="226846" />
	</node>
	<node id="-486286" lat="60.7299444425" lon="4.9170805531">
		<tag k="name" v="Villanger" />
		<tag k="place" v="hamlet" />
		<tag k="ssr:stedsnr" v="734851" />
	</node>
	<node id="-485261" lat="60.6635166693" lon="4.97442777105">
		<tag k="historic" v="shieling" />
		<tag k="name" v="Stølen" />
		<tag k="place" v="locality" />
		<tag k="ssr:stedsnr" v="348257" />
	</node>
	<node id="-485271" lat="60.6982055582" lon="4.92211389534">
		<tag k="name" v="Brattholmen" />
		<tag k="place" v="farm" />
		<tag k="ssr:stedsnr" v="348345" />
	</node>
	<node id="-486275" lat="60.6098584075" lon="5.09487489395">
		<tag k="fixme" v="consider place=hamlet" />
		<tag k="name" v="Kvitstein" />
		<tag k="place" v="farm" />
		<tag k="ssr:stedsnr" v="734003" />
	</node>
	<node id="-485760" lat="60.6793444455" lon="4.98585833796">
		<tag k="name" v="Grindheim" />
		<tag k="place" v="farm" />
		<tag k="ssr:stedsnr" v="226476" />
	</node>
	<node id="-485758" lat="60.6732777777" lon="4.95257499447">
		<tag k="alt_name" v="Vågenes Nedre" />
		<tag k="name" v="Nedre Vågenes" />
		<tag k="place" v="farm" />
		<tag k="ssr:stedsnr" v="226467" />
	</node>
	<node id="-485755" lat="60.6360481076" lon="5.02838257711">
		<tag k="name" v="Selfallet" />
		<tag k="place" v="farm" />
		<tag k="ssr:stedsnr" v="210539" />
	</node>
	<node id="-485753" lat="60.6220861092" lon="5.08393055524">
		<tag k="name" v="Bogehamn" />
		<tag k="place" v="hamlet" />
		<tag k="ssr:stedsnr" v="207612" />
	</node>
	<node id="-486264" lat="60.5928472253" lon="5.18503055901">
		<tag k="alt_name" v="Vetås Søre" />
		<tag k="name" v="Søre Vetås" />
		<tag k="place" v="farm" />
		<tag k="ssr:stedsnr" v="712755" />
	</node>
	<node id="-486263" lat="60.6044000043" lon="5.19389999746">
		<tag k="name" v="Storheim" />
		<tag k="place" v="farm" />
		<tag k="ssr:stedsnr" v="712749" />
	</node>
	<node id="-486261" lat="60.6242388846" lon="5.13902776929">
		<tag k="name" v="Balen" />
		<tag k="place" v="farm" />
		<tag k="ssr:stedsnr" v="712744" />
	</node>
	<node id="-485748" lat="60.6622416697" lon="4.96600554835">
		<tag k="name" v="Nordnaustet" />
		<tag k="place" v="locality" />
		<tag k="ssr:stedsnr" v="206239" />
	</node>
	<node id="-485950" lat="60.6584972203" lon="4.99497500424">
		<tag k="name" v="Skutehamni" />
		<tag k="place" v="farm" />
		<tag k="ssr:stedsnr" v="492762" />
	</node>
	<node id="-485745" lat="60.7117500032" lon="4.9815527824">
		<tag k="fixme" v="consider place=hamlet" />
		<tag k="name" v="Norangsvågen" />
		<tag k="place" v="village" />
		<tag k="ssr:stedsnr" v="206209" />
	</node>
	<node id="-485232" lat="60.710455557" lon="5.03659999797">
		<tag k="name" v="Vallersneset" />
		<tag k="place" v="hamlet" />
		<tag k="ssr:stedsnr" v="309828" />
	</node>
	<node id="-485743" lat="60.6426638881" lon="4.96638888966">
		<tag k="name" v="Toska" />
		<tag k="place" v="hamlet" />
		<tag k="ssr:stedsnr" v="188984" />
	</node>
	<node id="-485740" lat="60.6612085197" lon="5.02572859357">
		<tag k="name" v="Tveiten" />
		<tag k="place" v="hamlet" />
		<tag k="ssr:stedsnr" v="188979" />
	</node>
	<node id="-486251" lat="60.6929027813" lon="5.03228610407">
		<tag k="name" v="Gjerde" />
		<tag k="place" v="farm" />
		<tag k="ssr:stedsnr" v="712599" />
	</node>
	<node id="-485225" lat="60.6287823119" lon="5.14533250029">
		<tag k="fixme" v="consider place=hamlet" />
		<tag k="name" v="Tolleshaug" />
		<tag k="place" v="farm" />
		<tag k="ssr:stedsnr" v="309032" />
	</node>
	<node id="-486248" lat="60.6295916654" lon="5.07819166731">
		<tag k="name" v="Kolstad" />
		<tag k="place" v="farm" />
		<tag k="ssr:stedsnr" v="712577" />
	</node>
	<node id="-485948" lat="60.6806146738" lon="5.06024499247">
		<tag k="fixme" v="consider place=hamlet" />
		<tag k="name" v="Pletten" />
		<tag k="place" v="farm" />
		<tag k="ssr:stedsnr" v="492755" />
	</node>
	<node id="-485219" lat="60.7081416655" lon="4.98724166933">
		<tag k="fixme" v="consider place=hamlet" />
		<tag k="name" v="Nordanger" />
		<tag k="place" v="farm" />
		<tag k="ssr:stedsnr" v="45348" />
	</node>
	<node id="-485435" lat="60.6453626958" lon="5.07353112286">
		<tag k="fixme" v="consider place=hamlet" />
		<tag k="name" v="Sørli" />
		<tag k="place" v="farm" />
		<tag k="ssr:stedsnr" v="895561" />
	</node>
	<node id="-485725" lat="60.6635061897" lon="4.97835253402">
		<tag k="fixme" v="consider place=hamlet" />
		<tag k="name" v="Uthella" />
		<tag k="place" v="farm" />
		<tag k="ssr:stedsnr" v="188820" />
	</node>
	<node id="-485724" lat="60.6622437704" lon="4.98489464839">
		<tag k="alt_name" v="Hella" />
		<tag k="fixme" v="consider place=hamlet" />
		<tag k="name" v="Innhella" />
		<tag k="place" v="farm" />
		<tag k="ssr:stedsnr" v="188819" />
	</node>
	<node id="-485723" lat="60.6918361092" lon="4.96843611014">
		<tag k="fixme" v="consider place=hamlet" />
		<tag k="name" v="Listveiten" />
		<tag k="place" v="farm" />
		<tag k="ssr:stedsnr" v="188815" />
	</node>
	<node id="-485209" lat="60.6394805594" lon="5.09599166255">
		<tag k="name" v="Kolås" />
		<tag k="place" v="farm" />
		<tag k="ssr:stedsnr" v="288557" />
	</node>
	<node id="-485720" lat="60.6160583368" lon="5.18399167104">
		<tag k="name" v="Solstrand" />
		<tag k="place" v="farm" />
		<tag k="ssr:stedsnr" v="188073" />
	</node>
	<node id="-485719" lat="60.6372027767" lon="5.02740555133">
		<tag k="name" v="Urhaug" />
		<tag k="place" v="farm" />
		<tag k="ssr:stedsnr" v="166796" />
	</node>
	<node id="-485689" lat="60.6665888881" lon="5.01604444925">
		<tag k="name" v="Dalland" />
		<tag k="place" v="farm" />
		<tag k="ssr:stedsnr" v="166533" />
	</node>
	<node id="-485262" lat="60.642727777" lon="4.96493333764">
		<tag k="fixme" v="consider place=hamlet" />
		<tag k="name" v="Toska" />
		<tag k="place" v="farm" />
		<tag k="ssr:stedsnr" v="348260" />
	</node>
	<node id="-485194" lat="60.7108666681" lon="4.98022221759">
		<tag k="name" v="Mjøs" />
		<tag k="place" v="farm" />
		<tag k="ssr:stedsnr" v="288324" />
	</node>
	<node id="-485702" lat="60.6841333332" lon="5.05289444147">
		<tag k="name" v="Mellingen" />
		<tag k="place" v="farm" />
		<tag k="ssr:stedsnr" v="166644" />
	</node>
	<node id="-485701" lat="60.6711083312" lon="5.02242499443">
		<tag k="name" v="Helland" />
		<tag k="place" v="farm" />
		<tag k="ssr:stedsnr" v="166640" />
	</node>
	<node id="-485188" lat="60.7000388929" lon="4.92701388678">
		<tag k="name" v="Bø" />
		<tag k="place" v="farm" />
		<tag k="ssr:stedsnr" v="288228" />
	</node>
	<node id="-485187" lat="60.6419277787" lon="5.04908333245">
		<tag k="name" v="Hesthaugen" />
		<tag k="place" v="farm" />
		<tag k="ssr:stedsnr" v="288199" />
	</node>
	<node id="-485695" lat="60.6467904666" lon="5.0724411648">
		<tag k="fixme" v="consider place=hamlet" />
		<tag k="name" v="Nordli" />
		<tag k="place" v="farm" />
		<tag k="ssr:stedsnr" v="166590" />
	</node>
	<node id="-485692" lat="60.6403888856" lon="5.04117221395">
		<tag k="alt_name" v="Manger Nedre" />
		<tag k="name" v="Nedre Manger" />
		<tag k="place" v="farm" />
		<tag k="ssr:stedsnr" v="166566" />
	</node>
	<node id="-486087" lat="60.6814111083" lon="5.05853333157">
		<tag k="name" v="Instebø" />
		<tag k="place" v="farm" />
		<tag k="ssr:stedsnr" v="591651" />
	</node>
	<node id="-485690" lat="60.6574083372" lon="5.08548333627">
		<tag k="name" v="Haugstad" />
		<tag k="place" v="farm" />
		<tag k="ssr:stedsnr" v="166550" />
	</node>
	<node id="-486201" lat="60.6414444413" lon="5.04139722575">
		<tag k="name" v="Manger" />
		<tag k="place" v="village" />
		<tag k="ssr:stedsnr" v="673967" />
	</node>
	<node id="-485211" lat="60.6450611135" lon="5.10968332614">
		<tag k="name" v="Tuftena" />
		<tag k="place" v="farm" />
		<tag k="ssr:stedsnr" v="288567" />
	</node>
	<node id="-485854" lat="60.7272572517" lon="4.91389337774">
		<tag k="name" v="Risnes" />
		<tag k="place" v="hamlet" />
		<tag k="ssr:stedsnr" v="431882" />
	</node>
	<node id="-486194" lat="60.7148638881" lon="4.98934167553">
		<tag k="name" v="Hovet" />
		<tag k="place" v="farm" />
		<tag k="ssr:stedsnr" v="673832" />
	</node>
	<node id="-486192" lat="60.707955555" lon="4.98573332785">
		<tag k="name" v="Noranger" />
		<tag k="place" v="hamlet" />
		<tag k="ssr:stedsnr" v="673823" />
	</node>
	<node id="-486190" lat="60.7038437645" lon="4.93436758452">
		<tag k="fixme" v="consider place=hamlet" />
		<tag k="name" v="Bø" />
		<tag k="place" v="farm" />
		<tag k="ssr:stedsnr" v="673793" />
	</node>
	<node id="-485378" lat="60.6307583309" lon="5.04841667517">
		<tag k="name" v="Mangersneset" />
		<tag k="place" v="hamlet" />
		<tag k="ssr:stedsnr" v="409583" />
	</node>
	<node id="-485682" lat="60.7186277795" lon="4.92164722393">
		<tag k="name" v="Aalen" />
		<tag k="place" v="farm" />
		<tag k="ssr:stedsnr" v="166490" />
	</node>
	<node id="-486181" lat="60.6169777813" lon="5.14696943618">
		<tag k="name" v="Dalen" />
		<tag k="place" v="farm" />
		<tag k="ssr:stedsnr" v="651745" />
	</node>
	<node id="-486180" lat="60.6169866076" lon="5.16006372258">
		<tag k="alt_name" v="Solheim Austre" />
		<tag k="name" v="Austre Solheim" />
		<tag k="place" v="farm" />
		<tag k="ssr:stedsnr" v="651739" />
	</node>
	<node id="-485667" lat="60.6578361104" lon="4.92365000411">
		<tag k="name" v="Uttoska" />
		<tag k="place" v="farm" />
		<tag k="ssr:stedsnr" v="166309" />
	</node>
	<node id="-486176" lat="60.6206333345" lon="5.14292222398">
		<tag k="name" v="Nordnes" />
		<tag k="place" v="farm" />
		<tag k="ssr:stedsnr" v="651708" />
	</node>
	<node id="-485663" lat="60.6635735166" lon="4.97985571635">
		<tag k="name" v="Uthella" />
		<tag k="place" v="farm" />
		<tag k="ssr:stedsnr" v="166284" />
	</node>
	<node id="-486172" lat="60.7277777823" lon="5.01428889308">
		<tag k="name" v="Nilsegarden" />
		<tag k="place" v="farm" />
		<tag k="ssr:stedsnr" v="651691" />
	</node>
	<node id="-486170" lat="60.6793139011" lon="5.06424609044">
		<tag k="fixme" v="consider place=hamlet" />
		<tag k="name" v="Sletten" />
		<tag k="place" v="farm" />
		<tag k="ssr:stedsnr" v="651666" />
	</node>
	<node id="-486166" lat="60.699879777" lon="5.04598950972">
		<tag k="fixme" v="consider place=hamlet" />
		<tag k="name" v="Skjelvik" />
		<tag k="place" v="farm" />
		<tag k="ssr:stedsnr" v="651633" />
	</node>
	<node id="-485653" lat="60.6852277139" lon="4.93945132464">
		<tag k="fixme" v="consider place=hamlet" />
		<tag k="name" v="Nedre Kvalheim" />
		<tag k="place" v="farm" />
		<tag k="ssr:stedsnr" v="145233" />
	</node>
	<node id="-486163" lat="60.6469833323" lon="5.10846944256">
		<tag k="name" v="Nordtaule" />
		<tag k="place" v="farm" />
		<tag k="ssr:stedsnr" v="651614" />
	</node>
	<node id="-485251" lat="60.7071611139" lon="4.99526110929">
		<tag k="name" v="Eideshaug" />
		<tag k="place" v="farm" />
		<tag k="ssr:stedsnr" v="328199" />
	</node>
	<node id="-485641" lat="60.6944805557" lon="4.93309999775">
		<tag k="fixme" v="consider place=hamlet" />
		<tag k="name" v="Haugland" />
		<tag k="place" v="village" />
		<tag k="ssr:stedsnr" v="127813" />
	</node>
	<node id="-485637" lat="60.6388194478" lon="5.11441944742">
		<tag k="name" v="Namntveit" />
		<tag k="place" v="hamlet" />
		<tag k="ssr:stedsnr" v="127212" />
	</node>
	<node id="-485636" lat="60.6068583325" lon="5.13283888619">
		<tag k="alt_name" v="Kvalvik" />
		<tag k="name" v="Kvalviki" />
		<tag k="place" v="farm" />
		<tag k="ssr:stedsnr" v="127018" />
	</node>
	<node id="-485630" lat="60.6264861113" lon="5.0998805565">
		<tag k="name" v="Kartveit" />
		<tag k="place" v="farm" />
		<tag k="ssr:stedsnr" v="106588" />
	</node>
	<node id="-485629" lat="60.6450194402" lon="5.08512500404">
		<tag k="name" v="Sævdal" />
		<tag k="place" v="farm" />
		<tag k="ssr:stedsnr" v="106584" />
	</node>
	<node id="-486131" lat="60.6377194434" lon="5.12241388222">
		<tag k="name" v="Vågstaule" />
		<tag k="place" v="farm" />
		<tag k="ssr:stedsnr" v="650816" />
	</node>
	<node id="-485544" lat="60.6322216026" lon="5.07032523211">
		<tag k="name" v="Morki" />
		<tag k="place" v="hamlet" />
		<tag k="ssr:stedsnr" v="67958" />
	</node>
	<node id="-486114" lat="60.7068064016" lon="4.89514696511">
		<tag k="fixme" v="consider place=hamlet" />
		<tag k="name" v="Marøy" />
		<tag k="place" v="farm" />
		<tag k="ssr:stedsnr" v="627785" />
	</node>
	<node id="-486113" lat="60.7079083327" lon="4.89439999179">
		<tag k="name" v="Marøy" />
		<tag k="place" v="farm" />
		<tag k="ssr:stedsnr" v="627784" />
	</node>
	<node id="-485731" lat="60.7216000006" lon="5.02716944103">
		<tag k="name" v="Sanden" />
		<tag k="place" v="farm" />
		<tag k="ssr:stedsnr" v="188838" />
	</node>
	<node id="-485597" lat="60.6323666641" lon="5.1290416591">
		<tag k="name" v="Taule" />
		<tag k="place" v="farm" />
		<tag k="ssr:stedsnr" v="105831" />
	</node>
	<node id="-486107" lat="60.628346989" lon="5.08205047584">
		<tag k="fixme" v="consider place=hamlet" />
		<tag k="name" v="Kollstad" />
		<tag k="place" v="farm" />
		<tag k="ssr:stedsnr" v="612952" />
	</node>
	<node id="-485409" lat="60.6108222262" lon="5.15448333336">
		<tag k="alt_name" v="Sæbø Indre" />
		<tag k="name" v="Indre Sæbø" />
		<tag k="place" v="farm" />
		<tag k="ssr:stedsnr" v="894748" />
	</node>
	<node id="-485592" lat="60.6023527811" lon="5.17819443699">
		<tag k="name" v="Haukeland" />
		<tag k="place" v="farm" />
		<tag k="ssr:stedsnr" v="105763" />
	</node>
	<node id="-485591" lat="60.6126583368" lon="5.14804166819">
		<tag k="alt_name" v="Sæbø Ytre" />
		<tag k="name" v="Ytre Sæbø" />
		<tag k="place" v="farm" />
		<tag k="ssr:stedsnr" v="105740" />
	</node>
	<node id="-485584" lat="60.7180333332" lon="4.99763610686">
		<tag k="name" v="Åsheim" />
		<tag k="place" v="farm" />
		<tag k="ssr:stedsnr" v="105696" />
	</node>
	<node id="-485374" lat="60.6490527742" lon="5.07707499651">
		<tag k="name" v="Halland" />
		<tag k="place" v="farm" />
		<tag k="ssr:stedsnr" v="409547" />
	</node>
	<node id="-486093" lat="60.6186583351" lon="5.18074445086">
		<tag k="name" v="Austmarka" />
		<tag k="place" v="quarter" />
		<tag k="ssr:stedsnr" v="612065" />
	</node>
	<node id="-486092" lat="60.6243208203" lon="5.14782907512">
		<tag k="fixme" v="consider place=hamlet" />
		<tag k="name" v="Olsvoll" />
		<tag k="place" v="farm" />
		<tag k="ssr:stedsnr" v="612039" />
	</node>
	<node id="-486091" lat="60.6209999987" lon="5.14367500589">
		<tag k="name" v="Nordnes" />
		<tag k="place" v="farm" />
		<tag k="ssr:stedsnr" v="612037" />
	</node>
	<node id="-485239" lat="60.6488168834" lon="5.07932280085">
		<tag k="fixme" v="consider place=hamlet" />
		<tag k="name" v="Halland" />
		<tag k="place" v="farm" />
		<tag k="ssr:stedsnr" v="309963" />
	</node>
	<node id="-485324" lat="60.679196416" lon="4.99803144785">
		<tag k="name" v="Myking" />
		<tag k="place" v="hamlet" />
		<tag k="ssr:stedsnr" v="370986" />
	</node>
	<node id="-485574" lat="60.6943062786" lon="4.94009147903">
		<tag k="fixme" v="consider place=hamlet" />
		<tag k="name" v="Haugland" />
		<tag k="place" v="farm" />
		<tag k="ssr:stedsnr" v="105363" />
	</node>
	<node id="-485921" lat="60.6344104812" lon="5.12418534453">
		<tag k="fixme" v="consider place=hamlet" />
		<tag k="name" v="Lunde" />
		<tag k="place" v="farm" />
		<tag k="ssr:stedsnr" v="491216" />
	</node>
	<node id="-485579" lat="60.6745166696" lon="4.96110555822">
		<tag k="fixme" v="consider place=hamlet" />
		<tag k="name" v="Håland" />
		<tag k="place" v="farm" />
		<tag k="ssr:stedsnr" v="105438" />
	</node>
	<node id="-486079" lat="60.6315583349" lon="5.07091665854">
		<tag k="alt_name" v="Morken Indre" />
		<tag k="name" v="Indre Morken" />
		<tag k="place" v="farm" />
		<tag k="ssr:stedsnr" v="591570" />
	</node>
	<node id="-486078" lat="60.6449916689" lon="5.04979443581">
		<tag k="alt_name" v="Manger Øvre" />
		<tag k="fixme" v="consider place=hamlet" />
		<tag k="name" v="Øvre Manger" />
		<tag k="place" v="farm" />
		<tag k="ssr:stedsnr" v="591562" />
	</node>
	<node id="-485562" lat="60.6416539543" lon="5.04918871366">
		<tag k="name" v="Hesthaugen" />
		<tag k="place" v="farm" />
		<tag k="ssr:stedsnr" v="82223" />
	</node>
	<node id="-485560" lat="60.7085805539" lon="4.88891945381">
		<tag k="name" v="Marøy" />
		<tag k="place" v="farm" />
		<tag k="ssr:stedsnr" v="81769" />
	</node>
	<node id="-485559" lat="60.7089388883" lon="4.8877888856">
		<tag k="name" v="Marøy" />
		<tag k="place" v="farm" />
		<tag k="ssr:stedsnr" v="81767" />
	</node>
	<node id="-485542" lat="60.6155966909" lon="5.15899937294">
		<tag k="name" v="Solheim" />
		<tag k="place" v="hamlet" />
		<tag k="ssr:stedsnr" v="67072" />
	</node>
	<node id="-485951" lat="60.707863889" lon="4.89650834119">
		<tag k="name" v="Marøy" />
		<tag k="place" v="farm" />
		<tag k="ssr:stedsnr" v="506761" />
	</node>
	<node id="-486057" lat="60.6595249964" lon="4.99102777597">
		<tag k="alt_name" v="Hella Indre" />
		<tag k="name" v="Indre Hella" />
		<tag k="place" v="farm" />
		<tag k="ssr:stedsnr" v="591251" />
	</node>
	<node id="-486568" lat="60.6126777755" lon="5.16704443578">
		<tag k="alt_name" v="Tjore Midtre" />
		<tag k="name" v="Midtre Tjore" />
		<tag k="place" v="farm" />
		<tag k="ssr:stedsnr" v="955731" />
	</node>
	<node id="-485660" lat="60.6897722185" lon="4.92764444926">
		<tag k="name" v="Vaulen" />
		<tag k="place" v="farm" />
		<tag k="ssr:stedsnr" v="166264" />
	</node>
	<node id="-486054" lat="60.628969447" lon="5.14287777923">
		<tag k="name" v="Tolleshaug" />
		<tag k="place" v="farm" />
		<tag k="ssr:stedsnr" v="590802" />
	</node>
	<node id="-485541" lat="60.6459092128" lon="5.09773667516">
		<tag k="fixme" v="consider place=hamlet" />
		<tag k="name" v="Marås" />
		<tag k="place" v="farm" />
		<tag k="ssr:stedsnr" v="67058" />
	</node>
	<node id="-485540" lat="60.6239194448" lon="5.13846111562">
		<tag k="name" v="Holo" />
		<tag k="place" v="farm" />
		<tag k="ssr:stedsnr" v="67049" />
	</node>
	<node id="-486051" lat="60.5952694408" lon="5.20140833161">
		<tag k="name" v="Botnane" />
		<tag k="place" v="farm" />
		<tag k="ssr:stedsnr" v="590766" />
	</node>
	<node id="-485538" lat="60.6123820066" lon="5.1686108708">
		<tag k="alt_name" v="Tjore" />
		<tag k="name" v="Tjoro" />
		<tag k="place" v="hamlet" />
		<tag k="ssr:stedsnr" v="67019" />
	</node>
	<node id="-486047" lat="60.7269722222" lon="5.0092861101">
		<tag k="name" v="Tongegarden" />
		<tag k="place" v="farm" />
		<tag k="ssr:stedsnr" v="590712" />
	</node>
	<node id="-486046" lat="60.7221388882" lon="5.02648056161">
		<tag k="name" v="Sanden" />
		<tag k="place" v="farm" />
		<tag k="ssr:stedsnr" v="590707" />
	</node>
	<node id="-485530" lat="60.6898285494" lon="5.04236619282">
		<tag k="fixme" v="consider place=hamlet" />
		<tag k="name" v="Ystebø" />
		<tag k="place" v="farm" />
		<tag k="ssr:stedsnr" v="45622" />
	</node>
	<node id="-486039" lat="60.7400388923" lon="4.9129250071">
		<tag k="name" v="Svena" />
		<tag k="place" v="farm" />
		<tag k="ssr:stedsnr" v="590417" />
	</node>
	<node id="-485183" lat="60.6021999984" lon="5.17838889179">
		<tag k="name" v="Nordre Haukeland" />
		<tag k="place" v="farm" />
		<tag k="ssr:stedsnr" v="287788" />
	</node>
	<node id="-486031" lat="60.7070083379" lon="4.89611944647">
		<tag k="name" v="Marøy" />
		<tag k="place" v="farm" />
		<tag k="ssr:stedsnr" v="566769" />
	</node>
	<node id="-485516" lat="60.6098583364" lon="5.09585833501">
		<tag k="name" v="Kvitstein" />
		<tag k="place" v="farm" />
		<tag k="ssr:stedsnr" v="45447" />
	</node>
	<node id="-485826" lat="60.7098833317" lon="4.88905555661">
		<tag k="name" v="Marøy" />
		<tag k="place" v="farm" />
		<tag k="ssr:stedsnr" v="263762" />
	</node>
	<node id="-486023" lat="60.6786280296" lon="4.98555796024">
		<tag k="fixme" v="consider place=hamlet" />
		<tag k="name" v="Grindeim" />
		<tag k="place" v="farm" />
		<tag k="ssr:stedsnr" v="552817" />
	</node>
	<node id="-486020" lat="60.6439641592" lon="5.12682269376">
		<tag k="fixme" v="consider place=hamlet" />
		<tag k="name" v="Askeland" />
		<tag k="place" v="farm" />
		<tag k="ssr:stedsnr" v="552205" />
	</node>
	<node id="-486019" lat="60.6006143285" lon="5.17932172239">
		<tag k="alt_name" v="Haukeland" />
		<tag k="name" v="Haukland" />
		<tag k="place" v="hamlet" />
		<tag k="ssr:stedsnr" v="552023" />
	</node>
	<node id="-485227" lat="60.6931958403" lon="5.03166436353">
		<tag k="fixme" v="consider place=hamlet" />
		<tag k="name" v="Gjerde" />
		<tag k="place" v="farm" />
		<tag k="ssr:stedsnr" v="309780" />
	</node>
	<node id="-486528" lat="60.7107527742" lon="4.97632221517">
		<tag k="name" v="Bakken" />
		<tag k="place" v="farm" />
		<tag k="ssr:stedsnr" v="955319" />
	</node>
	<node id="-485489" lat="60.6176194474" lon="5.14990556388">
		<tag k="name" v="Kvamme" />
		<tag k="place" v="farm" />
		<tag k="ssr:stedsnr" v="44737" />
	</node>
	<node id="-485490" lat="60.6155416706" lon="5.1542638829">
		<tag k="alt_name" v="Solheim Vestre" />
		<tag k="name" v="Vestre Solheim" />
		<tag k="place" v="farm" />
		<tag k="ssr:stedsnr" v="44738" />
	</node>
	<node id="-486513" lat="60.6834805517" lon="4.93526111636">
		<tag k="name" v="Brømstø" />
		<tag k="place" v="locality" />
		<tag k="ssr:stedsnr" v="935218" />
	</node>
	<node id="-486000" lat="60.70237679" lon="5.00809616154">
		<tag k="fixme" v="consider place=hamlet" />
		<tag k="name" v="Soltveit" />
		<tag k="place" v="farm" />
		<tag k="ssr:stedsnr" v="530650" />
	</node>
	<node id="-486509" lat="60.7101555584" lon="4.88847776932">
		<tag k="name" v="Marøy" />
		<tag k="place" v="farm" />
		<tag k="ssr:stedsnr" v="931794" />
	</node>
	<node id="-485996" lat="60.6454805579" lon="5.09689999387">
		<tag k="name" v="Marås" />
		<tag k="place" v="farm" />
		<tag k="ssr:stedsnr" v="530623" />
	</node>
	<node id="-485995" lat="60.6400944428" lon="5.06636389126">
		<tag k="name" v="Nøttveit" />
		<tag k="place" v="farm" />
		<tag k="ssr:stedsnr" v="530615" />
	</node>
	<node id="-486504" lat="60.6741583372" lon="5.02734445216">
		<tag k="name" v="Kløvheim" />
		<tag k="place" v="farm" />
		<tag k="ssr:stedsnr" v="916982" />
	</node>
	<node id="-486503" lat="60.6687543451" lon="5.02405360261">
		<tag k="fixme" v="consider place=hamlet" />
		<tag k="name" v="Helland" />
		<tag k="place" v="farm" />
		<tag k="ssr:stedsnr" v="916983" />
	</node>
	<node id="-486502" lat="60.6444796114" lon="5.05727412846">
		<tag k="alt_name" v="Solheim" />
		<tag k="name" v="Solend" />
		<tag k="place" v="hamlet" />
		<tag k="ssr:stedsnr" v="916974" />
	</node>
	<node id="-486501" lat="60.6612511995" lon="5.06244709368">
		<tag k="fixme" v="consider place=hamlet" />
		<tag k="name" v="Lervik" />
		<tag k="place" v="farm" />
		<tag k="ssr:stedsnr" v="916972" />
	</node>
	<node id="-485307" lat="60.6277097395" lon="5.09965840208">
		<tag k="fixme" v="consider place=hamlet" />
		<tag k="name" v="Kartveit" />
		<tag k="place" v="farm" />
		<tag k="ssr:stedsnr" v="370041" />
	</node>
	<node id="-485984" lat="60.6232527742" lon="5.08541110391">
		<tag k="fixme" v="consider place=hamlet" />
		<tag k="name" v="Boge" />
		<tag k="place" v="farm" />
		<tag k="ssr:stedsnr" v="530472" />
	</node>
	<node id="-485477" lat="60.7007638873" lon="4.9289194358">
		<tag k="amenity" v="school" />
		<tag k="name" v="Hordabø" />
		<tag k="ssr:stedsnr" v="26151" />
	</node>
	<node id="-485468" lat="60.7073015636" lon="4.89246068328">
		<tag k="name" v="Marøy" />
		<tag k="place" v="farm" />
		<tag k="ssr:stedsnr" v="20787" />
	</node>
	<node id="-485465" lat="60.6748833338" lon="5.01750556088">
		<tag k="name" v="Rindane" />
		<tag k="place" v="farm" />
		<tag k="ssr:stedsnr" v="6991" />
	</node>
	<node id="-486488" lat="60.6868111312" lon="4.93587805986">
		<tag k="alt_name" v="Kvaleim" />
		<tag k="name" v="Kvalheim" />
		<tag k="place" v="hamlet" />
		<tag k="ssr:stedsnr" v="916809" />
	</node>
	<node id="-486485" lat="60.6399666652" lon="5.09765833068">
		<tag k="fixme" v="consider place=hamlet" />
		<tag k="name" v="Kolås" />
		<tag k="place" v="farm" />
		<tag k="ssr:stedsnr" v="916203" />
	</node>
	<node id="-485969" lat="60.6940638862" lon="4.93430556065">
		<tag k="name" v="Haugland" />
		<tag k="place" v="farm" />
		<tag k="ssr:stedsnr" v="530287" />
	</node>
	<node id="-485455" lat="60.631450164" lon="5.12794441039">
		<tag k="alt_name" v="Indre Taule" />
		<tag k="fixme" v="consider place=hamlet" />
		<tag k="name" v="Taule" />
		<tag k="place" v="farm" />
		<tag k="ssr:stedsnr" v="6227" />
	</node>
	<node id="-485453" lat="60.612030505" lon="5.1519675309">
		<tag k="name" v="Sæbø" />
		<tag k="place" v="hamlet" />
		<tag k="ssr:stedsnr" v="989367" />
	</node>
	<node id="-486050" lat="60.5999249956" lon="5.17891111016">
		<tag k="alt_name" v="Haukeland Søre" />
		<tag k="name" v="Søre Haukeland" />
		<tag k="place" v="farm" />
		<tag k="ssr:stedsnr" v="590762" />
	</node>
	<node id="-485963" lat="60.6295500022" lon="5.13915555808">
		<tag k="name" v="Dale" />
		<tag k="place" v="farm" />
		<tag k="ssr:stedsnr" v="529829" />
	</node>
	<node id="-485450" lat="60.7296949318" lon="4.91799795516">
		<tag k="fixme" v="consider place=hamlet" />
		<tag k="name" v="Villanger" />
		<tag k="place" v="farm" />
		<tag k="ssr:stedsnr" v="989308" />
	</node>
	<node id="-486473" lat="60.6766638907" lon="5.00035277292">
		<tag k="name" v="Sætre" />
		<tag k="place" v="farm" />
		<tag k="ssr:stedsnr" v="856987" />
	</node>
	<node id="-485442" lat="60.674686111" lon="5.02846667369">
		<tag k="name" v="Kløvheim" />
		<tag k="place" v="farm" />
		<tag k="ssr:stedsnr" v="895636" />
	</node>
	<node id="-485440" lat="60.7097750013" lon="5.03893334129">
		<tag k="fixme" v="consider place=hamlet" />
		<tag k="name" v="Vallersnes" />
		<tag k="place" v="farm" />
		<tag k="ssr:stedsnr" v="895615" />
	</node>
	<node id="-486463" lat="60.7175833301" lon="4.99883889354">
		<tag k="name" v="Åsheim" />
		<tag k="place" v="farm" />
		<tag k="ssr:stedsnr" v="856820" />
	</node>
	<node id="-486462" lat="60.7040972243" lon="5.00492222173">
		<tag k="name" v="Soltveit" />
		<tag k="place" v="hamlet" />
		<tag k="ssr:stedsnr" v="856815" />
	</node>
	<node id="-486461" lat="60.6848905354" lon="5.05420520329">
		<tag k="fixme" v="consider place=hamlet" />
		<tag k="name" v="Mellingen" />
		<tag k="place" v="farm" />
		<tag k="ssr:stedsnr" v="856784" />
	</node>
	<node id="-486460" lat="60.6793499994" lon="5.06337777534">
		<tag k="name" v="Nesbø" />
		<tag k="place" v="farm" />
		<tag k="ssr:stedsnr" v="856782" />
	</node>
	<node id="-486459" lat="60.6426333765" lon="5.1109328866">
		<tag k="fixme" v="consider place=hamlet" />
		<tag k="name" v="Brattaule" />
		<tag k="place" v="farm" />
		<tag k="ssr:stedsnr" v="856198" />
	</node>
	<node id="-485946" lat="60.6686741802" lon="5.01124648256">
		<tag k="fixme" v="consider place=hamlet" />
		<tag k="name" v="Dalland" />
		<tag k="place" v="farm" />
		<tag k="ssr:stedsnr" v="491985" />
	</node>
	<node id="-486457" lat="60.6135305534" lon="5.15333333288">
		<tag k="name" v="Sæbø" />
		<tag k="place" v="hamlet" />
		<tag k="ssr:stedsnr" v="856062" />
	</node>
	<node id="-485940" lat="60.6467416676" lon="5.09224721593">
		<tag k="name" v="Marås" />
		<tag k="place" v="farm" />
		<tag k="ssr:stedsnr" v="491955" />
	</node>
	<node id="-486451" lat="60.6456277747" lon="5.03986389321">
		<tag k="historic" v="shieling" />
		<tag k="name" v="Mangerstølane" />
		<tag k="place" v="locality" />
		<tag k="ssr:stedsnr" v="834803" />
	</node>
	<node id="-485424" lat="60.6218391289" lon="5.10978639972">
		<tag k="fixme" v="consider place=hamlet" />
		<tag k="name" v="Ulvatn" />
		<tag k="place" v="farm" />
		<tag k="ssr:stedsnr" v="895485" />
	</node>
	<node id="-485932" lat="60.719238427" lon="4.92054753803">
		<tag k="fixme" v="consider place=hamlet" />
		<tag k="name" v="Utsylta" />
		<tag k="place" v="farm" />
		<tag k="ssr:stedsnr" v="491826" />
	</node>
	<node id="-485973" lat="60.6994111156" lon="4.92156111055">
		<tag k="name" v="Skarneset" />
		<tag k="place" v="farm" />
		<tag k="ssr:stedsnr" v="530381" />
	</node>
	<node id="-486458" lat="60.5930224927" lon="5.18278554102">
		<tag k="name" v="Vettås" />
		<tag k="place" v="hamlet" />
		<tag k="ssr:stedsnr" v="856094" />
	</node>
	<node id="-485927" lat="60.7018277747" lon="5.03957500934">
		<tag k="name" v="Skjelvik" />
		<tag k="place" v="hamlet" />
		<tag k="ssr:stedsnr" v="491795" />
	</node>
	<node id="-485452" lat="60.6313998145" lon="5.04635831083">
		<tag k="fixme" v="consider place=hamlet" />
		<tag k="name" v="Mangersneset" />
		<tag k="place" v="farm" />
		<tag k="ssr:stedsnr" v="989311" />
	</node>
	<node id="-485924" lat="60.6569726729" lon="5.08872705684">
		<tag k="fixme" v="consider place=hamlet" />
		<tag k="name" v="Haugstad" />
		<tag k="place" v="farm" />
		<tag k="ssr:stedsnr" v="491746" />
	</node>
	<node id="-485894" lat="60.5941416704" lon="5.16723055091">
		<tag k="name" v="Galteneset" />
		<tag k="place" v="farm" />
		<tag k="ssr:stedsnr" v="469795" />
	</node>
	<node id="-485922" lat="60.6372968961" lon="5.1226175529">
		<tag k="fixme" v="consider place=hamlet" />
		<tag k="name" v="Vågstaule" />
		<tag k="place" v="farm" />
		<tag k="ssr:stedsnr" v="491215" />
	</node>
	<node id="-486433" lat="60.6423388844" lon="5.11129999394">
		<tag k="name" v="Brattaule" />
		<tag k="place" v="farm" />
		<tag k="ssr:stedsnr" v="834619" />
	</node>
	<node id="-486432" lat="60.6388861136" lon="5.04342778511">
		<tag k="leisure" v="pitch" />
		<tag k="name" v="Grønålen" />
		<tag k="ssr:stedsnr" v="834615" />
	</node>
	<node id="-485916" lat="60.6777194467" lon="4.99847778456">
		<tag k="name" v="Sætre" />
		<tag k="place" v="farm" />
		<tag k="ssr:stedsnr" v="470660" />
	</node>
	<node id="-485392" lat="60.6188194436" lon="5.17748888002">
		<tag k="amenity" v="school" />
		<tag k="name" v="Sæbø" />
		<tag k="ssr:stedsnr" v="410001" />
	</node>
	<node id="-485208" lat="60.6339166628" lon="5.06841944835">
		<tag k="alt_name" v="Morken Ytre" />
		<tag k="name" v="Ytre Morken" />
		<tag k="place" v="farm" />
		<tag k="ssr:stedsnr" v="288555" />
	</node>
	<node id="-485390" lat="60.6218611089" lon="5.14128888522">
		<tag k="fixme" v="consider place=hamlet" />
		<tag k="name" v="Hole" />
		<tag k="place" v="farm" />
		<tag k="ssr:stedsnr" v="409718" />
	</node>
	<node id="-486411" lat="60.692447225" lon="4.93203611549">
		<tag k="name" v="Bøleite" />
		<tag k="place" v="farm" />
		<tag k="ssr:stedsnr" v="834353" />
	</node>
	<node id="-485385" lat="60.6694500017" lon="5.01177221981">
		<tag k="name" v="Dalland" />
		<tag k="place" v="farm" />
		<tag k="ssr:stedsnr" v="409644" />
	</node>
	<node id="-486474" lat="60.6708749995" lon="5.02837222489">
		<tag k="name" v="Duva" />
		<tag k="place" v="farm" />
		<tag k="ssr:stedsnr" v="856989" />
	</node>
	<node id="-486508" lat="60.6743805525" lon="4.95893332821">
		<tag k="name" v="Håland" />
		<tag k="place" v="hamlet" />
		<tag k="ssr:stedsnr" v="917781" />
	</node>
	<node id="-485434" lat="60.6460777738" lon="5.05838333657">
		<tag k="alt_name" v="Solend Nordre" />
		<tag k="name" v="Nordre Solend" />
		<tag k="place" v="farm" />
		<tag k="ssr:stedsnr" v="895559" />
	</node>
	<node id="-485889" lat="60.6129861118" lon="5.16505278606">
		<tag k="alt_name" v="Tjore Nedre" />
		<tag k="name" v="Nedre Tjore" />
		<tag k="place" v="farm" />
		<tag k="ssr:stedsnr" v="469761" />
	</node>
</osm>
