<?xml version="1.0" encoding="UTF-8"?>
<osm generator="osmapis" version="0.6">
	<node id="-487193" lat="60.6202583368" lon="5.17926388202">
		<tag k="name" v="Skiphaugen" />
		<tag k="natural" v="hill" />
		<tag k="place" v="locality" />
		<tag k="ssr:stedsnr" v="955785" />
	</node>
	<node id="-487192" lat="60.5965249999" lon="5.18762500161">
		<tag k="name" v="Dalen" />
		<tag k="natural" v="valley" />
		<tag k="place" v="locality" />
		<tag k="ssr:stedsnr" v="955766" />
	</node>
	<node id="-487189" lat="60.6194305554" lon="5.14080278455">
		<tag k="name" v="Storhaugen" />
		<tag k="natural" v="hill" />
		<tag k="place" v="locality" />
		<tag k="ssr:stedsnr" v="955719" />
	</node>
	<node id="-487188" lat="60.6242972198" lon="5.14109722544">
		<tag k="name" v="Kråkedalen" />
		<tag k="natural" v="valley" />
		<tag k="place" v="locality" />
		<tag k="ssr:stedsnr" v="955711" />
	</node>
	<node id="-487182" lat="60.686824999" lon="5.01692222393">
		<tag k="name" v="Lomtjørndalen" />
		<tag k="natural" v="valley" />
		<tag k="place" v="locality" />
		<tag k="ssr:stedsnr" v="955665" />
	</node>
	<node id="-487180" lat="60.6857500036" lon="5.03449999676">
		<tag k="name" v="Nonsteinshaugane" />
		<tag k="natural" v="hill" />
		<tag k="place" v="locality" />
		<tag k="ssr:stedsnr" v="955654" />
	</node>
	<node id="-487178" lat="60.6697416643" lon="5.01878333171">
		<tag k="name" v="Sedberget" />
		<tag k="natural" v="hill" />
		<tag k="place" v="locality" />
		<tag k="ssr:stedsnr" v="955635" />
	</node>
	<node id="-487177" lat="60.7014277808" lon="5.00656388208">
		<tag k="name" v="Porsdalen" />
		<tag k="natural" v="valley" />
		<tag k="place" v="locality" />
		<tag k="ssr:stedsnr" v="955630" />
	</node>
	<node id="-487176" lat="60.641516665" lon="5.10607223097">
		<tag k="name" v="Varden" />
		<tag k="natural" v="hill" />
		<tag k="place" v="locality" />
		<tag k="ssr:stedsnr" v="955615" />
	</node>
	<node id="-487175" lat="60.6393833293" lon="5.10122223048">
		<tag k="name" v="Buane" />
		<tag k="place" v="locality" />
		<tag k="ssr:stedsnr" v="955614" />
	</node>
	<node id="-487174" lat="60.6294666706" lon="5.09693055318">
		<tag k="name" v="Seljehaugen" />
		<tag k="natural" v="hill" />
		<tag k="place" v="locality" />
		<tag k="ssr:stedsnr" v="955612" />
	</node>
	<node id="-487171" lat="60.654986112" lon="5.01067221818">
		<tag k="name" v="Langhaugane" />
		<tag k="natural" v="hill" />
		<tag k="place" v="locality" />
		<tag k="ssr:stedsnr" v="955559" />
	</node>
	<node id="-487170" lat="60.6596305542" lon="5.00962777784">
		<tag k="name" v="Byrkjelandshaugane" />
		<tag k="natural" v="hill" />
		<tag k="place" v="locality" />
		<tag k="ssr:stedsnr" v="955544" />
	</node>
	<node id="-487168" lat="60.613224999" lon="5.08467500789">
		<tag k="name" v="Søkkjedalen" />
		<tag k="natural" v="valley" />
		<tag k="place" v="locality" />
		<tag k="ssr:stedsnr" v="955518" />
	</node>
	<node id="-487166" lat="60.7265444481" lon="4.90788334064">
		<tag k="name" v="Fleisa" />
		<tag k="place" v="locality" />
		<tag k="ssr:stedsnr" v="955496" />
	</node>
	<node id="-487164" lat="60.7288222247" lon="4.91712778017">
		<tag k="name" v="Botten" />
		<tag k="place" v="locality" />
		<tag k="ssr:stedsnr" v="955490" />
	</node>
	<node id="-487163" lat="60.7212999981" lon="4.96279165961">
		<tag k="name" v="Austenipa" />
		<tag k="natural" v="hill" />
		<tag k="place" v="locality" />
		<tag k="ssr:stedsnr" v="955489" />
	</node>
	<node id="-487160" lat="60.7174972192" lon="4.98261389233">
		<tag k="name" v="Høljedalen" />
		<tag k="natural" v="valley" />
		<tag k="place" v="locality" />
		<tag k="ssr:stedsnr" v="955466" />
	</node>
	<node id="-487159" lat="60.6700777802" lon="4.99551388613">
		<tag k="fixme" v="consider natural=peak for the most distinct mountains in the district" />
		<tag k="name" v="Borgaråsen" />
		<tag k="natural" v="hill" />
		<tag k="place" v="locality" />
		<tag k="ssr:stedsnr" v="955432" />
	</node>
	<node id="-487158" lat="60.6683583294" lon="4.9700444509">
		<tag k="name" v="Trollhøyen" />
		<tag k="natural" v="hill" />
		<tag k="place" v="locality" />
		<tag k="ssr:stedsnr" v="955431" />
	</node>
	<node id="-487157" lat="60.7341361072" lon="4.92310833308">
		<tag k="name" v="Grønehaugen" />
		<tag k="natural" v="valley" />
		<tag k="place" v="locality" />
		<tag k="ssr:stedsnr" v="955411" />
	</node>
	<node id="-487154" lat="60.7161722228" lon="4.92767499571">
		<tag k="name" v="Steinshaugen" />
		<tag k="natural" v="hill" />
		<tag k="place" v="locality" />
		<tag k="ssr:stedsnr" v="955375" />
	</node>
	<node id="-487152" lat="60.6935916664" lon="4.96439444981">
		<tag k="name" v="Jonsokhøyen" />
		<tag k="natural" v="hill" />
		<tag k="place" v="locality" />
		<tag k="ssr:stedsnr" v="955358" />
	</node>
	<node id="-487151" lat="60.689919446" lon="4.94668611559">
		<tag k="name" v="Knappen" />
		<tag k="natural" v="hill" />
		<tag k="place" v="locality" />
		<tag k="ssr:stedsnr" v="955345" />
	</node>
	<node id="-487147" lat="60.6675222194" lon="4.98029167074">
		<tag k="name" v="Krosshøyen" />
		<tag k="natural" v="hill" />
		<tag k="place" v="locality" />
		<tag k="ssr:stedsnr" v="955278" />
	</node>
	<node id="-487140" lat="60.6105694467" lon="5.18906944974">
		<tag k="name" v="Lindhaugen" />
		<tag k="natural" v="hill" />
		<tag k="place" v="locality" />
		<tag k="ssr:stedsnr" v="954810" />
	</node>
	<node id="-487129" lat="60.6809388878" lon="5.03497499909">
		<tag k="fixme" v="consider natural=peak for the most distinct mountains in the district" />
		<tag k="name" v="Haukåsen" />
		<tag k="natural" v="hill" />
		<tag k="place" v="locality" />
		<tag k="ssr:stedsnr" v="917758" />
	</node>
	<node id="-487120" lat="60.6340638925" lon="5.08819722403">
		<tag k="fixme" v="consider natural=peak for the most distinct mountains in the district" />
		<tag k="name" v="Morkefjellet" />
		<tag k="natural" v="hill" />
		<tag k="place" v="locality" />
		<tag k="ssr:stedsnr" v="916953" />
	</node>
	<node id="-487111" lat="60.6960416677" lon="4.98614999917">
		<tag k="name" v="Beindalen" />
		<tag k="natural" v="valley" />
		<tag k="place" v="locality" />
		<tag k="ssr:stedsnr" v="916812" />
	</node>
	<node id="-487108" lat="60.6704666668" lon="5.09112500438">
		<tag k="fixme" v="consider natural=peak for the most distinct mountains in the district" />
		<tag k="name" v="Nipa" />
		<tag k="natural" v="hill" />
		<tag k="place" v="locality" />
		<tag k="ssr:stedsnr" v="916777" />
	</node>
	<node id="-487094" lat="60.6494333333" lon="5.0441805568">
		<tag k="fixme" v="consider natural=peak for the most distinct mountains in the district" />
		<tag k="name" v="Svitkollen" />
		<tag k="natural" v="hill" />
		<tag k="place" v="locality" />
		<tag k="ssr:stedsnr" v="856981" />
	</node>
	<node id="-487086" lat="60.7127416641" lon="4.99021110653">
		<tag k="name" v="Tjørnebotnane" />
		<tag k="natural" v="valley" />
		<tag k="place" v="locality" />
		<tag k="ssr:stedsnr" v="856831" />
	</node>
	<node id="-487072" lat="60.6031666633" lon="5.15869722005">
		<tag k="name" v="Lynghaugen" />
		<tag k="natural" v="hill" />
		<tag k="place" v="locality" />
		<tag k="ssr:stedsnr" v="834789" />
	</node>
	<node id="-487070" lat="60.6166888857" lon="5.18683054773">
		<tag k="name" v="Salen" />
		<tag k="place" v="locality" />
		<tag k="ssr:stedsnr" v="834782" />
	</node>
	<node id="-487068" lat="60.6210111112" lon="5.15003333149">
		<tag k="fixme" v="consider natural=peak for the most distinct mountains in the district" />
		<tag k="name" v="Olsvollåsen" />
		<tag k="natural" v="hill" />
		<tag k="place" v="locality" />
		<tag k="ssr:stedsnr" v="834740" />
	</node>
	<node id="-487067" lat="60.6239416634" lon="5.16561388577">
		<tag k="name" v="Hesthaugane" />
		<tag k="natural" v="hill" />
		<tag k="place" v="locality" />
		<tag k="ssr:stedsnr" v="834735" />
	</node>
	<node id="-487065" lat="60.615605557" lon="5.14826388621">
		<tag k="name" v="Lundshaugen" />
		<tag k="natural" v="hill" />
		<tag k="place" v="locality" />
		<tag k="ssr:stedsnr" v="834712" />
	</node>
	<node id="-487064" lat="60.6207027774" lon="5.16205832569">
		<tag k="name" v="Kleppedalen" />
		<tag k="natural" v="valley" />
		<tag k="place" v="locality" />
		<tag k="ssr:stedsnr" v="834706" />
	</node>
	<node id="-487059" lat="60.6868888917" lon="5.05693055947">
		<tag k="name" v="Rinden" />
		<tag k="natural" v="hill" />
		<tag k="place" v="locality" />
		<tag k="ssr:stedsnr" v="834663" />
	</node>
	<node id="-487058" lat="60.6824083318" lon="5.02388055019">
		<tag k="fixme" v="consider natural=peak for the most distinct mountains in the district" />
		<tag k="name" v="Hjartåsen" />
		<tag k="natural" v="hill" />
		<tag k="place" v="locality" />
		<tag k="ssr:stedsnr" v="834655" />
	</node>
	<node id="-487049" lat="60.6644138862" lon="5.03202222783">
		<tag k="name" v="Torvhøyane" />
		<tag k="natural" v="hill" />
		<tag k="place" v="locality" />
		<tag k="ssr:stedsnr" v="834542" />
	</node>
	<node id="-487048" lat="60.6592583353" lon="5.01469167043">
		<tag k="name" v="Buhøyen" />
		<tag k="natural" v="hill" />
		<tag k="place" v="locality" />
		<tag k="ssr:stedsnr" v="834531" />
	</node>
	<node id="-487047" lat="60.6156055573" lon="5.09560555502">
		<tag k="name" v="Bjørndalen" />
		<tag k="natural" v="valley" />
		<tag k="place" v="locality" />
		<tag k="ssr:stedsnr" v="834521" />
	</node>
	<node id="-487044" lat="60.7194916654" lon="4.92922777778">
		<tag k="name" v="Vådalen" />
		<tag k="natural" v="valley" />
		<tag k="place" v="locality" />
		<tag k="ssr:stedsnr" v="834487" />
	</node>
	<node id="-487042" lat="60.7269499985" lon="4.91085555497">
		<tag k="name" v="Kupa" />
		<tag k="natural" v="slope" />
		<tag k="place" v="locality" />
		<tag k="ssr:stedsnr" v="834478" />
	</node>
	<node id="-487040" lat="60.7193805536" lon="4.9462750045">
		<tag k="name" v="Grønhøyen" />
		<tag k="natural" v="hill" />
		<tag k="place" v="locality" />
		<tag k="ssr:stedsnr" v="834454" />
	</node>
	<node id="-487039" lat="60.7179861081" lon="4.95296666773">
		<tag k="name" v="Bratteberget" />
		<tag k="natural" v="slope" />
		<tag k="place" v="locality" />
		<tag k="ssr:stedsnr" v="834453" />
	</node>
	<node id="-487037" lat="60.6088472251" lon="5.10578611746">
		<tag k="name" v="Støldalen" />
		<tag k="natural" v="valley" />
		<tag k="place" v="locality" />
		<tag k="ssr:stedsnr" v="834437" />
	</node>
	<node id="-487036" lat="60.6174888871" lon="5.11197500855">
		<tag k="name" v="Midthovden" />
		<tag k="natural" v="hill" />
		<tag k="place" v="locality" />
		<tag k="ssr:stedsnr" v="834435" />
	</node>
	<node id="-487034" lat="60.6953999972" lon="4.98997500431">
		<tag k="name" v="Grønskarhaugen" />
		<tag k="natural" v="hill" />
		<tag k="place" v="locality" />
		<tag k="ssr:stedsnr" v="834355" />
	</node>
	<node id="-487031" lat="60.6914305557" lon="4.98791389325">
		<tag k="name" v="Kålrinden" />
		<tag k="natural" v="hill" />
		<tag k="place" v="locality" />
		<tag k="ssr:stedsnr" v="834310" />
	</node>
	<node id="-487026" lat="60.6901805583" lon="4.92885277892">
		<tag k="name" v="Torvhøyen" />
		<tag k="natural" v="hill" />
		<tag k="place" v="locality" />
		<tag k="ssr:stedsnr" v="834264" />
	</node>
	<node id="-487025" lat="60.7363083351" lon="4.86827499748">
		<tag k="name" v="Syltesåta" />
		<tag k="natural" v="hill" />
		<tag k="place" v="locality" />
		<tag k="ssr:stedsnr" v="834212" />
	</node>
	<node id="-487023" lat="60.6302444421" lon="5.12139721948">
		<tag k="fixme" v="consider natural=peak for the most distinct mountains in the district" />
		<tag k="name" v="Åsen" />
		<tag k="natural" v="hill" />
		<tag k="place" v="locality" />
		<tag k="ssr:stedsnr" v="833843" />
	</node>
	<node id="-487022" lat="60.6482166674" lon="5.12148333432">
		<tag k="name" v="Rinden" />
		<tag k="natural" v="hill" />
		<tag k="place" v="locality" />
		<tag k="ssr:stedsnr" v="833802" />
	</node>
	<node id="-487021" lat="60.7173000037" lon="5.00851389048">
		<tag k="fixme" v="consider natural=peak for the most distinct mountains in the district" />
		<tag k="name" v="Søre Skaråsen" />
		<tag k="natural" v="hill" />
		<tag k="place" v="locality" />
		<tag k="ssr:stedsnr" v="833702" />
	</node>
	<node id="-486980" lat="60.6080333347" lon="5.13990554736">
		<tag k="name" v="Stor-ståle" />
		<tag k="natural" v="valley" />
		<tag k="place" v="locality" />
		<tag k="ssr:stedsnr" v="773736" />
	</node>
	<node id="-486979" lat="60.6238194477" lon="5.11919444512">
		<tag k="name" v="Hoberget" />
		<tag k="natural" v="cliff" />
		<tag k="ssr:stedsnr" v="773712" />
	</node>
	<node id="-486978" lat="60.6142222255" lon="5.14960278438">
		<tag k="name" v="Dyngeberget" />
		<tag k="natural" v="cliff" />
		<tag k="ssr:stedsnr" v="773698" />
	</node>
	<node id="-486977" lat="60.6059888891" lon="5.16332499083">
		<tag k="name" v="Urdalshaugane" />
		<tag k="natural" v="hill" />
		<tag k="place" v="locality" />
		<tag k="ssr:stedsnr" v="773694" />
	</node>
	<node id="-486976" lat="60.6087583291" lon="5.16164444969">
		<tag k="name" v="Hushaugane" />
		<tag k="natural" v="hill" />
		<tag k="place" v="locality" />
		<tag k="ssr:stedsnr" v="773692" />
	</node>
	<node id="-486974" lat="60.6848750035" lon="5.00900276873">
		<tag k="name" v="Skjenet" />
		<tag k="place" v="locality" />
		<tag k="ssr:stedsnr" v="773645" />
	</node>
	<node id="-486973" lat="60.6691138864" lon="5.00050834049">
		<tag k="fixme" v="consider natural=peak for the most distinct mountains in the district" />
		<tag k="name" v="Kolåsen" />
		<tag k="natural" v="hill" />
		<tag k="place" v="locality" />
		<tag k="ssr:stedsnr" v="773630" />
	</node>
	<node id="-486972" lat="60.6879444458" lon="5.01956944171">
		<tag k="name" v="Tunghaugane" />
		<tag k="natural" v="hill" />
		<tag k="place" v="locality" />
		<tag k="ssr:stedsnr" v="773624" />
	</node>
	<node id="-486971" lat="60.6837277739" lon="5.01017778323">
		<tag k="name" v="Storufshøyen" />
		<tag k="natural" v="hill" />
		<tag k="place" v="locality" />
		<tag k="ssr:stedsnr" v="773621" />
	</node>
	<node id="-486966" lat="60.645869447" lon="5.01582221408">
		<tag k="name" v="Skanselhaugen" />
		<tag k="natural" v="hill" />
		<tag k="place" v="locality" />
		<tag k="ssr:stedsnr" v="773570" />
	</node>
	<node id="-486962" lat="60.7296666681" lon="4.91303332974">
		<tag k="name" v="Nakken" />
		<tag k="natural" v="slope" />
		<tag k="place" v="locality" />
		<tag k="ssr:stedsnr" v="773477" />
	</node>
	<node id="-486958" lat="60.7213583333" lon="4.95448054749">
		<tag k="name" v="Urda" />
		<tag k="place" v="locality" />
		<tag k="ssr:stedsnr" v="773447" />
	</node>
	<node id="-486957" lat="60.7139027747" lon="4.96857778267">
		<tag k="name" v="Vassleite" />
		<tag k="natural" v="hill" />
		<tag k="place" v="locality" />
		<tag k="ssr:stedsnr" v="773445" />
	</node>
	<node id="-486955" lat="60.728263887" lon="4.93187223012">
		<tag k="name" v="Svehaugen" />
		<tag k="natural" v="hill" />
		<tag k="place" v="locality" />
		<tag k="ssr:stedsnr" v="773395" />
	</node>
	<node id="-486952" lat="60.7031611138" lon="4.90424721969">
		<tag k="name" v="Såthøyen" />
		<tag k="natural" v="hill" />
		<tag k="place" v="locality" />
		<tag k="ssr:stedsnr" v="773377" />
	</node>
	<node id="-486948" lat="60.6962805584" lon="4.94412777694">
		<tag k="name" v="Storhøyen" />
		<tag k="natural" v="hill" />
		<tag k="place" v="locality" />
		<tag k="ssr:stedsnr" v="773331" />
	</node>
	<node id="-486944" lat="60.6613694436" lon="4.981277772">
		<tag k="name" v="Rundhøyen" />
		<tag k="natural" v="hill" />
		<tag k="place" v="locality" />
		<tag k="ssr:stedsnr" v="773294" />
	</node>
	<node id="-486935" lat="60.6331555567" lon="5.12295554918">
		<tag k="name" v="Lundsdalen" />
		<tag k="natural" v="valley" />
		<tag k="place" v="locality" />
		<tag k="ssr:stedsnr" v="772820" />
	</node>
	<node id="-486934" lat="60.6519555573" lon="5.11776666327">
		<tag k="name" v="Bjørnestovena" />
		<tag k="place" v="locality" />
		<tag k="ssr:stedsnr" v="772817" />
	</node>
	<node id="-486932" lat="60.6054972195" lon="5.18452221454">
		<tag k="name" v="Stemmeberget" />
		<tag k="natural" v="slope" />
		<tag k="place" v="locality" />
		<tag k="ssr:stedsnr" v="772792" />
	</node>
	<node id="-486930" lat="60.7245222208" lon="4.94819167239">
		<tag k="name" v="Hatledalen" />
		<tag k="natural" v="valley" />
		<tag k="place" v="locality" />
		<tag k="ssr:stedsnr" v="772476" />
	</node>
	<node id="-486929" lat="60.722144448" lon="4.95581666593">
		<tag k="name" v="Vestnipa" />
		<tag k="natural" v="hill" />
		<tag k="place" v="locality" />
		<tag k="ssr:stedsnr" v="772474" />
	</node>
	<node id="-486928" lat="60.687850004" lon="4.99231388839">
		<tag k="name" v="Nipa" />
		<tag k="natural" v="hill" />
		<tag k="place" v="locality" />
		<tag k="ssr:stedsnr" v="772441" />
	</node>
	<node id="-486922" lat="60.6737611075" lon="5.06905000257">
		<tag k="name" v="Karsdalen" />
		<tag k="natural" v="valley" />
		<tag k="place" v="locality" />
		<tag k="ssr:stedsnr" v="752233" />
	</node>
	<node id="-486909" lat="60.7240888859" lon="4.91420278171">
		<tag k="fixme" v="consider natural=peak for the most distinct mountains in the district" />
		<tag k="name" v="Storhaugen" />
		<tag k="natural" v="hill" />
		<tag k="place" v="locality" />
		<tag k="ssr:stedsnr" v="734852" />
	</node>
	<node id="-486904" lat="60.7007055509" lon="5.03721943589">
		<tag k="fixme" v="multiple name tags, choose one and add the other to alt_name; consider natural=peak for the most distinct mountains in the district" />
		<tag k="name" v="Lindåsen;Lågåsen" />
		<tag k="natural" v="hill" />
		<tag k="place" v="locality" />
		<tag k="ssr:stedsnr" v="734810" />
	</node>
	<node id="-486901" lat="60.7043583321" lon="4.95626112021">
		<tag k="fixme" v="consider natural=peak for the most distinct mountains in the district" />
		<tag k="name" v="Biaråsen" />
		<tag k="natural" v="hill" />
		<tag k="place" v="locality" />
		<tag k="ssr:stedsnr" v="734794" />
	</node>
	<node id="-486891" lat="60.5953888908" lon="5.19069167317">
		<tag k="name" v="Smidalen" />
		<tag k="natural" v="valley" />
		<tag k="place" v="locality" />
		<tag k="ssr:stedsnr" v="712781" />
	</node>
	<node id="-486890" lat="60.6029777784" lon="5.15557778268">
		<tag k="name" v="Klungedalen" />
		<tag k="natural" v="valley" />
		<tag k="place" v="locality" />
		<tag k="ssr:stedsnr" v="712776" />
	</node>
	<node id="-486887" lat="60.6046166657" lon="5.16868610827">
		<tag k="name" v="Ingeborghaugen" />
		<tag k="natural" v="hill" />
		<tag k="place" v="locality" />
		<tag k="ssr:stedsnr" v="712770" />
	</node>
	<node id="-486884" lat="60.6184666651" lon="5.15591667204">
		<tag k="name" v="Storhaugen" />
		<tag k="natural" v="hill" />
		<tag k="place" v="locality" />
		<tag k="ssr:stedsnr" v="712746" />
	</node>
	<node id="-486882" lat="60.6091972249" lon="5.12069165913">
		<tag k="name" v="Sævardalen" />
		<tag k="natural" v="valley" />
		<tag k="place" v="locality" />
		<tag k="ssr:stedsnr" v="712709" />
	</node>
	<node id="-486881" lat="60.6171027773" lon="5.14279722995">
		<tag k="name" v="Varden" />
		<tag k="natural" v="hill" />
		<tag k="place" v="locality" />
		<tag k="ssr:stedsnr" v="712705" />
	</node>
	<node id="-486879" lat="60.7222555594" lon="5.00478889228">
		<tag k="name" v="Saltvikdalen" />
		<tag k="natural" v="valley" />
		<tag k="place" v="locality" />
		<tag k="ssr:stedsnr" v="712672" />
	</node>
	<node id="-486875" lat="60.6829888857" lon="5.01168333875">
		<tag k="name" v="Kolhaugen" />
		<tag k="natural" v="hill" />
		<tag k="place" v="locality" />
		<tag k="ssr:stedsnr" v="712608" />
	</node>
	<node id="-486874" lat="60.683669448" lon="5.03083056086">
		<tag k="name" v="Skåhaugane" />
		<tag k="natural" v="hill" />
		<tag k="place" v="locality" />
		<tag k="ssr:stedsnr" v="712605" />
	</node>
	<node id="-486871" lat="60.6357555555" lon="5.07769166128">
		<tag k="name" v="Revurda" />
		<tag k="place" v="locality" />
		<tag k="ssr:stedsnr" v="712591" />
	</node>
	<node id="-486864" lat="60.6654944441" lon="5.06300555124">
		<tag k="name" v="Storevarden" />
		<tag k="natural" v="hill" />
		<tag k="place" v="locality" />
		<tag k="ssr:stedsnr" v="712549" />
	</node>
	<node id="-486863" lat="60.6578444404" lon="5.10951388312">
		<tag k="name" v="Hovden" />
		<tag k="place" v="locality" />
		<tag k="ssr:stedsnr" v="712534" />
	</node>
	<node id="-486862" lat="60.663283332" lon="5.04354166502">
		<tag k="name" v="Storhøyen" />
		<tag k="natural" v="hill" />
		<tag k="place" v="locality" />
		<tag k="ssr:stedsnr" v="712520" />
	</node>
	<node id="-486861" lat="60.6672611113" lon="5.03945277542">
		<tag k="name" v="Svartberget" />
		<tag k="natural" v="hill" />
		<tag k="place" v="locality" />
		<tag k="ssr:stedsnr" v="712518" />
	</node>
	<node id="-486859" lat="60.7257194478" lon="4.95283056056">
		<tag k="name" v="Skjelvikdalen" />
		<tag k="natural" v="valley" />
		<tag k="place" v="locality" />
		<tag k="ssr:stedsnr" v="712456" />
	</node>
	<node id="-486858" lat="60.7180888873" lon="4.94669166793">
		<tag k="name" v="Merkesdalen" />
		<tag k="natural" v="valley" />
		<tag k="place" v="locality" />
		<tag k="ssr:stedsnr" v="712438" />
	</node>
	<node id="-486855" lat="60.7201222201" lon="4.95476944982">
		<tag k="name" v="Småskurena" />
		<tag k="natural" v="slope" />
		<tag k="place" v="locality" />
		<tag k="ssr:stedsnr" v="712427" />
	</node>
	<node id="-486854" lat="60.734963886" lon="4.90932500192">
		<tag k="name" v="Stormanahaugane" />
		<tag k="natural" v="hill" />
		<tag k="place" v="locality" />
		<tag k="ssr:stedsnr" v="712378" />
	</node>
	<node id="-486853" lat="60.7306055555" lon="4.90155556293">
		<tag k="name" v="Leirdalen" />
		<tag k="natural" v="valley" />
		<tag k="place" v="locality" />
		<tag k="ssr:stedsnr" v="712358" />
	</node>
	<node id="-486850" lat="60.7025166684" lon="4.96329999134">
		<tag k="name" v="Ingeborghøyen" />
		<tag k="natural" v="hill" />
		<tag k="place" v="locality" />
		<tag k="ssr:stedsnr" v="712331" />
	</node>
	<node id="-486849" lat="60.7045666628" lon="4.89477499882">
		<tag k="name" v="Tobrota" />
		<tag k="natural" v="slope" />
		<tag k="place" v="locality" />
		<tag k="ssr:stedsnr" v="712321" />
	</node>
	<node id="-486848" lat="60.6931027777" lon="4.96144999447">
		<tag k="name" v="Berghøyen" />
		<tag k="natural" v="hill" />
		<tag k="place" v="locality" />
		<tag k="ssr:stedsnr" v="712283" />
	</node>
	<node id="-486845" lat="60.6618583365" lon="4.97049721775">
		<tag k="name" v="Brundalen" />
		<tag k="natural" v="valley" />
		<tag k="place" v="locality" />
		<tag k="ssr:stedsnr" v="712250" />
	</node>
	<node id="-486837" lat="60.7195083327" lon="5.00335277767">
		<tag k="fixme" v="consider natural=peak for the most distinct mountains in the district" />
		<tag k="name" v="Stor-Skaråsen" />
		<tag k="natural" v="hill" />
		<tag k="place" v="locality" />
		<tag k="ssr:stedsnr" v="711698" />
	</node>
	<node id="-486836" lat="60.6801666686" lon="4.96234444733">
		<tag k="name" v="Milldalen" />
		<tag k="natural" v="valley" />
		<tag k="place" v="locality" />
		<tag k="ssr:stedsnr" v="711438" />
	</node>
	<node id="-486835" lat="60.6718805583" lon="4.9850666742">
		<tag k="name" v="Krekena" />
		<tag k="natural" v="hill" />
		<tag k="place" v="locality" />
		<tag k="ssr:stedsnr" v="711433" />
	</node>
	<node id="-486813" lat="60.7130027781" lon="4.98300555604">
		<tag k="name" v="Knappen" />
		<tag k="natural" v="hill" />
		<tag k="place" v="locality" />
		<tag k="ssr:stedsnr" v="673821" />
	</node>
	<node id="-486807" lat="60.6011333331" lon="5.17191944372">
		<tag k="name" v="Orrnipa" />
		<tag k="natural" v="hill" />
		<tag k="place" v="locality" />
		<tag k="ssr:stedsnr" v="651780" />
	</node>
	<node id="-486801" lat="60.6194472214" lon="5.15269165872">
		<tag k="fixme" v="consider natural=peak for the most distinct mountains in the district" />
		<tag k="name" v="Solheimsåsen" />
		<tag k="natural" v="hill" />
		<tag k="place" v="locality" />
		<tag k="ssr:stedsnr" v="651726" />
	</node>
	<node id="-486800" lat="60.6096777779" lon="5.13767221662">
		<tag k="name" v="Stegane" />
		<tag k="natural" v="hill" />
		<tag k="place" v="locality" />
		<tag k="ssr:stedsnr" v="651720" />
	</node>
	<node id="-486799" lat="60.6241666692" lon="5.1303499953">
		<tag k="fixme" v="consider natural=peak for the most distinct mountains in the district" />
		<tag k="name" v="Grønåsen" />
		<tag k="natural" v="hill" />
		<tag k="place" v="locality" />
		<tag k="ssr:stedsnr" v="651719" />
	</node>
	<node id="-486797" lat="60.6215833349" lon="5.13004166124">
		<tag k="fixme" v="consider natural=peak for the most distinct mountains in the district" />
		<tag k="name" v="Åsen" />
		<tag k="natural" v="hill" />
		<tag k="place" v="locality" />
		<tag k="ssr:stedsnr" v="651709" />
	</node>
	<node id="-486796" lat="60.6235555577" lon="5.12256666977">
		<tag k="fixme" v="consider natural=peak for the most distinct mountains in the district" />
		<tag k="name" v="Holeåsen" />
		<tag k="natural" v="hill" />
		<tag k="place" v="locality" />
		<tag k="ssr:stedsnr" v="651705" />
	</node>
	<node id="-486781" lat="60.6613888909" lon="5.04803333403">
		<tag k="fixme" v="consider natural=peak for the most distinct mountains in the district" />
		<tag k="name" v="Fjellet" />
		<tag k="natural" v="hill" />
		<tag k="place" v="locality" />
		<tag k="ssr:stedsnr" v="651572" />
	</node>
	<node id="-486780" lat="60.6506777805" lon="5.05615833848">
		<tag k="name" v="Haugane" />
		<tag k="natural" v="hill" />
		<tag k="place" v="locality" />
		<tag k="ssr:stedsnr" v="651564" />
	</node>
	<node id="-486779" lat="60.6516444484" lon="5.03450277053">
		<tag k="name" v="Ishuset" />
		<tag k="place" v="locality" />
		<tag k="ssr:stedsnr" v="651563" />
	</node>
	<node id="-486778" lat="60.6602388872" lon="5.05359721911">
		<tag k="fixme" v="consider natural=peak for the most distinct mountains in the district" />
		<tag k="name" v="Olsfjellet" />
		<tag k="natural" v="hill" />
		<tag k="place" v="locality" />
		<tag k="ssr:stedsnr" v="651562" />
	</node>
	<node id="-486776" lat="60.7168388915" lon="4.92376389372">
		<tag k="name" v="Torvhaugen" />
		<tag k="natural" v="hill" />
		<tag k="place" v="locality" />
		<tag k="ssr:stedsnr" v="651520" />
	</node>
	<node id="-486773" lat="60.7145888881" lon="4.95651110269">
		<tag k="name" v="Fagerdalen" />
		<tag k="natural" v="valley" />
		<tag k="place" v="locality" />
		<tag k="ssr:stedsnr" v="651488" />
	</node>
	<node id="-486771" lat="60.724688887" lon="4.97640277075">
		<tag k="name" v="Orrhøyen" />
		<tag k="natural" v="hill" />
		<tag k="place" v="locality" />
		<tag k="ssr:stedsnr" v="651472" />
	</node>
	<node id="-486763" lat="60.6903666673" lon="4.97291943914">
		<tag k="name" v="Seljehøyen" />
		<tag k="natural" v="hill" />
		<tag k="place" v="locality" />
		<tag k="ssr:stedsnr" v="651371" />
	</node>
	<node id="-486762" lat="60.6964944441" lon="4.94046943823">
		<tag k="name" v="Skitnanshøyen" />
		<tag k="natural" v="hill" />
		<tag k="place" v="locality" />
		<tag k="ssr:stedsnr" v="651368" />
	</node>
	<node id="-486759" lat="60.7084388875" lon="4.96563610569">
		<tag k="name" v="Småkloppvarden" />
		<tag k="natural" v="hill" />
		<tag k="place" v="locality" />
		<tag k="ssr:stedsnr" v="651348" />
	</node>
	<node id="-486758" lat="60.6966916639" lon="4.96517499268">
		<tag k="name" v="Svehøyen" />
		<tag k="natural" v="hill" />
		<tag k="place" v="locality" />
		<tag k="ssr:stedsnr" v="651319" />
	</node>
	<node id="-486749" lat="60.6814305564" lon="4.97995555484">
		<tag k="name" v="Småhaugane" />
		<tag k="natural" v="hill" />
		<tag k="place" v="locality" />
		<tag k="ssr:stedsnr" v="650390" />
	</node>
	<node id="-486738" lat="60.668819449" lon="5.00096389229">
		<tag k="name" v="Kalsås" />
		<tag k="natural" v="hill" />
		<tag k="place" v="locality" />
		<tag k="ssr:stedsnr" v="630237" />
	</node>
	<node id="-486722" lat="60.7279333354" lon="4.9025888936">
		<tag k="fixme" v="consider natural=peak for the most distinct mountains in the district" />
		<tag k="name" v="Steinhaugen" />
		<tag k="natural" v="hill" />
		<tag k="place" v="locality" />
		<tag k="ssr:stedsnr" v="612853" />
	</node>
	<node id="-486718" lat="60.6996333364" lon="4.98902500253">
		<tag k="alt_name" v="Vidalen" />
		<tag k="name" v="Viddalen" />
		<tag k="natural" v="valley" />
		<tag k="place" v="locality" />
		<tag k="ssr:stedsnr" v="612803" />
	</node>
	<node id="-486711" lat="60.6712194427" lon="5.03833056107">
		<tag k="name" v="Orrtua" />
		<tag k="natural" v="hill" />
		<tag k="place" v="locality" />
		<tag k="ssr:stedsnr" v="591659" />
	</node>
	<node id="-486710" lat="60.6877138887" lon="5.031491658">
		<tag k="name" v="Hoklet" />
		<tag k="place" v="locality" />
		<tag k="ssr:stedsnr" v="591655" />
	</node>
	<node id="-486708" lat="60.6726555598" lon="5.04261388586">
		<tag k="name" v="Raundalshøyen" />
		<tag k="natural" v="hill" />
		<tag k="place" v="locality" />
		<tag k="ssr:stedsnr" v="591635" />
	</node>
	<node id="-486707" lat="60.7071805553" lon="5.00514167226">
		<tag k="name" v="Støldalen" />
		<tag k="natural" v="valley" />
		<tag k="place" v="locality" />
		<tag k="ssr:stedsnr" v="591604" />
	</node>
	<node id="-486706" lat="60.6946194424" lon="5.00003611375">
		<tag k="name" v="Flokkstadvarden" />
		<tag k="natural" v="hill" />
		<tag k="place" v="locality" />
		<tag k="ssr:stedsnr" v="591597" />
	</node>
	<node id="-486703" lat="60.6307916642" lon="5.11015833598">
		<tag k="name" v="Lundeklubben" />
		<tag k="natural" v="hill" />
		<tag k="place" v="locality" />
		<tag k="ssr:stedsnr" v="591577" />
	</node>
	<node id="-486702" lat="60.6457305527" lon="5.06370832724">
		<tag k="name" v="Stølleitet" />
		<tag k="natural" v="hill" />
		<tag k="place" v="locality" />
		<tag k="ssr:stedsnr" v="591575" />
	</node>
	<node id="-486697" lat="60.6552583322" lon="5.04353610256">
		<tag k="name" v="Langhøyen" />
		<tag k="natural" v="hill" />
		<tag k="place" v="locality" />
		<tag k="ssr:stedsnr" v="591539" />
	</node>
	<node id="-486690" lat="60.7232361132" lon="4.94393055444">
		<tag k="name" v="Villangerrinden" />
		<tag k="natural" v="ridge" />
		<tag k="place" v="locality" />
		<tag k="ssr:stedsnr" v="591463" />
	</node>
	<node id="-486689" lat="60.7211222224" lon="4.98773610718">
		<tag k="name" v="Varden" />
		<tag k="natural" v="hill" />
		<tag k="place" v="locality" />
		<tag k="ssr:stedsnr" v="591461" />
	</node>
	<node id="-486688" lat="60.7266694432" lon="4.98053054876">
		<tag k="name" v="Stølshøyen" />
		<tag k="natural" v="hill" />
		<tag k="place" v="locality" />
		<tag k="ssr:stedsnr" v="591459" />
	</node>
	<node id="-486680" lat="60.6918361147" lon="4.94711666507">
		<tag k="name" v="Fjelleklauva" />
		<tag k="natural" v="hill" />
		<tag k="place" v="locality" />
		<tag k="ssr:stedsnr" v="591283" />
	</node>
	<node id="-486678" lat="60.6672499999" lon="4.98795000834">
		<tag k="name" v="Århaugen" />
		<tag k="natural" v="hill" />
		<tag k="place" v="locality" />
		<tag k="ssr:stedsnr" v="591246" />
	</node>
	<node id="-486677" lat="60.6351250025" lon="5.13766667088">
		<tag k="name" v="Notlevågdalen" />
		<tag k="natural" v="valley" />
		<tag k="place" v="locality" />
		<tag k="ssr:stedsnr" v="590806" />
	</node>
	<node id="-486675" lat="60.5958888867" lon="5.1694555522">
		<tag k="name" v="Storhaugen" />
		<tag k="natural" v="hill" />
		<tag k="place" v="locality" />
		<tag k="ssr:stedsnr" v="590785" />
	</node>
	<node id="-486674" lat="60.6096333348" lon="5.1820055517">
		<tag k="fixme" v="consider natural=peak for the most distinct mountains in the district" />
		<tag k="name" v="Åsen" />
		<tag k="natural" v="hill" />
		<tag k="place" v="locality" />
		<tag k="ssr:stedsnr" v="590774" />
	</node>
	<node id="-486671" lat="60.6201666662" lon="5.15670556133">
		<tag k="name" v="Nipena" />
		<tag k="natural" v="hill" />
		<tag k="place" v="locality" />
		<tag k="ssr:stedsnr" v="590754" />
	</node>
	<node id="-486670" lat="60.6184916683" lon="5.13192222747">
		<tag k="fixme" v="consider natural=peak for the most distinct mountains in the district" />
		<tag k="name" v="Bjørnaråsen" />
		<tag k="natural" v="hill" />
		<tag k="place" v="locality" />
		<tag k="ssr:stedsnr" v="590723" />
	</node>
	<node id="-486667" lat="60.7180694483" lon="5.00694999147">
		<tag k="fixme" v="consider natural=peak for the most distinct mountains in the district" />
		<tag k="name" v="Skaråsen" />
		<tag k="natural" v="hill" />
		<tag k="place" v="locality" />
		<tag k="ssr:stedsnr" v="590692" />
	</node>
	<node id="-486666" lat="60.7157250045" lon="4.95167778212">
		<tag k="name" v="Tusshaugane" />
		<tag k="natural" v="hill" />
		<tag k="place" v="locality" />
		<tag k="ssr:stedsnr" v="590474" />
	</node>
	<node id="-486664" lat="60.6730305591" lon="4.99539721733">
		<tag k="name" v="Stokkhøyen" />
		<tag k="natural" v="hill" />
		<tag k="place" v="locality" />
		<tag k="ssr:stedsnr" v="590430" />
	</node>
	<node id="-486663" lat="60.674638887" lon="4.98277499627">
		<tag k="name" v="Storhøyen" />
		<tag k="natural" v="hill" />
		<tag k="place" v="locality" />
		<tag k="ssr:stedsnr" v="590429" />
	</node>
	<node id="-486662" lat="60.6769833319" lon="4.96040277702">
		<tag k="name" v="Moseberget" />
		<tag k="natural" v="hill" />
		<tag k="place" v="locality" />
		<tag k="ssr:stedsnr" v="590427" />
	</node>
	<node id="-486660" lat="60.7398805526" lon="4.88920000827">
		<tag k="name" v="Svartehaugen" />
		<tag k="natural" v="hill" />
		<tag k="place" v="locality" />
		<tag k="ssr:stedsnr" v="590404" />
	</node>
	<node id="-486654" lat="60.6260472255" lon="5.1543833252">
		<tag k="name" v="Staurevarden" />
		<tag k="natural" v="hill" />
		<tag k="place" v="locality" />
		<tag k="ssr:stedsnr" v="569262" />
	</node>
	<node id="-486636" lat="60.6177527752" lon="5.15192777612">
		<tag k="name" v="Treet" />
		<tag k="place" v="locality" />
		<tag k="ssr:stedsnr" v="530746" />
	</node>
	<node id="-486634" lat="60.619922221" lon="5.13070000225">
		<tag k="name" v="Sponskaret" />
		<tag k="natural" v="valley" />
		<tag k="place" v="locality" />
		<tag k="ssr:stedsnr" v="530740" />
	</node>
	<node id="-486633" lat="60.6064027744" lon="5.13671945225">
		<tag k="fixme" v="consider natural=peak for the most distinct mountains in the district" />
		<tag k="name" v="Grønåsen" />
		<tag k="natural" v="hill" />
		<tag k="place" v="locality" />
		<tag k="ssr:stedsnr" v="530715" />
	</node>
	<node id="-486630" lat="60.7142583337" lon="5.0167222151">
		<tag k="name" v="Strengelihaugen" />
		<tag k="natural" v="hill" />
		<tag k="place" v="locality" />
		<tag k="ssr:stedsnr" v="530687" />
	</node>
	<node id="-486629" lat="60.6754666702" lon="5.00794722542">
		<tag k="name" v="Nipa" />
		<tag k="natural" v="hill" />
		<tag k="place" v="locality" />
		<tag k="ssr:stedsnr" v="530684" />
	</node>
	<node id="-486628" lat="60.6859861096" lon="5.00419444422">
		<tag k="name" v="Sjursvesteinen" />
		<tag k="place" v="locality" />
		<tag k="ssr:stedsnr" v="530676" />
	</node>
	<node id="-486627" lat="60.671950001" lon="5.06446944504">
		<tag k="fixme" v="consider natural=peak for the most distinct mountains in the district" />
		<tag k="name" v="Storsåta" />
		<tag k="natural" v="hill" />
		<tag k="place" v="locality" />
		<tag k="ssr:stedsnr" v="530669" />
	</node>
	<node id="-486625" lat="60.6878027789" lon="4.99907221679">
		<tag k="name" v="Grønevarden" />
		<tag k="natural" v="hill" />
		<tag k="place" v="locality" />
		<tag k="ssr:stedsnr" v="530661" />
	</node>
	<node id="-486624" lat="60.6816249983" lon="5.00636943878">
		<tag k="name" v="Litlhopshøyen" />
		<tag k="natural" v="hill" />
		<tag k="place" v="locality" />
		<tag k="ssr:stedsnr" v="530658" />
	</node>
	<node id="-486621" lat="60.6935138901" lon="5.00456666306">
		<tag k="name" v="Åshøyen" />
		<tag k="natural" v="hill" />
		<tag k="place" v="locality" />
		<tag k="ssr:stedsnr" v="530648" />
	</node>
	<node id="-486619" lat="60.6305611097" lon="5.09073055486">
		<tag k="name" v="Revurda" />
		<tag k="place" v="locality" />
		<tag k="ssr:stedsnr" v="530627" />
	</node>
	<node id="-486616" lat="60.6465111087" lon="5.03117777684">
		<tag k="name" v="Varden" />
		<tag k="natural" v="hill" />
		<tag k="place" v="locality" />
		<tag k="ssr:stedsnr" v="530603" />
	</node>
	<node id="-486615" lat="60.6531166676" lon="5.09086943661">
		<tag k="name" v="Mangerhaugen" />
		<tag k="natural" v="hill" />
		<tag k="place" v="locality" />
		<tag k="ssr:stedsnr" v="530586" />
	</node>
	<node id="-486613" lat="60.6170277798" lon="5.09405555787">
		<tag k="name" v="Ørnetuva" />
		<tag k="place" v="locality" />
		<tag k="ssr:stedsnr" v="530546" />
	</node>
	<node id="-486610" lat="60.7263527762" lon="4.9190694437">
		<tag k="name" v="Båtstøa" />
		<tag k="place" v="locality" />
		<tag k="ssr:stedsnr" v="530510" />
	</node>
	<node id="-486609" lat="60.7179166646" lon="4.913505552">
		<tag k="name" v="Habnehola" />
		<tag k="natural" v="slope" />
		<tag k="place" v="locality" />
		<tag k="ssr:stedsnr" v="530506" />
	</node>
	<node id="-486608" lat="60.7252388879" lon="4.94423055784">
		<tag k="name" v="Middalen" />
		<tag k="natural" v="valley" />
		<tag k="place" v="locality" />
		<tag k="ssr:stedsnr" v="530485" />
	</node>
	<node id="-486605" lat="60.7333805552" lon="4.92149165796">
		<tag k="name" v="Strengdalen" />
		<tag k="natural" v="valley" />
		<tag k="place" v="locality" />
		<tag k="ssr:stedsnr" v="530441" />
	</node>
	<node id="-486604" lat="60.6805888925" lon="4.96748332913">
		<tag k="name" v="Liksteinen" />
		<tag k="place" v="locality" />
		<tag k="ssr:stedsnr" v="530439" />
	</node>
	<node id="-486601" lat="60.7345638894" lon="4.88607500454">
		<tag k="name" v="Storskarhaugane" />
		<tag k="natural" v="hill" />
		<tag k="place" v="locality" />
		<tag k="ssr:stedsnr" v="530419" />
	</node>
	<node id="-486594" lat="60.6568222257" lon="4.9427749918">
		<tag k="name" v="Stegen" />
		<tag k="place" v="locality" />
		<tag k="ssr:stedsnr" v="530326" />
	</node>
	<node id="-486587" lat="60.6376222226" lon="5.1286666757">
		<tag k="fixme" v="consider natural=peak for the most distinct mountains in the district" />
		<tag k="name" v="Veråsen" />
		<tag k="natural" v="hill" />
		<tag k="place" v="locality" />
		<tag k="ssr:stedsnr" v="529846" />
	</node>
	<node id="-486586" lat="60.6297638903" lon="5.14984443708">
		<tag k="name" v="Storrinden" />
		<tag k="natural" v="hill" />
		<tag k="place" v="locality" />
		<tag k="ssr:stedsnr" v="529843" />
	</node>
	<node id="-486582" lat="60.6879361153" lon="4.9877777783">
		<tag k="name" v="Hovden" />
		<tag k="natural" v="hill" />
		<tag k="place" v="locality" />
		<tag k="ssr:stedsnr" v="529420" />
	</node>
	<node id="-486565" lat="60.6596333325" lon="5.01856944746">
		<tag k="alt_name" v="Tveiteåsen" />
		<tag k="fixme" v="consider natural=peak for the most distinct mountains in the district" />
		<tag k="name" v="Tveitåsen" />
		<tag k="natural" v="hill" />
		<tag k="place" v="locality" />
		<tag k="ssr:stedsnr" v="491970" />
	</node>
	<node id="-486559" lat="60.7257027803" lon="4.89782777221">
		<tag k="fixme" v="consider natural=peak for the most distinct mountains in the district" />
		<tag k="name" v="Krossvarden" />
		<tag k="natural" v="hill" />
		<tag k="place" v="locality" />
		<tag k="ssr:stedsnr" v="491852" />
	</node>
	<node id="-486545" lat="60.5998277811" lon="5.19246110262">
		<tag k="fixme" v="consider natural=peak for the most distinct mountains in the district" />
		<tag k="name" v="Vettåsfjellet" />
		<tag k="natural" v="hill" />
		<tag k="place" v="locality" />
		<tag k="ssr:stedsnr" v="491020" />
	</node>
	<node id="-486540" lat="60.6698694432" lon="5.04870278113">
		<tag k="name" v="Storevarden" />
		<tag k="natural" v="hill" />
		<tag k="place" v="locality" />
		<tag k="ssr:stedsnr" v="470677" />
	</node>
	<node id="-486534" lat="60.6955305546" lon="5.04311944801">
		<tag k="name" v="Fadalen" />
		<tag k="natural" v="valley" />
		<tag k="place" v="locality" />
		<tag k="ssr:stedsnr" v="470614" />
	</node>
	<node id="-486531" lat="60.644152774" lon="5.03258055859">
		<tag k="name" v="Jonsokhaugen" />
		<tag k="natural" v="hill" />
		<tag k="place" v="locality" />
		<tag k="ssr:stedsnr" v="470581" />
	</node>
	<node id="-486530" lat="60.6373166629" lon="5.05285556373">
		<tag k="name" v="Tømberdalen" />
		<tag k="natural" v="valley" />
		<tag k="place" v="locality" />
		<tag k="ssr:stedsnr" v="470577" />
	</node>
	<node id="-486529" lat="60.6658694489" lon="5.07553332956">
		<tag k="fixme" v="consider natural=peak for the most distinct mountains in the district" />
		<tag k="name" v="Dyråsen" />
		<tag k="natural" v="hill" />
		<tag k="place" v="locality" />
		<tag k="ssr:stedsnr" v="470562" />
	</node>
	<node id="-486528" lat="60.6536527765" lon="5.04870278202">
		<tag k="name" v="Sæterskogen" />
		<tag k="natural" v="hill" />
		<tag k="place" v="locality" />
		<tag k="ssr:stedsnr" v="470552" />
	</node>
	<node id="-486525" lat="60.6577611107" lon="5.00647221556">
		<tag k="name" v="Tunga" />
		<tag k="place" v="locality" />
		<tag k="ssr:stedsnr" v="470530" />
	</node>
	<node id="-486519" lat="60.7288333296" lon="4.89113611271">
		<tag k="name" v="Vikhaugen" />
		<tag k="natural" v="hill" />
		<tag k="place" v="locality" />
		<tag k="ssr:stedsnr" v="470340" />
	</node>
	<node id="-486517" lat="60.6342638878" lon="5.11746388468">
		<tag k="fixme" v="consider natural=peak for the most distinct mountains in the district" />
		<tag k="name" v="Lundsåsen" />
		<tag k="natural" v="hill" />
		<tag k="place" v="locality" />
		<tag k="ssr:stedsnr" v="469818" />
	</node>
	<node id="-486514" lat="60.5929638887" lon="5.17106389679">
		<tag k="name" v="Krokåna" />
		<tag k="place" v="locality" />
		<tag k="ssr:stedsnr" v="469790" />
	</node>
	<node id="-486512" lat="60.6169611086" lon="5.17463610503">
		<tag k="fixme" v="consider natural=peak for the most distinct mountains in the district" />
		<tag k="name" v="Grønskaråsen" />
		<tag k="natural" v="hill" />
		<tag k="place" v="locality" />
		<tag k="ssr:stedsnr" v="469771" />
	</node>
	<node id="-486510" lat="60.6178638873" lon="5.12294722681">
		<tag k="name" v="Klubben" />
		<tag k="natural" v="hill" />
		<tag k="place" v="locality" />
		<tag k="ssr:stedsnr" v="469752" />
	</node>
	<node id="-486509" lat="60.6069333342" lon="5.15198610799">
		<tag k="name" v="Orrhaugen" />
		<tag k="natural" v="hill" />
		<tag k="place" v="locality" />
		<tag k="ssr:stedsnr" v="469749" />
	</node>
	<node id="-486507" lat="60.6122166656" lon="5.14378333017">
		<tag k="name" v="Torvdalen" />
		<tag k="natural" v="valley" />
		<tag k="place" v="locality" />
		<tag k="ssr:stedsnr" v="469733" />
	</node>
	<node id="-486506" lat="60.7208138847" lon="5.00506945142">
		<tag k="name" v="Kjinne" />
		<tag k="place" v="locality" />
		<tag k="ssr:stedsnr" v="469714" />
	</node>
	<node id="-486505" lat="60.7148333332" lon="5.01334443653">
		<tag k="fixme" v="consider natural=peak for the most distinct mountains in the district" />
		<tag k="name" v="Domannsåsen" />
		<tag k="natural" v="hill" />
		<tag k="place" v="locality" />
		<tag k="ssr:stedsnr" v="469693" />
	</node>
	<node id="-486504" lat="60.7167611138" lon="4.96802222691">
		<tag k="name" v="Brevhaugen" />
		<tag k="natural" v="hill" />
		<tag k="place" v="locality" />
		<tag k="ssr:stedsnr" v="469496" />
	</node>
	<node id="-486501" lat="60.7393083343" lon="4.88770277054">
		<tag k="name" v="Krossen" />
		<tag k="natural" v="hill" />
		<tag k="place" v="locality" />
		<tag k="ssr:stedsnr" v="469418" />
	</node>
	<node id="-486500" lat="60.7024444416" lon="4.90337222962">
		<tag k="name" v="Såthaugen" />
		<tag k="natural" v="hill" />
		<tag k="place" v="locality" />
		<tag k="ssr:stedsnr" v="469389" />
	</node>
	<node id="-486499" lat="60.7107555532" lon="4.96564167359">
		<tag k="fixme" v="consider natural=peak for the most distinct mountains in the district" />
		<tag k="name" v="Såta" />
		<tag k="natural" v="hill" />
		<tag k="place" v="locality" />
		<tag k="ssr:stedsnr" v="469362" />
	</node>
	<node id="-486498" lat="60.7077916667" lon="4.96126666911">
		<tag k="name" v="Storklopphøyen" />
		<tag k="natural" v="hill" />
		<tag k="place" v="locality" />
		<tag k="ssr:stedsnr" v="469360" />
	</node>
	<node id="-486490" lat="60.6407611099" lon="4.95284165889">
		<tag k="name" v="Klubben" />
		<tag k="natural" v="hill" />
		<tag k="place" v="locality" />
		<tag k="ssr:stedsnr" v="449670" />
	</node>
	<node id="-486488" lat="60.5980972209" lon="5.19476667528">
		<tag k="name" v="Grønfjellet" />
		<tag k="natural" v="hill" />
		<tag k="place" v="locality" />
		<tag k="ssr:stedsnr" v="449524" />
	</node>
	<node id="-486486" lat="60.7214388865" lon="4.99922499686">
		<tag k="name" v="Raudaberget" />
		<tag k="natural" v="hill" />
		<tag k="place" v="locality" />
		<tag k="ssr:stedsnr" v="449260" />
	</node>
	<node id="-486483" lat="60.6980861149" lon="4.91690834198">
		<tag k="name" v="Bøkletten" />
		<tag k="natural" v="hill" />
		<tag k="place" v="locality" />
		<tag k="ssr:stedsnr" v="449238" />
	</node>
	<node id="-486466" lat="60.7190833318" lon="5.00353333295">
		<tag k="fixme" v="consider natural=peak for the most distinct mountains in the district" />
		<tag k="name" v="Skardåsane" />
		<tag k="natural" v="hill" />
		<tag k="place" v="locality" />
		<tag k="ssr:stedsnr" v="431832" />
	</node>
	<node id="-486460" lat="60.6340083313" lon="5.13414444454">
		<tag k="name" v="Heståsen" />
		<tag k="natural" v="hill" />
		<tag k="place" v="locality" />
		<tag k="ssr:stedsnr" v="431243" />
	</node>
	<node id="-486431" lat="60.6202194446" lon="5.1651277693">
		<tag k="name" v="Storeggena" />
		<tag k="natural" v="hill" />
		<tag k="place" v="locality" />
		<tag k="ssr:stedsnr" v="227720" />
	</node>
	<node id="-486430" lat="60.6712205862" lon="5.04730145645">
		<tag k="name" v="Bjørkhøyen" />
		<tag k="natural" v="hill" />
		<tag k="place" v="locality" />
		<tag k="ssr:stedsnr" v="227658" />
	</node>
	<node id="-486429" lat="60.6912916629" lon="5.05163333773">
		<tag k="name" v="Ørnetua" />
		<tag k="natural" v="hill" />
		<tag k="place" v="locality" />
		<tag k="ssr:stedsnr" v="227608" />
	</node>
	<node id="-486428" lat="60.6407694415" lon="5.07773056237">
		<tag k="fixme" v="consider natural=peak for the most distinct mountains in the district" />
		<tag k="name" v="Risfjellet" />
		<tag k="natural" v="hill" />
		<tag k="place" v="locality" />
		<tag k="ssr:stedsnr" v="227598" />
	</node>
	<node id="-486424" lat="60.6647694483" lon="5.0739027779">
		<tag k="name" v="Stegen" />
		<tag k="natural" v="hill" />
		<tag k="place" v="locality" />
		<tag k="ssr:stedsnr" v="227569" />
	</node>
	<node id="-486423" lat="60.6620777745" lon="5.08711667467">
		<tag k="name" v="Bjørnhovden" />
		<tag k="natural" v="hill" />
		<tag k="place" v="locality" />
		<tag k="ssr:stedsnr" v="227563" />
	</node>
	<node id="-486419" lat="60.6126222203" lon="5.10950833739">
		<tag k="fixme" v="consider natural=peak for the most distinct mountains in the district" />
		<tag k="name" v="Suvfjellet" />
		<tag k="natural" v="hill" />
		<tag k="place" v="locality" />
		<tag k="ssr:stedsnr" v="227518" />
	</node>
	<node id="-486413" lat="60.7151111105" lon="4.98904444969">
		<tag k="name" v="Hesthovden" />
		<tag k="natural" v="hill" />
		<tag k="place" v="locality" />
		<tag k="ssr:stedsnr" v="227487" />
	</node>
	<node id="-486410" lat="60.7117472229" lon="4.99482221397">
		<tag k="name" v="Hesthovdskaret" />
		<tag k="natural" v="valley" />
		<tag k="place" v="locality" />
		<tag k="ssr:stedsnr" v="227449" />
	</node>
	<node id="-486409" lat="60.6112888867" lon="5.09638612046">
		<tag k="fixme" v="consider natural=peak for the most distinct mountains in the district" />
		<tag k="name" v="Litlafjellet" />
		<tag k="natural" v="hill" />
		<tag k="place" v="locality" />
		<tag k="ssr:stedsnr" v="227447" />
	</node>
	<node id="-486407" lat="60.6946500013" lon="4.9914194479">
		<tag k="name" v="Grønskaret" />
		<tag k="natural" v="valley" />
		<tag k="place" v="locality" />
		<tag k="ssr:stedsnr" v="227320" />
	</node>
	<node id="-486405" lat="60.6601888848" lon="4.98615833967">
		<tag k="name" v="Vardhøyen" />
		<tag k="natural" v="hill" />
		<tag k="place" v="locality" />
		<tag k="ssr:stedsnr" v="227290" />
	</node>
	<node id="-486399" lat="60.6337111128" lon="5.14005277292">
		<tag k="name" v="Skjoraberget" />
		<tag k="natural" v="hill" />
		<tag k="place" v="locality" />
		<tag k="ssr:stedsnr" v="226853" />
	</node>
	<node id="-486397" lat="60.6281416706" lon="5.16235277964">
		<tag k="name" v="Støleberget" />
		<tag k="natural" v="slope" />
		<tag k="place" v="locality" />
		<tag k="ssr:stedsnr" v="226841" />
	</node>
	<node id="-486396" lat="60.5883055532" lon="5.18643333825">
		<tag k="name" v="Fagervollen" />
		<tag k="natural" v="hill" />
		<tag k="place" v="locality" />
		<tag k="ssr:stedsnr" v="226821" />
	</node>
	<node id="-486395" lat="60.5875611076" lon="5.18994444978">
		<tag k="fixme" v="consider natural=peak for the most distinct mountains in the district" />
		<tag k="name" v="Hånipa" />
		<tag k="natural" v="hill" />
		<tag k="place" v="locality" />
		<tag k="ssr:stedsnr" v="226819" />
	</node>
	<node id="-486394" lat="60.6126027776" lon="5.18187777371">
		<tag k="name" v="Kollhaugen" />
		<tag k="natural" v="hill" />
		<tag k="place" v="locality" />
		<tag k="ssr:stedsnr" v="226797" />
	</node>
	<node id="-486393" lat="60.605577778" lon="5.15214166302">
		<tag k="name" v="Bjorhammaren" />
		<tag k="place" v="locality" />
		<tag k="ssr:stedsnr" v="226793" />
	</node>
	<node id="-486391" lat="60.6238388869" lon="5.155194442">
		<tag k="name" v="Utlehaugen" />
		<tag k="natural" v="hill" />
		<tag k="place" v="locality" />
		<tag k="ssr:stedsnr" v="226773" />
	</node>
	<node id="-486387" lat="60.7164305538" lon="4.99748611183">
		<tag k="name" v="Blommen" />
		<tag k="place" v="locality" />
		<tag k="ssr:stedsnr" v="226734" />
	</node>
	<node id="-486385" lat="60.713088891" lon="5.01087222051">
		<tag k="name" v="Kråthaugen" />
		<tag k="natural" v="hill" />
		<tag k="place" v="locality" />
		<tag k="ssr:stedsnr" v="226714" />
	</node>
	<node id="-486383" lat="60.7232722252" lon="4.95237221999">
		<tag k="name" v="Storevarden" />
		<tag k="natural" v="hill" />
		<tag k="place" v="locality" />
		<tag k="ssr:stedsnr" v="226496" />
	</node>
	<node id="-486379" lat="60.7324305595" lon="4.925699996">
		<tag k="name" v="Maurvaldhaugen" />
		<tag k="natural" v="hill" />
		<tag k="place" v="locality" />
		<tag k="ssr:stedsnr" v="226449" />
	</node>
	<node id="-486363" lat="60.6583333304" lon="5.05059999433">
		<tag k="fixme" v="consider natural=peak for the most distinct mountains in the district" />
		<tag k="name" v="Eldsfjellet" />
		<tag k="natural" v="hill" />
		<tag k="place" v="locality" />
		<tag k="ssr:stedsnr" v="188980" />
	</node>
	<node id="-486343" lat="60.6502194409" lon="5.09193055323">
		<tag k="fixme" v="consider natural=peak for the most distinct mountains in the district" />
		<tag k="name" v="Lauvåsen" />
		<tag k="natural" v="hill" />
		<tag k="place" v="locality" />
		<tag k="ssr:stedsnr" v="188787" />
	</node>
	<node id="-486340" lat="60.6031444439" lon="5.1699833405">
		<tag k="name" v="Storleitet" />
		<tag k="natural" v="hill" />
		<tag k="place" v="locality" />
		<tag k="ssr:stedsnr" v="166776" />
	</node>
	<node id="-486339" lat="60.6023083287" lon="5.15713610453">
		<tag k="name" v="Skutleberget" />
		<tag k="natural" v="cliff" />
		<tag k="ssr:stedsnr" v="166769" />
	</node>
	<node id="-486338" lat="60.601475003" lon="5.16777499367">
		<tag k="name" v="Goddalen" />
		<tag k="natural" v="valley" />
		<tag k="place" v="locality" />
		<tag k="ssr:stedsnr" v="166767" />
	</node>
	<node id="-486337" lat="60.6002805548" lon="5.16386945233">
		<tag k="name" v="Grønhaugen" />
		<tag k="natural" v="hill" />
		<tag k="place" v="locality" />
		<tag k="ssr:stedsnr" v="166765" />
	</node>
	<node id="-486336" lat="60.6098777765" lon="5.15828610359">
		<tag k="name" v="Ålen" />
		<tag k="place" v="locality" />
		<tag k="ssr:stedsnr" v="166730" />
	</node>
	<node id="-486335" lat="60.6217138902" lon="5.1695083268">
		<tag k="name" v="Magnerud" />
		<tag k="place" v="locality" />
		<tag k="ssr:stedsnr" v="166726" />
	</node>
	<node id="-486329" lat="60.7127805596" lon="5.00093333407">
		<tag k="name" v="Tverråsskaret" />
		<tag k="natural" v="valley" />
		<tag k="place" v="locality" />
		<tag k="ssr:stedsnr" v="166682" />
	</node>
	<node id="-486328" lat="60.725158331" lon="5.02386389705">
		<tag k="name" v="Knuthaugen" />
		<tag k="natural" v="hill" />
		<tag k="place" v="locality" />
		<tag k="ssr:stedsnr" v="166673" />
	</node>
	<node id="-486327" lat="60.6707527791" lon="5.00578333374">
		<tag k="name" v="Grønhøyen" />
		<tag k="natural" v="hill" />
		<tag k="place" v="locality" />
		<tag k="ssr:stedsnr" v="166660" />
	</node>
	<node id="-486326" lat="60.6742833357" lon="5.02272223043">
		<tag k="name" v="Lyshovden" />
		<tag k="natural" v="hill" />
		<tag k="place" v="locality" />
		<tag k="ssr:stedsnr" v="166657" />
	</node>
	<node id="-486321" lat="60.7113361112" lon="5.03696111856">
		<tag k="name" v="Brokeløysa" />
		<tag k="place" v="locality" />
		<tag k="ssr:stedsnr" v="166615" />
	</node>
	<node id="-486320" lat="60.6998194409" lon="5.0065861134">
		<tag k="name" v="Åsen" />
		<tag k="natural" v="slope" />
		<tag k="place" v="locality" />
		<tag k="ssr:stedsnr" v="166606" />
	</node>
	<node id="-486318" lat="60.6414305526" lon="5.09054444615">
		<tag k="fixme" v="consider natural=peak for the most distinct mountains in the district" />
		<tag k="name" v="Åsen" />
		<tag k="natural" v="hill" />
		<tag k="place" v="locality" />
		<tag k="ssr:stedsnr" v="166592" />
	</node>
	<node id="-486310" lat="60.6680805524" lon="5.00213610726">
		<tag k="name" v="Nordre Kollhøyen" />
		<tag k="natural" v="hill" />
		<tag k="place" v="locality" />
		<tag k="ssr:stedsnr" v="166531" />
	</node>
	<node id="-486309" lat="60.6641361137" lon="5.01228888768">
		<tag k="fixme" v="consider natural=peak for the most distinct mountains in the district" />
		<tag k="name" v="Medåsen" />
		<tag k="natural" v="hill" />
		<tag k="place" v="locality" />
		<tag k="ssr:stedsnr" v="166529" />
	</node>
	<node id="-486308" lat="60.664902775" lon="5.03726944611">
		<tag k="name" v="Stuvikhøyen" />
		<tag k="natural" v="hill" />
		<tag k="place" v="locality" />
		<tag k="ssr:stedsnr" v="166527" />
	</node>
	<node id="-486298" lat="60.6728305529" lon="4.98840555591">
		<tag k="name" v="Stongarhøyen" />
		<tag k="natural" v="hill" />
		<tag k="place" v="locality" />
		<tag k="ssr:stedsnr" v="166432" />
	</node>
	<node id="-486296" lat="60.7300777821" lon="4.8968833366">
		<tag k="name" v="Nattskaret" />
		<tag k="natural" v="valley" />
		<tag k="place" v="locality" />
		<tag k="ssr:stedsnr" v="166394" />
	</node>
	<node id="-486293" lat="60.7069111077" lon="4.94676945343">
		<tag k="name" v="Grøvledalen" />
		<tag k="natural" v="valley" />
		<tag k="place" v="locality" />
		<tag k="ssr:stedsnr" v="166361" />
	</node>
	<node id="-486292" lat="60.7068055524" lon="4.97887500951">
		<tag k="name" v="Svarthøyen" />
		<tag k="natural" v="hill" />
		<tag k="place" v="locality" />
		<tag k="ssr:stedsnr" v="166339" />
	</node>
	<node id="-486290" lat="60.7039083364" lon="4.9713916636">
		<tag k="name" v="Ørnereiret" />
		<tag k="natural" v="hill" />
		<tag k="place" v="locality" />
		<tag k="ssr:stedsnr" v="166319" />
	</node>
	<node id="-486284" lat="60.6472250005" lon="4.95790833101">
		<tag k="name" v="Storhøyen" />
		<tag k="natural" v="hill" />
		<tag k="place" v="locality" />
		<tag k="ssr:stedsnr" v="166280" />
	</node>
	<node id="-486280" lat="60.5970333319" lon="5.19614165786">
		<tag k="name" v="Skaret" />
		<tag k="natural" v="valley" />
		<tag k="place" v="locality" />
		<tag k="ssr:stedsnr" v="165809" />
	</node>
	<node id="-486279" lat="60.679719445" lon="4.9591388914">
		<tag k="name" v="Stokkedalen" />
		<tag k="natural" v="valley" />
		<tag k="place" v="locality" />
		<tag k="ssr:stedsnr" v="165447" />
	</node>
	<node id="-486269" lat="60.6296277764" lon="5.05568888188">
		<tag k="fixme" v="consider natural=peak for the most distinct mountains in the district" />
		<tag k="name" v="Jonsokhaugen" />
		<tag k="natural" v="hill" />
		<tag k="place" v="locality" />
		<tag k="ssr:stedsnr" v="127952" />
	</node>
	<node id="-486257" lat="60.7248722198" lon="4.99015278682">
		<tag k="name" v="Straume" />
		<tag k="natural" v="hill" />
		<tag k="place" v="locality" />
		<tag k="ssr:stedsnr" v="115235" />
	</node>
	<node id="-486253" lat="60.7052138873" lon="5.01605832641">
		<tag k="name" v="Lyngåsdalen" />
		<tag k="natural" v="valley" />
		<tag k="place" v="locality" />
		<tag k="ssr:stedsnr" v="106608" />
	</node>
	<node id="-486244" lat="60.6086500034" lon="5.06746665761">
		<tag k="name" v="Hundskjeften" />
		<tag k="place" v="locality" />
		<tag k="ssr:stedsnr" v="106519" />
	</node>
	<node id="-486242" lat="60.6143111119" lon="5.1138499957">
		<tag k="name" v="Revurkanen" />
		<tag k="place" v="locality" />
		<tag k="ssr:stedsnr" v="106516" />
	</node>
	<node id="-486235" lat="60.7190805511" lon="4.98687777137">
		<tag k="name" v="Langhaugane" />
		<tag k="natural" v="hill" />
		<tag k="place" v="locality" />
		<tag k="ssr:stedsnr" v="106465" />
	</node>
	<node id="-486233" lat="60.7117555574" lon="4.97762777666">
		<tag k="name" v="Smihaugen" />
		<tag k="natural" v="hill" />
		<tag k="place" v="locality" />
		<tag k="ssr:stedsnr" v="106434" />
	</node>
	<node id="-486230" lat="60.6988416705" lon="4.98657222986">
		<tag k="name" v="Storsåta" />
		<tag k="natural" v="hill" />
		<tag k="place" v="locality" />
		<tag k="ssr:stedsnr" v="106341" />
	</node>
	<node id="-486229" lat="60.6927361106" lon="4.98029167209">
		<tag k="name" v="Nipena" />
		<tag k="natural" v="hill" />
		<tag k="place" v="locality" />
		<tag k="ssr:stedsnr" v="106311" />
	</node>
	<node id="-486228" lat="60.6908194405" lon="4.98599165889">
		<tag k="name" v="Myking" />
		<tag k="natural" v="hill" />
		<tag k="place" v="locality" />
		<tag k="ssr:stedsnr" v="106309" />
	</node>
	<node id="-486217" lat="60.6809250039" lon="4.94999443842">
		<tag k="name" v="Svineklotten" />
		<tag k="natural" v="hill" />
		<tag k="place" v="locality" />
		<tag k="ssr:stedsnr" v="105816" />
	</node>
	<node id="-486216" lat="60.744244442" lon="4.89604166233">
		<tag k="name" v="Jonsokhaugen" />
		<tag k="natural" v="hill" />
		<tag k="place" v="locality" />
		<tag k="ssr:stedsnr" v="105813" />
	</node>
	<node id="-486215" lat="60.6277472183" lon="5.15589721627">
		<tag k="name" v="Grønebrekka" />
		<tag k="natural" v="slope" />
		<tag k="place" v="locality" />
		<tag k="ssr:stedsnr" v="105808" />
	</node>
	<node id="-486212" lat="60.606300004" lon="5.15639722847">
		<tag k="name" v="Krosshaugen" />
		<tag k="natural" v="hill" />
		<tag k="place" v="locality" />
		<tag k="ssr:stedsnr" v="105736" />
	</node>
	<node id="-486211" lat="60.6079638931" lon="5.13173889397">
		<tag k="fixme" v="consider natural=peak for the most distinct mountains in the district" />
		<tag k="name" v="Sauåsen" />
		<tag k="natural" v="hill" />
		<tag k="place" v="locality" />
		<tag k="ssr:stedsnr" v="105730" />
	</node>
	<node id="-486208" lat="60.7248750008" lon="5.02163332844">
		<tag k="name" v="Reset" />
		<tag k="place" v="locality" />
		<tag k="ssr:stedsnr" v="105705" />
	</node>
	<node id="-486207" lat="60.7122583375" lon="5.00889999734">
		<tag k="name" v="Djupedalen" />
		<tag k="natural" v="valley" />
		<tag k="place" v="locality" />
		<tag k="ssr:stedsnr" v="105697" />
	</node>
	<node id="-486204" lat="60.714427779" lon="4.99766666329">
		<tag k="name" v="Langhaugen" />
		<tag k="natural" v="hill" />
		<tag k="place" v="locality" />
		<tag k="ssr:stedsnr" v="105683" />
	</node>
	<node id="-486200" lat="60.6801888925" lon="4.97306667087">
		<tag k="name" v="Hatten" />
		<tag k="natural" v="hill" />
		<tag k="place" v="locality" />
		<tag k="ssr:stedsnr" v="105433" />
	</node>
	<node id="-486197" lat="60.6958222213" lon="4.97910000065">
		<tag k="name" v="Klubben" />
		<tag k="natural" v="hill" />
		<tag k="place" v="locality" />
		<tag k="ssr:stedsnr" v="105370" />
	</node>
	<node id="-486194" lat="60.6863444483" lon="4.93331665715">
		<tag k="name" v="Ramshøyen" />
		<tag k="natural" v="hill" />
		<tag k="place" v="locality" />
		<tag k="ssr:stedsnr" v="104428" />
	</node>
	<node id="-486193" lat="60.6699888871" lon="4.96153610439">
		<tag k="name" v="Djupedalen" />
		<tag k="natural" v="valley" />
		<tag k="place" v="locality" />
		<tag k="ssr:stedsnr" v="104422" />
	</node>
	<node id="-486183" lat="60.6409055526" lon="5.04862223083">
		<tag k="name" v="Hesthaugen" />
		<tag k="natural" v="hill" />
		<tag k="place" v="locality" />
		<tag k="ssr:stedsnr" v="82222" />
	</node>
	<node id="-486171" lat="60.7053666662" lon="5.01145554903">
		<tag k="fixme" v="consider natural=peak for the most distinct mountains in the district" />
		<tag k="name" v="Lyngåsen" />
		<tag k="natural" v="hill" />
		<tag k="place" v="locality" />
		<tag k="ssr:stedsnr" v="67810" />
	</node>
	<node id="-486170" lat="60.7066555587" lon="5.02725555185">
		<tag k="fixme" v="consider natural=peak for the most distinct mountains in the district" />
		<tag k="name" v="Åsane" />
		<tag k="natural" v="hill" />
		<tag k="place" v="locality" />
		<tag k="ssr:stedsnr" v="67811" />
	</node>
	<node id="-486151" lat="60.6806388899" lon="5.01158888238">
		<tag k="name" v="Nipa" />
		<tag k="natural" v="hill" />
		<tag k="place" v="locality" />
		<tag k="ssr:stedsnr" v="45615" />
	</node>
	<node id="-486150" lat="60.6812972228" lon="5.01705556049">
		<tag k="fixme" v="consider natural=peak for the most distinct mountains in the district" />
		<tag k="name" v="Dyråsen" />
		<tag k="natural" v="hill" />
		<tag k="place" v="locality" />
		<tag k="ssr:stedsnr" v="45610" />
	</node>
	<node id="-486149" lat="60.6960444449" lon="5.01123888566">
		<tag k="name" v="Årseta" />
		<tag k="place" v="locality" />
		<tag k="ssr:stedsnr" v="45599" />
	</node>
	<node id="-486147" lat="60.6775361111" lon="5.01112500908">
		<tag k="name" v="Rinden" />
		<tag k="natural" v="hill" />
		<tag k="place" v="locality" />
		<tag k="ssr:stedsnr" v="45595" />
	</node>
	<node id="-486145" lat="60.6904027821" lon="5.006202774">
		<tag k="name" v="Storhaugane" />
		<tag k="natural" v="hill" />
		<tag k="place" v="locality" />
		<tag k="ssr:stedsnr" v="45587" />
	</node>
	<node id="-486144" lat="60.6620000009" lon="5.09586111999">
		<tag k="name" v="Storhaugen" />
		<tag k="natural" v="hill" />
		<tag k="place" v="locality" />
		<tag k="ssr:stedsnr" v="45545" />
	</node>
	<node id="-486143" lat="60.6504416666" lon="5.05902499512">
		<tag k="fixme" v="consider natural=peak for the most distinct mountains in the district" />
		<tag k="name" v="Solendåsen" />
		<tag k="natural" v="hill" />
		<tag k="place" v="locality" />
		<tag k="ssr:stedsnr" v="45544" />
	</node>
	<node id="-486141" lat="60.6226555575" lon="5.10701389656">
		<tag k="name" v="Leitena" />
		<tag k="natural" v="hill" />
		<tag k="place" v="locality" />
		<tag k="ssr:stedsnr" v="45514" />
	</node>
	<node id="-486139" lat="60.6229166691" lon="5.10173332719">
		<tag k="name" v="Stolen" />
		<tag k="place" v="locality" />
		<tag k="ssr:stedsnr" v="45507" />
	</node>
	<node id="-486132" lat="60.6620055597" lon="4.99222499407">
		<tag k="name" v="Sekkjedalen" />
		<tag k="natural" v="valley" />
		<tag k="place" v="locality" />
		<tag k="ssr:stedsnr" v="45293" />
	</node>
	<node id="-486131" lat="60.6572027761" lon="4.99406389594">
		<tag k="name" v="Svarthøyen" />
		<tag k="natural" v="hill" />
		<tag k="place" v="locality" />
		<tag k="ssr:stedsnr" v="45288" />
	</node>
	<node id="-486129" lat="60.6663500034" lon="4.96971388264">
		<tag k="name" v="Hellakletten" />
		<tag k="natural" v="hill" />
		<tag k="place" v="locality" />
		<tag k="ssr:stedsnr" v="45280" />
	</node>
	<node id="-486120" lat="60.6445569766" lon="5.13197720647">
		<tag k="name" v="Olshaugen" />
		<tag k="natural" v="hill" />
		<tag k="old_name" v="Dishaugen" />
		<tag k="place" v="locality" />
		<tag k="ssr:stedsnr" v="44821" />
	</node>
	<node id="-486119" lat="60.6375611143" lon="5.14199722184">
		<tag k="name" v="Nipena" />
		<tag k="natural" v="hill" />
		<tag k="place" v="locality" />
		<tag k="ssr:stedsnr" v="44820" />
	</node>
	<node id="-486118" lat="60.5928166692" lon="5.17314722346">
		<tag k="name" v="Ladberget" />
		<tag k="natural" v="slope" />
		<tag k="place" v="locality" />
		<tag k="ssr:stedsnr" v="44785" />
	</node>
	<node id="-486117" lat="60.598647226" lon="5.18676944597">
		<tag k="name" v="Rinden" />
		<tag k="natural" v="hill" />
		<tag k="place" v="locality" />
		<tag k="ssr:stedsnr" v="44776" />
	</node>
	<node id="-486116" lat="60.5856194473" lon="5.19248888106">
		<tag k="fixme" v="consider natural=peak for the most distinct mountains in the district" />
		<tag k="name" v="Furefjellet" />
		<tag k="natural" v="hill" />
		<tag k="place" v="locality" />
		<tag k="ssr:stedsnr" v="44772" />
	</node>
	<node id="-486114" lat="60.6070833372" lon="5.14285278279">
		<tag k="name" v="Små-ståle" />
		<tag k="natural" v="valley" />
		<tag k="place" v="locality" />
		<tag k="ssr:stedsnr" v="44754" />
	</node>
	<node id="-486110" lat="60.6128555567" lon="5.13982221833">
		<tag k="name" v="Storstølhaugen" />
		<tag k="natural" v="hill" />
		<tag k="place" v="locality" />
		<tag k="ssr:stedsnr" v="44727" />
	</node>
	<node id="-486109" lat="60.7147444482" lon="5.02578334132">
		<tag k="name" v="Nøstnesdalen" />
		<tag k="natural" v="valley" />
		<tag k="place" v="locality" />
		<tag k="ssr:stedsnr" v="44705" />
	</node>
	<node id="-486107" lat="60.7233194427" lon="5.01907778531">
		<tag k="name" v="Dalen" />
		<tag k="natural" v="valley" />
		<tag k="place" v="locality" />
		<tag k="ssr:stedsnr" v="44693" />
	</node>
	<node id="-486106" lat="60.7245222211" lon="5.02020555016">
		<tag k="name" v="Steindulpehaugen" />
		<tag k="natural" v="hill" />
		<tag k="place" v="locality" />
		<tag k="ssr:stedsnr" v="44681" />
	</node>
	<node id="-486105" lat="60.7289111101" lon="4.97886667046">
		<tag k="name" v="Grøndalen" />
		<tag k="natural" v="valley" />
		<tag k="place" v="locality" />
		<tag k="ssr:stedsnr" v="44456" />
	</node>
	<node id="-486104" lat="60.7234194416" lon="4.98467222556">
		<tag k="name" v="Bødalen" />
		<tag k="natural" v="valley" />
		<tag k="place" v="locality" />
		<tag k="ssr:stedsnr" v="44452" />
	</node>
	<node id="-486102" lat="60.687127777" lon="4.96501111089">
		<tag k="name" v="Høljedalen" />
		<tag k="natural" v="valley" />
		<tag k="place" v="locality" />
		<tag k="ssr:stedsnr" v="44423" />
	</node>
	<node id="-486101" lat="60.67861667" lon="4.95628055467">
		<tag k="name" v="Vardhøyen" />
		<tag k="natural" v="hill" />
		<tag k="place" v="locality" />
		<tag k="ssr:stedsnr" v="44407" />
	</node>
	<node id="-486085" lat="60.6376944441" lon="5.07766944821">
		<tag k="fixme" v="consider natural=peak for the most distinct mountains in the district" />
		<tag k="name" v="Nøttveitveten" />
		<tag k="natural" v="hill" />
		<tag k="place" v="locality" />
		<tag k="ssr:stedsnr" v="6970" />
	</node>
	<node id="-486061" lat="60.7111333351" lon="5.03192777083">
		<tag k="name" v="Øykåsdalen" />
		<tag k="natural" v="valley" />
		<tag k="place" v="locality" />
		<tag k="ssr:stedsnr" v="895617" />
	</node>
	<node id="-486058" lat="60.6888555554" lon="5.02850278003">
		<tag k="name" v="Storhaugen" />
		<tag k="natural" v="hill" />
		<tag k="place" v="locality" />
		<tag k="ssr:stedsnr" v="895595" />
	</node>
	<node id="-486057" lat="60.6777138892" lon="5.02962499596">
		<tag k="fixme" v="consider natural=peak for the most distinct mountains in the district" />
		<tag k="name" v="Åsane" />
		<tag k="natural" v="hill" />
		<tag k="place" v="locality" />
		<tag k="ssr:stedsnr" v="895591" />
	</node>
	<node id="-486052" lat="60.6621861083" lon="5.00282499406">
		<tag k="name" v="Hovden" />
		<tag k="natural" v="hill" />
		<tag k="place" v="locality" />
		<tag k="ssr:stedsnr" v="895504" />
	</node>
	<node id="-486050" lat="60.6087944448" lon="5.11518334152">
		<tag k="name" v="Sævardalshaugane" />
		<tag k="natural" v="hill" />
		<tag k="place" v="locality" />
		<tag k="ssr:stedsnr" v="895499" />
	</node>
	<node id="-486049" lat="60.6177861077" lon="5.09115278618">
		<tag k="name" v="Fagerdalen" />
		<tag k="natural" v="valley" />
		<tag k="place" v="locality" />
		<tag k="ssr:stedsnr" v="895496" />
	</node>
	<node id="-486047" lat="60.6198666669" lon="5.1018055524">
		<tag k="name" v="Kvernarinden" />
		<tag k="natural" v="hill" />
		<tag k="place" v="locality" />
		<tag k="ssr:stedsnr" v="895495" />
	</node>
	<node id="-486046" lat="60.6140333344" lon="5.10791110919">
		<tag k="fixme" v="consider natural=peak for the most distinct mountains in the district" />
		<tag k="name" v="Ørnenuten" />
		<tag k="natural" v="hill" />
		<tag k="place" v="locality" />
		<tag k="ssr:stedsnr" v="895492" />
	</node>
	<node id="-486043" lat="60.7318361144" lon="4.91406665709">
		<tag k="name" v="Kvitevarane" />
		<tag k="natural" v="hill" />
		<tag k="place" v="locality" />
		<tag k="ssr:stedsnr" v="895462" />
	</node>
	<node id="-486042" lat="60.7320861103" lon="4.89840833084">
		<tag k="name" v="Leirklubben" />
		<tag k="natural" v="hill" />
		<tag k="place" v="locality" />
		<tag k="ssr:stedsnr" v="895381" />
	</node>
	<node id="-486040" lat="60.7122388865" lon="4.92723611737">
		<tag k="name" v="Kalvhaugen" />
		<tag k="natural" v="hill" />
		<tag k="place" v="locality" />
		<tag k="ssr:stedsnr" v="895352" />
	</node>
	<node id="-486033" lat="60.6318416698" lon="5.14376111196">
		<tag k="name" v="Storhaugen" />
		<tag k="natural" v="hill" />
		<tag k="place" v="locality" />
		<tag k="ssr:stedsnr" v="894826" />
	</node>
	<node id="-486032" lat="60.6305138925" lon="5.15428333418">
		<tag k="name" v="Krossen" />
		<tag k="place" v="locality" />
		<tag k="ssr:stedsnr" v="894823" />
	</node>
	<node id="-486031" lat="60.6433888915" lon="5.07082499402">
		<tag k="fixme" v="consider natural=peak for the most distinct mountains in the district" />
		<tag k="name" v="Storefjellet" />
		<tag k="natural" v="hill" />
		<tag k="place" v="locality" />
		<tag k="ssr:stedsnr" v="894819" />
	</node>
	<node id="-486030" lat="60.620552776" lon="5.17150834103">
		<tag k="name" v="Ålane" />
		<tag k="place" v="locality" />
		<tag k="ssr:stedsnr" v="894764" />
	</node>
	<node id="-486027" lat="60.6198777806" lon="5.15934167012">
		<tag k="name" v="Kanardalen" />
		<tag k="natural" v="valley" />
		<tag k="place" v="locality" />
		<tag k="ssr:stedsnr" v="894738" />
	</node>
	<node id="-486025" lat="60.6207249958" lon="5.13673054795">
		<tag k="name" v="Høljedalen" />
		<tag k="natural" v="valley" />
		<tag k="place" v="locality" />
		<tag k="ssr:stedsnr" v="894726" />
	</node>
	<node id="-486024" lat="60.7237194418" lon="5.02053888857">
		<tag k="name" v="Leikhaugen" />
		<tag k="natural" v="hill" />
		<tag k="place" v="locality" />
		<tag k="ssr:stedsnr" v="894702" />
	</node>
	<node id="-486022" lat="60.6762916693" lon="4.96642777288">
		<tag k="name" v="Lamburdsdalen" />
		<tag k="natural" v="valley" />
		<tag k="place" v="locality" />
		<tag k="ssr:stedsnr" v="894474" />
	</node>
	<node id="-486020" lat="60.7326944436" lon="4.8869249985">
		<tag k="name" v="Storskaret" />
		<tag k="natural" v="valley" />
		<tag k="place" v="locality" />
		<tag k="ssr:stedsnr" v="894448" />
	</node>
	<node id="-486019" lat="60.7000333321" lon="4.99443611521">
		<tag k="name" v="Dyrvasshaugane" />
		<tag k="natural" v="hill" />
		<tag k="place" v="locality" />
		<tag k="ssr:stedsnr" v="894375" />
	</node>
	<node id="-486018" lat="60.6864611107" lon="4.98668054698">
		<tag k="name" v="Storhøyen" />
		<tag k="natural" v="hill" />
		<tag k="place" v="locality" />
		<tag k="ssr:stedsnr" v="893427" />
	</node>
	<node id="-486016" lat="60.6847416675" lon="4.97657778293">
		<tag k="name" v="Bjørkhaugen" />
		<tag k="natural" v="hill" />
		<tag k="place" v="locality" />
		<tag k="ssr:stedsnr" v="893422" />
	</node>
	<node id="-486015" lat="60.6882277778" lon="4.95077777167">
		<tag k="alt_name" v="Vanndalen" />
		<tag k="name" v="Vandalen" />
		<tag k="natural" v="valley" />
		<tag k="place" v="locality" />
		<tag k="ssr:stedsnr" v="893419" />
	</node>
	<node id="-486014" lat="60.6809999991" lon="4.96947778113">
		<tag k="name" v="Grønhaugen" />
		<tag k="natural" v="hill" />
		<tag k="place" v="locality" />
		<tag k="ssr:stedsnr" v="893413" />
	</node>
	<node id="-486008" lat="60.7132166671" lon="5.00735277736">
		<tag k="name" v="Småskarbrekkene" />
		<tag k="natural" v="slope" />
		<tag k="place" v="locality" />
		<tag k="ssr:stedsnr" v="409687" />
	</node>
	<node id="-486007" lat="60.7264111129" lon="5.00855832573">
		<tag k="name" v="Tongestøa" />
		<tag k="place" v="locality" />
		<tag k="ssr:stedsnr" v="409686" />
	</node>
	<node id="-486006" lat="60.6745916663" lon="5.03872499277">
		<tag k="name" v="Skjoldshaugen" />
		<tag k="natural" v="hill" />
		<tag k="place" v="locality" />
		<tag k="ssr:stedsnr" v="409661" />
	</node>
	<node id="-486003" lat="60.7013833365" lon="4.99959721983">
		<tag k="name" v="Åshøyen" />
		<tag k="natural" v="hill" />
		<tag k="place" v="locality" />
		<tag k="ssr:stedsnr" v="409627" />
	</node>
	<node id="-486001" lat="60.695438889" lon="5.01720554866">
		<tag k="name" v="Blåbæråsen" />
		<tag k="natural" v="hill" />
		<tag k="place" v="locality" />
		<tag k="ssr:stedsnr" v="409611" />
	</node>
	<node id="-485990" lat="60.6630833304" lon="5.01433888349">
		<tag k="name" v="Husdalen" />
		<tag k="natural" v="valley" />
		<tag k="place" v="locality" />
		<tag k="ssr:stedsnr" v="409534" />
	</node>
	<node id="-485989" lat="60.6526472209" lon="5.0122277854">
		<tag k="name" v="Kollhøyen" />
		<tag k="natural" v="hill" />
		<tag k="place" v="locality" />
		<tag k="ssr:stedsnr" v="409522" />
	</node>
	<node id="-485988" lat="60.6558722212" lon="5.02884444841">
		<tag k="name" v="Gjerdeberget" />
		<tag k="natural" v="hill" />
		<tag k="place" v="locality" />
		<tag k="ssr:stedsnr" v="409516" />
	</node>
	<node id="-485985" lat="60.7244444484" lon="4.90784444884">
		<tag k="name" v="Såta" />
		<tag k="natural" v="hill" />
		<tag k="place" v="locality" />
		<tag k="ssr:stedsnr" v="409384" />
	</node>
	<node id="-485982" lat="60.6909000018" lon="4.95715832532">
		<tag k="name" v="Støvlerinden" />
		<tag k="natural" v="hill" />
		<tag k="place" v="locality" />
		<tag k="ssr:stedsnr" v="409356" />
	</node>
	<node id="-485981" lat="60.7012277765" lon="4.99093333227">
		<tag k="name" v="Svarthøyen" />
		<tag k="natural" v="hill" />
		<tag k="place" v="locality" />
		<tag k="ssr:stedsnr" v="409335" />
	</node>
	<node id="-485980" lat="60.6978777775" lon="4.98829167202">
		<tag k="name" v="Småvarden" />
		<tag k="natural" v="hill" />
		<tag k="place" v="locality" />
		<tag k="ssr:stedsnr" v="409331" />
	</node>
	<node id="-485979" lat="60.6934777788" lon="4.98175834062">
		<tag k="name" v="Kisdalen" />
		<tag k="natural" v="valley" />
		<tag k="place" v="locality" />
		<tag k="ssr:stedsnr" v="409326" />
	</node>
	<node id="-485978" lat="60.7030972263" lon="4.95483333311">
		<tag k="name" v="Seilfallet" />
		<tag k="natural" v="slope" />
		<tag k="place" v="locality" />
		<tag k="ssr:stedsnr" v="409323" />
	</node>
	<node id="-485968" lat="60.6001861083" lon="5.19213889324">
		<tag k="fixme" v="consider natural=peak for the most distinct mountains in the district" />
		<tag k="name" v="Vetlåsfjellet" />
		<tag k="natural" v="hill" />
		<tag k="place" v="locality" />
		<tag k="ssr:stedsnr" v="408789" />
	</node>
	<node id="-485967" lat="60.5957249992" lon="5.17660000753">
		<tag k="name" v="Storrinden" />
		<tag k="natural" v="hill" />
		<tag k="place" v="locality" />
		<tag k="ssr:stedsnr" v="408788" />
	</node>
	<node id="-485966" lat="60.6175888922" lon="5.18289166377">
		<tag k="fixme" v="consider natural=peak for the most distinct mountains in the district" />
		<tag k="name" v="Skipsåsen" />
		<tag k="natural" v="hill" />
		<tag k="place" v="locality" />
		<tag k="ssr:stedsnr" v="408771" />
	</node>
	<node id="-485965" lat="60.61738056" lon="5.1633472256">
		<tag k="name" v="Haltershaugen" />
		<tag k="natural" v="hill" />
		<tag k="place" v="locality" />
		<tag k="ssr:stedsnr" v="408767" />
	</node>
	<node id="-485963" lat="60.6741388894" lon="4.97762777439">
		<tag k="name" v="Revedalen" />
		<tag k="natural" v="valley" />
		<tag k="place" v="locality" />
		<tag k="ssr:stedsnr" v="408478" />
	</node>
	<node id="-485961" lat="60.6824666698" lon="4.95837778313">
		<tag k="name" v="Brennesdalen" />
		<tag k="natural" v="valley" />
		<tag k="place" v="locality" />
		<tag k="ssr:stedsnr" v="408460" />
	</node>
	<node id="-485945" lat="60.660716665" lon="4.92239445209">
		<tag k="fixme" v="consider natural=peak for the most distinct mountains in the district" />
		<tag k="name" v="Storhaugen" />
		<tag k="natural" v="hill" />
		<tag k="place" v="locality" />
		<tag k="ssr:stedsnr" v="370999" />
	</node>
	<node id="-485923" lat="60.5914833306" lon="5.187569448">
		<tag k="fixme" v="consider natural=peak for the most distinct mountains in the district" />
		<tag k="name" v="Veten" />
		<tag k="natural" v="hill" />
		<tag k="place" v="locality" />
		<tag k="ssr:stedsnr" v="348768" />
	</node>
	<node id="-485922" lat="60.5901694439" lon="5.19848610886">
		<tag k="name" v="Peparhaugen" />
		<tag k="natural" v="hill" />
		<tag k="place" v="locality" />
		<tag k="ssr:stedsnr" v="348749" />
	</node>
	<node id="-485921" lat="60.6038361124" lon="5.18259167077">
		<tag k="name" v="Svarterinden" />
		<tag k="natural" v="hill" />
		<tag k="place" v="locality" />
		<tag k="ssr:stedsnr" v="348747" />
	</node>
	<node id="-485914" lat="60.6829944463" lon="5.00057500046">
		<tag k="name" v="Merkesdalen" />
		<tag k="natural" v="valley" />
		<tag k="place" v="locality" />
		<tag k="ssr:stedsnr" v="348621" />
	</node>
	<node id="-485913" lat="60.6793194424" lon="5.01004721368">
		<tag k="name" v="Stokkedalen" />
		<tag k="natural" v="valley" />
		<tag k="place" v="locality" />
		<tag k="ssr:stedsnr" v="348622" />
	</node>
	<node id="-485911" lat="60.7019805524" lon="5.01513610412">
		<tag k="name" v="Soltveit" />
		<tag k="place" v="locality" />
		<tag k="ssr:stedsnr" v="348601" />
	</node>
	<node id="-485905" lat="60.6539999982" lon="5.00581389018">
		<tag k="name" v="Torhellrane" />
		<tag k="natural" v="hill" />
		<tag k="place" v="locality" />
		<tag k="ssr:stedsnr" v="348532" />
	</node>
	<node id="-485904" lat="60.661644442" lon="5.01514721563">
		<tag k="fixme" v="consider natural=peak for the most distinct mountains in the district" />
		<tag k="name" v="Greiskaråsen" />
		<tag k="natural" v="hill" />
		<tag k="place" v="locality" />
		<tag k="ssr:stedsnr" v="348527" />
	</node>
	<node id="-485903" lat="60.6612722199" lon="5.00508610245">
		<tag k="name" v="Skitlarhøyen" />
		<tag k="natural" v="hill" />
		<tag k="place" v="locality" />
		<tag k="ssr:stedsnr" v="348516" />
	</node>
	<node id="-485901" lat="60.7118777784" lon="4.92978333818">
		<tag k="name" v="Rasdalshaugen" />
		<tag k="natural" v="hill" />
		<tag k="place" v="locality" />
		<tag k="ssr:stedsnr" v="348476" />
	</node>
	<node id="-485899" lat="60.7231527785" lon="4.89659722286">
		<tag k="name" v="Sjelkenova" />
		<tag k="natural" v="slope" />
		<tag k="place" v="locality" />
		<tag k="ssr:stedsnr" v="348467" />
	</node>
	<node id="-485895" lat="60.7329694402" lon="4.89140277627">
		<tag k="name" v="Nipane" />
		<tag k="natural" v="hill" />
		<tag k="place" v="locality" />
		<tag k="ssr:stedsnr" v="348397" />
	</node>
	<node id="-485890" lat="60.6941000032" lon="4.97448611775">
		<tag k="name" v="Stokkedalen" />
		<tag k="natural" v="valley" />
		<tag k="place" v="locality" />
		<tag k="ssr:stedsnr" v="348342" />
	</node>
	<node id="-485887" lat="60.6930194474" lon="4.94743332637">
		<tag k="name" v="Gode-kvile" />
		<tag k="place" v="locality" />
		<tag k="ssr:stedsnr" v="348307" />
	</node>
	<node id="-485877" lat="60.6426869593" lon="5.13427283303">
		<tag k="name" v="Sørestøa" />
		<tag k="place" v="locality" />
		<tag k="ssr:stedsnr" v="347847" />
	</node>
	<node id="-485875" lat="60.7117972242" lon="5.00139722289">
		<tag k="name" v="Kodlehaugane" />
		<tag k="natural" v="hill" />
		<tag k="place" v="locality" />
		<tag k="ssr:stedsnr" v="347686" />
	</node>
	<node id="-485874" lat="60.6757916624" lon="4.98412499631">
		<tag k="name" v="Sekjedalshøyen" />
		<tag k="natural" v="hill" />
		<tag k="place" v="locality" />
		<tag k="ssr:stedsnr" v="347454" />
	</node>
	<node id="-485846" lat="60.6138250046" lon="5.10252500666">
		<tag k="alt_name" v="Kvitsteinfjellet" />
		<tag k="fixme" v="consider natural=peak for the most distinct mountains in the district" />
		<tag k="name" v="Kvitsteinsfjellet" />
		<tag k="natural" v="hill" />
		<tag k="place" v="locality" />
		<tag k="ssr:stedsnr" v="309048" />
	</node>
	<node id="-485837" lat="60.6992027792" lon="4.95746667426">
		<tag k="name" v="Stemhøyen" />
		<tag k="natural" v="hill" />
		<tag k="place" v="locality" />
		<tag k="ssr:stedsnr" v="45341" />
	</node>
	<node id="-485834" lat="60.726161112" lon="5.01677777912">
		<tag k="name" v="Tinghaugen" />
		<tag k="natural" v="hill" />
		<tag k="place" v="locality" />
		<tag k="ssr:stedsnr" v="288651" />
	</node>
	<node id="-485833" lat="60.6761138842" lon="5.01672221468">
		<tag k="name" v="Merkesletten" />
		<tag k="place" v="locality" />
		<tag k="ssr:stedsnr" v="288633" />
	</node>
	<node id="-485824" lat="60.6546222237" lon="5.03746389287">
		<tag k="name" v="Nålebrekkena" />
		<tag k="natural" v="slope" />
		<tag k="place" v="locality" />
		<tag k="ssr:stedsnr" v="288506" />
	</node>
	<node id="-485822" lat="60.6181944477" lon="5.09450833864">
		<tag k="fixme" v="consider natural=peak for the most distinct mountains in the district" />
		<tag k="name" v="Skarpafjellet" />
		<tag k="natural" v="hill" />
		<tag k="place" v="locality" />
		<tag k="ssr:stedsnr" v="288483" />
	</node>
	<node id="-485821" lat="60.6240833294" lon="5.09503055393">
		<tag k="name" v="Kalddalen" />
		<tag k="natural" v="valley" />
		<tag k="place" v="locality" />
		<tag k="ssr:stedsnr" v="288468" />
	</node>
	<node id="-485818" lat="60.7114555558" lon="4.93634445102">
		<tag k="name" v="Herhaugane" />
		<tag k="natural" v="hill" />
		<tag k="place" v="locality" />
		<tag k="ssr:stedsnr" v="288356" />
	</node>
	<node id="-485812" lat="60.6923000009" lon="4.97576389324">
		<tag k="name" v="Hushøyen" />
		<tag k="natural" v="hill" />
		<tag k="place" v="locality" />
		<tag k="ssr:stedsnr" v="288299" />
	</node>
	<node id="-485811" lat="60.6974472176" lon="4.97842777021">
		<tag k="name" v="Krokabrotet" />
		<tag k="natural" v="slope" />
		<tag k="place" v="locality" />
		<tag k="ssr:stedsnr" v="288293" />
	</node>
	<node id="-485810" lat="60.6650222186" lon="4.99693333263">
		<tag k="name" v="Hushaugen" />
		<tag k="natural" v="hill" />
		<tag k="place" v="locality" />
		<tag k="ssr:stedsnr" v="288267" />
	</node>
	<node id="-485809" lat="60.6392583344" lon="4.96512500459">
		<tag k="name" v="Varden" />
		<tag k="natural" v="hill" />
		<tag k="place" v="locality" />
		<tag k="ssr:stedsnr" v="288248" />
	</node>
	<node id="-485806" lat="60.6108416695" lon="5.17801944928">
		<tag k="name" v="Dalane" />
		<tag k="natural" v="valley" />
		<tag k="place" v="locality" />
		<tag k="ssr:stedsnr" v="287804" />
	</node>
	<node id="-485802" lat="60.6104166643" lon="5.14168055195">
		<tag k="name" v="Hundhaugen" />
		<tag k="natural" v="hill" />
		<tag k="place" v="locality" />
		<tag k="ssr:stedsnr" v="287756" />
	</node>
	<node id="-485800" lat="60.7162083294" lon="5.02120000534">
		<tag k="fixme" v="consider natural=peak for the most distinct mountains in the district" />
		<tag k="name" v="Øykåsen" />
		<tag k="natural" v="hill" />
		<tag k="place" v="locality" />
		<tag k="ssr:stedsnr" v="287730" />
	</node>
	<node id="-485799" lat="60.6777583331" lon="4.97386388653">
		<tag k="name" v="Haukeberget" />
		<tag k="natural" v="hill" />
		<tag k="place" v="locality" />
		<tag k="ssr:stedsnr" v="287484" />
	</node>
	<node id="-485798" lat="60.6705416666" lon="4.98799722415">
		<tag k="name" v="Brudikshaugane" />
		<tag k="natural" v="hill" />
		<tag k="place" v="locality" />
		<tag k="ssr:stedsnr" v="287483" />
	</node>
</osm>
