<?xml version="1.0" encoding="UTF-8"?>
<osm generator="osmapis" version="0.6">
	<node id="-485759" lat="60.6827972255" lon="4.97333610329">
		<tag k="name" v="Høljedalsmyrane" />
		<tag k="natural" v="wetland" />
		<tag k="ssr:stedsnr" v="226473" />
	</node>
	<node id="-485886" lat="60.6155361097" lon="5.13096110814">
		<tag k="name" v="Stigemyra" />
		<tag k="natural" v="wetland" />
		<tag k="ssr:stedsnr" v="469738" />
	</node>
	<node id="-485269" lat="60.7099472262" lon="4.96990000138">
		<tag k="historic" v="shieling" />
		<tag k="name" v="Veststølen" />
		<tag k="place" v="locality" />
		<tag k="ssr:stedsnr" v="348325" />
	</node>
	<node id="-485625" lat="60.6517444479" lon="5.08281388792">
		<tag k="historic" v="shieling" />
		<tag k="name" v="Lyngstølen" />
		<tag k="place" v="locality" />
		<tag k="ssr:stedsnr" v="106562" />
	</node>
	<node id="-486004" lat="60.6873166701" lon="5.00717500143">
		<tag k="name" v="Revursmyra" />
		<tag k="natural" v="wetland" />
		<tag k="ssr:stedsnr" v="530663" />
	</node>
	<node id="-486256" lat="60.7131861152" lon="5.01869999378">
		<tag k="historic" v="shieling" />
		<tag k="name" v="Kjennestølen" />
		<tag k="place" v="locality" />
		<tag k="ssr:stedsnr" v="712668" />
	</node>
	<node id="-485990" lat="60.6213805581" lon="5.10270832704">
		<tag k="name" v="Høljemyrane" />
		<tag k="natural" v="wetland" />
		<tag k="ssr:stedsnr" v="530527" />
	</node>
	<node id="-486245" lat="60.6429138884" lon="5.02144722477">
		<tag k="name" v="Gråmyra" />
		<tag k="natural" v="wetland" />
		<tag k="ssr:stedsnr" v="712564" />
	</node>
	<node id="-486243" lat="60.6647555537" lon="5.10193611736">
		<tag k="name" v="Stormyra" />
		<tag k="natural" v="wetland" />
		<tag k="ssr:stedsnr" v="712550" />
	</node>
	<node id="-486369" lat="60.7009416709" lon="5.02676944253">
		<tag k="name" v="Lyngåsmyra" />
		<tag k="natural" v="wetland" />
		<tag k="ssr:stedsnr" v="795809" />
	</node>
	<node id="-485520" lat="60.6666249965" lon="5.06659165961">
		<tag k="name" v="Grønstølmyrane" />
		<tag k="natural" v="wetland" />
		<tag k="ssr:stedsnr" v="45536" />
	</node>
	<node id="-485583" lat="60.7150916642" lon="5.0093527745">
		<tag k="name" v="Skaråsmyra" />
		<tag k="natural" v="wetland" />
		<tag k="ssr:stedsnr" v="105684" />
	</node>
	<node id="-486221" lat="60.667094447" lon="4.96715832787">
		<tag k="name" v="Klovningen" />
		<tag k="place" v="locality" />
		<tag k="ssr:stedsnr" v="712232" />
	</node>
	<node id="-486220" lat="60.6651555542" lon="4.98692500171">
		<tag k="landuse" v="meadow" />
		<tag k="name" v="Rognkallsekkja" />
		<tag k="ssr:stedsnr" v="712228" />
	</node>
	<node id="-485709" lat="60.6125833298" lon="5.13609167456">
		<tag k="name" v="Kvitlemyrane" />
		<tag k="natural" v="wetland" />
		<tag k="ssr:stedsnr" v="166698" />
	</node>
	<node id="-485414" lat="60.6402722209" lon="5.12851388978">
		<tag k="name" v="Storemyra" />
		<tag k="natural" v="wetland" />
		<tag k="ssr:stedsnr" v="894842" />
	</node>
	<node id="-485577" lat="60.6823722215" lon="4.94169723084">
		<tag k="name" v="Sekjena" />
		<tag k="natural" v="wetland" />
		<tag k="ssr:stedsnr" v="105426" />
	</node>
	<node id="-486348" lat="60.7027333301" lon="5.01942499616">
		<tag k="name" v="Langåsmyra" />
		<tag k="natural" v="wetland" />
		<tag k="ssr:stedsnr" v="773610" />
	</node>
	<node id="-485957" lat="60.6357060906" lon="5.02836843091">
		<tag k="name" v="Selfallet" />
		<tag k="place" v="locality" />
		<tag k="ssr:stedsnr" v="513574" />
	</node>
	<node id="-485700" lat="60.6863055595" lon="5.03101389167">
		<tag k="name" v="Nonsteinsmyra" />
		<tag k="natural" v="wetland" />
		<tag k="ssr:stedsnr" v="166632" />
	</node>
	<node id="-485693" lat="60.6397111102" lon="5.02223888906">
		<tag k="name" v="Svemyra" />
		<tag k="natural" v="wetland" />
		<tag k="ssr:stedsnr" v="166574" />
	</node>
	<node id="-485691" lat="60.6505444443" lon="5.07500277824">
		<tag k="historic" v="shieling" />
		<tag k="name" v="Stølen" />
		<tag k="place" v="locality" />
		<tag k="ssr:stedsnr" v="166563" />
	</node>
	<node id="-486074" lat="60.6157694412" lon="5.08675555618">
		<tag k="name" v="Langemyra" />
		<tag k="natural" v="wetland" />
		<tag k="ssr:stedsnr" v="591505" />
	</node>
	<node id="-485175" lat="60.7369527817" lon="4.87955000035">
		<tag k="name" v="Tångemyrane" />
		<tag k="natural" v="wetland" />
		<tag k="ssr:stedsnr" v="287431" />
	</node>
	<node id="-485985" lat="60.6133305537" lon="5.11136111894">
		<tag k="name" v="Revurmyra" />
		<tag k="natural" v="wetland" />
		<tag k="ssr:stedsnr" v="530477" />
	</node>
	<node id="-485300" lat="60.6029111146" lon="5.19413888966">
		<tag k="name" v="Limyra" />
		<tag k="natural" v="wetland" />
		<tag k="ssr:stedsnr" v="348744" />
	</node>
	<node id="-485680" lat="60.7195833299" lon="4.96372499567">
		<tag k="name" v="Mjølkestølsmyrane" />
		<tag k="natural" v="wetland" />
		<tag k="ssr:stedsnr" v="166484" />
	</node>
	<node id="-485295" lat="60.6777833304" lon="5.00873054744">
		<tag k="historic" v="shieling" />
		<tag k="name" v="Høgestølen" />
		<tag k="place" v="locality" />
		<tag k="ssr:stedsnr" v="348645" />
	</node>
	<node id="-485917" lat="60.6709055529" lon="5.06292222192">
		<tag k="name" v="Såtemyra" />
		<tag k="natural" v="wetland" />
		<tag k="ssr:stedsnr" v="470662" />
	</node>
	<node id="-485804" lat="60.6681444446" lon="5.09379444056">
		<tag k="name" v="Søkkjena" />
		<tag k="natural" v="wetland" />
		<tag k="ssr:stedsnr" v="227573" />
	</node>
	<node id="-486186" lat="60.6072722198" lon="5.18646666778">
		<tag k="name" v="Missdalsmyra" />
		<tag k="natural" v="wetland" />
		<tag k="ssr:stedsnr" v="651783" />
	</node>
	<node id="-485703" lat="60.6727888892" lon="5.08846944581">
		<tag k="name" v="Nipemyra" />
		<tag k="natural" v="wetland" />
		<tag k="ssr:stedsnr" v="166648" />
	</node>
	<node id="-485288" lat="60.6268333292" lon="5.06364167347">
		<tag k="name" v="Merkesmyra" />
		<tag k="natural" v="wetland" />
		<tag k="ssr:stedsnr" v="348578" />
	</node>
	<node id="-485286" lat="60.6683999992" lon="5.07416943689">
		<tag k="name" v="Lokkemyra" />
		<tag k="natural" v="wetland" />
		<tag k="ssr:stedsnr" v="348542" />
	</node>
	<node id="-486565" lat="60.7184305576" lon="5.01449166161">
		<tag k="name" v="Djuvikmyra" />
		<tag k="natural" v="wetland" />
		<tag k="ssr:stedsnr" v="955702" />
	</node>
	<node id="-486562" lat="60.7154944445" lon="4.99873889639">
		<tag k="name" v="Langhaugmyra" />
		<tag k="natural" v="wetland" />
		<tag k="ssr:stedsnr" v="955679" />
	</node>
	<node id="-485296" lat="60.6167055568" lon="5.14132499522">
		<tag k="name" v="Stølemyr" />
		<tag k="natural" v="wetland" />
		<tag k="ssr:stedsnr" v="348713" />
	</node>
	<node id="-486173" lat="60.6192111098" lon="5.16801943933">
		<tag k="name" v="Påvelmyr" />
		<tag k="natural" v="wetland" />
		<tag k="ssr:stedsnr" v="651702" />
	</node>
	<node id="-486165" lat="60.692911114" lon="5.01431387975">
		<tag k="name" v="Årsetmyrane" />
		<tag k="natural" v="wetland" />
		<tag k="ssr:stedsnr" v="651630" />
	</node>
	<node id="-486547" lat="60.6669250002" lon="5.03118889592">
		<tag k="historic" v="shieling" />
		<tag k="name" v="Erlestølen" />
		<tag k="place" v="locality" />
		<tag k="ssr:stedsnr" v="955540" />
	</node>
	<node id="-486557" lat="60.6994416683" lon="5.03276945232">
		<tag k="name" v="Lindåsmyrane" />
		<tag k="natural" v="wetland" />
		<tag k="ssr:stedsnr" v="955643" />
	</node>
	<node id="-486545" lat="60.7226444431" lon="4.90927221543">
		<tag k="name" v="Kalvhusmyra" />
		<tag k="natural" v="wetland" />
		<tag k="ssr:stedsnr" v="955504" />
	</node>
	<node id="-486160" lat="60.6582277772" lon="5.08038888503">
		<tag k="historic" v="shieling" />
		<tag k="name" v="Haugstølen" />
		<tag k="place" v="locality" />
		<tag k="ssr:stedsnr" v="651584" />
	</node>
	<node id="-485391" lat="60.6213166633" lon="5.12747777678">
		<tag k="name" v="Storemyr" />
		<tag k="natural" v="wetland" />
		<tag k="ssr:stedsnr" v="409731" />
	</node>
	<node id="-485518" lat="60.6183916641" lon="5.10825000254">
		<tag k="name" v="Langemyrane" />
		<tag k="natural" v="wetland" />
		<tag k="ssr:stedsnr" v="45511" />
	</node>
	<node id="-485901" lat="60.7121722246" lon="4.93358610877">
		<tag k="name" v="Sjørhaugmyra" />
		<tag k="natural" v="wetland" />
		<tag k="ssr:stedsnr" v="470495" />
	</node>
	<node id="-485899" lat="60.720047218" lon="4.92252778206">
		<tag k="historic" v="shieling" />
		<tag k="name" v="Brustølen" />
		<tag k="place" v="locality" />
		<tag k="ssr:stedsnr" v="470478" />
	</node>
	<node id="-486410" lat="60.6909944454" lon="4.93321389507">
		<tag k="name" v="Voksmyrane" />
		<tag k="natural" v="wetland" />
		<tag k="ssr:stedsnr" v="834345" />
	</node>
	<node id="-486444" lat="60.6130388903" lon="5.11867500089">
		<tag k="name" v="Skjevikmyra" />
		<tag k="natural" v="wetland" />
		<tag k="ssr:stedsnr" v="834732" />
	</node>
	<node id="-485382" lat="60.701930557" lon="5.02758055804">
		<tag k="name" v="Søkkjena" />
		<tag k="natural" v="wetland" />
		<tag k="ssr:stedsnr" v="409620" />
	</node>
	<node id="-485253" lat="60.6888500044" lon="4.95730555962">
		<tag k="name" v="Torvmyra" />
		<tag k="natural" v="wetland" />
		<tag k="ssr:stedsnr" v="347442" />
	</node>
</osm>
