<?xml version="1.0" encoding="UTF-8"?>
<osm generator="osmapis" version="0.6">
	<node id="-486789" lat="60.6971333368" lon="5.01008610308">
		<tag k="bridge" v="yes" />
		<tag k="layer" v="1" />
		<tag k="name" v="Kyrkjekloppa" />
		<tag k="ssr:stedsnr" v="651643" />
	</node>
	<node id="-487194" lat="60.7286194482" lon="4.97261110209">
		<tag k="bridge" v="yes" />
		<tag k="layer" v="1" />
		<tag k="name" v="Fosnstraumen" />
		<tag k="ssr:stedsnr" v="957020" />
	</node>
	<node id="-486712" lat="60.7031277777" lon="4.93049167402">
		<tag k="bridge" v="yes" />
		<tag k="layer" v="1" />
		<tag k="name" v="Bøkvennane" />
		<tag k="ssr:stedsnr" v="593027" />
	</node>
	<node id="-486069" lat="60.7053033328" lon="5.04547651024">
		<tag k="man_made" v="quay" />
		<tag k="name" v="Vallersvåg" />
		<tag k="place" v="locality" />
		<tag k="ssr:stedsnr" v="1072186" />
	</node>
	<node id="-486291" lat="60.7076055571" lon="4.96654999937">
		<tag k="bridge" v="yes" />
		<tag k="layer" v="1" />
		<tag k="name" v="Småkloppa" />
		<tag k="ssr:stedsnr" v="166334" />
	</node>
	<node id="-486065" lat="60.6473277771" lon="5.07550277655">
		<tag k="bridge" v="yes" />
		<tag k="layer" v="1" />
		<tag k="name" v="Halland" />
		<tag k="ssr:stedsnr" v="897027" />
	</node>
	<node id="-485805" lat="60.5886749995" lon="5.1784999963">
		<tag k="man_made" v="quay" />
		<tag k="name" v="Vetås kai" />
		<tag k="place" v="locality" />
		<tag k="ssr:stedsnr" v="287796" />
	</node>
	<node id="-486154" lat="60.6147194421" lon="5.16013055317">
		<tag k="bridge" v="yes" />
		<tag k="layer" v="1" />
		<tag k="name" v="Solheim" />
		<tag k="ssr:stedsnr" v="47018" />
	</node>
	<node id="-486153" lat="60.6401388902" lon="4.99109999119">
		<tag k="bridge" v="yes" />
		<tag k="layer" v="1" />
		<tag k="name" v="Skrubbholmsundet" />
		<tag k="ssr:stedsnr" v="47016" />
	</node>
	<node id="-486637" lat="60.6409361092" lon="4.98368055422">
		<tag k="bridge" v="yes" />
		<tag k="layer" v="1" />
		<tag k="name" v="Toskasundet" />
		<tag k="ssr:stedsnr" v="533025" />
	</node>
	<node id="-486983" lat="60.7043500015" lon="4.90115833882">
		<tag k="bridge" v="yes" />
		<tag k="layer" v="1" />
		<tag k="name" v="Marøystraumen" />
		<tag k="ssr:stedsnr" v="775247" />
	</node>
	<node id="-486982" lat="60.7124638909" lon="4.98772777826">
		<tag k="bridge" v="yes" />
		<tag k="layer" v="1" />
		<tag k="name" v="Kvernhusklubben" />
		<tag k="ssr:stedsnr" v="775024" />
	</node>
	<node id="-486949" lat="60.7070138929" lon="4.95982777822">
		<tag k="bridge" v="yes" />
		<tag k="layer" v="1" />
		<tag k="name" v="Storkloppa" />
		<tag k="ssr:stedsnr" v="773352" />
	</node>
	<node id="-485924" lat="60.6410555593" lon="5.00481944272">
		<tag k="bridge" v="yes" />
		<tag k="layer" v="1" />
		<tag k="name" v="Mangerøy" />
		<tag k="ssr:stedsnr" v="350020" />
	</node>
	<node id="-487075" lat="60.6325916653" lon="5.13726110623">
		<tag k="bridge" v="yes" />
		<tag k="layer" v="1" />
		<tag k="name" v="Dale" />
		<tag k="ssr:stedsnr" v="836012" />
	</node>
</osm>
