<?xml version="1.0" encoding="UTF-8"?>
<osm generator="osmapis" version="0.6">
	<node id="-485888" lat="60.7108361117" lon="4.98360554775">
		<tag k="name" v="Knappen" />
		<tag k="natural" v="cape" />
		<tag k="ssr:stedsnr" v="348324" />
	</node>
	<node id="-486903" lat="60.7010447582" lon="5.004846277">
		<tag k="name" v="Storrindevatnet" />
		<tag k="natural" v="water" />
		<tag k="ssr:stedsnr" v="734806" />
	</node>
	<node id="-486902" lat="60.7037611132" lon="4.97887777788">
		<tag k="name" v="Viddalsvatnet" />
		<tag k="natural" v="water" />
		<tag k="ssr:stedsnr" v="734799" />
	</node>
	<node id="-486898" lat="60.6950499987" lon="5.02185000159">
		<tag k="name" v="Gjerdsvatnet" />
		<tag k="natural" v="water" />
		<tag k="ssr:stedsnr" v="734780" />
	</node>
	<node id="-486895" lat="60.7144357662" lon="4.96387499339">
		<tag k="name" v="Buneset" />
		<tag k="natural" v="cape" />
		<tag k="ssr:stedsnr" v="714718" />
	</node>
	<node id="-486889" lat="60.6010194415" lon="5.15968889483">
		<tag k="name" v="Lutrebekken" />
		<tag k="ssr:stedsnr" v="712775" />
		<tag k="waterway" v="river" />
	</node>
	<node id="-486373" lat="60.6926444453" lon="5.05434722749">
		<tag k="name" v="Svartåna" />
		<tag k="ssr:stedsnr" v="206259" />
		<tag k="waterway" v="stream" />
	</node>
	<node id="-485860" lat="60.6493416645" lon="5.07119999488">
		<tag k="name" v="Storholmen" />
		<tag k="place" v="islet" />
		<tag k="ssr:stedsnr" v="309978" />
	</node>
	<node id="-485854" lat="60.7174352244" lon="4.95791349567">
		<tag k="alt_name" v="Storevatnet;Storavatnet" />
		<tag k="name" v="Mjøsvatnet" />
		<tag k="natural" v="water" />
		<tag k="ssr:stedsnr" v="309843" />
		<tag k="water" v="lake" />
	</node>
	<node id="-486364" lat="60.6511217391" lon="5.0497150785">
		<tag k="fixme" v="multiple name tags, choose one and add the other to alt_name" />
		<tag k="name" v="Svartavatnet;Svartetjørna" />
		<tag k="natural" v="water" />
		<tag k="ssr:stedsnr" v="188981" />
	</node>
	<node id="-486872" lat="60.6285888594" lon="5.11177708252">
		<tag k="name" v="Lundeneset" />
		<tag k="natural" v="cape" />
		<tag k="ssr:stedsnr" v="712595" />
	</node>
	<node id="-486868" lat="60.6335000033" lon="5.05639444874">
		<tag k="name" v="Hanneset" />
		<tag k="natural" v="cape" />
		<tag k="ssr:stedsnr" v="712566" />
	</node>
	<node id="-485838" lat="60.7009194445" lon="4.97476111485">
		<tag k="name" v="Beindalslonena" />
		<tag k="natural" v="water" />
		<tag k="ssr:stedsnr" v="45343" />
		<tag k="water" v="lake" />
	</node>
	<node id="-485830" lat="60.6419166689" lon="5.08502222855">
		<tag k="name" v="Lysholmen" />
		<tag k="place" v="islet" />
		<tag k="ssr:stedsnr" v="288566" />
	</node>
	<node id="-486332" lat="60.6182166695" lon="5.12716666318">
		<tag k="name" v="Holmane" />
		<tag k="place" v="islet" />
		<tag k="ssr:stedsnr" v="166717" />
	</node>
	<node id="-485819" lat="60.7284812792" lon="4.94127020848">
		<tag k="name" v="Otertjørna" />
		<tag k="natural" v="water" />
		<tag k="ssr:stedsnr" v="288432" />
	</node>
	<node id="-485813" lat="60.699630558" lon="4.95510278658">
		<tag k="name" v="Mjåvasselva" />
		<tag k="ssr:stedsnr" v="288314" />
		<tag k="waterway" v="river" />
	</node>
	<node id="-486319" lat="60.6397222206" lon="5.08755278301">
		<tag k="name" v="Støneset" />
		<tag k="natural" v="cape" />
		<tag k="ssr:stedsnr" v="166597" />
	</node>
	<node id="-486307" lat="60.6210305578" lon="5.09898056036">
		<tag k="name" v="Øksenden" />
		<tag k="natural" v="cape" />
		<tag k="ssr:stedsnr" v="166525" />
	</node>
	<node id="-486301" lat="60.7176972231" lon="4.9411444416">
		<tag k="name" v="Mølsmogelva" />
		<tag k="ssr:stedsnr" v="166485" />
		<tag k="waterway" v="river" />
	</node>
	<node id="-486811" lat="60.702262903" lon="4.94285663332">
		<tag k="alt_name" v="Lometjørna" />
		<tag k="name" v="Lommetjørna" />
		<tag k="natural" v="water" />
		<tag k="ssr:stedsnr" v="673792" />
	</node>
	<node id="-486810" lat="60.6185915544" lon="5.13574604877">
		<tag k="name" v="Litlavatnet" />
		<tag k="natural" v="water" />
		<tag k="ssr:stedsnr" v="673057" />
	</node>
	<node id="-486281" lat="60.6497718481" lon="5.11599728835">
		<tag k="name" v="Askelandstjørna" />
		<tag k="natural" v="water" />
		<tag k="ssr:stedsnr" v="165811" />
	</node>
	<node id="-486278" lat="60.6583833309" lon="4.93249166937">
		<tag k="alt_name" v="Rotetjørna, store" />
		<tag k="name" v="Store Rotetjørna" />
		<tag k="natural" v="water" />
		<tag k="ssr:stedsnr" v="162989" />
	</node>
	<node id="-486786" lat="60.6262083367" lon="5.07807499707">
		<tag k="name" v="Bunesvika" />
		<tag k="natural" v="bay" />
		<tag k="ssr:stedsnr" v="651618" />
	</node>
	<node id="-486270" lat="60.650813889" lon="5.06783611352">
		<tag k="name" v="Nordliholmane" />
		<tag k="place" v="islet" />
		<tag k="ssr:stedsnr" v="127977" />
	</node>
	<node id="-486769" lat="60.7376904303" lon="4.91575176665">
		<tag k="name" v="Lommetjødna" />
		<tag k="natural" v="water" />
		<tag k="ssr:stedsnr" v="651429" />
	</node>
	<node id="-486255" lat="60.6688565456" lon="5.05906170832">
		<tag k="name" v="Grønestølsvatnet" />
		<tag k="natural" v="water" />
		<tag k="ssr:stedsnr" v="106666" />
	</node>
	<node id="-486254" lat="60.7104282596" lon="5.03422945726">
		<tag k="name" v="Polden" />
		<tag k="natural" v="water" />
		<tag k="ssr:stedsnr" v="106636" />
	</node>
	<node id="-486248" lat="60.6527472215" lon="5.06529723092">
		<tag k="name" v="Grisneset" />
		<tag k="natural" v="cape" />
		<tag k="ssr:stedsnr" v="106563" />
	</node>
	<node id="-486756" lat="60.6508166681" lon="4.95093055183">
		<tag k="alt_name" v="Kalvsvatnet" />
		<tag k="name" v="Kalsvatnet" />
		<tag k="natural" v="water" />
		<tag k="ssr:stedsnr" v="651302" />
		<tag k="water" v="lake" />
	</node>
	<node id="-486752" lat="60.6274916629" lon="5.07300000778">
		<tag k="name" v="Eidvika" />
		<tag k="natural" v="bay" />
		<tag k="ssr:stedsnr" v="650798" />
	</node>
	<node id="-486231" lat="60.7342042979" lon="4.89268803132">
		<tag k="name" v="Branntjørna" />
		<tag k="natural" v="water" />
		<tag k="ssr:stedsnr" v="106377" />
	</node>
	<node id="-486716" lat="60.6989138894" lon="4.97313888966">
		<tag k="alt_name" v="Farevatnet" />
		<tag k="name" v="Færevatnet" />
		<tag k="natural" v="water" />
		<tag k="ssr:stedsnr" v="612792" />
		<tag k="water" v="lake" />
	</node>
	<node id="-486198" lat="60.6843527771" lon="4.95119444602">
		<tag k="name" v="Brenneset" />
		<tag k="natural" v="cape" />
		<tag k="ssr:stedsnr" v="105425" />
	</node>
	<node id="-486195" lat="60.7073083315" lon="4.99312500333">
		<tag k="name" v="Eidet" />
		<tag k="natural" v="strait" />
		<tag k="ssr:stedsnr" v="105360" />
	</node>
	<node id="-486704" lat="60.629627778" lon="5.11305277747">
		<tag k="name" v="Lundevika" />
		<tag k="natural" v="bay" />
		<tag k="ssr:stedsnr" v="591582" />
	</node>
	<node id="-486698" lat="60.6589138894" lon="5.06364722033">
		<tag k="name" v="Nordre Knappsvika" />
		<tag k="natural" v="bay" />
		<tag k="ssr:stedsnr" v="591542" />
	</node>
	<node id="-486790" lat="60.6869583316" lon="5.02737222247">
		<tag k="name" v="Kvernhuselva" />
		<tag k="ssr:stedsnr" v="651653" />
		<tag k="waterway" v="river" />
	</node>
	<node id="-486192" lat="60.677885912" lon="5.03566959387">
		<tag k="alt_name" v="Søre Haukåstjørna;Haukåstjørna, s" />
		<tag k="name" v="Søra Haukåstjørna" />
		<tag k="natural" v="water" />
		<tag k="ssr:stedsnr" v="102808" />
	</node>
	<node id="-487045" lat="60.6213887938" lon="5.09542188305">
		<tag k="name" v="Bogatjørna" />
		<tag k="natural" v="water" />
		<tag k="ssr:stedsnr" v="834503" />
	</node>
	<node id="-486683" lat="60.6981333348" lon="4.93063332547">
		<tag k="name" v="Bøtjørna" />
		<tag k="natural" v="water" />
		<tag k="ssr:stedsnr" v="591328" />
	</node>
	<node id="-486168" lat="60.6851333324" lon="4.94868611299">
		<tag k="name" v="Kvalheimsvatnet" />
		<tag k="natural" v="water" />
		<tag k="ssr:stedsnr" v="67796" />
		<tag k="water" v="lake" />
	</node>
	<node id="-487191" lat="60.610163885" lon="5.13222221627">
		<tag k="name" v="Grindneset" />
		<tag k="natural" v="cape" />
		<tag k="ssr:stedsnr" v="955744" />
	</node>
	<node id="-486360" lat="60.6374159534" lon="4.98042020411">
		<tag k="alt_name" v="Storevatnet" />
		<tag k="name" v="Storavatnet" />
		<tag k="natural" v="water" />
		<tag k="ssr:stedsnr" v="188974" />
	</node>
	<node id="-487181" lat="60.6870277787" lon="5.05314722685">
		<tag k="name" v="Pøyla" />
		<tag k="natural" v="water" />
		<tag k="ssr:stedsnr" v="955656" />
	</node>
	<node id="-487173" lat="60.6372611146" lon="5.04033889439">
		<tag k="name" v="Klesvika" />
		<tag k="natural" v="bay" />
		<tag k="ssr:stedsnr" v="955584" />
	</node>
	<node id="-487172" lat="60.6602888921" lon="5.06257500324">
		<tag k="name" v="Laugarvika" />
		<tag k="natural" v="bay" />
		<tag k="ssr:stedsnr" v="955561" />
	</node>
	<node id="-486647" lat="60.7262618581" lon="4.9337845283">
		<tag k="name" v="Litlevatnet" />
		<tag k="natural" v="water" />
		<tag k="ssr:stedsnr" v="552859" />
	</node>
	<node id="-486643" lat="60.6959761444" lon="4.96443567103">
		<tag k="name" v="Mjåvatnet" />
		<tag k="natural" v="water" />
		<tag k="ssr:stedsnr" v="552807" />
	</node>
	<node id="-487149" lat="60.697744446" lon="4.94318888277">
		<tag k="name" v="Hompen" />
		<tag k="natural" v="cape" />
		<tag k="ssr:stedsnr" v="955306" />
	</node>
	<node id="-486635" lat="60.6097694479" lon="5.13365277616">
		<tag k="name" v="Vassvika" />
		<tag k="natural" v="bay" />
		<tag k="ssr:stedsnr" v="530744" />
	</node>
	<node id="-486103" lat="60.6339194436" lon="5.14927221575">
		<tag k="name" v="Kvernhusbekken" />
		<tag k="ssr:stedsnr" v="44808" />
		<tag k="waterway" v="stream" />
	</node>
	<node id="-486100" lat="60.6805716773" lon="5.03009869792">
		<tag k="alt_name" v="Haukåstjørna;Haukåstjørna, nordre" />
		<tag k="name" v="Nordre Haukåstjørna" />
		<tag k="natural" v="water" />
		<tag k="ssr:stedsnr" v="41650" />
	</node>
	<node id="-487093" lat="60.6655472179" lon="5.04302222041">
		<tag k="name" v="Litleneset" />
		<tag k="natural" v="cape" />
		<tag k="ssr:stedsnr" v="856976" />
	</node>
	<node id="-486580" lat="60.6562444467" lon="4.93395277146">
		<tag k="alt_name" v="Rotetjørna, l" />
		<tag k="name" v="Litle Rotetjørna" />
		<tag k="natural" v="water" />
		<tag k="ssr:stedsnr" v="526990" />
	</node>
	<node id="-486064" lat="60.6174972244" lon="5.12828888937">
		<tag k="name" v="Bordvika" />
		<tag k="natural" v="bay" />
		<tag k="ssr:stedsnr" v="895732" />
	</node>
	<node id="-487087" lat="60.7085638894" lon="4.99007500488">
		<tag k="name" v="Vaulen" />
		<tag k="natural" v="bay" />
		<tag k="ssr:stedsnr" v="856833" />
	</node>
	<node id="-486571" lat="60.6710264623" lon="5.05162823201">
		<tag k="alt_name" v="Grønstøtjørna" />
		<tag k="loc_name" v="Grønstøltjørna" />
		<tag k="name" v="Vaslavatnet" />
		<tag k="natural" v="water" />
		<tag k="ssr:stedsnr" v="492760" />
	</node>
	<node id="-486567" lat="60.6547287187" lon="5.02582500014">
		<tag k="name" v="Byrkjelandsvatnet" />
		<tag k="natural" v="water" />
		<tag k="ssr:stedsnr" v="491977" />
	</node>
	<node id="-486566" lat="60.6601388854" lon="5.04962500045">
		<tag k="name" v="Storneset" />
		<tag k="natural" v="cape" />
		<tag k="ssr:stedsnr" v="491974" />
	</node>
	<node id="-486053" lat="60.6627091159" lon="5.07788556228">
		<tag k="name" v="Kjesettjørna" />
		<tag k="natural" v="water" />
		<tag k="ssr:stedsnr" v="895534" />
	</node>
	<node id="-486563" lat="60.6338597991" lon="4.97458576511">
		<tag k="alt_name" v="Litlevatnet" />
		<tag k="name" v="Litlavatnet" />
		<tag k="natural" v="water" />
		<tag k="ssr:stedsnr" v="491954" />
	</node>
	<node id="-486561" lat="60.6318499982" lon="5.06202499663">
		<tag k="name" v="Nesvatnet" />
		<tag k="natural" v="water" />
		<tag k="ssr:stedsnr" v="491949" />
		<tag k="water" v="lake" />
	</node>
	<node id="-485848" lat="60.6981416688" lon="4.94458889174">
		<tag k="alt_name" v="Bøvatnet" />
		<tag k="name" v="Hauglandsvatnet" />
		<tag k="natural" v="water" />
		<tag k="ssr:stedsnr" v="309794" />
		<tag k="water" v="lake" />
	</node>
	<node id="-486550" lat="60.705224999" lon="4.99793611761">
		<tag k="alt_name" v="Klesvatnet" />
		<tag k="name" v="Klessvatnet" />
		<tag k="natural" v="water" />
		<tag k="ssr:stedsnr" v="491802" />
	</node>
	<node id="-486037" lat="60.7017524793" lon="4.97418540902">
		<tag k="name" v="Beindalstjørna" />
		<tag k="natural" v="water" />
		<tag k="ssr:stedsnr" v="895310" />
	</node>
	<node id="-486547" lat="60.6904708619" lon="5.04294530079">
		<tag k="alt_name" v="Ytstebøvatnet" />
		<tag k="name" v="Austevatnet" />
		<tag k="natural" v="water" />
		<tag k="ssr:stedsnr" v="491772" />
	</node>
	<node id="-487057" lat="60.6337166652" lon="5.09861388017">
		<tag k="name" v="Kolåseidet" />
		<tag k="natural" v="strait" />
		<tag k="ssr:stedsnr" v="834629" />
	</node>
	<node id="-487056" lat="60.6338638903" lon="5.05956388738">
		<tag k="name" v="Hannesvika" />
		<tag k="natural" v="bay" />
		<tag k="ssr:stedsnr" v="834627" />
	</node>
	<node id="-486542" lat="60.61944444" lon="5.12179999219">
		<tag k="name" v="Klubbholmen" />
		<tag k="place" v="islet" />
		<tag k="ssr:stedsnr" v="470750" />
	</node>
	<node id="-486028" lat="60.6153305597" lon="5.11894443648">
		<tag k="name" v="Mjåsundet" />
		<tag k="natural" v="strait" />
		<tag k="ssr:stedsnr" v="894741" />
	</node>
	<node id="-487051" lat="60.6563416663" lon="5.06476110596">
		<tag k="name" v="Søre Knappsvika" />
		<tag k="natural" v="bay" />
		<tag k="ssr:stedsnr" v="834576" />
	</node>
	<node id="-486537" lat="60.6853754135" lon="5.02116286346">
		<tag k="alt_name" v="Lommetjørna" />
		<tag k="name" v="Lometjørna" />
		<tag k="natural" v="water" />
		<tag k="ssr:stedsnr" v="470651" />
	</node>
	<node id="-486536" lat="60.68115833" lon="5.02070277135">
		<tag k="name" v="Klubbeselva" />
		<tag k="ssr:stedsnr" v="470641" />
		<tag k="waterway" v="river" />
	</node>
	<node id="-486533" lat="60.6272527805" lon="5.07755555482">
		<tag k="name" v="Buneset" />
		<tag k="natural" v="cape" />
		<tag k="ssr:stedsnr" v="470603" />
	</node>
	<node id="-486532" lat="60.6354027794" lon="5.03533611473">
		<tag k="name" v="Hestvika" />
		<tag k="natural" v="bay" />
		<tag k="ssr:stedsnr" v="470582" />
	</node>
	<node id="-485910" lat="60.640078217" lon="5.10673138157">
		<tag k="name" v="Namtveittjørna" />
		<tag k="natural" v="water" />
		<tag k="ssr:stedsnr" v="348599" />
	</node>
	<node id="-486527" lat="60.6577305511" lon="5.04924721779">
		<tag k="name" v="Vestre Knappen" />
		<tag k="natural" v="cape" />
		<tag k="ssr:stedsnr" v="470544" />
	</node>
	<node id="-486009" lat="60.6163444437" lon="5.12163889024">
		<tag k="name" v="Kvamsøya" />
		<tag k="place" v="island" />
		<tag k="ssr:stedsnr" v="409717" />
	</node>
	<node id="-486004" lat="60.6736249976" lon="5.01871666372">
		<tag k="name" v="Storelva" />
		<tag k="ssr:stedsnr" v="409643" />
		<tag k="waterway" v="river" />
	</node>
	<node id="-485999" lat="60.6396666707" lon="5.09026944309">
		<tag k="name" v="Stillevika" />
		<tag k="natural" v="bay" />
		<tag k="ssr:stedsnr" v="409604" />
	</node>
	<node id="-485996" lat="60.6533972191" lon="5.06942500176">
		<tag k="name" v="Kalvevika" />
		<tag k="natural" v="bay" />
		<tag k="ssr:stedsnr" v="409566" />
	</node>
	<node id="-485993" lat="60.6627166705" lon="5.05039999392">
		<tag k="name" v="Austre Knappen" />
		<tag k="natural" v="cape" />
		<tag k="ssr:stedsnr" v="409543" />
	</node>
	<node id="-486497" lat="60.7025888901" lon="4.97059445143">
		<tag k="name" v="Neset" />
		<tag k="natural" v="cape" />
		<tag k="ssr:stedsnr" v="469348" />
	</node>
	<node id="-487006" lat="60.6546833341" lon="5.06027500013">
		<tag k="name" v="Hallandsvatnet" />
		<tag k="natural" v="water" />
		<tag k="ssr:stedsnr" v="795988" />
		<tag k="water" v="lake" />
	</node>
	<node id="-486493" lat="60.6206722235" lon="5.11973055999">
		<tag k="name" v="Holeholmen" />
		<tag k="place" v="islet" />
		<tag k="ssr:stedsnr" v="470731" />
	</node>
	<node id="-487003" lat="60.6388191375" lon="5.01572501023">
		<tag k="name" v="Kjevatnet" />
		<tag k="natural" v="water" />
		<tag k="ssr:stedsnr" v="795979" />
	</node>
	<node id="-487000" lat="60.6355361095" lon="5.04431388699">
		<tag k="name" v="Prestholmen" />
		<tag k="place" v="islet" />
		<tag k="ssr:stedsnr" v="795969" />
	</node>
	<node id="-485969" lat="60.600210971" lon="5.18711688055">
		<tag k="name" v="Litletjørna" />
		<tag k="natural" v="water" />
		<tag k="ssr:stedsnr" v="408793" />
	</node>
	<node id="-486479" lat="60.649288891" lon="5.01298055178">
		<tag k="alt_name" v="Trædsvatnet" />
		<tag k="name" v="Træsvatnet" />
		<tag k="natural" v="water" />
		<tag k="ssr:stedsnr" v="431987" />
	</node>
	<node id="-486467" lat="60.7244803211" lon="4.96442359778">
		<tag k="name" v="Djupeskartjørna" />
		<tag k="natural" v="water" />
		<tag k="ssr:stedsnr" v="431833" />
	</node>
	<node id="-486975" lat="60.6722114635" lon="5.06078707714">
		<tag k="name" v="Såtetjørna" />
		<tag k="natural" v="water" />
		<tag k="ssr:stedsnr" v="773664" />
	</node>
	<node id="-486462" lat="60.6990583361" lon="4.96563888642">
		<tag k="name" v="Otertjørna" />
		<tag k="natural" v="water" />
		<tag k="ssr:stedsnr" v="431817" />
	</node>
	<node id="-486461" lat="60.68923644" lon="5.03687708774">
		<tag k="alt_name" v="Vestvatnet" />
		<tag k="name" v="Vestevatnet" />
		<tag k="natural" v="water" />
		<tag k="ssr:stedsnr" v="431790" />
	</node>
	<node id="-486969" lat="60.6328195933" lon="5.10186309055">
		<tag k="name" v="Eidvika" />
		<tag k="natural" v="bay" />
		<tag k="ssr:stedsnr" v="773596" />
	</node>
	<node id="-486968" lat="60.6463305599" lon="5.07611666574">
		<tag k="name" v="Nordlineset" />
		<tag k="natural" v="cape" />
		<tag k="ssr:stedsnr" v="773594" />
	</node>
	<node id="-486965" lat="60.6577083289" lon="5.06489166383">
		<tag k="name" v="Knappen" />
		<tag k="natural" v="cape" />
		<tag k="ssr:stedsnr" v="773551" />
	</node>
	<node id="-486961" lat="60.7295954325" lon="4.95534534235">
		<tag k="name" v="Oldertjørna" />
		<tag k="natural" v="water" />
		<tag k="ssr:stedsnr" v="773465" />
	</node>
	<node id="-486959" lat="60.7323463924" lon="4.94883666926">
		<tag k="name" v="Matbergtjørna" />
		<tag k="natural" v="water" />
		<tag k="ssr:stedsnr" v="773461" />
	</node>
	<node id="-485932" lat="60.6929305525" lon="4.92423334285">
		<tag k="name" v="Kvaleimstjørna" />
		<tag k="natural" v="water" />
		<tag k="ssr:stedsnr" v="370801" />
	</node>
	<node id="-486440" lat="60.6859310295" lon="4.97854209453">
		<tag k="alt_name" v="Mykingvatnet" />
		<tag k="name" v="Mykingsvatnet" />
		<tag k="natural" v="water" />
		<tag k="ssr:stedsnr" v="249781" />
	</node>
	<node id="-486947" lat="60.6968416694" lon="4.95223333762">
		<tag k="name" v="Mjølkevika" />
		<tag k="natural" v="bay" />
		<tag k="ssr:stedsnr" v="773326" />
	</node>
	<node id="-486433" lat="60.6237777762" lon="5.11529999701">
		<tag k="alt_name" v="Ulvatnet" />
		<tag k="name" v="Ølvatnet" />
		<tag k="natural" v="water" />
		<tag k="ssr:stedsnr" v="248029" />
		<tag k="water" v="lake" />
	</node>
	<node id="-485919" lat="60.6002806264" lon="5.18417579461">
		<tag k="name" v="Tjørna" />
		<tag k="natural" v="water" />
		<tag k="ssr:stedsnr" v="348741" />
	</node>
	<node id="-486422" lat="60.6471392064" lon="5.05033083292">
		<tag k="name" v="Heimtjørna" />
		<tag k="natural" v="water" />
		<tag k="ssr:stedsnr" v="227562" />
	</node>
	<node id="-486927" lat="60.687286107" lon="4.94387222736">
		<tag k="name" v="Kalvatræet" />
		<tag k="natural" v="cape" />
		<tag k="ssr:stedsnr" v="772427" />
	</node>
	<node id="-486411" lat="60.7120222222" lon="4.98740000213">
		<tag k="name" v="Kvernhusklubben" />
		<tag k="natural" v="cape" />
		<tag k="ssr:stedsnr" v="227452" />
	</node>
</osm>
