<?xml version="1.0" encoding="UTF-8"?>
<<<<<<< HEAD
<osm version="0.6" generator="osmapis">
	<node lat="59.46472165850263" lon="11.45593477196689" id="-11276">
		<tag k="name" v="Butjern" />
		<tag k="natural" v="water" />
		<tag k="ssr:stedsnr" v="2229" />
	</node>
	<node lat="59.29927499874393" lon="11.375025001981463" id="-11279">
		<tag k="fixme" v="multiple name tags, choose one and add the other to alt_name" />
		<tag k="name" v="Vabekken;Storebekken" />
		<tag k="ssr:stedsnr" v="2990" />
		<tag k="waterway" v="stream" />
	</node>
	<node lat="59.310724432835684" lon="11.48161519400578" id="-11283">
		<tag k="alt_name" v="Totjern" />
		<tag k="name" v="Totjerna" />
		<tag k="natural" v="water" />
		<tag k="ssr:stedsnr" v="3613" />
		<tag k="water" v="lake" />
	</node>
	<node lat="59.28964166403517" lon="11.501227774963574" id="-11284">
		<tag k="alt_name" v="Djuptjern" />
		<tag k="name" v="Djupetjernet" />
		<tag k="natural" v="water" />
		<tag k="ssr:stedsnr" v="3632" />
	</node>
	<node lat="59.27567823054636" lon="11.503830750266824" id="-11287">
		<tag k="name" v="Tretjerna" />
		<tag k="natural" v="water" />
		<tag k="ssr:stedsnr" v="3691" />
		<tag k="water" v="lake" />
	</node>
	<node lat="59.26401451269311" lon="11.534789284538483" id="-11291">
		<tag k="fixme" v="multiple name tags, choose one and add the other to alt_name" />
		<tag k="name" v="Store Bjørvann;Bjørvannet" />
		<tag k="natural" v="water" />
		<tag k="ssr:stedsnr" v="3718" />
		<tag k="water" v="lake" />
	</node>
	<node lat="59.337902981015056" lon="11.31837324110621" id="-11294">
		<tag k="name" v="Mørktjernet" />
		<tag k="natural" v="water" />
		<tag k="ssr:stedsnr" v="3793" />
	</node>
	<node lat="59.468358334503385" lon="11.50217777059472" id="-11296">
		<tag k="name" v="Halvardsvann" />
		<tag k="natural" v="water" />
		<tag k="ssr:stedsnr" v="232352" />
	</node>
	<node lat="59.44307222373383" lon="11.524777775969385" id="-11299">
		<tag k="name" v="Merratjern" />
		<tag k="natural" v="water" />
		<tag k="ssr:stedsnr" v="233014" />
	</node>
	<node lat="59.36183333189937" lon="11.537936116337828" id="-11304">
		<tag k="name" v="Fuglenesfjorden" />
		<tag k="natural" v="water" />
		<tag k="ssr:stedsnr" v="233166" />
	</node>
	<node lat="59.307747219525176" lon="11.542530554056464" id="-11307">
		<tag k="name" v="De svarte stenene" />
		<tag k="place" v="islet" />
		<tag k="ssr:stedsnr" v="233358" />
	</node>
	<node lat="59.29681944164434" lon="11.572824992620333" id="-11308">
		<tag k="name" v="Nakkimseterbukta" />
		<tag k="natural" v="bay" />
		<tag k="ssr:stedsnr" v="233399" />
	</node>
	<node lat="59.41415833577415" lon="11.582711117460937" id="-11310">
		<tag k="name" v="Kjerringtjern" />
		<tag k="natural" v="water" />
		<tag k="ssr:stedsnr" v="233588" />
	</node>
	<node lat="59.43923055641443" lon="11.22386666547169" id="-11316">
		<tag k="name" v="Brekke foss" />
		<tag k="natural" v="waterfall" />
		<tag k="ssr:stedsnr" v="22520" />
	</node>
	<node lat="59.47195000027722" lon="11.441052778279206" id="-11334">
		<tag k="name" v="Ørekytta" />
		<tag k="natural" v="water" />
		<tag k="ssr:stedsnr" v="51371" />
	</node>
	<node lat="59.29337500188467" lon="11.508983331884654" id="-11338">
		<tag k="name" v="Søndre Stutøye" />
		<tag k="natural" v="water" />
		<tag k="ssr:stedsnr" v="52308" />
		<tag k="water" v="pond" />
	</node>
	<node lat="59.27349078132293" lon="11.525707489717705" id="-11353">
		<tag k="name" v="Øvre Sandvannet" />
		<tag k="natural" v="water" />
		<tag k="ssr:stedsnr" v="64726" />
	</node>
	<node lat="59.24915000182059" lon="11.531991658243665" id="-11361">
		<tag k="name" v="Krokbekken" />
		<tag k="ssr:stedsnr" v="294954" />
		<tag k="waterway" v="stream" />
	</node>
	<node lat="59.247450149093766" lon="11.566247439894138" id="-11362">
		<tag k="alt_name" v="Fyldengørvann" />
		<tag k="name" v="Følingørvann" />
		<tag k="natural" v="water" />
		<tag k="old_name" v="Fyllingsørvatn;Fyllingsørvann" />
		<tag k="ssr:stedsnr" v="244248" />
		<tag k="water" v="lake" />
	</node>
	<node lat="59.32222222240061" lon="11.325466670024761" id="-11363">
		<tag k="name" v="Horntjernrenna" />
		<tag k="ssr:stedsnr" v="83036" />
		<tag k="waterway" v="stream" />
	</node>
	<node lat="59.4360277782257" lon="11.241799996836649" id="-11365">
		<tag k="name" v="Gapestadfossen" />
		<tag k="natural" v="waterfall" />
		<tag k="ssr:stedsnr" v="83485" />
	</node>
	<node lat="59.37566111204785" lon="11.4627444494078" id="-11367">
		<tag k="name" v="Fosserfoss" />
		<tag k="natural" v="waterfall" />
		<tag k="ssr:stedsnr" v="83686" />
	</node>
	<node lat="59.45863055596109" lon="11.279486117701577" id="-11373">
		<tag k="name" v="Valabekken" />
		<tag k="ssr:stedsnr" v="83989" />
		<tag k="waterway" v="stream" />
	</node>
	<node lat="59.42661666667508" lon="11.448630560746832" id="-11378">
		<tag k="name" v="Iglerudtjern" />
		<tag k="natural" v="water" />
		<tag k="ssr:stedsnr" v="245164" />
	</node>
	<node lat="59.3652027780691" lon="11.29731111019658" id="-11386">
		<tag k="name" v="Kjennertjernet" />
		<tag k="natural" v="water" />
		<tag k="ssr:stedsnr" v="245841" />
	</node>
	<node lat="59.32412500273833" lon="11.328380549452094" id="-11390">
		<tag k="name" v="Horntjern" />
		<tag k="natural" v="water" />
		<tag k="ssr:stedsnr" v="245960" />
	</node>
	<node lat="59.262325002664895" lon="11.527527785764134" id="-11392">
		<tag k="alt_name" v="Saletjern" />
		<tag k="name" v="Saltjern" />
=======
<osm generator="osmapis" version="0.6">
	<node id="-242176" lat="59.4476277763" lon="11.3561861128">
		<tag k="alt_name" v="Kånsbekken" />
		<tag k="name" v="Kåensbekken" />
		<tag k="ssr:stedsnr" v="204559" />
		<tag k="waterway" v="stream" />
	</node>
	<node id="-242687" lat="59.3450000034" lon="11.5543416605">
		<tag k="name" v="Rørvannet" />
		<tag k="natural" v="water" />
		<tag k="ssr:stedsnr" v="853722" />
	</node>
	<node id="-242265" lat="59.4249055516" lon="11.5429055578">
		<tag k="name" v="Klavetjern" />
		<tag k="natural" v="water" />
		<tag k="ssr:stedsnr" v="354560" />
	</node>
	<node id="-242682" lat="59.2808722261" lon="11.5133833281">
		<tag k="name" v="Laksen" />
		<tag k="natural" v="water" />
		<tag k="ssr:stedsnr" v="853688" />
	</node>
	<node id="-242681" lat="59.2840096589" lon="11.5315538844">
		<tag k="fixme" v="multiple name tags, choose one and add the other to alt_name" />
		<tag k="name" v="Hvittjernet;Høytjern" />
		<tag k="natural" v="water" />
		<tag k="ssr:stedsnr" v="853683" />
	</node>
	<node id="-241656" lat="59.4550888906" lon="11.5545083253">
		<tag k="name" v="Andriktjern" />
		<tag k="natural" v="water" />
		<tag k="ssr:stedsnr" v="597104" />
	</node>
	<node id="-241654" lat="59.3242888879" lon="11.5753944515">
		<tag k="name" v="Kilebutangen" />
		<tag k="natural" v="cape" />
		<tag k="ssr:stedsnr" v="597070" />
	</node>
	<node id="-242675" lat="59.2893749961" lon="11.3666222228">
		<tag k="name" v="Lomtjern" />
		<tag k="natural" v="water" />
		<tag k="ssr:stedsnr" v="852887" />
	</node>
	<node id="-241650" lat="59.4329361137" lon="11.3131444383">
		<tag k="name" v="Holøsbekken" />
		<tag k="ssr:stedsnr" v="568580" />
		<tag k="waterway" v="stream" />
	</node>
	<node id="-242670" lat="59.4661416669" lon="11.5364527809">
		<tag k="alt_name" v="Spadejerntjern" />
		<tag k="name" v="Spajerntjern" />
		<tag k="natural" v="water" />
		<tag k="ssr:stedsnr" v="852587" />
	</node>
	<node id="-242157" lat="59.321758337" lon="11.5773444503">
		<tag k="alt_name" v="Kolbjørnsviksjøen" />
		<tag k="name" v="Kolbjørnviksjøen" />
		<tag k="natural" v="water" />
		<tag k="old_name" v="Kolbjørnsvik Sjø" />
		<tag k="ssr:stedsnr" v="185588" />
		<tag k="water" v="lake" />
	</node>
	<node id="-242154" lat="59.4353944462" lon="11.2451999937">
		<tag k="name" v="Rakkestadelva" />
		<tag k="ssr:stedsnr" v="185176" />
		<tag k="waterway" v="river" />
	</node>
	<node id="-241641" lat="59.3199944405" lon="11.5470500023">
		<tag k="name" v="Jambekken" />
		<tag k="ssr:stedsnr" v="537416" />
		<tag k="waterway" v="stream" />
	</node>
	<node id="-241639" lat="59.299480559" lon="11.5461666701">
		<tag k="name" v="Nordre Lorttjern" />
		<tag k="natural" v="water" />
		<tag k="ssr:stedsnr" v="537354" />
	</node>
	<node id="-242660" lat="59.2899472258" lon="11.5545666723">
		<tag k="name" v="Morttjern" />
		<tag k="natural" v="water" />
		<tag k="ssr:stedsnr" v="841982" />
	</node>
	<node id="-242659" lat="59.2923972202" lon="11.5810777751">
		<tag k="name" v="Revolvertjern" />
		<tag k="natural" v="water" />
		<tag k="ssr:stedsnr" v="841349" />
	</node>
	<node id="-242655" lat="59.3083083322" lon="11.5173583397">
		<tag k="name" v="Søndre Ormetjern" />
		<tag k="natural" v="water" />
		<tag k="ssr:stedsnr" v="840349" />
	</node>
	<node id="-241630" lat="59.4320250002" lon="11.5273916691">
		<tag k="name" v="Krokbekk" />
		<tag k="natural" v="water" />
		<tag k="ssr:stedsnr" v="536005" />
		<tag k="water" v="lake" />
	</node>
	<node id="-241628" lat="59.2637500224" lon="11.4645096906">
		<tag k="name" v="Greåkersjøen" />
		<tag k="natural" v="water" />
		<tag k="ssr:stedsnr" v="690899" />
		<tag k="water" v="lake" />
	</node>
	<node id="-242648" lat="59.309727775" lon="11.4828972299">
		<tag k="name" v="Totjern" />
		<tag k="natural" v="water" />
		<tag k="ssr:stedsnr" v="812642" />
	</node>
	<node id="-242647" lat="59.2617194462" lon="11.4864916693">
		<tag k="name" v="Ormetjern" />
		<tag k="natural" v="water" />
		<tag k="ssr:stedsnr" v="811861" />
	</node>
	<node id="-241179" lat="59.4647216585" lon="11.455934772">
		<tag k="name" v="Butjern" />
		<tag k="natural" v="water" />
		<tag k="ssr:stedsnr" v="2229" />
	</node>
	<node id="-242131" lat="59.4055250031" lon="11.2584500038">
		<tag k="name" v="Grytelandstjernet" />
		<tag k="natural" v="water" />
		<tag k="ssr:stedsnr" v="184140" />
	</node>
	<node id="-242129" lat="59.2902805525" lon="11.5374888854">
		<tag k="name" v="Den krokete Nybølingen" />
		<tag k="natural" v="water" />
		<tag k="ssr:stedsnr" v="181802" />
	</node>
	<node id="-242127" lat="59.2879138908" lon="11.5582972298">
		<tag k="name" v="Bastian" />
>>>>>>> e1d4bc35ff8a6074a6f2e91616a996b547c36f15
		<tag k="natural" v="water" />
		<tag k="ssr:stedsnr" v="173999" />
	</node>
<<<<<<< HEAD
	<node lat="59.43331110876274" lon="11.53703055069502" id="-11403">
		<tag k="loc_name" v="Nordre Stensvann" />
		<tag k="name" v="Stensvann" />
		<tag k="natural" v="water" />
		<tag k="ssr:stedsnr" v="112003" />
		<tag k="water" v="lake" />
	</node>
	<node lat="59.44814444421111" lon="11.558202785117654" id="-11404">
		<tag k="name" v="Askevannet" />
		<tag k="natural" v="water" />
		<tag k="ssr:stedsnr" v="112030" />
	</node>
	<node lat="59.29907500356729" lon="11.521383340101332" id="-11416">
		<tag k="name" v="Nedre Buvann" />
		<tag k="natural" v="water" />
		<tag k="ssr:stedsnr" v="124604" />
	</node>
	<node lat="59.295530552954936" lon="11.512761103111773" id="-11417">
		<tag k="alt_name" v="Holmetjern" />
		<tag k="name" v="Holmetjernet" />
		<tag k="natural" v="water" />
		<tag k="ssr:stedsnr" v="124621" />
	</node>
	<node lat="59.46408888983056" lon="11.506416663646574" id="-11437">
		<tag k="name" v="Halvardsvann" />
		<tag k="natural" v="water" />
		<tag k="ssr:stedsnr" v="172108" />
	</node>
	<node lat="59.32348503864786" lon="11.38224815493695" id="-11439">
		<tag k="name" v="Tangen" />
		<tag k="natural" v="cape" />
		<tag k="ssr:stedsnr" v="172432" />
	</node>
	<node lat="59.412472221570276" lon="11.50333888120357" id="-11440">
		<tag k="name" v="Karihølen" />
		<tag k="place" v="locality" />
		<tag k="ssr:stedsnr" v="172605" />
	</node>
	<node lat="59.290280552544345" lon="11.537488885448887" id="-11446">
		<tag k="name" v="Den krokete Nybølingen" />
		<tag k="natural" v="water" />
		<tag k="ssr:stedsnr" v="181802" />
	</node>
	<node lat="59.40552500307801" lon="11.258450003833067" id="-11449">
		<tag k="name" v="Grytelandstjernet" />
		<tag k="natural" v="water" />
		<tag k="ssr:stedsnr" v="184140" />
	</node>
	<node lat="59.319725297857886" lon="11.57845868086617" id="-11463">
		<tag k="fixme" v="multiple name tags, choose one and add the other to alt_name" />
		<tag k="name" v="Kolbjørnviksjøen;Kolviksjøen" />
		<tag k="natural" v="water" />
		<tag k="old_name" v="Kolbjørnsvik Sjø" />
		<tag k="ssr:stedsnr" v="185588" />
		<tag k="water" v="lake" />
	</node>
	<node lat="59.31452499829545" lon="11.430152775530674" id="-11479">
		<tag k="name" v="Nordre Blytjern" />
		<tag k="natural" v="water" />
		<tag k="ssr:stedsnr" v="265679" />
	</node>
	<node lat="59.47756111096836" lon="11.447905557657958" id="-11491">
		<tag k="name" v="Nordre Kølabonntjern" />
		<tag k="natural" v="water" />
		<tag k="ssr:stedsnr" v="232332" />
	</node>
	<node lat="59.479830558443425" lon="11.452888895180443" id="-11492">
		<tag k="name" v="Janstjern" />
		<tag k="natural" v="water" />
		<tag k="ssr:stedsnr" v="232334" />
	</node>
	<node lat="59.44178889336516" lon="11.563897218660669" id="-11497">
		<tag k="name" v="Råtetjern" />
		<tag k="natural" v="water" />
		<tag k="ssr:stedsnr" v="233013" />
	</node>
	<node lat="59.290583331582994" lon="11.568805557703962" id="-11501">
		<tag k="name" v="Hivannstjernet" />
		<tag k="natural" v="water" />
		<tag k="ssr:stedsnr" v="234338" />
	</node>
	<node lat="59.29729166341126" lon="11.528102779623458" id="-11502">
		<tag k="name" v="Kjelleren" />
		<tag k="natural" v="water" />
		<tag k="ssr:stedsnr" v="234339" />
	</node>
	<node lat="59.2820416658419" lon="11.518491664200555" id="-11504">
		<tag k="name" v="Merratjern" />
		<tag k="natural" v="water" />
		<tag k="ssr:stedsnr" v="234997" />
	</node>
	<node lat="59.270850002349455" lon="11.454374991731573" id="-11513">
		<tag k="name" v="Elnessjøen" />
		<tag k="natural" v="water" />
		<tag k="ssr:stedsnr" v="245885" />
		<tag k="water" v="lake" />
	</node>
	<node lat="59.33101666398635" lon="11.298186117312552" id="-11520">
		<tag k="name" v="Ådalsbekken" />
		<tag k="ssr:stedsnr" v="265035" />
		<tag k="waterway" v="stream" />
	</node>
	<node lat="59.43506667096223" lon="11.223791661742725" id="-11522">
		<tag k="name" v="Skattebølbekken" />
		<tag k="ssr:stedsnr" v="265536" />
		<tag k="waterway" v="stream" />
	</node>
	<node lat="59.311063892429985" lon="11.53834999792493" id="-11529">
		<tag k="name" v="Lille Fiskerøya" />
		<tag k="place" v="islet" />
		<tag k="ssr:stedsnr" v="293377" />
	</node>
	<node lat="59.369036114192426" lon="11.530694445725334" id="-11534">
		<tag k="name" v="Krysselva" />
		<tag k="ssr:stedsnr" v="294030" />
		<tag k="waterway" v="river" />
	</node>
	<node lat="59.30600278049573" lon="11.565997227141109" id="-11535">
		<tag k="name" v="Korpåstjernet" />
		<tag k="natural" v="water" />
		<tag k="ssr:stedsnr" v="294307" />
	</node>
	<node lat="59.28613611377346" lon="11.528838887997848" id="-11537">
		<tag k="name" v="Merratjern" />
		<tag k="natural" v="water" />
		<tag k="ssr:stedsnr" v="294992" />
	</node>
	<node lat="59.25517499913094" lon="11.364347215264646" id="-11539">
		<tag k="name" v="Gulltjern" />
		<tag k="natural" v="water" />
		<tag k="ssr:stedsnr" v="305911" />
	</node>
	<node lat="59.29874797219484" lon="11.489958136960395" id="-11543">
		<tag k="alt_name" v="Trytjernene" />
		<tag k="name" v="Tretjerna" />
		<tag k="natural" v="water" />
		<tag k="ssr:stedsnr" v="306624" />
		<tag k="water" v="lake" />
	</node>
	<node lat="59.295308596507624" lon="11.564495841914987" id="-11544">
		<tag k="fixme" v="multiple name tags, choose one and add the other to alt_name" />
		<tag k="name" v="Bergtjerna;Vrangtjernene" />
		<tag k="natural" v="water" />
		<tag k="ssr:stedsnr" v="306627" />
		<tag k="water" v="lake" />
	</node>
	<node lat="59.321377779890504" lon="11.531261103712245" id="-11550">
		<tag k="name" v="Morttjern" />
		<tag k="natural" v="water" />
		<tag k="ssr:stedsnr" v="307648" />
	</node>
	<node lat="59.447472218030896" lon="11.561794442884343" id="-11557">
		<tag k="name" v="Lommetjern" />
		<tag k="natural" v="water" />
		<tag k="ssr:stedsnr" v="326181" />
	</node>
	<node lat="59.370327778367994" lon="11.30961388473333" id="-11567">
		<tag k="name" v="Øverbybekken" />
		<tag k="ssr:stedsnr" v="354719" />
		<tag k="waterway" v="stream" />
	</node>
	<node lat="59.470475003015785" lon="11.454011119066685" id="-11572">
		<tag k="name" v="Merratjern" />
		<tag k="natural" v="water" />
		<tag k="ssr:stedsnr" v="354907" />
	</node>
	<node lat="59.34406944724538" lon="11.553691665643807" id="-11574">
		<tag k="name" v="Rørvannsøya" />
		<tag k="place" v="island" />
		<tag k="ssr:stedsnr" v="355200" />
	</node>
	<node lat="59.286706888579005" lon="11.566464379858326" id="-11575">
		<tag k="name" v="Bastianvanna" />
		<tag k="natural" v="water" />
		<tag k="ssr:stedsnr" v="356000" />
		<tag k="water" v="lake" />
	</node>
	<node lat="59.30499435322809" lon="11.532107937479253" id="-11576">
		<tag k="name" v="Kalvedalsbukta" />
		<tag k="natural" v="bay" />
		<tag k="ssr:stedsnr" v="475334" />
	</node>
	<node lat="59.32134166705337" lon="11.522577773562917" id="-11577">
		<tag k="name" v="Åleputa" />
		<tag k="natural" v="bay" />
		<tag k="ssr:stedsnr" v="475349" />
	</node>
	<node lat="59.31028447326965" lon="11.515281167027055" id="-11578">
		<tag k="name" v="Nordre Ormetjern" />
		<tag k="natural" v="water" />
		<tag k="ssr:stedsnr" v="475366" />
	</node>
	<node lat="59.3869444453281" lon="11.485658339133824" id="-11585">
		<tag k="name" v="Sagfossen" />
		<tag k="natural" v="waterfall" />
		<tag k="ssr:stedsnr" v="475807" />
	</node>
	<node lat="59.441283336288684" lon="11.49627778153787" id="-11587">
		<tag k="name" v="Bikkjetjern" />
		<tag k="natural" v="water" />
		<tag k="ssr:stedsnr" v="476073" />
	</node>
	<node lat="59.43029444502295" lon="11.541511112171271" id="-11590">
		<tag k="name" v="Dørjetjern" />
		<tag k="natural" v="water" />
		<tag k="ssr:stedsnr" v="476013" />
	</node>
	<node lat="59.42879166351052" lon="11.570161105009438" id="-11591">
		<tag k="name" v="Høytomttjernet" />
		<tag k="natural" v="water" />
		<tag k="ssr:stedsnr" v="476014" />
	</node>
	<node lat="59.43103055425732" lon="11.552677778542515" id="-11592">
		<tag k="name" v="Mustjern" />
		<tag k="natural" v="water" />
		<tag k="ssr:stedsnr" v="476017" />
	</node>
	<node lat="59.45095833414863" lon="11.500133332836274" id="-11594">
		<tag k="name" v="Nordre Ørketjern" />
		<tag k="natural" v="water" />
		<tag k="ssr:stedsnr" v="476055" />
	</node>
	<node lat="59.31248383203361" lon="11.575464943904658" id="-11595">
		<tag k="name" v="Hellesåbukta" />
		<tag k="natural" v="bay" />
		<tag k="ssr:stedsnr" v="476423" />
	</node>
	<node lat="59.38423333549898" lon="11.557997217327738" id="-11604">
		<tag k="name" v="Dammyrtjern" />
		<tag k="natural" v="water" />
		<tag k="ssr:stedsnr" v="367491" />
	</node>
	<node lat="59.42643611275558" lon="11.294149999172966" id="-11609">
		<tag k="name" v="Kjeldsrudbekken" />
		<tag k="ssr:stedsnr" v="386603" />
		<tag k="waterway" v="stream" />
	</node>
	<node lat="59.41139722313573" lon="11.19404721493105" id="-11612">
		<tag k="name" v="Glendetangen lense" />
		<tag k="place" v="locality" />
		<tag k="ssr:stedsnr" v="386645" />
	</node>
	<node lat="59.39178055603613" lon="11.577697216611814" id="-11623">
		<tag k="name" v="Finnpåbekken" />
		<tag k="ssr:stedsnr" v="414745" />
		<tag k="waterway" v="stream" />
	</node>
	<node lat="59.43513332981572" lon="11.53067500610166" id="-11625">
		<tag k="name" v="Ormetjern" />
		<tag k="natural" v="water" />
		<tag k="ssr:stedsnr" v="415002" />
	</node>
	<node lat="59.29919156135828" lon="11.567119603552095" id="-11630">
		<tag k="name" v="Gresstjern" />
		<tag k="natural" v="water" />
		<tag k="ssr:stedsnr" v="415393" />
	</node>
	<node lat="59.41122500325529" lon="11.410122228630511" id="-11631">
		<tag k="name" v="Gjølstadfoss" />
		<tag k="natural" v="waterfall" />
		<tag k="ssr:stedsnr" v="415642" />
	</node>
	<node lat="60.93943888528743" lon="11.516244438964907" id="-11648">
		<tag k="fixme" v="multiple name tags, choose one and add the other to alt_name" />
		<tag k="name" v="Glåma;Glomma" />
		<tag k="ssr:stedsnr" v="426301" />
		<tag k="waterway" v="river" />
	</node>
	<node lat="59.458302774116355" lon="11.496211104725182" id="-11654">
		<tag k="name" v="Nordre Blankvann" />
		<tag k="natural" v="water" />
		<tag k="ssr:stedsnr" v="427602" />
	</node>
	<node lat="59.26970277497181" lon="11.346622226208087" id="-11658">
		<tag k="name" v="Langen" />
		<tag k="natural" v="water" />
		<tag k="ssr:stedsnr" v="427917" />
		<tag k="water" v="lake" />
	</node>
	<node lat="59.31458611394213" lon="11.523849998162559" id="-11659">
		<tag k="alt_name" v="Hesthagtjernet" />
		<tag k="name" v="Hestehagetjern" />
		<tag k="natural" v="water" />
		<tag k="ssr:stedsnr" v="428622" />
	</node>
	<node lat="59.37078611109834" lon="11.385352782498297" id="-11675">
		<tag k="name" v="Danstorpbekken" />
		<tag k="ssr:stedsnr" v="475010" />
		<tag k="waterway" v="stream" />
	</node>
	<node lat="59.42334721971055" lon="11.548661106628664" id="-11682">
		<tag k="name" v="Revetjern" />
		<tag k="natural" v="water" />
		<tag k="ssr:stedsnr" v="475570" />
	</node>
	<node lat="59.446583333731" lon="11.493616660314277" id="-11690">
		<tag k="name" v="Vestre Tutjern" />
		<tag k="natural" v="water" />
		<tag k="ssr:stedsnr" v="476159" />
	</node>
	<node lat="59.452611115271566" lon="11.46229999731918" id="-11691">
		<tag k="name" v="Morttjern" />
		<tag k="natural" v="water" />
		<tag k="ssr:stedsnr" v="476207" />
	</node>
	<node lat="59.465730560000445" lon="11.422299999703366" id="-11695">
		<tag k="name" v="Gåseflo" />
		<tag k="natural" v="water" />
		<tag k="ssr:stedsnr" v="487226" />
	</node>
	<node lat="59.40368888764136" lon="11.350377777248713" id="-11706">
		<tag k="name" v="Krosbybekken" />
		<tag k="ssr:stedsnr" v="507563" />
		<tag k="waterway" v="stream" />
	</node>
	<node lat="59.432025000158454" lon="11.52739166912822" id="-11716">
		<tag k="name" v="Krokbekk" />
		<tag k="natural" v="water" />
		<tag k="ssr:stedsnr" v="536005" />
		<tag k="water" v="lake" />
	</node>
	<node lat="59.43199166884466" lon="11.504869449537539" id="-11719">
		<tag k="name" v="Storetjæra" />
		<tag k="ssr:stedsnr" v="536375" />
		<tag k="waterway" v="stream" />
	</node>
	<node lat="59.31999444053527" lon="11.547050002341457" id="-11726">
		<tag k="name" v="Jambekken" />
		<tag k="ssr:stedsnr" v="537416" />
		<tag k="waterway" v="stream" />
	</node>
	<node lat="59.317055559514294" lon="11.576322221469288" id="-11727">
		<tag k="name" v="Tangeøya" />
		<tag k="place" v="island" />
		<tag k="ssr:stedsnr" v="537419" />
	</node>
	<node lat="59.456459880513876" lon="11.497680771484886" id="-11729">
		<tag k="name" v="Blankevanna" />
		<tag k="natural" v="water" />
		<tag k="ssr:stedsnr" v="545495" />
		<tag k="water" v="lake" />
	</node>
	<node lat="59.444313629866194" lon="11.545632024605423" id="-11733">
		<tag k="alt_name" v="Hostenvannet" />
		<tag k="name" v="Haugstenvannet" />
		<tag k="natural" v="water" />
		<tag k="old_name" v="Store Hosten" />
		<tag k="ssr:stedsnr" v="548622" />
		<tag k="water" v="lake" />
	</node>
	<node lat="59.43293611369035" lon="11.313144438278131" id="-11768">
		<tag k="name" v="Holøsbekken" />
		<tag k="ssr:stedsnr" v="568580" />
		<tag k="waterway" v="stream" />
	</node>
	<node lat="59.472622219698906" lon="11.500938886388225" id="-11776">
		<tag k="name" v="Mustjern" />
		<tag k="natural" v="water" />
		<tag k="ssr:stedsnr" v="596317" />
	</node>
	<node lat="59.435183335868054" lon="11.562197223136181" id="-11779">
		<tag k="name" v="Frønehøyda" />
		<tag k="place" v="islet" />
		<tag k="ssr:stedsnr" v="597008" />
	</node>
	<node lat="59.455088890605445" lon="11.554508325252355" id="-11780">
		<tag k="name" v="Andriktjern" />
		<tag k="natural" v="water" />
		<tag k="ssr:stedsnr" v="597104" />
	</node>
	<node lat="59.30708610833864" lon="11.513211107522299" id="-11781">
		<tag k="name" v="Søndre Gørtjern" />
		<tag k="natural" v="water" />
		<tag k="ssr:stedsnr" v="597358" />
	</node>
	<node lat="59.29377777867637" lon="11.574824993001334" id="-11783">
		<tag k="name" v="Store Beråstjern" />
		<tag k="natural" v="water" />
		<tag k="ssr:stedsnr" v="597363" />
	</node>
	<node lat="59.24622162270336" lon="11.38687724791489" id="-11798">
		<tag k="name" v="Stiksvannet" />
		<tag k="natural" v="water" />
		<tag k="ssr:stedsnr" v="609915" />
		<tag k="water" v="lake" />
	</node>
	<node lat="59.26747500207571" lon="11.355647225768466" id="-11800">
		<tag k="name" v="Nattjern" />
		<tag k="natural" v="water" />
		<tag k="ssr:stedsnr" v="609927" />
	</node>
	<node lat="59.28155277964839" lon="11.489625008898875" id="-11804">
		<tag k="alt_name" v="Svarttjern" />
		<tag k="name" v="Svartetjernet" />
		<tag k="natural" v="water" />
		<tag k="ssr:stedsnr" v="610725" />
	</node>
	<node lat="59.415213893101274" lon="11.314969452343469" id="-11809">
		<tag k="name" v="Holtebekken" />
		<tag k="ssr:stedsnr" v="629550" />
		<tag k="waterway" v="stream" />
	</node>
	<node lat="59.47433611016464" lon="11.461813897644488" id="-11821">
		<tag k="name" v="Øvre Låstjern" />
		<tag k="natural" v="water" />
		<tag k="ssr:stedsnr" v="657335" />
	</node>
	<node lat="59.30516666498491" lon="11.535294437395452" id="-11822">
		<tag k="name" v="Gjeddebukta" />
		<tag k="natural" v="bay" />
		<tag k="ssr:stedsnr" v="657336" />
	</node>
	<node lat="59.28957778009642" lon="11.428238892984693" id="-11823">
		<tag k="name" v="Julsrud foss" />
		<tag k="natural" v="waterfall" />
		<tag k="ssr:stedsnr" v="657695" />
	</node>
	<node lat="59.451588888928136" lon="11.490227781626146" id="-11828">
		<tag k="name" v="Bjørnetjern" />
		<tag k="natural" v="water" />
		<tag k="ssr:stedsnr" v="658035" />
	</node>
	<node lat="59.34195277941334" lon="11.554763896691808" id="-11830">
		<tag k="name" v="Rørvannstangen" />
		<tag k="natural" v="cape" />
		<tag k="ssr:stedsnr" v="658200" />
	</node>
	<node lat="59.25909999762278" lon="11.549694452307953" id="-11831">
		<tag k="name" v="Blanketjern" />
		<tag k="natural" v="water" />
		<tag k="ssr:stedsnr" v="658942" />
	</node>
	<node lat="59.24460000203771" lon="11.413250004116714" id="-11833">
		<tag k="alt_name" v="Grasholt sjøene" />
		<tag k="name" v="Grasholtjernet" />
		<tag k="natural" v="water" />
		<tag k="ssr:stedsnr" v="668591" />
	</node>
	<node lat="59.26375002239974" lon="11.464509690569493" id="-11854">
		<tag k="name" v="Greåkersjøen" />
		<tag k="natural" v="water" />
		<tag k="ssr:stedsnr" v="690899" />
		<tag k="water" v="lake" />
	</node>
	<node lat="59.35806666359775" lon="11.31601388578556" id="-11859">
		<tag k="name" v="Bråtebekken" />
		<tag k="ssr:stedsnr" v="718416" />
		<tag k="waterway" v="stream" />
	</node>
	<node lat="59.474797221323925" lon="11.447738886321016" id="-11872">
		<tag k="name" v="Vestre Kølabonntjern" />
		<tag k="natural" v="water" />
		<tag k="ssr:stedsnr" v="900348" />
	</node>
	<node lat="59.45913888608491" lon="11.543219438050388" id="-11873">
		<tag k="name" v="Pytten" />
		<tag k="natural" v="water" />
		<tag k="ssr:stedsnr" v="900375" />
		<tag k="water" v="pond" />
	</node>
	<node lat="59.39549305721051" lon="11.515609151707444" id="-11883">
		<tag k="name" v="Tjerbutjerna" />
		<tag k="natural" v="water" />
		<tag k="ssr:stedsnr" v="728716" />
		<tag k="water" v="lake" />
	</node>
	<node lat="59.294491670935365" lon="11.570558333744215" id="-11897">
		<tag k="name" v="Lille Beråstjern" />
		<tag k="natural" v="water" />
		<tag k="ssr:stedsnr" v="901345" />
	</node>
	<node lat="59.29546666636965" lon="11.507258331269993" id="-11898">
		<tag k="name" v="Nordre Stutøye" />
		<tag k="natural" v="water" />
		<tag k="ssr:stedsnr" v="901347" />
		<tag k="water" v="pond" />
	</node>
	<node lat="59.30112221968204" lon="11.526541667874344" id="-11899">
		<tag k="name" v="Øvre Buvann" />
		<tag k="natural" v="water" />
		<tag k="ssr:stedsnr" v="901349" />
	</node>
	<node lat="59.2699637489491" lon="11.478795906154383" id="-11900">
		<tag k="name" v="Knula" />
		<tag k="natural" v="water" />
		<tag k="ssr:stedsnr" v="731703" />
	</node>
	<node lat="59.43266666546018" lon="11.496808333287088" id="-11906">
		<tag k="name" v="Vesjetjæra" />
		<tag k="ssr:stedsnr" v="901482" />
		<tag k="waterway" v="stream" />
	</node>
	<node lat="59.43714722413463" lon="11.525994437356985" id="-11914">
		<tag k="name" v="Høyfosstjern" />
		<tag k="natural" v="water" />
		<tag k="ssr:stedsnr" v="779003" />
	</node>
	<node lat="59.42692777776654" lon="11.486897229086734" id="-11917">
		<tag k="name" v="Butjern" />
		<tag k="natural" v="water" />
		<tag k="ssr:stedsnr" v="779518" />
	</node>
	<node lat="59.411255553835794" lon="11.406158329949575" id="-11919">
		<tag k="name" v="Grinnstadhølen" />
		<tag k="place" v="locality" />
		<tag k="ssr:stedsnr" v="779602" />
	</node>
	<node lat="59.39544166420541" lon="11.518552785355407" id="-11920">
		<tag k="alt_name" v="Tjærbutjern østre" />
		<tag k="name" v="Østre Tjærbutjern" />
		<tag k="natural" v="water" />
		<tag k="ssr:stedsnr" v="779802" />
	</node>
	<node lat="59.26247778004265" lon="11.541016671064584" id="-11928">
		<tag k="name" v="Støtefosshølen" />
		<tag k="natural" v="water" />
		<tag k="ssr:stedsnr" v="780949" />
		<tag k="water" v="pond" />
	</node>
	<node lat="59.461013890385495" lon="11.535858334141631" id="-11936">
		<tag k="name" v="Rognetjern" />
		<tag k="natural" v="water" />
		<tag k="ssr:stedsnr" v="791586" />
	</node>
	<node lat="59.381527781774224" lon="11.58218055301334" id="-11947">
		<tag k="alt_name" v="Skottjern" />
		<tag k="name" v="Nordre Skottjern" />
		<tag k="natural" v="water" />
		<tag k="ssr:stedsnr" v="913527" />
	</node>
	<node lat="59.275750001446994" lon="11.38174722616366" id="-11949">
		<tag k="name" v="Holtetjern" />
		<tag k="natural" v="water" />
		<tag k="ssr:stedsnr" v="912880" />
	</node>
	<node lat="59.47841944130523" lon="11.390327777750658" id="-11953">
		<tag k="name" v="Dørja" />
		<tag k="ssr:stedsnr" v="913191" />
		<tag k="waterway" v="stream" />
	</node>
	<node lat="59.289975004476126" lon="11.561297221675371" id="-11956">
		<tag k="name" v="Nordre Hivann" />
		<tag k="natural" v="water" />
		<tag k="ssr:stedsnr" v="913656" />
	</node>
	<node lat="59.31836111273618" lon="11.484477774026754" id="-11969">
		<tag k="alt_name" v="Igletjern" />
		<tag k="name" v="Igletjernet" />
		<tag k="natural" v="water" />
		<tag k="ssr:stedsnr" v="914653" />
	</node>
	<node lat="59.31585278072778" lon="11.512750003084593" id="-11970">
		<tag k="alt_name" v="Væletjerna" />
		<tag k="name" v="Nordre Væletjern" />
		<tag k="natural" v="water" />
		<tag k="ssr:stedsnr" v="914655" />
	</node>
	<node lat="59.30983333211952" lon="11.540086107757014" id="-11989">
		<tag k="name" v="Store Fiskerøya" />
		<tag k="place" v="islet" />
		<tag k="ssr:stedsnr" v="840316" />
	</node>
	<node lat="59.28994722577102" lon="11.554566672252859" id="-11994">
		<tag k="name" v="Morttjern" />
		<tag k="natural" v="water" />
		<tag k="ssr:stedsnr" v="841982" />
	</node>
	<node lat="59.46853611461037" lon="11.479152769643473" id="-11997">
		<tag k="alt_name" v="Slorene" />
		<tag k="name" v="Langevannsslorene" />
		<tag k="natural" v="water" />
		<tag k="ssr:stedsnr" v="852576" />
	</node>
	<node lat="59.289374996126426" lon="11.36662222282561" id="-12000">
		<tag k="name" v="Lomtjern" />
		<tag k="natural" v="water" />
		<tag k="ssr:stedsnr" v="852887" />
	</node>
	<node lat="59.34500000337485" lon="11.554341660530802" id="-12002">
		<tag k="name" v="Rørvannet" />
		<tag k="natural" v="water" />
		<tag k="ssr:stedsnr" v="853722" />
	</node>
	<node lat="59.26453055365319" lon="11.547502772933544" id="-12004">
		<tag k="alt_name" v="Lille Bjørvannet" />
		<tag k="name" v="Lille Bjørvann" />
		<tag k="natural" v="water" />
		<tag k="ssr:stedsnr" v="853726" />
	</node>
	<node lat="59.46497777442556" lon="11.230058340341781" id="-12013">
		<tag k="name" v="Røsækevja" />
		<tag k="natural" v="bay" />
		<tag k="ssr:stedsnr" v="932983" />
	</node>
	<node lat="59.31754166310346" lon="11.421422226123704" id="-12025">
		<tag k="name" v="Blytjernsbekken" />
		<tag k="ssr:stedsnr" v="933679" />
		<tag k="waterway" v="stream" />
	</node>
	<node lat="59.306766670947376" lon="11.380499999452763" id="-12034">
		<tag k="name" v="Elggututjern" />
		<tag k="natural" v="water" />
		<tag k="ssr:stedsnr" v="900123" />
	</node>
	<node lat="59.307797222312686" lon="11.383574991440714" id="-12035">
		<tag k="name" v="Elggutubekken" />
		<tag k="ssr:stedsnr" v="900125" />
		<tag k="waterway" v="stream" />
	</node>
	<node lat="59.3228361099274" lon="11.371813891045047" id="-12036">
		<tag k="name" v="Kastebekken" />
		<tag k="ssr:stedsnr" v="900413" />
		<tag k="waterway" v="stream" />
	</node>
	<node lat="59.324075000485955" lon="11.379177781006398" id="-12037">
		<tag k="name" v="Kastevika" />
		<tag k="natural" v="bay" />
		<tag k="ssr:stedsnr" v="900423" />
	</node>
	<node lat="59.396061111484784" lon="11.59200832710578" id="-12044">
		<tag k="name" v="Killingtjern" />
		<tag k="natural" v="water" />
		<tag k="ssr:stedsnr" v="900964" />
	</node>
	<node lat="59.4408027815428" lon="11.558811106152662" id="-12045">
		<tag k="name" v="Frønehøydtjern" />
		<tag k="natural" v="water" />
		<tag k="ssr:stedsnr" v="901004" />
	</node>
	<node lat="59.41520277719031" lon="11.540011115940668" id="-12048">
		<tag k="name" v="Gulliktjern" />
		<tag k="natural" v="water" />
		<tag k="ssr:stedsnr" v="901553" />
	</node>
	<node lat="59.476575003739974" lon="11.430652769649537" id="-12052">
		<tag k="name" v="Nordre Honningen" />
		<tag k="natural" v="water" />
		<tag k="ssr:stedsnr" v="912006" />
	</node>
	<node lat="59.30858055553793" lon="11.523563893934" id="-12062">
		<tag k="alt_name" v="Knuvla" />
		<tag k="name" v="Knuvelen" />
		<tag k="natural" v="water" />
		<tag k="ssr:stedsnr" v="913620" />
	</node>
	<node lat="59.30142500235063" lon="11.556536115823791" id="-12064">
		<tag k="alt_name" v="Kroktjern" />
		<tag k="name" v="Krokvannet" />
		<tag k="natural" v="water" />
		<tag k="ssr:stedsnr" v="913636" />
	</node>
	<node lat="59.26338333620194" lon="11.444674992696072" id="-12075">
		<tag k="name" v="Bjerkebekken" />
		<tag k="ssr:stedsnr" v="933903" />
		<tag k="waterway" v="stream" />
	</node>
	<node lat="59.25994444007424" lon="11.408308338042808" id="-12077">
		<tag k="name" v="Morttjern" />
		<tag k="natural" v="water" />
		<tag k="ssr:stedsnr" v="933891" />
	</node>
	<node lat="59.39356667053399" lon="11.502102774023971" id="-12081">
		<tag k="name" v="Galåshølen" />
		<tag k="place" v="locality" />
		<tag k="ssr:stedsnr" v="961831" />
	</node>
	<node lat="59.29117221895117" lon="11.4233138818101" id="-12084">
		<tag k="name" v="Vatvetelva" />
		<tag k="ssr:stedsnr" v="961761" />
		<tag k="waterway" v="river" />
	</node>
	<node lat="59.37113610743807" lon="11.582941672015489" id="-12087">
		<tag k="name" v="Køldyvelen" />
		<tag k="natural" v="water" />
		<tag k="ssr:stedsnr" v="962150" />
	</node>
	<node lat="59.330000000261755" lon="11.379200004261223" id="-12118">
		<tag k="name" v="Strandøya" />
		<tag k="place" v="islet" />
		<tag k="ssr:stedsnr" v="3767" />
	</node>
	<node lat="59.32279722435077" lon="11.473288894578182" id="-12121">
		<tag k="name" v="Oksetjernet" />
		<tag k="natural" v="water" />
		<tag k="ssr:stedsnr" v="3590" />
	</node>
	<node lat="59.433008331684796" lon="11.283888883056767" id="-12127">
		<tag k="alt_name" v="Buerfoss" />
		<tag k="name" v="Buerfossen" />
		<tag k="natural" v="waterfall" />
		<tag k="ssr:stedsnr" v="22591" />
	</node>
	<node lat="59.24890833367166" lon="11.42730277177164" id="-12139">
		<tag k="name" v="Svanetjern" />
		<tag k="natural" v="water" />
		<tag k="ssr:stedsnr" v="22876" />
	</node>
	<node lat="59.45582222133285" lon="11.498569441872624" id="-12142">
		<tag k="name" v="Søndre Blankvann" />
		<tag k="natural" v="water" />
		<tag k="ssr:stedsnr" v="51047" />
	</node>
	<node lat="59.45306944132177" lon="11.459966670963132" id="-12145">
		<tag k="name" v="Haretjern" />
		<tag k="natural" v="water" />
		<tag k="ssr:stedsnr" v="51232" />
	</node>
	<node lat="59.46506428232629" lon="11.539413505721189" id="-12147">
		<tag k="name" v="Brilletjerna" />
		<tag k="natural" v="water" />
		<tag k="ssr:stedsnr" v="51416" />
		<tag k="water" v="lake" />
	</node>
	<node lat="59.31859508082904" lon="11.361617464213024" id="-12150">
		<tag k="name" v="Svenstjern" />
		<tag k="natural" v="water" />
		<tag k="ssr:stedsnr" v="51665" />
	</node>
	<node lat="59.25827221851697" lon="11.513261105992203" id="-12153">
		<tag k="name" v="Setertjern" />
		<tag k="natural" v="water" />
		<tag k="ssr:stedsnr" v="52959" />
	</node>
	<node lat="59.310622657423544" lon="11.434610354227397" id="-12170">
		<tag k="name" v="Blytjerna" />
		<tag k="natural" v="water" />
		<tag k="ssr:stedsnr" v="63953" />
		<tag k="water" v="lake" />
	</node>
	<node lat="59.324225004236666" lon="11.384249996100491" id="-12171">
		<tag k="name" v="Ertevannet" />
		<tag k="natural" v="water" />
		<tag k="ssr:stedsnr" v="63968" />
		<tag k="water" v="lake" />
	</node>
	<node lat="59.283477777142885" lon="11.54770833087982" id="-12175">
		<tag k="name" v="Søndre Hivann" />
		<tag k="natural" v="water" />
		<tag k="ssr:stedsnr" v="64698" />
	</node>
	<node lat="59.38470555468829" lon="11.236194443850048" id="-12189">
		<tag k="name" v="Sagabekken" />
		<tag k="ssr:stedsnr" v="83729" />
		<tag k="waterway" v="stream" />
	</node>
	<node lat="59.47997024177189" lon="11.438919657727212" id="-12193">
		<tag k="name" v="Langard" />
		<tag k="natural" v="water" />
		<tag k="ssr:stedsnr" v="111035" />
		<tag k="water" v="lake" />
	</node>
	<node lat="59.287638892628216" lon="11.538433333459285" id="-12200">
		<tag k="name" v="Nybølingene" />
		<tag k="natural" v="water" />
		<tag k="ssr:stedsnr" v="112983" />
	</node>
	<node lat="59.30713055560456" lon="11.533119435967134" id="-12209">
		<tag k="name" v="Søndre Hestehagetjern" />
		<tag k="natural" v="water" />
		<tag k="ssr:stedsnr" v="112348" />
	</node>
	<node lat="59.395226432218585" lon="11.512547908245914" id="-12220">
		<tag k="alt_name" v="Tjærbutjern vestre" />
		<tag k="name" v="Vestre Tjærbutjern" />
		<tag k="natural" v="water" />
		<tag k="ssr:stedsnr" v="124487" />
	</node>
	<node lat="59.268894443870366" lon="11.492133328034335" id="-12235">
		<tag k="name" v="Stutøye" />
		<tag k="natural" v="water" />
		<tag k="ssr:stedsnr" v="143870" />
	</node>
	<node lat="59.46926666310674" lon="11.54209166175062" id="-12240">
		<tag k="name" v="Stuetjern" />
		<tag k="natural" v="water" />
		<tag k="ssr:stedsnr" v="172381" />
	</node>
	<node lat="59.473991663969" lon="11.45094722230216" id="-12241">
		<tag k="name" v="Østre Kølabonntjern" />
		<tag k="natural" v="water" />
		<tag k="ssr:stedsnr" v="172354" />
	</node>
	<node lat="59.33911389033224" lon="11.364402784015413" id="-12242">
		<tag k="name" v="Øverbybekken" />
		<tag k="ssr:stedsnr" v="172435" />
		<tag k="waterway" v="stream" />
	</node>
	<node lat="59.42025000221168" lon="11.53090277267961" id="-12245">
		<tag k="loc_name" v="Vesle Stensvann" />
		<tag k="name" v="Stensvannet" />
		<tag k="natural" v="water" />
		<tag k="ssr:stedsnr" v="172577" />
	</node>
	<node lat="59.411133336306634" lon="11.408827772378592" id="-12249">
		<tag k="name" v="Kvernhushølen" />
		<tag k="place" v="locality" />
		<tag k="ssr:stedsnr" v="172617" />
	</node>
	<node lat="59.3651000013047" lon="11.35267777392212" id="-12255">
		<tag k="name" v="Krosbybekken" />
		<tag k="ssr:stedsnr" v="172841" />
		<tag k="waterway" v="stream" />
	</node>
	<node lat="59.27894444699554" lon="11.537836109947893" id="-12258">
		<tag k="name" v="Hivannsdyvlene" />
		<tag k="natural" v="water" />
		<tag k="ssr:stedsnr" v="173978" />
	</node>
	<node lat="59.28791389075152" lon="11.558297229754714" id="-12259">
		<tag k="name" v="Bastian" />
		<tag k="natural" v="water" />
		<tag k="ssr:stedsnr" v="173999" />
	</node>
	<node lat="59.4353944462458" lon="11.245199993660716" id="-12273">
		<tag k="name" v="Rakkestadelva" />
		<tag k="ssr:stedsnr" v="185176" />
		<tag k="waterway" v="river" />
	</node>
	<node lat="59.44762777631407" lon="11.356186112754049" id="-12281">
		<tag k="alt_name" v="Kånsbekken" />
		<tag k="name" v="Kåensbekken" />
		<tag k="ssr:stedsnr" v="204559" />
		<tag k="waterway" v="stream" />
	</node>
	<node lat="59.41781389279463" lon="11.197938887166893" id="-12288">
		<tag k="name" v="Finskuttholmen" />
		<tag k="place" v="islet" />
		<tag k="ssr:stedsnr" v="204679" />
	</node>
	<node lat="59.331572219209065" lon="11.451191663853459" id="-12292">
		<tag k="name" v="Låbytjern" />
		<tag k="natural" v="water" />
		<tag k="ssr:stedsnr" v="205654" />
	</node>
	<node lat="59.32820886644615" lon="11.57131765855713" id="-12300">
=======
	<node id="-242126" lat="59.278944447" lon="11.5378361099">
		<tag k="name" v="Hivannsdyvlene" />
		<tag k="natural" v="water" />
		<tag k="ssr:stedsnr" v="173978" />
	</node>
	<node id="-241570" lat="59.2902805525" lon="11.5374888854">
		<tag k="name" v="Nybølingene" />
		<tag k="natural" v="water" />
		<tag k="ssr:stedsnr" v="670670" />
		<tag k="water" v="lake" />
	</node>
	<node id="-242634" lat="59.3348138867" lon="11.385872217">
		<tag k="alt_name" v="Skielva" />
		<tag k="name" v="Skiselva" />
		<tag k="ssr:stedsnr" v="811556" />
		<tag k="waterway" v="river" />
	</node>
	<node id="-242121" lat="59.3651000013" lon="11.3526777739">
		<tag k="name" v="Krosbybekken" />
		<tag k="ssr:stedsnr" v="172841" />
		<tag k="waterway" v="stream" />
	</node>
	<node id="-242508" lat="59.2462216227" lon="11.3868772479">
		<tag k="name" v="Stiksvannet" />
		<tag k="natural" v="water" />
		<tag k="ssr:stedsnr" v="609915" />
		<tag k="water" v="lake" />
	</node>
	<node id="-241825" lat="59.4371472241" lon="11.5259944374">
		<tag k="name" v="Høyfosstjern" />
		<tag k="natural" v="water" />
		<tag k="ssr:stedsnr" v="779003" />
	</node>
	<node id="-242116" lat="59.4202500022" lon="11.5309027727">
		<tag k="loc_name" v="Vesle Stensvann" />
		<tag k="name" v="Stensvannet" />
		<tag k="natural" v="water" />
		<tag k="ssr:stedsnr" v="172577" />
	</node>
	<node id="-242113" lat="59.3391138903" lon="11.364402784">
		<tag k="name" v="Øverbybekken" />
		<tag k="ssr:stedsnr" v="172435" />
		<tag k="waterway" v="stream" />
	</node>
	<node id="-242112" lat="59.3234850386" lon="11.3822481549">
		<tag k="name" v="Tangen" />
		<tag k="natural" v="cape" />
		<tag k="ssr:stedsnr" v="172432" />
	</node>
	<node id="-242110" lat="59.4692666631" lon="11.5420916618">
		<tag k="name" v="Stuetjern" />
		<tag k="natural" v="water" />
		<tag k="ssr:stedsnr" v="172381" />
	</node>
	<node id="-242620" lat="59.2947194424" lon="11.5313722182">
		<tag k="alt_name" v="Langetjern" />
		<tag k="name" v="Langtjernet" />
		<tag k="natural" v="water" />
		<tag k="ssr:stedsnr" v="792658" />
	</node>
	<node id="-242107" lat="59.473991664" lon="11.4509472223">
		<tag k="name" v="Østre Kølabonntjern" />
		<tag k="natural" v="water" />
		<tag k="ssr:stedsnr" v="172354" />
	</node>
	<node id="-242106" lat="59.4640888898" lon="11.5064166636">
		<tag k="name" v="Halvardsvann" />
		<tag k="natural" v="water" />
		<tag k="ssr:stedsnr" v="172108" />
	</node>
	<node id="-241738" lat="59.4599472226" lon="11.4974972293">
		<tag k="name" v="Prikkendalsvann" />
		<tag k="natural" v="water" />
		<tag k="ssr:stedsnr" v="719043" />
	</node>
	<node id="-241225" lat="59.2905833316" lon="11.5688055577">
		<tag k="name" v="Hivannstjernet" />
		<tag k="natural" v="water" />
		<tag k="ssr:stedsnr" v="234338" />
	</node>
	<node id="-242610" lat="59.3035222195" lon="11.5726805498">
		<tag k="alt_name" v="Kroktjernbekken" />
		<tag k="name" v="Krokvassbekken" />
		<tag k="ssr:stedsnr" v="791654" />
		<tag k="waterway" v="stream" />
	</node>
	<node id="-242609" lat="59.4610138904" lon="11.5358583341">
		<tag k="name" v="Rognetjern" />
		<tag k="natural" v="water" />
		<tag k="ssr:stedsnr" v="791586" />
	</node>
	<node id="-241583" lat="59.312483832" lon="11.5754649439">
		<tag k="name" v="Hellesåbukta" />
		<tag k="natural" v="bay" />
		<tag k="ssr:stedsnr" v="476423" />
	</node>
	<node id="-241410" lat="59.3213416671" lon="11.5225777736">
		<tag k="name" v="Åleputa" />
		<tag k="natural" v="bay" />
		<tag k="ssr:stedsnr" v="475349" />
	</node>
	<node id="-242599" lat="59.26247778" lon="11.5410166711">
		<tag k="name" v="Støtefosshølen" />
		<tag k="natural" v="water" />
		<tag k="ssr:stedsnr" v="780949" />
		<tag k="water" v="pond" />
	</node>
	<node id="-242598" lat="59.3594027799" lon="11.5168861118">
		<tag k="name" v="Storetorpfossen" />
		<tag k="natural" v="waterfall" />
		<tag k="ssr:stedsnr" v="780171" />
	</node>
	<node id="-242596" lat="59.3303666692" lon="11.5223499916">
		<tag k="name" v="Åseter" />
		<tag k="natural" v="water" />
		<tag k="ssr:stedsnr" v="780080" />
	</node>
	<node id="-242594" lat="59.4622749972" lon="11.4600722168">
		<tag k="name" v="Nordre Svarttjern" />
		<tag k="natural" v="water" />
		<tag k="ssr:stedsnr" v="779895" />
	</node>
	<node id="-241392" lat="59.4266166667" lon="11.4486305607">
		<tag k="name" v="Iglerudtjern" />
		<tag k="natural" v="water" />
		<tag k="ssr:stedsnr" v="245164" />
	</node>
	<node id="-242587" lat="59.3954416642" lon="11.5185527854">
		<tag k="alt_name" v="Tjærbutjern østre" />
		<tag k="name" v="Østre Tjærbutjern" />
		<tag k="natural" v="water" />
		<tag k="ssr:stedsnr" v="779802" />
	</node>
	<node id="-241562" lat="59.3232000011" lon="11.4050805605">
		<tag k="name" v="Stomperudtjernet" />
		<tag k="natural" v="water" />
		<tag k="ssr:stedsnr" v="669942" />
	</node>
	<node id="-242585" lat="59.3916916634" lon="11.5533805515">
		<tag k="name" v="Sevedalsbekken" />
		<tag k="ssr:stedsnr" v="779776" />
		<tag k="waterway" v="stream" />
	</node>
	<node id="-242072" lat="59.295530553" lon="11.5127611031">
		<tag k="alt_name" v="Holmetjern" />
		<tag k="name" v="Holmetjernet" />
		<tag k="natural" v="water" />
		<tag k="ssr:stedsnr" v="124621" />
	</node>
	<node id="-242071" lat="59.2990750036" lon="11.5213833401">
		<tag k="name" v="Nedre Buvann" />
		<tag k="natural" v="water" />
		<tag k="ssr:stedsnr" v="124604" />
	</node>
	<node id="-242582" lat="59.4112555538" lon="11.4061583299">
		<tag k="name" v="Grinnstadhølen" />
		<tag k="place" v="locality" />
		<tag k="ssr:stedsnr" v="779602" />
	</node>
	<node id="-242069" lat="59.3952264322" lon="11.5125479082">
		<tag k="alt_name" v="Tjærbutjern vestre" />
		<tag k="name" v="Vestre Tjærbutjern" />
		<tag k="natural" v="water" />
		<tag k="ssr:stedsnr" v="124487" />
	</node>
	<node id="-242580" lat="59.410525002" lon="11.5037055474">
		<tag k="name" v="Seterekken" />
		<tag k="ssr:stedsnr" v="779557" />
		<tag k="waterway" v="stream" />
	</node>
	<node id="-241553" lat="59.244600002" lon="11.4132500041">
		<tag k="alt_name" v="Grasholt sjøene" />
		<tag k="name" v="Grasholtjernet" />
		<tag k="natural" v="water" />
		<tag k="ssr:stedsnr" v="668591" />
	</node>
	<node id="-242576" lat="59.3196627806" lon="11.5625015801">
		<tag k="name" v="Mobekken" />
		<tag k="ssr:stedsnr" v="779441" />
		<tag k="waterway" v="stream" />
	</node>
	<node id="-242574" lat="59.4683833358" lon="11.4947111038">
		<tag k="name" v="Halvardsvann" />
		<tag k="natural" v="water" />
		<tag k="ssr:stedsnr" v="779391" />
	</node>
	<node id="-242284" lat="59.2861722185" lon="11.5647166616">
		<tag k="name" v="Bastianvanna" />
		<tag k="natural" v="water" />
		<tag k="ssr:stedsnr" v="356000" />
	</node>
	<node id="-242572" lat="59.4733472249" lon="11.4684861153">
		<tag k="name" v="Furutjern" />
		<tag k="natural" v="water" />
		<tag k="ssr:stedsnr" v="779332" />
	</node>
	<node id="-241545" lat="59.3419527794" lon="11.5547638967">
		<tag k="name" v="Rørvannstangen" />
		<tag k="natural" v="cape" />
		<tag k="ssr:stedsnr" v="658200" />
	</node>
	<node id="-242056" lat="59.2876388926" lon="11.5384333335">
		<tag k="name" v="Nybølingene" />
		<tag k="natural" v="water" />
		<tag k="ssr:stedsnr" v="112983" />
	</node>
	<node id="-241543" lat="59.3729361101" lon="11.576424997">
		<tag k="name" v="Skottjern" />
		<tag k="natural" v="water" />
		<tag k="ssr:stedsnr" v="658159" />
	</node>
	<node id="-241542" lat="59.4543694448" lon="11.4960444523">
		<tag k="name" v="Jonsvann" />
		<tag k="natural" v="water" />
		<tag k="ssr:stedsnr" v="658052" />
	</node>
	<node id="-241541" lat="59.4534535575" lon="11.4847803094">
		<tag k="name" v="Presttjern" />
		<tag k="natural" v="water" />
		<tag k="ssr:stedsnr" v="658043" />
	</node>
	<node id="-241540" lat="59.4515888889" lon="11.4902277816">
		<tag k="name" v="Bjørnetjern" />
		<tag k="natural" v="water" />
		<tag k="ssr:stedsnr" v="658035" />
	</node>
	<node id="-242563" lat="59.3087027816" lon="11.4398972149">
		<tag k="name" v="Søndre Blytjern" />
		<tag k="natural" v="water" />
		<tag k="ssr:stedsnr" v="751643" />
	</node>
	<node id="-242050" lat="59.3071305556" lon="11.533119436">
		<tag k="name" v="Søndre Hestehagetjern" />
		<tag k="natural" v="water" />
		<tag k="ssr:stedsnr" v="112348" />
	</node>
	<node id="-242561" lat="59.2597194449" lon="11.4865166611">
		<tag k="name" v="Sandvannsbekken" />
		<tag k="ssr:stedsnr" v="750862" />
		<tag k="waterway" v="stream" />
	</node>
	<node id="-242560" lat="59.2548972259" lon="11.4530583401">
		<tag k="name" v="Glomsrødsjøen" />
		<tag k="natural" v="water" />
		<tag k="ssr:stedsnr" v="750837" />
		<tag k="water" v="lake" />
	</node>
	<node id="-242557" lat="59.3488361145" lon="11.4687777798">
		<tag k="name" v="Nakkimbekken" />
		<tag k="ssr:stedsnr" v="750635" />
		<tag k="waterway" v="stream" />
	</node>
	<node id="-242556" lat="59.3290750002" lon="11.4091916749">
		<tag k="name" v="Stensrudbekken" />
		<tag k="ssr:stedsnr" v="750627" />
		<tag k="waterway" v="stream" />
	</node>
	<node id="-241642" lat="59.3170555595" lon="11.5763222215">
		<tag k="name" v="Tangeøya" />
		<tag k="place" v="island" />
		<tag k="ssr:stedsnr" v="537419" />
	</node>
	<node id="-241530" lat="59.2895777801" lon="11.428238893">
		<tag k="name" v="Julsrud foss" />
		<tag k="natural" v="waterfall" />
		<tag k="ssr:stedsnr" v="657695" />
	</node>
	<node id="-242553" lat="59.4444166679" lon="11.3885055471">
		<tag k="name" v="Østbybekken" />
		<tag k="ssr:stedsnr" v="750595" />
		<tag k="waterway" v="stream" />
	</node>
	<node id="-242551" lat="59.3981416667" lon="11.3726666629">
		<tag k="name" v="Nordbyevja" />
		<tag k="natural" v="bay" />
		<tag k="ssr:stedsnr" v="750569" />
	</node>
	<node id="-242547" lat="59.3565694444" lon="11.3293444401">
		<tag k="name" v="Øverbybekken" />
		<tag k="ssr:stedsnr" v="750302" />
		<tag k="waterway" v="stream" />
	</node>
	<node id="-241521" lat="59.305166665" lon="11.5352944374">
		<tag k="name" v="Gjeddebukta" />
		<tag k="natural" v="bay" />
		<tag k="ssr:stedsnr" v="657336" />
	</node>
	<node id="-241520" lat="59.4743361102" lon="11.4618138976">
		<tag k="name" v="Øvre Låstjern" />
		<tag k="natural" v="water" />
		<tag k="ssr:stedsnr" v="657335" />
	</node>
	<node id="-242031" lat="59.458630556" lon="11.2794861177">
		<tag k="name" v="Valabekken" />
		<tag k="ssr:stedsnr" v="83989" />
		<tag k="waterway" v="stream" />
	</node>
	<node id="-242028" lat="59.375661112" lon="11.4627444494">
		<tag k="name" v="Fosserfoss" />
		<tag k="natural" v="waterfall" />
		<tag k="ssr:stedsnr" v="83686" />
	</node>
	<node id="-242192" lat="59.470425002" lon="11.4333499954">
		<tag k="loc_name" v="Honningen" />
		<tag k="name" v="Søndre Honningen" />
		<tag k="natural" v="water" />
		<tag k="ssr:stedsnr" v="305225" />
		<tag k="water" v="lake" />
	</node>
	<node id="-241513" lat="59.3017000029" lon="11.5087888947">
		<tag k="name" v="Søndre Askevannet" />
		<tag k="natural" v="water" />
		<tag k="ssr:stedsnr" v="428638" />
	</node>
	<node id="-242024" lat="59.4360277782" lon="11.2417999968">
		<tag k="name" v="Gapestadfossen" />
		<tag k="natural" v="waterfall" />
		<tag k="ssr:stedsnr" v="83485" />
	</node>
	<node id="-241511" lat="59.3145861139" lon="11.5238499982">
		<tag k="alt_name" v="Hesthagtjernet" />
		<tag k="name" v="Hestehagetjern" />
		<tag k="natural" v="water" />
		<tag k="ssr:stedsnr" v="428622" />
	</node>
	<node id="-242022" lat="59.3222222224" lon="11.32546667">
		<tag k="name" v="Horntjernrenna" />
		<tag k="ssr:stedsnr" v="83036" />
		<tag k="waterway" v="stream" />
	</node>
	<node id="-241509" lat="59.4583027741" lon="11.4962111047">
		<tag k="name" v="Nordre Blankvann" />
		<tag k="natural" v="water" />
		<tag k="ssr:stedsnr" v="427602" />
	</node>
	<node id="-241756" lat="59.2531020679" lon="11.5210684456">
		<tag k="alt_name" v="Bislingen" />
		<tag k="name" v="Øvre Bislingen" />
		<tag k="natural" v="water" />
		<tag k="ssr:stedsnr" v="731732" />
	</node>
	<node id="-242526" lat="59.4152138931" lon="11.3149694523">
		<tag k="name" v="Holtebekken" />
		<tag k="ssr:stedsnr" v="629550" />
		<tag k="waterway" v="stream" />
	</node>
	<node id="-242010" lat="59.3242250042" lon="11.3842499961">
		<tag k="name" v="Ertevannet" />
		<tag k="natural" v="water" />
		<tag k="ssr:stedsnr" v="63968" />
		<tag k="water" v="lake" />
	</node>
	<node id="-242009" lat="59.3106226574" lon="11.4346103542">
		<tag k="name" v="Blytjerna" />
		<tag k="natural" v="water" />
		<tag k="ssr:stedsnr" v="63953" />
		<tag k="water" v="lake" />
	</node>
	<node id="-242519" lat="59.3423861096" lon="11.5064944481">
		<tag k="name" v="Toretjern" />
		<tag k="natural" v="water" />
		<tag k="ssr:stedsnr" v="610751" />
	</node>
	<node id="-242518" lat="59.2668833335" lon="11.4873083248">
		<tag k="alt_name" v="Valetjern" />
		<tag k="name" v="Valetjernet" />
		<tag k="natural" v="water" />
		<tag k="ssr:stedsnr" v="610740" />
	</node>
	<node id="-242517" lat="59.2821555563" lon="11.5296833375">
		<tag k="name" v="Prestedammen" />
		<tag k="natural" v="water" />
		<tag k="ssr:stedsnr" v="610723" />
	</node>
	<node id="-242514" lat="59.3321750001" lon="11.3559000069">
		<tag k="name" v="Lundstjernet" />
		<tag k="natural" v="water" />
		<tag k="ssr:stedsnr" v="610800" />
	</node>
	<node id="-241488" lat="59.4036888876" lon="11.3503777772">
		<tag k="name" v="Krosbybekken" />
		<tag k="ssr:stedsnr" v="507563" />
		<tag k="waterway" v="stream" />
	</node>
	<node id="-241976" lat="59.2489083337" lon="11.4273027718">
		<tag k="name" v="Svanetjern" />
		<tag k="natural" v="water" />
		<tag k="ssr:stedsnr" v="22876" />
	</node>
	<node id="-242510" lat="59.2674750021" lon="11.3556472258">
		<tag k="name" v="Nattjern" />
		<tag k="natural" v="water" />
		<tag k="ssr:stedsnr" v="609927" />
	</node>
	<node id="-241484" lat="59.3640833293" lon="11.4628666657">
		<tag k="name" v="Hølen" />
		<tag k="ssr:stedsnr" v="386659" />
		<tag k="waterway" v="river" />
	</node>
	<node id="-241483" lat="59.4264361128" lon="11.2941499992">
		<tag k="name" v="Kjeldsrudbekken" />
		<tag k="ssr:stedsnr" v="386603" />
		<tag k="waterway" v="stream" />
	</node>
	<node id="-242505" lat="59.2815527796" lon="11.4896250089">
		<tag k="alt_name" v="Svarttjern" />
		<tag k="name" v="Svartetjernet" />
		<tag k="natural" v="water" />
		<tag k="ssr:stedsnr" v="610725" />
	</node>
	<node id="-241479" lat="59.470475003" lon="11.4540111191">
		<tag k="name" v="Merratjern" />
		<tag k="natural" v="water" />
		<tag k="ssr:stedsnr" v="354907" />
	</node>
	<node id="-242502" lat="59.3632055548" lon="11.5223416679">
		<tag k="name" v="Skjølja" />
		<tag k="natural" v="water" />
		<tag k="ssr:stedsnr" v="609669" />
	</node>
	<node id="-241206" lat="59.477561111" lon="11.4479055577">
		<tag k="name" v="Nordre Kølabonntjern" />
		<tag k="natural" v="water" />
		<tag k="ssr:stedsnr" v="232332" />
	</node>
	<node id="-241982" lat="59.4650642823" lon="11.5394135057">
		<tag k="name" v="Brilletjerna" />
		<tag k="natural" v="water" />
		<tag k="ssr:stedsnr" v="51416" />
		<tag k="water" v="lake" />
	</node>
	<node id="-241980" lat="59.4530694413" lon="11.459966671">
		<tag k="name" v="Haretjern" />
		<tag k="natural" v="water" />
		<tag k="ssr:stedsnr" v="51232" />
	</node>
	<node id="-241979" lat="59.4558222213" lon="11.4985694419">
		<tag k="name" v="Søndre Blankvann" />
		<tag k="natural" v="water" />
		<tag k="ssr:stedsnr" v="51047" />
	</node>
	<node id="-242488" lat="59.398369444" lon="11.4549416716">
		<tag k="name" v="Levernesbekken" />
		<tag k="ssr:stedsnr" v="597585" />
		<tag k="waterway" v="stream" />
	</node>
	<node id="-242479" lat="59.2937777787" lon="11.574824993">
		<tag k="name" v="Store Beråstjern" />
		<tag k="natural" v="water" />
		<tag k="ssr:stedsnr" v="597363" />
	</node>
	<node id="-242477" lat="59.3070861083" lon="11.5132111075">
		<tag k="name" v="Søndre Gørtjern" />
		<tag k="natural" v="water" />
		<tag k="ssr:stedsnr" v="597358" />
	</node>
	<node id="-242476" lat="59.3182388866" lon="11.5125055577">
		<tag k="name" v="Nordre Væletjern" />
		<tag k="natural" v="water" />
		<tag k="ssr:stedsnr" v="597347" />
	</node>
	<node id="-242474" lat="59.4351833359" lon="11.5621972231">
		<tag k="name" v="Frønehøyda" />
		<tag k="place" v="islet" />
		<tag k="ssr:stedsnr" v="597008" />
	</node>
	<node id="-241448" lat="59.46573056" lon="11.4222999997">
		<tag k="name" v="Gåseflo" />
		<tag k="natural" v="water" />
		<tag k="ssr:stedsnr" v="487226" />
	</node>
	<node id="-241372" lat="59.4417888934" lon="11.5638972187">
		<tag k="name" v="Råtetjern" />
		<tag k="natural" v="water" />
		<tag k="ssr:stedsnr" v="233013" />
	</node>
	<node id="-241956" lat="59.337902981" lon="11.3183732411">
		<tag k="name" v="Mørktjernet" />
		<tag k="natural" v="water" />
		<tag k="ssr:stedsnr" v="3793" />
	</node>
	<node id="-241955" lat="59.3300000003" lon="11.3792000043">
		<tag k="name" v="Strandøya" />
		<tag k="place" v="islet" />
		<tag k="ssr:stedsnr" v="3767" />
	</node>
	<node id="-241441" lat="59.4526111153" lon="11.4622999973">
		<tag k="name" v="Morttjern" />
		<tag k="natural" v="water" />
		<tag k="ssr:stedsnr" v="476207" />
	</node>
	<node id="-241440" lat="59.4465833337" lon="11.4936166603">
		<tag k="name" v="Vestre Tutjern" />
		<tag k="natural" v="water" />
		<tag k="ssr:stedsnr" v="476159" />
	</node>
	<node id="-242463" lat="59.4726222197" lon="11.5009388864">
		<tag k="name" v="Mustjern" />
		<tag k="natural" v="water" />
		<tag k="ssr:stedsnr" v="596317" />
	</node>
	<node id="-241950" lat="59.3107244328" lon="11.481615194">
		<tag k="alt_name" v="Totjern" />
		<tag k="name" v="Totjerna" />
		<tag k="natural" v="water" />
		<tag k="ssr:stedsnr" v="3613" />
		<tag k="water" v="lake" />
	</node>
	<node id="-241948" lat="59.3227972244" lon="11.4732888946">
		<tag k="name" v="Oksetjernet" />
		<tag k="natural" v="water" />
		<tag k="ssr:stedsnr" v="3590" />
	</node>
	<node id="-241435" lat="59.4509583341" lon="11.5001333328">
		<tag k="name" v="Nordre Ørketjern" />
		<tag k="natural" v="water" />
		<tag k="ssr:stedsnr" v="476055" />
	</node>
	<node id="-241967" lat="59.4330083317" lon="11.2838888831">
		<tag k="alt_name" v="Buerfoss" />
		<tag k="name" v="Buerfossen" />
		<tag k="natural" v="waterfall" />
		<tag k="ssr:stedsnr" v="22591" />
	</node>
	<node id="-241432" lat="59.4287916635" lon="11.570161105">
		<tag k="name" v="Høytomttjernet" />
		<tag k="natural" v="water" />
		<tag k="ssr:stedsnr" v="476014" />
	</node>
	<node id="-241431" lat="59.430294445" lon="11.5415111122">
		<tag k="name" v="Dørjetjern" />
		<tag k="natural" v="water" />
		<tag k="ssr:stedsnr" v="476013" />
	</node>
	<node id="-241940" lat="59.2992749987" lon="11.375025002">
		<tag k="fixme" v="multiple name tags, choose one and add the other to alt_name" />
		<tag k="name" v="Storebekken;Vabekken" />
		<tag k="ssr:stedsnr" v="2990" />
		<tag k="waterway" v="stream" />
	</node>
	<node id="-241426" lat="59.3869444453" lon="11.4856583391">
		<tag k="name" v="Sagfossen" />
		<tag k="natural" v="waterfall" />
		<tag k="ssr:stedsnr" v="475807" />
	</node>
	<node id="-241539" lat="59.4442694442" lon="11.5578388926">
		<tag k="name" v="Multetjern" />
		<tag k="natural" v="water" />
		<tag k="ssr:stedsnr" v="658015" />
	</node>
	<node id="-242447" lat="59.4397583316" lon="11.3410833277">
		<tag k="name" v="Liensbekken" />
		<tag k="ssr:stedsnr" v="568589" />
		<tag k="waterway" v="stream" />
	</node>
	<node id="-241558" lat="59.4517638854" lon="11.4401055582">
		<tag k="name" v="Djupedalsgåsefloa" />
		<tag k="natural" v="water" />
		<tag k="ssr:stedsnr" v="669223" />
	</node>
	<node id="-242440" lat="59.3588396759" lon="11.2665327376">
		<tag k="name" v="Fjelletjernet" />
		<tag k="natural" v="water" />
		<tag k="ssr:stedsnr" v="568327" />
	</node>
	<node id="-241415" lat="59.4233472197" lon="11.5486611066">
		<tag k="name" v="Revetjern" />
		<tag k="natural" v="water" />
		<tag k="ssr:stedsnr" v="475570" />
	</node>
	<node id="-241925" lat="59.2916333361" lon="11.5201500039">
		<tag k="name" v="Ormetjern" />
		<tag k="natural" v="water" />
		<tag k="ssr:stedsnr" v="962313" />
	</node>
	<node id="-241924" lat="59.3376722252" lon="11.5167527793">
		<tag k="name" v="Dyvillen" />
		<tag k="natural" v="water" />
		<tag k="ssr:stedsnr" v="962065" />
	</node>
	<node id="-241923" lat="59.3220531961" lon="11.5768656181">
		<tag k="name" v="Mellemsjøen" />
		<tag k="natural" v="water" />
		<tag k="ssr:stedsnr" v="962063" />
	</node>
	<node id="-241922" lat="59.291172219" lon="11.4233138818">
		<tag k="name" v="Vatvetelva" />
		<tag k="ssr:stedsnr" v="961761" />
		<tag k="waterway" v="river" />
	</node>
	<node id="-241409" lat="59.3049943532" lon="11.5321079375">
		<tag k="name" v="Kalvedalsbukta" />
		<tag k="natural" v="bay" />
		<tag k="ssr:stedsnr" v="475334" />
	</node>
	<node id="-241920" lat="59.4202138895" lon="11.4808888967">
		<tag k="name" v="Svemyrtjern" />
		<tag k="natural" v="water" />
		<tag k="ssr:stedsnr" v="961618" />
	</node>
	<node id="-241405" lat="59.3707861111" lon="11.3853527825">
		<tag k="name" v="Danstorpbekken" />
		<tag k="ssr:stedsnr" v="475010" />
		<tag k="waterway" v="stream" />
	</node>
	<node id="-241914" lat="59.2633833362" lon="11.4446749927">
		<tag k="name" v="Bjerkebekken" />
		<tag k="ssr:stedsnr" v="933903" />
		<tag k="waterway" v="stream" />
	</node>
	<node id="-242424" lat="59.2887472186" lon="11.5303833394">
		<tag k="alt_name" v="Stensvannet" />
		<tag k="name" v="Steinsvannet" />
		<tag k="natural" v="water" />
		<tag k="ssr:stedsnr" v="549665" />
	</node>
	<node id="-241911" lat="59.3815277818" lon="11.582180553">
		<tag k="alt_name" v="Skottjern" />
		<tag k="name" v="Nordre Skottjern" />
		<tag k="natural" v="water" />
		<tag k="ssr:stedsnr" v="913527" />
	</node>
	<node id="-242422" lat="59.3079568622" lon="11.5122161206">
		<tag k="name" v="Gorrtjerna" />
		<tag k="natural" v="water" />
		<tag k="ssr:stedsnr" v="549627" />
		<tag k="water" v="lake" />
	</node>
	<node id="-242421" lat="59.3179559765" lon="11.5640245074">
		<tag k="alt_name" v="Langetjern" />
		<tag k="name" v="Langtjernet" />
		<tag k="natural" v="water" />
		<tag k="ssr:stedsnr" v="549620" />
	</node>
	<node id="-241908" lat="59.4152027772" lon="11.5400111159">
		<tag k="name" v="Gulliktjern" />
		<tag k="natural" v="water" />
		<tag k="ssr:stedsnr" v="901553" />
	</node>
	<node id="-241906" lat="59.4408027815" lon="11.5588111062">
		<tag k="name" v="Frønehøydtjern" />
		<tag k="natural" v="water" />
		<tag k="ssr:stedsnr" v="901004" />
	</node>
	<node id="-241904" lat="59.3960611115" lon="11.5920083271">
		<tag k="name" v="Killingtjern" />
		<tag k="natural" v="water" />
		<tag k="ssr:stedsnr" v="900964" />
	</node>
	<node id="-241900" lat="59.3240750005" lon="11.379177781">
		<tag k="name" v="Kastevika" />
		<tag k="natural" v="bay" />
		<tag k="ssr:stedsnr" v="900423" />
	</node>
	<node id="-241899" lat="59.3228361099" lon="11.371813891">
		<tag k="name" v="Kastebekken" />
		<tag k="ssr:stedsnr" v="900413" />
		<tag k="waterway" v="stream" />
	</node>
	<node id="-242410" lat="59.4443136299" lon="11.5456320246">
		<tag k="alt_name" v="Hostenvannet" />
		<tag k="name" v="Haugstenvannet" />
		<tag k="natural" v="water" />
		<tag k="old_name" v="Store Hosten" />
		<tag k="ssr:stedsnr" v="548622" />
		<tag k="water" v="lake" />
	</node>
	<node id="-241703" lat="59.4627388894" lon="11.4821166637">
		<tag k="name" v="Langevannet" />
		<tag k="natural" v="water" />
		<tag k="ssr:stedsnr" v="730660" />
		<tag k="water" v="lake" />
	</node>
	<node id="-241896" lat="59.3067666709" lon="11.3804999995">
		<tag k="name" v="Elggututjern" />
		<tag k="natural" v="water" />
		<tag k="ssr:stedsnr" v="900123" />
	</node>
	<node id="-241893" lat="59.4375472207" lon="11.2165777702">
		<tag k="name" v="Skattebølevja" />
		<tag k="natural" v="bay" />
		<tag k="ssr:stedsnr" v="872558" />
	</node>
	<node id="-241376" lat="59.3017527736" lon="11.3260666634">
		<tag k="name" v="Hellingsbekk" />
		<tag k="ssr:stedsnr" v="447044" />
		<tag k="waterway" v="stream" />
	</node>
	<node id="-241872" lat="59.3819972244" lon="11.5543416745">
		<tag k="name" v="Sørdalsfoss" />
		<tag k="natural" v="waterfall" />
		<tag k="ssr:stedsnr" v="840919" />
	</node>
	<node id="-241373" lat="59.4430722237" lon="11.524777776">
		<tag k="name" v="Merratjern" />
		<tag k="natural" v="water" />
		<tag k="ssr:stedsnr" v="233014" />
	</node>
	<node id="-242396" lat="59.4572586369" lon="11.497042081">
		<tag k="name" v="Blankevanna" />
		<tag k="natural" v="water" />
		<tag k="ssr:stedsnr" v="545495" />
		<tag k="water" v="lake" />
	</node>
	<node id="-242395" lat="59.2555222236" lon="11.5378305482">
		<tag k="name" v="Kutjern" />
		<tag k="natural" v="water" />
		<tag k="ssr:stedsnr" v="537942" />
	</node>
	<node id="-242394" lat="59.4472055538" lon="11.496255553">
		<tag k="name" v="Østre Tutjern" />
		<tag k="natural" v="water" />
		<tag k="ssr:stedsnr" v="537137" />
	</node>
	<node id="-241369" lat="59.4683583345" lon="11.5021777706">
		<tag k="name" v="Halvardsvann" />
		<tag k="natural" v="water" />
		<tag k="ssr:stedsnr" v="232352" />
	</node>
	<node id="-241367" lat="59.4492388853" lon="11.5022472135">
		<tag k="name" v="Søndre Ørketjern" />
		<tag k="natural" v="water" />
		<tag k="ssr:stedsnr" v="295159" />
	</node>
	<node id="-241366" lat="59.2861361138" lon="11.528838888">
		<tag k="name" v="Merratjern" />
		<tag k="natural" v="water" />
		<tag k="ssr:stedsnr" v="294992" />
	</node>
	<node id="-241365" lat="59.2491500018" lon="11.5319916582">
		<tag k="name" v="Krokbekken" />
		<tag k="ssr:stedsnr" v="294954" />
		<tag k="waterway" v="stream" />
	</node>
	<node id="-242387" lat="59.4742638865" lon="11.4741500031">
		<tag k="name" v="Stikktjernbekken" />
		<tag k="ssr:stedsnr" v="536325" />
		<tag k="waterway" v="stream" />
	</node>
	<node id="-242385" lat="59.4319916688" lon="11.5048694495">
		<tag k="name" v="Storetjæra" />
		<tag k="ssr:stedsnr" v="536375" />
		<tag k="waterway" v="stream" />
	</node>
	<node id="-242384" lat="59.4572944468" lon="11.4773749949">
		<tag k="name" v="Abbortjern" />
		<tag k="natural" v="water" />
		<tag k="ssr:stedsnr" v="536060" />
	</node>
	<node id="-241357" lat="59.3282088664" lon="11.5713176586">
>>>>>>> e1d4bc35ff8a6074a6f2e91616a996b547c36f15
		<tag k="name" v="Nordsjøen" />
		<tag k="natural" v="water" />
		<tag k="ssr:stedsnr" v="294061" />
	</node>
<<<<<<< HEAD
	<node lat="59.31941944859073" lon="11.389661116186243" id="-12301">
		<tag k="name" v="Kolleøya" />
		<tag k="place" v="island" />
		<tag k="ssr:stedsnr" v="293450" />
	</node>
	<node lat="59.449238885312596" lon="11.50224721348341" id="-12310">
		<tag k="name" v="Søndre Ørketjern" />
		<tag k="natural" v="water" />
		<tag k="ssr:stedsnr" v="295159" />
	</node>
	<node lat="59.47042500197204" lon="11.43334999540806" id="-12311">
		<tag k="loc_name" v="Honningen" />
		<tag k="name" v="Søndre Honningen" />
		<tag k="natural" v="water" />
		<tag k="ssr:stedsnr" v="305225" />
		<tag k="water" v="lake" />
	</node>
	<node lat="59.45682500346709" lon="11.458655555979544" id="-12315">
		<tag k="alt_name" v="Svarttjern" />
		<tag k="name" v="Søndre Svarttjern" />
		<tag k="natural" v="water" />
		<tag k="ssr:stedsnr" v="305240" />
	</node>
	<node lat="59.40672222124042" lon="11.50086944346192" id="-12327">
		<tag k="alt_name" v="Hamnetjern" />
		<tag k="name" v="Havnetjern" />
		<tag k="natural" v="water" />
		<tag k="ssr:stedsnr" v="306490" />
	</node>
	<node lat="59.307269444013514" lon="11.544391673701856" id="-12328">
		<tag k="name" v="Kløsa" />
		<tag k="natural" v="water" />
		<tag k="ssr:stedsnr" v="306599" />
		<tag k="water" v="lake" />
	</node>
	<node lat="59.2752611142582" lon="11.495905551001936" id="-12331">
		<tag k="alt_name" v="Hagatjern" />
		<tag k="name" v="Haketjernet" />
		<tag k="natural" v="water" />
		<tag k="ssr:stedsnr" v="306697" />
	</node>
	<node lat="59.29153055153038" lon="11.474283325836748" id="-12332">
		<tag k="alt_name" v="Sørtjern" />
		<tag k="name" v="Sørtjernet" />
		<tag k="natural" v="water" />
		<tag k="ssr:stedsnr" v="306638" />
	</node>
	<node lat="59.26685555737279" lon="11.50517221362464" id="-12335">
		<tag k="name" v="Nedre Sandvannet" />
		<tag k="natural" v="water" />
		<tag k="ssr:stedsnr" v="307742" />
		<tag k="water" v="lake" />
	</node>
	<node lat="59.338325002643195" lon="11.385100005991427" id="-12357">
		<tag k="name" v="Dritufoss" />
		<tag k="natural" v="waterfall" />
		<tag k="ssr:stedsnr" v="354424" />
	</node>
	<node lat="59.4249055516192" lon="11.542905557759887" id="-12359">
		<tag k="name" v="Klavetjern" />
		<tag k="natural" v="water" />
		<tag k="ssr:stedsnr" v="354560" />
	</node>
	<node lat="59.42331944120344" lon="11.536211105607139" id="-12360">
		<tag k="name" v="Olatjern" />
		<tag k="natural" v="water" />
		<tag k="ssr:stedsnr" v="354562" />
	</node>
	<node lat="59.444049996357386" lon="11.553483335745304" id="-12361">
		<tag k="name" v="Hakatjern" />
		<tag k="natural" v="water" />
		<tag k="ssr:stedsnr" v="354018" />
	</node>
	<node lat="59.31046111495815" lon="11.543366673749583" id="-12364">
		<tag k="name" v="Storehølen" />
		<tag k="natural" v="bay" />
		<tag k="ssr:stedsnr" v="354342" />
	</node>
	<node lat="59.44679722658288" lon="11.534247214325783" id="-12365">
		<tag k="name" v="Rumpetjern" />
		<tag k="natural" v="water" />
		<tag k="ssr:stedsnr" v="354491" />
	</node>
	<node lat="59.44840278105936" lon="11.490558330304404" id="-12370">
		<tag k="name" v="Vesletjæra" />
		<tag k="ssr:stedsnr" v="355160" />
		<tag k="waterway" v="stream" />
	</node>
	<node lat="59.44507222122035" lon="11.486044446721973" id="-12371">
		<tag k="name" v="Hvalpetjern" />
		<tag k="natural" v="water" />
		<tag k="ssr:stedsnr" v="355169" />
	</node>
	<node lat="59.288944442839814" lon="11.542463886860459" id="-12372">
		<tag k="name" v="Blanke Nybølingen" />
		<tag k="natural" v="water" />
		<tag k="ssr:stedsnr" v="355331" />
	</node>
	<node lat="59.30121388927183" lon="11.545733341987981" id="-12373">
		<tag k="name" v="Åstjern" />
		<tag k="natural" v="water" />
		<tag k="ssr:stedsnr" v="355347" />
	</node>
	<node lat="59.30031488980256" lon="11.52458284726937" id="-12374">
		<tag k="name" v="Buvanna" />
		<tag k="natural" v="water" />
		<tag k="ssr:stedsnr" v="363891" />
		<tag k="water" v="lake" />
	</node>
	<node lat="59.42689395978101" lon="11.533280033648339" id="-12384">
		<tag k="alt_name" v="Stensvannet" />
		<tag k="name" v="Store Steinsvannet" />
		<tag k="natural" v="water" />
		<tag k="ssr:stedsnr" v="366524" />
	</node>
	<node lat="59.3042833293246" lon="11.49385278114046" id="-12392">
		<tag k="alt_name" v="Langetjern" />
		<tag k="name" v="Langtjernet" />
		<tag k="natural" v="water" />
		<tag k="ssr:stedsnr" v="367652" />
	</node>
	<node lat="59.331027776625135" lon="11.415777770708036" id="-12395">
		<tag k="name" v="Skarpholttjernet" />
		<tag k="natural" v="water" />
		<tag k="ssr:stedsnr" v="367762" />
	</node>
	<node lat="59.379075002562566" lon="11.396225003675946" id="-12398">
		<tag k="name" v="Gåsebekken" />
		<tag k="ssr:stedsnr" v="367852" />
		<tag k="waterway" v="stream" />
	</node>
	<node lat="59.3640833293423" lon="11.46286666567064" id="-12404">
		<tag k="name" v="Hølen" />
		<tag k="ssr:stedsnr" v="386659" />
		<tag k="waterway" v="river" />
	</node>
	<node lat="59.46516388486911" lon="11.459805563572539" id="-12411">
		<tag k="name" v="Østbygåseflo" />
		<tag k="natural" v="water" />
		<tag k="ssr:stedsnr" v="414074" />
	</node>
	<node lat="59.472902774176184" lon="11.470555552976307" id="-12416">
		<tag k="name" v="Aurehølen" />
		<tag k="natural" v="water" />
		<tag k="ssr:stedsnr" v="415349" />
	</node>
	<node lat="59.27330000318293" lon="11.433100002071926" id="-12435">
		<tag k="name" v="Skjeklesjøen" />
		<tag k="natural" v="water" />
		<tag k="ssr:stedsnr" v="427856" />
		<tag k="water" v="lake" />
	</node>
	<node lat="59.30170000286804" lon="11.508788894688681" id="-12439">
		<tag k="name" v="Søndre Askevannet" />
		<tag k="natural" v="water" />
		<tag k="ssr:stedsnr" v="428638" />
	</node>
	<node lat="59.30175277356448" lon="11.32606666335148" id="-12444">
		<tag k="name" v="Hellingsbekk" />
		<tag k="ssr:stedsnr" v="447044" />
		<tag k="waterway" v="stream" />
	</node>
	<node lat="59.457294446820484" lon="11.477374994939382" id="-12481">
		<tag k="name" v="Abbortjern" />
		<tag k="natural" v="water" />
		<tag k="ssr:stedsnr" v="536060" />
	</node>
	<node lat="59.474263886549075" lon="11.474150003067669" id="-12484">
		<tag k="name" v="Stikktjernbekken" />
		<tag k="ssr:stedsnr" v="536325" />
		<tag k="waterway" v="stream" />
	</node>
	<node lat="59.44720555382425" lon="11.496255553001577" id="-12488">
		<tag k="name" v="Østre Tutjern" />
		<tag k="natural" v="water" />
		<tag k="ssr:stedsnr" v="537137" />
	</node>
	<node lat="59.29948055897848" lon="11.546166670093884" id="-12489">
		<tag k="name" v="Nordre Lorttjern" />
		<tag k="natural" v="water" />
		<tag k="ssr:stedsnr" v="537354" />
	</node>
	<node lat="59.25552222355073" lon="11.537830548224806" id="-12490">
		<tag k="name" v="Kutjern" />
		<tag k="natural" v="water" />
		<tag k="ssr:stedsnr" v="537942" />
	</node>
	<node lat="59.288747218577335" lon="11.530383339383917" id="-12507">
		<tag k="alt_name" v="Stensvannet" />
		<tag k="name" v="Steinsvannet" />
		<tag k="natural" v="water" />
		<tag k="ssr:stedsnr" v="549665" />
	</node>
	<node lat="59.31795597647193" lon="11.5640245074291" id="-12511">
		<tag k="alt_name" v="Langetjern" />
		<tag k="name" v="Langtjernet" />
		<tag k="natural" v="water" />
		<tag k="ssr:stedsnr" v="549620" />
	</node>
	<node lat="59.30795686218481" lon="11.512216120609281" id="-12512">
		<tag k="name" v="Gorrtjerna" />
		<tag k="natural" v="water" />
		<tag k="ssr:stedsnr" v="549627" />
		<tag k="water" v="lake" />
	</node>
	<node lat="59.31057778122048" lon="11.49926944258192" id="-12513">
		<tag k="name" v="Nordre Askevannet" />
		<tag k="natural" v="water" />
		<tag k="ssr:stedsnr" v="549628" />
	</node>
	<node lat="59.358839675899944" lon="11.266532737600693" id="-12520">
		<tag k="name" v="Fjelletjernet" />
		<tag k="natural" v="water" />
		<tag k="ssr:stedsnr" v="568327" />
	</node>
	<node lat="59.43975833159298" lon="11.341083327722929" id="-12523">
		<tag k="name" v="Liensbekken" />
		<tag k="ssr:stedsnr" v="568589" />
		<tag k="waterway" v="stream" />
	</node>
	<node lat="59.32428888794374" lon="11.575394451541557" id="-12550">
		<tag k="name" v="Kilebutangen" />
		<tag k="natural" v="cape" />
		<tag k="ssr:stedsnr" v="597070" />
	</node>
	<node lat="59.318238886563414" lon="11.512505557736477" id="-12552">
		<tag k="name" v="Nordre Væletjern" />
=======
	<node id="-241355" lat="59.3690361142" lon="11.5306944457">
		<tag k="name" v="Krysselva" />
		<tag k="ssr:stedsnr" v="294030" />
		<tag k="waterway" v="river" />
	</node>
	<node id="-241865" lat="59.3098333321" lon="11.5400861078">
		<tag k="name" v="Store Fiskerøya" />
		<tag k="place" v="islet" />
		<tag k="ssr:stedsnr" v="840316" />
	</node>
	<node id="-241860" lat="59.2599444401" lon="11.408308338">
		<tag k="name" v="Morttjern" />
		<tag k="natural" v="water" />
		<tag k="ssr:stedsnr" v="933891" />
	</node>
	<node id="-241347" lat="59.3194194486" lon="11.3896611162">
		<tag k="name" v="Kolleøya" />
		<tag k="place" v="island" />
		<tag k="ssr:stedsnr" v="293450" />
	</node>
	<node id="-241346" lat="59.3110638924" lon="11.5383499979">
		<tag k="name" v="Lille Fiskerøya" />
		<tag k="place" v="islet" />
		<tag k="ssr:stedsnr" v="293377" />
	</node>
	<node id="-241290" lat="59.3847055547" lon="11.2361944439">
		<tag k="name" v="Sagabekken" />
		<tag k="ssr:stedsnr" v="83729" />
		<tag k="waterway" v="stream" />
	</node>
	<node id="-242366" lat="59.269702775" lon="11.3466222262">
		<tag k="name" v="Langen" />
		<tag k="natural" v="water" />
		<tag k="ssr:stedsnr" v="427917" />
		<tag k="water" v="lake" />
	</node>
	<node id="-242365" lat="59.2733000032" lon="11.4331000021">
		<tag k="name" v="Skjeklesjøen" />
		<tag k="natural" v="water" />
		<tag k="ssr:stedsnr" v="427856" />
		<tag k="water" v="lake" />
	</node>
	<node id="-241339" lat="59.4111333363" lon="11.4088277724">
		<tag k="name" v="Kvernhushølen" />
		<tag k="place" v="locality" />
		<tag k="ssr:stedsnr" v="172617" />
	</node>
	<node id="-241951" lat="59.289641664" lon="11.501227775">
		<tag k="alt_name" v="Djuptjern" />
		<tag k="name" v="Djupetjernet" />
		<tag k="natural" v="water" />
		<tag k="ssr:stedsnr" v="3632" />
	</node>
	<node id="-241828" lat="59.4269277778" lon="11.4868972291">
		<tag k="name" v="Butjern" />
		<tag k="natural" v="water" />
		<tag k="ssr:stedsnr" v="779518" />
	</node>
	<node id="-242203" lat="59.2551749991" lon="11.3643472153">
		<tag k="name" v="Gulltjern" />
		<tag k="natural" v="water" />
		<tag k="ssr:stedsnr" v="305911" />
	</node>
	<node id="-241187" lat="59.2640145127" lon="11.5347892845">
		<tag k="fixme" v="multiple name tags, choose one and add the other to alt_name" />
		<tag k="name" v="Bjørvannet;Store Bjørvann" />
		<tag k="natural" v="water" />
		<tag k="ssr:stedsnr" v="3718" />
		<tag k="water" v="lake" />
	</node>
	<node id="-242035" lat="59.4799702418" lon="11.4389196577">
		<tag k="name" v="Langard" />
		<tag k="natural" v="water" />
		<tag k="ssr:stedsnr" v="111035" />
		<tag k="water" v="lake" />
	</node>
	<node id="-241840" lat="59.4649777744" lon="11.2300583403">
		<tag k="name" v="Røsækevja" />
		<tag k="natural" v="bay" />
		<tag k="ssr:stedsnr" v="932983" />
	</node>
	<node id="-241360" lat="59.3060027805" lon="11.5659972271">
		<tag k="name" v="Korpåstjernet" />
		<tag k="natural" v="water" />
		<tag k="ssr:stedsnr" v="294307" />
	</node>
	<node id="-241323" lat="59.3145249983" lon="11.4301527755">
		<tag k="name" v="Nordre Blytjern" />
		<tag k="natural" v="water" />
		<tag k="ssr:stedsnr" v="265679" />
	</node>
	<node id="-242346" lat="59.4112250033" lon="11.4101222286">
		<tag k="name" v="Gjølstadfoss" />
		<tag k="natural" v="waterfall" />
		<tag k="ssr:stedsnr" v="415642" />
	</node>
	<node id="-241436" lat="59.4412833363" lon="11.4962777815">
		<tag k="name" v="Bikkjetjern" />
		<tag k="natural" v="water" />
		<tag k="ssr:stedsnr" v="476073" />
	</node>
	<node id="-242341" lat="59.2991915614" lon="11.5671196036">
		<tag k="name" v="Gresstjern" />
		<tag k="natural" v="water" />
		<tag k="ssr:stedsnr" v="415393" />
	</node>
	<node id="-242340" lat="59.4729027742" lon="11.470555553">
		<tag k="name" v="Aurehølen" />
		<tag k="natural" v="water" />
		<tag k="ssr:stedsnr" v="415349" />
	</node>
	<node id="-242332" lat="59.4651638849" lon="11.4598055636">
		<tag k="name" v="Østbygåseflo" />
		<tag k="natural" v="water" />
		<tag k="ssr:stedsnr" v="414074" />
	</node>
	<node id="-241313" lat="59.435066671" lon="11.2237916617">
		<tag k="name" v="Skattebølbekken" />
		<tag k="ssr:stedsnr" v="265536" />
		<tag k="waterway" v="stream" />
	</node>
	<node id="-242336" lat="59.4351333298" lon="11.5306750061">
		<tag k="name" v="Ormetjern" />
		<tag k="natural" v="water" />
		<tag k="ssr:stedsnr" v="415002" />
	</node>
	<node id="-241311" lat="59.331016664" lon="11.2981861173">
		<tag k="name" v="Ådalsbekken" />
		<tag k="ssr:stedsnr" v="265035" />
		<tag k="waterway" v="stream" />
	</node>
	<node id="-242334" lat="59.391780556" lon="11.5776972166">
		<tag k="name" v="Finnpåbekken" />
		<tag k="ssr:stedsnr" v="414745" />
		<tag k="waterway" v="stream" />
	</node>
	<node id="-241821" lat="59.3158527807" lon="11.5127500031">
		<tag k="alt_name" v="Væletjerna" />
		<tag k="name" v="Nordre Væletjern" />
		<tag k="natural" v="water" />
		<tag k="ssr:stedsnr" v="914655" />
	</node>
	<node id="-241820" lat="59.3183611127" lon="11.484477774">
		<tag k="alt_name" v="Igletjern" />
		<tag k="name" v="Igletjernet" />
		<tag k="natural" v="water" />
		<tag k="ssr:stedsnr" v="914653" />
	</node>
	<node id="-242328" lat="59.4113972231" lon="11.1940472149">
		<tag k="name" v="Glendetangen lense" />
		<tag k="place" v="locality" />
		<tag k="ssr:stedsnr" v="386645" />
	</node>
	<node id="-241303" lat="59.4481444442" lon="11.5582027851">
		<tag k="name" v="Askevannet" />
		<tag k="natural" v="water" />
		<tag k="ssr:stedsnr" v="112030" />
	</node>
	<node id="-241433" lat="59.4310305543" lon="11.5526777785">
		<tag k="name" v="Mustjern" />
		<tag k="natural" v="water" />
		<tag k="ssr:stedsnr" v="476017" />
	</node>
	<node id="-241300" lat="59.4333111088" lon="11.5370305507">
		<tag k="loc_name" v="Nordre Stensvann" />
		<tag k="name" v="Stensvann" />
		<tag k="natural" v="water" />
		<tag k="ssr:stedsnr" v="112003" />
		<tag k="water" v="lake" />
	</node>
	<node id="-242318" lat="59.3790750026" lon="11.3962250037">
		<tag k="name" v="Gåsebekken" />
		<tag k="ssr:stedsnr" v="367852" />
		<tag k="waterway" v="stream" />
	</node>
	<node id="-241773" lat="59.2954666664" lon="11.5072583313">
		<tag k="name" v="Nordre Stutøye" />
		<tag k="natural" v="water" />
		<tag k="ssr:stedsnr" v="901347" />
		<tag k="water" v="pond" />
	</node>
	<node id="-241337" lat="59.4124722216" lon="11.5033388812">
		<tag k="name" v="Karihølen" />
		<tag k="place" v="locality" />
		<tag k="ssr:stedsnr" v="172605" />
	</node>
	<node id="-242315" lat="59.3310277766" lon="11.4157777707">
		<tag k="name" v="Skarpholttjernet" />
		<tag k="natural" v="water" />
		<tag k="ssr:stedsnr" v="367762" />
	</node>
	<node id="-241802" lat="59.2899750045" lon="11.5612972217">
		<tag k="name" v="Nordre Hivann" />
		<tag k="natural" v="water" />
		<tag k="ssr:stedsnr" v="913656" />
	</node>
	<node id="-241801" lat="59.3014250024" lon="11.5565361158">
		<tag k="alt_name" v="Kroktjern" />
		<tag k="name" v="Krokvannet" />
		<tag k="natural" v="water" />
		<tag k="ssr:stedsnr" v="913636" />
	</node>
	<node id="-241799" lat="59.3085805555" lon="11.5235638939">
		<tag k="alt_name" v="Knuvla" />
		<tag k="name" v="Knuvelen" />
		<tag k="natural" v="water" />
		<tag k="ssr:stedsnr" v="913620" />
	</node>
	<node id="-242423" lat="59.3105777812" lon="11.4992694426">
		<tag k="name" v="Nordre Askevannet" />
		<tag k="natural" v="water" />
		<tag k="ssr:stedsnr" v="549628" />
	</node>
	<node id="-242307" lat="59.3842333355" lon="11.5579972173">
		<tag k="name" v="Dammyrtjern" />
		<tag k="natural" v="water" />
		<tag k="ssr:stedsnr" v="367491" />
	</node>
	<node id="-241794" lat="59.4784194413" lon="11.3903277778">
		<tag k="name" v="Dørja" />
		<tag k="ssr:stedsnr" v="913191" />
		<tag k="waterway" v="stream" />
	</node>
	<node id="-241771" lat="59.3112333333" lon="11.5767444387">
		<tag k="loc_name" v="Kolviksjøen" />
		<tag k="name" v="Kullviksjøen" />
		<tag k="natural" v="water" />
		<tag k="ssr:stedsnr" v="901325" />
	</node>
	<node id="-242722" lat="59.3711361074" lon="11.582941672">
		<tag k="name" v="Køldyvelen" />
		<tag k="natural" v="water" />
		<tag k="ssr:stedsnr" v="962150" />
	</node>
	<node id="-241276" lat="59.2623250027" lon="11.5275277858">
		<tag k="alt_name" v="Saletjern" />
		<tag k="name" v="Saltjern" />
>>>>>>> e1d4bc35ff8a6074a6f2e91616a996b547c36f15
		<tag k="natural" v="water" />
		<tag k="ssr:stedsnr" v="246698" />
	</node>
<<<<<<< HEAD
	<node lat="59.3983694439543" lon="11.45494167160377" id="-12560">
		<tag k="name" v="Levernesbekken" />
		<tag k="ssr:stedsnr" v="597585" />
		<tag k="waterway" v="stream" />
	</node>
	<node lat="59.363205554782766" lon="11.522341667905561" id="-12572">
		<tag k="name" v="Skjølja" />
		<tag k="natural" v="water" />
		<tag k="ssr:stedsnr" v="609669" />
	</node>
	<node lat="59.26688333350607" lon="11.487308324752723" id="-12578">
		<tag k="alt_name" v="Valetjern" />
		<tag k="name" v="Valetjernet" />
		<tag k="natural" v="water" />
		<tag k="ssr:stedsnr" v="610740" />
	</node>
	<node lat="59.33217500009184" lon="11.355900006874517" id="-12580">
		<tag k="name" v="Lundstjernet" />
		<tag k="natural" v="water" />
		<tag k="ssr:stedsnr" v="610800" />
	</node>
	<node lat="59.28215555627477" lon="11.529683337503235" id="-12581">
		<tag k="name" v="Prestedammen" />
		<tag k="natural" v="water" />
		<tag k="ssr:stedsnr" v="610723" />
	</node>
	<node lat="59.34238610961828" lon="11.50649444812768" id="-12582">
		<tag k="name" v="Toretjern" />
		<tag k="natural" v="water" />
		<tag k="ssr:stedsnr" v="610751" />
	</node>
	<node lat="59.45345355754605" lon="11.48478030936086" id="-12605">
		<tag k="name" v="Presttjern" />
		<tag k="natural" v="water" />
		<tag k="ssr:stedsnr" v="658043" />
	</node>
	<node lat="59.45436944479513" lon="11.49604445231909" id="-12606">
		<tag k="name" v="Jonsvann" />
		<tag k="natural" v="water" />
		<tag k="ssr:stedsnr" v="658052" />
	</node>
	<node lat="59.372936110092866" lon="11.576424996959474" id="-12608">
		<tag k="name" v="Skottjern" />
		<tag k="natural" v="water" />
		<tag k="ssr:stedsnr" v="658159" />
	</node>
	<node lat="59.46662845072088" lon="11.430004224473512" id="-12611">
		<tag k="name" v="Gåseflovanna" />
		<tag k="natural" v="water" />
		<tag k="ssr:stedsnr" v="657072" />
		<tag k="water" v="lake" />
	</node>
	<node lat="59.47299166696319" lon="11.45730277425198" id="-12613">
		<tag k="name" v="Rundthøl" />
=======
	<node id="-242299" lat="59.4268939598" lon="11.5332800336">
		<tag k="alt_name" v="Stensvannet" />
		<tag k="name" v="Store Steinsvannet" />
		<tag k="natural" v="water" />
		<tag k="ssr:stedsnr" v="366524" />
	</node>
	<node id="-241784" lat="59.2757500014" lon="11.3817472262">
		<tag k="name" v="Holtetjern" />
		<tag k="natural" v="water" />
		<tag k="ssr:stedsnr" v="912880" />
	</node>
	<node id="-241877" lat="59.4685361146" lon="11.4791527696">
		<tag k="alt_name" v="Slorene" />
		<tag k="name" v="Langevannsslorene" />
		<tag k="natural" v="water" />
		<tag k="ssr:stedsnr" v="852576" />
	</node>
	<node id="-241270" lat="59.3241250027" lon="11.3283805495">
		<tag k="name" v="Horntjern" />
		<tag k="natural" v="water" />
		<tag k="ssr:stedsnr" v="245960" />
	</node>
	<node id="-241269" lat="59.2708500023" lon="11.4543749917">
		<tag k="name" v="Elnessjøen" />
		<tag k="natural" v="water" />
		<tag k="ssr:stedsnr" v="245885" />
		<tag k="water" v="lake" />
	</node>
	<node id="-241268" lat="59.3652027781" lon="11.2973111102">
		<tag k="name" v="Kjennertjernet" />
		<tag k="natural" v="water" />
		<tag k="ssr:stedsnr" v="245841" />
	</node>
	<node id="-241778" lat="59.4765750037" lon="11.4306527696">
		<tag k="name" v="Nordre Honningen" />
		<tag k="natural" v="water" />
		<tag k="ssr:stedsnr" v="912006" />
	</node>
	<node id="-241776" lat="59.4326666655" lon="11.4968083333">
		<tag k="name" v="Vesjetjæra" />
		<tag k="ssr:stedsnr" v="901482" />
		<tag k="waterway" v="stream" />
	</node>
	<node id="-241774" lat="59.3011222197" lon="11.5265416679">
		<tag k="name" v="Øvre Buvann" />
		<tag k="natural" v="water" />
		<tag k="ssr:stedsnr" v="901349" />
	</node>
	<node id="-242285" lat="59.2990750036" lon="11.5213833401">
		<tag k="name" v="Buvanna" />
		<tag k="natural" v="water" />
		<tag k="ssr:stedsnr" v="363891" />
	</node>
	<node id="-241772" lat="59.2944916709" lon="11.5705583337">
		<tag k="name" v="Lille Beråstjern" />
		<tag k="natural" v="water" />
		<tag k="ssr:stedsnr" v="901345" />
	</node>
	<node id="-242283" lat="59.3012138893" lon="11.545733342">
		<tag k="name" v="Åstjern" />
>>>>>>> e1d4bc35ff8a6074a6f2e91616a996b547c36f15
		<tag k="natural" v="water" />
		<tag k="ssr:stedsnr" v="355347" />
	</node>
<<<<<<< HEAD
	<node lat="59.37300277486998" lon="11.285258333847649" id="-12616">
		<tag k="name" v="Grimstadbekken" />
		<tag k="ssr:stedsnr" v="657669" />
		<tag k="waterway" v="stream" />
	</node>
	<node lat="59.44426944421282" lon="11.5578388926135" id="-12625">
		<tag k="name" v="Multetjern" />
		<tag k="natural" v="water" />
		<tag k="ssr:stedsnr" v="658015" />
	</node>
	<node lat="59.46977222321467" lon="11.466955553314394" id="-12626">
		<tag k="name" v="Nedre Låstjern" />
		<tag k="natural" v="water" />
		<tag k="ssr:stedsnr" v="658124" />
	</node>
	<node lat="59.44900277999032" lon="11.527055558417468" id="-12627">
		<tag k="name" v="Lille Krokvann" />
		<tag k="natural" v="water" />
		<tag k="ssr:stedsnr" v="658460" />
	</node>
	<node lat="59.451763885375016" lon="11.440105558194984" id="-12631">
		<tag k="name" v="Djupedalsgåsefloa" />
		<tag k="natural" v="water" />
		<tag k="ssr:stedsnr" v="669223" />
	</node>
	<node lat="59.32320000107099" lon="11.405080560538924" id="-12635">
		<tag k="name" v="Stomperudtjernet" />
		<tag k="natural" v="water" />
		<tag k="ssr:stedsnr" v="669942" />
	</node>
	<node lat="59.290280552544345" lon="11.537488885448887" id="-12642">
		<tag k="name" v="Nybølingene" />
		<tag k="natural" v="water" />
		<tag k="ssr:stedsnr" v="670670" />
		<tag k="water" v="lake" />
	</node>
	<node lat="59.386658333634394" lon="11.568588882307495" id="-12652">
		<tag k="name" v="Bergettjern" />
		<tag k="natural" v="water" />
		<tag k="ssr:stedsnr" v="718977" />
	</node>
	<node lat="59.45994722261848" lon="11.497497229257487" id="-12653">
		<tag k="name" v="Prikkendalsvann" />
		<tag k="natural" v="water" />
		<tag k="ssr:stedsnr" v="719043" />
	</node>
	<node lat="59.462738889446776" lon="11.482116663726325" id="-12657">
		<tag k="name" v="Langevannet" />
		<tag k="natural" v="water" />
		<tag k="ssr:stedsnr" v="730660" />
		<tag k="water" v="lake" />
	</node>
	<node lat="59.38771944126957" lon="11.488355548415695" id="-12658">
		<tag k="alt_name" v="Tjæra" />
		<tag k="name" v="Tjerua" />
		<tag k="ssr:stedsnr" v="731508" />
		<tag k="waterway" v="stream" />
	</node>
	<node lat="59.4545233230874" lon="11.524905194121196" id="-12666">
		<tag k="fixme" v="multiple name tags, choose one and add the other to alt_name" />
		<tag k="name" v="Store Krokvann;Krokvannet" />
		<tag k="natural" v="water" />
		<tag k="ssr:stedsnr" v="730656" />
	</node>
	<node lat="59.253102067911705" lon="11.521068445587028" id="-12671">
		<tag k="alt_name" v="Bislingen" />
		<tag k="name" v="Øvre Bislingen" />
		<tag k="natural" v="water" />
		<tag k="ssr:stedsnr" v="731732" />
	</node>
	<node lat="59.35656944439489" lon="11.329344440103847" id="-12676">
		<tag k="name" v="Øverbybekken" />
		<tag k="ssr:stedsnr" v="750302" />
		<tag k="waterway" v="stream" />
	</node>
	<node lat="59.39814166669927" lon="11.372666662943072" id="-12679">
		<tag k="name" v="Nordbyevja" />
		<tag k="natural" v="bay" />
		<tag k="ssr:stedsnr" v="750569" />
	</node>
	<node lat="59.44441666785968" lon="11.388505547071592" id="-12681">
		<tag k="name" v="Østbybekken" />
		<tag k="ssr:stedsnr" v="750595" />
		<tag k="waterway" v="stream" />
	</node>
	<node lat="59.32907500023099" lon="11.409191674874556" id="-12685">
		<tag k="name" v="Stensrudbekken" />
		<tag k="ssr:stedsnr" v="750627" />
		<tag k="waterway" v="stream" />
	</node>
	<node lat="59.25971944492677" lon="11.486516661123405" id="-12686">
		<tag k="name" v="Sandvannsbekken" />
		<tag k="ssr:stedsnr" v="750862" />
		<tag k="waterway" v="stream" />
	</node>
	<node lat="59.34883611447571" lon="11.468777779834179" id="-12687">
		<tag k="name" v="Nakkimbekken" />
		<tag k="ssr:stedsnr" v="750635" />
		<tag k="waterway" v="stream" />
	</node>
	<node lat="59.25489722587581" lon="11.453058340083867" id="-12689">
		<tag k="name" v="Glomsrødsjøen" />
		<tag k="natural" v="water" />
		<tag k="ssr:stedsnr" v="750837" />
		<tag k="water" v="lake" />
	</node>
	<node lat="59.30870278159271" lon="11.439897214874225" id="-12691">
		<tag k="name" v="Søndre Blytjern" />
		<tag k="natural" v="water" />
		<tag k="ssr:stedsnr" v="751643" />
	</node>
	<node lat="59.46838333577863" lon="11.494711103816668" id="-12696">
		<tag k="name" v="Halvardsvann" />
		<tag k="natural" v="water" />
		<tag k="ssr:stedsnr" v="779391" />
	</node>
	<node lat="59.31966278064071" lon="11.562501580149597" id="-12698">
		<tag k="name" v="Mobekken" />
		<tag k="ssr:stedsnr" v="779441" />
		<tag k="waterway" v="stream" />
	</node>
	<node lat="59.473347224898475" lon="11.468486115301483" id="-12701">
		<tag k="name" v="Furutjern" />
		<tag k="natural" v="water" />
		<tag k="ssr:stedsnr" v="779332" />
	</node>
	<node lat="59.41052500201895" lon="11.503705547369313" id="-12704">
		<tag k="name" v="Seterekken" />
		<tag k="ssr:stedsnr" v="779557" />
		<tag k="waterway" v="stream" />
	</node>
	<node lat="59.3916916633881" lon="11.553380551535685" id="-12708">
		<tag k="name" v="Sevedalsbekken" />
		<tag k="ssr:stedsnr" v="779776" />
		<tag k="waterway" v="stream" />
	</node>
	<node lat="59.46227499721236" lon="11.460072216844893" id="-12712">
		<tag k="name" v="Nordre Svarttjern" />
		<tag k="natural" v="water" />
		<tag k="ssr:stedsnr" v="779895" />
	</node>
	<node lat="59.33036666915874" lon="11.522349991603809" id="-12713">
		<tag k="name" v="Åseter" />
		<tag k="natural" v="water" />
		<tag k="ssr:stedsnr" v="780080" />
	</node>
	<node lat="59.35940277988306" lon="11.516886111793463" id="-12714">
		<tag k="name" v="Storetorpfossen" />
		<tag k="natural" v="waterfall" />
		<tag k="ssr:stedsnr" v="780171" />
	</node>
	<node lat="59.30352221946579" lon="11.572680549803822" id="-12722">
		<tag k="alt_name" v="Kroktjernbekken" />
		<tag k="name" v="Krokvassbekken" />
		<tag k="ssr:stedsnr" v="791654" />
		<tag k="waterway" v="stream" />
	</node>
	<node lat="59.2947194423594" lon="11.531372218209775" id="-12729">
		<tag k="alt_name" v="Langetjern" />
		<tag k="name" v="Langtjernet" />
		<tag k="natural" v="water" />
		<tag k="ssr:stedsnr" v="792658" />
	</node>
	<node lat="59.33481388672336" lon="11.385872216973246" id="-12736">
		<tag k="alt_name" v="Skielva" />
		<tag k="name" v="Skiselva" />
		<tag k="ssr:stedsnr" v="811556" />
		<tag k="waterway" v="river" />
	</node>
	<node lat="59.26171944623417" lon="11.48649166929372" id="-12745">
		<tag k="name" v="Ormetjern" />
		<tag k="natural" v="water" />
		<tag k="ssr:stedsnr" v="811861" />
	</node>
	<node lat="59.309727775022196" lon="11.482897229874068" id="-12746">
		<tag k="name" v="Totjern" />
		<tag k="natural" v="water" />
		<tag k="ssr:stedsnr" v="812642" />
	</node>
	<node lat="59.30830833222511" lon="11.517358339667034" id="-12751">
		<tag k="name" v="Søndre Ormetjern" />
		<tag k="natural" v="water" />
		<tag k="ssr:stedsnr" v="840349" />
	</node>
	<node lat="59.38199722441553" lon="11.55434167447075" id="-12757">
		<tag k="name" v="Sørdalsfoss" />
		<tag k="natural" v="waterfall" />
		<tag k="ssr:stedsnr" v="840919" />
	</node>
	<node lat="59.29239722022213" lon="11.581077775107296" id="-12758">
		<tag k="name" v="Revolvertjern" />
		<tag k="natural" v="water" />
		<tag k="ssr:stedsnr" v="841349" />
	</node>
	<node lat="59.46614166694413" lon="11.536452780910105" id="-12770">
		<tag k="alt_name" v="Spadejerntjern" />
		<tag k="name" v="Spajerntjern" />
		<tag k="natural" v="water" />
		<tag k="ssr:stedsnr" v="852587" />
	</node>
	<node lat="59.28400965892395" lon="11.531553884382822" id="-12783">
		<tag k="fixme" v="multiple name tags, choose one and add the other to alt_name" />
		<tag k="name" v="Hvittjernet;Høytjern" />
		<tag k="natural" v="water" />
		<tag k="ssr:stedsnr" v="853683" />
	</node>
	<node lat="59.280872226117744" lon="11.513383328110612" id="-12784">
		<tag k="name" v="Laksen" />
		<tag k="natural" v="water" />
		<tag k="ssr:stedsnr" v="853688" />
	</node>
	<node lat="59.43754722072215" lon="11.216577770175428" id="-12796">
		<tag k="name" v="Skattebølevja" />
		<tag k="natural" v="bay" />
		<tag k="ssr:stedsnr" v="872558" />
	</node>
	<node lat="59.26690000432043" lon="11.44471665873559" id="-12807">
		<tag k="name" v="Elnesneset" />
		<tag k="natural" v="cape" />
		<tag k="ssr:stedsnr" v="872892" />
	</node>
	<node lat="59.47334444801303" lon="11.422069445111674" id="-12814">
=======
	<node id="-242282" lat="59.2889444428" lon="11.5424638869">
		<tag k="name" v="Blanke Nybølingen" />
		<tag k="natural" v="water" />
		<tag k="ssr:stedsnr" v="355331" />
	</node>
	<node id="-242281" lat="59.3440694472" lon="11.5536916656">
		<tag k="name" v="Rørvannsøya" />
		<tag k="place" v="island" />
		<tag k="ssr:stedsnr" v="355200" />
	</node>
	<node id="-242279" lat="59.4450722212" lon="11.4860444467">
		<tag k="name" v="Hvalpetjern" />
		<tag k="natural" v="water" />
		<tag k="ssr:stedsnr" v="355169" />
	</node>
	<node id="-242278" lat="59.4484027811" lon="11.4905583303">
		<tag k="name" v="Vesletjæra" />
		<tag k="ssr:stedsnr" v="355160" />
		<tag k="waterway" v="stream" />
	</node>
	<node id="-241254" lat="59.2734907813" lon="11.5257074897">
		<tag k="name" v="Øvre Sandvannet" />
		<tag k="natural" v="water" />
		<tag k="ssr:stedsnr" v="64726" />
	</node>
	<node id="-242271" lat="59.3703277784" lon="11.3096138847">
		<tag k="name" v="Øverbybekken" />
		<tag k="ssr:stedsnr" v="354719" />
		<tag k="waterway" v="stream" />
	</node>
	<node id="-241757" lat="59.4747972213" lon="11.4477388863">
		<tag k="name" v="Vestre Kølabonntjern" />
		<tag k="natural" v="water" />
		<tag k="ssr:stedsnr" v="900348" />
	</node>
	<node id="-241244" lat="59.2582722185" lon="11.513261106">
		<tag k="name" v="Setertjern" />
		<tag k="natural" v="water" />
		<tag k="ssr:stedsnr" v="52959" />
	</node>
	<node id="-241755" lat="59.2699637489" lon="11.4787959062">
		<tag k="name" v="Knula" />
		<tag k="natural" v="water" />
		<tag k="ssr:stedsnr" v="731703" />
	</node>
	<node id="-241754" lat="59.4591388861" lon="11.5432194381">
		<tag k="name" v="Pytten" />
		<tag k="natural" v="water" />
		<tag k="ssr:stedsnr" v="900375" />
		<tag k="water" v="pond" />
	</node>
	<node id="-241241" lat="59.3185950808" lon="11.3616174642">
		<tag k="name" v="Svenstjern" />
		<tag k="natural" v="water" />
		<tag k="ssr:stedsnr" v="51665" />
	</node>
	<node id="-241751" lat="59.3077972223" lon="11.3835749914">
		<tag k="name" v="Elggutubekken" />
		<tag k="ssr:stedsnr" v="900125" />
		<tag k="waterway" v="stream" />
	</node>
	<node id="-241238" lat="59.4719500003" lon="11.4410527783">
		<tag k="name" v="Ørekytta" />
		<tag k="natural" v="water" />
		<tag k="ssr:stedsnr" v="51371" />
	</node>
	<node id="-242261" lat="59.3383250026" lon="11.385100006">
		<tag k="name" v="Dritufoss" />
		<tag k="natural" v="waterfall" />
		<tag k="ssr:stedsnr" v="354424" />
	</node>
	<node id="-242260" lat="59.310461115" lon="11.5433666737">
		<tag k="name" v="Storehølen" />
		<tag k="natural" v="bay" />
		<tag k="ssr:stedsnr" v="354342" />
	</node>
	<node id="-241220" lat="59.4141583358" lon="11.5827111175">
		<tag k="name" v="Kjerringtjern" />
		<tag k="natural" v="water" />
		<tag k="ssr:stedsnr" v="233588" />
	</node>
	<node id="-242257" lat="59.4440499964" lon="11.5534833357">
		<tag k="name" v="Hakatjern" />
		<tag k="natural" v="water" />
		<tag k="ssr:stedsnr" v="354018" />
	</node>
	<node id="-241743" lat="59.3954930572" lon="11.5156091517">
		<tag k="name" v="Tjerbutjerna" />
		<tag k="natural" v="water" />
		<tag k="ssr:stedsnr" v="728716" />
		<tag k="water" v="lake" />
	</node>
	<node id="-241228" lat="59.2820416658" lon="11.5184916642">
		<tag k="name" v="Merratjern" />
		<tag k="natural" v="water" />
		<tag k="ssr:stedsnr" v="234997" />
	</node>
	<node id="-241226" lat="59.2972916634" lon="11.5281027796">
		<tag k="name" v="Kjelleren" />
		<tag k="natural" v="water" />
		<tag k="ssr:stedsnr" v="234339" />
	</node>
	<node id="-242761" lat="59.2474501491" lon="11.5662474399">
		<tag k="alt_name" v="Fyldengørvann" />
		<tag k="name" v="Følingørvann" />
		<tag k="natural" v="water" />
		<tag k="old_name" v="Fyllingsørvatn;Fyllingsørvann" />
		<tag k="ssr:stedsnr" v="244248" />
		<tag k="water" v="lake" />
	</node>
	<node id="-242245" lat="59.447472218" lon="11.5617944429">
		<tag k="name" v="Lommetjern" />
		<tag k="natural" v="water" />
		<tag k="ssr:stedsnr" v="326181" />
	</node>
	<node id="-241732" lat="59.2590999976" lon="11.5496944523">
		<tag k="name" v="Blanketjern" />
		<tag k="natural" v="water" />
		<tag k="ssr:stedsnr" v="658942" />
	</node>
	<node id="-241730" lat="59.44900278" lon="11.5270555584">
		<tag k="name" v="Lille Krokvann" />
		<tag k="natural" v="water" />
		<tag k="ssr:stedsnr" v="658460" />
	</node>
	<node id="-241729" lat="59.4697722232" lon="11.4669555533">
		<tag k="name" v="Nedre Låstjern" />
		<tag k="natural" v="water" />
		<tag k="ssr:stedsnr" v="658124" />
	</node>
	<node id="-241216" lat="59.3077472195" lon="11.5425305541">
		<tag k="name" v="De svarte stenene" />
		<tag k="place" v="islet" />
		<tag k="ssr:stedsnr" v="233358" />
	</node>
	<node id="-241727" lat="59.3730027749" lon="11.2852583338">
		<tag k="name" v="Grimstadbekken" />
		<tag k="ssr:stedsnr" v="657669" />
		<tag k="waterway" v="stream" />
	</node>
	<node id="-241214" lat="59.3618333319" lon="11.5379361163">
		<tag k="name" v="Fuglenesfjorden" />
		<tag k="natural" v="water" />
		<tag k="ssr:stedsnr" v="233166" />
	</node>
	<node id="-241858" lat="59.3175416631" lon="11.4214222261">
		<tag k="name" v="Blytjernsbekken" />
		<tag k="ssr:stedsnr" v="933679" />
		<tag k="waterway" v="stream" />
	</node>
	<node id="-242745" lat="59.3086286833" lon="11.5115971951">
		<tag k="name" v="Nordre Gørtjern" />
		<tag k="natural" v="water" />
		<tag k="ssr:stedsnr" v="991069" />
	</node>
	<node id="-241207" lat="59.4798305584" lon="11.4528888952">
		<tag k="name" v="Janstjern" />
		<tag k="natural" v="water" />
		<tag k="ssr:stedsnr" v="232334" />
	</node>
	<node id="-242230" lat="59.2668555574" lon="11.5051722136">
		<tag k="name" v="Nedre Sandvannet" />
		<tag k="natural" v="water" />
		<tag k="ssr:stedsnr" v="307742" />
		<tag k="water" v="lake" />
	</node>
	<node id="-242229" lat="59.3213777799" lon="11.5312611037">
		<tag k="name" v="Morttjern" />
		<tag k="natural" v="water" />
		<tag k="ssr:stedsnr" v="307648" />
	</node>
	<node id="-242014" lat="59.2834777771" lon="11.5477083309">
		<tag k="name" v="Søndre Hivann" />
		<tag k="natural" v="water" />
		<tag k="ssr:stedsnr" v="64698" />
	</node>
	<node id="-241200" lat="59.4392305564" lon="11.2238666655">
		<tag k="name" v="Brekke foss" />
		<tag k="natural" v="waterfall" />
		<tag k="ssr:stedsnr" v="22520" />
	</node>
	<node id="-241711" lat="59.3877194413" lon="11.4883555484">
		<tag k="alt_name" v="Tjæra" />
		<tag k="name" v="Tjerua" />
		<tag k="ssr:stedsnr" v="731508" />
		<tag k="waterway" v="stream" />
	</node>
	<node id="-242221" lat="59.2752611143" lon="11.495905551">
		<tag k="alt_name" v="Hagatjern" />
		<tag k="name" v="Haketjernet" />
		<tag k="natural" v="water" />
		<tag k="ssr:stedsnr" v="306697" />
	</node>
	<node id="-242098" lat="59.2688944439" lon="11.492133328">
		<tag k="name" v="Stutøye" />
		<tag k="natural" v="water" />
		<tag k="ssr:stedsnr" v="143870" />
	</node>
	<node id="-242218" lat="59.2915305515" lon="11.4742833258">
		<tag k="alt_name" v="Sørtjern" />
		<tag k="name" v="Sørtjernet" />
		<tag k="natural" v="water" />
		<tag k="ssr:stedsnr" v="306638" />
	</node>
	<node id="-241193" lat="59.2756782305" lon="11.5038307503">
		<tag k="name" v="Tretjerna" />
		<tag k="natural" v="water" />
		<tag k="ssr:stedsnr" v="3691" />
		<tag k="water" v="lake" />
	</node>
	<node id="-242216" lat="59.2953085965" lon="11.5644958419">
		<tag k="fixme" v="multiple name tags, choose one and add the other to alt_name" />
		<tag k="name" v="Bergtjerna;Vrangtjernene" />
		<tag k="natural" v="water" />
		<tag k="ssr:stedsnr" v="306627" />
		<tag k="water" v="lake" />
	</node>
	<node id="-242215" lat="59.2987479722" lon="11.489958137">
		<tag k="alt_name" v="Trytjernene" />
		<tag k="name" v="Tretjerna" />
		<tag k="natural" v="water" />
		<tag k="ssr:stedsnr" v="306624" />
		<tag k="water" v="lake" />
	</node>
	<node id="-241702" lat="59.4545233231" lon="11.5249051941">
		<tag k="fixme" v="multiple name tags, choose one and add the other to alt_name" />
		<tag k="name" v="Krokvannet;Store Krokvann" />
		<tag k="natural" v="water" />
		<tag k="ssr:stedsnr" v="730656" />
	</node>
	<node id="-242213" lat="59.307269444" lon="11.5443916737">
		<tag k="name" v="Kløsa" />
		<tag k="natural" v="water" />
		<tag k="ssr:stedsnr" v="306599" />
		<tag k="water" v="lake" />
	</node>
	<node id="-242212" lat="59.4067222212" lon="11.5008694435">
		<tag k="alt_name" v="Hamnetjern" />
		<tag k="name" v="Havnetjern" />
		<tag k="natural" v="water" />
		<tag k="ssr:stedsnr" v="306490" />
	</node>
	<node id="-242723" lat="59.2974194471" lon="11.5459944464">
		<tag k="name" v="Nordre Lorttjern" />
		<tag k="natural" v="water" />
		<tag k="ssr:stedsnr" v="962343" />
	</node>
	<node id="-241217" lat="59.2968194416" lon="11.5728249926">
		<tag k="name" v="Nakkimseterbukta" />
		<tag k="natural" v="bay" />
		<tag k="ssr:stedsnr" v="233399" />
	</node>
	<node id="-241243" lat="59.2933750019" lon="11.5089833319">
		<tag k="name" v="Søndre Stutøye" />
		<tag k="natural" v="water" />
		<tag k="ssr:stedsnr" v="52308" />
		<tag k="water" v="pond" />
	</node>
	<node id="-242720" lat="59.3695888875" lon="11.2882666713">
		<tag k="name" v="Kjennerbekken" />
		<tag k="ssr:stedsnr" v="961742" />
		<tag k="waterway" v="stream" />
	</node>
	<node id="-242352" lat="60.9394388853" lon="11.516244439">
		<tag k="fixme" v="multiple name tags, choose one and add the other to alt_name" />
		<tag k="name" v="Glomma;Glåma" />
		<tag k="ssr:stedsnr" v="426301" />
		<tag k="waterway" v="river" />
	</node>
	<node id="-241516" lat="59.4668333361" lon="11.4286444361">
		<tag k="name" v="Gåseflovanna" />
		<tag k="natural" v="water" />
		<tag k="ssr:stedsnr" v="657072" />
	</node>
	<node id="-242717" lat="59.3935666705" lon="11.502102774">
		<tag k="name" v="Galåshølen" />
		<tag k="place" v="locality" />
		<tag k="ssr:stedsnr" v="961831" />
	</node>
	<node id="-242715" lat="59.3226826516" lon="11.3373520272">
		<tag k="name" v="Lundsbekken" />
		<tag k="ssr:stedsnr" v="961631" />
		<tag k="waterway" v="stream" />
	</node>
	<node id="-242266" lat="59.4233194412" lon="11.5362111056">
		<tag k="name" v="Olatjern" />
		<tag k="natural" v="water" />
		<tag k="ssr:stedsnr" v="354562" />
	</node>
	<node id="-242712" lat="59.4603388891" lon="11.5516750021">
		<tag k="name" v="Orrhanekolltjern" />
		<tag k="natural" v="water" />
		<tag k="ssr:stedsnr" v="961379" />
	</node>
	<node id="-242709" lat="59.473344448" lon="11.4220694451">
>>>>>>> e1d4bc35ff8a6074a6f2e91616a996b547c36f15
		<tag k="name" v="Honningenbekken" />
		<tag k="ssr:stedsnr" v="961032" />
		<tag k="waterway" v="stream" />
	</node>
<<<<<<< HEAD
	<node lat="59.46033888910558" lon="11.551675002072376" id="-12817">
		<tag k="name" v="Orrhanekolltjern" />
		<tag k="natural" v="water" />
		<tag k="ssr:stedsnr" v="961379" />
	</node>
	<node lat="59.420213889526615" lon="11.480888896719447" id="-12819">
		<tag k="name" v="Svemyrtjern" />
		<tag k="natural" v="water" />
		<tag k="ssr:stedsnr" v="961618" />
	</node>
	<node lat="59.32268265161879" lon="11.337352027153008" id="-12820">
		<tag k="name" v="Lundsbekken" />
		<tag k="ssr:stedsnr" v="961631" />
		<tag k="waterway" v="stream" />
	</node>
	<node lat="59.36958888745069" lon="11.288266671324465" id="-12821">
		<tag k="name" v="Kjennerbekken" />
		<tag k="ssr:stedsnr" v="961742" />
		<tag k="waterway" v="stream" />
	</node>
	<node lat="59.32205319614618" lon="11.576865618124971" id="-12823">
		<tag k="name" v="Mellomsjøen" />
		<tag k="natural" v="water" />
		<tag k="ssr:stedsnr" v="962063" />
	</node>
	<node lat="59.33767222520753" lon="11.51675277934236" id="-12824">
		<tag k="name" v="Dyvillen" />
		<tag k="natural" v="water" />
		<tag k="ssr:stedsnr" v="962065" />
	</node>
	<node lat="59.291633336146916" lon="11.520150003869162" id="-12825">
		<tag k="name" v="Ormetjern" />
		<tag k="natural" v="water" />
		<tag k="ssr:stedsnr" v="962313" />
	</node>
	<node lat="59.29741944710468" lon="11.54599444642" id="-12826">
		<tag k="name" v="Nordre Lorttjern" />
		<tag k="natural" v="water" />
		<tag k="ssr:stedsnr" v="962343" />
	</node>
	<node lat="59.30862868325258" lon="11.51159719509976" id="-12842">
		<tag k="name" v="Nordre Gørtjern" />
		<tag k="natural" v="water" />
		<tag k="ssr:stedsnr" v="991069" />
=======
	<node id="-242196" lat="59.4568250035" lon="11.458655556">
		<tag k="alt_name" v="Svarttjern" />
		<tag k="name" v="Søndre Svarttjern" />
		<tag k="natural" v="water" />
		<tag k="ssr:stedsnr" v="305240" />
	</node>
	<node id="-241411" lat="59.3102844733" lon="11.515281167">
		<tag k="name" v="Nordre Ormetjern" />
		<tag k="natural" v="water" />
		<tag k="ssr:stedsnr" v="475366" />
	</node>
	<node id="-242704" lat="59.2669000043" lon="11.4447166587">
		<tag k="name" v="Elnesneset" />
		<tag k="natural" v="cape" />
		<tag k="ssr:stedsnr" v="872892" />
	</node>
	<node id="-242308" lat="59.3042833293" lon="11.4938527811">
		<tag k="alt_name" v="Langetjern" />
		<tag k="name" v="Langtjernet" />
		<tag k="natural" v="water" />
		<tag k="ssr:stedsnr" v="367652" />
	</node>
	<node id="-241523" lat="59.472991667" lon="11.4573027743">
		<tag k="name" v="Rundthøl" />
		<tag k="natural" v="water" />
		<tag k="ssr:stedsnr" v="657358" />
	</node>
	<node id="-242187" lat="59.3315722192" lon="11.4511916639">
		<tag k="name" v="Låbytjern" />
		<tag k="natural" v="water" />
		<tag k="ssr:stedsnr" v="205654" />
	</node>
	<node id="-242263" lat="59.4467972266" lon="11.5342472143">
		<tag k="name" v="Rumpetjern" />
		<tag k="natural" v="water" />
		<tag k="ssr:stedsnr" v="354491" />
	</node>
	<node id="-242183" lat="59.4178138928" lon="11.1979388872">
		<tag k="name" v="Finskuttholmen" />
		<tag k="place" v="islet" />
		<tag k="ssr:stedsnr" v="204679" />
	</node>
	<node id="-241673" lat="59.3866583336" lon="11.5685888823">
		<tag k="name" v="Bergettjern" />
		<tag k="natural" v="water" />
		<tag k="ssr:stedsnr" v="718977" />
	</node>
	<node id="-241667" lat="59.3580666636" lon="11.3160138858">
		<tag k="name" v="Bråtebekken" />
		<tag k="ssr:stedsnr" v="718416" />
		<tag k="waterway" v="stream" />
	</node>
	<node id="-242689" lat="59.2645305537" lon="11.5475027729">
		<tag k="alt_name" v="Lille Bjørvannet" />
		<tag k="name" v="Lille Bjørvann" />
		<tag k="natural" v="water" />
		<tag k="ssr:stedsnr" v="853726" />
>>>>>>> e1d4bc35ff8a6074a6f2e91616a996b547c36f15
	</node>
</osm>
