<?xml version="1.0" encoding="UTF-8"?>
<<<<<<< HEAD
<osm version="0.6" generator="osmapis">
	<node lat="59.36366944210812" lon="11.464841673713645" id="-11396">
		<tag k="bridge" v="yes" />
		<tag k="layer" v="1" />
		<tag k="name" v="Bjørnstad" />
		<tag k="ssr:stedsnr" v="107507" />
	</node>
	<node lat="59.266127773913446" lon="11.45963611523938" id="-11528">
		<tag k="bridge" v="yes" />
		<tag k="layer" v="1" />
		<tag k="name" v="Nordre Elnes" />
		<tag k="ssr:stedsnr" v="289528" />
	</node>
	<node lat="59.43003332931104" lon="11.2985916590242" id="-11708">
		<tag k="junction" v="yes" />
		<tag k="name" v="Skrabben" />
		<tag k="place" v="locality" />
		<tag k="ssr:stedsnr" v="507606" />
	</node>
	<node lat="59.37331388759566" lon="11.427577777626214" id="-11810">
		<tag k="fixme" v="consider highway=path" />
		<tag k="highway" v="track" />
		<tag k="name" v="Svenskegata" />
		<tag k="ssr:stedsnr" v="629691" />
	</node>
	<node lat="59.36434444840794" lon="11.28304722166971" id="-11814">
		<tag k="bridge" v="yes" />
		<tag k="layer" v="1" />
		<tag k="name" v="Lille Ruds" />
		<tag k="ssr:stedsnr" v="652484" />
	</node>
	<node lat="59.301927778087766" lon="11.409388889949566" id="-11815">
		<tag k="bridge" v="yes" />
		<tag k="layer" v="1" />
		<tag k="name" v="Vatvet" />
		<tag k="ssr:stedsnr" v="652488" />
	</node>
	<node lat="59.343813888413" lon="11.473786109069875" id="-11816">
		<tag k="bridge" v="yes" />
		<tag k="layer" v="1" />
		<tag k="name" v="Ås" />
		<tag k="ssr:stedsnr" v="652490" />
	</node>
	<node lat="59.45120833786241" lon="11.344513883067465" id="-11855">
		<tag k="bridge" v="yes" />
		<tag k="layer" v="1" />
		<tag k="name" v="Kån" />
		<tag k="ssr:stedsnr" v="713507" />
	</node>
	<node lat="59.23982500279078" lon="11.446663892992989" id="-11911">
		<tag k="bridge" v="yes" />
		<tag k="layer" v="1" />
		<tag k="name" v="Holene" />
		<tag k="ssr:stedsnr" v="773579" />
	</node>
	<node lat="59.35441111144719" lon="11.334800000037474" id="-11912">
		<tag k="bridge" v="yes" />
		<tag k="layer" v="1" />
		<tag k="name" v="Øverby" />
		<tag k="ssr:stedsnr" v="774554" />
	</node>
	<node lat="59.34474999838692" lon="11.272783326457862" id="-11913">
		<tag k="bridge" v="yes" />
		<tag k="layer" v="1" />
		<tag k="name" v="Midtfjell" />
		<tag k="ssr:stedsnr" v="774676" />
	</node>
	<node lat="59.43412777855653" lon="11.234183326885386" id="-12029">
		<tag k="bridge" v="yes" />
		<tag k="layer" v="1" />
		<tag k="name" v="Brekke" />
		<tag k="ssr:stedsnr" v="896520" />
	</node>
	<node lat="59.358158329131626" lon="11.412280546546988" id="-12030">
		<tag k="bridge" v="yes" />
		<tag k="layer" v="1" />
		<tag k="name" v="Kirkeng" />
		<tag k="ssr:stedsnr" v="896525" />
	</node>
	<node lat="59.357838888734506" lon="11.502627775854513" id="-12031">
		<tag k="bridge" v="yes" />
		<tag k="layer" v="1" />
		<tag k="name" v="Storetorp" />
		<tag k="ssr:stedsnr" v="896531" />
	</node>
	<node lat="59.42727700880753" lon="11.339396989254608" id="-12107">
		<tag k="name" v="Rakkestad stasjon" />
		<tag k="railway" v="station" />
		<tag k="ssr:stedsnr" v="2167" />
		<tag k="train" v="yes" />
	</node>
	<node lat="59.338411110652615" lon="11.551647214972151" id="-12140">
=======
<osm generator="osmapis" version="0.6">
	<node id="-241401" lat="59.4332027799" lon="11.2834805631">
>>>>>>> e1d4bc35ff8a6074a6f2e91616a996b547c36f15
		<tag k="bridge" v="yes" />
		<tag k="layer" v="1" />
		<tag k="name" v="Kilebu" />
		<tag k="ssr:stedsnr" v="46528" />
	</node>
<<<<<<< HEAD
	<node lat="59.43945278104455" lon="11.456700008243477" id="-12141">
=======
	<node id="-241653" lat="59.4512083379" lon="11.3445138831">
>>>>>>> e1d4bc35ff8a6074a6f2e91616a996b547c36f15
		<tag k="bridge" v="yes" />
		<tag k="layer" v="1" />
		<tag k="name" v="Nøtteholen" />
		<tag k="ssr:stedsnr" v="46536" />
	</node>
	<node lat="59.325072221311956" lon="11.344563885408094" id="-12251">
		<tag k="highway" v="path" />
		<tag k="name" v="Seterveien" />
		<tag k="ssr:stedsnr" v="172637" />
	</node>
<<<<<<< HEAD
	<node lat="59.397838891178736" lon="11.346544448857733" id="-12260">
		<tag k="aeroway" v="aerodrome" />
		<tag k="name" v="Rakkestad flyplass, Åstorp" />
		<tag k="ssr:stedsnr" v="180232" />
	</node>
	<node lat="59.30923332955696" lon="11.393674996489077" id="-12296">
=======
	<node id="-241652" lat="59.3938722205" lon="11.5457527739">
>>>>>>> e1d4bc35ff8a6074a6f2e91616a996b547c36f15
		<tag k="bridge" v="yes" />
		<tag k="layer" v="1" />
		<tag k="name" v="Knoll" />
		<tag k="ssr:stedsnr" v="228555" />
	</node>
<<<<<<< HEAD
	<node lat="59.433202779902985" lon="11.283480563124979" id="-12297">
=======
	<node id="-241651" lat="59.2640722238" lon="11.4581111191">
>>>>>>> e1d4bc35ff8a6074a6f2e91616a996b547c36f15
		<tag k="bridge" v="yes" />
		<tag k="layer" v="1" />
		<tag k="name" v="Nordre Buer" />
		<tag k="ssr:stedsnr" v="289524" />
	</node>
<<<<<<< HEAD
	<node lat="59.40072778029691" lon="11.454594444248063" id="-12353">
=======
	<node id="-242034" lat="59.3636694421" lon="11.4648416737">
>>>>>>> e1d4bc35ff8a6074a6f2e91616a996b547c36f15
		<tag k="bridge" v="yes" />
		<tag k="layer" v="1" />
		<tag k="name" v="Levernes" />
		<tag k="ssr:stedsnr" v="349557" />
	</node>
<<<<<<< HEAD
	<node lat="59.37566666966861" lon="11.463433338342039" id="-12354">
=======
	<node id="-242545" lat="59.3438138884" lon="11.4737861091">
>>>>>>> e1d4bc35ff8a6074a6f2e91616a996b547c36f15
		<tag k="bridge" v="yes" />
		<tag k="layer" v="1" />
		<tag k="name" v="Fosser" />
		<tag k="ssr:stedsnr" v="349547" />
	</node>
<<<<<<< HEAD
	<node lat="59.33986666720723" lon="11.558422226214283" id="-12409">
=======
	<node id="-242544" lat="59.3019277781" lon="11.4093888899">
>>>>>>> e1d4bc35ff8a6074a6f2e91616a996b547c36f15
		<tag k="bridge" v="yes" />
		<tag k="layer" v="1" />
		<tag k="name" v="Rørvatn" />
		<tag k="ssr:stedsnr" v="410513" />
	</node>
<<<<<<< HEAD
	<node lat="59.433041665307776" lon="11.283463885146263" id="-12410">
=======
	<node id="-242543" lat="59.3643444484" lon="11.2830472217">
>>>>>>> e1d4bc35ff8a6074a6f2e91616a996b547c36f15
		<tag k="bridge" v="yes" />
		<tag k="layer" v="1" />
		<tag k="name" v="Søndre Buer" />
		<tag k="ssr:stedsnr" v="410519" />
	</node>
<<<<<<< HEAD
	<node lat="59.3592638911319" lon="11.38785000259827" id="-12475">
		<tag k="bridge" v="yes" />
		<tag k="layer" v="1" />
		<tag k="name" v="Gjøby" />
		<tag k="ssr:stedsnr" v="531526" />
	</node>
	<node lat="59.430519441902234" lon="11.333125007189638" id="-12476">
=======
	<node id="-242541" lat="59.3733138876" lon="11.4275777776">
		<tag k="fixme" v="consider highway=path" />
		<tag k="highway" v="track" />
		<tag k="name" v="Svenskegata" />
		<tag k="ssr:stedsnr" v="629691" />
	</node>
	<node id="-242652" lat="59.3471027741" lon="11.2752527735">
>>>>>>> e1d4bc35ff8a6074a6f2e91616a996b547c36f15
		<tag k="bridge" v="yes" />
		<tag k="layer" v="1" />
		<tag k="name" v="Dørja" />
		<tag k="ssr:stedsnr" v="531527" />
	</node>
<<<<<<< HEAD
	<node lat="59.31968056000714" lon="11.41358055380826" id="-12477">
=======
	<node id="-241368" lat="59.3092333296" lon="11.3936749965">
>>>>>>> e1d4bc35ff8a6074a6f2e91616a996b547c36f15
		<tag k="bridge" v="yes" />
		<tag k="layer" v="1" />
		<tag k="name" v="Store Heier" />
		<tag k="ssr:stedsnr" v="531541" />
	</node>
<<<<<<< HEAD
	<node lat="59.2768833376188" lon="11.46076666739229" id="-12478">
		<tag k="bridge" v="yes" />
		<tag k="layer" v="1" />
		<tag k="name" v="Sandbekk" />
		<tag k="ssr:stedsnr" v="531544" />
	</node>
	<node lat="59.25924444402123" lon="11.448799999617858" id="-12479">
=======
	<node id="-241493" lat="59.4300333293" lon="11.298591659">
		<tag k="junction" v="yes" />
		<tag k="name" v="Skrabben" />
		<tag k="place" v="locality" />
		<tag k="ssr:stedsnr" v="507606" />
	</node>
	<node id="-241742" lat="59.3578388887" lon="11.5026277759">
		<tag k="bridge" v="yes" />
		<tag k="layer" v="1" />
		<tag k="name" v="Storetorp" />
		<tag k="ssr:stedsnr" v="896531" />
	</node>
	<node id="-242128" lat="59.3978388912" lon="11.3465444489">
		<tag k="aeroway" v="aerodrome" />
		<tag k="name" v="Rakkestad flyplass, Åstorp" />
		<tag k="ssr:stedsnr" v="180232" />
	</node>
	<node id="-242383" lat="59.259244444" lon="11.4487999996">
>>>>>>> e1d4bc35ff8a6074a6f2e91616a996b547c36f15
		<tag k="bridge" v="yes" />
		<tag k="layer" v="1" />
		<tag k="name" v="Vatnemellem" />
		<tag k="ssr:stedsnr" v="531546" />
	</node>
<<<<<<< HEAD
	<node lat="59.26407222378517" lon="11.458111119137568" id="-12537">
		<tag k="bridge" v="yes" />
		<tag k="layer" v="1" />
		<tag k="name" v="Elnessund" />
		<tag k="ssr:stedsnr" v="592531" />
	</node>
	<node lat="59.39387222054219" lon="11.5457527739458" id="-12538">
		<tag k="bridge" v="yes" />
		<tag k="layer" v="1" />
		<tag k="name" v="Mellomdalen" />
		<tag k="ssr:stedsnr" v="592535" />
	</node>
	<node lat="59.405722218908735" lon="11.566844442313066" id="-12629">
=======
	<node id="-242382" lat="59.2768833376" lon="11.4607666674">
		<tag k="bridge" v="yes" />
		<tag k="layer" v="1" />
		<tag k="name" v="Sandbekk" />
		<tag k="ssr:stedsnr" v="531544" />
	</node>
	<node id="-242381" lat="59.31968056" lon="11.4135805538">
		<tag k="bridge" v="yes" />
		<tag k="layer" v="1" />
		<tag k="name" v="Store Heier" />
		<tag k="ssr:stedsnr" v="531541" />
	</node>
	<node id="-241740" lat="59.4341277786" lon="11.2341833269">
		<tag k="bridge" v="yes" />
		<tag k="layer" v="1" />
		<tag k="name" v="Brekke" />
		<tag k="ssr:stedsnr" v="896520" />
	</node>
	<node id="-242379" lat="59.3592638911" lon="11.3878500026">
>>>>>>> e1d4bc35ff8a6074a6f2e91616a996b547c36f15
		<tag k="bridge" v="yes" />
		<tag k="layer" v="1" />
		<tag k="name" v="Bjørnekloppene" />
		<tag k="ssr:stedsnr" v="658542" />
	</node>
<<<<<<< HEAD
	<node lat="59.34710277408845" lon="11.275252773514737" id="-12748">
=======
	<node id="-242380" lat="59.4305194419" lon="11.3331250072">
>>>>>>> e1d4bc35ff8a6074a6f2e91616a996b547c36f15
		<tag k="bridge" v="yes" />
		<tag k="layer" v="1" />
		<tag k="name" v="Mikkelshytta" />
		<tag k="ssr:stedsnr" v="835531" />
	</node>
<<<<<<< HEAD
	<node lat="59.41001388794313" lon="11.411305561847895" id="-12809">
		<tag k="bridge" v="yes" />
		<tag k="layer" v="1" />
		<tag k="name" v="Gjølstad" />
		<tag k="ssr:stedsnr" v="956537" />
	</node>
	<node lat="59.36303611483448" lon="11.28107500293909" id="-12810">
		<tag k="bridge" v="yes" />
		<tag k="layer" v="1" />
		<tag k="name" v="Ruds" />
		<tag k="ssr:stedsnr" v="956545" />
	</node>
	<node lat="59.385322222982744" lon="11.470811116050328" id="-12811">
		<tag k="bridge" v="yes" />
		<tag k="layer" v="1" />
		<tag k="name" v="Tjernes" />
		<tag k="ssr:stedsnr" v="956551" />
=======
	<node id="-242251" lat="59.3756666697" lon="11.4634333383">
		<tag k="bridge" v="yes" />
		<tag k="layer" v="1" />
		<tag k="name" v="Fosser" />
		<tag k="ssr:stedsnr" v="349547" />
	</node>
	<node id="-241230" lat="59.439452781" lon="11.4567000082">
		<tag k="bridge" v="yes" />
		<tag k="layer" v="1" />
		<tag k="name" v="Nøtteholen" />
		<tag k="ssr:stedsnr" v="46536" />
	</node>
	<node id="-241341" lat="59.3250722213" lon="11.3445638854">
		<tag k="highway" v="path" />
		<tag k="name" v="Seterveien" />
		<tag k="ssr:stedsnr" v="172637" />
	</node>
	<node id="-242252" lat="59.4007277803" lon="11.4545944442">
		<tag k="bridge" v="yes" />
		<tag k="layer" v="1" />
		<tag k="name" v="Levernes" />
		<tag k="ssr:stedsnr" v="349557" />
	</node>
	<node id="-241229" lat="59.3384111107" lon="11.551647215">
		<tag k="bridge" v="yes" />
		<tag k="layer" v="1" />
		<tag k="name" v="Kilebu" />
		<tag k="ssr:stedsnr" v="46528" />
	</node>
	<node id="-241824" lat="59.3447499984" lon="11.2727833265">
		<tag k="bridge" v="yes" />
		<tag k="layer" v="1" />
		<tag k="name" v="Midtfjell" />
		<tag k="ssr:stedsnr" v="774676" />
	</node>
	<node id="-242331" lat="59.4330416653" lon="11.2834638851">
		<tag k="bridge" v="yes" />
		<tag k="layer" v="1" />
		<tag k="name" v="Søndre Buer" />
		<tag k="ssr:stedsnr" v="410519" />
	</node>
	<node id="-242330" lat="59.3398666672" lon="11.5584222262">
		<tag k="bridge" v="yes" />
		<tag k="layer" v="1" />
		<tag k="name" v="Rørvatn" />
		<tag k="ssr:stedsnr" v="410513" />
	</node>
	<node id="-241177" lat="59.4272770088" lon="11.3393969893">
		<tag k="name" v="Rakkestad stasjon" />
		<tag k="railway" v="station" />
		<tag k="ssr:stedsnr" v="2167" />
		<tag k="train" v="yes" />
	</node>
	<node id="-242707" lat="59.385322223" lon="11.4708111161">
		<tag k="bridge" v="yes" />
		<tag k="layer" v="1" />
		<tag k="name" v="Tjernes" />
		<tag k="ssr:stedsnr" v="956551" />
	</node>
	<node id="-242706" lat="59.3630361148" lon="11.2810750029">
		<tag k="bridge" v="yes" />
		<tag k="layer" v="1" />
		<tag k="name" v="Ruds" />
		<tag k="ssr:stedsnr" v="956545" />
	</node>
	<node id="-242705" lat="59.4100138879" lon="11.4113055618">
		<tag k="bridge" v="yes" />
		<tag k="layer" v="1" />
		<tag k="name" v="Gjølstad" />
		<tag k="ssr:stedsnr" v="956537" />
	</node>
	<node id="-241546" lat="59.4057222189" lon="11.5668444423">
		<tag k="bridge" v="yes" />
		<tag k="layer" v="1" />
		<tag k="name" v="Bjørnekloppene" />
		<tag k="ssr:stedsnr" v="658542" />
	</node>
	<node id="-242568" lat="59.3544111114" lon="11.3348">
		<tag k="bridge" v="yes" />
		<tag k="layer" v="1" />
		<tag k="name" v="Øverby" />
		<tag k="ssr:stedsnr" v="774554" />
	</node>
	<node id="-242567" lat="59.2398250028" lon="11.446663893">
		<tag k="bridge" v="yes" />
		<tag k="layer" v="1" />
		<tag k="name" v="Holene" />
		<tag k="ssr:stedsnr" v="773579" />
	</node>
	<node id="-241345" lat="59.2661277739" lon="11.4596361152">
		<tag k="bridge" v="yes" />
		<tag k="layer" v="1" />
		<tag k="name" v="Nordre Elnes" />
		<tag k="ssr:stedsnr" v="289528" />
	</node>
	<node id="-241741" lat="59.3581583291" lon="11.4122805465">
		<tag k="bridge" v="yes" />
		<tag k="layer" v="1" />
		<tag k="name" v="Kirkeng" />
		<tag k="ssr:stedsnr" v="896525" />
>>>>>>> e1d4bc35ff8a6074a6f2e91616a996b547c36f15
	</node>
</osm>
