<?xml version="1.0" encoding="UTF-8"?>
<<<<<<< HEAD
<osm version="0.6" generator="osmapis">
	<node lat="59.34984166651949" lon="11.521524998708104" id="-11290">
		<tag k="amenity" v="community_centre" />
		<tag k="name" v="Jonsrud" />
		<tag k="ssr:stedsnr" v="3712" />
	</node>
	<node lat="59.411530558928966" lon="11.499022222674188" id="-11335">
		<tag k="name" v="Skjøtteslorene" />
		<tag k="place" v="locality" />
		<tag k="ssr:stedsnr" v="51584" />
	</node>
	<node lat="59.35477500156916" lon="11.424324991991597" id="-11387">
=======
<osm generator="osmapis" version="0.6">
	<node id="-241664" lat="59.4199777814" lon="11.4265916682">
		<tag k="name" v="Huken" />
		<tag k="place" v="locality" />
		<tag k="ssr:stedsnr" v="718601" />
	</node>
	<node id="-241280" lat="59.3547750016" lon="11.424324992">
>>>>>>> e1d4bc35ff8a6074a6f2e91616a996b547c36f15
		<tag k="amenity" v="place_of_worship" />
		<tag k="denomination" v="lutheran" />
		<tag k="name" v="Degernes kirke" />
		<tag k="religion" v="christian" />
		<tag k="ssr:stedsnr" v="246734" />
	</node>
<<<<<<< HEAD
	<node lat="59.389308336172796" lon="11.225569453289893" id="-11431">
		<tag k="name" v="Moseby" />
=======
	<node id="-241918" lat="59.424855556" lon="11.5647472276">
		<tag k="name" v="Labråten" />
>>>>>>> e1d4bc35ff8a6074a6f2e91616a996b547c36f15
		<tag k="place" v="locality" />
		<tag k="ssr:stedsnr" v="961566" />
	</node>
<<<<<<< HEAD
	<node lat="59.33483611225964" lon="11.369449994818687" id="-11438">
		<tag k="name" v="Maet" />
		<tag k="place" v="locality" />
		<tag k="ssr:stedsnr" v="172431" />
	</node>
	<node lat="59.40946389013402" lon="11.504649993791869" id="-11441">
		<tag k="name" v="Seterholen" />
		<tag k="place" v="locality" />
		<tag k="ssr:stedsnr" v="172606" />
	</node>
	<node lat="59.419583329777716" lon="11.497519447879183" id="-11443">
		<tag k="name" v="Marihytta" />
		<tag k="place" v="locality" />
		<tag k="ssr:stedsnr" v="172522" />
	</node>
	<node lat="59.41084999961348" lon="11.369322226839769" id="-11508">
		<tag k="amenity" v="place_of_worship" />
		<tag k="denomination" v="lutheran" />
		<tag k="name" v="Rakkestad kirke" />
		<tag k="religion" v="christian" />
		<tag k="ssr:stedsnr" v="245130" />
	</node>
	<node lat="59.450327777208265" lon="11.238272228470969" id="-11541">
=======
	<node id="-241983" lat="59.4115305589" lon="11.4990222227">
		<tag k="name" v="Skjøtteslorene" />
		<tag k="place" v="locality" />
		<tag k="ssr:stedsnr" v="51584" />
	</node>
	<node id="-241901" lat="59.3765166695" lon="11.3697361052">
		<tag k="name" v="Ingridgrava" />
		<tag k="place" v="locality" />
		<tag k="ssr:stedsnr" v="900810" />
	</node>
	<node id="-241412" lat="59.4595222184" lon="11.5465999935">
		<tag k="name" v="Hestedauen" />
		<tag k="place" v="locality" />
		<tag k="ssr:stedsnr" v="475387" />
	</node>
	<node id="-241257" lat="59.4108499996" lon="11.3693222268">
>>>>>>> e1d4bc35ff8a6074a6f2e91616a996b547c36f15
		<tag k="amenity" v="place_of_worship" />
		<tag k="denomination" v="lutheran" />
		<tag k="name" v="Rakkestad kirke" />
		<tag k="religion" v="christian" />
		<tag k="ssr:stedsnr" v="245130" />
	</node>
<<<<<<< HEAD
	<node lat="59.27645555749412" lon="11.435783341176304" id="-11558">
		<tag k="name" v="Bjørnehullet" />
		<tag k="place" v="locality" />
		<tag k="ssr:stedsnr" v="536742" />
	</node>
	<node lat="59.46713611216417" lon="11.404163888158614" id="-11559">
		<tag k="name" v="Eftabråten" />
		<tag k="place" v="locality" />
		<tag k="ssr:stedsnr" v="353067" />
	</node>
	<node lat="59.43258611150617" lon="11.509094442272806" id="-11561">
		<tag k="name" v="Holtet" />
=======
	<node id="-241637" lat="59.3936333356" lon="11.4463749914">
		<tag k="name" v="Tyvholen" />
		<tag k="place" v="locality" />
		<tag k="ssr:stedsnr" v="536849" />
	</node>
	<node id="-241764" lat="59.3928222257" lon="11.3942472312">
		<tag k="name" v="Grensen" />
		<tag k="place" v="locality" />
		<tag k="ssr:stedsnr" v="900784" />
	</node>
	<node id="-241763" lat="59.4251027785" lon="11.4732749956">
		<tag k="name" v="Gamle Rådalen" />
		<tag k="place" v="locality" />
		<tag k="ssr:stedsnr" v="900615" />
	</node>
	<node id="-241634" lat="59.4118305552" lon="11.514236114">
		<tag k="name" v="Jamnemoen" />
>>>>>>> e1d4bc35ff8a6074a6f2e91616a996b547c36f15
		<tag k="place" v="locality" />
		<tag k="ssr:stedsnr" v="354501" />
	</node>
<<<<<<< HEAD
	<node lat="59.392169441106866" lon="11.400524997821421" id="-11568">
		<tag k="name" v="Oretappen" />
		<tag k="place" v="locality" />
		<tag k="ssr:stedsnr" v="354805" />
	</node>
	<node lat="59.45952221840529" lon="11.546599993454906" id="-11579">
		<tag k="name" v="Hestedauen" />
		<tag k="place" v="locality" />
		<tag k="ssr:stedsnr" v="475387" />
	</node>
	<node lat="59.39181389101612" lon="11.433277782522856" id="-11584">
		<tag k="name" v="Delikjørka" />
=======
	<node id="-241633" lat="59.4493305556" lon="11.4268972206">
		<tag k="name" v="Dalen" />
		<tag k="place" v="locality" />
		<tag k="ssr:stedsnr" v="536164" />
	</node>
	<node id="-241760" lat="59.4257416679" lon="11.5597722159">
		<tag k="name" v="Stuttet" />
>>>>>>> e1d4bc35ff8a6074a6f2e91616a996b547c36f15
		<tag k="place" v="locality" />
		<tag k="ssr:stedsnr" v="900579" />
	</node>
<<<<<<< HEAD
	<node lat="59.433169445400225" lon="11.543827779830584" id="-11589">
		<tag k="name" v="Dørjetjern" />
		<tag k="place" v="locality" />
		<tag k="ssr:stedsnr" v="476012" />
	</node>
	<node lat="59.40766388794727" lon="11.432636112243259" id="-11680">
		<tag k="name" v="Havnås" />
=======
	<node id="-241758" lat="59.4219638886" lon="11.4988583359">
		<tag k="name" v="Stekesekk" />
		<tag k="place" v="locality" />
		<tag k="ssr:stedsnr" v="900506" />
	</node>
	<node id="-242392" lat="59.4562055522" lon="11.4915916623">
		<tag k="name" v="Jaskoppen" />
>>>>>>> e1d4bc35ff8a6074a6f2e91616a996b547c36f15
		<tag k="place" v="locality" />
		<tag k="ssr:stedsnr" v="536904" />
	</node>
<<<<<<< HEAD
	<node lat="59.374608332874445" lon="11.35159166898407" id="-11721">
		<tag k="name" v="Bekkhus" />
		<tag k="place" v="locality" />
		<tag k="ssr:stedsnr" v="536805" />
	</node>
	<node lat="59.39380833757521" lon="11.535536105812481" id="-11722">
		<tag k="name" v="Hungerkloa" />
		<tag k="place" v="locality" />
		<tag k="ssr:stedsnr" v="536787" />
	</node>
	<node lat="59.45620555220147" lon="11.491591662295937" id="-11723">
		<tag k="name" v="Jaskoppen" />
		<tag k="place" v="locality" />
		<tag k="ssr:stedsnr" v="536904" />
	</node>
	<node lat="59.37715555493263" lon="11.386891666121832" id="-11774">
		<tag k="name" v="Smørsten" />
		<tag k="place" v="locality" />
		<tag k="ssr:stedsnr" v="596007" />
	</node>
	<node lat="59.37408611075954" lon="11.36599166007381" id="-11865">
		<tag k="alt_name" v="Åsehytta nordre" />
		<tag k="name" v="Nordre Åsehytta" />
=======
	<node id="-242391" lat="59.2764555575" lon="11.4357833412">
		<tag k="name" v="Bjørnehullet" />
		<tag k="place" v="locality" />
		<tag k="ssr:stedsnr" v="536742" />
	</node>
	<node id="-242389" lat="59.3938083376" lon="11.5355361058">
		<tag k="name" v="Hungerkloa" />
>>>>>>> e1d4bc35ff8a6074a6f2e91616a996b547c36f15
		<tag k="place" v="locality" />
		<tag k="ssr:stedsnr" v="536787" />
	</node>
<<<<<<< HEAD
	<node lat="59.42574166794729" lon="11.559772215868131" id="-11868">
		<tag k="name" v="Stuttet" />
		<tag k="place" v="locality" />
		<tag k="ssr:stedsnr" v="900579" />
	</node>
	<node lat="59.41134722225312" lon="11.523525002835362" id="-11875">
		<tag k="name" v="Soteruddalen" />
		<tag k="place" v="locality" />
		<tag k="ssr:stedsnr" v="900587" />
	</node>
	<node lat="59.392822225687574" lon="11.394247231195303" id="-11879">
		<tag k="name" v="Grensen" />
		<tag k="place" v="locality" />
		<tag k="ssr:stedsnr" v="900784" />
	</node>
	<node lat="59.424855556021036" lon="11.564747227592457" id="-12012">
		<tag k="name" v="Labråten" />
=======
	<node id="-241232" lat="59.366761114" lon="11.3696888846">
		<tag k="name" v="Tørkopp" />
		<tag k="place" v="locality" />
		<tag k="ssr:stedsnr" v="50759" />
	</node>
	<node id="-242254" lat="59.4671361122" lon="11.4041638882">
		<tag k="name" v="Eftabråten" />
		<tag k="place" v="locality" />
		<tag k="ssr:stedsnr" v="353067" />
	</node>
	<node id="-241869" lat="59.410347224" lon="11.5213000079">
		<tag k="name" v="Søte" />
		<tag k="place" v="locality" />
		<tag k="ssr:stedsnr" v="840559" />
	</node>
	<node id="-241762" lat="59.4113472223" lon="11.5235250028">
		<tag k="name" v="Soteruddalen" />
		<tag k="place" v="locality" />
		<tag k="ssr:stedsnr" v="900587" />
	</node>
	<node id="-241478" lat="59.3921694411" lon="11.4005249978">
		<tag k="name" v="Oretappen" />
>>>>>>> e1d4bc35ff8a6074a6f2e91616a996b547c36f15
		<tag k="place" v="locality" />
		<tag k="ssr:stedsnr" v="354805" />
	</node>
<<<<<<< HEAD
	<node lat="59.42196388862777" lon="11.498858335906748" id="-12038">
		<tag k="name" v="Stekesekk" />
		<tag k="place" v="locality" />
		<tag k="ssr:stedsnr" v="900506" />
	</node>
	<node lat="59.42510277854105" lon="11.473274995620665" id="-12039">
		<tag k="name" v="Gamle Rådalen" />
		<tag k="place" v="locality" />
		<tag k="ssr:stedsnr" v="900615" />
	</node>
	<node lat="59.37651666951527" lon="11.36973610518188" id="-12040">
		<tag k="name" v="Ingridgrava" />
=======
	<node id="-241348" lat="59.4180250014" lon="11.3975250049">
		<tag k="name" v="Kvernhusdalen" />
		<tag k="place" v="locality" />
		<tag k="ssr:stedsnr" v="293595" />
	</node>
	<node id="-242111" lat="59.3348361123" lon="11.3694499948">
		<tag k="name" v="Maet" />
>>>>>>> e1d4bc35ff8a6074a6f2e91616a996b547c36f15
		<tag k="place" v="locality" />
		<tag k="ssr:stedsnr" v="172431" />
	</node>
<<<<<<< HEAD
	<node lat="59.37264444120023" lon="11.367738882506446" id="-12082">
		<tag k="alt_name" v="Åsehytta søndre" />
		<tag k="name" v="Søndre Åsehytta" />
		<tag k="place" v="locality" />
		<tag k="ssr:stedsnr" v="961839" />
	</node>
	<node lat="59.366761114047655" lon="11.369688884619858" id="-12143">
		<tag k="name" v="Tørkopp" />
		<tag k="place" v="locality" />
		<tag k="ssr:stedsnr" v="50759" />
	</node>
	<node lat="59.425294444480656" lon="11.57072221587557" id="-12212">
		<tag k="name" v="Trippestad" />
		<tag k="place" v="locality" />
		<tag k="ssr:stedsnr" v="112567" />
	</node>
	<node lat="59.41577222361604" lon="11.489500007202698" id="-12247">
		<tag k="name" v="Bergen" />
		<tag k="place" v="locality" />
		<tag k="ssr:stedsnr" v="172528" />
	</node>
	<node lat="59.41802500142875" lon="11.397525004940045" id="-12302">
		<tag k="name" v="Kvernhusdalen" />
		<tag k="place" v="locality" />
		<tag k="ssr:stedsnr" v="293595" />
	</node>
	<node lat="59.45595000387896" lon="11.408505552265565" id="-12415">
		<tag k="name" v="Kjellsrud" />
		<tag k="place" v="locality" />
		<tag k="ssr:stedsnr" v="415183" />
	</node>
	<node lat="59.41652500201503" lon="11.436338883729341" id="-12421">
=======
	<node id="-241338" lat="59.4094638901" lon="11.5046499938">
		<tag k="name" v="Seterholen" />
		<tag k="place" v="locality" />
		<tag k="ssr:stedsnr" v="172606" />
	</node>
	<node id="-241335" lat="59.4157722236" lon="11.4895000072">
		<tag k="name" v="Bergen" />
		<tag k="place" v="locality" />
		<tag k="ssr:stedsnr" v="172528" />
	</node>
	<node id="-241334" lat="59.4195833298" lon="11.4975194479">
		<tag k="name" v="Marihytta" />
		<tag k="place" v="locality" />
		<tag k="ssr:stedsnr" v="172522" />
	</node>
	<node id="-241636" lat="59.3746083329" lon="11.351591669">
		<tag k="name" v="Bekkhus" />
		<tag k="place" v="locality" />
		<tag k="ssr:stedsnr" v="536805" />
	</node>
	<node id="-242097" lat="59.3893083362" lon="11.2255694533">
		<tag k="name" v="Moseby" />
		<tag k="place" v="locality" />
		<tag k="ssr:stedsnr" v="143709" />
	</node>
	<node id="-242480" lat="59.2961027797" lon="11.5799361135">
		<tag k="name" v="Bjørnebolet" />
		<tag k="place" v="locality" />
		<tag k="ssr:stedsnr" v="597378" />
	</node>
	<node id="-242347" lat="59.416525002" lon="11.4363388837">
>>>>>>> e1d4bc35ff8a6074a6f2e91616a996b547c36f15
		<tag k="name" v="Østen" />
		<tag k="place" v="locality" />
		<tag k="ssr:stedsnr" v="415647" />
	</node>
<<<<<<< HEAD
	<node lat="59.44933055556378" lon="11.426897220582513" id="-12483">
		<tag k="name" v="Dalen" />
		<tag k="place" v="locality" />
		<tag k="ssr:stedsnr" v="536164" />
	</node>
	<node lat="59.411830555217996" lon="11.514236114035096" id="-12486">
		<tag k="name" v="Jamnemoen" />
		<tag k="place" v="locality" />
		<tag k="ssr:stedsnr" v="536563" />
	</node>
	<node lat="59.393633335616144" lon="11.446374991361758" id="-12487">
		<tag k="name" v="Tyvholen" />
		<tag k="place" v="locality" />
		<tag k="ssr:stedsnr" v="536849" />
	</node>
	<node lat="59.40511944888297" lon="11.509122221509802" id="-12543">
		<tag k="name" v="Rivopp" />
		<tag k="place" v="locality" />
		<tag k="ssr:stedsnr" v="596543" />
	</node>
	<node lat="59.38199722441553" lon="11.55434167447075" id="-12546">
		<tag k="name" v="Gørhaugen" />
		<tag k="place" v="locality" />
		<tag k="ssr:stedsnr" v="596919" />
	</node>
	<node lat="59.359516668558655" lon="11.391936111876772" id="-12549">
		<tag k="name" v="Saghaugen" />
		<tag k="place" v="locality" />
		<tag k="ssr:stedsnr" v="597028" />
	</node>
	<node lat="59.29610277969192" lon="11.579936113465443" id="-12553">
		<tag k="name" v="Bjørnebolet" />
		<tag k="place" v="locality" />
		<tag k="ssr:stedsnr" v="597378" />
	</node>
	<node lat="59.41577222361604" lon="11.489500007202698" id="-12645">
		<tag k="name" v="Storli" />
		<tag k="place" v="locality" />
		<tag k="ssr:stedsnr" v="718519" />
	</node>
	<node lat="59.41997778140452" lon="11.42659166824546" id="-12650">
		<tag k="name" v="Huken" />
		<tag k="place" v="locality" />
		<tag k="ssr:stedsnr" v="718601" />
	</node>
	<node lat="59.36693333229743" lon="11.534763890127413" id="-12700">
		<tag k="name" v="Vråla" />
		<tag k="place" v="locality" />
		<tag k="ssr:stedsnr" v="779033" />
	</node>
	<node lat="59.41034722396131" lon="11.521300007877747" id="-12754">
		<tag k="name" v="Søte" />
		<tag k="place" v="locality" />
		<tag k="ssr:stedsnr" v="840559" />
	</node>
	<node lat="59.29580815949034" lon="11.56725816929166" id="-12816">
		<tag k="name" v="Jakobhullet" />
		<tag k="place" v="locality" />
		<tag k="ssr:stedsnr" v="961375" />
=======
	<node id="-242473" lat="59.3819972244" lon="11.5543416745">
		<tag k="name" v="Gørhaugen" />
		<tag k="place" v="locality" />
		<tag k="ssr:stedsnr" v="596919" />
	</node>
	<node id="-242211" lat="59.4503277772" lon="11.2382722285">
		<tag k="amenity" v="place_of_worship" />
		<tag k="denomination" v="lutheran" />
		<tag k="name" v="Os kirke" />
		<tag k="religion" v="christian" />
		<tag k="ssr:stedsnr" v="306225" />
	</node>
	<node id="-241186" lat="59.3498416665" lon="11.5215249987">
		<tag k="amenity" v="community_centre" />
		<tag k="name" v="Jonsrud" />
		<tag k="ssr:stedsnr" v="3712" />
	</node>
	<node id="-242718" lat="59.3726444412" lon="11.3677388825">
		<tag k="alt_name" v="Åsehytta søndre" />
		<tag k="name" v="Søndre Åsehytta" />
		<tag k="place" v="locality" />
		<tag k="ssr:stedsnr" v="961839" />
	</node>
	<node id="-242459" lat="59.3771555549" lon="11.3868916661">
		<tag k="name" v="Smørsten" />
		<tag k="place" v="locality" />
		<tag k="ssr:stedsnr" v="596007" />
	</node>
	<node id="-242711" lat="59.2958081595" lon="11.5672581693">
		<tag k="name" v="Jakobhullet" />
		<tag k="place" v="locality" />
		<tag k="ssr:stedsnr" v="961375" />
	</node>
	<node id="-241430" lat="59.4331694454" lon="11.5438277798">
		<tag k="name" v="Dørjetjern" />
		<tag k="place" v="locality" />
		<tag k="ssr:stedsnr" v="476012" />
	</node>
	<node id="-241425" lat="59.391813891" lon="11.4332777825">
		<tag k="name" v="Delikjørka" />
		<tag k="place" v="locality" />
		<tag k="ssr:stedsnr" v="475799" />
	</node>
	<node id="-242466" lat="59.4051194489" lon="11.5091222215">
		<tag k="name" v="Rivopp" />
		<tag k="place" v="locality" />
		<tag k="ssr:stedsnr" v="596543" />
	</node>
	<node id="-242264" lat="59.4325861115" lon="11.5090944423">
		<tag k="name" v="Holtet" />
		<tag k="place" v="locality" />
		<tag k="ssr:stedsnr" v="354501" />
	</node>
	<node id="-242338" lat="59.4559500039" lon="11.4085055523">
		<tag k="name" v="Kjellsrud" />
		<tag k="place" v="locality" />
		<tag k="ssr:stedsnr" v="415183" />
	</node>
	<node id="-242571" lat="59.3669333323" lon="11.5347638901">
		<tag k="name" v="Vråla" />
		<tag k="place" v="locality" />
		<tag k="ssr:stedsnr" v="779033" />
	</node>
	<node id="-241418" lat="59.4076638879" lon="11.4326361122">
		<tag k="name" v="Havnås" />
		<tag k="place" v="locality" />
		<tag k="ssr:stedsnr" v="475602" />
	</node>
	<node id="-241670" lat="59.3740861108" lon="11.3659916601">
		<tag k="alt_name" v="Åsehytta nordre" />
		<tag k="name" v="Nordre Åsehytta" />
		<tag k="place" v="locality" />
		<tag k="ssr:stedsnr" v="718793" />
	</node>
	<node id="-242053" lat="59.4252944445" lon="11.5707222159">
		<tag k="name" v="Trippestad" />
		<tag k="place" v="locality" />
		<tag k="ssr:stedsnr" v="112567" />
	</node>
	<node id="-241668" lat="59.4157722236" lon="11.4895000072">
		<tag k="name" v="Storli" />
		<tag k="place" v="locality" />
		<tag k="ssr:stedsnr" v="718519" />
	</node>
	<node id="-242475" lat="59.3595166686" lon="11.3919361119">
		<tag k="name" v="Saghaugen" />
		<tag k="place" v="locality" />
		<tag k="ssr:stedsnr" v="597028" />
>>>>>>> e1d4bc35ff8a6074a6f2e91616a996b547c36f15
	</node>
</osm>
