<?xml version="1.0" encoding="UTF-8"?>
<<<<<<< HEAD
<osm version="0.6" generator="osmapis">
	<node lat="59.37274166798701" lon="11.340919445830783" id="-11297">
		<tag k="name" v="Simensholen" />
		<tag k="place" v="locality" />
		<tag k="ssr:stedsnr" v="232769" />
	</node>
	<node lat="59.360911113971845" lon="11.350311117909811" id="-11305">
		<tag k="name" v="Dronninghaugen" />
		<tag k="natural" v="hill" />
		<tag k="place" v="locality" />
		<tag k="ssr:stedsnr" v="233439" />
	</node>
	<node lat="59.30607665495792" lon="11.574705671710264" id="-11306">
		<tag k="fixme" v="consider natural=peak for the most distinct mountains in the district" />
		<tag k="name" v="Korpåsen" />
		<tag k="natural" v="hill" />
		<tag k="place" v="locality" />
		<tag k="ssr:stedsnr" v="233356" />
	</node>
	<node lat="59.37101666705355" lon="11.422802774013553" id="-11326">
		<tag k="name" v="Kongshaugen" />
		<tag k="natural" v="hill" />
		<tag k="place" v="locality" />
		<tag k="ssr:stedsnr" v="23701" />
	</node>
	<node lat="59.39134722497931" lon="11.457183340189117" id="-11329">
		<tag k="alt_name" v="Jernfethaugen østre" />
		<tag k="name" v="Østre Jernfethaugen" />
		<tag k="natural" v="hill" />
		<tag k="place" v="locality" />
		<tag k="ssr:stedsnr" v="50803" />
	</node>
	<node lat="59.43574444857287" lon="11.556508330449633" id="-11332">
		<tag k="fixme" v="consider natural=peak for the most distinct mountains in the district" />
		<tag k="name" v="Frønehøyda" />
		<tag k="natural" v="hill" />
		<tag k="place" v="locality" />
		<tag k="ssr:stedsnr" v="51010" />
	</node>
	<node lat="59.3401611089263" lon="11.342774993850467" id="-11336">
		<tag k="name" v="Vardeåsdalen" />
		<tag k="natural" v="valley" />
		<tag k="place" v="locality" />
		<tag k="ssr:stedsnr" v="51471" />
	</node>
	<node lat="59.26499444364828" lon="11.541397214634221" id="-11339">
		<tag k="fixme" v="consider natural=peak for the most distinct mountains in the district" />
		<tag k="name" v="Bjørtjernshøgda" />
		<tag k="natural" v="hill" />
		<tag k="place" v="locality" />
		<tag k="ssr:stedsnr" v="52973" />
	</node>
	<node lat="59.38397500372364" lon="11.527900000099935" id="-11352">
		<tag k="fixme" v="consider natural=peak for the most distinct mountains in the district" />
		<tag k="name" v="Erikshøgda" />
		<tag k="natural" v="hill" />
		<tag k="place" v="locality" />
		<tag k="ssr:stedsnr" v="63565" />
	</node>
	<node lat="59.25764999848529" lon="11.551255560763606" id="-11354">
		<tag k="fixme" v="multiple name tags, choose one and add the other to alt_name" />
		<tag k="name" v="Lauvlunddalen;Vargedalen" />
		<tag k="natural" v="valley" />
		<tag k="place" v="locality" />
		<tag k="ssr:stedsnr" v="64755" />
	</node>
	<node lat="59.26374721928728" lon="11.476950005470217" id="-11370">
		<tag k="name" v="Bjørndalen" />
		<tag k="natural" v="valley" />
		<tag k="place" v="locality" />
		<tag k="ssr:stedsnr" v="83890" />
	</node>
	<node lat="59.37019166428014" lon="11.571269446517563" id="-11384">
		<tag k="alt_name" v="Sjøljaoksene" />
		<tag k="fixme" v="consider natural=peak for the most distinct mountains in the district" />
		<tag k="name" v="Sjøloksen" />
		<tag k="natural" v="hill" />
		<tag k="place" v="locality" />
		<tag k="ssr:stedsnr" v="245669" />
	</node>
	<node lat="59.46456388517744" lon="11.44869444348371" id="-11397">
		<tag k="fixme" v="consider natural=peak for the most distinct mountains in the district" />
		<tag k="name" v="Østbyseterhøyda" />
		<tag k="natural" v="hill" />
		<tag k="place" v="locality" />
		<tag k="ssr:stedsnr" v="111086" />
	</node>
	<node lat="59.34685833406839" lon="11.339049996850543" id="-11399">
		<tag k="fixme" v="consider natural=peak for the most distinct mountains in the district" />
		<tag k="name" v="Høyås" />
		<tag k="natural" v="hill" />
		<tag k="place" v="locality" />
		<tag k="ssr:stedsnr" v="111413" />
	</node>
	<node lat="59.381302606776444" lon="11.505172944034094" id="-11401">
		<tag k="name" v="Buttelhullet" />
		<tag k="old_name" v="Buttehullet" />
		<tag k="place" v="locality" />
		<tag k="ssr:stedsnr" v="111905" />
	</node>
	<node lat="59.3861333298905" lon="11.435777776375057" id="-11402">
		<tag k="fixme" v="consider natural=peak for the most distinct mountains in the district" />
		<tag k="name" v="Det store røs" />
		<tag k="natural" v="hill" />
		<tag k="place" v="locality" />
		<tag k="ssr:stedsnr" v="111911" />
	</node>
	<node lat="59.356399997770545" lon="11.279500001595242" id="-11415">
		<tag k="name" v="Styggedalen" />
		<tag k="natural" v="valley" />
		<tag k="place" v="locality" />
		<tag k="ssr:stedsnr" v="124727" />
	</node>
	<node lat="59.33010833763371" lon="11.319961109310889" id="-11421">
		<tag k="name" v="Linjedalen" />
		<tag k="natural" v="valley" />
=======
<osm generator="osmapis" version="0.6">
	<node id="-242686" lat="59.3671861081" lon="11.2662444379">
		<tag k="fixme" v="consider natural=peak for the most distinct mountains in the district" />
		<tag k="name" v="Rudhyttåsen" />
		<tag k="natural" v="hill" />
		<tag k="place" v="locality" />
		<tag k="ssr:stedsnr" v="853852" />
	</node>
	<node id="-241660" lat="59.2989777808" lon="11.5809277806">
		<tag k="name" v="Grandalen" />
		<tag k="natural" v="valley" />
		<tag k="place" v="locality" />
		<tag k="ssr:stedsnr" v="718333" />
	</node>
	<node id="-242171" lat="59.4235333315" lon="11.2058444424">
		<tag k="name" v="Kastet" />
		<tag k="natural" v="slope" />
		<tag k="place" v="locality" />
		<tag k="ssr:stedsnr" v="204471" />
	</node>
	<node id="-242169" lat="59.3271694423" lon="11.307813897">
		<tag k="name" v="Kubakken" />
		<tag k="natural" v="slope" />
		<tag k="place" v="locality" />
		<tag k="ssr:stedsnr" v="204034" />
	</node>
	<node id="-242168" lat="59.3305833338" lon="11.3291527778">
		<tag k="name" v="Kula" />
		<tag k="natural" v="hill" />
		<tag k="place" v="locality" />
		<tag k="ssr:stedsnr" v="204022" />
	</node>
	<node id="-242678" lat="59.3316555549" lon="11.5290222284">
		<tag k="fixme" v="consider natural=peak for the most distinct mountains in the district" />
		<tag k="name" v="Brattåsen" />
		<tag k="natural" v="hill" />
		<tag k="place" v="locality" />
		<tag k="ssr:stedsnr" v="853602" />
	</node>
	<node id="-242162" lat="59.3417742472" lon="11.3459085711">
		<tag k="fixme" v="consider natural=peak for the most distinct mountains in the district" />
		<tag k="name" v="Lundsvarden" />
		<tag k="natural" v="hill" />
		<tag k="place" v="locality" />
		<tag k="ssr:stedsnr" v="185781" />
	</node>
	<node id="-241649" lat="59.3664500029" lon="11.5007527798">
		<tag k="name" v="Sønstegårdbråten" />
		<tag k="place" v="locality" />
		<tag k="ssr:stedsnr" v="568651" />
	</node>
	<node id="-242669" lat="59.4580583368" lon="11.4208833391">
		<tag k="name" v="Stordalen" />
		<tag k="natural" v="valley" />
		<tag k="place" v="locality" />
		<tag k="ssr:stedsnr" v="852251" />
	</node>
	<node id="-242668" lat="59.457325002" lon="11.4354388861">
		<tag k="fixme" v="consider natural=peak for the most distinct mountains in the district" />
		<tag k="name" v="Gåseflohøgda" />
		<tag k="natural" v="hill" />
		<tag k="place" v="locality" />
		<tag k="ssr:stedsnr" v="852250" />
	</node>
	<node id="-241643" lat="59.2796249979" lon="11.5530388938">
		<tag k="name" v="Murerkleiva" />
		<tag k="place" v="locality" />
		<tag k="ssr:stedsnr" v="537980" />
	</node>
	<node id="-241319" lat="59.4211555575" lon="11.3529166725">
		<tag k="fixme" v="consider natural=peak for the most distinct mountains in the district" />
		<tag k="name" v="Kasseåsen" />
		<tag k="natural" v="hill" />
		<tag k="place" v="locality" />
		<tag k="ssr:stedsnr" v="265601" />
	</node>
	<node id="-242152" lat="59.2979305514" lon="11.427500005">
		<tag k="fixme" v="consider natural=peak for the most distinct mountains in the district" />
		<tag k="name" v="Julsrudkollen" />
		<tag k="natural" v="hill" />
		<tag k="place" v="locality" />
		<tag k="ssr:stedsnr" v="184994" />
	</node>
	<node id="-241638" lat="59.3561008043" lon="11.5524004034">
		<tag k="name" v="Dansemoen" />
		<tag k="place" v="locality" />
		<tag k="ssr:stedsnr" v="537176" />
	</node>
	<node id="-242658" lat="59.4416083328" lon="11.4430833343">
		<tag k="fixme" v="consider natural=peak for the most distinct mountains in the district" />
		<tag k="name" v="Dypedalsåsen" />
		<tag k="natural" v="hill" />
		<tag k="place" v="locality" />
		<tag k="ssr:stedsnr" v="841142" />
	</node>
	<node id="-241659" lat="59.2966000027" lon="11.5694361177">
		<tag k="fixme" v="consider natural=peak for the most distinct mountains in the district" />
		<tag k="name" v="Berås" />
		<tag k="natural" v="hill" />
>>>>>>> e1d4bc35ff8a6074a6f2e91616a996b547c36f15
		<tag k="place" v="locality" />
		<tag k="ssr:stedsnr" v="718383" />
	</node>
<<<<<<< HEAD
	<node lat="59.41794167055593" lon="11.301705557147773" id="-11426">
		<tag k="name" v="Stendalen" />
		<tag k="natural" v="valley" />
		<tag k="place" v="locality" />
		<tag k="ssr:stedsnr" v="143528" />
	</node>
	<node lat="59.40814444185231" lon="11.29648055354479" id="-11427">
		<tag k="fixme" v="consider natural=peak for the most distinct mountains in the district" />
		<tag k="name" v="Lauvdalsåsen" />
		<tag k="natural" v="hill" />
		<tag k="place" v="locality" />
		<tag k="ssr:stedsnr" v="143535" />
	</node>
	<node lat="59.4436722202186" lon="11.54151110422203" id="-11435">
		<tag k="fixme" v="consider natural=peak for the most distinct mountains in the district" />
		<tag k="name" v="Seteråsen" />
		<tag k="natural" v="hill" />
		<tag k="place" v="locality" />
		<tag k="ssr:stedsnr" v="172014" />
	</node>
	<node lat="59.397624999143154" lon="11.40373055861019" id="-11450">
		<tag k="fixme" v="consider natural=peak for the most distinct mountains in the district" />
		<tag k="name" v="Høyås" />
		<tag k="natural" v="hill" />
		<tag k="place" v="locality" />
		<tag k="ssr:stedsnr" v="184150" />
	</node>
	<node lat="59.41713333744701" lon="11.29098610367218" id="-11476">
		<tag k="fixme" v="consider natural=peak for the most distinct mountains in the district" />
		<tag k="name" v="Sameieåsen" />
		<tag k="natural" v="hill" />
		<tag k="place" v="locality" />
		<tag k="ssr:stedsnr" v="265550" />
	</node>
	<node lat="59.28243611528441" lon="11.386230564417499" id="-11480">
		<tag k="name" v="Engsmoen" />
		<tag k="place" v="locality" />
		<tag k="ssr:stedsnr" v="266164" />
	</node>
	<node lat="59.37006389094085" lon="11.43872499233279" id="-11484">
		<tag k="fixme" v="consider natural=peak for the most distinct mountains in the district" />
		<tag k="name" v="Skadeåsen" />
		<tag k="natural" v="hill" />
		<tag k="place" v="locality" />
		<tag k="ssr:stedsnr" v="266660" />
	</node>
	<node lat="59.37385277915829" lon="11.371363896352191" id="-11496">
		<tag k="name" v="Danstorpåsen" />
		<tag k="natural" v="ridge" />
		<tag k="place" v="locality" />
		<tag k="ssr:stedsnr" v="232784" />
	</node>
	<node lat="59.3229651148996" lon="11.337776855198733" id="-11499">
		<tag k="name" v="Lundsbekken" />
		<tag k="natural" v="hill" />
		<tag k="place" v="locality" />
		<tag k="ssr:stedsnr" v="233640" />
	</node>
	<node lat="59.31695277953762" lon="11.345938882566296" id="-11500">
		<tag k="name" v="Ekeliene" />
		<tag k="natural" v="slope" />
		<tag k="place" v="locality" />
		<tag k="ssr:stedsnr" v="233645" />
	</node>
	<node lat="59.421155557480304" lon="11.352916672548458" id="-11526">
		<tag k="fixme" v="consider natural=peak for the most distinct mountains in the district" />
		<tag k="name" v="Kasseåsen" />
		<tag k="natural" v="hill" />
		<tag k="place" v="locality" />
		<tag k="ssr:stedsnr" v="265601" />
	</node>
	<node lat="59.376719441011524" lon="11.411397230000885" id="-11527">
		<tag k="name" v="Kjempehaugene" />
		<tag k="natural" v="hill" />
		<tag k="place" v="locality" />
		<tag k="ssr:stedsnr" v="265720" />
	</node>
	<node lat="59.440605558073884" lon="11.427488897385484" id="-11536">
		<tag k="name" v="Kvernhusdalen" />
		<tag k="natural" v="valley" />
		<tag k="place" v="locality" />
		<tag k="ssr:stedsnr" v="294506" />
	</node>
	<node lat="59.31036099445029" lon="11.554638559165216" id="-11542">
		<tag k="fixme" v="consider natural=peak for the most distinct mountains in the district" />
		<tag k="name" v="Uttisrødhøgda" />
		<tag k="natural" v="hill" />
		<tag k="place" v="locality" />
		<tag k="ssr:stedsnr" v="306613" />
	</node>
	<node lat="59.39976666646681" lon="11.480711105776157" id="-11551">
		<tag k="fixme" v="consider natural=peak for the most distinct mountains in the district" />
		<tag k="name" v="Langatuåsen" />
		<tag k="natural" v="hill" />
		<tag k="place" v="locality" />
		<tag k="ssr:stedsnr" v="307555" />
	</node>
	<node lat="59.32831111419845" lon="11.32155554823015" id="-11555">
		<tag k="name" v="Harebakken" />
		<tag k="natural" v="slope" />
		<tag k="place" v="locality" />
		<tag k="ssr:stedsnr" v="326031" />
	</node>
	<node lat="59.32728332942458" lon="11.342994446777297" id="-11564">
		<tag k="fixme" v="consider natural=peak for the most distinct mountains in the district" />
		<tag k="name" v="Slettefjellet" />
		<tag k="natural" v="hill" />
		<tag k="place" v="locality" />
		<tag k="ssr:stedsnr" v="354637" />
	</node>
	<node lat="59.381805552773876" lon="11.468202770816072" id="-11570">
		<tag k="name" v="Tjærneskleiva" />
		<tag k="natural" v="slope" />
		<tag k="place" v="locality" />
		<tag k="ssr:stedsnr" v="354877" />
	</node>
	<node lat="59.352138891811975" lon="11.556708336798355" id="-11573">
		<tag k="name" v="Rørvannsdalen" />
		<tag k="natural" v="valley" />
=======
	<node id="-241632" lat="59.460511107" lon="11.4759861038">
		<tag k="fixme" v="consider natural=peak for the most distinct mountains in the district" />
		<tag k="name" v="Langvassåsen" />
		<tag k="natural" v="hill" />
		<tag k="place" v="locality" />
		<tag k="ssr:stedsnr" v="536039" />
	</node>
	<node id="-242143" lat="59.4423555582" lon="11.4772888978">
		<tag k="fixme" v="consider natural=peak for the most distinct mountains in the district" />
		<tag k="name" v="Store Hiesten" />
		<tag k="natural" v="hill" />
		<tag k="place" v="locality" />
		<tag k="ssr:stedsnr" v="184629" />
	</node>
	<node id="-242654" lat="59.4551555529" lon="11.4646361163">
		<tag k="fixme" v="consider natural=peak for the most distinct mountains in the district" />
		<tag k="name" v="Morttjernshøyda" />
		<tag k="natural" v="hill" />
		<tag k="place" v="locality" />
		<tag k="ssr:stedsnr" v="840033" />
	</node>
	<node id="-242653" lat="59.3649722196" lon="11.3217277748">
		<tag k="name" v="Dronninghaugen" />
		<tag k="natural" v="hill" />
		<tag k="place" v="locality" />
		<tag k="ssr:stedsnr" v="839717" />
	</node>
	<node id="-241627" lat="59.3624666664" lon="11.4825500039">
		<tag k="fixme" v="consider natural=peak for the most distinct mountains in the district" />
		<tag k="name" v="Kjempeåsen" />
		<tag k="natural" v="hill" />
		<tag k="place" v="locality" />
		<tag k="ssr:stedsnr" v="690715" />
	</node>
	<node id="-242650" lat="59.3668055513" lon="11.4429583242">
		<tag k="name" v="Lybekk" />
		<tag k="place" v="locality" />
		<tag k="ssr:stedsnr" v="812700" />
	</node>
	<node id="-242649" lat="59.3233722253" lon="11.4927444484">
		<tag k="name" v="Smaledalen" />
		<tag k="natural" v="valley" />
		<tag k="place" v="locality" />
		<tag k="ssr:stedsnr" v="812646" />
	</node>
	<node id="-242646" lat="59.2624333355" lon="11.4331027717">
		<tag k="name" v="Ladedalen" />
		<tag k="natural" v="valley" />
		<tag k="place" v="locality" />
		<tag k="ssr:stedsnr" v="811856" />
	</node>
	<node id="-242645" lat="59.3717500027" lon="11.4637583322">
		<tag k="name" v="Kollerud" />
		<tag k="place" v="locality" />
		<tag k="ssr:stedsnr" v="811660" />
	</node>
	<node id="-242132" lat="59.3976249991" lon="11.4037305586">
		<tag k="fixme" v="consider natural=peak for the most distinct mountains in the district" />
		<tag k="name" v="Høyås" />
		<tag k="natural" v="hill" />
		<tag k="place" v="locality" />
		<tag k="ssr:stedsnr" v="184150" />
	</node>
	<node id="-242125" lat="59.2532277767" lon="11.5105916714">
		<tag k="fixme" v="consider natural=peak for the most distinct mountains in the district" />
		<tag k="name" v="Bislingnuten" />
		<tag k="natural" v="hill" />
		<tag k="place" v="locality" />
		<tag k="ssr:stedsnr" v="173951" />
	</node>
	<node id="-242122" lat="59.3570305584" lon="11.361355559">
		<tag k="fixme" v="consider natural=peak for the most distinct mountains in the district" />
		<tag k="name" v="Fjøshytteåsen" />
		<tag k="natural" v="hill" />
		<tag k="place" v="locality" />
		<tag k="ssr:stedsnr" v="172843" />
	</node>
	<node id="-242628" lat="59.2662055568" lon="11.3701972224">
		<tag k="name" v="Gørhettene" />
		<tag k="natural" v="slope" />
		<tag k="place" v="locality" />
		<tag k="ssr:stedsnr" v="811133" />
	</node>
	<node id="-242627" lat="59.2632611088" lon="11.3605527781">
		<tag k="name" v="Kudalen" />
		<tag k="natural" v="valley" />
		<tag k="place" v="locality" />
		<tag k="ssr:stedsnr" v="811131" />
	</node>
	<node id="-241600" lat="59.3330194412" lon="11.4410138826">
		<tag k="fixme" v="consider natural=peak for the most distinct mountains in the district" />
		<tag k="name" v="Haugsåsen" />
		<tag k="natural" v="hill" />
		<tag k="place" v="locality" />
		<tag k="ssr:stedsnr" v="508658" />
	</node>
	<node id="-241594" lat="59.4049277751" lon="11.3053527795">
		<tag k="fixme" v="consider natural=peak for the most distinct mountains in the district" />
		<tag k="name" v="Ønnerudåsen" />
		<tag k="natural" v="hill" />
		<tag k="place" v="locality" />
		<tag k="ssr:stedsnr" v="507524" />
	</node>
	<node id="-242105" lat="59.4698083339" lon="11.4455250016">
		<tag k="fixme" v="consider natural=peak for the most distinct mountains in the district" />
		<tag k="name" v="Vestre Tiurås" />
		<tag k="natural" v="hill" />
		<tag k="place" v="locality" />
		<tag k="ssr:stedsnr" v="172084" />
	</node>
	<node id="-242103" lat="59.4436722202" lon="11.5415111042">
		<tag k="fixme" v="consider natural=peak for the most distinct mountains in the district" />
		<tag k="name" v="Seteråsen" />
		<tag k="natural" v="hill" />
		<tag k="place" v="locality" />
		<tag k="ssr:stedsnr" v="172014" />
	</node>
	<node id="-242607" lat="59.4513777754" lon="11.5518833325">
		<tag k="alt_name" v="Hostenhøgda" />
		<tag k="fixme" v="consider natural=peak for the most distinct mountains in the district" />
		<tag k="name" v="Haugstenhøgda" />
		<tag k="natural" v="hill" />
		<tag k="place" v="locality" />
		<tag k="ssr:stedsnr" v="791578" />
	</node>
	<node id="-241580" lat="59.3179444424" lon="11.5374055529">
		<tag k="fixme" v="multiple name tags, choose one and add the other to alt_name; consider natural=peak for the most distinct mountains in the district" />
		<tag k="name" v="Stueåsen;Torkildseteråsen" />
		<tag k="natural" v="hill" />
>>>>>>> e1d4bc35ff8a6074a6f2e91616a996b547c36f15
		<tag k="place" v="locality" />
		<tag k="ssr:stedsnr" v="671655" />
	</node>
<<<<<<< HEAD
	<node lat="59.47180859928625" lon="11.510073747690642" id="-11580">
		<tag k="fixme" v="consider natural=peak for the most distinct mountains in the district" />
		<tag k="name" v="Mustjernhøgda" />
		<tag k="natural" v="hill" />
		<tag k="place" v="locality" />
		<tag k="ssr:stedsnr" v="475399" />
	</node>
	<node lat="59.3515861089099" lon="11.377038887214734" id="-11593">
		<tag k="fixme" v="consider natural=peak for the most distinct mountains in the district" />
		<tag k="name" v="Ringemyråsen" />
		<tag k="natural" v="hill" />
		<tag k="place" v="locality" />
		<tag k="ssr:stedsnr" v="476033" />
	</node>
	<node lat="59.35519722186506" lon="11.55607499833599" id="-11605">
		<tag k="alt_name" v="Rørvasshøgda" />
		<tag k="fixme" v="consider natural=peak for the most distinct mountains in the district" />
		<tag k="name" v="Rørvannshøyda" />
		<tag k="natural" v="hill" />
		<tag k="place" v="locality" />
		<tag k="ssr:stedsnr" v="367705" />
	</node>
	<node lat="59.37153888533518" lon="11.502891673782363" id="-11606">
		<tag k="fixme" v="consider natural=peak for the most distinct mountains in the district" />
		<tag k="name" v="Slottåsen" />
		<tag k="natural" v="hill" />
		<tag k="place" v="locality" />
		<tag k="ssr:stedsnr" v="367674" />
	</node>
	<node lat="59.344841667346635" lon="11.486991658471066" id="-11610">
		<tag k="fixme" v="consider natural=peak for the most distinct mountains in the district" />
		<tag k="name" v="Svinsås" />
		<tag k="natural" v="hill" />
		<tag k="place" v="locality" />
		<tag k="ssr:stedsnr" v="386643" />
	</node>
	<node lat="59.30869166366032" lon="11.528580552281646" id="-11638">
		<tag k="fixme" v="consider natural=peak for the most distinct mountains in the district" />
		<tag k="name" v="Knuvleåsen" />
		<tag k="natural" v="hill" />
		<tag k="place" v="locality" />
		<tag k="ssr:stedsnr" v="488623" />
	</node>
	<node lat="59.429322219064225" lon="11.232363894237084" id="-11666">
		<tag k="fixme" v="consider natural=peak for the most distinct mountains in the district" />
		<tag k="name" v="Ørkelåsen" />
		<tag k="natural" v="hill" />
		<tag k="place" v="locality" />
		<tag k="ssr:stedsnr" v="447476" />
	</node>
	<node lat="59.35664721941277" lon="11.444358327348375" id="-11671">
		<tag k="fixme" v="consider natural=peak for the most distinct mountains in the district" />
		<tag k="name" v="Krokåsen" />
		<tag k="natural" v="hill" />
		<tag k="place" v="locality" />
		<tag k="ssr:stedsnr" v="448711" />
	</node>
	<node lat="59.31794444242286" lon="11.537405552941165" id="-11672">
		<tag k="fixme" v="multiple name tags, choose one and add the other to alt_name; consider natural=peak for the most distinct mountains in the district" />
		<tag k="name" v="Stueåsen;Torkildseteråsen" />
		<tag k="natural" v="hill" />
		<tag k="place" v="locality" />
		<tag k="ssr:stedsnr" v="671655" />
	</node>
	<node lat="59.37083333784184" lon="11.54957777696323" id="-11678">
		<tag k="name" v="Harelia" />
		<tag k="natural" v="slope" />
		<tag k="place" v="locality" />
		<tag k="ssr:stedsnr" v="475123" />
	</node>
	<node lat="59.37608610733053" lon="11.370602781999688" id="-11686">
		<tag k="fixme" v="consider natural=peak for the most distinct mountains in the district" />
		<tag k="name" v="Ingridåsen" />
		<tag k="natural" v="hill" />
		<tag k="place" v="locality" />
		<tag k="ssr:stedsnr" v="475810" />
	</node>
	<node lat="59.44997222460533" lon="11.53769721688067" id="-11688">
		<tag k="fixme" v="consider natural=peak for the most distinct mountains in the district" />
		<tag k="name" v="Hatten" />
		<tag k="natural" v="hill" />
		<tag k="place" v="locality" />
		<tag k="ssr:stedsnr" v="476105" />
	</node>
	<node lat="59.33301944119835" lon="11.441013882558222" id="-11711">
		<tag k="fixme" v="consider natural=peak for the most distinct mountains in the district" />
		<tag k="name" v="Haugsåsen" />
		<tag k="natural" v="hill" />
		<tag k="place" v="locality" />
		<tag k="ssr:stedsnr" v="508658" />
	</node>
	<node lat="59.34834166253711" lon="11.472980546757123" id="-11712">
		<tag k="fixme" v="consider natural=peak for the most distinct mountains in the district" />
		<tag k="name" v="Nakkimåsen" />
		<tag k="natural" v="hill" />
		<tag k="place" v="locality" />
		<tag k="ssr:stedsnr" v="508665" />
	</node>
	<node lat="59.33858055393098" lon="11.49849722440127" id="-11713">
		<tag k="name" v="Uttisrudbråten" />
		<tag k="place" v="locality" />
		<tag k="ssr:stedsnr" v="508667" />
	</node>
	<node lat="59.31758610699935" lon="11.376333325260267" id="-11718">
		<tag k="name" v="Melkebakke" />
		<tag k="natural" v="slope" />
		<tag k="place" v="locality" />
		<tag k="ssr:stedsnr" v="536618" />
	</node>
	<node lat="59.3561008043402" lon="11.552400403444624" id="-11724">
		<tag k="name" v="Dansemoen" />
		<tag k="place" v="locality" />
		<tag k="ssr:stedsnr" v="537176" />
	</node>
	<node lat="59.331766670381256" lon="11.559219445181196" id="-11725">
		<tag k="fixme" v="consider natural=peak for the most distinct mountains in the district" />
		<tag k="name" v="Kilebuåsen" />
		<tag k="natural" v="hill" />
		<tag k="place" v="locality" />
		<tag k="ssr:stedsnr" v="537068" />
	</node>
	<node lat="59.27962499787539" lon="11.553038893822162" id="-11728">
		<tag k="name" v="Murerkleiva" />
		<tag k="place" v="locality" />
		<tag k="ssr:stedsnr" v="537980" />
	</node>
	<node lat="59.26763333451174" lon="11.472391669551243" id="-11740">
		<tag k="fixme" v="consider natural=peak for the most distinct mountains in the district" />
		<tag k="name" v="Greåkeråsen" />
		<tag k="natural" v="hill" />
		<tag k="place" v="locality" />
		<tag k="ssr:stedsnr" v="549701" />
	</node>
	<node lat="59.31981666429337" lon="11.445197216454973" id="-11746">
		<tag k="name" v="Bratta" />
		<tag k="natural" v="hill" />
		<tag k="place" v="locality" />
		<tag k="ssr:stedsnr" v="690682" />
	</node>
	<node lat="59.33038055729117" lon="11.322177776178052" id="-11762">
		<tag k="name" v="Skatsdalen" />
		<tag k="natural" v="valley" />
		<tag k="place" v="locality" />
		<tag k="ssr:stedsnr" v="568027" />
	</node>
	<node lat="59.29275832938392" lon="11.487419440001629" id="-11771">
		<tag k="fixme" v="consider natural=peak for the most distinct mountains in the district" />
		<tag k="name" v="Vardås" />
		<tag k="natural" v="hill" />
		<tag k="place" v="locality" />
		<tag k="ssr:stedsnr" v="569618" />
	</node>
	<node lat="59.37621794330009" lon="11.387915341669997" id="-11775">
		<tag k="name" v="Reierhaugen" />
		<tag k="natural" v="hill" />
		<tag k="place" v="locality" />
		<tag k="ssr:stedsnr" v="596008" />
	</node>
	<node lat="59.47109444376129" lon="11.4910638828605" id="-11777">
		<tag k="name" v="Kjørelhaugen" />
		<tag k="natural" v="hill" />
		<tag k="place" v="locality" />
		<tag k="ssr:stedsnr" v="596319" />
	</node>
	<node lat="59.293747223436064" lon="11.333097221762934" id="-11806">
		<tag k="name" v="Bjørnsten" />
		<tag k="natural" v="hill" />
		<tag k="place" v="locality" />
		<tag k="ssr:stedsnr" v="629047" />
	</node>
	<node lat="59.374825003157824" lon="11.549805551381834" id="-11817">
		<tag k="name" v="Husedalen" />
		<tag k="natural" v="valley" />
		<tag k="place" v="locality" />
		<tag k="ssr:stedsnr" v="657137" />
	</node>
	<node lat="59.27359722080082" lon="11.443038886513522" id="-11824">
		<tag k="fixme" v="consider natural=peak for the most distinct mountains in the district" />
		<tag k="name" v="Vassroa" />
		<tag k="natural" v="hill" />
		<tag k="place" v="locality" />
		<tag k="ssr:stedsnr" v="657703" />
	</node>
	<node lat="59.394075001944465" lon="11.532458339944435" id="-11825">
		<tag k="fixme" v="consider natural=peak for the most distinct mountains in the district" />
		<tag k="name" v="Rasmusåsen" />
		<tag k="natural" v="hill" />
		<tag k="place" v="locality" />
		<tag k="ssr:stedsnr" v="657728" />
	</node>
	<node lat="59.44996666789874" lon="11.396383334015654" id="-11829">
		<tag k="fixme" v="consider natural=peak for the most distinct mountains in the district" />
		<tag k="name" v="Husåsen" />
		<tag k="natural" v="hill" />
		<tag k="place" v="locality" />
		<tag k="ssr:stedsnr" v="658195" />
	</node>
	<node lat="59.246724999515415" lon="11.402405547241694" id="-11834">
		<tag k="alt_name" v="Høyås (Soteås)" />
		<tag k="fixme" v="consider natural=peak for the most distinct mountains in the district" />
		<tag k="name" v="Såteås" />
		<tag k="natural" v="hill" />
		<tag k="place" v="locality" />
		<tag k="ssr:stedsnr" v="668593" />
	</node>
	<node lat="59.39421111326962" lon="11.317949993481218" id="-11844">
		<tag k="fixme" v="consider natural=peak for the most distinct mountains in the district" />
		<tag k="name" v="Trangåsen" />
		<tag k="natural" v="hill" />
		<tag k="place" v="locality" />
		<tag k="ssr:stedsnr" v="690606" />
	</node>
	<node lat="59.36246666636608" lon="11.482550003864711" id="-11853">
		<tag k="fixme" v="consider natural=peak for the most distinct mountains in the district" />
		<tag k="name" v="Kjempeåsen" />
		<tag k="natural" v="hill" />
		<tag k="place" v="locality" />
		<tag k="ssr:stedsnr" v="690715" />
	</node>
	<node lat="59.296600002695754" lon="11.569436117655403" id="-11860">
		<tag k="fixme" v="consider natural=peak for the most distinct mountains in the district" />
		<tag k="name" v="Berås" />
		<tag k="natural" v="hill" />
		<tag k="place" v="locality" />
		<tag k="ssr:stedsnr" v="718383" />
	</node>
	<node lat="59.389305552382254" lon="11.454374998829831" id="-11861">
		<tag k="alt_name" v="Jernfethaugen vestre" />
		<tag k="name" v="Vestre Jernfethaugen" />
		<tag k="natural" v="hill" />
		<tag k="place" v="locality" />
		<tag k="ssr:stedsnr" v="718823" />
	</node>
	<node lat="59.465922222622325" lon="11.413858337712227" id="-11871">
		<tag k="name" v="Stordalen" />
		<tag k="natural" v="valley" />
		<tag k="place" v="locality" />
		<tag k="ssr:stedsnr" v="900138" />
	</node>
	<node lat="59.41624999564741" lon="11.561841664985177" id="-11874">
		<tag k="name" v="Handrekkdalen" />
		<tag k="natural" v="valley" />
		<tag k="place" v="locality" />
		<tag k="ssr:stedsnr" v="900582" />
	</node>
	<node lat="59.39308888807089" lon="11.555847216457927" id="-11877">
		<tag k="name" v="Sevedalen" />
		<tag k="natural" v="valley" />
		<tag k="place" v="locality" />
		<tag k="ssr:stedsnr" v="900766" />
	</node>
	<node lat="59.368769441575544" lon="11.34856666766158" id="-11881">
		<tag k="fixme" v="consider natural=peak for the most distinct mountains in the district" />
		<tag k="name" v="Brenteåsen" />
		<tag k="natural" v="hill" />
		<tag k="place" v="locality" />
		<tag k="ssr:stedsnr" v="900794" />
	</node>
	<node lat="59.454313885223506" lon="11.541269436783843" id="-11884">
		<tag k="name" v="Haugstenvannsdalen" />
		<tag k="natural" v="valley" />
		<tag k="place" v="locality" />
		<tag k="ssr:stedsnr" v="901084" />
	</node>
	<node lat="59.44297778187571" lon="11.47477499535718" id="-11888">
		<tag k="fixme" v="consider natural=peak for the most distinct mountains in the district" />
		<tag k="name" v="Hostenshøyda" />
		<tag k="natural" v="hill" />
		<tag k="place" v="locality" />
		<tag k="ssr:stedsnr" v="901125" />
	</node>
	<node lat="59.29979999833922" lon="11.336150004907624" id="-11890">
		<tag k="name" v="Åsedalen" />
		<tag k="natural" v="valley" />
		<tag k="place" v="locality" />
		<tag k="ssr:stedsnr" v="730976" />
	</node>
	<node lat="59.402047218234536" lon="11.497830559442669" id="-11895">
		<tag k="fixme" v="consider natural=peak for the most distinct mountains in the district" />
		<tag k="name" v="Kolåsen" />
		<tag k="natural" v="hill" />
		<tag k="place" v="locality" />
		<tag k="ssr:stedsnr" v="731505" />
	</node>
	<node lat="59.40685277523067" lon="11.554063893880919" id="-11918">
		<tag k="fixme" v="consider natural=peak for the most distinct mountains in the district" />
		<tag k="name" v="Brannåsen" />
		<tag k="natural" v="hill" />
		<tag k="place" v="locality" />
		<tag k="ssr:stedsnr" v="779551" />
	</node>
	<node lat="59.420361113282375" lon="11.228286107679887" id="-11922">
		<tag k="fixme" v="consider natural=peak for the most distinct mountains in the district" />
		<tag k="name" v="Stensrudåsen" />
		<tag k="natural" v="hill" />
		<tag k="place" v="locality" />
		<tag k="ssr:stedsnr" v="779666" />
	</node>
	<node lat="59.374761114976664" lon="11.356038895441726" id="-11924">
		<tag k="name" v="Simensholen" />
		<tag k="place" v="locality" />
		<tag k="ssr:stedsnr" v="779806" />
	</node>
	<node lat="59.35905833419358" lon="11.355988895393434" id="-11925">
		<tag k="name" v="Klypeholtet" />
		<tag k="place" v="locality" />
		<tag k="ssr:stedsnr" v="779808" />
	</node>
	<node lat="59.36430555177678" lon="11.565755549139487" id="-11927">
		<tag k="name" v="Ulvedalen" />
		<tag k="natural" v="valley" />
		<tag k="place" v="locality" />
		<tag k="ssr:stedsnr" v="780164" />
	</node>
	<node lat="59.43779166832919" lon="11.471680559368956" id="-11935">
		<tag k="fixme" v="consider natural=peak for the most distinct mountains in the district" />
		<tag k="name" v="Vesle Hiesten" />
		<tag k="natural" v="hill" />
		<tag k="place" v="locality" />
		<tag k="ssr:stedsnr" v="791606" />
	</node>
	<node lat="59.39301389075569" lon="11.278325005961118" id="-11963">
		<tag k="fixme" v="consider natural=peak for the most distinct mountains in the district" />
		<tag k="name" v="Grimstadåsen" />
		<tag k="natural" v="hill" />
		<tag k="place" v="locality" />
		<tag k="ssr:stedsnr" v="913817" />
	</node>
	<node lat="59.32855555884656" lon="11.328150000199422" id="-11972">
		<tag k="fixme" v="consider natural=peak for the most distinct mountains in the district" />
		<tag k="name" v="Horntjernåsen" />
		<tag k="natural" v="hill" />
		<tag k="place" v="locality" />
		<tag k="ssr:stedsnr" v="914790" />
	</node>
	<node lat="59.26326110879741" lon="11.36055277809601" id="-11973">
		<tag k="name" v="Kudalen" />
		<tag k="natural" v="valley" />
		<tag k="place" v="locality" />
		<tag k="ssr:stedsnr" v="811131" />
	</node>
	<node lat="59.26620555682035" lon="11.370197222373138" id="-11974">
		<tag k="name" v="Gørhettene" />
		<tag k="natural" v="slope" />
		<tag k="place" v="locality" />
		<tag k="ssr:stedsnr" v="811133" />
	</node>
	<node lat="59.326991667756445" lon="11.325019439186786" id="-11975">
		<tag k="name" v="Merrabåldalen" />
		<tag k="natural" v="valley" />
		<tag k="place" v="locality" />
		<tag k="ssr:stedsnr" v="811037" />
	</node>
	<node lat="59.332094440268115" lon="11.31828332618948" id="-11976">
		<tag k="fixme" v="consider natural=peak for the most distinct mountains in the district" />
		<tag k="name" v="Mørktjernåsen" />
		<tag k="natural" v="hill" />
		<tag k="place" v="locality" />
		<tag k="ssr:stedsnr" v="811042" />
	</node>
	<node lat="59.3668055512732" lon="11.44295832423962" id="-11983">
		<tag k="name" v="Lybekk" />
		<tag k="place" v="locality" />
		<tag k="ssr:stedsnr" v="812700" />
	</node>
	<node lat="59.45515555290315" lon="11.464636116298927" id="-11988">
		<tag k="fixme" v="consider natural=peak for the most distinct mountains in the district" />
		<tag k="name" v="Morttjernshøyda" />
		<tag k="natural" v="hill" />
		<tag k="place" v="locality" />
		<tag k="ssr:stedsnr" v="840033" />
	</node>
	<node lat="59.441608332816116" lon="11.443083334250746" id="-11993">
=======
	<node id="-242188" lat="59.3152999961" lon="11.461511113">
		<tag k="name" v="Lundemoen" />
		<tag k="place" v="locality" />
		<tag k="ssr:stedsnr" v="205660" />
	</node>
	<node id="-242088" lat="59.4081444419" lon="11.2964805535">
		<tag k="fixme" v="consider natural=peak for the most distinct mountains in the district" />
		<tag k="name" v="Lauvdalsåsen" />
		<tag k="natural" v="hill" />
		<tag k="place" v="locality" />
		<tag k="ssr:stedsnr" v="143535" />
	</node>
	<node id="-242087" lat="59.4179416706" lon="11.3017055571">
		<tag k="name" v="Stendalen" />
		<tag k="natural" v="valley" />
		<tag k="place" v="locality" />
		<tag k="ssr:stedsnr" v="143528" />
	</node>
	<node id="-242597" lat="59.3643055518" lon="11.5657555491">
		<tag k="name" v="Ulvedalen" />
		<tag k="natural" v="valley" />
		<tag k="place" v="locality" />
		<tag k="ssr:stedsnr" v="780164" />
	</node>
	<node id="-242083" lat="59.3556666667" lon="11.2682666615">
		<tag k="fixme" v="consider natural=peak for the most distinct mountains in the district" />
		<tag k="name" v="Brennfjell" />
		<tag k="natural" v="hill" />
		<tag k="place" v="locality" />
		<tag k="ssr:stedsnr" v="143295" />
	</node>
	<node id="-242593" lat="59.4013305555" lon="11.5358888813">
		<tag k="fixme" v="consider natural=peak for the most distinct mountains in the district" />
		<tag k="name" v="Kråkegullåsen" />
		<tag k="natural" v="hill" />
		<tag k="place" v="locality" />
		<tag k="ssr:stedsnr" v="779881" />
	</node>
	<node id="-242589" lat="59.3590583342" lon="11.3559888954">
		<tag k="name" v="Klypeholtet" />
		<tag k="place" v="locality" />
		<tag k="ssr:stedsnr" v="779808" />
	</node>
	<node id="-242588" lat="59.374761115" lon="11.3560388954">
		<tag k="name" v="Simensholen" />
		<tag k="place" v="locality" />
		<tag k="ssr:stedsnr" v="779806" />
	</node>
	<node id="-242075" lat="59.3563999978" lon="11.2795000016">
		<tag k="name" v="Styggedalen" />
		<tag k="natural" v="valley" />
		<tag k="place" v="locality" />
		<tag k="ssr:stedsnr" v="124727" />
	</node>
	<node id="-242586" lat="59.3950166681" lon="11.5357861142">
		<tag k="name" v="Rasmuskleva" />
		<tag k="place" v="locality" />
		<tag k="ssr:stedsnr" v="779783" />
	</node>
	<node id="-242583" lat="59.4203611133" lon="11.2282861077">
		<tag k="fixme" v="consider natural=peak for the most distinct mountains in the district" />
		<tag k="name" v="Stensrudåsen" />
		<tag k="natural" v="hill" />
		<tag k="place" v="locality" />
		<tag k="ssr:stedsnr" v="779666" />
	</node>
	<node id="-242579" lat="59.4068527752" lon="11.5540638939">
		<tag k="fixme" v="consider natural=peak for the most distinct mountains in the district" />
		<tag k="name" v="Brannåsen" />
		<tag k="natural" v="hill" />
		<tag k="place" v="locality" />
		<tag k="ssr:stedsnr" v="779551" />
	</node>
	<node id="-242066" lat="59.3201499989" lon="11.3484777756">
		<tag k="alt_name" v="Brenna" />
		<tag k="fixme" v="consider natural=peak for the most distinct mountains in the district" />
		<tag k="name" v="Brennåsen" />
		<tag k="natural" v="hill" />
		<tag k="place" v="locality" />
		<tag k="ssr:stedsnr" v="123969" />
	</node>
	<node id="-242575" lat="59.3205166652" lon="11.3737972252">
		<tag k="fixme" v="consider natural=peak for the most distinct mountains in the district" />
		<tag k="name" v="Burås" />
		<tag k="natural" v="hill" />
		<tag k="place" v="locality" />
		<tag k="ssr:stedsnr" v="779432" />
	</node>
	<node id="-241547" lat="59.3443222247" lon="11.3296861147">
		<tag k="fixme" v="consider natural=peak for the most distinct mountains in the district" />
		<tag k="name" v="Korpeåsen" />
		<tag k="natural" v="hill" />
		<tag k="place" v="locality" />
		<tag k="ssr:stedsnr" v="447304" />
	</node>
	<node id="-242570" lat="59.3623277734" lon="11.3424888927">
		<tag k="name" v="Ilevollen" />
		<tag k="place" v="locality" />
		<tag k="ssr:stedsnr" v="778777" />
	</node>
	<node id="-241559" lat="59.2879777756" lon="11.3806805607">
		<tag k="fixme" v="consider natural=peak for the most distinct mountains in the district" />
		<tag k="name" v="Holtåsen" />
		<tag k="natural" v="hill" />
		<tag k="place" v="locality" />
		<tag k="ssr:stedsnr" v="669900" />
	</node>
	<node id="-241544" lat="59.4499666679" lon="11.396383334">
		<tag k="fixme" v="consider natural=peak for the most distinct mountains in the district" />
		<tag k="name" v="Husåsen" />
		<tag k="natural" v="hill" />
		<tag k="place" v="locality" />
		<tag k="ssr:stedsnr" v="658195" />
	</node>
	<node id="-242156" lat="59.4206583298" lon="11.5255555478">
		<tag k="fixme" v="consider natural=peak for the most distinct mountains in the district" />
		<tag k="name" v="Steinsvasshøgda" />
		<tag k="natural" v="hill" />
		<tag k="place" v="locality" />
		<tag k="ssr:stedsnr" v="185476" />
	</node>
	<node id="-242051" lat="59.4161083289" lon="11.5146250079">
		<tag k="fixme" v="consider natural=peak for the most distinct mountains in the district" />
		<tag k="name" v="Røsås" />
		<tag k="natural" v="hill" />
		<tag k="place" v="locality" />
		<tag k="ssr:stedsnr" v="112549" />
	</node>
	<node id="-242048" lat="59.3547305537" lon="11.5126694414">
		<tag k="fixme" v="consider natural=peak for the most distinct mountains in the district" />
		<tag k="name" v="Teppeåsen" />
		<tag k="natural" v="hill" />
		<tag k="place" v="locality" />
		<tag k="ssr:stedsnr" v="112187" />
	</node>
	<node id="-241533" lat="59.3981361116" lon="11.5101555579">
		<tag k="fixme" v="consider natural=peak for the most distinct mountains in the district" />
		<tag k="name" v="Slottsberget" />
		<tag k="natural" v="hill" />
		<tag k="place" v="locality" />
		<tag k="ssr:stedsnr" v="657750" />
	</node>
	<node id="-241215" lat="59.306076655" lon="11.5747056717">
		<tag k="fixme" v="consider natural=peak for the most distinct mountains in the district" />
		<tag k="name" v="Korpåsen" />
		<tag k="natural" v="hill" />
		<tag k="place" v="locality" />
		<tag k="ssr:stedsnr" v="233356" />
	</node>
	<node id="-242040" lat="59.410391669" lon="11.5120333301">
		<tag k="name" v="Rivoppdalen" />
		<tag k="natural" v="valley" />
		<tag k="place" v="locality" />
		<tag k="ssr:stedsnr" v="111565" />
	</node>
	<node id="-242039" lat="59.3468583341" lon="11.3390499969">
		<tag k="fixme" v="consider natural=peak for the most distinct mountains in the district" />
		<tag k="name" v="Høyås" />
		<tag k="natural" v="hill" />
		<tag k="place" v="locality" />
		<tag k="ssr:stedsnr" v="111413" />
	</node>
	<node id="-242038" lat="59.3212972263" lon="11.3718833377">
		<tag k="name" v="Jonebråtedalen" />
		<tag k="natural" v="valley" />
		<tag k="place" v="locality" />
		<tag k="ssr:stedsnr" v="111392" />
	</node>
	<node id="-242548" lat="59.338166669" lon="11.3123833396">
		<tag k="fixme" v="consider natural=peak for the most distinct mountains in the district" />
		<tag k="name" v="Svarvermoåsen" />
		<tag k="natural" v="hill" />
		<tag k="place" v="locality" />
		<tag k="ssr:stedsnr" v="750305" />
	</node>
	<node id="-242542" lat="59.2582888931" lon="11.4069638874">
		<tag k="name" v="Børkedalen" />
		<tag k="natural" v="valley" />
		<tag k="place" v="locality" />
		<tag k="ssr:stedsnr" v="629882" />
	</node>
	<node id="-241517" lat="59.3748250032" lon="11.5498055514">
		<tag k="name" v="Husedalen" />
		<tag k="natural" v="valley" />
		<tag k="place" v="locality" />
		<tag k="ssr:stedsnr" v="657137" />
	</node>
	<node id="-242539" lat="59.3703694455" lon="11.4671361107">
		<tag k="name" v="Tullopp" />
		<tag k="place" v="locality" />
		<tag k="ssr:stedsnr" v="629680" />
	</node>
	<node id="-242026" lat="59.4466138887" lon="11.3937722172">
		<tag k="fixme" v="consider natural=peak for the most distinct mountains in the district" />
		<tag k="name" v="Husåsen" />
		<tag k="natural" v="hill" />
		<tag k="place" v="locality" />
		<tag k="ssr:stedsnr" v="83617" />
	</node>
	<node id="-242534" lat="59.3255027772" lon="11.4590305526">
		<tag k="name" v="Hansedalen" />
		<tag k="natural" v="valley" />
		<tag k="place" v="locality" />
		<tag k="ssr:stedsnr" v="629639" />
	</node>
	<node id="-242021" lat="59.3533611118" lon="11.3153611128">
		<tag k="name" v="Hasseldalen" />
		<tag k="natural" v="valley" />
		<tag k="place" v="locality" />
		<tag k="ssr:stedsnr" v="83348" />
	</node>
	<node id="-242528" lat="59.4027583352" lon="11.3921777786">
		<tag k="fixme" v="consider natural=peak for the most distinct mountains in the district" />
		<tag k="name" v="Filtvetåsen" />
		<tag k="natural" v="hill" />
		<tag k="place" v="locality" />
		<tag k="ssr:stedsnr" v="629570" />
	</node>
	<node id="-242015" lat="59.2576499985" lon="11.5512555608">
		<tag k="fixme" v="multiple name tags, choose one and add the other to alt_name" />
		<tag k="name" v="Lauvlunddalen;Vargedalen" />
		<tag k="natural" v="valley" />
		<tag k="place" v="locality" />
		<tag k="ssr:stedsnr" v="64755" />
	</node>
	<node id="-241501" lat="59.3433611154" lon="11.3161194435">
		<tag k="name" v="Mørktjerndalen" />
		<tag k="natural" v="valley" />
		<tag k="place" v="locality" />
		<tag k="ssr:stedsnr" v="508359" />
	</node>
	<node id="-242523" lat="59.2937472234" lon="11.3330972218">
		<tag k="name" v="Bjørnsten" />
		<tag k="natural" v="hill" />
		<tag k="place" v="locality" />
		<tag k="ssr:stedsnr" v="629047" />
	</node>
	<node id="-241551" lat="59.3566472194" lon="11.4443583273">
		<tag k="fixme" v="consider natural=peak for the most distinct mountains in the district" />
		<tag k="name" v="Krokåsen" />
		<tag k="natural" v="hill" />
		<tag k="place" v="locality" />
		<tag k="ssr:stedsnr" v="448711" />
	</node>
	<node id="-242008" lat="59.2704749975" lon="11.3679250068">
		<tag k="fixme" v="consider natural=peak for the most distinct mountains in the district" />
		<tag k="name" v="Grimsrudfjellet" />
		<tag k="natural" v="hill" />
		<tag k="place" v="locality" />
		<tag k="ssr:stedsnr" v="63873" />
	</node>
	<node id="-242004" lat="59.3839750037" lon="11.5279000001">
		<tag k="fixme" v="consider natural=peak for the most distinct mountains in the district" />
		<tag k="name" v="Erikshøgda" />
		<tag k="natural" v="hill" />
		<tag k="place" v="locality" />
		<tag k="ssr:stedsnr" v="63565" />
	</node>
	<node id="-242515" lat="59.3246138873" lon="11.5201833336">
		<tag k="fixme" v="multiple name tags, choose one and add the other to alt_name; consider natural=peak for the most distinct mountains in the district" />
		<tag k="name" v="Ådalsåsen;Seteråsen" />
		<tag k="natural" v="hill" />
		<tag k="place" v="locality" />
		<tag k="ssr:stedsnr" v="610647" />
	</node>
	<node id="-241486" lat="59.2809194475" lon="11.383575003">
		<tag k="name" v="Skrevet" />
		<tag k="natural" v="ridge" />
		<tag k="place" v="locality" />
		<tag k="ssr:stedsnr" v="387168" />
	</node>
	<node id="-242501" lat="59.3739305535" lon="11.586638896">
		<tag k="fixme" v="consider natural=peak for the most distinct mountains in the district" />
		<tag k="name" v="Rogneberget" />
		<tag k="natural" v="hill" />
		<tag k="place" v="locality" />
		<tag k="ssr:stedsnr" v="609660" />
	</node>
	<node id="-241986" lat="59.3684305553" lon="11.5735305634">
		<tag k="name" v="Seterdalen" />
		<tag k="natural" v="valley" />
		<tag k="place" v="locality" />
		<tag k="ssr:stedsnr" v="52135" />
	</node>
	<node id="-241973" lat="59.4061722218" lon="11.2056361051">
		<tag k="fixme" v="consider natural=peak for the most distinct mountains in the district" />
		<tag k="name" v="Kongeåsen" />
		<tag k="natural" v="hill" />
		<tag k="place" v="locality" />
		<tag k="ssr:stedsnr" v="22651" />
	</node>
	<node id="-242492" lat="59.2669472226" lon="11.552686109">
		<tag k="name" v="Slaveruddalen" />
		<tag k="natural" v="valley" />
		<tag k="place" v="locality" />
		<tag k="ssr:stedsnr" v="597985" />
	</node>
	<node id="-241977" lat="59.3786138898" lon="11.4545000047">
		<tag k="name" v="Buhaugen" />
		<tag k="natural" v="hill" />
		<tag k="place" v="locality" />
		<tag k="ssr:stedsnr" v="50927" />
	</node>
	<node id="-242487" lat="59.4045333352" lon="11.4734666592">
		<tag k="fixme" v="consider natural=peak for the most distinct mountains in the district" />
		<tag k="name" v="Rambergkollen" />
		<tag k="natural" v="hill" />
		<tag k="place" v="locality" />
		<tag k="ssr:stedsnr" v="597583" />
	</node>
	<node id="-241462" lat="59.3086916637" lon="11.5285805523">
		<tag k="fixme" v="consider natural=peak for the most distinct mountains in the district" />
		<tag k="name" v="Knuvleåsen" />
		<tag k="natural" v="hill" />
		<tag k="place" v="locality" />
		<tag k="ssr:stedsnr" v="488623" />
	</node>
	<node id="-242569" lat="59.358338893" lon="11.327997218">
		<tag k="name" v="Kongehaugen" />
		<tag k="natural" v="hill" />
		<tag k="place" v="locality" />
		<tag k="ssr:stedsnr" v="778694" />
	</node>
	<node id="-242484" lat="59.4355777745" lon="11.4917305596">
		<tag k="fixme" v="consider natural=peak for the most distinct mountains in the district" />
		<tag k="name" v="Tjernemosehøgda" />
		<tag k="natural" v="hill" />
		<tag k="place" v="locality" />
		<tag k="ssr:stedsnr" v="597483" />
	</node>
	<node id="-241961" lat="59.4108305571" lon="11.2862805628">
		<tag k="fixme" v="consider natural=peak for the most distinct mountains in the district" />
		<tag k="name" v="Langbråteåsen" />
		<tag k="natural" v="hill" />
		<tag k="place" v="locality" />
		<tag k="ssr:stedsnr" v="22549" />
	</node>
	<node id="-242470" lat="59.3958888893" lon="11.4160250052">
		<tag k="fixme" v="consider natural=peak for the most distinct mountains in the district" />
		<tag k="name" v="Vestliåsen" />
		<tag k="natural" v="hill" />
		<tag k="place" v="locality" />
		<tag k="ssr:stedsnr" v="596793" />
	</node>
	<node id="-242468" lat="59.3596027749" lon="11.2870138945">
		<tag k="fixme" v="consider natural=peak for the most distinct mountains in the district" />
		<tag k="name" v="Hensfjellet" />
		<tag k="natural" v="hill" />
		<tag k="place" v="locality" />
		<tag k="ssr:stedsnr" v="596684" />
	</node>
	<node id="-242467" lat="59.3629916635" lon="11.337608339">
		<tag k="name" v="Kalveløkka" />
		<tag k="place" v="locality" />
		<tag k="ssr:stedsnr" v="596674" />
	</node>
	<node id="-241442" lat="59.3283111142" lon="11.3215555482">
		<tag k="name" v="Harebakken" />
		<tag k="natural" v="slope" />
		<tag k="place" v="locality" />
		<tag k="ssr:stedsnr" v="326031" />
	</node>
	<node id="-242465" lat="59.3208305525" lon="11.368986114">
		<tag k="name" v="Geiteklemma" />
		<tag k="place" v="locality" />
		<tag k="ssr:stedsnr" v="596395" />
	</node>
	<node id="-242464" lat="59.4710944438" lon="11.4910638829">
		<tag k="name" v="Kjørelhaugen" />
		<tag k="natural" v="hill" />
		<tag k="place" v="locality" />
		<tag k="ssr:stedsnr" v="596319" />
	</node>
	<node id="-242462" lat="59.4664388848" lon="11.4508055626">
		<tag k="fixme" v="consider natural=peak for the most distinct mountains in the district" />
		<tag k="name" v="Østre Tiurås" />
		<tag k="natural" v="hill" />
		<tag k="place" v="locality" />
		<tag k="ssr:stedsnr" v="596080" />
	</node>
	<node id="-241437" lat="59.4499722246" lon="11.5376972169">
		<tag k="fixme" v="consider natural=peak for the most distinct mountains in the district" />
		<tag k="name" v="Hatten" />
		<tag k="natural" v="hill" />
		<tag k="place" v="locality" />
		<tag k="ssr:stedsnr" v="476105" />
	</node>
	<node id="-242460" lat="59.3762179433" lon="11.3879153417">
		<tag k="name" v="Reierhaugen" />
		<tag k="natural" v="hill" />
		<tag k="place" v="locality" />
		<tag k="ssr:stedsnr" v="596008" />
	</node>
	<node id="-241434" lat="59.3515861089" lon="11.3770388872">
		<tag k="fixme" v="consider natural=peak for the most distinct mountains in the district" />
		<tag k="name" v="Ringemyråsen" />
		<tag k="natural" v="hill" />
		<tag k="place" v="locality" />
		<tag k="ssr:stedsnr" v="476033" />
	</node>
	<node id="-242455" lat="59.2927583294" lon="11.48741944">
		<tag k="fixme" v="consider natural=peak for the most distinct mountains in the district" />
		<tag k="name" v="Vardås" />
		<tag k="natural" v="hill" />
		<tag k="place" v="locality" />
		<tag k="ssr:stedsnr" v="569618" />
	</node>
	<node id="-241942" lat="59.406447223" lon="11.5357055624">
		<tag k="fixme" v="consider natural=peak for the most distinct mountains in the district" />
		<tag k="name" v="Grasås" />
		<tag k="natural" v="hill" />
		<tag k="place" v="locality" />
		<tag k="ssr:stedsnr" v="3466" />
	</node>
	<node id="-242453" lat="59.3982944418" lon="11.2551999938">
>>>>>>> e1d4bc35ff8a6074a6f2e91616a996b547c36f15
		<tag k="fixme" v="consider natural=peak for the most distinct mountains in the district" />
		<tag k="name" v="Kopperudåsen" />
		<tag k="natural" v="hill" />
		<tag k="place" v="locality" />
		<tag k="ssr:stedsnr" v="568715" />
	</node>
<<<<<<< HEAD
	<node lat="59.331655554926954" lon="11.529022228430529" id="-12001">
		<tag k="fixme" v="consider natural=peak for the most distinct mountains in the district" />
		<tag k="name" v="Brattåsen" />
		<tag k="natural" v="hill" />
		<tag k="place" v="locality" />
		<tag k="ssr:stedsnr" v="853602" />
	</node>
	<node lat="59.36718610805498" lon="11.26624443791751" id="-12010">
		<tag k="fixme" v="consider natural=peak for the most distinct mountains in the district" />
		<tag k="name" v="Rudhyttåsen" />
		<tag k="natural" v="hill" />
		<tag k="place" v="locality" />
		<tag k="ssr:stedsnr" v="853852" />
	</node>
	<node lat="59.35678611313423" lon="11.322749993389804" id="-12014">
		<tag k="fixme" v="consider natural=peak for the most distinct mountains in the district" />
		<tag k="name" v="Sparreåsen" />
		<tag k="natural" v="hill" />
		<tag k="place" v="locality" />
		<tag k="ssr:stedsnr" v="933361" />
	</node>
	<node lat="59.30423091122226" lon="11.475054147575452" id="-12020">
		<tag k="name" v="Hellerdalen" />
		<tag k="natural" v="valley" />
		<tag k="place" v="locality" />
		<tag k="ssr:stedsnr" v="933666" />
	</node>
	<node lat="59.319680557334216" lon="11.473591670820625" id="-12023">
		<tag k="fixme" v="consider natural=peak for the most distinct mountains in the district" />
		<tag k="name" v="Lundeåsen" />
		<tag k="natural" v="hill" />
		<tag k="place" v="locality" />
		<tag k="ssr:stedsnr" v="933672" />
	</node>
	<node lat="59.32606388869151" lon="11.504897214605418" id="-12024">
		<tag k="fixme" v="consider natural=peak for the most distinct mountains in the district" />
		<tag k="name" v="Sagåsen" />
		<tag k="natural" v="hill" />
		<tag k="place" v="locality" />
		<tag k="ssr:stedsnr" v="933673" />
	</node>
	<node lat="59.366958329294825" lon="11.391316672971785" id="-12033">
		<tag k="name" v="Møllerhaugen" />
		<tag k="natural" v="hill" />
		<tag k="place" v="locality" />
		<tag k="ssr:stedsnr" v="900002" />
	</node>
	<node lat="59.36502812711361" lon="11.35546181468917" id="-12042">
		<tag k="name" v="Smieåsen" />
		<tag k="natural" v="hill" />
		<tag k="place" v="locality" />
		<tag k="ssr:stedsnr" v="900802" />
	</node>
	<node lat="59.36562777608703" lon="11.506558328109648" id="-12046">
		<tag k="name" v="Hasselkleva" />
		<tag k="natural" v="slope" />
		<tag k="place" v="locality" />
		<tag k="ssr:stedsnr" v="901009" />
	</node>
	<node lat="59.279650000499785" lon="11.356522214858748" id="-12055">
		<tag k="fixme" v="consider natural=peak for the most distinct mountains in the district" />
		<tag k="name" v="Nattjernfjellet" />
		<tag k="natural" v="hill" />
		<tag k="place" v="locality" />
		<tag k="ssr:stedsnr" v="912898" />
	</node>
	<node lat="59.34531388607869" lon="11.295041668577463" id="-12065">
		<tag k="fixme" v="consider natural=peak for the most distinct mountains in the district" />
		<tag k="name" v="Hensåsen" />
		<tag k="natural" v="hill" />
		<tag k="place" v="locality" />
		<tag k="ssr:stedsnr" v="913787" />
	</node>
	<node lat="59.281161114481634" lon="11.386755564017012" id="-12070">
		<tag k="fixme" v="consider natural=peak for the most distinct mountains in the district" />
		<tag k="name" v="Ørnåsen" />
		<tag k="natural" v="hill" />
		<tag k="place" v="locality" />
		<tag k="ssr:stedsnr" v="933149" />
	</node>
	<node lat="59.3922527791133" lon="11.33561666169845" id="-12073">
		<tag k="fixme" v="consider natural=peak for the most distinct mountains in the district" />
		<tag k="name" v="Sadelmakeråsen" />
		<tag k="natural" v="hill" />
		<tag k="place" v="locality" />
		<tag k="ssr:stedsnr" v="933598" />
	</node>
	<node lat="59.3581166657724" lon="11.453677777299891" id="-12074">
		<tag k="fixme" v="consider natural=peak for the most distinct mountains in the district" />
		<tag k="name" v="Skalleåsen" />
		<tag k="natural" v="hill" />
		<tag k="place" v="locality" />
		<tag k="ssr:stedsnr" v="933705" />
	</node>
	<node lat="59.39390833747721" lon="11.542872228667672" id="-12080">
		<tag k="name" v="Gatemoen" />
		<tag k="place" v="locality" />
		<tag k="ssr:stedsnr" v="961805" />
	</node>
	<node lat="59.369472220581486" lon="11.377111107364323" id="-12083">
		<tag k="fixme" v="consider natural=peak for the most distinct mountains in the district" />
		<tag k="name" v="Sankthansåsen" />
		<tag k="natural" v="hill" />
		<tag k="place" v="locality" />
		<tag k="ssr:stedsnr" v="961846" />
	</node>
	<node lat="59.34648332953306" lon="11.51033332702077" id="-12086">
		<tag k="name" v="Skredderholtene" />
		<tag k="place" v="locality" />
		<tag k="ssr:stedsnr" v="962146" />
	</node>
	<node lat="59.34210000452073" lon="11.520072218822946" id="-12088">
		<tag k="name" v="Slettemoen" />
		<tag k="place" v="locality" />
		<tag k="ssr:stedsnr" v="962946" />
	</node>
	<node lat="59.287236107583055" lon="11.327788881537824" id="-12110">
		<tag k="fixme" v="consider natural=peak for the most distinct mountains in the district" />
		<tag k="name" v="Høgnipen" />
		<tag k="natural" v="hill" />
		<tag k="place" v="locality" />
		<tag k="ssr:stedsnr" v="2891" />
	</node>
	<node lat="59.25205000392793" lon="11.395133339746835" id="-12111">
		<tag k="fixme" v="consider natural=peak for the most distinct mountains in the district" />
		<tag k="name" v="Stiksåsen" />
		<tag k="natural" v="hill" />
		<tag k="place" v="locality" />
		<tag k="ssr:stedsnr" v="2916" />
	</node>
	<node lat="59.40644722299573" lon="11.535705562354039" id="-12113">
		<tag k="fixme" v="consider natural=peak for the most distinct mountains in the district" />
		<tag k="name" v="Grasås" />
		<tag k="natural" v="hill" />
		<tag k="place" v="locality" />
		<tag k="ssr:stedsnr" v="3466" />
	</node>
	<node lat="59.41083055714077" lon="11.286280562777668" id="-12135">
		<tag k="fixme" v="consider natural=peak for the most distinct mountains in the district" />
		<tag k="name" v="Langbråteåsen" />
		<tag k="natural" v="hill" />
		<tag k="place" v="locality" />
		<tag k="ssr:stedsnr" v="22549" />
	</node>
	<node lat="59.40617222182665" lon="11.205636105078064" id="-12137">
		<tag k="fixme" v="consider natural=peak for the most distinct mountains in the district" />
		<tag k="name" v="Kongeåsen" />
		<tag k="natural" v="hill" />
		<tag k="place" v="locality" />
		<tag k="ssr:stedsnr" v="22651" />
	</node>
	<node lat="59.37861388977845" lon="11.45450000466352" id="-12144">
		<tag k="name" v="Buhaugen" />
		<tag k="natural" v="hill" />
		<tag k="place" v="locality" />
		<tag k="ssr:stedsnr" v="50927" />
	</node>
	<node lat="59.362130557591755" lon="11.349955560338064" id="-12146">
		<tag k="name" v="Skrabben" />
		<tag k="natural" v="hill" />
		<tag k="place" v="locality" />
		<tag k="ssr:stedsnr" v="51457" />
	</node>
	<node lat="59.36843055528937" lon="11.573530563428458" id="-12151">
		<tag k="name" v="Seterdalen" />
		<tag k="natural" v="valley" />
		<tag k="place" v="locality" />
		<tag k="ssr:stedsnr" v="52135" />
	</node>
	<node lat="59.33592777967605" lon="11.571527772436777" id="-12152">
		<tag k="fixme" v="consider natural=peak for the most distinct mountains in the district" />
		<tag k="name" v="Seteråsen" />
		<tag k="natural" v="hill" />
		<tag k="place" v="locality" />
		<tag k="ssr:stedsnr" v="52164" />
	</node>
	<node lat="59.466374996777226" lon="11.410800004604502" id="-12158">
		<tag k="fixme" v="consider natural=peak for the most distinct mountains in the district" />
		<tag k="name" v="Festningshøgda" />
		<tag k="natural" v="hill" />
		<tag k="place" v="locality" />
		<tag k="ssr:stedsnr" v="63029" />
	</node>
	<node lat="59.27047499745082" lon="11.367925006774218" id="-12166">
		<tag k="fixme" v="consider natural=peak for the most distinct mountains in the district" />
		<tag k="name" v="Grimsrudfjellet" />
		<tag k="natural" v="hill" />
		<tag k="place" v="locality" />
		<tag k="ssr:stedsnr" v="63873" />
	</node>
	<node lat="59.35336111178532" lon="11.315361112763938" id="-12177">
		<tag k="name" v="Hasseldalen" />
		<tag k="natural" v="valley" />
		<tag k="place" v="locality" />
		<tag k="ssr:stedsnr" v="83348" />
	</node>
	<node lat="59.2745888845582" lon="11.36753333669868" id="-12178">
		<tag k="name" v="Nattjerndalen" />
		<tag k="natural" v="valley" />
		<tag k="place" v="locality" />
		<tag k="ssr:stedsnr" v="84172" />
	</node>
	<node lat="59.446613888741055" lon="11.393772217230174" id="-12179">
		<tag k="fixme" v="consider natural=peak for the most distinct mountains in the district" />
		<tag k="name" v="Husåsen" />
		<tag k="natural" v="hill" />
		<tag k="place" v="locality" />
		<tag k="ssr:stedsnr" v="83617" />
	</node>
	<node lat="59.403827778644086" lon="11.286097223689776" id="-12183">
		<tag k="fixme" v="consider natural=peak for the most distinct mountains in the district" />
		<tag k="name" v="Gråmerråsen" />
		<tag k="natural" v="hill" />
		<tag k="place" v="locality" />
		<tag k="ssr:stedsnr" v="83568" />
	</node>
	<node lat="59.40329444529417" lon="11.321113893541858" id="-12184">
		<tag k="fixme" v="consider natural=peak for the most distinct mountains in the district" />
		<tag k="name" v="Slottåsen" />
		<tag k="natural" v="hill" />
		<tag k="place" v="locality" />
		<tag k="ssr:stedsnr" v="83570" />
	</node>
	<node lat="59.37359166379051" lon="11.493402771314788" id="-12187">
		<tag k="fixme" v="consider natural=peak for the most distinct mountains in the district" />
		<tag k="name" v="Ulveåsen" />
		<tag k="natural" v="hill" />
		<tag k="place" v="locality" />
		<tag k="ssr:stedsnr" v="83671" />
	</node>
	<node lat="59.321297226338714" lon="11.37188333772148" id="-12192">
		<tag k="name" v="Jonebråtedalen" />
		<tag k="natural" v="valley" />
		<tag k="place" v="locality" />
		<tag k="ssr:stedsnr" v="111392" />
	</node>
	<node lat="59.41039166899679" lon="11.512033330070988" id="-12194">
		<tag k="name" v="Rivoppdalen" />
		<tag k="natural" v="valley" />
		<tag k="place" v="locality" />
		<tag k="ssr:stedsnr" v="111565" />
	</node>
	<node lat="59.35473055370612" lon="11.512669441372209" id="-12208">
		<tag k="fixme" v="consider natural=peak for the most distinct mountains in the district" />
		<tag k="name" v="Teppeåsen" />
		<tag k="natural" v="hill" />
		<tag k="place" v="locality" />
		<tag k="ssr:stedsnr" v="112187" />
	</node>
	<node lat="59.416108328882316" lon="11.514625007883293" id="-12210">
		<tag k="fixme" v="consider natural=peak for the most distinct mountains in the district" />
		<tag k="name" v="Røsås" />
		<tag k="natural" v="hill" />
		<tag k="place" v="locality" />
		<tag k="ssr:stedsnr" v="112549" />
	</node>
	<node lat="59.32014999893432" lon="11.3484777755709" id="-12218">
		<tag k="alt_name" v="Brenna" />
=======
	<node id="-242452" lat="59.3811749984" lon="11.2779916741">
		<tag k="fixme" v="consider natural=peak for the most distinct mountains in the district" />
		<tag k="name" v="Gautestadåsen" />
		<tag k="natural" v="hill" />
		<tag k="place" v="locality" />
		<tag k="ssr:stedsnr" v="568712" />
	</node>
	<node id="-241427" lat="59.3760861073" lon="11.370602782">
		<tag k="fixme" v="consider natural=peak for the most distinct mountains in the district" />
		<tag k="name" v="Ingridåsen" />
		<tag k="natural" v="hill" />
		<tag k="place" v="locality" />
		<tag k="ssr:stedsnr" v="475810" />
	</node>
	<node id="-241222" lat="59.3229651149" lon="11.3377768552">
		<tag k="name" v="Lundsbekken" />
		<tag k="natural" v="hill" />
		<tag k="place" v="locality" />
		<tag k="ssr:stedsnr" v="233640" />
	</node>
	<node id="-241927" lat="59.4613968238" lon="11.5047226532">
		<tag k="name" v="Fjella" />
		<tag k="natural" v="wood" />
		<tag k="ssr:stedsnr" v="984407" />
	</node>
	<node id="-242438" lat="59.3209611099" lon="11.3079666649">
		<tag k="name" v="Bjørndalen" />
		<tag k="natural" v="valley" />
		<tag k="place" v="locality" />
		<tag k="ssr:stedsnr" v="568030" />
	</node>
	<node id="-242437" lat="59.3303805573" lon="11.3221777762">
		<tag k="name" v="Skatsdalen" />
		<tag k="natural" v="valley" />
		<tag k="place" v="locality" />
		<tag k="ssr:stedsnr" v="568027" />
	</node>
	<node id="-241921" lat="59.3939083375" lon="11.5428722287">
		<tag k="name" v="Gatemoen" />
		<tag k="place" v="locality" />
		<tag k="ssr:stedsnr" v="961805" />
	</node>
	<node id="-241408" lat="59.3708333378" lon="11.549577777">
		<tag k="name" v="Harelia" />
		<tag k="natural" v="slope" />
		<tag k="place" v="locality" />
		<tag k="ssr:stedsnr" v="475123" />
	</node>
	<node id="-241536" lat="59.3680055577" lon="11.3579833364">
		<tag k="fixme" v="consider natural=peak for the most distinct mountains in the district" />
		<tag k="name" v="Jensekollen" />
		<tag k="natural" v="hill" />
		<tag k="place" v="locality" />
		<tag k="ssr:stedsnr" v="657777" />
	</node>
	<node id="-242427" lat="59.2676333345" lon="11.4723916696">
		<tag k="fixme" v="consider natural=peak for the most distinct mountains in the district" />
		<tag k="name" v="Greåkeråsen" />
		<tag k="natural" v="hill" />
		<tag k="place" v="locality" />
		<tag k="ssr:stedsnr" v="549701" />
	</node>
	<node id="-241402" lat="59.4406055581" lon="11.4274888974">
		<tag k="name" v="Kvernhusdalen" />
		<tag k="natural" v="valley" />
		<tag k="place" v="locality" />
		<tag k="ssr:stedsnr" v="294506" />
	</node>
	<node id="-241554" lat="59.2467249995" lon="11.4024055472">
		<tag k="alt_name" v="Høyås (Soteås)" />
		<tag k="fixme" v="consider natural=peak for the most distinct mountains in the district" />
		<tag k="name" v="Såteås" />
		<tag k="natural" v="hill" />
		<tag k="place" v="locality" />
		<tag k="ssr:stedsnr" v="668593" />
	</node>
	<node id="-241620" lat="59.3198166643" lon="11.4451972165">
		<tag k="name" v="Bratta" />
		<tag k="natural" v="hill" />
		<tag k="place" v="locality" />
		<tag k="ssr:stedsnr" v="690682" />
	</node>
	<node id="-241396" lat="59.3701916643" lon="11.5712694465">
		<tag k="alt_name" v="Sjøljaoksene" />
		<tag k="fixme" v="consider natural=peak for the most distinct mountains in the district" />
		<tag k="name" v="Sjøloksen" />
		<tag k="natural" v="hill" />
		<tag k="place" v="locality" />
		<tag k="ssr:stedsnr" v="245669" />
	</node>
	<node id="-241907" lat="59.3656277761" lon="11.5065583281">
		<tag k="name" v="Hasselkleva" />
		<tag k="natural" v="slope" />
		<tag k="place" v="locality" />
		<tag k="ssr:stedsnr" v="901009" />
	</node>
	<node id="-241905" lat="59.4429777819" lon="11.4747749954">
		<tag k="fixme" v="consider natural=peak for the most distinct mountains in the district" />
		<tag k="name" v="Hostenshøyda" />
		<tag k="natural" v="hill" />
		<tag k="place" v="locality" />
		<tag k="ssr:stedsnr" v="901125" />
	</node>
	<node id="-241362" lat="59.4348027785" lon="11.5011972196">
		<tag k="fixme" v="consider natural=peak for the most distinct mountains in the district" />
		<tag k="name" v="Villås" />
		<tag k="natural" v="hill" />
		<tag k="place" v="locality" />
		<tag k="ssr:stedsnr" v="294498" />
	</node>
	<node id="-241898" lat="59.3930888881" lon="11.5558472165">
		<tag k="name" v="Sevedalen" />
		<tag k="natural" v="valley" />
		<tag k="place" v="locality" />
		<tag k="ssr:stedsnr" v="900766" />
	</node>
	<node id="-241385" lat="59.3795083365" lon="11.3645999967">
		<tag k="name" v="Hellevadet" />
		<tag k="place" v="locality" />
		<tag k="ssr:stedsnr" v="447594" />
	</node>
	<node id="-242407" lat="59.4565055512" lon="11.4026972227">
		<tag k="fixme" v="consider natural=peak for the most distinct mountains in the district" />
		<tag k="name" v="Utsikten" />
		<tag k="natural" v="hill" />
		<tag k="place" v="locality" />
		<tag k="ssr:stedsnr" v="548244" />
	</node>
	<node id="-241378" lat="59.4293222191" lon="11.2323638942">
		<tag k="fixme" v="consider natural=peak for the most distinct mountains in the district" />
		<tag k="name" v="Ørkelåsen" />
		<tag k="natural" v="hill" />
		<tag k="place" v="locality" />
		<tag k="ssr:stedsnr" v="447476" />
	</node>
	<node id="-241888" lat="59.4201722258" lon="11.3547055509">
		<tag k="name" v="Bergenhuskleiva" />
		<tag k="natural" v="slope" />
		<tag k="place" v="locality" />
		<tag k="ssr:stedsnr" v="872609" />
	</node>
	<node id="-241883" lat="59.3657166682" lon="11.5830583314">
		<tag k="fixme" v="consider natural=peak for the most distinct mountains in the district" />
		<tag k="name" v="Linnekleppen" />
		<tag k="natural" v="hill" />
		<tag k="place" v="locality" />
		<tag k="ssr:stedsnr" v="853678" />
	</node>
	<node id="-242393" lat="59.3317666704" lon="11.5592194452">
		<tag k="fixme" v="consider natural=peak for the most distinct mountains in the district" />
		<tag k="name" v="Kilebuåsen" />
		<tag k="natural" v="hill" />
		<tag k="place" v="locality" />
		<tag k="ssr:stedsnr" v="537068" />
	</node>
	<node id="-241879" lat="59.3993500034" lon="11.2217999981">
		<tag k="fixme" v="consider natural=peak for the most distinct mountains in the district" />
		<tag k="name" v="Hedenåsen" />
		<tag k="natural" v="hill" />
		<tag k="place" v="locality" />
		<tag k="ssr:stedsnr" v="852823" />
	</node>
	<node id="-242390" lat="59.317586107" lon="11.3763333253">
		<tag k="name" v="Melkebakke" />
		<tag k="natural" v="slope" />
		<tag k="place" v="locality" />
		<tag k="ssr:stedsnr" v="536618" />
	</node>
	<node id="-241364" lat="59.4176805527" lon="11.4949638953">
		<tag k="name" v="Halakleva" />
		<tag k="place" v="locality" />
		<tag k="ssr:stedsnr" v="294501" />
	</node>
	<node id="-242386" lat="59.3553861145" lon="11.3478166652">
		<tag k="name" v="Brenna" />
		<tag k="natural" v="hill" />
		<tag k="place" v="locality" />
		<tag k="ssr:stedsnr" v="536384" />
	</node>
	<node id="-241528" lat="59.381130555" lon="11.5850222303">
		<tag k="fixme" v="consider natural=peak for the most distinct mountains in the district" />
		<tag k="name" v="Skottjernhøyda" />
		<tag k="natural" v="hill" />
		<tag k="place" v="locality" />
		<tag k="ssr:stedsnr" v="657959" />
	</node>
	<node id="-241870" lat="59.4124916679" lon="11.2486000043">
		<tag k="fixme" v="consider natural=peak for the most distinct mountains in the district" />
		<tag k="name" v="Grytelandshøgda" />
		<tag k="natural" v="hill" />
		<tag k="place" v="locality" />
		<tag k="ssr:stedsnr" v="840663" />
	</node>
	<node id="-241868" lat="59.3696444429" lon="11.3428527817">
		<tag k="name" v="Hestehagen" />
		<tag k="place" v="locality" />
		<tag k="ssr:stedsnr" v="840819" />
	</node>
	<node id="-241866" lat="59.3004166646" lon="11.5515944405">
		<tag k="fixme" v="consider natural=peak for the most distinct mountains in the district" />
		<tag k="name" v="Kroktjernkollen" />
		<tag k="natural" v="hill" />
		<tag k="place" v="locality" />
		<tag k="ssr:stedsnr" v="840361" />
	</node>
	<node id="-241527" lat="59.3469555538" lon="11.371333333">
		<tag k="fixme" v="consider natural=peak for the most distinct mountains in the district" />
		<tag k="name" v="Kjeleåsen" />
		<tag k="natural" v="hill" />
		<tag k="place" v="locality" />
		<tag k="ssr:stedsnr" v="657450" />
	</node>
	<node id="-241356" lat="59.4573777759" lon="11.4739055611">
		<tag k="fixme" v="consider natural=peak for the most distinct mountains in the district" />
		<tag k="name" v="Tjoremyrhøyda" />
		<tag k="natural" v="hill" />
		<tag k="place" v="locality" />
		<tag k="ssr:stedsnr" v="294034" />
	</node>
	<node id="-241989" lat="59.4663749968" lon="11.4108000046">
		<tag k="fixme" v="consider natural=peak for the most distinct mountains in the district" />
		<tag k="name" v="Festningshøgda" />
		<tag k="natural" v="hill" />
		<tag k="place" v="locality" />
		<tag k="ssr:stedsnr" v="63029" />
	</node>
	<node id="-242373" lat="59.2866972257" lon="11.4909499984">
		<tag k="name" v="Seterdalen" />
		<tag k="natural" v="valley" />
		<tag k="place" v="locality" />
		<tag k="ssr:stedsnr" v="428650" />
	</node>
	<node id="-242372" lat="59.4151527773" lon="11.4786500009">
		<tag k="alt_name" v="Tostenås" />
		<tag k="fixme" v="consider natural=peak for the most distinct mountains in the district" />
		<tag k="name" v="Tostenåsen" />
		<tag k="natural" v="hill" />
		<tag k="place" v="locality" />
		<tag k="ssr:stedsnr" v="428489" />
	</node>
	<node id="-241857" lat="59.3260638887" lon="11.5048972146">
		<tag k="fixme" v="consider natural=peak for the most distinct mountains in the district" />
		<tag k="name" v="Sagåsen" />
		<tag k="natural" v="hill" />
		<tag k="place" v="locality" />
		<tag k="ssr:stedsnr" v="933673" />
	</node>
	<node id="-241856" lat="59.3196805573" lon="11.4735916708">
		<tag k="fixme" v="consider natural=peak for the most distinct mountains in the district" />
		<tag k="name" v="Lundeåsen" />
		<tag k="natural" v="hill" />
		<tag k="place" v="locality" />
		<tag k="ssr:stedsnr" v="933672" />
	</node>
	<node id="-241342" lat="59.4764361079" lon="11.4045250065">
		<tag k="alt_name" v="Glørudås" />
>>>>>>> e1d4bc35ff8a6074a6f2e91616a996b547c36f15
		<tag k="fixme" v="consider natural=peak for the most distinct mountains in the district" />
		<tag k="name" v="Glørudåsen" />
		<tag k="natural" v="hill" />
		<tag k="place" v="locality" />
		<tag k="ssr:stedsnr" v="184005" />
	</node>
	<node id="-241853" lat="59.3042309112" lon="11.4750541476">
		<tag k="name" v="Hellerdalen" />
		<tag k="natural" v="valley" />
		<tag k="place" v="locality" />
		<tag k="ssr:stedsnr" v="933666" />
	</node>
<<<<<<< HEAD
	<node lat="59.35566666672676" lon="11.268266661499746" id="-12229">
		<tag k="fixme" v="consider natural=peak for the most distinct mountains in the district" />
		<tag k="name" v="Brennfjell" />
		<tag k="natural" v="hill" />
		<tag k="place" v="locality" />
		<tag k="ssr:stedsnr" v="143295" />
	</node>
	<node lat="59.46980833386633" lon="11.445525001636659" id="-12237">
		<tag k="fixme" v="consider natural=peak for the most distinct mountains in the district" />
		<tag k="name" v="Vestre Tiurås" />
		<tag k="natural" v="hill" />
		<tag k="place" v="locality" />
		<tag k="ssr:stedsnr" v="172084" />
	</node>
	<node lat="59.41511111198597" lon="11.532283324769452" id="-12244">
		<tag k="name" v="Bårdsdråga" />
		<tag k="natural" v="slope" />
		<tag k="place" v="locality" />
		<tag k="ssr:stedsnr" v="172576" />
	</node>
	<node lat="59.35703055838516" lon="11.361355559043787" id="-12256">
		<tag k="fixme" v="consider natural=peak for the most distinct mountains in the district" />
		<tag k="name" v="Fjøshytteåsen" />
		<tag k="natural" v="hill" />
		<tag k="place" v="locality" />
		<tag k="ssr:stedsnr" v="172843" />
	</node>
	<node lat="59.25322777672856" lon="11.510591671427939" id="-12257">
		<tag k="fixme" v="consider natural=peak for the most distinct mountains in the district" />
		<tag k="name" v="Bislingnuten" />
		<tag k="natural" v="hill" />
		<tag k="place" v="locality" />
		<tag k="ssr:stedsnr" v="173951" />
	</node>
	<node lat="59.476436107859904" lon="11.404525006475733" id="-12262">
		<tag k="alt_name" v="Glørudås" />
		<tag k="fixme" v="consider natural=peak for the most distinct mountains in the district" />
		<tag k="name" v="Glørudåsen" />
		<tag k="natural" v="hill" />
		<tag k="place" v="locality" />
		<tag k="ssr:stedsnr" v="184005" />
	</node>
	<node lat="59.4423555581879" lon="11.477288897784401" id="-12266">
		<tag k="fixme" v="consider natural=peak for the most distinct mountains in the district" />
		<tag k="name" v="Store Hiesten" />
		<tag k="natural" v="hill" />
		<tag k="place" v="locality" />
		<tag k="ssr:stedsnr" v="184629" />
	</node>
	<node lat="59.29793055143022" lon="11.427500004973915" id="-12271">
		<tag k="fixme" v="consider natural=peak for the most distinct mountains in the district" />
		<tag k="name" v="Julsrudkollen" />
		<tag k="natural" v="hill" />
		<tag k="place" v="locality" />
		<tag k="ssr:stedsnr" v="184994" />
	</node>
	<node lat="59.42065832979834" lon="11.525555547793346" id="-12274">
		<tag k="fixme" v="consider natural=peak for the most distinct mountains in the district" />
		<tag k="name" v="Steinsvasshøgda" />
		<tag k="natural" v="hill" />
		<tag k="place" v="locality" />
		<tag k="ssr:stedsnr" v="185476" />
	</node>
	<node lat="59.34177424718614" lon="11.345908571107005" id="-12276">
		<tag k="fixme" v="consider natural=peak for the most distinct mountains in the district" />
		<tag k="name" v="Lundsvarden" />
		<tag k="natural" v="hill" />
		<tag k="place" v="locality" />
		<tag k="ssr:stedsnr" v="185781" />
	</node>
	<node lat="59.330583333822446" lon="11.329152777776612" id="-12278">
		<tag k="name" v="Kula" />
		<tag k="natural" v="hill" />
		<tag k="place" v="locality" />
		<tag k="ssr:stedsnr" v="204022" />
	</node>
	<node lat="59.32716944227147" lon="11.307813896965614" id="-12279">
		<tag k="name" v="Kubakken" />
		<tag k="natural" v="slope" />
		<tag k="place" v="locality" />
		<tag k="ssr:stedsnr" v="204034" />
	</node>
	<node lat="59.42353333154723" lon="11.2058444424012" id="-12280">
		<tag k="name" v="Kastet" />
		<tag k="natural" v="slope" />
		<tag k="place" v="locality" />
		<tag k="ssr:stedsnr" v="204471" />
	</node>
	<node lat="59.380186108855085" lon="11.35268888618753" id="-12283">
		<tag k="name" v="Bekkehusdalen" />
		<tag k="natural" v="valley" />
		<tag k="place" v="locality" />
		<tag k="ssr:stedsnr" v="204578" />
	</node>
	<node lat="59.377430552506496" lon="11.496452780644375" id="-12287">
		<tag k="name" v="Sankerud" />
		<tag k="place" v="locality" />
		<tag k="ssr:stedsnr" v="204642" />
	</node>
	<node lat="59.263913890192214" lon="11.41247777737967" id="-12289">
		<tag k="name" v="Morttjerndalen" />
		<tag k="natural" v="valley" />
		<tag k="place" v="locality" />
		<tag k="ssr:stedsnr" v="204881" />
	</node>
	<node lat="59.31529999608727" lon="11.461511113021283" id="-12293">
		<tag k="name" v="Lundemoen" />
		<tag k="place" v="locality" />
		<tag k="ssr:stedsnr" v="205660" />
	</node>
	<node lat="59.31848610918272" lon="11.424844443849384" id="-12295">
		<tag k="fixme" v="consider natural=peak for the most distinct mountains in the district" />
		<tag k="name" v="Heieråsen" />
		<tag k="natural" v="hill" />
		<tag k="place" v="locality" />
		<tag k="ssr:stedsnr" v="205670" />
	</node>
	<node lat="59.457377775938795" lon="11.473905561091547" id="-12299">
		<tag k="fixme" v="consider natural=peak for the most distinct mountains in the district" />
		<tag k="name" v="Tjoremyrhøyda" />
		<tag k="natural" v="hill" />
		<tag k="place" v="locality" />
		<tag k="ssr:stedsnr" v="294034" />
	</node>
	<node lat="59.43480277848839" lon="11.501197219631338" id="-12307">
		<tag k="fixme" v="consider natural=peak for the most distinct mountains in the district" />
		<tag k="name" v="Villås" />
		<tag k="natural" v="hill" />
		<tag k="place" v="locality" />
		<tag k="ssr:stedsnr" v="294498" />
	</node>
	<node lat="59.417680552688324" lon="11.494963895336163" id="-12309">
		<tag k="name" v="Halakleva" />
		<tag k="place" v="locality" />
		<tag k="ssr:stedsnr" v="294501" />
	</node>
	<node lat="59.290805558221294" lon="11.555597222918662" id="-12329">
		<tag k="alt_name" v="Hivasskollen" />
		<tag k="fixme" v="consider natural=peak for the most distinct mountains in the district" />
		<tag k="name" v="Hivannskollen" />
		<tag k="natural" v="hill" />
		<tag k="place" v="locality" />
		<tag k="ssr:stedsnr" v="306655" />
	</node>
	<node lat="59.38351111157443" lon="11.344402785013623" id="-12339">
		<tag k="fixme" v="consider natural=peak for the most distinct mountains in the district" />
		<tag k="name" v="Korpeåsen" />
		<tag k="natural" v="hill" />
		<tag k="place" v="locality" />
		<tag k="ssr:stedsnr" v="325570" />
	</node>
	<node lat="59.30185277368347" lon="11.513480549478244" id="-12343">
		<tag k="fixme" v="consider natural=peak for the most distinct mountains in the district" />
		<tag k="name" v="Høyås" />
		<tag k="natural" v="hill" />
		<tag k="place" v="locality" />
		<tag k="ssr:stedsnr" v="325174" />
	</node>
	<node lat="59.42203610761904" lon="11.303366666026292" id="-12345">
		<tag k="fixme" v="consider natural=peak for the most distinct mountains in the district" />
		<tag k="name" v="Tøfteåsen" />
		<tag k="natural" v="hill" />
		<tag k="place" v="locality" />
		<tag k="ssr:stedsnr" v="325599" />
	</node>
	<node lat="59.345513888249094" lon="11.479736107223896" id="-12349">
		<tag k="name" v="Kinneren" />
		<tag k="place" v="locality" />
		<tag k="ssr:stedsnr" v="326687" />
	</node>
	<node lat="59.341350003470446" lon="11.366458339465035" id="-12358">
		<tag k="fixme" v="consider natural=peak for the most distinct mountains in the district" />
		<tag k="name" v="Latåsen" />
		<tag k="natural" v="hill" />
		<tag k="place" v="locality" />
		<tag k="ssr:stedsnr" v="354446" />
	</node>
	<node lat="59.47932777857213" lon="11.414355561415134" id="-12362">
		<tag k="fixme" v="consider natural=peak for the most distinct mountains in the district" />
		<tag k="name" v="Klemmeåsen" />
		<tag k="natural" v="hill" />
		<tag k="place" v="locality" />
		<tag k="ssr:stedsnr" v="354023" />
	</node>
	<node lat="59.31743055767045" lon="11.36862499937844" id="-12366">
		<tag k="fixme" v="consider natural=peak for the most distinct mountains in the district" />
		<tag k="name" v="Melkebakkekollen" />
		<tag k="natural" v="hill" />
		<tag k="place" v="locality" />
		<tag k="ssr:stedsnr" v="354642" />
	</node>
	<node lat="59.31854444271963" lon="11.569669441644377" id="-12369">
		<tag k="fixme" v="consider natural=peak for the most distinct mountains in the district" />
		<tag k="name" v="Brodalsåsen" />
		<tag k="natural" v="hill" />
		<tag k="place" v="locality" />
		<tag k="ssr:stedsnr" v="355082" />
	</node>
	<node lat="59.29427777768457" lon="11.575477781468441" id="-12393">
=======
	<node id="-241183" lat="59.2520500039" lon="11.3951333397">
		<tag k="fixme" v="consider natural=peak for the most distinct mountains in the district" />
		<tag k="name" v="Stiksåsen" />
		<tag k="natural" v="hill" />
		<tag k="place" v="locality" />
		<tag k="ssr:stedsnr" v="2916" />
	</node>
	<node id="-241848" lat="59.3581166658" lon="11.4536777773">
		<tag k="fixme" v="consider natural=peak for the most distinct mountains in the district" />
		<tag k="name" v="Skalleåsen" />
		<tag k="natural" v="hill" />
		<tag k="place" v="locality" />
		<tag k="ssr:stedsnr" v="933705" />
	</node>
	<node id="-241847" lat="59.3922527791" lon="11.3356166617">
		<tag k="fixme" v="consider natural=peak for the most distinct mountains in the district" />
		<tag k="name" v="Sadelmakeråsen" />
		<tag k="natural" v="hill" />
		<tag k="place" v="locality" />
		<tag k="ssr:stedsnr" v="933598" />
	</node>
	<node id="-241504" lat="59.3385805539" lon="11.4984972244">
		<tag k="name" v="Uttisrudbråten" />
		<tag k="place" v="locality" />
		<tag k="ssr:stedsnr" v="508667" />
	</node>
	<node id="-241332" lat="59.3700638909" lon="11.4387249923">
		<tag k="fixme" v="consider natural=peak for the most distinct mountains in the district" />
		<tag k="name" v="Skadeåsen" />
		<tag k="natural" v="hill" />
		<tag k="place" v="locality" />
		<tag k="ssr:stedsnr" v="266660" />
	</node>
	<node id="-241842" lat="59.3567861131" lon="11.3227499934">
		<tag k="fixme" v="consider natural=peak for the most distinct mountains in the district" />
		<tag k="name" v="Sparreåsen" />
		<tag k="natural" v="hill" />
		<tag k="place" v="locality" />
		<tag k="ssr:stedsnr" v="933361" />
	</node>
	<node id="-241841" lat="59.2811611145" lon="11.386755564">
		<tag k="fixme" v="consider natural=peak for the most distinct mountains in the district" />
		<tag k="name" v="Ørnåsen" />
		<tag k="natural" v="hill" />
		<tag k="place" v="locality" />
		<tag k="ssr:stedsnr" v="933149" />
	</node>
	<node id="-241328" lat="59.2824361153" lon="11.3862305644">
		<tag k="name" v="Engsmoen" />
		<tag k="place" v="locality" />
		<tag k="ssr:stedsnr" v="266164" />
	</node>
	<node id="-241327" lat="59.376719441" lon="11.41139723">
		<tag k="name" v="Kjempehaugene" />
		<tag k="natural" v="hill" />
		<tag k="place" v="locality" />
		<tag k="ssr:stedsnr" v="265720" />
	</node>
	<node id="-241838" lat="59.3320944403" lon="11.3182833262">
		<tag k="fixme" v="consider natural=peak for the most distinct mountains in the district" />
		<tag k="name" v="Mørktjernåsen" />
		<tag k="natural" v="hill" />
		<tag k="place" v="locality" />
		<tag k="ssr:stedsnr" v="811042" />
	</node>
	<node id="-242461" lat="59.4787444423" lon="11.4239027726">
		<tag k="fixme" v="consider natural=peak for the most distinct mountains in the district" />
		<tag k="name" v="Holteåsen" />
		<tag k="natural" v="hill" />
		<tag k="place" v="locality" />
		<tag k="ssr:stedsnr" v="596019" />
	</node>
	<node id="-242348" lat="59.3309277817" lon="11.3401166614">
		<tag k="fixme" v="consider natural=peak for the most distinct mountains in the district" />
		<tag k="name" v="Albueåsen" />
		<tag k="natural" v="hill" />
		<tag k="place" v="locality" />
		<tag k="ssr:stedsnr" v="415655" />
	</node>
	<node id="-241834" lat="59.4377916683" lon="11.4716805594">
		<tag k="fixme" v="consider natural=peak for the most distinct mountains in the district" />
		<tag k="name" v="Vesle Hiesten" />
		<tag k="natural" v="hill" />
		<tag k="place" v="locality" />
		<tag k="ssr:stedsnr" v="791606" />
	</node>
	<node id="-242343" lat="59.3491027783" lon="11.3365638844">
		<tag k="fixme" v="consider natural=peak for the most distinct mountains in the district" />
		<tag k="name" v="Myrås" />
		<tag k="natural" v="hill" />
		<tag k="place" v="locality" />
		<tag k="ssr:stedsnr" v="415472" />
	</node>
	<node id="-242374" lat="59.2721499977" lon="11.5521444434">
		<tag k="name" v="Nordsletta" />
		<tag k="place" v="locality" />
		<tag k="ssr:stedsnr" v="428696" />
	</node>
	<node id="-241314" lat="59.4171333374" lon="11.2909861037">
		<tag k="fixme" v="consider natural=peak for the most distinct mountains in the district" />
		<tag k="name" v="Sameieåsen" />
		<tag k="natural" v="hill" />
		<tag k="place" v="locality" />
		<tag k="ssr:stedsnr" v="265550" />
	</node>
	<node id="-242337" lat="59.2996333309" lon="11.346291672">
		<tag k="name" v="Reierbrudalen" />
		<tag k="natural" v="valley" />
		<tag k="place" v="locality" />
		<tag k="ssr:stedsnr" v="415101" />
	</node>
	<node id="-241823" lat="59.3285555588" lon="11.3281500002">
		<tag k="fixme" v="consider natural=peak for the most distinct mountains in the district" />
		<tag k="name" v="Horntjernåsen" />
		<tag k="natural" v="hill" />
		<tag k="place" v="locality" />
		<tag k="ssr:stedsnr" v="914790" />
	</node>
	<node id="-241310" lat="59.3301083376" lon="11.3199611093">
		<tag k="name" v="Linjedalen" />
		<tag k="natural" v="valley" />
		<tag k="place" v="locality" />
		<tag k="ssr:stedsnr" v="265024" />
	</node>
	<node id="-241604" lat="59.3942111133" lon="11.3179499935">
		<tag k="fixme" v="consider natural=peak for the most distinct mountains in the district" />
		<tag k="name" v="Trangåsen" />
		<tag k="natural" v="hill" />
		<tag k="place" v="locality" />
		<tag k="ssr:stedsnr" v="690606" />
	</node>
	<node id="-242326" lat="59.3448416673" lon="11.4869916585">
		<tag k="fixme" v="consider natural=peak for the most distinct mountains in the district" />
		<tag k="name" v="Svinsås" />
		<tag k="natural" v="hill" />
		<tag k="place" v="locality" />
		<tag k="ssr:stedsnr" v="386643" />
	</node>
	<node id="-241813" lat="59.3930138908" lon="11.278325006">
		<tag k="fixme" v="consider natural=peak for the most distinct mountains in the district" />
		<tag k="name" v="Grimstadåsen" />
		<tag k="natural" v="hill" />
		<tag k="place" v="locality" />
		<tag k="ssr:stedsnr" v="913817" />
	</node>
	<node id="-242324" lat="59.3767611144" lon="11.4073416686">
		<tag k="name" v="Trulsen" />
		<tag k="place" v="locality" />
		<tag k="ssr:stedsnr" v="386677" />
	</node>
	<node id="-242323" lat="59.3922805534" lon="11.2979972147">
		<tag k="fixme" v="consider natural=peak for the most distinct mountains in the district" />
		<tag k="name" v="Vestengåsen" />
		<tag k="natural" v="hill" />
		<tag k="place" v="locality" />
		<tag k="ssr:stedsnr" v="386542" />
	</node>
	<node id="-241810" lat="59.3453138861" lon="11.2950416686">
		<tag k="fixme" v="consider natural=peak for the most distinct mountains in the district" />
		<tag k="name" v="Hensåsen" />
		<tag k="natural" v="hill" />
		<tag k="place" v="locality" />
		<tag k="ssr:stedsnr" v="913787" />
	</node>
	<node id="-242115" lat="59.415111112" lon="11.5322833248">
		<tag k="name" v="Bårdsdråga" />
		<tag k="natural" v="slope" />
		<tag k="place" v="locality" />
		<tag k="ssr:stedsnr" v="172576" />
	</node>
	<node id="-241294" lat="59.2745888846" lon="11.3675333367">
		<tag k="name" v="Nattjerndalen" />
		<tag k="natural" v="valley" />
		<tag k="place" v="locality" />
		<tag k="ssr:stedsnr" v="84172" />
	</node>
	<node id="-241292" lat="59.3735916638" lon="11.4934027713">
		<tag k="fixme" v="consider natural=peak for the most distinct mountains in the district" />
		<tag k="name" v="Ulveåsen" />
		<tag k="natural" v="hill" />
		<tag k="place" v="locality" />
		<tag k="ssr:stedsnr" v="83671" />
	</node>
	<node id="-241298" lat="59.3861333299" lon="11.4357777764">
		<tag k="fixme" v="consider natural=peak for the most distinct mountains in the district" />
		<tag k="name" v="Det store røs" />
		<tag k="natural" v="hill" />
		<tag k="place" v="locality" />
		<tag k="ssr:stedsnr" v="111911" />
	</node>
	<node id="-242313" lat="59.3551972219" lon="11.5560749983">
		<tag k="alt_name" v="Rørvasshøgda" />
		<tag k="fixme" v="consider natural=peak for the most distinct mountains in the district" />
		<tag k="name" v="Rørvannshøyda" />
		<tag k="natural" v="hill" />
		<tag k="place" v="locality" />
		<tag k="ssr:stedsnr" v="367705" />
	</node>
	<node id="-241288" lat="59.4038277786" lon="11.2860972237">
		<tag k="fixme" v="consider natural=peak for the most distinct mountains in the district" />
		<tag k="name" v="Gråmerråsen" />
		<tag k="natural" v="hill" />
		<tag k="place" v="locality" />
		<tag k="ssr:stedsnr" v="83568" />
	</node>
	<node id="-242310" lat="59.3715388853" lon="11.5028916738">
		<tag k="fixme" v="consider natural=peak for the most distinct mountains in the district" />
		<tag k="name" v="Slottåsen" />
		<tag k="natural" v="hill" />
		<tag k="place" v="locality" />
		<tag k="ssr:stedsnr" v="367674" />
	</node>
	<node id="-242309" lat="59.2942777777" lon="11.5754777815">
>>>>>>> e1d4bc35ff8a6074a6f2e91616a996b547c36f15
		<tag k="alt_name" v="Gressdalen" />
		<tag k="name" v="Grasdalen" />
		<tag k="natural" v="valley" />
		<tag k="place" v="locality" />
		<tag k="ssr:stedsnr" v="367666" />
	</node>
<<<<<<< HEAD
	<node lat="59.392280553415816" lon="11.29799721468798" id="-12401">
		<tag k="fixme" v="consider natural=peak for the most distinct mountains in the district" />
		<tag k="name" v="Vestengåsen" />
		<tag k="natural" v="hill" />
		<tag k="place" v="locality" />
		<tag k="ssr:stedsnr" v="386542" />
	</node>
	<node lat="59.376761114366936" lon="11.407341668637155" id="-12406">
		<tag k="name" v="Trulsen" />
		<tag k="place" v="locality" />
		<tag k="ssr:stedsnr" v="386677" />
	</node>
	<node lat="59.28091944745244" lon="11.383575002999358" id="-12407">
		<tag k="name" v="Skrevet" />
		<tag k="natural" v="ridge" />
		<tag k="place" v="locality" />
		<tag k="ssr:stedsnr" v="387168" />
	</node>
	<node lat="59.37476944663756" lon="11.356041674048756" id="-12412">
		<tag k="name" v="Finnpå" />
		<tag k="place" v="locality" />
		<tag k="ssr:stedsnr" v="414782" />
	</node>
	<node lat="59.349102778291396" lon="11.336563884363416" id="-12413">
		<tag k="fixme" v="consider natural=peak for the most distinct mountains in the district" />
		<tag k="name" v="Myrås" />
		<tag k="natural" v="hill" />
		<tag k="place" v="locality" />
		<tag k="ssr:stedsnr" v="415472" />
	</node>
	<node lat="59.299633330906815" lon="11.346291671994233" id="-12414">
		<tag k="name" v="Reierbrudalen" />
		<tag k="natural" v="valley" />
		<tag k="place" v="locality" />
		<tag k="ssr:stedsnr" v="415101" />
	</node>
	<node lat="59.33092778173481" lon="11.340116661421638" id="-12422">
		<tag k="fixme" v="consider natural=peak for the most distinct mountains in the district" />
		<tag k="name" v="Albueåsen" />
		<tag k="natural" v="hill" />
		<tag k="place" v="locality" />
		<tag k="ssr:stedsnr" v="415655" />
	</node>
	<node lat="59.33034999575936" lon="11.342291664686831" id="-12423">
		<tag k="name" v="Svartedalhullet" />
		<tag k="natural" v="gorge" />
		<tag k="ssr:stedsnr" v="415657" />
	</node>
	<node lat="59.415152777340026" lon="11.478650000940561" id="-12437">
		<tag k="alt_name" v="Tostenås" />
		<tag k="fixme" v="consider natural=peak for the most distinct mountains in the district" />
		<tag k="name" v="Tostenåsen" />
		<tag k="natural" v="hill" />
		<tag k="place" v="locality" />
		<tag k="ssr:stedsnr" v="428489" />
	</node>
	<node lat="59.28669722569582" lon="11.490949998383188" id="-12440">
		<tag k="name" v="Seterdalen" />
		<tag k="natural" v="valley" />
		<tag k="place" v="locality" />
		<tag k="ssr:stedsnr" v="428650" />
	</node>
	<node lat="59.27214999774674" lon="11.55214444340639" id="-12442">
		<tag k="name" v="Nordsletta" />
		<tag k="place" v="locality" />
		<tag k="ssr:stedsnr" v="428696" />
	</node>
	<node lat="59.34432222470852" lon="11.329686114684154" id="-12445">
		<tag k="fixme" v="consider natural=peak for the most distinct mountains in the district" />
		<tag k="name" v="Korpeåsen" />
		<tag k="natural" v="hill" />
		<tag k="place" v="locality" />
		<tag k="ssr:stedsnr" v="447304" />
	</node>
	<node lat="59.37950833646459" lon="11.36459999669459" id="-12447">
		<tag k="name" v="Hellevadet" />
		<tag k="place" v="locality" />
		<tag k="ssr:stedsnr" v="447594" />
	</node>
	<node lat="59.40492777509143" lon="11.305352779543579" id="-12460">
		<tag k="fixme" v="consider natural=peak for the most distinct mountains in the district" />
		<tag k="name" v="Ønnerudåsen" />
		<tag k="natural" v="hill" />
		<tag k="place" v="locality" />
		<tag k="ssr:stedsnr" v="507524" />
	</node>
	<node lat="59.34336111541076" lon="11.316119443483666" id="-12468">
		<tag k="name" v="Mørktjerndalen" />
		<tag k="natural" v="valley" />
		<tag k="place" v="locality" />
		<tag k="ssr:stedsnr" v="508359" />
	</node>
	<node lat="59.46051110701349" lon="11.475986103790593" id="-12480">
		<tag k="fixme" v="consider natural=peak for the most distinct mountains in the district" />
		<tag k="name" v="Langvassåsen" />
		<tag k="natural" v="hill" />
		<tag k="place" v="locality" />
		<tag k="ssr:stedsnr" v="536039" />
	</node>
	<node lat="59.355386114480716" lon="11.347816665182451" id="-12482">
		<tag k="name" v="Brenna" />
		<tag k="natural" v="hill" />
		<tag k="place" v="locality" />
		<tag k="ssr:stedsnr" v="536384" />
	</node>
	<node lat="59.45650555115211" lon="11.402697222691303" id="-12500">
		<tag k="fixme" v="consider natural=peak for the most distinct mountains in the district" />
		<tag k="name" v="Utsikten" />
		<tag k="natural" v="hill" />
		<tag k="place" v="locality" />
		<tag k="ssr:stedsnr" v="548244" />
	</node>
	<node lat="59.32096110988536" lon="11.307966664941269" id="-12518">
		<tag k="name" v="Bjørndalen" />
		<tag k="natural" v="valley" />
		<tag k="place" v="locality" />
		<tag k="ssr:stedsnr" v="568030" />
	</node>
	<node lat="59.366450002934656" lon="11.500752779835034" id="-12530">
		<tag k="name" v="Sønstegårdbråten" />
		<tag k="place" v="locality" />
		<tag k="ssr:stedsnr" v="568651" />
	</node>
	<node lat="59.381174998401974" lon="11.277991674118196" id="-12531">
		<tag k="fixme" v="consider natural=peak for the most distinct mountains in the district" />
		<tag k="name" v="Gautestadåsen" />
		<tag k="natural" v="hill" />
		<tag k="place" v="locality" />
		<tag k="ssr:stedsnr" v="568712" />
	</node>
	<node lat="59.3982944418141" lon="11.255199993814447" id="-12532">
		<tag k="fixme" v="consider natural=peak for the most distinct mountains in the district" />
		<tag k="name" v="Kopperudåsen" />
		<tag k="natural" v="hill" />
		<tag k="place" v="locality" />
		<tag k="ssr:stedsnr" v="568715" />
	</node>
	<node lat="59.32083055251531" lon="11.368986113970402" id="-12540">
		<tag k="name" v="Geiteklemma" />
		<tag k="place" v="locality" />
		<tag k="ssr:stedsnr" v="596395" />
	</node>
	<node lat="59.47874444232429" lon="11.423902772580568" id="-12541">
		<tag k="fixme" v="consider natural=peak for the most distinct mountains in the district" />
		<tag k="name" v="Holteåsen" />
		<tag k="natural" v="hill" />
		<tag k="place" v="locality" />
		<tag k="ssr:stedsnr" v="596019" />
	</node>
	<node lat="59.466438884797746" lon="11.450805562606439" id="-12542">
		<tag k="fixme" v="consider natural=peak for the most distinct mountains in the district" />
		<tag k="name" v="Østre Tiurås" />
=======
	<node id="-242036" lat="59.4645638852" lon="11.4486944435">
		<tag k="fixme" v="consider natural=peak for the most distinct mountains in the district" />
		<tag k="name" v="Østbyseterhøyda" />
		<tag k="natural" v="hill" />
		<tag k="place" v="locality" />
		<tag k="ssr:stedsnr" v="111086" />
	</node>
	<node id="-241785" lat="59.2796500005" lon="11.3565222149">
		<tag k="fixme" v="consider natural=peak for the most distinct mountains in the district" />
		<tag k="name" v="Nattjernfjellet" />
		<tag k="natural" v="hill" />
		<tag k="place" v="locality" />
		<tag k="ssr:stedsnr" v="912898" />
	</node>
	<node id="-241297" lat="59.3813026068" lon="11.505172944">
		<tag k="name" v="Buttelhullet" />
		<tag k="old_name" v="Buttehullet" />
		<tag k="place" v="locality" />
		<tag k="ssr:stedsnr" v="111905" />
	</node>
	<node id="-242030" lat="59.2637472193" lon="11.4769500055">
		<tag k="name" v="Bjørndalen" />
		<tag k="natural" v="valley" />
		<tag k="place" v="locality" />
		<tag k="ssr:stedsnr" v="83890" />
	</node>
	<node id="-241769" lat="59.4543138852" lon="11.5412694368">
		<tag k="name" v="Haugstenvannsdalen" />
		<tag k="natural" v="valley" />
		<tag k="place" v="locality" />
		<tag k="ssr:stedsnr" v="901084" />
	</node>
	<node id="-242280" lat="59.3521388918" lon="11.5567083368">
		<tag k="name" v="Rørvannsdalen" />
		<tag k="natural" v="valley" />
		<tag k="place" v="locality" />
		<tag k="ssr:stedsnr" v="355193" />
	</node>
	<node id="-241767" lat="59.3644083337" lon="11.3561833306">
		<tag k="name" v="Smieåsen" />
		<tag k="natural" v="hill" />
		<tag k="place" v="locality" />
		<tag k="ssr:stedsnr" v="900802" />
	</node>
	<node id="-241766" lat="59.3687694416" lon="11.3485666677">
		<tag k="fixme" v="consider natural=peak for the most distinct mountains in the district" />
		<tag k="name" v="Brenteåsen" />
		<tag k="natural" v="hill" />
		<tag k="place" v="locality" />
		<tag k="ssr:stedsnr" v="900794" />
	</node>
	<node id="-242276" lat="59.3185444427" lon="11.5696694416">
		<tag k="fixme" v="consider natural=peak for the most distinct mountains in the district" />
		<tag k="name" v="Brodalsåsen" />
		<tag k="natural" v="hill" />
		<tag k="place" v="locality" />
		<tag k="ssr:stedsnr" v="355082" />
	</node>
	<node id="-242273" lat="59.3818055528" lon="11.4682027708">
		<tag k="name" v="Tjærneskleiva" />
		<tag k="natural" v="slope" />
		<tag k="place" v="locality" />
		<tag k="ssr:stedsnr" v="354877" />
	</node>
	<node id="-242269" lat="59.3174305577" lon="11.3686249994">
		<tag k="fixme" v="consider natural=peak for the most distinct mountains in the district" />
		<tag k="name" v="Melkebakkekollen" />
		<tag k="natural" v="hill" />
		<tag k="place" v="locality" />
		<tag k="ssr:stedsnr" v="354642" />
	</node>
	<node id="-241289" lat="59.4032944453" lon="11.3211138935">
		<tag k="fixme" v="consider natural=peak for the most distinct mountains in the district" />
		<tag k="name" v="Slottåsen" />
		<tag k="natural" v="hill" />
		<tag k="place" v="locality" />
		<tag k="ssr:stedsnr" v="83570" />
	</node>
	<node id="-241242" lat="59.3359277797" lon="11.5715277724">
		<tag k="fixme" v="consider natural=peak for the most distinct mountains in the district" />
		<tag k="name" v="Seteråsen" />
		<tag k="natural" v="hill" />
		<tag k="place" v="locality" />
		<tag k="ssr:stedsnr" v="52164" />
	</node>
	<node id="-241753" lat="59.4659222226" lon="11.4138583377">
		<tag k="name" v="Stordalen" />
		<tag k="natural" v="valley" />
		<tag k="place" v="locality" />
		<tag k="ssr:stedsnr" v="900138" />
	</node>
	<node id="-241240" lat="59.3401611089" lon="11.3427749939">
		<tag k="name" v="Vardeåsdalen" />
		<tag k="natural" v="valley" />
		<tag k="place" v="locality" />
		<tag k="ssr:stedsnr" v="51471" />
	</node>
	<node id="-241239" lat="59.3621305576" lon="11.3499555603">
		<tag k="name" v="Skrabben" />
		<tag k="natural" v="hill" />
		<tag k="place" v="locality" />
		<tag k="ssr:stedsnr" v="51457" />
	</node>
	<node id="-242262" lat="59.3413500035" lon="11.3664583395">
		<tag k="fixme" v="consider natural=peak for the most distinct mountains in the district" />
		<tag k="name" v="Latåsen" />
		<tag k="natural" v="hill" />
		<tag k="place" v="locality" />
		<tag k="ssr:stedsnr" v="354446" />
	</node>
	<node id="-241749" lat="59.2997999983" lon="11.3361500049">
		<tag k="name" v="Åsedalen" />
		<tag k="natural" v="valley" />
		<tag k="place" v="locality" />
		<tag k="ssr:stedsnr" v="730976" />
	</node>
	<node id="-241236" lat="59.4357444486" lon="11.5565083304">
		<tag k="fixme" v="consider natural=peak for the most distinct mountains in the district" />
		<tag k="name" v="Frønehøyda" />
		<tag k="natural" v="hill" />
		<tag k="place" v="locality" />
		<tag k="ssr:stedsnr" v="51010" />
	</node>
	<node id="-241747" lat="59.3669583293" lon="11.391316673">
		<tag k="name" v="Møllerhaugen" />
>>>>>>> e1d4bc35ff8a6074a6f2e91616a996b547c36f15
		<tag k="natural" v="hill" />
		<tag k="place" v="locality" />
		<tag k="ssr:stedsnr" v="900002" />
	</node>
<<<<<<< HEAD
	<node lat="59.36299166347832" lon="11.33760833900609" id="-12544">
		<tag k="name" v="Kalveløkka" />
		<tag k="place" v="locality" />
		<tag k="ssr:stedsnr" v="596674" />
	</node>
	<node lat="59.359602774927836" lon="11.28701389453468" id="-12545">
		<tag k="fixme" v="consider natural=peak for the most distinct mountains in the district" />
		<tag k="name" v="Hensfjellet" />
		<tag k="natural" v="hill" />
		<tag k="place" v="locality" />
		<tag k="ssr:stedsnr" v="596684" />
	</node>
	<node lat="59.395888889275795" lon="11.41602500522976" id="-12547">
		<tag k="fixme" v="consider natural=peak for the most distinct mountains in the district" />
		<tag k="name" v="Vestliåsen" />
		<tag k="natural" v="hill" />
		<tag k="place" v="locality" />
		<tag k="ssr:stedsnr" v="596793" />
	</node>
	<node lat="59.435577774468996" lon="11.491730559579103" id="-12556">
		<tag k="fixme" v="consider natural=peak for the most distinct mountains in the district" />
		<tag k="name" v="Tjernemosehøgda" />
		<tag k="natural" v="hill" />
		<tag k="place" v="locality" />
		<tag k="ssr:stedsnr" v="597483" />
	</node>
	<node lat="59.40453333516075" lon="11.473466659167409" id="-12559">
		<tag k="fixme" v="consider natural=peak for the most distinct mountains in the district" />
		<tag k="name" v="Rambergkollen" />
		<tag k="natural" v="hill" />
		<tag k="place" v="locality" />
		<tag k="ssr:stedsnr" v="597583" />
	</node>
	<node lat="59.2669472225893" lon="11.552686109000186" id="-12562">
		<tag k="name" v="Slaveruddalen" />
		<tag k="natural" v="valley" />
		<tag k="place" v="locality" />
		<tag k="ssr:stedsnr" v="597985" />
	</node>
	<node lat="59.46361388652058" lon="11.43800000609446" id="-12565">
		<tag k="fixme" v="consider natural=peak for the most distinct mountains in the district" />
		<tag k="name" v="Midtås" />
		<tag k="natural" v="hill" />
		<tag k="place" v="locality" />
		<tag k="ssr:stedsnr" v="608213" />
	</node>
	<node lat="59.37393055346307" lon="11.586638895999773" id="-12571">
		<tag k="fixme" v="consider natural=peak for the most distinct mountains in the district" />
		<tag k="name" v="Rogneberget" />
		<tag k="natural" v="hill" />
		<tag k="place" v="locality" />
		<tag k="ssr:stedsnr" v="609660" />
	</node>
	<node lat="59.32461388729385" lon="11.520183333621839" id="-12576">
		<tag k="fixme" v="multiple name tags, choose one and add the other to alt_name; consider natural=peak for the most distinct mountains in the district" />
		<tag k="name" v="Ådalsåsen;Seteråsen" />
		<tag k="natural" v="hill" />
		<tag k="place" v="locality" />
		<tag k="ssr:stedsnr" v="610647" />
	</node>
	<node lat="59.37036944547164" lon="11.467136110709246" id="-12591">
		<tag k="name" v="Tullopp" />
		<tag k="place" v="locality" />
		<tag k="ssr:stedsnr" v="629680" />
	</node>
	<node lat="59.40275833516825" lon="11.392177778602017" id="-12598">
		<tag k="fixme" v="consider natural=peak for the most distinct mountains in the district" />
		<tag k="name" v="Filtvetåsen" />
		<tag k="natural" v="hill" />
		<tag k="place" v="locality" />
		<tag k="ssr:stedsnr" v="629570" />
	</node>
	<node lat="59.32550277719598" lon="11.45903055264009" id="-12601">
		<tag k="name" v="Hansedalen" />
		<tag k="natural" v="valley" />
		<tag k="place" v="locality" />
		<tag k="ssr:stedsnr" v="629639" />
	</node>
	<node lat="59.25828889314399" lon="11.40696388738018" id="-12603">
		<tag k="name" v="Børkedalen" />
		<tag k="natural" v="valley" />
		<tag k="place" v="locality" />
		<tag k="ssr:stedsnr" v="629882" />
	</node>
	<node lat="59.34695555377918" lon="11.371333332992352" id="-12614">
		<tag k="fixme" v="consider natural=peak for the most distinct mountains in the district" />
		<tag k="name" v="Kjeleåsen" />
		<tag k="natural" v="hill" />
		<tag k="place" v="locality" />
		<tag k="ssr:stedsnr" v="657450" />
	</node>
	<node lat="59.39813611161088" lon="11.510155557876173" id="-12619">
		<tag k="fixme" v="consider natural=peak for the most distinct mountains in the district" />
		<tag k="name" v="Slottsberget" />
		<tag k="natural" v="hill" />
		<tag k="place" v="locality" />
		<tag k="ssr:stedsnr" v="657750" />
	</node>
	<node lat="59.36800555766428" lon="11.357983336378629" id="-12622">
		<tag k="fixme" v="consider natural=peak for the most distinct mountains in the district" />
		<tag k="name" v="Jensekollen" />
		<tag k="natural" v="hill" />
		<tag k="place" v="locality" />
		<tag k="ssr:stedsnr" v="657777" />
	</node>
	<node lat="59.381130554990555" lon="11.58502223027381" id="-12624">
		<tag k="fixme" v="consider natural=peak for the most distinct mountains in the district" />
		<tag k="name" v="Skottjernhøyda" />
		<tag k="natural" v="hill" />
		<tag k="place" v="locality" />
		<tag k="ssr:stedsnr" v="657959" />
	</node>
	<node lat="59.28797777562487" lon="11.380680560703144" id="-12632">
		<tag k="fixme" v="consider natural=peak for the most distinct mountains in the district" />
		<tag k="name" v="Holtåsen" />
		<tag k="natural" v="hill" />
		<tag k="place" v="locality" />
		<tag k="ssr:stedsnr" v="669900" />
	</node>
	<node lat="59.455988887901235" lon="11.447508334868752" id="-12643">
		<tag k="fixme" v="consider natural=peak for the most distinct mountains in the district" />
		<tag k="name" v="Gåseflohøyda" />
		<tag k="natural" v="hill" />
		<tag k="place" v="locality" />
		<tag k="ssr:stedsnr" v="719035" />
	</node>
	<node lat="59.2989777808092" lon="11.580927780578515" id="-12647">
		<tag k="name" v="Grandalen" />
		<tag k="natural" v="valley" />
		<tag k="place" v="locality" />
		<tag k="ssr:stedsnr" v="718333" />
	</node>
	<node lat="59.41935833497846" lon="11.54718056033292" id="-12648">
		<tag k="name" v="Gåsa" />
		<tag k="natural" v="hill" />
		<tag k="place" v="locality" />
		<tag k="ssr:stedsnr" v="718568" />
	</node>
	<node lat="59.27962499787539" lon="11.553038893822162" id="-12656">
		<tag k="name" v="Hivannsdalen" />
		<tag k="natural" v="valley" />
		<tag k="place" v="locality" />
		<tag k="ssr:stedsnr" v="719972" />
	</node>
	<node lat="59.338166668999484" lon="11.312383339630061" id="-12677">
		<tag k="fixme" v="consider natural=peak for the most distinct mountains in the district" />
		<tag k="name" v="Svarvermoåsen" />
		<tag k="natural" v="hill" />
		<tag k="place" v="locality" />
		<tag k="ssr:stedsnr" v="750305" />
	</node>
	<node lat="59.35833889297386" lon="11.327997217997877" id="-12695">
		<tag k="name" v="Kongehaugen" />
		<tag k="natural" v="hill" />
		<tag k="place" v="locality" />
		<tag k="ssr:stedsnr" v="778694" />
	</node>
	<node lat="59.32051666519278" lon="11.373797225210392" id="-12697">
		<tag k="fixme" v="consider natural=peak for the most distinct mountains in the district" />
		<tag k="name" v="Burås" />
		<tag k="natural" v="hill" />
		<tag k="place" v="locality" />
		<tag k="ssr:stedsnr" v="779432" />
	</node>
	<node lat="59.362327773352874" lon="11.342488892708266" id="-12699">
		<tag k="name" v="Ilevollen" />
		<tag k="place" v="locality" />
		<tag k="ssr:stedsnr" v="778777" />
	</node>
	<node lat="59.395016668068166" lon="11.535786114222228" id="-12709">
		<tag k="name" v="Rasmuskleva" />
		<tag k="place" v="locality" />
		<tag k="ssr:stedsnr" v="779783" />
	</node>
	<node lat="59.40133055553935" lon="11.53588888129786" id="-12711">
		<tag k="fixme" v="consider natural=peak for the most distinct mountains in the district" />
		<tag k="name" v="Kråkegullåsen" />
		<tag k="natural" v="hill" />
		<tag k="place" v="locality" />
		<tag k="ssr:stedsnr" v="779881" />
	</node>
	<node lat="59.451377775367725" lon="11.551883332503524" id="-12724">
		<tag k="alt_name" v="Hostenhøgda" />
		<tag k="fixme" v="consider natural=peak for the most distinct mountains in the district" />
		<tag k="name" v="Haugstenhøgda" />
		<tag k="natural" v="hill" />
		<tag k="place" v="locality" />
		<tag k="ssr:stedsnr" v="791578" />
	</node>
	<node lat="59.37175000266722" lon="11.463758332225988" id="-12743">
		<tag k="name" v="Kollerud" />
		<tag k="place" v="locality" />
		<tag k="ssr:stedsnr" v="811660" />
	</node>
	<node lat="59.262433335531995" lon="11.433102771708961" id="-12744">
		<tag k="name" v="Ladedalen" />
		<tag k="natural" v="valley" />
		<tag k="place" v="locality" />
		<tag k="ssr:stedsnr" v="811856" />
	</node>
	<node lat="59.32337222527707" lon="11.492744448380458" id="-12747">
		<tag k="name" v="Smaledalen" />
		<tag k="natural" v="valley" />
		<tag k="place" v="locality" />
		<tag k="ssr:stedsnr" v="812646" />
	</node>
	<node lat="59.36497221960283" lon="11.321727774808188" id="-12749">
		<tag k="name" v="Dronninghaugen" />
		<tag k="natural" v="hill" />
		<tag k="place" v="locality" />
		<tag k="ssr:stedsnr" v="839717" />
	</node>
	<node lat="59.300416664612094" lon="11.551594440542452" id="-12752">
		<tag k="fixme" v="consider natural=peak for the most distinct mountains in the district" />
		<tag k="name" v="Kroktjernkollen" />
		<tag k="natural" v="hill" />
		<tag k="place" v="locality" />
		<tag k="ssr:stedsnr" v="840361" />
	</node>
	<node lat="59.41249166785624" lon="11.248600004330127" id="-12755">
=======
	<node id="-242258" lat="59.4793277786" lon="11.4143555614">
		<tag k="fixme" v="consider natural=peak for the most distinct mountains in the district" />
		<tag k="name" v="Klemmeåsen" />
		<tag k="natural" v="hill" />
		<tag k="place" v="locality" />
		<tag k="ssr:stedsnr" v="354023" />
	</node>
	<node id="-241233" lat="59.391347225" lon="11.4571833402">
		<tag k="alt_name" v="Jernfethaugen østre" />
		<tag k="name" v="Østre Jernfethaugen" />
		<tag k="natural" v="hill" />
		<tag k="place" v="locality" />
		<tag k="ssr:stedsnr" v="50803" />
	</node>
	<node id="-242256" lat="59.3272833294" lon="11.3429944468">
		<tag k="fixme" v="consider natural=peak for the most distinct mountains in the district" />
		<tag k="name" v="Slettefjellet" />
		<tag k="natural" v="hill" />
		<tag k="place" v="locality" />
		<tag k="ssr:stedsnr" v="354637" />
	</node>
	<node id="-242701" lat="59.3826722232" lon="11.3628472146">
		<tag k="name" v="Hukedalen" />
		<tag k="natural" v="valley" />
		<tag k="place" v="locality" />
		<tag k="ssr:stedsnr" v="872639" />
	</node>
	<node id="-241739" lat="59.2796249979" lon="11.5530388938">
		<tag k="name" v="Hivannsdalen" />
		<tag k="natural" v="valley" />
		<tag k="place" v="locality" />
		<tag k="ssr:stedsnr" v="719972" />
	</node>
	<node id="-241737" lat="59.4559888879" lon="11.4475083349">
		<tag k="fixme" v="consider natural=peak for the most distinct mountains in the district" />
		<tag k="name" v="Gåseflohøyda" />
		<tag k="natural" v="hill" />
		<tag k="place" v="locality" />
		<tag k="ssr:stedsnr" v="719035" />
	</node>
	<node id="-242248" lat="59.3455138882" lon="11.4797361072">
		<tag k="name" v="Kinneren" />
		<tag k="place" v="locality" />
		<tag k="ssr:stedsnr" v="326687" />
	</node>
	<node id="-241223" lat="59.3169527795" lon="11.3459388826">
		<tag k="name" v="Ekeliene" />
		<tag k="natural" v="slope" />
		<tag k="place" v="locality" />
		<tag k="ssr:stedsnr" v="233645" />
	</node>
	<node id="-241734" lat="59.419358335" lon="11.5471805603">
		<tag k="name" v="Gåsa" />
		<tag k="natural" v="hill" />
		<tag k="place" v="locality" />
		<tag k="ssr:stedsnr" v="718568" />
	</node>
	<node id="-241761" lat="59.4162499956" lon="11.561841665">
		<tag k="name" v="Handrekkdalen" />
		<tag k="natural" v="valley" />
		<tag k="place" v="locality" />
		<tag k="ssr:stedsnr" v="900582" />
	</node>
	<node id="-242243" lat="59.4220361076" lon="11.303366666">
		<tag k="fixme" v="consider natural=peak for the most distinct mountains in the district" />
		<tag k="name" v="Tøfteåsen" />
		<tag k="natural" v="hill" />
		<tag k="place" v="locality" />
		<tag k="ssr:stedsnr" v="325599" />
	</node>
	<node id="-241218" lat="59.360911114" lon="11.3503111179">
		<tag k="name" v="Dronninghaugen" />
		<tag k="natural" v="hill" />
		<tag k="place" v="locality" />
		<tag k="ssr:stedsnr" v="233439" />
	</node>
	<node id="-242239" lat="59.3835111116" lon="11.344402785">
		<tag k="fixme" v="consider natural=peak for the most distinct mountains in the district" />
		<tag k="name" v="Korpeåsen" />
		<tag k="natural" v="hill" />
		<tag k="place" v="locality" />
		<tag k="ssr:stedsnr" v="325570" />
	</node>
	<node id="-241725" lat="59.3940750019" lon="11.5324583399">
		<tag k="fixme" v="consider natural=peak for the most distinct mountains in the district" />
		<tag k="name" v="Rasmusåsen" />
		<tag k="natural" v="hill" />
		<tag k="place" v="locality" />
		<tag k="ssr:stedsnr" v="657728" />
	</node>
	<node id="-241724" lat="59.2735972208" lon="11.4430388865">
		<tag k="fixme" v="consider natural=peak for the most distinct mountains in the district" />
		<tag k="name" v="Vassroa" />
		<tag k="natural" v="hill" />
		<tag k="place" v="locality" />
		<tag k="ssr:stedsnr" v="657703" />
	</node>
	<node id="-242235" lat="59.3018527737" lon="11.5134805495">
		<tag k="fixme" v="consider natural=peak for the most distinct mountains in the district" />
		<tag k="name" v="Høyås" />
		<tag k="natural" v="hill" />
		<tag k="place" v="locality" />
		<tag k="ssr:stedsnr" v="325174" />
	</node>
	<node id="-241210" lat="59.3738527792" lon="11.3713638964">
		<tag k="name" v="Danstorpåsen" />
		<tag k="natural" v="ridge" />
		<tag k="place" v="locality" />
		<tag k="ssr:stedsnr" v="232784" />
	</node>
	<node id="-241503" lat="59.3483416625" lon="11.4729805468">
		<tag k="fixme" v="consider natural=peak for the most distinct mountains in the district" />
		<tag k="name" v="Nakkimåsen" />
		<tag k="natural" v="hill" />
		<tag k="place" v="locality" />
		<tag k="ssr:stedsnr" v="508665" />
	</node>
	<node id="-241208" lat="59.372741668" lon="11.3409194458">
		<tag k="name" v="Simensholen" />
		<tag k="place" v="locality" />
		<tag k="ssr:stedsnr" v="232769" />
	</node>
	<node id="-241205" lat="59.3710166671" lon="11.422802774">
		<tag k="name" v="Kongshaugen" />
		<tag k="natural" v="hill" />
		<tag k="place" v="locality" />
		<tag k="ssr:stedsnr" v="23701" />
	</node>
	<node id="-242228" lat="59.3997666665" lon="11.4807111058">
		<tag k="fixme" v="consider natural=peak for the most distinct mountains in the district" />
		<tag k="name" v="Langatuåsen" />
		<tag k="natural" v="hill" />
		<tag k="place" v="locality" />
		<tag k="ssr:stedsnr" v="307555" />
	</node>
	<node id="-242335" lat="59.3747694466" lon="11.356041674">
		<tag k="name" v="Finnpå" />
		<tag k="place" v="locality" />
		<tag k="ssr:stedsnr" v="414782" />
	</node>
	<node id="-241710" lat="59.4020472182" lon="11.4978305594">
		<tag k="fixme" v="consider natural=peak for the most distinct mountains in the district" />
		<tag k="name" v="Kolåsen" />
		<tag k="natural" v="hill" />
		<tag k="place" v="locality" />
		<tag k="ssr:stedsnr" v="731505" />
	</node>
	<node id="-241245" lat="59.2649944436" lon="11.5413972146">
		<tag k="fixme" v="consider natural=peak for the most distinct mountains in the district" />
		<tag k="name" v="Bjørtjernshøgda" />
		<tag k="natural" v="hill" />
		<tag k="place" v="locality" />
		<tag k="ssr:stedsnr" v="52973" />
	</node>
	<node id="-242219" lat="59.2908055582" lon="11.5555972229">
		<tag k="alt_name" v="Hivasskollen" />
		<tag k="fixme" v="consider natural=peak for the most distinct mountains in the district" />
		<tag k="name" v="Hivannskollen" />
		<tag k="natural" v="hill" />
		<tag k="place" v="locality" />
		<tag k="ssr:stedsnr" v="306655" />
	</node>
	<node id="-242214" lat="59.3070507522" lon="11.5743880319">
		<tag k="fixme" v="multiple name tags, choose one and add the other to alt_name; consider natural=peak for the most distinct mountains in the district" />
		<tag k="name" v="Korpåsen;Uttisrødhøgda" />
		<tag k="natural" v="hill" />
		<tag k="place" v="locality" />
		<tag k="ssr:stedsnr" v="306613" />
	</node>
	<node id="-242724" lat="59.3421000045" lon="11.5200722188">
		<tag k="name" v="Slettemoen" />
		<tag k="place" v="locality" />
		<tag k="ssr:stedsnr" v="962946" />
	</node>
	<node id="-241926" lat="59.2713916708" lon="11.5321861156">
		<tag k="fixme" v="consider natural=peak for the most distinct mountains in the district" />
		<tag k="name" v="Slottåsen" />
		<tag k="natural" v="hill" />
		<tag k="place" v="locality" />
		<tag k="ssr:stedsnr" v="962965" />
	</node>
	<node id="-242721" lat="59.3464833295" lon="11.510333327">
		<tag k="name" v="Skredderholtene" />
		<tag k="place" v="locality" />
		<tag k="ssr:stedsnr" v="962146" />
	</node>
	<node id="-242719" lat="59.3694722206" lon="11.3771111074">
		<tag k="fixme" v="consider natural=peak for the most distinct mountains in the district" />
		<tag k="name" v="Sankthansåsen" />
		<tag k="natural" v="hill" />
		<tag k="place" v="locality" />
		<tag k="ssr:stedsnr" v="961846" />
	</node>
	<node id="-241182" lat="59.2872361076" lon="11.3277888815">
		<tag k="fixme" v="consider natural=peak for the most distinct mountains in the district" />
		<tag k="name" v="Høgnipen" />
		<tag k="natural" v="hill" />
		<tag k="place" v="locality" />
		<tag k="ssr:stedsnr" v="2891" />
	</node>
	<node id="-241413" lat="59.4718085993" lon="11.5100737477">
>>>>>>> e1d4bc35ff8a6074a6f2e91616a996b547c36f15
		<tag k="fixme" v="consider natural=peak for the most distinct mountains in the district" />
		<tag k="name" v="Mustjernhøgda" />
		<tag k="natural" v="hill" />
		<tag k="place" v="locality" />
		<tag k="ssr:stedsnr" v="475399" />
	</node>
<<<<<<< HEAD
	<node lat="59.369644442907365" lon="11.342852781697799" id="-12756">
		<tag k="name" v="Hestehagen" />
		<tag k="place" v="locality" />
		<tag k="ssr:stedsnr" v="840819" />
	</node>
	<node lat="59.457325001976216" lon="11.435438886121508" id="-12768">
		<tag k="fixme" v="consider natural=peak for the most distinct mountains in the district" />
		<tag k="name" v="Gåseflohøgda" />
		<tag k="natural" v="hill" />
		<tag k="place" v="locality" />
		<tag k="ssr:stedsnr" v="852250" />
	</node>
	<node lat="59.45805833683827" lon="11.420883339135088" id="-12769">
		<tag k="name" v="Stordalen" />
		<tag k="natural" v="valley" />
		<tag k="place" v="locality" />
		<tag k="ssr:stedsnr" v="852251" />
	</node>
	<node lat="59.3993500034284" lon="11.221799998089791" id="-12773">
		<tag k="fixme" v="consider natural=peak for the most distinct mountains in the district" />
		<tag k="name" v="Hedenåsen" />
		<tag k="natural" v="hill" />
		<tag k="place" v="locality" />
		<tag k="ssr:stedsnr" v="852823" />
	</node>
	<node lat="59.365716668199646" lon="11.583058331372703" id="-12781">
		<tag k="fixme" v="consider natural=peak for the most distinct mountains in the district" />
		<tag k="name" v="Linnekleppen" />
		<tag k="natural" v="hill" />
		<tag k="place" v="locality" />
		<tag k="ssr:stedsnr" v="853678" />
	</node>
	<node lat="59.42017222577642" lon="11.354705550897709" id="-12792">
		<tag k="name" v="Bergenhuskleiva" />
		<tag k="natural" v="slope" />
		<tag k="place" v="locality" />
		<tag k="ssr:stedsnr" v="872609" />
	</node>
	<node lat="59.38267222321914" lon="11.362847214603695" id="-12799">
		<tag k="name" v="Hukedalen" />
		<tag k="natural" v="valley" />
		<tag k="place" v="locality" />
		<tag k="ssr:stedsnr" v="872639" />
	</node>
	<node lat="59.354013890330144" lon="11.477222214278957" id="-12805">
		<tag k="fixme" v="consider natural=peak for the most distinct mountains in the district" />
		<tag k="name" v="Åmotåsen" />
		<tag k="natural" v="hill" />
		<tag k="place" v="locality" />
		<tag k="ssr:stedsnr" v="872689" />
	</node>
	<node lat="59.45456388998301" lon="11.480686109361699" id="-12815">
		<tag k="fixme" v="consider natural=peak for the most distinct mountains in the district" />
		<tag k="name" v="Presttjernhøyda" />
		<tag k="natural" v="hill" />
		<tag k="place" v="locality" />
		<tag k="ssr:stedsnr" v="961051" />
	</node>
	<node lat="59.2713916708414" lon="11.532186115579258" id="-12828">
		<tag k="fixme" v="consider natural=peak for the most distinct mountains in the district" />
		<tag k="name" v="Slottåsen" />
		<tag k="natural" v="hill" />
		<tag k="place" v="locality" />
		<tag k="ssr:stedsnr" v="962965" />
	</node>
	<node lat="59.46139682378874" lon="11.504722653157431" id="-12840">
		<tag k="name" v="Fjella" />
		<tag k="natural" v="wood" />
		<tag k="ssr:stedsnr" v="984407" />
=======
	<node id="-242349" lat="59.3303499958" lon="11.3422916647">
		<tag k="name" v="Svartedalhullet" />
		<tag k="natural" v="gorge" />
		<tag k="ssr:stedsnr" v="415657" />
	</node>
	<node id="-242710" lat="59.45456389" lon="11.4806861094">
		<tag k="fixme" v="consider natural=peak for the most distinct mountains in the district" />
		<tag k="name" v="Presttjernhøyda" />
		<tag k="natural" v="hill" />
		<tag k="place" v="locality" />
		<tag k="ssr:stedsnr" v="961051" />
	</node>
	<node id="-242190" lat="59.3184861092" lon="11.4248444438">
		<tag k="fixme" v="consider natural=peak for the most distinct mountains in the district" />
		<tag k="name" v="Heieråsen" />
		<tag k="natural" v="hill" />
		<tag k="place" v="locality" />
		<tag k="ssr:stedsnr" v="205670" />
	</node>
	<node id="-241837" lat="59.3269916678" lon="11.3250194392">
		<tag k="name" v="Merrabåldalen" />
		<tag k="natural" v="valley" />
		<tag k="place" v="locality" />
		<tag k="ssr:stedsnr" v="811037" />
	</node>
	<node id="-242700" lat="59.3540138903" lon="11.4772222143">
		<tag k="fixme" v="consider natural=peak for the most distinct mountains in the district" />
		<tag k="name" v="Åmotåsen" />
		<tag k="natural" v="hill" />
		<tag k="place" v="locality" />
		<tag k="ssr:stedsnr" v="872689" />
	</node>
	<node id="-241675" lat="59.4636138865" lon="11.4380000061">
		<tag k="fixme" v="consider natural=peak for the most distinct mountains in the district" />
		<tag k="name" v="Midtås" />
		<tag k="natural" v="hill" />
		<tag k="place" v="locality" />
		<tag k="ssr:stedsnr" v="608213" />
	</node>
	<node id="-242184" lat="59.2639138902" lon="11.4124777774">
		<tag k="name" v="Morttjerndalen" />
		<tag k="natural" v="valley" />
		<tag k="place" v="locality" />
		<tag k="ssr:stedsnr" v="204881" />
	</node>
	<node id="-241671" lat="59.3893055524" lon="11.4543749988">
		<tag k="alt_name" v="Jernfethaugen vestre" />
		<tag k="name" v="Vestre Jernfethaugen" />
		<tag k="natural" v="hill" />
		<tag k="place" v="locality" />
		<tag k="ssr:stedsnr" v="718823" />
	</node>
	<node id="-242182" lat="59.3774305525" lon="11.4964527806">
		<tag k="name" v="Sankerud" />
		<tag k="place" v="locality" />
		<tag k="ssr:stedsnr" v="204642" />
	</node>
	<node id="-242178" lat="59.3801861089" lon="11.3526888862">
		<tag k="name" v="Bekkehusdalen" />
		<tag k="natural" v="valley" />
		<tag k="place" v="locality" />
		<tag k="ssr:stedsnr" v="204578" />
>>>>>>> e1d4bc35ff8a6074a6f2e91616a996b547c36f15
	</node>
</osm>
