<?xml version="1.0" encoding="UTF-8"?>
<osm version="0.6" generator="osmapis">
	<node lat="59.464040277022214" lon="11.364342418686643" id="-14726">
		<tag k="fixme" v="consider place=hamlet" />
		<tag k="name" v="Flatberg" />
		<tag k="place" v="farm" />
		<tag k="ssr:stedsnr" v="2028" />
	</node>
	<node lat="59.43334237835352" lon="11.448484660733303" id="-14727">
		<tag k="fixme" v="consider place=hamlet" />
		<tag k="name" v="Solbrekke" />
		<tag k="place" v="farm" />
		<tag k="ssr:stedsnr" v="2210" />
	</node>
	<node lat="59.4373611120634" lon="11.506041673267385" id="-14729">
		<tag k="name" v="Skrabberud" />
		<tag k="place" v="locality" />
		<tag k="ssr:stedsnr" v="2623" />
	</node>
	<node lat="59.27771111363151" lon="11.43980554883974" id="-14730">
		<tag k="alt_name" v="Elnes, lille" />
		<tag k="name" v="Lille Elnes" />
		<tag k="place" v="farm" />
		<tag k="ssr:stedsnr" v="2879" />
	</node>
	<node lat="59.30470000016784" lon="11.407861116695631" id="-14732">
		<tag k="name" v="Vatvetødegård" />
		<tag k="place" v="farm" />
		<tag k="ssr:stedsnr" v="2999" />
	</node>
	<node lat="59.384891663432384" lon="11.573386104771926" id="-14733">
		<tag k="name" v="Tiuren" />
		<tag k="place" v="farm" />
		<tag k="ssr:stedsnr" v="3506" />
	</node>
	<node lat="59.39042775460201" lon="11.546659062972411" id="-14734">
		<tag k="fixme" v="consider place=hamlet" />
		<tag k="name" v="Mellomdalen" />
		<tag k="place" v="farm" />
		<tag k="ssr:stedsnr" v="3511" />
	</node>
	<node lat="59.36596069072444" lon="11.494527111105986" id="-14737">
		<tag k="fixme" v="consider place=hamlet" />
		<tag k="name" v="Rud" />
		<tag k="place" v="farm" />
		<tag k="ssr:stedsnr" v="3678" />
	</node>
	<node lat="59.35878102500713" lon="11.476598034275296" id="-14738">
		<tag k="fixme" v="consider place=hamlet" />
		<tag k="name" v="Åmot" />
		<tag k="place" v="farm" />
		<tag k="ssr:stedsnr" v="3685" />
	</node>
	<node lat="59.351098108487385" lon="11.48399408957642" id="-14740">
		<tag k="fixme" v="consider place=hamlet" />
		<tag k="name" v="Ås" />
		<tag k="place" v="farm" />
		<tag k="ssr:stedsnr" v="3707" />
	</node>
	<node lat="59.34322777559049" lon="11.4775888912157" id="-14741">
		<tag k="alt_name" v="Nakkim" />
		<tag k="name" v="Nakkjum" />
		<tag k="place" v="farm" />
		<tag k="ssr:stedsnr" v="3710" />
	</node>
	<node lat="59.35272500278446" lon="11.370277779015845" id="-14744">
		<tag k="name" v="Aker" />
		<tag k="place" v="farm" />
		<tag k="ssr:stedsnr" v="3740" />
	</node>
	<node lat="59.362602775075715" lon="11.321127773579665" id="-14745">
		<tag k="fixme" v="consider place=hamlet" />
		<tag k="name" v="Moen" />
		<tag k="place" v="farm" />
		<tag k="ssr:stedsnr" v="3753" />
	</node>
	<node lat="59.38325000139139" lon="11.51160833047197" id="-14747">
		<tag k="name" v="Tjerbu" />
		<tag k="place" v="farm" />
		<tag k="ssr:stedsnr" v="9804" />
	</node>
	<node lat="59.38019077746182" lon="11.512090609578898" id="-14750">
		<tag k="name" v="Lerkerud" />
		<tag k="place" v="locality" />
		<tag k="ssr:stedsnr" v="232910" />
	</node>
	<node lat="59.38577222399739" lon="11.569841667521793" id="-14752">
		<tag k="name" v="Berget" />
		<tag k="place" v="farm" />
		<tag k="ssr:stedsnr" v="232969" />
	</node>
	<node lat="59.31856944777776" lon="11.567050002547418" id="-14753">
		<tag k="name" v="Brodal" />
		<tag k="place" v="locality" />
		<tag k="ssr:stedsnr" v="233123" />
	</node>
	<node lat="59.40828888619171" lon="11.550963887595158" id="-14761">
		<tag k="name" v="Mellemdalen" />
		<tag k="place" v="farm" />
		<tag k="ssr:stedsnr" v="233582" />
	</node>
	<node lat="59.360247223041966" lon="11.419966670740989" id="-14764">
		<tag k="name" v="Kirkeng" />
		<tag k="place" v="quarter" />
		<tag k="ssr:stedsnr" v="22301" />
	</node>
	<node lat="59.30793708551037" lon="11.451752826043306" id="-14765">
		<tag k="fixme" v="consider place=hamlet" />
		<tag k="name" v="Lannem" />
		<tag k="place" v="farm" />
		<tag k="ssr:stedsnr" v="22302" />
	</node>
	<node lat="59.355729200131485" lon="11.353155906777555" id="-14766">
		<tag k="name" v="Nerbyødegård" />
		<tag k="place" v="farm" />
		<tag k="ssr:stedsnr" v="22304" />
	</node>
	<node lat="59.44302222395564" lon="11.260341668375888" id="-14769">
		<tag k="name" v="Løvholen" />
		<tag k="place" v="farm" />
		<tag k="ssr:stedsnr" v="22484" />
	</node>
	<node lat="59.44546666939178" lon="11.257291664552726" id="-14770">
		<tag k="name" v="Roligheta" />
		<tag k="place" v="farm" />
		<tag k="ssr:stedsnr" v="22500" />
	</node>
	<node lat="59.460859046327336" lon="11.326603089025895" id="-14771">
		<tag k="fixme" v="consider place=hamlet" />
		<tag k="name" v="Degnes" />
		<tag k="place" v="farm" />
		<tag k="ssr:stedsnr" v="22604" />
	</node>
	<node lat="59.45818086883797" lon="11.384291212528105" id="-14772">
		<tag k="fixme" v="consider place=hamlet" />
		<tag k="name" v="Tue" />
		<tag k="place" v="farm" />
		<tag k="ssr:stedsnr" v="22611" />
	</node>
	<node lat="59.44917499688472" lon="11.337555562372886" id="-14774">
		<tag k="name" v="Hellerud" />
		<tag k="place" v="farm" />
		<tag k="ssr:stedsnr" v="22615" />
	</node>
	<node lat="59.34217126005347" lon="11.336456038721503" id="-14775">
		<tag k="alt_name" v="Nærbyhullet" />
		<tag k="name" v="Bjørgum" />
		<tag k="place" v="farm" />
		<tag k="ssr:stedsnr" v="22710" />
	</node>
	<node lat="59.45928611387904" lon="11.252049995025628" id="-14777">
		<tag k="name" v="Fuglesangen" />
		<tag k="place" v="farm" />
		<tag k="ssr:stedsnr" v="22990" />
	</node>
	<node lat="59.39181388508302" lon="11.497411104965453" id="-14779">
		<tag k="name" v="Vedalsbråten" />
		<tag k="place" v="farm" />
		<tag k="ssr:stedsnr" v="50705" />
	</node>
	<node lat="59.36880000120709" lon="11.384000008487533" id="-14783">
		<tag k="name" v="Danstorp" />
		<tag k="place" v="farm" />
		<tag k="ssr:stedsnr" v="51008" />
	</node>
	<node lat="59.35736944661587" lon="11.38122777964552" id="-14785">
		<tag k="name" v="Bakke" />
		<tag k="place" v="farm" />
		<tag k="ssr:stedsnr" v="51023" />
	</node>
	<node lat="59.34658998231099" lon="11.393539791259434" id="-14789">
		<tag k="name" v="Sveen" />
		<tag k="place" v="farm" />
		<tag k="ssr:stedsnr" v="51474" />
	</node>
	<node lat="59.4641183709118" lon="11.279709475394858" id="-14792">
		<tag k="name" v="Brønntorp" />
		<tag k="place" v="farm" />
		<tag k="ssr:stedsnr" v="63022" />
	</node>
	<node lat="59.440888703461454" lon="11.24628256624505" id="-14793">
		<tag k="fixme" v="consider place=hamlet" />
		<tag k="name" v="Gapestad" />
		<tag k="place" v="farm" />
		<tag k="ssr:stedsnr" v="63202" />
	</node>
	<node lat="59.44275278109565" lon="11.288697229676373" id="-14794">
		<tag k="name" v="Haga" />
		<tag k="place" v="farm" />
		<tag k="ssr:stedsnr" v="63218" />
	</node>
	<node lat="59.43327711352613" lon="11.252010103998002" id="-14795">
		<tag k="fixme" v="consider place=hamlet" />
		<tag k="name" v="Berg" />
		<tag k="place" v="farm" />
		<tag k="ssr:stedsnr" v="63164" />
	</node>
	<node lat="59.42731745711436" lon="11.297794910175703" id="-14796">
		<tag k="fixme" v="consider place=hamlet" />
		<tag k="name" v="Kårlia" />
		<tag k="place" v="farm" />
		<tag k="ssr:stedsnr" v="63166" />
	</node>
	<node lat="59.4275281215789" lon="11.439990660639907" id="-14797">
		<tag k="name" v="Bøen" />
		<tag k="place" v="farm" />
		<tag k="ssr:stedsnr" v="63175" />
	</node>
	<node lat="59.418675003565156" lon="11.265825001771397" id="-14798">
		<tag k="name" v="Bråten" />
		<tag k="place" v="farm" />
		<tag k="ssr:stedsnr" v="63182" />
	</node>
	<node lat="59.42235000285742" lon="11.251180563811674" id="-14799">
		<tag k="name" v="Hellene" />
		<tag k="place" v="farm" />
		<tag k="ssr:stedsnr" v="63183" />
	</node>
	<node lat="59.43014166870487" lon="11.574124993700856" id="-14801">
		<tag k="name" v="Høytomt" />
		<tag k="place" v="farm" />
		<tag k="ssr:stedsnr" v="63621" />
	</node>
	<node lat="59.37922312382369" lon="11.388021143271496" id="-14802">
		<tag k="fixme" v="consider place=hamlet" />
		<tag k="name" v="Ski" />
		<tag k="place" v="farm" />
		<tag k="ssr:stedsnr" v="63815" />
	</node>
	<node lat="59.39639051208466" lon="11.305409427435231" id="-14803">
		<tag k="name" v="Haraldstad" />
		<tag k="place" v="hamlet" />
		<tag k="ssr:stedsnr" v="63818" />
	</node>
	<node lat="59.35352222606077" lon="11.44538610477002" id="-14807">
		<tag k="fixme" v="multiple name tags, choose one and add the other to alt_name" />
		<tag k="name" v="Nordre Heier;Østre Heier" />
		<tag k="place" v="farm" />
		<tag k="ssr:stedsnr" v="64761" />
	</node>
	<node lat="59.34710000158129" lon="11.311502772609568" id="-14808">
		<tag k="name" v="Sandbekk" />
		<tag k="place" v="farm" />
		<tag k="ssr:stedsnr" v="64765" />
	</node>
	<node lat="59.3606659104504" lon="11.327214082608247" id="-14809">
		<tag k="fixme" v="consider place=hamlet" />
		<tag k="name" v="Øverby" />
		<tag k="place" v="farm" />
		<tag k="ssr:stedsnr" v="64775" />
	</node>
	<node lat="59.35788284676338" lon="11.381263755866385" id="-14810">
		<tag k="fixme" v="consider place=hamlet" />
		<tag k="name" v="Bakke" />
		<tag k="place" v="farm" />
		<tag k="ssr:stedsnr" v="64779" />
	</node>
	<node lat="59.34554999803451" lon="11.273549997299114" id="-14811">
		<tag k="name" v="Mikkelshytta" />
		<tag k="place" v="farm" />
		<tag k="ssr:stedsnr" v="64814" />
	</node>
	<node lat="59.34103171363018" lon="11.28074333369846" id="-14812">
		<tag k="name" v="Henskleva" />
		<tag k="place" v="farm" />
		<tag k="ssr:stedsnr" v="64815" />
	</node>
	<node lat="59.45172222478094" lon="11.362238890367932" id="-14818">
		<tag k="name" v="Kollerud" />
		<tag k="place" v="farm" />
		<tag k="ssr:stedsnr" v="83609" />
	</node>
	<node lat="59.38203611124605" lon="11.261144442267277" id="-14820">
		<tag k="alt_name" v="Søndre Gundelsby;Søndre Gunndelsby" />
		<tag k="name" v="Skredderhytta" />
		<tag k="place" v="farm" />
		<tag k="ssr:stedsnr" v="83730" />
	</node>
	<node lat="59.2686357983835" lon="11.453209645278708" id="-14821">
		<tag k="fixme" v="consider place=hamlet" />
		<tag k="name" v="Elnes" />
		<tag k="place" v="farm" />
		<tag k="ssr:stedsnr" v="245918" />
	</node>
	<node lat="59.453250000111595" lon="11.316980564112185" id="-14823">
		<tag k="name" v="Nes" />
		<tag k="place" v="farm" />
		<tag k="ssr:stedsnr" v="245180" />
	</node>
	<node lat="59.444298755853794" lon="11.225505410695002" id="-14824">
		<tag k="fixme" v="consider place=hamlet" />
		<tag k="name" v="Smittil" />
		<tag k="place" v="farm" />
		<tag k="ssr:stedsnr" v="245185" />
	</node>
	<node lat="59.40992433852409" lon="11.454077432368607" id="-14826">
		<tag k="fixme" v="consider place=hamlet" />
		<tag k="name" v="Åserud" />
		<tag k="place" v="farm" />
		<tag k="ssr:stedsnr" v="245135" />
	</node>
	<node lat="59.40473511258547" lon="11.376895072014303" id="-14827">
		<tag k="name" v="Bjørnstad" />
		<tag k="place" v="hamlet" />
		<tag k="ssr:stedsnr" v="245140" />
	</node>
	<node lat="59.41989787719284" lon="11.405140456830601" id="-14828">
		<tag k="name" v="Grøtvet" />
		<tag k="place" v="farm" />
		<tag k="ssr:stedsnr" v="245148" />
	</node>
	<node lat="59.43193263913764" lon="11.348712476074697" id="-14829">
		<tag k="fixme" v="consider place=hamlet" />
		<tag k="name" v="Gudim" />
		<tag k="place" v="farm" />
		<tag k="ssr:stedsnr" v="245154" />
	</node>
	<node lat="59.43835694862691" lon="11.385300710485435" id="-14831">
		<tag k="name" v="Østby" />
		<tag k="place" v="farm" />
		<tag k="ssr:stedsnr" v="245195" />
	</node>
	<node lat="59.43596944684597" lon="11.395922228515166" id="-14832">
		<tag k="name" v="Slommerud" />
		<tag k="place" v="farm" />
		<tag k="ssr:stedsnr" v="245209" />
	</node>
	<node lat="59.30131666594779" lon="11.39559999482006" id="-14833">
		<tag k="name" v="Piparen" />
		<tag k="place" v="farm" />
		<tag k="ssr:stedsnr" v="84631" />
	</node>
	<node lat="59.45348808735717" lon="11.277597463933901" id="-14834">
		<tag k="fixme" v="consider place=hamlet" />
		<tag k="name" v="Vortvet" />
		<tag k="place" v="farm" />
		<tag k="ssr:stedsnr" v="245229" />
	</node>
	<node lat="59.3005194450782" lon="11.474077776971587" id="-14835">
		<tag k="name" v="Budalen" />
		<tag k="place" v="farm" />
		<tag k="ssr:stedsnr" v="245653" />
	</node>
	<node lat="59.36350811552808" lon="11.29429670723225" id="-14837">
		<tag k="fixme" v="consider place=hamlet" />
		<tag k="name" v="Kjenner" />
		<tag k="place" v="farm" />
		<tag k="ssr:stedsnr" v="245832" />
	</node>
	<node lat="59.30288656767143" lon="11.348765338083341" id="-14840">
		<tag k="name" v="Elgutubråten" />
		<tag k="place" v="farm" />
		<tag k="ssr:stedsnr" v="245991" />
	</node>
	<node lat="59.30396944254252" lon="11.452366665091656" id="-14841">
		<tag k="name" v="Lannemholen" />
		<tag k="place" v="farm" />
		<tag k="ssr:stedsnr" v="245997" />
	</node>
	<node lat="59.409733330593504" lon="11.587925006912219" id="-14843">
		<tag k="name" v="Klemma" />
		<tag k="place" v="isolated_dwelling" />
		<tag k="ssr:stedsnr" v="246485" />
	</node>
	<node lat="59.36975277694789" lon="11.463649993649934" id="-14845">
		<tag k="name" v="Stubberud" />
		<tag k="place" v="farm" />
		<tag k="ssr:stedsnr" v="246745" />
	</node>
	<node lat="59.32791771175728" lon="11.433235376801248" id="-14846">
		<tag k="fixme" v="consider place=hamlet" />
		<tag k="name" v="Gammelsrud" />
		<tag k="place" v="farm" />
		<tag k="ssr:stedsnr" v="246945" />
	</node>
	<node lat="59.326154137492956" lon="11.446723860426443" id="-14847">
		<tag k="fixme" v="consider place=hamlet" />
		<tag k="name" v="Lunde" />
		<tag k="place" v="farm" />
		<tag k="ssr:stedsnr" v="246948" />
	</node>
	<node lat="59.41169722178467" lon="11.410349992080894" id="-14852">
		<tag k="name" v="Vogn" />
		<tag k="place" v="farm" />
		<tag k="ssr:stedsnr" v="111869" />
	</node>
	<node lat="59.43987499680925" lon="11.42284999815581" id="-14858">
		<tag k="name" v="Dypedal" />
		<tag k="place" v="farm" />
		<tag k="ssr:stedsnr" v="112510" />
	</node>
	<node lat="59.41027777430103" lon="11.407958335310997" id="-14859">
		<tag k="name" v="Fossnes" />
		<tag k="place" v="farm" />
		<tag k="ssr:stedsnr" v="112612" />
	</node>
	<node lat="59.458358361765804" lon="11.378487351646184" id="-14860">
		<tag k="name" v="Lenna" />
		<tag k="place" v="farm" />
		<tag k="ssr:stedsnr" v="123271" />
	</node>
	<node lat="59.449650002871486" lon="11.262072231033374" id="-14861">
		<tag k="name" v="Vesttorp" />
		<tag k="place" v="farm" />
		<tag k="ssr:stedsnr" v="123272" />
	</node>
	<node lat="59.40977036498249" lon="11.332493840303526" id="-14862">
		<tag k="fixme" v="consider place=hamlet" />
		<tag k="name" v="Vestby" />
		<tag k="place" v="farm" />
		<tag k="ssr:stedsnr" v="123145" />
	</node>
	<node lat="59.424999995565386" lon="11.211797230025196" id="-14864">
		<tag k="alt_name" v="Kapteinbråten" />
		<tag k="name" v="Kapteinsbråten" />
		<tag k="place" v="farm" />
		<tag k="ssr:stedsnr" v="123186" />
	</node>
	<node lat="59.28192949659931" lon="11.40656386573878" id="-14865">
		<tag k="fixme" v="consider place=hamlet" />
		<tag k="name" v="Fjell" />
		<tag k="place" v="farm" />
		<tag k="ssr:stedsnr" v="123917" />
	</node>
	<node lat="59.43187601183833" lon="11.209723061036856" id="-14866">
		<tag k="fixme" v="consider place=hamlet" />
		<tag k="name" v="Grav" />
		<tag k="place" v="farm" />
		<tag k="ssr:stedsnr" v="124179" />
	</node>
	<node lat="59.380194396140034" lon="11.420148234326973" id="-14871">
		<tag k="fixme" v="consider place=hamlet" />
		<tag k="name" v="Helgerud" />
		<tag k="place" v="farm" />
		<tag k="ssr:stedsnr" v="124850" />
	</node>
	<node lat="59.40113483705282" lon="11.23522953350781" id="-14872">
		<tag k="fixme" v="consider place=hamlet" />
		<tag k="name" v="Torp" />
		<tag k="place" v="farm" />
		<tag k="ssr:stedsnr" v="251848" />
	</node>
	<node lat="59.32436480194486" lon="11.398166450974907" id="-14875">
		<tag k="fixme" v="consider place=hamlet" />
		<tag k="name" v="Stumperud" />
		<tag k="place" v="farm" />
		<tag k="ssr:stedsnr" v="143638" />
	</node>
	<node lat="59.44362777946737" lon="11.28168889584762" id="-14876">
		<tag k="name" v="Torper" />
		<tag k="place" v="farm" />
		<tag k="ssr:stedsnr" v="143513" />
	</node>
	<node lat="59.44008055903637" lon="11.229538889655204" id="-14877">
		<tag k="name" v="Snekkenes" />
		<tag k="place" v="locality" />
		<tag k="ssr:stedsnr" v="143520" />
	</node>
	<node lat="59.41694722280611" lon="11.36611945258753" id="-14880">
		<tag k="name" v="Nordberg" />
		<tag k="place" v="farm" />
		<tag k="ssr:stedsnr" v="143584" />
	</node>
	<node lat="59.426869448046624" lon="11.336902777612314" id="-14881">
		<tag k="name" v="Mjørud" />
		<tag k="place" v="farm" />
		<tag k="ssr:stedsnr" v="143590" />
	</node>
	<node lat="59.44821388715478" lon="11.388491670067511" id="-14882">
		<tag k="name" v="Huset" />
		<tag k="place" v="farm" />
		<tag k="ssr:stedsnr" v="143593" />
	</node>
	<node lat="59.37775555483708" lon="11.379594446655426" id="-14885">
		<tag k="name" v="Skaltorp" />
		<tag k="place" v="locality" />
		<tag k="ssr:stedsnr" v="172007" />
	</node>
	<node lat="59.29430277810203" lon="11.354408333096346" id="-14886">
		<tag k="name" v="Kullbråten" />
		<tag k="place" v="locality" />
		<tag k="ssr:stedsnr" v="172011" />
	</node>
	<node lat="59.47213610836901" lon="11.330508329508211" id="-14888">
		<tag k="name" v="Gran" />
		<tag k="place" v="farm" />
		<tag k="ssr:stedsnr" v="172020" />
	</node>
	<node lat="59.42196388862777" lon="11.498858335906748" id="-14894">
		<tag k="name" v="Budalen" />
		<tag k="place" v="farm" />
		<tag k="ssr:stedsnr" v="172521" />
	</node>
	<node lat="59.383722218834556" lon="11.454727785452496" id="-14896">
		<tag k="fixme" v="multiple name tags, choose one and add the other to alt_name" />
		<tag k="name" v="Haugskroken;Tjærbuhaugen" />
		<tag k="place" v="farm" />
		<tag k="ssr:stedsnr" v="172860" />
	</node>
	<node lat="59.358866665380184" lon="11.330708333856014" id="-14897">
		<tag k="name" v="Øverby" />
		<tag k="place" v="farm" />
		<tag k="ssr:stedsnr" v="172767" />
	</node>
	<node lat="59.453450001168314" lon="11.354275008466546" id="-14899">
		<tag k="name" v="Sletner" />
		<tag k="place" v="farm" />
		<tag k="ssr:stedsnr" v="184222" />
	</node>
	<node lat="59.456159082897834" lon="11.24746110802382" id="-14900">
		<tag k="fixme" v="consider place=hamlet" />
		<tag k="name" v="Dal" />
		<tag k="place" v="farm" />
		<tag k="ssr:stedsnr" v="184226" />
	</node>
	<node lat="59.42272499929298" lon="11.319347226404702" id="-14903">
		<tag k="name" v="Stemme" />
		<tag k="place" v="farm" />
		<tag k="ssr:stedsnr" v="184184" />
	</node>
	<node lat="59.41961944429223" lon="11.449974995951786" id="-14904">
		<tag k="name" v="Iglerudlykkja" />
		<tag k="place" v="farm" />
		<tag k="ssr:stedsnr" v="184185" />
	</node>
	<node lat="59.450380551668616" lon="11.406555549041425" id="-14905">
		<tag k="name" v="Stokkedalen" />
		<tag k="place" v="farm" />
		<tag k="ssr:stedsnr" v="184195" />
	</node>
	<node lat="59.45033187215428" lon="11.339144569955756" id="-14906">
		<tag k="fixme" v="consider place=hamlet" />
		<tag k="name" v="Kåen" />
		<tag k="place" v="farm" />
		<tag k="ssr:stedsnr" v="184200" />
	</node>
	<node lat="59.45359444722" lon="11.530255558917288" id="-14907">
		<tag k="alt_name" v="Ekelia" />
		<tag k="name" v="Eikelia" />
		<tag k="place" v="isolated_dwelling" />
		<tag k="ssr:stedsnr" v="184605" />
	</node>
	<node lat="59.43890833618887" lon="11.540800004966814" id="-14908">
		<tag k="alt_name" v="Haugsteinsætra;Haugsteinsetra;Haugstensetre" />
		<tag k="historic" v="shieling" />
		<tag k="name" v="Haugstensetra" />
		<tag k="place" v="isolated_dwelling" />
		<tag k="ssr:stedsnr" v="184619" />
	</node>
	<node lat="59.26557842515064" lon="11.4402609358322" id="-14909">
		<tag k="name" v="Bjørke" />
		<tag k="place" v="farm" />
		<tag k="ssr:stedsnr" v="184912" />
	</node>
	<node lat="59.312954612373" lon="11.391287441095134" id="-14910">
		<tag k="fixme" v="consider place=hamlet" />
		<tag k="name" v="Elgutu" />
		<tag k="place" v="farm" />
		<tag k="ssr:stedsnr" v="184937" />
	</node>
	<node lat="59.39155277899757" lon="11.44715833672566" id="-14911">
		<tag k="name" v="Framnes" />
		<tag k="place" v="farm" />
		<tag k="ssr:stedsnr" v="184809" />
	</node>
	<node lat="59.254083783002415" lon="11.437142956476057" id="-14912">
		<tag k="fixme" v="consider place=hamlet" />
		<tag k="name" v="Velund" />
		<tag k="place" v="farm" />
		<tag k="ssr:stedsnr" v="184892" />
	</node>
	<node lat="59.43146451342324" lon="11.317809783286311" id="-14913">
		<tag k="alt_name" v="Holøs søndre;Holøs" />
		<tag k="fixme" v="consider place=hamlet" />
		<tag k="name" v="Søndre Holøs" />
		<tag k="place" v="farm" />
		<tag k="ssr:stedsnr" v="185141" />
	</node>
	<node lat="59.44012499863898" lon="11.312786106707318" id="-14914">
		<tag k="alt_name" v="Hauger vestre" />
		<tag k="name" v="Vestre Hauger" />
		<tag k="place" v="farm" />
		<tag k="ssr:stedsnr" v="185187" />
	</node>
	<node lat="59.32219722390392" lon="11.516030558817215" id="-14916">
		<tag k="name" v="Ådalen" />
		<tag k="place" v="isolated_dwelling" />
		<tag k="ssr:stedsnr" v="185598" />
	</node>
	<node lat="59.34528055230168" lon="11.434505554371999" id="-14917">
		<tag k="name" v="Stamsåshaugen" />
		<tag k="place" v="farm" />
		<tag k="ssr:stedsnr" v="185731" />
	</node>
	<node lat="59.38228523200475" lon="11.375662725085473" id="-14918">
		<tag k="fixme" v="consider place=hamlet" />
		<tag k="name" v="Næristorp" />
		<tag k="place" v="farm" />
		<tag k="ssr:stedsnr" v="185802" />
	</node>
	<node lat="59.38797499962046" lon="11.379549995670647" id="-14919">
		<tag k="name" v="Glenge" />
		<tag k="place" v="farm" />
		<tag k="ssr:stedsnr" v="185803" />
	</node>
	<node lat="59.381338390399634" lon="11.409073768605987" id="-14920">
		<tag k="fixme" v="consider place=hamlet" />
		<tag k="name" v="Heier" />
		<tag k="place" v="farm" />
		<tag k="ssr:stedsnr" v="185804" />
	</node>
	<node lat="59.36943333066477" lon="11.304272229013431" id="-14921">
		<tag k="name" v="Ytterskogen" />
		<tag k="place" v="hamlet" />
		<tag k="ssr:stedsnr" v="185837" />
	</node>
	<node lat="59.36867500260153" lon="11.33797222102023" id="-14922">
		<tag k="name" v="Låket" />
		<tag k="place" v="locality" />
		<tag k="ssr:stedsnr" v="185843" />
	</node>
	<node lat="59.3790111125381" lon="11.307769444139025" id="-14923">
		<tag k="alt_name" v="Sørby nedre;Sørby søndre" />
		<tag k="name" v="Søndre Sørby" />
		<tag k="place" v="farm" />
		<tag k="ssr:stedsnr" v="265590" />
	</node>
	<node lat="59.4233666701127" lon="11.367430552418947" id="-14925">
		<tag k="name" v="Haugstad" />
		<tag k="place" v="farm" />
		<tag k="ssr:stedsnr" v="265685" />
	</node>
	<node lat="59.425341663150476" lon="11.393425004433219" id="-14926">
		<tag k="name" v="Ødegård" />
		<tag k="place" v="farm" />
		<tag k="ssr:stedsnr" v="265687" />
	</node>
	<node lat="59.35574444143968" lon="11.496024992113266" id="-14927">
		<tag k="name" v="Fossby" />
		<tag k="place" v="farm" />
		<tag k="ssr:stedsnr" v="265698" />
	</node>
	<node lat="59.41256111224393" lon="11.336544442364378" id="-14929">
		<tag k="name" v="Bodal" />
		<tag k="place" v="farm" />
		<tag k="ssr:stedsnr" v="265556" />
	</node>
	<node lat="59.396077781436375" lon="11.336202773830045" id="-14930">
		<tag k="name" v="Sadelmakeren" />
		<tag k="place" v="farm" />
		<tag k="ssr:stedsnr" v="265576" />
	</node>
	<node lat="59.27778610827253" lon="11.349791668035285" id="-14934">
		<tag k="name" v="Gislehytta" />
		<tag k="place" v="isolated_dwelling" />
		<tag k="ssr:stedsnr" v="266167" />
	</node>
	<node lat="59.30718332974115" lon="11.412077777268893" id="-14935">
		<tag k="name" v="Orud" />
		<tag k="place" v="farm" />
		<tag k="ssr:stedsnr" v="266623" />
	</node>
	<node lat="59.41107777462992" lon="11.345988895534099" id="-14938">
		<tag k="name" v="Bodal" />
		<tag k="place" v="farm" />
		<tag k="ssr:stedsnr" v="204550" />
	</node>
	<node lat="59.41153333425692" lon="11.349930548074932" id="-14939">
		<tag k="name" v="Brua" />
		<tag k="place" v="farm" />
		<tag k="ssr:stedsnr" v="204551" />
	</node>
	<node lat="59.43240555917794" lon="11.329116664851854" id="-14940">
		<tag k="name" v="Dørjehaugen" />
		<tag k="place" v="farm" />
		<tag k="ssr:stedsnr" v="204553" />
	</node>
	<node lat="59.44148888961276" lon="11.230016675162304" id="-14941">
		<tag k="name" v="Veiby" />
		<tag k="place" v="farm" />
		<tag k="ssr:stedsnr" v="204433" />
	</node>
	<node lat="59.3780083018614" lon="11.423494184802195" id="-14942">
		<tag k="name" v="Ramstad" />
		<tag k="place" v="farm" />
		<tag k="ssr:stedsnr" v="205703" />
	</node>
	<node lat="59.360622220409134" lon="11.298486108507655" id="-14945">
		<tag k="name" v="Kjenner" />
		<tag k="place" v="farm" />
		<tag k="ssr:stedsnr" v="232633" />
	</node>
	<node lat="59.36699232011397" lon="11.2887037347692" id="-14946">
		<tag k="name" v="Kjenner" />
		<tag k="place" v="farm" />
		<tag k="ssr:stedsnr" v="232634" />
	</node>
	<node lat="59.276486107680796" lon="11.527541660471515" id="-14955">
		<tag k="historic" v="shieling" />
		<tag k="name" v="Sølskotseter" />
		<tag k="place" v="isolated_dwelling" />
		<tag k="ssr:stedsnr" v="234987" />
	</node>
	<node lat="59.473150002570044" lon="11.450269446839652" id="-14957">
		<tag k="name" v="Åslia" />
		<tag k="place" v="isolated_dwelling" />
		<tag k="ssr:stedsnr" v="245004" />
	</node>
	<node lat="59.414599999680156" lon="11.214022223903973" id="-14958">
		<tag k="name" v="Delebekk" />
		<tag k="place" v="farm" />
		<tag k="ssr:stedsnr" v="245123" />
	</node>
	<node lat="59.41010327590605" lon="11.35752113621769" id="-14959">
		<tag k="name" v="Kirkeby" />
		<tag k="place" v="farm" />
		<tag k="ssr:stedsnr" v="245126" />
	</node>
	<node lat="59.3827160111234" lon="11.393538242963347" id="-14962">
		<tag k="fixme" v="consider place=hamlet" />
		<tag k="name" v="Tolsby" />
		<tag k="place" v="farm" />
		<tag k="ssr:stedsnr" v="245803" />
	</node>
	<node lat="59.39887499569529" lon="11.271675003403905" id="-14963">
		<tag k="alt_name" v="Skovdal" />
		<tag k="name" v="Holtet" />
		<tag k="place" v="farm" />
		<tag k="ssr:stedsnr" v="245812" />
	</node>
	<node lat="59.39501111082851" lon="11.361866659873952" id="-14964">
		<tag k="name" v="Bråten" />
		<tag k="place" v="farm" />
		<tag k="ssr:stedsnr" v="245815" />
	</node>
	<node lat="59.29615733521218" lon="11.409316543671357" id="-14966">
		<tag k="fixme" v="consider place=hamlet" />
		<tag k="name" v="Eng" />
		<tag k="place" v="farm" />
		<tag k="ssr:stedsnr" v="245973" />
	</node>
	<node lat="59.41869722539984" lon="11.500113886847895" id="-14967">
		<tag k="name" v="Budalen" />
		<tag k="place" v="farm" />
		<tag k="ssr:stedsnr" v="246501" />
	</node>
	<node lat="59.33322493818547" lon="11.552680337993177" id="-14968">
		<tag k="alt_name" v="Kilebu nordre;Kilebu" />
		<tag k="name" v="Nordre Kilebu" />
		<tag k="place" v="farm" />
		<tag k="ssr:stedsnr" v="246707" />
	</node>
	<node lat="59.35328030850665" lon="11.411744600078427" id="-14970">
		<tag k="fixme" v="consider place=hamlet" />
		<tag k="name" v="Kirkeng" />
		<tag k="place" v="farm" />
		<tag k="ssr:stedsnr" v="246731" />
	</node>
	<node lat="59.335846542290525" lon="11.377988250368269" id="-14971">
		<tag k="alt_name" v="Rolfseide" />
		<tag k="fixme" v="consider place=hamlet" />
		<tag k="name" v="Rolfseidet" />
		<tag k="place" v="farm" />
		<tag k="ssr:stedsnr" v="246767" />
	</node>
	<node lat="59.43640833485828" lon="11.244569443097271" id="-14973">
		<tag k="name" v="Stampehytta" />
		<tag k="place" v="isolated_dwelling" />
		<tag k="ssr:stedsnr" v="265515" />
	</node>
	<node lat="59.4234694467975" lon="11.322252786711843" id="-14975">
		<tag k="name" v="Haugårdshytta" />
		<tag k="place" v="isolated_dwelling" />
		<tag k="ssr:stedsnr" v="265627" />
	</node>
	<node lat="59.4315472183947" lon="11.337183327415472" id="-14976">
		<tag k="name" v="Gudimkroken" />
		<tag k="place" v="farm" />
		<tag k="ssr:stedsnr" v="265636" />
	</node>
	<node lat="59.38052777384404" lon="11.376913880970676" id="-14977">
		<tag k="name" v="Næristorp" />
		<tag k="place" v="farm" />
		<tag k="ssr:stedsnr" v="265639" />
	</node>
	<node lat="59.40993787843883" lon="11.404486104807868" id="-14983">
		<tag k="name" v="Filtvet" />
		<tag k="place" v="farm" />
		<tag k="ssr:stedsnr" v="293604" />
	</node>
	<node lat="59.37506666333255" lon="11.312313893856558" id="-14984">
		<tag k="name" v="Ilebekk" />
		<tag k="place" v="farm" />
		<tag k="ssr:stedsnr" v="293693" />
	</node>
	<node lat="59.464925883184996" lon="11.291205786593592" id="-14990">
		<tag k="fixme" v="consider place=hamlet" />
		<tag k="name" v="Myrer" />
		<tag k="place" v="farm" />
		<tag k="ssr:stedsnr" v="305018" />
	</node>
	<node lat="59.45160183447587" lon="11.289574890818576" id="-14992">
		<tag k="fixme" v="consider place=hamlet" />
		<tag k="name" v="Nålem" />
		<tag k="place" v="farm" />
		<tag k="ssr:stedsnr" v="306224" />
	</node>
	<node lat="59.304727778516735" lon="11.470077776925011" id="-14997">
		<tag k="name" v="Leiren" />
		<tag k="place" v="farm" />
		<tag k="ssr:stedsnr" v="306632" />
	</node>
	<node lat="59.33624722145199" lon="11.51080832586816" id="-14998">
		<tag k="alt_name" v="Kleiva" />
		<tag k="name" v="Kleven" />
		<tag k="place" v="farm" />
		<tag k="ssr:stedsnr" v="306712" />
	</node>
	<node lat="59.39107778180532" lon="11.315747222279679" id="-14999">
		<tag k="fixme" v="multiple name tags, choose one and add the other to alt_name" />
		<tag k="name" v="Langnes;Hverven" />
		<tag k="place" v="farm" />
		<tag k="ssr:stedsnr" v="306815" />
	</node>
	<node lat="59.3980627444536" lon="11.341431499136865" id="-15000">
		<tag k="fixme" v="consider place=hamlet" />
		<tag k="name" v="Åstorp" />
		<tag k="place" v="farm" />
		<tag k="ssr:stedsnr" v="306816" />
	</node>
	<node lat="59.39593322054691" lon="11.383643572486449" id="-15001">
		<tag k="fixme" v="consider place=hamlet" />
		<tag k="name" v="Torp" />
		<tag k="place" v="farm" />
		<tag k="ssr:stedsnr" v="306819" />
	</node>
	<node lat="59.44614444186157" lon="11.272722228487751" id="-15004">
		<tag k="name" v="Torper (Tuten)" />
		<tag k="place" v="farm" />
		<tag k="ssr:stedsnr" v="325502" />
	</node>
	<node lat="59.44416111047208" lon="11.26700555695257" id="-15005">
		<tag k="name" v="Torper" />
		<tag k="place" v="farm" />
		<tag k="ssr:stedsnr" v="325504" />
	</node>
	<node lat="59.27830980420111" lon="11.457354968730382" id="-15006">
		<tag k="fixme" v="consider place=hamlet" />
		<tag k="name" v="Sandbekk" />
		<tag k="place" v="farm" />
		<tag k="ssr:stedsnr" v="325634" />
	</node>
	<node lat="59.26785833065336" lon="11.347013892168572" id="-15008">
		<tag k="name" v="Gislehytta" />
		<tag k="place" v="isolated_dwelling" />
		<tag k="ssr:stedsnr" v="326115" />
	</node>
	<node lat="59.441128997166395" lon="11.385757986087597" id="-15012">
		<tag k="fixme" v="consider place=hamlet" />
		<tag k="name" v="Østby" />
		<tag k="place" v="farm" />
		<tag k="ssr:stedsnr" v="494793" />
	</node>
	<node lat="59.41279999890472" lon="11.438027774604933" id="-15014">
		<tag k="alt_name" v="Jerberg" />
		<tag k="name" v="Lyholt" />
		<tag k="place" v="farm" />
		<tag k="ssr:stedsnr" v="354625" />
	</node>
	<node lat="59.31823610955262" lon="11.380686117103254" id="-15017">
		<tag k="name" v="Engbråten" />
		<tag k="place" v="locality" />
		<tag k="ssr:stedsnr" v="354591" />
	</node>
	<node lat="59.36908889056763" lon="11.3075055525095" id="-15018">
		<tag k="name" v="Torp" />
		<tag k="place" v="farm" />
		<tag k="ssr:stedsnr" v="354715" />
	</node>
	<node lat="59.37872499927514" lon="11.478488887253375" id="-15021">
		<tag k="alt_name" v="Hermanrud" />
		<tag k="fixme" v="multiple name tags, choose one and add the other to alt_name" />
		<tag k="name" v="Roligheden;Hermannrud" />
		<tag k="place" v="farm" />
		<tag k="ssr:stedsnr" v="354875" />
	</node>
	<node lat="59.43636111062893" lon="11.40388611088694" id="-15023">
		<tag k="name" v="Molia" />
		<tag k="place" v="locality" />
		<tag k="ssr:stedsnr" v="354901" />
	</node>
	<node lat="59.41560555658889" lon="11.458536117165625" id="-15033">
		<tag k="name" v="Larshytta" />
		<tag k="place" v="isolated_dwelling" />
		<tag k="ssr:stedsnr" v="475598" />
	</node>
	<node lat="59.36361666294192" lon="11.284574999389507" id="-15034">
		<tag k="name" v="Lia" />
		<tag k="place" v="farm" />
		<tag k="ssr:stedsnr" v="475682" />
	</node>
	<node lat="59.3907916696966" lon="11.500577784373096" id="-15038">
		<tag k="name" v="Tangeland" />
		<tag k="place" v="farm" />
		<tag k="ssr:stedsnr" v="475755" />
	</node>
	<node lat="59.434763888433814" lon="11.447316658844146" id="-15048">
		<tag k="name" v="Trulsehytta" />
		<tag k="place" v="farm" />
		<tag k="ssr:stedsnr" v="476142" />
	</node>
	<node lat="59.42303852449847" lon="11.449812037120848" id="-15050">
		<tag k="fixme" v="consider place=hamlet" />
		<tag k="name" v="Iglerud" />
		<tag k="place" v="farm" />
		<tag k="ssr:stedsnr" v="366181" />
	</node>
	<node lat="59.41986470661868" lon="11.407420007431895" id="-15051">
		<tag k="name" v="Grøtvet" />
		<tag k="place" v="farm" />
		<tag k="ssr:stedsnr" v="366184" />
	</node>
	<node lat="59.45170000058673" lon="11.375750000867175" id="-15052">
		<tag k="name" v="Gjulem" />
		<tag k="place" v="farm" />
		<tag k="ssr:stedsnr" v="366187" />
	</node>
	<node lat="59.44580913265039" lon="11.235807563526915" id="-15053">
		<tag k="fixme" v="consider place=hamlet" />
		<tag k="name" v="Vestby" />
		<tag k="place" v="farm" />
		<tag k="ssr:stedsnr" v="366199" />
	</node>
	<node lat="59.385981712504204" lon="11.456272066454702" id="-15054">
		<tag k="fixme" v="consider place=hamlet" />
		<tag k="name" v="Herrefosser" />
		<tag k="place" v="farm" />
		<tag k="ssr:stedsnr" v="366841" />
	</node>
	<node lat="59.29030555348435" lon="11.459547220679514" id="-15055">
		<tag k="alt_name" v="Skammelsrud søndre;Skammelsrud" />
		<tag k="name" v="Søndre Skammelsrud" />
		<tag k="place" v="farm" />
		<tag k="ssr:stedsnr" v="366975" />
	</node>
	<node lat="59.35716944183963" lon="11.420363883836796" id="-15059">
		<tag k="name" v="Kirkeng skole" />
		<tag k="place" v="quarter" />
		<tag k="ssr:stedsnr" v="479286" />
	</node>
	<node lat="59.336266670018375" lon="11.499844449630615" id="-15063">
		<tag k="name" v="Væleødegården" />
		<tag k="place" v="farm" />
		<tag k="ssr:stedsnr" v="386644" />
	</node>
	<node lat="59.42477221980875" lon="11.30889445237534" id="-15065">
		<tag k="name" v="Stemmeåsen" />
		<tag k="place" v="farm" />
		<tag k="ssr:stedsnr" v="386601" />
	</node>
	<node lat="59.4165999986638" lon="11.442422221033084" id="-15067">
		<tag k="name" v="Kastehaugen" />
		<tag k="place" v="farm" />
		<tag k="ssr:stedsnr" v="487179" />
	</node>
	<node lat="59.41653989522478" lon="11.20060241971014" id="-15068">
		<tag k="fixme" v="consider place=hamlet" />
		<tag k="name" v="Haugen" />
		<tag k="place" v="farm" />
		<tag k="ssr:stedsnr" v="487124" />
	</node>
	<node lat="59.41297998056459" lon="11.224879254201388" id="-15069">
		<tag k="name" v="Solvang" />
		<tag k="place" v="locality" />
		<tag k="ssr:stedsnr" v="487126" />
	</node>
	<node lat="59.413325001439254" lon="11.260374993105025" id="-15070">
		<tag k="name" v="Tørrholtet" />
		<tag k="place" v="farm" />
		<tag k="ssr:stedsnr" v="487130" />
	</node>
	<node lat="59.412275002298095" lon="11.281874995677411" id="-15071">
		<tag k="name" v="Fjellingen" />
		<tag k="place" v="farm" />
		<tag k="ssr:stedsnr" v="487131" />
	</node>
	<node lat="59.39615555822505" lon="11.241052781974629" id="-15072">
		<tag k="fixme" v="consider place=hamlet" />
		<tag k="name" v="Skantebygda" />
		<tag k="place" v="village" />
		<tag k="ssr:stedsnr" v="487140" />
	</node>
	<node lat="59.28139576894638" lon="11.34627319340329" id="-15073">
		<tag k="fixme" v="consider place=hamlet" />
		<tag k="name" v="Trondsætret" />
		<tag k="place" v="farm" />
		<tag k="ssr:stedsnr" v="487886" />
	</node>
	<node lat="59.28295277759612" lon="11.406680556648208" id="-15074">
		<tag k="alt_name" v="Fjell nordre" />
		<tag k="name" v="Nordre Fjell" />
		<tag k="place" v="farm" />
		<tag k="ssr:stedsnr" v="414698" />
	</node>
	<node lat="59.317955554337914" lon="11.448197225780337" id="-15076">
		<tag k="alt_name" v="Heller nordre;Heller" />
		<tag k="name" v="Nordre Heller" />
		<tag k="place" v="farm" />
		<tag k="ssr:stedsnr" v="487938" />
	</node>
	<node lat="59.44559219985406" lon="11.40800208605342" id="-15078">
		<tag k="fixme" v="consider place=hamlet" />
		<tag k="name" v="Rustadødegård" />
		<tag k="place" v="farm" />
		<tag k="ssr:stedsnr" v="488157" />
	</node>
	<node lat="59.309400000435275" lon="11.377100000668886" id="-15079">
		<tag k="name" v="Elgutuskogen" />
		<tag k="place" v="farm" />
		<tag k="ssr:stedsnr" v="487952" />
	</node>
	<node lat="59.473952777733636" lon="11.469644438191956" id="-15081">
		<tag k="name" v="Balkan" />
		<tag k="place" v="isolated_dwelling" />
		<tag k="ssr:stedsnr" v="415348" />
	</node>
	<node lat="59.44375000180794" lon="11.361402784798681" id="-15084">
		<tag k="name" v="Femmen" />
		<tag k="place" v="farm" />
		<tag k="ssr:stedsnr" v="488164" />
	</node>
	<node lat="59.43792281598646" lon="11.334627462178048" id="-15085">
		<tag k="fixme" v="consider place=hamlet" />
		<tag k="name" v="Grårud" />
		<tag k="place" v="farm" />
		<tag k="ssr:stedsnr" v="488173" />
	</node>
	<node lat="59.444549189247255" lon="11.32615961414696" id="-15086">
		<tag k="name" v="Torper" />
		<tag k="place" v="isolated_dwelling" />
		<tag k="ssr:stedsnr" v="488174" />
	</node>
	<node lat="59.46714984625548" lon="11.240871398374416" id="-15087">
		<tag k="fixme" v="consider place=hamlet" />
		<tag k="name" v="Grøterud" />
		<tag k="place" v="farm" />
		<tag k="ssr:stedsnr" v="488177" />
	</node>
	<node lat="59.44765513528634" lon="11.256196661888819" id="-15088">
		<tag k="fixme" v="consider place=hamlet" />
		<tag k="name" v="Ostorp" />
		<tag k="place" v="farm" />
		<tag k="ssr:stedsnr" v="488212" />
	</node>
	<node lat="59.452035316279556" lon="11.236162663624455" id="-15089">
		<tag k="fixme" v="consider place=hamlet" />
		<tag k="name" v="Nordby" />
		<tag k="place" v="farm" />
		<tag k="ssr:stedsnr" v="488214" />
	</node>
	<node lat="59.28684722004112" lon="11.491558332702285" id="-15091">
		<tag k="alt_name" v="Hellersætret;Helleseter" />
		<tag k="historic" v="shieling" />
		<tag k="name" v="Hellersetret" />
		<tag k="place" v="isolated_dwelling" />
		<tag k="ssr:stedsnr" v="488685" />
	</node>
	<node lat="59.35434049676414" lon="11.463225516061772" id="-15092">
		<tag k="fixme" v="consider place=hamlet" />
		<tag k="name" v="Nokkerud" />
		<tag k="place" v="farm" />
		<tag k="ssr:stedsnr" v="488772" />
	</node>
	<node lat="59.32770966075359" lon="11.394940995642619" id="-15093">
		<tag k="alt_name" v="Erte østre" />
		<tag k="name" v="Østre Erte" />
		<tag k="place" v="farm" />
		<tag k="ssr:stedsnr" v="488785" />
	</node>
	<node lat="59.32580356350868" lon="11.390600311002945" id="-15094">
		<tag k="alt_name" v="Erte nedre" />
		<tag k="fixme" v="consider place=hamlet" />
		<tag k="name" v="Nedre Erte" />
		<tag k="place" v="farm" />
		<tag k="ssr:stedsnr" v="488786" />
	</node>
	<node lat="59.36468064324536" lon="11.354917751784619" id="-15095">
		<tag k="fixme" v="consider place=hamlet" />
		<tag k="name" v="Krosby" />
		<tag k="place" v="farm" />
		<tag k="ssr:stedsnr" v="488839" />
	</node>
	<node lat="59.37908717872777" lon="11.456346616604542" id="-15096">
		<tag k="fixme" v="consider place=hamlet" />
		<tag k="name" v="Storefosser" />
		<tag k="place" v="farm" />
		<tag k="ssr:stedsnr" v="488867" />
	</node>
	<node lat="59.397244442560115" lon="11.50374722848166" id="-15097">
		<tag k="alt_name" v="Galborga" />
		<tag k="name" v="Galborgen" />
		<tag k="place" v="farm" />
		<tag k="ssr:stedsnr" v="489566" />
	</node>
	<node lat="59.40303888493922" lon="11.510377778030085" id="-15098">
		<tag k="name" v="Gløbua" />
		<tag k="place" v="farm" />
		<tag k="ssr:stedsnr" v="489567" />
	</node>
	<node lat="59.32163888971144" lon="11.570761106225032" id="-15099">
		<tag k="name" v="Tangen" />
		<tag k="place" v="farm" />
		<tag k="ssr:stedsnr" v="489680" />
	</node>
	<node lat="59.420013013799554" lon="11.363549009595923" id="-15101">
		<tag k="fixme" v="consider place=hamlet" />
		<tag k="name" v="Bergenhus" />
		<tag k="place" v="farm" />
		<tag k="ssr:stedsnr" v="427206" />
	</node>
	<node lat="59.439058698638526" lon="11.395581459420779" id="-15102">
		<tag k="fixme" v="consider place=hamlet" />
		<tag k="name" v="Grønnerud" />
		<tag k="place" v="farm" />
		<tag k="ssr:stedsnr" v="427223" />
	</node>
	<node lat="59.43501452127694" lon="11.28375756895762" id="-15103">
		<tag k="alt_name" v="Buer nedre" />
		<tag k="fixme" v="consider place=hamlet" />
		<tag k="name" v="Nedre Buer" />
		<tag k="place" v="farm" />
		<tag k="ssr:stedsnr" v="427227" />
	</node>
	<node lat="59.43592984640893" lon="11.421453923137063" id="-15104">
		<tag k="name" v="Dypedal" />
		<tag k="place" v="farm" />
		<tag k="ssr:stedsnr" v="427231" />
	</node>
	<node lat="59.42300000287926" lon="11.265697224046198" id="-15105">
		<tag k="alt_name" v="Bergerud (Gørdalen)" />
		<tag k="name" v="Bergerud" />
		<tag k="place" v="farm" />
		<tag k="ssr:stedsnr" v="427196" />
	</node>
	<node lat="59.38567500338566" lon="11.314849996147599" id="-15107">
		<tag k="name" v="Sørbyberget" />
		<tag k="place" v="farm" />
		<tag k="ssr:stedsnr" v="427778" />
	</node>
	<node lat="59.382899996984975" lon="11.310997228383524" id="-15108">
		<tag k="name" v="Sørby" />
		<tag k="place" v="farm" />
		<tag k="ssr:stedsnr" v="427779" />
	</node>
	<node lat="59.39545986284454" lon="11.236373841075633" id="-15109">
		<tag k="fixme" v="consider place=hamlet" />
		<tag k="name" v="Revelsby" />
		<tag k="place" v="farm" />
		<tag k="ssr:stedsnr" v="427806" />
	</node>
	<node lat="59.35265451238011" lon="11.343780443007931" id="-15112">
		<tag k="fixme" v="consider place=hamlet" />
		<tag k="name" v="Nerby" />
		<tag k="place" v="farm" />
		<tag k="ssr:stedsnr" v="428763" />
	</node>
	<node lat="59.38132353093046" lon="11.303292888347649" id="-15114">
		<tag k="fixme" v="consider place=hamlet" />
		<tag k="name" v="Linnestad" />
		<tag k="place" v="farm" />
		<tag k="ssr:stedsnr" v="428865" />
	</node>
	<node lat="59.379522251343666" lon="11.428309941894572" id="-15115">
		<tag k="fixme" v="consider place=hamlet" />
		<tag k="name" v="Halem" />
		<tag k="place" v="farm" />
		<tag k="ssr:stedsnr" v="428871" />
	</node>
	<node lat="59.41456196624049" lon="11.352752290632948" id="-15116">
		<tag k="name" v="Grine" />
		<tag k="place" v="farm" />
		<tag k="ssr:stedsnr" v="447570" />
	</node>
	<node lat="59.41259722296927" lon="11.343841664550363" id="-15117">
		<tag k="name" v="Bodal" />
		<tag k="place" v="farm" />
		<tag k="ssr:stedsnr" v="447572" />
	</node>
	<node lat="59.40436944108262" lon="11.20930833934935" id="-15120">
		<tag k="historic" v="shieling" />
		<tag k="name" v="Øvre Morthaug" />
		<tag k="place" v="isolated_dwelling" />
		<tag k="ssr:stedsnr" v="447689" />
	</node>
	<node lat="59.27196666433729" lon="11.37867500832176" id="-15122">
		<tag k="name" v="Fjellseter" />
		<tag k="place" v="farm" />
		<tag k="ssr:stedsnr" v="448172" />
	</node>
	<node lat="59.329773254514876" lon="11.38886724640707" id="-15125">
		<tag k="alt_name" v="Erte øvre" />
		<tag k="fixme" v="consider place=hamlet" />
		<tag k="name" v="Øvre Erte" />
		<tag k="place" v="farm" />
		<tag k="ssr:stedsnr" v="671774" />
	</node>
	<node lat="59.3279231440406" lon="11.373655323898808" id="-15126">
		<tag k="fixme" v="consider place=hamlet" />
		<tag k="name" v="Strand" />
		<tag k="place" v="farm" />
		<tag k="ssr:stedsnr" v="671778" />
	</node>
	<node lat="59.37268333405335" lon="11.38036388770211" id="-15128">
		<tag k="name" v="Danstorp" />
		<tag k="place" v="farm" />
		<tag k="ssr:stedsnr" v="475012" />
	</node>
	<node lat="59.47982500029204" lon="11.41702222872995" id="-15129">
		<tag k="name" v="Skrukka" />
		<tag k="place" v="farm" />
		<tag k="ssr:stedsnr" v="475034" />
	</node>
	<node lat="59.42509721827019" lon="11.399455560660247" id="-15131">
		<tag k="name" v="Grøtvet" />
		<tag k="place" v="farm" />
		<tag k="ssr:stedsnr" v="475403" />
	</node>
	<node lat="59.42609477418439" lon="11.434866873564586" id="-15133">
		<tag k="name" v="Strekerudkytta" />
		<tag k="place" v="locality" />
		<tag k="ssr:stedsnr" v="475606" />
	</node>
	<node lat="59.35888333557093" lon="11.309047227233982" id="-15136">
		<tag k="name" v="Hen" />
		<tag k="place" v="farm" />
		<tag k="ssr:stedsnr" v="475705" />
	</node>
	<node lat="59.284288884408" lon="11.40445833655692" id="-15137">
		<tag k="alt_name" v="Fjell nordre" />
		<tag k="name" v="Nordre Fjell" />
		<tag k="place" v="farm" />
		<tag k="ssr:stedsnr" v="475716" />
	</node>
	<node lat="59.388297221577595" lon="11.447874996886622" id="-15139">
		<tag k="name" v="Østli" />
		<tag k="place" v="locality" />
		<tag k="ssr:stedsnr" v="475824" />
	</node>
	<node lat="59.35331944000813" lon="11.42258055966872" id="-15141">
		<tag k="name" v="Degernes" />
		<tag k="place" v="village" />
		<tag k="ssr:stedsnr" v="476107" />
	</node>
	<node lat="59.42114444318689" lon="11.459272226847743" id="-15145">
		<tag k="name" v="Kløfsrud" />
		<tag k="place" v="farm" />
		<tag k="ssr:stedsnr" v="487115" />
	</node>
	<node lat="59.43302045632957" lon="11.367105522737612" id="-15146">
		<tag k="fixme" v="consider place=hamlet" />
		<tag k="name" v="Lund" />
		<tag k="place" v="farm" />
		<tag k="ssr:stedsnr" v="487165" />
	</node>
	<node lat="59.28699999919791" lon="11.43397222084121" id="-15148">
		<tag k="name" v="Kasehytta" />
		<tag k="place" v="farm" />
		<tag k="ssr:stedsnr" v="487917" />
	</node>
	<node lat="59.293119447201796" lon="11.45624999273854" id="-15149">
		<tag k="alt_name" v="Skammelsrud nordre;Skammelsrud" />
		<tag k="name" v="Nordre Skammelsrud" />
		<tag k="place" v="farm" />
		<tag k="ssr:stedsnr" v="487977" />
	</node>
	<node lat="59.38556667033063" lon="11.55596665817973" id="-15150">
		<tag k="name" v="Dammyra" />
		<tag k="place" v="isolated_dwelling" />
		<tag k="ssr:stedsnr" v="488542" />
	</node>
	<node lat="59.446311107525496" lon="11.500230557650694" id="-15151">
		<tag k="alt_name" v="Ørken" />
		<tag k="name" v="Orken" />
		<tag k="place" v="isolated_dwelling" />
		<tag k="ssr:stedsnr" v="488601" />
	</node>
	<node lat="59.352069445642464" lon="11.533616670533805" id="-15152">
		<tag k="alt_name" v="Steka" />
		<tag k="name" v="Stegen" />
		<tag k="place" v="farm" />
		<tag k="ssr:stedsnr" v="488712" />
	</node>
	<node lat="59.345340598025814" lon="11.391723735454026" id="-15153">
		<tag k="fixme" v="consider place=hamlet" />
		<tag k="name" v="Sveen" />
		<tag k="place" v="farm" />
		<tag k="ssr:stedsnr" v="488745" />
	</node>
	<node lat="59.347159375342265" lon="11.38416776903335" id="-15154">
		<tag k="fixme" v="consider place=hamlet" />
		<tag k="name" v="Førisdal" />
		<tag k="place" v="farm" />
		<tag k="ssr:stedsnr" v="488746" />
	</node>
	<node lat="59.351818847808694" lon="11.427183644845263" id="-15155">
		<tag k="fixme" v="consider place=hamlet" />
		<tag k="name" v="Smedshaug" />
		<tag k="place" v="farm" />
		<tag k="ssr:stedsnr" v="488747" />
	</node>
	<node lat="59.353798016022324" lon="11.300351276102546" id="-15156">
		<tag k="name" v="Bjørklund" />
		<tag k="place" v="farm" />
		<tag k="ssr:stedsnr" v="488751" />
	</node>
	<node lat="59.33298478684702" lon="11.426702563235484" id="-15157">
		<tag k="fixme" v="consider place=hamlet" />
		<tag k="name" v="Paulsrud" />
		<tag k="place" v="farm" />
		<tag k="ssr:stedsnr" v="488952" />
	</node>
	<node lat="59.38311666897268" lon="11.302586118489488" id="-15159">
		<tag k="name" v="Lindhol" />
		<tag k="place" v="farm" />
		<tag k="ssr:stedsnr" v="507574" />
	</node>
	<node lat="59.37985277611802" lon="11.386341673173574" id="-15161">
		<tag k="name" v="Ski" />
		<tag k="place" v="farm" />
		<tag k="ssr:stedsnr" v="507607" />
	</node>
	<node lat="59.35565555579113" lon="11.310161113039573" id="-15162">
		<tag k="name" v="Hen" />
		<tag k="place" v="farm" />
		<tag k="ssr:stedsnr" v="508341" />
	</node>
	<node lat="59.406222225388206" lon="11.200661110678793" id="-15166">
		<tag k="alt_name" v="Morthaugen nedre" />
		<tag k="name" v="Nedre Morthaugen" />
		<tag k="place" v="farm" />
		<tag k="ssr:stedsnr" v="508716" />
	</node>
	<node lat="59.369930553630084" lon="11.392827773350207" id="-15167">
		<tag k="name" v="Langeløkke" />
		<tag k="place" v="farm" />
		<tag k="ssr:stedsnr" v="536004" />
	</node>
	<node lat="59.37779444038575" lon="11.389755552623264" id="-15169">
		<tag k="name" v="Engebråten" />
		<tag k="place" v="locality" />
		<tag k="ssr:stedsnr" v="536007" />
	</node>
	<node lat="59.38746388541143" lon="11.501194438132343" id="-15172">
		<tag k="name" v="Tjærbu" />
		<tag k="place" v="farm" />
		<tag k="ssr:stedsnr" v="536803" />
	</node>
	<node lat="59.47803333274508" lon="11.414316670286548" id="-15182">
		<tag k="name" v="Klemma" />
		<tag k="place" v="farm" />
		<tag k="ssr:stedsnr" v="548002" />
	</node>
	<node lat="59.44329501177752" lon="11.352390400535652" id="-15183">
		<tag k="name" v="Koppen" />
		<tag k="place" v="farm" />
		<tag k="ssr:stedsnr" v="548203" />
	</node>
	<node lat="59.443125001934725" lon="11.512786105673076" id="-15184">
		<tag k="name" v="Hølbekk" />
		<tag k="place" v="isolated_dwelling" />
		<tag k="ssr:stedsnr" v="548619" />
	</node>
	<node lat="59.38515833597432" lon="11.356883336035512" id="-15186">
		<tag k="name" v="Dalene" />
		<tag k="place" v="farm" />
		<tag k="ssr:stedsnr" v="548805" />
	</node>
	<node lat="59.394855788066856" lon="11.37209701036827" id="-15187">
		<tag k="fixme" v="consider place=hamlet" />
		<tag k="name" v="Nordby" />
		<tag k="place" v="farm" />
		<tag k="ssr:stedsnr" v="548824" />
	</node>
	<node lat="59.39300833566225" lon="11.409619440221876" id="-15188">
		<tag k="name" v="Myrvoll" />
		<tag k="place" v="farm" />
		<tag k="ssr:stedsnr" v="548826" />
	</node>
	<node lat="59.38726640558349" lon="11.508586735903348" id="-15189">
		<tag k="alt_name" v="Tjærbu" />
		<tag k="fixme" v="consider place=hamlet" />
		<tag k="name" v="Tjerbu" />
		<tag k="place" v="farm" />
		<tag k="ssr:stedsnr" v="549508" />
	</node>
	<node lat="59.35668450260375" lon="11.503629313057468" id="-15191">
		<tag k="alt_name" v="Torp store" />
		<tag k="fixme" v="consider place=hamlet" />
		<tag k="name" v="Storetorp" />
		<tag k="place" v="farm" />
		<tag k="ssr:stedsnr" v="549698" />
	</node>
	<node lat="59.34080278089473" lon="11.564877781162975" id="-15193">
		<tag k="name" v="Nordre Fuglnesseter" />
		<tag k="place" v="locality" />
		<tag k="ssr:stedsnr" v="549708" />
	</node>
	<node lat="59.353942031769556" lon="11.388449995963413" id="-15194">
		<tag k="fixme" v="consider place=hamlet" />
		<tag k="name" v="Gjøby" />
		<tag k="place" v="farm" />
		<tag k="ssr:stedsnr" v="549748" />
	</node>
	<node lat="59.37766944437714" lon="11.337208328887012" id="-15196">
		<tag k="name" v="Laggaren" />
		<tag k="place" v="farm" />
		<tag k="ssr:stedsnr" v="549856" />
	</node>
	<node lat="59.31388738589077" lon="11.405246661326263" id="-15197">
		<tag k="alt_name" v="Titterud lille" />
		<tag k="fixme" v="consider place=hamlet" />
		<tag k="name" v="Lille Titterud" />
		<tag k="place" v="farm" />
		<tag k="ssr:stedsnr" v="690680" />
	</node>
	<node lat="59.323658336468384" lon="11.430913897521961" id="-15199">
		<tag k="name" v="Titterud" />
		<tag k="place" v="farm" />
		<tag k="ssr:stedsnr" v="690684" />
	</node>
	<node lat="59.364188885381346" lon="11.35534166119955" id="-15200">
		<tag k="name" v="Nordre Vestby" />
		<tag k="place" v="farm" />
		<tag k="ssr:stedsnr" v="690689" />
	</node>
	<node lat="59.337877777566426" lon="11.46637500842233" id="-15201">
		<tag k="name" v="Låby" />
		<tag k="place" v="farm" />
		<tag k="ssr:stedsnr" v="690692" />
	</node>
	<node lat="59.352552778067576" lon="11.431338882584066" id="-15202">
		<tag k="name" v="Fjellhøy" />
		<tag k="place" v="farm" />
		<tag k="ssr:stedsnr" v="690699" />
	</node>
	<node lat="59.364595868788804" lon="11.377363270101291" id="-15203">
		<tag k="fixme" v="consider place=hamlet" />
		<tag k="name" v="Førisdal" />
		<tag k="place" v="farm" />
		<tag k="ssr:stedsnr" v="690452" />
	</node>
	<node lat="59.36802778070924" lon="11.27922221363761" id="-15204">
		<tag k="name" v="Åserud" />
		<tag k="place" v="farm" />
		<tag k="ssr:stedsnr" v="690417" />
	</node>
	<node lat="59.41494999992715" lon="11.34429722598953" id="-15205">
		<tag k="name" v="Haga" />
		<tag k="place" v="farm" />
		<tag k="ssr:stedsnr" v="690639" />
	</node>
	<node lat="59.4350611092472" lon="11.334758325119427" id="-15206">
		<tag k="name" v="Foss" />
		<tag k="place" v="farm" />
		<tag k="ssr:stedsnr" v="690644" />
	</node>
	<node lat="59.43260555439786" lon="11.31058611286333" id="-15207">
		<tag k="name" v="Skarpsno" />
		<tag k="place" v="farm" />
		<tag k="ssr:stedsnr" v="690645" />
	</node>
	<node lat="59.44091388478108" lon="11.37666388084635" id="-15208">
		<tag k="name" v="Sankerud" />
		<tag k="place" v="locality" />
		<tag k="ssr:stedsnr" v="690648" />
	</node>
	<node lat="59.426636108212264" lon="11.284483336665383" id="-15209">
		<tag k="name" v="Rud" />
		<tag k="place" v="farm" />
		<tag k="ssr:stedsnr" v="690653" />
	</node>
	<node lat="59.38328333526727" lon="11.393627778696633" id="-15210">
		<tag k="alt_name" v="Tolfsby" />
		<tag k="name" v="Tolsby" />
		<tag k="place" v="farm" />
		<tag k="ssr:stedsnr" v="690655" />
	</node>
	<node lat="59.36350555789358" lon="11.416094438407372" id="-15212">
		<tag k="name" v="Halumhaugen" />
		<tag k="place" v="farm" />
		<tag k="ssr:stedsnr" v="690673" />
	</node>
	<node lat="59.420122221726295" lon="11.346341670227575" id="-15213">
		<tag k="name" v="Vaterland" />
		<tag k="place" v="village" />
		<tag k="ssr:stedsnr" v="690622" />
	</node>
	<node lat="59.43959166718137" lon="11.239052777074795" id="-15215">
		<tag k="name" v="Sloslett" />
		<tag k="place" v="locality" />
		<tag k="ssr:stedsnr" v="568475" />
	</node>
	<node lat="59.449891667952414" lon="11.36264165924022" id="-15216">
		<tag k="name" v="Klipperbråten" />
		<tag k="place" v="farm" />
		<tag k="ssr:stedsnr" v="568604" />
	</node>
	<node lat="59.43779166259344" lon="11.342666659081555" id="-15217">
		<tag k="name" v="Gudimtangen" />
		<tag k="place" v="farm" />
		<tag k="ssr:stedsnr" v="568624" />
	</node>
	<node lat="59.433336114721655" lon="11.339741661212834" id="-15218">
		<tag k="name" v="Gudim" />
		<tag k="place" v="farm" />
		<tag k="ssr:stedsnr" v="568625" />
	</node>
	<node lat="59.46477760725417" lon="11.256311023514439" id="-15219">
		<tag k="name" v="Brønntorpsameia" />
		<tag k="place" v="farm" />
		<tag k="ssr:stedsnr" v="568513" />
	</node>
	<node lat="59.3419388870477" lon="11.359797221978399" id="-15221">
		<tag k="name" v="Sagbakken" />
		<tag k="place" v="farm" />
		<tag k="ssr:stedsnr" v="568709" />
	</node>
	<node lat="59.37308888577235" lon="11.394127782424402" id="-15222">
		<tag k="name" v="Påland" />
		<tag k="place" v="farm" />
		<tag k="ssr:stedsnr" v="568665" />
	</node>
	<node lat="59.30308611443155" lon="11.401941666317029" id="-15224">
		<tag k="name" v="Oppgården" />
		<tag k="place" v="farm" />
		<tag k="ssr:stedsnr" v="569626" />
	</node>
	<node lat="59.30866388503751" lon="11.393644450691164" id="-15225">
		<tag k="name" v="Knoll" />
		<tag k="place" v="farm" />
		<tag k="ssr:stedsnr" v="569628" />
	</node>
	<node lat="59.39619444509054" lon="11.423358324727943" id="-15230">
		<tag k="name" v="Delihytta" />
		<tag k="place" v="locality" />
		<tag k="ssr:stedsnr" v="596811" />
	</node>
	<node lat="59.3541527735403" lon="11.3600305549744" id="-15236">
		<tag k="name" v="Klypa" />
		<tag k="place" v="locality" />
		<tag k="ssr:stedsnr" v="597401" />
	</node>
	<node lat="59.41245277531699" lon="11.408411105425472" id="-15237">
		<tag k="name" v="Berget" />
		<tag k="place" v="farm" />
		<tag k="ssr:stedsnr" v="597602" />
	</node>
	<node lat="59.40596666962518" lon="11.442224996089601" id="-15238">
		<tag k="name" v="Haugsten" />
		<tag k="place" v="farm" />
		<tag k="ssr:stedsnr" v="597607" />
	</node>
	<node lat="59.411575000692636" lon="11.211422228562597" id="-15239">
		<tag k="name" v="Torptangen" />
		<tag k="place" v="farm" />
		<tag k="ssr:stedsnr" v="608121" />
	</node>
	<node lat="59.43622222455113" lon="11.30862777543545" id="-15240">
		<tag k="alt_name" v="Holøs vestre" />
		<tag k="name" v="Vestre Holøs" />
		<tag k="place" v="farm" />
		<tag k="ssr:stedsnr" v="608152" />
	</node>
	<node lat="59.42795722705529" lon="11.326745915082496" id="-15241">
		<tag k="fixme" v="consider place=hamlet" />
		<tag k="name" v="Mjørud" />
		<tag k="place" v="farm" />
		<tag k="ssr:stedsnr" v="608153" />
	</node>
	<node lat="59.28975278087836" lon="11.36362777564385" id="-15242">
		<tag k="name" v="Vatvetseter" />
		<tag k="place" v="farm" />
		<tag k="ssr:stedsnr" v="608917" />
	</node>
	<node lat="59.45560000064541" lon="11.353227773009618" id="-15243">
		<tag k="name" v="Engstad" />
		<tag k="place" v="farm" />
		<tag k="ssr:stedsnr" v="609215" />
	</node>
	<node lat="59.30684722071225" lon="11.343888896007208" id="-15244">
		<tag k="name" v="Hysestad" />
		<tag k="place" v="farm" />
		<tag k="ssr:stedsnr" v="608990" />
	</node>
	<node lat="59.403886113094764" lon="11.233441667189698" id="-15245">
		<tag k="name" v="Torp" />
		<tag k="place" v="farm" />
		<tag k="ssr:stedsnr" v="609147" />
	</node>
	<node lat="59.4068277751965" lon="11.367247228847868" id="-15246">
		<tag k="name" v="Nes" />
		<tag k="place" v="farm" />
		<tag k="ssr:stedsnr" v="609152" />
	</node>
	<node lat="59.444049998836476" lon="11.24219999144157" id="-15248">
		<tag k="name" v="Søby" />
		<tag k="place" v="farm" />
		<tag k="ssr:stedsnr" v="609189" />
	</node>
	<node lat="59.390049999324006" lon="11.318230561706514" id="-15249">
		<tag k="name" v="Sørbybråten" />
		<tag k="place" v="farm" />
		<tag k="ssr:stedsnr" v="609782" />
	</node>
	<node lat="59.26817222295526" lon="11.44393055599862" id="-15251">
		<tag k="name" v="Neset" />
		<tag k="place" v="farm" />
		<tag k="ssr:stedsnr" v="609924" />
	</node>
	<node lat="59.26519999572988" lon="11.401522221491124" id="-15253">
		<tag k="name" v="Skjekleseter" />
		<tag k="place" v="farm" />
		<tag k="ssr:stedsnr" v="609929" />
	</node>
	<node lat="59.377587731732056" lon="11.309473906410846" id="-15254">
		<tag k="name" v="Sørby" />
		<tag k="place" v="hamlet" />
		<tag k="ssr:stedsnr" v="609840" />
	</node>
	<node lat="59.39129721927347" lon="11.572972213545532" id="-15255">
		<tag k="alt_name" v="Liholtet" />
		<tag k="name" v="Liholt" />
		<tag k="place" v="isolated_dwelling" />
		<tag k="ssr:stedsnr" v="610594" />
	</node>
	<node lat="59.31342179275238" lon="11.380880474865481" id="-15257">
		<tag k="fixme" v="multiple name tags, choose one and add the other to alt_name" />
		<tag k="name" v="Reinvoll;Nebba" />
		<tag k="place" v="farm" />
		<tag k="ssr:stedsnr" v="629023" />
	</node>
	<node lat="59.36580517968842" lon="11.381960821763201" id="-15259">
		<tag k="fixme" v="consider place=hamlet" />
		<tag k="name" v="Førisdal" />
		<tag k="place" v="farm" />
		<tag k="ssr:stedsnr" v="629346" />
	</node>
	<node lat="59.40965000382853" lon="11.29313610650278" id="-15260">
		<tag k="name" v="Solberg" />
		<tag k="place" v="locality" />
		<tag k="ssr:stedsnr" v="629545" />
	</node>
	<node lat="59.41166111381809" lon="11.380861107617333" id="-15263">
		<tag k="name" v="Elvenes" />
		<tag k="place" v="farm" />
		<tag k="ssr:stedsnr" v="629590" />
	</node>
	<node lat="59.41575833155885" lon="11.367749993594556" id="-15264">
		<tag k="name" v="Solhaugen" />
		<tag k="place" v="farm" />
		<tag k="ssr:stedsnr" v="629592" />
	</node>
	<node lat="59.40094722302314" lon="11.2109583256269" id="-15265">
		<tag k="historic" v="shieling" />
		<tag k="name" v="Morthaugbråten" />
		<tag k="place" v="isolated_dwelling" />
		<tag k="ssr:stedsnr" v="629711" />
	</node>
	<node lat="59.32440833058188" lon="11.376141661988257" id="-15270">
		<tag k="name" v="Ertekastet" />
		<tag k="place" v="farm" />
		<tag k="ssr:stedsnr" v="657432" />
	</node>
	<node lat="59.34274721798533" lon="11.38977222715818" id="-15271">
		<tag k="name" v="Sveen" />
		<tag k="place" v="farm" />
		<tag k="ssr:stedsnr" v="657434" />
	</node>
	<node lat="59.39054444495059" lon="11.509261118759458" id="-15278">
		<tag k="name" v="Tjærbubråten" />
		<tag k="place" v="farm" />
		<tag k="ssr:stedsnr" v="657730" />
	</node>
	<node lat="59.3672361141985" lon="11.377149992083323" id="-15279">
		<tag k="name" v="Danstorphagen" />
		<tag k="place" v="farm" />
		<tag k="ssr:stedsnr" v="657783" />
	</node>
	<node lat="59.33587500417074" lon="11.408861108133227" id="-15284">
		<tag k="name" v="Stensrud" />
		<tag k="place" v="farm" />
		<tag k="ssr:stedsnr" v="662196" />
	</node>
	<node lat="59.471933337750784" lon="11.437133326767722" id="-15287">
		<tag k="alt_name" v="Sæterlia" />
		<tag k="historic" v="shieling" />
		<tag k="name" v="Seterlia" />
		<tag k="place" v="isolated_dwelling" />
		<tag k="ssr:stedsnr" v="669010" />
	</node>
	<node lat="59.45482499921735" lon="11.36145000553548" id="-15288">
		<tag k="name" v="Klipper" />
		<tag k="place" v="farm" />
		<tag k="ssr:stedsnr" v="669211" />
	</node>
	<node lat="59.288318723143945" lon="11.422918925694121" id="-15289">
		<tag k="fixme" v="consider place=hamlet" />
		<tag k="name" v="Stryker" />
		<tag k="place" v="farm" />
		<tag k="ssr:stedsnr" v="669903" />
	</node>
	<node lat="59.29140277503227" lon="11.418250005633514" id="-15290">
		<tag k="name" v="Bråten" />
		<tag k="place" v="farm" />
		<tag k="ssr:stedsnr" v="669979" />
	</node>
	<node lat="59.35059863502603" lon="11.443540875913857" id="-15291">
		<tag k="fixme" v="multiple name tags, choose one and add the other to alt_name; consider place=hamlet" />
		<tag k="name" v="Heier;Østre Heier" />
		<tag k="old_name" v="Hejer;Heier, søndre" />
		<tag k="place" v="farm" />
		<tag k="ssr:stedsnr" v="670734" />
	</node>
	<node lat="59.35160000110911" lon="11.356055559439442" id="-15292">
		<tag k="name" v="Fuglesangen" />
		<tag k="place" v="farm" />
		<tag k="ssr:stedsnr" v="670740" />
	</node>
	<node lat="59.39801655563687" lon="11.551593235254177" id="-15293">
		<tag k="fixme" v="consider place=hamlet" />
		<tag k="name" v="Norddalen" />
		<tag k="place" v="farm" />
		<tag k="ssr:stedsnr" v="671536" />
	</node>
	<node lat="59.33184388277014" lon="11.552691353107276" id="-15294">
		<tag k="fixme" v="consider place=hamlet" />
		<tag k="name" v="Kilebu" />
		<tag k="place" v="farm" />
		<tag k="ssr:stedsnr" v="671629" />
	</node>
	<node lat="59.38938114197748" lon="11.47303828858059" id="-15295">
		<tag k="fixme" v="consider place=hamlet" />
		<tag k="name" v="Vedal" />
		<tag k="place" v="farm" />
		<tag k="ssr:stedsnr" v="676809" />
	</node>
	<node lat="59.40729722169562" lon="11.383486107954354" id="-15297">
		<tag k="name" v="Østenby" />
		<tag k="place" v="farm" />
		<tag k="ssr:stedsnr" v="690608" />
	</node>
	<node lat="59.406397225215315" lon="11.33523055579116" id="-15299">
		<tag k="name" v="Grønli" />
		<tag k="place" v="locality" />
		<tag k="ssr:stedsnr" v="690627" />
	</node>
	<node lat="59.409936115204104" lon="11.35035277673802" id="-15300">
		<tag k="name" v="Elverhøy" />
		<tag k="place" v="farm" />
		<tag k="ssr:stedsnr" v="690629" />
	</node>
	<node lat="59.41196110832063" lon="11.377299997462494" id="-15301">
		<tag k="name" v="Konglebekk" />
		<tag k="place" v="farm" />
		<tag k="ssr:stedsnr" v="690636" />
	</node>
	<node lat="59.46644359897415" lon="11.261754420277285" id="-15302">
		<tag k="fixme" v="consider place=hamlet" />
		<tag k="name" v="Dramstad" />
		<tag k="place" v="farm" />
		<tag k="ssr:stedsnr" v="690586" />
	</node>
	<node lat="59.355986107035704" lon="11.429305549021654" id="-15303">
		<tag k="name" v="Salte" />
		<tag k="place" v="locality" />
		<tag k="ssr:stedsnr" v="690704" />
	</node>
	<node lat="59.37604722424035" lon="11.466502778920985" id="-15304">
		<tag k="name" v="Lilleng" />
		<tag k="place" v="farm" />
		<tag k="ssr:stedsnr" v="690708" />
	</node>
	<node lat="59.37518547531795" lon="11.383119643419683" id="-15308">
		<tag k="name" v="Ødegården" />
		<tag k="place" v="locality" />
		<tag k="ssr:stedsnr" v="718007" />
	</node>
	<node lat="59.35140832943199" lon="11.3849444383536" id="-15310">
		<tag k="name" v="Flateby" />
		<tag k="place" v="locality" />
		<tag k="ssr:stedsnr" v="718414" />
	</node>
	<node lat="59.400486112705835" lon="11.509519446376936" id="-15314">
		<tag k="name" v="Murås" />
		<tag k="place" v="farm" />
		<tag k="ssr:stedsnr" v="718577" />
	</node>
	<node lat="59.39336676543545" lon="11.47195795870697" id="-15315">
		<tag k="name" v="Finnestad" />
		<tag k="place" v="hamlet" />
		<tag k="ssr:stedsnr" v="718772" />
	</node>
	<node lat="59.387249996386345" lon="11.479077784073162" id="-15316">
		<tag k="name" v="Tjærneshaugen" />
		<tag k="place" v="farm" />
		<tag k="ssr:stedsnr" v="718777" />
	</node>
	<node lat="59.37874444017645" lon="11.403519443061676" id="-15318">
		<tag k="name" v="Heier" />
		<tag k="place" v="farm" />
		<tag k="ssr:stedsnr" v="718918" />
	</node>
	<node lat="59.481563888846566" lon="11.418258340997697" id="-15321">
		<tag k="name" v="Stigopp" />
		<tag k="place" v="farm" />
		<tag k="ssr:stedsnr" v="900042" />
	</node>
	<node lat="59.304608330342184" lon="11.388430556355571" id="-15322">
		<tag k="name" v="Knollehytta" />
		<tag k="place" v="isolated_dwelling" />
		<tag k="ssr:stedsnr" v="900128" />
	</node>
	<node lat="59.37495000038037" lon="11.301108331862734" id="-15328">
		<tag k="historic" v="shieling" />
		<tag k="name" v="Ødegården" />
		<tag k="place" v="isolated_dwelling" />
		<tag k="ssr:stedsnr" v="900697" />
	</node>
	<node lat="59.40038888954018" lon="11.422424999022429" id="-15330">
		<tag k="name" v="Haugskroken" />
		<tag k="place" v="farm" />
		<tag k="ssr:stedsnr" v="900820" />
	</node>
	<node lat="59.383133329468244" lon="11.504980562818325" id="-15332">
		<tag k="name" v="Tjærbu" />
		<tag k="place" v="farm" />
		<tag k="ssr:stedsnr" v="900791" />
	</node>
	<node lat="59.39266944371508" lon="11.441761107295502" id="-15334">
		<tag k="name" v="Taraldli" />
		<tag k="place" v="locality" />
		<tag k="ssr:stedsnr" v="900831" />
	</node>
	<node lat="59.291362403126556" lon="11.457251537656028" id="-15337">
		<tag k="fixme" v="consider place=hamlet" />
		<tag k="name" v="Skammelsrud" />
		<tag k="place" v="farm" />
		<tag k="ssr:stedsnr" v="901085" />
	</node>
	<node lat="59.47105810901547" lon="11.398591582712209" id="-15338">
		<tag k="fixme" v="consider place=hamlet" />
		<tag k="name" v="Sandaker" />
		<tag k="place" v="farm" />
		<tag k="ssr:stedsnr" v="730004" />
	</node>
	<node lat="59.46019222966121" lon="11.350011296672939" id="-15339">
		<tag k="fixme" v="consider place=hamlet" />
		<tag k="name" v="Klipper" />
		<tag k="place" v="farm" />
		<tag k="ssr:stedsnr" v="730228" />
	</node>
	<node lat="59.41024647670613" lon="11.42412874329922" id="-15341">
		<tag k="fixme" v="consider place=hamlet" />
		<tag k="name" v="Gjølstad" />
		<tag k="place" v="farm" />
		<tag k="ssr:stedsnr" v="730135" />
	</node>
	<node lat="59.30655157609697" lon="11.392801511935122" id="-15343">
		<tag k="fixme" v="consider place=hamlet" />
		<tag k="name" v="Knoll" />
		<tag k="place" v="farm" />
		<tag k="ssr:stedsnr" v="730989" />
	</node>
	<node lat="59.443622223287875" lon="11.31505554905293" id="-15344">
		<tag k="alt_name" v="Hauger nordre" />
		<tag k="name" v="Nordre Hauger" />
		<tag k="place" v="farm" />
		<tag k="ssr:stedsnr" v="731164" />
	</node>
	<node lat="59.43439295173406" lon="11.214417588976776" id="-15345">
		<tag k="fixme" v="consider place=hamlet" />
		<tag k="name" v="Skattebøl" />
		<tag k="place" v="farm" />
		<tag k="ssr:stedsnr" v="731165" />
	</node>
	<node lat="59.43219364728448" lon="11.225678392223628" id="-15346">
		<tag k="fixme" v="consider place=hamlet" />
		<tag k="name" v="Lislerud" />
		<tag k="place" v="farm" />
		<tag k="ssr:stedsnr" v="731166" />
	</node>
	<node lat="59.409722223630936" lon="11.552061106598453" id="-15348">
		<tag k="alt_name" v="Høgholtet" />
		<tag k="name" v="Høgeholtet" />
		<tag k="place" v="farm" />
		<tag k="ssr:stedsnr" v="731482" />
	</node>
	<node lat="59.36762499604518" lon="11.415497214043421" id="-15353">
		<tag k="name" v="Vestby" />
		<tag k="place" v="farm" />
		<tag k="ssr:stedsnr" v="731761" />
	</node>
	<node lat="59.32805000080014" lon="11.401124991874484" id="-15354">
		<tag k="name" v="Stomperud" />
		<tag k="place" v="farm" />
		<tag k="ssr:stedsnr" v="731769" />
	</node>
	<node lat="59.38450108626923" lon="11.290027520043877" id="-15355">
		<tag k="fixme" v="consider place=hamlet" />
		<tag k="name" v="Grimstad" />
		<tag k="place" v="farm" />
		<tag k="ssr:stedsnr" v="731809" />
	</node>
	<node lat="59.38965277627623" lon="11.285450004060406" id="-15356">
		<tag k="name" v="Bråtenes" />
		<tag k="place" v="isolated_dwelling" />
		<tag k="ssr:stedsnr" v="731811" />
	</node>
	<node lat="59.33184999762718" lon="11.46097500596335" id="-15357">
		<tag k="name" v="Smedal" />
		<tag k="place" v="farm" />
		<tag k="ssr:stedsnr" v="731957" />
	</node>
	<node lat="59.41518611173068" lon="11.503238886183293" id="-15359">
		<tag k="name" v="Budalen" />
		<tag k="place" v="farm" />
		<tag k="ssr:stedsnr" v="737820" />
	</node>
	<node lat="59.38772777747101" lon="11.261986115418695" id="-15361">
		<tag k="name" v="Spydslaug" />
		<tag k="place" v="farm" />
		<tag k="ssr:stedsnr" v="750711" />
	</node>
	<node lat="59.4221333348752" lon="11.273975005530612" id="-15362">
		<tag k="name" v="Sævesslottet" />
		<tag k="place" v="farm" />
		<tag k="ssr:stedsnr" v="750479" />
	</node>
	<node lat="59.431561115410965" lon="11.39530833962126" id="-15368">
		<tag k="name" v="Linnerud" />
		<tag k="place" v="farm" />
		<tag k="ssr:stedsnr" v="779509" />
	</node>
	<node lat="59.36643333172146" lon="11.284850005688002" id="-15375">
		<tag k="name" v="Kjennerhagen" />
		<tag k="place" v="farm" />
		<tag k="ssr:stedsnr" v="779699" />
	</node>
	<node lat="59.399438892004994" lon="11.41455277232883" id="-15378">
		<tag k="name" v="Monsehytta" />
		<tag k="place" v="locality" />
		<tag k="ssr:stedsnr" v="779860" />
	</node>
	<node lat="59.24697499821926" lon="11.389847217358755" id="-15381">
		<tag k="name" v="Munkebråten" />
		<tag k="place" v="farm" />
		<tag k="ssr:stedsnr" v="790613" />
	</node>
	<node lat="59.47318611357111" lon="11.335508341180352" id="-15382">
		<tag k="name" v="Hammerstad" />
		<tag k="place" v="farm" />
		<tag k="ssr:stedsnr" v="791007" />
	</node>
	<node lat="59.46350277691852" lon="11.343325007663505" id="-15383">
		<tag k="alt_name" v="Ringsby søndre" />
		<tag k="name" v="Søndre Ringsby" />
		<tag k="place" v="farm" />
		<tag k="ssr:stedsnr" v="791014" />
	</node>
	<node lat="59.41277939702461" lon="11.298288606970726" id="-15384">
		<tag k="fixme" v="consider place=hamlet" />
		<tag k="name" v="Kjellsrud" />
		<tag k="place" v="farm" />
		<tag k="ssr:stedsnr" v="791137" />
	</node>
	<node lat="59.43969999605277" lon="11.299122215136263" id="-15385">
		<tag k="name" v="Laenga" />
		<tag k="place" v="farm" />
		<tag k="ssr:stedsnr" v="791207" />
	</node>
	<node lat="59.45495000163592" lon="11.408169453273809" id="-15386">
		<tag k="name" v="Bauserud" />
		<tag k="place" v="farm" />
		<tag k="ssr:stedsnr" v="791238" />
	</node>
	<node lat="59.28307499932636" lon="11.37935278126138" id="-15389">
		<tag k="name" v="Holt" />
		<tag k="place" v="farm" />
		<tag k="ssr:stedsnr" v="791900" />
	</node>
	<node lat="59.255225003215315" lon="11.416250002453609" id="-15390">
		<tag k="name" v="Bjørkebråten" />
		<tag k="place" v="farm" />
		<tag k="ssr:stedsnr" v="791906" />
	</node>
	<node lat="59.31526277828068" lon="11.437771487090707" id="-15391">
		<tag k="fixme" v="consider place=hamlet" />
		<tag k="name" v="Lilleheier" />
		<tag k="place" v="farm" />
		<tag k="ssr:stedsnr" v="791945" />
	</node>
	<node lat="59.28091388586258" lon="11.477077776255472" id="-15392">
		<tag k="alt_name" v="Sandkleva" />
		<tag k="name" v="Sandkleiva" />
		<tag k="place" v="farm" />
		<tag k="ssr:stedsnr" v="792682" />
	</node>
	<node lat="59.36363593257803" lon="11.46796817219567" id="-15393">
		<tag k="alt_name" v="Bjørnstad" />
		<tag k="fixme" v="consider place=hamlet" />
		<tag k="name" v="Bjørnestad" />
		<tag k="place" v="farm" />
		<tag k="ssr:stedsnr" v="792693" />
	</node>
	<node lat="59.33949374874308" lon="11.489189963052024" id="-15394">
		<tag k="alt_name" v="Uttisrud" />
		<tag k="fixme" v="consider place=hamlet" />
		<tag k="name" v="Uttersrud" />
		<tag k="place" v="farm" />
		<tag k="ssr:stedsnr" v="792728" />
	</node>
	<node lat="59.33411116681691" lon="11.4921308631969" id="-15395">
		<tag k="fixme" v="consider place=hamlet" />
		<tag k="name" v="Væle" />
		<tag k="place" v="farm" />
		<tag k="ssr:stedsnr" v="792729" />
	</node>
	<node lat="59.33822500130128" lon="11.546408337041427" id="-15396">
		<tag k="name" v="Svaet" />
		<tag k="place" v="farm" />
		<tag k="ssr:stedsnr" v="792733" />
	</node>
	<node lat="59.416885414802046" lon="11.388070850703707" id="-15397">
		<tag k="fixme" v="consider place=hamlet" />
		<tag k="name" v="Grinnstad" />
		<tag k="place" v="farm" />
		<tag k="ssr:stedsnr" v="912141" />
	</node>
	<node lat="59.383988757918054" lon="11.473618981858465" id="-15398">
		<tag k="fixme" v="consider place=hamlet" />
		<tag k="name" v="Tjernes" />
		<tag k="place" v="farm" />
		<tag k="ssr:stedsnr" v="913521" />
	</node>
	<node lat="59.28902347572551" lon="11.407110845997734" id="-15400">
		<tag k="fixme" v="consider place=hamlet" />
		<tag k="name" v="Grimsrud" />
		<tag k="place" v="farm" />
		<tag k="ssr:stedsnr" v="912908" />
	</node>
	<node lat="59.31780000109737" lon="11.335769443761247" id="-15402">
		<tag k="historic" v="shieling" />
		<tag k="name" v="Seterdalen" />
		<tag k="place" v="isolated_dwelling" />
		<tag k="ssr:stedsnr" v="912961" />
	</node>
	<node lat="59.321504589068795" lon="11.379327222442212" id="-15403">
		<tag k="fixme" v="consider place=hamlet" />
		<tag k="name" v="Snopestad" />
		<tag k="place" v="farm" />
		<tag k="ssr:stedsnr" v="912963" />
	</node>
	<node lat="59.4373000005973" lon="11.356525006694069" id="-15406">
		<tag k="name" v="Lien" />
		<tag k="place" v="farm" />
		<tag k="ssr:stedsnr" v="913193" />
	</node>
	<node lat="59.482197224542375" lon="11.412672229916152" id="-15407">
		<tag k="name" v="Holtet" />
		<tag k="place" v="farm" />
		<tag k="ssr:stedsnr" v="913064" />
	</node>
	<node lat="59.37455555333602" lon="11.477586105621068" id="-15409">
		<tag k="alt_name" v="Monserud" />
		<tag k="name" v="Monsrud" />
		<tag k="place" v="farm" />
		<tag k="ssr:stedsnr" v="913658" />
	</node>
	<node lat="59.28668333551431" lon="11.527036116476506" id="-15410">
		<tag k="name" v="Fjellheim" />
		<tag k="place" v="isolated_dwelling" />
		<tag k="ssr:stedsnr" v="913672" />
	</node>
	<node lat="59.35994321654699" lon="11.40730067760447" id="-15411">
		<tag k="fixme" v="consider place=hamlet" />
		<tag k="name" v="Størløs" />
		<tag k="place" v="farm" />
		<tag k="ssr:stedsnr" v="913744" />
	</node>
	<node lat="59.362705810485416" lon="11.461957746165501" id="-15412">
		<tag k="fixme" v="consider place=hamlet" />
		<tag k="name" v="Vik" />
		<tag k="place" v="farm" />
		<tag k="ssr:stedsnr" v="913762" />
	</node>
	<node lat="59.25753611400015" lon="11.477011117188907" id="-15413">
		<tag k="alt_name" v="Greåker lille" />
		<tag k="name" v="Greåker" />
		<tag k="place" v="farm" />
		<tag k="ssr:stedsnr" v="913726" />
	</node>
	<node lat="59.35152222330981" lon="11.444205559589868" id="-15414">
		<tag k="alt_name" v="Heier, m;Østre Heier" />
		<tag k="name" v="Midtre Heier" />
		<tag k="place" v="farm" />
		<tag k="ssr:stedsnr" v="913728" />
	</node>
	<node lat="59.388674291957926" lon="11.389448314466502" id="-15416">
		<tag k="fixme" v="consider place=hamlet" />
		<tag k="name" v="Håby" />
		<tag k="place" v="farm" />
		<tag k="ssr:stedsnr" v="913823" />
	</node>
	<node lat="59.390405558594054" lon="11.431733339767039" id="-15417">
		<tag k="historic" v="shieling" />
		<tag k="name" v="Offersten" />
		<tag k="place" v="isolated_dwelling" />
		<tag k="ssr:stedsnr" v="913827" />
	</node>
	<node lat="59.386408329197785" lon="11.431750005746292" id="-15418">
		<tag k="name" v="Skårer" />
		<tag k="place" v="farm" />
		<tag k="ssr:stedsnr" v="913864" />
	</node>
	<node lat="59.40126388482011" lon="11.51103889010777" id="-15419">
		<tag k="name" v="Myrås" />
		<tag k="place" v="farm" />
		<tag k="ssr:stedsnr" v="914550" />
	</node>
	<node lat="59.33111388698602" lon="11.503588888581017" id="-15420">
		<tag k="alt_name" v="Trindborg" />
		<tag k="name" v="Trinnborg" />
		<tag k="place" v="farm" />
		<tag k="ssr:stedsnr" v="914647" />
	</node>
	<node lat="59.3199222219695" lon="11.561230547728643" id="-15423">
		<tag k="name" v="Moen" />
		<tag k="place" v="farm" />
		<tag k="ssr:stedsnr" v="914670" />
	</node>
	<node lat="59.34833055579715" lon="11.334274996933685" id="-15429">
		<tag k="name" v="Stordal" />
		<tag k="place" v="farm" />
		<tag k="ssr:stedsnr" v="811321" />
	</node>
	<node lat="59.35157222584019" lon="11.33517500531936" id="-15430">
		<tag k="name" v="Nøa" />
		<tag k="place" v="farm" />
		<tag k="ssr:stedsnr" v="811323" />
	</node>
	<node lat="59.42453611358672" lon="11.244886107280024" id="-15431">
		<tag k="alt_name" v="Korum østre" />
		<tag k="name" v="Østre Korum" />
		<tag k="place" v="farm" />
		<tag k="ssr:stedsnr" v="811483" />
	</node>
	<node lat="59.28471111114309" lon="11.482994443534036" id="-15433">
		<tag k="historic" v="shieling" />
		<tag k="name" v="Lannemseter" />
		<tag k="place" v="isolated_dwelling" />
		<tag k="ssr:stedsnr" v="811631" />
	</node>
	<node lat="59.44414721868048" lon="11.379258338081028" id="-15434">
		<tag k="name" v="Gjulem" />
		<tag k="place" v="farm" />
		<tag k="ssr:stedsnr" v="811591" />
	</node>
	<node lat="59.48236329105786" lon="11.401842347734718" id="-15437">
		<tag k="name" v="Gullhaugen" />
		<tag k="place" v="locality" />
		<tag k="ssr:stedsnr" v="840018" />
	</node>
	<node lat="59.482749971960686" lon="11.400066010998424" id="-15438">
		<tag k="name" v="Stenbråten" />
		<tag k="place" v="farm" />
		<tag k="ssr:stedsnr" v="840022" />
	</node>
	<node lat="59.359516668558655" lon="11.391936111876772" id="-15439">
		<tag k="name" v="Berger" />
		<tag k="place" v="farm" />
		<tag k="ssr:stedsnr" v="840026" />
	</node>
	<node lat="59.40706111562664" lon="11.458972215901273" id="-15443">
		<tag k="name" v="Lierhytta" />
		<tag k="place" v="locality" />
		<tag k="ssr:stedsnr" v="840586" />
	</node>
	<node lat="59.41441944636243" lon="11.406558325871176" id="-15444">
		<tag k="name" v="Holen" />
		<tag k="place" v="farm" />
		<tag k="ssr:stedsnr" v="840592" />
	</node>
	<node lat="59.43857499870975" lon="11.28592499136825" id="-15447">
		<tag k="name" v="Nordli" />
		<tag k="place" v="farm" />
		<tag k="ssr:stedsnr" v="852213" />
	</node>
	<node lat="59.430791663525696" lon="11.506913893304949" id="-15448">
		<tag k="name" v="Slora" />
		<tag k="place" v="farm" />
		<tag k="ssr:stedsnr" v="852506" />
	</node>
	<node lat="59.256627781077704" lon="11.471402776269121" id="-15450">
		<tag k="name" v="Greåkerkasa" />
		<tag k="place" v="farm" />
		<tag k="ssr:stedsnr" v="852713" />
	</node>
	<node lat="59.29439246025349" lon="11.421353132334504" id="-15451">
		<tag k="fixme" v="consider place=hamlet" />
		<tag k="name" v="Julsrud" />
		<tag k="place" v="farm" />
		<tag k="ssr:stedsnr" v="852972" />
	</node>
	<node lat="59.338391667305544" lon="11.572363885046501" id="-15455">
		<tag k="alt_name" v="Fuglnessæter, s" />
		<tag k="fixme" v="multiple name tags, choose one and add the other to alt_name" />
		<tag k="name" v="Seter;Søndre Fuglnesseter" />
		<tag k="place" v="farm" />
		<tag k="ssr:stedsnr" v="853724" />
	</node>
	<node lat="59.33685632888637" lon="11.478781774731813" id="-15457">
		<tag k="fixme" v="consider place=hamlet" />
		<tag k="name" v="Pilhaug" />
		<tag k="place" v="farm" />
		<tag k="ssr:stedsnr" v="853732" />
	</node>
	<node lat="59.33359786726262" lon="11.472927941238703" id="-15458">
		<tag k="alt_name" v="Søllskot" />
		<tag k="fixme" v="consider place=hamlet" />
		<tag k="name" v="Sølskot" />
		<tag k="place" v="farm" />
		<tag k="ssr:stedsnr" v="853735" />
	</node>
	<node lat="59.33177777801967" lon="11.544361118980243" id="-15459">
		<tag k="name" v="Krok" />
		<tag k="place" v="farm" />
		<tag k="ssr:stedsnr" v="853604" />
	</node>
	<node lat="59.328894446204956" lon="11.4966055558704" id="-15460">
		<tag k="name" v="Lia" />
		<tag k="place" v="farm" />
		<tag k="ssr:stedsnr" v="853607" />
	</node>
	<node lat="59.357724859402076" lon="11.304726407622473" id="-15461">
		<tag k="fixme" v="consider place=hamlet" />
		<tag k="name" v="Hen" />
		<tag k="place" v="farm" />
		<tag k="ssr:stedsnr" v="853751" />
	</node>
	<node lat="59.437100002524716" lon="11.272930562609494" id="-15463">
		<tag k="name" v="Buertangen" />
		<tag k="place" v="farm" />
		<tag k="ssr:stedsnr" v="932482" />
	</node>
	<node lat="59.36753055154724" lon="11.276197226652371" id="-15467">
		<tag k="name" v="Rudsrud" />
		<tag k="place" v="farm" />
		<tag k="ssr:stedsnr" v="933399" />
	</node>
	<node lat="59.42031388598571" lon="11.323991666532818" id="-15468">
		<tag k="name" v="Engedal" />
		<tag k="place" v="farm" />
		<tag k="ssr:stedsnr" v="933574" />
	</node>
	<node lat="59.449486112989774" lon="11.387972223877702" id="-15469">
		<tag k="name" v="Kirkerud" />
		<tag k="place" v="farm" />
		<tag k="ssr:stedsnr" v="933657" />
	</node>
	<node lat="59.45082222047745" lon="11.32273054864394" id="-15471">
		<tag k="name" v="Liljeland" />
		<tag k="place" v="farm" />
		<tag k="ssr:stedsnr" v="933661" />
	</node>
	<node lat="59.361502778732394" lon="11.416902781908178" id="-15473">
		<tag k="name" v="Ellestad" />
		<tag k="place" v="farm" />
		<tag k="ssr:stedsnr" v="933667" />
	</node>
	<node lat="59.31492884292491" lon="11.439691998548206" id="-15474">
		<tag k="name" v="Lilleheier" />
		<tag k="place" v="farm" />
		<tag k="ssr:stedsnr" v="933669" />
	</node>
	<node lat="59.43677499618336" lon="11.378247226130075" id="-15478">
		<tag k="name" v="Søreng" />
		<tag k="place" v="farm" />
		<tag k="ssr:stedsnr" v="933683" />
	</node>
	<node lat="59.392794447824265" lon="11.360408331890715" id="-15479">
		<tag k="name" v="Bråten" />
		<tag k="place" v="farm" />
		<tag k="ssr:stedsnr" v="933613" />
	</node>
	<node lat="59.41200277509078" lon="11.381130546713516" id="-15480">
		<tag k="name" v="Pettersborg" />
		<tag k="place" v="farm" />
		<tag k="ssr:stedsnr" v="933626" />
	</node>
	<node lat="59.37170833629177" lon="11.392355558185969" id="-15484">
		<tag k="name" v="Langeløkke" />
		<tag k="place" v="farm" />
		<tag k="ssr:stedsnr" v="900003" />
	</node>
	<node lat="59.388708334586184" lon="11.394733328683786" id="-15495">
		<tag k="name" v="Siritorp" />
		<tag k="place" v="locality" />
		<tag k="ssr:stedsnr" v="900903" />
	</node>
	<node lat="59.3534473924554" lon="11.343407688043671" id="-15499">
		<tag k="name" v="Nerby" />
		<tag k="place" v="farm" />
		<tag k="ssr:stedsnr" v="901450" />
	</node>
	<node lat="59.41921666496448" lon="11.237888889202086" id="-15501">
		<tag k="name" v="Korumdalen" />
		<tag k="place" v="farm" />
		<tag k="ssr:stedsnr" v="901656" />
	</node>
	<node lat="59.41504166766578" lon="11.379344438358315" id="-15502">
		<tag k="name" v="Ringstad" />
		<tag k="place" v="farm" />
		<tag k="ssr:stedsnr" v="912139" />
	</node>
	<node lat="59.41433956222815" lon="11.393343359951423" id="-15503">
		<tag k="name" v="Grinnstad" />
		<tag k="place" v="hamlet" />
		<tag k="ssr:stedsnr" v="912140" />
	</node>
	<node lat="59.47330899463117" lon="11.347001919359387" id="-15505">
		<tag k="fixme" v="consider place=hamlet" />
		<tag k="name" v="Kåtorp" />
		<tag k="place" v="farm" />
		<tag k="ssr:stedsnr" v="912017" />
	</node>
	<node lat="59.46802778161089" lon="11.275575000248429" id="-15506">
		<tag k="name" v="Dramstad" />
		<tag k="place" v="farm" />
		<tag k="ssr:stedsnr" v="912018" />
	</node>
	<node lat="59.29815522397112" lon="11.405217096168156" id="-15508">
		<tag k="fixme" v="consider place=hamlet" />
		<tag k="name" v="Vatvet" />
		<tag k="place" v="farm" />
		<tag k="ssr:stedsnr" v="912997" />
	</node>
	<node lat="59.402905553884366" lon="11.313911116251294" id="-15509">
		<tag k="name" v="Labråten" />
		<tag k="place" v="farm" />
		<tag k="ssr:stedsnr" v="913151" />
	</node>
	<node lat="59.44354999712552" lon="11.269325003967236" id="-15510">
		<tag k="name" v="Torper" />
		<tag k="place" v="farm" />
		<tag k="ssr:stedsnr" v="913184" />
	</node>
	<node lat="59.451050000071255" lon="11.307472227540181" id="-15511">
		<tag k="alt_name" v="Skaug" />
		<tag k="name" v="Skog" />
		<tag k="place" v="farm" />
		<tag k="ssr:stedsnr" v="913225" />
	</node>
	<node lat="59.450875001240036" lon="11.256622223100962" id="-15512">
		<tag k="name" v="Langvoll" />
		<tag k="place" v="farm" />
		<tag k="ssr:stedsnr" v="913230" />
	</node>
	<node lat="59.38827499977162" lon="11.33592500177189" id="-15518">
		<tag k="name" v="Åstorpødegård" />
		<tag k="place" v="farm" />
		<tag k="ssr:stedsnr" v="913804" />
	</node>
	<node lat="59.39057500304228" lon="11.465250001209087" id="-15519">
		<tag k="name" v="Vedal" />
		<tag k="place" v="farm" />
		<tag k="ssr:stedsnr" v="913810" />
	</node>
	<node lat="59.370774997301496" lon="11.336536103576327" id="-15520">
		<tag k="name" v="Løpen" />
		<tag k="place" v="locality" />
		<tag k="ssr:stedsnr" v="913841" />
	</node>
	<node lat="59.44372294505656" lon="11.35334689561607" id="-15521">
		<tag k="alt_name" v="Koppen" />
		<tag k="fixme" v="consider place=hamlet" />
		<tag k="name" v="Østre Koppen" />
		<tag k="place" v="farm" />
		<tag k="ssr:stedsnr" v="919805" />
	</node>
	<node lat="59.427241668203024" lon="11.320502781339611" id="-15523">
		<tag k="name" v="Skriken" />
		<tag k="place" v="farm" />
		<tag k="ssr:stedsnr" v="933637" />
	</node>
	<node lat="59.462327780268296" lon="11.325305561611252" id="-15524">
		<tag k="name" v="Degnes" />
		<tag k="place" v="farm" />
		<tag k="ssr:stedsnr" v="933648" />
	</node>
	<node lat="59.25935409876039" lon="11.43595194003269" id="-15528">
		<tag k="name" v="Bjerkeli" />
		<tag k="place" v="farm" />
		<tag k="ssr:stedsnr" v="933904" />
	</node>
	<node lat="59.437591663182005" lon="11.431099997676172" id="-15530">
		<tag k="name" v="Dypedalsødegården" />
		<tag k="place" v="locality" />
		<tag k="ssr:stedsnr" v="961509" />
	</node>
	<node lat="59.3556606440455" lon="11.341152138145292" id="-15531">
		<tag k="name" v="Nerby" />
		<tag k="place" v="farm" />
		<tag k="ssr:stedsnr" v="961447" />
	</node>
	<node lat="59.26472024238882" lon="11.439942664546098" id="-15541">
		<tag k="fixme" v="consider place=hamlet" />
		<tag k="name" v="Bjørke" />
		<tag k="place" v="farm" />
		<tag k="ssr:stedsnr" v="976163" />
	</node>
	<node lat="59.465452922129" lon="11.336263304085113" id="-15542">
		<tag k="fixme" v="consider place=hamlet" />
		<tag k="name" v="Botten" />
		<tag k="place" v="farm" />
		<tag k="ssr:stedsnr" v="976165" />
	</node>
	<node lat="59.45532272850929" lon="11.288455463864576" id="-15543">
		<tag k="fixme" v="consider place=hamlet" />
		<tag k="name" v="Bratvortvedt" />
		<tag k="place" v="farm" />
		<tag k="ssr:stedsnr" v="976166" />
	</node>
	<node lat="59.46664750184027" lon="11.2808342050438" id="-15544">
		<tag k="fixme" v="consider place=hamlet" />
		<tag k="name" v="Brøntorp" />
		<tag k="place" v="farm" />
		<tag k="ssr:stedsnr" v="976167" />
	</node>
	<node lat="59.42816137935328" lon="11.440951964717689" id="-15545">
		<tag k="fixme" v="consider place=hamlet" />
		<tag k="name" v="Bøen" />
		<tag k="place" v="farm" />
		<tag k="ssr:stedsnr" v="976168" />
	</node>
	<node lat="59.37296513766206" lon="11.379126453101511" id="-15546">
		<tag k="fixme" v="consider place=hamlet" />
		<tag k="name" v="Dangstorp" />
		<tag k="place" v="farm" />
		<tag k="ssr:stedsnr" v="976169" />
	</node>
	<node lat="59.39720394185666" lon="11.43307872024092" id="-15547">
		<tag k="fixme" v="consider place=hamlet" />
		<tag k="name" v="Dæli" />
		<tag k="place" v="farm" />
		<tag k="ssr:stedsnr" v="976170" />
	</node>
	<node lat="59.42022026039005" lon="11.332677461082094" id="-15549">
		<tag k="fixme" v="consider place=hamlet" />
		<tag k="name" v="Hauggård" />
		<tag k="place" v="farm" />
		<tag k="ssr:stedsnr" v="2184" />
	</node>
	<node lat="59.24652923506088" lon="11.419599705201483" id="-15550">
		<tag k="name" v="Gjuer" />
		<tag k="place" v="hamlet" />
		<tag k="ssr:stedsnr" v="1923" />
	</node>
	<node lat="59.480920920493965" lon="11.397397242871943" id="-15551">
		<tag k="fixme" v="consider place=hamlet" />
		<tag k="name" v="Glørud" />
		<tag k="place" v="farm" />
		<tag k="ssr:stedsnr" v="2060" />
	</node>
	<node lat="59.46614906490887" lon="11.336729756882617" id="-15552">
		<tag k="name" v="Botn" />
		<tag k="place" v="farm" />
		<tag k="ssr:stedsnr" v="2024" />
	</node>
	<node lat="59.46899999881673" lon="11.347730555704233" id="-15553">
		<tag k="name" v="Ørven" />
		<tag k="place" v="farm" />
		<tag k="ssr:stedsnr" v="2025" />
	</node>
	<node lat="59.409672446000485" lon="11.340731124322938" id="-15554">
		<tag k="name" v="Bodal" />
		<tag k="place" v="hamlet" />
		<tag k="ssr:stedsnr" v="2140" />
	</node>
	<node lat="59.41667528858753" lon="11.432319134143759" id="-15555">
		<tag k="fixme" v="consider place=hamlet" />
		<tag k="name" v="Jerberg" />
		<tag k="place" v="farm" />
		<tag k="ssr:stedsnr" v="2142" />
	</node>
	<node lat="59.40259828651065" lon="11.423112473787182" id="-15556">
		<tag k="fixme" v="consider place=hamlet" />
		<tag k="name" v="Haug" />
		<tag k="place" v="farm" />
		<tag k="ssr:stedsnr" v="2151" />
	</node>
	<node lat="59.432481869689546" lon="11.391214993469255" id="-15557">
		<tag k="fixme" v="consider place=hamlet" />
		<tag k="name" v="Rustad" />
		<tag k="place" v="farm" />
		<tag k="ssr:stedsnr" v="2165" />
	</node>
	<node lat="59.431505557671116" lon="11.407527775948413" id="-15558">
		<tag k="fixme" v="multiple name tags, choose one and add the other to alt_name" />
		<tag k="name" v="Kåterud;Basehytta" />
		<tag k="place" v="farm" />
		<tag k="ssr:stedsnr" v="2166" />
	</node>
	<node lat="59.45484282797299" lon="11.28733562077339" id="-15560">
		<tag k="name" v="Brattvet" />
		<tag k="place" v="farm" />
		<tag k="ssr:stedsnr" v="2237" />
	</node>
	<node lat="59.38145000422534" lon="11.337722228026902" id="-15561">
		<tag k="name" v="Bø" />
		<tag k="place" v="farm" />
		<tag k="ssr:stedsnr" v="2797" />
	</node>
	<node lat="59.31942500405456" lon="11.458799998291811" id="-15564">
		<tag k="alt_name" v="Lunde søndre" />
		<tag k="name" v="Lunde" />
		<tag k="place" v="farm" />
		<tag k="ssr:stedsnr" v="2934" />
	</node>
	<node lat="59.418847222756206" lon="11.546205561427115" id="-15566">
		<tag k="name" v="Gåsa" />
		<tag k="place" v="isolated_dwelling" />
		<tag k="ssr:stedsnr" v="3479" />
	</node>
	<node lat="59.39793889277564" lon="11.58970277322338" id="-15567">
		<tag k="name" v="Finnpå" />
		<tag k="place" v="locality" />
		<tag k="ssr:stedsnr" v="3493" />
	</node>
	<node lat="59.367840035289596" lon="11.4291953475027" id="-15568">
		<tag k="fixme" v="consider place=hamlet" />
		<tag k="name" v="Halem" />
		<tag k="place" v="farm" />
		<tag k="ssr:stedsnr" v="3759" />
	</node>
	<node lat="59.335286112572845" lon="11.406602784420675" id="-15569">
		<tag k="name" v="Stensrudødegård" />
		<tag k="place" v="farm" />
		<tag k="ssr:stedsnr" v="3761" />
	</node>
	<node lat="59.371743878747175" lon="11.281044030775334" id="-15571">
		<tag k="fixme" v="consider place=hamlet" />
		<tag k="name" v="Kartnes" />
		<tag k="place" v="farm" />
		<tag k="ssr:stedsnr" v="3842" />
	</node>
	<node lat="59.3296138860294" lon="11.489958339648153" id="-15572">
		<tag k="alt_name" v="Pilhaugholtet" />
		<tag k="name" v="Holtet" />
		<tag k="place" v="farm" />
		<tag k="ssr:stedsnr" v="3581" />
	</node>
	<node lat="59.33090277450926" lon="11.564711107554425" id="-15574">
		<tag k="name" v="Slora" />
		<tag k="place" v="farm" />
		<tag k="ssr:stedsnr" v="3595" />
	</node>
	<node lat="59.2813615586025" lon="11.472163429674366" id="-15575">
		<tag k="name" v="Lassebråten" />
		<tag k="place" v="locality" />
		<tag k="ssr:stedsnr" v="3652" />
	</node>
	<node lat="59.37363333663702" lon="11.532130548409777" id="-15576">
		<tag k="alt_name" v="Skjøljabogen" />
		<tag k="name" v="Bogen" />
		<tag k="place" v="locality" />
		<tag k="ssr:stedsnr" v="3664" />
	</node>
	<node lat="59.43714997994465" lon="11.288090499885646" id="-15580">
		<tag k="alt_name" v="Buer øvre" />
		<tag k="fixme" v="consider place=hamlet" />
		<tag k="name" v="Øvre Buer" />
		<tag k="place" v="farm" />
		<tag k="ssr:stedsnr" v="22594" />
	</node>
	<node lat="59.32821389032527" lon="11.306308335114142" id="-15581">
		<tag k="name" v="Modalen" />
		<tag k="place" v="farm" />
		<tag k="ssr:stedsnr" v="22031" />
	</node>
	<node lat="59.43578055377979" lon="11.265177780163222" id="-15583">
		<tag k="name" v="Sæves (Sævesåsen)" />
		<tag k="place" v="farm" />
		<tag k="ssr:stedsnr" v="22479" />
	</node>
	<node lat="59.44032500130957" lon="11.271425002358438" id="-15584">
		<tag k="name" v="Torper" />
		<tag k="place" v="farm" />
		<tag k="ssr:stedsnr" v="22480" />
	</node>
	<node lat="59.414027781471525" lon="11.287225003082872" id="-15585">
		<tag k="name" v="Stemmedalen" />
		<tag k="place" v="farm" />
		<tag k="ssr:stedsnr" v="22540" />
	</node>
	<node lat="59.46649444334423" lon="11.279325005999103" id="-15586">
		<tag k="name" v="Brønntorp" />
		<tag k="place" v="farm" />
		<tag k="ssr:stedsnr" v="22545" />
	</node>
	<node lat="59.3508750000153" lon="11.413688880854107" id="-15590">
		<tag k="name" v="Lillerudlund" />
		<tag k="place" v="farm" />
		<tag k="ssr:stedsnr" v="22654" />
	</node>
	<node lat="59.416830553289195" lon="11.402888883665437" id="-15601">
		<tag k="name" v="Perehytta" />
		<tag k="place" v="locality" />
		<tag k="ssr:stedsnr" v="51636" />
	</node>
	<node lat="59.42496388746568" lon="11.253694449809194" id="-15606">
		<tag k="name" v="Røslia" />
		<tag k="place" v="farm" />
		<tag k="ssr:stedsnr" v="63184" />
	</node>
	<node lat="59.42012840715655" lon="11.280129786061545" id="-15607">
		<tag k="fixme" v="consider place=hamlet" />
		<tag k="name" v="Myra" />
		<tag k="place" v="farm" />
		<tag k="ssr:stedsnr" v="63189" />
	</node>
	<node lat="59.44685775013839" lon="11.35094087235468" id="-15608">
		<tag k="fixme" v="consider place=hamlet" />
		<tag k="name" v="Kåen" />
		<tag k="place" v="farm" />
		<tag k="ssr:stedsnr" v="63196" />
	</node>
	<node lat="59.24538257727574" lon="11.450336838905605" id="-15609">
		<tag k="fixme" v="consider place=hamlet" />
		<tag k="name" v="Holen" />
		<tag k="place" v="farm" />
		<tag k="ssr:stedsnr" v="62931" />
	</node>
	<node lat="59.41358314476922" lon="11.368218412719363" id="-15611">
		<tag k="fixme" v="consider place=hamlet" />
		<tag k="name" v="Rakkestad prestegard" />
		<tag k="place" v="farm" />
		<tag k="ssr:stedsnr" v="63144" />
	</node>
	<node lat="59.406337956516566" lon="11.413628235812812" id="-15612">
		<tag k="name" v="Sverstad" />
		<tag k="place" v="hamlet" />
		<tag k="ssr:stedsnr" v="63158" />
	</node>
	<node lat="59.40460982111544" lon="11.441211220812288" id="-15613">
		<tag k="name" v="Haugsten" />
		<tag k="place" v="hamlet" />
		<tag k="ssr:stedsnr" v="63159" />
	</node>
	<node lat="59.39978958430433" lon="11.242063648638815" id="-15614">
		<tag k="fixme" v="consider place=hamlet" />
		<tag k="name" v="Gryteland" />
		<tag k="place" v="farm" />
		<tag k="ssr:stedsnr" v="63832" />
	</node>
	<node lat="59.36462814788321" lon="11.398227110813684" id="-15615">
		<tag k="fixme" v="consider place=hamlet" />
		<tag k="name" v="Dottetorp" />
		<tag k="place" v="farm" />
		<tag k="ssr:stedsnr" v="63842" />
	</node>
	<node lat="59.376636108628425" lon="11.275322215539369" id="-15616">
		<tag k="name" v="Kartneshaugen" />
		<tag k="place" v="farm" />
		<tag k="ssr:stedsnr" v="63853" />
	</node>
	<node lat="59.37525277492045" lon="11.334191668344028" id="-15617">
		<tag k="name" v="Asken" />
		<tag k="place" v="farm" />
		<tag k="ssr:stedsnr" v="63860" />
	</node>
	<node lat="59.315536114520754" lon="11.451627770007944" id="-15619">
		<tag k="alt_name" v="Heller søndre" />
		<tag k="name" v="Søndre Heller" />
		<tag k="place" v="farm" />
		<tag k="ssr:stedsnr" v="63937" />
	</node>
	<node lat="59.3081138926203" lon="11.435430547517896" id="-15620">
		<tag k="fixme" v="multiple name tags, choose one and add the other to alt_name" />
		<tag k="name" v="Kjennsrud;Kongehytta;Reret" />
		<tag k="place" v="farm" />
		<tag k="ssr:stedsnr" v="63945" />
	</node>
	<node lat="59.30822500224633" lon="11.424372226598685" id="-15621">
		<tag k="name" v="Moen" />
		<tag k="place" v="farm" />
		<tag k="ssr:stedsnr" v="63949" />
	</node>
	<node lat="59.29740278165062" lon="11.359924999332387" id="-15624">
		<tag k="name" v="Langsbakken" />
		<tag k="place" v="farm" />
		<tag k="ssr:stedsnr" v="63979" />
	</node>
	<node lat="59.3231638887527" lon="11.55574167229548" id="-15625">
		<tag k="name" v="Dammyra" />
		<tag k="place" v="farm" />
		<tag k="ssr:stedsnr" v="64613" />
	</node>
	<node lat="59.37534641890805" lon="11.545243075878146" id="-15626">
		<tag k="fixme" v="consider place=hamlet" />
		<tag k="name" v="Murtnes" />
		<tag k="place" v="farm" />
		<tag k="ssr:stedsnr" v="64693" />
	</node>
	<node lat="59.36212735659377" lon="11.435179098976885" id="-15628">
		<tag k="fixme" v="consider place=hamlet" />
		<tag k="name" v="Bjørneby" />
		<tag k="place" v="farm" />
		<tag k="ssr:stedsnr" v="64786" />
	</node>
	<node lat="59.394528247167955" lon="11.304732275778072" id="-15632">
		<tag k="name" v="Haraldstad" />
		<tag k="place" v="farm" />
		<tag k="ssr:stedsnr" v="83556" />
	</node>
	<node lat="59.404895933564184" lon="11.334169827544441" id="-15634">
		<tag k="name" v="Lundeby" />
		<tag k="place" v="farm" />
		<tag k="ssr:stedsnr" v="83566" />
	</node>
	<node lat="59.43162777541449" lon="11.341558328304885" id="-15637">
		<tag k="name" v="Gudimjordet" />
		<tag k="place" v="farm" />
		<tag k="ssr:stedsnr" v="83648" />
	</node>
	<node lat="59.34995555245368" lon="11.419608325550346" id="-15638">
		<tag k="name" v="Nordby" />
		<tag k="place" v="farm" />
		<tag k="ssr:stedsnr" v="83660" />
	</node>
	<node lat="59.36495000445932" lon="11.475119444037238" id="-15640">
		<tag k="name" v="Kuskerud" />
		<tag k="place" v="farm" />
		<tag k="ssr:stedsnr" v="83676" />
	</node>
	<node lat="59.3067305599276" lon="11.399558335260654" id="-15642">
		<tag k="name" v="Knoll" />
		<tag k="place" v="farm" />
		<tag k="ssr:stedsnr" v="84645" />
	</node>
	<node lat="59.32534444513592" lon="11.436505560942695" id="-15643">
		<tag k="name" v="Gammelsrud" />
		<tag k="place" v="farm" />
		<tag k="ssr:stedsnr" v="84652" />
	</node>
	<node lat="59.37833055992362" lon="11.449883334746913" id="-15647">
		<tag k="name" v="Glerud" />
		<tag k="place" v="locality" />
		<tag k="ssr:stedsnr" v="111917" />
	</node>
	<node lat="59.39711111025138" lon="11.542741673207546" id="-15648">
		<tag k="name" v="Dalsmoen" />
		<tag k="place" v="farm" />
		<tag k="ssr:stedsnr" v="111732" />
	</node>
	<node lat="59.387558333767736" lon="11.410888881749571" id="-15649">
		<tag k="name" v="Helgerud" />
		<tag k="place" v="locality" />
		<tag k="ssr:stedsnr" v="111745" />
	</node>
	<node lat="59.38734436006164" lon="11.506460638467168" id="-15650">
		<tag k="name" v="Tjærbu" />
		<tag k="place" v="farm" />
		<tag k="ssr:stedsnr" v="111760" />
	</node>
	<node lat="59.39438888606964" lon="11.500913897381478" id="-15651">
		<tag k="name" v="Galås" />
		<tag k="place" v="farm" />
		<tag k="ssr:stedsnr" v="111764" />
	</node>
	<node lat="59.38347256077576" lon="11.471883557653264" id="-15653">
		<tag k="name" v="Tjærnes" />
		<tag k="place" v="farm" />
		<tag k="ssr:stedsnr" v="111861" />
	</node>
	<node lat="59.35793611564741" lon="11.375758331300805" id="-15654">
		<tag k="name" v="Førisdal" />
		<tag k="place" v="farm" />
		<tag k="ssr:stedsnr" v="112020" />
	</node>
	<node lat="59.363688888891474" lon="11.378486108096439" id="-15655">
		<tag k="name" v="Førisdal" />
		<tag k="place" v="farm" />
		<tag k="ssr:stedsnr" v="112021" />
	</node>
	<node lat="59.357280553882816" lon="11.368833331298795" id="-15656">
		<tag k="alt_name" v="Førisdal" />
		<tag k="name" v="Fjøshytta" />
		<tag k="place" v="farm" />
		<tag k="ssr:stedsnr" v="112035" />
	</node>
	<node lat="59.47631666675033" lon="11.41488333821884" id="-15657">
		<tag k="name" v="Søndre Klemma" />
		<tag k="place" v="farm" />
		<tag k="ssr:stedsnr" v="112039" />
	</node>
	<node lat="59.36214444374715" lon="11.383833330842187" id="-15658">
		<tag k="name" v="Førisdal" />
		<tag k="place" v="farm" />
		<tag k="ssr:stedsnr" v="112040" />
	</node>
	<node lat="59.36140277511" lon="11.566311112624811" id="-15659">
		<tag k="historic" v="shieling" />
		<tag k="name" v="Vittenbergseter" />
		<tag k="place" v="isolated_dwelling" />
		<tag k="ssr:stedsnr" v="112182" />
	</node>
	<node lat="59.41157499704927" lon="11.554719438116512" id="-15663">
		<tag k="name" v="Norddalseter" />
		<tag k="place" v="locality" />
		<tag k="ssr:stedsnr" v="112552" />
	</node>
	<node lat="59.41827499847539" lon="11.326372222712322" id="-15667">
		<tag k="name" v="Lia" />
		<tag k="place" v="farm" />
		<tag k="ssr:stedsnr" v="123198" />
	</node>
	<node lat="59.42175744028339" lon="11.309963693386905" id="-15668">
		<tag k="fixme" v="consider place=hamlet" />
		<tag k="name" v="Tøften" />
		<tag k="place" v="farm" />
		<tag k="ssr:stedsnr" v="123199" />
	</node>
	<node lat="59.39623407215787" lon="11.4519420134523" id="-15669">
		<tag k="fixme" v="consider place=hamlet" />
		<tag k="name" v="Levernes" />
		<tag k="place" v="farm" />
		<tag k="ssr:stedsnr" v="123844" />
	</node>
	<node lat="59.45983400789958" lon="11.344475690098072" id="-15671">
		<tag k="fixme" v="consider place=hamlet" />
		<tag k="name" v="Melleby" />
		<tag k="place" v="farm" />
		<tag k="ssr:stedsnr" v="123254" />
	</node>
	<node lat="59.38520833674935" lon="11.495622217910954" id="-15673">
		<tag k="alt_name" v="Låvedalen" />
		<tag k="name" v="Låvedal" />
		<tag k="place" v="farm" />
		<tag k="ssr:stedsnr" v="124493" />
	</node>
	<node lat="59.43225793954239" lon="11.296913965132857" id="-15674">
		<tag k="fixme" v="consider place=hamlet" />
		<tag k="name" v="Funnerud" />
		<tag k="place" v="farm" />
		<tag k="ssr:stedsnr" v="124147" />
	</node>
	<node lat="59.33930081060248" lon="11.434341805807854" id="-15675">
		<tag k="fixme" v="consider place=hamlet" />
		<tag k="name" v="Haug" />
		<tag k="place" v="farm" />
		<tag k="ssr:stedsnr" v="124762" />
	</node>
	<node lat="59.37112380843714" lon="11.411345539247375" id="-15676">
		<tag k="name" v="Vestby" />
		<tag k="place" v="hamlet" />
		<tag k="ssr:stedsnr" v="124841" />
	</node>
	<node lat="59.37332646156963" lon="11.315437550677057" id="-15677">
		<tag k="fixme" v="consider place=hamlet" />
		<tag k="name" v="Ilebekk" />
		<tag k="place" v="farm" />
		<tag k="ssr:stedsnr" v="124844" />
	</node>
	<node lat="59.32908611329637" lon="11.554886119620974" id="-15678">
		<tag k="alt_name" v="Kilebu søndre;Kilebu;Kildebo" />
		<tag k="name" v="Søndre Kilebu" />
		<tag k="place" v="farm" />
		<tag k="ssr:stedsnr" v="124689" />
	</node>
	<node lat="59.3492089757535" lon="11.409518515026829" id="-15679">
		<tag k="fixme" v="consider place=hamlet" />
		<tag k="name" v="Lillerud" />
		<tag k="place" v="farm" />
		<tag k="ssr:stedsnr" v="143292" />
	</node>
	<node lat="59.369713887124604" lon="11.259444439907535" id="-15680">
		<tag k="leisure" v="pitch" />
		<tag k="name" v="Rudskogen Motorsenter" />
		<tag k="ssr:stedsnr" v="143294" />
	</node>
	<node lat="59.40253055775133" lon="11.376122217930211" id="-15683">
		<tag k="name" v="Bjørnstad" />
		<tag k="place" v="farm" />
		<tag k="ssr:stedsnr" v="143560" />
	</node>
	<node lat="59.43738611403866" lon="11.394461108170576" id="-15684">
		<tag k="name" v="Slommerud" />
		<tag k="place" v="farm" />
		<tag k="ssr:stedsnr" v="143646" />
	</node>
	<node lat="59.40924125187157" lon="11.208857928476961" id="-15685">
		<tag k="fixme" v="consider place=hamlet" />
		<tag k="name" v="Stenkleven" />
		<tag k="place" v="farm" />
		<tag k="ssr:stedsnr" v="143653" />
	</node>
	<node lat="59.37293889167467" lon="11.463833336311719" id="-15686">
		<tag k="name" v="Solli" />
		<tag k="place" v="farm" />
		<tag k="ssr:stedsnr" v="143665" />
	</node>
	<node lat="59.369816414502296" lon="11.425652189224728" id="-15688">
		<tag k="alt_name" v="Halum;Halem søndre" />
		<tag k="name" v="Søndre Halem" />
		<tag k="place" v="farm" />
		<tag k="ssr:stedsnr" v="144694" />
	</node>
	<node lat="59.30061389106437" lon="11.573586111580553" id="-15690">
		<tag k="name" v="Åmotseter" />
		<tag k="place" v="locality" />
		<tag k="ssr:stedsnr" v="172377" />
	</node>
	<node lat="59.348138892205625" lon="11.355266673528167" id="-15695">
		<tag k="name" v="Sagbakkenhytta" />
		<tag k="place" v="isolated_dwelling" />
		<tag k="ssr:stedsnr" v="172453" />
	</node>
	<node lat="59.379274998225014" lon="11.428769450281685" id="-15704">
		<tag k="name" v="Halem" />
		<tag k="place" v="farm" />
		<tag k="ssr:stedsnr" v="172932" />
	</node>
	<node lat="59.38574999579444" lon="11.508552781213778" id="-15705">
		<tag k="name" v="Tjærbu" />
		<tag k="place" v="farm" />
		<tag k="ssr:stedsnr" v="172832" />
	</node>
	<node lat="59.3712583291807" lon="11.356394448322906" id="-15706">
		<tag k="name" v="Løvåsen" />
		<tag k="place" v="isolated_dwelling" />
		<tag k="ssr:stedsnr" v="172835" />
	</node>
	<node lat="59.24835000365724" lon="11.447874997034983" id="-15713">
		<tag k="name" v="Grubelund" />
		<tag k="place" v="farm" />
		<tag k="ssr:stedsnr" v="183551" />
	</node>
	<node lat="59.46601666402514" lon="11.341633339210597" id="-15715">
		<tag k="alt_name" v="Ringsby nordre" />
		<tag k="name" v="Nordre Ringsby" />
		<tag k="place" v="farm" />
		<tag k="ssr:stedsnr" v="184017" />
	</node>
	<node lat="59.420949998127554" lon="11.204849991590592" id="-15716">
		<tag k="name" v="Bråten" />
		<tag k="place" v="farm" />
		<tag k="ssr:stedsnr" v="184174" />
	</node>
	<node lat="59.422357404070375" lon="11.346601820891188" id="-15717">
		<tag k="fixme" v="consider place=hamlet" />
		<tag k="name" v="Flatstad" />
		<tag k="place" v="farm" />
		<tag k="ssr:stedsnr" v="184181" />
	</node>
	<node lat="59.44380277859287" lon="11.545488882417528" id="-15719">
		<tag k="name" v="Skansen" />
		<tag k="place" v="isolated_dwelling" />
		<tag k="ssr:stedsnr" v="184630" />
	</node>
	<node lat="59.27444118730353" lon="11.427191005457134" id="-15720">
		<tag k="fixme" v="consider place=hamlet" />
		<tag k="name" v="Skjekle" />
		<tag k="place" v="farm" />
		<tag k="ssr:stedsnr" v="184850" />
	</node>
	<node lat="59.32536701045093" lon="11.415091145616046" id="-15721">
		<tag k="fixme" v="consider place=hamlet" />
		<tag k="name" v="Storeheier" />
		<tag k="place" v="farm" />
		<tag k="ssr:stedsnr" v="184922" />
	</node>
	<node lat="59.323950002671204" lon="11.458174995844978" id="-15722">
		<tag k="name" v="Lunde" />
		<tag k="place" v="farm" />
		<tag k="ssr:stedsnr" v="184925" />
	</node>
	<node lat="59.303574996229464" lon="11.443519442685231" id="-15724">
		<tag k="name" v="Stenra" />
		<tag k="place" v="farm" />
		<tag k="ssr:stedsnr" v="184996" />
	</node>
	<node lat="59.342355556209384" lon="11.542444448758694" id="-15727">
		<tag k="name" v="Rørvik" />
		<tag k="place" v="farm" />
		<tag k="ssr:stedsnr" v="185701" />
	</node>
	<node lat="59.3252499959158" lon="11.409699997702113" id="-15729">
		<tag k="alt_name" v="Fagerholt (Stumperudhytta)" />
		<tag k="name" v="Fagerholt" />
		<tag k="place" v="farm" />
		<tag k="ssr:stedsnr" v="185767" />
	</node>
	<node lat="59.42448584029062" lon="11.314337052104744" id="-15734">
		<tag k="fixme" v="consider place=hamlet" />
		<tag k="name" v="Stemme" />
		<tag k="place" v="farm" />
		<tag k="ssr:stedsnr" v="204568" />
	</node>
	<node lat="59.382613890131935" lon="11.359736116730723" id="-15736">
		<tag k="name" v="Huken" />
		<tag k="place" v="farm" />
		<tag k="ssr:stedsnr" v="204582" />
	</node>
	<node lat="59.41529999786293" lon="11.20845277635067" id="-15738">
		<tag k="name" v="Solheim" />
		<tag k="place" v="farm" />
		<tag k="ssr:stedsnr" v="204631" />
	</node>
	<node lat="59.26644999960748" lon="11.465924997073166" id="-15742">
		<tag k="alt_name" v="Greåker søndre" />
		<tag k="name" v="Søndre Greåker" />
		<tag k="place" v="farm" />
		<tag k="ssr:stedsnr" v="204888" />
	</node>
	<node lat="59.3037083362998" lon="11.42269166739684" id="-15743">
		<tag k="name" v="Vatvetsameia" />
		<tag k="place" v="farm" />
		<tag k="ssr:stedsnr" v="205648" />
	</node>
	<node lat="59.30228332010337" lon="11.408646421489475" id="-15746">
		<tag k="name" v="Vatvet" />
		<tag k="place" v="hamlet" />
		<tag k="ssr:stedsnr" v="205662" />
	</node>
	<node lat="59.392894442341486" lon="11.504747216725347" id="-15755">
		<tag k="name" v="Tjærbutangen" />
		<tag k="place" v="farm" />
		<tag k="ssr:stedsnr" v="293762" />
	</node>
	<node lat="59.38808610706523" lon="11.476161115747276" id="-15756">
		<tag k="name" v="Vedal" />
		<tag k="place" v="farm" />
		<tag k="ssr:stedsnr" v="293788" />
	</node>
	<node lat="59.36023055398244" lon="11.41998332724831" id="-15757">
		<tag k="name" v="Kirkeng" />
		<tag k="place" v="quarter" />
		<tag k="ssr:stedsnr" v="294083" />
	</node>
	<node lat="59.299338888191045" lon="11.538761113237792" id="-15758">
		<tag k="historic" v="shieling" />
		<tag k="name" v="Nakkimseter" />
		<tag k="place" v="isolated_dwelling" />
		<tag k="ssr:stedsnr" v="294365" />
	</node>
	<node lat="59.45332778131043" lon="11.36815000091391" id="-15764">
		<tag k="alt_name" v="Rova" />
		<tag k="name" v="Roa" />
		<tag k="place" v="farm" />
		<tag k="ssr:stedsnr" v="305230" />
	</node>
	<node lat="59.462375001039575" lon="11.268152779575088" id="-15765">
		<tag k="name" v="Røshaug" />
		<tag k="place" v="farm" />
		<tag k="ssr:stedsnr" v="305233" />
	</node>
	<node lat="59.46173067311299" lon="11.29245890730643" id="-15766">
		<tag k="fixme" v="consider place=hamlet" />
		<tag k="name" v="Kolstad" />
		<tag k="place" v="farm" />
		<tag k="ssr:stedsnr" v="305236" />
	</node>
	<node lat="59.40273611165124" lon="11.268866659719635" id="-15768">
		<tag k="name" v="Haraldstadskogen" />
		<tag k="place" v="farm" />
		<tag k="ssr:stedsnr" v="305140" />
	</node>
	<node lat="59.427882884733826" lon="11.406328588359152" id="-15769">
		<tag k="name" v="Berby" />
		<tag k="place" v="farm" />
		<tag k="ssr:stedsnr" v="305157" />
	</node>
	<node lat="59.42512500446268" lon="11.345349994837678" id="-15770">
		<tag k="name" v="Rakkestad" />
		<tag k="place" v="village" />
		<tag k="ssr:stedsnr" v="305173" />
	</node>
	<node lat="59.42448450070138" lon="11.428482551918039" id="-15771">
		<tag k="fixme" v="consider place=hamlet" />
		<tag k="name" v="Strekerud" />
		<tag k="place" v="farm" />
		<tag k="ssr:stedsnr" v="305182" />
	</node>
	<node lat="59.3015534184165" lon="11.401556276475878" id="-15772">
		<tag k="fixme" v="consider place=hamlet" />
		<tag k="name" v="Vatvet" />
		<tag k="place" v="farm" />
		<tag k="ssr:stedsnr" v="305997" />
	</node>
	<node lat="59.29971601596361" lon="11.415605382265095" id="-15773">
		<tag k="fixme" v="consider place=hamlet" />
		<tag k="name" v="Vatvet" />
		<tag k="place" v="farm" />
		<tag k="ssr:stedsnr" v="306000" />
	</node>
	<node lat="59.31033043844583" lon="11.408165152313954" id="-15774">
		<tag k="fixme" v="consider place=hamlet" />
		<tag k="name" v="Orud" />
		<tag k="place" v="farm" />
		<tag k="ssr:stedsnr" v="305955" />
	</node>
	<node lat="59.43690050861441" lon="11.265934167055445" id="-15775">
		<tag k="fixme" v="consider place=hamlet" />
		<tag k="name" v="Sæves" />
		<tag k="place" v="farm" />
		<tag k="ssr:stedsnr" v="306149" />
	</node>
	<node lat="59.445550661427774" lon="11.248533550467613" id="-15776">
		<tag k="name" v="Østby" />
		<tag k="place" v="hamlet" />
		<tag k="ssr:stedsnr" v="306191" />
	</node>
	<node lat="59.44424999706654" lon="11.336149992558822" id="-15777">
		<tag k="name" v="Ryen" />
		<tag k="place" v="farm" />
		<tag k="ssr:stedsnr" v="306196" />
	</node>
	<node lat="59.43832499648019" lon="11.378627779801372" id="-15778">
		<tag k="name" v="Nordeng" />
		<tag k="place" v="farm" />
		<tag k="ssr:stedsnr" v="306199" />
	</node>
	<node lat="59.360111764442784" lon="11.484341576489843" id="-15782">
		<tag k="fixme" v="consider place=hamlet" />
		<tag k="name" v="Sønstegård" />
		<tag k="place" v="farm" />
		<tag k="ssr:stedsnr" v="306686" />
	</node>
	<node lat="59.347955868382996" lon="11.348845127495705" id="-15785">
		<tag k="fixme" v="consider place=hamlet" />
		<tag k="name" v="Lundsbakken" />
		<tag k="place" v="farm" />
		<tag k="ssr:stedsnr" v="306735" />
	</node>
	<node lat="59.39733907802357" lon="11.24739268063489" id="-15786">
		<tag k="fixme" v="consider place=hamlet" />
		<tag k="name" v="Kopperud" />
		<tag k="place" v="farm" />
		<tag k="ssr:stedsnr" v="306830" />
	</node>
	<node lat="59.31257500001458" lon="11.404405552205692" id="-15788">
		<tag k="name" v="Orud" />
		<tag k="place" v="farm" />
		<tag k="ssr:stedsnr" v="312783" />
	</node>
	<node lat="59.44833655208115" lon="11.375773910888027" id="-15789">
		<tag k="fixme" v="consider place=hamlet" />
		<tag k="name" v="Gjulem" />
		<tag k="place" v="farm" />
		<tag k="ssr:stedsnr" v="313847" />
	</node>
	<node lat="59.46294338036066" lon="11.33812939062163" id="-15790">
		<tag k="name" v="Botn" />
		<tag k="place" v="farm" />
		<tag k="ssr:stedsnr" v="313848" />
	</node>
	<node lat="59.40690277789576" lon="11.343647220377711" id="-15793">
		<tag k="name" v="Bodal" />
		<tag k="place" v="farm" />
		<tag k="ssr:stedsnr" v="325580" />
	</node>
	<node lat="59.46635555385129" lon="11.236805562728973" id="-15796">
		<tag k="name" v="Åserud" />
		<tag k="place" v="farm" />
		<tag k="ssr:stedsnr" v="325529" />
	</node>
	<node lat="59.45940788812197" lon="11.23034257897966" id="-15798">
		<tag k="alt_name" v="Røsæg" />
		<tag k="name" v="Røsæk" />
		<tag k="place" v="farm" />
		<tag k="ssr:stedsnr" v="325986" />
	</node>
	<node lat="59.3035222184927" lon="11.452694449294015" id="-15799">
		<tag k="name" v="Lannemsholen" />
		<tag k="place" v="farm" />
		<tag k="ssr:stedsnr" v="326655" />
	</node>
	<node lat="59.349634779047825" lon="11.410488839417402" id="-15800">
		<tag k="alt_name" v="Rud lille" />
		<tag k="name" v="Lillerud" />
		<tag k="place" v="farm" />
		<tag k="ssr:stedsnr" v="326683" />
	</node>
	<node lat="59.37331544544859" lon="11.409120873181164" id="-15802">
		<tag k="name" v="Vestby" />
		<tag k="place" v="farm" />
		<tag k="ssr:stedsnr" v="326698" />
	</node>
	<node lat="59.39299166995838" lon="11.23981388915638" id="-15803">
		<tag k="name" v="Revelsby" />
		<tag k="place" v="farm" />
		<tag k="ssr:stedsnr" v="326733" />
	</node>
	<node lat="59.26622777691153" lon="11.427205564046075" id="-15804">
		<tag k="name" v="Gjermundhytta" />
		<tag k="place" v="isolated_dwelling" />
		<tag k="ssr:stedsnr" v="326887" />
	</node>
	<node lat="59.28024722226707" lon="11.430558329472493" id="-15807">
		<tag k="historic" v="shieling" />
		<tag k="name" v="Sundvoll" />
		<tag k="place" v="isolated_dwelling" />
		<tag k="ssr:stedsnr" v="353720" />
	</node>
	<node lat="59.41500833356501" lon="11.343502779421408" id="-15827">
		<tag k="name" v="Brua" />
		<tag k="place" v="farm" />
		<tag k="ssr:stedsnr" v="366127" />
	</node>
	<node lat="59.413949995977006" lon="11.35548333980866" id="-15828">
		<tag k="name" v="Myrer" />
		<tag k="place" v="farm" />
		<tag k="ssr:stedsnr" v="366129" />
	</node>
	<node lat="59.406824995985716" lon="11.294002769769522" id="-15829">
		<tag k="name" v="Langbråten" />
		<tag k="place" v="farm" />
		<tag k="ssr:stedsnr" v="366145" />
	</node>
	<node lat="59.43229707482813" lon="11.240345881476419" id="-15830">
		<tag k="fixme" v="consider place=hamlet" />
		<tag k="name" v="Krosby" />
		<tag k="place" v="farm" />
		<tag k="ssr:stedsnr" v="366153" />
	</node>
	<node lat="59.42779999877351" lon="11.262452777922753" id="-15831">
		<tag k="name" v="Støten" />
		<tag k="place" v="farm" />
		<tag k="ssr:stedsnr" v="366155" />
	</node>
	<node lat="59.434597224887355" lon="11.320425002449301" id="-15832">
		<tag k="alt_name" v="Holøs østre;Holøs" />
		<tag k="name" v="Østre Holøs" />
		<tag k="place" v="farm" />
		<tag k="ssr:stedsnr" v="366157" />
	</node>
	<node lat="59.43561068679309" lon="11.313714234496032" id="-15833">
		<tag k="alt_name" v="Holøs nordre;Holøs" />
		<tag k="fixme" v="consider place=hamlet" />
		<tag k="name" v="Nordre Holøs" />
		<tag k="place" v="farm" />
		<tag k="ssr:stedsnr" v="366160" />
	</node>
	<node lat="59.42557524362933" lon="11.219264254279196" id="-15834">
		<tag k="name" v="Kullebund" />
		<tag k="place" v="farm" />
		<tag k="ssr:stedsnr" v="366175" />
	</node>
	<node lat="59.461436318951705" lon="11.374698360850893" id="-15835">
		<tag k="fixme" v="consider place=hamlet" />
		<tag k="name" v="Skjølerud" />
		<tag k="place" v="farm" />
		<tag k="ssr:stedsnr" v="366236" />
	</node>
	<node lat="59.43201944775898" lon="11.477536113196203" id="-15837">
		<tag k="name" v="Rådalshytta" />
		<tag k="place" v="isolated_dwelling" />
		<tag k="ssr:stedsnr" v="366527" />
	</node>
	<node lat="59.38138055137536" lon="11.340177769632662" id="-15838">
		<tag k="name" v="Lybekk" />
		<tag k="place" v="farm" />
		<tag k="ssr:stedsnr" v="366801" />
	</node>
	<node lat="59.39904860862267" lon="11.46377913238852" id="-15839">
		<tag k="fixme" v="consider place=hamlet" />
		<tag k="name" v="Holene" />
		<tag k="place" v="farm" />
		<tag k="ssr:stedsnr" v="366816" />
	</node>
	<node lat="59.26138341419103" lon="11.350971376399311" id="-15840">
		<tag k="fixme" v="consider place=hamlet" />
		<tag k="name" v="Klever" />
		<tag k="place" v="farm" />
		<tag k="ssr:stedsnr" v="366901" />
	</node>
	<node lat="59.41105277409184" lon="11.531222215961487" id="-15841">
		<tag k="name" v="Soterud" />
		<tag k="place" v="isolated_dwelling" />
		<tag k="ssr:stedsnr" v="367455" />
	</node>
	<node lat="59.36251792637271" lon="11.544815074373687" id="-15842">
		<tag k="fixme" v="consider place=hamlet" />
		<tag k="name" v="Fuglenes" />
		<tag k="place" v="farm" />
		<tag k="ssr:stedsnr" v="367686" />
	</node>
	<node lat="59.35573656624647" lon="11.491782737074956" id="-15843">
		<tag k="alt_name" v="Torp lille" />
		<tag k="fixme" v="consider place=hamlet" />
		<tag k="name" v="Lilletorp" />
		<tag k="place" v="farm" />
		<tag k="ssr:stedsnr" v="367699" />
	</node>
	<node lat="59.25796944733638" lon="11.530294445051648" id="-15846">
		<tag k="name" v="Tynningmoen" />
		<tag k="place" v="isolated_dwelling" />
		<tag k="ssr:stedsnr" v="367734" />
	</node>
	<node lat="59.37614444476389" lon="11.467227774577342" id="-15848">
		<tag k="name" v="Lilleng" />
		<tag k="place" v="farm" />
		<tag k="ssr:stedsnr" v="367841" />
	</node>
	<node lat="59.375050684730084" lon="11.294104789298814" id="-15849">
		<tag k="fixme" v="consider place=hamlet" />
		<tag k="name" v="Jaren" />
		<tag k="place" v="farm" />
		<tag k="ssr:stedsnr" v="367847" />
	</node>
	<node lat="59.42256388710882" lon="11.255658341500556" id="-15851">
		<tag k="name" v="Handelsby" />
		<tag k="place" v="farm" />
		<tag k="ssr:stedsnr" v="386476" />
	</node>
	<node lat="59.457577777766126" lon="11.228061119478351" id="-15852">
		<tag k="name" v="Nordbyhytta" />
		<tag k="place" v="isolated_dwelling" />
		<tag k="ssr:stedsnr" v="386486" />
	</node>
	<node lat="59.444774998810615" lon="11.276177773042035" id="-15854">
		<tag k="name" v="Espelund" />
		<tag k="place" v="farm" />
		<tag k="ssr:stedsnr" v="386492" />
	</node>
	<node lat="59.4103333353592" lon="11.386766674930213" id="-15855">
		<tag k="name" v="Grindstadhaugen" />
		<tag k="place" v="locality" />
		<tag k="ssr:stedsnr" v="386585" />
	</node>
	<node lat="59.358916668198866" lon="11.49722500207267" id="-15857">
		<tag k="name" v="Sønstegård" />
		<tag k="place" v="farm" />
		<tag k="ssr:stedsnr" v="386665" />
	</node>
	<node lat="59.32611110811837" lon="11.423805551591702" id="-15860">
		<tag k="name" v="Skarpholt" />
		<tag k="place" v="farm" />
		<tag k="ssr:stedsnr" v="387634" />
	</node>
	<node lat="59.42646111445753" lon="11.511777783872128" id="-15870">
		<tag k="name" v="Holtet" />
		<tag k="place" v="locality" />
		<tag k="ssr:stedsnr" v="415515" />
	</node>
	<node lat="59.390588893380766" lon="11.440624994230948" id="-15872">
		<tag k="name" v="Tofet" />
		<tag k="place" v="locality" />
		<tag k="ssr:stedsnr" v="415859" />
	</node>
	<node lat="59.354678935547966" lon="11.497864408623224" id="-15876">
		<tag k="name" v="Torp" />
		<tag k="place" v="hamlet" />
		<tag k="ssr:stedsnr" v="419346" />
	</node>
	<node lat="59.41807583744229" lon="11.228027465151879" id="-15877">
		<tag k="alt_name" v="Bauserud" />
		<tag k="fixme" v="consider place=hamlet" />
		<tag k="name" v="Båserud" />
		<tag k="place" v="farm" />
		<tag k="ssr:stedsnr" v="427198" />
	</node>
	<node lat="59.40870000324159" lon="11.220630556589654" id="-15878">
		<tag k="name" v="Myrvoll" />
		<tag k="place" v="farm" />
		<tag k="ssr:stedsnr" v="427148" />
	</node>
	<node lat="59.42816790096256" lon="11.28544622083817" id="-15879">
		<tag k="fixme" v="consider place=hamlet" />
		<tag k="name" v="Rud" />
		<tag k="place" v="farm" />
		<tag k="ssr:stedsnr" v="427165" />
	</node>
	<node lat="59.45882499740378" lon="11.25472500862798" id="-15880">
		<tag k="name" v="Åsen" />
		<tag k="place" v="farm" />
		<tag k="ssr:stedsnr" v="427252" />
	</node>
	<node lat="59.455555555449166" lon="11.252961102662814" id="-15881">
		<tag k="name" v="Nordberg" />
		<tag k="place" v="farm" />
		<tag k="ssr:stedsnr" v="427253" />
	</node>
	<node lat="59.444815900567505" lon="11.299979554371703" id="-15882">
		<tag k="name" v="Kraugerud" />
		<tag k="place" v="farm" />
		<tag k="ssr:stedsnr" v="427266" />
	</node>
	<node lat="59.447071206109996" lon="11.270401510702785" id="-15883">
		<tag k="name" v="Torper" />
		<tag k="place" v="hamlet" />
		<tag k="ssr:stedsnr" v="427269" />
	</node>
	<node lat="59.39064999795332" lon="11.355399997121472" id="-15884">
		<tag k="name" v="Engedal" />
		<tag k="place" v="farm" />
		<tag k="ssr:stedsnr" v="427791" />
	</node>
	<node lat="59.39584722166199" lon="11.412041660781007" id="-15885">
		<tag k="name" v="Vestli" />
		<tag k="place" v="farm" />
		<tag k="ssr:stedsnr" v="427794" />
	</node>
	<node lat="59.27455277516889" lon="11.3916249999381" id="-15886">
		<tag k="name" v="Kuledalen" />
		<tag k="place" v="farm" />
		<tag k="ssr:stedsnr" v="427846" />
	</node>
	<node lat="59.3129277762908" lon="11.329969451861988" id="-15888">
		<tag k="name" v="Bredholt" />
		<tag k="place" v="farm" />
		<tag k="ssr:stedsnr" v="427941" />
	</node>
	<node lat="59.30260833340218" lon="11.584416661747229" id="-15890">
		<tag k="alt_name" v="Hellesåen;Helleåsen vestre;Hellesåa" />
		<tag k="name" v="Vestre Hellesåen" />
		<tag k="place" v="farm" />
		<tag k="ssr:stedsnr" v="428635" />
	</node>
	<node lat="59.35075555606385" lon="11.326527770787134" id="-15893">
		<tag k="name" v="Enga" />
		<tag k="place" v="farm" />
		<tag k="ssr:stedsnr" v="428742" />
	</node>
	<node lat="59.34007499919935" lon="11.455175008566169" id="-15895">
		<tag k="alt_name" v="Grønnvoll (Roterud)" />
		<tag k="name" v="Grønvoll" />
		<tag k="place" v="farm" />
		<tag k="ssr:stedsnr" v="428793" />
	</node>
	<node lat="59.38511944395291" lon="11.379791667233896" id="-15900">
		<tag k="alt_name" v="Næristorp nedre" />
		<tag k="name" v="Nedre Næristorp" />
		<tag k="place" v="farm" />
		<tag k="ssr:stedsnr" v="447595" />
	</node>
	<node lat="59.441952774945484" lon="11.272811119292054" id="-15901">
		<tag k="name" v="Torper" />
		<tag k="place" v="farm" />
		<tag k="ssr:stedsnr" v="447466" />
	</node>
	<node lat="59.40498888691632" lon="11.33182500511914" id="-15903">
		<tag k="name" v="Kroken" />
		<tag k="place" v="locality" />
		<tag k="ssr:stedsnr" v="447561" />
	</node>
	<node lat="59.3463027841727" lon="11.427357024060909" id="-15904">
		<tag k="name" v="Dintorp" />
		<tag k="place" v="farm" />
		<tag k="ssr:stedsnr" v="447646" />
	</node>
	<node lat="59.374375004013686" lon="11.46228611852014" id="-15905">
		<tag k="name" v="Møllerhaugen" />
		<tag k="place" v="farm" />
		<tag k="ssr:stedsnr" v="447651" />
	</node>
	<node lat="59.44676944815112" lon="11.221477782053293" id="-15906">
		<tag k="name" v="Kartnes" />
		<tag k="place" v="locality" />
		<tag k="ssr:stedsnr" v="447986" />
	</node>
	<node lat="59.34184199092017" lon="11.434032909552611" id="-15907">
		<tag k="fixme" v="consider place=hamlet" />
		<tag k="name" v="Stamsås" />
		<tag k="place" v="farm" />
		<tag k="ssr:stedsnr" v="670781" />
	</node>
	<node lat="59.34375654716837" lon="11.426615066568804" id="-15908">
		<tag k="fixme" v="consider place=hamlet" />
		<tag k="name" v="Dintorp" />
		<tag k="old_name" v="Dingtorp" />
		<tag k="place" v="farm" />
		<tag k="ssr:stedsnr" v="670782" />
	</node>
	<node lat="59.41822222278904" lon="11.369124994962085" id="-15910">
		<tag k="name" v="Bekkevoll" />
		<tag k="place" v="farm" />
		<tag k="ssr:stedsnr" v="507579" />
	</node>
	<node lat="59.42505555433592" lon="11.321988883416575" id="-15911">
		<tag k="name" v="Vikland" />
		<tag k="place" v="farm" />
		<tag k="ssr:stedsnr" v="507592" />
	</node>
	<node lat="59.40840833271221" lon="11.30633889048078" id="-15913">
		<tag k="name" v="Holtet" />
		<tag k="place" v="locality" />
		<tag k="ssr:stedsnr" v="507525" />
	</node>
	<node lat="59.3832611108986" lon="11.37795000287651" id="-15914">
		<tag k="name" v="Næristorp" />
		<tag k="place" v="farm" />
		<tag k="ssr:stedsnr" v="507617" />
	</node>
	<node lat="59.45652777758483" lon="11.367786111434562" id="-15915">
		<tag k="name" v="Flatbergtangen" />
		<tag k="place" v="farm" />
		<tag k="ssr:stedsnr" v="507619" />
	</node>
	<node lat="59.44472222514681" lon="11.323624997986988" id="-15916">
		<tag k="name" v="Kontra" />
		<tag k="place" v="farm" />
		<tag k="ssr:stedsnr" v="507624" />
	</node>
	<node lat="59.447902777497525" lon="11.282494451162886" id="-15917">
		<tag k="name" v="Torperhagen" />
		<tag k="place" v="farm" />
		<tag k="ssr:stedsnr" v="507625" />
	</node>
	<node lat="59.270252780260435" lon="11.463347230528349" id="-15918">
		<tag k="name" v="Greåkerholtet" />
		<tag k="place" v="farm" />
		<tag k="ssr:stedsnr" v="507647" />
	</node>
	<node lat="59.42526963635718" lon="11.346441504604536" id="-15919">
		<tag k="name" v="Flatstad" />
		<tag k="place" v="farm" />
		<tag k="ssr:stedsnr" v="507654" />
	</node>
	<node lat="59.36848055945585" lon="11.263405561472087" id="-15921">
		<tag k="name" v="Rudshytta" />
		<tag k="place" v="isolated_dwelling" />
		<tag k="ssr:stedsnr" v="508397" />
	</node>
	<node lat="59.34691389029816" lon="11.417624996139944" id="-15923">
		<tag k="name" v="Haugerud" />
		<tag k="place" v="farm" />
		<tag k="ssr:stedsnr" v="508675" />
	</node>
	<node lat="59.37738055911219" lon="11.487252770506423" id="-15925">
		<tag k="name" v="Skolemesterhytta" />
		<tag k="place" v="isolated_dwelling" />
		<tag k="ssr:stedsnr" v="508683" />
	</node>
	<node lat="59.35863888688212" lon="11.439272221209494" id="-15926">
		<tag k="name" v="Oremo" />
		<tag k="place" v="farm" />
		<tag k="ssr:stedsnr" v="508694" />
	</node>
	<node lat="59.431298180436606" lon="11.274151164972666" id="-15943">
		<tag k="fixme" v="consider place=hamlet" />
		<tag k="name" v="Øgården" />
		<tag k="place" v="farm" />
		<tag k="ssr:stedsnr" v="548158" />
	</node>
	<node lat="59.43963889296069" lon="11.315794440463849" id="-15944">
		<tag k="alt_name" v="Hauger søndre;Hauger" />
		<tag k="name" v="Søndre Hauger" />
		<tag k="place" v="farm" />
		<tag k="ssr:stedsnr" v="548216" />
	</node>
	<node lat="59.469825001980354" lon="11.233680561991342" id="-15945">
		<tag k="alt_name" v="Sutern" />
		<tag k="name" v="Suteren" />
		<tag k="place" v="farm" />
		<tag k="ssr:stedsnr" v="548033" />
	</node>
	<node lat="59.46476603246726" lon="11.255347811195314" id="-15946">
		<tag k="name" v="Brønntorp" />
		<tag k="place" v="farm" />
		<tag k="ssr:stedsnr" v="548034" />
	</node>
	<node lat="59.42873137776865" lon="11.374417250699599" id="-15947">
		<tag k="fixme" v="consider place=hamlet" />
		<tag k="name" v="Haslem" />
		<tag k="place" v="farm" />
		<tag k="ssr:stedsnr" v="548164" />
	</node>
	<node lat="59.424441665983544" lon="11.229102774723579" id="-15948">
		<tag k="name" v="Stensrud" />
		<tag k="place" v="farm" />
		<tag k="ssr:stedsnr" v="548181" />
	</node>
	<node lat="59.42786825669937" lon="11.234571247782254" id="-15949">
		<tag k="alt_name" v="Korum vestre" />
		<tag k="fixme" v="consider place=hamlet" />
		<tag k="name" v="Korum" />
		<tag k="place" v="farm" />
		<tag k="ssr:stedsnr" v="548186" />
	</node>
	<node lat="59.42051389252648" lon="11.4237583348996" id="-15950">
		<tag k="name" v="Østreng" />
		<tag k="place" v="farm" />
		<tag k="ssr:stedsnr" v="548192" />
	</node>
	<node lat="59.437855556138814" lon="11.45410000308407" id="-15951">
		<tag k="name" v="Nøtteholen" />
		<tag k="place" v="farm" />
		<tag k="ssr:stedsnr" v="548223" />
	</node>
	<node lat="59.45831666486157" lon="11.476602771512713" id="-15953">
		<tag k="fixme" v="multiple name tags, choose one and add the other to alt_name" />
		<tag k="name" v="Gimle;Abbortjernstua" />
		<tag k="place" v="isolated_dwelling" />
		<tag k="ssr:stedsnr" v="548591" />
	</node>
	<node lat="59.3864666638512" lon="11.421800004055367" id="-15955">
		<tag k="name" v="Harstad" />
		<tag k="place" v="locality" />
		<tag k="ssr:stedsnr" v="548859" />
	</node>
	<node lat="59.276918005131435" lon="11.466276010315006" id="-15956">
		<tag k="name" v="Torudholtet" />
		<tag k="place" v="farm" />
		<tag k="ssr:stedsnr" v="548874" />
	</node>
	<node lat="59.26079042596591" lon="11.451291544063823" id="-15957">
		<tag k="fixme" v="consider place=hamlet" />
		<tag k="name" v="Vatnemellom" />
		<tag k="place" v="farm" />
		<tag k="ssr:stedsnr" v="548896" />
	</node>
	<node lat="59.268171141785615" lon="11.463527557358312" id="-15958">
		<tag k="fixme" v="consider place=hamlet" />
		<tag k="name" v="Greåker" />
		<tag k="place" v="farm" />
		<tag k="ssr:stedsnr" v="548913" />
	</node>
	<node lat="59.363615078235554" lon="11.493804919627312" id="-15960">
		<tag k="fixme" v="consider place=hamlet" />
		<tag k="name" v="Mellegård" />
		<tag k="place" v="farm" />
		<tag k="ssr:stedsnr" v="549690" />
	</node>
	<node lat="59.34617692741595" lon="11.469751700841199" id="-15961">
		<tag k="name" v="Nakkim" />
		<tag k="place" v="hamlet" />
		<tag k="ssr:stedsnr" v="549800" />
	</node>
	<node lat="59.346874348457476" lon="11.418468195840495" id="-15966">
		<tag k="fixme" v="consider place=hamlet" />
		<tag k="name" v="Nordby" />
		<tag k="place" v="farm" />
		<tag k="ssr:stedsnr" v="549733" />
	</node>
	<node lat="59.3625251302054" lon="11.377933952732537" id="-15967">
		<tag k="name" v="Førisdal" />
		<tag k="place" v="hamlet" />
		<tag k="ssr:stedsnr" v="549751" />
	</node>
	<node lat="59.360107272940624" lon="11.34367628400264" id="-15968">
		<tag k="fixme" v="consider place=hamlet" />
		<tag k="name" v="Melleby" />
		<tag k="place" v="farm" />
		<tag k="ssr:stedsnr" v="549752" />
	</node>
	<node lat="59.374999997361385" lon="11.460277782810303" id="-15969">
		<tag k="name" v="Fosser" />
		<tag k="place" v="farm" />
		<tag k="ssr:stedsnr" v="549841" />
	</node>
	<node lat="59.293166669895314" lon="11.32927499904199" id="-15971">
		<tag k="name" v="Høykneppehytta" />
		<tag k="place" v="isolated_dwelling" />
		<tag k="ssr:stedsnr" v="568037" />
	</node>
	<node lat="59.44764166442181" lon="11.26012499871084" id="-15974">
		<tag k="alt_name" v="Ostorp" />
		<tag k="name" v="Haugen" />
		<tag k="place" v="farm" />
		<tag k="ssr:stedsnr" v="568487" />
	</node>
	<node lat="59.442055553769684" lon="11.367436106333765" id="-15976">
		<tag k="name" v="Femmen" />
		<tag k="place" v="farm" />
		<tag k="ssr:stedsnr" v="568591" />
	</node>
	<node lat="59.38458055580705" lon="11.393561115453366" id="-15977">
		<tag k="name" v="Tolsby" />
		<tag k="place" v="farm" />
		<tag k="ssr:stedsnr" v="568598" />
	</node>
	<node lat="59.39844444676263" lon="11.32609999607782" id="-15978">
		<tag k="name" v="Bodalshagen (Kneppa)" />
		<tag k="place" v="farm" />
		<tag k="ssr:stedsnr" v="568538" />
	</node>
	<node lat="59.353580551584486" lon="11.419852778215482" id="-15980">
		<tag k="alt_name" v="Kirkeng søndre" />
		<tag k="name" v="Søndre Kirkeng" />
		<tag k="place" v="farm" />
		<tag k="ssr:stedsnr" v="568635" />
	</node>
	<node lat="59.34233888670595" lon="11.416194440285675" id="-15981">
		<tag k="name" v="Nordre Stensrud" />
		<tag k="place" v="farm" />
		<tag k="ssr:stedsnr" v="568640" />
	</node>
	<node lat="59.46031400746687" lon="11.23783563439833" id="-15985">
		<tag k="name" v="Røsæk" />
		<tag k="place" v="farm" />
		<tag k="ssr:stedsnr" v="568989" />
	</node>
	<node lat="59.35790833498801" lon="11.417741669740263" id="-15986">
		<tag k="name" v="Kirkeng" />
		<tag k="place" v="farm" />
		<tag k="ssr:stedsnr" v="569669" />
	</node>
	<node lat="59.370387073586436" lon="11.306833659340462" id="-15987">
		<tag k="fixme" v="consider place=hamlet" />
		<tag k="name" v="Torp" />
		<tag k="place" v="farm" />
		<tag k="ssr:stedsnr" v="670831" />
	</node>
	<node lat="59.3704500027684" lon="11.458800006243223" id="-15988">
		<tag k="name" v="Holtet" />
		<tag k="place" v="farm" />
		<tag k="ssr:stedsnr" v="670840" />
	</node>
	<node lat="59.27992777860597" lon="11.409691658037826" id="-15991">
		<tag k="alt_name" v="Fjell søndre" />
		<tag k="name" v="Søndre Fjell" />
		<tag k="place" v="farm" />
		<tag k="ssr:stedsnr" v="596690" />
	</node>
	<node lat="59.39414722499669" lon="11.411127774596567" id="-16000">
		<tag k="name" v="Snekkerhytta" />
		<tag k="place" v="locality" />
		<tag k="ssr:stedsnr" v="596798" />
	</node>
	<node lat="59.355934029142" lon="11.552451644373251" id="-16003">
		<tag k="alt_name" v="Seter nedre" />
		<tag k="historic" v="shieling" />
		<tag k="name" v="Nedre Seter" />
		<tag k="place" v="isolated_dwelling" />
		<tag k="ssr:stedsnr" v="597075" />
	</node>
	<node lat="59.42479444355662" lon="11.40708332555444" id="-16006">
		<tag k="name" v="Berby" />
		<tag k="place" v="farm" />
		<tag k="ssr:stedsnr" v="597388" />
	</node>
	<node lat="59.428380557370744" lon="11.508163889439837" id="-16007">
		<tag k="name" v="Slora" />
		<tag k="place" v="farm" />
		<tag k="ssr:stedsnr" v="597478" />
	</node>
	<node lat="59.40690277989314" lon="11.552025008245694" id="-16009">
		<tag k="name" v="Frønebekken" />
		<tag k="place" v="farm" />
		<tag k="ssr:stedsnr" v="597536" />
	</node>
	<node lat="59.41759444851126" lon="11.240213883980916" id="-16015">
		<tag k="name" v="Lia" />
		<tag k="place" v="farm" />
		<tag k="ssr:stedsnr" v="608123" />
	</node>
	<node lat="59.41516111468296" lon="11.2360361049329" id="-16016">
		<tag k="name" v="Korumskogen" />
		<tag k="place" v="farm" />
		<tag k="ssr:stedsnr" v="608125" />
	</node>
	<node lat="59.41737499745657" lon="11.418200004993869" id="-16018">
		<tag k="name" v="Jubelen" />
		<tag k="place" v="farm" />
		<tag k="ssr:stedsnr" v="608173" />
	</node>
	<node lat="59.4445000026185" lon="11.28479723010613" id="-16019">
		<tag k="name" v="Vråla" />
		<tag k="place" v="farm" />
		<tag k="ssr:stedsnr" v="609229" />
	</node>
	<node lat="59.405299997307" lon="11.344197230651668" id="-16020">
		<tag k="name" v="Bodal" />
		<tag k="place" v="farm" />
		<tag k="ssr:stedsnr" v="609155" />
	</node>
	<node lat="59.4665916676493" lon="11.507077779128235" id="-16021">
		<tag k="name" v="Orestupet" />
		<tag k="place" v="isolated_dwelling" />
		<tag k="ssr:stedsnr" v="609562" />
	</node>
	<node lat="59.36961443439605" lon="11.54287865841339" id="-16022">
		<tag k="fixme" v="multiple name tags, choose one and add the other to alt_name" />
		<tag k="name" v="Lia;Murtnesødegård" />
		<tag k="place" v="farm" />
		<tag k="ssr:stedsnr" v="609658" />
	</node>
	<node lat="59.363830748601075" lon="11.455415340996513" id="-16025">
		<tag k="fixme" v="consider place=hamlet" />
		<tag k="name" v="Skalle" />
		<tag k="place" v="farm" />
		<tag k="ssr:stedsnr" v="609738" />
	</node>
	<node lat="59.395756527718554" lon="11.245703171812528" id="-16026">
		<tag k="fixme" v="consider place=hamlet" />
		<tag k="name" v="Gunnelsby" />
		<tag k="place" v="farm" />
		<tag k="ssr:stedsnr" v="609799" />
	</node>
	<node lat="59.32311666643231" lon="11.561766664830946" id="-16029">
		<tag k="name" v="Lerbråten" />
		<tag k="place" v="farm" />
		<tag k="ssr:stedsnr" v="610664" />
	</node>
	<node lat="59.32908884271092" lon="11.420100283395046" id="-16035">
		<tag k="name" v="Skarpholt" />
		<tag k="place" v="hamlet" />
		<tag k="ssr:stedsnr" v="610961" />
	</node>
	<node lat="59.32476765639399" lon="11.428130804437007" id="-16036">
		<tag k="fixme" v="consider place=hamlet" />
		<tag k="name" v="Titterud" />
		<tag k="place" v="farm" />
		<tag k="ssr:stedsnr" v="610963" />
	</node>
	<node lat="59.43305674511304" lon="11.35210182248428" id="-16037">
		<tag k="fixme" v="consider place=hamlet" />
		<tag k="name" v="Lien" />
		<tag k="place" v="farm" />
		<tag k="ssr:stedsnr" v="615797" />
	</node>
	<node lat="59.41644917381936" lon="11.351254480327741" id="-16038">
		<tag k="building" v="industrial" />
		<tag k="name" v="Kleveland" />
		<tag k="ssr:stedsnr" v="628564" />
	</node>
	<node lat="59.32435833227212" lon="11.409441674279526" id="-16039">
		<tag k="name" v="Heierødegård" />
		<tag k="place" v="farm" />
		<tag k="ssr:stedsnr" v="629649" />
	</node>
	<node lat="59.43576944503124" lon="11.348027771945256" id="-16040">
		<tag k="name" v="Liensjordet" />
		<tag k="place" v="farm" />
		<tag k="ssr:stedsnr" v="629661" />
	</node>
	<node lat="59.35576666634059" lon="11.420208339568067" id="-16041">
		<tag k="alt_name" v="Kirkeng nordre" />
		<tag k="name" v="Nordre Kirkeng" />
		<tag k="place" v="farm" />
		<tag k="ssr:stedsnr" v="629674" />
	</node>
	<node lat="59.35413611524687" lon="11.43450555403707" id="-16042">
		<tag k="name" v="Svanka" />
		<tag k="place" v="locality" />
		<tag k="ssr:stedsnr" v="629678" />
	</node>
	<node lat="59.36263831876866" lon="11.426039933797785" id="-16044">
		<tag k="fixme" v="consider place=hamlet" />
		<tag k="name" v="Stentorp" />
		<tag k="place" v="farm" />
		<tag k="ssr:stedsnr" v="629689" />
	</node>
	<node lat="59.425433390170944" lon="11.309985780157303" id="-16045">
		<tag k="name" v="Stemme" />
		<tag k="place" v="farm" />
		<tag k="ssr:stedsnr" v="629610" />
	</node>
	<node lat="59.42437222019283" lon="11.301322214568435" id="-16046">
		<tag k="name" v="Rosenlund" />
		<tag k="place" v="farm" />
		<tag k="ssr:stedsnr" v="629611" />
	</node>
	<node lat="59.38407499811713" lon="11.369311107339678" id="-16047">
		<tag k="name" v="Næristorphytta" />
		<tag k="place" v="isolated_dwelling" />
		<tag k="ssr:stedsnr" v="629624" />
	</node>
	<node lat="59.30981944697528" lon="11.448969443020914" id="-16048">
		<tag k="name" v="Lystad" />
		<tag k="place" v="farm" />
		<tag k="ssr:stedsnr" v="629635" />
	</node>
	<node lat="59.39724444040255" lon="11.322797225968733" id="-16049">
		<tag k="name" v="Bodalsåsen" />
		<tag k="place" v="farm" />
		<tag k="ssr:stedsnr" v="629565" />
	</node>
	<node lat="59.387030555648366" lon="11.348636107130467" id="-16051">
		<tag k="name" v="Klesberget" />
		<tag k="place" v="locality" />
		<tag k="ssr:stedsnr" v="629571" />
	</node>
	<node lat="59.40782777718388" lon="11.34033611660109" id="-16052">
		<tag k="name" v="Bodal" />
		<tag k="place" v="farm" />
		<tag k="ssr:stedsnr" v="629581" />
	</node>
	<node lat="59.38438610689826" lon="11.232847228100965" id="-16054">
		<tag k="name" v="Flåerhytta" />
		<tag k="place" v="isolated_dwelling" />
		<tag k="ssr:stedsnr" v="629721" />
	</node>
	<node lat="59.31623685777981" lon="11.569859642166744" id="-16056">
		<tag k="name" v="Tjernstad" />
		<tag k="place" v="locality" />
		<tag k="ssr:stedsnr" v="651454" />
	</node>
	<node lat="59.33004722585807" lon="11.5470833348787" id="-16059">
		<tag k="name" v="Krok" />
		<tag k="place" v="farm" />
		<tag k="ssr:stedsnr" v="658062" />
	</node>
	<node lat="59.46391111052266" lon="11.354813896783973" id="-16061">
		<tag k="name" v="Flatbergengen" />
		<tag k="place" v="farm" />
		<tag k="ssr:stedsnr" v="657026" />
	</node>
	<node lat="59.48124084955149" lon="11.41621906770792" id="-16062">
		<tag k="name" v="Holtehytta" />
		<tag k="place" v="farm" />
		<tag k="ssr:stedsnr" v="657027" />
	</node>
	<node lat="59.37680277877268" lon="11.31126944403646" id="-16067">
		<tag k="alt_name" v="Sørby øvre" />
		<tag k="name" v="Øvre Sørby" />
		<tag k="place" v="farm" />
		<tag k="ssr:stedsnr" v="657664" />
	</node>
	<node lat="59.38868888833945" lon="11.406530550167835" id="-16072">
		<tag k="fixme" v="multiple name tags, choose one and add the other to alt_name" />
		<tag k="name" v="Torper;Tuten" />
		<tag k="place" v="locality" />
		<tag k="ssr:stedsnr" v="657756" />
	</node>
	<node lat="59.38903055706244" lon="11.495975004425011" id="-16075">
		<tag k="fixme" v="multiple name tags, choose one and add the other to alt_name" />
		<tag k="name" v="Tjærbuhaugen;Bjørnehullet" />
		<tag k="place" v="farm" />
		<tag k="ssr:stedsnr" v="657780" />
	</node>
	<node lat="59.425577774777636" lon="11.509950003634428" id="-16080">
		<tag k="name" v="Pina" />
		<tag k="place" v="locality" />
		<tag k="ssr:stedsnr" v="658467" />
	</node>
	<node lat="59.41798055702592" lon="11.204916662198038" id="-16082">
		<tag k="name" v="Finnskutt" />
		<tag k="place" v="farm" />
		<tag k="ssr:stedsnr" v="669118" />
	</node>
	<node lat="59.35623570653158" lon="11.439669616363405" id="-16085">
		<tag k="fixme" v="consider place=hamlet" />
		<tag k="name" v="Oremo" />
		<tag k="place" v="farm" />
		<tag k="ssr:stedsnr" v="670749" />
	</node>
	<node lat="59.31665801784125" lon="11.410780600936334" id="-16086">
		<tag k="fixme" v="consider place=hamlet" />
		<tag k="name" v="Lysebråte" />
		<tag k="place" v="farm" />
		<tag k="ssr:stedsnr" v="669941" />
	</node>
	<node lat="59.316494795319315" lon="11.418455669550468" id="-16088">
		<tag k="fixme" v="consider place=hamlet" />
		<tag k="name" v="Lund" />
		<tag k="place" v="farm" />
		<tag k="ssr:stedsnr" v="669946" />
	</node>
	<node lat="59.309950000294016" lon="11.46007499983402" id="-16089">
		<tag k="name" v="Sandtorp" />
		<tag k="place" v="farm" />
		<tag k="ssr:stedsnr" v="669948" />
	</node>
	<node lat="59.324061111597814" lon="11.317213886625256" id="-16090">
		<tag k="name" v="Bredholt" />
		<tag k="place" v="farm" />
		<tag k="ssr:stedsnr" v="669962" />
	</node>
	<node lat="59.3994861115191" lon="11.44385277850159" id="-16091">
		<tag k="name" v="Ødegård" />
		<tag k="place" v="farm" />
		<tag k="ssr:stedsnr" v="670156" />
	</node>
	<node lat="59.432688739848416" lon="11.29063188266497" id="-16092">
		<tag k="fixme" v="consider place=hamlet" />
		<tag k="name" v="Buslett" />
		<tag k="place" v="farm" />
		<tag k="ssr:stedsnr" v="670161" />
	</node>
	<node lat="59.469550002927996" lon="11.48249167341163" id="-16093">
		<tag k="name" v="Bregdehytta" />
		<tag k="place" v="isolated_dwelling" />
		<tag k="ssr:stedsnr" v="670563" />
	</node>
	<node lat="59.431363530524216" lon="11.400279743183587" id="-16096">
		<tag k="fixme" v="consider place=hamlet" />
		<tag k="name" v="Kåterud" />
		<tag k="place" v="farm" />
		<tag k="ssr:stedsnr" v="718400" />
	</node>
	<node lat="59.40600277433021" lon="11.457100006428995" id="-16098">
		<tag k="name" v="Eng" />
		<tag k="place" v="farm" />
		<tag k="ssr:stedsnr" v="718589" />
	</node>
	<node lat="59.42726388923544" lon="11.398797214145782" id="-16106">
		<tag k="name" v="Kåterud" />
		<tag k="place" v="farm" />
		<tag k="ssr:stedsnr" v="719052" />
	</node>
	<node lat="59.405797218688846" lon="11.58660277982087" id="-16107">
		<tag k="name" v="Allergodt" />
		<tag k="place" v="locality" />
		<tag k="ssr:stedsnr" v="719504" />
	</node>
	<node lat="59.4474249999183" lon="11.325697216887505" id="-16111">
		<tag k="name" v="Kontra" />
		<tag k="place" v="farm" />
		<tag k="ssr:stedsnr" v="730195" />
	</node>
	<node lat="59.41907374093742" lon="11.407010236550533" id="-16112">
		<tag k="name" v="Grøtvet" />
		<tag k="place" v="farm" />
		<tag k="ssr:stedsnr" v="730139" />
	</node>
	<node lat="59.4004055590043" lon="11.325450001969962" id="-16113">
		<tag k="name" v="Lindbakk" />
		<tag k="place" v="farm" />
		<tag k="ssr:stedsnr" v="730150" />
	</node>
	<node lat="59.40693943674418" lon="11.402336984625228" id="-16114">
		<tag k="name" v="Filtvet" />
		<tag k="place" v="farm" />
		<tag k="ssr:stedsnr" v="730157" />
	</node>
	<node lat="59.40372390311458" lon="11.458679965549726" id="-16115">
		<tag k="fixme" v="consider place=hamlet" />
		<tag k="name" v="Eng" />
		<tag k="place" v="farm" />
		<tag k="ssr:stedsnr" v="730159" />
	</node>
	<node lat="59.39710640644151" lon="11.431603138150201" id="-16116">
		<tag k="name" v="Deli" />
		<tag k="place" v="farm" />
		<tag k="ssr:stedsnr" v="730161" />
	</node>
	<node lat="59.42492221968676" lon="11.55717223018662" id="-16117">
		<tag k="name" v="Frøne" />
		<tag k="place" v="farm" />
		<tag k="ssr:stedsnr" v="730534" />
	</node>
	<node lat="59.31516111419849" lon="11.379363883520384" id="-16119">
		<tag k="name" v="Erteskogen" />
		<tag k="place" v="locality" />
		<tag k="ssr:stedsnr" v="730952" />
	</node>
	<node lat="59.26171944354976" lon="11.473122217607104" id="-16120">
		<tag k="alt_name" v="Greåkeråsen" />
		<tag k="name" v="Greåker" />
		<tag k="place" v="farm" />
		<tag k="ssr:stedsnr" v="731701" />
	</node>
	<node lat="59.339791706878025" lon="11.466210027209602" id="-16121">
		<tag k="fixme" v="consider place=hamlet" />
		<tag k="name" v="Låby" />
		<tag k="place" v="farm" />
		<tag k="ssr:stedsnr" v="731786" />
	</node>
	<node lat="59.42311944100415" lon="11.468388896080599" id="-16122">
		<tag k="alt_name" v="Grasbråten" />
		<tag k="name" v="Bråten" />
		<tag k="place" v="locality" />
		<tag k="ssr:stedsnr" v="731493" />
	</node>
	<node lat="59.358784898667196" lon="11.393902789174069" id="-16124">
		<tag k="fixme" v="consider place=hamlet" />
		<tag k="name" v="Berger" />
		<tag k="place" v="farm" />
		<tag k="ssr:stedsnr" v="731751" />
	</node>
	<node lat="59.36649456722179" lon="11.277359018937409" id="-16125">
		<tag k="fixme" v="consider place=hamlet" />
		<tag k="name" v="Rud" />
		<tag k="place" v="farm" />
		<tag k="ssr:stedsnr" v="731840" />
	</node>
	<node lat="59.37079675007234" lon="11.382725406885092" id="-16126">
		<tag k="name" v="Danstorp" />
		<tag k="place" v="farm" />
		<tag k="ssr:stedsnr" v="731843" />
	</node>
	<node lat="59.36907279600769" lon="11.40348181130908" id="-16127">
		<tag k="fixme" v="consider place=hamlet" />
		<tag k="name" v="Vestre Vestby" />
		<tag k="place" v="farm" />
		<tag k="ssr:stedsnr" v="731845" />
	</node>
	<node lat="59.40850555491295" lon="11.353638886058262" id="-16130">
		<tag k="name" v="Nes" />
		<tag k="place" v="farm" />
		<tag k="ssr:stedsnr" v="750563" />
	</node>
	<node lat="59.35992432064575" lon="11.275133799030511" id="-16134">
		<tag k="fixme" v="consider place=hamlet" />
		<tag k="name" v="Rudskogen" />
		<tag k="place" v="farm" />
		<tag k="ssr:stedsnr" v="750348" />
	</node>
	<node lat="59.45361666729548" lon="11.336533332433167" id="-16135">
		<tag k="name" v="Kåensdalen" />
		<tag k="place" v="farm" />
		<tag k="ssr:stedsnr" v="750615" />
	</node>
	<node lat="59.33410555352042" lon="11.412538881600547" id="-16136">
		<tag k="name" v="Stensrud-Ødegården" />
		<tag k="place" v="farm" />
		<tag k="ssr:stedsnr" v="750625" />
	</node>
	<node lat="59.33883888618926" lon="11.410794448217056" id="-16140">
		<tag k="name" v="Stensrud" />
		<tag k="place" v="farm" />
		<tag k="ssr:stedsnr" v="750645" />
	</node>
	<node lat="59.30408889113488" lon="11.42487778648861" id="-16142">
		<tag k="name" v="Dammene" />
		<tag k="place" v="farm" />
		<tag k="ssr:stedsnr" v="751637" />
	</node>
	<node lat="59.35990833736516" lon="11.395577779124935" id="-16144">
		<tag k="name" v="Berger" />
		<tag k="place" v="farm" />
		<tag k="ssr:stedsnr" v="751645" />
	</node>
	<node lat="59.33217500176312" lon="11.495486112685048" id="-16145">
		<tag k="name" v="Væle" />
		<tag k="place" v="farm" />
		<tag k="ssr:stedsnr" v="751648" />
	</node>
	<node lat="59.42942499632431" lon="11.512722218501116" id="-16155">
		<tag k="name" v="Korperud" />
		<tag k="place" v="farm" />
		<tag k="ssr:stedsnr" v="779497" />
	</node>
	<node lat="59.406694440664296" lon="11.463175003264837" id="-16157">
		<tag k="name" v="Engslia" />
		<tag k="place" v="farm" />
		<tag k="ssr:stedsnr" v="779591" />
	</node>
	<node lat="59.38951389208563" lon="11.442430550682209" id="-16159">
		<tag k="name" v="Vestli" />
		<tag k="place" v="locality" />
		<tag k="ssr:stedsnr" v="779843" />
	</node>
	<node lat="59.381722217798966" lon="11.467313894472804" id="-16162">
		<tag k="amenity" v="school" />
		<tag k="name" v="Østbygda skole" />
		<tag k="ssr:stedsnr" v="779872" />
	</node>
	<node lat="59.381956978160545" lon="11.460556055674628" id="-16167">
		<tag k="fixme" v="consider place=hamlet" />
		<tag k="name" v="Lillefosser" />
		<tag k="place" v="farm" />
		<tag k="ssr:stedsnr" v="791869" />
	</node>
	<node lat="59.4704249978885" lon="11.35770278198342" id="-16168">
		<tag k="alt_name" v="Ødeård" />
		<tag k="name" v="Øgård" />
		<tag k="place" v="farm" />
		<tag k="ssr:stedsnr" v="791001" />
	</node>
	<node lat="59.40299002593056" lon="11.355933681334946" id="-16169">
		<tag k="fixme" v="consider place=hamlet" />
		<tag k="name" v="Skjørtorp" />
		<tag k="place" v="farm" />
		<tag k="ssr:stedsnr" v="791145" />
	</node>
	<node lat="59.42782499749066" lon="11.30735000624854" id="-16170">
		<tag k="name" v="Veiby" />
		<tag k="place" v="farm" />
		<tag k="ssr:stedsnr" v="791159" />
	</node>
	<node lat="59.45420776190658" lon="11.30368993217204" id="-16171">
		<tag k="fixme" v="consider place=hamlet" />
		<tag k="name" v="Glomsrud" />
		<tag k="place" v="farm" />
		<tag k="ssr:stedsnr" v="791223" />
	</node>
	<node lat="59.45951061028129" lon="11.274445547757205" id="-16172">
		<tag k="fixme" v="consider place=hamlet" />
		<tag k="name" v="Rødsrud" />
		<tag k="place" v="farm" />
		<tag k="ssr:stedsnr" v="791229" />
	</node>
	<node lat="59.462879093352" lon="11.23659729078433" id="-16173">
		<tag k="fixme" v="consider place=hamlet" />
		<tag k="name" v="Røsæk" />
		<tag k="place" v="farm" />
		<tag k="ssr:stedsnr" v="791233" />
	</node>
	<node lat="59.32714999921803" lon="11.302199993037242" id="-16175">
		<tag k="name" v="Ådalen" />
		<tag k="place" v="farm" />
		<tag k="ssr:stedsnr" v="791960" />
	</node>
	<node lat="59.46144999878467" lon="11.513791667818516" id="-16177">
		<tag k="alt_name" v="Bønsætra" />
		<tag k="historic" v="shieling" />
		<tag k="name" v="Bønsetra" />
		<tag k="place" v="isolated_dwelling" />
		<tag k="ssr:stedsnr" v="791581" />
	</node>
	<node lat="59.377280557719985" lon="11.512186115967587" id="-16178">
		<tag k="name" v="Lerkerud" />
		<tag k="place" v="farm" />
		<tag k="ssr:stedsnr" v="791691" />
	</node>
	<node lat="59.37686059328305" lon="11.534949832826586" id="-16179">
		<tag k="fixme" v="consider place=hamlet" />
		<tag k="name" v="Sørdalen" />
		<tag k="place" v="farm" />
		<tag k="ssr:stedsnr" v="791692" />
	</node>
	<node lat="59.34124999559546" lon="11.384249999608658" id="-16180">
		<tag k="name" v="Førisdal" />
		<tag k="place" v="farm" />
		<tag k="ssr:stedsnr" v="792778" />
	</node>
	<node lat="59.39267572500077" lon="11.469891548280062" id="-16183">
		<tag k="fixme" v="multiple name tags, choose one and add the other to alt_name" />
		<tag k="name" v="Finnestad;Gatehaugen" />
		<tag k="place" v="farm" />
		<tag k="ssr:stedsnr" v="792519" />
	</node>
	<node lat="59.342107726940604" lon="11.406409154750717" id="-16184">
		<tag k="fixme" v="consider place=hamlet" />
		<tag k="name" v="Stensrud" />
		<tag k="place" v="farm" />
		<tag k="ssr:stedsnr" v="792776" />
	</node>
	<node lat="59.44315000313747" lon="11.279349995807847" id="-16185">
		<tag k="name" v="Mitten" />
		<tag k="place" v="farm" />
		<tag k="ssr:stedsnr" v="811477" />
	</node>
	<node lat="59.45363611059055" lon="11.342627775781878" id="-16186">
		<tag k="alt_name" v="Nordre Kåen" />
		<tag k="name" v="Kåen" />
		<tag k="old_name" v="Kån" />
		<tag k="place" v="farm" />
		<tag k="ssr:stedsnr" v="811613" />
	</node>
	<node lat="59.41360277840024" lon="11.315069448574365" id="-16187">
		<tag k="name" v="Holtet" />
		<tag k="place" v="farm" />
		<tag k="ssr:stedsnr" v="811528" />
	</node>
	<node lat="59.395215055618465" lon="11.384954306756947" id="-16189">
		<tag k="name" v="Torp" />
		<tag k="place" v="farm" />
		<tag k="ssr:stedsnr" v="811564" />
	</node>
	<node lat="59.401322219119436" lon="11.33360278113905" id="-16190">
		<tag k="name" v="Smedstad" />
		<tag k="place" v="farm" />
		<tag k="ssr:stedsnr" v="811567" />
	</node>
	<node lat="59.408711109518826" lon="11.336038886433919" id="-16191">
		<tag k="name" v="Bjerkenes" />
		<tag k="place" v="farm" />
		<tag k="ssr:stedsnr" v="811574" />
	</node>
	<node lat="59.40950542076308" lon="11.358722967738037" id="-16193">
		<tag k="name" v="Kirkerud" />
		<tag k="place" v="farm" />
		<tag k="ssr:stedsnr" v="811644" />
	</node>
	<node lat="59.33135833397488" lon="11.424408331077622" id="-16194">
		<tag k="name" v="Rød" />
		<tag k="place" v="farm" />
		<tag k="ssr:stedsnr" v="811646" />
	</node>
	<node lat="59.39561111502698" lon="11.537591661275862" id="-16205">
		<tag k="name" v="Moen" />
		<tag k="place" v="locality" />
		<tag k="ssr:stedsnr" v="840762" />
	</node>
	<node lat="59.24867500186421" lon="11.419572222053718" id="-16211">
		<tag k="name" v="Grasholt" />
		<tag k="place" v="farm" />
		<tag k="ssr:stedsnr" v="851560" />
	</node>
	<node lat="59.449475001455575" lon="11.363724998856833" id="-16212">
		<tag k="name" v="Grasbråten" />
		<tag k="place" v="farm" />
		<tag k="ssr:stedsnr" v="852196" />
	</node>
	<node lat="59.45234999680457" lon="11.328536109134717" id="-16213">
		<tag k="alt_name" v="Ringsby (Gaddehytta)" />
		<tag k="name" v="Ringsby" />
		<tag k="place" v="farm" />
		<tag k="ssr:stedsnr" v="852199" />
	</node>
	<node lat="59.44624121823646" lon="11.334628037624947" id="-16214">
		<tag k="alt_name" v="Koppen" />
		<tag k="fixme" v="consider place=hamlet" />
		<tag k="name" v="Vestre Koppen" />
		<tag k="place" v="farm" />
		<tag k="ssr:stedsnr" v="852201" />
	</node>
	<node lat="59.41517500288767" lon="11.271055560377945" id="-16215">
		<tag k="name" v="Maridalen" />
		<tag k="place" v="farm" />
		<tag k="ssr:stedsnr" v="852132" />
	</node>
	<node lat="59.40785278076962" lon="11.278574991679328" id="-16216">
		<tag k="name" v="Stubberud" />
		<tag k="place" v="farm" />
		<tag k="ssr:stedsnr" v="852151" />
	</node>
	<node lat="59.40405278194958" lon="11.329177784603049" id="-16217">
		<tag k="name" v="Slottet" />
		<tag k="place" v="farm" />
		<tag k="ssr:stedsnr" v="852152" />
	</node>
	<node lat="59.43661299493387" lon="11.226867612987519" id="-16218">
		<tag k="fixme" v="consider place=hamlet" />
		<tag k="name" v="Brekke" />
		<tag k="place" v="farm" />
		<tag k="ssr:stedsnr" v="852158" />
	</node>
	<node lat="59.45807500316784" lon="11.369225003244873" id="-16219">
		<tag k="name" v="Berg" />
		<tag k="place" v="farm" />
		<tag k="ssr:stedsnr" v="852242" />
	</node>
	<node lat="59.38740276653196" lon="11.26653910270213" id="-16223">
		<tag k="fixme" v="consider place=hamlet" />
		<tag k="name" v="Spydslag" />
		<tag k="place" v="farm" />
		<tag k="ssr:stedsnr" v="852794" />
	</node>
	<node lat="59.38749580077516" lon="11.310382304283706" id="-16224">
		<tag k="fixme" v="consider place=hamlet" />
		<tag k="name" v="Kaldaker" />
		<tag k="place" v="farm" />
		<tag k="ssr:stedsnr" v="852796" />
	</node>
	<node lat="59.37966616509184" lon="11.293177019518883" id="-16226">
		<tag k="fixme" v="consider place=hamlet" />
		<tag k="name" v="Gautestad" />
		<tag k="place" v="farm" />
		<tag k="ssr:stedsnr" v="852848" />
	</node>
	<node lat="59.37722499599856" lon="11.270155547876145" id="-16227">
		<tag k="name" v="Nygård" />
		<tag k="place" v="farm" />
		<tag k="ssr:stedsnr" v="852849" />
	</node>
	<node lat="59.378296955070304" lon="11.43509471667541" id="-16228">
		<tag k="fixme" v="consider place=hamlet" />
		<tag k="name" v="Halem" />
		<tag k="place" v="farm" />
		<tag k="ssr:stedsnr" v="852854" />
	</node>
	<node lat="59.313949998052074" lon="11.336488896299908" id="-16230">
		<tag k="name" v="Lundseter" />
		<tag k="place" v="farm" />
		<tag k="ssr:stedsnr" v="852934" />
	</node>
	<node lat="59.30325000407608" lon="11.448775009005079" id="-16231">
		<tag k="name" v="Haugland" />
		<tag k="place" v="farm" />
		<tag k="ssr:stedsnr" v="852999" />
	</node>
	<node lat="59.34895890098688" lon="11.34344693506789" id="-16234">
		<tag k="fixme" v="multiple name tags, choose one and add the other to alt_name" />
		<tag k="name" v="Holvin;Brattvet" />
		<tag k="place" v="farm" />
		<tag k="ssr:stedsnr" v="853743" />
	</node>
	<node lat="59.366127780447016" lon="11.528119442011613" id="-16238">
		<tag k="alt_name" v="Stegentangen" />
		<tag k="name" v="Steketangen" />
		<tag k="place" v="farm" />
		<tag k="ssr:stedsnr" v="853693" />
	</node>
	<node lat="59.333999998901476" lon="11.432299995743318" id="-16239">
		<tag k="name" v="Åsen" />
		<tag k="place" v="farm" />
		<tag k="ssr:stedsnr" v="853782" />
	</node>
	<node lat="59.339690458858875" lon="11.36031960656137" id="-16240">
		<tag k="fixme" v="consider place=hamlet" />
		<tag k="name" v="Lund" />
		<tag k="place" v="farm" />
		<tag k="ssr:stedsnr" v="853787" />
	</node>
	<node lat="59.33874999691383" lon="11.307275003373029" id="-16241">
		<tag k="name" v="Svarvermoen" />
		<tag k="place" v="farm" />
		<tag k="ssr:stedsnr" v="853790" />
	</node>
	<node lat="59.40445000116975" lon="11.356830556621425" id="-16242">
		<tag k="name" v="Skjørtorp" />
		<tag k="place" v="farm" />
		<tag k="ssr:stedsnr" v="872600" />
	</node>
	<node lat="59.383013889869204" lon="11.309694451142573" id="-16243">
		<tag k="name" v="Flateby" />
		<tag k="place" v="farm" />
		<tag k="ssr:stedsnr" v="872604" />
	</node>
	<node lat="59.44301666773927" lon="11.250938893701504" id="-16245">
		<tag k="name" v="Krikehaugen" />
		<tag k="place" v="farm" />
		<tag k="ssr:stedsnr" v="872531" />
	</node>
	<node lat="59.458216665485224" lon="11.250944443713347" id="-16246">
		<tag k="name" v="Klangen" />
		<tag k="place" v="farm" />
		<tag k="ssr:stedsnr" v="872547" />
	</node>
	<node lat="59.45368332952557" lon="11.25784443611059" id="-16247">
		<tag k="name" v="Åsland" />
		<tag k="place" v="farm" />
		<tag k="ssr:stedsnr" v="872548" />
	</node>
	<node lat="59.42607777372303" lon="11.289980554116523" id="-16249">
		<tag k="name" v="Rud" />
		<tag k="place" v="farm" />
		<tag k="ssr:stedsnr" v="872628" />
	</node>
	<node lat="59.42962777941118" lon="11.299816667149233" id="-16250">
		<tag k="name" v="Holstad" />
		<tag k="place" v="farm" />
		<tag k="ssr:stedsnr" v="872630" />
	</node>
	<node lat="59.462122220266096" lon="11.381586108186346" id="-16252">
		<tag k="name" v="Stalsberg" />
		<tag k="place" v="farm" />
		<tag k="ssr:stedsnr" v="872648" />
	</node>
	<node lat="59.4448551915652" lon="11.300021543764709" id="-16253">
		<tag k="name" v="Kraugerud" />
		<tag k="place" v="hamlet" />
		<tag k="ssr:stedsnr" v="872653" />
	</node>
	<node lat="59.30219444409282" lon="11.421758340131305" id="-16254">
		<tag k="name" v="Gjøkelia" />
		<tag k="place" v="isolated_dwelling" />
		<tag k="ssr:stedsnr" v="872654" />
	</node>
	<node lat="59.43963611116221" lon="11.346116671543234" id="-16255">
		<tag k="name" v="Lienshytta" />
		<tag k="place" v="isolated_dwelling" />
		<tag k="ssr:stedsnr" v="872669" />
	</node>
	<node lat="59.41020318427603" lon="11.199255636494762" id="-16256">
		<tag k="fixme" v="consider place=hamlet" />
		<tag k="name" v="Sandtangen" />
		<tag k="place" v="farm" />
		<tag k="ssr:stedsnr" v="872682" />
	</node>
	<node lat="59.41023889178758" lon="11.202502779300719" id="-16258">
		<tag k="historic" v="shieling" />
		<tag k="name" v="Åsheim" />
		<tag k="place" v="isolated_dwelling" />
		<tag k="ssr:stedsnr" v="872727" />
	</node>
	<node lat="59.27257222662524" lon="11.389977773828711" id="-16260">
		<tag k="name" v="Kuledalen" />
		<tag k="place" v="farm" />
		<tag k="ssr:stedsnr" v="873165" />
	</node>
	<node lat="59.364930553913254" lon="11.292600007583324" id="-16264">
		<tag k="name" v="Kjenner" />
		<tag k="place" v="farm" />
		<tag k="ssr:stedsnr" v="961730" />
	</node>
	<node lat="59.46528888939248" lon="11.36553610689343" id="-16265">
		<tag k="name" v="Flatberg" />
		<tag k="place" v="farm" />
		<tag k="ssr:stedsnr" v="961027" />
	</node>
	<node lat="59.42644166334744" lon="11.511336115780853" id="-16270">
		<tag k="name" v="Bjørkebråten" />
		<tag k="place" v="farm" />
		<tag k="ssr:stedsnr" v="961554" />
	</node>
	<node lat="59.424519633661795" lon="11.404586965001718" id="-16281">
		<tag k="fixme" v="consider place=hamlet" />
		<tag k="name" v="Berby" />
		<tag k="place" v="farm" />
		<tag k="ssr:stedsnr" v="976161" />
	</node>
	<node lat="59.43913856051838" lon="11.420937370873267" id="-16282">
		<tag k="fixme" v="consider place=hamlet" />
		<tag k="name" v="Djupedal" />
		<tag k="place" v="farm" />
		<tag k="ssr:stedsnr" v="976171" />
	</node>
	<node lat="59.40728846854856" lon="11.40128137720619" id="-16283">
		<tag k="fixme" v="consider place=hamlet" />
		<tag k="name" v="Filtvedt" />
		<tag k="place" v="farm" />
		<tag k="ssr:stedsnr" v="976173" />
	</node>
	<node lat="59.41825585166489" lon="11.205162720060574" id="-16284">
		<tag k="fixme" v="consider place=hamlet" />
		<tag k="name" v="Finskot" />
		<tag k="place" v="farm" />
		<tag k="ssr:stedsnr" v="976174" />
	</node>
	<node lat="59.436547059463535" lon="11.24307215526774" id="-16285">
		<tag k="fixme" v="consider place=hamlet" />
		<tag k="name" v="Gapestad og Bergs vannfall" />
		<tag k="place" v="farm" />
		<tag k="ssr:stedsnr" v="976175" />
	</node>
	<node lat="59.41946760677927" lon="11.406248574461635" id="-16287">
		<tag k="name" v="Grøtvedt" />
		<tag k="place" v="hamlet" />
		<tag k="ssr:stedsnr" v="976180" />
	</node>
	<node lat="59.420115720530966" lon="11.405803244881197" id="-16288">
		<tag k="fixme" v="consider place=hamlet" />
		<tag k="name" v="Vestre Grøtvedt" />
		<tag k="place" v="farm" />
		<tag k="ssr:stedsnr" v="976182" />
	</node>
	<node lat="59.42010400866313" lon="11.408861304934149" id="-16289">
		<tag k="fixme" v="consider place=hamlet" />
		<tag k="name" v="Østre Grøtvedt" />
		<tag k="place" v="farm" />
		<tag k="ssr:stedsnr" v="976183" />
	</node>
	<node lat="59.37405345890478" lon="11.426990949422606" id="-16290">
		<tag k="name" v="Harlum" />
		<tag k="place" v="hamlet" />
		<tag k="ssr:stedsnr" v="976185" />
	</node>
	<node lat="59.317308182264526" lon="11.450338261595657" id="-16311">
		<tag k="fixme" v="consider place=hamlet" />
		<tag k="name" v="Heller" />
		<tag k="place" v="farm" />
		<tag k="ssr:stedsnr" v="1077847" />
	</node>
	<node lat="59.327140115427994" lon="11.39281996825804" id="-16312">
		<tag k="name" v="Erte" />
		<tag k="place" v="hamlet" />
		<tag k="ssr:stedsnr" v="1077848" />
	</node>
	<node lat="59.436114353982425" lon="11.286306935622513" id="-16313">
		<tag k="name" v="Buer" />
		<tag k="place" v="hamlet" />
		<tag k="ssr:stedsnr" v="1077850" />
	</node>
	<node lat="59.43353426915445" lon="11.313762816096059" id="-16314">
		<tag k="name" v="Holøs" />
		<tag k="place" v="hamlet" />
		<tag k="ssr:stedsnr" v="1077851" />
	</node>
	<node lat="59.4412689166844" lon="11.314910973574918" id="-16315">
		<tag k="fixme" v="consider place=hamlet" />
		<tag k="name" v="Hauger" />
		<tag k="place" v="farm" />
		<tag k="ssr:stedsnr" v="1077853" />
	</node>
	<node lat="59.464730651112596" lon="11.34305756376919" id="-16316">
		<tag k="fixme" v="consider place=hamlet" />
		<tag k="name" v="Ringsby" />
		<tag k="place" v="farm" />
		<tag k="ssr:stedsnr" v="1077854" />
	</node>
	<node lat="59.40666395068061" lon="11.20310367806513" id="-16317">
		<tag k="fixme" v="consider place=hamlet" />
		<tag k="name" v="Morthaugen" />
		<tag k="place" v="farm" />
		<tag k="ssr:stedsnr" v="1077858" />
	</node>
</osm>
