<?xml version="1.0" encoding="UTF-8"?>
<<<<<<< HEAD
<osm version="0.6" generator="osmapis">
	<node lat="59.249807020085896" lon="11.398587560085994" id="-12096">
=======
<osm generator="osmapis" version="0.6">
	<node id="-242760" lat="59.4350164235" lon="11.5907171933">
		<tag k="fixme" v="consider boundary=protected_area and relevant protect_class if not nature reserve" />
		<tag k="leisure" v="nature_reserve" />
		<tag k="name" v="Fjella naturreservat" />
		<tag k="ssr:stedsnr" v="989149" />
	</node>
	<node id="-242744" lat="59.3294900798" lon="11.5270645155">
>>>>>>> e1d4bc35ff8a6074a6f2e91616a996b547c36f15
		<tag k="fixme" v="consider boundary=protected_area and relevant protect_class if not nature reserve" />
		<tag k="leisure" v="nature_reserve" />
		<tag k="name" v="Brattåsen naturreservat" />
		<tag k="ssr:stedsnr" v="983526" />
	</node>
<<<<<<< HEAD
	<node lat="59.34975833282845" lon="11.263947227958438" id="-12521">
=======
	<node id="-242441" lat="59.3497583328" lon="11.263947228">
>>>>>>> e1d4bc35ff8a6074a6f2e91616a996b547c36f15
		<tag k="fixme" v="specify shooting=range, clay_pigeon etc" />
		<tag k="leisure" v="pitch" />
		<tag k="name" v="Kvernhusplassen" />
		<tag k="sport" v="shooting" />
		<tag k="ssr:stedsnr" v="568334" />
	</node>
<<<<<<< HEAD
	<node lat="59.32949007982984" lon="11.527064515522778" id="-12839">
		<tag k="fixme" v="consider boundary=protected_area and relevant protect_class if not nature reserve" />
		<tag k="leisure" v="nature_reserve" />
		<tag k="name" v="Brattåsen naturreservat" />
		<tag k="ssr:stedsnr" v="983526" />
	</node>
	<node lat="59.43501642345974" lon="11.59071719333075" id="-12841">
		<tag k="fixme" v="consider boundary=protected_area and relevant protect_class if not nature reserve" />
		<tag k="leisure" v="nature_reserve" />
		<tag k="name" v="Fjella naturreservat" />
		<tag k="ssr:stedsnr" v="989149" />
	</node>
	<node lat="59.41469160267156" lon="11.205625770683147" id="-12858">
		<tag k="fixme" v="consider boundary=protected_area and relevant protect_class if not nature reserve" />
		<tag k="leisure" v="nature_reserve" />
		<tag k="name" v="Finnskutt og Haugen naturreservat" />
		<tag k="ssr:stedsnr" v="1077484" />
=======
	<node id="-242743" lat="59.2498070201" lon="11.3985875601">
		<tag k="fixme" v="consider boundary=protected_area and relevant protect_class if not nature reserve" />
		<tag k="leisure" v="nature_reserve" />
		<tag k="name" v="Stiksåsen naturreservat" />
		<tag k="ssr:stedsnr" v="982695" />
>>>>>>> e1d4bc35ff8a6074a6f2e91616a996b547c36f15
	</node>
</osm>
