<?xml version="1.0" encoding="UTF-8"?>
<<<<<<< HEAD
<osm version="0.6" generator="osmapis">
	<node lat="59.38325555554098" lon="9.874694440464529" id="-25192">
		<tag k="name" v="Blokkvann" />
		<tag k="natural" v="water" />
		<tag k="ssr:stedsnr" v="2316" />
	</node>
	<node lat="59.32538055234402" lon="9.847761105015106" id="-25193">
		<tag k="name" v="Lofstadelva" />
		<tag k="ssr:stedsnr" v="2347" />
		<tag k="waterway" v="stream" />
	</node>
	<node lat="59.37001111485699" lon="10.03857777977916" id="-25195">
		<tag k="alt_name" v="Barlindtjern" />
		<tag k="name" v="Barlindtjernet" />
		<tag k="natural" v="water" />
		<tag k="ssr:stedsnr" v="2206" />
	</node>
	<node lat="59.29533611440789" lon="9.81815278608315" id="-25199">
		<tag k="name" v="Bjortjønn" />
		<tag k="natural" v="water" />
		<tag k="ssr:stedsnr" v="2401" />
	</node>
	<node lat="59.42678610678895" lon="9.803180561432633" id="-25203">
		<tag k="name" v="Brånatjern" />
		<tag k="natural" v="water" />
		<tag k="ssr:stedsnr" v="2532" />
	</node>
	<node lat="59.255330553786905" lon="9.96339999207379" id="-25207">
		<tag k="name" v="Hellenesbekken" />
		<tag k="ssr:stedsnr" v="26611" />
		<tag k="waterway" v="stream" />
	</node>
	<node lat="59.33331110926602" lon="9.951505547399393" id="-25209">
		<tag k="name" v="Setervann" />
		<tag k="natural" v="water" />
		<tag k="ssr:stedsnr" v="26587" />
	</node>
	<node lat="59.31663055561003" lon="9.966805553062573" id="-25210">
		<tag k="name" v="Solbergelva" />
		<tag k="ssr:stedsnr" v="26590" />
		<tag k="waterway" v="stream" />
	</node>
	<node lat="59.182672222910234" lon="9.904205560771913" id="-25219">
		<tag k="name" v="Ramdalstjønn" />
		<tag k="natural" v="water" />
		<tag k="ssr:stedsnr" v="27012" />
	</node>
	<node lat="59.30019444260453" lon="9.842394438183065" id="-25236">
		<tag k="name" v="Askedalselva" />
		<tag k="ssr:stedsnr" v="27134" />
		<tag k="waterway" v="stream" />
	</node>
	<node lat="59.37303889166922" lon="9.840586119923419" id="-25241">
		<tag k="name" v="Brånatjønn" />
		<tag k="natural" v="water" />
		<tag k="ssr:stedsnr" v="27171" />
	</node>
	<node lat="59.45502221810524" lon="9.878725003561536" id="-25253">
		<tag k="name" v="Tømmerbekken" />
		<tag k="ssr:stedsnr" v="27225" />
		<tag k="waterway" v="stream" />
	</node>
	<node lat="59.359311112260876" lon="10.000416662302763" id="-25269">
		<tag k="name" v="Suklekil" />
		<tag k="natural" v="water" />
		<tag k="ssr:stedsnr" v="27576" />
	</node>
	<node lat="59.149724995862144" lon="10.000699995294676" id="-25282">
		<tag k="name" v="Bikkjetjønna" />
		<tag k="natural" v="water" />
		<tag k="ssr:stedsnr" v="27903" />
	</node>
	<node lat="59.10353055299642" lon="9.957927780375565" id="-25286">
		<tag k="name" v="Gardskjær" />
		<tag k="place" v="islet" />
		<tag k="ssr:stedsnr" v="27915" />
	</node>
	<node lat="59.124252780019035" lon="9.981883341901035" id="-25290">
		<tag k="name" v="Røysekil" />
		<tag k="natural" v="bay" />
		<tag k="ssr:stedsnr" v="27976" />
	</node>
	<node lat="59.051913366077784" lon="10.018487484321527" id="-25294">
		<tag k="name" v="Farriselva" />
		<tag k="ssr:stedsnr" v="237071" />
		<tag k="waterway" v="river" />
	</node>
	<node lat="59.181986109316426" lon="9.980200003392234" id="-25307">
		<tag k="name" v="Gylna" />
		<tag k="ssr:stedsnr" v="62187" />
		<tag k="waterway" v="river" />
	</node>
	<node lat="58.996370974914086" lon="9.948473785660127" id="-25318">
		<tag k="name" v="Asketjørnet" />
		<tag k="natural" v="water" />
		<tag k="old_name" v="Asketjernet" />
		<tag k="ssr:stedsnr" v="62587" />
	</node>
	<node lat="59.03733610892434" lon="9.950966673059117" id="-25324">
		<tag k="name" v="Steinsholttjønna" />
		<tag k="natural" v="water" />
		<tag k="old_name" v="Steinsholttjernet;Steinsholttjørna" />
		<tag k="ssr:stedsnr" v="62474" />
	</node>
	<node lat="59.30441944118834" lon="9.799788891844226" id="-25337">
		<tag k="alt_name" v="Vindfjellbekken, østre;Østre Vindfjellbekk" />
		<tag k="name" v="Østre Vindfjellbekken" />
		<tag k="ssr:stedsnr" v="63424" />
		<tag k="waterway" v="stream" />
	</node>
	<node lat="59.00876608086769" lon="9.870501025214464" id="-25356">
		<tag k="alt_name" v="Torpevatnet" />
		<tag k="name" v="Torpevannet" />
		<tag k="natural" v="water" />
		<tag k="ssr:stedsnr" v="244262" />
		<tag k="water" v="lake" />
	</node>
	<node lat="59.047561110591516" lon="9.973036104950443" id="-25358">
		<tag k="alt_name" v="Ulfsbakktjønn" />
		<tag k="name" v="Ulfsbakktjern" />
		<tag k="natural" v="water" />
		<tag k="ssr:stedsnr" v="244199" />
	</node>
	<node lat="59.062308335297594" lon="10.008838894486331" id="-25368">
		<tag k="alt_name" v="Farrisvatnet" />
		<tag k="name" v="Farris" />
		<tag k="natural" v="water" />
		<tag k="ssr:stedsnr" v="244615" />
		<tag k="water" v="lake" />
	</node>
	<node lat="59.32260555817754" lon="9.857286115773771" id="-25380">
		<tag k="alt_name" v="Tveittjernet" />
		<tag k="name" v="Tveittjern" />
		<tag k="natural" v="water" />
		<tag k="ssr:stedsnr" v="245311" />
	</node>
	<node lat="59.3506638849969" lon="9.882422228650812" id="-25386">
		<tag k="name" v="Garilla" />
		<tag k="ssr:stedsnr" v="245356" />
		<tag k="waterway" v="river" />
	</node>
	<node lat="59.284145487182094" lon="9.810553378939174" id="-25389">
		<tag k="alt_name" v="Hauksjø" />
		<tag k="name" v="Haukesjø" />
		<tag k="natural" v="water" />
		<tag k="ssr:stedsnr" v="245469" />
	</node>
	<node lat="59.42478333380017" lon="9.807950007464969" id="-25400">
		<tag k="alt_name" v="Sætertjern" />
		<tag k="name" v="Setertjern" />
		<tag k="natural" v="water" />
		<tag k="ssr:stedsnr" v="245535" />
	</node>
	<node lat="59.31683611409156" lon="9.89348888461666" id="-25413">
		<tag k="name" v="Skauøya" />
		<tag k="natural" v="cape" />
		<tag k="ssr:stedsnr" v="88073" />
	</node>
	<node lat="59.31423056007107" lon="9.892588884536513" id="-25420">
		<tag k="name" v="Øgardshølen" />
		<tag k="place" v="locality" />
		<tag k="ssr:stedsnr" v="88081" />
	</node>
	<node lat="59.035438068857005" lon="9.874154817326378" id="-25423">
		<tag k="name" v="Tvedalbekken" />
		<tag k="ssr:stedsnr" v="88088" />
		<tag k="waterway" v="stream" />
	</node>
	<node lat="59.369533335741075" lon="9.824602782129855" id="-25435">
		<tag k="name" v="Kolsoset" />
		<tag k="natural" v="bay" />
		<tag k="ssr:stedsnr" v="88139" />
	</node>
	<node lat="59.049005551627516" lon="9.924911105063222" id="-25436">
		<tag k="name" v="Lundsbukta" />
		<tag k="natural" v="bay" />
		<tag k="ssr:stedsnr" v="88143" />
	</node>
	<node lat="59.40848055473143" lon="9.828266666503128" id="-25439">
		<tag k="name" v="Bikkjevann" />
		<tag k="natural" v="water" />
		<tag k="ssr:stedsnr" v="88153" />
	</node>
	<node lat="59.34578055340255" lon="9.85551110502569" id="-25443">
		<tag k="name" v="Trollfoss" />
		<tag k="natural" v="waterfall" />
		<tag k="ssr:stedsnr" v="88176" />
	</node>
	<node lat="59.14815556009811" lon="9.90728888449149" id="-25446">
		<tag k="name" v="Håmannsøya" />
		<tag k="place" v="islet" />
		<tag k="ssr:stedsnr" v="88184" />
	</node>
	<node lat="59.406875001394674" lon="9.905105557053282" id="-25448">
		<tag k="alt_name" v="Melåsbekken" />
		<tag k="name" v="Mjølåselva" />
		<tag k="ssr:stedsnr" v="88201" />
		<tag k="waterway" v="river" />
	</node>
	<node lat="59.34640833754122" lon="10.001527775312027" id="-25463">
		<tag k="name" v="Saulaugtjern" />
		<tag k="natural" v="water" />
		<tag k="ssr:stedsnr" v="88507" />
	</node>
	<node lat="59.33082580797451" lon="9.935190033144927" id="-25517">
		<tag k="name" v="Løkmyrdam" />
		<tag k="natural" v="water" />
		<tag k="ssr:stedsnr" v="147619" />
	</node>
	<node lat="59.13491944644814" lon="9.907197214987876" id="-25530">
		<tag k="name" v="Holmøya" />
		<tag k="place" v="islet" />
		<tag k="ssr:stedsnr" v="148011" />
	</node>
	<node lat="59.153616663575214" lon="9.931011109539575" id="-25531">
		<tag k="name" v="Svartebekk" />
		<tag k="ssr:stedsnr" v="148021" />
		<tag k="waterway" v="stream" />
	</node>
	<node lat="59.13217499716951" lon="9.929497216178493" id="-25534">
		<tag k="name" v="Kråkesundet" />
		<tag k="natural" v="strait" />
		<tag k="ssr:stedsnr" v="148024" />
	</node>
	<node lat="59.38088889232803" lon="9.827330557320435" id="-25546">
		<tag k="name" v="Bråkolltjern" />
		<tag k="natural" v="water" />
		<tag k="ssr:stedsnr" v="148258" />
	</node>
	<node lat="59.412655552991374" lon="9.893630555279296" id="-25549">
		<tag k="name" v="Vergedalselva" />
		<tag k="ssr:stedsnr" v="148266" />
		<tag k="waterway" v="river" />
	</node>
	<node lat="59.413144446881134" lon="9.864150001951014" id="-25551">
		<tag k="name" v="Sandbekk" />
		<tag k="ssr:stedsnr" v="148268" />
		<tag k="waterway" v="stream" />
	</node>
	<node lat="59.04945832895194" lon="10.199619452694707" id="-25588">
		<tag k="name" v="Skisakerbekken" />
		<tag k="ssr:stedsnr" v="148667" />
		<tag k="waterway" v="stream" />
	</node>
	<node lat="59.181411113039616" lon="10.13061667094869" id="-25592">
		<tag k="name" v="Reppesgårdtangen" />
		<tag k="natural" v="cape" />
		<tag k="ssr:stedsnr" v="148812" />
	</node>
	<node lat="59.234657684916534" lon="9.911077353033908" id="-25613">
		<tag k="alt_name" v="Mangerødtjern;Mangelrødtjønn" />
		<tag k="name" v="Mangerødtjørna" />
		<tag k="natural" v="water" />
		<tag k="ssr:stedsnr" v="183643" />
	</node>
	<node lat="59.41260833130425" lon="10.006530561085995" id="-25624">
		<tag k="name" v="Rosoelva" />
		<tag k="ssr:stedsnr" v="184124" />
		<tag k="waterway" v="stream" />
	</node>
	<node lat="59.28140555636056" lon="9.973788889866603" id="-25632">
		<tag k="name" v="Langevannet" />
		<tag k="natural" v="water" />
		<tag k="ssr:stedsnr" v="185842" />
	</node>
	<node lat="59.330897225070686" lon="9.97093889674407" id="-25647">
		<tag k="name" v="Djupdalsbekken" />
		<tag k="ssr:stedsnr" v="208578" />
		<tag k="waterway" v="stream" />
	</node>
	<node lat="59.07271362965065" lon="9.964330941041197" id="-25663">
		<tag k="name" v="Klovatjønn" />
		<tag k="natural" v="water" />
		<tag k="ssr:stedsnr" v="209078" />
	</node>
	<node lat="59.100350002097066" lon="9.911897224254146" id="-25675">
		<tag k="name" v="Tverrbekken" />
		<tag k="ssr:stedsnr" v="209227" />
		<tag k="waterway" v="stream" />
	</node>
	<node lat="59.02005278015114" lon="10.188380563594729" id="-25721">
		<tag k="name" v="Fokksundtjønna" />
		<tag k="natural" v="water" />
		<tag k="ssr:stedsnr" v="209934" />
	</node>
	<node lat="59.09419167011073" lon="9.85953055510454" id="-25727">
		<tag k="name" v="Skjeggtjern" />
		<tag k="natural" v="water" />
		<tag k="ssr:stedsnr" v="210241" />
	</node>
	<node lat="59.31706667033097" lon="9.823488894526745" id="-25773">
		<tag k="name" v="Lofstadhestetjern" />
		<tag k="natural" v="water" />
		<tag k="ssr:stedsnr" v="270062" />
	</node>
	<node lat="59.059644442675705" lon="9.902177769453512" id="-25782">
		<tag k="name" v="Grinibukta" />
=======
<osm generator="osmapis" version="0.6">
	<node id="-415742" lat="59.06631667" lon="10.127133336">
		<tag k="name" v="Vittersetjønna" />
		<tag k="natural" v="water" />
		<tag k="old_name" v="Vittersø-tjønna" />
		<tag k="ssr:stedsnr" v="487138" />
	</node>
	<node id="-417782" lat="59.2128567448" lon="9.90616185493">
		<tag k="alt_name" v="Surte, store" />
		<tag k="name" v="Store Surte" />
		<tag k="natural" v="water" />
		<tag k="ssr:stedsnr" v="183749" />
	</node>
	<node id="-417780" lat="59.2346576849" lon="9.91107735303">
		<tag k="alt_name" v="Mangerødtjern;Mangelrødtjønn" />
		<tag k="name" v="Mangerødtjørna" />
		<tag k="natural" v="water" />
		<tag k="ssr:stedsnr" v="183643" />
	</node>
	<node id="-415716" lat="59.3494249979" lon="9.85511111477">
		<tag k="alt_name" v="Dalelva" />
		<tag k="name" v="Daleelva" />
		<tag k="ssr:stedsnr" v="670372" />
		<tag k="waterway" v="river" />
	</node>
	<node id="-415713" lat="59.3311472195" lon="9.81507777889">
		<tag k="fixme" v="multiple name tags, choose one and add the other to alt_name" />
		<tag k="name" v="Heklingkollvann;Heklingkollvannet" />
		<tag k="natural" v="water" />
		<tag k="ssr:stedsnr" v="670344" />
	</node>
	<node id="-417760" lat="59.0936583322" lon="10.0026833317">
		<tag k="name" v="Onoøya" />
		<tag k="place" v="islet" />
		<tag k="ssr:stedsnr" v="183090" />
	</node>
	<node id="-415708" lat="59.2039861133" lon="9.8866388877">
		<tag k="alt_name" v="Øksenholttjønna" />
		<tag k="name" v="Øksenholttjørna" />
		<tag k="natural" v="water" />
		<tag k="ssr:stedsnr" v="669689" />
	</node>
	<node id="-415701" lat="59.4534055538" lon="9.90578611632">
		<tag k="name" v="Trytetjern" />
		<tag k="natural" v="water" />
		<tag k="ssr:stedsnr" v="669534" />
	</node>
	<node id="-417102" lat="59.4267861068" lon="9.80318056143">
		<tag k="name" v="Brånatjern" />
		<tag k="natural" v="water" />
		<tag k="ssr:stedsnr" v="2532" />
	</node>
	<node id="-415690" lat="59.0905666659" lon="9.88516110729">
		<tag k="alt_name" v="Solumtjønn" />
		<tag k="name" v="Solumtjerna" />
		<tag k="natural" v="water" />
		<tag k="old_name" v="Solumtjernet" />
		<tag k="ssr:stedsnr" v="669374" />
	</node>
	<node id="-417735" lat="59.1105833334" lon="9.96424722256">
		<tag k="name" v="Klinkerøya" />
		<tag k="place" v="islet" />
		<tag k="ssr:stedsnr" v="148924" />
	</node>
	<node id="-415680" lat="59.1610111081" lon="10.0546388857">
		<tag k="name" v="Åsrumvannet" />
		<tag k="natural" v="water" />
		<tag k="ssr:stedsnr" v="669202" />
		<tag k="water" v="lake" />
	</node>
	<node id="-415671" lat="59.427886112" lon="10.0441611075">
		<tag k="name" v="Veavannet" />
		<tag k="natural" v="water" />
		<tag k="ssr:stedsnr" v="669141" />
	</node>
	<node id="-417717" lat="59.3414472249" lon="9.99197221592">
		<tag k="name" v="Seterbekken" />
		<tag k="ssr:stedsnr" v="148589" />
		<tag k="waterway" v="stream" />
	</node>
	<node id="-415667" lat="59.080461107" lon="10.1801277836">
		<tag k="alt_name" v="Istre-elva" />
		<tag k="name" v="Istreelva" />
		<tag k="ssr:stedsnr" v="669117" />
		<tag k="waterway" v="river" />
	</node>
	<node id="-415665" lat="59.0813847733" lon="10.036691395">
		<tag k="alt_name" v="Damtjønn" />
		<tag k="name" v="Damtjerna" />
		<tag k="natural" v="water" />
		<tag k="ssr:stedsnr" v="669106" />
	</node>
	<node id="-415662" lat="59.1327055595" lon="10.121102786">
		<tag k="alt_name" v="Litjønna" />
		<tag k="name" v="Litjerna" />
		<tag k="natural" v="water" />
		<tag k="ssr:stedsnr" v="669026" />
	</node>
	<node id="-415654" lat="59.1968250013" lon="10.1019305517">
		<tag k="name" v="Hagneselva" />
		<tag k="ssr:stedsnr" v="668164" />
		<tag k="waterway" v="river" />
	</node>
	<node id="-415640" lat="59.1978916647" lon="10.089674995">
		<tag k="alt_name" v="Hageneselva" />
		<tag k="name" v="Hagneselva" />
		<tag k="ssr:stedsnr" v="452827" />
		<tag k="waterway" v="stream" />
	</node>
	<node id="-415636" lat="59.1645416654" lon="10.0039500063">
		<tag k="name" v="Kvernbekken" />
		<tag k="ssr:stedsnr" v="452805" />
		<tag k="waterway" v="stream" />
	</node>
	<node id="-417669" lat="59.038513893" lon="9.90510556194">
		<tag k="name" v="Småskjæra" />
		<tag k="place" v="islet" />
		<tag k="ssr:stedsnr" v="148187" />
	</node>
	<node id="-415619" lat="59.3203555544" lon="9.91525833907">
		<tag k="name" v="Springoppen" />
		<tag k="ssr:stedsnr" v="452107" />
		<tag k="waterway" v="stream" />
	</node>
	<node id="-415618" lat="59.3235999972" lon="9.89829722676">
		<tag k="name" v="Vierødfossen" />
		<tag k="natural" v="waterfall" />
		<tag k="ssr:stedsnr" v="452105" />
	</node>
	<node id="-417665" lat="59.0525527778" lon="9.92125556181">
		<tag k="name" v="Danmark" />
		<tag k="place" v="islet" />
		<tag k="ssr:stedsnr" v="148182" />
	</node>
	<node id="-415610" lat="59.2867694434" lon="9.82672777239">
		<tag k="name" v="Stutøyet" />
		<tag k="natural" v="water" />
		<tag k="ssr:stedsnr" v="452021" />
	</node>
	<node id="-415605" lat="59.1211888857" lon="9.91795277219">
		<tag k="name" v="Polletjønna" />
		<tag k="natural" v="water" />
		<tag k="ssr:stedsnr" v="452009" />
	</node>
	<node id="-415604" lat="59.2815805555" lon="9.90993611429">
		<tag k="name" v="Virgeneselva" />
		<tag k="ssr:stedsnr" v="452008" />
		<tag k="waterway" v="river" />
	</node>
	<node id="-417650" lat="59.3028999976" lon="9.89827777666">
		<tag k="name" v="Blæsa" />
		<tag k="natural" v="beach" />
		<tag k="ssr:stedsnr" v="148127" />
	</node>
	<node id="-415597" lat="59.0512000021" lon="10.1030972279">
		<tag k="name" v="Guribekken" />
		<tag k="ssr:stedsnr" v="452209" />
		<tag k="waterway" v="stream" />
	</node>
	<node id="-415595" lat="59.0996188919" lon="9.89332369639">
		<tag k="name" v="Øvre Steinstjønn" />
		<tag k="natural" v="water" />
		<tag k="ssr:stedsnr" v="452206" />
	</node>
	<node id="-418108" lat="59.2947972195" lon="9.99167500672">
		<tag k="name" v="Åsvannet" />
		<tag k="natural" v="water" />
		<tag k="ssr:stedsnr" v="306809" />
	</node>
	<node id="-415587" lat="59.3744888875" lon="9.95180833924">
		<tag k="name" v="Bjørnshølen" />
		<tag k="place" v="locality" />
		<tag k="ssr:stedsnr" v="451740" />
	</node>
	<node id="-415576" lat="59.3903750018" lon="9.78225278559">
		<tag k="name" v="Skottvann" />
		<tag k="natural" v="water" />
		<tag k="ssr:stedsnr" v="427319" />
	</node>
	<node id="-415574" lat="59.0215916638" lon="9.85844444073">
		<tag k="alt_name" v="Bålsrødtjønna" />
		<tag k="name" v="Bålsrødvannet" />
		<tag k="natural" v="water" />
		<tag k="old_name" v="Bålsrødtjernet" />
		<tag k="ssr:stedsnr" v="427302" />
	</node>
	<node id="-417619" lat="59.3281944473" lon="9.99910833413">
		<tag k="name" v="Svartvann" />
		<tag k="natural" v="water" />
		<tag k="ssr:stedsnr" v="147588" />
	</node>
	<node id="-415566" lat="59.2247222199" lon="9.89339722147">
		<tag k="alt_name" v="Steinstjønn" />
		<tag k="name" v="Steintjørnane" />
		<tag k="natural" v="water" />
		<tag k="ssr:stedsnr" v="426727" />
	</node>
	<node id="-415562" lat="59.0259083352" lon="10.1742166725">
		<tag k="alt_name" v="Refsholttjønna" />
		<tag k="name" v="Refsholttjernet" />
		<tag k="natural" v="water" />
		<tag k="ssr:stedsnr" v="426229" />
	</node>
	<node id="-419329" lat="59.1473138868" lon="9.90914165947">
		<tag k="name" v="Kastøya" />
		<tag k="place" v="islet" />
		<tag k="ssr:stedsnr" v="816242" />
	</node>
	<node id="-415555" lat="59.0917138873" lon="10.0437000009">
		<tag k="alt_name" v="Steinsholttjønna" />
		<tag k="name" v="Steinsholttjerna" />
		<tag k="natural" v="water" />
		<tag k="ssr:stedsnr" v="426103" />
	</node>
	<node id="-415546" lat="59.2789194443" lon="9.83891944036">
		<tag k="name" v="Setervann" />
		<tag k="natural" v="water" />
		<tag k="ssr:stedsnr" v="513963" />
		<tag k="water" v="lake" />
	</node>
	<node id="-415545" lat="59.3752694479" lon="9.77408054798">
		<tag k="name" v="Kolselva" />
		<tag k="ssr:stedsnr" v="513960" />
		<tag k="waterway" v="river" />
	</node>
	<node id="-415542" lat="59.4156916637" lon="9.79479722756">
		<tag k="name" v="Skibberdalselva" />
		<tag k="ssr:stedsnr" v="513952" />
		<tag k="waterway" v="river" />
	</node>
	<node id="-415541" lat="59.400169448" lon="9.78187500373">
		<tag k="name" v="Rauberelva" />
		<tag k="ssr:stedsnr" v="513951" />
		<tag k="waterway" v="stream" />
	</node>
	<node id="-419635" lat="59.2841454872" lon="9.81055337894">
		<tag k="alt_name" v="Hauksjø" />
		<tag k="name" v="Haukesjø" />
		<tag k="natural" v="water" />
		<tag k="ssr:stedsnr" v="245469" />
	</node>
	<node id="-419462" lat="59.0554916708" lon="9.90136110282">
		<tag k="name" v="Brentøya" />
		<tag k="place" v="islet" />
		<tag k="ssr:stedsnr" v="876165" />
	</node>
	<node id="-417565" lat="59.1204499996" lon="10.0903888855">
		<tag k="alt_name" v="Steinsvolltjerna" />
		<tag k="name" v="Steinsvoldtjønna" />
		<tag k="natural" v="water" />
		<tag k="ssr:stedsnr" v="123046" />
	</node>
	<node id="-415515" lat="59.4469694412" lon="9.86115833697">
		<tag k="name" v="Haukern" />
		<tag k="ssr:stedsnr" v="513251" />
		<tag k="waterway" v="river" />
	</node>
	<node id="-415514" lat="59.3497305584" lon="9.86984444707">
		<tag k="name" v="Ødegårdstjern" />
		<tag k="natural" v="water" />
		<tag k="ssr:stedsnr" v="513225" />
	</node>
	<node id="-415512" lat="59.3452499956" lon="9.91357221747">
		<tag k="name" v="Vestfossen" />
		<tag k="natural" v="waterfall" />
		<tag k="ssr:stedsnr" v="513210" />
	</node>
	<node id="-417412" lat="59.0354380689" lon="9.87415481733">
		<tag k="name" v="Tvedalbekken" />
		<tag k="ssr:stedsnr" v="88088" />
		<tag k="waterway" v="stream" />
	</node>
	<node id="-417556" lat="59.2074055545" lon="9.93533888883">
		<tag k="alt_name" v="Musevann" />
		<tag k="name" v="Musevannet" />
		<tag k="natural" v="water" />
		<tag k="old_name" v="Musevatnet" />
		<tag k="ssr:stedsnr" v="122685" />
	</node>
	<node id="-415505" lat="59.4234277815" lon="9.90796945217">
		<tag k="name" v="Steinbekken" />
		<tag k="ssr:stedsnr" v="513306" />
		<tag k="waterway" v="stream" />
	</node>
	<node id="-415500" lat="59.3817611133" lon="9.83133888578">
		<tag k="name" v="Bråkolltjern" />
		<tag k="natural" v="water" />
		<tag k="ssr:stedsnr" v="513275" />
	</node>
	<node id="-419457" lat="59.0662694457" lon="9.91021944462">
		<tag k="name" v="Tangen" />
		<tag k="natural" v="cape" />
		<tag k="ssr:stedsnr" v="876156" />
	</node>
	<node id="-415491" lat="59.1212499957" lon="9.9733000013">
		<tag k="name" v="Lysebotangene" />
		<tag k="natural" v="cape" />
		<tag k="ssr:stedsnr" v="512973" />
	</node>
	<node id="-415477" lat="59.1884138916" lon="10.0847388803">
		<tag k="name" v="Fjæreelva" />
		<tag k="ssr:stedsnr" v="512837" />
		<tag k="waterway" v="stream" />
	</node>
	<node id="-414675" lat="59.412655553" lon="9.89363055528">
		<tag k="name" v="Vergedalselva" />
		<tag k="ssr:stedsnr" v="148266" />
		<tag k="waterway" v="river" />
	</node>
	<node id="-415460" lat="59.4548194404" lon="10.002786109">
		<tag k="name" v="Bekkøyra" />
		<tag k="natural" v="shoal" />
		<tag k="place" v="locality" />
		<tag k="ssr:stedsnr" v="512888" />
	</node>
	<node id="-417498" lat="59.3366166707" lon="9.78259999285">
		<tag k="name" v="Mattiaskilen" />
>>>>>>> e1d4bc35ff8a6074a6f2e91616a996b547c36f15
		<tag k="natural" v="bay" />
		<tag k="ssr:stedsnr" v="88952" />
	</node>
<<<<<<< HEAD
	<node lat="59.050672225181316" lon="9.90770834074648" id="-25792">
		<tag k="name" v="Nordre Langekil" />
		<tag k="natural" v="bay" />
		<tag k="ssr:stedsnr" v="270200" />
	</node>
	<node lat="59.09330277950114" lon="9.898924993033939" id="-25795">
		<tag k="name" v="Dritteltjønn" />
		<tag k="natural" v="water" />
		<tag k="ssr:stedsnr" v="270214" />
	</node>
	<node lat="59.110516667836926" lon="9.915661111119007" id="-25797">
		<tag k="name" v="Kirkebukta" />
		<tag k="natural" v="bay" />
		<tag k="ssr:stedsnr" v="270230" />
	</node>
	<node lat="59.10285278212438" lon="9.881274993233273" id="-25798">
		<tag k="name" v="Snøplogen" />
		<tag k="ssr:stedsnr" v="270231" />
		<tag k="waterway" v="stream" />
	</node>
	<node lat="59.086280555511976" lon="9.93475555360283" id="-25808">
		<tag k="name" v="Nordre Malerødtjønn" />
		<tag k="natural" v="water" />
		<tag k="ssr:stedsnr" v="270265" />
	</node>
	<node lat="59.07966944749323" lon="10.12874722689933" id="-25840">
		<tag k="name" v="Vittersøbekken" />
		<tag k="ssr:stedsnr" v="270869" />
		<tag k="waterway" v="stream" />
	</node>
	<node lat="59.032116663278764" lon="9.935388895919354" id="-25871">
		<tag k="name" v="Torsteintjønna" />
		<tag k="natural" v="water" />
		<tag k="ssr:stedsnr" v="242095" />
	</node>
	<node lat="59.27682778147025" lon="9.998180563096794" id="-25877">
		<tag k="name" v="Nordre Heivann" />
		<tag k="natural" v="water" />
		<tag k="ssr:stedsnr" v="451690" />
	</node>
	<node lat="59.457991663781534" lon="10.011491671987352" id="-25879">
		<tag k="name" v="Nordbyøyra" />
		<tag k="natural" v="shoal" />
		<tag k="place" v="locality" />
		<tag k="ssr:stedsnr" v="451887" />
	</node>
	<node lat="59.37448888748407" lon="9.951808339241738" id="-25884">
		<tag k="name" v="Bjørnshølen" />
		<tag k="place" v="locality" />
		<tag k="ssr:stedsnr" v="451740" />
	</node>
	<node lat="59.286769443422195" lon="9.826727772390335" id="-25897">
		<tag k="name" v="Stutøyet" />
		<tag k="natural" v="water" />
		<tag k="ssr:stedsnr" v="452021" />
	</node>
	<node lat="59.28158055552353" lon="9.909936114290934" id="-25905">
		<tag k="name" v="Virgeneselva" />
		<tag k="ssr:stedsnr" v="452008" />
		<tag k="waterway" v="river" />
	</node>
	<node lat="59.12589721954245" lon="10.105591666380317" id="-25908">
		<tag k="alt_name" v="Ulverødtjønna" />
		<tag k="name" v="Ulverødtjerna" />
		<tag k="natural" v="water" />
		<tag k="ssr:stedsnr" v="244046" />
	</node>
	<node lat="59.121188885655414" lon="9.917952772194166" id="-25909">
		<tag k="name" v="Polletjønna" />
		<tag k="natural" v="water" />
		<tag k="ssr:stedsnr" v="452009" />
	</node>
	<node lat="59.216980551398514" lon="9.892538886061361" id="-25914">
		<tag k="name" v="Fluarvann" />
		<tag k="natural" v="water" />
		<tag k="ssr:stedsnr" v="452076" />
	</node>
	<node lat="59.24917758959624" lon="9.912355646029933" id="-25925">
		<tag k="name" v="Odbergdammen" />
		<tag k="natural" v="water" />
		<tag k="ssr:stedsnr" v="452041" />
		<tag k="water" v="lake" />
	</node>
	<node lat="59.04982777559123" lon="9.906180558381545" id="-25928">
		<tag k="name" v="Halleodden" />
		<tag k="natural" v="cape" />
		<tag k="ssr:stedsnr" v="244514" />
	</node>
	<node lat="59.20571111275521" lon="9.920072214370288" id="-25929">
		<tag k="name" v="Tværbekk" />
		<tag k="ssr:stedsnr" v="452084" />
		<tag k="waterway" v="stream" />
	</node>
	<node lat="59.07466666604073" lon="10.142847225052506" id="-25938">
		<tag k="name" v="Istre-bekken" />
		<tag k="ssr:stedsnr" v="452057" />
		<tag k="waterway" v="stream" />
	</node>
	<node lat="59.320355554430584" lon="9.915258339066078" id="-25946">
		<tag k="name" v="Springoppen" />
		<tag k="ssr:stedsnr" v="452107" />
		<tag k="waterway" v="stream" />
	</node>
	<node lat="59.101540083693635" lon="9.878186294847088" id="-25957">
		<tag k="name" v="Solbottjern" />
		<tag k="natural" v="water" />
		<tag k="ssr:stedsnr" v="452148" />
	</node>
	<node lat="59.42956389221694" lon="9.852180560063038" id="-25964">
		<tag k="name" v="Tyskebekk" />
		<tag k="ssr:stedsnr" v="452253" />
		<tag k="waterway" v="stream" />
	</node>
	<node lat="59.08707500197274" lon="10.13107499649546" id="-26002">
		<tag k="name" v="Skåra Lindhjembekken" />
		<tag k="ssr:stedsnr" v="452895" />
		<tag k="waterway" v="stream" />
	</node>
	<node lat="59.08301666374327" lon="10.017208324729493" id="-26003">
		<tag k="name" v="Fossanebukta" />
		<tag k="natural" v="bay" />
		<tag k="ssr:stedsnr" v="452901" />
	</node>
	<node lat="59.19789166470261" lon="10.089674995026387" id="-26005">
		<tag k="alt_name" v="Hageneselva" />
		<tag k="name" v="Hagneselva" />
		<tag k="ssr:stedsnr" v="452827" />
		<tag k="waterway" v="stream" />
	</node>
	<node lat="59.116911112931" lon="9.942816668242013" id="-26014">
		<tag k="name" v="Ødegården" />
		<tag k="natural" v="cape" />
		<tag k="ssr:stedsnr" v="452943" />
	</node>
	<node lat="59.12988610665922" lon="9.936672230637962" id="-26021">
		<tag k="name" v="Ingersøy" />
		<tag k="place" v="island" />
		<tag k="ssr:stedsnr" v="452989" />
	</node>
	<node lat="59.31339166562244" lon="9.808680560185955" id="-26022">
		<tag k="name" v="Hestetjern" />
		<tag k="natural" v="water" />
		<tag k="ssr:stedsnr" v="452992" />
	</node>
	<node lat="59.41898888917992" lon="10.03718333159668" id="-26031">
		<tag k="name" v="Mobekken" />
		<tag k="ssr:stedsnr" v="269526" />
		<tag k="waterway" v="stream" />
	</node>
	<node lat="59.32525277751486" lon="10.014061110609973" id="-26032">
		<tag k="name" v="Bølevannsfossen" />
		<tag k="natural" v="waterfall" />
		<tag k="ssr:stedsnr" v="269628" />
	</node>
	<node lat="59.28273055943444" lon="9.882169443925351" id="-26042">
		<tag k="name" v="Tjærehjellbekken" />
		<tag k="ssr:stedsnr" v="270024" />
		<tag k="waterway" v="stream" />
	</node>
	<node lat="59.08407221858662" lon="10.065911115802153" id="-26052">
		<tag k="name" v="Abyfoss" />
		<tag k="natural" v="waterfall" />
		<tag k="ssr:stedsnr" v="270207" />
	</node>
	<node lat="59.297183332429036" lon="9.850730556227079" id="-26067">
		<tag k="name" v="Østrevannsbekken" />
		<tag k="ssr:stedsnr" v="270179" />
		<tag k="waterway" v="stream" />
	</node>
	<node lat="58.9683777756813" lon="9.846027785509827" id="-26086">
		<tag k="name" v="Nevlungstranda" />
		<tag k="natural" v="beach" />
		<tag k="ssr:stedsnr" v="270381" />
	</node>
	<node lat="59.200488886670584" lon="10.073755550973324" id="-26097">
		<tag k="name" v="Sandfossen" />
		<tag k="natural" v="waterfall" />
		<tag k="ssr:stedsnr" v="270828" />
	</node>
	<node lat="59.21798055481509" lon="9.99331388385827" id="-26105">
		<tag k="name" v="Farmenelva" />
		<tag k="ssr:stedsnr" v="270784" />
		<tag k="waterway" v="river" />
	</node>
	<node lat="59.035894445477524" lon="10.112805561231735" id="-26115">
		<tag k="name" v="Bjønnesbekken" />
		<tag k="ssr:stedsnr" v="271186" />
		<tag k="waterway" v="stream" />
	</node>
	<node lat="59.114480559726445" lon="9.935533331719407" id="-26144">
		<tag k="name" v="Bjørnøya" />
		<tag k="place" v="island" />
		<tag k="ssr:stedsnr" v="305425" />
	</node>
	<node lat="59.42008055748171" lon="9.80634165872684" id="-26148">
		<tag k="alt_name" v="Steinmelvann" />
		<tag k="name" v="Steinmælvannet" />
		<tag k="natural" v="water" />
		<tag k="ssr:stedsnr" v="305609" />
	</node>
	<node lat="59.294797219510535" lon="9.99167500671848" id="-26154">
		<tag k="name" v="Åsvannet" />
		<tag k="natural" v="water" />
		<tag k="ssr:stedsnr" v="306809" />
	</node>
	<node lat="59.10520117487554" lon="9.860142700769" id="-26169">
		<tag k="name" v="Setertjern" />
		<tag k="natural" v="water" />
		<tag k="ssr:stedsnr" v="330212" />
	</node>
	<node lat="59.408858331862376" lon="10.05479721610613" id="-26170">
		<tag k="name" v="Hemsbekken" />
		<tag k="ssr:stedsnr" v="330214" />
		<tag k="waterway" v="stream" />
	</node>
	<node lat="59.079594447608585" lon="10.07655277239341" id="-26171">
		<tag k="name" v="Rauanbekken" />
		<tag k="ssr:stedsnr" v="330215" />
		<tag k="waterway" v="stream" />
	</node>
	<node lat="59.1740055569949" lon="9.997480550384852" id="-26194">
		<tag k="name" v="Gylna" />
		<tag k="ssr:stedsnr" v="330966" />
		<tag k="waterway" v="stream" />
	</node>
	<node lat="59.17191667097879" lon="9.970127786443188" id="-26195">
		<tag k="name" v="Sprena" />
		<tag k="ssr:stedsnr" v="330972" />
		<tag k="waterway" v="stream" />
	</node>
	<node lat="59.31057222070825" lon="9.79239167028728" id="-26218">
		<tag k="name" v="Mellemgårdstjern" />
		<tag k="natural" v="water" />
		<tag k="ssr:stedsnr" v="331318" />
	</node>
	<node lat="59.22598889118687" lon="9.996508327818322" id="-26259">
		<tag k="alt_name" v="Damvann" />
		<tag k="name" v="Damvannet" />
		<tag k="natural" v="water" />
		<tag k="ssr:stedsnr" v="366381" />
	</node>
	<node lat="59.49672500301199" lon="9.926219438829566" id="-26260">
		<tag k="alt_name" v="Numedalslågen" />
		<tag k="name" v="Lågen" />
		<tag k="ssr:stedsnr" v="366578" />
		<tag k="waterway" v="river" />
	</node>
	<node lat="59.051216669156396" lon="9.914105551018668" id="-26293">
		<tag k="name" v="Dunkjevlebukta" />
		<tag k="natural" v="bay" />
		<tag k="ssr:stedsnr" v="391188" />
	</node>
	<node lat="59.217844447395606" lon="9.949813894201913" id="-26332">
		<tag k="name" v="Kvernlivann" />
		<tag k="natural" v="water" />
		<tag k="ssr:stedsnr" v="391813" />
		<tag k="water" v="lake" />
	</node>
	<node lat="59.07733611099756" lon="10.021422216965593" id="-26334">
		<tag k="name" v="Dambukta" />
		<tag k="natural" v="bay" />
		<tag k="ssr:stedsnr" v="391911" />
	</node>
	<node lat="59.11749722138271" lon="9.977552782189298" id="-26338">
		<tag k="name" v="Mellomøya" />
		<tag k="place" v="islet" />
		<tag k="ssr:stedsnr" v="391942" />
	</node>
	<node lat="59.110336109456746" lon="9.978813896238508" id="-26339">
		<tag k="name" v="Skuta" />
		<tag k="place" v="islet" />
		<tag k="ssr:stedsnr" v="391944" />
	</node>
	<node lat="59.0663166699984" lon="10.127133336013767" id="-26368">
		<tag k="name" v="Vittersetjønna" />
		<tag k="natural" v="water" />
		<tag k="old_name" v="Vittersø-tjønna" />
		<tag k="ssr:stedsnr" v="487138" />
	</node>
	<node lat="59.361369447543055" lon="9.808130550532175" id="-26374">
		<tag k="name" v="Øgardstjønn" />
		<tag k="natural" v="water" />
		<tag k="ssr:stedsnr" v="487381" />
	</node>
	<node lat="59.10509166761483" lon="9.937005553977496" id="-26376">
		<tag k="name" v="Nesfjorden" />
		<tag k="natural" v="bay" />
		<tag k="ssr:stedsnr" v="487423" />
	</node>
	<node lat="59.222111106966516" lon="9.97989167040375" id="-26377">
		<tag k="alt_name" v="Husvann" />
		<tag k="name" v="Husvannet" />
		<tag k="natural" v="water" />
		<tag k="ssr:stedsnr" v="487392" />
	</node>
	<node lat="59.30259999737687" lon="9.941988895729981" id="-26379">
		<tag k="alt_name" v="Haugselv" />
		<tag k="name" v="Haugselva" />
		<tag k="ssr:stedsnr" v="487433" />
		<tag k="waterway" v="stream" />
	</node>
	<node lat="59.15684444608287" lon="9.894355560541198" id="-26382">
		<tag k="name" v="Eikenesfjorden" />
		<tag k="natural" v="water" />
		<tag k="ssr:stedsnr" v="487567" />
		<tag k="water" v="lake" />
	</node>
	<node lat="59.05357500324301" lon="9.91079444547857" id="-26385">
		<tag k="name" v="Tverrfjorden" />
		<tag k="natural" v="water" />
		<tag k="ssr:stedsnr" v="487534" />
		<tag k="water" v="lake" />
	</node>
	<node lat="59.45317039470575" lon="9.805323360568922" id="-26388">
		<tag k="name" v="Høymyrvann" />
		<tag k="natural" v="water" />
		<tag k="ssr:stedsnr" v="487653" />
	</node>
	<node lat="59.40053333698735" lon="10.014205558309488" id="-26391">
		<tag k="alt_name" v="Rosevannet" />
		<tag k="name" v="Rosovannet" />
		<tag k="natural" v="water" />
		<tag k="ssr:stedsnr" v="488134" />
	</node>
	<node lat="59.40234444682429" lon="9.81046666072982" id="-26393">
		<tag k="alt_name" v="Nedre Grasdalsvann" />
		<tag k="name" v="Nedre Grasdalsvannet" />
		<tag k="natural" v="water" />
		<tag k="ssr:stedsnr" v="488263" />
	</node>
	<node lat="59.09171388732842" lon="10.043700000928077" id="-26410">
		<tag k="alt_name" v="Steinsholttjønna" />
		<tag k="name" v="Steinsholttjerna" />
		<tag k="natural" v="water" />
		<tag k="ssr:stedsnr" v="426103" />
	</node>
	<node lat="59.24248055943944" lon="10.013066667194803" id="-26414">
		<tag k="alt_name" v="Firfislevann" />
		<tag k="name" v="Firfislevannet" />
		<tag k="natural" v="water" />
		<tag k="ssr:stedsnr" v="426320" />
	</node>
	<node lat="59.22472221988795" lon="9.89339722146533" id="-26417">
		<tag k="alt_name" v="Steinstjønn" />
		<tag k="name" v="Steintjørnane" />
		<tag k="natural" v="water" />
		<tag k="ssr:stedsnr" v="426727" />
	</node>
	<node lat="59.02159166376956" lon="9.858444440733424" id="-26429">
		<tag k="alt_name" v="Bålsrødtjønna" />
		<tag k="name" v="Bålsrødvannet" />
		<tag k="natural" v="water" />
		<tag k="old_name" v="Bålsrødtjernet" />
		<tag k="ssr:stedsnr" v="427302" />
	</node>
	<node lat="59.32359999723435" lon="9.898297226761644" id="-26450">
		<tag k="name" v="Vierødfossen" />
		<tag k="natural" v="waterfall" />
		<tag k="ssr:stedsnr" v="452105" />
	</node>
	<node lat="59.412527781678946" lon="9.823986113733145" id="-26463">
		<tag k="name" v="Stjernevann" />
		<tag k="natural" v="water" />
		<tag k="ssr:stedsnr" v="452182" />
	</node>
	<node lat="59.34252777345171" lon="9.913980552199444" id="-26464">
		<tag k="name" v="Hoggtveita" />
		<tag k="place" v="islet" />
		<tag k="ssr:stedsnr" v="452185" />
	</node>
	<node lat="59.0996188919356" lon="9.893323696393665" id="-26471">
		<tag k="name" v="Øvre Steinstjønn" />
		<tag k="natural" v="water" />
		<tag k="ssr:stedsnr" v="452206" />
	</node>
	<node lat="59.05120000211777" lon="10.103097227905481" id="-26473">
		<tag k="name" v="Guribekken" />
		<tag k="ssr:stedsnr" v="452209" />
		<tag k="waterway" v="stream" />
	</node>
	<node lat="59.03718888602786" lon="10.075616668556982" id="-26484">
		<tag k="name" v="Hølabekken" />
		<tag k="ssr:stedsnr" v="452241" />
		<tag k="waterway" v="stream" />
	</node>
	<node lat="59.16454166543991" lon="10.00395000625571" id="-26505">
		<tag k="name" v="Kvernbekken" />
		<tag k="ssr:stedsnr" v="452805" />
		<tag k="waterway" v="stream" />
	</node>
	<node lat="59.08686388520608" lon="10.007527773308423" id="-26515">
		<tag k="name" v="Korpøya" />
		<tag k="place" v="island" />
		<tag k="ssr:stedsnr" v="452913" />
	</node>
	<node lat="59.16113889059107" lon="10.011608335733357" id="-26520">
		<tag k="name" v="Gjønnesbekken" />
		<tag k="ssr:stedsnr" v="452964" />
		<tag k="waterway" v="stream" />
	</node>
	<node lat="59.42366666420701" lon="9.788427770816327" id="-26563">
		<tag k="alt_name" v="Kopedammen" />
		<tag k="name" v="Kopa" />
		<tag k="natural" v="water" />
		<tag k="ssr:stedsnr" v="487606" />
		<tag k="water" v="lake" />
	</node>
	<node lat="59.312830553481646" lon="10.004566675258994" id="-26567">
		<tag k="name" v="Lindevannet" />
		<tag k="natural" v="water" />
		<tag k="ssr:stedsnr" v="488821" />
	</node>
	<node lat="59.12662222095582" lon="9.919180556855038" id="-26572">
		<tag k="name" v="Steinsundet" />
		<tag k="natural" v="strait" />
		<tag k="ssr:stedsnr" v="512002" />
	</node>
	<node lat="59.068741667888226" lon="10.152861118880839" id="-26598">
		<tag k="name" v="Skalleberg-bekken" />
		<tag k="ssr:stedsnr" v="512221" />
		<tag k="waterway" v="stream" />
	</node>
	<node lat="59.454819440420884" lon="10.002786108953957" id="-26631">
		<tag k="name" v="Bekkøyra" />
		<tag k="natural" v="shoal" />
		<tag k="place" v="locality" />
		<tag k="ssr:stedsnr" v="512888" />
	</node>
	<node lat="59.1212499956741" lon="9.973300001304287" id="-26637">
		<tag k="name" v="Lysebotangene" />
		<tag k="natural" v="cape" />
		<tag k="ssr:stedsnr" v="512973" />
	</node>
	<node lat="59.34973055835833" lon="9.8698444470746" id="-26645">
		<tag k="name" v="Ødegårdstjern" />
		<tag k="natural" v="water" />
		<tag k="ssr:stedsnr" v="513225" />
	</node>
	<node lat="59.381761113256665" lon="9.831338885777397" id="-26646">
		<tag k="name" v="Bråkolltjern" />
		<tag k="natural" v="water" />
		<tag k="ssr:stedsnr" v="513275" />
	</node>
	<node lat="59.423427781503044" lon="9.907969452173452" id="-26653">
		<tag k="name" v="Steinbekken" />
		<tag k="ssr:stedsnr" v="513306" />
		<tag k="waterway" v="stream" />
	</node>
	<node lat="59.27891944426948" lon="9.838919440357621" id="-26659">
		<tag k="name" v="Setervann" />
		<tag k="natural" v="water" />
		<tag k="ssr:stedsnr" v="513963" />
		<tag k="water" v="lake" />
	</node>
	<node lat="59.14492222613344" lon="9.91201388357941" id="-26685">
		<tag k="name" v="Tangen" />
		<tag k="natural" v="cape" />
		<tag k="ssr:stedsnr" v="548266" />
	</node>
	<node lat="59.28709722562122" lon="9.834597215820642" id="-26692">
		<tag k="name" v="Østervannet" />
		<tag k="natural" v="water" />
		<tag k="ssr:stedsnr" v="548502" />
	</node>
	<node lat="59.27287499721221" lon="9.979594446310472" id="-26693">
		<tag k="name" v="Hellenesdammen" />
		<tag k="natural" v="water" />
		<tag k="ssr:stedsnr" v="549899" />
	</node>
	<node lat="59.42219166724784" lon="9.945469444236544" id="-26711">
		<tag k="name" v="Rennehøla" />
		<tag k="place" v="locality" />
		<tag k="ssr:stedsnr" v="572858" />
	</node>
	<node lat="59.200997223587336" lon="9.878347225171618" id="-26720">
		<tag k="name" v="Kvernhusholet" />
		<tag k="natural" v="bay" />
		<tag k="ssr:stedsnr" v="694002" />
	</node>
	<node lat="59.10928610868496" lon="9.927680562886103" id="-26734">
		<tag k="name" v="Hestøya" />
		<tag k="place" v="island" />
		<tag k="ssr:stedsnr" v="573222" />
	</node>
	<node lat="59.438797219714225" lon="9.82758888090422" id="-26738">
		<tag k="name" v="Holtevannsbekken" />
		<tag k="ssr:stedsnr" v="573257" />
		<tag k="waterway" v="stream" />
	</node>
	<node lat="59.0747971963655" lon="9.95033523657902" id="-26750">
		<tag k="name" v="Stegaklovtjønn" />
		<tag k="natural" v="water" />
		<tag k="ssr:stedsnr" v="694060" />
	</node>
	<node lat="59.11789166770564" lon="9.923641669482594" id="-26767">
		<tag k="name" v="Sunda" />
		<tag k="natural" v="strait" />
		<tag k="ssr:stedsnr" v="694149" />
	</node>
	<node lat="59.114766666187386" lon="9.912513887964941" id="-26768">
		<tag k="name" v="Strandsfjorden" />
		<tag k="natural" v="water" />
		<tag k="ssr:stedsnr" v="694150" />
		<tag k="water" v="lake" />
	</node>
	<node lat="59.290299996249026" lon="9.83259722879897" id="-26786">
		<tag k="name" v="Halvpundstjern" />
		<tag k="natural" v="water" />
		<tag k="ssr:stedsnr" v="573956" />
	</node>
	<node lat="59.08215555972243" lon="10.016169443211393" id="-26790">
		<tag k="name" v="Holmen" />
		<tag k="place" v="islet" />
		<tag k="ssr:stedsnr" v="573897" />
	</node>
	<node lat="59.360686855485355" lon="10.013836890370703" id="-26807">
		<tag k="name" v="Hvålsdiplene" />
		<tag k="natural" v="water" />
		<tag k="ssr:stedsnr" v="694537" />
	</node>
	<node lat="59.2375194479099" lon="9.967552777400407" id="-26822">
		<tag k="name" v="Korvika" />
		<tag k="natural" v="bay" />
		<tag k="ssr:stedsnr" v="694797" />
	</node>
	<node lat="59.23593611352205" lon="9.967141673612938" id="-26823">
		<tag k="name" v="Leirtangen" />
		<tag k="natural" v="cape" />
		<tag k="ssr:stedsnr" v="694798" />
	</node>
	<node lat="59.21354167091983" lon="10.004130554200916" id="-26828">
		<tag k="name" v="Høymyrtjønna" />
		<tag k="natural" v="water" />
		<tag k="ssr:stedsnr" v="694845" />
	</node>
	<node lat="59.11894722142562" lon="9.967094437090704" id="-26837">
		<tag k="name" v="Lusetangen" />
		<tag k="natural" v="cape" />
		<tag k="ssr:stedsnr" v="694910" />
	</node>
	<node lat="59.19915000022004" lon="9.973297219267895" id="-26840">
		<tag k="name" v="Nestangen" />
		<tag k="natural" v="cape" />
		<tag k="ssr:stedsnr" v="694993" />
	</node>
	<node lat="59.17021111184907" lon="9.977813883607173" id="-26844">
		<tag k="name" v="Ødegårdselva" />
		<tag k="ssr:stedsnr" v="694958" />
		<tag k="waterway" v="stream" />
	</node>
	<node lat="59.2557583319054" lon="9.915483334577116" id="-26853">
		<tag k="name" v="Vadet" />
		<tag k="natural" v="shoal" />
		<tag k="place" v="locality" />
		<tag k="ssr:stedsnr" v="695029" />
	</node>
	<node lat="59.06376666616613" lon="10.067333334538747" id="-26855">
		<tag k="name" v="Orøya" />
		<tag k="place" v="island" />
		<tag k="ssr:stedsnr" v="695038" />
	</node>
	<node lat="59.375661110064584" lon="9.83913055649002" id="-26861">
		<tag k="name" v="Krakkekilen" />
		<tag k="natural" v="bay" />
		<tag k="ssr:stedsnr" v="695196" />
	</node>
	<node lat="59.3410027802958" lon="9.9131250045328" id="-26863">
		<tag k="name" v="Grinievjua" />
		<tag k="natural" v="water" />
		<tag k="ssr:stedsnr" v="695214" />
		<tag k="water" v="lake" />
	</node>
	<node lat="58.99156111490059" lon="9.922513895135815" id="-26899">
		<tag k="name" v="Bergselva" />
		<tag k="ssr:stedsnr" v="607606" />
		<tag k="waterway" v="stream" />
	</node>
	<node lat="59.20741666591562" lon="10.071830563536277" id="-26911">
		<tag k="name" v="Svartåa" />
		<tag k="ssr:stedsnr" v="608147" />
		<tag k="waterway" v="river" />
	</node>
	<node lat="59.18426821005656" lon="9.921030232257111" id="-26935">
		<tag k="name" v="Lille Limtjønn" />
		<tag k="natural" v="water" />
		<tag k="ssr:stedsnr" v="633011" />
	</node>
	<node lat="59.33198055324717" lon="9.905777783416356" id="-26942">
		<tag k="name" v="Haugfoss" />
		<tag k="ssr:stedsnr" v="633092" />
		<tag k="waterway" v="river" />
	</node>
	<node lat="59.10734722238901" lon="10.093433338696137" id="-26949">
		<tag k="name" v="Dammane" />
		<tag k="place" v="locality" />
		<tag k="ssr:stedsnr" v="633207" />
	</node>
	<node lat="59.30346944575072" lon="9.974194435801245" id="-26969">
		<tag k="name" v="Olasmyrbekken" />
		<tag k="ssr:stedsnr" v="633610" />
		<tag k="waterway" v="stream" />
	</node>
	<node lat="59.29203055865364" lon="10.004166673985276" id="-26970">
		<tag k="name" v="Seterbekken" />
		<tag k="ssr:stedsnr" v="633617" />
		<tag k="waterway" v="stream" />
	</node>
	<node lat="59.0781083378593" lon="10.196505553040842" id="-26972">
		<tag k="name" v="Syrristelva" />
		<tag k="ssr:stedsnr" v="633532" />
		<tag k="waterway" v="stream" />
	</node>
	<node lat="59.32557777677367" lon="9.935827785623541" id="-26977">
		<tag k="name" v="Rogndalsbekken" />
		<tag k="ssr:stedsnr" v="633686" />
		<tag k="waterway" v="stream" />
	</node>
	<node lat="59.17176944310472" lon="10.040633326190514" id="-26979">
		<tag k="name" v="Allumbekken" />
		<tag k="ssr:stedsnr" v="633830" />
		<tag k="waterway" v="stream" />
	</node>
	<node lat="59.23818610840877" lon="9.936411110826644" id="-26980">
		<tag k="name" v="Gjeitebekken" />
		<tag k="ssr:stedsnr" v="633832" />
		<tag k="waterway" v="stream" />
	</node>
	<node lat="59.36815278044474" lon="9.940258336018628" id="-26990">
		<tag k="name" v="Neset" />
		<tag k="natural" v="cape" />
		<tag k="ssr:stedsnr" v="633755" />
	</node>
	<node lat="59.196825001302955" lon="10.10193055166053" id="-27021">
		<tag k="name" v="Hagneselva" />
		<tag k="ssr:stedsnr" v="668164" />
		<tag k="waterway" v="river" />
	</node>
	<node lat="59.161011108118" lon="10.05463888565308" id="-27029">
		<tag k="name" v="Åsrumvannet" />
		<tag k="natural" v="water" />
		<tag k="ssr:stedsnr" v="669202" />
		<tag k="water" v="lake" />
	</node>
	<node lat="59.09056666593547" lon="9.885161107285676" id="-27032">
		<tag k="alt_name" v="Solumtjønn" />
		<tag k="name" v="Solumtjerna" />
		<tag k="natural" v="water" />
		<tag k="old_name" v="Solumtjernet" />
		<tag k="ssr:stedsnr" v="669374" />
	</node>
	<node lat="59.4534055538401" lon="9.905786116317392" id="-27035">
		<tag k="name" v="Trytetjern" />
		<tag k="natural" v="water" />
		<tag k="ssr:stedsnr" v="669534" />
	</node>
	<node lat="59.34942499794782" lon="9.855111114769056" id="-27038">
		<tag k="alt_name" v="Dalelva" />
		<tag k="name" v="Daleelva" />
		<tag k="ssr:stedsnr" v="670372" />
		<tag k="waterway" v="river" />
	</node>
	<node lat="59.14290161069443" lon="9.829470209825327" id="-27050">
		<tag k="name" v="Småvannene" />
		<tag k="natural" v="water" />
		<tag k="ssr:stedsnr" v="694209" />
	</node>
	<node lat="59.08309500912791" lon="10.053812608375955" id="-27055">
		<tag k="name" v="Nordbytjern" />
		<tag k="natural" v="water" />
		<tag k="ssr:stedsnr" v="694175" />
	</node>
	<node lat="59.04529444020698" lon="9.90637777555294" id="-27056">
		<tag k="name" v="Søndre Langekil" />
		<tag k="natural" v="bay" />
		<tag k="ssr:stedsnr" v="694180" />
	</node>
	<node lat="59.42047500128912" lon="9.989786108167836" id="-27057">
		<tag k="name" v="Pinnestadøya" />
		<tag k="place" v="islet" />
		<tag k="ssr:stedsnr" v="694503" />
	</node>
	<node lat="59.30053055406466" lon="10.008855547994296" id="-27066">
		<tag k="name" v="Guttevannet" />
		<tag k="natural" v="water" />
		<tag k="ssr:stedsnr" v="694576" />
	</node>
	<node lat="59.443872224747636" lon="10.018727777306632" id="-27077">
		<tag k="name" v="Skjervenelva" />
		<tag k="ssr:stedsnr" v="694866" />
		<tag k="waterway" v="stream" />
	</node>
	<node lat="59.13812222419246" lon="9.972327784903571" id="-27098">
		<tag k="name" v="Størvika" />
		<tag k="natural" v="bay" />
		<tag k="ssr:stedsnr" v="694974" />
	</node>
	<node lat="59.12748611113328" lon="9.981330556614973" id="-27099">
		<tag k="name" v="Nåslevika" />
		<tag k="natural" v="bay" />
		<tag k="ssr:stedsnr" v="694977" />
	</node>
	<node lat="59.32074722181969" lon="9.895005550298919" id="-27109">
		<tag k="name" v="Rundmælen" />
		<tag k="natural" v="shoal" />
		<tag k="place" v="locality" />
		<tag k="ssr:stedsnr" v="695114" />
	</node>
	<node lat="59.095638886624975" lon="9.898913888971663" id="-27114">
		<tag k="name" v="Lille Krokstjønn" />
		<tag k="natural" v="water" />
		<tag k="ssr:stedsnr" v="695203" />
	</node>
	<node lat="59.055855554303875" lon="10.01141110950502" id="-27135">
		<tag k="alt_name" v="Eidet" />
		<tag k="name" v="Farriseidet" />
		<tag k="place" v="locality" />
		<tag k="ssr:stedsnr" v="695917" />
	</node>
	<node lat="59.23797777900431" lon="10.008286104947864" id="-27164">
		<tag k="alt_name" v="Jeskovann" />
		<tag k="name" v="Jeskovannet" />
		<tag k="natural" v="water" />
		<tag k="ssr:stedsnr" v="730326" />
	</node>
	<node lat="59.46013888653194" lon="9.850980551441076" id="-27177">
		<tag k="name" v="Bergandammen" />
		<tag k="ssr:stedsnr" v="730664" />
		<tag k="waterway" v="dam" />
	</node>
	<node lat="59.402741669530954" lon="9.954441663429563" id="-27185">
		<tag k="name" v="Hjerpelandbekken" />
		<tag k="ssr:stedsnr" v="754565" />
		<tag k="waterway" v="stream" />
	</node>
	<node lat="59.38264444884872" lon="9.954913883132818" id="-27192">
		<tag k="name" v="Slepern" />
		<tag k="place" v="locality" />
		<tag k="ssr:stedsnr" v="754998" />
	</node>
	<node lat="59.44320833458643" lon="10.00563611207477" id="-27201">
		<tag k="name" v="Streket" />
		<tag k="natural" v="beach" />
		<tag k="ssr:stedsnr" v="754863" />
	</node>
	<node lat="59.25090000331036" lon="9.927944447903604" id="-27210">
		<tag k="name" v="Odbergelva" />
		<tag k="ssr:stedsnr" v="755052" />
		<tag k="waterway" v="river" />
	</node>
	<node lat="59.4035277761906" lon="9.879738881784444" id="-27222">
		<tag k="name" v="Svartebekk" />
		<tag k="ssr:stedsnr" v="755258" />
		<tag k="waterway" v="stream" />
	</node>
	<node lat="59.36103055146415" lon="9.92427221332534" id="-27231">
		<tag k="name" v="Fugleevjua" />
		<tag k="natural" v="bay" />
		<tag k="ssr:stedsnr" v="755153" />
	</node>
	<node lat="59.11693889016679" lon="9.928538897227032" id="-27232">
		<tag k="name" v="Sandsuntjønna" />
		<tag k="natural" v="water" />
		<tag k="ssr:stedsnr" v="755157" />
	</node>
	<node lat="59.31254166959278" lon="9.79573889309402" id="-27235">
		<tag k="name" v="Vestre Vindfjellbekk" />
		<tag k="ssr:stedsnr" v="755313" />
		<tag k="waterway" v="stream" />
	</node>
	<node lat="59.19766388979327" lon="10.00622777361526" id="-27272">
		<tag k="name" v="Neselva" />
		<tag k="ssr:stedsnr" v="756911" />
		<tag k="waterway" v="river" />
	</node>
	<node lat="59.212461108529446" lon="10.043161102639408" id="-27293">
		<tag k="name" v="Turrumvann" />
		<tag k="natural" v="water" />
		<tag k="ssr:stedsnr" v="790344" />
	</node>
	<node lat="59.18579444278667" lon="9.928363885372328" id="-27295">
		<tag k="alt_name" v="Anundsjø" />
		<tag k="name" v="Anundsjøen" />
		<tag k="natural" v="water" />
		<tag k="ssr:stedsnr" v="790563" />
	</node>
	<node lat="59.327824996547136" lon="9.79015555590168" id="-27302">
		<tag k="name" v="Svartvann" />
		<tag k="natural" v="water" />
		<tag k="ssr:stedsnr" v="791314" />
	</node>
	<node lat="59.38799999737425" lon="10.014552770907247" id="-27305">
		<tag k="name" v="Linsverkvannet" />
		<tag k="natural" v="water" />
		<tag k="ssr:stedsnr" v="791247" />
	</node>
	<node lat="59.15087777995" lon="9.856419440329226" id="-27316">
		<tag k="alt_name" v="Trælevann" />
		<tag k="name" v="Træle" />
		<tag k="natural" v="water" />
		<tag k="ssr:stedsnr" v="791591" />
	</node>
	<node lat="59.10548610766787" lon="9.99075555440332" id="-27324">
		<tag k="name" v="Donkiløya" />
		<tag k="place" v="islet" />
		<tag k="ssr:stedsnr" v="912072" />
	</node>
	<node lat="59.436144440241705" lon="9.81775833016236" id="-27342">
		<tag k="name" v="Holtevannet" />
		<tag k="natural" v="water" />
		<tag k="ssr:stedsnr" v="912528" />
	</node>
	<node lat="59.44903611466109" lon="9.922247218084177" id="-27343">
		<tag k="alt_name" v="Renneelva" />
		<tag k="name" v="Renne" />
		<tag k="ssr:stedsnr" v="912560" />
		<tag k="waterway" v="stream" />
	</node>
	<node lat="59.453038890956044" lon="9.987247217987106" id="-27367">
		<tag k="name" v="Seterhølbekken" />
		<tag k="ssr:stedsnr" v="815873" />
		<tag k="waterway" v="stream" />
	</node>
	<node lat="59.456275002979716" lon="9.944394451683621" id="-27371">
		<tag k="name" v="Kråkemodulpen" />
		<tag k="natural" v="water" />
		<tag k="ssr:stedsnr" v="815893" />
	</node>
	<node lat="59.199377780271675" lon="9.916255562083467" id="-27377">
		<tag k="name" v="Skjærsjøbekken" />
		<tag k="ssr:stedsnr" v="816021" />
		<tag k="waterway" v="stream" />
	</node>
	<node lat="59.23768333713982" lon="9.895705555018525" id="-27397">
		<tag k="alt_name" v="Klastjern" />
		<tag k="name" v="Klarstjønn" />
		<tag k="natural" v="water" />
		<tag k="ssr:stedsnr" v="816076" />
	</node>
	<node lat="59.406666665581376" lon="9.821697213638732" id="-27408">
		<tag k="name" v="Øvre Grasdalsvann" />
		<tag k="natural" v="water" />
		<tag k="ssr:stedsnr" v="816206" />
	</node>
	<node lat="59.43941388911579" lon="9.836361106743546" id="-27417">
		<tag k="name" v="Vulivannsbekken" />
		<tag k="ssr:stedsnr" v="816282" />
		<tag k="waterway" v="stream" />
	</node>
	<node lat="59.42715278227889" lon="9.850847222185221" id="-27418">
		<tag k="name" v="Stallanebekk" />
		<tag k="ssr:stedsnr" v="816286" />
		<tag k="waterway" v="stream" />
	</node>
	<node lat="59.02302221865302" lon="9.870241668535574" id="-27422">
		<tag k="name" v="Strandsida" />
		<tag k="natural" v="beach" />
		<tag k="ssr:stedsnr" v="816413" />
	</node>
	<node lat="59.21206944396594" lon="9.961297230031196" id="-27438">
		<tag k="name" v="Leirbekken" />
		<tag k="ssr:stedsnr" v="816820" />
		<tag k="waterway" v="stream" />
	</node>
	<node lat="59.13020833274872" lon="9.948274992477803" id="-27449">
		<tag k="name" v="Seterbukta" />
		<tag k="natural" v="bay" />
		<tag k="ssr:stedsnr" v="816980" />
	</node>
	<node lat="59.13705277824375" lon="10.041374994133085" id="-27463">
		<tag k="alt_name" v="Lauvetjønna" />
		<tag k="name" v="Lauvetjerna" />
		<tag k="natural" v="water" />
		<tag k="ssr:stedsnr" v="851027" />
	</node>
	<node lat="59.09935555143744" lon="9.978705558834617" id="-27464">
		<tag k="name" v="Sandviksodden" />
		<tag k="natural" v="cape" />
		<tag k="ssr:stedsnr" v="851089" />
	</node>
	<node lat="59.16702777541596" lon="9.93553333335351" id="-27472">
		<tag k="alt_name" v="Movann" />
		<tag k="name" v="Movannet" />
		<tag k="natural" v="water" />
		<tag k="old_name" v="Movatn" />
		<tag k="ssr:stedsnr" v="851482" />
	</node>
	<node lat="59.37365555620456" lon="9.85319166108969" id="-27486">
		<tag k="name" v="Ørnstjønn" />
		<tag k="natural" v="water" />
		<tag k="ssr:stedsnr" v="852282" />
	</node>
	<node lat="59.3473916679197" lon="9.8294972300684" id="-27490">
		<tag k="name" v="Sverkholttjerna" />
		<tag k="natural" v="water" />
		<tag k="ssr:stedsnr" v="852374" />
	</node>
	<node lat="59.4535055596857" lon="9.785983333720713" id="-27492">
		<tag k="name" v="Pommervann" />
		<tag k="natural" v="water" />
		<tag k="ssr:stedsnr" v="852525" />
	</node>
	<node lat="59.173269445460214" lon="9.90754999292898" id="-27503">
		<tag k="name" v="Måsabekken" />
		<tag k="ssr:stedsnr" v="876061" />
		<tag k="waterway" v="stream" />
	</node>
	<node lat="59.06626944569878" lon="9.910219444617343" id="-27507">
		<tag k="name" v="Tangen" />
		<tag k="natural" v="cape" />
		<tag k="ssr:stedsnr" v="876156" />
	</node>
	<node lat="59.452616662473844" lon="9.999130562120849" id="-27520">
		<tag k="name" v="Fossa" />
		<tag k="natural" v="bay" />
		<tag k="ssr:stedsnr" v="876865" />
	</node>
	<node lat="59.39123333503717" lon="10.044377772431892" id="-27538">
		<tag k="name" v="Tjønna" />
		<tag k="natural" v="water" />
		<tag k="ssr:stedsnr" v="877062" />
	</node>
	<node lat="59.080958421849814" lon="9.877192242652441" id="-27548">
		<tag k="name" v="Solumdam" />
		<tag k="natural" v="water" />
		<tag k="ssr:stedsnr" v="877223" />
	</node>
	<node lat="59.444644444109244" lon="9.896388886279293" id="-27549">
		<tag k="name" v="Jønnbekk" />
		<tag k="ssr:stedsnr" v="877252" />
		<tag k="waterway" v="stream" />
	</node>
	<node lat="59.07113055342371" lon="10.1911888801527" id="-27571">
		<tag k="name" v="Syrristelv" />
		<tag k="ssr:stedsnr" v="877924" />
		<tag k="waterway" v="river" />
	</node>
	<node lat="59.17020833475343" lon="10.001199992470884" id="-27592">
		<tag k="name" v="Gjønnesvannet" />
		<tag k="natural" v="water" />
		<tag k="ssr:stedsnr" v="912220" />
	</node>
	<node lat="59.18593055397454" lon="10.082024993587677" id="-27596">
		<tag k="name" v="Storelva" />
		<tag k="ssr:stedsnr" v="912313" />
		<tag k="waterway" v="river" />
	</node>
	<node lat="59.04603333757811" lon="9.949500002584307" id="-27601">
		<tag k="alt_name" v="Langevatnet" />
		<tag k="name" v="Langevann" />
		<tag k="natural" v="water" />
		<tag k="ssr:stedsnr" v="912520" />
	</node>
	<node lat="59.280386108409154" lon="9.960769441274238" id="-27605">
		<tag k="name" v="Hvarnesdammen" />
		<tag k="natural" v="water" />
		<tag k="ssr:stedsnr" v="912494" />
	</node>
	<node lat="59.03431944157752" lon="9.938738880542939" id="-27606">
		<tag k="name" v="Melautjønna" />
		<tag k="natural" v="water" />
		<tag k="old_name" v="Melautjernet;Melautjørna" />
		<tag k="ssr:stedsnr" v="912497" />
	</node>
	<node lat="59.19510000351843" lon="9.929849994926114" id="-27610">
		<tag k="alt_name" v="Skjærsjø" />
		<tag k="name" v="Skjærsjøen" />
		<tag k="natural" v="water" />
		<tag k="ssr:stedsnr" v="912718" />
	</node>
	<node lat="59.05967777540872" lon="9.876752785878395" id="-27637">
		<tag k="name" v="Trettestykket" />
		<tag k="natural" v="cape" />
		<tag k="ssr:stedsnr" v="937184" />
	</node>
	<node lat="59.23285833458912" lon="9.967694440263156" id="-27684">
		<tag k="name" v="Grastangen" />
		<tag k="natural" v="cape" />
		<tag k="ssr:stedsnr" v="937838" />
	</node>
	<node lat="59.27872221953501" lon="9.913363897037343" id="-27689">
		<tag k="name" v="Sjærhølen" />
		<tag k="place" v="locality" />
		<tag k="ssr:stedsnr" v="938013" />
	</node>
	<node lat="59.3931944417541" lon="10.030930559651866" id="-27694">
		<tag k="name" v="Svartebekk" />
		<tag k="ssr:stedsnr" v="937978" />
		<tag k="waterway" v="stream" />
	</node>
	<node lat="59.33945555313153" lon="9.911574997122472" id="-27696">
		<tag k="name" v="Kjerringhølen" />
		<tag k="place" v="locality" />
		<tag k="ssr:stedsnr" v="938185" />
	</node>
	<node lat="59.01116944777309" lon="9.868194443395852" id="-27708">
		<tag k="name" v="Svanevika" />
		<tag k="natural" v="bay" />
		<tag k="ssr:stedsnr" v="938443" />
	</node>
	<node lat="59.06363333126561" lon="10.019588884041895" id="-27714">
		<tag k="name" v="Kilen" />
		<tag k="natural" v="bay" />
		<tag k="ssr:stedsnr" v="938935" />
	</node>
	<node lat="59.422716665249936" lon="10.017316667200728" id="-27796">
		<tag k="name" v="Hemselva" />
		<tag k="ssr:stedsnr" v="2181" />
		<tag k="waterway" v="stream" />
	</node>
	<node lat="59.14725277712287" lon="10.011930564025995" id="-27816">
		<tag k="alt_name" v="Bjerketjønna" />
		<tag k="name" v="Bjørketjerna" />
		<tag k="natural" v="water" />
		<tag k="ssr:stedsnr" v="2250" />
	</node>
	<node lat="59.431530554745734" lon="9.973466669868493" id="-27846">
		<tag k="name" v="Fyrbekk" />
		<tag k="ssr:stedsnr" v="26790" />
		<tag k="waterway" v="stream" />
	</node>
	<node lat="59.359897224416194" lon="9.77651944239288" id="-27873">
		<tag k="name" v="Grånstjern" />
		<tag k="natural" v="water" />
		<tag k="ssr:stedsnr" v="27953" />
	</node>
	<node lat="59.212286107802434" lon="10.057238890979754" id="-27876">
		<tag k="name" v="Tangenbekken" />
		<tag k="ssr:stedsnr" v="27963" />
		<tag k="waterway" v="stream" />
	</node>
	<node lat="59.38887499594501" lon="9.961091663809457" id="-27879">
		<tag k="name" v="Tåteberget" />
		<tag k="natural" v="beach" />
		<tag k="ssr:stedsnr" v="26997" />
	</node>
	<node lat="59.37101111181333" lon="9.878016671736734" id="-27893">
		<tag k="name" v="Det kalde vassholet" />
		<tag k="natural" v="water" />
		<tag k="ssr:stedsnr" v="27160" />
		<tag k="water" v="pond" />
	</node>
	<node lat="59.083588887278516" lon="9.88577222808893" id="-27899">
		<tag k="name" v="Bjørneklovtjønn" />
		<tag k="natural" v="water" />
		<tag k="ssr:stedsnr" v="27244" />
	</node>
	<node lat="59.228780556229424" lon="9.966266662756057" id="-27934">
		<tag k="name" v="Rødsbekken" />
		<tag k="ssr:stedsnr" v="27835" />
		<tag k="waterway" v="stream" />
	</node>
	<node lat="59.28279166658853" lon="9.81512499418086" id="-27942">
		<tag k="name" v="Røytangen" />
		<tag k="natural" v="cape" />
		<tag k="ssr:stedsnr" v="27991" />
	</node>
	<node lat="59.12656111250106" lon="10.12718332488258" id="-27948">
		<tag k="name" v="Skinmobekken" />
		<tag k="ssr:stedsnr" v="27850" />
		<tag k="waterway" v="stream" />
	</node>
	<node lat="59.24903888631373" lon="9.976249996571351" id="-27981">
		<tag k="name" v="Hellsjøvannet" />
		<tag k="natural" v="water" />
		<tag k="ssr:stedsnr" v="62267" />
	</node>
	<node lat="59.22358333481365" lon="9.921155558177448" id="-27982">
		<tag k="alt_name" v="Vrangevann" />
		<tag k="name" v="Vrangsvatnet" />
		<tag k="natural" v="water" />
		<tag k="ssr:stedsnr" v="62730" />
	</node>
	<node lat="59.250497220253905" lon="9.955333331319517" id="-28013">
		<tag k="name" v="Rimstadstranda" />
		<tag k="natural" v="beach" />
		<tag k="ssr:stedsnr" v="87660" />
	</node>
	<node lat="59.03891389300854" lon="9.817783327844367" id="-28017">
		<tag k="name" v="Fjelsin" />
		<tag k="ssr:stedsnr" v="88326" />
		<tag k="waterway" v="stream" />
	</node>
	<node lat="59.42898611240583" lon="9.936711106436846" id="-28028">
		<tag k="name" v="Tjærehjellbekken" />
		<tag k="ssr:stedsnr" v="87840" />
		<tag k="waterway" v="stream" />
	</node>
	<node lat="59.28556480721818" lon="9.863393576715024" id="-28041">
		<tag k="name" v="Uletjern" />
		<tag k="natural" v="water" />
		<tag k="ssr:stedsnr" v="88018" />
	</node>
	<node lat="59.07301944381228" lon="10.096583340070561" id="-28042">
		<tag k="name" v="Storgrøfta" />
		<tag k="ssr:stedsnr" v="88032" />
		<tag k="waterway" v="stream" />
	</node>
	<node lat="59.04773055970392" lon="9.84014722577391" id="-28046">
		<tag k="loc_name" v="Mørjetjenna" />
		<tag k="name" v="Mørjetjønna" />
		<tag k="natural" v="water" />
		<tag k="ssr:stedsnr" v="88099" />
	</node>
	<node lat="59.46614722315144" lon="9.829536117865745" id="-28051">
		<tag k="name" v="Høymyrbekken" />
		<tag k="ssr:stedsnr" v="88230" />
		<tag k="waterway" v="stream" />
	</node>
	<node lat="59.30001944278767" lon="9.81683332819476" id="-28052">
		<tag k="name" v="Galtetjønn" />
		<tag k="natural" v="water" />
		<tag k="ssr:stedsnr" v="88254" />
	</node>
	<node lat="59.34454999631698" lon="9.979905559989392" id="-28080">
		<tag k="name" v="Møsemyrvannet" />
		<tag k="natural" v="water" />
		<tag k="ssr:stedsnr" v="88658" />
	</node>
	<node lat="59.11569721942188" lon="9.961086109935199" id="-28097">
		<tag k="name" v="Tangen" />
		<tag k="natural" v="cape" />
		<tag k="ssr:stedsnr" v="88926" />
	</node>
	<node lat="59.33661667068718" lon="9.782599992853509" id="-28104">
		<tag k="name" v="Mattiaskilen" />
		<tag k="natural" v="bay" />
		<tag k="ssr:stedsnr" v="88952" />
	</node>
	<node lat="59.121002781827364" lon="9.983341663675098" id="-28110">
		<tag k="name" v="Brurberget" />
		<tag k="natural" v="cape" />
		<tag k="ssr:stedsnr" v="88981" />
	</node>
	<node lat="59.2074055545032" lon="9.935338888830097" id="-28147">
		<tag k="alt_name" v="Musevann" />
		<tag k="name" v="Musevannet" />
		<tag k="natural" v="water" />
		<tag k="old_name" v="Musevatnet" />
		<tag k="ssr:stedsnr" v="122685" />
	</node>
	<node lat="59.120449999625045" lon="10.090388885459086" id="-28157">
		<tag k="alt_name" v="Steinsvolltjerna" />
		<tag k="name" v="Steinsvoldtjønna" />
		<tag k="natural" v="water" />
		<tag k="ssr:stedsnr" v="123046" />
	</node>
	<node lat="59.384661113921744" lon="9.832691660622507" id="-28168">
		<tag k="alt_name" v="Bråkolltjern" />
		<tag k="name" v="Bråkalltjerna" />
		<tag k="natural" v="water" />
		<tag k="ssr:stedsnr" v="123319" />
	</node>
	<node lat="59.32819444732586" lon="9.999108334129291" id="-28185">
		<tag k="name" v="Svartvann" />
		<tag k="natural" v="water" />
		<tag k="ssr:stedsnr" v="147588" />
	</node>
	<node lat="59.45422222351622" lon="9.976866664647835" id="-28205">
		<tag k="name" v="Styrmobekken" />
		<tag k="ssr:stedsnr" v="147855" />
		<tag k="waterway" v="stream" />
	</node>
	<node lat="59.302899997628344" lon="9.898277776656995" id="-28220">
		<tag k="name" v="Blæsa" />
		<tag k="natural" v="beach" />
		<tag k="ssr:stedsnr" v="148127" />
	</node>
	<node lat="59.052552777821575" lon="9.921255561808746" id="-28242">
		<tag k="name" v="Danmark" />
		<tag k="place" v="islet" />
		<tag k="ssr:stedsnr" v="148182" />
	</node>
	<node lat="59.03851389297502" lon="9.905105561935716" id="-28246">
		<tag k="name" v="Småskjæra" />
		<tag k="place" v="islet" />
		<tag k="ssr:stedsnr" v="148187" />
	</node>
	<node lat="59.34144722485223" lon="9.991972215916077" id="-28289">
		<tag k="name" v="Seterbekken" />
		<tag k="ssr:stedsnr" v="148589" />
		<tag k="waterway" v="stream" />
	</node>
	<node lat="59.110583333383545" lon="9.964247222556516" id="-28323">
		<tag k="name" v="Klinkerøya" />
		<tag k="place" v="islet" />
		<tag k="ssr:stedsnr" v="148924" />
	</node>
	<node lat="59.09365833217249" lon="10.002683331670777" id="-28342">
		<tag k="name" v="Onoøya" />
		<tag k="place" v="islet" />
		<tag k="ssr:stedsnr" v="183090" />
	</node>
	<node lat="59.21285674480236" lon="9.906161854934101" id="-28355">
		<tag k="alt_name" v="Surte, store" />
		<tag k="name" v="Store Surte" />
		<tag k="natural" v="water" />
		<tag k="ssr:stedsnr" v="183749" />
=======
	<node id="-417491" lat="59.1156972194" lon="9.96108610994">
		<tag k="name" v="Tangen" />
		<tag k="natural" v="cape" />
		<tag k="ssr:stedsnr" v="88926" />
	</node>
	<node id="-418302" lat="59.2259888912" lon="9.99650832782">
		<tag k="alt_name" v="Damvann" />
		<tag k="name" v="Damvannet" />
		<tag k="natural" v="water" />
		<tag k="ssr:stedsnr" v="366381" />
	</node>
	<node id="-415432" lat="59.0337111147" lon="10.0551138841">
		<tag k="name" v="Ormetoga" />
		<tag k="natural" v="bay" />
		<tag k="ssr:stedsnr" v="512250" />
	</node>
	<node id="-415425" lat="59.0687416679" lon="10.1528611189">
		<tag k="name" v="Skalleberg-bekken" />
		<tag k="ssr:stedsnr" v="512221" />
		<tag k="waterway" v="stream" />
	</node>
	<node id="-415419" lat="59.042011111" lon="9.9091861085">
		<tag k="name" v="Eplevik" />
		<tag k="natural" v="bay" />
		<tag k="ssr:stedsnr" v="512199" />
	</node>
	<node id="-417465" lat="59.3445499963" lon="9.97990555999">
		<tag k="name" v="Møsemyrvannet" />
		<tag k="natural" v="water" />
		<tag k="ssr:stedsnr" v="88658" />
	</node>
	<node id="-415414" lat="59.418897221" lon="10.0528472278">
		<tag k="name" v="Lånedammen" />
		<tag k="natural" v="water" />
		<tag k="ssr:stedsnr" v="512176" />
		<tag k="water" v="pond" />
	</node>
	<node id="-415400" lat="59.0701976087" lon="10.0997236677">
		<tag k="name" v="Kjøndaltjønna" />
		<tag k="natural" v="water" />
		<tag k="ssr:stedsnr" v="512043" />
	</node>
	<node id="-417439" lat="59.038913893" lon="9.81778332784">
		<tag k="name" v="Fjelsin" />
		<tag k="ssr:stedsnr" v="88326" />
		<tag k="waterway" v="stream" />
	</node>
	<node id="-415385" lat="59.325047225" lon="9.94963055132">
		<tag k="name" v="Sprena" />
		<tag k="ssr:stedsnr" v="511568" />
		<tag k="waterway" v="stream" />
	</node>
	<node id="-417431" lat="59.3000194428" lon="9.81683332819">
		<tag k="name" v="Galtetjønn" />
		<tag k="natural" v="water" />
		<tag k="ssr:stedsnr" v="88254" />
	</node>
	<node id="-417430" lat="59.4661472232" lon="9.82953611787">
		<tag k="name" v="Høymyrbekken" />
		<tag k="ssr:stedsnr" v="88230" />
		<tag k="waterway" v="stream" />
	</node>
	<node id="-415379" lat="59.0286361125" lon="9.91457778435">
		<tag k="name" v="Lepperødkilen" />
		<tag k="natural" v="bay" />
		<tag k="ssr:stedsnr" v="510000" />
	</node>
	<node id="-417426" lat="59.4068750014" lon="9.90510555705">
		<tag k="alt_name" v="Melåsbekken" />
		<tag k="name" v="Mjølåselva" />
		<tag k="ssr:stedsnr" v="88201" />
		<tag k="waterway" v="river" />
	</node>
	<node id="-417424" lat="59.1481555601" lon="9.90728888449">
		<tag k="name" v="Håmannsøya" />
		<tag k="place" v="islet" />
		<tag k="ssr:stedsnr" v="88184" />
	</node>
	<node id="-417421" lat="59.3457805534" lon="9.85551110503">
		<tag k="name" v="Trollfoss" />
		<tag k="natural" v="waterfall" />
		<tag k="ssr:stedsnr" v="88176" />
	</node>
	<node id="-419464" lat="59.0601555532" lon="9.88409445117">
		<tag k="name" v="Vestmovatn" />
		<tag k="natural" v="strait" />
		<tag k="ssr:stedsnr" v="876168" />
	</node>
	<node id="-417414" lat="59.0477305597" lon="9.84014722577">
		<tag k="loc_name" v="Mørjetjenna" />
		<tag k="name" v="Mørjetjønna" />
		<tag k="natural" v="water" />
		<tag k="ssr:stedsnr" v="88099" />
	</node>
	<node id="-415364" lat="59.0808194429" lon="10.0143472196">
		<tag k="name" v="Munken" />
		<tag k="place" v="island" />
		<tag k="ssr:stedsnr" v="391920" />
	</node>
	<node id="-415362" lat="59.077336111" lon="10.021422217">
		<tag k="name" v="Dambukta" />
		<tag k="natural" v="bay" />
		<tag k="ssr:stedsnr" v="391911" />
	</node>
	<node id="-417409" lat="59.3142305601" lon="9.89258888454">
		<tag k="name" v="Øgardshølen" />
		<tag k="place" v="locality" />
		<tag k="ssr:stedsnr" v="88081" />
	</node>
	<node id="-417402" lat="59.3168361141" lon="9.89348888462">
		<tag k="name" v="Skauøya" />
		<tag k="natural" v="cape" />
		<tag k="ssr:stedsnr" v="88073" />
	</node>
	<node id="-419446" lat="59.0760639478" lon="9.9735567423">
		<tag k="name" v="Bjørdammen" />
		<tag k="natural" v="water" />
		<tag k="ssr:stedsnr" v="876081" />
	</node>
	<node id="-419443" lat="59.1732694455" lon="9.90754999293">
		<tag k="name" v="Måsabekken" />
		<tag k="ssr:stedsnr" v="876061" />
		<tag k="waterway" v="stream" />
	</node>
	<node id="-415346" lat="59.2178444474" lon="9.9498138942">
		<tag k="name" v="Kvernlivann" />
		<tag k="natural" v="water" />
		<tag k="ssr:stedsnr" v="391813" />
		<tag k="water" v="lake" />
	</node>
	<node id="-417387" lat="59.4289861124" lon="9.93671110644">
		<tag k="name" v="Tjærehjellbekken" />
		<tag k="ssr:stedsnr" v="87840" />
		<tag k="waterway" v="stream" />
	</node>
	<node id="-419432" lat="59.4143222265" lon="9.81698888838">
		<tag k="alt_name" v="Steinbekkvann" />
		<tag k="name" v="Steinbekkvannet" />
		<tag k="natural" v="water" />
		<tag k="ssr:stedsnr" v="852534" />
	</node>
	<node id="-419429" lat="59.3736555562" lon="9.85319166109">
		<tag k="name" v="Ørnstjønn" />
		<tag k="natural" v="water" />
		<tag k="ssr:stedsnr" v="852282" />
	</node>
	<node id="-419425" lat="59.3473916679" lon="9.82949723007">
		<tag k="name" v="Sverkholttjerna" />
		<tag k="natural" v="water" />
		<tag k="ssr:stedsnr" v="852374" />
	</node>
	<node id="-417371" lat="59.0730194438" lon="10.0965833401">
		<tag k="name" v="Storgrøfta" />
		<tag k="ssr:stedsnr" v="88032" />
		<tag k="waterway" v="stream" />
	</node>
	<node id="-417367" lat="59.2855648072" lon="9.86339357672">
		<tag k="name" v="Uletjern" />
		<tag k="natural" v="water" />
		<tag k="ssr:stedsnr" v="88018" />
	</node>
	<node id="-419413" lat="59.0617916663" lon="9.87318889581">
		<tag k="alt_name" v="Vestmovann" />
		<tag k="name" v="Vestmunnvannet" />
		<tag k="natural" v="water" />
		<tag k="old_name" v="Vestmovatnet" />
		<tag k="ssr:stedsnr" v="851428" />
		<tag k="water" v="lake" />
	</node>
	<node id="-415316" lat="59.1686972267" lon="9.90042778101">
		<tag k="name" v="Bonnegoltpollen" />
		<tag k="natural" v="bay" />
		<tag k="ssr:stedsnr" v="391054" />
	</node>
	<node id="-415314" lat="59.293288893" lon="9.80851388631">
		<tag k="name" v="Seterbekken" />
		<tag k="ssr:stedsnr" v="391321" />
		<tag k="waterway" v="stream" />
	</node>
	<node id="-415312" lat="59.336630554" lon="9.82566110936">
		<tag k="name" v="Sprena" />
		<tag k="ssr:stedsnr" v="391168" />
		<tag k="waterway" v="stream" />
	</node>
	<node id="-415311" lat="59.3583055522" lon="9.92382499395">
		<tag k="name" v="Vrangfoss" />
		<tag k="natural" v="waterfall" />
		<tag k="ssr:stedsnr" v="391166" />
	</node>
	<node id="-419405" lat="59.1793972233" lon="10.0435722231">
		<tag k="alt_name" v="Allumtjønna" />
		<tag k="name" v="Allumtjerna" />
		<tag k="natural" v="water" />
		<tag k="ssr:stedsnr" v="851185" />
	</node>
	<node id="-417355" lat="59.2504972203" lon="9.95533333132">
		<tag k="name" v="Rimstadstranda" />
		<tag k="natural" v="beach" />
		<tag k="ssr:stedsnr" v="87660" />
	</node>
	<node id="-419400" lat="59.0993555514" lon="9.97870555883">
		<tag k="name" v="Sandviksodden" />
		<tag k="natural" v="cape" />
		<tag k="ssr:stedsnr" v="851089" />
	</node>
	<node id="-419398" lat="59.1370527782" lon="10.0413749941">
		<tag k="alt_name" v="Lauvetjønna" />
		<tag k="name" v="Lauvetjerna" />
		<tag k="natural" v="water" />
		<tag k="ssr:stedsnr" v="851027" />
	</node>
	<node id="-419396" lat="59.1447611081" lon="9.98575833603">
		<tag k="alt_name" v="Storhaugtjønna" />
		<tag k="name" v="Storhaugtjerna" />
		<tag k="natural" v="water" />
		<tag k="ssr:stedsnr" v="851013" />
	</node>
	<node id="-415299" lat="59.069419441" lon="10.0171555609">
		<tag k="name" v="Gopledalbukt" />
		<tag k="natural" v="bay" />
		<tag k="ssr:stedsnr" v="391114" />
	</node>
	<node id="-416693" lat="59.1532527787" lon="9.96975278631">
		<tag k="name" v="Råsåstjønn" />
		<tag k="natural" v="water" />
		<tag k="ssr:stedsnr" v="816915" />
	</node>
	<node id="-417335" lat="59.3044194412" lon="9.79978889184">
		<tag k="alt_name" v="Vindfjellbekken, østre;Østre Vindfjellbekk" />
		<tag k="name" v="Østre Vindfjellbekken" />
		<tag k="ssr:stedsnr" v="63424" />
		<tag k="waterway" v="stream" />
	</node>
	<node id="-415280" lat="59.4549999989" lon="9.94456110589">
		<tag k="name" v="Tjønnbekk" />
		<tag k="ssr:stedsnr" v="390868" />
		<tag k="waterway" v="stream" />
	</node>
	<node id="-419373" lat="59.1302083327" lon="9.94827499248">
		<tag k="name" v="Seterbukta" />
		<tag k="natural" v="bay" />
		<tag k="ssr:stedsnr" v="816980" />
	</node>
	<node id="-415273" lat="59.3062972223" lon="10.0100722243">
		<tag k="name" v="Lindevannsbekken" />
		<tag k="ssr:stedsnr" v="390562" />
		<tag k="waterway" v="stream" />
	</node>
	<node id="-415267" lat="59.025605555" lon="9.90726943859">
		<tag k="alt_name" v="Hallevatnet" />
		<tag k="name" v="Hallevannet" />
		<tag k="natural" v="water" />
		<tag k="ssr:stedsnr" v="366278" />
		<tag k="water" v="lake" />
	</node>
	<node id="-415266" lat="59.3730352761" lon="9.82730917111">
		<tag k="name" v="Svartangen" />
		<tag k="natural" v="water" />
		<tag k="ssr:stedsnr" v="366273" />
		<tag k="water" v="lake" />
	</node>
	<node id="-415258" lat="59.3128305535" lon="10.0045666753">
		<tag k="name" v="Lindevannet" />
		<tag k="natural" v="water" />
		<tag k="ssr:stedsnr" v="488821" />
	</node>
	<node id="-417303" lat="59.2235833348" lon="9.92115555818">
		<tag k="alt_name" v="Vrangevann" />
		<tag k="name" v="Vrangsvatnet" />
		<tag k="natural" v="water" />
		<tag k="ssr:stedsnr" v="62730" />
	</node>
	<node id="-417298" lat="58.9963709749" lon="9.94847378566">
		<tag k="name" v="Asketjørnet" />
		<tag k="natural" v="water" />
		<tag k="old_name" v="Asketjernet" />
		<tag k="ssr:stedsnr" v="62587" />
	</node>
	<node id="-415248" lat="59.4023444468" lon="9.81046666073">
		<tag k="alt_name" v="Nedre Grasdalsvann" />
		<tag k="name" v="Nedre Grasdalsvannet" />
		<tag k="natural" v="water" />
		<tag k="ssr:stedsnr" v="488263" />
	</node>
	<node id="-415246" lat="59.400533337" lon="10.0142055583">
		<tag k="alt_name" v="Rosevannet" />
		<tag k="name" v="Rosovannet" />
		<tag k="natural" v="water" />
		<tag k="ssr:stedsnr" v="488134" />
	</node>
	<node id="-417292" lat="59.2490388863" lon="9.97624999657">
		<tag k="name" v="Hellsjøvannet" />
		<tag k="natural" v="water" />
		<tag k="ssr:stedsnr" v="62267" />
	</node>
	<node id="-419415" lat="59.1670277754" lon="9.93553333335">
		<tag k="alt_name" v="Movann" />
		<tag k="name" v="Movannet" />
		<tag k="natural" v="water" />
		<tag k="old_name" v="Movatn" />
		<tag k="ssr:stedsnr" v="851482" />
	</node>
	<node id="-415237" lat="59.4531703947" lon="9.80532336057">
		<tag k="name" v="Høymyrvann" />
		<tag k="natural" v="water" />
		<tag k="ssr:stedsnr" v="487653" />
	</node>
	<node id="-415236" lat="59.4236666642" lon="9.78842777082">
		<tag k="alt_name" v="Kopedammen" />
		<tag k="name" v="Kopa" />
		<tag k="natural" v="water" />
		<tag k="ssr:stedsnr" v="487606" />
		<tag k="water" v="lake" />
	</node>
	<node id="-415233" lat="59.1568444461" lon="9.89435556054">
		<tag k="name" v="Eikenesfjorden" />
		<tag k="natural" v="water" />
		<tag k="ssr:stedsnr" v="487567" />
		<tag k="water" v="lake" />
	</node>
	<node id="-415231" lat="59.222111107" lon="9.9798916704">
		<tag k="alt_name" v="Husvann" />
		<tag k="name" v="Husvannet" />
		<tag k="natural" v="water" />
		<tag k="ssr:stedsnr" v="487392" />
	</node>
	<node id="-417278" lat="59.1819861093" lon="9.98020000339">
		<tag k="name" v="Gylna" />
		<tag k="ssr:stedsnr" v="62187" />
		<tag k="waterway" v="river" />
	</node>
	<node id="-419305" lat="59.4678833347" lon="9.82524167326">
		<tag k="name" v="Surlielva" />
		<tag k="ssr:stedsnr" v="816295" />
		<tag k="waterway" v="river" />
	</node>
	<node id="-419302" lat="59.4271527823" lon="9.85084722219">
		<tag k="name" v="Stallanebekk" />
		<tag k="ssr:stedsnr" v="816286" />
		<tag k="waterway" v="stream" />
	</node>
	<node id="-419301" lat="59.4394138891" lon="9.83636110674">
		<tag k="name" v="Vulivannsbekken" />
		<tag k="ssr:stedsnr" v="816282" />
		<tag k="waterway" v="stream" />
	</node>
	<node id="-419299" lat="59.3730555535" lon="9.91642499668">
		<tag k="name" v="Smokkstadelva" />
		<tag k="ssr:stedsnr" v="816185" />
		<tag k="waterway" v="stream" />
	</node>
	<node id="-417245" lat="59.2827916666" lon="9.81512499418">
		<tag k="name" v="Røytangen" />
		<tag k="natural" v="cape" />
		<tag k="ssr:stedsnr" v="27991" />
	</node>
	<node id="-415196" lat="59.3105722207" lon="9.79239167029">
		<tag k="name" v="Mellemgårdstjern" />
		<tag k="natural" v="water" />
		<tag k="ssr:stedsnr" v="331318" />
	</node>
	<node id="-417242" lat="59.12425278" lon="9.9818833419">
		<tag k="name" v="Røysekil" />
		<tag k="natural" v="bay" />
		<tag k="ssr:stedsnr" v="27976" />
	</node>
	<node id="-417241" lat="59.2122861078" lon="10.057238891">
		<tag k="name" v="Tangenbekken" />
		<tag k="ssr:stedsnr" v="27963" />
		<tag k="waterway" v="stream" />
	</node>
	<node id="-418724" lat="59.2115027812" lon="10.0518666721">
		<tag k="name" v="Tangenvannet" />
		<tag k="natural" v="water" />
		<tag k="ssr:stedsnr" v="573965" />
	</node>
	<node id="-417238" lat="59.3598972244" lon="9.77651944239">
		<tag k="name" v="Grånstj." />
		<tag k="natural" v="water" />
		<tag k="ssr:stedsnr" v="27953" />
	</node>
	<node id="-415188" lat="59.1090527753" lon="9.95135277072">
		<tag k="name" v="Vindtangen" />
		<tag k="natural" v="cape" />
		<tag k="ssr:stedsnr" v="330939" />
	</node>
	<node id="-419282" lat="59.3861833358" lon="9.95650278028">
		<tag k="name" v="Jammerdalshølen" />
		<tag k="place" v="locality" />
		<tag k="ssr:stedsnr" v="815997" />
	</node>
	<node id="-415181" lat="59.0825944459" lon="9.98795833558">
		<tag k="name" v="Skautvetbukta" />
		<tag k="natural" v="bay" />
		<tag k="ssr:stedsnr" v="330916" />
	</node>
	<node id="-415179" lat="59.4570111088" lon="9.95618610908">
		<tag k="name" v="Krukebekken" />
		<tag k="ssr:stedsnr" v="330914" />
		<tag k="waterway" v="stream" />
	</node>
	<node id="-415175" lat="59.0854004433" lon="10.0371415663">
		<tag k="name" v="Fossanetjønn" />
		<tag k="natural" v="water" />
		<tag k="ssr:stedsnr" v="330910" />
	</node>
	<node id="-417222" lat="59.1265611125" lon="10.1271833249">
		<tag k="name" v="Skinmobekken" />
		<tag k="ssr:stedsnr" v="27850" />
		<tag k="waterway" v="stream" />
	</node>
	<node id="-415173" lat="59.0779860628" lon="10.0398242968">
		<tag k="name" v="Ytretjønn" />
		<tag k="natural" v="water" />
		<tag k="ssr:stedsnr" v="330906" />
	</node>
	<node id="-417218" lat="59.2287805562" lon="9.96626666276">
		<tag k="name" v="Rødsbekken" />
		<tag k="ssr:stedsnr" v="27835" />
		<tag k="waterway" v="stream" />
	</node>
	<node id="-419260" lat="59.2376833371" lon="9.89570555502">
		<tag k="alt_name" v="Klastjern" />
		<tag k="name" v="Klarstjønn" />
		<tag k="natural" v="water" />
		<tag k="ssr:stedsnr" v="816076" />
	</node>
	<node id="-419258" lat="59.4276111102" lon="9.9920694435">
		<tag k="name" v="Brufoss" />
		<tag k="natural" v="waterfall" />
		<tag k="ssr:stedsnr" v="815847" />
	</node>
	<node id="-419253" lat="59.456275003" lon="9.94439445168">
		<tag k="name" v="Kråkemodulpen" />
		<tag k="natural" v="water" />
		<tag k="ssr:stedsnr" v="815893" />
	</node>
	<node id="-415146" lat="59.0975888854" lon="9.90058610493">
		<tag k="name" v="Store Krokstjønn" />
		<tag k="natural" v="water" />
		<tag k="ssr:stedsnr" v="330239" />
	</node>
	<node id="-415138" lat="59.0531861141" lon="9.92313888089">
		<tag k="name" v="Kuvomma" />
		<tag k="place" v="islet" />
		<tag k="ssr:stedsnr" v="330224" />
	</node>
	<node id="-415134" lat="59.0795944476" lon="10.0765527724">
		<tag k="name" v="Rauanbekken" />
		<tag k="ssr:stedsnr" v="330215" />
		<tag k="waterway" v="stream" />
	</node>
	<node id="-415133" lat="59.4088583319" lon="10.0547972161">
		<tag k="name" v="Hemsbekken" />
		<tag k="ssr:stedsnr" v="330214" />
		<tag k="waterway" v="stream" />
	</node>
	<node id="-417178" lat="59.0835888873" lon="9.88577222809">
		<tag k="name" v="Bjørneklovtjønn" />
		<tag k="natural" v="water" />
		<tag k="ssr:stedsnr" v="27244" />
	</node>
	<node id="-419221" lat="59.15087778" lon="9.85641944033">
		<tag k="alt_name" v="Trælevann" />
		<tag k="name" v="Træle" />
		<tag k="natural" v="water" />
		<tag k="ssr:stedsnr" v="791591" />
	</node>
	<node id="-419220" lat="59.4645861099" lon="9.94889166104">
		<tag k="name" v="Otterstadvann" />
		<tag k="natural" v="water" />
		<tag k="ssr:stedsnr" v="791583" />
	</node>
	<node id="-419218" lat="59.3278249965" lon="9.7901555559">
		<tag k="name" v="Svartvann" />
		<tag k="natural" v="water" />
		<tag k="ssr:stedsnr" v="791314" />
	</node>
	<node id="-417169" lat="59.4550222181" lon="9.87872500356">
		<tag k="name" v="Tømmerbekken" />
		<tag k="ssr:stedsnr" v="27225" />
		<tag k="waterway" v="stream" />
	</node>
	<node id="-419213" lat="59.3879999974" lon="10.0145527709">
		<tag k="name" v="Linsverkvannet" />
		<tag k="natural" v="water" />
		<tag k="ssr:stedsnr" v="791247" />
	</node>
	<node id="-417163" lat="59.3730388917" lon="9.84058611992">
		<tag k="name" v="Brånatjønn" />
		<tag k="natural" v="water" />
		<tag k="ssr:stedsnr" v="27171" />
	</node>
	<node id="-417160" lat="59.3710111118" lon="9.87801667174">
		<tag k="name" v="Det kalde vassholet" />
		<tag k="natural" v="water" />
		<tag k="ssr:stedsnr" v="27160" />
		<tag k="water" v="pond" />
	</node>
	<node id="-415111" lat="59.2339500016" lon="9.97001388204">
		<tag k="name" v="Korvikvannet" />
		<tag k="natural" v="water" />
		<tag k="ssr:stedsnr" v="305329" />
		<tag k="water" v="lake" />
	</node>
	<node id="-415106" lat="59.1404777768" lon="9.90163610545">
		<tag k="name" v="Tuftøya" />
		<tag k="place" v="islet" />
		<tag k="ssr:stedsnr" v="304636" />
	</node>
	<node id="-417153" lat="59.3001944426" lon="9.84239443818">
		<tag k="name" v="Askedalselva" />
		<tag k="ssr:stedsnr" v="27134" />
		<tag k="waterway" v="stream" />
	</node>
	<node id="-419196" lat="59.2124611085" lon="10.0431611026">
		<tag k="name" v="Turrumvann" />
		<tag k="natural" v="water" />
		<tag k="ssr:stedsnr" v="790344" />
	</node>
	<node id="-415091" lat="59.0796694475" lon="10.1287472269">
		<tag k="name" v="Vittersøbekken" />
		<tag k="ssr:stedsnr" v="270869" />
		<tag k="waterway" v="stream" />
	</node>
	<node id="-417134" lat="59.3888749959" lon="9.96109166381">
		<tag k="name" v="Tåteberget" />
		<tag k="natural" v="beach" />
		<tag k="ssr:stedsnr" v="26997" />
	</node>
	<node id="-418365" lat="59.1336222241" lon="9.93226388091">
		<tag k="name" v="Yttertjønn" />
		<tag k="natural" v="bay" />
		<tag k="ssr:stedsnr" v="391030" />
	</node>
	<node id="-417129" lat="59.4315305547" lon="9.97346666987">
		<tag k="name" v="Fyrbekk" />
		<tag k="ssr:stedsnr" v="26790" />
		<tag k="waterway" v="stream" />
	</node>
	<node id="-419173" lat="59.1976638898" lon="10.0062277736">
		<tag k="name" v="Neselva" />
		<tag k="ssr:stedsnr" v="756911" />
		<tag k="waterway" v="river" />
	</node>
	<node id="-417119" lat="59.3166305556" lon="9.96680555306">
		<tag k="name" v="Solbergelva" />
		<tag k="ssr:stedsnr" v="26590" />
		<tag k="waterway" v="stream" />
	</node>
	<node id="-417117" lat="59.3333111093" lon="9.9515055474">
		<tag k="name" v="Setervann" />
		<tag k="natural" v="water" />
		<tag k="ssr:stedsnr" v="26587" />
	</node>
	<node id="-415063" lat="59.0862805555" lon="9.9347555536">
		<tag k="name" v="Nordre Malerødtjønn" />
		<tag k="natural" v="water" />
		<tag k="ssr:stedsnr" v="270265" />
	</node>
	<node id="-415057" lat="59.0933027795" lon="9.89892499303">
		<tag k="name" v="Dritteltjønn" />
		<tag k="natural" v="water" />
		<tag k="ssr:stedsnr" v="270214" />
	</node>
	<node id="-415054" lat="59.0840722186" lon="10.0659111158">
		<tag k="name" v="Abyfoss" />
		<tag k="natural" v="waterfall" />
		<tag k="ssr:stedsnr" v="270207" />
	</node>
	<node id="-419148" lat="59.1070138926" lon="9.95413610249">
		<tag k="name" v="Bærøya" />
		<tag k="place" v="islet" />
		<tag k="ssr:stedsnr" v="755928" />
	</node>
	<node id="-415050" lat="59.3170666703" lon="9.82348889453">
		<tag k="name" v="Lofstadhestetjern" />
		<tag k="natural" v="water" />
		<tag k="ssr:stedsnr" v="270062" />
	</node>
	<node id="-417096" lat="59.2953361144" lon="9.81815278608">
		<tag k="name" v="Bjortjønn" />
		<tag k="natural" v="water" />
		<tag k="ssr:stedsnr" v="2401" />
	</node>
	<node id="-419143" lat="59.1564361115" lon="10.0439583285">
		<tag k="name" v="Melaustranda" />
		<tag k="natural" v="beach" />
		<tag k="ssr:stedsnr" v="755909" />
	</node>
	<node id="-417089" lat="59.3253805523" lon="9.84776110502">
		<tag k="name" v="Lofstadelva" />
		<tag k="ssr:stedsnr" v="2347" />
		<tag k="waterway" v="stream" />
	</node>
	<node id="-417088" lat="59.3832555555" lon="9.87469444046">
		<tag k="name" v="Blokkvann" />
		<tag k="natural" v="water" />
		<tag k="ssr:stedsnr" v="2316" />
	</node>
	<node id="-419131" lat="59.221188885" lon="10.0286277823">
		<tag k="name" v="Nesdammen" />
		<tag k="natural" v="water" />
		<tag k="ssr:stedsnr" v="755872" />
		<tag k="water" v="lake" />
	</node>
	<node id="-418015" lat="59.1232916696" lon="9.97551111844">
		<tag k="name" v="Tyttebærøya" />
		<tag k="place" v="island" />
		<tag k="ssr:stedsnr" v="209970" />
	</node>
	<node id="-419125" lat="59.247800002" lon="9.95709166851">
		<tag k="name" v="Busteholen" />
		<tag k="ssr:stedsnr" v="755833" />
		<tag k="waterway" v="river" />
	</node>
	<node id="-415013" lat="59.3133916656" lon="9.80868056019">
		<tag k="name" v="Hestetjern" />
		<tag k="natural" v="water" />
		<tag k="ssr:stedsnr" v="452992" />
	</node>
	<node id="-415012" lat="59.1298861067" lon="9.93667223064">
		<tag k="name" v="Ingersøy" />
		<tag k="place" v="island" />
		<tag k="ssr:stedsnr" v="452989" />
	</node>
	<node id="-419035" lat="59.3610305515" lon="9.92427221333">
		<tag k="name" v="Fugleevjua" />
		<tag k="natural" v="bay" />
		<tag k="ssr:stedsnr" v="755153" />
	</node>
	<node id="-415006" lat="59.1611388906" lon="10.0116083357">
		<tag k="name" v="Gjønnesbekken" />
		<tag k="ssr:stedsnr" v="452964" />
		<tag k="waterway" v="stream" />
	</node>
	<node id="-416645" lat="59.1993777803" lon="9.91625556208">
		<tag k="name" v="Skjærsjøbekken" />
		<tag k="ssr:stedsnr" v="816021" />
		<tag k="waterway" v="stream" />
	</node>
	<node id="-415001" lat="59.0830166637" lon="10.0172083247">
		<tag k="name" v="Fossanebukta" />
		<tag k="natural" v="bay" />
		<tag k="ssr:stedsnr" v="452901" />
	</node>
	<node id="-415000" lat="59.087075002" lon="10.1310749965">
		<tag k="name" v="Skåra Lindhjembekken" />
		<tag k="ssr:stedsnr" v="452895" />
		<tag k="waterway" v="stream" />
	</node>
	<node id="-417046" lat="59.4227166652" lon="10.0173166672">
		<tag k="name" v="Hemselva" />
		<tag k="ssr:stedsnr" v="2181" />
		<tag k="waterway" v="stream" />
	</node>
	<node id="-414993" lat="59.1169111129" lon="9.94281666824">
		<tag k="name" v="Ødegården" />
		<tag k="natural" v="cape" />
		<tag k="ssr:stedsnr" v="452943" />
	</node>
	<node id="-414982" lat="59.0868638852" lon="10.0075277733">
		<tag k="name" v="Korpøya" />
		<tag k="place" v="island" />
		<tag k="ssr:stedsnr" v="452913" />
	</node>
	<node id="-419066" lat="59.3125416696" lon="9.79573889309">
		<tag k="name" v="Vestre Vindfjellbekk" />
		<tag k="ssr:stedsnr" v="755313" />
		<tag k="waterway" v="stream" />
	</node>
	<node id="-417017" lat="59.4488222232" lon="9.88252500633">
		<tag k="name" v="Gørrmyrbekken" />
		<tag k="ssr:stedsnr" v="938225" />
		<tag k="waterway" v="stream" />
	</node>
	<node id="-419062" lat="59.4035277762" lon="9.87973888178">
		<tag k="name" v="Svartebekk" />
		<tag k="ssr:stedsnr" v="755258" />
		<tag k="waterway" v="stream" />
	</node>
	<node id="-418968" lat="59.4027416695" lon="9.95444166343">
		<tag k="name" v="Hjerpelandbekken" />
		<tag k="ssr:stedsnr" v="754565" />
		<tag k="waterway" v="stream" />
	</node>
	<node id="-419053" lat="59.3375194424" lon="9.90995555949">
		<tag k="name" v="Heklafoss" />
		<tag k="natural" v="waterfall" />
		<tag k="ssr:stedsnr" v="755217" />
	</node>
	<node id="-416998" lat="59.2787222195" lon="9.91336389704">
		<tag k="name" v="Sjærhølen" />
		<tag k="place" v="locality" />
		<tag k="ssr:stedsnr" v="938013" />
	</node>
	<node id="-419043" lat="59.1052416683" lon="10.0813694427">
		<tag k="name" v="Seierstadtjønna" />
		<tag k="natural" v="water" />
		<tag k="ssr:stedsnr" v="755183" />
	</node>
	<node id="-419036" lat="59.1169388902" lon="9.92853889723">
		<tag k="name" v="Sandsuntjønna" />
		<tag k="natural" v="water" />
		<tag k="ssr:stedsnr" v="755157" />
	</node>
	<node id="-414939" lat="59.4295638922" lon="9.85218056006">
		<tag k="name" v="Tyskebekk" />
		<tag k="ssr:stedsnr" v="452253" />
		<tag k="waterway" v="stream" />
	</node>
	<node id="-419032" lat="59.0582861097" lon="9.90661388408">
		<tag k="name" v="Fagernes" />
		<tag k="natural" v="cape" />
		<tag k="ssr:stedsnr" v="755139" />
	</node>
	<node id="-414935" lat="59.037188886" lon="10.0756166686">
		<tag k="name" v="Hølabekken" />
		<tag k="ssr:stedsnr" v="452241" />
		<tag k="waterway" v="stream" />
	</node>
	<node id="-419021" lat="59.2139944427" lon="9.92140556338">
		<tag k="name" v="Sjølskott-tjønn" />
		<tag k="natural" v="water" />
		<tag k="ssr:stedsnr" v="755092" />
	</node>
	<node id="-414922" lat="59.2057111128" lon="9.92007221437">
		<tag k="name" v="Tværbekk" />
		<tag k="ssr:stedsnr" v="452084" />
		<tag k="waterway" v="stream" />
	</node>
	<node id="-419017" lat="59.3136611113" lon="9.82381388648">
		<tag k="name" v="Seterelva" />
		<tag k="ssr:stedsnr" v="755085" />
		<tag k="waterway" v="stream" />
	</node>
	<node id="-416968" lat="59.0537999962" lon="9.9327416711">
		<tag k="name" v="Eikedalselva" />
		<tag k="ssr:stedsnr" v="937223" />
		<tag k="waterway" v="stream" />
	</node>
	<node id="-414918" lat="59.3425277735" lon="9.9139805522">
		<tag k="name" v="Hoggtveita" />
		<tag k="place" v="islet" />
		<tag k="ssr:stedsnr" v="452185" />
	</node>
	<node id="-414917" lat="59.4125277817" lon="9.82398611373">
		<tag k="name" v="Stjernevann" />
		<tag k="natural" v="water" />
		<tag k="ssr:stedsnr" v="452182" />
	</node>
	<node id="-416963" lat="59.1878777799" lon="9.91621388148">
		<tag k="name" v="Store Limtjønn" />
		<tag k="natural" v="water" />
		<tag k="ssr:stedsnr" v="937016" />
	</node>
	<node id="-419009" lat="59.1620777769" lon="9.89789999388">
		<tag k="name" v="Kopperoddene" />
		<tag k="place" v="islet" />
		<tag k="ssr:stedsnr" v="755069" />
	</node>
	<node id="-419002" lat="59.2509000033" lon="9.9279444479">
		<tag k="name" v="Odbergelva" />
		<tag k="ssr:stedsnr" v="755052" />
		<tag k="waterway" v="river" />
	</node>
	<node id="-416953" lat="59.185930554" lon="10.0820249936">
		<tag k="name" v="Storelva" />
		<tag k="ssr:stedsnr" v="912313" />
		<tag k="waterway" v="river" />
	</node>
	<node id="-414904" lat="59.1015400837" lon="9.87818629485">
		<tag k="name" v="Solbottj." />
		<tag k="natural" v="water" />
		<tag k="ssr:stedsnr" v="452148" />
	</node>
	<node id="-416950" lat="59.1702083348" lon="10.0011999925">
		<tag k="name" v="Gjønnesvannet" />
		<tag k="natural" v="water" />
		<tag k="ssr:stedsnr" v="912220" />
	</node>
	<node id="-418991" lat="59.3826444488" lon="9.95491388313">
		<tag k="name" v="Slepern" />
		<tag k="place" v="locality" />
		<tag k="ssr:stedsnr" v="754998" />
	</node>
	<node id="-414892" lat="59.2169805514" lon="9.89253888606">
		<tag k="name" v="Fluarvann" />
		<tag k="natural" v="water" />
		<tag k="ssr:stedsnr" v="452076" />
	</node>
	<node id="-418987" lat="59.4432083346" lon="10.0056361121">
		<tag k="name" v="Streket" />
		<tag k="natural" v="beach" />
		<tag k="ssr:stedsnr" v="754863" />
	</node>
	<node id="-414887" lat="59.074666666" lon="10.1428472251">
		<tag k="name" v="Istre-bekken" />
		<tag k="ssr:stedsnr" v="452057" />
		<tag k="waterway" v="stream" />
	</node>
	<node id="-414885" lat="59.2491775896" lon="9.91235564603">
		<tag k="name" v="Odbergdammen" />
		<tag k="natural" v="water" />
		<tag k="ssr:stedsnr" v="452041" />
		<tag k="water" v="lake" />
	</node>
	<node id="-414881" lat="59.4579916638" lon="10.011491672">
		<tag k="name" v="Nordbyøyra" />
		<tag k="natural" v="shoal" />
		<tag k="place" v="locality" />
		<tag k="ssr:stedsnr" v="451887" />
	</node>
	<node id="-418976" lat="59.2566611088" lon="9.94550555666">
		<tag k="name" v="Odbergneset" />
		<tag k="natural" v="cape" />
		<tag k="ssr:stedsnr" v="754642" />
	</node>
	<node id="-416920" lat="59.391233335" lon="10.0443777724">
		<tag k="name" v="Tjønna" />
		<tag k="natural" v="water" />
		<tag k="ssr:stedsnr" v="877062" />
	</node>
	<node id="-414869" lat="59.2768277815" lon="9.9981805631">
		<tag k="name" v="Nordre Heivann" />
		<tag k="natural" v="water" />
		<tag k="ssr:stedsnr" v="451690" />
	</node>
	<node id="-416903" lat="59.0624783528" lon="10.1331441167">
		<tag k="name" v="Lille Trollsvannet" />
		<tag k="natural" v="water" />
		<tag k="ssr:stedsnr" v="852727" />
	</node>
	<node id="-416902" lat="59.4535055597" lon="9.78598333372">
		<tag k="name" v="Pommervann" />
		<tag k="natural" v="water" />
		<tag k="ssr:stedsnr" v="852525" />
	</node>
	<node id="-414850" lat="59.350663885" lon="9.88242222865">
		<tag k="name" v="Garilla" />
		<tag k="ssr:stedsnr" v="245356" />
		<tag k="waterway" v="river" />
	</node>
	<node id="-414849" lat="59.3226055582" lon="9.85728611577">
		<tag k="alt_name" v="Tveittjernet" />
		<tag k="name" v="Tveittjern" />
		<tag k="natural" v="water" />
		<tag k="ssr:stedsnr" v="245311" />
	</node>
	<node id="-414842" lat="59.0623083353" lon="10.0088388945">
		<tag k="alt_name" v="Farrisvatnet" />
		<tag k="name" v="Farris" />
		<tag k="natural" v="water" />
		<tag k="ssr:stedsnr" v="244615" />
		<tag k="water" v="lake" />
	</node>
	<node id="-414840" lat="59.0498277756" lon="9.90618055838">
		<tag k="name" v="Halleodden" />
		<tag k="natural" v="cape" />
		<tag k="ssr:stedsnr" v="244514" />
	</node>
	<node id="-414837" lat="59.0087660809" lon="9.87050102521">
		<tag k="alt_name" v="Torpevatnet" />
		<tag k="name" v="Torpevannet" />
		<tag k="natural" v="water" />
		<tag k="ssr:stedsnr" v="244262" />
		<tag k="water" v="lake" />
	</node>
	<node id="-416884" lat="59.3284777779" lon="9.80939443608">
		<tag k="name" v="Siljuvannsøya" />
		<tag k="place" v="island" />
		<tag k="ssr:stedsnr" v="938994" />
	</node>
	<node id="-416882" lat="59.4269666666" lon="9.78630278173">
		<tag k="name" v="Åthølen" />
		<tag k="natural" v="bay" />
		<tag k="ssr:stedsnr" v="938976" />
	</node>
	<node id="-416880" lat="59.3692527781" lon="9.80566943898">
		<tag k="name" v="Tvigreina" />
		<tag k="ssr:stedsnr" v="938965" />
		<tag k="waterway" v="river" />
	</node>
	<node id="-416878" lat="59.0636333313" lon="10.019588884">
		<tag k="name" v="Kilen" />
		<tag k="natural" v="bay" />
		<tag k="ssr:stedsnr" v="938935" />
	</node>
	<node id="-416872" lat="59.0111694478" lon="9.8681944434">
		<tag k="name" v="Svanevika" />
		<tag k="natural" v="bay" />
		<tag k="ssr:stedsnr" v="938443" />
	</node>
	<node id="-417296" lat="59.0373361089" lon="9.95096667306">
		<tag k="name" v="Steinsholttjønna" />
		<tag k="natural" v="water" />
		<tag k="old_name" v="Steinsholttjernet;Steinsholttjørna" />
		<tag k="ssr:stedsnr" v="62474" />
	</node>
	<node id="-414810" lat="59.0200527802" lon="10.1883805636">
		<tag k="name" v="Fokksundtjønna" />
		<tag k="natural" v="water" />
		<tag k="ssr:stedsnr" v="209934" />
	</node>
	<node id="-416854" lat="59.3394555531" lon="9.91157499712">
		<tag k="name" v="Kjerringhølen" />
		<tag k="place" v="locality" />
		<tag k="ssr:stedsnr" v="938185" />
	</node>
	<node id="-414805" lat="59.1171250005" lon="9.94765277216">
		<tag k="name" v="Kilegapet" />
		<tag k="natural" v="strait" />
		<tag k="ssr:stedsnr" v="209919" />
	</node>
	<node id="-416850" lat="59.3587416684" lon="9.92311666922">
		<tag k="name" v="Tangen" />
		<tag k="natural" v="cape" />
		<tag k="ssr:stedsnr" v="938147" />
	</node>
	<node id="-416847" lat="59.2812999976" lon="9.90020000784">
		<tag k="name" v="Berganelva" />
		<tag k="ssr:stedsnr" v="938049" />
		<tag k="waterway" v="stream" />
	</node>
	<node id="-416845" lat="59.3952750004" lon="9.94962499825">
		<tag k="name" v="Oppsalelva" />
		<tag k="ssr:stedsnr" v="937992" />
		<tag k="waterway" v="stream" />
	</node>
	<node id="-418891" lat="59.2381861084" lon="9.93641111083">
		<tag k="name" v="Gjeitebekken" />
		<tag k="ssr:stedsnr" v="633832" />
		<tag k="waterway" v="stream" />
	</node>
	<node id="-418890" lat="59.1717694431" lon="10.0406333262">
		<tag k="name" v="Allumbekken" />
		<tag k="ssr:stedsnr" v="633830" />
		<tag k="waterway" v="stream" />
	</node>
	<node id="-416840" lat="59.3931944418" lon="10.0309305597">
		<tag k="name" v="Svartebekk" />
		<tag k="ssr:stedsnr" v="937978" />
		<tag k="waterway" v="stream" />
	</node>
	<node id="-418885" lat="59.0427888869" lon="10.1774611143">
		<tag k="name" v="Skisakerbekken" />
		<tag k="ssr:stedsnr" v="633641" />
		<tag k="waterway" v="stream" />
	</node>
	<node id="-419337" lat="59.0230222187" lon="9.87024166854">
		<tag k="name" v="Strandsida" />
		<tag k="natural" v="beach" />
		<tag k="ssr:stedsnr" v="816413" />
	</node>
	<node id="-416820" lat="59.4414527751" lon="9.93996667461">
		<tag k="name" v="Kjønnbekk" />
		<tag k="ssr:stedsnr" v="937878" />
		<tag k="waterway" v="stream" />
	</node>
	<node id="-414768" lat="59.2309974565" lon="9.90318228778">
		<tag k="name" v="Småtjønnane" />
		<tag k="natural" v="water" />
		<tag k="ssr:stedsnr" v="209034" />
	</node>
	<node id="-414765" lat="59.0733500009" lon="10.0633638955">
		<tag k="name" v="Frydenlund" />
		<tag k="place" v="island" />
		<tag k="ssr:stedsnr" v="209030" />
	</node>
	<node id="-418857" lat="59.1016749989" lon="9.89154721848">
		<tag k="name" v="Nedre Steinstjønn" />
		<tag k="natural" v="water" />
		<tag k="ssr:stedsnr" v="633251" />
	</node>
	<node id="-418856" lat="59.1065638926" lon="9.92338889537">
		<tag k="name" v="Sandvika" />
		<tag k="natural" v="bay" />
		<tag k="ssr:stedsnr" v="633249" />
	</node>
	<node id="-416803" lat="59.2328583346" lon="9.96769444026">
		<tag k="name" v="Grastangen" />
		<tag k="natural" v="cape" />
		<tag k="ssr:stedsnr" v="937838" />
	</node>
	<node id="-418845" lat="59.0485694444" lon="9.93866944287">
		<tag k="name" v="Austein Langevann" />
		<tag k="natural" v="water" />
		<tag k="ssr:stedsnr" v="633142" />
	</node>
	<node id="-414748" lat="59.0405638929" lon="9.94548610882">
		<tag k="name" v="Dåpan" />
		<tag k="natural" v="water" />
		<tag k="ssr:stedsnr" v="209121" />
	</node>
	<node id="-418834" lat="59.3319805532" lon="9.90577778342">
		<tag k="name" v="Haugfoss" />
		<tag k="ssr:stedsnr" v="633092" />
		<tag k="waterway" v="river" />
	</node>
	<node id="-418828" lat="59.0738472213" lon="10.1357333274">
		<tag k="name" v="Vittersøbekken" />
		<tag k="ssr:stedsnr" v="633071" />
		<tag k="waterway" v="stream" />
	</node>
	<node id="-418822" lat="59.2054027788" lon="9.87189443724">
		<tag k="name" v="Tømmerbukta" />
		<tag k="natural" v="bay" />
		<tag k="ssr:stedsnr" v="633052" />
	</node>
	<node id="-416773" lat="59.0596777754" lon="9.87675278588">
		<tag k="name" v="Trettestykket" />
		<tag k="natural" v="cape" />
		<tag k="ssr:stedsnr" v="937184" />
	</node>
	<node id="-416772" lat="59.0577555554" lon="9.90280278546">
		<tag k="name" v="Griniskjær" />
		<tag k="place" v="islet" />
		<tag k="ssr:stedsnr" v="937182" />
	</node>
	<node id="-416768" lat="59.3085472236" lon="9.89091388482">
		<tag k="name" v="Varen" />
		<tag k="natural" v="beach" />
		<tag k="ssr:stedsnr" v="937170" />
	</node>
	<node id="-416758" lat="59.1085583344" lon="9.93336389649">
		<tag k="name" v="Skauøya" />
		<tag k="place" v="island" />
		<tag k="ssr:stedsnr" v="937262" />
	</node>
	<node id="-414709" lat="59.181411113" lon="10.1306166709">
		<tag k="name" v="Reppesgårdtangen" />
		<tag k="natural" v="cape" />
		<tag k="ssr:stedsnr" v="148812" />
	</node>
	<node id="-415230" lat="59.3613694475" lon="9.80813055053">
		<tag k="name" v="Øgardstjønn" />
		<tag k="natural" v="water" />
		<tag k="ssr:stedsnr" v="487381" />
	</node>
	<node id="-414705" lat="59.049458329" lon="10.1996194527">
		<tag k="name" v="Skisakerbekken" />
		<tag k="ssr:stedsnr" v="148667" />
		<tag k="waterway" v="stream" />
	</node>
	<node id="-418796" lat="59.0470138905" lon="9.96476110843">
		<tag k="name" v="Bakkanetjønna" />
		<tag k="natural" v="water" />
		<tag k="old_name" v="Bakkanetjernet;Bakkanetjørna" />
		<tag k="ssr:stedsnr" v="608523" />
	</node>
	<node id="-418792" lat="59.0634027811" lon="9.93960277389">
		<tag k="alt_name" v="Paulertjønn" />
		<tag k="name" v="Paulertjerna" />
		<tag k="natural" v="water" />
		<tag k="ssr:stedsnr" v="608478" />
	</node>
	<node id="-418784" lat="59.2074166659" lon="10.0718305635">
		<tag k="name" v="Svartåa" />
		<tag k="ssr:stedsnr" v="608147" />
		<tag k="waterway" v="river" />
	</node>
	<node id="-418782" lat="59.069977774" lon="9.99878334">
		<tag k="name" v="Geitøya" />
		<tag k="place" v="islet" />
		<tag k="ssr:stedsnr" v="608131" />
	</node>
	<node id="-418778" lat="59.1251361096" lon="10.0213750006">
		<tag k="alt_name" v="Lauvbuvann" />
		<tag k="name" v="Laubuvannet" />
		<tag k="natural" v="water" />
		<tag k="ssr:stedsnr" v="608037" />
		<tag k="water" v="lake" />
	</node>
	<node id="-418776" lat="59.3892333319" lon="9.88120833539">
		<tag k="alt_name" v="Lauvarvannet" />
		<tag k="name" v="Løvervann" />
		<tag k="natural" v="water" />
		<tag k="ssr:stedsnr" v="608265" />
	</node>
	<node id="-414677" lat="59.4131444469" lon="9.86415000195">
		<tag k="name" v="Sandbekk" />
		<tag k="ssr:stedsnr" v="148268" />
		<tag k="waterway" v="stream" />
	</node>
	<node id="-416724" lat="59.1912305525" lon="9.89101944642">
		<tag k="name" v="Skottangen" />
		<tag k="natural" v="cape" />
		<tag k="ssr:stedsnr" v="937022" />
	</node>
	<node id="-416723" lat="59.1889166689" lon="9.89462221382">
		<tag k="name" v="Kveldsvikodden" />
		<tag k="natural" v="cape" />
		<tag k="ssr:stedsnr" v="937021" />
	</node>
	<node id="-414672" lat="59.3808888923" lon="9.82733055732">
		<tag k="name" v="Bråkolltjern" />
		<tag k="natural" v="water" />
		<tag k="ssr:stedsnr" v="148258" />
	</node>
	<node id="-418763" lat="59.1396027773" lon="9.92006944364">
		<tag k="name" v="Døløya" />
		<tag k="place" v="island" />
		<tag k="ssr:stedsnr" v="607614" />
	</node>
	<node id="-418743" lat="59.1958888902" lon="9.95617500571">
		<tag k="name" v="Gylna" />
		<tag k="ssr:stedsnr" v="573989" />
		<tag k="waterway" v="stream" />
	</node>
	<node id="-414645" lat="59.1321749972" lon="9.92949721618">
		<tag k="name" v="Kråkesundet" />
		<tag k="natural" v="strait" />
		<tag k="ssr:stedsnr" v="148024" />
	</node>
	<node id="-418739" lat="59.4196722191" lon="9.78126110282">
		<tag k="name" v="Lusehita" />
		<tag k="natural" v="bay" />
		<tag k="ssr:stedsnr" v="573967" />
	</node>
	<node id="-414642" lat="59.1536166636" lon="9.93101110954">
		<tag k="name" v="Svartebekk" />
		<tag k="ssr:stedsnr" v="148021" />
		<tag k="waterway" v="stream" />
	</node>
	<node id="-414641" lat="59.1349194464" lon="9.90719721499">
		<tag k="name" v="Holmøya" />
		<tag k="place" v="islet" />
		<tag k="ssr:stedsnr" v="148011" />
	</node>
	<node id="-416688" lat="59.1230388889" lon="10.0791750005">
		<tag k="name" v="Limtjønna" />
		<tag k="natural" v="water" />
		<tag k="ssr:stedsnr" v="816857" />
	</node>
	<node id="-416686" lat="59.212069444" lon="9.96129723003">
		<tag k="name" v="Leirbekken" />
		<tag k="ssr:stedsnr" v="816820" />
		<tag k="waterway" v="stream" />
	</node>
	<node id="-414634" lat="59.4542222235" lon="9.97686666465">
		<tag k="name" v="Styrmobekken" />
		<tag k="ssr:stedsnr" v="147855" />
		<tag k="waterway" v="stream" />
	</node>
	<node id="-418728" lat="59.1646944406" lon="10.0622249992">
		<tag k="name" v="Høyvikøya" />
		<tag k="place" v="island" />
		<tag k="ssr:stedsnr" v="573777" />
	</node>
	<node id="-414628" lat="59.330825808" lon="9.93519003314">
		<tag k="name" v="Løkmyrdam" />
		<tag k="natural" v="water" />
		<tag k="ssr:stedsnr" v="147619" />
	</node>
	<node id="-418720" lat="59.2902999962" lon="9.8325972288">
		<tag k="name" v="Halvpundstjern" />
		<tag k="natural" v="water" />
		<tag k="ssr:stedsnr" v="573956" />
	</node>
	<node id="-414623" lat="59.0358944455" lon="10.1128055612">
		<tag k="name" v="Bjønnesbekken" />
		<tag k="ssr:stedsnr" v="271186" />
		<tag k="waterway" v="stream" />
	</node>
	<node id="-416669" lat="59.4066666656" lon="9.82169721364">
		<tag k="name" v="Øvre Grasdalsvann" />
		<tag k="natural" v="water" />
		<tag k="ssr:stedsnr" v="816206" />
	</node>
	<node id="-418716" lat="59.0821555597" lon="10.0161694432">
		<tag k="name" v="Holmen" />
		<tag k="place" v="islet" />
		<tag k="ssr:stedsnr" v="573897" />
	</node>
	<node id="-414611" lat="59.2004888867" lon="10.073755551">
		<tag k="name" v="Sandfossen" />
		<tag k="natural" v="waterfall" />
		<tag k="ssr:stedsnr" v="270828" />
	</node>
	<node id="-414607" lat="59.2179805548" lon="9.99331388386">
		<tag k="name" v="Farmenelva" />
		<tag k="ssr:stedsnr" v="270784" />
		<tag k="waterway" v="river" />
	</node>
	<node id="-416649" lat="59.2462972187" lon="9.91835555163">
		<tag k="name" v="Svartvann" />
		<tag k="natural" v="water" />
		<tag k="ssr:stedsnr" v="816057" />
		<tag k="water" v="lake" />
	</node>
	<node id="-418693" lat="59.014455559" lon="9.91196110579">
		<tag k="name" v="Halleelva" />
		<tag k="ssr:stedsnr" v="573400" />
		<tag k="waterway" v="stream" />
	</node>
	<node id="-416637" lat="59.453038891" lon="9.98724721799">
		<tag k="name" v="Seterhølbekken" />
		<tag k="ssr:stedsnr" v="815873" />
		<tag k="waterway" v="stream" />
	</node>
	<node id="-418683" lat="59.3485861083" lon="9.83770834058">
		<tag k="name" v="Nedre Sverkholttjern" />
		<tag k="natural" v="water" />
		<tag k="ssr:stedsnr" v="573226" />
	</node>
	<node id="-418679" lat="59.1092861087" lon="9.92768056289">
		<tag k="name" v="Hestøya" />
		<tag k="place" v="island" />
		<tag k="ssr:stedsnr" v="573222" />
	</node>
	<node id="-416628" lat="59.3031527754" lon="9.88217500257">
		<tag k="name" v="Røsholtelva" />
		<tag k="ssr:stedsnr" v="791374" />
		<tag k="waterway" v="stream" />
	</node>
	<node id="-416626" lat="59.2962750041" lon="9.95271388789">
		<tag k="name" v="Holtetjønn" />
		<tag k="natural" v="water" />
		<tag k="ssr:stedsnr" v="791360" />
	</node>
	<node id="-416623" lat="59.210913891" lon="9.89900832578">
		<tag k="alt_name" v="Vesle Surte" />
		<tag k="name" v="Diplane" />
		<tag k="natural" v="water" />
		<tag k="ssr:stedsnr" v="790765" />
	</node>
	<node id="-416622" lat="59.1857944428" lon="9.92836388537">
		<tag k="alt_name" v="Anundsjø" />
		<tag k="name" v="Anundsjøen" />
		<tag k="natural" v="water" />
		<tag k="ssr:stedsnr" v="790563" />
	</node>
	<node id="-418667" lat="59.3754555557" lon="9.86543056319">
		<tag k="name" v="Svartebekk" />
		<tag k="ssr:stedsnr" v="573193" />
		<tag k="waterway" v="stream" />
	</node>
	<node id="-414555" lat="59.0596444427" lon="9.90217776945">
		<tag k="name" v="Grinibukta" />
		<tag k="natural" v="bay" />
		<tag k="ssr:stedsnr" v="270150" />
	</node>
	<node id="-416588" lat="59.1951000035" lon="9.92984999493">
		<tag k="alt_name" v="Skjærsjø" />
		<tag k="name" v="Skjærsjøen" />
		<tag k="natural" v="water" />
		<tag k="ssr:stedsnr" v="912718" />
	</node>
	<node id="-417932" lat="59.1003500021" lon="9.91189722425">
		<tag k="name" v="Tverrbekken" />
		<tag k="ssr:stedsnr" v="209227" />
		<tag k="waterway" v="stream" />
	</node>
	<node id="-416580" lat="59.4490361147" lon="9.92224721808">
		<tag k="alt_name" v="Renneelva" />
		<tag k="name" v="Renne" />
		<tag k="ssr:stedsnr" v="912560" />
		<tag k="waterway" v="stream" />
	</node>
	<node id="-416579" lat="59.4361444402" lon="9.81775833016">
		<tag k="name" v="Holtevannet" />
		<tag k="natural" v="water" />
		<tag k="ssr:stedsnr" v="912528" />
	</node>
	<node id="-416578" lat="59.0460333376" lon="9.94950000258">
		<tag k="alt_name" v="Langevatnet" />
		<tag k="name" v="Langevann" />
		<tag k="natural" v="water" />
		<tag k="ssr:stedsnr" v="912520" />
	</node>
	<node id="-416577" lat="59.0343194416" lon="9.93873888054">
		<tag k="name" v="Melautjønna" />
		<tag k="natural" v="water" />
		<tag k="old_name" v="Melautjernet;Melautjørna" />
		<tag k="ssr:stedsnr" v="912497" />
	</node>
	<node id="-416576" lat="59.2803861084" lon="9.96076944127">
		<tag k="name" v="Hvarnesdammen" />
		<tag k="natural" v="water" />
		<tag k="ssr:stedsnr" v="912494" />
	</node>
	<node id="-414527" lat="59.2827305594" lon="9.88216944393">
		<tag k="name" v="Tjærehjellbekken" />
		<tag k="ssr:stedsnr" v="270024" />
		<tag k="waterway" v="stream" />
	</node>
	<node id="-414524" lat="58.9683777757" lon="9.84602778551">
		<tag k="name" v="Nevlungstranda" />
		<tag k="natural" v="beach" />
		<tag k="ssr:stedsnr" v="270381" />
	</node>
	<node id="-418618" lat="59.2693361138" lon="9.9820083356">
		<tag k="name" v="Søndre Hellenesdam" />
		<tag k="natural" v="water" />
		<tag k="ssr:stedsnr" v="572651" />
		<tag k="water" v="lake" />
	</node>
	<node id="-414517" lat="59.1028527821" lon="9.88127499323">
		<tag k="name" v="Snøplogen" />
		<tag k="ssr:stedsnr" v="270231" />
		<tag k="waterway" v="stream" />
	</node>
	<node id="-414516" lat="59.1105166678" lon="9.91566111112">
		<tag k="name" v="Kirkebukta" />
		<tag k="natural" v="bay" />
		<tag k="ssr:stedsnr" v="270230" />
	</node>
	<node id="-414514" lat="59.0506722252" lon="9.90770834075">
		<tag k="name" v="Langekil n." />
		<tag k="natural" v="bay" />
		<tag k="ssr:stedsnr" v="270200" />
	</node>
	<node id="-414509" lat="59.2971833324" lon="9.85073055623">
		<tag k="name" v="Østrevannsbekken" />
		<tag k="ssr:stedsnr" v="270179" />
		<tag k="waterway" v="stream" />
	</node>
	<node id="-418610" lat="59.2963194437" lon="9.94231111872">
		<tag k="name" v="Ulefoss" />
		<tag k="natural" v="waterfall" />
		<tag k="ssr:stedsnr" v="572561" />
	</node>
	<node id="-418601" lat="59.1225055525" lon="9.93127499615">
		<tag k="name" v="Vestervik" />
		<tag k="natural" v="bay" />
		<tag k="ssr:stedsnr" v="572007" />
	</node>
	<node id="-418599" lat="59.1811888854" lon="9.89602777373">
		<tag k="name" v="Maurøya" />
		<tag k="place" v="islet" />
		<tag k="ssr:stedsnr" v="572075" />
	</node>
	<node id="-418598" lat="59.1778416639" lon="9.90421944961">
		<tag k="name" v="Ramsdalsbukta" />
		<tag k="natural" v="bay" />
		<tag k="ssr:stedsnr" v="572073" />
	</node>
	<node id="-416549" lat="59.1054861077" lon="9.9907555544">
		<tag k="name" v="Donkiløya" />
		<tag k="place" v="islet" />
		<tag k="ssr:stedsnr" v="912072" />
	</node>
	<node id="-418594" lat="59.2728749972" lon="9.97959444631">
		<tag k="name" v="Hellenesdammen" />
		<tag k="natural" v="water" />
		<tag k="ssr:stedsnr" v="549899" />
	</node>
	<node id="-414492" lat="59.4189888892" lon="10.0371833316">
		<tag k="name" v="Mobekken" />
		<tag k="ssr:stedsnr" v="269526" />
		<tag k="waterway" v="stream" />
	</node>
	<node id="-418586" lat="59.4338467837" lon="9.78909755006">
		<tag k="alt_name" v="Butjern" />
		<tag k="name" v="Burtjern" />
		<tag k="natural" v="water" />
		<tag k="ssr:stedsnr" v="548519" />
	</node>
	<node id="-414489" lat="59.3252527775" lon="10.0140611106">
		<tag k="name" v="Bølevannsfossen" />
		<tag k="natural" v="waterfall" />
		<tag k="ssr:stedsnr" v="269628" />
	</node>
	<node id="-418578" lat="59.3617249989" lon="9.80328610924">
		<tag k="name" v="Siljuvannet" />
		<tag k="natural" v="water" />
		<tag k="ssr:stedsnr" v="548388" />
		<tag k="water" v="lake" />
	</node>
	<node id="-418576" lat="59.3263416708" lon="9.8007583257">
		<tag k="name" v="Breivann" />
		<tag k="natural" v="water" />
		<tag k="ssr:stedsnr" v="548348" />
	</node>
	<node id="-414478" lat="59.3846611139" lon="9.83269166062">
		<tag k="alt_name" v="Bråkolltjern" />
		<tag k="name" v="Bråkalltjerna" />
		<tag k="natural" v="water" />
		<tag k="ssr:stedsnr" v="123319" />
	</node>
	<node id="-418567" lat="59.1449222261" lon="9.91201388358">
		<tag k="name" v="Tangen" />
		<tag k="natural" v="cape" />
		<tag k="ssr:stedsnr" v="548266" />
	</node>
	<node id="-414469" lat="59.3464083375" lon="10.0015277753">
		<tag k="name" v="Saulaugtjern" />
		<tag k="natural" v="water" />
		<tag k="ssr:stedsnr" v="88507" />
	</node>
	<node id="-414460" lat="59.4084805547" lon="9.8282666665">
		<tag k="name" v="Bikkjevann" />
		<tag k="natural" v="water" />
		<tag k="ssr:stedsnr" v="88153" />
	</node>
	<node id="-416507" lat="59.3561833359" lon="9.79825833634">
		<tag k="name" v="Løken" />
		<tag k="natural" v="water" />
		<tag k="ssr:stedsnr" v="730372" />
	</node>
	<node id="-416506" lat="59.3331388896" lon="9.79480555918">
		<tag k="alt_name" v="Langevann" />
		<tag k="name" v="Langvann" />
		<tag k="natural" v="water" />
		<tag k="ssr:stedsnr" v="730365" />
		<tag k="water" v="lake" />
	</node>
	<node id="-414457" lat="59.0490055516" lon="9.92491110506">
		<tag k="name" v="Lundsbukta" />
		<tag k="natural" v="bay" />
		<tag k="ssr:stedsnr" v="88143" />
	</node>
	<node id="-414456" lat="59.3695333357" lon="9.82460278213">
		<tag k="name" v="Kolsoset" />
		<tag k="natural" v="bay" />
		<tag k="ssr:stedsnr" v="88139" />
	</node>
	<node id="-416499" lat="59.1088194426" lon="9.99593610583">
		<tag k="alt_name" v="Hallingsdaltjønna" />
		<tag k="name" v="Hallingsdalsvannet" />
		<tag k="natural" v="water" />
		<tag k="ssr:stedsnr" v="730061" />
	</node>
	<node id="-414436" lat="59.4247833338" lon="9.80795000746">
		<tag k="alt_name" v="Sætertjern" />
		<tag k="name" v="Setertjern" />
		<tag k="natural" v="water" />
		<tag k="ssr:stedsnr" v="245535" />
	</node>
	<node id="-416478" lat="59.0558555543" lon="10.0114111095">
		<tag k="alt_name" v="Eidet" />
		<tag k="name" v="Farriseidet" />
		<tag k="natural" v="strait" />
		<tag k="ssr:stedsnr" v="695917" />
	</node>
	<node id="-418519" lat="59.174874996" lon="10.1409000029">
		<tag k="name" v="Goksjø" />
		<tag k="natural" v="water" />
		<tag k="ssr:stedsnr" v="547200" />
		<tag k="water" v="lake" />
	</node>
	<node id="-416888" lat="59.1286111136" lon="9.92471943846">
		<tag k="name" v="Eikenesøya" />
		<tag k="place" v="island" />
		<tag k="ssr:stedsnr" v="851557" />
	</node>
	<node id="-414412" lat="59.0475611106" lon="9.97303610495">
		<tag k="alt_name" v="Ulfsbakktjønn" />
		<tag k="name" v="Ulfsbakktjern" />
		<tag k="natural" v="water" />
		<tag k="ssr:stedsnr" v="244199" />
	</node>
	<node id="-416459" lat="59.3410027803" lon="9.91312500453">
		<tag k="name" v="Grinievjua" />
		<tag k="natural" v="water" />
		<tag k="ssr:stedsnr" v="695214" />
		<tag k="water" v="lake" />
	</node>
	<node id="-416457" lat="59.0956388866" lon="9.89891388897">
		<tag k="name" v="Lille Krokstjønn" />
		<tag k="natural" v="water" />
		<tag k="ssr:stedsnr" v="695203" />
	</node>
	<node id="-414404" lat="59.0321166633" lon="9.93538889592">
		<tag k="name" v="Torsteintjønna" />
		<tag k="natural" v="water" />
		<tag k="ssr:stedsnr" v="242095" />
	</node>
	<node id="-416451" lat="59.3207472218" lon="9.8950055503">
		<tag k="name" v="Rundmælen" />
		<tag k="natural" v="shoal" />
		<tag k="place" v="locality" />
		<tag k="ssr:stedsnr" v="695114" />
	</node>
	<node id="-414397" lat="59.0519133661" lon="10.0184874843">
		<tag k="name" v="Farriselva" />
		<tag k="ssr:stedsnr" v="237071" />
		<tag k="waterway" v="river" />
	</node>
	<node id="-416444" lat="59.1702111118" lon="9.97781388361">
		<tag k="name" v="Ødegårdselva" />
		<tag k="ssr:stedsnr" v="694958" />
		<tag k="waterway" v="stream" />
	</node>
	<node id="-416437" lat="59.4438722247" lon="10.0187277773">
		<tag k="name" v="Skjervenelva" />
		<tag k="ssr:stedsnr" v="694866" />
		<tag k="waterway" v="stream" />
	</node>
	<node id="-414383" lat="59.103530553" lon="9.95792778038">
		<tag k="name" v="Gardskjær" />
		<tag k="place" v="islet" />
		<tag k="ssr:stedsnr" v="27915" />
	</node>
	<node id="-416427" lat="59.1189472214" lon="9.96709443709">
		<tag k="name" v="Lusetangen" />
		<tag k="natural" v="cape" />
		<tag k="ssr:stedsnr" v="694910" />
	</node>
	<node id="-418469" lat="59.2424805594" lon="10.0130666672">
		<tag k="alt_name" v="Firfislevann" />
		<tag k="name" v="Firfislevannet" />
		<tag k="natural" v="water" />
		<tag k="ssr:stedsnr" v="426320" />
	</node>
	<node id="-418468" lat="59.0660666628" lon="9.91822221935">
		<tag k="alt_name" v="Vassbotnfjorden" />
		<tag k="name" v="Vassbotnvannet" />
		<tag k="natural" v="water" />
		<tag k="ssr:stedsnr" v="426449" />
		<tag k="water" v="lake" />
	</node>
	<node id="-419270" lat="59.3158611146" lon="9.85440833619">
		<tag k="name" v="Siljudammen" />
		<tag k="natural" v="water" />
		<tag k="ssr:stedsnr" v="816093" />
	</node>
	<node id="-416409" lat="59.4204750013" lon="9.98978610817">
		<tag k="name" v="Pinnestadøya" />
		<tag k="place" v="islet" />
		<tag k="ssr:stedsnr" v="694503" />
	</node>
	<node id="-416405" lat="59.1429016107" lon="9.82947020983">
		<tag k="name" v="Småvannene" />
		<tag k="natural" v="water" />
		<tag k="ssr:stedsnr" v="694209" />
	</node>
	<node id="-416401" lat="59.0747971964" lon="9.95033523658">
		<tag k="name" v="Stegaklovtjønn" />
		<tag k="natural" v="water" />
		<tag k="ssr:stedsnr" v="694060" />
	</node>
	<node id="-418447" lat="59.1103361095" lon="9.97881389624">
		<tag k="name" v="Skuta" />
		<tag k="place" v="islet" />
		<tag k="ssr:stedsnr" v="391944" />
	</node>
	<node id="-418446" lat="59.1174972214" lon="9.97755278219">
		<tag k="name" v="Mellomøya" />
		<tag k="place" v="islet" />
		<tag k="ssr:stedsnr" v="391942" />
	</node>
	<node id="-418438" lat="59.3405277806" lon="9.98377223008">
		<tag k="name" v="Matholbekken" />
		<tag k="ssr:stedsnr" v="391724" />
		<tag k="waterway" v="stream" />
	</node>
	<node id="-414337" lat="59.1826722229" lon="9.90420556077">
		<tag k="name" v="Ramdalstjønn" />
		<tag k="natural" v="water" />
		<tag k="ssr:stedsnr" v="27012" />
	</node>
	<node id="-418431" lat="59.1661583314" lon="10.1348138968">
		<tag k="name" v="Askedalsbukta" />
		<tag k="natural" v="bay" />
		<tag k="ssr:stedsnr" v="391798" />
	</node>
	<node id="-414329" lat="59.2553305538" lon="9.96339999207">
		<tag k="name" v="Hellenesbekken" />
		<tag k="ssr:stedsnr" v="26611" />
		<tag k="waterway" v="stream" />
	</node>
	<node id="-416375" lat="59.4293388917" lon="9.80327777321">
		<tag k="name" v="Knuvle" />
		<tag k="natural" v="cape" />
		<tag k="ssr:stedsnr" v="877976" />
	</node>
	<node id="-414321" lat="59.1472527771" lon="10.011930564">
		<tag k="alt_name" v="Bjerketjønna" />
		<tag k="name" v="Bjørketjerna" />
		<tag k="natural" v="water" />
		<tag k="ssr:stedsnr" v="2250" />
	</node>
	<node id="-414317" lat="59.3700111149" lon="10.0385777798">
		<tag k="alt_name" v="Barlindtjern" />
		<tag k="name" v="Barlindtjernet" />
		<tag k="natural" v="water" />
		<tag k="ssr:stedsnr" v="2206" />
	</node>
	<node id="-416358" lat="59.0711305534" lon="10.1911888802">
		<tag k="name" v="Syrristelv" />
		<tag k="ssr:stedsnr" v="877924" />
		<tag k="waterway" v="river" />
	</node>
	<node id="-418398" lat="59.2126166689" lon="9.90029444005">
		<tag k="name" v="Halvorsdippet" />
		<tag k="natural" v="water" />
		<tag k="ssr:stedsnr" v="391095" />
	</node>
	<node id="-417891" lat="59.0573027812" lon="9.89837499232">
		<tag k="name" v="Paradis" />
		<tag k="natural" v="bay" />
		<tag k="ssr:stedsnr" v="209146" />
	</node>
	<node id="-418380" lat="59.0512166692" lon="9.91410555102">
		<tag k="name" v="Dunkjevlebukta" />
		<tag k="natural" v="bay" />
		<tag k="ssr:stedsnr" v="391188" />
	</node>
	<node id="-418377" lat="59.3646888926" lon="9.82893610396">
		<tag k="name" v="Makrellbekken" />
		<tag k="ssr:stedsnr" v="391181" />
		<tag k="waterway" v="stream" />
	</node>
	<node id="-416323" lat="59.0103388856" lon="9.88364444709">
		<tag k="name" v="Hellesrødtjønna" />
		<tag k="natural" v="water" />
		<tag k="ssr:stedsnr" v="877434" />
	</node>
	<node id="-416322" lat="59.0077805585" lon="9.86729999288">
		<tag k="name" v="Svanevika" />
		<tag k="natural" v="bay" />
		<tag k="ssr:stedsnr" v="877431" />
	</node>
	<node id="-417205" lat="59.3593111123" lon="10.0004166623">
		<tag k="name" v="Suklekil" />
		<tag k="natural" v="water" />
		<tag k="ssr:stedsnr" v="27576" />
	</node>
	<node id="-418363" lat="59.3882222211" lon="9.97236388903">
		<tag k="name" v="Gavelstadelva" />
		<tag k="ssr:stedsnr" v="390994" />
		<tag k="waterway" v="river" />
	</node>
	<node id="-416309" lat="59.0875722246" lon="9.89657222428">
		<tag k="name" v="Moltekilen" />
		<tag k="ssr:stedsnr" v="877285" />
		<tag k="waterway" v="stream" />
	</node>
	<node id="-416307" lat="59.0355555583" lon="10.0538888861">
		<tag k="name" v="Hvittensand" />
		<tag k="natural" v="beach" />
		<tag k="ssr:stedsnr" v="877283" />
	</node>
	<node id="-416302" lat="59.4446444441" lon="9.89638888628">
		<tag k="name" v="Jønnbekk" />
		<tag k="ssr:stedsnr" v="877252" />
		<tag k="waterway" v="stream" />
	</node>
	<node id="-418341" lat="59.2370750005" lon="9.91287500222">
		<tag k="name" v="Holmenbekken" />
		<tag k="ssr:stedsnr" v="391067" />
		<tag k="waterway" v="stream" />
	</node>
	<node id="-416291" lat="59.0809584218" lon="9.87719224265">
		<tag k="name" v="Solumdam" />
		<tag k="natural" v="water" />
		<tag k="ssr:stedsnr" v="877223" />
	</node>
	<node id="-417883" lat="59.3130666696" lon="9.92427777686">
		<tag k="name" v="Svartvannet" />
		<tag k="natural" v="water" />
		<tag k="ssr:stedsnr" v="209126" />
	</node>
	<node id="-418565" lat="59.3968138898" lon="10.0317944448">
		<tag k="name" v="Flåtavannet" />
		<tag k="natural" v="water" />
		<tag k="ssr:stedsnr" v="548229" />
	</node>
	<node id="-416858" lat="59.085038885" lon="9.90758611776">
		<tag k="name" v="Sletholtjønna" />
		<tag k="natural" v="water" />
		<tag k="ssr:stedsnr" v="938257" />
	</node>
	<node id="-418329" lat="59.4112527773" lon="9.9603333411">
		<tag k="name" v="Galtebekk" />
		<tag k="ssr:stedsnr" v="390468" />
		<tag k="waterway" v="stream" />
	</node>
	<node id="-416275" lat="59.3066444431" lon="9.89314722999">
		<tag k="name" v="Strandene" />
		<tag k="natural" v="beach" />
		<tag k="ssr:stedsnr" v="877133" />
	</node>
	<node id="-418318" lat="59.496725003" lon="9.92621943883">
		<tag k="alt_name" v="Numedalslågen" />
		<tag k="name" v="Lågen" />
		<tag k="ssr:stedsnr" v="366578" />
		<tag k="waterway" v="river" />
	</node>
	<node id="-418316" lat="59.4107361074" lon="9.80131111584">
		<tag k="alt_name" v="Djupedalsvann" />
		<tag k="name" v="Djupedalsvannet" />
		<tag k="natural" v="water" />
		<tag k="ssr:stedsnr" v="366562" />
	</node>
	<node id="-418315" lat="59.4142277799" lon="9.9117722165">
		<tag k="name" v="Herlandselva" />
		<tag k="ssr:stedsnr" v="366557" />
		<tag k="waterway" v="river" />
	</node>
	<node id="-418311" lat="59.4437388922" lon="9.90771666479">
		<tag k="name" v="Ormetjønn" />
		<tag k="natural" v="water" />
		<tag k="ssr:stedsnr" v="366546" />
	</node>
	<node id="-418310" lat="59.4310666649" lon="9.79706666794">
		<tag k="alt_name" v="Siljuvann" />
		<tag k="name" v="Siljuvannet" />
		<tag k="natural" v="water" />
		<tag k="ssr:stedsnr" v="366528" />
		<tag k="water" v="lake" />
	</node>
	<node id="-416254" lat="59.1293388908" lon="9.94252222263">
		<tag k="name" v="Fiskøya" />
		<tag k="place" v="island" />
		<tag k="ssr:stedsnr" v="876989" />
	</node>
	<node id="-416253" lat="59.1279805568" lon="9.96853611328">
		<tag k="name" v="Brentbekken" />
		<tag k="ssr:stedsnr" v="876978" />
		<tag k="waterway" v="stream" />
	</node>
	<node id="-418299" lat="59.3377388857" lon="9.81349722996">
		<tag k="alt_name" v="Misuringsvannet" />
		<tag k="name" v="Misuringsvann" />
		<tag k="natural" v="water" />
		<tag k="ssr:stedsnr" v="366359" />
	</node>
	<node id="-416242" lat="59.4594444461" lon="9.94244999418">
		<tag k="name" v="Asmyrvann" />
		<tag k="natural" v="water" />
		<tag k="ssr:stedsnr" v="876883" />
	</node>
	<node id="-418287" lat="59.0555583358" lon="9.98989166193">
		<tag k="alt_name" v="Kleivertjønn" />
		<tag k="name" v="Kleivertjern" />
		<tag k="natural" v="water" />
		<tag k="ssr:stedsnr" v="366156" />
	</node>
	<node id="-416238" lat="59.4526166625" lon="9.99913056212">
		<tag k="name" v="Fossa" />
		<tag k="natural" v="bay" />
		<tag k="ssr:stedsnr" v="876865" />
	</node>
	<node id="-414802" lat="59.1136749961" lon="9.98888332608">
		<tag k="name" v="Skrekkebekk" />
		<tag k="ssr:stedsnr" v="209907" />
		<tag k="waterway" v="stream" />
	</node>
	<node id="-418282" lat="59.2632305545" lon="9.85116110393">
		<tag k="name" v="Bøvannet" />
		<tag k="natural" v="water" />
		<tag k="ssr:stedsnr" v="366028" />
	</node>
	<node id="-416233" lat="59.4338055518" lon="9.99366110254">
		<tag k="name" v="Ødegårdshølen" />
		<tag k="place" v="locality" />
		<tag k="ssr:stedsnr" v="876846" />
	</node>
	<node id="-416226" lat="59.3737277768" lon="9.94304721944">
		<tag k="name" v="Sarumelva" />
		<tag k="ssr:stedsnr" v="876730" />
		<tag k="waterway" v="river" />
	</node>
	<node id="-418555" lat="59.4629833342" lon="10.0417305492">
		<tag k="alt_name" v="Lindtjern" />
		<tag k="name" v="Lindtjernet" />
		<tag k="natural" v="water" />
		<tag k="ssr:stedsnr" v="548092" />
	</node>
	<node id="-416208" lat="59.1611361109" lon="9.90398055025">
		<tag k="name" v="Lauvika" />
		<tag k="natural" v="bay" />
		<tag k="ssr:stedsnr" v="876228" />
	</node>
	<node id="-416203" lat="59.2880722236" lon="9.97116945254">
		<tag k="name" v="Øyvannet" />
		<tag k="natural" v="water" />
		<tag k="ssr:stedsnr" v="731847" />
	</node>
	<node id="-418249" lat="59.0395305528" lon="9.92833888563">
		<tag k="alt_name" v="Thorsjø" />
		<tag k="name" v="Torsjøen" />
		<tag k="natural" v="water" />
		<tag k="ssr:stedsnr" v="363454" />
	</node>
	<node id="-416195" lat="59.4601388865" lon="9.85098055144">
		<tag k="name" v="Bergandammen" />
		<tag k="ssr:stedsnr" v="730664" />
		<tag k="waterway" v="dam" />
	</node>
	<node id="-416189" lat="59.237977779" lon="10.0082861049">
		<tag k="alt_name" v="Jeskovann" />
		<tag k="name" v="Jeskovannet" />
		<tag k="natural" v="water" />
		<tag k="ssr:stedsnr" v="730326" />
	</node>
	<node id="-418216" lat="59.4589055565" lon="9.83730832609">
		<tag k="name" v="Deilsbekken" />
		<tag k="ssr:stedsnr" v="331246" />
		<tag k="waterway" v="stream" />
	</node>
	<node id="-418207" lat="59.171916671" lon="9.97012778644">
		<tag k="name" v="Sprena" />
		<tag k="ssr:stedsnr" v="330972" />
		<tag k="waterway" v="stream" />
	</node>
	<node id="-418206" lat="59.174005557" lon="9.99748055038">
		<tag k="name" v="Gylna" />
		<tag k="ssr:stedsnr" v="330966" />
		<tag k="waterway" v="stream" />
	</node>
	<node id="-418585" lat="59.2870972256" lon="9.83459721582">
		<tag k="name" v="Østervannet" />
		<tag k="natural" v="water" />
		<tag k="ssr:stedsnr" v="548502" />
	</node>
	<node id="-418199" lat="59.0780833309" lon="9.94943054898">
		<tag k="name" v="Malerødtjønna" />
		<tag k="natural" v="water" />
		<tag k="ssr:stedsnr" v="330943" />
	</node>
	<node id="-418195" lat="59.4488222243" lon="10.0002388815">
		<tag k="name" v="Svensken" />
		<tag k="natural" v="beach" />
		<tag k="ssr:stedsnr" v="330900" />
	</node>
	<node id="-418193" lat="59.4521833343" lon="10.0403027787">
		<tag k="name" v="Lindtjernbekken" />
		<tag k="ssr:stedsnr" v="330888" />
		<tag k="waterway" v="stream" />
	</node>
	<node id="-416140" lat="59.4587277748" lon="9.8057333305">
		<tag k="name" v="Høymyrdammen" />
		<tag k="natural" v="water" />
		<tag k="ssr:stedsnr" v="634959" />
	</node>
	<node id="-416135" lat="59.3875055532" lon="9.83616665943">
		<tag k="name" v="Gørrtjern" />
		<tag k="natural" v="water" />
		<tag k="ssr:stedsnr" v="634259" />
	</node>
	<node id="-418182" lat="59.1905583374" lon="10.12389166">
		<tag k="name" v="Katteskjæret" />
		<tag k="place" v="islet" />
		<tag k="ssr:stedsnr" v="330840" />
	</node>
	<node id="-416128" lat="59.2750638865" lon="9.91343333523">
		<tag k="name" v="Hotrambekken" />
		<tag k="ssr:stedsnr" v="634016" />
		<tag k="waterway" v="stream" />
	</node>
	<node id="-418175" lat="59.3435194404" lon="9.95685000504">
		<tag k="name" v="Krokvann" />
		<tag k="natural" v="water" />
		<tag k="ssr:stedsnr" v="330733" />
	</node>
	<node id="-418169" lat="59.3747833314" lon="10.0029861177">
		<tag k="name" v="Lomvannet" />
		<tag k="natural" v="water" />
		<tag k="ssr:stedsnr" v="330577" />
	</node>
	<node id="-416119" lat="59.1069194477" lon="9.96409167544">
		<tag k="name" v="Hønsøya" />
		<tag k="place" v="islet" />
		<tag k="ssr:stedsnr" v="633923" />
	</node>
	<node id="-416110" lat="59.3681527804" lon="9.94025833602">
		<tag k="name" v="Neset" />
		<tag k="natural" v="cape" />
		<tag k="ssr:stedsnr" v="633755" />
	</node>
	<node id="-418157" lat="59.4092666652" lon="9.97948888042">
		<tag k="name" v="Kallebergøya" />
		<tag k="place" v="islet" />
		<tag k="ssr:stedsnr" v="330541" />
	</node>
	<node id="-416103" lat="59.0448722242" lon="10.2043916606">
		<tag k="name" v="Holtantjønna" />
		<tag k="natural" v="water" />
		<tag k="ssr:stedsnr" v="633656" />
	</node>
	<node id="-416102" lat="59.2920305587" lon="10.004166674">
		<tag k="name" v="Seterbekken" />
		<tag k="ssr:stedsnr" v="633617" />
		<tag k="waterway" v="stream" />
	</node>
	<node id="-416101" lat="59.3034694458" lon="9.9741944358">
		<tag k="name" v="Olasmyrbekken" />
		<tag k="ssr:stedsnr" v="633610" />
		<tag k="waterway" v="stream" />
	</node>
	<node id="-418147" lat="59.0631000042" lon="10.1313638872">
		<tag k="name" v="Lilletjønna" />
		<tag k="natural" v="water" />
		<tag k="ssr:stedsnr" v="330247" />
	</node>
	<node id="-416089" lat="59.1467171939" lon="9.85165047437">
		<tag k="name" v="Iglestjern" />
		<tag k="natural" v="water" />
		<tag k="ssr:stedsnr" v="633266" />
	</node>
	<node id="-417508" lat="59.1210027818" lon="9.98334166368">
		<tag k="name" v="Brurberget" />
		<tag k="natural" v="cape" />
		<tag k="ssr:stedsnr" v="88981" />
	</node>
	<node id="-416082" lat="59.3992861153" lon="10.0523166721">
		<tag k="name" v="Hems-bekken" />
		<tag k="ssr:stedsnr" v="633219" />
		<tag k="waterway" v="stream" />
	</node>
	<node id="-416076" lat="59.1073472224" lon="10.0934333387">
		<tag k="name" v="Dammane" />
		<tag k="ssr:stedsnr" v="633207" />
		<tag k="waterway" v="dam" />
	</node>
	<node id="-418121" lat="59.0649027746" lon="9.94557500147">
		<tag k="name" v="Paulertjønn" />
		<tag k="natural" v="water" />
		<tag k="ssr:stedsnr" v="330083" />
	</node>
	<node id="-416066" lat="59.038127775" lon="9.8260416586">
		<tag k="alt_name" v="Budammen" />
		<tag k="name" v="Buadammen" />
		<tag k="natural" v="water" />
		<tag k="ssr:stedsnr" v="633160" />
	</node>
	<node id="-416060" lat="59.4633833358" lon="10.062602771">
		<tag k="name" v="Småtjern" />
		<tag k="natural" v="water" />
		<tag k="ssr:stedsnr" v="633116" />
	</node>
	<node id="-418107" lat="59.3279749992" lon="10.0158055632">
		<tag k="name" v="Bølevannet" />
		<tag k="natural" v="water" />
		<tag k="ssr:stedsnr" v="306786" />
	</node>
	<node id="-418868" lat="59.3255777768" lon="9.93582778562">
		<tag k="name" v="Rogndalsbekken" />
		<tag k="ssr:stedsnr" v="633686" />
		<tag k="waterway" v="stream" />
	</node>
	<node id="-416052" lat="59.1324500009" lon="9.84666945254">
		<tag k="name" v="Langevann" />
		<tag k="natural" v="water" />
		<tag k="ssr:stedsnr" v="633024" />
	</node>
	<node id="-418098" lat="59.3599805554" lon="10.0067000022">
		<tag k="name" v="Lille Åletjønn" />
		<tag k="natural" v="water" />
		<tag k="ssr:stedsnr" v="306201" />
	</node>
	<node id="-416046" lat="59.1842682101" lon="9.92103023226">
		<tag k="name" v="Lille Limtjønn" />
		<tag k="natural" v="water" />
		<tag k="ssr:stedsnr" v="633011" />
	</node>
	<node id="-418090" lat="59.4200805575" lon="9.80634165873">
		<tag k="alt_name" v="Steinmelvann" />
		<tag k="name" v="Steinmælvannet" />
		<tag k="natural" v="water" />
		<tag k="ssr:stedsnr" v="305609" />
	</node>
	<node id="-418089" lat="59.1912305596" lon="9.90150278113">
		<tag k="name" v="Kveldsvika" />
		<tag k="natural" v="bay" />
		<tag k="ssr:stedsnr" v="305592" />
	</node>
	<node id="-416038" lat="59.2758159329" lon="9.99967037595">
		<tag k="name" v="Slira" />
		<tag k="natural" v="water" />
		<tag k="ssr:stedsnr" v="610921" />
	</node>
	<node id="-418080" lat="59.1144805597" lon="9.93553333172">
		<tag k="name" v="Bjørnøya" />
		<tag k="place" v="island" />
		<tag k="ssr:stedsnr" v="305425" />
	</node>
	<node id="-418864" lat="59.0781083379" lon="10.196505553">
		<tag k="name" v="Syrristelva" />
		<tag k="ssr:stedsnr" v="633532" />
		<tag k="waterway" v="stream" />
	</node>
	<node id="-416030" lat="59.1885500016" lon="9.99272499479">
		<tag k="name" v="Holmfoss" />
		<tag k="natural" v="waterfall" />
		<tag k="ssr:stedsnr" v="608172" />
	</node>
	<node id="-418075" lat="59.2989638878" lon="9.82362778551">
		<tag k="name" v="Bergavannet" />
		<tag k="natural" v="water" />
		<tag k="ssr:stedsnr" v="305400" />
	</node>
	<node id="-418069" lat="59.3584472232" lon="9.88246944998">
		<tag k="name" v="Gåserudtjønn" />
		<tag k="natural" v="water" />
		<tag k="ssr:stedsnr" v="305379" />
	</node>
	<node id="-418067" lat="59.3239972235" lon="9.9252250067">
		<tag k="name" v="Nauvannet" />
		<tag k="natural" v="water" />
		<tag k="ssr:stedsnr" v="305335" />
	</node>
	<node id="-418064" lat="59.1749694477" lon="10.1172361056">
		<tag k="alt_name" v="Åshildrødtjerna" />
		<tag k="name" v="Åshildrødtjernet" />
		<tag k="natural" v="water" />
		<tag k="ssr:stedsnr" v="305200" />
	</node>
	<node id="-416015" lat="58.9915611149" lon="9.92251389514">
		<tag k="name" v="Bergselva" />
		<tag k="ssr:stedsnr" v="607606" />
		<tag k="waterway" v="stream" />
	</node>
	<node id="-418055" lat="59.1070750028" lon="10.0583777748">
		<tag k="name" v="Skautjønn" />
		<tag k="natural" v="water" />
		<tag k="ssr:stedsnr" v="305068" />
	</node>
	<node id="-416005" lat="59.1051666702" lon="9.99281666955">
		<tag k="name" v="Donekilen" />
		<tag k="natural" v="strait" />
		<tag k="ssr:stedsnr" v="573938" />
	</node>
	<node id="-416000" lat="59.1132055565" lon="9.95922777045">
		<tag k="name" v="Halvorsøya" />
		<tag k="place" v="islet" />
		<tag k="ssr:stedsnr" v="573921" />
	</node>
	<node id="-415997" lat="59.1457111122" lon="9.95989166324">
		<tag k="name" v="Lysebobekken" />
		<tag k="ssr:stedsnr" v="573910" />
		<tag k="waterway" v="stream" />
	</node>
	<node id="-418040" lat="59.3922694411" lon="10.0482750024">
		<tag k="name" v="Tolvmannstjønn" />
		<tag k="natural" v="water" />
		<tag k="ssr:stedsnr" v="305217" />
	</node>
	<node id="-415989" lat="59.4387972197" lon="9.8275888809">
		<tag k="name" v="Holtevannsbekken" />
		<tag k="ssr:stedsnr" v="573257" />
		<tag k="waterway" v="stream" />
	</node>
	<node id="-415987" lat="59.0685027744" lon="9.87473055358">
		<tag k="name" v="Solum-elva" />
		<tag k="ssr:stedsnr" v="573143" />
		<tag k="waterway" v="stream" />
	</node>
	<node id="-418029" lat="59.0941916701" lon="9.8595305551">
		<tag k="name" v="Skjeggtj." />
		<tag k="natural" v="water" />
		<tag k="ssr:stedsnr" v="210241" />
	</node>
	<node id="-415972" lat="59.4443472183" lon="10.0103805547">
		<tag k="name" v="Evjua" />
		<tag k="ssr:stedsnr" v="572877" />
		<tag k="waterway" v="river" />
	</node>
	<node id="-415969" lat="59.4221916672" lon="9.94546944424">
		<tag k="name" v="Rennehøla" />
		<tag k="place" v="locality" />
		<tag k="ssr:stedsnr" v="572858" />
	</node>
	<node id="-415967" lat="59.3771249994" lon="9.95409999121">
		<tag k="alt_name" v="Sjulstadfoss" />
		<tag k="name" v="Sjulstadfoss" />
		<tag k="natural" v="waterfall" />
		<tag k="ssr:stedsnr" v="572731" />
	</node>
	<node id="-418012" lat="59.4541250006" lon="9.76339443711">
		<tag k="name" v="Lille Trytetjern" />
		<tag k="natural" v="water" />
		<tag k="ssr:stedsnr" v="209960" />
	</node>
	<node id="-418511" lat="59.1370999968" lon="9.97006666071">
		<tag k="alt_name" v="Lysebofjorden" />
		<tag k="name" v="Lysbufjorden" />
		<tag k="natural" v="bay" />
		<tag k="ssr:stedsnr" v="547040" />
	</node>
	<node id="-419001" lat="59.2242055568" lon="9.89931389141">
		<tag k="name" v="Lille Steinstjønn" />
		<tag k="natural" v="water" />
		<tag k="ssr:stedsnr" v="755047" />
	</node>
	<node id="-417997" lat="59.0833527749" lon="10.1556805606">
		<tag k="name" v="Skallebergbekken" />
		<tag k="ssr:stedsnr" v="209859" />
		<tag k="waterway" v="stream" />
	</node>
	<node id="-418167" lat="59.2993972212" lon="10.0095972213">
		<tag k="name" v="Pikevannet" />
		<tag k="natural" v="water" />
		<tag k="ssr:stedsnr" v="330638" />
	</node>
	<node id="-417988" lat="59.1866638896" lon="9.99176111079">
		<tag k="name" v="Gjoneevja" />
		<tag k="natural" v="bay" />
		<tag k="ssr:stedsnr" v="209942" />
	</node>
	<node id="-417983" lat="59.166252775" lon="10.0945611088">
		<tag k="name" v="Nautjønna" />
		<tag k="natural" v="water" />
		<tag k="ssr:stedsnr" v="209797" />
	</node>
	<node id="-417981" lat="59.1749638909" lon="10.1365499937">
		<tag k="name" v="Kjerringlandet" />
		<tag k="natural" v="cape" />
		<tag k="ssr:stedsnr" v="209795" />
	</node>
	<node id="-414409" lat="59.1258972195" lon="10.1055916664">
		<tag k="alt_name" v="Ulverødtjønna" />
		<tag k="name" v="Ulverødtjerna" />
		<tag k="natural" v="water" />
		<tag k="ssr:stedsnr" v="244046" />
	</node>
	<node id="-415921" lat="59.3756611101" lon="9.83913055649">
		<tag k="name" v="Krakkekilen" />
		<tag k="natural" v="bay" />
		<tag k="ssr:stedsnr" v="695196" />
	</node>
	<node id="-415917" lat="59.0637666662" lon="10.0673333345">
		<tag k="name" v="Orøya" />
		<tag k="place" v="island" />
		<tag k="ssr:stedsnr" v="695038" />
	</node>
	<node id="-415915" lat="59.2557583319" lon="9.91548333458">
		<tag k="name" v="Vadet" />
		<tag k="natural" v="shoal" />
		<tag k="place" v="locality" />
		<tag k="ssr:stedsnr" v="695029" />
	</node>
	<node id="-417941" lat="59.3804944438" lon="9.83656944822">
		<tag k="name" v="Svartangbonn" />
		<tag k="natural" v="bay" />
		<tag k="ssr:stedsnr" v="209255" />
	</node>
	<node id="-417939" lat="59.3763499971" lon="9.89698055795">
		<tag k="name" v="Vollmyrbekken" />
		<tag k="ssr:stedsnr" v="209248" />
		<tag k="waterway" v="stream" />
	</node>
	<node id="-417933" lat="59.3498777735" lon="9.84718332681">
		<tag k="name" v="Svarvern" />
		<tag k="ssr:stedsnr" v="209237" />
		<tag k="waterway" v="stream" />
	</node>
	<node id="-415884" lat="59.1991500002" lon="9.97329721927">
		<tag k="name" v="Nestangen" />
		<tag k="natural" v="cape" />
		<tag k="ssr:stedsnr" v="694993" />
	</node>
	<node id="-415878" lat="59.1274861111" lon="9.98133055661">
		<tag k="name" v="Nåslevika" />
		<tag k="natural" v="bay" />
		<tag k="ssr:stedsnr" v="694977" />
	</node>
	<node id="-415877" lat="59.1381222242" lon="9.9723277849">
		<tag k="name" v="Størvika" />
		<tag k="natural" v="bay" />
		<tag k="ssr:stedsnr" v="694974" />
	</node>
	<node id="-417918" lat="59.0727136297" lon="9.96433094104">
		<tag k="name" v="Klovatjønn" />
		<tag k="natural" v="water" />
		<tag k="ssr:stedsnr" v="209078" />
	</node>
	<node id="-415868" lat="59.2135416709" lon="10.0041305542">
		<tag k="name" v="Høymyrtjønna" />
		<tag k="natural" v="water" />
		<tag k="ssr:stedsnr" v="694845" />
	</node>
	<node id="-415865" lat="59.2359361135" lon="9.96714167361">
		<tag k="name" v="Leirtangen" />
		<tag k="natural" v="cape" />
		<tag k="ssr:stedsnr" v="694798" />
	</node>
	<node id="-415864" lat="59.2375194479" lon="9.9675527774">
		<tag k="name" v="Korvika" />
		<tag k="natural" v="bay" />
		<tag k="ssr:stedsnr" v="694797" />
	</node>
	<node id="-415855" lat="59.3005305541" lon="10.008855548">
		<tag k="name" v="Guttevannet" />
		<tag k="natural" v="water" />
		<tag k="ssr:stedsnr" v="694576" />
	</node>
	<node id="-415850" lat="59.3606868555" lon="10.0138368904">
		<tag k="name" v="Hvålsdiplene" />
		<tag k="natural" v="water" />
		<tag k="ssr:stedsnr" v="694537" />
	</node>
	<node id="-418492" lat="59.4389166672" lon="9.79883332852">
		<tag k="name" v="Vulivann" />
		<tag k="natural" v="water" />
		<tag k="ssr:stedsnr" v="427519" />
	</node>
	<node id="-417894" lat="59.0598499998" lon="9.87301666677">
		<tag k="name" v="Brentøya" />
		<tag k="place" v="islet" />
		<tag k="ssr:stedsnr" v="209153" />
	</node>
	<node id="-415843" lat="59.1147666662" lon="9.91251388796">
		<tag k="name" v="Strandsfjorden" />
		<tag k="natural" v="water" />
		<tag k="ssr:stedsnr" v="694150" />
		<tag k="water" v="lake" />
	</node>
	<node id="-415842" lat="59.1178916677" lon="9.92364166948">
		<tag k="name" v="Sunda" />
		<tag k="natural" v="strait" />
		<tag k="ssr:stedsnr" v="694149" />
	</node>
	<node id="-417887" lat="59.0600333351" lon="9.9205777857">
		<tag k="name" v="Sunda" />
		<tag k="natural" v="strait" />
		<tag k="ssr:stedsnr" v="209138" />
	</node>
	<node id="-415835" lat="59.0452944402" lon="9.90637777555">
		<tag k="name" v="Langekil s." />
		<tag k="natural" v="bay" />
		<tag k="ssr:stedsnr" v="694180" />
	</node>
	<node id="-415834" lat="59.0825337164" lon="10.0549277637">
		<tag k="name" v="Nordbytj." />
		<tag k="natural" v="water" />
		<tag k="ssr:stedsnr" v="694175" />
	</node>
	<node id="-415823" lat="59.2009972236" lon="9.87834722517">
		<tag k="name" v="Kvernhusholet" />
		<tag k="natural" v="bay" />
		<tag k="ssr:stedsnr" v="694002" />
	</node>
	<node id="-417865" lat="59.3308972251" lon="9.97093889674">
		<tag k="name" v="Djupdalsbekken" />
		<tag k="ssr:stedsnr" v="208578" />
		<tag k="waterway" v="stream" />
	</node>
	<node id="-415382" lat="59.361994442" lon="9.93810555792">
		<tag k="name" v="Langerudstreket" />
		<tag k="natural" v="shoal" />
		<tag k="place" v="locality" />
		<tag k="ssr:stedsnr" v="511672" />
	</node>
	<node id="-417853" lat="59.3304805563" lon="9.98320834049">
		<tag k="name" v="Snopa" />
		<tag k="natural" v="water" />
		<tag k="ssr:stedsnr" v="208362" />
	</node>
	<node id="-415800" lat="59.1050694459" lon="9.98835833206">
		<tag k="name" v="Tomasskjær" />
		<tag k="place" v="islet" />
		<tag k="ssr:stedsnr" v="512926" />
	</node>
	<node id="-415791" lat="59.4126888911" lon="9.94960554838">
		<tag k="name" v="Helveteshølen" />
		<tag k="place" v="locality" />
		<tag k="ssr:stedsnr" v="512527" />
	</node>
	<node id="-417835" lat="59.2814055564" lon="9.97378888987">
		<tag k="name" v="Langevannet" />
		<tag k="natural" v="water" />
		<tag k="ssr:stedsnr" v="185842" />
	</node>
	<node id="-417834" lat="59.3333500018" lon="9.99648889225">
		<tag k="name" v="Solbergvannet" />
		<tag k="natural" v="water" />
		<tag k="ssr:stedsnr" v="185786" />
	</node>
	<node id="-417825" lat="59.1591166681" lon="9.94770000577">
		<tag k="alt_name" v="Liurvannet" />
		<tag k="name" v="Liurdvannet" />
		<tag k="natural" v="water" />
		<tag k="old_name" v="Liurdvatnet" />
		<tag k="ssr:stedsnr" v="184534" />
	</node>
	<node id="-417817" lat="59.1136055595" lon="9.96640556029">
		<tag k="name" v="Flatøya" />
		<tag k="place" v="island" />
		<tag k="ssr:stedsnr" v="184412" />
	</node>
	<node id="-417807" lat="59.3852750008" lon="9.89236945075">
		<tag k="name" v="Oppsalvannet" />
		<tag k="natural" v="water" />
		<tag k="ssr:stedsnr" v="184264" />
	</node>
	<node id="-415758" lat="59.126622221" lon="9.91918055686">
		<tag k="name" v="Steinsundet" />
		<tag k="natural" v="strait" />
		<tag k="ssr:stedsnr" v="512002" />
	</node>
	<node id="-416087" lat="59.1532972213" lon="9.88876389413">
		<tag k="name" v="Nautvika" />
		<tag k="natural" v="bay" />
		<tag k="ssr:stedsnr" v="633259" />
	</node>
	<node id="-415751" lat="59.0535750032" lon="9.91079444548">
		<tag k="name" v="Tverrfjorden" />
		<tag k="natural" v="water" />
		<tag k="ssr:stedsnr" v="487534" />
		<tag k="water" v="lake" />
	</node>
	<node id="-417797" lat="59.0600055556" lon="10.1000666625">
		<tag k="alt_name" v="Kjøndalbekken" />
		<tag k="name" v="Kjønndalbekken" />
		<tag k="ssr:stedsnr" v="184156" />
		<tag k="waterway" v="stream" />
	</node>
	<node id="-417796" lat="59.4126083313" lon="10.0065305611">
		<tag k="name" v="Rosoelva" />
		<tag k="ssr:stedsnr" v="184124" />
		<tag k="waterway" v="stream" />
	</node>
	<node id="-415747" lat="59.3025999974" lon="9.94198889573">
		<tag k="alt_name" v="Haugselv" />
		<tag k="name" v="Haugselva" />
		<tag k="ssr:stedsnr" v="487433" />
		<tag k="waterway" v="stream" />
	</node>
	<node id="-415746" lat="59.1050916676" lon="9.93700555398">
		<tag k="name" v="Nesfjorden" />
		<tag k="natural" v="bay" />
		<tag k="ssr:stedsnr" v="487423" />
	</node>
	<node id="-414379" lat="59.1497249959" lon="10.0006999953">
		<tag k="name" v="Bikkjetjønna" />
		<tag k="natural" v="water" />
		<tag k="ssr:stedsnr" v="27903" />
>>>>>>> e1d4bc35ff8a6074a6f2e91616a996b547c36f15
	</node>
</osm>
