<?xml version="1.0" encoding="UTF-8"?>
<osm version="0.6" generator="osmapis">
	<node lat="59.31893055461387" lon="10.006986113223396" id="-24440">
		<tag k="name" v="Trettestykket" />
		<tag k="place" v="locality" />
		<tag k="ssr:stedsnr" v="26602" />
	</node>
	<node lat="59.013772222065434" lon="10.156386117015087" id="-24450">
		<tag k="name" v="Myggemyra" />
		<tag k="natural" v="wetland" />
		<tag k="ssr:stedsnr" v="27004" />
	</node>
	<node lat="59.131522221752" lon="9.906925005544764" id="-24451">
		<tag k="name" v="Østskogen" />
		<tag k="place" v="locality" />
		<tag k="ssr:stedsnr" v="27005" />
	</node>
	<node lat="59.23483055584632" lon="9.918702776234445" id="-24459">
		<tag k="name" v="Høymyra" />
		<tag k="natural" v="wetland" />
		<tag k="ssr:stedsnr" v="27033" />
	</node>
	<node lat="59.32259999584903" lon="9.930294448828409" id="-24461">
		<tag k="name" v="Storemyr" />
		<tag k="natural" v="wetland" />
		<tag k="ssr:stedsnr" v="27109" />
	</node>
	<node lat="59.30736389234748" lon="9.907977770329888" id="-24467">
		<tag k="name" v="Oremyr" />
		<tag k="natural" v="wetland" />
		<tag k="ssr:stedsnr" v="27122" />
	</node>
	<node lat="59.29195000015365" lon="9.841880554629792" id="-24468">
		<tag k="name" v="Torsteinsmyr" />
		<tag k="natural" v="wetland" />
		<tag k="ssr:stedsnr" v="27128" />
	</node>
	<node lat="59.33787777751901" lon="9.828727783683325" id="-24471">
		<tag k="name" v="Uledalskastmyr" />
		<tag k="natural" v="wetland" />
		<tag k="ssr:stedsnr" v="27143" />
	</node>
	<node lat="59.39965555997448" lon="9.854580557902038" id="-24476">
		<tag k="name" v="Bustemyr" />
		<tag k="natural" v="wetland" />
		<tag k="ssr:stedsnr" v="27176" />
	</node>
	<node lat="59.4180861126656" lon="9.828191666359022" id="-24477">
		<tag k="name" v="Nitjernsmyr" />
		<tag k="natural" v="wetland" />
		<tag k="ssr:stedsnr" v="27185" />
	</node>
	<node lat="59.333641665164954" lon="9.83871389023743" id="-24482">
		<tag k="name" v="Stormyr" />
		<tag k="natural" v="wetland" />
		<tag k="ssr:stedsnr" v="27077" />
	</node>
	<node lat="59.32263888707134" lon="9.838427785708085" id="-24484">
		<tag k="name" v="Høymyr" />
		<tag k="natural" v="wetland" />
		<tag k="ssr:stedsnr" v="27081" />
	</node>
	<node lat="59.14131944221773" lon="9.930733334140502" id="-24489">
		<tag k="name" v="Hovet" />
		<tag k="place" v="locality" />
		<tag k="ssr:stedsnr" v="27228" />
	</node>
	<node lat="59.37137777410792" lon="10.004883330807733" id="-24502">
		<tag k="name" v="Høystakkmyr" />
		<tag k="natural" v="wetland" />
		<tag k="ssr:stedsnr" v="27572" />
	</node>
	<node lat="59.160619443763075" lon="9.967438886390925" id="-24518">
		<tag k="name" v="Langmyr" />
		<tag k="natural" v="wetland" />
		<tag k="ssr:stedsnr" v="27907" />
	</node>
	<node lat="59.068644440328356" lon="10.172488886852241" id="-24522">
		<tag k="name" v="Veslemyr" />
		<tag k="natural" v="wetland" />
		<tag k="ssr:stedsnr" v="27925" />
	</node>
	<node lat="59.21449166774662" lon="9.991297217863789" id="-24525">
		<tag k="name" v="Farmen" />
		<tag k="place" v="locality" />
		<tag k="ssr:stedsnr" v="27872" />
	</node>
	<node lat="59.2996611156542" lon="9.97274165900077" id="-24637">
		<tag k="name" v="Olasmyra" />
		<tag k="natural" v="wetland" />
		<tag k="ssr:stedsnr" v="87579" />
	</node>
	<node lat="59.32473333632518" lon="9.992069436953685" id="-24638">
		<tag k="name" v="Fuglemyr" />
		<tag k="natural" v="wetland" />
		<tag k="ssr:stedsnr" v="245769" />
	</node>
	<node lat="59.009155553565506" lon="10.08861111616686" id="-24639">
		<tag k="name" v="Skjærsund" />
		<tag k="place" v="locality" />
		<tag k="ssr:stedsnr" v="88008" />
	</node>
	<node lat="59.13766944335318" lon="9.873905560370169" id="-24644">
		<tag k="name" v="Gjessdalsmyr" />
		<tag k="natural" v="wetland" />
		<tag k="ssr:stedsnr" v="88026" />
	</node>
	<node lat="59.31310277466027" lon="9.888700005583472" id="-24646">
		<tag k="name" v="Ødegården" />
		<tag k="place" v="locality" />
		<tag k="ssr:stedsnr" v="88072" />
	</node>
	<node lat="59.10088611327381" lon="9.857166662355505" id="-24666">
		<tag k="name" v="Store Fugleleikmyr" />
		<tag k="natural" v="wetland" />
		<tag k="ssr:stedsnr" v="88134" />
	</node>
	<node lat="59.39278055465578" lon="10.048963888847922" id="-24667">
		<tag k="name" v="Tolvmannmyr" />
		<tag k="natural" v="wetland" />
		<tag k="ssr:stedsnr" v="88137" />
	</node>
	<node lat="59.09516666465272" lon="9.912627779538717" id="-24672">
		<tag k="name" v="Skogsvardemyr" />
		<tag k="natural" v="wetland" />
		<tag k="ssr:stedsnr" v="88152" />
	</node>
	<node lat="59.36804999885642" lon="10.004930563215273" id="-24688">
		<tag k="name" v="Klysmyr" />
		<tag k="natural" v="wetland" />
		<tag k="ssr:stedsnr" v="88488" />
	</node>
	<node lat="59.01541944499266" lon="9.875402776202503" id="-24691">
		<tag k="name" v="Møllemyra" />
		<tag k="natural" v="wetland" />
		<tag k="ssr:stedsnr" v="88375" />
	</node>
	<node lat="59.059097218156936" lon="10.196466664802546" id="-24703">
		<tag k="name" v="Kviestein" />
		<tag k="natural" v="stone" />
		<tag k="old_name" v="Kirestein" />
		<tag k="ssr:stedsnr" v="88913" />
	</node>
	<node lat="59.09152222449808" lon="10.112333327272438" id="-24709">
		<tag k="name" v="Mosserød" />
		<tag k="place" v="locality" />
		<tag k="ssr:stedsnr" v="88874" />
	</node>
	<node lat="59.35043611381095" lon="10.021683340725266" id="-24754">
		<tag k="name" v="Knivemyr" />
		<tag k="natural" v="wetland" />
		<tag k="ssr:stedsnr" v="147527" />
	</node>
	<node lat="59.39543333204679" lon="10.01151111123376" id="-24771">
		<tag k="name" v="Langmyr" />
		<tag k="natural" v="wetland" />
		<tag k="ssr:stedsnr" v="147978" />
	</node>
	<node lat="59.02533888847068" lon="10.12922499381762" id="-24772">
		<tag k="name" v="Hasselglova" />
		<tag k="place" v="locality" />
		<tag k="ssr:stedsnr" v="148102" />
	</node>
	<node lat="59.04748333688503" lon="10.09665277869062" id="-24776">
		<tag k="name" v="Valbyskogen" />
		<tag k="place" v="locality" />
		<tag k="ssr:stedsnr" v="148214" />
	</node>
	<node lat="59.35130278155777" lon="9.870591660738965" id="-24778">
		<tag k="name" v="Storemyr" />
		<tag k="natural" v="wetland" />
		<tag k="ssr:stedsnr" v="148222" />
	</node>
	<node lat="59.08277221907427" lon="9.901322221724573" id="-24786">
		<tag k="name" v="Kjerringmyr" />
		<tag k="natural" v="wetland" />
		<tag k="ssr:stedsnr" v="148270" />
	</node>
	<node lat="59.4121527742894" lon="10.043966669680195" id="-24797">
		<tag k="name" v="Kippmyr" />
		<tag k="natural" v="wetland" />
		<tag k="ssr:stedsnr" v="148170" />
	</node>
	<node lat="59.119538893095424" lon="10.133583337610215" id="-24798">
		<tag k="name" v="Skinnmoskogen" />
		<tag k="place" v="locality" />
		<tag k="ssr:stedsnr" v="148172" />
	</node>
	<node lat="59.011608334745205" lon="9.982830557706832" id="-24807">
		<tag k="name" v="Moltemyra" />
		<tag k="natural" v="wetland" />
		<tag k="ssr:stedsnr" v="148504" />
	</node>
	<node lat="59.009819443142476" lon="9.895958325293597" id="-24811">
		<tag k="name" v="Dolvenskogen" />
		<tag k="place" v="locality" />
		<tag k="ssr:stedsnr" v="148457" />
	</node>
	<node lat="59.209105557268465" lon="9.949233336611822" id="-24824">
		<tag k="historic" v="shieling" />
		<tag k="name" v="Lilleseter" />
		<tag k="place" v="locality" />
		<tag k="ssr:stedsnr" v="148805" />
	</node>
	<node lat="59.088550000464885" lon="10.024655548195971" id="-24828">
		<tag k="landuse" v="meadow" />
		<tag k="name" v="Almglova" />
		<tag k="ssr:stedsnr" v="148907" />
	</node>
	<node lat="59.148652775310566" lon="10.006030554198507" id="-24831">
		<tag k="name" v="Solbergdammen" />
		<tag k="natural" v="wetland" />
		<tag k="ssr:stedsnr" v="148911" />
	</node>
	<node lat="59.17292777871892" lon="9.973258329530234" id="-24833">
		<tag k="name" v="Dammyra" />
		<tag k="natural" v="wetland" />
		<tag k="ssr:stedsnr" v="148962" />
	</node>
	<node lat="59.145144444093006" lon="9.85024445219061" id="-24862">
		<tag k="name" v="Jutilmyra" />
		<tag k="natural" v="wetland" />
		<tag k="old_name" v="Jutulmyra" />
		<tag k="ssr:stedsnr" v="184613" />
	</node>
	<node lat="59.3338527762296" lon="9.96333610527383" id="-24880">
		<tag k="name" v="Moltemyr" />
		<tag k="natural" v="wetland" />
		<tag k="ssr:stedsnr" v="208577" />
	</node>
	<node lat="59.264902777617" lon="9.977208330416486" id="-24883">
		<tag k="historic" v="shieling" />
		<tag k="name" v="Vinterståseter" />
		<tag k="place" v="locality" />
		<tag k="ssr:stedsnr" v="208607" />
	</node>
	<node lat="59.435841663907674" lon="10.015108330457497" id="-24885">
		<tag k="name" v="Skittmyr" />
		<tag k="natural" v="wetland" />
		<tag k="ssr:stedsnr" v="208817" />
	</node>
	<node lat="59.281008331657915" lon="9.926475005712025" id="-24892">
		<tag k="name" v="Elverønningen" />
		<tag k="place" v="locality" />
		<tag k="ssr:stedsnr" v="209007" />
	</node>
	<node lat="59.314961114203854" lon="9.847788897009874" id="-24900">
		<tag k="name" v="Kolmyr" />
		<tag k="natural" v="wetland" />
		<tag k="ssr:stedsnr" v="209085" />
	</node>
	<node lat="59.21875833727972" lon="9.923805558158278" id="-24902">
		<tag k="name" v="Steilmyr" />
		<tag k="natural" v="wetland" />
		<tag k="ssr:stedsnr" v="209089" />
	</node>
	<node lat="59.21077499563005" lon="9.909708328962425" id="-24905">
		<tag k="name" v="Setermyr" />
		<tag k="natural" v="wetland" />
		<tag k="ssr:stedsnr" v="209095" />
	</node>
	<node lat="59.06728889067102" lon="10.140361108478281" id="-24908">
		<tag k="name" v="Tveiteskogen" />
		<tag k="place" v="locality" />
		<tag k="ssr:stedsnr" v="209215" />
	</node>
	<node lat="59.05718055485082" lon="9.84562222142954" id="-24921">
		<tag k="name" v="Prestemyr" />
		<tag k="natural" v="wetland" />
		<tag k="ssr:stedsnr" v="209402" />
	</node>
	<node lat="59.02816389102521" lon="9.878336108622635" id="-24924">
		<tag k="name" v="Dammyr" />
		<tag k="natural" v="wetland" />
		<tag k="ssr:stedsnr" v="209431" />
	</node>
	<node lat="59.015008337674615" lon="9.989855554884402" id="-24935">
		<tag k="name" v="Brunlaskogen" />
		<tag k="place" v="locality" />
		<tag k="ssr:stedsnr" v="209502" />
	</node>
	<node lat="59.03763332898652" lon="10.197352783726185" id="-24943">
		<tag k="name" v="Kringlemyr" />
		<tag k="natural" v="wetland" />
		<tag k="ssr:stedsnr" v="209585" />
	</node>
	<node lat="59.13933889298892" lon="10.10778610867685" id="-24951">
		<tag k="name" v="Fjellboskogen" />
		<tag k="place" v="locality" />
		<tag k="ssr:stedsnr" v="209832" />
	</node>
	<node lat="59.08011389323277" lon="9.912472226062794" id="-24966">
		<tag k="name" v="Barlindmyr" />
		<tag k="natural" v="wetland" />
		<tag k="ssr:stedsnr" v="269267" />
	</node>
	<node lat="59.40815555778844" lon="10.034108325135005" id="-24971">
		<tag k="name" v="Saumyr" />
		<tag k="natural" v="wetland" />
		<tag k="ssr:stedsnr" v="269521" />
	</node>
	<node lat="59.2528777801738" lon="9.926944438158309" id="-24997">
		<tag k="name" v="Rønningene" />
		<tag k="place" v="locality" />
		<tag k="ssr:stedsnr" v="270035" />
	</node>
	<node lat="59.24715555558476" lon="9.917558336367655" id="-24999">
		<tag k="name" v="Svartvannsmyra" />
		<tag k="natural" v="wetland" />
		<tag k="ssr:stedsnr" v="270037" />
	</node>
	<node lat="59.21646111022288" lon="9.87271667274537" id="-25000">
		<tag k="name" v="Bjørneskottene" />
		<tag k="place" v="locality" />
		<tag k="ssr:stedsnr" v="270039" />
	</node>
	<node lat="59.26669444654303" lon="9.861863886766066" id="-25005">
		<tag k="name" v="Bikkjemyrene" />
		<tag k="natural" v="wetland" />
		<tag k="ssr:stedsnr" v="270052" />
	</node>
	<node lat="59.29245555870495" lon="9.894752776220711" id="-25012">
		<tag k="name" v="Hjælmen" />
		<tag k="place" v="locality" />
		<tag k="ssr:stedsnr" v="270134" />
	</node>
	<node lat="59.04383333487208" lon="10.139366670030835" id="-25014">
		<tag k="name" v="Prestegårdsskogen" />
		<tag k="place" v="locality" />
		<tag k="ssr:stedsnr" v="270140" />
	</node>
	<node lat="59.29401111250263" lon="9.843336108448348" id="-25019">
		<tag k="name" v="Nedre Briskemyr" />
		<tag k="natural" v="wetland" />
		<tag k="ssr:stedsnr" v="270153" />
	</node>
	<node lat="59.309666669251705" lon="9.888769441638955" id="-25023">
		<tag k="name" v="Gråholmen" />
		<tag k="place" v="locality" />
		<tag k="ssr:stedsnr" v="270163" />
	</node>
	<node lat="59.39193332975246" lon="9.862644445303104" id="-25037">
		<tag k="name" v="Sankemyr" />
		<tag k="natural" v="wetland" />
		<tag k="ssr:stedsnr" v="270248" />
	</node>
	<node lat="59.30270555186797" lon="9.808200005844327" id="-25043">
		<tag k="name" v="Skampestadmyra" />
		<tag k="natural" v="wetland" />
		<tag k="ssr:stedsnr" v="270318" />
	</node>
	<node lat="59.362341668506936" lon="9.999688890536087" id="-25059">
		<tag k="name" v="Stormyr" />
		<tag k="natural" v="wetland" />
		<tag k="ssr:stedsnr" v="270568" />
	</node>
	<node lat="59.15891944533416" lon="10.120763892698362" id="-25065">
		<tag k="name" v="Mørkskogen" />
		<tag k="place" v="locality" />
		<tag k="ssr:stedsnr" v="270836" />
	</node>
	<node lat="59.13097499681961" lon="10.011030556666414" id="-25078">
		<tag k="name" v="Breimyr" />
		<tag k="natural" v="wetland" />
		<tag k="ssr:stedsnr" v="270995" />
	</node>
	<node lat="59.08895278070272" lon="9.963805553661508" id="-25082">
		<tag k="name" v="Kringlemyr" />
		<tag k="natural" v="wetland" />
		<tag k="ssr:stedsnr" v="270925" />
	</node>
	<node lat="59.10842222590932" lon="10.036575001495404" id="-25085">
		<tag k="name" v="Askemyra" />
		<tag k="natural" v="wetland" />
		<tag k="ssr:stedsnr" v="270932" />
	</node>
	<node lat="59.10519444065461" lon="10.028108329498023" id="-25086">
		<tag k="name" v="Ødegårdene" />
		<tag k="place" v="locality" />
		<tag k="ssr:stedsnr" v="270933" />
	</node>
	<node lat="59.02023889072158" lon="10.166041672586244" id="-25087">
		<tag k="name" v="Halvgått" />
		<tag k="place" v="locality" />
		<tag k="ssr:stedsnr" v="270934" />
	</node>
	<node lat="59.10402222195526" lon="9.997652772505333" id="-25088">
		<tag k="name" v="Dipplingane" />
		<tag k="natural" v="wetland" />
		<tag k="ssr:stedsnr" v="270936" />
	</node>
	<node lat="59.27513610763614" lon="9.838488895935773" id="-25093">
		<tag k="name" v="Donemyr" />
		<tag k="natural" v="wetland" />
		<tag k="ssr:stedsnr" v="270962" />
	</node>
	<node lat="59.357475002678434" lon="9.982688880530706" id="-25116">
		<tag k="name" v="Høymyr" />
		<tag k="natural" v="wetland" />
		<tag k="ssr:stedsnr" v="451735" />
	</node>
	<node lat="59.42766388751538" lon="9.933933338545188" id="-25126">
		<tag k="name" v="Skarvemyr" />
		<tag k="place" v="locality" />
		<tag k="ssr:stedsnr" v="451856" />
	</node>
	<node lat="59.13356944289043" lon="9.849869448751951" id="-25132">
		<tag k="name" v="Blåmyrene" />
		<tag k="natural" v="wetland" />
		<tag k="ssr:stedsnr" v="452022" />
	</node>
	<node lat="59.39561388998107" lon="9.9692555562267" id="-25136">
		<tag k="name" v="Dymyr" />
		<tag k="place" v="locality" />
		<tag k="ssr:stedsnr" v="451991" />
	</node>
	<node lat="59.280719447840895" lon="9.889111118667158" id="-25137">
		<tag k="landuse" v="meadow" />
		<tag k="name" v="Hesterønningen" />
		<tag k="ssr:stedsnr" v="452001" />
	</node>
	<node lat="59.11884444124322" lon="9.899177774643617" id="-25138">
		<tag k="alt_name" v="Haralegda" />
		<tag k="name" v="Harelegda" />
		<tag k="place" v="locality" />
		<tag k="ssr:stedsnr" v="452002" />
	</node>
	<node lat="59.289958337456724" lon="9.904913882485294" id="-25144">
		<tag k="name" v="Spisstå" />
		<tag k="place" v="locality" />
		<tag k="ssr:stedsnr" v="452010" />
	</node>
	<node lat="59.21743333221228" lon="9.890330562564314" id="-25149">
		<tag k="name" v="Bekkemyr" />
		<tag k="natural" v="wetland" />
		<tag k="ssr:stedsnr" v="452077" />
	</node>
	<node lat="59.315341667825926" lon="9.894916662956508" id="-25181">
		<tag k="name" v="Skjolden" />
		<tag k="place" v="locality" />
		<tag k="ssr:stedsnr" v="452108" />
	</node>
	<node lat="59.04926944095106" lon="9.950944440566184" id="-25182">
		<tag k="name" v="Torvstrømyra" />
		<tag k="natural" v="wetland" />
		<tag k="ssr:stedsnr" v="452109" />
	</node>
	<node lat="59.29784999569827" lon="9.848686106794078" id="-25188">
		<tag k="name" v="Hvila" />
		<tag k="place" v="locality" />
		<tag k="ssr:stedsnr" v="452142" />
	</node>
	<node lat="59.20104786055024" lon="10.019749077767267" id="-25193">
		<tag k="alt_name" v="Tuvejordseter" />
		<tag k="historic" v="shieling" />
		<tag k="name" v="Tuvejordsetra" />
		<tag k="place" v="locality" />
		<tag k="ssr:stedsnr" v="245121" />
	</node>
	<node lat="59.11164722417522" lon="10.086266664801034" id="-25194">
		<tag k="name" v="Spånmyr" />
		<tag k="natural" v="wetland" />
		<tag k="ssr:stedsnr" v="452156" />
	</node>
	<node lat="59.407413890898155" lon="10.044486114974966" id="-25197">
		<tag k="name" v="Skalhøgd myr" />
		<tag k="natural" v="wetland" />
		<tag k="ssr:stedsnr" v="452161" />
	</node>
	<node lat="59.076788885660335" lon="9.86104443715746" id="-25200">
		<tag k="name" v="Skillingsmyr" />
		<tag k="natural" v="wetland" />
		<tag k="ssr:stedsnr" v="452190" />
	</node>
	<node lat="59.34536944264368" lon="9.989752771765351" id="-25208">
		<tag k="name" v="Stormyra" />
		<tag k="natural" v="wetland" />
		<tag k="ssr:stedsnr" v="245752" />
	</node>
	<node lat="59.021799996398876" lon="9.850827784545533" id="-25209">
		<tag k="name" v="Blekkanemyra" />
		<tag k="natural" v="wetland" />
		<tag k="ssr:stedsnr" v="452423" />
	</node>
	<node lat="58.97857778115977" lon="9.902036112149379" id="-25212">
		<tag k="name" v="Eidstenskogen" />
		<tag k="place" v="locality" />
		<tag k="ssr:stedsnr" v="452391" />
	</node>
	<node lat="59.02379444106736" lon="9.945819449509893" id="-25215">
		<tag k="landuse" v="meadow" />
		<tag k="name" v="Bratthagen" />
		<tag k="ssr:stedsnr" v="452497" />
	</node>
	<node lat="59.033163885567625" lon="10.103483324697569" id="-25217">
		<tag k="name" v="Håken" />
		<tag k="place" v="locality" />
		<tag k="ssr:stedsnr" v="452442" />
	</node>
	<node lat="59.030344440153165" lon="10.09172500839411" id="-25221">
		<tag k="name" v="Lunden" />
		<tag k="place" v="locality" />
		<tag k="ssr:stedsnr" v="452457" />
	</node>
	<node lat="59.34140277616061" lon="9.94137777218164" id="-25229">
		<tag k="name" v="Langdalsmyr" />
		<tag k="natural" v="wetland" />
		<tag k="ssr:stedsnr" v="452677" />
	</node>
	<node lat="59.34977499607601" lon="9.963316667973631" id="-25230">
		<tag k="name" v="Breimyr" />
		<tag k="natural" v="wetland" />
		<tag k="ssr:stedsnr" v="452680" />
	</node>
	<node lat="59.04764167021361" lon="10.182413884656215" id="-25231">
		<tag k="name" v="Revehiet" />
		<tag k="place" v="locality" />
		<tag k="ssr:stedsnr" v="452645" />
	</node>
	<node lat="59.207033335675796" lon="10.022383332325015" id="-25235">
		<tag k="name" v="Askelimyr" />
		<tag k="natural" v="wetland" />
		<tag k="ssr:stedsnr" v="452886" />
	</node>
	<node lat="59.23981944230749" lon="9.987677772934708" id="-25240">
		<tag k="name" v="Bjønnemyr" />
		<tag k="natural" v="wetland" />
		<tag k="ssr:stedsnr" v="452830" />
	</node>
	<node lat="59.15747777708123" lon="9.981841669665867" id="-25242">
		<tag k="historic" v="shieling" />
		<tag k="name" v="Nordre Gjoneseter" />
		<tag k="place" v="locality" />
		<tag k="ssr:stedsnr" v="452928" />
	</node>
	<node lat="59.11779166569692" lon="10.029630560434825" id="-25245">
		<tag k="name" v="Tranebærmyra" />
		<tag k="natural" v="wetland" />
		<tag k="ssr:stedsnr" v="452939" />
	</node>
	<node lat="59.060652777410674" lon="10.171669441132167" id="-25246">
		<tag k="name" v="Leirgravene" />
		<tag k="place" v="locality" />
		<tag k="ssr:stedsnr" v="452941" />
	</node>
	<node lat="59.02045555270353" lon="10.168430553840636" id="-25251">
		<tag k="name" v="Sekkglova" />
		<tag k="place" v="locality" />
		<tag k="ssr:stedsnr" v="452952" />
	</node>
	<node lat="59.19963610863492" lon="10.011922230405904" id="-25253">
		<tag k="name" v="Bjønnemyr" />
		<tag k="natural" v="wetland" />
		<tag k="ssr:stedsnr" v="452958" />
	</node>
	<node lat="59.024386110210195" lon="10.188919444319362" id="-25254">
		<tag k="name" v="Myra" />
		<tag k="natural" v="wetland" />
		<tag k="ssr:stedsnr" v="452961" />
	</node>
	<node lat="59.26252221791755" lon="9.99503054719784" id="-25267">
		<tag k="name" v="Djupedalsbånn" />
		<tag k="natural" v="wetland" />
		<tag k="ssr:stedsnr" v="269676" />
	</node>
	<node lat="59.283638888622804" lon="9.910369447968263" id="-25273">
		<tag k="name" v="Kringlemyr" />
		<tag k="natural" v="wetland" />
		<tag k="ssr:stedsnr" v="270004" />
	</node>
	<node lat="59.01341110725194" lon="10.091852774061826" id="-25281">
		<tag k="name" v="Langemyr" />
		<tag k="natural" v="wetland" />
		<tag k="ssr:stedsnr" v="270085" />
	</node>
	<node lat="59.42622777375805" lon="10.042494450951725" id="-25297">
		<tag k="name" v="Multemyr" />
		<tag k="natural" v="wetland" />
		<tag k="ssr:stedsnr" v="270128" />
	</node>
	<node lat="59.29527499944025" lon="9.824300007962059" id="-25299">
		<tag k="name" v="Langmyra" />
		<tag k="natural" v="wetland" />
		<tag k="ssr:stedsnr" v="270172" />
	</node>
	<node lat="59.37181110818124" lon="9.907047225305462" id="-25305">
		<tag k="name" v="Boklund" />
		<tag k="place" v="locality" />
		<tag k="ssr:stedsnr" v="270189" />
	</node>
	<node lat="59.44031388943311" lon="9.907902769160398" id="-25307">
		<tag k="name" v="De store myrene" />
		<tag k="natural" v="wetland" />
		<tag k="ssr:stedsnr" v="270282" />
	</node>
	<node lat="59.045777780988594" lon="10.219130564012938" id="-25315">
		<tag k="name" v="Jareskauen" />
		<tag k="place" v="locality" />
		<tag k="ssr:stedsnr" v="270604" />
	</node>
	<node lat="59.373474998259994" lon="10.00788888338917" id="-25323">
		<tag k="name" v="Bustelønnmyr" />
		<tag k="natural" v="wetland" />
		<tag k="ssr:stedsnr" v="270571" />
	</node>
	<node lat="59.24115555476048" lon="9.946041674747741" id="-25340">
		<tag k="name" v="Knipkil" />
		<tag k="place" v="locality" />
		<tag k="ssr:stedsnr" v="270792" />
	</node>
	<node lat="59.13397222543281" lon="9.98741110411848" id="-25346">
		<tag k="historic" v="shieling" />
		<tag k="name" v="Breidalsetra" />
		<tag k="place" v="locality" />
		<tag k="ssr:stedsnr" v="270977" />
	</node>
	<node lat="59.46921388972208" lon="9.956686118662496" id="-25385">
		<tag k="alt_name" v="Langemyr" />
		<tag k="name" v="Langmyr" />
		<tag k="natural" v="wetland" />
		<tag k="ssr:stedsnr" v="306564" />
	</node>
	<node lat="59.3392722223707" lon="10.008724993520904" id="-25389">
		<tag k="name" v="Rokkemyr" />
		<tag k="natural" v="wetland" />
		<tag k="ssr:stedsnr" v="465259" />
	</node>
	<node lat="59.41208055478211" lon="10.055902782727442" id="-25402">
		<tag k="name" v="Plakatmyr" />
		<tag k="natural" v="wetland" />
		<tag k="ssr:stedsnr" v="330210" />
	</node>
	<node lat="59.3629388932018" lon="9.857594448106145" id="-25406">
		<tag k="name" v="Trøytlimyr" />
		<tag k="natural" v="wetland" />
		<tag k="ssr:stedsnr" v="330219" />
	</node>
	<node lat="59.04451111080241" lon="9.860011111975219" id="-25415">
		<tag k="name" v="Vevjemyr" />
		<tag k="natural" v="wetland" />
		<tag k="ssr:stedsnr" v="330167" />
	</node>
	<node lat="59.165413892482306" lon="9.961327773618738" id="-25430">
		<tag k="name" v="Moltemyr" />
		<tag k="natural" v="wetland" />
		<tag k="ssr:stedsnr" v="330973" />
	</node>
	<node lat="59.22167500148103" lon="9.94006667065036" id="-25434">
		<tag k="name" v="Otermyr" />
		<tag k="natural" v="wetland" />
		<tag k="ssr:stedsnr" v="330822" />
	</node>
	<node lat="59.22789999906874" lon="9.956830563591764" id="-25436">
		<tag k="name" v="Rønningen" />
		<tag k="place" v="locality" />
		<tag k="ssr:stedsnr" v="330852" />
	</node>
	<node lat="59.42787500349488" lon="10.026444445040037" id="-25440">
		<tag k="name" v="Teie" />
		<tag k="place" v="locality" />
		<tag k="ssr:stedsnr" v="330874" />
	</node>
	<node lat="59.27290277706934" lon="9.866172225362872" id="-25442">
		<tag k="name" v="Nedre Mørkemyr" />
		<tag k="natural" v="wetland" />
		<tag k="ssr:stedsnr" v="331011" />
	</node>
	<node lat="59.28676944611151" lon="9.883444441712445" id="-25445">
		<tag k="name" v="Brånan" />
		<tag k="place" v="locality" />
		<tag k="ssr:stedsnr" v="331023" />
	</node>
	<node lat="59.30484722173182" lon="9.812852770298127" id="-25451">
		<tag k="name" v="Trengslemyr" />
		<tag k="natural" v="wetland" />
		<tag k="ssr:stedsnr" v="331314" />
	</node>
	<node lat="59.34787222141535" lon="9.929686114275185" id="-25453">
		<tag k="name" v="Kongelfjordet" />
		<tag k="place" v="locality" />
		<tag k="ssr:stedsnr" v="331202" />
	</node>
	<node lat="59.08786666752097" lon="9.85699721798086" id="-25454">
		<tag k="name" v="Tranbærmyr" />
		<tag k="natural" v="wetland" />
		<tag k="ssr:stedsnr" v="331204" />
	</node>
	<node lat="59.02873333130381" lon="9.85677777130815" id="-25456">
		<tag k="name" v="Svartemyr" />
		<tag k="natural" v="wetland" />
		<tag k="ssr:stedsnr" v="331404" />
	</node>
	<node lat="59.390491669718614" lon="9.955655551607833" id="-25503">
		<tag k="name" v="Myrene" />
		<tag k="natural" v="wetland" />
		<tag k="ssr:stedsnr" v="390494" />
	</node>
	<node lat="59.12837222108476" lon="9.909036117185034" id="-25508">
		<tag k="name" v="Bjørhus" />
		<tag k="place" v="locality" />
		<tag k="ssr:stedsnr" v="391006" />
	</node>
	<node lat="59.280377778704924" lon="9.91522222435083" id="-25509">
		<tag k="landuse" v="meadow" />
		<tag k="name" v="Bommen" />
		<tag k="ssr:stedsnr" v="391014" />
	</node>
	<node lat="59.23151389234927" lon="9.899447226727853" id="-25516">
		<tag k="name" v="Føykemyr" />
		<tag k="natural" v="wetland" />
		<tag k="ssr:stedsnr" v="391039" />
	</node>
	<node lat="59.22370000436556" lon="9.92700555314134" id="-25519">
		<tag k="name" v="Dulpane" />
		<tag k="natural" v="wetland" />
		<tag k="ssr:stedsnr" v="391043" />
	</node>
	<node lat="59.31004722285873" lon="9.831297218494251" id="-25520">
		<tag k="name" v="Kollmyr" />
		<tag k="natural" v="wetland" />
		<tag k="ssr:stedsnr" v="391103" />
	</node>
	<node lat="59.092305558726736" lon="9.913625000732633" id="-25531">
		<tag k="name" v="Vardemyr" />
		<tag k="natural" v="wetland" />
		<tag k="ssr:stedsnr" v="391200" />
	</node>
	<node lat="59.05832222636135" lon="10.021069438847857" id="-25532">
		<tag k="name" v="Larvik bøkeskog  landskapsvernområde" />
		<tag k="place" v="locality" />
		<tag k="ssr:stedsnr" v="391083" />
	</node>
	<node lat="59.06893611032617" lon="10.121880549809564" id="-25537">
		<tag k="name" v="Storemyr" />
		<tag k="natural" v="wetland" />
		<tag k="ssr:stedsnr" v="391204" />
	</node>
	<node lat="59.026677782080824" lon="9.870038897120308" id="-25549">
		<tag k="name" v="Blåbærmyr" />
		<tag k="natural" v="wetland" />
		<tag k="ssr:stedsnr" v="391439" />
	</node>
	<node lat="59.07903889196717" lon="10.130447213619714" id="-25567">
		<tag k="name" v="Vittersøskogen" />
		<tag k="place" v="locality" />
		<tag k="ssr:stedsnr" v="391910" />
	</node>
	<node lat="59.077613892281605" lon="10.156999995835864" id="-25576">
		<tag k="name" v="Engeskog" />
		<tag k="place" v="locality" />
		<tag k="ssr:stedsnr" v="391886" />
	</node>
	<node lat="59.094244442572545" lon="10.1084972297401" id="-25578">
		<tag k="name" v="Hans Skauens løkke" />
		<tag k="place" v="locality" />
		<tag k="ssr:stedsnr" v="391900" />
	</node>
	<node lat="59.15283611370999" lon="9.848074992487446" id="-25623">
		<tag k="name" v="Filledalsmyra" />
		<tag k="natural" v="wetland" />
		<tag k="ssr:stedsnr" v="487654" />
	</node>
	<node lat="59.30722777384243" lon="10.013324994989166" id="-25635">
		<tag k="alt_name" v="Storemyr" />
		<tag k="name" v="Stormyr" />
		<tag k="natural" v="wetland" />
		<tag k="ssr:stedsnr" v="488827" />
	</node>
	<node lat="59.3492749995939" lon="9.994600002935664" id="-25636">
		<tag k="fixme" v="multiple name tags, choose one and add the other to alt_name" />
		<tag k="name" v="Diplane;Hvislediplane" />
		<tag k="natural" v="wetland" />
		<tag k="ssr:stedsnr" v="488783" />
	</node>
	<node lat="59.457305554274704" lon="9.88805277627685" id="-25666">
		<tag k="name" v="Hjellemyr" />
		<tag k="natural" v="wetland" />
		<tag k="ssr:stedsnr" v="427606" />
	</node>
	<node lat="59.29693055307524" lon="9.970805555969335" id="-25673">
		<tag k="name" v="Rundkollmyr" />
		<tag k="natural" v="wetland" />
		<tag k="ssr:stedsnr" v="451583" />
	</node>
	<node lat="59.316691669034604" lon="9.931969449130413" id="-25677">
		<tag k="name" v="Setermyra" />
		<tag k="natural" v="wetland" />
		<tag k="ssr:stedsnr" v="451614" />
	</node>
	<node lat="59.41139722495156" lon="10.055319436390658" id="-25690">
		<tag k="name" v="Kollvannsmyr" />
		<tag k="natural" v="wetland" />
		<tag k="ssr:stedsnr" v="452164" />
	</node>
	<node lat="58.975902780358034" lon="9.881775001398545" id="-25702">
		<tag k="name" v="Eineren" />
		<tag k="place" v="locality" />
		<tag k="ssr:stedsnr" v="452372" />
	</node>
	<node lat="59.27971944285839" lon="9.985200008657733" id="-25802">
		<tag k="name" v="Storemyr" />
		<tag k="natural" v="wetland" />
		<tag k="ssr:stedsnr" v="489889" />
	</node>
	<node lat="59.32171388664086" lon="9.84332221949717" id="-25814">
		<tag k="name" v="Den store steinen" />
		<tag k="place" v="locality" />
		<tag k="ssr:stedsnr" v="512070" />
	</node>
	<node lat="59.319683335045106" lon="9.826536115446842" id="-25815">
		<tag k="name" v="Setermyr" />
		<tag k="natural" v="wetland" />
		<tag k="ssr:stedsnr" v="512071" />
	</node>
	<node lat="59.32752499986495" lon="9.88925277884917" id="-25819">
		<tag k="name" v="Ollemyra" />
		<tag k="natural" v="wetland" />
		<tag k="ssr:stedsnr" v="512076" />
	</node>
	<node lat="59.07063888495642" lon="9.959655554675459" id="-25820">
		<tag k="name" v="Lavmyr" />
		<tag k="natural" v="wetland" />
		<tag k="ssr:stedsnr" v="512077" />
	</node>
	<node lat="59.06568611467648" lon="10.106286118993394" id="-25829">
		<tag k="name" v="Gjerstadskogen" />
		<tag k="place" v="locality" />
		<tag k="ssr:stedsnr" v="512215" />
	</node>
	<node lat="59.15282222322919" lon="10.00625278193585" id="-25847">
		<tag k="name" v="Bråtamyra" />
		<tag k="natural" v="wetland" />
		<tag k="ssr:stedsnr" v="512908" />
	</node>
	<node lat="59.275013886204405" lon="9.880941675172377" id="-25869">
		<tag k="name" v="Dammene" />
		<tag k="place" v="locality" />
		<tag k="ssr:stedsnr" v="513029" />
	</node>
	<node lat="59.358811110236694" lon="9.903491669920264" id="-25877">
		<tag k="name" v="Fotmyr" />
		<tag k="natural" v="wetland" />
		<tag k="ssr:stedsnr" v="513178" />
	</node>
	<node lat="59.282822221563165" lon="9.841400006157711" id="-25894">
		<tag k="name" v="Briskemyr" />
		<tag k="natural" v="wetland" />
		<tag k="ssr:stedsnr" v="513964" />
	</node>
	<node lat="59.330713887119074" lon="9.944200002391549" id="-25938">
		<tag k="name" v="Åkermyr" />
		<tag k="natural" v="wetland" />
		<tag k="ssr:stedsnr" v="572612" />
	</node>
	<node lat="59.07456667013609" lon="10.130861114020263" id="-25955">
		<tag k="name" v="Veslemyr" />
		<tag k="natural" v="wetland" />
		<tag k="ssr:stedsnr" v="573045" />
	</node>
	<node lat="59.25747499560606" lon="9.874866663759729" id="-25956">
		<tag k="name" v="De høye myrer" />
		<tag k="natural" v="wetland" />
		<tag k="ssr:stedsnr" v="573046" />
	</node>
	<node lat="59.080269442381514" lon="9.871730556318857" id="-25961">
		<tag k="name" v="Ulemyr" />
		<tag k="natural" v="wetland" />
		<tag k="ssr:stedsnr" v="573204" />
	</node>
	<node lat="59.338052776463016" lon="9.821213885897974" id="-25988">
		<tag k="name" v="Vegskjelmyr" />
		<tag k="natural" v="wetland" />
		<tag k="ssr:stedsnr" v="573157" />
	</node>
	<node lat="59.101900001096446" lon="9.869900007847459" id="-26008">
		<tag k="name" v="Matgranmyr" />
		<tag k="natural" v="wetland" />
		<tag k="ssr:stedsnr" v="694160" />
	</node>
	<node lat="59.17098888849259" lon="9.980419443002148" id="-26022">
		<tag k="landuse" v="meadow" />
		<tag k="name" v="Gjoneødegården" />
		<tag k="ssr:stedsnr" v="573961" />
	</node>
	<node lat="59.086805555915824" lon="10.010241659060169" id="-26026">
		<tag k="name" v="Hesterønningen" />
		<tag k="place" v="locality" />
		<tag k="ssr:stedsnr" v="573900" />
	</node>
	<node lat="59.42299722539661" lon="10.050269451495776" id="-26031">
		<tag k="name" v="Postmyr" />
		<tag k="natural" v="wetland" />
		<tag k="ssr:stedsnr" v="695128" />
	</node>
	<node lat="59.421841664213446" lon="10.058194448503759" id="-26034">
		<tag k="name" v="Delemyr" />
		<tag k="natural" v="wetland" />
		<tag k="ssr:stedsnr" v="695134" />
	</node>
	<node lat="59.24175555219499" lon="10.016772215992557" id="-26053">
		<tag k="historic" v="shieling" />
		<tag k="name" v="Farmensetra" />
		<tag k="place" v="locality" />
		<tag k="ssr:stedsnr" v="694762" />
	</node>
	<node lat="59.22860832959145" lon="9.98055277698789" id="-26058">
		<tag k="name" v="Setermyra" />
		<tag k="natural" v="wetland" />
		<tag k="ssr:stedsnr" v="694807" />
	</node>
	<node lat="59.094836109370306" lon="10.151802773975865" id="-26065">
		<tag k="name" v="Flyteren" />
		<tag k="natural" v="wetland" />
		<tag k="ssr:stedsnr" v="694850" />
	</node>
	<node lat="59.15557499770627" lon="9.967738881964467" id="-26069">
		<tag k="name" v="Olas myr" />
		<tag k="natural" v="wetland" />
		<tag k="ssr:stedsnr" v="694900" />
	</node>
	<node lat="59.15440833304361" lon="9.96673056040109" id="-26070">
		<tag k="name" v="Dordis myr" />
		<tag k="natural" v="wetland" />
		<tag k="ssr:stedsnr" v="694901" />
	</node>
	<node lat="59.394338891923326" lon="10.01604999517919" id="-26073">
		<tag k="name" v="Spelheim" />
		<tag k="place" v="locality" />
		<tag k="ssr:stedsnr" v="694991" />
	</node>
	<node lat="59.30715555698485" lon="9.830030561057022" id="-26084">
		<tag k="name" v="Hogstet" />
		<tag k="place" v="locality" />
		<tag k="ssr:stedsnr" v="695100" />
	</node>
	<node lat="59.01621666809876" lon="9.865844445248522" id="-26111">
		<tag k="landuse" v="meadow" />
		<tag k="name" v="Vassengene" />
		<tag k="ssr:stedsnr" v="695451" />
	</node>
	<node lat="59.024044447615815" lon="10.183297222876403" id="-26118">
		<tag k="name" v="Ishustomta" />
		<tag k="place" v="locality" />
		<tag k="ssr:stedsnr" v="695945" />
	</node>
	<node lat="59.33621666550954" lon="9.774647230689064" id="-26119">
		<tag k="name" v="Trengslemyr" />
		<tag k="natural" v="wetland" />
		<tag k="ssr:stedsnr" v="695946" />
	</node>
	<node lat="59.03359722472193" lon="10.180400004743989" id="-26121">
		<tag k="name" v="Tenvikporten" />
		<tag k="place" v="locality" />
		<tag k="ssr:stedsnr" v="695954" />
	</node>
	<node lat="59.217080555138544" lon="9.88289166559351" id="-26179">
		<tag k="name" v="Svartangmyra" />
		<tag k="natural" v="wetland" />
		<tag k="ssr:stedsnr" v="633098" />
	</node>
	<node lat="59.33265833244148" lon="9.847033333239185" id="-26180">
		<tag k="name" v="Langmyr" />
		<tag k="natural" v="wetland" />
		<tag k="ssr:stedsnr" v="633100" />
	</node>
	<node lat="59.37107500454336" lon="9.864069439538353" id="-26189">
		<tag k="historic" v="shieling" />
		<tag k="name" v="Smokkstadsetrene" />
		<tag k="place" v="locality" />
		<tag k="ssr:stedsnr" v="633228" />
	</node>
	<node lat="59.33218333145526" lon="9.828324999883437" id="-26191">
		<tag k="name" v="Kjølemyr" />
		<tag k="natural" v="wetland" />
		<tag k="ssr:stedsnr" v="633103" />
	</node>
	<node lat="59.11530277352591" lon="10.15163332691914" id="-26198">
		<tag k="name" v="Kjærskogen" />
		<tag k="place" v="locality" />
		<tag k="ssr:stedsnr" v="633194" />
	</node>
	<node lat="59.21179166931902" lon="10.010691665885393" id="-26220">
		<tag k="historic" v="shieling" />
		<tag k="name" v="Nedre Nesseter" />
		<tag k="place" v="locality" />
		<tag k="ssr:stedsnr" v="633891" />
	</node>
	<node lat="59.119263886262594" lon="10.01624166322296" id="-26227">
		<tag k="name" v="Furulandmyrene" />
		<tag k="natural" v="wetland" />
		<tag k="ssr:stedsnr" v="633930" />
	</node>
	<node lat="59.03259999687603" lon="9.988427773456447" id="-26245">
		<tag k="name" v="Tvetene" />
		<tag k="place" v="locality" />
		<tag k="ssr:stedsnr" v="634535" />
	</node>
	<node lat="59.06001111421626" lon="10.042699995572434" id="-26278">
		<tag k="name" v="Borgejordet" />
		<tag k="place" v="locality" />
		<tag k="ssr:stedsnr" v="694105" />
	</node>
	<node lat="59.076861114856754" lon="9.885308332680843" id="-26286">
		<tag k="name" v="Solumsetermyr" />
		<tag k="natural" v="wetland" />
		<tag k="ssr:stedsnr" v="694217" />
	</node>
	<node lat="59.36167499697259" lon="9.969430560262456" id="-26303">
		<tag k="name" v="Furustulmyr" />
		<tag k="place" v="locality" />
		<tag k="ssr:stedsnr" v="694705" />
	</node>
	<node lat="59.24246111387526" lon="9.971302785598205" id="-26307">
		<tag k="name" v="Rødstuten" />
		<tag k="place" v="locality" />
		<tag k="ssr:stedsnr" v="694789" />
	</node>
	<node lat="59.15980555345732" lon="9.975061114294322" id="-26308">
		<tag k="name" v="Høymyr" />
		<tag k="natural" v="wetland" />
		<tag k="ssr:stedsnr" v="694903" />
	</node>
	<node lat="59.13411944425491" lon="10.110291675206607" id="-26309">
		<tag k="name" v="Kjønnerødskogen" />
		<tag k="place" v="locality" />
		<tag k="ssr:stedsnr" v="694817" />
	</node>
	<node lat="59.086513887610224" lon="10.04586110636994" id="-26315">
		<tag k="name" v="Svartemyr" />
		<tag k="natural" v="wetland" />
		<tag k="ssr:stedsnr" v="694883" />
	</node>
	<node lat="59.26995555320239" lon="9.90113332561803" id="-26318">
		<tag k="name" v="Brentåsmyr" />
		<tag k="natural" v="wetland" />
		<tag k="ssr:stedsnr" v="695008" />
	</node>
	<node lat="59.28564166859251" lon="9.858958325870205" id="-26319">
		<tag k="name" v="Lille Høymyr" />
		<tag k="natural" v="wetland" />
		<tag k="ssr:stedsnr" v="695015" />
	</node>
	<node lat="59.086969441450115" lon="9.873947223687225" id="-26350">
		<tag k="name" v="Blautmyr" />
		<tag k="natural" v="wetland" />
		<tag k="ssr:stedsnr" v="695218" />
	</node>
	<node lat="59.040399997361405" lon="9.860308338375814" id="-26433">
		<tag k="name" v="Verdåsmyr" />
		<tag k="natural" v="wetland" />
		<tag k="ssr:stedsnr" v="755125" />
	</node>
	<node lat="59.1833777807299" lon="9.933850007140805" id="-26437">
		<tag k="name" v="Røyremyr" />
		<tag k="natural" v="wetland" />
		<tag k="ssr:stedsnr" v="755010" />
	</node>
	<node lat="59.38399722513042" lon="9.887691674457042" id="-26452">
		<tag k="name" v="Bjørsmyr" />
		<tag k="natural" v="wetland" />
		<tag k="ssr:stedsnr" v="755250" />
	</node>
	<node lat="59.141383335357595" lon="9.87195834038007" id="-26453">
		<tag k="name" v="Styggemyr" />
		<tag k="natural" v="wetland" />
		<tag k="ssr:stedsnr" v="755251" />
	</node>
	<node lat="59.02921944770227" lon="9.875861110776714" id="-26462">
		<tag k="name" v="Østskogen" />
		<tag k="place" v="locality" />
		<tag k="ssr:stedsnr" v="755422" />
	</node>
	<node lat="59.116097225257775" lon="10.082741659427636" id="-26464">
		<tag k="name" v="Damsmyr" />
		<tag k="natural" v="wetland" />
		<tag k="ssr:stedsnr" v="755149" />
	</node>
	<node lat="59.11618611493569" lon="10.106274993634411" id="-26467">
		<tag k="name" v="Ringdalskogen" />
		<tag k="place" v="locality" />
		<tag k="ssr:stedsnr" v="755158" />
	</node>
	<node lat="59.02188333489309" lon="9.98409444590997" id="-26473">
		<tag k="name" v="Bergene skog" />
		<tag k="place" v="locality" />
		<tag k="ssr:stedsnr" v="755507" />
	</node>
	<node lat="59.347444445309584" lon="9.958102775942818" id="-26476">
		<tag k="name" v="Gørsmyr" />
		<tag k="natural" v="wetland" />
		<tag k="ssr:stedsnr" v="755664" />
	</node>
	<node lat="59.33474722547793" lon="9.96041388755892" id="-26477">
		<tag k="name" v="Sprangdalsmyr" />
		<tag k="natural" v="wetland" />
		<tag k="ssr:stedsnr" v="755666" />
	</node>
	<node lat="59.17621389257613" lon="10.10378333497984" id="-26479">
		<tag k="name" v="Åsbjørnrødskog" />
		<tag k="place" v="locality" />
		<tag k="ssr:stedsnr" v="755803" />
	</node>
	<node lat="59.186727773768105" lon="10.117097221891186" id="-26483">
		<tag k="name" v="Gunnerødskogen" />
		<tag k="place" v="locality" />
		<tag k="ssr:stedsnr" v="755812" />
	</node>
	<node lat="59.16021388765073" lon="10.106861110014568" id="-26488">
		<tag k="name" v="Rånarødskogen" />
		<tag k="place" v="locality" />
		<tag k="ssr:stedsnr" v="755852" />
	</node>
	<node lat="59.1509416696636" lon="10.007541664041627" id="-26493">
		<tag k="historic" v="shieling" />
		<tag k="name" v="Brathagseter" />
		<tag k="place" v="locality" />
		<tag k="ssr:stedsnr" v="755905" />
	</node>
	<node lat="59.39187499844674" lon="9.802091664653002" id="-26495">
		<tag k="name" v="Floene" />
		<tag k="natural" v="wetland" />
		<tag k="ssr:stedsnr" v="755950" />
	</node>
	<node lat="59.03257777715411" lon="10.168538889779699" id="-26496">
		<tag k="name" v="Båtstå" />
		<tag k="place" v="locality" />
		<tag k="ssr:stedsnr" v="755952" />
	</node>
	<node lat="59.359113884929805" lon="9.806466667633707" id="-26498">
		<tag k="name" v="Åkermyrene" />
		<tag k="natural" v="wetland" />
		<tag k="ssr:stedsnr" v="755954" />
	</node>
	<node lat="59.218536113068026" lon="10.038869436572318" id="-26507">
		<tag k="name" v="Tinndalsmyr" />
		<tag k="natural" v="wetland" />
		<tag k="ssr:stedsnr" v="756895" />
	</node>
	<node lat="59.41862500171781" lon="9.819269443680948" id="-26549">
		<tag k="alt_name" v="Høymyrene" />
		<tag k="name" v="Høymyrane" />
		<tag k="natural" v="wetland" />
		<tag k="ssr:stedsnr" v="791544" />
	</node>
	<node lat="59.45083888455593" lon="9.967866658460975" id="-26604">
		<tag k="name" v="Åsmyr" />
		<tag k="natural" v="wetland" />
		<tag k="ssr:stedsnr" v="815889" />
	</node>
	<node lat="59.12187499750322" lon="9.899083328701131" id="-26607">
		<tag k="name" v="Strandsmyr" />
		<tag k="natural" v="wetland" />
		<tag k="ssr:stedsnr" v="816009" />
	</node>
	<node lat="59.27825277484581" lon="9.920486110983534" id="-26609">
		<tag k="name" v="Kastet" />
		<tag k="place" v="locality" />
		<tag k="ssr:stedsnr" v="816011" />
	</node>
	<node lat="59.24533333320109" lon="9.895016669616389" id="-26629">
		<tag k="name" v="Barlinddalhåvet" />
		<tag k="old_name" v="Barlindalhåvet" />
		<tag k="place" v="locality" />
		<tag k="ssr:stedsnr" v="816073" />
	</node>
	<node lat="59.168883332526526" lon="9.913597220962183" id="-26633">
		<tag k="name" v="Langmyr" />
		<tag k="natural" v="wetland" />
		<tag k="ssr:stedsnr" v="816079" />
	</node>
	<node lat="59.315452777056535" lon="9.819816671867398" id="-26635">
		<tag k="name" v="Guttemyr" />
		<tag k="natural" v="wetland" />
		<tag k="ssr:stedsnr" v="816081" />
	</node>
	<node lat="59.349363888529744" lon="9.95260833110242" id="-26665">
		<tag k="name" v="Dammyr" />
		<tag k="natural" v="wetland" />
		<tag k="ssr:stedsnr" v="816720" />
	</node>
	<node lat="59.217550000008266" lon="10.028569447075675" id="-26676">
		<tag k="historic" v="shieling" />
		<tag k="name" v="Øvre Nesseter" />
		<tag k="place" v="locality" />
		<tag k="ssr:stedsnr" v="816879" />
	</node>
	<node lat="59.27160000051613" lon="9.8388055545436" id="-26680">
		<tag k="name" v="Donemyrstykket" />
		<tag k="natural" v="wetland" />
		<tag k="ssr:stedsnr" v="816970" />
	</node>
	<node lat="59.445605558651856" lon="10.061850008687173" id="-26717">
		<tag k="alt_name" v="Langemyr" />
		<tag k="name" v="Vintermyr" />
		<tag k="natural" v="wetland" />
		<tag k="ssr:stedsnr" v="852078" />
	</node>
	<node lat="59.2259722242467" lon="9.921358330353176" id="-26736">
		<tag k="name" v="Mekkelsdulp" />
		<tag k="natural" v="wetland" />
		<tag k="ssr:stedsnr" v="876053" />
	</node>
	<node lat="59.167624997558626" lon="9.908936115982051" id="-26739">
		<tag k="name" v="Spirehogstet" />
		<tag k="place" v="locality" />
		<tag k="ssr:stedsnr" v="876064" />
	</node>
	<node lat="59.07051944023516" lon="9.896952778660973" id="-26742">
		<tag k="name" v="Tjønnemyr" />
		<tag k="natural" v="wetland" />
		<tag k="ssr:stedsnr" v="876158" />
	</node>
	<node lat="59.175947222773836" lon="9.962058335990324" id="-26758">
		<tag k="name" v="Naturhølet" />
		<tag k="place" v="locality" />
		<tag k="ssr:stedsnr" v="876958" />
	</node>
	<node lat="59.139302774547225" lon="9.988830549757093" id="-26759">
		<tag k="historic" v="shieling" />
		<tag k="name" v="Sundbysetra" />
		<tag k="place" v="locality" />
		<tag k="ssr:stedsnr" v="876968" />
	</node>
	<node lat="59.279302778749454" lon="9.893063881010873" id="-26767">
		<tag k="name" v="Rønningen" />
		<tag k="place" v="locality" />
		<tag k="ssr:stedsnr" v="877003" />
	</node>
	<node lat="59.06713332947856" lon="10.135166669272186" id="-26779">
		<tag k="name" v="Slottemyra" />
		<tag k="natural" v="wetland" />
		<tag k="ssr:stedsnr" v="877212" />
	</node>
	<node lat="59.3638583349837" lon="9.991808339881546" id="-26825">
		<tag k="name" v="Høymyr" />
		<tag k="natural" v="wetland" />
		<tag k="ssr:stedsnr" v="912216" />
	</node>
	<node lat="59.30656389243147" lon="9.7893861059737" id="-26837">
		<tag k="name" v="Langemyr" />
		<tag k="natural" v="wetland" />
		<tag k="ssr:stedsnr" v="912426" />
	</node>
	<node lat="59.125041663924236" lon="9.90170554710719" id="-26858">
		<tag k="name" v="Legda" />
		<tag k="place" v="locality" />
		<tag k="ssr:stedsnr" v="937009" />
	</node>
	<node lat="59.041622224859864" lon="9.953547222761523" id="-26874">
		<tag k="name" v="Setermyr" />
		<tag k="natural" v="wetland" />
		<tag k="ssr:stedsnr" v="937155" />
	</node>
	<node lat="59.05746111001761" lon="9.947733325208143" id="-26881">
		<tag k="name" v="Askedalsmyr" />
		<tag k="natural" v="wetland" />
		<tag k="ssr:stedsnr" v="937089" />
	</node>
	<node lat="59.11360277671481" lon="9.851874993133688" id="-26886">
		<tag k="name" v="Svartemyr" />
		<tag k="natural" v="wetland" />
		<tag k="ssr:stedsnr" v="937206" />
	</node>
	<node lat="59.41505277722643" lon="9.981283327488091" id="-26893">
		<tag k="name" v="Bruenga" />
		<tag k="place" v="locality" />
		<tag k="ssr:stedsnr" v="937542" />
	</node>
	<node lat="59.04304722245723" lon="10.214683338408038" id="-26897">
		<tag k="name" v="Holtanmyra" />
		<tag k="natural" v="wetland" />
		<tag k="ssr:stedsnr" v="937605" />
	</node>
	<node lat="59.14672777543996" lon="9.991747229260408" id="-26904">
		<tag k="historic" v="shieling" />
		<tag k="name" v="Sø-Gjone seter" />
		<tag k="place" v="locality" />
		<tag k="ssr:stedsnr" v="937916" />
	</node>
	<node lat="59.0673583338398" lon="10.195258332576561" id="-26906">
		<tag k="name" v="Kjønna" />
		<tag k="natural" v="wetland" />
		<tag k="ssr:stedsnr" v="937920" />
	</node>
	<node lat="59.059199999379395" lon="10.174930557819797" id="-26908">
		<tag k="name" v="Klåstadstranda" />
		<tag k="place" v="locality" />
		<tag k="ssr:stedsnr" v="937923" />
	</node>
	<node lat="59.04416012710574" lon="10.100225087119814" id="-26912">
		<tag k="name" v="Guriskogen" />
		<tag k="place" v="locality" />
		<tag k="ssr:stedsnr" v="937936" />
	</node>
	<node lat="59.28331666611545" lon="9.864183335391141" id="-26924">
		<tag k="name" v="Sleamyr" />
		<tag k="natural" v="wetland" />
		<tag k="ssr:stedsnr" v="938020" />
	</node>
	<node lat="59.284683329999666" lon="9.870652775824906" id="-26925">
		<tag k="name" v="Spannmyra" />
		<tag k="natural" v="wetland" />
		<tag k="ssr:stedsnr" v="938022" />
	</node>
	<node lat="59.290191662293026" lon="9.89207500364572" id="-26926">
		<tag k="name" v="Odden" />
		<tag k="place" v="locality" />
		<tag k="ssr:stedsnr" v="938026" />
	</node>
	<node lat="59.09041388572165" lon="9.930583324803672" id="-26929">
		<tag k="name" v="Hestemyr" />
		<tag k="natural" v="wetland" />
		<tag k="ssr:stedsnr" v="938184" />
	</node>
	<node lat="58.96435476742771" lon="9.870915222459914" id="-27014">
		<tag k="name" v="Munken" />
		<tag k="natural" v="stone" />
		<tag k="ssr:stedsnr" v="988936" />
	</node>
	<node lat="59.08997778056616" lon="9.948024994828081" id="-27055">
		<tag k="name" v="Stormyr" />
		<tag k="natural" v="wetland" />
		<tag k="ssr:stedsnr" v="2395" />
	</node>
	<node lat="59.27622222112144" lon="9.983341658336261" id="-27077">
		<tag k="name" v="Småmyrene" />
		<tag k="natural" v="wetland" />
		<tag k="ssr:stedsnr" v="26662" />
	</node>
	<node lat="59.176011107287664" lon="10.086522219869051" id="-27084">
		<tag k="name" v="Langmyr" />
		<tag k="natural" v="wetland" />
		<tag k="ssr:stedsnr" v="27796" />
	</node>
	<node lat="59.22448888736395" lon="9.980488890164846" id="-27085">
		<tag k="name" v="Hesterønningen" />
		<tag k="place" v="locality" />
		<tag k="ssr:stedsnr" v="27804" />
	</node>
	<node lat="59.0972999964848" lon="10.12090555741488" id="-27090">
		<tag k="name" v="Lindhjemskogen" />
		<tag k="place" v="locality" />
		<tag k="ssr:stedsnr" v="27881" />
	</node>
	<node lat="59.14700278013826" lon="9.945588893591669" id="-27092">
		<tag k="name" v="Langemyr" />
		<tag k="natural" v="wetland" />
		<tag k="ssr:stedsnr" v="27889" />
	</node>
	<node lat="59.095299997164034" lon="9.964680547011195" id="-27100">
		<tag k="name" v="Strandegårdsmyr" />
		<tag k="natural" v="wetland" />
		<tag k="ssr:stedsnr" v="27932" />
	</node>
	<node lat="59.388430551896725" lon="10.009241658672728" id="-27111">
		<tag k="name" v="Kinnemyr" />
		<tag k="natural" v="wetland" />
		<tag k="ssr:stedsnr" v="26991" />
	</node>
	<node lat="59.391252781483644" lon="9.975902782646651" id="-27112">
		<tag k="name" v="Andersenvolden" />
		<tag k="place" v="locality" />
		<tag k="ssr:stedsnr" v="26995" />
	</node>
	<node lat="59.26766944034142" lon="9.874247218877416" id="-27120">
		<tag k="name" v="Brumyr" />
		<tag k="natural" v="wetland" />
		<tag k="ssr:stedsnr" v="27051" />
	</node>
	<node lat="59.06935278015729" lon="9.967825005076289" id="-27122">
		<tag k="name" v="Evensmyr" />
		<tag k="natural" v="wetland" />
		<tag k="ssr:stedsnr" v="27062" />
	</node>
	<node lat="59.06820555792871" lon="9.961200008053366" id="-27123">
		<tag k="name" v="Sky Stormyr" />
		<tag k="natural" v="wetland" />
		<tag k="ssr:stedsnr" v="27064" />
	</node>
	<node lat="59.05751666590741" lon="10.131736103311036" id="-27145">
		<tag k="name" v="Østbyskogen" />
		<tag k="place" v="locality" />
		<tag k="ssr:stedsnr" v="27213" />
	</node>
	<node lat="59.40743611157866" lon="9.869791669698875" id="-27155">
		<tag k="name" v="Tallakstad" />
		<tag k="place" v="locality" />
		<tag k="ssr:stedsnr" v="27260" />
	</node>
	<node lat="59.308141662296165" lon="9.788338896957924" id="-27159">
		<tag k="name" v="Hellemyrbånn" />
		<tag k="place" v="locality" />
		<tag k="ssr:stedsnr" v="27314" />
	</node>
	<node lat="58.97547777874791" lon="9.905222221176635" id="-27161">
		<tag k="name" v="Eidstenskogen" />
		<tag k="place" v="locality" />
		<tag k="ssr:stedsnr" v="27394" />
	</node>
	<node lat="59.23956666388531" lon="9.937869452651762" id="-27165">
		<tag k="name" v="Jakobsmyr" />
		<tag k="natural" v="wetland" />
		<tag k="ssr:stedsnr" v="27821" />
	</node>
	<node lat="59.23435555508601" lon="9.941938885766186" id="-27166">
		<tag k="name" v="Orerønningen" />
		<tag k="place" v="locality" />
		<tag k="ssr:stedsnr" v="27822" />
	</node>
	<node lat="59.02794722311542" lon="10.08307776932396" id="-27171">
		<tag k="name" v="Drengskogen" />
		<tag k="place" v="locality" />
		<tag k="ssr:stedsnr" v="27465" />
	</node>
	<node lat="59.12564721790478" lon="10.028461115884255" id="-27179">
		<tag k="name" v="Rundemyr" />
		<tag k="natural" v="wetland" />
		<tag k="ssr:stedsnr" v="28000" />
	</node>
	<node lat="59.10201615580306" lon="9.853759920888654" id="-27203">
		<tag k="alt_name" v="Skjeggemyr, store;Skjeggemyra" />
		<tag k="name" v="Store Skjeggemyr" />
		<tag k="natural" v="wetland" />
		<tag k="ssr:stedsnr" v="62398" />
	</node>
	<node lat="59.326672222683335" lon="9.976361106856821" id="-27235">
		<tag k="name" v="Saghølet" />
		<tag k="place" v="locality" />
		<tag k="ssr:stedsnr" v="87597" />
	</node>
	<node lat="59.2598833347736" lon="9.956161117970947" id="-27246">
		<tag k="landuse" v="meadow" />
		<tag k="name" v="Strandene" />
		<tag k="ssr:stedsnr" v="87658" />
	</node>
	<node lat="58.97185833551317" lon="9.892963886436423" id="-27252">
		<tag k="name" v="Sørskogen" />
		<tag k="place" v="locality" />
		<tag k="ssr:stedsnr" v="88341" />
	</node>
	<node lat="59.050383331895716" lon="10.178747217552758" id="-27259">
		<tag k="name" v="Hovlandenga" />
		<tag k="place" v="locality" />
		<tag k="ssr:stedsnr" v="88579" />
	</node>
	<node lat="59.39170277462584" lon="9.936388882621427" id="-27272">
		<tag k="name" v="Askjemhagan" />
		<tag k="place" v="locality" />
		<tag k="ssr:stedsnr" v="87991" />
	</node>
	<node lat="59.22603889109369" lon="9.883066669930484" id="-27277">
		<tag k="name" v="Smalmyr" />
		<tag k="natural" v="wetland" />
		<tag k="ssr:stedsnr" v="88033" />
	</node>
	<node lat="59.32283055719828" lon="9.83278889248799" id="-27296">
		<tag k="name" v="Heklingkollmyr" />
		<tag k="natural" v="wetland" />
		<tag k="ssr:stedsnr" v="88064" />
	</node>
	<node lat="59.23855833410437" lon="10.015894437645558" id="-27315">
		<tag k="name" v="De lange myrane" />
		<tag k="natural" v="wetland" />
		<tag k="ssr:stedsnr" v="88739" />
	</node>
	<node lat="59.16590000321673" lon="10.112919448690022" id="-27316">
		<tag k="name" v="Åshildrødskogen" />
		<tag k="place" v="locality" />
		<tag k="ssr:stedsnr" v="88745" />
	</node>
	<node lat="59.23969722190594" lon="9.957980548176929" id="-27318">
		<tag k="name" v="Rødsrønningen" />
		<tag k="place" v="locality" />
		<tag k="ssr:stedsnr" v="88795" />
	</node>
	<node lat="59.23277500324489" lon="9.985283334424789" id="-27320">
		<tag k="name" v="De store myrane" />
		<tag k="natural" v="wetland" />
		<tag k="ssr:stedsnr" v="88801" />
	</node>
	<node lat="59.4158305535857" lon="9.804400007518348" id="-27339">
		<tag k="name" v="Steinbekkmyrene" />
		<tag k="natural" v="wetland" />
		<tag k="ssr:stedsnr" v="88953" />
	</node>
	<node lat="59.46201388653991" lon="9.795644448276212" id="-27341">
		<tag k="name" v="Djupmyr" />
		<tag k="natural" v="wetland" />
		<tag k="ssr:stedsnr" v="88955" />
	</node>
	<node lat="59.149311109533755" lon="10.007797223664772" id="-27345">
		<tag k="historic" v="shieling" />
		<tag k="name" v="Nordre Bjerkeseter" />
		<tag k="place" v="locality" />
		<tag k="ssr:stedsnr" v="88984" />
	</node>
	<node lat="59.319383337044094" lon="9.785794437014093" id="-27348">
		<tag k="name" v="Sjutjernmyra" />
		<tag k="natural" v="wetland" />
		<tag k="ssr:stedsnr" v="88960" />
	</node>
	<node lat="59.03209722059565" lon="10.191249998994431" id="-27350">
		<tag k="name" v="Stabbemyr" />
		<tag k="natural" v="wetland" />
		<tag k="ssr:stedsnr" v="88963" />
	</node>
	<node lat="59.30750833260488" lon="9.896641661261013" id="-27456">
		<tag k="name" v="Tufta" />
		<tag k="place" v="locality" />
		<tag k="ssr:stedsnr" v="148133" />
	</node>
	<node lat="59.28100277898939" lon="9.891638889117111" id="-27458">
		<tag k="name" v="Damrønningen" />
		<tag k="place" v="locality" />
		<tag k="ssr:stedsnr" v="148001" />
	</node>
	<node lat="59.014147222324745" lon="10.091838897167829" id="-27468">
		<tag k="name" v="Orevikmyra" />
		<tag k="natural" v="wetland" />
		<tag k="ssr:stedsnr" v="148079" />
	</node>
	<node lat="59.3039750033803" lon="9.824986117495397" id="-27474">
		<tag k="name" v="Dammyra" />
		<tag k="natural" v="wetland" />
		<tag k="ssr:stedsnr" v="148095" />
	</node>
	<node lat="59.29515555276945" lon="9.900222230099526" id="-27482">
		<tag k="name" v="Brennbua" />
		<tag k="place" v="locality" />
		<tag k="ssr:stedsnr" v="148189" />
	</node>
	<node lat="59.15933333123919" lon="9.92320277382341" id="-27504">
		<tag k="name" v="Diplemyr" />
		<tag k="natural" v="wetland" />
		<tag k="ssr:stedsnr" v="148237" />
	</node>
	<node lat="59.391955558549654" lon="9.839499997088497" id="-27509">
		<tag k="name" v="Høymyr" />
		<tag k="natural" v="wetland" />
		<tag k="ssr:stedsnr" v="148251" />
	</node>
	<node lat="59.085702775035315" lon="10.184422220178162" id="-27526">
		<tag k="name" v="Hybbestadskogen" />
		<tag k="place" v="locality" />
		<tag k="ssr:stedsnr" v="148600" />
	</node>
	<node lat="59.124105555847905" lon="10.112319448963556" id="-27536">
		<tag k="name" v="Ringdalskogen" />
		<tag k="place" v="locality" />
		<tag k="ssr:stedsnr" v="148846" />
	</node>
	<node lat="59.022344444138" lon="10.177844453125404" id="-27563">
		<tag k="name" v="Sand" />
		<tag k="place" v="locality" />
		<tag k="ssr:stedsnr" v="148948" />
	</node>
	<node lat="59.19315278009401" lon="10.02631110753684" id="-27564">
		<tag k="historic" v="shieling" />
		<tag k="name" v="Søndre Holmseter" />
		<tag k="place" v="locality" />
		<tag k="ssr:stedsnr" v="148952" />
	</node>
</osm>
