<?xml version="1.0" encoding="UTF-8"?>
<osm version="0.6" generator="osmapis">
	<node lat="59.04369166907525" lon="10.064161103166276" id="-58930">
		<tag k="alt_name" v="Gloppe" />
		<tag k="bridge" v="yes" />
		<tag k="layer" v="1" />
		<tag k="name" v="Gloppe bru" />
		<tag k="ssr:stedsnr" v="27231" />
	</node>
	<node lat="59.054486114200714" lon="10.228266673829264" id="-58948">
		<tag k="man_made" v="quay" />
		<tag k="name" v="Skjellsand" />
		<tag k="place" v="locality" />
		<tag k="ssr:stedsnr" v="27608" />
	</node>
	<node lat="59.07344512869199" lon="9.904448464230864" id="-58969">
		<tag k="layer" v="-1" />
		<tag k="name" v="Sandbekkåstunnelen" />
		<tag k="ssr:stedsnr" v="42775" />
		<tag k="tunnel" v="yes" />
	</node>
	<node lat="59.17523889303218" lon="10.017722218886458" id="-58970">
		<tag k="bridge" v="yes" />
		<tag k="layer" v="1" />
		<tag k="name" v="Bergene" />
		<tag k="ssr:stedsnr" v="46576" />
	</node>
	<node lat="59.05381389231756" lon="10.016897227238173" id="-58971">
		<tag k="bridge" v="yes" />
		<tag k="layer" v="1" />
		<tag k="name" v="Hammerdalen" />
		<tag k="ssr:stedsnr" v="46590" />
	</node>
	<node lat="59.0498916692134" lon="10.122952778942839" id="-59049">
		<tag k="alt_name" v="Viksfjord st." />
		<tag k="name" v="Viksfjord" />
		<tag k="railway" v="station" />
		<tag k="ssr:stedsnr" v="245173" />
		<tag k="train" v="yes" />
	</node>
	<node lat="59.049191671048234" lon="10.029330549638942" id="-59093">
		<tag k="man_made" v="quay" />
		<tag k="name" v="Østre brygge" />
		<tag k="place" v="locality" />
		<tag k="ssr:stedsnr" v="88078" />
	</node>
	<node lat="59.042083336120164" lon="10.065130549942614" id="-59122">
		<tag k="man_made" v="quay" />
		<tag k="name" v="Nordlyløkka" />
		<tag k="place" v="locality" />
		<tag k="ssr:stedsnr" v="88198" />
	</node>
	<node lat="59.31024999659109" lon="9.86541665834198" id="-59156">
		<tag k="bridge" v="yes" />
		<tag k="layer" v="1" />
		<tag k="name" v="Lofstad" />
		<tag k="ssr:stedsnr" v="107673" />
	</node>
	<node lat="59.03392221876974" lon="10.0651694411252" id="-59225">
		<tag k="man_made" v="quay" />
		<tag k="name" v="Hølen båthavn" />
		<tag k="place" v="locality" />
		<tag k="ssr:stedsnr" v="148267" />
	</node>
	<node lat="59.171830556842956" lon="9.979069437093958" id="-59281">
		<tag k="bridge" v="yes" />
		<tag k="layer" v="1" />
		<tag k="name" v="Ødegård" />
		<tag k="ssr:stedsnr" v="167614" />
	</node>
	<node lat="59.09159721985566" lon="10.167358335377383" id="-59383">
		<tag k="alt_name" v="Istre" />
		<tag k="bridge" v="yes" />
		<tag k="layer" v="1" />
		<tag k="name" v="Istrebrua" />
		<tag k="ssr:stedsnr" v="209583" />
	</node>
	<node lat="59.29242500341262" lon="9.942927780117962" id="-59794">
		<tag k="bridge" v="yes" />
		<tag k="layer" v="1" />
		<tag k="name" v="Saga" />
		<tag k="ssr:stedsnr" v="289602" />
	</node>
	<node lat="59.03282222013327" lon="10.013797230614783" id="-59795">
		<tag k="bridge" v="yes" />
		<tag k="layer" v="1" />
		<tag k="name" v="Brendsrød bru" />
		<tag k="ssr:stedsnr" v="289581" />
	</node>
	<node lat="59.083841664695086" lon="10.063274991879656" id="-59796">
		<tag k="bridge" v="yes" />
		<tag k="layer" v="1" />
		<tag k="name" v="Bommestad kulvert" />
		<tag k="ssr:stedsnr" v="289584" />
	</node>
	<node lat="58.982452777782484" lon="9.925361107474583" id="-59797">
		<tag k="bridge" v="yes" />
		<tag k="layer" v="1" />
		<tag k="name" v="Hummerbakk" />
		<tag k="ssr:stedsnr" v="289597" />
	</node>
	<node lat="59.06909444107302" lon="10.033372215778698" id="-59852">
		<tag k="bridge" v="yes" />
		<tag k="layer" v="1" />
		<tag k="name" v="Bjørndalen" />
		<tag k="ssr:stedsnr" v="470534" />
	</node>
	<node lat="59.16002499759676" lon="10.06166666320637" id="-59902">
		<tag k="bridge" v="yes" />
		<tag k="layer" v="1" />
		<tag k="name" v="Furufjell" />
		<tag k="ssr:stedsnr" v="349602" />
	</node>
	<node lat="59.079277778573" lon="10.202655557313452" id="-59903">
		<tag k="bridge" v="yes" />
		<tag k="layer" v="1" />
		<tag k="name" v="Hem bru" />
		<tag k="ssr:stedsnr" v="349604" />
	</node>
	<node lat="59.050775003189464" lon="10.021597226965618" id="-59904">
		<tag k="bridge" v="yes" />
		<tag k="layer" v="1" />
		<tag k="name" v="Langestrand bru" />
		<tag k="ssr:stedsnr" v="349607" />
	</node>
	<node lat="59.071330557492196" lon="10.057266662538531" id="-59905">
		<tag k="bridge" v="yes" />
		<tag k="layer" v="1" />
		<tag k="name" v="Nordby" />
		<tag k="ssr:stedsnr" v="349609" />
	</node>
	<node lat="59.06477222514238" lon="9.950036114122508" id="-59906">
		<tag k="bridge" v="yes" />
		<tag k="layer" v="1" />
		<tag k="name" v="Pauler østre" />
		<tag k="ssr:stedsnr" v="349610" />
	</node>
	<node lat="59.07430833140626" lon="9.884530561454232" id="-59907">
		<tag k="bridge" v="yes" />
		<tag k="layer" v="1" />
		<tag k="name" v="Solum østre" />
		<tag k="ssr:stedsnr" v="349613" />
	</node>
	<node lat="59.07177150066421" lon="9.93536973550257" id="-60022">
		<tag k="layer" v="-1" />
		<tag k="name" v="Malerødtunnelen" />
		<tag k="ssr:stedsnr" v="403797" />
		<tag k="tunnel" v="yes" />
	</node>
	<node lat="59.06809111736038" lon="9.948954741893973" id="-60023">
		<tag k="layer" v="-1" />
		<tag k="name" v="Paulertunnelen" />
		<tag k="ssr:stedsnr" v="403799" />
		<tag k="tunnel" v="yes" />
	</node>
	<node lat="59.1474361087124" lon="9.895438889879554" id="-60094">
		<tag k="name" v="Eikenes" />
		<tag k="railway" v="station" />
		<tag k="ssr:stedsnr" v="426607" />
		<tag k="train" v="yes" />
	</node>
	<node lat="59.07013611157698" lon="9.90171944142413" id="-60207">
		<tag k="bridge" v="yes" />
		<tag k="layer" v="1" />
		<tag k="name" v="Tjønnemyra" />
		<tag k="ssr:stedsnr" v="470561" />
	</node>
	<node lat="59.060602780066866" lon="10.067002777240823" id="-60208">
		<tag k="bridge" v="yes" />
		<tag k="layer" v="1" />
		<tag k="name" v="Yttersø nord" />
		<tag k="ssr:stedsnr" v="470565" />
	</node>
	<node lat="59.05722777409803" lon="10.066055562464065" id="-60209">
		<tag k="bridge" v="yes" />
		<tag k="layer" v="1" />
		<tag k="name" v="Yttersø syd" />
		<tag k="ssr:stedsnr" v="470566" />
	</node>
	<node lat="59.30916944825547" lon="9.957311103253474" id="-60340">
		<tag k="bridge" v="yes" />
		<tag k="layer" v="1" />
		<tag k="name" v="Sagstua" />
		<tag k="ssr:stedsnr" v="531602" />
	</node>
	<node lat="59.15504722518932" lon="10.051227777213988" id="-60341">
		<tag k="bridge" v="yes" />
		<tag k="layer" v="1" />
		<tag k="name" v="Sundgapet" />
		<tag k="ssr:stedsnr" v="531606" />
	</node>
	<node lat="59.07631388607166" lon="10.042411112449932" id="-60342">
		<tag k="bridge" v="yes" />
		<tag k="layer" v="1" />
		<tag k="name" v="Vestmarkveien" />
		<tag k="ssr:stedsnr" v="531610" />
	</node>
	<node lat="59.025966669129176" lon="10.017252779835971" id="-60343">
		<tag k="bridge" v="yes" />
		<tag k="layer" v="1" />
		<tag k="name" v="Fredenshavn bru" />
		<tag k="ssr:stedsnr" v="531588" />
	</node>
	<node lat="59.055986107738306" lon="10.006502771405655" id="-60344">
		<tag k="bridge" v="yes" />
		<tag k="layer" v="1" />
		<tag k="name" v="Farrisheimen" />
		<tag k="ssr:stedsnr" v="531589" />
	</node>
	<node lat="59.04958333131164" lon="10.027783325404835" id="-60442">
		<tag k="man_made" v="quay" />
		<tag k="name" v="Vestre brygge" />
		<tag k="place" v="locality" />
		<tag k="ssr:stedsnr" v="694097" />
	</node>
	<node lat="59.06455780815221" lon="9.990778172396533" id="-60570">
		<tag k="layer" v="-1" />
		<tag k="name" v="Martineåstunnelen" />
		<tag k="ssr:stedsnr" v="586748" />
		<tag k="tunnel" v="yes" />
	</node>
	<node lat="59.07608998624699" lon="9.888692947627751" id="-60571">
		<tag k="layer" v="-1" />
		<tag k="name" v="Hobekksetertunnelen" />
		<tag k="ssr:stedsnr" v="588820" />
		<tag k="tunnel" v="yes" />
	</node>
	<node lat="59.125547218243085" lon="9.90116666259189" id="-60572">
		<tag k="bridge" v="yes" />
		<tag k="layer" v="1" />
		<tag k="name" v="Berug" />
		<tag k="ssr:stedsnr" v="591516" />
	</node>
	<node lat="59.21498611331095" lon="9.9920361145109" id="-60573">
		<tag k="bridge" v="yes" />
		<tag k="layer" v="1" />
		<tag k="name" v="Farmen" />
		<tag k="ssr:stedsnr" v="591523" />
	</node>
	<node lat="59.05564444757155" lon="10.01282222564819" id="-60574">
		<tag k="bridge" v="yes" />
		<tag k="layer" v="1" />
		<tag k="name" v="Farriseidet" />
		<tag k="ssr:stedsnr" v="591528" />
	</node>
	<node lat="59.06151666734913" lon="10.02442499806507" id="-60575">
		<tag k="bridge" v="yes" />
		<tag k="layer" v="1" />
		<tag k="name" v="Bøkeskogen bru" />
		<tag k="ssr:stedsnr" v="592573" />
	</node>
	<node lat="59.04234444667206" lon="10.046094452159148" id="-60675">
		<tag k="man_made" v="quay" />
		<tag k="name" v="Kanalkaia" />
		<tag k="place" v="locality" />
		<tag k="ssr:stedsnr" v="633935" />
	</node>
	<node lat="59.35032777653288" lon="9.917666666953988" id="-60682">
		<tag k="alt_name" v="Gåserud" />
		<tag k="bridge" v="yes" />
		<tag k="layer" v="1" />
		<tag k="name" v="Gåserudbrua" />
		<tag k="ssr:stedsnr" v="634203" />
	</node>
	<node lat="59.056805552134996" lon="10.014191668790652" id="-60694">
		<tag k="bridge" v="yes" />
		<tag k="layer" v="1" />
		<tag k="name" v="Farris Treschow-Fritzøe vest" />
		<tag k="ssr:stedsnr" v="652534" />
	</node>
	<node lat="59.27846944060677" lon="9.935527784602794" id="-60695">
		<tag k="bridge" v="yes" />
		<tag k="layer" v="1" />
		<tag k="name" v="Haugselv" />
		<tag k="ssr:stedsnr" v="652540" />
	</node>
	<node lat="59.19379166698809" lon="9.905724993217591" id="-60696">
		<tag k="bridge" v="yes" />
		<tag k="layer" v="1" />
		<tag k="name" v="Myra" />
		<tag k="ssr:stedsnr" v="652544" />
	</node>
	<node lat="59.23862222540983" lon="9.943838881255298" id="-60697">
		<tag k="bridge" v="yes" />
		<tag k="layer" v="1" />
		<tag k="name" v="Rimstad" />
		<tag k="ssr:stedsnr" v="652550" />
	</node>
	<node lat="59.21053333051462" lon="10.069569448771464" id="-60698">
		<tag k="bridge" v="yes" />
		<tag k="layer" v="1" />
		<tag k="name" v="Gåsholt" />
		<tag k="ssr:stedsnr" v="653747" />
	</node>
	<node lat="59.19244999660551" lon="10.086627780237187" id="-60819">
		<tag k="bridge" v="yes" />
		<tag k="layer" v="1" />
		<tag k="name" v="Holmen" />
		<tag k="ssr:stedsnr" v="713578" />
	</node>
	<node lat="59.0629611077321" lon="10.02709722542774" id="-60820">
		<tag k="bridge" v="yes" />
		<tag k="layer" v="1" />
		<tag k="name" v="Lovisenlund mur" />
		<tag k="ssr:stedsnr" v="713584" />
	</node>
	<node lat="59.39682222481646" lon="9.975936105660454" id="-60837">
		<tag k="alt_name" v="Hukstrøm" />
		<tag k="bridge" v="yes" />
		<tag k="layer" v="1" />
		<tag k="name" v="Hukstrøm bru" />
		<tag k="ssr:stedsnr" v="730221" />
	</node>
	<node lat="59.106833336582234" lon="9.919522225445702" id="-60848">
		<tag k="alt_name" v="Kjose st." />
		<tag k="name" v="Kjose" />
		<tag k="railway" v="station" />
		<tag k="ssr:stedsnr" v="730405" />
		<tag k="train" v="yes" />
	</node>
	<node lat="59.04965555425519" lon="10.025969451905203" id="-60879">
		<tag k="man_made" v="quay" />
		<tag k="name" v="Tollboden" />
		<tag k="place" v="locality" />
		<tag k="ssr:stedsnr" v="755117" />
	</node>
	<node lat="59.04042222216689" lon="10.226536102636334" id="-60936">
		<tag k="man_made" v="quay" />
		<tag k="name" v="Søndre havn" />
		<tag k="place" v="locality" />
		<tag k="ssr:stedsnr" v="755597" />
	</node>
	<node lat="59.03569166607212" lon="10.123455559557605" id="-60951">
		<tag k="man_made" v="quay" />
		<tag k="name" v="Kommunebrygga" />
		<tag k="place" v="locality" />
		<tag k="ssr:stedsnr" v="756150" />
	</node>
	<node lat="59.20228332978887" lon="10.069322224365033" id="-60955">
		<tag k="bridge" v="yes" />
		<tag k="layer" v="1" />
		<tag k="name" v="Husebekk" />
		<tag k="ssr:stedsnr" v="774604" />
	</node>
	<node lat="59.0673999956065" lon="9.933033334426737" id="-60956">
		<tag k="bridge" v="yes" />
		<tag k="layer" v="1" />
		<tag k="name" v="Pauler vestre" />
		<tag k="ssr:stedsnr" v="774609" />
	</node>
	<node lat="59.11645555230023" lon="9.907666668210476" id="-60957">
		<tag k="bridge" v="yes" />
		<tag k="layer" v="1" />
		<tag k="name" v="Strandsmyr" />
		<tag k="ssr:stedsnr" v="774612" />
	</node>
	<node lat="59.07349999812944" lon="10.183980550648084" id="-60958">
		<tag k="bridge" v="yes" />
		<tag k="layer" v="1" />
		<tag k="name" v="Syrrist" />
		<tag k="ssr:stedsnr" v="774614" />
	</node>
	<node lat="59.328549997971294" lon="9.978747216759976" id="-61133">
		<tag k="bridge" v="yes" />
		<tag k="layer" v="1" />
		<tag k="name" v="Snope" />
		<tag k="ssr:stedsnr" v="228696" />
	</node>
	<node lat="59.14074999883524" lon="10.05686943719148" id="-61134">
		<tag k="bridge" v="yes" />
		<tag k="layer" v="1" />
		<tag k="name" v="Hagtvedt" />
		<tag k="ssr:stedsnr" v="835581" />
	</node>
	<node lat="59.06600833600576" lon="10.031041672270973" id="-61135">
		<tag k="bridge" v="yes" />
		<tag k="layer" v="1" />
		<tag k="name" v="Månejordet" />
		<tag k="ssr:stedsnr" v="835586" />
	</node>
	<node lat="59.08949722640254" lon="10.093019437139086" id="-61136">
		<tag k="bridge" v="yes" />
		<tag k="layer" v="1" />
		<tag k="name" v="Verningen" />
		<tag k="ssr:stedsnr" v="835594" />
	</node>
	<node lat="59.173119443081255" lon="9.991936103727204" id="-61259">
		<tag k="bridge" v="yes" />
		<tag k="layer" v="1" />
		<tag k="name" v="Gjone" />
		<tag k="ssr:stedsnr" v="895513" />
	</node>
	<node lat="59.2997194462494" lon="9.840986102863424" id="-61260">
		<tag k="bridge" v="yes" />
		<tag k="layer" v="1" />
		<tag k="name" v="Askedal" />
		<tag k="ssr:stedsnr" v="896707" />
	</node>
	<node lat="59.05677778153948" lon="10.011013885207287" id="-61396">
		<tag k="bridge" v="yes" />
		<tag k="layer" v="1" />
		<tag k="name" v="Farrisbrua" />
		<tag k="ssr:stedsnr" v="950713" />
	</node>
	<node lat="58.98717777668405" lon="9.869127770423521" id="-61397">
		<tag k="bridge" v="yes" />
		<tag k="layer" v="1" />
		<tag k="name" v="Amundrød" />
		<tag k="ssr:stedsnr" v="956591" />
	</node>
	<node lat="59.15765277443172" lon="10.015922214744489" id="-61398">
		<tag k="bridge" v="yes" />
		<tag k="layer" v="1" />
		<tag k="name" v="Bratthagen mur" />
		<tag k="ssr:stedsnr" v="956592" />
	</node>
	<node lat="59.05650833714478" lon="10.013938896874231" id="-61399">
		<tag k="bridge" v="yes" />
		<tag k="layer" v="1" />
		<tag k="name" v="Farris Treschow-Fritzøe øst" />
		<tag k="ssr:stedsnr" v="956597" />
	</node>
	<node lat="59.016652780573025" lon="9.910997221131797" id="-61400">
		<tag k="bridge" v="yes" />
		<tag k="layer" v="1" />
		<tag k="name" v="Kjerrat" />
		<tag k="ssr:stedsnr" v="956606" />
	</node>
	<node lat="59.0518805572615" lon="10.02225834117952" id="-61401">
		<tag k="bridge" v="yes" />
		<tag k="layer" v="1" />
		<tag k="name" v="Møllegaten mur" />
		<tag k="ssr:stedsnr" v="956608" />
	</node>
	<node lat="59.04580833053425" lon="9.839324999318972" id="-61402">
		<tag k="bridge" v="yes" />
		<tag k="layer" v="1" />
		<tag k="name" v="Mørjen" />
		<tag k="ssr:stedsnr" v="956609" />
	</node>
	<node lat="59.31822499616583" lon="9.966913896574152" id="-61403">
		<tag k="bridge" v="yes" />
		<tag k="layer" v="1" />
		<tag k="name" v="Plassen" />
		<tag k="ssr:stedsnr" v="956612" />
	</node>
	<node lat="59.06033889222803" lon="10.063197224944219" id="-61404">
		<tag k="bridge" v="yes" />
		<tag k="layer" v="1" />
		<tag k="name" v="Tagtvedt" />
		<tag k="ssr:stedsnr" v="956617" />
	</node>
	<node lat="59.07048888931728" lon="9.923475006712556" id="-61405">
		<tag k="bridge" v="yes" />
		<tag k="layer" v="1" />
		<tag k="name" v="Vassbotn vestre" />
		<tag k="ssr:stedsnr" v="956618" />
	</node>
	<node lat="59.07344069251585" lon="9.913433298943751" id="-61419">
		<tag k="highway" v="rest_area" />
		<tag k="name" v="Vassbotnbrua rasteplass" />
		<tag k="ssr:stedsnr" v="973803" />
	</node>
	<node lat="59.05612633455529" lon="10.007668070246265" id="-61420">
		<tag k="highway" v="bus_stop" />
		<tag k="name" v="Farriseidet" />
		<tag k="ssr:stedsnr" v="973804" />
	</node>
	<node lat="59.05797204151587" lon="10.017454881734794" id="-61421">
		<tag k="junction" v="yes" />
		<tag k="name" v="Farriseidkrysset" />
		<tag k="place" v="locality" />
		<tag k="ssr:stedsnr" v="973808" />
	</node>
	<node lat="58.99915392595512" lon="10.041323677979731" id="-61468">
		<tag k="man_made" v="quay" />
		<tag k="name" v="Jacobsens brygge" />
		<tag k="place" v="locality" />
		<tag k="ssr:stedsnr" v="988914" />
	</node>
	<node lat="59.00023183838581" lon="10.04055600100931" id="-61469">
		<tag k="man_made" v="quay" />
		<tag k="name" v="Ohlsens brygge" />
		<tag k="place" v="locality" />
		<tag k="ssr:stedsnr" v="988915" />
	</node>
	<node lat="58.99801025551802" lon="10.041527504185458" id="-61470">
		<tag k="man_made" v="quay" />
		<tag k="name" v="Promenaden" />
		<tag k="place" v="locality" />
		<tag k="ssr:stedsnr" v="988916" />
	</node>
	<node lat="59.04122452267265" lon="10.043972259868779" id="-61471">
		<tag k="man_made" v="quay" />
		<tag k="name" v="Revkaia" />
		<tag k="place" v="locality" />
		<tag k="ssr:stedsnr" v="988922" />
	</node>
	<node lat="59.04447015211612" lon="10.043511669804545" id="-61472">
		<tag k="man_made" v="quay" />
		<tag k="name" v="Soyabrygga" />
		<tag k="place" v="locality" />
		<tag k="ssr:stedsnr" v="988925" />
	</node>
	<node lat="59.04411830829609" lon="10.045089607106696" id="-61473">
		<tag k="man_made" v="quay" />
		<tag k="name" v="Mariusbrygga" />
		<tag k="place" v="locality" />
		<tag k="ssr:stedsnr" v="988926" />
	</node>
	<node lat="59.04301904621731" lon="10.046054769329473" id="-61474">
		<tag k="man_made" v="quay" />
		<tag k="name" v="Spuntveggkaia" />
		<tag k="place" v="locality" />
		<tag k="ssr:stedsnr" v="988927" />
	</node>
	<node lat="59.04849190871595" lon="10.033427380563168" id="-61475">
		<tag k="man_made" v="quay" />
		<tag k="name" v="Skottebrygga" />
		<tag k="place" v="locality" />
		<tag k="ssr:stedsnr" v="988928" />
	</node>
	<node lat="59.008653331458156" lon="9.774183178212313" id="-61479">
		<tag k="name" v="Kjørtingleia" />
		<tag k="place" v="locality" />
		<tag k="ssr:stedsnr" v="989962" />
	</node>
	<node lat="58.9974000005721" lon="10.119330558059717" id="-61532">
		<tag k="name" v="Båtleia" />
		<tag k="place" v="locality" />
		<tag k="ssr:stedsnr" v="26132" />
	</node>
	<node lat="58.94388888472875" lon="9.863813895424888" id="-61535">
		<tag k="name" v="Torskerenna" />
		<tag k="place" v="locality" />
		<tag k="ssr:stedsnr" v="26272" />
	</node>
	<node lat="59.01315278084917" lon="10.170152781606044" id="-61562">
		<tag k="landuse" v="harbour" />
		<tag k="name" v="Fisebu" />
		<tag k="seamark:type" v="harbour" />
		<tag k="ssr:stedsnr" v="27929" />
	</node>
	<node lat="59.021202776203275" lon="10.015536103118405" id="-61649">
		<tag k="bridge" v="yes" />
		<tag k="layer" v="1" />
		<tag k="name" v="Tronsrød bru" />
		<tag k="ssr:stedsnr" v="46608" />
	</node>
	<node lat="59.027094442133006" lon="10.112730560253539" id="-61759">
		<tag k="man_made" v="quay" />
		<tag k="name" v="Hella" />
		<tag k="place" v="locality" />
		<tag k="ssr:stedsnr" v="88062" />
	</node>
	<node lat="59.08333889234259" lon="10.057177770847863" id="-61816">
		<tag k="bridge" v="yes" />
		<tag k="layer" v="1" />
		<tag k="name" v="Trulse" />
		<tag k="ssr:stedsnr" v="107582" />
	</node>
	<node lat="59.08711944637174" lon="10.064797217431565" id="-61817">
		<tag k="bridge" v="yes" />
		<tag k="layer" v="1" />
		<tag k="name" v="Bommestad II" />
		<tag k="ssr:stedsnr" v="107563" />
	</node>
	<node lat="59.063844446806165" lon="10.162391674690129" id="-61861">
		<tag k="alt_name" v="Santra" />
		<tag k="junction" v="yes" />
		<tag k="name" v="Sandtra" />
		<tag k="place" v="locality" />
		<tag k="ssr:stedsnr" v="123152" />
	</node>
	<node lat="59.060432387118965" lon="10.021342941608248" id="-62035">
		<tag k="layer" v="-1" />
		<tag k="name" v="Larvikstunnelen" />
		<tag k="ssr:stedsnr" v="161703" />
		<tag k="tunnel" v="yes" />
	</node>
	<node lat="59.05575278024786" lon="10.011183331243585" id="-62036">
		<tag k="bridge" v="yes" />
		<tag k="layer" v="1" />
		<tag k="name" v="Farris" />
		<tag k="ssr:stedsnr" v="167591" />
	</node>
	<node lat="59.42726944567111" lon="9.992919446687374" id="-62069">
		<tag k="alt_name" v="Brufoss" />
		<tag k="bridge" v="yes" />
		<tag k="layer" v="1" />
		<tag k="name" v="Brufossbru" />
		<tag k="ssr:stedsnr" v="184166" />
	</node>
	<node lat="58.94209166590539" lon="9.889244447270343" id="-62122">
		<tag k="name" v="Flyndrerenna" />
		<tag k="place" v="locality" />
		<tag k="ssr:stedsnr" v="208239" />
	</node>
	<node lat="59.062080827542715" lon="10.025454100864257" id="-62278">
		<tag k="layer" v="-1" />
		<tag k="name" v="Larviksporten" />
		<tag k="ssr:stedsnr" v="226330" />
		<tag k="tunnel" v="yes" />
	</node>
	<node lat="59.11257222270952" lon="9.909852770483045" id="-62279">
		<tag k="bridge" v="yes" />
		<tag k="layer" v="1" />
		<tag k="name" v="Strand" />
		<tag k="ssr:stedsnr" v="228622" />
	</node>
	<node lat="59.175080559345226" lon="10.073616660906657" id="-62280">
		<tag k="bridge" v="yes" />
		<tag k="layer" v="1" />
		<tag k="name" v="Åserum" />
		<tag k="ssr:stedsnr" v="228628" />
	</node>
	<node lat="59.064274996839494" lon="9.942194440220034" id="-62281">
		<tag k="bridge" v="yes" />
		<tag k="layer" v="1" />
		<tag k="name" v="Pauler" />
		<tag k="ssr:stedsnr" v="289599" />
	</node>
	<node lat="59.41603055756165" lon="9.993358341037045" id="-62282">
		<tag k="bridge" v="yes" />
		<tag k="layer" v="1" />
		<tag k="name" v="Pinnestad" />
		<tag k="ssr:stedsnr" v="289699" />
	</node>
	<node lat="59.01816389188737" lon="10.130869448793579" id="-62396">
		<tag k="man_made" v="quay" />
		<tag k="name" v="Vesta-brygga" />
		<tag k="place" v="locality" />
		<tag k="ssr:stedsnr" v="330134" />
	</node>
	<node lat="59.42166389005985" lon="10.036074991468862" id="-62453">
		<tag k="bridge" v="yes" />
		<tag k="layer" v="1" />
		<tag k="name" v="Springbrua" />
		<tag k="ssr:stedsnr" v="330876" />
	</node>
	<node lat="59.04407499708521" lon="10.114349992288952" id="-62471">
		<tag k="bridge" v="yes" />
		<tag k="layer" v="1" />
		<tag k="name" v="Rombergbrua" />
		<tag k="ssr:stedsnr" v="331121" />
	</node>
	<node lat="58.9930861142841" lon="10.199055549616835" id="-62551">
		<tag k="name" v="Skipsleia" />
		<tag k="place" v="locality" />
		<tag k="ssr:stedsnr" v="390127" />
	</node>
	<node lat="59.01828888975593" lon="10.095697229669392" id="-62629">
		<tag k="man_made" v="quay" />
		<tag k="name" v="Kongebrygga" />
		<tag k="place" v="locality" />
		<tag k="ssr:stedsnr" v="391079" />
	</node>
	<node lat="59.05602500213136" lon="10.169369442070293" id="-62684">
		<tag k="name" v="Klåstadkilen" />
		<tag k="ssr:stedsnr" v="391921" />
		<tag k="waterway" v="canal" />
	</node>
	<node lat="58.99203611413393" lon="10.025827775883387" id="-62705">
		<tag k="bridge" v="yes" />
		<tag k="layer" v="1" />
		<tag k="name" v="Fredtun" />
		<tag k="ssr:stedsnr" v="410552" />
	</node>
	<node lat="59.07911944443611" lon="10.0515111119411" id="-62706">
		<tag k="bridge" v="yes" />
		<tag k="layer" v="1" />
		<tag k="name" v="Hagamyr" />
		<tag k="ssr:stedsnr" v="410555" />
	</node>
	<node lat="59.21053333051462" lon="10.069569448771464" id="-62707">
		<tag k="bridge" v="yes" />
		<tag k="layer" v="1" />
		<tag k="name" v="Gåsholt" />
		<tag k="ssr:stedsnr" v="410556" />
	</node>
	<node lat="59.08776111478052" lon="10.068227786607197" id="-62772">
		<tag k="alt_name" v="Bommestad" />
		<tag k="bridge" v="yes" />
		<tag k="layer" v="1" />
		<tag k="name" v="Bommestad bru" />
		<tag k="ssr:stedsnr" v="512197" />
	</node>
	<node lat="59.042027777501694" lon="10.22727500087268" id="-62812">
		<tag k="man_made" v="quay" />
		<tag k="name" v="Nordre havn" />
		<tag k="place" v="locality" />
		<tag k="ssr:stedsnr" v="512607" />
	</node>
	<node lat="59.271633336764" lon="9.938116671594209" id="-62943">
		<tag k="alt_name" v="Hvåra" />
		<tag k="bridge" v="yes" />
		<tag k="layer" v="1" />
		<tag k="name" v="Hvåra bru" />
		<tag k="ssr:stedsnr" v="548453" />
	</node>
	<node lat="59.36281111133773" lon="9.905886117952095" id="-63038">
		<tag k="bridge" v="yes" />
		<tag k="layer" v="1" />
		<tag k="name" v="Kleivbrua" />
		<tag k="ssr:stedsnr" v="573166" />
	</node>
	<node lat="59.0489749958405" lon="10.036369440803483" id="-63096">
		<tag k="bridge" v="yes" />
		<tag k="layer" v="1" />
		<tag k="name" v="Herregårdssletta" />
		<tag k="ssr:stedsnr" v="591534" />
	</node>
	<node lat="59.281158333498155" lon="9.908558329302835" id="-63097">
		<tag k="bridge" v="yes" />
		<tag k="layer" v="1" />
		<tag k="name" v="Rambo" />
		<tag k="ssr:stedsnr" v="591541" />
	</node>
	<node lat="59.07353055314255" lon="10.154658338375858" id="-63098">
		<tag k="bridge" v="yes" />
		<tag k="layer" v="1" />
		<tag k="name" v="Skalleberg" />
		<tag k="ssr:stedsnr" v="592590" />
	</node>
	<node lat="59.437186107908396" lon="9.878877780406897" id="-63099">
		<tag k="bridge" v="yes" />
		<tag k="layer" v="1" />
		<tag k="name" v="Kviberg søndre" />
		<tag k="ssr:stedsnr" v="592691" />
	</node>
	<node lat="59.38631111161287" lon="9.978741658396492" id="-63100">
		<tag k="bridge" v="yes" />
		<tag k="layer" v="1" />
		<tag k="name" v="Gavelstad" />
		<tag k="ssr:stedsnr" v="592693" />
	</node>
	<node lat="59.0614833314761" lon="10.151058331011331" id="-63116">
		<tag k="name" v="Lauve" />
		<tag k="railway" v="station" />
		<tag k="ssr:stedsnr" v="608160" />
		<tag k="train" v="yes" />
	</node>
	<node lat="59.452288885965295" lon="9.866197225719025" id="-63303">
		<tag k="bridge" v="yes" />
		<tag k="layer" v="1" />
		<tag k="name" v="Kviberg nordre" />
		<tag k="old_name" v="Kviber Nordre" />
		<tag k="ssr:stedsnr" v="653658" />
	</node>
	<node lat="58.993302773833506" lon="9.919436107684431" id="-63362">
		<tag k="bridge" v="yes" />
		<tag k="layer" v="1" />
		<tag k="name" v="Berg bru" />
		<tag k="ssr:stedsnr" v="713556" />
	</node>
	<node lat="59.01291667024398" lon="10.02512777292609" id="-63363">
		<tag k="bridge" v="yes" />
		<tag k="layer" v="1" />
		<tag k="name" v="Agnes" />
		<tag k="ssr:stedsnr" v="713560" />
	</node>
	<node lat="59.09109166523836" lon="10.06702222814588" id="-63364">
		<tag k="bridge" v="yes" />
		<tag k="layer" v="1" />
		<tag k="name" v="Brubrua" />
		<tag k="ssr:stedsnr" v="713564" />
	</node>
	<node lat="59.3958694476396" lon="9.938061103529327" id="-63438">
		<tag k="landuse" v="industrial" />
		<tag k="name" v="Svarstad vannverk" />
		<tag k="power" v="plant" />
		<tag k="ssr:stedsnr" v="754533" />
	</node>
	<node lat="59.19763889091378" lon="10.096911115454379" id="-63518">
		<tag k="alt_name" v="Hagenes" />
		<tag k="bridge" v="yes" />
		<tag k="layer" v="1" />
		<tag k="name" v="Hagnesbrua" />
		<tag k="ssr:stedsnr" v="755827" />
	</node>
	<node lat="59.05704999855632" lon="10.01609445055224" id="-63554">
		<tag k="bridge" v="yes" />
		<tag k="layer" v="1" />
		<tag k="name" v="Bergeløkka" />
		<tag k="ssr:stedsnr" v="774589" />
	</node>
	<node lat="59.05395278115551" lon="10.014641670681593" id="-63555">
		<tag k="bridge" v="yes" />
		<tag k="layer" v="1" />
		<tag k="name" v="Hammerdalen mur" />
		<tag k="ssr:stedsnr" v="774599" />
	</node>
	<node lat="59.016544445689945" lon="9.910733339435609" id="-63556">
		<tag k="bridge" v="yes" />
		<tag k="layer" v="1" />
		<tag k="name" v="Halle" />
		<tag k="ssr:stedsnr" v="774601" />
	</node>
	<node lat="59.14263611111398" lon="9.846708326062684" id="-63684">
		<tag k="bridge" v="yes" />
		<tag k="layer" v="1" />
		<tag k="name" v="Terjes bruer" />
		<tag k="ssr:stedsnr" v="816249" />
	</node>
	<node lat="59.36390833641441" lon="9.918222221544287" id="-63742">
		<tag k="bridge" v="yes" />
		<tag k="layer" v="1" />
		<tag k="name" v="Engelstad mur" />
		<tag k="ssr:stedsnr" v="836623" />
	</node>
	<node lat="59.18799166666598" lon="9.99255833255815" id="-63846">
		<tag k="alt_name" v="Holmfoss" />
		<tag k="bridge" v="yes" />
		<tag k="layer" v="1" />
		<tag k="name" v="Holmfoss bru" />
		<tag k="ssr:stedsnr" v="876944" />
	</node>
	<node lat="59.332247221593704" lon="9.891602773220514" id="-64080">
		<tag k="bridge" v="yes" />
		<tag k="layer" v="1" />
		<tag k="name" v="Hovet mur" />
		<tag k="ssr:stedsnr" v="957619" />
	</node>
	<node lat="59.38866944227472" lon="9.949499995039368" id="-64081">
		<tag k="bridge" v="yes" />
		<tag k="layer" v="1" />
		<tag k="name" v="Askjem mur" />
		<tag k="ssr:stedsnr" v="957621" />
	</node>
	<node lat="59.07282169145938" lon="9.922197652379857" id="-64111">
		<tag k="bridge" v="yes" />
		<tag k="layer" v="1" />
		<tag k="name" v="Vassbotnbrua" />
		<tag k="ssr:stedsnr" v="973728" />
	</node>
	<node lat="58.9440068916853" lon="9.637917728815127" id="-65047">
		<tag k="name" v="Tonerhavn" />
		<tag k="place" v="locality" />
		<tag k="ssr:stedsnr" v="1074516" />
	</node>
	<node lat="58.995209772938" lon="9.856374845092915" id="-65072">
		<tag k="man_made" v="monitoring_station" />
		<tag k="monitoring:water_Level" v="yes" />
		<tag k="name" v="Helgeroa vannstandsmåler" />
		<tag k="ssr:stedsnr" v="1082267" />
	</node>
</osm>
