<?xml version="1.0" encoding="UTF-8"?>
<osm version="0.6" generator="osmapis">
	<node lat="58.991218709912225" lon="9.915258431024544" id="-25301">
		<tag k="alt_name" v="Berg kirke" />
		<tag k="amenity" v="place_of_worship" />
		<tag k="denomination" v="lutheran" />
		<tag k="name" v="Berg" />
		<tag k="religion" v="christian" />
		<tag k="ssr:stedsnr" v="61601" />
	</node>
	<node lat="59.33777556762045" lon="9.895673885303335" id="-25343">
		<tag k="amenity" v="place_of_worship" />
		<tag k="denomination" v="lutheran" />
		<tag k="name" v="Styrvoll kirke" />
		<tag k="religion" v="christian" />
		<tag k="ssr:stedsnr" v="63378" />
	</node>
	<node lat="59.02866666470878" lon="9.957852777972546" id="-25698">
		<tag k="name" v="Venlyst" />
		<tag k="place" v="locality" />
		<tag k="ssr:stedsnr" v="209494" />
	</node>
	<node lat="59.10767934102133" lon="9.917539915735016" id="-26141">
		<tag k="alt_name" v="Kjose" />
		<tag k="amenity" v="place_of_worship" />
		<tag k="denomination" v="lutheran" />
		<tag k="name" v="Kjose kirke" />
		<tag k="religion" v="christian" />
		<tag k="ssr:stedsnr" v="305413" />
	</node>
	<node lat="59.31351521078146" lon="9.890155804160822" id="-26257">
		<tag k="name" v="Myra" />
		<tag k="place" v="locality" />
		<tag k="ssr:stedsnr" v="366431" />
	</node>
	<node lat="59.04383611453757" lon="10.05462778537217" id="-26312">
		<tag k="cemetery" v="grave" />
		<tag k="name" v="Undersbo kirkegård" />
		<tag k="place" v="locality" />
		<tag k="ssr:stedsnr" v="391247" />
	</node>
	<node lat="59.12315832928898" lon="10.059641664869222" id="-26357">
		<tag k="amenity" v="place_of_worship" />
		<tag k="denomination" v="lutheran" />
		<tag k="name" v="Hedrum  kirke" />
		<tag k="religion" v="christian" />
		<tag k="ssr:stedsnr" v="487028" />
	</node>
	<node lat="58.970233330985494" lon="9.830247223492462" id="-26433">
		<tag k="name" v="Mølen gravhauger" />
		<tag k="place" v="locality" />
		<tag k="ssr:stedsnr" v="450276" />
	</node>
	<node lat="58.99304444718488" lon="9.919066659602656" id="-26487">
		<tag k="alt_name" v="Berg gamle kirke" />
		<tag k="amenity" v="place_of_worship" />
		<tag k="denomination" v="lutheran" />
		<tag k="name" v="Berg steinkirke" />
		<tag k="religion" v="christian" />
		<tag k="ssr:stedsnr" v="452247" />
	</node>
	<node lat="59.05673764607868" lon="10.125432062958726" id="-26912">
		<tag k="alt_name" v="Tjølling" />
		<tag k="amenity" v="place_of_worship" />
		<tag k="denomination" v="lutheran" />
		<tag k="name" v="Tjølling kirke" />
		<tag k="religion" v="christian" />
		<tag k="ssr:stedsnr" v="608149" />
	</node>
	<node lat="59.04672500269385" lon="10.035352785325307" id="-26963">
		<tag k="amenity" v="place_of_worship" />
		<tag k="denomination" v="lutheran" />
		<tag k="name" v="Larvik kirke" />
		<tag k="religion" v="christian" />
		<tag k="ssr:stedsnr" v="633135" />
	</node>
	<node lat="59.402363886979145" lon="9.96116111367035" id="-27179">
		<tag k="alt_name" v="Svarstad" />
		<tag k="amenity" v="place_of_worship" />
		<tag k="denomination" v="lutheran" />
		<tag k="name" v="Svarstad kirke" />
		<tag k="religion" v="christian" />
		<tag k="ssr:stedsnr" v="731261" />
	</node>
	<node lat="59.023900003298856" lon="9.969663881492876" id="-27468">
		<tag k="alt_name" v="Tanum" />
		<tag k="amenity" v="place_of_worship" />
		<tag k="denomination" v="lutheran" />
		<tag k="name" v="Tanum kirke" />
		<tag k="religion" v="christian" />
		<tag k="ssr:stedsnr" v="851209" />
	</node>
	<node lat="59.19707425692919" lon="9.967595468913995" id="-27611">
		<tag k="alt_name" v="Kvelde" />
		<tag k="amenity" v="place_of_worship" />
		<tag k="denomination" v="lutheran" />
		<tag k="name" v="Kvelde kirke" />
		<tag k="religion" v="christian" />
		<tag k="ssr:stedsnr" v="912719" />
	</node>
	<node lat="59.052247218590246" lon="9.98909721664053" id="-27632">
		<tag k="name" v="Veldre naturminne" />
		<tag k="ssr:stedsnr" v="937134" />
		<tag k="tourism" v="attraction" />
	</node>
	<node lat="59.04962059579348" lon="10.010272876346242" id="-27634">
		<tag k="alt_name" v="Langestrand" />
		<tag k="amenity" v="place_of_worship" />
		<tag k="denomination" v="lutheran" />
		<tag k="name" v="Langestrand kirke" />
		<tag k="religion" v="christian" />
		<tag k="ssr:stedsnr" v="937138" />
	</node>
	<node lat="59.018188892387975" lon="9.915311115000451" id="-27703">
		<tag k="amenity" v="community_centre" />
		<tag k="name" v="Halle bedehus" />
		<tag k="ssr:stedsnr" v="938430" />
	</node>
	<node lat="59.06665246862968" lon="10.056135264183384" id="-27883">
		<tag k="amenity" v="place_of_worship" />
		<tag k="denomination" v="lutheran" />
		<tag k="name" v="Nanset kirke" />
		<tag k="religion" v="christian" />
		<tag k="ssr:stedsnr" v="27038" />
	</node>
	<node lat="59.03735073491611" lon="10.070261191931236" id="-28183">
		<tag k="amenity" v="place_of_worship" />
		<tag k="denomination" v="lutheran" />
		<tag k="name" v="Østre Halsen kirke" />
		<tag k="religion" v="christian" />
		<tag k="ssr:stedsnr" v="146848" />
	</node>
</osm>
