<?xml version="1.0" encoding="UTF-8"?>
<osm generator="osmapis" version="0.6">
	<node id="-397312" lat="58.9709611097" lon="9.90807222956">
		<tag k="name" v="Kloppsandbukta" />
		<tag k="natural" v="bay" />
		<tag k="ssr:stedsnr" v="452405" />
	</node>
	<node id="-399325" lat="59.016775004" lon="10.1230861032">
		<tag k="name" v="Langøyholmen" />
		<tag k="place" v="islet" />
		<tag k="ssr:stedsnr" v="148098" />
	</node>
	<node id="-399320" lat="59.0178500024" lon="10.089497217">
		<tag k="fixme" v="consider seamark:type=rock or natural=shoal" />
		<tag k="name" v="Karpusa" />
		<tag k="place" v="islet" />
		<tag k="ssr:stedsnr" v="148083" />
	</node>
	<node id="-399319" lat="59.0160583338" lon="10.0912805561">
		<tag k="name" v="Orevika" />
		<tag k="natural" v="bay" />
		<tag k="ssr:stedsnr" v="148082" />
	</node>
	<node id="-399315" lat="59.015830553" lon="10.0751138875">
		<tag k="fixme" v="consider seamark:type=rock or natural=shoal" />
		<tag k="name" v="Matbordet" />
		<tag k="place" v="islet" />
		<tag k="ssr:stedsnr" v="148076" />
	</node>
	<node id="-397264" lat="58.9924055539" lon="10.0391222156">
		<tag k="fixme" v="multiple name tags, choose one and add the other to alt_name" />
		<tag k="name" v="Korntin;Kruttårnsbukta" />
		<tag k="natural" v="bay" />
		<tag k="ssr:stedsnr" v="451503" />
	</node>
	<node id="-397262" lat="58.9764805542" lon="10.0419194402">
		<tag k="name" v="Trollhetteflu" />
		<tag k="natural" v="shoal" />
		<tag k="place" v="locality" />
		<tag k="ssr:stedsnr" v="451037" />
	</node>
	<node id="-397261" lat="58.9676999995" lon="10.0407166714">
		<tag k="name" v="Buskebåen" />
		<tag k="natural" v="shoal" />
		<tag k="place" v="locality" />
		<tag k="ssr:stedsnr" v="451030" />
	</node>
	<node id="-397251" lat="58.9569555532" lon="9.7838388848">
		<tag k="bay" v="fjord" />
		<tag k="name" v="Langesundsbukta" />
		<tag k="natural" v="bay" />
		<tag k="ssr:stedsnr" v="426918" />
	</node>
	<node id="-399294" lat="58.9535833376" lon="9.89743334072">
		<tag k="fixme" v="consider seamark:type=rock or natural=shoal" />
		<tag k="name" v="Harven" />
		<tag k="place" v="islet" />
		<tag k="ssr:stedsnr" v="147239" />
	</node>
	<node id="-399290" lat="58.9887888847" lon="9.81480556397">
		<tag k="bay" v="fjord" />
		<tag k="name" v="Helgerofjorden" />
		<tag k="natural" v="bay" />
		<tag k="ssr:stedsnr" v="146495" />
	</node>
	<node id="-399289" lat="59.0124472224" lon="10.0369138969">
		<tag k="alt_name" v="Børstadbukta;Børestadbukta" />
		<tag k="name" v="Børrestadbukta" />
		<tag k="natural" v="bay" />
		<tag k="ssr:stedsnr" v="144804" />
	</node>
	<node id="-399288" lat="59.0031361135" lon="9.81958611567">
		<tag k="fixme" v="consider seamark:type=rock or natural=shoal" />
		<tag k="name" v="Selskjær" />
		<tag k="place" v="islet" />
		<tag k="ssr:stedsnr" v="145496" />
	</node>
	<node id="-397235" lat="58.9487638899" lon="9.89453056268">
		<tag k="name" v="Storskarven" />
		<tag k="place" v="islet" />
		<tag k="ssr:stedsnr" v="425922" />
	</node>
	<node id="-397234" lat="58.9320222264" lon="9.95207777417">
		<tag k="alt_name" v="Lundshausen" />
		<tag k="name" v="Lundshausene" />
		<tag k="natural" v="shoal" />
		<tag k="old_name" v="Lundshausane" />
		<tag k="place" v="locality" />
		<tag k="ssr:stedsnr" v="425919" />
	</node>
	<node id="-397232" lat="58.9931965126" lon="9.85163556726">
		<tag k="alt_name" v="Ubbeskjer" />
		<tag k="fixme" v="consider seamark:type=rock or natural=shoal" />
		<tag k="name" v="Ubbeskjær" />
		<tag k="place" v="islet" />
		<tag k="ssr:stedsnr" v="425604" />
	</node>
	<node id="-397231" lat="59.0223666645" lon="9.78590277577">
		<tag k="name" v="Halveisholmen, n" />
		<tag k="place" v="islet" />
		<tag k="ssr:stedsnr" v="420247" />
	</node>
	<node id="-397217" lat="59.0235000036" lon="10.0238861055">
		<tag k="name" v="Jordestranda" />
		<tag k="natural" v="beach" />
		<tag k="place" v="locality" />
		<tag k="ssr:stedsnr" v="513520" />
	</node>
	<node id="-401312" lat="58.8808669241" lon="9.40503401313">
		<tag k="name" v="Kalstadkilen" />
		<tag k="natural" v="bay" />
		<tag k="ssr:stedsnr" v="1074475" />
	</node>
	<node id="-397214" lat="58.9722749962" lon="9.92238888686">
		<tag k="name" v="Sandvika" />
		<tag k="natural" v="bay" />
		<tag k="ssr:stedsnr" v="513444" />
	</node>
	<node id="-397212" lat="58.9495638859" lon="9.87906110684">
		<tag k="fixme" v="consider seamark:type=rock or natural=shoal" />
		<tag k="name" v="Napeskjær" />
		<tag k="place" v="islet" />
		<tag k="ssr:stedsnr" v="513440" />
	</node>
	<node id="-397207" lat="58.9973444452" lon="9.80691111754">
		<tag k="name" v="Odden" />
		<tag k="natural" v="cape" />
		<tag k="ssr:stedsnr" v="513397" />
	</node>
	<node id="-397205" lat="59.0057749998" lon="9.80415277421">
		<tag k="name" v="Holmestrand" />
		<tag k="natural" v="cape" />
		<tag k="ssr:stedsnr" v="513386" />
	</node>
	<node id="-397203" lat="59.0094638862" lon="9.79167499505">
		<tag k="name" v="Eikaholmene" />
		<tag k="place" v="islet" />
		<tag k="ssr:stedsnr" v="513380" />
	</node>
	<node id="-397201" lat="58.9633361078" lon="9.94840834003">
		<tag k="fixme" v="consider seamark:type=rock or natural=shoal" />
		<tag k="name" v="Ødegårdsskjær" />
		<tag k="place" v="islet" />
		<tag k="ssr:stedsnr" v="513493" />
	</node>
	<node id="-397199" lat="58.9817611092" lon="9.9677833377">
		<tag k="name" v="Lyhusstranda" />
		<tag k="natural" v="beach" />
		<tag k="place" v="locality" />
		<tag k="ssr:stedsnr" v="513481" />
	</node>
	<node id="-397198" lat="58.9844499987" lon="9.97350554836">
		<tag k="name" v="Streterestranda" />
		<tag k="natural" v="beach" />
		<tag k="place" v="locality" />
		<tag k="ssr:stedsnr" v="513474" />
	</node>
	<node id="-399244" lat="58.9239777806" lon="10.0758750067">
		<tag k="name" v="Rennebåen" />
		<tag k="natural" v="shoal" />
		<tag k="place" v="locality" />
		<tag k="ssr:stedsnr" v="122996" />
	</node>
	<node id="-399243" lat="58.923088891" lon="10.055208333">
		<tag k="name" v="Tristeingrunnen" />
		<tag k="natural" v="shoal" />
		<tag k="place" v="locality" />
		<tag k="ssr:stedsnr" v="122995" />
	</node>
	<node id="-399242" lat="58.9472722227" lon="9.87791389457">
		<tag k="name" v="Napa" />
		<tag k="place" v="islet" />
		<tag k="ssr:stedsnr" v="122915" />
	</node>
	<node id="-397189" lat="59.036822219" lon="10.1311277753">
		<tag k="name" v="Flatholmen" />
		<tag k="place" v="islet" />
		<tag k="ssr:stedsnr" v="513159" />
	</node>
	<node id="-399231" lat="58.9978000019" lon="9.82006943745">
		<tag k="name" v="Lamøya" />
		<tag k="place" v="islet" />
		<tag k="ssr:stedsnr" v="122578" />
	</node>
	<node id="-396266" lat="59.0173611121" lon="10.0299999934">
		<tag k="alt_name" v="Lillevika" />
		<tag k="name" v="Lillevik" />
		<tag k="natural" v="bay" />
		<tag k="ssr:stedsnr" v="270492" />
	</node>
	<node id="-399223" lat="59.000400002" lon="10.1045527745">
		<tag k="name" v="Kirkebåen" />
		<tag k="natural" v="shoal" />
		<tag k="place" v="locality" />
		<tag k="ssr:stedsnr" v="122264" />
	</node>
	<node id="-399222" lat="59.0121666709" lon="10.1711750018">
		<tag k="name" v="Fisebuodden" />
		<tag k="natural" v="cape" />
		<tag k="ssr:stedsnr" v="122252" />
	</node>
	<node id="-401269" lat="58.960309082" lon="9.88733230731">
		<tag k="name" v="Bramskjæra" />
		<tag k="place" v="islet" />
		<tag k="ssr:stedsnr" v="988935" />
	</node>
	<node id="-399220" lat="59.0188499965" lon="10.2212833279">
		<tag k="name" v="Melleskjærfluene" />
		<tag k="natural" v="shoal" />
		<tag k="place" v="locality" />
		<tag k="ssr:stedsnr" v="122237" />
	</node>
	<node id="-399219" lat="59.0230416627" lon="10.2184361039">
		<tag k="name" v="Melleskjær" />
		<tag k="place" v="islet" />
		<tag k="ssr:stedsnr" v="122236" />
	</node>
	<node id="-399218" lat="59.0269388888" lon="10.2114999927">
		<tag k="name" v="Sandvikodden" />
		<tag k="natural" v="cape" />
		<tag k="ssr:stedsnr" v="122230" />
	</node>
	<node id="-399217" lat="59.0237750029" lon="10.1137166675">
		<tag k="alt_name" v="Viksfjord" />
		<tag k="bay" v="fjord" />
		<tag k="name" v="Viksfjorden" />
		<tag k="natural" v="bay" />
		<tag k="ssr:stedsnr" v="122225" />
	</node>
	<node id="-399216" lat="59.0330055559" lon="10.1284972267">
		<tag k="name" v="Lamøyholmen" />
		<tag k="place" v="islet" />
		<tag k="ssr:stedsnr" v="122214" />
	</node>
	<node id="-399215" lat="59.0296388883" lon="10.0214333294">
		<tag k="name" v="Jordebukta" />
		<tag k="natural" v="bay" />
		<tag k="ssr:stedsnr" v="122202" />
	</node>
	<node id="-399212" lat="59.0512027734" lon="10.2282138827">
		<tag k="name" v="Svinevika" />
		<tag k="natural" v="bay" />
		<tag k="ssr:stedsnr" v="122180" />
	</node>
	<node id="-399208" lat="59.0064749968" lon="10.1531333307">
		<tag k="name" v="Solbergodden" />
		<tag k="natural" v="cape" />
		<tag k="ssr:stedsnr" v="122012" />
	</node>
	<node id="-399207" lat="59.009316667" lon="10.1625611083">
		<tag k="name" v="Fordoppa" />
		<tag k="natural" v="bay" />
		<tag k="ssr:stedsnr" v="122011" />
	</node>
	<node id="-399203" lat="58.992933337" lon="9.79840554917">
		<tag k="name" v="Slåvikodden" />
		<tag k="natural" v="cape" />
		<tag k="ssr:stedsnr" v="116535" />
	</node>
	<node id="-399202" lat="59.0057083309" lon="9.84828332474">
		<tag k="name" v="Barkevikskjæra" />
		<tag k="place" v="islet" />
		<tag k="ssr:stedsnr" v="116279" />
	</node>
	<node id="-399201" lat="58.9900777783" lon="9.80818888985">
		<tag k="name" v="Kløvsteinbåen" />
		<tag k="natural" v="shoal" />
		<tag k="place" v="locality" />
		<tag k="ssr:stedsnr" v="116250" />
	</node>
	<node id="-399200" lat="58.9970361075" lon="9.80443611113">
		<tag k="name" v="Sandbukta" />
		<tag k="natural" v="bay" />
		<tag k="ssr:stedsnr" v="116246" />
	</node>
	<node id="-399195" lat="58.9986388854" lon="10.0468888821">
		<tag k="name" v="Floskjærbåen" />
		<tag k="place" v="locality" />
		<tag k="seamark:type" v="rock" />
		<tag k="ssr:stedsnr" v="101206" />
	</node>
	<node id="-396943" lat="59.0081638888" lon="9.84759443869">
		<tag k="name" v="Kjeøya" />
		<tag k="place" v="island" />
		<tag k="ssr:stedsnr" v="359314" />
	</node>
	<node id="-399178" lat="59.0316249964" lon="10.2206166588">
		<tag k="name" v="Rundås" />
		<tag k="natural" v="cape" />
		<tag k="ssr:stedsnr" v="88942" />
	</node>
	<node id="-399176" lat="59.0105611084" lon="10.1640194511">
		<tag k="name" v="Hasteinsvika" />
		<tag k="natural" v="bay" />
		<tag k="ssr:stedsnr" v="88937" />
	</node>
	<node id="-397127" lat="59.0398888873" lon="10.1627194485">
		<tag k="name" v="Tjøllingholmen" />
		<tag k="natural" v="cape" />
		<tag k="ssr:stedsnr" v="512650" />
	</node>
	<node id="-399168" lat="59.0583277754" lon="10.2326305514">
		<tag k="name" v="Kistesund" />
		<tag k="natural" v="strait" />
		<tag k="ssr:stedsnr" v="88892" />
	</node>
	<node id="-397118" lat="59.0273249997" lon="10.0977444444">
		<tag k="name" v="Huestranda" />
		<tag k="natural" v="beach" />
		<tag k="place" v="locality" />
		<tag k="ssr:stedsnr" v="512436" />
	</node>
	<node id="-397116" lat="58.9673555594" lon="10.1495111162">
		<tag k="name" v="Storløpet" />
		<tag k="natural" v="strait" />
		<tag k="ssr:stedsnr" v="512405" />
	</node>
	<node id="-397115" lat="58.9700245531" lon="10.1444194172">
		<tag k="alt_name" v="Skipsskjær" />
		<tag k="fixme" v="consider seamark:type=rock or natural=shoal" />
		<tag k="name" v="Skipskjær" />
		<tag k="place" v="islet" />
		<tag k="ssr:stedsnr" v="512402" />
	</node>
	<node id="-399131" lat="59.030330557" lon="10.0587416736">
		<tag k="name" v="Vestre Hølen" />
		<tag k="natural" v="strait" />
		<tag k="ssr:stedsnr" v="88384" />
	</node>
	<node id="-397078" lat="59.0316555514" lon="10.1154749993">
		<tag k="name" v="Rekeberget" />
		<tag k="natural" v="cape" />
		<tag k="ssr:stedsnr" v="512099" />
	</node>
	<node id="-399124" lat="59.0293638856" lon="9.83740278421">
		<tag k="name" v="Midtholmen" />
		<tag k="place" v="islet" />
		<tag k="ssr:stedsnr" v="88349" />
	</node>
	<node id="-399123" lat="59.0258055591" lon="9.83609167037">
		<tag k="name" v="Johansholmen" />
		<tag k="place" v="islet" />
		<tag k="ssr:stedsnr" v="88347" />
	</node>
	<node id="-397072" lat="59.0186722232" lon="10.0695361068">
		<tag k="name" v="Pelikanbukta" />
		<tag k="natural" v="bay" />
		<tag k="ssr:stedsnr" v="512084" />
	</node>
	<node id="-401164" lat="59.0074999969" lon="10.0469444476">
		<tag k="fixme" v="consider seamark:type=rock or natural=shoal" />
		<tag k="name" v="Kalveskjæret" />
		<tag k="place" v="islet" />
		<tag k="ssr:stedsnr" v="967920" />
	</node>
	<node id="-401163" lat="58.9815555571" lon="9.84054167281">
		<tag k="name" v="Fetangbukta" />
		<tag k="natural" v="bay" />
		<tag k="ssr:stedsnr" v="966546" />
	</node>
	<node id="-401162" lat="59.0130333294" lon="9.85041388952">
		<tag k="name" v="Bergsvika" />
		<tag k="natural" v="bay" />
		<tag k="ssr:stedsnr" v="966323" />
	</node>
	<node id="-397062" lat="58.9664499995" lon="10.1650888806">
		<tag k="name" v="Sleikebåen" />
		<tag k="natural" v="shoal" />
		<tag k="place" v="locality" />
		<tag k="ssr:stedsnr" v="511127" />
	</node>
	<node id="-397060" lat="58.9824333365" lon="9.81726666959">
		<tag k="name" v="Steinrevet" />
		<tag k="natural" v="shoal" />
		<tag k="place" v="locality" />
		<tag k="ssr:stedsnr" v="509479" />
	</node>
	<node id="-396245" lat="58.9717083365" lon="9.88396388104">
		<tag k="name" v="Helleholmen" />
		<tag k="place" v="islet" />
		<tag k="ssr:stedsnr" v="270393" />
	</node>
	<node id="-397049" lat="59.0338111128" lon="10.2184138815">
		<tag k="name" v="Båsen" />
		<tag k="natural" v="bay" />
		<tag k="ssr:stedsnr" v="391954" />
	</node>
	<node id="-401143" lat="59.0353555564" lon="10.1456388949">
		<tag k="name" v="Flatholmen" />
		<tag k="place" v="islet" />
		<tag k="ssr:stedsnr" v="876163" />
	</node>
	<node id="-397045" lat="59.0582027748" lon="10.2345777699">
		<tag k="name" v="Kistesund ytre" />
		<tag k="natural" v="strait" />
		<tag k="ssr:stedsnr" v="391912" />
	</node>
	<node id="-398291" lat="59.0108333316" lon="10.0886111165">
		<tag k="name" v="Malmøya" />
		<tag k="place" v="island" />
		<tag k="ssr:stedsnr" v="790203" />
	</node>
	<node id="-401136" lat="58.916838886" lon="10.0314416607">
		<tag k="name" v="Brekkegrunn" />
		<tag k="natural" v="shoal" />
		<tag k="place" v="locality" />
		<tag k="ssr:stedsnr" v="876126" />
	</node>
	<node id="-399087" lat="59.0175138915" lon="10.1263916676">
		<tag k="name" v="Skarvesett" />
		<tag k="place" v="locality" />
		<tag k="seamark:type" v="rock" />
		<tag k="ssr:stedsnr" v="88076" />
	</node>
	<node id="-397038" lat="59.03085" lon="10.0559222151">
		<tag k="name" v="Slåpeholmen" />
		<tag k="place" v="islet" />
		<tag k="ssr:stedsnr" v="391467" />
	</node>
	<node id="-397037" lat="59.0284277803" lon="10.0665499927">
		<tag k="name" v="Gamlebukta" />
		<tag k="natural" v="bay" />
		<tag k="ssr:stedsnr" v="391459" />
	</node>
	<node id="-397036" lat="58.983033332" lon="9.98240556127">
		<tag k="name" v="Nalumstranda" />
		<tag k="natural" v="beach" />
		<tag k="place" v="locality" />
		<tag k="ssr:stedsnr" v="391457" />
	</node>
	<node id="-397035" lat="59.0289499958" lon="10.1026194438">
		<tag k="name" v="Kaupangholmen" />
		<tag k="natural" v="cape" />
		<tag k="ssr:stedsnr" v="391453" />
	</node>
	<node id="-401123" lat="58.9479722231" lon="9.92895555587">
		<tag k="name" v="Tønnebåen" />
		<tag k="place" v="locality" />
		<tag k="seamark:type" v="rock" />
		<tag k="ssr:stedsnr" v="875229" />
	</node>
	<node id="-401122" lat="59.0109222241" lon="9.84374722778">
		<tag k="fixme" v="consider seamark:type=rock or natural=shoal" />
		<tag k="name" v="St. Hans skjær" />
		<tag k="place" v="islet" />
		<tag k="ssr:stedsnr" v="875146" />
	</node>
	<node id="-401121" lat="59.0012277751" lon="9.84281388173">
		<tag k="name" v="Salbubåen" />
		<tag k="place" v="locality" />
		<tag k="seamark:type" v="rock" />
		<tag k="ssr:stedsnr" v="875145" />
	</node>
	<node id="-401120" lat="59.0114933138" lon="9.79856360517">
		<tag k="name" v="Kultane" />
		<tag k="natural" v="shoal" />
		<tag k="place" v="locality" />
		<tag k="ssr:stedsnr" v="874533" />
	</node>
	<node id="-401119" lat="58.9652111079" lon="10.0419444512">
		<tag k="name" v="Størja" />
		<tag k="natural" v="shoal" />
		<tag k="place" v="locality" />
		<tag k="ssr:stedsnr" v="874278" />
	</node>
	<node id="-401118" lat="59.0088027779" lon="10.1794055574">
		<tag k="name" v="Grytebeinet" />
		<tag k="natural" v="shoal" />
		<tag k="place" v="locality" />
		<tag k="ssr:stedsnr" v="873784" />
	</node>
	<node id="-396889" lat="58.96054444" lon="9.85108889364">
		<tag k="name" v="Sauesund" />
		<tag k="natural" v="strait" />
		<tag k="ssr:stedsnr" v="486904" />
	</node>
	<node id="-398216" lat="58.9802070752" lon="9.83439551657">
		<tag k="alt_name" v="Båteberget" />
		<tag k="name" v="Båtberget" />
		<tag k="natural" v="cape" />
		<tag k="ssr:stedsnr" v="911603" />
	</node>
	<node id="-400674" lat="59.0173194425" lon="10.1166750084">
		<tag k="name" v="Kråkeholmen" />
		<tag k="place" v="islet" />
		<tag k="ssr:stedsnr" v="755001" />
	</node>
	<node id="-401098" lat="58.9833333369" lon="10.0412999964">
		<tag k="alt_name" v="Rakkeholmene" />
		<tag k="name" v="Rakkeholmane" />
		<tag k="place" v="islet" />
		<tag k="ssr:stedsnr" v="851975" />
	</node>
	<node id="-399048" lat="59.0094277742" lon="10.1294277861">
		<tag k="name" v="Djupsholt" />
		<tag k="natural" v="bay" />
		<tag k="ssr:stedsnr" v="88015" />
	</node>
	<node id="-401014" lat="58.9752444423" lon="9.92312222374">
		<tag k="name" v="Krabbeklova" />
		<tag k="natural" v="cape" />
		<tag k="ssr:stedsnr" v="816385" />
	</node>
	<node id="-401090" lat="59.0238888859" lon="10.0294444508">
		<tag k="alt_name" v="Kaffeholmen" />
		<tag k="name" v="Kaffiholmen" />
		<tag k="place" v="islet" />
		<tag k="ssr:stedsnr" v="851207" />
	</node>
	<node id="-401089" lat="59.0293861123" lon="10.2340611197">
		<tag k="name" v="Flaten" />
		<tag k="place" v="islet" />
		<tag k="ssr:stedsnr" v="851204" />
	</node>
	<node id="-396986" lat="59.032222221" lon="10.1543138925">
		<tag k="name" v="Skjeggestadkilen" />
		<tag k="natural" v="bay" />
		<tag k="ssr:stedsnr" v="391123" />
	</node>
	<node id="-399028" lat="58.9651722204" lon="10.0489694517">
		<tag k="name" v="Kirkeberget" />
		<tag k="natural" v="shoal" />
		<tag k="place" v="locality" />
		<tag k="ssr:stedsnr" v="87027" />
	</node>
	<node id="-399027" lat="59.0124768196" lon="9.79431589392">
		<tag k="name" v="Vesle Arøya" />
		<tag k="place" v="island" />
		<tag k="ssr:stedsnr" v="85429" />
	</node>
	<node id="-401074" lat="58.9753222264" lon="10.0284638959">
		<tag k="fixme" v="consider seamark:type=rock or natural=shoal" />
		<tag k="name" v="Rødskjær" />
		<tag k="place" v="islet" />
		<tag k="ssr:stedsnr" v="850977" />
	</node>
	<node id="-396977" lat="59.0264916691" lon="10.1335638886">
		<tag k="fixme" v="consider seamark:type=rock or natural=shoal" />
		<tag k="name" v="Brennevinskjæret" />
		<tag k="place" v="islet" />
		<tag k="ssr:stedsnr" v="391110" />
	</node>
	<node id="-401072" lat="59.0385277776" lon="10.0560277802">
		<tag k="name" v="Vestre Halsen" />
		<tag k="natural" v="cape" />
		<tag k="ssr:stedsnr" v="848210" />
	</node>
	<node id="-401071" lat="59.0049666682" lon="9.76566111409">
		<tag k="name" v="Geiterøyholmrabben" />
		<tag k="natural" v="shoal" />
		<tag k="place" v="locality" />
		<tag k="ssr:stedsnr" v="845654" />
	</node>
	<node id="-401067" lat="59.0167638891" lon="9.78878889415">
		<tag k="name" v="Garpholmen" />
		<tag k="place" v="islet" />
		<tag k="ssr:stedsnr" v="845286" />
	</node>
	<node id="-396968" lat="59.0067972263" lon="10.1394972222">
		<tag k="fixme" v="consider seamark:type=rock or natural=shoal" />
		<tag k="name" v="Andebakksrev" />
		<tag k="place" v="islet" />
		<tag k="ssr:stedsnr" v="391023" />
	</node>
	<node id="-396967" lat="59.0093777819" lon="10.1402444464">
		<tag k="fixme" v="consider seamark:type=rock or natural=shoal" />
		<tag k="name" v="Båsen" />
		<tag k="place" v="islet" />
		<tag k="ssr:stedsnr" v="391018" />
	</node>
	<node id="-396966" lat="59.0096361123" lon="10.1073722183">
		<tag k="name" v="Ekornholmen" />
		<tag k="place" v="islet" />
		<tag k="ssr:stedsnr" v="391016" />
	</node>
	<node id="-396953" lat="58.9735472259" lon="10.0157416698">
		<tag k="name" v="Dynga" />
		<tag k="natural" v="shoal" />
		<tag k="place" v="locality" />
		<tag k="ssr:stedsnr" v="390018" />
	</node>
	<node id="-396952" lat="58.9435249982" lon="10.0635194379">
		<tag k="name" v="Østre Skalberghausen" />
		<tag k="natural" v="shoal" />
		<tag k="place" v="locality" />
		<tag k="ssr:stedsnr" v="390017" />
	</node>
	<node id="-396951" lat="59.0009722251" lon="10.0545916666">
		<tag k="name" v="Risøybåen" />
		<tag k="natural" v="shoal" />
		<tag k="place" v="locality" />
		<tag k="ssr:stedsnr" v="390015" />
	</node>
	<node id="-401043" lat="59.0332000034" lon="10.2254888959">
		<tag k="name" v="Mosselin" />
		<tag k="place" v="island" />
		<tag k="ssr:stedsnr" v="816935" />
	</node>
	<node id="-401042" lat="59.0081194487" lon="10.1625583415">
		<tag k="fixme" v="consider seamark:type=rock or natural=shoal" />
		<tag k="name" v="Fordoppaskjæra" />
		<tag k="place" v="islet" />
		<tag k="ssr:stedsnr" v="816928" />
	</node>
	<node id="-398992" lat="58.955563886" lon="10.0605000051">
		<tag k="alt_name" v="Skarbåene" />
		<tag k="name" v="Skarbåane" />
		<tag k="natural" v="shoal" />
		<tag k="place" v="locality" />
		<tag k="ssr:stedsnr" v="62992" />
	</node>
	<node id="-398991" lat="58.9429527776" lon="9.87817222629">
		<tag k="name" v="Napaleitet" />
		<tag k="natural" v="shoal" />
		<tag k="old_name" v="Napaleite" />
		<tag k="place" v="locality" />
		<tag k="ssr:stedsnr" v="62936" />
	</node>
	<node id="-398990" lat="58.9587138849" lon="9.86320000672">
		<tag k="name" v="Mauresund" />
		<tag k="natural" v="strait" />
		<tag k="ssr:stedsnr" v="62927" />
	</node>
	<node id="-398989" lat="58.9644324593" lon="9.8708424449">
		<tag k="fixme" v="consider seamark:type=rock or natural=shoal" />
		<tag k="name" v="Humlesekken" />
		<tag k="place" v="islet" />
		<tag k="ssr:stedsnr" v="62908" />
	</node>
	<node id="-398988" lat="58.964336114" lon="9.88458889253">
		<tag k="name" v="Råholmen" />
		<tag k="place" v="islet" />
		<tag k="ssr:stedsnr" v="62906" />
	</node>
	<node id="-401034" lat="59.0334277753" lon="10.2277666655">
		<tag k="name" v="Martaholmen" />
		<tag k="place" v="islet" />
		<tag k="ssr:stedsnr" v="816692" />
	</node>
	<node id="-397591" lat="59.0075972219" lon="10.1576333343">
		<tag k="name" v="Jippefjell" />
		<tag k="natural" v="cape" />
		<tag k="ssr:stedsnr" v="695017" />
	</node>
	<node id="-398982" lat="58.9973166653" lon="9.82480278406">
		<tag k="alt_name" v="Guleskjer" />
		<tag k="fixme" v="consider seamark:type=rock or natural=shoal" />
		<tag k="name" v="Guleskjær" />
		<tag k="place" v="islet" />
		<tag k="ssr:stedsnr" v="62590" />
	</node>
	<node id="-398975" lat="59.0132055564" lon="9.78632222149">
		<tag k="alt_name" v="Arøya, lille" />
		<tag k="name" v="Lille Arøya" />
		<tag k="place" v="island" />
		<tag k="ssr:stedsnr" v="62292" />
	</node>
	<node id="-401022" lat="59.0287972234" lon="10.1039972176">
		<tag k="name" v="Lamøykilen" />
		<tag k="natural" v="bay" />
		<tag k="ssr:stedsnr" v="816444" />
	</node>
	<node id="-398972" lat="59.0012222197" lon="10.0896527818">
		<tag k="name" v="Malmøybåen" />
		<tag k="natural" v="shoal" />
		<tag k="place" v="locality" />
		<tag k="ssr:stedsnr" v="62242" />
	</node>
	<node id="-398971" lat="59.018713891" lon="10.2612500079">
		<tag k="alt_name" v="Jårbåen" />
		<tag k="name" v="Jarbåen" />
		<tag k="natural" v="shoal" />
		<tag k="place" v="locality" />
		<tag k="ssr:stedsnr" v="62231" />
	</node>
	<node id="-398970" lat="59.0132527803" lon="10.0343388831">
		<tag k="alt_name" v="Agnes fabrikker" />
		<tag k="name" v="Agnes" />
		<tag k="natural" v="cape" />
		<tag k="ssr:stedsnr" v="62229" />
	</node>
	<node id="-401017" lat="58.9665361108" lon="10.1519027694">
		<tag k="name" v="Ulabrandsløpet" />
		<tag k="natural" v="strait" />
		<tag k="ssr:stedsnr" v="816401" />
	</node>
	<node id="-401016" lat="58.9742555577" lon="10.1397972273">
		<tag k="name" v="Strømsund" />
		<tag k="natural" v="strait" />
		<tag k="ssr:stedsnr" v="816394" />
	</node>
	<node id="-398966" lat="59.0302777802" lon="10.0608333398">
		<tag k="name" v="Oterøya" />
		<tag k="place" v="islet" />
		<tag k="ssr:stedsnr" v="62209" />
	</node>
	<node id="-398961" lat="59.0415861138" lon="10.2297916725">
		<tag k="name" v="Fornet" />
		<tag k="place" v="islet" />
		<tag k="ssr:stedsnr" v="62189" />
	</node>
	<node id="-396911" lat="59.037813888" lon="10.2340694402">
		<tag k="name" v="Måkeholmen" />
		<tag k="place" v="islet" />
		<tag k="ssr:stedsnr" v="345309" />
	</node>
	<node id="-398955" lat="59.0672055515" lon="10.2324166716">
		<tag k="alt_name" v="Rauholmene" />
		<tag k="name" v="Raudholmane" />
		<tag k="place" v="islet" />
		<tag k="ssr:stedsnr" v="62149" />
	</node>
	<node id="-396906" lat="58.9994527739" lon="9.80946110235">
		<tag k="name" v="Stokkøya" />
		<tag k="place" v="island" />
		<tag k="ssr:stedsnr" v="487287" />
	</node>
	<node id="-396900" lat="59.0166722245" lon="10.0867083285">
		<tag k="fixme" v="consider seamark:type=rock or natural=shoal" />
		<tag k="name" v="Sundskjæra" />
		<tag k="place" v="islet" />
		<tag k="ssr:stedsnr" v="487239" />
	</node>
	<node id="-400993" lat="58.9850777798" lon="10.0346583367">
		<tag k="name" v="Trefoten" />
		<tag k="natural" v="beach" />
		<tag k="place" v="locality" />
		<tag k="ssr:stedsnr" v="816475" />
	</node>
	<node id="-398944" lat="58.9438027788" lon="9.93109443842">
		<tag k="alt_name" v="Trollskjer" />
		<tag k="fixme" v="consider seamark:type=rock or natural=shoal" />
		<tag k="name" v="Trollskjær" />
		<tag k="place" v="islet" />
		<tag k="ssr:stedsnr" v="61927" />
	</node>
	<node id="-400991" lat="59.0326833338" lon="10.0568000018">
		<tag k="name" v="Ormetoa" />
		<tag k="natural" v="bay" />
		<tag k="ssr:stedsnr" v="816461" />
	</node>
	<node id="-400990" lat="59.0062472217" lon="9.80662499775">
		<tag k="fixme" v="consider seamark:type=rock or natural=shoal" />
		<tag k="name" v="Harpeskjær" />
		<tag k="place" v="islet" />
		<tag k="ssr:stedsnr" v="816350" />
	</node>
	<node id="-400989" lat="58.9995361117" lon="9.79242500189">
		<tag k="name" v="Brentodden" />
		<tag k="natural" v="cape" />
		<tag k="ssr:stedsnr" v="816345" />
	</node>
	<node id="-398940" lat="58.979641665" lon="9.81304999815">
		<tag k="alt_name" v="Fugløyrogna" />
		<tag k="name" v="Fugløyrogn" />
		<tag k="place" v="islet" />
		<tag k="ssr:stedsnr" v="61584" />
	</node>
	<node id="-398939" lat="59.0058361519" lon="10.0349887131">
		<tag k="name" v="Malgrimbukta" />
		<tag k="natural" v="bay" />
		<tag k="ssr:stedsnr" v="57917" />
	</node>
	<node id="-398938" lat="58.9989249972" lon="9.77877221999">
		<tag k="name" v="Skuteholet" />
		<tag k="natural" v="bay" />
		<tag k="ssr:stedsnr" v="56556" />
	</node>
	<node id="-398937" lat="58.9776027739" lon="9.81567221424">
		<tag k="name" v="Steinsund, ø" />
		<tag k="natural" v="strait" />
		<tag k="ssr:stedsnr" v="56537" />
	</node>
	<node id="-398936" lat="58.9964944432" lon="9.77086666328">
		<tag k="name" v="Ærskåla" />
		<tag k="place" v="locality" />
		<tag k="seamark:type" v="rock" />
		<tag k="ssr:stedsnr" v="55539" />
	</node>
	<node id="-397241" lat="59.0085833355" lon="10.2079000074">
		<tag k="name" v="Almen" />
		<tag k="natural" v="shoal" />
		<tag k="place" v="locality" />
		<tag k="ssr:stedsnr" v="426017" />
	</node>
	<node id="-400635" lat="58.9638583351" lon="10.153699998">
		<tag k="name" v="Bidevindsbåene" />
		<tag k="natural" v="shoal" />
		<tag k="place" v="locality" />
		<tag k="ssr:stedsnr" v="753081" />
	</node>
	<node id="-400966" lat="59.0064277792" lon="10.1325944385">
		<tag k="name" v="Grunnesund" />
		<tag k="natural" v="strait" />
		<tag k="ssr:stedsnr" v="816026" />
	</node>
	<node id="-396869" lat="59.0111861077" lon="10.1664277864">
		<tag k="name" v="Bussinghavna" />
		<tag k="natural" v="bay" />
		<tag k="ssr:stedsnr" v="330933" />
	</node>
	<node id="-396868" lat="59.0417861109" lon="10.0460694524">
		<tag k="name" v="Kanalen" />
		<tag k="natural" v="strait" />
		<tag k="ssr:stedsnr" v="330932" />
	</node>
	<node id="-398943" lat="58.990991663" lon="9.83845556344">
		<tag k="alt_name" v="Rogn" />
		<tag k="name" v="Rogna" />
		<tag k="place" v="islet" />
		<tag k="ssr:stedsnr" v="61603" />
	</node>
	<node id="-400950" lat="59.0198472228" lon="10.0852583262">
		<tag k="name" v="Træla" />
		<tag k="natural" v="bay" />
		<tag k="ssr:stedsnr" v="816086" />
	</node>
	<node id="-396841" lat="58.9706861133" lon="10.1473916694">
		<tag k="name" v="Svennerhavna" />
		<tag k="natural" v="bay" />
		<tag k="ssr:stedsnr" v="330408" />
	</node>
	<node id="-396892" lat="58.9850166654" lon="10.2351499982">
		<tag k="name" v="Lyngholmen" />
		<tag k="place" v="islet" />
		<tag k="ssr:stedsnr" v="486986" />
	</node>
	<node id="-398883" lat="58.9895333295" lon="10.0426888975">
		<tag k="name" v="Bratten" />
		<tag k="natural" v="bay" />
		<tag k="ssr:stedsnr" v="27479" />
	</node>
	<node id="-398878" lat="59.0236138902" lon="10.0948111178">
		<tag k="name" v="Holmen" />
		<tag k="place" v="islet" />
		<tag k="ssr:stedsnr" v="27439" />
	</node>
	<node id="-398876" lat="59.0331388884" lon="9.82199166183">
		<tag k="name" v="Vrangsundbukta" />
		<tag k="natural" v="bay" />
		<tag k="ssr:stedsnr" v="27393" />
	</node>
	<node id="-398873" lat="59.0342638858" lon="9.81738333967">
		<tag k="name" v="Tverrbukta" />
		<tag k="natural" v="bay" />
		<tag k="ssr:stedsnr" v="27386" />
	</node>
	<node id="-400917" lat="58.9676972192" lon="10.0173083345">
		<tag k="name" v="Fiskebåen" />
		<tag k="natural" v="shoal" />
		<tag k="place" v="locality" />
		<tag k="ssr:stedsnr" v="815028" />
	</node>
	<node id="-400916" lat="59.0149611123" lon="10.2494972239">
		<tag k="name" v="Makrellbåen" />
		<tag k="natural" v="shoal" />
		<tag k="place" v="locality" />
		<tag k="ssr:stedsnr" v="814651" />
	</node>
	<node id="-400915" lat="58.9984527734" lon="9.85110000398">
		<tag k="name" v="Salbutangen" />
		<tag k="natural" v="cape" />
		<tag k="ssr:stedsnr" v="814332" />
	</node>
	<node id="-400914" lat="58.9662805585" lon="10.1337805477">
		<tag k="name" v="Hålebåene" />
		<tag k="natural" v="shoal" />
		<tag k="place" v="locality" />
		<tag k="ssr:stedsnr" v="814134" />
	</node>
	<node id="-400913" lat="58.9919388849" lon="10.1267916617">
		<tag k="name" v="Søndre Kaupangbåen" />
		<tag k="natural" v="shoal" />
		<tag k="place" v="locality" />
		<tag k="ssr:stedsnr" v="814121" />
	</node>
	<node id="-400912" lat="58.9941972219" lon="10.1260666625">
		<tag k="name" v="Nordre Kaupangbåen" />
		<tag k="natural" v="shoal" />
		<tag k="place" v="locality" />
		<tag k="ssr:stedsnr" v="813465" />
	</node>
	<node id="-400911" lat="59.0074527814" lon="9.80885834207">
		<tag k="name" v="Dyna" />
		<tag k="place" v="islet" />
		<tag k="ssr:stedsnr" v="813453" />
	</node>
	<node id="-400910" lat="59.015349996" lon="10.2144583389">
		<tag k="name" v="Tifotflua" />
		<tag k="natural" v="shoal" />
		<tag k="place" v="locality" />
		<tag k="ssr:stedsnr" v="812901" />
	</node>
	<node id="-400909" lat="59.0077777751" lon="10.0484722225">
		<tag k="name" v="Risøykalven" />
		<tag k="place" v="islet" />
		<tag k="ssr:stedsnr" v="812824" />
	</node>
	<node id="-400908" lat="59.0333333299" lon="10.0252777815">
		<tag k="name" v="Røbergodden" />
		<tag k="natural" v="cape" />
		<tag k="ssr:stedsnr" v="812820" />
	</node>
	<node id="-396811" lat="59.009630553" lon="10.1014361083">
		<tag k="name" v="Nepegårdsbukta" />
		<tag k="natural" v="bay" />
		<tag k="ssr:stedsnr" v="330014" />
	</node>
	<node id="-396810" lat="59.0097777762" lon="10.0857222236">
		<tag k="name" v="Skjærsundodden" />
		<tag k="natural" v="cape" />
		<tag k="ssr:stedsnr" v="330012" />
	</node>
	<node id="-396805" lat="58.9615361123" lon="9.99287221897">
		<tag k="name" v="Naverhella" />
		<tag k="natural" v="shoal" />
		<tag k="place" v="locality" />
		<tag k="ssr:stedsnr" v="329309" />
	</node>
	<node id="-396803" lat="58.9556972191" lon="9.88681388411">
		<tag k="name" v="Havnebåen" />
		<tag k="place" v="locality" />
		<tag k="seamark:type" v="rock" />
		<tag k="ssr:stedsnr" v="329244" />
	</node>
	<node id="-396801" lat="58.9861166646" lon="9.81121111615">
		<tag k="name" v="Koungbåen" />
		<tag k="place" v="locality" />
		<tag k="seamark:type" v="rock" />
		<tag k="ssr:stedsnr" v="327505" />
	</node>
	<node id="-396544" lat="58.9523583373" lon="9.88234722044">
		<tag k="name" v="Persbåen" />
		<tag k="place" v="locality" />
		<tag k="seamark:type" v="rock" />
		<tag k="ssr:stedsnr" v="451272" />
	</node>
	<node id="-396543" lat="58.9484666625" lon="9.88916667361">
		<tag k="fixme" v="consider seamark:type=rock or natural=shoal" />
		<tag k="name" v="Dyna" />
		<tag k="place" v="islet" />
		<tag k="ssr:stedsnr" v="451261" />
	</node>
	<node id="-396792" lat="59.0024527734" lon="9.79811111407">
		<tag k="alt_name" v="Arøya, store;Arøya" />
		<tag k="name" v="Store Arøya" />
		<tag k="place" v="island" />
		<tag k="ssr:stedsnr" v="305326" />
	</node>
	<node id="-400887" lat="58.9725111119" lon="10.0239055591">
		<tag k="name" v="Kråka" />
		<tag k="place" v="islet" />
		<tag k="ssr:stedsnr" v="790999" />
	</node>
	<node id="-400886" lat="58.9729249981" lon="10.1956083255">
		<tag k="name" v="Hetta" />
		<tag k="place" v="islet" />
		<tag k="ssr:stedsnr" v="790993" />
	</node>
	<node id="-400885" lat="58.9500499986" lon="10.0370361042">
		<tag k="alt_name" v="Rakkebåene;Rakkeboene" />
		<tag k="name" v="Rakkebåane" />
		<tag k="natural" v="shoal" />
		<tag k="place" v="locality" />
		<tag k="ssr:stedsnr" v="790987" />
	</node>
	<node id="-400884" lat="58.960188893" lon="9.85067500823">
		<tag k="name" v="Sauesundsholmen" />
		<tag k="place" v="islet" />
		<tag k="ssr:stedsnr" v="790916" />
	</node>
	<node id="-396542" lat="58.9758305535" lon="10.1706249958">
		<tag k="name" v="Stortorskebåene" />
		<tag k="natural" v="shoal" />
		<tag k="place" v="locality" />
		<tag k="ssr:stedsnr" v="451136" />
	</node>
	<node id="-398833" lat="59.0287861122" lon="10.1289333299">
		<tag k="name" v="Steinholmen" />
		<tag k="place" v="islet" />
		<tag k="ssr:stedsnr" v="27100" />
	</node>
	<node id="-398832" lat="59.0174694446" lon="10.130369439">
		<tag k="fixme" v="consider seamark:type=rock or natural=shoal" />
		<tag k="name" v="Vestaskjæra" />
		<tag k="place" v="islet" />
		<tag k="ssr:stedsnr" v="27099" />
	</node>
	<node id="-398830" lat="59.0251027808" lon="10.1095333359">
		<tag k="fixme" v="consider seamark:type=rock or natural=shoal" />
		<tag k="name" v="Steinskjær" />
		<tag k="place" v="islet" />
		<tag k="ssr:stedsnr" v="27093" />
	</node>
	<node id="-396541" lat="59.032699998" lon="10.2365888803">
		<tag k="name" v="Koksundbåen" />
		<tag k="natural" v="shoal" />
		<tag k="place" v="locality" />
		<tag k="ssr:stedsnr" v="450866" />
	</node>
	<node id="-400867" lat="58.9714055516" lon="9.91493334144">
		<tag k="name" v="Breidebukta" />
		<tag k="natural" v="bay" />
		<tag k="ssr:stedsnr" v="789880" />
	</node>
	<node id="-400866" lat="58.9833277758" lon="10.241275006">
		<tag k="name" v="Gånarkollen" />
		<tag k="old_name" v="Gånarholmen" />
		<tag k="place" v="islet" />
		<tag k="ssr:stedsnr" v="789982" />
	</node>
	<node id="-400865" lat="58.9872055515" lon="10.2280361097">
		<tag k="name" v="Havneholmen" />
		<tag k="place" v="islet" />
		<tag k="ssr:stedsnr" v="789980" />
	</node>
	<node id="-400864" lat="58.9798305554" lon="9.80841944226">
		<tag k="name" v="Steinsund, v" />
		<tag k="natural" v="strait" />
		<tag k="ssr:stedsnr" v="784537" />
	</node>
	<node id="-400863" lat="58.9951861144" lon="9.81868333992">
		<tag k="name" v="Lamøybåen" />
		<tag k="place" v="locality" />
		<tag k="seamark:type" v="rock" />
		<tag k="ssr:stedsnr" v="784295" />
	</node>
	<node id="-396764" lat="59.0355527803" lon="10.1270638826">
		<tag k="name" v="Bjønnesholmen" />
		<tag k="place" v="islet" />
		<tag k="ssr:stedsnr" v="270658" />
	</node>
	<node id="-400634" lat="59.0081361147" lon="10.2222138929">
		<tag k="name" v="Leihausene" />
		<tag k="natural" v="shoal" />
		<tag k="place" v="locality" />
		<tag k="ssr:stedsnr" v="751912" />
	</node>
	<node id="-398052" lat="59.026597219" lon="10.2093972293">
		<tag k="name" v="Sandvika" />
		<tag k="natural" v="bay" />
		<tag k="ssr:stedsnr" v="877957" />
	</node>
	<node id="-398808" lat="59.0079361139" lon="9.79368888719">
		<tag k="name" v="Eikaholet" />
		<tag k="natural" v="bay" />
		<tag k="ssr:stedsnr" v="27359" />
	</node>
	<node id="-398807" lat="59.0163333346" lon="9.78673611417">
		<tag k="name" v="Bolagholmen" />
		<tag k="place" v="islet" />
		<tag k="ssr:stedsnr" v="27350" />
	</node>
	<node id="-398806" lat="59.0114166696" lon="9.79543611359">
		<tag k="name" v="Storbukta" />
		<tag k="natural" v="bay" />
		<tag k="ssr:stedsnr" v="27347" />
	</node>
	<node id="-396757" lat="58.9617166672" lon="9.84482222505">
		<tag k="name" v="Tørbunken" />
		<tag k="natural" v="shoal" />
		<tag k="place" v="locality" />
		<tag k="ssr:stedsnr" v="270404" />
	</node>
	<node id="-396756" lat="58.995869447" lon="9.81122499562">
		<tag k="fixme" v="consider seamark:type=rock or natural=shoal" />
		<tag k="name" v="Hviteberget" />
		<tag k="place" v="islet" />
		<tag k="ssr:stedsnr" v="270374" />
	</node>
	<node id="-396755" lat="58.9928694465" lon="9.80698333875">
		<tag k="name" v="Arøytangane" />
		<tag k="natural" v="beach" />
		<tag k="place" v="locality" />
		<tag k="ssr:stedsnr" v="270372" />
	</node>
	<node id="-396754" lat="58.997966666" lon="9.82227777883">
		<tag k="fixme" v="consider seamark:type=rock or natural=shoal" />
		<tag k="name" v="Lamøyskjæra" />
		<tag k="place" v="islet" />
		<tag k="ssr:stedsnr" v="270371" />
	</node>
	<node id="-400848" lat="59.0375111076" lon="10.1372388941">
		<tag k="name" v="Marsholmene" />
		<tag k="place" v="islet" />
		<tag k="ssr:stedsnr" v="756145" />
	</node>
	<node id="-398794" lat="58.9723501379" lon="10.143291182">
		<tag k="name" v="Svenner" />
		<tag k="place" v="island" />
		<tag k="ssr:stedsnr" v="26253" />
	</node>
	<node id="-398793" lat="59.0172444471" lon="10.0355944424">
		<tag k="name" v="Lillevikodden" />
		<tag k="natural" v="cape" />
		<tag k="ssr:stedsnr" v="26252" />
	</node>
	<node id="-398791" lat="58.9328416653" lon="10.0408472308">
		<tag k="name" v="Dalesethausene" />
		<tag k="natural" v="shoal" />
		<tag k="place" v="locality" />
		<tag k="ssr:stedsnr" v="26115" />
	</node>
	<node id="-398790" lat="58.9719611083" lon="9.88665834087">
		<tag k="name" v="Skutebakkbukta" />
		<tag k="natural" v="bay" />
		<tag k="ssr:stedsnr" v="25300" />
	</node>
	<node id="-399265" lat="59.0204444474" lon="9.83506111097">
		<tag k="bay" v="fjord" />
		<tag k="name" v="Mørjefjorden" />
		<tag k="natural" v="bay" />
		<tag k="ssr:stedsnr" v="123292" />
	</node>
	<node id="-396728" lat="59.0265916681" lon="10.136105561">
		<tag k="name" v="Fristadkilen" />
		<tag k="natural" v="bay" />
		<tag k="ssr:stedsnr" v="270115" />
	</node>
	<node id="-400821" lat="59.0735833345" lon="10.2116166656">
		<tag k="name" v="Hemsholmen" />
		<tag k="natural" v="cape" />
		<tag k="ssr:stedsnr" v="755904" />
	</node>
	<node id="-400817" lat="59.0692416623" lon="10.2215166594">
		<tag k="name" v="Spervikodden" />
		<tag k="natural" v="cape" />
		<tag k="ssr:stedsnr" v="755891" />
	</node>
	<node id="-398758" lat="58.9773472208" lon="10.0166138918">
		<tag k="name" v="Kuøya" />
		<tag k="place" v="islet" />
		<tag k="ssr:stedsnr" v="1974" />
	</node>
	<node id="-398757" lat="58.94975" lon="9.9092833248">
		<tag k="alt_name" v="Steinskjer" />
		<tag k="fixme" v="consider seamark:type=rock or natural=shoal" />
		<tag k="name" v="Steinskjær" />
		<tag k="place" v="islet" />
		<tag k="ssr:stedsnr" v="1915" />
	</node>
	<node id="-398756" lat="58.9701027822" lon="9.90497223055">
		<tag k="name" v="Ødegårdsbukta" />
		<tag k="natural" v="bay" />
		<tag k="ssr:stedsnr" v="1874" />
	</node>
	<node id="-396705" lat="58.9480972254" lon="9.87106389215">
		<tag k="fixme" v="consider seamark:type=rock or natural=shoal" />
		<tag k="name" v="Leverskjær" />
		<tag k="place" v="islet" />
		<tag k="ssr:stedsnr" v="269270" />
	</node>
	<node id="-398917" lat="59.0380583294" lon="10.1396388868">
		<tag k="name" v="Storholmen" />
		<tag k="place" v="islet" />
		<tag k="ssr:stedsnr" v="28168" />
	</node>
	<node id="-396700" lat="59.0353722182" lon="10.2388638862">
		<tag k="name" v="Kirkebåen" />
		<tag k="natural" v="shoal" />
		<tag k="place" v="locality" />
		<tag k="ssr:stedsnr" v="268863" />
	</node>
	<node id="-396699" lat="59.0333805519" lon="9.8303388928">
		<tag k="name" v="Langøya" />
		<tag k="place" v="islet" />
		<tag k="ssr:stedsnr" v="268168" />
	</node>
	<node id="-396698" lat="59.0360277756" lon="10.1349388891">
		<tag k="name" v="Urteholmen" />
		<tag k="place" v="islet" />
		<tag k="ssr:stedsnr" v="453166" />
	</node>
	<node id="-398741" lat="59.026250004" lon="10.0666666653">
		<tag k="alt_name" v="Rekkeviksbukta" />
		<tag k="name" v="Rekkevikbukta" />
		<tag k="natural" v="bay" />
		<tag k="ssr:stedsnr" v="1237" />
	</node>
	<node id="-396526" lat="58.981199997" lon="10.178716669">
		<tag k="name" v="Suslingane" />
		<tag k="place" v="islet" />
		<tag k="ssr:stedsnr" v="244971" />
	</node>
	<node id="-400782" lat="59.0335861077" lon="10.169419443">
		<tag k="name" v="Stuejordskilen" />
		<tag k="natural" v="bay" />
		<tag k="ssr:stedsnr" v="755622" />
	</node>
	<node id="-400778" lat="59.0447194422" lon="10.2283361143">
		<tag k="name" v="Oksvika" />
		<tag k="natural" v="bay" />
		<tag k="ssr:stedsnr" v="755595" />
	</node>
	<node id="-400775" lat="59.0094805579" lon="10.0378000006">
		<tag k="name" v="Agnesodden" />
		<tag k="natural" v="cape" />
		<tag k="ssr:stedsnr" v="755518" />
	</node>
	<node id="-398725" lat="58.935172224" lon="9.93402500492">
		<tag k="fixme" v="consider seamark:type=rock or natural=shoal" />
		<tag k="name" v="Steinbrottet" />
		<tag k="old_name" v="Steinbrotta" />
		<tag k="place" v="islet" />
		<tag k="ssr:stedsnr" v="929" />
	</node>
	<node id="-396676" lat="59.0136055573" lon="10.1732444461">
		<tag k="name" v="Steinvika" />
		<tag k="natural" v="bay" />
		<tag k="ssr:stedsnr" v="452946" />
	</node>
	<node id="-400771" lat="58.9644972266" lon="9.96375000564">
		<tag k="name" v="Bunken" />
		<tag k="natural" v="bay" />
		<tag k="ssr:stedsnr" v="755492" />
	</node>
	<node id="-400769" lat="58.9741944469" lon="9.97010555623">
		<tag k="name" v="Tjøstolfvika syd" />
		<tag k="natural" v="bay" />
		<tag k="ssr:stedsnr" v="755477" />
	</node>
	<node id="-400768" lat="58.9757833342" lon="10.011316671">
		<tag k="name" v="Gumserødøya" />
		<tag k="place" v="island" />
		<tag k="ssr:stedsnr" v="755472" />
	</node>
	<node id="-400762" lat="59.0136527754" lon="9.84363888997">
		<tag k="name" v="Dåvøya" />
		<tag k="place" v="island" />
		<tag k="ssr:stedsnr" v="755430" />
	</node>
	<node id="-398241" lat="59.0114555597" lon="10.1196055579">
		<tag k="name" v="Hoppøya" />
		<tag k="place" v="islet" />
		<tag k="ssr:stedsnr" v="912244" />
	</node>
	<node id="-400756" lat="58.9586111151" lon="9.86410833307">
		<tag k="fixme" v="consider seamark:type=rock or natural=shoal" />
		<tag k="name" v="Svartskjær" />
		<tag k="place" v="islet" />
		<tag k="ssr:stedsnr" v="755396" />
	</node>
	<node id="-400755" lat="58.963774999" lon="9.86485833628">
		<tag k="fixme" v="consider seamark:type=rock or natural=shoal" />
		<tag k="name" v="Gurvikskjæret" />
		<tag k="place" v="islet" />
		<tag k="ssr:stedsnr" v="755392" />
	</node>
	<node id="-400754" lat="58.9796916659" lon="9.92220833737">
		<tag k="name" v="Guslandstranda" />
		<tag k="natural" v="beach" />
		<tag k="place" v="locality" />
		<tag k="ssr:stedsnr" v="755389" />
	</node>
	<node id="-398704" lat="58.9800250042" lon="10.0166611072">
		<tag k="name" v="Fuglevikstranda" />
		<tag k="natural" v="beach" />
		<tag k="place" v="locality" />
		<tag k="ssr:stedsnr" v="938465" />
	</node>
	<node id="-398703" lat="58.9631916647" lon="9.9456555615">
		<tag k="fixme" v="consider seamark:type=rock or natural=shoal" />
		<tag k="name" v="Langebå" />
		<tag k="place" v="islet" />
		<tag k="ssr:stedsnr" v="938457" />
	</node>
	<node id="-396128" lat="59.0360250008" lon="10.1494722305">
		<tag k="name" v="Skjeggestadholmene" />
		<tag k="place" v="islet" />
		<tag k="ssr:stedsnr" v="88109" />
	</node>
	<node id="-398697" lat="59.0083777787" lon="9.77270832684">
		<tag k="name" v="Skinnfellen" />
		<tag k="natural" v="shoal" />
		<tag k="place" v="locality" />
		<tag k="ssr:stedsnr" v="938350" />
	</node>
	<node id="-398696" lat="59.0224388882" lon="10.1850277691">
		<tag k="name" v="Kjølen" />
		<tag k="natural" v="cape" />
		<tag k="ssr:stedsnr" v="937940" />
	</node>
	<node id="-398695" lat="59.0162777817" lon="10.1763805532">
		<tag k="name" v="Askvikodden" />
		<tag k="natural" v="cape" />
		<tag k="ssr:stedsnr" v="937937" />
	</node>
	<node id="-396644" lat="58.9702138922" lon="9.97234721387">
		<tag k="name" v="Grøtvika" />
		<tag k="natural" v="bay" />
		<tag k="ssr:stedsnr" v="452478" />
	</node>
	<node id="-396642" lat="58.977102774" lon="10.0267694499">
		<tag k="name" v="Sjøvika" />
		<tag k="natural" v="bay" />
		<tag k="ssr:stedsnr" v="452473" />
	</node>
	<node id="-396641" lat="58.979200003" lon="10.0417222173">
		<tag k="fixme" v="consider seamark:type=rock or natural=shoal" />
		<tag k="name" v="Trollhettene" />
		<tag k="place" v="islet" />
		<tag k="ssr:stedsnr" v="452469" />
	</node>
	<node id="-396640" lat="59.0312055548" lon="10.058075">
		<tag k="name" v="Parafinbrygga" />
		<tag k="natural" v="cape" />
		<tag k="ssr:stedsnr" v="452462" />
	</node>
	<node id="-396639" lat="58.9794666675" lon="9.98239444504">
		<tag k="name" v="Jesperen" />
		<tag k="natural" v="cape" />
		<tag k="ssr:stedsnr" v="452461" />
	</node>
	<node id="-396633" lat="58.992822219" lon="10.0454388956">
		<tag k="name" v="Søndre Gap" />
		<tag k="natural" v="strait" />
		<tag k="ssr:stedsnr" v="452511" />
	</node>
	<node id="-396624" lat="59.000702775" lon="9.79512221687">
		<tag k="name" v="Arøybukta" />
		<tag k="natural" v="bay" />
		<tag k="ssr:stedsnr" v="452364" />
	</node>
	<node id="-396623" lat="59.00198333" lon="9.76730000357">
		<tag k="name" v="Geiterøyholmen" />
		<tag k="place" v="islet" />
		<tag k="ssr:stedsnr" v="452354" />
	</node>
	<node id="-396622" lat="59.0256527767" lon="10.0997166741">
		<tag k="fixme" v="consider seamark:type=rock or natural=shoal" />
		<tag k="name" v="Bolteskjær" />
		<tag k="place" v="islet" />
		<tag k="ssr:stedsnr" v="452434" />
	</node>
	<node id="-400713" lat="59.0357972216" lon="9.83812499838">
		<tag k="name" v="Sildevikbukta" />
		<tag k="natural" v="bay" />
		<tag k="ssr:stedsnr" v="755131" />
	</node>
	<node id="-398663" lat="59.0248611149" lon="10.1254944384">
		<tag k="name" v="Mjølbergholmen" />
		<tag k="place" v="islet" />
		<tag k="ssr:stedsnr" v="937125" />
	</node>
	<node id="-398662" lat="59.0244620614" lon="10.1171519799">
		<tag k="name" v="Rauholmen" />
		<tag k="place" v="islet" />
		<tag k="ssr:stedsnr" v="937121" />
	</node>
	<node id="-396612" lat="59.0336472241" lon="10.0647972238">
		<tag k="name" v="Hølen" />
		<tag k="natural" v="bay" />
		<tag k="ssr:stedsnr" v="452233" />
	</node>
	<node id="-396169" lat="58.9744694415" lon="10.1723166579">
		<tag k="name" v="Jensebåen" />
		<tag k="natural" v="shoal" />
		<tag k="place" v="locality" />
		<tag k="ssr:stedsnr" v="269131" />
	</node>
	<node id="-398641" lat="59.035447226" lon="9.83582222778">
		<tag k="fixme" v="multiple name tags, choose one and add the other to alt_name" />
		<tag k="name" v="Blomsterøya;Pinnesulholmen" />
		<tag k="place" v="islet" />
		<tag k="ssr:stedsnr" v="936121" />
	</node>
	<node id="-398640" lat="58.9743361084" lon="10.2349333251">
		<tag k="name" v="Ertholmskaten" />
		<tag k="natural" v="shoal" />
		<tag k="place" v="locality" />
		<tag k="ssr:stedsnr" v="936107" />
	</node>
	<node id="-398639" lat="58.9477777765" lon="10.0428611067">
		<tag k="name" v="Vestre Skalberghausen" />
		<tag k="natural" v="shoal" />
		<tag k="place" v="locality" />
		<tag k="ssr:stedsnr" v="935521" />
	</node>
	<node id="-398628" lat="59.0340055558" lon="10.2279083326">
		<tag k="alt_name" v="Kjerringholmene" />
		<tag k="name" v="Kjerringholmane" />
		<tag k="place" v="islet" />
		<tag k="ssr:stedsnr" v="912203" />
	</node>
	<node id="-398626" lat="59.019886115" lon="9.78630000708">
		<tag k="name" v="Halveisholmen, s" />
		<tag k="place" v="islet" />
		<tag k="ssr:stedsnr" v="905263" />
	</node>
	<node id="-396573" lat="59.0200861135" lon="10.0830388855">
		<tag k="name" v="Sandvika" />
		<tag k="natural" v="bay" />
		<tag k="ssr:stedsnr" v="452071" />
	</node>
	<node id="-398616" lat="59.0139972246" lon="10.1261305559">
		<tag k="name" v="Hestebåene" />
		<tag k="place" v="locality" />
		<tag k="seamark:type" v="rock" />
		<tag k="ssr:stedsnr" v="877102" />
	</node>
	<node id="-398612" lat="59.0151166707" lon="10.1068666597">
		<tag k="name" v="Orerønningsholmen" />
		<tag k="place" v="islet" />
		<tag k="ssr:stedsnr" v="877092" />
	</node>
	<node id="-398611" lat="59.0196805533" lon="10.1077750033">
		<tag k="name" v="Bukkeholmen" />
		<tag k="place" v="islet" />
		<tag k="ssr:stedsnr" v="877091" />
	</node>
	<node id="-398601" lat="59.01896111" lon="10.0691277856">
		<tag k="name" v="Pelikan" />
		<tag k="place" v="islet" />
		<tag k="ssr:stedsnr" v="877061" />
	</node>
	<node id="-400644" lat="58.9540833355" lon="9.92866666107">
		<tag k="name" v="Håbåen" />
		<tag k="place" v="locality" />
		<tag k="seamark:type" v="rock" />
		<tag k="ssr:stedsnr" v="754278" />
	</node>
	<node id="-400643" lat="58.9443166649" lon="9.89613333904">
		<tag k="name" v="Skarveleite" />
		<tag k="natural" v="shoal" />
		<tag k="place" v="locality" />
		<tag k="ssr:stedsnr" v="754273" />
	</node>
	<node id="-400642" lat="59.0313583375" lon="10.0517861154">
		<tag k="name" v="Revholmen" />
		<tag k="place" v="islet" />
		<tag k="ssr:stedsnr" v="754271" />
	</node>
	<node id="-400640" lat="58.9653944465" lon="10.0288916613">
		<tag k="name" v="Egnebåen" />
		<tag k="natural" v="shoal" />
		<tag k="place" v="locality" />
		<tag k="ssr:stedsnr" v="754029" />
	</node>
	<node id="-400639" lat="58.9568694418" lon="10.0437277837">
		<tag k="name" v="Knollene" />
		<tag k="natural" v="shoal" />
		<tag k="place" v="locality" />
		<tag k="ssr:stedsnr" v="754028" />
	</node>
	<node id="-400638" lat="58.9658499988" lon="9.99002222269">
		<tag k="name" v="Jentebåen" />
		<tag k="place" v="locality" />
		<tag k="seamark:type" v="rock" />
		<tag k="ssr:stedsnr" v="753247" />
	</node>
	<node id="-400637" lat="59.0022666657" lon="10.1279305592">
		<tag k="fixme" v="consider seamark:type=rock or natural=shoal" />
		<tag k="name" v="Steinbåeskjær" />
		<tag k="place" v="islet" />
		<tag k="ssr:stedsnr" v="753228" />
	</node>
	<node id="-400636" lat="59.009027779" lon="9.84096666061">
		<tag k="name" v="Reiersbåen" />
		<tag k="place" v="locality" />
		<tag k="seamark:type" v="rock" />
		<tag k="ssr:stedsnr" v="753094" />
	</node>
	<node id="-396539" lat="58.9666027752" lon="10.1448861193">
		<tag k="fixme" v="consider seamark:type=rock or natural=shoal" />
		<tag k="name" v="Slipeskjær" />
		<tag k="place" v="islet" />
		<tag k="ssr:stedsnr" v="450351" />
	</node>
	<node id="-398586" lat="58.9677305547" lon="9.9038166649">
		<tag k="name" v="Smørvikodden" />
		<tag k="natural" v="cape" />
		<tag k="ssr:stedsnr" v="875307" />
	</node>
	<node id="-400633" lat="59.0275000027" lon="10.0574027811">
		<tag k="name" v="Oterøybåen" />
		<tag k="natural" v="shoal" />
		<tag k="place" v="locality" />
		<tag k="ssr:stedsnr" v="751845" />
	</node>
	<node id="-400632" lat="59.0121388889" lon="10.1779527843">
		<tag k="name" v="Fisebubåen" />
		<tag k="natural" v="shoal" />
		<tag k="place" v="locality" />
		<tag k="ssr:stedsnr" v="751837" />
	</node>
	<node id="-396499" lat="58.9935388848" lon="9.79460833599">
		<tag k="name" v="Slåvikbåene" />
		<tag k="place" v="locality" />
		<tag k="seamark:type" v="rock" />
		<tag k="ssr:stedsnr" v="298517" />
	</node>
	<node id="-400624" lat="58.9988888878" lon="10.0519444404">
		<tag k="name" v="Tisleøya" />
		<tag k="place" v="island" />
		<tag k="ssr:stedsnr" v="646225" />
	</node>
	<node id="-400623" lat="58.9930555566" lon="10.0519444384">
		<tag k="name" v="Festningshavna" />
		<tag k="natural" v="bay" />
		<tag k="ssr:stedsnr" v="645202" />
	</node>
	<node id="-400622" lat="58.9933888891" lon="10.0443333363">
		<tag k="name" v="Vadholmen" />
		<tag k="place" v="islet" />
		<tag k="ssr:stedsnr" v="644865" />
	</node>
	<node id="-396525" lat="58.9994388918" lon="9.82155555071">
		<tag k="alt_name" v="Gråskjer" />
		<tag k="fixme" v="consider seamark:type=rock or natural=shoal" />
		<tag k="name" v="Gråskjær" />
		<tag k="place" v="islet" />
		<tag k="ssr:stedsnr" v="244626" />
	</node>
	<node id="-398571" lat="58.9479305515" lon="9.95095000492">
		<tag k="name" v="Gunnergrunnene" />
		<tag k="natural" v="shoal" />
		<tag k="place" v="locality" />
		<tag k="ssr:stedsnr" v="851905" />
	</node>
	<node id="-400616" lat="59.0317472258" lon="9.8355111175">
		<tag k="name" v="Nordholmen" />
		<tag k="place" v="islet" />
		<tag k="ssr:stedsnr" v="634445" />
	</node>
	<node id="-396156" lat="59.0368333294" lon="10.2322638942">
		<tag k="alt_name" v="Koksundet" />
		<tag k="name" v="Koksund" />
		<tag k="natural" v="strait" />
		<tag k="ssr:stedsnr" v="88543" />
	</node>
	<node id="-396518" lat="59.0309750023" lon="10.2114833266">
		<tag k="name" v="Ranvika" />
		<tag k="natural" v="bay" />
		<tag k="ssr:stedsnr" v="244220" />
	</node>
	<node id="-396513" lat="59.0429333303" lon="10.1666055469">
		<tag k="bay" v="fjord" />
		<tag k="name" v="Kolladjupet" />
		<tag k="natural" v="bay" />
		<tag k="ssr:stedsnr" v="244207" />
	</node>
	<node id="-400605" lat="59.0062083297" lon="9.78976388698">
		<tag k="name" v="Arøykilen" />
		<tag k="natural" v="strait" />
		<tag k="ssr:stedsnr" v="634372" />
	</node>
	<node id="-398556" lat="58.9792055588" lon="9.9661694503">
		<tag k="name" v="Kjærstranda" />
		<tag k="natural" v="beach" />
		<tag k="place" v="locality" />
		<tag k="ssr:stedsnr" v="938448" />
	</node>
	<node id="-398550" lat="58.9913333316" lon="9.85672778385">
		<tag k="name" v="Langholt stranda" />
		<tag k="natural" v="beach" />
		<tag k="place" v="locality" />
		<tag k="ssr:stedsnr" v="938434" />
	</node>
	<node id="-400597" lat="59.0200777772" lon="10.185230558">
		<tag k="name" v="Ringen" />
		<tag k="natural" v="cape" />
		<tag k="ssr:stedsnr" v="633946" />
	</node>
	<node id="-400596" lat="59.017738892" lon="10.1774249976">
		<tag k="name" v="Grøtvika" />
		<tag k="natural" v="bay" />
		<tag k="ssr:stedsnr" v="633943" />
	</node>
	<node id="-400595" lat="59.0336666656" lon="10.2215805549">
		<tag k="name" v="Kartobukta" />
		<tag k="natural" v="bay" />
		<tag k="ssr:stedsnr" v="633942" />
	</node>
	<node id="-396498" lat="59.0044777772" lon="9.8162916662">
		<tag k="name" v="Kulbåen" />
		<tag k="place" v="locality" />
		<tag k="seamark:type" v="rock" />
		<tag k="ssr:stedsnr" v="298507" />
	</node>
	<node id="-396497" lat="58.9940833366" lon="9.84751111182">
		<tag k="name" v="Helgerobukta" />
		<tag k="natural" v="bay" />
		<tag k="ssr:stedsnr" v="298503" />
	</node>
	<node id="-396496" lat="58.9946222236" lon="9.81247221759">
		<tag k="name" v="Borvikbåen" />
		<tag k="place" v="locality" />
		<tag k="seamark:type" v="rock" />
		<tag k="ssr:stedsnr" v="298245" />
	</node>
	<node id="-398543" lat="59.0293388889" lon="9.83342500279">
		<tag k="name" v="Maurøya" />
		<tag k="place" v="islet" />
		<tag k="ssr:stedsnr" v="938408" />
	</node>
	<node id="-396491" lat="59.0209750033" lon="10.1938972278">
		<tag k="name" v="Ølvevikodden" />
		<tag k="natural" v="cape" />
		<tag k="ssr:stedsnr" v="209931" />
	</node>
	<node id="-396490" lat="59.0195694406" lon="10.185800003">
		<tag k="name" v="Fokksund" />
		<tag k="natural" v="strait" />
		<tag k="ssr:stedsnr" v="209928" />
	</node>
	<node id="-396489" lat="59.0221000012" lon="10.1943750059">
		<tag k="name" v="Tyskerbukta" />
		<tag k="natural" v="bay" />
		<tag k="ssr:stedsnr" v="209926" />
	</node>
	<node id="-396488" lat="59.0153472239" lon="10.1747888904">
		<tag k="name" v="Askvika" />
		<tag k="natural" v="bay" />
		<tag k="ssr:stedsnr" v="209922" />
	</node>
	<node id="-399221" lat="59.0123805511" lon="10.2230555584">
		<tag k="name" v="Granakrakkene" />
		<tag k="natural" v="shoal" />
		<tag k="place" v="locality" />
		<tag k="ssr:stedsnr" v="122250" />
	</node>
	<node id="-401268" lat="58.9785628623" lon="10.0358988258">
		<tag k="name" v="Rakkepynten" />
		<tag k="natural" v="cape" />
		<tag k="ssr:stedsnr" v="988931" />
	</node>
	<node id="-396465" lat="59.0293111128" lon="10.1045694527">
		<tag k="name" v="Guristranda" />
		<tag k="natural" v="beach" />
		<tag k="place" v="locality" />
		<tag k="ssr:stedsnr" v="209448" />
	</node>
	<node id="-396464" lat="59.0263027811" lon="10.0949833275">
		<tag k="name" v="Verven" />
		<tag k="natural" v="cape" />
		<tag k="ssr:stedsnr" v="209446" />
	</node>
	<node id="-396462" lat="59.0240416649" lon="10.0924749949">
		<tag k="name" v="Godthåpstranda" />
		<tag k="natural" v="beach" />
		<tag k="place" v="locality" />
		<tag k="ssr:stedsnr" v="209438" />
	</node>
	<node id="-396461" lat="59.0248111103" lon="10.1016722299">
		<tag k="name" v="Tørbergholmen" />
		<tag k="place" v="islet" />
		<tag k="ssr:stedsnr" v="209437" />
	</node>
	<node id="-396459" lat="58.9666666661" lon="9.93092221357">
		<tag k="name" v="Kinn" />
		<tag k="natural" v="cape" />
		<tag k="ssr:stedsnr" v="209428" />
	</node>
	<node id="-396457" lat="58.9574888908" lon="9.86379999317">
		<tag k="fixme" v="consider seamark:type=rock or natural=shoal" />
		<tag k="name" v="Langeskjær" />
		<tag k="place" v="islet" />
		<tag k="ssr:stedsnr" v="209411" />
	</node>
	<node id="-396456" lat="58.9743916706" lon="10.1469361074">
		<tag k="name" v="Sandesundsholmen" />
		<tag k="place" v="islet" />
		<tag k="ssr:stedsnr" v="209410" />
	</node>
	<node id="-400924" lat="58.9560833295" lon="9.90478332584">
		<tag k="name" v="Knullerne" />
		<tag k="natural" v="shoal" />
		<tag k="place" v="locality" />
		<tag k="ssr:stedsnr" v="815228" />
	</node>
	<node id="-400544" lat="59.031813887" lon="10.0664583337">
		<tag k="name" v="Rolighetsverven" />
		<tag k="natural" v="cape" />
		<tag k="ssr:stedsnr" v="633469" />
	</node>
	<node id="-397168" lat="59.0299888869" lon="10.2116749964">
		<tag k="name" v="Teiberg" />
		<tag k="natural" v="cape" />
		<tag k="ssr:stedsnr" v="512949" />
	</node>
	<node id="-400540" lat="59.0220361106" lon="10.0895416583">
		<tag k="name" v="Steinodden" />
		<tag k="natural" v="cape" />
		<tag k="ssr:stedsnr" v="633448" />
	</node>
	<node id="-396442" lat="59.0049555526" lon="10.1508416653">
		<tag k="fixme" v="consider seamark:type=rock or natural=shoal" />
		<tag k="name" v="Klokkerskjær" />
		<tag k="place" v="islet" />
		<tag k="ssr:stedsnr" v="209020" />
	</node>
	<node id="-400523" lat="59.0272805533" lon="10.1352333406">
		<tag k="fixme" v="consider seamark:type=rock or natural=shoal" />
		<tag k="name" v="Juledan" />
		<tag k="place" v="islet" />
		<tag k="ssr:stedsnr" v="633132" />
	</node>
	<node id="-396426" lat="59.0261527796" lon="10.1136055558">
		<tag k="name" v="Kisteholmen" />
		<tag k="place" v="islet" />
		<tag k="ssr:stedsnr" v="209108" />
	</node>
	<node id="-396424" lat="59.0165194486" lon="10.1186472166">
		<tag k="fixme" v="consider seamark:type=rock or natural=shoal" />
		<tag k="name" v="Kråkeholmskjæra" />
		<tag k="place" v="islet" />
		<tag k="ssr:stedsnr" v="209106" />
	</node>
	<node id="-396423" lat="59.0235999991" lon="10.1194333268">
		<tag k="name" v="Melkebåane" />
		<tag k="place" v="locality" />
		<tag k="seamark:type" v="rock" />
		<tag k="ssr:stedsnr" v="209105" />
	</node>
	<node id="-398466" lat="59.0309500001" lon="10.1026138843">
		<tag k="name" v="Kaupangskilen" />
		<tag k="natural" v="bay" />
		<tag k="ssr:stedsnr" v="937448" />
	</node>
	<node id="-398464" lat="59.0229777788" lon="10.095569439">
		<tag k="fixme" v="consider seamark:type=rock or natural=shoal" />
		<tag k="name" v="Selbuskjær" />
		<tag k="place" v="islet" />
		<tag k="ssr:stedsnr" v="937439" />
	</node>
	<node id="-398462" lat="59.0121166701" lon="9.79267500271">
		<tag k="name" v="Bukkespranget" />
		<tag k="natural" v="strait" />
		<tag k="ssr:stedsnr" v="937361" />
	</node>
	<node id="-398869" lat="59.0215361108" lon="9.798599997">
		<tag k="bay" v="fjord" />
		<tag k="name" v="Håøyfjorden" />
		<tag k="natural" v="bay" />
		<tag k="ssr:stedsnr" v="27373" />
	</node>
	<node id="-396409" lat="58.9962611079" lon="9.81068333214">
		<tag k="name" v="Hvitebergsodden" />
		<tag k="natural" v="cape" />
		<tag k="ssr:stedsnr" v="177256" />
	</node>
	<node id="-396407" lat="58.9882222228" lon="10.0509722301">
		<tag k="name" v="Fyrbukta" />
		<tag k="natural" v="bay" />
		<tag k="ssr:stedsnr" v="281269" />
	</node>
	<node id="-396405" lat="58.9870833358" lon="10.0344444377">
		<tag k="name" v="Madagaskar" />
		<tag k="place" v="islet" />
		<tag k="ssr:stedsnr" v="159867" />
	</node>
	<node id="-396404" lat="58.9931944471" lon="10.0427777752">
		<tag k="name" v="Kolaholet" />
		<tag k="natural" v="bay" />
		<tag k="ssr:stedsnr" v="159259" />
	</node>
	<node id="-400497" lat="58.9442500041" lon="9.92197221402">
		<tag k="name" v="Midtbåen" />
		<tag k="place" v="locality" />
		<tag k="seamark:type" v="rock" />
		<tag k="ssr:stedsnr" v="632249" />
	</node>
	<node id="-400496" lat="58.9540250042" lon="9.99548888099">
		<tag k="name" v="Søndre Bjerkerer" />
		<tag k="natural" v="shoal" />
		<tag k="place" v="locality" />
		<tag k="ssr:stedsnr" v="632340" />
	</node>
	<node id="-400495" lat="58.9622009239" lon="10.0482163356">
		<tag k="name" v="Herregårdsbåen" />
		<tag k="natural" v="shoal" />
		<tag k="place" v="locality" />
		<tag k="ssr:stedsnr" v="632028" />
	</node>
	<node id="-400494" lat="58.9519472207" lon="10.0324888873">
		<tag k="name" v="Muleberget" />
		<tag k="natural" v="shoal" />
		<tag k="place" v="locality" />
		<tag k="ssr:stedsnr" v="632026" />
	</node>
	<node id="-400493" lat="58.9656444433" lon="9.81909444949">
		<tag k="name" v="Midtre Finsbåane" />
		<tag k="natural" v="shoal" />
		<tag k="place" v="locality" />
		<tag k="ssr:stedsnr" v="631498" />
	</node>
	<node id="-400492" lat="59.0068833346" lon="9.803744437">
		<tag k="name" v="Sundholmen" />
		<tag k="place" v="islet" />
		<tag k="ssr:stedsnr" v="630484" />
	</node>
	<node id="-396384" lat="59.0392805572" lon="10.1730500031">
		<tag k="name" v="Skisakerleira" />
		<tag k="natural" v="shoal" />
		<tag k="place" v="locality" />
		<tag k="ssr:stedsnr" v="148660" />
	</node>
	<node id="-396374" lat="59.0003972246" lon="9.79370555781">
		<tag k="name" v="Jernbaugen" />
		<tag k="natural" v="beach" />
		<tag k="place" v="locality" />
		<tag k="ssr:stedsnr" v="148362" />
	</node>
	<node id="-396373" lat="59.007324996" lon="9.80011111873">
		<tag k="name" v="Lindteigen" />
		<tag k="natural" v="beach" />
		<tag k="place" v="locality" />
		<tag k="ssr:stedsnr" v="148357" />
	</node>
	<node id="-396372" lat="59.0046611133" lon="9.79124444677">
		<tag k="fixme" v="consider seamark:type=rock or natural=shoal" />
		<tag k="name" v="Arøyskjæra" />
		<tag k="place" v="islet" />
		<tag k="ssr:stedsnr" v="148355" />
	</node>
	<node id="-398419" lat="59.0305749956" lon="10.1398527764">
		<tag k="fixme" v="consider seamark:type=rock or natural=shoal" />
		<tag k="name" v="Langeskjær" />
		<tag k="place" v="islet" />
		<tag k="ssr:stedsnr" v="937151" />
	</node>
	<node id="-396370" lat="58.9663305579" lon="9.94656945235">
		<tag k="name" v="Halvall" />
		<tag k="natural" v="bay" />
		<tag k="ssr:stedsnr" v="148460" />
	</node>
	<node id="-396366" lat="59.0264833332" lon="10.103772215">
		<tag k="name" v="Rogneskjær" />
		<tag k="place" v="islet" />
		<tag k="ssr:stedsnr" v="148424" />
	</node>
	<node id="-398409" lat="59.003780553" lon="10.1285194393">
		<tag k="name" v="Svartholmene" />
		<tag k="place" v="islet" />
		<tag k="ssr:stedsnr" v="937027" />
	</node>
	<node id="-398408" lat="59.0009138894" lon="10.1271388888">
		<tag k="fixme" v="consider seamark:type=rock or natural=shoal" />
		<tag k="name" v="Steinboknubben" />
		<tag k="place" v="islet" />
		<tag k="ssr:stedsnr" v="937026" />
	</node>
	<node id="-398407" lat="59.0064583349" lon="10.1082500082">
		<tag k="alt_name" v="Volmane" />
		<tag k="fixme" v="consider seamark:type=rock or natural=shoal" />
		<tag k="name" v="Volmene" />
		<tag k="place" v="islet" />
		<tag k="ssr:stedsnr" v="937023" />
	</node>
	<node id="-400454" lat="59.0366750015" lon="10.1627750058">
		<tag k="alt_name" v="Skauholmen" />
		<tag k="name" v="Skogholmen" />
		<tag k="place" v="islet" />
		<tag k="ssr:stedsnr" v="608191" />
	</node>
	<node id="-400453" lat="58.9947222206" lon="10.0583333296">
		<tag k="name" v="Ramsholmen" />
		<tag k="place" v="islet" />
		<tag k="ssr:stedsnr" v="607947" />
	</node>
	<node id="-400451" lat="58.9555750006" lon="9.83045277694">
		<tag k="name" v="Sandværhausen" />
		<tag k="natural" v="shoal" />
		<tag k="place" v="locality" />
		<tag k="ssr:stedsnr" v="607913" />
	</node>
	<node id="-400450" lat="58.9541499983" lon="9.89673889507">
		<tag k="fixme" v="consider seamark:type=rock or natural=shoal" />
		<tag k="name" v="Harva" />
		<tag k="place" v="islet" />
		<tag k="ssr:stedsnr" v="607909" />
	</node>
	<node id="-400449" lat="58.9714499991" lon="10.1366694409">
		<tag k="name" v="Ferjeholmen" />
		<tag k="place" v="islet" />
		<tag k="ssr:stedsnr" v="607996" />
	</node>
	<node id="-400448" lat="58.9600416638" lon="9.89141111023">
		<tag k="alt_name" v="Bramskjera" />
		<tag k="fixme" v="consider seamark:type=rock or natural=shoal" />
		<tag k="name" v="Østre Bramskjær" />
		<tag k="place" v="islet" />
		<tag k="ssr:stedsnr" v="607879" />
	</node>
	<node id="-400447" lat="58.9640861135" lon="9.95155277512">
		<tag k="alt_name" v="Ødegardsfjorden" />
		<tag k="bay" v="fjord" />
		<tag k="name" v="Ødegårdsfjorden" />
		<tag k="natural" v="bay" />
		<tag k="ssr:stedsnr" v="607878" />
	</node>
	<node id="-398398" lat="58.9996944463" lon="10.0554111194">
		<tag k="fixme" v="consider seamark:type=rock or natural=shoal" />
		<tag k="name" v="Terneskjær" />
		<tag k="place" v="islet" />
		<tag k="ssr:stedsnr" v="936196" />
	</node>
	<node id="-398397" lat="58.9688611154" lon="10.0446305583">
		<tag k="name" v="Rødskjærbåen" />
		<tag k="natural" v="shoal" />
		<tag k="place" v="locality" />
		<tag k="ssr:stedsnr" v="936031" />
	</node>
	<node id="-400444" lat="58.9958055515" lon="9.81739444887">
		<tag k="name" v="Låven" />
		<tag k="place" v="islet" />
		<tag k="ssr:stedsnr" v="607610" />
	</node>
	<node id="-398395" lat="59.0163888904" lon="10.0408333261">
		<tag k="name" v="Agnesbåen" />
		<tag k="natural" v="shoal" />
		<tag k="place" v="locality" />
		<tag k="ssr:stedsnr" v="934787" />
	</node>
	<node id="-398394" lat="59.0026388921" lon="9.82312500671">
		<tag k="name" v="Selskjærbåen" />
		<tag k="place" v="locality" />
		<tag k="seamark:type" v="rock" />
		<tag k="ssr:stedsnr" v="934474" />
	</node>
	<node id="-400438" lat="59.0156166691" lon="9.8438277764">
		<tag k="name" v="Dåvøysundet" />
		<tag k="natural" v="strait" />
		<tag k="ssr:stedsnr" v="601270" />
	</node>
	<node id="-400437" lat="59.0072749994" lon="9.85190832726">
		<tag k="name" v="Blokkebukta" />
		<tag k="natural" v="bay" />
		<tag k="ssr:stedsnr" v="601267" />
	</node>
	<node id="-396326" lat="59.0075249988" lon="10.1516972247">
		<tag k="name" v="Store Solbergstrand" />
		<tag k="natural" v="beach" />
		<tag k="place" v="locality" />
		<tag k="ssr:stedsnr" v="148023" />
	</node>
	<node id="-396318" lat="59.0110416697" lon="10.0871888899">
		<tag k="name" v="Skjærsundstranda" />
		<tag k="natural" v="beach" />
		<tag k="place" v="locality" />
		<tag k="ssr:stedsnr" v="148002" />
	</node>
	<node id="-397411" lat="58.9839888868" lon="9.83954166789">
		<tag k="name" v="Fetangen" />
		<tag k="natural" v="cape" />
		<tag k="ssr:stedsnr" v="486609" />
	</node>
	<node id="-396308" lat="58.9605805517" lon="10.0311472156">
		<tag k="name" v="Brattbåen" />
		<tag k="natural" v="shoal" />
		<tag k="place" v="locality" />
		<tag k="ssr:stedsnr" v="147015" />
	</node>
	<node id="-396307" lat="59.0469527763" lon="10.2385666643">
		<tag k="name" v="Sua" />
		<tag k="natural" v="shoal" />
		<tag k="place" v="locality" />
		<tag k="ssr:stedsnr" v="146863" />
	</node>
	<node id="-396120" lat="59.0177805595" lon="10.1995666681">
		<tag k="name" v="Rappen" />
		<tag k="natural" v="shoal" />
		<tag k="place" v="locality" />
		<tag k="ssr:stedsnr" v="84910" />
	</node>
	<node id="-397485" lat="59.009822226" lon="10.1618583312">
		<tag k="name" v="Ulvebakke" />
		<tag k="natural" v="bay" />
		<tag k="ssr:stedsnr" v="512938" />
	</node>
	<node id="-400393" lat="59.0571527778" lon="10.2337388825">
		<tag k="name" v="Kisteholmen indre" />
		<tag k="place" v="islet" />
		<tag k="ssr:stedsnr" v="573879" />
	</node>
	<node id="-398343" lat="59.0335472208" lon="10.1480388956">
		<tag k="name" v="Skjeggestadholmen ø." />
		<tag k="place" v="islet" />
		<tag k="ssr:stedsnr" v="816122" />
	</node>
	<node id="-398341" lat="59.0241499996" lon="10.1068916635">
		<tag k="fixme" v="consider seamark:type=rock or natural=shoal" />
		<tag k="name" v="Makrellskjær" />
		<tag k="place" v="islet" />
		<tag k="ssr:stedsnr" v="816112" />
	</node>
	<node id="-398338" lat="59.0173638911" lon="10.1226361063">
		<tag k="name" v="Ormeholet" />
		<tag k="natural" v="strait" />
		<tag k="ssr:stedsnr" v="816108" />
	</node>
	<node id="-400384" lat="58.9989444456" lon="10.0461111025">
		<tag k="fixme" v="consider seamark:type=rock or natural=shoal" />
		<tag k="name" v="Floskjær" />
		<tag k="place" v="islet" />
		<tag k="ssr:stedsnr" v="573482" />
	</node>
	<node id="-400381" lat="59.0280833359" lon="10.1003749975">
		<tag k="name" v="Kaupangstranda" />
		<tag k="natural" v="beach" />
		<tag k="place" v="locality" />
		<tag k="ssr:stedsnr" v="573420" />
	</node>
	<node id="-400379" lat="59.0225277796" lon="10.0909666675">
		<tag k="name" v="Frenvikbukta" />
		<tag k="natural" v="bay" />
		<tag k="ssr:stedsnr" v="573409" />
	</node>
	<node id="-400376" lat="59.0242583376" lon="10.0977555638">
		<tag k="name" v="Ødegårdsbukta" />
		<tag k="natural" v="bay" />
		<tag k="ssr:stedsnr" v="573402" />
	</node>
	<node id="-398325" lat="59.0099888847" lon="10.1269055498">
		<tag k="name" v="Havneholmen" />
		<tag k="place" v="islet" />
		<tag k="ssr:stedsnr" v="816017" />
	</node>
	<node id="-398324" lat="59.0108916647" lon="10.1286388919">
		<tag k="fixme" v="consider seamark:type=rock or natural=shoal" />
		<tag k="name" v="Ragnhildskjæret" />
		<tag k="place" v="islet" />
		<tag k="ssr:stedsnr" v="816016" />
	</node>
	<node id="-398322" lat="59.0087083323" lon="10.0931999982">
		<tag k="name" v="Breistrand" />
		<tag k="natural" v="beach" />
		<tag k="place" v="locality" />
		<tag k="ssr:stedsnr" v="816010" />
	</node>
	<node id="-398315" lat="58.9922222243" lon="10.059166658">
		<tag k="name" v="Kikutbåen" />
		<tag k="place" v="locality" />
		<tag k="seamark:type" v="rock" />
		<tag k="ssr:stedsnr" v="815223" />
	</node>
	<node id="-398314" lat="58.8977583363" lon="10.0307861149">
		<tag k="name" v="Hakkeberget" />
		<tag k="natural" v="shoal" />
		<tag k="place" v="locality" />
		<tag k="ssr:stedsnr" v="815103" />
	</node>
	<node id="-398306" lat="58.9825638894" lon="10.1474250086">
		<tag k="name" v="Svennerflaten" />
		<tag k="place" v="islet" />
		<tag k="ssr:stedsnr" v="790964" />
	</node>
	<node id="-396255" lat="59.0312444472" lon="10.0517305604">
		<tag k="name" v="Røveren" />
		<tag k="place" v="islet" />
		<tag k="ssr:stedsnr" v="270447" />
	</node>
	<node id="-398302" lat="58.9962166699" lon="9.80937777455">
		<tag k="name" v="Stokksundet" />
		<tag k="natural" v="strait" />
		<tag k="ssr:stedsnr" v="790628" />
	</node>
	<node id="-396252" lat="58.9780638899" lon="9.96557778068">
		<tag k="name" v="Andvikstranda" />
		<tag k="natural" v="beach" />
		<tag k="place" v="locality" />
		<tag k="ssr:stedsnr" v="270441" />
	</node>
	<node id="-396251" lat="59.0180805555" lon="9.84224999859">
		<tag k="name" v="Svartebukt v" />
		<tag k="natural" v="bay" />
		<tag k="ssr:stedsnr" v="270432" />
	</node>
	<node id="-398293" lat="59.0106111124" lon="10.1102472149">
		<tag k="name" v="Lundstadsundet" />
		<tag k="natural" v="strait" />
		<tag k="ssr:stedsnr" v="790215" />
	</node>
	<node id="-400340" lat="58.9749861146" lon="9.866433337">
		<tag k="name" v="Omrestranda" />
		<tag k="natural" v="beach" />
		<tag k="place" v="locality" />
		<tag k="ssr:stedsnr" v="573352" />
	</node>
	<node id="-400339" lat="59.0142138905" lon="9.78515832599">
		<tag k="name" v="Linnabukta" />
		<tag k="natural" v="bay" />
		<tag k="ssr:stedsnr" v="573327" />
	</node>
	<node id="-396242" lat="59.0087500037" lon="9.79522222045">
		<tag k="name" v="Ollestranda" />
		<tag k="natural" v="beach" />
		<tag k="place" v="locality" />
		<tag k="ssr:stedsnr" v="270348" />
	</node>
	<node id="-396241" lat="59.0167888933" lon="9.78883889019">
		<tag k="name" v="Garnholmen" />
		<tag k="place" v="islet" />
		<tag k="ssr:stedsnr" v="270346" />
	</node>
	<node id="-398287" lat="59.0009027739" lon="10.1821222273">
		<tag k="name" v="Sulua" />
		<tag k="natural" v="shoal" />
		<tag k="place" v="locality" />
		<tag k="ssr:stedsnr" v="790011" />
	</node>
	<node id="-400328" lat="59.0068916668" lon="10.1404249985">
		<tag k="name" v="Kammersholmen" />
		<tag k="place" v="islet" />
		<tag k="ssr:stedsnr" v="573015" />
	</node>
	<node id="-396789" lat="58.9518250035" lon="9.90196666398">
		<tag k="alt_name" v="Rødskjer" />
		<tag k="fixme" v="consider seamark:type=rock or natural=shoal" />
		<tag k="name" v="Rødskjær" />
		<tag k="place" v="islet" />
		<tag k="ssr:stedsnr" v="304914" />
	</node>
	<node id="-400315" lat="59.0141972219" lon="10.1284472277">
		<tag k="name" v="Porsviktangen" />
		<tag k="natural" v="cape" />
		<tag k="ssr:stedsnr" v="573098" />
	</node>
	<node id="-400543" lat="59.0293833351" lon="10.0540527715">
		<tag k="name" v="Makrellholmen" />
		<tag k="place" v="islet" />
		<tag k="ssr:stedsnr" v="633461" />
	</node>
	<node id="-400304" lat="59.0258972237" lon="10.1084583403">
		<tag k="name" v="Hernut" />
		<tag k="natural" v="cape" />
		<tag k="ssr:stedsnr" v="573071" />
	</node>
	<node id="-396444" lat="59.0083249956" lon="10.1494138865">
		<tag k="name" v="Odden" />
		<tag k="natural" v="cape" />
		<tag k="ssr:stedsnr" v="209022" />
	</node>
	<node id="-398245" lat="59.0025666694" lon="10.1317277758">
		<tag k="alt_name" v="Langeholmen;Den lange holmen" />
		<tag k="name" v="Langholmen" />
		<tag k="place" v="islet" />
		<tag k="ssr:stedsnr" v="912258" />
	</node>
	<node id="-398244" lat="59.0072777773" lon="10.1414777847">
		<tag k="name" v="Sandvikbukta" />
		<tag k="natural" v="bay" />
		<tag k="ssr:stedsnr" v="912257" />
	</node>
	<node id="-400289" lat="59.0009472208" lon="10.1740888876">
		<tag k="name" v="Hollenderfluene" />
		<tag k="natural" v="shoal" />
		<tag k="place" v="locality" />
		<tag k="ssr:stedsnr" v="572148" />
	</node>
	<node id="-400285" lat="58.9715722179" lon="10.0382944395">
		<tag k="name" v="Foner" />
		<tag k="natural" v="shoal" />
		<tag k="place" v="locality" />
		<tag k="ssr:stedsnr" v="572028" />
	</node>
	<node id="-396188" lat="59.0368333308" lon="10.1384833247">
		<tag k="fixme" v="consider seamark:type=rock or natural=shoal" />
		<tag k="name" v="Langfredagskjæret" />
		<tag k="place" v="islet" />
		<tag k="ssr:stedsnr" v="270169" />
	</node>
	<node id="-396185" lat="59.009922226" lon="10.1153388948">
		<tag k="name" v="Hoppøykalven" />
		<tag k="place" v="islet" />
		<tag k="ssr:stedsnr" v="270012" />
	</node>
	<node id="-400279" lat="58.9904222246" lon="10.1458861043">
		<tag k="name" v="Midtbåen" />
		<tag k="natural" v="shoal" />
		<tag k="place" v="locality" />
		<tag k="ssr:stedsnr" v="571123" />
	</node>
	<node id="-400278" lat="58.9891944401" lon="10.2780499988">
		<tag k="name" v="Jutegrunnen" />
		<tag k="natural" v="shoal" />
		<tag k="place" v="locality" />
		<tag k="ssr:stedsnr" v="570296" />
	</node>
	<node id="-400277" lat="59.0164694474" lon="10.1955166732">
		<tag k="name" v="Blystein" />
		<tag k="natural" v="shoal" />
		<tag k="place" v="locality" />
		<tag k="ssr:stedsnr" v="569778" />
	</node>
	<node id="-396782" lat="58.9980555539" lon="10.0552777798">
		<tag k="name" v="Tisledammen" />
		<tag k="natural" v="strait" />
		<tag k="ssr:stedsnr" v="463879" />
	</node>
	<node id="-396520" lat="59.0195805588" lon="9.78622221976">
		<tag k="alt_name" v="Halvveisholmane" />
		<tag k="name" v="Halveisholmene" />
		<tag k="place" v="islet" />
		<tag k="ssr:stedsnr" v="244264" />
	</node>
	<node id="-398225" lat="58.9618638852" lon="10.1198999996">
		<tag k="name" v="Svennerskaten" />
		<tag k="natural" v="shoal" />
		<tag k="place" v="locality" />
		<tag k="ssr:stedsnr" v="911996" />
	</node>
	<node id="-398223" lat="58.9750222259" lon="10.1395638828">
		<tag k="name" v="Strømsundholmen" />
		<tag k="old_name" v="Strømsholmen" />
		<tag k="place" v="islet" />
		<tag k="ssr:stedsnr" v="911960" />
	</node>
	<node id="-398222" lat="58.9948138864" lon="10.1387916652">
		<tag k="name" v="Kattebåen" />
		<tag k="natural" v="shoal" />
		<tag k="place" v="locality" />
		<tag k="ssr:stedsnr" v="911944" />
	</node>
	<node id="-398217" lat="58.9815499989" lon="9.80524166444">
		<tag k="name" v="Fugløya" />
		<tag k="place" v="islet" />
		<tag k="ssr:stedsnr" v="911610" />
	</node>
	<node id="-396168" lat="58.9977250009" lon="10.1826805527">
		<tag k="name" v="Bleia" />
		<tag k="natural" v="shoal" />
		<tag k="place" v="locality" />
		<tag k="ssr:stedsnr" v="269129" />
	</node>
	<node id="-396167" lat="58.9667722233" lon="9.98575278">
		<tag k="fixme" v="consider seamark:type=rock or natural=shoal" />
		<tag k="name" v="Hvittingen" />
		<tag k="place" v="islet" />
		<tag k="ssr:stedsnr" v="268298" />
	</node>
	<node id="-396165" lat="58.9818583335" lon="9.83287499298">
		<tag k="fixme" v="consider seamark:type=rock or natural=shoal" />
		<tag k="name" v="Svartskjær" />
		<tag k="place" v="islet" />
		<tag k="ssr:stedsnr" v="268290" />
	</node>
	<node id="-396164" lat="59.0208777757" lon="10.2043777818">
		<tag k="name" v="Røysa" />
		<tag k="natural" v="shoal" />
		<tag k="place" v="locality" />
		<tag k="ssr:stedsnr" v="266892" />
	</node>
	<node id="-396163" lat="59.0174888892" lon="10.1824888851">
		<tag k="name" v="Sigrund" />
		<tag k="place" v="locality" />
		<tag k="ssr:stedsnr" v="266803" />
	</node>
	<node id="-400255" lat="59.0005194463" lon="9.7848777733">
		<tag k="bay" v="fjord" />
		<tag k="name" v="Dypingen" />
		<tag k="natural" v="bay" />
		<tag k="ssr:stedsnr" v="548319" />
	</node>
	<node id="-396158" lat="58.9868305512" lon="9.80200554998">
		<tag k="name" v="Fugløyskadden" />
		<tag k="place" v="locality" />
		<tag k="seamark:type" v="rock" />
		<tag k="ssr:stedsnr" v="116515" />
	</node>
	<node id="-396157" lat="59.0094416645" lon="9.77577223043">
		<tag k="name" v="Kjørtingen" />
		<tag k="place" v="islet" />
		<tag k="ssr:stedsnr" v="100206" />
	</node>
	<node id="-398204" lat="59.0054694419" lon="10.1356944411">
		<tag k="name" v="Kongsbakkeodden" />
		<tag k="natural" v="cape" />
		<tag k="ssr:stedsnr" v="755020" />
	</node>
	<node id="-396155" lat="59.0379833345" lon="10.2293500022">
		<tag k="fixme" v="consider seamark:type=rock or natural=shoal" />
		<tag k="name" v="Gjuten" />
		<tag k="place" v="islet" />
		<tag k="ssr:stedsnr" v="88541" />
	</node>
	<node id="-400235" lat="58.9794805592" lon="10.2303138973">
		<tag k="name" v="Ertholmen" />
		<tag k="place" v="islet" />
		<tag k="ssr:stedsnr" v="548000" />
	</node>
	<node id="-400234" lat="58.9891249966" lon="10.0350499939">
		<tag k="name" v="Skråvika" />
		<tag k="natural" v="bay" />
		<tag k="ssr:stedsnr" v="547990" />
	</node>
	<node id="-400232" lat="58.9918027806" lon="10.2689333379">
		<tag k="alt_name" v="Bondeskaten, nordre;Bondeskaten" />
		<tag k="name" v="Nordre Bondeskaten" />
		<tag k="natural" v="shoal" />
		<tag k="place" v="locality" />
		<tag k="ssr:stedsnr" v="547983" />
	</node>
	<node id="-400231" lat="58.9969194476" lon="10.1722083375">
		<tag k="name" v="Blyrauva" />
		<tag k="natural" v="shoal" />
		<tag k="place" v="locality" />
		<tag k="ssr:stedsnr" v="547960" />
	</node>
	<node id="-400230" lat="58.9520361145" lon="9.88806388036">
		<tag k="alt_name" v="Nilsskjeret" />
		<tag k="fixme" v="consider seamark:type=rock or natural=shoal" />
		<tag k="name" v="Nilsskjær" />
		<tag k="place" v="islet" />
		<tag k="ssr:stedsnr" v="547935" />
	</node>
	<node id="-400229" lat="58.9606083327" lon="9.90367500437">
		<tag k="name" v="Midtbåen" />
		<tag k="place" v="locality" />
		<tag k="seamark:type" v="rock" />
		<tag k="ssr:stedsnr" v="547911" />
	</node>
	<node id="-396130" lat="59.0380166648" lon="10.1300972157">
		<tag k="name" v="Åsholmen" />
		<tag k="place" v="islet" />
		<tag k="ssr:stedsnr" v="88118" />
	</node>
	<node id="-398176" lat="59.048825" lon="10.1593638959">
		<tag k="bay" v="fjord" />
		<tag k="name" v="Varillfjorden" />
		<tag k="natural" v="bay" />
		<tag k="ssr:stedsnr" v="729179" />
	</node>
	<node id="-396125" lat="58.9770833329" lon="10.1306555517">
		<tag k="fixme" v="consider seamark:type=rock or natural=shoal" />
		<tag k="name" v="Nordbåeskjæra" />
		<tag k="place" v="islet" />
		<tag k="ssr:stedsnr" v="87115" />
	</node>
	<node id="-396124" lat="58.9582611069" lon="10.0179000074">
		<tag k="name" v="Hellene" />
		<tag k="natural" v="shoal" />
		<tag k="place" v="locality" />
		<tag k="ssr:stedsnr" v="87022" />
	</node>
	<node id="-396122" lat="58.9599750023" lon="10.1857361077">
		<tag k="name" v="Rasmusbåen" />
		<tag k="natural" v="shoal" />
		<tag k="place" v="locality" />
		<tag k="ssr:stedsnr" v="86115" />
	</node>
	<node id="-398168" lat="59.0446805536" lon="10.0310000076">
		<tag k="name" v="Kjerkebåen" />
		<tag k="place" v="locality" />
		<tag k="seamark:type" v="rock" />
		<tag k="ssr:stedsnr" v="890117" />
	</node>
	<node id="-398166" lat="58.978086115" lon="10.1637055619">
		<tag k="name" v="Bøla" />
		<tag k="place" v="islet" />
		<tag k="ssr:stedsnr" v="695963" />
	</node>
	<node id="-396106" lat="58.9358805586" lon="10.0854638902">
		<tag k="name" v="Grunsken" />
		<tag k="natural" v="shoal" />
		<tag k="place" v="locality" />
		<tag k="ssr:stedsnr" v="244993" />
	</node>
	<node id="-398153" lat="59.0027250006" lon="9.79506389421">
		<tag k="fixme" v="consider seamark:type=rock or natural=shoal" />
		<tag k="name" v="Lars-skjær" />
		<tag k="place" v="islet" />
		<tag k="ssr:stedsnr" v="695367" />
	</node>
	<node id="-398152" lat="59.0408027801" lon="10.2309638872">
		<tag k="fixme" v="consider seamark:type=rock or natural=shoal" />
		<tag k="name" v="Solskjær" />
		<tag k="place" v="islet" />
		<tag k="ssr:stedsnr" v="695612" />
	</node>
	<node id="-396103" lat="58.9613992872" lon="9.85613742909">
		<tag k="name" v="Oddane" />
		<tag k="natural" v="cape" />
		<tag k="ssr:stedsnr" v="244907" />
	</node>
	<node id="-400190" lat="59.0018750031" lon="9.77063889569">
		<tag k="name" v="Geiterøysundet" />
		<tag k="natural" v="strait" />
		<tag k="ssr:stedsnr" v="541653" />
	</node>
	<node id="-396093" lat="59.0026166669" lon="10.0456638925">
		<tag k="name" v="Risøya" />
		<tag k="natural" v="cape" />
		<tag k="ssr:stedsnr" v="244250" />
	</node>
	<node id="-400188" lat="59.0094611092" lon="9.78477222519">
		<tag k="fixme" v="consider seamark:type=rock or natural=shoal" />
		<tag k="name" v="Tangane" />
		<tag k="place" v="islet" />
		<tag k="ssr:stedsnr" v="541286" />
	</node>
	<node id="-400186" lat="59.0582750044" lon="10.2359722275">
		<tag k="name" v="Kisteholmen ytre" />
		<tag k="place" v="islet" />
		<tag k="ssr:stedsnr" v="538508" />
	</node>
	<node id="-396088" lat="58.9855388857" lon="10.25785278">
		<tag k="name" v="Bonden" />
		<tag k="place" v="islet" />
		<tag k="ssr:stedsnr" v="243982" />
	</node>
	<node id="-400182" lat="58.9888055521" lon="10.0434583369">
		<tag k="name" v="Patronesken" />
		<tag k="place" v="islet" />
		<tag k="ssr:stedsnr" v="525250" />
	</node>
	<node id="-396083" lat="59.0041666652" lon="10.0400555572">
		<tag k="name" v="Sandøya" />
		<tag k="place" v="island" />
		<tag k="ssr:stedsnr" v="239957" />
	</node>
	<node id="-398129" lat="59.0257944451" lon="10.1329111121">
		<tag k="name" v="Megardskilen" />
		<tag k="natural" v="bay" />
		<tag k="ssr:stedsnr" v="695109" />
	</node>
	<node id="-396080" lat="59.0089694483" lon="9.8089805475">
		<tag k="name" v="Dynebåane" />
		<tag k="place" v="locality" />
		<tag k="seamark:type" v="rock" />
		<tag k="ssr:stedsnr" v="56265" />
	</node>
	<node id="-397744" lat="59.0198194452" lon="10.1145805541">
		<tag k="name" v="Sandholmen" />
		<tag k="old_name" v="Sandholmem" />
		<tag k="place" v="islet" />
		<tag k="ssr:stedsnr" v="633118" />
	</node>
	<node id="-400164" lat="58.9497527781" lon="10.0148666623">
		<tag k="name" v="Bergyltbåen" />
		<tag k="natural" v="shoal" />
		<tag k="place" v="locality" />
		<tag k="ssr:stedsnr" v="426998" />
	</node>
	<node id="-400163" lat="58.9919583343" lon="10.0528027806">
		<tag k="name" v="Stavernsøya" />
		<tag k="place" v="island" />
		<tag k="ssr:stedsnr" v="426987" />
	</node>
	<node id="-400162" lat="58.9768333317" lon="10.1595000025">
		<tag k="name" v="Bølene" />
		<tag k="place" v="islet" />
		<tag k="ssr:stedsnr" v="426975" />
	</node>
	<node id="-400160" lat="59.0011416641" lon="10.2494000053">
		<tag k="name" v="Storekrakk" />
		<tag k="place" v="islet" />
		<tag k="ssr:stedsnr" v="426960" />
	</node>
	<node id="-400159" lat="58.9666472234" lon="9.90316667145">
		<tag k="alt_name" v="Smørbukta" />
		<tag k="name" v="Smørvika" />
		<tag k="natural" v="bay" />
		<tag k="ssr:stedsnr" v="426891" />
	</node>
	<node id="-396058" lat="59.0402861088" lon="10.2302361118">
		<tag k="fixme" v="consider seamark:type=rock or natural=shoal" />
		<tag k="name" v="Ringeskjær" />
		<tag k="place" v="islet" />
		<tag k="ssr:stedsnr" v="27617" />
	</node>
	<node id="-396057" lat="59.0469305568" lon="10.2292666667">
		<tag k="name" v="Kalvika" />
		<tag k="natural" v="bay" />
		<tag k="ssr:stedsnr" v="27612" />
	</node>
	<node id="-400147" lat="59.0396888872" lon="10.1444916751">
		<tag k="name" v="Vikerøya" />
		<tag k="place" v="island" />
		<tag k="ssr:stedsnr" v="426196" />
	</node>
	<node id="-398097" lat="59.0276972235" lon="10.0666194435">
		<tag k="name" v="Kjeholmen" />
		<tag k="natural" v="cape" />
		<tag k="ssr:stedsnr" v="694423" />
	</node>
	<node id="-396048" lat="59.0266194466" lon="9.83776110314">
		<tag k="alt_name" v="Liaholmen" />
		<tag k="name" v="Liaholmene" />
		<tag k="place" v="islet" />
		<tag k="ssr:stedsnr" v="27423" />
	</node>
	<node id="-396047" lat="58.9729736247" lon="10.1544442319">
		<tag k="fixme" v="consider seamark:type=rock or natural=shoal" />
		<tag k="name" v="Oskjær" />
		<tag k="place" v="islet" />
		<tag k="ssr:stedsnr" v="27408" />
	</node>
	<node id="-396046" lat="58.9735916701" lon="10.1445833332">
		<tag k="name" v="Nordbogen" />
		<tag k="natural" v="bay" />
		<tag k="ssr:stedsnr" v="27404" />
	</node>
	<node id="-396759" lat="59.0464805598" lon="10.2305138814">
		<tag k="name" v="Ferja" />
		<tag k="natural" v="cape" />
		<tag k="ssr:stedsnr" v="270603" />
	</node>
	<node id="-396033" lat="59.0286944449" lon="10.136141659">
		<tag k="name" v="Fristadbåen" />
		<tag k="place" v="locality" />
		<tag k="seamark:type" v="rock" />
		<tag k="ssr:stedsnr" v="27110" />
	</node>
	<node id="-398073" lat="59.0038833339" lon="9.84580277234">
		<tag k="alt_name" v="Teineholmen" />
		<tag k="name" v="Terneholmen" />
		<tag k="place" v="islet" />
		<tag k="ssr:stedsnr" v="693153" />
	</node>
	<node id="-398072" lat="58.9704027734" lon="10.2234888865">
		<tag k="name" v="Søndre Rauerbåen" />
		<tag k="natural" v="shoal" />
		<tag k="place" v="locality" />
		<tag k="ssr:stedsnr" v="693123" />
	</node>
	<node id="-398071" lat="58.9620000017" lon="9.96714999193">
		<tag k="fixme" v="consider seamark:type=rock or natural=shoal" />
		<tag k="name" v="Ramn" />
		<tag k="place" v="islet" />
		<tag k="ssr:stedsnr" v="693223" />
	</node>
	<node id="-396018" lat="59.0068777816" lon="10.1021916731">
		<tag k="fixme" v="consider seamark:type=rock or natural=shoal" />
		<tag k="name" v="Nepegårdskjær" />
		<tag k="place" v="islet" />
		<tag k="ssr:stedsnr" v="27010" />
	</node>
	<node id="-398065" lat="58.9881222196" lon="9.8415250075">
		<tag k="alt_name" v="Åmlirogna" />
		<tag k="name" v="Åmlirogn" />
		<tag k="natural" v="cape" />
		<tag k="ssr:stedsnr" v="668636" />
	</node>
	<node id="-400111" lat="59.0415250017" lon="10.1733833393">
		<tag k="name" v="Skisakerøya" />
		<tag k="natural" v="cape" />
		<tag k="ssr:stedsnr" v="391644" />
	</node>
	<node id="-398060" lat="58.7361250035" lon="9.58150832611">
		<tag k="name" v="Indre Skagerrak" />
		<tag k="old_name" v="Indre Skagerak" />
		<tag k="place" v="sea" />
		<tag k="ssr:stedsnr" v="668547" />
	</node>
	<node id="-396009" lat="58.9677111072" lon="9.8173166745">
		<tag k="name" v="Nordre Finsbåane" />
		<tag k="natural" v="shoal" />
		<tag k="place" v="locality" />
		<tag k="ssr:stedsnr" v="25513" />
	</node>
	<node id="-396007" lat="59.0246194473" lon="9.78342777247">
		<tag k="name" v="Frankobåen" />
		<tag k="place" v="locality" />
		<tag k="seamark:type" v="rock" />
		<tag k="ssr:stedsnr" v="24521" />
	</node>
	<node id="-396005" lat="58.992361113" lon="10.0413611078">
		<tag k="name" v="Sildeholet" />
		<tag k="natural" v="bay" />
		<tag k="ssr:stedsnr" v="220285" />
	</node>
	<node id="-400100" lat="59.0161611079" lon="9.84480555512">
		<tag k="name" v="Svartebukt ø" />
		<tag k="natural" v="bay" />
		<tag k="ssr:stedsnr" v="391451" />
	</node>
	<node id="-400096" lat="58.9564611103" lon="9.87233333659">
		<tag k="fixme" v="consider seamark:type=rock or natural=shoal" />
		<tag k="name" v="Langholmskjæret" />
		<tag k="place" v="islet" />
		<tag k="ssr:stedsnr" v="391417" />
	</node>
	<node id="-396752" lat="59.0021305584" lon="9.82682500434">
		<tag k="name" v="Geiterøyholmen" />
		<tag k="place" v="islet" />
		<tag k="ssr:stedsnr" v="270355" />
	</node>
	<node id="-398046" lat="59.020899997" lon="10.1909722253">
		<tag k="name" v="Fuglevika" />
		<tag k="natural" v="bay" />
		<tag k="ssr:stedsnr" v="877949" />
	</node>
	<node id="-400092" lat="58.9966750011" lon="9.81017221946">
		<tag k="name" v="Bonvika" />
		<tag k="natural" v="bay" />
		<tag k="ssr:stedsnr" v="391384" />
	</node>
	<node id="-398043" lat="59.022963892" lon="10.1953722212">
		<tag k="name" v="Ølbergvika" />
		<tag k="natural" v="bay" />
		<tag k="ssr:stedsnr" v="877942" />
	</node>
	<node id="-400089" lat="59.0005416628" lon="9.81713056031">
		<tag k="name" v="Hvitsand" />
		<tag k="natural" v="beach" />
		<tag k="place" v="locality" />
		<tag k="ssr:stedsnr" v="391379" />
	</node>
	<node id="-400088" lat="59.0098805587" lon="9.78558888387">
		<tag k="name" v="Tistelstranda" />
		<tag k="natural" v="beach" />
		<tag k="place" v="locality" />
		<tag k="ssr:stedsnr" v="391375" />
	</node>
	<node id="-398038" lat="59.0634666694" lon="10.2298333288">
		<tag k="name" v="Steinbukta" />
		<tag k="natural" v="bay" />
		<tag k="ssr:stedsnr" v="877911" />
	</node>
	<node id="-400082" lat="59.0206944408" lon="10.1112749994">
		<tag k="name" v="Måsakollen" />
		<tag k="place" v="islet" />
		<tag k="ssr:stedsnr" v="391100" />
	</node>
	<node id="-400079" lat="59.0268638897" lon="10.1053722307">
		<tag k="fixme" v="consider seamark:type=rock or natural=shoal" />
		<tag k="name" v="Brenterønningen" />
		<tag k="place" v="islet" />
		<tag k="ssr:stedsnr" v="391093" />
	</node>
	<node id="-398029" lat="59.0470833315" lon="10.163958339">
		<tag k="name" v="Klåstadrenna" />
		<tag k="natural" v="strait" />
		<tag k="ssr:stedsnr" v="877649" />
	</node>
	<node id="-398028" lat="59.0345000032" lon="10.2294694401">
		<tag k="name" v="Martaholet" />
		<tag k="natural" v="bay" />
		<tag k="ssr:stedsnr" v="877629" />
	</node>
	<node id="-398019" lat="59.0056472225" lon="10.04681945">
		<tag k="name" v="Nordstranda" />
		<tag k="natural" v="beach" />
		<tag k="place" v="locality" />
		<tag k="ssr:stedsnr" v="877518" />
	</node>
	<node id="-398012" lat="58.9776638918" lon="10.009616663">
		<tag k="name" v="Gumserødbukta" />
		<tag k="natural" v="bay" />
		<tag k="ssr:stedsnr" v="877470" />
	</node>
	<node id="-398011" lat="58.9724388845" lon="10.0020222149">
		<tag k="bay" v="fjord" />
		<tag k="name" v="Røvikfjorden" />
		<tag k="natural" v="bay" />
		<tag k="ssr:stedsnr" v="877469" />
	</node>
	<node id="-398008" lat="58.9769833331" lon="9.96594166033">
		<tag k="name" v="Stolpestad" />
		<tag k="natural" v="bay" />
		<tag k="ssr:stedsnr" v="877445" />
	</node>
	<node id="-398006" lat="58.9995472236" lon="9.84970000165">
		<tag k="name" v="Blokkebukta" />
		<tag k="natural" v="bay" />
		<tag k="ssr:stedsnr" v="877435" />
	</node>
	<node id="-396649" lat="59.0482805584" lon="10.1658416695">
		<tag k="name" v="Tangen" />
		<tag k="natural" v="cape" />
		<tag k="ssr:stedsnr" v="452635" />
	</node>
	<node id="-397998" lat="58.9511083345" lon="9.87625278327">
		<tag k="fixme" v="consider seamark:type=rock or natural=shoal" />
		<tag k="name" v="Kråkeskjær" />
		<tag k="place" v="islet" />
		<tag k="ssr:stedsnr" v="877403" />
	</node>
	<node id="-397997" lat="58.9653694465" lon="9.86913334178">
		<tag k="name" v="Den røde odden" />
		<tag k="natural" v="cape" />
		<tag k="ssr:stedsnr" v="877398" />
	</node>
	<node id="-397995" lat="59.0014916668" lon="9.79689721929">
		<tag k="fixme" v="consider seamark:type=rock or natural=shoal" />
		<tag k="name" v="Langodden" />
		<tag k="place" v="islet" />
		<tag k="ssr:stedsnr" v="877370" />
	</node>
	<node id="-400030" lat="59.0161055598" lon="10.1042972227">
		<tag k="name" v="Skutebukta" />
		<tag k="natural" v="bay" />
		<tag k="ssr:stedsnr" v="391078" />
	</node>
	<node id="-400965" lat="58.9961472181" lon="10.0525472254">
		<tag k="name" v="Torkildsøy" />
		<tag k="place" v="islet" />
		<tag k="ssr:stedsnr" v="816001" />
	</node>
	<node id="-397962" lat="59.0346000023" lon="10.121769451">
		<tag k="fixme" v="consider seamark:type=rock or natural=shoal" />
		<tag k="name" v="Bjønnesskjær" />
		<tag k="place" v="islet" />
		<tag k="ssr:stedsnr" v="877157" />
	</node>
	<node id="-400008" lat="58.9774277773" lon="10.1428444431">
		<tag k="name" v="Kjelebåene" />
		<tag k="natural" v="shoal" />
		<tag k="place" v="locality" />
		<tag k="ssr:stedsnr" v="389117" />
	</node>
	<node id="-400007" lat="58.9997499995" lon="10.1166027849">
		<tag k="name" v="Grunnfallene" />
		<tag k="natural" v="shoal" />
		<tag k="place" v="locality" />
		<tag k="ssr:stedsnr" v="389112" />
	</node>
	<node id="-397955" lat="59.0385111093" lon="10.149374999">
		<tag k="name" v="Ollekilen" />
		<tag k="natural" v="bay" />
		<tag k="ssr:stedsnr" v="877124" />
	</node>
	<node id="-397946" lat="59.0040722237" lon="10.1485777834">
		<tag k="name" v="Klokkerbåen" />
		<tag k="place" v="locality" />
		<tag k="seamark:type" v="rock" />
		<tag k="ssr:stedsnr" v="877029" />
	</node>
	<node id="-397076" lat="59.0145083369" lon="10.0897916591">
		<tag k="name" v="Steinstranda" />
		<tag k="natural" v="beach" />
		<tag k="place" v="locality" />
		<tag k="ssr:stedsnr" v="512091" />
	</node>
	<node id="-400010" lat="58.971691671" lon="10.1812666627">
		<tag k="name" v="Milebåe" />
		<tag k="natural" v="shoal" />
		<tag k="place" v="locality" />
		<tag k="ssr:stedsnr" v="390133" />
	</node>
	<node id="-397413" lat="58.977902775" lon="9.92461666753">
		<tag k="alt_name" v="Hummarbakkfjorden" />
		<tag k="bay" v="fjord" />
		<tag k="name" v="Hummerbakkfjorden" />
		<tag k="natural" v="bay" />
		<tag k="ssr:stedsnr" v="486619" />
	</node>
	<node id="-399962" lat="58.999275133" lon="10.1613889412">
		<tag k="alt_name" v="Store Tjøllingflaten" />
		<tag k="name" v="Flaten" />
		<tag k="place" v="islet" />
		<tag k="ssr:stedsnr" v="365964" />
	</node>
	<node id="-399961" lat="58.9490555554" lon="9.88857778309">
		<tag k="name" v="Dyna" />
		<tag k="place" v="islet" />
		<tag k="ssr:stedsnr" v="365943" />
	</node>
	<node id="-399960" lat="58.9577138862" lon="9.87006111583">
		<tag k="alt_name" v="Langholmane;Indre Langholmene" />
		<tag k="name" v="Langholmene" />
		<tag k="place" v="islet" />
		<tag k="ssr:stedsnr" v="365934" />
	</node>
	<node id="-399959" lat="58.969694445" lon="9.90813611649">
		<tag k="alt_name" v="Måkeskjera" />
		<tag k="fixme" v="consider seamark:type=rock or natural=shoal" />
		<tag k="name" v="Måkeskjær" />
		<tag k="place" v="islet" />
		<tag k="ssr:stedsnr" v="365898" />
	</node>
	<node id="-399954" lat="58.999830552" lon="9.77576111716">
		<tag k="name" v="Geiterøya" />
		<tag k="place" v="island" />
		<tag k="ssr:stedsnr" v="365604" />
	</node>
	<node id="-399953" lat="59.0050555523" lon="9.78223610892">
		<tag k="name" v="Dypingen" />
		<tag k="natural" v="strait" />
		<tag k="ssr:stedsnr" v="365603" />
	</node>
	<node id="-399116" lat="58.9889638863" lon="9.84202500544">
		<tag k="name" v="Sandvika" />
		<tag k="natural" v="bay" />
		<tag k="ssr:stedsnr" v="88305" />
	</node>
	<node id="-397886" lat="58.995827774" lon="10.049266658">
		<tag k="name" v="Citadelløya" />
		<tag k="place" v="island" />
		<tag k="ssr:stedsnr" v="644016" />
	</node>
	<node id="-396725" lat="59.0421916676" lon="10.0169694387">
		<tag k="alt_name" v="Jordfallen" />
		<tag k="name" v="Jordfallet" />
		<tag k="natural" v="beach" />
		<tag k="place" v="locality" />
		<tag k="ssr:stedsnr" v="270108" />
	</node>
	<node id="-399928" lat="58.976033332" lon="9.81798333129">
		<tag k="name" v="Ringodden" />
		<tag k="natural" v="cape" />
		<tag k="ssr:stedsnr" v="359535" />
	</node>
	<node id="-399921" lat="58.9538833371" lon="9.86934722189">
		<tag k="name" v="Ytre Langholmene" />
		<tag k="place" v="islet" />
		<tag k="ssr:stedsnr" v="331391" />
	</node>
	<node id="-399917" lat="58.9780249991" lon="10.0347166644">
		<tag k="name" v="Hollenderen" />
		<tag k="natural" v="bay" />
		<tag k="ssr:stedsnr" v="331453" />
	</node>
	<node id="-399916" lat="58.9593666623" lon="9.96015832457">
		<tag k="name" v="Ramnsungen" />
		<tag k="place" v="locality" />
		<tag k="seamark:type" v="rock" />
		<tag k="ssr:stedsnr" v="331450" />
	</node>
	<node id="-399913" lat="58.9754527806" lon="9.96942777911">
		<tag k="name" v="Tjøstolfvika nord" />
		<tag k="natural" v="bay" />
		<tag k="ssr:stedsnr" v="331437" />
	</node>
	<node id="-399911" lat="59.0132972179" lon="9.85053611214">
		<tag k="name" v="Ødegårdsbukta" />
		<tag k="natural" v="bay" />
		<tag k="ssr:stedsnr" v="331426" />
	</node>
	<node id="-397862" lat="59.0154805537" lon="10.115208335">
		<tag k="name" v="Uleholmen" />
		<tag k="place" v="islet" />
		<tag k="ssr:stedsnr" v="730233" />
	</node>
	<node id="-396721" lat="59.0064472179" lon="10.0888083412">
		<tag k="fixme" v="consider seamark:type=rock or natural=shoal" />
		<tag k="name" v="Skåreskjæra" />
		<tag k="place" v="islet" />
		<tag k="ssr:stedsnr" v="270006" />
	</node>
	<node id="-399905" lat="59.0354416706" lon="10.1387222171">
		<tag k="name" v="Terneholmen" />
		<tag k="place" v="islet" />
		<tag k="ssr:stedsnr" v="331151" />
	</node>
	<node id="-399903" lat="59.0427166662" lon="10.1453027733">
		<tag k="name" v="Vikerøysundet" />
		<tag k="natural" v="strait" />
		<tag k="ssr:stedsnr" v="331132" />
	</node>
	<node id="-399902" lat="59.0449805596" lon="10.1511055485">
		<tag k="name" v="Symjarstedet" />
		<tag k="natural" v="beach" />
		<tag k="place" v="locality" />
		<tag k="ssr:stedsnr" v="331131" />
	</node>
	<node id="-397849" lat="59.0001750015" lon="10.2488555593">
		<tag k="name" v="Storekrakk" />
		<tag k="natural" v="shoal" />
		<tag k="place" v="locality" />
		<tag k="ssr:stedsnr" v="730014" />
	</node>
	<node id="-397848" lat="58.9663250041" lon="10.1909388891">
		<tag k="alt_name" v="Hettehausene" />
		<tag k="name" v="Hettehausane" />
		<tag k="natural" v="shoal" />
		<tag k="place" v="locality" />
		<tag k="ssr:stedsnr" v="729998" />
	</node>
	<node id="-397847" lat="58.954988885" lon="9.86390277054">
		<tag k="alt_name" v="Oddanesskjera" />
		<tag k="fixme" v="consider seamark:type=rock or natural=shoal" />
		<tag k="name" v="Oddanesskjæra" />
		<tag k="place" v="islet" />
		<tag k="ssr:stedsnr" v="729917" />
	</node>
	<node id="-397846" lat="58.9646333359" lon="9.86152778599">
		<tag k="name" v="Gurvika" />
		<tag k="natural" v="bay" />
		<tag k="ssr:stedsnr" v="729899" />
	</node>
	<node id="-397844" lat="58.9729777766" lon="9.87030833498">
		<tag k="name" v="Havnebukta" />
		<tag k="natural" v="bay" />
		<tag k="old_name" v="Hamnebukta" />
		<tag k="ssr:stedsnr" v="729874" />
	</node>
	<node id="-399882" lat="59.0117777738" lon="10.1687249922">
		<tag k="name" v="Fisebukta" />
		<tag k="natural" v="bay" />
		<tag k="ssr:stedsnr" v="330944" />
	</node>
	<node id="-397826" lat="59.0214999993" lon="10.0699444455">
		<tag k="name" v="Gonsbukta" />
		<tag k="natural" v="bay" />
		<tag k="ssr:stedsnr" v="729235" />
	</node>
	<node id="-397825" lat="59.0197499979" lon="10.1207444397">
		<tag k="name" v="Langøya" />
		<tag k="place" v="islet" />
		<tag k="ssr:stedsnr" v="729233" />
	</node>
	<node id="-397815" lat="59.0373888904" lon="10.143072218">
		<tag k="fixme" v="consider seamark:type=rock or natural=shoal" />
		<tag k="name" v="Hella" />
		<tag k="place" v="islet" />
		<tag k="ssr:stedsnr" v="634121" />
	</node>
	<node id="-401075" lat="58.9769055591" lon="9.97738889141">
		<tag k="bay" v="fjord" />
		<tag k="name" v="Naverfjorden" />
		<tag k="natural" v="bay" />
		<tag k="ssr:stedsnr" v="850979" />
	</node>
	<node id="-397795" lat="59.0614472242" lon="10.2319833268">
		<tag k="name" v="Husvika n." />
		<tag k="natural" v="bay" />
		<tag k="ssr:stedsnr" v="633907" />
	</node>
	<node id="-399833" lat="59.0396944481" lon="10.0639888808">
		<tag k="name" v="Flatstrand" />
		<tag k="natural" v="beach" />
		<tag k="place" v="locality" />
		<tag k="ssr:stedsnr" v="330270" />
	</node>
	<node id="-397782" lat="59.0361666625" lon="10.2270416628">
		<tag k="fixme" v="consider seamark:type=rock or natural=shoal" />
		<tag k="name" v="Langeskjær" />
		<tag k="place" v="islet" />
		<tag k="ssr:stedsnr" v="633608" />
	</node>
	<node id="-397777" lat="59.0119667969" lon="9.79891281367">
		<tag k="fixme" v="consider seamark:type=rock or natural=shoal" />
		<tag k="name" v="Kultane" />
		<tag k="place" v="islet" />
		<tag k="ssr:stedsnr" v="633357" />
	</node>
	<node id="-397775" lat="58.9782499971" lon="10.1342083411">
		<tag k="fixme" v="consider seamark:type=rock or natural=shoal" />
		<tag k="name" v="Nordbogflu" />
		<tag k="place" v="islet" />
		<tag k="ssr:stedsnr" v="633423" />
	</node>
	<node id="-399810" lat="59.032425001" lon="10.1459305498">
		<tag k="name" v="Skarvesete" />
		<tag k="place" v="islet" />
		<tag k="ssr:stedsnr" v="330150" />
	</node>
	<node id="-399804" lat="59.0251416702" lon="10.0660500022">
		<tag k="name" v="Kariholet" />
		<tag k="natural" v="bay" />
		<tag k="ssr:stedsnr" v="330084" />
	</node>
	<node id="-399802" lat="59.0243416624" lon="10.0664805564">
		<tag k="name" v="Franklinodden" />
		<tag k="natural" v="cape" />
		<tag k="ssr:stedsnr" v="330082" />
	</node>
	<node id="-399796" lat="58.9993361141" lon="10.1574749944">
		<tag k="name" v="Ulabrandholet" />
		<tag k="place" v="sea" />
		<tag k="ssr:stedsnr" v="330040" />
	</node>
	<node id="-399795" lat="59.0042166664" lon="10.1302583295">
		<tag k="name" v="Reiershol" />
		<tag k="natural" v="strait" />
		<tag k="ssr:stedsnr" v="330030" />
	</node>
	<node id="-399794" lat="59.02288611" lon="10.2297055595">
		<tag k="name" v="Melleskjærhausen" />
		<tag k="natural" v="shoal" />
		<tag k="place" v="locality" />
		<tag k="ssr:stedsnr" v="329856" />
	</node>
	<node id="-399793" lat="58.9726583299" lon="10.1739944492">
		<tag k="name" v="Hetteflu" />
		<tag k="natural" v="shoal" />
		<tag k="place" v="locality" />
		<tag k="ssr:stedsnr" v="329132" />
	</node>
	<node id="-399792" lat="58.9107333376" lon="10.1684222204">
		<tag k="name" v="Svennergrunnen" />
		<tag k="natural" v="shoal" />
		<tag k="place" v="locality" />
		<tag k="ssr:stedsnr" v="329130" />
	</node>
	<node id="-399791" lat="58.9887083351" lon="10.1867222258">
		<tag k="name" v="Suslingflakket" />
		<tag k="natural" v="shoal" />
		<tag k="place" v="locality" />
		<tag k="ssr:stedsnr" v="329122" />
	</node>
	<node id="-397738" lat="59.0293916622" lon="10.1188666675">
		<tag k="name" v="Ulkeholmen" />
		<tag k="place" v="islet" />
		<tag k="ssr:stedsnr" v="633109" />
	</node>
	<node id="-397733" lat="59.0024027757" lon="10.127872219">
		<tag k="fixme" v="consider seamark:type=rock or natural=shoal" />
		<tag k="name" v="Skjæret" />
		<tag k="place" v="islet" />
		<tag k="ssr:stedsnr" v="633021" />
	</node>
	<node id="-397732" lat="59.0083305532" lon="10.1234138862">
		<tag k="name" v="Hoppøysundet" />
		<tag k="natural" v="strait" />
		<tag k="ssr:stedsnr" v="633019" />
	</node>
	<node id="-397729" lat="59.0045055592" lon="10.0981333393">
		<tag k="name" v="Låkaporten" />
		<tag k="natural" v="strait" />
		<tag k="ssr:stedsnr" v="633013" />
	</node>
	<node id="-397723" lat="59.0361999963" lon="10.1491499989">
		<tag k="name" v="Vikerøyholmene" />
		<tag k="place" v="island" />
		<tag k="ssr:stedsnr" v="630761" />
	</node>
	<node id="-397722" lat="58.9963333349" lon="9.77801666383">
		<tag k="name" v="Geiterøybukta, st" />
		<tag k="natural" v="bay" />
		<tag k="ssr:stedsnr" v="723529" />
	</node>
	<node id="-397039" lat="59.0282611102" lon="10.0625527809">
		<tag k="fixme" v="consider seamark:type=rock or natural=shoal" />
		<tag k="name" v="Ringskjæret" />
		<tag k="place" v="islet" />
		<tag k="ssr:stedsnr" v="391470" />
	</node>
	<node id="-397706" lat="59.0067749969" lon="10.1302472282">
		<tag k="name" v="Ølbergholmen" />
		<tag k="place" v="islet" />
		<tag k="ssr:stedsnr" v="608230" />
	</node>
	<node id="-397703" lat="59.0172027745" lon="10.1096944419">
		<tag k="name" v="Brentholmen" />
		<tag k="place" v="islet" />
		<tag k="ssr:stedsnr" v="608221" />
	</node>
	<node id="-397701" lat="58.9829388894" lon="10.2563194435">
		<tag k="alt_name" v="Bondeskaten, s" />
		<tag k="name" v="Søndre Bondeskaten" />
		<tag k="natural" v="shoal" />
		<tag k="place" v="locality" />
		<tag k="ssr:stedsnr" v="607973" />
	</node>
	<node id="-397700" lat="58.9842916646" lon="10.2299972226">
		<tag k="name" v="Rauer" />
		<tag k="place" v="island" />
		<tag k="ssr:stedsnr" v="607972" />
	</node>
	<node id="-397698" lat="58.9810250024" lon="10.0421805627">
		<tag k="alt_name" v="Trefotholmane" />
		<tag k="name" v="Trefotholmen" />
		<tag k="place" v="islet" />
		<tag k="ssr:stedsnr" v="607963" />
	</node>
	<node id="-397691" lat="59.0315666689" lon="10.2140722274">
		<tag k="name" v="Fossvik" />
		<tag k="natural" v="bay" />
		<tag k="ssr:stedsnr" v="573947" />
	</node>
	<node id="-398399" lat="58.9353722213" lon="9.93139721548">
		<tag k="name" v="Hella" />
		<tag k="natural" v="shoal" />
		<tag k="place" v="locality" />
		<tag k="ssr:stedsnr" v="936201" />
	</node>
	<node id="-399734" lat="59.0066638912" lon="10.171127776">
		<tag k="fixme" v="consider seamark:type=rock or natural=shoal" />
		<tag k="name" v="Svartskjær" />
		<tag k="place" v="islet" />
		<tag k="ssr:stedsnr" v="305015" />
	</node>
	<node id="-399733" lat="58.966261113" lon="9.93508888705">
		<tag k="bay" v="fjord" />
		<tag k="name" v="Trafjorden" />
		<tag k="natural" v="bay" />
		<tag k="ssr:stedsnr" v="304894" />
	</node>
	<node id="-399732" lat="58.9756250028" lon="9.82125000764">
		<tag k="name" v="Mølen" />
		<tag k="natural" v="cape" />
		<tag k="ssr:stedsnr" v="304892" />
	</node>
	<node id="-399724" lat="59.0263888858" lon="10.0441666585">
		<tag k="bay" v="fjord" />
		<tag k="name" v="Larviksfjorden" />
		<tag k="natural" v="bay" />
		<tag k="ssr:stedsnr" v="305219" />
	</node>
	<node id="-398396" lat="59.0180861075" lon="10.2149055594">
		<tag k="name" v="Merrabåen" />
		<tag k="natural" v="shoal" />
		<tag k="place" v="locality" />
		<tag k="ssr:stedsnr" v="934868" />
	</node>
	<node id="-397670" lat="59.0382472234" lon="10.0590833406">
		<tag k="name" v="St. Helena" />
		<tag k="place" v="island" />
		<tag k="ssr:stedsnr" v="573252" />
	</node>
	<node id="-397660" lat="59.0325861109" lon="10.1393194362">
		<tag k="name" v="Selbåene" />
		<tag k="place" v="locality" />
		<tag k="seamark:type" v="rock" />
		<tag k="ssr:stedsnr" v="573103" />
	</node>
	<node id="-397659" lat="59.0197388923" lon="10.1014305629">
		<tag k="name" v="Fergeholmen" />
		<tag k="place" v="islet" />
		<tag k="ssr:stedsnr" v="573060" />
	</node>
	<node id="-397658" lat="59.0198500004" lon="10.0994444522">
		<tag k="name" v="Kuholmen" />
		<tag k="place" v="islet" />
		<tag k="ssr:stedsnr" v="573059" />
	</node>
	<node id="-399705" lat="59.0407916633" lon="10.133219443">
		<tag k="name" v="Leirvollkilen" />
		<tag k="natural" v="bay" />
		<tag k="ssr:stedsnr" v="210148" />
	</node>
	<node id="-399704" lat="59.0371611091" lon="10.1537222202">
		<tag k="name" v="Refsholtøya" />
		<tag k="natural" v="cape" />
		<tag k="ssr:stedsnr" v="210143" />
	</node>
	<node id="-396004" lat="59.0166666691" lon="10.0733333306">
		<tag k="name" v="Hummeren" />
		<tag k="natural" v="cape" />
		<tag k="ssr:stedsnr" v="220240" />
	</node>
	<node id="-397640" lat="59.0130555552" lon="10.0808888907">
		<tag k="name" v="Vikerbåene" />
		<tag k="natural" v="shoal" />
		<tag k="place" v="locality" />
		<tag k="ssr:stedsnr" v="572275" />
	</node>
	<node id="-397638" lat="59.0442277789" lon="10.0180361191">
		<tag k="fixme" v="consider seamark:type=rock or natural=shoal" />
		<tag k="name" v="Falkeskjær" />
		<tag k="place" v="islet" />
		<tag k="ssr:stedsnr" v="572273" />
	</node>
	<node id="-397637" lat="59.0178194412" lon="10.0322861058">
		<tag k="name" v="Agnesbukta" />
		<tag k="natural" v="bay" />
		<tag k="ssr:stedsnr" v="572270" />
	</node>
	<node id="-399684" lat="59.0598694415" lon="10.2303472265">
		<tag k="name" v="Husvika" />
		<tag k="natural" v="bay" />
		<tag k="ssr:stedsnr" v="209879" />
	</node>
	<node id="-396342" lat="59.0164972262" lon="10.1287472206">
		<tag k="fixme" v="consider seamark:type=rock or natural=shoal" />
		<tag k="name" v="Bikja" />
		<tag k="place" v="islet" />
		<tag k="ssr:stedsnr" v="148114" />
	</node>
	<node id="-397631" lat="58.9856527803" lon="9.80347500251">
		<tag k="fixme" v="consider seamark:type=rock or natural=shoal" />
		<tag k="name" v="Fugløyskjær" />
		<tag k="place" v="islet" />
		<tag k="ssr:stedsnr" v="570462" />
	</node>
	<node id="-398047" lat="59.0222361113" lon="10.181752782">
		<tag k="name" v="Sandviken" />
		<tag k="natural" v="bay" />
		<tag k="ssr:stedsnr" v="877950" />
	</node>
	<node id="-396159" lat="59.0054305519" lon="10.0498611095">
		<tag k="name" v="Kattegatbåen" />
		<tag k="place" v="locality" />
		<tag k="seamark:type" v="rock" />
		<tag k="ssr:stedsnr" v="117919" />
	</node>
	<node id="-397623" lat="58.9649472236" lon="9.96641388203">
		<tag k="name" v="Kullvika" />
		<tag k="natural" v="bay" />
		<tag k="ssr:stedsnr" v="695491" />
	</node>
	<node id="-399668" lat="59.0277805516" lon="10.2122249962">
		<tag k="name" v="Lakseroa" />
		<tag k="natural" v="bay" />
		<tag k="ssr:stedsnr" v="209940" />
	</node>
	<node id="-397618" lat="59.0250444445" lon="10.1044972225">
		<tag k="name" v="Seiskjær" />
		<tag k="place" v="islet" />
		<tag k="ssr:stedsnr" v="695447" />
	</node>
	<node id="-397616" lat="58.9584250027" lon="9.85842500119">
		<tag k="name" v="Olas odde" />
		<tag k="natural" v="cape" />
		<tag k="ssr:stedsnr" v="695417" />
	</node>
	<node id="-397615" lat="58.9645888926" lon="9.85992777625">
		<tag k="name" v="Oddanesand" />
		<tag k="natural" v="beach" />
		<tag k="place" v="locality" />
		<tag k="ssr:stedsnr" v="695412" />
	</node>
	<node id="-399660" lat="59.0346888864" lon="10.2250166703">
		<tag k="name" v="Seilholet" />
		<tag k="natural" v="strait" />
		<tag k="ssr:stedsnr" v="209596" />
	</node>
	<node id="-399409" lat="59.0678805519" lon="10.2183750027">
		<tag k="name" v="Spervikbukta" />
		<tag k="natural" v="bay" />
		<tag k="ssr:stedsnr" v="148906" />
	</node>
	<node id="-397592" lat="59.0001722195" lon="10.1599611196">
		<tag k="fixme" v="consider seamark:type=rock or natural=shoal" />
		<tag k="name" v="Lille Tjøllingflaten" />
		<tag k="place" v="islet" />
		<tag k="ssr:stedsnr" v="695018" />
	</node>
	<node id="-399639" lat="58.9881111131" lon="10.034741664">
		<tag k="name" v="Doktorodden" />
		<tag k="natural" v="cape" />
		<tag k="ssr:stedsnr" v="209480" />
	</node>
	<node id="-399638" lat="58.9642750015" lon="9.94189722504">
		<tag k="name" v="Storehavn" />
		<tag k="natural" v="bay" />
		<tag k="ssr:stedsnr" v="209474" />
	</node>
	<node id="-399636" lat="59.0292055568" lon="10.0656861159">
		<tag k="name" v="Østre Hølen" />
		<tag k="natural" v="strait" />
		<tag k="ssr:stedsnr" v="209467" />
	</node>
	<node id="-397585" lat="59.0329250021" lon="10.1494416612">
		<tag k="fixme" v="consider seamark:type=rock or natural=shoal" />
		<tag k="name" v="Matbordet" />
		<tag k="place" v="islet" />
		<tag k="ssr:stedsnr" v="695132" />
	</node>
	<node id="-399632" lat="59.0322111085" lon="10.0543833293">
		<tag k="name" v="Soveren" />
		<tag k="place" v="islet" />
		<tag k="ssr:stedsnr" v="209457" />
	</node>
	<node id="-397581" lat="59.0184916644" lon="10.1059583384">
		<tag k="name" v="Tangene" />
		<tag k="natural" v="cape" />
		<tag k="ssr:stedsnr" v="695098" />
	</node>
	<node id="-397580" lat="59.0182138863" lon="10.1180277864">
		<tag k="name" v="Bolteholmen" />
		<tag k="place" v="islet" />
		<tag k="ssr:stedsnr" v="695094" />
	</node>
	<node id="-397578" lat="59.0174722178" lon="10.1027361085">
		<tag k="name" v="Furubukta" />
		<tag k="natural" v="bay" />
		<tag k="ssr:stedsnr" v="695074" />
	</node>
	<node id="-397355" lat="59.0589361117" lon="10.2292472168">
		<tag k="name" v="Håkavika" />
		<tag k="natural" v="bay" />
		<tag k="ssr:stedsnr" v="669146" />
	</node>
	<node id="-397567" lat="59.0069305524" lon="10.0975277855">
		<tag k="name" v="Flaskebukta" />
		<tag k="natural" v="bay" />
		<tag k="ssr:stedsnr" v="695001" />
	</node>
	<node id="-399703" lat="59.0373277738" lon="10.14453056">
		<tag k="fixme" v="consider seamark:type=rock or natural=shoal" />
		<tag k="name" v="Sikeskjær" />
		<tag k="place" v="islet" />
		<tag k="ssr:stedsnr" v="210142" />
	</node>
	<node id="-399604" lat="59.017513893" lon="10.0757222199">
		<tag k="name" v="Steinvika" />
		<tag k="natural" v="bay" />
		<tag k="ssr:stedsnr" v="209086" />
	</node>
	<node id="-399598" lat="59.0006500038" lon="9.80652221905">
		<tag k="name" v="Båtbukta" />
		<tag k="natural" v="bay" />
		<tag k="ssr:stedsnr" v="209357" />
	</node>
	<node id="-399597" lat="58.9977888907" lon="9.76998889761">
		<tag k="fixme" v="consider seamark:type=rock or natural=shoal" />
		<tag k="name" v="Blåfellen" />
		<tag k="place" v="islet" />
		<tag k="ssr:stedsnr" v="209351" />
	</node>
	<node id="-399596" lat="59.0066472189" lon="9.7936916676">
		<tag k="fixme" v="consider seamark:type=rock or natural=shoal" />
		<tag k="name" v="Prammen" />
		<tag k="place" v="islet" />
		<tag k="ssr:stedsnr" v="209349" />
	</node>
	<node id="-396243" lat="59.008586113" lon="9.79940277609">
		<tag k="name" v="Holmen" />
		<tag k="place" v="islet" />
		<tag k="ssr:stedsnr" v="270349" />
	</node>
	<node id="-399567" lat="59.032675" lon="9.83575277231">
		<tag k="name" v="Nordholmen" />
		<tag k="place" v="islet" />
		<tag k="ssr:stedsnr" v="209135" />
	</node>
	<node id="-397504" lat="58.9580499976" lon="9.9835388968">
		<tag k="name" v="Vestre Bjerkerer" />
		<tag k="natural" v="shoal" />
		<tag k="place" v="locality" />
		<tag k="ssr:stedsnr" v="693350" />
	</node>
	<node id="-397503" lat="58.9863750023" lon="10.1466222153">
		<tag k="name" v="Flatebåene" />
		<tag k="natural" v="shoal" />
		<tag k="place" v="locality" />
		<tag k="ssr:stedsnr" v="693150" />
	</node>
	<node id="-397502" lat="58.9812805573" lon="10.1638499916">
		<tag k="name" v="Bøleflakket" />
		<tag k="natural" v="shoal" />
		<tag k="place" v="locality" />
		<tag k="ssr:stedsnr" v="693146" />
	</node>
	<node id="-397501" lat="58.993461112" lon="9.77800555307">
		<tag k="name" v="Geiterøygavlen" />
		<tag k="natural" v="cape" />
		<tag k="ssr:stedsnr" v="541554" />
	</node>
	<node id="-397499" lat="59.0045111149" lon="10.187266659">
		<tag k="name" v="Kjønnebåen" />
		<tag k="natural" v="shoal" />
		<tag k="place" v="locality" />
		<tag k="ssr:stedsnr" v="691793" />
	</node>
	<node id="-397343" lat="58.9715750038" lon="10.0455250048">
		<tag k="name" v="Fonerbåen" />
		<tag k="natural" v="shoal" />
		<tag k="place" v="locality" />
		<tag k="ssr:stedsnr" v="668998" />
	</node>
	<node id="-398707" lat="59.0034833349" lon="9.79268055115">
		<tag k="name" v="Huseholmen" />
		<tag k="place" v="islet" />
		<tag k="ssr:stedsnr" v="966271" />
	</node>
	<node id="-399534" lat="58.9593277747" lon="9.86390556141">
		<tag k="name" v="Svartskjærbåen" />
		<tag k="place" v="locality" />
		<tag k="seamark:type" v="rock" />
		<tag k="ssr:stedsnr" v="208253" />
	</node>
	<node id="-399533" lat="58.962113888" lon="9.8687222154">
		<tag k="name" v="Brattbåen" />
		<tag k="place" v="locality" />
		<tag k="seamark:type" v="rock" />
		<tag k="ssr:stedsnr" v="208251" />
	</node>
	<node id="-399531" lat="58.9472833369" lon="9.89793055845">
		<tag k="fixme" v="consider seamark:type=rock or natural=shoal" />
		<tag k="name" v="Skarvskjær" />
		<tag k="place" v="islet" />
		<tag k="ssr:stedsnr" v="208237" />
	</node>
	<node id="-399530" lat="58.9603305566" lon="9.93271110345">
		<tag k="name" v="Kinsgrunn" />
		<tag k="natural" v="shoal" />
		<tag k="place" v="locality" />
		<tag k="ssr:stedsnr" v="208233" />
	</node>
	<node id="-399528" lat="58.9813333301" lon="10.2073472279">
		<tag k="name" v="Allmenningene" />
		<tag k="natural" v="shoal" />
		<tag k="place" v="locality" />
		<tag k="ssr:stedsnr" v="208110" />
	</node>
	<node id="-399527" lat="58.9960644991" lon="10.0616144344">
		<tag k="name" v="Ramsholmflu" />
		<tag k="natural" v="shoal" />
		<tag k="place" v="locality" />
		<tag k="ssr:stedsnr" v="208030" />
	</node>
	<node id="-399525" lat="58.9378361129" lon="9.93464166482">
		<tag k="name" v="Tvistein" />
		<tag k="place" v="island" />
		<tag k="ssr:stedsnr" v="207266" />
	</node>
	<node id="-399524" lat="59.0200055555" lon="10.2017333405">
		<tag k="name" v="Kloppa" />
		<tag k="natural" v="shoal" />
		<tag k="place" v="locality" />
		<tag k="ssr:stedsnr" v="205904" />
	</node>
	<node id="-399523" lat="59.0016111147" lon="10.1503472168">
		<tag k="name" v="Olasbåen" />
		<tag k="natural" v="shoal" />
		<tag k="place" v="locality" />
		<tag k="ssr:stedsnr" v="205821" />
	</node>
	<node id="-400751" lat="59.0038055581" lon="9.80799445021">
		<tag k="name" v="Langholet" />
		<tag k="natural" v="bay" />
		<tag k="ssr:stedsnr" v="755358" />
	</node>
	<node id="-397463" lat="59.0328611077" lon="10.1506138885">
		<tag k="fixme" v="consider seamark:type=rock or natural=shoal" />
		<tag k="name" v="Selskjær" />
		<tag k="place" v="islet" />
		<tag k="ssr:stedsnr" v="512131" />
	</node>
	<node id="-397459" lat="59.0144194486" lon="10.1301250004">
		<tag k="name" v="Rønningsbukta" />
		<tag k="natural" v="bay" />
		<tag k="ssr:stedsnr" v="512121" />
	</node>
	<node id="-397445" lat="59.0070750012" lon="10.137288896">
		<tag k="name" v="Kongsbakkebukta" />
		<tag k="natural" v="bay" />
		<tag k="ssr:stedsnr" v="512024" />
	</node>
	<node id="-397334" lat="59.0440000035" lon="10.0312500062">
		<tag k="name" v="Pensjonistbåen" />
		<tag k="place" v="locality" />
		<tag k="seamark:type" v="rock" />
		<tag k="ssr:stedsnr" v="465109" />
	</node>
	<node id="-397442" lat="59.0116666664" lon="10.1300194527">
		<tag k="fixme" v="consider seamark:type=rock or natural=shoal" />
		<tag k="name" v="Omnane" />
		<tag k="place" v="islet" />
		<tag k="ssr:stedsnr" v="512013" />
	</node>
	<node id="-397439" lat="58.9711328986" lon="10.1777879016">
		<tag k="fixme" v="consider seamark:type=rock or natural=shoal" />
		<tag k="name" v="Veslehetta" />
		<tag k="place" v="islet" />
		<tag k="ssr:stedsnr" v="511110" />
	</node>
	<node id="-399477" lat="58.9814583292" lon="10.2227250007">
		<tag k="name" v="Vassholmen" />
		<tag k="place" v="islet" />
		<tag k="ssr:stedsnr" v="184000" />
	</node>
	<node id="-399476" lat="58.9780777804" lon="10.2173611177">
		<tag k="fixme" v="consider seamark:type=rock or natural=shoal" />
		<tag k="name" v="Vesterskjær" />
		<tag k="place" v="islet" />
		<tag k="ssr:stedsnr" v="183999" />
	</node>
	<node id="-399475" lat="58.9712416688" lon="10.131161106">
		<tag k="name" v="Vesterskjær" />
		<tag k="place" v="islet" />
		<tag k="ssr:stedsnr" v="183995" />
	</node>
	<node id="-399474" lat="58.9603777753" lon="10.0558638907">
		<tag k="name" v="Ranson" />
		<tag k="natural" v="shoal" />
		<tag k="place" v="locality" />
		<tag k="ssr:stedsnr" v="183992" />
	</node>
	<node id="-399472" lat="58.9542499985" lon="10.124477784">
		<tag k="name" v="Dypeskaten" />
		<tag k="natural" v="shoal" />
		<tag k="place" v="locality" />
		<tag k="ssr:stedsnr" v="183988" />
	</node>
	<node id="-399471" lat="58.9889999956" lon="10.1341750079">
		<tag k="name" v="Seibåen" />
		<tag k="natural" v="shoal" />
		<tag k="place" v="locality" />
		<tag k="ssr:stedsnr" v="183977" />
	</node>
	<node id="-399470" lat="58.9758638911" lon="10.1201111158">
		<tag k="name" v="Svenskesteinen" />
		<tag k="natural" v="shoal" />
		<tag k="place" v="locality" />
		<tag k="ssr:stedsnr" v="183968" />
	</node>
	<node id="-399469" lat="58.9745416623" lon="10.1452000028">
		<tag k="name" v="Svenner" />
		<tag k="place" v="island" />
		<tag k="ssr:stedsnr" v="183967" />
	</node>
	<node id="-399467" lat="58.9461638931" lon="9.85915277014">
		<tag k="name" v="Storeleitet" />
		<tag k="natural" v="shoal" />
		<tag k="old_name" v="Storeleite" />
		<tag k="place" v="locality" />
		<tag k="ssr:stedsnr" v="183932" />
	</node>
	<node id="-399466" lat="58.9619305514" lon="9.81996389339">
		<tag k="alt_name" v="Finnane" />
		<tag k="name" v="Søndre Finsbåane" />
		<tag k="natural" v="shoal" />
		<tag k="place" v="locality" />
		<tag k="ssr:stedsnr" v="183902" />
	</node>
	<node id="-397416" lat="59.0032277752" lon="10.14245833">
		<tag k="alt_name" v="Sandviksholmene" />
		<tag k="name" v="Sandvikholmane" />
		<tag k="place" v="islet" />
		<tag k="ssr:stedsnr" v="487012" />
	</node>
	<node id="-399461" lat="58.9809361116" lon="9.83812778333">
		<tag k="name" v="Tangen" />
		<tag k="natural" v="cape" />
		<tag k="ssr:stedsnr" v="183578" />
	</node>
	<node id="-399718" lat="58.9932083374" lon="9.80044999211">
		<tag k="name" v="Slåvika" />
		<tag k="natural" v="bay" />
		<tag k="ssr:stedsnr" v="304579" />
	</node>
	<node id="-397406" lat="59.0130000016" lon="10.0407777764">
		<tag k="name" v="Børrestadbåen" />
		<tag k="place" v="locality" />
		<tag k="seamark:type" v="rock" />
		<tag k="ssr:stedsnr" v="483874" />
	</node>
	<node id="-397405" lat="58.9890277812" lon="9.83933056283">
		<tag k="name" v="Osmundstangen" />
		<tag k="natural" v="cape" />
		<tag k="ssr:stedsnr" v="480524" />
	</node>
	<node id="-397404" lat="58.9755138875" lon="9.82755555791">
		<tag k="name" v="Værvågen" />
		<tag k="natural" v="bay" />
		<tag k="ssr:stedsnr" v="480522" />
	</node>
	<node id="-397401" lat="59.0195805588" lon="9.78622221976">
		<tag k="name" v="Halvveisholmane" />
		<tag k="place" v="islet" />
		<tag k="ssr:stedsnr" v="480205" />
	</node>
	<node id="-399439" lat="59.0028999973" lon="9.84412500509">
		<tag k="name" v="Terneholmenstøtta" />
		<tag k="natural" v="shoal" />
		<tag k="place" v="locality" />
		<tag k="ssr:stedsnr" v="177292" />
	</node>
	<node id="-399438" lat="58.9961249956" lon="9.85527221613">
		<tag k="name" v="Holmen" />
		<tag k="natural" v="cape" />
		<tag k="ssr:stedsnr" v="177545" />
	</node>
	<node id="-399437" lat="58.9909361119" lon="9.79576666111">
		<tag k="name" v="Vestrebåene" />
		<tag k="place" v="locality" />
		<tag k="seamark:type" v="rock" />
		<tag k="ssr:stedsnr" v="177539" />
	</node>
	<node id="-399434" lat="59.0369222198" lon="10.1405583393">
		<tag k="fixme" v="consider seamark:type=rock or natural=shoal" />
		<tag k="name" v="Joreskjær" />
		<tag k="place" v="islet" />
		<tag k="ssr:stedsnr" v="149139" />
	</node>
	<node id="-399433" lat="59.0382055535" lon="10.1262944405">
		<tag k="name" v="Bjønneskilen" />
		<tag k="natural" v="bay" />
		<tag k="ssr:stedsnr" v="149137" />
	</node>
	<node id="-399428" lat="59.06663889" lon="10.226105553">
		<tag k="name" v="Sandvika" />
		<tag k="natural" v="bay" />
		<tag k="ssr:stedsnr" v="148899" />
	</node>
	<node id="-399427" lat="59.0679972199" lon="10.2238888909">
		<tag k="name" v="Siljebukta" />
		<tag k="natural" v="bay" />
		<tag k="ssr:stedsnr" v="148898" />
	</node>
	<node id="-396219" lat="59.018913892" lon="10.105191669">
		<tag k="name" v="Tangene" />
		<tag k="natural" v="cape" />
		<tag k="ssr:stedsnr" v="270073" />
	</node>
	<node id="-399420" lat="59.0447333329" lon="10.0383916718">
		<tag k="fixme" v="consider seamark:type=rock or natural=shoal" />
		<tag k="name" v="Vadskjæret" />
		<tag k="place" v="islet" />
		<tag k="ssr:stedsnr" v="148931" />
	</node>
	<node id="-397366" lat="59.0188333303" lon="10.1877527727">
		<tag k="name" v="Knuvla" />
		<tag k="natural" v="cape" />
		<tag k="ssr:stedsnr" v="669224" />
	</node>
	<node id="-397364" lat="59.0238249985" lon="10.1971583397">
		<tag k="name" v="Herfellbukta" />
		<tag k="natural" v="bay" />
		<tag k="ssr:stedsnr" v="669213" />
	</node>
	<node id="-396979" lat="59.0465361103" lon="10.0326972167">
		<tag k="name" v="Tollerodden" />
		<tag k="natural" v="cape" />
		<tag k="ssr:stedsnr" v="391112" />
	</node>
	<node id="-397356" lat="59.0582750035" lon="10.2359666651">
		<tag k="name" v="Kisteholmane" />
		<tag k="place" v="islet" />
		<tag k="ssr:stedsnr" v="669147" />
	</node>
	<node id="-399026" lat="58.9980555515" lon="10.0573222187">
		<tag k="name" v="Tisler" />
		<tag k="place" v="islet" />
		<tag k="ssr:stedsnr" v="81954" />
	</node>
	<node id="-399393" lat="59.0351722243" lon="10.162641666">
		<tag k="name" v="Sømmen" />
		<tag k="natural" v="strait" />
		<tag k="ssr:stedsnr" v="148651" />
	</node>
	<node id="-399392" lat="59.0444694456" lon="10.1719472226">
		<tag k="name" v="Odden" />
		<tag k="natural" v="cape" />
		<tag k="ssr:stedsnr" v="148647" />
	</node>
	<node id="-399391" lat="59.0374777792" lon="10.2278472261">
		<tag k="fixme" v="consider seamark:type=rock or natural=shoal" />
		<tag k="name" v="Badeskjær" />
		<tag k="place" v="islet" />
		<tag k="ssr:stedsnr" v="148625" />
	</node>
	<node id="-397342" lat="58.9755861121" lon="10.0405083392">
		<tag k="fixme" v="consider seamark:type=rock or natural=shoal" />
		<tag k="name" v="Svartskjæra" />
		<tag k="place" v="islet" />
		<tag k="ssr:stedsnr" v="668996" />
	</node>
	<node id="-397341" lat="58.9666527795" lon="10.1540055478">
		<tag k="alt_name" v="Bidevindsholmene" />
		<tag k="name" v="Bidevindsholmen" />
		<tag k="place" v="islet" />
		<tag k="ssr:stedsnr" v="668994" />
	</node>
	<node id="-397340" lat="58.9842055549" lon="10.2185194417">
		<tag k="name" v="Stangern" />
		<tag k="place" v="islet" />
		<tag k="ssr:stedsnr" v="668977" />
	</node>
	<node id="-396975" lat="59.0186944457" lon="10.1084527714">
		<tag k="fixme" v="consider seamark:type=rock or natural=shoal" />
		<tag k="name" v="Brentholmskjær" />
		<tag k="place" v="islet" />
		<tag k="ssr:stedsnr" v="391105" />
	</node>
	<node id="-399382" lat="59.0295944416" lon="10.0951944363">
		<tag k="name" v="Drengskilen" />
		<tag k="natural" v="bay" />
		<tag k="ssr:stedsnr" v="148431" />
	</node>
	<node id="-397657" lat="59.0174944479" lon="10.0950472202">
		<tag k="name" v="Trabukta" />
		<tag k="natural" v="bay" />
		<tag k="ssr:stedsnr" v="573057" />
	</node>
	<node id="-397332" lat="58.9999999981" lon="10.0505555639">
		<tag k="name" v="Risøysundet" />
		<tag k="natural" v="strait" />
		<tag k="ssr:stedsnr" v="463870" />
	</node>
	<node id="-397329" lat="58.9948694415" lon="9.82339166101">
		<tag k="name" v="Midtbåen" />
		<tag k="place" v="locality" />
		<tag k="seamark:type" v="rock" />
		<tag k="ssr:stedsnr" v="662532" />
	</node>
	<node id="-397328" lat="58.9922277736" lon="9.80321111873">
		<tag k="name" v="Svartodden" />
		<tag k="natural" v="cape" />
		<tag k="ssr:stedsnr" v="662250" />
	</node>
	<node id="-397327" lat="59.0231305541" lon="9.79172221943">
		<tag k="name" v="Halveisholmbåen" />
		<tag k="natural" v="shoal" />
		<tag k="place" v="locality" />
		<tag k="ssr:stedsnr" v="662223" />
	</node>
	<node id="-397324" lat="59.0655583367" lon="10.2319111098">
		<tag k="fixme" v="consider seamark:type=rock or natural=shoal" />
		<tag k="name" v="Rauholmskjæra" />
		<tag k="place" v="islet" />
		<tag k="ssr:stedsnr" v="452903" />
	</node>
	<node id="-399369" lat="58.9590499972" lon="9.85305554713">
		<tag k="name" v="Sauesundshaken" />
		<tag k="place" v="locality" />
		<tag k="seamark:type" v="rock" />
		<tag k="ssr:stedsnr" v="148394" />
	</node>
	<node id="-399368" lat="58.9607861108" lon="9.88070000236">
		<tag k="fixme" v="consider seamark:type=rock or natural=shoal" />
		<tag k="name" v="Vestre Bramskjær" />
		<tag k="place" v="islet" />
		<tag k="ssr:stedsnr" v="148392" />
	</node>
	<node id="-399366" lat="58.9692138877" lon="9.86731666771">
		<tag k="name" v="Lakseberget" />
		<tag k="natural" v="cape" />
		<tag k="ssr:stedsnr" v="148383" />
	</node>
	<node id="-397315" lat="59.0363111143" lon="10.2294083258">
		<tag k="fixme" v="consider seamark:type=rock or natural=shoal" />
		<tag k="name" v="Svensken" />
		<tag k="place" v="islet" />
		<tag k="ssr:stedsnr" v="452615" />
	</node>
	<node id="-396971" lat="59.0077583357" lon="10.1546972238">
		<tag k="name" v="Lille Solbergstrand" />
		<tag k="natural" v="beach" />
		<tag k="place" v="locality" />
		<tag k="ssr:stedsnr" v="391026" />
	</node>
</osm>
