<?xml version="1.0" encoding="UTF-8"?>
<osm version="0.6" generator="osmapis">
	<node lat="59.130514006047655" lon="10.099988019904318" id="-24409">
		<tag k="fixme" v="consider place=hamlet" />
		<tag k="name" v="Ulverød" />
		<tag k="place" v="farm" />
		<tag k="ssr:stedsnr" v="1052" />
	</node>
	<node lat="59.174900002731306" lon="9.992277774474681" id="-24410">
		<tag k="alt_name" v="Gjone, søndre" />
		<tag k="name" v="Søndre Gjone" />
		<tag k="place" v="farm" />
		<tag k="ssr:stedsnr" v="1210" />
	</node>
	<node lat="59.080172422514295" lon="10.163903884124874" id="-24412">
		<tag k="alt_name" v="Skalleberg mellom" />
		<tag k="fixme" v="consider place=hamlet" />
		<tag k="name" v="Skalleberg" />
		<tag k="place" v="farm" />
		<tag k="ssr:stedsnr" v="1137" />
	</node>
	<node lat="59.19542963351988" lon="9.983410091541797" id="-24413">
		<tag k="fixme" v="consider place=hamlet" />
		<tag k="name" v="Mangelrød" />
		<tag k="place" v="farm" />
		<tag k="ssr:stedsnr" v="1185" />
	</node>
	<node lat="59.052784484119044" lon="10.15648370316328" id="-24415">
		<tag k="alt_name" v="Østre Varild" />
		<tag k="name" v="Varill" />
		<tag k="place" v="hamlet" />
		<tag k="ssr:stedsnr" v="1192" />
	</node>
	<node lat="59.112196385638" lon="9.911715137973642" id="-24416">
		<tag k="alt_name" v="Kleppene" />
		<tag k="fixme" v="consider place=hamlet" />
		<tag k="name" v="Kleppane" />
		<tag k="place" v="farm" />
		<tag k="ssr:stedsnr" v="1403" />
	</node>
	<node lat="58.984737149430345" lon="9.959369212261658" id="-24417">
		<tag k="fixme" v="consider place=hamlet" />
		<tag k="name" v="Lyhus" />
		<tag k="place" v="farm" />
		<tag k="ssr:stedsnr" v="1614" />
	</node>
	<node lat="58.98729047056442" lon="9.915739694275457" id="-24418">
		<tag k="name" v="Gusland" />
		<tag k="place" v="hamlet" />
		<tag k="ssr:stedsnr" v="1620" />
	</node>
	<node lat="59.109097218832964" lon="9.88062500250255" id="-24419">
		<tag k="alt_name" v="Bund" />
		<tag k="name" v="Botn" />
		<tag k="place" v="farm" />
		<tag k="ssr:stedsnr" v="1391" />
	</node>
	<node lat="59.131658330605866" lon="9.945875004779577" id="-24421">
		<tag k="alt_name" v="Setra" />
		<tag k="name" v="Sætra" />
		<tag k="place" v="isolated_dwelling" />
		<tag k="ssr:stedsnr" v="1587" />
	</node>
	<node lat="58.99617599692219" lon="9.919376071566784" id="-24422">
		<tag k="alt_name" v="Manvik nedre" />
		<tag k="fixme" v="consider place=hamlet" />
		<tag k="name" v="Manvik" />
		<tag k="place" v="farm" />
		<tag k="ssr:stedsnr" v="1594" />
	</node>
	<node lat="58.99871891489247" lon="9.912316831222602" id="-24423">
		<tag k="alt_name" v="Bervi" />
		<tag k="fixme" v="consider place=hamlet" />
		<tag k="name" v="Berven" />
		<tag k="place" v="farm" />
		<tag k="ssr:stedsnr" v="1595" />
	</node>
	<node lat="59.41279166477552" lon="9.975788894329444" id="-24425">
		<tag k="name" v="Holehaugen" />
		<tag k="place" v="farm" />
		<tag k="ssr:stedsnr" v="2132" />
	</node>
	<node lat="59.391541664193475" lon="10.037461109113673" id="-24430">
		<tag k="name" v="Kallebergsetra" />
		<tag k="place" v="isolated_dwelling" />
		<tag k="ssr:stedsnr" v="2220" />
	</node>
	<node lat="59.38737778141282" lon="9.952455556102166" id="-24431">
		<tag k="name" v="Sogn" />
		<tag k="place" v="farm" />
		<tag k="ssr:stedsnr" v="2280" />
	</node>
	<node lat="59.15621351291922" lon="10.02818171981705" id="-24432">
		<tag k="alt_name" v="Melø" />
		<tag k="fixme" v="consider place=hamlet" />
		<tag k="name" v="Melau" />
		<tag k="place" v="farm" />
		<tag k="ssr:stedsnr" v="2235" />
	</node>
	<node lat="59.279475002075515" lon="9.937158336386217" id="-24435">
		<tag k="name" v="Moen" />
		<tag k="place" v="farm" />
		<tag k="ssr:stedsnr" v="2492" />
	</node>
	<node lat="59.03114417778321" lon="9.968973201839471" id="-24436">
		<tag k="name" v="Tanum" />
		<tag k="place" v="farm" />
		<tag k="ssr:stedsnr" v="2498" />
	</node>
	<node lat="59.2883305518968" lon="9.937405563060649" id="-24438">
		<tag k="fixme" v="consider place=hamlet" />
		<tag k="name" v="Hvarnes" />
		<tag k="place" v="village" />
		<tag k="ssr:stedsnr" v="24908" />
	</node>
	<node lat="59.31562777811725" lon="9.965780558896482" id="-24445">
		<tag k="name" v="Nyseter" />
		<tag k="place" v="isolated_dwelling" />
		<tag k="ssr:stedsnr" v="26596" />
	</node>
	<node lat="59.040647578906274" lon="9.976548543021096" id="-24446">
		<tag k="fixme" v="consider place=hamlet" />
		<tag k="name" v="Gutterød" />
		<tag k="place" v="farm" />
		<tag k="ssr:stedsnr" v="26724" />
	</node>
	<node lat="59.43466944725821" lon="9.959491665134466" id="-24448">
		<tag k="name" v="Håkonplassen" />
		<tag k="place" v="locality" />
		<tag k="ssr:stedsnr" v="26807" />
	</node>
	<node lat="59.45823203562576" lon="10.005351368801627" id="-24449">
		<tag k="fixme" v="consider place=hamlet" />
		<tag k="name" v="Otterstad" />
		<tag k="place" v="farm" />
		<tag k="ssr:stedsnr" v="26815" />
	</node>
	<node lat="59.07348888920257" lon="10.057347227504023" id="-24455">
		<tag k="name" v="Nordby industriområde" />
		<tag k="place" v="quarter" />
		<tag k="ssr:stedsnr" v="27019" />
	</node>
	<node lat="59.076519442182864" lon="10.071099995452048" id="-24456">
		<tag k="name" v="Tinghaugen" />
		<tag k="place" v="locality" />
		<tag k="ssr:stedsnr" v="27024" />
	</node>
	<node lat="59.10707777690225" lon="9.866880554652722" id="-24472">
		<tag k="name" v="Engenestua" />
		<tag k="place" v="farm" />
		<tag k="ssr:stedsnr" v="27145" />
	</node>
	<node lat="59.34620833332773" lon="9.929186114997842" id="-24478">
		<tag k="name" v="Milerønningen" />
		<tag k="place" v="farm" />
		<tag k="ssr:stedsnr" v="27187" />
	</node>
	<node lat="59.07028611093388" lon="10.118547216590647" id="-24479">
		<tag k="name" v="Haugen" />
		<tag k="place" v="locality" />
		<tag k="ssr:stedsnr" v="27192" />
	</node>
	<node lat="58.98428055387278" lon="9.903613886517187" id="-24498">
		<tag k="name" v="Eidsten" />
		<tag k="place" v="farm" />
		<tag k="ssr:stedsnr" v="27383" />
	</node>
	<node lat="59.00774166901398" lon="9.909913886018964" id="-24506">
		<tag k="name" v="Dolven søndre" />
		<tag k="place" v="farm" />
		<tag k="ssr:stedsnr" v="27469" />
	</node>
	<node lat="59.04881647499747" lon="10.223098737534023" id="-24509">
		<tag k="name" v="Norheim" />
		<tag k="place" v="farm" />
		<tag k="ssr:stedsnr" v="27611" />
	</node>
	<node lat="59.20779166869173" lon="9.968397222009427" id="-24511">
		<tag k="name" v="Grindbakken" />
		<tag k="place" v="isolated_dwelling" />
		<tag k="ssr:stedsnr" v="27803" />
	</node>
	<node lat="59.28439722505447" lon="9.934305563682921" id="-24512">
		<tag k="name" v="Moen" />
		<tag k="place" v="locality" />
		<tag k="ssr:stedsnr" v="27720" />
	</node>
	<node lat="59.34994444524331" lon="9.943547230779112" id="-24513">
		<tag k="name" v="Hesterønningen" />
		<tag k="place" v="farm" />
		<tag k="ssr:stedsnr" v="27722" />
	</node>
	<node lat="59.05103055604784" lon="10.041630561105" id="-24523">
		<tag k="amenity" v="nursing_home" />
		<tag k="name" v="Furubakken sykehjem" />
		<tag k="ssr:stedsnr" v="27926" />
	</node>
	<node lat="58.989336109251916" lon="9.84553334118385" id="-24531">
		<tag k="name" v="Koddefyr" />
		<tag k="place" v="farm" />
		<tag k="ssr:stedsnr" v="238551" />
	</node>
	<node lat="59.13934815280174" lon="10.091738837014171" id="-24538">
		<tag k="fixme" v="consider place=hamlet" />
		<tag k="name" v="Eskedal" />
		<tag k="place" v="farm" />
		<tag k="ssr:stedsnr" v="62013" />
	</node>
	<node lat="59.07787633650358" lon="10.083632364457662" id="-24539">
		<tag k="alt_name" v="Rauen;Rauan nedre" />
		<tag k="fixme" v="consider place=hamlet" />
		<tag k="name" v="Rauan" />
		<tag k="place" v="farm" />
		<tag k="ssr:stedsnr" v="62121" />
	</node>
	<node lat="59.18117321922497" lon="10.10640354810397" id="-24540">
		<tag k="fixme" v="consider place=hamlet" />
		<tag k="name" v="Asbjørnrød" />
		<tag k="place" v="farm" />
		<tag k="ssr:stedsnr" v="62175" />
	</node>
	<node lat="59.0950661630645" lon="10.16502322904537" id="-24543">
		<tag k="alt_name" v="Istre;Istre søndre" />
		<tag k="fixme" v="consider place=hamlet" />
		<tag k="name" v="Søndre Istre" />
		<tag k="place" v="farm" />
		<tag k="ssr:stedsnr" v="62091" />
	</node>
	<node lat="59.03563333042237" lon="10.126997218426876" id="-24544">
		<tag k="name" v="Holm" />
		<tag k="place" v="isolated_dwelling" />
		<tag k="ssr:stedsnr" v="62202" />
	</node>
	<node lat="59.16599881908827" lon="10.013022215538836" id="-24545">
		<tag k="fixme" v="consider place=hamlet" />
		<tag k="name" v="Gjønnes" />
		<tag k="place" v="farm" />
		<tag k="ssr:stedsnr" v="62205" />
	</node>
	<node lat="59.02275261121807" lon="10.01517631659092" id="-24546">
		<tag k="alt_name" v="Lillejordet" />
		<tag k="fixme" v="consider place=hamlet" />
		<tag k="name" v="Jordet" />
		<tag k="place" v="farm" />
		<tag k="ssr:stedsnr" v="62208" />
	</node>
	<node lat="59.02469650134518" lon="9.99932170349482" id="-24548">
		<tag k="alt_name" v="Pøtten" />
		<tag k="fixme" v="consider place=hamlet" />
		<tag k="name" v="Pytten" />
		<tag k="place" v="farm" />
		<tag k="ssr:stedsnr" v="62210" />
	</node>
	<node lat="59.02101479303469" lon="10.077168769439771" id="-24549">
		<tag k="alt_name" v="Goen" />
		<tag k="fixme" v="consider place=hamlet" />
		<tag k="name" v="Gon" />
		<tag k="place" v="farm" />
		<tag k="ssr:stedsnr" v="62216" />
	</node>
	<node lat="59.016447859500005" lon="10.010185420809512" id="-24550">
		<tag k="fixme" v="consider place=hamlet" />
		<tag k="name" v="Stokkeskog" />
		<tag k="place" v="farm" />
		<tag k="ssr:stedsnr" v="62221" />
	</node>
	<node lat="58.999268236428264" lon="9.879775968416729" id="-24553">
		<tag k="fixme" v="consider place=hamlet" />
		<tag k="name" v="Torp" />
		<tag k="place" v="farm" />
		<tag k="ssr:stedsnr" v="62589" />
	</node>
	<node lat="59.20099167018359" lon="9.916730556048607" id="-24555">
		<tag k="name" v="Kvelderønningen" />
		<tag k="place" v="farm" />
		<tag k="ssr:stedsnr" v="62715" />
	</node>
	<node lat="59.19498889112067" lon="9.907116658423211" id="-24556">
		<tag k="name" v="Lauvhaugen" />
		<tag k="place" v="farm" />
		<tag k="ssr:stedsnr" v="62724" />
	</node>
	<node lat="59.06061073680814" lon="9.943422926064043" id="-24557">
		<tag k="alt_name" v="Brekkesæter" />
		<tag k="name" v="Brekkeseter" />
		<tag k="place" v="farm" />
		<tag k="ssr:stedsnr" v="62467" />
	</node>
	<node lat="59.441004326476985" lon="9.989908156522477" id="-24563">
		<tag k="alt_name" v="Horntvedt" />
		<tag k="fixme" v="consider place=hamlet" />
		<tag k="name" v="Horntvet" />
		<tag k="place" v="farm" />
		<tag k="ssr:stedsnr" v="63102" />
	</node>
	<node lat="59.36674285506666" lon="9.841030846452462" id="-24564">
		<tag k="name" v="Svartangdammen" />
		<tag k="place" v="farm" />
		<tag k="ssr:stedsnr" v="63268" />
	</node>
	<node lat="59.36412499943213" lon="9.834658336053481" id="-24565">
		<tag k="fixme" v="multiple name tags, choose one and add the other to alt_name" />
		<tag k="name" v="Gåserudseter;Gåserudsetra" />
		<tag k="place" v="isolated_dwelling" />
		<tag k="ssr:stedsnr" v="63270" />
	</node>
	<node lat="59.37902931873719" lon="9.949360784972118" id="-24566">
		<tag k="alt_name" v="Sjulstad s." />
		<tag k="fixme" v="consider place=hamlet" />
		<tag k="name" v="Sjulstad" />
		<tag k="place" v="farm" />
		<tag k="ssr:stedsnr" v="63277" />
	</node>
	<node lat="59.02145100699777" lon="9.935686815190781" id="-24567">
		<tag k="fixme" v="consider place=hamlet" />
		<tag k="name" v="Brekke" />
		<tag k="place" v="farm" />
		<tag k="ssr:stedsnr" v="63284" />
	</node>
	<node lat="59.006888892371066" lon="9.951900004932458" id="-24568">
		<tag k="name" v="Aske" />
		<tag k="place" v="farm" />
		<tag k="ssr:stedsnr" v="63287" />
	</node>
	<node lat="59.30024722360667" lon="9.891127776759577" id="-24569">
		<tag k="name" v="Røsholt" />
		<tag k="place" v="farm" />
		<tag k="ssr:stedsnr" v="63420" />
	</node>
	<node lat="59.048637816122934" lon="9.9976801945369" id="-24572">
		<tag k="name" v="Veldre" />
		<tag k="place" v="farm" />
		<tag k="ssr:stedsnr" v="63179" />
	</node>
	<node lat="59.000244442771496" lon="9.878244441659893" id="-24573">
		<tag k="name" v="Torp" />
		<tag k="place" v="farm" />
		<tag k="ssr:stedsnr" v="63319" />
	</node>
	<node lat="59.326930558967675" lon="9.871474994943192" id="-24575">
		<tag k="alt_name" v="Tveithuset" />
		<tag k="name" v="Huset" />
		<tag k="place" v="farm" />
		<tag k="ssr:stedsnr" v="63362" />
	</node>
	<node lat="59.418225001692306" lon="9.85322499497981" id="-24578">
		<tag k="historic" v="shieling" />
		<tag k="name" v="Lauvhaugsetra" />
		<tag k="place" v="isolated_dwelling" />
		<tag k="ssr:stedsnr" v="63571" />
	</node>
	<node lat="58.99196477383602" lon="9.982778855457683" id="-24582">
		<tag k="name" v="Nalum" />
		<tag k="place" v="hamlet" />
		<tag k="ssr:stedsnr" v="243958" />
	</node>
	<node lat="58.98866784962173" lon="9.968541080663863" id="-24583">
		<tag k="fixme" v="consider place=hamlet" />
		<tag k="name" v="Kolbensrød" />
		<tag k="place" v="farm" />
		<tag k="ssr:stedsnr" v="243959" />
	</node>
	<node lat="59.1382999976532" lon="10.057416668852833" id="-24584">
		<tag k="name" v="Kastet" />
		<tag k="place" v="farm" />
		<tag k="ssr:stedsnr" v="244011" />
	</node>
	<node lat="59.11042777734692" lon="10.063250001745075" id="-24585">
		<tag k="name" v="Danmark" />
		<tag k="place" v="farm" />
		<tag k="ssr:stedsnr" v="244064" />
	</node>
	<node lat="59.07031984280879" lon="10.045644355749788" id="-24586">
		<tag k="alt_name" v="Thorstvedt" />
		<tag k="fixme" v="consider place=hamlet" />
		<tag k="name" v="Torstvet" />
		<tag k="place" v="farm" />
		<tag k="ssr:stedsnr" v="244156" />
	</node>
	<node lat="59.06080833321906" lon="9.97018056031595" id="-24587">
		<tag k="name" v="Minde" />
		<tag k="place" v="farm" />
		<tag k="ssr:stedsnr" v="244169" />
	</node>
	<node lat="59.19124550895529" lon="9.998137256599584" id="-24588">
		<tag k="fixme" v="consider place=hamlet" />
		<tag k="name" v="Nordrum" />
		<tag k="place" v="farm" />
		<tag k="ssr:stedsnr" v="244173" />
	</node>
	<node lat="59.03556874892987" lon="10.073927174158984" id="-24593">
		<tag k="fixme" v="consider place=hamlet" />
		<tag k="name" v="Brekke" />
		<tag k="place" v="farm" />
		<tag k="ssr:stedsnr" v="244213" />
	</node>
	<node lat="59.02847499847125" lon="10.07474721628104" id="-24594">
		<tag k="fixme" v="consider place=suburb, village or hamlet" />
		<tag k="name" v="Rekkevik" />
		<tag k="place" v="quarter" />
		<tag k="ssr:stedsnr" v="244216" />
	</node>
	<node lat="59.024532709939564" lon="9.992038879112705" id="-24597">
		<tag k="alt_name" v="Bergene" />
		<tag k="fixme" v="consider place=hamlet" />
		<tag k="name" v="Bergane" />
		<tag k="place" v="farm" />
		<tag k="ssr:stedsnr" v="244229" />
	</node>
	<node lat="59.2091249986269" lon="9.990305555381024" id="-24600">
		<tag k="name" v="Holoa" />
		<tag k="place" v="farm" />
		<tag k="ssr:stedsnr" v="244354" />
	</node>
	<node lat="59.05238611102259" lon="9.898491663491669" id="-24601">
		<tag k="alt_name" v="Hauganesetra" />
		<tag k="name" v="Hauganesætra" />
		<tag k="place" v="isolated_dwelling" />
		<tag k="ssr:stedsnr" v="244518" />
	</node>
	<node lat="59.16520000216757" lon="9.966636112986615" id="-24603">
		<tag k="name" v="Heum" />
		<tag k="place" v="isolated_dwelling" />
		<tag k="ssr:stedsnr" v="244544" />
	</node>
	<node lat="59.26262242512521" lon="9.954589354254134" id="-24605">
		<tag k="alt_name" v="Hellenes, nordre" />
		<tag k="name" v="Nordre Hellenes" />
		<tag k="place" v="farm" />
		<tag k="ssr:stedsnr" v="245033" />
	</node>
	<node lat="59.01058055373081" lon="9.952352785949088" id="-24610">
		<tag k="name" v="Hvatum" />
		<tag k="place" v="farm" />
		<tag k="ssr:stedsnr" v="245247" />
	</node>
	<node lat="59.36361997042052" lon="9.948384596676428" id="-24611">
		<tag k="fixme" v="consider place=hamlet" />
		<tag k="name" v="Glenne" />
		<tag k="place" v="farm" />
		<tag k="ssr:stedsnr" v="245248" />
	</node>
	<node lat="59.04286111220967" lon="10.20919999936765" id="-24612">
		<tag k="alt_name" v="Holtan søndre" />
		<tag k="name" v="Holtan" />
		<tag k="place" v="farm" />
		<tag k="ssr:stedsnr" v="245290" />
	</node>
	<node lat="59.04718253068526" lon="10.08096526956823" id="-24613">
		<tag k="alt_name" v="Bisjord" />
		<tag k="name" v="Øvre Bisjord" />
		<tag k="place" v="farm" />
		<tag k="ssr:stedsnr" v="245294" />
	</node>
	<node lat="59.303524997984894" lon="9.887766662797361" id="-24616">
		<tag k="alt_name" v="Vestre Moen" />
		<tag k="name" v="Moen" />
		<tag k="place" v="farm" />
		<tag k="ssr:stedsnr" v="245380" />
	</node>
	<node lat="59.310336112863375" lon="9.958524994951" id="-24617">
		<tag k="name" v="Sagstua" />
		<tag k="place" v="isolated_dwelling" />
		<tag k="ssr:stedsnr" v="245398" />
	</node>
	<node lat="59.34357499767268" lon="9.929058325265236" id="-24619">
		<tag k="name" v="Stigen" />
		<tag k="place" v="farm" />
		<tag k="ssr:stedsnr" v="245345" />
	</node>
	<node lat="59.29902500338443" lon="9.906969449645498" id="-24621">
		<tag k="name" v="Baarnes" />
		<tag k="old_name" v="Bårnesrønningane" />
		<tag k="place" v="farm" />
		<tag k="ssr:stedsnr" v="245362" />
	</node>
	<node lat="59.21079166454594" lon="9.904863890298982" id="-24627">
		<tag k="name" v="Surtehytta" />
		<tag k="place" v="isolated_dwelling" />
		<tag k="ssr:stedsnr" v="87083" />
	</node>
	<node lat="59.4183473632993" lon="9.89278119885916" id="-24633">
		<tag k="fixme" v="consider place=hamlet" />
		<tag k="name" v="Tveiten" />
		<tag k="place" v="farm" />
		<tag k="ssr:stedsnr" v="245529" />
	</node>
	<node lat="59.46161111232521" lon="10.039241670582145" id="-24636">
		<tag k="name" v="Skarvene" />
		<tag k="place" v="locality" />
		<tag k="ssr:stedsnr" v="87837" />
	</node>
	<node lat="59.29107500052783" lon="9.92982499979255" id="-24640">
		<tag k="name" v="Bekken" />
		<tag k="place" v="farm" />
		<tag k="ssr:stedsnr" v="88010" />
	</node>
	<node lat="59.13473332981341" lon="9.877963895276501" id="-24645">
		<tag k="name" v="Nordgard" />
		<tag k="place" v="farm" />
		<tag k="ssr:stedsnr" v="88027" />
	</node>
	<node lat="59.04431944480859" lon="10.00191388367681" id="-24648">
		<tag k="leisure" v="park" />
		<tag k="name" v="Fritzøehus landskapsvernområde" />
		<tag k="ssr:stedsnr" v="88074" />
	</node>
	<node lat="59.03639166356749" lon="10.065086105143754" id="-24660">
		<tag k="amenity" v="school" />
		<tag k="name" v="Østre Halsen skole" />
		<tag k="ssr:stedsnr" v="88213" />
	</node>
	<node lat="59.11483888833502" lon="10.115758331081306" id="-24663">
		<tag k="name" v="Ringdal vestre" />
		<tag k="place" v="farm" />
		<tag k="ssr:stedsnr" v="88124" />
	</node>
	<node lat="59.07566502622152" lon="10.134899845832592" id="-24678">
		<tag k="fixme" v="consider place=hamlet" />
		<tag k="name" v="Vittersø vestre" />
		<tag k="place" v="farm" />
		<tag k="ssr:stedsnr" v="88177" />
	</node>
	<node lat="59.005980551096506" lon="9.941136114826664" id="-24686">
		<tag k="name" v="Gudem" />
		<tag k="place" v="farm" />
		<tag k="ssr:stedsnr" v="88424" />
	</node>
	<node lat="59.013444440246474" lon="10.012741659816413" id="-24687">
		<tag k="name" v="Rønningen" />
		<tag k="place" v="farm" />
		<tag k="ssr:stedsnr" v="88426" />
	</node>
	<node lat="58.984297225864104" lon="9.884311106305832" id="-24689">
		<tag k="name" v="Kløtterød" />
		<tag k="place" v="farm" />
		<tag k="ssr:stedsnr" v="88320" />
	</node>
	<node lat="59.028436113210155" lon="10.097802781401175" id="-24690">
		<tag k="name" v="Vahuset" />
		<tag k="place" v="farm" />
		<tag k="ssr:stedsnr" v="88371" />
	</node>
	<node lat="58.96481666889003" lon="9.960149993269539" id="-24695">
		<tag k="name" v="Ramn østre" />
		<tag k="place" v="isolated_dwelling" />
		<tag k="ssr:stedsnr" v="88389" />
	</node>
	<node lat="59.09395277713966" lon="10.168213883111273" id="-24699">
		<tag k="name" v="Luva" />
		<tag k="place" v="farm" />
		<tag k="ssr:stedsnr" v="88514" />
	</node>
	<node lat="59.0902083289236" lon="10.106658341493356" id="-24708">
		<tag k="name" v="Bredvei" />
		<tag k="place" v="farm" />
		<tag k="ssr:stedsnr" v="88873" />
	</node>
	<node lat="59.079214135025346" lon="10.114215181498517" id="-24710">
		<tag k="fixme" v="consider place=hamlet" />
		<tag k="name" v="Håkestad vestre" />
		<tag k="place" v="farm" />
		<tag k="ssr:stedsnr" v="88881" />
	</node>
	<node lat="59.09672499717295" lon="10.165244450740849" id="-24712">
		<tag k="alt_name" v="Istre nordre" />
		<tag k="name" v="Nordre Istre" />
		<tag k="place" v="farm" />
		<tag k="ssr:stedsnr" v="89592" />
	</node>
	<node lat="59.38340000214436" lon="10.026644443498576" id="-24714">
		<tag k="fixme" v="consider tourism=alpine_hut or tourism=chalet" />
		<tag k="name" v="Hannevoldhytta" />
		<tag k="ssr:stedsnr" v="101579" />
		<tag k="tourism" v="wilderness_hut" />
	</node>
	<node lat="59.01333014006445" lon="10.097315198337412" id="-24721">
		<tag k="fixme" v="consider tourism=alpine_hut or tourism=chalet" />
		<tag k="name" v="Jakthytta" />
		<tag k="ssr:stedsnr" v="121684" />
		<tag k="tourism" v="wilderness_hut" />
	</node>
	<node lat="59.00427055722877" lon="9.952013036347513" id="-24727">
		<tag k="name" v="Aske" />
		<tag k="place" v="hamlet" />
		<tag k="ssr:stedsnr" v="122323" />
	</node>
	<node lat="59.44885000020277" lon="10.004961103779761" id="-24730">
		<tag k="name" v="Moen" />
		<tag k="place" v="farm" />
		<tag k="ssr:stedsnr" v="123084" />
	</node>
	<node lat="59.17405277349603" lon="10.017147219666207" id="-24731">
		<tag k="name" v="Tangen" />
		<tag k="place" v="farm" />
		<tag k="ssr:stedsnr" v="123224" />
	</node>
	<node lat="59.07691136505604" lon="10.178849684336386" id="-24732">
		<tag k="fixme" v="consider place=hamlet" />
		<tag k="name" v="Bru" />
		<tag k="place" v="farm" />
		<tag k="ssr:stedsnr" v="123138" />
	</node>
	<node lat="59.07716353704654" lon="10.058863368582845" id="-24733">
		<tag k="fixme" v="consider place=hamlet" />
		<tag k="name" v="Nordby" />
		<tag k="place" v="farm" />
		<tag k="ssr:stedsnr" v="123141" />
	</node>
	<node lat="59.43333611162395" lon="10.006141670089946" id="-24734">
		<tag k="name" v="Bekkevar" />
		<tag k="place" v="farm" />
		<tag k="ssr:stedsnr" v="123171" />
	</node>
	<node lat="59.222702779896146" lon="9.96879722971114" id="-24735">
		<tag k="name" v="Nordkveldmoen" />
		<tag k="place" v="farm" />
		<tag k="ssr:stedsnr" v="123392" />
	</node>
	<node lat="59.28102499829946" lon="9.843950006522897" id="-24738">
		<tag k="historic" v="shieling" />
		<tag k="name" v="Røsholtsetra" />
		<tag k="place" v="isolated_dwelling" />
		<tag k="ssr:stedsnr" v="123517" />
	</node>
	<node lat="59.163199995691535" lon="9.865733325404278" id="-24739">
		<tag k="name" v="Åsen" />
		<tag k="place" v="farm" />
		<tag k="ssr:stedsnr" v="123571" />
	</node>
	<node lat="59.31195000072088" lon="9.884102779627487" id="-24741">
		<tag k="name" v="Haugåker" />
		<tag k="place" v="farm" />
		<tag k="ssr:stedsnr" v="123467" />
	</node>
	<node lat="59.42011110894503" lon="9.845072213944654" id="-24743">
		<tag k="name" v="Langemyrstua" />
		<tag k="place" v="isolated_dwelling" />
		<tag k="ssr:stedsnr" v="123606" />
	</node>
	<node lat="59.119936110825805" lon="9.95977223020925" id="-24744">
		<tag k="alt_name" v="Albretsgjerdet" />
		<tag k="name" v="Albretskjær" />
		<tag k="place" v="isolated_dwelling" />
		<tag k="ssr:stedsnr" v="123624" />
	</node>
	<node lat="59.40171952320934" lon="9.940793297538045" id="-24746">
		<tag k="fixme" v="consider place=hamlet" />
		<tag k="name" v="Solberg" />
		<tag k="place" v="farm" />
		<tag k="ssr:stedsnr" v="124253" />
	</node>
	<node lat="59.34012500008616" lon="9.974605563432007" id="-24747">
		<tag k="historic" v="shieling" />
		<tag k="name" v="Kongellsetra" />
		<tag k="place" v="isolated_dwelling" />
		<tag k="ssr:stedsnr" v="124705" />
	</node>
	<node lat="59.33586389194805" lon="9.995030562193326" id="-24748">
		<tag k="name" v="Solbergstua" />
		<tag k="place" v="isolated_dwelling" />
		<tag k="ssr:stedsnr" v="124707" />
	</node>
	<node lat="59.360386113105214" lon="9.942761112081351" id="-24752">
		<tag k="name" v="Langerudenga" />
		<tag k="place" v="farm" />
		<tag k="ssr:stedsnr" v="147667" />
	</node>
	<node lat="59.31326666762395" lon="9.980805552125922" id="-24756">
		<tag k="name" v="Dølenga" />
		<tag k="place" v="locality" />
		<tag k="ssr:stedsnr" v="147569" />
	</node>
	<node lat="59.2889508897119" lon="9.891125056558112" id="-24761">
		<tag k="fixme" v="consider place=hamlet" />
		<tag k="name" v="Bergan" />
		<tag k="place" v="farm" />
		<tag k="ssr:stedsnr" v="148004" />
	</node>
	<node lat="59.234800000338325" lon="9.909194446670758" id="-24769">
		<tag k="historic" v="shieling" />
		<tag k="name" v="Mangelrødsetra" />
		<tag k="place" v="isolated_dwelling" />
		<tag k="ssr:stedsnr" v="148056" />
	</node>
	<node lat="59.06835833756867" lon="10.036519439400116" id="-24773">
		<tag k="leisure" v="pitch" />
		<tag k="name" v="Nanset idrettsforening" />
		<tag k="ssr:stedsnr" v="148107" />
	</node>
	<node lat="59.34056666503722" lon="9.897247225065867" id="-24775">
		<tag k="name" v="Gråten" />
		<tag k="place" v="locality" />
		<tag k="ssr:stedsnr" v="148212" />
	</node>
	<node lat="59.03616666678106" lon="10.091572216470047" id="-24782">
		<tag k="name" v="Havna" />
		<tag k="place" v="locality" />
		<tag k="ssr:stedsnr" v="148263" />
	</node>
	<node lat="58.97020555764859" lon="9.902838889223599" id="-24790">
		<tag k="name" v="Åsen" />
		<tag k="place" v="farm" />
		<tag k="ssr:stedsnr" v="148404" />
	</node>
	<node lat="59.02819444519918" lon="9.864802775470285" id="-24791">
		<tag k="name" v="Bålsrød" />
		<tag k="place" v="farm" />
		<tag k="ssr:stedsnr" v="148419" />
	</node>
	<node lat="59.020494442819164" lon="9.934163885155254" id="-24792">
		<tag k="name" v="Brekke sag" />
		<tag k="place" v="farm" />
		<tag k="ssr:stedsnr" v="148423" />
	</node>
	<node lat="59.09993888939601" lon="10.091141671613245" id="-24799">
		<tag k="name" v="Seierstad østre" />
		<tag k="place" v="farm" />
		<tag k="ssr:stedsnr" v="148174" />
	</node>
	<node lat="58.98146666503208" lon="9.876769437576439" id="-24805">
		<tag k="name" v="Amundrød" />
		<tag k="place" v="farm" />
		<tag k="ssr:stedsnr" v="148368" />
	</node>
	<node lat="59.040533330819606" lon="10.21676389645888" id="-24817">
		<tag k="name" v="Fjellvik" />
		<tag k="place" v="locality" />
		<tag k="ssr:stedsnr" v="148623" />
	</node>
	<node lat="59.045030350754594" lon="10.178590694727568" id="-24820">
		<tag k="name" v="Sundby" />
		<tag k="place" v="farm" />
		<tag k="ssr:stedsnr" v="148661" />
	</node>
	<node lat="59.1242749975241" lon="10.06776944033109" id="-24823">
		<tag k="name" v="Nedre Bergan" />
		<tag k="place" v="farm" />
		<tag k="ssr:stedsnr" v="148676" />
	</node>
	<node lat="59.16923611171201" lon="10.103997219315444" id="-24825">
		<tag k="name" v="Nauf" />
		<tag k="place" v="farm" />
		<tag k="ssr:stedsnr" v="148807" />
	</node>
	<node lat="59.05860555737078" lon="10.2138249974306" id="-24829">
		<tag k="name" v="Titut" />
		<tag k="place" v="farm" />
		<tag k="ssr:stedsnr" v="148908" />
	</node>
	<node lat="59.06079080906685" lon="10.21087892665355" id="-24830">
		<tag k="fixme" v="consider place=hamlet" />
		<tag k="name" v="Sandnes mellom" />
		<tag k="place" v="farm" />
		<tag k="ssr:stedsnr" v="148909" />
	</node>
	<node lat="59.02038610781718" lon="10.019330555958678" id="-24844">
		<tag k="name" v="Holmejordet" />
		<tag k="place" v="farm" />
		<tag k="ssr:stedsnr" v="183213" />
	</node>
	<node lat="59.02444444598777" lon="9.931919451338718" id="-24845">
		<tag k="name" v="Brekke" />
		<tag k="place" v="farm" />
		<tag k="ssr:stedsnr" v="183253" />
	</node>
	<node lat="59.025227780739726" lon="10.184652783206266" id="-24846">
		<tag k="fixme" v="consider place=suburb, village or hamlet" />
		<tag k="name" v="Ula" />
		<tag k="place" v="quarter" />
		<tag k="ssr:stedsnr" v="183201" />
	</node>
	<node lat="59.165789960739566" lon="10.024065598918101" id="-24850">
		<tag k="fixme" v="consider place=hamlet" />
		<tag k="name" v="Vestrum" />
		<tag k="place" v="farm" />
		<tag k="ssr:stedsnr" v="184213" />
	</node>
	<node lat="59.167558333007584" lon="10.072913887145976" id="-24851">
		<tag k="name" v="Høyvik" />
		<tag k="place" v="farm" />
		<tag k="ssr:stedsnr" v="184214" />
	</node>
	<node lat="59.310879839691516" lon="9.860079307626721" id="-24859">
		<tag k="fixme" v="consider place=hamlet" />
		<tag k="name" v="Torsrud" />
		<tag k="place" v="farm" />
		<tag k="ssr:stedsnr" v="184435" />
	</node>
	<node lat="59.26413005089984" lon="9.94260564576407" id="-24861">
		<tag k="alt_name" v="Østre Hvarnes" />
		<tag k="name" v="Hvarnes" />
		<tag k="place" v="hamlet" />
		<tag k="ssr:stedsnr" v="184454" />
	</node>
	<node lat="59.34520555523102" lon="9.931227785221306" id="-24863">
		<tag k="name" v="Løkka" />
		<tag k="place" v="farm" />
		<tag k="ssr:stedsnr" v="184346" />
	</node>
	<node lat="59.40149346064951" lon="9.995644290986819" id="-24864">
		<tag k="fixme" v="consider place=hamlet" />
		<tag k="name" v="Røsbekk" />
		<tag k="place" v="farm" />
		<tag k="ssr:stedsnr" v="185134" />
	</node>
	<node lat="58.97276111248522" lon="9.83375277458294" id="-24872">
		<tag k="name" v="Værvågen" />
		<tag k="place" v="farm" />
		<tag k="ssr:stedsnr" v="207282" />
	</node>
	<node lat="59.417416226949236" lon="9.944091371848822" id="-24876">
		<tag k="alt_name" v="Herland;Herland N." />
		<tag k="fixme" v="consider place=hamlet" />
		<tag k="name" v="Nordre Herland" />
		<tag k="place" v="farm" />
		<tag k="ssr:stedsnr" v="208510" />
	</node>
	<node lat="59.41133333134941" lon="9.934797221468436" id="-24879">
		<tag k="name" v="Ådalen" />
		<tag k="place" v="farm" />
		<tag k="ssr:stedsnr" v="208538" />
	</node>
	<node lat="59.42781388696712" lon="10.017141662737112" id="-24886">
		<tag k="name" v="Fjeld" />
		<tag k="place" v="farm" />
		<tag k="ssr:stedsnr" v="208820" />
	</node>
	<node lat="59.38759722631094" lon="9.960302771980537" id="-24889">
		<tag k="name" v="Einarsrud" />
		<tag k="place" v="locality" />
		<tag k="ssr:stedsnr" v="208998" />
	</node>
	<node lat="59.21183888605702" lon="9.867369453027019" id="-24896">
		<tag k="name" v="Nordheim" />
		<tag k="place" v="farm" />
		<tag k="ssr:stedsnr" v="209044" />
	</node>
	<node lat="59.05918055611186" lon="10.029019446450967" id="-24899">
		<tag k="leisure" v="pitch" />
		<tag k="name" v="Lovisenlund idrettsplass" />
		<tag k="ssr:stedsnr" v="209084" />
	</node>
	<node lat="59.3315444417508" lon="9.858841659726263" id="-24903">
		<tag k="historic" v="shieling" />
		<tag k="name" v="Hanevalsetra" />
		<tag k="place" v="isolated_dwelling" />
		<tag k="ssr:stedsnr" v="209091" />
	</node>
	<node lat="59.06345555971072" lon="10.151058337756806" id="-24907">
		<tag k="name" v="Løvberg" />
		<tag k="place" v="farm" />
		<tag k="ssr:stedsnr" v="209212" />
	</node>
	<node lat="59.104680555308086" lon="10.063583324809802" id="-24911">
		<tag k="name" v="Skauen" />
		<tag k="place" v="farm" />
		<tag k="ssr:stedsnr" v="209181" />
	</node>
	<node lat="59.368461108051335" lon="9.82581666392628" id="-24914">
		<tag k="name" v="Nordre Gåserudseter" />
		<tag k="place" v="isolated_dwelling" />
		<tag k="ssr:stedsnr" v="209186" />
	</node>
	<node lat="59.09646666289919" lon="10.090674997337281" id="-24915">
		<tag k="name" v="Seierstad østre" />
		<tag k="place" v="farm" />
		<tag k="ssr:stedsnr" v="209189" />
	</node>
	<node lat="59.29618611484208" lon="9.89839166101353" id="-24918">
		<tag k="name" v="Nordre Bårnes" />
		<tag k="place" v="farm" />
		<tag k="ssr:stedsnr" v="209199" />
	</node>
	<node lat="59.281786110482344" lon="9.944022217701411" id="-24920">
		<tag k="name" v="Skåtanlia" />
		<tag k="place" v="quarter" />
		<tag k="ssr:stedsnr" v="209333" />
	</node>
	<node lat="58.981283335477684" lon="9.916269452324455" id="-24922">
		<tag k="name" v="Gusland store" />
		<tag k="place" v="farm" />
		<tag k="ssr:stedsnr" v="209404" />
	</node>
	<node lat="59.023950002483566" lon="9.927297223638151" id="-24927">
		<tag k="name" v="Solberg" />
		<tag k="place" v="farm" />
		<tag k="ssr:stedsnr" v="209445" />
	</node>
	<node lat="59.027161109847405" lon="9.949975008610542" id="-24933">
		<tag k="name" v="Steinsholt" />
		<tag k="place" v="farm" />
		<tag k="ssr:stedsnr" v="209495" />
	</node>
	<node lat="59.01042222344265" lon="9.94727221986216" id="-24936">
		<tag k="name" v="Hvatum" />
		<tag k="place" v="farm" />
		<tag k="ssr:stedsnr" v="209503" />
	</node>
	<node lat="59.089183581273176" lon="10.181386045516378" id="-24940">
		<tag k="alt_name" v="Hybbestad nordre" />
		<tag k="fixme" v="consider place=hamlet" />
		<tag k="name" v="Nordre Hybbestad" />
		<tag k="place" v="farm" />
		<tag k="ssr:stedsnr" v="209578" />
	</node>
	<node lat="59.08634047280597" lon="10.180450910783552" id="-24941">
		<tag k="alt_name" v="Hybbestad søndre" />
		<tag k="fixme" v="consider place=hamlet" />
		<tag k="name" v="Søndre Hybbestad" />
		<tag k="place" v="farm" />
		<tag k="ssr:stedsnr" v="209579" />
	</node>
	<node lat="59.286366670194" lon="9.93811666007505" id="-24948">
		<tag k="name" v="Fredheim" />
		<tag k="place" v="farm" />
		<tag k="ssr:stedsnr" v="209708" />
	</node>
	<node lat="59.41343055505593" lon="9.944666669797034" id="-24970">
		<tag k="name" v="Dalen" />
		<tag k="place" v="farm" />
		<tag k="ssr:stedsnr" v="269563" />
	</node>
	<node lat="59.26051666684192" lon="9.975941669003213" id="-24982">
		<tag k="historic" v="shieling" />
		<tag k="name" v="Østliseter" />
		<tag k="place" v="isolated_dwelling" />
		<tag k="ssr:stedsnr" v="269653" />
	</node>
	<node lat="59.4495861089009" lon="10.032705555331932" id="-24986">
		<tag k="name" v="Eikahaugen" />
		<tag k="place" v="locality" />
		<tag k="ssr:stedsnr" v="269860" />
	</node>
	<node lat="59.43507500433084" lon="9.96200556048131" id="-24987">
		<tag k="name" v="Rønningen" />
		<tag k="place" v="isolated_dwelling" />
		<tag k="ssr:stedsnr" v="269867" />
	</node>
	<node lat="59.432474996164295" lon="9.959238895369518" id="-24988">
		<tag k="name" v="Skredderplassen" />
		<tag k="place" v="isolated_dwelling" />
		<tag k="ssr:stedsnr" v="269868" />
	</node>
	<node lat="59.42865555649424" lon="9.945852780136196" id="-24989">
		<tag k="name" v="Brandsrudmoen" />
		<tag k="place" v="locality" />
		<tag k="ssr:stedsnr" v="269869" />
	</node>
	<node lat="59.39306944779349" lon="9.972894441701616" id="-24991">
		<tag k="name" v="Fuglesangen" />
		<tag k="place" v="farm" />
		<tag k="ssr:stedsnr" v="269993" />
	</node>
	<node lat="59.208963889185846" lon="9.905144442849146" id="-24994">
		<tag k="historic" v="shieling" />
		<tag k="name" v="Furulund" />
		<tag k="place" v="isolated_dwelling" />
		<tag k="ssr:stedsnr" v="270100" />
	</node>
	<node lat="59.06637777537446" lon="10.04582778220276" id="-24995">
		<tag k="leisure" v="pitch" />
		<tag k="name" v="Hovlandbanen" />
		<tag k="ssr:stedsnr" v="270120" />
	</node>
	<node lat="59.07048332993815" lon="10.049011107257352" id="-24998">
		<tag k="name" v="Torsvang" />
		<tag k="place" v="farm" />
		<tag k="ssr:stedsnr" v="270036" />
	</node>
	<node lat="59.0604805558007" lon="10.095752769469925" id="-25002">
		<tag k="name" v="Gjerstad vestre" />
		<tag k="place" v="farm" />
		<tag k="ssr:stedsnr" v="270042" />
	</node>
	<node lat="59.055691668223965" lon="10.088675008722978" id="-25004">
		<tag k="name" v="Tomta" />
		<tag k="place" v="locality" />
		<tag k="ssr:stedsnr" v="270049" />
	</node>
	<node lat="59.066696125333756" lon="9.97864290106738" id="-25009">
		<tag k="fixme" v="consider place=hamlet" />
		<tag k="name" v="Sky" />
		<tag k="place" v="farm" />
		<tag k="ssr:stedsnr" v="270069" />
	</node>
	<node lat="59.029250002078356" lon="10.145686114678895" id="-25011">
		<tag k="name" v="Lia" />
		<tag k="place" v="isolated_dwelling" />
		<tag k="ssr:stedsnr" v="270131" />
	</node>
	<node lat="59.06348266045863" lon="10.151456534079838" id="-25028">
		<tag k="fixme" v="consider place=hamlet" />
		<tag k="name" v="Løve nedre" />
		<tag k="place" v="farm" />
		<tag k="ssr:stedsnr" v="270211" />
	</node>
	<node lat="59.45507499900999" lon="9.83503055085963" id="-25035">
		<tag k="name" v="Nerli" />
		<tag k="place" v="farm" />
		<tag k="ssr:stedsnr" v="270245" />
	</node>
	<node lat="59.036777780383574" lon="10.062458327722332" id="-25040">
		<tag k="name" v="Østre Halsen" />
		<tag k="place" v="suburb" />
		<tag k="ssr:stedsnr" v="270263" />
	</node>
	<node lat="58.98998055154868" lon="9.922755556917972" id="-25048">
		<tag k="name" v="Snørsvall" />
		<tag k="place" v="farm" />
		<tag k="ssr:stedsnr" v="270451" />
	</node>
	<node lat="59.10291666721207" lon="10.162319449836625" id="-25054">
		<tag k="name" v="Furulund" />
		<tag k="place" v="isolated_dwelling" />
		<tag k="ssr:stedsnr" v="270620" />
	</node>
	<node lat="58.988202774193915" lon="10.02520832799073" id="-25055">
		<tag k="amenity" v="nursing_home" />
		<tag k="name" v="Brunlanes aldershjem" />
		<tag k="ssr:stedsnr" v="270464" />
	</node>
	<node lat="59.03157222121283" lon="9.855355550523067" id="-25057">
		<tag k="name" v="Heia" />
		<tag k="place" v="isolated_dwelling" />
		<tag k="ssr:stedsnr" v="270413" />
	</node>
	<node lat="59.02869173392502" lon="9.85818913915449" id="-25058">
		<tag k="name" v="Rønningen" />
		<tag k="place" v="farm" />
		<tag k="ssr:stedsnr" v="270418" />
	</node>
	<node lat="59.0460750021573" lon="10.178044451129086" id="-25060">
		<tag k="name" v="Skarpesteik" />
		<tag k="place" v="farm" />
		<tag k="ssr:stedsnr" v="270645" />
	</node>
	<node lat="59.050347218899425" lon="10.189469439178046" id="-25061">
		<tag k="name" v="Hovet" />
		<tag k="place" v="locality" />
		<tag k="ssr:stedsnr" v="270654" />
	</node>
	<node lat="59.07893529114219" lon="10.160134451608794" id="-25069">
		<tag k="fixme" v="consider place=hamlet" />
		<tag k="name" v="Skalleberg søndre" />
		<tag k="place" v="farm" />
		<tag k="ssr:stedsnr" v="270851" />
	</node>
	<node lat="59.156311106648644" lon="10.042277782101722" id="-25076">
		<tag k="name" v="Strandly" />
		<tag k="place" v="farm" />
		<tag k="ssr:stedsnr" v="270901" />
	</node>
	<node lat="59.17877499673498" lon="9.989013890600013" id="-25091">
		<tag k="alt_name" v="Gjone;Gjone store" />
		<tag k="name" v="Store Gjone" />
		<tag k="place" v="farm" />
		<tag k="ssr:stedsnr" v="270955" />
	</node>
	<node lat="59.393907340666345" lon="9.988097387516747" id="-25099">
		<tag k="alt_name" v="Berg øvre;Berg" />
		<tag k="name" v="Øvre Berg" />
		<tag k="place" v="farm" />
		<tag k="ssr:stedsnr" v="236487" />
	</node>
	<node lat="59.410388884689034" lon="10.03178888177529" id="-25107">
		<tag k="name" v="Dammhøla" />
		<tag k="place" v="locality" />
		<tag k="ssr:stedsnr" v="451530" />
	</node>
	<node lat="59.38277777595416" lon="9.941441658188296" id="-25108">
		<tag k="name" v="Åsen" />
		<tag k="place" v="farm" />
		<tag k="ssr:stedsnr" v="451532" />
	</node>
	<node lat="59.381494441768666" lon="9.950933335575849" id="-25109">
		<tag k="name" v="Nordre Sjulstad" />
		<tag k="place" v="farm" />
		<tag k="ssr:stedsnr" v="451535" />
	</node>
	<node lat="59.442727776012454" lon="10.017361103625538" id="-25114">
		<tag k="name" v="Huken" />
		<tag k="place" v="locality" />
		<tag k="ssr:stedsnr" v="451889" />
	</node>
	<node lat="59.44499999685212" lon="10.016316663508942" id="-25115">
		<tag k="name" v="Snyta" />
		<tag k="place" v="locality" />
		<tag k="ssr:stedsnr" v="451891" />
	</node>
	<node lat="59.425827774020966" lon="10.02002777534476" id="-25122">
		<tag k="name" v="Midtre Hem" />
		<tag k="place" v="farm" />
		<tag k="ssr:stedsnr" v="451831" />
	</node>
	<node lat="59.43695555176278" lon="9.994097225998619" id="-25124">
		<tag k="name" v="Bakke" />
		<tag k="place" v="farm" />
		<tag k="ssr:stedsnr" v="451837" />
	</node>
	<node lat="59.434663278075014" lon="9.975806752696606" id="-25125">
		<tag k="name" v="Ingersvingen" />
		<tag k="place" v="isolated_dwelling" />
		<tag k="ssr:stedsnr" v="451845" />
	</node>
	<node lat="59.4419750008872" lon="9.943930562719942" id="-25127">
		<tag k="name" v="Kippa" />
		<tag k="place" v="locality" />
		<tag k="ssr:stedsnr" v="451859" />
	</node>
	<node lat="59.45632216803276" lon="10.033438473560233" id="-25128">
		<tag k="alt_name" v="Nordby s." />
		<tag k="fixme" v="consider place=hamlet" />
		<tag k="name" v="Søndre Nordby" />
		<tag k="place" v="farm" />
		<tag k="ssr:stedsnr" v="451861" />
	</node>
	<node lat="58.993174033118954" lon="9.889974957044535" id="-25129">
		<tag k="alt_name" v="Jønni" />
		<tag k="fixme" v="consider place=hamlet" />
		<tag k="name" v="Jønne" />
		<tag k="place" v="farm" />
		<tag k="ssr:stedsnr" v="243608" />
	</node>
	<node lat="59.07609999662767" lon="10.062322221679212" id="-25133">
		<tag k="name" v="Stubberød" />
		<tag k="place" v="farm" />
		<tag k="ssr:stedsnr" v="452025" />
	</node>
	<node lat="59.136175004186946" lon="10.049924998756167" id="-25140">
		<tag k="alt_name" v="Lauve, nordre;Lauve" />
		<tag k="name" v="Nordre Lauve" />
		<tag k="place" v="farm" />
		<tag k="ssr:stedsnr" v="244035" />
	</node>
	<node lat="59.134952782254345" lon="10.118302769800493" id="-25141">
		<tag k="name" v="Kjønnerød" />
		<tag k="place" v="farm" />
		<tag k="ssr:stedsnr" v="244044" />
	</node>
	<node lat="59.091505556541904" lon="10.066208326818789" id="-25152">
		<tag k="alt_name" v="Broen" />
		<tag k="name" v="Brua" />
		<tag k="place" v="farm" />
		<tag k="ssr:stedsnr" v="244108" />
	</node>
	<node lat="59.09182500238497" lon="10.125355548486768" id="-25153">
		<tag k="alt_name" v="Lindhjem nedre" />
		<tag k="name" v="Lingum" />
		<tag k="place" v="farm" />
		<tag k="ssr:stedsnr" v="244110" />
	</node>
	<node lat="59.043188892446636" lon="10.085513896567248" id="-25155">
		<tag k="name" v="Sjølyst" />
		<tag k="place" v="farm" />
		<tag k="ssr:stedsnr" v="244203" />
	</node>
	<node lat="59.18278437877336" lon="10.013207025032338" id="-25157">
		<tag k="alt_name" v="Bergan, øvre" />
		<tag k="fixme" v="consider place=hamlet" />
		<tag k="name" v="Øvre Bergan" />
		<tag k="place" v="farm" />
		<tag k="ssr:stedsnr" v="244209" />
	</node>
	<node lat="59.09868889172923" lon="9.92815555902975" id="-25160">
		<tag k="name" v="Tyskhusbakken" />
		<tag k="place" v="farm" />
		<tag k="ssr:stedsnr" v="244381" />
	</node>
	<node lat="59.04008888581558" lon="9.913016663953197" id="-25161">
		<tag k="name" v="Hallesætra" />
		<tag k="old_name" v="Hallesæter" />
		<tag k="place" v="isolated_dwelling" />
		<tag k="ssr:stedsnr" v="244509" />
	</node>
	<node lat="59.03452500363626" lon="9.82946111526839" id="-25167">
		<tag k="name" v="Bua" />
		<tag k="place" v="farm" />
		<tag k="ssr:stedsnr" v="244483" />
	</node>
	<node lat="59.03647777473305" lon="9.84005000602168" id="-25168">
		<tag k="alt_name" v="Sildevik" />
		<tag k="name" v="Sildevika" />
		<tag k="place" v="isolated_dwelling" />
		<tag k="ssr:stedsnr" v="244485" />
	</node>
	<node lat="59.24492499714011" lon="9.90729444971014" id="-25171">
		<tag k="historic" v="shieling" />
		<tag k="name" v="Søndre Odbergsetra" />
		<tag k="place" v="isolated_dwelling" />
		<tag k="ssr:stedsnr" v="452053" />
	</node>
	<node lat="59.02152777976573" lon="10.132436106393664" id="-25176">
		<tag k="name" v="Hågarønningen" />
		<tag k="place" v="locality" />
		<tag k="ssr:stedsnr" v="452096" />
	</node>
	<node lat="59.01744166772036" lon="10.132272216806895" id="-25177">
		<tag k="name" v="Vesta" />
		<tag k="place" v="farm" />
		<tag k="ssr:stedsnr" v="452097" />
	</node>
	<node lat="59.30483888673528" lon="9.86108054992987" id="-25178">
		<tag k="name" v="Engrønningen" />
		<tag k="place" v="farm" />
		<tag k="ssr:stedsnr" v="452098" />
	</node>
	<node lat="59.02037056120648" lon="10.140952345418583" id="-25179">
		<tag k="alt_name" v="Nordre Eftang;Mellem Eftang" />
		<tag k="fixme" v="consider place=hamlet" />
		<tag k="name" v="Mellem Eftang" />
		<tag k="place" v="farm" />
		<tag k="ssr:stedsnr" v="452100" />
	</node>
	<node lat="59.31817777503002" lon="9.889972228850887" id="-25183">
		<tag k="name" v="Laksrønningen" />
		<tag k="place" v="farm" />
		<tag k="ssr:stedsnr" v="452111" />
	</node>
	<node lat="59.29310833218834" lon="9.870733325104377" id="-25186">
		<tag k="name" v="Enga" />
		<tag k="place" v="locality" />
		<tag k="ssr:stedsnr" v="452131" />
	</node>
	<node lat="59.3020861090662" lon="9.860905549269981" id="-25187">
		<tag k="name" v="Missunt" />
		<tag k="place" v="farm" />
		<tag k="ssr:stedsnr" v="452135" />
	</node>
	<node lat="59.37396388450551" lon="9.923572223280978" id="-25189">
		<tag k="name" v="Sagrummet" />
		<tag k="place" v="farm" />
		<tag k="ssr:stedsnr" v="452144" />
	</node>
	<node lat="59.35891388474626" lon="9.926997213404725" id="-25190">
		<tag k="name" v="Neset" />
		<tag k="place" v="locality" />
		<tag k="ssr:stedsnr" v="452147" />
	</node>
	<node lat="59.39879799703717" lon="9.94383185154492" id="-25199">
		<tag k="fixme" v="consider place=hamlet" />
		<tag k="name" v="Åkre" />
		<tag k="place" v="farm" />
		<tag k="ssr:stedsnr" v="245302" />
	</node>
	<node lat="59.31789999838266" lon="9.946352784778572" id="-25203">
		<tag k="alt_name" v="Vierødsæter" />
		<tag k="name" v="Vierødseter" />
		<tag k="place" v="isolated_dwelling" />
		<tag k="ssr:stedsnr" v="245415" />
	</node>
	<node lat="59.01110833498076" lon="9.789952778828518" id="-25205">
		<tag k="name" v="Melkeplassen" />
		<tag k="place" v="isolated_dwelling" />
		<tag k="ssr:stedsnr" v="452341" />
	</node>
	<node lat="59.03040555561001" lon="10.081566674940333" id="-25220">
		<tag k="name" v="Uglesåsen" />
		<tag k="place" v="quarter" />
		<tag k="ssr:stedsnr" v="452454" />
	</node>
	<node lat="59.00773611136409" lon="10.034500006541688" id="-25223">
		<tag k="name" v="Agnes" />
		<tag k="place" v="locality" />
		<tag k="ssr:stedsnr" v="452517" />
	</node>
	<node lat="58.992852780639566" lon="10.023200004737294" id="-25224">
		<tag k="amenity" v="school" />
		<tag k="name" v="Fredtun folkehøgskole" />
		<tag k="ssr:stedsnr" v="452525" />
	</node>
	<node lat="58.99737777952251" lon="9.971005560746859" id="-25225">
		<tag k="name" v="Foldvik" />
		<tag k="place" v="farm" />
		<tag k="ssr:stedsnr" v="452528" />
	</node>
	<node lat="59.03627777530494" lon="10.174647226672626" id="-25228">
		<tag k="name" v="Ødegården" />
		<tag k="place" v="farm" />
		<tag k="ssr:stedsnr" v="452642" />
	</node>
	<node lat="59.11998055363972" lon="10.12811388656012" id="-25232">
		<tag k="name" v="Skinnmo" />
		<tag k="place" v="farm" />
		<tag k="ssr:stedsnr" v="452656" />
	</node>
	<node lat="59.185330876306125" lon="10.078507010876498" id="-25238">
		<tag k="fixme" v="consider place=hamlet" />
		<tag k="name" v="Fjære" />
		<tag k="place" v="farm" />
		<tag k="ssr:stedsnr" v="452825" />
	</node>
	<node lat="59.13142500335226" lon="10.098802778186958" id="-25241">
		<tag k="name" v="Ulverød" />
		<tag k="place" v="farm" />
		<tag k="ssr:stedsnr" v="452841" />
	</node>
	<node lat="59.04965225309288" lon="10.147096443964367" id="-25258">
		<tag k="alt_name" v="Vik nedre" />
		<tag k="fixme" v="consider place=hamlet" />
		<tag k="name" v="Østre Vik" />
		<tag k="place" v="farm" />
		<tag k="ssr:stedsnr" v="453155" />
	</node>
	<node lat="58.96554444023222" lon="9.856652771369316" id="-25261">
		<tag k="name" v="Vollen" />
		<tag k="place" v="farm" />
		<tag k="ssr:stedsnr" v="268293" />
	</node>
	<node lat="59.44634999910489" lon="9.992147227266557" id="-25269">
		<tag k="name" v="Styrmo" />
		<tag k="place" v="farm" />
		<tag k="ssr:stedsnr" v="269876" />
	</node>
	<node lat="59.46401944868027" lon="10.029213888164431" id="-25270">
		<tag k="name" v="Gulli" />
		<tag k="place" v="locality" />
		<tag k="ssr:stedsnr" v="269877" />
	</node>
	<node lat="59.052258336385385" lon="10.103638891200363" id="-25285">
		<tag k="name" v="Tomta" />
		<tag k="place" v="locality" />
		<tag k="ssr:stedsnr" v="270227" />
	</node>
	<node lat="59.30821666664204" lon="9.860486117670401" id="-25289">
		<tag k="name" v="Stigen" />
		<tag k="place" v="isolated_dwelling" />
		<tag k="ssr:stedsnr" v="270102" />
	</node>
	<node lat="59.02243888949478" lon="10.129086117701046" id="-25290">
		<tag k="name" v="Kåvan" />
		<tag k="place" v="isolated_dwelling" />
		<tag k="ssr:stedsnr" v="270104" />
	</node>
	<node lat="59.04858611290784" lon="10.009425005218217" id="-25291">
		<tag k="name" v="Rosendal" />
		<tag k="place" v="isolated_dwelling" />
		<tag k="ssr:stedsnr" v="270105" />
	</node>
	<node lat="59.10334444356343" lon="10.113000002721433" id="-25303">
		<tag k="amenity" v="school" />
		<tag k="name" v="Rødbøl skole" />
		<tag k="ssr:stedsnr" v="270181" />
	</node>
	<node lat="59.027358336544914" lon="9.957999995178264" id="-25310">
		<tag k="name" v="Løkka" />
		<tag k="place" v="isolated_dwelling" />
		<tag k="ssr:stedsnr" v="270483" />
	</node>
	<node lat="59.00483055883085" lon="9.942791666288603" id="-25311">
		<tag k="name" v="Aske" />
		<tag k="place" v="farm" />
		<tag k="ssr:stedsnr" v="270490" />
	</node>
	<node lat="59.0127000021149" lon="9.976741660285414" id="-25313">
		<tag k="name" v="Solhagen" />
		<tag k="place" v="farm" />
		<tag k="ssr:stedsnr" v="270499" />
	</node>
	<node lat="59.08316111203226" lon="10.162641672514086" id="-25322">
		<tag k="name" v="Tufte" />
		<tag k="place" v="farm" />
		<tag k="ssr:stedsnr" v="270525" />
	</node>
	<node lat="59.0536138897668" lon="10.211144451694423" id="-25324">
		<tag k="name" v="Holtansvingen" />
		<tag k="place" v="locality" />
		<tag k="ssr:stedsnr" v="270594" />
	</node>
	<node lat="59.212402776359966" lon="9.940527780614445" id="-25336">
		<tag k="historic" v="shieling" />
		<tag k="name" v="Furulund nordre seter" />
		<tag k="place" v="isolated_dwelling" />
		<tag k="ssr:stedsnr" v="270776" />
	</node>
	<node lat="59.16991111257048" lon="10.106077772491025" id="-25338">
		<tag k="name" v="Åsly" />
		<tag k="place" v="farm" />
		<tag k="ssr:stedsnr" v="270781" />
	</node>
	<node lat="59.06094999605806" lon="10.18351110240984" id="-25343">
		<tag k="name" v="Mariberget" />
		<tag k="place" v="farm" />
		<tag k="ssr:stedsnr" v="270913" />
	</node>
	<node lat="59.35778611501026" lon="10.030630548191244" id="-25351">
		<tag k="fixme" v="consider tourism=alpine_hut or tourism=chalet" />
		<tag k="name" v="Trollsvannstua" />
		<tag k="ssr:stedsnr" v="283778" />
		<tag k="tourism" v="wilderness_hut" />
	</node>
	<node lat="59.043861108364354" lon="10.050749992861649" id="-25361">
		<tag k="name" v="Torstrand" />
		<tag k="place" v="suburb" />
		<tag k="ssr:stedsnr" v="304176" />
	</node>
	<node lat="58.980569288133246" lon="9.871967261997792" id="-25363">
		<tag k="alt_name" v="Ommundrød" />
		<tag k="fixme" v="consider place=hamlet" />
		<tag k="name" v="Amundrød" />
		<tag k="place" v="farm" />
		<tag k="ssr:stedsnr" v="304611" />
	</node>
	<node lat="59.08313189408073" lon="10.141432115234224" id="-25365">
		<tag k="alt_name" v="Skåra vestre" />
		<tag k="name" v="Skåra" />
		<tag k="place" v="hamlet" />
		<tag k="ssr:stedsnr" v="305113" />
	</node>
	<node lat="59.08045833468813" lon="10.029799997439811" id="-25366">
		<tag k="name" v="Dammen" />
		<tag k="place" v="farm" />
		<tag k="ssr:stedsnr" v="305119" />
	</node>
	<node lat="59.07423376457905" lon="10.181038711701898" id="-25367">
		<tag k="alt_name" v="Skallist" />
		<tag k="fixme" v="consider place=hamlet" />
		<tag k="name" v="Nordre Skallist" />
		<tag k="place" v="farm" />
		<tag k="ssr:stedsnr" v="305125" />
	</node>
	<node lat="58.97193215712018" lon="9.941036995949897" id="-25368">
		<tag k="fixme" v="consider place=hamlet" />
		<tag k="name" v="Tanger" />
		<tag k="place" v="farm" />
		<tag k="ssr:stedsnr" v="304888" />
	</node>
	<node lat="59.133925003078915" lon="10.017352772754299" id="-25369">
		<tag k="fixme" v="consider tourism=alpine_hut or tourism=chalet" />
		<tag k="name" v="Lauvesetra" />
		<tag k="ssr:stedsnr" v="305020" />
		<tag k="tourism" v="wilderness_hut" />
	</node>
	<node lat="59.03491670380069" lon="10.054405233556619" id="-25370">
		<tag k="fixme" v="consider place=hamlet" />
		<tag k="name" v="Steinsnes" />
		<tag k="place" v="farm" />
		<tag k="ssr:stedsnr" v="305206" />
	</node>
	<node lat="59.38883055760524" lon="9.804888895277994" id="-25371">
		<tag k="name" v="Florestua" />
		<tag k="place" v="isolated_dwelling" />
		<tag k="ssr:stedsnr" v="305302" />
	</node>
	<node lat="59.00535752065375" lon="9.910013412808263" id="-25372">
		<tag k="alt_name" v="Haugane" />
		<tag k="fixme" v="consider place=hamlet" />
		<tag k="loc_name" v="Hauane" />
		<tag k="name" v="Haugene" />
		<tag k="place" v="farm" />
		<tag k="ssr:stedsnr" v="305318" />
	</node>
	<node lat="59.03081944284251" lon="9.856741662626792" id="-25373">
		<tag k="alt_name" v="Tveidalen" />
		<tag k="name" v="Tvedalen" />
		<tag k="place" v="hamlet" />
		<tag k="ssr:stedsnr" v="305504" />
	</node>
	<node lat="59.28645214334301" lon="9.917840422624092" id="-25374">
		<tag k="fixme" v="consider place=hamlet" />
		<tag k="name" v="Virgenes" />
		<tag k="place" v="farm" />
		<tag k="ssr:stedsnr" v="305513" />
	</node>
	<node lat="59.30231111227056" lon="9.949288889584238" id="-25376">
		<tag k="alt_name" v="Holt Nordre" />
		<tag k="name" v="Holt" />
		<tag k="place" v="farm" />
		<tag k="ssr:stedsnr" v="305416" />
	</node>
	<node lat="59.29990000100221" lon="9.807777781394847" id="-25377">
		<tag k="alt_name" v="Mellemgårdsetra" />
		<tag k="historic" v="shieling" />
		<tag k="name" v="Mellemgardsetra" />
		<tag k="place" v="isolated_dwelling" />
		<tag k="ssr:stedsnr" v="305423" />
	</node>
	<node lat="59.31334999674427" lon="9.856683341788194" id="-25379">
		<tag k="name" v="Stamparhaugen" />
		<tag k="place" v="isolated_dwelling" />
		<tag k="ssr:stedsnr" v="305449" />
	</node>
	<node lat="59.27095555127636" lon="9.931169435955566" id="-25380">
		<tag k="name" v="Rien" />
		<tag k="place" v="farm" />
		<tag k="ssr:stedsnr" v="305474" />
	</node>
	<node lat="59.454288891455995" lon="9.972016670056535" id="-25383">
		<tag k="alt_name" v="Styrmoseter" />
		<tag k="name" v="Styrmosetra" />
		<tag k="place" v="isolated_dwelling" />
		<tag k="ssr:stedsnr" v="306113" />
	</node>
	<node lat="59.25991345357811" lon="9.928061858866792" id="-25390">
		<tag k="name" v="Odberg" />
		<tag k="place" v="hamlet" />
		<tag k="ssr:stedsnr" v="313661" />
	</node>
	<node lat="58.99556388544062" lon="9.972008330533045" id="-25395">
		<tag k="alt_name" v="Foldvik" />
		<tag k="name" v="Foldvik østre" />
		<tag k="place" v="farm" />
		<tag k="ssr:stedsnr" v="329918" />
	</node>
	<node lat="59.04731111351631" lon="10.053980556960228" id="-25408">
		<tag k="name" v="Furuholt" />
		<tag k="place" v="quarter" />
		<tag k="ssr:stedsnr" v="330254" />
	</node>
	<node lat="59.0263122091394" lon="10.1450556298567" id="-25413">
		<tag k="fixme" v="consider place=hamlet" />
		<tag k="name" v="Fristad" />
		<tag k="place" v="farm" />
		<tag k="ssr:stedsnr" v="330159" />
	</node>
	<node lat="59.02740555832824" lon="10.149269445116127" id="-25414">
		<tag k="name" v="Torsøy" />
		<tag k="place" v="farm" />
		<tag k="ssr:stedsnr" v="330161" />
	</node>
	<node lat="59.437472221314884" lon="10.026647219879914" id="-25438">
		<tag k="name" v="Haugen" />
		<tag k="place" v="locality" />
		<tag k="ssr:stedsnr" v="330871" />
	</node>
	<node lat="59.28722777635915" lon="9.892333331814005" id="-25441">
		<tag k="name" v="Bergan" />
		<tag k="place" v="farm" />
		<tag k="ssr:stedsnr" v="331002" />
	</node>
	<node lat="59.03036110839855" lon="9.843194446243801" id="-25467">
		<tag k="name" v="Tveitdalen" />
		<tag k="place" v="farm" />
		<tag k="ssr:stedsnr" v="359319" />
	</node>
	<node lat="59.1259861074973" lon="10.062844440817017" id="-25468">
		<tag k="name" v="Nedre Bergan" />
		<tag k="place" v="farm" />
		<tag k="ssr:stedsnr" v="365046" />
	</node>
	<node lat="59.03931110830192" lon="10.018708324960743" id="-25471">
		<tag k="name" v="Tenvik" />
		<tag k="place" v="village" />
		<tag k="ssr:stedsnr" v="365204" />
	</node>
	<node lat="59.006138884906115" lon="10.027163889713087" id="-25472">
		<tag k="name" v="Solstad" />
		<tag k="place" v="village" />
		<tag k="ssr:stedsnr" v="365254" />
	</node>
	<node lat="59.00270255583925" lon="9.928617107901621" id="-25473">
		<tag k="fixme" v="consider place=hamlet" />
		<tag k="name" v="Lund" />
		<tag k="place" v="farm" />
		<tag k="ssr:stedsnr" v="365295" />
	</node>
	<node lat="59.108689085731385" lon="9.910740501780028" id="-25474">
		<tag k="fixme" v="consider place=hamlet" />
		<tag k="name" v="Kroken" />
		<tag k="place" v="farm" />
		<tag k="ssr:stedsnr" v="365404" />
	</node>
	<node lat="59.11079167048259" lon="9.893191671141096" id="-25475">
		<tag k="name" v="Dammen" />
		<tag k="place" v="farm" />
		<tag k="ssr:stedsnr" v="365405" />
	</node>
	<node lat="58.99640044449147" lon="9.905163908722894" id="-25477">
		<tag k="alt_name" v="Ekevall" />
		<tag k="fixme" v="consider place=hamlet" />
		<tag k="name" v="Eikevall" />
		<tag k="place" v="farm" />
		<tag k="ssr:stedsnr" v="365599" />
	</node>
	<node lat="59.354897218814855" lon="10.00915278207752" id="-25481">
		<tag k="name" v="Trettemyrhytta" />
		<tag k="place" v="isolated_dwelling" />
		<tag k="ssr:stedsnr" v="366209" />
	</node>
	<node lat="59.16166087952705" lon="10.087720828124565" id="-25482">
		<tag k="fixme" v="consider place=hamlet" />
		<tag k="name" v="Skaret" />
		<tag k="place" v="farm" />
		<tag k="ssr:stedsnr" v="366215" />
	</node>
	<node lat="59.08017725847685" lon="10.11856717522599" id="-25484">
		<tag k="alt_name" v="Håkestad østre" />
		<tag k="fixme" v="consider place=hamlet" />
		<tag k="name" v="Håkestad" />
		<tag k="place" v="farm" />
		<tag k="ssr:stedsnr" v="366306" />
	</node>
	<node lat="59.40760277331414" lon="9.873013896149077" id="-25486">
		<tag k="name" v="Tallakstad" />
		<tag k="place" v="farm" />
		<tag k="ssr:stedsnr" v="366310" />
	</node>
	<node lat="59.3254722263569" lon="9.906175005572067" id="-25488">
		<tag k="alt_name" v="Sæterløkka" />
		<tag k="name" v="Seterløkka" />
		<tag k="place" v="farm" />
		<tag k="ssr:stedsnr" v="366325" />
	</node>
	<node lat="59.398000003393996" lon="9.961591674730023" id="-25489">
		<tag k="name" v="Brenthaug" />
		<tag k="place" v="farm" />
		<tag k="ssr:stedsnr" v="366282" />
	</node>
	<node lat="59.2993444449839" lon="9.941199998093381" id="-25490">
		<tag k="name" v="Grimholt" />
		<tag k="place" v="farm" />
		<tag k="ssr:stedsnr" v="366407" />
	</node>
	<node lat="59.04461110818562" lon="9.871969449375747" id="-25492">
		<tag k="name" v="Bakken" />
		<tag k="place" v="farm" />
		<tag k="ssr:stedsnr" v="366499" />
	</node>
	<node lat="59.30269166607225" lon="9.976311114196989" id="-25495">
		<tag k="historic" v="shieling" />
		<tag k="name" v="Søndre Holtsetra" />
		<tag k="place" v="isolated_dwelling" />
		<tag k="ssr:stedsnr" v="367814" />
	</node>
	<node lat="59.26459999792199" lon="9.938150001665472" id="-25505">
		<tag k="name" v="Vestre Hvarnes" />
		<tag k="place" v="farm" />
		<tag k="ssr:stedsnr" v="390614" />
	</node>
	<node lat="59.44207777813536" lon="9.950405553357239" id="-25507">
		<tag k="historic" v="shieling" />
		<tag k="name" v="Kråkemosetra" />
		<tag k="place" v="isolated_dwelling" />
		<tag k="ssr:stedsnr" v="390846" />
	</node>
	<node lat="59.07679697480686" lon="10.047192016095662" id="-25512">
		<tag k="name" v="Haga" />
		<tag k="place" v="farm" />
		<tag k="ssr:stedsnr" v="391033" />
	</node>
	<node lat="59.07610131945637" lon="10.068521075583737" id="-25515">
		<tag k="fixme" v="consider place=hamlet" />
		<tag k="name" v="Tinghaugen" />
		<tag k="place" v="farm" />
		<tag k="ssr:stedsnr" v="391037" />
	</node>
	<node lat="59.0709583296877" lon="10.093611113593315" id="-25517">
		<tag k="name" v="Ospehaugen" />
		<tag k="place" v="farm" />
		<tag k="ssr:stedsnr" v="391041" />
	</node>
	<node lat="59.04671944036188" lon="10.002500000895528" id="-25521">
		<tag k="leisure" v="park" />
		<tag k="name" v="Fritzøehus park" />
		<tag k="ssr:stedsnr" v="391104" />
	</node>
	<node lat="59.30525555156932" lon="9.881608337029009" id="-25525">
		<tag k="name" v="Biringstad" />
		<tag k="place" v="farm" />
		<tag k="ssr:stedsnr" v="391143" />
	</node>
	<node lat="59.06203953195789" lon="10.147336692583254" id="-25530">
		<tag k="name" v="Løvdal" />
		<tag k="place" v="farm" />
		<tag k="ssr:stedsnr" v="391198" />
	</node>
	<node lat="59.31582222658413" lon="9.87340834190637" id="-25533">
		<tag k="name" v="Tuvrønningen" />
		<tag k="place" v="farm" />
		<tag k="ssr:stedsnr" v="391084" />
	</node>
	<node lat="59.33932500017021" lon="9.905947230740711" id="-25538">
		<tag k="name" v="Sverige" />
		<tag k="place" v="locality" />
		<tag k="ssr:stedsnr" v="391208" />
	</node>
	<node lat="59.03164447043362" lon="9.873894341779042" id="-25548">
		<tag k="name" v="Tvedalen" />
		<tag k="place" v="farm" />
		<tag k="ssr:stedsnr" v="391437" />
	</node>
	<node lat="58.98466389340165" lon="9.843994440790258" id="-25550">
		<tag k="name" v="Omlidstranda camping" />
		<tag k="ssr:stedsnr" v="391383" />
		<tag k="tourism" v="camp_site" />
	</node>
	<node lat="59.02598610860767" lon="9.977277778887338" id="-25552">
		<tag k="amenity" v="school" />
		<tag k="name" v="Tanum skole" />
		<tag k="ssr:stedsnr" v="391502" />
	</node>
	<node lat="59.0109999992798" lon="9.971913885711011" id="-25554">
		<tag k="name" v="Lindhjem" />
		<tag k="place" v="farm" />
		<tag k="ssr:stedsnr" v="391536" />
	</node>
	<node lat="59.100574998190375" lon="10.037658326287865" id="-25555">
		<tag k="name" v="Hafallen nedre" />
		<tag k="place" v="farm" />
		<tag k="ssr:stedsnr" v="391592" />
	</node>
	<node lat="58.971058337501375" lon="9.94175554897599" id="-25559">
		<tag k="name" v="Tanggård" />
		<tag k="place" v="farm" />
		<tag k="ssr:stedsnr" v="391493" />
	</node>
	<node lat="59.09058888501443" lon="10.175216662168959" id="-25560">
		<tag k="name" v="Hybbestad nordre" />
		<tag k="place" v="farm" />
		<tag k="ssr:stedsnr" v="391602" />
	</node>
	<node lat="59.04548611011745" lon="10.1732194511759" id="-25561">
		<tag k="name" v="Trassholmen" />
		<tag k="place" v="locality" />
		<tag k="ssr:stedsnr" v="391641" />
	</node>
	<node lat="59.07364444591637" lon="10.183869447320262" id="-25571">
		<tag k="name" v="Syrristmølla" />
		<tag k="place" v="locality" />
		<tag k="ssr:stedsnr" v="391940" />
	</node>
	<node lat="59.06409166509544" lon="10.178047221612983" id="-25574">
		<tag k="name" v="Vesterås" />
		<tag k="place" v="farm" />
		<tag k="ssr:stedsnr" v="391947" />
	</node>
	<node lat="59.07791666906752" lon="10.060838889716957" id="-25577">
		<tag k="name" v="Nordby industriområde" />
		<tag k="place" v="quarter" />
		<tag k="ssr:stedsnr" v="391899" />
	</node>
	<node lat="59.050833332333035" lon="10.02222221394527" id="-25580">
		<tag k="name" v="Sanden" />
		<tag k="place" v="suburb" />
		<tag k="ssr:stedsnr" v="404106" />
	</node>
	<node lat="59.04944444856386" lon="10.020833326211552" id="-25581">
		<tag k="name" v="Batteritomta" />
		<tag k="place" v="suburb" />
		<tag k="ssr:stedsnr" v="404114" />
	</node>
	<node lat="59.0820138918269" lon="9.97728889382887" id="-25583">
		<tag k="name" v="Askedalen" />
		<tag k="place" v="farm" />
		<tag k="ssr:stedsnr" v="486085" />
	</node>
	<node lat="59.082998474485734" lon="10.079720957933889" id="-25584">
		<tag k="fixme" v="consider place=hamlet" />
		<tag k="name" v="Roligheten" />
		<tag k="place" v="farm" />
		<tag k="ssr:stedsnr" v="486090" />
	</node>
	<node lat="59.18160000254874" lon="10.074349998447158" id="-25586">
		<tag k="name" v="Fjære" />
		<tag k="place" v="farm" />
		<tag k="ssr:stedsnr" v="486170" />
	</node>
	<node lat="59.2130749995119" lon="10.059413886971251" id="-25587">
		<tag k="alt_name" v="Engene" />
		<tag k="name" v="Engane" />
		<tag k="place" v="farm" />
		<tag k="ssr:stedsnr" v="486372" />
	</node>
	<node lat="59.02852500270018" lon="9.958494437114151" id="-25588">
		<tag k="name" v="Steinsholt" />
		<tag k="place" v="farm" />
		<tag k="ssr:stedsnr" v="486286" />
	</node>
	<node lat="59.066522223149384" lon="9.870641662754455" id="-25589">
		<tag k="name" v="Elva" />
		<tag k="place" v="isolated_dwelling" />
		<tag k="ssr:stedsnr" v="486475" />
	</node>
	<node lat="59.43475299720327" lon="9.98556422981602" id="-25590">
		<tag k="alt_name" v="Lindsholm N.;Lindsholm" />
		<tag k="fixme" v="consider place=hamlet" />
		<tag k="name" v="Øvre Lindsholm" />
		<tag k="place" v="farm" />
		<tag k="ssr:stedsnr" v="487074" />
	</node>
	<node lat="58.976863886413234" lon="10.001575007651015" id="-25592">
		<tag k="name" v="Røvik" />
		<tag k="place" v="farm" />
		<tag k="ssr:stedsnr" v="486980" />
	</node>
	<node lat="58.98558950628162" lon="9.99893268680127" id="-25594">
		<tag k="name" v="Rugland" />
		<tag k="place" v="hamlet" />
		<tag k="ssr:stedsnr" v="486990" />
	</node>
	<node lat="59.075219684066774" lon="10.144872217088533" id="-25595">
		<tag k="fixme" v="consider place=hamlet" />
		<tag k="name" v="Slottet" />
		<tag k="place" v="farm" />
		<tag k="ssr:stedsnr" v="487117" />
	</node>
	<node lat="59.25307777496023" lon="9.957700006361819" id="-25596">
		<tag k="name" v="Vestistua" />
		<tag k="place" v="farm" />
		<tag k="ssr:stedsnr" v="487036" />
	</node>
	<node lat="59.11376666926016" lon="10.072238882458985" id="-25598">
		<tag k="name" v="Ødegården" />
		<tag k="place" v="farm" />
		<tag k="ssr:stedsnr" v="487043" />
	</node>
	<node lat="59.174838892054105" lon="10.023149994619748" id="-25599">
		<tag k="name" v="Haugland" />
		<tag k="place" v="farm" />
		<tag k="ssr:stedsnr" v="487198" />
	</node>
	<node lat="59.07994720718676" lon="10.06763324543075" id="-25600">
		<tag k="name" v="Stubberød" />
		<tag k="place" v="hamlet" />
		<tag k="ssr:stedsnr" v="487125" />
	</node>
	<node lat="59.07825832945534" lon="10.123950006441433" id="-25601">
		<tag k="name" v="Kjær" />
		<tag k="place" v="farm" />
		<tag k="ssr:stedsnr" v="487128" />
	</node>
	<node lat="59.01942934994773" lon="10.139364014829512" id="-25604">
		<tag k="alt_name" v="Eftang" />
		<tag k="fixme" v="consider place=hamlet" />
		<tag k="name" v="Søndre Eftang" />
		<tag k="place" v="farm" />
		<tag k="ssr:stedsnr" v="487241" />
	</node>
	<node lat="59.02489430998498" lon="9.925852461953792" id="-25605">
		<tag k="fixme" v="consider place=hamlet" />
		<tag k="name" v="Solberg" />
		<tag k="place" v="farm" />
		<tag k="ssr:stedsnr" v="487284" />
	</node>
	<node lat="59.23840277934235" lon="9.97574999371319" id="-25609">
		<tag k="name" v="Langdalen" />
		<tag k="place" v="farm" />
		<tag k="ssr:stedsnr" v="487347" />
	</node>
	<node lat="59.31370000214575" lon="9.966413885092233" id="-25614">
		<tag k="name" v="Bukta" />
		<tag k="place" v="farm" />
		<tag k="ssr:stedsnr" v="487447" />
	</node>
	<node lat="59.28467543079803" lon="9.948212233170883" id="-25615">
		<tag k="fixme" v="consider place=hamlet" />
		<tag k="name" v="Skåtan" />
		<tag k="place" v="farm" />
		<tag k="ssr:stedsnr" v="487520" />
	</node>
	<node lat="59.16029875971225" lon="9.905639523439143" id="-25617">
		<tag k="name" v="Lauvvik" />
		<tag k="place" v="farm" />
		<tag k="ssr:stedsnr" v="487568" />
	</node>
	<node lat="59.054535969432784" lon="9.938136648876064" id="-25620">
		<tag k="fixme" v="consider tourism=alpine_hut or tourism=chalet" />
		<tag k="name" v="Eikedalen" />
		<tag k="ssr:stedsnr" v="487538" />
		<tag k="tourism" v="wilderness_hut" />
	</node>
	<node lat="59.440061113829756" lon="9.883072223278527" id="-25621">
		<tag k="name" v="Torsås" />
		<tag k="place" v="farm" />
		<tag k="ssr:stedsnr" v="487545" />
	</node>
	<node lat="59.19617778095312" lon="9.935683325038006" id="-25624">
		<tag k="name" v="Slettsjø" />
		<tag k="place" v="isolated_dwelling" />
		<tag k="ssr:stedsnr" v="487746" />
	</node>
	<node lat="59.403625001859155" lon="9.791824997926147" id="-25628">
		<tag k="name" v="Skibberdalsetra" />
		<tag k="place" v="isolated_dwelling" />
		<tag k="ssr:stedsnr" v="488265" />
	</node>
	<node lat="59.404186111731974" lon="9.946991666988485" id="-25629">
		<tag k="alt_name" v="Engen" />
		<tag k="name" v="Enga" />
		<tag k="place" v="farm" />
		<tag k="ssr:stedsnr" v="488284" />
	</node>
	<node lat="59.40948081585717" lon="9.922295114992796" id="-25630">
		<tag k="fixme" v="consider place=hamlet" />
		<tag k="name" v="Skau" />
		<tag k="place" v="farm" />
		<tag k="ssr:stedsnr" v="488527" />
	</node>
	<node lat="59.4153789464394" lon="9.892894028245298" id="-25632">
		<tag k="fixme" v="consider place=hamlet" />
		<tag k="name" v="Vergedal" />
		<tag k="place" v="farm" />
		<tag k="ssr:stedsnr" v="488533" />
	</node>
	<node lat="59.46627867184458" lon="9.818300360541702" id="-25633">
		<tag k="alt_name" v="Løver" />
		<tag k="name" v="Lauvar" />
		<tag k="place" v="farm" />
		<tag k="ssr:stedsnr" v="488582" />
	</node>
	<node lat="59.46193611067587" lon="9.947636102348017" id="-25634">
		<tag k="historic" v="shieling" />
		<tag k="name" v="Asmyrsetra" />
		<tag k="place" v="isolated_dwelling" />
		<tag k="ssr:stedsnr" v="488588" />
	</node>
	<node lat="59.31354278465522" lon="9.979591179144823" id="-25637">
		<tag k="fixme" v="consider place=hamlet" />
		<tag k="name" v="Støvland" />
		<tag k="place" v="farm" />
		<tag k="ssr:stedsnr" v="488791" />
	</node>
	<node lat="59.09687188188053" lon="10.064096163182594" id="-25643">
		<tag k="fixme" v="consider place=hamlet" />
		<tag k="name" v="Reinemo" />
		<tag k="place" v="farm" />
		<tag k="ssr:stedsnr" v="426102" />
	</node>
	<node lat="59.080836110647475" lon="9.97031111626137" id="-25645">
		<tag k="name" v="Storrønningen" />
		<tag k="place" v="farm" />
		<tag k="ssr:stedsnr" v="426115" />
	</node>
	<node lat="59.041073605673944" lon="10.0857606082217" id="-25646">
		<tag k="fixme" v="consider place=hamlet" />
		<tag k="name" v="Grøtting" />
		<tag k="place" v="farm" />
		<tag k="ssr:stedsnr" v="426194" />
	</node>
	<node lat="59.00976766171972" lon="9.940827283058088" id="-25649">
		<tag k="name" v="Gui" />
		<tag k="place" v="hamlet" />
		<tag k="ssr:stedsnr" v="426300" />
	</node>
	<node lat="59.438638091316356" lon="10.027172653085337" id="-25660">
		<tag k="fixme" v="consider place=hamlet" />
		<tag k="name" v="Undersvål" />
		<tag k="place" v="farm" />
		<tag k="ssr:stedsnr" v="427097" />
	</node>
	<node lat="59.41942500362392" lon="9.992636113277944" id="-25662">
		<tag k="name" v="Pinnestad" />
		<tag k="place" v="farm" />
		<tag k="ssr:stedsnr" v="427197" />
	</node>
	<node lat="59.393525001492904" lon="9.862350001162447" id="-25664">
		<tag k="name" v="Holedalstua" />
		<tag k="place" v="isolated_dwelling" />
		<tag k="ssr:stedsnr" v="427309" />
	</node>
	<node lat="59.28592500320088" lon="9.891452785130678" id="-25665">
		<tag k="name" v="Bergan" />
		<tag k="place" v="farm" />
		<tag k="ssr:stedsnr" v="427485" />
	</node>
	<node lat="59.05575555271418" lon="10.126969450361639" id="-25669">
		<tag k="name" v="Tjøllingvollen" />
		<tag k="place" v="village" />
		<tag k="ssr:stedsnr" v="451321" />
	</node>
	<node lat="59.41948323967659" lon="9.980857171255906" id="-25671">
		<tag k="alt_name" v="Nedre Tanum" />
		<tag k="fixme" v="consider place=hamlet" />
		<tag k="name" v="Tanum" />
		<tag k="place" v="farm" />
		<tag k="ssr:stedsnr" v="451514" />
	</node>
	<node lat="59.41412221990255" lon="9.974055562908935" id="-25672">
		<tag k="name" v="Bråten" />
		<tag k="place" v="farm" />
		<tag k="ssr:stedsnr" v="451518" />
	</node>
	<node lat="59.44561389136487" lon="10.005186107475" id="-25679">
		<tag k="name" v="Sandrønningen" />
		<tag k="place" v="farm" />
		<tag k="ssr:stedsnr" v="451870" />
	</node>
	<node lat="59.020172118980646" lon="10.138981580108078" id="-25683">
		<tag k="name" v="Fjellbo" />
		<tag k="place" v="locality" />
		<tag k="ssr:stedsnr" v="452104" />
	</node>
	<node lat="59.29178610982612" lon="9.882708335749133" id="-25688">
		<tag k="name" v="Bøe" />
		<tag k="place" v="farm" />
		<tag k="ssr:stedsnr" v="452117" />
	</node>
	<node lat="59.10254444188709" lon="10.076944436092765" id="-25691">
		<tag k="name" v="Seierstad nordre" />
		<tag k="place" v="farm" />
		<tag k="ssr:stedsnr" v="452165" />
	</node>
	<node lat="59.04246795439351" lon="10.081616143127093" id="-25710">
		<tag k="name" v="Skogsborg" />
		<tag k="place" v="farm" />
		<tag k="ssr:stedsnr" v="452219" />
	</node>
	<node lat="59.415705782188645" lon="9.92033949066988" id="-25714">
		<tag k="alt_name" v="Lie M." />
		<tag k="fixme" v="consider place=hamlet" />
		<tag k="name" v="Mellem Li" />
		<tag k="place" v="farm" />
		<tag k="ssr:stedsnr" v="452234" />
	</node>
	<node lat="58.971155556970935" lon="9.9035555592344" id="-25722">
		<tag k="name" v="Ødegården" />
		<tag k="place" v="farm" />
		<tag k="ssr:stedsnr" v="452404" />
	</node>
	<node lat="58.98538611091282" lon="10.000666672427595" id="-25729">
		<tag k="alt_name" v="Rugland østre" />
		<tag k="fixme" v="consider place=hamlet" />
		<tag k="name" v="Østre Rugland" />
		<tag k="place" v="farm" />
		<tag k="ssr:stedsnr" v="452480" />
	</node>
	<node lat="59.01870277761576" lon="9.954822229499266" id="-25730">
		<tag k="name" v="Hvatumskjeet" />
		<tag k="place" v="locality" />
		<tag k="ssr:stedsnr" v="452484" />
	</node>
	<node lat="59.0299089079993" lon="10.016524807317463" id="-25733">
		<tag k="name" v="Fredenshavn" />
		<tag k="place" v="farm" />
		<tag k="ssr:stedsnr" v="452503" />
	</node>
	<node lat="59.01749999723628" lon="10.014783327177705" id="-25734">
		<tag k="name" v="Solli" />
		<tag k="place" v="farm" />
		<tag k="ssr:stedsnr" v="452505" />
	</node>
	<node lat="59.144783332675914" lon="10.049769440200494" id="-25744">
		<tag k="name" v="Lauvmoa" />
		<tag k="place" v="farm" />
		<tag k="ssr:stedsnr" v="452877" />
	</node>
	<node lat="59.29917738058927" lon="9.950019669724206" id="-25766">
		<tag k="alt_name" v="Holt Søndre" />
		<tag k="name" v="Holt" />
		<tag k="place" v="hamlet" />
		<tag k="ssr:stedsnr" v="677652" />
	</node>
	<node lat="59.307808332792476" lon="9.899591665690641" id="-25767">
		<tag k="alt_name" v="Utklev" />
		<tag k="name" v="Utkleiv" />
		<tag k="place" v="farm" />
		<tag k="ssr:stedsnr" v="677653" />
	</node>
	<node lat="59.14414649048388" lon="9.977491648470654" id="-25771">
		<tag k="alt_name" v="Breidal, øvre;Nedre Breidal" />
		<tag k="fixme" v="consider place=hamlet" />
		<tag k="name" v="Breidal" />
		<tag k="place" v="farm" />
		<tag k="ssr:stedsnr" v="486011" />
	</node>
	<node lat="59.02757778134407" lon="10.088497229060843" id="-25772">
		<tag k="name" v="Ødegården" />
		<tag k="place" v="isolated_dwelling" />
		<tag k="ssr:stedsnr" v="486223" />
	</node>
	<node lat="59.04241439785001" lon="10.182568973556377" id="-25774">
		<tag k="alt_name" v="Skisaker;Skisaker nordre" />
		<tag k="name" v="Skisåker" />
		<tag k="place" v="hamlet" />
		<tag k="ssr:stedsnr" v="486188" />
	</node>
	<node lat="59.04220277856244" lon="10.22619444010726" id="-25775">
		<tag k="fixme" v="consider place=hamlet" />
		<tag k="loc_name" v="Kjerring-vik" />
		<tag k="name" v="Kjerringvik" />
		<tag k="place" v="village" />
		<tag k="ssr:stedsnr" v="486190" />
	</node>
	<node lat="58.9828929049945" lon="9.858373174059889" id="-25777">
		<tag k="alt_name" v="Omlid" />
		<tag k="fixme" v="consider place=hamlet" />
		<tag k="name" v="Åmli" />
		<tag k="place" v="farm" />
		<tag k="ssr:stedsnr" v="486610" />
	</node>
	<node lat="58.97614394199766" lon="9.946766984972166" id="-25780">
		<tag k="fixme" v="consider place=hamlet" />
		<tag k="name" v="Bakke" />
		<tag k="place" v="farm" />
		<tag k="ssr:stedsnr" v="486621" />
	</node>
	<node lat="58.99824112138342" lon="10.017002167694322" id="-25782">
		<tag k="alt_name" v="Thorsrød" />
		<tag k="fixme" v="consider place=hamlet" />
		<tag k="name" v="Torsrød" />
		<tag k="place" v="farm" />
		<tag k="ssr:stedsnr" v="486965" />
	</node>
	<node lat="59.00701647108146" lon="9.909094480946157" id="-25784">
		<tag k="alt_name" v="Kryssgården" />
		<tag k="fixme" v="consider place=hamlet" />
		<tag k="name" v="Kryssgarden" />
		<tag k="place" v="farm" />
		<tag k="ssr:stedsnr" v="487320" />
	</node>
	<node lat="59.0129492449543" lon="9.969585453600102" id="-25785">
		<tag k="fixme" v="consider place=hamlet" />
		<tag k="name" v="Haga" />
		<tag k="place" v="farm" />
		<tag k="ssr:stedsnr" v="487322" />
	</node>
	<node lat="59.361536112253035" lon="10.005302786590823" id="-25786">
		<tag k="fixme" v="multiple name tags, choose one and add the other to alt_name" />
		<tag k="historic" v="shieling" />
		<tag k="name" v="Nordre Hvålseter;Hvålsetra" />
		<tag k="place" v="isolated_dwelling" />
		<tag k="ssr:stedsnr" v="487211" />
	</node>
	<node lat="59.155808336984904" lon="10.051208334169056" id="-25787">
		<tag k="name" v="Sundet" />
		<tag k="place" v="farm" />
		<tag k="ssr:stedsnr" v="487222" />
	</node>
	<node lat="59.36573610840584" lon="9.867263880110992" id="-25788">
		<tag k="fixme" v="multiple name tags, choose one and add the other to alt_name" />
		<tag k="name" v="Engelstadseter;Engelstadsetra" />
		<tag k="place" v="isolated_dwelling" />
		<tag k="ssr:stedsnr" v="487263" />
	</node>
	<node lat="59.026123159141314" lon="9.840697808295635" id="-25789">
		<tag k="name" v="Lia" />
		<tag k="place" v="farm" />
		<tag k="ssr:stedsnr" v="487266" />
	</node>
	<node lat="59.351027779193444" lon="9.795924997972019" id="-25791">
		<tag k="name" v="Langvannsstua" />
		<tag k="place" v="isolated_dwelling" />
		<tag k="ssr:stedsnr" v="487402" />
	</node>
	<node lat="59.29242791831459" lon="9.92072652669846" id="-25792">
		<tag k="alt_name" v="Skaglemoen" />
		<tag k="fixme" v="consider place=hamlet" />
		<tag k="name" v="Skoklemoen" />
		<tag k="place" v="farm" />
		<tag k="ssr:stedsnr" v="487410" />
	</node>
	<node lat="59.06172860499533" lon="9.88542139631206" id="-25794">
		<tag k="alt_name" v="Gardsvei" />
		<tag k="name" v="Gardsveg" />
		<tag k="place" v="farm" />
		<tag k="ssr:stedsnr" v="487504" />
	</node>
	<node lat="59.26312499560906" lon="9.92724999796411" id="-25796">
		<tag k="alt_name" v="Nordre Odberg" />
		<tag k="name" v="Odberg" />
		<tag k="place" v="farm" />
		<tag k="ssr:stedsnr" v="487481" />
	</node>
	<node lat="59.32701389254641" lon="9.785630562568798" id="-25798">
		<tag k="historic" v="shieling" />
		<tag k="name" v="Svartvannssetra" />
		<tag k="place" v="isolated_dwelling" />
		<tag k="ssr:stedsnr" v="488304" />
	</node>
	<node lat="59.33319999634466" lon="9.889980554427888" id="-25800">
		<tag k="name" v="Sverkholtdalen" />
		<tag k="place" v="farm" />
		<tag k="ssr:stedsnr" v="488309" />
	</node>
	<node lat="59.41662221971808" lon="9.976100000065877" id="-25804">
		<tag k="name" v="Pålrønningen" />
		<tag k="place" v="isolated_dwelling" />
		<tag k="ssr:stedsnr" v="511349" />
	</node>
	<node lat="59.056191664246256" lon="9.972197214888663" id="-25816">
		<tag k="name" v="Ingri" />
		<tag k="place" v="farm" />
		<tag k="ssr:stedsnr" v="512072" />
	</node>
	<node lat="59.319697217871926" lon="9.869858337768763" id="-25818">
		<tag k="name" v="Husrønningen" />
		<tag k="place" v="farm" />
		<tag k="ssr:stedsnr" v="512075" />
	</node>
	<node lat="59.05996944552803" lon="10.017786116295724" id="-25821">
		<tag k="name" v="Velte" />
		<tag k="place" v="locality" />
		<tag k="ssr:stedsnr" v="512079" />
	</node>
	<node lat="59.06130841982453" lon="10.147195418263108" id="-25828">
		<tag k="name" v="Solbakken" />
		<tag k="place" v="farm" />
		<tag k="ssr:stedsnr" v="512211" />
	</node>
	<node lat="59.29941666972227" lon="9.862211112460749" id="-25834">
		<tag k="name" v="Bråten" />
		<tag k="place" v="farm" />
		<tag k="ssr:stedsnr" v="512166" />
	</node>
	<node lat="59.1069000003723" lon="10.114149994933403" id="-25835">
		<tag k="name" v="Amundrød" />
		<tag k="place" v="village" />
		<tag k="ssr:stedsnr" v="512169" />
	</node>
	<node lat="59.220852777188526" lon="9.974366673793847" id="-25849">
		<tag k="name" v="Brånan" />
		<tag k="place" v="farm" />
		<tag k="ssr:stedsnr" v="512818" />
	</node>
	<node lat="59.19216666958941" lon="10.117294450876791" id="-25852">
		<tag k="name" v="Øvre Vassenga" />
		<tag k="place" v="isolated_dwelling" />
		<tag k="ssr:stedsnr" v="512823" />
	</node>
	<node lat="59.42530555921813" lon="9.98635000099417" id="-25855">
		<tag k="name" v="Tanum N." />
		<tag k="place" v="locality" />
		<tag k="ssr:stedsnr" v="512869" />
	</node>
	<node lat="59.08367536582051" lon="10.144692097193412" id="-25859">
		<tag k="fixme" v="consider place=hamlet" />
		<tag k="name" v="Skåra østre" />
		<tag k="place" v="farm" />
		<tag k="ssr:stedsnr" v="512877" />
	</node>
	<node lat="59.09249722584041" lon="10.12132221594619" id="-25866">
		<tag k="name" v="Lindhjem vestre" />
		<tag k="place" v="farm" />
		<tag k="ssr:stedsnr" v="512890" />
	</node>
	<node lat="59.04449444571125" lon="10.109063890949422" id="-25874">
		<tag k="name" v="Guri" />
		<tag k="place" v="farm" />
		<tag k="ssr:stedsnr" v="513126" />
	</node>
	<node lat="59.33427837767081" lon="9.891475469493404" id="-25878">
		<tag k="fixme" v="consider place=hamlet" />
		<tag k="name" v="Sverkholt" />
		<tag k="place" v="farm" />
		<tag k="ssr:stedsnr" v="513224" />
	</node>
	<node lat="58.985452775613396" lon="9.92418611919004" id="-25883">
		<tag k="name" v="Gusland østre" />
		<tag k="place" v="farm" />
		<tag k="ssr:stedsnr" v="513409" />
	</node>
	<node lat="58.973916665199944" lon="9.89421944268729" id="-25884">
		<tag k="name" v="Løvall søndre" />
		<tag k="place" v="farm" />
		<tag k="ssr:stedsnr" v="513418" />
	</node>
	<node lat="59.02410670540406" lon="9.945038034205028" id="-25889">
		<tag k="name" v="Åsly" />
		<tag k="place" v="farm" />
		<tag k="ssr:stedsnr" v="513513" />
	</node>
	<node lat="58.99963611319961" lon="9.944394445163821" id="-25890">
		<tag k="name" v="Aske" />
		<tag k="place" v="farm" />
		<tag k="ssr:stedsnr" v="513519" />
	</node>
	<node lat="59.09616944134399" lon="10.164013888084003" id="-25892">
		<tag k="name" v="Istre nordre" />
		<tag k="place" v="farm" />
		<tag k="ssr:stedsnr" v="513602" />
	</node>
	<node lat="59.389058335762186" lon="10.040063883137291" id="-25895">
		<tag k="fixme" v="consider tourism=alpine_hut or tourism=chalet" />
		<tag k="name" v="Hoggerstua" />
		<tag k="ssr:stedsnr" v="527887" />
		<tag k="tourism" v="wilderness_hut" />
	</node>
	<node lat="58.99883186462842" lon="9.81071392699151" id="-25902">
		<tag k="fixme" v="consider place=hamlet" />
		<tag k="name" v="Stokksund" />
		<tag k="place" v="farm" />
		<tag k="ssr:stedsnr" v="541278" />
	</node>
	<node lat="59.19180555457961" lon="10.005774995060499" id="-25906">
		<tag k="name" v="Holmberget" />
		<tag k="place" v="farm" />
		<tag k="ssr:stedsnr" v="547178" />
	</node>
	<node lat="59.188246431204625" lon="10.001028972729202" id="-25907">
		<tag k="fixme" v="consider place=hamlet" />
		<tag k="name" v="Holm" />
		<tag k="place" v="farm" />
		<tag k="ssr:stedsnr" v="547197" />
	</node>
	<node lat="59.180124997591044" lon="10.086372227917627" id="-25908">
		<tag k="name" v="Storrønningen" />
		<tag k="place" v="farm" />
		<tag k="ssr:stedsnr" v="547218" />
	</node>
	<node lat="59.030070728752364" lon="9.968328700172085" id="-25909">
		<tag k="fixme" v="consider place=hamlet" />
		<tag k="name" v="Tanum" />
		<tag k="place" v="farm" />
		<tag k="ssr:stedsnr" v="547224" />
	</node>
	<node lat="59.147536789516735" lon="10.111168796616873" id="-25911">
		<tag k="fixme" v="consider place=hamlet" />
		<tag k="name" v="Bakke" />
		<tag k="place" v="farm" />
		<tag k="ssr:stedsnr" v="547270" />
	</node>
	<node lat="59.01291666795655" lon="10.133500003092342" id="-25912">
		<tag k="name" v="Rønningen" />
		<tag k="place" v="farm" />
		<tag k="ssr:stedsnr" v="547272" />
	</node>
	<node lat="59.00400902284018" lon="9.992214164694287" id="-25913">
		<tag k="alt_name" v="Haugane;Østre Haugene" />
		<tag k="fixme" v="consider place=hamlet" />
		<tag k="name" v="Haugene" />
		<tag k="place" v="farm" />
		<tag k="ssr:stedsnr" v="547274" />
	</node>
	<node lat="59.05314722660249" lon="9.85616388372042" id="-25915">
		<tag k="alt_name" v="Fjellbo" />
		<tag k="name" v="Fjellbu" />
		<tag k="place" v="isolated_dwelling" />
		<tag k="ssr:stedsnr" v="547476" />
	</node>
	<node lat="59.10614717063801" lon="10.158397180109606" id="-25918">
		<tag k="alt_name" v="Istre, nordre" />
		<tag k="fixme" v="consider place=hamlet" />
		<tag k="name" v="Nordre Istre" />
		<tag k="place" v="farm" />
		<tag k="ssr:stedsnr" v="548074" />
	</node>
	<node lat="59.368807361190825" lon="9.947383881499913" id="-25920">
		<tag k="alt_name" v="Bjærtnes" />
		<tag k="fixme" v="consider place=hamlet" />
		<tag k="name" v="Bjertnes" />
		<tag k="place" v="farm" />
		<tag k="ssr:stedsnr" v="548273" />
	</node>
	<node lat="59.08620555592641" lon="9.915741667489012" id="-25921">
		<tag k="alt_name" v="Lønnelien" />
		<tag k="name" v="Lønnalia" />
		<tag k="place" v="farm" />
		<tag k="ssr:stedsnr" v="548403" />
	</node>
	<node lat="59.30017322225333" lon="9.864034432510243" id="-25922">
		<tag k="alt_name" v="Myrene" />
		<tag k="name" v="Myrane" />
		<tag k="place" v="locality" />
		<tag k="ssr:stedsnr" v="548419" />
	</node>
	<node lat="59.38623055808193" lon="9.853386116312743" id="-25924">
		<tag k="fixme" v="multiple name tags, choose one and add the other to alt_name" />
		<tag k="historic" v="shieling" />
		<tag k="name" v="Kinnaseter;Kinnasetra" />
		<tag k="place" v="isolated_dwelling" />
		<tag k="ssr:stedsnr" v="548312" />
	</node>
	<node lat="59.053195506417794" lon="10.19255453051464" id="-25928">
		<tag k="alt_name" v="Hovland nordre" />
		<tag k="fixme" v="consider place=hamlet" />
		<tag k="name" v="Nordre Hovland" />
		<tag k="place" v="farm" />
		<tag k="ssr:stedsnr" v="695647" />
	</node>
	<node lat="59.41786110946483" lon="10.005980564080202" id="-25941">
		<tag k="name" v="Langsand" />
		<tag k="place" v="farm" />
		<tag k="ssr:stedsnr" v="572522" />
	</node>
	<node lat="59.43363611127386" lon="9.989255560398199" id="-25943">
		<tag k="name" v="Bråten" />
		<tag k="place" v="farm" />
		<tag k="ssr:stedsnr" v="572848" />
	</node>
	<node lat="59.43078333126216" lon="9.988419446974245" id="-25944">
		<tag k="name" v="Løkkene" />
		<tag k="place" v="locality" />
		<tag k="ssr:stedsnr" v="572850" />
	</node>
	<node lat="59.3898499340647" lon="9.977698209857873" id="-25952">
		<tag k="alt_name" v="Berg nedre;Berg n." />
		<tag k="fixme" v="consider place=hamlet" />
		<tag k="name" v="Nedre Berg" />
		<tag k="place" v="farm" />
		<tag k="ssr:stedsnr" v="572996" />
	</node>
	<node lat="59.38034444175483" lon="9.955608336349899" id="-25953">
		<tag k="name" v="Vinterståa" />
		<tag k="place" v="locality" />
		<tag k="ssr:stedsnr" v="573000" />
	</node>
	<node lat="59.04755277757639" lon="10.101461111090947" id="-25964">
		<tag k="name" v="Olla" />
		<tag k="place" v="locality" />
		<tag k="ssr:stedsnr" v="573211" />
	</node>
	<node lat="59.04952222449464" lon="10.099730549622768" id="-25966">
		<tag k="name" v="Valby" />
		<tag k="place" v="isolated_dwelling" />
		<tag k="ssr:stedsnr" v="573214" />
	</node>
	<node lat="59.054850000555106" lon="10.118738883852167" id="-25969">
		<tag k="fixme" v="consider place=suburb, village or hamlet" />
		<tag k="name" v="Tjøllingvollen" />
		<tag k="place" v="quarter" />
		<tag k="ssr:stedsnr" v="573245" />
	</node>
	<node lat="59.01345832934609" lon="9.907469446215721" id="-25974">
		<tag k="name" v="Dolven" />
		<tag k="place" v="farm" />
		<tag k="ssr:stedsnr" v="573403" />
	</node>
	<node lat="58.99826944780445" lon="9.852986112000753" id="-25977">
		<tag k="name" v="Blokkebukta camping" />
		<tag k="ssr:stedsnr" v="573412" />
		<tag k="tourism" v="camp_site" />
	</node>
	<node lat="59.063552780312236" lon="10.140644438049168" id="-25992">
		<tag k="leisure" v="pitch" />
		<tag k="name" v="Tjølling travbane" />
		<tag k="ssr:stedsnr" v="573198" />
	</node>
	<node lat="59.33754722333844" lon="9.921744452588827" id="-25993">
		<tag k="name" v="Hegna" />
		<tag k="place" v="locality" />
		<tag k="ssr:stedsnr" v="573200" />
	</node>
	<node lat="59.043413886560394" lon="10.016580556238354" id="-25995">
		<tag k="name" v="Fritzøe villa" />
		<tag k="place" v="isolated_dwelling" />
		<tag k="ssr:stedsnr" v="694090" />
	</node>
	<node lat="59.034836112339356" lon="10.01941110664851" id="-25996">
		<tag k="name" v="Røberg" />
		<tag k="place" v="locality" />
		<tag k="ssr:stedsnr" v="694092" />
	</node>
	<node lat="58.98861944293547" lon="9.978719445054658" id="-26004">
		<tag k="name" v="Nalum nordre" />
		<tag k="place" v="locality" />
		<tag k="ssr:stedsnr" v="573423" />
	</node>
	<node lat="58.98662499625329" lon="9.94092778244488" id="-26005">
		<tag k="name" v="Søndre Wåle" />
		<tag k="place" v="farm" />
		<tag k="ssr:stedsnr" v="573425" />
	</node>
	<node lat="59.118036110919725" lon="9.911350004298729" id="-26006">
		<tag k="name" v="Strand" />
		<tag k="place" v="farm" />
		<tag k="ssr:stedsnr" v="694153" />
	</node>
	<node lat="59.159238890025954" lon="10.045469452633442" id="-26013">
		<tag k="name" v="Merdi" />
		<tag k="place" v="farm" />
		<tag k="ssr:stedsnr" v="573902" />
	</node>
	<node lat="59.433786115531554" lon="9.792936109363751" id="-26023">
		<tag k="fixme" v="consider tourism=alpine_hut or tourism=chalet" />
		<tag k="name" v="Presteseter" />
		<tag k="ssr:stedsnr" v="573963" />
		<tag k="tourism" v="wilderness_hut" />
	</node>
	<node lat="59.05990349230119" lon="10.212563667992223" id="-26025">
		<tag k="fixme" v="consider place=hamlet" />
		<tag k="name" v="Sandnes søndre" />
		<tag k="place" v="farm" />
		<tag k="ssr:stedsnr" v="573899" />
	</node>
	<node lat="59.41598889238396" lon="9.999661118343363" id="-26040">
		<tag k="name" v="Plassen" />
		<tag k="place" v="locality" />
		<tag k="ssr:stedsnr" v="694502" />
	</node>
	<node lat="59.40922222179534" lon="9.96848888259773" id="-26042">
		<tag k="name" v="Nedre Hole" />
		<tag k="place" v="farm" />
		<tag k="ssr:stedsnr" v="694545" />
	</node>
	<node lat="59.40298055201947" lon="9.9479361182279" id="-26043">
		<tag k="name" v="Tveitan" />
		<tag k="place" v="locality" />
		<tag k="ssr:stedsnr" v="694549" />
	</node>
	<node lat="59.08522777796143" lon="10.156744453128747" id="-26064">
		<tag k="name" v="Skalleberg nord" />
		<tag k="place" v="farm" />
		<tag k="ssr:stedsnr" v="694848" />
	</node>
	<node lat="59.06094999704953" lon="10.146000003887597" id="-26096">
		<tag k="name" v="Skogholt" />
		<tag k="place" v="isolated_dwelling" />
		<tag k="ssr:stedsnr" v="695201" />
	</node>
	<node lat="59.046294442785594" lon="10.06282221662317" id="-26103">
		<tag k="name" v="Lågens dampsag" />
		<tag k="place" v="quarter" />
		<tag k="ssr:stedsnr" v="695252" />
	</node>
	<node lat="59.035227779276966" lon="10.086097223161259" id="-26105">
		<tag k="name" v="Laukhaug" />
		<tag k="place" v="farm" />
		<tag k="ssr:stedsnr" v="695265" />
	</node>
	<node lat="59.01053611544295" lon="9.795027771649885" id="-26106">
		<tag k="name" v="Eide" />
		<tag k="place" v="isolated_dwelling" />
		<tag k="ssr:stedsnr" v="695346" />
	</node>
	<node lat="58.988113887661314" lon="9.870647218832698" id="-26108">
		<tag k="name" v="Søndersrød" />
		<tag k="place" v="farm" />
		<tag k="ssr:stedsnr" v="695376" />
	</node>
	<node lat="58.983152773757254" lon="9.943738889153693" id="-26114">
		<tag k="name" v="Store Wåle" />
		<tag k="place" v="farm" />
		<tag k="ssr:stedsnr" v="695460" />
	</node>
	<node lat="59.02486110896307" lon="10.011047227868184" id="-26115">
		<tag k="name" v="Storejordet" />
		<tag k="place" v="farm" />
		<tag k="ssr:stedsnr" v="695501" />
	</node>
	<node lat="59.0768027799945" lon="10.170719441422312" id="-26116">
		<tag k="name" v="Sølabota" />
		<tag k="place" v="locality" />
		<tag k="ssr:stedsnr" v="695925" />
	</node>
	<node lat="59.31228888608919" lon="9.882441659233566" id="-26129">
		<tag k="name" v="Steinsholt" />
		<tag k="place" v="hamlet" />
		<tag k="ssr:stedsnr" v="698351" />
	</node>
	<node lat="59.092122219160075" lon="10.102080562059292" id="-26130">
		<tag k="name" v="Verningen" />
		<tag k="place" v="village" />
		<tag k="ssr:stedsnr" v="607104" />
	</node>
	<node lat="59.08353888997414" lon="10.045127777646599" id="-26131">
		<tag k="name" v="Bjørkerønningen" />
		<tag k="place" v="isolated_dwelling" />
		<tag k="ssr:stedsnr" v="607106" />
	</node>
	<node lat="59.084499998289495" lon="10.112141661268067" id="-26132">
		<tag k="alt_name" v="Håkestad vestre" />
		<tag k="name" v="Håkestad" />
		<tag k="place" v="farm" />
		<tag k="ssr:stedsnr" v="607109" />
	</node>
	<node lat="58.991783154016375" lon="9.899071656758005" id="-26134">
		<tag k="name" v="Øvre Holhjem" />
		<tag k="place" v="farm" />
		<tag k="ssr:stedsnr" v="607607" />
	</node>
	<node lat="58.975265195459905" lon="9.893414807246277" id="-26138">
		<tag k="fixme" v="consider place=hamlet" />
		<tag k="name" v="Løvall" />
		<tag k="place" v="farm" />
		<tag k="ssr:stedsnr" v="607860" />
	</node>
	<node lat="59.112455554378286" lon="10.121150004120784" id="-26139">
		<tag k="name" v="Ringdal" />
		<tag k="place" v="farm" />
		<tag k="ssr:stedsnr" v="608045" />
	</node>
	<node lat="58.99579999719165" lon="9.97241111772113" id="-26141">
		<tag k="name" v="Foldvik" />
		<tag k="place" v="hamlet" />
		<tag k="ssr:stedsnr" v="607945" />
	</node>
	<node lat="59.08775555616627" lon="10.136733325365277" id="-26144">
		<tag k="alt_name" v="Lindhjem søndre" />
		<tag k="name" v="Lingum" />
		<tag k="place" v="farm" />
		<tag k="ssr:stedsnr" v="608107" />
	</node>
	<node lat="59.37299722481133" lon="10.030436116799953" id="-26147">
		<tag k="alt_name" v="Eikedalssetra;Nedre Berg-setra" />
		<tag k="historic" v="shieling" />
		<tag k="name" v="Bergsetra" />
		<tag k="old_name" v="ned Berg Sr" />
		<tag k="place" v="isolated_dwelling" />
		<tag k="ssr:stedsnr" v="608190" />
	</node>
	<node lat="59.17678055602261" lon="10.068530562182568" id="-26149">
		<tag k="alt_name" v="Fjæreødagården" />
		<tag k="name" v="Fjæreødegarden" />
		<tag k="place" v="farm" />
		<tag k="ssr:stedsnr" v="608192" />
	</node>
	<node lat="59.322974998001754" lon="9.959633341032047" id="-26152">
		<tag k="name" v="Kotorønningen" />
		<tag k="place" v="isolated_dwelling" />
		<tag k="ssr:stedsnr" v="608454" />
	</node>
	<node lat="59.090354957151256" lon="9.921076576934835" id="-26154">
		<tag k="alt_name" v="Sletholt" />
		<tag k="fixme" v="consider place=hamlet" />
		<tag k="name" v="Slettholt" />
		<tag k="place" v="farm" />
		<tag k="ssr:stedsnr" v="608394" />
	</node>
	<node lat="59.04710622820794" lon="9.845696010465323" id="-26155">
		<tag k="fixme" v="consider place=hamlet" />
		<tag k="name" v="Mørje" />
		<tag k="place" v="farm" />
		<tag k="ssr:stedsnr" v="608515" />
	</node>
	<node lat="59.07007738575233" lon="9.923307028438934" id="-26157">
		<tag k="fixme" v="consider place=hamlet" />
		<tag k="name" v="Vassbotn" />
		<tag k="place" v="farm" />
		<tag k="ssr:stedsnr" v="608495" />
	</node>
	<node lat="59.03750854694962" lon="9.874106065383517" id="-26158">
		<tag k="name" v="Tvedalen" />
		<tag k="place" v="farm" />
		<tag k="ssr:stedsnr" v="608500" />
	</node>
	<node lat="59.168649682428146" lon="10.08982539632288" id="-26164">
		<tag k="name" v="Langås" />
		<tag k="place" v="farm" />
		<tag k="ssr:stedsnr" v="632308" />
	</node>
	<node lat="59.032702781864096" lon="10.115613896960713" id="-26195">
		<tag k="name" v="Kaupanger" />
		<tag k="place" v="farm" />
		<tag k="ssr:stedsnr" v="633112" />
	</node>
	<node lat="59.09809722089949" lon="10.09061111774144" id="-26199">
		<tag k="name" v="Seierstad østre" />
		<tag k="place" v="farm" />
		<tag k="ssr:stedsnr" v="633200" />
	</node>
	<node lat="59.036177775689126" lon="10.093372223136987" id="-26200">
		<tag k="alt_name" v="Kaupang søndre" />
		<tag k="name" v="Søndre Kaupang" />
		<tag k="place" v="farm" />
		<tag k="ssr:stedsnr" v="633278" />
	</node>
	<node lat="59.07738333232151" lon="10.200491664191551" id="-26205">
		<tag k="name" v="Grevefaret" />
		<tag k="place" v="isolated_dwelling" />
		<tag k="ssr:stedsnr" v="633531" />
	</node>
	<node lat="59.427180552711526" lon="9.985741660675702" id="-26215">
		<tag k="name" v="Tanumrødningen" />
		<tag k="place" v="locality" />
		<tag k="ssr:stedsnr" v="633880" />
	</node>
	<node lat="59.446544447807995" lon="10.038197218252877" id="-26218">
		<tag k="name" v="Engabakken" />
		<tag k="place" v="farm" />
		<tag k="ssr:stedsnr" v="633886" />
	</node>
	<node lat="59.09375303687751" lon="10.136517712353932" id="-26222">
		<tag k="alt_name" v="Bergan øvre" />
		<tag k="fixme" v="consider place=hamlet" />
		<tag k="name" v="Øvre Bergan" />
		<tag k="place" v="farm" />
		<tag k="ssr:stedsnr" v="633901" />
	</node>
	<node lat="59.22785277392273" lon="9.999380553594397" id="-26226">
		<tag k="historic" v="shieling" />
		<tag k="name" v="Farmensetra" />
		<tag k="place" v="isolated_dwelling" />
		<tag k="ssr:stedsnr" v="633798" />
	</node>
	<node lat="59.3464750013114" lon="9.926330562243688" id="-26231">
		<tag k="name" v="Fevang" />
		<tag k="place" v="farm" />
		<tag k="ssr:stedsnr" v="634193" />
	</node>
	<node lat="59.077075000595364" lon="9.8693333288186" id="-26236">
		<tag k="name" v="Solum" />
		<tag k="place" v="farm" />
		<tag k="ssr:stedsnr" v="634205" />
	</node>
	<node lat="59.01080000286473" lon="9.919630563149646" id="-26242">
		<tag k="name" v="Sandene vestre" />
		<tag k="place" v="farm" />
		<tag k="ssr:stedsnr" v="634481" />
	</node>
	<node lat="59.02696944419696" lon="9.96863055785669" id="-26244">
		<tag k="name" v="Tanum" />
		<tag k="place" v="farm" />
		<tag k="ssr:stedsnr" v="634510" />
	</node>
	<node lat="59.087932462058596" lon="10.11373115867739" id="-26253">
		<tag k="alt_name" v="Kolsrød" />
		<tag k="fixme" v="consider place=hamlet" />
		<tag k="name" v="Korsrød" />
		<tag k="place" v="farm" />
		<tag k="ssr:stedsnr" v="668098" />
	</node>
	<node lat="59.043849998574245" lon="10.21828054692805" id="-26254">
		<tag k="name" v="Nygård" />
		<tag k="place" v="farm" />
		<tag k="ssr:stedsnr" v="668204" />
	</node>
	<node lat="59.024166663146865" lon="10.087600003263752" id="-26257">
		<tag k="name" v="Frenvik" />
		<tag k="place" v="farm" />
		<tag k="ssr:stedsnr" v="669207" />
	</node>
	<node lat="59.07229829878346" lon="10.020467996705353" id="-26260">
		<tag k="fixme" v="consider place=hamlet" />
		<tag k="name" v="Gopledal" />
		<tag k="place" v="farm" />
		<tag k="ssr:stedsnr" v="669130" />
	</node>
	<node lat="59.038003753553795" lon="10.07387047005933" id="-26261">
		<tag k="fixme" v="consider place=hamlet" />
		<tag k="name" v="Gloppe" />
		<tag k="place" v="farm" />
		<tag k="ssr:stedsnr" v="669185" />
	</node>
	<node lat="59.162047012498526" lon="10.095929638889654" id="-26262">
		<tag k="fixme" v="consider place=hamlet" />
		<tag k="name" v="Dal" />
		<tag k="place" v="farm" />
		<tag k="ssr:stedsnr" v="669197" />
	</node>
	<node lat="59.034256134263096" lon="9.82147796087185" id="-26265">
		<tag k="alt_name" v="Vrangesund" />
		<tag k="fixme" v="consider place=hamlet" />
		<tag k="name" v="Vrangsund" />
		<tag k="place" v="farm" />
		<tag k="ssr:stedsnr" v="669491" />
	</node>
	<node lat="59.39388610847827" lon="9.96202500635556" id="-26270">
		<tag k="name" v="Sogn" />
		<tag k="place" v="farm" />
		<tag k="ssr:stedsnr" v="670275" />
	</node>
	<node lat="59.41614851433906" lon="10.008484193575333" id="-26271">
		<tag k="fixme" v="consider place=hamlet" />
		<tag k="name" v="Roso" />
		<tag k="place" v="farm" />
		<tag k="ssr:stedsnr" v="670189" />
	</node>
	<node lat="59.12918333435783" lon="9.882083338622294" id="-26277">
		<tag k="name" v="Killegården" />
		<tag k="place" v="locality" />
		<tag k="ssr:stedsnr" v="694024" />
	</node>
	<node lat="59.406608337768496" lon="9.987627772567317" id="-26292">
		<tag k="name" v="Sandbu" />
		<tag k="place" v="isolated_dwelling" />
		<tag k="ssr:stedsnr" v="694504" />
	</node>
	<node lat="59.40095000338952" lon="10.01709165901235" id="-26293">
		<tag k="historic" v="shieling" />
		<tag k="name" v="Nedre Kallebergseter" />
		<tag k="place" v="isolated_dwelling" />
		<tag k="ssr:stedsnr" v="694510" />
	</node>
	<node lat="59.414038892680104" lon="10.01998611721371" id="-26294">
		<tag k="name" v="Tvigreina" />
		<tag k="place" v="locality" />
		<tag k="ssr:stedsnr" v="694513" />
	</node>
	<node lat="59.29225277904854" lon="10.001605547878196" id="-26301">
		<tag k="historic" v="shieling" />
		<tag k="name" v="Haugsseter" />
		<tag k="place" v="isolated_dwelling" />
		<tag k="ssr:stedsnr" v="694580" />
	</node>
	<node lat="59.428797901781316" lon="10.020235838292791" id="-26310">
		<tag k="alt_name" v="Hem Ø." />
		<tag k="fixme" v="consider place=hamlet" />
		<tag k="name" v="Øvre Hem" />
		<tag k="place" v="farm" />
		<tag k="ssr:stedsnr" v="694818" />
	</node>
	<node lat="59.32834722399423" lon="9.884055556793678" id="-26324">
		<tag k="name" v="Vindheim" />
		<tag k="place" v="farm" />
		<tag k="ssr:stedsnr" v="695069" />
	</node>
	<node lat="59.123361108163024" lon="10.14011666374466" id="-26327">
		<tag k="name" v="Danebo" />
		<tag k="ssr:stedsnr" v="694918" />
		<tag k="tourism" v="guest_house" />
	</node>
	<node lat="59.19286824050325" lon="9.969361421507601" id="-26337">
		<tag k="fixme" v="consider place=hamlet" />
		<tag k="name" v="Vestre Sundby" />
		<tag k="place" v="farm" />
		<tag k="ssr:stedsnr" v="694990" />
	</node>
	<node lat="59.30538888970575" lon="9.872422218961054" id="-26340">
		<tag k="name" v="Sørgården" />
		<tag k="place" v="farm" />
		<tag k="ssr:stedsnr" v="695111" />
	</node>
	<node lat="59.024616664958785" lon="10.137788886930263" id="-26342">
		<tag k="name" v="Skauenga" />
		<tag k="place" v="locality" />
		<tag k="ssr:stedsnr" v="695113" />
	</node>
	<node lat="59.02009391875308" lon="10.144691399584786" id="-26344">
		<tag k="fixme" v="consider place=hamlet" />
		<tag k="name" v="Øvre Eftang" />
		<tag k="place" v="farm" />
		<tag k="ssr:stedsnr" v="695123" />
	</node>
	<node lat="59.36279999946128" lon="9.92905832474206" id="-26346">
		<tag k="name" v="Øgarn" />
		<tag k="place" v="farm" />
		<tag k="ssr:stedsnr" v="695176" />
	</node>
	<node lat="58.98119166364381" lon="9.930433337182304" id="-26352">
		<tag k="name" v="Wåle" />
		<tag k="place" v="isolated_dwelling" />
		<tag k="ssr:stedsnr" v="695403" />
	</node>
	<node lat="58.98519475398052" lon="9.941407125643245" id="-26353">
		<tag k="name" v="Wåle" />
		<tag k="place" v="hamlet" />
		<tag k="ssr:stedsnr" v="695407" />
	</node>
	<node lat="59.02980277997532" lon="9.845811104899843" id="-26359">
		<tag k="name" v="Tjønnemyr" />
		<tag k="place" v="farm" />
		<tag k="ssr:stedsnr" v="695428" />
	</node>
	<node lat="59.00989999883115" lon="10.026374991339631" id="-26361">
		<tag k="name" v="Skauen" />
		<tag k="place" v="isolated_dwelling" />
		<tag k="ssr:stedsnr" v="695520" />
	</node>
	<node lat="59.05111110862945" lon="10.085272229897676" id="-26368">
		<tag k="name" v="Bisjordkollen" />
		<tag k="place" v="quarter" />
		<tag k="ssr:stedsnr" v="695914" />
	</node>
	<node lat="59.42682222103823" lon="9.811261105392491" id="-26371">
		<tag k="historic" v="shieling" />
		<tag k="name" v="Mellomsetra" />
		<tag k="place" v="isolated_dwelling" />
		<tag k="ssr:stedsnr" v="695969" />
	</node>
	<node lat="59.14459016825874" lon="10.058200775707558" id="-26374">
		<tag k="fixme" v="consider place=hamlet" />
		<tag k="name" v="Eftedal" />
		<tag k="place" v="farm" />
		<tag k="ssr:stedsnr" v="729008" />
	</node>
	<node lat="59.142667315334855" lon="9.970028788585525" id="-26375">
		<tag k="fixme" v="consider place=hamlet" />
		<tag k="name" v="Lysebu" />
		<tag k="place" v="farm" />
		<tag k="ssr:stedsnr" v="729013" />
	</node>
	<node lat="59.083786729217586" lon="9.9844245252143" id="-26376">
		<tag k="fixme" v="consider place=hamlet" />
		<tag k="name" v="Skautvet" />
		<tag k="place" v="farm" />
		<tag k="ssr:stedsnr" v="729109" />
	</node>
	<node lat="59.09010820834877" lon="10.121471018464801" id="-26377">
		<tag k="fixme" v="consider place=hamlet" />
		<tag k="name" v="Bjerke" />
		<tag k="place" v="farm" />
		<tag k="ssr:stedsnr" v="729114" />
	</node>
	<node lat="59.08960544548437" lon="10.074001422503153" id="-26378">
		<tag k="fixme" v="consider place=hamlet" />
		<tag k="name" v="Bommestad" />
		<tag k="place" v="farm" />
		<tag k="ssr:stedsnr" v="729117" />
	</node>
	<node lat="59.05071408494622" lon="9.9923187347719" id="-26381">
		<tag k="alt_name" v="Gutterød" />
		<tag k="fixme" v="consider place=hamlet" />
		<tag k="name" v="Grøterød" />
		<tag k="place" v="farm" />
		<tag k="ssr:stedsnr" v="729195" />
	</node>
	<node lat="59.02974999834905" lon="10.15023611049894" id="-26382">
		<tag k="name" v="Skjeggestad" />
		<tag k="place" v="farm" />
		<tag k="ssr:stedsnr" v="729220" />
	</node>
	<node lat="59.17186389250389" lon="9.902024995824872" id="-26383">
		<tag k="name" v="Nordli" />
		<tag k="place" v="farm" />
		<tag k="ssr:stedsnr" v="729508" />
	</node>
	<node lat="58.99373759577101" lon="9.967725771033436" id="-26384">
		<tag k="name" v="Foldvik" />
		<tag k="place" v="hamlet" />
		<tag k="ssr:stedsnr" v="729569" />
	</node>
	<node lat="59.10217489258239" lon="10.102325868441667" id="-26387">
		<tag k="fixme" v="consider place=hamlet" />
		<tag k="name" v="Rødbøl" />
		<tag k="place" v="farm" />
		<tag k="ssr:stedsnr" v="730066" />
	</node>
	<node lat="59.10107119589629" lon="10.16402656641249" id="-26388">
		<tag k="fixme" v="consider place=hamlet" />
		<tag k="name" v="Vestad" />
		<tag k="place" v="farm" />
		<tag k="ssr:stedsnr" v="730070" />
	</node>
	<node lat="59.16581471031261" lon="10.104020855700217" id="-26389">
		<tag k="fixme" v="consider place=hamlet" />
		<tag k="name" v="Nau" />
		<tag k="place" v="farm" />
		<tag k="ssr:stedsnr" v="730204" />
	</node>
	<node lat="59.07805555449335" lon="10.021247214266996" id="-26391">
		<tag k="name" v="Trettenes" />
		<tag k="place" v="farm" />
		<tag k="ssr:stedsnr" v="730109" />
	</node>
	<node lat="59.0578581130508" lon="10.184146167945318" id="-26393">
		<tag k="fixme" v="consider place=hamlet" />
		<tag k="name" v="Kleppåker" />
		<tag k="place" v="farm" />
		<tag k="ssr:stedsnr" v="730171" />
	</node>
	<node lat="59.06198333326149" lon="10.181552785204424" id="-26394">
		<tag k="name" v="Hosle" />
		<tag k="place" v="farm" />
		<tag k="ssr:stedsnr" v="730175" />
	</node>
	<node lat="59.42204444490788" lon="9.99362778267745" id="-26395">
		<tag k="name" v="Løkkene" />
		<tag k="place" v="farm" />
		<tag k="ssr:stedsnr" v="730178" />
	</node>
	<node lat="59.007627279219776" lon="9.962077482420877" id="-26396">
		<tag k="alt_name" v="Gudem nedre" />
		<tag k="fixme" v="consider place=hamlet" />
		<tag k="name" v="Bjerkholt" />
		<tag k="place" v="farm" />
		<tag k="ssr:stedsnr" v="730305" />
	</node>
	<node lat="59.009997205027744" lon="9.914931421795352" id="-26397">
		<tag k="fixme" v="consider place=hamlet" />
		<tag k="name" v="Eikelund" />
		<tag k="place" v="farm" />
		<tag k="ssr:stedsnr" v="730312" />
	</node>
	<node lat="59.14276111504445" lon="9.966194450325697" id="-26399">
		<tag k="alt_name" v="Lysebo" />
		<tag k="name" v="Lysbu" />
		<tag k="place" v="farm" />
		<tag k="ssr:stedsnr" v="730265" />
	</node>
	<node lat="59.13010283662349" lon="9.873570673565238" id="-26402">
		<tag k="name" v="Omsland" />
		<tag k="place" v="hamlet" />
		<tag k="ssr:stedsnr" v="730607" />
	</node>
	<node lat="59.1311722195006" lon="9.968775005865119" id="-26403">
		<tag k="alt_name" v="Sæterstå" />
		<tag k="name" v="Seterstå" />
		<tag k="place" v="isolated_dwelling" />
		<tag k="ssr:stedsnr" v="730626" />
	</node>
	<node lat="59.12986116264886" lon="9.896341345932827" id="-26404">
		<tag k="fixme" v="consider place=hamlet" />
		<tag k="name" v="Bærug" />
		<tag k="place" v="farm" />
		<tag k="ssr:stedsnr" v="730628" />
	</node>
	<node lat="59.28847677657959" lon="9.9538428513687" id="-26406">
		<tag k="name" v="Askelia" />
		<tag k="place" v="locality" />
		<tag k="ssr:stedsnr" v="730505" />
	</node>
	<node lat="59.28709166964696" lon="9.93784166243502" id="-26407">
		<tag k="name" v="Skåtan" />
		<tag k="place" v="farm" />
		<tag k="ssr:stedsnr" v="730508" />
	</node>
	<node lat="59.422926358154676" lon="9.959347515512476" id="-26410">
		<tag k="fixme" v="consider place=hamlet" />
		<tag k="name" v="Kråkemo" />
		<tag k="place" v="farm" />
		<tag k="ssr:stedsnr" v="730578" />
	</node>
	<node lat="59.398502540475604" lon="9.985980058889654" id="-26412">
		<tag k="fixme" v="consider place=hamlet" />
		<tag k="name" v="Linsverk" />
		<tag k="place" v="farm" />
		<tag k="ssr:stedsnr" v="731118" />
	</node>
	<node lat="59.37422500035383" lon="9.968302771487354" id="-26422">
		<tag k="name" v="Engrønningen" />
		<tag k="place" v="farm" />
		<tag k="ssr:stedsnr" v="754717" />
	</node>
	<node lat="59.33364722289223" lon="9.953366672309933" id="-26423">
		<tag k="historic" v="shieling" />
		<tag k="name" v="Helgelandseter" />
		<tag k="place" v="isolated_dwelling" />
		<tag k="ssr:stedsnr" v="754605" />
	</node>
	<node lat="59.02224999922028" lon="10.131277785303253" id="-26429">
		<tag k="name" v="Marka" />
		<tag k="place" v="farm" />
		<tag k="ssr:stedsnr" v="755111" />
	</node>
	<node lat="59.307991667616704" lon="9.870875006175922" id="-26430">
		<tag k="name" v="Nestua" />
		<tag k="place" v="farm" />
		<tag k="ssr:stedsnr" v="755114" />
	</node>
	<node lat="59.29081666477113" lon="9.914666675346544" id="-26436">
		<tag k="building" v="industrial" />
		<tag k="industrial" v="factory" />
		<tag k="name" v="Engene" />
		<tag k="ssr:stedsnr" v="755005" />
	</node>
	<node lat="59.125716662983095" lon="9.875691675191733" id="-26440">
		<tag k="name" v="Hufoss" />
		<tag k="place" v="locality" />
		<tag k="ssr:stedsnr" v="755015" />
	</node>
	<node lat="59.26028333461401" lon="9.930361104460376" id="-26445">
		<tag k="name" v="Møllerstua" />
		<tag k="place" v="isolated_dwelling" />
		<tag k="ssr:stedsnr" v="755054" />
	</node>
	<node lat="59.0589333338872" lon="10.102152776390705" id="-26446">
		<tag k="name" v="Gjerstad østre" />
		<tag k="place" v="farm" />
		<tag k="ssr:stedsnr" v="755056" />
	</node>
	<node lat="59.06450854058386" lon="10.1562036456106" id="-26451">
		<tag k="fixme" v="consider place=hamlet" />
		<tag k="name" v="Løve mellom" />
		<tag k="place" v="farm" />
		<tag k="ssr:stedsnr" v="755203" />
	</node>
	<node lat="58.96343889028101" lon="9.853666663733067" id="-26460">
		<tag k="name" v="Lillesand" />
		<tag k="place" v="isolated_dwelling" />
		<tag k="ssr:stedsnr" v="755407" />
	</node>
	<node lat="58.99104166682178" lon="9.910291671963147" id="-26463">
		<tag k="name" v="Gusland" />
		<tag k="place" v="farm" />
		<tag k="ssr:stedsnr" v="755463" />
	</node>
	<node lat="58.99696111142522" lon="9.940294443144778" id="-26474">
		<tag k="name" v="Aske" />
		<tag k="place" v="farm" />
		<tag k="ssr:stedsnr" v="755498" />
	</node>
	<node lat="59.09999999575976" lon="10.159902785785151" id="-26475">
		<tag k="name" v="Solbakken" />
		<tag k="place" v="isolated_dwelling" />
		<tag k="ssr:stedsnr" v="755606" />
	</node>
	<node lat="59.167536109524285" lon="10.012169440232173" id="-26482">
		<tag k="name" v="Gjønnes" />
		<tag k="place" v="farm" />
		<tag k="ssr:stedsnr" v="755811" />
	</node>
	<node lat="59.03003055421161" lon="10.184430561112126" id="-26500">
		<tag k="name" v="Tenvik nedre" />
		<tag k="place" v="farm" />
		<tag k="ssr:stedsnr" v="755956" />
	</node>
	<node lat="59.096411107525896" lon="10.175061111775696" id="-26505">
		<tag k="name" v="Istrehagan" />
		<tag k="place" v="isolated_dwelling" />
		<tag k="ssr:stedsnr" v="756606" />
	</node>
	<node lat="59.393594823925106" lon="9.988483476043818" id="-26512">
		<tag k="alt_name" v="Berg;Berg øvre" />
		<tag k="fixme" v="consider place=hamlet" />
		<tag k="name" v="Øvre Berg" />
		<tag k="place" v="farm" />
		<tag k="ssr:stedsnr" v="786220" />
	</node>
	<node lat="59.19946130448268" lon="9.968245425618226" id="-26513">
		<tag k="fixme" v="consider place=hamlet" />
		<tag k="name" v="Kvelde" />
		<tag k="place" v="farm" />
		<tag k="ssr:stedsnr" v="911168" />
	</node>
	<node lat="59.04708548329721" lon="10.207843259912957" id="-26514">
		<tag k="alt_name" v="Holtan nordre" />
		<tag k="fixme" v="consider place=hamlet" />
		<tag k="name" v="Holtan" />
		<tag k="place" v="farm" />
		<tag k="ssr:stedsnr" v="911189" />
	</node>
	<node lat="59.0456772205956" lon="10.187316924629766" id="-26515">
		<tag k="alt_name" v="Hovland;Hovland søndre" />
		<tag k="fixme" v="consider place=hamlet" />
		<tag k="name" v="Søndre Hovland" />
		<tag k="place" v="farm" />
		<tag k="ssr:stedsnr" v="911191" />
	</node>
	<node lat="59.14657668486539" lon="10.104067947565914" id="-26516">
		<tag k="fixme" v="consider place=hamlet" />
		<tag k="name" v="Herbjørnrød" />
		<tag k="place" v="farm" />
		<tag k="ssr:stedsnr" v="911244" />
	</node>
	<node lat="59.02643081184644" lon="9.944900012162238" id="-26517">
		<tag k="fixme" v="consider place=hamlet" />
		<tag k="name" v="Austein" />
		<tag k="place" v="farm" />
		<tag k="ssr:stedsnr" v="911295" />
	</node>
	<node lat="59.08313366119033" lon="10.18398062734321" id="-26519">
		<tag k="fixme" v="consider place=hamlet" />
		<tag k="name" v="Oksholmen" />
		<tag k="place" v="farm" />
		<tag k="ssr:stedsnr" v="790095" />
	</node>
	<node lat="59.006615871238395" lon="10.004043122258526" id="-26521">
		<tag k="fixme" v="consider place=hamlet" />
		<tag k="name" v="Brunla" />
		<tag k="place" v="farm" />
		<tag k="ssr:stedsnr" v="790210" />
	</node>
	<node lat="59.075336107078954" lon="10.136361107343113" id="-26523">
		<tag k="name" v="Vitterse" />
		<tag k="place" v="farm" />
		<tag k="ssr:stedsnr" v="790108" />
	</node>
	<node lat="59.1898583289144" lon="10.108252776667191" id="-26524">
		<tag k="name" v="Gunnerød" />
		<tag k="place" v="isolated_dwelling" />
		<tag k="ssr:stedsnr" v="790150" />
	</node>
	<node lat="59.11692778142082" lon="9.84584166788487" id="-26525">
		<tag k="alt_name" v="Omslandseter" />
		<tag k="name" v="Omslandssætra" />
		<tag k="old_name" v="Omslandsætra" />
		<tag k="place" v="farm" />
		<tag k="ssr:stedsnr" v="790620" />
	</node>
	<node lat="58.98018364865879" lon="9.947364601835924" id="-26533">
		<tag k="fixme" v="consider place=hamlet" />
		<tag k="name" v="Hvålakalven" />
		<tag k="place" v="farm" />
		<tag k="ssr:stedsnr" v="911616" />
	</node>
	<node lat="59.35668333184702" lon="9.813947217256791" id="-26537">
		<tag k="name" v="Vestre Styrvollssetra" />
		<tag k="place" v="isolated_dwelling" />
		<tag k="ssr:stedsnr" v="791345" />
	</node>
	<node lat="59.441674995564604" lon="9.981950006083341" id="-26538">
		<tag k="name" v="Myra" />
		<tag k="place" v="farm" />
		<tag k="ssr:stedsnr" v="791089" />
	</node>
	<node lat="59.36715230295611" lon="9.954028129439001" id="-26540">
		<tag k="alt_name" v="Hvidsle" />
		<tag k="fixme" v="consider place=hamlet" />
		<tag k="name" v="Hvisle" />
		<tag k="place" v="farm" />
		<tag k="ssr:stedsnr" v="791256" />
	</node>
	<node lat="58.975436917102044" lon="9.943724922269883" id="-26541">
		<tag k="fixme" v="consider place=hamlet" />
		<tag k="name" v="Brunvall" />
		<tag k="old_name" v="Brunvoll" />
		<tag k="place" v="farm" />
		<tag k="ssr:stedsnr" v="911863" />
	</node>
	<node lat="58.97429523469737" lon="9.854902029376877" id="-26542">
		<tag k="name" v="Nevlungen" />
		<tag k="place" v="hamlet" />
		<tag k="ssr:stedsnr" v="911881" />
	</node>
	<node lat="59.27915277528998" lon="9.911050003223782" id="-26543">
		<tag k="name" v="Åsen" />
		<tag k="place" v="farm" />
		<tag k="ssr:stedsnr" v="791440" />
	</node>
	<node lat="59.43792499702933" lon="9.88446111557516" id="-26545">
		<tag k="name" v="Jønnbekk" />
		<tag k="place" v="farm" />
		<tag k="ssr:stedsnr" v="791488" />
	</node>
	<node lat="59.4229249978024" lon="9.941363882545666" id="-26547">
		<tag k="alt_name" v="Herlandhagen" />
		<tag k="name" v="Hærlandhagen" />
		<tag k="place" v="farm" />
		<tag k="ssr:stedsnr" v="791539" />
	</node>
	<node lat="59.41729166783975" lon="9.934105552350909" id="-26548">
		<tag k="name" v="Solli" />
		<tag k="place" v="farm" />
		<tag k="ssr:stedsnr" v="791542" />
	</node>
	<node lat="58.98235000399321" lon="10.03334166290676" id="-26551">
		<tag k="name" v="Rakke" />
		<tag k="place" v="farm" />
		<tag k="ssr:stedsnr" v="911968" />
	</node>
	<node lat="59.12049593127755" lon="10.052332007332877" id="-26554">
		<tag k="alt_name" v="Lunde nordre" />
		<tag k="fixme" v="consider place=hamlet" />
		<tag k="name" v="Nordre Lunde" />
		<tag k="place" v="farm" />
		<tag k="ssr:stedsnr" v="912034" />
	</node>
	<node lat="59.1096387990003" lon="10.135539486424175" id="-26555">
		<tag k="fixme" v="consider place=hamlet" />
		<tag k="name" v="Gulsrød" />
		<tag k="place" v="farm" />
		<tag k="ssr:stedsnr" v="912052" />
	</node>
	<node lat="59.11821666911048" lon="10.009061108598537" id="-26557">
		<tag k="name" v="Hallingsdalen" />
		<tag k="place" v="farm" />
		<tag k="ssr:stedsnr" v="912057" />
	</node>
	<node lat="59.099715458897805" lon="10.079682992053955" id="-26559">
		<tag k="alt_name" v="Seierstad østre" />
		<tag k="name" v="Seierstad" />
		<tag k="place" v="hamlet" />
		<tag k="ssr:stedsnr" v="912078" />
	</node>
	<node lat="59.1067578507145" lon="10.115717587841052" id="-26560">
		<tag k="fixme" v="consider place=hamlet" />
		<tag k="name" v="Svenerød" />
		<tag k="place" v="farm" />
		<tag k="ssr:stedsnr" v="912081" />
	</node>
	<node lat="59.05270296937541" lon="10.091130229234144" id="-26563">
		<tag k="fixme" v="consider place=hamlet" />
		<tag k="name" v="Grønneberg" />
		<tag k="place" v="farm" />
		<tag k="ssr:stedsnr" v="912183" />
	</node>
	<node lat="59.041174996867376" lon="9.997163889585767" id="-26564">
		<tag k="name" v="Fritzøehus" />
		<tag k="place" v="farm" />
		<tag k="ssr:stedsnr" v="912187" />
	</node>
	<node lat="59.044628817660865" lon="10.124314272308135" id="-26565">
		<tag k="name" v="Østby" />
		<tag k="place" v="hamlet" />
		<tag k="ssr:stedsnr" v="912196" />
	</node>
	<node lat="59.00911703707067" lon="9.977829520647372" id="-26567">
		<tag k="fixme" v="consider place=hamlet" />
		<tag k="name" v="Linnum" />
		<tag k="place" v="farm" />
		<tag k="ssr:stedsnr" v="912254" />
	</node>
	<node lat="59.00628888512746" lon="9.982538880214566" id="-26568">
		<tag k="name" v="Høymyr" />
		<tag k="place" v="farm" />
		<tag k="ssr:stedsnr" v="912256" />
	</node>
	<node lat="59.375752778579816" lon="9.94449167363345" id="-26571">
		<tag k="name" v="Søndreeng" />
		<tag k="place" v="farm" />
		<tag k="ssr:stedsnr" v="912268" />
	</node>
	<node lat="59.36215344219087" lon="9.918069652280899" id="-26572">
		<tag k="alt_name" v="Engelstad S;Engelstad, s" />
		<tag k="fixme" v="consider place=hamlet" />
		<tag k="name" v="Søndre Engelstad" />
		<tag k="place" v="farm" />
		<tag k="ssr:stedsnr" v="912274" />
	</node>
	<node lat="59.383213892721784" lon="9.942127778142579" id="-26574">
		<tag k="name" v="Rønningen" />
		<tag k="place" v="isolated_dwelling" />
		<tag k="ssr:stedsnr" v="912284" />
	</node>
	<node lat="59.1556444469344" lon="9.959424992943655" id="-26578">
		<tag k="name" v="Jonsmyr" />
		<tag k="place" v="farm" />
		<tag k="ssr:stedsnr" v="912564" />
	</node>
	<node lat="59.243939702399565" lon="9.960294699440366" id="-26580">
		<tag k="alt_name" v="Hellenes, s" />
		<tag k="name" v="Søndre Hellenes" />
		<tag k="place" v="farm" />
		<tag k="ssr:stedsnr" v="912650" />
	</node>
	<node lat="59.241988892201185" lon="9.937024999243514" id="-26581">
		<tag k="alt_name" v="Rimstadmoen" />
		<tag k="name" v="Rimstad" />
		<tag k="place" v="farm" />
		<tag k="ssr:stedsnr" v="912666" />
	</node>
	<node lat="59.42236655676331" lon="9.980425159982117" id="-26582">
		<tag k="alt_name" v="Øvre Tanum" />
		<tag k="fixme" v="consider place=hamlet" />
		<tag k="name" v="Tanum" />
		<tag k="place" v="farm" />
		<tag k="ssr:stedsnr" v="913174" />
	</node>
	<node lat="59.321899996268925" lon="9.821447228002874" id="-26583">
		<tag k="fixme" v="multiple name tags, choose one and add the other to alt_name" />
		<tag k="historic" v="shieling" />
		<tag k="name" v="Lofstadseter;Lofstadsetra" />
		<tag k="place" v="isolated_dwelling" />
		<tag k="ssr:stedsnr" v="913311" />
	</node>
	<node lat="59.40047221854377" lon="9.988069448659656" id="-26591">
		<tag k="name" v="Nedre Pundsrud" />
		<tag k="place" v="locality" />
		<tag k="ssr:stedsnr" v="815484" />
	</node>
	<node lat="59.42031111393649" lon="10.016055562733163" id="-26592">
		<tag k="name" v="Granli" />
		<tag k="place" v="isolated_dwelling" />
		<tag k="ssr:stedsnr" v="815488" />
	</node>
	<node lat="59.258086109885475" lon="9.976611117345723" id="-26594">
		<tag k="historic" v="shieling" />
		<tag k="name" v="Stigen" />
		<tag k="place" v="isolated_dwelling" />
		<tag k="ssr:stedsnr" v="815621" />
	</node>
	<node lat="59.29646666742811" lon="9.944405561498352" id="-26596">
		<tag k="name" v="Holtekleiva" />
		<tag k="place" v="farm" />
		<tag k="ssr:stedsnr" v="815521" />
	</node>
	<node lat="59.31220555271433" lon="9.965375002895097" id="-26597">
		<tag k="name" v="Nyheim" />
		<tag k="place" v="farm" />
		<tag k="ssr:stedsnr" v="815528" />
	</node>
	<node lat="59.43410832893375" lon="10.02790278012086" id="-26600">
		<tag k="name" v="Plassen" />
		<tag k="place" v="locality" />
		<tag k="ssr:stedsnr" v="815822" />
	</node>
	<node lat="59.450519443192405" lon="10.023858333194681" id="-26602">
		<tag k="name" v="Skjervtun" />
		<tag k="place" v="farm" />
		<tag k="ssr:stedsnr" v="815879" />
	</node>
	<node lat="59.44786944259173" lon="10.02217222617832" id="-26603">
		<tag k="name" v="Frydenlund" />
		<tag k="place" v="farm" />
		<tag k="ssr:stedsnr" v="815885" />
	</node>
	<node lat="59.30835833070295" lon="9.857083339351448" id="-26619">
		<tag k="name" v="Huset" />
		<tag k="place" v="farm" />
		<tag k="ssr:stedsnr" v="816107" />
	</node>
	<node lat="59.03498888836702" lon="9.975950000360424" id="-26621">
		<tag k="name" v="Bakkane" />
		<tag k="place" v="farm" />
		<tag k="ssr:stedsnr" v="816109" />
	</node>
	<node lat="59.21658888445576" lon="9.90477500168515" id="-26637">
		<tag k="historic" v="shieling" />
		<tag k="name" v="Nordkvelde Mellom seter" />
		<tag k="place" v="isolated_dwelling" />
		<tag k="ssr:stedsnr" v="816083" />
	</node>
	<node lat="59.014719444891895" lon="10.102902769334694" id="-26640">
		<tag k="name" v="Kalverønningen" />
		<tag k="place" v="isolated_dwelling" />
		<tag k="ssr:stedsnr" v="816087" />
	</node>
	<node lat="59.063230557776116" lon="10.14522499468573" id="-26643">
		<tag k="name" v="Løvstad" />
		<tag k="place" v="isolated_dwelling" />
		<tag k="ssr:stedsnr" v="816208" />
	</node>
	<node lat="59.07046667001053" lon="10.14618610931081" id="-26645">
		<tag k="name" v="Havna" />
		<tag k="place" v="locality" />
		<tag k="ssr:stedsnr" v="816218" />
	</node>
	<node lat="59.05091110894718" lon="10.091986102595664" id="-26648">
		<tag k="name" v="Grønneberg" />
		<tag k="place" v="isolated_dwelling" />
		<tag k="ssr:stedsnr" v="816227" />
	</node>
	<node lat="59.03773889133244" lon="10.071591674113197" id="-26650">
		<tag k="amenity" v="school" />
		<tag k="name" v="Vestfold fylkes husflidskole" />
		<tag k="ssr:stedsnr" v="816274" />
	</node>
	<node lat="59.00924166333096" lon="9.93931666965915" id="-26660">
		<tag k="name" v="Gudem" />
		<tag k="place" v="farm" />
		<tag k="ssr:stedsnr" v="816519" />
	</node>
	<node lat="58.986975001862334" lon="10.031422221103874" id="-26662">
		<tag k="amenity" v="hospital" />
		<tag k="name" v="Kysthospitalet" />
		<tag k="ssr:stedsnr" v="816485" />
	</node>
	<node lat="59.35121666751291" lon="9.967591666959201" id="-26666">
		<tag k="name" v="Breifjellhytta" />
		<tag k="place" v="isolated_dwelling" />
		<tag k="ssr:stedsnr" v="816726" />
	</node>
	<node lat="59.063191664216134" lon="10.182769448897341" id="-26668">
		<tag k="name" v="Hasle" />
		<tag k="place" v="farm" />
		<tag k="ssr:stedsnr" v="816921" />
	</node>
	<node lat="59.05338055145461" lon="10.03571945128068" id="-26669">
		<tag k="amenity" v="hospital" />
		<tag k="name" v="Larvik sykehus" />
		<tag k="ssr:stedsnr" v="816925" />
	</node>
	<node lat="59.17642499620501" lon="10.122155555967604" id="-26673">
		<tag k="name" v="Hagan" />
		<tag k="place" v="locality" />
		<tag k="ssr:stedsnr" v="816822" />
	</node>
	<node lat="59.038380554073655" lon="10.10722499385986" id="-26684">
		<tag k="alt_name" v="Kaupang nordre" />
		<tag k="name" v="Nordre Kaupang" />
		<tag k="place" v="farm" />
		<tag k="ssr:stedsnr" v="817179" />
	</node>
	<node lat="59.40520036813083" lon="9.945962762906266" id="-26685">
		<tag k="alt_name" v="Gjerpeland;Hjerpeland S." />
		<tag k="fixme" v="consider place=hamlet" />
		<tag k="name" v="Søndre Gjerpeland" />
		<tag k="place" v="farm" />
		<tag k="ssr:stedsnr" v="920666" />
	</node>
	<node lat="58.98413130514956" lon="10.007320838267713" id="-26695">
		<tag k="alt_name" v="Gumserød" />
		<tag k="fixme" v="consider place=hamlet" />
		<tag k="name" v="Gomserød" />
		<tag k="place" v="farm" />
		<tag k="ssr:stedsnr" v="850980" />
	</node>
	<node lat="59.096783373319724" lon="10.043630528298143" id="-26699">
		<tag k="alt_name" v="Steinsholt nordre" />
		<tag k="fixme" v="consider place=hamlet" />
		<tag k="name" v="Steinsholt" />
		<tag k="place" v="farm" />
		<tag k="ssr:stedsnr" v="851093" />
	</node>
	<node lat="59.18481666935452" lon="9.907877783010909" id="-26704">
		<tag k="name" v="Berget" />
		<tag k="place" v="farm" />
		<tag k="ssr:stedsnr" v="851516" />
	</node>
	<node lat="59.031753510678975" lon="9.928598941904129" id="-26705">
		<tag k="alt_name" v="Thorstein" />
		<tag k="fixme" v="consider place=hamlet" />
		<tag k="name" v="Torstein" />
		<tag k="place" v="farm" />
		<tag k="ssr:stedsnr" v="851445" />
	</node>
	<node lat="59.13884721896046" lon="9.877527782851725" id="-26707">
		<tag k="name" v="Husken" />
		<tag k="place" v="farm" />
		<tag k="ssr:stedsnr" v="851621" />
	</node>
	<node lat="59.05795468935727" lon="10.215115328159609" id="-26711">
		<tag k="fixme" v="consider place=hamlet" />
		<tag k="name" v="Nøklejordet" />
		<tag k="place" v="farm" />
		<tag k="ssr:stedsnr" v="852167" />
	</node>
	<node lat="59.062592077939975" lon="10.217826929535498" id="-26712">
		<tag k="fixme" v="consider place=hamlet" />
		<tag k="name" v="Rød" />
		<tag k="place" v="farm" />
		<tag k="ssr:stedsnr" v="852168" />
	</node>
	<node lat="59.052222223486126" lon="10.008888888638458" id="-26713">
		<tag k="name" v="Langestrand" />
		<tag k="place" v="suburb" />
		<tag k="ssr:stedsnr" v="852175" />
	</node>
	<node lat="59.417507001922985" lon="10.012858430352292" id="-26714">
		<tag k="alt_name" v="Thingelstad" />
		<tag k="fixme" v="consider place=hamlet" />
		<tag k="name" v="Tingelstad" />
		<tag k="place" v="farm" />
		<tag k="ssr:stedsnr" v="852180" />
	</node>
	<node lat="59.448538105459726" lon="10.029128157729101" id="-26716">
		<tag k="fixme" v="consider place=hamlet" />
		<tag k="name" v="Skjerven" />
		<tag k="place" v="farm" />
		<tag k="ssr:stedsnr" v="852077" />
	</node>
	<node lat="59.43537499614855" lon="9.992400003847191" id="-26718">
		<tag k="name" v="Sundebakken" />
		<tag k="place" v="farm" />
		<tag k="ssr:stedsnr" v="852086" />
	</node>
	<node lat="59.37187778028646" lon="9.89947500165878" id="-26719">
		<tag k="name" v="Lysestua" />
		<tag k="place" v="isolated_dwelling" />
		<tag k="ssr:stedsnr" v="852271" />
	</node>
	<node lat="59.28970555948339" lon="9.820108333674112" id="-26721">
		<tag k="alt_name" v="Steinsholtseter" />
		<tag k="historic" v="shieling" />
		<tag k="name" v="Steinsholtsetra" />
		<tag k="place" v="isolated_dwelling" />
		<tag k="ssr:stedsnr" v="852483" />
	</node>
	<node lat="59.35576110661267" lon="9.942386117166304" id="-26723">
		<tag k="name" v="Holtan" />
		<tag k="place" v="farm" />
		<tag k="ssr:stedsnr" v="852367" />
	</node>
	<node lat="59.45005000054528" lon="9.940288890003787" id="-26725">
		<tag k="historic" v="shieling" />
		<tag k="name" v="Funtinsetra" />
		<tag k="place" v="isolated_dwelling" />
		<tag k="ssr:stedsnr" v="852519" />
	</node>
	<node lat="59.46194721878618" lon="9.822088887166435" id="-26727">
		<tag k="alt_name" v="Sætra" />
		<tag k="name" v="Setra" />
		<tag k="place" v="farm" />
		<tag k="ssr:stedsnr" v="852584" />
	</node>
	<node lat="59.053822220765724" lon="9.981541660626522" id="-26730">
		<tag k="name" v="Ingri" />
		<tag k="place" v="farm" />
		<tag k="ssr:stedsnr" v="876112" />
	</node>
	<node lat="59.12876944593871" lon="9.888358338401954" id="-26732">
		<tag k="alt_name" v="Elvestua" />
		<tag k="name" v="Elvestad" />
		<tag k="place" v="farm" />
		<tag k="ssr:stedsnr" v="876007" />
	</node>
	<node lat="59.299086107779495" lon="9.98881943907389" id="-26747">
		<tag k="name" v="Søndre Hedde" />
		<tag k="place" v="locality" />
		<tag k="ssr:stedsnr" v="876605" />
	</node>
	<node lat="59.45536944752679" lon="10.03862500098025" id="-26750">
		<tag k="name" v="Plassen" />
		<tag k="place" v="farm" />
		<tag k="ssr:stedsnr" v="876853" />
	</node>
	<node lat="59.42281111260946" lon="9.951838887064051" id="-26751">
		<tag k="name" v="Brekka" />
		<tag k="place" v="locality" />
		<tag k="ssr:stedsnr" v="876855" />
	</node>
	<node lat="59.44453888678289" lon="9.990391669733226" id="-26752">
		<tag k="name" v="Styrmo" />
		<tag k="place" v="farm" />
		<tag k="ssr:stedsnr" v="876861" />
	</node>
	<node lat="59.44259166735144" lon="9.998958331558" id="-26753">
		<tag k="name" v="Tinggarden" />
		<tag k="place" v="locality" />
		<tag k="ssr:stedsnr" v="876862" />
	</node>
	<node lat="59.461435173025905" lon="10.031072857709916" id="-26755">
		<tag k="alt_name" v="Nordby n." />
		<tag k="fixme" v="consider place=hamlet" />
		<tag k="name" v="Nordre Nordby" />
		<tag k="place" v="farm" />
		<tag k="ssr:stedsnr" v="876870" />
	</node>
	<node lat="59.39244167059997" lon="9.947602777072154" id="-26756">
		<tag k="name" v="Øvre Askjem" />
		<tag k="place" v="farm" />
		<tag k="ssr:stedsnr" v="876552" />
	</node>
	<node lat="59.31844722448789" lon="9.902475003159724" id="-26760">
		<tag k="name" v="Vierød" />
		<tag k="place" v="farm" />
		<tag k="ssr:stedsnr" v="877115" />
	</node>
	<node lat="59.292527774758014" lon="9.879863881804948" id="-26762">
		<tag k="name" v="Bøe-enga" />
		<tag k="place" v="farm" />
		<tag k="ssr:stedsnr" v="877121" />
	</node>
	<node lat="59.26456944423594" lon="9.85273333674721" id="-26768">
		<tag k="name" v="Bøvannshytta" />
		<tag k="place" v="isolated_dwelling" />
		<tag k="ssr:stedsnr" v="877051" />
	</node>
	<node lat="59.07438268627917" lon="10.139228448570329" id="-26769">
		<tag k="fixme" v="consider place=hamlet" />
		<tag k="name" v="Vittersø østre" />
		<tag k="place" v="farm" />
		<tag k="ssr:stedsnr" v="877055" />
	</node>
	<node lat="59.073144448943694" lon="10.148811107012689" id="-26770">
		<tag k="name" v="Tveiten" />
		<tag k="place" v="farm" />
		<tag k="ssr:stedsnr" v="877058" />
	</node>
	<node lat="59.031986113176245" lon="10.106050006679233" id="-26775">
		<tag k="name" v="Bispelunden" />
		<tag k="place" v="locality" />
		<tag k="ssr:stedsnr" v="877071" />
	</node>
	<node lat="59.31627499604485" lon="9.928863896087577" id="-26776">
		<tag k="historic" v="shieling" />
		<tag k="name" v="Svartvannsetra" />
		<tag k="place" v="isolated_dwelling" />
		<tag k="ssr:stedsnr" v="877100" />
	</node>
	<node lat="59.07025069040652" lon="10.113454080800885" id="-26780">
		<tag k="name" v="Åsrønningen" />
		<tag k="place" v="farm" />
		<tag k="ssr:stedsnr" v="877215" />
	</node>
	<node lat="59.4258611087958" lon="9.893999992640595" id="-26787">
		<tag k="name" v="Sandbekk" />
		<tag k="place" v="isolated_dwelling" />
		<tag k="ssr:stedsnr" v="877305" />
	</node>
	<node lat="59.00741666655704" lon="9.794913893545086" id="-26788">
		<tag k="name" v="Eika" />
		<tag k="place" v="isolated_dwelling" />
		<tag k="ssr:stedsnr" v="877363" />
	</node>
	<node lat="58.992450000584036" lon="9.939288897188385" id="-26789">
		<tag k="name" v="Aske" />
		<tag k="place" v="farm" />
		<tag k="ssr:stedsnr" v="877505" />
	</node>
	<node lat="59.01316388909463" lon="10.026927779005822" id="-26790">
		<tag k="name" v="Agnes gård" />
		<tag k="place" v="farm" />
		<tag k="ssr:stedsnr" v="877509" />
	</node>
	<node lat="59.01162221963537" lon="9.975991674804556" id="-26792">
		<tag k="name" v="Lindhjem" />
		<tag k="place" v="locality" />
		<tag k="ssr:stedsnr" v="877515" />
	</node>
	<node lat="58.97130555591271" lon="9.905755556957548" id="-26795">
		<tag k="name" v="Kloppsand" />
		<tag k="place" v="isolated_dwelling" />
		<tag k="ssr:stedsnr" v="877407" />
	</node>
	<node lat="59.02783888784218" lon="9.853497223762036" id="-26796">
		<tag k="name" v="Askedalen nedre" />
		<tag k="place" v="isolated_dwelling" />
		<tag k="ssr:stedsnr" v="877415" />
	</node>
	<node lat="59.00487516375787" lon="9.92287659520763" id="-26797">
		<tag k="fixme" v="consider place=hamlet" />
		<tag k="name" v="Ødelund" />
		<tag k="place" v="farm" />
		<tag k="ssr:stedsnr" v="877450" />
	</node>
	<node lat="59.095997224778706" lon="10.041761105382443" id="-26804">
		<tag k="name" v="Steinsholt søndre" />
		<tag k="place" v="farm" />
		<tag k="ssr:stedsnr" v="877916" />
	</node>
	<node lat="59.14026111140934" lon="10.046938880518978" id="-26815">
		<tag k="name" v="Lauvstad" />
		<tag k="place" v="farm" />
		<tag k="ssr:stedsnr" v="911015" />
	</node>
	<node lat="59.14077777760369" lon="10.117833340741305" id="-26816">
		<tag k="name" v="Fjellbo" />
		<tag k="place" v="farm" />
		<tag k="ssr:stedsnr" v="911019" />
	</node>
	<node lat="59.209553197923356" lon="9.975428213146502" id="-26817">
		<tag k="fixme" v="consider place=hamlet" />
		<tag k="name" v="Furulund" />
		<tag k="place" v="farm" />
		<tag k="ssr:stedsnr" v="911362" />
	</node>
	<node lat="59.20976801872737" lon="10.067263497027078" id="-26818">
		<tag k="fixme" v="consider place=hamlet" />
		<tag k="name" v="Gåsholt" />
		<tag k="place" v="farm" />
		<tag k="ssr:stedsnr" v="911368" />
	</node>
	<node lat="59.074980642663895" lon="10.181295223300474" id="-26821">
		<tag k="fixme" v="consider place=hamlet" />
		<tag k="name" v="Haugan" />
		<tag k="place" v="farm" />
		<tag k="ssr:stedsnr" v="912132" />
	</node>
	<node lat="59.03464035544045" lon="10.00661363746137" id="-26823">
		<tag k="fixme" v="consider place=hamlet" />
		<tag k="name" v="Bentsrød" />
		<tag k="place" v="farm" />
		<tag k="ssr:stedsnr" v="912209" />
	</node>
	<node lat="59.03404167059414" lon="10.085266673568839" id="-26824">
		<tag k="alt_name" v="Dreng" />
		<tag k="name" v="Øvre Dreng" />
		<tag k="place" v="farm" />
		<tag k="ssr:stedsnr" v="912213" />
	</node>
	<node lat="59.16261908894132" lon="10.124673723296684" id="-26827">
		<tag k="fixme" v="consider place=hamlet" />
		<tag k="name" v="Mørk" />
		<tag k="place" v="farm" />
		<tag k="ssr:stedsnr" v="912225" />
	</node>
	<node lat="59.02090916092151" lon="10.014356029652474" id="-26829">
		<tag k="fixme" v="consider place=hamlet" />
		<tag k="name" v="Tronsrød" />
		<tag k="place" v="farm" />
		<tag k="ssr:stedsnr" v="912240" />
	</node>
	<node lat="59.0105749960423" lon="9.946886106332984" id="-26831">
		<tag k="name" v="Gui" />
		<tag k="place" v="farm" />
		<tag k="ssr:stedsnr" v="912319" />
	</node>
	<node lat="59.07411142874694" lon="9.92307290199011" id="-26833">
		<tag k="fixme" v="consider place=hamlet" />
		<tag k="name" v="Bakke" />
		<tag k="place" v="farm" />
		<tag k="ssr:stedsnr" v="912391" />
	</node>
	<node lat="59.290954092103334" lon="9.939027513650196" id="-26834">
		<tag k="fixme" v="consider place=hamlet" />
		<tag k="name" v="Haugen" />
		<tag k="place" v="farm" />
		<tag k="ssr:stedsnr" v="912393" />
	</node>
	<node lat="59.304074995835336" lon="9.953375006721389" id="-26836">
		<tag k="name" v="Holterønningen" />
		<tag k="place" v="isolated_dwelling" />
		<tag k="ssr:stedsnr" v="912416" />
	</node>
	<node lat="59.276865572009015" lon="9.936388686576654" id="-26838">
		<tag k="fixme" v="consider place=hamlet" />
		<tag k="name" v="Hvåra" />
		<tag k="place" v="farm" />
		<tag k="ssr:stedsnr" v="912489" />
	</node>
	<node lat="59.19632579319486" lon="9.964495982127351" id="-26843">
		<tag k="fixme" v="consider place=hamlet" />
		<tag k="name" v="Vestby" />
		<tag k="place" v="farm" />
		<tag k="ssr:stedsnr" v="912714" />
	</node>
	<node lat="59.20873836249598" lon="9.871364298187784" id="-26846">
		<tag k="fixme" v="consider place=hamlet" />
		<tag k="name" v="Øksenholt" />
		<tag k="place" v="farm" />
		<tag k="ssr:stedsnr" v="912743" />
	</node>
	<node lat="59.346924185226676" lon="9.920327280900514" id="-26848">
		<tag k="fixme" v="consider place=hamlet" />
		<tag k="name" v="Helgeland" />
		<tag k="place" v="farm" />
		<tag k="ssr:stedsnr" v="913337" />
	</node>
	<node lat="59.349358847124904" lon="9.938429707711082" id="-26849">
		<tag k="alt_name" v="Kongelf" />
		<tag k="fixme" v="consider place=hamlet" />
		<tag k="name" v="Kongell" />
		<tag k="place" v="farm" />
		<tag k="ssr:stedsnr" v="913338" />
	</node>
	<node lat="59.420999999315" lon="9.96465833762492" id="-26851">
		<tag k="name" v="Kruka" />
		<tag k="place" v="farm" />
		<tag k="ssr:stedsnr" v="913503" />
	</node>
	<node lat="59.41557483482424" lon="9.94066949719238" id="-26852">
		<tag k="fixme" v="consider place=hamlet" />
		<tag k="name" v="Herland" />
		<tag k="place" v="farm" />
		<tag k="ssr:stedsnr" v="913509" />
	</node>
	<node lat="59.20849444409605" lon="9.902574998384559" id="-26863">
		<tag k="historic" v="shieling" />
		<tag k="name" v="Furulund" />
		<tag k="place" v="isolated_dwelling" />
		<tag k="ssr:stedsnr" v="937118" />
	</node>
	<node lat="59.04403055827842" lon="9.995847228133515" id="-26867">
		<tag k="name" v="Stiksrød" />
		<tag k="place" v="farm" />
		<tag k="ssr:stedsnr" v="937136" />
	</node>
	<node lat="59.06468888816668" lon="10.034186104359222" id="-26869">
		<tag k="fixme" v="consider place=hamlet" />
		<tag k="name" v="Månejordet" />
		<tag k="place" v="farm" />
		<tag k="ssr:stedsnr" v="937149" />
	</node>
	<node lat="59.32546110965683" lon="9.90617221430156" id="-26870">
		<tag k="name" v="Nordre Vierød" />
		<tag k="place" v="farm" />
		<tag k="ssr:stedsnr" v="937150" />
	</node>
	<node lat="59.01768611462292" lon="10.148599993949084" id="-26873">
		<tag k="name" v="Eikelund" />
		<tag k="place" v="farm" />
		<tag k="ssr:stedsnr" v="937152" />
	</node>
	<node lat="59.134197221380454" lon="9.865749992677461" id="-26879">
		<tag k="name" v="Rønningen" />
		<tag k="place" v="locality" />
		<tag k="ssr:stedsnr" v="937040" />
	</node>
	<node lat="59.325205553748894" lon="9.874141669434106" id="-26883">
		<tag k="name" v="Løkka" />
		<tag k="place" v="isolated_dwelling" />
		<tag k="ssr:stedsnr" v="937091" />
	</node>
	<node lat="59.068586108809065" lon="9.985822221793006" id="-26884">
		<tag k="name" v="Vassvik" />
		<tag k="place" v="farm" />
		<tag k="ssr:stedsnr" v="937094" />
	</node>
	<node lat="59.09633055561257" lon="10.08401388187934" id="-26888">
		<tag k="name" v="Seierstad søndre" />
		<tag k="place" v="farm" />
		<tag k="ssr:stedsnr" v="937210" />
	</node>
	<node lat="59.414691670437016" lon="9.96663332554832" id="-26892">
		<tag k="name" v="Åserud" />
		<tag k="place" v="farm" />
		<tag k="ssr:stedsnr" v="937540" />
	</node>
	<node lat="59.077288888988214" lon="10.198230559892416" id="-26894">
		<tag k="name" v="Liefaret" />
		<tag k="place" v="farm" />
		<tag k="ssr:stedsnr" v="937543" />
	</node>
	<node lat="59.40102777376515" lon="9.982850005920051" id="-26895">
		<tag k="name" v="Lågerenga" />
		<tag k="place" v="locality" />
		<tag k="ssr:stedsnr" v="937544" />
	</node>
	<node lat="59.082538885398726" lon="10.160280564104232" id="-26896">
		<tag k="name" v="Skalleberg nordre" />
		<tag k="place" v="farm" />
		<tag k="ssr:stedsnr" v="937545" />
	</node>
	<node lat="59.043992636502715" lon="10.212775278871982" id="-26898">
		<tag k="alt_name" v="Holtan søndre" />
		<tag k="fixme" v="consider place=hamlet" />
		<tag k="name" v="Søndre Holtan" />
		<tag k="place" v="farm" />
		<tag k="ssr:stedsnr" v="937608" />
	</node>
	<node lat="59.06173022805716" lon="10.20844304583839" id="-26902">
		<tag k="fixme" v="consider place=hamlet" />
		<tag k="name" v="Sandnes store" />
		<tag k="place" v="farm" />
		<tag k="ssr:stedsnr" v="937911" />
	</node>
	<node lat="59.16143055415471" lon="10.039552781701007" id="-26903">
		<tag k="name" v="Allum" />
		<tag k="place" v="farm" />
		<tag k="ssr:stedsnr" v="937915" />
	</node>
	<node lat="59.06450795105447" lon="10.186028578581142" id="-26907">
		<tag k="fixme" v="consider place=hamlet" />
		<tag k="name" v="Hasle" />
		<tag k="place" v="farm" />
		<tag k="ssr:stedsnr" v="937921" />
	</node>
	<node lat="59.42192777588213" lon="9.95456389481912" id="-26916">
		<tag k="name" v="Teie" />
		<tag k="place" v="locality" />
		<tag k="ssr:stedsnr" v="937883" />
	</node>
	<node lat="59.2878861125046" lon="9.896583326688523" id="-26920">
		<tag k="name" v="Moen" />
		<tag k="place" v="farm" />
		<tag k="ssr:stedsnr" v="938003" />
	</node>
	<node lat="59.02874791232911" lon="9.840858101157835" id="-26932">
		<tag k="name" v="Kastet" />
		<tag k="place" v="locality" />
		<tag k="ssr:stedsnr" v="938406" />
	</node>
	<node lat="59.02610832939115" lon="9.861294446523425" id="-26935">
		<tag k="name" v="Bålsrød" />
		<tag k="place" v="farm" />
		<tag k="ssr:stedsnr" v="938426" />
	</node>
	<node lat="59.016580558664714" lon="9.913663887697929" id="-26936">
		<tag k="name" v="Halle" />
		<tag k="place" v="locality" />
		<tag k="ssr:stedsnr" v="938427" />
	</node>
	<node lat="59.015313226320345" lon="9.853995476643405" id="-26939">
		<tag k="name" v="Hallen" />
		<tag k="place" v="farm" />
		<tag k="ssr:stedsnr" v="938437" />
	</node>
	<node lat="59.02898889143897" lon="9.932461104878396" id="-26941">
		<tag k="name" v="Thorstein" />
		<tag k="place" v="farm" />
		<tag k="ssr:stedsnr" v="938440" />
	</node>
	<node lat="59.01078888714837" lon="9.936483331775971" id="-26945">
		<tag k="name" v="Gudem øvre" />
		<tag k="place" v="farm" />
		<tag k="ssr:stedsnr" v="938451" />
	</node>
	<node lat="59.01311944782735" lon="9.983383342066578" id="-26946">
		<tag k="name" v="Lindhjem" />
		<tag k="place" v="farm" />
		<tag k="ssr:stedsnr" v="938505" />
	</node>
	<node lat="58.9922388851938" lon="10.029080552518964" id="-26947">
		<tag k="leisure" v="pitch" />
		<tag k="name" v="Stavernshallen" />
		<tag k="ssr:stedsnr" v="938509" />
	</node>
	<node lat="58.98655423077941" lon="9.89327265642589" id="-26959">
		<tag k="name" v="Nordre Holhjem" />
		<tag k="place" v="farm" />
		<tag k="ssr:stedsnr" v="973101" />
	</node>
	<node lat="58.98499235444368" lon="9.897879905860494" id="-26960">
		<tag k="name" v="Nordre Holhjem" />
		<tag k="place" v="farm" />
		<tag k="ssr:stedsnr" v="973102" />
	</node>
	<node lat="58.985103859938285" lon="9.887028306601975" id="-26961">
		<tag k="name" v="Nordre Holhjem" />
		<tag k="place" v="farm" />
		<tag k="ssr:stedsnr" v="973103" />
	</node>
	<node lat="58.98563413482602" lon="9.893574885741687" id="-26962">
		<tag k="name" v="Nordre Holhjem" />
		<tag k="place" v="farm" />
		<tag k="ssr:stedsnr" v="973104" />
	</node>
	<node lat="58.98526056562435" lon="9.890055721937587" id="-26963">
		<tag k="name" v="Nordre Holhjem" />
		<tag k="place" v="farm" />
		<tag k="ssr:stedsnr" v="973105" />
	</node>
	<node lat="58.98548395260173" lon="9.890500175265357" id="-26964">
		<tag k="name" v="Nordre Holhjem" />
		<tag k="place" v="farm" />
		<tag k="ssr:stedsnr" v="973106" />
	</node>
	<node lat="58.98226734282358" lon="9.893056589349607" id="-26965">
		<tag k="fixme" v="consider place=hamlet" />
		<tag k="name" v="Søndre Holhjem" />
		<tag k="place" v="farm" />
		<tag k="ssr:stedsnr" v="973109" />
	</node>
	<node lat="58.98443206412285" lon="9.892168445485613" id="-26966">
		<tag k="name" v="Søndre Holhjem" />
		<tag k="place" v="farm" />
		<tag k="ssr:stedsnr" v="973110" />
	</node>
	<node lat="58.98104986706813" lon="9.890960718702832" id="-26967">
		<tag k="name" v="Søndre Holhjem" />
		<tag k="place" v="farm" />
		<tag k="ssr:stedsnr" v="973111" />
	</node>
	<node lat="58.9828237735293" lon="9.896412671464972" id="-26968">
		<tag k="name" v="Søndre Holhjem" />
		<tag k="place" v="farm" />
		<tag k="ssr:stedsnr" v="973117" />
	</node>
	<node lat="58.98364396004066" lon="9.893742692677412" id="-26969">
		<tag k="name" v="Søndre Holhjem" />
		<tag k="place" v="farm" />
		<tag k="ssr:stedsnr" v="973118" />
	</node>
	<node lat="58.98109613971269" lon="9.896670090567634" id="-26970">
		<tag k="name" v="Søndre Holhjem" />
		<tag k="place" v="farm" />
		<tag k="ssr:stedsnr" v="973119" />
	</node>
	<node lat="58.98632584108684" lon="9.891334092186465" id="-26971">
		<tag k="name" v="Holhjem" />
		<tag k="place" v="hamlet" />
		<tag k="ssr:stedsnr" v="973120" />
	</node>
	<node lat="59.02733251436956" lon="9.873941911025579" id="-26975">
		<tag k="fixme" v="consider place=hamlet" />
		<tag k="name" v="Tvedalen" />
		<tag k="place" v="farm" />
		<tag k="ssr:stedsnr" v="976847" />
	</node>
	<node lat="59.02205151243129" lon="9.868124870585495" id="-26976">
		<tag k="name" v="Tvedalen" />
		<tag k="place" v="farm" />
		<tag k="ssr:stedsnr" v="976848" />
	</node>
	<node lat="59.02910687118952" lon="9.844170696983333" id="-26977">
		<tag k="name" v="Tvedalen" />
		<tag k="place" v="farm" />
		<tag k="ssr:stedsnr" v="976849" />
	</node>
	<node lat="59.01602956243763" lon="9.868224592968414" id="-26978">
		<tag k="name" v="Tvedalen" />
		<tag k="place" v="farm" />
		<tag k="ssr:stedsnr" v="976850" />
	</node>
	<node lat="59.027302544628654" lon="9.849874403251961" id="-26979">
		<tag k="name" v="Tvedalen" />
		<tag k="place" v="farm" />
		<tag k="ssr:stedsnr" v="976851" />
	</node>
	<node lat="59.028476639405376" lon="9.8766342035459" id="-26980">
		<tag k="name" v="Tvedalen" />
		<tag k="place" v="farm" />
		<tag k="ssr:stedsnr" v="976852" />
	</node>
	<node lat="59.03064069290995" lon="9.84425342907951" id="-26981">
		<tag k="name" v="Tvedalen" />
		<tag k="place" v="farm" />
		<tag k="ssr:stedsnr" v="976853" />
	</node>
	<node lat="59.030782803544575" lon="9.848819713316932" id="-26982">
		<tag k="name" v="Tvedalen" />
		<tag k="place" v="farm" />
		<tag k="ssr:stedsnr" v="976854" />
	</node>
	<node lat="59.030241157813315" lon="9.846750109052403" id="-26983">
		<tag k="name" v="Tvedalen" />
		<tag k="place" v="farm" />
		<tag k="ssr:stedsnr" v="976855" />
	</node>
	<node lat="59.030603781129784" lon="9.859256948143573" id="-26984">
		<tag k="name" v="Tvedalen" />
		<tag k="place" v="farm" />
		<tag k="ssr:stedsnr" v="976856" />
	</node>
	<node lat="59.029221390176026" lon="9.87011101782367" id="-26985">
		<tag k="name" v="Tvedalen" />
		<tag k="place" v="farm" />
		<tag k="ssr:stedsnr" v="976857" />
	</node>
	<node lat="59.0347061348116" lon="9.843540950397474" id="-26986">
		<tag k="name" v="Tvedalen" />
		<tag k="place" v="farm" />
		<tag k="ssr:stedsnr" v="976858" />
	</node>
	<node lat="59.015045654422885" lon="9.865347488125268" id="-26987">
		<tag k="name" v="Tvedalen" />
		<tag k="place" v="farm" />
		<tag k="ssr:stedsnr" v="976859" />
	</node>
	<node lat="59.03063402354277" lon="9.860925280149521" id="-26988">
		<tag k="name" v="Tvedalen" />
		<tag k="place" v="farm" />
		<tag k="ssr:stedsnr" v="976860" />
	</node>
	<node lat="59.03451782195479" lon="9.843217651626617" id="-26989">
		<tag k="name" v="Tvedalen" />
		<tag k="place" v="farm" />
		<tag k="ssr:stedsnr" v="976862" />
	</node>
	<node lat="59.031784900579765" lon="9.854098661427011" id="-26990">
		<tag k="name" v="Tvedalen" />
		<tag k="place" v="farm" />
		<tag k="ssr:stedsnr" v="976863" />
	</node>
	<node lat="59.01864323182116" lon="9.86247818960488" id="-26991">
		<tag k="name" v="Tvedalen" />
		<tag k="place" v="farm" />
		<tag k="ssr:stedsnr" v="976864" />
	</node>
	<node lat="59.029374279273156" lon="9.842119566124651" id="-26992">
		<tag k="name" v="Tvedalen" />
		<tag k="place" v="farm" />
		<tag k="ssr:stedsnr" v="976865" />
	</node>
	<node lat="59.032870317274636" lon="9.861274623438728" id="-26993">
		<tag k="name" v="Tveidalen telefonsentral" />
		<tag k="place" v="farm" />
		<tag k="ssr:stedsnr" v="976866" />
	</node>
	<node lat="59.45998740026996" lon="10.032366408335648" id="-26995">
		<tag k="name" v="Nordby" />
		<tag k="place" v="hamlet" />
		<tag k="ssr:stedsnr" v="985646" />
	</node>
	<node lat="59.449536803230764" lon="10.0287579690453" id="-26996">
		<tag k="name" v="Skjerven" />
		<tag k="place" v="hamlet" />
		<tag k="ssr:stedsnr" v="985647" />
	</node>
	<node lat="59.04882317567862" lon="10.066517810666507" id="-26997">
		<tag k="fixme" v="consider place=hamlet" />
		<tag k="name" v="Unnersbu" />
		<tag k="place" v="farm" />
		<tag k="ssr:stedsnr" v="985648" />
	</node>
	<node lat="59.02934094480227" lon="10.077479542704065" id="-26998">
		<tag k="fixme" v="consider place=hamlet" />
		<tag k="name" v="Rekkevik" />
		<tag k="place" v="farm" />
		<tag k="ssr:stedsnr" v="985649" />
	</node>
	<node lat="59.03660840178155" lon="10.067118245566423" id="-26999">
		<tag k="fixme" v="consider place=hamlet" />
		<tag k="name" v="Østre Halsen løkker" />
		<tag k="place" v="farm" />
		<tag k="ssr:stedsnr" v="985650" />
	</node>
	<node lat="59.03255418277111" lon="10.086835373405124" id="-27000">
		<tag k="name" v="Dreng" />
		<tag k="place" v="hamlet" />
		<tag k="ssr:stedsnr" v="985651" />
	</node>
	<node lat="59.07633804733545" lon="10.08343342532266" id="-27001">
		<tag k="name" v="Rauan" />
		<tag k="place" v="hamlet" />
		<tag k="ssr:stedsnr" v="985653" />
	</node>
	<node lat="59.05782430007089" lon="10.100771743857175" id="-27002">
		<tag k="name" v="Gjerstad" />
		<tag k="place" v="hamlet" />
		<tag k="ssr:stedsnr" v="985654" />
	</node>
	<node lat="59.14143889006573" lon="10.046872220267323" id="-27016">
		<tag k="name" v="Vestmo" />
		<tag k="place" v="farm" />
		<tag k="ssr:stedsnr" v="1013" />
	</node>
	<node lat="59.235158369041194" lon="9.949671568639872" id="-27018">
		<tag k="fixme" v="consider place=hamlet" />
		<tag k="name" v="Rimstad" />
		<tag k="place" v="farm" />
		<tag k="ssr:stedsnr" v="1727" />
	</node>
	<node lat="59.13504221988247" lon="10.075914392883059" id="-27020">
		<tag k="name" v="Hagtvet" />
		<tag k="place" v="farm" />
		<tag k="ssr:stedsnr" v="1038" />
	</node>
	<node lat="59.07530015008024" lon="9.875643051338702" id="-27021">
		<tag k="fixme" v="consider place=hamlet" />
		<tag k="name" v="Solum" />
		<tag k="place" v="farm" />
		<tag k="ssr:stedsnr" v="1415" />
	</node>
	<node lat="59.07787873555301" lon="9.90594095910375" id="-27022">
		<tag k="alt_name" v="Dammyren;Moland" />
		<tag k="name" v="Dammyra" />
		<tag k="place" v="farm" />
		<tag k="ssr:stedsnr" v="1417" />
	</node>
	<node lat="58.99259444536158" lon="9.998083333853016" id="-27023">
		<tag k="name" v="Brekke" />
		<tag k="place" v="farm" />
		<tag k="ssr:stedsnr" v="1079" />
	</node>
	<node lat="59.06875982412191" lon="9.98655321387899" id="-27024">
		<tag k="fixme" v="consider place=hamlet" />
		<tag k="name" v="Vassvik" />
		<tag k="place" v="farm" />
		<tag k="ssr:stedsnr" v="1155" />
	</node>
	<node lat="59.066102464316465" lon="10.04919045992855" id="-27025">
		<tag k="fixme" v="consider place=hamlet" />
		<tag k="name" v="Hovland" />
		<tag k="place" v="farm" />
		<tag k="ssr:stedsnr" v="1164" />
	</node>
	<node lat="59.06012499912666" lon="10.037408341009973" id="-27026">
		<tag k="name" v="Nanset" />
		<tag k="place" v="suburb" />
		<tag k="ssr:stedsnr" v="1180" />
	</node>
	<node lat="59.07104697014747" lon="9.903459530622293" id="-27029">
		<tag k="fixme" v="consider place=hamlet" />
		<tag k="name" v="Hobekk Øvre" />
		<tag k="place" v="farm" />
		<tag k="ssr:stedsnr" v="1479" />
	</node>
	<node lat="59.42279444756809" lon="9.999024992479706" id="-27031">
		<tag k="alt_name" v="Moen" />
		<tag k="name" v="Pinnestadmoen" />
		<tag k="place" v="farm" />
		<tag k="ssr:stedsnr" v="2182" />
	</node>
	<node lat="59.05309999825438" lon="10.139475006012294" id="-27032">
		<tag k="name" v="Viker" />
		<tag k="place" v="farm" />
		<tag k="ssr:stedsnr" v="2186" />
	</node>
	<node lat="59.37786700982134" lon="9.935136961235939" id="-27033">
		<tag k="fixme" v="consider place=hamlet" />
		<tag k="name" v="Gjetrang" />
		<tag k="place" v="farm" />
		<tag k="ssr:stedsnr" v="2289" />
	</node>
	<node lat="59.37435278008343" lon="9.882875004962116" id="-27034">
		<tag k="name" v="Brumyrstua" />
		<tag k="place" v="isolated_dwelling" />
		<tag k="ssr:stedsnr" v="2293" />
	</node>
	<node lat="59.10609999711003" lon="10.011122224117505" id="-27038">
		<tag k="alt_name" v="Ono;Ono, øvre" />
		<tag k="name" v="Øvre Ono" />
		<tag k="old_name" v="Onø" />
		<tag k="place" v="farm" />
		<tag k="ssr:stedsnr" v="2071" />
	</node>
	<node lat="59.10245711374573" lon="10.111278456413478" id="-27039">
		<tag k="alt_name" v="Ommundrød" />
		<tag k="fixme" v="consider place=hamlet" />
		<tag k="name" v="Amundrød" />
		<tag k="place" v="farm" />
		<tag k="ssr:stedsnr" v="2074" />
	</node>
	<node lat="59.10942203225892" lon="10.139985610491982" id="-27040">
		<tag k="fixme" v="consider place=hamlet" />
		<tag k="name" v="Haugen" />
		<tag k="place" v="farm" />
		<tag k="ssr:stedsnr" v="2075" />
	</node>
	<node lat="58.98296111470795" lon="10.025997228906276" id="-27042">
		<tag k="name" v="Grevle" />
		<tag k="place" v="farm" />
		<tag k="ssr:stedsnr" v="1976" />
	</node>
	<node lat="59.437400001854904" lon="10.000055553631023" id="-27043">
		<tag k="name" v="Sundet" />
		<tag k="place" v="farm" />
		<tag k="ssr:stedsnr" v="2086" />
	</node>
	<node lat="59.4400697487594" lon="10.007087684010656" id="-27044">
		<tag k="fixme" v="consider place=hamlet" />
		<tag k="name" v="Blåland" />
		<tag k="place" v="farm" />
		<tag k="ssr:stedsnr" v="2088" />
	</node>
	<node lat="59.43915736612109" lon="10.032888758040643" id="-27045">
		<tag k="alt_name" v="Hogstvedt" />
		<tag k="fixme" v="consider place=hamlet" />
		<tag k="name" v="Hogstvet" />
		<tag k="place" v="farm" />
		<tag k="ssr:stedsnr" v="2091" />
	</node>
	<node lat="59.40581110799747" lon="10.042036104200491" id="-27046">
		<tag k="historic" v="shieling" />
		<tag k="name" v="Hemsetra" />
		<tag k="place" v="isolated_dwelling" />
		<tag k="ssr:stedsnr" v="2144" />
	</node>
	<node lat="59.201574998535584" lon="10.074816669586143" id="-27048">
		<tag k="alt_name" v="Hauane" />
		<tag k="name" v="Hauan" />
		<tag k="place" v="farm" />
		<tag k="ssr:stedsnr" v="2154" />
	</node>
	<node lat="59.38887221792716" lon="10.039949993094629" id="-27049">
		<tag k="historic" v="shieling" />
		<tag k="name" v="Linsverksetra" />
		<tag k="place" v="isolated_dwelling" />
		<tag k="ssr:stedsnr" v="2242" />
	</node>
	<node lat="59.37336111499842" lon="9.958802769202679" id="-27051">
		<tag k="alt_name" v="Hvaal" />
		<tag k="name" v="Hvål" />
		<tag k="place" v="farm" />
		<tag k="ssr:stedsnr" v="2261" />
	</node>
	<node lat="59.372646159770966" lon="9.93373797873685" id="-27052">
		<tag k="fixme" v="consider place=hamlet" />
		<tag k="name" v="Nordre Smokkstad" />
		<tag k="place" v="farm" />
		<tag k="ssr:stedsnr" v="2265" />
	</node>
	<node lat="59.338310539080965" lon="9.895088049470314" id="-27053">
		<tag k="fixme" v="consider place=hamlet" />
		<tag k="name" v="Styrvoll" />
		<tag k="place" v="farm" />
		<tag k="ssr:stedsnr" v="2379" />
	</node>
	<node lat="59.34033390097386" lon="9.924220496605722" id="-27054">
		<tag k="fixme" v="consider place=hamlet" />
		<tag k="name" v="Grini" />
		<tag k="place" v="farm" />
		<tag k="ssr:stedsnr" v="2381" />
	</node>
	<node lat="59.30676388724108" lon="9.858836106980773" id="-27056">
		<tag k="name" v="Lia" />
		<tag k="place" v="farm" />
		<tag k="ssr:stedsnr" v="2415" />
	</node>
	<node lat="59.44603902395481" lon="9.874891014323461" id="-27059">
		<tag k="alt_name" v="Kviberg, nordre;Kviberg;Kviberg n." />
		<tag k="name" v="Nordre Kviberg" />
		<tag k="place" v="farm" />
		<tag k="ssr:stedsnr" v="2549" />
	</node>
	<node lat="59.432036113258704" lon="9.879850006626523" id="-27060">
		<tag k="name" v="Olsli" />
		<tag k="place" v="farm" />
		<tag k="ssr:stedsnr" v="2571" />
	</node>
	<node lat="59.331386111451444" lon="9.912525002521168" id="-27061">
		<tag k="name" v="Rien" />
		<tag k="place" v="farm" />
		<tag k="ssr:stedsnr" v="2360" />
	</node>
	<node lat="59.28901944230754" lon="9.886711103479161" id="-27064">
		<tag k="alt_name" v="Bøe" />
		<tag k="name" v="Bø" />
		<tag k="place" v="farm" />
		<tag k="ssr:stedsnr" v="9662" />
	</node>
	<node lat="59.400202779327884" lon="10.039994438716263" id="-27072">
		<tag k="name" v="Thingelstadhytta" />
		<tag k="place" v="isolated_dwelling" />
		<tag k="ssr:stedsnr" v="26516" />
	</node>
	<node lat="59.41391944607881" lon="9.95059444262295" id="-27075">
		<tag k="name" v="Skrikop" />
		<tag k="place" v="farm" />
		<tag k="ssr:stedsnr" v="26551" />
	</node>
	<node lat="59.42148611501399" lon="10.009783336787432" id="-27079">
		<tag k="name" v="Underengen" />
		<tag k="place" v="locality" />
		<tag k="ssr:stedsnr" v="26780" />
	</node>
	<node lat="59.438866302995706" lon="9.981136914207232" id="-27081">
		<tag k="alt_name" v="Lindsholm" />
		<tag k="fixme" v="consider place=hamlet" />
		<tag k="name" v="Nedre Lindsholm" />
		<tag k="place" v="farm" />
		<tag k="ssr:stedsnr" v="26792" />
	</node>
	<node lat="59.17626659288775" lon="10.119900447707922" id="-27086">
		<tag k="name" v="Myra" />
		<tag k="place" v="locality" />
		<tag k="ssr:stedsnr" v="27807" />
	</node>
	<node lat="59.078452217368074" lon="10.122554023767249" id="-27091">
		<tag k="fixme" v="consider place=hamlet" />
		<tag k="name" v="Kjær" />
		<tag k="place" v="farm" />
		<tag k="ssr:stedsnr" v="27883" />
	</node>
	<node lat="59.07834166725285" lon="9.940897218364727" id="-27099">
		<tag k="name" v="Malerød søndre" />
		<tag k="place" v="farm" />
		<tag k="ssr:stedsnr" v="27931" />
	</node>
	<node lat="59.19089722338943" lon="9.968402778263735" id="-27106">
		<tag k="amenity" v="school" />
		<tag k="name" v="Kvelde skole" />
		<tag k="ssr:stedsnr" v="27952" />
	</node>
	<node lat="59.072103808585034" lon="10.091430291305862" id="-27115">
		<tag k="name" v="Lia" />
		<tag k="place" v="farm" />
		<tag k="ssr:stedsnr" v="27036" />
	</node>
	<node lat="59.252869447766045" lon="9.931752782661594" id="-27116">
		<tag k="name" v="Granborg" />
		<tag k="place" v="farm" />
		<tag k="ssr:stedsnr" v="27037" />
	</node>
	<node lat="59.282886112270454" lon="9.895955553985788" id="-27119">
		<tag k="name" v="Siltvedt" />
		<tag k="place" v="farm" />
		<tag k="ssr:stedsnr" v="27047" />
	</node>
	<node lat="59.04869444234178" lon="10.0498333391912" id="-27129">
		<tag k="leisure" v="pitch" />
		<tag k="name" v="Fram stadion" />
		<tag k="ssr:stedsnr" v="27235" />
	</node>
	<node lat="59.048280551674345" lon="10.076708338308585" id="-27132">
		<tag k="name" v="Kiil verksted" />
		<tag k="place" v="quarter" />
		<tag k="ssr:stedsnr" v="27242" />
	</node>
	<node lat="59.417194153727394" lon="9.914602928588698" id="-27135">
		<tag k="alt_name" v="Lie V." />
		<tag k="fixme" v="consider place=hamlet" />
		<tag k="name" v="Vestre Li" />
		<tag k="place" v="farm" />
		<tag k="ssr:stedsnr" v="27248" />
	</node>
	<node lat="59.31889721856582" lon="9.881794436141421" id="-27138">
		<tag k="name" v="Breidablikk" />
		<tag k="place" v="farm" />
		<tag k="ssr:stedsnr" v="27095" />
	</node>
	<node lat="59.34278445657319" lon="9.893687976935825" id="-27141">
		<tag k="alt_name" v="Styrvold M." />
		<tag k="fixme" v="consider place=hamlet" />
		<tag k="name" v="Mellem Styrvoll" />
		<tag k="place" v="farm" />
		<tag k="ssr:stedsnr" v="27199" />
	</node>
	<node lat="59.41795555477681" lon="9.905363881426156" id="-27154">
		<tag k="name" v="Nordheim" />
		<tag k="place" v="farm" />
		<tag k="ssr:stedsnr" v="27255" />
	</node>
	<node lat="59.03347221816769" lon="10.077691664249995" id="-27170">
		<tag k="name" v="Bergeskogen" />
		<tag k="place" v="quarter" />
		<tag k="ssr:stedsnr" v="27462" />
	</node>
	<node lat="59.046591666719294" lon="10.105897227867931" id="-27183">
		<tag k="name" v="Guri" />
		<tag k="place" v="farm" />
		<tag k="ssr:stedsnr" v="28144" />
	</node>
	<node lat="59.43659172618581" lon="9.972367122266713" id="-27190">
		<tag k="name" v="Asmyr" />
		<tag k="place" v="hamlet" />
		<tag k="ssr:stedsnr" v="63100" />
	</node>
	<node lat="59.051093201573174" lon="10.143281588037963" id="-27191">
		<tag k="alt_name" v="Vik store" />
		<tag k="fixme" v="consider place=hamlet" />
		<tag k="name" v="Vik" />
		<tag k="place" v="farm" />
		<tag k="ssr:stedsnr" v="63190" />
	</node>
	<node lat="59.05425156437509" lon="10.08405374030376" id="-27192">
		<tag k="fixme" v="consider place=hamlet" />
		<tag k="name" v="Haugen" />
		<tag k="place" v="farm" />
		<tag k="ssr:stedsnr" v="63193" />
	</node>
	<node lat="58.98924316455241" lon="9.871790632884084" id="-27194">
		<tag k="fixme" v="consider place=hamlet" />
		<tag k="name" v="Søndersrød" />
		<tag k="place" v="farm" />
		<tag k="ssr:stedsnr" v="61598" />
	</node>
	<node lat="59.08555656347531" lon="10.022266027672412" id="-27195">
		<tag k="fixme" v="consider place=hamlet" />
		<tag k="name" v="Fossane" />
		<tag k="place" v="farm" />
		<tag k="ssr:stedsnr" v="62096" />
	</node>
	<node lat="59.1244250006396" lon="10.104577772289229" id="-27196">
		<tag k="alt_name" v="Skogshagen" />
		<tag k="name" v="Skogshagan" />
		<tag k="place" v="farm" />
		<tag k="ssr:stedsnr" v="62043" />
	</node>
	<node lat="59.12141388485928" lon="10.109163893824547" id="-27197">
		<tag k="name" v="Rønningen" />
		<tag k="place" v="farm" />
		<tag k="ssr:stedsnr" v="62044" />
	</node>
	<node lat="59.120717840902536" lon="10.128400813692547" id="-27198">
		<tag k="alt_name" v="Skinnmo" />
		<tag k="fixme" v="consider place=hamlet" />
		<tag k="name" v="Skinmo" />
		<tag k="place" v="farm" />
		<tag k="ssr:stedsnr" v="62052" />
	</node>
	<node lat="59.02993159419643" lon="9.983102989955329" id="-27201">
		<tag k="fixme" v="consider place=hamlet" />
		<tag k="name" v="Ulleberg" />
		<tag k="place" v="farm" />
		<tag k="ssr:stedsnr" v="62196" />
	</node>
	<node lat="59.077141670562256" lon="9.923597227515467" id="-27202">
		<tag k="alt_name" v="Ødegården" />
		<tag k="name" v="Øgården" />
		<tag k="place" v="farm" />
		<tag k="ssr:stedsnr" v="62381" />
	</node>
	<node lat="59.0500749981017" lon="9.926880563679477" id="-27204">
		<tag k="alt_name" v="Lundsetra" />
		<tag k="name" v="Lundsætra" />
		<tag k="place" v="isolated_dwelling" />
		<tag k="ssr:stedsnr" v="62495" />
	</node>
	<node lat="59.066266000727005" lon="10.083465728928028" id="-27205">
		<tag k="fixme" v="consider place=hamlet" />
		<tag k="name" v="Åsmundrød" />
		<tag k="place" v="farm" />
		<tag k="ssr:stedsnr" v="62146" />
	</node>
	<node lat="59.07242499815801" lon="10.056105554124235" id="-27206">
		<tag k="name" v="Faret" />
		<tag k="place" v="farm" />
		<tag k="ssr:stedsnr" v="62147" />
	</node>
	<node lat="59.05526111098307" lon="10.053713895521131" id="-27208">
		<tag k="fixme" v="consider place=suburb, village or hamlet" />
		<tag k="name" v="Byskogen" />
		<tag k="place" v="quarter" />
		<tag k="ssr:stedsnr" v="62153" />
	</node>
	<node lat="59.05124934200721" lon="10.18934751989311" id="-27209">
		<tag k="alt_name" v="Hovland mellom" />
		<tag k="fixme" v="consider place=hamlet" />
		<tag k="name" v="Hovland" />
		<tag k="place" v="farm" />
		<tag k="ssr:stedsnr" v="62165" />
	</node>
	<node lat="59.04685277739911" lon="10.17231666516376" id="-27210">
		<tag k="alt_name" v="Klåstadsteika" />
		<tag k="name" v="Steika" />
		<tag k="place" v="farm" />
		<tag k="ssr:stedsnr" v="62166" />
	</node>
	<node lat="59.01532500005858" lon="9.96284722304495" id="-27214">
		<tag k="name" v="Haga" />
		<tag k="place" v="farm" />
		<tag k="ssr:stedsnr" v="62254" />
	</node>
	<node lat="59.21393333133362" lon="9.962986102805194" id="-27217">
		<tag k="name" v="Nordheim" />
		<tag k="place" v="farm" />
		<tag k="ssr:stedsnr" v="62744" />
	</node>
	<node lat="59.45856381787866" lon="10.033042032663538" id="-27222">
		<tag k="alt_name" v="Nordby m.;Nordby" />
		<tag k="fixme" v="consider place=hamlet" />
		<tag k="name" v="Mellom Nordby" />
		<tag k="place" v="farm" />
		<tag k="ssr:stedsnr" v="63132" />
	</node>
	<node lat="59.41338332902675" lon="9.991052784447792" id="-27223">
		<tag k="name" v="Bonstad" />
		<tag k="place" v="farm" />
		<tag k="ssr:stedsnr" v="63138" />
	</node>
	<node lat="59.405097878318465" lon="9.996778882973961" id="-27224">
		<tag k="alt_name" v="Kalleberg;Kalleberg n." />
		<tag k="fixme" v="consider place=hamlet" />
		<tag k="name" v="Nedre Kalleberg" />
		<tag k="place" v="farm" />
		<tag k="ssr:stedsnr" v="63152" />
	</node>
	<node lat="59.11801846605331" lon="10.052437565191955" id="-27226">
		<tag k="name" v="Lunde" />
		<tag k="place" v="hamlet" />
		<tag k="ssr:stedsnr" v="63327" />
	</node>
	<node lat="59.32415564499587" lon="9.88112415920833" id="-27227">
		<tag k="fixme" v="consider place=hamlet" />
		<tag k="name" v="Øvre Haneval" />
		<tag k="place" v="farm" />
		<tag k="ssr:stedsnr" v="63349" />
	</node>
	<node lat="59.329852779460396" lon="9.888416665992857" id="-27228">
		<tag k="alt_name" v="Håvet" />
		<tag k="name" v="Hovet" />
		<tag k="place" v="farm" />
		<tag k="ssr:stedsnr" v="63360" />
	</node>
	<node lat="59.32303611132999" lon="9.872388886622408" id="-27231">
		<tag k="name" v="Tveiten" />
		<tag k="place" v="farm" />
		<tag k="ssr:stedsnr" v="70659" />
	</node>
	<node lat="59.00172222467667" lon="9.806183324842012" id="-27233">
		<tag k="name" v="Vatnafe" />
		<tag k="place" v="isolated_dwelling" />
		<tag k="ssr:stedsnr" v="85418" />
	</node>
	<node lat="59.40838055673953" lon="9.933086115252465" id="-27240">
		<tag k="name" v="Tollehaugen" />
		<tag k="place" v="farm" />
		<tag k="ssr:stedsnr" v="87545" />
	</node>
	<node lat="59.4100666686959" lon="9.929802777356839" id="-27241">
		<tag k="name" v="Nesset" />
		<tag k="place" v="locality" />
		<tag k="ssr:stedsnr" v="87550" />
	</node>
	<node lat="59.40031879805863" lon="9.962724027529683" id="-27242">
		<tag k="fixme" v="consider place=hamlet" />
		<tag k="name" v="Lardal prestegård" />
		<tag k="place" v="farm" />
		<tag k="ssr:stedsnr" v="87552" />
	</node>
	<node lat="59.26043888588624" lon="9.934344437143604" id="-27245">
		<tag k="name" v="Nordre Odberg" />
		<tag k="place" v="locality" />
		<tag k="ssr:stedsnr" v="87657" />
	</node>
	<node lat="58.982963892090886" lon="9.926383335320976" id="-27249">
		<tag k="name" v="Snørsvall" />
		<tag k="place" v="farm" />
		<tag k="ssr:stedsnr" v="88321" />
	</node>
	<node lat="58.96799722588345" lon="9.8629527858531" id="-27250">
		<tag k="name" v="Hovet" />
		<tag k="place" v="farm" />
		<tag k="ssr:stedsnr" v="88325" />
	</node>
	<node lat="59.02641814106297" lon="9.863862411629231" id="-27256">
		<tag k="fixme" v="consider place=hamlet" />
		<tag k="name" v="Bålsrød" />
		<tag k="place" v="farm" />
		<tag k="ssr:stedsnr" v="88362" />
	</node>
	<node lat="59.00935555332062" lon="9.906211116293994" id="-27257">
		<tag k="name" v="Dolven vestre" />
		<tag k="place" v="farm" />
		<tag k="ssr:stedsnr" v="88365" />
	</node>
	<node lat="59.04251449730891" lon="9.987088152034074" id="-27261">
		<tag k="fixme" v="consider place=hamlet" />
		<tag k="name" v="Håvaldsrød" />
		<tag k="place" v="farm" />
		<tag k="ssr:stedsnr" v="87762" />
	</node>
	<node lat="59.45000555956946" lon="10.024380558046996" id="-27263">
		<tag k="name" v="Skjervheim" />
		<tag k="place" v="farm" />
		<tag k="ssr:stedsnr" v="87844" />
	</node>
	<node lat="59.45466666369046" lon="10.038083325100795" id="-27264">
		<tag k="name" v="Bakkehaug" />
		<tag k="place" v="farm" />
		<tag k="ssr:stedsnr" v="87846" />
	</node>
	<node lat="59.42114683666909" lon="9.960093238915114" id="-27265">
		<tag k="fixme" v="consider place=hamlet" />
		<tag k="name" v="Skudem" />
		<tag k="place" v="farm" />
		<tag k="ssr:stedsnr" v="87847" />
	</node>
	<node lat="59.42549999805417" lon="10.026194443327777" id="-27267">
		<tag k="name" v="Hagan" />
		<tag k="place" v="locality" />
		<tag k="ssr:stedsnr" v="87811" />
	</node>
	<node lat="59.42982777946573" lon="10.020138894293067" id="-27268">
		<tag k="name" v="Hem nordre" />
		<tag k="old_name" v="Hem Nerdre" />
		<tag k="place" v="farm" />
		<tag k="ssr:stedsnr" v="87815" />
	</node>
	<node lat="59.378411109651196" lon="10.029408337800314" id="-27269">
		<tag k="name" v="Lyngfjell" />
		<tag k="place" v="isolated_dwelling" />
		<tag k="ssr:stedsnr" v="87976" />
	</node>
	<node lat="59.389408328995806" lon="9.981208329613699" id="-27273">
		<tag k="name" v="Berg" />
		<tag k="place" v="farm" />
		<tag k="ssr:stedsnr" v="87998" />
	</node>
	<node lat="59.06683888889567" lon="9.928533340688405" id="-27281">
		<tag k="name" v="Hegna" />
		<tag k="place" v="locality" />
		<tag k="ssr:stedsnr" v="88104" />
	</node>
	<node lat="59.05866199646437" lon="10.093695236592865" id="-27290">
		<tag k="alt_name" v="Gjerstad vestre" />
		<tag k="fixme" v="consider place=hamlet" />
		<tag k="name" v="Nordre Gjerstad" />
		<tag k="place" v="farm" />
		<tag k="ssr:stedsnr" v="88044" />
	</node>
	<node lat="59.249527775982" lon="9.874691666029635" id="-27292">
		<tag k="name" v="Urestua" />
		<tag k="place" v="isolated_dwelling" />
		<tag k="ssr:stedsnr" v="88048" />
	</node>
	<node lat="59.333988885216655" lon="9.890777784588643" id="-27294">
		<tag k="name" v="Sverkholt" />
		<tag k="place" v="farm" />
		<tag k="ssr:stedsnr" v="88055" />
	</node>
	<node lat="59.03140029589321" lon="10.113982157274739" id="-27297">
		<tag k="name" v="Bakken" />
		<tag k="place" v="farm" />
		<tag k="ssr:stedsnr" v="88066" />
	</node>
	<node lat="59.35298055531334" lon="9.91931110932198" id="-27299">
		<tag k="name" v="Bergstå" />
		<tag k="place" v="farm" />
		<tag k="ssr:stedsnr" v="88156" />
	</node>
	<node lat="59.06554444495964" lon="10.157977781897147" id="-27300">
		<tag k="name" v="Løve øvre" />
		<tag k="place" v="farm" />
		<tag k="ssr:stedsnr" v="88157" />
	</node>
	<node lat="59.33631666508777" lon="9.914794438717635" id="-27301">
		<tag k="name" v="Brekka" />
		<tag k="place" v="farm" />
		<tag k="ssr:stedsnr" v="88158" />
	</node>
	<node lat="59.069524996631124" lon="10.115461114045363" id="-27302">
		<tag k="name" v="Hågan" />
		<tag k="place" v="locality" />
		<tag k="ssr:stedsnr" v="88162" />
	</node>
	<node lat="59.343188893007785" lon="9.913025006184714" id="-27303">
		<tag k="name" v="Stubben" />
		<tag k="place" v="locality" />
		<tag k="ssr:stedsnr" v="88163" />
	</node>
	<node lat="59.01542777850675" lon="9.787033340976334" id="-27305">
		<tag k="name" v="Bukta" />
		<tag k="place" v="isolated_dwelling" />
		<tag k="ssr:stedsnr" v="88280" />
	</node>
	<node lat="59.00137500093629" lon="9.806863890085177" id="-27306">
		<tag k="name" v="Vatnafe" />
		<tag k="place" v="isolated_dwelling" />
		<tag k="ssr:stedsnr" v="88297" />
	</node>
	<node lat="58.97679166878203" lon="9.953980554238951" id="-27307">
		<tag k="name" v="Anvik nedre" />
		<tag k="place" v="farm" />
		<tag k="ssr:stedsnr" v="88400" />
	</node>
	<node lat="59.135107003595046" lon="10.07618184599166" id="-27323">
		<tag k="name" v="Steinrønningen" />
		<tag k="place" v="farm" />
		<tag k="ssr:stedsnr" v="88850" />
	</node>
	<node lat="59.18770555891861" lon="9.967577785560161" id="-27349">
		<tag k="name" v="Molund" />
		<tag k="place" v="farm" />
		<tag k="ssr:stedsnr" v="88961" />
	</node>
	<node lat="59.0947138925806" lon="10.1380277729367" id="-27356">
		<tag k="alt_name" v="Bergan øvre" />
		<tag k="name" v="Bergan" />
		<tag k="place" v="farm" />
		<tag k="ssr:stedsnr" v="122100" />
	</node>
	<node lat="59.22715832886492" lon="9.959625007993758" id="-27358">
		<tag k="name" v="Rimstadrønningen" />
		<tag k="place" v="farm" />
		<tag k="ssr:stedsnr" v="122729" />
	</node>
	<node lat="59.188830559322895" lon="10.087683339122208" id="-27359">
		<tag k="name" v="Brattås" />
		<tag k="place" v="farm" />
		<tag k="ssr:stedsnr" v="122165" />
	</node>
	<node lat="59.00698677081782" lon="9.889146729809337" id="-27367">
		<tag k="fixme" v="consider place=hamlet" />
		<tag k="name" v="Hellesrød" />
		<tag k="place" v="farm" />
		<tag k="ssr:stedsnr" v="122328" />
	</node>
	<node lat="59.05995382432275" lon="9.909378523905662" id="-27368">
		<tag k="fixme" v="consider place=hamlet" />
		<tag k="name" v="Langklov" />
		<tag k="place" v="farm" />
		<tag k="ssr:stedsnr" v="122448" />
	</node>
	<node lat="59.039556274914325" lon="10.113698676977478" id="-27370">
		<tag k="fixme" v="consider place=hamlet" />
		<tag k="name" v="Bjønnes" />
		<tag k="place" v="farm" />
		<tag k="ssr:stedsnr" v="122193" />
	</node>
	<node lat="59.03395102496264" lon="9.977085423271056" id="-27371">
		<tag k="fixme" v="consider place=hamlet" />
		<tag k="name" v="Bakkane" />
		<tag k="place" v="farm" />
		<tag k="ssr:stedsnr" v="122201" />
	</node>
	<node lat="59.0132277736347" lon="9.95244336070335" id="-27372">
		<tag k="name" v="Hvatum" />
		<tag k="place" v="hamlet" />
		<tag k="ssr:stedsnr" v="122276" />
	</node>
	<node lat="59.01385555356104" lon="9.91185278026287" id="-27373">
		<tag k="alt_name" v="Dolven nordre" />
		<tag k="name" v="Dolvi" />
		<tag k="old_name" v="Dolven" />
		<tag k="place" v="farm" />
		<tag k="ssr:stedsnr" v="122277" />
	</node>
	<node lat="59.01937500235458" lon="9.884580561945159" id="-27374">
		<tag k="alt_name" v="Åres" />
		<tag k="name" v="Åros" />
		<tag k="place" v="farm" />
		<tag k="ssr:stedsnr" v="122280" />
	</node>
	<node lat="59.134738888414944" lon="9.875308340513437" id="-27375">
		<tag k="name" v="Omsland" />
		<tag k="place" v="farm" />
		<tag k="ssr:stedsnr" v="122548" />
	</node>
	<node lat="58.98688279132397" lon="9.929200441955249" id="-27376">
		<tag k="fixme" v="consider place=hamlet" />
		<tag k="name" v="Snørsvall" />
		<tag k="place" v="farm" />
		<tag k="ssr:stedsnr" v="122624" />
	</node>
	<node lat="58.979448187302424" lon="9.957319098114779" id="-27377">
		<tag k="fixme" v="consider place=hamlet" />
		<tag k="name" v="Kjær" />
		<tag k="place" v="farm" />
		<tag k="ssr:stedsnr" v="122609" />
	</node>
	<node lat="58.98651944881924" lon="9.890077772994266" id="-27378">
		<tag k="name" v="Nordre Holhjem" />
		<tag k="place" v="farm" />
		<tag k="ssr:stedsnr" v="122610" />
	</node>
	<node lat="58.98966944219118" lon="9.856972213539128" id="-27379">
		<tag k="name" v="Langholt" />
		<tag k="place" v="farm" />
		<tag k="ssr:stedsnr" v="122614" />
	</node>
	<node lat="59.22268055796525" lon="9.961847223399404" id="-27382">
		<tag k="alt_name" v="Nordkveldmo" />
		<tag k="name" v="Nordkveldemoen" />
		<tag k="place" v="farm" />
		<tag k="ssr:stedsnr" v="122741" />
	</node>
	<node lat="59.10472632716889" lon="10.067235061377826" id="-27385">
		<tag k="fixme" v="consider place=hamlet" />
		<tag k="name" v="Jomfruøya" />
		<tag k="place" v="farm" />
		<tag k="ssr:stedsnr" v="123089" />
	</node>
	<node lat="59.05340555679391" lon="9.984769439990611" id="-27386">
		<tag k="alt_name" v="Sky" />
		<tag k="amenity" v="school" />
		<tag k="name" v="Sky skole" />
		<tag k="ssr:stedsnr" v="123193" />
	</node>
	<node lat="59.056346210783175" lon="10.088072427071442" id="-27387">
		<tag k="fixme" v="consider place=hamlet" />
		<tag k="name" v="Sande" />
		<tag k="place" v="farm" />
		<tag k="ssr:stedsnr" v="123200" />
	</node>
	<node lat="58.96741388796932" lon="9.867480555932964" id="-27388">
		<tag k="alt_name" v="Nevlunghamn" />
		<tag k="name" v="Nevlunghavn" />
		<tag k="place" v="village" />
		<tag k="ssr:stedsnr" v="122883" />
	</node>
	<node lat="59.13087149293811" lon="10.12612026154392" id="-27390">
		<tag k="fixme" v="consider place=hamlet" />
		<tag k="name" v="Li" />
		<tag k="place" v="farm" />
		<tag k="ssr:stedsnr" v="123044" />
	</node>
	<node lat="59.25169999722636" lon="9.95905278210344" id="-27394">
		<tag k="alt_name" v="Hellenes, nordre;Hellenes" />
		<tag k="name" v="Nordre Hellenes" />
		<tag k="place" v="farm" />
		<tag k="ssr:stedsnr" v="123059" />
	</node>
	<node lat="59.0711638921286" lon="10.118045388039164" id="-27396">
		<tag k="alt_name" v="Stålåker" />
		<tag k="fixme" v="consider place=hamlet" />
		<tag k="name" v="Stålaker" />
		<tag k="place" v="farm" />
		<tag k="ssr:stedsnr" v="123150" />
	</node>
	<node lat="59.07283321494751" lon="10.06694956125114" id="-27398">
		<tag k="fixme" v="consider place=hamlet" />
		<tag k="name" v="Gjelstad" />
		<tag k="place" v="farm" />
		<tag k="ssr:stedsnr" v="123157" />
	</node>
	<node lat="59.169885878913924" lon="10.122423596663417" id="-27399">
		<tag k="name" v="Åshildrød" />
		<tag k="place" v="hamlet" />
		<tag k="ssr:stedsnr" v="123231" />
	</node>
	<node lat="59.16665943241448" lon="10.033216453122709" id="-27400">
		<tag k="fixme" v="consider place=hamlet" />
		<tag k="name" v="Allum" />
		<tag k="place" v="farm" />
		<tag k="ssr:stedsnr" v="123243" />
	</node>
	<node lat="59.16218042148889" lon="10.002595406356876" id="-27401">
		<tag k="fixme" v="consider place=hamlet" />
		<tag k="name" v="Solberg" />
		<tag k="place" v="farm" />
		<tag k="ssr:stedsnr" v="123259" />
	</node>
	<node lat="59.36420288145461" lon="9.918164064310483" id="-27403">
		<tag k="alt_name" v="Engelstad;Engelstad N;Engelstad, nordre" />
		<tag k="fixme" v="consider place=hamlet" />
		<tag k="name" v="Nordre Engelstad" />
		<tag k="place" v="farm" />
		<tag k="ssr:stedsnr" v="123285" />
	</node>
	<node lat="59.30768840497791" lon="9.876756787772825" id="-27405">
		<tag k="alt_name" v="Steinsholt" />
		<tag k="fixme" v="consider place=hamlet" />
		<tag k="name" v="Mellom Steinsholt" />
		<tag k="place" v="farm" />
		<tag k="ssr:stedsnr" v="123448" />
	</node>
	<node lat="59.111209646268044" lon="9.93033922768479" id="-27406">
		<tag k="alt_name" v="Bjørnøy" />
		<tag k="fixme" v="consider place=hamlet" />
		<tag k="name" v="Bjørnøya" />
		<tag k="place" v="farm" />
		<tag k="ssr:stedsnr" v="123458" />
	</node>
	<node lat="59.40805888076285" lon="9.860860051220847" id="-27407">
		<tag k="fixme" v="consider place=hamlet" />
		<tag k="name" v="Hellingsrud" />
		<tag k="place" v="farm" />
		<tag k="ssr:stedsnr" v="123589" />
	</node>
	<node lat="59.42382499562271" lon="9.895074993031303" id="-27408">
		<tag k="alt_name" v="Lieplassen" />
		<tag k="name" v="Liplassen" />
		<tag k="place" v="farm" />
		<tag k="ssr:stedsnr" v="123600" />
	</node>
	<node lat="59.240222222739845" lon="9.948002786153667" id="-27410">
		<tag k="name" v="Rimstadmoen" />
		<tag k="place" v="farm" />
		<tag k="ssr:stedsnr" v="123693" />
	</node>
	<node lat="59.197641664078134" lon="9.911755547306402" id="-27411">
		<tag k="name" v="Myra" />
		<tag k="place" v="farm" />
		<tag k="ssr:stedsnr" v="123737" />
	</node>
	<node lat="59.25625000284089" lon="9.968772218196442" id="-27412">
		<tag k="alt_name" v="Repp" />
		<tag k="name" v="Østi" />
		<tag k="place" v="farm" />
		<tag k="ssr:stedsnr" v="123889" />
	</node>
	<node lat="59.322199428949816" lon="9.97037569590077" id="-27413">
		<tag k="alt_name" v="Ødegarden" />
		<tag k="name" v="Ødegården" />
		<tag k="place" v="locality" />
		<tag k="ssr:stedsnr" v="124746" />
	</node>
	<node lat="59.45228333759775" lon="10.038194444647797" id="-27420">
		<tag k="name" v="Østli" />
		<tag k="place" v="farm" />
		<tag k="ssr:stedsnr" v="147725" />
	</node>
	<node lat="59.435380553494966" lon="9.990524996687489" id="-27421">
		<tag k="name" v="Grinna" />
		<tag k="place" v="locality" />
		<tag k="ssr:stedsnr" v="147818" />
	</node>
	<node lat="59.427027776527225" lon="9.960188897478199" id="-27422">
		<tag k="name" v="Rønningene" />
		<tag k="place" v="locality" />
		<tag k="ssr:stedsnr" v="147832" />
	</node>
	<node lat="59.45356944360257" lon="9.989363887115168" id="-27424">
		<tag k="name" v="Pittesvingen" />
		<tag k="place" v="locality" />
		<tag k="ssr:stedsnr" v="147841" />
	</node>
	<node lat="59.05479378996774" lon="10.179755418297454" id="-27426">
		<tag k="alt_name" v="Klåstad nedre" />
		<tag k="fixme" v="consider place=hamlet" />
		<tag k="name" v="Nedre Klåstad" />
		<tag k="place" v="farm" />
		<tag k="ssr:stedsnr" v="147673" />
	</node>
	<node lat="59.405244445167064" lon="9.996661102735061" id="-27427">
		<tag k="name" v="Hegna" />
		<tag k="place" v="farm" />
		<tag k="ssr:stedsnr" v="147484" />
	</node>
	<node lat="59.40079167010616" lon="9.942138881473388" id="-27430">
		<tag k="name" v="Skåten" />
		<tag k="place" v="locality" />
		<tag k="ssr:stedsnr" v="147532" />
	</node>
	<node lat="59.38591944450038" lon="9.973055555755508" id="-27436">
		<tag k="name" v="Gavelstad" />
		<tag k="place" v="farm" />
		<tag k="ssr:stedsnr" v="147985" />
	</node>
	<node lat="59.3885972264097" lon="9.9867583283652" id="-27437">
		<tag k="name" v="Harajota" />
		<tag k="place" v="isolated_dwelling" />
		<tag k="ssr:stedsnr" v="147986" />
	</node>
	<node lat="59.39501111388697" lon="9.978386110507035" id="-27438">
		<tag k="name" v="Bergshaugen" />
		<tag k="place" v="farm" />
		<tag k="ssr:stedsnr" v="147989" />
	</node>
	<node lat="59.07535000419613" lon="10.077894450060878" id="-27440">
		<tag k="name" v="Rauan øvre" />
		<tag k="place" v="farm" />
		<tag k="ssr:stedsnr" v="148029" />
	</node>
	<node lat="59.06671666729113" lon="10.052424996599617" id="-27444">
		<tag k="amenity" v="school" />
		<tag k="name" v="Hedrum ungdomsskole" />
		<tag k="ssr:stedsnr" v="148039" />
	</node>
	<node lat="59.07573732603192" lon="10.113777821488904" id="-27446">
		<tag k="name" v="Fredbo" />
		<tag k="place" v="farm" />
		<tag k="ssr:stedsnr" v="148053" />
	</node>
	<node lat="59.049088891441095" lon="9.871297215145189" id="-27452">
		<tag k="name" v="Bakken øvre" />
		<tag k="place" v="farm" />
		<tag k="ssr:stedsnr" v="148123" />
	</node>
	<node lat="59.29453610742821" lon="9.892161107454571" id="-27453">
		<tag k="name" v="Ødegården" />
		<tag k="place" v="locality" />
		<tag k="ssr:stedsnr" v="148124" />
	</node>
	<node lat="59.2918638846157" lon="9.91584166480775" id="-27455">
		<tag k="name" v="Enge" />
		<tag k="place" v="farm" />
		<tag k="ssr:stedsnr" v="148130" />
	</node>
	<node lat="59.30444444392924" lon="9.89146944264615" id="-27457">
		<tag k="name" v="Østre Moen" />
		<tag k="place" v="farm" />
		<tag k="ssr:stedsnr" v="148138" />
	</node>
	<node lat="59.211127779391234" lon="9.931083324987375" id="-27461">
		<tag k="historic" v="shieling" />
		<tag k="name" v="Nordkvelde" />
		<tag k="place" v="isolated_dwelling" />
		<tag k="ssr:stedsnr" v="148064" />
	</node>
	<node lat="59.06523028685342" lon="9.999989805309456" id="-27464">
		<tag k="fixme" v="consider place=hamlet" />
		<tag k="name" v="Anvik" />
		<tag k="place" v="farm" />
		<tag k="ssr:stedsnr" v="148075" />
	</node>
	<node lat="59.0140222215971" lon="10.102241664949538" id="-27467">
		<tag k="name" v="Nordrerønningen" />
		<tag k="place" v="isolated_dwelling" />
		<tag k="ssr:stedsnr" v="148078" />
	</node>
	<node lat="59.01385833543891" lon="10.096947230196786" id="-27471">
		<tag k="name" v="Fritzøe feriehjem" />
		<tag k="place" v="isolated_dwelling" />
		<tag k="ssr:stedsnr" v="148084" />
	</node>
	<node lat="59.21104166816089" lon="9.893499997105804" id="-27472">
		<tag k="historic" v="shieling" />
		<tag k="name" v="Øksenholtseter" />
		<tag k="place" v="isolated_dwelling" />
		<tag k="ssr:stedsnr" v="148087" />
	</node>
	<node lat="59.300330558740185" lon="9.891669449068804" id="-27483">
		<tag k="name" v="Bråtan" />
		<tag k="place" v="farm" />
		<tag k="ssr:stedsnr" v="148190" />
	</node>
	<node lat="59.09061944530325" lon="10.073397214380472" id="-27486">
		<tag k="name" v="Bommestad" />
		<tag k="place" v="farm" />
		<tag k="ssr:stedsnr" v="148195" />
	</node>
	<node lat="59.06018889331991" lon="10.14585277657604" id="-27488">
		<tag k="name" v="Granheim" />
		<tag k="place" v="farm" />
		<tag k="ssr:stedsnr" v="148199" />
	</node>
	<node lat="59.421999995917616" lon="9.890041663470889" id="-27490">
		<tag k="name" v="Solvang" />
		<tag k="place" v="farm" />
		<tag k="ssr:stedsnr" v="148287" />
	</node>
	<node lat="58.98174722642272" lon="9.892247227909735" id="-27491">
		<tag k="name" v="Søndre Holhjem" />
		<tag k="place" v="farm" />
		<tag k="ssr:stedsnr" v="148377" />
	</node>
	<node lat="58.98647500339823" lon="9.886097217698962" id="-27492">
		<tag k="name" v="Mellom Holhjem" />
		<tag k="place" v="farm" />
		<tag k="ssr:stedsnr" v="148380" />
	</node>
	<node lat="59.09940833066446" lon="10.107075004961862" id="-27498">
		<tag k="name" v="Rødbøl" />
		<tag k="place" v="farm" />
		<tag k="ssr:stedsnr" v="148155" />
	</node>
	<node lat="59.04086388604659" lon="10.074111110600219" id="-27505">
		<tag k="name" v="Kula" />
		<tag k="place" v="isolated_dwelling" />
		<tag k="ssr:stedsnr" v="148240" />
	</node>
	<node lat="59.04454999955395" lon="10.075555558946169" id="-27506">
		<tag k="name" v="Skreppestad" />
		<tag k="place" v="locality" />
		<tag k="ssr:stedsnr" v="148241" />
	</node>
	<node lat="59.01414166289775" lon="9.910397215159692" id="-27510">
		<tag k="name" v="Åres" />
		<tag k="place" v="farm" />
		<tag k="ssr:stedsnr" v="148425" />
	</node>
	<node lat="59.03134722231878" lon="10.098741670264703" id="-27513">
		<tag k="alt_name" v="Kaupang søndre" />
		<tag k="name" v="Søndre Kaupang" />
		<tag k="place" v="farm" />
		<tag k="ssr:stedsnr" v="148432" />
	</node>
	<node lat="59.016136113991955" lon="9.873052770738935" id="-27514">
		<tag k="name" v="Jakobshol camping" />
		<tag k="ssr:stedsnr" v="148434" />
		<tag k="tourism" v="camp_site" />
	</node>
	<node lat="58.98763055655102" lon="9.98318888130151" id="-27515">
		<tag k="name" v="Nalum søndre" />
		<tag k="place" v="locality" />
		<tag k="ssr:stedsnr" v="148442" />
	</node>
	<node lat="58.99762777868767" lon="9.884888885670945" id="-27516">
		<tag k="name" v="Røsserød" />
		<tag k="place" v="locality" />
		<tag k="ssr:stedsnr" v="148453" />
	</node>
	<node lat="58.96676388561733" lon="9.955119438616636" id="-27519">
		<tag k="name" v="Ramn" />
		<tag k="place" v="isolated_dwelling" />
		<tag k="ssr:stedsnr" v="148465" />
	</node>
	<node lat="59.03077222190125" lon="9.954652780791866" id="-27520">
		<tag k="name" v="Nylende" />
		<tag k="place" v="locality" />
		<tag k="ssr:stedsnr" v="148491" />
	</node>
	<node lat="59.356819441755064" lon="10.002438885498986" id="-27521">
		<tag k="historic" v="shieling" />
		<tag k="name" v="Søndre Hvålseter" />
		<tag k="place" v="isolated_dwelling" />
		<tag k="ssr:stedsnr" v="148584" />
	</node>
	<node lat="59.0883305511614" lon="10.178261116779858" id="-27527">
		<tag k="name" v="Hybbestad nordre" />
		<tag k="place" v="farm" />
		<tag k="ssr:stedsnr" v="148601" />
	</node>
	<node lat="59.02423532363131" lon="9.968015904311233" id="-27528">
		<tag k="fixme" v="consider place=hamlet" />
		<tag k="name" v="Tanum prestegård" />
		<tag k="place" v="farm" />
		<tag k="ssr:stedsnr" v="148519" />
	</node>
	<node lat="59.011630551770004" lon="9.9708527862205" id="-27529">
		<tag k="name" v="Haga" />
		<tag k="place" v="farm" />
		<tag k="ssr:stedsnr" v="148521" />
	</node>
	<node lat="59.00383055579323" lon="10.020961103363796" id="-27530">
		<tag k="amenity" v="school" />
		<tag k="name" v="Brunla ungdomsskole" />
		<tag k="ssr:stedsnr" v="148534" />
	</node>
	<node lat="59.00997778024943" lon="10.015008336734434" id="-27531">
		<tag k="name" v="Fredriksro" />
		<tag k="place" v="farm" />
		<tag k="ssr:stedsnr" v="148536" />
	</node>
	<node lat="58.99355555142878" lon="9.97544999563653" id="-27532">
		<tag k="name" v="Eikely" />
		<tag k="place" v="farm" />
		<tag k="ssr:stedsnr" v="148540" />
	</node>
	<node lat="59.13804166234716" lon="10.086966666461487" id="-27535">
		<tag k="name" v="Eskedal" />
		<tag k="place" v="farm" />
		<tag k="ssr:stedsnr" v="148842" />
	</node>
	<node lat="59.1732833335501" lon="10.12799166217444" id="-27539">
		<tag k="name" v="Reppesgård" />
		<tag k="place" v="farm" />
		<tag k="ssr:stedsnr" v="148788" />
	</node>
	<node lat="59.17369166936372" lon="10.073766671777909" id="-27540">
		<tag k="name" v="Åsrum" />
		<tag k="place" v="farm" />
		<tag k="ssr:stedsnr" v="148801" />
	</node>
	<node lat="59.0879749958865" lon="10.105044446177313" id="-27544">
		<tag k="building" v="industrial" />
		<tag k="industrial" v="factory" />
		<tag k="name" v="Brenneriet" />
		<tag k="ssr:stedsnr" v="148879" />
	</node>
	<node lat="59.0906527786568" lon="10.124686117087508" id="-27545">
		<tag k="name" v="Sandtra" />
		<tag k="place" v="isolated_dwelling" />
		<tag k="ssr:stedsnr" v="148883" />
	</node>
	<node lat="59.085097225011246" lon="10.020483341403777" id="-27548">
		<tag k="name" v="Fossestua" />
		<tag k="place" v="isolated_dwelling" />
		<tag k="ssr:stedsnr" v="148896" />
	</node>
	<node lat="59.15323611361152" lon="10.024027778952364" id="-27554">
		<tag k="name" v="Bjerke nordre" />
		<tag k="place" v="farm" />
		<tag k="ssr:stedsnr" v="148916" />
	</node>
	<node lat="59.03861110761518" lon="10.069444439859385" id="-27556">
		<tag k="fixme" v="consider place=suburb, village or hamlet" />
		<tag k="name" v="Halsen" />
		<tag k="place" v="quarter" />
		<tag k="ssr:stedsnr" v="148920" />
	</node>
	<node lat="59.07525555852314" lon="10.160386110099457" id="-27561">
		<tag k="name" v="Skalleberg" />
		<tag k="place" v="locality" />
		<tag k="ssr:stedsnr" v="148936" />
	</node>
	<node lat="59.08657778077166" lon="9.866680554486228" id="-27569">
		<tag k="name" v="Solbergstuen" />
		<tag k="place" v="isolated_dwelling" />
		<tag k="ssr:stedsnr" v="149191" />
	</node>
	<node lat="59.09564999948893" lon="10.007961109337318" id="-27575">
		<tag k="alt_name" v="Ono, nedre" />
		<tag k="name" v="Nedre Ono" />
		<tag k="place" v="farm" />
		<tag k="ssr:stedsnr" v="183089" />
	</node>
	<node lat="59.076863889281555" lon="10.049808339269008" id="-27577">
		<tag k="name" v="Haga" />
		<tag k="place" v="farm" />
		<tag k="ssr:stedsnr" v="183112" />
	</node>
	<node lat="59.06954166950215" lon="10.029155559396044" id="-27578">
		<tag k="name" v="Bjørndalen" />
		<tag k="place" v="farm" />
		<tag k="ssr:stedsnr" v="183129" />
	</node>
	<node lat="59.192400003389956" lon="9.968886105118058" id="-27579">
		<tag k="name" v="Kvelde" />
		<tag k="place" v="village" />
		<tag k="ssr:stedsnr" v="183154" />
	</node>
	<node lat="59.05448377427931" lon="10.201538162749543" id="-27580">
		<tag k="fixme" v="consider place=hamlet" />
		<tag k="name" v="Bergan" />
		<tag k="place" v="farm" />
		<tag k="ssr:stedsnr" v="183164" />
	</node>
	<node lat="59.1884000010533" lon="10.122450001462106" id="-27581">
		<tag k="alt_name" v="Knarvika" />
		<tag k="name" v="Knarrvika" />
		<tag k="place" v="isolated_dwelling" />
		<tag k="ssr:stedsnr" v="183165" />
	</node>
	<node lat="59.19360508769217" lon="9.9727568075428" id="-27582">
		<tag k="name" v="Sundby" />
		<tag k="place" v="hamlet" />
		<tag k="ssr:stedsnr" v="183169" />
	</node>
	<node lat="59.18940213672235" lon="9.98795416737777" id="-27583">
		<tag k="fixme" v="consider place=hamlet" />
		<tag k="name" v="Fosserød" />
		<tag k="place" v="farm" />
		<tag k="ssr:stedsnr" v="183171" />
	</node>
	<node lat="59.044633330447816" lon="10.088894441807978" id="-27584">
		<tag k="name" v="Skreppestad" />
		<tag k="place" v="farm" />
		<tag k="ssr:stedsnr" v="183181" />
	</node>
	<node lat="59.178058329139496" lon="10.013699991749302" id="-27585">
		<tag k="alt_name" v="Bergan, nedre" />
		<tag k="name" v="Nedre Bergan " />
		<tag k="place" v="farm" />
		<tag k="ssr:stedsnr" v="183184" />
	</node>
	<node lat="59.03658629433239" lon="9.985105600933418" id="-27586">
		<tag k="alt_name" v="Tveitene" />
		<tag k="fixme" v="consider place=hamlet" />
		<tag k="name" v="Tveitane" />
		<tag k="place" v="farm" />
		<tag k="ssr:stedsnr" v="183190" />
	</node>
	<node lat="59.21072777800614" lon="10.043930556956248" id="-27587">
		<tag k="name" v="Turrum" />
		<tag k="place" v="farm" />
		<tag k="ssr:stedsnr" v="183326" />
	</node>
	<node lat="59.165222218435936" lon="9.903722214570276" id="-27590">
		<tag k="name" v="Bonnagolt" />
		<tag k="place" v="farm" />
		<tag k="ssr:stedsnr" v="183470" />
	</node>
	<node lat="59.13498055741477" lon="9.904216668592543" id="-27591">
		<tag k="name" v="Knausen" />
		<tag k="place" v="farm" />
		<tag k="ssr:stedsnr" v="183545" />
	</node>
	<node lat="59.12817500045786" lon="9.831336113333686" id="-27593">
		<tag k="alt_name" v="Seterdalen" />
		<tag k="name" v="Sæterdalen" />
		<tag k="place" v="isolated_dwelling" />
		<tag k="ssr:stedsnr" v="183556" />
	</node>
	<node lat="58.999074996065005" lon="9.95154166997655" id="-27594">
		<tag k="name" v="Aske" />
		<tag k="place" v="farm" />
		<tag k="ssr:stedsnr" v="183567" />
	</node>
	<node lat="58.972421627464776" lon="9.834069054099832" id="-27596">
		<tag k="fixme" v="consider place=hamlet" />
		<tag k="name" v="Værvågen" />
		<tag k="place" v="farm" />
		<tag k="ssr:stedsnr" v="183888" />
	</node>
</osm>
