<?xml version="1.0" encoding="UTF-8"?>
<osm version="0.6" generator="osmapis">
	<node lat="59.11195833616957" lon="10.056052776895168" id="-23817">
		<tag k="fixme" v="consider boundary=protected_area and relevant protect_class if not nature reserve" />
		<tag k="leisure" v="nature_reserve" />
		<tag k="name" v="Lunde naturreservat" />
		<tag k="ssr:stedsnr" v="910919" />
	</node>
	<node lat="59.090699997531836" lon="9.945905558462114" id="-24097">
		<tag k="fixme" v="consider boundary=protected_area and relevant protect_class if not nature reserve" />
		<tag k="leisure" v="nature_reserve" />
		<tag k="name" v="Stormyr naturreservat" />
		<tag k="ssr:stedsnr" v="27892" />
	</node>
	<node lat="58.97998888637694" lon="9.814497213840097" id="-26026">
		<tag k="fixme" v="consider boundary=protected_area and relevant protect_class if not nature reserve" />
		<tag k="leisure" v="nature_reserve" />
		<tag k="name" v="FuglÃ¸yrogn naturreservat" />
		<tag k="ssr:stedsnr" v="755336" />
	</node>
	<node lat="59.07385000344553" lon="10.20844722844659" id="-26076">
		<tag k="fixme" v="consider boundary=protected_area and relevant protect_class if not nature reserve" />
		<tag k="leisure" v="nature_reserve" />
		<tag k="name" v="Hemskilen naturreservat" />
		<tag k="ssr:stedsnr" v="755906" />
	</node>
	<node lat="59.06739444179223" lon="9.86456111037516" id="-26513">
		<tag k="fixme" v="consider boundary=protected_area and relevant protect_class if not nature reserve" />
		<tag k="leisure" v="nature_reserve" />
		<tag k="name" v="Elva naturreservat" />
		<tag k="ssr:stedsnr" v="937194" />
	</node>
	<node lat="59.25008671583913" lon="9.992848695240129" id="-26733">
		<tag k="fixme" v="consider boundary=protected_area and relevant protect_class if not nature reserve" />
		<tag k="leisure" v="nature_reserve" />
		<tag k="name" v="Korpen og Sagkollen naturreservat" />
		<tag k="ssr:stedsnr" v="1077525" />
	</node>
</osm>
