<?xml version="1.0" encoding="UTF-8"?>
<osm generator="osmapis" version="0.6">
	<node id="-294908" lat="58.1830777788" lon="8.31754999342">
		<tag k="name" v="Butteluren" />
		<tag k="place" v="farm" />
		<tag k="ssr:stedsnr" v="204432" />
	</node>
	<node id="-294899" lat="58.2766527746" lon="8.39911388614">
		<tag k="name" v="Teinemyr" />
		<tag k="place" v="isolated_dwelling" />
		<tag k="ssr:stedsnr" v="182715" />
	</node>
	<node id="-294895" lat="58.1609513669" lon="8.2685850884">
		<tag k="fixme" v="consider place=hamlet" />
		<tag k="name" v="Blikssund" />
		<tag k="place" v="farm" />
		<tag k="ssr:stedsnr" v="182615" />
	</node>
	<node id="-294894" lat="58.1712361146" lon="8.24589722596">
		<tag k="name" v="Høvåg" />
		<tag k="place" v="village" />
		<tag k="ssr:stedsnr" v="182608" />
	</node>
	<node id="-294893" lat="58.1724750011" lon="8.27762222427">
		<tag k="alt_name" v="Rørvig" />
		<tag k="name" v="Røyrvik" />
		<tag k="place" v="isolated_dwelling" />
		<tag k="ssr:stedsnr" v="182602" />
	</node>
	<node id="-294892" lat="58.1491000038" lon="8.16289443809">
		<tag k="alt_name" v="Randvikdalen" />
		<tag k="fixme" v="consider place=hamlet" />
		<tag k="name" v="Randvigdalen" />
		<tag k="place" v="farm" />
		<tag k="ssr:stedsnr" v="182585" />
	</node>
	<node id="-294891" lat="58.1401268414" lon="8.24582861521">
		<tag k="fixme" v="consider place=hamlet" />
		<tag k="name" v="Hellenes" />
		<tag k="place" v="farm" />
		<tag k="ssr:stedsnr" v="182580" />
	</node>
	<node id="-294888" lat="58.1467277737" lon="8.25521389359">
		<tag k="name" v="Gamle Hellesund" />
		<tag k="place" v="hamlet" />
		<tag k="ssr:stedsnr" v="182529" />
	</node>
	<node id="-294887" lat="58.1416944465" lon="8.21095832999">
		<tag k="alt_name" v="Djupedol" />
		<tag k="name" v="Dybedal" />
		<tag k="place" v="farm" />
		<tag k="ssr:stedsnr" v="182526" />
	</node>
	<node id="-294876" lat="58.2039722192" lon="8.27408611618">
		<tag k="name" v="Ingridsnes" />
		<tag k="place" v="farm" />
		<tag k="ssr:stedsnr" v="182388" />
	</node>
	<node id="-294875" lat="58.1887194462" lon="8.19717778524">
		<tag k="fixme" v="consider place=hamlet" />
		<tag k="name" v="Isefjær" />
		<tag k="place" v="farm" />
		<tag k="ssr:stedsnr" v="182373" />
	</node>
	<node id="-294863" lat="58.2902055557" lon="8.37035555718">
		<tag k="name" v="Østre Buene" />
		<tag k="old_name" v="Øsre Buene" />
		<tag k="place" v="locality" />
		<tag k="ssr:stedsnr" v="143741" />
	</node>
	<node id="-294839" lat="58.3157527783" lon="8.39842777473">
		<tag k="name" v="Hytta" />
		<tag k="place" v="isolated_dwelling" />
		<tag k="ssr:stedsnr" v="143251" />
	</node>
	<node id="-294828" lat="58.2666027754" lon="8.39719443824">
		<tag k="name" v="Steinkar" />
		<tag k="place" v="farm" />
		<tag k="ssr:stedsnr" v="142871" />
	</node>
	<node id="-294826" lat="58.2537750029" lon="8.42879167328">
		<tag k="name" v="Vadvig" />
		<tag k="place" v="isolated_dwelling" />
		<tag k="ssr:stedsnr" v="142851" />
	</node>
	<node id="-294825" lat="58.2637138931" lon="8.34638334037">
		<tag k="name" v="Fyresmoen industriområde" />
		<tag k="place" v="quarter" />
		<tag k="ssr:stedsnr" v="142848" />
	</node>
	<node id="-294817" lat="58.2485694471" lon="8.36541945229">
		<tag k="name" v="Seljelia" />
		<tag k="place" v="quarter" />
		<tag k="ssr:stedsnr" v="142934" />
	</node>
	<node id="-294815" lat="58.246508337" lon="8.36477500192">
		<tag k="name" v="Vesterskauen" />
		<tag k="place" v="quarter" />
		<tag k="ssr:stedsnr" v="142931" />
	</node>
	<node id="-294799" lat="58.2624861126" lon="8.41824166078">
		<tag k="name" v="Bastuholmen" />
		<tag k="place" v="farm" />
		<tag k="ssr:stedsnr" v="142771" />
	</node>
	<node id="-294547" lat="58.2296611089" lon="8.3128999935">
		<tag k="alt_name" v="Nyland, midtre;Nyland" />
		<tag k="name" v="Midtre Nyland" />
		<tag k="place" v="farm" />
		<tag k="ssr:stedsnr" v="61279" />
	</node>
	<node id="-294754" lat="58.1525666654" lon="8.18458611288">
		<tag k="name" v="Ytre Vesterhus" />
		<tag k="place" v="farm" />
		<tag k="ssr:stedsnr" v="142241" />
	</node>
	<node id="-294753" lat="58.1544722259" lon="8.18896110287">
		<tag k="name" v="Neset" />
		<tag k="place" v="farm" />
		<tag k="ssr:stedsnr" v="142240" />
	</node>
	<node id="-294745" lat="58.1852472197" lon="8.20853054981">
		<tag k="historic" v="shieling" />
		<tag k="name" v="Ormestøl" />
		<tag k="place" v="locality" />
		<tag k="ssr:stedsnr" v="142123" />
	</node>
	<node id="-294727" lat="58.2654250011" lon="8.34972500253">
		<tag k="name" v="Motangen" />
		<tag k="place" v="farm" />
		<tag k="ssr:stedsnr" v="121710" />
	</node>
	<node id="-294724" lat="58.1529133063" lon="8.21616490694">
		<tag k="fixme" v="consider place=hamlet" />
		<tag k="name" v="Sævig" />
		<tag k="place" v="farm" />
		<tag k="ssr:stedsnr" v="121572" />
	</node>
	<node id="-294718" lat="58.205650003" lon="8.2900277715">
		<tag k="name" v="Årdalen" />
		<tag k="place" v="farm" />
		<tag k="ssr:stedsnr" v="121493" />
	</node>
	<node id="-294717" lat="58.2119583355" lon="8.28656944741">
		<tag k="name" v="Holmen" />
		<tag k="place" v="farm" />
		<tag k="ssr:stedsnr" v="121491" />
	</node>
	<node id="-294716" lat="58.2109305539" lon="8.36589999366">
		<tag k="name" v="Fjellheim" />
		<tag k="place" v="farm" />
		<tag k="ssr:stedsnr" v="121460" />
	</node>
	<node id="-294714" lat="58.1790166622" lon="8.24402221568">
		<tag k="name" v="Kvernvollen" />
		<tag k="place" v="farm" />
		<tag k="ssr:stedsnr" v="121417" />
	</node>
	<node id="-294710" lat="58.2018111127" lon="8.35099167433">
		<tag k="alt_name" v="Tuene" />
		<tag k="name" v="Tune" />
		<tag k="place" v="farm" />
		<tag k="ssr:stedsnr" v="121390" />
	</node>
	<node id="-294709" lat="58.1934611078" lon="8.29196389416">
		<tag k="fixme" v="consider place=hamlet" />
		<tag k="name" v="Flesi" />
		<tag k="place" v="farm" />
		<tag k="ssr:stedsnr" v="121387" />
	</node>
	<node id="-294703" lat="58.2254388908" lon="8.35224722786">
		<tag k="name" v="Sundet" />
		<tag k="place" v="farm" />
		<tag k="ssr:stedsnr" v="121288" />
	</node>
	<node id="-294702" lat="58.2478500001" lon="8.41772500176">
		<tag k="fixme" v="consider place=hamlet" />
		<tag k="name" v="Flørenes" />
		<tag k="place" v="farm" />
		<tag k="ssr:stedsnr" v="121280" />
	</node>
	<node id="-294694" lat="58.2253972235" lon="8.37293055148">
		<tag k="name" v="Haugenes" />
		<tag k="place" v="isolated_dwelling" />
		<tag k="ssr:stedsnr" v="83904" />
	</node>
	<node id="-296732" lat="58.1854434567" lon="8.31650177341">
		<tag k="fixme" v="consider place=hamlet" />
		<tag k="name" v="Åkerøen" />
		<tag k="place" v="farm" />
		<tag k="ssr:stedsnr" v="971171" />
	</node>
	<node id="-296731" lat="58.1725011808" lon="8.23362924193">
		<tag k="fixme" v="consider place=hamlet" />
		<tag k="name" v="Rossekjær" />
		<tag k="place" v="farm" />
		<tag k="ssr:stedsnr" v="971167" />
	</node>
	<node id="-296730" lat="58.1706301323" lon="8.25177388329">
		<tag k="name" v="Høvåg" />
		<tag k="place" v="hamlet" />
		<tag k="ssr:stedsnr" v="971166" />
	</node>
	<node id="-296729" lat="58.1564674311" lon="8.26663227663">
		<tag k="fixme" v="consider place=hamlet" />
		<tag k="name" v="Indre Tronderøen" />
		<tag k="place" v="farm" />
		<tag k="ssr:stedsnr" v="971165" />
	</node>
	<node id="-296728" lat="58.1530359826" lon="8.27112877529">
		<tag k="fixme" v="consider place=hamlet" />
		<tag k="name" v="Ytre Tronderøen" />
		<tag k="place" v="farm" />
		<tag k="ssr:stedsnr" v="971164" />
	</node>
	<node id="-296727" lat="58.1449935192" lon="8.25209252973">
		<tag k="fixme" v="consider place=hamlet" />
		<tag k="name" v="Grimsøen" />
		<tag k="place" v="farm" />
		<tag k="ssr:stedsnr" v="971162" />
	</node>
	<node id="-296726" lat="58.1188571681" lon="8.20957951887">
		<tag k="fixme" v="consider place=hamlet" />
		<tag k="name" v="Ulvøen" />
		<tag k="place" v="farm" />
		<tag k="ssr:stedsnr" v="971161" />
	</node>
	<node id="-296725" lat="58.1653275324" lon="8.20590191454">
		<tag k="fixme" v="consider place=hamlet" />
		<tag k="name" v="Eidjord" />
		<tag k="place" v="farm" />
		<tag k="ssr:stedsnr" v="971158" />
	</node>
	<node id="-294676" lat="58.278558336" lon="8.42014723003">
		<tag k="amenity" v="nursing_home" />
		<tag k="name" v="Sykehjem" />
		<tag k="ssr:stedsnr" v="82884" />
	</node>
	<node id="-296723" lat="58.2132359202" lon="8.27100590022">
		<tag k="name" v="Vallesverd" />
		<tag k="place" v="hamlet" />
		<tag k="ssr:stedsnr" v="971156" />
	</node>
	<node id="-296722" lat="58.2174126084" lon="8.25421348925">
		<tag k="name" v="Steindal" />
		<tag k="place" v="hamlet" />
		<tag k="ssr:stedsnr" v="971155" />
	</node>
	<node id="-296721" lat="58.2192113743" lon="8.25177693819">
		<tag k="fixme" v="consider place=hamlet" />
		<tag k="name" v="Nordre Steindal" />
		<tag k="place" v="farm" />
		<tag k="ssr:stedsnr" v="971153" />
	</node>
	<node id="-294672" lat="58.2478388873" lon="8.38355832607">
		<tag k="name" v="Kokkenes" />
		<tag k="place" v="quarter" />
		<tag k="ssr:stedsnr" v="82921" />
	</node>
	<node id="-296719" lat="58.2165051201" lon="8.28492678983">
		<tag k="fixme" v="consider place=hamlet" />
		<tag k="name" v="Vallesværdalen" />
		<tag k="place" v="farm" />
		<tag k="ssr:stedsnr" v="971151" />
	</node>
	<node id="-296718" lat="58.2714976111" lon="8.41010541293">
		<tag k="fixme" v="consider place=hamlet" />
		<tag k="name" v="Heldal" />
		<tag k="place" v="farm" />
		<tag k="ssr:stedsnr" v="971150" />
	</node>
	<node id="-296717" lat="58.2568666977" lon="8.43116260172">
		<tag k="fixme" v="consider place=hamlet" />
		<tag k="name" v="Kallenes" />
		<tag k="place" v="farm" />
		<tag k="ssr:stedsnr" v="971148" />
	</node>
	<node id="-296716" lat="58.2855562224" lon="8.28702129813">
		<tag k="fixme" v="consider place=hamlet" />
		<tag k="name" v="Røgskår" />
		<tag k="place" v="farm" />
		<tag k="ssr:stedsnr" v="971146" />
	</node>
	<node id="-296715" lat="58.2346550345" lon="8.38593041237">
		<tag k="fixme" v="consider place=hamlet" />
		<tag k="name" v="Skogerøen" />
		<tag k="place" v="farm" />
		<tag k="ssr:stedsnr" v="971147" />
	</node>
	<node id="-296714" lat="58.2638472445" lon="8.27734562428">
		<tag k="fixme" v="consider place=hamlet" />
		<tag k="name" v="Storehei" />
		<tag k="place" v="farm" />
		<tag k="ssr:stedsnr" v="971144" />
	</node>
	<node id="-296713" lat="58.2823363022" lon="8.29834510411">
		<tag k="name" v="Eikeland" />
		<tag k="place" v="hamlet" />
		<tag k="ssr:stedsnr" v="971145" />
	</node>
	<node id="-296712" lat="58.2147532996" lon="8.29857901942">
		<tag k="fixme" v="consider place=hamlet" />
		<tag k="name" v="Nasledalen" />
		<tag k="place" v="farm" />
		<tag k="ssr:stedsnr" v="971141" />
	</node>
	<node id="-296711" lat="58.259389705" lon="8.26859625997">
		<tag k="fixme" v="consider place=hamlet" />
		<tag k="name" v="Torkelsbuene" />
		<tag k="place" v="farm" />
		<tag k="ssr:stedsnr" v="971142" />
	</node>
	<node id="-296710" lat="58.1965042071" lon="8.3500787491">
		<tag k="fixme" v="consider place=hamlet" />
		<tag k="name" v="Brekkestø" />
		<tag k="place" v="farm" />
		<tag k="ssr:stedsnr" v="971100" />
	</node>
	<node id="-296709" lat="58.2027176952" lon="8.32748013586">
		<tag k="fixme" v="consider place=hamlet" />
		<tag k="name" v="Kragsøy" />
		<tag k="place" v="farm" />
		<tag k="ssr:stedsnr" v="971099" />
	</node>
	<node id="-296708" lat="58.2095221507" lon="8.32252736968">
		<tag k="fixme" v="consider place=hamlet" />
		<tag k="name" v="Grisøya" />
		<tag k="place" v="farm" />
		<tag k="ssr:stedsnr" v="971098" />
	</node>
	<node id="-296707" lat="58.2080500187" lon="8.31276834187">
		<tag k="name" v="Fjelldalsøya" />
		<tag k="place" v="hamlet" />
		<tag k="ssr:stedsnr" v="971097" />
	</node>
	<node id="-294643" lat="58.1484833326" lon="8.24856944633">
		<tag k="name" v="Svinebeida" />
		<tag k="place" v="isolated_dwelling" />
		<tag k="ssr:stedsnr" v="82563" />
	</node>
	<node id="-296690" lat="58.2557666706" lon="8.38456667144">
		<tag k="name" v="Solheim" />
		<tag k="place" v="farm" />
		<tag k="ssr:stedsnr" v="932929" />
	</node>
	<node id="-296689" lat="58.2547916687" lon="8.37146667309">
		<tag k="fixme" v="consider place=hamlet" />
		<tag k="name" v="Lofthus" />
		<tag k="place" v="farm" />
		<tag k="ssr:stedsnr" v="932922" />
	</node>
	<node id="-296688" lat="58.255661114" lon="8.36070277526">
		<tag k="name" v="Holta" />
		<tag k="place" v="farm" />
		<tag k="ssr:stedsnr" v="932920" />
	</node>
	<node id="-296687" lat="58.241947224" lon="8.35795555251">
		<tag k="name" v="Furulia" />
		<tag k="place" v="quarter" />
		<tag k="ssr:stedsnr" v="932916" />
	</node>
	<node id="-296686" lat="58.1399527746" lon="8.21149444295">
		<tag k="name" v="Solborg" />
		<tag k="place" v="farm" />
		<tag k="ssr:stedsnr" v="932908" />
	</node>
	<node id="-294631" lat="58.2620277795" lon="8.36154721478">
		<tag k="name" v="Prestholt" />
		<tag k="place" v="farm" />
		<tag k="ssr:stedsnr" v="82839" />
	</node>
	<node id="-294629" lat="58.2817722267" lon="8.3089305517">
		<tag k="name" v="Støa" />
		<tag k="place" v="farm" />
		<tag k="ssr:stedsnr" v="82821" />
	</node>
	<node id="-296676" lat="58.2798555517" lon="8.40157499449">
		<tag k="name" v="Sagebakken" />
		<tag k="place" v="farm" />
		<tag k="ssr:stedsnr" v="932831" />
	</node>
	<node id="-294627" lat="58.2441638934" lon="8.37023333201">
		<tag k="name" v="Solgård" />
		<tag k="place" v="quarter" />
		<tag k="ssr:stedsnr" v="82815" />
	</node>
	<node id="-296672" lat="58.2861916697" lon="8.29395833397">
		<tag k="name" v="Myrheim" />
		<tag k="place" v="farm" />
		<tag k="ssr:stedsnr" v="932791" />
	</node>
	<node id="-296657" lat="58.2807472206" lon="8.31343333224">
		<tag k="name" v="Bjørnekjerrknekken" />
		<tag k="place" v="farm" />
		<tag k="ssr:stedsnr" v="932365" />
	</node>
	<node id="-296651" lat="58.2254388908" lon="8.35224722786">
		<tag k="name" v="Vestre Sundet" />
		<tag k="place" v="farm" />
		<tag k="ssr:stedsnr" v="932334" />
	</node>
	<node id="-296643" lat="58.3228638865" lon="8.36230554836">
		<tag k="name" v="Kringlemyr" />
		<tag k="place" v="farm" />
		<tag k="ssr:stedsnr" v="932295" />
	</node>
	<node id="-294566" lat="58.215236112" lon="8.32580278204">
		<tag k="name" v="Ramsdalen" />
		<tag k="place" v="farm" />
		<tag k="ssr:stedsnr" v="82016" />
	</node>
	<node id="-294564" lat="58.2662888882" lon="8.36773888538">
		<tag k="name" v="Kverndalen" />
		<tag k="place" v="farm" />
		<tag k="ssr:stedsnr" v="61702" />
	</node>
	<node id="-294563" lat="58.253025004" lon="8.36112499177">
		<tag k="fixme" v="consider place=hamlet" />
		<tag k="name" v="Lundemoen" />
		<tag k="place" v="farm" />
		<tag k="ssr:stedsnr" v="61694" />
	</node>
	<node id="-294558" lat="58.1491604669" lon="8.22917136293">
		<tag k="fixme" v="consider place=hamlet" />
		<tag k="name" v="Frillestad" />
		<tag k="place" v="farm" />
		<tag k="ssr:stedsnr" v="61565" />
	</node>
	<node id="-294557" lat="58.1554853521" lon="8.18508910955">
		<tag k="fixme" v="consider place=hamlet" />
		<tag k="name" v="Vesterhus" />
		<tag k="place" v="farm" />
		<tag k="ssr:stedsnr" v="61549" />
	</node>
	<node id="-294552" lat="58.2182725456" lon="8.31582097861">
		<tag k="alt_name" v="Kosvik" />
		<tag k="fixme" v="consider place=hamlet" />
		<tag k="name" v="Kosvig" />
		<tag k="place" v="farm" />
		<tag k="ssr:stedsnr" v="61432" />
	</node>
	<node id="-294551" lat="58.1951805571" lon="8.3478444361">
		<tag k="name" v="Brekkestø" />
		<tag k="place" v="village" />
		<tag k="ssr:stedsnr" v="61420" />
	</node>
	<node id="-294550" lat="58.1927166633" lon="8.30170000455">
		<tag k="name" v="Neset" />
		<tag k="place" v="farm" />
		<tag k="ssr:stedsnr" v="61379" />
	</node>
	<node id="-294548" lat="58.2882666679" lon="8.28770556269">
		<tag k="alt_name" v="Skjerpe" />
		<tag k="name" v="Skjærpe" />
		<tag k="place" v="isolated_dwelling" />
		<tag k="ssr:stedsnr" v="61295" />
	</node>
	<node id="-296595" lat="58.2415638916" lon="8.3654916667">
		<tag k="name" v="Solfjell" />
		<tag k="place" v="quarter" />
		<tag k="ssr:stedsnr" v="931659" />
	</node>
	<node id="-294546" lat="58.2358499987" lon="8.36056945079">
		<tag k="building" v="industrial" />
		<tag k="industrial" v="factory" />
		<tag k="name" v="Treullfab" />
		<tag k="ssr:stedsnr" v="61241" />
	</node>
	<node id="-296592" lat="58.2360055561" lon="8.35378333213">
		<tag k="name" v="Tømmervig" />
		<tag k="place" v="isolated_dwelling" />
		<tag k="ssr:stedsnr" v="931641" />
	</node>
	<node id="-294542" lat="58.2144583343" lon="8.29986666744">
		<tag k="name" v="Nasledalen" />
		<tag k="place" v="isolated_dwelling" />
		<tag k="ssr:stedsnr" v="60471" />
	</node>
	<node id="-294541" lat="58.2129500044" lon="8.36704999636">
		<tag k="name" v="Bergsvoll" />
		<tag k="place" v="farm" />
		<tag k="ssr:stedsnr" v="60457" />
	</node>
	<node id="-294537" lat="58.200466664" lon="8.35792222803">
		<tag k="name" v="Brekkhaug" />
		<tag k="place" v="farm" />
		<tag k="ssr:stedsnr" v="60383" />
	</node>
	<node id="-296579" lat="58.1680999876" lon="8.25372705402">
		<tag k="fixme" v="consider place=hamlet" />
		<tag k="name" v="Nedre Høvåg" />
		<tag k="place" v="farm" />
		<tag k="ssr:stedsnr" v="931371" />
	</node>
	<node id="-294525" lat="58.2946249979" lon="8.3673388851">
		<tag k="historic" v="shieling" />
		<tag k="name" v="Lillebuene" />
		<tag k="place" v="locality" />
		<tag k="ssr:stedsnr" v="22757" />
	</node>
	<node id="-294523" lat="58.1931111082" lon="8.31391943796">
		<tag k="name" v="Kringlevollen" />
		<tag k="place" v="isolated_dwelling" />
		<tag k="ssr:stedsnr" v="22469" />
	</node>
	<node id="-296569" lat="58.1883888894" lon="8.20343611618">
		<tag k="name" v="Hestkleiv" />
		<tag k="place" v="farm" />
		<tag k="ssr:stedsnr" v="932077" />
	</node>
	<node id="-294515" lat="58.2744999961" lon="8.27978610859">
		<tag k="name" v="Doktorplassen" />
		<tag k="place" v="farm" />
		<tag k="ssr:stedsnr" v="22406" />
	</node>
	<node id="-296560" lat="58.1520916705" lon="8.28054444053">
		<tag k="name" v="Hvalholmsund" />
		<tag k="place" v="farm" />
		<tag k="ssr:stedsnr" v="932043" />
	</node>
	<node id="-296554" lat="58.2885305599" lon="8.42593056336">
		<tag k="alt_name" v="Byttingsmyr" />
		<tag k="name" v="Bytingsmyra" />
		<tag k="place" v="farm" />
		<tag k="ssr:stedsnr" v="911764" />
	</node>
	<node id="-296553" lat="58.2784027737" lon="8.3233972159">
		<tag k="name" v="Storemyr" />
		<tag k="place" v="farm" />
		<tag k="ssr:stedsnr" v="911758" />
	</node>
	<node id="-294503" lat="58.2579861083" lon="8.39142222952">
		<tag k="name" v="Tingsaker øvre" />
		<tag k="place" v="farm" />
		<tag k="ssr:stedsnr" v="22329" />
	</node>
	<node id="-296549" lat="58.2697833354" lon="8.41205277614">
		<tag k="alt_name" v="Heldal" />
		<tag k="name" v="Helldal" />
		<tag k="place" v="village" />
		<tag k="ssr:stedsnr" v="910715" />
	</node>
	<node id="-296546" lat="58.1728583295" lon="8.23325832639">
		<tag k="name" v="Røsnes" />
		<tag k="place" v="farm" />
		<tag k="ssr:stedsnr" v="910608" />
	</node>
	<node id="-296545" lat="58.1456749993" lon="8.20893334112">
		<tag k="name" v="Opsebakken" />
		<tag k="place" v="farm" />
		<tag k="ssr:stedsnr" v="910589" />
	</node>
	<node id="-296544" lat="58.1547944457" lon="8.25975833218">
		<tag k="name" v="Bjørnholmen" />
		<tag k="place" v="farm" />
		<tag k="ssr:stedsnr" v="910581" />
	</node>
	<node id="-296536" lat="58.1854416688" lon="8.22349721384">
		<tag k="fixme" v="consider place=hamlet" />
		<tag k="name" v="Kalland" />
		<tag k="place" v="farm" />
		<tag k="ssr:stedsnr" v="910427" />
	</node>
	<node id="-296527" lat="58.2406527808" lon="8.3222833309">
		<tag k="name" v="Furekjerr" />
		<tag k="place" v="isolated_dwelling" />
		<tag k="ssr:stedsnr" v="910254" />
	</node>
	<node id="-296526" lat="58.2844999976" lon="8.29541389011">
		<tag k="fixme" v="consider place=hamlet" />
		<tag k="name" v="Eikeland" />
		<tag k="place" v="farm" />
		<tag k="ssr:stedsnr" v="908118" />
	</node>
	<node id="-296524" lat="58.2238499973" lon="8.36565554921">
		<tag k="name" v="Østerhus" />
		<tag k="place" v="farm" />
		<tag k="ssr:stedsnr" v="872905" />
	</node>
	<node id="-294473" lat="58.2059305582" lon="8.25212499918">
		<tag k="name" v="Neset" />
		<tag k="place" v="farm" />
		<tag k="ssr:stedsnr" v="22102" />
	</node>
	<node id="-294465" lat="58.1880250039" lon="8.20034721969">
		<tag k="name" v="Auren" />
		<tag k="place" v="isolated_dwelling" />
		<tag k="ssr:stedsnr" v="22070" />
	</node>
	<node id="-296509" lat="58.128627779" lon="8.228725001">
		<tag k="name" v="Sandane" />
		<tag k="place" v="farm" />
		<tag k="ssr:stedsnr" v="871875" />
	</node>
	<node id="-296505" lat="58.2652194449" lon="8.39342500602">
		<tag k="name" v="Gaupemyr" />
		<tag k="place" v="farm" />
		<tag k="ssr:stedsnr" v="871855" />
	</node>
	<node id="-296504" lat="58.2793083318" lon="8.41368888397">
		<tag k="name" v="Egelund" />
		<tag k="place" v="farm" />
		<tag k="ssr:stedsnr" v="871845" />
	</node>
	<node id="-294444" lat="58.1914166678" lon="8.16149722039">
		<tag k="historic" v="shieling" />
		<tag k="name" v="Stegenes" />
		<tag k="place" v="locality" />
		<tag k="ssr:stedsnr" v="21949" />
	</node>
	<node id="-294443" lat="58.2540249994" lon="8.37738332672">
		<tag k="name" v="Dovre" />
		<tag k="place" v="quarter" />
		<tag k="ssr:stedsnr" v="21933" />
	</node>
	<node id="-296490" lat="58.2150944451" lon="8.38393889671">
		<tag k="name" v="Justøy bibelcamping" />
		<tag k="ssr:stedsnr" v="871706" />
		<tag k="tourism" v="camp_site" />
	</node>
	<node id="-294440" lat="58.2442722193" lon="8.36273333749">
		<tag k="alt_name" v="Borkedalen-barnesk" />
		<tag k="amenity" v="school" />
		<tag k="name" v="Borkedalen-barneskole" />
		<tag k="ssr:stedsnr" v="21922" />
	</node>
	<node id="-294437" lat="58.1294166624" lon="8.23514722406">
		<tag k="name" v="Bellevista" />
		<tag k="place" v="isolated_dwelling" />
		<tag k="ssr:stedsnr" v="21894" />
	</node>
	<node id="-296458" lat="58.1920972224" lon="8.28846111894">
		<tag k="name" v="Kamperhaug" />
		<tag k="place" v="isolated_dwelling" />
		<tag k="ssr:stedsnr" v="871508" />
	</node>
	<node id="-296440" lat="58.1637388851" lon="8.26775000517">
		<tag k="name" v="Maristrand" />
		<tag k="place" v="isolated_dwelling" />
		<tag k="ssr:stedsnr" v="871344" />
	</node>
	<node id="-296438" lat="58.1655833336" lon="8.24920555407">
		<tag k="name" v="Martinshaven" />
		<tag k="place" v="farm" />
		<tag k="ssr:stedsnr" v="871342" />
	</node>
	<node id="-294142" lat="58.160361109" lon="8.26411943984">
		<tag k="name" v="Skarpevollen" />
		<tag k="place" v="isolated_dwelling" />
		<tag k="ssr:stedsnr" v="385284" />
	</node>
	<node id="-294372" lat="58.1529083292" lon="8.27225555595">
		<tag k="name" v="Perlevika" />
		<tag k="place" v="farm" />
		<tag k="ssr:stedsnr" v="558" />
	</node>
	<node id="-294371" lat="58.1325250019" lon="8.23551666182">
		<tag k="fixme" v="consider place=hamlet" />
		<tag k="name" v="Dalane" />
		<tag k="place" v="farm" />
		<tag k="ssr:stedsnr" v="546" />
	</node>
	<node id="-294369" lat="58.1406361089" lon="8.2314638902">
		<tag k="name" v="Spannskjerr" />
		<tag k="place" v="farm" />
		<tag k="ssr:stedsnr" v="529" />
	</node>
	<node id="-294367" lat="58.2156444402" lon="8.28469722276">
		<tag k="alt_name" v="Dalene" />
		<tag k="name" v="Dalane" />
		<tag k="place" v="farm" />
		<tag k="ssr:stedsnr" v="499" />
	</node>
	<node id="-294366" lat="58.2112083311" lon="8.28134165838">
		<tag k="name" v="Høydalen" />
		<tag k="place" v="farm" />
		<tag k="ssr:stedsnr" v="497" />
	</node>
	<node id="-294361" lat="58.2203277763" lon="8.33416389641">
		<tag k="name" v="Skrukkebua" />
		<tag k="place" v="locality" />
		<tag k="ssr:stedsnr" v="452" />
	</node>
	<node id="-294358" lat="58.1968888904" lon="8.26861389117">
		<tag k="fixme" v="consider place=hamlet" />
		<tag k="name" v="Hellevig" />
		<tag k="place" v="farm" />
		<tag k="ssr:stedsnr" v="407" />
	</node>
	<node id="-294356" lat="58.2465472209" lon="8.320325008">
		<tag k="fixme" v="consider place=hamlet" />
		<tag k="name" v="Songe" />
		<tag k="place" v="farm" />
		<tag k="ssr:stedsnr" v="359" />
	</node>
	<node id="-294353" lat="58.2335777774" lon="8.34706388929">
		<tag k="fixme" v="consider place=hamlet" />
		<tag k="name" v="Skalle" />
		<tag k="place" v="farm" />
		<tag k="ssr:stedsnr" v="303" />
	</node>
	<node id="-294345" lat="58.2386777821" lon="8.3719055548">
		<tag k="fixme" v="consider place=hamlet" />
		<tag k="name" v="Bergshaven" />
		<tag k="place" v="farm" />
		<tag k="ssr:stedsnr" v="260" />
	</node>
	<node id="-296391" lat="58.2641472222" lon="8.42124721815">
		<tag k="alt_name" v="Dypvik" />
		<tag k="fixme" v="consider place=hamlet" />
		<tag k="name" v="Dypvig" />
		<tag k="place" v="farm" />
		<tag k="ssr:stedsnr" v="850696" />
	</node>
	<node id="-296390" lat="58.266594442" lon="8.39751110771">
		<tag k="name" v="Kleivsmyr" />
		<tag k="place" v="farm" />
		<tag k="ssr:stedsnr" v="850695" />
	</node>
	<node id="-296389" lat="58.2558211809" lon="8.41470075941">
		<tag k="fixme" v="consider place=hamlet" />
		<tag k="name" v="Langedal" />
		<tag k="place" v="farm" />
		<tag k="ssr:stedsnr" v="850689" />
	</node>
	<node id="-296386" lat="58.1510138891" lon="8.20727499833">
		<tag k="name" v="Nesane" />
		<tag k="place" v="farm" />
		<tag k="ssr:stedsnr" v="850579" />
	</node>
	<node id="-296385" lat="58.1503583347" lon="8.23846388902">
		<tag k="name" v="Ramsdalen" />
		<tag k="place" v="farm" />
		<tag k="ssr:stedsnr" v="850574" />
	</node>
	<node id="-296382" lat="58.1519105009" lon="8.23033900254">
		<tag k="name" v="Hesleviga" />
		<tag k="place" v="farm" />
		<tag k="ssr:stedsnr" v="850560" />
	</node>
	<node id="-296380" lat="58.1203277805" lon="8.20882500643">
		<tag k="alt_name" v="Såvika" />
		<tag k="name" v="Såviga" />
		<tag k="place" v="farm" />
		<tag k="ssr:stedsnr" v="850512" />
	</node>
	<node id="-296379" lat="58.2173416698" lon="8.25127222467">
		<tag k="name" v="Steindal" />
		<tag k="place" v="farm" />
		<tag k="ssr:stedsnr" v="850484" />
	</node>
	<node id="-296377" lat="58.2184972216" lon="8.24941388061">
		<tag k="name" v="Hommerkleiv" />
		<tag k="place" v="farm" />
		<tag k="ssr:stedsnr" v="850475" />
	</node>
	<node id="-296376" lat="58.2181388906" lon="8.30546389506">
		<tag k="name" v="Østerhaven" />
		<tag k="place" v="farm" />
		<tag k="ssr:stedsnr" v="850459" />
	</node>
	<node id="-294327" lat="58.1695504297" lon="8.24801254858">
		<tag k="name" v="Øvre Høvåg" />
		<tag k="place" v="farm" />
		<tag k="ssr:stedsnr" v="989175" />
	</node>
	<node id="-296373" lat="58.1889972261" lon="8.29225555466">
		<tag k="name" v="Kjøbmannsvig" />
		<tag k="place" v="farm" />
		<tag k="ssr:stedsnr" v="850410" />
	</node>
	<node id="-296369" lat="58.3001666655" lon="8.37112778398">
		<tag k="name" v="Langodden" />
		<tag k="place" v="isolated_dwelling" />
		<tag k="ssr:stedsnr" v="850287" />
	</node>
	<node id="-296368" lat="58.2272583341" lon="8.2982444436">
		<tag k="name" v="Augland" />
		<tag k="place" v="farm" />
		<tag k="ssr:stedsnr" v="850285" />
	</node>
	<node id="-296364" lat="58.2744277779" lon="8.32406944927">
		<tag k="name" v="Sørheim" />
		<tag k="place" v="farm" />
		<tag k="ssr:stedsnr" v="849759" />
	</node>
	<node id="-296357" lat="58.1378861147" lon="8.22186111887">
		<tag k="name" v="Myra" />
		<tag k="place" v="farm" />
		<tag k="ssr:stedsnr" v="849566" />
	</node>
	<node id="-296354" lat="58.2253972235" lon="8.37293055148">
		<tag k="name" v="Haugenes" />
		<tag k="place" v="isolated_dwelling" />
		<tag k="ssr:stedsnr" v="845792" />
	</node>
	<node id="-296338" lat="58.2565722239" lon="8.38280277083">
		<tag k="name" v="Solheim" />
		<tag k="place" v="isolated_dwelling" />
		<tag k="ssr:stedsnr" v="810938" />
	</node>
	<node id="-296328" lat="58.2845833321" lon="8.29269999568">
		<tag k="name" v="Lissisplass" />
		<tag k="place" v="farm" />
		<tag k="ssr:stedsnr" v="810842" />
	</node>
	<node id="-296316" lat="58.2151194401" lon="8.27406944484">
		<tag k="name" v="Skibbuvollen" />
		<tag k="place" v="isolated_dwelling" />
		<tag k="ssr:stedsnr" v="810703" />
	</node>
	<node id="-296301" lat="58.2246777756" lon="8.37759722633">
		<tag k="name" v="Dyttesundlandet" />
		<tag k="place" v="isolated_dwelling" />
		<tag k="ssr:stedsnr" v="810622" />
	</node>
	<node id="-294239" lat="58.261755552" lon="8.35505000427">
		<tag k="name" v="Fyresmoen" />
		<tag k="place" v="farm" />
		<tag k="ssr:stedsnr" v="474011" />
	</node>
	<node id="-294220" lat="58.2224222206" lon="8.30476944395">
		<tag k="name" v="Veddervoll" />
		<tag k="place" v="farm" />
		<tag k="ssr:stedsnr" v="386428" />
	</node>
	<node id="-294217" lat="58.2593083341" lon="8.38273610842">
		<tag k="name" v="Kirkemoen" />
		<tag k="place" v="farm" />
		<tag k="ssr:stedsnr" v="385934" />
	</node>
	<node id="-296264" lat="58.3161722261" lon="8.30831666006">
		<tag k="name" v="Fiskebekk" />
		<tag k="place" v="locality" />
		<tag k="ssr:stedsnr" v="810285" />
	</node>
	<node id="-294203" lat="58.2383444468" lon="8.36596111185">
		<tag k="name" v="Lunteviga" />
		<tag k="place" v="farm" />
		<tag k="ssr:stedsnr" v="385821" />
	</node>
	<node id="-294199" lat="58.3018944473" lon="8.39538333075">
		<tag k="name" v="Slåttemyrplassen" />
		<tag k="place" v="farm" />
		<tag k="ssr:stedsnr" v="385790" />
	</node>
	<node id="-296241" lat="58.1886583305" lon="8.20827222789">
		<tag k="name" v="Ommundskjerr" />
		<tag k="place" v="isolated_dwelling" />
		<tag k="ssr:stedsnr" v="810115" />
	</node>
	<node id="-294185" lat="58.225841663" lon="8.37304999639">
		<tag k="name" v="Vassdalen" />
		<tag k="place" v="farm" />
		<tag k="ssr:stedsnr" v="385637" />
	</node>
	<node id="-296224" lat="58.1652111105" lon="8.2013833286">
		<tag k="name" v="Eidjord" />
		<tag k="place" v="farm" />
		<tag k="ssr:stedsnr" v="789613" />
	</node>
	<node id="-296217" lat="58.1528999996" lon="8.24112777005">
		<tag k="name" v="Åmlandsneset" />
		<tag k="place" v="farm" />
		<tag k="ssr:stedsnr" v="789566" />
	</node>
	<node id="-296214" lat="58.1137249997" lon="8.21012778519">
		<tag k="name" v="Ulvøysund" />
		<tag k="place" v="hamlet" />
		<tag k="ssr:stedsnr" v="789521" />
	</node>
	<node id="-296211" lat="58.2232801774" lon="8.36926463857">
		<tag k="fixme" v="consider place=hamlet" />
		<tag k="name" v="Østerøya" />
		<tag k="place" v="farm" />
		<tag k="ssr:stedsnr" v="789453" />
	</node>
	<node id="-296210" lat="58.2187055553" lon="8.35054721652">
		<tag k="name" v="Espeviga" />
		<tag k="place" v="farm" />
		<tag k="ssr:stedsnr" v="789449" />
	</node>
	<node id="-296207" lat="58.1722777801" lon="8.14938888166">
		<tag k="fixme" v="consider place=hamlet" />
		<tag k="name" v="Grundebua" />
		<tag k="place" v="farm" />
		<tag k="ssr:stedsnr" v="789421" />
	</node>
	<node id="-296199" lat="58.3195333304" lon="8.30227777896">
		<tag k="fixme" v="consider place=hamlet" />
		<tag k="name" v="Tengsbekk" />
		<tag k="place" v="farm" />
		<tag k="ssr:stedsnr" v="789285" />
	</node>
	<node id="-296196" lat="58.2749666631" lon="8.30000277868">
		<tag k="alt_name" v="Eikeland, yt;Ytre Eigeland" />
		<tag k="fixme" v="consider place=hamlet" />
		<tag k="name" v="Ytre Eikeland" />
		<tag k="place" v="farm" />
		<tag k="ssr:stedsnr" v="788718" />
	</node>
	<node id="-296193" lat="58.2010972231" lon="8.2450805516">
		<tag k="fixme" v="consider place=hamlet" />
		<tag k="name" v="Vestre Vallesverd" />
		<tag k="place" v="farm" />
		<tag k="ssr:stedsnr" v="788481" />
	</node>
	<node id="-296190" lat="58.1811333311" lon="8.26642222723">
		<tag k="fixme" v="consider place=hamlet" />
		<tag k="name" v="Haugevig" />
		<tag k="place" v="farm" />
		<tag k="ssr:stedsnr" v="788399" />
	</node>
	<node id="-296189" lat="58.2484805554" lon="8.21993610511">
		<tag k="fixme" v="consider place=hamlet" />
		<tag k="name" v="Kornbrekke" />
		<tag k="place" v="farm" />
		<tag k="ssr:stedsnr" v="788339" />
	</node>
	<node id="-294442" lat="58.2513166668" lon="8.37294443694">
		<tag k="name" v="Stene" />
		<tag k="place" v="farm" />
		<tag k="ssr:stedsnr" v="21930" />
	</node>
	<node id="-296186" lat="58.23748611" lon="8.28790277309">
		<tag k="fixme" v="consider place=hamlet" />
		<tag k="name" v="Bjelland" />
		<tag k="place" v="farm" />
		<tag k="ssr:stedsnr" v="788261" />
	</node>
	<node id="-296185" lat="58.2610861093" lon="8.36822777592">
		<tag k="alt_name" v="Møglestu gård" />
		<tag k="name" v="Møglestu" />
		<tag k="place" v="farm" />
		<tag k="ssr:stedsnr" v="785365" />
	</node>
	<node id="-296183" lat="58.2677055592" lon="8.34428611896">
		<tag k="name" v="Skibeli" />
		<tag k="place" v="farm" />
		<tag k="ssr:stedsnr" v="769974" />
	</node>
	<node id="-294134" lat="58.1590694428" lon="8.21698888532">
		<tag k="amenity" v="school" />
		<tag k="name" v="Høvåg skole" />
		<tag k="ssr:stedsnr" v="385224" />
	</node>
	<node id="-294129" lat="58.3212666642" lon="8.35750278436">
		<tag k="name" v="Tallaksplass" />
		<tag k="place" v="locality" />
		<tag k="ssr:stedsnr" v="385316" />
	</node>
	<node id="-294111" lat="58.1992583341" lon="8.26161944478">
		<tag k="name" v="Brovig" />
		<tag k="place" v="isolated_dwelling" />
		<tag k="ssr:stedsnr" v="385136" />
	</node>
	<node id="-296152" lat="58.2660610105" lon="8.356558733">
		<tag k="fixme" v="consider place=hamlet" />
		<tag k="name" v="Prestegården" />
		<tag k="place" v="farm" />
		<tag k="ssr:stedsnr" v="749858" />
	</node>
	<node id="-296148" lat="58.1995500027" lon="8.35570556287">
		<tag k="name" v="Nedre Stutti" />
		<tag k="place" v="farm" />
		<tag k="ssr:stedsnr" v="749853" />
	</node>
	<node id="-294098" lat="58.2587555526" lon="8.26255833983">
		<tag k="alt_name" v="Buene" />
		<tag k="name" v="Torkelsbuene" />
		<tag k="place" v="isolated_dwelling" />
		<tag k="ssr:stedsnr" v="364725" />
	</node>
	<node id="-294097" lat="58.2579388884" lon="8.36782499316">
		<tag k="fixme" v="consider place=hamlet" />
		<tag k="name" v="Møglestu" />
		<tag k="place" v="farm" />
		<tag k="ssr:stedsnr" v="364723" />
	</node>
	<node id="-294096" lat="58.1753666631" lon="8.23211111205">
		<tag k="name" v="Skibbusdalen" />
		<tag k="place" v="farm" />
		<tag k="ssr:stedsnr" v="364619" />
	</node>
	<node id="-294095" lat="58.1680393881" lon="8.16340467594">
		<tag k="fixme" v="consider place=hamlet" />
		<tag k="name" v="Sagåsen" />
		<tag k="place" v="farm" />
		<tag k="ssr:stedsnr" v="364612" />
	</node>
	<node id="-294093" lat="58.147711107" lon="8.23738055805">
		<tag k="name" v="Trædalen" />
		<tag k="place" v="farm" />
		<tag k="ssr:stedsnr" v="364597" />
	</node>
	<node id="-294090" lat="58.1530944457" lon="8.20904721657">
		<tag k="name" v="Fløndalen" />
		<tag k="place" v="farm" />
		<tag k="ssr:stedsnr" v="364583" />
	</node>
	<node id="-294089" lat="58.1580999978" lon="8.25576667339">
		<tag k="name" v="Snekkeviga" />
		<tag k="place" v="farm" />
		<tag k="ssr:stedsnr" v="364580" />
	</node>
	<node id="-294088" lat="58.1360343439" lon="8.24607639469">
		<tag k="fixme" v="consider place=hamlet" />
		<tag k="name" v="Natvig" />
		<tag k="place" v="farm" />
		<tag k="ssr:stedsnr" v="364566" />
	</node>
	<node id="-294087" lat="58.1259722194" lon="8.22498888206">
		<tag k="fixme" v="consider place=hamlet" />
		<tag k="name" v="Bagerviga" />
		<tag k="place" v="farm" />
		<tag k="ssr:stedsnr" v="364563" />
	</node>
	<node id="-294084" lat="58.1348361079" lon="8.21082222028">
		<tag k="name" v="Longnes" />
		<tag k="place" v="farm" />
		<tag k="ssr:stedsnr" v="364541" />
	</node>
	<node id="-294082" lat="58.2082777801" lon="8.31743333593">
		<tag k="fixme" v="consider place=hamlet" />
		<tag k="name" v="Fjelldalsøya, østre" />
		<tag k="place" v="farm" />
		<tag k="ssr:stedsnr" v="364504" />
	</node>
	<node id="-294081" lat="58.2128723913" lon="8.36870695811">
		<tag k="fixme" v="consider place=hamlet" />
		<tag k="name" v="Mebø" />
		<tag k="place" v="farm" />
		<tag k="ssr:stedsnr" v="364472" />
	</node>
	<node id="-294080" lat="58.2180138931" lon="8.30669166273">
		<tag k="name" v="Stranda" />
		<tag k="place" v="isolated_dwelling" />
		<tag k="ssr:stedsnr" v="364460" />
	</node>
	<node id="-294079" lat="58.2155222267" lon="8.20174165949">
		<tag k="name" v="Uldalen" />
		<tag k="place" v="isolated_dwelling" />
		<tag k="ssr:stedsnr" v="364459" />
	</node>
	<node id="-294077" lat="58.1968972205" lon="8.3357416715">
		<tag k="name" v="Brekkekjerr" />
		<tag k="place" v="farm" />
		<tag k="ssr:stedsnr" v="364405" />
	</node>
	<node id="-294076" lat="58.1875888861" lon="8.31283889705">
		<tag k="name" v="Kilsbakken" />
		<tag k="place" v="farm" />
		<tag k="ssr:stedsnr" v="364397" />
	</node>
	<node id="-294100" lat="58.2496250001" lon="8.32310277582">
		<tag k="fixme" v="consider place=hamlet" />
		<tag k="name" v="Glamsland" />
		<tag k="place" v="farm" />
		<tag k="ssr:stedsnr" v="364910" />
	</node>
	<node id="-294069" lat="58.2364083326" lon="8.20949443664">
		<tag k="alt_name" v="Stemmene" />
		<tag k="name" v="Stemmane" />
		<tag k="place" v="farm" />
		<tag k="ssr:stedsnr" v="364273" />
	</node>
	<node id="-296107" lat="58.1958694426" lon="8.34439443996">
		<tag k="name" v="Naudesund" />
		<tag k="place" v="farm" />
		<tag k="ssr:stedsnr" v="749494" />
	</node>
	<node id="-296106" lat="58.199663886" lon="8.3741166643">
		<tag k="name" v="Skagerak camping" />
		<tag k="place" v="isolated_dwelling" />
		<tag k="ssr:stedsnr" v="749492" />
	</node>
	<node id="-294054" lat="58.2494138922" lon="8.37487777897">
		<tag k="name" v="Bellevue" />
		<tag k="place" v="farm" />
		<tag k="ssr:stedsnr" v="325926" />
	</node>
	<node id="-296100" lat="58.1255999994" lon="8.23062777106">
		<tag k="name" v="Skottevig Feriesenter" />
		<tag k="old_name" v="Skottevig camping" />
		<tag k="ssr:stedsnr" v="749387" />
		<tag k="tourism" v="camp_site" />
	</node>
	<node id="-296094" lat="58.116944446" lon="8.20459167314">
		<tag k="name" v="Evensviga" />
		<tag k="place" v="farm" />
		<tag k="ssr:stedsnr" v="749354" />
	</node>
	<node id="-294045" lat="58.2778361139" lon="8.40767499622">
		<tag k="name" v="Nyberg" />
		<tag k="place" v="farm" />
		<tag k="ssr:stedsnr" v="325845" />
	</node>
	<node id="-294044" lat="58.2729972241" lon="8.4149194416">
		<tag k="name" v="Tjoremyra" />
		<tag k="place" v="farm" />
		<tag k="ssr:stedsnr" v="325844" />
	</node>
	<node id="-294043" lat="58.2762888887" lon="8.41850000512">
		<tag k="name" v="Skolen" />
		<tag k="place" v="farm" />
		<tag k="ssr:stedsnr" v="325841" />
	</node>
	<node id="-296080" lat="58.1593305576" lon="8.259727778">
		<tag k="name" v="Melhagen" />
		<tag k="place" v="farm" />
		<tag k="ssr:stedsnr" v="749204" />
	</node>
	<node id="-296078" lat="58.1403749989" lon="8.22560555049">
		<tag k="name" v="Jørens" />
		<tag k="place" v="farm" />
		<tag k="ssr:stedsnr" v="749191" />
	</node>
	<node id="-296128" lat="58.2478805525" lon="8.22241944345">
		<tag k="name" v="Spilling" />
		<tag k="place" v="locality" />
		<tag k="ssr:stedsnr" v="750289" />
	</node>
	<node id="-294014" lat="58.1976527766" lon="8.34890833268">
		<tag k="name" v="Brekkekjær pensjonat" />
		<tag k="ssr:stedsnr" v="325352" />
		<tag k="tourism" v="guest_house" />
	</node>
	<node id="-294006" lat="58.1539944436" lon="8.22348333592">
		<tag k="name" v="Krågenes" />
		<tag k="place" v="farm" />
		<tag k="ssr:stedsnr" v="325198" />
	</node>
	<node id="-296052" lat="58.2153861118" lon="8.3283361053">
		<tag k="name" v="Follevig" />
		<tag k="place" v="isolated_dwelling" />
		<tag k="ssr:stedsnr" v="749008" />
	</node>
	<node id="-296040" lat="58.2654416641" lon="8.26937499467">
		<tag k="fixme" v="consider place=hamlet" />
		<tag k="name" v="Nordbø" />
		<tag k="place" v="farm" />
		<tag k="ssr:stedsnr" v="728678" />
	</node>
	<node id="-296039" lat="58.2516277756" lon="8.42042500229">
		<tag k="fixme" v="consider place=hamlet" />
		<tag k="name" v="Klingsund" />
		<tag k="place" v="farm" />
		<tag k="ssr:stedsnr" v="728662" />
	</node>
	<node id="-296037" lat="58.1727388856" lon="8.24390278557">
		<tag k="alt_name" v="Øresland, øvre" />
		<tag k="name" v="Øvre Øresland" />
		<tag k="place" v="farm" />
		<tag k="ssr:stedsnr" v="728589" />
	</node>
	<node id="-296035" lat="58.1655222259" lon="8.17250277588">
		<tag k="fixme" v="consider place=hamlet" />
		<tag k="name" v="Melåen" />
		<tag k="place" v="farm" />
		<tag k="ssr:stedsnr" v="728577" />
	</node>
	<node id="-296033" lat="58.1274972257" lon="8.22036943837">
		<tag k="fixme" v="consider place=hamlet" />
		<tag k="name" v="Kviviga" />
		<tag k="place" v="farm" />
		<tag k="ssr:stedsnr" v="728535" />
	</node>
	<node id="-296032" lat="58.1179388857" lon="8.21126666604">
		<tag k="name" v="Storvoll" />
		<tag k="place" v="isolated_dwelling" />
		<tag k="ssr:stedsnr" v="728497" />
	</node>
	<node id="-296031" lat="58.2065035167" lon="8.31030422971">
		<tag k="fixme" v="consider place=hamlet" />
		<tag k="name" v="Fjelldalsøya, vestre" />
		<tag k="place" v="farm" />
		<tag k="ssr:stedsnr" v="728489" />
	</node>
	<node id="-296029" lat="58.2110166652" lon="8.28405277385">
		<tag k="name" v="Holvika" />
		<tag k="place" v="farm" />
		<tag k="ssr:stedsnr" v="728483" />
	</node>
	<node id="-296028" lat="58.2087500042" lon="8.25546389649">
		<tag k="name" v="Kornnes" />
		<tag k="place" v="isolated_dwelling" />
		<tag k="ssr:stedsnr" v="728481" />
	</node>
	<node id="-296023" lat="58.2071222199" lon="8.36218611549">
		<tag k="fixme" v="consider place=hamlet" />
		<tag k="name" v="Berge" />
		<tag k="place" v="farm" />
		<tag k="ssr:stedsnr" v="728453" />
	</node>
	<node id="-296022" lat="58.2173194416" lon="8.2728166645">
		<tag k="fixme" v="consider place=hamlet" />
		<tag k="name" v="Østre Vallesverd" />
		<tag k="place" v="farm" />
		<tag k="ssr:stedsnr" v="728445" />
	</node>
	<node id="-296021" lat="58.2166972222" lon="8.27691666518">
		<tag k="name" v="Moi" />
		<tag k="place" v="farm" />
		<tag k="ssr:stedsnr" v="728443" />
	</node>
	<node id="-296018" lat="58.2034305576" lon="8.2996138854">
		<tag k="name" v="Kvarsnes" />
		<tag k="place" v="farm" />
		<tag k="ssr:stedsnr" v="728362" />
	</node>
	<node id="-296017" lat="58.1974521942" lon="8.35339340554">
		<tag k="name" v="Brekkheim" />
		<tag k="place" v="farm" />
		<tag k="ssr:stedsnr" v="728357" />
	</node>
	<node id="-296016" lat="58.1883637674" lon="8.31467484844">
		<tag k="name" v="Gården" />
		<tag k="place" v="farm" />
		<tag k="ssr:stedsnr" v="728350" />
	</node>
	<node id="-296013" lat="58.2391027804" lon="8.38734722351">
		<tag k="name" v="Støa" />
		<tag k="place" v="isolated_dwelling" />
		<tag k="ssr:stedsnr" v="728271" />
	</node>
	<node id="-296005" lat="58.2321138908" lon="8.19889166064">
		<tag k="name" v="Sjømyr" />
		<tag k="place" v="farm" />
		<tag k="ssr:stedsnr" v="728233" />
	</node>
	<node id="-296004" lat="58.237574999" lon="8.24481110951">
		<tag k="alt_name" v="Hanes" />
		<tag k="name" v="Hones" />
		<tag k="place" v="farm" />
		<tag k="ssr:stedsnr" v="728228" />
	</node>
	<node id="-293954" lat="58.215941668" lon="8.36792499275">
		<tag k="name" v="Teigene" />
		<tag k="place" v="isolated_dwelling" />
		<tag k="ssr:stedsnr" v="324728" />
	</node>
	<node id="-293950" lat="58.1696612719" lon="8.24584233147">
		<tag k="fixme" v="consider place=hamlet" />
		<tag k="name" v="Øvre Høvåg" />
		<tag k="place" v="farm" />
		<tag k="ssr:stedsnr" v="324362" />
	</node>
	<node id="-293947" lat="58.2836333341" lon="8.42586111194">
		<tag k="name" v="Kaldvellheia" />
		<tag k="place" v="farm" />
		<tag k="ssr:stedsnr" v="304754" />
	</node>
	<node id="-293944" lat="58.1904611086" lon="8.25298332844">
		<tag k="fixme" v="consider place=hamlet" />
		<tag k="name" v="Holte" />
		<tag k="place" v="farm" />
		<tag k="ssr:stedsnr" v="304378" />
	</node>
	<node id="-293942" lat="58.2699527798" lon="8.28434999362">
		<tag k="name" v="Høystakkmyra" />
		<tag k="place" v="isolated_dwelling" />
		<tag k="ssr:stedsnr" v="303715" />
	</node>
	<node id="-293941" lat="58.1672361102" lon="8.22236111447">
		<tag k="name" v="Nordheim" />
		<tag k="place" v="isolated_dwelling" />
		<tag k="ssr:stedsnr" v="303616" />
	</node>
	<node id="-293939" lat="58.1290999991" lon="8.2244249998">
		<tag k="fixme" v="consider place=hamlet" />
		<tag k="name" v="Gløtningsvåg" />
		<tag k="place" v="farm" />
		<tag k="ssr:stedsnr" v="303558" />
	</node>
	<node id="-295985" lat="58.2413499977" lon="8.35522500739">
		<tag k="name" v="Engekjerr" />
		<tag k="place" v="quarter" />
		<tag k="ssr:stedsnr" v="689920" />
	</node>
	<node id="-293933" lat="58.1862666685" lon="8.28689999202">
		<tag k="name" v="Bjørnviga" />
		<tag k="place" v="isolated_dwelling" />
		<tag k="ssr:stedsnr" v="303407" />
	</node>
	<node id="-293930" lat="58.2410027771" lon="8.32976667445">
		<tag k="name" v="Kleivsmoen" />
		<tag k="place" v="quarter" />
		<tag k="ssr:stedsnr" v="303350" />
	</node>
	<node id="-293927" lat="58.2990055526" lon="8.39636111145">
		<tag k="name" v="Bustølen" />
		<tag k="place" v="isolated_dwelling" />
		<tag k="ssr:stedsnr" v="303290" />
	</node>
	<node id="-293926" lat="58.2300416692" lon="8.29903332496">
		<tag k="name" v="Bronen" />
		<tag k="place" v="farm" />
		<tag k="ssr:stedsnr" v="303284" />
	</node>
	<node id="-295972" lat="58.3002444419" lon="8.40194166732">
		<tag k="name" v="Vatne" />
		<tag k="place" v="farm" />
		<tag k="ssr:stedsnr" v="689741" />
	</node>
	<node id="-293923" lat="58.2263555551" lon="8.35527776995">
		<tag k="name" v="Krossviga" />
		<tag k="place" v="isolated_dwelling" />
		<tag k="ssr:stedsnr" v="303278" />
	</node>
	<node id="-295866" lat="58.146955557" lon="8.18559166864">
		<tag k="fixme" v="consider place=hamlet" />
		<tag k="name" v="Randvig" />
		<tag k="place" v="farm" />
		<tag k="ssr:stedsnr" v="667548" />
	</node>
	<node id="-295865" lat="58.148273449" lon="8.21333455517">
		<tag k="fixme" v="consider place=hamlet" />
		<tag k="name" v="Hæstad" />
		<tag k="place" v="farm" />
		<tag k="ssr:stedsnr" v="667547" />
	</node>
	<node id="-295863" lat="58.1550784042" lon="8.24375093271">
		<tag k="name" v="Jakteviga" />
		<tag k="place" v="farm" />
		<tag k="ssr:stedsnr" v="667534" />
	</node>
	<node id="-295862" lat="58.1388027801" lon="8.22643333845">
		<tag k="fixme" v="consider place=hamlet" />
		<tag k="name" v="Ytre Årsnes" />
		<tag k="place" v="farm" />
		<tag k="ssr:stedsnr" v="667522" />
	</node>
	<node id="-295860" lat="58.2111055511" lon="8.34088054764">
		<tag k="fixme" v="consider place=hamlet" />
		<tag k="name" v="Subbernes" />
		<tag k="place" v="farm" />
		<tag k="ssr:stedsnr" v="667468" />
	</node>
	<node id="-295858" lat="58.2085638933" lon="8.24926666821">
		<tag k="name" v="Sagvollen" />
		<tag k="place" v="farm" />
		<tag k="ssr:stedsnr" v="667459" />
	</node>
	<node id="-295857" lat="58.2086583359" lon="8.20267499796">
		<tag k="name" v="Urdalen" />
		<tag k="place" v="farm" />
		<tag k="ssr:stedsnr" v="667454" />
	</node>
	<node id="-295856" lat="58.1979777772" lon="8.23164722946">
		<tag k="name" v="Beintjørn" />
		<tag k="place" v="isolated_dwelling" />
		<tag k="ssr:stedsnr" v="667443" />
	</node>
	<node id="-295854" lat="58.2070972178" lon="8.35668054912">
		<tag k="name" v="Rønningen" />
		<tag k="place" v="farm" />
		<tag k="ssr:stedsnr" v="667431" />
	</node>
	<node id="-295853" lat="58.2232194454" lon="8.30125277449">
		<tag k="fixme" v="consider place=hamlet" />
		<tag k="name" v="Fjelldal" />
		<tag k="place" v="farm" />
		<tag k="ssr:stedsnr" v="667427" />
	</node>
	<node id="-295852" lat="58.1781749999" lon="8.23734722422">
		<tag k="name" v="Nyglestea" />
		<tag k="place" v="farm" />
		<tag k="ssr:stedsnr" v="667412" />
	</node>
	<node id="-295851" lat="58.1679722258" lon="8.15435277811">
		<tag k="fixme" v="consider place=hamlet" />
		<tag k="name" v="Rosselia" />
		<tag k="place" v="farm" />
		<tag k="ssr:stedsnr" v="667401" />
	</node>
	<node id="-295850" lat="58.1842861074" lon="8.31573056274">
		<tag k="loc_name" v="Åkerøyhavn" />
		<tag k="name" v="Åkerøyhamn" />
		<tag k="place" v="farm" />
		<tag k="ssr:stedsnr" v="667399" />
	</node>
	<node id="-295846" lat="58.1933305586" lon="8.24268055548">
		<tag k="fixme" v="consider place=hamlet" />
		<tag k="name" v="Årdalen" />
		<tag k="place" v="farm" />
		<tag k="ssr:stedsnr" v="667363" />
	</node>
	<node id="-295838" lat="58.3205194485" lon="8.34794166939">
		<tag k="fixme" v="consider place=hamlet" />
		<tag k="name" v="Grimenes" />
		<tag k="place" v="farm" />
		<tag k="ssr:stedsnr" v="667278" />
	</node>
	<node id="-295809" lat="58.2548583361" lon="8.38749444719">
		<tag k="name" v="Tingsaker nedre" />
		<tag k="place" v="farm" />
		<tag k="ssr:stedsnr" v="628817" />
	</node>
	<node id="-295807" lat="58.2597666711" lon="8.3611111084">
		<tag k="fixme" v="consider place=hamlet" />
		<tag k="name" v="Møglestu" />
		<tag k="place" v="village" />
		<tag k="ssr:stedsnr" v="628815" />
	</node>
	<node id="-295806" lat="58.2677055592" lon="8.34428611896">
		<tag k="alt_name" v="Hesthavn" />
		<tag k="name" v="Hesthagen" />
		<tag k="place" v="farm" />
		<tag k="ssr:stedsnr" v="628809" />
	</node>
	<node id="-295805" lat="58.2850388873" lon="8.29765556027">
		<tag k="name" v="Nordheim" />
		<tag k="place" v="farm" />
		<tag k="ssr:stedsnr" v="628798" />
	</node>
	<node id="-295804" lat="58.2926888857" lon="8.43223889224">
		<tag k="name" v="Fredheim" />
		<tag k="place" v="farm" />
		<tag k="ssr:stedsnr" v="628780" />
	</node>
	<node id="-295781" lat="58.2475722188" lon="8.21323332885">
		<tag k="name" v="Øygarden" />
		<tag k="place" v="locality" />
		<tag k="ssr:stedsnr" v="628339" />
	</node>
	<node id="-294032" lat="58.261469445" lon="8.36373055888">
		<tag k="amenity" v="sports_centre" />
		<tag k="name" v="Møglestuhallen" />
		<tag k="ssr:stedsnr" v="325805" />
	</node>
	<node id="-295725" lat="58.1499166709" lon="8.21761667146">
		<tag k="leisure" v="pitch" />
		<tag k="name" v="Høvåg stadion" />
		<tag k="ssr:stedsnr" v="627599" />
	</node>
	<node id="-295723" lat="58.1411805585" lon="8.24365277638">
		<tag k="name" v="Seljevoll" />
		<tag k="place" v="isolated_dwelling" />
		<tag k="ssr:stedsnr" v="627591" />
	</node>
	<node id="-295705" lat="58.2618000002" lon="8.34694167254">
		<tag k="name" v="Sandvad" />
		<tag k="place" v="farm" />
		<tag k="ssr:stedsnr" v="606707" />
	</node>
	<node id="-295702" lat="58.1677111073" lon="8.21475277543">
		<tag k="name" v="Olabyen" />
		<tag k="place" v="isolated_dwelling" />
		<tag k="ssr:stedsnr" v="606617" />
	</node>
	<node id="-295701" lat="58.1640249974" lon="8.20212222497">
		<tag k="name" v="Slåttane" />
		<tag k="place" v="farm" />
		<tag k="ssr:stedsnr" v="606613" />
	</node>
	<node id="-295700" lat="58.1721000006" lon="8.22068888214">
		<tag k="fixme" v="consider place=hamlet" />
		<tag k="name" v="Opseng" />
		<tag k="place" v="farm" />
		<tag k="ssr:stedsnr" v="606599" />
	</node>
	<node id="-295699" lat="58.1693694421" lon="8.21956111355">
		<tag k="name" v="Hovdedalen" />
		<tag k="place" v="farm" />
		<tag k="ssr:stedsnr" v="606597" />
	</node>
	<node id="-295698" lat="58.1575666648" lon="8.23477499602">
		<tag k="name" v="Småvigane" />
		<tag k="place" v="farm" />
		<tag k="ssr:stedsnr" v="606560" />
	</node>
	<node id="-295697" lat="58.1307305538" lon="8.23853333595">
		<tag k="name" v="Skotteviga" />
		<tag k="place" v="isolated_dwelling" />
		<tag k="ssr:stedsnr" v="606503" />
	</node>
	<node id="-295691" lat="58.2157166651" lon="8.29448333155">
		<tag k="name" v="Sandviga" />
		<tag k="place" v="farm" />
		<tag k="ssr:stedsnr" v="606424" />
	</node>
	<node id="-295690" lat="58.1832333354" lon="8.16137222743">
		<tag k="fixme" v="consider place=hamlet" />
		<tag k="name" v="Sydinga" />
		<tag k="place" v="farm" />
		<tag k="ssr:stedsnr" v="606418" />
	</node>
	<node id="-295688" lat="58.1856500025" lon="8.30059444152">
		<tag k="name" v="Sømminga" />
		<tag k="place" v="farm" />
		<tag k="ssr:stedsnr" v="606386" />
	</node>
	<node id="-295686" lat="58.2025833334" lon="8.25216665945">
		<tag k="name" v="Breivig" />
		<tag k="place" v="farm" />
		<tag k="ssr:stedsnr" v="606373" />
	</node>
	<node id="-295647" lat="58.2601027805" lon="8.35584167021">
		<tag k="name" v="Moen" />
		<tag k="place" v="farm" />
		<tag k="ssr:stedsnr" v="567837" />
	</node>
	<node id="-295642" lat="58.2387361072" lon="8.35802499848">
		<tag k="building" v="commercial" />
		<tag k="name" v="Asko" />
		<tag k="ssr:stedsnr" v="567807" />
	</node>
	<node id="-295641" lat="58.2439777746" lon="8.37628333302">
		<tag k="name" v="Rosenberg" />
		<tag k="place" v="quarter" />
		<tag k="ssr:stedsnr" v="567806" />
	</node>
	<node id="-295629" lat="58.2548555559" lon="8.3874222306">
		<tag k="alt_name" v="Tingsaker nedre" />
		<tag k="name" v="Nedre Tingsaker" />
		<tag k="place" v="farm" />
		<tag k="ssr:stedsnr" v="567647" />
	</node>
	<node id="-295626" lat="58.2513027793" lon="8.37705832678">
		<tag k="name" v="Øvrebyen" />
		<tag k="place" v="quarter" />
		<tag k="ssr:stedsnr" v="567634" />
	</node>
	<node id="-295625" lat="58.2565888897" lon="8.39542500579">
		<tag k="name" v="Reise" />
		<tag k="place" v="farm" />
		<tag k="ssr:stedsnr" v="567631" />
	</node>
	<node id="-295606" lat="58.1873055537" lon="8.31533611785">
		<tag k="name" v="Vesterberg" />
		<tag k="place" v="farm" />
		<tag k="ssr:stedsnr" v="567477" />
	</node>
	<node id="-295602" lat="58.1806277766" lon="8.30861111111">
		<tag k="name" v="Skaftet" />
		<tag k="place" v="farm" />
		<tag k="ssr:stedsnr" v="567458" />
	</node>
	<node id="-294342" lat="58.1711420528" lon="8.25115683993">
		<tag k="name" v="Øvre Høvåg" />
		<tag k="place" v="farm" />
		<tag k="ssr:stedsnr" v="989978" />
	</node>
	<node id="-295564" lat="58.1674027755" lon="8.16091666042">
		<tag k="name" v="Rossedalen" />
		<tag k="place" v="farm" />
		<tag k="ssr:stedsnr" v="567249" />
	</node>
	<node id="-295552" lat="58.1412611105" lon="8.23357499882">
		<tag k="name" v="Myra" />
		<tag k="place" v="farm" />
		<tag k="ssr:stedsnr" v="567179" />
	</node>
	<node id="-295543" lat="58.1745833305" lon="8.24048610614">
		<tag k="name" v="Fidjane" />
		<tag k="place" v="farm" />
		<tag k="ssr:stedsnr" v="567068" />
	</node>
	<node id="-295534" lat="58.2637388856" lon="8.37361389058">
		<tag k="fixme" v="consider place=hamlet" />
		<tag k="name" v="Bjørkestøl" />
		<tag k="place" v="farm" />
		<tag k="ssr:stedsnr" v="546680" />
	</node>
	<node id="-295533" lat="58.1681874555" lon="8.19273381691">
		<tag k="fixme" v="consider place=hamlet" />
		<tag k="name" v="Kvåse" />
		<tag k="place" v="farm" />
		<tag k="ssr:stedsnr" v="546582" />
	</node>
	<node id="-295532" lat="58.1644772191" lon="8.22064380006">
		<tag k="fixme" v="consider place=hamlet" />
		<tag k="name" v="Indre Årsnes" />
		<tag k="place" v="farm" />
		<tag k="ssr:stedsnr" v="546581" />
	</node>
	<node id="-295531" lat="58.1628055575" lon="8.23615555781">
		<tag k="name" v="Myra" />
		<tag k="place" v="farm" />
		<tag k="ssr:stedsnr" v="546579" />
	</node>
	<node id="-295530" lat="58.1525333353" lon="8.20035556324">
		<tag k="name" v="Krossnes" />
		<tag k="place" v="farm" />
		<tag k="ssr:stedsnr" v="546531" />
	</node>
	<node id="-295521" lat="58.2186472221" lon="8.27019721821">
		<tag k="name" v="Kolverhaugen" />
		<tag k="place" v="farm" />
		<tag k="ssr:stedsnr" v="546431" />
	</node>
	<node id="-295519" lat="58.2173583299" lon="8.33266110943">
		<tag k="name" v="Torskebekk" />
		<tag k="place" v="isolated_dwelling" />
		<tag k="ssr:stedsnr" v="546408" />
	</node>
	<node id="-295518" lat="58.1876916642" lon="8.23625000591">
		<tag k="fixme" v="consider place=hamlet" />
		<tag k="name" v="Kjøstveit" />
		<tag k="place" v="farm" />
		<tag k="ssr:stedsnr" v="546404" />
	</node>
	<node id="-295517" lat="58.1805611115" lon="8.20107222217">
		<tag k="fixme" v="consider place=hamlet" />
		<tag k="name" v="Erviga" />
		<tag k="place" v="farm" />
		<tag k="ssr:stedsnr" v="546406" />
	</node>
	<node id="-295515" lat="58.2030277758" lon="8.36562222308">
		<tag k="name" v="Nyberg" />
		<tag k="place" v="farm" />
		<tag k="ssr:stedsnr" v="546377" />
	</node>
	<node id="-295512" lat="58.1883083346" lon="8.25815556246">
		<tag k="name" v="Myra" />
		<tag k="place" v="farm" />
		<tag k="ssr:stedsnr" v="546343" />
	</node>
	<node id="-295509" lat="58.2245527806" lon="8.31147500153">
		<tag k="alt_name" v="Nyland, vestre" />
		<tag k="name" v="Vestre Nyland" />
		<tag k="place" v="farm" />
		<tag k="ssr:stedsnr" v="546275" />
	</node>
	<node id="-295506" lat="58.3220888848" lon="8.32331389156">
		<tag k="fixme" v="consider place=hamlet" />
		<tag k="name" v="Froholt" />
		<tag k="place" v="farm" />
		<tag k="ssr:stedsnr" v="546260" />
	</node>
	<node id="-295504" lat="58.2361166653" lon="8.32101944237">
		<tag k="fixme" v="consider place=hamlet" />
		<tag k="name" v="Kjerlingland" />
		<tag k="place" v="farm" />
		<tag k="ssr:stedsnr" v="546247" />
	</node>
	<node id="-295502" lat="58.2409277799" lon="8.37350832897">
		<tag k="building" v="industrial" />
		<tag k="industrial" v="factory" />
		<tag k="name" v="Fossbekk" />
		<tag k="ssr:stedsnr" v="546240" />
	</node>
	<node id="-295495" lat="58.2586833374" lon="8.38033611643">
		<tag k="name" v="Solkollen" />
		<tag k="place" v="quarter" />
		<tag k="ssr:stedsnr" v="507939" />
	</node>
	<node id="-295486" lat="58.2576750003" lon="8.39894444893">
		<tag k="name" v="Ålebekk" />
		<tag k="place" v="farm" />
		<tag k="ssr:stedsnr" v="507855" />
	</node>
	<node id="-295474" lat="58.1981444462" lon="8.36584167007">
		<tag k="name" v="Hammervoll hytteområde" />
		<tag k="place" v="neighbourhood" />
		<tag k="ssr:stedsnr" v="507447" />
	</node>
	<node id="-295466" lat="58.2651249974" lon="8.30545278346">
		<tag k="name" v="Plassen" />
		<tag k="place" v="farm" />
		<tag k="ssr:stedsnr" v="507361" />
	</node>
	<node id="-295439" lat="58.15608889" lon="8.22459166208">
		<tag k="name" v="Salbustad" />
		<tag k="place" v="farm" />
		<tag k="ssr:stedsnr" v="507189" />
	</node>
	<node id="-295416" lat="58.2026250015" lon="8.34555555489">
		<tag k="fixme" v="consider place=hamlet" />
		<tag k="name" v="Øvre Stutti" />
		<tag k="place" v="farm" />
		<tag k="ssr:stedsnr" v="506825" />
	</node>
	<node id="-295396" lat="58.2192361095" lon="8.34023055996">
		<tag k="name" v="Karistangen" />
		<tag k="place" v="isolated_dwelling" />
		<tag k="ssr:stedsnr" v="506633" />
	</node>
	<node id="-295371" lat="58.2575900155" lon="8.39292017388">
		<tag k="fixme" v="consider place=hamlet" />
		<tag k="name" v="Tingsaker" />
		<tag k="place" v="farm" />
		<tag k="ssr:stedsnr" v="485654" />
	</node>
	<node id="-295370" lat="58.249452782" lon="8.3771916635">
		<tag k="name" v="Lillesand" />
		<tag k="place" v="town" />
		<tag k="ssr:stedsnr" v="485651" />
	</node>
	<node id="-295368" lat="58.1576507376" lon="8.22568852389">
		<tag k="fixme" v="consider place=hamlet" />
		<tag k="name" v="Åmland" />
		<tag k="place" v="farm" />
		<tag k="ssr:stedsnr" v="485523" />
	</node>
	<node id="-295356" lat="58.1928555535" lon="8.23924444169">
		<tag k="name" v="Moen" />
		<tag k="place" v="farm" />
		<tag k="ssr:stedsnr" v="485314" />
	</node>
	<node id="-295353" lat="58.2319861084" lon="8.31853056282">
		<tag k="alt_name" v="Nyland, østre" />
		<tag k="name" v="Østre Nyland" />
		<tag k="place" v="farm" />
		<tag k="ssr:stedsnr" v="485233" />
	</node>
	<node id="-295350" lat="58.2401083333" lon="8.36345000174">
		<tag k="name" v="Grøgårdsmyr" />
		<tag k="place" v="quarter" />
		<tag k="ssr:stedsnr" v="485205" />
	</node>
	<node id="-295331" lat="58.2671444405" lon="8.40163055702">
		<tag k="name" v="Kirkemyr" />
		<tag k="place" v="farm" />
		<tag k="ssr:stedsnr" v="446869" />
	</node>
	<node id="-295322" lat="58.2456722213" lon="8.37326944126">
		<tag k="name" v="Sandsmyra" />
		<tag k="place" v="farm" />
		<tag k="ssr:stedsnr" v="446815" />
	</node>
	<node id="-295301" lat="58.3101916633" lon="8.42822222651">
		<tag k="name" v="Olstad" />
		<tag k="place" v="locality" />
		<tag k="ssr:stedsnr" v="446644" />
	</node>
	<node id="-295283" lat="58.17900278" lon="8.24080556344">
		<tag k="name" v="Øresland" />
		<tag k="place" v="hamlet" />
		<tag k="ssr:stedsnr" v="446531" />
	</node>
	<node id="-295276" lat="58.2781027755" lon="8.32029444579">
		<tag k="name" v="Myrland" />
		<tag k="place" v="farm" />
		<tag k="ssr:stedsnr" v="446397" />
	</node>
	<node id="-294628" lat="58.2402555544" lon="8.36471111047">
		<tag k="name" v="Grøgårdsmyr" />
		<tag k="place" v="farm" />
		<tag k="ssr:stedsnr" v="82818" />
	</node>
	<node id="-295251" lat="58.1628888893" lon="8.21080833022">
		<tag k="name" v="Eidjord" />
		<tag k="place" v="farm" />
		<tag k="ssr:stedsnr" v="446246" />
	</node>
	<node id="-294624" lat="58.2983499979" lon="8.43703610923">
		<tag k="name" v="Øygarden" />
		<tag k="place" v="farm" />
		<tag k="ssr:stedsnr" v="82807" />
	</node>
	<node id="-295219" lat="58.2806194458" lon="8.40261110566">
		<tag k="name" v="Rydningen" />
		<tag k="place" v="farm" />
		<tag k="ssr:stedsnr" v="425747" />
	</node>
	<node id="-295217" lat="58.2777583338" lon="8.41995000349">
		<tag k="fixme" v="consider place=hamlet" />
		<tag k="name" v="Kaldvell" />
		<tag k="place" v="farm" />
		<tag k="ssr:stedsnr" v="425742" />
	</node>
	<node id="-295216" lat="58.1641527817" lon="8.17918333531">
		<tag k="name" v="Åna" />
		<tag k="place" v="farm" />
		<tag k="ssr:stedsnr" v="425613" />
	</node>
	<node id="-295214" lat="58.1663166641" lon="8.25913054866">
		<tag k="name" v="Kvanneid" />
		<tag k="place" v="farm" />
		<tag k="ssr:stedsnr" v="425599" />
	</node>
	<node id="-295213" lat="58.1806749972" lon="8.2394749955">
		<tag k="fixme" v="consider place=hamlet" />
		<tag k="name" v="Vestre Øresland" />
		<tag k="place" v="farm" />
		<tag k="ssr:stedsnr" v="425590" />
	</node>
	<node id="-295211" lat="58.1794583347" lon="8.24514722242">
		<tag k="fixme" v="consider place=hamlet" />
		<tag k="name" v="Østre Øresland" />
		<tag k="place" v="farm" />
		<tag k="ssr:stedsnr" v="425580" />
	</node>
	<node id="-295210" lat="58.158899996" lon="8.24609722378">
		<tag k="name" v="Åmbunes" />
		<tag k="place" v="farm" />
		<tag k="ssr:stedsnr" v="425543" />
	</node>
	<node id="-295209" lat="58.1311888884" lon="8.21036111171">
		<tag k="fixme" v="consider place=hamlet" />
		<tag k="name" v="Ribe" />
		<tag k="place" v="farm" />
		<tag k="ssr:stedsnr" v="425529" />
	</node>
	<node id="-295207" lat="58.1292416696" lon="8.20821665916">
		<tag k="name" v="Stenersnes" />
		<tag k="place" v="farm" />
		<tag k="ssr:stedsnr" v="425527" />
	</node>
	<node id="-295204" lat="58.117511115" lon="8.2064361113">
		<tag k="name" v="Kampedalen" />
		<tag k="place" v="farm" />
		<tag k="ssr:stedsnr" v="425489" />
	</node>
	<node id="-295191" lat="58.3009722181" lon="8.33192221463">
		<tag k="alt_name" v="Buene, øvre" />
		<tag k="name" v="Øvre Buene" />
		<tag k="place" v="isolated_dwelling" />
		<tag k="ssr:stedsnr" v="425306" />
	</node>
	<node id="-295190" lat="58.2976194488" lon="8.42557500121">
		<tag k="fixme" v="consider place=hamlet" />
		<tag k="name" v="Gitmark" />
		<tag k="place" v="farm" />
		<tag k="ssr:stedsnr" v="425301" />
	</node>
	<node id="-295188" lat="58.2372472241" lon="8.33600555334">
		<tag k="name" v="Sangereid" />
		<tag k="place" v="farm" />
		<tag k="ssr:stedsnr" v="425258" />
	</node>
	<node id="-295187" lat="58.2365694487" lon="8.35495556009">
		<tag k="name" v="Skuggevig" />
		<tag k="place" v="farm" />
		<tag k="ssr:stedsnr" v="425256" />
	</node>
	<node id="-295183" lat="58.291122224" lon="8.37016666565">
		<tag k="name" v="Plassen" />
		<tag k="place" v="locality" />
		<tag k="ssr:stedsnr" v="265790" />
	</node>
	<node id="-295174" lat="58.2531305536" lon="8.3749583335">
		<tag k="leisure" v="pitch" />
		<tag k="name" v="Fagertun" />
		<tag k="ssr:stedsnr" v="264925" />
	</node>
	<node id="-295166" lat="58.2804749984" lon="8.40226111157">
		<tag k="name" v="Sagemyr" />
		<tag k="place" v="farm" />
		<tag k="ssr:stedsnr" v="264844" />
	</node>
	<node id="-295161" lat="58.2841805527" lon="8.41462778376">
		<tag k="name" v="Sådeholla" />
		<tag k="place" v="farm" />
		<tag k="ssr:stedsnr" v="264808" />
	</node>
	<node id="-295119" lat="58.2242999966" lon="8.35429722594">
		<tag k="name" v="Østre Sundet" />
		<tag k="place" v="farm" />
		<tag k="ssr:stedsnr" v="264405" />
	</node>
	<node id="-295112" lat="58.1565472189" lon="8.2670166749">
		<tag k="name" v="Vesterjordet" />
		<tag k="place" v="farm" />
		<tag k="ssr:stedsnr" v="264348" />
	</node>
	<node id="-295092" lat="58.1521138845" lon="8.19425833104">
		<tag k="name" v="Nesvåg" />
		<tag k="place" v="farm" />
		<tag k="ssr:stedsnr" v="264219" />
	</node>
	<node id="-295079" lat="58.1988138928" lon="8.25480000693">
		<tag k="name" v="Øygarden" />
		<tag k="place" v="farm" />
		<tag k="ssr:stedsnr" v="264119" />
	</node>
	<node id="-295060" lat="58.2839166699" lon="8.31650000699">
		<tag k="name" v="Ydderstad" />
		<tag k="place" v="farm" />
		<tag k="ssr:stedsnr" v="243748" />
	</node>
	<node id="-295059" lat="58.2700472236" lon="8.40751389693">
		<tag k="name" v="Tuemyr" />
		<tag k="place" v="farm" />
		<tag k="ssr:stedsnr" v="243728" />
	</node>
	<node id="-295058" lat="58.1606111119" lon="8.22271110502">
		<tag k="alt_name" v="Inngjerdsmyr" />
		<tag k="name" v="Inngjerdsmyra" />
		<tag k="place" v="farm" />
		<tag k="ssr:stedsnr" v="243618" />
	</node>
	<node id="-295057" lat="58.1609163922" lon="8.24612260544">
		<tag k="fixme" v="consider place=hamlet" />
		<tag k="name" v="Kvannes" />
		<tag k="place" v="farm" />
		<tag k="ssr:stedsnr" v="243617" />
	</node>
	<node id="-296724" lat="58.2084369341" lon="8.20429930024">
		<tag k="fixme" v="consider place=hamlet" />
		<tag k="name" v="Uldalen" />
		<tag k="place" v="farm" />
		<tag k="ssr:stedsnr" v="971157" />
	</node>
	<node id="-295049" lat="58.196255554" lon="8.29294999655">
		<tag k="name" v="Rønningen" />
		<tag k="place" v="farm" />
		<tag k="ssr:stedsnr" v="243395" />
	</node>
	<node id="-295042" lat="58.2844999976" lon="8.29541389011">
		<tag k="alt_name" v="Eikeland, øvre;Øvre Eigeland" />
		<tag k="fixme" v="consider place=hamlet" />
		<tag k="name" v="Øvre Eikeland" />
		<tag k="place" v="farm" />
		<tag k="ssr:stedsnr" v="243300" />
	</node>
	<node id="-295040" lat="58.3030000013" lon="8.40003333723">
		<tag k="fixme" v="consider place=hamlet" />
		<tag k="name" v="Vatne" />
		<tag k="place" v="farm" />
		<tag k="ssr:stedsnr" v="243288" />
	</node>
	<node id="-295039" lat="58.224488889" lon="8.24386666915">
		<tag k="name" v="Steindalsmyrane" />
		<tag k="place" v="farm" />
		<tag k="ssr:stedsnr" v="243286" />
	</node>
	<node id="-295036" lat="58.2402833313" lon="8.23959167452">
		<tag k="fixme" v="consider place=hamlet" />
		<tag k="name" v="Gladstad" />
		<tag k="place" v="farm" />
		<tag k="ssr:stedsnr" v="243244" />
	</node>
	<node id="-295033" lat="58.2098722223" lon="8.25058888953">
		<tag k="fixme" v="consider place=hamlet" />
		<tag k="name" v="Trøe" />
		<tag k="place" v="farm" />
		<tag k="ssr:stedsnr" v="242463" />
	</node>
	<node id="-295026" lat="58.2023527763" lon="8.35058056198">
		<tag k="fixme" v="consider place=hamlet" />
		<tag k="name" v="Stutti" />
		<tag k="place" v="farm" />
		<tag k="ssr:stedsnr" v="242368" />
	</node>
	<node id="-295015" lat="58.1894333329" lon="8.16464166501">
		<tag k="historic" v="shieling" />
		<tag k="name" v="Snelldalen" />
		<tag k="place" v="locality" />
		<tag k="ssr:stedsnr" v="204956" />
	</node>
	<node id="-295012" lat="58.2620611111" lon="8.39628055499">
		<tag k="building" v="commercial" />
		<tag k="name" v="E18-senteret" />
		<tag k="ssr:stedsnr" v="204857" />
	</node>
	<node id="-295007" lat="58.263191669" lon="8.34427778012">
		<tag k="name" v="Norton A/S" />
		<tag k="place" v="quarter" />
		<tag k="ssr:stedsnr" v="204811" />
	</node>
	<node id="-295004" lat="58.2466111083" lon="8.37465277546">
		<tag k="name" v="Springvannsheia" />
		<tag k="place" v="quarter" />
		<tag k="ssr:stedsnr" v="204793" />
	</node>
	<node id="-295003" lat="58.290563888" lon="8.43420834133">
		<tag k="name" v="Sandvigmoen" />
		<tag k="place" v="farm" />
		<tag k="ssr:stedsnr" v="204786" />
	</node>
	<node id="-294994" lat="58.2437194487" lon="8.36040277021">
		<tag k="name" v="Furulunden" />
		<tag k="place" v="farm" />
		<tag k="ssr:stedsnr" v="204928" />
	</node>
	<node id="-294993" lat="58.2536638875" lon="8.38463055993">
		<tag k="name" v="Bergstø" />
		<tag k="place" v="farm" />
		<tag k="ssr:stedsnr" v="204918" />
	</node>
	<node id="-294992" lat="58.2524055544" lon="8.38121111239">
		<tag k="name" v="Nygård" />
		<tag k="place" v="farm" />
		<tag k="ssr:stedsnr" v="204915" />
	</node>
	<node id="-294943" lat="58.1756305557" lon="8.24891388521">
		<tag k="name" v="Liffedalen" />
		<tag k="place" v="isolated_dwelling" />
		<tag k="ssr:stedsnr" v="204040" />
	</node>
	<node id="-296720" lat="58.2156020251" lon="8.25366891371">
		<tag k="fixme" v="consider place=hamlet" />
		<tag k="name" v="Søndre Steindal" />
		<tag k="place" v="farm" />
		<tag k="ssr:stedsnr" v="971152" />
	</node>
	<node id="-294925" lat="58.2571388916" lon="8.35799445131">
		<tag k="leisure" v="pitch" />
		<tag k="name" v="Lillesand stadion" />
		<tag k="ssr:stedsnr" v="203651" />
	</node>
</osm>
