<?xml version="1.0" encoding="UTF-8"?>
<osm generator="osmapis" version="0.6">
	<node id="-35749" lat="60.0052583319" lon="8.99729721781">
		<tag k="name" v="Triseksrøyse" />
		<tag k="place" v="locality" />
		<tag k="ssr:stedsnr" v="272383" />
	</node>
	<node id="-37401" lat="60.0473749995" lon="9.24659444219">
		<tag k="name" v="Rogneset" />
		<tag k="place" v="locality" />
		<tag k="ssr:stedsnr" v="818169" />
	</node>
	<node id="-36471" lat="59.9856249961" lon="9.28489166302">
		<tag k="name" v="Vannverk" />
		<tag k="place" v="locality" />
		<tag k="ssr:stedsnr" v="818563" />
	</node>
	<node id="-36633" lat="60.0210499489" lon="9.27316280773">
		<tag k="alt_name" v="Rollag" />
		<tag k="amenity" v="place_of_worship" />
		<tag k="denomination" v="lutheran" />
		<tag k="name" v="Rollag stavkirke" />
		<tag k="religion" v="christian" />
		<tag k="ssr:stedsnr" v="5031" />
	</node>
	<node id="-37204" lat="60.0619000031" lon="9.20788055237">
		<tag k="name" v="Kippen" />
		<tag k="place" v="locality" />
		<tag k="ssr:stedsnr" v="574179" />
	</node>
	<node id="-37203" lat="60.0631361072" lon="9.20559444748">
		<tag k="name" v="Gamleseter" />
		<tag k="place" v="locality" />
		<tag k="ssr:stedsnr" v="574177" />
	</node>
	<node id="-36754" lat="60.013188888" lon="9.26503611186">
		<tag k="name" v="Vårviksvingen" />
		<tag k="place" v="locality" />
		<tag k="ssr:stedsnr" v="89997" />
	</node>
	<node id="-36463" lat="60.0337194446" lon="9.20011389138">
		<tag k="amenity" v="community_centre" />
		<tag k="name" v="Grendehus" />
		<tag k="ssr:stedsnr" v="817870" />
	</node>
	<node id="-37421" lat="60.046013887" lon="9.02786388257">
		<tag k="alt_name" v="Veggli" />
		<tag k="amenity" v="place_of_worship" />
		<tag k="denomination" v="lutheran" />
		<tag k="name" v="Veggli fjellkirke" />
		<tag k="religion" v="christian" />
		<tag k="ssr:stedsnr" v="823133" />
	</node>
	<node id="-36073" lat="60.0841999979" lon="9.20899166036">
		<tag k="name" v="Tjæreovnen" />
		<tag k="place" v="locality" />
		<tag k="ssr:stedsnr" v="453128" />
	</node>
	<node id="-35911" lat="59.9467555587" lon="9.2717833421">
		<tag k="name" v="Lyusvingan" />
		<tag k="place" v="locality" />
		<tag k="ssr:stedsnr" v="332811" />
	</node>
	<node id="-37446" lat="60.0429361138" lon="9.14625278408">
		<tag k="alt_name" v="Veggli" />
		<tag k="amenity" v="place_of_worship" />
		<tag k="denomination" v="lutheran" />
		<tag k="name" v="Veggli kirke" />
		<tag k="religion" v="christian" />
		<tag k="ssr:stedsnr" v="855681" />
	</node>
	<node id="-37317" lat="60.0134111091" lon="9.37837777805">
		<tag k="name" v="Vardan" />
		<tag k="place" v="locality" />
		<tag k="ssr:stedsnr" v="635927" />
	</node>
	<node id="-36194" lat="59.9485222229" lon="9.28120833716">
		<tag k="name" v="Sjåfram" />
		<tag k="ssr:stedsnr" v="696834" />
		<tag k="tourism" v="viewpoint" />
	</node>
</osm>
