<?xml version="1.0" encoding="UTF-8"?>
<osm version="0.6" generator="osmapis">
	<node lat="59.97411110874979" lon="9.330894444486907" id="-14719">
		<tag k="ford" v="yes" />
		<tag k="name" v="Nedre Vad" />
		<tag k="place" v="locality" />
		<tag k="ssr:stedsnr" v="150925" />
	</node>
	<node lat="59.9169138912513" lon="9.340958336738558" id="-14721">
		<tag k="bridge" v="yes" />
		<tag k="layer" v="1" />
		<tag k="name" v="Rostad" />
		<tag k="ssr:stedsnr" v="168568" />
	</node>
	<node lat="60.02186666560026" lon="9.24101111278438" id="-14897">
		<tag k="bridge" v="yes" />
		<tag k="layer" v="1" />
		<tag k="name" v="Kleven nedre" />
		<tag k="ssr:stedsnr" v="289630" />
	</node>
	<node lat="60.07434444822424" lon="9.1050388907651" id="-14938">
		<tag k="bridge" v="yes" />
		<tag k="layer" v="1" />
		<tag k="name" v="Skavlem" />
		<tag k="ssr:stedsnr" v="471598" />
	</node>
	<node lat="59.955077780215646" lon="9.306719442702544" id="-14994">
		<tag k="bridge" v="yes" />
		<tag k="layer" v="1" />
		<tag k="name" v="Sørkje" />
		<tag k="ssr:stedsnr" v="410595" />
	</node>
	<node lat="59.92065833564093" lon="9.35304166992852" id="-15059">
		<tag k="name" v="Fossan" />
		<tag k="railway" v="halt" />
		<tag k="ssr:stedsnr" v="671185" />
		<tag k="train" v="yes" />
	</node>
	<node lat="60.03040832904145" lon="9.234394451093921" id="-15125">
		<tag k="junction" v="yes" />
		<tag k="name" v="Bruhaug" />
		<tag k="place" v="locality" />
		<tag k="ssr:stedsnr" v="490049" />
	</node>
	<node lat="60.04995555200808" lon="9.201572225446636" id="-15142">
		<tag k="landuse" v="industrial" />
		<tag k="name" v="Mykstufoss kraftverk" />
		<tag k="power" v="plant" />
		<tag k="ssr:stedsnr" v="514168" />
	</node>
	<node lat="59.98091388970231" lon="9.4198249928767" id="-15239">
		<tag k="ford" v="yes" />
		<tag k="name" v="Kjommevad" />
		<tag k="place" v="locality" />
		<tag k="ssr:stedsnr" v="696990" />
	</node>
	<node lat="59.97404722594671" lon="9.334544447467016" id="-15283">
		<tag k="ford" v="yes" />
		<tag k="name" v="Øvre Vad" />
		<tag k="place" v="locality" />
		<tag k="ssr:stedsnr" v="635931" />
	</node>
	<node lat="60.0424111099505" lon="9.154991665645909" id="-15287">
		<tag k="bridge" v="yes" />
		<tag k="layer" v="1" />
		<tag k="name" v="Veggli nordre" />
		<tag k="ssr:stedsnr" v="653605" />
	</node>
	<node lat="60.00014167082222" lon="9.427897220009514" id="-15421">
		<tag k="junction" v="yes" />
		<tag k="name" v="Birgertorvet" />
		<tag k="place" v="locality" />
		<tag k="ssr:stedsnr" v="818972" />
	</node>
	<node lat="59.99203055255618" lon="9.3306833421367" id="-15427">
		<tag k="bridge" v="yes" />
		<tag k="layer" v="1" />
		<tag k="name" v="Torsrud" />
		<tag k="ssr:stedsnr" v="835612" />
	</node>
	<node lat="59.92601944486903" lon="9.32833889573777" id="-15428">
		<tag k="bridge" v="yes" />
		<tag k="layer" v="1" />
		<tag k="name" v="Stabekk" />
		<tag k="ssr:stedsnr" v="835617" />
	</node>
	<node lat="59.94931111373219" lon="9.338883339482699" id="-15429">
		<tag k="bridge" v="yes" />
		<tag k="layer" v="1" />
		<tag k="name" v="Ulvik" />
		<tag k="ssr:stedsnr" v="835642" />
	</node>
	<node lat="60.301494443886995" lon="8.244327777649584" id="-15450">
		<tag k="alt_name" v="Nordmannsslepa, store;Stora Nordmannsslepa;Store Nordmannslepa;Søndre Nordmannslepa;Store Normannsslepa" />
		<tag k="highway" v="path" />
		<tag k="name" v="Store Nordmannsslepa" />
		<tag k="ssr:stedsnr" v="856239" />
	</node>
	<node lat="59.94306666353233" lon="9.342086117327874" id="-15475">
		<tag k="bridge" v="yes" />
		<tag k="layer" v="1" />
		<tag k="name" v="Djupdal" />
		<tag k="ssr:stedsnr" v="896615" />
	</node>
	<node lat="59.98488055234288" lon="9.293341673555174" id="-15476">
		<tag k="bridge" v="yes" />
		<tag k="layer" v="1" />
		<tag k="name" v="Sønsteru" />
		<tag k="ssr:stedsnr" v="896624" />
	</node>
	<node lat="59.97958333513266" lon="9.282488890012676" id="-15477">
		<tag k="bridge" v="yes" />
		<tag k="layer" v="1" />
		<tag k="name" v="Landsverk" />
		<tag k="ssr:stedsnr" v="896631" />
	</node>
	<node lat="59.94248889227387" lon="9.340819436043697" id="-15478">
		<tag k="bridge" v="yes" />
		<tag k="layer" v="1" />
		<tag k="name" v="Langerud" />
		<tag k="ssr:stedsnr" v="896632" />
	</node>
	<node lat="59.95813611352868" lon="9.300844440012737" id="-15585">
		<tag k="bridge" v="yes" />
		<tag k="layer" v="1" />
		<tag k="name" v="Stormoen" />
		<tag k="ssr:stedsnr" v="46646" />
	</node>
	<node lat="59.9642944462349" lon="9.326549998712139" id="-15730">
		<tag k="ford" v="yes" />
		<tag k="name" v="Bergelienmyre" />
		<tag k="place" v="locality" />
		<tag k="ssr:stedsnr" v="150940" />
	</node>
</osm>
