<?xml version="1.0" encoding="UTF-8"?>
<osm version="0.6" generator="osmapis">
	<node lat="60.09765000259478" lon="9.142261114233314" id="-34002">
		<tag k="name" v="Briskemyran" />
		<tag k="natural" v="wetland" />
		<tag k="ssr:stedsnr" v="4723" />
	</node>
	<node lat="60.0877111137563" lon="9.160830556145635" id="-34018">
		<tag k="name" v="Nysetmyr" />
		<tag k="natural" v="wetland" />
		<tag k="ssr:stedsnr" v="29506" />
	</node>
	<node lat="60.09337221919645" lon="9.162777777030549" id="-34019">
		<tag k="name" v="Løkjemyr" />
		<tag k="natural" v="wetland" />
		<tag k="ssr:stedsnr" v="29513" />
	</node>
	<node lat="60.0907833305076" lon="9.152761108680497" id="-34020">
		<tag k="name" v="Ormemyr" />
		<tag k="natural" v="wetland" />
		<tag k="ssr:stedsnr" v="29515" />
	</node>
	<node lat="60.03851944771165" lon="9.12521388722107" id="-34021">
		<tag k="name" v="Lyuflate" />
		<tag k="place" v="locality" />
		<tag k="ssr:stedsnr" v="29664" />
	</node>
	<node lat="59.933252777284814" lon="9.330469437406695" id="-34024">
		<tag k="landuse" v="meadow" />
		<tag k="name" v="Bakke" />
		<tag k="ssr:stedsnr" v="29771" />
	</node>
	<node lat="60.05273889084625" lon="9.21039999316838" id="-34057">
		<tag k="landuse" v="meadow" />
		<tag k="name" v="Skarvekøs" />
		<tag k="ssr:stedsnr" v="89167" />
	</node>
	<node lat="60.053538891184516" lon="9.198591666149854" id="-34058">
		<tag k="landuse" v="meadow" />
		<tag k="name" v="Djupedalskøse" />
		<tag k="ssr:stedsnr" v="89170" />
	</node>
	<node lat="60.006247217948555" lon="9.27487499758991" id="-34062">
		<tag k="name" v="Deilesmyr" />
		<tag k="natural" v="wetland" />
		<tag k="ssr:stedsnr" v="89782" />
	</node>
	<node lat="59.92545277573125" lon="9.339205555023817" id="-34071">
		<tag k="name" v="Labben" />
		<tag k="place" v="locality" />
		<tag k="ssr:stedsnr" v="90861" />
	</node>
	<node lat="60.06102221975975" lon="9.170313893431649" id="-34097">
		<tag k="name" v="Helderudkøsmyr" />
		<tag k="natural" v="wetland" />
		<tag k="ssr:stedsnr" v="150319" />
	</node>
	<node lat="60.0502722238194" lon="9.179108340191963" id="-34099">
		<tag k="landuse" v="meadow" />
		<tag k="name" v="Nilskøs" />
		<tag k="ssr:stedsnr" v="150261" />
	</node>
	<node lat="60.037802776359804" lon="9.071119449684357" id="-34100">
		<tag k="name" v="Raubekkmyr" />
		<tag k="natural" v="wetland" />
		<tag k="ssr:stedsnr" v="150412" />
	</node>
	<node lat="60.012886114375995" lon="9.199963888807604" id="-34106">
		<tag k="historic" v="shieling" />
		<tag k="name" v="Gamle Grånåbu" />
		<tag k="place" v="locality" />
		<tag k="ssr:stedsnr" v="150571" />
	</node>
	<node lat="60.003825003910876" lon="9.429911119964771" id="-34112">
		<tag k="name" v="Steinmyran" />
		<tag k="natural" v="wetland" />
		<tag k="ssr:stedsnr" v="150917" />
	</node>
	<node lat="59.956252781277534" lon="9.180747221643635" id="-34134">
		<tag k="historic" v="shieling" />
		<tag k="name" v="Nyset" />
		<tag k="place" v="locality" />
		<tag k="ssr:stedsnr" v="247558" />
	</node>
	<node lat="60.05202500051228" lon="9.235099996390044" id="-34167">
		<tag k="name" v="Delesmyr" />
		<tag k="natural" v="wetland" />
		<tag k="ssr:stedsnr" v="211146" />
	</node>
	<node lat="60.07208611309002" lon="9.077411114712753" id="-34173">
		<tag k="landuse" v="meadow" />
		<tag k="name" v="Lågårgardsmyran" />
		<tag k="ssr:stedsnr" v="211487" />
	</node>
	<node lat="60.00540278005196" lon="9.312908330354949" id="-34176">
		<tag k="landuse" v="meadow" />
		<tag k="name" v="Løtakøs" />
		<tag k="ssr:stedsnr" v="211717" />
	</node>
	<node lat="60.00481944122023" lon="9.38932500294" id="-34178">
		<tag k="name" v="Kjørkestein" />
		<tag k="natural" v="stone" />
		<tag k="ssr:stedsnr" v="211700" />
	</node>
	<node lat="59.9857366073249" lon="9.344973784036377" id="-34179">
		<tag k="landuse" v="meadow" />
		<tag k="name" v="Torsplassen" />
		<tag k="ssr:stedsnr" v="211891" />
	</node>
	<node lat="59.97530000308449" lon="9.35148610643201" id="-34185">
		<tag k="landuse" v="meadow" />
		<tag k="name" v="Køsin" />
		<tag k="ssr:stedsnr" v="211942" />
	</node>
	<node lat="59.96032777414546" lon="9.217491670482842" id="-34221">
		<tag k="historic" v="shieling" />
		<tag k="name" v="Landsverkvollen" />
		<tag k="old_name" v="Landsværksætre;Landsverk" />
		<tag k="place" v="locality" />
		<tag k="ssr:stedsnr" v="272000" />
	</node>
	<node lat="60.0569944454203" lon="9.182375001453225" id="-34222">
		<tag k="name" v="Danielsrud" />
		<tag k="place" v="locality" />
		<tag k="ssr:stedsnr" v="272310" />
	</node>
	<node lat="60.047661111043624" lon="9.171344451845973" id="-34225">
		<tag k="name" v="Tolvmålåkeren" />
		<tag k="place" v="locality" />
		<tag k="ssr:stedsnr" v="272293" />
	</node>
	<node lat="59.91739166724595" lon="9.34807777886542" id="-34230">
		<tag k="landuse" v="meadow" />
		<tag k="name" v="Hellengje" />
		<tag k="ssr:stedsnr" v="272717" />
	</node>
	<node lat="60.01073333310168" lon="9.153172226967687" id="-34232">
		<tag k="name" v="Klasehågån" />
		<tag k="place" v="locality" />
		<tag k="ssr:stedsnr" v="272687" />
	</node>
	<node lat="59.95416667050605" lon="9.285475006085294" id="-34236">
		<tag k="landuse" v="meadow" />
		<tag k="name" v="Liarkøs" />
		<tag k="ssr:stedsnr" v="272801" />
	</node>
	<node lat="60.04671388927254" lon="9.32032500611062" id="-34245">
		<tag k="name" v="Trytetjønnhogsten" />
		<tag k="place" v="locality" />
		<tag k="ssr:stedsnr" v="453701" />
	</node>
	<node lat="60.01604999947461" lon="9.25146667316606" id="-34255">
		<tag k="name" v="Storebråtan" />
		<tag k="place" v="locality" />
		<tag k="ssr:stedsnr" v="453991" />
	</node>
	<node lat="60.01382222633021" lon="9.161886110416745" id="-34268">
		<tag k="name" v="Matmyr" />
		<tag k="natural" v="wetland" />
		<tag k="ssr:stedsnr" v="454754" />
	</node>
	<node lat="59.958605557044336" lon="9.343611117605949" id="-34271">
		<tag k="name" v="Bleikemyr" />
		<tag k="natural" v="wetland" />
		<tag k="ssr:stedsnr" v="454944" />
	</node>
	<node lat="60.07061445102637" lon="9.031955143628455" id="-34287">
		<tag k="name" v="Viersetmyre" />
		<tag k="natural" v="wetland" />
		<tag k="ssr:stedsnr" v="308702" />
	</node>
	<node lat="59.99263611112033" lon="9.353638884335961" id="-34308">
		<tag k="name" v="Gamlesetmyre" />
		<tag k="natural" v="wetland" />
		<tag k="ssr:stedsnr" v="332906" />
	</node>
	<node lat="60.00795555395455" lon="9.385241669692734" id="-34309">
		<tag k="name" v="Siljubråtån" />
		<tag k="place" v="locality" />
		<tag k="ssr:stedsnr" v="332916" />
	</node>
	<node lat="60.01344722100574" lon="9.206449993158026" id="-34310">
		<tag k="name" v="Storemyr" />
		<tag k="natural" v="wetland" />
		<tag k="ssr:stedsnr" v="332802" />
	</node>
	<node lat="60.01907777731171" lon="9.384213892570942" id="-34340">
		<tag k="historic" v="shieling" />
		<tag k="name" v="Stakkeli" />
		<tag k="place" v="locality" />
		<tag k="ssr:stedsnr" v="389559" />
	</node>
	<node lat="60.02624722232418" lon="9.36035832562589" id="-34341">
		<tag k="historic" v="shieling" />
		<tag k="name" v="Gamlevollsetre" />
		<tag k="place" v="locality" />
		<tag k="ssr:stedsnr" v="389564" />
	</node>
	<node lat="60.046025002271705" lon="9.235933342030348" id="-34343">
		<tag k="landuse" v="meadow" />
		<tag k="name" v="Hesjakøs" />
		<tag k="ssr:stedsnr" v="392148" />
	</node>
	<node lat="60.061305552321066" lon="9.034705560312137" id="-34347">
		<tag k="historic" v="shieling" />
		<tag k="name" v="Kjerrevollen" />
		<tag k="place" v="locality" />
		<tag k="ssr:stedsnr" v="393120" />
	</node>
	<node lat="60.03467777427417" lon="9.041308329601232" id="-34355">
		<tag k="name" v="Høggerudseteråe" />
		<tag k="natural" v="wetland" />
		<tag k="ssr:stedsnr" v="393412" />
	</node>
	<node lat="59.938974999741426" lon="9.379005548225239" id="-34363">
		<tag k="name" v="Bruremyr" />
		<tag k="natural" v="wetland" />
		<tag k="ssr:stedsnr" v="393747" />
	</node>
	<node lat="60.097533329847685" lon="9.128558341734113" id="-34389">
		<tag k="name" v="Høghaugmyre" />
		<tag k="natural" v="wetland" />
		<tag k="ssr:stedsnr" v="429706" />
	</node>
	<node lat="60.052074996472975" lon="9.19717222149253" id="-34392">
		<tag k="landuse" v="meadow" />
		<tag k="name" v="Damkøse" />
		<tag k="ssr:stedsnr" v="453171" />
	</node>
	<node lat="60.01333055113591" lon="9.298444442075512" id="-34397">
		<tag k="landuse" v="meadow" />
		<tag k="name" v="Storlikøs" />
		<tag k="ssr:stedsnr" v="453791" />
	</node>
	<node lat="60.048705557024775" lon="9.054255564381016" id="-34399">
		<tag k="alt_name" v="Persbumyra" />
		<tag k="name" v="Persbumyre" />
		<tag k="natural" v="wetland" />
		<tag k="ssr:stedsnr" v="454102" />
	</node>
	<node lat="59.91651111488985" lon="9.351752781793103" id="-34412">
		<tag k="landuse" v="meadow" />
		<tag k="name" v="Bjørkengje" />
		<tag k="ssr:stedsnr" v="454777" />
	</node>
	<node lat="59.98803055335332" lon="9.343883336155399" id="-34413">
		<tag k="landuse" v="meadow" />
		<tag k="name" v="Danielskøse" />
		<tag k="ssr:stedsnr" v="454903" />
	</node>
	<node lat="60.051744448722" lon="9.228738890172199" id="-34414">
		<tag k="name" v="Landemyr" />
		<tag k="natural" v="wetland" />
		<tag k="ssr:stedsnr" v="696146" />
	</node>
	<node lat="60.10589999990144" lon="9.148161118314306" id="-34446">
		<tag k="name" v="Lyumyran" />
		<tag k="natural" v="wetland" />
		<tag k="ssr:stedsnr" v="671532" />
	</node>
	<node lat="59.94769444087994" lon="9.189030560260548" id="-34450">
		<tag k="historic" v="shieling" />
		<tag k="name" v="Stærnessetre" />
		<tag k="place" v="locality" />
		<tag k="ssr:stedsnr" v="671554" />
	</node>
	<node lat="60.05778888488831" lon="9.02799165804746" id="-34454">
		<tag k="name" v="Olhovdmyre" />
		<tag k="natural" v="wetland" />
		<tag k="ssr:stedsnr" v="671661" />
	</node>
	<node lat="60.04987500151452" lon="9.090016673926122" id="-34481">
		<tag k="name" v="Hallingsetmyre" />
		<tag k="natural" v="wetland" />
		<tag k="ssr:stedsnr" v="514302" />
	</node>
	<node lat="60.000683335160794" lon="9.299727783464423" id="-34488">
		<tag k="landuse" v="meadow" />
		<tag k="name" v="Surtekøsåsen" />
		<tag k="ssr:stedsnr" v="514592" />
	</node>
	<node lat="60.03962499705959" lon="9.118561116173554" id="-34492">
		<tag k="name" v="Rukøset" />
		<tag k="place" v="locality" />
		<tag k="ssr:stedsnr" v="514675" />
	</node>
	<node lat="60.04402499838986" lon="9.196616669235581" id="-34496">
		<tag k="name" v="Årud" />
		<tag k="place" v="locality" />
		<tag k="ssr:stedsnr" v="514811" />
	</node>
	<node lat="59.98106666549355" lon="9.323372218678928" id="-34500">
		<tag k="name" v="Småmyran" />
		<tag k="natural" v="wetland" />
		<tag k="ssr:stedsnr" v="514889" />
	</node>
	<node lat="59.953832220008785" lon="9.308945461096133" id="-34503">
		<tag k="landuse" v="meadow" />
		<tag k="name" v="Stuvengje" />
		<tag k="ssr:stedsnr" v="514777" />
	</node>
	<node lat="59.97865278107995" lon="9.426686107868028" id="-34507">
		<tag k="historic" v="shieling" />
		<tag k="name" v="Hellevollane" />
		<tag k="place" v="locality" />
		<tag k="ssr:stedsnr" v="514993" />
	</node>
	<node lat="60.04595000281174" lon="9.220963891214678" id="-34525">
		<tag k="name" v="Tranåmyr" />
		<tag k="natural" v="wetland" />
		<tag k="ssr:stedsnr" v="574154" />
	</node>
	<node lat="60.03726944725747" lon="9.252936118385106" id="-34539">
		<tag k="landuse" v="meadow" />
		<tag k="name" v="Stalskøs" />
		<tag k="ssr:stedsnr" v="574873" />
	</node>
	<node lat="60.034324997187205" lon="9.187230556891539" id="-34544">
		<tag k="name" v="Lykkja" />
		<tag k="place" v="locality" />
		<tag k="ssr:stedsnr" v="575663" />
	</node>
	<node lat="59.94411666889242" lon="9.299463890285185" id="-34546">
		<tag k="name" v="Tovsrud" />
		<tag k="place" v="locality" />
		<tag k="ssr:stedsnr" v="575811" />
	</node>
	<node lat="59.996338887876384" lon="9.443244446476216" id="-34551">
		<tag k="name" v="Bjørnestein" />
		<tag k="natural" v="stone" />
		<tag k="ssr:stedsnr" v="575972" />
	</node>
	<node lat="60.00040833307966" lon="9.151025005772707" id="-34565">
		<tag k="historic" v="shieling" />
		<tag k="name" v="Hølasetre" />
		<tag k="place" v="locality" />
		<tag k="ssr:stedsnr" v="611278" />
	</node>
	<node lat="60.088272219088005" lon="9.149180555814912" id="-34569">
		<tag k="name" v="Øygardsmyre" />
		<tag k="natural" v="wetland" />
		<tag k="ssr:stedsnr" v="611695" />
	</node>
	<node lat="59.99256944759103" lon="9.39509999134826" id="-34604">
		<tag k="name" v="Tjyruhjallmyre" />
		<tag k="natural" v="wetland" />
		<tag k="ssr:stedsnr" v="635992" />
	</node>
	<node lat="60.032524995761825" lon="9.06452777824671" id="-34626">
		<tag k="name" v="Årsetmyran" />
		<tag k="natural" v="wetland" />
		<tag k="ssr:stedsnr" v="672312" />
	</node>
	<node lat="60.062183335066926" lon="9.175819451597798" id="-34642">
		<tag k="name" v="Storemyr" />
		<tag k="natural" v="wetland" />
		<tag k="ssr:stedsnr" v="696315" />
	</node>
	<node lat="59.983513889776155" lon="9.336444439627908" id="-34651">
		<tag k="landuse" v="meadow" />
		<tag k="name" v="Eivindsrud" />
		<tag k="ssr:stedsnr" v="696903" />
	</node>
	<node lat="59.995216664517116" lon="9.317838887797596" id="-34653">
		<tag k="landuse" v="meadow" />
		<tag k="name" v="Knutekøse" />
		<tag k="ssr:stedsnr" v="696911" />
	</node>
	<node lat="59.986055551787075" lon="9.365808341962616" id="-34654">
		<tag k="name" v="Goplemyr" />
		<tag k="natural" v="wetland" />
		<tag k="ssr:stedsnr" v="696986" />
	</node>
	<node lat="59.92345277795212" lon="9.33626944623102" id="-34657">
		<tag k="name" v="Øygarden" />
		<tag k="place" v="locality" />
		<tag k="ssr:stedsnr" v="696877" />
	</node>
	<node lat="59.91598055564579" lon="9.339633334424557" id="-34658">
		<tag k="landuse" v="quarry" />
		<tag k="name" v="Pikopbrottet" />
		<tag k="ssr:stedsnr" v="696880" />
	</node>
	<node lat="59.97221666582467" lon="9.269883332686428" id="-34660">
		<tag k="landuse" v="meadow" />
		<tag k="name" v="Tinneskøse" />
		<tag k="ssr:stedsnr" v="939956" />
	</node>
	<node lat="60.066000004356106" lon="9.061661117008585" id="-34681">
		<tag k="name" v="Storemyran" />
		<tag k="natural" v="wetland" />
		<tag k="ssr:stedsnr" v="733698" />
	</node>
	<node lat="60.00073610725882" lon="9.31548334111244" id="-34693">
		<tag k="landuse" v="meadow" />
		<tag k="name" v="Køsin" />
		<tag k="ssr:stedsnr" v="757901" />
	</node>
	<node lat="60.06337777508928" lon="9.176008324918508" id="-34717">
		<tag k="name" v="Mogenmyre" />
		<tag k="natural" v="wetland" />
		<tag k="ssr:stedsnr" v="818323" />
	</node>
	<node lat="59.98803611067954" lon="9.427355560203697" id="-34726">
		<tag k="name" v="Korsfurumyran" />
		<tag k="natural" v="wetland" />
		<tag k="ssr:stedsnr" v="818996" />
	</node>
	<node lat="60.074574999720255" lon="9.160166675364952" id="-34745">
		<tag k="name" v="Fremstemyr" />
		<tag k="natural" v="wetland" />
		<tag k="ssr:stedsnr" v="854719" />
	</node>
	<node lat="59.933313890195166" lon="9.381391669718264" id="-34751">
		<tag k="name" v="Liarmyran" />
		<tag k="natural" v="wetland" />
		<tag k="ssr:stedsnr" v="914169" />
	</node>
	<node lat="60.03362500441502" lon="9.006536109224966" id="-34771">
		<tag k="name" v="Deveggmyran" />
		<tag k="natural" v="wetland" />
		<tag k="ssr:stedsnr" v="878139" />
	</node>
	<node lat="60.04876666881318" lon="9.22654721425922" id="-34772">
		<tag k="landuse" v="meadow" />
		<tag k="name" v="Larsekøs" />
		<tag k="ssr:stedsnr" v="878153" />
	</node>
	<node lat="60.05460395597714" lon="9.222837601052154" id="-34773">
		<tag k="name" v="Ivarset" />
		<tag k="place" v="locality" />
		<tag k="ssr:stedsnr" v="878165" />
	</node>
	<node lat="60.075213892312334" lon="9.105625005326791" id="-34779">
		<tag k="landuse" v="meadow" />
		<tag k="name" v="Nedre Skavlem" />
		<tag k="ssr:stedsnr" v="878558" />
	</node>
	<node lat="60.09904722228203" lon="9.198502780883583" id="-34782">
		<tag k="name" v="Skjulsmyre" />
		<tag k="natural" v="wetland" />
		<tag k="ssr:stedsnr" v="878452" />
	</node>
	<node lat="60.00696666765187" lon="9.352711119904178" id="-34785">
		<tag k="name" v="Snikjestein" />
		<tag k="natural" v="stone" />
		<tag k="ssr:stedsnr" v="878754" />
	</node>
	<node lat="59.92362778016433" lon="9.33817222118624" id="-34786">
		<tag k="landuse" v="meadow" />
		<tag k="name" v="Engje" />
		<tag k="ssr:stedsnr" v="878906" />
	</node>
	<node lat="60.00178333754756" lon="9.293683333562045" id="-34788">
		<tag k="name" v="Storemyr" />
		<tag k="natural" v="wetland" />
		<tag k="ssr:stedsnr" v="878803" />
	</node>
	<node lat="60.0528222216808" lon="9.25495833266688" id="-34827">
		<tag k="name" v="Øvre Dammen" />
		<tag k="natural" v="wetland" />
		<tag k="ssr:stedsnr" v="939185" />
	</node>
	<node lat="60.1016805550371" lon="9.23227499840413" id="-34829">
		<tag k="name" v="Hellevollen" />
		<tag k="place" v="locality" />
		<tag k="ssr:stedsnr" v="939336" />
	</node>
	<node lat="60.08549166504847" lon="9.150572216820787" id="-34834">
		<tag k="name" v="Diplemyr" />
		<tag k="natural" v="wetland" />
		<tag k="ssr:stedsnr" v="939511" />
	</node>
	<node lat="59.995491666352045" lon="9.320658330003713" id="-34840">
		<tag k="landuse" v="meadow" />
		<tag k="name" v="Røysa" />
		<tag k="ssr:stedsnr" v="939911" />
	</node>
	<node lat="59.99911944607016" lon="9.319363896119206" id="-34841">
		<tag k="landuse" v="meadow" />
		<tag k="name" v="Herbrandskøs" />
		<tag k="ssr:stedsnr" v="939913" />
	</node>
	<node lat="60.000466662742106" lon="9.308880556626718" id="-34842">
		<tag k="landuse" v="meadow" />
		<tag k="name" v="Gamlekøsin" />
		<tag k="ssr:stedsnr" v="939917" />
	</node>
	<node lat="60.03498610745217" lon="9.25215834188901" id="-34845">
		<tag k="name" v="Dammyr" />
		<tag k="natural" v="wetland" />
		<tag k="ssr:stedsnr" v="939834" />
	</node>
	<node lat="59.996950004168276" lon="9.402097217876502" id="-34848">
		<tag k="name" v="Nysetmyran" />
		<tag k="natural" v="wetland" />
		<tag k="ssr:stedsnr" v="939899" />
	</node>
	<node lat="60.0445527755327" lon="9.072924991025873" id="-34944">
		<tag k="name" v="Storemyr" />
		<tag k="natural" v="wetland" />
		<tag k="ssr:stedsnr" v="4659" />
	</node>
	<node lat="59.99176666405472" lon="9.112763888372298" id="-34956">
		<tag k="name" v="Storemyr" />
		<tag k="natural" v="wetland" />
		<tag k="ssr:stedsnr" v="4942" />
	</node>
	<node lat="60.05705555443537" lon="9.188480547965431" id="-34971">
		<tag k="name" v="Danielsrudmyran" />
		<tag k="natural" v="wetland" />
		<tag k="old_name" v="Danilelsrudmyran" />
		<tag k="ssr:stedsnr" v="29337" />
	</node>
	<node lat="60.082241666608724" lon="9.200122225718609" id="-34973">
		<tag k="name" v="Lislemyr" />
		<tag k="natural" v="wetland" />
		<tag k="ssr:stedsnr" v="29098" />
	</node>
	<node lat="60.08053888855915" lon="9.118011108414802" id="-34975">
		<tag k="name" v="Svenskemyr" />
		<tag k="natural" v="wetland" />
		<tag k="ssr:stedsnr" v="29492" />
	</node>
	<node lat="59.92287222168868" lon="9.249602783545877" id="-34977">
		<tag k="historic" v="shieling" />
		<tag k="name" v="Sørset" />
		<tag k="place" v="locality" />
		<tag k="ssr:stedsnr" v="29789" />
	</node>
	<node lat="60.028352777787504" lon="9.242586109464646" id="-35024">
		<tag k="name" v="Langemyr" />
		<tag k="natural" v="wetland" />
		<tag k="ssr:stedsnr" v="89252" />
	</node>
	<node lat="60.038650002723394" lon="9.254711111898253" id="-35035">
		<tag k="landuse" v="meadow" />
		<tag k="name" v="Hengekøs" />
		<tag k="ssr:stedsnr" v="89842" />
	</node>
	<node lat="60.00163611044414" lon="9.313716673117474" id="-35038">
		<tag k="landuse" v="meadow" />
		<tag k="name" v="Skørrakøs" />
		<tag k="ssr:stedsnr" v="89749" />
	</node>
	<node lat="59.96646666836524" lon="9.39819444649722" id="-35056">
		<tag k="name" v="Kløvsteinmyran" />
		<tag k="natural" v="wetland" />
		<tag k="ssr:stedsnr" v="90788" />
	</node>
	<node lat="59.98303055428487" lon="9.32364166789714" id="-35057">
		<tag k="name" v="Diplemyr" />
		<tag k="natural" v="wetland" />
		<tag k="ssr:stedsnr" v="90887" />
	</node>
	<node lat="59.935819440616214" lon="9.311419451508874" id="-35061">
		<tag k="name" v="Køsemyr" />
		<tag k="natural" v="wetland" />
		<tag k="ssr:stedsnr" v="90744" />
	</node>
	<node lat="59.96758610951021" lon="9.33837222470261" id="-35064">
		<tag k="landuse" v="meadow" />
		<tag k="name" v="Storekøslie" />
		<tag k="ssr:stedsnr" v="90928" />
	</node>
	<node lat="60.05109213356085" lon="9.359236008378979" id="-35066">
		<tag k="historic" v="shieling" />
		<tag k="name" v="Langsetre" />
		<tag k="place" v="locality" />
		<tag k="ssr:stedsnr" v="125077" />
	</node>
	<node lat="60.003122221671276" lon="9.342041669333735" id="-35108">
		<tag k="name" v="Bjørkeset" />
		<tag k="place" v="locality" />
		<tag k="ssr:stedsnr" v="149743" />
	</node>
	<node lat="59.9623555564309" lon="9.273038889559214" id="-35136">
		<tag k="name" v="Storemyr" />
		<tag k="natural" v="wetland" />
		<tag k="ssr:stedsnr" v="150948" />
	</node>
	<node lat="60.035980556966905" lon="9.105383325470967" id="-35138">
		<tag k="historic" v="shieling" />
		<tag k="name" v="Haukjem heimsetre" />
		<tag k="place" v="locality" />
		<tag k="ssr:stedsnr" v="150639" />
	</node>
	<node lat="60.04942499946551" lon="9.055761113679957" id="-35163">
		<tag k="name" v="Hegna" />
		<tag k="place" v="locality" />
		<tag k="ssr:stedsnr" v="211112" />
	</node>
	<node lat="60.04747499979213" lon="9.065250007870794" id="-35164">
		<tag k="name" v="Storemyr" />
		<tag k="natural" v="wetland" />
		<tag k="ssr:stedsnr" v="211113" />
	</node>
	<node lat="60.04653610819487" lon="9.123505560271116" id="-35168">
		<tag k="landuse" v="meadow" />
		<tag k="name" v="Dalerslåtten" />
		<tag k="ssr:stedsnr" v="211275" />
	</node>
	<node lat="59.97650833503362" lon="9.262797223320858" id="-35188">
		<tag k="landuse" v="meadow" />
		<tag k="name" v="Mogekøse" />
		<tag k="ssr:stedsnr" v="211937" />
	</node>
	<node lat="59.93016944787017" lon="9.307094435773626" id="-35189">
		<tag k="historic" v="shieling" />
		<tag k="name" v="Kleiverud heimsetre" />
		<tag k="place" v="locality" />
		<tag k="ssr:stedsnr" v="211748" />
	</node>
	<node lat="59.943583329822296" lon="9.323227784429749" id="-35190">
		<tag k="name" v="Bergemyran" />
		<tag k="natural" v="wetland" />
		<tag k="ssr:stedsnr" v="211773" />
	</node>
	<node lat="59.91044166865564" lon="9.319313893247497" id="-35199">
		<tag k="name" v="Rundingsmyre" />
		<tag k="natural" v="wetland" />
		<tag k="ssr:stedsnr" v="211868" />
	</node>
	<node lat="60.0494749991699" lon="9.045530558361225" id="-35212">
		<tag k="name" v="Diplemyr" />
		<tag k="natural" v="wetland" />
		<tag k="ssr:stedsnr" v="271130" />
	</node>
	<node lat="60.044302779478414" lon="9.236824996550203" id="-35214">
		<tag k="landuse" v="meadow" />
		<tag k="name" v="Orekøs" />
		<tag k="ssr:stedsnr" v="271285" />
	</node>
	<node lat="60.038730555754626" lon="9.196791674715508" id="-35218">
		<tag k="name" v="Putten" />
		<tag k="place" v="locality" />
		<tag k="ssr:stedsnr" v="271881" />
	</node>
	<node lat="60.065819443873174" lon="9.189141666739516" id="-35229">
		<tag k="name" v="Nedre Kalvemyr" />
		<tag k="natural" v="wetland" />
		<tag k="ssr:stedsnr" v="272285" />
	</node>
	<node lat="59.99253055162622" lon="9.3077833282412" id="-35238">
		<tag k="name" v="Narvekøsmyran" />
		<tag k="natural" v="wetland" />
		<tag k="ssr:stedsnr" v="272863" />
	</node>
	<node lat="59.99543888879772" lon="9.353022217833427" id="-35244">
		<tag k="historic" v="shieling" />
		<tag k="name" v="Gamleset" />
		<tag k="place" v="locality" />
		<tag k="ssr:stedsnr" v="272907" />
	</node>
	<node lat="60.06318333257481" lon="9.047327773140843" id="-35265">
		<tag k="name" v="Flæun" />
		<tag k="natural" v="wetland" />
		<tag k="ssr:stedsnr" v="327365" />
	</node>
	<node lat="60.07163333443998" lon="9.142402774175471" id="-35270">
		<tag k="landuse" v="meadow" />
		<tag k="name" v="Solbergkøse" />
		<tag k="ssr:stedsnr" v="332485" />
	</node>
	<node lat="60.03734444281388" lon="9.311161119578065" id="-35281">
		<tag k="name" v="Fugleleikmyran" />
		<tag k="natural" v="wetland" />
		<tag k="ssr:stedsnr" v="332646" />
	</node>
	<node lat="60.03353611468955" lon="9.10064999410566" id="-35284">
		<tag k="name" v="Lienmyr" />
		<tag k="natural" v="wetland" />
		<tag k="ssr:stedsnr" v="332654" />
	</node>
	<node lat="60.01210833093371" lon="9.135400006321504" id="-35290">
		<tag k="historic" v="shieling" />
		<tag k="name" v="Plassevollen" />
		<tag k="place" v="locality" />
		<tag k="ssr:stedsnr" v="332730" />
	</node>
	<node lat="59.96851944661428" lon="9.335874999268192" id="-35299">
		<tag k="name" v="Storekøsmyre" />
		<tag k="natural" v="wetland" />
		<tag k="ssr:stedsnr" v="332927" />
	</node>
	<node lat="60.03819444825707" lon="9.293241660290361" id="-35307">
		<tag k="name" v="Dammyran" />
		<tag k="natural" v="wetland" />
		<tag k="ssr:stedsnr" v="332813" />
	</node>
	<node lat="60.064150000722016" lon="9.173516673672118" id="-35328">
		<tag k="name" v="Slåttemyre" />
		<tag k="natural" v="wetland" />
		<tag k="ssr:stedsnr" v="368670" />
	</node>
	<node lat="60.00289444142471" lon="9.279552780783504" id="-35346">
		<tag k="name" v="Saksemyr" />
		<tag k="natural" v="wetland" />
		<tag k="ssr:stedsnr" v="392809" />
	</node>
	<node lat="60.0219694450306" lon="9.253558336257797" id="-35349">
		<tag k="name" v="Torvmyra" />
		<tag k="natural" v="wetland" />
		<tag k="ssr:stedsnr" v="392987" />
	</node>
	<node lat="60.07412597775004" lon="9.130696295564698" id="-35355">
		<tag k="landuse" v="meadow" />
		<tag k="name" v="Halsteinkøs" />
		<tag k="ssr:stedsnr" v="393484" />
	</node>
	<node lat="59.900716664485934" lon="9.204858324675287" id="-35367">
		<tag k="historic" v="shieling" />
		<tag k="name" v="Storegrø" />
		<tag k="place" v="locality" />
		<tag k="ssr:stedsnr" v="393787" />
	</node>
	<node lat="59.98721667086321" lon="9.348161105508842" id="-35371">
		<tag k="landuse" v="meadow" />
		<tag k="name" v="Løytekøse" />
		<tag k="ssr:stedsnr" v="393889" />
	</node>
	<node lat="60.05183332956985" lon="9.242777781458344" id="-35432">
		<tag k="name" v="Dammyr" />
		<tag k="natural" v="wetland" />
		<tag k="ssr:stedsnr" v="514158" />
	</node>
	<node lat="60.13843055304416" lon="9.182858336402152" id="-35434">
		<tag k="landuse" v="meadow" />
		<tag k="name" v="Hovdekøse" />
		<tag k="ssr:stedsnr" v="514450" />
	</node>
	<node lat="60.06741388645226" lon="9.18978888914781" id="-35436">
		<tag k="name" v="Øvre Kalvemyr" />
		<tag k="natural" v="wetland" />
		<tag k="ssr:stedsnr" v="514116" />
	</node>
	<node lat="60.048147225230565" lon="9.169311115090531" id="-35441">
		<tag k="landuse" v="meadow" />
		<tag k="name" v="Nylende" />
		<tag k="ssr:stedsnr" v="514341" />
	</node>
	<node lat="59.99013055390057" lon="9.259213882737356" id="-35442">
		<tag k="name" v="Lauvhogsten" />
		<tag k="place" v="locality" />
		<tag k="ssr:stedsnr" v="514547" />
	</node>
	<node lat="60.01234999564658" lon="9.271091659904963" id="-35449">
		<tag k="name" v="Kalvedokken" />
		<tag k="place" v="locality" />
		<tag k="ssr:stedsnr" v="514753" />
	</node>
	<node lat="60.09111666276727" lon="9.185149992004776" id="-35480">
		<tag k="name" v="Flottmyre" />
		<tag k="natural" v="wetland" />
		<tag k="ssr:stedsnr" v="550685" />
	</node>
	<node lat="60.04748055111447" lon="9.220230547483693" id="-35498">
		<tag k="name" v="Sønstrud" />
		<tag k="place" v="locality" />
		<tag k="ssr:stedsnr" v="574166" />
	</node>
	<node lat="60.045394445901856" lon="9.228955560669073" id="-35508">
		<tag k="name" v="Svartemyr" />
		<tag k="natural" v="wetland" />
		<tag k="ssr:stedsnr" v="574151" />
	</node>
	<node lat="60.025608334833095" lon="9.206822224794305" id="-35511">
		<tag k="name" v="Livrud" />
		<tag k="place" v="locality" />
		<tag k="ssr:stedsnr" v="574901" />
	</node>
	<node lat="60.01584999835784" lon="9.256338884705245" id="-35512">
		<tag k="name" v="Rensla" />
		<tag k="place" v="locality" />
		<tag k="ssr:stedsnr" v="574995" />
	</node>
	<node lat="59.979911107878145" lon="9.341894439200559" id="-35528">
		<tag k="landuse" v="meadow" />
		<tag k="name" v="Myrankøsin" />
		<tag k="ssr:stedsnr" v="575882" />
	</node>
	<node lat="60.04729999652983" lon="9.121675007052216" id="-35565">
		<tag k="landuse" v="meadow" />
		<tag k="name" v="Orekøse" />
		<tag k="ssr:stedsnr" v="696262" />
	</node>
	<node lat="60.03495277847885" lon="9.045888884268532" id="-35575">
		<tag k="name" v="Høggerudsetermyran" />
		<tag k="natural" v="wetland" />
		<tag k="ssr:stedsnr" v="635420" />
	</node>
	<node lat="60.12311389006197" lon="9.157611113296044" id="-35580">
		<tag k="name" v="Buflaten" />
		<tag k="natural" v="wetland" />
		<tag k="ssr:stedsnr" v="635457" />
	</node>
	<node lat="59.98559166318441" lon="9.24633888534611" id="-35584">
		<tag k="name" v="Delesmyr" />
		<tag k="natural" v="wetland" />
		<tag k="ssr:stedsnr" v="635525" />
	</node>
	<node lat="60.04552499821789" lon="9.341019439302496" id="-35592">
		<tag k="name" v="Kalveløkmyran" />
		<tag k="natural" v="wetland" />
		<tag k="ssr:stedsnr" v="635641" />
	</node>
	<node lat="59.9916277820589" lon="9.349147226606327" id="-35597">
		<tag k="historic" v="shieling" />
		<tag k="name" v="Lilleset" />
		<tag k="place" v="locality" />
		<tag k="ssr:stedsnr" v="635915" />
	</node>
	<node lat="60.03734444281388" lon="9.311161119578065" id="-35598">
		<tag k="historic" v="shieling" />
		<tag k="name" v="Rollagsetre" />
		<tag k="place" v="locality" />
		<tag k="ssr:stedsnr" v="635919" />
	</node>
	<node lat="59.9988972198035" lon="9.336725002022796" id="-35608">
		<tag k="landuse" v="meadow" />
		<tag k="name" v="Nilsset" />
		<tag k="ssr:stedsnr" v="635879" />
	</node>
	<node lat="59.9899749971048" lon="9.176916665988703" id="-35617">
		<tag k="name" v="Ulehogstene" />
		<tag k="place" v="locality" />
		<tag k="ssr:stedsnr" v="696702" />
	</node>
	<node lat="60.005311108264166" lon="9.291036117781031" id="-35672">
		<tag k="name" v="Styggemyr" />
		<tag k="natural" v="wetland" />
		<tag k="ssr:stedsnr" v="756813" />
	</node>
	<node lat="60.055016664068816" lon="9.203511104243358" id="-35680">
		<tag k="name" v="Rismyr" />
		<tag k="natural" v="wetland" />
		<tag k="ssr:stedsnr" v="757139" />
	</node>
	<node lat="59.98754999658381" lon="9.357808337947448" id="-35686">
		<tag k="name" v="Goplemyr" />
		<tag k="natural" v="wetland" />
		<tag k="ssr:stedsnr" v="757914" />
	</node>
	<node lat="60.087094446421524" lon="9.18774999251155" id="-35688">
		<tag k="name" v="Slåttemyr" />
		<tag k="natural" v="wetland" />
		<tag k="ssr:stedsnr" v="757491" />
	</node>
	<node lat="60.034755551905434" lon="9.155683329607806" id="-35692">
		<tag k="landuse" v="meadow" />
		<tag k="name" v="Steinkøse" />
		<tag k="ssr:stedsnr" v="757619" />
	</node>
	<node lat="59.943405553449125" lon="9.314044451679232" id="-35696">
		<tag k="name" v="Brumsdalsmyran" />
		<tag k="natural" v="wetland" />
		<tag k="ssr:stedsnr" v="757770" />
	</node>
	<node lat="59.985116668962526" lon="9.329486112159403" id="-35698">
		<tag k="name" v="Storemyr" />
		<tag k="natural" v="wetland" />
		<tag k="ssr:stedsnr" v="757889" />
	</node>
	<node lat="59.982102779116765" lon="9.319011108028402" id="-35700">
		<tag k="name" v="Veamyr" />
		<tag k="natural" v="wetland" />
		<tag k="ssr:stedsnr" v="757894" />
	</node>
	<node lat="59.97404444677012" lon="9.322600006373998" id="-35703">
		<tag k="name" v="Hestemyr" />
		<tag k="natural" v="wetland" />
		<tag k="ssr:stedsnr" v="757942" />
	</node>
	<node lat="59.97035277821194" lon="9.356644443052868" id="-35704">
		<tag k="name" v="Kjommesetermyre" />
		<tag k="natural" v="wetland" />
		<tag k="ssr:stedsnr" v="757946" />
	</node>
	<node lat="60.01617619314571" lon="9.38850730654843" id="-35735">
		<tag k="name" v="Ånestjønnmyre" />
		<tag k="natural" v="wetland" />
		<tag k="ssr:stedsnr" v="817732" />
	</node>
	<node lat="60.0058972215697" lon="9.190327777760645" id="-35737">
		<tag k="name" v="Bjørnemyran" />
		<tag k="natural" v="wetland" />
		<tag k="ssr:stedsnr" v="817848" />
	</node>
	<node lat="60.07801110757616" lon="9.184441675400492" id="-35744">
		<tag k="name" v="Langemyr" />
		<tag k="natural" v="wetland" />
		<tag k="ssr:stedsnr" v="818508" />
	</node>
	<node lat="60.04840833756587" lon="9.238005557938552" id="-35798">
		<tag k="landuse" v="meadow" />
		<tag k="name" v="Storekøs" />
		<tag k="ssr:stedsnr" v="878151" />
	</node>
	<node lat="59.99671389101261" lon="9.293363895996455" id="-35806">
		<tag k="name" v="Myre" />
		<tag k="natural" v="wetland" />
		<tag k="ssr:stedsnr" v="878620" />
	</node>
	<node lat="60.016525002883284" lon="9.286930564004475" id="-35816">
		<tag k="landuse" v="meadow" />
		<tag k="name" v="Vårfjøskøse" />
		<tag k="ssr:stedsnr" v="878784" />
	</node>
	<node lat="59.92719444093689" lon="9.308605554555994" id="-35817">
		<tag k="historic" v="shieling" />
		<tag k="name" v="Gøyveton" />
		<tag k="place" v="locality" />
		<tag k="ssr:stedsnr" v="878791" />
	</node>
	<node lat="59.94462777338528" lon="9.31003610291973" id="-35819">
		<tag k="landuse" v="meadow" />
		<tag k="name" v="Torsbråtån" />
		<tag k="ssr:stedsnr" v="878800" />
	</node>
	<node lat="60.00847499967738" lon="9.223374999853656" id="-35821">
		<tag k="name" v="Køytemyr" />
		<tag k="natural" v="wetland" />
		<tag k="ssr:stedsnr" v="878834" />
	</node>
	<node lat="59.97238611524898" lon="9.36198611393976" id="-35823">
		<tag k="historic" v="shieling" />
		<tag k="name" v="Gyltevollen" />
		<tag k="place" v="locality" />
		<tag k="ssr:stedsnr" v="878837" />
	</node>
	<node lat="60.07021944427012" lon="9.120747223412243" id="-35838">
		<tag k="landuse" v="meadow" />
		<tag k="name" v="Langkøs" />
		<tag k="ssr:stedsnr" v="939534" />
	</node>
	<node lat="60.11094722447763" lon="9.194299998418678" id="-35846">
		<tag k="name" v="Langemyr" />
		<tag k="natural" v="wetland" />
		<tag k="ssr:stedsnr" v="939314" />
	</node>
	<node lat="59.98982500022693" lon="9.296761103962949" id="-35853">
		<tag k="name" v="Deilesmyr" />
		<tag k="natural" v="wetland" />
		<tag k="ssr:stedsnr" v="939568" />
	</node>
	<node lat="60.00938611553754" lon="9.402674999721407" id="-35855">
		<tag k="name" v="Rundhaugmyre" />
		<tag k="natural" v="wetland" />
		<tag k="ssr:stedsnr" v="939718" />
	</node>
	<node lat="60.024011109541966" lon="9.257325002959368" id="-35858">
		<tag k="name" v="Katten" />
		<tag k="place" v="locality" />
		<tag k="ssr:stedsnr" v="939832" />
	</node>
	<node lat="60.0316833292687" lon="9.224372223507729" id="-35865">
		<tag k="name" v="Guterud" />
		<tag k="place" v="locality" />
		<tag k="ssr:stedsnr" v="939859" />
	</node>
	<node lat="59.9138777780438" lon="9.348438886516233" id="-35866">
		<tag k="landuse" v="meadow" />
		<tag k="name" v="Engane" />
		<tag k="ssr:stedsnr" v="939863" />
	</node>
</osm>
