<?xml version="1.0" encoding="UTF-8"?>
<osm generator="osmapis" version="0.6">
	<node id="-30941" lat="60.0031180331" lon="8.9686818567">
		<tag k="fixme" v="consider boundary=protected_area and relevant protect_class if not nature reserve" />
		<tag k="leisure" v="nature_reserve" />
		<tag k="name" v="Skirvedalen naturreservat" />
		<tag k="ssr:stedsnr" v="1077527" />
	</node>
	<node id="-30940" lat="60.1471840382" lon="9.23201670698">
		<tag k="fixme" v="consider boundary=protected_area and relevant protect_class if not nature reserve" />
		<tag k="leisure" v="nature_reserve" />
		<tag k="name" v="Trillemarka-Rollagsfjell naturreservat" />
		<tag k="ssr:stedsnr" v="981232" />
	</node>
	<node id="-30891" lat="59.8896165362" lon="9.28125814153">
		<tag k="fixme" v="consider boundary=protected_area and relevant protect_class if not nature reserve" />
		<tag k="leisure" v="nature_reserve" />
		<tag k="name" v="LangÃ¥sen naturreservat" />
		<tag k="ssr:stedsnr" v="981228" />
	</node>
</osm>
