<?xml version="1.0" encoding="UTF-8"?>
<<<<<<< HEAD
<osm version="0.6" generator="osmapis">
	<node lat="59.91668333687611" lon="9.19611388149547" id="-14572">
		<tag k="name" v="Buåe" />
		<tag k="ssr:stedsnr" v="4514" />
		<tag k="waterway" v="stream" />
	</node>
	<node lat="59.969374238909786" lon="9.146072942656211" id="-14574">
		<tag k="name" v="Steintjønn" />
		<tag k="natural" v="water" />
		<tag k="ssr:stedsnr" v="4616" />
	</node>
	<node lat="59.98766944012017" lon="9.042311115725358" id="-14576">
		<tag k="name" v="Viergrøbekken" />
		<tag k="ssr:stedsnr" v="4937" />
		<tag k="waterway" v="stream" />
	</node>
	<node lat="60.0031333315225" lon="9.117238893249148" id="-14577">
		<tag k="name" v="Fjordungsbekken" />
		<tag k="ssr:stedsnr" v="4939" />
		<tag k="waterway" v="stream" />
	</node>
	<node lat="60.09671388963277" lon="9.321016668100155" id="-14579">
		<tag k="name" v="Vestmannåa" />
		<tag k="ssr:stedsnr" v="5108" />
		<tag k="waterway" v="stream" />
	</node>
	<node lat="60.00842515865415" lon="9.001839411127285" id="-14581">
		<tag k="name" v="Vestre Ingebjørgtjønn" />
		<tag k="natural" v="water" />
		<tag k="ssr:stedsnr" v="5317" />
	</node>
	<node lat="60.15005000205713" lon="9.211777785099775" id="-14582">
		<tag k="name" v="Repetjønn" />
		<tag k="natural" v="water" />
		<tag k="ssr:stedsnr" v="5503" />
	</node>
	<node lat="60.07294999893389" lon="9.10216388684923" id="-14583">
		<tag k="name" v="Skavlembekken" />
		<tag k="ssr:stedsnr" v="5703" />
		<tag k="waterway" v="stream" />
	</node>
	<node lat="60.0506785655763" lon="9.153215314627477" id="-14592">
		<tag k="name" v="Gåsetjønn" />
		<tag k="natural" v="water" />
		<tag k="ssr:stedsnr" v="29330" />
	</node>
	<node lat="59.978511110930434" lon="9.33563888438213" id="-14612">
		<tag k="name" v="Berganbekken" />
		<tag k="ssr:stedsnr" v="29885" />
		<tag k="waterway" v="stream" />
	</node>
	<node lat="59.94023332956268" lon="9.376466667545666" id="-14618">
		<tag k="name" v="Helletjønnan" />
		<tag k="natural" v="water" />
		<tag k="ssr:stedsnr" v="65115" />
		<tag k="water" v="lake" />
	</node>
	<node lat="60.01698611003155" lon="9.387541661056321" id="-14632">
		<tag k="name" v="Ånestjønn" />
		<tag k="natural" v="water" />
		<tag k="ssr:stedsnr" v="89734" />
		<tag k="water" v="pond" />
	</node>
	<node lat="59.99189385232467" lon="9.043842677398507" id="-14638">
		<tag k="name" v="Størrtjønn" />
		<tag k="natural" v="water" />
		<tag k="ssr:stedsnr" v="90430" />
	</node>
	<node lat="59.98869722072656" lon="9.309855546975891" id="-14640">
		<tag k="name" v="Liåe" />
		<tag k="ssr:stedsnr" v="246260" />
		<tag k="waterway" v="stream" />
	</node>
	<node lat="59.99676111193233" lon="9.324083338305407" id="-14649">
		<tag k="name" v="Bjørndalsbekken" />
		<tag k="ssr:stedsnr" v="247009" />
		<tag k="waterway" v="stream" />
	</node>
	<node lat="60.044066169652545" lon="9.37655679493302" id="-14650">
		<tag k="name" v="Grønlitjønn" />
		<tag k="natural" v="water" />
		<tag k="ssr:stedsnr" v="247048" />
	</node>
	<node lat="59.94100280954454" lon="9.25377437044996" id="-14652">
		<tag k="name" v="Svartekulp" />
		<tag k="natural" v="water" />
		<tag k="ssr:stedsnr" v="247135" />
	</node>
	<node lat="59.880902776208" lon="9.249311109388497" id="-14653">
		<tag k="name" v="Hukabekken" />
		<tag k="ssr:stedsnr" v="247240" />
		<tag k="waterway" v="stream" />
	</node>
	<node lat="60.04249444050039" lon="9.061255557859871" id="-14663">
		<tag k="name" v="Åsmobekk" />
		<tag k="ssr:stedsnr" v="247643" />
		<tag k="waterway" v="stream" />
	</node>
	<node lat="59.973963890802864" lon="9.069397226353715" id="-14667">
		<tag k="name" v="Grunnløken" />
		<tag k="place" v="locality" />
		<tag k="ssr:stedsnr" v="247886" />
	</node>
	<node lat="60.01735833273428" lon="9.30653332813129" id="-14672">
		<tag k="name" v="Fyrisetbekken" />
		<tag k="ssr:stedsnr" v="125022" />
		<tag k="waterway" v="stream" />
	</node>
	<node lat="59.98453139176256" lon="9.46006607698236" id="-14675">
		<tag k="name" v="Ellingstjønn" />
		<tag k="natural" v="water" />
		<tag k="ssr:stedsnr" v="125309" />
	</node>
	<node lat="59.99210749829889" lon="9.370263163228483" id="-14677">
		<tag k="name" v="Tjønnesetertjønn" />
		<tag k="natural" v="water" />
		<tag k="ssr:stedsnr" v="125312" />
	</node>
	<node lat="60.118163885075546" lon="9.209097220477585" id="-14682">
		<tag k="name" v="Skjolbekken" />
		<tag k="ssr:stedsnr" v="125549" />
		<tag k="waterway" v="stream" />
	</node>
	<node lat="59.94163333599265" lon="9.145391663098346" id="-14684">
		<tag k="name" v="Breivik" />
		<tag k="natural" v="bay" />
		<tag k="ssr:stedsnr" v="125569" />
	</node>
	<node lat="60.06635497347332" lon="9.294317191424394" id="-14690">
		<tag k="name" v="Myklevatn" />
		<tag k="natural" v="water" />
		<tag k="old_name" v="Myke V." />
		<tag k="ssr:stedsnr" v="126085" />
		<tag k="water" v="lake" />
	</node>
	<node lat="60.01660000436286" lon="9.06103333510712" id="-14691">
		<tag k="name" v="Svarteløkbekken" />
		<tag k="ssr:stedsnr" v="126344" />
		<tag k="waterway" v="stream" />
	</node>
	<node lat="59.94218888478138" lon="9.186947226777404" id="-14716">
		<tag k="name" v="Sindertangen" />
		<tag k="natural" v="cape" />
		<tag k="ssr:stedsnr" v="150776" />
	</node>
	<node lat="59.92766389221644" lon="9.23749443741445" id="-14723">
		<tag k="name" v="Skriubekken" />
		<tag k="ssr:stedsnr" v="185143" />
		<tag k="waterway" v="stream" />
	</node>
	<node lat="59.91593619720621" lon="9.293202673147057" id="-14725">
		<tag k="name" v="Stabekktjønn" />
		<tag k="natural" v="water" />
		<tag k="ssr:stedsnr" v="186194" />
	</node>
	<node lat="60.04738889086833" lon="9.02072222093817" id="-14727">
		<tag k="name" v="Lisetåe" />
		<tag k="ssr:stedsnr" v="186676" />
		<tag k="waterway" v="stream" />
	</node>
	<node lat="60.102411109944086" lon="9.209024998892563" id="-14730">
		<tag k="name" v="Damtjønnbekken" />
		<tag k="ssr:stedsnr" v="186743" />
		<tag k="waterway" v="stream" />
	</node>
	<node lat="60.13946666899618" lon="9.21105555628632" id="-14736">
		<tag k="name" v="Fjellbekk" />
		<tag k="ssr:stedsnr" v="187477" />
		<tag k="waterway" v="stream" />
	</node>
	<node lat="60.068152777302146" lon="9.264375002083012" id="-14748">
		<tag k="name" v="Vestholmen" />
		<tag k="place" v="islet" />
		<tag k="ssr:stedsnr" v="211106" />
	</node>
	<node lat="60.05987777918586" lon="8.999002781355022" id="-14754">
		<tag k="name" v="Tveittjønnbekken" />
		<tag k="ssr:stedsnr" v="211133" />
		<tag k="waterway" v="stream" />
	</node>
	<node lat="60.02778888776987" lon="8.991413883063421" id="-14760">
		<tag k="name" v="Daggrøtjønnan" />
		<tag k="natural" v="water" />
		<tag k="ssr:stedsnr" v="211408" />
		<tag k="water" v="lake" />
	</node>
	<node lat="59.934699998033054" lon="9.256830561735532" id="-14777">
		<tag k="name" v="Østre Hågåtjønn" />
		<tag k="natural" v="water" />
		<tag k="ssr:stedsnr" v="211780" />
	</node>
	<node lat="60.026241665986426" lon="9.007600006853043" id="-14787">
		<tag k="name" v="Kråkåstjønn" />
		<tag k="natural" v="water" />
		<tag k="ssr:stedsnr" v="271141" />
	</node>
	<node lat="60.092152775602294" lon="9.22892222206682" id="-14791">
		<tag k="name" v="Venekolltjønn" />
		<tag k="natural" v="water" />
		<tag k="ssr:stedsnr" v="271388" />
	</node>
	<node lat="60.04119999729142" lon="9.192152773358297" id="-14798">
		<tag k="name" v="Oreholmen" />
		<tag k="place" v="islet" />
		<tag k="ssr:stedsnr" v="271879" />
	</node>
	<node lat="60.01914444177936" lon="9.243730564052184" id="-14801">
		<tag k="name" v="Holmanplass" />
		<tag k="natural" v="cape" />
		<tag k="ssr:stedsnr" v="271840" />
	</node>
	<node lat="60.09501666465168" lon="9.25527222007076" id="-14804">
		<tag k="name" v="Øvre Bekartjønn" />
		<tag k="natural" v="water" />
		<tag k="ssr:stedsnr" v="453385" />
	</node>
	<node lat="59.92069356916628" lon="9.355435991133703" id="-14807">
		<tag k="name" v="Tjønnringen" />
		<tag k="natural" v="water" />
		<tag k="ssr:stedsnr" v="246204" />
	</node>
	<node lat="59.97093055249217" lon="9.319647224616922" id="-14811">
		<tag k="name" v="Stabbåe" />
		<tag k="ssr:stedsnr" v="246285" />
		<tag k="waterway" v="stream" />
	</node>
	<node lat="59.95786666475834" lon="9.27728888137465" id="-14814">
		<tag k="name" v="Ragnhildsrudbekken" />
		<tag k="ssr:stedsnr" v="246312" />
		<tag k="waterway" v="stream" />
	</node>
	<node lat="59.98654721996959" lon="9.205552784921403" id="-14815">
		<tag k="name" v="Jakobstjønn" />
		<tag k="natural" v="water" />
		<tag k="ssr:stedsnr" v="246866" />
	</node>
	<node lat="60.010385058100354" lon="9.0395901578157" id="-14819">
		<tag k="name" v="Nordre Kjølvatn" />
		<tag k="natural" v="water" />
		<tag k="ssr:stedsnr" v="247267" />
	</node>
	<node lat="59.99313453595864" lon="9.01895360195537" id="-14825">
		<tag k="name" v="Søre Krokvatnet" />
		<tag k="natural" v="water" />
		<tag k="ssr:stedsnr" v="247906" />
	</node>
	<node lat="59.9522833303318" lon="9.315097230065652" id="-14834">
		<tag k="name" v="Bergseidelve" />
		<tag k="ssr:stedsnr" v="454799" />
		<tag k="waterway" v="stream" />
	</node>
	<node lat="60.00220555168198" lon="9.414249999431336" id="-14875">
		<tag k="name" v="Sauetjønnan" />
		<tag k="natural" v="water" />
		<tag k="ssr:stedsnr" v="271771" />
		<tag k="water" v="lake" />
	</node>
	<node lat="60.04766666782133" lon="9.162927771767471" id="-14878">
=======
<osm generator="osmapis" version="0.6">
	<node id="-292855" lat="60.0231527779" lon="9.14714722473">
		<tag k="name" v="Medåe" />
		<tag k="ssr:stedsnr" v="672292" />
		<tag k="waterway" v="stream" />
	</node>
	<node id="-292850" lat="60.0439614585" lon="9.3618241026">
		<tag k="name" v="Vardetjønn" />
		<tag k="natural" v="water" />
		<tag k="ssr:stedsnr" v="672058" />
	</node>
	<node id="-292849" lat="60.0454061696" lon="9.32719190268">
		<tag k="name" v="Rollagstjønn" />
		<tag k="natural" v="water" />
		<tag k="ssr:stedsnr" v="672056" />
	</node>
	<node id="-292846" lat="60.0331749992" lon="9.31938889691">
		<tag k="name" v="Søråe" />
		<tag k="ssr:stedsnr" v="672035" />
		<tag k="waterway" v="stream" />
	</node>
	<node id="-292844" lat="60.0128361146" lon="9.25179722819">
		<tag k="name" v="Okseåe" />
		<tag k="ssr:stedsnr" v="672027" />
		<tag k="waterway" v="stream" />
	</node>
	<node id="-292841" lat="59.9983144338" lon="9.01772238816">
		<tag k="name" v="Størrtjønne" />
		<tag k="natural" v="water" />
		<tag k="ssr:stedsnr" v="671911" />
	</node>
	<node id="-292840" lat="59.9762333357" lon="9.07698056176">
		<tag k="name" v="Nordre Vorsetvatn" />
		<tag k="natural" v="water" />
		<tag k="ssr:stedsnr" v="671907" />
	</node>
	<node id="-292839" lat="59.9742811658" lon="9.0382523829">
		<tag k="name" v="Rjupetjønn" />
		<tag k="natural" v="water" />
		<tag k="ssr:stedsnr" v="671897" />
	</node>
	<node id="-292832" lat="59.9587944445" lon="9.17621388056">
		<tag k="name" v="Nysetertjønnan" />
		<tag k="natural" v="water" />
		<tag k="ssr:stedsnr" v="671574" />
		<tag k="water" v="lake" />
	</node>
	<node id="-292831" lat="59.9400849038" lon="9.17266157908">
		<tag k="name" v="Sørkjevatn" />
		<tag k="natural" v="water" />
		<tag k="old_name" v="Sorkje(vandet)" />
		<tag k="ssr:stedsnr" v="671556" />
		<tag k="water" v="lake" />
	</node>
	<node id="-292827" lat="60.1188606405" lon="9.13394674439">
		<tag k="name" v="Markavatnet" />
		<tag k="natural" v="water" />
		<tag k="ssr:stedsnr" v="671540" />
	</node>
	<node id="-292822" lat="59.9238605671" lon="9.26267424638">
		<tag k="name" v="Fiskeløysen" />
		<tag k="natural" v="water" />
		<tag k="ssr:stedsnr" v="671163" />
	</node>
	<node id="-292817" lat="59.9698388921" lon="9.3651694395">
		<tag k="name" v="Fløtterudtjønn" />
		<tag k="natural" v="water" />
		<tag k="ssr:stedsnr" v="454823" />
	</node>
	<node id="-292814" lat="59.9535888923" lon="9.31092778606">
		<tag k="name" v="Skjærøye" />
		<tag k="place" v="island" />
		<tag k="ssr:stedsnr" v="454811" />
	</node>
	<node id="-292812" lat="60.0684055598" lon="9.11959166941">
		<tag k="name" v="Trollhøl" />
		<tag k="place" v="locality" />
		<tag k="ssr:stedsnr" v="454517" />
	</node>
	<node id="-292804" lat="60.0699661366" lon="9.18237490881">
		<tag k="name" v="Trytetjønn" />
		<tag k="natural" v="water" />
		<tag k="ssr:stedsnr" v="430720" />
	</node>
	<node id="-292797" lat="60.0947305525" lon="9.13701666997">
		<tag k="name" v="Grasbekktjønn" />
		<tag k="natural" v="water" />
		<tag k="ssr:stedsnr" v="429703" />
	</node>
	<node id="-292795" lat="60.0581646943" lon="8.99237293527">
		<tag k="name" v="Tveittjønnan" />
		<tag k="natural" v="water" />
		<tag k="ssr:stedsnr" v="429619" />
		<tag k="water" v="lake" />
	</node>
	<node id="-292784" lat="60.0057117192" lon="9.35646993515">
		<tag k="name" v="Bufjelltjønne" />
		<tag k="natural" v="water" />
		<tag k="ssr:stedsnr" v="429008" />
	</node>
	<node id="-292783" lat="59.9696833371" lon="9.27955000017">
		<tag k="name" v="Stærnesbekken" />
		<tag k="old_name" v="Sternes B:" />
		<tag k="ssr:stedsnr" v="428320" />
		<tag k="waterway" v="stream" />
	</node>
	<node id="-292779" lat="59.9830833354" lon="9.36335556034">
		<tag k="name" v="Svartekulp" />
		<tag k="natural" v="water" />
		<tag k="ssr:stedsnr" v="514989" />
	</node>
	<node id="-292776" lat="59.9113194457" lon="9.3470777719">
		<tag k="name" v="Vabekk" />
		<tag k="ssr:stedsnr" v="514838" />
		<tag k="waterway" v="stream" />
	</node>
	<node id="-292770" lat="59.953883333" lon="9.29917776972">
		<tag k="name" v="Øvre Løken" />
		<tag k="place" v="locality" />
		<tag k="ssr:stedsnr" v="514805" />
	</node>
	<node id="-292768" lat="59.9272277804" lon="9.21412778064">
		<tag k="name" v="Sandtjønnbekken" />
		<tag k="ssr:stedsnr" v="514778" />
		<tag k="waterway" v="stream" />
	</node>
	<node id="-292766" lat="59.914158331" lon="9.28039167441">
		<tag k="name" v="Haugsetbekken" />
		<tag k="ssr:stedsnr" v="514774" />
		<tag k="waterway" v="stream" />
	</node>
	<node id="-292764" lat="59.9478416697" lon="9.37926944544">
		<tag k="name" v="Brattvollbekken" />
		<tag k="ssr:stedsnr" v="514762" />
		<tag k="waterway" v="stream" />
	</node>
	<node id="-292757" lat="60.0128698854" lon="9.32646373532">
		<tag k="name" v="Narvestjønn" />
		<tag k="natural" v="water" />
		<tag k="ssr:stedsnr" v="514726" />
	</node>
	<node id="-292754" lat="59.986652779" lon="9.19480832757">
		<tag k="name" v="Jakobstjønnbekken" />
		<tag k="ssr:stedsnr" v="514877" />
		<tag k="waterway" v="stream" />
	</node>
	<node id="-292747" lat="60.0596666681" lon="9.36518333154">
		<tag k="name" v="Øvre Tråtjønn" />
		<tag k="natural" v="water" />
		<tag k="old_name" v="Trøentjern" />
		<tag k="ssr:stedsnr" v="514402" />
	</node>
	<node id="-292743" lat="60.0461638914" lon="9.27901110345">
		<tag k="name" v="Storhovdtjønn" />
		<tag k="natural" v="water" />
		<tag k="ssr:stedsnr" v="514207" />
	</node>
	<node id="-292742" lat="60.058624288" lon="9.19346547842">
		<tag k="name" v="Blommetjønn" />
		<tag k="natural" v="water" />
		<tag k="ssr:stedsnr" v="514176" />
	</node>
	<node id="-292736" lat="60.0161555561" lon="9.36316389074">
		<tag k="name" v="Donhølen" />
		<tag k="natural" v="water" />
		<tag k="ssr:stedsnr" v="509364" />
	</node>
	<node id="-292726" lat="59.9832083315" lon="9.252511104">
		<tag k="name" v="Trettetjønn" />
		<tag k="natural" v="water" />
		<tag k="ssr:stedsnr" v="393562" />
	</node>
	<node id="-292725" lat="60.0466611146" lon="9.15043054997">
		<tag k="name" v="Mykstufoss" />
		<tag k="natural" v="waterfall" />
		<tag k="ssr:stedsnr" v="393314" />
	</node>
	<node id="-292714" lat="60.0395916677" lon="9.32715833903">
		<tag k="name" v="Vesle Rollagstjønn" />
		<tag k="natural" v="water" />
		<tag k="ssr:stedsnr" v="392707" />
	</node>
	<node id="-292713" lat="60.0884305575" lon="9.23411111208">
		<tag k="name" v="Bikkjetjønn" />
		<tag k="natural" v="water" />
		<tag k="ssr:stedsnr" v="392422" />
	</node>
	<node id="-292711" lat="60.0752555572" lon="9.26402500191">
		<tag k="name" v="Stuttåe" />
		<tag k="ssr:stedsnr" v="392109" />
		<tag k="waterway" v="stream" />
	</node>
	<node id="-292704" lat="59.9050666626" lon="9.25737499708">
		<tag k="name" v="Sølvtjønn" />
		<tag k="natural" v="water" />
		<tag k="ssr:stedsnr" v="368243" />
	</node>
	<node id="-292699" lat="60.0673444415" lon="9.02388610822">
		<tag k="name" v="Nordre Ruståe" />
		<tag k="ssr:stedsnr" v="490726" />
		<tag k="waterway" v="stream" />
	</node>
	<node id="-292694" lat="60.0350194431" lon="9.01885278362">
		<tag k="name" v="Deveggbekken" />
		<tag k="ssr:stedsnr" v="490341" />
		<tag k="waterway" v="stream" />
	</node>
	<node id="-292691" lat="60.0196861118" lon="9.04915278089">
		<tag k="name" v="Kjølvassbekken" />
		<tag k="ssr:stedsnr" v="490327" />
		<tag k="waterway" v="stream" />
	</node>
	<node id="-292690" lat="60.0187249967" lon="9.03558333207">
		<tag k="name" v="Trytetjønn" />
		<tag k="natural" v="water" />
		<tag k="ssr:stedsnr" v="490322" />
	</node>
	<node id="-292686" lat="60.0134555585" lon="9.01371944386">
		<tag k="name" v="Surtetjønn" />
		<tag k="natural" v="water" />
		<tag k="ssr:stedsnr" v="490300" />
	</node>
	<node id="-292682" lat="59.9980227266" lon="9.2168166807">
		<tag k="name" v="Elgtjønn" />
		<tag k="natural" v="water" />
		<tag k="ssr:stedsnr" v="489927" />
	</node>
	<node id="-292680" lat="59.9821555521" lon="9.1287444359">
		<tag k="name" v="Skjerbrekkdammen" />
		<tag k="natural" v="water" />
		<tag k="ssr:stedsnr" v="489892" />
	</node>
	<node id="-292679" lat="59.8760611147" lon="9.19796110887">
		<tag k="fixme" v="multiple name tags, choose one and add the other to alt_name" />
		<tag k="name" v="Åklitjønnan;Åklivatna" />
		<tag k="natural" v="water" />
		<tag k="ssr:stedsnr" v="489745" />
		<tag k="water" v="lake" />
	</node>
	<node id="-292677" lat="60.0623999964" lon="9.03525277702">
		<tag k="name" v="Ruståe" />
		<tag k="ssr:stedsnr" v="489686" />
		<tag k="waterway" v="stream" />
	</node>
	<node id="-292673" lat="60.0523024379" lon="9.02629438173">
		<tag k="name" v="Lauvhovdtjønn" />
		<tag k="natural" v="water" />
		<tag k="ssr:stedsnr" v="489671" />
	</node>
	<node id="-292670" lat="59.9661944471" lon="9.09286111537">
		<tag k="name" v="Kroktjønn" />
		<tag k="natural" v="water" />
		<tag k="ssr:stedsnr" v="489627" />
	</node>
	<node id="-292668" lat="60.1090299576" lon="9.21660823647">
		<tag k="name" v="Damtjønn" />
		<tag k="natural" v="water" />
		<tag k="ssr:stedsnr" v="489564" />
	</node>
	<node id="-292666" lat="60.0282388933" lon="9.12066110981">
		<tag k="name" v="Nørdsteåe" />
		<tag k="ssr:stedsnr" v="489368" />
		<tag k="waterway" v="river" />
	</node>
	<node id="-292665" lat="59.9929134816" lon="9.22255282987">
		<tag k="name" v="Ståvåfjelltjønn" />
		<tag k="natural" v="water" />
		<tag k="ssr:stedsnr" v="489294" />
	</node>
	<node id="-292660" lat="59.9326777818" lon="9.36023334157">
		<tag k="name" v="Liarbekken" />
		<tag k="ssr:stedsnr" v="489184" />
		<tag k="waterway" v="stream" />
	</node>
	<node id="-292659" lat="59.9339835264" lon="9.24819246024">
		<tag k="name" v="Vestre Hågåtjønn" />
		<tag k="natural" v="water" />
		<tag k="ssr:stedsnr" v="489155" />
	</node>
	<node id="-292658" lat="59.9507499987" lon="9.28917778324">
		<tag k="name" v="Sjåframbekken" />
		<tag k="ssr:stedsnr" v="489152" />
		<tag k="waterway" v="stream" />
	</node>
	<node id="-292649" lat="60.0105277758" lon="9.32325278088">
		<tag k="name" v="Ambjørgtjønn" />
		<tag k="natural" v="water" />
		<tag k="ssr:stedsnr" v="332723" />
	</node>
	<node id="-292647" lat="60.0059907209" lon="9.36792810877">
		<tag k="name" v="Barketjønn" />
		<tag k="natural" v="water" />
		<tag k="ssr:stedsnr" v="332713" />
	</node>
	<node id="-292640" lat="59.9404750024" lon="9.13935555336">
		<tag k="name" v="Breivikbekken" />
		<tag k="ssr:stedsnr" v="332619" />
		<tag k="waterway" v="stream" />
	</node>
	<node id="-292635" lat="59.9930305537" lon="9.00750000723">
		<tag k="name" v="Austmannbubekken" />
		<tag k="ssr:stedsnr" v="332436" />
		<tag k="waterway" v="stream" />
	</node>
	<node id="-292625" lat="60.0344602554" lon="9.00662967032">
		<tag k="name" v="Deveggtjønn" />
		<tag k="natural" v="water" />
		<tag k="ssr:stedsnr" v="332102" />
	</node>
	<node id="-292604" lat="59.9730138916" lon="9.0427277783">
		<tag k="name" v="Steintjønn" />
		<tag k="natural" v="water" />
		<tag k="ssr:stedsnr" v="272164" />
	</node>
	<node id="-292603" lat="60.0022055517" lon="9.41424999943">
		<tag k="name" v="Sauetjønnan" />
		<tag k="natural" v="water" />
		<tag k="ssr:stedsnr" v="271771" />
		<tag k="water" v="lake" />
	</node>
	<node id="-292593" lat="60.0376777758" lon="9.3983027733">
		<tag k="name" v="Grunntjønnelve" />
		<tag k="ssr:stedsnr" v="454930" />
		<tag k="waterway" v="river" />
	</node>
	<node id="-292583" lat="59.9522833303" lon="9.31509723007">
		<tag k="name" v="Bergseidelve" />
		<tag k="ssr:stedsnr" v="454799" />
		<tag k="waterway" v="stream" />
	</node>
	<node id="-292562" lat="60.0377502729" lon="9.33061049965">
		<tag k="name" v="Åkroken" />
		<tag k="natural" v="water" />
		<tag k="ssr:stedsnr" v="453670" />
		<tag k="water" v="pond" />
	</node>
	<node id="-292559" lat="60.0950166647" lon="9.25527222007">
		<tag k="name" v="Øvre Bekartjønn" />
		<tag k="natural" v="water" />
		<tag k="ssr:stedsnr" v="453385" />
	</node>
	<node id="-292552" lat="59.9739638908" lon="9.06939722635">
		<tag k="name" v="Grunnløken" />
		<tag k="place" v="locality" />
		<tag k="ssr:stedsnr" v="247886" />
	</node>
	<node id="-292550" lat="59.993134536" lon="9.01895360196">
		<tag k="name" v="Søre Krokvatnet" />
		<tag k="natural" v="water" />
		<tag k="ssr:stedsnr" v="247906" />
	</node>
	<node id="-292547" lat="60.0103850581" lon="9.03959015782">
		<tag k="name" v="Nordre Kjølvatn" />
		<tag k="natural" v="water" />
		<tag k="ssr:stedsnr" v="247267" />
	</node>
	<node id="-292544" lat="59.9206935692" lon="9.35543599113">
		<tag k="name" v="Tjønnringen" />
		<tag k="natural" v="water" />
		<tag k="ssr:stedsnr" v="246204" />
	</node>
	<node id="-292534" lat="60.0115166692" lon="9.18470833933">
		<tag k="name" v="Nirisetbekken" />
		<tag k="ssr:stedsnr" v="211722" />
		<tag k="waterway" v="stream" />
	</node>
	<node id="-292531" lat="60.0277888878" lon="8.99141388306">
		<tag k="name" v="Daggrøtjønnan" />
		<tag k="natural" v="water" />
		<tag k="ssr:stedsnr" v="211408" />
		<tag k="water" v="lake" />
	</node>
	<node id="-292526" lat="60.0598777792" lon="8.99900278136">
		<tag k="name" v="Tveittjønnbekken" />
		<tag k="ssr:stedsnr" v="211133" />
		<tag k="waterway" v="stream" />
	</node>
	<node id="-292520" lat="60.0681527773" lon="9.26437500208">
		<tag k="name" v="Vestholmen" />
		<tag k="place" v="islet" />
		<tag k="ssr:stedsnr" v="211106" />
	</node>
	<node id="-292516" lat="59.9276638922" lon="9.23749443741">
		<tag k="name" v="Skriubekken" />
		<tag k="ssr:stedsnr" v="185143" />
		<tag k="waterway" v="stream" />
	</node>
	<node id="-292512" lat="59.9350916631" lon="9.3304666686">
		<tag k="name" v="Kvernhusroe" />
		<tag k="natural" v="bay" />
		<tag k="ssr:stedsnr" v="150734" />
	</node>
	<node id="-292493" lat="59.9075833312" lon="9.32761388199">
		<tag k="name" v="Åbogen" />
		<tag k="place" v="locality" />
		<tag k="ssr:stedsnr" v="272837" />
	</node>
	<node id="-292480" lat="60.0476666678" lon="9.16292777177">
>>>>>>> e1d4bc35ff8a6074a6f2e91616a996b547c36f15
		<tag k="name" v="Fivildokk" />
		<tag k="natural" v="beach" />
		<tag k="old_name" v="Frivildokk" />
		<tag k="ssr:stedsnr" v="272295" />
<<<<<<< HEAD
	</node>
	<node lat="59.9546166687743" lon="9.30231110238439" id="-14898">
		<tag k="name" v="Storåe" />
		<tag k="ssr:stedsnr" v="271934" />
		<tag k="waterway" v="river" />
	</node>
	<node lat="59.97880833309257" lon="9.434338895539712" id="-14900">
		<tag k="name" v="Ormetjønnan" />
		<tag k="natural" v="water" />
		<tag k="ssr:stedsnr" v="307319" />
		<tag k="water" v="lake" />
	</node>
	<node lat="60.10946944273536" lon="9.184911110515339" id="-14904">
		<tag k="name" v="Karvetjønn" />
		<tag k="natural" v="water" />
		<tag k="ssr:stedsnr" v="307551" />
	</node>
	<node lat="60.117502780474645" lon="9.194599993810277" id="-14905">
		<tag k="name" v="Langevatn" />
		<tag k="natural" v="water" />
		<tag k="ssr:stedsnr" v="307558" />
	</node>
	<node lat="60.01334724474082" lon="9.056220003852522" id="-14908">
		<tag k="name" v="Nordre Svarteløken" />
		<tag k="natural" v="water" />
		<tag k="ssr:stedsnr" v="308259" />
	</node>
	<node lat="60.03446025538715" lon="9.006629670323955" id="-14913">
		<tag k="name" v="Deveggtjønn" />
		<tag k="natural" v="water" />
		<tag k="ssr:stedsnr" v="332102" />
	</node>
	<node lat="60.03080091966655" lon="9.027319703468404" id="-14920">
		<tag k="name" v="Gversettjønn" />
		<tag k="natural" v="water" />
		<tag k="ssr:stedsnr" v="332400" />
	</node>
	<node lat="59.99026944255481" lon="9.281633340069783" id="-14922">
		<tag k="name" v="Langetangen" />
		<tag k="natural" v="cape" />
		<tag k="ssr:stedsnr" v="332552" />
	</node>
	<node lat="60.02498055697655" lon="9.152641670438088" id="-14925">
		<tag k="name" v="Bakkebekken" />
		<tag k="ssr:stedsnr" v="332649" />
		<tag k="waterway" v="stream" />
	</node>
	<node lat="60.01939166718165" lon="9.211688883801399" id="-14932">
		<tag k="name" v="Hekteåe" />
		<tag k="ssr:stedsnr" v="332801" />
		<tag k="waterway" v="stream" />
	</node>
	<node lat="59.49672500301199" lon="9.926219438829566" id="-14942">
		<tag k="alt_name" v="Numedalslågen" />
		<tag k="name" v="Lågen" />
		<tag k="ssr:stedsnr" v="366578" />
		<tag k="waterway" v="river" />
	</node>
	<node lat="60.11507499706294" lon="9.259872219769909" id="-14954">
		<tag k="alt_name" v="Grasbekken" />
		<tag k="name" v="Grasbekk" />
		<tag k="ssr:stedsnr" v="368409" />
		<tag k="waterway" v="stream" />
	</node>
	<node lat="59.99930000243547" lon="9.08586389010103" id="-14961">
		<tag k="name" v="Sundtjønnåe" />
		<tag k="ssr:stedsnr" v="369275" />
		<tag k="waterway" v="stream" />
	</node>
	<node lat="60.06900000371398" lon="9.116986108562461" id="-14964">
		<tag k="name" v="Kjerredammen" />
		<tag k="ssr:stedsnr" v="369688" />
		<tag k="waterway" v="dam" />
	</node>
	<node lat="60.07525555719763" lon="9.264025001905784" id="-14965">
		<tag k="name" v="Stuttåe" />
		<tag k="ssr:stedsnr" v="392109" />
		<tag k="waterway" v="stream" />
	</node>
	<node lat="60.01486909586367" lon="9.368534567878289" id="-14966">
		<tag k="name" v="Svartekulp" />
		<tag k="natural" v="water" />
		<tag k="ssr:stedsnr" v="392037" />
	</node>
	<node lat="60.03959166768049" lon="9.327158339025962" id="-14967">
		<tag k="name" v="Vesle Rollagstjønn" />
=======
	</node>
	<node id="-292475" lat="59.9546166688" lon="9.30231110238">
		<tag k="name" v="Storåe" />
		<tag k="ssr:stedsnr" v="271934" />
		<tag k="waterway" v="river" />
	</node>
	<node id="-292473" lat="60.0411999973" lon="9.19215277336">
		<tag k="name" v="Oreholmen" />
		<tag k="place" v="islet" />
		<tag k="ssr:stedsnr" v="271879" />
	</node>
	<node id="-292470" lat="60.0191444418" lon="9.24373056405">
		<tag k="name" v="Holmanplass" />
		<tag k="natural" v="cape" />
		<tag k="ssr:stedsnr" v="271840" />
	</node>
	<node id="-292465" lat="60.0921527756" lon="9.22892222207">
		<tag k="name" v="Venekolltjønn" />
		<tag k="natural" v="water" />
		<tag k="ssr:stedsnr" v="271388" />
	</node>
	<node id="-292462" lat="60.026241666" lon="9.00760000685">
		<tag k="name" v="Kråkåstjønn" />
		<tag k="natural" v="water" />
		<tag k="ssr:stedsnr" v="271141" />
	</node>
	<node id="-292454" lat="59.9698803715" lon="9.08156996837">
		<tag k="name" v="Søre Vorsetvatn" />
		<tag k="natural" v="water" />
		<tag k="ssr:stedsnr" v="125630" />
	</node>
	<node id="-292453" lat="59.9704934365" lon="9.09871444797">
		<tag k="name" v="Fjelltjønn" />
		<tag k="natural" v="water" />
		<tag k="ssr:stedsnr" v="125627" />
	</node>
	<node id="-292451" lat="60.0343416627" lon="9.07734444053">
		<tag k="name" v="Raudbekk" />
		<tag k="ssr:stedsnr" v="90638" />
		<tag k="waterway" v="stream" />
	</node>
	<node id="-292441" lat="60.0424944405" lon="9.06125555786">
		<tag k="name" v="Åsmobekk" />
		<tag k="ssr:stedsnr" v="247643" />
		<tag k="waterway" v="stream" />
	</node>
	<node id="-292428" lat="59.8809027762" lon="9.24931110939">
		<tag k="name" v="Hukabekken" />
		<tag k="ssr:stedsnr" v="247240" />
		<tag k="waterway" v="stream" />
	</node>
	<node id="-292427" lat="59.9410028095" lon="9.25377437045">
		<tag k="name" v="Svartekulp" />
		<tag k="natural" v="water" />
		<tag k="ssr:stedsnr" v="247135" />
	</node>
	<node id="-292424" lat="60.0440661697" lon="9.37655679493">
		<tag k="name" v="Grønlitjønn" />
		<tag k="natural" v="water" />
		<tag k="ssr:stedsnr" v="247048" />
	</node>
	<node id="-292422" lat="59.9967611119" lon="9.32408333831">
		<tag k="name" v="Bjørndalsbekken" />
		<tag k="ssr:stedsnr" v="247009" />
		<tag k="waterway" v="stream" />
	</node>
	<node id="-292420" lat="59.98654722" lon="9.20555278492">
		<tag k="name" v="Jakobstjønn" />
		<tag k="natural" v="water" />
		<tag k="ssr:stedsnr" v="246866" />
	</node>
	<node id="-292418" lat="59.9578666648" lon="9.27728888137">
		<tag k="name" v="Ragnhildsrudbekken" />
		<tag k="ssr:stedsnr" v="246312" />
		<tag k="waterway" v="stream" />
	</node>
	<node id="-292415" lat="59.9709305525" lon="9.31964722462">
		<tag k="name" v="Stabbåe" />
		<tag k="ssr:stedsnr" v="246285" />
		<tag k="waterway" v="stream" />
	</node>
	<node id="-292412" lat="59.9886972207" lon="9.30985554698">
		<tag k="name" v="Liåe" />
		<tag k="ssr:stedsnr" v="246260" />
		<tag k="waterway" v="stream" />
	</node>
	<node id="-292401" lat="60.0655777766" lon="9.01029443595">
		<tag k="name" v="Søre Ruståe" />
		<tag k="ssr:stedsnr" v="65719" />
		<tag k="waterway" v="stream" />
	</node>
	<node id="-292394" lat="59.9402333296" lon="9.37646666755">
		<tag k="name" v="Helletjønnan" />
		<tag k="natural" v="water" />
		<tag k="ssr:stedsnr" v="65115" />
		<tag k="water" v="lake" />
	</node>
	<node id="-292392" lat="59.9597472217" lon="9.25208054868">
		<tag k="name" v="Trihynneelve" />
		<tag k="ssr:stedsnr" v="64325" />
		<tag k="waterway" v="stream" />
	</node>
	<node id="-292391" lat="60.0033666624" lon="9.23355278071">
		<tag k="name" v="Stavafjellbekken" />
		<tag k="ssr:stedsnr" v="28851" />
		<tag k="waterway" v="stream" />
	</node>
	<node id="-294271" lat="60.032602782" lon="9.40687222955">
		<tag k="name" v="Rebbe" />
		<tag k="natural" v="water" />
		<tag k="ssr:stedsnr" v="672053" />
	</node>
	<node id="-294223" lat="59.9845313918" lon="9.46006607698">
		<tag k="name" v="Ellingstjønn" />
		<tag k="natural" v="water" />
		<tag k="ssr:stedsnr" v="125309" />
	</node>
	<node id="-294183" lat="59.9870240786" lon="9.22574775985">
		<tag k="name" v="Nedre Trytetjønn" />
		<tag k="natural" v="water" />
		<tag k="ssr:stedsnr" v="875506" />
	</node>
	<node id="-294177" lat="60.0377535948" lon="8.99569981525">
		<tag k="name" v="Tjønngrøtjønn" />
		<tag k="natural" v="water" />
		<tag k="ssr:stedsnr" v="855347" />
	</node>
	<node id="-294176" lat="60.0748499974" lon="9.34059999228">
		<tag k="name" v="Skålavatn" />
		<tag k="natural" v="water" />
		<tag k="ssr:stedsnr" v="855098" />
	</node>
	<node id="-294172" lat="60.0982182753" lon="9.18961044953">
		<tag k="name" v="Igletjønn" />
		<tag k="natural" v="water" />
		<tag k="ssr:stedsnr" v="854690" />
	</node>
	<node id="-294170" lat="60.0916638898" lon="9.11524999573">
		<tag k="name" v="Bratterudfossen" />
		<tag k="natural" v="waterfall" />
		<tag k="ssr:stedsnr" v="854670" />
	</node>
	<node id="-294169" lat="59.9639922004" lon="9.1338471917">
		<tag k="name" v="Fetjantjønn" />
		<tag k="natural" v="water" />
		<tag k="ssr:stedsnr" v="854583" />
	</node>
	<node id="-294164" lat="60.0097008512" lon="9.37510024907">
		<tag k="name" v="Holmetjønn" />
		<tag k="natural" v="water" />
		<tag k="ssr:stedsnr" v="854010" />
	</node>
	<node id="-294161" lat="59.984816666" lon="9.24965277094">
		<tag k="name" v="Ulstadåe" />
		<tag k="ssr:stedsnr" v="853235" />
		<tag k="waterway" v="stream" />
	</node>
	<node id="-294159" lat="59.989163939" lon="9.45533793499">
		<tag k="name" v="Uksetjønn" />
		<tag k="natural" v="water" />
		<tag k="ssr:stedsnr" v="853289" />
	</node>
	<node id="-294120" lat="60.1317013763" lon="9.17303772129">
		<tag k="name" v="Fremstetjønn" />
		<tag k="natural" v="water" />
		<tag k="ssr:stedsnr" v="794489" />
	</node>
	<node id="-294118" lat="60.0723584149" lon="9.33538287278">
		<tag k="name" v="Lonin" />
		<tag k="natural" v="water" />
		<tag k="ssr:stedsnr" v="794081" />
		<tag k="water" v="lake" />
	</node>
	<node id="-294117" lat="59.9992383333" lon="9.21171371144">
		<tag k="name" v="Nysettjønnan" />
		<tag k="natural" v="water" />
		<tag k="ssr:stedsnr" v="793946" />
		<tag k="water" v="lake" />
	</node>
	<node id="-294109" lat="60.0098027804" lon="9.01169166449">
		<tag k="name" v="Gaupetjønn" />
		<tag k="natural" v="water" />
		<tag k="ssr:stedsnr" v="793341" />
	</node>
	<node id="-294108" lat="60.0571447804" lon="9.36859643823">
		<tag k="loc_name" v="Tråtjønnan" />
		<tag k="name" v="Tråenvatna" />
		<tag k="natural" v="water" />
		<tag k="ssr:stedsnr" v="793074" />
		<tag k="water" v="lake" />
	</node>
	<node id="-294107" lat="60.0526277768" lon="9.32169721541">
		<tag k="name" v="Vomtjønn" />
		<tag k="natural" v="water" />
		<tag k="ssr:stedsnr" v="793068" />
	</node>
	<node id="-294106" lat="60.0413610577" lon="9.39210523789">
		<tag k="name" v="Grunntjønn" />
		<tag k="natural" v="water" />
		<tag k="ssr:stedsnr" v="793055" />
		<tag k="water" v="lake" />
	</node>
	<node id="-294104" lat="59.9801472227" lon="9.18696388061">
		<tag k="name" v="Kravsa" />
		<tag k="ssr:stedsnr" v="792868" />
		<tag k="waterway" v="stream" />
	</node>
	<node id="-294103" lat="59.9716194452" lon="9.41475555629">
		<tag k="name" v="Lauvåstjønn" />
		<tag k="natural" v="water" />
		<tag k="ssr:stedsnr" v="792296" />
	</node>
	<node id="-294095" lat="59.950186114" lon="9.22463056099">
		<tag k="name" v="Mikkelshøl" />
		<tag k="natural" v="bay" />
		<tag k="ssr:stedsnr" v="757777" />
	</node>
	<node id="-294093" lat="59.948894443" lon="9.33864166756">
		<tag k="name" v="Ulvikhølen" />
		<tag k="place" v="locality" />
		<tag k="ssr:stedsnr" v="757768" />
	</node>
	<node id="-294085" lat="60.0313333378" lon="9.15773889198">
		<tag k="name" v="Kvennedammen" />
		<tag k="ssr:stedsnr" v="757610" />
		<tag k="waterway" v="dam" />
	</node>
	<node id="-294084" lat="59.9079888868" lon="9.26746665831">
		<tag k="name" v="Sølvtjønnbekken" />
		<tag k="ssr:stedsnr" v="757602" />
		<tag k="waterway" v="stream" />
	</node>
	<node id="-294071" lat="60.0469416684" lon="8.98551666725">
		<tag k="name" v="Killingdaltjønn" />
		<tag k="natural" v="water" />
		<tag k="ssr:stedsnr" v="757119" />
	</node>
	<node id="-294070" lat="60.0742166663" lon="9.26796666322">
		<tag k="name" v="Trollholmen" />
		<tag k="place" v="islet" />
		<tag k="ssr:stedsnr" v="757095" />
	</node>
	<node id="-294062" lat="60.0198749975" lon="9.27186665923">
		<tag k="name" v="Tjuvholmen" />
		<tag k="place" v="islet" />
		<tag k="ssr:stedsnr" v="753490" />
	</node>
	<node id="-294061" lat="60.0021305594" lon="9.27039167445">
		<tag k="name" v="Ulstadøy" />
		<tag k="place" v="island" />
		<tag k="ssr:stedsnr" v="753488" />
	</node>
	<node id="-294058" lat="60.0189750007" lon="9.41520000252">
		<tag k="name" v="Mjøgespol" />
		<tag k="natural" v="strait" />
		<tag k="ssr:stedsnr" v="875543" />
	</node>
	<node id="-294042" lat="59.9032500032" lon="9.30033055686">
		<tag k="name" v="Løken" />
		<tag k="place" v="locality" />
		<tag k="ssr:stedsnr" v="635843" />
	</node>
	<node id="-294037" lat="60.0082166663" lon="9.39606110479">
		<tag k="loc_name" v="Bjergebekken" />
		<tag k="name" v="Bjørgebekken" />
		<tag k="ssr:stedsnr" v="635704" />
		<tag k="waterway" v="stream" />
	</node>
	<node id="-294036" lat="60.0117749995" lon="9.40599443756">
		<tag k="name" v="Løken" />
		<tag k="ssr:stedsnr" v="635702" />
		<tag k="waterway" v="stream" />
	</node>
	<node id="-294034" lat="60.0316472264" lon="9.16511945034">
		<tag k="name" v="Langebakkbekken" />
		<tag k="ssr:stedsnr" v="635670" />
		<tag k="waterway" v="stream" />
	</node>
	<node id="-294029" lat="60.0334805526" lon="9.12083056003">
		<tag k="name" v="Høgrudbekken" />
		<tag k="ssr:stedsnr" v="635635" />
		<tag k="waterway" v="stream" />
	</node>
	<node id="-294023" lat="60.0532039382" lon="9.37183187531">
		<tag k="name" v="Nedre Tråtjønn" />
		<tag k="natural" v="water" />
		<tag k="ssr:stedsnr" v="635391" />
	</node>
	<node id="-294022" lat="60.0919634147" lon="9.25999832267">
		<tag k="name" v="Nedre Bekartjønn" />
		<tag k="natural" v="water" />
		<tag k="ssr:stedsnr" v="635389" />
	</node>
	<node id="-294020" lat="60.0830472216" lon="9.14636388386">
		<tag k="name" v="Hegnebekken" />
		<tag k="ssr:stedsnr" v="635495" />
		<tag k="waterway" v="stream" />
	</node>
	<node id="-294012" lat="60.070516663" lon="9.26689722959">
		<tag k="name" v="Løytnantsholmen" />
		<tag k="place" v="islet" />
		<tag k="ssr:stedsnr" v="635092" />
	</node>
	<node id="-294011" lat="59.9437777775" lon="9.18832778449">
		<tag k="name" v="Sagbekken" />
		<tag k="ssr:stedsnr" v="632549" />
		<tag k="waterway" v="stream" />
	</node>
	<node id="-294006" lat="60.1073495935" lon="9.12391024262">
		<tag k="name" v="Øvre Puttetjønn" />
		<tag k="natural" v="water" />
		<tag k="ssr:stedsnr" v="611540" />
	</node>
	<node id="-294005" lat="60.0856388894" lon="9.16523610608">
		<tag k="name" v="Djupedalsbekken" />
		<tag k="ssr:stedsnr" v="611697" />
		<tag k="waterway" v="stream" />
	</node>
	<node id="-294001" lat="60.0380250018" lon="9.06098610778">
		<tag k="name" v="Persbuåe" />
		<tag k="ssr:stedsnr" v="611657" />
		<tag k="waterway" v="stream" />
	</node>
	<node id="-294000" lat="60.0183611093" lon="9.0797194463">
		<tag k="name" v="Hekanåe" />
		<tag k="ssr:stedsnr" v="611344" />
		<tag k="waterway" v="river" />
	</node>
	<node id="-293999" lat="60.0105555571" lon="9.02169999856">
		<tag k="name" v="Votndalsvatn" />
		<tag k="natural" v="water" />
		<tag k="ssr:stedsnr" v="611343" />
	</node>
	<node id="-293998" lat="60.0156395975" lon="8.99322769798">
		<tag k="name" v="Rjupetjønn" />
		<tag k="natural" v="water" />
		<tag k="ssr:stedsnr" v="611307" />
	</node>
	<node id="-293997" lat="60.0092645802" lon="9.05785739973">
		<tag k="name" v="Søre Svarteløken" />
		<tag k="natural" v="water" />
		<tag k="ssr:stedsnr" v="611286" />
	</node>
	<node id="-293994" lat="60.1408784312" lon="9.22750009385">
		<tag k="name" v="Trehinningen" />
		<tag k="natural" v="water" />
		<tag k="ssr:stedsnr" v="611433" />
	</node>
	<node id="-293992" lat="60.0691897153" lon="9.26739924134">
		<tag k="name" v="Låkåsetvatnet" />
		<tag k="natural" v="water" />
		<tag k="ssr:stedsnr" v="611085" />
	</node>
	<node id="-293991" lat="59.9986444453" lon="9.15239167417">
		<tag k="name" v="Hølaåe" />
		<tag k="ssr:stedsnr" v="610948" />
		<tag k="waterway" v="stream" />
	</node>
	<node id="-293989" lat="60.0268215103" lon="9.36232637835">
		<tag k="name" v="Gamlevolltjønnan" />
		<tag k="natural" v="water" />
		<tag k="ssr:stedsnr" v="611037" />
		<tag k="water" v="lake" />
	</node>
	<node id="-293988" lat="60.0169355287" lon="9.33594016339">
		<tag k="name" v="Søre Geiteskalltjønn" />
		<tag k="natural" v="water" />
		<tag k="ssr:stedsnr" v="611034" />
	</node>
	<node id="-293985" lat="59.9915541671" lon="9.38303245167">
		<tag k="name" v="Purketjønn" />
		<tag k="natural" v="water" />
		<tag k="ssr:stedsnr" v="610338" />
	</node>
	<node id="-293982" lat="59.986416666" lon="9.22053333246">
		<tag k="name" v="Øvre Trytetjønn" />
		<tag k="natural" v="water" />
		<tag k="ssr:stedsnr" v="610300" />
	</node>
	<node id="-293981" lat="59.997123371" lon="9.42250369985">
		<tag k="name" v="Elddalstjønn" />
		<tag k="natural" v="water" />
		<tag k="ssr:stedsnr" v="610294" />
	</node>
	<node id="-293974" lat="59.9122222214" lon="9.35023332686">
		<tag k="name" v="Dugurdsholmen" />
		<tag k="place" v="islet" />
		<tag k="ssr:stedsnr" v="575836" />
	</node>
	<node id="-293964" lat="60.0471472192" lon="9.33245277804">
		<tag k="name" v="Kalveløken" />
		<tag k="ssr:stedsnr" v="575640" />
		<tag k="waterway" v="stream" />
	</node>
	<node id="-293929" lat="60.0795472258" lon="9.29462500417">
		<tag k="name" v="Bekartjønn" />
		<tag k="natural" v="water" />
		<tag k="ssr:stedsnr" v="574136" />
	</node>
	<node id="-293925" lat="60.0081055584" lon="9.27497776917">
		<tag k="name" v="Rønningsøy" />
		<tag k="place" v="island" />
		<tag k="ssr:stedsnr" v="571551" />
	</node>
	<node id="-293923" lat="59.9421444477" lon="9.18353055872">
		<tag k="name" v="Matholmen" />
		<tag k="place" v="islet" />
		<tag k="ssr:stedsnr" v="571545" />
	</node>
	<node id="-293916" lat="60.1459638863" lon="9.19505833945">
		<tag k="name" v="Langetjønn" />
		<tag k="natural" v="water" />
		<tag k="ssr:stedsnr" v="551498" />
	</node>
	<node id="-293914" lat="60.0299805589" lon="9.16825554821">
		<tag k="name" v="Sønsteåe" />
		<tag k="ssr:stedsnr" v="551336" />
		<tag k="waterway" v="stream" />
	</node>
	<node id="-293909" lat="59.9800984511" lon="9.1898245635">
		<tag k="name" v="Kravsetjønn" />
		<tag k="natural" v="water" />
		<tag k="ssr:stedsnr" v="550898" />
	</node>
	<node id="-293908" lat="59.9926591343" lon="9.1811224143">
		<tag k="name" v="Erikstjønn" />
		<tag k="natural" v="water" />
		<tag k="ssr:stedsnr" v="550883" />
	</node>
	<node id="-293907" lat="60.0829833304" lon="9.19778611568">
		<tag k="name" v="Krokbekken" />
		<tag k="ssr:stedsnr" v="550730" />
		<tag k="waterway" v="stream" />
	</node>
	<node id="-293903" lat="60.0904143698" lon="9.1511800846">
		<tag k="name" v="Bogstrandåe" />
		<tag k="ssr:stedsnr" v="550679" />
		<tag k="waterway" v="stream" />
	</node>
	<node id="-293902" lat="60.0462111132" lon="9.04126666532">
		<tag k="name" v="Baklibekken" />
		<tag k="ssr:stedsnr" v="550637" />
		<tag k="waterway" v="stream" />
	</node>
	<node id="-293900" lat="59.9741222266" lon="9.09401388269">
		<tag k="name" v="Lågetjønn" />
		<tag k="natural" v="water" />
		<tag k="ssr:stedsnr" v="550600" />
	</node>
	<node id="-293899" lat="59.9375858082" lon="9.1717629289">
		<tag k="name" v="Moltetangen" />
		<tag k="natural" v="cape" />
		<tag k="ssr:stedsnr" v="550537" />
	</node>
	<node id="-293896" lat="59.9245116238" lon="9.19826177861">
		<tag k="name" v="Nuttjønn" />
		<tag k="natural" v="water" />
		<tag k="ssr:stedsnr" v="550518" />
	</node>
	<node id="-293895" lat="60.0238736183" lon="8.99414880357">
		<tag k="name" v="Søre Daggrøtjønn" />
		<tag k="natural" v="water" />
		<tag k="ssr:stedsnr" v="550356" />
	</node>
	<node id="-293890" lat="59.9129462048" lon="9.31790327542">
		<tag k="name" v="Rundingstjønn" />
		<tag k="natural" v="water" />
		<tag k="ssr:stedsnr" v="550206" />
	</node>
	<node id="-293889" lat="59.9145416669" lon="9.32330555419">
		<tag k="name" v="Liartjønn" />
		<tag k="natural" v="water" />
		<tag k="ssr:stedsnr" v="550205" />
	</node>
	<node id="-293881" lat="59.9761277332" lon="9.42382569016">
		<tag k="name" v="Bukketjønn" />
		<tag k="natural" v="water" />
		<tag k="ssr:stedsnr" v="549297" />
	</node>
	<node id="-293872" lat="60.0768750499" lon="9.25779929615">
		<tag k="name" v="Lislevatn" />
		<tag k="natural" v="water" />
		<tag k="ssr:stedsnr" v="430091" />
	</node>
	<node id="-293871" lat="59.9912888924" lon="9.04285555898">
		<tag k="name" v="Gjermundsetåe" />
		<tag k="ssr:stedsnr" v="429932" />
		<tag k="waterway" v="stream" />
	</node>
	<node id="-293870" lat="59.9914111087" lon="9.10411666805">
		<tag k="name" v="Nirisetbekken" />
		<tag k="ssr:stedsnr" v="429898" />
		<tag k="waterway" v="stream" />
	</node>
	<node id="-293866" lat="60.0522666649" lon="9.20803889527">
		<tag k="name" v="Tondra" />
		<tag k="ssr:stedsnr" v="429658" />
		<tag k="waterway" v="river" />
	</node>
	<node id="-293865" lat="60.1031258261" lon="9.24581264014">
		<tag k="name" v="Langvatn" />
>>>>>>> e1d4bc35ff8a6074a6f2e91616a996b547c36f15
		<tag k="natural" v="water" />
		<tag k="ssr:stedsnr" v="429380" />
	</node>
<<<<<<< HEAD
	<node lat="60.039038889444946" lon="9.068416672186528" id="-14978">
		<tag k="name" v="Raubekk" />
		<tag k="ssr:stedsnr" v="393405" />
		<tag k="waterway" v="stream" />
	</node>
	<node lat="60.027400002790685" lon="9.11364722214301" id="-14980">
		<tag k="name" v="Storbekken" />
		<tag k="ssr:stedsnr" v="393638" />
		<tag k="waterway" v="stream" />
	</node>
	<node lat="59.96508888931252" lon="9.310530560704436" id="-14985">
		<tag k="name" v="Kjommeevju" />
		<tag k="natural" v="bay" />
		<tag k="ssr:stedsnr" v="393938" />
	</node>
	<node lat="59.97706738767263" lon="9.299236331621964" id="-14986">
		<tag k="loc_name" v="Stærnestjønne" />
		<tag k="name" v="Stærnestjønn" />
		<tag k="natural" v="water" />
		<tag k="ssr:stedsnr" v="393941" />
	</node>
	<node lat="59.88392760740929" lon="9.220688896183198" id="-14992">
		<tag k="name" v="Nordre Revlivatn" />
		<tag k="natural" v="water" />
		<tag k="ssr:stedsnr" v="484355" />
	</node>
	<node lat="59.93267778183529" lon="9.36023334156524" id="-14998">
		<tag k="name" v="Liarbekken" />
		<tag k="ssr:stedsnr" v="489184" />
		<tag k="waterway" v="stream" />
	</node>
	<node lat="59.98494932086195" lon="9.372629332861965" id="-15001">
		<tag k="name" v="Trytetjønn" />
		<tag k="natural" v="water" />
		<tag k="ssr:stedsnr" v="489316" />
	</node>
	<node lat="60.02823889329982" lon="9.120661109813778" id="-15003">
		<tag k="name" v="Nørdsteåe" />
		<tag k="ssr:stedsnr" v="489368" />
		<tag k="waterway" v="river" />
	</node>
	<node lat="60.10902995758193" lon="9.216608236466978" id="-15005">
		<tag k="name" v="Damtjønn" />
		<tag k="natural" v="water" />
		<tag k="ssr:stedsnr" v="489564" />
	</node>
	<node lat="60.03501944311558" lon="9.01885278362074" id="-15008">
		<tag k="name" v="Deveggbekken" />
		<tag k="ssr:stedsnr" v="490341" />
		<tag k="waterway" v="stream" />
	</node>
	<node lat="59.96619444712727" lon="9.092861115370706" id="-15009">
		<tag k="name" v="Kroktjønn" />
		<tag k="natural" v="water" />
		<tag k="ssr:stedsnr" v="489627" />
	</node>
	<node lat="60.06239999640107" lon="9.035252777015044" id="-15011">
		<tag k="name" v="Ruståe" />
		<tag k="ssr:stedsnr" v="489686" />
		<tag k="waterway" v="stream" />
	</node>
	<node lat="60.05230243786667" lon="9.02629438173064" id="-15013">
		<tag k="name" v="Lauvhovdtjønn" />
		<tag k="natural" v="water" />
		<tag k="ssr:stedsnr" v="489671" />
	</node>
	<node lat="60.01345555845326" lon="9.01371944386144" id="-15021">
		<tag k="name" v="Surtetjønn" />
		<tag k="natural" v="water" />
		<tag k="ssr:stedsnr" v="490300" />
	</node>
	<node lat="60.018724996734996" lon="9.035583332065453" id="-15022">
		<tag k="name" v="Trytetjønn" />
		<tag k="natural" v="water" />
		<tag k="ssr:stedsnr" v="490322" />
	</node>
	<node lat="60.01968611177367" lon="9.049152780885603" id="-15023">
		<tag k="name" v="Kjølvassbekken" />
		<tag k="ssr:stedsnr" v="490327" />
		<tag k="waterway" v="stream" />
	</node>
	<node lat="59.88075806309421" lon="9.224449242940926" id="-15024">
		<tag k="name" v="Revlivatna" />
		<tag k="natural" v="water" />
		<tag k="ssr:stedsnr" v="428002" />
		<tag k="water" v="lake" />
	</node>
	<node lat="59.97808513821147" lon="9.385866151064526" id="-15027">
		<tag k="name" v="Saupsettjønn" />
		<tag k="natural" v="water" />
		<tag k="ssr:stedsnr" v="428270" />
	</node>
	<node lat="59.96968333705002" lon="9.279550000171712" id="-15029">
		<tag k="name" v="Stærnesbekken" />
		<tag k="old_name" v="Sternes B:" />
		<tag k="ssr:stedsnr" v="428320" />
		<tag k="waterway" v="stream" />
	</node>
	<node lat="60.05816469434033" lon="8.992372935265175" id="-15047">
		<tag k="name" v="Tveittjønnan" />
		<tag k="natural" v="water" />
		<tag k="ssr:stedsnr" v="429619" />
		<tag k="water" v="lake" />
	</node>
	<node lat="60.05226666493911" lon="9.20803889526833" id="-15048">
		<tag k="name" v="Tondra" />
		<tag k="ssr:stedsnr" v="429658" />
		<tag k="waterway" v="river" />
	</node>
	<node lat="59.99141110869182" lon="9.104116668047384" id="-15052">
		<tag k="name" v="Nirisetbekken" />
		<tag k="ssr:stedsnr" v="429898" />
		<tag k="waterway" v="stream" />
	</node>
	<node lat="60.06996613659954" lon="9.182374908808947" id="-15058">
		<tag k="name" v="Trytetjønn" />
		<tag k="natural" v="water" />
		<tag k="ssr:stedsnr" v="430720" />
	</node>
	<node lat="59.92386056706391" lon="9.26267424638185" id="-15062">
		<tag k="name" v="Fiskeløysen" />
		<tag k="natural" v="water" />
		<tag k="ssr:stedsnr" v="671163" />
	</node>
	<node lat="59.965563885842144" lon="9.2777972228566" id="-15064">
		<tag k="name" v="Tinnesbekken" />
		<tag k="ssr:stedsnr" v="671346" />
		<tag k="waterway" v="stream" />
	</node>
	<node lat="60.02315277794405" lon="9.14714722473488" id="-15065">
		<tag k="name" v="Medåe" />
		<tag k="ssr:stedsnr" v="672292" />
		<tag k="waterway" v="stream" />
	</node>
	<node lat="59.94008490381729" lon="9.172661579076896" id="-15067">
		<tag k="name" v="Sørkjevatn" />
		<tag k="natural" v="water" />
		<tag k="old_name" v="Sorkje(vandet)" />
		<tag k="ssr:stedsnr" v="671556" />
		<tag k="water" v="lake" />
	</node>
	<node lat="59.95879444453305" lon="9.176213880561031" id="-15069">
		<tag k="name" v="Nysetertjønnan" />
		<tag k="natural" v="water" />
		<tag k="ssr:stedsnr" v="671574" />
		<tag k="water" v="lake" />
	</node>
	<node lat="59.974281165779026" lon="9.038252382904561" id="-15073">
		<tag k="name" v="Rjupetjønn" />
		<tag k="natural" v="water" />
		<tag k="ssr:stedsnr" v="671897" />
	</node>
	<node lat="60.03317499923537" lon="9.319388896905366" id="-15075">
		<tag k="name" v="Søråe" />
		<tag k="ssr:stedsnr" v="672035" />
		<tag k="waterway" v="stream" />
	</node>
	<node lat="60.03775027292381" lon="9.33061049964697" id="-15077">
		<tag k="name" v="Åkroken" />
=======
	<node id="-293864" lat="60.0279917065" lon="9.01852002003">
		<tag k="name" v="Lutegryte" />
		<tag k="natural" v="water" />
		<tag k="ssr:stedsnr" v="429344" />
	</node>
	<node id="-293855" lat="59.9780851382" lon="9.38586615106">
		<tag k="name" v="Saupsettjønn" />
		<tag k="natural" v="water" />
		<tag k="ssr:stedsnr" v="428270" />
	</node>
	<node id="-293842" lat="59.9770673877" lon="9.29923633162">
		<tag k="loc_name" v="Stærnestjønne" />
		<tag k="name" v="Stærnestjønn" />
		<tag k="natural" v="water" />
		<tag k="ssr:stedsnr" v="393941" />
	</node>
	<node id="-293841" lat="59.9650888893" lon="9.3105305607">
		<tag k="name" v="Kjommeevju" />
		<tag k="natural" v="bay" />
		<tag k="ssr:stedsnr" v="393938" />
	</node>
	<node id="-293835" lat="59.9050416631" lon="9.31885833067">
		<tag k="name" v="Nedre Løken" />
		<tag k="place" v="locality" />
		<tag k="ssr:stedsnr" v="393868" />
	</node>
	<node id="-293828" lat="60.0274000028" lon="9.11364722214">
		<tag k="name" v="Storbekken" />
		<tag k="ssr:stedsnr" v="393638" />
		<tag k="waterway" v="stream" />
	</node>
	<node id="-293827" lat="60.0920888931" lon="9.11503056182">
		<tag k="name" v="Helveteshølet" />
		<tag k="place" v="locality" />
		<tag k="ssr:stedsnr" v="393445" />
	</node>
	<node id="-293823" lat="60.0390388894" lon="9.06841667219">
		<tag k="name" v="Raubekk" />
		<tag k="ssr:stedsnr" v="393405" />
		<tag k="waterway" v="stream" />
	</node>
	<node id="-293813" lat="60.0152361092" lon="9.40868333723">
		<tag k="name" v="Brisketjønnan" />
		<tag k="natural" v="water" />
		<tag k="ssr:stedsnr" v="392766" />
		<tag k="water" v="lake" />
	</node>
	<node id="-293812" lat="60.0496194407" lon="9.31545277648">
		<tag k="name" v="Bikkjetjønn" />
		<tag k="natural" v="water" />
		<tag k="ssr:stedsnr" v="392725" />
	</node>
	<node id="-293809" lat="60.0148690959" lon="9.36853456788">
		<tag k="name" v="Svartekulp" />
		<tag k="natural" v="water" />
		<tag k="ssr:stedsnr" v="392037" />
	</node>
	<node id="-293808" lat="60.0210444473" lon="9.33879167015">
		<tag k="name" v="Nordre Geiteskalltjønn" />
		<tag k="natural" v="water" />
		<tag k="ssr:stedsnr" v="388378" />
	</node>
	<node id="-293807" lat="60.0799499987" lon="9.19623889611">
		<tag k="name" v="Langvassåe" />
		<tag k="ssr:stedsnr" v="369699" />
		<tag k="waterway" v="river" />
	</node>
	<node id="-293805" lat="60.0690000037" lon="9.11698610856">
		<tag k="name" v="Kjerredammen" />
		<tag k="ssr:stedsnr" v="369688" />
		<tag k="waterway" v="dam" />
	</node>
	<node id="-293802" lat="59.9993000024" lon="9.0858638901">
		<tag k="name" v="Sundtjønnåe" />
		<tag k="ssr:stedsnr" v="369275" />
		<tag k="waterway" v="stream" />
	</node>
	<node id="-293790" lat="60.1150749971" lon="9.25987221977">
		<tag k="alt_name" v="Grasbekken" />
		<tag k="name" v="Grasbekk" />
		<tag k="ssr:stedsnr" v="368409" />
		<tag k="waterway" v="stream" />
	</node>
	<node id="-293785" lat="60.0182149737" lon="9.01929030587">
		<tag k="name" v="Langevatn" />
		<tag k="natural" v="water" />
		<tag k="ssr:stedsnr" v="368355" />
	</node>
	<node id="-293778" lat="59.9513166112" lon="9.2140334785">
		<tag k="name" v="Nedre Svartetjønn" />
		<tag k="natural" v="water" />
		<tag k="ssr:stedsnr" v="367524" />
	</node>
	<node id="-293777" lat="59.9718342023" lon="9.3822143435">
		<tag k="name" v="Fagerbutjønn" />
		<tag k="natural" v="water" />
		<tag k="ssr:stedsnr" v="367260" />
	</node>
	<node id="-293776" lat="59.9879436815" lon="9.37657709845">
		<tag k="name" v="Langevatn" />
		<tag k="natural" v="water" />
		<tag k="ssr:stedsnr" v="367243" />
	</node>
	<node id="-293766" lat="59.496725003" lon="9.92621943883">
		<tag k="alt_name" v="Numedalslågen" />
		<tag k="name" v="Lågen" />
		<tag k="ssr:stedsnr" v="366578" />
		<tag k="waterway" v="river" />
	</node>
	<node id="-293765" lat="59.9636130821" lon="9.41950186124">
		<tag k="name" v="Igletjønn" />
		<tag k="natural" v="water" />
		<tag k="ssr:stedsnr" v="356360" />
	</node>
	<node id="-293762" lat="59.9841750015" lon="9.42413611959">
		<tag k="name" v="Vesle Kjommetjønn" />
		<tag k="natural" v="water" />
		<tag k="ssr:stedsnr" v="332992" />
	</node>
	<node id="-293758" lat="60.0193916672" lon="9.2116888838">
		<tag k="name" v="Hekteåe" />
		<tag k="ssr:stedsnr" v="332801" />
		<tag k="waterway" v="stream" />
	</node>
	<node id="-293742" lat="60.024980557" lon="9.15264167044">
		<tag k="name" v="Bakkebekken" />
		<tag k="ssr:stedsnr" v="332649" />
		<tag k="waterway" v="stream" />
	</node>
	<node id="-293738" lat="59.9902694426" lon="9.28163334007">
		<tag k="name" v="Langetangen" />
		<tag k="natural" v="cape" />
		<tag k="ssr:stedsnr" v="332552" />
	</node>
	<node id="-293737" lat="60.0308009197" lon="9.02731970347">
		<tag k="name" v="Gversettjønn" />
		<tag k="natural" v="water" />
		<tag k="ssr:stedsnr" v="332400" />
	</node>
	<node id="-293725" lat="60.2142333372" lon="9.11655278124">
		<tag k="name" v="Vergja" />
		<tag k="ssr:stedsnr" v="308878" />
		<tag k="waterway" v="river" />
	</node>
	<node id="-293724" lat="60.0927888866" lon="9.1778972215">
		<tag k="name" v="Skriubekken" />
		<tag k="ssr:stedsnr" v="308661" />
		<tag k="waterway" v="stream" />
	</node>
	<node id="-293719" lat="60.0133472447" lon="9.05622000385">
		<tag k="name" v="Nordre Svarteløken" />
>>>>>>> e1d4bc35ff8a6074a6f2e91616a996b547c36f15
		<tag k="natural" v="water" />
		<tag k="ssr:stedsnr" v="308259" />
	</node>
<<<<<<< HEAD
	<node lat="60.03260278197207" lon="9.406872229548775" id="-15081">
		<tag k="name" v="Rebbe" />
		<tag k="natural" v="water" />
		<tag k="ssr:stedsnr" v="672053" />
	</node>
	<node lat="60.04540616964554" lon="9.327191902682962" id="-15082">
		<tag k="name" v="Rollagstjønn" />
		<tag k="natural" v="water" />
		<tag k="ssr:stedsnr" v="672056" />
	</node>
	<node lat="60.04396145853598" lon="9.36182410259679" id="-15083">
		<tag k="name" v="Vardetjønn" />
		<tag k="natural" v="water" />
		<tag k="ssr:stedsnr" v="672058" />
	</node>
	<node lat="60.068405559821485" lon="9.119591669412234" id="-15091">
		<tag k="name" v="Trollhøl" />
		<tag k="place" v="locality" />
		<tag k="ssr:stedsnr" v="454517" />
	</node>
	<node lat="59.953588892276294" lon="9.31092778606418" id="-15092">
		<tag k="name" v="Skjærøye" />
		<tag k="place" v="island" />
		<tag k="ssr:stedsnr" v="454811" />
	</node>
	<node lat="59.96983889213601" lon="9.365169439497631" id="-15095">
		<tag k="name" v="Fløtterudtjønn" />
		<tag k="natural" v="water" />
		<tag k="ssr:stedsnr" v="454823" />
	</node>
	<node lat="60.07940517703679" lon="9.217095097122225" id="-15109">
		<tag k="name" v="Letjønn" />
		<tag k="natural" v="water" />
		<tag k="ssr:stedsnr" v="672741" />
	</node>
	<node lat="59.97301389159541" lon="9.042727778299977" id="-15110">
		<tag k="name" v="Steintjønn" />
		<tag k="natural" v="water" />
		<tag k="ssr:stedsnr" v="272164" />
	</node>
	<node lat="59.950749998688124" lon="9.289177783238518" id="-15113">
		<tag k="name" v="Sjåframbekken" />
		<tag k="ssr:stedsnr" v="489152" />
		<tag k="waterway" v="stream" />
	</node>
	<node lat="59.933983526361075" lon="9.248192460241485" id="-15114">
		<tag k="name" v="Vestre Hågåtjønn" />
		<tag k="natural" v="water" />
		<tag k="ssr:stedsnr" v="489155" />
	</node>
	<node lat="59.97171944829477" lon="9.343844445938863" id="-15115">
		<tag k="name" v="Kjommeåe" />
		<tag k="ssr:stedsnr" v="489345" />
		<tag k="waterway" v="stream" />
	</node>
	<node lat="59.992913481614956" lon="9.222552829872562" id="-15117">
		<tag k="name" v="Ståvåfjelltjønn" />
		<tag k="natural" v="water" />
		<tag k="ssr:stedsnr" v="489294" />
	</node>
	<node lat="59.87606111472805" lon="9.197961108866169" id="-15119">
		<tag k="fixme" v="multiple name tags, choose one and add the other to alt_name" />
		<tag k="name" v="Åklitjønnan;Åklivatna" />
		<tag k="natural" v="water" />
		<tag k="ssr:stedsnr" v="489745" />
		<tag k="water" v="lake" />
	</node>
	<node lat="59.998022726642304" lon="9.216816680698932" id="-15121">
		<tag k="name" v="Elgtjønn" />
		<tag k="natural" v="water" />
		<tag k="ssr:stedsnr" v="489927" />
	</node>
	<node lat="59.982155552068065" lon="9.128744435901014" id="-15123">
		<tag k="name" v="Skjerbrekkdammen" />
		<tag k="natural" v="water" />
		<tag k="ssr:stedsnr" v="489892" />
	</node>
	<node lat="60.067344441467654" lon="9.023886108220031" id="-15129">
		<tag k="name" v="Nordre Ruståe" />
		<tag k="ssr:stedsnr" v="490726" />
		<tag k="waterway" v="stream" />
	</node>
	<node lat="59.9075833312049" lon="9.327613881993093" id="-15134">
		<tag k="name" v="Åbogen" />
		<tag k="place" v="locality" />
		<tag k="ssr:stedsnr" v="272837" />
	</node>
	<node lat="60.04616389136633" lon="9.279011103447681" id="-15136">
		<tag k="name" v="Storhovdtjønn" />
		<tag k="natural" v="water" />
		<tag k="ssr:stedsnr" v="514207" />
	</node>
	<node lat="60.07300278192893" lon="9.268061103754462" id="-15138">
		<tag k="name" v="Østholmen" />
		<tag k="place" v="islet" />
		<tag k="ssr:stedsnr" v="514111" />
	</node>
	<node lat="60.05862428795529" lon="9.193465478420286" id="-15143">
		<tag k="name" v="Blommetjønn" />
		<tag k="natural" v="water" />
		<tag k="ssr:stedsnr" v="514176" />
	</node>
	<node lat="60.05966666806244" lon="9.365183331544328" id="-15147">
		<tag k="name" v="Øvre Tråtjønn" />
		<tag k="natural" v="water" />
		<tag k="old_name" v="Trøentjern" />
		<tag k="ssr:stedsnr" v="514402" />
	</node>
	<node lat="60.01286988537644" lon="9.32646373532486" id="-15154">
		<tag k="name" v="Narvestjønn" />
		<tag k="natural" v="water" />
		<tag k="ssr:stedsnr" v="514726" />
	</node>
	<node lat="59.9538833329709" lon="9.299177769720732" id="-15156">
		<tag k="name" v="Øvre Løken" />
		<tag k="place" v="locality" />
		<tag k="ssr:stedsnr" v="514805" />
	</node>
	<node lat="59.98665277902511" lon="9.194808327569952" id="-15161">
		<tag k="name" v="Jakobstjønnbekken" />
		<tag k="ssr:stedsnr" v="514877" />
		<tag k="waterway" v="stream" />
	</node>
	<node lat="59.91454166691954" lon="9.323305554191265" id="-15170">
		<tag k="name" v="Liartjønn" />
		<tag k="natural" v="water" />
		<tag k="ssr:stedsnr" v="550205" />
	</node>
	<node lat="59.91294620478371" lon="9.317903275419647" id="-15171">
		<tag k="name" v="Rundingstjønn" />
		<tag k="natural" v="water" />
		<tag k="ssr:stedsnr" v="550206" />
	</node>
	<node lat="59.9741222265742" lon="9.094013882688245" id="-15173">
		<tag k="name" v="Lågetjønn" />
		<tag k="natural" v="water" />
		<tag k="ssr:stedsnr" v="550600" />
	</node>
	<node lat="59.98009845108423" lon="9.189824563500792" id="-15175">
		<tag k="name" v="Kravsetjønn" />
		<tag k="natural" v="water" />
		<tag k="ssr:stedsnr" v="550898" />
	</node>
	<node lat="60.0081055584267" lon="9.274977769166666" id="-15183">
		<tag k="name" v="Rønningsøy" />
		<tag k="place" v="island" />
		<tag k="ssr:stedsnr" v="571551" />
	</node>
	<node lat="60.06841666670201" lon="9.228086103850275" id="-15189">
		<tag k="name" v="Smørdulp" />
		<tag k="natural" v="water" />
		<tag k="ssr:stedsnr" v="574455" />
		<tag k="water" v="pond" />
	</node>
	<node lat="60.002608333194416" lon="9.205608331935007" id="-15192">
		<tag k="name" v="Svartetjønn" />
		<tag k="natural" v="water" />
		<tag k="ssr:stedsnr" v="574855" />
	</node>
	<node lat="60.07641389334552" lon="9.123811109453245" id="-15199">
		<tag k="name" v="Bogstrandåe" />
		<tag k="ssr:stedsnr" v="575458" />
		<tag k="waterway" v="stream" />
	</node>
	<node lat="59.98916666938701" lon="9.052972213611511" id="-15212">
		<tag k="name" v="Skomakarbekken" />
		<tag k="ssr:stedsnr" v="696198" />
		<tag k="waterway" v="stream" />
	</node>
	<node lat="59.976674999670514" lon="9.137541660745452" id="-15215">
		<tag k="name" v="Steintjønnbekken" />
		<tag k="ssr:stedsnr" v="696549" />
		<tag k="waterway" v="stream" />
	</node>
	<node lat="60.00438610897345" lon="9.267422222020164" id="-15218">
		<tag k="name" v="Glitretjønn" />
		<tag k="natural" v="water" />
		<tag k="ssr:stedsnr" v="696759" />
	</node>
	<node lat="59.922738886639706" lon="9.366772214721303" id="-15231">
		<tag k="name" v="Klopptjønn" />
		<tag k="natural" v="water" />
		<tag k="ssr:stedsnr" v="696852" />
	</node>
	<node lat="60.039058329489166" lon="9.391436117912642" id="-15233">
		<tag k="name" v="Deilestangen" />
		<tag k="natural" v="cape" />
		<tag k="ssr:stedsnr" v="696938" />
	</node>
	<node lat="59.99155416712042" lon="9.383032451674122" id="-15242">
		<tag k="name" v="Purketjønn" />
		<tag k="natural" v="water" />
		<tag k="ssr:stedsnr" v="610338" />
	</node>
	<node lat="60.01157777509184" lon="9.370927853790759" id="-15245">
		<tag k="name" v="Langevatn" />
		<tag k="natural" v="water" />
		<tag k="ssr:stedsnr" v="611013" />
	</node>
	<node lat="60.069189715325926" lon="9.267399241340891" id="-15247">
		<tag k="name" v="Låkåsetvatnet" />
		<tag k="natural" v="water" />
		<tag k="ssr:stedsnr" v="611085" />
		<tag k="water" v="lake" />
	</node>
	<node lat="60.00926458021605" lon="9.057857399734095" id="-15250">
		<tag k="name" v="Søre Svarteløken" />
		<tag k="natural" v="water" />
		<tag k="ssr:stedsnr" v="611286" />
	</node>
	<node lat="60.015639597503025" lon="8.993227697979368" id="-15251">
		<tag k="name" v="Rjupetjønn" />
		<tag k="natural" v="water" />
		<tag k="ssr:stedsnr" v="611307" />
	</node>
	<node lat="60.085638889409" lon="9.165236106075602" id="-15254">
		<tag k="name" v="Djupedalsbekken" />
		<tag k="ssr:stedsnr" v="611697" />
		<tag k="waterway" v="stream" />
	</node>
	<node lat="60.09196341471427" lon="9.259998322665377" id="-15266">
		<tag k="name" v="Nedre Bekartjønn" />
		<tag k="natural" v="water" />
		<tag k="ssr:stedsnr" v="635389" />
	</node>
	<node lat="60.053203938188325" lon="9.371831875305078" id="-15267">
		<tag k="name" v="Nedre Tråtjønn" />
		<tag k="natural" v="water" />
		<tag k="ssr:stedsnr" v="635391" />
	</node>
	<node lat="60.008216666282216" lon="9.3960611047865" id="-15273">
		<tag k="loc_name" v="Bjergebekken" />
		<tag k="name" v="Bjørgebekken" />
		<tag k="ssr:stedsnr" v="635704" />
		<tag k="waterway" v="stream" />
	</node>
	<node lat="59.91418610999764" lon="9.30125555804351" id="-15276">
		<tag k="name" v="Svarttjønn" />
		<tag k="natural" v="water" />
		<tag k="ssr:stedsnr" v="635775" />
	</node>
	<node lat="60.11886064050605" lon="9.133946744392855" id="-15290">
		<tag k="name" v="Markavatnet" />
		<tag k="natural" v="water" />
		<tag k="ssr:stedsnr" v="671540" />
	</node>
	<node lat="59.97623333567491" lon="9.07698056175742" id="-15295">
		<tag k="name" v="Nordre Vorsetvatn" />
		<tag k="natural" v="water" />
		<tag k="ssr:stedsnr" v="671907" />
	</node>
	<node lat="59.998314433818926" lon="9.017722388163046" id="-15296">
		<tag k="name" v="Størrtjønne" />
		<tag k="natural" v="water" />
		<tag k="ssr:stedsnr" v="671911" />
	</node>
	<node lat="60.012836114563335" lon="9.251797228186387" id="-15299">
		<tag k="name" v="Okseåe" />
		<tag k="ssr:stedsnr" v="672027" />
		<tag k="waterway" v="stream" />
	</node>
	<node lat="60.013036114592204" lon="9.276991663121228" id="-15312">
		<tag k="name" v="Tråholmen" />
		<tag k="place" v="islet" />
		<tag k="ssr:stedsnr" v="693577" />
	</node>
	<node lat="59.89321110906518" lon="9.246086110757194" id="-15313">
		<tag k="name" v="Butjønn" />
		<tag k="natural" v="water" />
		<tag k="ssr:stedsnr" v="696178" />
	</node>
	<node lat="60.1138333303108" lon="9.233772215560977" id="-15315">
		<tag k="name" v="Rovetjønn" />
		<tag k="natural" v="water" />
		<tag k="ssr:stedsnr" v="696314" />
	</node>
	<node lat="60.12670833727236" lon="9.232105556582466" id="-15317">
		<tag k="name" v="Harkildsdalelva" />
		<tag k="ssr:stedsnr" v="696317" />
		<tag k="waterway" v="stream" />
	</node>
	<node lat="60.003047222399" lon="9.25799443940621" id="-15323">
		<tag k="name" v="Søre Fetjanbekk" />
		<tag k="ssr:stedsnr" v="696608" />
		<tag k="waterway" v="stream" />
	</node>
	<node lat="59.93769444179399" lon="9.234011102402597" id="-15327">
		<tag k="name" v="Fyrisetløken" />
		<tag k="place" v="locality" />
		<tag k="ssr:stedsnr" v="696806" />
	</node>
	<node lat="59.93798641554466" lon="9.27378298492882" id="-15342">
		<tag k="name" v="Elgstjønn" />
		<tag k="natural" v="water" />
		<tag k="ssr:stedsnr" v="732163" />
		<tag k="water" v="lake" />
	</node>
	<node lat="60.02241389265336" lon="9.025608330997683" id="-15346">
		<tag k="name" v="Mjogetjønn" />
		<tag k="natural" v="water" />
		<tag k="ssr:stedsnr" v="732370" />
	</node>
	<node lat="59.98891094703489" lon="9.069767264201015" id="-15348">
		<tag k="name" v="Sundtjønn" />
		<tag k="natural" v="water" />
		<tag k="ssr:stedsnr" v="732924" />
		<tag k="water" v="lake" />
	</node>
	<node lat="60.02151666662768" lon="9.331863883228134" id="-15351">
		<tag k="name" v="Tverråe" />
		<tag k="ssr:stedsnr" v="733044" />
		<tag k="waterway" v="stream" />
	</node>
	<node lat="60.013450002203335" lon="9.149952773301937" id="-15354">
		<tag k="name" v="Åkroken" />
		<tag k="place" v="locality" />
		<tag k="ssr:stedsnr" v="733316" />
	</node>
	<node lat="60.046941668447374" lon="8.985516667245786" id="-15363">
		<tag k="name" v="Killingdaltjønn" />
		<tag k="natural" v="water" />
		<tag k="ssr:stedsnr" v="757119" />
	</node>
	<node lat="60.07421666625852" lon="9.267966663223973" id="-15365">
		<tag k="name" v="Trollholmen" />
		<tag k="place" v="islet" />
		<tag k="ssr:stedsnr" v="757095" />
	</node>
	<node lat="59.907988886790626" lon="9.26746665830981" id="-15366">
		<tag k="name" v="Sølvtjønnbekken" />
		<tag k="ssr:stedsnr" v="757602" />
		<tag k="waterway" v="stream" />
	</node>
	<node lat="60.0093138854063" lon="9.16100832996694" id="-15367">
		<tag k="name" v="Flåtabekk" />
		<tag k="ssr:stedsnr" v="757715" />
		<tag k="waterway" v="stream" />
	</node>
	<node lat="60.03133333777806" lon="9.157738891983845" id="-15370">
		<tag k="name" v="Kvennedammen" />
		<tag k="ssr:stedsnr" v="757610" />
		<tag k="waterway" v="dam" />
	</node>
	<node lat="59.967069441093166" lon="9.308455556646635" id="-15380">
		<tag k="name" v="Ryggenes" />
		<tag k="natural" v="cape" />
		<tag k="ssr:stedsnr" v="757953" />
	</node>
	<node lat="60.05757008089439" lon="9.369582032299324" id="-15385">
		<tag k="loc_name" v="Tråtjønnan" />
		<tag k="name" v="Tråenvatna" />
		<tag k="natural" v="water" />
		<tag k="ssr:stedsnr" v="793074" />
		<tag k="water" v="lake" />
	</node>
	<node lat="59.91110277736906" lon="9.331272219648904" id="-15386">
		<tag k="name" v="Rostadelve" />
		<tag k="ssr:stedsnr" v="793226" />
		<tag k="waterway" v="stream" />
	</node>
	<node lat="60.131701376317096" lon="9.17303772128723" id="-15390">
		<tag k="name" v="Fremstetjønn" />
		<tag k="natural" v="water" />
		<tag k="ssr:stedsnr" v="794489" />
	</node>
	<node lat="59.94338280942981" lon="9.247709549043913" id="-15393">
		<tag k="name" v="Hugartjønn" />
		<tag k="natural" v="water" />
		<tag k="ssr:stedsnr" v="914146" />
	</node>
	<node lat="60.03047778115508" lon="9.08354999358116" id="-15397">
		<tag k="name" v="Årsetåe" />
		<tag k="ssr:stedsnr" v="914362" />
		<tag k="waterway" v="river" />
	</node>
	<node lat="59.95009440928745" lon="9.210816840938188" id="-15398">
		<tag k="name" v="Øvre Svartetjønn" />
		<tag k="natural" v="water" />
		<tag k="ssr:stedsnr" v="914585" />
	</node>
	<node lat="60.059771154528434" lon="9.1997966659649" id="-15400">
		<tag k="name" v="Leiketjønn" />
		<tag k="natural" v="water" />
		<tag k="ssr:stedsnr" v="914652" />
	</node>
	<node lat="60.11973769103706" lon="9.22896649245097" id="-15412">
		<tag k="name" v="Grasbekktjønnan" />
		<tag k="natural" v="water" />
		<tag k="ssr:stedsnr" v="915364" />
		<tag k="water" v="lake" />
	</node>
	<node lat="60.13576711881656" lon="9.216659995291275" id="-15413">
		<tag k="alt_name" v="Blåtjørnan" />
		<tag k="name" v="Blåtjønnan" />
		<tag k="natural" v="water" />
		<tag k="ssr:stedsnr" v="915481" />
		<tag k="water" v="lake" />
	</node>
	<node lat="60.068244445544195" lon="9.279050008717768" id="-15417">
		<tag k="name" v="Sagbekk" />
		<tag k="ssr:stedsnr" v="817105" />
		<tag k="waterway" v="stream" />
	</node>
	<node lat="59.9806161296896" lon="9.369277326527367" id="-15434">
		<tag k="name" v="Møretjønn" />
		<tag k="natural" v="water" />
		<tag k="ssr:stedsnr" v="853279" />
	</node>
	<node lat="60.009700851228764" lon="9.375100249073542" id="-15438">
		<tag k="name" v="Holmetjønn" />
		<tag k="natural" v="water" />
		<tag k="ssr:stedsnr" v="854010" />
	</node>
	<node lat="60.01848055407724" lon="9.08275278300491" id="-15440">
		<tag k="name" v="Fossebrottet" />
		<tag k="natural" v="waterfall" />
		<tag k="ssr:stedsnr" v="854310" />
	</node>
	<node lat="60.07484999744034" lon="9.340599992283579" id="-15448">
		<tag k="name" v="Skålavatn" />
		<tag k="natural" v="water" />
		<tag k="ssr:stedsnr" v="855098" />
	</node>
	<node lat="60.03993610734796" lon="9.22379166843133" id="-15456">
		<tag k="name" v="Heggenga" />
		<tag k="natural" v="cape" />
		<tag k="ssr:stedsnr" v="878260" />
	</node>
	<node lat="59.97392222361687" lon="9.130924995058441" id="-15462">
		<tag k="name" v="Skjerbrekktjønn" />
		<tag k="natural" v="water" />
		<tag k="ssr:stedsnr" v="878604" />
	</node>
	<node lat="59.9941833350672" lon="9.276344439538082" id="-15464">
		<tag k="name" v="Killingfetøy" />
		<tag k="place" v="islet" />
		<tag k="ssr:stedsnr" v="878626" />
	</node>
	<node lat="59.9612750043562" lon="9.083361117413228" id="-15472">
		<tag k="name" v="Kroktjønnbekken" />
		<tag k="ssr:stedsnr" v="879506" />
		<tag k="waterway" v="stream" />
	</node>
	<node lat="60.06988055903403" lon="9.312608332682945" id="-15474">
		<tag k="name" v="Ristjønn" />
		<tag k="natural" v="water" />
		<tag k="ssr:stedsnr" v="879563" />
	</node>
	<node lat="59.981614747668374" lon="9.420723023876299" id="-15483">
		<tag k="name" v="Kjommetjønn" />
		<tag k="natural" v="water" />
		<tag k="ssr:stedsnr" v="914295" />
	</node>
	<node lat="60.00789999643676" lon="9.108269445361323" id="-15488">
		<tag k="name" v="Åkroken" />
		<tag k="place" v="locality" />
		<tag k="ssr:stedsnr" v="915275" />
	</node>
	<node lat="60.073636158613986" lon="8.983875100775613" id="-15489">
		<tag k="name" v="Rusttjønn" />
		<tag k="natural" v="water" />
		<tag k="ssr:stedsnr" v="915704" />
	</node>
	<node lat="60.071594013998975" lon="9.158913153005374" id="-15490">
		<tag k="name" v="Dipilen" />
		<tag k="natural" v="water" />
		<tag k="ssr:stedsnr" v="915714" />
	</node>
	<node lat="60.06934737389547" lon="9.163433652267088" id="-15491">
		<tag k="name" v="Damtjønn" />
		<tag k="natural" v="water" />
		<tag k="ssr:stedsnr" v="915717" />
	</node>
	<node lat="60.00607222180347" lon="9.270155552494451" id="-15494">
		<tag k="name" v="Vårvikøy" />
		<tag k="place" v="island" />
		<tag k="ssr:stedsnr" v="935540" />
	</node>
	<node lat="60.01252777473045" lon="9.273913891709022" id="-15495">
		<tag k="name" v="Vierholmen" />
		<tag k="place" v="islet" />
		<tag k="ssr:stedsnr" v="935542" />
	</node>
	<node lat="60.07937222230637" lon="9.270222216768433" id="-15496">
		<tag k="name" v="Ambjørgstjønn" />
		<tag k="natural" v="water" />
		<tag k="ssr:stedsnr" v="939103" />
	</node>
	<node lat="59.987122226482136" lon="9.420991666061465" id="-15523">
		<tag k="name" v="Svartekulp" />
		<tag k="place" v="locality" />
		<tag k="ssr:stedsnr" v="3283" />
	</node>
	<node lat="59.99931100471925" lon="9.37072668728692" id="-15526">
		<tag k="name" v="Svartetjønn" />
		<tag k="natural" v="water" />
		<tag k="ssr:stedsnr" v="3253" />
	</node>
	<node lat="59.95562499752484" lon="9.291422213276144" id="-15535">
		<tag k="name" v="Vesleåe" />
		<tag k="ssr:stedsnr" v="4336" />
		<tag k="waterway" v="stream" />
	</node>
	<node lat="59.95695948385321" lon="9.226801414827124" id="-15539">
		<tag k="name" v="Trihynnevatnet" />
		<tag k="natural" v="water" />
		<tag k="old_name" v="Trehöine V.;Trehynne" />
		<tag k="ssr:stedsnr" v="4352" />
		<tag k="water" v="lake" />
	</node>
	<node lat="59.96497238922866" lon="9.083831877324386" id="-15542">
		<tag k="name" v="Larsetjønn" />
		<tag k="natural" v="water" />
		<tag k="ssr:stedsnr" v="4596" />
	</node>
	<node lat="60.09105234464232" lon="9.132527367139486" id="-15544">
		<tag k="name" v="Lomtjønn" />
		<tag k="natural" v="water" />
		<tag k="ssr:stedsnr" v="4696" />
	</node>
	<node lat="60.003366662371974" lon="9.233552780711113" id="-15561">
		<tag k="name" v="Stavafjellbekken" />
		<tag k="ssr:stedsnr" v="28851" />
		<tag k="waterway" v="stream" />
	</node>
	<node lat="60.137853679527765" lon="9.189127274837325" id="-15567">
		<tag k="name" v="Lensmannslauge" />
		<tag k="natural" v="water" />
		<tag k="ssr:stedsnr" v="29441" />
	</node>
	<node lat="60.019133330862545" lon="9.14092222814008" id="-15580">
		<tag k="name" v="Haugefoss" />
		<tag k="natural" v="waterfall" />
		<tag k="ssr:stedsnr" v="29739" />
	</node>
	<node lat="59.959747221669076" lon="9.252080548675105" id="-15586">
		<tag k="name" v="Trihynneelve" />
		<tag k="ssr:stedsnr" v="64325" />
		<tag k="waterway" v="stream" />
	</node>
	<node lat="60.0536444484634" lon="9.352502785418114" id="-15590">
		<tag k="name" v="Vesle Øytjønn" />
		<tag k="natural" v="water" />
		<tag k="ssr:stedsnr" v="65055" />
	</node>
	<node lat="60.06557777663537" lon="9.010294435948392" id="-15592">
		<tag k="name" v="Søre Ruståe" />
		<tag k="ssr:stedsnr" v="65719" />
		<tag k="waterway" v="stream" />
	</node>
	<node lat="60.014633720483054" lon="9.348635692781736" id="-15594">
		<tag k="name" v="Bikkjetjønnan" />
		<tag k="natural" v="water" />
		<tag k="ssr:stedsnr" v="65025" />
		<tag k="water" v="lake" />
	</node>
	<node lat="60.13540839473985" lon="9.17908620982956" id="-15597">
		<tag k="name" v="Metjønn" />
		<tag k="natural" v="water" />
		<tag k="ssr:stedsnr" v="66475" />
	</node>
	<node lat="60.01457499617306" lon="9.19810555870485" id="-15598">
		<tag k="name" v="Grånåbubekken" />
		<tag k="ssr:stedsnr" v="65260" />
		<tag k="waterway" v="stream" />
	</node>
	<node lat="60.027289581150356" lon="9.021947099784773" id="-15599">
		<tag k="name" v="Kråkåsløken" />
		<tag k="natural" v="water" />
		<tag k="ssr:stedsnr" v="65349" />
	</node>
	<node lat="59.962282374423715" lon="9.11150081644244" id="-15603">
		<tag k="name" v="Søtelitjønn" />
		<tag k="natural" v="water" />
		<tag k="ssr:stedsnr" v="65580" />
	</node>
	<node lat="59.97046388554138" lon="9.11170555617849" id="-15604">
		<tag k="name" v="Søtelibekken" />
		<tag k="ssr:stedsnr" v="65596" />
		<tag k="waterway" v="stream" />
	</node>
	<node lat="60.00343634122898" lon="9.038879546864704" id="-15609">
		<tag k="name" v="Søre Kjølvatn" />
		<tag k="natural" v="water" />
		<tag k="ssr:stedsnr" v="65928" />
	</node>
	<node lat="59.995729824307084" lon="9.156211773378507" id="-15610">
		<tag k="name" v="Røynebuvatnet" />
		<tag k="natural" v="water" />
		<tag k="ssr:stedsnr" v="65944" />
	</node>
	<node lat="60.07834166748351" lon="9.249266670796322" id="-15620">
		<tag k="name" v="Raubekk" />
		<tag k="ssr:stedsnr" v="89134" />
		<tag k="waterway" v="stream" />
	</node>
	<node lat="59.99198333253456" lon="9.09631667016454" id="-15635">
		<tag k="name" v="Skjenholttjønn" />
		<tag k="natural" v="water" />
		<tag k="ssr:stedsnr" v="89771" />
	</node>
	<node lat="59.99726111212293" lon="9.225530554410463" id="-15642">
		<tag k="name" v="Ståvåfjellbekken" />
		<tag k="ssr:stedsnr" v="89895" />
		<tag k="waterway" v="stream" />
	</node>
	<node lat="59.9784055552649" lon="9.29960000428812" id="-15646">
		<tag k="name" v="Svanesand" />
		<tag k="natural" v="cape" />
		<tag k="ssr:stedsnr" v="89951" />
	</node>
	<node lat="59.975624998302706" lon="9.05590556266544" id="-15649">
		<tag k="name" v="Fjellbekken" />
		<tag k="ssr:stedsnr" v="90153" />
		<tag k="waterway" v="stream" />
	</node>
	<node lat="60.034341662747465" lon="9.077344440526037" id="-15658">
		<tag k="name" v="Raudbekk" />
		<tag k="ssr:stedsnr" v="90638" />
		<tag k="waterway" v="stream" />
	</node>
	<node lat="59.97049343645023" lon="9.098714447972407" id="-15665">
		<tag k="name" v="Fjelltjønn" />
		<tag k="natural" v="water" />
		<tag k="ssr:stedsnr" v="125627" />
	</node>
	<node lat="59.93450277595569" lon="9.222461106696924" id="-15667">
		<tag k="name" v="Sørkjeåe" />
		<tag k="ssr:stedsnr" v="125150" />
		<tag k="waterway" v="stream" />
	</node>
	<node lat="60.03028611144028" lon="8.988813888366314" id="-15670">
		<tag k="name" v="Nordre Daggrøtjønn" />
		<tag k="natural" v="water" />
		<tag k="ssr:stedsnr" v="125383" />
	</node>
	<node lat="59.92621110722545" lon="9.224475004864239" id="-15671">
		<tag k="name" v="Djupedalsbekken" />
		<tag k="ssr:stedsnr" v="125173" />
		<tag k="waterway" v="stream" />
	</node>
	<node lat="59.99045277333732" lon="9.252663897752521" id="-15674">
		<tag k="name" v="Sandbekken" />
		<tag k="ssr:stedsnr" v="125286" />
		<tag k="waterway" v="stream" />
	</node>
	<node lat="59.921363877673656" lon="9.2068226408122" id="-15676">
		<tag k="name" v="Sandtjønn" />
		<tag k="natural" v="water" />
		<tag k="ssr:stedsnr" v="125526" />
	</node>
	<node lat="60.11069722544299" lon="9.140813883231969" id="-15678">
		<tag k="name" v="Skarvetjønn" />
		<tag k="natural" v="water" />
		<tag k="ssr:stedsnr" v="125542" />
	</node>
	<node lat="59.969880371537876" lon="9.081569968366273" id="-15680">
		<tag k="name" v="Søre Vorsetvatn" />
		<tag k="natural" v="water" />
		<tag k="ssr:stedsnr" v="125630" />
	</node>
	<node lat="59.99242106646283" lon="9.014017383977786" id="-15685">
		<tag k="name" v="Nordre Krokvatnet" />
		<tag k="natural" v="water" />
		<tag k="ssr:stedsnr" v="125917" />
	</node>
	<node lat="59.98846666655565" lon="9.12709444703972" id="-15686">
		<tag k="name" v="Skjerbrekka" />
		<tag k="ssr:stedsnr" v="125937" />
		<tag k="waterway" v="stream" />
	</node>
	<node lat="59.997216664685475" lon="9.144705554024485" id="-15687">
		<tag k="name" v="Helleåe" />
		<tag k="ssr:stedsnr" v="125939" />
		<tag k="waterway" v="stream" />
	</node>
	<node lat="60.009574997389436" lon="9.007113896730116" id="-15688">
		<tag k="name" v="Østre Ingebjørgtjønn" />
		<tag k="natural" v="water" />
		<tag k="ssr:stedsnr" v="126329" />
	</node>
	<node lat="60.0774999958148" lon="9.21225555671897" id="-15691">
		<tag k="name" v="Letjønnbekken" />
		<tag k="ssr:stedsnr" v="126719" />
		<tag k="waterway" v="stream" />
	</node>
	<node lat="60.042799999030954" lon="9.227902783561913" id="-15696">
		<tag k="name" v="Paddevikje" />
		<tag k="natural" v="water" />
		<tag k="ssr:stedsnr" v="149222" />
		<tag k="water" v="lake" />
	</node>
	<node lat="60.06701493784348" lon="9.333019783427554" id="-15699">
		<tag k="name" v="Dagfisket" />
		<tag k="natural" v="water" />
		<tag k="ssr:stedsnr" v="149630" />
	</node>
	<node lat="60.044908329505084" lon="9.385566668912038" id="-15700">
		<tag k="name" v="Grønlibekken" />
		<tag k="ssr:stedsnr" v="149643" />
		<tag k="waterway" v="stream" />
	</node>
	<node lat="60.0198038548164" lon="9.363784959178028" id="-15701">
		<tag k="name" v="Breiva" />
		<tag k="natural" v="water" />
		<tag k="ssr:stedsnr" v="149739" />
	</node>
	<node lat="59.981836278743614" lon="9.065137970131161" id="-15710">
		<tag k="name" v="Vorsetbekken" />
		<tag k="ssr:stedsnr" v="150443" />
		<tag k="waterway" v="stream" />
	</node>
	<node lat="60.02967222309396" lon="9.106433334449926" id="-15712">
		<tag k="name" v="Lienbekken" />
		<tag k="ssr:stedsnr" v="150634" />
		<tag k="waterway" v="stream" />
	</node>
	<node lat="59.98086389324378" lon="9.295869449393265" id="-15716">
		<tag k="name" v="Igletjønn" />
		<tag k="natural" v="water" />
		<tag k="ssr:stedsnr" v="150499" />
	</node>
	<node lat="59.935091663099726" lon="9.330466668596243" id="-15723">
		<tag k="name" v="Kvernhusroe" />
		<tag k="natural" v="bay" />
		<tag k="ssr:stedsnr" v="150734" />
	</node>
	<node lat="59.94919268078396" lon="9.243586174884703" id="-15726">
		<tag k="name" v="Salrudtjønn" />
=======
	<node id="-293718" lat="60.0074416648" lon="9.07262500369">
		<tag k="name" v="Halvfartjønn" />
		<tag k="natural" v="water" />
		<tag k="ssr:stedsnr" v="308256" />
		<tag k="water" v="lake" />
	</node>
	<node id="-293712" lat="60.0407999982" lon="9.03860554949">
		<tag k="name" v="Svartetjønn" />
		<tag k="natural" v="water" />
		<tag k="ssr:stedsnr" v="307677" />
	</node>
	<node id="-293710" lat="60.1175027805" lon="9.19459999381">
		<tag k="name" v="Langevatn" />
		<tag k="natural" v="water" />
		<tag k="ssr:stedsnr" v="307558" />
	</node>
	<node id="-293709" lat="60.1094694427" lon="9.18491111052">
		<tag k="name" v="Karvetjønn" />
		<tag k="natural" v="water" />
		<tag k="ssr:stedsnr" v="307551" />
	</node>
	<node id="-293707" lat="59.9622184" lon="9.38504660585">
		<tag k="name" v="Ulvikdamtjønn" />
		<tag k="natural" v="water" />
		<tag k="ssr:stedsnr" v="307360" />
	</node>
	<node id="-293706" lat="60.0263305512" lon="9.09223611811">
		<tag k="name" v="Åmotet" />
		<tag k="place" v="locality" />
		<tag k="ssr:stedsnr" v="307359" />
	</node>
	<node id="-293703" lat="59.9788083331" lon="9.43433889554">
		<tag k="name" v="Ormetjønnan" />
		<tag k="natural" v="water" />
		<tag k="ssr:stedsnr" v="307319" />
		<tag k="water" v="lake" />
	</node>
	<node id="-293701" lat="59.9988444488" lon="9.45900556012">
		<tag k="name" v="Elddalsbekken" />
		<tag k="ssr:stedsnr" v="307294" />
		<tag k="waterway" v="stream" />
	</node>
	<node id="-293700" lat="59.8905296894" lon="9.25177859504">
		<tag k="name" v="Einarstjønn" />
		<tag k="natural" v="water" />
		<tag k="ssr:stedsnr" v="307289" />
	</node>
	<node id="-293688" lat="59.934699998" lon="9.25683056174">
		<tag k="name" v="Østre Hågåtjønn" />
		<tag k="natural" v="water" />
		<tag k="ssr:stedsnr" v="211780" />
	</node>
	<node id="-293678" lat="59.9137555546" lon="9.35159999488">
		<tag k="name" v="Holmen" />
		<tag k="place" v="islet" />
		<tag k="ssr:stedsnr" v="211862" />
	</node>
	<node id="-293669" lat="59.9938472251" lon="9.27524166376">
		<tag k="name" v="Killingfet" />
		<tag k="natural" v="cape" />
		<tag k="ssr:stedsnr" v="211559" />
	</node>
	<node id="-293667" lat="59.9936476779" lon="9.06359494093">
		<tag k="name" v="Kringletjønn" />
		<tag k="natural" v="water" />
		<tag k="ssr:stedsnr" v="211449" />
	</node>
	<node id="-293655" lat="60.0796972265" lon="9.30151111409">
		<tag k="name" v="Tjønndalstjønnan" />
		<tag k="natural" v="water" />
		<tag k="ssr:stedsnr" v="211099" />
		<tag k="water" v="lake" />
	</node>
	<node id="-293645" lat="60.139466669" lon="9.21105555629">
		<tag k="name" v="Fjellbekk" />
		<tag k="ssr:stedsnr" v="187477" />
		<tag k="waterway" v="stream" />
	</node>
	<node id="-293640" lat="60.0012499997" lon="9.00618611257">
		<tag k="name" v="Ljosvatn" />
		<tag k="natural" v="water" />
		<tag k="ssr:stedsnr" v="186915" />
	</node>
	<node id="-293639" lat="59.9977294292" lon="9.00155046018">
		<tag k="name" v="Austmannbutjønn" />
		<tag k="natural" v="water" />
		<tag k="ssr:stedsnr" v="186912" />
	</node>
	<node id="-293637" lat="60.1024111099" lon="9.20902499889">
		<tag k="name" v="Damtjønnbekken" />
		<tag k="ssr:stedsnr" v="186743" />
		<tag k="waterway" v="stream" />
	</node>
	<node id="-293634" lat="60.0473888909" lon="9.02072222094">
		<tag k="name" v="Lisetåe" />
		<tag k="ssr:stedsnr" v="186676" />
		<tag k="waterway" v="stream" />
	</node>
	<node id="-293633" lat="60.0517517543" lon="8.98436027109">
		<tag k="name" v="Svarttjønn" />
		<tag k="natural" v="water" />
		<tag k="ssr:stedsnr" v="186672" />
	</node>
	<node id="-293628" lat="60.0226944457" lon="9.04141388303">
		<tag k="name" v="Trytetjønnbekken" />
		<tag k="ssr:stedsnr" v="186376" />
		<tag k="waterway" v="stream" />
	</node>
	<node id="-293625" lat="59.8944466397" lon="9.25884122293">
		<tag k="name" v="Fiskeløysen" />
		<tag k="natural" v="water" />
		<tag k="ssr:stedsnr" v="186253" />
		<tag k="water" v="lake" />
	</node>
	<node id="-293624" lat="59.893295068" lon="9.23145221635">
		<tag k="name" v="Kroktjønn" />
		<tag k="natural" v="water" />
		<tag k="ssr:stedsnr" v="186230" />
	</node>
	<node id="-293623" lat="59.9006055572" lon="9.22186110495">
		<tag k="name" v="Kroktjønnbekken" />
		<tag k="ssr:stedsnr" v="186228" />
		<tag k="waterway" v="stream" />
	</node>
	<node id="-293621" lat="59.9159361972" lon="9.29320267315">
		<tag k="name" v="Stabekktjønn" />
		<tag k="natural" v="water" />
		<tag k="ssr:stedsnr" v="186194" />
	</node>
	<node id="-293618" lat="59.9902055576" lon="9.45030000552">
		<tag k="name" v="Ellingstjønnbekken" />
		<tag k="ssr:stedsnr" v="185289" />
		<tag k="waterway" v="stream" />
	</node>
	<node id="-293604" lat="59.9491926808" lon="9.24358617488">
		<tag k="name" v="Salrudtjønn" />
		<tag k="natural" v="water" />
		<tag k="ssr:stedsnr" v="150798" />
	</node>
	<node id="-293603" lat="59.9421888848" lon="9.18694722678">
		<tag k="name" v="Sindertangen" />
		<tag k="natural" v="cape" />
		<tag k="ssr:stedsnr" v="150776" />
	</node>
	<node id="-293586" lat="60.0296722231" lon="9.10643333445">
		<tag k="name" v="Lienbekken" />
		<tag k="ssr:stedsnr" v="150634" />
		<tag k="waterway" v="stream" />
	</node>
	<node id="-293583" lat="59.9808638932" lon="9.29586944939">
		<tag k="name" v="Igletjønn" />
		<tag k="natural" v="water" />
		<tag k="ssr:stedsnr" v="150499" />
	</node>
	<node id="-293580" lat="59.9818362787" lon="9.06513797013">
		<tag k="name" v="Vorsetbekken" />
		<tag k="ssr:stedsnr" v="150443" />
		<tag k="waterway" v="stream" />
	</node>
	<node id="-293572" lat="60.0198038548" lon="9.36378495918">
		<tag k="name" v="Breiva" />
		<tag k="natural" v="water" />
		<tag k="ssr:stedsnr" v="149739" />
	</node>
	<node id="-293571" lat="60.0449083295" lon="9.38556666891">
		<tag k="name" v="Grønlibekken" />
		<tag k="ssr:stedsnr" v="149643" />
		<tag k="waterway" v="stream" />
	</node>
	<node id="-293570" lat="60.0670149378" lon="9.33301978343">
		<tag k="name" v="Dagfisket" />
		<tag k="natural" v="water" />
		<tag k="ssr:stedsnr" v="149630" />
	</node>
	<node id="-293567" lat="60.042799999" lon="9.22790278356">
		<tag k="name" v="Paddevikje" />
		<tag k="natural" v="water" />
		<tag k="ssr:stedsnr" v="149222" />
		<tag k="water" v="lake" />
	</node>
	<node id="-293560" lat="60.0774999958" lon="9.21225555672">
		<tag k="name" v="Letjønnbekken" />
		<tag k="ssr:stedsnr" v="126719" />
		<tag k="waterway" v="stream" />
	</node>
	<node id="-293555" lat="60.0166000044" lon="9.06103333511">
		<tag k="name" v="Svarteløkbekken" />
		<tag k="ssr:stedsnr" v="126344" />
		<tag k="waterway" v="stream" />
	</node>
	<node id="-293554" lat="60.0095749974" lon="9.00711389673">
		<tag k="name" v="Østre Ingebjørgtjønn" />
		<tag k="natural" v="water" />
		<tag k="ssr:stedsnr" v="126329" />
	</node>
	<node id="-293552" lat="60.0663549735" lon="9.29431719142">
		<tag k="name" v="Myklevatn" />
		<tag k="natural" v="water" />
		<tag k="old_name" v="Myke V." />
		<tag k="ssr:stedsnr" v="126085" />
		<tag k="water" v="lake" />
	</node>
	<node id="-293551" lat="59.9972166647" lon="9.14470555402">
		<tag k="name" v="Helleåe" />
		<tag k="ssr:stedsnr" v="125939" />
		<tag k="waterway" v="stream" />
	</node>
	<node id="-293550" lat="59.9884666666" lon="9.12709444704">
		<tag k="name" v="Skjerbrekka" />
		<tag k="ssr:stedsnr" v="125937" />
		<tag k="waterway" v="stream" />
	</node>
	<node id="-293549" lat="59.9924210665" lon="9.01401738398">
		<tag k="name" v="Nordre Krokvatnet" />
		<tag k="natural" v="water" />
		<tag k="ssr:stedsnr" v="125917" />
	</node>
	<node id="-293538" lat="59.941633336" lon="9.1453916631">
		<tag k="name" v="Breivik" />
		<tag k="natural" v="bay" />
		<tag k="ssr:stedsnr" v="125569" />
	</node>
	<node id="-293536" lat="60.1181638851" lon="9.20909722048">
		<tag k="name" v="Skjolbekken" />
		<tag k="ssr:stedsnr" v="125549" />
		<tag k="waterway" v="stream" />
	</node>
	<node id="-293535" lat="60.0302861114" lon="8.98881388837">
		<tag k="name" v="Nordre Daggrøtjønn" />
		<tag k="natural" v="water" />
		<tag k="ssr:stedsnr" v="125383" />
	</node>
	<node id="-293529" lat="59.9921074983" lon="9.37026316323">
		<tag k="name" v="Tjønnesetertjønn" />
		<tag k="natural" v="water" />
		<tag k="ssr:stedsnr" v="125312" />
	</node>
	<node id="-293527" lat="59.9904527733" lon="9.25266389775">
		<tag k="name" v="Sandbekken" />
		<tag k="ssr:stedsnr" v="125286" />
		<tag k="waterway" v="stream" />
	</node>
	<node id="-293523" lat="59.9262111072" lon="9.22447500486">
		<tag k="name" v="Djupedalsbekken" />
		<tag k="ssr:stedsnr" v="125173" />
		<tag k="waterway" v="stream" />
	</node>
	<node id="-293522" lat="59.934502776" lon="9.2224611067">
		<tag k="name" v="Sørkjeåe" />
		<tag k="ssr:stedsnr" v="125150" />
		<tag k="waterway" v="stream" />
	</node>
	<node id="-293518" lat="60.0173583327" lon="9.30653332813">
		<tag k="name" v="Fyrisetbekken" />
		<tag k="ssr:stedsnr" v="125022" />
		<tag k="waterway" v="stream" />
	</node>
	<node id="-293516" lat="60.1106972254" lon="9.14081388323">
		<tag k="name" v="Skarvetjønn" />
		<tag k="natural" v="water" />
		<tag k="ssr:stedsnr" v="125542" />
	</node>
	<node id="-293514" lat="59.9213638777" lon="9.20682264081">
		<tag k="name" v="Sandtjønn" />
		<tag k="natural" v="water" />
		<tag k="ssr:stedsnr" v="125526" />
	</node>
	<node id="-293498" lat="59.9918938523" lon="9.0438426774">
		<tag k="name" v="Størrtjønn" />
		<tag k="natural" v="water" />
		<tag k="ssr:stedsnr" v="90430" />
	</node>
	<node id="-293488" lat="59.9756249983" lon="9.05590556267">
		<tag k="name" v="Fjellbekken" />
		<tag k="ssr:stedsnr" v="90153" />
		<tag k="waterway" v="stream" />
	</node>
	<node id="-293483" lat="59.9784055553" lon="9.29960000429">
		<tag k="name" v="Svanesand" />
		<tag k="natural" v="cape" />
		<tag k="ssr:stedsnr" v="89951" />
	</node>
	<node id="-293482" lat="59.9972611121" lon="9.22553055441">
		<tag k="name" v="Ståvåfjellbekken" />
		<tag k="ssr:stedsnr" v="89895" />
		<tag k="waterway" v="stream" />
	</node>
	<node id="-293475" lat="59.9919833325" lon="9.09631667016">
		<tag k="name" v="Skjenholttjønn" />
		<tag k="natural" v="water" />
		<tag k="ssr:stedsnr" v="89771" />
	</node>
	<node id="-293473" lat="60.01698611" lon="9.38754166106">
		<tag k="name" v="Ånestjønn" />
		<tag k="natural" v="water" />
		<tag k="ssr:stedsnr" v="89734" />
		<tag k="water" v="pond" />
	</node>
	<node id="-293454" lat="60.0783416675" lon="9.2492666708">
		<tag k="name" v="Raubekk" />
		<tag k="ssr:stedsnr" v="89134" />
		<tag k="waterway" v="stream" />
	</node>
	<node id="-293452" lat="60.1354083947" lon="9.17908620983">
		<tag k="name" v="Metjønn" />
		<tag k="natural" v="water" />
		<tag k="ssr:stedsnr" v="66475" />
	</node>
	<node id="-293449" lat="59.9957298243" lon="9.15621177338">
		<tag k="name" v="Røynebuvatnet" />
		<tag k="natural" v="water" />
		<tag k="ssr:stedsnr" v="65944" />
	</node>
	<node id="-293448" lat="60.0034363412" lon="9.03887954686">
		<tag k="name" v="Søre Kjølvatn" />
		<tag k="natural" v="water" />
		<tag k="ssr:stedsnr" v="65928" />
	</node>
	<node id="-293445" lat="59.9704638855" lon="9.11170555618">
		<tag k="name" v="Søtelibekken" />
		<tag k="ssr:stedsnr" v="65596" />
		<tag k="waterway" v="stream" />
	</node>
	<node id="-293444" lat="59.9622823744" lon="9.11150081644">
		<tag k="name" v="Søtelitjønn" />
		<tag k="natural" v="water" />
		<tag k="ssr:stedsnr" v="65580" />
	</node>
	<node id="-293440" lat="60.0272895812" lon="9.02194709978">
		<tag k="name" v="Kråkåsløken" />
		<tag k="natural" v="water" />
		<tag k="ssr:stedsnr" v="65349" />
	</node>
	<node id="-293438" lat="60.0145749962" lon="9.1981055587">
		<tag k="name" v="Grånåbubekken" />
		<tag k="ssr:stedsnr" v="65260" />
		<tag k="waterway" v="stream" />
	</node>
	<node id="-293436" lat="60.0536444485" lon="9.35250278542">
		<tag k="name" v="Vesle Øytjønn" />
		<tag k="natural" v="water" />
		<tag k="ssr:stedsnr" v="65055" />
	</node>
	<node id="-293434" lat="60.0146337205" lon="9.34863569278">
		<tag k="name" v="Bikkjetjønnan" />
		<tag k="natural" v="water" />
		<tag k="ssr:stedsnr" v="65025" />
		<tag k="water" v="lake" />
	</node>
	<node id="-293421" lat="59.9785111109" lon="9.33563888438">
		<tag k="name" v="Berganbekken" />
		<tag k="ssr:stedsnr" v="29885" />
		<tag k="waterway" v="stream" />
	</node>
	<node id="-293407" lat="60.0191333309" lon="9.14092222814">
		<tag k="name" v="Haugefoss" />
		<tag k="natural" v="waterfall" />
		<tag k="ssr:stedsnr" v="29739" />
	</node>
	<node id="-293392" lat="60.1378536795" lon="9.18912727484">
		<tag k="name" v="Lensmannslauge" />
		<tag k="natural" v="water" />
		<tag k="ssr:stedsnr" v="29441" />
	</node>
	<node id="-293389" lat="60.0506785656" lon="9.15321531463">
		<tag k="name" v="Gåsetjønn" />
		<tag k="natural" v="water" />
		<tag k="ssr:stedsnr" v="29330" />
	</node>
	<node id="-293370" lat="60.0729499989" lon="9.10216388685">
		<tag k="name" v="Skavlembekken" />
		<tag k="ssr:stedsnr" v="5703" />
		<tag k="waterway" v="stream" />
	</node>
	<node id="-293369" lat="60.1500500021" lon="9.2117777851">
		<tag k="name" v="Repetjønn" />
		<tag k="natural" v="water" />
		<tag k="ssr:stedsnr" v="5503" />
	</node>
	<node id="-293368" lat="60.0084251587" lon="9.00183941113">
		<tag k="name" v="Vestre Ingebjørgtjønn" />
		<tag k="natural" v="water" />
		<tag k="ssr:stedsnr" v="5317" />
	</node>
	<node id="-293366" lat="60.0967138896" lon="9.3210166681">
		<tag k="name" v="Vestmannåa" />
		<tag k="ssr:stedsnr" v="5108" />
		<tag k="waterway" v="stream" />
	</node>
	<node id="-293362" lat="60.0031333315" lon="9.11723889325">
		<tag k="name" v="Fjordungsbekken" />
		<tag k="ssr:stedsnr" v="4939" />
		<tag k="waterway" v="stream" />
	</node>
	<node id="-293361" lat="59.9876694401" lon="9.04231111573">
		<tag k="name" v="Viergrøbekken" />
		<tag k="ssr:stedsnr" v="4937" />
		<tag k="waterway" v="stream" />
	</node>
	<node id="-293356" lat="60.0910523446" lon="9.13252736714">
		<tag k="name" v="Lomtjønn" />
		<tag k="natural" v="water" />
		<tag k="ssr:stedsnr" v="4696" />
	</node>
	<node id="-293350" lat="59.9693742389" lon="9.14607294266">
		<tag k="name" v="Steintjønn" />
		<tag k="natural" v="water" />
		<tag k="ssr:stedsnr" v="4616" />
	</node>
	<node id="-293349" lat="59.9649723892" lon="9.08383187732">
		<tag k="name" v="Larsetjønn" />
		<tag k="natural" v="water" />
		<tag k="ssr:stedsnr" v="4596" />
	</node>
	<node id="-293345" lat="59.9166833369" lon="9.1961138815">
		<tag k="name" v="Buåe" />
		<tag k="ssr:stedsnr" v="4514" />
		<tag k="waterway" v="stream" />
	</node>
	<node id="-293344" lat="59.9569594839" lon="9.22680141483">
		<tag k="name" v="Trihynnevatnet" />
		<tag k="natural" v="water" />
		<tag k="old_name" v="Trehöine V.;Trehynne" />
		<tag k="ssr:stedsnr" v="4352" />
		<tag k="water" v="lake" />
	</node>
	<node id="-293340" lat="59.9556249975" lon="9.29142221328">
		<tag k="name" v="Vesleåe" />
		<tag k="ssr:stedsnr" v="4336" />
		<tag k="waterway" v="stream" />
	</node>
	<node id="-293330" lat="59.9871222265" lon="9.42099166606">
		<tag k="name" v="Svartekulp" />
		<tag k="place" v="locality" />
		<tag k="ssr:stedsnr" v="3283" />
	</node>
	<node id="-293327" lat="59.9993110047" lon="9.37072668729">
		<tag k="name" v="Svartetjønn" />
		<tag k="natural" v="water" />
		<tag k="ssr:stedsnr" v="3253" />
	</node>
	<node id="-293310" lat="60.125411111" lon="9.1592277802">
		<tag k="name" v="Fremstetjønnbekken" />
		<tag k="ssr:stedsnr" v="939472" />
		<tag k="waterway" v="stream" />
	</node>
	<node id="-293306" lat="60.0793722223" lon="9.27022221677">
		<tag k="name" v="Ambjørgstjønn" />
		<tag k="natural" v="water" />
		<tag k="ssr:stedsnr" v="939103" />
	</node>
	<node id="-293305" lat="60.0125277747" lon="9.27391389171">
		<tag k="name" v="Vierholmen" />
		<tag k="place" v="islet" />
		<tag k="ssr:stedsnr" v="935542" />
	</node>
	<node id="-293304" lat="60.0060722218" lon="9.27015555249">
		<tag k="name" v="Vårvikøy" />
		<tag k="place" v="island" />
		<tag k="ssr:stedsnr" v="935540" />
	</node>
	<node id="-293301" lat="60.0693473739" lon="9.16343365227">
		<tag k="name" v="Damtjønn" />
		<tag k="natural" v="water" />
		<tag k="ssr:stedsnr" v="915717" />
	</node>
	<node id="-293300" lat="60.071594014" lon="9.15891315301">
		<tag k="name" v="Dipilen" />
		<tag k="natural" v="water" />
		<tag k="ssr:stedsnr" v="915714" />
	</node>
	<node id="-293299" lat="60.0736361586" lon="8.98387510078">
		<tag k="name" v="Rusttjønn" />
		<tag k="natural" v="water" />
		<tag k="ssr:stedsnr" v="915704" />
	</node>
	<node id="-293298" lat="60.119737691" lon="9.22896649245">
		<tag k="name" v="Grasbekktjønnan" />
		<tag k="natural" v="water" />
		<tag k="ssr:stedsnr" v="915364" />
		<tag k="water" v="lake" />
	</node>
	<node id="-293297" lat="60.0078999964" lon="9.10826944536">
		<tag k="name" v="Åkroken" />
		<tag k="place" v="locality" />
		<tag k="ssr:stedsnr" v="915275" />
	</node>
	<node id="-293294" lat="59.9612750044" lon="9.08336111741">
		<tag k="name" v="Kroktjønnbekken" />
		<tag k="ssr:stedsnr" v="879506" />
		<tag k="waterway" v="stream" />
	</node>
	<node id="-293293" lat="59.9739222236" lon="9.13092499506">
		<tag k="name" v="Skjerbrekktjønn" />
		<tag k="natural" v="water" />
		<tag k="ssr:stedsnr" v="878604" />
	</node>
	<node id="-293290" lat="60.0262583313" lon="9.28895277627">
		<tag k="name" v="Nordåe" />
		<tag k="ssr:stedsnr" v="855029" />
		<tag k="waterway" v="stream" />
	</node>
	<node id="-293283" lat="60.0184805541" lon="9.082752783">
		<tag k="name" v="Fossebrottet" />
		<tag k="natural" v="waterfall" />
		<tag k="ssr:stedsnr" v="854310" />
	</node>
	<node id="-293282" lat="59.9448447876" lon="9.22911302258">
		<tag k="name" v="Deilestjønn" />
		<tag k="natural" v="water" />
		<tag k="ssr:stedsnr" v="854121" />
	</node>
	<node id="-293278" lat="59.9806161297" lon="9.36927732653">
		<tag k="name" v="Møretjønn" />
		<tag k="natural" v="water" />
		<tag k="ssr:stedsnr" v="853279" />
	</node>
	<node id="-293268" lat="59.9897420152" lon="9.40157376832">
		<tag k="name" v="Karttjønn" />
		<tag k="natural" v="water" />
		<tag k="ssr:stedsnr" v="939895" />
	</node>
	<node id="-293258" lat="59.9533527809" lon="9.31480554979">
		<tag k="name" v="Lomholmen" />
		<tag k="place" v="islet" />
		<tag k="ssr:stedsnr" v="939789" />
	</node>
	<node id="-293257" lat="59.9350833299" lon="9.28276111206">
		<tag k="name" v="Søysetfossen" />
		<tag k="natural" v="waterfall" />
		<tag k="ssr:stedsnr" v="939787" />
	</node>
	<node id="-293255" lat="60.0080666681" lon="9.26843332499">
		<tag k="name" v="Fetjantjønn" />
		<tag k="natural" v="water" />
		<tag k="ssr:stedsnr" v="939764" />
	</node>
	<node id="-293253" lat="60.0054180747" lon="9.27524308038">
		<tag k="name" v="Rykkintjønn" />
		<tag k="natural" v="water" />
		<tag k="ssr:stedsnr" v="939760" />
	</node>
	<node id="-293251" lat="60.0151305546" lon="9.08639443912">
		<tag k="name" v="Soterudbekken" />
		<tag k="ssr:stedsnr" v="939731" />
		<tag k="waterway" v="stream" />
	</node>
	<node id="-293248" lat="60.0146499989" lon="9.11752777534">
		<tag k="name" v="Langelibekken" />
		<tag k="ssr:stedsnr" v="939668" />
		<tag k="waterway" v="stream" />
	</node>
	<node id="-293247" lat="60.0395555556" lon="9.08796666066">
		<tag k="name" v="Stakkestubekken" />
		<tag k="ssr:stedsnr" v="939661" />
		<tag k="waterway" v="stream" />
	</node>
	<node id="-293243" lat="59.9912638925" lon="9.28065555571">
		<tag k="name" v="Deilesrabben" />
		<tag k="natural" v="cape" />
		<tag k="ssr:stedsnr" v="939572" />
	</node>
	<node id="-293233" lat="60.0522866156" lon="9.27140506862">
		<tag k="name" v="Repetjønnan" />
		<tag k="natural" v="water" />
		<tag k="ssr:stedsnr" v="939191" />
		<tag k="water" v="lake" />
	</node>
	<node id="-293225" lat="60.0530000028" lon="9.22311667283">
		<tag k="name" v="Brøtningsbekken" />
		<tag k="ssr:stedsnr" v="939143" />
		<tag k="waterway" v="stream" />
	</node>
	<node id="-293221" lat="60.0802879574" lon="9.27492514139">
		<tag k="name" v="Svartetjønn" />
		<tag k="natural" v="water" />
		<tag k="ssr:stedsnr" v="939100" />
	</node>
	<node id="-293212" lat="59.9789999986" lon="9.30463056233">
		<tag k="name" v="Nesevju" />
		<tag k="natural" v="bay" />
		<tag k="ssr:stedsnr" v="818821" />
	</node>
	<node id="-293207" lat="59.9210227242" lon="9.30239205935">
		<tag k="name" v="Jommetjønn" />
		<tag k="natural" v="water" />
		<tag k="ssr:stedsnr" v="818760" />
	</node>
	<node id="-293206" lat="59.9841777755" lon="9.07354445056">
		<tag k="name" v="Løken" />
		<tag k="ssr:stedsnr" v="818753" />
		<tag k="waterway" v="stream" />
	</node>
	<node id="-293205" lat="59.9906611112" lon="9.15917777937">
		<tag k="name" v="Gygerhølen" />
		<tag k="place" v="locality" />
		<tag k="ssr:stedsnr" v="818711" />
	</node>
	<node id="-293202" lat="60.1192348193" lon="9.19003025537">
		<tag k="name" v="Slåttemyrtjønn" />
		<tag k="natural" v="water" />
		<tag k="ssr:stedsnr" v="818466" />
	</node>
	<node id="-293201" lat="60.1122861141" lon="9.13615556267">
		<tag k="name" v="Skarvetjønnbekken" />
		<tag k="ssr:stedsnr" v="818462" />
		<tag k="waterway" v="stream" />
	</node>
	<node id="-293191" lat="60.0682444455" lon="9.27905000872">
		<tag k="name" v="Sagbekk" />
		<tag k="ssr:stedsnr" v="817105" />
		<tag k="waterway" v="stream" />
	</node>
	<node id="-293188" lat="59.9593659879" lon="9.10652233853">
		<tag k="name" v="Molteskarvtjønn" />
		<tag k="natural" v="water" />
		<tag k="ssr:stedsnr" v="793626" />
	</node>
	<node id="-293186" lat="60.1217917829" lon="9.21557206858">
		<tag k="name" v="Skjolbekktjønn" />
		<tag k="natural" v="water" />
		<tag k="ssr:stedsnr" v="793583" />
	</node>
	<node id="-293184" lat="59.9111027774" lon="9.33127221965">
		<tag k="name" v="Rostadelve" />
		<tag k="ssr:stedsnr" v="793226" />
		<tag k="waterway" v="stream" />
	</node>
	<node id="-293177" lat="59.9419444485" lon="9.34891112006">
		<tag k="name" v="Helletjønnelve" />
		<tag k="ssr:stedsnr" v="792164" />
		<tag k="waterway" v="stream" />
	</node>
	<node id="-293173" lat="60.1357671188" lon="9.21665999529">
		<tag k="alt_name" v="Blåtjørnan" />
		<tag k="name" v="Blåtjønnan" />
		<tag k="natural" v="water" />
		<tag k="ssr:stedsnr" v="915481" />
		<tag k="water" v="lake" />
	</node>
	<node id="-293163" lat="60.0597711545" lon="9.19979666596">
		<tag k="name" v="Leiketjønn" />
		<tag k="natural" v="water" />
		<tag k="ssr:stedsnr" v="914652" />
	</node>
	<node id="-293162" lat="59.9500944093" lon="9.21081684094">
		<tag k="name" v="Øvre Svartetjønn" />
		<tag k="natural" v="water" />
		<tag k="ssr:stedsnr" v="914585" />
	</node>
	<node id="-293159" lat="60.0304777812" lon="9.08354999358">
		<tag k="name" v="Årsetåe" />
		<tag k="ssr:stedsnr" v="914362" />
		<tag k="waterway" v="river" />
	</node>
	<node id="-293155" lat="59.9816147477" lon="9.42072302388">
		<tag k="name" v="Kjommetjønn" />
		<tag k="natural" v="water" />
		<tag k="ssr:stedsnr" v="914295" />
	</node>
	<node id="-293149" lat="59.9433828094" lon="9.24770954904">
		<tag k="name" v="Hugartjønn" />
		<tag k="natural" v="water" />
		<tag k="ssr:stedsnr" v="914146" />
	</node>
	<node id="-293144" lat="59.9670694411" lon="9.30845555665">
		<tag k="name" v="Ryggenes" />
		<tag k="natural" v="cape" />
		<tag k="ssr:stedsnr" v="757953" />
	</node>
	<node id="-293139" lat="60.0093138854" lon="9.16100832997">
		<tag k="name" v="Flåtabekk" />
		<tag k="ssr:stedsnr" v="757715" />
		<tag k="waterway" v="stream" />
	</node>
	<node id="-293134" lat="60.0224161801" lon="9.41300355275">
		<tag k="name" v="Øgnevatn" />
		<tag k="natural" v="water" />
		<tag k="old_name" v="Öine - V." />
		<tag k="ssr:stedsnr" v="732040" />
		<tag k="water" v="lake" />
	</node>
	<node id="-293123" lat="59.9376944418" lon="9.2340111024">
		<tag k="name" v="Fyrisetløken" />
		<tag k="place" v="locality" />
		<tag k="ssr:stedsnr" v="696806" />
	</node>
	<node id="-293121" lat="60.0030472224" lon="9.25799443941">
		<tag k="name" v="Søre Fetjanbekk" />
		<tag k="ssr:stedsnr" v="696608" />
		<tag k="waterway" v="stream" />
	</node>
	<node id="-293112" lat="60.1267083373" lon="9.23210555658">
		<tag k="name" v="Harkildsdalelva" />
		<tag k="ssr:stedsnr" v="696317" />
		<tag k="waterway" v="stream" />
	</node>
	<node id="-293110" lat="60.1138333303" lon="9.23377221556">
		<tag k="name" v="Rovetjønn" />
		<tag k="natural" v="water" />
		<tag k="ssr:stedsnr" v="696314" />
	</node>
	<node id="-293109" lat="60.0130361146" lon="9.27699166312">
		<tag k="name" v="Tråholmen" />
		<tag k="place" v="islet" />
		<tag k="ssr:stedsnr" v="693577" />
	</node>
	<node id="-293102" lat="59.9655638858" lon="9.27779722286">
		<tag k="name" v="Tinnesbekken" />
		<tag k="ssr:stedsnr" v="671346" />
		<tag k="waterway" v="stream" />
	</node>
	<node id="-293097" lat="59.9405194473" lon="9.14869444044">
		<tag k="name" v="Slaggodden" />
		<tag k="natural" v="cape" />
		<tag k="ssr:stedsnr" v="879582" />
	</node>
	<node id="-293096" lat="60.069880559" lon="9.31260833268">
		<tag k="name" v="Ristjønn" />
		<tag k="natural" v="water" />
		<tag k="ssr:stedsnr" v="879563" />
	</node>
	<node id="-293081" lat="59.9566277753" lon="9.30995555792">
		<tag k="name" v="Rudstryken" />
		<tag k="ssr:stedsnr" v="878812" />
		<tag k="waterway" v="rapids" />
	</node>
	<node id="-293070" lat="59.9941833351" lon="9.27634443954">
		<tag k="name" v="Killingfetøy" />
		<tag k="place" v="islet" />
		<tag k="ssr:stedsnr" v="878626" />
	</node>
	<node id="-293064" lat="60.043963885" lon="9.19053333095">
		<tag k="name" v="Gvamsvikje" />
		<tag k="natural" v="water" />
		<tag k="ssr:stedsnr" v="878376" />
		<tag k="water" v="pond" />
	</node>
	<node id="-293052" lat="60.0399361073" lon="9.22379166843">
		<tag k="name" v="Heggenga" />
		<tag k="natural" v="cape" />
		<tag k="ssr:stedsnr" v="878260" />
	</node>
	<node id="-293035" lat="60.1032833339" lon="9.05722499602">
		<tag k="name" v="Kravikfjorden" />
		<tag k="natural" v="water" />
		<tag k="ssr:stedsnr" v="733530" />
	</node>
	<node id="-293033" lat="60.0134500022" lon="9.1499527733">
		<tag k="name" v="Åkroken" />
		<tag k="place" v="locality" />
		<tag k="ssr:stedsnr" v="733316" />
	</node>
	<node id="-293027" lat="60.0215166666" lon="9.33186388323">
		<tag k="name" v="Tverråe" />
		<tag k="ssr:stedsnr" v="733044" />
		<tag k="waterway" v="stream" />
	</node>
	<node id="-293024" lat="59.988910947" lon="9.0697672642">
		<tag k="name" v="Sundtjønn" />
		<tag k="natural" v="water" />
		<tag k="ssr:stedsnr" v="732924" />
		<tag k="water" v="lake" />
	</node>
	<node id="-293023" lat="59.9791844906" lon="9.07336660486">
		<tag k="name" v="Lomtjønn" />
		<tag k="natural" v="water" />
		<tag k="ssr:stedsnr" v="732885" />
	</node>
	<node id="-293021" lat="59.9855895591" lon="9.01202567574">
		<tag k="name" v="Haugetjønn" />
		<tag k="natural" v="water" />
		<tag k="ssr:stedsnr" v="732868" />
	</node>
	<node id="-293019" lat="60.1032361137" lon="9.12250834216">
		<tag k="name" v="Nedre Puttetjønn" />
		<tag k="natural" v="water" />
		<tag k="ssr:stedsnr" v="732578" />
	</node>
	<node id="-293018" lat="60.0224138927" lon="9.025608331">
		<tag k="name" v="Mjogetjønn" />
		<tag k="natural" v="water" />
		<tag k="ssr:stedsnr" v="732370" />
	</node>
	<node id="-293016" lat="59.9505333309" lon="9.40903332864">
		<tag k="name" v="Nordre Damtjønn" />
		<tag k="natural" v="water" />
		<tag k="ssr:stedsnr" v="732344" />
		<tag k="water" v="lake" />
	</node>
	<node id="-293008" lat="59.9379864155" lon="9.27378298493">
		<tag k="name" v="Elgstjønn" />
		<tag k="natural" v="water" />
		<tag k="ssr:stedsnr" v="732163" />
		<tag k="water" v="lake" />
	</node>
	<node id="-293006" lat="60.0616215463" lon="9.35591731133">
		<tag k="name" v="Store Øytjønn" />
		<tag k="natural" v="water" />
		<tag k="ssr:stedsnr" v="732093" />
	</node>
	<node id="-293005" lat="60.0611305519" lon="9.31101944024">
		<tag k="name" v="Torbjørnstjønn" />
		<tag k="natural" v="water" />
		<tag k="ssr:stedsnr" v="732092" />
	</node>
	<node id="-293003" lat="60.105327782" lon="9.12820000693">
		<tag k="name" v="Leinetjønn" />
		<tag k="natural" v="water" />
		<tag k="ssr:stedsnr" v="732576" />
	</node>
	<node id="-292997" lat="59.91418611" lon="9.30125555804">
		<tag k="name" v="Svarttjønn" />
		<tag k="natural" v="water" />
		<tag k="ssr:stedsnr" v="635775" />
	</node>
	<node id="-292979" lat="60.0382583346" lon="9.23049721975">
		<tag k="name" v="Sundholmen" />
		<tag k="place" v="islet" />
		<tag k="ssr:stedsnr" v="635222" />
	</node>
	<node id="-292975" lat="60.0549277764" lon="9.28098888032">
		<tag k="name" v="Pipetjønn" />
		<tag k="natural" v="water" />
		<tag k="ssr:stedsnr" v="635164" />
	</node>
	<node id="-292968" lat="60.0115777751" lon="9.37092785379">
		<tag k="name" v="Langevatn" />
		<tag k="natural" v="water" />
		<tag k="ssr:stedsnr" v="611013" />
	</node>
	<node id="-292963" lat="59.9752540379" lon="9.43293283815">
		<tag k="name" v="Hagatjønn" />
		<tag k="natural" v="water" />
		<tag k="ssr:stedsnr" v="610353" />
	</node>
	<node id="-292955" lat="60.0058027819" lon="9.17768889576">
		<tag k="name" v="Halvfartjønn" />
		<tag k="natural" v="water" />
		<tag k="ssr:stedsnr" v="575706" />
	</node>
	<node id="-292952" lat="60.0764138933" lon="9.12381110945">
		<tag k="name" v="Bogstrandåe" />
		<tag k="ssr:stedsnr" v="575458" />
		<tag k="waterway" v="stream" />
	</node>
	<node id="-292946" lat="60.0026083332" lon="9.20560833194">
		<tag k="name" v="Svartetjønn" />
		<tag k="natural" v="water" />
		<tag k="ssr:stedsnr" v="574855" />
	</node>
	<node id="-292944" lat="60.0684166667" lon="9.22808610385">
		<tag k="name" v="Smørdulp" />
		<tag k="natural" v="water" />
		<tag k="ssr:stedsnr" v="574455" />
		<tag k="water" v="pond" />
	</node>
	<node id="-292937" lat="60.0390583295" lon="9.39143611791">
		<tag k="name" v="Deilestangen" />
		<tag k="natural" v="cape" />
		<tag k="ssr:stedsnr" v="696938" />
	</node>
	<node id="-292929" lat="59.9227388866" lon="9.36677221472">
		<tag k="name" v="Klopptjønn" />
		<tag k="natural" v="water" />
		<tag k="ssr:stedsnr" v="696852" />
	</node>
	<node id="-292912" lat="60.004386109" lon="9.26742222202">
		<tag k="name" v="Glitretjønn" />
		<tag k="natural" v="water" />
		<tag k="ssr:stedsnr" v="696759" />
	</node>
	<node id="-292910" lat="59.9766749997" lon="9.13754166075">
		<tag k="name" v="Steintjønnbekken" />
		<tag k="ssr:stedsnr" v="696549" />
		<tag k="waterway" v="stream" />
	</node>
	<node id="-292906" lat="59.9891666694" lon="9.05297221361">
		<tag k="name" v="Skomakarbekken" />
		<tag k="ssr:stedsnr" v="696198" />
		<tag k="waterway" v="stream" />
	</node>
	<node id="-292902" lat="59.8932111091" lon="9.24608611076">
		<tag k="name" v="Butjønn" />
		<tag k="natural" v="water" />
		<tag k="ssr:stedsnr" v="696178" />
	</node>
	<node id="-292884" lat="60.0835478264" lon="9.29043610392">
		<tag k="name" v="Nysettjønnan" />
		<tag k="natural" v="water" />
		<tag k="ssr:stedsnr" v="514138" />
		<tag k="water" v="lake" />
	</node>
	<node id="-292880" lat="60.0730027819" lon="9.26806110375">
		<tag k="name" v="Østholmen" />
		<tag k="place" v="islet" />
		<tag k="ssr:stedsnr" v="514111" />
	</node>
	<node id="-292877" lat="59.9717194483" lon="9.34384444594">
		<tag k="name" v="Kjommeåe" />
		<tag k="ssr:stedsnr" v="489345" />
		<tag k="waterway" v="stream" />
	</node>
	<node id="-292876" lat="59.9849493209" lon="9.37262933286">
		<tag k="name" v="Trytetjønn" />
		<tag k="natural" v="water" />
		<tag k="ssr:stedsnr" v="489316" />
	</node>
	<node id="-292874" lat="59.8839276074" lon="9.22068889618">
		<tag k="name" v="Nordre Revlivatn" />
>>>>>>> e1d4bc35ff8a6074a6f2e91616a996b547c36f15
		<tag k="natural" v="water" />
		<tag k="ssr:stedsnr" v="484355" />
	</node>
<<<<<<< HEAD
=======
	<node id="-292873" lat="60.079405177" lon="9.21709509712">
		<tag k="name" v="Letjønn" />
		<tag k="natural" v="water" />
		<tag k="ssr:stedsnr" v="672741" />
	</node>
>>>>>>> e1d4bc35ff8a6074a6f2e91616a996b547c36f15
</osm>
