<?xml version="1.0" encoding="UTF-8"?>
<osm version="0.6" generator="osmapis">
	<node lat="59.889919448453654" lon="9.217911104302877" id="-17482">
		<tag k="historic" v="shieling" />
		<tag k="name" v="Revlisetre" />
		<tag k="place" v="isolated_dwelling" />
		<tag k="ssr:stedsnr" v="3716" />
	</node>
	<node lat="59.944119441508455" lon="9.400972230285964" id="-17483">
		<tag k="historic" v="shieling" />
		<tag k="name" v="Gvitåssetre" />
		<tag k="place" v="isolated_dwelling" />
		<tag k="ssr:stedsnr" v="4122" />
	</node>
	<node lat="60.007154111069845" lon="9.28339543210146" id="-17484">
		<tag k="name" v="Søre Tråen" />
		<tag k="place" v="farm" />
		<tag k="ssr:stedsnr" v="4017" />
	</node>
	<node lat="60.1159999989994" lon="9.156200001458778" id="-17487">
		<tag k="historic" v="shieling" />
		<tag k="name" v="Gunnarsetre" />
		<tag k="place" v="isolated_dwelling" />
		<tag k="ssr:stedsnr" v="4539" />
	</node>
	<node lat="60.008875000572104" lon="9.019755556902968" id="-17494">
		<tag k="historic" v="shieling" />
		<tag k="name" v="Votndalen" />
		<tag k="place" v="isolated_dwelling" />
		<tag k="ssr:stedsnr" v="5315" />
	</node>
	<node lat="59.92488332922158" lon="9.333397218823603" id="-17516">
		<tag k="name" v="Donavollen" />
		<tag k="place" v="locality" />
		<tag k="ssr:stedsnr" v="29768" />
	</node>
	<node lat="60.01134722173636" lon="9.104297216052602" id="-17519">
		<tag k="historic" v="shieling" />
		<tag k="name" v="Søre Heimsetre" />
		<tag k="place" v="isolated_dwelling" />
		<tag k="ssr:stedsnr" v="29666" />
	</node>
	<node lat="59.95396111212475" lon="9.254380559367313" id="-17520">
		<tag k="name" v="Gvasshaug" />
		<tag k="place" v="isolated_dwelling" />
		<tag k="ssr:stedsnr" v="29816" />
	</node>
	<node lat="59.93349444552898" lon="9.34856110908356" id="-17529">
		<tag k="name" v="Godstad" />
		<tag k="old_name" v="Godestad" />
		<tag k="place" v="farm" />
		<tag k="ssr:stedsnr" v="64151" />
	</node>
	<node lat="59.92682222665249" lon="9.337972223468329" id="-17530">
		<tag k="name" v="Teigen" />
		<tag k="place" v="isolated_dwelling" />
		<tag k="ssr:stedsnr" v="64170" />
	</node>
	<node lat="59.987847219665206" lon="9.275350007240906" id="-17531">
		<tag k="name" v="Klukkarmogen" />
		<tag k="place" v="farm" />
		<tag k="ssr:stedsnr" v="64258" />
	</node>
	<node lat="60.02455833140115" lon="9.174483327771053" id="-17533">
		<tag k="loc_name" v="Høgsethaugen" />
		<tag k="name" v="Høysethaugen" />
		<tag k="old_name" v="Haugen" />
		<tag k="place" v="farm" />
		<tag k="ssr:stedsnr" v="65305" />
	</node>
	<node lat="60.022558332489886" lon="9.217149994969743" id="-17535">
		<tag k="name" v="Nordre Vidhåmmår" />
		<tag k="place" v="farm" />
		<tag k="ssr:stedsnr" v="65299" />
	</node>
	<node lat="60.058016669273556" lon="9.167916668094586" id="-17537">
		<tag k="name" v="Nyhus" />
		<tag k="place" v="farm" />
		<tag k="ssr:stedsnr" v="65611" />
	</node>
	<node lat="60.05058889243128" lon="9.071258326724491" id="-17539">
		<tag k="historic" v="shieling" />
		<tag k="name" v="Høybulie" />
		<tag k="place" v="isolated_dwelling" />
		<tag k="ssr:stedsnr" v="65616" />
	</node>
	<node lat="60.06198611518704" lon="9.143550002379257" id="-17540">
		<tag k="fixme" v="consider place=hamlet" />
		<tag k="name" v="Nattestad" />
		<tag k="place" v="farm" />
		<tag k="ssr:stedsnr" v="65625" />
	</node>
	<node lat="60.037822221430325" lon="9.183458328789353" id="-17547">
		<tag k="name" v="Nedre Risteigen" />
		<tag k="place" v="farm" />
		<tag k="ssr:stedsnr" v="89694" />
	</node>
	<node lat="59.964861040082745" lon="9.300252054291" id="-17556">
		<tag k="fixme" v="consider place=hamlet" />
		<tag k="name" v="Alstad" />
		<tag k="old_name" v="Ælfstad" />
		<tag k="place" v="farm" />
		<tag k="ssr:stedsnr" v="246357" />
	</node>
	<node lat="59.94842222059835" lon="9.18750555238713" id="-17561">
		<tag k="historic" v="shieling" />
		<tag k="name" v="Landsverksetre" />
		<tag k="place" v="isolated_dwelling" />
		<tag k="ssr:stedsnr" v="246532" />
	</node>
	<node lat="60.001234201212526" lon="9.241573752296834" id="-17562">
		<tag k="historic" v="shieling" />
		<tag k="name" v="Hovdeset" />
		<tag k="place" v="isolated_dwelling" />
		<tag k="ssr:stedsnr" v="247001" />
	</node>
	<node lat="60.05399444093075" lon="9.32656111165271" id="-17565">
		<tag k="historic" v="shieling" />
		<tag k="name" v="Bergestulen" />
		<tag k="place" v="isolated_dwelling" />
		<tag k="ssr:stedsnr" v="247059" />
	</node>
	<node lat="60.03176111447677" lon="9.18578889363484" id="-17568">
		<tag k="alt_name" v="Fjøse, s" />
		<tag k="name" v="Søre Fjøse" />
		<tag k="place" v="farm" />
		<tag k="ssr:stedsnr" v="247318" />
	</node>
	<node lat="59.953939188205126" lon="9.332964552077035" id="-17569">
		<tag k="fixme" v="consider place=hamlet" />
		<tag k="name" v="Selsteigen" />
		<tag k="place" v="farm" />
		<tag k="ssr:stedsnr" v="247322" />
	</node>
	<node lat="60.03408888905853" lon="9.104747224661851" id="-17570">
		<tag k="name" v="Augunsrud" />
		<tag k="place" v="farm" />
		<tag k="ssr:stedsnr" v="247337" />
	</node>
	<node lat="60.02958333566732" lon="9.146538897215292" id="-17571">
		<tag k="name" v="Søre Gladheim" />
		<tag k="place" v="farm" />
		<tag k="ssr:stedsnr" v="247343" />
	</node>
	<node lat="60.029836113644876" lon="9.112344436998876" id="-17572">
		<tag k="name" v="Lillebøle" />
		<tag k="place" v="farm" />
		<tag k="ssr:stedsnr" v="247345" />
	</node>
	<node lat="59.915036115058285" lon="9.216700008151145" id="-17573">
		<tag k="name" v="Bergseidfjellbuin" />
		<tag k="old_name" v="Fjeldbuin" />
		<tag k="place" v="locality" />
		<tag k="ssr:stedsnr" v="247497" />
	</node>
	<node lat="60.05905000382786" lon="9.120224994471146" id="-17575">
		<tag k="name" v="Brekkshaugen" />
		<tag k="place" v="farm" />
		<tag k="ssr:stedsnr" v="247627" />
	</node>
	<node lat="60.06423888948199" lon="9.10791666105129" id="-17576">
		<tag k="name" v="Lykkja" />
		<tag k="place" v="farm" />
		<tag k="ssr:stedsnr" v="247635" />
	</node>
	<node lat="60.07419999770607" lon="9.13461388565825" id="-17578">
		<tag k="historic" v="shieling" />
		<tag k="name" v="Finngardsplassen" />
		<tag k="place" v="isolated_dwelling" />
		<tag k="ssr:stedsnr" v="247728" />
	</node>
	<node lat="60.07684999734406" lon="9.107616661644924" id="-17579">
		<tag k="name" v="Haugen" />
		<tag k="place" v="farm" />
		<tag k="ssr:stedsnr" v="247730" />
	</node>
	<node lat="60.07765277453833" lon="9.175308328132886" id="-17580">
		<tag k="historic" v="shieling" />
		<tag k="name" v="Nattestadsetre" />
		<tag k="place" v="isolated_dwelling" />
		<tag k="ssr:stedsnr" v="247743" />
	</node>
	<node lat="60.035544196247606" lon="9.24633838240107" id="-17583">
		<tag k="alt_name" v="Mellem Fulsås" />
		<tag k="fixme" v="consider place=hamlet" />
		<tag k="name" v="Fulsås" />
		<tag k="place" v="farm" />
		<tag k="ssr:stedsnr" v="248045" />
	</node>
	<node lat="60.031950003908044" lon="9.250036115205123" id="-17584">
		<tag k="name" v="Nirigard" />
		<tag k="place" v="farm" />
		<tag k="ssr:stedsnr" v="248047" />
	</node>
	<node lat="60.00454722123738" lon="9.292916669619702" id="-17585">
		<tag k="name" v="Kleiv" />
		<tag k="place" v="farm" />
		<tag k="ssr:stedsnr" v="125008" />
	</node>
	<node lat="59.98555277901677" lon="9.388730554704866" id="-17592">
		<tag k="historic" v="shieling" />
		<tag k="name" v="Gørrbu" />
		<tag k="place" v="isolated_dwelling" />
		<tag k="ssr:stedsnr" v="125317" />
	</node>
	<node lat="59.970455552283745" lon="9.29582222264663" id="-17593">
		<tag k="name" v="Tinnes" />
		<tag k="place" v="farm" />
		<tag k="ssr:stedsnr" v="125364" />
	</node>
	<node lat="59.949938356968396" lon="9.31748151633032" id="-17595">
		<tag k="fixme" v="consider place=hamlet" />
		<tag k="name" v="Bergseid" />
		<tag k="place" v="farm" />
		<tag k="ssr:stedsnr" v="125368" />
	</node>
	<node lat="60.11464166932165" lon="9.164608327424203" id="-17597">
		<tag k="historic" v="shieling" />
		<tag k="name" v="Nysetsetre" />
		<tag k="place" v="isolated_dwelling" />
		<tag k="ssr:stedsnr" v="125553" />
	</node>
	<node lat="60.05942500116273" lon="9.173511106399326" id="-17599">
		<tag k="name" v="Toeneiet" />
		<tag k="place" v="farm" />
		<tag k="ssr:stedsnr" v="125646" />
	</node>
	<node lat="60.0526999963837" lon="9.10821944327811" id="-17600">
		<tag k="name" v="Eilevbu" />
		<tag k="place" v="isolated_dwelling" />
		<tag k="ssr:stedsnr" v="125650" />
	</node>
	<node lat="60.05126389317436" lon="9.11408055935425" id="-17601">
		<tag k="name" v="Åsen" />
		<tag k="place" v="locality" />
		<tag k="ssr:stedsnr" v="125651" />
	</node>
	<node lat="60.04805278143262" lon="9.149372220653655" id="-17602">
		<tag k="name" v="Vikje" />
		<tag k="place" v="farm" />
		<tag k="ssr:stedsnr" v="125696" />
	</node>
	<node lat="60.03499328907015" lon="9.16548926104588" id="-17606">
		<tag k="fixme" v="consider place=hamlet" />
		<tag k="name" v="Fløtterud" />
		<tag k="old_name" v="Flöterud;Flaaterud" />
		<tag k="place" v="farm" />
		<tag k="ssr:stedsnr" v="126350" />
	</node>
	<node lat="60.04227222593615" lon="9.15479444864018" id="-17607">
		<tag k="name" v="Veggli" />
		<tag k="place" v="village" />
		<tag k="ssr:stedsnr" v="126656" />
	</node>
	<node lat="59.94957778130123" lon="9.334052780542361" id="-17608">
		<tag k="name" v="Bakli" />
		<tag k="place" v="farm" />
		<tag k="ssr:stedsnr" v="307354" />
	</node>
	<node lat="60.006322225574856" lon="9.399408335186855" id="-17609">
		<tag k="name" v="Løkeset" />
		<tag k="place" v="isolated_dwelling" />
		<tag k="ssr:stedsnr" v="149721" />
	</node>
	<node lat="59.89023055505807" lon="9.247402782208917" id="-17613">
		<tag k="historic" v="shieling" />
		<tag k="name" v="Søre Butjønnseter" />
		<tag k="place" v="isolated_dwelling" />
		<tag k="ssr:stedsnr" v="150162" />
	</node>
	<node lat="60.06741944218826" lon="9.12858611018922" id="-17618">
		<tag k="name" v="Fantekleiv" />
		<tag k="place" v="isolated_dwelling" />
		<tag k="ssr:stedsnr" v="150485" />
	</node>
	<node lat="60.03248610954674" lon="9.161369450764203" id="-17619">
		<tag k="name" v="Nygård" />
		<tag k="place" v="isolated_dwelling" />
		<tag k="ssr:stedsnr" v="150614" />
	</node>
	<node lat="59.98121944538672" lon="9.271233330480701" id="-17622">
		<tag k="name" v="Storekøs" />
		<tag k="place" v="locality" />
		<tag k="ssr:stedsnr" v="150558" />
	</node>
	<node lat="59.95798055132309" lon="9.325780546848959" id="-17626">
		<tag k="loc_name" v="Svinserud" />
		<tag k="name" v="Krinkerud" />
		<tag k="place" v="locality" />
		<tag k="ssr:stedsnr" v="150765" />
	</node>
	<node lat="59.93700833524608" lon="9.354397221173867" id="-17628">
		<tag k="alt_name" v="Ødegården" />
		<tag k="loc_name" v="Øygarden" />
		<tag k="name" v="Ødegarden" />
		<tag k="place" v="farm" />
		<tag k="ssr:stedsnr" v="150768" />
	</node>
	<node lat="59.98692222039557" lon="9.339158331145352" id="-17632">
		<tag k="name" v="Bekkevoll" />
		<tag k="place" v="farm" />
		<tag k="ssr:stedsnr" v="150921" />
	</node>
	<node lat="59.9290444463739" lon="9.25142500498725" id="-17636">
		<tag k="name" v="Nybu" />
		<tag k="place" v="isolated_dwelling" />
		<tag k="ssr:stedsnr" v="185142" />
	</node>
	<node lat="59.97171388956101" lon="9.360786117250322" id="-17638">
		<tag k="historic" v="shieling" />
		<tag k="name" v="Kjommesetre" />
		<tag k="place" v="isolated_dwelling" />
		<tag k="ssr:stedsnr" v="185325" />
	</node>
	<node lat="60.06283611512157" lon="9.109491659001044" id="-17642">
		<tag k="name" v="Fløset" />
		<tag k="place" v="farm" />
		<tag k="ssr:stedsnr" v="186686" />
	</node>
	<node lat="60.02933055119954" lon="9.276161114525575" id="-17646">
		<tag k="name" v="Øyberg" />
		<tag k="place" v="farm" />
		<tag k="ssr:stedsnr" v="187036" />
	</node>
	<node lat="60.03778888980602" lon="9.032211116890467" id="-17649">
		<tag k="historic" v="shieling" />
		<tag k="name" v="Høggerudsetre" />
		<tag k="place" v="isolated_dwelling" />
		<tag k="ssr:stedsnr" v="187328" />
	</node>
	<node lat="60.04460089518063" lon="9.139779233272899" id="-17651">
		<tag k="fixme" v="consider place=hamlet" />
		<tag k="name" v="Mykstu" />
		<tag k="old_name" v="Möklestue" />
		<tag k="place" v="farm" />
		<tag k="ssr:stedsnr" v="187634" />
	</node>
	<node lat="60.06821666387627" lon="9.04873333058154" id="-17653">
		<tag k="name" v="Dalsethaugen" />
		<tag k="place" v="isolated_dwelling" />
		<tag k="ssr:stedsnr" v="187697" />
	</node>
	<node lat="60.08091954052641" lon="9.11009628837889" id="-17654">
		<tag k="fixme" v="consider place=hamlet" />
		<tag k="name" v="Lågårgarden" />
		<tag k="place" v="farm" />
		<tag k="ssr:stedsnr" v="187707" />
	</node>
	<node lat="60.07701111242227" lon="9.133402779951794" id="-17655">
		<tag k="fixme" v="multiple name tags, choose one and add the other to alt_name" />
		<tag k="name" v="Oskehølet;Oskehågån" />
		<tag k="place" v="locality" />
		<tag k="ssr:stedsnr" v="187714" />
	</node>
	<node lat="60.04365833606853" lon="9.143452771893031" id="-17657">
		<tag k="name" v="Mykstu" />
		<tag k="place" v="farm" />
		<tag k="ssr:stedsnr" v="272631" />
	</node>
	<node lat="60.02856389086303" lon="9.172094444252853" id="-17658">
		<tag k="alt_name" v="Øvre Høyset" />
		<tag k="name" v="Øvre Høgset" />
		<tag k="place" v="farm" />
		<tag k="ssr:stedsnr" v="272633" />
	</node>
	<node lat="60.036288889628835" lon="9.14364445153111" id="-17659">
		<tag k="name" v="Omdalen" />
		<tag k="place" v="farm" />
		<tag k="ssr:stedsnr" v="206356" />
	</node>
	<node lat="60.03827500411086" lon="9.15865278504338" id="-17660">
		<tag k="name" v="Glaimkøse" />
		<tag k="place" v="farm" />
		<tag k="ssr:stedsnr" v="206357" />
	</node>
	<node lat="60.0533777817435" lon="9.146816659043429" id="-17678">
		<tag k="name" v="Dustrud" />
		<tag k="place" v="locality" />
		<tag k="ssr:stedsnr" v="211326" />
	</node>
	<node lat="60.05350833072509" lon="9.134755555415103" id="-17679">
		<tag k="name" v="Tromperud" />
		<tag k="place" v="locality" />
		<tag k="ssr:stedsnr" v="211327" />
	</node>
	<node lat="60.00990277652451" lon="9.191552784354489" id="-17681">
		<tag k="historic" v="shieling" />
		<tag k="name" v="Grånåbukollen" />
		<tag k="place" v="isolated_dwelling" />
		<tag k="ssr:stedsnr" v="211582" />
	</node>
	<node lat="60.043799995890744" lon="9.150113896090836" id="-17682">
		<tag k="name" v="Nedre Mykstu" />
		<tag k="place" v="farm" />
		<tag k="ssr:stedsnr" v="211676" />
	</node>
	<node lat="59.98206667041103" lon="9.341633332629934" id="-17686">
		<tag k="name" v="Trettebråtan" />
		<tag k="place" v="locality" />
		<tag k="ssr:stedsnr" v="211893" />
	</node>
	<node lat="60.01559166269244" lon="9.241933330715344" id="-17693">
		<tag k="name" v="Brekke" />
		<tag k="place" v="locality" />
		<tag k="ssr:stedsnr" v="211786" />
	</node>
	<node lat="60.03066388684329" lon="9.375916664951701" id="-17695">
		<tag k="historic" v="shieling" />
		<tag k="name" v="Hølsetre" />
		<tag k="place" v="isolated_dwelling" />
		<tag k="ssr:stedsnr" v="211925" />
	</node>
	<node lat="60.04944999794977" lon="9.063280546672773" id="-17700">
		<tag k="name" v="Raubekklia" />
		<tag k="place" v="isolated_dwelling" />
		<tag k="ssr:stedsnr" v="271132" />
	</node>
	<node lat="60.01097222170221" lon="9.3733555474124" id="-17708">
		<tag k="name" v="Holmetjønnhytta" />
		<tag k="place" v="isolated_dwelling" />
		<tag k="ssr:stedsnr" v="271786" />
	</node>
	<node lat="60.01413298818201" lon="9.288008531121953" id="-17710">
		<tag k="name" v="Ragnhildslykkja" />
		<tag k="place" v="locality" />
		<tag k="ssr:stedsnr" v="271818" />
	</node>
	<node lat="60.02596666760353" lon="9.27884444539313" id="-17716">
		<tag k="name" v="Petersplass" />
		<tag k="place" v="locality" />
		<tag k="ssr:stedsnr" v="271868" />
	</node>
	<node lat="59.920302654461985" lon="9.337590615490344" id="-17722">
		<tag k="fixme" v="consider place=hamlet" />
		<tag k="name" v="Haugen" />
		<tag k="place" v="farm" />
		<tag k="ssr:stedsnr" v="246208" />
	</node>
	<node lat="59.99549735923354" lon="9.326457238970294" id="-17723">
		<tag k="fixme" v="consider place=hamlet" />
		<tag k="name" v="Skuggerud" />
		<tag k="place" v="farm" />
		<tag k="ssr:stedsnr" v="246282" />
	</node>
	<node lat="59.975605558116605" lon="9.375322224774779" id="-17726">
		<tag k="name" v="Korsløken" />
		<tag k="place" v="isolated_dwelling" />
		<tag k="ssr:stedsnr" v="246306" />
	</node>
	<node lat="59.97399444088015" lon="9.425502781945744" id="-17727">
		<tag k="name" v="Nyset" />
		<tag k="place" v="isolated_dwelling" />
		<tag k="ssr:stedsnr" v="246309" />
	</node>
	<node lat="60.00428605249657" lon="9.303026824035912" id="-17730">
		<tag k="fixme" v="consider place=hamlet" />
		<tag k="name" v="Asbjørnrud" />
		<tag k="place" v="farm" />
		<tag k="ssr:stedsnr" v="247013" />
	</node>
	<node lat="59.94108055236713" lon="9.34506111557973" id="-17731">
		<tag k="name" v="Djupdal" />
		<tag k="place" v="farm" />
		<tag k="ssr:stedsnr" v="247119" />
	</node>
	<node lat="60.025752776816404" lon="9.194666667639492" id="-17732">
		<tag k="name" v="Brenna" />
		<tag k="place" v="isolated_dwelling" />
		<tag k="ssr:stedsnr" v="247310" />
	</node>
	<node lat="60.00397499596507" lon="9.123283334615936" id="-17734">
		<tag k="name" v="Brennbu" />
		<tag k="place" v="locality" />
		<tag k="ssr:stedsnr" v="247270" />
	</node>
	<node lat="60.00547499698583" lon="9.129225002638249" id="-17735">
		<tag k="name" v="Halvorset" />
		<tag k="place" v="locality" />
		<tag k="ssr:stedsnr" v="247273" />
	</node>
	<node lat="60.08626184356717" lon="9.13856438408882" id="-17738">
		<tag k="fixme" v="consider place=hamlet" />
		<tag k="name" v="Årvelta" />
		<tag k="place" v="farm" />
		<tag k="ssr:stedsnr" v="247673" />
	</node>
	<node lat="60.00068889783585" lon="9.276060073859414" id="-17740">
		<tag k="fixme" v="consider place=hamlet" />
		<tag k="name" v="Skarpmoen" />
		<tag k="place" v="farm" />
		<tag k="ssr:stedsnr" v="248405" />
	</node>
	<node lat="60.01678722737171" lon="9.283727581278361" id="-17755">
		<tag k="name" v="Nordre Tråen" />
		<tag k="place" v="farm" />
		<tag k="ssr:stedsnr" v="453794" />
	</node>
	<node lat="60.01218611337872" lon="9.283227770810191" id="-17756">
		<tag k="alt_name" v="Mellem Tråen" />
		<tag k="name" v="Med-Tråen" />
		<tag k="place" v="farm" />
		<tag k="ssr:stedsnr" v="453795" />
	</node>
	<node lat="60.05814999932649" lon="9.162958334370316" id="-17765">
		<tag k="name" v="Sebjørnsplass" />
		<tag k="place" v="locality" />
		<tag k="ssr:stedsnr" v="454310" />
	</node>
	<node lat="59.99841111186935" lon="9.269288897717669" id="-17767">
		<tag k="name" v="Nordre Ulstad" />
		<tag k="place" v="farm" />
		<tag k="ssr:stedsnr" v="454570" />
	</node>
	<node lat="59.98026944418989" lon="9.264238893025057" id="-17768">
		<tag k="name" v="Nilskøs" />
		<tag k="place" v="locality" />
		<tag k="ssr:stedsnr" v="454587" />
	</node>
	<node lat="59.988136107545884" lon="9.286305549957032" id="-17770">
		<tag k="loc_name" v="Nordbjerge" />
		<tag k="name" v="Nordre Bjørge" />
		<tag k="place" v="farm" />
		<tag k="ssr:stedsnr" v="454555" />
	</node>
	<node lat="60.03863332925252" lon="9.163588887439316" id="-17771">
		<tag k="name" v="Nymoen" />
		<tag k="place" v="quarter" />
		<tag k="ssr:stedsnr" v="454646" />
	</node>
	<node lat="59.97093055247657" lon="9.326094452307165" id="-17775">
		<tag k="name" v="Soterud" />
		<tag k="place" v="locality" />
		<tag k="ssr:stedsnr" v="454949" />
	</node>
	<node lat="59.96612222342" lon="9.325744442127919" id="-17778">
		<tag k="name" v="Bergelien" />
		<tag k="place" v="locality" />
		<tag k="ssr:stedsnr" v="454956" />
	</node>
	<node lat="60.03961666858464" lon="9.176377774995338" id="-17781">
		<tag k="name" v="Øygarden" />
		<tag k="place" v="farm" />
		<tag k="ssr:stedsnr" v="267335" />
	</node>
	<node lat="60.002061108193736" lon="9.34348055556878" id="-17782">
		<tag k="historic" v="shieling" />
		<tag k="name" v="Espeset" />
		<tag k="place" v="isolated_dwelling" />
		<tag k="ssr:stedsnr" v="268528" />
	</node>
	<node lat="60.03819166236506" lon="9.242552779580254" id="-17785">
		<tag k="name" v="Nordre Fulsås" />
		<tag k="place" v="farm" />
		<tag k="ssr:stedsnr" v="271238" />
	</node>
	<node lat="59.98018055616646" lon="9.2815027697163" id="-17798">
		<tag k="name" v="Søre Landsverk" />
		<tag k="place" v="farm" />
		<tag k="ssr:stedsnr" v="272511" />
	</node>
	<node lat="59.99486944564765" lon="9.321052769571558" id="-17808">
		<tag k="name" v="Uren" />
		<tag k="place" v="locality" />
		<tag k="ssr:stedsnr" v="272888" />
	</node>
	<node lat="59.995288891216155" lon="9.324147224105204" id="-17809">
		<tag k="name" v="Gråten" />
		<tag k="place" v="locality" />
		<tag k="ssr:stedsnr" v="272890" />
	</node>
	<node lat="59.9976972149111" lon="9.270451876276319" id="-17813">
		<tag k="alt_name" v="Søre Ulstad" />
		<tag k="fixme" v="consider place=hamlet" />
		<tag k="name" v="Ulstad" />
		<tag k="place" v="farm" />
		<tag k="ssr:stedsnr" v="307309" />
	</node>
	<node lat="59.960345296077165" lon="9.291637107888283" id="-17815">
		<tag k="fixme" v="consider place=hamlet" />
		<tag k="name" v="Venås" />
		<tag k="place" v="farm" />
		<tag k="ssr:stedsnr" v="307337" />
	</node>
	<node lat="59.9239111094412" lon="9.32764167356996" id="-17816">
		<tag k="name" v="Haugan" />
		<tag k="place" v="farm" />
		<tag k="ssr:stedsnr" v="307204" />
	</node>
	<node lat="60.10558610985412" lon="9.20173888256327" id="-17817">
		<tag k="historic" v="shieling" />
		<tag k="name" v="Løkjeset" />
		<tag k="place" v="isolated_dwelling" />
		<tag k="ssr:stedsnr" v="307550" />
	</node>
	<node lat="59.99199555782827" lon="8.997985522976661" id="-17821">
		<tag k="name" v="Austmannbu" />
		<tag k="place" v="locality" />
		<tag k="ssr:stedsnr" v="307919" />
	</node>
	<node lat="60.030237992537536" lon="9.160146645321104" id="-17823">
		<tag k="fixme" v="consider place=hamlet" />
		<tag k="name" v="Bakke" />
		<tag k="place" v="farm" />
		<tag k="ssr:stedsnr" v="308317" />
	</node>
	<node lat="60.03066077271563" lon="9.118074903421016" id="-17824">
		<tag k="fixme" v="consider place=hamlet" />
		<tag k="name" v="Bøle" />
		<tag k="place" v="farm" />
		<tag k="ssr:stedsnr" v="308323" />
	</node>
	<node lat="60.12455618974446" lon="9.21722402530498" id="-17826">
		<tag k="historic" v="shieling" />
		<tag k="name" v="Skjolbekksetre" />
		<tag k="place" v="isolated_dwelling" />
		<tag k="ssr:stedsnr" v="328261" />
	</node>
	<node lat="59.953783331082874" lon="9.30620833372476" id="-17843">
		<tag k="name" v="Småtta" />
		<tag k="place" v="locality" />
		<tag k="ssr:stedsnr" v="332769" />
	</node>
	<node lat="60.05105788014137" lon="9.172927908596366" id="-17853">
		<tag k="fixme" v="consider place=hamlet" />
		<tag k="name" v="Toen" />
		<tag k="place" v="farm" />
		<tag k="ssr:stedsnr" v="343694" />
	</node>
	<node lat="60.02885000318081" lon="9.174499995211146" id="-17854">
		<tag k="alt_name" v="Nedre Høyset" />
		<tag k="name" v="Nedre Høgset" />
		<tag k="place" v="farm" />
		<tag k="ssr:stedsnr" v="360104" />
	</node>
	<node lat="59.983844275802234" lon="9.310499099713734" id="-17855">
		<tag k="fixme" v="consider place=hamlet" />
		<tag k="name" v="Li" />
		<tag k="place" v="farm" />
		<tag k="ssr:stedsnr" v="360114" />
	</node>
	<node lat="59.93498333200179" lon="9.317372230258908" id="-17857">
		<tag k="name" v="Hagen" />
		<tag k="place" v="farm" />
		<tag k="ssr:stedsnr" v="367128" />
	</node>
	<node lat="59.99321944854126" lon="9.269799998902949" id="-17858">
		<tag k="name" v="Sagtun" />
		<tag k="place" v="farm" />
		<tag k="ssr:stedsnr" v="367210" />
	</node>
	<node lat="59.99341666834781" lon="9.282869437244194" id="-17859">
		<tag k="name" v="Mogan" />
		<tag k="place" v="farm" />
		<tag k="ssr:stedsnr" v="367211" />
	</node>
	<node lat="59.984304822813534" lon="9.296438308020962" id="-17860">
		<tag k="fixme" v="consider place=hamlet" />
		<tag k="name" v="Rollag" />
		<tag k="old_name" v="Rolloug" />
		<tag k="place" v="village" />
		<tag k="ssr:stedsnr" v="367213" />
	</node>
	<node lat="59.979844444239944" lon="9.281913883141291" id="-17861">
		<tag k="alt_name" v="Søndre Landsverk" />
		<tag k="name" v="Søre Landsverk" />
		<tag k="place" v="farm" />
		<tag k="ssr:stedsnr" v="367230" />
	</node>
	<node lat="59.959516664776935" lon="9.280161107156689" id="-17862">
		<tag k="name" v="Ragnhildsrud" />
		<tag k="place" v="locality" />
		<tag k="ssr:stedsnr" v="271967" />
	</node>
	<node lat="60.00453333055121" lon="9.221730558774084" id="-17863">
		<tag k="historic" v="shieling" />
		<tag k="name" v="Nyset" />
		<tag k="place" v="isolated_dwelling" />
		<tag k="ssr:stedsnr" v="368023" />
	</node>
	<node lat="60.01460555902297" lon="9.270925003389912" id="-17864">
		<tag k="name" v="Vårviken" />
		<tag k="place" v="farm" />
		<tag k="ssr:stedsnr" v="368024" />
	</node>
	<node lat="60.01655277904721" lon="9.312233339501729" id="-17865">
		<tag k="name" v="Fyriset" />
		<tag k="place" v="isolated_dwelling" />
		<tag k="ssr:stedsnr" v="368026" />
	</node>
	<node lat="60.01503055924147" lon="9.251916672322132" id="-17866">
		<tag k="name" v="Hellum" />
		<tag k="place" v="farm" />
		<tag k="ssr:stedsnr" v="368028" />
	</node>
	<node lat="60.01334721936706" lon="9.25876666792587" id="-17867">
		<tag k="name" v="Øvre Mogen" />
		<tag k="place" v="farm" />
		<tag k="ssr:stedsnr" v="368030" />
	</node>
	<node lat="59.936052777045106" lon="9.28044999147589" id="-17869">
		<tag k="historic" v="shieling" />
		<tag k="name" v="Søyset" />
		<tag k="old_name" v="Söiset" />
		<tag k="place" v="isolated_dwelling" />
		<tag k="ssr:stedsnr" v="368171" />
	</node>
	<node lat="60.087802778464216" lon="9.191799991337053" id="-17870">
		<tag k="name" v="Kvernhusvollen" />
		<tag k="place" v="isolated_dwelling" />
		<tag k="ssr:stedsnr" v="368732" />
	</node>
	<node lat="60.06497500401598" lon="9.142408339618296" id="-17872">
		<tag k="fixme" v="consider place=hamlet" />
		<tag k="name" v="Tåta" />
		<tag k="place" v="farm" />
		<tag k="ssr:stedsnr" v="368689" />
	</node>
	<node lat="60.06106389193106" lon="9.09122221668994" id="-17873">
		<tag k="historic" v="shieling" />
		<tag k="name" v="Kjerresetre" />
		<tag k="place" v="isolated_dwelling" />
		<tag k="ssr:stedsnr" v="368697" />
	</node>
	<node lat="60.048251841329076" lon="9.13049416431216" id="-17876">
		<tag k="name" v="Bølestveiten" />
		<tag k="place" v="farm" />
		<tag k="ssr:stedsnr" v="369609" />
	</node>
	<node lat="60.045863884432066" lon="9.164125005476288" id="-17877">
		<tag k="name" v="Nordre Bjørkgarden" />
		<tag k="place" v="farm" />
		<tag k="ssr:stedsnr" v="369623" />
	</node>
	<node lat="60.055386112364864" lon="9.371105553465114" id="-17884">
		<tag k="name" v="Larsgard" />
		<tag k="place" v="isolated_dwelling" />
		<tag k="ssr:stedsnr" v="392698" />
	</node>
	<node lat="60.01491944288033" lon="9.294399997385492" id="-17886">
		<tag k="name" v="Storli" />
		<tag k="place" v="locality" />
		<tag k="ssr:stedsnr" v="392810" />
	</node>
	<node lat="60.053236111558405" lon="9.045641666839755" id="-17888">
		<tag k="historic" v="shieling" />
		<tag k="name" v="Persbuhaugen" />
		<tag k="place" v="isolated_dwelling" />
		<tag k="ssr:stedsnr" v="393113" />
	</node>
	<node lat="59.992611114369986" lon="9.290922230006284" id="-17890">
		<tag k="name" v="Myra" />
		<tag k="place" v="locality" />
		<tag k="ssr:stedsnr" v="393541" />
	</node>
	<node lat="59.98173611019138" lon="9.33662777088767" id="-17898">
		<tag k="name" v="Nedre Bergan" />
		<tag k="place" v="farm" />
		<tag k="ssr:stedsnr" v="393928" />
	</node>
	<node lat="60.01152500429975" lon="9.392766665293538" id="-17909">
		<tag k="historic" v="shieling" />
		<tag k="name" v="Sølset" />
		<tag k="place" v="isolated_dwelling" />
		<tag k="ssr:stedsnr" v="489031" />
	</node>
	<node lat="59.940109771425035" lon="9.32900311790567" id="-17911">
		<tag k="fixme" v="consider place=hamlet" />
		<tag k="name" v="Kleiverud" />
		<tag k="place" v="farm" />
		<tag k="ssr:stedsnr" v="489137" />
	</node>
	<node lat="59.92318611423657" lon="9.33090556134704" id="-17913">
		<tag k="name" v="Myra" />
		<tag k="place" v="isolated_dwelling" />
		<tag k="ssr:stedsnr" v="489201" />
	</node>
	<node lat="59.984022219702716" lon="9.311783340623007" id="-17914">
		<tag k="alt_name" v="Mellom-Li" />
		<tag k="loc_name" v="Med-Li" />
		<tag k="name" v="Midtre Li" />
		<tag k="old_name" v="Li mellem" />
		<tag k="place" v="farm" />
		<tag k="ssr:stedsnr" v="489315" />
	</node>
	<node lat="60.03717500331669" lon="9.182799996499426" id="-17920">
		<tag k="name" v="Øvre Risteigen" />
		<tag k="place" v="farm" />
		<tag k="ssr:stedsnr" v="490338" />
	</node>
	<node lat="60.036647225945885" lon="9.119430553023967" id="-17921">
		<tag k="name" v="Ålmannhågån" />
		<tag k="place" v="locality" />
		<tag k="ssr:stedsnr" v="490339" />
	</node>
	<node lat="60.04232499951069" lon="9.112691662471773" id="-17929">
		<tag k="historic" v="shieling" />
		<tag k="name" v="Melandsetre" />
		<tag k="place" v="isolated_dwelling" />
		<tag k="ssr:stedsnr" v="489694" />
	</node>
	<node lat="60.06049722664052" lon="9.132147224745054" id="-17930">
		<tag k="alt_name" v="Helle, nordre" />
		<tag k="name" v="Nordre Helle" />
		<tag k="place" v="farm" />
		<tag k="ssr:stedsnr" v="489682" />
	</node>
	<node lat="59.99978055671778" lon="9.05799166912239" id="-17932">
		<tag k="historic" v="shieling" />
		<tag k="name" v="Svarteløk" />
		<tag k="place" v="isolated_dwelling" />
		<tag k="ssr:stedsnr" v="490266" />
	</node>
	<node lat="60.00789999722843" lon="9.139275007344498" id="-17934">
		<tag k="name" v="Nyset" />
		<tag k="place" v="isolated_dwelling" />
		<tag k="ssr:stedsnr" v="490277" />
	</node>
	<node lat="59.982427779560005" lon="9.310855557136533" id="-17939">
		<tag k="alt_name" v="Søndre Li" />
		<tag k="name" v="Søre Li" />
		<tag k="place" v="farm" />
		<tag k="ssr:stedsnr" v="428264" />
	</node>
	<node lat="59.97880833688745" lon="9.310213885603925" id="-17940">
		<tag k="name" v="Nordhov" />
		<tag k="place" v="farm" />
		<tag k="ssr:stedsnr" v="428267" />
	</node>
	<node lat="59.96903333333054" lon="9.371611119092718" id="-17942">
		<tag k="historic" v="shieling" />
		<tag k="name" v="Fløtterudsetre" />
		<tag k="place" v="isolated_dwelling" />
		<tag k="ssr:stedsnr" v="428315" />
	</node>
	<node lat="59.98752222147481" lon="9.162566665865846" id="-17945">
		<tag k="historic" v="shieling" />
		<tag k="name" v="Nedre Røynebuin" />
		<tag k="place" v="isolated_dwelling" />
		<tag k="ssr:stedsnr" v="428924" />
	</node>
	<node lat="60.04516913197395" lon="9.130860464965933" id="-17946">
		<tag k="fixme" v="consider place=hamlet" />
		<tag k="name" v="Kittilsland" />
		<tag k="place" v="farm" />
		<tag k="ssr:stedsnr" v="490661" />
	</node>
	<node lat="60.0464245504422" lon="9.20935149771538" id="-17947">
		<tag k="fixme" v="consider place=hamlet" />
		<tag k="name" v="Rud" />
		<tag k="place" v="farm" />
		<tag k="ssr:stedsnr" v="490672" />
	</node>
	<node lat="60.07262500233745" lon="9.136474999116313" id="-17948">
		<tag k="name" v="Koto" />
		<tag k="place" v="farm" />
		<tag k="ssr:stedsnr" v="490742" />
	</node>
	<node lat="60.084172221979166" lon="9.317725002068828" id="-17952">
		<tag k="historic" v="shieling" />
		<tag k="name" v="Åset" />
		<tag k="place" v="isolated_dwelling" />
		<tag k="ssr:stedsnr" v="429110" />
	</node>
	<node lat="59.94008888645166" lon="9.23269999562079" id="-17953">
		<tag k="historic" v="shieling" />
		<tag k="name" v="Fyriset" />
		<tag k="old_name" v="Furuset;Furusæt" />
		<tag k="place" v="isolated_dwelling" />
		<tag k="ssr:stedsnr" v="429135" />
	</node>
	<node lat="60.03382499675058" lon="9.206252784832124" id="-17955">
		<tag k="alt_name" v="Bekkjorden, nordre" />
		<tag k="name" v="Nordre Bekkjorden" />
		<tag k="place" v="farm" />
		<tag k="ssr:stedsnr" v="429309" />
	</node>
	<node lat="59.94908611115747" lon="9.310722219593087" id="-17956">
		<tag k="name" v="Myran" />
		<tag k="place" v="farm" />
		<tag k="ssr:stedsnr" v="429315" />
	</node>
	<node lat="59.97503610854089" lon="9.080561107655909" id="-17958">
		<tag k="historic" v="shieling" />
		<tag k="name" v="Vorset" />
		<tag k="place" v="isolated_dwelling" />
		<tag k="ssr:stedsnr" v="429603" />
	</node>
	<node lat="60.05570555979377" lon="9.132219444615187" id="-17959">
		<tag k="name" v="Tveitkøse" />
		<tag k="place" v="farm" />
		<tag k="ssr:stedsnr" v="429614" />
	</node>
	<node lat="60.0539805551307" lon="9.123163889863333" id="-17960">
		<tag k="name" v="Åsheim" />
		<tag k="place" v="farm" />
		<tag k="ssr:stedsnr" v="429615" />
	</node>
	<node lat="60.046016663125464" lon="9.0319833316137" id="-17963">
		<tag k="name" v="Veggli Fjellstue" />
		<tag k="ssr:stedsnr" v="429662" />
		<tag k="tourism" v="guest_house" />
	</node>
	<node lat="60.03048333214962" lon="9.283580557009904" id="-17967">
		<tag k="alt_name" v="Hanseplass" />
		<tag k="name" v="Øvre Hanseplass" />
		<tag k="place" v="farm" />
		<tag k="ssr:stedsnr" v="430049" />
	</node>
	<node lat="60.03517500010422" lon="9.091705551218414" id="-17968">
		<tag k="historic" v="shieling" />
		<tag k="name" v="Svensrudsetre" />
		<tag k="place" v="isolated_dwelling" />
		<tag k="ssr:stedsnr" v="430345" />
	</node>
	<node lat="60.03127499868881" lon="9.10515278208464" id="-17969">
		<tag k="fixme" v="consider place=hamlet" />
		<tag k="name" v="Framlien" />
		<tag k="place" v="farm" />
		<tag k="ssr:stedsnr" v="430347" />
	</node>
	<node lat="60.02274722561453" lon="9.219305553310365" id="-17970">
		<tag k="name" v="Søre Vidhåmmår" />
		<tag k="place" v="farm" />
		<tag k="ssr:stedsnr" v="430407" />
	</node>
	<node lat="60.06639999813813" lon="9.029955554586573" id="-17971">
		<tag k="historic" v="shieling" />
		<tag k="name" v="Nordre Rustsetre" />
		<tag k="place" v="isolated_dwelling" />
		<tag k="ssr:stedsnr" v="430716" />
	</node>
	<node lat="59.97606667018003" lon="9.29744999582838" id="-17974">
		<tag k="alt_name" v="Søndre Stærnes" />
		<tag k="name" v="Søre Stærnes" />
		<tag k="place" v="farm" />
		<tag k="ssr:stedsnr" v="671281" />
	</node>
	<node lat="59.98904166418393" lon="9.33787222480235" id="-17975">
		<tag k="historic" v="shieling" />
		<tag k="name" v="Gunnbjørnsrud" />
		<tag k="place" v="isolated_dwelling" />
		<tag k="ssr:stedsnr" v="671299" />
	</node>
	<node lat="59.97525277975748" lon="9.357008332950564" id="-17977">
		<tag k="name" v="Hovsetre" />
		<tag k="place" v="locality" />
		<tag k="ssr:stedsnr" v="671339" />
	</node>
	<node lat="60.0536249966142" lon="9.025349994980735" id="-17982">
		<tag k="historic" v="shieling" />
		<tag k="name" v="Lauvhovd" />
		<tag k="place" v="isolated_dwelling" />
		<tag k="ssr:stedsnr" v="671644" />
	</node>
	<node lat="60.058263888765694" lon="9.139361117136767" id="-17985">
		<tag k="alt_name" v="Helle, s" />
		<tag k="name" v="Søre Helle" />
		<tag k="place" v="farm" />
		<tag k="ssr:stedsnr" v="671659" />
	</node>
	<node lat="60.026794441729784" lon="9.310950007131634" id="-17988">
		<tag k="historic" v="shieling" />
		<tag k="name" v="Langebakke" />
		<tag k="place" v="isolated_dwelling" />
		<tag k="ssr:stedsnr" v="672034" />
	</node>
	<node lat="60.031052780636145" lon="9.24101943605456" id="-17993">
		<tag k="name" v="Roe" />
		<tag k="place" v="isolated_dwelling" />
		<tag k="ssr:stedsnr" v="672051" />
	</node>
	<node lat="60.03233333745337" lon="9.367458341869403" id="-17994">
		<tag k="historic" v="shieling" />
		<tag k="name" v="Minneskleiv" />
		<tag k="place" v="isolated_dwelling" />
		<tag k="ssr:stedsnr" v="672052" />
	</node>
	<node lat="59.96394444458967" lon="9.289302769702235" id="-17998">
		<tag k="name" v="Nordåsen" />
		<tag k="place" v="locality" />
		<tag k="ssr:stedsnr" v="453962" />
	</node>
	<node lat="60.0273777791898" lon="9.085258341294557" id="-17999">
		<tag k="historic" v="shieling" />
		<tag k="name" v="Bølesetre" />
		<tag k="place" v="isolated_dwelling" />
		<tag k="ssr:stedsnr" v="672329" />
	</node>
	<node lat="60.062163889455725" lon="9.129744440917793" id="-18001">
		<tag k="name" v="Grenderoe" />
		<tag k="place" v="isolated_dwelling" />
		<tag k="ssr:stedsnr" v="454268" />
	</node>
	<node lat="60.08722499840485" lon="9.11137499838967" id="-18003">
		<tag k="name" v="Bratterudjordet" />
		<tag k="place" v="farm" />
		<tag k="ssr:stedsnr" v="672672" />
	</node>
	<node lat="60.10030555187999" lon="9.120500005317766" id="-18004">
		<tag k="name" v="Damstuhytta" />
		<tag k="place" v="isolated_dwelling" />
		<tag k="ssr:stedsnr" v="672686" />
	</node>
	<node lat="60.04889999704782" lon="9.135466659110051" id="-18016">
		<tag k="name" v="Østre Tveiten" />
		<tag k="place" v="farm" />
		<tag k="ssr:stedsnr" v="672630" />
	</node>
	<node lat="60.046188884463156" lon="9.129077780088657" id="-18017">
		<tag k="name" v="Øvre-Tveiten" />
		<tag k="place" v="farm" />
		<tag k="ssr:stedsnr" v="672634" />
	</node>
	<node lat="60.042170021180915" lon="9.206978255611737" id="-18018">
		<tag k="fixme" v="consider place=hamlet" />
		<tag k="name" v="Kongsjorden" />
		<tag k="place" v="farm" />
		<tag k="ssr:stedsnr" v="672644" />
	</node>
	<node lat="60.05332499857741" lon="9.176224993655325" id="-18019">
		<tag k="alt_name" v="Toen, øvre" />
		<tag k="name" v="Øvre Toen" />
		<tag k="place" v="farm" />
		<tag k="ssr:stedsnr" v="672652" />
	</node>
	<node lat="60.05538333738359" lon="9.154649992480097" id="-18020">
		<tag k="name" v="Klomre" />
		<tag k="place" v="farm" />
		<tag k="ssr:stedsnr" v="672657" />
	</node>
	<node lat="60.09928889188844" lon="9.157102769123167" id="-18021">
		<tag k="historic" v="shieling" />
		<tag k="name" v="Løkjemyrdalen" />
		<tag k="place" v="isolated_dwelling" />
		<tag k="ssr:stedsnr" v="672692" />
	</node>
	<node lat="59.952633335292155" lon="9.321675005098733" id="-18030">
		<tag k="name" v="Strand" />
		<tag k="place" v="farm" />
		<tag k="ssr:stedsnr" v="489352" />
	</node>
	<node lat="60.121099995963824" lon="9.138080549473539" id="-18032">
		<tag k="historic" v="shieling" />
		<tag k="name" v="Markaset" />
		<tag k="place" v="isolated_dwelling" />
		<tag k="ssr:stedsnr" v="489584" />
	</node>
	<node lat="59.99228610843669" lon="9.069625006366676" id="-18034">
		<tag k="historic" v="shieling" />
		<tag k="name" v="Sundtjønnsetre" />
		<tag k="place" v="isolated_dwelling" />
		<tag k="ssr:stedsnr" v="489906" />
	</node>
	<node lat="59.97576944074203" lon="9.200899999502301" id="-18036">
		<tag k="historic" v="shieling" />
		<tag k="name" v="Vårvikdalen" />
		<tag k="place" v="isolated_dwelling" />
		<tag k="ssr:stedsnr" v="489641" />
	</node>
	<node lat="60.02842941867302" lon="9.397211317767912" id="-18038">
		<tag k="historic" v="shieling" />
		<tag k="name" v="Øvre Fjøslien" />
		<tag k="old_name" v="Fjoslid;Fjøslid" />
		<tag k="place" v="isolated_dwelling" />
		<tag k="ssr:stedsnr" v="490047" />
	</node>
	<node lat="60.02823888570205" lon="9.206599993790686" id="-18040">
		<tag k="name" v="Bekkjordskåset" />
		<tag k="place" v="farm" />
		<tag k="ssr:stedsnr" v="490307" />
	</node>
	<node lat="60.0240861149881" lon="9.192474993482076" id="-18041">
		<tag k="name" v="Torsgard" />
		<tag k="place" v="farm" />
		<tag k="ssr:stedsnr" v="490308" />
	</node>
	<node lat="60.02872777356695" lon="9.21461111991125" id="-18042">
		<tag k="alt_name" v="Nordre Haslerud" />
		<tag k="name" v="Haslerud" />
		<tag k="place" v="farm" />
		<tag k="ssr:stedsnr" v="490309" />
	</node>
	<node lat="60.07597537755728" lon="9.143324569946447" id="-18049">
		<tag k="name" v="Nedre Strysse" />
		<tag k="place" v="farm" />
		<tag k="ssr:stedsnr" v="510261" />
	</node>
	<node lat="60.05112778043678" lon="9.043588895913206" id="-18053">
		<tag k="historic" v="shieling" />
		<tag k="name" v="Nordmannsvollen" />
		<tag k="place" v="isolated_dwelling" />
		<tag k="ssr:stedsnr" v="514114" />
	</node>
	<node lat="60.0499666629778" lon="9.040802769675457" id="-18055">
		<tag k="name" v="Rennemogen" />
		<tag k="place" v="isolated_dwelling" />
		<tag k="ssr:stedsnr" v="514117" />
	</node>
	<node lat="60.04102222623366" lon="9.230816665892318" id="-18060">
		<tag k="amenity" v="school" />
		<tag k="name" v="Prestmoen skole" />
		<tag k="ssr:stedsnr" v="514279" />
	</node>
	<node lat="59.9897833368192" lon="9.148352784760778" id="-18066">
		<tag k="historic" v="shieling" />
		<tag k="name" v="Røynebuin" />
		<tag k="place" v="isolated_dwelling" />
		<tag k="ssr:stedsnr" v="514702" />
	</node>
	<node lat="60.01399166374279" lon="9.099800008822367" id="-18067">
		<tag k="historic" v="shieling" />
		<tag k="name" v="Gamlesetre" />
		<tag k="place" v="isolated_dwelling" />
		<tag k="ssr:stedsnr" v="514722" />
	</node>
	<node lat="60.0267833357386" lon="9.265719437339026" id="-18071">
		<tag k="name" v="Nedre Solberg" />
		<tag k="place" v="farm" />
		<tag k="ssr:stedsnr" v="514806" />
	</node>
	<node lat="59.981522221453105" lon="9.30815833182437" id="-18074">
		<tag k="name" v="Li skole" />
		<tag k="place" v="isolated_dwelling" />
		<tag k="ssr:stedsnr" v="514870" />
	</node>
	<node lat="59.992374995916805" lon="9.389475003269446" id="-18079">
		<tag k="historic" v="shieling" />
		<tag k="name" v="Repeset" />
		<tag k="place" v="isolated_dwelling" />
		<tag k="ssr:stedsnr" v="549308" />
	</node>
	<node lat="60.00844678286824" lon="9.265355930757183" id="-18082">
		<tag k="name" v="Nordre Fetjan" />
		<tag k="place" v="farm" />
		<tag k="ssr:stedsnr" v="550022" />
	</node>
	<node lat="60.034208336992" lon="9.203116673122684" id="-18086">
		<tag k="alt_name" v="Vamre, nedre" />
		<tag k="name" v="Nedre Vamre" />
		<tag k="place" v="farm" />
		<tag k="ssr:stedsnr" v="550331" />
	</node>
	<node lat="60.08028611004883" lon="9.115700007378644" id="-18088">
		<tag k="alt_name" v="Lofthus, nordre" />
		<tag k="fixme" v="consider place=hamlet" />
		<tag k="name" v="Lofthus" />
		<tag k="place" v="farm" />
		<tag k="ssr:stedsnr" v="550720" />
	</node>
	<node lat="60.09008888999367" lon="9.166361102180495" id="-18090">
		<tag k="historic" v="shieling" />
		<tag k="name" v="Nyseter" />
		<tag k="place" v="isolated_dwelling" />
		<tag k="ssr:stedsnr" v="692295" />
	</node>
	<node lat="60.040320593586245" lon="9.139309789725653" id="-18091">
		<tag k="fixme" v="consider place=hamlet" />
		<tag k="name" v="Kjemhus" />
		<tag k="place" v="farm" />
		<tag k="ssr:stedsnr" v="692353" />
	</node>
	<node lat="60.02615776349218" lon="9.39819327980072" id="-18093">
		<tag k="historic" v="shieling" />
		<tag k="name" v="Nedre Fjøslien" />
		<tag k="place" v="isolated_dwelling" />
		<tag k="ssr:stedsnr" v="570352" />
	</node>
	<node lat="60.02130277720365" lon="9.410033334412535" id="-18096">
		<tag k="historic" v="shieling" />
		<tag k="name" v="Nybu" />
		<tag k="place" v="isolated_dwelling" />
		<tag k="ssr:stedsnr" v="571548" />
	</node>
	<node lat="59.972880554115775" lon="9.206811118720625" id="-18098">
		<tag k="historic" v="shieling" />
		<tag k="name" v="Ulfstaddalen" />
		<tag k="place" v="isolated_dwelling" />
		<tag k="ssr:stedsnr" v="571506" />
	</node>
	<node lat="59.99692500000798" lon="9.283638879929603" id="-18104">
		<tag k="name" v="Furuheim" />
		<tag k="place" v="isolated_dwelling" />
		<tag k="ssr:stedsnr" v="574605" />
	</node>
	<node lat="60.01430833418754" lon="9.259975003564362" id="-18105">
		<tag k="name" v="Nedre Mogen" />
		<tag k="place" v="farm" />
		<tag k="ssr:stedsnr" v="574822" />
	</node>
	<node lat="59.98560832925991" lon="9.300102783876369" id="-18107">
		<tag k="amenity" v="school" />
		<tag k="name" v="Rollag skole" />
		<tag k="ssr:stedsnr" v="574600" />
	</node>
	<node lat="60.02816944515517" lon="9.19752221875031" id="-18108">
		<tag k="name" v="Aslaksplassen" />
		<tag k="place" v="locality" />
		<tag k="ssr:stedsnr" v="574897" />
	</node>
	<node lat="59.97071388595584" lon="9.335166667549705" id="-18118">
		<tag k="name" v="Gunnbjørnsrud" />
		<tag k="place" v="locality" />
		<tag k="ssr:stedsnr" v="575923" />
	</node>
	<node lat="59.957222221397984" lon="9.271472222047844" id="-18119">
		<tag k="name" v="Kustighytta" />
		<tag k="place" v="isolated_dwelling" />
		<tag k="ssr:stedsnr" v="575804" />
	</node>
	<node lat="60.05124166234797" lon="9.183277781170075" id="-18127">
		<tag k="name" v="Bergerud" />
		<tag k="place" v="isolated_dwelling" />
		<tag k="ssr:stedsnr" v="696260" />
	</node>
	<node lat="60.00382222151067" lon="9.265416664337339" id="-18131">
		<tag k="name" v="Tuftin" />
		<tag k="place" v="isolated_dwelling" />
		<tag k="ssr:stedsnr" v="696758" />
	</node>
	<node lat="59.95115278025876" lon="9.325230548905944" id="-18134">
		<tag k="name" v="Østre Bergseid" />
		<tag k="place" v="farm" />
		<tag k="ssr:stedsnr" v="696786" />
	</node>
	<node lat="59.95545555680807" lon="9.330094449540344" id="-18136">
		<tag k="name" v="Skørre" />
		<tag k="place" v="locality" />
		<tag k="ssr:stedsnr" v="696788" />
	</node>
	<node lat="60.01934166293245" lon="9.238300000663294" id="-18139">
		<tag k="name" v="Skørre" />
		<tag k="place" v="locality" />
		<tag k="ssr:stedsnr" v="696792" />
	</node>
	<node lat="59.95128611526583" lon="9.340338893951785" id="-18140">
		<tag k="name" v="Berg" />
		<tag k="place" v="locality" />
		<tag k="ssr:stedsnr" v="696802" />
	</node>
	<node lat="60.03347499685782" lon="9.247041665224685" id="-18144">
		<tag k="name" v="Søre Fulsås" />
		<tag k="place" v="farm" />
		<tag k="ssr:stedsnr" v="696838" />
	</node>
	<node lat="59.91848611499534" lon="9.378216658133743" id="-18146">
		<tag k="name" v="Tangen" />
		<tag k="place" v="locality" />
		<tag k="ssr:stedsnr" v="696853" />
	</node>
	<node lat="59.986933331613045" lon="9.204649991499975" id="-18151">
		<tag k="name" v="Jakobstjønnhytta" />
		<tag k="place" v="isolated_dwelling" />
		<tag k="ssr:stedsnr" v="696896" />
	</node>
	<node lat="59.926555795635224" lon="9.32648677983676" id="-18154">
		<tag k="fixme" v="consider place=hamlet" />
		<tag k="name" v="Stabekk" />
		<tag k="place" v="farm" />
		<tag k="ssr:stedsnr" v="610222" />
	</node>
	<node lat="59.98618889143337" lon="9.311033329079034" id="-18155">
		<tag k="loc_name" v="Nord-Li" />
		<tag k="name" v="Nordre Li" />
		<tag k="place" v="farm" />
		<tag k="ssr:stedsnr" v="610327" />
	</node>
	<node lat="59.97330555311139" lon="9.349983336830093" id="-18157">
		<tag k="historic" v="shieling" />
		<tag k="name" v="Larsgardkøsin" />
		<tag k="place" v="isolated_dwelling" />
		<tag k="ssr:stedsnr" v="610375" />
	</node>
	<node lat="59.96716111168709" lon="9.31545832950295" id="-18158">
		<tag k="name" v="Nordre Kjomme" />
		<tag k="place" v="farm" />
		<tag k="ssr:stedsnr" v="610376" />
	</node>
	<node lat="60.089234767505964" lon="9.250500809879458" id="-18160">
		<tag k="historic" v="shieling" />
		<tag k="name" v="Mesetre" />
		<tag k="place" v="isolated_dwelling" />
		<tag k="ssr:stedsnr" v="611108" />
	</node>
	<node lat="60.007750004195564" lon="9.20715000674812" id="-18162">
		<tag k="name" v="Lauvlund" />
		<tag k="place" v="isolated_dwelling" />
		<tag k="ssr:stedsnr" v="611276" />
	</node>
	<node lat="60.088502773842855" lon="9.115905561099492" id="-18166">
		<tag k="name" v="Solbakken" />
		<tag k="place" v="isolated_dwelling" />
		<tag k="ssr:stedsnr" v="611692" />
	</node>
	<node lat="60.09447777721854" lon="9.18286388880878" id="-18169">
		<tag k="historic" v="shieling" />
		<tag k="name" v="Sjondalsåsen" />
		<tag k="place" v="isolated_dwelling" />
		<tag k="ssr:stedsnr" v="611717" />
	</node>
	<node lat="60.07176110756798" lon="9.070949994532798" id="-18170">
		<tag k="historic" v="shieling" />
		<tag k="name" v="Vindeggsetre" />
		<tag k="place" v="isolated_dwelling" />
		<tag k="ssr:stedsnr" v="611733" />
	</node>
	<node lat="60.07097222568235" lon="9.133747220107535" id="-18171">
		<tag k="historic" v="shieling" />
		<tag k="name" v="Dokka" />
		<tag k="place" v="isolated_dwelling" />
		<tag k="ssr:stedsnr" v="611739" />
	</node>
	<node lat="60.034155552605" lon="9.304758331451291" id="-18172">
		<tag k="name" v="Trugegråne" />
		<tag k="place" v="isolated_dwelling" />
		<tag k="ssr:stedsnr" v="631583" />
	</node>
	<node lat="59.95674444286319" lon="9.296983328522817" id="-18186">
		<tag k="name" v="Årud" />
		<tag k="place" v="locality" />
		<tag k="ssr:stedsnr" v="635808" />
	</node>
	<node lat="60.00501667046961" lon="9.278947223188906" id="-18189">
		<tag k="name" v="Rykkin" />
		<tag k="place" v="isolated_dwelling" />
		<tag k="ssr:stedsnr" v="635744" />
	</node>
	<node lat="60.0056388879325" lon="9.237627779719874" id="-18192">
		<tag k="name" v="Kikkut" />
		<tag k="place" v="isolated_dwelling" />
		<tag k="ssr:stedsnr" v="635788" />
	</node>
	<node lat="59.99312778056853" lon="9.328836102213508" id="-18195">
		<tag k="name" v="Hågån" />
		<tag k="place" v="locality" />
		<tag k="ssr:stedsnr" v="635882" />
	</node>
	<node lat="60.01872222039008" lon="9.264144441346456" id="-18198">
		<tag k="name" v="Skogly" />
		<tag k="place" v="isolated_dwelling" />
		<tag k="ssr:stedsnr" v="635983" />
	</node>
	<node lat="59.9589777753116" lon="9.229558332676369" id="-18200">
		<tag k="name" v="Stærneshytta" />
		<tag k="place" v="isolated_dwelling" />
		<tag k="ssr:stedsnr" v="635994" />
	</node>
	<node lat="59.90475833462632" lon="9.308877783856637" id="-18202">
		<tag k="historic" v="shieling" />
		<tag k="name" v="Rostadsetre" />
		<tag k="place" v="isolated_dwelling" />
		<tag k="ssr:stedsnr" v="671214" />
	</node>
	<node lat="59.93182221909241" lon="9.203299992412925" id="-18205">
		<tag k="historic" v="shieling" />
		<tag k="name" v="Sørkjeseter" />
		<tag k="old_name" v="Sørkje" />
		<tag k="place" v="isolated_dwelling" />
		<tag k="ssr:stedsnr" v="671543" />
	</node>
	<node lat="60.010399997868596" lon="9.297558330022719" id="-18211">
		<tag k="alt_name" v="Rydningen" />
		<tag k="loc_name" v="Runningen" />
		<tag k="name" v="Rønningen" />
		<tag k="place" v="farm" />
		<tag k="ssr:stedsnr" v="672011" />
	</node>
	<node lat="60.00535000235223" lon="9.265811110429443" id="-18212">
		<tag k="name" v="Glitre" />
		<tag k="place" v="farm" />
		<tag k="ssr:stedsnr" v="672021" />
	</node>
	<node lat="60.052772226717785" lon="9.245577779802362" id="-18215">
		<tag k="name" v="Dammyrstugu" />
		<tag k="place" v="isolated_dwelling" />
		<tag k="ssr:stedsnr" v="672071" />
	</node>
	<node lat="60.085472934842514" lon="9.294150187230759" id="-18216">
		<tag k="historic" v="shieling" />
		<tag k="name" v="Nyset" />
		<tag k="place" v="isolated_dwelling" />
		<tag k="ssr:stedsnr" v="672108" />
	</node>
	<node lat="60.03332778142844" lon="9.209608342235056" id="-18217">
		<tag k="alt_name" v="Bekkjorden, s" />
		<tag k="name" v="Søre Bekkjorden" />
		<tag k="place" v="farm" />
		<tag k="ssr:stedsnr" v="672303" />
	</node>
	<node lat="60.00610555816198" lon="9.121336104739786" id="-18220">
		<tag k="name" v="Juvsjordet" />
		<tag k="place" v="isolated_dwelling" />
		<tag k="ssr:stedsnr" v="672262" />
	</node>
	<node lat="60.068369447800066" lon="9.077530554879434" id="-18221">
		<tag k="historic" v="shieling" />
		<tag k="name" v="Lågårgardsetre" />
		<tag k="place" v="isolated_dwelling" />
		<tag k="ssr:stedsnr" v="672715" />
	</node>
	<node lat="60.0718025809641" lon="9.117869511377117" id="-18222">
		<tag k="fixme" v="consider place=hamlet" />
		<tag k="name" v="Bogstrand" />
		<tag k="place" v="farm" />
		<tag k="ssr:stedsnr" v="672720" />
	</node>
	<node lat="60.072760256264694" lon="9.110222524274302" id="-18223">
		<tag k="fixme" v="consider place=hamlet" />
		<tag k="name" v="Kjerre" />
		<tag k="place" v="farm" />
		<tag k="ssr:stedsnr" v="672724" />
	</node>
	<node lat="60.07874444685291" lon="9.16976389699605" id="-18224">
		<tag k="historic" v="shieling" />
		<tag k="name" v="Tåtasetre" />
		<tag k="place" v="isolated_dwelling" />
		<tag k="ssr:stedsnr" v="672734" />
	</node>
	<node lat="60.00555555340743" lon="9.196683330135055" id="-18225">
		<tag k="name" v="Valhall" />
		<tag k="place" v="isolated_dwelling" />
		<tag k="ssr:stedsnr" v="692430" />
	</node>
	<node lat="59.95144444436028" lon="9.376244441778995" id="-18247">
		<tag k="historic" v="shieling" />
		<tag k="name" v="Brattvoll" />
		<tag k="place" v="isolated_dwelling" />
		<tag k="ssr:stedsnr" v="696766" />
	</node>
	<node lat="59.94770832970947" lon="9.389608339971344" id="-18248">
		<tag k="historic" v="shieling" />
		<tag k="name" v="Ødegarden" />
		<tag k="place" v="isolated_dwelling" />
		<tag k="ssr:stedsnr" v="696769" />
	</node>
	<node lat="59.93668282051238" lon="9.245872098817653" id="-18255">
		<tag k="historic" v="shieling" />
		<tag k="name" v="Hågåtjønnsetre" />
		<tag k="place" v="isolated_dwelling" />
		<tag k="ssr:stedsnr" v="732157" />
	</node>
	<node lat="59.995208331905744" lon="9.390672230782432" id="-18257">
		<tag k="name" v="Bergeset" />
		<tag k="place" v="isolated_dwelling" />
		<tag k="ssr:stedsnr" v="732266" />
	</node>
	<node lat="59.983494446583066" lon="9.097436110678975" id="-18263">
		<tag k="historic" v="shieling" />
		<tag k="name" v="Myrefjell" />
		<tag k="place" v="isolated_dwelling" />
		<tag k="ssr:stedsnr" v="732928" />
	</node>
	<node lat="60.00241666867294" lon="9.409297221087146" id="-18264">
		<tag k="name" v="Søyset" />
		<tag k="place" v="isolated_dwelling" />
		<tag k="ssr:stedsnr" v="733003" />
	</node>
	<node lat="60.035616663001214" lon="9.229208336178896" id="-18266">
		<tag k="name" v="Søre Laugje" />
		<tag k="place" v="farm" />
		<tag k="ssr:stedsnr" v="733059" />
	</node>
	<node lat="60.07310555192492" lon="9.26186388743452" id="-18267">
		<tag k="historic" v="shieling" />
		<tag k="name" v="Låkåset" />
		<tag k="place" v="isolated_dwelling" />
		<tag k="ssr:stedsnr" v="733097" />
	</node>
	<node lat="60.04501666310934" lon="9.182552786712206" id="-18271">
		<tag k="name" v="Øye" />
		<tag k="place" v="farm" />
		<tag k="ssr:stedsnr" v="733636" />
	</node>
	<node lat="60.004786109575925" lon="9.29571666738571" id="-18275">
		<tag k="name" v="Lillerud" />
		<tag k="place" v="isolated_dwelling" />
		<tag k="ssr:stedsnr" v="756816" />
	</node>
	<node lat="60.024744441511295" lon="9.212772223575879" id="-18276">
		<tag k="name" v="Smedplass" />
		<tag k="place" v="locality" />
		<tag k="ssr:stedsnr" v="756902" />
	</node>
	<node lat="60.08918888681146" lon="9.10691666760474" id="-18283">
		<tag k="name" v="Kvisle" />
		<tag k="place" v="isolated_dwelling" />
		<tag k="ssr:stedsnr" v="757456" />
	</node>
	<node lat="60.01794444425727" lon="9.248988881898649" id="-18298">
		<tag k="name" v="Bråtån" />
		<tag k="place" v="farm" />
		<tag k="ssr:stedsnr" v="793017" />
	</node>
	<node lat="59.906155551170805" lon="9.29921944031693" id="-18301">
		<tag k="name" v="Haugsetre" />
		<tag k="place" v="isolated_dwelling" />
		<tag k="ssr:stedsnr" v="793227" />
	</node>
	<node lat="59.953236110547515" lon="9.151458341722343" id="-18302">
		<tag k="name" v="Nansenhytta" />
		<tag k="place" v="isolated_dwelling" />
		<tag k="ssr:stedsnr" v="793611" />
	</node>
	<node lat="60.087835095601015" lon="9.108456440670036" id="-18303">
		<tag k="fixme" v="consider place=hamlet" />
		<tag k="name" v="Kvisle" />
		<tag k="place" v="farm" />
		<tag k="ssr:stedsnr" v="793710" />
	</node>
	<node lat="60.04198055937699" lon="9.13366943900638" id="-18305">
		<tag k="alt_name" v="Haukjem" />
		<tag k="name" v="Nedre Haukjem" />
		<tag k="place" v="farm" />
		<tag k="ssr:stedsnr" v="794669" />
	</node>
	<node lat="60.02425204427845" lon="9.15734249642451" id="-18306">
		<tag k="fixme" v="consider place=hamlet" />
		<tag k="name" v="Landerud" />
		<tag k="place" v="farm" />
		<tag k="ssr:stedsnr" v="914321" />
	</node>
	<node lat="59.937272222759916" lon="9.327808340154071" id="-18308">
		<tag k="name" v="Myran" />
		<tag k="place" v="farm" />
		<tag k="ssr:stedsnr" v="914150" />
	</node>
	<node lat="59.951925002156315" lon="9.31064166059542" id="-18310">
		<tag k="name" v="Engje" />
		<tag k="place" v="farm" />
		<tag k="ssr:stedsnr" v="914344" />
	</node>
	<node lat="59.931480551422176" lon="9.19189999705133" id="-18313">
		<tag k="name" v="Viermyr" />
		<tag k="place" v="locality" />
		<tag k="ssr:stedsnr" v="914549" />
	</node>
	<node lat="60.04002499594659" lon="9.11157500085051" id="-18315">
		<tag k="historic" v="shieling" />
		<tag k="name" v="Frågått" />
		<tag k="place" v="isolated_dwelling" />
		<tag k="ssr:stedsnr" v="914683" />
	</node>
	<node lat="60.04991694494416" lon="9.12719566727423" id="-18316">
		<tag k="alt_name" v="Tveiten, nordre" />
		<tag k="name" v="Nordre Tveiten" />
		<tag k="place" v="farm" />
		<tag k="ssr:stedsnr" v="914684" />
	</node>
	<node lat="60.04905278027753" lon="9.195666669486432" id="-18317">
		<tag k="name" v="Gvammen" />
		<tag k="place" v="farm" />
		<tag k="ssr:stedsnr" v="914695" />
	</node>
	<node lat="60.05024999798372" lon="9.148755549551126" id="-18318">
		<tag k="name" v="Tonstad" />
		<tag k="place" v="isolated_dwelling" />
		<tag k="ssr:stedsnr" v="914698" />
	</node>
	<node lat="60.04237500075296" lon="9.025700003701123" id="-18319">
		<tag k="historic" v="shieling" />
		<tag k="name" v="Liset" />
		<tag k="place" v="isolated_dwelling" />
		<tag k="ssr:stedsnr" v="914702" />
	</node>
	<node lat="59.8815611146188" lon="9.189005564133465" id="-18320">
		<tag k="fixme" v="consider tourism=alpine_hut or tourism=chalet" />
		<tag k="name" v="Eriksbu" />
		<tag k="ssr:stedsnr" v="914734" />
		<tag k="tourism" v="wilderness_hut" />
	</node>
	<node lat="60.00880833305366" lon="9.355149998575332" id="-18322">
		<tag k="fixme" v="multiple name tags, choose one and add the other to alt_name" />
		<tag k="historic" v="shieling" />
		<tag k="name" v="Bufjell;Øvre Bufjell" />
		<tag k="place" v="isolated_dwelling" />
		<tag k="ssr:stedsnr" v="915010" />
	</node>
	<node lat="60.02804721908649" lon="9.25336111435392" id="-18323">
		<tag k="name" v="Nordre Skogen" />
		<tag k="place" v="farm" />
		<tag k="ssr:stedsnr" v="915041" />
	</node>
	<node lat="60.03768888540784" lon="9.235844439296372" id="-18324">
		<tag k="name" v="Prestmoen" />
		<tag k="place" v="farm" />
		<tag k="ssr:stedsnr" v="915047" />
	</node>
	<node lat="60.03998611125284" lon="9.135786104745428" id="-18329">
		<tag k="fixme" v="consider place=hamlet" />
		<tag k="name" v="Kyrkjorden" />
		<tag k="place" v="farm" />
		<tag k="ssr:stedsnr" v="915636" />
	</node>
	<node lat="60.137491667059045" lon="9.185252779887998" id="-18330">
		<tag k="name" v="Kulpeset" />
		<tag k="place" v="neighbourhood" />
		<tag k="ssr:stedsnr" v="915492" />
	</node>
	<node lat="59.981916663730026" lon="9.356130564446438" id="-18347">
		<tag k="historic" v="shieling" />
		<tag k="name" v="Mehovsetre" />
		<tag k="place" v="isolated_dwelling" />
		<tag k="ssr:stedsnr" v="853277" />
	</node>
	<node lat="60.00222499657059" lon="9.266163887726295" id="-18350">
		<tag k="name" v="Berg" />
		<tag k="place" v="farm" />
		<tag k="ssr:stedsnr" v="854002" />
	</node>
	<node lat="59.94776944631549" lon="9.387466657900386" id="-18351">
		<tag k="historic" v="shieling" />
		<tag k="name" v="Hellesetre" />
		<tag k="place" v="isolated_dwelling" />
		<tag k="ssr:stedsnr" v="854114" />
	</node>
	<node lat="60.00893610762632" lon="9.25481110266442" id="-18353">
		<tag k="name" v="Sørensplassen" />
		<tag k="place" v="isolated_dwelling" />
		<tag k="ssr:stedsnr" v="854015" />
	</node>
	<node lat="60.030713888746554" lon="9.191788883927853" id="-18355">
		<tag k="name" v="Hagen" />
		<tag k="place" v="farm" />
		<tag k="ssr:stedsnr" v="854314" />
	</node>
	<node lat="59.949747222474244" lon="9.228955558016052" id="-18356">
		<tag k="historic" v="shieling" />
		<tag k="name" v="Alfstadnyset" />
		<tag k="old_name" v="Nysætri;Nyset" />
		<tag k="place" v="isolated_dwelling" />
		<tag k="ssr:stedsnr" v="854321" />
	</node>
	<node lat="60.00485000076868" lon="9.15857500795123" id="-18357">
		<tag k="historic" v="shieling" />
		<tag k="name" v="Risteigen" />
		<tag k="place" v="isolated_dwelling" />
		<tag k="ssr:stedsnr" v="854261" />
	</node>
	<node lat="60.054550004136956" lon="9.10000000620418" id="-18359">
		<tag k="name" v="Brekkesetre" />
		<tag k="place" v="isolated_dwelling" />
		<tag k="ssr:stedsnr" v="854609" />
	</node>
	<node lat="60.05625000063064" lon="9.208299994386367" id="-18360">
		<tag k="name" v="Juvet" />
		<tag k="place" v="farm" />
		<tag k="ssr:stedsnr" v="854648" />
	</node>
	<node lat="60.04884999559447" lon="9.139052785957503" id="-18361">
		<tag k="name" v="Nordre Gardar" />
		<tag k="place" v="farm" />
		<tag k="ssr:stedsnr" v="854657" />
	</node>
	<node lat="60.04189717752411" lon="9.174114816817564" id="-18363">
		<tag k="fixme" v="consider place=hamlet" />
		<tag k="name" v="Mogen" />
		<tag k="place" v="farm" />
		<tag k="ssr:stedsnr" v="855689" />
	</node>
	<node lat="60.07499722416673" lon="9.156705549770573" id="-18374">
		<tag k="name" v="Londestaden" />
		<tag k="place" v="isolated_dwelling" />
		<tag k="ssr:stedsnr" v="878565" />
	</node>
	<node lat="60.016291665240956" lon="9.230961103247266" id="-18380">
		<tag k="name" v="Brattås" />
		<tag k="place" v="locality" />
		<tag k="ssr:stedsnr" v="878806" />
	</node>
	<node lat="59.97084722516564" lon="9.313683338631826" id="-18384">
		<tag k="name" v="Haugan" />
		<tag k="place" v="isolated_dwelling" />
		<tag k="ssr:stedsnr" v="878957" />
	</node>
	<node lat="60.02550833341173" lon="9.184224997989569" id="-18393">
		<tag k="name" v="Skogli" />
		<tag k="place" v="farm" />
		<tag k="ssr:stedsnr" v="914326" />
	</node>
	<node lat="59.91507499834627" lon="9.342769447950912" id="-18394">
		<tag k="name" v="Rostad" />
		<tag k="place" v="farm" />
		<tag k="ssr:stedsnr" v="914211" />
	</node>
	<node lat="59.99184722151581" lon="9.286458340966865" id="-18396">
		<tag k="name" v="Tørrhaug" />
		<tag k="place" v="farm" />
		<tag k="ssr:stedsnr" v="914276" />
	</node>
	<node lat="60.12056389220327" lon="9.237608331671746" id="-18398">
		<tag k="historic" v="shieling" />
		<tag k="name" v="Vardefjellsetre" />
		<tag k="place" v="isolated_dwelling" />
		<tag k="ssr:stedsnr" v="914431" />
	</node>
	<node lat="59.99431944291603" lon="9.130422219864455" id="-18400">
		<tag k="name" v="Sagstugo" />
		<tag k="place" v="isolated_dwelling" />
		<tag k="ssr:stedsnr" v="914942" />
	</node>
	<node lat="60.079586110415356" lon="9.103508338249465" id="-18406">
		<tag k="fixme" v="consider place=hamlet" />
		<tag k="name" v="Vindegg" />
		<tag k="place" v="farm" />
		<tag k="ssr:stedsnr" v="915722" />
	</node>
	<node lat="60.011933334480254" lon="9.194275001007393" id="-18407">
		<tag k="historic" v="shieling" />
		<tag k="name" v="Grånåbu" />
		<tag k="place" v="isolated_dwelling" />
		<tag k="ssr:stedsnr" v="935475" />
	</node>
	<node lat="60.0915500027431" lon="9.25020277213698" id="-18412">
		<tag k="name" v="Mesetre" />
		<tag k="place" v="locality" />
		<tag k="ssr:stedsnr" v="939305" />
	</node>
	<node lat="60.053969444816985" lon="9.15330833875885" id="-18414">
		<tag k="name" v="Gulliksrud" />
		<tag k="place" v="locality" />
		<tag k="ssr:stedsnr" v="939322" />
	</node>
	<node lat="60.07160833382494" lon="9.126183328984517" id="-18416">
		<tag k="name" v="Vreitemyran" />
		<tag k="place" v="isolated_dwelling" />
		<tag k="ssr:stedsnr" v="939503" />
	</node>
	<node lat="59.97717500352484" lon="9.31004444005464" id="-18423">
		<tag k="name" v="Mehov" />
		<tag k="place" v="farm" />
		<tag k="ssr:stedsnr" v="939812" />
	</node>
	<node lat="59.99067500391088" lon="9.334250005126814" id="-18436">
		<tag k="fixme" v="consider place=hamlet" />
		<tag k="name" v="Torsrud" />
		<tag k="place" v="farm" />
		<tag k="ssr:stedsnr" v="3277" />
	</node>
	<node lat="59.99091944748775" lon="9.275158330264427" id="-18438">
		<tag k="name" v="Klukkargarden" />
		<tag k="place" v="farm" />
		<tag k="ssr:stedsnr" v="3231" />
	</node>
	<node lat="59.99672499734542" lon="9.245969439485055" id="-18439">
		<tag k="name" v="Ivarset" />
		<tag k="place" v="isolated_dwelling" />
		<tag k="ssr:stedsnr" v="3252" />
	</node>
	<node lat="59.94647500133384" lon="9.31399166084544" id="-18443">
		<tag k="name" v="Tuterud" />
		<tag k="place" v="farm" />
		<tag k="ssr:stedsnr" v="4133" />
	</node>
	<node lat="59.941480551638506" lon="9.325469448075244" id="-18444">
		<tag k="name" v="Kleiverudberget" />
		<tag k="place" v="locality" />
		<tag k="ssr:stedsnr" v="4135" />
	</node>
	<node lat="59.955338888077264" lon="9.384511118698748" id="-18448">
		<tag k="historic" v="shieling" />
		<tag k="name" v="Ulviksetre" />
		<tag k="place" v="isolated_dwelling" />
		<tag k="ssr:stedsnr" v="4331" />
	</node>
	<node lat="60.02448611492708" lon="9.100088893005077" id="-18450">
		<tag k="historic" v="shieling" />
		<tag k="name" v="Heimsetre" />
		<tag k="place" v="isolated_dwelling" />
		<tag k="ssr:stedsnr" v="4342" />
	</node>
	<node lat="59.960226254741734" lon="9.299374495094316" id="-18451">
		<tag k="fixme" v="consider place=hamlet" />
		<tag k="name" v="Storemoen" />
		<tag k="old_name" v="St. Moen" />
		<tag k="place" v="farm" />
		<tag k="ssr:stedsnr" v="4349" />
	</node>
	<node lat="60.02342499859711" lon="9.006777769918966" id="-18452">
		<tag k="historic" v="shieling" />
		<tag k="name" v="Svensrudsetre" />
		<tag k="place" v="isolated_dwelling" />
		<tag k="ssr:stedsnr" v="4350" />
	</node>
	<node lat="59.953408333869326" lon="9.153980557885879" id="-18454">
		<tag k="historic" v="shieling" />
		<tag k="name" v="Ålmannbu" />
		<tag k="place" v="isolated_dwelling" />
		<tag k="ssr:stedsnr" v="4581" />
	</node>
	<node lat="60.08754524004745" lon="9.116332056323294" id="-18457">
		<tag k="fixme" v="consider place=hamlet" />
		<tag k="name" v="Bratterud" />
		<tag k="place" v="farm" />
		<tag k="ssr:stedsnr" v="4694" />
	</node>
	<node lat="60.060688300952954" lon="9.116412051605701" id="-18459">
		<tag k="fixme" v="consider place=hamlet" />
		<tag k="name" v="Brekke" />
		<tag k="place" v="farm" />
		<tag k="ssr:stedsnr" v="4644" />
	</node>
	<node lat="60.06153333534509" lon="9.11150000578567" id="-18460">
		<tag k="name" v="Kallerud" />
		<tag k="place" v="farm" />
		<tag k="ssr:stedsnr" v="4652" />
	</node>
	<node lat="60.02784444190191" lon="9.237694437008374" id="-18465">
		<tag k="name" v="Bjorsåte" />
		<tag k="place" v="farm" />
		<tag k="ssr:stedsnr" v="5027" />
	</node>
	<node lat="60.081788892608" lon="9.099902780641337" id="-18467">
		<tag k="name" v="Skavlemstugo" />
		<tag k="place" v="farm" />
		<tag k="ssr:stedsnr" v="5723" />
	</node>
	<node lat="60.00880277341846" lon="9.389766658729702" id="-18469">
		<tag k="historic" v="shieling" />
		<tag k="name" v="Sølset" />
		<tag k="place" v="isolated_dwelling" />
		<tag k="ssr:stedsnr" v="25509" />
	</node>
	<node lat="60.02611388868253" lon="9.23174722909228" id="-18473">
		<tag k="name" v="Gyldenrud" />
		<tag k="place" v="isolated_dwelling" />
		<tag k="ssr:stedsnr" v="28254" />
	</node>
	<node lat="59.9883333306472" lon="9.290249994482556" id="-18482">
		<tag k="name" v="Haugen" />
		<tag k="place" v="isolated_dwelling" />
		<tag k="ssr:stedsnr" v="29548" />
	</node>
	<node lat="60.02971666472421" lon="9.14356388636067" id="-18488">
		<tag k="name" v="Nordre Gladheim" />
		<tag k="place" v="farm" />
		<tag k="ssr:stedsnr" v="29689" />
	</node>
	<node lat="60.04302222044878" lon="9.135038889753302" id="-18489">
		<tag k="name" v="Øvre Haukjem" />
		<tag k="place" v="farm" />
		<tag k="ssr:stedsnr" v="29691" />
	</node>
	<node lat="59.93662777703758" lon="9.380902781681646" id="-18490">
		<tag k="name" v="Knutebråtån" />
		<tag k="place" v="isolated_dwelling" />
		<tag k="ssr:stedsnr" v="29779" />
	</node>
	<node lat="59.93739444770193" lon="9.315988888884421" id="-18491">
		<tag k="name" v="Køse" />
		<tag k="place" v="locality" />
		<tag k="ssr:stedsnr" v="29786" />
	</node>
	<node lat="59.96845000100148" lon="9.316516664098208" id="-18495">
		<tag k="name" v="Kjommeplassen" />
		<tag k="place" v="locality" />
		<tag k="ssr:stedsnr" v="29945" />
	</node>
	<node lat="59.97603333172838" lon="9.286961116348493" id="-18496">
		<tag k="name" v="Granheim" />
		<tag k="place" v="isolated_dwelling" />
		<tag k="ssr:stedsnr" v="29947" />
	</node>
	<node lat="59.97537500078305" lon="9.258011111130088" id="-18501">
		<tag k="historic" v="shieling" />
		<tag k="name" v="Landsverksetre" />
		<tag k="place" v="isolated_dwelling" />
		<tag k="ssr:stedsnr" v="64347" />
	</node>
	<node lat="59.97858055488494" lon="9.28016389733933" id="-18503">
		<tag k="name" v="Ramsrud" />
		<tag k="place" v="farm" />
		<tag k="ssr:stedsnr" v="64292" />
	</node>
	<node lat="60.08913055175195" lon="9.276641670359878" id="-18505">
		<tag k="historic" v="shieling" />
		<tag k="name" v="Gamleseterdalen" />
		<tag k="place" v="isolated_dwelling" />
		<tag k="ssr:stedsnr" v="65098" />
	</node>
	<node lat="59.98806666926454" lon="9.093605557138769" id="-18507">
		<tag k="historic" v="shieling" />
		<tag k="name" v="Skjenholtet" />
		<tag k="place" v="isolated_dwelling" />
		<tag k="ssr:stedsnr" v="64940" />
	</node>
	<node lat="59.94544167027793" lon="9.321158330164241" id="-18509">
		<tag k="name" v="Brumsdalen" />
		<tag k="old_name" v="Brunsdal" />
		<tag k="place" v="farm" />
		<tag k="ssr:stedsnr" v="65127" />
	</node>
	<node lat="59.95225277851885" lon="9.316299999010473" id="-18514">
		<tag k="name" v="Båtstøhaugen" />
		<tag k="old_name" v="Bustehaugen" />
		<tag k="place" v="farm" />
		<tag k="ssr:stedsnr" v="65330" />
	</node>
	<node lat="59.95297778031887" lon="9.26444445206053" id="-18515">
		<tag k="historic" v="shieling" />
		<tag k="name" v="Liset" />
		<tag k="place" v="isolated_dwelling" />
		<tag k="ssr:stedsnr" v="65333" />
	</node>
	<node lat="60.05041667070707" lon="9.162224997080303" id="-18520">
		<tag k="name" v="Andresplassen" />
		<tag k="place" v="farm" />
		<tag k="ssr:stedsnr" v="65674" />
	</node>
	<node lat="60.086191668116825" lon="9.120624993599487" id="-18521">
		<tag k="name" v="Kulterud" />
		<tag k="place" v="farm" />
		<tag k="ssr:stedsnr" v="65687" />
	</node>
	<node lat="60.02873094795984" lon="9.226127995174128" id="-18526">
		<tag k="fixme" v="consider place=hamlet" />
		<tag k="name" v="Snørud" />
		<tag k="place" v="farm" />
		<tag k="ssr:stedsnr" v="66034" />
	</node>
	<node lat="60.027074996416765" lon="9.267861114083457" id="-18527">
		<tag k="alt_name" v="Øvre Solberg" />
		<tag k="name" v="Solberg" />
		<tag k="place" v="farm" />
		<tag k="ssr:stedsnr" v="66035" />
	</node>
	<node lat="60.029467893656694" lon="9.256400765986164" id="-18528">
		<tag k="fixme" v="consider place=hamlet" />
		<tag k="name" v="Fugleåsen" />
		<tag k="place" v="farm" />
		<tag k="ssr:stedsnr" v="66038" />
	</node>
	<node lat="60.02492500209947" lon="9.257052769742671" id="-18529">
		<tag k="name" v="Søre Skogen" />
		<tag k="place" v="isolated_dwelling" />
		<tag k="ssr:stedsnr" v="66040" />
	</node>
	<node lat="60.038741664139145" lon="9.13430832610114" id="-18530">
		<tag k="name" v="Myre" />
		<tag k="place" v="isolated_dwelling" />
		<tag k="ssr:stedsnr" v="66340" />
	</node>
	<node lat="60.03189444386209" lon="9.220808336412732" id="-18536">
		<tag k="name" v="Hågan" />
		<tag k="place" v="locality" />
		<tag k="ssr:stedsnr" v="89276" />
	</node>
	<node lat="59.99097777564517" lon="9.268086114533801" id="-18538">
		<tag k="name" v="Høgrud" />
		<tag k="place" v="locality" />
		<tag k="ssr:stedsnr" v="89544" />
	</node>
	<node lat="60.04283055842118" lon="9.15025278593085" id="-18540">
		<tag k="amenity" v="nursing_home" />
		<tag k="name" v="Rollag alders- og sykehjem" />
		<tag k="ssr:stedsnr" v="89655" />
	</node>
	<node lat="60.03929722170994" lon="9.153886115661273" id="-18541">
		<tag k="name" v="Svensplass" />
		<tag k="place" v="isolated_dwelling" />
		<tag k="ssr:stedsnr" v="89656" />
	</node>
	<node lat="60.05932222224041" lon="9.136788892597917" id="-18547">
		<tag k="name" v="Haugen" />
		<tag k="place" v="isolated_dwelling" />
		<tag k="ssr:stedsnr" v="90298" />
	</node>
	<node lat="60.04158055587388" lon="9.1502416690929" id="-18548">
		<tag k="amenity" v="school" />
		<tag k="name" v="Veggli skole" />
		<tag k="old_name" v="Veggli barne- og ungdomsskole" />
		<tag k="ssr:stedsnr" v="89659" />
	</node>
	<node lat="60.00193333091167" lon="9.241366672670189" id="-18551">
		<tag k="name" v="Hovdesetskarven" />
		<tag k="place" v="isolated_dwelling" />
		<tag k="ssr:stedsnr" v="89823" />
	</node>
	<node lat="60.027319442433324" lon="9.278127777890598" id="-18552">
		<tag k="name" v="Nyhus" />
		<tag k="place" v="locality" />
		<tag k="ssr:stedsnr" v="89835" />
	</node>
	<node lat="60.041516670319034" lon="9.207627776841054" id="-18555">
		<tag k="name" v="Søre Kongsjorden" />
		<tag k="place" v="farm" />
		<tag k="ssr:stedsnr" v="89858" />
	</node>
	<node lat="59.96969166802995" lon="9.328852772472386" id="-18562">
		<tag k="name" v="Bergerud" />
		<tag k="place" v="locality" />
		<tag k="ssr:stedsnr" v="90939" />
	</node>
	<node lat="60.06087777981745" lon="9.092297228028265" id="-18566">
		<tag k="historic" v="shieling" />
		<tag k="name" v="Vallesetre" />
		<tag k="place" v="isolated_dwelling" />
		<tag k="ssr:stedsnr" v="90247" />
	</node>
	<node lat="60.06353611276577" lon="9.092244440386903" id="-18567">
		<tag k="historic" v="shieling" />
		<tag k="name" v="Nordre Skavlemsetre" />
		<tag k="place" v="isolated_dwelling" />
		<tag k="ssr:stedsnr" v="90248" />
	</node>
	<node lat="60.02715555136712" lon="9.181308333184633" id="-18583">
		<tag k="name" v="Jaren" />
		<tag k="place" v="farm" />
		<tag k="ssr:stedsnr" v="125350" />
	</node>
	<node lat="59.89510278069895" lon="9.246361118579905" id="-18586">
		<tag k="historic" v="shieling" />
		<tag k="name" v="Butjønnseter" />
		<tag k="place" v="isolated_dwelling" />
		<tag k="ssr:stedsnr" v="125260" />
	</node>
	<node lat="59.99699444400638" lon="9.419611105015623" id="-18587">
		<tag k="name" v="Elddalen" />
		<tag k="place" v="isolated_dwelling" />
		<tag k="ssr:stedsnr" v="125276" />
	</node>
	<node lat="60.00453332933819" lon="9.156458338585926" id="-18589">
		<tag k="historic" v="shieling" />
		<tag k="name" v="Fjøsesetre" />
		<tag k="place" v="isolated_dwelling" />
		<tag k="ssr:stedsnr" v="126275" />
	</node>
	<node lat="60.06181666371956" lon="9.13501111229299" id="-18593">
		<tag k="name" v="Helgesplassen" />
		<tag k="place" v="farm" />
		<tag k="ssr:stedsnr" v="125666" />
	</node>
	<node lat="60.027610385197875" lon="9.219402389158926" id="-18603">
		<tag k="alt_name" v="Søre Haslerud" />
		<tag k="fixme" v="consider place=hamlet" />
		<tag k="name" v="Haslerud" />
		<tag k="place" v="farm" />
		<tag k="ssr:stedsnr" v="126423" />
	</node>
	<node lat="60.0952888881358" lon="9.104894447688887" id="-18607">
		<tag k="historic" v="shieling" />
		<tag k="name" v="Skørra" />
		<tag k="place" v="isolated_dwelling" />
		<tag k="ssr:stedsnr" v="145321" />
	</node>
	<node lat="60.04420277341878" lon="9.228619448125093" id="-18609">
		<tag k="name" v="Søre Gylvik" />
		<tag k="place" v="isolated_dwelling" />
		<tag k="ssr:stedsnr" v="149221" />
	</node>
	<node lat="60.03647222398195" lon="9.10713610478354" id="-18628">
		<tag k="historic" v="shieling" />
		<tag k="name" v="Kittilslandsetre" />
		<tag k="place" v="isolated_dwelling" />
		<tag k="ssr:stedsnr" v="150640" />
	</node>
	<node lat="59.986599998716024" lon="9.291780557489105" id="-18634">
		<tag k="loc_name" v="Søre Bjerge" />
		<tag k="name" v="Søre Bjørge" />
		<tag k="place" v="farm" />
		<tag k="ssr:stedsnr" v="150550" />
	</node>
	<node lat="59.91653611417889" lon="9.330816659932003" id="-18636">
		<tag k="name" v="Køse" />
		<tag k="place" v="locality" />
		<tag k="ssr:stedsnr" v="150728" />
	</node>
	<node lat="59.91573611047835" lon="9.364494453005094" id="-18642">
		<tag k="name" v="Dalen" />
		<tag k="place" v="isolated_dwelling" />
		<tag k="ssr:stedsnr" v="150828" />
	</node>
	<node lat="59.97616666506397" lon="9.281611112136423" id="-18643">
		<tag k="name" v="Stærnesplassen" />
		<tag k="place" v="isolated_dwelling" />
		<tag k="ssr:stedsnr" v="150934" />
	</node>
</osm>
