<?xml version="1.0" encoding="UTF-8"?>
<osm version="0.6" generator="osmapis">
	<node lat="59.913652774277466" lon="9.310980554041011" id="-17952">
		<tag k="name" v="Rundingsnatten" />
		<tag k="natural" v="hill" />
		<tag k="place" v="locality" />
		<tag k="ssr:stedsnr" v="4202" />
	</node>
	<node lat="59.981869440065736" lon="9.083641668566846" id="-17956">
		<tag k="name" v="Høghaug" />
		<tag k="natural" v="hill" />
		<tag k="place" v="locality" />
		<tag k="ssr:stedsnr" v="4917" />
	</node>
	<node lat="60.06697500434324" lon="9.143750008702916" id="-17965">
		<tag k="fixme" v="consider natural=peak for the most distinct mountains in the district" />
		<tag k="name" v="Kalvåsen" />
		<tag k="natural" v="hill" />
		<tag k="place" v="locality" />
		<tag k="ssr:stedsnr" v="5712" />
	</node>
	<node lat="59.984761108064085" lon="9.313658327406271" id="-17966">
		<tag k="name" v="Djupedokk" />
		<tag k="natural" v="valley" />
		<tag k="place" v="locality" />
		<tag k="ssr:stedsnr" v="272860" />
	</node>
	<node lat="60.0556638851372" lon="9.210600006998515" id="-17969">
		<tag k="name" v="Åmot" />
		<tag k="place" v="locality" />
		<tag k="ssr:stedsnr" v="28174" />
	</node>
	<node lat="60.060280555373275" lon="9.287219452885386" id="-17970">
		<tag k="name" v="Hellesåslie" />
		<tag k="natural" v="slope" />
		<tag k="place" v="locality" />
		<tag k="ssr:stedsnr" v="28190" />
	</node>
	<node lat="60.07303888578661" lon="9.197972218722905" id="-17971">
		<tag k="name" v="Kølbottli" />
		<tag k="natural" v="slope" />
		<tag k="place" v="locality" />
		<tag k="ssr:stedsnr" v="29102" />
	</node>
	<node lat="60.07186259754134" lon="9.019744103024092" id="-17972">
		<tag k="name" v="Viersetli" />
		<tag k="natural" v="slope" />
		<tag k="place" v="locality" />
		<tag k="ssr:stedsnr" v="29002" />
	</node>
	<node lat="60.05123888570231" lon="9.176688887451276" id="-17974">
		<tag k="name" v="Skrubbeskørre" />
		<tag k="natural" v="valley" />
		<tag k="place" v="locality" />
		<tag k="ssr:stedsnr" v="29334" />
	</node>
	<node lat="60.055333329101295" lon="9.182191660075398" id="-17976">
		<tag k="name" v="Myre" />
		<tag k="place" v="locality" />
		<tag k="ssr:stedsnr" v="29338" />
	</node>
	<node lat="60.01127063224135" lon="9.009117876219472" id="-17980">
		<tag k="name" v="Gaupetjønnlie" />
		<tag k="natural" v="slope" />
		<tag k="place" v="locality" />
		<tag k="ssr:stedsnr" v="29411" />
	</node>
	<node lat="59.9925472183121" lon="9.177336112493759" id="-17981">
		<tag k="name" v="Erikstjønnurene" />
		<tag k="natural" v="slope" />
		<tag k="place" v="locality" />
		<tag k="ssr:stedsnr" v="29701" />
	</node>
	<node lat="59.990072226247754" lon="9.168194442682553" id="-17982">
		<tag k="name" v="Møllbakken" />
		<tag k="natural" v="slope" />
		<tag k="place" v="locality" />
		<tag k="ssr:stedsnr" v="29703" />
	</node>
	<node lat="59.950047222491754" lon="9.40340555135691" id="-17985">
		<tag k="name" v="Skropulie" />
		<tag k="natural" v="slope" />
		<tag k="place" v="locality" />
		<tag k="ssr:stedsnr" v="29773" />
	</node>
	<node lat="59.99324999999505" lon="9.303680552973551" id="-17988">
		<tag k="name" v="Skrubbesteinan" />
		<tag k="natural" v="slope" />
		<tag k="place" v="locality" />
		<tag k="ssr:stedsnr" v="29865" />
	</node>
	<node lat="59.980713887658744" lon="9.311108332730635" id="-17989">
		<tag k="name" v="Krommelåsen" />
		<tag k="natural" v="hill" />
		<tag k="place" v="locality" />
		<tag k="ssr:stedsnr" v="29866" />
	</node>
	<node lat="59.99680833676547" lon="9.198638892567173" id="-17990">
		<tag k="name" v="Saunatten" />
		<tag k="natural" v="hill" />
		<tag k="place" v="locality" />
		<tag k="ssr:stedsnr" v="29875" />
	</node>
	<node lat="59.98296666935667" lon="9.39480833920749" id="-17991">
		<tag k="name" v="Saupsetdalen" />
		<tag k="natural" v="valley" />
		<tag k="place" v="locality" />
		<tag k="ssr:stedsnr" v="29876" />
	</node>
	<node lat="59.994547218276935" lon="9.407544441535062" id="-17992">
		<tag k="name" v="Elddalsjuvet" />
		<tag k="natural" v="gorge" />
		<tag k="ssr:stedsnr" v="29878" />
	</node>
	<node lat="59.99001111254128" lon="9.353866659919124" id="-17994">
		<tag k="name" v="Lisetdokka" />
		<tag k="natural" v="valley" />
		<tag k="place" v="locality" />
		<tag k="ssr:stedsnr" v="29919" />
	</node>
	<node lat="59.98405962056088" lon="9.380094903065325" id="-17995">
		<tag k="name" v="Gørrbuåsen" />
		<tag k="natural" v="ridge" />
		<tag k="place" v="locality" />
		<tag k="ssr:stedsnr" v="29985" />
	</node>
	<node lat="60.002866667086195" lon="9.026522221257968" id="-18001">
		<tag k="fixme" v="consider natural=peak for the most distinct mountains in the district" />
		<tag k="name" v="Vardefjell" />
		<tag k="natural" v="hill" />
		<tag k="old_name" v="Valefjeldet" />
		<tag k="place" v="locality" />
		<tag k="ssr:stedsnr" v="65309" />
	</node>
	<node lat="59.89866111120714" lon="9.281458336949251" id="-18003">
		<tag k="fixme" v="consider natural=peak for the most distinct mountains in the district" />
		<tag k="name" v="Langåsen" />
		<tag k="natural" v="hill" />
		<tag k="place" v="locality" />
		<tag k="ssr:stedsnr" v="65608" />
	</node>
	<node lat="60.06260277914369" lon="9.194955550615344" id="-18005">
		<tag k="fixme" v="consider natural=peak for the most distinct mountains in the district" />
		<tag k="name" v="Gaukebergåsen" />
		<tag k="natural" v="hill" />
		<tag k="place" v="locality" />
		<tag k="ssr:stedsnr" v="65615" />
	</node>
	<node lat="60.03836944131019" lon="9.317166668034961" id="-18008">
		<tag k="name" v="Lefselikollen" />
		<tag k="natural" v="hill" />
		<tag k="place" v="locality" />
		<tag k="ssr:stedsnr" v="85504" />
	</node>
	<node lat="60.05116111335693" lon="9.224166674523559" id="-18009">
		<tag k="name" v="Sjugurdåsen" />
		<tag k="natural" v="ridge" />
		<tag k="place" v="locality" />
		<tag k="ssr:stedsnr" v="89157" />
	</node>
	<node lat="60.052608331953216" lon="9.21802777339056" id="-18010">
		<tag k="name" v="Møllbrekka" />
		<tag k="natural" v="slope" />
		<tag k="place" v="locality" />
		<tag k="ssr:stedsnr" v="89165" />
	</node>
	<node lat="60.04399444066144" lon="9.133086106886362" id="-18015">
		<tag k="name" v="Søre Kittilsland" />
		<tag k="natural" v="hill" />
		<tag k="place" v="locality" />
		<tag k="ssr:stedsnr" v="89698" />
	</node>
	<node lat="59.91877777729085" lon="9.22394722131304" id="-18016">
		<tag k="fixme" v="consider natural=peak for the most distinct mountains in the district" />
		<tag k="name" v="Killingen" />
		<tag k="natural" v="hill" />
		<tag k="place" v="locality" />
		<tag k="ssr:stedsnr" v="246180" />
	</node>
	<node lat="59.941283334539555" lon="9.279224992044705" id="-18017">
		<tag k="name" v="Øvre Deileskarvet" />
		<tag k="natural" v="ridge" />
		<tag k="place" v="locality" />
		<tag k="ssr:stedsnr" v="89906" />
	</node>
	<node lat="59.965616670736686" lon="9.274183333610363" id="-18018">
		<tag k="name" v="Skreppehaugen" />
		<tag k="natural" v="hill" />
		<tag k="place" v="locality" />
		<tag k="ssr:stedsnr" v="89970" />
	</node>
	<node lat="60.09970555794345" lon="9.11088334124958" id="-18020">
		<tag k="name" v="Skørraskørre" />
		<tag k="natural" v="cliff" />
		<tag k="ssr:stedsnr" v="90445" />
	</node>
	<node lat="60.03296388950014" lon="9.069797219829692" id="-18022">
		<tag k="name" v="Årsethaugan" />
		<tag k="natural" v="hill" />
		<tag k="place" v="locality" />
		<tag k="ssr:stedsnr" v="90394" />
	</node>
	<node lat="60.0272027735266" lon="9.137302780626403" id="-18024">
		<tag k="name" v="Tørrfuruhaugen" />
		<tag k="natural" v="hill" />
		<tag k="place" v="locality" />
		<tag k="ssr:stedsnr" v="90623" />
	</node>
	<node lat="59.91761944007258" lon="9.31845833508202" id="-18025">
		<tag k="name" v="Storeskarv" />
		<tag k="natural" v="hill" />
		<tag k="place" v="locality" />
		<tag k="ssr:stedsnr" v="90731" />
	</node>
	<node lat="59.97244722436169" lon="9.416838892808963" id="-18026">
		<tag k="fixme" v="consider natural=peak for the most distinct mountains in the district" />
		<tag k="name" v="Lauvåsen" />
		<tag k="natural" v="hill" />
		<tag k="place" v="locality" />
		<tag k="ssr:stedsnr" v="90786" />
	</node>
	<node lat="60.06323333704112" lon="8.989313883164506" id="-18041">
		<tag k="name" v="Krokgrøe" />
		<tag k="natural" v="valley" />
		<tag k="place" v="locality" />
		<tag k="ssr:stedsnr" v="247620" />
	</node>
	<node lat="59.993097219110524" lon="9.17089167506242" id="-18049">
		<tag k="name" v="Hovdedalen" />
		<tag k="natural" v="valley" />
		<tag k="place" v="locality" />
		<tag k="ssr:stedsnr" v="247936" />
	</node>
	<node lat="60.05604166444281" lon="9.26885834005879" id="-18055">
		<tag k="fixme" v="consider natural=peak for the most distinct mountains in the district" />
		<tag k="name" v="Konnuliåsen" />
		<tag k="natural" v="hill" />
		<tag k="place" v="locality" />
		<tag k="ssr:stedsnr" v="125078" />
	</node>
	<node lat="59.98916944405681" lon="9.370027784410667" id="-18057">
		<tag k="fixme" v="consider natural=peak for the most distinct mountains in the district" />
		<tag k="name" v="Hovsåta" />
		<tag k="natural" v="hill" />
		<tag k="place" v="locality" />
		<tag k="ssr:stedsnr" v="125310" />
	</node>
	<node lat="59.96009722105838" lon="9.359513890609055" id="-18061">
		<tag k="name" v="Vrågå" />
		<tag k="old_name" v="Vraage" />
		<tag k="place" v="locality" />
		<tag k="ssr:stedsnr" v="125367" />
	</node>
	<node lat="60.04168055446037" lon="8.989150007634963" id="-18070">
		<tag k="fixme" v="consider natural=peak for the most distinct mountains in the district" />
		<tag k="name" v="Daggrønuten" />
		<tag k="natural" v="hill" />
		<tag k="place" v="locality" />
		<tag k="ssr:stedsnr" v="125700" />
	</node>
	<node lat="60.027088885125906" lon="9.010683327183449" id="-18078">
		<tag k="name" v="Kråkåshaugen" />
		<tag k="natural" v="hill" />
		<tag k="place" v="locality" />
		<tag k="ssr:stedsnr" v="150105" />
	</node>
	<node lat="60.065788887875186" lon="9.206055561135774" id="-18079">
		<tag k="name" v="Steintøyre" />
		<tag k="place" v="locality" />
		<tag k="ssr:stedsnr" v="150156" />
	</node>
	<node lat="59.88253888921519" lon="9.213255548770803" id="-18081">
		<tag k="name" v="Barbrodalen" />
		<tag k="natural" v="valley" />
		<tag k="place" v="locality" />
		<tag k="ssr:stedsnr" v="150163" />
	</node>
	<node lat="60.06228611148424" lon="9.1844750002109" id="-18082">
		<tag k="name" v="Øvre Rauneset" />
		<tag k="natural" v="hill" />
		<tag k="place" v="locality" />
		<tag k="ssr:stedsnr" v="150311" />
	</node>
	<node lat="60.10876389320975" lon="9.129980551149185" id="-18084">
		<tag k="name" v="Tjuvejakobdalen" />
		<tag k="natural" v="valley" />
		<tag k="place" v="locality" />
		<tag k="ssr:stedsnr" v="150456" />
	</node>
	<node lat="60.02681666968284" lon="9.132755551286007" id="-18087">
		<tag k="name" v="Møllbrekka" />
		<tag k="natural" v="valley" />
		<tag k="place" v="locality" />
		<tag k="ssr:stedsnr" v="150624" />
	</node>
	<node lat="60.09454444356842" lon="9.169455547659041" id="-18088">
		<tag k="name" v="Ospegjengje" />
		<tag k="natural" v="valley" />
		<tag k="place" v="locality" />
		<tag k="ssr:stedsnr" v="150510" />
	</node>
	<node lat="59.98337500181588" lon="9.262852773643846" id="-18090">
		<tag k="name" v="Mogekås" />
		<tag k="natural" v="slope" />
		<tag k="place" v="locality" />
		<tag k="ssr:stedsnr" v="150560" />
	</node>
	<node lat="59.93620833456141" lon="9.264991674529492" id="-18092">
		<tag k="name" v="Elgedalen" />
		<tag k="natural" v="valley" />
		<tag k="place" v="locality" />
		<tag k="ssr:stedsnr" v="150757" />
	</node>
	<node lat="59.89249444138267" lon="9.240141674314447" id="-18094">
		<tag k="name" v="Butjønnhallin" />
		<tag k="natural" v="slope" />
		<tag k="place" v="locality" />
		<tag k="ssr:stedsnr" v="150767" />
	</node>
	<node lat="59.9577805575579" lon="9.334905562685314" id="-18096">
		<tag k="fixme" v="consider natural=peak for the most distinct mountains in the district" />
		<tag k="name" v="Ørneflaget" />
		<tag k="natural" v="hill" />
		<tag k="place" v="locality" />
		<tag k="ssr:stedsnr" v="150773" />
	</node>
	<node lat="59.98158610703693" lon="9.242777779448787" id="-18101">
		<tag k="name" v="Dyreskardhalsen" />
		<tag k="natural" v="valley" />
		<tag k="place" v="locality" />
		<tag k="ssr:stedsnr" v="150953" />
	</node>
	<node lat="59.95382777718976" lon="9.204955546677432" id="-18107">
		<tag k="fixme" v="consider natural=peak for the most distinct mountains in the district" />
		<tag k="name" v="Oksetjønnatten" />
		<tag k="natural" v="hill" />
		<tag k="place" v="locality" />
		<tag k="ssr:stedsnr" v="186637" />
	</node>
	<node lat="60.09194722006658" lon="9.167127783397914" id="-18110">
		<tag k="name" v="Skridubekkjuvet" />
		<tag k="natural" v="valley" />
		<tag k="place" v="locality" />
		<tag k="ssr:stedsnr" v="186741" />
	</node>
	<node lat="59.98396388845501" lon="9.059419437480793" id="-18112">
		<tag k="fixme" v="consider natural=peak for the most distinct mountains in the district" />
		<tag k="name" v="Deveggnatten" />
		<tag k="natural" v="hill" />
		<tag k="place" v="locality" />
		<tag k="ssr:stedsnr" v="186880" />
	</node>
	<node lat="60.020141665637176" lon="9.25127499744688" id="-18114">
		<tag k="fixme" v="consider natural=peak for the most distinct mountains in the district" />
		<tag k="name" v="Bråtååsen" />
		<tag k="natural" v="hill" />
		<tag k="place" v="locality" />
		<tag k="ssr:stedsnr" v="187038" />
	</node>
	<node lat="60.08109722589588" lon="9.233819447759524" id="-18115">
		<tag k="fixme" v="consider natural=peak for the most distinct mountains in the district" />
		<tag k="name" v="Tonuten" />
		<tag k="natural" v="hill" />
		<tag k="place" v="locality" />
		<tag k="ssr:stedsnr" v="187095" />
	</node>
	<node lat="60.073036111236846" lon="8.981433335349168" id="-18119">
		<tag k="fixme" v="consider natural=peak for the most distinct mountains in the district" />
		<tag k="name" v="Rustnuten" />
		<tag k="natural" v="hill" />
		<tag k="place" v="locality" />
		<tag k="ssr:stedsnr" v="187692" />
	</node>
	<node lat="60.03136110799174" lon="9.147997218794707" id="-18123">
		<tag k="name" v="Tørrhaug" />
		<tag k="natural" v="hill" />
		<tag k="place" v="locality" />
		<tag k="ssr:stedsnr" v="272598" />
	</node>
	<node lat="60.01835277560134" lon="9.405138881403202" id="-18128">
		<tag k="name" v="Revsrovedalen" />
		<tag k="natural" v="valley" />
		<tag k="place" v="locality" />
		<tag k="ssr:stedsnr" v="268544" />
	</node>
	<node lat="60.0772472186281" lon="9.193386104580147" id="-18130">
		<tag k="name" v="Heimseteråsen" />
		<tag k="natural" v="ridge" />
		<tag k="place" v="locality" />
		<tag k="ssr:stedsnr" v="211109" />
	</node>
	<node lat="60.0775638851928" lon="9.207911105286698" id="-18131">
		<tag k="name" v="Bjørnegjengje" />
		<tag k="natural" v="valley" />
		<tag k="place" v="locality" />
		<tag k="ssr:stedsnr" v="211110" />
	</node>
	<node lat="60.04780833238491" lon="8.990594443855429" id="-18134">
		<tag k="name" v="Killingdal" />
		<tag k="natural" v="valley" />
		<tag k="place" v="locality" />
		<tag k="ssr:stedsnr" v="211129" />
	</node>
	<node lat="60.05648333779818" lon="9.245483332990005" id="-18137">
		<tag k="fixme" v="consider natural=peak for the most distinct mountains in the district" />
		<tag k="name" v="Flatåsen" />
		<tag k="natural" v="hill" />
		<tag k="place" v="locality" />
		<tag k="ssr:stedsnr" v="211148" />
	</node>
	<node lat="59.979811112623516" lon="9.055022213987419" id="-18138">
		<tag k="name" v="Deveggnatten" />
		<tag k="natural" v="hill" />
		<tag k="place" v="locality" />
		<tag k="ssr:stedsnr" v="211184" />
	</node>
	<node lat="60.050219440259355" lon="9.12259999219085" id="-18139">
		<tag k="name" v="Snusbakken" />
		<tag k="natural" v="slope" />
		<tag k="place" v="locality" />
		<tag k="ssr:stedsnr" v="211274" />
	</node>
	<node lat="60.0602222217069" lon="9.182541670863154" id="-18142">
		<tag k="name" v="Nedre Rauneset" />
		<tag k="natural" v="hill" />
		<tag k="place" v="locality" />
		<tag k="ssr:stedsnr" v="211315" />
	</node>
	<node lat="60.05950555695661" lon="9.167405564501399" id="-18143">
		<tag k="name" v="Rabberudskørre" />
		<tag k="natural" v="slope" />
		<tag k="place" v="locality" />
		<tag k="ssr:stedsnr" v="211317" />
	</node>
	<node lat="60.05729444774797" lon="9.158933327076742" id="-18144">
		<tag k="name" v="Storeskørr" />
		<tag k="natural" v="slope" />
		<tag k="place" v="locality" />
		<tag k="ssr:stedsnr" v="211325" />
	</node>
	<node lat="59.98942499757345" lon="9.26279722314915" id="-18147">
		<tag k="name" v="Kyrskørr" />
		<tag k="natural" v="valley" />
		<tag k="place" v="locality" />
		<tag k="ssr:stedsnr" v="211528" />
	</node>
	<node lat="60.0162861107244" lon="9.21030277197" id="-18150">
		<tag k="name" v="Skodsberg" />
		<tag k="natural" v="hill" />
		<tag k="place" v="locality" />
		<tag k="ssr:stedsnr" v="211813" />
	</node>
	<node lat="59.952219441343644" lon="9.29966943761839" id="-18151">
		<tag k="name" v="Glitrehaugen" />
		<tag k="natural" v="hill" />
		<tag k="place" v="locality" />
		<tag k="ssr:stedsnr" v="211825" />
	</node>
	<node lat="59.998677778286606" lon="9.34241666446748" id="-18154">
		<tag k="name" v="Tobakksrullen" />
		<tag k="natural" v="slope" />
		<tag k="place" v="locality" />
		<tag k="ssr:stedsnr" v="211895" />
	</node>
	<node lat="59.987033331410075" lon="9.080016669460523" id="-18155">
		<tag k="name" v="Devegghaugen" />
		<tag k="natural" v="hill" />
		<tag k="place" v="locality" />
		<tag k="ssr:stedsnr" v="211729" />
	</node>
	<node lat="59.943961107356444" lon="9.335566671079144" id="-18156">
		<tag k="name" v="Bjørnegjenge" />
		<tag k="natural" v="valley" />
		<tag k="place" v="locality" />
		<tag k="ssr:stedsnr" v="211778" />
	</node>
	<node lat="60.01526388717778" lon="9.22609166722691" id="-18157">
		<tag k="name" v="Andehølet" />
		<tag k="natural" v="slope" />
		<tag k="place" v="locality" />
		<tag k="ssr:stedsnr" v="211779" />
	</node>
	<node lat="60.02088055221382" lon="9.237550003316613" id="-18159">
		<tag k="name" v="Haugeskørre" />
		<tag k="natural" v="valley" />
		<tag k="place" v="locality" />
		<tag k="ssr:stedsnr" v="211781" />
	</node>
	<node lat="59.94964166692883" lon="9.339416662640264" id="-18161">
		<tag k="name" v="Brennåsen" />
		<tag k="natural" v="hill" />
		<tag k="place" v="locality" />
		<tag k="ssr:stedsnr" v="211795" />
	</node>
	<node lat="60.01244166702705" lon="9.246211110727975" id="-18163">
		<tag k="name" v="Rugkåsbakken" />
		<tag k="natural" v="slope" />
		<tag k="place" v="locality" />
		<tag k="ssr:stedsnr" v="211986" />
	</node>
	<node lat="60.001458334085115" lon="9.168783335511835" id="-18164">
		<tag k="name" v="Fjøsehallin" />
		<tag k="natural" v="slope" />
		<tag k="place" v="locality" />
		<tag k="ssr:stedsnr" v="272642" />
	</node>
	<node lat="59.97252499685558" lon="9.12436944909156" id="-18165">
		<tag k="name" v="Skjerbrekklie" />
		<tag k="natural" v="slope" />
		<tag k="place" v="locality" />
		<tag k="ssr:stedsnr" v="272643" />
	</node>
	<node lat="59.95093055741928" lon="9.304591667792677" id="-18169">
		<tag k="fixme" v="consider natural=peak for the most distinct mountains in the district" />
		<tag k="name" v="Engjeåsen" />
		<tag k="natural" v="hill" />
		<tag k="place" v="locality" />
		<tag k="ssr:stedsnr" v="272751" />
	</node>
	<node lat="59.934705555447735" lon="9.27482499292683" id="-18170">
		<tag k="name" v="Søysetlie" />
		<tag k="natural" v="slope" />
		<tag k="place" v="locality" />
		<tag k="ssr:stedsnr" v="272755" />
	</node>
	<node lat="60.05575358687392" lon="9.226367339027084" id="-18171">
		<tag k="name" v="Søre Kleiv" />
		<tag k="natural" v="slope" />
		<tag k="place" v="locality" />
		<tag k="ssr:stedsnr" v="271167" />
	</node>
	<node lat="60.0374388911522" lon="9.22665277434408" id="-18174">
		<tag k="name" v="Flåtengsdalen" />
		<tag k="natural" v="valley" />
		<tag k="place" v="locality" />
		<tag k="ssr:stedsnr" v="271298" />
	</node>
	<node lat="60.00637222217882" lon="9.37373889204451" id="-18176">
		<tag k="fixme" v="consider natural=peak for the most distinct mountains in the district" />
		<tag k="name" v="Barketjønnåsen" />
		<tag k="natural" v="hill" />
		<tag k="place" v="locality" />
		<tag k="ssr:stedsnr" v="271787" />
	</node>
	<node lat="60.014330039327184" lon="9.286024116998346" id="-18178">
		<tag k="name" v="Hågåsen" />
		<tag k="natural" v="hill" />
		<tag k="place" v="locality" />
		<tag k="ssr:stedsnr" v="271820" />
	</node>
	<node lat="60.017325003944784" lon="9.226413893427594" id="-18181">
		<tag k="name" v="Brattås" />
		<tag k="natural" v="ridge" />
		<tag k="place" v="locality" />
		<tag k="ssr:stedsnr" v="271839" />
	</node>
	<node lat="60.096741666323744" lon="9.2127527838865" id="-18186">
		<tag k="fixme" v="consider natural=peak for the most distinct mountains in the district" />
		<tag k="name" v="Nybuåsen" />
		<tag k="natural" v="hill" />
		<tag k="place" v="locality" />
		<tag k="ssr:stedsnr" v="453393" />
	</node>
	<node lat="60.08940555318028" lon="9.233236113910083" id="-18187">
		<tag k="name" v="Bikkjetjønnhaugen" />
		<tag k="natural" v="hill" />
		<tag k="place" v="locality" />
		<tag k="ssr:stedsnr" v="453398" />
	</node>
	<node lat="59.98169722104225" lon="9.245055550803622" id="-18191">
		<tag k="name" v="Dyreskardhaugen" />
		<tag k="natural" v="hill" />
		<tag k="place" v="locality" />
		<tag k="ssr:stedsnr" v="246284" />
	</node>
	<node lat="60.047130557215425" lon="8.989886105443732" id="-18204">
		<tag k="name" v="Killingskardet" />
		<tag k="natural" v="valley" />
		<tag k="place" v="locality" />
		<tag k="ssr:stedsnr" v="247611" />
	</node>
	<node lat="60.04920277771198" lon="9.23136666404676" id="-18209">
		<tag k="fixme" v="consider natural=peak for the most distinct mountains in the district" />
		<tag k="name" v="Kullhusåsen" />
		<tag k="natural" v="hill" />
		<tag k="place" v="locality" />
		<tag k="ssr:stedsnr" v="453152" />
	</node>
	<node lat="60.05055555211078" lon="9.234577772920291" id="-18210">
		<tag k="fixme" v="consider natural=peak for the most distinct mountains in the district" />
		<tag k="name" v="Delesmyråsen" />
		<tag k="natural" v="hill" />
		<tag k="place" v="locality" />
		<tag k="ssr:stedsnr" v="453154" />
	</node>
	<node lat="60.06190277381559" lon="9.231941662522326" id="-18211">
		<tag k="name" v="Fjorhøgstbrottet" />
		<tag k="natural" v="hill" />
		<tag k="place" v="locality" />
		<tag k="ssr:stedsnr" v="453159" />
	</node>
	<node lat="60.128411112591024" lon="9.224033337839018" id="-18212">
		<tag k="name" v="Tverrdalen" />
		<tag k="natural" v="valley" />
		<tag k="place" v="locality" />
		<tag k="ssr:stedsnr" v="453324" />
	</node>
	<node lat="60.12967778119376" lon="9.233513891573986" id="-18213">
		<tag k="fixme" v="consider natural=peak for the most distinct mountains in the district" />
		<tag k="name" v="Harkildsdalåsen" />
		<tag k="natural" v="hill" />
		<tag k="place" v="locality" />
		<tag k="ssr:stedsnr" v="453327" />
	</node>
	<node lat="60.000655558566486" lon="9.26241110650578" id="-18217">
		<tag k="name" v="Bergskørr" />
		<tag k="natural" v="valley" />
		<tag k="place" v="locality" />
		<tag k="ssr:stedsnr" v="453536" />
	</node>
	<node lat="59.99828333229883" lon="9.257672230298088" id="-18218">
		<tag k="name" v="Ravneskørr" />
		<tag k="natural" v="valley" />
		<tag k="place" v="locality" />
		<tag k="ssr:stedsnr" v="453539" />
	</node>
	<node lat="59.99036110714408" lon="9.26359167013449" id="-18219">
		<tag k="name" v="Gampeskørr" />
		<tag k="natural" v="valley" />
		<tag k="place" v="locality" />
		<tag k="ssr:stedsnr" v="453544" />
	</node>
	<node lat="59.99990278036436" lon="9.209394445799134" id="-18224">
		<tag k="name" v="Elgklypa" />
		<tag k="natural" v="valley" />
		<tag k="place" v="locality" />
		<tag k="ssr:stedsnr" v="453901" />
	</node>
	<node lat="60.019955559409745" lon="9.265055547362063" id="-18225">
		<tag k="name" v="Kleive" />
		<tag k="natural" v="slope" />
		<tag k="place" v="locality" />
		<tag k="ssr:stedsnr" v="453989" />
	</node>
	<node lat="60.00328888763335" lon="9.245577786195275" id="-18227">
		<tag k="name" v="Flagget" />
		<tag k="natural" v="cliff" />
		<tag k="ssr:stedsnr" v="453993" />
	</node>
	<node lat="60.01076389278232" lon="9.26366389102791" id="-18228">
		<tag k="name" v="Kjeldokken" />
		<tag k="natural" v="valley" />
		<tag k="place" v="locality" />
		<tag k="ssr:stedsnr" v="453997" />
	</node>
	<node lat="60.00580000247613" lon="9.196347220801442" id="-18229">
		<tag k="name" v="Tyrihjallåsen" />
		<tag k="natural" v="hill" />
		<tag k="place" v="locality" />
		<tag k="ssr:stedsnr" v="453836" />
	</node>
	<node lat="60.03243333693894" lon="9.289227770644816" id="-18230">
		<tag k="name" v="Bjørnåsen" />
		<tag k="natural" v="ridge" />
		<tag k="place" v="locality" />
		<tag k="ssr:stedsnr" v="453840" />
	</node>
	<node lat="59.97447222117581" lon="9.264013885338517" id="-18231">
		<tag k="name" v="Blekkje" />
		<tag k="place" v="locality" />
		<tag k="ssr:stedsnr" v="453953" />
	</node>
	<node lat="59.995819442555394" lon="9.298394452565956" id="-18233">
		<tag k="name" v="Kaståsen" />
		<tag k="natural" v="ridge" />
		<tag k="place" v="locality" />
		<tag k="ssr:stedsnr" v="454568" />
	</node>
	<node lat="60.084530551784354" lon="9.306225007829616" id="-18236">
		<tag k="name" v="Tjønndalen" />
		<tag k="natural" v="valley" />
		<tag k="place" v="locality" />
		<tag k="ssr:stedsnr" v="454598" />
	</node>
	<node lat="59.986791670243726" lon="9.153266671686085" id="-18239">
		<tag k="name" v="Helleåbrottet" />
		<tag k="natural" v="valley" />
		<tag k="place" v="locality" />
		<tag k="ssr:stedsnr" v="454717" />
	</node>
	<node lat="59.97192500089885" lon="9.324994446033115" id="-18243">
		<tag k="name" v="Veltetjønnbakken" />
		<tag k="natural" v="slope" />
		<tag k="place" v="locality" />
		<tag k="ssr:stedsnr" v="454952" />
	</node>
	<node lat="59.96138889036418" lon="9.33260832792604" id="-18244">
		<tag k="name" v="Hesteryggen" />
		<tag k="natural" v="ridge" />
		<tag k="place" v="locality" />
		<tag k="ssr:stedsnr" v="454953" />
	</node>
	<node lat="59.99927499881048" lon="9.36143056027952" id="-18246">
		<tag k="name" v="Gampedalen" />
		<tag k="natural" v="valley" />
		<tag k="place" v="locality" />
		<tag k="ssr:stedsnr" v="454995" />
	</node>
	<node lat="60.00052499679688" lon="9.095208338008737" id="-18247">
		<tag k="name" v="Oksehaug" />
		<tag k="natural" v="hill" />
		<tag k="place" v="locality" />
		<tag k="ssr:stedsnr" v="267333" />
	</node>
	<node lat="60.05705000098594" lon="9.29383054851407" id="-18250">
		<tag k="name" v="Svarthogsten" />
		<tag k="natural" v="slope" />
		<tag k="place" v="locality" />
		<tag k="ssr:stedsnr" v="271207" />
	</node>
	<node lat="60.05942222155291" lon="9.24898888952589" id="-18251">
		<tag k="name" v="Svarthøl" />
		<tag k="natural" v="valley" />
		<tag k="place" v="locality" />
		<tag k="ssr:stedsnr" v="271219" />
	</node>
	<node lat="60.044549996916906" lon="9.007888885418593" id="-18253">
		<tag k="name" v="Nattens skole" />
		<tag k="natural" v="hill" />
		<tag k="place" v="locality" />
		<tag k="ssr:stedsnr" v="271153" />
	</node>
	<node lat="60.05644721788345" lon="9.199686118079349" id="-18254">
		<tag k="fixme" v="consider natural=peak for the most distinct mountains in the district" />
		<tag k="name" v="Jerveåsen" />
		<tag k="natural" v="hill" />
		<tag k="place" v="locality" />
		<tag k="ssr:stedsnr" v="271176" />
	</node>
	<node lat="60.0847777734436" lon="9.235330553303108" id="-18255">
		<tag k="name" v="Fagerli" />
		<tag k="natural" v="slope" />
		<tag k="place" v="locality" />
		<tag k="ssr:stedsnr" v="271421" />
	</node>
	<node lat="60.02199999758105" lon="9.030888897372664" id="-18260">
		<tag k="name" v="Mjogetjønndalen" />
		<tag k="natural" v="valley" />
		<tag k="place" v="locality" />
		<tag k="ssr:stedsnr" v="272423" />
	</node>
	<node lat="60.04739721868707" lon="9.351502775891014" id="-18262">
		<tag k="fixme" v="consider natural=peak for the most distinct mountains in the district" />
		<tag k="name" v="Langseterlie" />
		<tag k="natural" v="hill" />
		<tag k="place" v="locality" />
		<tag k="ssr:stedsnr" v="272313" />
	</node>
	<node lat="60.055106409080985" lon="9.35870695122006" id="-18263">
		<tag k="fixme" v="consider natural=peak for the most distinct mountains in the district" />
		<tag k="name" v="Trånatten" />
		<tag k="natural" v="hill" />
		<tag k="place" v="locality" />
		<tag k="ssr:stedsnr" v="272316" />
	</node>
	<node lat="60.04184167065612" lon="9.114949993953203" id="-18266">
		<tag k="name" v="Glanarberget" />
		<tag k="natural" v="hill" />
		<tag k="place" v="locality" />
		<tag k="ssr:stedsnr" v="272613" />
	</node>
	<node lat="59.91970833147304" lon="9.379522214484476" id="-18268">
		<tag k="name" v="Kollen" />
		<tag k="natural" v="hill" />
		<tag k="place" v="locality" />
		<tag k="ssr:stedsnr" v="272823" />
	</node>
	<node lat="59.92606110790216" lon="9.309216675471166" id="-18269">
		<tag k="name" v="Sjåberg" />
		<tag k="natural" v="ridge" />
		<tag k="place" v="locality" />
		<tag k="ssr:stedsnr" v="272728" />
	</node>
	<node lat="59.95634999765286" lon="9.333002772031877" id="-18270">
		<tag k="name" v="Storekleiv" />
		<tag k="natural" v="cliff" />
		<tag k="ssr:stedsnr" v="272771" />
	</node>
	<node lat="59.99310277381693" lon="9.346108332834245" id="-18272">
		<tag k="fixme" v="consider natural=peak for the most distinct mountains in the district" />
		<tag k="name" v="Torsrudåsen" />
		<tag k="natural" v="hill" />
		<tag k="place" v="locality" />
		<tag k="ssr:stedsnr" v="272902" />
	</node>
	<node lat="59.987850002083654" lon="9.351152776958008" id="-18274">
		<tag k="name" v="Lauvåsen" />
		<tag k="natural" v="slope" />
		<tag k="place" v="locality" />
		<tag k="ssr:stedsnr" v="272909" />
	</node>
	<node lat="59.98298055791585" lon="9.38334443980459" id="-18277">
		<tag k="name" v="Skodalsmyre" />
		<tag k="natural" v="valley" />
		<tag k="place" v="locality" />
		<tag k="ssr:stedsnr" v="272989" />
	</node>
	<node lat="60.02707777639505" lon="9.33786665894992" id="-18287">
		<tag k="fixme" v="consider natural=peak for the most distinct mountains in the district" />
		<tag k="name" v="Geiteskallen" />
		<tag k="natural" v="hill" />
		<tag k="place" v="locality" />
		<tag k="ssr:stedsnr" v="308029" />
	</node>
	<node lat="60.08138888791397" lon="9.284991658760008" id="-18295">
		<tag k="fixme" v="consider natural=peak for the most distinct mountains in the district" />
		<tag k="name" v="Nysethøgde" />
		<tag k="natural" v="hill" />
		<tag k="place" v="locality" />
		<tag k="ssr:stedsnr" v="332111" />
	</node>
	<node lat="60.06134444212071" lon="9.115361112269687" id="-18296">
		<tag k="name" v="Brekkeberget" />
		<tag k="natural" v="hill" />
		<tag k="place" v="locality" />
		<tag k="ssr:stedsnr" v="332260" />
	</node>
	<node lat="60.03398889101337" lon="9.051897226526357" id="-18297">
		<tag k="name" v="Bjørneli" />
		<tag k="natural" v="slope" />
		<tag k="place" v="locality" />
		<tag k="ssr:stedsnr" v="332402" />
	</node>
	<node lat="60.03477777537588" lon="9.05363610800901" id="-18298">
		<tag k="name" v="Røståbrekka" />
		<tag k="natural" v="valley" />
		<tag k="place" v="locality" />
		<tag k="ssr:stedsnr" v="332411" />
	</node>
	<node lat="59.88623611192792" lon="9.199091674366391" id="-18299">
		<tag k="name" v="Grautenatten" />
		<tag k="natural" v="hill" />
		<tag k="place" v="locality" />
		<tag k="ssr:stedsnr" v="332152" />
	</node>
	<node lat="60.06626666783339" lon="9.138922223934422" id="-18300">
		<tag k="fixme" v="consider natural=peak for the most distinct mountains in the district" />
		<tag k="name" v="Vårfjøsåsen" />
		<tag k="natural" v="hill" />
		<tag k="place" v="locality" />
		<tag k="ssr:stedsnr" v="332313" />
	</node>
	<node lat="59.9907694409784" lon="9.248211107263073" id="-18302">
		<tag k="name" v="Medskørr" />
		<tag k="natural" v="valley" />
		<tag k="place" v="locality" />
		<tag k="ssr:stedsnr" v="332507" />
	</node>
	<node lat="60.02672222171953" lon="9.154222229060174" id="-18305">
		<tag k="name" v="Blåhus" />
		<tag k="place" v="locality" />
		<tag k="ssr:stedsnr" v="332647" />
	</node>
	<node lat="60.01883333449953" lon="9.392850003111425" id="-18308">
		<tag k="name" v="Kastet" />
		<tag k="natural" v="slope" />
		<tag k="place" v="locality" />
		<tag k="ssr:stedsnr" v="332709" />
	</node>
	<node lat="59.93903611259392" lon="9.381724998720626" id="-18309">
		<tag k="name" v="Tjønnåsen" />
		<tag k="natural" v="hill" />
		<tag k="place" v="locality" />
		<tag k="ssr:stedsnr" v="332763" />
	</node>
	<node lat="59.97652499958483" lon="9.310383331652547" id="-18311">
		<tag k="name" v="Gormehaugen" />
		<tag k="natural" v="hill" />
		<tag k="place" v="locality" />
		<tag k="ssr:stedsnr" v="332796" />
	</node>
	<node lat="59.97743333238814" lon="9.367633325726569" id="-18312">
		<tag k="name" v="Kalveåsen" />
		<tag k="natural" v="hill" />
		<tag k="place" v="locality" />
		<tag k="ssr:stedsnr" v="332800" />
	</node>
	<node lat="59.95396111212475" lon="9.254380559367313" id="-18315">
		<tag k="name" v="Hugarberget" />
		<tag k="natural" v="hill" />
		<tag k="place" v="locality" />
		<tag k="ssr:stedsnr" v="332810" />
	</node>
	<node lat="59.960747226160514" lon="9.265119446425159" id="-18318">
		<tag k="name" v="Rundehaugen" />
		<tag k="natural" v="hill" />
		<tag k="place" v="locality" />
		<tag k="ssr:stedsnr" v="332950" />
	</node>
	<node lat="59.990097225967084" lon="9.157111113205534" id="-18341">
		<tag k="name" v="Gygeråsen" />
		<tag k="natural" v="hill" />
		<tag k="place" v="locality" />
		<tag k="ssr:stedsnr" v="368931" />
	</node>
	<node lat="60.00166666896317" lon="9.33961666569796" id="-18349">
		<tag k="name" v="Hestespreng" />
		<tag k="natural" v="slope" />
		<tag k="place" v="locality" />
		<tag k="ssr:stedsnr" v="392782" />
	</node>
	<node lat="60.018416665098435" lon="9.308033342125087" id="-18350">
		<tag k="name" v="Fyrisetåsen" />
		<tag k="natural" v="ridge" />
		<tag k="place" v="locality" />
		<tag k="ssr:stedsnr" v="392788" />
	</node>
	<node lat="60.051058332667665" lon="8.994152774415998" id="-18356">
		<tag k="name" v="Skurvenatten" />
		<tag k="natural" v="hill" />
		<tag k="place" v="locality" />
		<tag k="ssr:stedsnr" v="393135" />
	</node>
	<node lat="60.03373888490457" lon="9.021861105762566" id="-18358">
		<tag k="name" v="Deveggdalen" />
		<tag k="natural" v="valley" />
		<tag k="place" v="locality" />
		<tag k="ssr:stedsnr" v="393402" />
	</node>
	<node lat="59.98174090194005" lon="9.03299531194793" id="-18360">
		<tag k="name" v="Viergrønatten" />
		<tag k="natural" v="hill" />
		<tag k="place" v="locality" />
		<tag k="ssr:stedsnr" v="393436" />
	</node>
	<node lat="60.00892499962124" lon="9.145636107997607" id="-18362">
		<tag k="name" v="Hovda" />
		<tag k="natural" v="hill" />
		<tag k="place" v="locality" />
		<tag k="ssr:stedsnr" v="393704" />
	</node>
	<node lat="59.93049721904061" lon="9.347988895496812" id="-18363">
		<tag k="name" v="Kallehølåsen" />
		<tag k="natural" v="ridge" />
		<tag k="place" v="locality" />
		<tag k="ssr:stedsnr" v="393733" />
	</node>
	<node lat="60.00055309277198" lon="9.358021124070696" id="-18364">
		<tag k="name" v="Kvigeberget" />
		<tag k="natural" v="ridge" />
		<tag k="place" v="locality" />
		<tag k="ssr:stedsnr" v="393909" />
	</node>
	<node lat="59.96757777594116" lon="9.314180549106226" id="-18368">
		<tag k="name" v="Skøllhaug" />
		<tag k="natural" v="hill" />
		<tag k="place" v="locality" />
		<tag k="ssr:stedsnr" v="393942" />
	</node>
	<node lat="59.917766664299315" lon="9.239727784659953" id="-18369">
		<tag k="name" v="Bufargrø" />
		<tag k="natural" v="slope" />
		<tag k="place" v="locality" />
		<tag k="ssr:stedsnr" v="393807" />
	</node>
	<node lat="59.9203222234862" lon="9.218694437261332" id="-18370">
		<tag k="name" v="Galdegrø" />
		<tag k="natural" v="slope" />
		<tag k="place" v="locality" />
		<tag k="ssr:stedsnr" v="393809" />
	</node>
	<node lat="59.9461250025051" lon="9.289411115958368" id="-18372">
		<tag k="name" v="Nedre Deileskarvet" />
		<tag k="natural" v="ridge" />
		<tag k="place" v="locality" />
		<tag k="ssr:stedsnr" v="393895" />
	</node>
	<node lat="59.98189722372751" lon="9.043744436073165" id="-18374">
		<tag k="name" v="Viergrødalen" />
		<tag k="natural" v="valley" />
		<tag k="place" v="locality" />
		<tag k="ssr:stedsnr" v="272177" />
	</node>
	<node lat="59.94442500276537" lon="9.406775007108676" id="-18377">
		<tag k="fixme" v="consider natural=peak for the most distinct mountains in the district" />
		<tag k="name" v="Gvitåsen" />
		<tag k="natural" v="hill" />
		<tag k="place" v="locality" />
		<tag k="ssr:stedsnr" v="489135" />
	</node>
	<node lat="59.89454444313591" lon="9.270788893402147" id="-18383">
		<tag k="fixme" v="consider natural=peak for the most distinct mountains in the district" />
		<tag k="name" v="Elgåsen" />
		<tag k="natural" v="hill" />
		<tag k="old_name" v="Elsnut" />
		<tag k="place" v="locality" />
		<tag k="ssr:stedsnr" v="489258" />
	</node>
	<node lat="59.959886114662794" lon="9.395861107016822" id="-18385">
		<tag k="name" v="Fagerli" />
		<tag k="natural" v="slope" />
		<tag k="place" v="locality" />
		<tag k="ssr:stedsnr" v="489374" />
	</node>
	<node lat="60.06526388839569" lon="9.068597223235006" id="-18391">
		<tag k="name" v="Austmannskarven" />
		<tag k="natural" v="hill" />
		<tag k="place" v="locality" />
		<tag k="ssr:stedsnr" v="489685" />
	</node>
	<node lat="60.05252499838146" lon="9.01911667289208" id="-18393">
		<tag k="name" v="Lauvhovdnuten" />
		<tag k="natural" v="hill" />
		<tag k="place" v="locality" />
		<tag k="ssr:stedsnr" v="489670" />
	</node>
	<node lat="60.05659999870636" lon="8.98616388106849" id="-18395">
		<tag k="fixme" v="consider natural=peak for the most distinct mountains in the district" />
		<tag k="name" v="Tjønngrønuten" />
		<tag k="natural" v="hill" />
		<tag k="place" v="locality" />
		<tag k="ssr:stedsnr" v="489675" />
	</node>
	<node lat="60.0361444411588" lon="9.377999994068126" id="-18398">
		<tag k="fixme" v="consider natural=peak for the most distinct mountains in the district" />
		<tag k="name" v="Steinfjellet" />
		<tag k="natural" v="hill" />
		<tag k="place" v="locality" />
		<tag k="ssr:stedsnr" v="490060" />
	</node>
	<node lat="60.0050999972136" lon="9.006250002650093" id="-18400">
		<tag k="name" v="Ljosvasskollen" />
		<tag k="natural" v="hill" />
		<tag k="place" v="locality" />
		<tag k="ssr:stedsnr" v="490267" />
	</node>
	<node lat="59.94746389259661" lon="9.19680833533511" id="-18411">
		<tag k="fixme" v="consider natural=peak for the most distinct mountains in the district" />
		<tag k="name" v="Rjupeåsen" />
		<tag k="natural" v="hill" />
		<tag k="place" v="locality" />
		<tag k="ssr:stedsnr" v="428520" />
	</node>
	<node lat="60.05195833147434" lon="9.308941664896627" id="-18416">
		<tag k="name" v="Kløvdalen" />
		<tag k="natural" v="valley" />
		<tag k="place" v="locality" />
		<tag k="ssr:stedsnr" v="429065" />
	</node>
	<node lat="60.0733916648407" lon="9.092113891287944" id="-18417">
		<tag k="fixme" v="consider natural=peak for the most distinct mountains in the district" />
		<tag k="name" v="Skavlemåsen" />
		<tag k="natural" v="hill" />
		<tag k="place" v="locality" />
		<tag k="ssr:stedsnr" v="490701" />
	</node>
	<node lat="60.09570000161095" lon="9.110700007146743" id="-18418">
		<tag k="name" v="Ørnenatten" />
		<tag k="natural" v="hill" />
		<tag k="place" v="locality" />
		<tag k="ssr:stedsnr" v="490711" />
	</node>
	<node lat="60.01366389175806" lon="9.02754167095605" id="-18421">
		<tag k="fixme" v="consider natural=peak for the most distinct mountains in the district" />
		<tag k="name" v="Trytetjønnfjellet" />
		<tag k="natural" v="hill" />
		<tag k="place" v="locality" />
		<tag k="ssr:stedsnr" v="429307" />
	</node>
	<node lat="59.96935833575698" lon="9.17676943941314" id="-18424">
		<tag k="fixme" v="consider natural=peak for the most distinct mountains in the district" />
		<tag k="name" v="Tvillingnattan" />
		<tag k="natural" v="hill" />
		<tag k="place" v="locality" />
		<tag k="ssr:stedsnr" v="429597" />
	</node>
	<node lat="60.044122221645544" lon="9.018738894619958" id="-18431">
		<tag k="name" v="Lisetnatten" />
		<tag k="natural" v="hill" />
		<tag k="place" v="locality" />
		<tag k="ssr:stedsnr" v="429665" />
	</node>
	<node lat="59.968291663965275" lon="9.167719449269981" id="-18451">
		<tag k="fixme" v="consider natural=peak for the most distinct mountains in the district" />
		<tag k="name" v="Grohølsfjell" />
		<tag k="natural" v="hill" />
		<tag k="place" v="locality" />
		<tag k="ssr:stedsnr" v="671591" />
	</node>
	<node lat="60.02104721812516" lon="9.231369452789837" id="-18459">
		<tag k="fixme" v="consider natural=peak for the most distinct mountains in the district" />
		<tag k="name" v="Høgkleivåsen" />
		<tag k="natural" v="hill" />
		<tag k="place" v="locality" />
		<tag k="ssr:stedsnr" v="453812" />
	</node>
	<node lat="60.050323838442466" lon="9.18493192106603" id="-18467">
		<tag k="name" v="Møllbrekkbakken" />
		<tag k="natural" v="slope" />
		<tag k="place" v="locality" />
		<tag k="ssr:stedsnr" v="454266" />
	</node>
	<node lat="60.09244444661004" lon="9.172711108968038" id="-18469">
		<tag k="name" v="Skriubekkflate" />
		<tag k="place" v="locality" />
		<tag k="ssr:stedsnr" v="454469" />
	</node>
	<node lat="59.91845555966642" lon="9.214483332643464" id="-18474">
		<tag k="name" v="Smørgrø" />
		<tag k="natural" v="slope" />
		<tag k="place" v="locality" />
		<tag k="ssr:stedsnr" v="454814" />
	</node>
	<node lat="59.89358888725491" lon="9.236288892375333" id="-18475">
		<tag k="fixme" v="consider natural=peak for the most distinct mountains in the district" />
		<tag k="name" v="Butjønnhøgde" />
		<tag k="natural" v="hill" />
		<tag k="place" v="locality" />
		<tag k="ssr:stedsnr" v="454816" />
	</node>
	<node lat="59.92561666738794" lon="9.367269445950644" id="-18477">
		<tag k="name" v="Gampedalen" />
		<tag k="natural" v="valley" />
		<tag k="place" v="locality" />
		<tag k="ssr:stedsnr" v="454872" />
	</node>
	<node lat="59.934830557603846" lon="9.359150000530253" id="-18478">
		<tag k="name" v="Robakken" />
		<tag k="natural" v="slope" />
		<tag k="place" v="locality" />
		<tag k="ssr:stedsnr" v="454876" />
	</node>
	<node lat="60.0264638900264" lon="9.168961103020733" id="-18479">
		<tag k="name" v="Håvardshaug" />
		<tag k="natural" v="hill" />
		<tag k="place" v="locality" />
		<tag k="ssr:stedsnr" v="454707" />
	</node>
	<node lat="60.12991666961196" lon="9.197802780702478" id="-18481">
		<tag k="fixme" v="consider natural=peak for the most distinct mountains in the district" />
		<tag k="name" v="Nybuåsen" />
		<tag k="natural" v="hill" />
		<tag k="place" v="locality" />
		<tag k="ssr:stedsnr" v="672465" />
	</node>
	<node lat="60.05496388756315" lon="9.116888886480906" id="-18482">
		<tag k="fixme" v="consider natural=peak for the most distinct mountains in the district" />
		<tag k="name" v="Tårånsonåsen" />
		<tag k="natural" v="hill" />
		<tag k="place" v="locality" />
		<tag k="ssr:stedsnr" v="672607" />
	</node>
	<node lat="60.09100833177589" lon="9.18906666767745" id="-18489">
		<tag k="name" v="Gampedalen" />
		<tag k="natural" v="valley" />
		<tag k="place" v="locality" />
		<tag k="ssr:stedsnr" v="672695" />
	</node>
	<node lat="60.0609000029316" lon="9.126230548183122" id="-18492">
		<tag k="name" v="Helleøye" />
		<tag k="place" v="locality" />
		<tag k="ssr:stedsnr" v="272257" />
	</node>
	<node lat="60.05471388869143" lon="9.11691944708131" id="-18493">
		<tag k="name" v="Bjørnegjengje" />
		<tag k="natural" v="valley" />
		<tag k="place" v="locality" />
		<tag k="ssr:stedsnr" v="272261" />
	</node>
	<node lat="59.92462500256253" lon="9.338147218200467" id="-18512">
		<tag k="name" v="Fangarhaugen" />
		<tag k="natural" v="hill" />
		<tag k="place" v="locality" />
		<tag k="ssr:stedsnr" v="272720" />
	</node>
	<node lat="59.89451944537858" lon="9.236363894352321" id="-18513">
		<tag k="name" v="Butjønnhøgde" />
		<tag k="natural" v="slope" />
		<tag k="place" v="locality" />
		<tag k="ssr:stedsnr" v="272770" />
	</node>
	<node lat="59.90874999748522" lon="9.330169448943712" id="-18514">
		<tag k="name" v="Skarvin" />
		<tag k="natural" v="slope" />
		<tag k="place" v="locality" />
		<tag k="ssr:stedsnr" v="272833" />
	</node>
	<node lat="60.06239444478987" lon="9.25694999684956" id="-18518">
		<tag k="name" v="Kjåhallin" />
		<tag k="natural" v="slope" />
		<tag k="place" v="locality" />
		<tag k="ssr:stedsnr" v="514215" />
	</node>
	<node lat="60.01033610818639" lon="9.361163879971782" id="-18526">
		<tag k="name" v="Saltbrekklie" />
		<tag k="natural" v="slope" />
		<tag k="place" v="locality" />
		<tag k="ssr:stedsnr" v="514319" />
	</node>
	<node lat="60.10621666996612" lon="9.121869448200723" id="-18529">
		<tag k="name" v="Storøye" />
		<tag k="place" v="locality" />
		<tag k="ssr:stedsnr" v="514479" />
	</node>
	<node lat="60.117055559338795" lon="9.166713883414973" id="-18530">
		<tag k="name" v="Nysetli" />
		<tag k="natural" v="slope" />
		<tag k="place" v="locality" />
		<tag k="ssr:stedsnr" v="514507" />
	</node>
	<node lat="60.07079722250747" lon="9.166002775495823" id="-18531">
		<tag k="name" v="Damtjønnhøgde" />
		<tag k="natural" v="hill" />
		<tag k="place" v="locality" />
		<tag k="ssr:stedsnr" v="514516" />
	</node>
	<node lat="60.04123055679711" lon="9.330274992747087" id="-18536">
		<tag k="fixme" v="consider natural=peak for the most distinct mountains in the district" />
		<tag k="name" v="Brenne" />
		<tag k="natural" v="hill" />
		<tag k="place" v="locality" />
		<tag k="ssr:stedsnr" v="514662" />
	</node>
	<node lat="59.99676666936252" lon="9.305194437386396" id="-18540">
		<tag k="name" v="Langkøsdalen" />
		<tag k="natural" v="valley" />
		<tag k="place" v="locality" />
		<tag k="ssr:stedsnr" v="514865" />
	</node>
	<node lat="60.00128611314861" lon="9.207441657762097" id="-18543">
		<tag k="name" v="Svartetjønnhaugen" />
		<tag k="natural" v="ridge" />
		<tag k="place" v="locality" />
		<tag k="ssr:stedsnr" v="514879" />
	</node>
	<node lat="60.041505558217644" lon="9.212166673847701" id="-18544">
		<tag k="name" v="Hallingdokken" />
		<tag k="natural" v="slope" />
		<tag k="place" v="locality" />
		<tag k="ssr:stedsnr" v="514820" />
	</node>
	<node lat="60.00763055307004" lon="9.372575004769624" id="-18545">
		<tag k="name" v="Holmetjønnhaugan" />
		<tag k="natural" v="hill" />
		<tag k="place" v="locality" />
		<tag k="ssr:stedsnr" v="514922" />
	</node>
	<node lat="59.8932416676091" lon="9.215697216726504" id="-18547">
		<tag k="name" v="Linattan" />
		<tag k="natural" v="hill" />
		<tag k="place" v="locality" />
		<tag k="ssr:stedsnr" v="549710" />
	</node>
	<node lat="60.00937777424801" lon="9.348374993955892" id="-18548">
		<tag k="fixme" v="consider natural=peak for the most distinct mountains in the district" />
		<tag k="name" v="Fagerliåsen" />
		<tag k="natural" v="hill" />
		<tag k="place" v="locality" />
		<tag k="ssr:stedsnr" v="550010" />
	</node>
	<node lat="60.04444999940107" lon="9.270650003593815" id="-18550">
		<tag k="fixme" v="consider natural=peak for the most distinct mountains in the district" />
		<tag k="name" v="Storhovd" />
		<tag k="natural" v="hill" />
		<tag k="place" v="locality" />
		<tag k="ssr:stedsnr" v="550068" />
	</node>
	<node lat="60.00408611529411" lon="9.328000008708644" id="-18559">
		<tag k="name" v="Bjørndalsjuvet" />
		<tag k="natural" v="gorge" />
		<tag k="ssr:stedsnr" v="570351" />
	</node>
	<node lat="60.00972777977548" lon="9.427822223409983" id="-18561">
		<tag k="name" v="Lunnan" />
		<tag k="natural" v="slope" />
		<tag k="place" v="locality" />
		<tag k="ssr:stedsnr" v="693546" />
	</node>
	<node lat="60.010258332901394" lon="9.280502770846867" id="-18562">
		<tag k="name" v="Tisle" />
		<tag k="place" v="locality" />
		<tag k="ssr:stedsnr" v="693563" />
	</node>
	<node lat="60.072127774324834" lon="9.25513888489295" id="-18566">
		<tag k="fixme" v="consider natural=peak for the most distinct mountains in the district" />
		<tag k="name" v="Grautenebbåsen" />
		<tag k="natural" v="hill" />
		<tag k="place" v="locality" />
		<tag k="ssr:stedsnr" v="574108" />
	</node>
	<node lat="60.08645555340226" lon="9.202649997144372" id="-18567">
		<tag k="name" v="Krokbekkliene" />
		<tag k="natural" v="slope" />
		<tag k="place" v="locality" />
		<tag k="ssr:stedsnr" v="574111" />
	</node>
	<node lat="59.977194440028384" lon="9.247144438487885" id="-18577">
		<tag k="name" v="Stegaberg" />
		<tag k="natural" v="slope" />
		<tag k="place" v="locality" />
		<tag k="ssr:stedsnr" v="574965" />
	</node>
	<node lat="60.00651666223564" lon="9.246163880252054" id="-18579">
		<tag k="name" v="Flaggåsen" />
		<tag k="natural" v="cliff" />
		<tag k="ssr:stedsnr" v="574996" />
	</node>
	<node lat="60.08215833490764" lon="9.09612777123107" id="-18581">
		<tag k="name" v="Løyteshaugen" />
		<tag k="natural" v="ridge" />
		<tag k="place" v="locality" />
		<tag k="ssr:stedsnr" v="575462" />
	</node>
	<node lat="59.94198055866311" lon="9.33023333945227" id="-18582">
		<tag k="name" v="Jote" />
		<tag k="natural" v="valley" />
		<tag k="place" v="locality" />
		<tag k="ssr:stedsnr" v="575753" />
	</node>
	<node lat="59.943725000123415" lon="9.337099994646135" id="-18583">
		<tag k="name" v="Jenteåsen" />
		<tag k="natural" v="hill" />
		<tag k="place" v="locality" />
		<tag k="ssr:stedsnr" v="575756" />
	</node>
	<node lat="59.922388890947765" lon="9.28291944595121" id="-18584">
		<tag k="fixme" v="consider natural=peak for the most distinct mountains in the district" />
		<tag k="name" v="Langåsen" />
		<tag k="natural" v="hill" />
		<tag k="place" v="locality" />
		<tag k="ssr:stedsnr" v="575757" />
	</node>
	<node lat="59.993772218406505" lon="9.308747218187824" id="-18588">
		<tag k="name" v="Narvekøsåsen" />
		<tag k="natural" v="ridge" />
		<tag k="place" v="locality" />
		<tag k="ssr:stedsnr" v="575864" />
	</node>
	<node lat="60.05361944036122" lon="9.2028999960143" id="-18590">
		<tag k="fixme" v="consider natural=peak for the most distinct mountains in the district" />
		<tag k="name" v="Haukereiråsen" />
		<tag k="natural" v="hill" />
		<tag k="place" v="locality" />
		<tag k="ssr:stedsnr" v="696151" />
	</node>
	<node lat="60.052208333053954" lon="9.266358337213195" id="-18591">
		<tag k="name" v="Djupedalen" />
		<tag k="natural" v="valley" />
		<tag k="place" v="locality" />
		<tag k="ssr:stedsnr" v="696193" />
	</node>
	<node lat="60.062972220600464" lon="9.264597216147592" id="-18592">
		<tag k="name" v="Konnulihøgde" />
		<tag k="natural" v="ridge" />
		<tag k="place" v="locality" />
		<tag k="ssr:stedsnr" v="696197" />
	</node>
	<node lat="59.98017778102977" lon="9.07739166371468" id="-18597">
		<tag k="name" v="Devegghaugen" />
		<tag k="natural" v="hill" />
		<tag k="place" v="locality" />
		<tag k="ssr:stedsnr" v="696557" />
	</node>
	<node lat="59.93504722487085" lon="9.326905547072174" id="-18600">
		<tag k="name" v="Grindehaugen" />
		<tag k="natural" v="hill" />
		<tag k="place" v="locality" />
		<tag k="ssr:stedsnr" v="696760" />
	</node>
	<node lat="60.019658330682134" lon="9.229397216684243" id="-18602">
		<tag k="name" v="Grafsdalen" />
		<tag k="natural" v="valley" />
		<tag k="place" v="locality" />
		<tag k="ssr:stedsnr" v="696787" />
	</node>
	<node lat="59.9235250040377" lon="9.275852778212341" id="-18604">
		<tag k="name" v="Raustein" />
		<tag k="natural" v="hill" />
		<tag k="place" v="locality" />
		<tag k="ssr:stedsnr" v="696789" />
	</node>
	<node lat="59.95410000440578" lon="9.305841669682374" id="-18605">
		<tag k="name" v="Nørsteberg" />
		<tag k="natural" v="hill" />
		<tag k="place" v="locality" />
		<tag k="ssr:stedsnr" v="696790" />
	</node>
	<node lat="59.94967777609344" lon="9.292386105477403" id="-18610">
		<tag k="name" v="Granli" />
		<tag k="natural" v="slope" />
		<tag k="place" v="locality" />
		<tag k="ssr:stedsnr" v="696836" />
	</node>
	<node lat="59.976197222084316" lon="9.328947228190572" id="-18615">
		<tag k="fixme" v="consider natural=peak for the most distinct mountains in the district" />
		<tag k="name" v="Skarvin" />
		<tag k="natural" v="hill" />
		<tag k="place" v="locality" />
		<tag k="ssr:stedsnr" v="696949" />
	</node>
	<node lat="59.967013890451696" lon="9.333950000156104" id="-18616">
		<tag k="name" v="Erik Personberget" />
		<tag k="natural" v="hill" />
		<tag k="place" v="locality" />
		<tag k="ssr:stedsnr" v="696950" />
	</node>
	<node lat="59.96324166292508" lon="9.340844442612335" id="-18617">
		<tag k="fixme" v="consider natural=peak for the most distinct mountains in the district" />
		<tag k="name" v="Raunedalsskarvet" />
		<tag k="natural" v="hill" />
		<tag k="place" v="locality" />
		<tag k="ssr:stedsnr" v="696952" />
	</node>
	<node lat="59.99966944479667" lon="9.389169453208659" id="-18619">
		<tag k="name" v="Nysethaugan" />
		<tag k="natural" v="hill" />
		<tag k="place" v="locality" />
		<tag k="ssr:stedsnr" v="696987" />
	</node>
	<node lat="59.92093888804314" lon="9.363627769012815" id="-18640">
		<tag k="name" v="Tjønnåsen" />
		<tag k="natural" v="hill" />
		<tag k="place" v="locality" />
		<tag k="ssr:stedsnr" v="632508" />
	</node>
	<node lat="60.05545555248873" lon="9.24491943806986" id="-18641">
		<tag k="name" v="Rådyrholtet" />
		<tag k="natural" v="valley" />
		<tag k="place" v="locality" />
		<tag k="ssr:stedsnr" v="635132" />
	</node>
	<node lat="60.023705555116614" lon="9.242249994700872" id="-18642">
		<tag k="name" v="Kattekleivberget" />
		<tag k="natural" v="ridge" />
		<tag k="place" v="locality" />
		<tag k="ssr:stedsnr" v="635225" />
	</node>
	<node lat="60.04453055667211" lon="9.225147218952461" id="-18643">
		<tag k="name" v="Gylvikskørre" />
		<tag k="natural" v="valley" />
		<tag k="place" v="locality" />
		<tag k="ssr:stedsnr" v="635234" />
	</node>
	<node lat="60.01224444302888" lon="9.047447224212135" id="-18644">
		<tag k="name" v="Nordre Svarteløkfjell" />
		<tag k="natural" v="hill" />
		<tag k="place" v="locality" />
		<tag k="ssr:stedsnr" v="635442" />
	</node>
	<node lat="60.011619446291704" lon="9.05178888990204" id="-18645">
		<tag k="name" v="Bråtålihaugen" />
		<tag k="natural" v="ridge" />
		<tag k="place" v="locality" />
		<tag k="ssr:stedsnr" v="635443" />
	</node>
	<node lat="60.0615583371829" lon="9.261166672870765" id="-18646">
		<tag k="name" v="Hestefarberget" />
		<tag k="natural" v="hill" />
		<tag k="place" v="locality" />
		<tag k="ssr:stedsnr" v="635175" />
	</node>
	<node lat="60.09823888537095" lon="9.18070556102496" id="-18649">
		<tag k="name" v="Gunnarshølet" />
		<tag k="natural" v="valley" />
		<tag k="place" v="locality" />
		<tag k="ssr:stedsnr" v="635503" />
	</node>
	<node lat="60.03512777718726" lon="9.132744439630233" id="-18651">
		<tag k="name" v="Trompedalen" />
		<tag k="natural" v="valley" />
		<tag k="place" v="locality" />
		<tag k="ssr:stedsnr" v="635629" />
	</node>
	<node lat="59.94240000130928" lon="9.260055564083244" id="-18652">
		<tag k="name" v="Svartli" />
		<tag k="natural" v="slope" />
		<tag k="place" v="locality" />
		<tag k="ssr:stedsnr" v="635804" />
	</node>
	<node lat="60.01576944332298" lon="9.146688880138177" id="-18655">
		<tag k="name" v="Kyralberget" />
		<tag k="natural" v="ridge" />
		<tag k="place" v="locality" />
		<tag k="ssr:stedsnr" v="635718" />
	</node>
	<node lat="60.00611944750759" lon="9.225719447767533" id="-18658">
		<tag k="name" v="Nysetlie" />
		<tag k="natural" v="slope" />
		<tag k="place" v="locality" />
		<tag k="ssr:stedsnr" v="635785" />
	</node>
	<node lat="60.01131389015518" lon="9.235747223973178" id="-18660">
		<tag k="name" v="Løsningen" />
		<tag k="natural" v="slope" />
		<tag k="place" v="locality" />
		<tag k="ssr:stedsnr" v="635792" />
	</node>
	<node lat="60.12112777843496" lon="9.15593055505775" id="-18673">
		<tag k="name" v="Raudhaug" />
		<tag k="natural" v="hill" />
		<tag k="place" v="locality" />
		<tag k="ssr:stedsnr" v="671548" />
	</node>
	<node lat="59.96855833220561" lon="9.182730558332585" id="-18674">
		<tag k="fixme" v="consider natural=peak for the most distinct mountains in the district" />
		<tag k="name" v="Iglenatten" />
		<tag k="natural" v="hill" />
		<tag k="place" v="locality" />
		<tag k="ssr:stedsnr" v="671611" />
	</node>
	<node lat="59.96957499948924" lon="9.154802781250734" id="-18675">
		<tag k="name" v="Stakkeli" />
		<tag k="natural" v="slope" />
		<tag k="place" v="locality" />
		<tag k="ssr:stedsnr" v="671615" />
	</node>
	<node lat="60.048783335414264" lon="9.299699998214741" id="-18681">
		<tag k="fixme" v="consider natural=peak for the most distinct mountains in the district" />
		<tag k="name" v="Bjørnhølfjellet" />
		<tag k="natural" v="hill" />
		<tag k="place" v="locality" />
		<tag k="ssr:stedsnr" v="672070" />
	</node>
	<node lat="60.03984166583073" lon="9.043736112180685" id="-18686">
		<tag k="name" v="Elehovda" />
		<tag k="natural" v="hill" />
		<tag k="place" v="locality" />
		<tag k="ssr:stedsnr" v="672318" />
	</node>
	<node lat="59.885105557734384" lon="9.205011110169002" id="-18695">
		<tag k="name" v="Pikern" />
		<tag k="natural" v="hill" />
		<tag k="place" v="locality" />
		<tag k="ssr:stedsnr" v="696181" />
	</node>
	<node lat="60.04758055617595" lon="9.135466658643425" id="-18699">
		<tag k="name" v="Tveithallin" />
		<tag k="natural" v="slope" />
		<tag k="place" v="locality" />
		<tag k="ssr:stedsnr" v="696323" />
	</node>
	<node lat="60.138144446611086" lon="9.213122223457178" id="-18700">
		<tag k="name" v="Blåtjønndalen" />
		<tag k="natural" v="valley" />
		<tag k="place" v="locality" />
		<tag k="ssr:stedsnr" v="696269" />
	</node>
	<node lat="60.063941665811086" lon="9.110013895688187" id="-18701">
		<tag k="name" v="Kvasshaug" />
		<tag k="natural" v="hill" />
		<tag k="place" v="locality" />
		<tag k="ssr:stedsnr" v="696272" />
	</node>
	<node lat="60.009697223022876" lon="9.052288885139387" id="-18702">
		<tag k="name" v="Svarteløklie" />
		<tag k="natural" v="slope" />
		<tag k="place" v="locality" />
		<tag k="ssr:stedsnr" v="696419" />
	</node>
	<node lat="60.127536111091956" lon="9.156436113239753" id="-18703">
		<tag k="name" v="Elghølet" />
		<tag k="natural" v="valley" />
		<tag k="place" v="locality" />
		<tag k="ssr:stedsnr" v="696484" />
	</node>
	<node lat="59.99914999985355" lon="9.261027785069743" id="-18705">
		<tag k="fixme" v="consider natural=peak for the most distinct mountains in the district" />
		<tag k="name" v="Ulstadåsen" />
		<tag k="natural" v="hill" />
		<tag k="place" v="locality" />
		<tag k="ssr:stedsnr" v="696536" />
	</node>
	<node lat="60.01800833145185" lon="9.406669449215133" id="-18706">
		<tag k="name" v="Høyenhaug" />
		<tag k="natural" v="hill" />
		<tag k="place" v="locality" />
		<tag k="ssr:stedsnr" v="696721" />
	</node>
	<node lat="59.952313889183856" lon="9.337327773906008" id="-18707">
		<tag k="name" v="Gygrestigen" />
		<tag k="natural" v="slope" />
		<tag k="place" v="locality" />
		<tag k="ssr:stedsnr" v="696803" />
	</node>
	<node lat="60.007100002083675" lon="9.23497500104537" id="-18709">
		<tag k="name" v="Trollumjuvet" />
		<tag k="natural" v="gorge" />
		<tag k="ssr:stedsnr" v="696810" />
	</node>
	<node lat="60.00952500411152" lon="9.2420472270909" id="-18710">
		<tag k="name" v="Rennebakken" />
		<tag k="natural" v="slope" />
		<tag k="place" v="locality" />
		<tag k="ssr:stedsnr" v="696812" />
	</node>
	<node lat="59.91638055822881" lon="9.34118333017649" id="-18713">
		<tag k="name" v="Kvernhaugen" />
		<tag k="natural" v="hill" />
		<tag k="place" v="locality" />
		<tag k="ssr:stedsnr" v="696883" />
	</node>
	<node lat="59.9380444468717" lon="9.397616669913985" id="-18716">
		<tag k="name" v="Bamsåsen" />
		<tag k="natural" v="ridge" />
		<tag k="place" v="locality" />
		<tag k="ssr:stedsnr" v="696771" />
	</node>
	<node lat="59.93884722482283" lon="9.331594436456736" id="-18717">
		<tag k="fixme" v="consider natural=peak for the most distinct mountains in the district" />
		<tag k="name" v="Høgåsen" />
		<tag k="natural" v="hill" />
		<tag k="place" v="locality" />
		<tag k="ssr:stedsnr" v="696784" />
	</node>
	<node lat="59.98103333119507" lon="9.316438893346607" id="-18719">
		<tag k="name" v="Ålbågan" />
		<tag k="place" v="locality" />
		<tag k="ssr:stedsnr" v="696909" />
	</node>
	<node lat="59.928530559690316" lon="9.308041658187086" id="-18725">
		<tag k="name" v="Gøyvetunkollen" />
		<tag k="natural" v="hill" />
		<tag k="place" v="locality" />
		<tag k="ssr:stedsnr" v="732200" />
	</node>
	<node lat="60.02642500358375" lon="9.09950277421562" id="-18726">
		<tag k="name" v="Juvet" />
		<tag k="natural" v="valley" />
		<tag k="place" v="locality" />
		<tag k="ssr:stedsnr" v="732364" />
	</node>
	<node lat="60.14534999573816" lon="8.955925005716564" id="-18728">
		<tag k="alt_name" v="Skirvdalen" />
		<tag k="name" v="Skirvedalen" />
		<tag k="natural" v="valley" />
		<tag k="place" v="locality" />
		<tag k="ssr:stedsnr" v="732372" />
	</node>
	<node lat="60.01487500172407" lon="9.00139166503446" id="-18736">
		<tag k="fixme" v="consider natural=peak for the most distinct mountains in the district" />
		<tag k="name" v="Slettefjell" />
		<tag k="natural" v="hill" />
		<tag k="place" v="locality" />
		<tag k="ssr:stedsnr" v="733298" />
	</node>
	<node lat="60.01950277595506" lon="9.01140277559936" id="-18737">
		<tag k="name" v="Storhaug" />
		<tag k="natural" v="hill" />
		<tag k="place" v="locality" />
		<tag k="ssr:stedsnr" v="733299" />
	</node>
	<node lat="60.005191669528735" lon="9.323711107321625" id="-18740">
		<tag k="name" v="Slokodalen" />
		<tag k="natural" v="valley" />
		<tag k="place" v="locality" />
		<tag k="ssr:stedsnr" v="756756" />
	</node>
	<node lat="60.03641944362974" lon="8.999913885264336" id="-18745">
		<tag k="name" v="Deveggkista" />
		<tag k="natural" v="hill" />
		<tag k="place" v="locality" />
		<tag k="ssr:stedsnr" v="757120" />
	</node>
	<node lat="60.12041666556252" lon="9.145944441091295" id="-18749">
		<tag k="name" v="Markasetli" />
		<tag k="natural" v="slope" />
		<tag k="place" v="locality" />
		<tag k="ssr:stedsnr" v="757449" />
	</node>
	<node lat="60.019366668636145" lon="9.37195556255926" id="-18753">
		<tag k="name" v="Skåpet" />
		<tag k="place" v="locality" />
		<tag k="ssr:stedsnr" v="757695" />
	</node>
	<node lat="59.9131805533119" lon="9.306555551896917" id="-18754">
		<tag k="name" v="Bjørnåtedalen" />
		<tag k="natural" v="valley" />
		<tag k="place" v="locality" />
		<tag k="ssr:stedsnr" v="757850" />
	</node>
	<node lat="59.886938892245894" lon="9.232991665394678" id="-18756">
		<tag k="fixme" v="consider natural=peak for the most distinct mountains in the district" />
		<tag k="name" v="Kroktjønnhøgde" />
		<tag k="natural" v="hill" />
		<tag k="place" v="locality" />
		<tag k="ssr:stedsnr" v="757745" />
	</node>
	<node lat="59.94921388776332" lon="9.320202777142665" id="-18757">
		<tag k="name" v="Tuftin" />
		<tag k="natural" v="hill" />
		<tag k="place" v="locality" />
		<tag k="ssr:stedsnr" v="757749" />
	</node>
	<node lat="60.025733332246155" lon="9.366566662539793" id="-18759">
		<tag k="name" v="Veslehovda" />
		<tag k="natural" v="hill" />
		<tag k="place" v="locality" />
		<tag k="ssr:stedsnr" v="757930" />
	</node>
	<node lat="59.96203333298333" lon="9.325144449702382" id="-18762">
		<tag k="name" v="Høghaugen" />
		<tag k="natural" v="hill" />
		<tag k="place" v="locality" />
		<tag k="ssr:stedsnr" v="757961" />
	</node>
	<node lat="59.974330551326226" lon="9.223555549175257" id="-18763">
		<tag k="fixme" v="consider natural=peak for the most distinct mountains in the district" />
		<tag k="name" v="Trihynnefjellet" />
		<tag k="natural" v="hill" />
		<tag k="place" v="locality" />
		<tag k="ssr:stedsnr" v="792287" />
	</node>
	<node lat="60.00208889115274" lon="9.358247227151645" id="-18764">
		<tag k="fixme" v="consider natural=peak for the most distinct mountains in the district" />
		<tag k="name" v="Bufjellnatten" />
		<tag k="natural" v="hill" />
		<tag k="place" v="locality" />
		<tag k="ssr:stedsnr" v="793008" />
	</node>
	<node lat="59.97975833738845" lon="9.092741671924696" id="-18788">
		<tag k="fixme" v="consider natural=peak for the most distinct mountains in the district" />
		<tag k="name" v="Myrefjell" />
		<tag k="natural" v="hill" />
		<tag k="place" v="locality" />
		<tag k="ssr:stedsnr" v="914898" />
	</node>
	<node lat="60.033230557846984" lon="9.36438055564251" id="-18792">
		<tag k="name" v="Minneskleivnuten" />
		<tag k="natural" v="hill" />
		<tag k="place" v="locality" />
		<tag k="ssr:stedsnr" v="915053" />
	</node>
	<node lat="60.13526666554714" lon="9.210350002655789" id="-18795">
		<tag k="fixme" v="consider natural=peak for the most distinct mountains in the district" />
		<tag k="name" v="Vardeåsen" />
		<tag k="natural" v="hill" />
		<tag k="place" v="locality" />
		<tag k="ssr:stedsnr" v="915483" />
	</node>
	<node lat="60.02544444367357" lon="9.235730548717944" id="-18800">
		<tag k="name" v="Fetjankleive" />
		<tag k="natural" v="cliff" />
		<tag k="ssr:stedsnr" v="818205" />
	</node>
	<node lat="59.97960555597741" lon="9.377349992695498" id="-18803">
		<tag k="name" v="Baksælabakken" />
		<tag k="natural" v="slope" />
		<tag k="place" v="locality" />
		<tag k="ssr:stedsnr" v="818988" />
	</node>
	<node lat="59.972433334869976" lon="9.385211119134354" id="-18811">
		<tag k="fixme" v="consider natural=peak for the most distinct mountains in the district" />
		<tag k="name" v="Fagerbuåsen" />
		<tag k="natural" v="hill" />
		<tag k="place" v="locality" />
		<tag k="ssr:stedsnr" v="853303" />
	</node>
	<node lat="59.99533333621223" lon="9.365166672509414" id="-18812">
		<tag k="fixme" v="consider natural=peak for the most distinct mountains in the district" />
		<tag k="name" v="Svartetjønnåsen" />
		<tag k="natural" v="hill" />
		<tag k="place" v="locality" />
		<tag k="ssr:stedsnr" v="853220" />
	</node>
	<node lat="59.993636109250815" lon="9.385152777978032" id="-18813">
		<tag k="name" v="Oksle" />
		<tag k="natural" v="hill" />
		<tag k="place" v="locality" />
		<tag k="ssr:stedsnr" v="853221" />
	</node>
	<node lat="59.97975833241925" lon="9.206855550048008" id="-18816">
		<tag k="fixme" v="consider natural=peak for the most distinct mountains in the district" />
		<tag k="name" v="Dalfjellet" />
		<tag k="natural" v="hill" />
		<tag k="place" v="locality" />
		<tag k="ssr:stedsnr" v="853913" />
	</node>
	<node lat="60.086716667717766" lon="9.218380560623478" id="-18832">
		<tag k="name" v="Ostebrekka" />
		<tag k="natural" v="slope" />
		<tag k="place" v="locality" />
		<tag k="ssr:stedsnr" v="878121" />
	</node>
	<node lat="60.02611388868253" lon="9.23174722909228" id="-18836">
		<tag k="name" v="Skrivarkleive" />
		<tag k="natural" v="cliff" />
		<tag k="ssr:stedsnr" v="878250" />
	</node>
	<node lat="60.04389999740053" lon="9.234158331816857" id="-18838">
		<tag k="name" v="Gylvikhaugen" />
		<tag k="natural" v="hill" />
		<tag k="place" v="locality" />
		<tag k="ssr:stedsnr" v="878264" />
	</node>
	<node lat="60.07316111056075" lon="9.18813333817674" id="-18839">
		<tag k="name" v="Storli" />
		<tag k="natural" v="slope" />
		<tag k="place" v="locality" />
		<tag k="ssr:stedsnr" v="878556" />
	</node>
	<node lat="59.946530560032926" lon="9.251538880620993" id="-18852">
		<tag k="name" v="Brødruva" />
		<tag k="natural" v="hill" />
		<tag k="place" v="locality" />
		<tag k="ssr:stedsnr" v="878853" />
	</node>
	<node lat="60.072069443058204" lon="9.316836108650598" id="-18854">
		<tag k="name" v="Ristjønndalen" />
		<tag k="natural" v="valley" />
		<tag k="place" v="locality" />
		<tag k="ssr:stedsnr" v="879560" />
	</node>
	<node lat="59.9061805590861" lon="9.248697217655156" id="-18862">
		<tag k="name" v="Haugskollen" />
		<tag k="natural" v="hill" />
		<tag k="place" v="locality" />
		<tag k="ssr:stedsnr" v="914234" />
	</node>
	<node lat="59.99723333540101" lon="9.045891660274338" id="-18866">
		<tag k="fixme" v="consider natural=peak for the most distinct mountains in the district" />
		<tag k="name" v="Grånatten" />
		<tag k="natural" v="hill" />
		<tag k="place" v="locality" />
		<tag k="ssr:stedsnr" v="914912" />
	</node>
	<node lat="60.04453611003415" lon="9.356227786289073" id="-18868">
		<tag k="fixme" v="consider natural=peak for the most distinct mountains in the district" />
		<tag k="name" v="Langseterfjellet" />
		<tag k="natural" v="hill" />
		<tag k="place" v="locality" />
		<tag k="ssr:stedsnr" v="915072" />
	</node>
	<node lat="60.05640277696969" lon="9.234047213892286" id="-18878">
		<tag k="name" v="Gampeskørre" />
		<tag k="natural" v="valley" />
		<tag k="place" v="locality" />
		<tag k="ssr:stedsnr" v="939140" />
	</node>
	<node lat="60.08243333256153" lon="9.131186117770497" id="-18884">
		<tag k="name" v="Rabberud" />
		<tag k="natural" v="hill" />
		<tag k="place" v="locality" />
		<tag k="ssr:stedsnr" v="939505" />
	</node>
	<node lat="60.071986107757006" lon="9.104763894604572" id="-18885">
		<tag k="name" v="Kjerrelie" />
		<tag k="natural" v="slope" />
		<tag k="place" v="locality" />
		<tag k="ssr:stedsnr" v="939506" />
	</node>
	<node lat="59.99491944815229" lon="9.272225001888938" id="-18887">
		<tag k="name" v="Haugen" />
		<tag k="natural" v="hill" />
		<tag k="place" v="locality" />
		<tag k="ssr:stedsnr" v="939585" />
	</node>
	<node lat="59.996051973193275" lon="9.079752233962305" id="-18888">
		<tag k="name" v="Smylehaugtjønn" />
		<tag k="natural" v="hill" />
		<tag k="place" v="locality" />
		<tag k="ssr:stedsnr" v="939738" />
	</node>
	<node lat="60.00948888652433" lon="9.237616663386992" id="-18889">
		<tag k="name" v="Rennun" />
		<tag k="natural" v="slope" />
		<tag k="place" v="locality" />
		<tag k="ssr:stedsnr" v="939810" />
	</node>
	<node lat="59.98563610976492" lon="9.34947499522661" id="-18893">
		<tag k="name" v="Glanarberget" />
		<tag k="natural" v="ridge" />
		<tag k="place" v="locality" />
		<tag k="ssr:stedsnr" v="939903" />
	</node>
	<node lat="60.01514999596791" lon="9.246530555054367" id="-18896">
		<tag k="name" v="Holmanskarvet" />
		<tag k="natural" v="slope" />
		<tag k="place" v="locality" />
		<tag k="ssr:stedsnr" v="939989" />
	</node>
	<node lat="60.01344166314783" lon="9.261925001432521" id="-18897">
		<tag k="name" v="Pukksteinhaugen" />
		<tag k="natural" v="hill" />
		<tag k="place" v="locality" />
		<tag k="ssr:stedsnr" v="939990" />
	</node>
	<node lat="59.97949999651171" lon="9.256894452250107" id="-18908">
		<tag k="name" v="Bratteberg" />
		<tag k="natural" v="slope" />
		<tag k="place" v="locality" />
		<tag k="ssr:stedsnr" v="3259" />
	</node>
	<node lat="60.03930833044154" lon="9.275041662121318" id="-18909">
		<tag k="fixme" v="consider natural=peak for the most distinct mountains in the district" />
		<tag k="name" v="Trollhovdåsen" />
		<tag k="natural" v="hill" />
		<tag k="place" v="locality" />
		<tag k="ssr:stedsnr" v="4063" />
	</node>
	<node lat="59.93478333332653" lon="9.236688889775031" id="-18912">
		<tag k="name" v="Nybuhaugen" />
		<tag k="natural" v="hill" />
		<tag k="place" v="locality" />
		<tag k="ssr:stedsnr" v="4142" />
	</node>
	<node lat="60.06363888750861" lon="9.187675002911753" id="-18913">
		<tag k="name" v="Raunesethøgde" />
		<tag k="natural" v="hill" />
		<tag k="place" v="locality" />
		<tag k="ssr:stedsnr" v="4629" />
	</node>
	<node lat="60.01844166644274" lon="9.21715277368501" id="-18914">
		<tag k="name" v="Tutarberget" />
		<tag k="natural" v="hill" />
		<tag k="place" v="locality" />
		<tag k="ssr:stedsnr" v="4326" />
	</node>
	<node lat="59.96821111470034" lon="9.128886108695408" id="-18922">
		<tag k="name" v="Skjerbrekkdalen" />
		<tag k="natural" v="valley" />
		<tag k="place" v="locality" />
		<tag k="ssr:stedsnr" v="4594" />
	</node>
	<node lat="60.09622777844989" lon="9.155725000097465" id="-18929">
		<tag k="fixme" v="consider natural=peak for the most distinct mountains in the district" />
		<tag k="name" v="Ormåsen" />
		<tag k="natural" v="hill" />
		<tag k="place" v="locality" />
		<tag k="ssr:stedsnr" v="4721" />
	</node>
	<node lat="59.98388888907695" lon="9.056124997781087" id="-18931">
		<tag k="fixme" v="consider natural=peak for the most distinct mountains in the district" />
		<tag k="name" v="Skomakarnatten" />
		<tag k="natural" v="hill" />
		<tag k="place" v="locality" />
		<tag k="ssr:stedsnr" v="4893" />
	</node>
	<node lat="60.004022219418715" lon="9.099550004153457" id="-18935">
		<tag k="name" v="Kloppåsen" />
		<tag k="natural" v="hill" />
		<tag k="place" v="locality" />
		<tag k="ssr:stedsnr" v="24353" />
	</node>
	<node lat="60.054149997751416" lon="9.242552775744908" id="-18937">
		<tag k="fixme" v="consider natural=peak for the most distinct mountains in the district" />
		<tag k="name" v="Tørrfuruåsen" />
		<tag k="natural" v="hill" />
		<tag k="place" v="locality" />
		<tag k="ssr:stedsnr" v="28153" />
	</node>
	<node lat="60.050366662959235" lon="9.251322222797885" id="-18938">
		<tag k="fixme" v="consider natural=peak for the most distinct mountains in the district" />
		<tag k="name" v="Tørrfuruåsen" />
		<tag k="natural" v="hill" />
		<tag k="place" v="locality" />
		<tag k="ssr:stedsnr" v="28197" />
	</node>
	<node lat="60.097774998310626" lon="9.272458333403366" id="-18939">
		<tag k="name" v="Dyrenattane" />
		<tag k="natural" v="hill" />
		<tag k="place" v="locality" />
		<tag k="ssr:stedsnr" v="28395" />
	</node>
	<node lat="60.07479444583658" lon="8.991122216710812" id="-18941">
		<tag k="fixme" v="consider natural=peak for the most distinct mountains in the district" />
		<tag k="name" v="Rustfjell" />
		<tag k="natural" v="hill" />
		<tag k="place" v="locality" />
		<tag k="ssr:stedsnr" v="28556" />
	</node>
	<node lat="60.051972221571056" lon="9.36770278475182" id="-18943">
		<tag k="name" v="Tråtjønnlie" />
		<tag k="natural" v="slope" />
		<tag k="place" v="locality" />
		<tag k="ssr:stedsnr" v="28658" />
	</node>
	<node lat="60.060641668602955" lon="9.338313891204594" id="-18946">
		<tag k="fixme" v="consider natural=peak for the most distinct mountains in the district" />
		<tag k="name" v="Øytjønnfjellet" />
		<tag k="natural" v="hill" />
		<tag k="place" v="locality" />
		<tag k="ssr:stedsnr" v="29598" />
	</node>
	<node lat="60.055797220235476" lon="9.076713891738237" id="-18947">
		<tag k="name" v="Kortedokkhøgde" />
		<tag k="natural" v="hill" />
		<tag k="place" v="locality" />
		<tag k="ssr:stedsnr" v="29287" />
	</node>
	<node lat="59.90053827125277" lon="9.182908097551605" id="-18950">
		<tag k="name" v="Fjelldalen" />
		<tag k="natural" v="valley" />
		<tag k="place" v="locality" />
		<tag k="ssr:stedsnr" v="29632" />
	</node>
	<node lat="60.03290000360091" lon="9.152158334588304" id="-18951">
		<tag k="name" v="Bakkan" />
		<tag k="natural" v="slope" />
		<tag k="place" v="locality" />
		<tag k="ssr:stedsnr" v="29645" />
	</node>
	<node lat="60.03504166305151" lon="9.138788897188768" id="-18952">
		<tag k="name" v="Kjørkjebrua" />
		<tag k="place" v="locality" />
		<tag k="ssr:stedsnr" v="29652" />
	</node>
	<node lat="60.03681944403343" lon="9.143422221792653" id="-18953">
		<tag k="name" v="Steinbru" />
		<tag k="place" v="locality" />
		<tag k="ssr:stedsnr" v="29657" />
	</node>
	<node lat="59.92374444318908" lon="9.279291674911502" id="-18960">
		<tag k="name" v="Rausteindalen" />
		<tag k="natural" v="valley" />
		<tag k="place" v="locality" />
		<tag k="ssr:stedsnr" v="29790" />
	</node>
	<node lat="59.964827781874966" lon="9.269991672080383" id="-18964">
		<tag k="name" v="Tambaklia" />
		<tag k="natural" v="slope" />
		<tag k="place" v="locality" />
		<tag k="ssr:stedsnr" v="29956" />
	</node>
	<node lat="60.008094441031474" lon="9.260438895257781" id="-18965">
		<tag k="name" v="Hølet" />
		<tag k="natural" v="valley" />
		<tag k="place" v="locality" />
		<tag k="ssr:stedsnr" v="29991" />
	</node>
	<node lat="59.990663888081585" lon="9.230241660589042" id="-18969">
		<tag k="fixme" v="consider natural=peak for the most distinct mountains in the district" />
		<tag k="name" v="Flatåsen" />
		<tag k="natural" v="hill" />
		<tag k="place" v="locality" />
		<tag k="ssr:stedsnr" v="64251" />
	</node>
	<node lat="59.94565278184498" lon="9.25786944656132" id="-18977">
		<tag k="name" v="Svartlibrottet" />
		<tag k="natural" v="hill" />
		<tag k="place" v="locality" />
		<tag k="ssr:stedsnr" v="65132" />
	</node>
	<node lat="59.95599722066702" lon="9.120030547866763" id="-18983">
		<tag k="fixme" v="consider natural=peak for the most distinct mountains in the district" />
		<tag k="name" v="Velebufjellet" />
		<tag k="natural" v="hill" />
		<tag k="place" v="locality" />
		<tag k="ssr:stedsnr" v="65569" />
	</node>
	<node lat="60.05124166234797" lon="9.183277781170075" id="-18986">
		<tag k="fixme" v="consider natural=peak for the most distinct mountains in the district" />
		<tag k="name" v="Møllbrekkåsen" />
		<tag k="natural" v="hill" />
		<tag k="place" v="locality" />
		<tag k="ssr:stedsnr" v="65669" />
	</node>
	<node lat="60.086291662490034" lon="9.182175004377127" id="-18989">
		<tag k="fixme" v="consider natural=peak for the most distinct mountains in the district" />
		<tag k="name" v="Slåttemyråsen" />
		<tag k="natural" v="hill" />
		<tag k="place" v="locality" />
		<tag k="ssr:stedsnr" v="65691" />
	</node>
	<node lat="59.99748611508096" lon="9.19636667305586" id="-18992">
		<tag k="fixme" v="consider natural=peak for the most distinct mountains in the district" />
		<tag k="name" v="Saunatten" />
		<tag k="natural" v="hill" />
		<tag k="place" v="locality" />
		<tag k="ssr:stedsnr" v="65946" />
	</node>
	<node lat="60.06350000195127" lon="9.191400004679664" id="-18998">
		<tag k="name" v="Morsdalen" />
		<tag k="natural" v="valley" />
		<tag k="place" v="locality" />
		<tag k="ssr:stedsnr" v="89175" />
	</node>
	<node lat="60.04796389099951" lon="9.287638882574608" id="-18999">
		<tag k="name" v="Pipetjønndalen" />
		<tag k="natural" v="valley" />
		<tag k="place" v="locality" />
		<tag k="ssr:stedsnr" v="89192" />
	</node>
	<node lat="60.05474444702883" lon="9.25059167093084" id="-19000">
		<tag k="fixme" v="consider natural=peak for the most distinct mountains in the district" />
		<tag k="name" v="Gjenstigåsen" />
		<tag k="natural" v="hill" />
		<tag k="place" v="locality" />
		<tag k="ssr:stedsnr" v="89201" />
	</node>
	<node lat="59.99487777523574" lon="9.259319451303579" id="-19004">
		<tag k="name" v="Tømmerskørr" />
		<tag k="natural" v="valley" />
		<tag k="place" v="locality" />
		<tag k="ssr:stedsnr" v="89541" />
	</node>
	<node lat="59.98741110717228" lon="9.260630558979187" id="-19006">
		<tag k="name" v="Svarthøl" />
		<tag k="place" v="locality" />
		<tag k="ssr:stedsnr" v="89550" />
	</node>
	<node lat="59.99611110811843" lon="9.288455547638522" id="-19010">
		<tag k="fixme" v="consider natural=peak for the most distinct mountains in the district" />
		<tag k="name" v="Hølaåsen" />
		<tag k="natural" v="hill" />
		<tag k="place" v="locality" />
		<tag k="ssr:stedsnr" v="89579" />
	</node>
	<node lat="60.05449444250539" lon="9.167880551917" id="-19011">
		<tag k="name" v="Bjørneberget" />
		<tag k="natural" v="slope" />
		<tag k="place" v="locality" />
		<tag k="ssr:stedsnr" v="90278" />
	</node>
	<node lat="60.063577776294686" lon="9.170769451171937" id="-19012">
		<tag k="name" v="Slåttemyrnatten" />
		<tag k="natural" v="hill" />
		<tag k="place" v="locality" />
		<tag k="ssr:stedsnr" v="90283" />
	</node>
	<node lat="60.05380833440821" lon="9.138963882103136" id="-19013">
		<tag k="name" v="Tromperudberget" />
		<tag k="natural" v="hill" />
		<tag k="place" v="locality" />
		<tag k="ssr:stedsnr" v="90295" />
	</node>
	<node lat="59.95527222203619" lon="9.299861106850408" id="-19021">
		<tag k="name" v="Løkåsen" />
		<tag k="natural" v="hill" />
		<tag k="place" v="locality" />
		<tag k="ssr:stedsnr" v="89844" />
	</node>
	<node lat="60.00676389193498" lon="9.259186118466248" id="-19024">
		<tag k="name" v="Glanarberget" />
		<tag k="natural" v="hill" />
		<tag k="place" v="locality" />
		<tag k="ssr:stedsnr" v="89996" />
	</node>
	<node lat="60.013519446374644" lon="9.266391667556096" id="-19026">
		<tag k="name" v="Skøllebakken" />
		<tag k="natural" v="slope" />
		<tag k="place" v="locality" />
		<tag k="ssr:stedsnr" v="89998" />
	</node>
	<node lat="60.0665277800617" lon="9.126088891672953" id="-19031">
		<tag k="name" v="Trollhøløye" />
		<tag k="natural" v="hill" />
		<tag k="place" v="locality" />
		<tag k="ssr:stedsnr" v="90231" />
	</node>
	<node lat="60.05628055613376" lon="9.104425002004028" id="-19032">
		<tag k="name" v="Brekkeåsen" />
		<tag k="natural" v="slope" />
		<tag k="place" v="locality" />
		<tag k="ssr:stedsnr" v="90241" />
	</node>
	<node lat="60.1128333304022" lon="9.179363896256186" id="-19035">
		<tag k="fixme" v="consider natural=peak for the most distinct mountains in the district" />
		<tag k="name" v="Langåsen" />
		<tag k="natural" v="hill" />
		<tag k="place" v="locality" />
		<tag k="ssr:stedsnr" v="90465" />
	</node>
	<node lat="60.07241944759215" lon="9.089308340866836" id="-19036">
		<tag k="name" v="Bjørnelauge" />
		<tag k="natural" v="valley" />
		<tag k="place" v="locality" />
		<tag k="ssr:stedsnr" v="90470" />
	</node>
	<node lat="60.10613888976432" lon="9.135550001889142" id="-19037">
		<tag k="name" v="Leinin" />
		<tag k="natural" v="valley" />
		<tag k="place" v="locality" />
		<tag k="ssr:stedsnr" v="90483" />
	</node>
	<node lat="59.94194999607233" lon="9.320391661482608" id="-19041">
		<tag k="name" v="Kleive" />
		<tag k="natural" v="slope" />
		<tag k="place" v="locality" />
		<tag k="ssr:stedsnr" v="90758" />
	</node>
	<node lat="59.941816664843486" lon="9.316558332852546" id="-19042">
		<tag k="name" v="Skammelhaugan" />
		<tag k="natural" v="hill" />
		<tag k="place" v="locality" />
		<tag k="ssr:stedsnr" v="90760" />
	</node>
	<node lat="59.98450555447781" lon="9.316822225684891" id="-19044">
		<tag k="name" v="Siljudalen" />
		<tag k="natural" v="valley" />
		<tag k="place" v="locality" />
		<tag k="ssr:stedsnr" v="90891" />
	</node>
	<node lat="59.96650277928655" lon="9.195452772709828" id="-19045">
		<tag k="fixme" v="consider natural=peak for the most distinct mountains in the district" />
		<tag k="name" v="Veslesenhovd" />
		<tag k="natural" v="hill" />
		<tag k="place" v="locality" />
		<tag k="ssr:stedsnr" v="125604" />
	</node>
	<node lat="60.01428055394526" lon="9.358577769668443" id="-19047">
		<tag k="fixme" v="consider natural=peak for the most distinct mountains in the district" />
		<tag k="name" v="Raudsteinvarden" />
		<tag k="natural" v="hill" />
		<tag k="place" v="locality" />
		<tag k="ssr:stedsnr" v="125030" />
	</node>
	<node lat="59.910376320589044" lon="9.269609726766248" id="-19049">
		<tag k="name" v="Smylinatten" />
		<tag k="natural" v="hill" />
		<tag k="place" v="locality" />
		<tag k="ssr:stedsnr" v="125245" />
	</node>
	<node lat="59.92114444446003" lon="9.210299997798712" id="-19058">
		<tag k="fixme" v="consider natural=peak for the most distinct mountains in the district" />
		<tag k="name" v="Sørkjefjell" />
		<tag k="natural" v="hill" />
		<tag k="place" v="locality" />
		<tag k="ssr:stedsnr" v="125527" />
	</node>
	<node lat="60.05977500100454" lon="9.170549991495266" id="-19062">
		<tag k="name" v="Hestenatten" />
		<tag k="natural" v="hill" />
		<tag k="place" v="locality" />
		<tag k="ssr:stedsnr" v="125644" />
	</node>
	<node lat="60.09624999710727" lon="9.216911107006943" id="-19063">
		<tag k="name" v="Nybulie" />
		<tag k="natural" v="slope" />
		<tag k="place" v="locality" />
		<tag k="ssr:stedsnr" v="125729" />
	</node>
	<node lat="59.98895833729789" lon="9.196302785960015" id="-19064">
		<tag k="name" v="Elgtjønndalen" />
		<tag k="natural" v="valley" />
		<tag k="place" v="locality" />
		<tag k="ssr:stedsnr" v="125898" />
	</node>
	<node lat="59.99485833097926" lon="9.164286111225426" id="-19065">
		<tag k="name" v="Vamrehovda" />
		<tag k="natural" v="hill" />
		<tag k="place" v="locality" />
		<tag k="ssr:stedsnr" v="125899" />
	</node>
	<node lat="60.068555551337234" lon="9.176725008173927" id="-19071">
		<tag k="fixme" v="consider natural=peak for the most distinct mountains in the district" />
		<tag k="name" v="Langåsen" />
		<tag k="natural" v="hill" />
		<tag k="place" v="locality" />
		<tag k="ssr:stedsnr" v="126425" />
	</node>
	<node lat="60.015205552940074" lon="9.00671388359628" id="-19073">
		<tag k="name" v="Nordmannskjerka" />
		<tag k="natural" v="hill" />
		<tag k="place" v="locality" />
		<tag k="ssr:stedsnr" v="145345" />
	</node>
	<node lat="60.0746785095854" lon="9.3307414812622" id="-19075">
		<tag k="name" v="Haranatten" />
		<tag k="natural" v="hill" />
		<tag k="place" v="locality" />
		<tag k="ssr:stedsnr" v="146376" />
	</node>
	<node lat="60.03578333201365" lon="9.218950005867406" id="-19078">
		<tag k="name" v="Skøllhaug" />
		<tag k="natural" v="hill" />
		<tag k="place" v="locality" />
		<tag k="ssr:stedsnr" v="149235" />
	</node>
	<node lat="60.11091944861203" lon="9.234886108866204" id="-19079">
		<tag k="name" v="Trolldalen" />
		<tag k="natural" v="valley" />
		<tag k="place" v="locality" />
		<tag k="ssr:stedsnr" v="149295" />
	</node>
	<node lat="60.008188890505664" lon="9.231830547257768" id="-19084">
		<tag k="name" v="Bjørnelinatten" />
		<tag k="natural" v="hill" />
		<tag k="place" v="locality" />
		<tag k="ssr:stedsnr" v="149827" />
	</node>
	<node lat="60.050786113814084" lon="9.190480561244469" id="-19085">
		<tag k="name" v="Dekkan" />
		<tag k="place" v="locality" />
		<tag k="ssr:stedsnr" v="150143" />
	</node>
	<node lat="60.04851110773336" lon="9.25660278221758" id="-19087">
		<tag k="name" v="Heimseternatten" />
		<tag k="natural" v="hill" />
		<tag k="place" v="locality" />
		<tag k="ssr:stedsnr" v="150185" />
	</node>
	<node lat="59.967427774155894" lon="9.070244451700646" id="-19088">
		<tag k="name" v="Vorsetdalen" />
		<tag k="natural" v="valley" />
		<tag k="place" v="locality" />
		<tag k="ssr:stedsnr" v="150187" />
	</node>
	<node lat="60.05554166309722" lon="9.118141663235827" id="-19089">
		<tag k="fixme" v="consider natural=peak for the most distinct mountains in the district" />
		<tag k="name" v="Trollhovdåsen" />
		<tag k="natural" v="hill" />
		<tag k="place" v="locality" />
		<tag k="ssr:stedsnr" v="150275" />
	</node>
	<node lat="60.05597146667746" lon="9.162182896733707" id="-19090">
		<tag k="name" v="Svartebergåsen" />
		<tag k="natural" v="ridge" />
		<tag k="place" v="locality" />
		<tag k="ssr:stedsnr" v="150321" />
	</node>
	<node lat="60.02724722564022" lon="9.14840554666585" id="-19092">
		<tag k="name" v="Glaimhaugen" />
		<tag k="natural" v="ridge" />
		<tag k="place" v="locality" />
		<tag k="ssr:stedsnr" v="150627" />
	</node>
	<node lat="60.06709722220965" lon="9.183083324390786" id="-19096">
		<tag k="name" v="Trytetjønnhøgde" />
		<tag k="natural" v="hill" />
		<tag k="place" v="locality" />
		<tag k="ssr:stedsnr" v="150492" />
	</node>
	<node lat="60.083813885069496" lon="9.136122217726713" id="-19098">
		<tag k="name" v="Saghaugen" />
		<tag k="natural" v="hill" />
		<tag k="place" v="locality" />
		<tag k="ssr:stedsnr" v="150501" />
	</node>
	<node lat="59.984816665811316" lon="9.16260554761583" id="-19099">
		<tag k="fixme" v="consider natural=peak for the most distinct mountains in the district" />
		<tag k="name" v="Røynebuåsen" />
		<tag k="natural" v="hill" />
		<tag k="place" v="locality" />
		<tag k="ssr:stedsnr" v="150672" />
	</node>
	<node lat="59.98761666770364" lon="9.294083326614137" id="-19100">
		<tag k="fixme" v="consider natural=peak for the most distinct mountains in the district" />
		<tag k="loc_name" v="Bjergeåsen" />
		<tag k="name" v="Bjørgeåsen" />
		<tag k="natural" v="hill" />
		<tag k="place" v="locality" />
		<tag k="ssr:stedsnr" v="150548" />
	</node>
	<node lat="59.98867221778029" lon="9.117638884809976" id="-19102">
		<tag k="name" v="Fjordungsbekkhaugen" />
		<tag k="natural" v="hill" />
		<tag k="place" v="locality" />
		<tag k="ssr:stedsnr" v="150714" />
	</node>
	<node lat="59.951163889908926" lon="9.314994445826605" id="-19105">
		<tag k="name" v="Åjuvet" />
		<tag k="natural" v="gorge" />
		<tag k="ssr:stedsnr" v="150749" />
	</node>
	<node lat="59.94272222016507" lon="9.405722228608443" id="-19106">
		<tag k="name" v="Gvitåslie" />
		<tag k="natural" v="slope" />
		<tag k="place" v="locality" />
		<tag k="ssr:stedsnr" v="150752" />
	</node>
	<node lat="60.01510833783539" lon="9.378447214230292" id="-19108">
		<tag k="name" v="Heggebrekka" />
		<tag k="place" v="locality" />
		<tag k="ssr:stedsnr" v="150696" />
	</node>
	<node lat="59.99623610675388" lon="9.380283328841102" id="-19113">
		<tag k="name" v="Kaste" />
		<tag k="natural" v="slope" />
		<tag k="place" v="locality" />
		<tag k="ssr:stedsnr" v="150988" />
	</node>
	<node lat="59.99196111208783" lon="9.379683327449861" id="-19116">
		<tag k="fixme" v="consider natural=peak for the most distinct mountains in the district" />
		<tag k="name" v="Bjørnåsen" />
		<tag k="natural" v="hill" />
		<tag k="place" v="locality" />
		<tag k="ssr:stedsnr" v="185286" />
	</node>
	<node lat="59.90074166465461" lon="9.260936105780809" id="-19120">
		<tag k="name" v="Vindhøgde" />
		<tag k="natural" v="hill" />
		<tag k="place" v="locality" />
		<tag k="ssr:stedsnr" v="186224" />
	</node>
	<node lat="59.96288611065166" lon="9.34351666715897" id="-19127">
		<tag k="name" v="Raunedalen" />
		<tag k="natural" v="valley" />
		<tag k="place" v="locality" />
		<tag k="ssr:stedsnr" v="186377" />
	</node>
	<node lat="60.02848611239954" lon="9.03762500425738" id="-19128">
		<tag k="name" v="Svartli" />
		<tag k="natural" v="slope" />
		<tag k="place" v="locality" />
		<tag k="ssr:stedsnr" v="186378" />
	</node>
	<node lat="59.90004722512683" lon="9.174269436832494" id="-19131">
		<tag k="fixme" v="consider natural=peak for the most distinct mountains in the district" />
		<tag k="name" v="Åklinuten" />
		<tag k="natural" v="hill" />
		<tag k="place" v="locality" />
		<tag k="ssr:stedsnr" v="186765" />
	</node>
	<node lat="60.09178055424868" lon="9.20410833704555" id="-19134">
		<tag k="name" v="Åkroken" />
		<tag k="natural" v="valley" />
		<tag k="place" v="locality" />
		<tag k="ssr:stedsnr" v="187660" />
	</node>
	<node lat="59.98685833331128" lon="9.236519437296824" id="-19135">
		<tag k="fixme" v="consider natural=peak for the most distinct mountains in the district" />
		<tag k="name" v="Kalveskallen" />
		<tag k="natural" v="hill" />
		<tag k="place" v="locality" />
		<tag k="ssr:stedsnr" v="207664" />
	</node>
	<node lat="60.038924999641516" lon="9.066027782528794" id="-19140">
		<tag k="name" v="Årsethaugen" />
		<tag k="natural" v="hill" />
		<tag k="place" v="locality" />
		<tag k="ssr:stedsnr" v="211419" />
	</node>
	<node lat="60.09613332985178" lon="9.160325002333906" id="-19144">
		<tag k="name" v="Løkjemyrdalen" />
		<tag k="natural" v="valley" />
		<tag k="place" v="locality" />
		<tag k="ssr:stedsnr" v="211497" />
	</node>
	<node lat="60.09697221997174" lon="9.174688887207566" id="-19145">
		<tag k="name" v="Gampedalen" />
		<tag k="natural" v="valley" />
		<tag k="place" v="locality" />
		<tag k="ssr:stedsnr" v="211499" />
	</node>
	<node lat="59.99668055566309" lon="9.258222215542212" id="-19147">
		<tag k="name" v="Storskørr" />
		<tag k="natural" v="valley" />
		<tag k="place" v="locality" />
		<tag k="ssr:stedsnr" v="211522" />
	</node>
	<node lat="60.014852774968375" lon="9.180449993402673" id="-19160">
		<tag k="name" v="Nirisetdalen" />
		<tag k="natural" v="valley" />
		<tag k="place" v="locality" />
		<tag k="ssr:stedsnr" v="211719" />
	</node>
	<node lat="59.99545833351061" lon="9.384491671106886" id="-19162">
		<tag k="fixme" v="consider natural=peak for the most distinct mountains in the district" />
		<tag k="name" v="Lunkebuåsen" />
		<tag k="natural" v="hill" />
		<tag k="place" v="locality" />
		<tag k="ssr:stedsnr" v="211991" />
	</node>
	<node lat="59.98543611346699" lon="9.430411107556175" id="-19163">
		<tag k="name" v="Stupa" />
		<tag k="natural" v="slope" />
		<tag k="place" v="locality" />
		<tag k="ssr:stedsnr" v="211994" />
	</node>
	<node lat="59.97475277649302" lon="9.33660555187731" id="-19165">
		<tag k="name" v="Finntoppflata" />
		<tag k="place" v="locality" />
		<tag k="ssr:stedsnr" v="211939" />
	</node>
	<node lat="60.00732221867251" lon="8.995255548933718" id="-19168">
		<tag k="name" v="Brynefjell" />
		<tag k="natural" v="hill" />
		<tag k="place" v="locality" />
		<tag k="ssr:stedsnr" v="279453" />
	</node>
	<node lat="59.94692500092273" lon="9.215402781459385" id="-19173">
		<tag k="fixme" v="consider natural=peak for the most distinct mountains in the district" />
		<tag k="name" v="Turtebergåsen" />
		<tag k="natural" v="hill" />
		<tag k="place" v="locality" />
		<tag k="ssr:stedsnr" v="307574" />
	</node>
	<node lat="60.139599996562296" lon="9.183930553297397" id="-19182">
		<tag k="fixme" v="consider natural=peak for the most distinct mountains in the district" />
		<tag k="name" v="Hovdåsen" />
		<tag k="natural" v="hill" />
		<tag k="place" v="locality" />
		<tag k="ssr:stedsnr" v="308477" />
	</node>
	<node lat="60.08289999564928" lon="9.19466111034917" id="-19185">
		<tag k="name" v="Langvassdalen" />
		<tag k="natural" v="valley" />
		<tag k="place" v="locality" />
		<tag k="ssr:stedsnr" v="308726" />
	</node>
	<node lat="60.055419444337424" lon="9.233483325580787" id="-19189">
		<tag k="name" v="Vebrandsbrekka" />
		<tag k="natural" v="slope" />
		<tag k="place" v="locality" />
		<tag k="ssr:stedsnr" v="332124" />
	</node>
	<node lat="60.0562055592175" lon="9.244094450438356" id="-19190">
		<tag k="name" v="Trappin" />
		<tag k="natural" v="hill" />
		<tag k="place" v="locality" />
		<tag k="ssr:stedsnr" v="332126" />
	</node>
	<node lat="60.05526388891322" lon="9.192080550070614" id="-19191">
		<tag k="name" v="Torshøgsten" />
		<tag k="natural" v="valley" />
		<tag k="place" v="locality" />
		<tag k="ssr:stedsnr" v="332139" />
	</node>
	<node lat="60.04581944311028" lon="9.189733325742614" id="-19192">
		<tag k="name" v="Kjerringhaugen" />
		<tag k="natural" v="hill" />
		<tag k="place" v="locality" />
		<tag k="ssr:stedsnr" v="332141" />
	</node>
	<node lat="60.07628055439475" lon="9.300986116901695" id="-19193">
		<tag k="name" v="Tjønndalen" />
		<tag k="natural" v="valley" />
		<tag k="place" v="locality" />
		<tag k="ssr:stedsnr" v="332090" />
	</node>
	<node lat="60.07831666824483" lon="9.206636102192467" id="-19194">
		<tag k="fixme" v="consider natural=peak for the most distinct mountains in the district" />
		<tag k="name" v="Haukeliåsen" />
		<tag k="natural" v="hill" />
		<tag k="place" v="locality" />
		<tag k="ssr:stedsnr" v="332096" />
	</node>
	<node lat="60.05746389304704" lon="9.278994437751237" id="-19195">
		<tag k="name" v="Pipetjønnbrottet" />
		<tag k="natural" v="valley" />
		<tag k="place" v="locality" />
		<tag k="ssr:stedsnr" v="332170" />
	</node>
	<node lat="60.02426666933942" lon="9.05928888351202" id="-19197">
		<tag k="name" v="Hekanlyu" />
		<tag k="place" v="locality" />
		<tag k="ssr:stedsnr" v="332431" />
	</node>
	<node lat="59.989644440990446" lon="9.266116672515984" id="-19199">
		<tag k="name" v="Høgrudskørr" />
		<tag k="natural" v="valley" />
		<tag k="place" v="locality" />
		<tag k="ssr:stedsnr" v="332512" />
	</node>
	<node lat="59.98868889328785" lon="9.262741671270147" id="-19200">
		<tag k="name" v="Kalveskørr" />
		<tag k="natural" v="valley" />
		<tag k="place" v="locality" />
		<tag k="ssr:stedsnr" v="332514" />
	</node>
	<node lat="60.08895555776812" lon="9.223449994455352" id="-19201">
		<tag k="name" v="Langegjengje" />
		<tag k="natural" v="valley" />
		<tag k="place" v="locality" />
		<tag k="ssr:stedsnr" v="332378" />
	</node>
	<node lat="60.04527777948278" lon="9.126619437699253" id="-19204">
		<tag k="name" v="Skriudalen" />
		<tag k="natural" v="valley" />
		<tag k="place" v="locality" />
		<tag k="ssr:stedsnr" v="332663" />
	</node>
	<node lat="60.015413892780515" lon="9.134722224049625" id="-19208">
		<tag k="name" v="Skinntjønnjuvet" />
		<tag k="natural" v="gorge" />
		<tag k="ssr:stedsnr" v="332720" />
	</node>
	<node lat="60.022491670770606" lon="9.148225005602551" id="-19210">
		<tag k="name" v="Brennhaugen" />
		<tag k="natural" v="hill" />
		<tag k="place" v="locality" />
		<tag k="ssr:stedsnr" v="332724" />
	</node>
	<node lat="60.005166670882225" lon="9.322150000998256" id="-19211">
		<tag k="name" v="Brennebergåsen" />
		<tag k="natural" v="ridge" />
		<tag k="place" v="locality" />
		<tag k="ssr:stedsnr" v="332725" />
	</node>
	<node lat="60.05182500311084" lon="9.345116667328735" id="-19213">
		<tag k="fixme" v="consider natural=peak for the most distinct mountains in the district" />
		<tag k="name" v="Brennåsen" />
		<tag k="natural" v="hill" />
		<tag k="place" v="locality" />
		<tag k="ssr:stedsnr" v="332666" />
	</node>
	<node lat="60.03732500271355" lon="9.139808333495088" id="-19214">
		<tag k="name" v="Kjemhushaugen" />
		<tag k="natural" v="hill" />
		<tag k="place" v="locality" />
		<tag k="ssr:stedsnr" v="332681" />
	</node>
	<node lat="59.92904444678377" lon="9.286388884095652" id="-19217">
		<tag k="name" v="Hestespreng" />
		<tag k="natural" v="slope" />
		<tag k="place" v="locality" />
		<tag k="ssr:stedsnr" v="332779" />
	</node>
	<node lat="59.89673333014245" lon="9.28341110702763" id="-19219">
		<tag k="name" v="Aksla" />
		<tag k="natural" v="ridge" />
		<tag k="place" v="locality" />
		<tag k="ssr:stedsnr" v="332782" />
	</node>
	<node lat="59.99734166516093" lon="9.340908335068187" id="-19221">
		<tag k="name" v="Måsåvadberget" />
		<tag k="natural" v="slope" />
		<tag k="place" v="locality" />
		<tag k="ssr:stedsnr" v="332876" />
	</node>
	<node lat="59.927619440083056" lon="9.271633337315624" id="-19230">
		<tag k="name" v="Hestelie" />
		<tag k="natural" v="slope" />
		<tag k="place" v="locality" />
		<tag k="ssr:stedsnr" v="367138" />
	</node>
	<node lat="60.007374999196436" lon="9.078199996923086" id="-19240">
		<tag k="fixme" v="consider natural=peak for the most distinct mountains in the district" />
		<tag k="name" v="Halvfaråsen" />
		<tag k="natural" v="hill" />
		<tag k="place" v="locality" />
		<tag k="ssr:stedsnr" v="368347" />
	</node>
	<node lat="60.10290277428914" lon="9.175463894756435" id="-19244">
		<tag k="fixme" v="consider natural=peak for the most distinct mountains in the district" />
		<tag k="name" v="Langåsen" />
		<tag k="natural" v="hill" />
		<tag k="place" v="locality" />
		<tag k="ssr:stedsnr" v="368561" />
	</node>
	<node lat="60.10622499644864" lon="9.115486111843957" id="-19245">
		<tag k="name" v="Steintjønndalen" />
		<tag k="natural" v="valley" />
		<tag k="place" v="locality" />
		<tag k="ssr:stedsnr" v="368564" />
	</node>
	<node lat="59.96837777536925" lon="9.19711111876792" id="-19247">
		<tag k="name" v="Storskørre" />
		<tag k="natural" v="slope" />
		<tag k="place" v="locality" />
		<tag k="ssr:stedsnr" v="368652" />
	</node>
	<node lat="60.03085833384658" lon="9.357122228940536" id="-19250">
		<tag k="fixme" v="consider natural=peak for the most distinct mountains in the district" />
		<tag k="name" v="Seteråsen" />
		<tag k="natural" v="hill" />
		<tag k="place" v="locality" />
		<tag k="ssr:stedsnr" v="369380" />
	</node>
	<node lat="60.038341667680534" lon="8.984663883665657" id="-19251">
		<tag k="name" v="Daggrødalen" />
		<tag k="natural" v="valley" />
		<tag k="place" v="locality" />
		<tag k="ssr:stedsnr" v="369329" />
	</node>
	<node lat="60.02002777859897" lon="9.34898610457933" id="-19257">
		<tag k="fixme" v="consider natural=peak for the most distinct mountains in the district" />
		<tag k="name" v="Langåsen" />
		<tag k="natural" v="hill" />
		<tag k="place" v="locality" />
		<tag k="ssr:stedsnr" v="389565" />
	</node>
	<node lat="60.05608333410565" lon="9.216766672763264" id="-19260">
		<tag k="name" v="Nordkleiv" />
		<tag k="natural" v="slope" />
		<tag k="place" v="locality" />
		<tag k="ssr:stedsnr" v="392167" />
	</node>
	<node lat="60.00566111294904" lon="9.365616673508237" id="-19263">
		<tag k="name" v="Himmelsynnatten" />
		<tag k="natural" v="hill" />
		<tag k="place" v="locality" />
		<tag k="ssr:stedsnr" v="392767" />
	</node>
	<node lat="60.01407222171634" lon="9.382413894878614" id="-19264">
		<tag k="name" v="Tjøstølvberget" />
		<tag k="natural" v="ridge" />
		<tag k="place" v="locality" />
		<tag k="ssr:stedsnr" v="392771" />
	</node>
	<node lat="60.03642777748836" lon="9.194277771197243" id="-19267">
		<tag k="name" v="Puttedalen" />
		<tag k="natural" v="valley" />
		<tag k="place" v="locality" />
		<tag k="ssr:stedsnr" v="392869" />
	</node>
	<node lat="60.05938055817321" lon="9.098744450608855" id="-19273">
		<tag k="name" v="Brøtli" />
		<tag k="natural" v="slope" />
		<tag k="place" v="locality" />
		<tag k="ssr:stedsnr" v="393264" />
	</node>
	<node lat="60.07678055670771" lon="9.117622216285179" id="-19278">
		<tag k="name" v="Hallinghaug" />
		<tag k="natural" v="hill" />
		<tag k="place" v="locality" />
		<tag k="ssr:stedsnr" v="393479" />
	</node>
	<node lat="59.938691665977416" lon="9.319030554594745" id="-19280">
		<tag k="name" v="Køseberget" />
		<tag k="natural" v="ridge" />
		<tag k="place" v="locality" />
		<tag k="ssr:stedsnr" v="393768" />
	</node>
	<node lat="59.94514444612421" lon="9.333436118568663" id="-19281">
		<tag k="name" v="Bjørnedalen" />
		<tag k="natural" v="valley" />
		<tag k="place" v="locality" />
		<tag k="ssr:stedsnr" v="393772" />
	</node>
	<node lat="60.04460555282472" lon="9.132902775227558" id="-19287">
		<tag k="name" v="Meland" />
		<tag k="natural" v="hill" />
		<tag k="place" v="locality" />
		<tag k="ssr:stedsnr" v="393670" />
	</node>
	<node lat="59.98499166947064" lon="9.391449992657659" id="-19288">
		<tag k="name" v="Lisledal" />
		<tag k="natural" v="valley" />
		<tag k="place" v="locality" />
		<tag k="ssr:stedsnr" v="393887" />
	</node>
	<node lat="59.990577775443825" lon="9.082097222428535" id="-19289">
		<tag k="name" v="Sundtjønnskarven" />
		<tag k="natural" v="hill" />
		<tag k="place" v="locality" />
		<tag k="ssr:stedsnr" v="393720" />
	</node>
	<node lat="59.957563872888926" lon="9.339440838675872" id="-19291">
		<tag k="name" v="Lekåskleiv" />
		<tag k="natural" v="slope" />
		<tag k="place" v="locality" />
		<tag k="ssr:stedsnr" v="393792" />
	</node>
	<node lat="59.90432778139207" lon="9.230127777755726" id="-19292">
		<tag k="name" v="Blomdølene" />
		<tag k="natural" v="slope" />
		<tag k="place" v="locality" />
		<tag k="ssr:stedsnr" v="393796" />
	</node>
	<node lat="59.991877779026886" lon="9.226175000477197" id="-19298">
		<tag k="fixme" v="consider natural=peak for the most distinct mountains in the district" />
		<tag k="name" v="Nøvet" />
		<tag k="natural" v="hill" />
		<tag k="place" v="locality" />
		<tag k="ssr:stedsnr" v="428241" />
	</node>
	<node lat="60.00277500296924" lon="9.047472229632522" id="-19302">
		<tag k="fixme" v="consider natural=peak for the most distinct mountains in the district" />
		<tag k="name" v="Svarteløkfjellet" />
		<tag k="natural" v="hill" />
		<tag k="place" v="locality" />
		<tag k="ssr:stedsnr" v="429265" />
	</node>
	<node lat="59.99997221838602" lon="9.340716671742241" id="-19318">
		<tag k="name" v="Kølsethaugen" />
		<tag k="natural" v="hill" />
		<tag k="place" v="locality" />
		<tag k="ssr:stedsnr" v="514885" />
	</node>
	<node lat="60.04346111149108" lon="9.215447222760414" id="-19324">
		<tag k="name" v="Høghaug" />
		<tag k="natural" v="hill" />
		<tag k="place" v="locality" />
		<tag k="ssr:stedsnr" v="514262" />
	</node>
	<node lat="60.01160000276625" lon="9.023194437547549" id="-19327">
		<tag k="name" v="Mjeltelie" />
		<tag k="natural" v="slope" />
		<tag k="place" v="locality" />
		<tag k="ssr:stedsnr" v="514452" />
	</node>
	<node lat="60.095877777863144" lon="9.177844446948063" id="-19328">
		<tag k="name" v="Bjørnegjengje" />
		<tag k="natural" v="valley" />
		<tag k="place" v="locality" />
		<tag k="ssr:stedsnr" v="514527" />
	</node>
	<node lat="60.029977780721296" lon="9.151213880248044" id="-19332">
		<tag k="name" v="Gudbrandsdalen" />
		<tag k="natural" v="valley" />
		<tag k="place" v="locality" />
		<tag k="ssr:stedsnr" v="514659" />
	</node>
	<node lat="59.943272223997035" lon="9.317441665003107" id="-19334">
		<tag k="name" v="Gampedalen" />
		<tag k="natural" v="valley" />
		<tag k="place" v="locality" />
		<tag k="ssr:stedsnr" v="514772" />
	</node>
	<node lat="59.95583611111383" lon="9.215572220841686" id="-19338">
		<tag k="name" v="Trihynnehaugan" />
		<tag k="natural" v="hill" />
		<tag k="place" v="locality" />
		<tag k="ssr:stedsnr" v="514785" />
	</node>
	<node lat="59.92183333650287" lon="9.309172229971272" id="-19340">
		<tag k="name" v="Korpefløget" />
		<tag k="natural" v="valley" />
		<tag k="place" v="locality" />
		<tag k="ssr:stedsnr" v="514740" />
	</node>
	<node lat="59.92014505816835" lon="9.308934981840153" id="-19341">
		<tag k="name" v="Jommetjønnkleive" />
		<tag k="natural" v="slope" />
		<tag k="place" v="locality" />
		<tag k="ssr:stedsnr" v="514741" />
	</node>
	<node lat="60.01685833688467" lon="9.30090833843548" id="-19343">
		<tag k="name" v="Storliåsen" />
		<tag k="natural" v="ridge" />
		<tag k="place" v="locality" />
		<tag k="ssr:stedsnr" v="514746" />
	</node>
	<node lat="59.92636028556681" lon="9.312345027890744" id="-19345">
		<tag k="name" v="Solskinnslie" />
		<tag k="natural" v="slope" />
		<tag k="place" v="locality" />
		<tag k="ssr:stedsnr" v="514757" />
	</node>
	<node lat="60.02970555602664" lon="9.201558339075682" id="-19349">
		<tag k="name" v="Budalen" />
		<tag k="natural" v="valley" />
		<tag k="place" v="locality" />
		<tag k="ssr:stedsnr" v="514836" />
	</node>
	<node lat="59.94224166636936" lon="9.333800000026846" id="-19359">
		<tag k="name" v="Smiukollen" />
		<tag k="natural" v="hill" />
		<tag k="place" v="locality" />
		<tag k="ssr:stedsnr" v="550147" />
	</node>
	<node lat="59.93128055739218" lon="9.287172224591115" id="-19360">
		<tag k="fixme" v="consider natural=peak for the most distinct mountains in the district" />
		<tag k="name" v="Bergseidnatten" />
		<tag k="natural" v="hill" />
		<tag k="place" v="locality" />
		<tag k="ssr:stedsnr" v="550156" />
	</node>
	<node lat="60.11025555170256" lon="9.154991674557925" id="-19367">
		<tag k="name" v="Pjokkebråtan" />
		<tag k="place" v="locality" />
		<tag k="ssr:stedsnr" v="550519" />
	</node>
	<node lat="59.941122223736194" lon="9.210480560214187" id="-19368">
		<tag k="fixme" v="consider natural=peak for the most distinct mountains in the district" />
		<tag k="name" v="Langåsen" />
		<tag k="natural" v="hill" />
		<tag k="place" v="locality" />
		<tag k="ssr:stedsnr" v="550531" />
	</node>
	<node lat="59.99770002122838" lon="9.080901292552298" id="-19374">
		<tag k="name" v="Smylehaug" />
		<tag k="natural" v="hill" />
		<tag k="place" v="locality" />
		<tag k="ssr:stedsnr" v="550911" />
	</node>
	<node lat="60.02408333311899" lon="9.37278611041326" id="-19377">
		<tag k="fixme" v="consider natural=peak for the most distinct mountains in the district" />
		<tag k="name" v="Hovda" />
		<tag k="natural" v="hill" />
		<tag k="place" v="locality" />
		<tag k="ssr:stedsnr" v="551031" />
	</node>
	<node lat="59.942702778236615" lon="9.199519448525232" id="-19385">
		<tag k="name" v="Kyrdalen" />
		<tag k="natural" v="valley" />
		<tag k="place" v="locality" />
		<tag k="ssr:stedsnr" v="571543" />
	</node>
	<node lat="60.05919444793541" lon="9.253688891322023" id="-19387">
		<tag k="name" v="Kjøvslebuin" />
		<tag k="natural" v="slope" />
		<tag k="place" v="locality" />
		<tag k="ssr:stedsnr" v="574208" />
	</node>
	<node lat="60.08268610837415" lon="9.257716669806284" id="-19388">
		<tag k="name" v="Størrdalen" />
		<tag k="natural" v="valley" />
		<tag k="place" v="locality" />
		<tag k="ssr:stedsnr" v="574129" />
	</node>
	<node lat="60.084097222262166" lon="9.257233342178244" id="-19389">
		<tag k="fixme" v="consider natural=peak for the most distinct mountains in the district" />
		<tag k="name" v="Størrdalsåsen" />
		<tag k="natural" v="hill" />
		<tag k="place" v="locality" />
		<tag k="ssr:stedsnr" v="574130" />
	</node>
	<node lat="60.0822166678102" lon="9.261927770510054" id="-19390">
		<tag k="name" v="Størrdalshaugan" />
		<tag k="natural" v="hill" />
		<tag k="place" v="locality" />
		<tag k="ssr:stedsnr" v="574131" />
	</node>
	<node lat="60.050811111665645" lon="9.241136106324346" id="-19392">
		<tag k="fixme" v="consider natural=peak for the most distinct mountains in the district" />
		<tag k="name" v="Brennåsen" />
		<tag k="natural" v="hill" />
		<tag k="place" v="locality" />
		<tag k="ssr:stedsnr" v="574159" />
	</node>
	<node lat="60.037452780157054" lon="9.01100554851775" id="-19396">
		<tag k="name" v="Klypeåsen" />
		<tag k="natural" v="ridge" />
		<tag k="place" v="locality" />
		<tag k="ssr:stedsnr" v="574138" />
	</node>
	<node lat="59.96343055218747" lon="9.316716660591695" id="-19397">
		<tag k="name" v="Trea" />
		<tag k="natural" v="slope" />
		<tag k="place" v="locality" />
		<tag k="ssr:stedsnr" v="575928" />
	</node>
	<node lat="59.96913888757415" lon="9.324341673635434" id="-19398">
		<tag k="name" v="Krinkhaug" />
		<tag k="natural" v="hill" />
		<tag k="place" v="locality" />
		<tag k="ssr:stedsnr" v="575934" />
	</node>
	<node lat="60.04283333057138" lon="9.230883337906961" id="-19400">
		<tag k="name" v="Oreflaten" />
		<tag k="place" v="locality" />
		<tag k="ssr:stedsnr" v="574282" />
	</node>
	<node lat="59.99914166387671" lon="9.27036389640912" id="-19401">
		<tag k="name" v="Dansarhaugen" />
		<tag k="natural" v="hill" />
		<tag k="place" v="locality" />
		<tag k="ssr:stedsnr" v="574610" />
	</node>
	<node lat="59.985044442920056" lon="9.254708337956318" id="-19402">
		<tag k="name" v="Ivarskørr" />
		<tag k="natural" v="valley" />
		<tag k="place" v="locality" />
		<tag k="ssr:stedsnr" v="574616" />
	</node>
	<node lat="59.96411111408377" lon="9.175927774705512" id="-19404">
		<tag k="name" v="Tverrmosberg" />
		<tag k="natural" v="hill" />
		<tag k="place" v="locality" />
		<tag k="ssr:stedsnr" v="574592" />
	</node>
	<node lat="60.002266663722345" lon="9.198486116472557" id="-19406">
		<tag k="name" v="Turnhøgde" />
		<tag k="natural" v="hill" />
		<tag k="place" v="locality" />
		<tag k="ssr:stedsnr" v="574858" />
	</node>
	<node lat="60.00357222089709" lon="9.21685278215488" id="-19407">
		<tag k="name" v="Tverrberget" />
		<tag k="natural" v="ridge" />
		<tag k="place" v="locality" />
		<tag k="ssr:stedsnr" v="574860" />
	</node>
	<node lat="60.01176666355971" lon="9.238000004229745" id="-19408">
		<tag k="name" v="Klypa" />
		<tag k="natural" v="valley" />
		<tag k="place" v="locality" />
		<tag k="ssr:stedsnr" v="574862" />
	</node>
	<node lat="59.980899997424956" lon="9.06674167305827" id="-19415">
		<tag k="name" v="Devegglie" />
		<tag k="natural" v="slope" />
		<tag k="place" v="locality" />
		<tag k="ssr:stedsnr" v="575173" />
	</node>
	<node lat="60.05118055181963" lon="9.116016673217148" id="-19416">
		<tag k="name" v="Glanarberget" />
		<tag k="natural" v="hill" />
		<tag k="place" v="locality" />
		<tag k="ssr:stedsnr" v="575249" />
	</node>
	<node lat="60.05171111262016" lon="9.170991657805697" id="-19418">
		<tag k="fixme" v="consider natural=peak for the most distinct mountains in the district" />
		<tag k="name" v="Nedre Toenåsen" />
		<tag k="natural" v="hill" />
		<tag k="place" v="locality" />
		<tag k="ssr:stedsnr" v="575291" />
	</node>
	<node lat="60.088461114219164" lon="9.127080557165202" id="-19419">
		<tag k="name" v="Kulthaug" />
		<tag k="natural" v="hill" />
		<tag k="place" v="locality" />
		<tag k="ssr:stedsnr" v="575435" />
	</node>
	<node lat="60.06816666434078" lon="9.14268332795251" id="-19422">
		<tag k="name" v="Svartedokke" />
		<tag k="natural" v="valley" />
		<tag k="place" v="locality" />
		<tag k="ssr:stedsnr" v="575473" />
	</node>
	<node lat="60.00237499848829" lon="9.260413891267715" id="-19423">
		<tag k="name" v="Fetjanskørre" />
		<tag k="natural" v="valley" />
		<tag k="place" v="locality" />
		<tag k="ssr:stedsnr" v="575578" />
	</node>
	<node lat="59.99911944328458" lon="9.31552777475268" id="-19426">
		<tag k="name" v="Trillarberg" />
		<tag k="natural" v="slope" />
		<tag k="place" v="locality" />
		<tag k="ssr:stedsnr" v="575867" />
	</node>
	<node lat="59.93352500333774" lon="9.265897230741603" id="-19438">
		<tag k="fixme" v="consider natural=peak for the most distinct mountains in the district" />
		<tag k="name" v="Brigdenatten" />
		<tag k="natural" v="hill" />
		<tag k="place" v="locality" />
		<tag k="ssr:stedsnr" v="610173" />
	</node>
	<node lat="59.91064444329433" lon="9.221980554290413" id="-19439">
		<tag k="fixme" v="consider natural=peak for the most distinct mountains in the district" />
		<tag k="name" v="Ormehogg" />
		<tag k="natural" v="hill" />
		<tag k="place" v="locality" />
		<tag k="ssr:stedsnr" v="610258" />
	</node>
	<node lat="59.96165833684462" lon="9.204236114178256" id="-19442">
		<tag k="fixme" v="consider natural=peak for the most distinct mountains in the district" />
		<tag k="name" v="Senhovd" />
		<tag k="natural" v="hill" />
		<tag k="old_name" v="Synhövd;Synhovd" />
		<tag k="place" v="locality" />
		<tag k="ssr:stedsnr" v="610623" />
	</node>
	<node lat="59.89216110841905" lon="9.209275007001345" id="-19443">
		<tag k="name" v="Revlidalen" />
		<tag k="natural" v="valley" />
		<tag k="place" v="locality" />
		<tag k="ssr:stedsnr" v="610754" />
	</node>
	<node lat="60.109488884920246" lon="9.21107500308909" id="-19456">
		<tag k="fixme" v="consider natural=peak for the most distinct mountains in the district" />
		<tag k="name" v="Damtjønnåsen" />
		<tag k="natural" v="hill" />
		<tag k="place" v="locality" />
		<tag k="ssr:stedsnr" v="611555" />
	</node>
	<node lat="60.05998888832341" lon="9.013552786186093" id="-19458">
		<tag k="name" v="Fjellihøgde" />
		<tag k="natural" v="hill" />
		<tag k="place" v="locality" />
		<tag k="ssr:stedsnr" v="611661" />
	</node>
	<node lat="60.06130277590465" lon="9.19686111773385" id="-19459">
		<tag k="name" v="Leiketjønnlie" />
		<tag k="natural" v="slope" />
		<tag k="place" v="locality" />
		<tag k="ssr:stedsnr" v="635147" />
	</node>
	<node lat="60.03332222507692" lon="9.000180558412138" id="-19464">
		<tag k="name" v="Deveggklemma" />
		<tag k="natural" v="valley" />
		<tag k="place" v="locality" />
		<tag k="ssr:stedsnr" v="635117" />
	</node>
	<node lat="60.040019446608746" lon="9.238652775861661" id="-19466">
		<tag k="name" v="Gyldenrudhaugen" />
		<tag k="natural" v="hill" />
		<tag k="place" v="locality" />
		<tag k="ssr:stedsnr" v="635221" />
	</node>
	<node lat="60.063605558357196" lon="9.250122230753078" id="-19469">
		<tag k="name" v="Skrubben" />
		<tag k="natural" v="hill" />
		<tag k="place" v="locality" />
		<tag k="ssr:stedsnr" v="635174" />
	</node>
	<node lat="60.040094440944" lon="9.221427776649314" id="-19470">
		<tag k="name" v="Hushaugen" />
		<tag k="natural" v="hill" />
		<tag k="place" v="locality" />
		<tag k="ssr:stedsnr" v="635237" />
	</node>
	<node lat="60.04693055996535" lon="9.100344444467428" id="-19472">
		<tag k="name" v="Flathaug" />
		<tag k="natural" v="hill" />
		<tag k="place" v="locality" />
		<tag k="ssr:stedsnr" v="635265" />
	</node>
	<node lat="59.96875833354768" lon="9.090774998858747" id="-19473">
		<tag k="name" v="Kroktjønnhaugen" />
		<tag k="natural" v="hill" />
		<tag k="place" v="locality" />
		<tag k="ssr:stedsnr" v="635545" />
	</node>
	<node lat="60.00039722244421" lon="9.266186102592807" id="-19474">
		<tag k="name" v="Kong Ulfs haug" />
		<tag k="natural" v="hill" />
		<tag k="place" v="locality" />
		<tag k="ssr:stedsnr" v="635555" />
	</node>
	<node lat="59.98228888817238" lon="9.251808332096056" id="-19475">
		<tag k="name" v="Trettehaugen" />
		<tag k="natural" v="hill" />
		<tag k="place" v="locality" />
		<tag k="ssr:stedsnr" v="635559" />
	</node>
	<node lat="60.06640833603449" lon="9.337958341771756" id="-19479">
		<tag k="fixme" v="consider natural=peak for the most distinct mountains in the district" />
		<tag k="name" v="Dagfiskeåsen" />
		<tag k="natural" v="hill" />
		<tag k="place" v="locality" />
		<tag k="ssr:stedsnr" v="635577" />
	</node>
	<node lat="60.034869440426775" lon="9.328658332465693" id="-19480">
		<tag k="name" v="Geiterova" />
		<tag k="natural" v="valley" />
		<tag k="place" v="locality" />
		<tag k="ssr:stedsnr" v="635624" />
	</node>
	<node lat="60.0306250015404" lon="9.169847221408027" id="-19486">
		<tag k="name" v="Leirdal" />
		<tag k="natural" v="valley" />
		<tag k="place" v="locality" />
		<tag k="ssr:stedsnr" v="635672" />
	</node>
	<node lat="59.95252500072958" lon="9.358827772763687" id="-19487">
		<tag k="name" v="Ørnepynten" />
		<tag k="natural" v="ridge" />
		<tag k="place" v="locality" />
		<tag k="ssr:stedsnr" v="635753" />
	</node>
	<node lat="59.95733610859697" lon="9.397272228883873" id="-19488">
		<tag k="name" v="Fagerli" />
		<tag k="natural" v="slope" />
		<tag k="place" v="locality" />
		<tag k="ssr:stedsnr" v="635754" />
	</node>
	<node lat="59.95499166780836" lon="9.316875001071372" id="-19489">
		<tag k="fixme" v="consider natural=peak for the most distinct mountains in the district" />
		<tag k="name" v="Bratterudåsen" />
		<tag k="natural" v="hill" />
		<tag k="place" v="locality" />
		<tag k="ssr:stedsnr" v="635770" />
	</node>
	<node lat="59.92975833103952" lon="9.201205559532578" id="-19490">
		<tag k="name" v="Geiteklypa" />
		<tag k="natural" v="valley" />
		<tag k="place" v="locality" />
		<tag k="ssr:stedsnr" v="635771" />
	</node>
	<node lat="59.9242499967547" lon="9.371108340312036" id="-19491">
		<tag k="fixme" v="consider natural=peak for the most distinct mountains in the district" />
		<tag k="name" v="Kloppåsen" />
		<tag k="natural" v="hill" />
		<tag k="place" v="locality" />
		<tag k="ssr:stedsnr" v="635829" />
	</node>
	<node lat="59.930625000554045" lon="9.371958335439066" id="-19492">
		<tag k="fixme" v="consider natural=peak for the most distinct mountains in the district" />
		<tag k="name" v="Liaråsen" />
		<tag k="natural" v="hill" />
		<tag k="place" v="locality" />
		<tag k="ssr:stedsnr" v="635832" />
	</node>
	<node lat="59.90991666838864" lon="9.32131667237868" id="-19493">
		<tag k="name" v="Svartordokka" />
		<tag k="natural" v="valley" />
		<tag k="place" v="locality" />
		<tag k="ssr:stedsnr" v="635835" />
	</node>
	<node lat="59.99016111404189" lon="9.407138896887364" id="-19498">
		<tag k="fixme" v="consider natural=peak for the most distinct mountains in the district" />
		<tag k="name" v="Smalmyråsen" />
		<tag k="natural" v="hill" />
		<tag k="place" v="locality" />
		<tag k="ssr:stedsnr" v="635868" />
	</node>
	<node lat="59.99821666490497" lon="9.393497225684275" id="-19500">
		<tag k="name" v="Nysetlian" />
		<tag k="natural" v="slope" />
		<tag k="place" v="locality" />
		<tag k="ssr:stedsnr" v="635871" />
	</node>
	<node lat="59.97545277573272" lon="9.339008330502082" id="-19501">
		<tag k="name" v="Flaberga" />
		<tag k="natural" v="slope" />
		<tag k="place" v="locality" />
		<tag k="ssr:stedsnr" v="635935" />
	</node>
	<node lat="59.96645277841231" lon="9.409569449856313" id="-19514">
		<tag k="fixme" v="consider natural=peak for the most distinct mountains in the district" />
		<tag k="name" v="Kløvsteinnatten" />
		<tag k="natural" v="hill" />
		<tag k="place" v="locality" />
		<tag k="ssr:stedsnr" v="732324" />
	</node>
	<node lat="60.12690833331578" lon="9.21457499779375" id="-19522">
		<tag k="fixme" v="consider natural=peak for the most distinct mountains in the district" />
		<tag k="name" v="Nybufjell" />
		<tag k="natural" v="hill" />
		<tag k="place" v="locality" />
		<tag k="ssr:stedsnr" v="732591" />
	</node>
	<node lat="59.991805552016366" lon="9.219391671558647" id="-19524">
		<tag k="fixme" v="consider natural=peak for the most distinct mountains in the district" />
		<tag k="name" v="Ståvåfjell" />
		<tag k="natural" v="hill" />
		<tag k="old_name" v="Stave Fj." />
		<tag k="place" v="locality" />
		<tag k="ssr:stedsnr" v="732874" />
	</node>
	<node lat="60.07273333087823" lon="9.18732499154449" id="-19528">
		<tag k="fixme" v="consider natural=peak for the most distinct mountains in the district" />
		<tag k="name" v="Storliåsen" />
		<tag k="natural" v="hill" />
		<tag k="place" v="locality" />
		<tag k="ssr:stedsnr" v="733710" />
	</node>
	<node lat="60.05582499698802" lon="9.023091666026534" id="-19532">
		<tag k="name" v="Olhovdnuten" />
		<tag k="natural" v="hill" />
		<tag k="place" v="locality" />
		<tag k="ssr:stedsnr" v="752346" />
	</node>
	<node lat="60.02904721831396" lon="9.23661110324017" id="-19536">
		<tag k="name" v="Angjerdshaugen" />
		<tag k="natural" v="hill" />
		<tag k="place" v="locality" />
		<tag k="ssr:stedsnr" v="757229" />
	</node>
	<node lat="60.09122777434775" lon="9.237544450450313" id="-19537">
		<tag k="fixme" v="consider natural=peak for the most distinct mountains in the district" />
		<tag k="name" v="Meseteråsen" />
		<tag k="natural" v="hill" />
		<tag k="place" v="locality" />
		<tag k="ssr:stedsnr" v="756381" />
	</node>
	<node lat="60.01466389098153" lon="9.288727769246703" id="-19539">
		<tag k="name" v="Bakåsen" />
		<tag k="natural" v="slope" />
		<tag k="place" v="locality" />
		<tag k="ssr:stedsnr" v="756781" />
	</node>
	<node lat="60.0179305548009" lon="9.286108333553555" id="-19540">
		<tag k="name" v="Bekkedalen" />
		<tag k="natural" v="valley" />
		<tag k="place" v="locality" />
		<tag k="ssr:stedsnr" v="756786" />
	</node>
	<node lat="60.05341388611294" lon="9.084472228488757" id="-19541">
		<tag k="name" v="Kortedokk" />
		<tag k="natural" v="hill" />
		<tag k="place" v="locality" />
		<tag k="ssr:stedsnr" v="757266" />
	</node>
	<node lat="60.0169277749634" lon="9.045816672885007" id="-19543">
		<tag k="name" v="Anderslyuhaugen" />
		<tag k="natural" v="hill" />
		<tag k="place" v="locality" />
		<tag k="ssr:stedsnr" v="757435" />
	</node>
	<node lat="60.06971110668473" lon="9.102055561536439" id="-19544">
		<tag k="name" v="Valleåsen" />
		<tag k="natural" v="ridge" />
		<tag k="place" v="locality" />
		<tag k="ssr:stedsnr" v="757486" />
	</node>
	<node lat="60.04398055576238" lon="9.108016670134516" id="-19547">
		<tag k="fixme" v="consider natural=peak for the most distinct mountains in the district" />
		<tag k="name" v="Tveitåsen" />
		<tag k="natural" v="hill" />
		<tag k="place" v="locality" />
		<tag k="ssr:stedsnr" v="757637" />
	</node>
	<node lat="60.07321666671923" lon="9.315791660343104" id="-19549">
		<tag k="fixme" v="consider natural=peak for the most distinct mountains in the district" />
		<tag k="name" v="Ristjønnhøgde" />
		<tag k="natural" v="hill" />
		<tag k="place" v="locality" />
		<tag k="ssr:stedsnr" v="757576" />
	</node>
	<node lat="59.941958332096284" lon="9.272461113755064" id="-19556">
		<tag k="name" v="Middagsnatten" />
		<tag k="natural" v="hill" />
		<tag k="place" v="locality" />
		<tag k="ssr:stedsnr" v="757891" />
	</node>
	<node lat="59.96342777525935" lon="9.26737500204167" id="-19558">
		<tag k="name" v="Skådamman" />
		<tag k="place" v="locality" />
		<tag k="ssr:stedsnr" v="757971" />
	</node>
	<node lat="59.979935283545515" lon="9.43881257220036" id="-19564">
		<tag k="fixme" v="consider natural=peak for the most distinct mountains in the district" />
		<tag k="name" v="Tekslehogget" />
		<tag k="natural" v="hill" />
		<tag k="place" v="locality" />
		<tag k="ssr:stedsnr" v="792278" />
	</node>
	<node lat="59.95494166706204" lon="9.236547215659185" id="-19577">
		<tag k="fixme" v="consider natural=peak for the most distinct mountains in the district" />
		<tag k="name" v="Salrud" />
		<tag k="natural" v="hill" />
		<tag k="place" v="locality" />
		<tag k="ssr:stedsnr" v="793366" />
	</node>
	<node lat="59.96946388843605" lon="9.054438895713885" id="-19581">
		<tag k="fixme" v="consider natural=peak for the most distinct mountains in the district" />
		<tag k="name" v="Vorsetfjellet" />
		<tag k="natural" v="hill" />
		<tag k="place" v="locality" />
		<tag k="ssr:stedsnr" v="793639" />
	</node>
	<node lat="60.04965277676592" lon="9.026874993929892" id="-19582">
		<tag k="name" v="Baklie" />
		<tag k="natural" v="slope" />
		<tag k="place" v="locality" />
		<tag k="ssr:stedsnr" v="793664" />
	</node>
	<node lat="60.00411110770161" lon="9.381058333567543" id="-19590">
		<tag k="name" v="Ørneflaget" />
		<tag k="natural" v="cliff" />
		<tag k="ssr:stedsnr" v="814554" />
	</node>
	<node lat="60.01279722116472" lon="9.227266665098382" id="-19592">
		<tag k="name" v="Løyndomskollen" />
		<tag k="natural" v="hill" />
		<tag k="place" v="locality" />
		<tag k="ssr:stedsnr" v="814616" />
	</node>
	<node lat="60.06602500440527" lon="9.222869447393784" id="-19593">
		<tag k="name" v="Sletteberg" />
		<tag k="natural" v="ridge" />
		<tag k="place" v="locality" />
		<tag k="ssr:stedsnr" v="817156" />
	</node>
	<node lat="60.046536112298945" lon="9.186844450017833" id="-19594">
		<tag k="name" v="Stegaberg" />
		<tag k="natural" v="slope" />
		<tag k="place" v="locality" />
		<tag k="ssr:stedsnr" v="818269" />
	</node>
	<node lat="60.060316664405704" lon="9.07781389640018" id="-19595">
		<tag k="name" v="Gråberget" />
		<tag k="natural" v="hill" />
		<tag k="place" v="locality" />
		<tag k="ssr:stedsnr" v="818285" />
	</node>
	<node lat="60.044911109024206" lon="9.373433337220984" id="-19596">
		<tag k="name" v="Grønlie" />
		<tag k="natural" v="slope" />
		<tag k="place" v="locality" />
		<tag k="ssr:stedsnr" v="817640" />
	</node>
	<node lat="60.00323611462622" lon="9.319855562554782" id="-19598">
		<tag k="name" v="Ingridsåsen" />
		<tag k="natural" v="ridge" />
		<tag k="place" v="locality" />
		<tag k="ssr:stedsnr" v="817750" />
	</node>
	<node lat="59.9633472225041" lon="9.322174995102735" id="-19599">
		<tag k="name" v="Ulvestupet" />
		<tag k="natural" v="slope" />
		<tag k="place" v="locality" />
		<tag k="ssr:stedsnr" v="818946" />
	</node>
	<node lat="60.03276388900969" lon="9.26810277518736" id="-19601">
		<tag k="name" v="Trollhovddalen" />
		<tag k="natural" v="valley" />
		<tag k="place" v="locality" />
		<tag k="ssr:stedsnr" v="817862" />
	</node>
	<node lat="60.02677222009028" lon="9.252213882274438" id="-19602">
		<tag k="name" v="Helleberget" />
		<tag k="natural" v="hill" />
		<tag k="place" v="locality" />
		<tag k="ssr:stedsnr" v="817867" />
	</node>
	<node lat="60.06254444592158" lon="9.204019443884386" id="-19604">
		<tag k="name" v="Hallingkøs" />
		<tag k="place" v="locality" />
		<tag k="ssr:stedsnr" v="818141" />
	</node>
	<node lat="60.05198333295793" lon="9.158361111554477" id="-19610">
		<tag k="name" v="Stordal" />
		<tag k="natural" v="valley" />
		<tag k="place" v="locality" />
		<tag k="ssr:stedsnr" v="818326" />
	</node>
	<node lat="60.03563611151561" lon="9.15096666504045" id="-19620">
		<tag k="name" v="Kvasshaug" />
		<tag k="natural" v="hill" />
		<tag k="place" v="locality" />
		<tag k="ssr:stedsnr" v="818659" />
	</node>
	<node lat="59.97538055195252" lon="9.108963881139282" id="-19623">
		<tag k="name" v="Bubbenutdalen" />
		<tag k="natural" v="valley" />
		<tag k="place" v="locality" />
		<tag k="ssr:stedsnr" v="818704" />
	</node>
	<node lat="59.95431944887737" lon="9.36893889103901" id="-19625">
		<tag k="name" v="Kittillydalen" />
		<tag k="natural" v="valley" />
		<tag k="place" v="locality" />
		<tag k="ssr:stedsnr" v="818775" />
	</node>
	<node lat="59.94516388705452" lon="9.310319452870452" id="-19627">
		<tag k="name" v="Surtedalen" />
		<tag k="natural" v="valley" />
		<tag k="place" v="locality" />
		<tag k="ssr:stedsnr" v="818786" />
	</node>
	<node lat="59.95401666232082" lon="9.345375000712309" id="-19629">
		<tag k="name" v="Rundåsen" />
		<tag k="natural" v="hill" />
		<tag k="place" v="locality" />
		<tag k="ssr:stedsnr" v="818809" />
	</node>
	<node lat="59.95952222235725" lon="9.352194437224307" id="-19630">
		<tag k="name" v="Vrågåhallet" />
		<tag k="natural" v="slope" />
		<tag k="place" v="locality" />
		<tag k="ssr:stedsnr" v="818818" />
	</node>
	<node lat="59.911252779390324" lon="9.321355562934027" id="-19631">
		<tag k="fixme" v="consider natural=peak for the most distinct mountains in the district" />
		<tag k="name" v="Smattebergåsen" />
		<tag k="natural" v="hill" />
		<tag k="place" v="locality" />
		<tag k="ssr:stedsnr" v="818868" />
	</node>
	<node lat="59.90261388497985" lon="9.312911115647964" id="-19632">
		<tag k="name" v="Flaberga" />
		<tag k="natural" v="slope" />
		<tag k="place" v="locality" />
		<tag k="ssr:stedsnr" v="818870" />
	</node>
	<node lat="59.971255558972956" lon="9.189508331808264" id="-19634">
		<tag k="name" v="Trappin" />
		<tag k="natural" v="valley" />
		<tag k="place" v="locality" />
		<tag k="ssr:stedsnr" v="819000" />
	</node>
	<node lat="59.99426388983815" lon="9.228052770712901" id="-19635">
		<tag k="name" v="Ståvåfjellhallin" />
		<tag k="natural" v="slope" />
		<tag k="place" v="locality" />
		<tag k="ssr:stedsnr" v="818893" />
	</node>
	<node lat="59.96190277348639" lon="9.28308889296519" id="-19636">
		<tag k="name" v="Høgåsen" />
		<tag k="natural" v="cliff" />
		<tag k="ssr:stedsnr" v="818955" />
	</node>
	<node lat="59.98843055725618" lon="9.380699998626152" id="-19644">
		<tag k="fixme" v="consider natural=peak for the most distinct mountains in the district" />
		<tag k="name" v="Langevassåsen" />
		<tag k="natural" v="hill" />
		<tag k="place" v="locality" />
		<tag k="ssr:stedsnr" v="853282" />
	</node>
	<node lat="60.01747222541525" lon="8.987947230793687" id="-19650">
		<tag k="loc_name" v="Skirvenatten" />
		<tag k="name" v="Skirvenuten" />
		<tag k="natural" v="hill" />
		<tag k="place" v="locality" />
		<tag k="ssr:stedsnr" v="854290" />
	</node>
	<node lat="60.095202776806616" lon="9.239600004710315" id="-19651">
		<tag k="fixme" v="consider natural=peak for the most distinct mountains in the district" />
		<tag k="name" v="Meseterhøgde" />
		<tag k="natural" v="hill" />
		<tag k="place" v="locality" />
		<tag k="ssr:stedsnr" v="854392" />
	</node>
	<node lat="60.048761115629716" lon="9.11352222248666" id="-19652">
		<tag k="fixme" v="consider natural=peak for the most distinct mountains in the district" />
		<tag k="name" v="Tveitåsen" />
		<tag k="natural" v="hill" />
		<tag k="place" v="locality" />
		<tag k="ssr:stedsnr" v="854611" />
	</node>
	<node lat="60.11117499751827" lon="9.126688885942412" id="-19655">
		<tag k="name" v="Markasethaugen" />
		<tag k="natural" v="hill" />
		<tag k="place" v="locality" />
		<tag k="ssr:stedsnr" v="854523" />
	</node>
	<node lat="60.07783055913992" lon="8.992899999455922" id="-19658">
		<tag k="fixme" v="consider natural=peak for the most distinct mountains in the district" />
		<tag k="name" v="Storegrønut" />
		<tag k="natural" v="hill" />
		<tag k="place" v="locality" />
		<tag k="ssr:stedsnr" v="854680" />
	</node>
	<node lat="59.97388333384274" lon="9.050500007868843" id="-19665">
		<tag k="name" v="Dorsetdokken" />
		<tag k="natural" v="slope" />
		<tag k="place" v="locality" />
		<tag k="ssr:stedsnr" v="875503" />
	</node>
	<node lat="60.06790555901511" lon="9.117300001784885" id="-19667">
		<tag k="name" v="Saghaugen" />
		<tag k="natural" v="ridge" />
		<tag k="place" v="locality" />
		<tag k="ssr:stedsnr" v="878581" />
	</node>
	<node lat="59.99961944498383" lon="9.261936104503212" id="-19668">
		<tag k="name" v="Hengeskørr" />
		<tag k="natural" v="valley" />
		<tag k="place" v="locality" />
		<tag k="ssr:stedsnr" v="878584" />
	</node>
	<node lat="60.03024721888818" lon="9.24394443665902" id="-19671">
		<tag k="name" v="Sagbakken" />
		<tag k="natural" v="slope" />
		<tag k="place" v="locality" />
		<tag k="ssr:stedsnr" v="878247" />
	</node>
	<node lat="60.03028056003977" lon="9.01729167485926" id="-19673">
		<tag k="name" v="Veadalen" />
		<tag k="natural" v="valley" />
		<tag k="place" v="locality" />
		<tag k="ssr:stedsnr" v="878470" />
	</node>
	<node lat="60.038058329635916" lon="9.218147215155135" id="-19674">
		<tag k="name" v="Brudeberget" />
		<tag k="natural" v="ridge" />
		<tag k="place" v="locality" />
		<tag k="ssr:stedsnr" v="878276" />
	</node>
	<node lat="60.046441669166676" lon="9.176969437876142" id="-19676">
		<tag k="name" v="Mydalen" />
		<tag k="natural" v="valley" />
		<tag k="place" v="locality" />
		<tag k="ssr:stedsnr" v="878281" />
	</node>
	<node lat="60.04853055572223" lon="9.11642500137968" id="-19677">
		<tag k="name" v="Kalveløypa" />
		<tag k="natural" v="cliff" />
		<tag k="ssr:stedsnr" v="878287" />
	</node>
	<node lat="60.046338892280765" lon="9.118477785693841" id="-19678">
		<tag k="name" v="Hesteberget" />
		<tag k="natural" v="slope" />
		<tag k="place" v="locality" />
		<tag k="ssr:stedsnr" v="878288" />
	</node>
	<node lat="60.06055000430843" lon="9.171577778043401" id="-19680">
		<tag k="fixme" v="consider natural=peak for the most distinct mountains in the district" />
		<tag k="name" v="Ingebretsåsen" />
		<tag k="natural" v="hill" />
		<tag k="place" v="locality" />
		<tag k="ssr:stedsnr" v="878350" />
	</node>
	<node lat="60.05539444257633" lon="9.17183332741367" id="-19681">
		<tag k="name" v="Oreflaten" />
		<tag k="place" v="locality" />
		<tag k="ssr:stedsnr" v="878352" />
	</node>
	<node lat="60.0546166630113" lon="9.143666660419115" id="-19682">
		<tag k="name" v="Ospevikje" />
		<tag k="natural" v="valley" />
		<tag k="place" v="locality" />
		<tag k="ssr:stedsnr" v="878363" />
	</node>
	<node lat="60.058452781152035" lon="9.182911108527135" id="-19683">
		<tag k="name" v="Helleren" />
		<tag k="place" v="locality" />
		<tag k="ssr:stedsnr" v="878370" />
	</node>
	<node lat="60.014513889454356" lon="9.228099997889748" id="-19685">
		<tag k="name" v="Løyndomskjelleren" />
		<tag k="natural" v="cliff" />
		<tag k="ssr:stedsnr" v="878808" />
	</node>
	<node lat="59.88421944227708" lon="9.21178332980755" id="-19687">
		<tag k="name" v="Revlihallin" />
		<tag k="natural" v="slope" />
		<tag k="place" v="locality" />
		<tag k="ssr:stedsnr" v="878814" />
	</node>
	<node lat="59.90006110867982" lon="9.19910554818298" id="-19688">
		<tag k="name" v="Storegrøhallin" />
		<tag k="natural" v="slope" />
		<tag k="place" v="locality" />
		<tag k="ssr:stedsnr" v="878819" />
	</node>
	<node lat="59.96518611327997" lon="9.352338889365509" id="-19689">
		<tag k="name" v="Vrågåli" />
		<tag k="natural" v="slope" />
		<tag k="place" v="locality" />
		<tag k="ssr:stedsnr" v="878828" />
	</node>
	<node lat="59.97784167052846" lon="9.362397216466361" id="-19693">
		<tag k="fixme" v="consider natural=peak for the most distinct mountains in the district" />
		<tag k="name" v="Høghaugen" />
		<tag k="natural" v="hill" />
		<tag k="place" v="locality" />
		<tag k="ssr:stedsnr" v="878838" />
	</node>
	<node lat="60.01151666249914" lon="9.2640777714051" id="-19699">
		<tag k="name" v="Beinstigberget" />
		<tag k="natural" v="hill" />
		<tag k="place" v="locality" />
		<tag k="ssr:stedsnr" v="878991" />
	</node>
	<node lat="60.00920000083449" lon="9.379705546840608" id="-19700">
		<tag k="name" v="Skåli" />
		<tag k="natural" v="slope" />
		<tag k="place" v="locality" />
		<tag k="ssr:stedsnr" v="878947" />
	</node>
	<node lat="59.98815833111652" lon="9.321922229029038" id="-19702">
		<tag k="name" v="Vasedokkhaugen" />
		<tag k="natural" v="hill" />
		<tag k="place" v="locality" />
		<tag k="ssr:stedsnr" v="879896" />
	</node>
	<node lat="60.042047219284626" lon="9.385316664900339" id="-19703">
		<tag k="name" v="Grunntjønnlie" />
		<tag k="natural" v="slope" />
		<tag k="place" v="locality" />
		<tag k="ssr:stedsnr" v="879922" />
	</node>
	<node lat="60.08398055883119" lon="9.28170278242462" id="-19707">
		<tag k="name" v="Nysetlian" />
		<tag k="natural" v="slope" />
		<tag k="place" v="locality" />
		<tag k="ssr:stedsnr" v="939119" />
	</node>
	<node lat="60.04934166237888" lon="8.994769439296919" id="-19708">
		<tag k="name" v="Hvilingshaugen" />
		<tag k="natural" v="hill" />
		<tag k="place" v="locality" />
		<tag k="ssr:stedsnr" v="939123" />
	</node>
	<node lat="59.97073055978805" lon="9.058152785006143" id="-19710">
		<tag k="name" v="Vestligrøn" />
		<tag k="natural" v="slope" />
		<tag k="place" v="locality" />
		<tag k="ssr:stedsnr" v="939190" />
	</node>
	<node lat="60.04637778087389" lon="9.196586113434103" id="-19714">
		<tag k="name" v="Flatin" />
		<tag k="place" v="locality" />
		<tag k="ssr:stedsnr" v="939158" />
	</node>
	<node lat="59.88764166443961" lon="9.188049998587926" id="-19715">
		<tag k="name" v="Vesle Åklinuten" />
		<tag k="natural" v="ridge" />
		<tag k="place" v="locality" />
		<tag k="ssr:stedsnr" v="939171" />
	</node>
	<node lat="60.04212777477758" lon="9.236247228281124" id="-19716">
		<tag k="name" v="Treåshaugen" />
		<tag k="natural" v="hill" />
		<tag k="place" v="locality" />
		<tag k="ssr:stedsnr" v="939259" />
	</node>
	<node lat="60.04680277847004" lon="9.11541943654228" id="-19717">
		<tag k="name" v="Geiteskørrin" />
		<tag k="natural" v="valley" />
		<tag k="place" v="locality" />
		<tag k="ssr:stedsnr" v="939274" />
	</node>
	<node lat="60.10676666671918" lon="9.22170555286504" id="-19718">
		<tag k="fixme" v="consider natural=peak for the most distinct mountains in the district" />
		<tag k="name" v="Damtjønnhøgde" />
		<tag k="natural" v="hill" />
		<tag k="place" v="locality" />
		<tag k="ssr:stedsnr" v="939398" />
	</node>
	<node lat="60.08759999930585" lon="9.137772229852894" id="-19720">
		<tag k="fixme" v="consider natural=peak for the most distinct mountains in the district" />
		<tag k="name" v="Årveltaåsen" />
		<tag k="natural" v="hill" />
		<tag k="place" v="locality" />
		<tag k="ssr:stedsnr" v="939513" />
	</node>
	<node lat="60.0973999998403" lon="9.184422222601352" id="-19721">
		<tag k="name" v="Smylehaug" />
		<tag k="natural" v="hill" />
		<tag k="place" v="locality" />
		<tag k="ssr:stedsnr" v="939520" />
	</node>
	<node lat="60.10130555193016" lon="9.136463897646808" id="-19722">
		<tag k="name" v="Høghaug" />
		<tag k="natural" v="hill" />
		<tag k="place" v="locality" />
		<tag k="ssr:stedsnr" v="939525" />
	</node>
	<node lat="60.021733335889095" lon="9.02319166957976" id="-19723">
		<tag k="name" v="Rotihaug" />
		<tag k="natural" v="hill" />
		<tag k="place" v="locality" />
		<tag k="ssr:stedsnr" v="939455" />
	</node>
	<node lat="60.00974167075747" lon="9.02678055387896" id="-19724">
		<tag k="name" v="Gyggerhaugen" />
		<tag k="natural" v="hill" />
		<tag k="place" v="locality" />
		<tag k="ssr:stedsnr" v="939459" />
	</node>
	<node lat="60.1254416634518" lon="9.173730556960091" id="-19725">
		<tag k="name" v="Hovdeåsen" />
		<tag k="natural" v="slope" />
		<tag k="place" v="locality" />
		<tag k="ssr:stedsnr" v="939471" />
	</node>
	<node lat="60.039291663350085" lon="9.31263332717892" id="-19729">
		<tag k="name" v="Lefseli" />
		<tag k="natural" v="slope" />
		<tag k="place" v="locality" />
		<tag k="ssr:stedsnr" v="939642" />
	</node>
	<node lat="59.99959721917227" lon="9.408022219908645" id="-19736">
		<tag k="name" v="Søysetlie" />
		<tag k="natural" v="slope" />
		<tag k="place" v="locality" />
		<tag k="ssr:stedsnr" v="939898" />
	</node>
	<node lat="60.02873889187899" lon="9.33614166287935" id="-19739">
		<tag k="name" v="Geiteryggen" />
		<tag k="natural" v="ridge" />
		<tag k="place" v="locality" />
		<tag k="ssr:stedsnr" v="939654" />
	</node>
	<node lat="60.02041944525073" lon="9.124183337397891" id="-19742">
		<tag k="name" v="Langeli" />
		<tag k="natural" v="slope" />
		<tag k="place" v="locality" />
		<tag k="ssr:stedsnr" v="939672" />
	</node>
	<node lat="60.008791670361816" lon="9.28085833938421" id="-19744">
		<tag k="name" v="Tjuvehaugen" />
		<tag k="natural" v="hill" />
		<tag k="place" v="locality" />
		<tag k="ssr:stedsnr" v="939762" />
	</node>
	<node lat="60.043755559763" lon="9.219886108337581" id="-19747">
		<tag k="name" v="Lauvvasshølet" />
		<tag k="natural" v="slope" />
		<tag k="place" v="locality" />
		<tag k="ssr:stedsnr" v="939851" />
	</node>
	<node lat="59.98238889199357" lon="9.219602770373903" id="-19750">
		<tag k="name" v="Skjørkleiv" />
		<tag k="natural" v="slope" />
		<tag k="place" v="locality" />
		<tag k="ssr:stedsnr" v="939879" />
	</node>
	<node lat="60.02580833255205" lon="9.034341660152343" id="-19755">
		<tag k="name" v="Vegglifjell" />
		<tag k="natural" v="mountain_range" />
		<tag k="ssr:stedsnr" v="969370" />
	</node>
</osm>
