<?xml version="1.0" encoding="UTF-8"?>
<osm generator="osmapis" version="0.6">
	<node id="-64" lat="58.1250000019" lon="11.4541666674">
		<tag k="name" v="Hälleviksstrand" />
		<tag k="name:sv" v="Hälleviksstrand" />
		<tag k="place" v="village" />
		<tag k="ssr:stedsnr" v="363714" />
	</node>
	<node id="-382" lat="70.4365200155" lon="-22.6526118535">
		<tag k="fixme" v="multiple name tags, choose one and add the other to alt_name" />
		<tag k="name" v="Ittoqqortoormiit;Scoresbysund" />
		<tag k="place" v="village" />
		<tag k="ssr:stedsnr" v="117036" />
	</node>
	<node id="-277" lat="62.0186361604" lon="-6.79387448019">
		<tag k="name" v="Thorshavn" />
		<tag k="name:da" v="Thorshavn" />
		<tag k="place" v="town" />
		<tag k="ssr:stedsnr" v="830173" />
	</node>
	<node id="-379" lat="58.6916666682" lon="11.2569444509">
		<tag k="name" v="Grebbestad" />
		<tag k="name:sv" v="Grebbestad" />
		<tag k="place" v="village" />
		<tag k="ssr:stedsnr" v="60801" />
	</node>
	<node id="-247" lat="65.2676118243" lon="-14.0509857674">
		<tag k="name" v="Seydisfjørdur" />
		<tag k="name:is" v="Seydisfjørdur" />
		<tag k="place" v="village" />
		<tag k="ssr:stedsnr" v="769887" />
	</node>
	<node id="-630" lat="59.9131287411" lon="30.4020566175">
		<tag k="name" v="St.Petersburg" />
		<tag k="place" v="town" />
		<tag k="ssr:stedsnr" v="891609" />
	</node>
	<node id="-322" lat="58.5541666638" lon="11.2791666588">
		<tag k="name" v="Hamburgsund" />
		<tag k="name:sv" v="Hamburgsund" />
		<tag k="place" v="village" />
		<tag k="ssr:stedsnr" v="849795" />
	</node>
	<node id="-372" lat="65.6161214891" lon="-37.636021411">
		<tag k="fixme" v="multiple name tags, choose one and add the other to alt_name; consider place=suburb, village or hamlet" />
		<tag k="name" v="Ammassalik;Tasiilaq" />
		<tag k="name:kl" v="Ammassalik;Tasiilaq" />
		<tag k="place" v="quarter" />
		<tag k="ssr:stedsnr" v="56101" />
	</node>
	<node id="-242" lat="69.5416667813" lon="31.1749971516">
		<tag k="name" v="Petsjenga" />
		<tag k="name:ru" v="Petsjenga" />
		<tag k="place" v="village" />
		<tag k="ssr:stedsnr" v="667938" />
	</node>
	<node id="-113" lat="58.4416666684" lon="11.6750000061">
		<tag k="name" v="Munkedals hamn" />
		<tag k="name:sv" v="Munkedals hamn" />
		<tag k="place" v="village" />
		<tag k="ssr:stedsnr" v="424753" />
	</node>
	<node id="-240" lat="56.7749999956" lon="8.31666667079">
		<tag k="name" v="Vestervig" />
		<tag k="name:da" v="Vestervig" />
		<tag k="place" v="village" />
		<tag k="ssr:stedsnr" v="667833" />
	</node>
	<node id="-237" lat="57.149999997" lon="10.3999999983">
		<tag k="name" v="Asaa" />
		<tag k="name:da" v="Asaa" />
		<tag k="place" v="village" />
		<tag k="ssr:stedsnr" v="667786" />
	</node>
	<node id="-235" lat="57.411111107" lon="9.7499999956">
		<tag k="name" v="Nørre Lyngby" />
		<tag k="name:da" v="Nørre Lyngby" />
		<tag k="place" v="village" />
		<tag k="ssr:stedsnr" v="667777" />
	</node>
	<node id="-234" lat="57.4999999986" lon="10.491666661">
		<tag k="name" v="Strandby" />
		<tag k="name:da" v="Strandby" />
		<tag k="place" v="village" />
		<tag k="ssr:stedsnr" v="667771" />
	</node>
	<node id="-233" lat="57.2499999965" lon="9.5833333323">
		<tag k="name" v="Blokhus" />
		<tag k="name:da" v="Blokhus" />
		<tag k="place" v="village" />
		<tag k="ssr:stedsnr" v="667755" />
	</node>
	<node id="-232" lat="58.2166666678" lon="11.4249999923">
		<tag k="fixme" v="consider place=suburb, village or hamlet" />
		<tag k="name" v="Grundsund" />
		<tag k="name:sv" v="Grundsund" />
		<tag k="place" v="quarter" />
		<tag k="ssr:stedsnr" v="667728" />
	</node>
	<node id="-444" lat="56.7833333305" lon="8.24166665903">
		<tag k="name" v="Agger" />
		<tag k="name:da" v="Agger" />
		<tag k="place" v="village" />
		<tag k="ssr:stedsnr" v="242840" />
	</node>
	<node id="-862" lat="69.7847194573" lon="26.226224635">
		<tag k="name" v="Nuvvos" />
		<tag k="name:se" v="Nuvvos" />
		<tag k="place" v="hamlet" />
		<tag k="ssr:stedsnr" v="211679" />
	</node>
	<node id="-345" lat="58.2333333349" lon="11.6791666624">
		<tag k="name" v="Henån" />
		<tag k="name:sv" v="Henån" />
		<tag k="place" v="village" />
		<tag k="ssr:stedsnr" v="970425" />
	</node>
	<node id="-855" lat="57.5958333375" lon="10.4166666621">
		<tag k="name" v="Ålbæk" />
		<tag k="name:da" v="Ålbæk" />
		<tag k="place" v="village" />
		<tag k="ssr:stedsnr" v="182786" />
	</node>
	<node id="-340" lat="56.9805555522" lon="8.4166666704">
		<tag k="name" v="Torup" />
		<tag k="name:da" v="Torup" />
		<tag k="place" v="village" />
		<tag k="ssr:stedsnr" v="970392" />
	</node>
	<node id="-386" lat="58.2166666667" lon="11.9263888927">
		<tag k="name" v="Ljungskile" />
		<tag k="name:sv" v="Ljungskile" />
		<tag k="place" v="village" />
		<tag k="ssr:stedsnr" v="121743" />
	</node>
	<node id="-462" lat="57.3333333305" lon="10.516666671">
		<tag k="name" v="Sæby" />
		<tag k="name:da" v="Sæby" />
		<tag k="place" v="village" />
		<tag k="ssr:stedsnr" v="303813" />
	</node>
	<node id="-461" lat="57.2111111088" lon="10.4875000007">
		<tag k="name" v="Voerså" />
		<tag k="name:da" v="Voerså" />
		<tag k="place" v="village" />
		<tag k="ssr:stedsnr" v="303810" />
	</node>
	<node id="-460" lat="57.5833333339" lon="10.1833333407">
		<tag k="name" v="Tversted" />
		<tag k="name:da" v="Tversted" />
		<tag k="place" v="village" />
		<tag k="ssr:stedsnr" v="303771" />
	</node>
	<node id="-459" lat="58.3625" lon="11.2583333342">
		<tag k="name" v="Kungshamn" />
		<tag k="name:sv" v="Kungshamn" />
		<tag k="place" v="village" />
		<tag k="ssr:stedsnr" v="303762" />
	</node>
	<node id="-330" lat="69.3984111265" lon="25.8445496498">
		<tag k="name" v="Karigasniemi" />
		<tag k="name:fkv" v="Karigasniemi" />
		<tag k="place" v="hamlet" />
		<tag k="ssr:stedsnr" v="868021" />
	</node>
	<node id="-71" lat="57.0666666639" lon="9.92500000726">
		<tag k="name" v="Nørresundby" />
		<tag k="name:da" v="Nørresundby" />
		<tag k="place" v="suburb" />
		<tag k="ssr:stedsnr" v="364855" />
	</node>
	<node id="-710" lat="58.4402777757" lon="11.3041666736">
		<tag k="name" v="Hunnebostrand" />
		<tag k="name:sv" v="Hunnebostrand" />
		<tag k="place" v="village" />
		<tag k="ssr:stedsnr" v="788756" />
	</node>
	<node id="-581" lat="69.5761139987" lon="31.3088331614">
		<tag k="name" v="Petsamo" />
		<tag k="name:fi" v="Petsamo" />
		<tag k="place" v="village" />
		<tag k="ssr:stedsnr" v="708166" />
	</node>
	<node id="-109" lat="69.8208334571" lon="32.0333297503">
		<tag k="name" v="Semljanoi Rybatchij" />
		<tag k="name:ru" v="Semljanoi Rybatchij" />
		<tag k="place" v="village" />
		<tag k="ssr:stedsnr" v="728560" />
	</node>
	<node id="-118" lat="57.0333333296" lon="9.93333333302">
		<tag k="name" v="Ålborg" />
		<tag k="name:da" v="Ålborg" />
		<tag k="place" v="town" />
		<tag k="ssr:stedsnr" v="424834" />
	</node>
	<node id="-66" lat="58.6000000024" lon="11.2916666645">
		<tag k="name" v="Fjällbacka" />
		<tag k="name:sv" v="Fjällbacka" />
		<tag k="place" v="village" />
		<tag k="ssr:stedsnr" v="363751" />
	</node>
	<node id="-577" lat="57.6500000004" lon="11.8666666618">
		<tag k="name" v="Fiskebäck" />
		<tag k="name:sv" v="Fiskebäck" />
		<tag k="place" v="suburb" />
		<tag k="ssr:stedsnr" v="606856" />
	</node>
	<node id="-320" lat="57.9888888896" lon="11.555555555">
		<tag k="name" v="Skärhamn" />
		<tag k="name:sv" v="Skärhamn" />
		<tag k="place" v="village" />
		<tag k="ssr:stedsnr" v="849780" />
	</node>
	<node id="-319" lat="58.1833333324" lon="11.480555563">
		<tag k="name" v="Ellös" />
		<tag k="name:sv" v="Ellös" />
		<tag k="place" v="village" />
		<tag k="ssr:stedsnr" v="849772" />
	</node>
	<node id="-830" lat="69.0406222883" lon="29.1104151982">
		<tag k="landuse" v="military" />
		<tag k="name" v="Barakker" />
		<tag k="name:ru" v="Barakker" />
		<tag k="ssr:stedsnr" v="42143" />
	</node>
	<node id="-701" lat="57.4916666692" lon="9.85416667467">
		<tag k="name" v="Lønstrup" />
		<tag k="name:da" v="Lønstrup" />
		<tag k="place" v="village" />
		<tag k="ssr:stedsnr" v="910797" />
	</node>
	<node id="-700" lat="57.3708333319" lon="9.71666667282">
		<tag k="name" v="Løkken" />
		<tag k="name:da" v="Løkken" />
		<tag k="place" v="village" />
		<tag k="ssr:stedsnr" v="910793" />
	</node>
	<node id="-699" lat="58.1416666678" lon="11.8291666583">
		<tag k="name" v="Svanesund" />
		<tag k="name:sv" v="Svanesund" />
		<tag k="place" v="village" />
		<tag k="ssr:stedsnr" v="910775" />
	</node>
	<node id="-442" lat="56.9625000042" lon="10.2666666657">
		<tag k="name" v="Egense" />
		<tag k="name:da" v="Egense" />
		<tag k="place" v="village" />
		<tag k="ssr:stedsnr" v="242810" />
	</node>
	<node id="-569" lat="65.6161214891" lon="-37.636021411">
		<tag k="fixme" v="consider place=suburb, village or hamlet" />
		<tag k="name" v="Ïsbassen" />
		<tag k="place" v="quarter" />
		<tag k="ssr:stedsnr" v="604009" />
	</node>
	<node id="-696" lat="58.3500000044" lon="11.9333333333">
		<tag k="name" v="Uddevalla" />
		<tag k="name:sv" v="Uddevalla" />
		<tag k="place" v="town" />
		<tag k="ssr:stedsnr" v="910760" />
	</node>
	<node id="-180" lat="58.5791666653" lon="11.0666666731">
		<tag k="name" v="Väderöarna" />
		<tag k="name:sv" v="Väderöarna" />
		<tag k="place" v="town" />
		<tag k="ssr:stedsnr" v="606781" />
	</node>
	<node id="-693" lat="58.0749999997" lon="11.4805555539">
		<tag k="name" v="Mollösund" />
		<tag k="name:sv" v="Mollösund" />
		<tag k="place" v="village" />
		<tag k="ssr:stedsnr" v="910737" />
	</node>
	<node id="-436" lat="57.875000001" lon="11.975000001">
		<tag k="name" v="Kungälv" />
		<tag k="name:sv" v="Kungälv" />
		<tag k="place" v="town" />
		<tag k="ssr:stedsnr" v="242725" />
	</node>
	<node id="-350" lat="56.9222222218" lon="8.35833332935">
		<tag k="name" v="Stenbjerg" />
		<tag k="name:da" v="Stenbjerg" />
		<tag k="place" v="village" />
		<tag k="ssr:stedsnr" v="970552" />
	</node>
	<node id="-817" lat="57.2916666646" lon="10.9250000019">
		<tag k="name" v="Vesterø" />
		<tag k="name:da" v="Vesterø" />
		<tag k="place" v="village" />
		<tag k="ssr:stedsnr" v="60837" />
	</node>
	<node id="-175" lat="56.9944444408" lon="10.3083333411">
		<tag k="name" v="Hals" />
		<tag k="name:da" v="Hals" />
		<tag k="place" v="village" />
		<tag k="ssr:stedsnr" v="545820" />
	</node>
	<node id="-813" lat="58.3638888911" lon="11.2291666658">
		<tag k="name" v="Smögen" />
		<tag k="name:sv" v="Smögen" />
		<tag k="place" v="village" />
		<tag k="ssr:stedsnr" v="60785" />
	</node>
	<node id="-391" lat="58.2708333327" lon="11.4333333321">
		<tag k="name" v="Lysekil" />
		<tag k="name:sv" v="Lysekil" />
		<tag k="place" v="town" />
		<tag k="ssr:stedsnr" v="121769" />
	</node>
	<node id="-807" lat="69.5875001136" lon="31.3333303519">
		<tag k="name" v="Gagarka" />
		<tag k="name:ru" v="Gagarka" />
		<tag k="place" v="village" />
		<tag k="ssr:stedsnr" v="60553" />
	</node>
	<node id="-189" lat="68.9768197455" lon="33.1175574675">
		<tag k="name" v="Murmansk" />
		<tag k="name:ru" v="Murmansk" />
		<tag k="place" v="town" />
		<tag k="ssr:stedsnr" v="647183" />
	</node>
	<node id="-802" lat="80.2646462838" lon="52.3832809116">
		<tag k="name" v="Tikhaya Bay" />
		<tag k="place" v="hamlet" />
		<tag k="ssr:stedsnr" v="58124" />
	</node>
	<node id="-670" lat="60.1535944476" lon="-1.18467220646">
		<tag k="name" v="Lerwick" />
		<tag k="name:en" v="Lerwick" />
		<tag k="place" v="town" />
		<tag k="ssr:stedsnr" v="768229" />
	</node>
	<node id="-69" lat="57.7250000012" lon="10.5749999981">
		<tag k="name" v="Skagen" />
		<tag k="name:da" v="Skagen" />
		<tag k="place" v="town" />
		<tag k="ssr:stedsnr" v="363818" />
	</node>
	<node id="-65" lat="57.5249999974" lon="9.94999999202">
		<tag k="name" v="Tornby" />
		<tag k="name:da" v="Tornby" />
		<tag k="place" v="village" />
		<tag k="ssr:stedsnr" v="363745" />
	</node>
	<node id="-268" lat="56.8999999991" lon="10.258333339">
		<tag k="name" v="Dokkedal" />
		<tag k="name:da" v="Dokkedal" />
		<tag k="place" v="hamlet" />
		<tag k="ssr:stedsnr" v="788822" />
	</node>
	<node id="-857" lat="57.1124999964" lon="8.60000000385">
		<tag k="name" v="Hanstholm" />
		<tag k="name:da" v="Hanstholm" />
		<tag k="place" v="town" />
		<tag k="ssr:stedsnr" v="182832" />
	</node>
	<node id="-167" lat="57.0416666672" lon="8.5083333323">
		<tag k="name" v="Klitmøller" />
		<tag k="name:da" v="Klitmøller" />
		<tag k="place" v="village" />
		<tag k="ssr:stedsnr" v="545728" />
	</node>
	<node id="-103" lat="69.7724195325" lon="30.8520087208">
		<tag k="landuse" v="military" />
		<tag k="name" v="Barakker" />
		<tag k="name:ru" v="Barakker" />
		<tag k="ssr:stedsnr" v="421120" />
	</node>
	<node id="-654" lat="57.883333334" lon="11.5749999956">
		<tag k="name" v="Marstrand" />
		<tag k="name:sv" v="Marstrand" />
		<tag k="place" v="town" />
		<tag k="ssr:stedsnr" v="728723" />
	</node>
	<node id="-478" lat="68.8713697462" lon="33.0334102531">
		<tag k="name" v="Kola" />
		<tag k="name:ru" v="Kola" />
		<tag k="place" v="town" />
		<tag k="ssr:stedsnr" v="465129" />
	</node>
	<node id="-524" lat="56.8233333358" lon="8.26333333699">
		<tag k="name" v="Lodbjerg" />
		<tag k="name:da" v="Lodbjerg" />
		<tag k="place" v="village" />
		<tag k="ssr:stedsnr" v="485848" />
	</node>
	<node id="-395" lat="56.8041666682" lon="10.2666666593">
		<tag k="name" v="Øster Hurup" />
		<tag k="name:da" v="Øster Hurup" />
		<tag k="place" v="village" />
		<tag k="ssr:stedsnr" v="121828" />
	</node>
	<node id="-265" lat="58.9403250443" lon="11.1737155797">
		<tag k="name" v="Strömstad" />
		<tag k="name:sv" v="Strömstad" />
		<tag k="place" v="town" />
		<tag k="ssr:stedsnr" v="788764" />
	</node>
	<node id="-107" lat="76.7667632592" lon="-18.6663071372">
		<tag k="name" v="Danmarkshavn" />
		<tag k="place" v="hamlet" />
		<tag k="ssr:stedsnr" v="422112" />
	</node>
	<node id="-519" lat="57.0583333308" lon="10.3749999961">
		<tag k="name" v="Hou" />
		<tag k="name:da" v="Hou" />
		<tag k="place" v="village" />
		<tag k="ssr:stedsnr" v="485810" />
	</node>
	<node id="-518" lat="57.316666664" lon="11.1250000047">
		<tag k="name" v="Østerby" />
		<tag k="name:da" v="Østerby" />
		<tag k="place" v="village" />
		<tag k="ssr:stedsnr" v="485777" />
	</node>
	<node id="-261" lat="58.0722222207" lon="11.8277777792">
		<tag k="name" v="Stenungsund" />
		<tag k="name:sv" v="Stenungsund" />
		<tag k="place" v="village" />
		<tag k="ssr:stedsnr" v="788743" />
	</node>
	<node id="-388" lat="56.9499999999" lon="8.37500000601">
		<tag k="name" v="Vorupør" />
		<tag k="name:da" v="Vorupør" />
		<tag k="place" v="village" />
		<tag k="ssr:stedsnr" v="121748" />
	</node>
	<node id="-899" lat="69.7625001129" lon="31.7166634226">
		<tag k="name" v="Poselok" />
		<tag k="name:ru" v="Poselok" />
		<tag k="place" v="village" />
		<tag k="ssr:stedsnr" v="424569" />
	</node>
	<node id="-898" lat="69.5958334385" lon="31.2333304789">
		<tag k="name" v="Trifona" />
		<tag k="name:ru" v="Trifona" />
		<tag k="place" v="village" />
		<tag k="ssr:stedsnr" v="424564" />
	</node>
	<node id="-513" lat="57.708333337" lon="11.9000000038">
		<tag k="name" v="Göteborg" />
		<tag k="name:sv" v="Göteborg" />
		<tag k="place" v="town" />
		<tag k="ssr:stedsnr" v="485712" />
	</node>
</osm>
