<?xml version="1.0" encoding="UTF-8"?>
<osm version="0.6" generator="osmapis">
	<node lat="69.66027785155468" lon="30.125553670586342" id="-33">
		<tag k="name" v="Boris Gleb" />
		<tag k="natural" v="cape" />
		<tag k="ssr:stedsnr" v="121599" />
	</node>
	<node lat="69.59378062546574" lon="30.177764723073384" id="-56">
		<tag k="name" v="Iso Palosaari" />
		<tag k="name:ru" v="Iso Palosaari" />
		<tag k="place" v="islet" />
		<tag k="ssr:stedsnr" v="102190" />
	</node>
	<node lat="69.30644450277272" lon="29.33766237278831" id="-70">
		<tag k="name" v="Brennholmen" />
		<tag k="place" v="islet" />
		<tag k="ssr:stedsnr" v="261119" />
	</node>
	<node lat="69.08649728690627" lon="29.243092915484805" id="-90">
		<tag k="name" v="Seigijoki" />
		<tag k="name:ru" v="Seigijoki" />
		<tag k="ssr:stedsnr" v="163122" />
		<tag k="waterway" v="stream" />
	</node>
	<node lat="69.16223617110377" lon="29.268701259087223" id="-91">
		<tag k="name" v="Fløtarholmen" />
		<tag k="place" v="islet" />
		<tag k="ssr:stedsnr" v="139040" />
	</node>
	<node lat="69.78221390261857" lon="26.219532954476435" id="-96">
		<tag k="name" v="Nuvvosnjálbmi" />
		<tag k="name:se" v="Nuvvosnjálbmi" />
		<tag k="natural" v="bay" />
		<tag k="ssr:stedsnr" v="211674" />
	</node>
	<node lat="69.94666390454039" lon="27.235660552711412" id="-106">
		<tag k="name" v="Luosnjársullot" />
		<tag k="name:se" v="Luosnjársullot" />
		<tag k="old_name:se" v="Luosnjarsullut" />
		<tag k="place" v="islet" />
		<tag k="ssr:stedsnr" v="270889" />
	</node>
	<node lat="69.12167784389217" lon="29.238429032298644" id="-108">
		<tag k="name" v="Aittasaari" />
		<tag k="name:ru" v="Aittasaari" />
		<tag k="place" v="islet" />
		<tag k="ssr:stedsnr" v="345140" />
	</node>
	<node lat="69.50535008106245" lon="30.14665913777312" id="-193">
		<tag k="name" v="Kontirjärvi" />
		<tag k="name:ru" v="Kontirjärvi" />
		<tag k="natural" v="water" />
		<tag k="ssr:stedsnr" v="526164" />
	</node>
	<node lat="69.31681672922082" lon="29.37882623809" id="-215">
		<tag k="name" v="Nivasaari" />
		<tag k="name:ru" v="Nivasaari" />
		<tag k="place" v="islet" />
		<tag k="ssr:stedsnr" v="527112" />
	</node>
	<node lat="69.16061117586004" lon="29.272023463885958" id="-216">
		<tag k="name" v="Jakolan Lammassaari" />
		<tag k="name:ru" v="Jakolan Lammassaari" />
		<tag k="place" v="islet" />
		<tag k="ssr:stedsnr" v="527113" />
	</node>
	<node lat="69.30253340119302" lon="29.562592776922738" id="-218">
		<tag k="name" v="Laukkujoki" />
		<tag k="name:ru" v="Laukkujoki" />
		<tag k="ssr:stedsnr" v="466106" />
		<tag k="waterway" v="stream" />
	</node>
	<node lat="80.02883055629819" lon="14.502333314118873" id="-247">
		<tag k="name" v="Moffen" />
		<tag k="place" v="island" />
		<tag k="ssr:stedsnr" v="660003" />
	</node>
	<node lat="57.83333333714029" lon="11.904166668140116" id="-285">
		<tag k="name" v="Nordre älv" />
		<tag k="name:sv" v="Nordre älv" />
		<tag k="ssr:stedsnr" v="182737" />
		<tag k="waterway" v="river" />
	</node>
	<node lat="69.0149583930657" lon="29.05756522338785" id="-321">
		<tag k="name" v="Korkeasaari" />
		<tag k="name:ru" v="Korkeasaari" />
		<tag k="place" v="islet" />
		<tag k="ssr:stedsnr" v="831138" />
	</node>
	<node lat="69.64856673578478" lon="30.09543702518775" id="-330">
		<tag k="name" v="Eskiejärvi" />
		<tag k="name:ru" v="Eskiejärvi" />
		<tag k="natural" v="water" />
		<tag k="ssr:stedsnr" v="769155" />
	</node>
	<node lat="69.59064730054045" lon="30.200417483796667" id="-331">
		<tag k="name" v="Livarinmukka" />
		<tag k="name:ru" v="Livarinmukka" />
		<tag k="natural" v="bay" />
		<tag k="ssr:stedsnr" v="769156" />
	</node>
	<node lat="69.16011395410824" lon="29.257176260723558" id="-345">
		<tag k="name" v="Kisteholmen" />
		<tag k="place" v="islet" />
		<tag k="ssr:stedsnr" v="139048" />
	</node>
	<node lat="69.14390839608974" lon="29.25110681456556" id="-379">
		<tag k="name" v="Niilansaari" />
		<tag k="name:ru" v="Niilansaari" />
		<tag k="place" v="islet" />
		<tag k="ssr:stedsnr" v="42136" />
	</node>
	<node lat="58.41227592295927" lon="-18.461810807832336" id="-421">
		<tag k="name" v="Hatton Bank" />
		<tag k="name:en" v="Hatton Bank" />
		<tag k="natural" v="shoal" />
		<tag k="ssr:stedsnr" v="223622" />
	</node>
	<node lat="69.01264450567281" lon="29.052665204955233" id="-432">
		<tag k="name" v="Aittasaari" />
		<tag k="name:ru" v="Aittasaari" />
		<tag k="place" v="islet" />
		<tag k="ssr:stedsnr" v="224153" />
	</node>
	<node lat="69.61161674806407" lon="30.330039614978922" id="-502">
		<tag k="name" v="Joosepinjärvet" />
		<tag k="name:ru" v="Joosepinjärvet" />
		<tag k="natural" v="water" />
		<tag k="ssr:stedsnr" v="405140" />
		<tag k="water" v="lake" />
	</node>
	<node lat="69.53789175605736" lon="30.668778175220986" id="-503">
		<tag k="name" v="Lasertunturi" />
		<tag k="name:ru" v="Lasertunturi" />
		<tag k="natural" v="water" />
		<tag k="ssr:stedsnr" v="405146" />
	</node>
	<node lat="69.5396667505554" lon="30.55572273652494" id="-504">
		<tag k="name" v="Kuasjärvi" />
		<tag k="name:ru" v="Kuasjärvi" />
		<tag k="natural" v="water" />
		<tag k="ssr:stedsnr" v="405149" />
	</node>
	<node lat="69.56477787374853" lon="30.950325174017124" id="-552">
		<tag k="name" v="Sulajoki" />
		<tag k="name:ru" v="Sulajoki" />
		<tag k="ssr:stedsnr" v="484119" />
		<tag k="waterway" v="stream" />
	</node>
	<node lat="69.01885005859033" lon="29.084567978953665" id="-596">
		<tag k="name" v="Heteoja" />
		<tag k="name:ru" v="Heteoja" />
		<tag k="ssr:stedsnr" v="587131" />
		<tag k="waterway" v="stream" />
	</node>
	<node lat="69.52484731714543" lon="30.7747475289081" id="-597">
		<tag k="name" v="Maatunturi" />
		<tag k="name:ru" v="Maatunturi" />
		<tag k="natural" v="water" />
		<tag k="ssr:stedsnr" v="587177" />
	</node>
	<node lat="69.4216306281421" lon="29.861239871731627" id="-609">
		<tag k="name" v="Karsimaniemi" />
		<tag k="name:ru" v="Karsimaniemi" />
		<tag k="natural" v="cape" />
		<tag k="ssr:stedsnr" v="588116" />
	</node>
	<node lat="69.41525007511311" lon="29.83267598814214" id="-610">
		<tag k="name" v="Huhmunsaari" />
		<tag k="name:ru" v="Huhmunsaari" />
		<tag k="place" v="islet" />
		<tag k="ssr:stedsnr" v="588117" />
	</node>
	<node lat="69.77728056555338" lon="26.20908850670566" id="-668">
		<tag k="name" v="Teahppansuolu" />
		<tag k="name:se" v="Teahppansuolu" />
		<tag k="place" v="islet" />
		<tag k="ssr:stedsnr" v="696685" />
	</node>
	<node lat="69.15658061650853" lon="29.26050403791733" id="-695">
		<tag k="name" v="Riitasaari" />
		<tag k="name:ru" v="Riitasaari" />
		<tag k="place" v="islet" />
		<tag k="ssr:stedsnr" v="709114" />
	</node>
	<node lat="69.58410563110276" lon="30.197650825445894" id="-779">
		<tag k="name" v="Sontamukka" />
		<tag k="name:ru" v="Sontamukka" />
		<tag k="natural" v="bay" />
		<tag k="ssr:stedsnr" v="891179" />
	</node>
	<node lat="69.17880561908673" lon="29.300065129331745" id="-789">
		<tag k="name" v="Tilisaari" />
		<tag k="name:ru" v="Tilisaari" />
		<tag k="place" v="islet" />
		<tag k="ssr:stedsnr" v="892095" />
	</node>
	<node lat="69.39616673299031" lon="29.781667681055897" id="-790">
		<tag k="name" v="Koskenniskanniemi" />
		<tag k="name:ru" v="Koskenniskanniemi" />
		<tag k="natural" v="cape" />
		<tag k="ssr:stedsnr" v="892101" />
	</node>
	<node lat="69.23980557121193" lon="25.70439132667951" id="-810">
		<tag k="name" v="Bálggassuolu" />
		<tag k="name:se" v="Bálggassuolu" />
		<tag k="place" v="islet" />
		<tag k="ssr:stedsnr" v="939094" />
	</node>
</osm>
