<?xml version="1.0" encoding="UTF-8"?>
<osm version="0.6" generator="osmapis">
	<node lat="57.111111113839726" lon="2.8458333290692366" id="-29">
		<tag k="fixme" v="multiple name tags, choose one and add the other to alt_name" />
		<tag k="man_made" v="offshore_platform" />
		<tag k="name" v="Ula PP;Ula PP" />
		<tag k="seamark:type" v="platform" />
		<tag k="ssr:stedsnr" v="57102" />
	</node>
	<node lat="57.111111113839726" lon="2.8458333290692366" id="-42">
		<tag k="fixme" v="multiple name tags, choose one and add the other to alt_name" />
		<tag k="man_made" v="offshore_platform" />
		<tag k="name" v="Ula QP;Ula QP" />
		<tag k="seamark:type" v="platform" />
		<tag k="ssr:stedsnr" v="118106" />
	</node>
	<node lat="58.416666668274225" lon="1.7166666736647254" id="-44">
		<tag k="fixme" v="multiple name tags, choose one and add the other to alt_name" />
		<tag k="man_made" v="offshore_platform" />
		<tag k="name" v="Sleipner B;Sleipner B" />
		<tag k="seamark:type" v="platform" />
		<tag k="ssr:stedsnr" v="121871" />
	</node>
	<node lat="56.56666667112821" lon="3.204166670011721" id="-60">
		<tag k="fixme" v="multiple name tags, choose one and add the other to alt_name" />
		<tag k="man_made" v="offshore_platform" />
		<tag k="name" v="Ekofisk K;Ekofisk K" />
		<tag k="seamark:type" v="platform" />
		<tag k="ssr:stedsnr" v="182812" />
	</node>
	<node lat="56.322222218376176" lon="3.35416666697524" id="-62">
		<tag k="fixme" v="multiple name tags, choose one and add the other to alt_name" />
		<tag k="man_made" v="offshore_platform" />
		<tag k="name" v="Valhall North;Valhall North" />
		<tag k="seamark:type" v="platform" />
		<tag k="ssr:stedsnr" v="182837" />
	</node>
	<node lat="60.88793055794602" lon="3.6054638854441694" id="-180">
		<tag k="fixme" v="multiple name tags, choose one and add the other to alt_name" />
		<tag k="man_made" v="offshore_platform" />
		<tag k="name" v="Troll C;Troll C" />
		<tag k="seamark:type" v="platform" />
		<tag k="ssr:stedsnr" v="359662" />
	</node>
	<node lat="56.37222221844918" lon="3.258333337746918" id="-189">
		<tag k="fixme" v="multiple name tags, choose one and add the other to alt_name" />
		<tag k="man_made" v="offshore_platform" />
		<tag k="name" v="Eldfisk S;Eldfisk S" />
		<tag k="seamark:type" v="platform" />
		<tag k="ssr:stedsnr" v="424818" />
	</node>
	<node lat="56.41666667116759" lon="3.216666670487468" id="-198">
		<tag k="fixme" v="multiple name tags, choose one and add the other to alt_name" />
		<tag k="man_made" v="offshore_platform" />
		<tag k="name" v="Eldfisk B;Eldfisk B" />
		<tag k="seamark:type" v="platform" />
		<tag k="ssr:stedsnr" v="363792" />
	</node>
	<node lat="58.36944444483394" lon="1.9041666699027107" id="-199">
		<tag k="fixme" v="multiple name tags, choose one and add the other to alt_name" />
		<tag k="man_made" v="offshore_platform" />
		<tag k="name" v="Sleipner A;Sleipner A" />
		<tag k="seamark:type" v="platform" />
		<tag k="ssr:stedsnr" v="363794" />
	</node>
	<node lat="56.520833330669284" lon="3.222222227463591" id="-236">
		<tag k="fixme" v="multiple name tags, choose one and add the other to alt_name" />
		<tag k="man_made" v="offshore_platform" />
		<tag k="name" v="Ekofisk A;Ekofisk A" />
		<tag k="seamark:type" v="platform" />
		<tag k="ssr:stedsnr" v="545817" />
	</node>
	<node lat="58.84283333674526" lon="2.2463333401555077" id="-238">
		<tag k="fixme" v="multiple name tags, choose one and add the other to alt_name" />
		<tag k="man_made" v="offshore_platform" />
		<tag k="name" v="Edvard Grieg;Edvard Grieg" />
		<tag k="seamark:type" v="platform" />
		<tag k="ssr:stedsnr" v="545826" />
	</node>
	<node lat="56.549999997821935" lon="3.21249999842101" id="-314">
		<tag k="fixme" v="multiple name tags, choose one and add the other to alt_name" />
		<tag k="man_made" v="offshore_platform" />
		<tag k="name" v="Ekofisk T;Ekofisk T" />
		<tag k="seamark:type" v="platform" />
		<tag k="ssr:stedsnr" v="849846" />
	</node>
	<node lat="60.658611110769314" lon="3.7245972280329878" id="-353">
		<tag k="fixme" v="multiple name tags, choose one and add the other to alt_name" />
		<tag k="man_made" v="offshore_platform" />
		<tag k="name" v="Troll A;Troll A" />
		<tag k="seamark:type" v="platform" />
		<tag k="ssr:stedsnr" v="845690" />
	</node>
	<node lat="60.776297222714575" lon="3.4897638903490362" id="-354">
		<tag k="fixme" v="multiple name tags, choose one and add the other to alt_name" />
		<tag k="man_made" v="offshore_platform" />
		<tag k="name" v="Troll B;Troll B" />
		<tag k="seamark:type" v="platform" />
		<tag k="ssr:stedsnr" v="845692" />
	</node>
	<node lat="65.06673889125855" lon="6.728488883222426" id="-412">
		<tag k="fixme" v="multiple name tags, choose one and add the other to alt_name" />
		<tag k="man_made" v="offshore_platform" />
		<tag k="name" v="Åsgard A;Åsgard A" />
		<tag k="seamark:type" v="platform" />
		<tag k="ssr:stedsnr" v="56007" />
	</node>
	<node lat="58.92222222149611" lon="2.195833341351978" id="-428">
		<tag k="fixme" v="multiple name tags, choose one and add the other to alt_name" />
		<tag k="man_made" v="offshore_platform" />
		<tag k="name" v="Ivar Aasen;Ivar Aasen" />
		<tag k="seamark:type" v="platform" />
		<tag k="ssr:stedsnr" v="60847" />
	</node>
	<node lat="56.54444444838518" lon="3.2249999998384697" id="-477">
		<tag k="fixme" v="multiple name tags, choose one and add the other to alt_name" />
		<tag k="man_made" v="offshore_platform" />
		<tag k="name" v="Ekofisk L;Ekofisk L" />
		<tag k="seamark:type" v="platform" />
		<tag k="ssr:stedsnr" v="121830" />
	</node>
	<node lat="61.255000002664545" lon="1.8516666735394889" id="-517">
		<tag k="fixme" v="multiple name tags, choose one and add the other to alt_name" />
		<tag k="man_made" v="offshore_platform" />
		<tag k="name" v="Statfjord A;Statfjord A" />
		<tag k="seamark:type" v="platform" />
		<tag k="ssr:stedsnr" v="233455" />
	</node>
	<node lat="56.5458333332935" lon="3.215277780344597" id="-538">
		<tag k="fixme" v="multiple name tags, choose one and add the other to alt_name" />
		<tag k="man_made" v="offshore_platform" />
		<tag k="name" v="Ekofisk H;Ekofisk H" />
		<tag k="seamark:type" v="platform" />
		<tag k="ssr:stedsnr" v="242807" />
	</node>
	<node lat="56.22777777783738" lon="3.4333333292478723" id="-558">
		<tag k="fixme" v="multiple name tags, choose one and add the other to alt_name" />
		<tag k="man_made" v="offshore_platform" />
		<tag k="name" v="Valhall South;Valhall South" />
		<tag k="seamark:type" v="platform" />
		<tag k="ssr:stedsnr" v="303815" />
	</node>
	<node lat="58.79166666831753" lon="1.2791666660211385" id="-559">
		<tag k="fixme" v="multiple name tags, choose one and add the other to alt_name" />
		<tag k="man_made" v="offshore_platform" />
		<tag k="name" v="Brae-B;Brae-B" />
		<tag k="name:en" v="Brae-B;Brae-B" />
		<tag k="seamark:type" v="platform" />
		<tag k="ssr:stedsnr" v="303825" />
	</node>
	<node lat="58.96777777339806" lon="3.297222223098944" id="-574">
		<tag k="fixme" v="multiple name tags, choose one and add the other to alt_name" />
		<tag k="man_made" v="offshore_platform" />
		<tag k="name" v="Grane;Grane" />
		<tag k="seamark:type" v="platform" />
		<tag k="ssr:stedsnr" v="465781" />
	</node>
	<node lat="58.36666666623433" lon="1.9055555617850533" id="-599">
		<tag k="fixme" v="multiple name tags, choose one and add the other to alt_name" />
		<tag k="man_made" v="offshore_platform" />
		<tag k="name" v="Sleipner R;Sleipner R" />
		<tag k="seamark:type" v="platform" />
		<tag k="ssr:stedsnr" v="485814" />
	</node>
	<node lat="56.375000003187594" lon="3.266666663763019" id="-668">
		<tag k="fixme" v="multiple name tags, choose one and add the other to alt_name" />
		<tag k="man_made" v="offshore_platform" />
		<tag k="name" v="Eldfisk A;Eldfisk A" />
		<tag k="seamark:type" v="platform" />
		<tag k="ssr:stedsnr" v="606820" />
	</node>
	<node lat="58.36666667031713" lon="1.9111111047123603" id="-669">
		<tag k="fixme" v="multiple name tags, choose one and add the other to alt_name" />
		<tag k="man_made" v="offshore_platform" />
		<tag k="name" v="Sleipner T;Sleipner T" />
		<tag k="seamark:type" v="platform" />
		<tag k="ssr:stedsnr" v="606825" />
	</node>
	<node lat="58.4416666699589" lon="1.883333339370807" id="-685">
		<tag k="fixme" v="multiple name tags, choose one and add the other to alt_name" />
		<tag k="man_made" v="offshore_platform" />
		<tag k="name" v="Maersk Inspirer;Maersk Inspirer" />
		<tag k="seamark:type" v="platform" />
		<tag k="ssr:stedsnr" v="667847" />
	</node>
	<node lat="58.69166667114415" lon="1.279166675119303" id="-695">
		<tag k="fixme" v="multiple name tags, choose one and add the other to alt_name" />
		<tag k="man_made" v="offshore_platform" />
		<tag k="name" v="Brae-A;Brae-A" />
		<tag k="name:en" v="Brae-A;Brae-A" />
		<tag k="seamark:type" v="platform" />
		<tag k="ssr:stedsnr" v="667803" />
	</node>
	<node lat="58.72222221969836" lon="1.4000000054188704" id="-696">
		<tag k="fixme" v="multiple name tags, choose one and add the other to alt_name" />
		<tag k="man_made" v="offshore_platform" />
		<tag k="name" v="Miller;Miller" />
		<tag k="name:en" v="Miller;Miller" />
		<tag k="seamark:type" v="platform" />
		<tag k="ssr:stedsnr" v="667805" />
	</node>
	<node lat="58.08055555645068" lon="1.8916666615756408" id="-714">
		<tag k="fixme" v="multiple name tags, choose one and add the other to alt_name" />
		<tag k="man_made" v="offshore_platform" />
		<tag k="name" v="Varg A;Varg A" />
		<tag k="seamark:type" v="platform" />
		<tag k="ssr:stedsnr" v="728834" />
	</node>
	<node lat="58.87777777931381" lon="1.5250000050904386" id="-715">
		<tag k="fixme" v="multiple name tags, choose one and add the other to alt_name" />
		<tag k="man_made" v="offshore_platform" />
		<tag k="name" v="East Brae;East Brae" />
		<tag k="name:en" v="East Brae;East Brae" />
		<tag k="seamark:type" v="platform" />
		<tag k="ssr:stedsnr" v="728822" />
	</node>
	<node lat="58.12499999902321" lon="2.475000005696808" id="-755">
		<tag k="fixme" v="multiple name tags, choose one and add the other to alt_name" />
		<tag k="man_made" v="pipeline" />
		<tag k="name" v="Statpipe;Statpipe" />
		<tag k="ssr:stedsnr" v="785108" />
	</node>
	<node lat="58.01666666977501" lon="11.699999998833825" id="-765">
		<tag k="fixme" v="multiple name tags, choose one and add the other to alt_name" />
		<tag k="landuse" v="harbour" />
		<tag k="name" v="Wallhamn;Wallhamn" />
		<tag k="name:sv" v="Wallhamn;Wallhamn" />
		<tag k="seamark:type" v="harbour" />
		<tag k="ssr:stedsnr" v="788762" />
	</node>
	<node lat="56.27916666521197" lon="3.391666667391139" id="-776">
		<tag k="fixme" v="multiple name tags, choose one and add the other to alt_name" />
		<tag k="man_made" v="offshore_platform" />
		<tag k="name" v="Valhall;Valhall" />
		<tag k="seamark:type" v="platform" />
		<tag k="ssr:stedsnr" v="788840" />
	</node>
	<node lat="59.188888888434505" lon="2.3888888843032103" id="-802">
		<tag k="fixme" v="multiple name tags, choose one and add the other to alt_name" />
		<tag k="man_made" v="offshore_platform" />
		<tag k="name" v="Balder;Balder" />
		<tag k="seamark:type" v="platform" />
		<tag k="ssr:stedsnr" v="907727" />
	</node>
	<node lat="58.07777777803609" lon="1.908333341938193" id="-814">
		<tag k="fixme" v="multiple name tags, choose one and add the other to alt_name" />
		<tag k="man_made" v="offshore_platform" />
		<tag k="name" v="Petrojarl Varg;Petrojarl Varg" />
		<tag k="seamark:type" v="platform" />
		<tag k="ssr:stedsnr" v="910836" />
	</node>
	<node lat="71.6166362025429" lon="52.478215529190905" id="-840">
		<tag k="aeroway" v="aerodrome" />
		<tag k="fixme" v="multiple name tags, choose one and add the other to alt_name" />
		<tag k="name" v="Rogachevo;Rogachevo" />
		<tag k="name:ru" v="Rogachevo;Rogachevo" />
		<tag k="ssr:stedsnr" v="966295" />
	</node>
</osm>
