<?xml version="1.0" encoding="UTF-8"?>
<osm generator="osmapis" version="0.6">
	<node id="-936" lat="55.936236115" lon="19.2430916511">
		<tag k="name" v="Austersjøen – Østersjøen - Baltic Sea" />
		<tag k="name:en" v="Baltic Sea" />
		<tag k="name:no" v="Austersjøen – Østersjøen" />
		<tag k="place" v="sea" />
		<tag k="ssr:stedsnr" v="890958" />
	</node>
	<node id="-935" lat="56.950000002" lon="11.9333333291">
		<tag k="name" v="Lilla Middelgrund" />
		<tag k="name:sv" v="Lilla Middelgrund" />
		<tag k="natural" v="shoal" />
		<tag k="place" v="locality" />
		<tag k="ssr:stedsnr" v="970566" />
	</node>
	<node id="-934" lat="56.1791666684" lon="4.17499999611">
		<tag k="name" v="Svend" />
		<tag k="name:da" v="Svend" />
		<tag k="ssr:stedsnr" v="970555" />
		<tag k="waterway" v="offshore_field" />
	</node>
	<node id="-933" lat="56.0958333323" lon="4.21666666816">
		<tag k="name" v="Syd Arne" />
		<tag k="name:da" v="Syd Arne" />
		<tag k="ssr:stedsnr" v="970553" />
		<tag k="waterway" v="offshore_field" />
	</node>
	<node id="-931" lat="56.545833331" lon="3.21666667459">
		<tag k="name" v="Ekofisk" />
		<tag k="ssr:stedsnr" v="970533" />
		<tag k="waterway" v="offshore_field" />
	</node>
	<node id="-930" lat="56.9805555576" lon="2.95833333813">
		<tag k="name" v="Tambar" />
		<tag k="ssr:stedsnr" v="970529" />
		<tag k="waterway" v="offshore_field" />
	</node>
	<node id="-929" lat="57.3333333315" lon="9.45000000583">
		<tag k="name" v="Jammerbugt" />
		<tag k="name:da" v="Jammerbugt" />
		<tag k="place" v="sea" />
		<tag k="ssr:stedsnr" v="970476" />
	</node>
	<node id="-928" lat="58.8069444455" lon="11.1888888839">
		<tag k="name" v="Resö" />
		<tag k="name:sv" v="Resö" />
		<tag k="place" v="island" />
		<tag k="ssr:stedsnr" v="970434" />
	</node>
	<node id="-925" lat="58.0000000039" lon="11.6666666666">
		<tag k="name" v="Tjörn" />
		<tag k="name:sv" v="Tjörn" />
		<tag k="place" v="island" />
		<tag k="ssr:stedsnr" v="970420" />
	</node>
	<node id="-924" lat="57.1791666645" lon="8.94166666709">
		<tag k="name" v="Bragerne" />
		<tag k="name:da" v="Bragerne" />
		<tag k="natural" v="shoal" />
		<tag k="place" v="locality" />
		<tag k="ssr:stedsnr" v="970417" />
	</node>
	<node id="-922" lat="58.486111113" lon="11.3375000071">
		<tag k="bay" v="fjord" />
		<tag k="name" v="Bottnefjorden" />
		<tag k="name:sv" v="Bottnefjorden" />
		<tag k="natural" v="bay" />
		<tag k="ssr:stedsnr" v="970400" />
	</node>
	<node id="-918" lat="69.75833342" lon="31.0499974377">
		<tag k="bay" v="fjord" />
		<tag k="name" v="Guba Basarnaja" />
		<tag k="name:ru" v="Guba Basarnaja" />
		<tag k="natural" v="bay" />
		<tag k="ssr:stedsnr" v="970189" />
	</node>
	<node id="-917" lat="69.837500105" lon="31.5749969769">
		<tag k="name" v="Store Henøy" />
		<tag k="place" v="island" />
		<tag k="ssr:stedsnr" v="970142" />
	</node>
	<node id="-915" lat="69.7041667767" lon="31.4041637165">
		<tag k="name" v="Nemetskihalvøya" />
		<tag k="natural" v="cape" />
		<tag k="ssr:stedsnr" v="970120" />
	</node>
	<node id="-914" lat="57.9250000001" lon="2.16666665856">
		<tag k="name" v="Vestbanken" />
		<tag k="place" v="locality" />
		<tag k="ssr:stedsnr" v="970565" />
	</node>
	<node id="-912" lat="60.5999999963" lon="1.8388888959">
		<tag k="name" v="Ellon &amp; Grant" />
		<tag k="ssr:stedsnr" v="969042" />
		<tag k="waterway" v="offshore_field" />
	</node>
	<node id="-911" lat="60.8055555573" lon="1.45002777292">
		<tag k="name" v="Ninian Southern" />
		<tag k="ssr:stedsnr" v="967729" />
		<tag k="waterway" v="offshore_field" />
	</node>
	<node id="-910" lat="61.3617694431" lon="1.56397778636">
		<tag k="name" v="Thistle" />
		<tag k="name:en" v="Thistle" />
		<tag k="ssr:stedsnr" v="966996" />
		<tag k="waterway" v="offshore_field" />
	</node>
	<node id="-909" lat="70.0135027791" lon="17.5768500011">
		<tag k="name" v="Malangsgrunnen" />
		<tag k="place" v="locality" />
		<tag k="ssr:stedsnr" v="966399" />
	</node>
	<node id="-906" lat="65.2666666635" lon="6.41666667089">
		<tag k="name" v="Garsholbanken" />
		<tag k="place" v="locality" />
		<tag k="ssr:stedsnr" v="965905" />
	</node>
	<node id="-904" lat="62.5999999994" lon="5.58499999712">
		<tag k="name" v="Djupseta" />
		<tag k="place" v="locality" />
		<tag k="ssr:stedsnr" v="952609" />
	</node>
	<node id="-903" lat="68.0916666678" lon="12.3000000001">
		<tag k="name" v="Kvalnesdjupet" />
		<tag k="place" v="locality" />
		<tag k="ssr:stedsnr" v="951996" />
	</node>
	<node id="-902" lat="76.2100444422" lon="18.9179583365">
		<tag k="name" v="Storfjordrenna" />
		<tag k="place" v="locality" />
		<tag k="ssr:stedsnr" v="951992" />
	</node>
	<node id="-901" lat="57.1000000021" lon="7.54999999977">
		<tag k="name" v="Jyske Rev" />
		<tag k="name:da" v="Jyske Rev" />
		<tag k="place" v="locality" />
		<tag k="ssr:stedsnr" v="951978" />
	</node>
	<node id="-900" lat="57.5406889337" lon="23.7170080355">
		<tag k="name" v="Rigaviken" />
		<tag k="place" v="locality" />
		<tag k="ssr:stedsnr" v="951962" />
	</node>
	<node id="-899" lat="64.2652487124" lon="-15.3423428611">
		<tag k="bay" v="fjord" />
		<tag k="name" v="Hornafjørdur" />
		<tag k="name:is" v="Hornafjørdur" />
		<tag k="natural" v="bay" />
		<tag k="ssr:stedsnr" v="951899" />
	</node>
	<node id="-898" lat="64.3465602152" lon="36.5862282651">
		<tag k="name" v="Onezhskij Zaliv" />
		<tag k="name:ru" v="Onezhskij Zaliv" />
		<tag k="natural" v="bay" />
		<tag k="ssr:stedsnr" v="951888" />
	</node>
	<node id="-897" lat="76.5629656999" lon="-19.825872794">
		<tag k="name" v="Dove bugt" />
		<tag k="name:da" v="Dove bugt" />
		<tag k="natural" v="bay" />
		<tag k="ssr:stedsnr" v="951889" />
	</node>
	<node id="-896" lat="61.3502916648" lon="1.14867221697">
		<tag k="name" v="Eider" />
		<tag k="name:en" v="Eider" />
		<tag k="ssr:stedsnr" v="951868" />
		<tag k="waterway" v="offshore_field" />
	</node>
	<node id="-895" lat="58.9677777734" lon="3.2972222231">
		<tag k="name" v="Sirahola" />
		<tag k="place" v="locality" />
		<tag k="ssr:stedsnr" v="951802" />
	</node>
	<node id="-894" lat="64.6989638928" lon="8.76029166948">
		<tag k="name" v="Haltenbanken" />
		<tag k="place" v="locality" />
		<tag k="ssr:stedsnr" v="951707" />
	</node>
	<node id="-893" lat="63.7645666711" lon="7.32853610855">
		<tag k="name" v="Frøyabanken" />
		<tag k="place" v="locality" />
		<tag k="ssr:stedsnr" v="951691" />
	</node>
	<node id="-878" lat="61.0380723825" lon="-8.85637348351">
		<tag k="name" v="Færøybanken" />
		<tag k="place" v="locality" />
		<tag k="ssr:stedsnr" v="951133" />
	</node>
	<node id="-873" lat="56.6416666658" lon="5.00000000348">
		<tag k="name" v="Smalbanken" />
		<tag k="place" v="locality" />
		<tag k="ssr:stedsnr" v="910882" />
	</node>
	<node id="-872" lat="56.7916666673" lon="11.733333331">
		<tag k="name" v="Fyrbanken" />
		<tag k="name:da" v="Fyrbanken" />
		<tag k="place" v="locality" />
		<tag k="ssr:stedsnr" v="910877" />
	</node>
	<node id="-871" lat="56.4833333338" lon="4.91250000533">
		<tag k="name" v="Siri" />
		<tag k="name:da" v="Siri" />
		<tag k="ssr:stedsnr" v="910873" />
		<tag k="waterway" v="offshore_field" />
	</node>
	<node id="-870" lat="56.8999999982" lon="10.3666666687">
		<tag k="name" v="Ålborg bugt" />
		<tag k="name:da" v="Ålborg bugt" />
		<tag k="natural" v="bay" />
		<tag k="ssr:stedsnr" v="910847" />
	</node>
	<node id="-865" lat="58.4138888924" lon="11.2638888902">
		<tag k="name" v="Sotekanalen" />
		<tag k="name:sv" v="Sotekanalen" />
		<tag k="natural" v="strait" />
		<tag k="ssr:stedsnr" v="910763" />
	</node>
	<node id="-864" lat="57.5500000043" lon="10.4666666696">
		<tag k="name" v="Krageskov rev" />
		<tag k="name:da" v="Krageskov rev" />
		<tag k="natural" v="shoal" />
		<tag k="place" v="locality" />
		<tag k="ssr:stedsnr" v="910761" />
	</node>
	<node id="-861" lat="58.3416666643" lon="11.324999992">
		<tag k="name" v="Malmön" />
		<tag k="name:sv" v="Malmön" />
		<tag k="place" v="island" />
		<tag k="ssr:stedsnr" v="910741" />
	</node>
	<node id="-858" lat="61.5263888867" lon="2.21388889651">
		<tag k="name" v="Snorre B" />
		<tag k="ssr:stedsnr" v="907715" />
		<tag k="waterway" v="offshore_field" />
	</node>
	<node id="-857" lat="69.7500001525" lon="32.4166625089">
		<tag k="name" v="Fiskerhalvøya" />
		<tag k="natural" v="cape" />
		<tag k="ssr:stedsnr" v="906062" />
	</node>
	<node id="-856" lat="56.9499999996" lon="4.24999999441">
		<tag k="name" v="Store Fiskebanke" />
		<tag k="place" v="locality" />
		<tag k="ssr:stedsnr" v="905360" />
	</node>
	<node id="-855" lat="57.583333329" lon="4.18333333035">
		<tag k="name" v="Klondyke (Engelske)" />
		<tag k="place" v="locality" />
		<tag k="ssr:stedsnr" v="905119" />
	</node>
	<node id="-854" lat="62.8166666685" lon="4.90833332979">
		<tag k="name" v="Svatangane" />
		<tag k="natural" v="shoal" />
		<tag k="place" v="locality" />
		<tag k="ssr:stedsnr" v="892606" />
	</node>
	<node id="-850" lat="65.8565143208" lon="-13.1567609187">
		<tag k="name" v="Héradsdjup" />
		<tag k="name:is" v="Héradsdjup" />
		<tag k="place" v="locality" />
		<tag k="ssr:stedsnr" v="891915" />
	</node>
	<node id="-849" lat="65.7884952485" lon="-14.700450962">
		<tag k="bay" v="fjord" />
		<tag k="name" v="Vopnafjørdur" />
		<tag k="name:is" v="Vopnafjørdur" />
		<tag k="natural" v="bay" />
		<tag k="ssr:stedsnr" v="891904" />
	</node>
	<node id="-848" lat="59.1166666693" lon="1.71666666067">
		<tag k="name" v="Holene" />
		<tag k="place" v="locality" />
		<tag k="ssr:stedsnr" v="891803" />
	</node>
	<node id="-841" lat="60.6099142346" lon="-10.3418386645">
		<tag k="alt_name:en" v="Bill Bailey's Bank" />
		<tag k="name" v="Bill Baileys Bank" />
		<tag k="name:en" v="Bill Baileys Bank" />
		<tag k="place" v="locality" />
		<tag k="ssr:stedsnr" v="891271" />
	</node>
	<node id="-840" lat="63.2502444418" lon="5.35890277863">
		<tag k="name" v="Skallen" />
		<tag k="natural" v="reef" />
		<tag k="place" v="locality" />
		<tag k="ssr:stedsnr" v="891255" />
	</node>
	<node id="-837" lat="59.3166666709" lon="4.41666666343">
		<tag k="name" v="Indrebakken" />
		<tag k="place" v="locality" />
		<tag k="ssr:stedsnr" v="891122" />
	</node>
	<node id="-836" lat="57.8786464815" lon="-13.5821657877">
		<tag k="name" v="Rockall Bank" />
		<tag k="name:en" v="Rockall Bank" />
		<tag k="place" v="locality" />
		<tag k="ssr:stedsnr" v="890987" />
	</node>
	<node id="-826" lat="69.5757142278" lon="34.5572189916">
		<tag k="name" v="Kildingr, ø" />
		<tag k="natural" v="shoal" />
		<tag k="place" v="locality" />
		<tag k="ssr:stedsnr" v="890132" />
	</node>
	<node id="-823" lat="56.9499999988" lon="10.916666666">
		<tag k="name" v="Øster flak" />
		<tag k="name:da" v="Øster flak" />
		<tag k="place" v="locality" />
		<tag k="ssr:stedsnr" v="910810" />
	</node>
	<node id="-820" lat="58.3333333367" lon="11.5499999928">
		<tag k="bay" v="fjord" />
		<tag k="name" v="Gullmarn" />
		<tag k="name:sv" v="Gullmarn" />
		<tag k="natural" v="bay" />
		<tag k="ssr:stedsnr" v="849802" />
	</node>
	<node id="-819" lat="57.0833333315" lon="10.533333338">
		<tag k="name" v="Svitringen" />
		<tag k="name:da" v="Svitringen" />
		<tag k="natural" v="shoal" />
		<tag k="place" v="locality" />
		<tag k="ssr:stedsnr" v="849798" />
	</node>
	<node id="-814" lat="69.7688889811" lon="31.0444418874">
		<tag k="name" v="Kap Mai Navolok" />
		<tag k="name:ru" v="Kap Mai Navolok" />
		<tag k="natural" v="cape" />
		<tag k="ssr:stedsnr" v="849672" />
	</node>
	<node id="-813" lat="69.827777892" lon="31.7749967413">
		<tag k="name" v="Kap Semljanoi" />
		<tag k="name:ru" v="Kap Semljanoi" />
		<tag k="natural" v="cape" />
		<tag k="ssr:stedsnr" v="849661" />
	</node>
	<node id="-812" lat="58.8458333366" lon="11.1833333256">
		<tag k="name" v="Råssö" />
		<tag k="name:sv" v="Råssö" />
		<tag k="place" v="island" />
		<tag k="ssr:stedsnr" v="849822" />
	</node>
	<node id="-811" lat="59.5444444476" lon="1.53333334245">
		<tag k="name" v="Ness" />
		<tag k="ssr:stedsnr" v="848494" />
		<tag k="waterway" v="offshore_field" />
	</node>
	<node id="-808" lat="58.8749999999" lon="1.52500000319">
		<tag k="name" v="Brae" />
		<tag k="name:en" v="Brae" />
		<tag k="ssr:stedsnr" v="847063" />
		<tag k="waterway" v="offshore_field" />
	</node>
	<node id="-805" lat="70.8512417158" lon="31.5885060873">
		<tag k="name" v="Nordbanken" />
		<tag k="place" v="locality" />
		<tag k="ssr:stedsnr" v="845067" />
	</node>
	<node id="-804" lat="65.9999999985" lon="6.45000000032">
		<tag k="name" v="Skjoldsryggen" />
		<tag k="place" v="locality" />
		<tag k="ssr:stedsnr" v="845017" />
	</node>
	<node id="-799" lat="62.6249999996" lon="5.17666665993">
		<tag k="name" v="Vathalden" />
		<tag k="natural" v="shoal" />
		<tag k="place" v="locality" />
		<tag k="ssr:stedsnr" v="831594" />
	</node>
	<node id="-798" lat="62.7233333302" lon="5.01666665917">
		<tag k="name" v="Langgrunnssøyla" />
		<tag k="place" v="locality" />
		<tag k="ssr:stedsnr" v="831588" />
	</node>
	<node id="-797" lat="54.2692250002" lon="6.99141388319">
		<tag k="name" v="Deutsche Bucht" />
		<tag k="name:de" v="Deutsche Bucht" />
		<tag k="place" v="locality" />
		<tag k="ssr:stedsnr" v="830984" />
	</node>
	<node id="-796" lat="78.0901746851" lon="35.1415364398">
		<tag k="name" v="Perseusbanken" />
		<tag k="place" v="locality" />
		<tag k="ssr:stedsnr" v="830973" />
	</node>
	<node id="-795" lat="77.8668444414" lon="11.6135888921">
		<tag k="name" v="Isfjordbanken" />
		<tag k="place" v="locality" />
		<tag k="ssr:stedsnr" v="830974" />
	</node>
	<node id="-794" lat="59.7105028676" lon="25.5150519522">
		<tag k="name" v="Finskaviken" />
		<tag k="name:sv" v="Finskaviken" />
		<tag k="place" v="locality" />
		<tag k="ssr:stedsnr" v="830960" />
	</node>
	<node id="-793" lat="73.4933472195" lon="-9.17496096378">
		<tag k="name" v="Vesterisgrunnen" />
		<tag k="natural" v="shoal" />
		<tag k="place" v="locality" />
		<tag k="ssr:stedsnr" v="830941" />
	</node>
	<node id="-792" lat="63.5762746509" lon="-16.2561133505">
		<tag k="name" v="Øræfagrunn" />
		<tag k="name:is" v="Øræfagrunn" />
		<tag k="place" v="locality" />
		<tag k="ssr:stedsnr" v="830912" />
	</node>
	<node id="-790" lat="61.3593750004" lon="2.46544999449">
		<tag k="name" v="Visund" />
		<tag k="ssr:stedsnr" v="830875" />
		<tag k="waterway" v="offshore_field" />
	</node>
	<node id="-788" lat="69.7554083341" lon="16.9744666737">
		<tag k="name" v="Grimsbakken" />
		<tag k="place" v="locality" />
		<tag k="ssr:stedsnr" v="830693" />
	</node>
	<node id="-786" lat="70.9166138883" lon="21.2840277468">
		<tag k="name" v="Nygrunnen" />
		<tag k="place" v="locality" />
		<tag k="ssr:stedsnr" v="830658" />
	</node>
	<node id="-783" lat="70.9779861148" lon="19.3122999882">
		<tag k="name" v="Nordvestbanken" />
		<tag k="place" v="locality" />
		<tag k="ssr:stedsnr" v="830565" />
	</node>
	<node id="-775" lat="60.3120222241" lon="-1.25590276527">
		<tag k="name" v="Shetland Isles" />
		<tag k="name:en" v="Shetland Isles" />
		<tag k="place" v="island" />
		<tag k="ssr:stedsnr" v="830219" />
	</node>
	<node id="-773" lat="60.1384361174" lon="-2.08360831141">
		<tag k="name" v="Foula Island" />
		<tag k="name:en" v="Foula Island" />
		<tag k="place" v="island" />
		<tag k="ssr:stedsnr" v="830213" />
	</node>
	<node id="-770" lat="69.3448015773" lon="39.2137881463">
		<tag k="name" v="Norton's grunn" />
		<tag k="natural" v="shoal" />
		<tag k="place" v="locality" />
		<tag k="ssr:stedsnr" v="830125" />
	</node>
	<node id="-769" lat="69.2851706138" lon="38.0107759658">
		<tag k="name" v="Syddjupet" />
		<tag k="place" v="locality" />
		<tag k="ssr:stedsnr" v="830126" />
	</node>
	<node id="-767" lat="63.1777777737" lon="5.16666666962">
		<tag k="name" v="Remma" />
		<tag k="place" v="locality" />
		<tag k="ssr:stedsnr" v="831606" />
	</node>
	<node id="-765" lat="56.3458333288" lon="4.27083332748">
		<tag k="name" v="Harald" />
		<tag k="name:da" v="Harald" />
		<tag k="ssr:stedsnr" v="788856" />
		<tag k="waterway" v="offshore_field" />
	</node>
	<node id="-763" lat="56.3749999985" lon="3.26249999954">
		<tag k="name" v="Eldfisk" />
		<tag k="ssr:stedsnr" v="788837" />
		<tag k="waterway" v="offshore_field" />
	</node>
	<node id="-761" lat="57.1499999974" lon="9.33333333366">
		<tag k="name" v="Slette Strand" />
		<tag k="name:da" v="Slette Strand" />
		<tag k="natural" v="beach" />
		<tag k="place" v="locality" />
		<tag k="ssr:stedsnr" v="788780" />
	</node>
	<node id="-759" lat="57.3083333372" lon="10.7999999992">
		<tag k="name" v="Læsø NW-rev" />
		<tag k="name:da" v="Læsø NW-rev" />
		<tag k="place" v="locality" />
		<tag k="ssr:stedsnr" v="788767" />
	</node>
	<node id="-758" lat="58.1666666633" lon="11.6666666628">
		<tag k="name" v="Orust" />
		<tag k="name:sv" v="Orust" />
		<tag k="place" v="island" />
		<tag k="ssr:stedsnr" v="788761" />
	</node>
	<node id="-755" lat="58.4250000015" lon="11.1861111086">
		<tag k="fixme" v="consider seamark:type=rock or natural=shoal" />
		<tag k="name" v="Soteskär" />
		<tag k="name:sv" v="Soteskär" />
		<tag k="place" v="islet" />
		<tag k="ssr:stedsnr" v="788757" />
	</node>
	<node id="-754" lat="58.4749999991" lon="11.1333333377">
		<tag k="bay" v="fjord" />
		<tag k="name" v="Sotefjorden" />
		<tag k="name:sv" v="Sotefjorden" />
		<tag k="natural" v="bay" />
		<tag k="ssr:stedsnr" v="788754" />
	</node>
	<node id="-753" lat="57.4333333356" lon="11.2375000068">
		<tag k="name" v="Læsø trindel" />
		<tag k="name:da" v="Læsø trindel" />
		<tag k="natural" v="shoal" />
		<tag k="place" v="locality" />
		<tag k="ssr:stedsnr" v="788751" />
	</node>
	<node id="-752" lat="57.6416666654" lon="10.8666666664">
		<tag k="name" v="Herthas flak" />
		<tag k="name:da" v="Herthas flak" />
		<tag k="natural" v="shoal" />
		<tag k="place" v="locality" />
		<tag k="ssr:stedsnr" v="788752" />
	</node>
	<node id="-751" lat="58.1083333355" lon="11.3666666732">
		<tag k="name" v="Käringön" />
		<tag k="name:sv" v="Käringön" />
		<tag k="place" v="island" />
		<tag k="ssr:stedsnr" v="788746" />
	</node>
	<node id="-748" lat="69.4833333313" lon="16.6944444376">
		<tag k="name" v="Tåja" />
		<tag k="place" v="locality" />
		<tag k="ssr:stedsnr" v="788735" />
	</node>
	<node id="-747" lat="69.6500001111" lon="31.3999970146">
		<tag k="name" v="Devkinneset" />
		<tag k="natural" v="cape" />
		<tag k="ssr:stedsnr" v="788559" />
	</node>
	<node id="-746" lat="68.8499999968" lon="14.1166666715">
		<tag k="name" v="Finnbruane" />
		<tag k="natural" v="shoal" />
		<tag k="place" v="locality" />
		<tag k="ssr:stedsnr" v="788185" />
	</node>
	<node id="-745" lat="68.7300000014" lon="13.5708333249">
		<tag k="name" v="Sørskallen" />
		<tag k="natural" v="shoal" />
		<tag k="place" v="locality" />
		<tag k="ssr:stedsnr" v="788180" />
	</node>
	<node id="-744" lat="68.7833333302" lon="13.5444444515">
		<tag k="name" v="Steinan" />
		<tag k="natural" v="shoal" />
		<tag k="place" v="locality" />
		<tag k="ssr:stedsnr" v="788181" />
	</node>
	<node id="-743" lat="59.3588888923" lon="1.71944443869">
		<tag k="name" v="Gryphon" />
		<tag k="ssr:stedsnr" v="786784" />
		<tag k="waterway" v="offshore_field" />
	</node>
	<node id="-740" lat="59.5680666689" lon="1.99259166263">
		<tag k="name" v="Alvheim" />
		<tag k="ssr:stedsnr" v="784950" />
		<tag k="waterway" v="offshore_field" />
	</node>
	<node id="-739" lat="64.2634000001" lon="7.20626945118">
		<tag k="name" v="Njord" />
		<tag k="ssr:stedsnr" v="784696" />
		<tag k="waterway" v="offshore_field" />
	</node>
	<node id="-737" lat="63.1666666626" lon="6.05833332582">
		<tag k="name" v="Onaskallen" />
		<tag k="place" v="locality" />
		<tag k="ssr:stedsnr" v="770719" />
	</node>
	<node id="-736" lat="62.9541666638" lon="5.96666666816">
		<tag k="name" v="Heldet" />
		<tag k="natural" v="shoal" />
		<tag k="place" v="locality" />
		<tag k="ssr:stedsnr" v="770713" />
	</node>
	<node id="-735" lat="63.1733333351" lon="5.37500000182">
		<tag k="name" v="Bukta" />
		<tag k="place" v="locality" />
		<tag k="ssr:stedsnr" v="770621" />
	</node>
	<node id="-734" lat="62.7291666641" lon="5.40000000051">
		<tag k="name" v="Jonseta" />
		<tag k="place" v="locality" />
		<tag k="ssr:stedsnr" v="770612" />
	</node>
	<node id="-733" lat="75.2581827931" lon="36.2033907554">
		<tag k="name" v="Centralbanken" />
		<tag k="place" v="locality" />
		<tag k="ssr:stedsnr" v="769975" />
	</node>
	<node id="-732" lat="57.5833333311" lon="11.1666666594">
		<tag k="name" v="Kattegat" />
		<tag k="place" v="sea" />
		<tag k="ssr:stedsnr" v="769964" />
	</node>
	<node id="-726" lat="71.492827779" lon="22.8104694044">
		<tag k="name" v="Ingøydjupet" />
		<tag k="place" v="locality" />
		<tag k="ssr:stedsnr" v="769573" />
	</node>
	<node id="-716" lat="69.5845362812" lon="42.389807344">
		<tag k="name" v="Kaninbanken" />
		<tag k="place" v="locality" />
		<tag k="ssr:stedsnr" v="768975" />
	</node>
	<node id="-715" lat="65.55716842" lon="37.4180714848">
		<tag k="name" v="White Sea - Beloe More" />
		<tag k="name:en" v="White Sea" />
		<tag k="name:ru" v="Beloe More" />
		<tag k="place" v="sea" />
		<tag k="ssr:stedsnr" v="768910" />
	</node>
	<node id="-714" lat="65.3240111151" lon="7.30186111905">
		<tag k="name" v="Heidrun" />
		<tag k="ssr:stedsnr" v="768883" />
		<tag k="waterway" v="offshore_field" />
	</node>
	<node id="-713" lat="66.0254222242" lon="8.07954445117">
		<tag k="name" v="Norne" />
		<tag k="ssr:stedsnr" v="768881" />
		<tag k="waterway" v="offshore_field" />
	</node>
	<node id="-712" lat="60.8583916625" lon="2.64742778024">
		<tag k="name" v="Huldra" />
		<tag k="ssr:stedsnr" v="768877" />
		<tag k="waterway" v="offshore_field" />
	</node>
	<node id="-711" lat="60.5444444401" lon="3.04999999605">
		<tag k="name" v="Brage" />
		<tag k="ssr:stedsnr" v="768800" />
		<tag k="waterway" v="offshore_field" />
	</node>
	<node id="-704" lat="62.5217666665" lon="3.70620000904">
		<tag k="name" v="Aktivneset" />
		<tag k="place" v="locality" />
		<tag k="ssr:stedsnr" v="767414" />
	</node>
	<node id="-703" lat="59.2611111151" lon="2.40000000007">
		<tag k="name" v="Ringhorne" />
		<tag k="ssr:stedsnr" v="768794" />
		<tag k="waterway" v="offshore_field" />
	</node>
	<node id="-702" lat="57.4833333375" lon="11.8041666589">
		<tag k="name" v="Viten" />
		<tag k="name:sv" v="Viten" />
		<tag k="natural" v="shoal" />
		<tag k="place" v="locality" />
		<tag k="ssr:stedsnr" v="728856" />
	</node>
	<node id="-701" lat="57.5083333338" lon="11.9333333414">
		<tag k="name" v="Särö" />
		<tag k="name:sv" v="Särö" />
		<tag k="natural" v="cape" />
		<tag k="ssr:stedsnr" v="728850" />
	</node>
	<node id="-699" lat="58.0458333369" lon="1.40416665992">
		<tag k="name" v="Andrew" />
		<tag k="name:en" v="Andrew" />
		<tag k="ssr:stedsnr" v="728830" />
		<tag k="waterway" v="offshore_field" />
	</node>
	<node id="-695" lat="56.8333333336" lon="6.26666666461">
		<tag k="name" v="Lille Fisker Banke" />
		<tag k="name:da" v="Lille Fisker Banke" />
		<tag k="place" v="locality" />
		<tag k="ssr:stedsnr" v="728734" />
	</node>
	<node id="-693" lat="57.100000004" lon="8.75000000667">
		<tag k="name" v="Vigsø" />
		<tag k="name:da" v="Vigsø" />
		<tag k="place" v="island" />
		<tag k="ssr:stedsnr" v="728719" />
	</node>
	<node id="-690" lat="69.4916666695" lon="16.7222222335">
		<tag k="name" v="Sveinsgrunnbakken" />
		<tag k="place" v="locality" />
		<tag k="ssr:stedsnr" v="727740" />
	</node>
	<node id="-689" lat="68.6750000041" lon="13.7499999989">
		<tag k="name" v="Innhavsgrunnen" />
		<tag k="natural" v="shoal" />
		<tag k="place" v="locality" />
		<tag k="ssr:stedsnr" v="727195" />
	</node>
	<node id="-688" lat="59.4374999977" lon="1.57083333869">
		<tag k="name" v="Buckland" />
		<tag k="ssr:stedsnr" v="726493" />
		<tag k="waterway" v="offshore_field" />
	</node>
	<node id="-686" lat="64.7069444442" lon="7.67916665929">
		<tag k="name" v="Mikkel" />
		<tag k="ssr:stedsnr" v="725230" />
		<tag k="waterway" v="offshore_field" />
	</node>
	<node id="-685" lat="61.2749000026" lon="1.58235278027">
		<tag k="name" v="Dunlin" />
		<tag k="name:en" v="Dunlin" />
		<tag k="ssr:stedsnr" v="723987" />
		<tag k="waterway" v="offshore_field" />
	</node>
	<node id="-684" lat="58.4583333353" lon="2.54166666795">
		<tag k="name" v="Lingbanken" />
		<tag k="place" v="locality" />
		<tag k="ssr:stedsnr" v="723371" />
	</node>
	<node id="-683" lat="71.9577333027" lon="33.1770753574">
		<tag k="name" v="Tiddlybanken" />
		<tag k="place" v="locality" />
		<tag k="ssr:stedsnr" v="723048" />
	</node>
	<node id="-682" lat="58.6119749976" lon="0.455044445224">
		<tag k="name" v="Fladen grunn" />
		<tag k="place" v="locality" />
		<tag k="ssr:stedsnr" v="716421" />
	</node>
	<node id="-680" lat="62.5533333343" lon="5.48333334065">
		<tag k="name" v="Flåskallen" />
		<tag k="place" v="locality" />
		<tag k="ssr:stedsnr" v="709665" />
	</node>
	<node id="-679" lat="62.5833333339" lon="5.22916665939">
		<tag k="name" v="Vestre Kroken" />
		<tag k="place" v="locality" />
		<tag k="ssr:stedsnr" v="709663" />
	</node>
	<node id="-678" lat="63.0766666627" lon="5.30333333524">
		<tag k="name" v="Brattegga" />
		<tag k="place" v="locality" />
		<tag k="ssr:stedsnr" v="709648" />
	</node>
	<node id="-677" lat="62.6125000039" lon="5.54333334077">
		<tag k="name" v="Synesgrunnen" />
		<tag k="natural" v="shoal" />
		<tag k="place" v="locality" />
		<tag k="ssr:stedsnr" v="709638" />
	</node>
	<node id="-674" lat="76.630580558" lon="22.9640944281">
		<tag k="name" v="Storfjordbanken" />
		<tag k="place" v="locality" />
		<tag k="ssr:stedsnr" v="708997" />
	</node>
	<node id="-673" lat="75.6103694469" lon="21.7176083194">
		<tag k="name" v="Spitsbergenbanken" />
		<tag k="place" v="locality" />
		<tag k="ssr:stedsnr" v="708989" />
	</node>
	<node id="-672" lat="73.1207998738" lon="33.6697486396">
		<tag k="name" v="Thor Iversen banken" />
		<tag k="place" v="locality" />
		<tag k="ssr:stedsnr" v="708976" />
	</node>
	<node id="-671" lat="71.1314444586" lon="-9.44657455502">
		<tag k="name" v="Marøbanken" />
		<tag k="place" v="locality" />
		<tag k="ssr:stedsnr" v="708969" />
	</node>
	<node id="-670" lat="65.375228141" lon="-12.4323008904">
		<tag k="name" v="Seydisfjardardjup" />
		<tag k="name:is" v="Seydisfjardardjup" />
		<tag k="place" v="locality" />
		<tag k="ssr:stedsnr" v="708905" />
	</node>
	<node id="-667" lat="61.6264527743" lon="1.29289444397">
		<tag k="name" v="Magnus" />
		<tag k="name:en" v="Magnus" />
		<tag k="ssr:stedsnr" v="708851" />
		<tag k="waterway" v="offshore_field" />
	</node>
	<node id="-661" lat="67.4736777751" lon="4.09971944755">
		<tag k="name" v="Vøringplatået" />
		<tag k="place" v="locality" />
		<tag k="ssr:stedsnr" v="708586" />
	</node>
	<node id="-644" lat="80.1487718224" lon="36.6927304094">
		<tag k="name" v="Victoriaøya - Victoria" />
		<tag k="name:no" v="Victoriaøya" />
		<tag k="name:ru" v="Victoria" />
		<tag k="place" v="island" />
		<tag k="ssr:stedsnr" v="708089" />
	</node>
	<node id="-640" lat="58.7361250035" lon="9.58150832611">
		<tag k="name" v="Indre Skagerrak" />
		<tag k="old_name" v="Indre Skagerak" />
		<tag k="place" v="sea" />
		<tag k="ssr:stedsnr" v="668547" />
	</node>
	<node id="-636" lat="56.7374999998" lon="3.83333333704">
		<tag k="name" v="Inner Shoal" />
		<tag k="place" v="locality" />
		<tag k="ssr:stedsnr" v="667822" />
	</node>
	<node id="-629" lat="58.7555555541" lon="11.1833333312">
		<tag k="name" v="Havstenssund" />
		<tag k="name:sv" v="Havstenssund" />
		<tag k="natural" v="strait" />
		<tag k="ssr:stedsnr" v="667747" />
	</node>
	<node id="-627" lat="56.1666666672" lon="4.66666666581">
		<tag k="name" v="Nordsøen" />
		<tag k="name:da" v="Nordsøen" />
		<tag k="place" v="sea" />
		<tag k="ssr:stedsnr" v="667713" />
	</node>
	<node id="-626" lat="57.775" lon="11.3333333317">
		<tag k="name" v="Djupa Rännan" />
		<tag k="name:sv" v="Djupa Rännan" />
		<tag k="place" v="locality" />
		<tag k="ssr:stedsnr" v="667709" />
	</node>
	<node id="-624" lat="69.6750001196" lon="31.7333299927">
		<tag k="bay" v="fjord" />
		<tag k="name" v="Guba Malaya Volokovaya" />
		<tag k="name:ru" v="Guba Malaya Volokovaya" />
		<tag k="natural" v="bay" />
		<tag k="ssr:stedsnr" v="667579" />
	</node>
	<node id="-623" lat="69.6750001086" lon="31.4833302779">
		<tag k="name" v="Kap Romanov" />
		<tag k="name:ru" v="Kap Romanov" />
		<tag k="natural" v="cape" />
		<tag k="ssr:stedsnr" v="667569" />
	</node>
	<node id="-622" lat="57.6416666648" lon="11.7749999943">
		<tag k="name" v="Brännö" />
		<tag k="name:sv" v="Brännö" />
		<tag k="place" v="island" />
		<tag k="ssr:stedsnr" v="667719" />
	</node>
	<node id="-621" lat="68.7666666667" lon="13.5611111232">
		<tag k="name" v="Nordskallen" />
		<tag k="natural" v="shoal" />
		<tag k="place" v="locality" />
		<tag k="ssr:stedsnr" v="666187" />
	</node>
	<node id="-620" lat="60.5236111072" lon="3.29722221478">
		<tag k="name" v="Bressay East Ground" />
		<tag k="place" v="locality" />
		<tag k="ssr:stedsnr" v="664788" />
	</node>
	<node id="-618" lat="59.7418194477" lon="1.66701943607">
		<tag k="name" v="Beryl" />
		<tag k="name:en" v="Beryl" />
		<tag k="ssr:stedsnr" v="662997" />
		<tag k="waterway" v="offshore_field" />
	</node>
	<node id="-617" lat="60.4742972239" lon="2.81025833006">
		<tag k="name" v="Oseberg" />
		<tag k="ssr:stedsnr" v="662928" />
		<tag k="waterway" v="offshore_field" />
	</node>
	<node id="-616" lat="57.1124999979" lon="6.39166667273">
		<tag k="name" v="Midtbanken" />
		<tag k="place" v="locality" />
		<tag k="ssr:stedsnr" v="662105" />
	</node>
	<node id="-615" lat="59.2999999989" lon="3.33333333654">
		<tag k="name" v="Vestrebakken" />
		<tag k="place" v="locality" />
		<tag k="ssr:stedsnr" v="662053" />
	</node>
	<node id="-614" lat="66.5666666699" lon="7.09999999675">
		<tag k="name" v="Trænaegga" />
		<tag k="place" v="locality" />
		<tag k="ssr:stedsnr" v="662013" />
	</node>
	<node id="-610" lat="70.8000000807" lon="33.6999954119">
		<tag k="name" v="Skolpenbanken" />
		<tag k="place" v="locality" />
		<tag k="ssr:stedsnr" v="647979" />
	</node>
	<node id="-609" lat="77.6510887464" lon="33.0338624321">
		<tag k="name" v="Storbanken" />
		<tag k="place" v="locality" />
		<tag k="ssr:stedsnr" v="647976" />
	</node>
	<node id="-608" lat="66.7008650272" lon="-16.3546262888">
		<tag k="name" v="Slettugrunn" />
		<tag k="name:is" v="Slettugrunn" />
		<tag k="place" v="locality" />
		<tag k="ssr:stedsnr" v="647928" />
	</node>
	<node id="-607" lat="78.2629388246" lon="-13.4312618548">
		<tag k="name" v="Belgicabanken" />
		<tag k="place" v="locality" />
		<tag k="ssr:stedsnr" v="647894" />
	</node>
	<node id="-606" lat="61.2579055598" lon="1.14469445066">
		<tag k="name" v="North Cormorant" />
		<tag k="name:en" v="North Cormorant" />
		<tag k="ssr:stedsnr" v="647880" />
		<tag k="waterway" v="offshore_field" />
	</node>
	<node id="-605" lat="67.0199999999" lon="11.3500000111">
		<tag k="name" v="Trænarevet" />
		<tag k="natural" v="reef" />
		<tag k="place" v="locality" />
		<tag k="ssr:stedsnr" v="647853" />
	</node>
	<node id="-594" lat="61.4333333308" lon="1.25000000505">
		<tag k="name" v="Tampen" />
		<tag k="place" v="locality" />
		<tag k="ssr:stedsnr" v="647683" />
	</node>
	<node id="-593" lat="68.2130777762" lon="11.4868777789">
		<tag k="name" v="Røstbanken" />
		<tag k="place" v="locality" />
		<tag k="ssr:stedsnr" v="647635" />
	</node>
	<node id="-592" lat="67.1499999985" lon="9.50000000113">
		<tag k="name" v="Trænadjupet" />
		<tag k="place" v="locality" />
		<tag k="ssr:stedsnr" v="647593" />
	</node>
	<node id="-582" lat="63.0505611097" lon="5.16958334306">
		<tag k="name" v="Sørmannsneset" />
		<tag k="natural" v="reef" />
		<tag k="place" v="locality" />
		<tag k="ssr:stedsnr" v="647223" />
	</node>
	<node id="-581" lat="61.9661750431" lon="-6.79933280205">
		<tag k="name" v="Faroe Islands" />
		<tag k="name:en" v="Faroe Islands" />
		<tag k="place" v="island" />
		<tag k="ssr:stedsnr" v="647208" />
	</node>
	<node id="-578" lat="58.570833333" lon="1.69583333736">
		<tag k="name" v="Gina Krog" />
		<tag k="ssr:stedsnr" v="606860" />
		<tag k="waterway" v="offshore_field" />
	</node>
	<node id="-577" lat="58.3666666624" lon="1.90833332967">
		<tag k="name" v="Sleipner" />
		<tag k="ssr:stedsnr" v="606859" />
		<tag k="waterway" v="offshore_field" />
	</node>
	<node id="-575" lat="57.5958333339" lon="11.8083333377">
		<tag k="name" v="Donsö" />
		<tag k="name:sv" v="Donsö" />
		<tag k="place" v="island" />
		<tag k="ssr:stedsnr" v="606855" />
	</node>
	<node id="-571" lat="57.3750000043" lon="11.4083333288">
		<tag k="name" v="Bøchers banke" />
		<tag k="name:da" v="Bøchers banke" />
		<tag k="place" v="locality" />
		<tag k="ssr:stedsnr" v="606773" />
	</node>
	<node id="-570" lat="58.3166666683" lon="11.6166666657">
		<tag k="name" v="Bokenäs" />
		<tag k="name:sv" v="Bokenäs" />
		<tag k="natural" v="cape" />
		<tag k="ssr:stedsnr" v="606763" />
	</node>
	<node id="-569" lat="57.1583333377" lon="8.97500000627">
		<tag k="name" v="Sandnæs hage" />
		<tag k="name:da" v="Sandnæs hage" />
		<tag k="natural" v="cape" />
		<tag k="ssr:stedsnr" v="606762" />
	</node>
	<node id="-568" lat="57.9874999988" lon="11.6833333302">
		<tag k="name" v="Djupvik" />
		<tag k="name:sv" v="Djupvik" />
		<tag k="natural" v="bay" />
		<tag k="ssr:stedsnr" v="606740" />
	</node>
	<node id="-567" lat="68.8166666659" lon="13.1666666619">
		<tag k="name" v="Bratten" />
		<tag k="place" v="locality" />
		<tag k="ssr:stedsnr" v="605208" />
	</node>
	<node id="-566" lat="61.4500000004" lon="2.13333334126">
		<tag k="name" v="Snorre A" />
		<tag k="ssr:stedsnr" v="604358" />
		<tag k="waterway" v="offshore_field" />
	</node>
	<node id="-565" lat="63.5833333293" lon="5.53333334031">
		<tag k="name" v="Perjohanneset" />
		<tag k="place" v="locality" />
		<tag k="ssr:stedsnr" v="604160" />
	</node>
	<node id="-563" lat="60.6416666658" lon="1.65694445171">
		<tag k="name" v="Dunbar" />
		<tag k="ssr:stedsnr" v="603724" />
		<tag k="waterway" v="offshore_field" />
	</node>
	<node id="-562" lat="64.2611111152" lon="7.73333332492">
		<tag k="name" v="Rogn South" />
		<tag k="ssr:stedsnr" v="603206" />
		<tag k="waterway" v="offshore_field" />
	</node>
	<node id="-559" lat="69.0157805555" lon="13.5664555679">
		<tag k="name" v="Jennegga" />
		<tag k="place" v="locality" />
		<tag k="ssr:stedsnr" v="601029" />
	</node>
	<node id="-556" lat="63.2999999993" lon="7.0566666619">
		<tag k="name" v="Bøføllingen" />
		<tag k="place" v="locality" />
		<tag k="ssr:stedsnr" v="588738" />
	</node>
	<node id="-555" lat="62.6208333357" lon="5.44999999986">
		<tag k="name" v="Mebotnen" />
		<tag k="natural" v="shoal" />
		<tag k="place" v="locality" />
		<tag k="ssr:stedsnr" v="588635" />
	</node>
	<node id="-554" lat="62.8733333338" lon="5.34999999973">
		<tag k="name" v="Langgrynna" />
		<tag k="natural" v="shoal" />
		<tag k="place" v="locality" />
		<tag k="ssr:stedsnr" v="588628" />
	</node>
	<node id="-550" lat="58.9677777734" lon="3.2972222231">
		<tag k="name" v="Vale" />
		<tag k="ssr:stedsnr" v="587798" />
		<tag k="waterway" v="offshore_field" />
	</node>
	<node id="-549" lat="60.0125000013" lon="2.26666667122">
		<tag k="name" v="Bergenbanken" />
		<tag k="place" v="locality" />
		<tag k="ssr:stedsnr" v="587751" />
	</node>
	<node id="-541" lat="72.1666666672" lon="25.5833331846">
		<tag k="name" v="Nordkappbanken" />
		<tag k="place" v="locality" />
		<tag k="ssr:stedsnr" v="587559" />
	</node>
	<node id="-536" lat="62.6112111095" lon="3.63543889041">
		<tag k="name" v="Aktivneset" />
		<tag k="natural" v="reef" />
		<tag k="place" v="locality" />
		<tag k="ssr:stedsnr" v="587223" />
	</node>
	<node id="-532" lat="59.2317198345" lon="-10.2081025885">
		<tag k="name" v="Rosemary Bank" />
		<tag k="name:en" v="Rosemary Bank" />
		<tag k="place" v="locality" />
		<tag k="ssr:stedsnr" v="586978" />
	</node>
	<node id="-531" lat="61.1112361094" lon="1.06840832767">
		<tag k="name" v="Comorant" />
		<tag k="name:en" v="Comorant" />
		<tag k="ssr:stedsnr" v="586870" />
		<tag k="waterway" v="offshore_field" />
	</node>
	<node id="-530" lat="71.5787777737" lon="21.2022916525">
		<tag k="name" v="Snøhvit" />
		<tag k="ssr:stedsnr" v="586865" />
		<tag k="waterway" v="offshore_field" />
	</node>
	<node id="-522" lat="59.9387583356" lon="0.408741662685">
		<tag k="name" v="Forty Mile Ground" />
		<tag k="name:en" v="Forty Mile Ground" />
		<tag k="natural" v="shoal" />
		<tag k="place" v="locality" />
		<tag k="ssr:stedsnr" v="586250" />
	</node>
	<node id="-521" lat="59.4499999959" lon="2.36666666139">
		<tag k="name" v="Jotun B" />
		<tag k="ssr:stedsnr" v="603027" />
		<tag k="waterway" v="offshore_field" />
	</node>
	<node id="-520" lat="71.4667444483" lon="26.0901192093">
		<tag k="name" v="Nysleppen" />
		<tag k="place" v="locality" />
		<tag k="ssr:stedsnr" v="570840" />
	</node>
	<node id="-516" lat="57.9555555576" lon="1.8444444375">
		<tag k="name" v="Armada" />
		<tag k="name:en" v="Armada" />
		<tag k="ssr:stedsnr" v="545792" />
		<tag k="waterway" v="offshore_field" />
	</node>
	<node id="-514" lat="58.7097222219" lon="11.1791666731">
		<tag k="name" v="Persgrunden" />
		<tag k="name:sv" v="Persgrunden" />
		<tag k="natural" v="shoal" />
		<tag k="place" v="locality" />
		<tag k="ssr:stedsnr" v="545757" />
	</node>
	<node id="-512" lat="57.7499999958" lon="10.6250000046">
		<tag k="name" v="Skagens rev" />
		<tag k="name:da" v="Skagens rev" />
		<tag k="natural" v="cape" />
		<tag k="ssr:stedsnr" v="545739" />
	</node>
	<node id="-510" lat="69.7888889707" lon="30.8333309852">
		<tag k="name" v="Stolboneset" />
		<tag k="natural" v="cape" />
		<tag k="ssr:stedsnr" v="545634" />
	</node>
	<node id="-509" lat="69.7069445646" lon="31.6833300796">
		<tag k="name" v="Kap Volokovi" />
		<tag k="name:ru" v="Kap Volokovi" />
		<tag k="natural" v="cape" />
		<tag k="ssr:stedsnr" v="545592" />
	</node>
	<node id="-508" lat="58.8722222195" lon="10.9999999996">
		<tag k="name" v="Kosteröarna" />
		<tag k="name:sv" v="Kosteröarna" />
		<tag k="place" v="island" />
		<tag k="ssr:stedsnr" v="545787" />
	</node>
	<node id="-507" lat="68.9416666653" lon="13.7499999925">
		<tag k="name" v="Staurgrunnen" />
		<tag k="natural" v="shoal" />
		<tag k="place" v="locality" />
		<tag k="ssr:stedsnr" v="545171" />
	</node>
	<node id="-506" lat="80.1569221993" lon="29.7649337152">
		<tag k="name" v="Kvitøyrenna" />
		<tag k="old_name" v="Kvitøyrennma" />
		<tag k="place" v="locality" />
		<tag k="ssr:stedsnr" v="544381" />
	</node>
	<node id="-502" lat="58.845833329" lon="1.74166665986">
		<tag k="name" v="Gudrun" />
		<tag k="ssr:stedsnr" v="543050" />
		<tag k="waterway" v="offshore_field" />
	</node>
	<node id="-501" lat="64.6499999971" lon="7.66666665683">
		<tag k="name" v="Mikkel Sør" />
		<tag k="ssr:stedsnr" v="542227" />
		<tag k="waterway" v="offshore_field" />
	</node>
	<node id="-500" lat="61.2201250007" lon="2.27768056071">
		<tag k="name" v="Gullfaks" />
		<tag k="ssr:stedsnr" v="541695" />
		<tag k="waterway" v="offshore_field" />
	</node>
	<node id="-499" lat="70.8583333623" lon="30.5499984538">
		<tag k="name" v="Øverbanken" />
		<tag k="place" v="locality" />
		<tag k="ssr:stedsnr" v="541053" />
	</node>
	<node id="-498" lat="70.1378305549" lon="17.3422777854">
		<tag k="name" v="Mulegga" />
		<tag k="place" v="locality" />
		<tag k="ssr:stedsnr" v="541030" />
	</node>
	<node id="-494" lat="54.7410638855" lon="2.59382222976">
		<tag k="name" v="Dogger Bank" />
		<tag k="name:en" v="Dogger Bank" />
		<tag k="place" v="locality" />
		<tag k="ssr:stedsnr" v="526985" />
	</node>
	<node id="-493" lat="53.9672861346" lon="-4.62955268052">
		<tag k="name" v="Irish Sea" />
		<tag k="name:en" v="Irish Sea" />
		<tag k="place" v="locality" />
		<tag k="ssr:stedsnr" v="526975" />
	</node>
	<node id="-492" lat="74.7981408267" lon="-19.4693130343">
		<tag k="name" v="Hochstetterbugten" />
		<tag k="name:da" v="Hochstetterbugten" />
		<tag k="natural" v="bay" />
		<tag k="ssr:stedsnr" v="526903" />
	</node>
	<node id="-491" lat="61.4833333329" lon="2.16666666942">
		<tag k="name" v="Snorre" />
		<tag k="ssr:stedsnr" v="526873" />
		<tag k="waterway" v="offshore_field" />
	</node>
	<node id="-490" lat="63.526241667" lon="5.37703611619">
		<tag k="name" v="Ormen Lange" />
		<tag k="ssr:stedsnr" v="526872" />
		<tag k="waterway" v="offshore_field" />
	</node>
	<node id="-487" lat="60.501894445" lon="2.53422778165">
		<tag k="name" v="Vikingbanken" />
		<tag k="place" v="locality" />
		<tag k="ssr:stedsnr" v="526688" />
	</node>
	<node id="-486" lat="63.0679722235" lon="5.32212222283">
		<tag k="name" v="Storegga" />
		<tag k="place" v="locality" />
		<tag k="ssr:stedsnr" v="526685" />
	</node>
	<node id="-484" lat="70.8666666634" lon="17.7833333334">
		<tag k="name" v="Teistgrunnen" />
		<tag k="place" v="locality" />
		<tag k="ssr:stedsnr" v="526669" />
	</node>
	<node id="-472" lat="69.5916669132" lon="33.6166602033">
		<tag k="name" v="Vestre Kildingrunnen" />
		<tag k="natural" v="shoal" />
		<tag k="place" v="locality" />
		<tag k="ssr:stedsnr" v="526132" />
	</node>
	<node id="-471" lat="69.3659504288" lon="34.8540342266">
		<tag k="name" v="Teriberskigr" />
		<tag k="name:ru" v="Teriberskigr" />
		<tag k="natural" v="shoal" />
		<tag k="place" v="locality" />
		<tag k="ssr:stedsnr" v="526130" />
	</node>
	<node id="-468" lat="56.3333333352" lon="3.2472222169">
		<tag k="name" v="Embla" />
		<tag k="ssr:stedsnr" v="485830" />
		<tag k="waterway" v="offshore_field" />
	</node>
	<node id="-467" lat="58.083333333" lon="1.90000000327">
		<tag k="name" v="Varg" />
		<tag k="ssr:stedsnr" v="485827" />
		<tag k="waterway" v="offshore_field" />
	</node>
	<node id="-466" lat="56.9374999959" lon="10.708333336">
		<tag k="name" v="Vestlige knold" />
		<tag k="name:da" v="Vestlige knold" />
		<tag k="place" v="locality" />
		<tag k="ssr:stedsnr" v="485819" />
	</node>
	<node id="-461" lat="57.183333335" lon="10.708333329">
		<tag k="name" v="Læsø rende" />
		<tag k="name:da" v="Læsø rende" />
		<tag k="place" v="locality" />
		<tag k="ssr:stedsnr" v="485735" />
	</node>
	<node id="-460" lat="57.1749999982" lon="11.2499999934">
		<tag k="name" v="Kobbergrunden" />
		<tag k="name:da" v="Kobbergrunden" />
		<tag k="natural" v="shoal" />
		<tag k="place" v="locality" />
		<tag k="ssr:stedsnr" v="485722" />
	</node>
	<node id="-459" lat="57.0249999964" lon="10.6499999918">
		<tag k="name" v="Langerevle" />
		<tag k="name:da" v="Langerevle" />
		<tag k="natural" v="shoal" />
		<tag k="place" v="locality" />
		<tag k="ssr:stedsnr" v="485719" />
	</node>
	<node id="-456" lat="58.3083333366" lon="11.7666666685">
		<tag k="bay" v="fjord" />
		<tag k="name" v="Havstens fjord" />
		<tag k="name:sv" v="Havstens fjord" />
		<tag k="natural" v="bay" />
		<tag k="ssr:stedsnr" v="485703" />
	</node>
	<node id="-455" lat="69.7208334286" lon="31.2083305958">
		<tag k="bay" v="fjord" />
		<tag k="name" v="Guba Dolgaja" />
		<tag k="name:ru" v="Guba Dolgaja" />
		<tag k="natural" v="bay" />
		<tag k="ssr:stedsnr" v="485571" />
	</node>
	<node id="-453" lat="61.0805555597" lon="2.49166666991">
		<tag k="name" v="Kvitebjørn" />
		<tag k="ssr:stedsnr" v="482758" />
		<tag k="waterway" v="offshore_field" />
	</node>
	<node id="-452" lat="61.7430555589" lon="4.48611111317">
		<tag k="name" v="Grunnskallen" />
		<tag k="natural" v="shoal" />
		<tag k="place" v="locality" />
		<tag k="ssr:stedsnr" v="482757" />
	</node>
	<node id="-451" lat="60.8999999973" lon="1.27499999617">
		<tag k="name" v="Lyell" />
		<tag k="ssr:stedsnr" v="482755" />
		<tag k="waterway" v="offshore_field" />
	</node>
	<node id="-448" lat="59.6189638889" lon="1.51446666895">
		<tag k="name" v="Linnhe" />
		<tag k="name:en" v="Linnhe" />
		<tag k="ssr:stedsnr" v="480998" />
		<tag k="waterway" v="offshore_field" />
	</node>
	<node id="-447" lat="61.077572225" lon="1.38993611147">
		<tag k="name" v="Hutton" />
		<tag k="name:en" v="Hutton" />
		<tag k="ssr:stedsnr" v="480996" />
		<tag k="waterway" v="offshore_field" />
	</node>
	<node id="-446" lat="73.2736777716" lon="28.1965386633">
		<tag k="name" v="Nordkappstrømmen, øvre" />
		<tag k="place" v="locality" />
		<tag k="ssr:stedsnr" v="480131" />
	</node>
	<node id="-445" lat="58.7499999971" lon="3.03333333764">
		<tag k="name" v="Klondyke (Skotske)" />
		<tag k="place" v="locality" />
		<tag k="ssr:stedsnr" v="480101" />
	</node>
	<node id="-442" lat="63.2000000036" lon="7.04999999437">
		<tag k="name" v="Hansgrunna" />
		<tag k="natural" v="shoal" />
		<tag k="place" v="locality" />
		<tag k="ssr:stedsnr" v="466766" />
	</node>
	<node id="-441" lat="63.1333333316" lon="5.40000000074">
		<tag k="name" v="Kalvhola" />
		<tag k="place" v="locality" />
		<tag k="ssr:stedsnr" v="466687" />
	</node>
	<node id="-440" lat="63.1066666689" lon="5.30000000481">
		<tag k="name" v="Fjørtoftneset" />
		<tag k="place" v="locality" />
		<tag k="ssr:stedsnr" v="466686" />
	</node>
	<node id="-439" lat="62.6958333351" lon="5.40666666702">
		<tag k="name" v="Piparseta" />
		<tag k="place" v="locality" />
		<tag k="ssr:stedsnr" v="466658" />
	</node>
	<node id="-438" lat="62.8666666684" lon="6.04583333402">
		<tag k="name" v="Vårbakken" />
		<tag k="place" v="locality" />
		<tag k="ssr:stedsnr" v="466652" />
	</node>
	<node id="-437" lat="71.3666666668" lon="19.083333342">
		<tag k="name" v="Tromsøflaket" />
		<tag k="place" v="locality" />
		<tag k="ssr:stedsnr" v="466575" />
	</node>
	<node id="-435" lat="74.3503638874" lon="20.7461027847">
		<tag k="name" v="Leirdjupet" />
		<tag k="place" v="locality" />
		<tag k="ssr:stedsnr" v="466529" />
	</node>
	<node id="-433" lat="64.6398361182" lon="22.777716531">
		<tag k="name" v="Bottenviken" />
		<tag k="place" v="locality" />
		<tag k="ssr:stedsnr" v="465963" />
	</node>
	<node id="-432" lat="65.1499999968" lon="9.38333332733">
		<tag k="name" v="Iverryggen" />
		<tag k="natural" v="reef" />
		<tag k="place" v="locality" />
		<tag k="ssr:stedsnr" v="465862" />
	</node>
	<node id="-424" lat="60.5625000019" lon="3.68333333412">
		<tag k="name" v="Togi" />
		<tag k="ssr:stedsnr" v="464794" />
		<tag k="waterway" v="offshore_field" />
	</node>
	<node id="-423" lat="57.1777777771" lon="11.733333331">
		<tag k="name" v="Fladen" />
		<tag k="name:sv" v="Fladen" />
		<tag k="place" v="locality" />
		<tag k="ssr:stedsnr" v="303865" />
	</node>
	<node id="-422" lat="57.6166666622" lon="11.7833333366">
		<tag k="name" v="Styrsö" />
		<tag k="name:sv" v="Styrsö" />
		<tag k="place" v="island" />
		<tag k="ssr:stedsnr" v="303860" />
	</node>
	<node id="-413" lat="58.3583333299" lon="11.4208333404">
		<tag k="bay" v="fjord" />
		<tag k="name" v="Brofjorden" />
		<tag k="name:sv" v="Brofjorden" />
		<tag k="natural" v="bay" />
		<tag k="ssr:stedsnr" v="303756" />
	</node>
	<node id="-412" lat="69.9352778935" lon="31.9999965928">
		<tag k="bay" v="fjord" />
		<tag k="name" v="Vayda-Guba" />
		<tag k="name:ru" v="Vayda-Guba" />
		<tag k="natural" v="bay" />
		<tag k="ssr:stedsnr" v="303625" />
	</node>
	<node id="-411" lat="70.5888888887" lon="19.2500000063">
		<tag k="name" v="Håkjerringsdjupet" />
		<tag k="place" v="locality" />
		<tag k="ssr:stedsnr" v="303010" />
	</node>
	<node id="-410" lat="69.461111113" lon="16.594444457">
		<tag k="name" v="Vesterbakken" />
		<tag k="place" v="locality" />
		<tag k="ssr:stedsnr" v="302728" />
	</node>
	<node id="-409" lat="68.6833333333" lon="14.1166666724">
		<tag k="name" v="Djuphola" />
		<tag k="place" v="locality" />
		<tag k="ssr:stedsnr" v="302213" />
	</node>
	<node id="-408" lat="59.2541666705" lon="1.50833332851">
		<tag k="name" v="Bergen Ground" />
		<tag k="name:en" v="Bergen Ground" />
		<tag k="place" v="locality" />
		<tag k="ssr:stedsnr" v="300788" />
	</node>
	<node id="-407" lat="64.3416666675" lon="7.72083333574">
		<tag k="name" v="Garn West" />
		<tag k="ssr:stedsnr" v="300233" />
		<tag k="waterway" v="offshore_field" />
	</node>
	<node id="-406" lat="72.4321638396" lon="32.6313678408">
		<tag k="name" v="Nordkappstrømmen, nedre" />
		<tag k="place" v="locality" />
		<tag k="ssr:stedsnr" v="299142" />
	</node>
	<node id="-405" lat="61.3982611145" lon="1.72385277512">
		<tag k="name" v="Murchison" />
		<tag k="name:en" v="Murchison" />
		<tag k="ssr:stedsnr" v="299000" />
		<tag k="waterway" v="offshore_field" />
	</node>
	<node id="-404" lat="58.5833333318" lon="2.49166666778">
		<tag k="name" v="Korallbanken" />
		<tag k="place" v="locality" />
		<tag k="ssr:stedsnr" v="298145" />
	</node>
	<node id="-403" lat="69.3171500044" lon="15.0389166658">
		<tag k="name" v="Langenesegga" />
		<tag k="place" v="locality" />
		<tag k="ssr:stedsnr" v="298040" />
	</node>
	<node id="-402" lat="61.3805555598" lon="2.11111111699">
		<tag k="name" v="Vigdis" />
		<tag k="ssr:stedsnr" v="300770" />
		<tag k="waterway" v="offshore_field" />
	</node>
	<node id="-401" lat="62.6972222211" lon="5.59999999127">
		<tag k="name" v="Heldet" />
		<tag k="natural" v="shoal" />
		<tag k="place" v="locality" />
		<tag k="ssr:stedsnr" v="285695" />
	</node>
	<node id="-400" lat="62.3749999961" lon="5.21666666241">
		<tag k="name" v="Mulegrunnen" />
		<tag k="natural" v="shoal" />
		<tag k="place" v="locality" />
		<tag k="ssr:stedsnr" v="285661" />
	</node>
	<node id="-399" lat="62.5861111095" lon="5.49444444562">
		<tag k="name" v="Klovegrunnen" />
		<tag k="natural" v="shoal" />
		<tag k="place" v="locality" />
		<tag k="ssr:stedsnr" v="285662" />
	</node>
	<node id="-398" lat="62.6500000016" lon="5.55833332778">
		<tag k="name" v="Neteskallen" />
		<tag k="place" v="locality" />
		<tag k="ssr:stedsnr" v="285628" />
	</node>
	<node id="-397" lat="62.7500000047" lon="4.18333333955">
		<tag k="name" v="Korallneset" />
		<tag k="place" v="locality" />
		<tag k="ssr:stedsnr" v="285621" />
	</node>
	<node id="-396" lat="66.1397281646" lon="-13.0751779773">
		<tag k="name" v="Vopnafjardargrunn" />
		<tag k="name:is" v="Vopnafjardargrunn" />
		<tag k="place" v="locality" />
		<tag k="ssr:stedsnr" v="284927" />
	</node>
	<node id="-395" lat="64.7341977215" lon="-12.8361551909">
		<tag k="name" v="Skrúdsgrunn" />
		<tag k="name:is" v="Skrúdsgrunn" />
		<tag k="place" v="locality" />
		<tag k="ssr:stedsnr" v="284923" />
	</node>
	<node id="-386" lat="66.6072623824" lon="43.6414204413">
		<tag k="name" v="Mezenskij Zaliv" />
		<tag k="name:ru" v="Mezenskij Zaliv" />
		<tag k="natural" v="bay" />
		<tag k="ssr:stedsnr" v="283891" />
	</node>
	<node id="-379" lat="61.5075028234" lon="-6.83861056976">
		<tag k="name" v="Suderøy" />
		<tag k="place" v="island" />
		<tag k="ssr:stedsnr" v="283150" />
	</node>
	<node id="-374" lat="56.6749999987" lon="5.41250000656">
		<tag k="name" v="Nini East" />
		<tag k="name:da" v="Nini East" />
		<tag k="ssr:stedsnr" v="242848" />
		<tag k="waterway" v="offshore_field" />
	</node>
	<node id="-373" lat="56.641666668" lon="5.32500000205">
		<tag k="name" v="Nini" />
		<tag k="name:da" v="Nini" />
		<tag k="ssr:stedsnr" v="242846" />
		<tag k="waterway" v="offshore_field" />
	</node>
	<node id="-369" lat="57.1375000032" lon="9.12916667359">
		<tag k="name" v="Torup Strand" />
		<tag k="name:da" v="Torup Strand" />
		<tag k="natural" v="beach" />
		<tag k="place" v="locality" />
		<tag k="ssr:stedsnr" v="242773" />
	</node>
	<node id="-368" lat="57.6999999995" lon="10.1499999927">
		<tag k="name" v="Skagbanke" />
		<tag k="name:da" v="Skagbanke" />
		<tag k="place" v="locality" />
		<tag k="ssr:stedsnr" v="242761" />
	</node>
	<node id="-367" lat="57.1916666694" lon="10.8583333264">
		<tag k="name" v="Søndre Rønner flak" />
		<tag k="name:da" v="Søndre Rønner flak" />
		<tag k="natural" v="shoal" />
		<tag k="place" v="locality" />
		<tag k="ssr:stedsnr" v="242753" />
	</node>
	<node id="-365" lat="58.4000000008" lon="11.4000000053">
		<tag k="bay" v="fjord" />
		<tag k="name" v="Åbyfjorden" />
		<tag k="name:sv" v="Åbyfjorden" />
		<tag k="natural" v="bay" />
		<tag k="ssr:stedsnr" v="242742" />
	</node>
	<node id="-363" lat="57.6916666651" lon="11.6472222289">
		<tag k="name" v="Hönö" />
		<tag k="name:sv" v="Hönö" />
		<tag k="place" v="island" />
		<tag k="ssr:stedsnr" v="242731" />
	</node>
	<node id="-362" lat="57.7166666688" lon="11.6416666732">
		<tag k="name" v="Öckerö" />
		<tag k="name:sv" v="Öckerö" />
		<tag k="place" v="island" />
		<tag k="ssr:stedsnr" v="242730" />
	</node>
	<node id="-360" lat="57.9750000007" lon="11.7388888818">
		<tag k="bay" v="fjord" />
		<tag k="name" v="Hakefjord" />
		<tag k="name:sv" v="Hakefjord" />
		<tag k="natural" v="bay" />
		<tag k="ssr:stedsnr" v="242719" />
	</node>
	<node id="-359" lat="69.6666667799" lon="31.4416636377">
		<tag k="bay" v="fjord" />
		<tag k="name" v="Petsamofjorden" />
		<tag k="natural" v="bay" />
		<tag k="ssr:stedsnr" v="242600" />
	</node>
	<node id="-358" lat="69.6236112221" lon="31.3624970242">
		<tag k="name" v="Kap Tolstik" />
		<tag k="name:ru" v="Kap Tolstik" />
		<tag k="natural" v="cape" />
		<tag k="ssr:stedsnr" v="242580" />
	</node>
	<node id="-357" lat="69.6833334505" lon="31.5083302534">
		<tag k="name" v="Kap Krikun" />
		<tag k="name:ru" v="Kap Krikun" />
		<tag k="natural" v="cape" />
		<tag k="ssr:stedsnr" v="242577" />
	</node>
	<node id="-356" lat="70.4333333364" lon="18.9166666684">
		<tag k="name" v="Havgrunnen" />
		<tag k="place" v="locality" />
		<tag k="ssr:stedsnr" v="242104" />
	</node>
	<node id="-355" lat="59.2791666627" lon="1.51666666094">
		<tag k="name" v="Harding" />
		<tag k="ssr:stedsnr" v="239815" />
		<tag k="waterway" v="offshore_field" />
	</node>
	<node id="-354" lat="59.7481611086" lon="2.57457221694">
		<tag k="name" v="Frøy" />
		<tag k="ssr:stedsnr" v="238945" />
		<tag k="waterway" v="offshore_field" />
	</node>
	<node id="-353" lat="70.6722222241" lon="20.0166666525">
		<tag k="name" v="Sotbakken" />
		<tag k="place" v="locality" />
		<tag k="ssr:stedsnr" v="238670" />
	</node>
	<node id="-352" lat="58.1583333325" lon="4.69999999377">
		<tag k="name" v="Revet" />
		<tag k="place" v="locality" />
		<tag k="ssr:stedsnr" v="238401" />
	</node>
	<node id="-351" lat="70.8799056134" lon="33.1525518145">
		<tag k="name" v="Murmanskstrømmen" />
		<tag k="place" v="locality" />
		<tag k="ssr:stedsnr" v="238151" />
	</node>
	<node id="-349" lat="70.6886027818" lon="17.5886444337">
		<tag k="name" v="Ryggen" />
		<tag k="place" v="locality" />
		<tag k="ssr:stedsnr" v="238024" />
	</node>
	<node id="-348" lat="56.1749999983" lon="3.45833333797">
		<tag k="name" v="Hod" />
		<tag k="ssr:stedsnr" v="242826" />
		<tag k="waterway" v="offshore_field" />
	</node>
	<node id="-347" lat="57.9166666703" lon="2.61666666996">
		<tag k="name" v="Midtbanken" />
		<tag k="place" v="locality" />
		<tag k="ssr:stedsnr" v="237127" />
	</node>
	<node id="-345" lat="63.4458333368" lon="6.63333332714">
		<tag k="name" v="Nordegga" />
		<tag k="place" v="locality" />
		<tag k="ssr:stedsnr" v="224615" />
	</node>
	<node id="-342" lat="66.7306560855" lon="-14.3144090192">
		<tag k="name" v="Langanesdjup" />
		<tag k="name:is" v="Langanesdjup" />
		<tag k="place" v="locality" />
		<tag k="ssr:stedsnr" v="223948" />
	</node>
	<node id="-341" lat="66.5261866653" lon="-14.2735699928">
		<tag k="name" v="Langanesgrunn" />
		<tag k="name:is" v="Langanesgrunn" />
		<tag k="place" v="locality" />
		<tag k="ssr:stedsnr" v="223944" />
	</node>
	<node id="-339" lat="71.0494472235" lon="18.0663111038">
		<tag k="name" v="Teistgrunnskallan" />
		<tag k="place" v="locality" />
		<tag k="ssr:stedsnr" v="223874" />
	</node>
	<node id="-333" lat="71.0169166658" lon="20.2817611029">
		<tag k="name" v="Realgrunnen" />
		<tag k="place" v="locality" />
		<tag k="ssr:stedsnr" v="223675" />
	</node>
	<node id="-323" lat="62.653283335" lon="3.9463916699">
		<tag k="name" v="Korallneset" />
		<tag k="natural" v="reef" />
		<tag k="place" v="locality" />
		<tag k="ssr:stedsnr" v="223210" />
	</node>
	<node id="-319" lat="69.3440642227" lon="34.0765725297">
		<tag k="name" v="Kildin" />
		<tag k="name:ru" v="Kildin" />
		<tag k="place" v="island" />
		<tag k="ssr:stedsnr" v="223095" />
	</node>
	<node id="-318" lat="66.8500000043" lon="8.49999999099">
		<tag k="name" v="Gamlembanken" />
		<tag k="place" v="locality" />
		<tag k="ssr:stedsnr" v="222932" />
	</node>
	<node id="-304" lat="69.6027778883" lon="31.3374970323">
		<tag k="name" v="Nosarneset" />
		<tag k="natural" v="cape" />
		<tag k="ssr:stedsnr" v="182619" />
	</node>
	<node id="-302" lat="69.6333334502" lon="31.399996991">
		<tag k="name" v="Krestovoipynten" />
		<tag k="natural" v="cape" />
		<tag k="ssr:stedsnr" v="182570" />
	</node>
	<node id="-301" lat="69.6416667735" lon="31.3666636999">
		<tag k="name" v="Devkinbukta" />
		<tag k="natural" v="bay" />
		<tag k="ssr:stedsnr" v="182567" />
	</node>
	<node id="-300" lat="56.7861111113" lon="11.3750000065">
		<tag k="name" v="Nordvest rev" />
		<tag k="name:da" v="Nordvest rev" />
		<tag k="place" v="locality" />
		<tag k="ssr:stedsnr" v="181869" />
	</node>
	<node id="-299" lat="58.4791666688" lon="1.26666666269">
		<tag k="name" v="Tiffany" />
		<tag k="name:en" v="Tiffany" />
		<tag k="ssr:stedsnr" v="181847" />
		<tag k="waterway" v="offshore_field" />
	</node>
	<node id="-297" lat="69.9208334245" lon="31.3166639667">
		<tag k="name" v="Henøygrunnen" />
		<tag k="natural" v="shoal" />
		<tag k="place" v="locality" />
		<tag k="ssr:stedsnr" v="181649" />
	</node>
	<node id="-296" lat="69.1333333367" lon="14.7500000052">
		<tag k="name" v="Sanden" />
		<tag k="natural" v="shoal" />
		<tag k="place" v="locality" />
		<tag k="ssr:stedsnr" v="181192" />
	</node>
	<node id="-295" lat="59.5625000032" lon="1.65833333487">
		<tag k="name" v="Leadon" />
		<tag k="ssr:stedsnr" v="180464" />
		<tag k="waterway" v="offshore_field" />
	</node>
	<node id="-294" lat="60.8111111148" lon="1.73333334119">
		<tag k="name" v="Alwyn North" />
		<tag k="ssr:stedsnr" v="179751" />
		<tag k="waterway" v="offshore_field" />
	</node>
	<node id="-293" lat="80.142135999" lon="33.3674433701">
		<tag k="name" v="Hornodden" />
		<tag k="natural" v="cape" />
		<tag k="ssr:stedsnr" v="179112" />
	</node>
	<node id="-292" lat="70.5755444428" lon="19.3935638905">
		<tag k="name" v="Østhola" />
		<tag k="place" v="locality" />
		<tag k="ssr:stedsnr" v="177695" />
	</node>
	<node id="-291" lat="70.8451862214" lon="38.6602751549">
		<tag k="name" v="Kaninstrømmen" />
		<tag k="place" v="locality" />
		<tag k="ssr:stedsnr" v="177148" />
	</node>
	<node id="-290" lat="69.5310223919" lon="32.4405455569">
		<tag k="name" v="Motovskibukta" />
		<tag k="name:ru" v="Motovskibukta" />
		<tag k="natural" v="bay" />
		<tag k="ssr:stedsnr" v="177116" />
	</node>
	<node id="-289" lat="71.1528000273" lon="31.5901313163">
		<tag k="name" v="Sølebanken" />
		<tag k="place" v="locality" />
		<tag k="ssr:stedsnr" v="177045" />
	</node>
	<node id="-288" lat="57.1666666638" lon="6.03333333448">
		<tag k="name" v="Vestbanken" />
		<tag k="place" v="locality" />
		<tag k="ssr:stedsnr" v="176135" />
	</node>
	<node id="-287" lat="58.8584222233" lon="2.59831943807">
		<tag k="name" v="Utsiragrunnen" />
		<tag k="place" v="locality" />
		<tag k="ssr:stedsnr" v="170394" />
	</node>
	<node id="-286" lat="63.224999998" lon="5.33333333692">
		<tag k="name" v="Skateneset" />
		<tag k="place" v="locality" />
		<tag k="ssr:stedsnr" v="163637" />
	</node>
	<node id="-285" lat="63.3999999986" lon="5.70000000758">
		<tag k="name" v="Hola" />
		<tag k="place" v="locality" />
		<tag k="ssr:stedsnr" v="163630" />
	</node>
	<node id="-284" lat="63.2333333309" lon="5.95000000577">
		<tag k="name" v="Onagrunnen" />
		<tag k="natural" v="shoal" />
		<tag k="place" v="locality" />
		<tag k="ssr:stedsnr" v="163627" />
	</node>
	<node id="-282" lat="59.300000004" lon="4.4166666629">
		<tag k="name" v="Austrebakken" />
		<tag k="place" v="locality" />
		<tag k="ssr:stedsnr" v="163094" />
	</node>
	<node id="-281" lat="56.2946588618" lon="-14.3937979453">
		<tag k="name" v="Rockallplateau" />
		<tag k="name:en" v="Rockallplateau" />
		<tag k="place" v="locality" />
		<tag k="ssr:stedsnr" v="162987" />
	</node>
	<node id="-280" lat="66.2925126403" lon="-16.8372779591">
		<tag k="bay" v="fjord" />
		<tag k="name" v="Axarfjørdur" />
		<tag k="name:is" v="Axarfjørdur" />
		<tag k="natural" v="bay" />
		<tag k="ssr:stedsnr" v="162928" />
	</node>
	<node id="-279" lat="63.7021488643" lon="-15.2764727944">
		<tag k="name" v="Mýragrunn" />
		<tag k="name:is" v="Mýragrunn" />
		<tag k="place" v="locality" />
		<tag k="ssr:stedsnr" v="162916" />
	</node>
	<node id="-278" lat="71.488983337" lon="21.082436089">
		<tag k="name" v="Albatross" />
		<tag k="ssr:stedsnr" v="162876" />
		<tag k="waterway" v="offshore_field" />
	</node>
	<node id="-277" lat="59.4509750008" lon="2.37863610757">
		<tag k="name" v="Jotun" />
		<tag k="ssr:stedsnr" v="162871" />
		<tag k="waterway" v="offshore_field" />
	</node>
	<node id="-276" lat="74.0045222215" lon="16.9121694529">
		<tag k="name" v="Sørvestsnaget" />
		<tag k="place" v="locality" />
		<tag k="ssr:stedsnr" v="162821" />
	</node>
	<node id="-265" lat="60.4227954261" lon="-12.6127644797">
		<tag k="name" v="Outer Bailey Bank" />
		<tag k="name:en" v="Outer Bailey Bank" />
		<tag k="place" v="locality" />
		<tag k="ssr:stedsnr" v="162220" />
	</node>
	<node id="-264" lat="59.0130638896" lon="11.115011112">
		<tag k="name" v="Säcken" />
		<tag k="natural" v="reef" />
		<tag k="place" v="locality" />
		<tag k="ssr:stedsnr" v="162198" />
	</node>
	<node id="-263" lat="60.6999999982" lon="2.93333333442">
		<tag k="name" v="Oseberg Øst" />
		<tag k="ssr:stedsnr" v="161755" />
		<tag k="waterway" v="offshore_field" />
	</node>
	<node id="-262" lat="57.6897888891" lon="10.166900001">
		<tag k="name" v="Skagbanke" />
		<tag k="name:da" v="Skagbanke" />
		<tag k="place" v="locality" />
		<tag k="ssr:stedsnr" v="161170" />
	</node>
	<node id="-259" lat="67.0894000017" lon="10.5554389">
		<tag k="name" v="Norskehavet - Norwegian Sea" />
		<tag k="name:en" v="Norwegian Sea" />
		<tag k="name:no" v="Norskehavet" />
		<tag k="place" v="sea" />
		<tag k="ssr:stedsnr" v="134842" />
	</node>
	<node id="-258" lat="57.7333333313" lon="11.766666672">
		<tag k="name" v="Hisingen" />
		<tag k="name:sv" v="Hisingen" />
		<tag k="place" v="island" />
		<tag k="ssr:stedsnr" v="545733" />
	</node>
	<node id="-257" lat="58.7561416661" lon="9.70395000597">
		<tag k="name" v="Skagerrak" />
		<tag k="old_name" v="Skagerak" />
		<tag k="place" v="sea" />
		<tag k="ssr:stedsnr" v="788024" />
	</node>
	<node id="-256" lat="59.5328416676" lon="-1.62703331822">
		<tag k="name" v="Fair Isle" />
		<tag k="name:en" v="Fair Isle" />
		<tag k="place" v="island" />
		<tag k="ssr:stedsnr" v="526226" />
	</node>
	<node id="-254" lat="70.6919224322" lon="38.3329007414">
		<tag k="name" v="Norddjupet" />
		<tag k="place" v="locality" />
		<tag k="ssr:stedsnr" v="526141" />
	</node>
	<node id="-252" lat="56.9666666705" lon="9.08333334137">
		<tag k="bay" v="fjord" />
		<tag k="name" v="Limfjorden" />
		<tag k="name:da" v="Limfjorden" />
		<tag k="natural" v="bay" />
		<tag k="ssr:stedsnr" v="121846" />
	</node>
	<node id="-251" lat="56.9583333294" lon="10.7749999976">
		<tag k="name" v="Østlige knold" />
		<tag k="name:da" v="Østlige knold" />
		<tag k="place" v="locality" />
		<tag k="ssr:stedsnr" v="121836" />
	</node>
	<node id="-248" lat="57.2499999981" lon="10.9999999995">
		<tag k="name" v="Læsø" />
		<tag k="name:da" v="Læsø" />
		<tag k="place" v="island" />
		<tag k="ssr:stedsnr" v="121816" />
	</node>
	<node id="-246" lat="57.4541666698" lon="11.3291666598">
		<tag k="name" v="Kummelbanke" />
		<tag k="name:da" v="Kummelbanke" />
		<tag k="place" v="locality" />
		<tag k="ssr:stedsnr" v="121777" />
	</node>
	<node id="-243" lat="57.4916666661" lon="9.70833333471">
		<tag k="name" v="Lønstrup Rødgrund" />
		<tag k="name:da" v="Lønstrup Rødgrund" />
		<tag k="natural" v="shoal" />
		<tag k="place" v="locality" />
		<tag k="ssr:stedsnr" v="121768" />
	</node>
	<node id="-242" lat="57.7333333318" lon="11.683333326">
		<tag k="name" v="Björkö" />
		<tag k="name:sv" v="Björkö" />
		<tag k="place" v="island" />
		<tag k="ssr:stedsnr" v="121750" />
	</node>
	<node id="-240" lat="58.1541666674" lon="11.3749999978">
		<tag k="name" v="Härmanö" />
		<tag k="name:sv" v="Härmanö" />
		<tag k="place" v="island" />
		<tag k="ssr:stedsnr" v="121745" />
	</node>
	<node id="-237" lat="60.9874999981" lon="4.32361111669">
		<tag k="name" v="Langryggene" />
		<tag k="place" v="locality" />
		<tag k="ssr:stedsnr" v="118752" />
	</node>
	<node id="-235" lat="64.3543222239" lon="7.78000834084">
		<tag k="name" v="Draugen" />
		<tag k="ssr:stedsnr" v="117678" />
		<tag k="waterway" v="offshore_field" />
	</node>
	<node id="-232" lat="65.2499999958" lon="8.26666666999">
		<tag k="name" v="Sklinnabakken" />
		<tag k="place" v="locality" />
		<tag k="ssr:stedsnr" v="116891" />
	</node>
	<node id="-231" lat="71.5562694444" lon="17.9806611233">
		<tag k="name" v="Tungene" />
		<tag k="place" v="locality" />
		<tag k="ssr:stedsnr" v="116039" />
	</node>
	<node id="-229" lat="62.3500000038" lon="5.03333333981">
		<tag k="name" v="Onadjupet" />
		<tag k="place" v="locality" />
		<tag k="ssr:stedsnr" v="103707" />
	</node>
	<node id="-228" lat="62.7333333307" lon="4.84166666239">
		<tag k="name" v="Gnausen" />
		<tag k="natural" v="shoal" />
		<tag k="place" v="locality" />
		<tag k="ssr:stedsnr" v="103630" />
	</node>
	<node id="-227" lat="66.8659367794" lon="-15.041845921">
		<tag k="name" v="Thistilfjardargrunn" />
		<tag k="name:is" v="Thistilfjardargrunn" />
		<tag k="place" v="locality" />
		<tag k="ssr:stedsnr" v="102927" />
	</node>
	<node id="-217" lat="63.5278249954" lon="5.75442776894">
		<tag k="name" v="Storneset" />
		<tag k="natural" v="reef" />
		<tag k="place" v="locality" />
		<tag k="ssr:stedsnr" v="102264" />
	</node>
	<node id="-214" lat="75.5988972255" lon="13.6086777879">
		<tag k="name" v="Russerbanken" />
		<tag k="place" v="locality" />
		<tag k="ssr:stedsnr" v="101990" />
	</node>
	<node id="-213" lat="61.830650002" lon="19.387936096">
		<tag k="name" v="Bottenhavet" />
		<tag k="place" v="locality" />
		<tag k="ssr:stedsnr" v="101962" />
	</node>
	<node id="-212" lat="70.6720861213" lon="-8.82443850557">
		<tag k="name" v="Straumflaket" />
		<tag k="natural" v="shoal" />
		<tag k="place" v="locality" />
		<tag k="ssr:stedsnr" v="101954" />
	</node>
	<node id="-211" lat="66.3256987574" lon="34.8823805629">
		<tag k="name" v="Kandalakshskij Zaliv" />
		<tag k="name:ru" v="Kandalakshskij Zaliv" />
		<tag k="natural" v="bay" />
		<tag k="ssr:stedsnr" v="101907" />
	</node>
	<node id="-210" lat="59.885641669" lon="2.05216943757">
		<tag k="name" v="Frigg" />
		<tag k="ssr:stedsnr" v="101883" />
		<tag k="waterway" v="offshore_field" />
	</node>
	<node id="-209" lat="71.4000000078" lon="24.7166665377">
		<tag k="name" v="Hjelmsøybanken" />
		<tag k="place" v="locality" />
		<tag k="ssr:stedsnr" v="101856" />
	</node>
	<node id="-208" lat="74.2628694478" lon="22.7299944286">
		<tag k="name" v="Gardarbanken" />
		<tag k="place" v="locality" />
		<tag k="ssr:stedsnr" v="101804" />
	</node>
	<node id="-202" lat="69.0530444476" lon="14.1928888797">
		<tag k="alt_name" v="Vesterålsbankene" />
		<tag k="name" v="Vesterålsbankane" />
		<tag k="place" v="locality" />
		<tag k="ssr:stedsnr" v="101590" />
	</node>
	<node id="-200" lat="68.3294384077" lon="38.42140337">
		<tag k="name" v="Drozdovkabkt" />
		<tag k="name:ru" v="Drozdovkabkt" />
		<tag k="natural" v="bay" />
		<tag k="ssr:stedsnr" v="101132" />
	</node>
	<node id="-198" lat="61.4881385709" lon="-15.2725110783">
		<tag k="name" v="Nord-Atlanteren - North Atlantic" />
		<tag k="name:en" v="North Atlantic" />
		<tag k="name:no" v="Nord-Atlanteren" />
		<tag k="place" v="sea" />
		<tag k="ssr:stedsnr" v="951914" />
	</node>
	<node id="-197" lat="77.7182162124" lon="-18.0166679689">
		<tag k="name" v="Île de France" />
		<tag k="place" v="island" />
		<tag k="ssr:stedsnr" v="99371" />
	</node>
	<node id="-196" lat="60.906944443" lon="1.41666666395">
		<tag k="name" v="Ninian Northern" />
		<tag k="ssr:stedsnr" v="361776" />
		<tag k="waterway" v="offshore_field" />
	</node>
	<node id="-194" lat="58.4597222195" lon="1.90555556499">
		<tag k="name" v="Volve" />
		<tag k="ssr:stedsnr" v="60880" />
		<tag k="waterway" v="offshore_field" />
	</node>
	<node id="-193" lat="56.6416666664" lon="3.32499999935">
		<tag k="name" v="Tor" />
		<tag k="ssr:stedsnr" v="60858" />
		<tag k="waterway" v="offshore_field" />
	</node>
	<node id="-189" lat="58.3333333315" lon="11.4833333319">
		<tag k="name" v="Stångenäs" />
		<tag k="name:sv" v="Stångenäs" />
		<tag k="natural" v="cape" />
		<tag k="ssr:stedsnr" v="60821" />
	</node>
	<node id="-188" lat="58.8750000002" lon="11.1666666628">
		<tag k="name" v="Tjärnö" />
		<tag k="name:sv" v="Tjärnö" />
		<tag k="place" v="island" />
		<tag k="ssr:stedsnr" v="60814" />
	</node>
	<node id="-187" lat="58.9083333298" lon="11.1416666677">
		<tag k="name" v="Öddö" />
		<tag k="name:sv" v="Öddö" />
		<tag k="place" v="island" />
		<tag k="ssr:stedsnr" v="60804" />
	</node>
	<node id="-185" lat="57.4750000035" lon="11.2333333344">
		<tag k="name" v="Tønneberg banke" />
		<tag k="name:da" v="Tønneberg banke" />
		<tag k="place" v="locality" />
		<tag k="ssr:stedsnr" v="60795" />
	</node>
	<node id="-184" lat="57.5500000043" lon="10.5000000056">
		<tag k="name" v="Ålbæk bugt" />
		<tag k="name:da" v="Ålbæk bugt" />
		<tag k="place" v="locality" />
		<tag k="ssr:stedsnr" v="60783" />
	</node>
	<node id="-183" lat="57.2083333312" lon="11.0166666735">
		<tag k="name" v="Hornfiskrøn" />
		<tag k="name:da" v="Hornfiskrøn" />
		<tag k="place" v="island" />
		<tag k="ssr:stedsnr" v="60777" />
	</node>
	<node id="-181" lat="57.7833333325" lon="11.6083333314">
		<tag k="name" v="Rörö" />
		<tag k="name:sv" v="Rörö" />
		<tag k="place" v="island" />
		<tag k="ssr:stedsnr" v="60764" />
	</node>
	<node id="-180" lat="69.9038889979" lon="31.8916633553">
		<tag k="name" v="Kap Kiysky" />
		<tag k="name:ru" v="Kap Kiysky" />
		<tag k="natural" v="cape" />
		<tag k="ssr:stedsnr" v="60595" />
	</node>
	<node id="-178" lat="68.8666666675" lon="13.3333333353">
		<tag k="name" v="Bukta" />
		<tag k="place" v="locality" />
		<tag k="ssr:stedsnr" v="60185" />
	</node>
	<node id="-176" lat="60.6000000021" lon="1.71666666652">
		<tag k="name" v="Alwyn" />
		<tag k="ssr:stedsnr" v="58791" />
		<tag k="waterway" v="offshore_field" />
	</node>
	<node id="-175" lat="60.8569444484" lon="1.46666666765">
		<tag k="name" v="Ninian Central" />
		<tag k="ssr:stedsnr" v="58766" />
		<tag k="waterway" v="offshore_field" />
	</node>
	<node id="-173" lat="59.7791205689" lon="-43.8944718791">
		<tag k="name" v="Kapp Farvel" />
		<tag k="natural" v="cape" />
		<tag k="ssr:stedsnr" v="58096" />
	</node>
	<node id="-172" lat="72.8238444304" lon="30.2570466113">
		<tag k="name" v="Barentshavet - Barents Sea" />
		<tag k="name:en" v="Barents Sea" />
		<tag k="name:no" v="Barentshavet" />
		<tag k="place" v="sea" />
		<tag k="ssr:stedsnr" v="451499" />
	</node>
	<node id="-170" lat="65.282291666" lon="10.1208388902">
		<tag k="name" v="Sklinnabanken" />
		<tag k="place" v="locality" />
		<tag k="ssr:stedsnr" v="450140" />
	</node>
	<node id="-168" lat="65.1499999989" lon="6.79999999377">
		<tag k="name" v="Åsgard" />
		<tag k="ssr:stedsnr" v="56705" />
		<tag k="waterway" v="offshore_field" />
	</node>
	<node id="-167" lat="61.2416666661" lon="1.88333334185">
		<tag k="name" v="Statfjord" />
		<tag k="ssr:stedsnr" v="56703" />
		<tag k="waterway" v="offshore_field" />
	</node>
	<node id="-166" lat="70.6666666645" lon="18.5750000022">
		<tag k="name" v="Vesthola" />
		<tag k="place" v="locality" />
		<tag k="ssr:stedsnr" v="56678" />
	</node>
	<node id="-165" lat="57.1166666646" lon="5.41666667147">
		<tag k="name" v="Lille Fiskebanke" />
		<tag k="place" v="locality" />
		<tag k="ssr:stedsnr" v="56385" />
	</node>
	<node id="-164" lat="70.1500000899" lon="31.6166638488">
		<tag k="name" v="Nordfargrunnen" />
		<tag k="natural" v="shoal" />
		<tag k="place" v="locality" />
		<tag k="ssr:stedsnr" v="56174" />
	</node>
	<node id="-162" lat="74.6119305567" lon="15.9972166712">
		<tag k="name" v="Knølegga" />
		<tag k="place" v="locality" />
		<tag k="ssr:stedsnr" v="56024" />
	</node>
	<node id="-160" lat="57.6916666706" lon="3.47499999646">
		<tag k="name" v="Austbanken" />
		<tag k="place" v="locality" />
		<tag k="ssr:stedsnr" v="55126" />
	</node>
	<node id="-157" lat="69.8500001118" lon="31.8416633535">
		<tag k="bay" v="fjord" />
		<tag k="name" v="Guba Bolshaya Volokovaya" />
		<tag k="name:ru" v="Guba Bolshaya Volokovaya" />
		<tag k="natural" v="bay" />
		<tag k="ssr:stedsnr" v="849670" />
	</node>
	<node id="-156" lat="62.9250000014" lon="6.31666666646">
		<tag k="name" v="Reisdjupet" />
		<tag k="place" v="locality" />
		<tag k="ssr:stedsnr" v="406652" />
	</node>
	<node id="-155" lat="62.8833333342" lon="5.88333333397">
		<tag k="name" v="Fjørtoftgrynna" />
		<tag k="natural" v="shoal" />
		<tag k="place" v="locality" />
		<tag k="ssr:stedsnr" v="406624" />
	</node>
	<node id="-154" lat="78.1360777766" lon="26.8100195104">
		<tag k="name" v="Olgastretet" />
		<tag k="place" v="locality" />
		<tag k="ssr:stedsnr" v="405980" />
	</node>
	<node id="-153" lat="66.5250114592" lon="-13.1231087525">
		<tag k="name" v="Bakkafloadjup" />
		<tag k="name:is" v="Bakkafloadjup" />
		<tag k="place" v="locality" />
		<tag k="ssr:stedsnr" v="405934" />
	</node>
	<node id="-152" lat="64.4215672253" lon="-12.9587352266">
		<tag k="name" v="Breiddalsgrunn" />
		<tag k="name:is" v="Breiddalsgrunn" />
		<tag k="place" v="locality" />
		<tag k="ssr:stedsnr" v="405922" />
	</node>
	<node id="-151" lat="65.0231701756" lon="-13.9515663759">
		<tag k="bay" v="fjord" />
		<tag k="name" v="Reydarfjørdur" />
		<tag k="name:is" v="Reydarfjørdur" />
		<tag k="natural" v="bay" />
		<tag k="ssr:stedsnr" v="405912" />
	</node>
	<node id="-150" lat="76.8852194486" lon="3.39223611163">
		<tag k="name" v="Grønlandshavet - Greenland Sea" />
		<tag k="name:en" v="Greenland Sea" />
		<tag k="name:no" v="Grønlandshavet" />
		<tag k="place" v="sea" />
		<tag k="ssr:stedsnr" v="405902" />
	</node>
	<node id="-145" lat="73.8083250017" lon="19.0148027819">
		<tag k="name" v="Sørbakken" />
		<tag k="place" v="locality" />
		<tag k="ssr:stedsnr" v="405540" />
	</node>
	<node id="-143" lat="74.3779083365" lon="16.3466666574">
		<tag k="name" v="Vestbakken" />
		<tag k="place" v="locality" />
		<tag k="ssr:stedsnr" v="405536" />
	</node>
	<node id="-140" lat="66.2362000029" lon="10.6011833335">
		<tag k="name" v="Hesteskoen" />
		<tag k="natural" v="reef" />
		<tag k="place" v="locality" />
		<tag k="ssr:stedsnr" v="405218" />
	</node>
	<node id="-135" lat="70.8565944516" lon="-7.54898313109">
		<tag k="name" v="Sarsbanke" />
		<tag k="place" v="locality" />
		<tag k="ssr:stedsnr" v="404926" />
	</node>
	<node id="-134" lat="64.5945256165" lon="-13.2882178776">
		<tag k="alt_name:is" v="Hvalsbakur" />
		<tag k="name" v="Hvalbakur" />
		<tag k="name:is" v="Hvalbakur" />
		<tag k="place" v="islet" />
		<tag k="ssr:stedsnr" v="404910" />
	</node>
	<node id="-133" lat="61.2917638928" lon="0.910924992209">
		<tag k="name" v="Tern" />
		<tag k="name:en" v="Tern" />
		<tag k="ssr:stedsnr" v="404859" />
		<tag k="waterway" v="offshore_field" />
	</node>
	<node id="-132" lat="60.7845138905" lon="2.90237221531">
		<tag k="name" v="Veslefrikk" />
		<tag k="ssr:stedsnr" v="404847" />
		<tag k="waterway" v="offshore_field" />
	</node>
	<node id="-131" lat="60.6083333353" lon="2.77500000407">
		<tag k="name" v="Oseberg C" />
		<tag k="ssr:stedsnr" v="404755" />
		<tag k="waterway" v="offshore_field" />
	</node>
	<node id="-127" lat="67.7670138874" lon="11.1822638913">
		<tag k="name" v="Vesterdjupet" />
		<tag k="place" v="locality" />
		<tag k="ssr:stedsnr" v="404605" />
	</node>
	<node id="-123" lat="72.6493305547" lon="2.71701944753">
		<tag k="name" v="Louise A Boyd-banken" />
		<tag k="place" v="locality" />
		<tag k="ssr:stedsnr" v="830939" />
	</node>
	<node id="-122" lat="59.5768305573" lon="2.23899166328">
		<tag k="name" v="Heimdal" />
		<tag k="ssr:stedsnr" v="830866" />
		<tag k="waterway" v="offshore_field" />
	</node>
	<node id="-121" lat="62.3500000038" lon="5.03333333981">
		<tag k="name" v="Nylandsbotnen" />
		<tag k="natural" v="shoal" />
		<tag k="place" v="locality" />
		<tag k="ssr:stedsnr" v="42634" />
	</node>
	<node id="-120" lat="63.3066666634" lon="5.4166666617">
		<tag k="name" v="Steinmaren" />
		<tag k="place" v="locality" />
		<tag k="ssr:stedsnr" v="42608" />
	</node>
	<node id="-119" lat="62.8166666685" lon="4.90833332979">
		<tag k="name" v="Slørebotnen" />
		<tag k="natural" v="shoal" />
		<tag k="place" v="locality" />
		<tag k="ssr:stedsnr" v="42596" />
	</node>
	<node id="-116" lat="57.8899361223" lon="-3.4257304782">
		<tag k="bay" v="fjord" />
		<tag k="name" v="Moray Firth" />
		<tag k="name:en" v="Moray Firth" />
		<tag k="natural" v="bay" />
		<tag k="ssr:stedsnr" v="41969" />
	</node>
	<node id="-115" lat="63.9029789725" lon="-14.5694432647">
		<tag k="name" v="Stokksnesgrunn" />
		<tag k="name:is" v="Stokksnesgrunn" />
		<tag k="place" v="locality" />
		<tag k="ssr:stedsnr" v="41900" />
	</node>
	<node id="-111" lat="64.1278146991" lon="-13.7141856408">
		<tag k="name" v="Papagrunn" />
		<tag k="name:is" v="Papagrunn" />
		<tag k="place" v="locality" />
		<tag k="ssr:stedsnr" v="41902" />
	</node>
	<node id="-110" lat="66.2448472221" lon="9.04009167613">
		<tag k="name" v="Trænabanken" />
		<tag k="place" v="locality" />
		<tag k="ssr:stedsnr" v="41684" />
	</node>
	<node id="-105" lat="74.3131861109" lon="21.7651722104">
		<tag k="name" v="Fingerdjupet" />
		<tag k="place" v="locality" />
		<tag k="ssr:stedsnr" v="41526" />
	</node>
	<node id="-102" lat="60.9439138849" lon="0.935969449142">
		<tag k="name" v="Heather" />
		<tag k="name:en" v="Heather" />
		<tag k="ssr:stedsnr" v="40890" />
		<tag k="waterway" v="offshore_field" />
	</node>
	<node id="-101" lat="64.1750000026" lon="8.28333334026">
		<tag k="name" v="Sularevet" />
		<tag k="natural" v="reef" />
		<tag k="place" v="locality" />
		<tag k="ssr:stedsnr" v="40876" />
	</node>
	<node id="-90" lat="69.8833335514" lon="33.9166600879">
		<tag k="name" v="Kildinbanken" />
		<tag k="place" v="locality" />
		<tag k="ssr:stedsnr" v="40145" />
	</node>
	<node id="-88" lat="62.1978305525" lon="4.68688333693">
		<tag k="name" v="Stadhavet" />
		<tag k="place" v="sea" />
		<tag k="ssr:stedsnr" v="389756" />
	</node>
	<node id="-87" lat="77.4259241453" lon="-19.6525401271">
		<tag k="bay" v="fjord" />
		<tag k="name" v="Skærfjorden" />
		<tag k="name:da" v="Skærfjorden" />
		<tag k="natural" v="bay" />
		<tag k="ssr:stedsnr" v="162905" />
	</node>
	<node id="-85" lat="57.4750000025" lon="9.65833332606">
		<tag k="name" v="Bakken" />
		<tag k="name:da" v="Bakken" />
		<tag k="place" v="locality" />
		<tag k="ssr:stedsnr" v="425785" />
	</node>
	<node id="-84" lat="56.8166666674" lon="8.75000000079">
		<tag k="name" v="Mors" />
		<tag k="name:da" v="Mors" />
		<tag k="place" v="island" />
		<tag k="ssr:stedsnr" v="425768" />
	</node>
	<node id="-83" lat="57.4194444418" lon="11.8333333391">
		<tag k="name" v="Rön" />
		<tag k="name:sv" v="Rön" />
		<tag k="place" v="island" />
		<tag k="ssr:stedsnr" v="424862" />
	</node>
	<node id="-80" lat="58.8583333296" lon="11.0999999918">
		<tag k="bay" v="fjord" />
		<tag k="name" v="Kosterfjorden" />
		<tag k="name:sv" v="Kosterfjorden" />
		<tag k="natural" v="bay" />
		<tag k="ssr:stedsnr" v="424797" />
	</node>
	<node id="-79" lat="57.6416666628" lon="10.1416666746">
		<tag k="name" v="Tannis bugt" />
		<tag k="name:da" v="Tannis bugt" />
		<tag k="place" v="sea" />
		<tag k="ssr:stedsnr" v="424777" />
	</node>
	<node id="-78" lat="57.3500000031" lon="11.0666666727">
		<tag k="name" v="Læsø NE-flak" />
		<tag k="name:da" v="Læsø NE-flak" />
		<tag k="place" v="locality" />
		<tag k="ssr:stedsnr" v="424769" />
	</node>
	<node id="-77" lat="57.1166666672" lon="11.5500000004">
		<tag k="name" v="Groves flak" />
		<tag k="name:da" v="Groves flak" />
		<tag k="place" v="locality" />
		<tag k="ssr:stedsnr" v="424768" />
	</node>
	<node id="-75" lat="70.8583333623" lon="30.5499984538">
		<tag k="name" v="Øvre Banken" />
		<tag k="place" v="locality" />
		<tag k="ssr:stedsnr" v="424615" />
	</node>
	<node id="-72" lat="71.3125000009" lon="22.2499999613">
		<tag k="name" v="Goliat" />
		<tag k="ssr:stedsnr" v="424303" />
		<tag k="waterway" v="offshore_field" />
	</node>
	<node id="-70" lat="59.4305555519" lon="1.67500000774">
		<tag k="name" v="Skene" />
		<tag k="ssr:stedsnr" v="422785" />
		<tag k="waterway" v="offshore_field" />
	</node>
	<node id="-69" lat="59.7444444422" lon="1.66944443812">
		<tag k="name" v="Bruce" />
		<tag k="ssr:stedsnr" v="422784" />
		<tag k="waterway" v="offshore_field" />
	</node>
	<node id="-68" lat="61.3305555599" lon="3.89444444871">
		<tag k="name" v="Gjøa A" />
		<tag k="ssr:stedsnr" v="422764" />
		<tag k="waterway" v="offshore_field" />
	</node>
	<node id="-63" lat="61.0958333364" lon="1.71666666437">
		<tag k="name" v="Brent" />
		<tag k="name:en" v="Brent" />
		<tag k="ssr:stedsnr" v="420996" />
		<tag k="waterway" v="offshore_field" />
	</node>
	<node id="-62" lat="60.906238892" lon="1.40826666004">
		<tag k="name" v="Ninian" />
		<tag k="name:en" v="Ninian" />
		<tag k="ssr:stedsnr" v="420995" />
		<tag k="waterway" v="offshore_field" />
	</node>
	<node id="-61" lat="60.3820000036" lon="2.79481388989">
		<tag k="name" v="Oseberg Sør" />
		<tag k="ssr:stedsnr" v="420948" />
		<tag k="waterway" v="offshore_field" />
	</node>
	<node id="-59" lat="68.8539416646" lon="13.2193361073">
		<tag k="name" v="Hesteskoen" />
		<tag k="place" v="locality" />
		<tag k="ssr:stedsnr" v="420024" />
	</node>
	<node id="-58" lat="65.7000000005" lon="8.71666666946">
		<tag k="name" v="Sklinnadjupet" />
		<tag k="place" v="locality" />
		<tag k="ssr:stedsnr" v="419897" />
	</node>
	<node id="-57" lat="68.5301417728" lon="39.5424917803">
		<tag k="name" v="Cherny grunnen" />
		<tag k="natural" v="shoal" />
		<tag k="place" v="locality" />
		<tag k="ssr:stedsnr" v="769122" />
	</node>
	<node id="-56" lat="56.4027777806" lon="4.75833332837">
		<tag k="name" v="Cecilie" />
		<tag k="name:da" v="Cecilie" />
		<tag k="ssr:stedsnr" v="364884" />
		<tag k="waterway" v="offshore_field" />
	</node>
	<node id="-54" lat="56.2777777784" lon="3.3916666624">
		<tag k="name" v="Valhall" />
		<tag k="ssr:stedsnr" v="363821" />
		<tag k="waterway" v="offshore_field" />
	</node>
	<node id="-47" lat="69.8222223306" lon="31.5749969518">
		<tag k="name" v="Lille Henøy" />
		<tag k="place" v="island" />
		<tag k="ssr:stedsnr" v="363541" />
	</node>
	<node id="-45" lat="69.108333337" lon="14.0999999931">
		<tag k="name" v="Stabbkråa" />
		<tag k="place" v="locality" />
		<tag k="ssr:stedsnr" v="363166" />
	</node>
	<node id="-43" lat="59.454166663" lon="2.38333333046">
		<tag k="name" v="Jotun A" />
		<tag k="ssr:stedsnr" v="361051" />
		<tag k="waterway" v="offshore_field" />
	</node>
	<node id="-41" lat="57.7888888869" lon="5.06666666403">
		<tag k="name" v="Eigersundsbanken" />
		<tag k="place" v="locality" />
		<tag k="ssr:stedsnr" v="359390" />
	</node>
	<node id="-40" lat="71.3444444566" lon="28.449999403">
		<tag k="name" v="Djuprenna" />
		<tag k="place" v="locality" />
		<tag k="ssr:stedsnr" v="359184" />
	</node>
	<node id="-39" lat="70.2055556694" lon="32.6666626974">
		<tag k="name" v="Østbanken" />
		<tag k="place" v="locality" />
		<tag k="ssr:stedsnr" v="359178" />
	</node>
	<node id="-38" lat="57.2624999977" lon="4.50000000511">
		<tag k="name" v="Ytterbanken" />
		<tag k="place" v="locality" />
		<tag k="ssr:stedsnr" v="358132" />
	</node>
	<node id="-34" lat="62.6033333359" lon="5.23333333668">
		<tag k="name" v="Barmeggene" />
		<tag k="place" v="locality" />
		<tag k="ssr:stedsnr" v="345652" />
	</node>
	<node id="-33" lat="63.2000000029" lon="5.29166667076">
		<tag k="name" v="Skallen" />
		<tag k="place" v="locality" />
		<tag k="ssr:stedsnr" v="345628" />
	</node>
	<node id="-32" lat="62.83333333" lon="6.01666666439">
		<tag k="name" v="Valderøyskolten" />
		<tag k="place" v="locality" />
		<tag k="ssr:stedsnr" v="345607" />
	</node>
	<node id="-30" lat="73.8151888897" lon="7.36267500776">
		<tag k="name" v="Schulzbanken" />
		<tag k="place" v="locality" />
		<tag k="ssr:stedsnr" v="344949" />
	</node>
	<node id="-29" lat="66.2682398644" lon="-15.5643678519">
		<tag k="bay" v="fjord" />
		<tag k="name" v="Thistilfjørdur" />
		<tag k="name:is" v="Thistilfjørdur" />
		<tag k="natural" v="bay" />
		<tag k="ssr:stedsnr" v="344916" />
	</node>
	<node id="-28" lat="64.994161113" lon="6.54740555573">
		<tag k="name" v="Kristin" />
		<tag k="ssr:stedsnr" v="344873" />
		<tag k="waterway" v="offshore_field" />
	</node>
	<node id="-27" lat="67.5633333292" lon="9.66999999831">
		<tag k="name" v="Røstrevet" />
		<tag k="natural" v="reef" />
		<tag k="place" v="locality" />
		<tag k="ssr:stedsnr" v="344856" />
	</node>
	<node id="-26" lat="59.906944442" lon="2.70000000336">
		<tag k="name" v="Allebanken" />
		<tag k="place" v="locality" />
		<tag k="ssr:stedsnr" v="344808" />
	</node>
	<node id="-25" lat="58.9677777734" lon="3.2972222231">
		<tag k="name" v="Norskerenna" />
		<tag k="place" v="locality" />
		<tag k="ssr:stedsnr" v="344805" />
	</node>
	<node id="-16" lat="63.724052774" lon="5.21895554771">
		<tag k="name" v="Storneset" />
		<tag k="place" v="locality" />
		<tag k="ssr:stedsnr" v="344680" />
	</node>
	<node id="-2" lat="69.1977086387" lon="33.5486596414">
		<tag k="name" v="Kolabkt" />
		<tag k="name:ru" v="Kolabkt" />
		<tag k="natural" v="bay" />
		<tag k="ssr:stedsnr" v="344125" />
	</node>
	<node id="-4" lat="61.8525528245" lon="-6.8483772406">
		<tag k="name" v="Sandøy" />
		<tag k="place" v="island" />
		<tag k="ssr:stedsnr" v="344196" />
	</node>
	<node id="-1" lat="59.0430555574" lon="1.80555554753">
		<tag k="name" v="Walker Bank" />
		<tag k="place" v="locality" />
		<tag k="ssr:stedsnr" v="344081" />
	</node>
</osm>
