<?xml version="1.0" encoding="UTF-8"?>
<osm version="0.6" generator="osmapis">
	<node lat="75.32693560374007" lon="44.757808109278166" id="-6">
		<tag k="name" v="Dome 5" />
		<tag k="place" v="locality" />
		<tag k="ssr:stedsnr" v="40358" />
	</node>
	<node lat="74.02249997210089" lon="29.88666645448531" id="-7">
		<tag k="name" v="Bjarmelandsplattform" />
		<tag k="place" v="locality" />
		<tag k="ssr:stedsnr" v="40359" />
	</node>
	<node lat="76.38055555515038" lon="3.550277766789467" id="-8">
		<tag k="name" v="Olgabassenget" />
		<tag k="place" v="locality" />
		<tag k="ssr:stedsnr" v="40362" />
	</node>
	<node lat="64.34083333096454" lon="8.61194443794671" id="-9">
		<tag k="name" v="Frobassenget" />
		<tag k="place" v="locality" />
		<tag k="ssr:stedsnr" v="40764" />
	</node>
	<node lat="63.402222220052714" lon="2.818611108102657" id="-10">
		<tag k="name" v="Mørebassenget" />
		<tag k="place" v="locality" />
		<tag k="ssr:stedsnr" v="40765" />
	</node>
	<node lat="77.51247018999226" lon="49.84294793999994" id="-47">
		<tag k="name" v="Nordlige Barentsbassenget" />
		<tag k="place" v="locality" />
		<tag k="ssr:stedsnr" v="101349" />
	</node>
	<node lat="64.93805555211593" lon="4.916944442440647" id="-49">
		<tag k="name" v="Slettringsryggen" />
		<tag k="place" v="locality" />
		<tag k="ssr:stedsnr" v="101740" />
	</node>
	<node lat="61.03166666792819" lon="2.9911111041497143" id="-50">
		<tag k="name" v="Flatfiskbakken" />
		<tag k="place" v="locality" />
		<tag k="ssr:stedsnr" v="101743" />
	</node>
	<node lat="61.594444440579785" lon="3.20111110857278" id="-51">
		<tag k="name" v="Mardollunderbassenget" />
		<tag k="place" v="locality" />
		<tag k="ssr:stedsnr" v="101752" />
	</node>
	<node lat="61.649444442732076" lon="1.2049999965314602" id="-52">
		<tag k="name" v="Magnusryggen" />
		<tag k="place" v="locality" />
		<tag k="ssr:stedsnr" v="101753" />
	</node>
	<node lat="71.51444444297694" lon="18.600000006900437" id="-58">
		<tag k="name" v="Tromsøbassenget" />
		<tag k="place" v="locality" />
		<tag k="ssr:stedsnr" v="102319" />
	</node>
	<node lat="72.34388889193735" lon="24.41249990977932" id="-59">
		<tag k="name" v="Samsondomen" />
		<tag k="place" v="locality" />
		<tag k="ssr:stedsnr" v="102321" />
	</node>
	<node lat="58.00138888830867" lon="-0.19638888806937088" id="-60">
		<tag k="name" v="South Halibut-trauet" />
		<tag k="place" v="locality" />
		<tag k="ssr:stedsnr" v="102612" />
	</node>
	<node lat="57.05666666225216" lon="2.7469444441375566" id="-61">
		<tag k="name" v="Codterassen" />
		<tag k="place" v="locality" />
		<tag k="ssr:stedsnr" v="102572" />
	</node>
	<node lat="56.336111109457214" lon="2.1141666638961722" id="-62">
		<tag k="name" v="Aukryggen" />
		<tag k="place" v="locality" />
		<tag k="ssr:stedsnr" v="102580" />
	</node>
	<node lat="57.40888889269035" lon="5.562222223314708" id="-63">
		<tag k="name" v="Listaforkastningsblokkomplekset" />
		<tag k="place" v="locality" />
		<tag k="ssr:stedsnr" v="102632" />
	</node>
	<node lat="62.55222222250163" lon="3.706666662388879" id="-69">
		<tag k="name" v="Møre-Trøndelag-forkastinngskomplekset" />
		<tag k="place" v="locality" />
		<tag k="ssr:stedsnr" v="351589" />
	</node>
	<node lat="68.67722222632263" lon="11.052500008593245" id="-77">
		<tag k="name" v="Lofotbassenget" />
		<tag k="place" v="locality" />
		<tag k="ssr:stedsnr" v="162288" />
	</node>
	<node lat="77.92749990019377" lon="32.27277877300179" id="-78">
		<tag k="name" v="Sørøstantiklinalen" />
		<tag k="place" v="locality" />
		<tag k="ssr:stedsnr" v="162386" />
	</node>
	<node lat="57.277500001733415" lon="3.5502777816244473" id="-79">
		<tag k="name" v="Hummerforkastningssonen" />
		<tag k="place" v="locality" />
		<tag k="ssr:stedsnr" v="162396" />
	</node>
	<node lat="56.11027777621038" lon="4.485000006894405" id="-80">
		<tag k="name" v="Tail End-grabenen" />
		<tag k="place" v="locality" />
		<tag k="ssr:stedsnr" v="162538" />
	</node>
	<node lat="60.79000000016514" lon="3.5966666652484465" id="-81">
		<tag k="name" v="Bjørgvinhvelvet" />
		<tag k="place" v="locality" />
		<tag k="ssr:stedsnr" v="162543" />
	</node>
	<node lat="61.20166666577142" lon="2.2163888826456337" id="-82">
		<tag k="name" v="Gullfaksforkastningsblokken" />
		<tag k="place" v="locality" />
		<tag k="ssr:stedsnr" v="162746" />
	</node>
	<node lat="61.10249999966584" lon="0.21972222240133915" id="-83">
		<tag k="name" v="Unstbassenget" />
		<tag k="place" v="locality" />
		<tag k="ssr:stedsnr" v="162747" />
	</node>
	<node lat="66.03277777958812" lon="9.850833328109355" id="-94">
		<tag k="name" v="Helgelandsbassenget" />
		<tag k="place" v="locality" />
		<tag k="ssr:stedsnr" v="352633" />
	</node>
	<node lat="65.70166666843012" lon="8.011944450371743" id="-95">
		<tag k="name" v="Sørhøgda" />
		<tag k="place" v="locality" />
		<tag k="ssr:stedsnr" v="352634" />
	</node>
	<node lat="69.52905009955856" lon="30.850391899838925" id="-100">
		<tag k="fixme" v="consider natural=peak for the most distinct mountains in the district" />
		<tag k="name" v="Haukkapahta" />
		<tag k="name:ru" v="Haukkapahta" />
		<tag k="natural" v="hill" />
		<tag k="place" v="locality" />
		<tag k="ssr:stedsnr" v="344152" />
	</node>
	<node lat="64.59444444808841" lon="7.369722219082291" id="-101">
		<tag k="name" v="Gimsbassenget" />
		<tag k="place" v="locality" />
		<tag k="ssr:stedsnr" v="344762" />
	</node>
	<node lat="61.782777780947775" lon="3.273055546782996" id="-102">
		<tag k="name" v="Maraforkastningssonen" />
		<tag k="place" v="locality" />
		<tag k="ssr:stedsnr" v="344787" />
	</node>
	<node lat="63.08250000145274" lon="4.891111116912689" id="-103">
		<tag k="name" v="Onahøgda" />
		<tag k="place" v="locality" />
		<tag k="ssr:stedsnr" v="222721" />
	</node>
	<node lat="67.24444444250318" lon="8.495833338193957" id="-104">
		<tag k="name" v="Någrindsynklinalen" />
		<tag k="place" v="locality" />
		<tag k="ssr:stedsnr" v="222676" />
	</node>
	<node lat="56.9052777758711" lon="7.580277771636081" id="-107">
		<tag k="name" v="Holmslandforkastningssonen" />
		<tag k="place" v="locality" />
		<tag k="ssr:stedsnr" v="223528" />
	</node>
	<node lat="71.63472222555679" lon="21.952222189866095" id="-113">
		<tag k="name" v="Hammerfestbassenget" />
		<tag k="place" v="locality" />
		<tag k="ssr:stedsnr" v="283219" />
	</node>
	<node lat="73.64416666788381" lon="15.791388895439987" id="-114">
		<tag k="name" v="Vestbakkvulkanittprovinsen" />
		<tag k="place" v="locality" />
		<tag k="ssr:stedsnr" v="283231" />
	</node>
	<node lat="71.51166666294101" lon="17.788888898932154" id="-115">
		<tag k="name" v="Senjaryggen" />
		<tag k="place" v="locality" />
		<tag k="ssr:stedsnr" v="283248" />
	</node>
	<node lat="64.7711111139437" lon="6.314444445568575" id="-116">
		<tag k="name" v="Sklinnaryggen" />
		<tag k="place" v="locality" />
		<tag k="ssr:stedsnr" v="283725" />
	</node>
	<node lat="64.18638888885312" lon="1.5011111125446315" id="-117">
		<tag k="name" v="Mørerandhøgda" />
		<tag k="place" v="locality" />
		<tag k="ssr:stedsnr" v="283732" />
	</node>
	<node lat="61.77777777840171" lon="1.144444454876577" id="-118">
		<tag k="name" v="Magnusbassenget" />
		<tag k="place" v="locality" />
		<tag k="ssr:stedsnr" v="283743" />
	</node>
	<node lat="69.56484730271353" lon="30.45877005221429" id="-120">
		<tag k="fixme" v="consider natural=peak for the most distinct mountains in the district" />
		<tag k="name" v="Pieni Vohtastunturi" />
		<tag k="name:ru" v="Pieni Vohtastunturi" />
		<tag k="natural" v="hill" />
		<tag k="place" v="locality" />
		<tag k="ssr:stedsnr" v="284164" />
	</node>
	<node lat="59.282777774281534" lon="1.8999999934102536" id="-121">
		<tag k="name" v="Vanaunderbassenget" />
		<tag k="place" v="locality" />
		<tag k="ssr:stedsnr" v="284545" />
	</node>
	<node lat="57.541666669424416" lon="2.8616666744167545" id="-122">
		<tag k="name" v="Rekeforkastningssonen" />
		<tag k="place" v="locality" />
		<tag k="ssr:stedsnr" v="284555" />
	</node>
	<node lat="58.58777777530974" lon="5.045555555965282" id="-123">
		<tag k="name" v="Stavangerplattformen" />
		<tag k="place" v="locality" />
		<tag k="ssr:stedsnr" v="284751" />
	</node>
	<node lat="60.13694444420146" lon="2.33749999756903" id="-124">
		<tag k="name" v="Fensalunderbassenget" />
		<tag k="place" v="locality" />
		<tag k="ssr:stedsnr" v="284753" />
	</node>
	<node lat="60.713055557469545" lon="2.9547222236609" id="-125">
		<tag k="name" v="Bragehorsten" />
		<tag k="place" v="locality" />
		<tag k="ssr:stedsnr" v="284762" />
	</node>
	<node lat="72.69388850245961" lon="36.67138470806697" id="-138">
		<tag k="name" v="Dome 11" />
		<tag k="place" v="locality" />
		<tag k="ssr:stedsnr" v="344276" />
	</node>
	<node lat="73.64000000182557" lon="19.537222206165573" id="-139">
		<tag k="name" v="Bjørnøybassenget" />
		<tag k="place" v="locality" />
		<tag k="ssr:stedsnr" v="344279" />
	</node>
	<node lat="73.51138650090326" lon="40.974440964463504" id="-140">
		<tag k="name" v="Dome 10" />
		<tag k="place" v="locality" />
		<tag k="ssr:stedsnr" v="344281" />
	</node>
	<node lat="75.81638110601426" lon="44.321422062892076" id="-141">
		<tag k="name" v="Dome 4" />
		<tag k="place" v="locality" />
		<tag k="ssr:stedsnr" v="344385" />
	</node>
	<node lat="75.24804363698745" lon="45.83059401937447" id="-142">
		<tag k="name" v="Luclovskayasadelen" />
		<tag k="place" v="locality" />
		<tag k="ssr:stedsnr" v="344386" />
	</node>
	<node lat="77.81083330190513" lon="29.607778067016145" id="-143">
		<tag k="name" v="Sørvestantiklinalen" />
		<tag k="place" v="locality" />
		<tag k="ssr:stedsnr" v="344394" />
	</node>
	<node lat="56.81444444870075" lon="5.700555554083036" id="-144">
		<tag k="name" v="Dansk-norske basseng" />
		<tag k="place" v="locality" />
		<tag k="ssr:stedsnr" v="344534" />
	</node>
	<node lat="57.640277778967146" lon="7.175555561801801" id="-145">
		<tag k="name" v="Farsundbassenget" />
		<tag k="place" v="locality" />
		<tag k="ssr:stedsnr" v="344590" />
	</node>
	<node lat="57.077222224970285" lon="2.2652777819459438" id="-146">
		<tag k="name" v="Breiflabbassenget" />
		<tag k="place" v="locality" />
		<tag k="ssr:stedsnr" v="344601" />
	</node>
	<node lat="67.27777778144137" lon="7.509444438369106" id="-147">
		<tag k="name" v="Nykhøgda" />
		<tag k="place" v="locality" />
		<tag k="ssr:stedsnr" v="344648" />
	</node>
	<node lat="68.32862357674554" lon="44.52592486189566" id="-149">
		<tag k="name" v="Timanskayaantiklinalen" />
		<tag k="place" v="locality" />
		<tag k="ssr:stedsnr" v="344698" />
	</node>
	<node lat="67.5700000010758" lon="10.677222220052458" id="-150">
		<tag k="name" v="Kvalnesdjupsgrabenen" />
		<tag k="place" v="locality" />
		<tag k="ssr:stedsnr" v="344716" />
	</node>
	<node lat="59.655555557021316" lon="1.5966666628261181" id="-151">
		<tag k="name" v="Berylgropa" />
		<tag k="place" v="locality" />
		<tag k="ssr:stedsnr" v="344742" />
	</node>
	<node lat="60.6274999993542" lon="3.650555551772979" id="-152">
		<tag k="name" v="Tusseforkastningen" />
		<tag k="place" v="locality" />
		<tag k="ssr:stedsnr" v="344746" />
	</node>
	<node lat="60.74138888794164" lon="2.2624999930751515" id="-153">
		<tag k="name" v="Rungneunderbassenget" />
		<tag k="place" v="locality" />
		<tag k="ssr:stedsnr" v="344752" />
	</node>
	<node lat="61.87666666233017" lon="0.6591666647683153" id="-154">
		<tag k="name" v="Margaretautstikkeren" />
		<tag k="place" v="locality" />
		<tag k="ssr:stedsnr" v="344758" />
	</node>
	<node lat="69.76221953367546" lon="30.879586486986266" id="-163">
		<tag k="fixme" v="consider natural=peak for the most distinct mountains in the district" />
		<tag k="name" v="Harmajatunturi" />
		<tag k="name:ru" v="Harmajatunturi" />
		<tag k="natural" v="hill" />
		<tag k="place" v="locality" />
		<tag k="ssr:stedsnr" v="421122" />
	</node>
	<node lat="69.66432786970002" lon="30.950164115040742" id="-165">
		<tag k="fixme" v="consider natural=peak for the most distinct mountains in the district" />
		<tag k="name" v="Kuolpunankammi" />
		<tag k="name:ru" v="Kuolpunankammi" />
		<tag k="natural" v="hill" />
		<tag k="place" v="locality" />
		<tag k="ssr:stedsnr" v="423158" />
	</node>
	<node lat="56.16388889187556" lon="4.065833334947569" id="-182">
		<tag k="name" v="Gertrudgrabenen" />
		<tag k="place" v="locality" />
		<tag k="ssr:stedsnr" v="405535" />
	</node>
	<node lat="57.79944444634666" lon="1.8680555508483134" id="-183">
		<tag k="name" v="Maureenterrassen" />
		<tag k="place" v="locality" />
		<tag k="ssr:stedsnr" v="405588" />
	</node>
	<node lat="69.6002445214522" lon="30.372336799741582" id="-192">
		<tag k="fixme" v="consider natural=peak for the most distinct mountains in the district" />
		<tag k="name" v="Siertitunturi" />
		<tag k="name:ru" v="Siertitunturi" />
		<tag k="natural" v="hill" />
		<tag k="place" v="locality" />
		<tag k="ssr:stedsnr" v="526155" />
	</node>
	<node lat="72.55000000243267" lon="21.896666640670105" id="-194">
		<tag k="name" v="Lopphøgda" />
		<tag k="place" v="locality" />
		<tag k="ssr:stedsnr" v="526250" />
	</node>
	<node lat="72.38166640199226" lon="36.23805092269159" id="-195">
		<tag k="name" v="Hjalmar Johansen-høgda" />
		<tag k="place" v="locality" />
		<tag k="ssr:stedsnr" v="526253" />
	</node>
	<node lat="75.97635786893179" lon="49.546510923312724" id="-196">
		<tag k="name" v="Dome 2" />
		<tag k="place" v="locality" />
		<tag k="ssr:stedsnr" v="526356" />
	</node>
	<node lat="56.38833333423111" lon="2.4783333334095423" id="-197">
		<tag k="name" v="Fulmar-Clyde-terrassen" />
		<tag k="place" v="locality" />
		<tag k="ssr:stedsnr" v="526515" />
	</node>
	<node lat="56.250000002244974" lon="3.4202777845468906" id="-198">
		<tag k="name" v="Lindesnesryggen" />
		<tag k="place" v="locality" />
		<tag k="ssr:stedsnr" v="526517" />
	</node>
	<node lat="58.33305555786595" lon="0.19805556602700392" id="-199">
		<tag k="name" v="Whitch Ground-grabenen" />
		<tag k="place" v="locality" />
		<tag k="ssr:stedsnr" v="526559" />
	</node>
	<node lat="56.41388888640908" lon="3.8422222154504313" id="-200">
		<tag k="name" v="Piggvarterrassen" />
		<tag k="place" v="locality" />
		<tag k="ssr:stedsnr" v="526562" />
	</node>
	<node lat="57.37666667021519" lon="1.6324999917288294" id="-201">
		<tag k="name" v="Marnockterrassen" />
		<tag k="place" v="locality" />
		<tag k="ssr:stedsnr" v="526587" />
	</node>
	<node lat="67.5794444403327" lon="7.13249999675274" id="-202">
		<tag k="name" v="Naglfardomen" />
		<tag k="place" v="locality" />
		<tag k="ssr:stedsnr" v="526592" />
	</node>
	<node lat="71.74444444561155" lon="24.65888879045815" id="-203">
		<tag k="name" v="Nysleppforkastningskomplekset" />
		<tag k="place" v="locality" />
		<tag k="ssr:stedsnr" v="526593" />
	</node>
	<node lat="65.72194444144692" lon="9.529166667884558" id="-205">
		<tag k="name" v="Vegahøgda" />
		<tag k="place" v="locality" />
		<tag k="ssr:stedsnr" v="526670" />
	</node>
	<node lat="59.5649999988408" lon="2.409999998354345" id="-207">
		<tag k="name" v="Heimdalterrassen" />
		<tag k="place" v="locality" />
		<tag k="ssr:stedsnr" v="526729" />
	</node>
	<node lat="60.712777776954205" lon="1.5169444518290323" id="-208">
		<tag k="name" v="Ninian-Hutton-forkastningen" />
		<tag k="place" v="locality" />
		<tag k="ssr:stedsnr" v="526739" />
	</node>
	<node lat="59.997777779958746" lon="2.0522222298276596" id="-246">
		<tag k="name" v="Friggryggen" />
		<tag k="place" v="locality" />
		<tag k="ssr:stedsnr" v="647731" />
	</node>
	<node lat="69.41679174256396" lon="30.066386947067937" id="-248">
		<tag k="name" v="Ranta" />
		<tag k="name:ru" v="Ranta" />
		<tag k="place" v="locality" />
		<tag k="ssr:stedsnr" v="661187" />
	</node>
	<node lat="72.277222051213" lon="35.446107123249426" id="-254">
		<tag k="name" v="Dome 12" />
		<tag k="place" v="locality" />
		<tag k="ssr:stedsnr" v="587297" />
	</node>
	<node lat="56.1175000026177" lon="2.7549999997092245" id="-255">
		<tag k="name" v="Argyllhorsten" />
		<tag k="place" v="locality" />
		<tag k="ssr:stedsnr" v="587550" />
	</node>
	<node lat="67.6591666653646" lon="7.426388899862478" id="-256">
		<tag k="name" v="Helgrabenen" />
		<tag k="place" v="locality" />
		<tag k="ssr:stedsnr" v="587705" />
	</node>
	<node lat="58.18749999992557" lon="2.473611117195885" id="-257">
		<tag k="name" v="Draupner S" />
		<tag k="place" v="locality" />
		<tag k="ssr:stedsnr" v="664096" />
	</node>
	<node lat="57.093055559228404" lon="8.862222216137903" id="-264">
		<tag k="name" v="Hjardemål" />
		<tag k="name:da" v="Hjardemål" />
		<tag k="natural" v="wood" />
		<tag k="ssr:stedsnr" v="667701" />
	</node>
	<node lat="73.20750000489268" lon="23.767777728301947" id="-275">
		<tag k="name" v="Maudbassenget" />
		<tag k="place" v="locality" />
		<tag k="ssr:stedsnr" v="670249" />
	</node>
	<node lat="75.33610911952792" lon="39.89861852225899" id="-277">
		<tag k="name" v="Polarrevhøgda" />
		<tag k="place" v="locality" />
		<tag k="ssr:stedsnr" v="708362" />
	</node>
	<node lat="75.33611101427618" lon="32.04527805862053" id="-278">
		<tag k="name" v="Sentralbankhøgda" />
		<tag k="place" v="locality" />
		<tag k="ssr:stedsnr" v="708364" />
	</node>
	<node lat="57.816666664117996" lon="4.533333328865505" id="-280">
		<tag k="name" v="Ymefeltet" />
		<tag k="place" v="locality" />
		<tag k="ssr:stedsnr" v="785104" />
	</node>
	<node lat="57.08444444267093" lon="6.188888896114289" id="-295">
		<tag k="name" v="Krepsforkastningssonen" />
		<tag k="place" v="locality" />
		<tag k="ssr:stedsnr" v="830570" />
	</node>
	<node lat="69.66025840012557" lon="30.106506476703746" id="-298">
		<tag k="fixme" v="consider natural=peak for the most distinct mountains in the district" />
		<tag k="name" v="Karhunpää" />
		<tag k="name:ru" v="Karhunpää" />
		<tag k="natural" v="hill" />
		<tag k="place" v="locality" />
		<tag k="ssr:stedsnr" v="830151" />
	</node>
	<node lat="71.20972223311395" lon="29.07805475278106" id="-302">
		<tag k="name" v="Finnmarksplattformen" />
		<tag k="place" v="locality" />
		<tag k="ssr:stedsnr" v="830229" />
	</node>
	<node lat="72.39861111092026" lon="26.41861091281792" id="-303">
		<tag k="name" v="Norselhøgda" />
		<tag k="place" v="locality" />
		<tag k="ssr:stedsnr" v="830233" />
	</node>
	<node lat="73.36055484634171" lon="37.615275137069204" id="-304">
		<tag k="name" v="Sentrale Barentshvelvet" />
		<tag k="place" v="locality" />
		<tag k="ssr:stedsnr" v="830260" />
	</node>
	<node lat="77.83722182327888" lon="35.71028148879896" id="-305">
		<tag k="name" v="Hopenhøgda" />
		<tag k="place" v="locality" />
		<tag k="ssr:stedsnr" v="830358" />
	</node>
	<node lat="77.83721817741801" lon="42.57725270352597" id="-306">
		<tag k="name" v="Dome 1" />
		<tag k="place" v="locality" />
		<tag k="ssr:stedsnr" v="830359" />
	</node>
	<node lat="58.36861110957404" lon="1.991944452658268" id="-307">
		<tag k="name" v="Sleipnerterrassen" />
		<tag k="place" v="locality" />
		<tag k="ssr:stedsnr" v="830543" />
	</node>
	<node lat="56.43527778118214" lon="3.9769444488373082" id="-308">
		<tag k="name" v="Mandalhøgda" />
		<tag k="place" v="locality" />
		<tag k="ssr:stedsnr" v="830504" />
	</node>
	<node lat="65.44277777409815" lon="5.249444454496029" id="-309">
		<tag k="name" v="Helland-Hansen-hvelvet" />
		<tag k="place" v="locality" />
		<tag k="ssr:stedsnr" v="830580" />
	</node>
	<node lat="68.10916666812557" lon="11.344166677308303" id="-311">
		<tag k="name" v="Røsthøgda" />
		<tag k="place" v="locality" />
		<tag k="ssr:stedsnr" v="830689" />
	</node>
	<node lat="61.66583332871602" lon="3.4805555474836147" id="-313">
		<tag k="name" v="Sognegrabenen" />
		<tag k="place" v="locality" />
		<tag k="ssr:stedsnr" v="830783" />
	</node>
	<node lat="63.71388889255134" lon="5.32722222583598" id="-325">
		<tag k="name" v="Ormen Lange-domen" />
		<tag k="place" v="locality" />
		<tag k="ssr:stedsnr" v="837556" />
	</node>
	<node lat="65.96999999944846" lon="7.533888890244741" id="-326">
		<tag k="name" v="Dønnterrassen" />
		<tag k="place" v="locality" />
		<tag k="ssr:stedsnr" v="838664" />
	</node>
	<node lat="59.32166666833184" lon="1.57027777056842" id="-332">
		<tag k="name" v="Crawfordutstikkeren" />
		<tag k="place" v="locality" />
		<tag k="ssr:stedsnr" v="769554" />
	</node>
	<node lat="56.69805555795" lon="1.5850000003328943" id="-349">
		<tag k="name" v="Curlew-Puffin-plattformen" />
		<tag k="place" v="locality" />
		<tag k="ssr:stedsnr" v="162522" />
	</node>
	<node lat="77.0516666684164" lon="22.199999996702733" id="-353">
		<tag k="name" v="Edgeøyplattformen" />
		<tag k="place" v="locality" />
		<tag k="ssr:stedsnr" v="951378" />
	</node>
	<node lat="57.935277775388876" lon="0.9119444459564572" id="-354">
		<tag k="name" v="Reneeryggen" />
		<tag k="place" v="locality" />
		<tag k="ssr:stedsnr" v="951583" />
	</node>
	<node lat="57.625555560305386" lon="2.399166670057289" id="-355">
		<tag k="name" v="Jærhøgda" />
		<tag k="place" v="locality" />
		<tag k="ssr:stedsnr" v="951584" />
	</node>
	<node lat="74.43972222210466" lon="21.944999981288642" id="-362">
		<tag k="name" v="Hopenbankhvelvet" />
		<tag k="place" v="locality" />
		<tag k="ssr:stedsnr" v="40286" />
	</node>
	<node lat="77.72416645178909" lon="34.05750201503462" id="-363">
		<tag k="name" v="Kong Karl-plattformen" />
		<tag k="place" v="locality" />
		<tag k="ssr:stedsnr" v="40366" />
	</node>
	<node lat="61.30972222183869" lon="1.0163888883159877" id="-364">
		<tag k="name" v="Tern-Eider-horsten" />
		<tag k="place" v="locality" />
		<tag k="ssr:stedsnr" v="40769" />
	</node>
	<node lat="60.80888888773051" lon="2.6480555616837087" id="-365">
		<tag k="name" v="Mokkurkalveforkastningskomplekset" />
		<tag k="place" v="locality" />
		<tag k="ssr:stedsnr" v="40775" />
	</node>
	<node lat="63.58388888601655" lon="6.913888897110608" id="-366">
		<tag k="name" v="Frøyhøgda" />
		<tag k="place" v="locality" />
		<tag k="ssr:stedsnr" v="40759" />
	</node>
	<node lat="72.58916666843723" lon="20.071666656046943" id="-368">
		<tag k="name" v="Bjørnøyrenneforkastningskomplekset" />
		<tag k="place" v="locality" />
		<tag k="ssr:stedsnr" v="41274" />
	</node>
	<node lat="56.19500000382916" lon="3.3833333357964626" id="-369">
		<tag k="name" v="Skrubbeforkastningen" />
		<tag k="place" v="locality" />
		<tag k="ssr:stedsnr" v="41523" />
	</node>
	<node lat="57.923888885544066" lon="1.4716666722857539" id="-371">
		<tag k="name" v="Fiskebankbassenget" />
		<tag k="place" v="locality" />
		<tag k="ssr:stedsnr" v="41568" />
	</node>
	<node lat="60.56666666549724" lon="-0.442777763035014" id="-372">
		<tag k="name" v="Pobieforkastningen" />
		<tag k="place" v="locality" />
		<tag k="ssr:stedsnr" v="41722" />
	</node>
	<node lat="61.14472222006058" lon="3.8566666730132195" id="-373">
		<tag k="name" v="Uerterrassen" />
		<tag k="place" v="locality" />
		<tag k="ssr:stedsnr" v="41723" />
	</node>
	<node lat="60.78722222049615" lon="3.3749999987389203" id="-374">
		<tag k="name" v="Trollforkastningen" />
		<tag k="place" v="locality" />
		<tag k="ssr:stedsnr" v="41725" />
	</node>
	<node lat="58.41222222088594" lon="2.7258333405370854" id="-375">
		<tag k="name" v="Lingsenkningen" />
		<tag k="place" v="locality" />
		<tag k="ssr:stedsnr" v="41533" />
	</node>
	<node lat="58.89305555615686" lon="1.5994444462464157" id="-376">
		<tag k="name" v="Viljeunderbassenget" />
		<tag k="place" v="locality" />
		<tag k="ssr:stedsnr" v="41553" />
	</node>
	<node lat="57.276666668762545" lon="5.143611109768385" id="-377">
		<tag k="name" v="Krabbeforkastningssonen" />
		<tag k="place" v="locality" />
		<tag k="ssr:stedsnr" v="41565" />
	</node>
	<node lat="69.62164453673806" lon="30.965239086285138" id="-385">
		<tag k="name" v="Vuoremijoenselkä" />
		<tag k="name:ru" v="Vuoremijoenselkä" />
		<tag k="natural" v="ridge" />
		<tag k="place" v="locality" />
		<tag k="ssr:stedsnr" v="59126" />
	</node>
	<node lat="62.03166666488159" lon="3.9886111086190916" id="-391">
		<tag k="name" v="Seljehorsten" />
		<tag k="place" v="locality" />
		<tag k="ssr:stedsnr" v="101729" />
	</node>
	<node lat="60.40611111195981" lon="3.0925000004806846" id="-395">
		<tag k="name" v="Idunnforkastningskomplekset" />
		<tag k="place" v="locality" />
		<tag k="ssr:stedsnr" v="102760" />
	</node>
	<node lat="64.843055552727" lon="5.8583333405816855" id="-396">
		<tag k="name" v="Råsbassenget" />
		<tag k="place" v="locality" />
		<tag k="ssr:stedsnr" v="110661" />
	</node>
	<node lat="70.39694444351488" lon="18.421388894157605" id="-408">
		<tag k="name" v="Troms-Finnmark-forkastningskomplekset" />
		<tag k="place" v="locality" />
		<tag k="ssr:stedsnr" v="222281" />
	</node>
	<node lat="73.5288888914228" lon="25.441111051282284" id="-409">
		<tag k="name" v="Mercuriushøgda" />
		<tag k="place" v="locality" />
		<tag k="ssr:stedsnr" v="222254" />
	</node>
	<node lat="69.64266118430028" lon="30.152200878067642" id="-413">
		<tag k="fixme" v="consider natural=peak for the most distinct mountains in the district" />
		<tag k="name" v="Koskitunturi" />
		<tag k="name:ru" v="Koskitunturi" />
		<tag k="natural" v="hill" />
		<tag k="place" v="locality" />
		<tag k="ssr:stedsnr" v="223172" />
	</node>
	<node lat="72.69499999602719" lon="24.73611103847523" id="-415">
		<tag k="name" v="Swaengrabenen" />
		<tag k="place" v="locality" />
		<tag k="ssr:stedsnr" v="223281" />
	</node>
	<node lat="67.70277777756071" lon="3.593333325287201" id="-416">
		<tag k="name" v="Vøringrandhøgda" />
		<tag k="place" v="locality" />
		<tag k="ssr:stedsnr" v="223301" />
	</node>
	<node lat="78.15222177550027" lon="36.115004409164925" id="-417">
		<tag k="name" v="Nordøstantiklinalen" />
		<tag k="place" v="locality" />
		<tag k="ssr:stedsnr" v="223396" />
	</node>
	<node lat="56.11944444567482" lon="7.7911111076429895" id="-418">
		<tag k="name" v="Ringkøbing-Fyn-høgda" />
		<tag k="place" v="locality" />
		<tag k="ssr:stedsnr" v="223541" />
	</node>
	<node lat="57.10500000390487" lon="3.465277780434693" id="-419">
		<tag k="name" v="Sørvestlandshøgda" />
		<tag k="place" v="locality" />
		<tag k="ssr:stedsnr" v="223593" />
	</node>
	<node lat="74.25416666333226" lon="18.137777764800443" id="-420">
		<tag k="name" v="Stappehøgda" />
		<tag k="place" v="locality" />
		<tag k="ssr:stedsnr" v="223619" />
	</node>
	<node lat="61.45638889071916" lon="3.034444449614417" id="-422">
		<tag k="name" v="Modeunderbassenget" />
		<tag k="place" v="locality" />
		<tag k="ssr:stedsnr" v="223781" />
	</node>
	<node lat="60.73749999894567" lon="4.045833342373024" id="-424">
		<tag k="name" v="Vetteforkastningen" />
		<tag k="place" v="locality" />
		<tag k="ssr:stedsnr" v="223754" />
	</node>
	<node lat="60.63805555131985" lon="3.3972222258342093" id="-425">
		<tag k="name" v="Svartalvforkastningen" />
		<tag k="place" v="locality" />
		<tag k="ssr:stedsnr" v="223758" />
	</node>
	<node lat="61.59833333645524" lon="2.146944437794874" id="-426">
		<tag k="name" v="Marebakkforkastningssonen" />
		<tag k="place" v="locality" />
		<tag k="ssr:stedsnr" v="223787" />
	</node>
	<node lat="64.81194444826946" lon="6.788333340615778" id="-427">
		<tag k="name" v="Haltenterrassen" />
		<tag k="place" v="locality" />
		<tag k="ssr:stedsnr" v="223774" />
	</node>
	<node lat="73.2372222208686" lon="23.165833300817575" id="-462">
		<tag k="name" v="Svalisdomen" />
		<tag k="place" v="locality" />
		<tag k="ssr:stedsnr" v="284293" />
	</node>
	<node lat="56.53222221903884" lon="4.441111107088587" id="-463">
		<tag k="name" v="Coffee Soil-forkastningskomplekset" />
		<tag k="place" v="locality" />
		<tag k="ssr:stedsnr" v="284522" />
	</node>
	<node lat="73.6399999979437" lon="21.682222219696758" id="-493">
		<tag k="name" v="Fingerdjupsunderbassenget" />
		<tag k="place" v="locality" />
		<tag k="ssr:stedsnr" v="404263" />
	</node>
	<node lat="72.1336079006159" lon="43.318579376382125" id="-494">
		<tag k="name" v="Sørlige Barentsbassenget" />
		<tag k="place" v="locality" />
		<tag k="ssr:stedsnr" v="404268" />
	</node>
	<node lat="61.319722217736775" lon="3.3002777763381923" id="-495">
		<tag k="name" v="Marfloutstikkeren" />
		<tag k="place" v="locality" />
		<tag k="ssr:stedsnr" v="404729" />
	</node>
	<node lat="61.74305555654448" lon="2.361666671183331" id="-496">
		<tag k="name" v="Mortehorsten" />
		<tag k="place" v="locality" />
		<tag k="ssr:stedsnr" v="404731" />
	</node>
	<node lat="59.943611109033384" lon="0.07777778449538574" id="-497">
		<tag k="name" v="Øst-Shetland-plattformen" />
		<tag k="place" v="locality" />
		<tag k="ssr:stedsnr" v="404733" />
	</node>
	<node lat="69.5419889901598" lon="30.908700203301716" id="-505">
		<tag k="fixme" v="consider natural=peak for the most distinct mountains in the district" />
		<tag k="name" v="Jäkäläpää" />
		<tag k="name:ru" v="Jäkäläpää" />
		<tag k="natural" v="hill" />
		<tag k="place" v="locality" />
		<tag k="ssr:stedsnr" v="405153" />
	</node>
	<node lat="72.69916665846941" lon="29.954166064065397" id="-506">
		<tag k="name" v="Nordkappbassenget" />
		<tag k="place" v="locality" />
		<tag k="ssr:stedsnr" v="405275" />
	</node>
	<node lat="68.84972222324495" lon="13.361666660049517" id="-507">
		<tag k="name" v="Jennegghøgda" />
		<tag k="place" v="locality" />
		<tag k="ssr:stedsnr" v="405301" />
	</node>
	<node lat="58.471666668290105" lon="0.6352777801298617" id="-510">
		<tag k="name" v="Fladengrunnutstikkeren" />
		<tag k="place" v="locality" />
		<tag k="ssr:stedsnr" v="405578" />
	</node>
	<node lat="58.4566666683948" lon="1.5252777867708298" id="-511">
		<tag k="name" v="Veunderbassenget" />
		<tag k="place" v="locality" />
		<tag k="ssr:stedsnr" v="405580" />
	</node>
	<node lat="65.12972222285154" lon="7.739444435241154" id="-512">
		<tag k="name" v="Ellingråsgrabenen" />
		<tag k="place" v="locality" />
		<tag k="ssr:stedsnr" v="405764" />
	</node>
	<node lat="58.099999997105094" lon="2.3500000033845865" id="-521">
		<tag k="name" v="Cod" />
		<tag k="place" v="locality" />
		<tag k="ssr:stedsnr" v="422108" />
	</node>
	<node lat="67.39222222544373" lon="11.190277784743335" id="-533">
		<tag k="name" v="Ribbebassenget" />
		<tag k="place" v="locality" />
		<tag k="ssr:stedsnr" v="465620" />
	</node>
	<node lat="61.64305555404298" lon="4.026666667597867" id="-534">
		<tag k="name" v="Måløybakken" />
		<tag k="place" v="locality" />
		<tag k="ssr:stedsnr" v="465732" />
	</node>
	<node lat="58.202777780000766" lon="-0.2458333323110268" id="-537">
		<tag k="name" v="Halibuthorsten" />
		<tag k="place" v="locality" />
		<tag k="ssr:stedsnr" v="466566" />
	</node>
	<node lat="57.75416666698229" lon="4.366666661288263" id="-548">
		<tag k="name" v="Yme" />
		<tag k="place" v="locality" />
		<tag k="ssr:stedsnr" v="482102" />
	</node>
	<node lat="57.83333333574248" lon="4.5499999933488775" id="-549">
		<tag k="name" v="Yme STL" />
		<tag k="place" v="locality" />
		<tag k="ssr:stedsnr" v="482106" />
	</node>
	<node lat="69.3369667331497" lon="29.650251074907406" id="-565">
		<tag k="name" v="Latvala" />
		<tag k="name:ru" v="Latvala" />
		<tag k="place" v="locality" />
		<tag k="ssr:stedsnr" v="527109" />
	</node>
	<node lat="57.11666666684666" lon="2.8583333363842303" id="-568">
		<tag k="name" v="Ula" />
		<tag k="place" v="locality" />
		<tag k="ssr:stedsnr" v="543140" />
	</node>
	<node lat="69.57711954650873" lon="30.97703903898597" id="-569">
		<tag k="fixme" v="consider natural=peak for the most distinct mountains in the district" />
		<tag k="name" v="Kivitunturi" />
		<tag k="name:ru" v="Kivitunturi" />
		<tag k="natural" v="hill" />
		<tag k="place" v="locality" />
		<tag k="ssr:stedsnr" v="544132" />
	</node>
	<node lat="69.74691120018616" lon="30.875786484848405" id="-570">
		<tag k="fixme" v="consider natural=peak for the most distinct mountains in the district" />
		<tag k="name" v="Pikkutunturi" />
		<tag k="name:ru" v="Pikkutunturi" />
		<tag k="natural" v="hill" />
		<tag k="place" v="locality" />
		<tag k="ssr:stedsnr" v="544150" />
	</node>
	<node lat="73.94109490873669" lon="47.23778874358522" id="-585">
		<tag k="name" v="Dome 7" />
		<tag k="place" v="locality" />
		<tag k="ssr:stedsnr" v="586294" />
	</node>
	<node lat="74.72414889891067" lon="47.366706827905944" id="-587">
		<tag k="name" v="Dome 6" />
		<tag k="place" v="locality" />
		<tag k="ssr:stedsnr" v="586358" />
	</node>
	<node lat="76.46638178915326" lon="44.09003744872011" id="-588">
		<tag k="name" v="Dome 3" />
		<tag k="place" v="locality" />
		<tag k="ssr:stedsnr" v="586365" />
	</node>
	<node lat="75.07722222097621" lon="23.445277752636493" id="-589">
		<tag k="name" v="Gardarbankhøgda" />
		<tag k="place" v="locality" />
		<tag k="ssr:stedsnr" v="586575" />
	</node>
	<node lat="65.71972222060558" lon="6.437499991120447" id="-590">
		<tag k="name" v="Ytreholmsforkastningssonen" />
		<tag k="place" v="locality" />
		<tag k="ssr:stedsnr" v="586627" />
	</node>
	<node lat="62.491666665852755" lon="4.6225000017052835" id="-591">
		<tag k="name" v="Slørebotnunderbassenget" />
		<tag k="place" v="locality" />
		<tag k="ssr:stedsnr" v="586736" />
	</node>
	<node lat="63.01861110775124" lon="5.611666668091489" id="-592">
		<tag k="name" v="Gossehøgda" />
		<tag k="place" v="locality" />
		<tag k="ssr:stedsnr" v="586737" />
	</node>
	<node lat="69.53303343283876" lon="30.85611969103012" id="-598">
		<tag k="name" v="Palokangas" />
		<tag k="name:ru" v="Palokangas" />
		<tag k="natural" v="slope" />
		<tag k="place" v="locality" />
		<tag k="ssr:stedsnr" v="587180" />
	</node>
	<node lat="58.833611114229605" lon="3.9763888946703556" id="-600">
		<tag k="name" v="Lingsenkningen" />
		<tag k="place" v="locality" />
		<tag k="ssr:stedsnr" v="587556" />
	</node>
	<node lat="56.531111107519635" lon="4.130555559198937" id="-601">
		<tag k="name" v="Søgnebassenget" />
		<tag k="place" v="locality" />
		<tag k="ssr:stedsnr" v="587542" />
	</node>
	<node lat="58.92749999793905" lon="2.524722217561953" id="-602">
		<tag k="name" v="Utsirahøgda" />
		<tag k="place" v="locality" />
		<tag k="ssr:stedsnr" v="587574" />
	</node>
	<node lat="57.79444444040416" lon="4.282499998992233" id="-603">
		<tag k="name" v="Egersundbassenget" />
		<tag k="place" v="locality" />
		<tag k="ssr:stedsnr" v="587582" />
	</node>
	<node lat="57.24083333771683" lon="9.540277772972212" id="-604">
		<tag k="name" v="Sorgenfrei-Tornquist-forkastningskomplekset" />
		<tag k="place" v="locality" />
		<tag k="ssr:stedsnr" v="587587" />
	</node>
	<node lat="57.73111111388245" lon="0.05750000667827229" id="-605">
		<tag k="name" v="Moray Firth-bassenget" />
		<tag k="place" v="locality" />
		<tag k="ssr:stedsnr" v="587588" />
	</node>
	<node lat="57.44527778127424" lon="7.05638888755421" id="-606">
		<tag k="name" v="Fjerritslevforkastningssonen" />
		<tag k="place" v="locality" />
		<tag k="ssr:stedsnr" v="587592" />
	</node>
	<node lat="65.53694444099115" lon="9.551388883312415" id="-612">
		<tag k="name" v="Trøndelagsplattformen" />
		<tag k="place" v="locality" />
		<tag k="ssr:stedsnr" v="595618" />
	</node>
	<node lat="66.30444444204235" lon="8.799722229492208" id="-613">
		<tag k="name" v="Rødøyhøgda" />
		<tag k="place" v="locality" />
		<tag k="ssr:stedsnr" v="595620" />
	</node>
	<node lat="58.18749999913828" lon="2.4625000054619233" id="-617">
		<tag k="name" v="Draupner E" />
		<tag k="place" v="locality" />
		<tag k="ssr:stedsnr" v="603087" />
	</node>
	<node lat="71.41472220424777" lon="35.21666090678677" id="-637">
		<tag k="name" v="Tiddlybankbassenget" />
		<tag k="place" v="locality" />
		<tag k="ssr:stedsnr" v="647271" />
	</node>
	<node lat="72.35999999570542" lon="16.557500001226046" id="-638">
		<tag k="name" v="Sørvestsnagsbassenget" />
		<tag k="place" v="locality" />
		<tag k="ssr:stedsnr" v="647278" />
	</node>
	<node lat="70.18444444199898" lon="16.769444445554196" id="-640">
		<tag k="name" v="Harstadbassenget" />
		<tag k="place" v="locality" />
		<tag k="ssr:stedsnr" v="647320" />
	</node>
	<node lat="71.53055542697534" lon="36.996102018723704" id="-641">
		<tag k="name" v="Dome 13" />
		<tag k="place" v="locality" />
		<tag k="ssr:stedsnr" v="647323" />
	</node>
	<node lat="58.547777775164086" lon="4.1958333343690875" id="-642">
		<tag k="name" v="Åstagrabenen" />
		<tag k="place" v="locality" />
		<tag k="ssr:stedsnr" v="647522" />
	</node>
	<node lat="57.256666664387936" lon="1.0605555597441239" id="-643">
		<tag k="name" v="Westerngrabenen" />
		<tag k="place" v="locality" />
		<tag k="ssr:stedsnr" v="647582" />
	</node>
	<node lat="72.19666666910224" lon="26.54694424704212" id="-644">
		<tag k="name" v="Nysleppforkastningskomplekset" />
		<tag k="place" v="locality" />
		<tag k="ssr:stedsnr" v="647591" />
	</node>
	<node lat="58.24333333370519" lon="9.381111107384069" id="-646">
		<tag k="name" v="Skagerrakgrabenen" />
		<tag k="place" v="locality" />
		<tag k="ssr:stedsnr" v="647551" />
	</node>
	<node lat="56.68722221967723" lon="3.4513888968168125" id="-647">
		<tag k="name" v="Steinbitterrassen" />
		<tag k="place" v="locality" />
		<tag k="ssr:stedsnr" v="647560" />
	</node>
	<node lat="67.85027778107732" lon="11.775277778276413" id="-649">
		<tag k="name" v="Marmæleutstikkeren" />
		<tag k="place" v="locality" />
		<tag k="ssr:stedsnr" v="647697" />
	</node>
	<node lat="59.64055555179232" lon="1.8936111114536496" id="-650">
		<tag k="name" v="Volveunderbassenget" />
		<tag k="place" v="locality" />
		<tag k="ssr:stedsnr" v="647732" />
	</node>
	<node lat="61.88166666618658" lon="2.2869444410984157" id="-651">
		<tag k="name" v="Marulkbassenget" />
		<tag k="place" v="locality" />
		<tag k="ssr:stedsnr" v="647741" />
	</node>
	<node lat="62.57277777709158" lon="4.260833335312747" id="-652">
		<tag k="name" v="Gnausehøgda" />
		<tag k="place" v="locality" />
		<tag k="ssr:stedsnr" v="647744" />
	</node>
	<node lat="63.48638888793078" lon="4.279166659124321" id="-653">
		<tag k="name" v="Vigrahøgda" />
		<tag k="place" v="locality" />
		<tag k="ssr:stedsnr" v="647752" />
	</node>
	<node lat="64.32250000380782" lon="5.139999991180583" id="-654">
		<tag k="name" v="Griphøgda" />
		<tag k="place" v="locality" />
		<tag k="ssr:stedsnr" v="647753" />
	</node>
	<node lat="61.1819444400776" lon="3.656666659717366" id="-655">
		<tag k="name" v="Ryggsteinsryggen" />
		<tag k="place" v="locality" />
		<tag k="ssr:stedsnr" v="647760" />
	</node>
	<node lat="61.18027777570203" lon="3.594722217716689" id="-656">
		<tag k="name" v="Kinnaforkastningen" />
		<tag k="place" v="locality" />
		<tag k="ssr:stedsnr" v="647762" />
	</node>
	<node lat="60.9744444476179" lon="1.7697222252916927" id="-657">
		<tag k="name" v="Hild-Brent-forkastningssonen" />
		<tag k="place" v="locality" />
		<tag k="ssr:stedsnr" v="647763" />
	</node>
	<node lat="69.36941395847613" lon="29.711464951555204" id="-663">
		<tag k="fixme" v="consider natural=peak for the most distinct mountains in the district" />
		<tag k="name" v="Purrivaara" />
		<tag k="name:ru" v="Purrivaara" />
		<tag k="natural" v="hill" />
		<tag k="place" v="locality" />
		<tag k="ssr:stedsnr" v="648111" />
	</node>
	<node lat="73.15693833728946" lon="44.22109811587749" id="-672">
		<tag k="name" v="Dome 8" />
		<tag k="place" v="locality" />
		<tag k="ssr:stedsnr" v="708272" />
	</node>
	<node lat="72.92833333278176" lon="25.872222104084518" id="-673">
		<tag k="name" v="Nordvargdomen" />
		<tag k="place" v="locality" />
		<tag k="ssr:stedsnr" v="708278" />
	</node>
	<node lat="73.67250000094404" lon="25.19027772952245" id="-674">
		<tag k="name" v="Hoopforkastningkomplekset" />
		<tag k="place" v="locality" />
		<tag k="ssr:stedsnr" v="708292" />
	</node>
	<node lat="71.72472216597228" lon="34.87805103730719" id="-675">
		<tag k="name" v="Dome 14" />
		<tag k="place" v="locality" />
		<tag k="ssr:stedsnr" v="708302" />
	</node>
	<node lat="71.47222217766675" lon="35.734160146681106" id="-676">
		<tag k="name" v="Dome 15" />
		<tag k="place" v="locality" />
		<tag k="ssr:stedsnr" v="708309" />
	</node>
	<node lat="78.55999977830713" lon="34.45639141160994" id="-677">
		<tag k="name" v="Nordantiklinalen" />
		<tag k="place" v="locality" />
		<tag k="ssr:stedsnr" v="708372" />
	</node>
	<node lat="77.15027777601455" lon="13.068888881318681" id="-678">
		<tag k="name" v="Hornsundsforkastningskomplekset" />
		<tag k="place" v="locality" />
		<tag k="ssr:stedsnr" v="708376" />
	</node>
	<node lat="56.60555555415353" lon="2.70222221949352" id="-679">
		<tag k="name" v="Fedegrabenen" />
		<tag k="place" v="locality" />
		<tag k="ssr:stedsnr" v="708522" />
	</node>
	<node lat="60.645277778926484" lon="1.7038888833487313" id="-680">
		<tag k="name" v="Øst-Shetland-bassenget" />
		<tag k="place" v="locality" />
		<tag k="ssr:stedsnr" v="708533" />
	</node>
	<node lat="58.96777777339806" lon="3.297222223098944" id="-681">
		<tag k="name" v="Patchbankryggen" />
		<tag k="place" v="locality" />
		<tag k="ssr:stedsnr" v="708545" />
	</node>
	<node lat="56.96166666654766" lon="3.069722227129967" id="-682">
		<tag k="name" v="Ula-Gyda-forkastningssonen" />
		<tag k="place" v="locality" />
		<tag k="ssr:stedsnr" v="708512" />
	</node>
	<node lat="57.43888888477098" lon="1.3161111121627012" id="-683">
		<tag k="name" v="Forties-Montrose-høgda" />
		<tag k="place" v="locality" />
		<tag k="ssr:stedsnr" v="708575" />
	</node>
	<node lat="65.46249999885283" lon="4.795277778149021" id="-685">
		<tag k="name" v="Flesforkastningssonen" />
		<tag k="place" v="locality" />
		<tag k="ssr:stedsnr" v="708640" />
	</node>
	<node lat="66.52000000047622" lon="4.063611113620226" id="-686">
		<tag k="name" v="Gjallarryggen" />
		<tag k="place" v="locality" />
		<tag k="ssr:stedsnr" v="708647" />
	</node>
	<node lat="61.16611110877078" lon="2.491111114850057" id="-687">
		<tag k="name" v="Tjalveterrassen" />
		<tag k="place" v="locality" />
		<tag k="ssr:stedsnr" v="708729" />
	</node>
	<node lat="60.30500000422576" lon="4.437777783161887" id="-688">
		<tag k="name" v="Øygardsforkastningskomplekset" />
		<tag k="place" v="locality" />
		<tag k="ssr:stedsnr" v="708732" />
	</node>
	<node lat="65.09333333196054" lon="7.566666668343715" id="-689">
		<tag k="name" v="Høgbrakhorsten" />
		<tag k="place" v="locality" />
		<tag k="ssr:stedsnr" v="708742" />
	</node>
	<node lat="69.65426951150285" lon="30.09133979716411" id="-696">
		<tag k="fixme" v="consider natural=peak for the most distinct mountains in the district" />
		<tag k="name" v="Littiäpää" />
		<tag k="name:ru" v="Littiäpää" />
		<tag k="natural" v="hill" />
		<tag k="place" v="locality" />
		<tag k="ssr:stedsnr" v="709174" />
	</node>
	<node lat="69.55574729397235" lon="30.203092466479834" id="-698">
		<tag k="fixme" v="consider natural=peak for the most distinct mountains in the district" />
		<tag k="name" v="Joroffintunturi" />
		<tag k="name:ru" v="Joroffintunturi" />
		<tag k="natural" v="hill" />
		<tag k="place" v="locality" />
		<tag k="ssr:stedsnr" v="712214" />
	</node>
	<node lat="61.48749999988347" lon="1.4597222250559454" id="-703">
		<tag k="name" v="Don" />
		<tag k="place" v="locality" />
		<tag k="ssr:stedsnr" v="725750" />
	</node>
	<node lat="57.46249999873338" lon="9.783333335683414" id="-710">
		<tag k="name" v="Rubjerg Knude" />
		<tag k="name:da" v="Rubjerg Knude" />
		<tag k="natural" v="ridge" />
		<tag k="place" v="locality" />
		<tag k="ssr:stedsnr" v="728791" />
	</node>
	<node lat="73.99305310796694" lon="40.81305626313157" id="-718">
		<tag k="name" v="Dome 9" />
		<tag k="place" v="locality" />
		<tag k="ssr:stedsnr" v="768252" />
	</node>
	<node lat="66.053055551267" lon="4.960833339304755" id="-720">
		<tag k="name" v="Vigridsynklinalen" />
		<tag k="place" v="locality" />
		<tag k="ssr:stedsnr" v="768633" />
	</node>
	<node lat="62.065277779706484" lon="1.6777777781112833" id="-721">
		<tag k="name" v="Manetryggen" />
		<tag k="place" v="locality" />
		<tag k="ssr:stedsnr" v="768751" />
	</node>
	<node lat="61.67194444704048" lon="1.6705555510141663" id="-723">
		<tag k="name" v="Penguinryggen" />
		<tag k="place" v="locality" />
		<tag k="ssr:stedsnr" v="768769" />
	</node>
	<node lat="61.72805555609492" lon="1.6044444430734766" id="-724">
		<tag k="name" v="Makrellhorsten" />
		<tag k="place" v="locality" />
		<tag k="ssr:stedsnr" v="768771" />
	</node>
	<node lat="71.44888888854733" lon="19.69611110773271" id="-729">
		<tag k="name" v="Ringvassøy-Loppa-forkastningskomplekset" />
		<tag k="place" v="locality" />
		<tag k="ssr:stedsnr" v="769253" />
	</node>
	<node lat="56.85944444295149" lon="6.868611104337404" id="-730">
		<tag k="name" v="Horngraben" />
		<tag k="place" v="locality" />
		<tag k="ssr:stedsnr" v="769514" />
	</node>
	<node lat="56.78166666899694" lon="2.226111106593913" id="-731">
		<tag k="name" v="Josefineryggen" />
		<tag k="place" v="locality" />
		<tag k="ssr:stedsnr" v="769517" />
	</node>
	<node lat="58.87333333374456" lon="2.0077777815881164" id="-732">
		<tag k="name" v="Gudrunterrassen" />
		<tag k="place" v="locality" />
		<tag k="ssr:stedsnr" v="769548" />
	</node>
	<node lat="60.931111113836664" lon="3.2886111193786784" id="-733">
		<tag k="name" v="Lomreterassen" />
		<tag k="place" v="locality" />
		<tag k="ssr:stedsnr" v="769559" />
	</node>
	<node lat="65.6866666626913" lon="7.643333328917463" id="-735">
		<tag k="name" v="Revfallsforkastningskompleks" />
		<tag k="place" v="locality" />
		<tag k="ssr:stedsnr" v="769630" />
	</node>
	<node lat="60.942500000331556" lon="0.35694444063563996" id="-736">
		<tag k="name" v="Pobieplattformen" />
		<tag k="place" v="locality" />
		<tag k="ssr:stedsnr" v="769731" />
	</node>
	<node lat="65.07944444077513" lon="7.245833331312726" id="-737">
		<tag k="name" v="Grindagraben" />
		<tag k="place" v="locality" />
		<tag k="ssr:stedsnr" v="769743" />
	</node>
	<node lat="66.71111111568507" lon="11.145833326321574" id="-744">
		<tag k="name" v="Grønøyhøgda" />
		<tag k="place" v="locality" />
		<tag k="ssr:stedsnr" v="777647" />
	</node>
	<node lat="66.53222221900883" lon="9.60388889884703" id="-745">
		<tag k="name" v="Nordlandsryggen" />
		<tag k="place" v="locality" />
		<tag k="ssr:stedsnr" v="838660" />
	</node>
	<node lat="69.44343063465976" lon="30.08430917542059" id="-746">
		<tag k="fixme" v="consider natural=peak for the most distinct mountains in the district" />
		<tag k="name" v="Harjunvaara" />
		<tag k="name:ru" v="Harjunvaara" />
		<tag k="natural" v="hill" />
		<tag k="place" v="locality" />
		<tag k="ssr:stedsnr" v="844191" />
	</node>
	<node lat="58.36666666965798" lon="2.466666671123247" id="-751">
		<tag k="name" v="Draupner" />
		<tag k="place" v="locality" />
		<tag k="ssr:stedsnr" v="847128" />
	</node>
	<node lat="69.63542787188335" lon="30.961500206782958" id="-752">
		<tag k="fixme" v="consider natural=peak for the most distinct mountains in the district" />
		<tag k="name" v="Polusoaivi" />
		<tag k="name:ru" v="Polusoaivi" />
		<tag k="natural" v="hill" />
		<tag k="place" v="locality" />
		<tag k="ssr:stedsnr" v="848155" />
	</node>
	<node lat="57.19583333276709" lon="11.462500007488" id="-760">
		<tag k="name" v="Knøsen" />
		<tag k="name:da" v="Knøsen" />
		<tag k="natural" v="hill" />
		<tag k="place" v="locality" />
		<tag k="ssr:stedsnr" v="849843" />
	</node>
	<node lat="61.48861111291868" lon="2.396944437029577" id="-766">
		<tag k="name" v="Tampenutstikkeren" />
		<tag k="place" v="locality" />
		<tag k="ssr:stedsnr" v="868588" />
	</node>
	<node lat="71.63666667313659" lon="25.357777632498916" id="-768">
		<tag k="name" v="Måsøyforkastningskomplekset" />
		<tag k="place" v="locality" />
		<tag k="ssr:stedsnr" v="890308" />
	</node>
	<node lat="65.19805555252131" lon="3.6858333301447312" id="-769">
		<tag k="name" v="Modgunnhvelvet" />
		<tag k="place" v="locality" />
		<tag k="ssr:stedsnr" v="890595" />
	</node>
	<node lat="66.97250000122935" lon="6.377777779157532" id="-770">
		<tag k="name" v="Vemadomen" />
		<tag k="place" v="locality" />
		<tag k="ssr:stedsnr" v="890599" />
	</node>
	<node lat="66.29750000309679" lon="6.347499999963418" id="-771">
		<tag k="name" v="Flesforkastningssonen" />
		<tag k="place" v="locality" />
		<tag k="ssr:stedsnr" v="890661" />
	</node>
	<node lat="66.72833332996719" lon="7.760833333914406" id="-772">
		<tag k="name" v="Utgardshøgda" />
		<tag k="place" v="locality" />
		<tag k="ssr:stedsnr" v="890670" />
	</node>
	<node lat="65.71944444122347" lon="10.021666673136279" id="-773">
		<tag k="name" v="Ylvingforkastninggsonen" />
		<tag k="place" v="locality" />
		<tag k="ssr:stedsnr" v="890688" />
	</node>
	<node lat="62.8922222189672" lon="5.039722226290158" id="-774">
		<tag k="name" v="Giskehøgda" />
		<tag k="place" v="locality" />
		<tag k="ssr:stedsnr" v="890758" />
	</node>
	<node lat="61.256944446930966" lon="2.840555556420085" id="-775">
		<tag k="name" v="Magneunderbassenget" />
		<tag k="place" v="locality" />
		<tag k="ssr:stedsnr" v="890770" />
	</node>
	<node lat="72.28805555377032" lon="18.454722228906146" id="-783">
		<tag k="name" v="Veslemøyhøgda" />
		<tag k="place" v="locality" />
		<tag k="ssr:stedsnr" v="891301" />
	</node>
	<node lat="56.18555555519032" lon="3.0938888815453285" id="-784">
		<tag k="name" v="Grenseutstikkeren" />
		<tag k="place" v="locality" />
		<tag k="ssr:stedsnr" v="891535" />
	</node>
	<node lat="60.908055555994146" lon="1.1911111091164723" id="-785">
		<tag k="name" v="Øst-Shetland-bassenget" />
		<tag k="place" v="locality" />
		<tag k="ssr:stedsnr" v="891544" />
	</node>
	<node lat="59.613055553827394" lon="2.2038888879984295" id="-786">
		<tag k="name" v="Heimdalhøgda" />
		<tag k="place" v="locality" />
		<tag k="ssr:stedsnr" v="891738" />
	</node>
	<node lat="60.68361111211495" lon="2.910555555136355" id="-787">
		<tag k="name" v="Brageforkastningen" />
		<tag k="place" v="locality" />
		<tag k="ssr:stedsnr" v="891742" />
	</node>
	<node lat="66.86638888820578" lon="3.7502777746239633" id="-809">
		<tag k="name" v="Fenrisgrabenen" />
		<tag k="place" v="locality" />
		<tag k="ssr:stedsnr" v="916671" />
	</node>
	<node lat="66.75777777564629" lon="9.023888878214922" id="-814">
		<tag k="name" v="Trænabassenget" />
		<tag k="place" v="locality" />
		<tag k="ssr:stedsnr" v="951655" />
	</node>
	<node lat="72.3224999959575" lon="20.34222221130823" id="-816">
		<tag k="name" v="Polheimsunderplattformen" />
		<tag k="place" v="locality" />
		<tag k="ssr:stedsnr" v="951254" />
	</node>
	<node lat="75.58222222132963" lon="22.330833308745607" id="-817">
		<tag k="name" v="Sørkappbassenget" />
		<tag k="place" v="locality" />
		<tag k="ssr:stedsnr" v="951368" />
	</node>
	<node lat="79.04083315932048" lon="33.99972441303281" id="-818">
		<tag k="name" v="Nordvestantiklinalen" />
		<tag k="place" v="locality" />
		<tag k="ssr:stedsnr" v="951373" />
	</node>
	<node lat="56.12999999715051" lon="3.4366666660586875" id="-819">
		<tag k="name" v="Ålebassenget" />
		<tag k="place" v="locality" />
		<tag k="ssr:stedsnr" v="951534" />
	</node>
	<node lat="57.13972222389341" lon="4.376666658995973" id="-820">
		<tag k="name" v="Åstagrabenen" />
		<tag k="place" v="locality" />
		<tag k="ssr:stedsnr" v="951543" />
	</node>
	<node lat="56.82555555578495" lon="2.9116666702007574" id="-821">
		<tag k="name" v="Hidrahøgda" />
		<tag k="place" v="locality" />
		<tag k="ssr:stedsnr" v="951521" />
	</node>
	<node lat="56.66055555542456" lon="0.4138888951169179" id="-822">
		<tag k="name" v="West Central-sokkelen" />
		<tag k="place" v="locality" />
		<tag k="ssr:stedsnr" v="951599" />
	</node>
	<node lat="59.89972221943406" lon="3.6588888957199943" id="-823">
		<tag k="name" v="Osebergforkastningsblokken" />
		<tag k="place" v="locality" />
		<tag k="ssr:stedsnr" v="951551" />
	</node>
	<node lat="58.310000002150296" lon="3.4613888959902304" id="-824">
		<tag k="name" v="Selehøgda" />
		<tag k="place" v="locality" />
		<tag k="ssr:stedsnr" v="951570" />
	</node>
	<node lat="58.111111109608025" lon="1.5669444372755217" id="-825">
		<tag k="name" v="Andrewryggen" />
		<tag k="place" v="locality" />
		<tag k="ssr:stedsnr" v="951578" />
	</node>
	<node lat="69.69718065006397" lon="30.92706695669376" id="-841">
		<tag k="fixme" v="consider natural=peak for the most distinct mountains in the district" />
		<tag k="name" v="Tienpääntunturi" />
		<tag k="name:ru" v="Tienpääntunturi" />
		<tag k="natural" v="hill" />
		<tag k="place" v="locality" />
		<tag k="ssr:stedsnr" v="969164" />
	</node>
</osm>
