<?xml version="1.0" encoding="UTF-8"?>
<osm version="0.6" generator="osmapis">
	<node lat="59.77912056889896" lon="-43.89447187911747" id="-1">
		<tag k="name" v="Kapp Farvel" />
		<tag k="natural" v="cape" />
		<tag k="ssr:stedsnr" v="58096" />
	</node>
	<node lat="80.26464628378011" lon="52.38328091163443" id="-2">
		<tag k="name" v="Tikhaya Bay" />
		<tag k="place" v="hamlet" />
		<tag k="ssr:stedsnr" v="58124" />
	</node>
	<node lat="75.32693560374007" lon="44.757808109278166" id="-6">
		<tag k="name" v="Dome 5" />
		<tag k="place" v="locality" />
		<tag k="ssr:stedsnr" v="40358" />
	</node>
	<node lat="74.02249997210089" lon="29.88666645448531" id="-7">
		<tag k="name" v="Bjarmelandsplattform" />
		<tag k="place" v="locality" />
		<tag k="ssr:stedsnr" v="40359" />
	</node>
	<node lat="76.38055555515038" lon="3.550277766789467" id="-8">
		<tag k="name" v="Olgabassenget" />
		<tag k="place" v="locality" />
		<tag k="ssr:stedsnr" v="40362" />
	</node>
	<node lat="64.34083333096454" lon="8.61194443794671" id="-9">
		<tag k="name" v="Frobassenget" />
		<tag k="place" v="locality" />
		<tag k="ssr:stedsnr" v="40764" />
	</node>
	<node lat="63.402222220052714" lon="2.818611108102657" id="-10">
		<tag k="name" v="Mørebassenget" />
		<tag k="place" v="locality" />
		<tag k="ssr:stedsnr" v="40765" />
	</node>
	<node lat="57.88993612229491" lon="-3.425730478204833" id="-12">
		<tag k="bay" v="fjord" />
		<tag k="name" v="Moray Firth" />
		<tag k="name:en" v="Moray Firth" />
		<tag k="natural" v="bay" />
		<tag k="ssr:stedsnr" v="41969" />
	</node>
	<node lat="69.58750011364491" lon="31.333330351859356" id="-15">
		<tag k="name" v="Gagarka" />
		<tag k="name:ru" v="Gagarka" />
		<tag k="place" v="village" />
		<tag k="ssr:stedsnr" v="60553" />
	</node>
	<node lat="58.69166666818805" lon="11.256944450930412" id="-16">
		<tag k="name" v="Grebbestad" />
		<tag k="name:sv" v="Grebbestad" />
		<tag k="place" v="village" />
		<tag k="ssr:stedsnr" v="60801" />
	</node>
	<node lat="58.908333329834754" lon="11.141666667717166" id="-17">
		<tag k="name" v="Öddö" />
		<tag k="name:sv" v="Öddö" />
		<tag k="place" v="island" />
		<tag k="ssr:stedsnr" v="60804" />
	</node>
	<node lat="57.55000000430993" lon="10.500000005628788" id="-18">
		<tag k="name" v="Ålbæk bugt" />
		<tag k="name:da" v="Ålbæk bugt" />
		<tag k="natural" v="bay" />
		<tag k="ssr:stedsnr" v="60783" />
	</node>
	<node lat="58.36388889113854" lon="11.229166665845772" id="-19">
		<tag k="name" v="Smögen" />
		<tag k="name:sv" v="Smögen" />
		<tag k="place" v="village" />
		<tag k="ssr:stedsnr" v="60785" />
	</node>
	<node lat="58.875000000178154" lon="11.166666662771235" id="-21">
		<tag k="name" v="Tjärnö" />
		<tag k="name:sv" v="Tjärnö" />
		<tag k="place" v="island" />
		<tag k="ssr:stedsnr" v="60814" />
	</node>
	<node lat="58.33333333150272" lon="11.483333331917686" id="-22">
		<tag k="name" v="Stångenäs" />
		<tag k="name:sv" v="Stångenäs" />
		<tag k="natural" v="cape" />
		<tag k="ssr:stedsnr" v="60821" />
	</node>
	<node lat="57.29166666457378" lon="10.925000001886099" id="-23">
		<tag k="name" v="Vesterø" />
		<tag k="name:da" v="Vesterø" />
		<tag k="place" v="village" />
		<tag k="ssr:stedsnr" v="60837" />
	</node>
	<node lat="58.92222222149611" lon="2.195833341351978" id="-24">
		<tag k="man_made" v="offshore_platform" />
		<tag k="name" v="Ivar Aasen" />
		<tag k="seamark:type" v="platform" />
		<tag k="ssr:stedsnr" v="60847" />
	</node>
	<node lat="65.06673889125855" lon="6.728488883222426" id="-27">
		<tag k="man_made" v="offshore_platform" />
		<tag k="name" v="Åsgard A" />
		<tag k="seamark:type" v="platform" />
		<tag k="ssr:stedsnr" v="56007" />
	</node>
	<node lat="65.61612148907437" lon="-37.6360214109507" id="-28">
		<tag k="fixme" v="multiple name tags, choose one and add the other to alt_name; consider place=suburb, village or hamlet" />
		<tag k="name" v="Tasiilaq;Ammassalik" />
		<tag k="name:kl" v="Tasiilaq;Ammassalik" />
		<tag k="place" v="quarter" />
		<tag k="ssr:stedsnr" v="56101" />
	</node>
	<node lat="57.111111113839726" lon="2.8458333290692366" id="-31">
		<tag k="man_made" v="offshore_platform" />
		<tag k="name" v="Ula PP" />
		<tag k="seamark:type" v="platform" />
		<tag k="ssr:stedsnr" v="57102" />
	</node>
	<node lat="77.71821621240512" lon="-18.01666796889971" id="-32">
		<tag k="name" v="Île de France" />
		<tag k="place" v="island" />
		<tag k="ssr:stedsnr" v="99371" />
	</node>
	<node lat="69.66027785155468" lon="30.125553670586342" id="-33">
		<tag k="name" v="Boris Gleb" />
		<tag k="natural" v="cape" />
		<tag k="ssr:stedsnr" v="121599" />
	</node>
	<node lat="58.21666666673457" lon="11.926388892709397" id="-34">
		<tag k="name" v="Ljungskile" />
		<tag k="name:sv" v="Ljungskile" />
		<tag k="place" v="village" />
		<tag k="ssr:stedsnr" v="121743" />
	</node>
	<node lat="58.15416666735396" lon="11.374999997823663" id="-35">
		<tag k="name" v="Härmanö" />
		<tag k="name:sv" v="Härmanö" />
		<tag k="place" v="island" />
		<tag k="ssr:stedsnr" v="121745" />
	</node>
	<node lat="57.733333331763944" lon="11.683333326002252" id="-36">
		<tag k="name" v="Björkö" />
		<tag k="name:sv" v="Björkö" />
		<tag k="place" v="island" />
		<tag k="ssr:stedsnr" v="121750" />
	</node>
	<node lat="57.49166666607361" lon="9.70833333470513" id="-37">
		<tag k="name" v="Lønstrup Rødgrund" />
		<tag k="name:da" v="Lønstrup Rødgrund" />
		<tag k="natural" v="shoal" />
		<tag k="place" v="locality" />
		<tag k="ssr:stedsnr" v="121768" />
	</node>
	<node lat="58.2708333326615" lon="11.433333332078702" id="-38">
		<tag k="name" v="Lysekil" />
		<tag k="name:sv" v="Lysekil" />
		<tag k="place" v="town" />
		<tag k="ssr:stedsnr" v="121769" />
	</node>
	<node lat="57.24999999813104" lon="10.999999999468502" id="-42">
		<tag k="name" v="Læsø" />
		<tag k="name:da" v="Læsø" />
		<tag k="place" v="island" />
		<tag k="ssr:stedsnr" v="121816" />
	</node>
	<node lat="56.54444444838517" lon="3.2249999998384697" id="-43">
		<tag k="man_made" v="offshore_platform" />
		<tag k="name" v="Ekofisk L" />
		<tag k="seamark:type" v="platform" />
		<tag k="ssr:stedsnr" v="121830" />
	</node>
	<node lat="58.416666668274225" lon="1.7166666736647254" id="-45">
		<tag k="man_made" v="offshore_platform" />
		<tag k="name" v="Sleipner B" />
		<tag k="seamark:type" v="platform" />
		<tag k="ssr:stedsnr" v="121871" />
	</node>
	<node lat="68.32943840773486" lon="38.42140336997607" id="-46">
		<tag k="name" v="Drozdovkabkt" />
		<tag k="name:ru" v="Drozdovkabkt" />
		<tag k="natural" v="bay" />
		<tag k="ssr:stedsnr" v="101132" />
	</node>
	<node lat="77.51247018999226" lon="49.84294793999994" id="-47">
		<tag k="name" v="Nordlige Barentsbassenget" />
		<tag k="place" v="locality" />
		<tag k="ssr:stedsnr" v="101349" />
	</node>
	<node lat="64.93805555211593" lon="4.916944442440647" id="-49">
		<tag k="name" v="Slettringsryggen" />
		<tag k="place" v="locality" />
		<tag k="ssr:stedsnr" v="101740" />
	</node>
	<node lat="61.03166666792819" lon="2.9911111041497143" id="-50">
		<tag k="name" v="Flatfiskbakken" />
		<tag k="place" v="locality" />
		<tag k="ssr:stedsnr" v="101743" />
	</node>
	<node lat="61.594444440579785" lon="3.20111110857278" id="-51">
		<tag k="name" v="Mardollunderbassenget" />
		<tag k="place" v="locality" />
		<tag k="ssr:stedsnr" v="101752" />
	</node>
	<node lat="61.649444442732076" lon="1.2049999965314602" id="-52">
		<tag k="name" v="Magnusryggen" />
		<tag k="place" v="locality" />
		<tag k="ssr:stedsnr" v="101753" />
	</node>
	<node lat="66.32569875739492" lon="34.88238056288005" id="-53">
		<tag k="name" v="Kandalakshskij Zaliv" />
		<tag k="name:ru" v="Kandalakshskij Zaliv" />
		<tag k="natural" v="bay" />
		<tag k="ssr:stedsnr" v="101907" />
	</node>
	<node lat="70.67208612128827" lon="-8.824438505571779" id="-54">
		<tag k="name" v="Straumflaket" />
		<tag k="natural" v="shoal" />
		<tag k="place" v="locality" />
		<tag k="ssr:stedsnr" v="101954" />
	</node>
	<node lat="61.830650002034" lon="19.387936095953044" id="-55">
		<tag k="name" v="Bottenhavet" />
		<tag k="natural" v="bay" />
		<tag k="ssr:stedsnr" v="101962" />
	</node>
	<node lat="69.59378062546574" lon="30.177764723073384" id="-56">
		<tag k="name" v="Iso Palosaari" />
		<tag k="name:ru" v="Iso Palosaari" />
		<tag k="place" v="islet" />
		<tag k="ssr:stedsnr" v="102190" />
	</node>
	<node lat="63.527824995408025" lon="5.7544277689433585" id="-57">
		<tag k="name" v="Storneset" />
		<tag k="natural" v="reef" />
		<tag k="ssr:stedsnr" v="102264" />
	</node>
	<node lat="71.51444444297694" lon="18.600000006900437" id="-58">
		<tag k="name" v="Tromsøbassenget" />
		<tag k="place" v="locality" />
		<tag k="ssr:stedsnr" v="102319" />
	</node>
	<node lat="72.34388889193735" lon="24.41249990977932" id="-59">
		<tag k="name" v="Samsondomen" />
		<tag k="place" v="locality" />
		<tag k="ssr:stedsnr" v="102321" />
	</node>
	<node lat="58.00138888830867" lon="-0.19638888806937088" id="-60">
		<tag k="name" v="South Halibut-trauet" />
		<tag k="place" v="locality" />
		<tag k="ssr:stedsnr" v="102612" />
	</node>
	<node lat="57.05666666225216" lon="2.7469444441375566" id="-61">
		<tag k="name" v="Codterassen" />
		<tag k="place" v="locality" />
		<tag k="ssr:stedsnr" v="102572" />
	</node>
	<node lat="56.336111109457214" lon="2.1141666638961722" id="-62">
		<tag k="name" v="Aukryggen" />
		<tag k="place" v="locality" />
		<tag k="ssr:stedsnr" v="102580" />
	</node>
	<node lat="57.40888889269035" lon="5.562222223314708" id="-63">
		<tag k="name" v="Listaforkastningsblokkomplekset" />
		<tag k="place" v="locality" />
		<tag k="ssr:stedsnr" v="102632" />
	</node>
	<node lat="62.733333330731824" lon="4.841666662386216" id="-67">
		<tag k="name" v="Gnausen" />
		<tag k="natural" v="shoal" />
		<tag k="place" v="locality" />
		<tag k="ssr:stedsnr" v="103630" />
	</node>
	<node lat="62.55222222250163" lon="3.706666662388879" id="-69">
		<tag k="name" v="Møre-Trøndelag-forkastinngskomplekset" />
		<tag k="place" v="locality" />
		<tag k="ssr:stedsnr" v="351589" />
	</node>
	<node lat="69.30644450277272" lon="29.33766237278831" id="-70">
		<tag k="name" v="Brennholmen" />
		<tag k="place" v="islet" />
		<tag k="ssr:stedsnr" v="261119" />
	</node>
	<node lat="59.013063889642254" lon="11.115011112005616" id="-73">
		<tag k="name" v="Säcken" />
		<tag k="natural" v="reef" />
		<tag k="ssr:stedsnr" v="162198" />
	</node>
	<node lat="68.67722222632263" lon="11.052500008593245" id="-77">
		<tag k="name" v="Lofotbassenget" />
		<tag k="place" v="locality" />
		<tag k="ssr:stedsnr" v="162288" />
	</node>
	<node lat="77.92749990019377" lon="32.27277877300179" id="-78">
		<tag k="name" v="Sørøstantiklinalen" />
		<tag k="place" v="locality" />
		<tag k="ssr:stedsnr" v="162386" />
	</node>
	<node lat="57.277500001733415" lon="3.5502777816244473" id="-79">
		<tag k="name" v="Hummerforkastningssonen" />
		<tag k="place" v="locality" />
		<tag k="ssr:stedsnr" v="162396" />
	</node>
	<node lat="56.11027777621038" lon="4.485000006894405" id="-80">
		<tag k="name" v="Tail End-grabenen" />
		<tag k="place" v="locality" />
		<tag k="ssr:stedsnr" v="162538" />
	</node>
	<node lat="60.79000000016514" lon="3.5966666652484465" id="-81">
		<tag k="name" v="Bjørgvinhvelvet" />
		<tag k="place" v="locality" />
		<tag k="ssr:stedsnr" v="162543" />
	</node>
	<node lat="61.20166666577142" lon="2.2163888826456337" id="-82">
		<tag k="name" v="Gullfaksforkastningsblokken" />
		<tag k="place" v="locality" />
		<tag k="ssr:stedsnr" v="162746" />
	</node>
	<node lat="61.10249999966584" lon="0.21972222240133915" id="-83">
		<tag k="name" v="Unstbassenget" />
		<tag k="place" v="locality" />
		<tag k="ssr:stedsnr" v="162747" />
	</node>
	<node lat="77.42592414531673" lon="-19.65254012710161" id="-84">
		<tag k="bay" v="fjord" />
		<tag k="name" v="Skærfjorden" />
		<tag k="name:da" v="Skærfjorden" />
		<tag k="natural" v="bay" />
		<tag k="ssr:stedsnr" v="162905" />
	</node>
	<node lat="66.29251264033212" lon="-16.83727795906607" id="-88">
		<tag k="bay" v="fjord" />
		<tag k="name" v="Axarfjørdur" />
		<tag k="name:is" v="Axarfjørdur" />
		<tag k="natural" v="bay" />
		<tag k="ssr:stedsnr" v="162928" />
	</node>
	<node lat="69.08649728690627" lon="29.243092915484805" id="-90">
		<tag k="name" v="Seigijoki" />
		<tag k="name:ru" v="Seigijoki" />
		<tag k="ssr:stedsnr" v="163122" />
		<tag k="waterway" v="stream" />
	</node>
	<node lat="69.16223617110377" lon="29.268701259087223" id="-91">
		<tag k="name" v="Fløtarholmen" />
		<tag k="place" v="islet" />
		<tag k="ssr:stedsnr" v="139040" />
	</node>
	<node lat="63.233333330859246" lon="5.950000005768088" id="-92">
		<tag k="name" v="Onagrunnen" />
		<tag k="natural" v="shoal" />
		<tag k="place" v="locality" />
		<tag k="ssr:stedsnr" v="163627" />
	</node>
	<node lat="66.03277777958812" lon="9.850833328109355" id="-94">
		<tag k="name" v="Helgelandsbassenget" />
		<tag k="place" v="locality" />
		<tag k="ssr:stedsnr" v="352633" />
	</node>
	<node lat="65.70166666843012" lon="8.011944450371743" id="-95">
		<tag k="name" v="Sørhøgda" />
		<tag k="place" v="locality" />
		<tag k="ssr:stedsnr" v="352634" />
	</node>
	<node lat="69.78221390261857" lon="26.219532954476435" id="-96">
		<tag k="name" v="Nuvvosnjálbmi" />
		<tag k="name:se" v="Nuvvosnjálbmi" />
		<tag k="natural" v="bay" />
		<tag k="ssr:stedsnr" v="211674" />
	</node>
	<node lat="69.78471945730051" lon="26.22622463502539" id="-97">
		<tag k="name" v="Nuvvos" />
		<tag k="name:se" v="Nuvvos" />
		<tag k="place" v="hamlet" />
		<tag k="ssr:stedsnr" v="211679" />
	</node>
	<node lat="56.56666667112821" lon="3.204166670011721" id="-99">
		<tag k="man_made" v="offshore_platform" />
		<tag k="name" v="Ekofisk K" />
		<tag k="seamark:type" v="platform" />
		<tag k="ssr:stedsnr" v="182812" />
	</node>
	<node lat="69.52905009955856" lon="30.850391899838925" id="-100">
		<tag k="fixme" v="consider natural=peak for the most distinct mountains in the district" />
		<tag k="name" v="Haukkapahta" />
		<tag k="name:ru" v="Haukkapahta" />
		<tag k="natural" v="hill" />
		<tag k="place" v="locality" />
		<tag k="ssr:stedsnr" v="344152" />
	</node>
	<node lat="64.59444444808841" lon="7.369722219082291" id="-101">
		<tag k="name" v="Gimsbassenget" />
		<tag k="place" v="locality" />
		<tag k="ssr:stedsnr" v="344762" />
	</node>
	<node lat="61.782777780947775" lon="3.273055546782996" id="-102">
		<tag k="name" v="Maraforkastningssonen" />
		<tag k="place" v="locality" />
		<tag k="ssr:stedsnr" v="344787" />
	</node>
	<node lat="63.08250000145274" lon="4.891111116912689" id="-103">
		<tag k="name" v="Onahøgda" />
		<tag k="place" v="locality" />
		<tag k="ssr:stedsnr" v="222721" />
	</node>
	<node lat="67.24444444250318" lon="8.495833338193957" id="-104">
		<tag k="name" v="Någrindsynklinalen" />
		<tag k="place" v="locality" />
		<tag k="ssr:stedsnr" v="222676" />
	</node>
	<node lat="62.65328333496792" lon="3.9463916699042496" id="-105">
		<tag k="name" v="Korallneset" />
		<tag k="natural" v="reef" />
		<tag k="ssr:stedsnr" v="223210" />
	</node>
	<node lat="69.94666390454039" lon="27.235660552711412" id="-106">
		<tag k="name" v="Luosnjársullot" />
		<tag k="name:se" v="Luosnjársullot" />
		<tag k="old_name:se" v="Luosnjarsullut" />
		<tag k="place" v="islet" />
		<tag k="ssr:stedsnr" v="270889" />
	</node>
	<node lat="56.9052777758711" lon="7.580277771636081" id="-107">
		<tag k="name" v="Holmslandforkastningssonen" />
		<tag k="place" v="locality" />
		<tag k="ssr:stedsnr" v="223528" />
	</node>
	<node lat="69.12167784389217" lon="29.238429032298644" id="-108">
		<tag k="name" v="Aittasaari" />
		<tag k="name:ru" v="Aittasaari" />
		<tag k="place" v="islet" />
		<tag k="ssr:stedsnr" v="345140" />
	</node>
	<node lat="60.88793055794602" lon="3.6054638854441694" id="-109">
		<tag k="man_made" v="offshore_platform" />
		<tag k="name" v="Troll C" />
		<tag k="seamark:type" v="platform" />
		<tag k="ssr:stedsnr" v="359662" />
	</node>
	<node lat="61.50750282343894" lon="-6.838610569759748" id="-112">
		<tag k="name" v="Suderøy" />
		<tag k="place" v="island" />
		<tag k="ssr:stedsnr" v="283150" />
	</node>
	<node lat="71.63472222555679" lon="21.952222189866095" id="-113">
		<tag k="name" v="Hammerfestbassenget" />
		<tag k="place" v="locality" />
		<tag k="ssr:stedsnr" v="283219" />
	</node>
	<node lat="73.64416666788381" lon="15.791388895439987" id="-114">
		<tag k="name" v="Vestbakkvulkanittprovinsen" />
		<tag k="place" v="locality" />
		<tag k="ssr:stedsnr" v="283231" />
	</node>
	<node lat="71.51166666294101" lon="17.788888898932154" id="-115">
		<tag k="name" v="Senjaryggen" />
		<tag k="place" v="locality" />
		<tag k="ssr:stedsnr" v="283248" />
	</node>
	<node lat="64.7711111139437" lon="6.314444445568575" id="-116">
		<tag k="name" v="Sklinnaryggen" />
		<tag k="place" v="locality" />
		<tag k="ssr:stedsnr" v="283725" />
	</node>
	<node lat="64.18638888885312" lon="1.5011111125446315" id="-117">
		<tag k="name" v="Mørerandhøgda" />
		<tag k="place" v="locality" />
		<tag k="ssr:stedsnr" v="283732" />
	</node>
	<node lat="61.77777777840171" lon="1.144444454876577" id="-118">
		<tag k="name" v="Magnusbassenget" />
		<tag k="place" v="locality" />
		<tag k="ssr:stedsnr" v="283743" />
	</node>
	<node lat="66.60726238244797" lon="43.64142044127444" id="-119">
		<tag k="name" v="Mezenskij Zaliv" />
		<tag k="name:ru" v="Mezenskij Zaliv" />
		<tag k="natural" v="bay" />
		<tag k="ssr:stedsnr" v="283891" />
	</node>
	<node lat="69.56484730271353" lon="30.45877005221429" id="-120">
		<tag k="fixme" v="consider natural=peak for the most distinct mountains in the district" />
		<tag k="name" v="Pieni Vohtastunturi" />
		<tag k="name:ru" v="Pieni Vohtastunturi" />
		<tag k="natural" v="hill" />
		<tag k="place" v="locality" />
		<tag k="ssr:stedsnr" v="284164" />
	</node>
	<node lat="59.282777774281534" lon="1.8999999934102536" id="-121">
		<tag k="name" v="Vanaunderbassenget" />
		<tag k="place" v="locality" />
		<tag k="ssr:stedsnr" v="284545" />
	</node>
	<node lat="57.541666669424416" lon="2.8616666744167545" id="-122">
		<tag k="name" v="Rekeforkastningssonen" />
		<tag k="place" v="locality" />
		<tag k="ssr:stedsnr" v="284555" />
	</node>
	<node lat="58.58777777530974" lon="5.045555555965282" id="-123">
		<tag k="name" v="Stavangerplattformen" />
		<tag k="place" v="locality" />
		<tag k="ssr:stedsnr" v="284751" />
	</node>
	<node lat="60.13694444420146" lon="2.33749999756903" id="-124">
		<tag k="name" v="Fensalunderbassenget" />
		<tag k="place" v="locality" />
		<tag k="ssr:stedsnr" v="284753" />
	</node>
	<node lat="60.713055557469545" lon="2.9547222236609" id="-125">
		<tag k="name" v="Bragehorsten" />
		<tag k="place" v="locality" />
		<tag k="ssr:stedsnr" v="284762" />
	</node>
	<node lat="69.93527789350266" lon="31.99999659275147" id="-133">
		<tag k="bay" v="fjord" />
		<tag k="name" v="Vayda-Guba" />
		<tag k="name:ru" v="Vayda-Guba" />
		<tag k="natural" v="bay" />
		<tag k="ssr:stedsnr" v="303625" />
	</node>
	<node lat="57.61666666222047" lon="11.783333336565333" id="-134">
		<tag k="name" v="Styrsö" />
		<tag k="name:sv" v="Styrsö" />
		<tag k="place" v="island" />
		<tag k="ssr:stedsnr" v="303860" />
	</node>
	<node lat="69.19770863869284" lon="33.54865964137796" id="-136">
		<tag k="name" v="Kolabkt" />
		<tag k="name:ru" v="Kolabkt" />
		<tag k="natural" v="bay" />
		<tag k="ssr:stedsnr" v="344125" />
	</node>
	<node lat="61.852552824531735" lon="-6.848377240595887" id="-137">
		<tag k="name" v="Sandøy" />
		<tag k="place" v="island" />
		<tag k="ssr:stedsnr" v="344196" />
	</node>
	<node lat="72.69388850245961" lon="36.67138470806697" id="-138">
		<tag k="name" v="Dome 11" />
		<tag k="place" v="locality" />
		<tag k="ssr:stedsnr" v="344276" />
	</node>
	<node lat="73.64000000182557" lon="19.537222206165573" id="-139">
		<tag k="name" v="Bjørnøybassenget" />
		<tag k="place" v="locality" />
		<tag k="ssr:stedsnr" v="344279" />
	</node>
	<node lat="73.51138650090326" lon="40.974440964463504" id="-140">
		<tag k="name" v="Dome 10" />
		<tag k="place" v="locality" />
		<tag k="ssr:stedsnr" v="344281" />
	</node>
	<node lat="75.81638110601426" lon="44.321422062892076" id="-141">
		<tag k="name" v="Dome 4" />
		<tag k="place" v="locality" />
		<tag k="ssr:stedsnr" v="344385" />
	</node>
	<node lat="75.24804363698745" lon="45.83059401937447" id="-142">
		<tag k="name" v="Luclovskayasadelen" />
		<tag k="place" v="locality" />
		<tag k="ssr:stedsnr" v="344386" />
	</node>
	<node lat="77.81083330190513" lon="29.607778067016145" id="-143">
		<tag k="name" v="Sørvestantiklinalen" />
		<tag k="place" v="locality" />
		<tag k="ssr:stedsnr" v="344394" />
	</node>
	<node lat="56.81444444870075" lon="5.700555554083036" id="-144">
		<tag k="name" v="Dansk-norske basseng" />
		<tag k="place" v="locality" />
		<tag k="ssr:stedsnr" v="344534" />
	</node>
	<node lat="57.640277778967146" lon="7.175555561801801" id="-145">
		<tag k="name" v="Farsundbassenget" />
		<tag k="place" v="locality" />
		<tag k="ssr:stedsnr" v="344590" />
	</node>
	<node lat="57.077222224970285" lon="2.2652777819459438" id="-146">
		<tag k="name" v="Breiflabbassenget" />
		<tag k="place" v="locality" />
		<tag k="ssr:stedsnr" v="344601" />
	</node>
	<node lat="67.27777778144137" lon="7.509444438369106" id="-147">
		<tag k="name" v="Nykhøgda" />
		<tag k="place" v="locality" />
		<tag k="ssr:stedsnr" v="344648" />
	</node>
	<node lat="68.32862357674554" lon="44.52592486189566" id="-149">
		<tag k="name" v="Timanskayaantiklinalen" />
		<tag k="place" v="locality" />
		<tag k="ssr:stedsnr" v="344698" />
	</node>
	<node lat="67.5700000010758" lon="10.677222220052458" id="-150">
		<tag k="name" v="Kvalnesdjupsgrabenen" />
		<tag k="place" v="locality" />
		<tag k="ssr:stedsnr" v="344716" />
	</node>
	<node lat="59.655555557021316" lon="1.5966666628261181" id="-151">
		<tag k="name" v="Berylgropa" />
		<tag k="place" v="locality" />
		<tag k="ssr:stedsnr" v="344742" />
	</node>
	<node lat="60.6274999993542" lon="3.650555551772979" id="-152">
		<tag k="name" v="Tusseforkastningen" />
		<tag k="place" v="locality" />
		<tag k="ssr:stedsnr" v="344746" />
	</node>
	<node lat="60.74138888794164" lon="2.2624999930751515" id="-153">
		<tag k="name" v="Rungneunderbassenget" />
		<tag k="place" v="locality" />
		<tag k="ssr:stedsnr" v="344752" />
	</node>
	<node lat="61.87666666233017" lon="0.6591666647683153" id="-154">
		<tag k="name" v="Margaretautstikkeren" />
		<tag k="place" v="locality" />
		<tag k="ssr:stedsnr" v="344758" />
	</node>
	<node lat="67.5633333292034" lon="9.669999998306782" id="-156">
		<tag k="name" v="Røstrevet" />
		<tag k="natural" v="reef" />
		<tag k="ssr:stedsnr" v="344856" />
	</node>
	<node lat="66.26823986437337" lon="-15.564367851943805" id="-157">
		<tag k="bay" v="fjord" />
		<tag k="name" v="Thistilfjørdur" />
		<tag k="name:is" v="Thistilfjørdur" />
		<tag k="natural" v="bay" />
		<tag k="ssr:stedsnr" v="344916" />
	</node>
	<node lat="69.7724195324541" lon="30.85200872084016" id="-162">
		<tag k="landuse" v="military" />
		<tag k="name" v="Barakker" />
		<tag k="name:ru" v="Barakker" />
		<tag k="ssr:stedsnr" v="421120" />
	</node>
	<node lat="69.76221953367546" lon="30.879586486986266" id="-163">
		<tag k="fixme" v="consider natural=peak for the most distinct mountains in the district" />
		<tag k="name" v="Harmajatunturi" />
		<tag k="name:ru" v="Harmajatunturi" />
		<tag k="natural" v="hill" />
		<tag k="place" v="locality" />
		<tag k="ssr:stedsnr" v="421122" />
	</node>
	<node lat="69.66432786970002" lon="30.950164115040742" id="-165">
		<tag k="fixme" v="consider natural=peak for the most distinct mountains in the district" />
		<tag k="name" v="Kuolpunankammi" />
		<tag k="name:ru" v="Kuolpunankammi" />
		<tag k="natural" v="hill" />
		<tag k="place" v="locality" />
		<tag k="ssr:stedsnr" v="423158" />
	</node>
	<node lat="69.59583343845848" lon="31.233330478872517" id="-167">
		<tag k="name" v="Trifona" />
		<tag k="name:ru" v="Trifona" />
		<tag k="place" v="village" />
		<tag k="ssr:stedsnr" v="424564" />
	</node>
	<node lat="69.76250011292102" lon="31.71666342258232" id="-168">
		<tag k="name" v="Poselok" />
		<tag k="name:ru" v="Poselok" />
		<tag k="place" v="village" />
		<tag k="ssr:stedsnr" v="424569" />
	</node>
	<node lat="58.441666668383135" lon="11.675000006134448" id="-169">
		<tag k="name" v="Munkedals hamn" />
		<tag k="name:sv" v="Munkedals hamn" />
		<tag k="place" v="village" />
		<tag k="ssr:stedsnr" v="424753" />
	</node>
	<node lat="57.64166666281984" lon="10.14166667457667" id="-172">
		<tag k="name" v="Tannis bugt" />
		<tag k="name:da" v="Tannis bugt" />
		<tag k="place" v="sea" />
		<tag k="ssr:stedsnr" v="424777" />
	</node>
	<node lat="58.858333329624394" lon="11.099999991792975" id="-173">
		<tag k="bay" v="fjord" />
		<tag k="name" v="Kosterfjorden" />
		<tag k="name:sv" v="Kosterfjorden" />
		<tag k="natural" v="bay" />
		<tag k="ssr:stedsnr" v="424797" />
	</node>
	<node lat="56.37222221844918" lon="3.258333337746918" id="-174">
		<tag k="man_made" v="offshore_platform" />
		<tag k="name" v="Eldfisk S" />
		<tag k="seamark:type" v="platform" />
		<tag k="ssr:stedsnr" v="424818" />
	</node>
	<node lat="57.033333329551034" lon="9.933333333015446" id="-175">
		<tag k="name" v="Ålborg" />
		<tag k="name:da" v="Ålborg" />
		<tag k="place" v="town" />
		<tag k="ssr:stedsnr" v="424834" />
	</node>
	<node lat="56.816666667440614" lon="8.750000000793026" id="-176">
		<tag k="name" v="Mors" />
		<tag k="name:da" v="Mors" />
		<tag k="place" v="island" />
		<tag k="ssr:stedsnr" v="425768" />
	</node>
	<node lat="64.5945256164704" lon="-13.288217877583788" id="-180">
		<tag k="alt_name:is" v="Hvalsbakur" />
		<tag k="name" v="Hvalbakur" />
		<tag k="name:is" v="Hvalbakur" />
		<tag k="place" v="islet" />
		<tag k="ssr:stedsnr" v="404910" />
	</node>
	<node lat="56.16388889187556" lon="4.065833334947569" id="-182">
		<tag k="name" v="Gertrudgrabenen" />
		<tag k="place" v="locality" />
		<tag k="ssr:stedsnr" v="405535" />
	</node>
	<node lat="57.79944444634666" lon="1.8680555508483134" id="-183">
		<tag k="name" v="Maureenterrassen" />
		<tag k="place" v="locality" />
		<tag k="ssr:stedsnr" v="405588" />
	</node>
	<node lat="76.88521944863808" lon="3.392236111628602" id="-184">
		<tag k="name" v="Grønlandshavet - Greenland Sea" />
		<tag k="name:en" v="Greenland Sea" />
		<tag k="name:no" v="Grønlandshavet" />
		<tag k="place" v="sea" />
		<tag k="ssr:stedsnr" v="405902" />
	</node>
	<node lat="78.13607777663363" lon="26.81001951039349" id="-185">
		<tag k="name" v="Olgastretet" />
		<tag k="natural" v="bay" />
		<tag k="ssr:stedsnr" v="405980" />
	</node>
	<node lat="58.12499999902321" lon="2.475000005696808" id="-189">
		<tag k="man_made" v="pipeline" />
		<tag k="name" v="Statpipe" />
		<tag k="ssr:stedsnr" v="785108" />
	</node>
	<node lat="69.36595042883849" lon="34.854034226606956" id="-190">
		<tag k="name" v="Teriberskigr" />
		<tag k="name:ru" v="Teriberskigr" />
		<tag k="natural" v="shoal" />
		<tag k="place" v="locality" />
		<tag k="ssr:stedsnr" v="526130" />
	</node>
	<node lat="69.6002445214522" lon="30.372336799741582" id="-192">
		<tag k="fixme" v="consider natural=peak for the most distinct mountains in the district" />
		<tag k="name" v="Siertitunturi" />
		<tag k="name:ru" v="Siertitunturi" />
		<tag k="natural" v="hill" />
		<tag k="place" v="locality" />
		<tag k="ssr:stedsnr" v="526155" />
	</node>
	<node lat="69.50535008106245" lon="30.14665913777312" id="-193">
		<tag k="name" v="Kontirjärvi" />
		<tag k="name:ru" v="Kontirjärvi" />
		<tag k="natural" v="water" />
		<tag k="ssr:stedsnr" v="526164" />
	</node>
	<node lat="72.55000000243267" lon="21.896666640670105" id="-194">
		<tag k="name" v="Lopphøgda" />
		<tag k="place" v="locality" />
		<tag k="ssr:stedsnr" v="526250" />
	</node>
	<node lat="72.38166640199226" lon="36.23805092269159" id="-195">
		<tag k="name" v="Hjalmar Johansen-høgda" />
		<tag k="place" v="locality" />
		<tag k="ssr:stedsnr" v="526253" />
	</node>
	<node lat="75.97635786893179" lon="49.546510923312724" id="-196">
		<tag k="name" v="Dome 2" />
		<tag k="place" v="locality" />
		<tag k="ssr:stedsnr" v="526356" />
	</node>
	<node lat="56.38833333423111" lon="2.4783333334095423" id="-197">
		<tag k="name" v="Fulmar-Clyde-terrassen" />
		<tag k="place" v="locality" />
		<tag k="ssr:stedsnr" v="526515" />
	</node>
	<node lat="56.250000002244974" lon="3.4202777845468906" id="-198">
		<tag k="name" v="Lindesnesryggen" />
		<tag k="place" v="locality" />
		<tag k="ssr:stedsnr" v="526517" />
	</node>
	<node lat="58.33305555786595" lon="0.19805556602700392" id="-199">
		<tag k="name" v="Whitch Ground-grabenen" />
		<tag k="place" v="locality" />
		<tag k="ssr:stedsnr" v="526559" />
	</node>
	<node lat="56.41388888640908" lon="3.8422222154504313" id="-200">
		<tag k="name" v="Piggvarterrassen" />
		<tag k="place" v="locality" />
		<tag k="ssr:stedsnr" v="526562" />
	</node>
	<node lat="57.37666667021519" lon="1.6324999917288294" id="-201">
		<tag k="name" v="Marnockterrassen" />
		<tag k="place" v="locality" />
		<tag k="ssr:stedsnr" v="526587" />
	</node>
	<node lat="67.5794444403327" lon="7.13249999675274" id="-202">
		<tag k="name" v="Naglfardomen" />
		<tag k="place" v="locality" />
		<tag k="ssr:stedsnr" v="526592" />
	</node>
	<node lat="71.74444444561155" lon="24.65888879045815" id="-203">
		<tag k="name" v="Nysleppforkastningskomplekset" />
		<tag k="place" v="locality" />
		<tag k="ssr:stedsnr" v="526593" />
	</node>
	<node lat="65.72194444144692" lon="9.529166667884558" id="-205">
		<tag k="name" v="Vegahøgda" />
		<tag k="place" v="locality" />
		<tag k="ssr:stedsnr" v="526670" />
	</node>
	<node lat="59.5649999988408" lon="2.409999998354345" id="-207">
		<tag k="name" v="Heimdalterrassen" />
		<tag k="place" v="locality" />
		<tag k="ssr:stedsnr" v="526729" />
	</node>
	<node lat="60.712777776954205" lon="1.5169444518290323" id="-208">
		<tag k="name" v="Ninian-Hutton-forkastningen" />
		<tag k="place" v="locality" />
		<tag k="ssr:stedsnr" v="526739" />
	</node>
	<node lat="74.79814082673063" lon="-19.469313034280617" id="-209">
		<tag k="name" v="Hochstetterbugten" />
		<tag k="name:da" v="Hochstetterbugten" />
		<tag k="natural" v="bay" />
		<tag k="ssr:stedsnr" v="526903" />
	</node>
	<node lat="53.96728613459867" lon="-4.62955268051717" id="-212">
		<tag k="name" v="Irish Sea" />
		<tag k="name:en" v="Irish Sea" />
		<tag k="natural" v="bay" />
		<tag k="ssr:stedsnr" v="526975" />
	</node>
	<node lat="69.31681672922082" lon="29.37882623809" id="-215">
		<tag k="name" v="Nivasaari" />
		<tag k="name:ru" v="Nivasaari" />
		<tag k="place" v="islet" />
		<tag k="ssr:stedsnr" v="527112" />
	</node>
	<node lat="69.16061117586004" lon="29.272023463885958" id="-216">
		<tag k="name" v="Jakolan Lammassaari" />
		<tag k="name:ru" v="Jakolan Lammassaari" />
		<tag k="place" v="islet" />
		<tag k="ssr:stedsnr" v="527113" />
	</node>
	<node lat="65.14999999680091" lon="9.383333327325298" id="-217">
		<tag k="name" v="Iverryggen" />
		<tag k="natural" v="reef" />
		<tag k="ssr:stedsnr" v="465862" />
	</node>
	<node lat="69.30253340119302" lon="29.562592776922738" id="-218">
		<tag k="name" v="Laukkujoki" />
		<tag k="name:ru" v="Laukkujoki" />
		<tag k="ssr:stedsnr" v="466106" />
		<tag k="waterway" v="stream" />
	</node>
	<node lat="58.30833333661567" lon="11.766666668535562" id="-221">
		<tag k="bay" v="fjord" />
		<tag k="name" v="Havstens fjord" />
		<tag k="name:sv" v="Havstens fjord" />
		<tag k="natural" v="bay" />
		<tag k="ssr:stedsnr" v="485703" />
	</node>
	<node lat="57.05833333075596" lon="10.374999996132685" id="-222">
		<tag k="name" v="Hou" />
		<tag k="name:da" v="Hou" />
		<tag k="place" v="village" />
		<tag k="ssr:stedsnr" v="485810" />
	</node>
	<node lat="57.70833333701436" lon="11.900000003770272" id="-223">
		<tag k="name" v="Göteborg" />
		<tag k="name:sv" v="Göteborg" />
		<tag k="place" v="town" />
		<tag k="ssr:stedsnr" v="485712" />
	</node>
	<node lat="58.756141666149844" lon="9.703950005971976" id="-224">
		<tag k="name" v="Skagerrak" />
		<tag k="old_name" v="Skagerak" />
		<tag k="place" v="sea" />
		<tag k="ssr:stedsnr" v="788024" />
	</node>
	<node lat="68.7833333302229" lon="13.544444451485395" id="-225">
		<tag k="name" v="Steinan" />
		<tag k="natural" v="shoal" />
		<tag k="place" v="locality" />
		<tag k="ssr:stedsnr" v="788181" />
	</node>
	<node lat="69.65000011108832" lon="31.399997014558384" id="-226">
		<tag k="name" v="Devkinneset" />
		<tag k="natural" v="cape" />
		<tag k="ssr:stedsnr" v="788559" />
	</node>
	<node lat="58.07222222071362" lon="11.827777779170585" id="-229">
		<tag k="name" v="Stenungsund" />
		<tag k="name:sv" v="Stenungsund" />
		<tag k="place" v="village" />
		<tag k="ssr:stedsnr" v="788743" />
	</node>
	<node lat="58.10833333552706" lon="11.366666673234253" id="-230">
		<tag k="name" v="Käringön" />
		<tag k="name:sv" v="Käringön" />
		<tag k="place" v="island" />
		<tag k="ssr:stedsnr" v="788746" />
	</node>
	<node lat="57.6416666654183" lon="10.866666666409396" id="-231">
		<tag k="name" v="Herthas flak" />
		<tag k="name:da" v="Herthas flak" />
		<tag k="natural" v="shoal" />
		<tag k="place" v="locality" />
		<tag k="ssr:stedsnr" v="788752" />
	</node>
	<node lat="58.47499999906895" lon="11.133333337743107" id="-232">
		<tag k="bay" v="fjord" />
		<tag k="name" v="Sotefjorden" />
		<tag k="name:sv" v="Sotefjorden" />
		<tag k="natural" v="bay" />
		<tag k="ssr:stedsnr" v="788754" />
	</node>
	<node lat="58.44027777565943" lon="11.304166673601118" id="-233">
		<tag k="name" v="Hunnebostrand" />
		<tag k="name:sv" v="Hunnebostrand" />
		<tag k="place" v="village" />
		<tag k="ssr:stedsnr" v="788756" />
	</node>
	<node lat="58.425000001514405" lon="11.186111108622173" id="-234">
		<tag k="fixme" v="consider seamark:type=rock or natural=shoal" />
		<tag k="name" v="Soteskär" />
		<tag k="name:sv" v="Soteskär" />
		<tag k="place" v="islet" />
		<tag k="ssr:stedsnr" v="788757" />
	</node>
	<node lat="58.16666666331823" lon="11.6666666628445" id="-235">
		<tag k="name" v="Orust" />
		<tag k="name:sv" v="Orust" />
		<tag k="place" v="island" />
		<tag k="ssr:stedsnr" v="788761" />
	</node>
	<node lat="58.9403250443309" lon="11.173715579656879" id="-236">
		<tag k="name" v="Strömstad" />
		<tag k="name:sv" v="Strömstad" />
		<tag k="place" v="town" />
		<tag k="ssr:stedsnr" v="788764" />
	</node>
	<node lat="57.14999999737793" lon="9.333333333658782" id="-238">
		<tag k="name" v="Slette Strand" />
		<tag k="name:da" v="Slette Strand" />
		<tag k="natural" v="beach" />
		<tag k="ssr:stedsnr" v="788780" />
	</node>
	<node lat="56.89999999912675" lon="10.258333338972092" id="-239">
		<tag k="name" v="Dokkedal" />
		<tag k="name:da" v="Dokkedal" />
		<tag k="place" v="hamlet" />
		<tag k="ssr:stedsnr" v="788822" />
	</node>
	<node lat="56.27916666521197" lon="3.391666667391139" id="-241">
		<tag k="man_made" v="offshore_platform" />
		<tag k="name" v="Valhall" />
		<tag k="seamark:type" v="platform" />
		<tag k="ssr:stedsnr" v="788840" />
	</node>
	<node lat="68.9416666652552" lon="13.749999992525195" id="-245">
		<tag k="name" v="Staurgrunnen" />
		<tag k="natural" v="shoal" />
		<tag k="place" v="locality" />
		<tag k="ssr:stedsnr" v="545171" />
	</node>
	<node lat="59.997777779958746" lon="2.0522222298276596" id="-246">
		<tag k="name" v="Friggryggen" />
		<tag k="place" v="locality" />
		<tag k="ssr:stedsnr" v="647731" />
	</node>
	<node lat="80.02883055629819" lon="14.502333314118873" id="-247">
		<tag k="name" v="Moffen" />
		<tag k="place" v="island" />
		<tag k="ssr:stedsnr" v="660003" />
	</node>
	<node lat="69.41679174256396" lon="30.066386947067937" id="-248">
		<tag k="name" v="Ranta" />
		<tag k="name:ru" v="Ranta" />
		<tag k="place" v="locality" />
		<tag k="ssr:stedsnr" v="661187" />
	</node>
	<node lat="72.277222051213" lon="35.446107123249426" id="-254">
		<tag k="name" v="Dome 12" />
		<tag k="place" v="locality" />
		<tag k="ssr:stedsnr" v="587297" />
	</node>
	<node lat="56.1175000026177" lon="2.7549999997092245" id="-255">
		<tag k="name" v="Argyllhorsten" />
		<tag k="place" v="locality" />
		<tag k="ssr:stedsnr" v="587550" />
	</node>
	<node lat="67.6591666653646" lon="7.426388899862478" id="-256">
		<tag k="name" v="Helgrabenen" />
		<tag k="place" v="locality" />
		<tag k="ssr:stedsnr" v="587705" />
	</node>
	<node lat="58.18749999992557" lon="2.473611117195885" id="-257">
		<tag k="name" v="Draupner S" />
		<tag k="place" v="locality" />
		<tag k="ssr:stedsnr" v="664096" />
	</node>
	<node lat="68.76666666668197" lon="13.561111123221039" id="-259">
		<tag k="name" v="Nordskallen" />
		<tag k="natural" v="shoal" />
		<tag k="place" v="locality" />
		<tag k="ssr:stedsnr" v="666187" />
	</node>
	<node lat="69.67500010861177" lon="31.483330277866774" id="-260">
		<tag k="name" v="Kap Romanov" />
		<tag k="name:ru" v="Kap Romanov" />
		<tag k="natural" v="cape" />
		<tag k="ssr:stedsnr" v="667569" />
	</node>
	<node lat="69.67500011963385" lon="31.733329992713003" id="-261">
		<tag k="bay" v="fjord" />
		<tag k="name" v="Guba Malaya Volokovaya" />
		<tag k="name:ru" v="Guba Malaya Volokovaya" />
		<tag k="natural" v="bay" />
		<tag k="ssr:stedsnr" v="667579" />
	</node>
	<node lat="56.16666666717556" lon="4.666666665812498" id="-263">
		<tag k="name" v="Nordsøen" />
		<tag k="name:da" v="Nordsøen" />
		<tag k="place" v="sea" />
		<tag k="ssr:stedsnr" v="667713" />
	</node>
	<node lat="57.093055559228404" lon="8.862222216137903" id="-264">
		<tag k="name" v="Hjardemål" />
		<tag k="name:da" v="Hjardemål" />
		<tag k="natural" v="wood" />
		<tag k="ssr:stedsnr" v="667701" />
	</node>
	<node lat="58.69166667114415" lon="1.279166675119303" id="-265">
		<tag k="man_made" v="offshore_platform" />
		<tag k="name" v="Brae-A" />
		<tag k="name:en" v="Brae-A" />
		<tag k="seamark:type" v="platform" />
		<tag k="ssr:stedsnr" v="667803" />
	</node>
	<node lat="58.72222221969836" lon="1.4000000054188704" id="-266">
		<tag k="man_made" v="offshore_platform" />
		<tag k="name" v="Miller" />
		<tag k="name:en" v="Miller" />
		<tag k="seamark:type" v="platform" />
		<tag k="ssr:stedsnr" v="667805" />
	</node>
	<node lat="57.64166666484983" lon="11.774999994298186" id="-267">
		<tag k="name" v="Brännö" />
		<tag k="name:sv" v="Brännö" />
		<tag k="place" v="island" />
		<tag k="ssr:stedsnr" v="667719" />
	</node>
	<node lat="58.2166666678115" lon="11.42499999228121" id="-268">
		<tag k="fixme" v="consider place=suburb, village or hamlet" />
		<tag k="name" v="Grundsund" />
		<tag k="name:sv" v="Grundsund" />
		<tag k="place" v="quarter" />
		<tag k="ssr:stedsnr" v="667728" />
	</node>
	<node lat="58.75555555407128" lon="11.18333333115306" id="-269">
		<tag k="name" v="Havstenssund" />
		<tag k="name:sv" v="Havstenssund" />
		<tag k="natural" v="strait" />
		<tag k="ssr:stedsnr" v="667747" />
	</node>
	<node lat="57.411111107006626" lon="9.749999995603941" id="-270">
		<tag k="name" v="Nørre Lyngby" />
		<tag k="name:da" v="Nørre Lyngby" />
		<tag k="place" v="village" />
		<tag k="ssr:stedsnr" v="667777" />
	</node>
	<node lat="57.14999999697508" lon="10.399999998306201" id="-271">
		<tag k="name" v="Asaa" />
		<tag k="name:da" v="Asaa" />
		<tag k="place" v="village" />
		<tag k="ssr:stedsnr" v="667786" />
	</node>
	<node lat="56.774999995567256" lon="8.316666670789775" id="-272">
		<tag k="name" v="Vestervig" />
		<tag k="name:da" v="Vestervig" />
		<tag k="place" v="village" />
		<tag k="ssr:stedsnr" v="667833" />
	</node>
	<node lat="58.4416666699589" lon="1.883333339370807" id="-273">
		<tag k="man_made" v="offshore_platform" />
		<tag k="name" v="Maersk Inspirer" />
		<tag k="seamark:type" v="platform" />
		<tag k="ssr:stedsnr" v="667847" />
	</node>
	<node lat="69.54166678131297" lon="31.174997151598106" id="-274">
		<tag k="name" v="Petsjenga" />
		<tag k="name:ru" v="Petsjenga" />
		<tag k="place" v="village" />
		<tag k="ssr:stedsnr" v="667938" />
	</node>
	<node lat="73.20750000489268" lon="23.767777728301947" id="-275">
		<tag k="name" v="Maudbassenget" />
		<tag k="place" v="locality" />
		<tag k="ssr:stedsnr" v="670249" />
	</node>
	<node lat="75.33610911952792" lon="39.89861852225899" id="-277">
		<tag k="name" v="Polarrevhøgda" />
		<tag k="place" v="locality" />
		<tag k="ssr:stedsnr" v="708362" />
	</node>
	<node lat="75.33611101427618" lon="32.04527805862053" id="-278">
		<tag k="name" v="Sentralbankhøgda" />
		<tag k="place" v="locality" />
		<tag k="ssr:stedsnr" v="708364" />
	</node>
	<node lat="57.816666664117996" lon="4.533333328865505" id="-280">
		<tag k="name" v="Ymefeltet" />
		<tag k="place" v="locality" />
		<tag k="ssr:stedsnr" v="785104" />
	</node>
	<node lat="69.64166677353067" lon="31.366663699882075" id="-281">
		<tag k="name" v="Devkinbukta" />
		<tag k="natural" v="bay" />
		<tag k="ssr:stedsnr" v="182567" />
	</node>
	<node lat="69.63333345017709" lon="31.399996990967345" id="-282">
		<tag k="name" v="Krestovoipynten" />
		<tag k="natural" v="cape" />
		<tag k="ssr:stedsnr" v="182570" />
	</node>
	<node lat="69.60277788830518" lon="31.337497032329107" id="-284">
		<tag k="name" v="Nosarneset" />
		<tag k="natural" v="cape" />
		<tag k="ssr:stedsnr" v="182619" />
	</node>
	<node lat="57.83333333714029" lon="11.904166668140116" id="-285">
		<tag k="name" v="Nordre älv" />
		<tag k="name:sv" v="Nordre älv" />
		<tag k="ssr:stedsnr" v="182737" />
		<tag k="waterway" v="river" />
	</node>
	<node lat="57.59583333745886" lon="10.41666666209353" id="-286">
		<tag k="name" v="Ålbæk" />
		<tag k="name:da" v="Ålbæk" />
		<tag k="place" v="village" />
		<tag k="ssr:stedsnr" v="182786" />
	</node>
	<node lat="57.11249999639059" lon="8.600000003851537" id="-287">
		<tag k="name" v="Hanstholm" />
		<tag k="name:da" v="Hanstholm" />
		<tag k="place" v="town" />
		<tag k="ssr:stedsnr" v="182832" />
	</node>
	<node lat="56.322222218376176" lon="3.35416666697524" id="-288">
		<tag k="man_made" v="offshore_platform" />
		<tag k="name" v="Valhall North" />
		<tag k="seamark:type" v="platform" />
		<tag k="ssr:stedsnr" v="182837" />
	</node>
	<node lat="68.73000000140209" lon="13.570833324854947" id="-290">
		<tag k="name" v="Sørskallen" />
		<tag k="natural" v="shoal" />
		<tag k="place" v="locality" />
		<tag k="ssr:stedsnr" v="788180" />
	</node>
	<node lat="57.10000000400546" lon="8.75000000666832" id="-292">
		<tag k="name" v="Vigsø" />
		<tag k="name:da" v="Vigsø" />
		<tag k="place" v="island" />
		<tag k="ssr:stedsnr" v="728719" />
	</node>
	<node lat="69.34480157730252" lon="39.21378814630714" id="-294">
		<tag k="name" v="Norton's grunn" />
		<tag k="natural" v="shoal" />
		<tag k="place" v="locality" />
		<tag k="ssr:stedsnr" v="830125" />
	</node>
	<node lat="57.08444444267093" lon="6.188888896114289" id="-295">
		<tag k="name" v="Krepsforkastningssonen" />
		<tag k="place" v="locality" />
		<tag k="ssr:stedsnr" v="830570" />
	</node>
	<node lat="69.66025840012557" lon="30.106506476703746" id="-298">
		<tag k="fixme" v="consider natural=peak for the most distinct mountains in the district" />
		<tag k="name" v="Karhunpää" />
		<tag k="name:ru" v="Karhunpää" />
		<tag k="natural" v="hill" />
		<tag k="place" v="locality" />
		<tag k="ssr:stedsnr" v="830151" />
	</node>
	<node lat="60.31202222408259" lon="-1.2559027652658172" id="-299">
		<tag k="name" v="Shetland Isles" />
		<tag k="name:en" v="Shetland Isles" />
		<tag k="place" v="island" />
		<tag k="ssr:stedsnr" v="830219" />
	</node>
	<node lat="62.0186361603629" lon="-6.7938744801922395" id="-300">
		<tag k="name" v="Thorshavn" />
		<tag k="name:da" v="Thorshavn" />
		<tag k="place" v="town" />
		<tag k="ssr:stedsnr" v="830173" />
	</node>
	<node lat="60.138436117377374" lon="-2.083608311405118" id="-301">
		<tag k="name" v="Foula Island" />
		<tag k="name:en" v="Foula Island" />
		<tag k="place" v="island" />
		<tag k="ssr:stedsnr" v="830213" />
	</node>
	<node lat="71.20972223311395" lon="29.07805475278106" id="-302">
		<tag k="name" v="Finnmarksplattformen" />
		<tag k="place" v="locality" />
		<tag k="ssr:stedsnr" v="830229" />
	</node>
	<node lat="72.39861111092026" lon="26.41861091281792" id="-303">
		<tag k="name" v="Norselhøgda" />
		<tag k="place" v="locality" />
		<tag k="ssr:stedsnr" v="830233" />
	</node>
	<node lat="73.36055484634171" lon="37.615275137069204" id="-304">
		<tag k="name" v="Sentrale Barentshvelvet" />
		<tag k="place" v="locality" />
		<tag k="ssr:stedsnr" v="830260" />
	</node>
	<node lat="77.83722182327888" lon="35.71028148879896" id="-305">
		<tag k="name" v="Hopenhøgda" />
		<tag k="place" v="locality" />
		<tag k="ssr:stedsnr" v="830358" />
	</node>
	<node lat="77.83721817741801" lon="42.57725270352597" id="-306">
		<tag k="name" v="Dome 1" />
		<tag k="place" v="locality" />
		<tag k="ssr:stedsnr" v="830359" />
	</node>
	<node lat="58.36861110957404" lon="1.991944452658268" id="-307">
		<tag k="name" v="Sleipnerterrassen" />
		<tag k="place" v="locality" />
		<tag k="ssr:stedsnr" v="830543" />
	</node>
	<node lat="56.43527778118214" lon="3.9769444488373082" id="-308">
		<tag k="name" v="Mandalhøgda" />
		<tag k="place" v="locality" />
		<tag k="ssr:stedsnr" v="830504" />
	</node>
	<node lat="65.44277777409815" lon="5.249444454496029" id="-309">
		<tag k="name" v="Helland-Hansen-hvelvet" />
		<tag k="place" v="locality" />
		<tag k="ssr:stedsnr" v="830580" />
	</node>
	<node lat="68.10916666812557" lon="11.344166677308303" id="-311">
		<tag k="name" v="Røsthøgda" />
		<tag k="place" v="locality" />
		<tag k="ssr:stedsnr" v="830689" />
	</node>
	<node lat="61.66583332871602" lon="3.4805555474836147" id="-313">
		<tag k="name" v="Sognegrabenen" />
		<tag k="place" v="locality" />
		<tag k="ssr:stedsnr" v="830783" />
	</node>
	<node lat="54.269225000151586" lon="6.991413883194626" id="-318">
		<tag k="name" v="Deutsche Bucht" />
		<tag k="name:de" v="Deutsche Bucht" />
		<tag k="natural" v="bay" />
		<tag k="ssr:stedsnr" v="830984" />
	</node>
	<node lat="73.49334721945428" lon="-9.17496096378227" id="-319">
		<tag k="name" v="Vesterisgrunnen" />
		<tag k="natural" v="shoal" />
		<tag k="place" v="locality" />
		<tag k="ssr:stedsnr" v="830941" />
	</node>
	<node lat="59.71050286761633" lon="25.515051952164622" id="-320">
		<tag k="name" v="Finskaviken" />
		<tag k="name:sv" v="Finskaviken" />
		<tag k="natural" v="bay" />
		<tag k="ssr:stedsnr" v="830960" />
	</node>
	<node lat="69.0149583930657" lon="29.05756522338785" id="-321">
		<tag k="name" v="Korkeasaari" />
		<tag k="name:ru" v="Korkeasaari" />
		<tag k="place" v="islet" />
		<tag k="ssr:stedsnr" v="831138" />
	</node>
	<node lat="62.624999999604796" lon="5.1766666599263935" id="-323">
		<tag k="name" v="Vathalden" />
		<tag k="natural" v="shoal" />
		<tag k="place" v="locality" />
		<tag k="ssr:stedsnr" v="831594" />
	</node>
	<node lat="63.71388889255134" lon="5.32722222583598" id="-325">
		<tag k="name" v="Ormen Lange-domen" />
		<tag k="place" v="locality" />
		<tag k="ssr:stedsnr" v="837556" />
	</node>
	<node lat="65.96999999944846" lon="7.533888890244741" id="-326">
		<tag k="name" v="Dønnterrassen" />
		<tag k="place" v="locality" />
		<tag k="ssr:stedsnr" v="838664" />
	</node>
	<node lat="68.53014177283086" lon="39.54249178025737" id="-328">
		<tag k="name" v="Cherny grunnen" />
		<tag k="natural" v="shoal" />
		<tag k="place" v="locality" />
		<tag k="ssr:stedsnr" v="769122" />
	</node>
	<node lat="69.64856673578478" lon="30.09543702518775" id="-330">
		<tag k="name" v="Eskiejärvi" />
		<tag k="name:ru" v="Eskiejärvi" />
		<tag k="natural" v="water" />
		<tag k="ssr:stedsnr" v="769155" />
	</node>
	<node lat="69.59064730054045" lon="30.200417483796667" id="-331">
		<tag k="name" v="Livarinmukka" />
		<tag k="name:ru" v="Livarinmukka" />
		<tag k="natural" v="bay" />
		<tag k="ssr:stedsnr" v="769156" />
	</node>
	<node lat="59.32166666833184" lon="1.57027777056842" id="-332">
		<tag k="name" v="Crawfordutstikkeren" />
		<tag k="place" v="locality" />
		<tag k="ssr:stedsnr" v="769554" />
	</node>
	<node lat="57.43333333559512" lon="11.237500006844273" id="-333">
		<tag k="name" v="Læsø trindel" />
		<tag k="name:da" v="Læsø trindel" />
		<tag k="natural" v="shoal" />
		<tag k="place" v="locality" />
		<tag k="ssr:stedsnr" v="788751" />
	</node>
	<node lat="58.01666666977501" lon="11.699999998833825" id="-334">
		<tag k="landuse" v="harbour" />
		<tag k="name" v="Wallhamn" />
		<tag k="name:sv" v="Wallhamn" />
		<tag k="seamark:type" v="harbour" />
		<tag k="ssr:stedsnr" v="788762" />
	</node>
	<node lat="58.845833336574124" lon="11.183333325596179" id="-336">
		<tag k="name" v="Råssö" />
		<tag k="name:sv" v="Råssö" />
		<tag k="place" v="island" />
		<tag k="ssr:stedsnr" v="849822" />
	</node>
	<node lat="69.53102239186596" lon="32.44054555692955" id="-338">
		<tag k="name" v="Motovskibukta" />
		<tag k="name:ru" v="Motovskibukta" />
		<tag k="natural" v="bay" />
		<tag k="ssr:stedsnr" v="177116" />
	</node>
	<node lat="67.08940000167169" lon="10.555438900033133" id="-340">
		<tag k="name" v="Norskehavet - Norwegian Sea" />
		<tag k="name:en" v="Norwegian Sea" />
		<tag k="name:no" v="Norskehavet" />
		<tag k="place" v="sea" />
		<tag k="ssr:stedsnr" v="134842" />
	</node>
	<node lat="59.91312874114806" lon="30.402056617461096" id="-341">
		<tag k="name" v="St.Petersburg" />
		<tag k="place" v="town" />
		<tag k="ssr:stedsnr" v="891609" />
	</node>
	<node lat="65.7884952485492" lon="-14.700450962032482" id="-343">
		<tag k="bay" v="fjord" />
		<tag k="name" v="Vopnafjørdur" />
		<tag k="name:is" v="Vopnafjørdur" />
		<tag k="natural" v="bay" />
		<tag k="ssr:stedsnr" v="891904" />
	</node>
	<node lat="62.81666666854669" lon="4.90833332979088" id="-344">
		<tag k="name" v="Svatangane" />
		<tag k="natural" v="shoal" />
		<tag k="place" v="locality" />
		<tag k="ssr:stedsnr" v="892606" />
	</node>
	<node lat="69.16011395410824" lon="29.257176260723558" id="-345">
		<tag k="name" v="Kisteholmen" />
		<tag k="place" v="islet" />
		<tag k="ssr:stedsnr" v="139048" />
	</node>
	<node lat="80.14213599904544" lon="33.36744337013964" id="-347">
		<tag k="name" v="Hornodden" />
		<tag k="natural" v="cape" />
		<tag k="ssr:stedsnr" v="179112" />
	</node>
	<node lat="56.69805555795" lon="1.5850000003328943" id="-349">
		<tag k="name" v="Curlew-Puffin-plattformen" />
		<tag k="place" v="locality" />
		<tag k="ssr:stedsnr" v="162522" />
	</node>
	<node lat="77.0516666684164" lon="22.199999996702733" id="-353">
		<tag k="name" v="Edgeøyplattformen" />
		<tag k="place" v="locality" />
		<tag k="ssr:stedsnr" v="951378" />
	</node>
	<node lat="57.935277775388876" lon="0.9119444459564572" id="-354">
		<tag k="name" v="Reneeryggen" />
		<tag k="place" v="locality" />
		<tag k="ssr:stedsnr" v="951583" />
	</node>
	<node lat="57.625555560305386" lon="2.399166670057289" id="-355">
		<tag k="name" v="Jærhøgda" />
		<tag k="place" v="locality" />
		<tag k="ssr:stedsnr" v="951584" />
	</node>
	<node lat="64.34656021521933" lon="36.586228265130195" id="-356">
		<tag k="name" v="Onezhskij Zaliv" />
		<tag k="name:ru" v="Onezhskij Zaliv" />
		<tag k="natural" v="bay" />
		<tag k="ssr:stedsnr" v="951888" />
	</node>
	<node lat="76.5629656998594" lon="-19.8258727940011" id="-357">
		<tag k="name" v="Dove bugt" />
		<tag k="name:da" v="Dove bugt" />
		<tag k="natural" v="bay" />
		<tag k="ssr:stedsnr" v="951889" />
	</node>
	<node lat="69.75833342004782" lon="31.049997437725608" id="-359">
		<tag k="bay" v="fjord" />
		<tag k="name" v="Guba Basarnaja" />
		<tag k="name:ru" v="Guba Basarnaja" />
		<tag k="natural" v="bay" />
		<tag k="ssr:stedsnr" v="970189" />
	</node>
	<node lat="74.43972222210466" lon="21.944999981288642" id="-362">
		<tag k="name" v="Hopenbankhvelvet" />
		<tag k="place" v="locality" />
		<tag k="ssr:stedsnr" v="40286" />
	</node>
	<node lat="77.72416645178909" lon="34.05750201503462" id="-363">
		<tag k="name" v="Kong Karl-plattformen" />
		<tag k="place" v="locality" />
		<tag k="ssr:stedsnr" v="40366" />
	</node>
	<node lat="61.30972222183869" lon="1.0163888883159877" id="-364">
		<tag k="name" v="Tern-Eider-horsten" />
		<tag k="place" v="locality" />
		<tag k="ssr:stedsnr" v="40769" />
	</node>
	<node lat="60.80888888773051" lon="2.6480555616837087" id="-365">
		<tag k="name" v="Mokkurkalveforkastningskomplekset" />
		<tag k="place" v="locality" />
		<tag k="ssr:stedsnr" v="40775" />
	</node>
	<node lat="63.58388888601655" lon="6.913888897110608" id="-366">
		<tag k="name" v="Frøyhøgda" />
		<tag k="place" v="locality" />
		<tag k="ssr:stedsnr" v="40759" />
	</node>
	<node lat="72.58916666843723" lon="20.071666656046943" id="-368">
		<tag k="name" v="Bjørnøyrenneforkastningskomplekset" />
		<tag k="place" v="locality" />
		<tag k="ssr:stedsnr" v="41274" />
	</node>
	<node lat="56.19500000382916" lon="3.3833333357964626" id="-369">
		<tag k="name" v="Skrubbeforkastningen" />
		<tag k="place" v="locality" />
		<tag k="ssr:stedsnr" v="41523" />
	</node>
	<node lat="57.923888885544066" lon="1.4716666722857539" id="-371">
		<tag k="name" v="Fiskebankbassenget" />
		<tag k="place" v="locality" />
		<tag k="ssr:stedsnr" v="41568" />
	</node>
	<node lat="60.56666666549724" lon="-0.442777763035014" id="-372">
		<tag k="name" v="Pobieforkastningen" />
		<tag k="place" v="locality" />
		<tag k="ssr:stedsnr" v="41722" />
	</node>
	<node lat="61.14472222006058" lon="3.8566666730132195" id="-373">
		<tag k="name" v="Uerterrassen" />
		<tag k="place" v="locality" />
		<tag k="ssr:stedsnr" v="41723" />
	</node>
	<node lat="60.78722222049615" lon="3.3749999987389203" id="-374">
		<tag k="name" v="Trollforkastningen" />
		<tag k="place" v="locality" />
		<tag k="ssr:stedsnr" v="41725" />
	</node>
	<node lat="58.41222222088594" lon="2.7258333405370854" id="-375">
		<tag k="name" v="Lingsenkningen" />
		<tag k="place" v="locality" />
		<tag k="ssr:stedsnr" v="41533" />
	</node>
	<node lat="58.89305555615686" lon="1.5994444462464157" id="-376">
		<tag k="name" v="Viljeunderbassenget" />
		<tag k="place" v="locality" />
		<tag k="ssr:stedsnr" v="41553" />
	</node>
	<node lat="57.276666668762545" lon="5.143611109768385" id="-377">
		<tag k="name" v="Krabbeforkastningssonen" />
		<tag k="place" v="locality" />
		<tag k="ssr:stedsnr" v="41565" />
	</node>
	<node lat="69.14390839608974" lon="29.25110681456556" id="-379">
		<tag k="name" v="Niilansaari" />
		<tag k="name:ru" v="Niilansaari" />
		<tag k="place" v="islet" />
		<tag k="ssr:stedsnr" v="42136" />
	</node>
	<node lat="69.04062228830834" lon="29.110415198234065" id="-380">
		<tag k="landuse" v="military" />
		<tag k="name" v="Barakker" />
		<tag k="name:ru" v="Barakker" />
		<tag k="ssr:stedsnr" v="42143" />
	</node>
	<node lat="62.81666666854669" lon="4.90833332979088" id="-381">
		<tag k="name" v="Slørebotnen" />
		<tag k="natural" v="shoal" />
		<tag k="place" v="locality" />
		<tag k="ssr:stedsnr" v="42596" />
	</node>
	<node lat="70.15000008985267" lon="31.61666384875206" id="-383">
		<tag k="name" v="Nordfargrunnen" />
		<tag k="natural" v="shoal" />
		<tag k="place" v="locality" />
		<tag k="ssr:stedsnr" v="56174" />
	</node>
	<node lat="69.62164453673806" lon="30.965239086285138" id="-385">
		<tag k="name" v="Vuoremijoenselkä" />
		<tag k="name:ru" v="Vuoremijoenselkä" />
		<tag k="natural" v="ridge" />
		<tag k="place" v="locality" />
		<tag k="ssr:stedsnr" v="59126" />
	</node>
	<node lat="69.90388899793864" lon="31.891663355260718" id="-386">
		<tag k="name" v="Kap Kiysky" />
		<tag k="name:ru" v="Kap Kiysky" />
		<tag k="natural" v="cape" />
		<tag k="ssr:stedsnr" v="60595" />
	</node>
	<node lat="57.7833333325472" lon="11.608333331421429" id="-387">
		<tag k="name" v="Rörö" />
		<tag k="name:sv" v="Rörö" />
		<tag k="place" v="island" />
		<tag k="ssr:stedsnr" v="60764" />
	</node>
	<node lat="57.20833333123225" lon="11.016666673481966" id="-389">
		<tag k="name" v="Hornfiskrøn" />
		<tag k="name:da" v="Hornfiskrøn" />
		<tag k="place" v="island" />
		<tag k="ssr:stedsnr" v="60777" />
	</node>
	<node lat="62.03166666488159" lon="3.9886111086190916" id="-391">
		<tag k="name" v="Seljehorsten" />
		<tag k="place" v="locality" />
		<tag k="ssr:stedsnr" v="101729" />
	</node>
	<node lat="60.40611111195981" lon="3.0925000004806846" id="-395">
		<tag k="name" v="Idunnforkastningskomplekset" />
		<tag k="place" v="locality" />
		<tag k="ssr:stedsnr" v="102760" />
	</node>
	<node lat="64.843055552727" lon="5.8583333405816855" id="-396">
		<tag k="name" v="Råsbassenget" />
		<tag k="place" v="locality" />
		<tag k="ssr:stedsnr" v="110661" />
	</node>
	<node lat="70.43652001550824" lon="-22.65261185349848" id="-400">
		<tag k="fixme" v="multiple name tags, choose one and add the other to alt_name" />
		<tag k="name" v="Scoresbysund;Ittoqqortoormiit" />
		<tag k="place" v="village" />
		<tag k="ssr:stedsnr" v="117036" />
	</node>
	<node lat="57.111111113839726" lon="2.8458333290692366" id="-402">
		<tag k="man_made" v="offshore_platform" />
		<tag k="name" v="Ula QP" />
		<tag k="seamark:type" v="platform" />
		<tag k="ssr:stedsnr" v="118106" />
	</node>
	<node lat="56.949999999875764" lon="8.375000006007758" id="-403">
		<tag k="name" v="Vorupør" />
		<tag k="name:da" v="Vorupør" />
		<tag k="place" v="village" />
		<tag k="ssr:stedsnr" v="121748" />
	</node>
	<node lat="56.804166668208886" lon="10.266666659307441" id="-404">
		<tag k="name" v="Øster Hurup" />
		<tag k="name:da" v="Øster Hurup" />
		<tag k="place" v="village" />
		<tag k="ssr:stedsnr" v="121828" />
	</node>
	<node lat="56.96666667053051" lon="9.083333341368938" id="-405">
		<tag k="bay" v="fjord" />
		<tag k="name" v="Limfjorden" />
		<tag k="name:da" v="Limfjorden" />
		<tag k="natural" v="bay" />
		<tag k="ssr:stedsnr" v="121846" />
	</node>
	<node lat="69.92083342454845" lon="31.316663966650548" id="-406">
		<tag k="name" v="Henøygrunnen" />
		<tag k="natural" v="shoal" />
		<tag k="place" v="locality" />
		<tag k="ssr:stedsnr" v="181649" />
	</node>
	<node lat="70.39694444351488" lon="18.421388894157605" id="-408">
		<tag k="name" v="Troms-Finnmark-forkastningskomplekset" />
		<tag k="place" v="locality" />
		<tag k="ssr:stedsnr" v="222281" />
	</node>
	<node lat="73.5288888914228" lon="25.441111051282284" id="-409">
		<tag k="name" v="Mercuriushøgda" />
		<tag k="place" v="locality" />
		<tag k="ssr:stedsnr" v="222254" />
	</node>
	<node lat="69.34406422271665" lon="34.076572529709395" id="-410">
		<tag k="name" v="Kildin" />
		<tag k="name:ru" v="Kildin" />
		<tag k="place" v="island" />
		<tag k="ssr:stedsnr" v="223095" />
	</node>
	<node lat="69.64266118430028" lon="30.152200878067642" id="-413">
		<tag k="fixme" v="consider natural=peak for the most distinct mountains in the district" />
		<tag k="name" v="Koskitunturi" />
		<tag k="name:ru" v="Koskitunturi" />
		<tag k="natural" v="hill" />
		<tag k="place" v="locality" />
		<tag k="ssr:stedsnr" v="223172" />
	</node>
	<node lat="72.69499999602719" lon="24.73611103847523" id="-415">
		<tag k="name" v="Swaengrabenen" />
		<tag k="place" v="locality" />
		<tag k="ssr:stedsnr" v="223281" />
	</node>
	<node lat="67.70277777756071" lon="3.593333325287201" id="-416">
		<tag k="name" v="Vøringrandhøgda" />
		<tag k="place" v="locality" />
		<tag k="ssr:stedsnr" v="223301" />
	</node>
	<node lat="78.15222177550027" lon="36.115004409164925" id="-417">
		<tag k="name" v="Nordøstantiklinalen" />
		<tag k="place" v="locality" />
		<tag k="ssr:stedsnr" v="223396" />
	</node>
	<node lat="56.11944444567482" lon="7.7911111076429895" id="-418">
		<tag k="name" v="Ringkøbing-Fyn-høgda" />
		<tag k="place" v="locality" />
		<tag k="ssr:stedsnr" v="223541" />
	</node>
	<node lat="57.10500000390487" lon="3.465277780434693" id="-419">
		<tag k="name" v="Sørvestlandshøgda" />
		<tag k="place" v="locality" />
		<tag k="ssr:stedsnr" v="223593" />
	</node>
	<node lat="74.25416666333226" lon="18.137777764800443" id="-420">
		<tag k="name" v="Stappehøgda" />
		<tag k="place" v="locality" />
		<tag k="ssr:stedsnr" v="223619" />
	</node>
	<node lat="58.41227592295927" lon="-18.461810807832336" id="-421">
		<tag k="name" v="Hatton Bank" />
		<tag k="name:en" v="Hatton Bank" />
		<tag k="natural" v="shoal" />
		<tag k="ssr:stedsnr" v="223622" />
	</node>
	<node lat="61.45638889071916" lon="3.034444449614417" id="-422">
		<tag k="name" v="Modeunderbassenget" />
		<tag k="place" v="locality" />
		<tag k="ssr:stedsnr" v="223781" />
	</node>
	<node lat="60.73749999894567" lon="4.045833342373024" id="-424">
		<tag k="name" v="Vetteforkastningen" />
		<tag k="place" v="locality" />
		<tag k="ssr:stedsnr" v="223754" />
	</node>
	<node lat="60.63805555131985" lon="3.3972222258342093" id="-425">
		<tag k="name" v="Svartalvforkastningen" />
		<tag k="place" v="locality" />
		<tag k="ssr:stedsnr" v="223758" />
	</node>
	<node lat="61.59833333645524" lon="2.146944437794874" id="-426">
		<tag k="name" v="Marebakkforkastningssonen" />
		<tag k="place" v="locality" />
		<tag k="ssr:stedsnr" v="223787" />
	</node>
	<node lat="64.81194444826946" lon="6.788333340615778" id="-427">
		<tag k="name" v="Haltenterrassen" />
		<tag k="place" v="locality" />
		<tag k="ssr:stedsnr" v="223774" />
	</node>
	<node lat="69.01264450567281" lon="29.052665204955233" id="-432">
		<tag k="name" v="Aittasaari" />
		<tag k="name:ru" v="Aittasaari" />
		<tag k="place" v="islet" />
		<tag k="ssr:stedsnr" v="224153" />
	</node>
	<node lat="61.255000002664545" lon="1.8516666735394889" id="-434">
		<tag k="man_made" v="offshore_platform" />
		<tag k="name" v="Statfjord A" />
		<tag k="seamark:type" v="platform" />
		<tag k="ssr:stedsnr" v="233455" />
	</node>
	<node lat="69.68333345050075" lon="31.508330253356675" id="-443">
		<tag k="name" v="Kap Krikun" />
		<tag k="name:ru" v="Kap Krikun" />
		<tag k="natural" v="cape" />
		<tag k="ssr:stedsnr" v="242577" />
	</node>
	<node lat="69.62361122214814" lon="31.362497024199705" id="-444">
		<tag k="name" v="Kap Tolstik" />
		<tag k="name:ru" v="Kap Tolstik" />
		<tag k="natural" v="cape" />
		<tag k="ssr:stedsnr" v="242580" />
	</node>
	<node lat="69.66666677988084" lon="31.441663637670782" id="-445">
		<tag k="bay" v="fjord" />
		<tag k="name" v="Petsamofjorden" />
		<tag k="natural" v="bay" />
		<tag k="ssr:stedsnr" v="242600" />
	</node>
	<node lat="57.71666666883764" lon="11.641666673200755" id="-446">
		<tag k="name" v="Öckerö" />
		<tag k="name:sv" v="Öckerö" />
		<tag k="place" v="island" />
		<tag k="ssr:stedsnr" v="242730" />
	</node>
	<node lat="57.691666665106446" lon="11.647222228890373" id="-447">
		<tag k="name" v="Hönö" />
		<tag k="name:sv" v="Hönö" />
		<tag k="place" v="island" />
		<tag k="ssr:stedsnr" v="242731" />
	</node>
	<node lat="58.40000000081059" lon="11.400000005280507" id="-449">
		<tag k="bay" v="fjord" />
		<tag k="name" v="Åbyfjorden" />
		<tag k="name:sv" v="Åbyfjorden" />
		<tag k="natural" v="bay" />
		<tag k="ssr:stedsnr" v="242742" />
	</node>
	<node lat="57.97500000072563" lon="11.738888881777195" id="-450">
		<tag k="bay" v="fjord" />
		<tag k="name" v="Hakefjord" />
		<tag k="name:sv" v="Hakefjord" />
		<tag k="natural" v="bay" />
		<tag k="ssr:stedsnr" v="242719" />
	</node>
	<node lat="57.87500000101301" lon="11.97500000098486" id="-451">
		<tag k="name" v="Kungälv" />
		<tag k="name:sv" v="Kungälv" />
		<tag k="place" v="town" />
		<tag k="ssr:stedsnr" v="242725" />
	</node>
	<node lat="57.191666669372005" lon="10.858333326373064" id="-453">
		<tag k="name" v="Søndre Rønner flak" />
		<tag k="name:da" v="Søndre Rønner flak" />
		<tag k="natural" v="shoal" />
		<tag k="place" v="locality" />
		<tag k="ssr:stedsnr" v="242753" />
	</node>
	<node lat="57.13750000320124" lon="9.129166673593822" id="-455">
		<tag k="name" v="Torup Strand" />
		<tag k="name:da" v="Torup Strand" />
		<tag k="natural" v="beach" />
		<tag k="ssr:stedsnr" v="242773" />
	</node>
	<node lat="56.7833333305361" lon="8.241666659034673" id="-456">
		<tag k="name" v="Agger" />
		<tag k="name:da" v="Agger" />
		<tag k="place" v="village" />
		<tag k="ssr:stedsnr" v="242840" />
	</node>
	<node lat="56.5458333332935" lon="3.215277780344597" id="-457">
		<tag k="man_made" v="offshore_platform" />
		<tag k="name" v="Ekofisk H" />
		<tag k="seamark:type" v="platform" />
		<tag k="ssr:stedsnr" v="242807" />
	</node>
	<node lat="56.96250000419728" lon="10.266666665666557" id="-458">
		<tag k="name" v="Egense" />
		<tag k="name:da" v="Egense" />
		<tag k="place" v="village" />
		<tag k="ssr:stedsnr" v="242810" />
	</node>
	<node lat="73.2372222208686" lon="23.165833300817575" id="-462">
		<tag k="name" v="Svalisdomen" />
		<tag k="place" v="locality" />
		<tag k="ssr:stedsnr" v="284293" />
	</node>
	<node lat="56.53222221903884" lon="4.441111107088587" id="-463">
		<tag k="name" v="Coffee Soil-forkastningskomplekset" />
		<tag k="place" v="locality" />
		<tag k="ssr:stedsnr" v="284522" />
	</node>
	<node lat="57.583333333948474" lon="10.18333334069863" id="-470">
		<tag k="name" v="Tversted" />
		<tag k="name:da" v="Tversted" />
		<tag k="place" v="village" />
		<tag k="ssr:stedsnr" v="303771" />
	</node>
	<node lat="57.21111110881352" lon="10.487500000673064" id="-471">
		<tag k="name" v="Voerså" />
		<tag k="name:da" v="Voerså" />
		<tag k="place" v="village" />
		<tag k="ssr:stedsnr" v="303810" />
	</node>
	<node lat="57.33333333052152" lon="10.516666671048378" id="-472">
		<tag k="name" v="Sæby" />
		<tag k="name:da" v="Sæby" />
		<tag k="place" v="village" />
		<tag k="ssr:stedsnr" v="303813" />
	</node>
	<node lat="56.22777777783738" lon="3.4333333292478723" id="-473">
		<tag k="man_made" v="offshore_platform" />
		<tag k="name" v="Valhall South" />
		<tag k="seamark:type" v="platform" />
		<tag k="ssr:stedsnr" v="303815" />
	</node>
	<node lat="58.79166666831753" lon="1.2791666660211385" id="-474">
		<tag k="man_made" v="offshore_platform" />
		<tag k="name" v="Brae-B" />
		<tag k="name:en" v="Brae-B" />
		<tag k="seamark:type" v="platform" />
		<tag k="ssr:stedsnr" v="303825" />
	</node>
	<node lat="58.35833332985957" lon="11.420833340441376" id="-475">
		<tag k="bay" v="fjord" />
		<tag k="name" v="Brofjorden" />
		<tag k="name:sv" v="Brofjorden" />
		<tag k="natural" v="bay" />
		<tag k="ssr:stedsnr" v="303756" />
	</node>
	<node lat="58.362500000029726" lon="11.258333334232974" id="-476">
		<tag k="name" v="Kungshamn" />
		<tag k="name:sv" v="Kungshamn" />
		<tag k="place" v="village" />
		<tag k="ssr:stedsnr" v="303762" />
	</node>
	<node lat="69.82222233057104" lon="31.574996951763577" id="-483">
		<tag k="name" v="Lille Henøy" />
		<tag k="place" v="island" />
		<tag k="ssr:stedsnr" v="363541" />
	</node>
	<node lat="58.60000000243721" lon="11.291666664525426" id="-484">
		<tag k="name" v="Fjällbacka" />
		<tag k="name:sv" v="Fjällbacka" />
		<tag k="place" v="village" />
		<tag k="ssr:stedsnr" v="363751" />
	</node>
	<node lat="58.12500000192067" lon="11.45416666738092" id="-485">
		<tag k="name" v="Hälleviksstrand" />
		<tag k="name:sv" v="Hälleviksstrand" />
		<tag k="place" v="village" />
		<tag k="ssr:stedsnr" v="363714" />
	</node>
	<node lat="56.41666667116759" lon="3.216666670487468" id="-486">
		<tag k="man_made" v="offshore_platform" />
		<tag k="name" v="Eldfisk B" />
		<tag k="seamark:type" v="platform" />
		<tag k="ssr:stedsnr" v="363792" />
	</node>
	<node lat="58.36944444483394" lon="1.9041666699027107" id="-487">
		<tag k="man_made" v="offshore_platform" />
		<tag k="name" v="Sleipner A" />
		<tag k="seamark:type" v="platform" />
		<tag k="ssr:stedsnr" v="363794" />
	</node>
	<node lat="57.52499999741989" lon="9.949999992015185" id="-488">
		<tag k="name" v="Tornby" />
		<tag k="name:da" v="Tornby" />
		<tag k="place" v="village" />
		<tag k="ssr:stedsnr" v="363745" />
	</node>
	<node lat="57.72500000117283" lon="10.574999998134757" id="-489">
		<tag k="name" v="Skagen" />
		<tag k="name:da" v="Skagen" />
		<tag k="place" v="town" />
		<tag k="ssr:stedsnr" v="363818" />
	</node>
	<node lat="57.06666666393315" lon="9.9250000072561" id="-491">
		<tag k="name" v="Nørresundby" />
		<tag k="name:da" v="Nørresundby" />
		<tag k="place" v="suburb" />
		<tag k="ssr:stedsnr" v="364855" />
	</node>
	<node lat="73.6399999979437" lon="21.682222219696758" id="-493">
		<tag k="name" v="Fingerdjupsunderbassenget" />
		<tag k="place" v="locality" />
		<tag k="ssr:stedsnr" v="404263" />
	</node>
	<node lat="72.1336079006159" lon="43.318579376382125" id="-494">
		<tag k="name" v="Sørlige Barentsbassenget" />
		<tag k="place" v="locality" />
		<tag k="ssr:stedsnr" v="404268" />
	</node>
	<node lat="61.319722217736775" lon="3.3002777763381923" id="-495">
		<tag k="name" v="Marfloutstikkeren" />
		<tag k="place" v="locality" />
		<tag k="ssr:stedsnr" v="404729" />
	</node>
	<node lat="61.74305555654448" lon="2.361666671183331" id="-496">
		<tag k="name" v="Mortehorsten" />
		<tag k="place" v="locality" />
		<tag k="ssr:stedsnr" v="404731" />
	</node>
	<node lat="59.943611109033384" lon="0.07777778449538574" id="-497">
		<tag k="name" v="Øst-Shetland-plattformen" />
		<tag k="place" v="locality" />
		<tag k="ssr:stedsnr" v="404733" />
	</node>
	<node lat="66.23620000293063" lon="10.60118333346559" id="-501">
		<tag k="name" v="Hesteskoen" />
		<tag k="natural" v="reef" />
		<tag k="ssr:stedsnr" v="405218" />
	</node>
	<node lat="69.61161674806407" lon="30.330039614978922" id="-502">
		<tag k="name" v="Joosepinjärvet" />
		<tag k="name:ru" v="Joosepinjärvet" />
		<tag k="natural" v="water" />
		<tag k="ssr:stedsnr" v="405140" />
		<tag k="water" v="lake" />
	</node>
	<node lat="69.53789175605736" lon="30.668778175220986" id="-503">
		<tag k="name" v="Lasertunturi" />
		<tag k="name:ru" v="Lasertunturi" />
		<tag k="natural" v="water" />
		<tag k="ssr:stedsnr" v="405146" />
	</node>
	<node lat="69.5396667505554" lon="30.55572273652494" id="-504">
		<tag k="name" v="Kuasjärvi" />
		<tag k="name:ru" v="Kuasjärvi" />
		<tag k="natural" v="water" />
		<tag k="ssr:stedsnr" v="405149" />
	</node>
	<node lat="69.5419889901598" lon="30.908700203301716" id="-505">
		<tag k="fixme" v="consider natural=peak for the most distinct mountains in the district" />
		<tag k="name" v="Jäkäläpää" />
		<tag k="name:ru" v="Jäkäläpää" />
		<tag k="natural" v="hill" />
		<tag k="place" v="locality" />
		<tag k="ssr:stedsnr" v="405153" />
	</node>
	<node lat="72.69916665846941" lon="29.954166064065397" id="-506">
		<tag k="name" v="Nordkappbassenget" />
		<tag k="place" v="locality" />
		<tag k="ssr:stedsnr" v="405275" />
	</node>
	<node lat="68.84972222324495" lon="13.361666660049517" id="-507">
		<tag k="name" v="Jennegghøgda" />
		<tag k="place" v="locality" />
		<tag k="ssr:stedsnr" v="405301" />
	</node>
	<node lat="58.471666668290105" lon="0.6352777801298617" id="-510">
		<tag k="name" v="Fladengrunnutstikkeren" />
		<tag k="place" v="locality" />
		<tag k="ssr:stedsnr" v="405578" />
	</node>
	<node lat="58.4566666683948" lon="1.5252777867708298" id="-511">
		<tag k="name" v="Veunderbassenget" />
		<tag k="place" v="locality" />
		<tag k="ssr:stedsnr" v="405580" />
	</node>
	<node lat="65.12972222285154" lon="7.739444435241154" id="-512">
		<tag k="name" v="Ellingråsgrabenen" />
		<tag k="place" v="locality" />
		<tag k="ssr:stedsnr" v="405764" />
	</node>
	<node lat="65.02317017557424" lon="-13.951566375858668" id="-513">
		<tag k="bay" v="fjord" />
		<tag k="name" v="Reydarfjørdur" />
		<tag k="name:is" v="Reydarfjørdur" />
		<tag k="natural" v="bay" />
		<tag k="ssr:stedsnr" v="405912" />
	</node>
	<node lat="58.57916666530309" lon="11.066666673107244" id="-518">
		<tag k="name" v="Väderöarna" />
		<tag k="name:sv" v="Väderöarna" />
		<tag k="place" v="town" />
		<tag k="ssr:stedsnr" v="606781" />
	</node>
	<node lat="58.099999997105094" lon="2.3500000033845865" id="-521">
		<tag k="name" v="Cod" />
		<tag k="place" v="locality" />
		<tag k="ssr:stedsnr" v="422108" />
	</node>
	<node lat="76.7667632591964" lon="-18.666307137188788" id="-522">
		<tag k="name" v="Danmarkshavn" />
		<tag k="place" v="hamlet" />
		<tag k="ssr:stedsnr" v="422112" />
	</node>
	<node lat="57.41944444176994" lon="11.833333339132441" id="-526">
		<tag k="name" v="Rön" />
		<tag k="name:sv" v="Rön" />
		<tag k="place" v="island" />
		<tag k="ssr:stedsnr" v="424862" />
	</node>
	<node lat="72.82384443038158" lon="30.25704661126297" id="-527">
		<tag k="name" v="Barentshavet - Barents Sea" />
		<tag k="name:en" v="Barents Sea" />
		<tag k="name:no" v="Barentshavet" />
		<tag k="place" v="sea" />
		<tag k="ssr:stedsnr" v="451499" />
	</node>
	<node lat="68.87136974619574" lon="33.033410253135685" id="-530">
		<tag k="name" v="Kola" />
		<tag k="name:ru" v="Kola" />
		<tag k="place" v="town" />
		<tag k="ssr:stedsnr" v="465129" />
	</node>
	<node lat="67.39222222544373" lon="11.190277784743335" id="-533">
		<tag k="name" v="Ribbebassenget" />
		<tag k="place" v="locality" />
		<tag k="ssr:stedsnr" v="465620" />
	</node>
	<node lat="61.64305555404298" lon="4.026666667597867" id="-534">
		<tag k="name" v="Måløybakken" />
		<tag k="place" v="locality" />
		<tag k="ssr:stedsnr" v="465732" />
	</node>
	<node lat="58.96777777339806" lon="3.297222223098944" id="-535">
		<tag k="man_made" v="offshore_platform" />
		<tag k="name" v="Grane" />
		<tag k="seamark:type" v="platform" />
		<tag k="ssr:stedsnr" v="465781" />
	</node>
	<node lat="64.63983611816681" lon="22.77771653096022" id="-536">
		<tag k="name" v="Bottenviken" />
		<tag k="natural" v="bay" />
		<tag k="ssr:stedsnr" v="465963" />
	</node>
	<node lat="58.202777780000766" lon="-0.2458333323110268" id="-537">
		<tag k="name" v="Halibuthorsten" />
		<tag k="place" v="locality" />
		<tag k="ssr:stedsnr" v="466566" />
	</node>
	<node lat="57.75416666698229" lon="4.366666661288263" id="-548">
		<tag k="name" v="Yme" />
		<tag k="place" v="locality" />
		<tag k="ssr:stedsnr" v="482102" />
	</node>
	<node lat="57.83333333574248" lon="4.5499999933488775" id="-549">
		<tag k="name" v="Yme STL" />
		<tag k="place" v="locality" />
		<tag k="ssr:stedsnr" v="482106" />
	</node>
	<node lat="69.56477787374853" lon="30.950325174017124" id="-552">
		<tag k="name" v="Sulajoki" />
		<tag k="name:ru" v="Sulajoki" />
		<tag k="ssr:stedsnr" v="484119" />
		<tag k="waterway" v="stream" />
	</node>
	<node lat="69.72083342862562" lon="31.20833059584017" id="-553">
		<tag k="bay" v="fjord" />
		<tag k="name" v="Guba Dolgaja" />
		<tag k="name:ru" v="Guba Dolgaja" />
		<tag k="natural" v="bay" />
		<tag k="ssr:stedsnr" v="485571" />
	</node>
	<node lat="57.02499999635179" lon="10.649999991788084" id="-554">
		<tag k="name" v="Langerevle" />
		<tag k="name:da" v="Langerevle" />
		<tag k="natural" v="shoal" />
		<tag k="place" v="locality" />
		<tag k="ssr:stedsnr" v="485719" />
	</node>
	<node lat="57.17499999821911" lon="11.249999993377058" id="-555">
		<tag k="name" v="Kobbergrunden" />
		<tag k="name:da" v="Kobbergrunden" />
		<tag k="natural" v="shoal" />
		<tag k="place" v="locality" />
		<tag k="ssr:stedsnr" v="485722" />
	</node>
	<node lat="57.3166666639659" lon="11.125000004719446" id="-557">
		<tag k="name" v="Østerby" />
		<tag k="name:da" v="Østerby" />
		<tag k="place" v="village" />
		<tag k="ssr:stedsnr" v="485777" />
	</node>
	<node lat="58.36666666623433" lon="1.9055555617850533" id="-558">
		<tag k="man_made" v="offshore_platform" />
		<tag k="name" v="Sleipner R" />
		<tag k="seamark:type" v="platform" />
		<tag k="ssr:stedsnr" v="485814" />
	</node>
	<node lat="56.82333333580115" lon="8.26333333699091" id="-562">
		<tag k="name" v="Lodbjerg" />
		<tag k="name:da" v="Lodbjerg" />
		<tag k="place" v="village" />
		<tag k="ssr:stedsnr" v="485848" />
	</node>
	<node lat="69.59166691324427" lon="33.616660203299894" id="-563">
		<tag k="name" v="Vestre Kildingrunnen" />
		<tag k="natural" v="shoal" />
		<tag k="place" v="locality" />
		<tag k="ssr:stedsnr" v="526132" />
	</node>
	<node lat="59.53284166756773" lon="-1.6270333182245658" id="-564">
		<tag k="name" v="Fair Isle" />
		<tag k="name:en" v="Fair Isle" />
		<tag k="place" v="island" />
		<tag k="ssr:stedsnr" v="526226" />
	</node>
	<node lat="69.3369667331497" lon="29.650251074907406" id="-565">
		<tag k="name" v="Latvala" />
		<tag k="name:ru" v="Latvala" />
		<tag k="place" v="locality" />
		<tag k="ssr:stedsnr" v="527109" />
	</node>
	<node lat="57.11666666684666" lon="2.8583333363842303" id="-568">
		<tag k="name" v="Ula" />
		<tag k="place" v="locality" />
		<tag k="ssr:stedsnr" v="543140" />
	</node>
	<node lat="69.57711954650873" lon="30.97703903898597" id="-569">
		<tag k="fixme" v="consider natural=peak for the most distinct mountains in the district" />
		<tag k="name" v="Kivitunturi" />
		<tag k="name:ru" v="Kivitunturi" />
		<tag k="natural" v="hill" />
		<tag k="place" v="locality" />
		<tag k="ssr:stedsnr" v="544132" />
	</node>
	<node lat="69.74691120018616" lon="30.875786484848405" id="-570">
		<tag k="fixme" v="consider natural=peak for the most distinct mountains in the district" />
		<tag k="name" v="Pikkutunturi" />
		<tag k="name:ru" v="Pikkutunturi" />
		<tag k="natural" v="hill" />
		<tag k="place" v="locality" />
		<tag k="ssr:stedsnr" v="544150" />
	</node>
	<node lat="69.70694456464123" lon="31.683330079625847" id="-572">
		<tag k="name" v="Kap Volokovi" />
		<tag k="name:ru" v="Kap Volokovi" />
		<tag k="natural" v="cape" />
		<tag k="ssr:stedsnr" v="545592" />
	</node>
	<node lat="58.84283333674526" lon="2.2463333401555077" id="-573">
		<tag k="man_made" v="offshore_platform" />
		<tag k="name" v="Edvard Grieg" />
		<tag k="seamark:type" v="platform" />
		<tag k="ssr:stedsnr" v="545826" />
	</node>
	<node lat="69.78888897073242" lon="30.833330985236152" id="-574">
		<tag k="name" v="Stolboneset" />
		<tag k="natural" v="cape" />
		<tag k="ssr:stedsnr" v="545634" />
	</node>
	<node lat="57.04166666716996" lon="8.508333332301898" id="-575">
		<tag k="name" v="Klitmøller" />
		<tag k="name:da" v="Klitmøller" />
		<tag k="place" v="village" />
		<tag k="ssr:stedsnr" v="545728" />
	</node>
	<node lat="57.73333333129422" lon="11.7666666719811" id="-576">
		<tag k="name" v="Hisingen" />
		<tag k="name:sv" v="Hisingen" />
		<tag k="place" v="island" />
		<tag k="ssr:stedsnr" v="545733" />
	</node>
	<node lat="57.74999999580206" lon="10.625000004593147" id="-577">
		<tag k="name" v="Skagens rev" />
		<tag k="name:da" v="Skagens rev" />
		<tag k="natural" v="cape" />
		<tag k="ssr:stedsnr" v="545739" />
	</node>
	<node lat="58.709722221936545" lon="11.179166673146568" id="-579">
		<tag k="name" v="Persgrunden" />
		<tag k="name:sv" v="Persgrunden" />
		<tag k="natural" v="shoal" />
		<tag k="place" v="locality" />
		<tag k="ssr:stedsnr" v="545757" />
	</node>
	<node lat="58.872222219481664" lon="10.999999999641048" id="-581">
		<tag k="name" v="Kosteröarna" />
		<tag k="name:sv" v="Kosteröarna" />
		<tag k="place" v="island" />
		<tag k="ssr:stedsnr" v="545787" />
	</node>
	<node lat="56.520833330669284" lon="3.222222227463591" id="-583">
		<tag k="man_made" v="offshore_platform" />
		<tag k="name" v="Ekofisk A" />
		<tag k="seamark:type" v="platform" />
		<tag k="ssr:stedsnr" v="545817" />
	</node>
	<node lat="56.994444440837896" lon="10.308333341147176" id="-584">
		<tag k="name" v="Hals" />
		<tag k="name:da" v="Hals" />
		<tag k="place" v="village" />
		<tag k="ssr:stedsnr" v="545820" />
	</node>
	<node lat="73.94109490873669" lon="47.23778874358522" id="-585">
		<tag k="name" v="Dome 7" />
		<tag k="place" v="locality" />
		<tag k="ssr:stedsnr" v="586294" />
	</node>
	<node lat="59.93875833557334" lon="0.40874166268482154" id="-586">
		<tag k="name" v="Forty Mile Ground" />
		<tag k="name:en" v="Forty Mile Ground" />
		<tag k="natural" v="shoal" />
		<tag k="place" v="locality" />
		<tag k="ssr:stedsnr" v="586250" />
	</node>
	<node lat="74.72414889891067" lon="47.366706827905944" id="-587">
		<tag k="name" v="Dome 6" />
		<tag k="place" v="locality" />
		<tag k="ssr:stedsnr" v="586358" />
	</node>
	<node lat="76.46638178915326" lon="44.09003744872011" id="-588">
		<tag k="name" v="Dome 3" />
		<tag k="place" v="locality" />
		<tag k="ssr:stedsnr" v="586365" />
	</node>
	<node lat="75.07722222097621" lon="23.445277752636493" id="-589">
		<tag k="name" v="Gardarbankhøgda" />
		<tag k="place" v="locality" />
		<tag k="ssr:stedsnr" v="586575" />
	</node>
	<node lat="65.71972222060558" lon="6.437499991120447" id="-590">
		<tag k="name" v="Ytreholmsforkastningssonen" />
		<tag k="place" v="locality" />
		<tag k="ssr:stedsnr" v="586627" />
	</node>
	<node lat="62.491666665852755" lon="4.6225000017052835" id="-591">
		<tag k="name" v="Slørebotnunderbassenget" />
		<tag k="place" v="locality" />
		<tag k="ssr:stedsnr" v="586736" />
	</node>
	<node lat="63.01861110775124" lon="5.611666668091489" id="-592">
		<tag k="name" v="Gossehøgda" />
		<tag k="place" v="locality" />
		<tag k="ssr:stedsnr" v="586737" />
	</node>
	<node lat="69.01885005859033" lon="29.084567978953665" id="-596">
		<tag k="name" v="Heteoja" />
		<tag k="name:ru" v="Heteoja" />
		<tag k="ssr:stedsnr" v="587131" />
		<tag k="waterway" v="stream" />
	</node>
	<node lat="69.52484731714543" lon="30.7747475289081" id="-597">
		<tag k="name" v="Maatunturi" />
		<tag k="name:ru" v="Maatunturi" />
		<tag k="natural" v="water" />
		<tag k="ssr:stedsnr" v="587177" />
	</node>
	<node lat="69.53303343283876" lon="30.85611969103012" id="-598">
		<tag k="name" v="Palokangas" />
		<tag k="name:ru" v="Palokangas" />
		<tag k="natural" v="slope" />
		<tag k="place" v="locality" />
		<tag k="ssr:stedsnr" v="587180" />
	</node>
	<node lat="62.61121110948331" lon="3.6354388904100077" id="-599">
		<tag k="name" v="Aktivneset" />
		<tag k="natural" v="reef" />
		<tag k="ssr:stedsnr" v="587223" />
	</node>
	<node lat="58.833611114229605" lon="3.9763888946703556" id="-600">
		<tag k="name" v="Lingsenkningen" />
		<tag k="place" v="locality" />
		<tag k="ssr:stedsnr" v="587556" />
	</node>
	<node lat="56.531111107519635" lon="4.130555559198937" id="-601">
		<tag k="name" v="Søgnebassenget" />
		<tag k="place" v="locality" />
		<tag k="ssr:stedsnr" v="587542" />
	</node>
	<node lat="58.92749999793905" lon="2.524722217561953" id="-602">
		<tag k="name" v="Utsirahøgda" />
		<tag k="place" v="locality" />
		<tag k="ssr:stedsnr" v="587574" />
	</node>
	<node lat="57.79444444040416" lon="4.282499998992233" id="-603">
		<tag k="name" v="Egersundbassenget" />
		<tag k="place" v="locality" />
		<tag k="ssr:stedsnr" v="587582" />
	</node>
	<node lat="57.24083333771683" lon="9.540277772972212" id="-604">
		<tag k="name" v="Sorgenfrei-Tornquist-forkastningskomplekset" />
		<tag k="place" v="locality" />
		<tag k="ssr:stedsnr" v="587587" />
	</node>
	<node lat="57.73111111388245" lon="0.05750000667827229" id="-605">
		<tag k="name" v="Moray Firth-bassenget" />
		<tag k="place" v="locality" />
		<tag k="ssr:stedsnr" v="587588" />
	</node>
	<node lat="57.44527778127424" lon="7.05638888755421" id="-606">
		<tag k="name" v="Fjerritslevforkastningssonen" />
		<tag k="place" v="locality" />
		<tag k="ssr:stedsnr" v="587592" />
	</node>
	<node lat="69.4216306281421" lon="29.861239871731627" id="-609">
		<tag k="name" v="Karsimaniemi" />
		<tag k="name:ru" v="Karsimaniemi" />
		<tag k="natural" v="cape" />
		<tag k="ssr:stedsnr" v="588116" />
	</node>
	<node lat="69.41525007511311" lon="29.83267598814214" id="-610">
		<tag k="name" v="Huhmunsaari" />
		<tag k="name:ru" v="Huhmunsaari" />
		<tag k="place" v="islet" />
		<tag k="ssr:stedsnr" v="588117" />
	</node>
	<node lat="62.8733333337967" lon="5.349999999730712" id="-611">
		<tag k="name" v="Langgrynna" />
		<tag k="natural" v="shoal" />
		<tag k="place" v="locality" />
		<tag k="ssr:stedsnr" v="588628" />
	</node>
	<node lat="65.53694444099115" lon="9.551388883312415" id="-612">
		<tag k="name" v="Trøndelagsplattformen" />
		<tag k="place" v="locality" />
		<tag k="ssr:stedsnr" v="595618" />
	</node>
	<node lat="66.30444444204235" lon="8.799722229492208" id="-613">
		<tag k="name" v="Rødøyhøgda" />
		<tag k="place" v="locality" />
		<tag k="ssr:stedsnr" v="595620" />
	</node>
	<node lat="58.18749999913828" lon="2.4625000054619233" id="-617">
		<tag k="name" v="Draupner E" />
		<tag k="place" v="locality" />
		<tag k="ssr:stedsnr" v="603087" />
	</node>
	<node lat="65.61612148907437" lon="-37.6360214109507" id="-620">
		<tag k="fixme" v="consider place=suburb, village or hamlet" />
		<tag k="name" v="Ïsbassen" />
		<tag k="place" v="quarter" />
		<tag k="ssr:stedsnr" v="604009" />
	</node>
	<node lat="57.98749999877389" lon="11.68333333020995" id="-624">
		<tag k="name" v="Djupvik" />
		<tag k="name:sv" v="Djupvik" />
		<tag k="natural" v="bay" />
		<tag k="ssr:stedsnr" v="606740" />
	</node>
	<node lat="57.15833333774322" lon="8.975000006269738" id="-625">
		<tag k="name" v="Sandnæs hage" />
		<tag k="name:da" v="Sandnæs hage" />
		<tag k="natural" v="cape" />
		<tag k="ssr:stedsnr" v="606762" />
	</node>
	<node lat="58.31666666828448" lon="11.616666665702606" id="-626">
		<tag k="name" v="Bokenäs" />
		<tag k="name:sv" v="Bokenäs" />
		<tag k="natural" v="cape" />
		<tag k="ssr:stedsnr" v="606763" />
	</node>
	<node lat="57.59583333394323" lon="11.808333337720846" id="-628">
		<tag k="name" v="Donsö" />
		<tag k="name:sv" v="Donsö" />
		<tag k="place" v="island" />
		<tag k="ssr:stedsnr" v="606855" />
	</node>
	<node lat="57.65000000039491" lon="11.866666661827201" id="-629">
		<tag k="name" v="Fiskebäck" />
		<tag k="name:sv" v="Fiskebäck" />
		<tag k="place" v="suburb" />
		<tag k="ssr:stedsnr" v="606856" />
	</node>
	<node lat="56.375000003187594" lon="3.266666663763019" id="-630">
		<tag k="man_made" v="offshore_platform" />
		<tag k="name" v="Eldfisk A" />
		<tag k="seamark:type" v="platform" />
		<tag k="ssr:stedsnr" v="606820" />
	</node>
	<node lat="58.36666667031713" lon="1.9111111047123603" id="-631">
		<tag k="man_made" v="offshore_platform" />
		<tag k="name" v="Sleipner T" />
		<tag k="seamark:type" v="platform" />
		<tag k="ssr:stedsnr" v="606825" />
	</node>
	<node lat="68.97681974549653" lon="33.11755746748119" id="-634">
		<tag k="name" v="Murmansk" />
		<tag k="name:ru" v="Murmansk" />
		<tag k="place" v="town" />
		<tag k="ssr:stedsnr" v="647183" />
	</node>
	<node lat="63.050561109658375" lon="5.169583343059208" id="-636">
		<tag k="name" v="Sørmannsneset" />
		<tag k="natural" v="reef" />
		<tag k="ssr:stedsnr" v="647223" />
	</node>
	<node lat="71.41472220424777" lon="35.21666090678677" id="-637">
		<tag k="name" v="Tiddlybankbassenget" />
		<tag k="place" v="locality" />
		<tag k="ssr:stedsnr" v="647271" />
	</node>
	<node lat="72.35999999570542" lon="16.557500001226046" id="-638">
		<tag k="name" v="Sørvestsnagsbassenget" />
		<tag k="place" v="locality" />
		<tag k="ssr:stedsnr" v="647278" />
	</node>
	<node lat="61.96617504311826" lon="-6.7993328020512" id="-639">
		<tag k="name" v="Faroe Islands" />
		<tag k="name:en" v="Faroe Islands" />
		<tag k="place" v="island" />
		<tag k="ssr:stedsnr" v="647208" />
	</node>
	<node lat="70.18444444199898" lon="16.769444445554196" id="-640">
		<tag k="name" v="Harstadbassenget" />
		<tag k="place" v="locality" />
		<tag k="ssr:stedsnr" v="647320" />
	</node>
	<node lat="71.53055542697534" lon="36.996102018723704" id="-641">
		<tag k="name" v="Dome 13" />
		<tag k="place" v="locality" />
		<tag k="ssr:stedsnr" v="647323" />
	</node>
	<node lat="58.547777775164086" lon="4.1958333343690875" id="-642">
		<tag k="name" v="Åstagrabenen" />
		<tag k="place" v="locality" />
		<tag k="ssr:stedsnr" v="647522" />
	</node>
	<node lat="57.256666664387936" lon="1.0605555597441239" id="-643">
		<tag k="name" v="Westerngrabenen" />
		<tag k="place" v="locality" />
		<tag k="ssr:stedsnr" v="647582" />
	</node>
	<node lat="72.19666666910224" lon="26.54694424704212" id="-644">
		<tag k="name" v="Nysleppforkastningskomplekset" />
		<tag k="place" v="locality" />
		<tag k="ssr:stedsnr" v="647591" />
	</node>
	<node lat="58.24333333370519" lon="9.381111107384069" id="-646">
		<tag k="name" v="Skagerrakgrabenen" />
		<tag k="place" v="locality" />
		<tag k="ssr:stedsnr" v="647551" />
	</node>
	<node lat="56.68722221967723" lon="3.4513888968168125" id="-647">
		<tag k="name" v="Steinbitterrassen" />
		<tag k="place" v="locality" />
		<tag k="ssr:stedsnr" v="647560" />
	</node>
	<node lat="67.85027778107732" lon="11.775277778276413" id="-649">
		<tag k="name" v="Marmæleutstikkeren" />
		<tag k="place" v="locality" />
		<tag k="ssr:stedsnr" v="647697" />
	</node>
	<node lat="59.64055555179232" lon="1.8936111114536496" id="-650">
		<tag k="name" v="Volveunderbassenget" />
		<tag k="place" v="locality" />
		<tag k="ssr:stedsnr" v="647732" />
	</node>
	<node lat="61.88166666618658" lon="2.2869444410984157" id="-651">
		<tag k="name" v="Marulkbassenget" />
		<tag k="place" v="locality" />
		<tag k="ssr:stedsnr" v="647741" />
	</node>
	<node lat="62.57277777709158" lon="4.260833335312747" id="-652">
		<tag k="name" v="Gnausehøgda" />
		<tag k="place" v="locality" />
		<tag k="ssr:stedsnr" v="647744" />
	</node>
	<node lat="63.48638888793078" lon="4.279166659124321" id="-653">
		<tag k="name" v="Vigrahøgda" />
		<tag k="place" v="locality" />
		<tag k="ssr:stedsnr" v="647752" />
	</node>
	<node lat="64.32250000380782" lon="5.139999991180583" id="-654">
		<tag k="name" v="Griphøgda" />
		<tag k="place" v="locality" />
		<tag k="ssr:stedsnr" v="647753" />
	</node>
	<node lat="61.1819444400776" lon="3.656666659717366" id="-655">
		<tag k="name" v="Ryggsteinsryggen" />
		<tag k="place" v="locality" />
		<tag k="ssr:stedsnr" v="647760" />
	</node>
	<node lat="61.18027777570203" lon="3.594722217716689" id="-656">
		<tag k="name" v="Kinnaforkastningen" />
		<tag k="place" v="locality" />
		<tag k="ssr:stedsnr" v="647762" />
	</node>
	<node lat="60.9744444476179" lon="1.7697222252916927" id="-657">
		<tag k="name" v="Hild-Brent-forkastningssonen" />
		<tag k="place" v="locality" />
		<tag k="ssr:stedsnr" v="647763" />
	</node>
	<node lat="67.01999999992566" lon="11.350000011125223" id="-659">
		<tag k="name" v="Trænarevet" />
		<tag k="natural" v="reef" />
		<tag k="ssr:stedsnr" v="647853" />
	</node>
	<node lat="69.36941395847613" lon="29.711464951555204" id="-663">
		<tag k="fixme" v="consider natural=peak for the most distinct mountains in the district" />
		<tag k="name" v="Purrivaara" />
		<tag k="name:ru" v="Purrivaara" />
		<tag k="natural" v="hill" />
		<tag k="place" v="locality" />
		<tag k="ssr:stedsnr" v="648111" />
	</node>
	<node lat="57.249999996536715" lon="9.583333332297622" id="-664">
		<tag k="name" v="Blokhus" />
		<tag k="name:da" v="Blokhus" />
		<tag k="place" v="village" />
		<tag k="ssr:stedsnr" v="667755" />
	</node>
	<node lat="57.4999999985677" lon="10.491666661038673" id="-665">
		<tag k="name" v="Strandby" />
		<tag k="name:da" v="Strandby" />
		<tag k="place" v="village" />
		<tag k="ssr:stedsnr" v="667771" />
	</node>
	<node lat="57.37083333363139" lon="9.804166660043933" id="-666">
		<tag k="amenity" v="place_of_worship" />
		<tag k="fixme" v="specify religion=*, denomination=*, building=* etc" />
		<tag k="name" v="Børglum Kloster" />
		<tag k="name:da" v="Børglum Kloster" />
		<tag k="ssr:stedsnr" v="667779" />
	</node>
	<node lat="69.77728056555338" lon="26.20908850670566" id="-668">
		<tag k="name" v="Teahppansuolu" />
		<tag k="name:se" v="Teahppansuolu" />
		<tag k="place" v="islet" />
		<tag k="ssr:stedsnr" v="696685" />
	</node>
	<node lat="80.14877182235448" lon="36.6927304094274" id="-669">
		<tag k="name" v="Victoriaøya - Victoria" />
		<tag k="name:no" v="Victoriaøya" />
		<tag k="name:ru" v="Victoria" />
		<tag k="place" v="island" />
		<tag k="ssr:stedsnr" v="708089" />
	</node>
	<node lat="69.57611399866158" lon="31.308833161402617" id="-670">
		<tag k="name" v="Petsamo" />
		<tag k="name:fi" v="Petsamo" />
		<tag k="place" v="village" />
		<tag k="ssr:stedsnr" v="708166" />
	</node>
	<node lat="73.15693833728946" lon="44.22109811587749" id="-672">
		<tag k="name" v="Dome 8" />
		<tag k="place" v="locality" />
		<tag k="ssr:stedsnr" v="708272" />
	</node>
	<node lat="72.92833333278176" lon="25.872222104084518" id="-673">
		<tag k="name" v="Nordvargdomen" />
		<tag k="place" v="locality" />
		<tag k="ssr:stedsnr" v="708278" />
	</node>
	<node lat="73.67250000094404" lon="25.19027772952245" id="-674">
		<tag k="name" v="Hoopforkastningkomplekset" />
		<tag k="place" v="locality" />
		<tag k="ssr:stedsnr" v="708292" />
	</node>
	<node lat="71.72472216597228" lon="34.87805103730719" id="-675">
		<tag k="name" v="Dome 14" />
		<tag k="place" v="locality" />
		<tag k="ssr:stedsnr" v="708302" />
	</node>
	<node lat="71.47222217766675" lon="35.734160146681106" id="-676">
		<tag k="name" v="Dome 15" />
		<tag k="place" v="locality" />
		<tag k="ssr:stedsnr" v="708309" />
	</node>
	<node lat="78.55999977830713" lon="34.45639141160994" id="-677">
		<tag k="name" v="Nordantiklinalen" />
		<tag k="place" v="locality" />
		<tag k="ssr:stedsnr" v="708372" />
	</node>
	<node lat="77.15027777601455" lon="13.068888881318681" id="-678">
		<tag k="name" v="Hornsundsforkastningskomplekset" />
		<tag k="place" v="locality" />
		<tag k="ssr:stedsnr" v="708376" />
	</node>
	<node lat="56.60555555415353" lon="2.70222221949352" id="-679">
		<tag k="name" v="Fedegrabenen" />
		<tag k="place" v="locality" />
		<tag k="ssr:stedsnr" v="708522" />
	</node>
	<node lat="60.645277778926484" lon="1.7038888833487313" id="-680">
		<tag k="name" v="Øst-Shetland-bassenget" />
		<tag k="place" v="locality" />
		<tag k="ssr:stedsnr" v="708533" />
	</node>
	<node lat="58.96777777339806" lon="3.297222223098944" id="-681">
		<tag k="name" v="Patchbankryggen" />
		<tag k="place" v="locality" />
		<tag k="ssr:stedsnr" v="708545" />
	</node>
	<node lat="56.96166666654766" lon="3.069722227129967" id="-682">
		<tag k="name" v="Ula-Gyda-forkastningssonen" />
		<tag k="place" v="locality" />
		<tag k="ssr:stedsnr" v="708512" />
	</node>
	<node lat="57.43888888477098" lon="1.3161111121627012" id="-683">
		<tag k="name" v="Forties-Montrose-høgda" />
		<tag k="place" v="locality" />
		<tag k="ssr:stedsnr" v="708575" />
	</node>
	<node lat="65.46249999885283" lon="4.795277778149021" id="-685">
		<tag k="name" v="Flesforkastningssonen" />
		<tag k="place" v="locality" />
		<tag k="ssr:stedsnr" v="708640" />
	</node>
	<node lat="66.52000000047622" lon="4.063611113620226" id="-686">
		<tag k="name" v="Gjallarryggen" />
		<tag k="place" v="locality" />
		<tag k="ssr:stedsnr" v="708647" />
	</node>
	<node lat="61.16611110877078" lon="2.491111114850057" id="-687">
		<tag k="name" v="Tjalveterrassen" />
		<tag k="place" v="locality" />
		<tag k="ssr:stedsnr" v="708729" />
	</node>
	<node lat="60.30500000422576" lon="4.437777783161887" id="-688">
		<tag k="name" v="Øygardsforkastningskomplekset" />
		<tag k="place" v="locality" />
		<tag k="ssr:stedsnr" v="708732" />
	</node>
	<node lat="65.09333333196054" lon="7.566666668343715" id="-689">
		<tag k="name" v="Høgbrakhorsten" />
		<tag k="place" v="locality" />
		<tag k="ssr:stedsnr" v="708742" />
	</node>
	<node lat="64.40577722706612" lon="-16.51474407167193" id="-693">
		<tag k="name" v="Vatnajøkull" />
		<tag k="name:is" v="Vatnajøkull" />
		<tag k="natural" v="glacier" />
		<tag k="ssr:stedsnr" v="708862" />
	</node>
	<node lat="69.15658061650853" lon="29.26050403791733" id="-695">
		<tag k="name" v="Riitasaari" />
		<tag k="name:ru" v="Riitasaari" />
		<tag k="place" v="islet" />
		<tag k="ssr:stedsnr" v="709114" />
	</node>
	<node lat="69.65426951150285" lon="30.09133979716411" id="-696">
		<tag k="fixme" v="consider natural=peak for the most distinct mountains in the district" />
		<tag k="name" v="Littiäpää" />
		<tag k="name:ru" v="Littiäpää" />
		<tag k="natural" v="hill" />
		<tag k="place" v="locality" />
		<tag k="ssr:stedsnr" v="709174" />
	</node>
	<node lat="69.55574729397235" lon="30.203092466479834" id="-698">
		<tag k="fixme" v="consider natural=peak for the most distinct mountains in the district" />
		<tag k="name" v="Joroffintunturi" />
		<tag k="name:ru" v="Joroffintunturi" />
		<tag k="natural" v="hill" />
		<tag k="place" v="locality" />
		<tag k="ssr:stedsnr" v="712214" />
	</node>
	<node lat="61.48749999988347" lon="1.4597222250559454" id="-703">
		<tag k="name" v="Don" />
		<tag k="place" v="locality" />
		<tag k="ssr:stedsnr" v="725750" />
	</node>
	<node lat="69.82083345706367" lon="32.03332975027689" id="-705">
		<tag k="name" v="Semljanoi Rybatchij" />
		<tag k="name:ru" v="Semljanoi Rybatchij" />
		<tag k="place" v="village" />
		<tag k="ssr:stedsnr" v="728560" />
	</node>
	<node lat="57.88333333400469" lon="11.574999995641159" id="-706">
		<tag k="name" v="Marstrand" />
		<tag k="name:sv" v="Marstrand" />
		<tag k="place" v="town" />
		<tag k="ssr:stedsnr" v="728723" />
	</node>
	<node lat="58.87777777931381" lon="1.5250000050904386" id="-709">
		<tag k="man_made" v="offshore_platform" />
		<tag k="name" v="East Brae" />
		<tag k="name:en" v="East Brae" />
		<tag k="seamark:type" v="platform" />
		<tag k="ssr:stedsnr" v="728822" />
	</node>
	<node lat="57.46249999873338" lon="9.783333335683414" id="-710">
		<tag k="name" v="Rubjerg Knude" />
		<tag k="name:da" v="Rubjerg Knude" />
		<tag k="natural" v="ridge" />
		<tag k="place" v="locality" />
		<tag k="ssr:stedsnr" v="728791" />
	</node>
	<node lat="58.08055555645068" lon="1.8916666615756408" id="-712">
		<tag k="man_made" v="offshore_platform" />
		<tag k="name" v="Varg A" />
		<tag k="seamark:type" v="platform" />
		<tag k="ssr:stedsnr" v="728834" />
	</node>
	<node lat="57.50833333376705" lon="11.933333341395635" id="-713">
		<tag k="name" v="Särö" />
		<tag k="name:sv" v="Särö" />
		<tag k="natural" v="cape" />
		<tag k="ssr:stedsnr" v="728850" />
	</node>
	<node lat="57.48333333752396" lon="11.804166658866638" id="-714">
		<tag k="name" v="Viten" />
		<tag k="name:sv" v="Viten" />
		<tag k="natural" v="shoal" />
		<tag k="place" v="locality" />
		<tag k="ssr:stedsnr" v="728856" />
	</node>
	<node lat="60.153594447629445" lon="-1.1846722064619877" id="-717">
		<tag k="name" v="Lerwick" />
		<tag k="name:en" v="Lerwick" />
		<tag k="place" v="town" />
		<tag k="ssr:stedsnr" v="768229" />
	</node>
	<node lat="73.99305310796694" lon="40.81305626313157" id="-718">
		<tag k="name" v="Dome 9" />
		<tag k="place" v="locality" />
		<tag k="ssr:stedsnr" v="768252" />
	</node>
	<node lat="66.053055551267" lon="4.960833339304755" id="-720">
		<tag k="name" v="Vigridsynklinalen" />
		<tag k="place" v="locality" />
		<tag k="ssr:stedsnr" v="768633" />
	</node>
	<node lat="62.065277779706484" lon="1.6777777781112833" id="-721">
		<tag k="name" v="Manetryggen" />
		<tag k="place" v="locality" />
		<tag k="ssr:stedsnr" v="768751" />
	</node>
	<node lat="61.67194444704048" lon="1.6705555510141663" id="-723">
		<tag k="name" v="Penguinryggen" />
		<tag k="place" v="locality" />
		<tag k="ssr:stedsnr" v="768769" />
	</node>
	<node lat="61.72805555609492" lon="1.6044444430734766" id="-724">
		<tag k="name" v="Makrellhorsten" />
		<tag k="place" v="locality" />
		<tag k="ssr:stedsnr" v="768771" />
	</node>
	<node lat="65.55716841999106" lon="37.41807148484748" id="-728">
		<tag k="name" v="White Sea - Beloe More" />
		<tag k="name:en" v="White Sea" />
		<tag k="name:ru" v="Beloe More" />
		<tag k="place" v="sea" />
		<tag k="ssr:stedsnr" v="768910" />
	</node>
	<node lat="71.44888888854733" lon="19.69611110773271" id="-729">
		<tag k="name" v="Ringvassøy-Loppa-forkastningskomplekset" />
		<tag k="place" v="locality" />
		<tag k="ssr:stedsnr" v="769253" />
	</node>
	<node lat="56.85944444295149" lon="6.868611104337404" id="-730">
		<tag k="name" v="Horngraben" />
		<tag k="place" v="locality" />
		<tag k="ssr:stedsnr" v="769514" />
	</node>
	<node lat="56.78166666899694" lon="2.226111106593913" id="-731">
		<tag k="name" v="Josefineryggen" />
		<tag k="place" v="locality" />
		<tag k="ssr:stedsnr" v="769517" />
	</node>
	<node lat="58.87333333374456" lon="2.0077777815881164" id="-732">
		<tag k="name" v="Gudrunterrassen" />
		<tag k="place" v="locality" />
		<tag k="ssr:stedsnr" v="769548" />
	</node>
	<node lat="60.931111113836664" lon="3.2886111193786784" id="-733">
		<tag k="name" v="Lomreterassen" />
		<tag k="place" v="locality" />
		<tag k="ssr:stedsnr" v="769559" />
	</node>
	<node lat="65.6866666626913" lon="7.643333328917463" id="-735">
		<tag k="name" v="Revfallsforkastningskompleks" />
		<tag k="place" v="locality" />
		<tag k="ssr:stedsnr" v="769630" />
	</node>
	<node lat="60.942500000331556" lon="0.35694444063563996" id="-736">
		<tag k="name" v="Pobieplattformen" />
		<tag k="place" v="locality" />
		<tag k="ssr:stedsnr" v="769731" />
	</node>
	<node lat="65.07944444077513" lon="7.245833331312726" id="-737">
		<tag k="name" v="Grindagraben" />
		<tag k="place" v="locality" />
		<tag k="ssr:stedsnr" v="769743" />
	</node>
	<node lat="65.26761182434916" lon="-14.050985767408438" id="-739">
		<tag k="name" v="Seydisfjørdur" />
		<tag k="name:is" v="Seydisfjørdur" />
		<tag k="place" v="village" />
		<tag k="ssr:stedsnr" v="769887" />
	</node>
	<node lat="57.583333331129296" lon="11.16666665944723" id="-740">
		<tag k="name" v="Kattegat" />
		<tag k="place" v="sea" />
		<tag k="ssr:stedsnr" v="769964" />
	</node>
	<node lat="66.71111111568507" lon="11.145833326321574" id="-744">
		<tag k="name" v="Grønøyhøgda" />
		<tag k="place" v="locality" />
		<tag k="ssr:stedsnr" v="777647" />
	</node>
	<node lat="66.53222221900883" lon="9.60388889884703" id="-745">
		<tag k="name" v="Nordlandsryggen" />
		<tag k="place" v="locality" />
		<tag k="ssr:stedsnr" v="838660" />
	</node>
	<node lat="69.44343063465976" lon="30.08430917542059" id="-746">
		<tag k="fixme" v="consider natural=peak for the most distinct mountains in the district" />
		<tag k="name" v="Harjunvaara" />
		<tag k="name:ru" v="Harjunvaara" />
		<tag k="natural" v="hill" />
		<tag k="place" v="locality" />
		<tag k="ssr:stedsnr" v="844191" />
	</node>
	<node lat="60.658611110769314" lon="3.7245972280329878" id="-748">
		<tag k="man_made" v="offshore_platform" />
		<tag k="name" v="Troll A" />
		<tag k="seamark:type" v="platform" />
		<tag k="ssr:stedsnr" v="845690" />
	</node>
	<node lat="60.776297222714575" lon="3.4897638903490362" id="-749">
		<tag k="man_made" v="offshore_platform" />
		<tag k="name" v="Troll B" />
		<tag k="seamark:type" v="platform" />
		<tag k="ssr:stedsnr" v="845692" />
	</node>
	<node lat="58.36666666965798" lon="2.466666671123247" id="-751">
		<tag k="name" v="Draupner" />
		<tag k="place" v="locality" />
		<tag k="ssr:stedsnr" v="847128" />
	</node>
	<node lat="69.63542787188335" lon="30.961500206782958" id="-752">
		<tag k="fixme" v="consider natural=peak for the most distinct mountains in the district" />
		<tag k="name" v="Polusoaivi" />
		<tag k="name:ru" v="Polusoaivi" />
		<tag k="natural" v="hill" />
		<tag k="place" v="locality" />
		<tag k="ssr:stedsnr" v="848155" />
	</node>
	<node lat="69.82777789204174" lon="31.774996741339606" id="-754">
		<tag k="name" v="Kap Semljanoi" />
		<tag k="name:ru" v="Kap Semljanoi" />
		<tag k="natural" v="cape" />
		<tag k="ssr:stedsnr" v="849661" />
	</node>
	<node lat="69.85000011182645" lon="31.841663353508867" id="-755">
		<tag k="bay" v="fjord" />
		<tag k="name" v="Guba Bolshaya Volokovaya" />
		<tag k="name:ru" v="Guba Bolshaya Volokovaya" />
		<tag k="natural" v="bay" />
		<tag k="ssr:stedsnr" v="849670" />
	</node>
	<node lat="69.76888898114343" lon="31.0444418873704" id="-756">
		<tag k="name" v="Kap Mai Navolok" />
		<tag k="name:ru" v="Kap Mai Navolok" />
		<tag k="natural" v="cape" />
		<tag k="ssr:stedsnr" v="849672" />
	</node>
	<node lat="57.98888888958435" lon="11.5555555550001" id="-757">
		<tag k="name" v="Skärhamn" />
		<tag k="name:sv" v="Skärhamn" />
		<tag k="place" v="village" />
		<tag k="ssr:stedsnr" v="849780" />
	</node>
	<node lat="58.183333332443794" lon="11.480555563016084" id="-759">
		<tag k="name" v="Ellös" />
		<tag k="name:sv" v="Ellös" />
		<tag k="place" v="village" />
		<tag k="ssr:stedsnr" v="849772" />
	</node>
	<node lat="57.19583333276709" lon="11.462500007488" id="-760">
		<tag k="name" v="Knøsen" />
		<tag k="name:da" v="Knøsen" />
		<tag k="natural" v="hill" />
		<tag k="place" v="locality" />
		<tag k="ssr:stedsnr" v="849843" />
	</node>
	<node lat="58.55416666383152" lon="11.279166658792915" id="-761">
		<tag k="name" v="Hamburgsund" />
		<tag k="name:sv" v="Hamburgsund" />
		<tag k="place" v="village" />
		<tag k="ssr:stedsnr" v="849795" />
	</node>
	<node lat="57.083333331486116" lon="10.53333333799996" id="-762">
		<tag k="name" v="Svitringen" />
		<tag k="name:da" v="Svitringen" />
		<tag k="natural" v="shoal" />
		<tag k="place" v="locality" />
		<tag k="ssr:stedsnr" v="849798" />
	</node>
	<node lat="58.33333333670188" lon="11.549999992824196" id="-763">
		<tag k="bay" v="fjord" />
		<tag k="name" v="Gullmarn" />
		<tag k="name:sv" v="Gullmarn" />
		<tag k="natural" v="bay" />
		<tag k="ssr:stedsnr" v="849802" />
	</node>
	<node lat="56.549999997821935" lon="3.21249999842101" id="-764">
		<tag k="man_made" v="offshore_platform" />
		<tag k="name" v="Ekofisk T" />
		<tag k="seamark:type" v="platform" />
		<tag k="ssr:stedsnr" v="849846" />
	</node>
	<node lat="69.39841112654129" lon="25.84454964976144" id="-765">
		<tag k="name" v="Karigasniemi" />
		<tag k="name:fkv" v="Karigasniemi" />
		<tag k="place" v="hamlet" />
		<tag k="ssr:stedsnr" v="868021" />
	</node>
	<node lat="61.48861111291868" lon="2.396944437029577" id="-766">
		<tag k="name" v="Tampenutstikkeren" />
		<tag k="place" v="locality" />
		<tag k="ssr:stedsnr" v="868588" />
	</node>
	<node lat="69.57571422780642" lon="34.55721899159955" id="-767">
		<tag k="name" v="Kildingr, ø" />
		<tag k="natural" v="shoal" />
		<tag k="place" v="locality" />
		<tag k="ssr:stedsnr" v="890132" />
	</node>
	<node lat="71.63666667313659" lon="25.357777632498916" id="-768">
		<tag k="name" v="Måsøyforkastningskomplekset" />
		<tag k="place" v="locality" />
		<tag k="ssr:stedsnr" v="890308" />
	</node>
	<node lat="65.19805555252131" lon="3.6858333301447312" id="-769">
		<tag k="name" v="Modgunnhvelvet" />
		<tag k="place" v="locality" />
		<tag k="ssr:stedsnr" v="890595" />
	</node>
	<node lat="66.97250000122935" lon="6.377777779157532" id="-770">
		<tag k="name" v="Vemadomen" />
		<tag k="place" v="locality" />
		<tag k="ssr:stedsnr" v="890599" />
	</node>
	<node lat="66.29750000309679" lon="6.347499999963418" id="-771">
		<tag k="name" v="Flesforkastningssonen" />
		<tag k="place" v="locality" />
		<tag k="ssr:stedsnr" v="890661" />
	</node>
	<node lat="66.72833332996719" lon="7.760833333914406" id="-772">
		<tag k="name" v="Utgardshøgda" />
		<tag k="place" v="locality" />
		<tag k="ssr:stedsnr" v="890670" />
	</node>
	<node lat="65.71944444122347" lon="10.021666673136279" id="-773">
		<tag k="name" v="Ylvingforkastninggsonen" />
		<tag k="place" v="locality" />
		<tag k="ssr:stedsnr" v="890688" />
	</node>
	<node lat="62.8922222189672" lon="5.039722226290158" id="-774">
		<tag k="name" v="Giskehøgda" />
		<tag k="place" v="locality" />
		<tag k="ssr:stedsnr" v="890758" />
	</node>
	<node lat="61.256944446930966" lon="2.840555556420085" id="-775">
		<tag k="name" v="Magneunderbassenget" />
		<tag k="place" v="locality" />
		<tag k="ssr:stedsnr" v="890770" />
	</node>
	<node lat="55.93623611502681" lon="19.24309165110726" id="-776">
		<tag k="name" v="Austersjøen – Østersjøen - Baltic Sea" />
		<tag k="name:en" v="Baltic Sea" />
		<tag k="name:no" v="Austersjøen – Østersjøen" />
		<tag k="place" v="sea" />
		<tag k="ssr:stedsnr" v="890958" />
	</node>
	<node lat="69.58410563110276" lon="30.197650825445894" id="-779">
		<tag k="name" v="Sontamukka" />
		<tag k="name:ru" v="Sontamukka" />
		<tag k="natural" v="bay" />
		<tag k="ssr:stedsnr" v="891179" />
	</node>
	<node lat="63.25024444180723" lon="5.358902778630716" id="-780">
		<tag k="name" v="Skallen" />
		<tag k="natural" v="reef" />
		<tag k="ssr:stedsnr" v="891255" />
	</node>
	<node lat="72.28805555377032" lon="18.454722228906146" id="-783">
		<tag k="name" v="Veslemøyhøgda" />
		<tag k="place" v="locality" />
		<tag k="ssr:stedsnr" v="891301" />
	</node>
	<node lat="56.18555555519032" lon="3.0938888815453285" id="-784">
		<tag k="name" v="Grenseutstikkeren" />
		<tag k="place" v="locality" />
		<tag k="ssr:stedsnr" v="891535" />
	</node>
	<node lat="60.908055555994146" lon="1.1911111091164723" id="-785">
		<tag k="name" v="Øst-Shetland-bassenget" />
		<tag k="place" v="locality" />
		<tag k="ssr:stedsnr" v="891544" />
	</node>
	<node lat="59.613055553827394" lon="2.2038888879984295" id="-786">
		<tag k="name" v="Heimdalhøgda" />
		<tag k="place" v="locality" />
		<tag k="ssr:stedsnr" v="891738" />
	</node>
	<node lat="60.68361111211495" lon="2.910555555136355" id="-787">
		<tag k="name" v="Brageforkastningen" />
		<tag k="place" v="locality" />
		<tag k="ssr:stedsnr" v="891742" />
	</node>
	<node lat="69.17880561908673" lon="29.300065129331745" id="-789">
		<tag k="name" v="Tilisaari" />
		<tag k="name:ru" v="Tilisaari" />
		<tag k="place" v="islet" />
		<tag k="ssr:stedsnr" v="892095" />
	</node>
	<node lat="69.39616673299031" lon="29.781667681055897" id="-790">
		<tag k="name" v="Koskenniskanniemi" />
		<tag k="name:ru" v="Koskenniskanniemi" />
		<tag k="natural" v="cape" />
		<tag k="ssr:stedsnr" v="892101" />
	</node>
	<node lat="69.75000015254756" lon="32.41666250894823" id="-792">
		<tag k="name" v="Fiskerhalvøya" />
		<tag k="natural" v="cape" />
		<tag k="ssr:stedsnr" v="906062" />
	</node>
	<node lat="59.188888888434505" lon="2.3888888843032103" id="-794">
		<tag k="man_made" v="offshore_platform" />
		<tag k="name" v="Balder" />
		<tag k="seamark:type" v="platform" />
		<tag k="ssr:stedsnr" v="907727" />
	</node>
	<node lat="58.35000000443701" lon="11.93333333332596" id="-796">
		<tag k="name" v="Uddevalla" />
		<tag k="name:sv" v="Uddevalla" />
		<tag k="place" v="town" />
		<tag k="ssr:stedsnr" v="910760" />
	</node>
	<node lat="57.550000004307535" lon="10.466666669550735" id="-797">
		<tag k="name" v="Krageskov rev" />
		<tag k="name:da" v="Krageskov rev" />
		<tag k="natural" v="shoal" />
		<tag k="place" v="locality" />
		<tag k="ssr:stedsnr" v="910761" />
	</node>
	<node lat="58.41388889243522" lon="11.263888890245433" id="-798">
		<tag k="name" v="Sotekanalen" />
		<tag k="name:sv" v="Sotekanalen" />
		<tag k="natural" v="strait" />
		<tag k="ssr:stedsnr" v="910763" />
	</node>
	<node lat="58.07499999968276" lon="11.48055555393744" id="-799">
		<tag k="name" v="Mollösund" />
		<tag k="name:sv" v="Mollösund" />
		<tag k="place" v="village" />
		<tag k="ssr:stedsnr" v="910737" />
	</node>
	<node lat="58.34166666428935" lon="11.32499999201638" id="-800">
		<tag k="name" v="Malmön" />
		<tag k="name:sv" v="Malmön" />
		<tag k="place" v="island" />
		<tag k="ssr:stedsnr" v="910741" />
	</node>
	<node lat="58.14166666781102" lon="11.82916665829678" id="-801">
		<tag k="name" v="Svanesund" />
		<tag k="name:sv" v="Svanesund" />
		<tag k="place" v="village" />
		<tag k="ssr:stedsnr" v="910775" />
	</node>
	<node lat="57.37083333187439" lon="9.71666667282061" id="-802">
		<tag k="name" v="Løkken" />
		<tag k="name:da" v="Løkken" />
		<tag k="place" v="village" />
		<tag k="ssr:stedsnr" v="910793" />
	</node>
	<node lat="57.49166666918678" lon="9.854166674671406" id="-803">
		<tag k="name" v="Lønstrup" />
		<tag k="name:da" v="Lønstrup" />
		<tag k="place" v="village" />
		<tag k="ssr:stedsnr" v="910797" />
	</node>
	<node lat="58.07777777803609" lon="1.908333341938193" id="-805">
		<tag k="man_made" v="offshore_platform" />
		<tag k="name" v="Petrojarl Varg" />
		<tag k="seamark:type" v="platform" />
		<tag k="ssr:stedsnr" v="910836" />
	</node>
	<node lat="56.89999999820785" lon="10.366666668704587" id="-806">
		<tag k="name" v="Ålborg bugt" />
		<tag k="name:da" v="Ålborg bugt" />
		<tag k="natural" v="bay" />
		<tag k="ssr:stedsnr" v="910847" />
	</node>
	<node lat="66.86638888820578" lon="3.7502777746239633" id="-809">
		<tag k="name" v="Fenrisgrabenen" />
		<tag k="place" v="locality" />
		<tag k="ssr:stedsnr" v="916671" />
	</node>
	<node lat="69.23980557121193" lon="25.70439132667951" id="-810">
		<tag k="name" v="Bálggassuolu" />
		<tag k="name:se" v="Bálggassuolu" />
		<tag k="place" v="islet" />
		<tag k="ssr:stedsnr" v="939094" />
	</node>
	<node lat="69.83750010499676" lon="31.57499697685787" id="-811">
		<tag k="name" v="Store Henøy" />
		<tag k="place" v="island" />
		<tag k="ssr:stedsnr" v="970142" />
	</node>
	<node lat="58.000000003940016" lon="11.666666666575644" id="-812">
		<tag k="name" v="Tjörn" />
		<tag k="name:sv" v="Tjörn" />
		<tag k="place" v="island" />
		<tag k="ssr:stedsnr" v="970420" />
	</node>
	<node lat="57.33333333153269" lon="9.45000000583045" id="-813">
		<tag k="name" v="Jammerbugt" />
		<tag k="name:da" v="Jammerbugt" />
		<tag k="place" v="sea" />
		<tag k="ssr:stedsnr" v="970476" />
	</node>
	<node lat="66.75777777564629" lon="9.023888878214922" id="-814">
		<tag k="name" v="Trænabassenget" />
		<tag k="place" v="locality" />
		<tag k="ssr:stedsnr" v="951655" />
	</node>
	<node lat="72.3224999959575" lon="20.34222221130823" id="-816">
		<tag k="name" v="Polheimsunderplattformen" />
		<tag k="place" v="locality" />
		<tag k="ssr:stedsnr" v="951254" />
	</node>
	<node lat="75.58222222132963" lon="22.330833308745607" id="-817">
		<tag k="name" v="Sørkappbassenget" />
		<tag k="place" v="locality" />
		<tag k="ssr:stedsnr" v="951368" />
	</node>
	<node lat="79.04083315932048" lon="33.99972441303281" id="-818">
		<tag k="name" v="Nordvestantiklinalen" />
		<tag k="place" v="locality" />
		<tag k="ssr:stedsnr" v="951373" />
	</node>
	<node lat="56.12999999715051" lon="3.4366666660586875" id="-819">
		<tag k="name" v="Ålebassenget" />
		<tag k="place" v="locality" />
		<tag k="ssr:stedsnr" v="951534" />
	</node>
	<node lat="57.13972222389341" lon="4.376666658995973" id="-820">
		<tag k="name" v="Åstagrabenen" />
		<tag k="place" v="locality" />
		<tag k="ssr:stedsnr" v="951543" />
	</node>
	<node lat="56.82555555578495" lon="2.9116666702007574" id="-821">
		<tag k="name" v="Hidrahøgda" />
		<tag k="place" v="locality" />
		<tag k="ssr:stedsnr" v="951521" />
	</node>
	<node lat="56.66055555542456" lon="0.4138888951169179" id="-822">
		<tag k="name" v="West Central-sokkelen" />
		<tag k="place" v="locality" />
		<tag k="ssr:stedsnr" v="951599" />
	</node>
	<node lat="59.89972221943406" lon="3.6588888957199943" id="-823">
		<tag k="name" v="Osebergforkastningsblokken" />
		<tag k="place" v="locality" />
		<tag k="ssr:stedsnr" v="951551" />
	</node>
	<node lat="58.310000002150296" lon="3.4613888959902304" id="-824">
		<tag k="name" v="Selehøgda" />
		<tag k="place" v="locality" />
		<tag k="ssr:stedsnr" v="951570" />
	</node>
	<node lat="58.111111109608025" lon="1.5669444372755217" id="-825">
		<tag k="name" v="Andrewryggen" />
		<tag k="place" v="locality" />
		<tag k="ssr:stedsnr" v="951578" />
	</node>
	<node lat="64.26524871242881" lon="-15.342342861063695" id="-826">
		<tag k="bay" v="fjord" />
		<tag k="name" v="Hornafjørdur" />
		<tag k="name:is" v="Hornafjørdur" />
		<tag k="natural" v="bay" />
		<tag k="ssr:stedsnr" v="951899" />
	</node>
	<node lat="57.540688933672556" lon="23.717008035474173" id="-829">
		<tag k="name" v="Rigaviken" />
		<tag k="natural" v="bay" />
		<tag k="ssr:stedsnr" v="951962" />
	</node>
	<node lat="61.48813857089252" lon="-15.27251107825906" id="-833">
		<tag k="name" v="Nord-Atlanteren - North Atlantic" />
		<tag k="name:en" v="North Atlantic" />
		<tag k="name:no" v="Nord-Atlanteren" />
		<tag k="place" v="sea" />
		<tag k="ssr:stedsnr" v="951914" />
	</node>
	<node lat="71.6166362025429" lon="52.478215529190905" id="-836">
		<tag k="aeroway" v="aerodrome" />
		<tag k="name" v="Rogachevo" />
		<tag k="name:ru" v="Rogachevo" />
		<tag k="ssr:stedsnr" v="966295" />
	</node>
	<node lat="69.69718065006397" lon="30.92706695669376" id="-841">
		<tag k="fixme" v="consider natural=peak for the most distinct mountains in the district" />
		<tag k="name" v="Tienpääntunturi" />
		<tag k="name:ru" v="Tienpääntunturi" />
		<tag k="natural" v="hill" />
		<tag k="place" v="locality" />
		<tag k="ssr:stedsnr" v="969164" />
	</node>
	<node lat="69.70416677670615" lon="31.40416371645595" id="-842">
		<tag k="name" v="Nemetskihalvøya" />
		<tag k="natural" v="cape" />
		<tag k="ssr:stedsnr" v="970120" />
	</node>
	<node lat="56.98055555216967" lon="8.41666667039531" id="-844">
		<tag k="name" v="Torup" />
		<tag k="name:da" v="Torup" />
		<tag k="place" v="village" />
		<tag k="ssr:stedsnr" v="970392" />
	</node>
	<node lat="58.48611111300441" lon="11.33750000713552" id="-846">
		<tag k="bay" v="fjord" />
		<tag k="name" v="Bottnefjorden" />
		<tag k="name:sv" v="Bottnefjorden" />
		<tag k="natural" v="bay" />
		<tag k="ssr:stedsnr" v="970400" />
	</node>
	<node lat="57.17916666447062" lon="8.94166666709493" id="-848">
		<tag k="name" v="Bragerne" />
		<tag k="name:da" v="Bragerne" />
		<tag k="natural" v="shoal" />
		<tag k="place" v="locality" />
		<tag k="ssr:stedsnr" v="970417" />
	</node>
	<node lat="58.23333333492636" lon="11.679166662420366" id="-850">
		<tag k="name" v="Henån" />
		<tag k="name:sv" v="Henån" />
		<tag k="place" v="village" />
		<tag k="ssr:stedsnr" v="970425" />
	</node>
	<node lat="58.80694444550206" lon="11.1888888839487" id="-852">
		<tag k="name" v="Resö" />
		<tag k="name:sv" v="Resö" />
		<tag k="place" v="island" />
		<tag k="ssr:stedsnr" v="970434" />
	</node>
	<node lat="56.92222222175343" lon="8.358333329352273" id="-853">
		<tag k="name" v="Stenbjerg" />
		<tag k="name:da" v="Stenbjerg" />
		<tag k="place" v="village" />
		<tag k="ssr:stedsnr" v="970552" />
	</node>
	<node lat="56.950000001998426" lon="11.933333329125588" id="-858">
		<tag k="name" v="Lilla Middelgrund" />
		<tag k="name:sv" v="Lilla Middelgrund" />
		<tag k="natural" v="shoal" />
		<tag k="place" v="locality" />
		<tag k="ssr:stedsnr" v="970566" />
	</node>
</osm>
