<?xml version="1.0" encoding="UTF-8"?>
<osm generator="osmapis" version="0.6">
	<node id="-151740" lat="61.106716663" lon="9.01136944731">
		<tag k="alt_name" v="Slidreåsvegen" />
		<tag k="fixme" v="consider highway=path" />
		<tag k="highway" v="track" />
		<tag k="name" v="Slidrevegen" />
		<tag k="ssr:stedsnr" v="357337" />
	</node>
	<node id="-151738" lat="61.1146666655" lon="8.91903610551">
		<tag k="bridge" v="yes" />
		<tag k="layer" v="1" />
		<tag k="name" v="Hauge" />
		<tag k="ssr:stedsnr" v="349264" />
	</node>
	<node id="-152564" lat="61.0624361147" lon="8.99439722124">
		<tag k="bridge" v="yes" />
		<tag k="layer" v="1" />
		<tag k="name" v="Mo" />
		<tag k="ssr:stedsnr" v="714192" />
	</node>
	<node id="-152406" lat="61.0872694404" lon="8.88807500367">
		<tag k="junction" v="yes" />
		<tag k="name" v="Fjellstølkrysset" />
		<tag k="place" v="locality" />
		<tag k="ssr:stedsnr" v="587428" />
	</node>
	<node id="-151829" lat="61.0404749975" lon="9.01074722726">
		<tag k="bridge" v="yes" />
		<tag k="layer" v="1" />
		<tag k="name" v="Øybekken" />
		<tag k="ssr:stedsnr" v="410234" />
	</node>
	<node id="-152340" lat="61.1433166667" lon="8.91818333198">
		<tag k="highway" v="path" />
		<tag k="name" v="Busestigen" />
		<tag k="ssr:stedsnr" v="524062" />
	</node>
	<node id="-152722" lat="61.0987083312" lon="8.96969721775">
		<tag k="bridge" v="yes" />
		<tag k="layer" v="1" />
		<tag k="name" v="Kongevegen" />
		<tag k="ssr:stedsnr" v="835240" />
	</node>
	<node id="-151665" lat="60.9012361102" lon="8.83370555484">
		<tag k="highway" v="path" />
		<tag k="name" v="Valdresvegen" />
		<tag k="ssr:stedsnr" v="284790" />
	</node>
	<node id="-151952" lat="61.1287055558" lon="8.82258887995">
		<tag k="bridge" v="yes" />
		<tag k="layer" v="1" />
		<tag k="name" v="Høyme" />
		<tag k="ssr:stedsnr" v="46244" />
	</node>
	<node id="-151951" lat="61.0856333378" lon="8.98297777044">
		<tag k="bridge" v="yes" />
		<tag k="layer" v="1" />
		<tag k="name" v="Tingsteinen" />
		<tag k="ssr:stedsnr" v="46242" />
	</node>
	<node id="-151661" lat="61.0078444406" lon="8.84806111109">
		<tag k="highway" v="path" />
		<tag k="name" v="Jaslangstølvegen" />
		<tag k="ssr:stedsnr" v="284656" />
	</node>
	<node id="-152108" lat="61.0348194454" lon="9.17705556449">
		<tag k="bridge" v="yes" />
		<tag k="layer" v="1" />
		<tag k="name" v="Holdalsfoss" />
		<tag k="ssr:stedsnr" v="167243" />
	</node>
	<node id="-152842" lat="61.0727805535" lon="8.99055554665">
		<tag k="bridge" v="yes" />
		<tag k="layer" v="1" />
		<tag k="name" v="Einangsundet" />
		<tag k="ssr:stedsnr" v="956257" />
	</node>
	<node id="-151784" lat="61.1355388931" lon="8.87927778068">
		<tag k="landuse" v="industrial" />
		<tag k="name" v="Lomen kraftstasjon" />
		<tag k="power" v="plant" />
		<tag k="ssr:stedsnr" v="403085" />
	</node>
	<node id="-152194" lat="61.1820249994" lon="8.89630277609">
		<tag k="ford" v="yes" />
		<tag k="name" v="Vade" />
		<tag k="place" v="locality" />
		<tag k="ssr:stedsnr" v="236966" />
	</node>
	<node id="-152020" lat="61.0314666661" lon="8.86277777595">
		<tag k="highway" v="path" />
		<tag k="name" v="Røvangsvegen" />
		<tag k="ssr:stedsnr" v="102489" />
	</node>
</osm>
