<?xml version="1.0" encoding="UTF-8"?>
<osm generator="osmapis" version="0.6">
	<node id="-152234" lat="61.1270749958" lon="8.80503332835">
		<tag k="name" v="Robølsbekken" />
		<tag k="ssr:stedsnr" v="422218" />
		<tag k="waterway" v="stream" />
	</node>
	<node id="-152056" lat="61.1167999959" lon="8.81254999217">
		<tag k="alt_name" v="Høymeåne" />
		<tag k="name" v="Høymeåni" />
		<tag k="ssr:stedsnr" v="128290" />
		<tag k="waterway" v="stream" />
	</node>
	<node id="-152053" lat="61.0552916668" lon="8.82672778277">
		<tag k="alt_name" v="Garvikøddin" />
		<tag k="name" v="Gardvikodden" />
		<tag k="natural" v="cape" />
		<tag k="ssr:stedsnr" v="128353" />
	</node>
	<node id="-152558" lat="60.934261111" lon="8.77084722472">
		<tag k="name" v="Bekkesanden" />
		<tag k="natural" v="beach" />
		<tag k="ssr:stedsnr" v="708750" />
	</node>
	<node id="-152317" lat="61.0016249976" lon="8.76346944215">
		<tag k="alt_name" v="Nestevatnet" />
		<tag k="name" v="Nestesvatnet" />
		<tag k="natural" v="water" />
		<tag k="ssr:stedsnr" v="492393" />
		<tag k="water" v="lake" />
	</node>
	<node id="-152316" lat="61.0782555577" lon="8.79281388552">
		<tag k="alt_name" v="Kårstadåne" />
		<tag k="name" v="Kårstadåni" />
		<tag k="ssr:stedsnr" v="492385" />
		<tag k="waterway" v="stream" />
	</node>
	<node id="-152229" lat="60.9020414782" lon="8.87440032353">
		<tag k="name" v="Veslevatnet" />
		<tag k="natural" v="water" />
		<tag k="ssr:stedsnr" v="252352" />
		<tag k="water" v="lake" />
	</node>
	<node id="-152548" lat="61.1005611088" lon="8.96053888101">
		<tag k="name" v="Hausåkervike" />
		<tag k="natural" v="bay" />
		<tag k="ssr:stedsnr" v="708408" />
	</node>
	<node id="-152034" lat="61.0679916656" lon="8.99331110395">
		<tag k="name" v="Tørstadøddin" />
		<tag k="natural" v="cape" />
		<tag k="ssr:stedsnr" v="102957" />
	</node>
	<node id="-152033" lat="61.0694333344" lon="9.00796944642">
		<tag k="name" v="Kråkenøbbe" />
		<tag k="natural" v="cape" />
		<tag k="ssr:stedsnr" v="102955" />
	</node>
	<node id="-152032" lat="61.0276722264" lon="9.0612083294">
		<tag k="name" v="Hammarsnesnøbbe" />
		<tag k="natural" v="cape" />
		<tag k="ssr:stedsnr" v="102837" />
	</node>
	<node id="-151956" lat="61.1367015673" lon="8.82502563549">
		<tag k="name" v="Ryfossen" />
		<tag k="natural" v="waterfall" />
		<tag k="ssr:stedsnr" v="58264" />
	</node>
	<node id="-151717" lat="61.1033777747" lon="8.95246665978">
		<tag k="name" v="Kremmarvike" />
		<tag k="natural" v="bay" />
		<tag k="ssr:stedsnr" v="344411" />
	</node>
	<node id="-152028" lat="60.9276888865" lon="8.83042221757">
		<tag k="name" v="Væløye" />
		<tag k="place" v="island" />
		<tag k="ssr:stedsnr" v="102791" />
	</node>
	<node id="-152537" lat="60.9104611125" lon="8.86848333237">
		<tag k="name" v="Osbakken" />
		<tag k="natural" v="cape" />
		<tag k="ssr:stedsnr" v="706267" />
	</node>
	<node id="-152536" lat="60.9077166653" lon="8.87538888538">
		<tag k="name" v="Flisa" />
		<tag k="natural" v="bay" />
		<tag k="ssr:stedsnr" v="706265" />
	</node>
	<node id="-152023" lat="61.0150611138" lon="8.94322777498">
		<tag k="name" v="Ulsetbekken" />
		<tag k="ssr:stedsnr" v="102550" />
		<tag k="waterway" v="stream" />
	</node>
	<node id="-152021" lat="61.0587222264" lon="8.9254000029">
		<tag k="name" v="Pyttinge" />
		<tag k="natural" v="bay" />
		<tag k="ssr:stedsnr" v="102494" />
	</node>
	<node id="-152532" lat="60.9369451233" lon="8.80677070976">
		<tag k="fixme" v="multiple name tags, choose one and add the other to alt_name" />
		<tag k="name" v="Flyvatnet;Storfjorden" />
		<tag k="natural" v="water" />
		<tag k="ssr:stedsnr" v="676854" />
		<tag k="water" v="lake" />
	</node>
	<node id="-152531" lat="60.9411889203" lon="8.80026107946">
		<tag k="name" v="Hanafjorden" />
		<tag k="natural" v="bay" />
		<tag k="ssr:stedsnr" v="676848" />
	</node>
	<node id="-152530" lat="60.9204000025" lon="8.77937500163">
		<tag k="alt_name" v="Skruvleåne" />
		<tag k="name" v="Skruvleåni" />
		<tag k="ssr:stedsnr" v="676846" />
		<tag k="waterway" v="stream" />
	</node>
	<node id="-152017" lat="61.0462111124" lon="8.86057222698">
		<tag k="name" v="Syndinosen" />
		<tag k="natural" v="bay" />
		<tag k="ssr:stedsnr" v="102477" />
	</node>
	<node id="-152525" lat="61.0494416669" lon="9.1486388829">
		<tag k="name" v="Lomtjernet" />
		<tag k="natural" v="water" />
		<tag k="old_name" v="Lomtjedn" />
		<tag k="ssr:stedsnr" v="674807" />
	</node>
	<node id="-152007" lat="61.0306611137" lon="8.82743055935">
		<tag k="name" v="Kringeltjern" />
		<tag k="natural" v="water" />
		<tag k="ssr:stedsnr" v="100319" />
	</node>
	<node id="-152517" lat="61.0940305589" lon="8.74623889091">
		<tag k="name" v="Åstadtjernet" />
		<tag k="natural" v="water" />
		<tag k="old_name" v="Åstadtjedn" />
		<tag k="ssr:stedsnr" v="674327" />
	</node>
	<node id="-152728" lat="61.1999305561" lon="8.88674999849">
		<tag k="name" v="Røynisvike" />
		<tag k="natural" v="bay" />
		<tag k="ssr:stedsnr" v="843955" />
	</node>
	<node id="-151996" lat="60.9232861128" lon="8.85006111311">
		<tag k="alt_name" v="Flisøye" />
		<tag k="name" v="Flisøy" />
		<tag k="place" v="islet" />
		<tag k="ssr:stedsnr" v="70346" />
	</node>
	<node id="-151995" lat="60.9972114983" lon="8.95920376069">
		<tag k="name" v="Vasetvatnet" />
		<tag k="natural" v="water" />
		<tag k="ssr:stedsnr" v="70057" />
		<tag k="water" v="lake" />
	</node>
	<node id="-151994" lat="60.939513888" lon="8.76980000197">
		<tag k="alt_name" v="Bukonofjorden" />
		<tag k="name" v="Bukonefjorden" />
		<tag k="natural" v="water" />
		<tag k="ssr:stedsnr" v="69887" />
	</node>
	<node id="-152339" lat="60.989250001" lon="8.73623889071">
		<tag k="alt_name" v="Åni, midtre;Midtre Åne" />
		<tag k="name" v="Midtre Åni" />
		<tag k="ssr:stedsnr" v="494749" />
		<tag k="waterway" v="stream" />
	</node>
	<node id="-151991" lat="60.9255222223" lon="8.81504166812">
		<tag k="name" v="Lomtjernet" />
		<tag k="natural" v="water" />
		<tag k="ssr:stedsnr" v="69873" />
	</node>
	<node id="-151986" lat="61.0038138888" lon="8.74272500196">
		<tag k="alt_name" v="Strøssosen" />
		<tag k="name" v="Strøsosen" />
		<tag k="natural" v="bay" />
		<tag k="ssr:stedsnr" v="68423" />
	</node>
	<node id="-151985" lat="61.0567749986" lon="8.787491663">
		<tag k="name" v="Hulja" />
		<tag k="ssr:stedsnr" v="68403" />
		<tag k="waterway" v="river" />
	</node>
	<node id="-152159" lat="60.963711115" lon="8.89662499734">
		<tag k="name" v="Grisebekken" />
		<tag k="ssr:stedsnr" v="223526" />
		<tag k="waterway" v="stream" />
	</node>
	<node id="-151980" lat="61.0728499989" lon="8.99182499514">
		<tag k="name" v="Einangsundet" />
		<tag k="natural" v="strait" />
		<tag k="ssr:stedsnr" v="68247" />
	</node>
	<node id="-151794" lat="61.1329388858" lon="8.8983527718">
		<tag k="name" v="Høvsvike" />
		<tag k="natural" v="bay" />
		<tag k="ssr:stedsnr" v="405068" />
	</node>
	<node id="-152135" lat="61.0585611154" lon="8.80628055679">
		<tag k="alt_name" v="Kuøddin" />
		<tag k="name" v="Kuodden" />
		<tag k="natural" v="cape" />
		<tag k="ssr:stedsnr" v="189351" />
	</node>
	<node id="-152487" lat="61.0073027755" lon="8.77710276953">
		<tag k="name" v="Killingøyne" />
		<tag k="place" v="islet" />
		<tag k="ssr:stedsnr" v="647647" />
	</node>
	<node id="-152484" lat="61.0046638921" lon="8.89890556051">
		<tag k="name" v="Gilhusbekken" />
		<tag k="ssr:stedsnr" v="647478" />
		<tag k="waterway" v="stream" />
	</node>
	<node id="-151969" lat="61.0112583351" lon="8.87725833648">
		<tag k="name" v="Svartebekk" />
		<tag k="ssr:stedsnr" v="67779" />
		<tag k="waterway" v="stream" />
	</node>
	<node id="-151967" lat="61.0815444441" lon="8.92481111515">
		<tag k="name" v="Skardstølbekken" />
		<tag k="ssr:stedsnr" v="67243" />
		<tag k="waterway" v="stream" />
	</node>
	<node id="-151966" lat="61.0866527793" lon="8.9758194515">
		<tag k="alt_name" v="Prestøyne" />
		<tag k="name" v="Prestøyni" />
		<tag k="place" v="islet" />
		<tag k="ssr:stedsnr" v="67234" />
	</node>
	<node id="-152477" lat="61.0607333325" lon="8.9115638878">
		<tag k="name" v="Meåne" />
		<tag k="ssr:stedsnr" v="647425" />
		<tag k="waterway" v="stream" />
	</node>
	<node id="-152472" lat="60.9943944438" lon="8.98953610921">
		<tag k="alt_name" v="Båtåne" />
		<tag k="name" v="Båtåni" />
		<tag k="ssr:stedsnr" v="616061" />
		<tag k="waterway" v="stream" />
	</node>
	<node id="-152090" lat="61.0665916636" lon="8.87865556179">
		<tag k="name" v="Fiskeløysåne" />
		<tag k="ssr:stedsnr" v="162424" />
		<tag k="waterway" v="stream" />
	</node>
	<node id="-152470" lat="60.9521694453" lon="8.68820555199">
		<tag k="name" v="Larsgardtjernet" />
		<tag k="natural" v="water" />
		<tag k="old_name" v="Larsgardtjednet" />
		<tag k="ssr:stedsnr" v="615852" />
	</node>
	<node id="-152469" lat="60.9442749959" lon="8.92223888293">
		<tag k="alt_name" v="Kinnholtåne" />
		<tag k="name" v="Kinnholtåni" />
		<tag k="ssr:stedsnr" v="615383" />
		<tag k="waterway" v="stream" />
	</node>
	<node id="-152468" lat="60.9582916688" lon="8.91345278116">
		<tag k="name" v="Grønlibekken" />
		<tag k="ssr:stedsnr" v="615116" />
		<tag k="waterway" v="stream" />
	</node>
	<node id="-151955" lat="61.0625722189" lon="9.12046944028">
		<tag k="name" v="Høvdatjernet" />
		<tag k="natural" v="water" />
		<tag k="old_name" v="Høvdatjednet" />
		<tag k="ssr:stedsnr" v="54553" />
	</node>
	<node id="-152465" lat="61.0591333374" lon="8.93751666294">
		<tag k="name" v="Titra" />
		<tag k="ssr:stedsnr" v="613842" />
		<tag k="waterway" v="stream" />
	</node>
	<node id="-152533" lat="60.9838861133" lon="8.90970555704">
		<tag k="alt_name" v="Søre Bjødnhøvdåne;Søre Bjørnhovdåni" />
		<tag k="loc_name" v="Bjørnhovdåne;Søre Bjørnhovdåne" />
		<tag k="name" v="Bjørnhovdåni" />
		<tag k="old_name" v="Bjørnhovdaani" />
		<tag k="ssr:stedsnr" v="677080" />
		<tag k="waterway" v="stream" />
	</node>
	<node id="-152456" lat="61.0113555521" lon="8.77776944904">
		<tag k="alt_name" v="Grønsennvatnet" />
		<tag k="name" v="Grønsenn" />
		<tag k="natural" v="water" />
		<tag k="ssr:stedsnr" v="613427" />
		<tag k="water" v="lake" />
	</node>
	<node id="-152455" lat="61.0070000022" lon="8.82469999233">
		<tag k="name" v="Fletjernet" />
		<tag k="natural" v="water" />
		<tag k="ssr:stedsnr" v="613419" />
	</node>
	<node id="-151702" lat="60.9735083292" lon="8.79452500857">
		<tag k="alt_name" v="Buaråne" />
		<tag k="name" v="Buaråni" />
		<tag k="ssr:stedsnr" v="312736" />
		<tag k="waterway" v="stream" />
	</node>
	<node id="-151934" lat="61.1141777777" lon="8.95154722509">
		<tag k="name" v="Fivenesøddin" />
		<tag k="natural" v="cape" />
		<tag k="ssr:stedsnr" v="41398" />
	</node>
	<node id="-151933" lat="61.0888388862" lon="8.82599166125">
		<tag k="name" v="Svarthamarbekken" />
		<tag k="ssr:stedsnr" v="41312" />
		<tag k="waterway" v="stream" />
	</node>
	<node id="-152443" lat="61.0859000009" lon="8.97361389626">
		<tag k="alt_name" v="Raukøyne" />
		<tag k="name" v="Raukøyni" />
		<tag k="place" v="islet" />
		<tag k="ssr:stedsnr" v="613195" />
	</node>
	<node id="-151929" lat="61.0859583336" lon="8.97117222857">
		<tag k="name" v="Tobba" />
		<tag k="place" v="islet" />
		<tag k="ssr:stedsnr" v="41411" />
	</node>
	<node id="-152439" lat="61.1058944462" lon="8.91221388875">
		<tag k="alt_name" v="Jomsåne" />
		<tag k="name" v="Jomsåni" />
		<tag k="ssr:stedsnr" v="613150" />
		<tag k="waterway" v="stream" />
	</node>
	<node id="-151919" lat="60.9042777749" lon="8.88801388951">
		<tag k="name" v="Ulebekken" />
		<tag k="ssr:stedsnr" v="39221" />
		<tag k="waterway" v="stream" />
	</node>
	<node id="-151698" lat="60.9491771026" lon="8.8886429571">
		<tag k="alt_name" v="Rensennvatnet" />
		<tag k="name" v="Reinsennvatnet" />
		<tag k="natural" v="water" />
		<tag k="ssr:stedsnr" v="312096" />
		<tag k="water" v="lake" />
	</node>
	<node id="-152425" lat="61.0717694448" lon="8.9835999948">
		<tag k="name" v="Olvike" />
		<tag k="natural" v="bay" />
		<tag k="ssr:stedsnr" v="587943" />
	</node>
	<node id="-152422" lat="61.0842972267" lon="9.003941664">
		<tag k="name" v="Einangsbekken" />
		<tag k="ssr:stedsnr" v="587938" />
		<tag k="waterway" v="stream" />
	</node>
	<node id="-151907" lat="61.0666122687" lon="9.12792242604">
		<tag k="alt_name" v="Høvsfjorden" />
		<tag k="name" v="Hovsfjorden" />
		<tag k="natural" v="water" />
		<tag k="ssr:stedsnr" v="7846" />
		<tag k="water" v="lake" />
	</node>
	<node id="-152416" lat="60.9279666648" lon="8.81890278355">
		<tag k="name" v="Timbervike" />
		<tag k="natural" v="bay" />
		<tag k="ssr:stedsnr" v="587782" />
	</node>
	<node id="-152413" lat="60.9497972219" lon="8.69975000783">
		<tag k="name" v="Stubbetjern" />
		<tag k="natural" v="water" />
		<tag k="old_name" v="Stubbetjedn" />
		<tag k="ssr:stedsnr" v="587752" />
	</node>
	<node id="-151899" lat="61.0772500004" lon="8.72639444937">
		<tag k="name" v="Pyttingen" />
		<tag k="natural" v="strait" />
		<tag k="ssr:stedsnr" v="7401" />
	</node>
	<node id="-151898" lat="61.0707444478" lon="8.83327777087">
		<tag k="name" v="Rundetjern" />
		<tag k="natural" v="water" />
		<tag k="old_name" v="Rundelitjernet;Rundetjedn" />
		<tag k="ssr:stedsnr" v="7398" />
	</node>
	<node id="-151897" lat="61.0755111132" lon="8.82630278497">
		<tag k="name" v="Tistruptjernet" />
		<tag k="natural" v="water" />
		<tag k="old_name" v="Tistruptjedn" />
		<tag k="ssr:stedsnr" v="7396" />
	</node>
	<node id="-152497" lat="61.0457888931" lon="9.16855832678">
		<tag k="name" v="Svarthølen" />
		<tag k="place" v="locality" />
		<tag k="ssr:stedsnr" v="661782" />
	</node>
	<node id="-151891" lat="61.0893361126" lon="8.96352499822">
		<tag k="name" v="Sløtet" />
		<tag k="natural" v="cape" />
		<tag k="ssr:stedsnr" v="7213" />
	</node>
	<node id="-152269" lat="60.9464638849" lon="8.90593610832">
		<tag k="alt_name" v="Hølbekken" />
		<tag k="name" v="Holbekken" />
		<tag k="ssr:stedsnr" v="434355" />
		<tag k="waterway" v="stream" />
	</node>
	<node id="-152393" lat="60.9104138871" lon="8.77344167395">
		<tag k="name" v="Skruvletjern" />
		<tag k="natural" v="water" />
		<tag k="ssr:stedsnr" v="554871" />
	</node>
	<node id="-152389" lat="61.0085806203" lon="8.79134491554">
		<tag k="name" v="Pollen" />
		<tag k="natural" v="bay" />
		<tag k="ssr:stedsnr" v="553406" />
	</node>
	<node id="-152382" lat="61.098150003" lon="8.8703388827">
		<tag k="name" v="Havtjernet" />
		<tag k="natural" v="water" />
		<tag k="old_name" v="Havtjedn" />
		<tag k="ssr:stedsnr" v="553139" />
	</node>
	<node id="-152116" lat="61.0806361133" lon="8.71505833568">
		<tag k="name" v="Vergesteinøyne" />
		<tag k="place" v="islet" />
		<tag k="ssr:stedsnr" v="179814" />
	</node>
	<node id="-151848" lat="61.0932944407" lon="8.94470555096">
		<tag k="name" v="Kvednahusbekken" />
		<tag k="ssr:stedsnr" v="891429" />
		<tag k="waterway" v="stream" />
	</node>
	<node id="-152115" lat="61.1622416632" lon="8.86791389658">
		<tag k="name" v="Anglibekken" />
		<tag k="ssr:stedsnr" v="175958" />
		<tag k="waterway" v="stream" />
	</node>
	<node id="-151857" lat="61.0245888863" lon="9.07109444073">
		<tag k="name" v="Katten" />
		<tag k="place" v="islet" />
		<tag k="ssr:stedsnr" v="891838" />
	</node>
	<node id="-151855" lat="60.9398638884" lon="8.7598277797">
		<tag k="name" v="Kjelhaugen" />
		<tag k="place" v="islet" />
		<tag k="ssr:stedsnr" v="891769" />
	</node>
	<node id="-151850" lat="61.0750361143" lon="8.88365833821">
		<tag k="name" v="Markatjern" />
		<tag k="natural" v="water" />
		<tag k="old_name" v="Markatjedn" />
		<tag k="ssr:stedsnr" v="891440" />
	</node>
	<node id="-151849" lat="61.0889083355" lon="8.94815277738">
		<tag k="name" v="Skolandsbekken" />
		<tag k="ssr:stedsnr" v="891437" />
		<tag k="waterway" v="stream" />
	</node>
	<node id="-152360" lat="60.9441333297" lon="8.71882778134">
		<tag k="name" v="Geitøyne" />
		<tag k="place" v="islet" />
		<tag k="ssr:stedsnr" v="526748" />
	</node>
	<node id="-152369" lat="61.0597861108" lon="9.14064444419">
		<tag k="alt_name" v="Høvsføssen" />
		<tag k="name" v="Høvsfossen" />
		<tag k="natural" v="waterfall" />
		<tag k="ssr:stedsnr" v="539519" />
	</node>
	<node id="-152354" lat="61.0922611149" lon="8.86005277641">
		<tag k="name" v="Liastølsåne" />
		<tag k="ssr:stedsnr" v="526410" />
		<tag k="waterway" v="stream" />
	</node>
	<node id="-151840" lat="61.0575694447" lon="8.84354166471">
		<tag k="name" v="Gravabekken" />
		<tag k="ssr:stedsnr" v="889333" />
		<tag k="waterway" v="stream" />
	</node>
	<node id="-152112" lat="61.1351555557" lon="9.01157500355">
		<tag k="name" v="Nørdre Kvitjørdsbekken" />
		<tag k="ssr:stedsnr" v="175273" />
		<tag k="waterway" v="stream" />
	</node>
	<node id="-152347" lat="61.0463749988" lon="8.8446194446">
		<tag k="name" v="Langøddin" />
		<tag k="place" v="islet" />
		<tag k="ssr:stedsnr" v="525351" />
	</node>
	<node id="-151834" lat="61.0580194489" lon="9.14976667153">
		<tag k="name" v="Ungulshølen" />
		<tag k="place" v="locality" />
		<tag k="ssr:stedsnr" v="478553" />
	</node>
	<node id="-152851" lat="61.1250944414" lon="8.83985277192">
		<tag k="name" v="Ristebekken" />
		<tag k="ssr:stedsnr" v="968249" />
		<tag k="waterway" v="stream" />
	</node>
	<node id="-152338" lat="60.9553833295" lon="8.7302249925">
		<tag k="name" v="Reinebekken" />
		<tag k="ssr:stedsnr" v="494730" />
		<tag k="waterway" v="stream" />
	</node>
	<node id="-151824" lat="61.0460277744" lon="9.00416388024">
		<tag k="name" v="Semelengsbekken" />
		<tag k="ssr:stedsnr" v="405900" />
		<tag k="waterway" v="stream" />
	</node>
	<node id="-152333" lat="61.0600305537" lon="8.9202861075">
		<tag k="alt_name" v="Hamristjernet, søre" />
		<tag k="name" v="Søre Hamristjernet" />
		<tag k="natural" v="water" />
		<tag k="old_name" v="Hamristjedn" />
		<tag k="ssr:stedsnr" v="492871" />
	</node>
	<node id="-152844" lat="61.1529055592" lon="9.01006943581">
		<tag k="name" v="Flakadammen" />
		<tag k="natural" v="water" />
		<tag k="ssr:stedsnr" v="964215" />
	</node>
	<node id="-152843" lat="61.1511805568" lon="9.01053611013">
		<tag k="name" v="Kvålsvike" />
		<tag k="natural" v="bay" />
		<tag k="ssr:stedsnr" v="964213" />
	</node>
	<node id="-151817" lat="60.9055361112" lon="8.82547500132">
		<tag k="name" v="Fossheimstølbekken" />
		<tag k="ssr:stedsnr" v="405771" />
		<tag k="waterway" v="stream" />
	</node>
	<node id="-151816" lat="60.9418944471" lon="8.71747500374">
		<tag k="name" v="Lomøyne" />
		<tag k="place" v="islet" />
		<tag k="ssr:stedsnr" v="405759" />
	</node>
	<node id="-152767" lat="60.9778527752" lon="8.97258055433">
		<tag k="name" v="Saubekken" />
		<tag k="ssr:stedsnr" v="859077" />
		<tag k="waterway" v="stream" />
	</node>
	<node id="-151807" lat="61.0655444475" lon="8.89927222895">
		<tag k="name" v="Grokinnåne" />
		<tag k="ssr:stedsnr" v="405435" />
		<tag k="waterway" v="stream" />
	</node>
	<node id="-152829" lat="60.9787111132" lon="8.88877499314">
		<tag k="name" v="Bjødnhøvdtjernet" />
		<tag k="natural" v="water" />
		<tag k="ssr:stedsnr" v="951500" />
	</node>
	<node id="-152828" lat="61.0522305524" lon="8.91209166263">
		<tag k="name" v="Fiviltjern" />
		<tag k="natural" v="water" />
		<tag k="old_name" v="Fiviltjedn" />
		<tag k="ssr:stedsnr" v="951435" />
	</node>
	<node id="-152818" lat="61.1295583348" lon="8.91626388952">
		<tag k="name" v="Lomisøyne" />
		<tag k="place" v="islet" />
		<tag k="ssr:stedsnr" v="951076" />
	</node>
	<node id="-152289" lat="60.9840277798" lon="8.81476388263">
		<tag k="name" v="Mosbekken" />
		<tag k="ssr:stedsnr" v="466659" />
		<tag k="waterway" v="stream" />
	</node>
	<node id="-152815" lat="61.0195861079" lon="9.07912500519">
		<tag k="name" v="Geitøyne" />
		<tag k="place" v="island" />
		<tag k="ssr:stedsnr" v="949821" />
	</node>
	<node id="-151789" lat="61.0218388851" lon="8.84376943907">
		<tag k="name" v="Svartebekk" />
		<tag k="ssr:stedsnr" v="403321" />
		<tag k="waterway" v="stream" />
	</node>
	<node id="-152811" lat="61.0151194412" lon="9.03375833896">
		<tag k="name" v="Soltjern" />
		<tag k="natural" v="water" />
		<tag k="old_name" v="Soltjedn" />
		<tag k="ssr:stedsnr" v="949235" />
	</node>
	<node id="-152298" lat="61.0672277811" lon="8.72221667585">
		<tag k="name" v="Bakkeåne" />
		<tag k="ssr:stedsnr" v="482809" />
		<tag k="waterway" v="stream" />
	</node>
	<node id="-152808" lat="60.938302635" lon="8.73426812111">
		<tag k="name" v="Kvavlin" />
		<tag k="natural" v="water" />
		<tag k="ssr:stedsnr" v="919866" />
	</node>
	<node id="-152806" lat="60.930355554" lon="8.87257222269">
		<tag k="fixme" v="multiple name tags, choose one and add the other to alt_name" />
		<tag k="name" v="Flisa;Reina" />
		<tag k="ssr:stedsnr" v="919625" />
		<tag k="waterway" v="river" />
	</node>
	<node id="-152801" lat="61.0599527758" lon="8.97175000464">
		<tag k="alt_name" v="Mosåne" />
		<tag k="name" v="Mosåni" />
		<tag k="ssr:stedsnr" v="917853" />
		<tag k="waterway" v="river" />
	</node>
	<node id="-151776" lat="60.9275361087" lon="8.73054999626">
		<tag k="name" v="Raudbekken" />
		<tag k="ssr:stedsnr" v="372873" />
		<tag k="waterway" v="stream" />
	</node>
	<node id="-151760" lat="61.0772777778" lon="8.97808610218">
		<tag k="alt_name" v="Slidreøyi;Øyne" />
		<tag k="name" v="Slidreøyne" />
		<tag k="place" v="island" />
		<tag k="ssr:stedsnr" v="371233" />
	</node>
	<node id="-152284" lat="61.1314388894" lon="8.90515833887">
		<tag k="name" v="Nøbben" />
		<tag k="natural" v="cape" />
		<tag k="ssr:stedsnr" v="466077" />
	</node>
	<node id="-152810" lat="60.9679166682" lon="8.85984443836">
		<tag k="name" v="Svartbekken" />
		<tag k="ssr:stedsnr" v="920120" />
		<tag k="waterway" v="stream" />
	</node>
	<node id="-151768" lat="61.0170555551" lon="8.89625277207">
		<tag k="name" v="Rassvæta" />
		<tag k="ssr:stedsnr" v="371783" />
		<tag k="waterway" v="stream" />
	</node>
	<node id="-151766" lat="61.0019916674" lon="9.0287499932">
		<tag k="alt_name" v="Syndeiselve" />
		<tag k="fixme" v="multiple name tags, choose one and add the other to alt_name" />
		<tag k="name" v="Sundheimselvi;Vasetåne" />
		<tag k="ssr:stedsnr" v="371770" />
		<tag k="waterway" v="river" />
	</node>
	<node id="-152273" lat="61.128027775" lon="8.93293889801">
		<tag k="name" v="Juvike" />
		<tag k="natural" v="bay" />
		<tag k="ssr:stedsnr" v="464096" />
	</node>
	<node id="-152784" lat="61.0647249991" lon="8.76051667348">
		<tag k="alt_name" v="Skjeret" />
		<tag k="name" v="Skjæret" />
		<tag k="place" v="islet" />
		<tag k="ssr:stedsnr" v="917369" />
	</node>
	<node id="-152270" lat="61.1214583297" lon="8.915330554">
		<tag k="name" v="Viken" />
		<tag k="natural" v="bay" />
		<tag k="ssr:stedsnr" v="463363" />
	</node>
	<node id="-152781" lat="61.1220333372" lon="8.78827776936">
		<tag k="name" v="Åstadbekken" />
		<tag k="ssr:stedsnr" v="917286" />
		<tag k="waterway" v="stream" />
	</node>
	<node id="-152268" lat="60.9349055598" lon="8.74475276923">
		<tag k="name" v="Feodden" />
		<tag k="natural" v="cape" />
		<tag k="ssr:stedsnr" v="433878" />
	</node>
	<node id="-152266" lat="60.9379249984" lon="8.76399166061">
		<tag k="alt_name" v="Geitøye" />
		<tag k="name" v="Geitøyi" />
		<tag k="place" v="islet" />
		<tag k="ssr:stedsnr" v="433866" />
	</node>
	<node id="-151708" lat="61.0520388858" lon="9.16924721594">
		<tag k="name" v="Øystre Slidreåne" />
		<tag k="ssr:stedsnr" v="331794" />
		<tag k="waterway" v="river" />
	</node>
	<node id="-152773" lat="61.1423305588" lon="8.98511388439">
		<tag k="name" v="Bjersetbekken" />
		<tag k="ssr:stedsnr" v="904285" />
		<tag k="waterway" v="stream" />
	</node>
	<node id="-152259" lat="61.0367111081" lon="8.99942500847">
		<tag k="alt_name" v="Øyebekken;Øyejili" />
		<tag k="name" v="Øyegili" />
		<tag k="ssr:stedsnr" v="432799" />
		<tag k="waterway" v="stream" />
	</node>
	<node id="-152257" lat="61.0366750006" lon="8.85013610768">
		<tag k="name" v="Lomtjernet" />
		<tag k="natural" v="water" />
		<tag k="ssr:stedsnr" v="432787" />
	</node>
	<node id="-152768" lat="60.9689944412" lon="8.9480222237">
		<tag k="name" v="Langebergsvatnet" />
		<tag k="natural" v="water" />
		<tag k="ssr:stedsnr" v="859093" />
	</node>
	<node id="-151743" lat="61.1362694452" lon="8.82616389637">
		<tag k="name" v="Lofoss" />
		<tag k="natural" v="waterfall" />
		<tag k="ssr:stedsnr" v="361247" />
	</node>
	<node id="-152254" lat="61.0265194417" lon="8.76793055614">
		<tag k="name" v="Lengja" />
		<tag k="ssr:stedsnr" v="432402" />
		<tag k="waterway" v="stream" />
	</node>
	<node id="-152253" lat="61.013475004" lon="8.74668055203">
		<tag k="name" v="Skardtjernet" />
		<tag k="natural" v="water" />
		<tag k="ssr:stedsnr" v="432400" />
	</node>
	<node id="-152252" lat="61.0067500021" lon="8.79379722323">
		<tag k="name" v="Kjempebekken" />
		<tag k="ssr:stedsnr" v="432389" />
		<tag k="waterway" v="stream" />
	</node>
	<node id="-152763" lat="60.9296972264" lon="8.68542500103">
		<tag k="name" v="Ytretjern" />
		<tag k="natural" v="water" />
		<tag k="ssr:stedsnr" v="858871" />
	</node>
	<node id="-152761" lat="61.0651027796" lon="8.95427499277">
		<tag k="name" v="Geitebekk" />
		<tag k="ssr:stedsnr" v="857872" />
		<tag k="waterway" v="stream" />
	</node>
	<node id="-152760" lat="61.0375250025" lon="8.77118055982">
		<tag k="loc_name" v="Svultatjernet" />
		<tag k="name" v="Svulttjernet" />
		<tag k="natural" v="water" />
		<tag k="ssr:stedsnr" v="857447" />
	</node>
	<node id="-152759" lat="61.0630583342" lon="8.76692500447">
		<tag k="alt_name" v="Sandøddin" />
		<tag k="name" v="Sandodden" />
		<tag k="natural" v="cape" />
		<tag k="ssr:stedsnr" v="857414" />
	</node>
	<node id="-151734" lat="60.9363416697" lon="8.75471388052">
		<tag k="name" v="Kyrhaugen" />
		<tag k="place" v="islet" />
		<tag k="ssr:stedsnr" v="344775" />
	</node>
	<node id="-152756" lat="61.0515472213" lon="8.82919721945">
		<tag k="alt_name" v="Syndin, søre" />
		<tag k="name" v="Søre Syndin" />
		<tag k="natural" v="water" />
		<tag k="ssr:stedsnr" v="857410" />
		<tag k="water" v="lake" />
	</node>
	<node id="-152754" lat="61.1069249966" lon="8.9462527713">
		<tag k="name" v="Viksundet" />
		<tag k="natural" v="strait" />
		<tag k="ssr:stedsnr" v="857196" />
	</node>
	<node id="-151647" lat="61.0515611106" lon="8.75937222633">
		<tag k="name" v="Hølbekken" />
		<tag k="ssr:stedsnr" v="282319" />
		<tag k="waterway" v="stream" />
	</node>
	<node id="-151724" lat="61.0946777814" lon="8.95515000572">
		<tag k="name" v="Nøbbe" />
		<tag k="natural" v="cape" />
		<tag k="ssr:stedsnr" v="344428" />
	</node>
	<node id="-152746" lat="61.0341166659" lon="9.04426943821">
		<tag k="name" v="Ferisfjorden" />
		<tag k="natural" v="water" />
		<tag k="ssr:stedsnr" v="856804" />
	</node>
	<node id="-151718" lat="61.1141777747" lon="8.94284722031">
		<tag k="name" v="Nøbben" />
		<tag k="natural" v="cape" />
		<tag k="ssr:stedsnr" v="344410" />
	</node>
	<node id="-152741" lat="61.0192916708" lon="9.07425555123">
		<tag k="name" v="Geitøyni" />
		<tag k="place" v="islet" />
		<tag k="ssr:stedsnr" v="856792" />
	</node>
	<node id="-152226" lat="60.9410750009" lon="8.81730556439">
		<tag k="alt_name" v="Storøye" />
		<tag k="name" v="Storøyi" />
		<tag k="place" v="islet" />
		<tag k="ssr:stedsnr" v="251897" />
	</node>
	<node id="-152225" lat="60.9867999988" lon="8.74084999659">
		<tag k="alt_name" v="Åni, s;Søre Åne" />
		<tag k="name" v="Søre Åni" />
		<tag k="ssr:stedsnr" v="251800" />
		<tag k="waterway" v="stream" />
	</node>
	<node id="-152221" lat="61.0618361146" lon="8.90588889043">
		<tag k="alt_name" v="Hamristjernet, nordre" />
		<tag k="name" v="Nørdre Hamristjernet" />
		<tag k="natural" v="water" />
		<tag k="old_name" v="Hamristjedn" />
		<tag k="ssr:stedsnr" v="250854" />
	</node>
	<node id="-152732" lat="61.1260277774" lon="8.89276111836">
		<tag k="name" v="Slidrefjorden" />
		<tag k="natural" v="water" />
		<tag k="ssr:stedsnr" v="856100" />
		<tag k="water" v="lake" />
	</node>
	<node id="-152219" lat="61.1069888879" lon="8.78928610413">
		<tag k="alt_name" v="Høymisåne" />
		<tag k="name" v="Høymeåni" />
		<tag k="ssr:stedsnr" v="250457" />
		<tag k="waterway" v="stream" />
	</node>
	<node id="-152218" lat="61.1271416687" lon="8.90916388739">
		<tag k="fixme" v="multiple name tags, choose one and add the other to alt_name" />
		<tag k="name" v="Gardvikodden;Neset" />
		<tag k="natural" v="cape" />
		<tag k="ssr:stedsnr" v="250452" />
	</node>
	<node id="-152216" lat="61.1067583339" lon="8.89156389253">
		<tag k="name" v="Havtjernbekken" />
		<tag k="old_name" v="Havtjednbekken" />
		<tag k="ssr:stedsnr" v="250156" />
		<tag k="waterway" v="stream" />
	</node>
	<node id="-151703" lat="60.9900973419" lon="8.77376367109">
		<tag k="alt_name" v="Movatn" />
		<tag k="name" v="Mosvatnet" />
		<tag k="natural" v="water" />
		<tag k="ssr:stedsnr" v="312745" />
		<tag k="water" v="lake" />
	</node>
	<node id="-152726" lat="61.0614388892" lon="9.13410833255">
		<tag k="name" v="Syndet" />
		<tag k="natural" v="strait" />
		<tag k="ssr:stedsnr" v="843557" />
	</node>
	<node id="-152725" lat="61.0685861082" lon="9.11656944389">
		<tag k="name" v="Isøddin" />
		<tag k="natural" v="cape" />
		<tag k="ssr:stedsnr" v="843556" />
	</node>
	<node id="-152724" lat="61.1033083306" lon="8.98923611566">
		<tag k="name" v="Fulkjisbekken" />
		<tag k="ssr:stedsnr" v="843337" />
		<tag k="waterway" v="stream" />
	</node>
	<node id="-152210" lat="61.0605527778" lon="8.96672500375">
		<tag k="name" v="Trillefossen" />
		<tag k="natural" v="waterfall" />
		<tag k="ssr:stedsnr" v="249851" />
	</node>
	<node id="-151697" lat="61.0592555568" lon="8.88844999666">
		<tag k="name" v="Preststøltjernet" />
		<tag k="natural" v="water" />
		<tag k="old_name" v="Preststølstjedn" />
		<tag k="ssr:stedsnr" v="310840" />
	</node>
	<node id="-151692" lat="61.0791638878" lon="8.82000000419">
		<tag k="name" v="Duratjernet" />
		<tag k="natural" v="water" />
		<tag k="old_name" v="Duratjedn" />
		<tag k="ssr:stedsnr" v="310402" />
	</node>
	<node id="-152712" lat="60.9337944406" lon="8.70055278552">
		<tag k="name" v="Nedre Trølltjern" />
		<tag k="natural" v="water" />
		<tag k="old_name" v="Nedre Trølltjedn" />
		<tag k="ssr:stedsnr" v="830764" />
	</node>
	<node id="-152710" lat="60.98338333" lon="8.78453333669">
		<tag k="name" v="Geitøyne" />
		<tag k="place" v="island" />
		<tag k="ssr:stedsnr" v="830654" />
	</node>
	<node id="-151684" lat="61.1231416662" lon="8.92968611068">
		<tag k="alt_name" v="Augeimsøyne" />
		<tag k="name" v="Augeimsøyni" />
		<tag k="place" v="island" />
		<tag k="ssr:stedsnr" v="310131" />
	</node>
	<node id="-151679" lat="61.130538892" lon="8.86120000355">
		<tag k="alt_name" v="Kårstadøyne" />
		<tag k="name" v="Kårstadøyni" />
		<tag k="place" v="islet" />
		<tag k="ssr:stedsnr" v="310103" />
	</node>
	<node id="-152701" lat="61.0169749997" lon="9.0857638872">
		<tag k="name" v="Jutulhatten" />
		<tag k="place" v="islet" />
		<tag k="ssr:stedsnr" v="828816" />
	</node>
	<node id="-152697" lat="61.0276305562" lon="8.78898611135">
		<tag k="name" v="Kroktjern" />
		<tag k="natural" v="water" />
		<tag k="ssr:stedsnr" v="828356" />
	</node>
	<node id="-152184" lat="61.0487583325" lon="9.02496667243">
		<tag k="name" v="Fløytehagelandet" />
		<tag k="natural" v="beach" />
		<tag k="ssr:stedsnr" v="223904" />
	</node>
	<node id="-152183" lat="61.0303055553" lon="9.05695555043">
		<tag k="name" v="Bryggjenøbbe" />
		<tag k="natural" v="cape" />
		<tag k="ssr:stedsnr" v="223853" />
	</node>
	<node id="-151670" lat="61.0610999962" lon="9.00321389107">
		<tag k="name" v="Dalbøbekken" />
		<tag k="ssr:stedsnr" v="284973" />
		<tag k="waterway" v="stream" />
	</node>
	<node id="-151913" lat="60.942061108" lon="8.67024445167">
		<tag k="alt_name" v="Lægeråne" />
		<tag k="name" v="Lægeråni" />
		<tag k="ssr:stedsnr" v="9860" />
		<tag k="waterway" v="stream" />
	</node>
	<node id="-152180" lat="60.9383749995" lon="8.79388056013">
		<tag k="name" v="Trugan" />
		<tag k="natural" v="cape" />
		<tag k="ssr:stedsnr" v="223775" />
	</node>
	<node id="-151666" lat="60.911897218" lon="8.80357221324">
		<tag k="name" v="Klauvhaugbekken" />
		<tag k="ssr:stedsnr" v="284801" />
		<tag k="waterway" v="stream" />
	</node>
	<node id="-152689" lat="60.9335999964" lon="8.88639723015">
		<tag k="name" v="Flåbekken" />
		<tag k="ssr:stedsnr" v="798372" />
		<tag k="waterway" v="stream" />
	</node>
	<node id="-151663" lat="60.9625916709" lon="8.69704999837">
		<tag k="name" v="Høllabekkadn" />
		<tag k="ssr:stedsnr" v="284776" />
		<tag k="waterway" v="stream" />
	</node>
	<node id="-152174" lat="60.9978944465" lon="8.97013334249">
		<tag k="name" v="Styttenes" />
		<tag k="natural" v="cape" />
		<tag k="ssr:stedsnr" v="223494" />
	</node>
	<node id="-152173" lat="60.9991681928" lon="8.95066840708">
		<tag k="name" v="Langeøddin" />
		<tag k="natural" v="cape" />
		<tag k="ssr:stedsnr" v="223495" />
	</node>
	<node id="-151660" lat="61.0255777811" lon="9.06886110887">
		<tag k="name" v="Kvitøyne" />
		<tag k="place" v="islet" />
		<tag k="ssr:stedsnr" v="284860" />
	</node>
	<node id="-152168" lat="61.0576083372" lon="8.87566667437">
		<tag k="name" v="Lortetjernet" />
		<tag k="natural" v="water" />
		<tag k="old_name" v="Lortetjednet" />
		<tag k="ssr:stedsnr" v="223435" />
	</node>
	<node id="-152676" lat="61.1255555531" lon="8.78481945313">
		<tag k="alt_name" v="Brekkeåne" />
		<tag k="name" v="Brekkåni" />
		<tag k="ssr:stedsnr" v="796319" />
		<tag k="waterway" v="stream" />
	</node>
	<node id="-151910" lat="60.9592027769" lon="8.95972500201">
		<tag k="name" v="Rundtjernet" />
		<tag k="natural" v="water" />
		<tag k="old_name" v="Rundtjednet" />
		<tag k="ssr:stedsnr" v="9092" />
	</node>
	<node id="-152162" lat="60.9357138875" lon="8.90309722088">
		<tag k="name" v="Lomtjern" />
		<tag k="natural" v="water" />
		<tag k="ssr:stedsnr" v="223266" />
	</node>
	<node id="-151648" lat="61.0467250021" lon="8.83642499623">
		<tag k="name" v="Bergaøddin" />
		<tag k="natural" v="cape" />
		<tag k="ssr:stedsnr" v="282323" />
	</node>
	<node id="-152671" lat="61.0870194417" lon="9.04864166643">
		<tag k="name" v="Bergstjernet" />
		<tag k="natural" v="water" />
		<tag k="old_name" v="Bergstjedn" />
		<tag k="ssr:stedsnr" v="796207" />
	</node>
	<node id="-151643" lat="61.0026527781" lon="9.00818611607">
		<tag k="name" v="Vatninge" />
		<tag k="ssr:stedsnr" v="284212" />
		<tag k="waterway" v="stream" />
	</node>
	<node id="-152666" lat="61.1162194423" lon="8.98411111647">
		<tag k="name" v="Hjellebekken" />
		<tag k="ssr:stedsnr" v="796142" />
		<tag k="waterway" v="stream" />
	</node>
	<node id="-152151" lat="60.9601025354" lon="8.80521798632">
		<tag k="alt_name" v="Svenskefjorden" />
		<tag k="name" v="Svensken" />
		<tag k="natural" v="water" />
		<tag k="ssr:stedsnr" v="191715" />
	</node>
	<node id="-151737" lat="61.0437555563" lon="9.02416388912">
		<tag k="name" v="Ulvisbekken" />
		<tag k="ssr:stedsnr" v="344884" />
		<tag k="waterway" v="stream" />
	</node>
	<node id="-152148" lat="60.9821638867" lon="8.77322500015">
		<tag k="name" v="Matkista" />
		<tag k="natural" v="water" />
		<tag k="ssr:stedsnr" v="190796" />
	</node>
	<node id="-152659" lat="61.0765750012" lon="8.7381916697">
		<tag k="name" v="Veslefjorden" />
		<tag k="natural" v="bay" />
		<tag k="ssr:stedsnr" v="786825" />
	</node>
	<node id="-152140" lat="61.0332027751" lon="8.9036027789">
		<tag k="alt_name" v="Krokåne" />
		<tag k="name" v="Krokåni" />
		<tag k="ssr:stedsnr" v="189775" />
		<tag k="waterway" v="river" />
	</node>
	<node id="-152137" lat="61.0078555513" lon="8.74077222186">
		<tag k="alt_name" v="Strøsstjernet;Strøssetjern" />
		<tag k="name" v="Strøstjernet" />
		<tag k="natural" v="water" />
		<tag k="ssr:stedsnr" v="189396" />
	</node>
	<node id="-152136" lat="61.0683555539" lon="8.74904444423">
		<tag k="alt_name" v="Syndin, midtre" />
		<tag k="name" v="Midtre Syndin" />
		<tag k="natural" v="water" />
		<tag k="ssr:stedsnr" v="189370" />
		<tag k="water" v="lake" />
	</node>
	<node id="-152332" lat="61.0663583336" lon="8.89188610901">
		<tag k="name" v="Grokinntjernet" />
		<tag k="natural" v="water" />
		<tag k="old_name" v="Grokinntjedn" />
		<tag k="ssr:stedsnr" v="492866" />
	</node>
	<node id="-152646" lat="61.042922219" lon="9.04233889788">
		<tag k="name" v="Skuteøddin" />
		<tag k="natural" v="cape" />
		<tag k="ssr:stedsnr" v="769893" />
	</node>
	<node id="-152758" lat="61.0578888847" lon="8.82056388972">
		<tag k="alt_name" v="Myreøddin" />
		<tag k="name" v="Myrodden" />
		<tag k="natural" v="cape" />
		<tag k="ssr:stedsnr" v="857412" />
	</node>
	<node id="-152642" lat="60.9298194424" lon="8.80933888013">
		<tag k="name" v="Albogen" />
		<tag k="natural" v="cape" />
		<tag k="ssr:stedsnr" v="769752" />
	</node>
	<node id="-152637" lat="61.0112722249" lon="8.74392778591">
		<tag k="name" v="Skardtjernbekken" />
		<tag k="ssr:stedsnr" v="769671" />
		<tag k="waterway" v="stream" />
	</node>
	<node id="-152633" lat="61.0093361115" lon="8.78149166229">
		<tag k="name" v="Torgardøyne" />
		<tag k="place" v="islet" />
		<tag k="ssr:stedsnr" v="769633" />
	</node>
	<node id="-152632" lat="61.0080334873" lon="8.77252879109">
		<tag k="name" v="Dyrlegervike" />
		<tag k="natural" v="bay" />
		<tag k="ssr:stedsnr" v="769634" />
	</node>
	<node id="-152244" lat="61.1625166651" lon="8.91240834175">
		<tag k="name" v="Hyggjande" />
		<tag k="ssr:stedsnr" v="432033" />
		<tag k="waterway" v="river" />
	</node>
	<node id="-151669" lat="61.0926083351" lon="8.98578889082">
		<tag k="name" v="Prestegårdsbekken" />
		<tag k="ssr:stedsnr" v="284958" />
		<tag k="waterway" v="stream" />
	</node>
	<node id="-152627" lat="60.9976666697" lon="8.89317500698">
		<tag k="name" v="Barbrotjerne" />
		<tag k="natural" v="water" />
		<tag k="ssr:stedsnr" v="769489" />
		<tag k="water" v="lake" />
	</node>
	<node id="-152625" lat="61.0599027735" lon="8.89849721692">
		<tag k="name" v="Ulastølsbekken" />
		<tag k="ssr:stedsnr" v="769428" />
		<tag k="waterway" v="stream" />
	</node>
	<node id="-152624" lat="61.0947833352" lon="8.91105000537">
		<tag k="name" v="Langemyrbekken" />
		<tag k="ssr:stedsnr" v="769424" />
		<tag k="waterway" v="stream" />
	</node>
	<node id="-152621" lat="60.9417805591" lon="8.9459944409">
		<tag k="name" v="Fløto" />
		<tag k="place" v="locality" />
		<tag k="ssr:stedsnr" v="769257" />
	</node>
	<node id="-152613" lat="60.8970305542" lon="8.88913611063">
		<tag k="name" v="Osen" />
		<tag k="natural" v="bay" />
		<tag k="ssr:stedsnr" v="767265" />
	</node>
	<node id="-152612" lat="60.9306527806" lon="8.69777777973">
		<tag k="alt_name" v="Trølla" />
		<tag k="name" v="Trolla" />
		<tag k="ssr:stedsnr" v="737869" />
		<tag k="waterway" v="stream" />
	</node>
	<node id="-152611" lat="60.9930972243" lon="8.89755278451">
		<tag k="alt_name" v="Nørdre Bjødnhøvdåne;Røvshalinåe" />
		<tag k="fixme" v="multiple name tags, choose one and add the other to alt_name" />
		<tag k="loc_name" v="Nørdre Bjørnhovdåne" />
		<tag k="name" v="Revshalåni;Nørdre Bjørnhovdåni" />
		<tag k="old_name" v="Revshalinaani" />
		<tag k="ssr:stedsnr" v="737050" />
		<tag k="waterway" v="stream" />
	</node>
	<node id="-152098" lat="60.9498638888" lon="8.69050555585">
		<tag k="name" v="Haugsetøyne" />
		<tag k="place" v="islet" />
		<tag k="ssr:stedsnr" v="162753" />
	</node>
	<node id="-152096" lat="60.9947166676" lon="8.77262500338">
		<tag k="name" v="Kjeslaråne" />
		<tag k="ssr:stedsnr" v="162678" />
		<tag k="waterway" v="stream" />
	</node>
	<node id="-152093" lat="60.9996888876" lon="8.9579111086">
		<tag k="name" v="Langenes" />
		<tag k="natural" v="cape" />
		<tag k="ssr:stedsnr" v="162484" />
	</node>
	<node id="-152602" lat="61.0012055549" lon="8.74962222554">
		<tag k="name" v="Koltjernet" />
		<tag k="natural" v="water" />
		<tag k="ssr:stedsnr" v="735404" />
	</node>
	<node id="-152600" lat="61.055091663" lon="8.72608610499">
		<tag k="alt_name" v="Riståne;Risteåne" />
		<tag k="name" v="Riståni" />
		<tag k="ssr:stedsnr" v="735375" />
		<tag k="waterway" v="stream" />
	</node>
	<node id="-152599" lat="61.1055194461" lon="8.75948610375">
		<tag k="name" v="Vierdokkbekken" />
		<tag k="ssr:stedsnr" v="735361" />
		<tag k="waterway" v="stream" />
	</node>
	<node id="-152082" lat="61.0418000008" lon="8.76212777264">
		<tag k="name" v="Sandbubekken" />
		<tag k="ssr:stedsnr" v="160314" />
		<tag k="waterway" v="stream" />
	</node>
	<node id="-152081" lat="61.0649416711" lon="8.75021388414">
		<tag k="name" v="Audgangsøyne" />
		<tag k="place" v="islet" />
		<tag k="ssr:stedsnr" v="160310" />
	</node>
	<node id="-152078" lat="61.034644444" lon="9.04331111468">
		<tag k="name" v="Ferisøyne" />
		<tag k="place" v="island" />
		<tag k="ssr:stedsnr" v="160068" />
	</node>
	<node id="-152072" lat="61.0692111087" lon="8.86270277291">
		<tag k="loc_name" v="Fiskeløyset" />
		<tag k="name" v="Fiskeløyse" />
		<tag k="natural" v="water" />
		<tag k="old_name" v="Fiskeløysa" />
		<tag k="ssr:stedsnr" v="128868" />
		<tag k="water" v="lake" />
	</node>
</osm>
