<?xml version="1.0" encoding="UTF-8"?>
<osm generator="osmapis" version="0.6">
	<node id="-151808" lat="61.0460916643" lon="8.91720833057">
		<tag k="name" v="Knippesethøgde" />
		<tag k="natural" v="hill" />
		<tag k="place" v="locality" />
		<tag k="ssr:stedsnr" v="405449" />
	</node>
	<node id="-152571" lat="61.1303000001" lon="9.00596944389">
		<tag k="name" v="Julsonlie" />
		<tag k="natural" v="slope" />
		<tag k="place" v="locality" />
		<tag k="ssr:stedsnr" v="722280" />
	</node>
	<node id="-152570" lat="61.150269447" lon="8.97315556185">
		<tag k="name" v="Løkjislie" />
		<tag k="natural" v="slope" />
		<tag k="place" v="locality" />
		<tag k="ssr:stedsnr" v="721776" />
	</node>
	<node id="-152569" lat="61.1468111098" lon="8.92867499361">
		<tag k="fixme" v="consider natural=peak for the most distinct mountains in the district" />
		<tag k="name" v="Lomisåsen" />
		<tag k="natural" v="hill" />
		<tag k="place" v="locality" />
		<tag k="ssr:stedsnr" v="721775" />
	</node>
	<node id="-152052" lat="61.0741111137" lon="8.92529165887">
		<tag k="name" v="Marsteinfeti" />
		<tag k="natural" v="plateau" />
		<tag k="ssr:stedsnr" v="128191" />
	</node>
	<node id="-152051" lat="61.084116665" lon="8.93335000217">
		<tag k="name" v="Bjørnadalen" />
		<tag k="natural" v="valley" />
		<tag k="place" v="locality" />
		<tag k="ssr:stedsnr" v="128187" />
	</node>
	<node id="-152555" lat="60.9980722247" lon="8.74714444805">
		<tag k="name" v="Kvitehaugen" />
		<tag k="natural" v="hill" />
		<tag k="place" v="locality" />
		<tag k="ssr:stedsnr" v="708666" />
	</node>
	<node id="-152042" lat="61.1196833289" lon="8.92655834198">
		<tag k="fixme" v="consider natural=peak for the most distinct mountains in the district" />
		<tag k="name" v="Augeimsåsen" />
		<tag k="natural" v="hill" />
		<tag k="place" v="locality" />
		<tag k="ssr:stedsnr" v="128089" />
	</node>
	<node id="-152035" lat="61.0608777788" lon="9.03380276932">
		<tag k="name" v="Reiskleive" />
		<tag k="natural" v="slope" />
		<tag k="place" v="locality" />
		<tag k="ssr:stedsnr" v="102978" />
	</node>
	<node id="-152827" lat="61.027675004" lon="8.88203332564">
		<tag k="name" v="Brendehaugen" />
		<tag k="natural" v="hill" />
		<tag k="place" v="locality" />
		<tag k="ssr:stedsnr" v="951433" />
	</node>
	<node id="-152542" lat="61.1316999994" lon="8.90323333249">
		<tag k="name" v="Larseberget" />
		<tag k="natural" v="hill" />
		<tag k="place" v="locality" />
		<tag k="ssr:stedsnr" v="708095" />
	</node>
	<node id="-152540" lat="61.0170222226" lon="8.82751944413">
		<tag k="name" v="Grønsennhøgde" />
		<tag k="natural" v="hill" />
		<tag k="place" v="locality" />
		<tag k="ssr:stedsnr" v="707353" />
	</node>
	<node id="-152058" lat="61.0813861148" lon="8.81240833584">
		<tag k="name" v="Rennefjellet" />
		<tag k="natural" v="hill" />
		<tag k="place" v="locality" />
		<tag k="ssr:stedsnr" v="128328" />
	</node>
	<node id="-152538" lat="61.109002776" lon="8.90325555499">
		<tag k="fixme" v="consider natural=peak for the most distinct mountains in the district" />
		<tag k="name" v="Øyberget" />
		<tag k="natural" v="hill" />
		<tag k="place" v="locality" />
		<tag k="ssr:stedsnr" v="706351" />
	</node>
	<node id="-152534" lat="60.9687805516" lon="8.90356110975">
		<tag k="fixme" v="consider natural=peak for the most distinct mountains in the district" />
		<tag k="name" v="Grønlihovda" />
		<tag k="natural" v="hill" />
		<tag k="place" v="locality" />
		<tag k="ssr:stedsnr" v="677110" />
	</node>
	<node id="-152528" lat="60.9583499993" lon="8.85349999693">
		<tag k="alt_name" v="Noseknipa" />
		<tag k="fixme" v="multiple name tags, choose one and add the other to alt_name; consider natural=peak for the most distinct mountains in the district" />
		<tag k="name" v="Nøsakampen;Noseknippa" />
		<tag k="natural" v="hill" />
		<tag k="place" v="locality" />
		<tag k="ssr:stedsnr" v="676096" />
	</node>
	<node id="-152011" lat="60.9452861123" lon="8.93319721359">
		<tag k="name" v="Langehaugen" />
		<tag k="natural" v="hill" />
		<tag k="place" v="locality" />
		<tag k="ssr:stedsnr" v="102324" />
	</node>
	<node id="-152519" lat="61.0089777762" lon="8.82771945111">
		<tag k="name" v="Grønsennkampen" />
		<tag k="natural" v="hill" />
		<tag k="place" v="locality" />
		<tag k="ssr:stedsnr" v="674388" />
	</node>
	<node id="-152006" lat="61.0021861084" lon="9.00395833239">
		<tag k="name" v="Svedalen" />
		<tag k="natural" v="valley" />
		<tag k="place" v="locality" />
		<tag k="ssr:stedsnr" v="100230" />
	</node>
	<node id="-151998" lat="61.0288055523" lon="9.0835249981">
		<tag k="name" v="Visteberge" />
		<tag k="natural" v="hill" />
		<tag k="place" v="locality" />
		<tag k="ssr:stedsnr" v="99861" />
	</node>
	<node id="-152309" lat="61.0790444446" lon="8.94202222461">
		<tag k="name" v="Olberg" />
		<tag k="natural" v="hill" />
		<tag k="place" v="locality" />
		<tag k="ssr:stedsnr" v="492180" />
	</node>
	<node id="-151990" lat="60.9218749956" lon="8.77235556031">
		<tag k="alt_name" v="Baklie" />
		<tag k="name" v="Baklii" />
		<tag k="natural" v="slope" />
		<tag k="place" v="locality" />
		<tag k="ssr:stedsnr" v="69871" />
	</node>
	<node id="-152499" lat="61.1953416659" lon="8.90416944555">
		<tag k="alt_name" v="Øyangslie" />
		<tag k="name" v="Øyangslii" />
		<tag k="natural" v="slope" />
		<tag k="place" v="locality" />
		<tag k="ssr:stedsnr" v="674006" />
	</node>
	<node id="-152490" lat="60.9224361097" lon="8.74598333145">
		<tag k="name" v="Langeranden" />
		<tag k="natural" v="hill" />
		<tag k="place" v="locality" />
		<tag k="ssr:stedsnr" v="647747" />
	</node>
	<node id="-152489" lat="60.9697833303" lon="8.80041111003">
		<tag k="name" v="Langehaugen" />
		<tag k="natural" v="hill" />
		<tag k="place" v="locality" />
		<tag k="ssr:stedsnr" v="647659" />
	</node>
	<node id="-152488" lat="60.9578138927" lon="8.83916389771">
		<tag k="name" v="Storhaug" />
		<tag k="natural" v="hill" />
		<tag k="place" v="locality" />
		<tag k="ssr:stedsnr" v="647656" />
	</node>
	<node id="-151975" lat="61.1197138903" lon="9.00741111606">
		<tag k="name" v="Kvithovd" />
		<tag k="natural" v="hill" />
		<tag k="place" v="locality" />
		<tag k="ssr:stedsnr" v="68139" />
	</node>
	<node id="-152485" lat="60.9701361081" lon="8.91076111911">
		<tag k="name" v="Grønlihøgda" />
		<tag k="natural" v="hill" />
		<tag k="place" v="locality" />
		<tag k="ssr:stedsnr" v="647506" />
	</node>
	<node id="-151785" lat="60.9223055531" lon="8.8666138835">
		<tag k="name" v="Flisøyne" />
		<tag k="natural" v="hill" />
		<tag k="place" v="locality" />
		<tag k="ssr:stedsnr" v="403231" />
	</node>
	<node id="-152479" lat="61.0467249964" lon="8.89199167238">
		<tag k="name" v="Langehaugen" />
		<tag k="natural" v="hill" />
		<tag k="place" v="locality" />
		<tag k="ssr:stedsnr" v="647435" />
	</node>
	<node id="-152466" lat="61.0690083306" lon="9.0662388979">
		<tag k="fixme" v="consider natural=peak for the most distinct mountains in the district" />
		<tag k="name" v="Reiesåsen" />
		<tag k="natural" v="hill" />
		<tag k="place" v="locality" />
		<tag k="ssr:stedsnr" v="613861" />
	</node>
	<node id="-151947" lat="61.055941671" lon="8.99304444925">
		<tag k="name" v="Bolodalen" />
		<tag k="natural" v="valley" />
		<tag k="place" v="locality" />
		<tag k="ssr:stedsnr" v="41884" />
	</node>
	<node id="-152457" lat="61.0019000036" lon="8.98898056027">
		<tag k="alt_name" v="Vasetbakkadn" />
		<tag k="name" v="Vasetbakkane" />
		<tag k="natural" v="slope" />
		<tag k="place" v="locality" />
		<tag k="ssr:stedsnr" v="613760" />
	</node>
	<node id="-152453" lat="61.0640444446" lon="8.71077777439">
		<tag k="name" v="Hågensgil" />
		<tag k="natural" v="valley" />
		<tag k="place" v="locality" />
		<tag k="ssr:stedsnr" v="613397" />
	</node>
	<node id="-152449" lat="61.0966388917" lon="8.82236665948">
		<tag k="fixme" v="consider natural=peak for the most distinct mountains in the district" />
		<tag k="name" v="Svarthammaren" />
		<tag k="natural" v="hill" />
		<tag k="place" v="locality" />
		<tag k="ssr:stedsnr" v="613364" />
	</node>
	<node id="-151935" lat="60.9886250031" lon="8.81408611341">
		<tag k="name" v="Heimhovda" />
		<tag k="natural" v="hill" />
		<tag k="place" v="locality" />
		<tag k="ssr:stedsnr" v="41644" />
	</node>
	<node id="-151930" lat="61.0819972226" lon="8.9613527759">
		<tag k="name" v="Sodoma" />
		<tag k="place" v="locality" />
		<tag k="ssr:stedsnr" v="41412" />
	</node>
	<node id="-152297" lat="61.097441666" lon="9.01059443956">
		<tag k="name" v="Laukebakke" />
		<tag k="natural" v="slope" />
		<tag k="place" v="locality" />
		<tag k="ssr:stedsnr" v="466993" />
	</node>
	<node id="-152434" lat="61.1750916655" lon="8.88487778444">
		<tag k="alt_name" v="Raniset-høvda" />
		<tag k="name" v="Ranisethovda" />
		<tag k="natural" v="hill" />
		<tag k="place" v="locality" />
		<tag k="ssr:stedsnr" v="613031" />
	</node>
	<node id="-151921" lat="61.109052781" lon="8.91121111264">
		<tag k="name" v="Hesteberget" />
		<tag k="natural" v="hill" />
		<tag k="place" v="locality" />
		<tag k="ssr:stedsnr" v="39316" />
	</node>
	<node id="-151954" lat="61.0248333316" lon="8.74096667045">
		<tag k="alt_name" v="Geiteskardet" />
		<tag k="name" v="Geiteskard" />
		<tag k="natural" v="valley" />
		<tag k="place" v="locality" />
		<tag k="ssr:stedsnr" v="51882" />
	</node>
	<node id="-152426" lat="61.0891499965" lon="8.98042499499">
		<tag k="name" v="Stupuldalen" />
		<tag k="natural" v="valley" />
		<tag k="place" v="locality" />
		<tag k="ssr:stedsnr" v="587948" />
	</node>
	<node id="-152423" lat="61.081949997" lon="8.9969861033">
		<tag k="name" v="Dokke" />
		<tag k="place" v="locality" />
		<tag k="ssr:stedsnr" v="587939" />
	</node>
	<node id="-152421" lat="61.0472499993" lon="9.09359167566">
		<tag k="fixme" v="consider natural=peak for the most distinct mountains in the district" />
		<tag k="name" v="Fystroåsen" />
		<tag k="natural" v="hill" />
		<tag k="place" v="locality" />
		<tag k="ssr:stedsnr" v="587913" />
	</node>
	<node id="-151904" lat="61.0330749969" lon="8.94806110417">
		<tag k="alt_name" v="Landsrudfeten" />
		<tag k="name" v="Landrudfeti" />
		<tag k="natural" v="plateau" />
		<tag k="ssr:stedsnr" v="7792" />
	</node>
	<node id="-151696" lat="61.052577774" lon="8.91713889096">
		<tag k="alt_name" v="Dingladn" />
		<tag k="name" v="Dinglane" />
		<tag k="place" v="locality" />
		<tag k="ssr:stedsnr" v="310838" />
	</node>
	<node id="-152414" lat="60.9604416684" lon="8.73280276885">
		<tag k="name" v="Reinejuve" />
		<tag k="natural" v="gorge" />
		<tag k="ssr:stedsnr" v="587756" />
	</node>
	<node id="-151901" lat="61.0113500036" lon="9.02422500349">
		<tag k="name" v="Svedalen" />
		<tag k="natural" v="valley" />
		<tag k="place" v="locality" />
		<tag k="ssr:stedsnr" v="7764" />
	</node>
	<node id="-152409" lat="61.0008388924" lon="8.93161388755">
		<tag k="name" v="Synet" />
		<tag k="natural" v="hill" />
		<tag k="place" v="locality" />
		<tag k="ssr:stedsnr" v="587504" />
	</node>
	<node id="-152405" lat="61.099894442" lon="8.93740554883">
		<tag k="name" v="Hagaberge" />
		<tag k="natural" v="hill" />
		<tag k="place" v="locality" />
		<tag k="ssr:stedsnr" v="587414" />
	</node>
	<node id="-152396" lat="61.1065527812" lon="8.91016945289">
		<tag k="name" v="Fosseberget" />
		<tag k="natural" v="hill" />
		<tag k="place" v="locality" />
		<tag k="ssr:stedsnr" v="585332" />
	</node>
	<node id="-152390" lat="61.0186388924" lon="8.7414805618">
		<tag k="alt_name" v="Kyrskardet" />
		<tag k="name" v="Kyrskard" />
		<tag k="natural" v="valley" />
		<tag k="old_name" v="Biskeskardet" />
		<tag k="place" v="locality" />
		<tag k="ssr:stedsnr" v="553415" />
	</node>
	<node id="-152388" lat="61.0472305519" lon="8.81375555609">
		<tag k="name" v="Soleikrohovda" />
		<tag k="natural" v="hill" />
		<tag k="place" v="locality" />
		<tag k="ssr:stedsnr" v="553370" />
	</node>
	<node id="-152384" lat="61.0806694429" lon="8.91611945093">
		<tag k="name" v="Nystølbakkane" />
		<tag k="natural" v="slope" />
		<tag k="place" v="locality" />
		<tag k="ssr:stedsnr" v="553203" />
	</node>
	<node id="-152383" lat="61.1012111112" lon="8.95642499452">
		<tag k="name" v="Hausåkerkollen" />
		<tag k="natural" v="hill" />
		<tag k="place" v="locality" />
		<tag k="ssr:stedsnr" v="553166" />
	</node>
	<node id="-152381" lat="61.1223694468" lon="8.98683611782">
		<tag k="alt_name" v="Kvålshøvda" />
		<tag k="name" v="Kvålshovd" />
		<tag k="natural" v="hill" />
		<tag k="place" v="locality" />
		<tag k="ssr:stedsnr" v="553127" />
	</node>
	<node id="-152375" lat="61.0938305576" lon="9.04372500029">
		<tag k="alt_name" v="Tvengihøvda" />
		<tag k="name" v="Tvengehovda" />
		<tag k="natural" v="hill" />
		<tag k="place" v="locality" />
		<tag k="ssr:stedsnr" v="552204" />
	</node>
	<node id="-151860" lat="61.0726194425" lon="8.98648888637">
		<tag k="name" v="Geitskallin" />
		<tag k="natural" v="hill" />
		<tag k="place" v="locality" />
		<tag k="ssr:stedsnr" v="891951" />
	</node>
	<node id="-152371" lat="61.1721222193" lon="8.90025000872">
		<tag k="name" v="Klantadn" />
		<tag k="natural" v="hill" />
		<tag k="place" v="locality" />
		<tag k="ssr:stedsnr" v="539950" />
	</node>
	<node id="-152370" lat="61.1459916626" lon="8.95784999203">
		<tag k="name" v="Kviteberg" />
		<tag k="natural" v="hill" />
		<tag k="place" v="locality" />
		<tag k="ssr:stedsnr" v="539808" />
	</node>
	<node id="-151856" lat="60.9198361113" lon="8.83803888199">
		<tag k="name" v="Langehaugen" />
		<tag k="natural" v="hill" />
		<tag k="place" v="locality" />
		<tag k="ssr:stedsnr" v="891778" />
	</node>
	<node id="-151854" lat="60.9209888899" lon="8.78516110898">
		<tag k="name" v="Skruvlekyrkja" />
		<tag k="place" v="locality" />
		<tag k="ssr:stedsnr" v="891760" />
	</node>
	<node id="-152362" lat="60.9199972241" lon="8.82989167485">
		<tag k="name" v="Handehaugen" />
		<tag k="natural" v="hill" />
		<tag k="place" v="locality" />
		<tag k="ssr:stedsnr" v="526773" />
	</node>
	<node id="-152358" lat="60.9779222182" lon="8.96286110625">
		<tag k="fixme" v="consider natural=peak for the most distinct mountains in the district" />
		<tag k="name" v="Saukollen" />
		<tag k="natural" v="hill" />
		<tag k="place" v="locality" />
		<tag k="ssr:stedsnr" v="526493" />
	</node>
	<node id="-151842" lat="61.0515027771" lon="8.77103611842">
		<tag k="name" v="Synhaug" />
		<tag k="natural" v="hill" />
		<tag k="place" v="locality" />
		<tag k="ssr:stedsnr" v="889344" />
	</node>
	<node id="-152027" lat="61.0062750023" lon="8.8148944508">
		<tag k="name" v="Handehaug" />
		<tag k="natural" v="hill" />
		<tag k="place" v="locality" />
		<tag k="ssr:stedsnr" v="102690" />
	</node>
	<node id="-152351" lat="61.0905333301" lon="8.8318361126">
		<tag k="name" v="Svarthamardækkadn" />
		<tag k="natural" v="valley" />
		<tag k="place" v="locality" />
		<tag k="ssr:stedsnr" v="526299" />
	</node>
	<node id="-152026" lat="61.0990138857" lon="8.91938888689">
		<tag k="name" v="Risgarden" />
		<tag k="natural" v="slope" />
		<tag k="place" v="locality" />
		<tag k="ssr:stedsnr" v="102631" />
	</node>
	<node id="-152345" lat="61.1390055532" lon="8.91653333">
		<tag k="name" v="Lomisberget" />
		<tag k="natural" v="hill" />
		<tag k="place" v="locality" />
		<tag k="ssr:stedsnr" v="525095" />
	</node>
	<node id="-152281" lat="61.0016694462" lon="8.79792221812">
		<tag k="name" v="Marihaug" />
		<tag k="natural" v="hill" />
		<tag k="place" v="locality" />
		<tag k="ssr:stedsnr" v="465633" />
	</node>
	<node id="-152847" lat="61.1101194408" lon="9.00898889587">
		<tag k="fixme" v="consider natural=peak for the most distinct mountains in the district" />
		<tag k="name" v="Slidreåsen" />
		<tag k="natural" v="hill" />
		<tag k="place" v="locality" />
		<tag k="ssr:stedsnr" v="964365" />
	</node>
	<node id="-152846" lat="61.1056944414" lon="8.98540554769">
		<tag k="name" v="Klukkargardberget" />
		<tag k="natural" v="hill" />
		<tag k="place" v="locality" />
		<tag k="ssr:stedsnr" v="964362" />
	</node>
	<node id="-151818" lat="60.9262583294" lon="8.81679444217">
		<tag k="name" v="Snortheimshaugane" />
		<tag k="natural" v="hill" />
		<tag k="place" v="locality" />
		<tag k="ssr:stedsnr" v="405780" />
	</node>
	<node id="-151814" lat="60.9827583369" lon="8.95869999129">
		<tag k="name" v="Hallestøllie" />
		<tag k="natural" v="slope" />
		<tag k="place" v="locality" />
		<tag k="ssr:stedsnr" v="405517" />
	</node>
	<node id="-151937" lat="60.9158499962" lon="8.78751388104">
		<tag k="name" v="Skruvlehovda" />
		<tag k="natural" v="hill" />
		<tag k="place" v="locality" />
		<tag k="ssr:stedsnr" v="41737" />
	</node>
	<node id="-151811" lat="60.9995222255" lon="8.90070833253">
		<tag k="name" v="Storhaug" />
		<tag k="natural" v="hill" />
		<tag k="place" v="locality" />
		<tag k="ssr:stedsnr" v="405504" />
	</node>
	<node id="-151809" lat="61.0018861131" lon="8.94070555727">
		<tag k="name" v="Steggelhaugen" />
		<tag k="natural" v="hill" />
		<tag k="place" v="locality" />
		<tag k="ssr:stedsnr" v="405490" />
	</node>
	<node id="-152832" lat="60.9507666654" lon="8.83967500386">
		<tag k="name" v="Dansarsletthaugane" />
		<tag k="natural" v="hill" />
		<tag k="place" v="locality" />
		<tag k="ssr:stedsnr" v="951773" />
	</node>
	<node id="-152319" lat="61.0177250034" lon="8.97508055309">
		<tag k="fixme" v="consider natural=peak for the most distinct mountains in the district" />
		<tag k="name" v="Ålfjell" />
		<tag k="natural" v="hill" />
		<tag k="place" v="locality" />
		<tag k="ssr:stedsnr" v="492764" />
	</node>
	<node id="-152830" lat="60.9828972244" lon="8.94710278385">
		<tag k="name" v="Hallestølhøgde" />
		<tag k="natural" v="hill" />
		<tag k="place" v="locality" />
		<tag k="ssr:stedsnr" v="951501" />
	</node>
	<node id="-151805" lat="61.0701750029" lon="8.96013888203">
		<tag k="name" v="Hamnsbakkadn" />
		<tag k="natural" v="slope" />
		<tag k="place" v="locality" />
		<tag k="ssr:stedsnr" v="405427" />
	</node>
	<node id="-151804" lat="61.071594447" lon="8.97027777389">
		<tag k="name" v="Kampen" />
		<tag k="natural" v="hill" />
		<tag k="place" v="locality" />
		<tag k="ssr:stedsnr" v="405426" />
	</node>
	<node id="-151803" lat="61.0876472185" lon="8.96054722892">
		<tag k="name" v="Prekestolberget" />
		<tag k="natural" v="hill" />
		<tag k="place" v="locality" />
		<tag k="ssr:stedsnr" v="405423" />
	</node>
	<node id="-152821" lat="60.9522361074" lon="8.8985472217">
		<tag k="name" v="Pikhaug" />
		<tag k="natural" v="hill" />
		<tag k="place" v="locality" />
		<tag k="ssr:stedsnr" v="951264" />
	</node>
	<node id="-152299" lat="61.0728194484" lon="8.71462500715">
		<tag k="name" v="Skjenebakk" />
		<tag k="natural" v="slope" />
		<tag k="place" v="locality" />
		<tag k="ssr:stedsnr" v="482812" />
	</node>
	<node id="-152809" lat="60.9757472243" lon="8.90158333547">
		<tag k="name" v="Storhaug" />
		<tag k="natural" v="hill" />
		<tag k="place" v="locality" />
		<tag k="ssr:stedsnr" v="920097" />
	</node>
	<node id="-152295" lat="61.0796555548" lon="9.03290555503">
		<tag k="fixme" v="consider natural=peak for the most distinct mountains in the district" />
		<tag k="name" v="Ringhøvd" />
		<tag k="natural" v="hill" />
		<tag k="place" v="locality" />
		<tag k="ssr:stedsnr" v="466946" />
	</node>
	<node id="-151782" lat="60.8985972207" lon="8.85119166656">
		<tag k="name" v="Rishovda" />
		<tag k="natural" v="hill" />
		<tag k="place" v="locality" />
		<tag k="ssr:stedsnr" v="373430" />
	</node>
	<node id="-152291" lat="60.9371500036" lon="8.68116388001">
		<tag k="name" v="Bjørnesletten" />
		<tag k="place" v="locality" />
		<tag k="ssr:stedsnr" v="466763" />
	</node>
	<node id="-151778" lat="60.9974944451" lon="8.94416110314">
		<tag k="name" v="Revshalen" />
		<tag k="place" v="locality" />
		<tag k="ssr:stedsnr" v="373051" />
	</node>
	<node id="-152793" lat="61.0479333363" lon="9.1499111098">
		<tag k="name" v="Brendemoen" />
		<tag k="place" v="locality" />
		<tag k="ssr:stedsnr" v="917805" />
	</node>
	<node id="-152280" lat="60.9651888925" lon="8.91418611637">
		<tag k="name" v="Mariberg" />
		<tag k="natural" v="hill" />
		<tag k="place" v="locality" />
		<tag k="ssr:stedsnr" v="466517" />
	</node>
	<node id="-152278" lat="61.0593250001" lon="8.73881666129">
		<tag k="name" v="Valhaug" />
		<tag k="natural" v="hill" />
		<tag k="place" v="locality" />
		<tag k="ssr:stedsnr" v="464805" />
	</node>
	<node id="-152785" lat="61.0352482061" lon="8.83364971454">
		<tag k="alt_name" v="Kringelhovda" />
		<tag k="fixme" v="consider natural=peak for the most distinct mountains in the district" />
		<tag k="loc_name" v="Klingerhovda" />
		<tag k="name" v="Kringlehovda" />
		<tag k="natural" v="hill" />
		<tag k="place" v="locality" />
		<tag k="ssr:stedsnr" v="917394" />
	</node>
	<node id="-152272" lat="61.1376444476" lon="8.92731388723">
		<tag k="name" v="Trøbakkin" />
		<tag k="natural" v="slope" />
		<tag k="place" v="locality" />
		<tag k="ssr:stedsnr" v="464092" />
	</node>
	<node id="-151671" lat="61.1011055525" lon="8.98784167513">
		<tag k="name" v="Fulkjisbrøtadn" />
		<tag k="natural" v="slope" />
		<tag k="place" v="locality" />
		<tag k="ssr:stedsnr" v="284992" />
	</node>
	<node id="-152263" lat="60.9721916633" lon="8.72519445251">
		<tag k="fixme" v="consider natural=peak for the most distinct mountains in the district" />
		<tag k="name" v="Gråkampen" />
		<tag k="natural" v="hill" />
		<tag k="place" v="locality" />
		<tag k="ssr:stedsnr" v="433777" />
	</node>
	<node id="-152262" lat="60.9771111105" lon="8.84380556435">
		<tag k="alt_name" v="Svenskeknipa" />
		<tag k="name" v="Svenskeknippa" />
		<tag k="natural" v="hill" />
		<tag k="place" v="locality" />
		<tag k="ssr:stedsnr" v="433773" />
	</node>
	<node id="-151748" lat="61.0962333344" lon="8.75970833715">
		<tag k="fixme" v="consider natural=peak for the most distinct mountains in the district" />
		<tag k="name" v="Syndinfjellet" />
		<tag k="natural" v="hill" />
		<tag k="place" v="locality" />
		<tag k="ssr:stedsnr" v="370403" />
	</node>
	<node id="-152258" lat="61.0358027746" lon="9.11816944667">
		<tag k="alt_name" v="Rebnesåsen" />
		<tag k="fixme" v="consider natural=peak for the most distinct mountains in the district" />
		<tag k="name" v="Revnesåsen" />
		<tag k="natural" v="hill" />
		<tag k="place" v="locality" />
		<tag k="ssr:stedsnr" v="432797" />
	</node>
	<node id="-151745" lat="61.1367694455" lon="8.86031945293">
		<tag k="name" v="Moaberg" />
		<tag k="natural" v="hill" />
		<tag k="place" v="locality" />
		<tag k="ssr:stedsnr" v="370117" />
	</node>
	<node id="-152764" lat="60.9351083337" lon="8.71970000867">
		<tag k="alt_name" v="Trøllklantadn" />
		<tag k="name" v="Trollklantane" />
		<tag k="natural" v="hill" />
		<tag k="place" v="locality" />
		<tag k="ssr:stedsnr" v="858874" />
	</node>
	<node id="-151839" lat="61.1295999977" lon="8.9347305611">
		<tag k="name" v="Løkjisberget" />
		<tag k="natural" v="hill" />
		<tag k="place" v="locality" />
		<tag k="ssr:stedsnr" v="889102" />
	</node>
	<node id="-151735" lat="60.9219000033" lon="8.83828889069">
		<tag k="name" v="Rundehaugen" />
		<tag k="natural" v="hill" />
		<tag k="place" v="locality" />
		<tag k="ssr:stedsnr" v="344785" />
	</node>
	<node id="-152246" lat="61.1228527793" lon="9.00482500596">
		<tag k="alt_name" v="Gråbeinhøvda" />
		<tag k="name" v="Gråbeinhovda" />
		<tag k="natural" v="hill" />
		<tag k="place" v="locality" />
		<tag k="ssr:stedsnr" v="432128" />
	</node>
	<node id="-151730" lat="60.9768500005" lon="8.81959721312">
		<tag k="name" v="Rundeklanten" />
		<tag k="natural" v="hill" />
		<tag k="place" v="locality" />
		<tag k="ssr:stedsnr" v="344652" />
	</node>
	<node id="-151728" lat="60.9650944406" lon="8.90107776979">
		<tag k="name" v="Ørneberg" />
		<tag k="natural" v="hill" />
		<tag k="place" v="locality" />
		<tag k="ssr:stedsnr" v="344520" />
	</node>
	<node id="-151726" lat="61.0656777736" lon="8.87782776931">
		<tag k="name" v="Preststølhalladn" />
		<tag k="natural" v="slope" />
		<tag k="place" v="locality" />
		<tag k="ssr:stedsnr" v="344438" />
	</node>
	<node id="-152749" lat="61.0511888867" lon="8.88536388303">
		<tag k="alt_name" v="Knivhaugadn" />
		<tag k="name" v="Knivhaugane" />
		<tag k="natural" v="hill" />
		<tag k="place" v="locality" />
		<tag k="ssr:stedsnr" v="856844" />
	</node>
	<node id="-152747" lat="61.0259861073" lon="8.95834166277">
		<tag k="alt_name" v="Storhøvda" />
		<tag k="name" v="Storhovd" />
		<tag k="natural" v="hill" />
		<tag k="place" v="locality" />
		<tag k="ssr:stedsnr" v="856808" />
	</node>
	<node id="-152233" lat="61.1579500035" lon="8.90772778232">
		<tag k="name" v="Høvslie" />
		<tag k="natural" v="slope" />
		<tag k="place" v="locality" />
		<tag k="ssr:stedsnr" v="418966" />
	</node>
	<node id="-152232" lat="61.1500749986" lon="8.9407277723">
		<tag k="name" v="Haugslie" />
		<tag k="natural" v="slope" />
		<tag k="place" v="locality" />
		<tag k="ssr:stedsnr" v="418805" />
	</node>
	<node id="-152228" lat="60.9888666694" lon="8.89413054781">
		<tag k="alt_name" v="Bjødnhøvda;Bjørnhovda" />
		<tag k="fixme" v="consider natural=peak for the most distinct mountains in the district" />
		<tag k="name" v="Bjørnahovda" />
		<tag k="natural" v="hill" />
		<tag k="place" v="locality" />
		<tag k="ssr:stedsnr" v="252069" />
	</node>
	<node id="-152739" lat="61.0998305554" lon="8.74816389705">
		<tag k="name" v="Gamlestølhaugen" />
		<tag k="natural" v="hill" />
		<tag k="place" v="locality" />
		<tag k="ssr:stedsnr" v="856414" />
	</node>
	<node id="-151835" lat="61.1781305556" lon="8.87700277319">
		<tag k="fixme" v="consider natural=peak for the most distinct mountains in the district" />
		<tag k="name" v="Einebuåsen" />
		<tag k="natural" v="hill" />
		<tag k="place" v="locality" />
		<tag k="ssr:stedsnr" v="478963" />
	</node>
	<node id="-151712" lat="61.0487472214" lon="9.09256944097">
		<tag k="name" v="Brendahaugen" />
		<tag k="natural" v="hill" />
		<tag k="place" v="locality" />
		<tag k="ssr:stedsnr" v="344905" />
	</node>
	<node id="-151709" lat="61.1385888852" lon="8.97455277353">
		<tag k="name" v="Bjersethøvda" />
		<tag k="natural" v="hill" />
		<tag k="place" v="locality" />
		<tag k="ssr:stedsnr" v="342068" />
	</node>
	<node id="-152729" lat="61.1494972244" lon="8.95341110759">
		<tag k="name" v="Rengistadlie" />
		<tag k="natural" v="slope" />
		<tag k="old_name" v="Ringestadlii;Ringestadlie" />
		<tag k="place" v="locality" />
		<tag k="ssr:stedsnr" v="855644" />
	</node>
	<node id="-152772" lat="61.1492194458" lon="9.0015666723">
		<tag k="name" v="Furuhaugadn" />
		<tag k="natural" v="hill" />
		<tag k="place" v="locality" />
		<tag k="ssr:stedsnr" v="904183" />
	</node>
	<node id="-151701" lat="60.9590750011" lon="8.75824999478">
		<tag k="alt_name" v="Bukonofjellet" />
		<tag k="fixme" v="consider natural=peak for the most distinct mountains in the district" />
		<tag k="name" v="Bukonefjellet" />
		<tag k="natural" v="hill" />
		<tag k="place" v="locality" />
		<tag k="ssr:stedsnr" v="312729" />
	</node>
	<node id="-152208" lat="61.059436111" lon="8.85649722057">
		<tag k="name" v="Syndisfjellet" />
		<tag k="natural" v="hill" />
		<tag k="place" v="locality" />
		<tag k="ssr:stedsnr" v="249849" />
	</node>
	<node id="-151695" lat="61.0623166634" lon="9.06909444367">
		<tag k="fixme" v="multiple name tags, choose one and add the other to alt_name; consider natural=peak for the most distinct mountains in the district" />
		<tag k="name" v="Magistadåsen;Snortheimsåsen" />
		<tag k="natural" v="hill" />
		<tag k="place" v="locality" />
		<tag k="ssr:stedsnr" v="310833" />
	</node>
	<node id="-152716" lat="61.0568805524" lon="9.00733611112">
		<tag k="name" v="Skorta" />
		<tag k="natural" v="valley" />
		<tag k="place" v="locality" />
		<tag k="ssr:stedsnr" v="830894" />
	</node>
	<node id="-152202" lat="61.0829666661" lon="8.90233888968">
		<tag k="alt_name" v="Skjerdalshøvda" />
		<tag k="name" v="Skjerdalshovda" />
		<tag k="natural" v="hill" />
		<tag k="place" v="locality" />
		<tag k="ssr:stedsnr" v="249194" />
	</node>
	<node id="-152711" lat="60.9896277772" lon="8.75621389802">
		<tag k="name" v="Kvitehaug" />
		<tag k="natural" v="hill" />
		<tag k="place" v="locality" />
		<tag k="ssr:stedsnr" v="830653" />
	</node>
	<node id="-152709" lat="61.0053638865" lon="8.85375554759">
		<tag k="name" v="Djupdalen" />
		<tag k="natural" v="valley" />
		<tag k="place" v="locality" />
		<tag k="ssr:stedsnr" v="830652" />
	</node>
	<node id="-152193" lat="61.1583138901" lon="8.8848861175">
		<tag k="fixme" v="consider natural=peak for the most distinct mountains in the district" />
		<tag k="name" v="Tunhøvda" />
		<tag k="natural" v="hill" />
		<tag k="place" v="locality" />
		<tag k="ssr:stedsnr" v="235979" />
	</node>
	<node id="-152192" lat="61.1647138934" lon="8.86926944432">
		<tag k="name" v="Anglibakken" />
		<tag k="natural" v="slope" />
		<tag k="place" v="locality" />
		<tag k="ssr:stedsnr" v="235977" />
	</node>
	<node id="-151677" lat="61.0727944453" lon="8.70701110307">
		<tag k="name" v="Grønebakk" />
		<tag k="natural" v="slope" />
		<tag k="place" v="locality" />
		<tag k="ssr:stedsnr" v="300821" />
	</node>
	<node id="-151914" lat="61.0601499993" lon="8.9788638877">
		<tag k="name" v="Gile" />
		<tag k="natural" v="valley" />
		<tag k="place" v="locality" />
		<tag k="ssr:stedsnr" v="14939" />
	</node>
	<node id="-152698" lat="61.0210222199" lon="8.78472500238">
		<tag k="name" v="Fuglehaugane" />
		<tag k="natural" v="hill" />
		<tag k="place" v="locality" />
		<tag k="ssr:stedsnr" v="828357" />
	</node>
	<node id="-152695" lat="60.9167750029" lon="8.8939805507">
		<tag k="fixme" v="consider natural=peak for the most distinct mountains in the district" />
		<tag k="name" v="Lokkarberge" />
		<tag k="natural" v="hill" />
		<tag k="place" v="locality" />
		<tag k="ssr:stedsnr" v="828252" />
	</node>
	<node id="-152178" lat="60.9544138916" lon="8.85198055349">
		<tag k="name" v="Sletteberg" />
		<tag k="natural" v="hill" />
		<tag k="place" v="locality" />
		<tag k="ssr:stedsnr" v="223682" />
	</node>
	<node id="-152688" lat="60.9518861153" lon="8.93878056409">
		<tag k="fixme" v="consider natural=peak for the most distinct mountains in the district" />
		<tag k="name" v="Storhaug" />
		<tag k="natural" v="hill" />
		<tag k="place" v="locality" />
		<tag k="ssr:stedsnr" v="798115" />
	</node>
	<node id="-152687" lat="60.9649333373" lon="8.94525833038">
		<tag k="name" v="Langeberget" />
		<tag k="natural" v="hill" />
		<tag k="place" v="locality" />
		<tag k="ssr:stedsnr" v="798105" />
	</node>
	<node id="-151662" lat="60.9545694454" lon="8.83760556063">
		<tag k="name" v="Synhaug" />
		<tag k="natural" v="hill" />
		<tag k="place" v="locality" />
		<tag k="ssr:stedsnr" v="284663" />
	</node>
	<node id="-152685" lat="60.9882777754" lon="8.84239445345">
		<tag k="alt_name" v="Grønsennknipa" />
		<tag k="fixme" v="consider natural=peak for the most distinct mountains in the district" />
		<tag k="name" v="Grønsennknippa" />
		<tag k="natural" v="hill" />
		<tag k="place" v="locality" />
		<tag k="ssr:stedsnr" v="797779" />
	</node>
	<node id="-151657" lat="60.919502774" lon="8.81381111926">
		<tag k="name" v="Steinhovda" />
		<tag k="natural" v="hill" />
		<tag k="place" v="locality" />
		<tag k="ssr:stedsnr" v="284806" />
	</node>
	<node id="-152678" lat="61.0473583297" lon="8.71032500208">
		<tag k="fixme" v="consider natural=peak for the most distinct mountains in the district" />
		<tag k="name" v="Gilafjellet" />
		<tag k="natural" v="hill" />
		<tag k="place" v="locality" />
		<tag k="ssr:stedsnr" v="796389" />
	</node>
	<node id="-152164" lat="61.1106222251" lon="8.8548361135">
		<tag k="name" v="Faraskar" />
		<tag k="natural" v="valley" />
		<tag k="place" v="locality" />
		<tag k="ssr:stedsnr" v="223331" />
	</node>
	<node id="-152166" lat="61.0877777813" lon="8.9651833316">
		<tag k="name" v="Gråbeindalen" />
		<tag k="natural" v="valley" />
		<tag k="place" v="locality" />
		<tag k="ssr:stedsnr" v="223429" />
	</node>
	<node id="-152154" lat="60.9983722235" lon="8.99352778623">
		<tag k="name" v="Brennudn" />
		<tag k="natural" v="hill" />
		<tag k="place" v="locality" />
		<tag k="ssr:stedsnr" v="221222" />
	</node>
	<node id="-151652" lat="61.0945999977" lon="8.94376667381">
		<tag k="name" v="Kinnberge" />
		<tag k="natural" v="hill" />
		<tag k="place" v="locality" />
		<tag k="ssr:stedsnr" v="284405" />
	</node>
	<node id="-152149" lat="60.9503666644" lon="8.93464999109">
		<tag k="alt_name" v="Synhovda" />
		<tag k="name" v="Synnhovda" />
		<tag k="natural" v="hill" />
		<tag k="place" v="locality" />
		<tag k="ssr:stedsnr" v="191086" />
	</node>
	<node id="-151822" lat="61.0528333308" lon="9.00340832779">
		<tag k="fixme" v="consider natural=peak for the most distinct mountains in the district" />
		<tag k="name" v="Bakkeberget" />
		<tag k="natural" v="hill" />
		<tag k="place" v="locality" />
		<tag k="ssr:stedsnr" v="405889" />
	</node>
	<node id="-152727" lat="61.0699361099" lon="9.04634166364">
		<tag k="name" v="Kvetohaugen" />
		<tag k="natural" v="slope" />
		<tag k="place" v="locality" />
		<tag k="ssr:stedsnr" v="843662" />
	</node>
	<node id="-152656" lat="61.1482111107" lon="8.90335276876">
		<tag k="fixme" v="consider natural=peak for the most distinct mountains in the district" />
		<tag k="name" v="Eggeåsen" />
		<tag k="natural" v="hill" />
		<tag k="place" v="locality" />
		<tag k="ssr:stedsnr" v="782960" />
	</node>
	<node id="-152655" lat="61.15375278" lon="8.92322222094">
		<tag k="name" v="Lomislie" />
		<tag k="natural" v="slope" />
		<tag k="place" v="locality" />
		<tag k="ssr:stedsnr" v="782778" />
	</node>
	<node id="-152653" lat="61.1128888871" lon="8.94178333833">
		<tag k="name" v="Raunberge" />
		<tag k="natural" v="cliff" />
		<tag k="old_name" v="Ravnberget" />
		<tag k="ssr:stedsnr" v="780170" />
	</node>
	<node id="-152130" lat="61.072211112" lon="8.88065556007">
		<tag k="alt_name" v="Fiskeløyshøgdi" />
		<tag k="name" v="Fiskeløyshøgde" />
		<tag k="natural" v="hill" />
		<tag k="place" v="locality" />
		<tag k="ssr:stedsnr" v="189198" />
	</node>
	<node id="-152641" lat="60.9175027735" lon="8.85105833388">
		<tag k="name" v="Klauvehaugen" />
		<tag k="natural" v="hill" />
		<tag k="place" v="locality" />
		<tag k="ssr:stedsnr" v="769746" />
	</node>
	<node id="-152639" lat="60.9399388848" lon="8.70627778253">
		<tag k="name" v="Breiedokke" />
		<tag k="natural" v="valley" />
		<tag k="place" v="locality" />
		<tag k="ssr:stedsnr" v="769740" />
	</node>
	<node id="-152638" lat="60.9423583347" lon="8.69593333496">
		<tag k="name" v="Stubbedalen" />
		<tag k="natural" v="valley" />
		<tag k="place" v="locality" />
		<tag k="ssr:stedsnr" v="769739" />
	</node>
	<node id="-152636" lat="61.0042555597" lon="8.74970833278">
		<tag k="name" v="Strøshovda" />
		<tag k="natural" v="hill" />
		<tag k="place" v="locality" />
		<tag k="ssr:stedsnr" v="769670" />
	</node>
	<node id="-152635" lat="60.9524388883" lon="8.76602777327">
		<tag k="name" v="Brendehaugen" />
		<tag k="natural" v="hill" />
		<tag k="place" v="locality" />
		<tag k="ssr:stedsnr" v="769652" />
	</node>
	<node id="-152631" lat="60.9222416702" lon="8.83818333749">
		<tag k="name" v="Fauskehaugen" />
		<tag k="natural" v="hill" />
		<tag k="place" v="locality" />
		<tag k="ssr:stedsnr" v="769563" />
	</node>
	<node id="-152628" lat="60.9890555558" lon="8.94216666663">
		<tag k="name" v="Ringhaug" />
		<tag k="natural" v="hill" />
		<tag k="place" v="locality" />
		<tag k="ssr:stedsnr" v="769494" />
	</node>
	<node id="-152114" lat="61.0647583378" lon="9.12240833513">
		<tag k="name" v="Vågenhøvda" />
		<tag k="natural" v="hill" />
		<tag k="place" v="locality" />
		<tag k="ssr:stedsnr" v="175536" />
	</node>
	<node id="-152623" lat="61.0776666688" lon="8.94319167">
		<tag k="name" v="Bergastigen" />
		<tag k="natural" v="valley" />
		<tag k="place" v="locality" />
		<tag k="ssr:stedsnr" v="769415" />
	</node>
	<node id="-152622" lat="60.9370027814" lon="8.90389167536">
		<tag k="name" v="Lomtjernhaugane" />
		<tag k="natural" v="hill" />
		<tag k="place" v="locality" />
		<tag k="ssr:stedsnr" v="769258" />
	</node>
	<node id="-152619" lat="60.9716527777" lon="8.84336944652">
		<tag k="name" v="Svenskekampen" />
		<tag k="natural" v="hill" />
		<tag k="place" v="locality" />
		<tag k="ssr:stedsnr" v="768449" />
	</node>
	<node id="-152615" lat="60.9699805519" lon="8.93415277863">
		<tag k="fixme" v="consider natural=peak for the most distinct mountains in the district" />
		<tag k="name" v="Skurvehovda" />
		<tag k="natural" v="hill" />
		<tag k="place" v="locality" />
		<tag k="ssr:stedsnr" v="767476" />
	</node>
	<node id="-152100" lat="60.9091944451" lon="8.80991389638">
		<tag k="name" v="Grønehovda" />
		<tag k="natural" v="hill" />
		<tag k="place" v="locality" />
		<tag k="ssr:stedsnr" v="162791" />
	</node>
	<node id="-152099" lat="60.9451694454" lon="8.68669722817">
		<tag k="name" v="Hesjastølklanten" />
		<tag k="natural" v="hill" />
		<tag k="place" v="locality" />
		<tag k="ssr:stedsnr" v="162754" />
	</node>
	<node id="-152095" lat="61.0128416649" lon="8.7407666745">
		<tag k="name" v="Klanten" />
		<tag k="natural" v="hill" />
		<tag k="place" v="locality" />
		<tag k="ssr:stedsnr" v="162667" />
	</node>
	<node id="-152092" lat="61.0212111146" lon="8.87951110682">
		<tag k="name" v="Øyahaugadn" />
		<tag k="natural" v="hill" />
		<tag k="place" v="locality" />
		<tag k="ssr:stedsnr" v="162482" />
	</node>
	<node id="-152603" lat="61.0251027746" lon="8.77197778653">
		<tag k="name" v="Lengjehovda" />
		<tag k="natural" v="hill" />
		<tag k="place" v="locality" />
		<tag k="ssr:stedsnr" v="735413" />
	</node>
	<node id="-151651" lat="61.1208527793" lon="8.96891945217">
		<tag k="name" v="Grønhovda" />
		<tag k="natural" v="slope" />
		<tag k="place" v="locality" />
		<tag k="ssr:stedsnr" v="284395" />
	</node>
	<node id="-152068" lat="61.0379555575" lon="9.11490555751">
		<tag k="alt_name" v="Fuglehaugadn" />
		<tag k="name" v="Fuglehaugane" />
		<tag k="natural" v="hill" />
		<tag k="place" v="locality" />
		<tag k="ssr:stedsnr" v="128819" />
	</node>
	<node id="-152598" lat="61.1269833375" lon="8.83957499091">
		<tag k="name" v="Risteberget" />
		<tag k="natural" v="hill" />
		<tag k="place" v="locality" />
		<tag k="ssr:stedsnr" v="735345" />
	</node>
	<node id="-152083" lat="61.0167638894" lon="8.74450833229">
		<tag k="name" v="Kattugleberget" />
		<tag k="natural" v="hill" />
		<tag k="place" v="locality" />
		<tag k="ssr:stedsnr" v="160325" />
	</node>
	<node id="-152594" lat="61.0875444456" lon="8.92857778173">
		<tag k="name" v="Frikstadhovda" />
		<tag k="natural" v="hill" />
		<tag k="place" v="locality" />
		<tag k="ssr:stedsnr" v="735220" />
	</node>
	<node id="-152070" lat="61.0525750023" lon="8.96925277542">
		<tag k="alt_name" v="Skålelie" />
		<tag k="name" v="Skålelii" />
		<tag k="natural" v="slope" />
		<tag k="place" v="locality" />
		<tag k="ssr:stedsnr" v="128831" />
	</node>
	<node id="-152580" lat="61.1393138914" lon="8.95798888549">
		<tag k="alt_name" v="Reinshøvda" />
		<tag k="name" v="Reinshovd" />
		<tag k="natural" v="hill" />
		<tag k="place" v="locality" />
		<tag k="ssr:stedsnr" v="735093" />
	</node>
	<node id="-151723" lat="61.1070111087" lon="8.92821945335">
		<tag k="name" v="Istaddalen" />
		<tag k="natural" v="valley" />
		<tag k="place" v="locality" />
		<tag k="ssr:stedsnr" v="344421" />
	</node>
</osm>
