<?xml version="1.0" encoding="UTF-8"?>
<osm version="0.6" generator="osmapis">
	<node id="1895010456" lat="58.5033809" lon="7.432724" version="3" timestamp="2018-05-08T04:27:27Z" changeset="58776067" uid="3842253" user="NKA_import">
		<tag k="name" v="Mjåland" />
		<tag k="place" v="hamlet" />
		<tag k="ssr:stedsnr" v="789889" />
		<tag k="ssr:type" v="gard" />
	</node>
	<node id="3781323368" lat="58.8186833" lon="7.4722175" version="2" timestamp="2018-05-08T04:27:27Z" changeset="58776067" uid="3842253" user="NKA_import">
		<tag k="alt_name" v="Bortelii" />
		<tag k="name" v="Bortelid" />
		<tag k="place" v="village" />
		<tag k="source" v="N50 map" />
		<tag k="ssr:stedsnr" v="850518" />
		<tag k="ssr:type" v="hyttefelt" />
	</node>
	<node id="4601320942" lat="58.7877414" lon="7.353141" version="2" timestamp="2018-05-08T04:27:27Z" changeset="58776067" uid="3842253" user="NKA_import">
		<tag k="name" v="Ljosland" />
		<tag k="place" v="village" />
		<tag k="ssr:stedsnr" v="183507" />
		<tag k="ssr:type" v="bygdelagBygd" />
	</node>
	<node id="5168917139" lat="58.6753005" lon="7.2788796" version="3" timestamp="2021-03-22T17:17:54Z" changeset="101520028" uid="3497659" user="NKA">
		<tag k="alt_name" v="Lordehytta" />
		<tag k="name" v="Lordehyttå" />
		<tag k="place" v="isolated_dwelling" />
		<tag k="ssr:stedsnr" v="365271" />
		<tag k="ssr:type" v="fritidsbolig" />
	</node>
	<node id="5603473505" lat="58.6026389" lon="7.5260444" version="1" timestamp="2018-05-08T04:27:07Z" changeset="58776067" uid="3842253" user="NKA_import">
		<tag k="name" v="Kvernhusheia" />
		<tag k="place" v="neighbourhood" />
		<tag k="ssr:stedsnr" v="182855" />
		<tag k="ssr:type" v="haug" />
	</node>
	<node id="5603473506" lat="58.7845556" lon="7.5660056" version="1" timestamp="2018-05-08T04:27:07Z" changeset="58776067" uid="3842253" user="NKA_import">
		<tag k="name" v="Vorebuæ" />
		<tag k="place" v="locality" />
		<tag k="ssr:stedsnr" v="224845" />
		<tag k="ssr:type" v="gammelBosettingsplass" />
	</node>
	<node id="5603473507" lat="58.707125" lon="7.4811694" version="1" timestamp="2018-05-08T04:27:07Z" changeset="58776067" uid="3842253" user="NKA_import">
		<tag k="alt_name" v="Røylland;Røyland" />
		<tag k="name" v="Røyddan" />
		<tag k="place" v="farm" />
		<tag k="ssr:stedsnr" v="911267" />
		<tag k="ssr:type" v="gard" />
	</node>
	<node id="5603473508" lat="58.8272167" lon="7.5689083" version="1" timestamp="2018-05-08T04:27:07Z" changeset="58776067" uid="3842253" user="NKA_import">
		<tag k="name" v="Gamleøygard" />
		<tag k="place" v="locality" />
		<tag k="ssr:stedsnr" v="706690" />
		<tag k="ssr:type" v="gammelBosettingsplass" />
	</node>
	<node id="5603473509" lat="58.5424551" lon="7.3514356" version="2" timestamp="2021-03-22T17:17:54Z" changeset="101520028" uid="3497659" user="NKA">
		<tag k="alt_name" v="Øvre Koven" />
		<tag k="name" v="Koven" />
		<tag k="place" v="isolated_dwelling" />
		<tag k="ssr:stedsnr" v="303951" />
		<tag k="ssr:type" v="fritidsbolig" />
	</node>
	<node id="5603473510" lat="58.7794528" lon="7.579975" version="1" timestamp="2018-05-08T04:27:07Z" changeset="58776067" uid="3842253" user="NKA_import">
		<tag k="name" v="Samlogbuæ" />
		<tag k="place" v="locality" />
		<tag k="ssr:stedsnr" v="42820" />
		<tag k="ssr:type" v="gammelBosettingsplass" />
	</node>
	<node id="5603473511" lat="58.7794333" lon="7.5698278" version="1" timestamp="2018-05-08T04:27:07Z" changeset="58776067" uid="3842253" user="NKA_import">
		<tag k="building" v="cabin" />
		<tag k="name" v="Vorebu" />
		<tag k="place" v="isolated_dwelling" />
		<tag k="ssr:stedsnr" v="831822" />
		<tag k="ssr:type" v="fritidsbolig" />
	</node>
	<node id="5603473512" lat="58.6242611" lon="7.4704417" version="1" timestamp="2018-05-08T04:27:07Z" changeset="58776067" uid="3842253" user="NKA_import">
		<tag k="name" v="Holun" />
		<tag k="place" v="locality" />
		<tag k="ssr:stedsnr" v="103480" />
		<tag k="ssr:type" v="gammelBosettingsplass" />
	</node>
	<node id="5603473513" lat="58.5067583" lon="7.4205694" version="1" timestamp="2018-05-08T04:27:08Z" changeset="58776067" uid="3842253" user="NKA_import">
		<tag k="alt_name" v="Håvårdstad" />
		<tag k="name" v="Håvorstad" />
		<tag k="place" v="hamlet" />
		<tag k="ssr:stedsnr" v="364903" />
		<tag k="ssr:type" v="gard" />
	</node>
	<node id="5603473514" lat="58.7929444" lon="7.5150111" version="1" timestamp="2018-05-08T04:27:08Z" changeset="58776067" uid="3842253" user="NKA_import">
		<tag k="name" v="Dybleøygard" />
		<tag k="place" v="locality" />
		<tag k="ssr:stedsnr" v="524638" />
		<tag k="ssr:type" v="gammelBosettingsplass" />
	</node>
	<node id="5603473515" lat="58.6850139" lon="7.4685861" version="1" timestamp="2018-05-08T04:27:08Z" changeset="58776067" uid="3842253" user="NKA_import">
		<tag k="alt_name" v="Hodna;Hodne" />
		<tag k="name" v="Honna" />
		<tag k="place" v="farm" />
		<tag k="ssr:stedsnr" v="304192" />
		<tag k="ssr:type" v="gard" />
	</node>
	<node id="5603473516" lat="58.8164694" lon="7.332659" version="2" timestamp="2021-03-22T17:17:54Z" changeset="101520028" uid="3497659" user="NKA">
		<tag k="name" v="Tjønnbu" />
		<tag k="place" v="isolated_dwelling" />
		<tag k="ssr:stedsnr" v="770146" />
		<tag k="ssr:type" v="fritidsbolig" />
	</node>
	<node id="5603473517" lat="58.6857661" lon="7.4996828" version="2" timestamp="2021-03-22T17:17:54Z" changeset="101520028" uid="3497659" user="NKA">
		<tag k="alt_name" v="Hodnaøygarden" />
		<tag k="name" v="Honnaøygard" />
		<tag k="place" v="locality" />
		<tag k="ssr:stedsnr" v="365216" />
		<tag k="ssr:type" v="byggForJordbrukFiskeOgFangst" />
	</node>
	<node id="5603473519" lat="58.5712694" lon="7.4010361" version="1" timestamp="2018-05-08T04:27:08Z" changeset="58776067" uid="3842253" user="NKA_import">
		<tag k="name" v="Øygarden" />
		<tag k="place" v="locality" />
		<tag k="ssr:stedsnr" v="43104" />
		<tag k="ssr:type" v="gammelBosettingsplass" />
	</node>
	<node id="5603473520" lat="58.6987583" lon="7.3706806" version="1" timestamp="2018-05-08T04:27:08Z" changeset="58776067" uid="3842253" user="NKA_import">
		<tag k="historic" v="shieling" />
		<tag k="name" v="Åstøl" />
		<tag k="place" v="locality" />
		<tag k="ssr:stedsnr" v="365234" />
		<tag k="ssr:type" v="byggForJordbrukFiskeOgFangst" />
	</node>
	<node id="5603473721" lat="58.8153891" lon="7.5570598" version="2" timestamp="2021-03-22T17:17:54Z" changeset="101520028" uid="3497659" user="NKA">
		<tag k="name" v="Juvasstøl" />
		<tag k="place" v="isolated_dwelling" />
		<tag k="ssr:stedsnr" v="911521" />
		<tag k="ssr:type" v="fritidsbolig" />
	</node>
	<node id="5603473722" lat="58.7531614" lon="7.5091459" version="1" timestamp="2018-05-08T04:27:08Z" changeset="58776067" uid="3842253" user="NKA_import">
		<tag k="alt_name" v="Nordgard" />
		<tag k="name" v="Nordgarden" />
		<tag k="place" v="farm" />
		<tag k="ssr:stedsnr" v="832026" />
		<tag k="ssr:type" v="gard" />
	</node>
	<node id="5603473723" lat="58.7394944" lon="7.4440393" version="2" timestamp="2021-03-22T17:17:54Z" changeset="101520028" uid="3497659" user="NKA">
		<tag k="name" v="Snøheihyttå" />
		<tag k="place" v="isolated_dwelling" />
		<tag k="ssr:stedsnr" v="43141" />
		<tag k="ssr:type" v="fritidsbolig" />
	</node>
	<node id="5603473724" lat="58.7459972" lon="7.4373195" version="1" timestamp="2018-05-08T04:27:09Z" changeset="58776067" uid="3842253" user="NKA_import">
		<tag k="historic" v="shieling" />
		<tag k="name" v="Blikksdalsøygard" />
		<tag k="place" v="locality" />
		<tag k="ssr:stedsnr" v="43142" />
		<tag k="ssr:type" v="seterStøl" />
	</node>
	<node id="5603473725" lat="58.7028278" lon="7.4590083" version="1" timestamp="2018-05-08T04:27:09Z" changeset="58776067" uid="3842253" user="NKA_import">
		<tag k="historic" v="shieling" />
		<tag k="name" v="Nereøygard" />
		<tag k="place" v="locality" />
		<tag k="ssr:stedsnr" v="528013" />
		<tag k="ssr:type" v="seterStøl" />
	</node>
	<node id="5603473726" lat="58.8316222" lon="7.3479806" version="1" timestamp="2018-05-08T04:27:09Z" changeset="58776067" uid="3842253" user="NKA_import">
		<tag k="historic" v="shieling" />
		<tag k="name" v="Lonebu" />
		<tag k="place" v="locality" />
		<tag k="ssr:stedsnr" v="710177" />
		<tag k="ssr:type" v="seterStøl" />
	</node>
	<node id="5603473727" lat="58.5949667" lon="7.4225556" version="1" timestamp="2018-05-08T04:27:09Z" changeset="58776067" uid="3842253" user="NKA_import">
		<tag k="name" v="Tjovebua" />
		<tag k="place" v="locality" />
		<tag k="ssr:stedsnr" v="164270" />
		<tag k="ssr:type" v="gammelBosettingsplass" />
	</node>
	<node id="5603473728" lat="58.7260361" lon="7.306975" version="1" timestamp="2018-05-08T04:27:09Z" changeset="58776067" uid="3842253" user="NKA_import">
		<tag k="historic" v="shieling" />
		<tag k="name" v="Hanseslegå" />
		<tag k="place" v="locality" />
		<tag k="ssr:stedsnr" v="401335" />
		<tag k="ssr:type" v="seterStøl" />
	</node>
	<node id="5603473729" lat="58.6536444" lon="7.3027389" version="1" timestamp="2018-05-08T04:27:09Z" changeset="58776067" uid="3842253" user="NKA_import">
		<tag k="name" v="Dapen" />
		<tag k="place" v="locality" />
		<tag k="ssr:stedsnr" v="164310" />
		<tag k="ssr:type" v="gammelBosettingsplass" />
	</node>
	<node id="5603473730" lat="58.7344528" lon="7.4583889" version="1" timestamp="2018-05-08T04:27:09Z" changeset="58776067" uid="3842253" user="NKA_import">
		<tag k="historic" v="shieling" />
		<tag k="name" v="Norårøygard" />
		<tag k="place" v="locality" />
		<tag k="ssr:stedsnr" v="710229" />
		<tag k="ssr:type" v="seterStøl" />
	</node>
	<node id="5603473731" lat="58.6985611" lon="7.3708055" version="1" timestamp="2018-05-08T04:27:09Z" changeset="58776067" uid="3842253" user="NKA_import">
		<tag k="historic" v="shieling" />
		<tag k="name" v="Ommundstovas Åstøl" />
		<tag k="place" v="locality" />
		<tag k="ssr:stedsnr" v="528077" />
		<tag k="ssr:type" v="gammelBosettingsplass" />
	</node>
	<node id="5603473732" lat="58.7744957" lon="7.4839711" version="2" timestamp="2021-03-22T17:17:54Z" changeset="101520028" uid="3497659" user="NKA">
		<tag k="name" v="Hedderstjønnæ" />
		<tag k="place" v="isolated_dwelling" />
		<tag k="ssr:stedsnr" v="402740" />
		<tag k="ssr:type" v="fritidsbolig" />
	</node>
	<node id="5603473733" lat="58.7841833" lon="7.5283889" version="1" timestamp="2018-05-08T04:27:10Z" changeset="58776067" uid="3842253" user="NKA_import">
		<tag k="name" v="Ingebjørgsbuæ" />
		<tag k="place" v="locality" />
		<tag k="ssr:stedsnr" v="949247" />
		<tag k="ssr:type" v="gammelBosettingsplass" />
	</node>
	<node id="5603473734" lat="58.7140929" lon="7.589234" version="2" timestamp="2021-03-22T17:17:54Z" changeset="101520028" uid="3497659" user="NKA">
		<tag k="name" v="Krokevasshyttå" />
		<tag k="place" v="isolated_dwelling" />
		<tag k="ssr:stedsnr" v="528103" />
		<tag k="ssr:type" v="fritidsbolig" />
	</node>
	<node id="5603473735" lat="58.6986694" lon="7.5272722" version="1" timestamp="2018-05-08T04:27:10Z" changeset="58776067" uid="3842253" user="NKA_import">
		<tag k="historic" v="shieling" />
		<tag k="name" v="Listøl-Øygard" />
		<tag k="place" v="locality" />
		<tag k="ssr:stedsnr" v="467227" />
		<tag k="ssr:type" v="gammelBosettingsplass" />
	</node>
	<node id="5603473736" lat="58.7374139" lon="7.4444083" version="1" timestamp="2018-05-08T04:27:10Z" changeset="58776067" uid="3842253" user="NKA_import">
		<tag k="historic" v="shieling" />
		<tag k="name" v="Brelandsdalen" />
		<tag k="place" v="locality" />
		<tag k="ssr:stedsnr" v="710270" />
		<tag k="ssr:type" v="seterStøl" />
	</node>
	<node id="5603473737" lat="58.5589028" lon="7.4396639" version="1" timestamp="2018-05-08T04:27:10Z" changeset="58776067" uid="3842253" user="NKA_import">
		<tag k="name" v="Plasset" />
		<tag k="place" v="farm" />
		<tag k="ssr:stedsnr" v="893083" />
		<tag k="ssr:type" v="bruk" />
	</node>
	<node id="5603473738" lat="58.5960083" lon="7.4252778" version="1" timestamp="2018-05-08T04:27:10Z" changeset="58776067" uid="3842253" user="NKA_import">
		<tag k="historic" v="shieling" />
		<tag k="name" v="Såvestøl" />
		<tag k="place" v="locality" />
		<tag k="ssr:stedsnr" v="43217" />
		<tag k="ssr:type" v="gammelBosettingsplass" />
	</node>
	<node id="5603473739" lat="58.7399523" lon="7.6406532" version="2" timestamp="2021-03-22T17:17:54Z" changeset="101520028" uid="3497659" user="NKA">
		<tag k="name" v="Rolfsbu" />
		<tag k="place" v="isolated_dwelling" />
		<tag k="ssr:stedsnr" v="893277" />
		<tag k="ssr:type" v="fritidsbolig" />
	</node>
	<node id="5603473740" lat="58.6189861" lon="7.4053528" version="1" timestamp="2018-05-08T04:27:10Z" changeset="58776067" uid="3842253" user="NKA_import">
		<tag k="name" v="Karten" />
		<tag k="place" v="farm" />
		<tag k="ssr:stedsnr" v="164448" />
		<tag k="ssr:type" v="bruk" />
	</node>
	<node id="5603473741" lat="58.7433028" lon="7.6023361" version="1" timestamp="2018-05-08T04:27:10Z" changeset="58776067" uid="3842253" user="NKA_import">
		<tag k="historic" v="shieling" />
		<tag k="name" v="Nybu" />
		<tag k="place" v="locality" />
		<tag k="ssr:stedsnr" v="893317" />
		<tag k="ssr:type" v="seterStøl" />
	</node>
	<node id="5603473742" lat="58.6602667" lon="7.5294056" version="2" timestamp="2021-03-22T17:17:54Z" changeset="101520028" uid="3497659" user="NKA">
		<tag k="name" v="Sveigsøygard" />
		<tag k="place" v="locality" />
		<tag k="ssr:stedsnr" v="164492" />
		<tag k="ssr:type" v="byggForJordbrukFiskeOgFangst" />
	</node>
	<node id="5603473743" lat="58.8434777" lon="7.4362361" version="2" timestamp="2021-03-22T17:17:54Z" changeset="101520028" uid="3497659" user="NKA">
		<tag k="name" v="Gluggvarhyttå" />
		<tag k="place" v="isolated_dwelling" />
		<tag k="ssr:stedsnr" v="281701" />
		<tag k="ssr:type" v="fritidsbolig" />
	</node>
	<node id="5603473744" lat="58.6854056" lon="7.5095278" version="1" timestamp="2018-05-08T04:27:11Z" changeset="58776067" uid="3842253" user="NKA_import">
		<tag k="name" v="Heimåre Øygard" />
		<tag k="place" v="locality" />
		<tag k="ssr:stedsnr" v="832329" />
		<tag k="ssr:type" v="gammelBosettingsplass" />
	</node>
	<node id="5603473745" lat="58.6209833" lon="7.410375" version="1" timestamp="2018-05-08T04:27:11Z" changeset="58776067" uid="3842253" user="NKA_import">
		<tag k="name" v="Kroken" />
		<tag k="place" v="farm" />
		<tag k="ssr:stedsnr" v="893373" />
		<tag k="ssr:type" v="bruk" />
	</node>
	<node id="5603473746" lat="58.7859136" lon="7.4481229" version="2" timestamp="2021-03-22T17:17:54Z" changeset="101520028" uid="3497659" user="NKA">
		<tag k="name" v="Skrubbetjønnøygard" />
		<tag k="place" v="isolated_dwelling" />
		<tag k="ssr:stedsnr" v="281729" />
		<tag k="ssr:type" v="fritidsbolig" />
	</node>
	<node id="5603473747" lat="58.6877028" lon="7.5994472" version="1" timestamp="2018-05-08T04:27:11Z" changeset="58776067" uid="3842253" user="NKA_import">
		<tag k="name" v="Ytra Midtteigbuæ" />
		<tag k="place" v="locality" />
		<tag k="ssr:stedsnr" v="832342" />
		<tag k="ssr:type" v="gammelBosettingsplass" />
	</node>
	<node id="5603473748" lat="58.6860333" lon="7.6008472" version="1" timestamp="2018-05-08T04:27:11Z" changeset="58776067" uid="3842253" user="NKA_import">
		<tag k="name" v="Ysta Bjorstebuæ" />
		<tag k="place" v="locality" />
		<tag k="ssr:stedsnr" v="832343" />
		<tag k="ssr:type" v="gammelBosettingsplass" />
	</node>
	<node id="5603473749" lat="58.6863056" lon="7.534975" version="1" timestamp="2018-05-08T04:27:11Z" changeset="58776067" uid="3842253" user="NKA_import">
		<tag k="name" v="Auståre Øygard" />
		<tag k="place" v="locality" />
		<tag k="ssr:stedsnr" v="649300" />
		<tag k="ssr:type" v="gammelBosettingsplass" />
	</node>
	<node id="5603473750" lat="58.6237861" lon="7.3898139" version="1" timestamp="2018-05-08T04:27:11Z" changeset="58776067" uid="3842253" user="NKA_import">
		<tag k="name" v="Øygarden" />
		<tag k="place" v="farm" />
		<tag k="ssr:stedsnr" v="893402" />
		<tag k="ssr:type" v="bruk" />
	</node>
	<node id="5603473751" lat="58.7597722" lon="7.4438389" version="1" timestamp="2018-05-08T04:27:11Z" changeset="58776067" uid="3842253" user="NKA_import">
		<tag k="historic" v="shieling" />
		<tag k="name" v="Storrhei" />
		<tag k="place" v="locality" />
		<tag k="ssr:stedsnr" v="952964" />
		<tag k="ssr:type" v="seterStøl" />
	</node>
	<node id="5603473752" lat="58.6173376" lon="7.4160539" version="1" timestamp="2018-05-08T04:27:11Z" changeset="58776067" uid="3842253" user="NKA_import">
		<tag k="name" v="Berg" />
		<tag k="place" v="farm" />
		<tag k="ssr:stedsnr" v="225399" />
		<tag k="ssr:type" v="grend" />
	</node>
	<node id="5603473753" lat="58.6265278" lon="7.4673361" version="1" timestamp="2018-05-08T04:27:11Z" changeset="58776067" uid="3842253" user="NKA_import">
		<tag k="historic" v="shieling" />
		<tag k="name" v="Kveldsol" />
		<tag k="place" v="locality" />
		<tag k="ssr:stedsnr" v="406486" />
		<tag k="ssr:type" v="seterStøl" />
	</node>
	<node id="5603473754" lat="58.6578917" lon="7.5060333" version="1" timestamp="2018-05-08T04:27:11Z" changeset="58776067" uid="3842253" user="NKA_import">
		<tag k="name" v="Gamle-øygard" />
		<tag k="place" v="locality" />
		<tag k="ssr:stedsnr" v="710500" />
		<tag k="ssr:type" v="gammelBosettingsplass" />
	</node>
	<node id="5603473755" lat="58.7034639" lon="7.5727667" version="1" timestamp="2018-05-08T04:27:11Z" changeset="58776067" uid="3842253" user="NKA_import">
		<tag k="name" v="Gamlebu" />
		<tag k="place" v="locality" />
		<tag k="ssr:stedsnr" v="345231" />
		<tag k="ssr:type" v="gammelBosettingsplass" />
	</node>
	<node id="5603473756" lat="58.7590361" lon="7.3843306" version="1" timestamp="2018-05-08T04:27:12Z" changeset="58776067" uid="3842253" user="NKA_import">
		<tag k="historic" v="shieling" />
		<tag k="name" v="Blikkstøl" />
		<tag k="place" v="locality" />
		<tag k="ssr:stedsnr" v="467932" />
		<tag k="ssr:type" v="byggForJordbrukFiskeOgFangst" />
	</node>
	<node id="5603473757" lat="58.6569278" lon="7.5095389" version="1" timestamp="2018-05-08T04:27:12Z" changeset="58776067" uid="3842253" user="NKA_import">
		<tag k="name" v="Ekjemonøygard" />
		<tag k="place" v="locality" />
		<tag k="ssr:stedsnr" v="104417" />
		<tag k="ssr:type" v="gammelBosettingsplass" />
	</node>
	<node id="5603473758" lat="58.6318861" lon="7.3593333" version="1" timestamp="2018-05-08T04:27:12Z" changeset="58776067" uid="3842253" user="NKA_import">
		<tag k="name" v="Troddegarden" />
		<tag k="place" v="locality" />
		<tag k="ssr:stedsnr" v="225436" />
		<tag k="ssr:type" v="gammelBosettingsplass" />
	</node>
	<node id="5603473759" lat="58.5708139" lon="7.2822194" version="1" timestamp="2018-05-08T04:27:12Z" changeset="58776067" uid="3842253" user="NKA_import">
		<tag k="name" v="Leitebu" />
		<tag k="place" v="locality" />
		<tag k="ssr:stedsnr" v="164738" />
		<tag k="ssr:type" v="gammelBosettingsplass" />
	</node>
	<node id="5603473760" lat="58.7574889" lon="7.5051528" version="1" timestamp="2018-05-08T04:27:12Z" changeset="58776067" uid="3842253" user="NKA_import">
		<tag k="name" v="Grønes" />
		<tag k="place" v="farm" />
		<tag k="ssr:stedsnr" v="468040" />
		<tag k="ssr:type" v="bruk" />
	</node>
	<node id="5603473761" lat="58.6427861" lon="7.3468028" version="1" timestamp="2018-05-08T04:27:12Z" changeset="58776067" uid="3842253" user="NKA_import">
		<tag k="name" v="Hommen" />
		<tag k="place" v="locality" />
		<tag k="ssr:stedsnr" v="832426" />
		<tag k="ssr:type" v="gammelBosettingsplass" />
	</node>
	<node id="5603473762" lat="58.60265" lon="7.3894361" version="1" timestamp="2018-05-08T04:27:12Z" changeset="58776067" uid="3842253" user="NKA_import">
		<tag k="name" v="Åslandsøygard" />
		<tag k="place" v="locality" />
		<tag k="ssr:stedsnr" v="771378" />
		<tag k="ssr:type" v="gammelBosettingsplass" />
	</node>
	<node id="5603473763" lat="58.74415" lon="7.6145083" version="2" timestamp="2021-03-22T17:17:54Z" changeset="101520028" uid="3497659" user="NKA">
		<tag k="name" v="Olasøygard" />
		<tag k="place" v="locality" />
		<tag k="ssr:stedsnr" v="528323" />
		<tag k="ssr:type" v="byggForJordbrukFiskeOgFangst" />
	</node>
	<node id="5603473764" lat="58.6247722" lon="7.4309778" version="1" timestamp="2018-05-08T04:27:12Z" changeset="58776067" uid="3842253" user="NKA_import">
		<tag k="name" v="Troddemonen" />
		<tag k="place" v="farm" />
		<tag k="ssr:stedsnr" v="225530" />
		<tag k="ssr:type" v="bruk" />
	</node>
	<node id="5603473765" lat="58.5220556" lon="7.5037667" version="1" timestamp="2018-05-08T04:27:12Z" changeset="58776067" uid="3842253" user="NKA_import">
		<tag k="name" v="Glanestad" />
		<tag k="place" v="locality" />
		<tag k="ssr:stedsnr" v="43863" />
		<tag k="ssr:type" v="gammelBosettingsplass" />
	</node>
	<node id="5603473766" lat="58.6893833" lon="7.5966528" version="1" timestamp="2018-05-08T04:27:12Z" changeset="58776067" uid="3842253" user="NKA_import">
		<tag k="name" v="Heimra Bjorstebuæ" />
		<tag k="place" v="locality" />
		<tag k="ssr:stedsnr" v="953174" />
		<tag k="ssr:type" v="gammelBosettingsplass" />
	</node>
	<node id="5603473767" lat="58.5542789" lon="7.2830769" version="2" timestamp="2021-03-22T17:17:54Z" changeset="101520028" uid="3497659" user="NKA">
		<tag k="building" v="ruins" />
		<tag k="name" v="Knupen" />
		<tag k="place" v="locality" />
		<tag k="ssr:stedsnr" v="104791" />
		<tag k="ssr:type" v="byggForJordbrukFiskeOgFangst" />
	</node>
	<node id="5603473768" lat="58.6120806" lon="7.2854417" version="1" timestamp="2018-05-08T04:27:13Z" changeset="58776067" uid="3842253" user="NKA_import">
		<tag k="historic" v="shieling" />
		<tag k="name" v="Teistedalen" />
		<tag k="place" v="locality" />
		<tag k="ssr:stedsnr" v="649470" />
		<tag k="ssr:type" v="seterStøl" />
	</node>
	<node id="5603473769" lat="58.7445118" lon="7.6023677" version="2" timestamp="2021-03-22T17:17:54Z" changeset="101520028" uid="3497659" user="NKA">
		<tag k="name" v="Eintre" />
		<tag k="place" v="locality" />
		<tag k="ssr:stedsnr" v="528360" />
		<tag k="ssr:type" v="byggForJordbrukFiskeOgFangst" />
	</node>
	<node id="5603473770" lat="58.7057861" lon="7.6296805" version="1" timestamp="2018-05-08T04:27:13Z" changeset="58776067" uid="3842253" user="NKA_import">
		<tag k="name" v="Austebekkbuæ" />
		<tag k="place" v="locality" />
		<tag k="ssr:stedsnr" v="953185" />
		<tag k="ssr:type" v="gammelBosettingsplass" />
	</node>
	<node id="5603473771" lat="58.6885583" lon="7.5985333" version="1" timestamp="2018-05-08T04:27:13Z" changeset="58776067" uid="3842253" user="NKA_import">
		<tag k="name" v="Midtteigbuæ" />
		<tag k="place" v="locality" />
		<tag k="ssr:stedsnr" v="346167" />
		<tag k="ssr:type" v="gammelBosettingsplass" />
	</node>
	<node id="5603473772" lat="58.624075" lon="7.4620639" version="1" timestamp="2018-05-08T04:27:13Z" changeset="58776067" uid="3842253" user="NKA_import">
		<tag k="name" v="Lislabu" />
		<tag k="place" v="locality" />
		<tag k="ssr:stedsnr" v="649488" />
		<tag k="ssr:type" v="gammelBosettingsplass" />
	</node>
	<node id="5603473773" lat="58.7238972" lon="7.4776083" version="1" timestamp="2018-05-08T04:27:13Z" changeset="58776067" uid="3842253" user="NKA_import">
		<tag k="name" v="Ekill-øygard" />
		<tag k="place" v="locality" />
		<tag k="ssr:stedsnr" v="893899" />
		<tag k="ssr:type" v="gammelBosettingsplass" />
	</node>
	<node id="5603473774" lat="58.5833278" lon="7.4163944" version="1" timestamp="2018-05-08T04:27:13Z" changeset="58776067" uid="3842253" user="NKA_import">
		<tag k="historic" v="shieling" />
		<tag k="name" v="Stokkestøl" />
		<tag k="place" v="locality" />
		<tag k="ssr:stedsnr" v="346215" />
		<tag k="ssr:type" v="gammelBosettingsplass" />
	</node>
	<node id="5603473775" lat="58.7997007" lon="7.5995364" version="2" timestamp="2021-03-22T17:17:54Z" changeset="101520028" uid="3497659" user="NKA">
		<tag k="name" v="Krokevasshyttå" />
		<tag k="place" v="isolated_dwelling" />
		<tag k="ssr:stedsnr" v="649743" />
		<tag k="ssr:type" v="fritidsbolig" />
	</node>
	<node id="5603473776" lat="58.6237415" lon="7.429208" version="1" timestamp="2018-05-08T04:27:13Z" changeset="58776067" uid="3842253" user="NKA_import">
		<tag k="name" v="Austerudsmoen" />
		<tag k="place" v="neighbourhood" />
		<tag k="ssr:stedsnr" v="589365" />
		<tag k="ssr:type" v="industriområde" />
	</node>
	<node id="5603473777" lat="58.8155889" lon="7.5071361" version="1" timestamp="2018-05-08T04:27:13Z" changeset="58776067" uid="3842253" user="NKA_import">
		<tag k="name" v="Liansøygard" />
		<tag k="place" v="locality" />
		<tag k="ssr:stedsnr" v="953290" />
		<tag k="ssr:type" v="gammelBosettingsplass" />
	</node>
	<node id="5603473778" lat="58.5393816" lon="7.3536033" version="2" timestamp="2021-03-22T17:17:54Z" changeset="101520028" uid="3497659" user="NKA">
		<tag k="name" v="Nedre Koven" />
		<tag k="place" v="isolated_dwelling" />
		<tag k="ssr:stedsnr" v="771942" />
		<tag k="ssr:type" v="fritidsbolig" />
	</node>
	<node id="5603473779" lat="58.6861917" lon="7.5559444" version="1" timestamp="2018-05-08T04:27:14Z" changeset="58776067" uid="3842253" user="NKA_import">
		<tag k="name" v="Nere Øygard" />
		<tag k="place" v="locality" />
		<tag k="ssr:stedsnr" v="468285" />
		<tag k="ssr:type" v="gammelBosettingsplass" />
	</node>
	<node id="5603473780" lat="58.7269998" lon="7.4757631" version="1" timestamp="2018-05-08T04:27:14Z" changeset="58776067" uid="3842253" user="NKA_import">
		<tag k="alt_name" v="Eikil" />
		<tag k="name" v="Ekill" />
		<tag k="place" v="hamlet" />
		<tag k="ssr:stedsnr" v="12" />
		<tag k="ssr:type" v="gard" />
	</node>
	<node id="5603473781" lat="58.7202472" lon="7.4585806" version="1" timestamp="2018-05-08T04:27:14Z" changeset="58776067" uid="3842253" user="NKA_import">
		<tag k="name" v="Liland" />
		<tag k="place" v="isolated_dwelling" />
		<tag k="ssr:stedsnr" v="19" />
		<tag k="ssr:type" v="eneboligMindreBoligbygg" />
	</node>
	<node id="5603473782" lat="58.5913389" lon="7.4593528" version="1" timestamp="2018-05-08T04:27:14Z" changeset="58776067" uid="3842253" user="NKA_import">
		<tag k="name" v="Tjønnebu" />
		<tag k="place" v="locality" />
		<tag k="ssr:stedsnr" v="165178" />
		<tag k="ssr:type" v="gammelBosettingsplass" />
	</node>
	<node id="5603473783" lat="58.7285389" lon="7.393075" version="1" timestamp="2018-05-08T04:27:14Z" changeset="58776067" uid="3842253" user="NKA_import">
		<tag k="name" v="Sandnes" />
		<tag k="place" v="farm" />
		<tag k="ssr:stedsnr" v="32" />
		<tag k="ssr:type" v="bruk" />
	</node>
	<node id="5603473784" lat="58.7439028" lon="7.4728889" version="1" timestamp="2018-05-08T04:27:14Z" changeset="58776067" uid="3842253" user="NKA_import">
		<tag k="alt_name" v="Reiårsdalen;Reiersdal" />
		<tag k="name" v="Reiåsdalen" />
		<tag k="place" v="farm" />
		<tag k="ssr:stedsnr" v="56" />
		<tag k="ssr:type" v="gard" />
	</node>
	<node id="5603473785" lat="58.7802972" lon="7.4803528" version="1" timestamp="2018-05-08T04:27:14Z" changeset="58776067" uid="3842253" user="NKA_import">
		<tag k="historic" v="shieling" />
		<tag k="name" v="Hurraheia" />
		<tag k="place" v="locality" />
		<tag k="ssr:stedsnr" v="116813" />
		<tag k="ssr:type" v="seterStøl" />
	</node>
	<node id="5603473786" lat="58.5464972" lon="7.521475" version="1" timestamp="2018-05-08T04:27:14Z" changeset="58776067" uid="3842253" user="NKA_import">
		<tag k="historic" v="shieling" />
		<tag k="name" v="Omestøl" />
		<tag k="place" v="locality" />
		<tag k="ssr:stedsnr" v="649896" />
		<tag k="ssr:type" v="gammelBosettingsplass" />
	</node>
	<node id="5603473787" lat="58.6651139" lon="7.4313194" version="1" timestamp="2018-05-08T04:27:14Z" changeset="58776067" uid="3842253" user="NKA_import">
		<tag k="historic" v="shieling" />
		<tag k="name" v="Tjønnestøl" />
		<tag k="place" v="locality" />
		<tag k="ssr:stedsnr" v="589483" />
		<tag k="ssr:type" v="gammelBosettingsplass" />
	</node>
	<node id="5603473788" lat="58.7317806" lon="7.3785861" version="1" timestamp="2018-05-08T04:27:15Z" changeset="58776067" uid="3842253" user="NKA_import">
		<tag k="name" v="Reinsbu" />
		<tag k="place" v="locality" />
		<tag k="ssr:stedsnr" v="182032" />
		<tag k="ssr:type" v="eiendom" />
	</node>
	<node id="5603473789" lat="58.6987806" lon="7.5783556" version="1" timestamp="2018-05-08T04:27:15Z" changeset="58776067" uid="3842253" user="NKA_import">
		<tag k="name" v="Nordlund" />
		<tag k="place" v="farm" />
		<tag k="ssr:stedsnr" v="61229" />
		<tag k="ssr:type" v="bruk" />
	</node>
	<node id="5603473790" lat="58.7182667" lon="7.3865917" version="1" timestamp="2018-05-08T04:27:15Z" changeset="58776067" uid="3842253" user="NKA_import">
		<tag k="historic" v="shieling" />
		<tag k="name" v="Bystøl" />
		<tag k="place" v="locality" />
		<tag k="ssr:stedsnr" v="832967" />
		<tag k="ssr:type" v="seterStøl" />
	</node>
	<node id="5603473791" lat="58.7390278" lon="7.5081028" version="1" timestamp="2018-05-08T04:27:15Z" changeset="58776067" uid="3842253" user="NKA_import">
		<tag k="alt_name" v="Røynelien" />
		<tag k="name" v="Røynli" />
		<tag k="place" v="farm" />
		<tag k="ssr:stedsnr" v="121063" />
		<tag k="ssr:type" v="gard" />
	</node>
	<node id="5603473792" lat="58.5857194" lon="7.448325" version="1" timestamp="2018-05-08T04:27:15Z" changeset="58776067" uid="3842253" user="NKA_import">
		<tag k="name" v="Monebua" />
		<tag k="place" v="locality" />
		<tag k="ssr:stedsnr" v="711226" />
		<tag k="ssr:type" v="gammelBosettingsplass" />
	</node>
	<node id="5603473793" lat="58.6422742" lon="7.4234163" version="2" timestamp="2021-03-22T17:17:54Z" changeset="101520028" uid="3497659" user="NKA">
		<tag k="building" v="ruins" />
		<tag k="name" v="Skorskog" />
		<tag k="place" v="locality" />
		<tag k="ssr:stedsnr" v="346441" />
		<tag k="ssr:type" v="byggForJordbrukFiskeOgFangst" />
	</node>
	<node id="5603473794" lat="58.8391167" lon="7.4582722" version="1" timestamp="2018-05-08T04:27:15Z" changeset="58776067" uid="3842253" user="NKA_import">
		<tag k="alt_name" v="Kvitevassøygarden" />
		<tag k="name" v="Kvitevassøygard" />
		<tag k="place" v="locality" />
		<tag k="ssr:stedsnr" v="182385" />
		<tag k="ssr:type" v="gammelBosettingsplass" />
	</node>
	<node id="5603473795" lat="58.7126722" lon="7.4895278" version="1" timestamp="2018-05-08T04:27:15Z" changeset="58776067" uid="3842253" user="NKA_import">
		<tag k="name" v="Listøl" />
		<tag k="place" v="farm" />
		<tag k="ssr:stedsnr" v="243004" />
		<tag k="ssr:type" v="gard" />
	</node>
	<node id="5603473796" lat="58.7116804" lon="7.399134" version="2" timestamp="2021-03-22T17:17:54Z" changeset="101520028" uid="3497659" user="NKA">
		<tag k="alt_name" v="Myrløa" />
		<tag k="name" v="Myrløå" />
		<tag k="place" v="isolated_dwelling" />
		<tag k="ssr:stedsnr" v="243009" />
		<tag k="ssr:type" v="fritidsbolig" />
	</node>
	<node id="5603473797" lat="58.5471472" lon="7.3247028" version="1" timestamp="2018-05-08T04:27:15Z" changeset="58776067" uid="3842253" user="NKA_import">
		<tag k="building" v="farm_auxiliary" />
		<tag k="name" v="Bustad" />
		<tag k="place" v="locality" />
		<tag k="ssr:stedsnr" v="711848" />
		<tag k="ssr:type" v="byggForJordbrukFiskeOgFangst" />
	</node>
	<node id="5603473798" lat="58.7351454" lon="7.4758365" version="2" timestamp="2021-03-22T17:17:54Z" changeset="101520028" uid="3497659" user="NKA">
		<tag k="name" v="Myran" />
		<tag k="place" v="locality" />
		<tag k="ssr:stedsnr" v="243022" />
		<tag k="ssr:type" v="byggForJordbrukFiskeOgFangst" />
	</node>
	<node id="5603473799" lat="58.7396083" lon="7.6257278" version="1" timestamp="2018-05-08T04:27:16Z" changeset="58776067" uid="3842253" user="NKA_import">
		<tag k="name" v="Koland" />
		<tag k="place" v="farm" />
		<tag k="ssr:stedsnr" v="789035" />
		<tag k="ssr:type" v="bruk" />
	</node>
	<node id="5603473800" lat="58.7132722" lon="7.3829917" version="1" timestamp="2018-05-08T04:27:16Z" changeset="58776067" uid="3842253" user="NKA_import">
		<tag k="alt_name" v="Godfarsbu" />
		<tag k="building" v="cabin" />
		<tag k="name" v="Gofasbu" />
		<tag k="place" v="isolated_dwelling" />
		<tag k="ssr:stedsnr" v="849010" />
		<tag k="ssr:type" v="fritidsbolig" />
	</node>
	<node id="5603473801" lat="58.604068" lon="7.2799799" version="2" timestamp="2021-03-22T17:17:54Z" changeset="101520028" uid="3497659" user="NKA">
		<tag k="name" v="Glypen" />
		<tag k="place" v="isolated_dwelling" />
		<tag k="ssr:stedsnr" v="121439" />
		<tag k="ssr:type" v="fritidsbolig" />
	</node>
	<node id="5603473802" lat="58.7466139" lon="7.4758611" version="1" timestamp="2018-05-08T04:27:16Z" changeset="58776067" uid="3842253" user="NKA_import">
		<tag k="name" v="Hamkoll" />
		<tag k="place" v="hamlet" />
		<tag k="ssr:stedsnr" v="728051" />
		<tag k="ssr:type" v="gard" />
	</node>
	<node id="5603473803" lat="58.5329014" lon="7.3123331" version="2" timestamp="2021-03-22T17:17:54Z" changeset="101520028" uid="3497659" user="NKA">
		<tag k="name" v="Homstøl" />
		<tag k="place" v="isolated_dwelling" />
		<tag k="ssr:stedsnr" v="728077" />
		<tag k="ssr:type" v="fritidsbolig" />
	</node>
	<node id="5603473804" lat="58.6312596" lon="7.3941863" version="2" timestamp="2021-03-22T17:17:54Z" changeset="101520028" uid="3497659" user="NKA">
		<tag k="alt_name" v="Gløypen" />
		<tag k="building" v="ruins" />
		<tag k="name" v="Glypen" />
		<tag k="place" v="isolated_dwelling" />
		<tag k="ssr:stedsnr" v="243124" />
		<tag k="ssr:type" v="fritidsbolig" />
	</node>
	<node id="5603473805" lat="58.645676" lon="7.4485011" version="1" timestamp="2018-05-08T04:27:16Z" changeset="58776067" uid="3842253" user="NKA_import">
		<tag k="name" v="Torsland" />
		<tag k="place" v="hamlet" />
		<tag k="ssr:stedsnr" v="243140" />
		<tag k="ssr:type" v="gard" />
	</node>
	<node id="5603473806" lat="58.658875" lon="7.5131944" version="1" timestamp="2018-05-08T04:27:16Z" changeset="58776067" uid="3842253" user="NKA_import">
		<tag k="alt_name" v="Stekroni" />
		<tag k="building" v="farm_auxiliary" />
		<tag k="name" v="Stekronæ" />
		<tag k="place" v="locality" />
		<tag k="ssr:stedsnr" v="243168" />
		<tag k="ssr:type" v="byggForJordbrukFiskeOgFangst" />
	</node>
	<node id="5603473807" lat="58.5762667" lon="7.5160472" version="1" timestamp="2018-05-08T04:27:16Z" changeset="58776067" uid="3842253" user="NKA_import">
		<tag k="alt_name" v="Tjørnestean" />
		<tag k="name" v="Tjønnstean" />
		<tag k="place" v="farm" />
		<tag k="ssr:stedsnr" v="182763" />
		<tag k="ssr:type" v="bruk" />
	</node>
	<node id="5603473808" lat="58.6923028" lon="7.5162694" version="1" timestamp="2018-05-08T04:27:17Z" changeset="58776067" uid="3842253" user="NKA_import">
		<tag k="historic" v="shieling" />
		<tag k="name" v="Romeheia" />
		<tag k="place" v="locality" />
		<tag k="ssr:stedsnr" v="789221" />
		<tag k="ssr:type" v="seterStøl" />
	</node>
	<node id="5603473809" lat="58.5769361" lon="7.5366056" version="1" timestamp="2018-05-08T04:27:17Z" changeset="58776067" uid="3842253" user="NKA_import">
		<tag k="alt_name" v="Ekså" />
		<tag k="name" v="Egså" />
		<tag k="place" v="hamlet" />
		<tag k="ssr:stedsnr" v="783" />
		<tag k="ssr:type" v="gard" />
	</node>
	<node id="5603473810" lat="58.6950224" lon="7.4693707" version="1" timestamp="2018-05-08T04:27:17Z" changeset="58776067" uid="3842253" user="NKA_import">
		<tag k="name" v="Rosseland" />
		<tag k="place" v="hamlet" />
		<tag k="ssr:stedsnr" v="243215" />
		<tag k="ssr:type" v="gard" />
	</node>
	<node id="5603473811" lat="58.5458887" lon="7.3802766" version="1" timestamp="2018-05-08T04:27:17Z" changeset="58776067" uid="3842253" user="NKA_import">
		<tag k="name" v="Madland" />
		<tag k="place" v="farm" />
		<tag k="ssr:stedsnr" v="806" />
		<tag k="ssr:type" v="gard" />
	</node>
	<node id="5603473812" lat="58.6135294" lon="7.3416214" version="2" timestamp="2021-03-22T17:17:54Z" changeset="101520028" uid="3497659" user="NKA">
		<tag k="name" v="Sogja" />
		<tag k="place" v="isolated_dwelling" />
		<tag k="ssr:stedsnr" v="728422" />
		<tag k="ssr:type" v="fritidsbolig" />
	</node>
	<node id="5603473813" lat="58.5653667" lon="7.4666083" version="1" timestamp="2018-05-08T04:27:17Z" changeset="58776067" uid="3842253" user="NKA_import">
		<tag k="name" v="Handeland" />
		<tag k="place" v="hamlet" />
		<tag k="ssr:stedsnr" v="61796" />
		<tag k="ssr:type" v="gard" />
	</node>
	<node id="5603473814" lat="58.5396799" lon="7.3734407" version="1" timestamp="2018-05-08T04:27:17Z" changeset="58776067" uid="3842253" user="NKA_import">
		<tag k="alt_name" v="Øyuvstad" />
		<tag k="name" v="Øyulvstad" />
		<tag k="place" v="hamlet" />
		<tag k="ssr:stedsnr" v="182937" />
		<tag k="ssr:type" v="gard" />
	</node>
	<node id="5603473815" lat="58.8328917" lon="7.3702861" version="1" timestamp="2018-05-08T04:27:17Z" changeset="58776067" uid="3842253" user="NKA_import">
		<tag k="historic" v="shieling" />
		<tag k="name" v="Kile" />
		<tag k="place" v="locality" />
		<tag k="ssr:stedsnr" v="850391" />
		<tag k="ssr:type" v="seterStøl" />
	</node>
	<node id="5603473816" lat="58.5391358" lon="7.4182945" version="2" timestamp="2019-01-21T19:22:14Z" changeset="66515222" uid="3497659" user="NKA">
		<tag k="alt_name" v="Fossdal" />
		<tag k="name" v="Kylland" />
		<tag k="place" v="hamlet" />
		<tag k="ssr:stedsnr" v="61938" />
		<tag k="ssr:type" v="gard" />
	</node>
	<node id="5603473817" lat="58.6697299" lon="7.4619646" version="1" timestamp="2018-05-08T04:27:17Z" changeset="58776067" uid="3842253" user="NKA_import">
		<tag k="alt_name" v="Eikemoen" />
		<tag k="name" v="Eikjemonen" />
		<tag k="place" v="hamlet" />
		<tag k="ssr:stedsnr" v="1215" />
		<tag k="ssr:type" v="gard" />
	</node>
	<node id="5603473818" lat="58.5631333" lon="7.38695" version="1" timestamp="2018-05-08T04:27:18Z" changeset="58776067" uid="3842253" user="NKA_import">
		<tag k="name" v="Buneset" />
		<tag k="place" v="farm" />
		<tag k="ssr:stedsnr" v="728762" />
		<tag k="ssr:type" v="bruk" />
	</node>
	<node id="5603473819" lat="58.5521139" lon="7.2610778" version="1" timestamp="2018-05-08T04:27:18Z" changeset="58776067" uid="3842253" user="NKA_import">
		<tag k="historic" v="shieling" />
		<tag k="name" v="Kråkestøl" />
		<tag k="place" v="locality" />
		<tag k="ssr:stedsnr" v="667147" />
		<tag k="ssr:type" v="byggForJordbrukFiskeOgFangst" />
	</node>
	<node id="5603473820" lat="58.5751083" lon="7.5325333" version="1" timestamp="2018-05-08T04:27:18Z" changeset="58776067" uid="3842253" user="NKA_import">
		<tag k="name" v="Brubakken" />
		<tag k="place" v="farm" />
		<tag k="ssr:stedsnr" v="728773" />
		<tag k="ssr:type" v="bruk" />
	</node>
	<node id="5603473821" lat="58.55085" lon="7.3164639" version="1" timestamp="2018-05-08T04:27:18Z" changeset="58776067" uid="3842253" user="NKA_import">
		<tag k="building" v="farm_auxiliary" />
		<tag k="name" v="Myreløa" />
		<tag k="place" v="locality" />
		<tag k="ssr:stedsnr" v="346808" />
		<tag k="ssr:type" v="byggForJordbrukFiskeOgFangst" />
	</node>
	<node id="5603473822" lat="58.6624139" lon="7.40665" version="1" timestamp="2018-05-08T04:27:18Z" changeset="58776067" uid="3842253" user="NKA_import">
		<tag k="name" v="Røysland" />
		<tag k="place" v="farm" />
		<tag k="ssr:stedsnr" v="62171" />
		<tag k="ssr:type" v="gard" />
	</node>
	<node id="5603473823" lat="58.5589833" lon="7.4982178" version="2" timestamp="2021-03-22T17:17:54Z" changeset="101520028" uid="3497659" user="NKA">
		<tag k="name" v="Kyråbu" />
		<tag k="place" v="locality" />
		<tag k="ssr:stedsnr" v="407894" />
		<tag k="ssr:type" v="byggForJordbrukFiskeOgFangst" />
	</node>
	<node id="5603473824" lat="58.7703778" lon="7.5274694" version="1" timestamp="2018-05-08T04:27:18Z" changeset="58776067" uid="3842253" user="NKA_import">
		<tag k="alt_name" v="Haupelii" />
		<tag k="building" v="farm_auxiliary" />
		<tag k="name" v="Haupeliæ" />
		<tag k="place" v="locality" />
		<tag k="ssr:stedsnr" v="850561" />
		<tag k="ssr:type" v="byggForJordbrukFiskeOgFangst" />
	</node>
	<node id="5603473825" lat="58.8004847" lon="7.3202912" version="2" timestamp="2021-03-22T17:17:54Z" changeset="101520028" uid="3497659" user="NKA">
		<tag k="alt_name" v="Grasdalsøygard" />
		<tag k="name" v="Grasdalen" />
		<tag k="place" v="locality" />
		<tag k="ssr:stedsnr" v="183321" />
		<tag k="ssr:type" v="byggForJordbrukFiskeOgFangst" />
	</node>
	<node id="5603473826" lat="58.6165547" lon="7.415625" version="1" timestamp="2018-05-08T04:27:18Z" changeset="58776067" uid="3842253" user="NKA_import">
		<tag k="alt_name" v="Kyrkjebygdi;Åseral" />
		<tag k="name" v="Kyrkjebygda" />
		<tag k="place" v="village" />
		<tag k="ssr:stedsnr" v="667783" />
		<tag k="ssr:type" v="bygdelagBygd" />
	</node>
	<node id="5603473827" lat="58.7842667" lon="7.3087723" version="2" timestamp="2021-03-22T17:17:54Z" changeset="101520028" uid="3497659" user="NKA">
		<tag k="name" v="Farstøl" />
		<tag k="place" v="isolated_dwelling" />
		<tag k="ssr:stedsnr" v="183324" />
		<tag k="ssr:type" v="fritidsbolig" />
	</node>
	<node id="5603473828" lat="58.6141194" lon="7.408725" version="1" timestamp="2018-05-08T04:27:19Z" changeset="58776067" uid="3842253" user="NKA_import">
		<tag k="alt_name" v="Forsgard" />
		<tag k="name" v="Forgard" />
		<tag k="place" v="farm" />
		<tag k="ssr:stedsnr" v="667789" />
		<tag k="ssr:type" v="gard" />
	</node>
	<node id="5603473829" lat="58.7435364" lon="7.6015338" version="2" timestamp="2021-03-22T17:17:54Z" changeset="101520028" uid="3497659" user="NKA">
		<tag k="name" v="Moltehommen" />
		<tag k="place" v="isolated_dwelling" />
		<tag k="ssr:stedsnr" v="546050" />
		<tag k="ssr:type" v="fritidsbolig" />
	</node>
	<node id="5603473830" lat="58.7575389" lon="7.5410556" version="1" timestamp="2018-05-08T04:27:19Z" changeset="58776067" uid="3842253" user="NKA_import">
		<tag k="alt_name" v="Austegarden" />
		<tag k="name" v="Austegard" />
		<tag k="place" v="farm" />
		<tag k="ssr:stedsnr" v="243594" />
		<tag k="ssr:type" v="gard" />
	</node>
	<node id="5603473831" lat="58.5665806" lon="7.4758194" version="1" timestamp="2018-05-08T04:27:19Z" changeset="58776067" uid="3842253" user="NKA_import">
		<tag k="alt_name" v="Lunnemyr" />
		<tag k="name" v="Lundemyr" />
		<tag k="place" v="farm" />
		<tag k="ssr:stedsnr" v="789794" />
		<tag k="ssr:type" v="bruk" />
	</node>
	<node id="5603473832" lat="58.5242806" lon="7.4542444" version="1" timestamp="2018-05-08T04:27:19Z" changeset="58776067" uid="3842253" user="NKA_import">
		<tag k="name" v="Linjord" />
		<tag k="place" v="farm" />
		<tag k="ssr:stedsnr" v="62975" />
		<tag k="ssr:type" v="gard" />
	</node>
	<node id="5603473833" lat="58.6383451" lon="7.3053946" version="2" timestamp="2021-03-22T17:17:54Z" changeset="101520028" uid="3497659" user="NKA">
		<tag k="building" v="cabin" />
		<tag k="name" v="Dalan" />
		<tag k="place" v="isolated_dwelling" />
		<tag k="ssr:stedsnr" v="183431" />
		<tag k="ssr:type" v="fritidsbolig" />
	</node>
	<node id="5603473834" lat="58.5399556" lon="7.3599833" version="1" timestamp="2018-05-08T04:27:19Z" changeset="58776067" uid="3842253" user="NKA_import">
		<tag k="alt_name" v="Eikjerapen" />
		<tag k="name" v="Eikerapen" />
		<tag k="place" v="village" />
		<tag k="ssr:stedsnr" v="728941" />
		<tag k="ssr:type" v="gard" />
	</node>
	<node id="5603473835" lat="58.5729472" lon="7.5071195" version="1" timestamp="2018-05-08T04:27:19Z" changeset="58776067" uid="3842253" user="NKA_import">
		<tag k="name" v="Solvoll" />
		<tag k="place" v="farm" />
		<tag k="ssr:stedsnr" v="243785" />
		<tag k="ssr:type" v="bruk" />
	</node>
	<node id="5603473836" lat="58.7112096" lon="7.4468529" version="2" timestamp="2021-03-22T17:17:54Z" changeset="101520028" uid="3497659" user="NKA">
		<tag k="name" v="Firstøl" />
		<tag k="place" v="isolated_dwelling" />
		<tag k="ssr:stedsnr" v="668001" />
		<tag k="ssr:type" v="fritidsbolig" />
	</node>
	<node id="5603473837" lat="58.5744306" lon="7.5448583" version="1" timestamp="2018-05-08T04:27:19Z" changeset="58776067" uid="3842253" user="NKA_import">
		<tag k="name" v="Stinemyr" />
		<tag k="place" v="farm" />
		<tag k="ssr:stedsnr" v="850789" />
		<tag k="ssr:type" v="bruk" />
	</node>
	<node id="5603473838" lat="58.5564639" lon="7.3794361" version="1" timestamp="2018-05-08T04:27:20Z" changeset="58776067" uid="3842253" user="NKA_import">
		<tag k="name" v="Sinnes" />
		<tag k="place" v="isolated_dwelling" />
		<tag k="ssr:stedsnr" v="485753" />
		<tag k="ssr:type" v="eneboligMindreBoligbygg" />
	</node>
	<node id="5603473839" lat="58.6608639" lon="7.5088889" version="1" timestamp="2018-05-08T04:27:20Z" changeset="58776067" uid="3842253" user="NKA_import">
		<tag k="historic" v="shieling" />
		<tag k="name" v="Romeheia" />
		<tag k="place" v="locality" />
		<tag k="ssr:stedsnr" v="729177" />
		<tag k="ssr:type" v="seterStøl" />
	</node>
	<node id="5603473840" lat="58.5616611" lon="7.4565083" version="1" timestamp="2018-05-08T04:27:20Z" changeset="58776067" uid="3842253" user="NKA_import">
		<tag k="name" v="Nesland" />
		<tag k="place" v="farm" />
		<tag k="ssr:stedsnr" v="850801" />
		<tag k="ssr:type" v="gard" />
	</node>
	<node id="5603473841" lat="58.5239667" lon="7.4494389" version="1" timestamp="2018-05-08T04:27:20Z" changeset="58776067" uid="3842253" user="NKA_import">
		<tag k="name" v="Skardet" />
		<tag k="place" v="farm" />
		<tag k="ssr:stedsnr" v="122982" />
		<tag k="ssr:type" v="bruk" />
	</node>
	<node id="5603473842" lat="58.555856" lon="7.3108011" version="2" timestamp="2021-03-22T17:17:54Z" changeset="101520028" uid="3497659" user="NKA">
		<tag k="name" v="Kvelpestøl" />
		<tag k="place" v="isolated_dwelling" />
		<tag k="ssr:stedsnr" v="546359" />
		<tag k="ssr:type" v="fritidsbolig" />
	</node>
	<node id="5603473843" lat="58.6721722" lon="7.4156833" version="1" timestamp="2018-05-08T04:27:20Z" changeset="58776067" uid="3842253" user="NKA_import">
		<tag k="name" v="Storli" />
		<tag k="place" v="locality" />
		<tag k="ssr:stedsnr" v="729203" />
		<tag k="ssr:type" v="gammelBosettingsplass" />
	</node>
	<node id="5603473844" lat="58.6752243" lon="7.3362884" version="2" timestamp="2021-03-22T17:17:54Z" changeset="101520028" uid="3497659" user="NKA">
		<tag k="name" v="Solbu" />
		<tag k="place" v="isolated_dwelling" />
		<tag k="ssr:stedsnr" v="244261" />
		<tag k="ssr:type" v="fritidsbolig" />
	</node>
	<node id="5603473845" lat="58.6746017" lon="7.37871" version="2" timestamp="2021-03-22T17:17:54Z" changeset="101520028" uid="3497659" user="NKA">
		<tag k="alt_name" v="Skardet" />
		<tag k="name" v="Skaret" />
		<tag k="place" v="isolated_dwelling" />
		<tag k="ssr:stedsnr" v="790155" />
		<tag k="ssr:type" v="fritidsbolig" />
	</node>
	<node id="5603473846" lat="58.5637167" lon="7.4660445" version="1" timestamp="2018-05-08T04:27:20Z" changeset="58776067" uid="3842253" user="NKA_import">
		<tag k="name" v="Skareberglia" />
		<tag k="place" v="farm" />
		<tag k="ssr:stedsnr" v="485781" />
		<tag k="ssr:type" v="bruk" />
	</node>
	<node id="5603473847" lat="58.6119361" lon="7.3793806" version="1" timestamp="2018-05-08T04:27:21Z" changeset="58776067" uid="3842253" user="NKA_import">
		<tag k="alt_name" v="Vindmerke" />
		<tag k="name" v="Vindmarka" />
		<tag k="place" v="farm" />
		<tag k="ssr:stedsnr" v="485793" />
		<tag k="ssr:type" v="bruk" />
	</node>
	<node id="5603473848" lat="58.7610249" lon="7.4751852" version="2" timestamp="2021-03-22T17:17:54Z" changeset="101520028" uid="3497659" user="NKA">
		<tag k="name" v="Øygarden" />
		<tag k="place" v="isolated_dwelling" />
		<tag k="ssr:stedsnr" v="183571" />
		<tag k="ssr:type" v="fritidsbolig" />
	</node>
	<node id="5603473849" lat="58.6071361" lon="7.4065639" version="1" timestamp="2018-05-08T04:27:21Z" changeset="58776067" uid="3842253" user="NKA_import">
		<tag k="alt_name" v="Bubakka" />
		<tag k="name" v="Bubakke" />
		<tag k="place" v="farm" />
		<tag k="ssr:stedsnr" v="485804" />
		<tag k="ssr:type" v="bruk" />
	</node>
	<node id="5603473850" lat="58.7965944" lon="7.4741472" version="1" timestamp="2018-05-08T04:27:21Z" changeset="58776067" uid="3842253" user="NKA_import">
		<tag k="name" v="Juvlia" />
		<tag k="place" v="locality" />
		<tag k="ssr:stedsnr" v="141961" />
		<tag k="ssr:type" v="gammelBosettingsplass" />
	</node>
	<node id="5603473851" lat="58.5763278" lon="7.4518028" version="2" timestamp="2021-03-22T17:17:54Z" changeset="101520028" uid="3497659" user="NKA">
		<tag k="name" v="Myrebu" />
		<tag k="place" v="isolated_dwelling" />
		<tag k="ssr:stedsnr" v="606764" />
		<tag k="ssr:type" v="fritidsbolig" />
	</node>
	<node id="5603473852" lat="58.7593889" lon="7.3893833" version="2" timestamp="2021-03-22T17:17:54Z" changeset="101520028" uid="3497659" user="NKA">
		<tag k="alt_name" v="Tjørnebu" />
		<tag k="name" v="Tjønnebu" />
		<tag k="place" v="locality" />
		<tag k="ssr:stedsnr" v="546519" />
		<tag k="ssr:type" v="byggForJordbrukFiskeOgFangst" />
	</node>
	<node id="5603473853" lat="58.6094583" lon="7.4179417" version="1" timestamp="2018-05-08T04:27:21Z" changeset="58776067" uid="3842253" user="NKA_import">
		<tag k="name" v="Kvesmoen" />
		<tag k="place" v="farm" />
		<tag k="ssr:stedsnr" v="485807" />
		<tag k="ssr:type" v="bruk" />
	</node>
	<node id="5603473854" lat="58.6618694" lon="7.45255" version="1" timestamp="2018-05-08T04:27:21Z" changeset="58776067" uid="3842253" user="NKA_import">
		<tag k="alt_name" v="Smedland" />
		<tag k="name" v="Smeland" />
		<tag k="place" v="hamlet" />
		<tag k="ssr:stedsnr" v="668190" />
		<tag k="ssr:type" v="gard" />
	</node>
	<node id="5603473855" lat="58.7998222" lon="7.4448611" version="1" timestamp="2018-05-08T04:27:22Z" changeset="58776067" uid="3842253" user="NKA_import">
		<tag k="name" v="Timrebu" />
		<tag k="place" v="locality" />
		<tag k="ssr:stedsnr" v="20932" />
		<tag k="ssr:type" v="gammelBosettingsplass" />
	</node>
	<node id="5603473856" lat="58.5959083" lon="7.5103583" version="1" timestamp="2018-05-08T04:27:22Z" changeset="58776067" uid="3842253" user="NKA_import">
		<tag k="name" v="Bydalen" />
		<tag k="place" v="farm" />
		<tag k="ssr:stedsnr" v="485859" />
		<tag k="ssr:type" v="gard" />
	</node>
	<node id="5603473857" lat="58.6177166" lon="7.4180325" version="1" timestamp="2018-05-08T04:27:22Z" changeset="58776067" uid="3842253" user="NKA_import">
		<tag k="name" v="Underberg" />
		<tag k="place" v="farm" />
		<tag k="ssr:stedsnr" v="979161" />
		<tag k="ssr:type" v="gard" />
	</node>
	<node id="5603473858" lat="58.615714" lon="7.4224331" version="1" timestamp="2018-05-08T04:27:22Z" changeset="58776067" uid="3842253" user="NKA_import">
		<tag k="name" v="Austrhus" />
		<tag k="place" v="farm" />
		<tag k="ssr:stedsnr" v="979162" />
		<tag k="ssr:type" v="gard" />
	</node>
	<node id="5603473859" lat="58.6721667" lon="7.3860611" version="1" timestamp="2018-05-08T04:27:22Z" changeset="58776067" uid="3842253" user="NKA_import">
		<tag k="historic" v="shieling" />
		<tag k="name" v="Seldal" />
		<tag k="place" v="locality" />
		<tag k="ssr:stedsnr" v="486186" />
		<tag k="ssr:type" v="seterStøl" />
	</node>
	<node id="5603473860" lat="58.5553667" lon="7.4596194" version="1" timestamp="2018-05-08T04:27:22Z" changeset="58776067" uid="3842253" user="NKA_import">
		<tag k="name" v="Tveit" />
		<tag k="place" v="farm" />
		<tag k="ssr:stedsnr" v="546769" />
		<tag k="ssr:type" v="gard" />
	</node>
	<node id="5603473861" lat="58.8519949" lon="7.4990503" version="1" timestamp="2018-05-08T04:27:22Z" changeset="58776067" uid="3842253" user="NKA_import">
		<tag k="name" v="Helleren" />
		<tag k="place" v="farm" />
		<tag k="ssr:stedsnr" v="979186" />
		<tag k="ssr:type" v="gard" />
	</node>
	<node id="5603473862" lat="58.5343806" lon="7.4114944" version="2" timestamp="2021-03-22T17:17:54Z" changeset="101520028" uid="3497659" user="NKA">
		<tag k="name" v="Aukland" />
		<tag k="place" v="locality" />
		<tag k="ssr:stedsnr" v="790955" />
		<tag k="ssr:type" v="byggForJordbrukFiskeOgFangst" />
	</node>
	<node id="5603473863" lat="58.7915655" lon="7.4921339" version="1" timestamp="2018-05-08T04:27:22Z" changeset="58776067" uid="3842253" user="NKA_import">
		<tag k="name" v="Tjaldal" />
		<tag k="place" v="hamlet" />
		<tag k="ssr:stedsnr" v="979187" />
		<tag k="ssr:type" v="gard" />
	</node>
	<node id="5603473864" lat="58.818225" lon="7.4657964" version="1" timestamp="2018-05-08T04:27:22Z" changeset="58776067" uid="3842253" user="NKA_import">
		<tag k="alt_name" v="Borteli" />
		<tag k="name" v="Bortelid" />
		<tag k="place" v="farm" />
		<tag k="ssr:stedsnr" v="415440" />
		<tag k="ssr:type" v="bruk" />
	</node>
	<node id="5603473865" lat="58.5581734" lon="7.4416822" version="1" timestamp="2018-05-08T04:27:22Z" changeset="58776067" uid="3842253" user="NKA_import">
		<tag k="name" v="Vormelien" />
		<tag k="place" v="farm" />
		<tag k="ssr:stedsnr" v="979189" />
		<tag k="ssr:type" v="gard" />
	</node>
	<node id="5603473866" lat="58.7534201" lon="7.5113509" version="1" timestamp="2018-05-08T04:27:23Z" changeset="58776067" uid="3842253" user="NKA_import">
		<tag k="name" v="Lognevatn" />
		<tag k="place" v="village" />
		<tag k="ssr:stedsnr" v="813850" />
		<tag k="ssr:type" v="grend" />
	</node>
	<node id="5603473867" lat="58.6092" lon="7.4079861" version="1" timestamp="2018-05-08T04:27:23Z" changeset="58776067" uid="3842253" user="NKA_import">
		<tag k="name" v="Åsland" />
		<tag k="place" v="hamlet" />
		<tag k="ssr:stedsnr" v="546806" />
		<tag k="ssr:type" v="gard" />
	</node>
	<node id="5603473868" lat="58.6179556" lon="7.416525" version="1" timestamp="2018-05-08T04:27:23Z" changeset="58776067" uid="3842253" user="NKA_import">
		<tag k="name" v="Bordalen" />
		<tag k="place" v="farm" />
		<tag k="ssr:stedsnr" v="425130" />
		<tag k="ssr:type" v="bruk" />
	</node>
	<node id="5603473869" lat="58.6195278" lon="7.4898778" version="1" timestamp="2018-05-08T04:27:23Z" changeset="58776067" uid="3842253" user="NKA_import">
		<tag k="name" v="Gamlebu" />
		<tag k="place" v="locality" />
		<tag k="ssr:stedsnr" v="546823" />
		<tag k="ssr:type" v="eiendom" />
	</node>
	<node id="5603473870" lat="58.7548176" lon="7.5491341" version="1" timestamp="2018-05-08T04:27:23Z" changeset="58776067" uid="3842253" user="NKA_import">
		<tag k="alt_name" v="Espeli" />
		<tag k="name" v="Espelid" />
		<tag k="place" v="hamlet" />
		<tag k="ssr:stedsnr" v="486603" />
		<tag k="ssr:type" v="bygdelagBygd" />
	</node>
	<node id="5603473871" lat="58.7162217" lon="7.6122584" version="2" timestamp="2021-03-22T17:17:54Z" changeset="101520028" uid="3497659" user="NKA">
		<tag k="alt_name" v="Håvestøløygard" />
		<tag k="name" v="Øygarden" />
		<tag k="place" v="isolated_dwelling" />
		<tag k="ssr:stedsnr" v="425239" />
		<tag k="ssr:type" v="fritidsbolig" />
	</node>
	<node id="5603473872" lat="58.7629806" lon="7.3367917" version="1" timestamp="2018-05-08T04:27:23Z" changeset="58776067" uid="3842253" user="NKA_import">
		<tag k="historic" v="shieling" />
		<tag k="name" v="Sirisøygard" />
		<tag k="place" v="locality" />
		<tag k="ssr:stedsnr" v="668378" />
		<tag k="ssr:type" v="seterStøl" />
	</node>
	<node id="5603473873" lat="58.7423633" lon="7.6086892" version="2" timestamp="2021-03-22T17:17:54Z" changeset="101520028" uid="3497659" user="NKA">
		<tag k="name" v="Rostøl" />
		<tag k="place" v="isolated_dwelling" />
		<tag k="ssr:stedsnr" v="910057" />
		<tag k="ssr:type" v="fritidsbolig" />
	</node>
	<node id="5603473874" lat="58.6160083" lon="7.4209083" version="1" timestamp="2018-05-08T04:27:23Z" changeset="58776067" uid="3842253" user="NKA_import">
		<tag k="alt_name" v="Austrhus" />
		<tag k="name" v="Austrud" />
		<tag k="place" v="farm" />
		<tag k="ssr:stedsnr" v="364837" />
		<tag k="ssr:type" v="bruk" />
	</node>
	<node id="5603473875" lat="58.6195525" lon="7.5054477" version="2" timestamp="2021-03-22T17:17:54Z" changeset="101520028" uid="3497659" user="NKA">
		<tag k="name" v="Sandvasstølen" />
		<tag k="place" v="isolated_dwelling" />
		<tag k="ssr:stedsnr" v="364862" />
		<tag k="ssr:type" v="fritidsbolig" />
	</node>
	<node id="5603473876" lat="58.7420583" lon="7.5177861" version="1" timestamp="2018-05-08T04:27:23Z" changeset="58776067" uid="3842253" user="NKA_import">
		<tag k="name" v="Tveitstøl" />
		<tag k="place" v="farm" />
		<tag k="ssr:stedsnr" v="910066" />
		<tag k="ssr:type" v="gard" />
	</node>
	<node id="5603473877" lat="58.8439887" lon="7.3796815" version="2" timestamp="2021-03-22T17:17:54Z" changeset="101520028" uid="3497659" user="NKA">
		<tag k="name" v="Stinta" />
		<tag k="place" v="isolated_dwelling" />
		<tag k="ssr:stedsnr" v="607409" />
		<tag k="ssr:type" v="fritidsbolig" />
	</node>
	<node id="5603473878" lat="58.7514499" lon="7.5147103" version="1" timestamp="2018-05-08T04:27:24Z" changeset="58776067" uid="3842253" user="NKA_import">
		<tag k="name" v="Åknes" />
		<tag k="place" v="farm" />
		<tag k="ssr:stedsnr" v="668596" />
		<tag k="ssr:type" v="gard" />
	</node>
	<node id="5603473879" lat="58.6950806" lon="7.5890861" version="1" timestamp="2018-05-08T04:27:24Z" changeset="58776067" uid="3842253" user="NKA_import">
		<tag k="name" v="Håvestøl" />
		<tag k="place" v="farm" />
		<tag k="ssr:stedsnr" v="547256" />
		<tag k="ssr:type" v="gard" />
	</node>
	<node id="5603473880" lat="58.7341583" lon="7.3948361" version="1" timestamp="2018-05-08T04:27:24Z" changeset="58776067" uid="3842253" user="NKA_import">
		<tag k="alt_name" v="Bredland" />
		<tag k="name" v="Breland" />
		<tag k="place" v="hamlet" />
		<tag k="ssr:stedsnr" v="364032" />
		<tag k="ssr:type" v="gard" />
	</node>
	<node id="5603473881" lat="58.5815667" lon="7.3676972" version="2" timestamp="2021-03-22T17:17:54Z" changeset="101520028" uid="3497659" user="NKA">
		<tag k="name" v="Skjerkestøl" />
		<tag k="place" v="isolated_dwelling" />
		<tag k="ssr:stedsnr" v="425770" />
		<tag k="ssr:type" v="fritidsbolig" />
	</node>
	<node id="5603473882" lat="58.7621571" lon="7.5850688" version="2" timestamp="2021-03-22T17:17:54Z" changeset="101520028" uid="3497659" user="NKA">
		<tag k="building" v="ruins" />
		<tag k="name" v="Sigurdsbu" />
		<tag k="place" v="locality" />
		<tag k="ssr:stedsnr" v="668605" />
		<tag k="ssr:type" v="byggForJordbrukFiskeOgFangst" />
	</node>
	<node id="5603473883" lat="58.5285556" lon="7.4543861" version="1" timestamp="2018-05-08T04:27:24Z" changeset="58776067" uid="3842253" user="NKA_import">
		<tag k="alt_name" v="Kidjåstad" />
		<tag k="name" v="Kittelstad" />
		<tag k="place" v="hamlet" />
		<tag k="ssr:stedsnr" v="729983" />
		<tag k="ssr:type" v="gard" />
	</node>
	<node id="5603473884" lat="58.766775" lon="7.6342806" version="1" timestamp="2018-05-08T04:27:24Z" changeset="58776067" uid="3842253" user="NKA_import">
		<tag k="historic" v="shieling" />
		<tag k="name" v="Kjosevassøygard" />
		<tag k="place" v="locality" />
		<tag k="ssr:stedsnr" v="486575" />
		<tag k="ssr:type" v="seterStøl" />
	</node>
	<node id="5603473885" lat="58.5288722" lon="7.45225" version="1" timestamp="2018-05-08T04:27:24Z" changeset="58776067" uid="3842253" user="NKA_import">
		<tag k="alt_name" v="Tuptin" />
		<tag k="name" v="Tupten" />
		<tag k="place" v="locality" />
		<tag k="ssr:stedsnr" v="729986" />
		<tag k="ssr:type" v="gammelBosettingsplass" />
	</node>
	<node id="5603473886" lat="58.5430833" lon="7.320825" version="2" timestamp="2021-03-22T17:17:54Z" changeset="101520028" uid="3497659" user="NKA">
		<tag k="name" v="Storeslåtta" />
		<tag k="place" v="isolated_dwelling" />
		<tag k="ssr:stedsnr" v="364115" />
		<tag k="ssr:type" v="fritidsbolig" />
	</node>
	<node id="5603473887" lat="58.596629" lon="7.3278091" version="2" timestamp="2021-03-22T17:17:54Z" changeset="101520028" uid="3497659" user="NKA">
		<tag k="name" v="Kotet" />
		<tag k="place" v="isolated_dwelling" />
		<tag k="ssr:stedsnr" v="910411" />
		<tag k="ssr:type" v="fritidsbolig" />
	</node>
	<node id="5603473888" lat="58.5858667" lon="7.3275667" version="2" timestamp="2021-03-22T17:17:54Z" changeset="101520028" uid="3497659" user="NKA">
		<tag k="alt_name" v="Lonestøl" />
		<tag k="name" v="Lonin" />
		<tag k="place" v="isolated_dwelling" />
		<tag k="ssr:stedsnr" v="910416" />
		<tag k="ssr:type" v="fritidsbolig" />
	</node>
	<node id="5603473889" lat="58.8148056" lon="7.3257944" version="1" timestamp="2018-05-08T04:27:25Z" changeset="58776067" uid="3842253" user="NKA_import">
		<tag k="historic" v="shieling" />
		<tag k="name" v="Velifjeddøygard" />
		<tag k="place" v="locality" />
		<tag k="ssr:stedsnr" v="42063" />
		<tag k="ssr:type" v="seterStøl" />
	</node>
	<node id="5603473890" lat="58.7734102" lon="7.5797045" version="2" timestamp="2021-03-22T17:17:54Z" changeset="101520028" uid="3497659" user="NKA">
		<tag k="name" v="Kveven" />
		<tag k="place" v="isolated_dwelling" />
		<tag k="ssr:stedsnr" v="607574" />
		<tag k="ssr:type" v="fritidsbolig" />
	</node>
	<node id="5603473891" lat="58.6046167" lon="7.559525" version="1" timestamp="2018-05-08T04:27:25Z" changeset="58776067" uid="3842253" user="NKA_import">
		<tag k="name" v="Flystveit" />
		<tag k="place" v="farm" />
		<tag k="ssr:stedsnr" v="425859" />
		<tag k="ssr:type" v="gard" />
	</node>
	<node id="5603473892" lat="58.6270833" lon="7.3891028" version="1" timestamp="2018-05-08T04:27:25Z" changeset="58776067" uid="3842253" user="NKA_import">
		<tag k="historic" v="shieling" />
		<tag k="name" v="Øygard" />
		<tag k="place" v="locality" />
		<tag k="ssr:stedsnr" v="364158" />
		<tag k="ssr:type" v="seterStøl" />
	</node>
	<node id="5603473893" lat="58.7894534" lon="7.5385214" version="2" timestamp="2021-03-22T17:17:54Z" changeset="101520028" uid="3497659" user="NKA">
		<tag k="name" v="Sandvasshyttå" />
		<tag k="place" v="isolated_dwelling" />
		<tag k="ssr:stedsnr" v="828659" />
		<tag k="ssr:type" v="fritidsbolig" />
	</node>
	<node id="5603473894" lat="58.5122333" lon="7.3910111" version="1" timestamp="2018-05-08T04:27:25Z" changeset="58776067" uid="3842253" user="NKA_import">
		<tag k="name" v="Øygarden" />
		<tag k="place" v="locality" />
		<tag k="ssr:stedsnr" v="607869" />
		<tag k="ssr:type" v="eiendom" />
	</node>
	<node id="5603473895" lat="58.5870083" lon="7.3406694" version="1" timestamp="2018-05-08T04:27:25Z" changeset="58776067" uid="3842253" user="NKA_import">
		<tag k="name" v="Øygarden" />
		<tag k="place" v="locality" />
		<tag k="ssr:stedsnr" v="910743" />
		<tag k="ssr:type" v="eiendom" />
	</node>
	<node id="5603473896" lat="58.65385" lon="7.5085472" version="1" timestamp="2018-05-08T04:27:25Z" changeset="58776067" uid="3842253" user="NKA_import">
		<tag k="historic" v="shieling" />
		<tag k="name" v="Brattestøl" />
		<tag k="place" v="locality" />
		<tag k="ssr:stedsnr" v="364195" />
		<tag k="ssr:type" v="eiendom" />
	</node>
	<node id="5603473897" lat="58.5183361" lon="7.50355" version="1" timestamp="2018-05-08T04:27:26Z" changeset="58776067" uid="3842253" user="NKA_import">
		<tag k="building" v="cabin" />
		<tag k="name" v="Haddeland" />
		<tag k="place" v="isolated_dwelling" />
		<tag k="ssr:stedsnr" v="425880" />
		<tag k="ssr:type" v="fritidsbolig" />
	</node>
	<node id="5603473898" lat="58.5267326" lon="7.436148" version="1" timestamp="2018-05-08T04:27:26Z" changeset="58776067" uid="3842253" user="NKA_import">
		<tag k="name" v="Åmland" />
		<tag k="place" v="farm" />
		<tag k="ssr:stedsnr" v="486985" />
		<tag k="ssr:type" v="gard" />
	</node>
	<node id="5603473899" lat="58.5669135" lon="7.3986047" version="1" timestamp="2018-05-08T04:27:26Z" changeset="58776067" uid="3842253" user="NKA_import">
		<tag k="name" v="Fiskland" />
		<tag k="place" v="farm" />
		<tag k="ssr:stedsnr" v="910762" />
		<tag k="ssr:type" v="gard" />
	</node>
	<node id="5603473900" lat="58.5837028" lon="7.4939583" version="1" timestamp="2018-05-08T04:27:26Z" changeset="58776067" uid="3842253" user="NKA_import">
		<tag k="name" v="Soyæ" />
		<tag k="place" v="locality" />
		<tag k="ssr:stedsnr" v="42180" />
		<tag k="ssr:type" v="gammelBosettingsplass" />
	</node>
	<node id="5603473901" lat="58.706975" lon="7.3986667" version="2" timestamp="2021-03-22T17:17:54Z" changeset="101520028" uid="3497659" user="NKA">
		<tag k="name" v="Brøystøl" />
		<tag k="place" v="isolated_dwelling" />
		<tag k="ssr:stedsnr" v="364262" />
		<tag k="ssr:type" v="fritidsbolig" />
	</node>
	<node id="5603473902" lat="58.519656" lon="7.3521608" version="1" timestamp="2018-05-08T04:27:26Z" changeset="58776067" uid="3842253" user="NKA_import">
		<tag k="name" v="Vassbotnen" />
		<tag k="place" v="farm" />
		<tag k="ssr:stedsnr" v="607998" />
		<tag k="ssr:type" v="gard" />
	</node>
	<node id="5603473903" lat="58.7067694" lon="7.3777778" version="2" timestamp="2021-03-22T17:17:54Z" changeset="101520028" uid="3497659" user="NKA">
		<tag k="alt_name" v="Øygard, øvre" />
		<tag k="name" v="Øvrøygard" />
		<tag k="place" v="isolated_dwelling" />
		<tag k="ssr:stedsnr" v="364263" />
		<tag k="ssr:type" v="fritidsbolig" />
	</node>
	<node id="5603473904" lat="58.7739694" lon="7.3608" version="1" timestamp="2018-05-08T04:27:26Z" changeset="58776067" uid="3842253" user="NKA_import">
		<tag k="historic" v="shieling" />
		<tag k="name" v="Kløystøl" />
		<tag k="place" v="locality" />
		<tag k="ssr:stedsnr" v="505907" />
		<tag k="ssr:type" v="seterStøl" />
	</node>
	<node id="5603473905" lat="58.6127556" lon="7.4223889" version="1" timestamp="2018-05-08T04:27:26Z" changeset="58776067" uid="3842253" user="NKA_import">
		<tag k="name" v="Krossen" />
		<tag k="place" v="farm" />
		<tag k="ssr:stedsnr" v="910804" />
		<tag k="ssr:type" v="bruk" />
	</node>
	<node id="5603473906" lat="58.84995" lon="7.3339" version="1" timestamp="2018-05-08T04:27:26Z" changeset="58776067" uid="3842253" user="NKA_import">
		<tag k="historic" v="shieling" />
		<tag k="name" v="Bustøl" />
		<tag k="place" v="locality" />
		<tag k="ssr:stedsnr" v="706140" />
		<tag k="ssr:type" v="seterStøl" />
	</node>
	<node id="5603473907" lat="58.7356417" lon="7.5386195" version="1" timestamp="2018-05-08T04:27:27Z" changeset="58776067" uid="3842253" user="NKA_import">
		<tag k="building" v="farm_auxiliary" />
		<tag k="name" v="Storefit" />
		<tag k="place" v="locality" />
		<tag k="ssr:stedsnr" v="911040" />
		<tag k="ssr:type" v="byggForJordbrukFiskeOgFangst" />
	</node>
	<node id="5603473908" lat="58.6703667" lon="7.4052194" version="1" timestamp="2018-05-08T04:27:27Z" changeset="58776067" uid="3842253" user="NKA_import">
		<tag k="alt_name" v="Røysland" />
		<tag k="name" v="Tveitan" />
		<tag k="place" v="farm" />
		<tag k="ssr:stedsnr" v="426198" />
		<tag k="ssr:type" v="bruk" />
	</node>
	<node id="5603473909" lat="58.8421946" lon="7.3555454" version="2" timestamp="2021-03-22T17:17:54Z" changeset="101520028" uid="3497659" user="NKA">
		<tag k="name" v="Bjortjønn øygard" />
		<tag k="place" v="isolated_dwelling" />
		<tag k="ssr:stedsnr" v="584129" />
		<tag k="ssr:type" v="fritidsbolig" />
	</node>
	<node id="5603473910" lat="58.6654866" lon="7.3100644" version="2" timestamp="2021-03-22T17:17:54Z" changeset="101520028" uid="3497659" user="NKA">
		<tag k="name" v="Krokevasstøl" />
		<tag k="place" v="isolated_dwelling" />
		<tag k="ssr:stedsnr" v="426249" />
		<tag k="ssr:type" v="fritidsbolig" />
	</node>
	<node id="5603473911" lat="58.5814444" lon="7.4565028" version="1" timestamp="2018-05-08T04:27:27Z" changeset="58776067" uid="3842253" user="NKA_import">
		<tag k="name" v="Monebu" />
		<tag k="place" v="locality" />
		<tag k="ssr:stedsnr" v="892201" />
		<tag k="ssr:type" v="gammelBosettingsplass" />
	</node>
	<node id="5603473912" lat="58.6046333" lon="7.405775" version="1" timestamp="2018-05-08T04:27:27Z" changeset="58776067" uid="3842253" user="NKA_import">
		<tag k="alt_name" v="Skarpeteigen" />
		<tag k="name" v="Skarpsteigen" />
		<tag k="place" v="farm" />
		<tag k="ssr:stedsnr" v="303819" />
		<tag k="ssr:type" v="bruk" />
	</node>
	<node id="8550920250" lat="58.81956" lon="7.4710367" version="1" timestamp="2021-03-22T17:17:50Z" changeset="101520022" uid="3497659" user="NKA" />
	<node id="8550920251" lat="58.8196001" lon="7.4709981" version="1" timestamp="2021-03-22T17:17:50Z" changeset="101520022" uid="3497659" user="NKA" />
	<node id="8550920252" lat="58.819619" lon="7.4710714" version="1" timestamp="2021-03-22T17:17:50Z" changeset="101520022" uid="3497659" user="NKA" />
	<node id="8550920253" lat="58.8198369" lon="7.4708617" version="1" timestamp="2021-03-22T17:17:50Z" changeset="101520022" uid="3497659" user="NKA" />
	<node id="8550920254" lat="58.819889" lon="7.4710638" version="1" timestamp="2021-03-22T17:17:50Z" changeset="101520022" uid="3497659" user="NKA" />
	<node id="8550920256" lat="58.819833" lon="7.4710544" version="1" timestamp="2021-03-22T17:17:50Z" changeset="101520022" uid="3497659" user="NKA" />
	<node id="5603473518" lat="58.8195407" lon="7.4714213" version="2" timestamp="2021-03-22T17:17:54Z" changeset="101520028" uid="3497659" user="NKA" />
	<node id="8550920243" lat="58.8197208" lon="7.4712481" version="1" timestamp="2021-03-22T17:17:50Z" changeset="101520022" uid="3497659" user="NKA" />
	<node id="8550920244" lat="58.8195463" lon="7.4714429" version="1" timestamp="2021-03-22T17:17:50Z" changeset="101520022" uid="3497659" user="NKA" />
	<node id="8550920245" lat="58.8195101" lon="7.4714777" version="1" timestamp="2021-03-22T17:17:50Z" changeset="101520022" uid="3497659" user="NKA" />
	<node id="8550920246" lat="58.8195046" lon="7.4714562" version="1" timestamp="2021-03-22T17:17:50Z" changeset="101520022" uid="3497659" user="NKA" />
	<node id="8550920247" lat="58.8194655" lon="7.4713049" version="1" timestamp="2021-03-22T17:17:50Z" changeset="101520022" uid="3497659" user="NKA" />
	<node id="8550920248" lat="58.8194478" lon="7.4712362" version="1" timestamp="2021-03-22T17:17:50Z" changeset="101520022" uid="3497659" user="NKA" />
	<node id="8550920249" lat="58.8195789" lon="7.4711101" version="1" timestamp="2021-03-22T17:17:50Z" changeset="101520022" uid="3497659" user="NKA" />
	<node id="8550920255" lat="58.8198461" lon="7.4711051" version="1" timestamp="2021-03-22T17:17:50Z" changeset="101520022" uid="3497659" user="NKA" />
	<node id="8550920257" lat="58.8197031" lon="7.4711795" version="1" timestamp="2021-03-22T17:17:50Z" changeset="101520022" uid="3497659" user="NKA" />
	<way id="920987035" version="1" timestamp="2021-03-22T17:17:54Z" changeset="101520028" uid="3497659" user="NKA">
		<tag k="building" v="apartments" />
		<tag k="name" v="Bortelidseter" />
		<tag k="ref:bygningsnr" v="300264746" />
		<tag k="ssr:stedsnr" v="525631" />
		<tag k="ssr:type" v="boligblokk" />
		<nd ref="8550920257" />
		<nd ref="8550920256" />
		<nd ref="8550920255" />
		<nd ref="8550920254" />
		<nd ref="8550920253" />
		<nd ref="8550920252" />
		<nd ref="8550920251" />
		<nd ref="8550920250" />
		<nd ref="8550920249" />
		<nd ref="8550920248" />
		<nd ref="8550920247" />
		<nd ref="8550920246" />
		<nd ref="8550920245" />
		<nd ref="8550920244" />
		<nd ref="5603473518" />
		<nd ref="8550920243" />
		<nd ref="8550920257" />
	</way>
</osm>
