<?xml version="1.0" encoding="UTF-8"?>
<<<<<<< HEAD
<osm version="0.6" generator="osmapis">
	<node lat="60.77998333447402" lon="4.696630548394988" id="-31064">
=======
<osm generator="osmapis" version="0.6">
	<node id="-654007" lat="60.7799833345" lon="4.69663054839">
>>>>>>> e1d4bc35ff8a6074a6f2e91616a996b547c36f15
		<tag k="man_made" v="tower" />
		<tag k="name" v="Fedje VTC" />
		<tag k="ssr:stedsnr" v="238802" />
		<tag k="tower:type" v="communications" />
	</node>
<<<<<<< HEAD
	<node lat="60.77512499607331" lon="4.728852786631939" id="-31068">
=======
	<node id="-654302" lat="60.7822556918" lon="4.71434688721">
		<tag k="amenity" v="ferry_terminal" />
		<tag k="name" v="Fedje ferjekai" />
		<tag k="ssr:stedsnr" v="978595" />
	</node>
	<node id="-654029" lat="60.7751249961" lon="4.72885278663">
>>>>>>> e1d4bc35ff8a6074a6f2e91616a996b547c36f15
		<tag k="bridge" v="yes" />
		<tag k="layer" v="1" />
		<tag k="name" v="SildevÃ¥gen" />
		<tag k="ssr:stedsnr" v="290125" />
	</node>
	<node lat="60.7822556918184" lon="4.714346887207225" id="-31177">
		<tag k="amenity" v="ferry_terminal" />
		<tag k="name" v="Fedje ferjekai" />
		<tag k="ssr:stedsnr" v="978595" />
	</node>
</osm>
