<?xml version="1.0" encoding="UTF-8"?>
<osm version="0.6" generator="osmapis">
	<node lat="60.82451111238884" lon="4.645413888597044" id="-73521">
		<tag k="name" v="Humreboen" />
		<tag k="natural" v="shoal" />
		<tag k="place" v="locality" />
		<tag k="ssr:stedsnr" v="238849" />
	</node>
	<node lat="60.78987222673012" lon="4.680855562426141" id="-73529">
		<tag k="name" v="Nordre Lyngholmen" />
		<tag k="place" v="islet" />
		<tag k="ssr:stedsnr" v="98014" />
	</node>
	<node lat="60.77971388612683" lon="4.708375008761397" id="-73530">
		<tag k="name" v="Smiholmen" />
		<tag k="place" v="islet" />
		<tag k="ssr:stedsnr" v="98022" />
	</node>
	<node lat="60.797505555985694" lon="4.700152781107" id="-73542">
		<tag k="fixme" v="consider seamark:type=rock or natural=shoal" />
		<tag k="name" v="Skjeret" />
		<tag k="place" v="islet" />
		<tag k="ssr:stedsnr" v="158103" />
	</node>
	<node lat="60.75405277415588" lon="4.710725001061329" id="-73546">
		<tag k="name" v="Fyrsundet" />
		<tag k="natural" v="strait" />
		<tag k="ssr:stedsnr" v="189602" />
	</node>
	<node lat="60.79602500339069" lon="4.6761805533839285" id="-73552">
		<tag k="name" v="Mågøyklubben" />
		<tag k="natural" v="cape" />
		<tag k="ssr:stedsnr" v="219080" />
	</node>
	<node lat="60.77030555969088" lon="4.687436119602478" id="-73560">
		<tag k="fixme" v="consider seamark:type=rock or natural=shoal" />
		<tag k="name" v="Hella" />
		<tag k="place" v="islet" />
		<tag k="ssr:stedsnr" v="280018" />
	</node>
	<node lat="60.7679388896822" lon="4.683322230640099" id="-73562">
		<tag k="fixme" v="consider seamark:type=rock or natural=shoal" />
		<tag k="name" v="Islendingskjeret" />
		<tag k="place" v="islet" />
		<tag k="ssr:stedsnr" v="462027" />
	</node>
	<node lat="60.82949444280614" lon="4.651033335949887" id="-73564">
		<tag k="name" v="Svartskjerflua" />
		<tag k="natural" v="shoal" />
		<tag k="place" v="locality" />
		<tag k="ssr:stedsnr" v="298803" />
	</node>
	<node lat="60.76203333707017" lon="4.647577782493727" id="-73570">
		<tag k="name" v="Laggenakken" />
		<tag k="natural" v="shoal" />
		<tag k="place" v="locality" />
		<tag k="ssr:stedsnr" v="480796" />
	</node>
	<node lat="60.79683888679652" lon="4.692808326946963" id="-73577">
		<tag k="name" v="Nordøysundet" />
		<tag k="natural" v="strait" />
		<tag k="ssr:stedsnr" v="401027" />
	</node>
	<node lat="60.79553888639551" lon="4.684713896828061" id="-73591">
		<tag k="name" v="Teistosen" />
		<tag k="natural" v="strait" />
		<tag k="ssr:stedsnr" v="462073" />
	</node>
	<node lat="60.76938610777597" lon="4.684336117408361" id="-73592">
		<tag k="fixme" v="consider seamark:type=rock or natural=shoal" />
		<tag k="name" v="Klumpen" />
		<tag k="place" v="islet" />
		<tag k="ssr:stedsnr" v="462081" />
	</node>
	<node lat="60.86778055236835" lon="4.623774997885354" id="-73600">
		<tag k="name" v="Bergskallen" />
		<tag k="natural" v="shoal" />
		<tag k="place" v="locality" />
		<tag k="ssr:stedsnr" v="492719" />
	</node>
	<node lat="60.78541111164353" lon="4.723091661856386" id="-73602">
		<tag k="name" v="Kisteneset" />
		<tag k="natural" v="cape" />
		<tag k="ssr:stedsnr" v="522103" />
	</node>
	<node lat="60.77970000157028" lon="4.706030559816932" id="-73605">
		<tag k="name" v="Pollen" />
		<tag k="natural" v="bay" />
		<tag k="ssr:stedsnr" v="541769" />
	</node>
	<node lat="60.79422777420673" lon="4.686916668992058" id="-73618">
		<tag k="alt_name" v="Flotten" />
		<tag k="name" v="Søre Flotten" />
		<tag k="place" v="islet" />
		<tag k="ssr:stedsnr" v="703075" />
	</node>
	<node lat="60.78658055811067" lon="4.706313895171114" id="-73621">
		<tag k="name" v="Kyrkjevågen" />
		<tag k="natural" v="bay" />
		<tag k="ssr:stedsnr" v="704013" />
	</node>
	<node lat="60.78242778130703" lon="4.690516669832239" id="-73624">
		<tag k="name" v="Karlsøysundet" />
		<tag k="natural" v="strait" />
		<tag k="ssr:stedsnr" v="642004" />
	</node>
	<node lat="60.87120555528389" lon="4.598702774124052" id="-73628">
		<tag k="name" v="Ytreskallen" />
		<tag k="natural" v="shoal" />
		<tag k="place" v="locality" />
		<tag k="ssr:stedsnr" v="675752" />
	</node>
	<node lat="60.8409083377188" lon="4.629250005687458" id="-73635">
		<tag k="name" v="Ivarsnakken" />
		<tag k="natural" v="shoal" />
		<tag k="place" v="locality" />
		<tag k="ssr:stedsnr" v="723824" />
	</node>
	<node lat="60.784822220878866" lon="4.691402781745456" id="-73638">
		<tag k="name" v="Skarvøyosen" />
		<tag k="natural" v="strait" />
		<tag k="ssr:stedsnr" v="735631" />
	</node>
	<node lat="60.87266388661379" lon="4.617463890308006" id="-73639">
		<tag k="name" v="Indreskallen" />
		<tag k="natural" v="shoal" />
		<tag k="place" v="locality" />
		<tag k="ssr:stedsnr" v="735724" />
	</node>
	<node lat="60.78311944506358" lon="4.709763890128366" id="-73641">
		<tag k="name" v="Kremmarholmen" />
		<tag k="place" v="islet" />
		<tag k="ssr:stedsnr" v="768254" />
	</node>
	<node lat="60.88091388667099" lon="4.6067916664100705" id="-73645">
		<tag k="name" v="Breidflua" />
		<tag k="natural" v="shoal" />
		<tag k="place" v="locality" />
		<tag k="ssr:stedsnr" v="917665" />
	</node>
	<node lat="60.79613610714174" lon="4.687799995590629" id="-73652">
		<tag k="name" v="Nordre Flotten" />
		<tag k="place" v="islet" />
		<tag k="ssr:stedsnr" v="826123" />
	</node>
	<node lat="60.80157222488986" lon="4.657016671188036" id="-73654">
		<tag k="name" v="Kloveflua" />
		<tag k="natural" v="shoal" />
		<tag k="place" v="locality" />
		<tag k="ssr:stedsnr" v="845891" />
	</node>
	<node lat="60.78740000076432" lon="4.6865111095092935" id="-73661">
		<tag k="name" v="Lyngholmosen" />
		<tag k="natural" v="strait" />
		<tag k="ssr:stedsnr" v="887105" />
	</node>
	<node lat="60.795463887696776" lon="4.671572220094506" id="-73669">
		<tag k="fixme" v="consider seamark:type=rock or natural=shoal" />
		<tag k="name" v="Gudmundskjeret" />
		<tag k="place" v="islet" />
		<tag k="ssr:stedsnr" v="947083" />
	</node>
	<node lat="60.78775277789022" lon="4.68408333384052" id="-73676">
		<tag k="name" v="Søre Lyngholmen" />
		<tag k="place" v="islet" />
		<tag k="ssr:stedsnr" v="37124" />
	</node>
	<node lat="60.774074998974285" lon="4.698308339175431" id="-73677">
		<tag k="fixme" v="consider seamark:type=rock or natural=shoal" />
		<tag k="name" v="Otresteinen" />
		<tag k="place" v="islet" />
		<tag k="ssr:stedsnr" v="37131" />
	</node>
	<node lat="60.78631389119721" lon="4.679991660156087" id="-73678">
		<tag k="name" v="Flatholmen" />
		<tag k="place" v="islet" />
		<tag k="ssr:stedsnr" v="37141" />
	</node>
	<node lat="60.76083055461057" lon="4.743669436175304" id="-73680">
		<tag k="name" v="Langøyna" />
		<tag k="place" v="island" />
		<tag k="ssr:stedsnr" v="37152" />
	</node>
	<node lat="60.7681888873999" lon="4.649647213686787" id="-73681">
		<tag k="name" v="Pershammaren" />
		<tag k="natural" v="shoal" />
		<tag k="place" v="locality" />
		<tag k="ssr:stedsnr" v="56798" />
	</node>
	<node lat="60.84398611024907" lon="4.6532055538118975" id="-73682">
		<tag k="name" v="Spaken" />
		<tag k="natural" v="shoal" />
		<tag k="place" v="locality" />
		<tag k="ssr:stedsnr" v="56835" />
	</node>
	<node lat="60.831230555437415" lon="4.635288893152642" id="-73691">
		<tag k="fixme" v="consider seamark:type=rock or natural=shoal" />
		<tag k="name" v="Vestskjer" />
		<tag k="place" v="islet" />
		<tag k="ssr:stedsnr" v="116846" />
	</node>
	<node lat="60.77083888617359" lon="4.695561110706537" id="-73700">
		<tag k="name" v="Sengsbukta" />
		<tag k="natural" v="bay" />
		<tag k="ssr:stedsnr" v="158134" />
	</node>
	<node lat="60.75474444598714" lon="4.7081388913928475" id="-73701">
		<tag k="name" v="Hammarsundsflua" />
		<tag k="place" v="locality" />
		<tag k="seamark:type" v="rock" />
		<tag k="ssr:stedsnr" v="177814" />
	</node>
	<node lat="60.78633055428669" lon="4.71873888498146" id="-73708">
		<tag k="name" v="Siglingeneset" />
		<tag k="natural" v="cape" />
		<tag k="ssr:stedsnr" v="218069" />
	</node>
	<node lat="60.77861667086475" lon="4.709536117180894" id="-73711">
		<tag k="name" v="Husavågen" />
		<tag k="natural" v="bay" />
		<tag k="ssr:stedsnr" v="219021" />
	</node>
	<node lat="60.84456388697441" lon="4.649663891123656" id="-73717">
		<tag k="fixme" v="consider seamark:type=rock or natural=shoal" />
		<tag k="name" v="Skotten" />
		<tag k="place" v="islet" />
		<tag k="ssr:stedsnr" v="298779" />
	</node>
	<node lat="60.783730551196285" lon="4.705719441104761" id="-73727">
		<tag k="name" v="Dansevågen" />
		<tag k="natural" v="bay" />
		<tag k="ssr:stedsnr" v="340126" />
	</node>
	<node lat="60.84353333788838" lon="4.646966673915434" id="-73729">
		<tag k="fixme" v="consider seamark:type=rock or natural=shoal" />
		<tag k="name" v="Utrorskjeret" />
		<tag k="place" v="islet" />
		<tag k="ssr:stedsnr" v="359827" />
	</node>
	<node lat="60.821311114644864" lon="4.658222219071359" id="-73739">
		<tag k="name" v="Lyngholmen" />
		<tag k="place" v="islet" />
		<tag k="ssr:stedsnr" v="420856" />
	</node>
	<node lat="60.781966663177684" lon="4.692375006641468" id="-73751">
		<tag k="name" v="Hestevågen" />
		<tag k="natural" v="bay" />
		<tag k="ssr:stedsnr" v="510862" />
	</node>
	<node lat="60.771561110694435" lon="4.739713896575274" id="-73754">
		<tag k="name" v="Terneneset" />
		<tag k="natural" v="cape" />
		<tag k="ssr:stedsnr" v="522096" />
	</node>
	<node lat="60.77757499980846" lon="4.691383327291993" id="-73773">
		<tag k="name" v="Vidnappsvika" />
		<tag k="natural" v="bay" />
		<tag k="ssr:stedsnr" v="642001" />
	</node>
	<node lat="60.78302222324568" lon="4.7318555590199844" id="-73774">
		<tag k="name" v="Stongevågen" />
		<tag k="natural" v="bay" />
		<tag k="ssr:stedsnr" v="643133" />
	</node>
	<node lat="60.75991110736104" lon="4.705813895469247" id="-73775">
		<tag k="name" v="Vassvikskjeret" />
		<tag k="place" v="islet" />
		<tag k="ssr:stedsnr" v="723845" />
	</node>
	<node lat="60.80062777927628" lon="4.689355546907705" id="-73784">
		<tag k="fixme" v="consider seamark:type=rock or natural=shoal" />
		<tag k="name" v="Teieskjeret" />
		<tag k="place" v="islet" />
		<tag k="ssr:stedsnr" v="765036" />
	</node>
	<node lat="60.79051944669313" lon="4.70332778014981" id="-73785">
		<tag k="name" v="Moldøyholmen" />
		<tag k="place" v="islet" />
		<tag k="ssr:stedsnr" v="765113" />
	</node>
	<node lat="60.757941670708135" lon="4.744116666660953" id="-73786">
		<tag k="fixme" v="consider seamark:type=rock or natural=shoal" />
		<tag k="name" v="Mortevikskjeret" />
		<tag k="place" v="islet" />
		<tag k="ssr:stedsnr" v="784814" />
	</node>
	<node lat="60.78844999793653" lon="4.666702773011734" id="-73795">
		<tag k="name" v="Mågøyosen" />
		<tag k="natural" v="strait" />
		<tag k="ssr:stedsnr" v="826032" />
	</node>
	<node lat="60.789594440879085" lon="4.68875556110247" id="-73796">
		<tag k="name" v="Klubben" />
		<tag k="place" v="islet" />
		<tag k="ssr:stedsnr" v="826034" />
	</node>
	<node lat="60.758741668449474" lon="4.743808334596102" id="-73797">
		<tag k="name" v="Mortevika" />
		<tag k="natural" v="bay" />
		<tag k="ssr:stedsnr" v="826148" />
	</node>
	<node lat="60.75040833760214" lon="4.708427775149253" id="-73807">
		<tag k="fixme" v="consider seamark:type=rock or natural=shoal" />
		<tag k="name" v="Teistenakken" />
		<tag k="place" v="islet" />
		<tag k="ssr:stedsnr" v="887035" />
	</node>
	<node lat="60.79717499643502" lon="4.689727778996113" id="-73809">
		<tag k="name" v="Rognholmen" />
		<tag k="place" v="islet" />
		<tag k="ssr:stedsnr" v="887083" />
	</node>
	<node lat="60.78001388503004" lon="4.691444449416842" id="-73813">
		<tag k="name" v="Sildevika" />
		<tag k="natural" v="bay" />
		<tag k="ssr:stedsnr" v="947104" />
	</node>
	<node lat="60.783119447806975" lon="4.68145000549177" id="-73816">
		<tag k="name" v="Småklovningane" />
		<tag k="place" v="islet" />
		<tag k="ssr:stedsnr" v="947109" />
	</node>
	<node lat="60.764086110895356" lon="4.745027779419081" id="-73817">
		<tag k="name" v="Langøybukta" />
		<tag k="natural" v="bay" />
		<tag k="ssr:stedsnr" v="947117" />
	</node>
	<node lat="60.82198888585028" lon="4.654466662031218" id="-73819">
		<tag k="name" v="Ljøsøyna" />
		<tag k="place" v="islet" />
		<tag k="ssr:stedsnr" v="966861" />
	</node>
	<node lat="60.77834772426237" lon="4.695277143753505" id="-73840">
		<tag k="name" v="Vidnappen" />
		<tag k="natural" v="cape" />
		<tag k="ssr:stedsnr" v="1072118" />
	</node>
	<node lat="60.76676110913458" lon="4.687305244727582" id="-73841">
		<tag k="name" v="Søre Islendingen" />
		<tag k="place" v="islet" />
		<tag k="ssr:stedsnr" v="1072119" />
	</node>
	<node lat="60.78070646712883" lon="4.709064658442616" id="-73842">
		<tag k="name" v="Sørvågen" />
		<tag k="natural" v="bay" />
		<tag k="ssr:stedsnr" v="1072124" />
	</node>
	<node lat="60.81277585097302" lon="4.648633019463376" id="-73844">
		<tag k="name" v="Revet" />
		<tag k="natural" v="shoal" />
		<tag k="place" v="locality" />
		<tag k="ssr:stedsnr" v="1072131" />
	</node>
	<node lat="60.828379736924795" lon="4.643037782211698" id="-73845">
		<tag k="name" v="Frilsøyane" />
		<tag k="place" v="island" />
		<tag k="ssr:stedsnr" v="1072133" />
	</node>
</osm>
