<?xml version="1.0" encoding="UTF-8"?>
<osm version="0.6" generator="osmapis">
	<node lat="60.811119442453325" lon="4.671877776700741" id="-61443">
		<tag k="name" v="Meflua" />
		<tag k="natural" v="shoal" />
		<tag k="place" v="locality" />
		<tag k="ssr:stedsnr" v="7602" />
	</node>
	<node lat="60.81171288520932" lon="4.6487775817990045" id="-61444">
		<tag k="name" v="Nordra Revet" />
		<tag k="natural" v="shoal" />
		<tag k="place" v="locality" />
		<tag k="ssr:stedsnr" v="7604" />
	</node>
	<node lat="60.777436107632845" lon="4.6738166668429" id="-61445">
		<tag k="name" v="Store Fiskholmen" />
		<tag k="place" v="islet" />
		<tag k="ssr:stedsnr" v="7615" />
	</node>
	<node lat="60.814538892463375" lon="4.618380561353357" id="-61446">
		<tag k="name" v="Vårhammarflua" />
		<tag k="natural" v="shoal" />
		<tag k="place" v="locality" />
		<tag k="ssr:stedsnr" v="7728" />
	</node>
	<node lat="60.78177499897814" lon="4.720066660767865" id="-61447">
		<tag k="name" v="Kopper" />
		<tag k="place" v="farm" />
		<tag k="ssr:stedsnr" v="20089" />
	</node>
	<node lat="60.78168055658469" lon="4.7170416666756" id="-61448">
		<tag k="name" v="Grenda" />
		<tag k="place" v="farm" />
		<tag k="ssr:stedsnr" v="21090" />
	</node>
	<node lat="60.82451111238884" lon="4.645413888597044" id="-61450">
		<tag k="name" v="Humreboen" />
		<tag k="natural" v="shoal" />
		<tag k="place" v="locality" />
		<tag k="ssr:stedsnr" v="238849" />
	</node>
	<node lat="60.80649166659041" lon="4.675836111860152" id="-61451">
		<tag k="name" v="Håflua" />
		<tag k="natural" v="shoal" />
		<tag k="place" v="locality" />
		<tag k="ssr:stedsnr" v="67640" />
	</node>
	<node lat="60.79490277849959" lon="4.693925001214837" id="-61452">
		<tag k="name" v="Austra Slissøyna" />
		<tag k="place" v="islet" />
		<tag k="ssr:stedsnr" v="67644" />
	</node>
	<node lat="60.82355555242934" lon="4.658655564661868" id="-61453">
		<tag k="name" v="Innarsøyane" />
		<tag k="place" v="islet" />
		<tag k="ssr:stedsnr" v="67745" />
	</node>
	<node lat="60.781869442573026" lon="4.713325003889105" id="-61454">
		<tag k="name" v="Steinborg" />
		<tag k="place" v="farm" />
		<tag k="ssr:stedsnr" v="81086" />
	</node>
	<node lat="60.79900832912701" lon="4.702463893351383" id="-61455">
		<tag k="fixme" v="consider seamark:type=rock or natural=shoal" />
		<tag k="name" v="Nordøyskjeret" />
		<tag k="place" v="islet" />
		<tag k="ssr:stedsnr" v="85786" />
	</node>
	<node lat="60.78379444798807" lon="4.669544449130539" id="-61456">
		<tag k="fixme" v="consider seamark:type=rock or natural=shoal" />
		<tag k="name" v="Navarskjeret" />
		<tag k="place" v="islet" />
		<tag k="ssr:stedsnr" v="85794" />
	</node>
	<node lat="60.784969445877074" lon="4.682241660825919" id="-61457">
		<tag k="name" v="Siriholmen" />
		<tag k="place" v="islet" />
		<tag k="ssr:stedsnr" v="85796" />
	</node>
	<node lat="60.78987222673012" lon="4.680855562426141" id="-61458">
		<tag k="name" v="Nordre Lyngholmen" />
		<tag k="place" v="islet" />
		<tag k="ssr:stedsnr" v="98014" />
	</node>
	<node lat="60.77971388612683" lon="4.708375008761397" id="-61459">
		<tag k="name" v="Smiholmen" />
		<tag k="place" v="islet" />
		<tag k="ssr:stedsnr" v="98022" />
	</node>
	<node lat="60.765708666462004" lon="4.734661940164075" id="-61460">
		<tag k="name" v="Nordra Fedjebjørnstjørna" />
		<tag k="natural" v="water" />
		<tag k="ssr:stedsnr" v="98112" />
	</node>
	<node lat="60.807296285769155" lon="4.649035823966631" id="-61461">
		<tag k="name" v="Søra Revet" />
		<tag k="natural" v="shoal" />
		<tag k="place" v="locality" />
		<tag k="ssr:stedsnr" v="249613" />
	</node>
	<node lat="60.76426537192495" lon="4.710355658499887" id="-61462">
		<tag k="name" v="Kroken" />
		<tag k="natural" v="water" />
		<tag k="ssr:stedsnr" v="249640" />
	</node>
	<node lat="60.81296388894976" lon="4.721686112229171" id="-61464">
		<tag k="name" v="Ryggen" />
		<tag k="natural" v="shoal" />
		<tag k="place" v="locality" />
		<tag k="ssr:stedsnr" v="251086" />
	</node>
	<node lat="60.750766662380386" lon="4.7263277818071385" id="-61465">
		<tag k="name" v="Synste Odden" />
		<tag k="natural" v="cape" />
		<tag k="ssr:stedsnr" v="251220" />
	</node>
	<node lat="60.82782778113457" lon="4.647613896355953" id="-61466">
		<tag k="name" v="Lisla Frilsøyna" />
		<tag k="place" v="island" />
		<tag k="ssr:stedsnr" v="128742" />
	</node>
	<node lat="60.78301111007337" lon="4.728977781965503" id="-61467">
		<tag k="name" v="Rognsneset" />
		<tag k="natural" v="cape" />
		<tag k="ssr:stedsnr" v="129007" />
	</node>
	<node lat="60.771800001630304" lon="4.694383342256981" id="-61468">
		<tag k="name" v="Sengsneset" />
		<tag k="natural" v="cape" />
		<tag k="ssr:stedsnr" v="145766" />
	</node>
	<node lat="60.75206667093708" lon="4.720258339174399" id="-61469">
		<tag k="name" v="Breivika" />
		<tag k="natural" v="bay" />
		<tag k="ssr:stedsnr" v="145781" />
	</node>
	<node lat="60.78533163086502" lon="4.7076560285884375" id="-61470">
		<tag k="name" v="Mulen" />
		<tag k="place" v="farm" />
		<tag k="ssr:stedsnr" v="157003" />
	</node>
	<node lat="60.797505555985694" lon="4.700152781107" id="-61471">
		<tag k="fixme" v="consider seamark:type=rock or natural=shoal" />
		<tag k="name" v="Skjeret" />
		<tag k="place" v="islet" />
		<tag k="ssr:stedsnr" v="158103" />
	</node>
	<node lat="60.77845890229098" lon="4.729565332303939" id="-61472">
		<tag k="name" v="Øvsta Vassivarvatnet" />
		<tag k="natural" v="water" />
		<tag k="ssr:stedsnr" v="158154" />
		<tag k="water" v="lake" />
	</node>
	<node lat="60.79379444850621" lon="4.663444449132684" id="-61473">
		<tag k="fixme" v="consider seamark:type=rock or natural=shoal" />
		<tag k="name" v="Insta Mågøyskjeret" />
		<tag k="place" v="islet" />
		<tag k="ssr:stedsnr" v="158047" />
	</node>
	<node lat="60.83420211841106" lon="4.64040462067691" id="-61474">
		<tag k="name" v="Nordosen" />
		<tag k="natural" v="strait" />
		<tag k="ssr:stedsnr" v="188769" />
	</node>
	<node lat="60.75405277415588" lon="4.710725001061329" id="-61475">
		<tag k="name" v="Fyrsundet" />
		<tag k="natural" v="strait" />
		<tag k="ssr:stedsnr" v="189602" />
	</node>
	<node lat="60.80483055298309" lon="4.7325277803756425" id="-61476">
		<tag k="bay" v="fjord" />
		<tag k="name" v="Fedjefjorden" />
		<tag k="natural" v="bay" />
		<tag k="ssr:stedsnr" v="189713" />
	</node>
	<node lat="60.80130278162407" lon="4.686274997904358" id="-61478">
		<tag k="name" v="Mågøyosen" />
		<tag k="natural" v="strait" />
		<tag k="ssr:stedsnr" v="267765" />
	</node>
	<node lat="60.75302940917618" lon="4.709258610353542" id="-61479">
		<tag k="name" v="Hellesøyna" />
		<tag k="place" v="island" />
		<tag k="ssr:stedsnr" v="267770" />
	</node>
	<node lat="60.77956666603537" lon="4.733058332750541" id="-61480">
		<tag k="name" v="Bratthammaren" />
		<tag k="natural" v="hill" />
		<tag k="place" v="locality" />
		<tag k="ssr:stedsnr" v="219113" />
	</node>
	<node lat="60.79602500339069" lon="4.6761805533839285" id="-61481">
		<tag k="name" v="Mågøyklubben" />
		<tag k="natural" v="cape" />
		<tag k="ssr:stedsnr" v="219080" />
	</node>
	<node lat="60.76900277709646" lon="4.678730552523634" id="-61482">
		<tag k="fixme" v="consider seamark:type=rock or natural=shoal" />
		<tag k="name" v="Suleskjeret" />
		<tag k="place" v="islet" />
		<tag k="ssr:stedsnr" v="449750" />
	</node>
	<node lat="60.80111944097132" lon="4.697636120390966" id="-61483">
		<tag k="name" v="Nordøyflua" />
		<tag k="natural" v="shoal" />
		<tag k="place" v="locality" />
		<tag k="ssr:stedsnr" v="449798" />
	</node>
	<node lat="60.7852277781218" lon="4.722522221339532" id="-61484">
		<tag k="name" v="Kista" />
		<tag k="natural" v="cape" />
		<tag k="ssr:stedsnr" v="449977" />
	</node>
	<node lat="60.78546944335232" lon="4.706469437326923" id="-61485">
		<tag k="name" v="Mulen" />
		<tag k="natural" v="cape" />
		<tag k="ssr:stedsnr" v="449978" />
	</node>
	<node lat="60.77998333447402" lon="4.696630548394988" id="-61486">
		<tag k="man_made" v="tower" />
		<tag k="name" v="Fedje VTC" />
		<tag k="ssr:stedsnr" v="238802" />
		<tag k="tower:type" v="communications" />
	</node>
	<node lat="60.82345277694617" lon="4.644836106591982" id="-61487">
		<tag k="name" v="Humreboane" />
		<tag k="natural" v="shoal" />
		<tag k="place" v="locality" />
		<tag k="ssr:stedsnr" v="457484" />
	</node>
	<node lat="60.78138450734324" lon="4.6937957744087475" id="-61488">
		<tag k="name" v="Hesthøyen" />
		<tag k="natural" v="hill" />
		<tag k="place" v="locality" />
		<tag k="ssr:stedsnr" v="275714" />
	</node>
	<node lat="60.77030555969088" lon="4.687436119602478" id="-61489">
		<tag k="fixme" v="consider seamark:type=rock or natural=shoal" />
		<tag k="name" v="Hella" />
		<tag k="place" v="islet" />
		<tag k="ssr:stedsnr" v="280018" />
	</node>
	<node lat="60.77512499607331" lon="4.728852786631939" id="-61490">
		<tag k="bridge" v="yes" />
		<tag k="layer" v="1" />
		<tag k="name" v="Sildevågen" />
		<tag k="ssr:stedsnr" v="290125" />
	</node>
	<node lat="60.7679388896822" lon="4.683322230640099" id="-61491">
		<tag k="fixme" v="consider seamark:type=rock or natural=shoal" />
		<tag k="name" v="Islendingskjeret" />
		<tag k="place" v="islet" />
		<tag k="ssr:stedsnr" v="462027" />
	</node>
	<node lat="60.75822352293275" lon="4.712114793011288" id="-61492">
		<tag k="name" v="Aurihopsvatna" />
		<tag k="natural" v="water" />
		<tag k="ssr:stedsnr" v="462030" />
		<tag k="water" v="lake" />
	</node>
	<node lat="60.82949444280614" lon="4.651033335949887" id="-61493">
		<tag k="name" v="Svartskjerflua" />
		<tag k="natural" v="shoal" />
		<tag k="place" v="locality" />
		<tag k="ssr:stedsnr" v="298803" />
	</node>
	<node lat="60.78461944472414" lon="4.727825000282655" id="-61494">
		<tag k="fixme" v="consider seamark:type=rock or natural=shoal" />
		<tag k="name" v="Vardeskjeret" />
		<tag k="place" v="islet" />
		<tag k="ssr:stedsnr" v="311004" />
	</node>
	<node lat="60.78254999736619" lon="4.715866660444392" id="-61495">
		<tag k="name" v="Vika" />
		<tag k="place" v="farm" />
		<tag k="ssr:stedsnr" v="324081" />
	</node>
	<node lat="60.75631291488735" lon="4.7260472830579845" id="-61496">
		<tag k="name" v="Sengsvatnet" />
		<tag k="natural" v="water" />
		<tag k="ssr:stedsnr" v="340111" />
		<tag k="water" v="lake" />
	</node>
	<node lat="60.76028889230715" lon="4.702711112687209" id="-61497">
		<tag k="fixme" v="consider seamark:type=rock or natural=shoal" />
		<tag k="name" v="Vassvikeskjeret" />
		<tag k="place" v="islet" />
		<tag k="ssr:stedsnr" v="340119" />
	</node>
	<node lat="60.84213055418291" lon="4.640483329015618" id="-61498">
		<tag k="fixme" v="consider seamark:type=rock or natural=shoal" />
		<tag k="name" v="Ekreskjeret" />
		<tag k="place" v="islet" />
		<tag k="ssr:stedsnr" v="370759" />
	</node>
	<node lat="60.76203333707017" lon="4.647577782493727" id="-61499">
		<tag k="name" v="Laggenakken" />
		<tag k="natural" v="shoal" />
		<tag k="place" v="locality" />
		<tag k="ssr:stedsnr" v="480796" />
	</node>
	<node lat="60.78167759236545" lon="4.713948245556069" id="-61500">
		<tag k="name" v="Muren" />
		<tag k="place" v="farm" />
		<tag k="ssr:stedsnr" v="384106" />
	</node>
	<node lat="60.78395277679955" lon="4.696619448131557" id="-61501">
		<tag k="name" v="Hesteneset" />
		<tag k="place" v="farm" />
		<tag k="ssr:stedsnr" v="385018" />
	</node>
	<node lat="60.78197222436771" lon="4.71825832869946" id="-61502">
		<tag k="name" v="Opphaugen" />
		<tag k="place" v="farm" />
		<tag k="ssr:stedsnr" v="385097" />
	</node>
	<node lat="60.783686108807395" lon="4.691591675860261" id="-61503">
		<tag k="name" v="Karlsøyna" />
		<tag k="place" v="island" />
		<tag k="ssr:stedsnr" v="388815" />
	</node>
	<node lat="60.78061388897748" lon="4.723966661154482" id="-61504">
		<tag k="name" v="Rognsvågen" />
		<tag k="natural" v="bay" />
		<tag k="ssr:stedsnr" v="388816" />
	</node>
	<node lat="60.75698003729153" lon="4.719982528856769" id="-61505">
		<tag k="name" v="Småsengsvatnet" />
		<tag k="natural" v="water" />
		<tag k="ssr:stedsnr" v="401011" />
		<tag k="water" v="lake" />
	</node>
	<node lat="60.79683888679652" lon="4.692808326946963" id="-61506">
		<tag k="name" v="Nordøysundet" />
		<tag k="natural" v="strait" />
		<tag k="ssr:stedsnr" v="401027" />
	</node>
	<node lat="60.77624166696006" lon="4.719480557155489" id="-61507">
		<tag k="name" v="Måsholmen" />
		<tag k="place" v="islet" />
		<tag k="ssr:stedsnr" v="401076" />
	</node>
	<node lat="60.81487500141621" lon="4.656644449518439" id="-61508">
		<tag k="name" v="Nordre Ålen" />
		<tag k="natural" v="strait" />
		<tag k="ssr:stedsnr" v="431644" />
	</node>
	<node lat="60.80900555164175" lon="4.661125006896344" id="-61509">
		<tag k="fixme" v="consider seamark:type=rock or natural=shoal" />
		<tag k="name" v="Store Sverslingen" />
		<tag k="place" v="islet" />
		<tag k="ssr:stedsnr" v="431649" />
	</node>
	<node lat="60.755694440315274" lon="4.703361113653989" id="-61510">
		<tag k="fixme" v="consider seamark:type=rock or natural=shoal" />
		<tag k="name" v="Hellesøyskjeret" />
		<tag k="place" v="islet" />
		<tag k="ssr:stedsnr" v="432628" />
	</node>
	<node lat="60.81206944571668" lon="4.648027781795671" id="-61511">
		<tag k="fixme" v="consider seamark:type=rock or natural=shoal" />
		<tag k="name" v="Lisle Geitungen" />
		<tag k="place" v="islet" />
		<tag k="ssr:stedsnr" v="492595" />
	</node>
	<node lat="60.79921388635067" lon="4.659908342498311" id="-61512">
		<tag k="fixme" v="consider seamark:type=rock or natural=shoal" />
		<tag k="name" v="Klovane" />
		<tag k="place" v="islet" />
		<tag k="ssr:stedsnr" v="492601" />
	</node>
	<node lat="60.73587499583062" lon="4.7619305515299315" id="-61513">
		<tag k="bay" v="fjord" />
		<tag k="name" v="Fedjeosen" />
		<tag k="natural" v="bay" />
		<tag k="ssr:stedsnr" v="492659" />
	</node>
	<node lat="60.82351944337337" lon="4.641155555571329" id="-61514">
		<tag k="name" v="Humreboflua" />
		<tag k="natural" v="shoal" />
		<tag k="place" v="locality" />
		<tag k="ssr:stedsnr" v="492729" />
	</node>
	<node lat="60.82749166830635" lon="4.655597217869171" id="-61515">
		<tag k="fixme" v="consider seamark:type=rock or natural=shoal" />
		<tag k="name" v="Svartskjeret" />
		<tag k="place" v="islet" />
		<tag k="ssr:stedsnr" v="492731" />
	</node>
	<node lat="60.778325402259306" lon="4.711012460966938" id="-61517">
		<tag k="name" v="Husa" />
		<tag k="place" v="farm" />
		<tag k="ssr:stedsnr" v="445092" />
	</node>
	<node lat="60.782430420485014" lon="4.726738533554506" id="-61518">
		<tag k="fixme" v="consider place=hamlet" />
		<tag k="name" v="Rognsvågen" />
		<tag k="place" v="farm" />
		<tag k="ssr:stedsnr" v="446078" />
	</node>
	<node lat="60.78054721834571" lon="4.712316670836901" id="-61519">
		<tag k="name" v="Uthaugen" />
		<tag k="place" v="farm" />
		<tag k="ssr:stedsnr" v="446089" />
	</node>
	<node lat="60.79553888639551" lon="4.684713896828061" id="-61520">
		<tag k="name" v="Teistosen" />
		<tag k="natural" v="strait" />
		<tag k="ssr:stedsnr" v="462073" />
	</node>
	<node lat="60.76938610777597" lon="4.684336117408361" id="-61521">
		<tag k="fixme" v="consider seamark:type=rock or natural=shoal" />
		<tag k="name" v="Klumpen" />
		<tag k="place" v="islet" />
		<tag k="ssr:stedsnr" v="462081" />
	</node>
	<node lat="60.80039444817181" lon="4.6895249948269475" id="-61522">
		<tag k="fixme" v="consider seamark:type=rock or natural=shoal" />
		<tag k="name" v="Terneskjera" />
		<tag k="place" v="islet" />
		<tag k="ssr:stedsnr" v="674634" />
	</node>
	<node lat="60.79403055330515" lon="4.690897214359583" id="-61523">
		<tag k="name" v="Vestra Slissøyna" />
		<tag k="place" v="islet" />
		<tag k="ssr:stedsnr" v="674636" />
	</node>
	<node lat="60.78710555123193" lon="4.671925000568754" id="-61524">
		<tag k="name" v="Sandholmen" />
		<tag k="place" v="islet" />
		<tag k="ssr:stedsnr" v="674638" />
	</node>
	<node lat="60.78513611210575" lon="4.669066665283097" id="-61525">
		<tag k="name" v="Hatlenipen" />
		<tag k="place" v="islet" />
		<tag k="ssr:stedsnr" v="674641" />
	</node>
	<node lat="60.84345555838753" lon="4.642700000085522" id="-61526">
		<tag k="fixme" v="consider seamark:type=rock or natural=shoal" />
		<tag k="name" v="Gygra" />
		<tag k="place" v="islet" />
		<tag k="ssr:stedsnr" v="674743" />
	</node>
	<node lat="60.767680557928664" lon="4.7150833420154274" id="-61527">
		<tag k="name" v="Fedje" />
		<tag k="place" v="island" />
		<tag k="ssr:stedsnr" v="492615" />
	</node>
	<node lat="60.810491667961934" lon="4.660774998644787" id="-61528">
		<tag k="fixme" v="consider seamark:type=rock or natural=shoal" />
		<tag k="name" v="Sverslingane" />
		<tag k="place" v="islet" />
		<tag k="ssr:stedsnr" v="492592" />
	</node>
	<node lat="60.86778055236835" lon="4.623774997885354" id="-61529">
		<tag k="name" v="Bergskallen" />
		<tag k="natural" v="shoal" />
		<tag k="place" v="locality" />
		<tag k="ssr:stedsnr" v="492719" />
	</node>
	<node lat="60.796730750062174" lon="4.704866688498117" id="-61530">
		<tag k="fixme" v="consider seamark:type=rock or natural=shoal" />
		<tag k="name" v="Grisholmskjeret" />
		<tag k="place" v="islet" />
		<tag k="ssr:stedsnr" v="510854" />
	</node>
	<node lat="60.78541111164353" lon="4.723091661856386" id="-61531">
		<tag k="name" v="Kisteneset" />
		<tag k="natural" v="cape" />
		<tag k="ssr:stedsnr" v="522103" />
	</node>
	<node lat="60.79513610898275" lon="4.679361110285649" id="-61532">
		<tag k="name" v="Nålevågen" />
		<tag k="natural" v="bay" />
		<tag k="ssr:stedsnr" v="522113" />
	</node>
	<node lat="60.761652227564646" lon="4.735893932359407" id="-61533">
		<tag k="name" v="Søra Fedjebjørnstjørna" />
		<tag k="natural" v="water" />
		<tag k="ssr:stedsnr" v="522121" />
	</node>
	<node lat="60.77970000157028" lon="4.706030559816932" id="-61534">
		<tag k="name" v="Pollen" />
		<tag k="natural" v="bay" />
		<tag k="ssr:stedsnr" v="541769" />
	</node>
	<node lat="60.75833963474243" lon="4.740320550549372" id="-61535">
		<tag k="fixme" v="consider place=hamlet" />
		<tag k="name" v="Stormark" />
		<tag k="place" v="farm" />
		<tag k="ssr:stedsnr" v="554201" />
	</node>
	<node lat="60.77255555269356" lon="4.724577778656042" id="-61536">
		<tag k="name" v="Nygård" />
		<tag k="place" v="farm" />
		<tag k="ssr:stedsnr" v="688065" />
	</node>
	<node lat="60.76631666316751" lon="4.691352781159143" id="-61537">
		<tag k="name" v="Hatteboen" />
		<tag k="natural" v="shoal" />
		<tag k="place" v="locality" />
		<tag k="ssr:stedsnr" v="692763" />
	</node>
	<node lat="60.77597499958256" lon="4.693327780515814" id="-61538">
		<tag k="name" v="Søre Vidnappen" />
		<tag k="natural" v="cape" />
		<tag k="ssr:stedsnr" v="692830" />
	</node>
	<node lat="60.784197221133844" lon="4.7049305540382305" id="-61539">
		<tag k="name" v="Vestre Vågen" />
		<tag k="natural" v="bay" />
		<tag k="ssr:stedsnr" v="692934" />
	</node>
	<node lat="60.80085277744029" lon="4.671763890324691" id="-61540">
		<tag k="fixme" v="consider seamark:type=rock or natural=shoal" />
		<tag k="name" v="Lisle Geitungen" />
		<tag k="place" v="islet" />
		<tag k="ssr:stedsnr" v="570811" />
	</node>
	<node lat="60.76818333447476" lon="4.697683336964321" id="-61541">
		<tag k="name" v="Kvalvika" />
		<tag k="natural" v="bay" />
		<tag k="ssr:stedsnr" v="570754" />
	</node>
	<node lat="60.7611194449844" lon="4.747866666838677" id="-61542">
		<tag k="name" v="Langøyflua" />
		<tag k="natural" v="shoal" />
		<tag k="place" v="locality" />
		<tag k="ssr:stedsnr" v="570764" />
	</node>
	<node lat="60.76467499758412" lon="4.719361114928619" id="-61543">
		<tag k="name" v="Fagrevollen" />
		<tag k="place" v="locality" />
		<tag k="ssr:stedsnr" v="583114" />
	</node>
	<node lat="60.77260144848334" lon="4.722599584697825" id="-61544">
		<tag k="name" v="Grønevasstjørna" />
		<tag k="natural" v="water" />
		<tag k="ssr:stedsnr" v="583116" />
	</node>
	<node lat="60.78602389558509" lon="4.715753857004031" id="-61545">
		<tag k="name" v="Moldøyna" />
		<tag k="place" v="islet" />
		<tag k="ssr:stedsnr" v="614010" />
	</node>
	<node lat="60.763375002581796" lon="4.7348611155182985" id="-61546">
		<tag k="name" v="Fedjebjørnen" />
		<tag k="natural" v="hill" />
		<tag k="place" v="locality" />
		<tag k="ssr:stedsnr" v="615220" />
	</node>
	<node lat="60.79422777420673" lon="4.686916668992058" id="-61547">
		<tag k="alt_name" v="Flotten" />
		<tag k="name" v="Søre Flotten" />
		<tag k="place" v="islet" />
		<tag k="ssr:stedsnr" v="703075" />
	</node>
	<node lat="60.7682502191118" lon="4.713072582646649" id="-61548">
		<tag k="name" v="Langevasskrokane" />
		<tag k="natural" v="water" />
		<tag k="ssr:stedsnr" v="703001" />
		<tag k="water" v="lake" />
	</node>
	<node lat="60.763668365346305" lon="4.728435899167561" id="-61549">
		<tag k="name" v="Tjørnane" />
		<tag k="natural" v="water" />
		<tag k="ssr:stedsnr" v="704119" />
		<tag k="water" v="lake" />
	</node>
	<node lat="60.78658055811067" lon="4.706313895171114" id="-61550">
		<tag k="name" v="Kyrkjevågen" />
		<tag k="natural" v="bay" />
		<tag k="ssr:stedsnr" v="704013" />
	</node>
	<node lat="60.75995833642685" lon="4.693530552995908" id="-61551">
		<tag k="name" v="Djupeflua" />
		<tag k="natural" v="shoal" />
		<tag k="place" v="locality" />
		<tag k="ssr:stedsnr" v="630724" />
	</node>
	<node lat="60.770719116527374" lon="4.737617795156428" id="-61552">
		<tag k="name" v="Rekkingedalstjørna" />
		<tag k="natural" v="water" />
		<tag k="ssr:stedsnr" v="705081" />
	</node>
	<node lat="60.78242778130703" lon="4.690516669832239" id="-61553">
		<tag k="name" v="Karlsøysundet" />
		<tag k="natural" v="strait" />
		<tag k="ssr:stedsnr" v="642004" />
	</node>
	<node lat="60.791947226305815" lon="4.659408326656732" id="-61554">
		<tag k="fixme" v="consider seamark:type=rock or natural=shoal" />
		<tag k="name" v="Ytsta Mågøyskjeret" />
		<tag k="place" v="islet" />
		<tag k="ssr:stedsnr" v="643027" />
	</node>
	<node lat="60.786261114718535" lon="4.702833324858435" id="-61555">
		<tag k="name" v="Lislemulen" />
		<tag k="natural" v="cape" />
		<tag k="ssr:stedsnr" v="643131" />
	</node>
	<node lat="60.83890278025443" lon="4.626644448049532" id="-61556">
		<tag k="name" v="Nordosflua" />
		<tag k="natural" v="shoal" />
		<tag k="place" v="locality" />
		<tag k="ssr:stedsnr" v="674753" />
	</node>
	<node lat="60.87120555528389" lon="4.598702774124052" id="-61557">
		<tag k="name" v="Ytreskallen" />
		<tag k="natural" v="shoal" />
		<tag k="place" v="locality" />
		<tag k="ssr:stedsnr" v="675752" />
	</node>
	<node lat="60.79650277576781" lon="4.683041658820763" id="-61558">
		<tag k="name" v="Nåla" />
		<tag k="place" v="islet" />
		<tag k="ssr:stedsnr" v="692817" />
	</node>
	<node lat="60.789386110853485" lon="4.706680551010252" id="-61559">
		<tag k="name" v="Moldøyosen" />
		<tag k="natural" v="strait" />
		<tag k="ssr:stedsnr" v="692820" />
	</node>
	<node lat="60.7811638905706" lon="4.685805547799385" id="-61560">
		<tag k="name" v="Argeskjeret" />
		<tag k="natural" v="shoal" />
		<tag k="place" v="locality" />
		<tag k="ssr:stedsnr" v="692826" />
	</node>
	<node lat="60.76560833113384" lon="4.744569448634283" id="-61561">
		<tag k="name" v="Gulenakken" />
		<tag k="natural" v="cape" />
		<tag k="ssr:stedsnr" v="692775" />
	</node>
	<node lat="60.75691111025131" lon="4.70952221660824" id="-61562">
		<tag k="name" v="Aurihopen" />
		<tag k="natural" v="bay" />
		<tag k="ssr:stedsnr" v="692777" />
	</node>
	<node lat="60.76204166583052" lon="4.718999991694254" id="-61563">
		<tag k="name" v="Hammarsvatnet" />
		<tag k="natural" v="water" />
		<tag k="ssr:stedsnr" v="703009" />
		<tag k="water" v="lake" />
	</node>
	<node lat="60.8409083377188" lon="4.629250005687458" id="-61564">
		<tag k="name" v="Ivarsnakken" />
		<tag k="natural" v="shoal" />
		<tag k="place" v="locality" />
		<tag k="ssr:stedsnr" v="723824" />
	</node>
	<node lat="60.80399167051345" lon="4.67963887975155" id="-61565">
		<tag k="fixme" v="consider seamark:type=rock or natural=shoal" />
		<tag k="name" v="Lisla Håfluskjeret" />
		<tag k="place" v="islet" />
		<tag k="ssr:stedsnr" v="735622" />
	</node>
	<node lat="60.79395278222642" lon="4.677569449856615" id="-61566">
		<tag k="name" v="Lyngmågøyna" />
		<tag k="place" v="islet" />
		<tag k="ssr:stedsnr" v="735626" />
	</node>
	<node lat="60.784822220878866" lon="4.691402781745456" id="-61567">
		<tag k="name" v="Skarvøyosen" />
		<tag k="natural" v="strait" />
		<tag k="ssr:stedsnr" v="735631" />
	</node>
	<node lat="60.87266388661379" lon="4.617463890308006" id="-61568">
		<tag k="name" v="Indreskallen" />
		<tag k="natural" v="shoal" />
		<tag k="place" v="locality" />
		<tag k="ssr:stedsnr" v="735724" />
	</node>
	<node lat="60.783405558034616" lon="4.718144436928731" id="-61569">
		<tag k="name" v="Nord-Tangen" />
		<tag k="place" v="farm" />
		<tag k="ssr:stedsnr" v="749061" />
	</node>
	<node lat="60.78311944506358" lon="4.709763890128366" id="-61570">
		<tag k="name" v="Kremmarholmen" />
		<tag k="place" v="islet" />
		<tag k="ssr:stedsnr" v="768254" />
	</node>
	<node lat="60.79504444796172" lon="4.660275007997446" id="-61571">
		<tag k="fixme" v="consider seamark:type=rock or natural=shoal" />
		<tag k="name" v="Gauteskjeret" />
		<tag k="place" v="islet" />
		<tag k="ssr:stedsnr" v="795661" />
	</node>
	<node lat="60.844613892213275" lon="4.63271666908692" id="-61572">
		<tag k="fixme" v="consider seamark:type=rock or natural=shoal" />
		<tag k="name" v="Flåskjeret" />
		<tag k="place" v="islet" />
		<tag k="ssr:stedsnr" v="796757" />
	</node>
	<node lat="60.77502733135619" lon="4.743619400911735" id="-61573">
		<tag k="name" v="Hovden" />
		<tag k="natural" v="cape" />
		<tag k="ssr:stedsnr" v="797025" />
	</node>
	<node lat="60.88091388667099" lon="4.6067916664100705" id="-61574">
		<tag k="name" v="Breidflua" />
		<tag k="natural" v="shoal" />
		<tag k="place" v="locality" />
		<tag k="ssr:stedsnr" v="917665" />
	</node>
	<node lat="60.7781250035573" lon="4.6972722146346655" id="-61575">
		<tag k="name" v="Langedalen" />
		<tag k="place" v="farm" />
		<tag k="ssr:stedsnr" v="810005" />
	</node>
	<node lat="60.776511178195236" lon="4.705602078928781" id="-61576">
		<tag k="fixme" v="consider place=hamlet" />
		<tag k="name" v="Træsneset" />
		<tag k="place" v="farm" />
		<tag k="ssr:stedsnr" v="810089" />
	</node>
	<node lat="60.783188227624926" lon="4.717103238256925" id="-61577">
		<tag k="name" v="Børen" />
		<tag k="place" v="farm" />
		<tag k="ssr:stedsnr" v="810097" />
	</node>
	<node lat="60.76669721835741" lon="4.744572214237542" id="-61578">
		<tag k="name" v="Langøyneset" />
		<tag k="natural" v="cape" />
		<tag k="ssr:stedsnr" v="918991" />
	</node>
	<node lat="60.77688055463749" lon="4.701405550949657" id="-61579">
		<tag k="name" v="Straumshøyen" />
		<tag k="natural" v="hill" />
		<tag k="place" v="locality" />
		<tag k="ssr:stedsnr" v="826022" />
	</node>
	<node lat="60.79896666485" lon="4.702855561108989" id="-61580">
		<tag k="fixme" v="consider seamark:type=rock or natural=shoal" />
		<tag k="name" v="Lisla Nordøyskjeret" />
		<tag k="place" v="islet" />
		<tag k="ssr:stedsnr" v="826118" />
	</node>
	<node lat="60.79613610714174" lon="4.687799995590629" id="-61581">
		<tag k="name" v="Nordre Flotten" />
		<tag k="place" v="islet" />
		<tag k="ssr:stedsnr" v="826123" />
	</node>
	<node lat="60.83117635973846" lon="4.629144081539046" id="-61582">
		<tag k="name" v="Kabelflua" />
		<tag k="natural" v="shoal" />
		<tag k="place" v="locality" />
		<tag k="ssr:stedsnr" v="843706" />
	</node>
	<node lat="60.80157222488986" lon="4.657016671188036" id="-61583">
		<tag k="name" v="Kloveflua" />
		<tag k="natural" v="shoal" />
		<tag k="place" v="locality" />
		<tag k="ssr:stedsnr" v="845891" />
	</node>
	<node lat="60.781475001972176" lon="4.714705563716069" id="-61584">
		<tag k="alt_name" v="Fedje" />
		<tag k="amenity" v="place_of_worship" />
		<tag k="denomination" v="lutheran" />
		<tag k="name" v="Fedje kyrkje" />
		<tag k="religion" v="christian" />
		<tag k="ssr:stedsnr" v="857641" />
	</node>
	<node lat="60.77183333459356" lon="4.686324995225855" id="-61585">
		<tag k="fixme" v="consider seamark:type=rock or natural=shoal" />
		<tag k="name" v="Oksen" />
		<tag k="place" v="islet" />
		<tag k="ssr:stedsnr" v="857642" />
	</node>
	<node lat="60.78040277803555" lon="4.715772220558469" id="-61586">
		<tag k="name" v="Kopper" />
		<tag k="place" v="farm" />
		<tag k="ssr:stedsnr" v="870074" />
	</node>
	<node lat="60.784830555947664" lon="4.702513896516166" id="-61587">
		<tag k="name" v="Kongestølen" />
		<tag k="place" v="farm" />
		<tag k="ssr:stedsnr" v="931070" />
	</node>
	<node lat="60.783597220154064" lon="4.721900000434265" id="-61588">
		<tag k="name" v="Berge" />
		<tag k="place" v="farm" />
		<tag k="ssr:stedsnr" v="931089" />
	</node>
	<node lat="60.76819965836383" lon="4.720096028676807" id="-61589">
		<tag k="name" v="Storevasstjørna" />
		<tag k="natural" v="water" />
		<tag k="ssr:stedsnr" v="886006" />
	</node>
	<node lat="60.78740000076432" lon="4.6865111095092935" id="-61590">
		<tag k="name" v="Lyngholmosen" />
		<tag k="natural" v="strait" />
		<tag k="ssr:stedsnr" v="887105" />
	</node>
	<node lat="60.77615277610584" lon="4.731530563378304" id="-61591">
		<tag k="name" v="Grønehøyen" />
		<tag k="natural" v="hill" />
		<tag k="place" v="locality" />
		<tag k="ssr:stedsnr" v="887119" />
	</node>
	<node lat="60.77465000124322" lon="4.715438888421088" id="-61592">
		<tag k="name" v="Husavatnet" />
		<tag k="natural" v="water" />
		<tag k="ssr:stedsnr" v="917617" />
		<tag k="water" v="lake" />
	</node>
	<node lat="60.765383336976534" lon="4.675777783305695" id="-61593">
		<tag k="name" v="Langboen" />
		<tag k="natural" v="shoal" />
		<tag k="place" v="locality" />
		<tag k="ssr:stedsnr" v="917620" />
	</node>
	<node lat="60.786244752607026" lon="4.7138867824793484" id="-61594">
		<tag k="name" v="Moldøyna" />
		<tag k="place" v="farm" />
		<tag k="ssr:stedsnr" v="931012" />
	</node>
	<node lat="60.77832195402929" lon="4.7142477173881" id="-61595">
		<tag k="name" v="Husa" />
		<tag k="place" v="farm" />
		<tag k="ssr:stedsnr" v="931090" />
	</node>
	<node lat="60.775474050874934" lon="4.729490202694722" id="-61596">
		<tag k="name" v="Husa" />
		<tag k="place" v="farm" />
		<tag k="ssr:stedsnr" v="931093" />
	</node>
	<node lat="60.779177775391524" lon="4.672430546832916" id="-61597">
		<tag k="name" v="Ivarsboen" />
		<tag k="natural" v="shoal" />
		<tag k="place" v="locality" />
		<tag k="ssr:stedsnr" v="935827" />
	</node>
	<node lat="60.795463887696776" lon="4.671572220094506" id="-61598">
		<tag k="fixme" v="consider seamark:type=rock or natural=shoal" />
		<tag k="name" v="Gudmundskjeret" />
		<tag k="place" v="islet" />
		<tag k="ssr:stedsnr" v="947083" />
	</node>
	<node lat="60.7822556918184" lon="4.714346887207225" id="-61599">
		<tag k="amenity" v="ferry_terminal" />
		<tag k="name" v="Fedje ferjekai" />
		<tag k="ssr:stedsnr" v="978595" />
	</node>
	<node lat="60.78068707860104" lon="4.716525306001351" id="-61600">
		<tag k="fixme" v="consider place=hamlet" />
		<tag k="name" v="Fedje" />
		<tag k="place" v="farm" />
		<tag k="ssr:stedsnr" v="989217" />
	</node>
	<node lat="60.786361307744436" lon="4.715618050240023" id="-61601">
		<tag k="fixme" v="consider place=hamlet" />
		<tag k="name" v="Moldøyna" />
		<tag k="place" v="farm" />
		<tag k="ssr:stedsnr" v="20078" />
	</node>
	<node lat="60.78300277966277" lon="4.715499992176147" id="-61602">
		<tag k="name" v="Brotet" />
		<tag k="place" v="farm" />
		<tag k="ssr:stedsnr" v="20085" />
	</node>
	<node lat="60.787163888774685" lon="4.7106055527659265" id="-61603">
		<tag k="name" v="Skotholmen" />
		<tag k="place" v="farm" />
		<tag k="ssr:stedsnr" v="21083" />
	</node>
	<node lat="60.77366389024653" lon="4.700311110271129" id="-61604">
		<tag k="name" v="Synselen" />
		<tag k="natural" v="hill" />
		<tag k="place" v="locality" />
		<tag k="ssr:stedsnr" v="24775" />
	</node>
	<node lat="60.78775277789022" lon="4.68408333384052" id="-61605">
		<tag k="name" v="Søre Lyngholmen" />
		<tag k="place" v="islet" />
		<tag k="ssr:stedsnr" v="37124" />
	</node>
	<node lat="60.774074998974285" lon="4.698308339175431" id="-61606">
		<tag k="fixme" v="consider seamark:type=rock or natural=shoal" />
		<tag k="name" v="Otresteinen" />
		<tag k="place" v="islet" />
		<tag k="ssr:stedsnr" v="37131" />
	</node>
	<node lat="60.78631389119721" lon="4.679991660156087" id="-61607">
		<tag k="name" v="Flatholmen" />
		<tag k="place" v="islet" />
		<tag k="ssr:stedsnr" v="37141" />
	</node>
	<node lat="60.75918611242967" lon="4.720261103342212" id="-61608">
		<tag k="name" v="Sengsvasshøyen" />
		<tag k="natural" v="hill" />
		<tag k="place" v="locality" />
		<tag k="ssr:stedsnr" v="37148" />
	</node>
	<node lat="60.76083055461057" lon="4.743669436175304" id="-61609">
		<tag k="name" v="Langøyna" />
		<tag k="place" v="island" />
		<tag k="ssr:stedsnr" v="37152" />
	</node>
	<node lat="60.7681888873999" lon="4.649647213686787" id="-61610">
		<tag k="name" v="Pershammaren" />
		<tag k="natural" v="shoal" />
		<tag k="place" v="locality" />
		<tag k="ssr:stedsnr" v="56798" />
	</node>
	<node lat="60.84398611024907" lon="4.6532055538118975" id="-61611">
		<tag k="name" v="Spaken" />
		<tag k="natural" v="shoal" />
		<tag k="place" v="locality" />
		<tag k="ssr:stedsnr" v="56835" />
	</node>
	<node lat="60.76883454821223" lon="4.710293532759164" id="-61612">
		<tag k="name" v="Langevatnet" />
		<tag k="natural" v="water" />
		<tag k="ssr:stedsnr" v="68656" />
	</node>
	<node lat="60.778380553616536" lon="4.738638897540144" id="-61613">
		<tag k="name" v="Flundrevågen" />
		<tag k="natural" v="bay" />
		<tag k="ssr:stedsnr" v="69015" />
	</node>
	<node lat="60.77351389286192" lon="4.736858337940674" id="-61614">
		<tag k="name" v="Sildevågen" />
		<tag k="natural" v="bay" />
		<tag k="ssr:stedsnr" v="69243" />
	</node>
	<node lat="60.77858329290149" lon="4.716964089686841" id="-61615">
		<tag k="name" v="Husa" />
		<tag k="place" v="farm" />
		<tag k="ssr:stedsnr" v="81097" />
	</node>
	<node lat="60.778897224484986" lon="4.714891657986114" id="-61616">
		<tag k="name" v="Fedje" />
		<tag k="place" v="village" />
		<tag k="ssr:stedsnr" v="85061" />
	</node>
	<node lat="60.76510966695254" lon="4.6962873763766675" id="-61617">
		<tag k="fixme" v="consider seamark:type=rock or natural=shoal" />
		<tag k="name" v="Kavringen" />
		<tag k="place" v="islet" />
		<tag k="ssr:stedsnr" v="85727" />
	</node>
	<node lat="60.77447499886534" lon="4.686394444809072" id="-61618">
		<tag k="name" v="Sandøygrunnen" />
		<tag k="natural" v="shoal" />
		<tag k="place" v="locality" />
		<tag k="ssr:stedsnr" v="85734" />
	</node>
	<node lat="60.77184166407112" lon="4.715174999390835" id="-61619">
		<tag k="name" v="Kvernhusdalen" />
		<tag k="natural" v="valley" />
		<tag k="place" v="locality" />
		<tag k="ssr:stedsnr" v="97082" />
	</node>
	<node lat="60.831230555437415" lon="4.635288893152642" id="-61620">
		<tag k="fixme" v="consider seamark:type=rock or natural=shoal" />
		<tag k="name" v="Vestskjer" />
		<tag k="place" v="islet" />
		<tag k="ssr:stedsnr" v="116846" />
	</node>
	<node lat="60.75489999624311" lon="4.740675000009813" id="-61621">
		<tag k="name" v="Æskjeret" />
		<tag k="place" v="islet" />
		<tag k="ssr:stedsnr" v="129219" />
	</node>
	<node lat="60.78568876410623" lon="4.716462060750598" id="-61622">
		<tag k="name" v="Moldøyna" />
		<tag k="place" v="farm" />
		<tag k="ssr:stedsnr" v="142021" />
	</node>
	<node lat="60.74961666492055" lon="4.699088895505718" id="-61623">
		<tag k="name" v="Søre Hellesøyskallen" />
		<tag k="natural" v="shoal" />
		<tag k="place" v="locality" />
		<tag k="ssr:stedsnr" v="145756" />
	</node>
	<node lat="60.75660278072857" lon="4.655336116167758" id="-61624">
		<tag k="name" v="Øshammaren" />
		<tag k="natural" v="shoal" />
		<tag k="place" v="locality" />
		<tag k="ssr:stedsnr" v="145758" />
	</node>
	<node lat="60.80599444747815" lon="4.674527782445956" id="-61625">
		<tag k="name" v="Slurvane" />
		<tag k="natural" v="shoal" />
		<tag k="place" v="locality" />
		<tag k="ssr:stedsnr" v="146793" />
	</node>
	<node lat="60.79113610659554" lon="4.671622214986024" id="-61626">
		<tag k="name" v="Søra Eidet" />
		<tag k="place" v="locality" />
		<tag k="ssr:stedsnr" v="158043" />
	</node>
	<node lat="60.78450277430708" lon="4.677247226980217" id="-61627">
		<tag k="name" v="Store Klovningane" />
		<tag k="place" v="islet" />
		<tag k="ssr:stedsnr" v="158108" />
	</node>
	<node lat="60.781283329801134" lon="4.677533338871427" id="-61628">
		<tag k="fixme" v="consider seamark:type=rock or natural=shoal" />
		<tag k="name" v="Langa Skjeret" />
		<tag k="place" v="islet" />
		<tag k="ssr:stedsnr" v="158109" />
	</node>
	<node lat="60.77083888617359" lon="4.695561110706537" id="-61629">
		<tag k="name" v="Sengsbukta" />
		<tag k="natural" v="bay" />
		<tag k="ssr:stedsnr" v="158134" />
	</node>
	<node lat="60.75474444598714" lon="4.7081388913928475" id="-61630">
		<tag k="name" v="Hammarsundsflua" />
		<tag k="place" v="locality" />
		<tag k="seamark:type" v="rock" />
		<tag k="ssr:stedsnr" v="177814" />
	</node>
	<node lat="60.791955556616145" lon="4.6678305542813225" id="-61631">
		<tag k="name" v="Grøna Mågøyna" />
		<tag k="place" v="islet" />
		<tag k="ssr:stedsnr" v="189592" />
	</node>
	<node lat="60.774552774259874" lon="4.696283340736678" id="-61632">
		<tag k="name" v="Bruvågen" />
		<tag k="natural" v="bay" />
		<tag k="ssr:stedsnr" v="189598" />
	</node>
	<node lat="60.75990833721591" lon="4.7012555517424275" id="-61633">
		<tag k="name" v="Havreboen" />
		<tag k="natural" v="shoal" />
		<tag k="place" v="locality" />
		<tag k="ssr:stedsnr" v="206761" />
	</node>
	<node lat="60.80884721852575" lon="4.670147225676523" id="-61635">
		<tag k="name" v="Høgeboen" />
		<tag k="natural" v="shoal" />
		<tag k="place" v="locality" />
		<tag k="ssr:stedsnr" v="207812" />
	</node>
	<node lat="60.79155555331609" lon="4.698452776558927" id="-61636">
		<tag k="name" v="Lepsøyna" />
		<tag k="place" v="island" />
		<tag k="ssr:stedsnr" v="207822" />
	</node>
	<node lat="60.78633055428669" lon="4.71873888498146" id="-61637">
		<tag k="name" v="Siglingeneset" />
		<tag k="natural" v="cape" />
		<tag k="ssr:stedsnr" v="218069" />
	</node>
	<node lat="60.76066388977648" lon="4.717138882207129" id="-61638">
		<tag k="name" v="Alterhaugen" />
		<tag k="natural" v="hill" />
		<tag k="place" v="locality" />
		<tag k="ssr:stedsnr" v="218070" />
	</node>
	<node lat="60.794155556062854" lon="4.672355551561244" id="-61639">
		<tag k="name" v="Nordra Eidet" />
		<tag k="place" v="locality" />
		<tag k="ssr:stedsnr" v="218071" />
	</node>
	<node lat="60.77861667086475" lon="4.709536117180894" id="-61640">
		<tag k="name" v="Husavågen" />
		<tag k="natural" v="bay" />
		<tag k="ssr:stedsnr" v="219021" />
	</node>
	<node lat="60.75496463535265" lon="4.717914943610871" id="-61641">
		<tag k="name" v="Sekkjedalstjørna" />
		<tag k="natural" v="water" />
		<tag k="ssr:stedsnr" v="219032" />
	</node>
	<node lat="60.76520555851979" lon="4.715322227725077" id="-61642">
		<tag k="name" v="Sjonsihøyen" />
		<tag k="natural" v="hill" />
		<tag k="place" v="locality" />
		<tag k="ssr:stedsnr" v="219118" />
	</node>
	<node lat="60.76246044264065" lon="4.7361286619980545" id="-61643">
		<tag k="name" v="Blåbærholmtjørna" />
		<tag k="natural" v="water" />
		<tag k="ssr:stedsnr" v="219121" />
	</node>
	<node lat="60.776286109351574" lon="4.671772218945769" id="-61644">
		<tag k="fixme" v="consider seamark:type=rock or natural=shoal" />
		<tag k="name" v="Fiskholmeskjeret" />
		<tag k="place" v="islet" />
		<tag k="ssr:stedsnr" v="280082" />
	</node>
	<node lat="60.78836666467509" lon="4.674369438553282" id="-61645">
		<tag k="name" v="Sandholmeklubben" />
		<tag k="place" v="islet" />
		<tag k="ssr:stedsnr" v="280083" />
	</node>
	<node lat="60.84456388697441" lon="4.649663891123656" id="-61646">
		<tag k="fixme" v="consider seamark:type=rock or natural=shoal" />
		<tag k="name" v="Skotten" />
		<tag k="place" v="islet" />
		<tag k="ssr:stedsnr" v="298779" />
	</node>
	<node lat="60.786869443353645" lon="4.651594435610429" id="-61647">
		<tag k="name" v="Mågøyskallen" />
		<tag k="natural" v="shoal" />
		<tag k="place" v="locality" />
		<tag k="ssr:stedsnr" v="310640" />
	</node>
	<node lat="60.78284721860668" lon="4.673330550251462" id="-61650">
		<tag k="name" v="Sandholmosen" />
		<tag k="natural" v="strait" />
		<tag k="ssr:stedsnr" v="310645" />
	</node>
	<node lat="60.77720277643565" lon="4.671188893368378" id="-61651">
		<tag k="name" v="Storeflua" />
		<tag k="natural" v="shoal" />
		<tag k="place" v="locality" />
		<tag k="ssr:stedsnr" v="328830" />
	</node>
	<node lat="60.778752776871" lon="4.691077781033064" id="-61652">
		<tag k="name" v="Nordre Vidnappen" />
		<tag k="natural" v="cape" />
		<tag k="ssr:stedsnr" v="328834" />
	</node>
	<node lat="60.768963892337624" lon="4.717541660913246" id="-61653">
		<tag k="name" v="Storevasshøyen" />
		<tag k="natural" v="hill" />
		<tag k="place" v="locality" />
		<tag k="ssr:stedsnr" v="339086" />
	</node>
	<node lat="60.76146430389832" lon="4.7095917570423635" id="-61654">
		<tag k="name" v="Vassviketjørna" />
		<tag k="natural" v="water" />
		<tag k="ssr:stedsnr" v="340080" />
	</node>
	<node lat="60.78733611224512" lon="4.6803583285482" id="-61655">
		<tag k="fixme" v="consider seamark:type=rock or natural=shoal" />
		<tag k="name" v="Flatholmeskjeret" />
		<tag k="place" v="islet" />
		<tag k="ssr:stedsnr" v="340091" />
	</node>
	<node lat="60.783730551196285" lon="4.705719441104761" id="-61656">
		<tag k="name" v="Dansevågen" />
		<tag k="natural" v="bay" />
		<tag k="ssr:stedsnr" v="340126" />
	</node>
	<node lat="60.80265277508369" lon="4.680205558472252" id="-61657">
		<tag k="fixme" v="consider seamark:type=rock or natural=shoal" />
		<tag k="name" v="Håfluskjera" />
		<tag k="place" v="islet" />
		<tag k="ssr:stedsnr" v="357132" />
	</node>
	<node lat="60.84353333788838" lon="4.646966673915434" id="-61658">
		<tag k="fixme" v="consider seamark:type=rock or natural=shoal" />
		<tag k="name" v="Utrorskjeret" />
		<tag k="place" v="islet" />
		<tag k="ssr:stedsnr" v="359827" />
	</node>
	<node lat="60.821863887056914" lon="4.661719441317986" id="-61659">
		<tag k="name" v="Burøyna" />
		<tag k="place" v="island" />
		<tag k="ssr:stedsnr" v="370752" />
	</node>
	<node lat="60.81365000003707" lon="4.663772221830042" id="-61660">
		<tag k="name" v="Gjøklakken" />
		<tag k="natural" v="shoal" />
		<tag k="place" v="locality" />
		<tag k="ssr:stedsnr" v="370637" />
	</node>
	<node lat="60.80114999615017" lon="4.667447215084351" id="-61661">
		<tag k="fixme" v="consider seamark:type=rock or natural=shoal" />
		<tag k="name" v="Store Geitungen" />
		<tag k="place" v="islet" />
		<tag k="ssr:stedsnr" v="370639" />
	</node>
	<node lat="60.84491388529323" lon="4.641172226785774" id="-61662">
		<tag k="fixme" v="consider seamark:type=rock or natural=shoal" />
		<tag k="name" v="Dubleskjeret" />
		<tag k="place" v="islet" />
		<tag k="ssr:stedsnr" v="371744" />
	</node>
	<node lat="60.76786667018062" lon="4.6865805547845065" id="-61663">
		<tag k="name" v="Islendingane" />
		<tag k="place" v="islet" />
		<tag k="ssr:stedsnr" v="371636" />
	</node>
	<node lat="60.77896941454911" lon="4.713723665903478" id="-61665">
		<tag k="name" v="Husa" />
		<tag k="place" v="farm" />
		<tag k="ssr:stedsnr" v="384114" />
	</node>
	<node lat="60.77972222266577" lon="4.71692222910382" id="-61666">
		<tag k="name" v="Kopper" />
		<tag k="place" v="farm" />
		<tag k="ssr:stedsnr" v="384117" />
	</node>
	<node lat="60.78894999698724" lon="4.675763896931883" id="-61667">
		<tag k="fixme" v="consider seamark:type=rock or natural=shoal" />
		<tag k="name" v="Lyngholmeskjeret" />
		<tag k="place" v="islet" />
		<tag k="ssr:stedsnr" v="400075" />
	</node>
	<node lat="60.821311114644864" lon="4.658222219071359" id="-61668">
		<tag k="name" v="Lyngholmen" />
		<tag k="place" v="islet" />
		<tag k="ssr:stedsnr" v="420856" />
	</node>
	<node lat="60.79208055355211" lon="4.659238884534752" id="-61669">
		<tag k="fixme" v="consider seamark:type=rock or natural=shoal" />
		<tag k="name" v="Mågøyskjera" />
		<tag k="place" v="islet" />
		<tag k="ssr:stedsnr" v="431656" />
	</node>
	<node lat="60.82181111347095" lon="4.649758341869562" id="-61670">
		<tag k="name" v="Ljøsøyskjeret" />
		<tag k="place" v="islet" />
		<tag k="ssr:stedsnr" v="431760" />
	</node>
	<node lat="60.83840113023984" lon="4.653324067065024" id="-61671">
		<tag k="name" v="Utrorboane" />
		<tag k="natural" v="shoal" />
		<tag k="place" v="locality" />
		<tag k="ssr:stedsnr" v="431763" />
	</node>
	<node lat="60.83243055992063" lon="4.613236117390484" id="-61672">
		<tag k="name" v="Grunnenakken" />
		<tag k="natural" v="shoal" />
		<tag k="place" v="locality" />
		<tag k="ssr:stedsnr" v="431764" />
	</node>
	<node lat="60.77779722294666" lon="4.686019442183041" id="-61673">
		<tag k="fixme" v="consider seamark:type=rock or natural=shoal" />
		<tag k="name" v="Nordra Leieskjeret" />
		<tag k="place" v="islet" />
		<tag k="ssr:stedsnr" v="432621" />
	</node>
	<node lat="60.76094321576517" lon="4.680459380020933" id="-61674">
		<tag k="name" v="Fedjeboen" />
		<tag k="natural" v="shoal" />
		<tag k="place" v="locality" />
		<tag k="ssr:stedsnr" v="432627" />
	</node>
	<node lat="60.780986113316054" lon="4.716722222298509" id="-61675">
		<tag k="name" v="Kopper" />
		<tag k="place" v="farm" />
		<tag k="ssr:stedsnr" v="445095" />
	</node>
	<node lat="60.780225449329016" lon="4.704034850445051" id="-61676">
		<tag k="fixme" v="consider place=hamlet" />
		<tag k="name" v="Kremmarholmen" />
		<tag k="place" v="farm" />
		<tag k="ssr:stedsnr" v="506094" />
	</node>
	<node lat="60.782072223643894" lon="4.714050002582214" id="-61677">
		<tag k="name" v="Stuberg" />
		<tag k="place" v="farm" />
		<tag k="ssr:stedsnr" v="506099" />
	</node>
	<node lat="60.76449166712094" lon="4.697827769091797" id="-61678">
		<tag k="name" v="Halsen" />
		<tag k="natural" v="cape" />
		<tag k="ssr:stedsnr" v="509730" />
	</node>
	<node lat="60.74896111205952" lon="4.704725003045721" id="-61679">
		<tag k="name" v="Hellesøyflua" />
		<tag k="natural" v="shoal" />
		<tag k="place" v="locality" />
		<tag k="ssr:stedsnr" v="509746" />
	</node>
	<node lat="60.781966663177684" lon="4.692375006641468" id="-61680">
		<tag k="name" v="Hestevågen" />
		<tag k="natural" v="bay" />
		<tag k="ssr:stedsnr" v="510862" />
	</node>
	<node lat="60.84303611525727" lon="4.651088890021827" id="-61681">
		<tag k="name" v="Holmengrå" />
		<tag k="place" v="islet" />
		<tag k="ssr:stedsnr" v="511362" />
	</node>
	<node lat="60.77637777931773" lon="4.711811119221228" id="-61682">
		<tag k="name" v="Bonholmen" />
		<tag k="place" v="islet" />
		<tag k="ssr:stedsnr" v="522089" />
	</node>
	<node lat="60.771561110694435" lon="4.739713896575274" id="-61683">
		<tag k="name" v="Terneneset" />
		<tag k="natural" v="cape" />
		<tag k="ssr:stedsnr" v="522096" />
	</node>
	<node lat="60.80797408019114" lon="4.655658106885646" id="-61684">
		<tag k="fixme" v="consider seamark:type=rock or natural=shoal" />
		<tag k="name" v="Ribbeskjera" />
		<tag k="place" v="islet" />
		<tag k="ssr:stedsnr" v="552676" />
	</node>
	<node lat="60.80201666413237" lon="4.681708327523378" id="-61685">
		<tag k="fixme" v="consider seamark:type=rock or natural=shoal" />
		<tag k="name" v="Stora Håfluskjeret" />
		<tag k="place" v="islet" />
		<tag k="ssr:stedsnr" v="552677" />
	</node>
	<node lat="60.78693611334304" lon="4.690325001993663" id="-61686">
		<tag k="name" v="Skarvøyna" />
		<tag k="place" v="islet" />
		<tag k="ssr:stedsnr" v="552683" />
	</node>
	<node lat="60.776730556937025" lon="4.688333331946077" id="-61687">
		<tag k="fixme" v="consider seamark:type=rock or natural=shoal" />
		<tag k="name" v="Søra Leieskjeret" />
		<tag k="place" v="islet" />
		<tag k="ssr:stedsnr" v="552684" />
	</node>
	<node lat="60.76837499641288" lon="4.672619436924301" id="-61688">
		<tag k="name" v="Suleflua" />
		<tag k="natural" v="shoal" />
		<tag k="place" v="locality" />
		<tag k="ssr:stedsnr" v="553655" />
	</node>
	<node lat="60.7597249970897" lon="4.708205552989555" id="-61689">
		<tag k="name" v="Vassvika" />
		<tag k="natural" v="bay" />
		<tag k="ssr:stedsnr" v="553660" />
	</node>
	<node lat="60.777736107275395" lon="4.737524992798334" id="-61690">
		<tag k="name" v="Midt-Tangen" />
		<tag k="place" v="farm" />
		<tag k="ssr:stedsnr" v="566077" />
	</node>
	<node lat="60.782325001594394" lon="4.701536103626368" id="-61691">
		<tag k="name" v="Sulen" />
		<tag k="place" v="farm" />
		<tag k="ssr:stedsnr" v="583071" />
	</node>
	<node lat="60.7997000041232" lon="4.679572215684989" id="-61692">
		<tag k="name" v="Kjøholmen" />
		<tag k="place" v="islet" />
		<tag k="ssr:stedsnr" v="598838" />
	</node>
	<node lat="60.80504999934697" lon="4.647999998867845" id="-61693">
		<tag k="name" v="Revnakken" />
		<tag k="natural" v="shoal" />
		<tag k="place" v="locality" />
		<tag k="ssr:stedsnr" v="613621" />
	</node>
	<node lat="60.79800555227197" lon="4.69680277564425" id="-61694">
		<tag k="name" v="Nordøyna" />
		<tag k="place" v="islet" />
		<tag k="ssr:stedsnr" v="613625" />
	</node>
	<node lat="60.828299995905574" lon="4.638633327283182" id="-61695">
		<tag k="name" v="Stora Frilsøyna" />
		<tag k="place" v="island" />
		<tag k="ssr:stedsnr" v="613736" />
	</node>
	<node lat="60.78166111030679" lon="4.71496667395773" id="-61696">
		<tag k="name" v="Blåstokken" />
		<tag k="natural" v="hill" />
		<tag k="place" v="locality" />
		<tag k="ssr:stedsnr" v="627082" />
	</node>
	<node lat="60.7833254710721" lon="4.716641792511046" id="-61697">
		<tag k="name" v="Børhaugen" />
		<tag k="place" v="farm" />
		<tag k="ssr:stedsnr" v="627093" />
	</node>
	<node lat="60.772811108425984" lon="4.741811105331878" id="-61698">
		<tag k="name" v="Hjeltevardneset" />
		<tag k="natural" v="cape" />
		<tag k="ssr:stedsnr" v="631774" />
	</node>
	<node lat="60.79528611121608" lon="4.701088885905516" id="-61699">
		<tag k="name" v="Grisholmen" />
		<tag k="place" v="islet" />
		<tag k="ssr:stedsnr" v="631841" />
	</node>
	<node lat="60.79275555201132" lon="4.702972226256442" id="-61700">
		<tag k="name" v="Hellsøyna" />
		<tag k="place" v="island" />
		<tag k="ssr:stedsnr" v="631842" />
	</node>
	<node lat="60.789199998640875" lon="4.680474997788445" id="-61701">
		<tag k="name" v="Lyngholmane" />
		<tag k="place" v="islet" />
		<tag k="ssr:stedsnr" v="631845" />
	</node>
	<node lat="60.77757499980846" lon="4.691383327291993" id="-61702">
		<tag k="name" v="Vidnappsvika" />
		<tag k="natural" v="bay" />
		<tag k="ssr:stedsnr" v="642001" />
	</node>
	<node lat="60.78302222324568" lon="4.7318555590199844" id="-61703">
		<tag k="name" v="Stongevågen" />
		<tag k="natural" v="bay" />
		<tag k="ssr:stedsnr" v="643133" />
	</node>
	<node lat="60.75991110736104" lon="4.705813895469247" id="-61704">
		<tag k="name" v="Vassvikskjeret" />
		<tag k="place" v="islet" />
		<tag k="ssr:stedsnr" v="723845" />
	</node>
	<node lat="60.77435000171783" lon="4.674491667204653" id="-61705">
		<tag k="name" v="Skjeljeflunakken" />
		<tag k="natural" v="shoal" />
		<tag k="place" v="locality" />
		<tag k="ssr:stedsnr" v="735634" />
	</node>
	<node lat="60.78247222620897" lon="4.720863893620854" id="-61706">
		<tag k="name" v="Nedst-Tangen" />
		<tag k="place" v="farm" />
		<tag k="ssr:stedsnr" v="748088" />
	</node>
	<node lat="60.75384999922315" lon="4.718327774959634" id="-61707">
		<tag k="name" v="Fjellheim" />
		<tag k="place" v="farm" />
		<tag k="ssr:stedsnr" v="749057" />
	</node>
	<node lat="60.74489444023458" lon="4.658061109114308" id="-61708">
		<tag k="name" v="Grunneskallen" />
		<tag k="natural" v="shoal" />
		<tag k="place" v="locality" />
		<tag k="ssr:stedsnr" v="752229" />
	</node>
	<node lat="60.752841668159945" lon="4.698436119748615" id="-61709">
		<tag k="name" v="Nordre Hellesøyskallen" />
		<tag k="natural" v="shoal" />
		<tag k="place" v="locality" />
		<tag k="ssr:stedsnr" v="752736" />
	</node>
	<node lat="60.80606388894191" lon="4.665022226173798" id="-61710">
		<tag k="name" v="Søra Fallet" />
		<tag k="natural" v="shoal" />
		<tag k="place" v="locality" />
		<tag k="ssr:stedsnr" v="753800" />
	</node>
	<node lat="60.77849166446564" lon="4.681330554541668" id="-61711">
		<tag k="fixme" v="consider seamark:type=rock or natural=shoal" />
		<tag k="name" v="Argen" />
		<tag k="place" v="islet" />
		<tag k="ssr:stedsnr" v="760729" />
	</node>
	<node lat="60.78992221843915" lon="4.691138891100091" id="-61712">
		<tag k="name" v="Nordra Karijelto" />
		<tag k="place" v="islet" />
		<tag k="ssr:stedsnr" v="764073" />
	</node>
	<node lat="60.80062777927628" lon="4.689355546907705" id="-61713">
		<tag k="fixme" v="consider seamark:type=rock or natural=shoal" />
		<tag k="name" v="Teieskjeret" />
		<tag k="place" v="islet" />
		<tag k="ssr:stedsnr" v="765036" />
	</node>
	<node lat="60.79051944669313" lon="4.70332778014981" id="-61714">
		<tag k="name" v="Moldøyholmen" />
		<tag k="place" v="islet" />
		<tag k="ssr:stedsnr" v="765113" />
	</node>
	<node lat="60.757941670708135" lon="4.744116666660953" id="-61715">
		<tag k="fixme" v="consider seamark:type=rock or natural=shoal" />
		<tag k="name" v="Mortevikskjeret" />
		<tag k="place" v="islet" />
		<tag k="ssr:stedsnr" v="784814" />
	</node>
	<node lat="60.81820833172064" lon="4.647374997216208" id="-61716">
		<tag k="name" v="Fostro" />
		<tag k="natural" v="shoal" />
		<tag k="place" v="locality" />
		<tag k="ssr:stedsnr" v="795656" />
	</node>
	<node lat="60.8239277824597" lon="4.664216674021159" id="-61717">
		<tag k="name" v="Hovden" />
		<tag k="place" v="islet" />
		<tag k="ssr:stedsnr" v="795749" />
	</node>
	<node lat="60.766226347664244" lon="4.721179946812916" id="-61718">
		<tag k="name" v="Brurevatna" />
		<tag k="natural" v="water" />
		<tag k="ssr:stedsnr" v="797231" />
		<tag k="water" v="lake" />
	</node>
	<node lat="60.76108055499779" lon="4.7054916687933295" id="-61719">
		<tag k="name" v="Løynevågen" />
		<tag k="natural" v="bay" />
		<tag k="ssr:stedsnr" v="813761" />
	</node>
	<node lat="60.80742222027639" lon="4.662261105315013" id="-61720">
		<tag k="name" v="Nordra Fallet" />
		<tag k="natural" v="shoal" />
		<tag k="place" v="locality" />
		<tag k="ssr:stedsnr" v="813815" />
	</node>
	<node lat="60.794577780829485" lon="4.703666671559127" id="-61721">
		<tag k="name" v="Grisholmsundet" />
		<tag k="natural" v="strait" />
		<tag k="ssr:stedsnr" v="813817" />
	</node>
	<node lat="60.79645833300007" lon="4.647113887689506" id="-61722">
		<tag k="name" v="Klovnakkene" />
		<tag k="natural" v="shoal" />
		<tag k="place" v="locality" />
		<tag k="ssr:stedsnr" v="814375" />
	</node>
	<node lat="60.78853888659503" lon="4.694802777238253" id="-61723">
		<tag k="name" v="Stora Karijelto" />
		<tag k="place" v="islet" />
		<tag k="ssr:stedsnr" v="825050" />
	</node>
	<node lat="60.78844999793653" lon="4.666702773011734" id="-61724">
		<tag k="name" v="Mågøyosen" />
		<tag k="natural" v="strait" />
		<tag k="ssr:stedsnr" v="826032" />
	</node>
	<node lat="60.789594440879085" lon="4.68875556110247" id="-61725">
		<tag k="name" v="Klubben" />
		<tag k="place" v="islet" />
		<tag k="ssr:stedsnr" v="826034" />
	</node>
	<node lat="60.758741668449474" lon="4.743808334596102" id="-61726">
		<tag k="name" v="Mortevika" />
		<tag k="natural" v="bay" />
		<tag k="ssr:stedsnr" v="826148" />
	</node>
	<node lat="60.777341942883865" lon="4.729301024004662" id="-61727">
		<tag k="name" v="Nedsta Vassivarvatnet" />
		<tag k="natural" v="water" />
		<tag k="ssr:stedsnr" v="826150" />
		<tag k="water" v="lake" />
	</node>
	<node lat="60.801586115498466" lon="4.63982500746077" id="-61728">
		<tag k="name" v="Vassvikeskallen" />
		<tag k="natural" v="shoal" />
		<tag k="place" v="locality" />
		<tag k="ssr:stedsnr" v="856650" />
	</node>
	<node lat="60.780938885017754" lon="4.67436944234652" id="-61729">
		<tag k="name" v="Lisle Fiskholmen" />
		<tag k="place" v="islet" />
		<tag k="ssr:stedsnr" v="856653" />
	</node>
	<node lat="60.84131388892179" lon="4.611813889593361" id="-61730">
		<tag k="name" v="Grunnefjellet" />
		<tag k="natural" v="shoal" />
		<tag k="place" v="locality" />
		<tag k="ssr:stedsnr" v="856760" />
	</node>
	<node lat="60.77020000176169" lon="4.724191666324909" id="-61731">
		<tag k="name" v="Storevatnet" />
		<tag k="natural" v="water" />
		<tag k="ssr:stedsnr" v="858238" />
	</node>
	<node lat="60.78100277472876" lon="4.712938885458332" id="-61732">
		<tag k="name" v="Eide" />
		<tag k="place" v="farm" />
		<tag k="ssr:stedsnr" v="870099" />
	</node>
	<node lat="60.780458330738455" lon="4.720505555480453" id="-61733">
		<tag k="name" v="Kopper" />
		<tag k="place" v="farm" />
		<tag k="ssr:stedsnr" v="870100" />
	</node>
	<node lat="60.757144445674555" lon="4.743891662848749" id="-61734">
		<tag k="name" v="Tareflua" />
		<tag k="natural" v="shoal" />
		<tag k="place" v="locality" />
		<tag k="ssr:stedsnr" v="874780" />
	</node>
	<node lat="60.82955832933901" lon="4.643049994186504" id="-61735">
		<tag k="name" v="Frilsøysundet" />
		<tag k="natural" v="strait" />
		<tag k="ssr:stedsnr" v="875077" />
	</node>
	<node lat="60.75040833760214" lon="4.708427775149253" id="-61736">
		<tag k="fixme" v="consider seamark:type=rock or natural=shoal" />
		<tag k="name" v="Teistenakken" />
		<tag k="place" v="islet" />
		<tag k="ssr:stedsnr" v="887035" />
	</node>
	<node lat="60.77812500303587" lon="4.686363896190025" id="-61737">
		<tag k="fixme" v="consider seamark:type=rock or natural=shoal" />
		<tag k="name" v="Nordra Liaskjeret" />
		<tag k="place" v="islet" />
		<tag k="ssr:stedsnr" v="887081" />
	</node>
	<node lat="60.79717499643502" lon="4.689727778996113" id="-61738">
		<tag k="name" v="Rognholmen" />
		<tag k="place" v="islet" />
		<tag k="ssr:stedsnr" v="887083" />
	</node>
	<node lat="60.79033333316215" lon="4.705927778628325" id="-61739">
		<tag k="fixme" v="consider seamark:type=rock or natural=shoal" />
		<tag k="name" v="Ringeskjeret" />
		<tag k="place" v="islet" />
		<tag k="ssr:stedsnr" v="887084" />
	</node>
	<node lat="60.77499722585959" lon="4.708536105382215" id="-61740">
		<tag k="name" v="Lynghøyen" />
		<tag k="natural" v="hill" />
		<tag k="place" v="locality" />
		<tag k="ssr:stedsnr" v="946065" />
	</node>
	<node lat="60.770936111209984" lon="4.706575005405793" id="-61741">
		<tag k="fixme" v="consider natural=peak for the most distinct mountains in the district" />
		<tag k="name" v="Såta" />
		<tag k="natural" v="hill" />
		<tag k="place" v="locality" />
		<tag k="ssr:stedsnr" v="947022" />
	</node>
	<node lat="60.78001388503004" lon="4.691444449416842" id="-61742">
		<tag k="name" v="Sildevika" />
		<tag k="natural" v="bay" />
		<tag k="ssr:stedsnr" v="947104" />
	</node>
	<node lat="60.76888055361298" lon="4.724519440441337" id="-61743">
		<tag k="name" v="Skusle" />
		<tag k="place" v="locality" />
		<tag k="ssr:stedsnr" v="947105" />
	</node>
	<node lat="60.771061113683004" lon="4.731155560879008" id="-61744">
		<tag k="name" v="Rekkingedalen" />
		<tag k="natural" v="valley" />
		<tag k="place" v="locality" />
		<tag k="ssr:stedsnr" v="947106" />
	</node>
	<node lat="60.783119447806975" lon="4.68145000549177" id="-61745">
		<tag k="name" v="Småklovningane" />
		<tag k="place" v="islet" />
		<tag k="ssr:stedsnr" v="947109" />
	</node>
	<node lat="60.764086110895356" lon="4.745027779419081" id="-61746">
		<tag k="name" v="Langøybukta" />
		<tag k="natural" v="bay" />
		<tag k="ssr:stedsnr" v="947117" />
	</node>
	<node lat="60.75208333367618" lon="4.710683329288888" id="-61747">
		<tag k="name" v="Hellisøy" />
		<tag k="place" v="locality" />
		<tag k="ssr:stedsnr" v="961271" />
	</node>
	<node lat="60.82198888585028" lon="4.654466662031218" id="-61748">
		<tag k="name" v="Ljøsøyna" />
		<tag k="place" v="islet" />
		<tag k="ssr:stedsnr" v="966861" />
	</node>
	<node lat="60.77834772426237" lon="4.695277143753505" id="-61769">
		<tag k="name" v="Vidnappen" />
		<tag k="natural" v="cape" />
		<tag k="ssr:stedsnr" v="1072118" />
	</node>
	<node lat="60.76676110913458" lon="4.687305244727582" id="-61770">
		<tag k="name" v="Søre Islendingen" />
		<tag k="place" v="islet" />
		<tag k="ssr:stedsnr" v="1072119" />
	</node>
	<node lat="60.78070646712883" lon="4.709064658442616" id="-61771">
		<tag k="name" v="Sørvågen" />
		<tag k="natural" v="bay" />
		<tag k="ssr:stedsnr" v="1072124" />
	</node>
	<node lat="60.81277585097302" lon="4.648633019463376" id="-61773">
		<tag k="name" v="Revet" />
		<tag k="natural" v="shoal" />
		<tag k="place" v="locality" />
		<tag k="ssr:stedsnr" v="1072131" />
	</node>
	<node lat="60.828379736924795" lon="4.643037782211698" id="-61774">
		<tag k="name" v="Frilsøyane" />
		<tag k="place" v="island" />
		<tag k="ssr:stedsnr" v="1072133" />
	</node>
</osm>
