<?xml version="1.0" encoding="UTF-8"?>
<osm generator="osmapis" version="0.6">
	<node id="-475136" lat="60.4275833316" lon="5.01741389366">
		<tag k="name" v="Gaupo" />
		<tag k="place" v="islet" />
		<tag k="ssr:stedsnr" v="187188" />
	</node>
	<node id="-475135" lat="60.3629638931" lon="4.95129722041">
		<tag k="fixme" v="consider seamark:type=rock or natural=shoal" />
		<tag k="name" v="Skarvaskjeret" />
		<tag k="place" v="islet" />
		<tag k="ssr:stedsnr" v="179617" />
	</node>
	<node id="-475134" lat="60.3877944459" lon="5.10019444983">
		<tag k="name" v="Bysundet" />
		<tag k="natural" v="strait" />
		<tag k="ssr:stedsnr" v="167963" />
	</node>
	<node id="-475133" lat="60.3749111073" lon="5.03146389628">
		<tag k="name" v="Smalneset" />
		<tag k="natural" v="cape" />
		<tag k="ssr:stedsnr" v="167948" />
	</node>
	<node id="-475130" lat="60.404638888" lon="5.10098333206">
		<tag k="name" v="Litlemidtholmen" />
		<tag k="place" v="locality" />
		<tag k="seamark:type" v="rock" />
		<tag k="ssr:stedsnr" v="167919" />
	</node>
	<node id="-475127" lat="60.4035515733" lon="5.10347038025">
		<tag k="name" v="Storasundsholmen" />
		<tag k="place" v="locality" />
		<tag k="seamark:type" v="rock" />
		<tag k="ssr:stedsnr" v="167914" />
	</node>
	<node id="-475123" lat="60.338738889" lon="5.12064722175">
		<tag k="name" v="Starhaugvika" />
		<tag k="natural" v="bay" />
		<tag k="ssr:stedsnr" v="167664" />
	</node>
	<node id="-475122" lat="60.3950861106" lon="5.06510277436">
		<tag k="name" v="Leirvika" />
		<tag k="natural" v="bay" />
		<tag k="ssr:stedsnr" v="167642" />
	</node>
	<node id="-475121" lat="60.3997722192" lon="5.07545556416">
		<tag k="name" v="Kvernavika" />
		<tag k="natural" v="bay" />
		<tag k="ssr:stedsnr" v="167640" />
	</node>
	<node id="-475120" lat="60.3587944403" lon="5.10993054915">
		<tag k="name" v="Straumskylleren" />
		<tag k="natural" v="bay" />
		<tag k="ssr:stedsnr" v="167616" />
	</node>
	<node id="-475116" lat="60.3915527781" lon="4.97952777712">
		<tag k="name" v="Nordra Sundet" />
		<tag k="natural" v="strait" />
		<tag k="ssr:stedsnr" v="167546" />
	</node>
	<node id="-475115" lat="60.3966250038" lon="4.93633610325">
		<tag k="name" v="Svekksteinosen" />
		<tag k="natural" v="strait" />
		<tag k="ssr:stedsnr" v="167537" />
	</node>
	<node id="-475113" lat="60.4068833349" lon="4.90355277845">
		<tag k="name" v="Oddasundet" />
		<tag k="natural" v="strait" />
		<tag k="ssr:stedsnr" v="167514" />
	</node>
	<node id="-475112" lat="60.3752499958" lon="4.93510277986">
		<tag k="name" v="Ånesosen" />
		<tag k="natural" v="strait" />
		<tag k="ssr:stedsnr" v="167497" />
	</node>
	<node id="-475111" lat="60.3856999957" lon="4.93085833216">
		<tag k="fixme" v="consider seamark:type=rock or natural=shoal" />
		<tag k="name" v="Nordre Høgøyskjeret" />
		<tag k="place" v="islet" />
		<tag k="ssr:stedsnr" v="167489" />
	</node>
	<node id="-475109" lat="60.3275472196" lon="4.98313889223">
		<tag k="name" v="Raudsidosen" />
		<tag k="natural" v="strait" />
		<tag k="ssr:stedsnr" v="167399" />
	</node>
	<node id="-475108" lat="60.3360194434" lon="4.9882694379">
		<tag k="name" v="Skålvikosen" />
		<tag k="natural" v="strait" />
		<tag k="ssr:stedsnr" v="167398" />
	</node>
	<node id="-475107" lat="60.3285444485" lon="4.97982499211">
		<tag k="name" v="Søra Storvika" />
		<tag k="natural" v="bay" />
		<tag k="ssr:stedsnr" v="167386" />
	</node>
	<node id="-475104" lat="60.3094527733" lon="5.16175832822">
		<tag k="name" v="Sørvika" />
		<tag k="natural" v="bay" />
		<tag k="ssr:stedsnr" v="167361" />
	</node>
	<node id="-475102" lat="60.4505444434" lon="4.90300833481">
		<tag k="name" v="Knappasundet" />
		<tag k="natural" v="strait" />
		<tag k="ssr:stedsnr" v="167309" />
	</node>
	<node id="-475100" lat="60.3850916656" lon="5.06043888555">
		<tag k="name" v="Buneset" />
		<tag k="natural" v="cape" />
		<tag k="ssr:stedsnr" v="167275" />
	</node>
	<node id="-475098" lat="60.4348555566" lon="4.9208333267">
		<tag k="name" v="Raunesundet" />
		<tag k="natural" v="strait" />
		<tag k="ssr:stedsnr" v="167258" />
	</node>
	<node id="-475097" lat="60.3356055559" lon="5.18134722657">
		<tag k="name" v="Revvika" />
		<tag k="natural" v="bay" />
		<tag k="ssr:stedsnr" v="166997" />
	</node>
	<node id="-475093" lat="60.3204777764" lon="5.00156666624">
		<tag k="name" v="Skogsosen" />
		<tag k="natural" v="strait" />
		<tag k="ssr:stedsnr" v="166824" />
	</node>
	<node id="-475092" lat="60.3048333355" lon="4.96966666358">
		<tag k="name" v="Syltøyosen" />
		<tag k="natural" v="strait" />
		<tag k="ssr:stedsnr" v="166821" />
	</node>
	<node id="-475091" lat="60.3065805589" lon="4.99049444698">
		<tag k="name" v="Skotvika" />
		<tag k="natural" v="bay" />
		<tag k="ssr:stedsnr" v="166817" />
	</node>
	<node id="-475090" lat="60.3203166677" lon="4.94548055745">
		<tag k="fixme" v="consider seamark:type=rock or natural=shoal" />
		<tag k="name" v="Seiskjeret" />
		<tag k="place" v="islet" />
		<tag k="ssr:stedsnr" v="166815" />
	</node>
	<node id="-475087" lat="60.31033333" lon="4.94274444367">
		<tag k="name" v="Ytsta Havnasundet" />
		<tag k="natural" v="strait" />
		<tag k="ssr:stedsnr" v="166804" />
	</node>
	<node id="-475086" lat="60.312469443" lon="4.935969445">
		<tag k="name" v="Keila" />
		<tag k="natural" v="bay" />
		<tag k="ssr:stedsnr" v="166802" />
	</node>
	<node id="-475085" lat="60.3372166666" lon="5.17723888142">
		<tag k="name" v="Bjorøygavlen" />
		<tag k="natural" v="cape" />
		<tag k="ssr:stedsnr" v="166778" />
	</node>
	<node id="-475084" lat="60.3299111083" lon="5.18696388911">
		<tag k="name" v="Fløsteinssundet" />
		<tag k="natural" v="strait" />
		<tag k="ssr:stedsnr" v="166770" />
	</node>
	<node id="-475083" lat="60.3325250042" lon="5.14101389642">
		<tag k="name" v="Skarvatåna" />
		<tag k="natural" v="cape" />
		<tag k="ssr:stedsnr" v="166760" />
	</node>
	<node id="-475082" lat="60.2939526585" lon="5.04868872465">
		<tag k="fixme" v="consider seamark:type=rock or natural=shoal" />
		<tag k="name" v="Ekreskjeret" />
		<tag k="place" v="islet" />
		<tag k="ssr:stedsnr" v="166732" />
	</node>
	<node id="-475081" lat="60.2942749961" lon="5.04038055406">
		<tag k="name" v="Straumhalsen" />
		<tag k="natural" v="strait" />
		<tag k="ssr:stedsnr" v="166731" />
	</node>
	<node id="-475076" lat="60.3110972244" lon="5.06333889538">
		<tag k="name" v="Mjåneset" />
		<tag k="natural" v="cape" />
		<tag k="ssr:stedsnr" v="166675" />
	</node>
	<node id="-475074" lat="60.4552888919" lon="4.95334165988">
		<tag k="name" v="Svelgen" />
		<tag k="natural" v="strait" />
		<tag k="ssr:stedsnr" v="166645" />
	</node>
	<node id="-475070" lat="60.421224997" lon="5.00105555065">
		<tag k="name" v="Heimavågen" />
		<tag k="natural" v="bay" />
		<tag k="ssr:stedsnr" v="166345" />
	</node>
	<node id="-475065" lat="60.3510166677" lon="4.93893611289">
		<tag k="name" v="Mynteidet" />
		<tag k="place" v="locality" />
		<tag k="ssr:stedsnr" v="166094" />
	</node>
	<node id="-475064" lat="60.3481722186" lon="4.97084445214">
		<tag k="name" v="Porsvika" />
		<tag k="natural" v="bay" />
		<tag k="ssr:stedsnr" v="166078" />
	</node>
	<node id="-475062" lat="60.3981166707" lon="4.96994721398">
		<tag k="name" v="Vardøysundet" />
		<tag k="natural" v="strait" />
		<tag k="ssr:stedsnr" v="146796" />
	</node>
	<node id="-475061" lat="60.3318555519" lon="5.17099723023">
		<tag k="name" v="Katlaflua" />
		<tag k="natural" v="shoal" />
		<tag k="place" v="locality" />
		<tag k="ssr:stedsnr" v="146212" />
	</node>
	<node id="-475060" lat="60.3204638898" lon="5.15004166728">
		<tag k="name" v="Håkjerflua" />
		<tag k="natural" v="shoal" />
		<tag k="place" v="locality" />
		<tag k="ssr:stedsnr" v="146207" />
	</node>
	<node id="-475059" lat="60.3274805527" lon="4.95667778707">
		<tag k="name" v="Grønavika" />
		<tag k="natural" v="bay" />
		<tag k="ssr:stedsnr" v="145227" />
	</node>
	<node id="-475058" lat="60.3503472187" lon="4.93996388175">
		<tag k="name" v="Nordra Mynteidet" />
		<tag k="place" v="locality" />
		<tag k="ssr:stedsnr" v="145199" />
	</node>
	<node id="-475057" lat="60.3069777818" lon="4.97064721921">
		<tag k="name" v="Ramsskjerholmen" />
		<tag k="place" v="islet" />
		<tag k="ssr:stedsnr" v="145047" />
	</node>
	<node id="-475040" lat="60.3363111107" lon="5.16011665846">
		<tag k="name" v="Kiparholmen" />
		<tag k="place" v="islet" />
		<tag k="ssr:stedsnr" v="127820" />
	</node>
	<node id="-475039" lat="60.3265944447" lon="4.93035277473">
		<tag k="name" v="Vestre Skjenholmen" />
		<tag k="place" v="islet" />
		<tag k="ssr:stedsnr" v="127331" />
	</node>
	<node id="-475038" lat="60.423761108" lon="4.93154166277">
		<tag k="name" v="Hjelmehalsen" />
		<tag k="natural" v="strait" />
		<tag k="ssr:stedsnr" v="127188" />
	</node>
	<node id="-475037" lat="60.42028611" lon="4.92437500284">
		<tag k="name" v="Gullo" />
		<tag k="place" v="island" />
		<tag k="ssr:stedsnr" v="127185" />
	</node>
	<node id="-475036" lat="60.422002883" lon="4.88754994881">
		<tag k="name" v="Hattholmboen" />
		<tag k="natural" v="shoal" />
		<tag k="place" v="locality" />
		<tag k="ssr:stedsnr" v="127180" />
	</node>
	<node id="-475034" lat="60.320861109" lon="5.19059999591">
		<tag k="name" v="Jaktaneset" />
		<tag k="natural" v="cape" />
		<tag k="ssr:stedsnr" v="126746" />
	</node>
	<node id="-475031" lat="60.3753805597" lon="4.93135832476">
		<tag k="name" v="Lambøyna" />
		<tag k="place" v="islet" />
		<tag k="ssr:stedsnr" v="126304" />
	</node>
	<node id="-475029" lat="60.3012377142" lon="5.03950831066">
		<tag k="name" v="Raunholmane" />
		<tag k="place" v="islet" />
		<tag k="ssr:stedsnr" v="126458" />
	</node>
	<node id="-475028" lat="60.3915555537" lon="5.08652778219">
		<tag k="name" v="Ettersundosen" />
		<tag k="natural" v="strait" />
		<tag k="ssr:stedsnr" v="126300" />
	</node>
	<node id="-475027" lat="60.3102861593" lon="4.9448877543">
		<tag k="name" v="Duøyna" />
		<tag k="place" v="islet" />
		<tag k="ssr:stedsnr" v="126288" />
	</node>
	<node id="-475026" lat="60.312680554" lon="4.88320833777">
		<tag k="name" v="Storeboen" />
		<tag k="natural" v="shoal" />
		<tag k="place" v="locality" />
		<tag k="ssr:stedsnr" v="126283" />
	</node>
	<node id="-475025" lat="60.3023888857" lon="4.89555277221">
		<tag k="fixme" v="consider seamark:type=rock or natural=shoal" />
		<tag k="name" v="Flatodden" />
		<tag k="place" v="islet" />
		<tag k="ssr:stedsnr" v="126281" />
	</node>
	<node id="-475023" lat="60.3080777751" lon="4.98442500184">
		<tag k="name" v="Syltøyna" />
		<tag k="place" v="island" />
		<tag k="ssr:stedsnr" v="126260" />
	</node>
	<node id="-475022" lat="60.4399083331" lon="4.90008611194">
		<tag k="name" v="Dydnestakken" />
		<tag k="place" v="islet" />
		<tag k="ssr:stedsnr" v="126137" />
	</node>
	<node id="-475019" lat="60.3401944444" lon="5.13026666136">
		<tag k="name" v="Skjervika" />
		<tag k="natural" v="bay" />
		<tag k="ssr:stedsnr" v="106996" />
	</node>
	<node id="-475018" lat="60.3492361117" lon="5.16312499318">
		<tag k="name" v="Magerøyna" />
		<tag k="place" v="island" />
		<tag k="ssr:stedsnr" v="106994" />
	</node>
	<node id="-475017" lat="60.3239712287" lon="5.18739178787">
		<tag k="name" v="Langaneset" />
		<tag k="natural" v="cape" />
		<tag k="ssr:stedsnr" v="106974" />
	</node>
	<node id="-475016" lat="60.3216527769" lon="5.18744165982">
		<tag k="name" v="Sandvika" />
		<tag k="natural" v="bay" />
		<tag k="ssr:stedsnr" v="106969" />
	</node>
	<node id="-475013" lat="60.371061107" lon="5.09524722313">
		<tag k="name" v="Gangstøholmen" />
		<tag k="place" v="islet" />
		<tag k="ssr:stedsnr" v="106937" />
	</node>
	<node id="-475000" lat="60.3145277739" lon="4.97538888501">
		<tag k="name" v="Oksavikane" />
		<tag k="natural" v="bay" />
		<tag k="ssr:stedsnr" v="106838" />
	</node>
	<node id="-474999" lat="60.3269000019" lon="5.18676111885">
		<tag k="fixme" v="consider seamark:type=rock or natural=shoal" />
		<tag k="name" v="Kuskjera" />
		<tag k="place" v="islet" />
		<tag k="ssr:stedsnr" v="106816" />
	</node>
	<node id="-474997" lat="60.3384555572" lon="5.16282778078">
		<tag k="name" v="Grisholmen" />
		<tag k="place" v="islet" />
		<tag k="ssr:stedsnr" v="106772" />
	</node>
	<node id="-474996" lat="60.3373055592" lon="5.12684445304">
		<tag k="name" v="Hovdenden" />
		<tag k="natural" v="cape" />
		<tag k="ssr:stedsnr" v="106770" />
	</node>
	<node id="-474995" lat="60.2949073784" lon="5.02016759589">
		<tag k="name" v="Kvalholmane" />
		<tag k="place" v="locality" />
		<tag k="seamark:type" v="rock" />
		<tag k="ssr:stedsnr" v="106753" />
	</node>
	<node id="-474994" lat="60.2937388889" lon="5.04543611462">
		<tag k="name" v="Søre Straumen" />
		<tag k="natural" v="strait" />
		<tag k="ssr:stedsnr" v="106746" />
	</node>
	<node id="-474989" lat="60.3045305554" lon="5.0344500043">
		<tag k="name" v="Havnen" />
		<tag k="natural" v="bay" />
		<tag k="ssr:stedsnr" v="106686" />
	</node>
	<node id="-474986" lat="60.4029499995" lon="4.93279443906">
		<tag k="name" v="Havrøyna" />
		<tag k="place" v="island" />
		<tag k="ssr:stedsnr" v="106678" />
	</node>
	<node id="-476137" lat="60.3252777789" lon="5.18916111311">
		<tag k="fixme" v="consider seamark:type=rock or natural=shoal" />
		<tag k="name" v="Ringaskjeret" />
		<tag k="place" v="islet" />
		<tag k="ssr:stedsnr" v="813183" />
	</node>
	<node id="-474983" lat="60.4543388862" lon="4.89756944913">
		<tag k="name" v="Vestgjona" />
		<tag k="natural" v="bay" />
		<tag k="ssr:stedsnr" v="106646" />
	</node>
	<node id="-474980" lat="60.3941388876" lon="5.08055278275">
		<tag k="name" v="Juvika" />
		<tag k="natural" v="bay" />
		<tag k="ssr:stedsnr" v="106594" />
	</node>
	<node id="-474979" lat="60.3951527786" lon="5.11604999167">
		<tag k="name" v="Anglavika" />
		<tag k="natural" v="bay" />
		<tag k="ssr:stedsnr" v="106590" />
	</node>
	<node id="-474974" lat="60.3478083316" lon="5.10496111183">
		<tag k="bay" v="fjord" />
		<tag k="name" v="Bildøypollen" />
		<tag k="natural" v="bay" />
		<tag k="ssr:stedsnr" v="106557" />
	</node>
	<node id="-474970" lat="60.4037694469" lon="4.96193056373">
		<tag k="name" v="Buholmen" />
		<tag k="place" v="islet" />
		<tag k="ssr:stedsnr" v="106492" />
	</node>
	<node id="-474969" lat="60.4046527801" lon="4.91978889131">
		<tag k="name" v="Klenevågen" />
		<tag k="natural" v="bay" />
		<tag k="ssr:stedsnr" v="106476" />
	</node>
	<node id="-474964" lat="60.3345361148" lon="4.92693333023">
		<tag k="name" v="Illnesvika" />
		<tag k="natural" v="bay" />
		<tag k="ssr:stedsnr" v="106426" />
	</node>
	<node id="-474959" lat="60.360202779" lon="4.95849444411">
		<tag k="name" v="Garnholmen" />
		<tag k="place" v="islet" />
		<tag k="ssr:stedsnr" v="106398" />
	</node>
	<node id="-474957" lat="60.3360000012" lon="4.92430000492">
		<tag k="name" v="Trynet" />
		<tag k="natural" v="cape" />
		<tag k="ssr:stedsnr" v="106369" />
	</node>
	<node id="-474955" lat="60.4099166671" lon="4.90988611889">
		<tag k="name" v="Bombholmen" />
		<tag k="place" v="locality" />
		<tag k="seamark:type" v="rock" />
		<tag k="ssr:stedsnr" v="106350" />
	</node>
	<node id="-474952" lat="60.3034722213" lon="5.13334722694">
		<tag k="name" v="Djupevika" />
		<tag k="natural" v="bay" />
		<tag k="ssr:stedsnr" v="106345" />
	</node>
	<node id="-474947" lat="60.4271749961" lon="4.95934443981">
		<tag k="name" v="Furevika" />
		<tag k="natural" v="bay" />
		<tag k="ssr:stedsnr" v="106314" />
	</node>
	<node id="-474946" lat="60.4251555563" lon="4.96503611097">
		<tag k="name" v="Sanden" />
		<tag k="natural" v="bay" />
		<tag k="ssr:stedsnr" v="106312" />
	</node>
	<node id="-474944" lat="60.3597750029" lon="5.09725277567">
		<tag k="name" v="Maggarvika" />
		<tag k="natural" v="bay" />
		<tag k="ssr:stedsnr" v="106269" />
	</node>
	<node id="-474943" lat="60.3443444474" lon="5.15993332561">
		<tag k="name" v="Neset" />
		<tag k="natural" v="cape" />
		<tag k="ssr:stedsnr" v="106264" />
	</node>
	<node id="-474942" lat="60.438769446" lon="4.99043611041">
		<tag k="name" v="Hjeltholmen" />
		<tag k="place" v="locality" />
		<tag k="seamark:type" v="rock" />
		<tag k="ssr:stedsnr" v="106265" />
	</node>
	<node id="-474940" lat="60.4385802433" lon="4.96357332779">
		<tag k="name" v="Misjeneset" />
		<tag k="natural" v="cape" />
		<tag k="ssr:stedsnr" v="106259" />
	</node>
	<node id="-474936" lat="60.3541805565" lon="4.92419166709">
		<tag k="name" v="Maggevika" />
		<tag k="natural" v="bay" />
		<tag k="ssr:stedsnr" v="106094" />
	</node>
	<node id="-474935" lat="60.3461638875" lon="4.94233888971">
		<tag k="name" v="Djupavika" />
		<tag k="natural" v="bay" />
		<tag k="ssr:stedsnr" v="106092" />
	</node>
	<node id="-474934" lat="60.3492611087" lon="4.92039721349">
		<tag k="name" v="Rognkallen" />
		<tag k="natural" v="cape" />
		<tag k="ssr:stedsnr" v="106086" />
	</node>
	<node id="-474931" lat="60.430666667" lon="4.89401389215">
		<tag k="name" v="Osaflua" />
		<tag k="natural" v="shoal" />
		<tag k="place" v="locality" />
		<tag k="ssr:stedsnr" v="86823" />
	</node>
	<node id="-474930" lat="60.3990722238" lon="4.92758054975">
		<tag k="name" v="Ådnholmen" />
		<tag k="place" v="islet" />
		<tag k="ssr:stedsnr" v="86820" />
	</node>
	<node id="-474929" lat="60.3869777776" lon="4.96641945073">
		<tag k="name" v="Skjervika" />
		<tag k="natural" v="bay" />
		<tag k="ssr:stedsnr" v="86809" />
	</node>
	<node id="-474927" lat="60.384305553" lon="4.93037222273">
		<tag k="fixme" v="consider seamark:type=rock or natural=shoal" />
		<tag k="name" v="Nordra Flatskjeret" />
		<tag k="place" v="islet" />
		<tag k="ssr:stedsnr" v="85157" />
	</node>
	<node id="-474920" lat="60.4107861112" lon="4.93270832792">
		<tag k="name" v="Kjeholmen" />
		<tag k="place" v="islet" />
		<tag k="ssr:stedsnr" v="67549" />
	</node>
	<node id="-474918" lat="60.3349916648" lon="5.18940833683">
		<tag k="bay" v="fjord" />
		<tag k="name" v="Vatlestraumen" />
		<tag k="natural" v="bay" />
		<tag k="ssr:stedsnr" v="66798" />
	</node>
	<node id="-474917" lat="60.3192916661" lon="5.15431943686">
		<tag k="name" v="Håkjerholmen" />
		<tag k="place" v="islet" />
		<tag k="ssr:stedsnr" v="66764" />
	</node>
	<node id="-474916" lat="60.3152027783" lon="5.18961666528">
		<tag k="fixme" v="consider seamark:type=rock or natural=shoal" />
		<tag k="name" v="Vikaskjeret" />
		<tag k="place" v="islet" />
		<tag k="ssr:stedsnr" v="66749" />
	</node>
	<node id="-474915" lat="60.3139583321" lon="5.17422500899">
		<tag k="name" v="Bjorøyna" />
		<tag k="place" v="island" />
		<tag k="ssr:stedsnr" v="66748" />
	</node>
	<node id="-474914" lat="60.3628416698" lon="5.09770554761">
		<tag k="name" v="Bildøytangen" />
		<tag k="natural" v="cape" />
		<tag k="ssr:stedsnr" v="66716" />
	</node>
	<node id="-474913" lat="60.3851861075" lon="5.10133056115">
		<tag k="name" v="Nordre Foldnesvågen" />
		<tag k="natural" v="bay" />
		<tag k="ssr:stedsnr" v="66667" />
	</node>
	<node id="-474912" lat="60.3870861146" lon="5.09814166451">
		<tag k="name" v="Røyto" />
		<tag k="place" v="islet" />
		<tag k="ssr:stedsnr" v="66641" />
	</node>
	<node id="-474910" lat="60.4036861784" lon="5.09363482817">
		<tag k="name" v="Store Brattholmen" />
		<tag k="place" v="islet" />
		<tag k="ssr:stedsnr" v="66562" />
	</node>
	<node id="-474909" lat="60.2967160003" lon="5.030487493">
		<tag k="name" v="Nesosen" />
		<tag k="natural" v="bay" />
		<tag k="ssr:stedsnr" v="66422" />
	</node>
	<node id="-474907" lat="60.3593999964" lon="4.9215388919">
		<tag k="name" v="Tjørnøyna" />
		<tag k="place" v="islet" />
		<tag k="ssr:stedsnr" v="66348" />
	</node>
	<node id="-474906" lat="60.4039222223" lon="5.03421110494">
		<tag k="name" v="Nordre Knappavågen" />
		<tag k="natural" v="bay" />
		<tag k="ssr:stedsnr" v="66329" />
	</node>
	<node id="-474905" lat="60.3950777817" lon="4.91314444238">
		<tag k="name" v="Ljøsålen" />
		<tag k="place" v="locality" />
		<tag k="ssr:stedsnr" v="66324" />
	</node>
	<node id="-474904" lat="60.381883334" lon="4.90983889383">
		<tag k="fixme" v="consider seamark:type=rock or natural=shoal" />
		<tag k="name" v="Raudskjeret" />
		<tag k="place" v="islet" />
		<tag k="ssr:stedsnr" v="66317" />
	</node>
	<node id="-474903" lat="60.328816669" lon="4.99108333096">
		<tag k="name" v="Veløyna" />
		<tag k="place" v="islet" />
		<tag k="ssr:stedsnr" v="66312" />
	</node>
	<node id="-474902" lat="60.3121611097" lon="4.95257500815">
		<tag k="name" v="Stora Narøyna" />
		<tag k="place" v="island" />
		<tag k="ssr:stedsnr" v="66307" />
	</node>
	<node id="-474901" lat="60.3101499986" lon="5.00848611508">
		<tag k="name" v="Stangarholmen" />
		<tag k="place" v="islet" />
		<tag k="ssr:stedsnr" v="66287" />
	</node>
	<node id="-474897" lat="60.331225002" lon="4.89911111634">
		<tag k="name" v="Løno" />
		<tag k="place" v="island" />
		<tag k="ssr:stedsnr" v="66248" />
	</node>
	<node id="-474896" lat="60.3333166674" lon="4.88426389495">
		<tag k="name" v="Skimla" />
		<tag k="natural" v="shoal" />
		<tag k="place" v="locality" />
		<tag k="ssr:stedsnr" v="66247" />
	</node>
	<node id="-474892" lat="60.417633333" lon="4.91587500621">
		<tag k="name" v="Risøyna" />
		<tag k="place" v="islet" />
		<tag k="ssr:stedsnr" v="66167" />
	</node>
	<node id="-474891" lat="60.421244935" lon="4.881814167">
		<tag k="name" v="Svartskjerosen" />
		<tag k="natural" v="strait" />
		<tag k="ssr:stedsnr" v="66161" />
	</node>
	<node id="-474890" lat="60.4309777812" lon="4.98387499176">
		<tag k="name" v="Uglepollen" />
		<tag k="natural" v="bay" />
		<tag k="ssr:stedsnr" v="66153" />
	</node>
	<node id="-474889" lat="60.433541666" lon="4.92853610362">
		<tag k="name" v="Litla-Raunøyna" />
		<tag k="place" v="islet" />
		<tag k="ssr:stedsnr" v="66150" />
	</node>
	<node id="-474888" lat="60.4435611085" lon="4.92407499383">
		<tag k="name" v="Kvernavika" />
		<tag k="natural" v="bay" />
		<tag k="ssr:stedsnr" v="66139" />
	</node>
	<node id="-474887" lat="60.4438277745" lon="4.94650000683">
		<tag k="name" v="Litla Vindøyna" />
		<tag k="place" v="islet" />
		<tag k="ssr:stedsnr" v="66136" />
	</node>
	<node id="-474886" lat="60.4346250021" lon="4.88657777542">
		<tag k="fixme" v="consider seamark:type=rock or natural=shoal" />
		<tag k="name" v="Hestholmskjeret" />
		<tag k="place" v="islet" />
		<tag k="ssr:stedsnr" v="66134" />
	</node>
	<node id="-474885" lat="60.4546777763" lon="4.99276389388">
		<tag k="name" v="Hero" />
		<tag k="place" v="islet" />
		<tag k="ssr:stedsnr" v="66132" />
	</node>
	<node id="-474877" lat="60.2821472261" lon="5.09152499461">
		<tag k="name" v="Tellnesvågen" />
		<tag k="natural" v="bay" />
		<tag k="ssr:stedsnr" v="46337" />
	</node>
	<node id="-474875" lat="60.3534972254" lon="5.15791389744">
		<tag k="name" v="Hestvika" />
		<tag k="natural" v="bay" />
		<tag k="ssr:stedsnr" v="45983" />
	</node>
	<node id="-474872" lat="60.3174083343" lon="5.18994444263">
		<tag k="name" v="Skiparvika" />
		<tag k="natural" v="bay" />
		<tag k="ssr:stedsnr" v="45955" />
	</node>
	<node id="-474871" lat="60.4285972231" lon="5.01702499293">
		<tag k="name" v="Gaupesundet" />
		<tag k="natural" v="strait" />
		<tag k="ssr:stedsnr" v="45949" />
	</node>
	<node id="-474867" lat="60.4032870237" lon="5.10730126626">
		<tag k="name" v="Bollholmen" />
		<tag k="place" v="islet" />
		<tag k="ssr:stedsnr" v="45875" />
	</node>
	<node id="-474865" lat="60.3046777783" lon="4.93135277907">
		<tag k="name" v="Eidesholmane" />
		<tag k="place" v="islet" />
		<tag k="ssr:stedsnr" v="45814" />
	</node>
	<node id="-474864" lat="60.303791665" lon="4.98591944017">
		<tag k="fixme" v="consider seamark:type=rock or natural=shoal" />
		<tag k="name" v="Småskjeret" />
		<tag k="place" v="islet" />
		<tag k="ssr:stedsnr" v="45813" />
	</node>
	<node id="-474863" lat="60.3023555586" lon="4.92527499961">
		<tag k="name" v="Skorholmsosen" />
		<tag k="natural" v="strait" />
		<tag k="ssr:stedsnr" v="45798" />
	</node>
	<node id="-474862" lat="60.3303694428" lon="5.18481110256">
		<tag k="fixme" v="consider seamark:type=rock or natural=shoal" />
		<tag k="name" v="Gulaskjeret" />
		<tag k="place" v="islet" />
		<tag k="ssr:stedsnr" v="45795" />
	</node>
	<node id="-474859" lat="60.2827833319" lon="5.0562166606">
		<tag k="name" v="Hildaneset" />
		<tag k="natural" v="cape" />
		<tag k="ssr:stedsnr" v="45739" />
	</node>
	<node id="-474855" lat="60.3035222214" lon="5.06225833965">
		<tag k="name" v="Bjørnavågen" />
		<tag k="natural" v="bay" />
		<tag k="ssr:stedsnr" v="45673" />
	</node>
	<node id="-474854" lat="60.3142956919" lon="5.04186181416">
		<tag k="name" v="Breivika" />
		<tag k="natural" v="bay" />
		<tag k="ssr:stedsnr" v="45664" />
	</node>
	<node id="-474853" lat="60.313172226" lon="5.01114165778">
		<tag k="name" v="Åsvika" />
		<tag k="natural" v="bay" />
		<tag k="ssr:stedsnr" v="45662" />
	</node>
	<node id="-474849" lat="60.4550777801" lon="4.99330555624">
		<tag k="name" v="Hero" />
		<tag k="place" v="islet" />
		<tag k="ssr:stedsnr" v="45626" />
	</node>
	<node id="-474848" lat="60.4564749986" lon="4.91105833066">
		<tag k="name" v="Laksneset" />
		<tag k="natural" v="cape" />
		<tag k="ssr:stedsnr" v="45611" />
	</node>
	<node id="-474845" lat="60.3923611111" lon="5.04436945068">
		<tag k="name" v="Spjeldssundet" />
		<tag k="natural" v="strait" />
		<tag k="ssr:stedsnr" v="45582" />
	</node>
	<node id="-474835" lat="60.4070333347" lon="4.95021944954">
		<tag k="fixme" v="consider seamark:type=rock or natural=shoal" />
		<tag k="name" v="Laksaskjera" />
		<tag k="place" v="islet" />
		<tag k="ssr:stedsnr" v="45495" />
	</node>
	<node id="-474833" lat="60.3786527818" lon="4.9332222289">
		<tag k="name" v="Skotakylleren" />
		<tag k="natural" v="strait" />
		<tag k="ssr:stedsnr" v="45471" />
	</node>
	<node id="-474832" lat="60.3790638846" lon="4.92774166089">
		<tag k="name" v="Nordra Lambøyna" />
		<tag k="place" v="island" />
		<tag k="ssr:stedsnr" v="45470" />
	</node>
	<node id="-474829" lat="60.3351361087" lon="4.89731667045">
		<tag k="name" v="Midtneset" />
		<tag k="natural" v="cape" />
		<tag k="ssr:stedsnr" v="45442" />
	</node>
	<node id="-474828" lat="60.3434905335" lon="4.94887092848">
		<tag k="name" v="Arevika" />
		<tag k="natural" v="bay" />
		<tag k="ssr:stedsnr" v="45441" />
	</node>
	<node id="-474827" lat="60.3401027808" lon="4.92443333586">
		<tag k="name" v="Sandholet" />
		<tag k="natural" v="bay" />
		<tag k="ssr:stedsnr" v="45439" />
	</node>
	<node id="-474825" lat="60.3595250038" lon="4.95886110948">
		<tag k="name" v="Notholmen" />
		<tag k="place" v="islet" />
		<tag k="ssr:stedsnr" v="45414" />
	</node>
	<node id="-474824" lat="60.3300777773" lon="4.98626388565">
		<tag k="name" v="Hestaneset" />
		<tag k="natural" v="cape" />
		<tag k="ssr:stedsnr" v="45412" />
	</node>
	<node id="-474823" lat="60.3270805522" lon="4.99627222997">
		<tag k="name" v="Lambholmen" />
		<tag k="place" v="islet" />
		<tag k="ssr:stedsnr" v="45406" />
	</node>
	<node id="-474822" lat="60.3251611133" lon="4.99853888463">
		<tag k="name" v="Møvikaosen" />
		<tag k="natural" v="strait" />
		<tag k="ssr:stedsnr" v="45404" />
	</node>
	<node id="-474821" lat="60.3345861119" lon="4.98015000734">
		<tag k="name" v="Langøyna" />
		<tag k="place" v="island" />
		<tag k="ssr:stedsnr" v="45403" />
	</node>
	<node id="-474820" lat="60.3311055581" lon="4.98668888549">
		<tag k="name" v="Søra Veløyvika" />
		<tag k="natural" v="bay" />
		<tag k="ssr:stedsnr" v="45395" />
	</node>
	<node id="-474819" lat="60.3333888928" lon="4.92609722428">
		<tag k="name" v="Illnesskaget" />
		<tag k="natural" v="cape" />
		<tag k="ssr:stedsnr" v="45383" />
	</node>
	<node id="-474818" lat="60.3256611096" lon="4.89514999394">
		<tag k="fixme" v="consider seamark:type=rock or natural=shoal" />
		<tag k="name" v="Mikjelsskjera" />
		<tag k="place" v="islet" />
		<tag k="ssr:stedsnr" v="45379" />
	</node>
	<node id="-474817" lat="60.3232749959" lon="4.89623054832">
		<tag k="name" v="Litløyna" />
		<tag k="place" v="island" />
		<tag k="ssr:stedsnr" v="45378" />
	</node>
	<node id="-474810" lat="60.4469305567" lon="4.90715277664">
		<tag k="name" v="Trosavika" />
		<tag k="natural" v="bay" />
		<tag k="ssr:stedsnr" v="45304" />
	</node>
	<node id="-474807" lat="60.3863666624" lon="5.05834444146">
		<tag k="name" v="Buvika" />
		<tag k="natural" v="bay" />
		<tag k="ssr:stedsnr" v="45271" />
	</node>
	<node id="-474806" lat="60.4429583363" lon="4.90885278549">
		<tag k="name" v="Vågane" />
		<tag k="natural" v="strait" />
		<tag k="ssr:stedsnr" v="45258" />
	</node>
	<node id="-474805" lat="60.4443027758" lon="4.90597776952">
		<tag k="name" v="Nordre Vågholmen" />
		<tag k="place" v="islet" />
		<tag k="ssr:stedsnr" v="45250" />
	</node>
	<node id="-474804" lat="60.4425305588" lon="4.90781110637">
		<tag k="name" v="Søre Vågholmen" />
		<tag k="place" v="islet" />
		<tag k="ssr:stedsnr" v="45249" />
	</node>
	<node id="-474798" lat="60.3137444488" lon="4.97476110924">
		<tag k="name" v="Vestra Oksavika" />
		<tag k="natural" v="bay" />
		<tag k="ssr:stedsnr" v="39112" />
	</node>
	<node id="-474796" lat="60.4195638905" lon="4.95739721487">
		<tag k="name" v="Nordra Landroneset" />
		<tag k="natural" v="cape" />
		<tag k="ssr:stedsnr" v="25826" />
	</node>
	<node id="-474795" lat="60.4334750002" lon="4.96259721772">
		<tag k="name" v="Utfallet" />
		<tag k="natural" v="bay" />
		<tag k="ssr:stedsnr" v="25189" />
	</node>
	<node id="-474790" lat="60.3033638897" lon="5.1738999912">
		<tag k="name" v="Bjorøyvågen" />
		<tag k="natural" v="bay" />
		<tag k="ssr:stedsnr" v="5840" />
	</node>
	<node id="-474787" lat="60.3608729926" lon="5.1552078255">
		<tag k="name" v="Valen" />
		<tag k="natural" v="cape" />
		<tag k="ssr:stedsnr" v="5726" />
	</node>
	<node id="-474786" lat="60.3932222263" lon="5.14217777097">
		<tag k="name" v="Saltskohavnen" />
		<tag k="natural" v="bay" />
		<tag k="ssr:stedsnr" v="5644" />
	</node>
	<node id="-474785" lat="60.3585833354" lon="5.13678333682">
		<tag k="name" v="Litlesotra" />
		<tag k="place" v="island" />
		<tag k="ssr:stedsnr" v="5632" />
	</node>
	<node id="-474783" lat="60.3739235441" lon="5.07449911306">
		<tag k="name" v="Gangstøosen" />
		<tag k="natural" v="strait" />
		<tag k="ssr:stedsnr" v="5344" />
	</node>
	<node id="-474782" lat="60.3627333297" lon="4.94508611597">
		<tag k="name" v="Inste Kjeholmen" />
		<tag k="place" v="islet" />
		<tag k="ssr:stedsnr" v="5340" />
	</node>
	<node id="-474775" lat="60.3020305528" lon="4.9197833385">
		<tag k="name" v="Baket" />
		<tag k="place" v="islet" />
		<tag k="ssr:stedsnr" v="5287" />
	</node>
	<node id="-474774" lat="60.3078166667" lon="5.0039166684">
		<tag k="name" v="Spikaren" />
		<tag k="natural" v="shoal" />
		<tag k="place" v="locality" />
		<tag k="ssr:stedsnr" v="5282" />
	</node>
	<node id="-474772" lat="60.3407138866" lon="4.88539999401">
		<tag k="fixme" v="consider seamark:type=rock or natural=shoal" />
		<tag k="name" v="Ertenskjeret" />
		<tag k="place" v="islet" />
		<tag k="ssr:stedsnr" v="5276" />
	</node>
	<node id="-474769" lat="60.3182055525" lon="4.88160554958">
		<tag k="name" v="Torvaldnakken" />
		<tag k="natural" v="shoal" />
		<tag k="place" v="locality" />
		<tag k="ssr:stedsnr" v="5258" />
	</node>
	<node id="-474767" lat="60.4214750017" lon="4.87400278613">
		<tag k="name" v="Svartskjergrunnane" />
		<tag k="natural" v="shoal" />
		<tag k="place" v="locality" />
		<tag k="ssr:stedsnr" v="5174" />
	</node>
	<node id="-474765" lat="60.4340861119" lon="4.92339443743">
		<tag k="name" v="Raunøyna" />
		<tag k="old_name" v="Raunøyna, store;Stora Raunøyna" />
		<tag k="place" v="islet" />
		<tag k="ssr:stedsnr" v="5161" />
	</node>
	<node id="-474764" lat="60.4409611146" lon="4.96672500225">
		<tag k="alt_name" v="Solsviksundet" />
		<tag k="name" v="Sollsviksundet" />
		<tag k="natural" v="strait" />
		<tag k="ssr:stedsnr" v="5146" />
	</node>
	<node id="-474762" lat="60.4035895706" lon="5.0985208639">
		<tag k="name" v="Brattholmane" />
		<tag k="place" v="islet" />
		<tag k="ssr:stedsnr" v="991324" />
	</node>
	<node id="-474760" lat="60.5299994477" lon="4.94842178152">
		<tag k="bay" v="fjord" />
		<tag k="name" v="Hjeltefjorden" />
		<tag k="natural" v="bay" />
		<tag k="ssr:stedsnr" v="430242" />
	</node>
	<node id="-474759" lat="60.4497332572" lon="4.92475075982">
		<tag k="name" v="Sauaneset" />
		<tag k="natural" v="cape" />
		<tag k="ssr:stedsnr" v="991258" />
	</node>
	<node id="-474758" lat="60.4369056018" lon="4.96504762041">
		<tag k="name" v="Vardvika" />
		<tag k="natural" v="bay" />
		<tag k="ssr:stedsnr" v="991257" />
	</node>
	<node id="-474757" lat="60.4374465558" lon="4.96564422396">
		<tag k="name" v="Hauganeset" />
		<tag k="natural" v="cape" />
		<tag k="ssr:stedsnr" v="991256" />
	</node>
	<node id="-474756" lat="60.4376453054" lon="4.96686275494">
		<tag k="name" v="Haugavika" />
		<tag k="natural" v="bay" />
		<tag k="ssr:stedsnr" v="991255" />
	</node>
	<node id="-474754" lat="60.4389627604" lon="4.96720833347">
		<tag k="name" v="Grisaskora" />
		<tag k="natural" v="bay" />
		<tag k="ssr:stedsnr" v="991253" />
	</node>
	<node id="-474753" lat="60.4208581729" lon="4.92799215685">
		<tag k="name" v="Gullholmsundet" />
		<tag k="natural" v="strait" />
		<tag k="ssr:stedsnr" v="991250" />
	</node>
	<node id="-474752" lat="60.3869105853" lon="4.98679824331">
		<tag k="name" v="Lauvvika" />
		<tag k="natural" v="bay" />
		<tag k="ssr:stedsnr" v="991245" />
	</node>
	<node id="-474748" lat="60.305187541" lon="5.01608699705">
		<tag k="name" v="Klumpevika" />
		<tag k="natural" v="bay" />
		<tag k="ssr:stedsnr" v="991205" />
	</node>
	<node id="-474746" lat="60.3588714152" lon="5.09810286772">
		<tag k="name" v="Austrevika" />
		<tag k="natural" v="bay" />
		<tag k="ssr:stedsnr" v="991203" />
	</node>
	<node id="-474745" lat="60.2689373021" lon="5.16966680278">
		<tag k="bay" v="fjord" />
		<tag k="name" v="Raunefjorden" />
		<tag k="natural" v="bay" />
		<tag k="ssr:stedsnr" v="855941" />
	</node>
	<node id="-474744" lat="60.2987544961" lon="5.14027173581">
		<tag k="bay" v="fjord" />
		<tag k="name" v="Kobbaleia" />
		<tag k="natural" v="bay" />
		<tag k="ssr:stedsnr" v="915849" />
	</node>
	<node id="-474742" lat="60.2838530657" lon="5.07415793027">
		<tag k="name" v="Anskotet" />
		<tag k="natural" v="strait" />
		<tag k="ssr:stedsnr" v="712201" />
	</node>
	<node id="-474741" lat="60.2844844757" lon="5.0724844022">
		<tag k="name" v="Anskotvågen" />
		<tag k="natural" v="bay" />
		<tag k="ssr:stedsnr" v="85052" />
	</node>
	<node id="-474723" lat="60.4486824834" lon="4.96830788257">
		<tag k="name" v="Ullvika" />
		<tag k="natural" v="bay" />
		<tag k="ssr:stedsnr" v="1072033" />
	</node>
	<node id="-474722" lat="60.3515590309" lon="5.11817071494">
		<tag k="alt_name" v="Søre Straumsvik" />
		<tag k="name" v="Søra Straumsvika" />
		<tag k="natural" v="bay" />
		<tag k="ssr:stedsnr" v="1072006" />
	</node>
	<node id="-474720" lat="60.3373444488" lon="5.13243334024">
		<tag k="name" v="Træsvika" />
		<tag k="natural" v="bay" />
		<tag k="ssr:stedsnr" v="896000" />
	</node>
	<node id="-474716" lat="60.3134722214" lon="5.18845277159">
		<tag k="fixme" v="consider seamark:type=rock or natural=shoal" />
		<tag k="name" v="Søra Vikaskjeret" />
		<tag k="place" v="islet" />
		<tag k="ssr:stedsnr" v="895970" />
	</node>
	<node id="-474715" lat="60.4276861113" lon="5.01110555948">
		<tag k="name" v="Austevågskaget" />
		<tag k="natural" v="cape" />
		<tag k="ssr:stedsnr" v="895960" />
	</node>
	<node id="-474713" lat="60.3716916658" lon="5.10611666479">
		<tag k="name" v="Kobbholmen" />
		<tag k="place" v="locality" />
		<tag k="seamark:type" v="rock" />
		<tag k="ssr:stedsnr" v="895941" />
	</node>
	<node id="-474712" lat="60.3693083306" lon="5.08318056345">
		<tag k="name" v="Skolpen" />
		<tag k="place" v="locality" />
		<tag k="seamark:type" v="rock" />
		<tag k="ssr:stedsnr" v="895927" />
	</node>
	<node id="-474708" lat="60.4028361064" lon="5.07150832522">
		<tag k="name" v="Austra Neset" />
		<tag k="natural" v="cape" />
		<tag k="ssr:stedsnr" v="895883" />
	</node>
	<node id="-474705" lat="60.309383334" lon="5.00580833211">
		<tag k="name" v="Stongarholmen" />
		<tag k="place" v="islet" />
		<tag k="ssr:stedsnr" v="895836" />
	</node>
	<node id="-474703" lat="60.3205861095" lon="4.96018332903">
		<tag k="name" v="Otersvika" />
		<tag k="natural" v="bay" />
		<tag k="ssr:stedsnr" v="895819" />
	</node>
	<node id="-474701" lat="60.3954000019" lon="5.13484165994">
		<tag k="name" v="Bryggarhola" />
		<tag k="natural" v="bay" />
		<tag k="ssr:stedsnr" v="895783" />
	</node>
	<node id="-474699" lat="60.330883333" lon="5.13300277308">
		<tag k="name" v="Skaget" />
		<tag k="natural" v="cape" />
		<tag k="ssr:stedsnr" v="895757" />
	</node>
	<node id="-474698" lat="60.3300888925" lon="5.12809999894">
		<tag k="name" v="Vågen" />
		<tag k="natural" v="bay" />
		<tag k="ssr:stedsnr" v="895751" />
	</node>
	<node id="-474697" lat="60.3322833306" lon="5.13287222424">
		<tag k="name" v="Hundanakkvika" />
		<tag k="natural" v="bay" />
		<tag k="ssr:stedsnr" v="895750" />
	</node>
	<node id="-474696" lat="60.3371861126" lon="5.15606388416">
		<tag k="name" v="Skagholmen" />
		<tag k="place" v="islet" />
		<tag k="ssr:stedsnr" v="895743" />
	</node>
	<node id="-474695" lat="60.3290694402" lon="5.16859166615">
		<tag k="name" v="Holmen" />
		<tag k="place" v="islet" />
		<tag k="ssr:stedsnr" v="895742" />
	</node>
	<node id="-474687" lat="60.4570722229" lon="4.98365833043">
		<tag k="name" v="Havrøysundet" />
		<tag k="natural" v="strait" />
		<tag k="ssr:stedsnr" v="895633" />
	</node>
	<node id="-474685" lat="60.4578222218" lon="4.97599999468">
		<tag k="fixme" v="consider seamark:type=rock or natural=shoal" />
		<tag k="name" v="Håvarden" />
		<tag k="place" v="islet" />
		<tag k="ssr:stedsnr" v="895625" />
	</node>
	<node id="-474679" lat="60.3901916632" lon="5.07768055438">
		<tag k="name" v="Søra Blomvika" />
		<tag k="natural" v="bay" />
		<tag k="ssr:stedsnr" v="895567" />
	</node>
	<node id="-474674" lat="60.3583474885" lon="5.09406542379">
		<tag k="name" v="Vikholmen" />
		<tag k="place" v="locality" />
		<tag k="seamark:type" v="rock" />
		<tag k="ssr:stedsnr" v="895535" />
	</node>
	<node id="-474669" lat="60.3576444443" lon="5.08795278084">
		<tag k="name" v="Gangstø" />
		<tag k="natural" v="beach" />
		<tag k="place" v="locality" />
		<tag k="ssr:stedsnr" v="895501" />
	</node>
	<node id="-474668" lat="60.3490499974" lon="5.11606388237">
		<tag k="name" v="Steinsvika" />
		<tag k="natural" v="bay" />
		<tag k="ssr:stedsnr" v="895490" />
	</node>
	<node id="-474665" lat="60.3278194398" lon="4.89444443743">
		<tag k="name" v="Grotvika" />
		<tag k="natural" v="bay" />
		<tag k="ssr:stedsnr" v="895418" />
	</node>
	<node id="-474664" lat="60.3339972253" lon="4.94939444779">
		<tag k="name" v="Trosavika" />
		<tag k="natural" v="bay" />
		<tag k="ssr:stedsnr" v="895419" />
	</node>
	<node id="-474663" lat="60.3405499986" lon="4.98508888902">
		<tag k="name" v="Kuaneset" />
		<tag k="natural" v="cape" />
		<tag k="ssr:stedsnr" v="895391" />
	</node>
	<node id="-474662" lat="60.3415611132" lon="4.96890277929">
		<tag k="name" v="Giljesundet" />
		<tag k="natural" v="strait" />
		<tag k="ssr:stedsnr" v="895377" />
	</node>
	<node id="-474661" lat="60.4171333297" lon="4.90162777687">
		<tag k="name" v="Giljholmen" />
		<tag k="place" v="locality" />
		<tag k="seamark:type" v="rock" />
		<tag k="ssr:stedsnr" v="895341" />
	</node>
	<node id="-474653" lat="60.3720249982" lon="4.97656667269">
		<tag k="name" v="Kuhaugneset" />
		<tag k="natural" v="cape" />
		<tag k="ssr:stedsnr" v="895261" />
	</node>
	<node id="-474650" lat="60.4383416659" lon="4.95529721434">
		<tag k="name" v="Verholmen" />
		<tag k="place" v="locality" />
		<tag k="seamark:type" v="rock" />
		<tag k="ssr:stedsnr" v="895249" />
	</node>
	<node id="-474648" lat="60.4410305572" lon="4.93749445274">
		<tag k="fixme" v="consider seamark:type=rock or natural=shoal" />
		<tag k="name" v="Vindøyskjeret" />
		<tag k="place" v="islet" />
		<tag k="ssr:stedsnr" v="895239" />
	</node>
	<node id="-474647" lat="60.4489717969" lon="4.92576549767">
		<tag k="name" v="Buholmen" />
		<tag k="natural" v="cape" />
		<tag k="ssr:stedsnr" v="895233" />
	</node>
	<node id="-474646" lat="60.2745472236" lon="5.10066388273">
		<tag k="name" v="Røssevika" />
		<tag k="natural" v="bay" />
		<tag k="ssr:stedsnr" v="895124" />
	</node>
	<node id="-474644" lat="60.4378388916" lon="4.87046665759">
		<tag k="name" v="Austre Odden" />
		<tag k="place" v="islet" />
		<tag k="ssr:stedsnr" v="895092" />
	</node>
	<node id="-474642" lat="60.3470050617" lon="4.97000607206">
		<tag k="name" v="Torvesundet" />
		<tag k="natural" v="strait" />
		<tag k="ssr:stedsnr" v="895066" />
	</node>
	<node id="-474641" lat="60.3741888858" lon="5.16101944898">
		<tag k="name" v="Klubbaneset" />
		<tag k="natural" v="cape" />
		<tag k="ssr:stedsnr" v="895027" />
	</node>
	<node id="-474640" lat="60.326127782" lon="5.16809722344">
		<tag k="name" v="Eidet" />
		<tag k="place" v="locality" />
		<tag k="ssr:stedsnr" v="479085" />
	</node>
	<node id="-474634" lat="60.3916722236" lon="5.06844721811">
		<tag k="name" v="Hanavågen" />
		<tag k="natural" v="bay" />
		<tag k="ssr:stedsnr" v="410891" />
	</node>
	<node id="-474633" lat="60.2774722248" lon="5.05515833307">
		<tag k="name" v="Huldholmen" />
		<tag k="place" v="islet" />
		<tag k="ssr:stedsnr" v="410883" />
	</node>
	<node id="-474632" lat="60.2671555517" lon="5.05684999186">
		<tag k="name" v="Fossana" />
		<tag k="natural" v="bay" />
		<tag k="ssr:stedsnr" v="410878" />
	</node>
	<node id="-474628" lat="60.3918694439" lon="5.10236666572">
		<tag k="name" v="Låtrevika" />
		<tag k="natural" v="bay" />
		<tag k="ssr:stedsnr" v="410611" />
	</node>
	<node id="-474624" lat="60.3597222215" lon="5.11076111629">
		<tag k="name" v="Straumsholmane" />
		<tag k="place" v="islet" />
		<tag k="ssr:stedsnr" v="410574" />
	</node>
	<node id="-474619" lat="60.3797777735" lon="4.96755833671">
		<tag k="name" v="Buskevika" />
		<tag k="natural" v="bay" />
		<tag k="ssr:stedsnr" v="410473" />
	</node>
	<node id="-474615" lat="60.342136111" lon="4.98331667186">
		<tag k="name" v="Haukaneset" />
		<tag k="natural" v="cape" />
		<tag k="ssr:stedsnr" v="410420" />
	</node>
	<node id="-474613" lat="60.3437361095" lon="4.96979167087">
		<tag k="name" v="Naustholmen" />
		<tag k="place" v="islet" />
		<tag k="ssr:stedsnr" v="410414" />
	</node>
	<node id="-474612" lat="60.3387138904" lon="4.96897499318">
		<tag k="name" v="Langøyosen" />
		<tag k="natural" v="strait" />
		<tag k="ssr:stedsnr" v="410402" />
	</node>
	<node id="-474611" lat="60.4112944475" lon="4.9232333348">
		<tag k="name" v="Sandøystraumen" />
		<tag k="natural" v="strait" />
		<tag k="ssr:stedsnr" v="410376" />
	</node>
	<node id="-474610" lat="60.3107638904" lon="5.13577500683">
		<tag k="name" v="Nordra Vika" />
		<tag k="natural" v="bay" />
		<tag k="ssr:stedsnr" v="410367" />
	</node>
	<node id="-474609" lat="60.3043083371" lon="5.17256944169">
		<tag k="name" v="Vågen" />
		<tag k="natural" v="bay" />
		<tag k="ssr:stedsnr" v="410363" />
	</node>
	<node id="-474605" lat="60.2895361136" lon="5.09208055501">
		<tag k="name" v="Pollen" />
		<tag k="natural" v="bay" />
		<tag k="ssr:stedsnr" v="410335" />
	</node>
	<node id="-474603" lat="60.3615694439" lon="5.14696389685">
		<tag k="name" v="Straumen" />
		<tag k="natural" v="strait" />
		<tag k="ssr:stedsnr" v="409990" />
	</node>
	<node id="-474600" lat="60.3236768726" lon="5.18547094444">
		<tag k="name" v="Bjørøyhavnen" />
		<tag k="natural" v="bay" />
		<tag k="ssr:stedsnr" v="409966" />
	</node>
	<node id="-474599" lat="60.3121750025" lon="5.18453888057">
		<tag k="name" v="Ingeborgsanden" />
		<tag k="natural" v="beach" />
		<tag k="place" v="locality" />
		<tag k="ssr:stedsnr" v="409965" />
	</node>
	<node id="-474597" lat="60.3722916678" lon="5.08723889173">
		<tag k="fixme" v="consider seamark:type=rock or natural=shoal" />
		<tag k="name" v="Bleikeskjeret" />
		<tag k="place" v="islet" />
		<tag k="ssr:stedsnr" v="409920" />
	</node>
	<node id="-474596" lat="60.3799555519" lon="5.05916666192">
		<tag k="name" v="Sørevågen" />
		<tag k="natural" v="bay" />
		<tag k="ssr:stedsnr" v="409913" />
	</node>
	<node id="-474592" lat="60.3312666635" lon="5.18908333976">
		<tag k="name" v="Fløsteinsneset" />
		<tag k="natural" v="cape" />
		<tag k="ssr:stedsnr" v="409766" />
	</node>
	<node id="-474589" lat="60.2977638874" lon="5.05228888253">
		<tag k="fixme" v="consider seamark:type=rock or natural=shoal" />
		<tag k="name" v="Bleikjene" />
		<tag k="place" v="islet" />
		<tag k="ssr:stedsnr" v="409734" />
	</node>
	<node id="-474586" lat="60.3087194432" lon="5.06349443589">
		<tag k="name" v="Øleneset" />
		<tag k="natural" v="cape" />
		<tag k="ssr:stedsnr" v="409677" />
	</node>
	<node id="-474585" lat="60.3059749959" lon="5.0546638926">
		<tag k="name" v="Troneset" />
		<tag k="natural" v="cape" />
		<tag k="ssr:stedsnr" v="409675" />
	</node>
	<node id="-474580" lat="60.3789000033" lon="4.9238972199">
		<tag k="fixme" v="consider seamark:type=rock or natural=shoal" />
		<tag k="name" v="Svartaskjeret" />
		<tag k="place" v="islet" />
		<tag k="ssr:stedsnr" v="409459" />
	</node>
	<node id="-474577" lat="60.4206250038" lon="4.9038305472">
		<tag k="name" v="Bleikosen" />
		<tag k="natural" v="strait" />
		<tag k="ssr:stedsnr" v="409370" />
	</node>
	<node id="-474574" lat="60.4159000021" lon="4.9013333243">
		<tag k="name" v="Lokøyneset" />
		<tag k="natural" v="cape" />
		<tag k="ssr:stedsnr" v="409314" />
	</node>
	<node id="-474573" lat="60.4140583342" lon="4.91139722857">
		<tag k="name" v="Grunnevågsneset" />
		<tag k="natural" v="cape" />
		<tag k="ssr:stedsnr" v="409315" />
	</node>
	<node id="-474572" lat="60.4096277788" lon="4.96007222426">
		<tag k="name" v="Buarøyna" />
		<tag k="place" v="island" />
		<tag k="ssr:stedsnr" v="409311" />
	</node>
	<node id="-474571" lat="60.419597223" lon="4.95721666989">
		<tag k="name" v="Kvalneset" />
		<tag k="natural" v="cape" />
		<tag k="ssr:stedsnr" v="409309" />
	</node>
	<node id="-474570" lat="60.3834583311" lon="4.96193888879">
		<tag k="name" v="Reidarsneset" />
		<tag k="natural" v="cape" />
		<tag k="ssr:stedsnr" v="409296" />
	</node>
	<node id="-474567" lat="60.4521955787" lon="4.96842872512">
		<tag k="fixme" v="consider seamark:type=rock or natural=shoal" />
		<tag k="name" v="Gulskjeret" />
		<tag k="place" v="islet" />
		<tag k="ssr:stedsnr" v="409284" />
	</node>
	<node id="-474566" lat="60.4482416703" lon="4.98592221313">
		<tag k="name" v="Kvarven" />
		<tag k="natural" v="cape" />
		<tag k="ssr:stedsnr" v="409277" />
	</node>
	<node id="-474565" lat="60.4430388855" lon="4.94514166279">
		<tag k="name" v="Vindøysundet" />
		<tag k="natural" v="strait" />
		<tag k="ssr:stedsnr" v="409273" />
	</node>
	<node id="-474564" lat="60.4481833318" lon="4.89358054995">
		<tag k="fixme" v="consider seamark:type=rock or natural=shoal" />
		<tag k="name" v="Knappaskjeret" />
		<tag k="place" v="islet" />
		<tag k="ssr:stedsnr" v="409270" />
	</node>
	<node id="-474563" lat="60.4420500003" lon="4.92246111195">
		<tag k="name" v="Søre Midtneset" />
		<tag k="natural" v="cape" />
		<tag k="ssr:stedsnr" v="409263" />
	</node>
	<node id="-474562" lat="60.2619777739" lon="5.046808334">
		<tag k="name" v="Breivika" />
		<tag k="natural" v="bay" />
		<tag k="ssr:stedsnr" v="409161" />
	</node>
	<node id="-474559" lat="60.3624166687" lon="4.94014722647">
		<tag k="name" v="Kjeholmosen" />
		<tag k="natural" v="strait" />
		<tag k="ssr:stedsnr" v="409113" />
	</node>
	<node id="-474558" lat="60.3449972258" lon="4.97085555946">
		<tag k="name" v="Langøyvika" />
		<tag k="natural" v="bay" />
		<tag k="ssr:stedsnr" v="409103" />
	</node>
	<node id="-474557" lat="60.3586833351" lon="4.98089721847">
		<tag k="name" v="Haugavika" />
		<tag k="natural" v="bay" />
		<tag k="ssr:stedsnr" v="409094" />
	</node>
	<node id="-474556" lat="60.3326972197" lon="5.14317777816">
		<tag k="name" v="Skarvbugvika" />
		<tag k="natural" v="bay" />
		<tag k="ssr:stedsnr" v="409016" />
	</node>
	<node id="-474555" lat="60.380297224" lon="5.15818889168">
		<tag k="name" v="Sveneset" />
		<tag k="natural" v="cape" />
		<tag k="ssr:stedsnr" v="389975" />
	</node>
	<node id="-474554" lat="60.4464694487" lon="4.97102777401">
		<tag k="name" v="Træsvika" />
		<tag k="natural" v="bay" />
		<tag k="ssr:stedsnr" v="389926" />
	</node>
	<node id="-474553" lat="60.3786944475" lon="5.07712222692">
		<tag k="fixme" v="consider seamark:type=rock or natural=shoal" />
		<tag k="name" v="Bruaskjeret" />
		<tag k="place" v="islet" />
		<tag k="ssr:stedsnr" v="389794" />
	</node>
	<node id="-474552" lat="60.4162888886" lon="5.00136388624">
		<tag k="name" v="Storsteinneset" />
		<tag k="natural" v="cape" />
		<tag k="ssr:stedsnr" v="388862" />
	</node>
	<node id="-474551" lat="60.3174388858" lon="4.98420278151">
		<tag k="name" v="Storasundet" />
		<tag k="natural" v="strait" />
		<tag k="ssr:stedsnr" v="388192" />
	</node>
	<node id="-474550" lat="60.3907861149" lon="4.97788333696">
		<tag k="name" v="Langholmen" />
		<tag k="place" v="islet" />
		<tag k="ssr:stedsnr" v="388167" />
	</node>
	<node id="-474549" lat="60.3265888893" lon="5.17188889236">
		<tag k="name" v="Vestrepollen" />
		<tag k="natural" v="bay" />
		<tag k="ssr:stedsnr" v="388152" />
	</node>
	<node id="-474548" lat="60.3149944488" lon="5.15273333282">
		<tag k="name" v="Vomba" />
		<tag k="natural" v="shoal" />
		<tag k="place" v="locality" />
		<tag k="ssr:stedsnr" v="388094" />
	</node>
	<node id="-474547" lat="60.3168194417" lon="5.138419436">
		<tag k="name" v="Molltveitneset" />
		<tag k="natural" v="cape" />
		<tag k="ssr:stedsnr" v="388088" />
	</node>
	<node id="-474532" lat="60.3345083333" lon="5.17696110998">
		<tag k="name" v="Legetoneset" />
		<tag k="natural" v="cape" />
		<tag k="ssr:stedsnr" v="370802" />
	</node>
	<node id="-474531" lat="60.3300611113" lon="5.17374166139">
		<tag k="name" v="Katlabergvika" />
		<tag k="natural" v="bay" />
		<tag k="ssr:stedsnr" v="370800" />
	</node>
	<node id="-474530" lat="60.2976750001" lon="5.18063332733">
		<tag k="name" v="Hellersholmen" />
		<tag k="place" v="islet" />
		<tag k="ssr:stedsnr" v="369818" />
	</node>
	<node id="-474525" lat="60.3535315359" lon="5.10363841148">
		<tag k="name" v="Bildøyna" />
		<tag k="place" v="island" />
		<tag k="ssr:stedsnr" v="369715" />
	</node>
	<node id="-474524" lat="60.3573083313" lon="5.15556110913">
		<tag k="name" v="Høgøyna" />
		<tag k="place" v="islet" />
		<tag k="ssr:stedsnr" v="369710" />
	</node>
	<node id="-474523" lat="60.3674305562" lon="5.10290555987">
		<tag k="name" v="Synstholmen" />
		<tag k="place" v="islet" />
		<tag k="ssr:stedsnr" v="369696" />
	</node>
	<node id="-474517" lat="60.3633416701" lon="4.93865277618">
		<tag k="name" v="Ytste Kjeholmen" />
		<tag k="place" v="islet" />
		<tag k="ssr:stedsnr" v="369327" />
	</node>
	<node id="-474515" lat="60.3176416621" lon="4.89746110515">
		<tag k="fixme" v="consider seamark:type=rock or natural=shoal" />
		<tag k="name" v="Ruo" />
		<tag k="place" v="islet" />
		<tag k="ssr:stedsnr" v="369293" />
	</node>
	<node id="-474512" lat="60.4320861121" lon="5.01678889453">
		<tag k="name" v="Skarvbugen" />
		<tag k="natural" v="beach" />
		<tag k="place" v="locality" />
		<tag k="ssr:stedsnr" v="369152" />
	</node>
	<node id="-474511" lat="60.453841664" lon="4.92240277904">
		<tag k="name" v="Gloppholmen" />
		<tag k="place" v="islet" />
		<tag k="ssr:stedsnr" v="369118" />
	</node>
	<node id="-474509" lat="60.3016749985" lon="4.89854443763">
		<tag k="fixme" v="consider seamark:type=rock or natural=shoal" />
		<tag k="name" v="Midtodden" />
		<tag k="place" v="islet" />
		<tag k="ssr:stedsnr" v="430291" />
	</node>
	<node id="-474505" lat="60.3959055599" lon="5.06534166602">
		<tag k="name" v="Klubben" />
		<tag k="natural" v="cape" />
		<tag k="ssr:stedsnr" v="349935" />
	</node>
	<node id="-474504" lat="60.3935277753" lon="5.06851945188">
		<tag k="name" v="Keila" />
		<tag k="natural" v="bay" />
		<tag k="ssr:stedsnr" v="349925" />
	</node>
	<node id="-474497" lat="60.3989055525" lon="5.10944722255">
		<tag k="name" v="Snellevika" />
		<tag k="natural" v="bay" />
		<tag k="ssr:stedsnr" v="349656" />
	</node>
	<node id="-474490" lat="60.3643111079" lon="5.09692499613">
		<tag k="name" v="Vestra Tjuvavika" />
		<tag k="natural" v="bay" />
		<tag k="ssr:stedsnr" v="349574" />
	</node>
	<node id="-474489" lat="60.3561833356" lon="5.09827777416">
		<tag k="name" v="Rotavika" />
		<tag k="natural" v="bay" />
		<tag k="ssr:stedsnr" v="349573" />
	</node>
	<node id="-474488" lat="60.3638416644" lon="5.10068334158">
		<tag k="name" v="Austra Tjuvavika" />
		<tag k="natural" v="bay" />
		<tag k="ssr:stedsnr" v="349572" />
	</node>
	<node id="-474487" lat="60.3891277768" lon="4.9882138819">
		<tag k="name" v="Juvågen" />
		<tag k="natural" v="bay" />
		<tag k="ssr:stedsnr" v="349553" />
	</node>
	<node id="-474486" lat="60.3791361113" lon="4.93660277639">
		<tag k="name" v="Høgholmen" />
		<tag k="place" v="locality" />
		<tag k="seamark:type" v="rock" />
		<tag k="ssr:stedsnr" v="349529" />
	</node>
	<node id="-474466" lat="60.3156111138" lon="5.18875277176">
		<tag k="fixme" v="consider seamark:type=rock or natural=shoal" />
		<tag k="name" v="Nordra Vikaskjeret" />
		<tag k="place" v="islet" />
		<tag k="ssr:stedsnr" v="348963" />
	</node>
	<node id="-474465" lat="60.4293944431" lon="5.0147472171">
		<tag k="name" v="Søra Skarvbogvika" />
		<tag k="natural" v="bay" />
		<tag k="ssr:stedsnr" v="348949" />
	</node>
	<node id="-474464" lat="60.3702388882" lon="5.07582777165">
		<tag k="fixme" v="consider seamark:type=rock or natural=shoal" />
		<tag k="name" v="Råskjeret" />
		<tag k="place" v="islet" />
		<tag k="ssr:stedsnr" v="348919" />
	</node>
	<node id="-474463" lat="60.3823194426" lon="5.10110833124">
		<tag k="name" v="Breivika" />
		<tag k="natural" v="bay" />
		<tag k="ssr:stedsnr" v="348910" />
	</node>
	<node id="-474462" lat="60.3734527787" lon="5.11541389355">
		<tag k="name" v="Grunnavågen" />
		<tag k="natural" v="bay" />
		<tag k="ssr:stedsnr" v="348907" />
	</node>
	<node id="-474460" lat="60.3911694402" lon="5.12085833612">
		<tag k="name" v="Sundet" />
		<tag k="natural" v="strait" />
		<tag k="ssr:stedsnr" v="348855" />
	</node>
	<node id="-474459" lat="60.3050555554" lon="4.97600554981">
		<tag k="name" v="Holmeidet" />
		<tag k="place" v="locality" />
		<tag k="ssr:stedsnr" v="348821" />
	</node>
	<node id="-474458" lat="60.318824998" lon="4.98165834115">
		<tag k="name" v="Risholmen" />
		<tag k="place" v="islet" />
		<tag k="ssr:stedsnr" v="348814" />
	</node>
	<node id="-474457" lat="60.3115638874" lon="4.97626666341">
		<tag k="name" v="Kylleren" />
		<tag k="natural" v="bay" />
		<tag k="ssr:stedsnr" v="348806" />
	</node>
	<node id="-474456" lat="60.3220694478" lon="4.97768611029">
		<tag k="name" v="Flågeklypa" />
		<tag k="natural" v="bay" />
		<tag k="ssr:stedsnr" v="348805" />
	</node>
	<node id="-474455" lat="60.3214250028" lon="4.95695556419">
		<tag k="name" v="Klubbesundet" />
		<tag k="natural" v="strait" />
		<tag k="ssr:stedsnr" v="348803" />
	</node>
	<node id="-474454" lat="60.3019888897" lon="4.94446943701">
		<tag k="fixme" v="consider seamark:type=rock or natural=shoal" />
		<tag k="name" v="Oksane" />
		<tag k="place" v="islet" />
		<tag k="ssr:stedsnr" v="348795" />
	</node>
	<node id="-474453" lat="60.3098027809" lon="4.9315749945">
		<tag k="name" v="Nordre Lotavågen" />
		<tag k="natural" v="bay" />
		<tag k="ssr:stedsnr" v="348791" />
	</node>
	<node id="-474452" lat="60.3340111124" lon="5.18586666232">
		<tag k="name" v="Jomfruhavnen" />
		<tag k="natural" v="bay" />
		<tag k="ssr:stedsnr" v="348783" />
	</node>
	<node id="-474449" lat="60.3372388918" lon="5.15830277852">
		<tag k="name" v="Småsundet" />
		<tag k="natural" v="strait" />
		<tag k="ssr:stedsnr" v="348758" />
	</node>
	<node id="-474448" lat="60.3337249988" lon="5.14036389395">
		<tag k="name" v="Storvika" />
		<tag k="natural" v="bay" />
		<tag k="ssr:stedsnr" v="348756" />
	</node>
	<node id="-474443" lat="60.2960583316" lon="5.05233610848">
		<tag k="name" v="Fjellspollen" />
		<tag k="natural" v="strait" />
		<tag k="ssr:stedsnr" v="348685" />
	</node>
	<node id="-474442" lat="60.2918138858" lon="5.04571945065">
		<tag k="name" v="Sildavika" />
		<tag k="natural" v="bay" />
		<tag k="ssr:stedsnr" v="348683" />
	</node>
	<node id="-474440" lat="60.3036333307" lon="5.03659999765">
		<tag k="name" v="Nordvikasjøen" />
		<tag k="natural" v="bay" />
		<tag k="ssr:stedsnr" v="348670" />
	</node>
	<node id="-474439" lat="60.3047333324" lon="5.05327778682">
		<tag k="name" v="Preikestolvika" />
		<tag k="natural" v="bay" />
		<tag k="ssr:stedsnr" v="348668" />
	</node>
	<node id="-474438" lat="60.3035416665" lon="5.01740277326">
		<tag k="name" v="Vætestøa" />
		<tag k="natural" v="beach" />
		<tag k="place" v="locality" />
		<tag k="ssr:stedsnr" v="348667" />
	</node>
	<node id="-474437" lat="60.3144444476" lon="5.06409999265">
		<tag k="name" v="Fjellskylpa" />
		<tag k="natural" v="bay" />
		<tag k="ssr:stedsnr" v="348666" />
	</node>
	<node id="-474436" lat="60.3065222233" lon="5.04664722031">
		<tag k="name" v="Pillevika" />
		<tag k="natural" v="bay" />
		<tag k="ssr:stedsnr" v="348656" />
	</node>
	<node id="-474435" lat="60.3058853483" lon="5.04994127184">
		<tag k="name" v="Hellesvika" />
		<tag k="natural" v="bay" />
		<tag k="ssr:stedsnr" v="348655" />
	</node>
	<node id="-474434" lat="60.4601833332" lon="4.97064166848">
		<tag k="name" v="Misjeosen" />
		<tag k="natural" v="strait" />
		<tag k="ssr:stedsnr" v="348631" />
	</node>
	<node id="-474428" lat="60.4305972219" lon="4.98836110586">
		<tag k="name" v="Avneset" />
		<tag k="natural" v="cape" />
		<tag k="ssr:stedsnr" v="348335" />
	</node>
	<node id="-474423" lat="60.3678638898" lon="4.98027221501">
		<tag k="name" v="Fossanova" />
		<tag k="natural" v="cape" />
		<tag k="ssr:stedsnr" v="348280" />
	</node>
	<node id="-474422" lat="60.3692472188" lon="4.97631666742">
		<tag k="name" v="Søra Eidesneset" />
		<tag k="natural" v="cape" />
		<tag k="ssr:stedsnr" v="348276" />
	</node>
	<node id="-474420" lat="60.300544448" lon="5.00554167445">
		<tag k="name" v="Hegrøysundet" />
		<tag k="natural" v="strait" />
		<tag k="ssr:stedsnr" v="348132" />
	</node>
	<node id="-474419" lat="60.2841951459" lon="5.00465945543">
		<tag k="name" v="Kjereidet" />
		<tag k="place" v="locality" />
		<tag k="ssr:stedsnr" v="348126" />
	</node>
	<node id="-474418" lat="60.2806916622" lon="5.09094999298">
		<tag k="name" v="Stolen" />
		<tag k="natural" v="cape" />
		<tag k="ssr:stedsnr" v="348123" />
	</node>
	<node id="-474417" lat="60.2777936281" lon="5.00295763721">
		<tag k="name" v="Nordra Resavika" />
		<tag k="natural" v="bay" />
		<tag k="ssr:stedsnr" v="348115" />
	</node>
	<node id="-474414" lat="60.3455055568" lon="4.93619166843">
		<tag k="name" v="Søra Barmesundet" />
		<tag k="natural" v="strait" />
		<tag k="ssr:stedsnr" v="348085" />
	</node>
	<node id="-474413" lat="60.3514833333" lon="4.92279722213">
		<tag k="name" v="Smalanesskaget" />
		<tag k="natural" v="cape" />
		<tag k="ssr:stedsnr" v="348077" />
	</node>
	<node id="-474412" lat="60.3641888853" lon="4.94489999607">
		<tag k="fixme" v="consider seamark:type=rock or natural=shoal" />
		<tag k="name" v="Skvetteskjeret" />
		<tag k="place" v="islet" />
		<tag k="ssr:stedsnr" v="348064" />
	</node>
	<node id="-474410" lat="60.4548916692" lon="4.96262499524">
		<tag k="name" v="Svinavika" />
		<tag k="natural" v="bay" />
		<tag k="ssr:stedsnr" v="348018" />
	</node>
	<node id="-474408" lat="60.3143361113" lon="4.977297231">
		<tag k="name" v="Austra Oksavika" />
		<tag k="natural" v="bay" />
		<tag k="ssr:stedsnr" v="343130" />
	</node>
	<node id="-474407" lat="60.3720151017" lon="4.9242972677">
		<tag k="fixme" v="consider seamark:type=rock or natural=shoal" />
		<tag k="name" v="Høgeskjera" />
		<tag k="place" v="islet" />
		<tag k="ssr:stedsnr" v="126368" />
	</node>
	<node id="-474406" lat="60.359442402" lon="4.91537486604">
		<tag k="fixme" v="consider seamark:type=rock or natural=shoal" />
		<tag k="name" v="Tjørnøyskjeret" />
		<tag k="place" v="islet" />
		<tag k="ssr:stedsnr" v="126360" />
	</node>
	<node id="-474405" lat="60.402491669" lon="4.94886943916">
		<tag k="name" v="Vestra Buarøyna" />
		<tag k="place" v="islet" />
		<tag k="ssr:stedsnr" v="126335" />
	</node>
	<node id="-474404" lat="60.390702779" lon="4.91885277037">
		<tag k="name" v="Ljøsøyna" />
		<tag k="place" v="islet" />
		<tag k="ssr:stedsnr" v="126325" />
	</node>
	<node id="-474403" lat="60.392358329" lon="5.06419166354">
		<tag k="name" v="Litløyna" />
		<tag k="place" v="islet" />
		<tag k="ssr:stedsnr" v="126311" />
	</node>
	<node id="-474402" lat="60.4012888885" lon="5.11250276985">
		<tag k="name" v="Skagaflua" />
		<tag k="natural" v="shoal" />
		<tag k="place" v="locality" />
		<tag k="ssr:stedsnr" v="328876" />
	</node>
	<node id="-474401" lat="60.4062333306" lon="4.96374722003">
		<tag k="name" v="Teistholmen" />
		<tag k="place" v="islet" />
		<tag k="ssr:stedsnr" v="328824" />
	</node>
	<node id="-474400" lat="60.3705527755" lon="5.13610277443">
		<tag k="name" v="Pollholmen" />
		<tag k="place" v="islet" />
		<tag k="ssr:stedsnr" v="328801" />
	</node>
	<node id="-474399" lat="60.3744333291" lon="5.09326666055">
		<tag k="name" v="Lyrholene" />
		<tag k="natural" v="bay" />
		<tag k="ssr:stedsnr" v="328800" />
	</node>
	<node id="-474384" lat="60.3884888908" lon="5.1528027789">
		<tag k="name" v="Knappen" />
		<tag k="natural" v="cape" />
		<tag k="ssr:stedsnr" v="310612" />
	</node>
	<node id="-476376" lat="60.4062416677" lon="5.02263611885">
		<tag k="name" v="Stølsneset" />
		<tag k="natural" v="cape" />
		<tag k="ssr:stedsnr" v="956662" />
	</node>
	<node id="-474382" lat="60.3335444458" lon="5.15434443888">
		<tag k="fixme" v="consider seamark:type=rock or natural=shoal" />
		<tag k="name" v="Kaggen" />
		<tag k="place" v="islet" />
		<tag k="ssr:stedsnr" v="309787" />
	</node>
	<node id="-474381" lat="60.3086694432" lon="5.15918056382">
		<tag k="name" v="Naustholmen" />
		<tag k="place" v="islet" />
		<tag k="ssr:stedsnr" v="309756" />
	</node>
	<node id="-474376" lat="60.3200916666" lon="4.98053610674">
		<tag k="name" v="Flatholmen" />
		<tag k="place" v="islet" />
		<tag k="ssr:stedsnr" v="309349" />
	</node>
	<node id="-474375" lat="60.3419527782" lon="4.89398611625">
		<tag k="name" v="Ertenskjerflua" />
		<tag k="natural" v="shoal" />
		<tag k="place" v="locality" />
		<tag k="ssr:stedsnr" v="309320" />
	</node>
	<node id="-474374" lat="60.3400194479" lon="4.96117777462">
		<tag k="name" v="Skorpo" />
		<tag k="place" v="islet" />
		<tag k="ssr:stedsnr" v="309321" />
	</node>
	<node id="-474373" lat="60.3377583309" lon="4.86428055671">
		<tag k="name" v="Hundane" />
		<tag k="natural" v="shoal" />
		<tag k="place" v="locality" />
		<tag k="ssr:stedsnr" v="309315" />
	</node>
	<node id="-474370" lat="60.3463767295" lon="4.97669957439">
		<tag k="name" v="Langøyna" />
		<tag k="place" v="island" />
		<tag k="ssr:stedsnr" v="309304" />
	</node>
	<node id="-474369" lat="60.3343194458" lon="4.94489167241">
		<tag k="alt_name" v="Skorposen" />
		<tag k="name" v="Skorpålen" />
		<tag k="natural" v="strait" />
		<tag k="ssr:stedsnr" v="309300" />
	</node>
	<node id="-474368" lat="60.3293749989" lon="4.87883333538">
		<tag k="name" v="Tranten" />
		<tag k="natural" v="shoal" />
		<tag k="place" v="locality" />
		<tag k="ssr:stedsnr" v="309296" />
	</node>
	<node id="-474366" lat="60.4236666639" lon="4.960319444">
		<tag k="name" v="Landrovågen" />
		<tag k="natural" v="bay" />
		<tag k="ssr:stedsnr" v="309205" />
	</node>
	<node id="-474365" lat="60.427374999" lon="4.88266110259">
		<tag k="fixme" v="consider seamark:type=rock or natural=shoal" />
		<tag k="name" v="Svartskjera" />
		<tag k="place" v="islet" />
		<tag k="ssr:stedsnr" v="309193" />
	</node>
	<node id="-474364" lat="60.4440333348" lon="4.92598055859">
		<tag k="name" v="Kalvaneset" />
		<tag k="natural" v="cape" />
		<tag k="ssr:stedsnr" v="309185" />
	</node>
	<node id="-474363" lat="60.4416444446" lon="4.92033611566">
		<tag k="name" v="Gròtevika" />
		<tag k="natural" v="bay" />
		<tag k="ssr:stedsnr" v="309186" />
	</node>
	<node id="-474360" lat="60.3539444414" lon="5.09738610335">
		<tag k="name" v="Bildøystraumen" />
		<tag k="natural" v="strait" />
		<tag k="ssr:stedsnr" v="308720" />
	</node>
	<node id="-474358" lat="60.3954027805" lon="5.13676388567">
		<tag k="name" v="Saltskoodden" />
		<tag k="natural" v="cape" />
		<tag k="ssr:stedsnr" v="308566" />
	</node>
	<node id="-474355" lat="60.2967888905" lon="5.00517500839">
		<tag k="name" v="Hjartøyna" />
		<tag k="place" v="islet" />
		<tag k="ssr:stedsnr" v="308405" />
	</node>
	<node id="-474351" lat="60.3817999968" lon="5.03821110336">
		<tag k="bay" v="fjord" />
		<tag k="name" v="Fjæreidpollen" />
		<tag k="natural" v="bay" />
		<tag k="ssr:stedsnr" v="308343" />
	</node>
	<node id="-474350" lat="60.3708611073" lon="4.97066666306">
		<tag k="name" v="Galtaholmane" />
		<tag k="place" v="islet" />
		<tag k="ssr:stedsnr" v="308336" />
	</node>
	<node id="-474349" lat="60.3607305554" lon="4.93367500229">
		<tag k="name" v="Kråkøyna" />
		<tag k="place" v="islet" />
		<tag k="ssr:stedsnr" v="308326" />
	</node>
	<node id="-474348" lat="60.4019555591" lon="4.93350277899">
		<tag k="name" v="Havrøyna" />
		<tag k="place" v="islet" />
		<tag k="ssr:stedsnr" v="308308" />
	</node>
	<node id="-474347" lat="60.4008388895" lon="4.98815834037">
		<tag k="name" v="Kårtveitpollen" />
		<tag k="natural" v="bay" />
		<tag k="ssr:stedsnr" v="308305" />
	</node>
	<node id="-474346" lat="60.3915916707" lon="4.9413777697">
		<tag k="name" v="Svekksteinen" />
		<tag k="place" v="islet" />
		<tag k="ssr:stedsnr" v="308292" />
	</node>
	<node id="-474345" lat="60.3869333329" lon="4.90593888494">
		<tag k="name" v="Kallsøyflua" />
		<tag k="natural" v="shoal" />
		<tag k="place" v="locality" />
		<tag k="ssr:stedsnr" v="308283" />
	</node>
	<node id="-474343" lat="60.4465861124" lon="4.87068888312">
		<tag k="fixme" v="consider seamark:type=rock or natural=shoal" />
		<tag k="name" v="Sandøyskjera" />
		<tag k="place" v="islet" />
		<tag k="ssr:stedsnr" v="308108" />
	</node>
	<node id="-474340" lat="60.3020138918" lon="4.983250008">
		<tag k="name" v="Ørnaflua" />
		<tag k="natural" v="shoal" />
		<tag k="place" v="locality" />
		<tag k="ssr:stedsnr" v="308252" />
	</node>
	<node id="-474339" lat="60.4525166669" lon="4.8998194459">
		<tag k="name" v="Knappane" />
		<tag k="place" v="islet" />
		<tag k="ssr:stedsnr" v="308223" />
	</node>
	<node id="-474338" lat="60.4262277769" lon="4.93596389662">
		<tag k="name" v="Hjelmesundet" />
		<tag k="natural" v="strait" />
		<tag k="ssr:stedsnr" v="45364" />
	</node>
	<node id="-474335" lat="60.3056749968" lon="5.17560833392">
		<tag k="name" v="Kråkepollen" />
		<tag k="natural" v="bay" />
		<tag k="ssr:stedsnr" v="45353" />
	</node>
	<node id="-474330" lat="60.3552083296" lon="5.15773889449">
		<tag k="name" v="Flatholmen" />
		<tag k="place" v="islet" />
		<tag k="ssr:stedsnr" v="288999" />
	</node>
	<node id="-476047" lat="60.3159972261" lon="4.98294722169">
		<tag k="name" v="Indravika" />
		<tag k="natural" v="bay" />
		<tag k="ssr:stedsnr" v="773795" />
	</node>
	<node id="-474328" lat="60.3656944465" lon="5.14443333131">
		<tag k="name" v="Stølsvika" />
		<tag k="natural" v="bay" />
		<tag k="ssr:stedsnr" v="288991" />
	</node>
	<node id="-474326" lat="60.3882777748" lon="5.09995834079">
		<tag k="name" v="Byneset" />
		<tag k="natural" v="cape" />
		<tag k="ssr:stedsnr" v="288942" />
	</node>
	<node id="-474325" lat="60.3781000032" lon="5.03619444663">
		<tag k="name" v="Fjæreidholmane" />
		<tag k="place" v="islet" />
		<tag k="ssr:stedsnr" v="288932" />
	</node>
	<node id="-474324" lat="60.3723138881" lon="5.09806667382">
		<tag k="name" v="Gangstøvika" />
		<tag k="natural" v="bay" />
		<tag k="ssr:stedsnr" v="288927" />
	</node>
	<node id="-476366" lat="60.3485277796" lon="5.12133332997">
		<tag k="name" v="Bukkatåvika" />
		<tag k="natural" v="bay" />
		<tag k="ssr:stedsnr" v="956566" />
	</node>
	<node id="-476370" lat="60.3656361149" lon="5.08379722963">
		<tag k="name" v="Råeidet" />
		<tag k="place" v="locality" />
		<tag k="ssr:stedsnr" v="956619" />
	</node>
	<node id="-474319" lat="60.3958083317" lon="5.09196389475">
		<tag k="name" v="Ættesundosen" />
		<tag k="natural" v="strait" />
		<tag k="ssr:stedsnr" v="288894" />
	</node>
	<node id="-474318" lat="60.395386107" lon="5.11935833396">
		<tag k="name" v="Notholmsundet" />
		<tag k="natural" v="strait" />
		<tag k="ssr:stedsnr" v="288883" />
	</node>
	<node id="-474317" lat="60.406180559" lon="5.09453888254">
		<tag k="name" v="Tangen" />
		<tag k="natural" v="cape" />
		<tag k="ssr:stedsnr" v="288881" />
	</node>
	<node id="-476364" lat="60.3812999998" lon="4.93616666086">
		<tag k="name" v="Lambholmen" />
		<tag k="place" v="locality" />
		<tag k="seamark:type" v="rock" />
		<tag k="ssr:stedsnr" v="956506" />
	</node>
	<node id="-476363" lat="60.3757555574" lon="4.95785277005">
		<tag k="name" v="Høgøyvika" />
		<tag k="natural" v="bay" />
		<tag k="ssr:stedsnr" v="956505" />
	</node>
	<node id="-474307" lat="60.319008337" lon="4.9677500023">
		<tag k="name" v="Notholmen" />
		<tag k="place" v="islet" />
		<tag k="ssr:stedsnr" v="288833" />
	</node>
	<node id="-476354" lat="60.3239944473" lon="4.95334999528">
		<tag k="fixme" v="consider seamark:type=rock or natural=shoal" />
		<tag k="name" v="Kluvikskjera" />
		<tag k="place" v="islet" />
		<tag k="ssr:stedsnr" v="956425" />
	</node>
	<node id="-476353" lat="60.3396777751" lon="4.97543611564">
		<tag k="name" v="Vestre Langøyvågen" />
		<tag k="natural" v="bay" />
		<tag k="ssr:stedsnr" v="956415" />
	</node>
	<node id="-474304" lat="60.3333722227" lon="5.15065276925">
		<tag k="fixme" v="consider seamark:type=rock or natural=shoal" />
		<tag k="name" v="Siggeskjeret" />
		<tag k="place" v="islet" />
		<tag k="ssr:stedsnr" v="288736" />
	</node>
	<node id="-476350" lat="60.2815277791" lon="5.0820916591">
		<tag k="name" v="Dalholmen" />
		<tag k="place" v="islet" />
		<tag k="ssr:stedsnr" v="956362" />
	</node>
	<node id="-476349" lat="60.4514055516" lon="4.89697221776">
		<tag k="name" v="Knappavågen" />
		<tag k="natural" v="bay" />
		<tag k="ssr:stedsnr" v="956326" />
	</node>
	<node id="-476387" lat="60.3687277734" lon="5.08899166609">
		<tag k="name" v="Vestra Høgøysundet" />
		<tag k="natural" v="strait" />
		<tag k="ssr:stedsnr" v="956971" />
	</node>
	<node id="-476347" lat="60.4422972259" lon="4.91161387997">
		<tag k="name" v="Kobbavika" />
		<tag k="natural" v="bay" />
		<tag k="ssr:stedsnr" v="956321" />
	</node>
	<node id="-474298" lat="60.2920916692" lon="5.02003611574">
		<tag k="name" v="Djupsvågen" />
		<tag k="natural" v="bay" />
		<tag k="ssr:stedsnr" v="288671" />
	</node>
	<node id="-474297" lat="60.3126194421" lon="5.06303333561">
		<tag k="name" v="Mjåsundet" />
		<tag k="natural" v="strait" />
		<tag k="ssr:stedsnr" v="288649" />
	</node>
	<node id="-476344" lat="60.3578998153" lon="5.09566966052">
		<tag k="name" v="Vestrevika" />
		<tag k="natural" v="bay" />
		<tag k="ssr:stedsnr" v="956297" />
	</node>
	<node id="-474294" lat="60.4553916641" lon="4.90674999488">
		<tag k="name" v="Illneset" />
		<tag k="natural" v="cape" />
		<tag k="ssr:stedsnr" v="288600" />
	</node>
	<node id="-476341" lat="60.4394861109" lon="4.90301389198">
		<tag k="name" v="Dydnestakkylleren" />
		<tag k="natural" v="strait" />
		<tag k="ssr:stedsnr" v="956277" />
	</node>
	<node id="-474292" lat="60.4542416643" lon="4.90093054752">
		<tag k="name" v="Midtgjona" />
		<tag k="natural" v="bay" />
		<tag k="ssr:stedsnr" v="288597" />
	</node>
	<node id="-476338" lat="60.3100944402" lon="4.99099165976">
		<tag k="name" v="Nordstøholmen" />
		<tag k="place" v="islet" />
		<tag k="ssr:stedsnr" v="955854" />
	</node>
	<node id="-476336" lat="60.3225222207" lon="4.98014999885">
		<tag k="name" v="Litlaflogo" />
		<tag k="place" v="island" />
		<tag k="ssr:stedsnr" v="955833" />
	</node>
	<node id="-476335" lat="60.3068000025" lon="4.92802777323">
		<tag k="name" v="Løten" />
		<tag k="place" v="island" />
		<tag k="ssr:stedsnr" v="955827" />
	</node>
	<node id="-476334" lat="60.3020722233" lon="4.89680000565">
		<tag k="fixme" v="consider seamark:type=rock or natural=shoal" />
		<tag k="name" v="Oddane" />
		<tag k="place" v="islet" />
		<tag k="ssr:stedsnr" v="955826" />
	</node>
	<node id="-476333" lat="60.3020027794" lon="4.93359721928">
		<tag k="fixme" v="consider seamark:type=rock or natural=shoal" />
		<tag k="name" v="Kvalskaget" />
		<tag k="place" v="islet" />
		<tag k="ssr:stedsnr" v="955824" />
	</node>
	<node id="-476332" lat="60.3044583311" lon="4.94504444611">
		<tag k="name" v="Grønholmen" />
		<tag k="place" v="islet" />
		<tag k="ssr:stedsnr" v="955817" />
	</node>
	<node id="-476331" lat="60.3068805548" lon="4.94333610858">
		<tag k="name" v="Straumsholmen" />
		<tag k="place" v="islet" />
		<tag k="ssr:stedsnr" v="955816" />
	</node>
	<node id="-476330" lat="60.3200666685" lon="4.94736665931">
		<tag k="name" v="Rundholmen" />
		<tag k="place" v="islet" />
		<tag k="ssr:stedsnr" v="955812" />
	</node>
	<node id="-476329" lat="60.3311805581" lon="5.18446110914">
		<tag k="name" v="Fløsteinspollen" />
		<tag k="natural" v="bay" />
		<tag k="ssr:stedsnr" v="955808" />
	</node>
	<node id="-476327" lat="60.3902416657" lon="5.15130555147">
		<tag k="name" v="Smikkevika" />
		<tag k="natural" v="bay" />
		<tag k="ssr:stedsnr" v="955802" />
	</node>
	<node id="-476323" lat="60.3356459522" lon="5.18293980583">
		<tag k="name" v="Revskolten" />
		<tag k="natural" v="cape" />
		<tag k="ssr:stedsnr" v="955772" />
	</node>
	<node id="-476322" lat="60.3301611114" lon="5.17225276899">
		<tag k="name" v="Katlavika" />
		<tag k="natural" v="bay" />
		<tag k="ssr:stedsnr" v="955767" />
	</node>
	<node id="-474273" lat="60.398544445" lon="4.92386388721">
		<tag k="name" v="Ytre Krabbholmane" />
		<tag k="place" v="islet" />
		<tag k="ssr:stedsnr" v="288456" />
	</node>
	<node id="-474272" lat="60.3757277822" lon="4.93047500144">
		<tag k="name" v="Søra Lambøyna" />
		<tag k="place" v="island" />
		<tag k="ssr:stedsnr" v="288418" />
	</node>
	<node id="-474271" lat="60.3686472227" lon="4.94568611895">
		<tag k="name" v="Søre Vågen" />
		<tag k="natural" v="bay" />
		<tag k="ssr:stedsnr" v="288407" />
	</node>
	<node id="-474270" lat="60.3918694423" lon="4.96803055538">
		<tag k="name" v="Eidesneset" />
		<tag k="natural" v="cape" />
		<tag k="ssr:stedsnr" v="288405" />
	</node>
	<node id="-474269" lat="60.3577083347" lon="4.97272777785">
		<tag k="name" v="Nyo" />
		<tag k="natural" v="cape" />
		<tag k="ssr:stedsnr" v="288394" />
	</node>
	<node id="-474268" lat="60.3299333321" lon="4.98266666399">
		<tag k="name" v="Kyrkjeholmane" />
		<tag k="place" v="islet" />
		<tag k="ssr:stedsnr" v="288377" />
	</node>
	<node id="-474267" lat="60.3403250025" lon="4.95705832541">
		<tag k="name" v="Skorpevågen" />
		<tag k="natural" v="bay" />
		<tag k="ssr:stedsnr" v="288373" />
	</node>
	<node id="-474266" lat="60.3258111123" lon="4.98019165925">
		<tag k="name" v="Linevika" />
		<tag k="natural" v="bay" />
		<tag k="ssr:stedsnr" v="288364" />
	</node>
	<node id="-474265" lat="60.4168083343" lon="4.90811945092">
		<tag k="name" v="Lokosen" />
		<tag k="natural" v="strait" />
		<tag k="ssr:stedsnr" v="288349" />
	</node>
	<node id="-476312" lat="60.4189027774" lon="4.90103610956">
		<tag k="name" v="Mannsholmen" />
		<tag k="place" v="locality" />
		<tag k="seamark:type" v="rock" />
		<tag k="ssr:stedsnr" v="955365" />
	</node>
	<node id="-474263" lat="60.3090750018" lon="4.950805561">
		<tag k="name" v="Narøyholmen" />
		<tag k="place" v="islet" />
		<tag k="ssr:stedsnr" v="288348" />
	</node>
	<node id="-474261" lat="60.424919445" lon="4.92876389401">
		<tag k="name" v="Nordre Gulosen" />
		<tag k="natural" v="strait" />
		<tag k="ssr:stedsnr" v="288342" />
	</node>
	<node id="-476308" lat="60.417055554" lon="4.93733888133">
		<tag k="name" v="Hjeltevågen" />
		<tag k="natural" v="bay" />
		<tag k="ssr:stedsnr" v="955313" />
	</node>
	<node id="-476307" lat="60.4233527808" lon="4.91812221302">
		<tag k="name" v="Gullevika" />
		<tag k="natural" v="bay" />
		<tag k="ssr:stedsnr" v="955314" />
	</node>
	<node id="-476306" lat="60.4575916699" lon="4.95723332561">
		<tag k="name" v="Pinnen" />
		<tag k="natural" v="cape" />
		<tag k="ssr:stedsnr" v="955028" />
	</node>
	<node id="-474257" lat="60.3056500004" lon="5.17318888583">
		<tag k="name" v="Notaneset" />
		<tag k="natural" v="cape" />
		<tag k="ssr:stedsnr" v="288332" />
	</node>
	<node id="-476304" lat="60.4415916655" lon="4.92272499484">
		<tag k="name" v="Grotevikneset" />
		<tag k="natural" v="cape" />
		<tag k="ssr:stedsnr" v="935926" />
	</node>
	<node id="-474255" lat="60.3147361117" lon="5.15922777865">
		<tag k="name" v="Skjervikneset" />
		<tag k="natural" v="cape" />
		<tag k="ssr:stedsnr" v="288327" />
	</node>
	<node id="-476302" lat="60.4051833304" lon="4.92925277027">
		<tag k="name" v="Nonssundet" />
		<tag k="natural" v="strait" />
		<tag k="ssr:stedsnr" v="935817" />
	</node>
	<node id="-476301" lat="60.3363555592" lon="4.96174443573">
		<tag k="name" v="Kobbavågen" />
		<tag k="natural" v="bay" />
		<tag k="ssr:stedsnr" v="935206" />
	</node>
	<node id="-476300" lat="60.3339697736" lon="4.98715224688">
		<tag k="fixme" v="consider seamark:type=rock or natural=shoal" />
		<tag k="name" v="Bleikskjera" />
		<tag k="place" v="islet" />
		<tag k="ssr:stedsnr" v="935204" />
	</node>
	<node id="-474250" lat="60.4156361084" lon="4.93016389441">
		<tag k="name" v="Smørvikane" />
		<tag k="natural" v="bay" />
		<tag k="ssr:stedsnr" v="288305" />
	</node>
	<node id="-474249" lat="60.2853083334" lon="5.08490000509">
		<tag k="name" v="Tellneset" />
		<tag k="natural" v="cape" />
		<tag k="ssr:stedsnr" v="288303" />
	</node>
	<node id="-474247" lat="60.4333694461" lon="4.96139444248">
		<tag k="name" v="Trettevika" />
		<tag k="natural" v="bay" />
		<tag k="ssr:stedsnr" v="288258" />
	</node>
	<node id="-474245" lat="60.2965722222" lon="5.18144721572">
		<tag k="name" v="Hestholmsundet" />
		<tag k="natural" v="strait" />
		<tag k="ssr:stedsnr" v="288244" />
	</node>
	<node id="-474244" lat="60.3824138861" lon="5.15708610907">
		<tag k="name" v="Knappavika" />
		<tag k="natural" v="bay" />
		<tag k="ssr:stedsnr" v="288119" />
	</node>
	<node id="-474243" lat="60.3581749966" lon="4.94260276952">
		<tag k="name" v="Breivika" />
		<tag k="natural" v="bay" />
		<tag k="ssr:stedsnr" v="288099" />
	</node>
	<node id="-474242" lat="60.3480916687" lon="4.92152777372">
		<tag k="name" v="Krabbakeila" />
		<tag k="natural" v="bay" />
		<tag k="ssr:stedsnr" v="288095" />
	</node>
	<node id="-474241" lat="60.4589083308" lon="4.98579167556">
		<tag k="name" v="Kvarvenden" />
		<tag k="natural" v="cape" />
		<tag k="ssr:stedsnr" v="288034" />
	</node>
	<node id="-474240" lat="60.3606472211" lon="5.16115833429">
		<tag k="name" v="Valahavnen" />
		<tag k="natural" v="bay" />
		<tag k="ssr:stedsnr" v="288022" />
	</node>
	<node id="-474239" lat="60.305836112" lon="4.9411638905">
		<tag k="name" v="Kylleren" />
		<tag k="natural" v="bay" />
		<tag k="ssr:stedsnr" v="288011" />
	</node>
	<node id="-476285" lat="60.3357583351" lon="4.87538056192">
		<tag k="name" v="Nordsteboen" />
		<tag k="natural" v="shoal" />
		<tag k="place" v="locality" />
		<tag k="ssr:stedsnr" v="916285" />
	</node>
	<node id="-476281" lat="60.3318861125" lon="4.87786389357">
		<tag k="name" v="Midtflua" />
		<tag k="natural" v="shoal" />
		<tag k="place" v="locality" />
		<tag k="ssr:stedsnr" v="916269" />
	</node>
	<node id="-476278" lat="60.4136750028" lon="5.00716943566">
		<tag k="name" v="Tranevågen" />
		<tag k="natural" v="bay" />
		<tag k="ssr:stedsnr" v="916201" />
	</node>
	<node id="-476277" lat="60.4127138878" lon="4.90259999485">
		<tag k="name" v="Lokøyna" />
		<tag k="place" v="islet" />
		<tag k="ssr:stedsnr" v="916193" />
	</node>
	<node id="-476276" lat="60.4187027793" lon="4.94725000741">
		<tag k="name" v="Landro-osen" />
		<tag k="natural" v="strait" />
		<tag k="ssr:stedsnr" v="916183" />
	</node>
	<node id="-476275" lat="60.4222805566" lon="4.90102777812">
		<tag k="name" v="Bleikene" />
		<tag k="place" v="islet" />
		<tag k="ssr:stedsnr" v="916181" />
	</node>
	<node id="-476271" lat="60.2994944446" lon="5.1707638829">
		<tag k="name" v="Litleholmen" />
		<tag k="place" v="islet" />
		<tag k="ssr:stedsnr" v="915845" />
	</node>
	<node id="-476270" lat="60.3672500024" lon="5.13951945131">
		<tag k="name" v="Arefjordpollen" />
		<tag k="natural" v="bay" />
		<tag k="ssr:stedsnr" v="915708" />
	</node>
	<node id="-476269" lat="60.4049388853" lon="5.09810833369">
		<tag k="name" v="Midtholmen" />
		<tag k="place" v="islet" />
		<tag k="ssr:stedsnr" v="915543" />
	</node>
	<node id="-476266" lat="60.3751250041" lon="4.95660832473">
		<tag k="name" v="Høgøyna" />
		<tag k="place" v="islet" />
		<tag k="ssr:stedsnr" v="915352" />
	</node>
	<node id="-476265" lat="60.38016111" lon="5.03704999863">
		<tag k="name" v="Høgholmen" />
		<tag k="place" v="islet" />
		<tag k="ssr:stedsnr" v="915347" />
	</node>
	<node id="-476264" lat="60.3657777744" lon="4.92493054971">
		<tag k="fixme" v="consider seamark:type=rock or natural=shoal" />
		<tag k="name" v="Flatskjeret" />
		<tag k="place" v="islet" />
		<tag k="ssr:stedsnr" v="915344" />
	</node>
	<node id="-476263" lat="60.4008138901" lon="4.9094777864">
		<tag k="fixme" v="consider seamark:type=rock or natural=shoal" />
		<tag k="name" v="Sandskjera" />
		<tag k="place" v="islet" />
		<tag k="ssr:stedsnr" v="915321" />
	</node>
	<node id="-476261" lat="60.4017499984" lon="5.07688332769">
		<tag k="name" v="Kjeholmen" />
		<tag k="place" v="islet" />
		<tag k="ssr:stedsnr" v="915309" />
	</node>
	<node id="-476260" lat="60.3988138867" lon="5.08274445256">
		<tag k="name" v="Kårmannsholmen" />
		<tag k="place" v="islet" />
		<tag k="ssr:stedsnr" v="915304" />
	</node>
	<node id="-476258" lat="60.3750527777" lon="4.94234722464">
		<tag k="name" v="Dyrøyna" />
		<tag k="place" v="island" />
		<tag k="ssr:stedsnr" v="915298" />
	</node>
	<node id="-476257" lat="60.3150055531" lon="4.90036389663">
		<tag k="fixme" v="consider seamark:type=rock or natural=shoal" />
		<tag k="name" v="Nyingane" />
		<tag k="place" v="islet" />
		<tag k="ssr:stedsnr" v="915283" />
	</node>
	<node id="-476256" lat="60.3119555563" lon="4.91540833363">
		<tag k="name" v="Kallsøyflua" />
		<tag k="natural" v="shoal" />
		<tag k="place" v="locality" />
		<tag k="ssr:stedsnr" v="915281" />
	</node>
	<node id="-476253" lat="60.4617388909" lon="4.9810888949">
		<tag k="name" v="Havrøyane" />
		<tag k="place" v="islet" />
		<tag k="ssr:stedsnr" v="915124" />
	</node>
	<node id="-476252" lat="60.442319443" lon="4.96947776946">
		<tag k="name" v="Skjervika" />
		<tag k="natural" v="bay" />
		<tag k="ssr:stedsnr" v="875915" />
	</node>
	<node id="-476251" lat="60.3859250014" lon="5.08694999079">
		<tag k="fixme" v="consider seamark:type=rock or natural=shoal" />
		<tag k="name" v="Veidskjeret" />
		<tag k="place" v="islet" />
		<tag k="ssr:stedsnr" v="874870" />
	</node>
	<node id="-476250" lat="60.3362194471" lon="5.16957777472">
		<tag k="name" v="Vonflua" />
		<tag k="natural" v="shoal" />
		<tag k="place" v="locality" />
		<tag k="ssr:stedsnr" v="874236" />
	</node>
	<node id="-476249" lat="60.4538583343" lon="4.89417499956">
		<tag k="name" v="Knappatåna" />
		<tag k="natural" v="cape" />
		<tag k="ssr:stedsnr" v="874209" />
	</node>
	<node id="-476345" lat="60.3818805529" lon="4.96114167477">
		<tag k="name" v="Giljholmen" />
		<tag k="place" v="locality" />
		<tag k="seamark:type" v="rock" />
		<tag k="ssr:stedsnr" v="956314" />
	</node>
	<node id="-476244" lat="60.3475305591" lon="4.98392778545">
		<tag k="fixme" v="consider seamark:type=rock or natural=shoal" />
		<tag k="name" v="Skålvikskjeret" />
		<tag k="place" v="islet" />
		<tag k="ssr:stedsnr" v="874022" />
	</node>
	<node id="-476230" lat="60.2955388934" lon="5.18488611309">
		<tag k="name" v="Hestholmen" />
		<tag k="place" v="islet" />
		<tag k="ssr:stedsnr" v="855857" />
	</node>
	<node id="-476229" lat="60.3284945974" lon="5.1880361902">
		<tag k="name" v="Sauholmen" />
		<tag k="place" v="islet" />
		<tag k="ssr:stedsnr" v="855821" />
	</node>
	<node id="-476227" lat="60.3769500043" lon="5.09792221829">
		<tag k="name" v="Foldnes" />
		<tag k="natural" v="cape" />
		<tag k="ssr:stedsnr" v="855697" />
	</node>
	<node id="-476225" lat="60.2958361112" lon="5.01537778211">
		<tag k="name" v="Bramsholmane" />
		<tag k="place" v="islet" />
		<tag k="ssr:stedsnr" v="855435" />
	</node>
	<node id="-476223" lat="60.2819916654" lon="5.08134166028">
		<tag k="name" v="Dalaholmen" />
		<tag k="place" v="islet" />
		<tag k="ssr:stedsnr" v="855428" />
	</node>
	<node id="-476220" lat="60.350844447" lon="4.87822777552">
		<tag k="name" v="Nordra Flua" />
		<tag k="natural" v="shoal" />
		<tag k="place" v="locality" />
		<tag k="ssr:stedsnr" v="855333" />
	</node>
	<node id="-476218" lat="60.390280552" lon="4.98600555562">
		<tag k="name" v="Kårtveitvika" />
		<tag k="natural" v="bay" />
		<tag k="ssr:stedsnr" v="855319" />
	</node>
	<node id="-476217" lat="60.3788666682" lon="4.92622222442">
		<tag k="fixme" v="consider seamark:type=rock or natural=shoal" />
		<tag k="name" v="Svartaskjeret" />
		<tag k="place" v="islet" />
		<tag k="ssr:stedsnr" v="855312" />
	</node>
	<node id="-476215" lat="60.33392778" lon="4.87483611163">
		<tag k="name" v="Nordstebostallen" />
		<tag k="natural" v="shoal" />
		<tag k="place" v="locality" />
		<tag k="ssr:stedsnr" v="855283" />
	</node>
	<node id="-476214" lat="60.3303981554" lon="4.96559677438">
		<tag k="name" v="Lokøyna" />
		<tag k="place" v="island" />
		<tag k="ssr:stedsnr" v="855273" />
	</node>
	<node id="-476213" lat="60.3288000024" lon="4.93985000547">
		<tag k="name" v="Lyngholmen" />
		<tag k="place" v="islet" />
		<tag k="ssr:stedsnr" v="855271" />
	</node>
	<node id="-476212" lat="60.4296668806" lon="5.01435675568">
		<tag k="name" v="Skarvbugvika" />
		<tag k="natural" v="bay" />
		<tag k="ssr:stedsnr" v="855172" />
	</node>
	<node id="-476209" lat="60.389213885" lon="5.07196943739">
		<tag k="name" v="Kobbavågen" />
		<tag k="natural" v="bay" />
		<tag k="ssr:stedsnr" v="846078" />
	</node>
	<node id="-476205" lat="60.3983499962" lon="5.08229721957">
		<tag k="name" v="Konemannsholmen" />
		<tag k="place" v="islet" />
		<tag k="ssr:stedsnr" v="835911" />
	</node>
	<node id="-476197" lat="60.4020388885" lon="5.03664999519">
		<tag k="name" v="Knappeidet" />
		<tag k="place" v="locality" />
		<tag k="ssr:stedsnr" v="835645" />
	</node>
	<node id="-476189" lat="60.4068166661" lon="4.92032499951">
		<tag k="name" v="Sandøyna" />
		<tag k="place" v="island" />
		<tag k="ssr:stedsnr" v="835526" />
	</node>
	<node id="-476188" lat="60.406513887" lon="4.92440277185">
		<tag k="name" v="Sandøyvågen" />
		<tag k="natural" v="bay" />
		<tag k="ssr:stedsnr" v="835524" />
	</node>
	<node id="-476187" lat="60.3406277761" lon="4.97996943787">
		<tag k="name" v="Eidet" />
		<tag k="place" v="locality" />
		<tag k="ssr:stedsnr" v="835516" />
	</node>
	<node id="-476186" lat="60.370958334" lon="4.93994443777">
		<tag k="name" v="Otravika" />
		<tag k="natural" v="bay" />
		<tag k="ssr:stedsnr" v="835492" />
	</node>
	<node id="-476185" lat="60.3338138849" lon="4.90391389334">
		<tag k="name" v="Sandkeila" />
		<tag k="natural" v="bay" />
		<tag k="ssr:stedsnr" v="835482" />
	</node>
	<node id="-476180" lat="60.3304972228" lon="4.9947000018">
		<tag k="name" v="Kylpa" />
		<tag k="natural" v="strait" />
		<tag k="ssr:stedsnr" v="835411" />
	</node>
	<node id="-476179" lat="60.3274416641" lon="4.94052777623">
		<tag k="name" v="Lyngholmssundet" />
		<tag k="natural" v="strait" />
		<tag k="ssr:stedsnr" v="835399" />
	</node>
	<node id="-476178" lat="60.3250694414" lon="4.90860000485">
		<tag k="name" v="Stumpakeilneset" />
		<tag k="natural" v="cape" />
		<tag k="ssr:stedsnr" v="835389" />
	</node>
	<node id="-476176" lat="60.307499996" lon="5.18071666504">
		<tag k="name" v="Havnen" />
		<tag k="natural" v="bay" />
		<tag k="ssr:stedsnr" v="835359" />
	</node>
	<node id="-476174" lat="60.2823638857" lon="5.08672499872">
		<tag k="name" v="Irsneset" />
		<tag k="natural" v="cape" />
		<tag k="ssr:stedsnr" v="835338" />
	</node>
	<node id="-476171" lat="60.457597219" lon="4.91691388261">
		<tag k="name" v="Skråpsosen" />
		<tag k="natural" v="strait" />
		<tag k="ssr:stedsnr" v="835271" />
	</node>
	<node id="-476170" lat="60.3621722217" lon="5.1433777732">
		<tag k="name" v="Skitnepollen" />
		<tag k="natural" v="bay" />
		<tag k="ssr:stedsnr" v="834986" />
	</node>
	<node id="-476167" lat="60.4267783464" lon="5.00953270523">
		<tag k="name" v="Geitneset" />
		<tag k="natural" v="cape" />
		<tag k="ssr:stedsnr" v="834952" />
	</node>
	<node id="-476166" lat="60.3769472209" lon="5.08641111773">
		<tag k="name" v="Brueidet" />
		<tag k="place" v="locality" />
		<tag k="ssr:stedsnr" v="834928" />
	</node>
	<node id="-476165" lat="60.3736643265" lon="5.11111652373">
		<tag k="name" v="Sørevågen" />
		<tag k="natural" v="bay" />
		<tag k="ssr:stedsnr" v="834907" />
	</node>
	<node id="-476163" lat="60.3210999962" lon="4.94138333566">
		<tag k="fixme" v="consider seamark:type=rock or natural=shoal" />
		<tag k="name" v="Ytstholmskjera" />
		<tag k="place" v="islet" />
		<tag k="ssr:stedsnr" v="834819" />
	</node>
	<node id="-476162" lat="60.3286583293" lon="5.185552782">
		<tag k="name" v="Mjølsundet" />
		<tag k="natural" v="strait" />
		<tag k="ssr:stedsnr" v="834805" />
	</node>
	<node id="-476158" lat="60.3339138894" lon="5.17505832434">
		<tag k="name" v="Nilsvika" />
		<tag k="natural" v="bay" />
		<tag k="ssr:stedsnr" v="834768" />
	</node>
	<node id="-476156" lat="60.2852416696" lon="5.04946666377">
		<tag k="name" v="Slåttevika" />
		<tag k="natural" v="bay" />
		<tag k="ssr:stedsnr" v="834698" />
	</node>
	<node id="-476155" lat="60.3069611142" lon="5.01401110647">
		<tag k="name" v="Svartovnen" />
		<tag k="natural" v="bay" />
		<tag k="ssr:stedsnr" v="834690" />
	</node>
	<node id="-476154" lat="60.4174166706" lon="4.89284722506">
		<tag k="name" v="Islandsholmen" />
		<tag k="place" v="locality" />
		<tag k="seamark:type" v="rock" />
		<tag k="ssr:stedsnr" v="834363" />
	</node>
	<node id="-476152" lat="60.4213499972" lon="5.00237777227">
		<tag k="name" v="Buneset" />
		<tag k="natural" v="cape" />
		<tag k="ssr:stedsnr" v="834338" />
	</node>
	<node id="-476150" lat="60.4201305582" lon="4.95622500046">
		<tag k="name" v="Kvalbøvika" />
		<tag k="natural" v="bay" />
		<tag k="ssr:stedsnr" v="834313" />
	</node>
	<node id="-476149" lat="60.4386250005" lon="4.9613638832">
		<tag k="name" v="Tjørevika" />
		<tag k="natural" v="bay" />
		<tag k="ssr:stedsnr" v="834278" />
	</node>
	<node id="-476144" lat="60.3454416694" lon="5.16012777001">
		<tag k="name" v="Pollen" />
		<tag k="natural" v="strait" />
		<tag k="ssr:stedsnr" v="834017" />
	</node>
	<node id="-476143" lat="60.3652861099" lon="5.13894999487">
		<tag k="name" v="Sauaneset" />
		<tag k="natural" v="cape" />
		<tag k="ssr:stedsnr" v="834015" />
	</node>
	<node id="-476142" lat="60.393952777" lon="5.13101666348">
		<tag k="name" v="Breivika" />
		<tag k="natural" v="bay" />
		<tag k="ssr:stedsnr" v="834002" />
	</node>
	<node id="-476139" lat="60.4369888902" lon="4.91864722442">
		<tag k="name" v="Giljeneset" />
		<tag k="natural" v="cape" />
		<tag k="ssr:stedsnr" v="813913" />
	</node>
	<node id="-474279" lat="60.3597055581" lon="5.05389444476">
		<tag k="name" v="Lonane" />
		<tag k="natural" v="bay" />
		<tag k="ssr:stedsnr" v="288495" />
	</node>
	<node id="-476136" lat="60.3482944434" lon="4.94049165829">
		<tag k="name" v="Søra Mynteidet" />
		<tag k="place" v="locality" />
		<tag k="ssr:stedsnr" v="813166" />
	</node>
	<node id="-476107" lat="60.3934055535" lon="4.95738888095">
		<tag k="name" v="Eidesosen" />
		<tag k="natural" v="strait" />
		<tag k="ssr:stedsnr" v="794306" />
	</node>
	<node id="-476127" lat="60.3307027776" lon="5.15467499257">
		<tag k="name" v="Kjerringholmen" />
		<tag k="place" v="islet" />
		<tag k="ssr:stedsnr" v="795788" />
	</node>
	<node id="-476124" lat="60.353472307" lon="5.11596439382">
		<tag k="name" v="Straumssundet" />
		<tag k="natural" v="strait" />
		<tag k="ssr:stedsnr" v="794741" />
	</node>
	<node id="-476122" lat="60.3529444465" lon="5.16109999998">
		<tag k="name" v="Austre Hestholmen" />
		<tag k="place" v="islet" />
		<tag k="ssr:stedsnr" v="794733" />
	</node>
	<node id="-476117" lat="60.3937833367" lon="5.12774444225">
		<tag k="name" v="Austevågen" />
		<tag k="natural" v="bay" />
		<tag k="ssr:stedsnr" v="794673" />
	</node>
	<node id="-476116" lat="60.3955861141" lon="5.11528610546">
		<tag k="name" v="Anglavika" />
		<tag k="natural" v="bay" />
		<tag k="ssr:stedsnr" v="794589" />
	</node>
	<node id="-476112" lat="60.3709166658" lon="4.88216944026">
		<tag k="name" v="Breiflustallen" />
		<tag k="natural" v="shoal" />
		<tag k="place" v="locality" />
		<tag k="ssr:stedsnr" v="794347" />
	</node>
	<node id="-476111" lat="60.3456749962" lon="4.93255834195">
		<tag k="name" v="Barmane" />
		<tag k="natural" v="bay" />
		<tag k="ssr:stedsnr" v="794323" />
	</node>
	<node id="-476110" lat="60.4012861099" lon="4.89273611799">
		<tag k="name" v="Sandskjerfluene" />
		<tag k="natural" v="shoal" />
		<tag k="place" v="locality" />
		<tag k="ssr:stedsnr" v="794316" />
	</node>
	<node id="-476109" lat="60.4079694415" lon="4.96347222491">
		<tag k="name" v="Austra Buarsundet" />
		<tag k="natural" v="strait" />
		<tag k="ssr:stedsnr" v="794310" />
	</node>
	<node id="-474274" lat="60.3581967096" lon="5.1147118794">
		<tag k="alt_name" v="Straumsvika" />
		<tag k="name" v="Nordra Straumsvika" />
		<tag k="natural" v="bay" />
		<tag k="ssr:stedsnr" v="288470" />
	</node>
	<node id="-476106" lat="60.3909277791" lon="4.9109916662">
		<tag k="name" v="Røvjane" />
		<tag k="natural" v="shoal" />
		<tag k="place" v="locality" />
		<tag k="ssr:stedsnr" v="794303" />
	</node>
	<node id="-476105" lat="60.401583338" lon="5.08251945203">
		<tag k="name" v="Gulholmen" />
		<tag k="place" v="islet" />
		<tag k="ssr:stedsnr" v="794301" />
	</node>
	<node id="-476104" lat="60.398872021" lon="5.0415621461">
		<tag k="name" v="Søre Knappavågen" />
		<tag k="natural" v="bay" />
		<tag k="ssr:stedsnr" v="794300" />
	</node>
	<node id="-476102" lat="60.3074082948" lon="4.93472253234">
		<tag k="name" v="Hissøyna" />
		<tag k="place" v="island" />
		<tag k="ssr:stedsnr" v="794264" />
	</node>
	<node id="-476321" lat="60.2938666652" lon="5.01355000027">
		<tag k="name" v="Håsundet" />
		<tag k="natural" v="strait" />
		<tag k="ssr:stedsnr" v="955741" />
	</node>
	<node id="-476099" lat="60.4198833353" lon="4.90655277406">
		<tag k="name" v="Kjeholmen" />
		<tag k="place" v="islet" />
		<tag k="ssr:stedsnr" v="794159" />
	</node>
	<node id="-476098" lat="60.4311027817" lon="4.99445000024">
		<tag k="name" v="Vindenespollen" />
		<tag k="natural" v="bay" />
		<tag k="ssr:stedsnr" v="794151" />
	</node>
	<node id="-476097" lat="60.4334138863" lon="4.8818361189">
		<tag k="name" v="Lønefallet" />
		<tag k="natural" v="shoal" />
		<tag k="place" v="locality" />
		<tag k="ssr:stedsnr" v="794145" />
	</node>
	<node id="-476096" lat="60.4428143066" lon="4.98504225685">
		<tag k="name" v="Straumen" />
		<tag k="natural" v="strait" />
		<tag k="ssr:stedsnr" v="794144" />
	</node>
	<node id="-476095" lat="60.4369888874" lon="4.99271944425">
		<tag k="name" v="Espholmen" />
		<tag k="place" v="islet" />
		<tag k="ssr:stedsnr" v="794143" />
	</node>
	<node id="-476094" lat="60.3860527735" lon="4.98618333742">
		<tag k="name" v="Nordre Eidesvågen" />
		<tag k="natural" v="bay" />
		<tag k="ssr:stedsnr" v="794291" />
	</node>
	<node id="-476093" lat="60.3948573318" lon="5.0730980758">
		<tag k="alt_name" v="Geitung" />
		<tag k="name" v="Geitanger" />
		<tag k="place" v="island" />
		<tag k="ssr:stedsnr" v="780306" />
	</node>
	<node id="-476089" lat="60.3967583348" lon="5.06523610955">
		<tag k="name" v="Steinsvika" />
		<tag k="natural" v="bay" />
		<tag k="ssr:stedsnr" v="774906" />
	</node>
	<node id="-476087" lat="60.2724333339" lon="5.11513610227">
		<tag k="name" v="Tytebærtåna" />
		<tag k="natural" v="cape" />
		<tag k="ssr:stedsnr" v="774883" />
	</node>
	<node id="-476082" lat="60.3429027736" lon="5.11357221915">
		<tag k="name" v="Nordra Døsjevika" />
		<tag k="natural" v="bay" />
		<tag k="ssr:stedsnr" v="774679" />
	</node>
	<node id="-476079" lat="60.4061111137" lon="5.03578611601">
		<tag k="name" v="Knappetåna" />
		<tag k="natural" v="cape" />
		<tag k="ssr:stedsnr" v="774667" />
	</node>
	<node id="-476078" lat="60.4009083332" lon="5.07313056284">
		<tag k="name" v="Koparvika" />
		<tag k="natural" v="bay" />
		<tag k="ssr:stedsnr" v="774655" />
	</node>
	<node id="-476317" lat="60.4627583325" lon="4.97855278155">
		<tag k="name" v="Nordre Havrøyane" />
		<tag k="place" v="island" />
		<tag k="ssr:stedsnr" v="955666" />
	</node>
	<node id="-476071" lat="60.3981694484" lon="4.98449721423">
		<tag k="name" v="Djupedalen" />
		<tag k="natural" v="bay" />
		<tag k="ssr:stedsnr" v="774558" />
	</node>
	<node id="-476070" lat="60.4034027738" lon="4.9867027729">
		<tag k="name" v="Breivika" />
		<tag k="natural" v="bay" />
		<tag k="ssr:stedsnr" v="774546" />
	</node>
	<node id="-476068" lat="60.3688027762" lon="4.93538056427">
		<tag k="fixme" v="consider seamark:type=rock or natural=shoal" />
		<tag k="name" v="Klubbeskjeret" />
		<tag k="place" v="islet" />
		<tag k="ssr:stedsnr" v="774497" />
	</node>
	<node id="-476065" lat="60.3247972225" lon="4.96914166271">
		<tag k="name" v="Rottepollen" />
		<tag k="natural" v="bay" />
		<tag k="ssr:stedsnr" v="774440" />
	</node>
	<node id="-476064" lat="60.3325944443" lon="4.98835834073">
		<tag k="name" v="Nordra Veløyvika" />
		<tag k="natural" v="bay" />
		<tag k="ssr:stedsnr" v="774424" />
	</node>
	<node id="-476063" lat="60.319466668" lon="5.15646944586">
		<tag k="name" v="Håkjerrsundet" />
		<tag k="natural" v="strait" />
		<tag k="ssr:stedsnr" v="774393" />
	</node>
	<node id="-476056" lat="60.372436115" lon="4.97084721428">
		<tag k="name" v="Galtasundet" />
		<tag k="natural" v="strait" />
		<tag k="ssr:stedsnr" v="774314" />
	</node>
	<node id="-476055" lat="60.3429555533" lon="5.12776389798">
		<tag k="name" v="Søra Knappavika" />
		<tag k="natural" v="bay" />
		<tag k="ssr:stedsnr" v="773998" />
	</node>
	<node id="-476052" lat="60.4321305515" lon="5.00924444608">
		<tag k="name" v="Høso" />
		<tag k="natural" v="bay" />
		<tag k="ssr:stedsnr" v="773942" />
	</node>
	<node id="-476049" lat="60.3808111083" lon="5.10506389486">
		<tag k="name" v="Nordre Vågen" />
		<tag k="natural" v="bay" />
		<tag k="ssr:stedsnr" v="773900" />
	</node>
	<node id="-474264" lat="60.3310111095" lon="4.89400277449">
		<tag k="name" v="Nordre vågen" />
		<tag k="natural" v="bay" />
		<tag k="ssr:stedsnr" v="288347" />
	</node>
	<node id="-476046" lat="60.312027777" lon="4.94751666723">
		<tag k="name" v="Duøysundet" />
		<tag k="natural" v="strait" />
		<tag k="ssr:stedsnr" v="773787" />
	</node>
	<node id="-476042" lat="60.3425888915" lon="5.16211388305">
		<tag k="name" v="Skrubbholmen" />
		<tag k="place" v="islet" />
		<tag k="ssr:stedsnr" v="773749" />
	</node>
	<node id="-476040" lat="60.3020209272" lon="5.03593815746">
		<tag k="name" v="Nesholmen" />
		<tag k="place" v="locality" />
		<tag k="seamark:type" v="rock" />
		<tag k="ssr:stedsnr" v="773728" />
	</node>
	<node id="-476039" lat="60.2992818557" lon="5.03913536278">
		<tag k="name" v="Moldneset" />
		<tag k="natural" v="cape" />
		<tag k="ssr:stedsnr" v="773721" />
	</node>
	<node id="-476032" lat="60.422311114" lon="4.92808888082">
		<tag k="name" v="Vestre Gullholmen" />
		<tag k="place" v="islet" />
		<tag k="ssr:stedsnr" v="773374" />
	</node>
	<node id="-476029" lat="60.4185222222" lon="4.92194167474">
		<tag k="name" v="Vollavikane" />
		<tag k="natural" v="bay" />
		<tag k="ssr:stedsnr" v="773341" />
	</node>
	<node id="-476028" lat="60.4212138904" lon="4.93191944452">
		<tag k="name" v="Gulleneset" />
		<tag k="natural" v="cape" />
		<tag k="ssr:stedsnr" v="773337" />
	</node>
	<node id="-476027" lat="60.4145194442" lon="4.93822777899">
		<tag k="name" v="Gulletåna" />
		<tag k="natural" v="cape" />
		<tag k="ssr:stedsnr" v="773336" />
	</node>
	<node id="-476024" lat="60.4343027803" lon="4.95938889352">
		<tag k="name" v="Bålholmen" />
		<tag k="place" v="locality" />
		<tag k="seamark:type" v="rock" />
		<tag k="ssr:stedsnr" v="773284" />
	</node>
	<node id="-476023" lat="60.4500166626" lon="4.9761333265">
		<tag k="name" v="Ospetangen" />
		<tag k="natural" v="cape" />
		<tag k="ssr:stedsnr" v="773280" />
	</node>
	<node id="-476022" lat="60.287524998" lon="5.00827777901">
		<tag k="name" v="Trollhola" />
		<tag k="natural" v="bay" />
		<tag k="ssr:stedsnr" v="773147" />
	</node>
	<node id="-476020" lat="60.2744583328" lon="5.0975583387">
		<tag k="name" v="Tellnesosen" />
		<tag k="natural" v="strait" />
		<tag k="ssr:stedsnr" v="773136" />
	</node>
	<node id="-476017" lat="60.3617611121" lon="4.92403888815">
		<tag k="fixme" v="consider seamark:type=rock or natural=shoal" />
		<tag k="name" v="Midtskjera" />
		<tag k="place" v="islet" />
		<tag k="ssr:stedsnr" v="773097" />
	</node>
	<node id="-476016" lat="60.3488027741" lon="4.93044167035">
		<tag k="name" v="Barmaneset" />
		<tag k="natural" v="cape" />
		<tag k="ssr:stedsnr" v="773091" />
	</node>
	<node id="-476015" lat="60.4563666671" lon="4.91706388211">
		<tag k="name" v="Svartanova" />
		<tag k="natural" v="cape" />
		<tag k="ssr:stedsnr" v="773023" />
	</node>
	<node id="-476012" lat="60.3053555525" lon="4.94686388876">
		<tag k="fixme" v="consider seamark:type=rock or natural=shoal" />
		<tag k="name" v="Anfinnskjeret" />
		<tag k="place" v="islet" />
		<tag k="ssr:stedsnr" v="773007" />
	</node>
	<node id="-476010" lat="60.3961583341" lon="5.12114445273">
		<tag k="name" v="Småholmane" />
		<tag k="place" v="islet" />
		<tag k="ssr:stedsnr" v="753863" />
	</node>
	<node id="-476009" lat="60.4018638921" lon="4.96573888361">
		<tag k="name" v="Kobbholmen" />
		<tag k="place" v="islet" />
		<tag k="ssr:stedsnr" v="753806" />
	</node>
	<node id="-476008" lat="60.3739861141" lon="4.92570554724">
		<tag k="fixme" v="consider seamark:type=rock or natural=shoal" />
		<tag k="name" v="Grytjo" />
		<tag k="place" v="islet" />
		<tag k="ssr:stedsnr" v="753789" />
	</node>
	<node id="-476005" lat="60.3475916627" lon="4.92138333001">
		<tag k="name" v="Langtrotten" />
		<tag k="natural" v="cape" />
		<tag k="ssr:stedsnr" v="752151" />
	</node>
	<node id="-475995" lat="60.2709888848" lon="5.11757221733">
		<tag k="name" v="Haganesholmen" />
		<tag k="place" v="islet" />
		<tag k="ssr:stedsnr" v="734933" />
	</node>
	<node id="-475994" lat="60.2741888844" lon="5.11995277624">
		<tag k="name" v="Haganesvika" />
		<tag k="natural" v="bay" />
		<tag k="ssr:stedsnr" v="734931" />
	</node>
	<node id="-475993" lat="60.3344305559" lon="5.18376388015">
		<tag k="name" v="Revatangen" />
		<tag k="natural" v="cape" />
		<tag k="ssr:stedsnr" v="734801" />
	</node>
	<node id="-475991" lat="60.3346202292" lon="5.12670994319">
		<tag k="name" v="Hovden" />
		<tag k="natural" v="cape" />
		<tag k="ssr:stedsnr" v="734792" />
	</node>
	<node id="-475990" lat="60.3162432379" lon="5.18569112846">
		<tag k="name" v="Vikane" />
		<tag k="natural" v="bay" />
		<tag k="ssr:stedsnr" v="734758" />
	</node>
	<node id="-475989" lat="60.3699888872" lon="5.1058500082">
		<tag k="name" v="Buholmen" />
		<tag k="place" v="islet" />
		<tag k="ssr:stedsnr" v="734680" />
	</node>
	<node id="-475984" lat="60.3210611089" lon="4.93678333879">
		<tag k="name" v="Ytsteholmane" />
		<tag k="place" v="islet" />
		<tag k="ssr:stedsnr" v="734345" />
	</node>
	<node id="-475983" lat="60.3244999965" lon="4.8803361099">
		<tag k="name" v="Seiaflua" />
		<tag k="natural" v="shoal" />
		<tag k="place" v="locality" />
		<tag k="ssr:stedsnr" v="734289" />
	</node>
	<node id="-475980" lat="60.4087916638" lon="4.92330556306">
		<tag k="name" v="Søra Sandøyna" />
		<tag k="place" v="island" />
		<tag k="ssr:stedsnr" v="734203" />
	</node>
	<node id="-475979" lat="60.4083111097" lon="4.90126388781">
		<tag k="name" v="Lokøyberget" />
		<tag k="place" v="islet" />
		<tag k="ssr:stedsnr" v="734202" />
	</node>
	<node id="-475977" lat="60.3588777754" lon="5.16337500759">
		<tag k="name" v="Ringholmen" />
		<tag k="place" v="islet" />
		<tag k="ssr:stedsnr" v="733724" />
	</node>
	<node id="-475974" lat="60.3642722204" lon="4.91915000624">
		<tag k="name" v="Tjørnøyboen" />
		<tag k="natural" v="shoal" />
		<tag k="place" v="locality" />
		<tag k="ssr:stedsnr" v="733345" />
	</node>
	<node id="-475972" lat="60.3516027807" lon="4.98824999356">
		<tag k="name" v="Apalvågen" />
		<tag k="natural" v="bay" />
		<tag k="ssr:stedsnr" v="733323" />
	</node>
	<node id="-475971" lat="60.4054388883" lon="5.03602500184">
		<tag k="name" v="Knappen" />
		<tag k="natural" v="cape" />
		<tag k="ssr:stedsnr" v="733314" />
	</node>
	<node id="-475970" lat="60.3955638861" lon="5.04914721403">
		<tag k="name" v="Spjeldsøyna" />
		<tag k="place" v="islet" />
		<tag k="ssr:stedsnr" v="733309" />
	</node>
	<node id="-475969" lat="60.3166333357" lon="4.94570833889">
		<tag k="name" v="Lokøyosen" />
		<tag k="natural" v="strait" />
		<tag k="ssr:stedsnr" v="733291" />
	</node>
	<node id="-475968" lat="60.3135388899" lon="4.94789166472">
		<tag k="name" v="Litla Narøyna" />
		<tag k="place" v="island" />
		<tag k="ssr:stedsnr" v="733288" />
	</node>
	<node id="-475967" lat="60.3006611151" lon="4.93094722116">
		<tag k="name" v="Skorholmen" />
		<tag k="place" v="islet" />
		<tag k="ssr:stedsnr" v="733275" />
	</node>
	<node id="-475964" lat="60.4577888915" lon="4.88317222173">
		<tag k="name" v="Vestra Breiflua" />
		<tag k="natural" v="shoal" />
		<tag k="place" v="locality" />
		<tag k="ssr:stedsnr" v="733234" />
	</node>
	<node id="-475963" lat="60.4347749988" lon="4.94386111022">
		<tag k="name" v="Oksen" />
		<tag k="place" v="islet" />
		<tag k="ssr:stedsnr" v="733169" />
	</node>
	<node id="-475962" lat="60.4391723763" lon="4.88187105181">
		<tag k="name" v="Mågøyna" />
		<tag k="place" v="islet" />
		<tag k="ssr:stedsnr" v="733155" />
	</node>
	<node id="-475961" lat="60.437803609" lon="4.90916524637">
		<tag k="name" v="Litla-Turøyna" />
		<tag k="place" v="island" />
		<tag k="ssr:stedsnr" v="733152" />
	</node>
	<node id="-475960" lat="60.4460499961" lon="4.94006944804">
		<tag k="name" v="Vindøyosen" />
		<tag k="natural" v="strait" />
		<tag k="ssr:stedsnr" v="733149" />
	</node>
	<node id="-475958" lat="60.3141472198" lon="5.18568889672">
		<tag k="name" v="Flundreneset" />
		<tag k="natural" v="cape" />
		<tag k="ssr:stedsnr" v="713981" />
	</node>
	<node id="-475946" lat="60.3989000037" lon="5.10510278194">
		<tag k="name" v="Ættesundet" />
		<tag k="natural" v="strait" />
		<tag k="ssr:stedsnr" v="713898" />
	</node>
	<node id="-475945" lat="60.2789416657" lon="5.05465833833">
		<tag k="name" v="Gulholmen" />
		<tag k="place" v="islet" />
		<tag k="ssr:stedsnr" v="713893" />
	</node>
	<node id="-475944" lat="60.2723916671" lon="5.10560278674">
		<tag k="name" v="Mjelkevika" />
		<tag k="natural" v="bay" />
		<tag k="ssr:stedsnr" v="713891" />
	</node>
	<node id="-475943" lat="60.2724194462" lon="5.1118944405">
		<tag k="name" v="Kjerringavika" />
		<tag k="natural" v="bay" />
		<tag k="ssr:stedsnr" v="713879" />
	</node>
	<node id="-475938" lat="60.4024999993" lon="5.06972222156">
		<tag k="name" v="Storvika" />
		<tag k="natural" v="bay" />
		<tag k="ssr:stedsnr" v="713624" />
	</node>
	<node id="-475932" lat="60.3618361148" lon="5.09310832518">
		<tag k="name" v="Søra Apalvika" />
		<tag k="natural" v="bay" />
		<tag k="ssr:stedsnr" v="713534" />
	</node>
	<node id="-475931" lat="60.3787611153" lon="4.94634444939">
		<tag k="name" v="Dyrøysundet" />
		<tag k="natural" v="strait" />
		<tag k="ssr:stedsnr" v="713479" />
	</node>
	<node id="-475930" lat="60.374550004" lon="4.94710000211">
		<tag k="name" v="Ospenova" />
		<tag k="natural" v="cape" />
		<tag k="ssr:stedsnr" v="713468" />
	</node>
	<node id="-476292" lat="60.3456638906" lon="5.11573611792">
		<tag k="name" v="Bykletten" />
		<tag k="natural" v="cape" />
		<tag k="ssr:stedsnr" v="916722" />
	</node>
	<node id="-475926" lat="60.335753694" lon="4.93365484747">
		<tag k="name" v="Ånesholmen" />
		<tag k="place" v="islet" />
		<tag k="ssr:stedsnr" v="713360" />
	</node>
	<node id="-475921" lat="60.4150916692" lon="4.91953610709">
		<tag k="name" v="Djupevika" />
		<tag k="natural" v="bay" />
		<tag k="ssr:stedsnr" v="713318" />
	</node>
	<node id="-475918" lat="60.364427782" lon="5.07509721673">
		<tag k="name" v="Steganeset" />
		<tag k="natural" v="cape" />
		<tag k="ssr:stedsnr" v="713271" />
	</node>
	<node id="-475916" lat="60.4508886475" lon="4.97306434662">
		<tag k="name" v="Ullkoneholmane" />
		<tag k="place" v="islet" />
		<tag k="ssr:stedsnr" v="713267" />
	</node>
	<node id="-475915" lat="60.4503249961" lon="4.97184165881">
		<tag k="name" v="Skiparsundet" />
		<tag k="natural" v="strait" />
		<tag k="ssr:stedsnr" v="713262" />
	</node>
	<node id="-475914" lat="60.4359361114" lon="4.91391667443">
		<tag k="fixme" v="consider seamark:type=rock or natural=shoal" />
		<tag k="name" v="Tøkeskjeret" />
		<tag k="place" v="islet" />
		<tag k="ssr:stedsnr" v="713259" />
	</node>
	<node id="-475913" lat="60.4366777816" lon="4.90763611133">
		<tag k="name" v="Turøyeidet" />
		<tag k="place" v="locality" />
		<tag k="ssr:stedsnr" v="713251" />
	</node>
	<node id="-475911" lat="60.3072250013" lon="4.97052221989">
		<tag k="name" v="Ramskorholmen" />
		<tag k="place" v="islet" />
		<tag k="ssr:stedsnr" v="712838" />
	</node>
	<node id="-476289" lat="60.3262948968" lon="4.93569562225">
		<tag k="name" v="Austre Skjenholmen" />
		<tag k="place" v="islet" />
		<tag k="ssr:stedsnr" v="916333" />
	</node>
	<node id="-475908" lat="60.3281111139" lon="5.1689916663">
		<tag k="name" v="Fløytet" />
		<tag k="natural" v="bay" />
		<tag k="ssr:stedsnr" v="712766" />
	</node>
	<node id="-475907" lat="60.3343888901" lon="5.15888888347">
		<tag k="name" v="Tangen" />
		<tag k="natural" v="cape" />
		<tag k="ssr:stedsnr" v="712764" />
	</node>
	<node id="-476288" lat="60.3454097146" lon="4.94371915458">
		<tag k="name" v="Skjervika" />
		<tag k="natural" v="bay" />
		<tag k="ssr:stedsnr" v="916293" />
	</node>
	<node id="-476287" lat="60.3431944441" lon="4.91267777462">
		<tag k="name" v="Sandflua" />
		<tag k="natural" v="shoal" />
		<tag k="place" v="locality" />
		<tag k="ssr:stedsnr" v="916288" />
	</node>
	<node id="-475890" lat="60.3587138883" lon="4.93264722826">
		<tag k="name" v="Sanden" />
		<tag k="natural" v="strait" />
		<tag k="ssr:stedsnr" v="712093" />
	</node>
	<node id="-475889" lat="60.3595861083" lon="4.94236943684">
		<tag k="name" v="Klubbesundet" />
		<tag k="natural" v="strait" />
		<tag k="ssr:stedsnr" v="712092" />
	</node>
	<node id="-475888" lat="60.3757499966" lon="5.15956110741">
		<tag k="name" v="Gardsvika" />
		<tag k="natural" v="bay" />
		<tag k="ssr:stedsnr" v="712039" />
	</node>
	<node id="-475887" lat="60.4555472754" lon="4.95581801065">
		<tag k="name" v="Djupevika" />
		<tag k="natural" v="bay" />
		<tag k="ssr:stedsnr" v="712028" />
	</node>
	<node id="-475886" lat="60.4485777787" lon="4.93270277538">
		<tag k="name" v="Kattholmen" />
		<tag k="place" v="locality" />
		<tag k="seamark:type" v="rock" />
		<tag k="ssr:stedsnr" v="712025" />
	</node>
	<node id="-475885" lat="60.3258799069" lon="5.18657022057">
		<tag k="name" v="Neset" />
		<tag k="natural" v="cape" />
		<tag k="ssr:stedsnr" v="712018" />
	</node>
	<node id="-475884" lat="60.2989027807" lon="5.17695277524">
		<tag k="fixme" v="consider seamark:type=rock or natural=shoal" />
		<tag k="name" v="Glåmsnesskjeret" />
		<tag k="place" v="islet" />
		<tag k="ssr:stedsnr" v="712012" />
	</node>
	<node id="-475883" lat="60.3924611146" lon="5.14524722987">
		<tag k="name" v="Giljeneset" />
		<tag k="natural" v="cape" />
		<tag k="ssr:stedsnr" v="712004" />
	</node>
	<node id="-475882" lat="60.3957333332" lon="5.13581943854">
		<tag k="name" v="Saltskoen" />
		<tag k="natural" v="cape" />
		<tag k="ssr:stedsnr" v="712002" />
	</node>
	<node id="-475881" lat="60.4189444428" lon="4.9568944374">
		<tag k="name" v="Søra Landroneset" />
		<tag k="natural" v="cape" />
		<tag k="ssr:stedsnr" v="693819" />
	</node>
	<node id="-475880" lat="60.386847222" lon="5.10403888168">
		<tag k="name" v="Bekkjarvika" />
		<tag k="natural" v="bay" />
		<tag k="ssr:stedsnr" v="692796" />
	</node>
	<node id="-475879" lat="60.3416055578" lon="4.98666943949">
		<tag k="name" v="Breivika" />
		<tag k="natural" v="bay" />
		<tag k="ssr:stedsnr" v="692211" />
	</node>
	<node id="-475878" lat="60.2922638912" lon="5.01989444406">
		<tag k="name" v="Jusvågen" />
		<tag k="natural" v="bay" />
		<tag k="ssr:stedsnr" v="692201" />
	</node>
	<node id="-476303" lat="60.4230861091" lon="4.98558056135">
		<tag k="name" v="Olsvika" />
		<tag k="natural" v="bay" />
		<tag k="ssr:stedsnr" v="935908" />
	</node>
	<node id="-475866" lat="60.34068889" lon="5.15947499139">
		<tag k="name" v="Notholmen" />
		<tag k="place" v="islet" />
		<tag k="ssr:stedsnr" v="673801" />
	</node>
	<node id="-475865" lat="60.3275916671" lon="5.15805556196">
		<tag k="name" v="Austre Steinsundholmen" />
		<tag k="place" v="islet" />
		<tag k="ssr:stedsnr" v="673777" />
	</node>
	<node id="-475862" lat="60.3698444409" lon="4.92032221621">
		<tag k="fixme" v="consider seamark:type=rock or natural=shoal" />
		<tag k="name" v="Raudeskjera" />
		<tag k="place" v="islet" />
		<tag k="ssr:stedsnr" v="673531" />
	</node>
	<node id="-475859" lat="60.3194499975" lon="4.95612499687">
		<tag k="name" v="Geitarøyna" />
		<tag k="place" v="islet" />
		<tag k="ssr:stedsnr" v="673326" />
	</node>
	<node id="-475855" lat="60.3355166654" lon="4.88447777345">
		<tag k="name" v="Onglaflua" />
		<tag k="natural" v="shoal" />
		<tag k="place" v="locality" />
		<tag k="ssr:stedsnr" v="673284" />
	</node>
	<node id="-475854" lat="60.3221027801" lon="4.89202499715">
		<tag k="fixme" v="consider seamark:type=rock or natural=shoal" />
		<tag k="name" v="Svartaskjeret" />
		<tag k="place" v="islet" />
		<tag k="ssr:stedsnr" v="673282" />
	</node>
	<node id="-475851" lat="60.4169666694" lon="4.89771389748">
		<tag k="name" v="Kristofferholmen" />
		<tag k="place" v="islet" />
		<tag k="ssr:stedsnr" v="673188" />
	</node>
	<node id="-475850" lat="60.4309527816" lon="5.01101667016">
		<tag k="name" v="Austevågen" />
		<tag k="natural" v="bay" />
		<tag k="ssr:stedsnr" v="673185" />
	</node>
	<node id="-475849" lat="60.4309166701" lon="4.95512777518">
		<tag k="name" v="Geitarøyna" />
		<tag k="place" v="islet" />
		<tag k="ssr:stedsnr" v="673183" />
	</node>
	<node id="-475848" lat="60.4400888889" lon="4.94339721865">
		<tag k="name" v="Stora Vindøyna" />
		<tag k="place" v="islet" />
		<tag k="ssr:stedsnr" v="673167" />
	</node>
	<node id="-475846" lat="60.3043000018" lon="5.17991110398">
		<tag k="name" v="Flundrevika" />
		<tag k="natural" v="bay" />
		<tag k="ssr:stedsnr" v="672851" />
	</node>
	<node id="-475845" lat="60.3640305568" lon="5.1083583371">
		<tag k="name" v="Straumsosen" />
		<tag k="natural" v="bay" />
		<tag k="ssr:stedsnr" v="672719" />
	</node>
	<node id="-475844" lat="60.3831638867" lon="5.03949721638">
		<tag k="name" v="Flatholmen" />
		<tag k="place" v="islet" />
		<tag k="ssr:stedsnr" v="672338" />
	</node>
	<node id="-475843" lat="60.3660444479" lon="4.94751389251">
		<tag k="name" v="Buarøyna" />
		<tag k="place" v="islet" />
		<tag k="ssr:stedsnr" v="672328" />
	</node>
	<node id="-475842" lat="60.4081694423" lon="4.94229167178">
		<tag k="name" v="Krabbholmane" />
		<tag k="place" v="islet" />
		<tag k="ssr:stedsnr" v="672302" />
	</node>
	<node id="-475841" lat="60.4051555526" lon="5.05762777138">
		<tag k="name" v="Brotet" />
		<tag k="natural" v="shoal" />
		<tag k="place" v="locality" />
		<tag k="ssr:stedsnr" v="672296" />
	</node>
	<node id="-475840" lat="60.3899194414" lon="4.86761388036">
		<tag k="name" v="Landroboen" />
		<tag k="natural" v="shoal" />
		<tag k="place" v="locality" />
		<tag k="ssr:stedsnr" v="672295" />
	</node>
	<node id="-475839" lat="60.40183056" lon="5.06898055753">
		<tag k="name" v="Kjevesteinen" />
		<tag k="natural" v="cape" />
		<tag k="ssr:stedsnr" v="672293" />
	</node>
	<node id="-475838" lat="60.3870027804" lon="4.87586666087">
		<tag k="name" v="Pollaflua" />
		<tag k="natural" v="shoal" />
		<tag k="place" v="locality" />
		<tag k="ssr:stedsnr" v="672286" />
	</node>
	<node id="-475836" lat="60.4566916703" lon="4.92057499169">
		<tag k="name" v="Bofluene" />
		<tag k="natural" v="shoal" />
		<tag k="place" v="locality" />
		<tag k="ssr:stedsnr" v="672225" />
	</node>
	<node id="-475835" lat="60.4479583342" lon="4.88088611099">
		<tag k="name" v="Sandøyna" />
		<tag k="place" v="islet" />
		<tag k="ssr:stedsnr" v="672125" />
	</node>
	<node id="-475834" lat="60.444883337" lon="4.85250556337">
		<tag k="fixme" v="consider seamark:type=rock or natural=shoal" />
		<tag k="name" v="Ertenskjeret" />
		<tag k="place" v="islet" />
		<tag k="ssr:stedsnr" v="672120" />
	</node>
	<node id="-475833" lat="60.4426416659" lon="4.85435554851">
		<tag k="name" v="Ertenskjerflua" />
		<tag k="natural" v="shoal" />
		<tag k="place" v="locality" />
		<tag k="ssr:stedsnr" v="672119" />
	</node>
	<node id="-475828" lat="60.3169222264" lon="5.18653333689">
		<tag k="name" v="Vikaneset" />
		<tag k="natural" v="cape" />
		<tag k="ssr:stedsnr" v="652973" />
	</node>
	<node id="-475827" lat="60.4347833321" lon="5.0140055542">
		<tag k="name" v="Nordra Skarvbogvika" />
		<tag k="natural" v="bay" />
		<tag k="ssr:stedsnr" v="652959" />
	</node>
	<node id="-475826" lat="60.369497219" lon="5.11016111256">
		<tag k="name" v="Sunda" />
		<tag k="natural" v="strait" />
		<tag k="ssr:stedsnr" v="652945" />
	</node>
	<node id="-475825" lat="60.3778666663" lon="5.05849722257">
		<tag k="name" v="Hella" />
		<tag k="natural" v="cape" />
		<tag k="ssr:stedsnr" v="652937" />
	</node>
	<node id="-475824" lat="60.3811111118" lon="5.0413111135">
		<tag k="name" v="Insta Skjenstøa" />
		<tag k="natural" v="beach" />
		<tag k="place" v="locality" />
		<tag k="ssr:stedsnr" v="652923" />
	</node>
	<node id="-475823" lat="60.3734583375" lon="5.06213611217">
		<tag k="name" v="Mikjelsskaget" />
		<tag k="natural" v="cape" />
		<tag k="ssr:stedsnr" v="652918" />
	</node>
	<node id="-475820" lat="60.3949583324" lon="5.11781111337">
		<tag k="name" v="Vikholmen" />
		<tag k="place" v="locality" />
		<tag k="seamark:type" v="rock" />
		<tag k="ssr:stedsnr" v="652884" />
	</node>
	<node id="-475819" lat="60.3951583363" lon="5.12069167061">
		<tag k="name" v="Purkholmen" />
		<tag k="place" v="locality" />
		<tag k="seamark:type" v="rock" />
		<tag k="ssr:stedsnr" v="652883" />
	</node>
	<node id="-475818" lat="60.3901888926" lon="5.0675305467">
		<tag k="name" v="Skaget" />
		<tag k="natural" v="cape" />
		<tag k="ssr:stedsnr" v="652879" />
	</node>
	<node id="-475817" lat="60.4039027802" lon="5.09550833189">
		<tag k="name" v="Brattholmsvågen" />
		<tag k="natural" v="bay" />
		<tag k="ssr:stedsnr" v="652878" />
	</node>
	<node id="-475816" lat="60.3920277781" lon="5.10015000896">
		<tag k="name" v="Låtrevikneset" />
		<tag k="natural" v="cape" />
		<tag k="ssr:stedsnr" v="652871" />
	</node>
	<node id="-475797" lat="60.4040305533" lon="4.96621666228">
		<tag k="name" v="Breiholmen" />
		<tag k="place" v="islet" />
		<tag k="ssr:stedsnr" v="652492" />
	</node>
	<node id="-475796" lat="60.4031166712" lon="4.9655555635">
		<tag k="name" v="Notholmen" />
		<tag k="place" v="locality" />
		<tag k="seamark:type" v="rock" />
		<tag k="ssr:stedsnr" v="652489" />
	</node>
	<node id="-475795" lat="60.3898999968" lon="4.98525000784">
		<tag k="name" v="Kårtveitvågen" />
		<tag k="natural" v="bay" />
		<tag k="ssr:stedsnr" v="652480" />
	</node>
	<node id="-475794" lat="60.3721720413" lon="4.9243920555">
		<tag k="fixme" v="consider seamark:type=rock or natural=shoal" />
		<tag k="name" v="Høgøyskjera" />
		<tag k="place" v="islet" />
		<tag k="ssr:stedsnr" v="652463" />
	</node>
	<node id="-475793" lat="60.3778555534" lon="4.96818889524">
		<tag k="name" v="Sandvika" />
		<tag k="natural" v="bay" />
		<tag k="ssr:stedsnr" v="652452" />
	</node>
	<node id="-475927" lat="60.3272194427" lon="4.99968611852">
		<tag k="name" v="Leirvika" />
		<tag k="natural" v="bay" />
		<tag k="ssr:stedsnr" v="713365" />
	</node>
	<node id="-475784" lat="60.3445244657" lon="4.93502474684">
		<tag k="name" v="Boganeset" />
		<tag k="natural" v="cape" />
		<tag k="ssr:stedsnr" v="652343" />
	</node>
	<node id="-475783" lat="60.3230916712" lon="4.90251667143">
		<tag k="name" v="Sørenden" />
		<tag k="natural" v="cape" />
		<tag k="ssr:stedsnr" v="652333" />
	</node>
	<node id="-475781" lat="60.3089611126" lon="5.13450556006">
		<tag k="name" v="Søra Vika" />
		<tag k="natural" v="bay" />
		<tag k="ssr:stedsnr" v="652312" />
	</node>
	<node id="-475774" lat="60.41094167" lon="4.93106945184">
		<tag k="name" v="Søre Kjeholmen" />
		<tag k="place" v="islet" />
		<tag k="ssr:stedsnr" v="652280" />
	</node>
	<node id="-475773" lat="60.3616277773" lon="5.08295833548">
		<tag k="name" v="Kolltveitosen" />
		<tag k="natural" v="bay" />
		<tag k="ssr:stedsnr" v="652233" />
	</node>
	<node id="-475772" lat="60.4503206974" lon="4.97014835312">
		<tag k="name" v="Søberholmen" />
		<tag k="place" v="islet" />
		<tag k="ssr:stedsnr" v="652226" />
	</node>
	<node id="-475771" lat="60.4123111148" lon="4.91690832955">
		<tag k="name" v="Nordra Sandøyna" />
		<tag k="place" v="island" />
		<tag k="ssr:stedsnr" v="652209" />
	</node>
	<node id="-475769" lat="60.3570444435" lon="5.15604444319">
		<tag k="name" v="Høgøyna" />
		<tag k="place" v="island" />
		<tag k="ssr:stedsnr" v="651995" />
	</node>
	<node id="-475767" lat="60.364016667" lon="5.13669444935">
		<tag k="name" v="Stekervika" />
		<tag k="natural" v="bay" />
		<tag k="ssr:stedsnr" v="651986" />
	</node>
	<node id="-475766" lat="60.3195777791" lon="4.95930000337">
		<tag k="name" v="Litla Geitarøyna" />
		<tag k="place" v="island" />
		<tag k="ssr:stedsnr" v="651822" />
	</node>
	<node id="-475765" lat="60.303641665" lon="4.9417055634">
		<tag k="name" v="Kjeholmen" />
		<tag k="place" v="islet" />
		<tag k="ssr:stedsnr" v="651811" />
	</node>
	<node id="-475763" lat="60.3007638897" lon="5.18016945117">
		<tag k="name" v="Glåmsneset" />
		<tag k="natural" v="cape" />
		<tag k="ssr:stedsnr" v="651794" />
	</node>
	<node id="-475761" lat="60.334763892" lon="5.12564721388">
		<tag k="name" v="Eidet" />
		<tag k="place" v="locality" />
		<tag k="ssr:stedsnr" v="651784" />
	</node>
	<node id="-475760" lat="60.2969277807" lon="5.04628611021">
		<tag k="name" v="Djupsvågen" />
		<tag k="natural" v="bay" />
		<tag k="ssr:stedsnr" v="651698" />
	</node>
	<node id="-475759" lat="60.2981326636" lon="5.05629743041">
		<tag k="name" v="Nordra Kyrkjevika" />
		<tag k="natural" v="bay" />
		<tag k="ssr:stedsnr" v="651693" />
	</node>
	<node id="-475757" lat="60.4587555539" lon="4.98024167253">
		<tag k="name" v="Havrøyna" />
		<tag k="place" v="island" />
		<tag k="ssr:stedsnr" v="651660" />
	</node>
	<node id="-475753" lat="60.2717472189" lon="5.11382222625">
		<tag k="fixme" v="consider seamark:type=rock or natural=shoal" />
		<tag k="name" v="Bleikene" />
		<tag k="place" v="islet" />
		<tag k="ssr:stedsnr" v="651144" />
	</node>
	<node id="-475751" lat="60.3602916654" lon="4.94785556206">
		<tag k="name" v="Nøtevika" />
		<tag k="natural" v="bay" />
		<tag k="ssr:stedsnr" v="651108" />
	</node>
	<node id="-475748" lat="60.274877782" lon="5.05969443656">
		<tag k="name" v="Brakavika" />
		<tag k="natural" v="bay" />
		<tag k="ssr:stedsnr" v="646568" />
	</node>
	<node id="-475746" lat="60.4565388849" lon="4.96155000398">
		<tag k="name" v="Misjesundet" />
		<tag k="natural" v="strait" />
		<tag k="ssr:stedsnr" v="631925" />
	</node>
	<node id="-475745" lat="60.4235083348" lon="4.99034722121">
		<tag k="name" v="Breivika" />
		<tag k="natural" v="bay" />
		<tag k="ssr:stedsnr" v="631913" />
	</node>
	<node id="-475742" lat="60.3012996415" lon="5.1333525995">
		<tag k="fixme" v="consider seamark:type=rock or natural=shoal" />
		<tag k="name" v="Liaskjeret" />
		<tag k="place" v="islet" />
		<tag k="ssr:stedsnr" v="630132" />
	</node>
	<node id="-475732" lat="60.3739426869" lon="5.11075172574">
		<tag k="alt_name" v="Søre Foldnesvågen" />
		<tag k="name" v="Storevågen" />
		<tag k="natural" v="bay" />
		<tag k="ssr:stedsnr" v="613592" />
	</node>
	<node id="-475731" lat="60.3080861088" lon="5.18222500171">
		<tag k="name" v="Vardaneset" />
		<tag k="natural" v="cape" />
		<tag k="ssr:stedsnr" v="613585" />
	</node>
	<node id="-475730" lat="60.3374194468" lon="5.16328611062">
		<tag k="name" v="Vonfluholmen" />
		<tag k="place" v="islet" />
		<tag k="ssr:stedsnr" v="612793" />
	</node>
	<node id="-475729" lat="60.3220361116" lon="5.15315278551">
		<tag k="name" v="Steinsundet" />
		<tag k="natural" v="strait" />
		<tag k="ssr:stedsnr" v="612775" />
	</node>
	<node id="-475728" lat="60.3107000017" lon="5.16116944827">
		<tag k="name" v="Fløytet" />
		<tag k="natural" v="bay" />
		<tag k="ssr:stedsnr" v="612758" />
	</node>
	<node id="-475727" lat="60.3555361112" lon="5.16190000466">
		<tag k="name" v="Langholmen" />
		<tag k="place" v="islet" />
		<tag k="ssr:stedsnr" v="612743" />
	</node>
	<node id="-475724" lat="60.4030590742" lon="5.10548211382">
		<tag k="name" v="Litle Brattholmen" />
		<tag k="place" v="islet" />
		<tag k="ssr:stedsnr" v="612608" />
	</node>
	<node id="-475722" lat="60.2925750002" lon="5.04872777197">
		<tag k="name" v="Straumsholmen" />
		<tag k="place" v="islet" />
		<tag k="ssr:stedsnr" v="612467" />
	</node>
	<node id="-475720" lat="60.3519694429" lon="4.93899722127">
		<tag k="name" v="Kungvika" />
		<tag k="natural" v="bay" />
		<tag k="ssr:stedsnr" v="612380" />
	</node>
	<node id="-475719" lat="60.3527249968" lon="4.95578889256">
		<tag k="name" v="Algrøyna" />
		<tag k="place" v="island" />
		<tag k="ssr:stedsnr" v="612377" />
	</node>
	<node id="-475717" lat="60.4274749973" lon="4.9943638863">
		<tag k="name" v="Buholmen" />
		<tag k="place" v="islet" />
		<tag k="ssr:stedsnr" v="612194" />
	</node>
	<node id="-475716" lat="60.4174999988" lon="4.94103610938">
		<tag k="fixme" v="consider seamark:type=rock or natural=shoal" />
		<tag k="name" v="Skarvaskjeret" />
		<tag k="place" v="islet" />
		<tag k="ssr:stedsnr" v="612192" />
	</node>
	<node id="-475715" lat="60.4196555511" lon="4.89507499599">
		<tag k="name" v="Hattholmen" />
		<tag k="place" v="islet" />
		<tag k="ssr:stedsnr" v="612189" />
	</node>
	<node id="-475713" lat="60.3716055594" lon="4.88910556004">
		<tag k="name" v="Seiflua" />
		<tag k="natural" v="shoal" />
		<tag k="place" v="locality" />
		<tag k="ssr:stedsnr" v="611383" />
	</node>
	<node id="-475712" lat="60.3684530584" lon="4.88098596092">
		<tag k="name" v="Breiflua" />
		<tag k="natural" v="shoal" />
		<tag k="place" v="locality" />
		<tag k="ssr:stedsnr" v="611381" />
	</node>
	<node id="-475711" lat="60.3715083315" lon="4.98294999383">
		<tag k="name" v="Søre Eidesvågen" />
		<tag k="natural" v="bay" />
		<tag k="ssr:stedsnr" v="611370" />
	</node>
	<node id="-475710" lat="60.398280559" lon="4.96719999705">
		<tag k="name" v="Vardøyna" />
		<tag k="place" v="islet" />
		<tag k="ssr:stedsnr" v="611336" />
	</node>
	<node id="-475702" lat="60.3512491587" lon="5.16278433876">
		<tag k="name" v="Brattholmen" />
		<tag k="place" v="islet" />
		<tag k="ssr:stedsnr" v="591997" />
	</node>
	<node id="-475697" lat="60.3841472181" lon="5.10061111411">
		<tag k="name" v="Nordre Klubben" />
		<tag k="natural" v="cape" />
		<tag k="ssr:stedsnr" v="591949" />
	</node>
	<node id="-475696" lat="60.3834249995" lon="5.04704999634">
		<tag k="name" v="Knappskogvika" />
		<tag k="natural" v="bay" />
		<tag k="ssr:stedsnr" v="591919" />
	</node>
	<node id="-475694" lat="60.4018638891" lon="5.10440833752">
		<tag k="name" v="Storasundet" />
		<tag k="natural" v="strait" />
		<tag k="ssr:stedsnr" v="591876" />
	</node>
	<node id="-475693" lat="60.2787749999" lon="5.05376667146">
		<tag k="name" v="Kvernavika" />
		<tag k="natural" v="bay" />
		<tag k="ssr:stedsnr" v="591872" />
	</node>
	<node id="-475691" lat="60.3140694441" lon="4.94998332608">
		<tag k="name" v="Insta Havnasundet" />
		<tag k="natural" v="strait" />
		<tag k="ssr:stedsnr" v="591796" />
	</node>
	<node id="-475689" lat="60.3286055536" lon="5.13100277">
		<tag k="name" v="Sanden" />
		<tag k="natural" v="bay" />
		<tag k="ssr:stedsnr" v="591771" />
	</node>
	<node id="-476365" lat="60.3957916654" lon="4.984866675">
		<tag k="name" v="Putlevika" />
		<tag k="natural" v="bay" />
		<tag k="ssr:stedsnr" v="956552" />
	</node>
	<node id="-475686" lat="60.304972222" lon="5.0555527841">
		<tag k="name" v="Selvågneset" />
		<tag k="natural" v="cape" />
		<tag k="ssr:stedsnr" v="591668" />
	</node>
	<node id="-475685" lat="60.3048044435" lon="5.01707653216">
		<tag k="name" v="Blåbærklubben" />
		<tag k="natural" v="cape" />
		<tag k="ssr:stedsnr" v="591666" />
	</node>
	<node id="-475683" lat="60.4566526723" lon="4.96750013688">
		<tag k="name" v="Samsholmen" />
		<tag k="place" v="islet" />
		<tag k="ssr:stedsnr" v="591631" />
	</node>
	<node id="-475678" lat="60.3989888848" lon="5.04991111751">
		<tag k="name" v="Nordra Skaget" />
		<tag k="natural" v="cape" />
		<tag k="ssr:stedsnr" v="591584" />
	</node>
	<node id="-475677" lat="60.3934944432" lon="5.04444167358">
		<tag k="name" v="Klungersneset" />
		<tag k="natural" v="cape" />
		<tag k="ssr:stedsnr" v="591583" />
	</node>
	<node id="-475674" lat="60.4022861108" lon="4.9610805566">
		<tag k="name" v="Ternholmen" />
		<tag k="place" v="locality" />
		<tag k="seamark:type" v="rock" />
		<tag k="ssr:stedsnr" v="591484" />
	</node>
	<node id="-475673" lat="60.368808331" lon="4.94187222729">
		<tag k="name" v="Sundet" />
		<tag k="natural" v="strait" />
		<tag k="ssr:stedsnr" v="591444" />
	</node>
	<node id="-475672" lat="60.3281972185" lon="4.89913054896">
		<tag k="name" v="Lønevågen" />
		<tag k="natural" v="bay" />
		<tag k="ssr:stedsnr" v="591418" />
	</node>
	<node id="-475668" lat="60.3356861145" lon="4.97501943782">
		<tag k="name" v="Kveitavika" />
		<tag k="natural" v="bay" />
		<tag k="ssr:stedsnr" v="591380" />
	</node>
	<node id="-475667" lat="60.3372611142" lon="4.95883610406">
		<tag k="name" v="Grunnasundet" />
		<tag k="natural" v="strait" />
		<tag k="ssr:stedsnr" v="591373" />
	</node>
	<node id="-475666" lat="60.3123055518" lon="5.16272499434">
		<tag k="name" v="Bekkjarvika" />
		<tag k="natural" v="bay" />
		<tag k="ssr:stedsnr" v="591336" />
	</node>
	<node id="-475665" lat="60.3154749997" lon="5.13767499687">
		<tag k="name" v="Molltveitvika" />
		<tag k="natural" v="bay" />
		<tag k="ssr:stedsnr" v="591337" />
	</node>
	<node id="-475662" lat="60.3242888875" lon="5.16286389579">
		<tag k="name" v="Trettevika" />
		<tag k="natural" v="bay" />
		<tag k="ssr:stedsnr" v="591320" />
	</node>
	<node id="-475659" lat="60.4291444416" lon="4.99715000886">
		<tag k="name" v="Gangstøa" />
		<tag k="natural" v="bay" />
		<tag k="ssr:stedsnr" v="591315" />
	</node>
	<node id="-475652" lat="60.4427916677" lon="4.95684167141">
		<tag k="name" v="Skjervika" />
		<tag k="natural" v="bay" />
		<tag k="ssr:stedsnr" v="591243" />
	</node>
	<node id="-475648" lat="60.2982388925" lon="4.99911389113">
		<tag k="name" v="Vestre Hjartøyvågen" />
		<tag k="natural" v="bay" />
		<tag k="ssr:stedsnr" v="591114" />
	</node>
	<node id="-475646" lat="60.3577083342" lon="4.93047778528">
		<tag k="name" v="Insta Kåravika" />
		<tag k="natural" v="bay" />
		<tag k="ssr:stedsnr" v="591073" />
	</node>
	<node id="-475645" lat="60.3580722214" lon="4.93363610884">
		<tag k="name" v="Sevskaget" />
		<tag k="natural" v="cape" />
		<tag k="ssr:stedsnr" v="591068" />
	</node>
	<node id="-475644" lat="60.3470361084" lon="4.98473611599">
		<tag k="name" v="Skjervika" />
		<tag k="natural" v="bay" />
		<tag k="ssr:stedsnr" v="591066" />
	</node>
	<node id="-475643" lat="60.3614249975" lon="4.95553889262">
		<tag k="name" v="Sveskaget" />
		<tag k="natural" v="cape" />
		<tag k="ssr:stedsnr" v="591064" />
	</node>
	<node id="-475641" lat="60.3016305515" lon="5.1798472304">
		<tag k="name" v="Røyto" />
		<tag k="natural" v="bay" />
		<tag k="ssr:stedsnr" v="591003" />
	</node>
	<node id="-475638" lat="60.407525002" lon="5.10772499107">
		<tag k="name" v="Grunnen" />
		<tag k="natural" v="shoal" />
		<tag k="place" v="locality" />
		<tag k="ssr:stedsnr" v="571809" />
	</node>
	<node id="-475637" lat="60.4485805533" lon="4.92486944522">
		<tag k="name" v="Turøyvågen" />
		<tag k="natural" v="bay" />
		<tag k="ssr:stedsnr" v="570912" />
	</node>
	<node id="-475636" lat="60.426538892" lon="5.00952221331">
		<tag k="name" v="Vindneset" />
		<tag k="natural" v="cape" />
		<tag k="ssr:stedsnr" v="570862" />
	</node>
	<node id="-475634" lat="60.4071055534" lon="4.96045555696">
		<tag k="name" v="Insta Buarøyna" />
		<tag k="place" v="island" />
		<tag k="ssr:stedsnr" v="570846" />
	</node>
	<node id="-475633" lat="60.4646166689" lon="4.89317777179">
		<tag k="name" v="Midtra Breiflua" />
		<tag k="natural" v="shoal" />
		<tag k="place" v="locality" />
		<tag k="ssr:stedsnr" v="570332" />
	</node>
	<node id="-475632" lat="60.2913777791" lon="5.03539445284">
		<tag k="name" v="Kallestadvika" />
		<tag k="natural" v="bay" />
		<tag k="ssr:stedsnr" v="570183" />
	</node>
	<node id="-475631" lat="60.2854472179" lon="5.07775832868">
		<tag k="name" v="Dalavågen" />
		<tag k="natural" v="bay" />
		<tag k="ssr:stedsnr" v="570181" />
	</node>
	<node id="-475628" lat="60.3333249956" lon="5.12649443879">
		<tag k="name" v="Nordre Ekrhovdvågen" />
		<tag k="natural" v="bay" />
		<tag k="ssr:stedsnr" v="570096" />
	</node>
	<node id="-475627" lat="60.3667722263" lon="5.09740556139">
		<tag k="name" v="Trettholmen" />
		<tag k="place" v="islet" />
		<tag k="ssr:stedsnr" v="570074" />
	</node>
	<node id="-475615" lat="60.3263444468" lon="5.16795833503">
		<tag k="name" v="Klubben" />
		<tag k="natural" v="cape" />
		<tag k="ssr:stedsnr" v="552654" />
	</node>
	<node id="-475614" lat="60.4430000037" lon="4.87894722648">
		<tag k="name" v="Kvaløyna" />
		<tag k="place" v="islet" />
		<tag k="ssr:stedsnr" v="552582" />
	</node>
	<node id="-475612" lat="60.3265722247" lon="5.15464444165">
		<tag k="name" v="Vestre Steinsundholmen" />
		<tag k="place" v="islet" />
		<tag k="ssr:stedsnr" v="551815" />
	</node>
	<node id="-475607" lat="60.3997916658" lon="5.10259444517">
		<tag k="name" v="Hjeltholmen" />
		<tag k="place" v="islet" />
		<tag k="ssr:stedsnr" v="551573" />
	</node>
	<node id="-475605" lat="60.2975888931" lon="4.91943610563">
		<tag k="name" v="Gryteboen" />
		<tag k="natural" v="shoal" />
		<tag k="place" v="locality" />
		<tag k="ssr:stedsnr" v="551440" />
	</node>
	<node id="-475604" lat="60.3791944413" lon="4.95185278322">
		<tag k="name" v="Djupålsøyna" />
		<tag k="place" v="island" />
		<tag k="ssr:stedsnr" v="551360" />
	</node>
	<node id="-475600" lat="60.3612027778" lon="4.92198332494">
		<tag k="name" v="Nordra Tjørnøyna" />
		<tag k="place" v="islet" />
		<tag k="ssr:stedsnr" v="551345" />
	</node>
	<node id="-475599" lat="60.3648111091" lon="5.07650277634">
		<tag k="name" v="Råsundet" />
		<tag k="natural" v="strait" />
		<tag k="ssr:stedsnr" v="551341" />
	</node>
	<node id="-475597" lat="60.4063194426" lon="4.90828055462">
		<tag k="name" v="Skarholmane" />
		<tag k="place" v="islet" />
		<tag k="ssr:stedsnr" v="551331" />
	</node>
	<node id="-475595" lat="60.4016583336" lon="4.95275277013">
		<tag k="name" v="Vestra Buarsundet" />
		<tag k="natural" v="strait" />
		<tag k="ssr:stedsnr" v="551329" />
	</node>
	<node id="-475594" lat="60.4088888868" lon="5.0164638884">
		<tag k="name" v="Mathopen" />
		<tag k="natural" v="bay" />
		<tag k="ssr:stedsnr" v="551326" />
	</node>
	<node id="-475592" lat="60.3870999998" lon="4.91277222249">
		<tag k="name" v="Kallsøyna" />
		<tag k="place" v="islet" />
		<tag k="ssr:stedsnr" v="551320" />
	</node>
	<node id="-475591" lat="60.3903527786" lon="5.05284721321">
		<tag k="name" v="Ormavika" />
		<tag k="natural" v="bay" />
		<tag k="ssr:stedsnr" v="551317" />
	</node>
	<node id="-475590" lat="60.3224333306" lon="4.97314444171">
		<tag k="name" v="Flògo" />
		<tag k="place" v="island" />
		<tag k="ssr:stedsnr" v="551313" />
	</node>
	<node id="-475589" lat="60.3203583331" lon="4.94978333701">
		<tag k="name" v="Søre Klauvholmen" />
		<tag k="place" v="islet" />
		<tag k="ssr:stedsnr" v="551308" />
	</node>
	<node id="-475588" lat="60.327102774" lon="4.94528054915">
		<tag k="name" v="Mortholmen" />
		<tag k="place" v="islet" />
		<tag k="ssr:stedsnr" v="551310" />
	</node>
	<node id="-475587" lat="60.3169138911" lon="5.06555000708">
		<tag k="name" v="Litlepollen" />
		<tag k="natural" v="bay" />
		<tag k="ssr:stedsnr" v="551301" />
	</node>
	<node id="-475586" lat="60.335150004" lon="4.92529167378">
		<tag k="name" v="Illneset" />
		<tag k="natural" v="cape" />
		<tag k="ssr:stedsnr" v="551273" />
	</node>
	<node id="-475585" lat="60.3277083297" lon="4.88924999516">
		<tag k="name" v="Sengholmen" />
		<tag k="place" v="islet" />
		<tag k="ssr:stedsnr" v="551270" />
	</node>
	<node id="-475583" lat="60.4115638888" lon="4.91785000828">
		<tag k="name" v="Nordra Sandøyna" />
		<tag k="place" v="island" />
		<tag k="ssr:stedsnr" v="551196" />
	</node>
	<node id="-475581" lat="60.4345250043" lon="4.93343055596">
		<tag k="fixme" v="consider seamark:type=rock or natural=shoal" />
		<tag k="name" v="Gulskjeret" />
		<tag k="place" v="islet" />
		<tag k="ssr:stedsnr" v="551177" />
	</node>
	<node id="-475580" lat="60.4274611094" lon="4.93020834013">
		<tag k="name" v="Hjelmo" />
		<tag k="old_name" v="Hjelmo, store;Storahjelmo" />
		<tag k="place" v="islet" />
		<tag k="ssr:stedsnr" v="551175" />
	</node>
	<node id="-475579" lat="60.4421444446" lon="4.99049999454">
		<tag k="name" v="Kåsa" />
		<tag k="natural" v="bay" />
		<tag k="ssr:stedsnr" v="551168" />
	</node>
	<node id="-475578" lat="60.4387638931" lon="4.86676666313">
		<tag k="name" v="Meodden" />
		<tag k="place" v="islet" />
		<tag k="ssr:stedsnr" v="551163" />
	</node>
	<node id="-475577" lat="60.4459388913" lon="4.90501944602">
		<tag k="name" v="Søndagsholmen" />
		<tag k="place" v="islet" />
		<tag k="ssr:stedsnr" v="551146" />
	</node>
	<node id="-475576" lat="60.4578569256" lon="4.97536451604">
		<tag k="alt_name" v="Håvaren" />
		<tag k="name" v="Håvarden" />
		<tag k="natural" v="shoal" />
		<tag k="place" v="locality" />
		<tag k="ssr:stedsnr" v="551140" />
	</node>
	<node id="-475575" lat="60.4556777751" lon="4.96550554805">
		<tag k="name" v="Naustholmen" />
		<tag k="place" v="islet" />
		<tag k="ssr:stedsnr" v="551139" />
	</node>
	<node id="-475574" lat="60.3185777751" lon="5.19041944547">
		<tag k="name" v="Skiparneset" />
		<tag k="natural" v="cape" />
		<tag k="ssr:stedsnr" v="540759" />
	</node>
	<node id="-475572" lat="60.3818972236" lon="5.10491389509">
		<tag k="name" v="Skieneset" />
		<tag k="natural" v="cape" />
		<tag k="ssr:stedsnr" v="531961" />
	</node>
	<node id="-475571" lat="60.3823750012" lon="5.08650833681">
		<tag k="name" v="Laksvika" />
		<tag k="natural" v="bay" />
		<tag k="ssr:stedsnr" v="531947" />
	</node>
	<node id="-475568" lat="60.3952666624" lon="5.10057777954">
		<tag k="name" v="Teistaberghola" />
		<tag k="natural" v="bay" />
		<tag k="ssr:stedsnr" v="531912" />
	</node>
	<node id="-475567" lat="60.4018388854" lon="5.08641111297">
		<tag k="name" v="Brattholmssundet" />
		<tag k="natural" v="strait" />
		<tag k="ssr:stedsnr" v="531907" />
	</node>
	<node id="-475563" lat="60.3894583335" lon="5.11775834169">
		<tag k="name" v="Sandvika" />
		<tag k="natural" v="bay" />
		<tag k="ssr:stedsnr" v="531642" />
	</node>
	<node id="-475562" lat="60.3937888873" lon="5.11793610613">
		<tag k="name" v="Austevika" />
		<tag k="natural" v="bay" />
		<tag k="ssr:stedsnr" v="531638" />
	</node>
	<node id="-475552" lat="60.3481722205" lon="5.10735555709">
		<tag k="name" v="Vollvika" />
		<tag k="natural" v="bay" />
		<tag k="ssr:stedsnr" v="531555" />
	</node>
	<node id="-475551" lat="60.4006805553" lon="4.98651111587">
		<tag k="name" v="Klenevika" />
		<tag k="natural" v="bay" />
		<tag k="ssr:stedsnr" v="531547" />
	</node>
	<node id="-475550" lat="60.4063027752" lon="4.9531444505">
		<tag k="name" v="Veggjasundet" />
		<tag k="natural" v="strait" />
		<tag k="ssr:stedsnr" v="531537" />
	</node>
	<node id="-475549" lat="60.3880027788" lon="4.94280833343">
		<tag k="name" v="Vestre Langholmen" />
		<tag k="place" v="locality" />
		<tag k="seamark:type" v="rock" />
		<tag k="ssr:stedsnr" v="531535" />
	</node>
	<node id="-475548" lat="60.4071888877" lon="4.96421388576">
		<tag k="name" v="Teistholmsundet" />
		<tag k="natural" v="strait" />
		<tag k="ssr:stedsnr" v="531533" />
	</node>
	<node id="-475547" lat="60.3897611106" lon="4.96819443938">
		<tag k="name" v="Tørkevika" />
		<tag k="natural" v="bay" />
		<tag k="ssr:stedsnr" v="531531" />
	</node>
	<node id="-475545" lat="60.3833972254" lon="4.95283333154">
		<tag k="name" v="Breiabukta" />
		<tag k="natural" v="bay" />
		<tag k="ssr:stedsnr" v="531495" />
	</node>
	<node id="-475544" lat="60.377124997" lon="4.93573611404">
		<tag k="name" v="Ånesholmen" />
		<tag k="place" v="locality" />
		<tag k="seamark:type" v="rock" />
		<tag k="ssr:stedsnr" v="531494" />
	</node>
	<node id="-475541" lat="60.331513892" lon="4.93575555815">
		<tag k="name" v="Skorpeosen" />
		<tag k="natural" v="strait" />
		<tag k="ssr:stedsnr" v="531458" />
	</node>
	<node id="-475540" lat="60.3290166659" lon="4.99549166794">
		<tag k="name" v="Straumen" />
		<tag k="natural" v="strait" />
		<tag k="ssr:stedsnr" v="531396" />
	</node>
	<node id="-475539" lat="60.335875001" lon="4.97031111737">
		<tag k="name" v="Gløshellervågen" />
		<tag k="natural" v="bay" />
		<tag k="ssr:stedsnr" v="531389" />
	</node>
	<node id="-475538" lat="60.3262555577" lon="4.93304444617">
		<tag k="name" v="Skjenholmssundet" />
		<tag k="natural" v="strait" />
		<tag k="ssr:stedsnr" v="531383" />
	</node>
	<node id="-475537" lat="60.323591668" lon="5.15746667474">
		<tag k="name" v="Søra Steinsundet" />
		<tag k="natural" v="strait" />
		<tag k="ssr:stedsnr" v="531364" />
	</node>
	<node id="-475536" lat="60.3053083346" lon="5.17904722436">
		<tag k="name" v="Glåmsneset" />
		<tag k="natural" v="cape" />
		<tag k="ssr:stedsnr" v="531359" />
	</node>
	<node id="-475529" lat="60.2906500035" lon="5.0915861188">
		<tag k="name" v="Espevikneset" />
		<tag k="natural" v="cape" />
		<tag k="ssr:stedsnr" v="531331" />
	</node>
	<node id="-475528" lat="60.3868027796" lon="4.95312222724">
		<tag k="name" v="Langholmen" />
		<tag k="place" v="islet" />
		<tag k="ssr:stedsnr" v="531307" />
	</node>
	<node id="-475527" lat="60.3753083317" lon="4.96006110333">
		<tag k="name" v="Litlholmen" />
		<tag k="place" v="locality" />
		<tag k="seamark:type" v="rock" />
		<tag k="ssr:stedsnr" v="531305" />
	</node>
	<node id="-475526" lat="60.3783888881" lon="4.96408889715">
		<tag k="name" v="Halsane" />
		<tag k="natural" v="strait" />
		<tag k="ssr:stedsnr" v="531297" />
	</node>
	<node id="-475524" lat="60.4339138927" lon="4.91301111777">
		<tag k="fixme" v="consider seamark:type=rock or natural=shoal" />
		<tag k="name" v="Avløpsskjeret" />
		<tag k="place" v="islet" />
		<tag k="ssr:stedsnr" v="531267" />
	</node>
	<node id="-475522" lat="60.3427361064" lon="5.12776110321">
		<tag k="name" v="Knappavika" />
		<tag k="natural" v="bay" />
		<tag k="ssr:stedsnr" v="530999" />
	</node>
	<node id="-475521" lat="60.3556861118" lon="5.15511944335">
		<tag k="name" v="Høgøykylleren" />
		<tag k="natural" v="strait" />
		<tag k="ssr:stedsnr" v="530990" />
	</node>
	<node id="-475519" lat="60.3121166643" lon="4.97009167294">
		<tag k="name" v="Kjerhovdsundet" />
		<tag k="natural" v="strait" />
		<tag k="ssr:stedsnr" v="530841" />
	</node>
	<node id="-475518" lat="60.3227555593" lon="4.98753888478">
		<tag k="name" v="Monsholmen" />
		<tag k="place" v="islet" />
		<tag k="ssr:stedsnr" v="530822" />
	</node>
	<node id="-475517" lat="60.3905027785" lon="5.14803055266">
		<tag k="name" v="Bassvika" />
		<tag k="natural" v="bay" />
		<tag k="ssr:stedsnr" v="530791" />
	</node>
	<node id="-475516" lat="60.334874996" lon="5.1378944453">
		<tag k="name" v="Tomasneset" />
		<tag k="natural" v="cape" />
		<tag k="ssr:stedsnr" v="530780" />
	</node>
	<node id="-475515" lat="60.3335111131" lon="5.12595555154">
		<tag k="name" v="Pollen" />
		<tag k="natural" v="strait" />
		<tag k="ssr:stedsnr" v="530759" />
	</node>
	<node id="-475514" lat="60.2938277803" lon="5.03037222296">
		<tag k="name" v="Mjelkevikneset" />
		<tag k="natural" v="cape" />
		<tag k="ssr:stedsnr" v="530731" />
	</node>
	<node id="-475502" lat="60.426280559" lon="4.96266944537">
		<tag k="name" v="Ovika" />
		<tag k="natural" v="bay" />
		<tag k="ssr:stedsnr" v="530344" />
	</node>
	<node id="-475501" lat="60.4256305584" lon="4.99777778195">
		<tag k="name" v="Skjåvika" />
		<tag k="natural" v="bay" />
		<tag k="ssr:stedsnr" v="530338" />
	</node>
	<node id="-475500" lat="60.2762416636" lon="5.11751110743">
		<tag k="name" v="Notaneset" />
		<tag k="natural" v="cape" />
		<tag k="ssr:stedsnr" v="530149" />
	</node>
	<node id="-475496" lat="60.3614055512" lon="4.92753054858">
		<tag k="name" v="Midtskjersundet" />
		<tag k="natural" v="strait" />
		<tag k="ssr:stedsnr" v="530112" />
	</node>
	<node id="-475495" lat="60.3657138912" lon="4.98083055665">
		<tag k="name" v="Buskevika" />
		<tag k="natural" v="bay" />
		<tag k="ssr:stedsnr" v="530093" />
	</node>
	<node id="-475492" lat="60.2965694427" lon="5.13513056443">
		<tag k="name" v="Småvågneset" />
		<tag k="natural" v="cape" />
		<tag k="ssr:stedsnr" v="530005" />
	</node>
	<node id="-475489" lat="60.413922219" lon="5.01598056353">
		<tag k="name" v="Tranholmen" />
		<tag k="place" v="islet" />
		<tag k="ssr:stedsnr" v="510904" />
	</node>
	<node id="-475488" lat="60.3167216442" lon="5.18481217577">
		<tag k="name" v="Breivika" />
		<tag k="natural" v="bay" />
		<tag k="ssr:stedsnr" v="510217" />
	</node>
	<node id="-475487" lat="60.2998611134" lon="5.05157499607">
		<tag k="name" v="Breiavika" />
		<tag k="natural" v="bay" />
		<tag k="ssr:stedsnr" v="510216" />
	</node>
	<node id="-475486" lat="60.3098666638" lon="5.0675777856">
		<tag k="name" v="Skotbergosen" />
		<tag k="natural" v="bay" />
		<tag k="ssr:stedsnr" v="510215" />
	</node>
	<node id="-475485" lat="60.4344055593" lon="5.01732499152">
		<tag k="name" v="Kalvaneset" />
		<tag k="natural" v="cape" />
		<tag k="ssr:stedsnr" v="510179" />
	</node>
	<node id="-475484" lat="60.2814583356" lon="5.09313610415">
		<tag k="name" v="Skogsvågen" />
		<tag k="natural" v="bay" />
		<tag k="ssr:stedsnr" v="509059" />
	</node>
	<node id="-475470" lat="60.3395249978" lon="5.16421666873">
		<tag k="name" v="Hella" />
		<tag k="place" v="islet" />
		<tag k="ssr:stedsnr" v="491787" />
	</node>
	<node id="-475468" lat="60.3665083353" lon="4.94004999571">
		<tag k="name" v="Høgøyna" />
		<tag k="place" v="islet" />
		<tag k="ssr:stedsnr" v="491539" />
	</node>
	<node id="-475466" lat="60.3255027787" lon="4.96922777576">
		<tag k="name" v="Lokøyvågen" />
		<tag k="natural" v="bay" />
		<tag k="ssr:stedsnr" v="491330" />
	</node>
	<node id="-475464" lat="60.4124250024" lon="4.88969445101">
		<tag k="name" v="Lokøyboane" />
		<tag k="natural" v="shoal" />
		<tag k="place" v="locality" />
		<tag k="ssr:stedsnr" v="491187" />
	</node>
	<node id="-475463" lat="60.4218027757" lon="4.91367777542">
		<tag k="name" v="Årebrotet" />
		<tag k="place" v="islet" />
		<tag k="ssr:stedsnr" v="491182" />
	</node>
	<node id="-475462" lat="60.3044666657" lon="5.1655250088">
		<tag k="name" v="Høganeset" />
		<tag k="natural" v="cape" />
		<tag k="ssr:stedsnr" v="490867" />
	</node>
	<node id="-475458" lat="60.3326083378" lon="4.97701667089">
		<tag k="name" v="Vindkjeften" />
		<tag k="natural" v="strait" />
		<tag k="ssr:stedsnr" v="491268" />
	</node>
	<node id="-475452" lat="60.3642888884" lon="4.97256389257">
		<tag k="name" v="Sekkingstadosen" />
		<tag k="natural" v="strait" />
		<tag k="ssr:stedsnr" v="490348" />
	</node>
	<node id="-475451" lat="60.3634111138" lon="4.96020278331">
		<tag k="name" v="Knutholmen" />
		<tag k="place" v="islet" />
		<tag k="ssr:stedsnr" v="490340" />
	</node>
	<node id="-475450" lat="60.3524805539" lon="4.92583055243">
		<tag k="name" v="Smalaneset" />
		<tag k="natural" v="cape" />
		<tag k="ssr:stedsnr" v="490337" />
	</node>
	<node id="-475449" lat="60.3458305528" lon="4.88328888039">
		<tag k="name" v="Søra Flua" />
		<tag k="natural" v="shoal" />
		<tag k="place" v="locality" />
		<tag k="ssr:stedsnr" v="490336" />
	</node>
	<node id="-475446" lat="60.3037111133" lon="4.9066388808">
		<tag k="fixme" v="consider seamark:type=rock or natural=shoal" />
		<tag k="name" v="Insteodden" />
		<tag k="place" v="islet" />
		<tag k="ssr:stedsnr" v="490276" />
	</node>
	<node id="-475445" lat="60.4323083352" lon="4.85566111175">
		<tag k="name" v="Oddafluene" />
		<tag k="natural" v="shoal" />
		<tag k="place" v="locality" />
		<tag k="ssr:stedsnr" v="490153" />
	</node>
	<node id="-475442" lat="60.2951361078" lon="4.91950556187">
		<tag k="name" v="Nordra Møkalassflua" />
		<tag k="natural" v="shoal" />
		<tag k="place" v="locality" />
		<tag k="ssr:stedsnr" v="490437" />
	</node>
	<node id="-475436" lat="60.3469583288" lon="5.16309721884">
		<tag k="name" v="Kiparneset" />
		<tag k="natural" v="cape" />
		<tag k="ssr:stedsnr" v="470997" />
	</node>
	<node id="-475433" lat="60.310769445" lon="5.18354445125">
		<tag k="name" v="Hardingapollen" />
		<tag k="natural" v="bay" />
		<tag k="ssr:stedsnr" v="470971" />
	</node>
	<node id="-475431" lat="60.4333833313" lon="5.01008611013">
		<tag k="name" v="Kalveidet" />
		<tag k="place" v="locality" />
		<tag k="ssr:stedsnr" v="470962" />
	</node>
	<node id="-475430" lat="60.4346111091" lon="5.01401110399">
		<tag k="name" v="Skarvbogvika" />
		<tag k="natural" v="bay" />
		<tag k="ssr:stedsnr" v="470960" />
	</node>
	<node id="-475429" lat="60.436936109" lon="5.0075194358">
		<tag k="name" v="Øykjaneset" />
		<tag k="natural" v="cape" />
		<tag k="ssr:stedsnr" v="470958" />
	</node>
	<node id="-475427" lat="60.373472223" lon="5.07766388404">
		<tag k="name" v="Gangstøosen" />
		<tag k="natural" v="strait" />
		<tag k="ssr:stedsnr" v="470939" />
	</node>
	<node id="-475426" lat="60.3830305554" lon="5.05963888063">
		<tag k="name" v="Nordrevågen" />
		<tag k="natural" v="bay" />
		<tag k="ssr:stedsnr" v="470935" />
	</node>
	<node id="-475423" lat="60.3985611072" lon="5.0999250036">
		<tag k="name" v="Hjeltaskaget" />
		<tag k="natural" v="cape" />
		<tag k="ssr:stedsnr" v="470886" />
	</node>
	<node id="-475420" lat="60.32120833" lon="4.98663888434">
		<tag k="name" v="Trettholmen" />
		<tag k="place" v="islet" />
		<tag k="ssr:stedsnr" v="470840" />
	</node>
	<node id="-475419" lat="60.3196944469" lon="4.9763444477">
		<tag k="fixme" v="consider seamark:type=rock or natural=shoal" />
		<tag k="name" v="Madlevikskjeret" />
		<tag k="place" v="islet" />
		<tag k="ssr:stedsnr" v="470823" />
	</node>
	<node id="-475418" lat="60.3153250014" lon="4.99496110827">
		<tag k="name" v="Kattarholmssundet" />
		<tag k="natural" v="strait" />
		<tag k="ssr:stedsnr" v="470816" />
	</node>
	<node id="-475417" lat="60.3033527796" lon="4.93784444114">
		<tag k="name" v="Kvalvika" />
		<tag k="natural" v="bay" />
		<tag k="ssr:stedsnr" v="470808" />
	</node>
	<node id="-475416" lat="60.3363527815" lon="5.1319611156">
		<tag k="name" v="Hovdasundet" />
		<tag k="natural" v="strait" />
		<tag k="ssr:stedsnr" v="470771" />
	</node>
	<node id="-475413" lat="60.315780552" lon="5.00978611899">
		<tag k="name" v="Krabbavika" />
		<tag k="natural" v="bay" />
		<tag k="ssr:stedsnr" v="470679" />
	</node>
	<node id="-475409" lat="60.3442000016" lon="5.11676111549">
		<tag k="name" v="Øyatangen" />
		<tag k="natural" v="cape" />
		<tag k="ssr:stedsnr" v="470573" />
	</node>
	<node id="-475400" lat="60.3645638881" lon="5.09250555105">
		<tag k="name" v="Kyrkjesundet" />
		<tag k="natural" v="strait" />
		<tag k="ssr:stedsnr" v="470500" />
	</node>
	<node id="-475398" lat="60.3913555594" lon="4.9831861135">
		<tag k="name" v="Sørneset" />
		<tag k="natural" v="cape" />
		<tag k="ssr:stedsnr" v="470420" />
	</node>
	<node id="-475389" lat="60.4127055516" lon="4.91130833955">
		<tag k="name" v="Rakabugen" />
		<tag k="natural" v="bay" />
		<tag k="ssr:stedsnr" v="470327" />
	</node>
	<node id="-476355" lat="60.3420277772" lon="4.97017222737">
		<tag k="name" v="Neset" />
		<tag k="natural" v="cape" />
		<tag k="ssr:stedsnr" v="956427" />
	</node>
	<node id="-475385" lat="60.3229833297" lon="5.15568889099">
		<tag k="name" v="Steinsundstangen" />
		<tag k="natural" v="cape" />
		<tag k="ssr:stedsnr" v="470313" />
	</node>
	<node id="-475384" lat="60.4233888911" lon="4.98616388512">
		<tag k="name" v="Breivikneset" />
		<tag k="natural" v="cape" />
		<tag k="ssr:stedsnr" v="470309" />
	</node>
	<node id="-475380" lat="60.4492166701" lon="4.90747222127">
		<tag k="name" v="Åkraviksundet" />
		<tag k="natural" v="strait" />
		<tag k="ssr:stedsnr" v="470271" />
	</node>
	<node id="-475378" lat="60.3607333358" lon="5.07805000051">
		<tag k="name" v="Træsvika" />
		<tag k="natural" v="bay" />
		<tag k="ssr:stedsnr" v="470244" />
	</node>
	<node id="-475375" lat="60.3092916682" lon="4.97446666385">
		<tag k="name" v="Træsvika" />
		<tag k="natural" v="bay" />
		<tag k="ssr:stedsnr" v="469835" />
	</node>
	<node id="-475374" lat="60.2930805516" lon="5.03574167067">
		<tag k="name" v="Austra Vætestøa" />
		<tag k="natural" v="beach" />
		<tag k="place" v="locality" />
		<tag k="ssr:stedsnr" v="469772" />
	</node>
	<node id="-475372" lat="60.2998048029" lon="5.02870242752">
		<tag k="name" v="Husaneset" />
		<tag k="natural" v="cape" />
		<tag k="ssr:stedsnr" v="469725" />
	</node>
	<node id="-476386" lat="60.3852999992" lon="5.04074444666">
		<tag k="name" v="Isbragdet" />
		<tag k="natural" v="cape" />
		<tag k="ssr:stedsnr" v="956964" />
	</node>
	<node id="-475362" lat="60.4256972236" lon="4.95900000604">
		<tag k="name" v="Øyna" />
		<tag k="place" v="island" />
		<tag k="ssr:stedsnr" v="450910" />
	</node>
	<node id="-475361" lat="60.3907472202" lon="4.98161388833">
		<tag k="name" v="Småholmane" />
		<tag k="place" v="islet" />
		<tag k="ssr:stedsnr" v="450821" />
	</node>
	<node id="-475358" lat="60.3387611085" lon="5.16420277935">
		<tag k="name" v="Fuglaskjeret" />
		<tag k="natural" v="shoal" />
		<tag k="place" v="locality" />
		<tag k="ssr:stedsnr" v="449224" />
	</node>
	<node id="-475357" lat="60.3529388863" lon="4.93951389103">
		<tag k="name" v="Juvika" />
		<tag k="natural" v="bay" />
		<tag k="ssr:stedsnr" v="449203" />
	</node>
	<node id="-475356" lat="60.3471906351" lon="5.12421290794">
		<tag k="name" v="Geitavika" />
		<tag k="natural" v="bay" />
		<tag k="ssr:stedsnr" v="449183" />
	</node>
	<node id="-475355" lat="60.3313194429" lon="5.18449444434">
		<tag k="name" v="Fløsteinsbotnen" />
		<tag k="natural" v="bay" />
		<tag k="ssr:stedsnr" v="449170" />
	</node>
	<node id="-475354" lat="60.3587999963" lon="5.1147750025">
		<tag k="name" v="Neset" />
		<tag k="natural" v="cape" />
		<tag k="ssr:stedsnr" v="449099" />
	</node>
	<node id="-475353" lat="60.3481361106" lon="5.10541666347">
		<tag k="name" v="Bildøypollen" />
		<tag k="natural" v="bay" />
		<tag k="ssr:stedsnr" v="449092" />
	</node>
	<node id="-475345" lat="60.3223000036" lon="4.99516388608">
		<tag k="name" v="Grønholmen" />
		<tag k="place" v="islet" />
		<tag k="ssr:stedsnr" v="431339" />
	</node>
	<node id="-475342" lat="60.3419499958" lon="5.11589165876">
		<tag k="name" v="Døsjeneset" />
		<tag k="natural" v="cape" />
		<tag k="ssr:stedsnr" v="430676" />
	</node>
	<node id="-475341" lat="60.2897444403" lon="4.92276944145">
		<tag k="name" v="Søra Møkalassflua" />
		<tag k="natural" v="shoal" />
		<tag k="place" v="locality" />
		<tag k="ssr:stedsnr" v="430444" />
	</node>
	<node id="-475338" lat="60.3709111116" lon="5.08920556085">
		<tag k="name" v="Høgøyna" />
		<tag k="place" v="islet" />
		<tag k="ssr:stedsnr" v="430349" />
	</node>
	<node id="-475337" lat="60.3683019303" lon="5.07744743057">
		<tag k="name" v="Råna" />
		<tag k="place" v="islet" />
		<tag k="ssr:stedsnr" v="430342" />
	</node>
	<node id="-475335" lat="60.3873222257" lon="4.95024722959">
		<tag k="name" v="Langholmen" />
		<tag k="place" v="islet" />
		<tag k="ssr:stedsnr" v="430320" />
	</node>
	<node id="-475334" lat="60.3746027821" lon="4.88802222496">
		<tag k="name" v="Seiflustallen" />
		<tag k="natural" v="shoal" />
		<tag k="place" v="locality" />
		<tag k="ssr:stedsnr" v="430310" />
	</node>
	<node id="-475333" lat="60.3763944482" lon="4.8876111149">
		<tag k="name" v="Eidesboen" />
		<tag k="natural" v="shoal" />
		<tag k="place" v="locality" />
		<tag k="ssr:stedsnr" v="430311" />
	</node>
	<node id="-475332" lat="60.3132194485" lon="4.8884666599">
		<tag k="fixme" v="consider seamark:type=rock or natural=shoal" />
		<tag k="name" v="Herboeskjeret" />
		<tag k="place" v="islet" />
		<tag k="ssr:stedsnr" v="430297" />
	</node>
	<node id="-475331" lat="60.3415750021" lon="4.92427499789">
		<tag k="name" v="Sandeidneset" />
		<tag k="natural" v="cape" />
		<tag k="ssr:stedsnr" v="430273" />
	</node>
	<node id="-475330" lat="60.3385277771" lon="4.98900277302">
		<tag k="name" v="Storholmen" />
		<tag k="place" v="islet" />
		<tag k="ssr:stedsnr" v="430266" />
	</node>
	<node id="-475329" lat="60.3282749977" lon="4.91550555275">
		<tag k="name" v="Lønosen" />
		<tag k="natural" v="strait" />
		<tag k="ssr:stedsnr" v="430261" />
	</node>
	<node id="-475326" lat="60.4346126999" lon="4.9588371417">
		<tag k="name" v="Bollholmen" />
		<tag k="place" v="islet" />
		<tag k="ssr:stedsnr" v="430151" />
	</node>
	<node id="-475325" lat="60.4259777813" lon="4.93755834175">
		<tag k="name" v="Litlahjelmo" />
		<tag k="place" v="islet" />
		<tag k="ssr:stedsnr" v="430148" />
	</node>
	<node id="-475324" lat="60.440116668" lon="4.95143333344">
		<tag k="name" v="Verøyna" />
		<tag k="place" v="islet" />
		<tag k="ssr:stedsnr" v="430135" />
	</node>
	<node id="-475323" lat="60.435088885" lon="4.85845000649">
		<tag k="name" v="Vestre Odden" />
		<tag k="place" v="islet" />
		<tag k="ssr:stedsnr" v="430134" />
	</node>
	<node id="-475322" lat="60.4384361101" lon="4.86938056402">
		<tag k="name" v="Inste Odden" />
		<tag k="place" v="islet" />
		<tag k="ssr:stedsnr" v="430132" />
	</node>
	<node id="-475321" lat="60.4366805543" lon="4.8880444477">
		<tag k="name" v="Hestholmen" />
		<tag k="place" v="islet" />
		<tag k="ssr:stedsnr" v="430131" />
	</node>
	<node id="-475320" lat="60.4534027732" lon="4.98694444051">
		<tag k="name" v="Vindeneskvarven" />
		<tag k="natural" v="cape" />
		<tag k="ssr:stedsnr" v="430127" />
	</node>
	<node id="-475319" lat="60.4508361112" lon="4.95559444845">
		<tag k="name" v="Misje" />
		<tag k="place" v="island" />
		<tag k="ssr:stedsnr" v="430123" />
	</node>
	<node id="-475317" lat="60.4402833325" lon="4.91115555914">
		<tag k="name" v="Brakholmen" />
		<tag k="place" v="islet" />
		<tag k="ssr:stedsnr" v="267927" />
	</node>
	<node id="-475316" lat="60.4478305575" lon="4.90310834041">
		<tag k="fixme" v="consider seamark:type=rock or natural=shoal" />
		<tag k="name" v="Trosavikskjeret" />
		<tag k="place" v="islet" />
		<tag k="ssr:stedsnr" v="267925" />
	</node>
	<node id="-475315" lat="60.3367611082" lon="4.94555277309">
		<tag k="name" v="Ramsvika" />
		<tag k="natural" v="bay" />
		<tag k="ssr:stedsnr" v="267192" />
	</node>
	<node id="-475314" lat="60.2956777771" lon="5.18193610302">
		<tag k="name" v="Vestre Hestholmen" />
		<tag k="place" v="islet" />
		<tag k="ssr:stedsnr" v="267183" />
	</node>
	<node id="-475312" lat="60.361982081" lon="5.14677784443">
		<tag k="name" v="Arefjordstraumen" />
		<tag k="natural" v="strait" />
		<tag k="ssr:stedsnr" v="267071" />
	</node>
	<node id="-475311" lat="60.3443027776" lon="4.98668055312">
		<tag k="name" v="Kunta" />
		<tag k="natural" v="cape" />
		<tag k="ssr:stedsnr" v="267023" />
	</node>
	<node id="-475302" lat="60.3039722197" lon="5.17788888014">
		<tag k="name" v="Glåmsneset" />
		<tag k="natural" v="cape" />
		<tag k="ssr:stedsnr" v="248864" />
	</node>
	<node id="-475301" lat="60.3366666665" lon="5.17675834229">
		<tag k="name" v="Gavlen" />
		<tag k="natural" v="cape" />
		<tag k="ssr:stedsnr" v="248818" />
	</node>
	<node id="-475297" lat="60.3132249973" lon="5.14885832901">
		<tag k="name" v="Molltveitholmen" />
		<tag k="place" v="islet" />
		<tag k="ssr:stedsnr" v="248765" />
	</node>
	<node id="-476352" lat="60.33916111" lon="4.93734721433">
		<tag k="name" v="Illeidet" />
		<tag k="place" v="locality" />
		<tag k="ssr:stedsnr" v="956413" />
	</node>
	<node id="-475293" lat="60.3479666641" lon="5.12385832807">
		<tag k="name" v="Geitavikneset" />
		<tag k="natural" v="cape" />
		<tag k="ssr:stedsnr" v="248699" />
	</node>
	<node id="-475291" lat="60.3896250026" lon="5.11975833521">
		<tag k="name" v="Vågen" />
		<tag k="natural" v="bay" />
		<tag k="ssr:stedsnr" v="248665" />
	</node>
	<node id="-475290" lat="60.3993333378" lon="5.104411113">
		<tag k="name" v="Lauvholmen" />
		<tag k="place" v="islet" />
		<tag k="ssr:stedsnr" v="248609" />
	</node>
	<node id="-475287" lat="60.3060555528" lon="5.06135000662">
		<tag k="name" v="Fjellspollen" />
		<tag k="natural" v="bay" />
		<tag k="ssr:stedsnr" v="248454" />
	</node>
	<node id="-475286" lat="60.2969861156" lon="4.93410833823">
		<tag k="name" v="Ålen" />
		<tag k="natural" v="strait" />
		<tag k="ssr:stedsnr" v="248446" />
	</node>
	<node id="-475284" lat="60.3552083361" lon="4.91716111475">
		<tag k="fixme" v="consider seamark:type=rock or natural=shoal" />
		<tag k="name" v="Lueskjeret" />
		<tag k="place" v="islet" />
		<tag k="ssr:stedsnr" v="248336" />
	</node>
	<node id="-475281" lat="60.3836361076" lon="4.93521666902">
		<tag k="name" v="Leiholmen" />
		<tag k="place" v="islet" />
		<tag k="ssr:stedsnr" v="248308" />
	</node>
	<node id="-475280" lat="60.3793638875" lon="4.91435277981">
		<tag k="name" v="Lambflua" />
		<tag k="natural" v="shoal" />
		<tag k="place" v="locality" />
		<tag k="ssr:stedsnr" v="248301" />
	</node>
	<node id="-475279" lat="60.3215638844" lon="4.94926943681">
		<tag k="name" v="Nordre Klauvholmen" />
		<tag k="place" v="islet" />
		<tag k="ssr:stedsnr" v="248291" />
	</node>
	<node id="-475278" lat="60.3135805586" lon="4.92356111035">
		<tag k="name" v="Kallsøyane" />
		<tag k="place" v="islet" />
		<tag k="ssr:stedsnr" v="248290" />
	</node>
	<node id="-475277" lat="60.3032027769" lon="4.99665277771">
		<tag k="name" v="Klettaflua" />
		<tag k="natural" v="shoal" />
		<tag k="place" v="locality" />
		<tag k="ssr:stedsnr" v="248271" />
	</node>
	<node id="-475276" lat="60.4151277814" lon="5.01105000591">
		<tag k="name" v="Tranneset" />
		<tag k="natural" v="cape" />
		<tag k="ssr:stedsnr" v="248176" />
	</node>
	<node id="-475274" lat="60.40666389" lon="4.93667777613">
		<tag k="name" v="Taren" />
		<tag k="natural" v="shoal" />
		<tag k="place" v="locality" />
		<tag k="ssr:stedsnr" v="248173" />
	</node>
	<node id="-475272" lat="60.4501166713" lon="4.90589167261">
		<tag k="name" v="Åkravikholmen" />
		<tag k="place" v="islet" />
		<tag k="ssr:stedsnr" v="248140" />
	</node>
	<node id="-475271" lat="60.4466416625" lon="4.91628332862">
		<tag k="name" v="Turøyna" />
		<tag k="place" v="island" />
		<tag k="ssr:stedsnr" v="248138" />
	</node>
	<node id="-475270" lat="60.4582861142" lon="4.9617499991">
		<tag k="name" v="Svelgsholmen" />
		<tag k="place" v="islet" />
		<tag k="ssr:stedsnr" v="248128" />
	</node>
	<node id="-475261" lat="60.3927111136" lon="5.06171944075">
		<tag k="name" v="Skarvbugen" />
		<tag k="natural" v="cape" />
		<tag k="ssr:stedsnr" v="228664" />
	</node>
	<node id="-475252" lat="60.3987416698" lon="4.98519167163">
		<tag k="name" v="Midtneset" />
		<tag k="natural" v="cape" />
		<tag k="ssr:stedsnr" v="228487" />
	</node>
	<node id="-475249" lat="60.3412222252" lon="4.98311666462">
		<tag k="name" v="Austre Langøyvågen" />
		<tag k="natural" v="bay" />
		<tag k="ssr:stedsnr" v="228421" />
	</node>
	<node id="-475248" lat="60.3300944453" lon="4.94533333687">
		<tag k="name" v="Lyrastøa" />
		<tag k="place" v="islet" />
		<tag k="ssr:stedsnr" v="228415" />
	</node>
	<node id="-475246" lat="60.28454444" lon="5.07626944622">
		<tag k="name" v="Dalaneset" />
		<tag k="natural" v="cape" />
		<tag k="ssr:stedsnr" v="228340" />
	</node>
	<node id="-475243" lat="60.3587166635" lon="5.16029166435">
		<tag k="name" v="Bysundet" />
		<tag k="natural" v="strait" />
		<tag k="ssr:stedsnr" v="227985" />
	</node>
	<node id="-475242" lat="60.3559944433" lon="5.15898334221">
		<tag k="name" v="Kylleren" />
		<tag k="natural" v="strait" />
		<tag k="ssr:stedsnr" v="227983" />
	</node>
	<node id="-475240" lat="60.3700555597" lon="5.09487221871">
		<tag k="name" v="Austra Høgøysundet" />
		<tag k="natural" v="strait" />
		<tag k="ssr:stedsnr" v="227921" />
	</node>
	<node id="-475239" lat="60.3871944406" lon="5.04511945024">
		<tag k="name" v="Krabbapollen" />
		<tag k="natural" v="bay" />
		<tag k="ssr:stedsnr" v="227912" />
	</node>
	<node id="-475236" lat="60.4008916699" lon="5.07831667168">
		<tag k="fixme" v="consider seamark:type=rock or natural=shoal" />
		<tag k="name" v="Terneskjeret" />
		<tag k="place" v="islet" />
		<tag k="ssr:stedsnr" v="227872" />
	</node>
	<node id="-475235" lat="60.3125972178" lon="4.96390277468">
		<tag k="name" v="Narøyvågen" />
		<tag k="natural" v="bay" />
		<tag k="ssr:stedsnr" v="227832" />
	</node>
	<node id="-475234" lat="60.3100472204" lon="4.95730554746">
		<tag k="name" v="Kobbavågen" />
		<tag k="natural" v="bay" />
		<tag k="ssr:stedsnr" v="227831" />
	</node>
	<node id="-475233" lat="60.3125333347" lon="4.934072218">
		<tag k="name" v="Nordstovnen" />
		<tag k="natural" v="cape" />
		<tag k="ssr:stedsnr" v="227812" />
	</node>
	<node id="-475231" lat="60.320674996" lon="4.9495805539">
		<tag k="name" v="Klauvholmane" />
		<tag k="place" v="islet" />
		<tag k="ssr:stedsnr" v="227805" />
	</node>
	<node id="-475228" lat="60.3290388856" lon="5.15375000457">
		<tag k="name" v="Kjerringasundet" />
		<tag k="natural" v="strait" />
		<tag k="ssr:stedsnr" v="227764" />
	</node>
	<node id="-475227" lat="60.3397416667" lon="5.16191944859">
		<tag k="name" v="Rumpetangen" />
		<tag k="natural" v="cape" />
		<tag k="ssr:stedsnr" v="227758" />
	</node>
	<node id="-475226" lat="60.3296666681" lon="5.1500888899">
		<tag k="fixme" v="consider seamark:type=rock or natural=shoal" />
		<tag k="name" v="Kjerringa" />
		<tag k="place" v="islet" />
		<tag k="ssr:stedsnr" v="227750" />
	</node>
	<node id="-475224" lat="60.3010055544" lon="5.05911943964">
		<tag k="name" v="Kvernapollen" />
		<tag k="natural" v="bay" />
		<tag k="ssr:stedsnr" v="227691" />
	</node>
	<node id="-475222" lat="60.3025250012" lon="5.04232222691">
		<tag k="name" v="Hestasanden" />
		<tag k="natural" v="bay" />
		<tag k="ssr:stedsnr" v="227672" />
	</node>
	<node id="-475221" lat="60.3028027767" lon="5.05397777057">
		<tag k="name" v="Porsvika" />
		<tag k="natural" v="bay" />
		<tag k="ssr:stedsnr" v="227666" />
	</node>
	<node id="-475215" lat="60.4031444416" lon="4.96859722465">
		<tag k="name" v="Kylleren" />
		<tag k="natural" v="strait" />
		<tag k="ssr:stedsnr" v="227499" />
	</node>
	<node id="-475213" lat="60.3718277782" lon="4.94844999732">
		<tag k="name" v="Nordre Vågen" />
		<tag k="natural" v="bay" />
		<tag k="ssr:stedsnr" v="227458" />
	</node>
	<node id="-475210" lat="60.3485067632" lon="4.97759649573">
		<tag k="name" v="Salmonsholmen" />
		<tag k="place" v="islet" />
		<tag k="ssr:stedsnr" v="227414" />
	</node>
	<node id="-475209" lat="60.4166222235" lon="4.89959444181">
		<tag k="name" v="Svartnovsundet" />
		<tag k="natural" v="strait" />
		<tag k="ssr:stedsnr" v="227369" />
	</node>
	<node id="-475208" lat="60.4101805565" lon="4.90226944055">
		<tag k="name" v="Bukta" />
		<tag k="natural" v="strait" />
		<tag k="ssr:stedsnr" v="227365" />
	</node>
	<node id="-475207" lat="60.4165583375" lon="4.9191027747">
		<tag k="name" v="Gullosen" />
		<tag k="natural" v="strait" />
		<tag k="ssr:stedsnr" v="227364" />
	</node>
	<node id="-475206" lat="60.4287000017" lon="4.93328334115">
		<tag k="name" v="Basholmen" />
		<tag k="place" v="locality" />
		<tag k="seamark:type" v="rock" />
		<tag k="ssr:stedsnr" v="227359" />
	</node>
	<node id="-475205" lat="60.4196444407" lon="4.90565833174">
		<tag k="name" v="Nordre Kjeholmen" />
		<tag k="place" v="locality" />
		<tag k="seamark:type" v="rock" />
		<tag k="ssr:stedsnr" v="227356" />
	</node>
	<node id="-475204" lat="60.4226527739" lon="4.90206111592">
		<tag k="name" v="Inste Hattholmen" />
		<tag k="place" v="islet" />
		<tag k="ssr:stedsnr" v="227354" />
	</node>
	<node id="-475203" lat="60.4196888882" lon="4.93847222908">
		<tag k="name" v="Austre Gullholmen" />
		<tag k="place" v="islet" />
		<tag k="ssr:stedsnr" v="227353" />
	</node>
	<node id="-475201" lat="60.4178555596" lon="4.91134999261">
		<tag k="name" v="Risøybugen" />
		<tag k="natural" v="bay" />
		<tag k="ssr:stedsnr" v="227332" />
	</node>
	<node id="-475200" lat="60.4191611135" lon="4.93138332422">
		<tag k="name" v="Gullevågen" />
		<tag k="natural" v="bay" />
		<tag k="ssr:stedsnr" v="227328" />
	</node>
	<node id="-475198" lat="60.3690611073" lon="4.97429444829">
		<tag k="name" v="Kyrkjesundet" />
		<tag k="natural" v="strait" />
		<tag k="ssr:stedsnr" v="227298" />
	</node>
	<node id="-475197" lat="60.3778527818" lon="4.95407499737">
		<tag k="name" v="Mortasundet" />
		<tag k="natural" v="strait" />
		<tag k="ssr:stedsnr" v="227297" />
	</node>
	<node id="-475195" lat="60.4468611127" lon="4.99473611203">
		<tag k="name" v="Støklumpen" />
		<tag k="natural" v="cape" />
		<tag k="ssr:stedsnr" v="227271" />
	</node>
	<node id="-475194" lat="60.4323333342" lon="4.91937499982">
		<tag k="name" v="Raunøykalven" />
		<tag k="place" v="island" />
		<tag k="ssr:stedsnr" v="227256" />
	</node>
	<node id="-475193" lat="60.3571666697" lon="4.92842499151">
		<tag k="name" v="Ytsta Kåravika" />
		<tag k="natural" v="bay" />
		<tag k="ssr:stedsnr" v="227103" />
	</node>
	<node id="-475191" lat="60.3557888875" lon="4.97346388866">
		<tag k="name" v="Sildavika" />
		<tag k="natural" v="bay" />
		<tag k="ssr:stedsnr" v="227086" />
	</node>
	<node id="-475190" lat="60.359016669" lon="4.96617499396">
		<tag k="fixme" v="consider seamark:type=rock or natural=shoal" />
		<tag k="name" v="Bleikeskjera" />
		<tag k="place" v="islet" />
		<tag k="ssr:stedsnr" v="227085" />
	</node>
	<node id="-475189" lat="60.4562194401" lon="4.90818610423">
		<tag k="name" v="Austra Gjona" />
		<tag k="natural" v="bay" />
		<tag k="ssr:stedsnr" v="227022" />
	</node>
	<node id="-475188" lat="60.3668722208" lon="5.14097221702">
		<tag k="name" v="Krabbholmen" />
		<tag k="place" v="islet" />
		<tag k="ssr:stedsnr" v="227015" />
	</node>
	<node id="-475187" lat="60.3008777742" lon="5.16513056315">
		<tag k="name" v="Nautasundet" />
		<tag k="natural" v="strait" />
		<tag k="ssr:stedsnr" v="227007" />
	</node>
	<node id="-475185" lat="60.4039993124" lon="4.95517710305">
		<tag k="name" v="Midtbuarøyna" />
		<tag k="place" v="island" />
		<tag k="ssr:stedsnr" v="207811" />
	</node>
	<node id="-475184" lat="60.3917305555" lon="5.10312777312">
		<tag k="name" v="Lattervika" />
		<tag k="natural" v="bay" />
		<tag k="ssr:stedsnr" v="207799" />
	</node>
	<node id="-475183" lat="60.3934444416" lon="5.04065000874">
		<tag k="name" v="Spjeldskyllaren" />
		<tag k="natural" v="cape" />
		<tag k="ssr:stedsnr" v="207798" />
	</node>
	<node id="-475182" lat="60.3256944404" lon="5.15618889287">
		<tag k="name" v="Steinsundholmane" />
		<tag k="place" v="islet" />
		<tag k="ssr:stedsnr" v="207212" />
	</node>
	<node id="-475181" lat="60.3378027756" lon="5.12188055498">
		<tag k="name" v="Eidbøflua" />
		<tag k="natural" v="shoal" />
		<tag k="place" v="locality" />
		<tag k="ssr:stedsnr" v="207177" />
	</node>
	<node id="-475180" lat="60.3370922099" lon="4.9355325789">
		<tag k="name" v="Ånesvika" />
		<tag k="natural" v="bay" />
		<tag k="ssr:stedsnr" v="206222" />
	</node>
	<node id="-475179" lat="60.3761888931" lon="5.06084721964">
		<tag k="name" v="Grotvika" />
		<tag k="natural" v="bay" />
		<tag k="ssr:stedsnr" v="206206" />
	</node>
	<node id="-475164" lat="60.3270472211" lon="5.14814999371">
		<tag k="name" v="Søra Kjerringasundet" />
		<tag k="natural" v="strait" />
		<tag k="old_name" v="Steinsundet, nordre;Nordre Steinsundet" />
		<tag k="ssr:stedsnr" v="188817" />
	</node>
	<node id="-475159" lat="60.3071277809" lon="5.18132222606">
		<tag k="name" v="Jaktahavnen" />
		<tag k="natural" v="bay" />
		<tag k="ssr:stedsnr" v="187842" />
	</node>
	<node id="-475158" lat="60.3840638867" lon="5.0760583419">
		<tag k="name" v="Grotholmane" />
		<tag k="place" v="islet" />
		<tag k="ssr:stedsnr" v="187345" />
	</node>
	<node id="-475157" lat="60.3666361079" lon="4.93204722014">
		<tag k="fixme" v="consider seamark:type=rock or natural=shoal" />
		<tag k="name" v="Terneskjera" />
		<tag k="place" v="islet" />
		<tag k="ssr:stedsnr" v="187338" />
	</node>
	<node id="-475156" lat="60.3721500015" lon="4.9652750009">
		<tag k="name" v="Vedarøyna" />
		<tag k="place" v="islet" />
		<tag k="ssr:stedsnr" v="187336" />
	</node>
	<node id="-475155" lat="60.4077361147" lon="5.02029445094">
		<tag k="name" v="Åsneset" />
		<tag k="natural" v="cape" />
		<tag k="ssr:stedsnr" v="187315" />
	</node>
	<node id="-475154" lat="60.2942194459" lon="4.9275138888">
		<tag k="fixme" v="consider seamark:type=rock or natural=shoal" />
		<tag k="name" v="Møkalasset" />
		<tag k="place" v="islet" />
		<tag k="ssr:stedsnr" v="187429" />
	</node>
	<node id="-475153" lat="60.2984666707" lon="4.90037776923">
		<tag k="name" v="Søre Oddafluene" />
		<tag k="natural" v="shoal" />
		<tag k="place" v="locality" />
		<tag k="ssr:stedsnr" v="187427" />
	</node>
	<node id="-475150" lat="60.2843944467" lon="5.05336389484">
		<tag k="bay" v="fjord" />
		<tag k="name" v="Trengereidpollen" />
		<tag k="natural" v="bay" />
		<tag k="ssr:stedsnr" v="187418" />
	</node>
	<node id="-475149" lat="60.3146027743" lon="4.99670555038">
		<tag k="name" v="Kattarholmen" />
		<tag k="place" v="islet" />
		<tag k="ssr:stedsnr" v="187294" />
	</node>
	<node id="-475145" lat="60.302324997" lon="5.00621943896">
		<tag k="name" v="Hegrøyna" />
		<tag k="place" v="islet" />
		<tag k="ssr:stedsnr" v="187280" />
	</node>
	<node id="-475144" lat="60.307083686" lon="5.04992938837">
		<tag k="name" v="Selvågen" />
		<tag k="natural" v="bay" />
		<tag k="ssr:stedsnr" v="187279" />
	</node>
	<node id="-475139" lat="60.3859138923" lon="4.92980555098">
		<tag k="fixme" v="consider seamark:type=rock or natural=shoal" />
		<tag k="name" v="Nordra Høgeskjeret" />
		<tag k="place" v="islet" />
		<tag k="ssr:stedsnr" v="187310" />
	</node>
	<node id="-475137" lat="60.3790416676" lon="4.93595000783">
		<tag k="name" v="Brendholmen" />
		<tag k="place" v="islet" />
		<tag k="ssr:stedsnr" v="187307" />
	</node>
</osm>
