<?xml version="1.0" encoding="UTF-8"?>
<osm generator="osmapis" version="0.6">
	<node id="-474496" lat="60.3298027749" lon="5.08203054814">
		<tag k="name" v="Storsteinen" />
		<tag k="natural" v="stone" />
		<tag k="ssr:stedsnr" v="349637" />
	</node>
	<node id="-474623" lat="60.3241722216" lon="5.0626833248">
		<tag k="name" v="Åsmyra" />
		<tag k="natural" v="wetland" />
		<tag k="ssr:stedsnr" v="410561" />
	</node>
	<node id="-475003" lat="60.2770999972" lon="5.03858056181">
		<tag k="name" v="Oldersmyra" />
		<tag k="natural" v="wetland" />
		<tag k="ssr:stedsnr" v="106868" />
	</node>
	<node id="-475199" lat="60.3781055558" lon="4.97153334083">
		<tag k="name" v="Galtamyra" />
		<tag k="natural" v="wetland" />
		<tag k="ssr:stedsnr" v="227312" />
	</node>
	<node id="-476151" lat="60.4255861114" lon="4.97044166341">
		<tag k="name" v="Nygjerdet" />
		<tag k="place" v="locality" />
		<tag k="ssr:stedsnr" v="834328" />
	</node>
	<node id="-474868" lat="60.368763888" lon="5.01065277925">
		<tag k="name" v="Sauafjellsmyra" />
		<tag k="natural" v="wetland" />
		<tag k="ssr:stedsnr" v="45888" />
	</node>
	<node id="-475503" lat="60.4184409146" lon="4.96933038744">
		<tag k="name" v="Vadet" />
		<tag k="natural" v="wetland" />
		<tag k="ssr:stedsnr" v="530355" />
	</node>
	<node id="-475218" lat="60.3100194462" lon="5.09828610497">
		<tag k="name" v="Kåpesteinen" />
		<tag k="natural" v="stone" />
		<tag k="ssr:stedsnr" v="227650" />
	</node>
	<node id="-474856" lat="60.2867666657" lon="5.03579166104">
		<tag k="name" v="Sjoarmyra" />
		<tag k="natural" v="wetland" />
		<tag k="ssr:stedsnr" v="45690" />
	</node>
	<node id="-474300" lat="60.358602777" lon="5.05943611303">
		<tag k="name" v="Skiparmyra" />
		<tag k="natural" v="wetland" />
		<tag k="ssr:stedsnr" v="288699" />
	</node>
	<node id="-474595" lat="60.3807249999" lon="5.04730278296">
		<tag k="name" v="Tverrgardsmyra" />
		<tag k="natural" v="wetland" />
		<tag k="ssr:stedsnr" v="409897" />
	</node>
	<node id="-475259" lat="60.3247527743" lon="5.07964722694">
		<tag k="name" v="Bankesteinen" />
		<tag k="natural" v="stone" />
		<tag k="ssr:stedsnr" v="228642" />
	</node>
	<node id="-475395" lat="60.3610833358" lon="4.99729721321">
		<tag k="name" v="Såtemyra" />
		<tag k="natural" v="wetland" />
		<tag k="ssr:stedsnr" v="470401" />
	</node>
	<node id="-474587" lat="60.3138166647" lon="5.11838333309">
		<tag k="name" v="Raunemyra" />
		<tag k="natural" v="wetland" />
		<tag k="ssr:stedsnr" v="409703" />
	</node>
	<node id="-474968" lat="60.3299499963" lon="4.95681667062">
		<tag k="name" v="Storamyra" />
		<tag k="natural" v="wetland" />
		<tag k="ssr:stedsnr" v="106467" />
	</node>
	<node id="-476375" lat="60.3293750009" lon="5.06368333976">
		<tag k="landuse" v="meadow" />
		<tag k="name" v="Kleivane" />
		<tag k="ssr:stedsnr" v="956649" />
	</node>
	<node id="-475220" lat="60.3107638916" lon="5.05474999664">
		<tag k="name" v="Orramyra" />
		<tag k="natural" v="wetland" />
		<tag k="ssr:stedsnr" v="227663" />
	</node>
	<node id="-474836" lat="60.3341499965" lon="5.03017776957">
		<tag k="name" v="Breiamyra" />
		<tag k="natural" v="wetland" />
		<tag k="ssr:stedsnr" v="45532" />
	</node>
	<node id="-474834" lat="60.3292666658" lon="4.97071666974">
		<tag k="name" v="Kvernapollsmyra" />
		<tag k="natural" v="wetland" />
		<tag k="ssr:stedsnr" v="45483" />
	</node>
	<node id="-475491" lat="60.3102250029" lon="5.08786389566">
		<tag k="name" v="Bålesteinen" />
		<tag k="natural" v="stone" />
		<tag k="ssr:stedsnr" v="530677" />
	</node>
	<node id="-474831" lat="60.4092888875" lon="4.99587778358">
		<tag k="name" v="Hamramyra" />
		<tag k="natural" v="wetland" />
		<tag k="ssr:stedsnr" v="45466" />
	</node>
	<node id="-475532" lat="60.2840527797" lon="5.10520278621">
		<tag k="name" v="Storamyra" />
		<tag k="natural" v="wetland" />
		<tag k="ssr:stedsnr" v="531346" />
	</node>
	<node id="-476385" lat="60.3734499997" lon="5.05108332571">
		<tag k="name" v="Horsemyra" />
		<tag k="natural" v="wetland" />
		<tag k="ssr:stedsnr" v="956948" />
	</node>
	<node id="-474692" lat="60.2838833293" lon="5.04570000855">
		<tag k="name" v="Salbuvikmyra" />
		<tag k="natural" v="wetland" />
		<tag k="ssr:stedsnr" v="895683" />
	</node>
	<node id="-474815" lat="60.320330558" lon="5.13821110281">
		<tag k="name" v="Kokesteinen" />
		<tag k="natural" v="stone" />
		<tag k="ssr:stedsnr" v="45334" />
	</node>
	<node id="-475068" lat="60.3199083336" lon="5.18088055709">
		<tag k="name" v="Stølamyrana" />
		<tag k="natural" v="wetland" />
		<tag k="ssr:stedsnr" v="166127" />
	</node>
	<node id="-474427" lat="60.4170583319" lon="4.98031389269">
		<tag k="name" v="Harpefjellsmyra" />
		<tag k="natural" v="wetland" />
		<tag k="ssr:stedsnr" v="348327" />
	</node>
	<node id="-475066" lat="60.382652777" lon="5.15291666651">
		<tag k="name" v="Stormyra" />
		<tag k="natural" v="wetland" />
		<tag k="ssr:stedsnr" v="166107" />
	</node>
	<node id="-476041" lat="60.2856333357" lon="5.0232611099">
		<tag k="name" v="Djupsvågmyra" />
		<tag k="natural" v="wetland" />
		<tag k="ssr:stedsnr" v="773732" />
	</node>
	<node id="-475700" lat="60.3633416637" lon="5.15879167216">
		<tag k="name" v="Myrane" />
		<tag k="natural" v="wetland" />
		<tag k="ssr:stedsnr" v="591987" />
	</node>
	<node id="-474671" lat="60.3261277809" lon="5.03262777753">
		<tag k="name" v="Mjølsteinmyra" />
		<tag k="natural" v="wetland" />
		<tag k="ssr:stedsnr" v="895523" />
	</node>
	<node id="-474286" lat="60.3899499983" lon="5.02188888408">
		<tag k="name" v="Maramyra" />
		<tag k="natural" v="wetland" />
		<tag k="ssr:stedsnr" v="288559" />
	</node>
	<node id="-475949" lat="60.3856666703" lon="5.02859166208">
		<tag k="name" v="Storamyra" />
		<tag k="natural" v="wetland" />
		<tag k="ssr:stedsnr" v="713914" />
	</node>
	<node id="-476076" lat="60.3376055526" lon="5.10679999917">
		<tag k="name" v="Rundamyra" />
		<tag k="natural" v="wetland" />
		<tag k="ssr:stedsnr" v="774633" />
	</node>
	<node id="-476202" lat="60.3594333294" lon="5.03450834014">
		<tag k="name" v="Rotabekksmyra" />
		<tag k="natural" v="wetland" />
		<tag k="ssr:stedsnr" v="835758" />
	</node>
	<node id="-476198" lat="60.4029777744" lon="5.01368054977">
		<tag k="name" v="Vodamyra" />
		<tag k="natural" v="wetland" />
		<tag k="ssr:stedsnr" v="835653" />
	</node>
	<node id="-475812" lat="60.3512944433" lon="5.04693332774">
		<tag k="name" v="Hatlelimyra" />
		<tag k="natural" v="wetland" />
		<tag k="ssr:stedsnr" v="652717" />
	</node>
	<node id="-475393" lat="60.3513305573" lon="4.9689972275">
		<tag k="name" v="Storemyra" />
		<tag k="natural" v="wetland" />
		<tag k="ssr:stedsnr" v="470389" />
	</node>
	<node id="-475936" lat="60.332080556" lon="5.03844722482">
		<tag k="name" v="Våtemyra" />
		<tag k="natural" v="wetland" />
		<tag k="ssr:stedsnr" v="713585" />
	</node>
	<node id="-475909" lat="60.341463892" lon="5.14927778382">
		<tag k="name" v="Holmesmyra" />
		<tag k="natural" v="wetland" />
		<tag k="ssr:stedsnr" v="712769" />
	</node>
	<node id="-475415" lat="60.351827778" lon="5.02525555521">
		<tag k="name" v="Åsamyrane" />
		<tag k="natural" v="wetland" />
		<tag k="ssr:stedsnr" v="470738" />
	</node>
	<node id="-475925" lat="60.4289361145" lon="4.97396388147">
		<tag k="name" v="Austra Loftsmyra" />
		<tag k="natural" v="wetland" />
		<tag k="ssr:stedsnr" v="713351" />
	</node>
	<node id="-475011" lat="60.3820222198" lon="5.02855000276">
		<tag k="name" v="Raunskormyra" />
		<tag k="natural" v="wetland" />
		<tag k="ssr:stedsnr" v="106918" />
	</node>
	<node id="-476175" lat="60.2866138898" lon="5.10675277111">
		<tag k="name" v="Storhaugmyra" />
		<tag k="natural" v="wetland" />
		<tag k="ssr:stedsnr" v="835349" />
	</node>
	<node id="-475405" lat="60.3419000036" lon="5.04073888766">
		<tag k="name" v="Bjørkemyra" />
		<tag k="natural" v="wetland" />
		<tag k="ssr:stedsnr" v="470541" />
	</node>
	<node id="-475788" lat="60.348069441" lon="4.98624166893">
		<tag k="name" v="Klausatræet" />
		<tag k="place" v="locality" />
		<tag k="ssr:stedsnr" v="652399" />
	</node>
	<node id="-474251" lat="60.4112444413" lon="4.97298888813">
		<tag k="name" v="Steinhaugmyra" />
		<tag k="natural" v="wetland" />
		<tag k="ssr:stedsnr" v="288311" />
	</node>
	<node id="-476169" lat="60.3477305569" lon="5.15843889503">
		<tag k="name" v="Hesthagen" />
		<tag k="place" v="locality" />
		<tag k="ssr:stedsnr" v="834979" />
	</node>
	<node id="-476168" lat="60.3497805511" lon="5.15312777258">
		<tag k="name" v="Maimyra" />
		<tag k="natural" v="wetland" />
		<tag k="ssr:stedsnr" v="834977" />
	</node>
	<node id="-476038" lat="60.3119861113" lon="5.11493888366">
		<tag k="name" v="Tårnamyra" />
		<tag k="natural" v="wetland" />
		<tag k="ssr:stedsnr" v="773684" />
	</node>
	<node id="-475009" lat="60.3729555592" lon="5.02666111118">
		<tag k="name" v="Liatræet" />
		<tag k="place" v="locality" />
		<tag k="ssr:stedsnr" v="106912" />
	</node>
	<node id="-474627" lat="60.393063891" lon="5.03503610417">
		<tag k="name" v="Træet" />
		<tag k="place" v="locality" />
		<tag k="ssr:stedsnr" v="410609" />
	</node>
	<node id="-474882" lat="60.2684694431" lon="5.06753334243">
		<tag k="name" v="Rindamyra" />
		<tag k="natural" v="wetland" />
		<tag k="ssr:stedsnr" v="46877" />
	</node>
	<node id="-474881" lat="60.2714277786" lon="5.02295833964">
		<tag k="name" v="Revursmyra" />
		<tag k="natural" v="wetland" />
		<tag k="ssr:stedsnr" v="46860" />
	</node>
</osm>
