<?xml version="1.0" encoding="UTF-8"?>
<osm generator="osmapis" version="0.6">
	<node id="-475136" lat="60.3390666691" lon="5.14247500456">
		<tag k="name" v="Høgestølen" />
		<tag k="natural" v="hill" />
		<tag k="place" v="locality" />
		<tag k="ssr:stedsnr" v="369778" />
	</node>
	<node id="-475133" lat="60.3168000017" lon="5.1728361066">
		<tag k="name" v="Rundelen" />
		<tag k="natural" v="hill" />
		<tag k="place" v="locality" />
		<tag k="ssr:stedsnr" v="369742" />
	</node>
	<node id="-475129" lat="60.3352722234" lon="5.09426666163">
		<tag k="fixme" v="consider natural=peak for the most distinct mountains in the district" />
		<tag k="name" v="Vardafjellet" />
		<tag k="natural" v="hill" />
		<tag k="place" v="locality" />
		<tag k="ssr:stedsnr" v="369662" />
	</node>
	<node id="-475128" lat="60.3817250022" lon="5.14550278299">
		<tag k="name" v="Botlanipene" />
		<tag k="natural" v="hill" />
		<tag k="place" v="locality" />
		<tag k="ssr:stedsnr" v="369587" />
	</node>
	<node id="-475126" lat="60.2741519438" lon="5.04786146477">
		<tag k="fixme" v="consider natural=peak for the most distinct mountains in the district" />
		<tag k="name" v="Rundehaugen" />
		<tag k="natural" v="hill" />
		<tag k="place" v="locality" />
		<tag k="ssr:stedsnr" v="369423" />
	</node>
	<node id="-475125" lat="60.2852750008" lon="5.02858055081">
		<tag k="fixme" v="consider natural=peak for the most distinct mountains in the district" />
		<tag k="name" v="Storhaugen" />
		<tag k="natural" v="hill" />
		<tag k="place" v="locality" />
		<tag k="ssr:stedsnr" v="369402" />
	</node>
	<node id="-475114" lat="60.3907861119" lon="5.12187221473">
		<tag k="name" v="Stortua" />
		<tag k="natural" v="hill" />
		<tag k="place" v="locality" />
		<tag k="ssr:stedsnr" v="349944" />
	</node>
	<node id="-475113" lat="60.3923611152" lon="5.07605554785">
		<tag k="name" v="Søre Nuten" />
		<tag k="natural" v="hill" />
		<tag k="place" v="locality" />
		<tag k="ssr:stedsnr" v="349941" />
	</node>
	<node id="-475110" lat="60.2790555514" lon="5.06412500474">
		<tag k="name" v="Tårnadalen" />
		<tag k="natural" v="valley" />
		<tag k="place" v="locality" />
		<tag k="ssr:stedsnr" v="349911" />
	</node>
	<node id="-475109" lat="60.2784694478" lon="5.03574445289">
		<tag k="fixme" v="consider natural=peak for the most distinct mountains in the district" />
		<tag k="name" v="Larsafjellet" />
		<tag k="natural" v="hill" />
		<tag k="place" v="locality" />
		<tag k="ssr:stedsnr" v="349896" />
	</node>
	<node id="-475108" lat="60.2659861151" lon="5.03405277598">
		<tag k="name" v="Isbragdet" />
		<tag k="natural" v="hill" />
		<tag k="place" v="locality" />
		<tag k="ssr:stedsnr" v="349895" />
	</node>
	<node id="-475107" lat="60.279366671" lon="5.01376111137">
		<tag k="name" v="Glamshaugen" />
		<tag k="natural" v="hill" />
		<tag k="place" v="locality" />
		<tag k="ssr:stedsnr" v="349871" />
	</node>
	<node id="-475106" lat="60.4008777733" lon="5.02950554844">
		<tag k="name" v="Kleivhaugen" />
		<tag k="natural" v="hill" />
		<tag k="place" v="locality" />
		<tag k="ssr:stedsnr" v="349679" />
	</node>
	<node id="-475102" lat="60.3379777757" lon="5.07985833193">
		<tag k="name" v="Halvgjedalen" />
		<tag k="natural" v="valley" />
		<tag k="place" v="locality" />
		<tag k="ssr:stedsnr" v="349628" />
	</node>
	<node id="-475101" lat="60.3415277772" lon="5.01869167412">
		<tag k="name" v="Stemhaugen" />
		<tag k="natural" v="hill" />
		<tag k="place" v="locality" />
		<tag k="ssr:stedsnr" v="349615" />
	</node>
	<node id="-475100" lat="60.3283027782" lon="5.01720278052">
		<tag k="name" v="Strenghaugen" />
		<tag k="natural" v="hill" />
		<tag k="place" v="locality" />
		<tag k="ssr:stedsnr" v="349616" />
	</node>
	<node id="-475099" lat="60.3413944427" lon="5.03414999698">
		<tag k="name" v="Blombotnen" />
		<tag k="natural" v="valley" />
		<tag k="place" v="locality" />
		<tag k="ssr:stedsnr" v="349599" />
	</node>
	<node id="-475098" lat="60.3652444483" lon="5.11699444361">
		<tag k="name" v="Skipsdalen" />
		<tag k="natural" v="valley" />
		<tag k="place" v="locality" />
		<tag k="ssr:stedsnr" v="349575" />
	</node>
	<node id="-475090" lat="60.3245500018" lon="5.00786945077">
		<tag k="name" v="Haugen" />
		<tag k="natural" v="hill" />
		<tag k="place" v="locality" />
		<tag k="ssr:stedsnr" v="349455" />
	</node>
	<node id="-475087" lat="60.3231333362" lon="5.17066666652">
		<tag k="name" v="Såta" />
		<tag k="natural" v="hill" />
		<tag k="place" v="locality" />
		<tag k="ssr:stedsnr" v="349403" />
	</node>
	<node id="-475085" lat="60.2983916632" lon="5.07510554718">
		<tag k="name" v="Stavedalen" />
		<tag k="natural" v="valley" />
		<tag k="place" v="locality" />
		<tag k="ssr:stedsnr" v="349389" />
	</node>
	<node id="-475083" lat="60.307972221" lon="5.17071388298">
		<tag k="name" v="Storhaugen" />
		<tag k="natural" v="hill" />
		<tag k="place" v="locality" />
		<tag k="ssr:stedsnr" v="349383" />
	</node>
	<node id="-475082" lat="60.2896249963" lon="5.11164444508">
		<tag k="fixme" v="consider natural=peak for the most distinct mountains in the district" />
		<tag k="name" v="Øvsta Ørnanipa" />
		<tag k="natural" v="hill" />
		<tag k="place" v="locality" />
		<tag k="ssr:stedsnr" v="349376" />
	</node>
	<node id="-475081" lat="60.287036109" lon="5.10129721801">
		<tag k="fixme" v="consider natural=peak for the most distinct mountains in the district" />
		<tag k="name" v="Otrafjellet" />
		<tag k="natural" v="hill" />
		<tag k="place" v="locality" />
		<tag k="ssr:stedsnr" v="349374" />
	</node>
	<node id="-475080" lat="60.2959166686" lon="5.10379445224">
		<tag k="fixme" v="consider natural=peak for the most distinct mountains in the district" />
		<tag k="name" v="Varden" />
		<tag k="natural" v="hill" />
		<tag k="place" v="locality" />
		<tag k="ssr:stedsnr" v="349368" />
	</node>
	<node id="-475079" lat="60.3747805602" lon="4.98057778337">
		<tag k="name" v="Hatlane" />
		<tag k="natural" v="hill" />
		<tag k="place" v="locality" />
		<tag k="ssr:stedsnr" v="349337" />
	</node>
	<node id="-475077" lat="60.343016667" lon="5.07385834074">
		<tag k="name" v="Tredjavasstoppen" />
		<tag k="natural" v="hill" />
		<tag k="place" v="locality" />
		<tag k="ssr:stedsnr" v="349305" />
	</node>
	<node id="-475074" lat="60.3503833361" lon="5.14021110988">
		<tag k="fixme" v="consider natural=peak for the most distinct mountains in the district" />
		<tag k="name" v="Skogadalsfjella" />
		<tag k="natural" v="hill" />
		<tag k="place" v="locality" />
		<tag k="ssr:stedsnr" v="348985" />
	</node>
	<node id="-475068" lat="60.3832527745" lon="5.03376389413">
		<tag k="name" v="Valkedalsheiane" />
		<tag k="natural" v="hill" />
		<tag k="place" v="locality" />
		<tag k="ssr:stedsnr" v="348883" />
	</node>
	<node id="-475058" lat="60.3388277749" lon="5.13402777109">
		<tag k="name" v="Flåpyntane" />
		<tag k="natural" v="hill" />
		<tag k="place" v="locality" />
		<tag k="ssr:stedsnr" v="348763" />
	</node>
	<node id="-475054" lat="60.3663944423" lon="5.01055000863">
		<tag k="name" v="Breimyrhaugen" />
		<tag k="natural" v="hill" />
		<tag k="place" v="locality" />
		<tag k="ssr:stedsnr" v="348735" />
	</node>
	<node id="-475053" lat="60.2902055597" lon="5.04842222983">
		<tag k="name" v="Ørnaseta" />
		<tag k="natural" v="hill" />
		<tag k="place" v="locality" />
		<tag k="ssr:stedsnr" v="348710" />
	</node>
	<node id="-475052" lat="60.2875833343" lon="5.04285277625">
		<tag k="fixme" v="consider natural=peak for the most distinct mountains in the district" />
		<tag k="name" v="Storabrekka" />
		<tag k="natural" v="hill" />
		<tag k="place" v="locality" />
		<tag k="ssr:stedsnr" v="348703" />
	</node>
	<node id="-475051" lat="60.3146000004" lon="5.09408055437">
		<tag k="name" v="Tunga" />
		<tag k="natural" v="hill" />
		<tag k="place" v="locality" />
		<tag k="ssr:stedsnr" v="348693" />
	</node>
	<node id="-475048" lat="60.2894611081" lon="5.06009166468">
		<tag k="fixme" v="consider natural=peak for the most distinct mountains in the district" />
		<tag k="name" v="Dalafjellet" />
		<tag k="natural" v="hill" />
		<tag k="place" v="locality" />
		<tag k="ssr:stedsnr" v="348678" />
	</node>
	<node id="-475040" lat="60.4537583359" lon="4.9823444435">
		<tag k="name" v="Vestre Kvarven" />
		<tag k="natural" v="hill" />
		<tag k="place" v="locality" />
		<tag k="ssr:stedsnr" v="348625" />
	</node>
	<node id="-475039" lat="60.3089305563" lon="5.02469167505">
		<tag k="name" v="Vardhaugen" />
		<tag k="natural" v="hill" />
		<tag k="place" v="locality" />
		<tag k="ssr:stedsnr" v="348615" />
	</node>
	<node id="-475038" lat="60.319816664" lon="5.01871944843">
		<tag k="name" v="Botnen" />
		<tag k="natural" v="valley" />
		<tag k="place" v="locality" />
		<tag k="ssr:stedsnr" v="348611" />
	</node>
	<node id="-475037" lat="60.449280556" lon="4.95485556178">
		<tag k="name" v="Stekkefjellet" />
		<tag k="natural" v="hill" />
		<tag k="place" v="locality" />
		<tag k="ssr:stedsnr" v="348357" />
	</node>
	<node id="-475036" lat="60.4317083322" lon="4.96232500788">
		<tag k="name" v="Utfallet" />
		<tag k="natural" v="hill" />
		<tag k="place" v="locality" />
		<tag k="ssr:stedsnr" v="348338" />
	</node>
	<node id="-475033" lat="60.4365888866" lon="4.91762222431">
		<tag k="name" v="Kaggavikfjellet" />
		<tag k="natural" v="hill" />
		<tag k="place" v="locality" />
		<tag k="ssr:stedsnr" v="348292" />
	</node>
	<node id="-475032" lat="60.4501527762" lon="4.9104333265">
		<tag k="name" v="Kammane" />
		<tag k="natural" v="hill" />
		<tag k="place" v="locality" />
		<tag k="ssr:stedsnr" v="348288" />
	</node>
	<node id="-475031" lat="60.450519443" lon="4.91773056277">
		<tag k="name" v="Såta" />
		<tag k="natural" v="hill" />
		<tag k="place" v="locality" />
		<tag k="ssr:stedsnr" v="348286" />
	</node>
	<node id="-475028" lat="60.3732499967" lon="4.987125001">
		<tag k="fixme" v="consider natural=peak for the most distinct mountains in the district" />
		<tag k="name" v="Eidesfjellet" />
		<tag k="natural" v="hill" />
		<tag k="place" v="locality" />
		<tag k="ssr:stedsnr" v="348271" />
	</node>
	<node id="-475018" lat="60.4537833332" lon="4.98639443783">
		<tag k="name" v="Søra Såta" />
		<tag k="natural" v="hill" />
		<tag k="place" v="locality" />
		<tag k="ssr:stedsnr" v="348022" />
	</node>
	<node id="-474990" lat="60.3262611149" lon="5.10455833304">
		<tag k="fixme" v="consider natural=peak for the most distinct mountains in the district" />
		<tag k="name" v="Lantefjellet" />
		<tag k="natural" v="hill" />
		<tag k="place" v="locality" />
		<tag k="ssr:stedsnr" v="309786" />
	</node>
	<node id="-474986" lat="60.3114583359" lon="5.10769999818">
		<tag k="fixme" v="consider natural=peak for the most distinct mountains in the district" />
		<tag k="name" v="Liatårnet" />
		<tag k="natural" v="hill" />
		<tag k="place" v="locality" />
		<tag k="ssr:stedsnr" v="309746" />
	</node>
	<node id="-474984" lat="60.3493583371" lon="4.95989444177">
		<tag k="fixme" v="consider natural=peak for the most distinct mountains in the district" />
		<tag k="name" v="Storevarden" />
		<tag k="natural" v="hill" />
		<tag k="place" v="locality" />
		<tag k="ssr:stedsnr" v="309387" />
	</node>
	<node id="-474978" lat="60.3529861118" lon="5.02973888705">
		<tag k="name" v="Stokkadalen" />
		<tag k="natural" v="valley" />
		<tag k="place" v="locality" />
		<tag k="ssr:stedsnr" v="309310" />
	</node>
	<node id="-474968" lat="60.3187777775" lon="5.05751111167">
		<tag k="fixme" v="consider natural=peak for the most distinct mountains in the district" />
		<tag k="name" v="Ørnafjellet" />
		<tag k="natural" v="hill" />
		<tag k="place" v="locality" />
		<tag k="ssr:stedsnr" v="309534" />
	</node>
	<node id="-474961" lat="60.2813472183" lon="5.00898888509">
		<tag k="name" v="Ramsdalen" />
		<tag k="natural" v="valley" />
		<tag k="place" v="locality" />
		<tag k="ssr:stedsnr" v="308403" />
	</node>
	<node id="-474951" lat="60.3895055531" lon="5.02717499905">
		<tag k="fixme" v="consider natural=peak for the most distinct mountains in the district" />
		<tag k="name" v="Spjeldsfjellet" />
		<tag k="natural" v="hill" />
		<tag k="place" v="locality" />
		<tag k="ssr:stedsnr" v="308277" />
	</node>
	<node id="-476992" lat="60.3700111108" lon="5.04244721891">
		<tag k="name" v="Skjenet" />
		<tag k="natural" v="hill" />
		<tag k="place" v="locality" />
		<tag k="ssr:stedsnr" v="956930" />
	</node>
	<node id="-476991" lat="60.3741611158" lon="5.05572778332">
		<tag k="name" v="Saufjellet" />
		<tag k="natural" v="hill" />
		<tag k="place" v="locality" />
		<tag k="ssr:stedsnr" v="956926" />
	</node>
	<node id="-476990" lat="60.269508335" lon="5.06683888871">
		<tag k="name" v="Stonga" />
		<tag k="natural" v="hill" />
		<tag k="place" v="locality" />
		<tag k="ssr:stedsnr" v="956865" />
	</node>
	<node id="-476989" lat="60.3501138881" lon="5.01299444506">
		<tag k="name" v="Selstadfjellet" />
		<tag k="natural" v="hill" />
		<tag k="place" v="locality" />
		<tag k="ssr:stedsnr" v="956753" />
	</node>
	<node id="-476988" lat="60.390902782" lon="5.01438332889">
		<tag k="name" v="Orrhaugen" />
		<tag k="natural" v="hill" />
		<tag k="place" v="locality" />
		<tag k="ssr:stedsnr" v="956680" />
	</node>
	<node id="-476987" lat="60.389769441" lon="5.02605278719">
		<tag k="name" v="Varden" />
		<tag k="natural" v="hill" />
		<tag k="place" v="locality" />
		<tag k="ssr:stedsnr" v="956667" />
	</node>
	<node id="-474936" lat="60.365330554" lon="5.15944444604">
		<tag k="name" v="Torskaberga" />
		<tag k="natural" v="hill" />
		<tag k="place" v="locality" />
		<tag k="ssr:stedsnr" v="288993" />
	</node>
	<node id="-476983" lat="60.3418944445" lon="5.10153333369">
		<tag k="name" v="Ådnekletten" />
		<tag k="natural" v="hill" />
		<tag k="place" v="locality" />
		<tag k="ssr:stedsnr" v="956639" />
	</node>
	<node id="-476982" lat="60.3269944419" lon="5.09001111099">
		<tag k="name" v="Gamlasvedene" />
		<tag k="natural" v="hill" />
		<tag k="place" v="locality" />
		<tag k="ssr:stedsnr" v="956640" />
	</node>
	<node id="-476981" lat="60.3263694412" lon="5.09824722899">
		<tag k="name" v="Dyrdalen" />
		<tag k="natural" v="valley" />
		<tag k="place" v="locality" />
		<tag k="ssr:stedsnr" v="956633" />
	</node>
	<node id="-476979" lat="60.3265111146" lon="5.02373610341">
		<tag k="name" v="Klumphellerhaugen" />
		<tag k="natural" v="hill" />
		<tag k="place" v="locality" />
		<tag k="ssr:stedsnr" v="956610" />
	</node>
	<node id="-474930" lat="60.3744944454" lon="5.02400834101">
		<tag k="name" v="Fagrevollen" />
		<tag k="natural" v="slope" />
		<tag k="place" v="locality" />
		<tag k="ssr:stedsnr" v="288928" />
	</node>
	<node id="-474929" lat="60.3723055592" lon="5.03607500133">
		<tag k="name" v="Dalane" />
		<tag k="natural" v="valley" />
		<tag k="place" v="locality" />
		<tag k="ssr:stedsnr" v="288921" />
	</node>
	<node id="-474928" lat="60.371344446" lon="5.02022777227">
		<tag k="name" v="Stokkafjellet" />
		<tag k="natural" v="hill" />
		<tag k="place" v="locality" />
		<tag k="ssr:stedsnr" v="288905" />
	</node>
	<node id="-474927" lat="60.3679111143" lon="5.02384445118">
		<tag k="name" v="Djupedalshaugen" />
		<tag k="natural" v="hill" />
		<tag k="place" v="locality" />
		<tag k="ssr:stedsnr" v="288901" />
	</node>
	<node id="-476972" lat="60.3698416642" lon="4.94807777671">
		<tag k="name" v="Varden" />
		<tag k="natural" v="hill" />
		<tag k="place" v="locality" />
		<tag k="ssr:stedsnr" v="956480" />
	</node>
	<node id="-474923" lat="60.296008333" lon="5.08469443785">
		<tag k="name" v="Tjørnhaugen" />
		<tag k="natural" v="hill" />
		<tag k="place" v="locality" />
		<tag k="ssr:stedsnr" v="288870" />
	</node>
	<node id="-474922" lat="60.2754388885" lon="5.06223334024">
		<tag k="name" v="Kråkena" />
		<tag k="natural" v="hill" />
		<tag k="place" v="locality" />
		<tag k="ssr:stedsnr" v="288861" />
	</node>
	<node id="-474921" lat="60.2765638901" lon="5.0120472304">
		<tag k="name" v="Migemaurhelleren" />
		<tag k="natural" v="hill" />
		<tag k="place" v="locality" />
		<tag k="ssr:stedsnr" v="288858" />
	</node>
	<node id="-474920" lat="60.2742666678" lon="5.0274749956">
		<tag k="name" v="Grønhelleren" />
		<tag k="natural" v="hill" />
		<tag k="place" v="locality" />
		<tag k="ssr:stedsnr" v="288855" />
	</node>
	<node id="-474919" lat="60.2736055543" lon="5.04857500032">
		<tag k="name" v="Haugen" />
		<tag k="natural" v="hill" />
		<tag k="place" v="locality" />
		<tag k="ssr:stedsnr" v="288853" />
	</node>
	<node id="-474918" lat="60.2648166683" lon="5.05214999324">
		<tag k="name" v="Skinka" />
		<tag k="natural" v="hill" />
		<tag k="place" v="locality" />
		<tag k="ssr:stedsnr" v="288848" />
	</node>
	<node id="-474916" lat="60.3104805589" lon="4.9829416617">
		<tag k="name" v="Varden" />
		<tag k="natural" v="hill" />
		<tag k="place" v="locality" />
		<tag k="ssr:stedsnr" v="288840" />
	</node>
	<node id="-474915" lat="60.313744443" lon="4.9725583384">
		<tag k="name" v="Kjerhovden" />
		<tag k="natural" v="hill" />
		<tag k="place" v="locality" />
		<tag k="ssr:stedsnr" v="288837" />
	</node>
	<node id="-474913" lat="60.3148027778" lon="4.98923888554">
		<tag k="name" v="Djupedalen" />
		<tag k="natural" v="valley" />
		<tag k="place" v="locality" />
		<tag k="ssr:stedsnr" v="288826" />
	</node>
	<node id="-474910" lat="60.3624333377" lon="5.03483611935">
		<tag k="name" v="Hatten" />
		<tag k="natural" v="hill" />
		<tag k="place" v="locality" />
		<tag k="ssr:stedsnr" v="288725" />
	</node>
	<node id="-474909" lat="60.3645305537" lon="5.05428056392">
		<tag k="name" v="Tjørnhaugen" />
		<tag k="natural" v="hill" />
		<tag k="place" v="locality" />
		<tag k="ssr:stedsnr" v="288722" />
	</node>
	<node id="-474908" lat="60.3476472228" lon="5.06053888389">
		<tag k="name" v="Kyrkjenibben" />
		<tag k="natural" v="hill" />
		<tag k="place" v="locality" />
		<tag k="ssr:stedsnr" v="288702" />
	</node>
	<node id="-474906" lat="60.3187916658" lon="5.11544445028">
		<tag k="name" v="Pyttane" />
		<tag k="natural" v="slope" />
		<tag k="place" v="locality" />
		<tag k="ssr:stedsnr" v="288678" />
	</node>
	<node id="-476952" lat="60.3295305571" lon="5.00334999764">
		<tag k="name" v="Steinaberget" />
		<tag k="natural" v="hill" />
		<tag k="place" v="locality" />
		<tag k="ssr:stedsnr" v="956287" />
	</node>
	<node id="-474902" lat="60.4235638883" lon="4.97238888868">
		<tag k="fixme" v="consider natural=peak for the most distinct mountains in the district" />
		<tag k="name" v="Litlestølen" />
		<tag k="natural" v="hill" />
		<tag k="place" v="locality" />
		<tag k="ssr:stedsnr" v="288608" />
	</node>
	<node id="-474900" lat="60.4526777734" lon="4.90775000026">
		<tag k="name" v="Turøybjørnen" />
		<tag k="natural" v="hill" />
		<tag k="place" v="locality" />
		<tag k="ssr:stedsnr" v="288601" />
	</node>
	<node id="-476947" lat="60.3219555602" lon="5.00760000829">
		<tag k="name" v="Skogskletten" />
		<tag k="natural" v="hill" />
		<tag k="place" v="locality" />
		<tag k="ssr:stedsnr" v="955849" />
	</node>
	<node id="-474898" lat="60.3219083376" lon="5.01004999957">
		<tag k="name" v="Træsfjellet" />
		<tag k="natural" v="hill" />
		<tag k="place" v="locality" />
		<tag k="ssr:stedsnr" v="288581" />
	</node>
	<node id="-474897" lat="60.3976694468" lon="5.02660833872">
		<tag k="name" v="Glåmsen" />
		<tag k="natural" v="hill" />
		<tag k="place" v="locality" />
		<tag k="ssr:stedsnr" v="288571" />
	</node>
	<node id="-474896" lat="60.3912805575" lon="5.04523611644">
		<tag k="name" v="Otersteinen" />
		<tag k="natural" v="hill" />
		<tag k="place" v="locality" />
		<tag k="ssr:stedsnr" v="288570" />
	</node>
	<node id="-474895" lat="60.3908722194" lon="5.04172777793">
		<tag k="name" v="Skipmannen" />
		<tag k="natural" v="hill" />
		<tag k="place" v="locality" />
		<tag k="ssr:stedsnr" v="288568" />
	</node>
	<node id="-474890" lat="60.3427861126" lon="5.08740277862">
		<tag k="name" v="Blommafjellet" />
		<tag k="natural" v="hill" />
		<tag k="place" v="locality" />
		<tag k="ssr:stedsnr" v="288538" />
	</node>
	<node id="-474888" lat="60.329027774" lon="5.11932500806">
		<tag k="name" v="Botnen" />
		<tag k="place" v="locality" />
		<tag k="ssr:stedsnr" v="288533" />
	</node>
	<node id="-474887" lat="60.3369805542" lon="5.02344721544">
		<tag k="name" v="Skjenhaugen" />
		<tag k="natural" v="hill" />
		<tag k="place" v="locality" />
		<tag k="ssr:stedsnr" v="288519" />
	</node>
	<node id="-476934" lat="60.3401416668" lon="5.15277500384">
		<tag k="name" v="Tomashaugen" />
		<tag k="natural" v="hill" />
		<tag k="place" v="locality" />
		<tag k="ssr:stedsnr" v="955777" />
	</node>
	<node id="-474884" lat="60.3653999989" lon="5.08016667526">
		<tag k="name" v="Råhaugen" />
		<tag k="natural" v="hill" />
		<tag k="place" v="locality" />
		<tag k="ssr:stedsnr" v="288485" />
	</node>
	<node id="-474883" lat="60.3614249961" lon="5.10160278304">
		<tag k="name" v="Varden" />
		<tag k="natural" v="hill" />
		<tag k="place" v="locality" />
		<tag k="ssr:stedsnr" v="288484" />
	</node>
	<node id="-476930" lat="60.3054833365" lon="5.08453056048">
		<tag k="fixme" v="consider natural=peak for the most distinct mountains in the district" />
		<tag k="name" v="Åsane" />
		<tag k="natural" v="hill" />
		<tag k="place" v="locality" />
		<tag k="ssr:stedsnr" v="955678" />
	</node>
	<node id="-476929" lat="60.3115722182" lon="5.07113611283">
		<tag k="name" v="Ørnhaugen" />
		<tag k="natural" v="hill" />
		<tag k="place" v="locality" />
		<tag k="ssr:stedsnr" v="955668" />
	</node>
	<node id="-476928" lat="60.3133888933" lon="5.07531388679">
		<tag k="name" v="Forhaugen" />
		<tag k="natural" v="hill" />
		<tag k="place" v="locality" />
		<tag k="ssr:stedsnr" v="955667" />
	</node>
	<node id="-476926" lat="60.3054888845" lon="5.04010555417">
		<tag k="name" v="Bjørnasteinen" />
		<tag k="natural" v="hill" />
		<tag k="place" v="locality" />
		<tag k="ssr:stedsnr" v="955645" />
	</node>
	<node id="-476923" lat="60.3118000039" lon="5.00972500128">
		<tag k="name" v="Stongarhaugen" />
		<tag k="natural" v="hill" />
		<tag k="place" v="locality" />
		<tag k="ssr:stedsnr" v="955636" />
	</node>
	<node id="-476919" lat="60.4132750027" lon="4.98316667365">
		<tag k="name" v="Kjeldeberget" />
		<tag k="natural" v="ridge" />
		<tag k="place" v="locality" />
		<tag k="ssr:stedsnr" v="955317" />
	</node>
	<node id="-476915" lat="60.3904777764" lon="5.13767499449">
		<tag k="name" v="Langedalen" />
		<tag k="natural" v="valley" />
		<tag k="place" v="locality" />
		<tag k="ssr:stedsnr" v="955017" />
	</node>
	<node id="-474866" lat="60.4451083375" lon="4.97374444185">
		<tag k="name" v="Avnesfjellet" />
		<tag k="natural" v="hill" />
		<tag k="place" v="locality" />
		<tag k="ssr:stedsnr" v="288334" />
	</node>
	<node id="-474865" lat="60.3231805541" lon="5.17329999756">
		<tag k="name" v="Dalen" />
		<tag k="natural" v="valley" />
		<tag k="place" v="locality" />
		<tag k="ssr:stedsnr" v="288335" />
	</node>
	<node id="-474863" lat="60.4505916628" lon="4.95444167252">
		<tag k="name" v="Synningen" />
		<tag k="natural" v="hill" />
		<tag k="place" v="locality" />
		<tag k="ssr:stedsnr" v="288328" />
	</node>
	<node id="-474861" lat="60.2970638913" lon="5.12187500343">
		<tag k="name" v="Trollhaugen" />
		<tag k="natural" v="hill" />
		<tag k="place" v="locality" />
		<tag k="ssr:stedsnr" v="288323" />
	</node>
	<node id="-474860" lat="60.4175722198" lon="4.99502222378">
		<tag k="name" v="Bleivasshaugane" />
		<tag k="natural" v="hill" />
		<tag k="place" v="locality" />
		<tag k="ssr:stedsnr" v="288317" />
	</node>
	<node id="-474859" lat="60.4206694477" lon="4.99268888158">
		<tag k="name" v="Barneshaugen" />
		<tag k="natural" v="hill" />
		<tag k="place" v="locality" />
		<tag k="ssr:stedsnr" v="288318" />
	</node>
	<node id="-476903" lat="60.3157277802" lon="5.09479444515">
		<tag k="name" v="Bjørkedalen" />
		<tag k="natural" v="valley" />
		<tag k="place" v="locality" />
		<tag k="ssr:stedsnr" v="916788" />
	</node>
	<node id="-474853" lat="60.3827666634" lon="5.05126111772">
		<tag k="name" v="Arhaugen" />
		<tag k="natural" v="hill" />
		<tag k="place" v="locality" />
		<tag k="ssr:stedsnr" v="288252" />
	</node>
	<node id="-474845" lat="60.3094694445" lon="5.04426943798">
		<tag k="name" v="Langehaugen" />
		<tag k="natural" v="hill" />
		<tag k="place" v="locality" />
		<tag k="ssr:stedsnr" v="284662" />
	</node>
	<node id="-476892" lat="60.3454333365" lon="5.00997499543">
		<tag k="fixme" v="consider natural=peak for the most distinct mountains in the district" />
		<tag k="name" v="Rundehaugen" />
		<tag k="natural" v="hill" />
		<tag k="place" v="locality" />
		<tag k="ssr:stedsnr" v="916277" />
	</node>
	<node id="-476883" lat="60.3034333343" lon="5.10429444083">
		<tag k="fixme" v="consider natural=peak for the most distinct mountains in the district" />
		<tag k="name" v="Høgafjellet" />
		<tag k="natural" v="hill" />
		<tag k="place" v="locality" />
		<tag k="ssr:stedsnr" v="915871" />
	</node>
	<node id="-476882" lat="60.2893083366" lon="5.0962722307">
		<tag k="fixme" v="consider natural=peak for the most distinct mountains in the district" />
		<tag k="name" v="Ravnafjellet" />
		<tag k="natural" v="hill" />
		<tag k="place" v="locality" />
		<tag k="ssr:stedsnr" v="915848" />
	</node>
	<node id="-476865" lat="60.3157694478" lon="5.03168611124">
		<tag k="fixme" v="consider natural=peak for the most distinct mountains in the district" />
		<tag k="name" v="Nonfjellet" />
		<tag k="natural" v="hill" />
		<tag k="place" v="locality" />
		<tag k="ssr:stedsnr" v="915274" />
	</node>
	<node id="-476864" lat="60.3089111086" lon="5.07883333501">
		<tag k="fixme" v="consider natural=peak for the most distinct mountains in the district" />
		<tag k="name" v="Kolafjellet" />
		<tag k="natural" v="hill" />
		<tag k="place" v="locality" />
		<tag k="ssr:stedsnr" v="915272" />
	</node>
	<node id="-475424" lat="60.4134555574" lon="4.98651665945">
		<tag k="name" v="Djupedalen" />
		<tag k="natural" v="valley" />
		<tag k="place" v="locality" />
		<tag k="ssr:stedsnr" v="45333" />
	</node>
	<node id="-476820" lat="60.4464666629" lon="4.95980834205">
		<tag k="name" v="Storhaugen" />
		<tag k="natural" v="hill" />
		<tag k="place" v="locality" />
		<tag k="ssr:stedsnr" v="855142" />
	</node>
	<node id="-476817" lat="60.3789805576" lon="5.04736110915">
		<tag k="name" v="Kvernadalen" />
		<tag k="natural" v="valley" />
		<tag k="place" v="locality" />
		<tag k="ssr:stedsnr" v="835947" />
	</node>
	<node id="-476816" lat="60.3679305539" lon="5.04681388918">
		<tag k="name" v="Fjellskardalen" />
		<tag k="natural" v="valley" />
		<tag k="place" v="locality" />
		<tag k="ssr:stedsnr" v="835945" />
	</node>
	<node id="-476814" lat="60.2703750029" lon="5.04929444253">
		<tag k="name" v="Borddalen" />
		<tag k="natural" v="valley" />
		<tag k="place" v="locality" />
		<tag k="ssr:stedsnr" v="835892" />
	</node>
	<node id="-476811" lat="60.3551861117" lon="5.06363610663">
		<tag k="name" v="Nubben" />
		<tag k="natural" v="hill" />
		<tag k="place" v="locality" />
		<tag k="ssr:stedsnr" v="835759" />
	</node>
	<node id="-476810" lat="60.3541194486" lon="5.02159722538">
		<tag k="name" v="Djupedalsfjellet" />
		<tag k="natural" v="hill" />
		<tag k="place" v="locality" />
		<tag k="ssr:stedsnr" v="835756" />
	</node>
	<node id="-476809" lat="60.3908388871" lon="5.02758334238">
		<tag k="name" v="Fjellsbrekkene" />
		<tag k="natural" v="slope" />
		<tag k="place" v="locality" />
		<tag k="ssr:stedsnr" v="835668" />
	</node>
	<node id="-476805" lat="60.3383555551" lon="5.09378333118">
		<tag k="name" v="Steinane" />
		<tag k="natural" v="hill" />
		<tag k="place" v="locality" />
		<tag k="ssr:stedsnr" v="835627" />
	</node>
	<node id="-476804" lat="60.3280555551" lon="5.10704999888">
		<tag k="name" v="Karihaugane" />
		<tag k="natural" v="hill" />
		<tag k="place" v="locality" />
		<tag k="ssr:stedsnr" v="835625" />
	</node>
	<node id="-476803" lat="60.3363916657" lon="5.11308333305">
		<tag k="name" v="Javnhaugen" />
		<tag k="natural" v="hill" />
		<tag k="place" v="locality" />
		<tag k="ssr:stedsnr" v="835614" />
	</node>
	<node id="-476802" lat="60.333566668" lon="5.06834722583">
		<tag k="name" v="Kvernhaugen" />
		<tag k="natural" v="hill" />
		<tag k="place" v="locality" />
		<tag k="ssr:stedsnr" v="835606" />
	</node>
	<node id="-476801" lat="60.3655777764" lon="5.04255277901">
		<tag k="name" v="Fjellskaret" />
		<tag k="natural" v="valley" />
		<tag k="place" v="locality" />
		<tag k="ssr:stedsnr" v="835572" />
	</node>
	<node id="-476800" lat="60.3479361145" lon="5.07532222424">
		<tag k="name" v="Skjenhaugen" />
		<tag k="natural" v="hill" />
		<tag k="place" v="locality" />
		<tag k="ssr:stedsnr" v="835565" />
	</node>
	<node id="-476794" lat="60.3272722231" lon="4.94938055391">
		<tag k="name" v="Skjenet" />
		<tag k="natural" v="hill" />
		<tag k="place" v="locality" />
		<tag k="ssr:stedsnr" v="835478" />
	</node>
	<node id="-476793" lat="60.3527388901" lon="5.00325277202">
		<tag k="name" v="Nordre Engeshaugen" />
		<tag k="natural" v="hill" />
		<tag k="place" v="locality" />
		<tag k="ssr:stedsnr" v="835473" />
	</node>
	<node id="-476791" lat="60.3467027744" lon="4.97164722379">
		<tag k="name" v="Kletten" />
		<tag k="natural" v="hill" />
		<tag k="place" v="locality" />
		<tag k="ssr:stedsnr" v="835444" />
	</node>
	<node id="-476783" lat="60.2911999999" lon="5.10450276948">
		<tag k="fixme" v="consider natural=peak for the most distinct mountains in the district" />
		<tag k="name" v="Hellefjellet" />
		<tag k="natural" v="hill" />
		<tag k="place" v="locality" />
		<tag k="ssr:stedsnr" v="835317" />
	</node>
	<node id="-476774" lat="60.3217416683" lon="4.9647833304">
		<tag k="name" v="Apalhaugen" />
		<tag k="natural" v="hill" />
		<tag k="place" v="locality" />
		<tag k="ssr:stedsnr" v="834842" />
	</node>
	<node id="-476771" lat="60.3904749966" lon="5.12701943969">
		<tag k="name" v="Høgestølen" />
		<tag k="natural" v="hill" />
		<tag k="place" v="locality" />
		<tag k="ssr:stedsnr" v="834804" />
	</node>
	<node id="-476770" lat="60.3319222204" lon="5.17379999342">
		<tag k="fixme" v="consider natural=peak for the most distinct mountains in the district" />
		<tag k="name" v="Katlafjellet" />
		<tag k="natural" v="hill" />
		<tag k="place" v="locality" />
		<tag k="ssr:stedsnr" v="834788" />
	</node>
	<node id="-476767" lat="60.2922249963" lon="5.03972777326">
		<tag k="name" v="Røssevikhaugane" />
		<tag k="natural" v="hill" />
		<tag k="place" v="locality" />
		<tag k="ssr:stedsnr" v="834720" />
	</node>
	<node id="-476763" lat="60.4428611132" lon="4.99476943901">
		<tag k="name" v="Tytebærhaugen" />
		<tag k="natural" v="hill" />
		<tag k="place" v="locality" />
		<tag k="ssr:stedsnr" v="834356" />
	</node>
	<node id="-476758" lat="60.2626500031" lon="5.03098055993">
		<tag k="fixme" v="consider natural=peak for the most distinct mountains in the district" />
		<tag k="name" v="Rindsfjellet" />
		<tag k="natural" v="hill" />
		<tag k="place" v="locality" />
		<tag k="ssr:stedsnr" v="834140" />
	</node>
	<node id="-476756" lat="60.3855833339" lon="5.12514999853">
		<tag k="name" v="Storanipa" />
		<tag k="natural" v="hill" />
		<tag k="place" v="locality" />
		<tag k="ssr:stedsnr" v="834111" />
	</node>
	<node id="-476755" lat="60.3574861116" lon="4.94682776932">
		<tag k="name" v="Skipmannshaugen" />
		<tag k="natural" v="hill" />
		<tag k="place" v="locality" />
		<tag k="ssr:stedsnr" v="834095" />
	</node>
	<node id="-476750" lat="60.3854722234" lon="4.96506389698">
		<tag k="name" v="Ørnafjellet" />
		<tag k="natural" v="hill" />
		<tag k="place" v="locality" />
		<tag k="ssr:stedsnr" v="814828" />
	</node>
	<node id="-476748" lat="60.4523055586" lon="4.91615832718">
		<tag k="name" v="Turøyvarden" />
		<tag k="natural" v="hill" />
		<tag k="place" v="locality" />
		<tag k="ssr:stedsnr" v="813907" />
	</node>
	<node id="-476736" lat="60.3327861146" lon="5.10330832924">
		<tag k="fixme" v="consider natural=peak for the most distinct mountains in the district" />
		<tag k="name" v="Skinntikevarden" />
		<tag k="natural" v="hill" />
		<tag k="place" v="locality" />
		<tag k="ssr:stedsnr" v="794796" />
	</node>
	<node id="-476729" lat="60.3423333368" lon="5.09373610559">
		<tag k="fixme" v="multiple name tags, choose one and add the other to alt_name; consider natural=peak for the most distinct mountains in the district" />
		<tag k="name" v="Bildøyfjellet;Bildøykletten" />
		<tag k="natural" v="hill" />
		<tag k="place" v="locality" />
		<tag k="ssr:stedsnr" v="794697" />
	</node>
	<node id="-476718" lat="60.4035222213" lon="5.03989722803">
		<tag k="name" v="Knappane" />
		<tag k="natural" v="hill" />
		<tag k="place" v="locality" />
		<tag k="ssr:stedsnr" v="794309" />
	</node>
	<node id="-476700" lat="60.3778277791" lon="5.02346666628">
		<tag k="name" v="Moldbrekkene" />
		<tag k="natural" v="slope" />
		<tag k="place" v="locality" />
		<tag k="ssr:stedsnr" v="774931" />
	</node>
	<node id="-476698" lat="60.3005416646" lon="5.07163611695">
		<tag k="name" v="Ulvagrana" />
		<tag k="natural" v="hill" />
		<tag k="place" v="locality" />
		<tag k="ssr:stedsnr" v="774889" />
	</node>
	<node id="-476695" lat="60.3631083376" lon="5.00892500261">
		<tag k="name" v="Grønakvilet" />
		<tag k="natural" v="hill" />
		<tag k="place" v="locality" />
		<tag k="ssr:stedsnr" v="774756" />
	</node>
	<node id="-476694" lat="60.3616388854" lon="5.01556667069">
		<tag k="name" v="Slåttefjellet" />
		<tag k="natural" v="hill" />
		<tag k="place" v="locality" />
		<tag k="ssr:stedsnr" v="774755" />
	</node>
	<node id="-476691" lat="60.3922750004" lon="5.01587776897">
		<tag k="name" v="Bjørkhaugen" />
		<tag k="natural" v="hill" />
		<tag k="place" v="locality" />
		<tag k="ssr:stedsnr" v="774680" />
	</node>
	<node id="-476687" lat="60.3393722264" lon="5.08361388213">
		<tag k="name" v="Risdalen" />
		<tag k="natural" v="valley" />
		<tag k="place" v="locality" />
		<tag k="ssr:stedsnr" v="774638" />
	</node>
	<node id="-476685" lat="60.3303916711" lon="5.01171944652">
		<tag k="name" v="Litlesignalen" />
		<tag k="natural" v="hill" />
		<tag k="place" v="locality" />
		<tag k="ssr:stedsnr" v="774610" />
	</node>
	<node id="-476677" lat="60.3933277789" lon="4.99133054815">
		<tag k="name" v="Svehaugen" />
		<tag k="natural" v="hill" />
		<tag k="place" v="locality" />
		<tag k="ssr:stedsnr" v="774481" />
	</node>
	<node id="-476676" lat="60.3979249957" lon="4.99026944782">
		<tag k="fixme" v="consider natural=peak for the most distinct mountains in the district" />
		<tag k="name" v="Grunnfjellnuten" />
		<tag k="natural" v="hill" />
		<tag k="place" v="locality" />
		<tag k="ssr:stedsnr" v="774477" />
	</node>
	<node id="-476672" lat="60.2922527788" lon="5.11935277245">
		<tag k="fixme" v="consider natural=peak for the most distinct mountains in the district" />
		<tag k="name" v="Rindane" />
		<tag k="natural" v="hill" />
		<tag k="place" v="locality" />
		<tag k="ssr:stedsnr" v="774391" />
	</node>
	<node id="-476670" lat="60.3046888898" lon="5.12720556">
		<tag k="name" v="Skoradalen" />
		<tag k="natural" v="valley" />
		<tag k="place" v="locality" />
		<tag k="ssr:stedsnr" v="774370" />
	</node>
	<node id="-476669" lat="60.2928444435" lon="5.10150000408">
		<tag k="fixme" v="consider natural=peak for the most distinct mountains in the district" />
		<tag k="name" v="Vedatåna" />
		<tag k="natural" v="hill" />
		<tag k="place" v="locality" />
		<tag k="ssr:stedsnr" v="774349" />
	</node>
	<node id="-476664" lat="60.3612916694" lon="5.13367778091">
		<tag k="fixme" v="consider natural=peak for the most distinct mountains in the district" />
		<tag k="name" v="Botnafjellet" />
		<tag k="natural" v="hill" />
		<tag k="place" v="locality" />
		<tag k="ssr:stedsnr" v="773975" />
	</node>
	<node id="-476661" lat="60.3821472189" lon="5.09280000702">
		<tag k="name" v="Husafjellet" />
		<tag k="natural" v="hill" />
		<tag k="place" v="locality" />
		<tag k="ssr:stedsnr" v="773937" />
	</node>
	<node id="-476660" lat="60.3782333363" lon="5.08135555226">
		<tag k="name" v="Bruane" />
		<tag k="natural" v="hill" />
		<tag k="place" v="locality" />
		<tag k="ssr:stedsnr" v="773928" />
	</node>
	<node id="-476658" lat="60.3695666634" lon="5.02712223052">
		<tag k="name" v="Fjæreidfjellet" />
		<tag k="natural" v="hill" />
		<tag k="place" v="locality" />
		<tag k="ssr:stedsnr" v="773876" />
	</node>
	<node id="-476655" lat="60.3935805519" lon="5.13449999688">
		<tag k="fixme" v="consider natural=peak for the most distinct mountains in the district" />
		<tag k="name" v="Breivikfjellet" />
		<tag k="natural" v="hill" />
		<tag k="place" v="locality" />
		<tag k="ssr:stedsnr" v="773781" />
	</node>
	<node id="-476654" lat="60.2969472211" lon="5.12877499995">
		<tag k="name" v="Brakelhaugen" />
		<tag k="natural" v="hill" />
		<tag k="place" v="locality" />
		<tag k="ssr:stedsnr" v="773770" />
	</node>
	<node id="-476653" lat="60.3434861107" lon="5.14776388605">
		<tag k="name" v="Hårnipa" />
		<tag k="natural" v="hill" />
		<tag k="place" v="locality" />
		<tag k="ssr:stedsnr" v="773764" />
	</node>
	<node id="-476647" lat="60.2963666659" lon="5.06367777415">
		<tag k="name" v="Nilskyrkja" />
		<tag k="natural" v="hill" />
		<tag k="place" v="locality" />
		<tag k="ssr:stedsnr" v="773674" />
	</node>
	<node id="-476646" lat="60.3209694483" lon="5.08823610698">
		<tag k="name" v="Jysthaugen" />
		<tag k="natural" v="hill" />
		<tag k="place" v="locality" />
		<tag k="ssr:stedsnr" v="773641" />
	</node>
	<node id="-476645" lat="60.3165583342" lon="5.07266666472">
		<tag k="name" v="Orrhaugen" />
		<tag k="natural" v="hill" />
		<tag k="place" v="locality" />
		<tag k="ssr:stedsnr" v="773636" />
	</node>
	<node id="-476644" lat="60.306755551" lon="5.02385277241">
		<tag k="name" v="Straudalen" />
		<tag k="natural" v="valley" />
		<tag k="place" v="locality" />
		<tag k="ssr:stedsnr" v="773611" />
	</node>
	<node id="-476643" lat="60.2871416632" lon="5.10925277388">
		<tag k="fixme" v="consider natural=peak for the most distinct mountains in the district" />
		<tag k="name" v="Ørnanipa" />
		<tag k="natural" v="hill" />
		<tag k="place" v="locality" />
		<tag k="ssr:stedsnr" v="774356" />
	</node>
	<node id="-476635" lat="60.4415361121" lon="4.91558333657">
		<tag k="name" v="Furevikfjellet" />
		<tag k="natural" v="hill" />
		<tag k="place" v="locality" />
		<tag k="ssr:stedsnr" v="773306" />
	</node>
	<node id="-476631" lat="60.27959722" lon="5.09616389622">
		<tag k="name" v="Skorane" />
		<tag k="natural" v="hill" />
		<tag k="place" v="locality" />
		<tag k="ssr:stedsnr" v="773138" />
	</node>
	<node id="-476628" lat="60.3783416657" lon="5.13086110798">
		<tag k="fixme" v="consider natural=peak for the most distinct mountains in the district" />
		<tag k="name" v="Ørnnipa" />
		<tag k="natural" v="hill" />
		<tag k="place" v="locality" />
		<tag k="ssr:stedsnr" v="773123" />
	</node>
	<node id="-476624" lat="60.33524167" lon="5.17711111886">
		<tag k="name" v="Gavlahaugane" />
		<tag k="natural" v="hill" />
		<tag k="place" v="locality" />
		<tag k="ssr:stedsnr" v="773018" />
	</node>
	<node id="-476623" lat="60.3636916674" lon="5.1619277817">
		<tag k="name" v="Torghaugane" />
		<tag k="natural" v="hill" />
		<tag k="place" v="locality" />
		<tag k="ssr:stedsnr" v="773013" />
	</node>
	<node id="-476616" lat="60.3423444439" lon="4.92408888124">
		<tag k="name" v="Barmen" />
		<tag k="natural" v="hill" />
		<tag k="place" v="locality" />
		<tag k="ssr:stedsnr" v="752160" />
	</node>
	<node id="-476591" lat="60.4190527787" lon="4.98049167431">
		<tag k="fixme" v="consider natural=peak for the most distinct mountains in the district" />
		<tag k="name" v="Harpefjellet" />
		<tag k="natural" v="hill" />
		<tag k="place" v="locality" />
		<tag k="ssr:stedsnr" v="734206" />
	</node>
	<node id="-476588" lat="60.2828361071" lon="5.11954722608">
		<tag k="name" v="Alteret" />
		<tag k="natural" v="hill" />
		<tag k="place" v="locality" />
		<tag k="ssr:stedsnr" v="733797" />
	</node>
	<node id="-476585" lat="60.3801555591" lon="5.09160000483">
		<tag k="name" v="Bruane" />
		<tag k="natural" v="hill" />
		<tag k="place" v="locality" />
		<tag k="ssr:stedsnr" v="733347" />
	</node>
	<node id="-476576" lat="60.305761114" lon="5.02337499157">
		<tag k="name" v="Træshaugen" />
		<tag k="natural" v="hill" />
		<tag k="place" v="locality" />
		<tag k="ssr:stedsnr" v="733270" />
	</node>
	<node id="-476575" lat="60.3075027778" lon="4.99428610456">
		<tag k="name" v="Kletten" />
		<tag k="natural" v="hill" />
		<tag k="place" v="locality" />
		<tag k="ssr:stedsnr" v="733266" />
	</node>
	<node id="-476566" lat="60.4323333336" lon="5.01514444971">
		<tag k="name" v="Skarvbogen" />
		<tag k="natural" v="hill" />
		<tag k="place" v="locality" />
		<tag k="ssr:stedsnr" v="713965" />
	</node>
	<node id="-476565" lat="60.3755805525" lon="5.11070000709">
		<tag k="name" v="Stølen" />
		<tag k="natural" v="slope" />
		<tag k="place" v="locality" />
		<tag k="ssr:stedsnr" v="713962" />
	</node>
	<node id="-476564" lat="60.3683249977" lon="5.06108610591">
		<tag k="name" v="Fitjadalen" />
		<tag k="natural" v="valley" />
		<tag k="place" v="locality" />
		<tag k="ssr:stedsnr" v="713934" />
	</node>
	<node id="-476563" lat="60.3763833346" lon="5.04101666079">
		<tag k="name" v="Inste Djupedalen" />
		<tag k="natural" v="valley" />
		<tag k="place" v="locality" />
		<tag k="ssr:stedsnr" v="713933" />
	</node>
	<node id="-476561" lat="60.3872027821" lon="5.01201666183">
		<tag k="name" v="Urafjellet" />
		<tag k="natural" v="hill" />
		<tag k="place" v="locality" />
		<tag k="ssr:stedsnr" v="713917" />
	</node>
	<node id="-476560" lat="60.3865111093" lon="5.0507111058">
		<tag k="name" v="Grønaseta" />
		<tag k="natural" v="hill" />
		<tag k="place" v="locality" />
		<tag k="ssr:stedsnr" v="713915" />
	</node>
	<node id="-476558" lat="60.3703111139" lon="5.05007499181">
		<tag k="name" v="Nordfjellet" />
		<tag k="natural" v="hill" />
		<tag k="place" v="locality" />
		<tag k="ssr:stedsnr" v="713909" />
	</node>
	<node id="-476557" lat="60.4002166668" lon="5.06780000318">
		<tag k="name" v="Isaken" />
		<tag k="natural" v="hill" />
		<tag k="place" v="locality" />
		<tag k="ssr:stedsnr" v="713908" />
	</node>
	<node id="-476551" lat="60.3807083347" lon="5.11230833341">
		<tag k="name" v="Træshaugen" />
		<tag k="natural" v="hill" />
		<tag k="place" v="locality" />
		<tag k="ssr:stedsnr" v="713958" />
	</node>
	<node id="-476550" lat="60.3620666695" lon="5.03053334077">
		<tag k="name" v="Midtfjellet" />
		<tag k="natural" v="hill" />
		<tag k="place" v="locality" />
		<tag k="ssr:stedsnr" v="713756" />
	</node>
	<node id="-476549" lat="60.392386115" lon="5.0470805606">
		<tag k="name" v="Jonsen" />
		<tag k="natural" v="hill" />
		<tag k="place" v="locality" />
		<tag k="ssr:stedsnr" v="713658" />
	</node>
	<node id="-476547" lat="60.3343638905" lon="5.11632499684">
		<tag k="name" v="Høghaugen" />
		<tag k="natural" v="hill" />
		<tag k="place" v="locality" />
		<tag k="ssr:stedsnr" v="713612" />
	</node>
	<node id="-476545" lat="60.3329027802" lon="5.06295833468">
		<tag k="name" v="Storevarden" />
		<tag k="natural" v="hill" />
		<tag k="place" v="locality" />
		<tag k="ssr:stedsnr" v="713583" />
	</node>
	<node id="-476544" lat="60.3635472249" lon="5.05031389051">
		<tag k="name" v="Hatlelia" />
		<tag k="natural" v="slope" />
		<tag k="place" v="locality" />
		<tag k="ssr:stedsnr" v="713561" />
	</node>
	<node id="-476543" lat="60.3481333316" lon="5.08891943668">
		<tag k="name" v="Storevardhaugen" />
		<tag k="natural" v="hill" />
		<tag k="place" v="locality" />
		<tag k="ssr:stedsnr" v="713553" />
	</node>
	<node id="-476538" lat="60.3624833326" lon="5.00221110598">
		<tag k="name" v="Nordra Såta" />
		<tag k="natural" v="hill" />
		<tag k="place" v="locality" />
		<tag k="ssr:stedsnr" v="713405" />
	</node>
	<node id="-476534" lat="60.3164666664" lon="5.13110278611">
		<tag k="name" v="Storsteinen" />
		<tag k="natural" v="hill" />
		<tag k="place" v="locality" />
		<tag k="ssr:stedsnr" v="713326" />
	</node>
	<node id="-476532" lat="60.2861000007" lon="5.07193055202">
		<tag k="name" v="Skjeltua" />
		<tag k="natural" v="hill" />
		<tag k="place" v="locality" />
		<tag k="ssr:stedsnr" v="713319" />
	</node>
	<node id="-476530" lat="60.3009194463" lon="5.10375000291">
		<tag k="fixme" v="consider natural=peak for the most distinct mountains in the district" />
		<tag k="name" v="Høgafjellet" />
		<tag k="natural" v="hill" />
		<tag k="place" v="locality" />
		<tag k="ssr:stedsnr" v="713309" />
	</node>
	<node id="-476529" lat="60.3877194478" lon="4.99629722854">
		<tag k="name" v="Kårtveitvarden" />
		<tag k="natural" v="hill" />
		<tag k="place" v="locality" />
		<tag k="ssr:stedsnr" v="713278" />
	</node>
	<node id="-476527" lat="60.3546555514" lon="5.07551665922">
		<tag k="name" v="Søre Steinhaugen" />
		<tag k="natural" v="hill" />
		<tag k="place" v="locality" />
		<tag k="ssr:stedsnr" v="713272" />
	</node>
	<node id="-476522" lat="60.3546416692" lon="5.13677221434">
		<tag k="name" v="Storskaret" />
		<tag k="natural" v="valley" />
		<tag k="place" v="locality" />
		<tag k="ssr:stedsnr" v="712986" />
	</node>
	<node id="-476520" lat="60.2852277757" lon="5.00675278437">
		<tag k="name" v="Storaseta" />
		<tag k="natural" v="hill" />
		<tag k="place" v="locality" />
		<tag k="ssr:stedsnr" v="712828" />
	</node>
	<node id="-476516" lat="60.350802778" lon="5.03573610291">
		<tag k="name" v="Svehaugen" />
		<tag k="natural" v="hill" />
		<tag k="place" v="locality" />
		<tag k="ssr:stedsnr" v="712742" />
	</node>
	<node id="-476515" lat="60.3063166699" lon="5.09322500827">
		<tag k="name" v="Altrafjellet" />
		<tag k="natural" v="hill" />
		<tag k="place" v="locality" />
		<tag k="ssr:stedsnr" v="712704" />
	</node>
	<node id="-476514" lat="60.3056305534" lon="5.09182222774">
		<tag k="name" v="Bårdlia" />
		<tag k="natural" v="slope" />
		<tag k="place" v="locality" />
		<tag k="ssr:stedsnr" v="712703" />
	</node>
	<node id="-476513" lat="60.3229861074" lon="5.09346388383">
		<tag k="name" v="Langryggen" />
		<tag k="natural" v="cliff" />
		<tag k="ssr:stedsnr" v="712694" />
	</node>
	<node id="-476512" lat="60.3120472264" lon="5.12009443669">
		<tag k="name" v="Raunebrekka" />
		<tag k="natural" v="slope" />
		<tag k="place" v="locality" />
		<tag k="ssr:stedsnr" v="712693" />
	</node>
	<node id="-476511" lat="60.3092111129" lon="5.07798611882">
		<tag k="name" v="Kolafjellet" />
		<tag k="natural" v="hill" />
		<tag k="place" v="locality" />
		<tag k="ssr:stedsnr" v="712691" />
	</node>
	<node id="-476509" lat="60.3188083355" lon="5.09684444954">
		<tag k="name" v="Bjørkedalshaugane" />
		<tag k="natural" v="hill" />
		<tag k="place" v="locality" />
		<tag k="ssr:stedsnr" v="712647" />
	</node>
	<node id="-476507" lat="60.4179166633" lon="4.99602777732">
		<tag k="name" v="Fagrebakken" />
		<tag k="natural" v="slope" />
		<tag k="place" v="locality" />
		<tag k="ssr:stedsnr" v="712623" />
	</node>
	<node id="-476506" lat="60.3169666677" lon="5.01186667089">
		<tag k="name" v="Vikhaugen" />
		<tag k="natural" v="hill" />
		<tag k="place" v="locality" />
		<tag k="ssr:stedsnr" v="712606" />
	</node>
	<node id="-476505" lat="60.358552776" lon="4.95101944925">
		<tag k="name" v="Sethaugen" />
		<tag k="natural" v="hill" />
		<tag k="place" v="locality" />
		<tag k="ssr:stedsnr" v="712400" />
	</node>
	<node id="-476504" lat="60.4160833304" lon="4.96457777808">
		<tag k="name" v="Sørdalen" />
		<tag k="natural" v="valley" />
		<tag k="place" v="locality" />
		<tag k="ssr:stedsnr" v="712309" />
	</node>
	<node id="-476502" lat="60.3745611072" lon="5.15358889604">
		<tag k="name" v="Skjendalen" />
		<tag k="natural" v="valley" />
		<tag k="place" v="locality" />
		<tag k="ssr:stedsnr" v="712107" />
	</node>
	<node id="-476501" lat="60.382788888" lon="5.13751943987">
		<tag k="name" v="Goddalen" />
		<tag k="natural" v="valley" />
		<tag k="place" v="locality" />
		<tag k="ssr:stedsnr" v="712101" />
	</node>
	<node id="-476487" lat="60.3068194474" lon="4.98445556135">
		<tag k="name" v="Storhaugen" />
		<tag k="natural" v="hill" />
		<tag k="place" v="locality" />
		<tag k="ssr:stedsnr" v="692052" />
	</node>
	<node id="-476470" lat="60.369624998" lon="5.04241388725">
		<tag k="fixme" v="consider natural=peak for the most distinct mountains in the district" />
		<tag k="name" v="Knappskogfjellet" />
		<tag k="natural" v="hill" />
		<tag k="place" v="locality" />
		<tag k="ssr:stedsnr" v="673378" />
	</node>
	<node id="-476442" lat="60.3451916711" lon="5.04846111709">
		<tag k="name" v="Revurskulten" />
		<tag k="natural" v="hill" />
		<tag k="place" v="locality" />
		<tag k="ssr:stedsnr" v="656244" />
	</node>
	<node id="-476431" lat="60.3834527789" lon="5.01264999948">
		<tag k="name" v="Vakenhaugen" />
		<tag k="natural" v="hill" />
		<tag k="place" v="locality" />
		<tag k="ssr:stedsnr" v="652894" />
	</node>
	<node id="-476424" lat="60.2793694401" lon="5.01788055014">
		<tag k="name" v="Svarthelleren" />
		<tag k="natural" v="hill" />
		<tag k="place" v="locality" />
		<tag k="ssr:stedsnr" v="652844" />
	</node>
	<node id="-476421" lat="60.3979888856" lon="5.03880832499">
		<tag k="name" v="Sandhaugen" />
		<tag k="natural" v="hill" />
		<tag k="place" v="locality" />
		<tag k="ssr:stedsnr" v="652628" />
	</node>
	<node id="-476420" lat="60.4038222214" lon="5.03624166708">
		<tag k="name" v="Storsæto" />
		<tag k="natural" v="hill" />
		<tag k="place" v="locality" />
		<tag k="ssr:stedsnr" v="652629" />
	</node>
	<node id="-476419" lat="60.4011666645" lon="5.01691666775">
		<tag k="name" v="Bjørndalen" />
		<tag k="natural" v="valley" />
		<tag k="place" v="locality" />
		<tag k="ssr:stedsnr" v="652618" />
	</node>
	<node id="-476418" lat="60.3935999983" lon="5.03788055374">
		<tag k="name" v="Vindskarhaugen" />
		<tag k="natural" v="hill" />
		<tag k="place" v="locality" />
		<tag k="ssr:stedsnr" v="652613" />
	</node>
	<node id="-476416" lat="60.3271388878" lon="5.06302500804">
		<tag k="name" v="Langhaugen" />
		<tag k="natural" v="hill" />
		<tag k="place" v="locality" />
		<tag k="ssr:stedsnr" v="652586" />
	</node>
	<node id="-476415" lat="60.3346138897" lon="5.12240278147">
		<tag k="name" v="Kobbhaugen" />
		<tag k="natural" v="hill" />
		<tag k="place" v="locality" />
		<tag k="ssr:stedsnr" v="652584" />
	</node>
	<node id="-476414" lat="60.3393944478" lon="5.09118611097">
		<tag k="name" v="Kollhaugen" />
		<tag k="natural" v="hill" />
		<tag k="place" v="locality" />
		<tag k="ssr:stedsnr" v="652580" />
	</node>
	<node id="-476412" lat="60.3348499956" lon="5.01147499852">
		<tag k="name" v="Huldafjellet" />
		<tag k="natural" v="hill" />
		<tag k="place" v="locality" />
		<tag k="ssr:stedsnr" v="652558" />
	</node>
	<node id="-476411" lat="60.3616333375" lon="5.07054444956">
		<tag k="name" v="Nordre Steinhaugen" />
		<tag k="natural" v="hill" />
		<tag k="place" v="locality" />
		<tag k="ssr:stedsnr" v="652524" />
	</node>
	<node id="-476410" lat="60.3527777765" lon="5.10157778421">
		<tag k="name" v="Storhaugen" />
		<tag k="natural" v="hill" />
		<tag k="place" v="locality" />
		<tag k="ssr:stedsnr" v="652521" />
	</node>
	<node id="-476409" lat="60.3541583292" lon="5.088947224">
		<tag k="name" v="Djupedalen" />
		<tag k="natural" v="valley" />
		<tag k="place" v="locality" />
		<tag k="ssr:stedsnr" v="652516" />
	</node>
	<node id="-476408" lat="60.3606527765" lon="5.1172222178">
		<tag k="name" v="Storhelleren" />
		<tag k="natural" v="hill" />
		<tag k="place" v="locality" />
		<tag k="ssr:stedsnr" v="652506" />
	</node>
	<node id="-475689" lat="60.314186115" lon="5.10204722949">
		<tag k="name" v="Litlatårnet" />
		<tag k="natural" v="hill" />
		<tag k="place" v="locality" />
		<tag k="ssr:stedsnr" v="166697" />
	</node>
	<node id="-476402" lat="60.3889916712" lon="4.99509166711">
		<tag k="name" v="Tunfjellet" />
		<tag k="natural" v="hill" />
		<tag k="place" v="locality" />
		<tag k="ssr:stedsnr" v="652432" />
	</node>
	<node id="-476401" lat="60.3898583336" lon="5.00355555751">
		<tag k="name" v="Huldakleiva" />
		<tag k="natural" v="slope" />
		<tag k="place" v="locality" />
		<tag k="ssr:stedsnr" v="652429" />
	</node>
	<node id="-476400" lat="60.3719722182" lon="4.9380111178">
		<tag k="name" v="Porsen" />
		<tag k="natural" v="hill" />
		<tag k="place" v="locality" />
		<tag k="ssr:stedsnr" v="652422" />
	</node>
	<node id="-476399" lat="60.3960416704" lon="4.97420000035">
		<tag k="name" v="Såtene" />
		<tag k="natural" v="hill" />
		<tag k="place" v="locality" />
		<tag k="ssr:stedsnr" v="652416" />
	</node>
	<node id="-476395" lat="60.360538891" lon="5.00011388917">
		<tag k="name" v="Søra Såta" />
		<tag k="natural" v="hill" />
		<tag k="place" v="locality" />
		<tag k="ssr:stedsnr" v="652384" />
	</node>
	<node id="-476392" lat="60.4173361067" lon="4.92660832922">
		<tag k="name" v="Trollkyrkja" />
		<tag k="natural" v="hill" />
		<tag k="place" v="locality" />
		<tag k="ssr:stedsnr" v="652329" />
	</node>
	<node id="-476390" lat="60.4421722259" lon="4.98258610811">
		<tag k="name" v="Kobbadalsfjellet" />
		<tag k="natural" v="hill" />
		<tag k="place" v="locality" />
		<tag k="ssr:stedsnr" v="652311" />
	</node>
	<node id="-476389" lat="60.2946749976" lon="5.11987499275">
		<tag k="name" v="Risdalen" />
		<tag k="natural" v="valley" />
		<tag k="place" v="locality" />
		<tag k="ssr:stedsnr" v="652304" />
	</node>
	<node id="-476388" lat="60.3220694427" lon="5.13423889608">
		<tag k="name" v="Haugana" />
		<tag k="natural" v="hill" />
		<tag k="place" v="locality" />
		<tag k="ssr:stedsnr" v="652299" />
	</node>
	<node id="-476387" lat="60.4173027763" lon="4.96203889145">
		<tag k="name" v="Skjerhaugen" />
		<tag k="natural" v="hill" />
		<tag k="place" v="locality" />
		<tag k="ssr:stedsnr" v="652293" />
	</node>
	<node id="-476380" lat="60.4552333292" lon="4.98115556083">
		<tag k="name" v="Tjuvaskora" />
		<tag k="place" v="locality" />
		<tag k="ssr:stedsnr" v="652207" />
	</node>
	<node id="-476374" lat="60.3930222244" lon="5.13014722094">
		<tag k="name" v="Sæto" />
		<tag k="natural" v="hill" />
		<tag k="place" v="locality" />
		<tag k="ssr:stedsnr" v="651798" />
	</node>
	<node id="-476372" lat="60.3411166693" lon="5.15043332778">
		<tag k="fixme" v="consider natural=peak for the most distinct mountains in the district" />
		<tag k="name" v="Holmesfjellet" />
		<tag k="natural" v="hill" />
		<tag k="place" v="locality" />
		<tag k="ssr:stedsnr" v="651786" />
	</node>
	<node id="-476368" lat="60.3071416658" lon="5.06875833398">
		<tag k="name" v="Kolhelleren" />
		<tag k="natural" v="hill" />
		<tag k="place" v="locality" />
		<tag k="ssr:stedsnr" v="651671" />
	</node>
	<node id="-476366" lat="60.4191138927" lon="4.97430832604">
		<tag k="name" v="Ingholet" />
		<tag k="place" v="locality" />
		<tag k="ssr:stedsnr" v="651656" />
	</node>
	<node id="-476365" lat="60.3216277817" lon="5.02655277758">
		<tag k="name" v="Revhellerhaugen" />
		<tag k="natural" v="hill" />
		<tag k="place" v="locality" />
		<tag k="ssr:stedsnr" v="651639" />
	</node>
	<node id="-476364" lat="60.4216972261" lon="4.97843887947">
		<tag k="name" v="Landrodalen" />
		<tag k="natural" v="valley" />
		<tag k="place" v="locality" />
		<tag k="ssr:stedsnr" v="651330" />
	</node>
	<node id="-476362" lat="60.3685611133" lon="5.14123888007">
		<tag k="fixme" v="consider natural=peak for the most distinct mountains in the district" />
		<tag k="name" v="Hestvikafjellet" />
		<tag k="natural" v="hill" />
		<tag k="place" v="locality" />
		<tag k="ssr:stedsnr" v="651124" />
	</node>
	<node id="-476360" lat="60.3527611153" lon="4.94380554791">
		<tag k="name" v="Urhaugen" />
		<tag k="natural" v="hill" />
		<tag k="place" v="locality" />
		<tag k="ssr:stedsnr" v="651099" />
	</node>
	<node id="-476359" lat="60.3513861076" lon="4.94431388523">
		<tag k="name" v="Måshaugana" />
		<tag k="natural" v="hill" />
		<tag k="place" v="locality" />
		<tag k="ssr:stedsnr" v="651090" />
	</node>
	<node id="-476357" lat="60.4342694454" lon="4.96833888514">
		<tag k="name" v="Knutshaugen" />
		<tag k="natural" v="hill" />
		<tag k="place" v="locality" />
		<tag k="ssr:stedsnr" v="632908" />
	</node>
	<node id="-476354" lat="60.4437944438" lon="4.99110276971">
		<tag k="name" v="Bukkhelleren" />
		<tag k="natural" v="slope" />
		<tag k="place" v="locality" />
		<tag k="ssr:stedsnr" v="631910" />
	</node>
	<node id="-476333" lat="60.2718500015" lon="5.01896944724">
		<tag k="name" v="Stordalen" />
		<tag k="natural" v="valley" />
		<tag k="place" v="locality" />
		<tag k="ssr:stedsnr" v="612511" />
	</node>
	<node id="-476328" lat="60.4134527812" lon="4.96887778493">
		<tag k="fixme" v="consider natural=peak for the most distinct mountains in the district" />
		<tag k="name" v="Steinafjellet" />
		<tag k="natural" v="hill" />
		<tag k="place" v="locality" />
		<tag k="ssr:stedsnr" v="612201" />
	</node>
	<node id="-476311" lat="60.3675444418" lon="5.15349167522">
		<tag k="name" v="Skaret" />
		<tag k="natural" v="valley" />
		<tag k="place" v="locality" />
		<tag k="ssr:stedsnr" v="591993" />
	</node>
	<node id="-476309" lat="60.3778249971" lon="5.09358611572">
		<tag k="name" v="Beinhaugen" />
		<tag k="natural" v="hill" />
		<tag k="place" v="locality" />
		<tag k="ssr:stedsnr" v="591959" />
	</node>
	<node id="-476308" lat="60.3781361074" lon="5.09096666424">
		<tag k="name" v="Storfjellet" />
		<tag k="natural" v="hill" />
		<tag k="place" v="locality" />
		<tag k="ssr:stedsnr" v="591953" />
	</node>
	<node id="-476302" lat="60.2979666685" lon="5.07920277949">
		<tag k="name" v="Trollhaugen" />
		<tag k="natural" v="hill" />
		<tag k="place" v="locality" />
		<tag k="ssr:stedsnr" v="591863" />
	</node>
	<node id="-476300" lat="60.2980833298" lon="5.13202776983">
		<tag k="name" v="Jonsokhaugen" />
		<tag k="natural" v="hill" />
		<tag k="place" v="locality" />
		<tag k="ssr:stedsnr" v="591772" />
	</node>
	<node id="-476298" lat="60.3390583289" lon="5.14580555161">
		<tag k="fixme" v="consider natural=peak for the most distinct mountains in the district" />
		<tag k="name" v="Midtfjellet" />
		<tag k="natural" v="hill" />
		<tag k="place" v="locality" />
		<tag k="ssr:stedsnr" v="591764" />
	</node>
	<node id="-476297" lat="60.3583055524" lon="5.01097222264">
		<tag k="name" v="Stokkane" />
		<tag k="natural" v="hill" />
		<tag k="place" v="locality" />
		<tag k="ssr:stedsnr" v="591734" />
	</node>
	<node id="-476292" lat="60.3236694445" lon="5.05811945197">
		<tag k="name" v="Søre Åsen" />
		<tag k="natural" v="hill" />
		<tag k="place" v="locality" />
		<tag k="ssr:stedsnr" v="591621" />
	</node>
	<node id="-476291" lat="60.3150888918" lon="5.05586110952">
		<tag k="name" v="Høghaugdalen" />
		<tag k="natural" v="valley" />
		<tag k="place" v="locality" />
		<tag k="ssr:stedsnr" v="591616" />
	</node>
	<node id="-476290" lat="60.392663889" lon="5.05237499907">
		<tag k="name" v="Areknappen" />
		<tag k="natural" v="hill" />
		<tag k="place" v="locality" />
		<tag k="ssr:stedsnr" v="591605" />
	</node>
	<node id="-476289" lat="60.3161861094" lon="5.02117500523">
		<tag k="name" v="Skjenet" />
		<tag k="natural" v="hill" />
		<tag k="place" v="locality" />
		<tag k="ssr:stedsnr" v="591607" />
	</node>
	<node id="-476286" lat="60.3282999999" lon="5.11363333257">
		<tag k="name" v="Varden" />
		<tag k="natural" v="hill" />
		<tag k="place" v="locality" />
		<tag k="ssr:stedsnr" v="591560" />
	</node>
	<node id="-476280" lat="60.3520611152" lon="4.97519166894">
		<tag k="name" v="Gule Nakken" />
		<tag k="natural" v="hill" />
		<tag k="place" v="locality" />
		<tag k="ssr:stedsnr" v="591396" />
	</node>
	<node id="-476279" lat="60.3438861094" lon="5.00262778135">
		<tag k="name" v="Vassberget" />
		<tag k="natural" v="hill" />
		<tag k="place" v="locality" />
		<tag k="ssr:stedsnr" v="591382" />
	</node>
	<node id="-476274" lat="60.4374222262" lon="4.99576110234">
		<tag k="name" v="Rundane" />
		<tag k="natural" v="hill" />
		<tag k="place" v="locality" />
		<tag k="ssr:stedsnr" v="591330" />
	</node>
	<node id="-476273" lat="60.4342694476" lon="4.99770000615">
		<tag k="name" v="Krambufjellet" />
		<tag k="natural" v="hill" />
		<tag k="place" v="locality" />
		<tag k="ssr:stedsnr" v="591329" />
	</node>
	<node id="-476270" lat="60.2835722212" lon="5.12052499272">
		<tag k="name" v="Adneviksbakkane" />
		<tag k="natural" v="slope" />
		<tag k="place" v="locality" />
		<tag k="ssr:stedsnr" v="591317" />
	</node>
	<node id="-476268" lat="60.3108472213" lon="5.17685833395">
		<tag k="name" v="Stokkhaugen" />
		<tag k="natural" v="hill" />
		<tag k="place" v="locality" />
		<tag k="ssr:stedsnr" v="591304" />
	</node>
	<node id="-476267" lat="60.3151249966" lon="5.16692778264">
		<tag k="name" v="Bekkjarvikdalen" />
		<tag k="natural" v="valley" />
		<tag k="place" v="locality" />
		<tag k="ssr:stedsnr" v="591302" />
	</node>
	<node id="-476265" lat="60.384102777" lon="4.96966111531">
		<tag k="name" v="Langedalen" />
		<tag k="natural" v="valley" />
		<tag k="place" v="locality" />
		<tag k="ssr:stedsnr" v="591270" />
	</node>
	<node id="-476263" lat="60.3836888886" lon="4.97950832834">
		<tag k="name" v="Vishaugen" />
		<tag k="natural" v="hill" />
		<tag k="place" v="locality" />
		<tag k="ssr:stedsnr" v="591245" />
	</node>
	<node id="-476261" lat="60.3542499985" lon="5.07930000163">
		<tag k="name" v="Storhaugen" />
		<tag k="natural" v="hill" />
		<tag k="place" v="locality" />
		<tag k="ssr:stedsnr" v="591236" />
	</node>
	<node id="-476250" lat="60.4272305562" lon="4.96506389622">
		<tag k="name" v="Avløpet" />
		<tag k="place" v="locality" />
		<tag k="ssr:stedsnr" v="571900" />
	</node>
	<node id="-476240" lat="60.3446583298" lon="5.13503333465">
		<tag k="name" v="Ebbesvikfjellet" />
		<tag k="natural" v="hill" />
		<tag k="place" v="locality" />
		<tag k="ssr:stedsnr" v="570178" />
	</node>
	<node id="-476213" lat="60.376738886" lon="4.97725278704">
		<tag k="name" v="Kuhaugen" />
		<tag k="natural" v="hill" />
		<tag k="place" v="locality" />
		<tag k="ssr:stedsnr" v="551359" />
	</node>
	<node id="-476212" lat="60.3725277818" lon="5.01223610519">
		<tag k="fixme" v="consider natural=peak for the most distinct mountains in the district" />
		<tag k="name" v="Sauafjellet" />
		<tag k="natural" v="hill" />
		<tag k="place" v="locality" />
		<tag k="ssr:stedsnr" v="551350" />
	</node>
	<node id="-476180" lat="60.3724777778" lon="5.02208611071">
		<tag k="name" v="Høgestølen" />
		<tag k="natural" v="hill" />
		<tag k="place" v="locality" />
		<tag k="ssr:stedsnr" v="531932" />
	</node>
	<node id="-476179" lat="60.3705861127" lon="5.05691389405">
		<tag k="name" v="Ekrhaugen" />
		<tag k="natural" v="hill" />
		<tag k="place" v="locality" />
		<tag k="ssr:stedsnr" v="531919" />
	</node>
	<node id="-476175" lat="60.2701888934" lon="5.04570277752">
		<tag k="fixme" v="consider natural=peak for the most distinct mountains in the district" />
		<tag k="name" v="Eikelifjellet" />
		<tag k="natural" v="hill" />
		<tag k="place" v="locality" />
		<tag k="ssr:stedsnr" v="531872" />
	</node>
	<node id="-476174" lat="60.3941194429" lon="5.00809722837">
		<tag k="name" v="Setrehaugen" />
		<tag k="natural" v="hill" />
		<tag k="place" v="locality" />
		<tag k="ssr:stedsnr" v="531663" />
	</node>
	<node id="-476170" lat="60.3401472205" lon="5.05363612014">
		<tag k="name" v="Ulvesetdalen" />
		<tag k="natural" v="valley" />
		<tag k="place" v="locality" />
		<tag k="ssr:stedsnr" v="531632" />
	</node>
	<node id="-476169" lat="60.3341638851" lon="5.07937499302">
		<tag k="name" v="Øykjabotnen" />
		<tag k="natural" v="valley" />
		<tag k="place" v="locality" />
		<tag k="ssr:stedsnr" v="531623" />
	</node>
	<node id="-476168" lat="60.33038611" lon="5.04033610551">
		<tag k="name" v="Varden" />
		<tag k="natural" v="hill" />
		<tag k="place" v="locality" />
		<tag k="ssr:stedsnr" v="531603" />
	</node>
	<node id="-476167" lat="60.3332833359" lon="5.04655278342">
		<tag k="name" v="Litlestengelen" />
		<tag k="natural" v="hill" />
		<tag k="place" v="locality" />
		<tag k="ssr:stedsnr" v="531599" />
	</node>
	<node id="-476164" lat="60.3526083333" lon="5.08159721467">
		<tag k="name" v="Espedalen" />
		<tag k="natural" v="valley" />
		<tag k="place" v="locality" />
		<tag k="ssr:stedsnr" v="531571" />
	</node>
	<node id="-476163" lat="60.3600805566" lon="5.08151110326">
		<tag k="name" v="Vollen" />
		<tag k="natural" v="slope" />
		<tag k="place" v="locality" />
		<tag k="ssr:stedsnr" v="531562" />
	</node>
	<node id="-476156" lat="60.3372833354" lon="4.9799333243">
		<tag k="name" v="Stonga" />
		<tag k="natural" v="hill" />
		<tag k="place" v="locality" />
		<tag k="ssr:stedsnr" v="531506" />
	</node>
	<node id="-476153" lat="60.3948416627" lon="4.97648054815">
		<tag k="name" v="Skjenet" />
		<tag k="natural" v="hill" />
		<tag k="place" v="locality" />
		<tag k="ssr:stedsnr" v="531466" />
	</node>
	<node id="-476152" lat="60.408372221" lon="4.97354167291">
		<tag k="name" v="Steinhaugen" />
		<tag k="natural" v="hill" />
		<tag k="place" v="locality" />
		<tag k="ssr:stedsnr" v="531464" />
	</node>
	<node id="-476145" lat="60.4447527764" lon="4.97339722117">
		<tag k="name" v="Stortangdalen" />
		<tag k="natural" v="valley" />
		<tag k="place" v="locality" />
		<tag k="ssr:stedsnr" v="531357" />
	</node>
	<node id="-476143" lat="60.2898944463" lon="5.0974861086">
		<tag k="fixme" v="consider natural=peak for the most distinct mountains in the district" />
		<tag k="name" v="Ravnafjellet" />
		<tag k="natural" v="hill" />
		<tag k="place" v="locality" />
		<tag k="ssr:stedsnr" v="531350" />
	</node>
	<node id="-476141" lat="60.3199861129" lon="5.16088055343">
		<tag k="name" v="Ørnadalen" />
		<tag k="natural" v="valley" />
		<tag k="place" v="locality" />
		<tag k="ssr:stedsnr" v="531343" />
	</node>
	<node id="-476140" lat="60.292497225" lon="5.11604166477">
		<tag k="fixme" v="consider natural=peak for the most distinct mountains in the district" />
		<tag k="name" v="Kattafjellet" />
		<tag k="natural" v="hill" />
		<tag k="place" v="locality" />
		<tag k="ssr:stedsnr" v="531332" />
	</node>
	<node id="-476130" lat="60.3586916707" lon="5.12861666242">
		<tag k="fixme" v="consider natural=peak for the most distinct mountains in the district" />
		<tag k="name" v="Varden" />
		<tag k="natural" v="hill" />
		<tag k="place" v="locality" />
		<tag k="ssr:stedsnr" v="530985" />
	</node>
	<node id="-476123" lat="60.3016138875" lon="5.02084999212">
		<tag k="name" v="Husavarden" />
		<tag k="natural" v="hill" />
		<tag k="place" v="locality" />
		<tag k="ssr:stedsnr" v="530717" />
	</node>
	<node id="-476122" lat="60.2848611087" lon="5.06108611731">
		<tag k="name" v="Ærhaugane" />
		<tag k="natural" v="hill" />
		<tag k="place" v="locality" />
		<tag k="ssr:stedsnr" v="530698" />
	</node>
	<node id="-476121" lat="60.2920361108" lon="5.01416389006">
		<tag k="name" v="Knappen" />
		<tag k="natural" v="hill" />
		<tag k="place" v="locality" />
		<tag k="ssr:stedsnr" v="530697" />
	</node>
	<node id="-476120" lat="60.3136444444" lon="5.08488611686">
		<tag k="name" v="Kannikabotnen" />
		<tag k="natural" v="valley" />
		<tag k="place" v="locality" />
		<tag k="ssr:stedsnr" v="530685" />
	</node>
	<node id="-476119" lat="60.3051805589" lon="5.11421388237">
		<tag k="name" v="Skogabrekkene" />
		<tag k="natural" v="slope" />
		<tag k="place" v="locality" />
		<tag k="ssr:stedsnr" v="530680" />
	</node>
	<node id="-476117" lat="60.3199277808" lon="5.02116389236">
		<tag k="name" v="Skogsdalen" />
		<tag k="natural" v="valley" />
		<tag k="place" v="locality" />
		<tag k="ssr:stedsnr" v="530649" />
	</node>
	<node id="-476116" lat="60.4281083306" lon="4.98383334136">
		<tag k="name" v="Kistedalen" />
		<tag k="natural" v="valley" />
		<tag k="place" v="locality" />
		<tag k="ssr:stedsnr" v="530364" />
	</node>
	<node id="-476114" lat="60.4213944456" lon="4.96955833302">
		<tag k="name" v="Grindaberget" />
		<tag k="natural" v="ridge" />
		<tag k="place" v="locality" />
		<tag k="ssr:stedsnr" v="530358" />
	</node>
	<node id="-476109" lat="60.3702611095" lon="5.14353611826">
		<tag k="name" v="Burdalen" />
		<tag k="natural" v="valley" />
		<tag k="place" v="locality" />
		<tag k="ssr:stedsnr" v="530136" />
	</node>
	<node id="-476108" lat="60.3683722207" lon="5.15704721979">
		<tag k="name" v="Varden" />
		<tag k="natural" v="hill" />
		<tag k="place" v="locality" />
		<tag k="ssr:stedsnr" v="530132" />
	</node>
	<node id="-476107" lat="60.3714277734" lon="5.12894444564">
		<tag k="name" v="Nordre Pollhaugen" />
		<tag k="natural" v="hill" />
		<tag k="place" v="locality" />
		<tag k="ssr:stedsnr" v="530133" />
	</node>
	<node id="-476104" lat="60.4545277814" lon="4.91341944947">
		<tag k="name" v="Tuskeluren" />
		<tag k="natural" v="hill" />
		<tag k="place" v="locality" />
		<tag k="ssr:stedsnr" v="530024" />
	</node>
	<node id="-476103" lat="60.2926888851" lon="5.13120000665">
		<tag k="fixme" v="consider natural=peak for the most distinct mountains in the district" />
		<tag k="name" v="Larsafjellet" />
		<tag k="natural" v="hill" />
		<tag k="place" v="locality" />
		<tag k="ssr:stedsnr" v="530007" />
	</node>
	<node id="-476071" lat="60.2792527733" lon="5.10267777481">
		<tag k="fixme" v="consider natural=peak for the most distinct mountains in the district" />
		<tag k="name" v="Langedalsfjellet" />
		<tag k="natural" v="hill" />
		<tag k="place" v="locality" />
		<tag k="ssr:stedsnr" v="490831" />
	</node>
	<node id="-476070" lat="60.2864416693" lon="5.11909999611">
		<tag k="fixme" v="consider natural=peak for the most distinct mountains in the district" />
		<tag k="name" v="Haganesfjellet" />
		<tag k="natural" v="hill" />
		<tag k="place" v="locality" />
		<tag k="ssr:stedsnr" v="490830" />
	</node>
	<node id="-476067" lat="60.3301654821" lon="4.96433099736">
		<tag k="fixme" v="consider natural=peak for the most distinct mountains in the district" />
		<tag k="name" v="Storafjellet" />
		<tag k="natural" v="hill" />
		<tag k="place" v="locality" />
		<tag k="ssr:stedsnr" v="491267" />
	</node>
	<node id="-476065" lat="60.3399611094" lon="5.03830277418">
		<tag k="name" v="Sperrhaugen" />
		<tag k="natural" v="hill" />
		<tag k="place" v="locality" />
		<tag k="ssr:stedsnr" v="491253" />
	</node>
	<node id="-476051" lat="60.2768666696" lon="5.06129999292">
		<tag k="fixme" v="consider natural=peak for the most distinct mountains in the district" />
		<tag k="name" v="Tibben" />
		<tag k="natural" v="hill" />
		<tag k="place" v="locality" />
		<tag k="ssr:stedsnr" v="490423" />
	</node>
	<node id="-476050" lat="60.290663885" lon="5.07221943811">
		<tag k="fixme" v="consider natural=peak for the most distinct mountains in the district" />
		<tag k="name" v="Høgevarden" />
		<tag k="natural" v="hill" />
		<tag k="place" v="locality" />
		<tag k="ssr:stedsnr" v="490416" />
	</node>
	<node id="-476038" lat="60.3756333345" lon="5.09652777177">
		<tag k="name" v="Steinfjellet" />
		<tag k="natural" v="hill" />
		<tag k="place" v="locality" />
		<tag k="ssr:stedsnr" v="470948" />
	</node>
	<node id="-476035" lat="60.3862166627" lon="5.03351944359">
		<tag k="name" v="Slettevollen" />
		<tag k="natural" v="slope" />
		<tag k="place" v="locality" />
		<tag k="ssr:stedsnr" v="470930" />
	</node>
	<node id="-476032" lat="60.2623111094" lon="5.0431305619">
		<tag k="name" v="Krossadalen" />
		<tag k="natural" v="valley" />
		<tag k="place" v="locality" />
		<tag k="ssr:stedsnr" v="470875" />
	</node>
	<node id="-474944" lat="60.4319833371" lon="4.99992500754">
		<tag k="name" v="Vassvikhaugane" />
		<tag k="natural" v="hill" />
		<tag k="place" v="locality" />
		<tag k="ssr:stedsnr" v="45360" />
	</node>
	<node id="-474943" lat="60.438966664" lon="5.00183333734">
		<tag k="name" v="Ørnareiret" />
		<tag k="natural" v="hill" />
		<tag k="place" v="locality" />
		<tag k="ssr:stedsnr" v="45357" />
	</node>
	<node id="-476024" lat="60.2899333321" lon="5.05410278546">
		<tag k="name" v="Nålhusnakken" />
		<tag k="natural" v="hill" />
		<tag k="place" v="locality" />
		<tag k="ssr:stedsnr" v="470695" />
	</node>
	<node id="-476022" lat="60.3158166624" lon="5.10995833702">
		<tag k="name" v="Brendhelleren" />
		<tag k="natural" v="hill" />
		<tag k="place" v="locality" />
		<tag k="ssr:stedsnr" v="470669" />
	</node>
	<node id="-476020" lat="60.3991944412" lon="5.03273056269">
		<tag k="name" v="Tomashaugen" />
		<tag k="natural" v="hill" />
		<tag k="place" v="locality" />
		<tag k="ssr:stedsnr" v="470618" />
	</node>
	<node id="-476018" lat="60.3325444479" lon="5.04118611779">
		<tag k="name" v="Røyshaugen" />
		<tag k="natural" v="hill" />
		<tag k="place" v="locality" />
		<tag k="ssr:stedsnr" v="470563" />
	</node>
	<node id="-476017" lat="60.329974997" lon="5.0312472233">
		<tag k="name" v="Tårnet" />
		<tag k="natural" v="hill" />
		<tag k="place" v="locality" />
		<tag k="ssr:stedsnr" v="470558" />
	</node>
	<node id="-476016" lat="60.3328388854" lon="5.03316944759">
		<tag k="name" v="Kvitefjella" />
		<tag k="natural" v="hill" />
		<tag k="place" v="locality" />
		<tag k="ssr:stedsnr" v="470550" />
	</node>
	<node id="-476014" lat="60.3415499996" lon="5.02453333105">
		<tag k="name" v="Risdalane" />
		<tag k="natural" v="valley" />
		<tag k="place" v="locality" />
		<tag k="ssr:stedsnr" v="470539" />
	</node>
	<node id="-476013" lat="60.3611000047" lon="5.06735556347">
		<tag k="name" v="Steinhaugen" />
		<tag k="natural" v="hill" />
		<tag k="place" v="locality" />
		<tag k="ssr:stedsnr" v="470524" />
	</node>
	<node id="-476012" lat="60.3618416686" lon="5.07015833031">
		<tag k="name" v="Nordre Steinhaugen" />
		<tag k="natural" v="hill" />
		<tag k="place" v="locality" />
		<tag k="ssr:stedsnr" v="470522" />
	</node>
	<node id="-476011" lat="60.3541777775" lon="5.11955000489">
		<tag k="name" v="Utfallet" />
		<tag k="natural" v="hill" />
		<tag k="place" v="locality" />
		<tag k="ssr:stedsnr" v="470506" />
	</node>
	<node id="-476009" lat="60.3350749992" lon="4.96996944659">
		<tag k="name" v="Gløshelleren" />
		<tag k="natural" v="hill" />
		<tag k="place" v="locality" />
		<tag k="ssr:stedsnr" v="470470" />
	</node>
	<node id="-476007" lat="60.3991249994" lon="4.99033056234">
		<tag k="name" v="Valderhaugane" />
		<tag k="natural" v="hill" />
		<tag k="place" v="locality" />
		<tag k="ssr:stedsnr" v="470413" />
	</node>
	<node id="-476006" lat="60.3355083317" lon="4.93911388464">
		<tag k="name" v="Klovane" />
		<tag k="natural" v="hill" />
		<tag k="place" v="locality" />
		<tag k="ssr:stedsnr" v="470404" />
	</node>
	<node id="-476004" lat="60.3464833328" lon="5.00063055681">
		<tag k="name" v="Engeshaugen" />
		<tag k="natural" v="hill" />
		<tag k="place" v="locality" />
		<tag k="ssr:stedsnr" v="470396" />
	</node>
	<node id="-476001" lat="60.3654833332" lon="4.99456388853">
		<tag k="name" v="Inste Skotavarden" />
		<tag k="natural" v="hill" />
		<tag k="place" v="locality" />
		<tag k="ssr:stedsnr" v="470382" />
	</node>
	<node id="-476000" lat="60.3466055541" lon="5.01672778603">
		<tag k="name" v="Kleivadalen" />
		<tag k="natural" v="valley" />
		<tag k="place" v="locality" />
		<tag k="ssr:stedsnr" v="470326" />
	</node>
	<node id="-475997" lat="60.4372027778" lon="4.97029443673">
		<tag k="name" v="Nordre Helleren" />
		<tag k="place" v="locality" />
		<tag k="ssr:stedsnr" v="470319" />
	</node>
	<node id="-475996" lat="60.4351805581" lon="4.96855555251">
		<tag k="name" v="Søre Helleren" />
		<tag k="place" v="locality" />
		<tag k="ssr:stedsnr" v="470316" />
	</node>
	<node id="-475993" lat="60.2877333329" lon="5.08186111591">
		<tag k="name" v="Slettene" />
		<tag k="place" v="locality" />
		<tag k="ssr:stedsnr" v="470307" />
	</node>
	<node id="-475992" lat="60.3002555527" lon="5.1172750056">
		<tag k="name" v="Råsabrekka" />
		<tag k="natural" v="slope" />
		<tag k="place" v="locality" />
		<tag k="ssr:stedsnr" v="470305" />
	</node>
	<node id="-475991" lat="60.313286113" lon="5.16806944313">
		<tag k="fixme" v="consider natural=peak for the most distinct mountains in the district" />
		<tag k="name" v="Langafjellet" />
		<tag k="natural" v="hill" />
		<tag k="place" v="locality" />
		<tag k="ssr:stedsnr" v="470302" />
	</node>
	<node id="-475989" lat="60.3727361084" lon="5.00481665896">
		<tag k="name" v="Midthaugen" />
		<tag k="natural" v="hill" />
		<tag k="place" v="locality" />
		<tag k="ssr:stedsnr" v="470250" />
	</node>
	<node id="-475987" lat="60.3251583295" lon="5.17113610377">
		<tag k="name" v="Pollhaugen" />
		<tag k="natural" v="hill" />
		<tag k="place" v="locality" />
		<tag k="ssr:stedsnr" v="470242" />
	</node>
	<node id="-475986" lat="60.389538889" lon="5.14079167302">
		<tag k="name" v="Grønanipa" />
		<tag k="natural" v="hill" />
		<tag k="place" v="locality" />
		<tag k="ssr:stedsnr" v="470002" />
	</node>
	<node id="-475983" lat="60.3072138857" lon="5.11305556256">
		<tag k="name" v="Skoganutane" />
		<tag k="natural" v="hill" />
		<tag k="place" v="locality" />
		<tag k="ssr:stedsnr" v="469736" />
	</node>
	<node id="-475979" lat="60.281669444" lon="5.0386583381">
		<tag k="name" v="Lyngstallen" />
		<tag k="natural" v="hill" />
		<tag k="place" v="locality" />
		<tag k="ssr:stedsnr" v="470717" />
	</node>
	<node id="-475978" lat="60.2834638903" lon="5.03955277887">
		<tag k="name" v="Skogaleitet" />
		<tag k="natural" v="hill" />
		<tag k="place" v="locality" />
		<tag k="ssr:stedsnr" v="470716" />
	</node>
	<node id="-475977" lat="60.2994166654" lon="5.04418055196">
		<tag k="name" v="Grindaberghaugen" />
		<tag k="natural" v="hill" />
		<tag k="place" v="locality" />
		<tag k="ssr:stedsnr" v="470713" />
	</node>
	<node id="-475976" lat="60.2856388865" lon="5.04079999488">
		<tag k="fixme" v="consider natural=peak for the most distinct mountains in the district" />
		<tag k="name" v="Grønåsen" />
		<tag k="natural" v="hill" />
		<tag k="place" v="locality" />
		<tag k="ssr:stedsnr" v="470711" />
	</node>
	<node id="-475975" lat="60.3484944474" lon="4.94216943728">
		<tag k="name" v="Kvernhushaugen" />
		<tag k="natural" v="hill" />
		<tag k="place" v="locality" />
		<tag k="ssr:stedsnr" v="469091" />
	</node>
	<node id="-475974" lat="60.3745555554" lon="5.1364388969">
		<tag k="fixme" v="consider natural=peak for the most distinct mountains in the district" />
		<tag k="name" v="Steinsfjellet" />
		<tag k="natural" v="hill" />
		<tag k="place" v="locality" />
		<tag k="ssr:stedsnr" v="469121" />
	</node>
	<node id="-475973" lat="60.3858722185" lon="5.147994452">
		<tag k="name" v="Storhaugen" />
		<tag k="natural" v="hill" />
		<tag k="place" v="locality" />
		<tag k="ssr:stedsnr" v="469114" />
	</node>
	<node id="-474934" lat="60.3798055535" lon="5.08496111264">
		<tag k="name" v="Ytsteskarfjella" />
		<tag k="natural" v="hill" />
		<tag k="place" v="locality" />
		<tag k="ssr:stedsnr" v="288948" />
	</node>
	<node id="-475954" lat="60.3235805575" lon="5.06329444548">
		<tag k="name" v="Kleivhaugen" />
		<tag k="natural" v="hill" />
		<tag k="place" v="locality" />
		<tag k="ssr:stedsnr" v="431331" />
	</node>
	<node id="-475949" lat="60.2805000006" lon="5.06415277797">
		<tag k="fixme" v="consider natural=peak for the most distinct mountains in the district" />
		<tag k="name" v="Stortårnet" />
		<tag k="natural" v="hill" />
		<tag k="place" v="locality" />
		<tag k="ssr:stedsnr" v="430426" />
	</node>
	<node id="-476978" lat="60.3585055538" lon="5.07962500535">
		<tag k="name" v="Rasmushaugen" />
		<tag k="natural" v="hill" />
		<tag k="place" v="locality" />
		<tag k="ssr:stedsnr" v="956580" />
	</node>
	<node id="-475946" lat="60.3609027797" lon="5.06775278417">
		<tag k="fixme" v="consider natural=peak for the most distinct mountains in the district" />
		<tag k="name" v="Nibben" />
		<tag k="natural" v="hill" />
		<tag k="place" v="locality" />
		<tag k="ssr:stedsnr" v="430341" />
	</node>
	<node id="-476977" lat="60.3497611119" lon="5.08236667461">
		<tag k="name" v="Trollhaugane" />
		<tag k="natural" v="hill" />
		<tag k="place" v="locality" />
		<tag k="ssr:stedsnr" v="956579" />
	</node>
	<node id="-476971" lat="60.3889777737" lon="4.97767222149">
		<tag k="name" v="Ilehaugen" />
		<tag k="natural" v="hill" />
		<tag k="place" v="locality" />
		<tag k="ssr:stedsnr" v="956469" />
	</node>
	<node id="-475904" lat="60.3451555543" lon="5.12658889301">
		<tag k="name" v="Knappen" />
		<tag k="natural" v="hill" />
		<tag k="place" v="locality" />
		<tag k="ssr:stedsnr" v="248700" />
	</node>
	<node id="-475899" lat="60.2714444402" lon="5.01348055735">
		<tag k="fixme" v="consider natural=peak for the most distinct mountains in the district" />
		<tag k="name" v="Manen" />
		<tag k="natural" v="hill" />
		<tag k="place" v="locality" />
		<tag k="ssr:stedsnr" v="248481" />
	</node>
	<node id="-475898" lat="60.2638583341" lon="5.03083888397">
		<tag k="fixme" v="consider natural=peak for the most distinct mountains in the district" />
		<tag k="name" v="Lotafjellet" />
		<tag k="natural" v="hill" />
		<tag k="place" v="locality" />
		<tag k="ssr:stedsnr" v="248466" />
	</node>
	<node id="-476031" lat="60.2736361097" lon="5.03527777446">
		<tag k="name" v="Klubben" />
		<tag k="natural" v="hill" />
		<tag k="place" v="locality" />
		<tag k="ssr:stedsnr" v="470855" />
	</node>
	<node id="-476969" lat="60.3395305517" lon="4.94166945321">
		<tag k="fixme" v="consider natural=peak for the most distinct mountains in the district" />
		<tag k="name" v="Illefjellet" />
		<tag k="natural" v="hill" />
		<tag k="place" v="locality" />
		<tag k="ssr:stedsnr" v="956461" />
	</node>
	<node id="-476967" lat="60.351872218" lon="4.99382778303">
		<tag k="name" v="Storaseta" />
		<tag k="natural" v="hill" />
		<tag k="place" v="locality" />
		<tag k="ssr:stedsnr" v="956455" />
	</node>
	<node id="-475876" lat="60.2920055576" lon="5.08118332895">
		<tag k="name" v="Storhaugen" />
		<tag k="natural" v="hill" />
		<tag k="place" v="locality" />
		<tag k="ssr:stedsnr" v="228893" />
	</node>
	<node id="-475874" lat="60.3574416703" lon="5.04129722796">
		<tag k="name" v="Djupebotnen" />
		<tag k="natural" v="valley" />
		<tag k="place" v="locality" />
		<tag k="ssr:stedsnr" v="228782" />
	</node>
	<node id="-475873" lat="60.3524277765" lon="5.04640556385">
		<tag k="name" v="Botnafjellet" />
		<tag k="natural" v="hill" />
		<tag k="place" v="locality" />
		<tag k="ssr:stedsnr" v="228777" />
	</node>
	<node id="-475872" lat="60.3939361152" lon="5.03488334049">
		<tag k="name" v="Sponhaugen" />
		<tag k="natural" v="hill" />
		<tag k="place" v="locality" />
		<tag k="ssr:stedsnr" v="228680" />
	</node>
	<node id="-475870" lat="60.3334638905" lon="5.11966110848">
		<tag k="name" v="Nordre Stølen" />
		<tag k="natural" v="hill" />
		<tag k="place" v="locality" />
		<tag k="ssr:stedsnr" v="228653" />
	</node>
	<node id="-475868" lat="60.3336166695" lon="5.0114777703">
		<tag k="name" v="Hornet" />
		<tag k="natural" v="hill" />
		<tag k="place" v="locality" />
		<tag k="ssr:stedsnr" v="228617" />
	</node>
	<node id="-475867" lat="60.3386305557" lon="5.03855278113">
		<tag k="name" v="Brakabrekka" />
		<tag k="natural" v="slope" />
		<tag k="place" v="locality" />
		<tag k="ssr:stedsnr" v="228605" />
	</node>
	<node id="-475860" lat="60.3558500012" lon="4.99505556159">
		<tag k="name" v="Storhaugen" />
		<tag k="natural" v="hill" />
		<tag k="place" v="locality" />
		<tag k="ssr:stedsnr" v="228449" />
	</node>
	<node id="-475857" lat="60.3074694435" lon="5.1293611193">
		<tag k="name" v="Hola" />
		<tag k="place" v="locality" />
		<tag k="ssr:stedsnr" v="228350" />
	</node>
	<node id="-475855" lat="60.2853749965" lon="5.09551389343">
		<tag k="fixme" v="consider natural=peak for the most distinct mountains in the district" />
		<tag k="name" v="Liafjellet" />
		<tag k="natural" v="hill" />
		<tag k="place" v="locality" />
		<tag k="ssr:stedsnr" v="228334" />
	</node>
	<node id="-475848" lat="60.3753777788" lon="5.03803332582">
		<tag k="name" v="Ytste Djupedalen" />
		<tag k="natural" v="valley" />
		<tag k="place" v="locality" />
		<tag k="ssr:stedsnr" v="227900" />
	</node>
	<node id="-475847" lat="60.3755138873" lon="5.04331111223">
		<tag k="name" v="Midtskara" />
		<tag k="natural" v="hill" />
		<tag k="place" v="locality" />
		<tag k="ssr:stedsnr" v="227889" />
	</node>
	<node id="-476961" lat="60.3207888914" lon="5.17580556196">
		<tag k="name" v="Storhaugen" />
		<tag k="natural" v="hill" />
		<tag k="place" v="locality" />
		<tag k="ssr:stedsnr" v="956367" />
	</node>
	<node id="-475842" lat="60.3096083312" lon="4.93419721456">
		<tag k="name" v="Skipmannshaugen" />
		<tag k="natural" v="hill" />
		<tag k="place" v="locality" />
		<tag k="ssr:stedsnr" v="227813" />
	</node>
	<node id="-475839" lat="60.3276472248" lon="5.17776389007">
		<tag k="name" v="Gardsihaugen" />
		<tag k="natural" v="hill" />
		<tag k="place" v="locality" />
		<tag k="ssr:stedsnr" v="227778" />
	</node>
	<node id="-475833" lat="60.289683332" lon="5.02174722344">
		<tag k="name" v="Avløpet" />
		<tag k="natural" v="valley" />
		<tag k="place" v="locality" />
		<tag k="ssr:stedsnr" v="227675" />
	</node>
	<node id="-475829" lat="60.3091111076" lon="5.08529445105">
		<tag k="fixme" v="consider natural=peak for the most distinct mountains in the district" />
		<tag k="name" v="Kongsåsen" />
		<tag k="natural" v="hill" />
		<tag k="place" v="locality" />
		<tag k="ssr:stedsnr" v="227652" />
	</node>
	<node id="-476958" lat="60.4340499977" lon="4.90682499794">
		<tag k="name" v="Turøyberget" />
		<tag k="natural" v="ridge" />
		<tag k="place" v="locality" />
		<tag k="ssr:stedsnr" v="956320" />
	</node>
	<node id="-475826" lat="60.4221222178" lon="4.97118610346">
		<tag k="name" v="Storafjellet" />
		<tag k="natural" v="hill" />
		<tag k="place" v="locality" />
		<tag k="ssr:stedsnr" v="227627" />
	</node>
	<node id="-475822" lat="60.3909722242" lon="4.99559445226">
		<tag k="name" v="Tussen" />
		<tag k="natural" v="hill" />
		<tag k="place" v="locality" />
		<tag k="ssr:stedsnr" v="227446" />
	</node>
	<node id="-475821" lat="60.3560805566" lon="4.9674194421">
		<tag k="name" v="Storhaugen" />
		<tag k="natural" v="hill" />
		<tag k="place" v="locality" />
		<tag k="ssr:stedsnr" v="227417" />
	</node>
	<node id="-476956" lat="60.4418888855" lon="4.91293610913">
		<tag k="name" v="Ørnareiret" />
		<tag k="natural" v="hill" />
		<tag k="place" v="locality" />
		<tag k="ssr:stedsnr" v="956317" />
	</node>
	<node id="-475812" lat="60.4244444477" lon="4.97897500004">
		<tag k="name" v="Fuglavasstoppen" />
		<tag k="natural" v="hill" />
		<tag k="place" v="locality" />
		<tag k="ssr:stedsnr" v="227338" />
	</node>
	<node id="-475806" lat="60.3712999997" lon="4.99898611122">
		<tag k="name" v="Midtfjellet" />
		<tag k="natural" v="hill" />
		<tag k="place" v="locality" />
		<tag k="ssr:stedsnr" v="227283" />
	</node>
	<node id="-475802" lat="60.3596166641" lon="4.94518056238">
		<tag k="name" v="Klubben" />
		<tag k="natural" v="hill" />
		<tag k="place" v="locality" />
		<tag k="ssr:stedsnr" v="227089" />
	</node>
	<node id="-475796" lat="60.3789333353" lon="5.12050834127">
		<tag k="name" v="Gulfjellet" />
		<tag k="natural" v="hill" />
		<tag k="place" v="locality" />
		<tag k="ssr:stedsnr" v="227936" />
	</node>
	<node id="-475773" lat="60.3711666683" lon="5.143794436">
		<tag k="fixme" v="consider natural=peak for the most distinct mountains in the district" />
		<tag k="name" v="Burdalsfjellet" />
		<tag k="natural" v="hill" />
		<tag k="place" v="locality" />
		<tag k="ssr:stedsnr" v="188696" />
	</node>
	<node id="-475771" lat="60.3242916691" lon="5.01937499334">
		<tag k="fixme" v="consider natural=peak for the most distinct mountains in the district" />
		<tag k="name" v="Skogsfjellet" />
		<tag k="natural" v="hill" />
		<tag k="place" v="locality" />
		<tag k="ssr:stedsnr" v="188333" />
	</node>
	<node id="-475753" lat="60.345044447" lon="5.08590555035">
		<tag k="fixme" v="consider natural=peak for the most distinct mountains in the district" />
		<tag k="name" v="Skorafjellet" />
		<tag k="natural" v="hill" />
		<tag k="place" v="locality" />
		<tag k="ssr:stedsnr" v="187261" />
	</node>
	<node id="-475741" lat="60.3931166695" lon="5.10786388387">
		<tag k="name" v="Tytebærhaugen" />
		<tag k="natural" v="hill" />
		<tag k="place" v="locality" />
		<tag k="ssr:stedsnr" v="167922" />
	</node>
	<node id="-475738" lat="60.2971416665" lon="5.08265834124">
		<tag k="name" v="Bruhaugane" />
		<tag k="natural" v="hill" />
		<tag k="place" v="locality" />
		<tag k="ssr:stedsnr" v="167880" />
	</node>
	<node id="-475736" lat="60.3538527752" lon="5.02897222652">
		<tag k="name" v="Stokkadalsbrotet" />
		<tag k="natural" v="slope" />
		<tag k="place" v="locality" />
		<tag k="ssr:stedsnr" v="167753" />
	</node>
	<node id="-475727" lat="60.3482722176" lon="5.0500916627">
		<tag k="name" v="Langedalen" />
		<tag k="natural" v="valley" />
		<tag k="place" v="locality" />
		<tag k="ssr:stedsnr" v="167583" />
	</node>
	<node id="-475720" lat="60.388250002" lon="4.96663610489">
		<tag k="name" v="Karibrithellerhaugen" />
		<tag k="natural" v="hill" />
		<tag k="place" v="locality" />
		<tag k="ssr:stedsnr" v="167471" />
	</node>
	<node id="-475716" lat="60.3526416643" lon="4.98416111613">
		<tag k="name" v="Neshaugane" />
		<tag k="natural" v="hill" />
		<tag k="place" v="locality" />
		<tag k="ssr:stedsnr" v="167374" />
	</node>
	<node id="-475715" lat="60.4197916704" lon="4.91337222083">
		<tag k="name" v="Ølen" />
		<tag k="place" v="locality" />
		<tag k="ssr:stedsnr" v="167369" />
	</node>
	<node id="-475713" lat="60.2857138846" lon="5.11126111117">
		<tag k="fixme" v="consider natural=peak for the most distinct mountains in the district" />
		<tag k="name" v="Stokkafjellet" />
		<tag k="natural" v="hill" />
		<tag k="place" v="locality" />
		<tag k="ssr:stedsnr" v="167331" />
	</node>
	<node id="-475711" lat="60.3736583323" lon="4.99717222093">
		<tag k="name" v="Hesthaugen" />
		<tag k="natural" v="hill" />
		<tag k="place" v="locality" />
		<tag k="ssr:stedsnr" v="167285" />
	</node>
	<node id="-475709" lat="60.4042472219" lon="4.97248055282">
		<tag k="name" v="Nausthaugen" />
		<tag k="natural" v="hill" />
		<tag k="place" v="locality" />
		<tag k="ssr:stedsnr" v="167267" />
	</node>
	<node id="-475706" lat="60.3516333362" lon="5.14307777069">
		<tag k="fixme" v="consider natural=peak for the most distinct mountains in the district" />
		<tag k="name" v="Småvarden" />
		<tag k="natural" v="hill" />
		<tag k="place" v="locality" />
		<tag k="ssr:stedsnr" v="166980" />
	</node>
	<node id="-475705" lat="60.3671583367" lon="5.14822221669">
		<tag k="name" v="Smihaugen" />
		<tag k="natural" v="hill" />
		<tag k="place" v="locality" />
		<tag k="ssr:stedsnr" v="166977" />
	</node>
	<node id="-475704" lat="60.4137833332" lon="5.00865278292">
		<tag k="name" v="Traneneshaugen" />
		<tag k="natural" v="hill" />
		<tag k="place" v="locality" />
		<tag k="ssr:stedsnr" v="166958" />
	</node>
	<node id="-475700" lat="60.3093499992" lon="4.93958333127">
		<tag k="name" v="Jonsokhaugen" />
		<tag k="natural" v="hill" />
		<tag k="place" v="locality" />
		<tag k="ssr:stedsnr" v="166811" />
	</node>
	<node id="-475699" lat="60.3079166652" lon="4.93447778261">
		<tag k="name" v="Vardane" />
		<tag k="natural" v="hill" />
		<tag k="place" v="locality" />
		<tag k="ssr:stedsnr" v="166808" />
	</node>
	<node id="-476936" lat="60.3331861146" lon="5.12868888492">
		<tag k="name" v="Hovden" />
		<tag k="natural" v="hill" />
		<tag k="place" v="locality" />
		<tag k="ssr:stedsnr" v="955786" />
	</node>
	<node id="-475691" lat="60.2849666673" lon="5.03138054844">
		<tag k="name" v="Austre Storhaugen" />
		<tag k="natural" v="hill" />
		<tag k="place" v="locality" />
		<tag k="ssr:stedsnr" v="166716" />
	</node>
	<node id="-475690" lat="60.2838333358" lon="5.04721388802">
		<tag k="fixme" v="consider natural=peak for the most distinct mountains in the district" />
		<tag k="name" v="Hjartåsen" />
		<tag k="natural" v="hill" />
		<tag k="place" v="locality" />
		<tag k="ssr:stedsnr" v="166709" />
	</node>
	<node id="-476935" lat="60.34163333" lon="5.13601389103">
		<tag k="name" v="Idda" />
		<tag k="natural" v="hill" />
		<tag k="place" v="locality" />
		<tag k="ssr:stedsnr" v="955782" />
	</node>
	<node id="-475688" lat="60.2822611099" lon="5.01206667288">
		<tag k="name" v="Rikholene" />
		<tag k="place" v="locality" />
		<tag k="ssr:stedsnr" v="166683" />
	</node>
	<node id="-475569" lat="60.3431444442" lon="4.99530833639">
		<tag k="name" v="Stølshaugen" />
		<tag k="natural" v="hill" />
		<tag k="place" v="locality" />
		<tag k="ssr:stedsnr" v="106392" />
	</node>
	<node id="-475684" lat="60.3142083368" lon="5.05958888431">
		<tag k="name" v="Rapovnen" />
		<tag k="natural" v="hill" />
		<tag k="place" v="locality" />
		<tag k="ssr:stedsnr" v="166623" />
	</node>
	<node id="-475683" lat="60.3054999992" lon="5.03308611781">
		<tag k="name" v="Ryggen" />
		<tag k="natural" v="hill" />
		<tag k="place" v="locality" />
		<tag k="ssr:stedsnr" v="166624" />
	</node>
	<node id="-475682" lat="60.3228166678" lon="5.03089444304">
		<tag k="name" v="Jonsokhaugen" />
		<tag k="natural" v="hill" />
		<tag k="place" v="locality" />
		<tag k="ssr:stedsnr" v="166612" />
	</node>
	<node id="-475680" lat="60.4126944485" lon="4.99423334073">
		<tag k="name" v="Hamrahaugane" />
		<tag k="natural" v="hill" />
		<tag k="place" v="locality" />
		<tag k="ssr:stedsnr" v="166338" />
	</node>
	<node id="-475678" lat="60.3693555544" lon="5.12716944762">
		<tag k="name" v="Søre Pollhaugen" />
		<tag k="natural" v="hill" />
		<tag k="place" v="locality" />
		<tag k="ssr:stedsnr" v="166116" />
	</node>
	<node id="-475646" lat="60.3374027814" lon="5.05711111688">
		<tag k="fixme" v="consider natural=peak for the most distinct mountains in the district" />
		<tag k="name" v="Gardafjellet" />
		<tag k="natural" v="hill" />
		<tag k="place" v="locality" />
		<tag k="ssr:stedsnr" v="127281" />
	</node>
	<node id="-475644" lat="60.363269449" lon="5.1489194477">
		<tag k="name" v="Tona" />
		<tag k="natural" v="hill" />
		<tag k="place" v="locality" />
		<tag k="ssr:stedsnr" v="126693" />
	</node>
	<node id="-475641" lat="60.302883303" lon="5.04479137557">
		<tag k="fixme" v="consider natural=peak for the most distinct mountains in the district" />
		<tag k="name" v="Stegafjellet" />
		<tag k="natural" v="hill" />
		<tag k="place" v="locality" />
		<tag k="ssr:stedsnr" v="126468" />
	</node>
	<node id="-475631" lat="60.3610916635" lon="5.14954722666">
		<tag k="name" v="Tobrotet" />
		<tag k="natural" v="cliff" />
		<tag k="ssr:stedsnr" v="106999" />
	</node>
	<node id="-475626" lat="60.429558332" lon="5.00688055068">
		<tag k="name" v="Kråkhaugen" />
		<tag k="natural" v="hill" />
		<tag k="place" v="locality" />
		<tag k="ssr:stedsnr" v="106966" />
	</node>
	<node id="-475625" lat="60.3825555601" lon="5.11274167515">
		<tag k="name" v="Træsberga" />
		<tag k="natural" v="ridge" />
		<tag k="place" v="locality" />
		<tag k="ssr:stedsnr" v="106950" />
	</node>
	<node id="-475623" lat="60.3692833315" lon="5.02313333192">
		<tag k="name" v="Søre Dalen" />
		<tag k="natural" v="valley" />
		<tag k="place" v="locality" />
		<tag k="ssr:stedsnr" v="106925" />
	</node>
	<node id="-475619" lat="60.3823361106" lon="5.03517222773">
		<tag k="name" v="Slettene" />
		<tag k="natural" v="slope" />
		<tag k="place" v="locality" />
		<tag k="ssr:stedsnr" v="106910" />
	</node>
	<node id="-475618" lat="60.3898666627" lon="5.10485555216">
		<tag k="name" v="Byneshaugen" />
		<tag k="natural" v="hill" />
		<tag k="place" v="locality" />
		<tag k="ssr:stedsnr" v="106900" />
	</node>
	<node id="-475617" lat="60.3767666654" lon="5.01688611557">
		<tag k="name" v="Sjostallen" />
		<tag k="natural" v="hill" />
		<tag k="place" v="locality" />
		<tag k="ssr:stedsnr" v="106895" />
	</node>
	<node id="-475612" lat="60.3054833303" lon="4.98390834241">
		<tag k="name" v="Ørnhaugen" />
		<tag k="natural" v="hill" />
		<tag k="place" v="locality" />
		<tag k="ssr:stedsnr" v="106840" />
	</node>
	<node id="-475609" lat="60.3906222232" lon="5.12913611164">
		<tag k="name" v="Toskillingshaugen" />
		<tag k="natural" v="hill" />
		<tag k="place" v="locality" />
		<tag k="ssr:stedsnr" v="106814" />
	</node>
	<node id="-475604" lat="60.3629388865" lon="5.04338055602">
		<tag k="name" v="Skjenet" />
		<tag k="natural" v="hill" />
		<tag k="place" v="locality" />
		<tag k="ssr:stedsnr" v="106743" />
	</node>
	<node id="-475601" lat="60.2817333346" lon="5.01810278304">
		<tag k="name" v="Skjenhaugen" />
		<tag k="natural" v="hill" />
		<tag k="place" v="locality" />
		<tag k="ssr:stedsnr" v="106713" />
	</node>
	<node id="-475596" lat="60.3102250024" lon="5.11755555704">
		<tag k="name" v="Kvilet" />
		<tag k="place" v="locality" />
		<tag k="ssr:stedsnr" v="106672" />
	</node>
	<node id="-475595" lat="60.4251222225" lon="4.99386666318">
		<tag k="name" v="Skorane" />
		<tag k="natural" v="slope" />
		<tag k="place" v="locality" />
		<tag k="ssr:stedsnr" v="106649" />
	</node>
	<node id="-475593" lat="60.3117500015" lon="5.02171388841">
		<tag k="name" v="Lushaugen" />
		<tag k="natural" v="hill" />
		<tag k="place" v="locality" />
		<tag k="ssr:stedsnr" v="106614" />
	</node>
	<node id="-475592" lat="60.3993638894" lon="5.00966388167">
		<tag k="name" v="Trangesmoghaugane" />
		<tag k="natural" v="hill" />
		<tag k="place" v="locality" />
		<tag k="ssr:stedsnr" v="106603" />
	</node>
	<node id="-475588" lat="60.3246416649" lon="5.06434166308">
		<tag k="name" v="Åsdalen" />
		<tag k="natural" v="valley" />
		<tag k="place" v="locality" />
		<tag k="ssr:stedsnr" v="106579" />
	</node>
	<node id="-475587" lat="60.3407583374" lon="5.11157777579">
		<tag k="name" v="Døsjehaugen" />
		<tag k="natural" v="hill" />
		<tag k="place" v="locality" />
		<tag k="ssr:stedsnr" v="106577" />
	</node>
	<node id="-475586" lat="60.3310083357" lon="5.08608333853">
		<tag k="name" v="Klakkane" />
		<tag k="natural" v="hill" />
		<tag k="place" v="locality" />
		<tag k="ssr:stedsnr" v="106573" />
	</node>
	<node id="-475584" lat="60.3378527807" lon="5.01983332791">
		<tag k="name" v="Lyngsmoghaugane" />
		<tag k="natural" v="hill" />
		<tag k="place" v="locality" />
		<tag k="ssr:stedsnr" v="106545" />
	</node>
	<node id="-475577" lat="60.3796305522" lon="4.94026666937">
		<tag k="name" v="Ovnen" />
		<tag k="natural" v="hill" />
		<tag k="place" v="locality" />
		<tag k="ssr:stedsnr" v="106441" />
	</node>
	<node id="-475576" lat="60.3948305526" lon="4.99749721464">
		<tag k="name" v="Forsthaugen" />
		<tag k="natural" v="hill" />
		<tag k="place" v="locality" />
		<tag k="ssr:stedsnr" v="106429" />
	</node>
	<node id="-475573" lat="60.3548361141" lon="4.9903388851">
		<tag k="name" v="Torvgardshaugane" />
		<tag k="natural" v="hill" />
		<tag k="place" v="locality" />
		<tag k="ssr:stedsnr" v="106412" />
	</node>
	<node id="-475572" lat="60.3591277811" lon="4.99384721961">
		<tag k="name" v="Papestølhaugen" />
		<tag k="natural" v="hill" />
		<tag k="place" v="locality" />
		<tag k="ssr:stedsnr" v="106409" />
	</node>
	<node id="-475571" lat="60.3485500004" lon="4.9756944419">
		<tag k="name" v="Hovda" />
		<tag k="natural" v="hill" />
		<tag k="place" v="locality" />
		<tag k="ssr:stedsnr" v="106403" />
	</node>
	<node id="-474867" lat="60.4426722262" lon="4.9605027722">
		<tag k="name" v="Maklahaugen" />
		<tag k="natural" v="hill" />
		<tag k="place" v="locality" />
		<tag k="ssr:stedsnr" v="288336" />
	</node>
	<node id="-475567" lat="60.4229638892" lon="4.92098889002">
		<tag k="name" v="Gullekletten" />
		<tag k="natural" v="hill" />
		<tag k="place" v="locality" />
		<tag k="ssr:stedsnr" v="106358" />
	</node>
	<node id="-475564" lat="60.4373611081" lon="4.97902222495">
		<tag k="name" v="Kuhaugen" />
		<tag k="natural" v="hill" />
		<tag k="place" v="locality" />
		<tag k="ssr:stedsnr" v="106348" />
	</node>
	<node id="-475562" lat="60.4394888858" lon="4.99935277896">
		<tag k="name" v="Trollabotnen" />
		<tag k="natural" v="valley" />
		<tag k="place" v="locality" />
		<tag k="ssr:stedsnr" v="106344" />
	</node>
	<node id="-475560" lat="60.4136805516" lon="4.96818333413">
		<tag k="name" v="Skjenhaugen" />
		<tag k="natural" v="hill" />
		<tag k="place" v="locality" />
		<tag k="ssr:stedsnr" v="106330" />
	</node>
	<node id="-475559" lat="60.4302250014" lon="4.97044999836">
		<tag k="name" v="Lofthaugen" />
		<tag k="natural" v="hill" />
		<tag k="place" v="locality" />
		<tag k="ssr:stedsnr" v="106328" />
	</node>
	<node id="-475552" lat="60.3548388929" lon="5.11010277859">
		<tag k="fixme" v="consider natural=peak for the most distinct mountains in the district" />
		<tag k="name" v="Branndalsfjellet" />
		<tag k="natural" v="hill" />
		<tag k="place" v="locality" />
		<tag k="ssr:stedsnr" v="106261" />
	</node>
	<node id="-475548" lat="60.3815777745" lon="5.13196111663">
		<tag k="fixme" v="consider natural=peak for the most distinct mountains in the district" />
		<tag k="name" v="Ørnareiret" />
		<tag k="natural" v="hill" />
		<tag k="place" v="locality" />
		<tag k="ssr:stedsnr" v="106115" />
	</node>
	<node id="-475522" lat="60.3846499975" lon="5.14505000721">
		<tag k="name" v="Grasmenipa" />
		<tag k="natural" v="hill" />
		<tag k="place" v="locality" />
		<tag k="ssr:stedsnr" v="66610" />
	</node>
	<node id="-475506" lat="60.3340138904" lon="5.01937222698">
		<tag k="fixme" v="consider natural=peak for the most distinct mountains in the district" />
		<tag k="name" v="Signalen" />
		<tag k="natural" v="hill" />
		<tag k="place" v="locality" />
		<tag k="ssr:stedsnr" v="66237" />
	</node>
	<node id="-475504" lat="60.414780554" lon="4.99321944837">
		<tag k="fixme" v="consider natural=peak for the most distinct mountains in the district" />
		<tag k="name" v="Bleivasstoppen" />
		<tag k="natural" v="hill" />
		<tag k="place" v="locality" />
		<tag k="ssr:stedsnr" v="66179" />
	</node>
	<node id="-475494" lat="60.2806027738" lon="5.097636104">
		<tag k="fixme" v="consider natural=peak for the most distinct mountains in the district" />
		<tag k="name" v="Skorasåta" />
		<tag k="natural" v="hill" />
		<tag k="place" v="locality" />
		<tag k="ssr:stedsnr" v="46887" />
	</node>
	<node id="-475491" lat="60.3473583353" lon="5.02394445294">
		<tag k="name" v="Svinhusdalen" />
		<tag k="natural" v="valley" />
		<tag k="place" v="locality" />
		<tag k="ssr:stedsnr" v="46578" />
	</node>
	<node id="-475490" lat="60.3643999985" lon="5.02013056269">
		<tag k="name" v="Brattstigdalen" />
		<tag k="natural" v="valley" />
		<tag k="place" v="locality" />
		<tag k="ssr:stedsnr" v="46577" />
	</node>
	<node id="-475489" lat="60.3193111145" lon="5.16451110897">
		<tag k="fixme" v="consider natural=peak for the most distinct mountains in the district" />
		<tag k="name" v="Ørnafjellet" />
		<tag k="natural" v="hill" />
		<tag k="place" v="locality" />
		<tag k="ssr:stedsnr" v="46346" />
	</node>
	<node id="-475485" lat="60.3603027772" lon="5.15547222772">
		<tag k="name" v="Huldrahaugen" />
		<tag k="natural" v="hill" />
		<tag k="place" v="locality" />
		<tag k="ssr:stedsnr" v="45967" />
	</node>
	<node id="-475484" lat="60.3590722213" lon="5.13781111833">
		<tag k="name" v="Stølshaugen" />
		<tag k="natural" v="hill" />
		<tag k="place" v="locality" />
		<tag k="ssr:stedsnr" v="45965" />
	</node>
	<node id="-475481" lat="60.3776861079" lon="5.0304694367">
		<tag k="name" v="Fjæreidvegen" />
		<tag k="natural" v="slope" />
		<tag k="place" v="locality" />
		<tag k="ssr:stedsnr" v="45897" />
	</node>
	<node id="-475480" lat="60.3722000021" lon="5.01301666433">
		<tag k="name" v="Sauafjellet" />
		<tag k="natural" v="hill" />
		<tag k="place" v="locality" />
		<tag k="ssr:stedsnr" v="45891" />
	</node>
	<node id="-475477" lat="60.396591666" lon="5.10497223022">
		<tag k="name" v="Teistaberget" />
		<tag k="natural" v="ridge" />
		<tag k="place" v="locality" />
		<tag k="ssr:stedsnr" v="45872" />
	</node>
	<node id="-475472" lat="60.334080553" lon="5.12851944431">
		<tag k="name" v="Orrtua" />
		<tag k="natural" v="hill" />
		<tag k="place" v="locality" />
		<tag k="ssr:stedsnr" v="45773" />
	</node>
	<node id="-475471" lat="60.3327777769" lon="5.18443333519">
		<tag k="name" v="Fløsteinshaugane" />
		<tag k="natural" v="hill" />
		<tag k="place" v="locality" />
		<tag k="ssr:stedsnr" v="45768" />
	</node>
	<node id="-475468" lat="60.2874472236" lon="5.01521110822">
		<tag k="name" v="Storeoddnakken" />
		<tag k="natural" v="hill" />
		<tag k="place" v="locality" />
		<tag k="ssr:stedsnr" v="45709" />
	</node>
	<node id="-475463" lat="60.3180416694" lon="5.08062777731">
		<tag k="fixme" v="consider natural=peak for the most distinct mountains in the district" />
		<tag k="name" v="Rindane" />
		<tag k="natural" v="hill" />
		<tag k="place" v="locality" />
		<tag k="ssr:stedsnr" v="45658" />
	</node>
	<node id="-475462" lat="60.320691665" lon="5.07890832617">
		<tag k="name" v="Ravnabotnen" />
		<tag k="natural" v="valley" />
		<tag k="place" v="locality" />
		<tag k="ssr:stedsnr" v="45656" />
	</node>
	<node id="-475461" lat="60.3049972179" lon="5.12334721513">
		<tag k="name" v="Bukkhelleren" />
		<tag k="natural" v="hill" />
		<tag k="place" v="locality" />
		<tag k="ssr:stedsnr" v="45651" />
	</node>
	<node id="-475458" lat="60.3949388867" lon="5.01948889291">
		<tag k="name" v="Lynghaugen" />
		<tag k="natural" v="hill" />
		<tag k="place" v="locality" />
		<tag k="ssr:stedsnr" v="45591" />
	</node>
	<node id="-475457" lat="60.3980361103" lon="5.02002222517">
		<tag k="name" v="Langedalen" />
		<tag k="natural" v="valley" />
		<tag k="place" v="locality" />
		<tag k="ssr:stedsnr" v="45589" />
	</node>
	<node id="-475455" lat="60.3412444475" lon="5.07984999292">
		<tag k="name" v="Halvgjehaugen" />
		<tag k="natural" v="hill" />
		<tag k="place" v="locality" />
		<tag k="ssr:stedsnr" v="45574" />
	</node>
	<node id="-475454" lat="60.3270166664" lon="5.08177777929">
		<tag k="name" v="Storskora" />
		<tag k="natural" v="hill" />
		<tag k="place" v="locality" />
		<tag k="ssr:stedsnr" v="45566" />
	</node>
	<node id="-475450" lat="60.342833337" lon="5.014436107">
		<tag k="name" v="Rundehaugen" />
		<tag k="natural" v="hill" />
		<tag k="place" v="locality" />
		<tag k="ssr:stedsnr" v="45546" />
	</node>
	<node id="-475449" lat="60.3315194453" lon="5.02794444269">
		<tag k="name" v="Rotavasshaugane" />
		<tag k="natural" v="hill" />
		<tag k="place" v="locality" />
		<tag k="ssr:stedsnr" v="45543" />
	</node>
	<node id="-475448" lat="60.3335666685" lon="5.0241805529">
		<tag k="name" v="Jamnhaugen" />
		<tag k="natural" v="hill" />
		<tag k="place" v="locality" />
		<tag k="ssr:stedsnr" v="45539" />
	</node>
	<node id="-475441" lat="60.3949833358" lon="4.97136666874">
		<tag k="name" v="Nova" />
		<tag k="natural" v="hill" />
		<tag k="place" v="locality" />
		<tag k="ssr:stedsnr" v="45465" />
	</node>
	<node id="-475437" lat="60.3566138853" lon="5.00551666105">
		<tag k="name" v="Engeshovden" />
		<tag k="natural" v="hill" />
		<tag k="place" v="locality" />
		<tag k="ssr:stedsnr" v="45432" />
	</node>
	<node id="-475427" lat="60.3642500033" lon="4.98230000229">
		<tag k="name" v="Torskaberget" />
		<tag k="place" v="locality" />
		<tag k="ssr:stedsnr" v="45374" />
	</node>
	<node id="-475425" lat="60.3144416652" lon="5.13522221917">
		<tag k="name" v="Råka" />
		<tag k="natural" v="slope" />
		<tag k="place" v="locality" />
		<tag k="ssr:stedsnr" v="45332" />
	</node>
	<node id="-476970" lat="60.3297611147" lon="4.89443056207">
		<tag k="name" v="Vestre Kletten" />
		<tag k="natural" v="hill" />
		<tag k="place" v="locality" />
		<tag k="ssr:stedsnr" v="956465" />
	</node>
	<node id="-475420" lat="60.377591671" lon="4.99838333729">
		<tag k="name" v="Rotavassfjellet" />
		<tag k="natural" v="hill" />
		<tag k="place" v="locality" />
		<tag k="ssr:stedsnr" v="45286" />
	</node>
	<node id="-475419" lat="60.3742416695" lon="4.97045000139">
		<tag k="name" v="Galthaugen" />
		<tag k="natural" v="hill" />
		<tag k="place" v="locality" />
		<tag k="ssr:stedsnr" v="45281" />
	</node>
	<node id="-475414" lat="60.2660777821" lon="5.06369721878">
		<tag k="name" v="Apalen" />
		<tag k="natural" v="hill" />
		<tag k="place" v="locality" />
		<tag k="ssr:stedsnr" v="45132" />
	</node>
	<node id="-475413" lat="60.2797916674" lon="5.12266111016">
		<tag k="name" v="Kjerringastigen" />
		<tag k="natural" v="slope" />
		<tag k="place" v="locality" />
		<tag k="ssr:stedsnr" v="45126" />
	</node>
	<node id="-475411" lat="60.3788777752" lon="5.15913610969">
		<tag k="name" v="Tøket" />
		<tag k="natural" v="slope" />
		<tag k="place" v="locality" />
		<tag k="ssr:stedsnr" v="45103" />
	</node>
	<node id="-475410" lat="60.3445250039" lon="5.09238888256">
		<tag k="fixme" v="consider natural=peak for the most distinct mountains in the district" />
		<tag k="name" v="Bildøynuten" />
		<tag k="natural" v="hill" />
		<tag k="place" v="locality" />
		<tag k="ssr:stedsnr" v="40242" />
	</node>
	<node id="-475390" lat="60.3488777765" lon="4.9907444452">
		<tag k="name" v="Klausatræet" />
		<tag k="place" v="locality" />
		<tag k="ssr:stedsnr" v="5327" />
	</node>
	<node id="-475388" lat="60.3156777779" lon="4.99064722762">
		<tag k="name" v="Øyna" />
		<tag k="natural" v="hill" />
		<tag k="place" v="locality" />
		<tag k="ssr:stedsnr" v="5295" />
	</node>
	<node id="-475387" lat="60.316599999" lon="5.08684444761">
		<tag k="fixme" v="consider natural=peak for the most distinct mountains in the district" />
		<tag k="loc_name" v="Kannikahaugen;Kanikahaugen" />
		<tag k="name" v="Fjellasåta" />
		<tag k="natural" v="hill" />
		<tag k="place" v="locality" />
		<tag k="ssr:stedsnr" v="5290" />
	</node>
	<node id="-475384" lat="60.339734202" lon="4.94260423636">
		<tag k="fixme" v="consider natural=peak for the most distinct mountains in the district" />
		<tag k="name" v="Hillefjellet" />
		<tag k="natural" v="hill" />
		<tag k="place" v="locality" />
		<tag k="ssr:stedsnr" v="5278" />
	</node>
	<node id="-475382" lat="60.3553138874" lon="5.04607499793">
		<tag k="fixme" v="consider natural=peak for the most distinct mountains in the district" />
		<tag k="name" v="Ørnafjellet" />
		<tag k="natural" v="hill" />
		<tag k="place" v="locality" />
		<tag k="ssr:stedsnr" v="5274" />
	</node>
	<node id="-475381" lat="60.3434333343" lon="4.97633889119">
		<tag k="name" v="Ørnhaugen" />
		<tag k="natural" v="hill" />
		<tag k="place" v="locality" />
		<tag k="ssr:stedsnr" v="5268" />
	</node>
	<node id="-475326" lat="60.3506277769" lon="5.14773611934">
		<tag k="name" v="Skogadalen" />
		<tag k="natural" v="valley" />
		<tag k="place" v="locality" />
		<tag k="ssr:stedsnr" v="895977" />
	</node>
	<node id="-475325" lat="60.3615638852" lon="5.15496667438">
		<tag k="name" v="Løhaugen" />
		<tag k="natural" v="hill" />
		<tag k="place" v="locality" />
		<tag k="ssr:stedsnr" v="895974" />
	</node>
	<node id="-475318" lat="60.3865333352" lon="5.01141387964">
		<tag k="name" v="Støbrotet" />
		<tag k="natural" v="cliff" />
		<tag k="ssr:stedsnr" v="895908" />
	</node>
	<node id="-475317" lat="60.3748222228" lon="5.00848054646">
		<tag k="name" v="Storhaugen" />
		<tag k="natural" v="hill" />
		<tag k="place" v="locality" />
		<tag k="ssr:stedsnr" v="895906" />
	</node>
	<node id="-475316" lat="60.3720194459" lon="5.04260277157">
		<tag k="name" v="Skraparen" />
		<tag k="natural" v="hill" />
		<tag k="place" v="locality" />
		<tag k="ssr:stedsnr" v="895905" />
	</node>
	<node id="-475314" lat="60.2756250003" lon="5.10621111253">
		<tag k="name" v="Grasgjelhaugen" />
		<tag k="natural" v="hill" />
		<tag k="place" v="locality" />
		<tag k="ssr:stedsnr" v="895855" />
	</node>
	<node id="-475313" lat="60.3101361078" lon="4.97703888106">
		<tag k="name" v="Træshaugen" />
		<tag k="natural" v="hill" />
		<tag k="place" v="locality" />
		<tag k="ssr:stedsnr" v="895839" />
	</node>
	<node id="-475311" lat="60.263602777" lon="5.02166665851">
		<tag k="name" v="Hestatræet" />
		<tag k="natural" v="hill" />
		<tag k="place" v="locality" />
		<tag k="ssr:stedsnr" v="895829" />
	</node>
	<node id="-475309" lat="60.3288138898" lon="5.18347221699">
		<tag k="name" v="Bekken" />
		<tag k="place" v="locality" />
		<tag k="ssr:stedsnr" v="895788" />
	</node>
	<node id="-475307" lat="60.301383331" lon="5.12904166729">
		<tag k="name" v="Dansarhaugen" />
		<tag k="natural" v="hill" />
		<tag k="place" v="locality" />
		<tag k="ssr:stedsnr" v="895776" />
	</node>
	<node id="-475300" lat="60.2855833317" lon="5.02721944367">
		<tag k="name" v="Vestre Storhaugen" />
		<tag k="natural" v="hill" />
		<tag k="place" v="locality" />
		<tag k="ssr:stedsnr" v="895705" />
	</node>
	<node id="-475297" lat="60.3085166626" lon="5.11616388946">
		<tag k="name" v="Franskmannen" />
		<tag k="place" v="locality" />
		<tag k="ssr:stedsnr" v="895654" />
	</node>
	<node id="-475296" lat="60.3174499996" lon="5.07565555722">
		<tag k="name" v="Krossleitet" />
		<tag k="natural" v="hill" />
		<tag k="place" v="locality" />
		<tag k="ssr:stedsnr" v="895655" />
	</node>
	<node id="-475295" lat="60.3172277745" lon="5.119977787">
		<tag k="name" v="Stykkhaugen" />
		<tag k="natural" v="hill" />
		<tag k="place" v="locality" />
		<tag k="ssr:stedsnr" v="895640" />
	</node>
	<node id="-475293" lat="60.4563166655" lon="4.9866666649">
		<tag k="name" v="Nordra Såta" />
		<tag k="natural" v="hill" />
		<tag k="place" v="locality" />
		<tag k="ssr:stedsnr" v="895627" />
	</node>
	<node id="-475291" lat="60.3098277824" lon="5.02815000532">
		<tag k="name" v="Storakleiva" />
		<tag k="natural" v="hill" />
		<tag k="place" v="locality" />
		<tag k="ssr:stedsnr" v="895612" />
	</node>
	<node id="-475290" lat="60.3193805515" lon="5.04676111645">
		<tag k="name" v="Kulten" />
		<tag k="natural" v="hill" />
		<tag k="place" v="locality" />
		<tag k="ssr:stedsnr" v="895609" />
	</node>
	<node id="-475289" lat="60.3137805566" lon="5.05408611357">
		<tag k="name" v="Austre Høghaugen" />
		<tag k="natural" v="hill" />
		<tag k="place" v="locality" />
		<tag k="ssr:stedsnr" v="895606" />
	</node>
	<node id="-475288" lat="60.4031972252" lon="5.02768610386">
		<tag k="name" v="Kleivadalen" />
		<tag k="natural" v="valley" />
		<tag k="place" v="locality" />
		<tag k="ssr:stedsnr" v="895583" />
	</node>
	<node id="-475287" lat="60.3980166653" lon="5.03107222155">
		<tag k="name" v="Austre Trollhaugen" />
		<tag k="natural" v="hill" />
		<tag k="place" v="locality" />
		<tag k="ssr:stedsnr" v="895577" />
	</node>
	<node id="-475285" lat="60.3249638912" lon="5.11010000257">
		<tag k="name" v="Dumpehaugen" />
		<tag k="natural" v="hill" />
		<tag k="place" v="locality" />
		<tag k="ssr:stedsnr" v="895553" />
	</node>
	<node id="-475284" lat="60.325330552" lon="5.11927499449">
		<tag k="name" v="Åsen" />
		<tag k="natural" v="hill" />
		<tag k="place" v="locality" />
		<tag k="ssr:stedsnr" v="895551" />
	</node>
	<node id="-475283" lat="60.3295083353" lon="5.09997221576">
		<tag k="name" v="Skitnafenet" />
		<tag k="natural" v="hill" />
		<tag k="place" v="locality" />
		<tag k="ssr:stedsnr" v="895546" />
	</node>
	<node id="-475282" lat="60.3378138905" lon="5.07575555211">
		<tag k="name" v="Storsteinen" />
		<tag k="natural" v="hill" />
		<tag k="place" v="locality" />
		<tag k="ssr:stedsnr" v="895541" />
	</node>
	<node id="-475280" lat="60.3361750043" lon="5.01726110863">
		<tag k="name" v="Storhaugen" />
		<tag k="natural" v="hill" />
		<tag k="place" v="locality" />
		<tag k="ssr:stedsnr" v="895529" />
	</node>
	<node id="-475279" lat="60.3328222251" lon="5.05567500595">
		<tag k="name" v="Furhaugen" />
		<tag k="natural" v="hill" />
		<tag k="place" v="locality" />
		<tag k="ssr:stedsnr" v="895526" />
	</node>
	<node id="-475277" lat="60.3565166628" lon="5.03651944061">
		<tag k="name" v="Langedalen" />
		<tag k="natural" v="valley" />
		<tag k="place" v="locality" />
		<tag k="ssr:stedsnr" v="895503" />
	</node>
	<node id="-475274" lat="60.3379666635" lon="5.00366944792">
		<tag k="name" v="Storesteinane" />
		<tag k="natural" v="hill" />
		<tag k="place" v="locality" />
		<tag k="ssr:stedsnr" v="895459" />
	</node>
	<node id="-475273" lat="60.4083138936" lon="4.96561945118">
		<tag k="name" v="Koparhaugen" />
		<tag k="natural" v="hill" />
		<tag k="place" v="locality" />
		<tag k="ssr:stedsnr" v="895428" />
	</node>
	<node id="-475266" lat="60.4431638885" lon="4.98854166764">
		<tag k="name" v="Høybøen" />
		<tag k="natural" v="slope" />
		<tag k="place" v="locality" />
		<tag k="ssr:stedsnr" v="895327" />
	</node>
	<node id="-475265" lat="60.4449333354" lon="4.96036944393">
		<tag k="name" v="Søra Nipo" />
		<tag k="natural" v="hill" />
		<tag k="place" v="locality" />
		<tag k="ssr:stedsnr" v="895328" />
	</node>
	<node id="-475264" lat="60.3182166691" lon="5.13625277677">
		<tag k="name" v="Storhaugen" />
		<tag k="natural" v="hill" />
		<tag k="place" v="locality" />
		<tag k="ssr:stedsnr" v="895316" />
	</node>
	<node id="-475261" lat="60.4487833346" lon="4.91031943939">
		<tag k="name" v="Oterholhaugen" />
		<tag k="natural" v="hill" />
		<tag k="place" v="locality" />
		<tag k="ssr:stedsnr" v="895269" />
	</node>
	<node id="-475259" lat="60.3803611079" lon="4.97117778292">
		<tag k="name" v="Buskevikhaugen" />
		<tag k="natural" v="hill" />
		<tag k="place" v="locality" />
		<tag k="ssr:stedsnr" v="895253" />
	</node>
	<node id="-475258" lat="60.3819472205" lon="4.97446111258">
		<tag k="name" v="Langedalshaugen" />
		<tag k="natural" v="hill" />
		<tag k="place" v="locality" />
		<tag k="ssr:stedsnr" v="895251" />
	</node>
	<node id="-475256" lat="60.428541664" lon="5.00228332792">
		<tag k="name" v="Vardhaugen" />
		<tag k="natural" v="hill" />
		<tag k="place" v="locality" />
		<tag k="ssr:stedsnr" v="895246" />
	</node>
	<node id="-475250" lat="60.3475722199" lon="4.94026945002">
		<tag k="name" v="Båthaugen" />
		<tag k="natural" v="hill" />
		<tag k="place" v="locality" />
		<tag k="ssr:stedsnr" v="895072" />
	</node>
	<node id="-475242" lat="60.386005554" lon="5.01780833214">
		<tag k="name" v="Lynghaugen" />
		<tag k="natural" v="hill" />
		<tag k="place" v="locality" />
		<tag k="ssr:stedsnr" v="410906" />
	</node>
	<node id="-475238" lat="60.269902774" lon="5.02206389313">
		<tag k="name" v="Gamlasveda" />
		<tag k="natural" v="hill" />
		<tag k="place" v="locality" />
		<tag k="ssr:stedsnr" v="410838" />
	</node>
	<node id="-475237" lat="60.3525944405" lon="5.05282221607">
		<tag k="name" v="Rundehaugen" />
		<tag k="natural" v="hill" />
		<tag k="place" v="locality" />
		<tag k="ssr:stedsnr" v="410746" />
	</node>
	<node id="-475236" lat="60.4014583374" lon="5.04190833756">
		<tag k="name" v="Teinhaugen" />
		<tag k="natural" v="hill" />
		<tag k="place" v="locality" />
		<tag k="ssr:stedsnr" v="410635" />
	</node>
	<node id="-475227" lat="60.3293749983" lon="4.99872499832">
		<tag k="name" v="Brendo" />
		<tag k="place" v="locality" />
		<tag k="ssr:stedsnr" v="410483" />
	</node>
	<node id="-475225" lat="60.3466583375" lon="4.99401666993">
		<tag k="name" v="Fagredalshaugen" />
		<tag k="natural" v="hill" />
		<tag k="place" v="locality" />
		<tag k="ssr:stedsnr" v="410445" />
	</node>
	<node id="-475223" lat="60.3456972262" lon="4.96000555881">
		<tag k="name" v="Såtene" />
		<tag k="natural" v="hill" />
		<tag k="place" v="locality" />
		<tag k="ssr:stedsnr" v="410428" />
	</node>
	<node id="-475221" lat="60.3421972207" lon="4.99292778546">
		<tag k="name" v="Vikhaugen" />
		<tag k="natural" v="hill" />
		<tag k="place" v="locality" />
		<tag k="ssr:stedsnr" v="410415" />
	</node>
	<node id="-475213" lat="60.3134166668" lon="5.12918333838">
		<tag k="name" v="Snikhaugen" />
		<tag k="natural" v="hill" />
		<tag k="place" v="locality" />
		<tag k="ssr:stedsnr" v="410341" />
	</node>
	<node id="-475211" lat="60.2996249974" lon="5.09520277682">
		<tag k="fixme" v="consider natural=peak for the most distinct mountains in the district" />
		<tag k="name" v="Skorafjellet" />
		<tag k="natural" v="hill" />
		<tag k="place" v="locality" />
		<tag k="ssr:stedsnr" v="410321" />
	</node>
	<node id="-475208" lat="60.3629111082" lon="5.14957500346">
		<tag k="fixme" v="consider natural=peak for the most distinct mountains in the district" />
		<tag k="name" v="Tonafjellet" />
		<tag k="natural" v="hill" />
		<tag k="place" v="locality" />
		<tag k="ssr:stedsnr" v="409982" />
	</node>
	<node id="-475197" lat="60.358313886" lon="5.04656388716">
		<tag k="name" v="Stølshaugen" />
		<tag k="natural" v="hill" />
		<tag k="place" v="locality" />
		<tag k="ssr:stedsnr" v="409743" />
	</node>
	<node id="-475191" lat="60.3086166678" lon="5.01699999835">
		<tag k="name" v="Lyngheiane" />
		<tag k="natural" v="hill" />
		<tag k="place" v="locality" />
		<tag k="ssr:stedsnr" v="409673" />
	</node>
	<node id="-475190" lat="60.4201388864" lon="4.9853416683">
		<tag k="name" v="Olsvikfjellet" />
		<tag k="natural" v="hill" />
		<tag k="place" v="locality" />
		<tag k="ssr:stedsnr" v="409640" />
	</node>
	<node id="-475189" lat="60.310847224" lon="5.04830832784">
		<tag k="name" v="Dalen" />
		<tag k="natural" v="valley" />
		<tag k="place" v="locality" />
		<tag k="ssr:stedsnr" v="409625" />
	</node>
	<node id="-475188" lat="60.3028194085" lon="5.0448588008">
		<tag k="name" v="Stegafjellet" />
		<tag k="natural" v="hill" />
		<tag k="place" v="locality" />
		<tag k="ssr:stedsnr" v="409616" />
	</node>
	<node id="-475185" lat="60.3559638863" lon="4.95319444173">
		<tag k="name" v="Jonsokhaugen" />
		<tag k="natural" v="hill" />
		<tag k="place" v="locality" />
		<tag k="ssr:stedsnr" v="409407" />
	</node>
	<node id="-475182" lat="60.415977774" lon="4.96639722528">
		<tag k="name" v="Fjellnuten" />
		<tag k="natural" v="hill" />
		<tag k="place" v="locality" />
		<tag k="ssr:stedsnr" v="409328" />
	</node>
	<node id="-475176" lat="60.3809750003" lon="4.98935000105">
		<tag k="name" v="Svehaugen" />
		<tag k="natural" v="hill" />
		<tag k="place" v="locality" />
		<tag k="ssr:stedsnr" v="409293" />
	</node>
	<node id="-475175" lat="60.3852055534" lon="4.99384445086">
		<tag k="name" v="Dalaskjenet" />
		<tag k="natural" v="hill" />
		<tag k="place" v="locality" />
		<tag k="ssr:stedsnr" v="409291" />
	</node>
	<node id="-475167" lat="60.3876611081" lon="5.13525277824">
		<tag k="name" v="Grytene" />
		<tag k="natural" v="hill" />
		<tag k="place" v="locality" />
		<tag k="ssr:stedsnr" v="409140" />
	</node>
</osm>
