<?xml version="1.0" encoding="UTF-8"?>
<osm generator="osmapis" version="0.6">
	<node id="-475135" lat="60.337956627" lon="5.13736945407">
		<tag k="fixme" v="consider place=hamlet" />
		<tag k="name" v="Ebbesvika" />
		<tag k="place" v="farm" />
		<tag k="ssr:stedsnr" v="369774" />
	</node>
	<node id="-475134" lat="60.3225472228" lon="5.18575554806">
		<tag k="name" v="Bjorøyhavn" />
		<tag k="place" v="hamlet" />
		<tag k="ssr:stedsnr" v="369760" />
	</node>
	<node id="-476245" lat="60.3899305558" lon="5.07066666657">
		<tag k="name" v="Geitung" />
		<tag k="place" v="isolated_dwelling" />
		<tag k="ssr:stedsnr" v="570855" />
	</node>
	<node id="-476858" lat="60.3250444472" lon="5.07555833475">
		<tag k="name" v="Garden" />
		<tag k="place" v="farm" />
		<tag k="ssr:stedsnr" v="874103" />
	</node>
	<node id="-476667" lat="60.3872472202" lon="4.98941110734">
		<tag k="name" v="Kårtveit" />
		<tag k="place" v="farm" />
		<tag k="ssr:stedsnr" v="774337" />
	</node>
	<node id="-476227" lat="60.3318861117" lon="5.12056943752">
		<tag k="name" v="Nordre Ekrhovda" />
		<tag k="place" v="farm" />
		<tag k="ssr:stedsnr" v="567514" />
	</node>
	<node id="-475123" lat="60.3972916632" lon="4.98328888108">
		<tag k="name" v="Pollen" />
		<tag k="place" v="farm" />
		<tag k="ssr:stedsnr" v="369305" />
	</node>
	<node id="-475121" lat="60.3187138208" lon="5.03675057648">
		<tag k="fixme" v="consider place=hamlet" />
		<tag k="name" v="Tveita" />
		<tag k="place" v="farm" />
		<tag k="ssr:stedsnr" v="369278" />
	</node>
	<node id="-476144" lat="60.3227416696" lon="5.17938888306">
		<tag k="name" v="Bjorøyna" />
		<tag k="place" v="village" />
		<tag k="ssr:stedsnr" v="531355" />
	</node>
	<node id="-476135" lat="60.3762916703" lon="5.1078527863">
		<tag k="name" v="Eidet" />
		<tag k="place" v="farm" />
		<tag k="ssr:stedsnr" v="531268" />
	</node>
	<node id="-476133" lat="60.3296166671" lon="5.12647222858">
		<tag k="name" v="Ekrhovda" />
		<tag k="place" v="farm" />
		<tag k="ssr:stedsnr" v="531255" />
	</node>
	<node id="-475643" lat="60.2895027754" lon="5.03567499227">
		<tag k="name" v="Kallestadvika" />
		<tag k="place" v="isolated_dwelling" />
		<tag k="ssr:stedsnr" v="126443" />
	</node>
	<node id="-476640" lat="60.4232916658" lon="5.00168610546">
		<tag k="fixme" v="consider place=hamlet" />
		<tag k="name" v="Vindenes" />
		<tag k="place" v="farm" />
		<tag k="ssr:stedsnr" v="773346" />
	</node>
	<node id="-475615" lat="60.272869446" lon="5.05989445215">
		<tag k="fixme" v="consider place=hamlet" />
		<tag k="name" v="Trengereid" />
		<tag k="place" v="farm" />
		<tag k="ssr:stedsnr" v="106870" />
	</node>
	<node id="-475152" lat="60.364683336" lon="5.15628888796">
		<tag k="name" v="Valen" />
		<tag k="place" v="isolated_dwelling" />
		<tag k="ssr:stedsnr" v="388081" />
	</node>
	<node id="-476226" lat="60.3300092761" lon="5.0772560068">
		<tag k="name" v="Fjell" />
		<tag k="place" v="farm" />
		<tag k="ssr:stedsnr" v="567498" />
	</node>
	<node id="-476233" lat="60.3197542086" lon="5.17962142865">
		<tag k="name" v="Nordre Bjorøyna" />
		<tag k="place" v="farm" />
		<tag k="ssr:stedsnr" v="567678" />
	</node>
	<node id="-475578" lat="60.3898249969" lon="4.99135833185">
		<tag k="fixme" v="consider place=hamlet" />
		<tag k="name" v="Kårtveit" />
		<tag k="place" v="farm" />
		<tag k="ssr:stedsnr" v="106445" />
	</node>
	<node id="-475602" lat="60.2965638854" lon="5.0427472261">
		<tag k="name" v="Ekren" />
		<tag k="place" v="farm" />
		<tag k="ssr:stedsnr" v="106718" />
	</node>
	<node id="-475084" lat="60.3162722247" lon="5.16226666271">
		<tag k="name" v="Nygård" />
		<tag k="place" v="farm" />
		<tag k="ssr:stedsnr" v="349386" />
	</node>
	<node id="-476617" lat="60.3085444461" lon="5.16748054714">
		<tag k="fixme" v="consider place=suburb, village or hamlet" />
		<tag k="name" v="Nibben" />
		<tag k="place" v="quarter" />
		<tag k="ssr:stedsnr" v="752168" />
	</node>
	<node id="-476614" lat="60.338245607" lon="4.99391881886">
		<tag k="fixme" v="consider place=hamlet" />
		<tag k="name" v="Skålvika" />
		<tag k="place" v="farm" />
		<tag k="ssr:stedsnr" v="749760" />
	</node>
	<node id="-476613" lat="60.3248694483" lon="5.00445832452">
		<tag k="name" v="Møvika" />
		<tag k="place" v="farm" />
		<tag k="ssr:stedsnr" v="749758" />
	</node>
	<node id="-475076" lat="60.3876555562" lon="5.1528916623">
		<tag k="name" v="Knappen" />
		<tag k="place" v="farm" />
		<tag k="ssr:stedsnr" v="349300" />
	</node>
	<node id="-475075" lat="60.372249996" lon="5.15712222199">
		<tag k="name" v="Norwegian Talc fabr." />
		<tag k="place" v="quarter" />
		<tag k="ssr:stedsnr" v="349297" />
	</node>
	<node id="-476610" lat="60.3524055883" lon="5.10236763447">
		<tag k="name" v="Bildøyna" />
		<tag k="place" v="farm" />
		<tag k="ssr:stedsnr" v="749715" />
	</node>
	<node id="-476609" lat="60.3077500015" lon="5.16796944569">
		<tag k="name" v="Søre Bjorøyna" />
		<tag k="place" v="farm" />
		<tag k="ssr:stedsnr" v="749711" />
	</node>
	<node id="-476608" lat="60.3102444427" lon="5.13065000406">
		<tag k="name" v="Li" />
		<tag k="place" v="farm" />
		<tag k="ssr:stedsnr" v="749662" />
	</node>
	<node id="-476607" lat="60.3533138861" lon="5.09452221378">
		<tag k="name" v="Kolltveit" />
		<tag k="place" v="farm" />
		<tag k="ssr:stedsnr" v="749277" />
	</node>
	<node id="-476606" lat="60.3033472198" lon="5.03097777886">
		<tag k="name" v="Nese" />
		<tag k="place" v="farm" />
		<tag k="ssr:stedsnr" v="749607" />
	</node>
	<node id="-476093" lat="60.4490138913" lon="4.91976110869">
		<tag k="name" v="Turøyna" />
		<tag k="place" v="farm" />
		<tag k="ssr:stedsnr" v="507751" />
	</node>
	<node id="-476092" lat="60.3917222198" lon="5.11731389545">
		<tag k="name" v="Anglavika" />
		<tag k="place" v="farm" />
		<tag k="ssr:stedsnr" v="507743" />
	</node>
	<node id="-476091" lat="60.3390805543" lon="5.14057221629">
		<tag k="name" v="Ebbesvika" />
		<tag k="place" v="farm" />
		<tag k="ssr:stedsnr" v="507729" />
	</node>
	<node id="-476090" lat="60.3391638881" lon="5.13854166028">
		<tag k="name" v="Ebbesvika" />
		<tag k="place" v="farm" />
		<tag k="ssr:stedsnr" v="507728" />
	</node>
	<node id="-476089" lat="60.3751666708" lon="4.9441388952">
		<tag k="name" v="Dyrøyna" />
		<tag k="place" v="farm" />
		<tag k="ssr:stedsnr" v="507714" />
	</node>
	<node id="-476088" lat="60.3082500009" lon="5.03589165928">
		<tag k="name" v="Bratten" />
		<tag k="place" v="farm" />
		<tag k="ssr:stedsnr" v="507658" />
	</node>
	<node id="-476087" lat="60.3261694483" lon="5.03171388731">
		<tag k="name" v="Ulveset" />
		<tag k="place" v="farm" />
		<tag k="ssr:stedsnr" v="507655" />
	</node>
	<node id="-476086" lat="60.3047916665" lon="5.02628333686">
		<tag k="name" v="Nese" />
		<tag k="place" v="farm" />
		<tag k="ssr:stedsnr" v="507598" />
	</node>
	<node id="-476085" lat="60.3037083345" lon="5.03009722165">
		<tag k="name" v="Nese" />
		<tag k="place" v="farm" />
		<tag k="ssr:stedsnr" v="507594" />
	</node>
	<node id="-476084" lat="60.4132305592" lon="4.97868888385">
		<tag k="name" v="Angeltveit" />
		<tag k="place" v="farm" />
		<tag k="ssr:stedsnr" v="507531" />
	</node>
	<node id="-476595" lat="60.3264111091" lon="5.0054166626">
		<tag k="fixme" v="consider place=hamlet" />
		<tag k="name" v="Møvik" />
		<tag k="place" v="village" />
		<tag k="ssr:stedsnr" v="734347" />
	</node>
	<node id="-476082" lat="60.3257138858" lon="5.13285555067">
		<tag k="name" v="Søre Ekrhovda" />
		<tag k="place" v="farm" />
		<tag k="ssr:stedsnr" v="507510" />
	</node>
	<node id="-476081" lat="60.320191669" lon="5.1337722174">
		<tag k="name" v="Søre Ekrhovda" />
		<tag k="place" v="farm" />
		<tag k="ssr:stedsnr" v="507509" />
	</node>
	<node id="-476079" lat="60.3096003363" lon="5.16755510797">
		<tag k="fixme" v="consider place=hamlet" />
		<tag k="name" v="Søre Bjorøyna" />
		<tag k="place" v="farm" />
		<tag k="ssr:stedsnr" v="491748" />
	</node>
	<node id="-476586" lat="60.382102775" lon="4.99113611411">
		<tag k="name" v="Eide" />
		<tag k="place" v="farm" />
		<tag k="ssr:stedsnr" v="733351" />
	</node>
	<node id="-476231" lat="60.3077027764" lon="5.1292944534">
		<tag k="name" v="Li" />
		<tag k="place" v="farm" />
		<tag k="ssr:stedsnr" v="567624" />
	</node>
	<node id="-476230" lat="60.3916027815" lon="5.12606111279">
		<tag k="name" v="Vågo" />
		<tag k="place" v="farm" />
		<tag k="ssr:stedsnr" v="567598" />
	</node>
	<node id="-476066" lat="60.3395653844" lon="5.0803009144">
		<tag k="alt_name" v="Fjell, nordre" />
		<tag k="fixme" v="consider place=hamlet" />
		<tag k="name" v="Nordre Fjell" />
		<tag k="place" v="farm" />
		<tag k="ssr:stedsnr" v="491256" />
	</node>
	<node id="-476063" lat="60.379058333" lon="5.05601666946">
		<tag k="name" v="Knappskog" />
		<tag k="place" v="village" />
		<tag k="ssr:stedsnr" v="490356" />
	</node>
	<node id="-475550" lat="60.3831499962" lon="5.15245555126">
		<tag k="name" v="Søre Knappen" />
		<tag k="place" v="farm" />
		<tag k="ssr:stedsnr" v="106256" />
	</node>
	<node id="-476229" lat="60.3738805536" lon="5.03005277386">
		<tag k="name" v="Fjæreide" />
		<tag k="place" v="farm" />
		<tag k="ssr:stedsnr" v="567578" />
	</node>
	<node id="-476057" lat="60.3889361142" lon="4.99329444545">
		<tag k="fixme" v="consider place=hamlet" />
		<tag k="name" v="Kårtveit" />
		<tag k="place" v="village" />
		<tag k="ssr:stedsnr" v="490303" />
	</node>
	<node id="-475544" lat="60.3559305598" lon="5.14966944417">
		<tag k="name" v="Nygård" />
		<tag k="place" v="farm" />
		<tag k="ssr:stedsnr" v="106013" />
	</node>
	<node id="-476567" lat="60.3482277819" lon="5.15485555409">
		<tag k="fixme" v="consider place=suburb, village or hamlet" />
		<tag k="name" v="Snekkevik" />
		<tag k="place" v="quarter" />
		<tag k="ssr:stedsnr" v="713978" />
	</node>
	<node id="-476054" lat="60.4519638875" lon="4.9650694442">
		<tag k="fixme" v="consider place=suburb, village or hamlet" />
		<tag k="name" v="Misje" />
		<tag k="place" v="quarter" />
		<tag k="ssr:stedsnr" v="490142" />
	</node>
	<node id="-476053" lat="60.2730611127" lon="5.06051110802">
		<tag k="fixme" v="consider place=hamlet" />
		<tag k="name" v="Trengereid" />
		<tag k="place" v="village" />
		<tag k="ssr:stedsnr" v="490466" />
	</node>
	<node id="-475539" lat="60.3763611127" lon="5.1029305623">
		<tag k="fixme" v="consider place=hamlet" />
		<tag k="name" v="Foldnes" />
		<tag k="place" v="village" />
		<tag k="ssr:stedsnr" v="86806" />
	</node>
	<node id="-476343" lat="60.3326305513" lon="5.12063888828">
		<tag k="name" v="Nordre Ekrhovda" />
		<tag k="place" v="farm" />
		<tag k="ssr:stedsnr" v="628506" />
	</node>
	<node id="-475537" lat="60.3452305591" lon="5.15681111727">
		<tag k="name" v="Snekkevika" />
		<tag k="place" v="farm" />
		<tag k="ssr:stedsnr" v="82711" />
	</node>
	<node id="-475536" lat="60.3698767516" lon="5.15403310469">
		<tag k="fixme" v="consider place=hamlet" />
		<tag k="name" v="Knarrvika" />
		<tag k="place" v="farm" />
		<tag k="ssr:stedsnr" v="82699" />
	</node>
	<node id="-475535" lat="60.3476444444" lon="5.11263889793">
		<tag k="name" v="Bildøyna" />
		<tag k="place" v="farm" />
		<tag k="ssr:stedsnr" v="82679" />
	</node>
	<node id="-475534" lat="60.3021472209" lon="5.02681944086">
		<tag k="name" v="Nese" />
		<tag k="place" v="farm" />
		<tag k="ssr:stedsnr" v="82578" />
	</node>
	<node id="-475533" lat="60.2878594469" lon="5.07092343655">
		<tag k="name" v="Dala" />
		<tag k="place" v="farm" />
		<tag k="ssr:stedsnr" v="82497" />
	</node>
	<node id="-475532" lat="60.3555833327" lon="5.08443610388">
		<tag k="name" v="Kolltveit" />
		<tag k="place" v="farm" />
		<tag k="ssr:stedsnr" v="81283" />
	</node>
	<node id="-475970" lat="60.374141668" lon="5.03487778401">
		<tag k="name" v="Austdal" />
		<tag k="place" v="farm" />
		<tag k="ssr:stedsnr" v="450807" />
	</node>
	<node id="-476042" lat="60.4089611134" lon="5.0036833332">
		<tag k="name" v="Ågotnes" />
		<tag k="place" v="quarter" />
		<tag k="ssr:stedsnr" v="470968" />
	</node>
	<node id="-475543" lat="60.4331722202" lon="4.96501945311">
		<tag k="name" v="Utfall" />
		<tag k="place" v="farm" />
		<tag k="ssr:stedsnr" v="86924" />
	</node>
	<node id="-475144" lat="60.359791669" lon="4.95286944808">
		<tag k="name" v="Algrøyna" />
		<tag k="place" v="farm" />
		<tag k="ssr:stedsnr" v="385728" />
	</node>
	<node id="-476034" lat="60.3815055544" lon="5.05731110276">
		<tag k="fixme" v="consider place=hamlet" />
		<tag k="name" v="Knappskog" />
		<tag k="place" v="farm" />
		<tag k="ssr:stedsnr" v="470916" />
	</node>
	<node id="-475883" lat="60.4236194405" lon="4.96662221405">
		<tag k="fixme" v="consider place=hamlet" />
		<tag k="name" v="Landro" />
		<tag k="place" v="village" />
		<tag k="ssr:stedsnr" v="248171" />
	</node>
	<node id="-475519" lat="60.3680666632" lon="5.06538333803">
		<tag k="name" v="Morlandsstøa" />
		<tag k="place" v="farm" />
		<tag k="ssr:stedsnr" v="66351" />
	</node>
	<node id="-475005" lat="60.3041750017" lon="5.02771944879">
		<tag k="name" v="Husa" />
		<tag k="place" v="farm" />
		<tag k="ssr:stedsnr" v="327071" />
	</node>
	<node id="-475004" lat="60.4503416658" lon="4.92194999853">
		<tag k="name" v="Turøyna" />
		<tag k="place" v="farm" />
		<tag k="ssr:stedsnr" v="325726" />
	</node>
	<node id="-475003" lat="60.4479999993" lon="4.91661667535">
		<tag k="name" v="Turøyna" />
		<tag k="place" v="farm" />
		<tag k="ssr:stedsnr" v="325724" />
	</node>
	<node id="-475002" lat="60.3274286559" lon="5.00387568912">
		<tag k="fixme" v="consider place=hamlet" />
		<tag k="name" v="Møvika" />
		<tag k="place" v="farm" />
		<tag k="ssr:stedsnr" v="325708" />
	</node>
	<node id="-475001" lat="60.3403944416" lon="5.15982222952">
		<tag k="name" v="Snekkevika" />
		<tag k="place" v="farm" />
		<tag k="ssr:stedsnr" v="325694" />
	</node>
	<node id="-475000" lat="60.3214527749" lon="4.96018889092">
		<tag k="name" v="Lokøyna" />
		<tag k="place" v="farm" />
		<tag k="ssr:stedsnr" v="325692" />
	</node>
	<node id="-474999" lat="60.3103790646" lon="4.93495344311">
		<tag k="fixme" v="consider place=hamlet" />
		<tag k="name" v="Hissøyna" />
		<tag k="place" v="farm" />
		<tag k="ssr:stedsnr" v="325686" />
	</node>
	<node id="-474998" lat="60.3220277798" lon="5.1770666723">
		<tag k="name" v="Nordre Bjorøyna" />
		<tag k="place" v="farm" />
		<tag k="ssr:stedsnr" v="325677" />
	</node>
	<node id="-474997" lat="60.328213891" lon="5.04339721623">
		<tag k="name" v="Ulveset" />
		<tag k="place" v="farm" />
		<tag k="ssr:stedsnr" v="325642" />
	</node>
	<node id="-474996" lat="60.3145444448" lon="5.01638610615">
		<tag k="name" v="Åse" />
		<tag k="place" v="farm" />
		<tag k="ssr:stedsnr" v="325592" />
	</node>
	<node id="-474995" lat="60.4111222225" lon="4.98202499479">
		<tag k="name" v="Angeltveit" />
		<tag k="place" v="farm" />
		<tag k="ssr:stedsnr" v="325538" />
	</node>
	<node id="-474994" lat="60.3321222178" lon="5.12378610865">
		<tag k="name" v="Nordre Ekrhovda" />
		<tag k="place" v="farm" />
		<tag k="ssr:stedsnr" v="325516" />
	</node>
	<node id="-474993" lat="60.2851555568" lon="5.0754249995">
		<tag k="name" v="Dala" />
		<tag k="place" v="farm" />
		<tag k="ssr:stedsnr" v="325489" />
	</node>
	<node id="-474992" lat="60.2874069362" lon="5.0705103548">
		<tag k="name" v="Dala" />
		<tag k="place" v="farm" />
		<tag k="ssr:stedsnr" v="325488" />
	</node>
	<node id="-476938" lat="60.3938888924" lon="5.12528889185">
		<tag k="name" v="Eidet" />
		<tag k="place" v="farm" />
		<tag k="ssr:stedsnr" v="955806" />
	</node>
	<node id="-475879" lat="60.3582305538" lon="5.08221666558">
		<tag k="name" v="Kolltveit" />
		<tag k="place" v="hamlet" />
		<tag k="ssr:stedsnr" v="238018" />
	</node>
	<node id="-475739" lat="60.2859500008" lon="5.09069999235">
		<tag k="fixme" v="consider place=hamlet" />
		<tag k="name" v="Tellnes" />
		<tag k="place" v="farm" />
		<tag k="ssr:stedsnr" v="167887" />
	</node>
	<node id="-475487" lat="60.3666777776" lon="5.15491388205">
		<tag k="name" v="Botnen" />
		<tag k="place" v="farm" />
		<tag k="ssr:stedsnr" v="45999" />
	</node>
	<node id="-475998" lat="60.4369198941" lon="4.96787794701">
		<tag k="fixme" v="consider place=hamlet" />
		<tag k="name" v="Solsvik" />
		<tag k="place" v="farm" />
		<tag k="ssr:stedsnr" v="470323" />
	</node>
	<node id="-475574" lat="60.3474138932" lon="4.97748055173">
		<tag k="name" v="Ankaplasset" />
		<tag k="place" v="farm" />
		<tag k="ssr:stedsnr" v="106415" />
	</node>
	<node id="-475962" lat="60.3220277766" lon="4.96469444146">
		<tag k="name" v="Lokøyna" />
		<tag k="place" v="farm" />
		<tag k="ssr:stedsnr" v="446722" />
	</node>
	<node id="-474969" lat="60.4360833346" lon="4.96642222963">
		<tag k="alt_name" v="Solsvik" />
		<tag k="fixme" v="consider place=suburb, village or hamlet" />
		<tag k="name" v="Sollsvika" />
		<tag k="place" v="quarter" />
		<tag k="ssr:stedsnr" v="309180" />
	</node>
	<node id="-474966" lat="60.3613138884" lon="5.12198888169">
		<tag k="name" v="Straume" />
		<tag k="place" v="village" />
		<tag k="ssr:stedsnr" v="308718" />
	</node>
	<node id="-475961" lat="60.3533444419" lon="5.10754722944">
		<tag k="name" v="Bildøyna" />
		<tag k="place" v="farm" />
		<tag k="ssr:stedsnr" v="446708" />
	</node>
	<node id="-474963" lat="60.2964738163" lon="5.04035574937">
		<tag k="fixme" v="consider place=hamlet" />
		<tag k="name" v="Ekra" />
		<tag k="place" v="farm" />
		<tag k="ssr:stedsnr" v="308408" />
	</node>
	<node id="-475981" lat="60.3594638915" lon="4.95263889129">
		<tag k="name" v="Algrøyna" />
		<tag k="place" v="village" />
		<tag k="ssr:stedsnr" v="469444" />
	</node>
	<node id="-476486" lat="60.3406055586" lon="5.13909999617">
		<tag k="name" v="Ebbesvika" />
		<tag k="place" v="farm" />
		<tag k="ssr:stedsnr" v="689684" />
	</node>
	<node id="-476485" lat="60.3480333318" lon="5.15329167256">
		<tag k="name" v="Snekkevika" />
		<tag k="place" v="farm" />
		<tag k="ssr:stedsnr" v="689676" />
	</node>
	<node id="-476484" lat="60.3228083297" lon="4.96349166057">
		<tag k="name" v="Lokøyna" />
		<tag k="place" v="farm" />
		<tag k="ssr:stedsnr" v="689669" />
	</node>
	<node id="-476483" lat="60.3076888915" lon="4.98387777905">
		<tag k="name" v="Syltøyna" />
		<tag k="place" v="farm" />
		<tag k="ssr:stedsnr" v="689665" />
	</node>
	<node id="-476482" lat="60.3514333311" lon="5.10385278334">
		<tag k="name" v="Bildøyna" />
		<tag k="place" v="farm" />
		<tag k="ssr:stedsnr" v="689647" />
	</node>
	<node id="-476481" lat="60.3091777797" lon="5.16795000244">
		<tag k="name" v="Søre Bjorøyna" />
		<tag k="place" v="farm" />
		<tag k="ssr:stedsnr" v="689644" />
	</node>
	<node id="-476480" lat="60.3741861097" lon="5.0322916631">
		<tag k="name" v="Fjæreide" />
		<tag k="place" v="farm" />
		<tag k="ssr:stedsnr" v="689563" />
	</node>
	<node id="-476479" lat="60.4097527771" lon="4.98250556427">
		<tag k="name" v="Angeltveit" />
		<tag k="place" v="farm" />
		<tag k="ssr:stedsnr" v="689502" />
	</node>
	<node id="-476478" lat="60.3340361074" lon="5.12273611902">
		<tag k="name" v="Nordre Ekrhovda" />
		<tag k="place" v="farm" />
		<tag k="ssr:stedsnr" v="689489" />
	</node>
	<node id="-476477" lat="60.323950002" lon="5.13328610249">
		<tag k="name" v="Søre Ekrhovda" />
		<tag k="place" v="farm" />
		<tag k="ssr:stedsnr" v="689483" />
	</node>
	<node id="-475451" lat="60.3303888891" lon="5.0763472138">
		<tag k="name" v="Fjell" />
		<tag k="place" v="village" />
		<tag k="ssr:stedsnr" v="45557" />
	</node>
	<node id="-476474" lat="60.3269481672" lon="5.12932306787">
		<tag k="fixme" v="consider place=hamlet" />
		<tag k="name" v="Søre Ekrhovda" />
		<tag k="place" v="farm" />
		<tag k="ssr:stedsnr" v="673774" />
	</node>
	<node id="-476473" lat="60.3370665605" lon="5.12024626101">
		<tag k="fixme" v="consider place=hamlet" />
		<tag k="name" v="Nordre Ekrhovda" />
		<tag k="place" v="farm" />
		<tag k="ssr:stedsnr" v="673772" />
	</node>
	<node id="-475960" lat="60.3268416631" lon="5.1733166637">
		<tag k="name" v="Nordre Bjorøyna" />
		<tag k="place" v="farm" />
		<tag k="ssr:stedsnr" v="446709" />
	</node>
	<node id="-475959" lat="60.3734749997" lon="5.02868889502">
		<tag k="name" v="Fjæreide" />
		<tag k="place" v="farm" />
		<tag k="ssr:stedsnr" v="446597" />
	</node>
	<node id="-475958" lat="60.3087271474" lon="4.98472925413">
		<tag k="fixme" v="consider place=hamlet" />
		<tag k="name" v="Syltøyna" />
		<tag k="place" v="farm" />
		<tag k="ssr:stedsnr" v="446540" />
	</node>
	<node id="-475957" lat="60.3560027809" lon="5.0890277808">
		<tag k="name" v="Kolltveit" />
		<tag k="place" v="farm" />
		<tag k="ssr:stedsnr" v="445259" />
	</node>
	<node id="-476463" lat="60.3303985096" lon="5.07694573669">
		<tag k="name" v="Fjell" />
		<tag k="place" v="farm" />
		<tag k="ssr:stedsnr" v="673280" />
	</node>
	<node id="-476462" lat="60.4116033935" lon="4.98639226301">
		<tag k="fixme" v="consider place=hamlet" />
		<tag k="name" v="Angeltveit" />
		<tag k="place" v="farm" />
		<tag k="ssr:stedsnr" v="673202" />
	</node>
	<node id="-476968" lat="60.3569000018" lon="4.98478610232">
		<tag k="fixme" v="consider place=hamlet" />
		<tag k="name" v="Sekkingstad" />
		<tag k="place" v="farm" />
		<tag k="ssr:stedsnr" v="956460" />
	</node>
	<node id="-475146" lat="60.3709444488" lon="5.02849722775">
		<tag k="name" v="Fjæreide" />
		<tag k="place" v="farm" />
		<tag k="ssr:stedsnr" v="385608" />
	</node>
	<node id="-475782" lat="60.3105805535" lon="5.16443889489">
		<tag k="name" v="Søre Bjorøyna" />
		<tag k="place" v="farm" />
		<tag k="ssr:stedsnr" v="204655" />
	</node>
	<node id="-474912" lat="60.3452472243" lon="5.12537222757">
		<tag k="name" v="Nordre Knappen" />
		<tag k="place" v="farm" />
		<tag k="ssr:stedsnr" v="288758" />
	</node>
	<node id="-476953" lat="60.3891845097" lon="5.04100539603">
		<tag k="fixme" v="consider place=hamlet" />
		<tag k="name" v="Spjeld" />
		<tag k="place" v="farm" />
		<tag k="ssr:stedsnr" v="956291" />
	</node>
	<node id="-475928" lat="60.3745333335" lon="5.10390833435">
		<tag k="name" v="Gangstø" />
		<tag k="place" v="farm" />
		<tag k="ssr:stedsnr" v="430647" />
	</node>
	<node id="-475267" lat="60.4509731125" lon="4.96333921748">
		<tag k="fixme" v="consider place=hamlet" />
		<tag k="name" v="Misje" />
		<tag k="place" v="farm" />
		<tag k="ssr:stedsnr" v="895331" />
	</node>
	<node id="-476432" lat="60.3956470472" lon="5.06928444787">
		<tag k="fixme" v="consider place=hamlet" />
		<tag k="name" v="Geitanger" />
		<tag k="place" v="farm" />
		<tag k="ssr:stedsnr" v="652896" />
	</node>
	<node id="-475919" lat="60.3097829565" lon="4.93643153112">
		<tag k="name" v="Hissøyna" />
		<tag k="place" v="farm" />
		<tag k="ssr:stedsnr" v="264704" />
	</node>
	<node id="-475918" lat="60.3588972198" lon="4.95317221749">
		<tag k="name" v="Algrøyna" />
		<tag k="place" v="farm" />
		<tag k="ssr:stedsnr" v="264692" />
	</node>
	<node id="-475917" lat="60.3552444478" lon="4.95110278421">
		<tag k="name" v="Algrøyna" />
		<tag k="place" v="farm" />
		<tag k="ssr:stedsnr" v="264691" />
	</node>
	<node id="-475404" lat="60.3193388907" lon="5.17893054719">
		<tag k="name" v="Nordre Bjorøyna" />
		<tag k="place" v="farm" />
		<tag k="ssr:stedsnr" v="21710" />
	</node>
	<node id="-475915" lat="60.3262138886" lon="5.04001944522">
		<tag k="name" v="Ulveset" />
		<tag k="place" v="farm" />
		<tag k="ssr:stedsnr" v="264625" />
	</node>
	<node id="-475402" lat="60.3588055589" lon="5.07959445067">
		<tag k="name" v="Kolltveit" />
		<tag k="place" v="farm" />
		<tag k="ssr:stedsnr" v="21286" />
	</node>
	<node id="-476425" lat="60.2790111122" lon="5.03309444483">
		<tag k="fixme" v="consider place=hamlet" />
		<tag k="name" v="Kallestad" />
		<tag k="place" v="farm" />
		<tag k="ssr:stedsnr" v="652848" />
	</node>
	<node id="-475399" lat="60.2825481053" lon="5.11185564102">
		<tag k="fixme" v="consider place=hamlet" />
		<tag k="name" v="Haganes" />
		<tag k="place" v="farm" />
		<tag k="ssr:stedsnr" v="5792" />
	</node>
	<node id="-475910" lat="60.319624999" lon="5.18020278384">
		<tag k="name" v="Gjerdet" />
		<tag k="place" v="farm" />
		<tag k="ssr:stedsnr" v="248790" />
	</node>
	<node id="-474885" lat="60.3667416629" lon="5.06872221652">
		<tag k="name" v="Morlandstø" />
		<tag k="place" v="farm" />
		<tag k="ssr:stedsnr" v="288489" />
	</node>
	<node id="-475905" lat="60.3590666404" lon="5.14232869911">
		<tag k="fixme" v="consider place=hamlet" />
		<tag k="name" v="Arefjord" />
		<tag k="place" v="farm" />
		<tag k="ssr:stedsnr" v="248739" />
	</node>
	<node id="-475145" lat="60.3952361096" lon="5.11521944832">
		<tag k="name" v="Anglavika" />
		<tag k="place" v="farm" />
		<tag k="ssr:stedsnr" v="385735" />
	</node>
	<node id="-475902" lat="60.3893724635" lon="5.12544434608">
		<tag k="fixme" v="consider place=hamlet" />
		<tag k="name" v="Vågo" />
		<tag k="place" v="farm" />
		<tag k="ssr:stedsnr" v="248670" />
	</node>
	<node id="-476925" lat="60.3200888928" lon="5.01418055682">
		<tag k="name" v="Skoge" />
		<tag k="place" v="farm" />
		<tag k="ssr:stedsnr" v="955640" />
	</node>
	<node id="-476924" lat="60.3231638848" lon="5.03610276928">
		<tag k="name" v="Teigen" />
		<tag k="place" v="farm" />
		<tag k="ssr:stedsnr" v="955639" />
	</node>
	<node id="-475895" lat="60.2891344481" lon="5.05520637384">
		<tag k="alt_name" v="Dalseide" />
		<tag k="fixme" v="consider place=hamlet" />
		<tag k="name" v="Dalseidet" />
		<tag k="place" v="farm" />
		<tag k="ssr:stedsnr" v="248437" />
	</node>
	<node id="-476909" lat="60.3064638847" lon="5.04063056231">
		<tag k="name" v="Nordvika" />
		<tag k="place" v="farm" />
		<tag k="ssr:stedsnr" v="932692" />
	</node>
	<node id="-476908" lat="60.3566305553" lon="4.9494249917">
		<tag k="name" v="Algrøyna" />
		<tag k="place" v="farm" />
		<tag k="ssr:stedsnr" v="932668" />
	</node>
	<node id="-476907" lat="60.3267027757" lon="5.04165000791">
		<tag k="name" v="Ulveset" />
		<tag k="place" v="farm" />
		<tag k="ssr:stedsnr" v="932613" />
	</node>
	<node id="-476906" lat="60.3092444437" lon="5.13176388229">
		<tag k="name" v="Li" />
		<tag k="place" v="farm" />
		<tag k="ssr:stedsnr" v="932608" />
	</node>
	<node id="-476905" lat="60.3106277779" lon="5.13435000786">
		<tag k="name" v="Li" />
		<tag k="place" v="farm" />
		<tag k="ssr:stedsnr" v="932607" />
	</node>
	<node id="-476904" lat="60.3156722212" lon="5.01484999106">
		<tag k="name" v="Åse" />
		<tag k="place" v="farm" />
		<tag k="ssr:stedsnr" v="932554" />
	</node>
	<node id="-474855" lat="60.3547388915" lon="5.05854999504">
		<tag k="name" v="Morland" />
		<tag k="place" v="farm" />
		<tag k="ssr:stedsnr" v="288259" />
	</node>
	<node id="-476386" lat="60.422544442" lon="4.96564722891">
		<tag k="fixme" v="consider place=hamlet" />
		<tag k="name" v="Landro" />
		<tag k="place" v="farm" />
		<tag k="ssr:stedsnr" v="652290" />
	</node>
	<node id="-475147" lat="60.3899138919" lon="5.12425833223">
		<tag k="name" v="Vågo" />
		<tag k="place" v="farm" />
		<tag k="ssr:stedsnr" v="385628" />
	</node>
	<node id="-475351" lat="60.3479609136" lon="5.15872059783">
		<tag k="fixme" v="consider place=hamlet" />
		<tag k="name" v="Brattholmen" />
		<tag k="place" v="farm" />
		<tag k="ssr:stedsnr" v="989789" />
	</node>
	<node id="-475350" lat="60.3803840388" lon="4.98433611004">
		<tag k="fixme" v="consider place=hamlet" />
		<tag k="name" v="Nordre Eide" />
		<tag k="place" v="farm" />
		<tag k="ssr:stedsnr" v="989775" />
	</node>
	<node id="-475349" lat="60.3195499779" lon="5.01484904488">
		<tag k="fixme" v="consider place=hamlet" />
		<tag k="name" v="Nordre Skoge" />
		<tag k="place" v="farm" />
		<tag k="ssr:stedsnr" v="989759" />
	</node>
	<node id="-475854" lat="60.4498638928" lon="4.9215166727">
		<tag k="name" v="Turøyna" />
		<tag k="place" v="farm" />
		<tag k="ssr:stedsnr" v="228283" />
	</node>
	<node id="-476878" lat="60.3042852333" lon="5.02862801934">
		<tag k="fixme" v="consider place=hamlet" />
		<tag k="name" v="Nese" />
		<tag k="place" v="farm" />
		<tag k="ssr:stedsnr" v="915435" />
	</node>
	<node id="-475143" lat="60.3691166679" lon="4.94293054838">
		<tag k="name" v="Dyrøyna" />
		<tag k="place" v="farm" />
		<tag k="ssr:stedsnr" v="385726" />
	</node>
	<node id="-475851" lat="60.3761535462" lon="5.10372039389">
		<tag k="fixme" v="consider place=hamlet" />
		<tag k="name" v="Foldnes" />
		<tag k="place" v="farm" />
		<tag k="ssr:stedsnr" v="227934" />
	</node>
	<node id="-475511" lat="60.3499703911" lon="5.05743545899">
		<tag k="fixme" v="consider place=hamlet" />
		<tag k="name" v="Morland" />
		<tag k="place" v="farm" />
		<tag k="ssr:stedsnr" v="66276" />
	</node>
	<node id="-475149" lat="60.3111833345" lon="5.12776666372">
		<tag k="name" v="Li" />
		<tag k="place" v="farm" />
		<tag k="ssr:stedsnr" v="385656" />
	</node>
	<node id="-476869" lat="60.3905722222" lon="5.0396361103">
		<tag k="fixme" v="consider place=hamlet" />
		<tag k="name" v="Spjeld" />
		<tag k="place" v="village" />
		<tag k="ssr:stedsnr" v="915301" />
	</node>
	<node id="-476353" lat="60.388802778" lon="5.05234722743">
		<tag k="name" v="Ormavik" />
		<tag k="place" v="farm" />
		<tag k="ssr:stedsnr" v="631892" />
	</node>
	<node id="-475840" lat="60.3338934955" lon="5.14399227785">
		<tag k="fixme" v="consider place=hamlet" />
		<tag k="name" v="Gavlen" />
		<tag k="place" v="farm" />
		<tag k="ssr:stedsnr" v="227782" />
	</node>
	<node id="-476351" lat="60.4498222212" lon="4.91867778427">
		<tag k="name" v="Turøyna" />
		<tag k="place" v="farm" />
		<tag k="ssr:stedsnr" v="628722" />
	</node>
	<node id="-476350" lat="60.4496250026" lon="4.92411943566">
		<tag k="name" v="Turøyna" />
		<tag k="place" v="farm" />
		<tag k="ssr:stedsnr" v="628721" />
	</node>
	<node id="-476349" lat="60.4490111112" lon="4.92255833436">
		<tag k="name" v="Turøyna" />
		<tag k="place" v="farm" />
		<tag k="ssr:stedsnr" v="628718" />
	</node>
	<node id="-476348" lat="60.3464487965" lon="4.97438506076">
		<tag k="name" v="Langøyna" />
		<tag k="place" v="farm" />
		<tag k="ssr:stedsnr" v="628697" />
	</node>
	<node id="-476347" lat="60.3094000029" lon="4.93788610267">
		<tag k="name" v="Hissøyna" />
		<tag k="place" v="farm" />
		<tag k="ssr:stedsnr" v="628690" />
	</node>
	<node id="-476346" lat="60.3739833492" lon="5.03057366337">
		<tag k="name" v="Fjæreide" />
		<tag k="place" v="farm" />
		<tag k="ssr:stedsnr" v="628591" />
	</node>
	<node id="-476345" lat="60.3148138932" lon="5.01315833482">
		<tag k="name" v="Åse" />
		<tag k="place" v="farm" />
		<tag k="ssr:stedsnr" v="628583" />
	</node>
	<node id="-476856" lat="60.3037361122" lon="5.0319388953">
		<tag k="fixme" v="consider place=hamlet" />
		<tag k="name" v="Nessjøen" />
		<tag k="place" v="village" />
		<tag k="ssr:stedsnr" v="874087" />
	</node>
	<node id="-476855" lat="60.3074743817" lon="5.03519778501">
		<tag k="fixme" v="consider place=hamlet" />
		<tag k="name" v="Brattenborg" />
		<tag k="place" v="farm" />
		<tag k="ssr:stedsnr" v="874084" />
	</node>
	<node id="-476853" lat="60.3920749957" lon="5.11396667039">
		<tag k="name" v="Anglavika" />
		<tag k="place" v="farm" />
		<tag k="ssr:stedsnr" v="871707" />
	</node>
	<node id="-476852" lat="60.3404111092" lon="4.9970777831">
		<tag k="name" v="Skålvika" />
		<tag k="place" v="farm" />
		<tag k="ssr:stedsnr" v="871705" />
	</node>
	<node id="-476851" lat="60.3083416658" lon="5.04104445321">
		<tag k="name" v="Nordvika" />
		<tag k="place" v="farm" />
		<tag k="ssr:stedsnr" v="871699" />
	</node>
	<node id="-476850" lat="60.3100305597" lon="5.03889165711">
		<tag k="name" v="Nordvika" />
		<tag k="place" v="farm" />
		<tag k="ssr:stedsnr" v="871700" />
	</node>
	<node id="-476849" lat="60.3206945255" lon="4.96339884142">
		<tag k="fixme" v="consider place=hamlet" />
		<tag k="name" v="Lokøyna" />
		<tag k="place" v="farm" />
		<tag k="ssr:stedsnr" v="871684" />
	</node>
	<node id="-476848" lat="60.3081249997" lon="4.98574444296">
		<tag k="name" v="Syltøyna" />
		<tag k="place" v="farm" />
		<tag k="ssr:stedsnr" v="871680" />
	</node>
	<node id="-476847" lat="60.3567861066" lon="4.9509972138">
		<tag k="name" v="Algrøyna" />
		<tag k="place" v="farm" />
		<tag k="ssr:stedsnr" v="871676" />
	</node>
	<node id="-476846" lat="60.3563693769" lon="4.95753257027">
		<tag k="fixme" v="consider place=hamlet" />
		<tag k="name" v="Algrøyna" />
		<tag k="place" v="farm" />
		<tag k="ssr:stedsnr" v="871672" />
	</node>
	<node id="-476845" lat="60.3433416667" lon="5.13902223024">
		<tag k="name" v="Ebbesvika" />
		<tag k="place" v="farm" />
		<tag k="ssr:stedsnr" v="871624" />
	</node>
	<node id="-476844" lat="60.3299916646" lon="5.04670832948">
		<tag k="name" v="Ulveset" />
		<tag k="place" v="farm" />
		<tag k="ssr:stedsnr" v="871620" />
	</node>
	<node id="-476843" lat="60.3036000006" lon="5.02784166639">
		<tag k="name" v="Nese" />
		<tag k="place" v="farm" />
		<tag k="ssr:stedsnr" v="871563" />
	</node>
	<node id="-476842" lat="60.3156138903" lon="5.01660555929">
		<tag k="name" v="Åse" />
		<tag k="place" v="farm" />
		<tag k="ssr:stedsnr" v="871558" />
	</node>
	<node id="-476841" lat="60.4119138913" lon="4.98140000212">
		<tag k="name" v="Angeltveit" />
		<tag k="place" v="farm" />
		<tag k="ssr:stedsnr" v="871520" />
	</node>
	<node id="-476838" lat="60.3500888924" lon="5.15955278631">
		<tag k="fixme" v="consider place=suburb, village or hamlet" />
		<tag k="name" v="Brattholmen" />
		<tag k="place" v="quarter" />
		<tag k="ssr:stedsnr" v="855736" />
	</node>
	<node id="-475141" lat="60.3211416627" lon="5.13488611306">
		<tag k="name" v="Søre Ekrhovda" />
		<tag k="place" v="farm" />
		<tag k="ssr:stedsnr" v="385521" />
	</node>
	<node id="-476836" lat="60.3941972896" lon="5.11365128351">
		<tag k="fixme" v="consider place=hamlet" />
		<tag k="name" v="Anglavika" />
		<tag k="place" v="farm" />
		<tag k="ssr:stedsnr" v="855679" />
	</node>
	<node id="-475078" lat="60.3672666661" lon="5.06052778277">
		<tag k="name" v="Morlandstø" />
		<tag k="place" v="farm" />
		<tag k="ssr:stedsnr" v="349308" />
	</node>
	<node id="-476834" lat="60.2798416651" lon="5.03177500174">
		<tag k="name" v="Kallestad" />
		<tag k="place" v="hamlet" />
		<tag k="ssr:stedsnr" v="855433" />
	</node>
	<node id="-475148" lat="60.3896083339" lon="5.12446666781">
		<tag k="name" v="Vågo" />
		<tag k="place" v="farm" />
		<tag k="ssr:stedsnr" v="385631" />
	</node>
	<node id="-476831" lat="60.35473889" lon="4.9853611186">
		<tag k="name" v="Sekkingstad" />
		<tag k="place" v="hamlet" />
		<tag k="ssr:stedsnr" v="855341" />
	</node>
	<node id="-476829" lat="60.3498166678" lon="4.97231944602">
		<tag k="alt_name" v="Lillebø" />
		<tag k="name" v="Litlebø" />
		<tag k="place" v="farm" />
		<tag k="ssr:stedsnr" v="855327" />
	</node>
	<node id="-475233" lat="60.3351777745" lon="5.07724722985">
		<tag k="name" v="Nybø" />
		<tag k="place" v="farm" />
		<tag k="ssr:stedsnr" v="410603" />
	</node>
	<node id="-476826" lat="60.3247149186" lon="5.04080237947">
		<tag k="fixme" v="consider place=hamlet" />
		<tag k="name" v="Ulveset" />
		<tag k="place" v="farm" />
		<tag k="ssr:stedsnr" v="855306" />
	</node>
	<node id="-476612" lat="60.3125944451" lon="5.04080277385">
		<tag k="name" v="Nordvika" />
		<tag k="place" v="farm" />
		<tag k="ssr:stedsnr" v="749757" />
	</node>
	<node id="-474892" lat="60.3429777787" lon="5.08390833061">
		<tag k="name" v="Blommen" />
		<tag k="place" v="farm" />
		<tag k="ssr:stedsnr" v="288556" />
	</node>
	<node id="-475151" lat="60.4447559735" lon="4.92528705418">
		<tag k="fixme" v="consider place=hamlet" />
		<tag k="name" v="Turøyna" />
		<tag k="place" v="farm" />
		<tag k="ssr:stedsnr" v="385754" />
	</node>
	<node id="-476611" lat="60.3462588588" lon="4.97331549561">
		<tag k="name" v="Langøyna" />
		<tag k="place" v="farm" />
		<tag k="ssr:stedsnr" v="749744" />
	</node>
	<node id="-476232" lat="60.3705416665" lon="4.94931666417">
		<tag k="name" v="Dyrøyna" />
		<tag k="place" v="farm" />
		<tag k="ssr:stedsnr" v="567676" />
	</node>
	<node id="-475788" lat="60.299537294" lon="5.13197842852">
		<tag k="fixme" v="consider place=hamlet" />
		<tag k="name" v="Liaskjeret" />
		<tag k="place" v="farm" />
		<tag k="ssr:stedsnr" v="206126" />
	</node>
	<node id="-475209" lat="60.3597166686" lon="5.14250277774">
		<tag k="fixme" v="consider place=suburb, village or hamlet" />
		<tag k="name" v="Arefjord" />
		<tag k="place" v="quarter" />
		<tag k="ssr:stedsnr" v="409984" />
	</node>
	<node id="-475786" lat="60.3444166688" lon="4.99966389144">
		<tag k="name" v="Skålvika" />
		<tag k="place" v="farm" />
		<tag k="ssr:stedsnr" v="204694" />
	</node>
	<node id="-475785" lat="60.3437583339" lon="5.15824444727">
		<tag k="name" v="Snekkevika" />
		<tag k="place" v="farm" />
		<tag k="ssr:stedsnr" v="204683" />
	</node>
	<node id="-475784" lat="60.3573166694" lon="4.94998332893">
		<tag k="name" v="Algrøyna" />
		<tag k="place" v="farm" />
		<tag k="ssr:stedsnr" v="204670" />
	</node>
	<node id="-475783" lat="60.3240944435" lon="5.17576388323">
		<tag k="name" v="Nordre Bjorøyna" />
		<tag k="place" v="farm" />
		<tag k="ssr:stedsnr" v="204661" />
	</node>
	<node id="-476294" lat="60.307699999" lon="5.03380832899">
		<tag k="name" v="Brattenborg" />
		<tag k="place" v="farm" />
		<tag k="ssr:stedsnr" v="591663" />
	</node>
	<node id="-475781" lat="60.3022388932" lon="5.0292944529">
		<tag k="name" v="Nese" />
		<tag k="place" v="farm" />
		<tag k="ssr:stedsnr" v="204569" />
	</node>
	<node id="-475780" lat="60.3015305522" lon="5.02832221587">
		<tag k="name" v="Nese" />
		<tag k="place" v="farm" />
		<tag k="ssr:stedsnr" v="204563" />
	</node>
	<node id="-475779" lat="60.3132861089" lon="5.01863333465">
		<tag k="name" v="Åse" />
		<tag k="place" v="farm" />
		<tag k="ssr:stedsnr" v="204558" />
	</node>
	<node id="-475778" lat="60.331298895" lon="5.07695788183">
		<tag k="name" v="Fjell" />
		<tag k="place" v="farm" />
		<tag k="ssr:stedsnr" v="204454" />
	</node>
	<node id="-475777" lat="60.2855472246" lon="5.07611666775">
		<tag k="name" v="Dala" />
		<tag k="place" v="farm" />
		<tag k="ssr:stedsnr" v="204436" />
	</node>
	<node id="-475776" lat="60.358319445" lon="5.07689166826">
		<tag k="name" v="Kolltveit" />
		<tag k="place" v="farm" />
		<tag k="ssr:stedsnr" v="203288" />
	</node>
	<node id="-475775" lat="60.3580381957" lon="5.08227579808">
		<tag k="name" v="Kolltveit" />
		<tag k="place" v="farm" />
		<tag k="ssr:stedsnr" v="203287" />
	</node>
	<node id="-475770" lat="60.3525526368" lon="5.10269365214">
		<tag k="fixme" v="consider place=hamlet" />
		<tag k="name" v="Bildøyna" />
		<tag k="place" v="farm" />
		<tag k="ssr:stedsnr" v="187715" />
	</node>
	<node id="-475252" lat="60.2797000048" lon="5.11496111948">
		<tag k="name" v="Haganes" />
		<tag k="place" v="farm" />
		<tag k="ssr:stedsnr" v="895121" />
	</node>
	<node id="-475761" lat="60.2870805568" lon="5.08941665766">
		<tag k="alt_name" v="Tellnessjøen" />
		<tag k="fixme" v="consider place=hamlet" />
		<tag k="name" v="Tellnes" />
		<tag k="place" v="village" />
		<tag k="ssr:stedsnr" v="187419" />
	</node>
	<node id="-475758" lat="60.31337537" lon="5.01386538294">
		<tag k="fixme" v="consider place=hamlet" />
		<tag k="name" v="Åse" />
		<tag k="place" v="farm" />
		<tag k="ssr:stedsnr" v="187286" />
	</node>
	<node id="-475757" lat="60.320291671" lon="5.01219444766">
		<tag k="name" v="Skoge" />
		<tag k="place" v="farm" />
		<tag k="ssr:stedsnr" v="187285" />
	</node>
	<node id="-476264" lat="60.382386112" lon="4.98758332662">
		<tag k="name" v="Eide" />
		<tag k="place" v="farm" />
		<tag k="ssr:stedsnr" v="591249" />
	</node>
	<node id="-475751" lat="60.3419666664" lon="4.99681943868">
		<tag k="name" v="Skålvik" />
		<tag k="place" v="hamlet" />
		<tag k="ssr:stedsnr" v="187252" />
	</node>
	<node id="-475635" lat="60.3074682483" lon="5.03762845159">
		<tag k="fixme" v="consider place=hamlet" />
		<tag k="name" v="Nordvika" />
		<tag k="place" v="farm" />
		<tag k="ssr:stedsnr" v="126265" />
	</node>
	<node id="-476259" lat="60.3263833338" lon="5.12803888855">
		<tag k="name" v="Ekrhovda" />
		<tag k="place" v="farm" />
		<tag k="ssr:stedsnr" v="591221" />
	</node>
	<node id="-476769" lat="60.3298638885" lon="5.12623610332">
		<tag k="name" v="Nordre Ekrhovda" />
		<tag k="place" v="farm" />
		<tag k="ssr:stedsnr" v="834783" />
	</node>
	<node id="-475920" lat="60.3433194436" lon="5.13567221456">
		<tag k="name" v="Ebbesvika" />
		<tag k="place" v="farm" />
		<tag k="ssr:stedsnr" v="264715" />
	</node>
	<node id="-476252" lat="60.3878333375" lon="5.15268333928">
		<tag k="name" v="Nordre Knappen" />
		<tag k="place" v="farm" />
		<tag k="ssr:stedsnr" v="591031" />
	</node>
	<node id="-476602" lat="60.3345333365" lon="5.14678056099">
		<tag k="name" v="Gavlen" />
		<tag k="place" v="farm" />
		<tag k="ssr:stedsnr" v="734795" />
	</node>
	<node id="-475787" lat="60.4525111117" lon="4.92061945034">
		<tag k="name" v="Turøyna" />
		<tag k="place" v="farm" />
		<tag k="ssr:stedsnr" v="204702" />
	</node>
	<node id="-476857" lat="60.3259972231" lon="5.07707499119">
		<tag k="name" v="Haugen" />
		<tag k="place" v="farm" />
		<tag k="ssr:stedsnr" v="874104" />
	</node>
	<node id="-475150" lat="60.308133331" lon="5.03833611182">
		<tag k="name" v="Nordvika" />
		<tag k="place" v="farm" />
		<tag k="ssr:stedsnr" v="385749" />
	</node>
	<node id="-475403" lat="60.3176722233" lon="5.01815000827">
		<tag k="name" v="Åse" />
		<tag k="place" v="farm" />
		<tag k="ssr:stedsnr" v="21608" />
	</node>
	<node id="-476344" lat="60.3309666634" lon="5.12398333548">
		<tag k="name" v="Nordre Ekrhovda" />
		<tag k="place" v="farm" />
		<tag k="ssr:stedsnr" v="628507" />
	</node>
	<node id="-475214" lat="60.3166166637" lon="5.13696388313">
		<tag k="name" v="Molltveit" />
		<tag k="place" v="farm" />
		<tag k="ssr:stedsnr" v="410345" />
	</node>
	<node id="-475405" lat="60.3461944479" lon="5.15734443659">
		<tag k="name" v="Snekkevika" />
		<tag k="place" v="farm" />
		<tag k="ssr:stedsnr" v="21729" />
	</node>
	<node id="-476236" lat="60.3109633807" lon="4.93527001837">
		<tag k="name" v="Hissøyna" />
		<tag k="place" v="farm" />
		<tag k="ssr:stedsnr" v="567693" />
	</node>
	<node id="-476235" lat="60.3073277772" lon="4.99284445049">
		<tag k="name" v="Syltøyna" />
		<tag k="place" v="farm" />
		<tag k="ssr:stedsnr" v="567692" />
	</node>
	<node id="-476234" lat="60.3182750008" lon="5.18891389446">
		<tag k="name" v="Nordre Bjorøyna" />
		<tag k="place" v="farm" />
		<tag k="ssr:stedsnr" v="567679" />
	</node>
	<node id="-476745" lat="60.4490111112" lon="4.92255833436">
		<tag k="name" v="Turøyna" />
		<tag k="place" v="farm" />
		<tag k="ssr:stedsnr" v="810763" />
	</node>
	<node id="-476744" lat="60.3258583374" lon="5.00458889736">
		<tag k="name" v="Møvika" />
		<tag k="place" v="farm" />
		<tag k="ssr:stedsnr" v="810746" />
	</node>
	<node id="-476743" lat="60.3285527793" lon="4.89863611673">
		<tag k="name" v="Løno" />
		<tag k="place" v="farm" />
		<tag k="ssr:stedsnr" v="810613" />
	</node>
	<node id="-476742" lat="60.3868083342" lon="5.12964166271">
		<tag k="name" v="Vågo" />
		<tag k="place" v="farm" />
		<tag k="ssr:stedsnr" v="810592" />
	</node>
	<node id="-476741" lat="60.3179666671" lon="5.03670833973">
		<tag k="name" v="Tveita" />
		<tag k="place" v="farm" />
		<tag k="ssr:stedsnr" v="810541" />
	</node>
	<node id="-476740" lat="60.3316638908" lon="5.12238611219">
		<tag k="name" v="Nordre Ekrhovda" />
		<tag k="place" v="farm" />
		<tag k="ssr:stedsnr" v="810527" />
	</node>
	<node id="-476739" lat="60.3591000002" lon="5.08286389034">
		<tag k="name" v="Kolltveit" />
		<tag k="place" v="farm" />
		<tag k="ssr:stedsnr" v="809270" />
	</node>
	<node id="-476738" lat="60.3580944433" lon="5.08657221512">
		<tag k="name" v="Kolltveit" />
		<tag k="place" v="farm" />
		<tag k="ssr:stedsnr" v="809267" />
	</node>
	<node id="-475659" lat="60.313150003" lon="5.03582778129">
		<tag k="name" v="Åse" />
		<tag k="place" v="farm" />
		<tag k="ssr:stedsnr" v="142573" />
	</node>
	<node id="-475200" lat="60.3451333307" lon="5.1253944422">
		<tag k="name" v="Knappen" />
		<tag k="place" v="farm" />
		<tag k="ssr:stedsnr" v="409771" />
	</node>
	<node id="-476735" lat="60.3115543014" lon="5.13340400441">
		<tag k="fixme" v="consider place=hamlet" />
		<tag k="name" v="Li" />
		<tag k="place" v="farm" />
		<tag k="ssr:stedsnr" v="794754" />
	</node>
	<node id="-476221" lat="60.321768575" lon="5.17882516036">
		<tag k="fixme" v="consider place=hamlet" />
		<tag k="name" v="Nordre Bjorøyna" />
		<tag k="place" v="farm" />
		<tag k="ssr:stedsnr" v="551802" />
	</node>
	<node id="-476220" lat="60.315638892" lon="5.16233056064">
		<tag k="name" v="Nygard" />
		<tag k="place" v="farm" />
		<tag k="ssr:stedsnr" v="551798" />
	</node>
	<node id="-475914" lat="60.3136277781" lon="5.01538332768">
		<tag k="name" v="Åse" />
		<tag k="place" v="farm" />
		<tag k="ssr:stedsnr" v="264579" />
	</node>
	<node id="-476730" lat="60.3464539528" lon="5.15110363232">
		<tag k="fixme" v="consider place=hamlet" />
		<tag k="name" v="Snekkevika" />
		<tag k="place" v="farm" />
		<tag k="ssr:stedsnr" v="794700" />
	</node>
	<node id="-475913" lat="60.3590922885" lon="5.08287857207">
		<tag k="name" v="Kolltveit" />
		<tag k="place" v="farm" />
		<tag k="ssr:stedsnr" v="263290" />
	</node>
	<node id="-476211" lat="60.3727834239" lon="5.03009802325">
		<tag k="fixme" v="consider place=hamlet" />
		<tag k="name" v="Fjæreide" />
		<tag k="place" v="farm" />
		<tag k="ssr:stedsnr" v="551348" />
	</node>
	<node id="-475186" lat="60.398025003" lon="4.98066388815">
		<tag k="fixme" v="consider place=hamlet" />
		<tag k="name" v="Pollen" />
		<tag k="place" v="farm" />
		<tag k="ssr:stedsnr" v="409454" />
	</node>
	<node id="-476083" lat="60.4130499971" lon="4.9808527798">
		<tag k="name" v="Angeltveit" />
		<tag k="place" v="farm" />
		<tag k="ssr:stedsnr" v="507523" />
	</node>
	<node id="-475205" lat="60.367508337" lon="5.06743055714">
		<tag k="name" v="Morlandstø" />
		<tag k="place" v="farm" />
		<tag k="ssr:stedsnr" v="409936" />
	</node>
	<node id="-476206" lat="60.4050972224" lon="4.97131666123">
		<tag k="name" v="Angeltveitsjøen" />
		<tag k="old_name" v="Ongeltveitsjøen;Ongeltveit" />
		<tag k="place" v="hamlet" />
		<tag k="ssr:stedsnr" v="551328" />
	</node>
	<node id="-476203" lat="60.4030583297" lon="5.01926665991">
		<tag k="name" v="Ågotnes" />
		<tag k="place" v="village" />
		<tag k="ssr:stedsnr" v="551325" />
	</node>
	<node id="-476713" lat="60.3288697274" lon="5.05941897757">
		<tag k="alt_name" v="Fjell, midtre" />
		<tag k="fixme" v="consider place=hamlet" />
		<tag k="name" v="Midtre Fjell" />
		<tag k="place" v="farm" />
		<tag k="ssr:stedsnr" v="794275" />
	</node>
	<node id="-475228" lat="60.3551955814" lon="5.11797532716">
		<tag k="fixme" v="consider place=hamlet" />
		<tag k="name" v="Straume" />
		<tag k="place" v="farm" />
		<tag k="ssr:stedsnr" v="410546" />
	</node>
	<node id="-476710" lat="60.3465885271" lon="4.97466171935">
		<tag k="fixme" v="consider place=hamlet" />
		<tag k="name" v="Langøyna" />
		<tag k="place" v="farm" />
		<tag k="ssr:stedsnr" v="794260" />
	</node>
	<node id="-475142" lat="60.3331844944" lon="5.12483831742">
		<tag k="name" v="Nordre Ekrhovda" />
		<tag k="place" v="farm" />
		<tag k="ssr:stedsnr" v="385523" />
	</node>
	<node id="-475916" lat="60.3240777735" lon="5.17883889208">
		<tag k="name" v="Nordre Bjorøyna" />
		<tag k="place" v="farm" />
		<tag k="ssr:stedsnr" v="264685" />
	</node>
	<node id="-476192" lat="60.42264167" lon="5.00065555941">
		<tag k="fixme" v="consider place=suburb, village or hamlet" />
		<tag k="name" v="Vindenes" />
		<tag k="place" v="quarter" />
		<tag k="ssr:stedsnr" v="551189" />
	</node>
	<node id="-476336" lat="60.3707416657" lon="5.15319722697">
		<tag k="alt_name" v="Knarrevik" />
		<tag k="name" v="Knarrvika" />
		<tag k="place" v="village" />
		<tag k="ssr:stedsnr" v="612652" />
	</node>
	<node id="-475909" lat="60.3155750004" lon="5.18243888164">
		<tag k="name" v="Breivika" />
		<tag k="place" v="hamlet" />
		<tag k="ssr:stedsnr" v="248774" />
	</node>
	<node id="-475674" lat="60.32514587" lon="5.07397600609">
		<tag k="fixme" v="consider place=hamlet" />
		<tag k="name" v="Søre Fjell" />
		<tag k="place" v="farm" />
		<tag k="ssr:stedsnr" v="161378" />
	</node>
	<node id="-476335" lat="60.3764961197" lon="5.15863445021">
		<tag k="alt_name" v="Rennedal" />
		<tag k="fixme" v="consider place=hamlet" />
		<tag k="name" v="Rennedalen" />
		<tag k="place" v="farm" />
		<tag k="ssr:stedsnr" v="612651" />
	</node>
	<node id="-476228" lat="60.3921666621" lon="5.12196388286">
		<tag k="name" v="Vågo" />
		<tag k="place" v="farm" />
		<tag k="ssr:stedsnr" v="567568" />
	</node>
	<node id="-475667" lat="60.4510250042" lon="4.91972777328">
		<tag k="name" v="Turøyna" />
		<tag k="place" v="farm" />
		<tag k="ssr:stedsnr" v="142751" />
	</node>
	<node id="-475666" lat="60.3700348862" lon="4.9461144599">
		<tag k="fixme" v="consider place=hamlet" />
		<tag k="name" v="Dyrøyna" />
		<tag k="place" v="farm" />
		<tag k="ssr:stedsnr" v="142718" />
	</node>
	<node id="-475665" lat="60.3251222197" lon="5.18218055926">
		<tag k="name" v="Nordre Bjorøyna" />
		<tag k="place" v="farm" />
		<tag k="ssr:stedsnr" v="142705" />
	</node>
	<node id="-475664" lat="60.3414916693" lon="5.14016111854">
		<tag k="name" v="Ebbesvika" />
		<tag k="place" v="farm" />
		<tag k="ssr:stedsnr" v="142648" />
	</node>
	<node id="-475663" lat="60.2871466115" lon="5.07383811341">
		<tag k="name" v="Dala" />
		<tag k="place" v="farm" />
		<tag k="ssr:stedsnr" v="142502" />
	</node>
	<node id="-475662" lat="60.326191662" lon="5.12913332684">
		<tag k="name" v="Søre Ekrhovda" />
		<tag k="place" v="farm" />
		<tag k="ssr:stedsnr" v="142498" />
	</node>
	<node id="-475661" lat="60.3276388919" lon="5.12794999185">
		<tag k="name" v="Søre Ekrhovda" />
		<tag k="place" v="farm" />
		<tag k="ssr:stedsnr" v="142497" />
	</node>
	<node id="-475660" lat="60.3719750029" lon="5.03091110886">
		<tag k="name" v="Fjæreide" />
		<tag k="place" v="farm" />
		<tag k="ssr:stedsnr" v="142576" />
	</node>
	<node id="-476171" lat="60.3266222263" lon="5.03619165891">
		<tag k="name" v="Ulveset" />
		<tag k="place" v="farm" />
		<tag k="ssr:stedsnr" v="531634" />
	</node>
	<node id="-475658" lat="60.3891222259" lon="5.14626111787">
		<tag k="name" v="Vågo" />
		<tag k="place" v="farm" />
		<tag k="ssr:stedsnr" v="142569" />
	</node>
	<node id="-475657" lat="60.3892722215" lon="5.12513055257">
		<tag k="name" v="Vågo" />
		<tag k="place" v="farm" />
		<tag k="ssr:stedsnr" v="142568" />
	</node>
	<node id="-475656" lat="60.353872221" lon="5.08110000741">
		<tag k="name" v="Kolltveit" />
		<tag k="place" v="farm" />
		<tag k="ssr:stedsnr" v="142272" />
	</node>
	<node id="-475655" lat="60.3571555577" lon="5.08848610546">
		<tag k="name" v="Kolltveit" />
		<tag k="place" v="farm" />
		<tag k="ssr:stedsnr" v="142271" />
	</node>
	<node id="-475654" lat="60.3570178125" lon="5.08008291732">
		<tag k="fixme" v="consider place=hamlet" />
		<tag k="name" v="Kolltveit" />
		<tag k="place" v="farm" />
		<tag k="ssr:stedsnr" v="142269" />
	</node>
	<node id="-476417" lat="60.4047194464" lon="5.01791666663">
		<tag k="fixme" v="consider place=hamlet" />
		<tag k="name" v="Ågotnes" />
		<tag k="place" v="farm" />
		<tag k="ssr:stedsnr" v="652614" />
	</node>
	<node id="-475140" lat="60.3248055536" lon="5.13103611951">
		<tag k="name" v="Søre Ekrhovda" />
		<tag k="place" v="farm" />
		<tag k="ssr:stedsnr" v="385520" />
	</node>
	<node id="-476331" lat="60.288027486" lon="5.0731999372">
		<tag k="fixme" v="consider place=hamlet" />
		<tag k="name" v="Dala" />
		<tag k="place" v="farm" />
		<tag k="ssr:stedsnr" v="612465" />
	</node>
</osm>
