<?xml version="1.0" encoding="UTF-8"?>
<osm generator="osmapis" version="0.6">
	<node id="-475153" lat="60.3433555578" lon="5.1105361018">
		<tag k="man_made" v="quay" />
		<tag k="name" v="Døsje" />
		<tag k="place" v="locality" />
		<tag k="ssr:stedsnr" v="388085" />
	</node>
	<node id="-475632" lat="60.355261108" lon="4.98726111865">
		<tag k="bridge" v="yes" />
		<tag k="layer" v="1" />
		<tag k="name" v="Sekkingstad" />
		<tag k="ssr:stedsnr" v="108203" />
	</node>
	<node id="-475246" lat="60.343469445" lon="4.98558055045">
		<tag k="bridge" v="yes" />
		<tag k="layer" v="1" />
		<tag k="name" v="Langøy" />
		<tag k="ssr:stedsnr" v="411206" />
	</node>
	<node id="-475245" lat="60.334061112" lon="5.14395278467">
		<tag k="bridge" v="yes" />
		<tag k="layer" v="1" />
		<tag k="name" v="Gavlen" />
		<tag k="ssr:stedsnr" v="411202" />
	</node>
	<node id="-475244" lat="60.3869222199" lon="4.99088333012">
		<tag k="bridge" v="yes" />
		<tag k="layer" v="1" />
		<tag k="name" v="Kårtveit" />
		<tag k="ssr:stedsnr" v="411203" />
	</node>
	<node id="-475115" lat="60.3573888913" lon="5.08261389482">
		<tag k="bridge" v="yes" />
		<tag k="layer" v="1" />
		<tag k="name" v="Kolltveit" />
		<tag k="ssr:stedsnr" v="350182" />
	</node>
	<node id="-475495" lat="60.3207222207" lon="4.97721667185">
		<tag k="bridge" v="yes" />
		<tag k="layer" v="1" />
		<tag k="name" v="Flogøykjølpo" />
		<tag k="ssr:stedsnr" v="47205" />
	</node>
	<node id="-475878" lat="60.3287000035" lon="5.04729723027">
		<tag k="bridge" v="yes" />
		<tag k="layer" v="1" />
		<tag k="name" v="Ulveset" />
		<tag k="ssr:stedsnr" v="229214" />
	</node>
	<node id="-475877" lat="60.3657833359" lon="5.13873889638">
		<tag k="bridge" v="yes" />
		<tag k="layer" v="1" />
		<tag k="name" v="Arefjordpollen" />
		<tag k="ssr:stedsnr" v="229200" />
	</node>
	<node id="-475361" lat="60.3127492445" lon="4.96545378345">
		<tag k="name" v="Narøyhamn" />
		<tag k="place" v="locality" />
		<tag k="ssr:stedsnr" v="991222" />
	</node>
	<node id="-475360" lat="60.3091536904" lon="4.94285326075">
		<tag k="name" v="Hissøyhamn" />
		<tag k="place" v="locality" />
		<tag k="ssr:stedsnr" v="991221" />
	</node>
	<node id="-476751" lat="60.3509972243" lon="5.09929167484">
		<tag k="layer" v="-1" />
		<tag k="name" v="Kolltveit" />
		<tag k="ssr:stedsnr" v="833279" />
		<tag k="tunnel" v="yes" />
	</node>
	<node id="-477000" lat="60.3245666677" lon="4.97732221985">
		<tag k="bridge" v="yes" />
		<tag k="layer" v="1" />
		<tag k="name" v="Nordre Kanal" />
		<tag k="ssr:stedsnr" v="958214" />
	</node>
	<node id="-476999" lat="60.3704833353" lon="5.15234166415">
		<tag k="bridge" v="yes" />
		<tag k="layer" v="1" />
		<tag k="name" v="Knarrevik" />
		<tag k="ssr:stedsnr" v="958212" />
	</node>
	<node id="-475328" lat="60.339819442" lon="4.9954222187">
		<tag k="bridge" v="yes" />
		<tag k="layer" v="1" />
		<tag k="name" v="Skålevik" />
		<tag k="ssr:stedsnr" v="897196" />
	</node>
	<node id="-474941" lat="60.2856027779" lon="5.09287777377">
		<tag k="bridge" v="yes" />
		<tag k="layer" v="1" />
		<tag k="name" v="Tellnespollen" />
		<tag k="ssr:stedsnr" v="290209" />
	</node>
	<node id="-474940" lat="60.439997226" lon="4.96743888769">
		<tag k="bridge" v="yes" />
		<tag k="layer" v="1" />
		<tag k="name" v="Solsviksundet" />
		<tag k="ssr:stedsnr" v="290207" />
	</node>
	<node id="-474939" lat="60.4224944451" lon="4.98269999819">
		<tag k="bridge" v="yes" />
		<tag k="layer" v="1" />
		<tag k="name" v="Olsvik" />
		<tag k="ssr:stedsnr" v="290204" />
	</node>
	<node id="-474938" lat="60.357630558" lon="5.14296111448">
		<tag k="bridge" v="yes" />
		<tag k="layer" v="1" />
		<tag k="name" v="Arefjord" />
		<tag k="ssr:stedsnr" v="290199" />
	</node>
	<node id="-476702" lat="60.3019472233" lon="5.08476111436">
		<tag k="bridge" v="yes" />
		<tag k="layer" v="1" />
		<tag k="name" v="Tellnes" />
		<tag k="ssr:stedsnr" v="775185" />
	</node>
	<node id="-476314" lat="60.4065416703" lon="4.98893333103">
		<tag k="bridge" v="yes" />
		<tag k="layer" v="1" />
		<tag k="name" v="Angeltveit" />
		<tag k="ssr:stedsnr" v="593189" />
	</node>
	<node id="-476569" lat="60.3415499983" lon="5.08338054787">
		<tag k="bridge" v="yes" />
		<tag k="layer" v="1" />
		<tag k="name" v="Blommen" />
		<tag k="ssr:stedsnr" v="715202" />
	</node>
	<node id="-476440" lat="60.3671666693" lon="5.06656945271">
		<tag k="bridge" v="yes" />
		<tag k="layer" v="1" />
		<tag k="name" v="Morlandsstø" />
		<tag k="ssr:stedsnr" v="654206" />
	</node>
	<node id="-476439" lat="60.3517472261" lon="5.10143889413">
		<tag k="bridge" v="yes" />
		<tag k="layer" v="1" />
		<tag k="name" v="Bildøy" />
		<tag k="ssr:stedsnr" v="654196" />
	</node>
	<node id="-476441" lat="60.4057416661" lon="4.99865833961">
		<tag k="bridge" v="yes" />
		<tag k="layer" v="1" />
		<tag k="name" v="Ågotnes" />
		<tag k="ssr:stedsnr" v="654211" />
	</node>
	<node id="-476818" lat="60.3178277819" lon="4.98198333675">
		<tag k="bridge" v="yes" />
		<tag k="layer" v="1" />
		<tag k="name" v="Storesund" />
		<tag k="ssr:stedsnr" v="836162" />
	</node>
	<node id="-476049" lat="60.4563444486" lon="4.95664722733">
		<tag k="bridge" v="yes" />
		<tag k="layer" v="1" />
		<tag k="name" v="Svelgen" />
		<tag k="ssr:stedsnr" v="472200" />
	</node>
	<node id="-476048" lat="60.3896444478" lon="5.04568334039">
		<tag k="bridge" v="yes" />
		<tag k="layer" v="1" />
		<tag k="name" v="Spjeldsundet" />
		<tag k="ssr:stedsnr" v="472195" />
	</node>
	<node id="-476047" lat="60.3004916703" lon="5.16763333177">
		<tag k="bridge" v="yes" />
		<tag k="layer" v="1" />
		<tag k="name" v="Nautesundet" />
		<tag k="ssr:stedsnr" v="472194" />
	</node>
	<node id="-476313" lat="60.454111108" lon="4.92769445372">
		<tag k="bridge" v="yes" />
		<tag k="layer" v="1" />
		<tag k="name" v="Turøy" />
		<tag k="ssr:stedsnr" v="593033" />
	</node>
	<node id="-476183" lat="60.3584642284" lon="5.11373366653">
		<tag k="bridge" v="yes" />
		<tag k="layer" v="1" />
		<tag k="name" v="Straumsundet" />
		<tag k="ssr:stedsnr" v="533204" />
	</node>
	<node id="-475243" lat="60.3623666659" lon="5.1463944412">
		<tag k="bridge" v="yes" />
		<tag k="layer" v="1" />
		<tag k="name" v="Arefjordstraumen" />
		<tag k="ssr:stedsnr" v="411198" />
	</node>
</osm>
