<?xml version="1.0" encoding="UTF-8"?>
<osm generator="osmapis" version="0.6">
	<node id="-476592" lat="60.3309386856" lon="5.07592111527">
		<tag k="alt_name" v="Fjell" />
		<tag k="amenity" v="place_of_worship" />
		<tag k="denomination" v="lutheran" />
		<tag k="name" v="Fjell kyrkje" />
		<tag k="religion" v="christian" />
		<tag k="ssr:stedsnr" v="734287" />
	</node>
	<node id="-476679" lat="60.3347083335" lon="4.99668055935">
		<tag k="cemetery" v="grave" />
		<tag k="name" v="Vestre Gravstad" />
		<tag k="place" v="locality" />
		<tag k="ssr:stedsnr" v="774517" />
	</node>
	<node id="-475366" lat="60.4382347347" lon="4.96868305773">
		<tag k="name" v="Store-signalen" />
		<tag k="ssr:stedsnr" v="991254" />
		<tag k="tourism" v="viewpoint" />
	</node>
	<node id="-475354" lat="60.3673829199" lon="5.12681956768">
		<tag k="amenity" v="place_of_worship" />
		<tag k="denomination" v="lutheran" />
		<tag k="name" v="Foldnes kyrkje" />
		<tag k="religion" v="christian" />
		<tag k="ssr:stedsnr" v="990958" />
	</node>
	<node id="-475505" lat="60.4180777748" lon="4.97319444974">
		<tag k="alt_name" v="Landro" />
		<tag k="amenity" v="place_of_worship" />
		<tag k="denomination" v="lutheran" />
		<tag k="name" v="Landro kyrkje" />
		<tag k="religion" v="christian" />
		<tag k="ssr:stedsnr" v="66180" />
	</node>
</osm>
