<?xml version="1.0" encoding="UTF-8"?>
<osm generator="osmapis" version="0.6">
	<node id="-476671" lat="60.2946038534" lon="5.08617270234">
		<tag k="name" v="Gardatjørna" />
		<tag k="natural" v="water" />
		<tag k="ssr:stedsnr" v="774385" />
	</node>
	<node id="-476668" lat="60.3839560989" lon="4.99554543499">
		<tag k="name" v="Anderstjørna" />
		<tag k="natural" v="water" />
		<tag k="ssr:stedsnr" v="774342" />
	</node>
	<node id="-475127" lat="60.273615994" lon="5.03120066298">
		<tag k="name" v="Storavatnet" />
		<tag k="natural" v="water" />
		<tag k="ssr:stedsnr" v="369424" />
		<tag k="water" v="lake" />
	</node>
	<node id="-475120" lat="60.3312151177" lon="5.01611909733">
		<tag k="name" v="Signalsvatnet" />
		<tag k="natural" v="water" />
		<tag k="ssr:stedsnr" v="369233" />
	</node>
	<node id="-475117" lat="60.3476678872" lon="5.04354659493">
		<tag k="name" v="Revursvatnet" />
		<tag k="natural" v="water" />
		<tag k="ssr:stedsnr" v="353290" />
	</node>
	<node id="-475621" lat="60.3768111091" lon="5.0484249932">
		<tag k="name" v="Kvernavatnet" />
		<tag k="natural" v="water" />
		<tag k="ssr:stedsnr" v="106917" />
		<tag k="water" v="lake" />
	</node>
	<node id="-475105" lat="60.3962330812" lon="5.03671008882">
		<tag k="name" v="Klungersvatnet" />
		<tag k="natural" v="water" />
		<tag k="ssr:stedsnr" v="349662" />
		<tag k="water" v="lake" />
	</node>
	<node id="-475616" lat="60.2723638865" lon="5.0339638936">
		<tag k="name" v="Tangen" />
		<tag k="natural" v="cape" />
		<tag k="ssr:stedsnr" v="106881" />
	</node>
	<node id="-475613" lat="60.2759351369" lon="5.04605954876">
		<tag k="name" v="Skadtjørna" />
		<tag k="natural" v="water" />
		<tag k="ssr:stedsnr" v="106860" />
	</node>
	<node id="-476636" lat="60.4457159033" lon="4.92132486401">
		<tag k="name" v="Måsavatnet" />
		<tag k="natural" v="water" />
		<tag k="ssr:stedsnr" v="773308" />
		<tag k="water" v="lake" />
	</node>
	<node id="-475885" lat="60.4172855545" lon="4.99144815433">
		<tag k="name" v="Bleivatnet" />
		<tag k="natural" v="water" />
		<tag k="ssr:stedsnr" v="248175" />
	</node>
	<node id="-476118" lat="60.3046083362" lon="5.07032500566">
		<tag k="name" v="Oldervadet" />
		<tag k="place" v="locality" />
		<tag k="ssr:stedsnr" v="530678" />
	</node>
	<node id="-476629" lat="60.3565694422" lon="5.14617776986">
		<tag k="name" v="Søra Skorpeneset" />
		<tag k="natural" v="cape" />
		<tag k="ssr:stedsnr" v="773124" />
	</node>
	<node id="-475092" lat="60.3938722252" lon="5.00014999861">
		<tag k="name" v="Ågotneselva" />
		<tag k="ssr:stedsnr" v="349511" />
		<tag k="waterway" v="river" />
	</node>
	<node id="-475091" lat="60.3548638864" lon="4.99949166758">
		<tag k="name" v="Litlavatnet" />
		<tag k="natural" v="water" />
		<tag k="ssr:stedsnr" v="349481" />
		<tag k="water" v="lake" />
	</node>
	<node id="-475089" lat="60.4440519099" lon="4.91852451218">
		<tag k="name" v="Sandvikavatnet" />
		<tag k="natural" v="water" />
		<tag k="ssr:stedsnr" v="349422" />
		<tag k="water" v="lake" />
	</node>
	<node id="-475088" lat="60.2902499979" lon="5.01876667061">
		<tag k="name" v="Blandingsvatnet" />
		<tag k="natural" v="water" />
		<tag k="ssr:stedsnr" v="349411" />
		<tag k="water" v="lake" />
	</node>
	<node id="-475599" lat="60.3151361077" lon="5.04347500355">
		<tag k="name" v="Holmo" />
		<tag k="natural" v="cape" />
		<tag k="ssr:stedsnr" v="106682" />
	</node>
	<node id="-475086" lat="60.3193204623" lon="5.17132527929">
		<tag k="name" v="Austra Skulevatnet" />
		<tag k="natural" v="water" />
		<tag k="ssr:stedsnr" v="349402" />
		<tag k="water" v="lake" />
	</node>
	<node id="-476663" lat="60.3554083375" lon="5.12909166369">
		<tag k="name" v="Smålona" />
		<tag k="natural" v="water" />
		<tag k="ssr:stedsnr" v="773974" />
		<tag k="water" v="lake" />
	</node>
	<node id="-475589" lat="60.3408650552" lon="5.05259213986">
		<tag k="name" v="Hundatjørna" />
		<tag k="natural" v="water" />
		<tag k="ssr:stedsnr" v="106582" />
	</node>
	<node id="-475583" lat="60.3655611138" lon="5.06436388995">
		<tag k="name" v="Støavatnet" />
		<tag k="natural" v="water" />
		<tag k="ssr:stedsnr" v="106523" />
		<tag k="water" v="lake" />
	</node>
	<node id="-475582" lat="60.3539384834" lon="5.06806018229">
		<tag k="name" v="Mjåvatnet" />
		<tag k="natural" v="water" />
		<tag k="ssr:stedsnr" v="106514" />
	</node>
	<node id="-475893" lat="60.3613776353" lon="5.03963966558">
		<tag k="name" v="Rotabekksvatnet" />
		<tag k="natural" v="water" />
		<tag k="ssr:stedsnr" v="248329" />
	</node>
	<node id="-476598" lat="60.3784999992" lon="5.11599999234">
		<tag k="name" v="Gulfjellvatnet" />
		<tag k="natural" v="water" />
		<tag k="ssr:stedsnr" v="734669" />
	</node>
	<node id="-476597" lat="60.3726328567" lon="5.15020515725">
		<tag k="name" v="Storavatnet" />
		<tag k="natural" v="water" />
		<tag k="ssr:stedsnr" v="734648" />
	</node>
	<node id="-476596" lat="60.2651611111" lon="5.046875006">
		<tag k="name" v="Vardavika" />
		<tag k="natural" v="bay" />
		<tag k="ssr:stedsnr" v="734519" />
	</node>
	<node id="-475057" lat="60.3332249986" lon="5.18024443838">
		<tag k="name" v="Nordravatnet" />
		<tag k="natural" v="water" />
		<tag k="ssr:stedsnr" v="348761" />
		<tag k="water" v="lake" />
	</node>
	<node id="-476077" lat="60.3738556061" lon="5.12993584549">
		<tag k="name" v="Byksevatnet" />
		<tag k="natural" v="water" />
		<tag k="ssr:stedsnr" v="491659" />
	</node>
	<node id="-476075" lat="60.3462842103" lon="5.05853304327">
		<tag k="alt_name" v="Kyrkjenibbvatnet" />
		<tag k="name" v="Kyrkjevatnet" />
		<tag k="natural" v="water" />
		<tag k="ssr:stedsnr" v="491276" />
		<tag k="water" v="lake" />
	</node>
	<node id="-475561" lat="60.319663887" lon="5.16931111">
		<tag k="name" v="Vestra Skulevatnet" />
		<tag k="natural" v="water" />
		<tag k="ssr:stedsnr" v="106339" />
		<tag k="water" v="lake" />
	</node>
	<node id="-475389" lat="60.4058611139" lon="4.98895555399">
		<tag k="name" v="Polleidet" />
		<tag k="natural" v="strait" />
		<tag k="ssr:stedsnr" v="5323" />
	</node>
	<node id="-476069" lat="60.3622100024" lon="5.12594546196">
		<tag k="name" v="Stovevatnet" />
		<tag k="natural" v="water" />
		<tag k="ssr:stedsnr" v="490740" />
	</node>
	<node id="-475556" lat="60.3779138868" lon="5.00368889725">
		<tag k="name" v="Brunavatnet" />
		<tag k="natural" v="water" />
		<tag k="ssr:stedsnr" v="106305" />
		<tag k="water" v="lake" />
	</node>
	<node id="-476064" lat="60.378420183" lon="4.99562989725">
		<tag k="name" v="Nordsta Rotavatnet" />
		<tag k="natural" v="water" />
		<tag k="ssr:stedsnr" v="490357" />
	</node>
	<node id="-475549" lat="60.3841222224" lon="5.13499999199">
		<tag k="name" v="Kvernavatnet" />
		<tag k="natural" v="water" />
		<tag k="ssr:stedsnr" v="106123" />
		<tag k="water" v="lake" />
	</node>
	<node id="-476058" lat="60.3522931093" lon="5.00664273809">
		<tag k="name" v="Engesvatnet" />
		<tag k="natural" v="water" />
		<tag k="ssr:stedsnr" v="490331" />
	</node>
	<node id="-476562" lat="60.3801861078" lon="5.03171110934">
		<tag k="name" v="Tverråna" />
		<tag k="ssr:stedsnr" v="713931" />
		<tag k="waterway" v="river" />
	</node>
	<node id="-475023" lat="60.2728722199" lon="5.00724445221">
		<tag k="name" v="Kørelen" />
		<tag k="natural" v="water" />
		<tag k="ssr:stedsnr" v="348111" />
		<tag k="water" v="lake" />
	</node>
	<node id="-475022" lat="60.3691611094" lon="5.15348610794">
		<tag k="name" v="Mustadvatnet" />
		<tag k="natural" v="water" />
		<tag k="ssr:stedsnr" v="348103" />
		<tag k="water" v="lake" />
	</node>
	<node id="-476045" lat="60.3474527823" lon="5.14586389509">
		<tag k="name" v="Sauavatnet" />
		<tag k="natural" v="water" />
		<tag k="ssr:stedsnr" v="470980" />
		<tag k="water" v="lake" />
	</node>
	<node id="-476044" lat="60.3498222234" lon="5.13448888588">
		<tag k="name" v="Skogavatnet" />
		<tag k="natural" v="water" />
		<tag k="ssr:stedsnr" v="470978" />
		<tag k="water" v="lake" />
	</node>
	<node id="-475530" lat="60.2999666629" lon="5.11616943773">
		<tag k="name" v="Lielva" />
		<tag k="ssr:stedsnr" v="66859" />
		<tag k="waterway" v="stream" />
	</node>
	<node id="-476552" lat="60.2672472187" lon="5.02585833046">
		<tag k="name" v="Kvernelva" />
		<tag k="ssr:stedsnr" v="713863" />
		<tag k="waterway" v="river" />
	</node>
	<node id="-475865" lat="60.3534388881" lon="5.06324444312">
		<tag k="name" v="Nubbavatnet" />
		<tag k="natural" v="water" />
		<tag k="ssr:stedsnr" v="228596" />
		<tag k="water" v="lake" />
	</node>
	<node id="-476539" lat="60.3547916633" lon="4.96243610468">
		<tag k="name" v="Staupane" />
		<tag k="natural" v="water" />
		<tag k="ssr:stedsnr" v="713414" />
		<tag k="water" v="lake" />
	</node>
	<node id="-475510" lat="60.3536534508" lon="5.05436855719">
		<tag k="name" v="Stemmevatnet" />
		<tag k="natural" v="water" />
		<tag k="ssr:stedsnr" v="66270" />
	</node>
	<node id="-476021" lat="60.3226583326" lon="5.07471111031">
		<tag k="name" v="Gardstjørna" />
		<tag k="natural" v="water" />
		<tag k="ssr:stedsnr" v="470667" />
	</node>
	<node id="-474987" lat="60.3055277755" lon="5.10960278503">
		<tag k="name" v="Skogavatnet" />
		<tag k="natural" v="water" />
		<tag k="ssr:stedsnr" v="309745" />
	</node>
	<node id="-474985" lat="60.3595888877" lon="5.05774999991">
		<tag k="name" v="Morlandsvatnet" />
		<tag k="natural" v="water" />
		<tag k="ssr:stedsnr" v="309390" />
		<tag k="water" v="lake" />
	</node>
	<node id="-474979" lat="60.3525832351" lon="5.04054259099">
		<tag k="name" v="Ørnafjellsvatnet" />
		<tag k="natural" v="water" />
		<tag k="ssr:stedsnr" v="309309" />
	</node>
	<node id="-476002" lat="60.3462249965" lon="4.95210556131">
		<tag k="name" v="Lundevatnet" />
		<tag k="natural" v="water" />
		<tag k="ssr:stedsnr" v="470386" />
		<tag k="water" v="lake" />
	</node>
	<node id="-476731" lat="60.3662506134" lon="5.12558203727">
		<tag k="name" v="Skiftedalsvatnet" />
		<tag k="natural" v="water" />
		<tag k="ssr:stedsnr" v="794720" />
	</node>
	<node id="-474974" lat="60.3365194456" lon="5.03536665985">
		<tag k="name" v="Vadvatnet" />
		<tag k="natural" v="water" />
		<tag k="ssr:stedsnr" v="309287" />
	</node>
	<node id="-476508" lat="60.3156760546" lon="5.07892238677">
		<tag k="name" v="Krossleittjørna" />
		<tag k="natural" v="water" />
		<tag k="ssr:stedsnr" v="712641" />
	</node>
	<node id="-475906" lat="60.3578775579" lon="5.10117079909">
		<tag k="name" v="Holmavatnet" />
		<tag k="natural" v="water" />
		<tag k="ssr:stedsnr" v="248758" />
	</node>
	<node id="-476503" lat="60.3731274779" lon="5.1342470938">
		<tag k="name" v="Larslivatnet" />
		<tag k="natural" v="water" />
		<tag k="ssr:stedsnr" v="712115" />
	</node>
	<node id="-474964" lat="60.3010416629" lon="5.08273056318">
		<tag k="alt_name" v="Fossavatnet" />
		<tag k="name" v="Fossvatnet" />
		<tag k="natural" v="water" />
		<tag k="ssr:stedsnr" v="308422" />
	</node>
	<node id="-474960" lat="60.2943398803" lon="5.07198573214">
		<tag k="name" v="Langavatnet" />
		<tag k="natural" v="water" />
		<tag k="ssr:stedsnr" v="308396" />
	</node>
	<node id="-474959" lat="60.3785913822" lon="5.08595570585">
		<tag k="name" v="Bruavatnet" />
		<tag k="natural" v="water" />
		<tag k="ssr:stedsnr" v="308342" />
	</node>
	<node id="-475469" lat="60.3556249984" lon="5.0201694464">
		<tag k="name" v="Fjerdavatnet" />
		<tag k="natural" v="water" />
		<tag k="ssr:stedsnr" v="45723" />
		<tag k="water" v="lake" />
	</node>
	<node id="-475980" lat="60.3592055579" lon="5.03302499984">
		<tag k="name" v="Brakeidet" />
		<tag k="natural" v="strait" />
		<tag k="ssr:stedsnr" v="470735" />
	</node>
	<node id="-476998" lat="60.371955558" lon="5.11913332476">
		<tag k="name" v="Grunnavågsvatnet" />
		<tag k="natural" v="water" />
		<tag k="ssr:stedsnr" v="956975" />
		<tag k="water" v="lake" />
	</node>
	<node id="-474949" lat="60.3222811504" lon="5.06916038581">
		<tag k="name" v="Bosvatnet" />
		<tag k="natural" v="water" />
		<tag k="ssr:stedsnr" v="308261" />
	</node>
	<node id="-474948" lat="60.3203194096" lon="5.05407893279">
		<tag k="name" v="Vadtjørna" />
		<tag k="natural" v="water" />
		<tag k="ssr:stedsnr" v="308258" />
	</node>
	<node id="-476994" lat="60.3763203628" lon="5.02143777448">
		<tag k="name" v="Lontjørna" />
		<tag k="natural" v="water" />
		<tag k="ssr:stedsnr" v="956940" />
	</node>
	<node id="-476993" lat="60.3864015969" lon="5.00890022229">
		<tag k="name" v="Urafjellstjørna" />
		<tag k="natural" v="water" />
		<tag k="ssr:stedsnr" v="956938" />
	</node>
	<node id="-475453" lat="60.3273749988" lon="5.10488055574">
		<tag k="name" v="Lantefjellsvatnet" />
		<tag k="natural" v="water" />
		<tag k="ssr:stedsnr" v="45562" />
		<tag k="water" v="lake" />
	</node>
	<node id="-475452" lat="60.3301749987" lon="5.10816945293">
		<tag k="name" v="Stemmavatnet" />
		<tag k="natural" v="water" />
		<tag k="ssr:stedsnr" v="45556" />
		<tag k="water" v="lake" />
	</node>
	<node id="-476984" lat="60.324372891" lon="5.04286180073">
		<tag k="name" v="Kattaneset" />
		<tag k="natural" v="cape" />
		<tag k="ssr:stedsnr" v="956645" />
	</node>
	<node id="-476471" lat="60.2785574301" lon="5.06779273455">
		<tag k="name" v="Dalatjørna" />
		<tag k="natural" v="water" />
		<tag k="ssr:stedsnr" v="673454" />
	</node>
	<node id="-476468" lat="60.3270498742" lon="5.07136894444">
		<tag k="name" v="Eikhammarsvatnet" />
		<tag k="natural" v="water" />
		<tag k="ssr:stedsnr" v="673320" />
	</node>
	<node id="-476467" lat="60.3433615231" lon="5.07747257806">
		<tag k="name" v="Halvgjevatnet" />
		<tag k="natural" v="water" />
		<tag k="ssr:stedsnr" v="673299" />
	</node>
	<node id="-475953" lat="60.3355030879" lon="5.10025353534">
		<tag k="name" v="Bildøyvatnet" />
		<tag k="natural" v="water" />
		<tag k="ssr:stedsnr" v="430785" />
	</node>
	<node id="-475950" lat="60.2833972817" lon="5.0244762096">
		<tag k="name" v="Stølstjørna" />
		<tag k="natural" v="water" />
		<tag k="ssr:stedsnr" v="430431" />
	</node>
	<node id="-476457" lat="60.4513527778" lon="4.98658333032">
		<tag k="name" v="Herevatnet" />
		<tag k="natural" v="water" />
		<tag k="ssr:stedsnr" v="673156" />
	</node>
	<node id="-476966" lat="60.3651833371" lon="4.99959999628">
		<tag k="name" v="Krokavatnet" />
		<tag k="natural" v="water" />
		<tag k="ssr:stedsnr" v="956452" />
		<tag k="water" v="lake" />
	</node>
	<node id="-474917" lat="60.2614388887" lon="5.03826111146">
		<tag k="name" v="Lotene" />
		<tag k="natural" v="water" />
		<tag k="ssr:stedsnr" v="288846" />
		<tag k="water" v="lake" />
	</node>
	<node id="-475938" lat="60.3348936959" lon="5.04250677604">
		<tag k="name" v="Røysatjørna" />
		<tag k="natural" v="water" />
		<tag k="ssr:stedsnr" v="430245" />
	</node>
	<node id="-475937" lat="60.4358644137" lon="4.97705803753">
		<tag k="name" v="Kleivavatnet" />
		<tag k="natural" v="water" />
		<tag k="ssr:stedsnr" v="430154" />
	</node>
	<node id="-475423" lat="60.3684805573" lon="5.00099166084">
		<tag k="name" v="Buskevatnet" />
		<tag k="natural" v="water" />
		<tag k="ssr:stedsnr" v="45315" />
		<tag k="water" v="lake" />
	</node>
	<node id="-475422" lat="60.3866208032" lon="4.97448535146">
		<tag k="name" v="Tørkeviktjørna" />
		<tag k="natural" v="water" />
		<tag k="ssr:stedsnr" v="45309" />
	</node>
	<node id="-476533" lat="60.2957055587" lon="5.0745666717">
		<tag k="name" v="Furekleivvatnet" />
		<tag k="natural" v="water" />
		<tag k="ssr:stedsnr" v="713321" />
		<tag k="water" v="lake" />
	</node>
	<node id="-475866" lat="60.3352861146" lon="5.02536110519">
		<tag k="name" v="Godfarelva" />
		<tag k="ssr:stedsnr" v="228600" />
		<tag k="waterway" v="river" />
	</node>
	<node id="-474903" lat="60.3037495359" lon="5.09006003012">
		<tag k="name" v="Bårdlitjørna" />
		<tag k="natural" v="water" />
		<tag k="ssr:stedsnr" v="288620" />
	</node>
	<node id="-476950" lat="60.3506555545" lon="5.12676111191">
		<tag k="name" v="Storalona" />
		<tag k="natural" v="water" />
		<tag k="ssr:stedsnr" v="955982" />
		<tag k="water" v="lake" />
	</node>
	<node id="-476949" lat="60.3464972215" lon="5.13978055333">
		<tag k="name" v="Vassvika" />
		<tag k="natural" v="bay" />
		<tag k="ssr:stedsnr" v="955980" />
	</node>
	<node id="-475412" lat="60.3782250034" lon="5.14644722603">
		<tag k="name" v="Lyklavatnet" />
		<tag k="natural" v="water" />
		<tag k="ssr:stedsnr" v="45117" />
		<tag k="water" v="lake" />
	</node>
	<node id="-474894" lat="60.3911277818" lon="5.0341444395">
		<tag k="name" v="Storelva" />
		<tag k="ssr:stedsnr" v="288563" />
		<tag k="waterway" v="river" />
	</node>
	<node id="-474891" lat="60.3436305578" lon="5.04327499156">
		<tag k="name" v="Bekkarøtla" />
		<tag k="ssr:stedsnr" v="288550" />
		<tag k="waterway" v="stream" />
	</node>
	<node id="-474889" lat="60.3328856329" lon="5.09043170443">
		<tag k="name" v="Vardafjellstjørna" />
		<tag k="natural" v="water" />
		<tag k="ssr:stedsnr" v="288531" />
	</node>
	<node id="-475400" lat="60.2856262527" lon="5.09969672048">
		<tag k="name" v="Haganesvatnet" />
		<tag k="natural" v="water" />
		<tag k="ssr:stedsnr" v="5811" />
	</node>
	<node id="-476423" lat="60.2801887891" lon="5.02501617485">
		<tag k="name" v="Vassenden" />
		<tag k="natural" v="bay" />
		<tag k="ssr:stedsnr" v="652834" />
	</node>
	<node id="-476219" lat="60.3206138364" lon="5.09389558782">
		<tag k="name" v="Gyravatnet" />
		<tag k="natural" v="water" />
		<tag k="ssr:stedsnr" v="551791" />
	</node>
	<node id="-475908" lat="60.3141637663" lon="5.1129283793">
		<tag k="name" v="Tårnavatnet" />
		<tag k="natural" v="water" />
		<tag k="ssr:stedsnr" v="248769" />
	</node>
	<node id="-475395" lat="60.2940376331" lon="5.06130252688">
		<tag k="name" v="Kyrkjevikvatnet" />
		<tag k="natural" v="water" />
		<tag k="ssr:stedsnr" v="5424" />
	</node>
	<node id="-474882" lat="60.3528166702" lon="5.07200000073">
		<tag k="name" v="Store Måsholmen" />
		<tag k="place" v="islet" />
		<tag k="ssr:stedsnr" v="288478" />
	</node>
	<node id="-475392" lat="60.3615944439" lon="5.01140833185">
		<tag k="name" v="Fjæreidvatnet" />
		<tag k="natural" v="water" />
		<tag k="ssr:stedsnr" v="5337" />
	</node>
	<node id="-475391" lat="60.3494846665" lon="4.94642399858">
		<tag k="name" v="Storavatnet" />
		<tag k="natural" v="water" />
		<tag k="ssr:stedsnr" v="5329" />
	</node>
	<node id="-476413" lat="60.3308222249" lon="5.11261667458">
		<tag k="name" v="Svartebekken" />
		<tag k="ssr:stedsnr" v="652571" />
		<tag k="waterway" v="stream" />
	</node>
	<node id="-476921" lat="60.4349611076" lon="4.9748500087">
		<tag k="name" v="Pollsvatnet" />
		<tag k="natural" v="water" />
		<tag k="ssr:stedsnr" v="955343" />
		<tag k="water" v="lake" />
	</node>
	<node id="-476920" lat="60.4432972259" lon="4.97709167324">
		<tag k="name" v="Nordra Sandvatnet" />
		<tag k="natural" v="water" />
		<tag k="ssr:stedsnr" v="955331" />
		<tag k="water" v="lake" />
	</node>
	<node id="-474869" lat="60.4387194451" lon="4.9792666681">
		<tag k="name" v="Søra Sandvatnet" />
		<tag k="natural" v="water" />
		<tag k="ssr:stedsnr" v="288343" />
		<tag k="water" v="lake" />
	</node>
	<node id="-475892" lat="60.3950420046" lon="5.02796250612">
		<tag k="name" v="Haggardsvatnet" />
		<tag k="natural" v="water" />
		<tag k="ssr:stedsnr" v="248310" />
	</node>
	<node id="-475379" lat="60.3326872802" lon="5.02916844001">
		<tag k="name" v="Tårnavatnet" />
		<tag k="natural" v="water" />
		<tag k="ssr:stedsnr" v="5253" />
	</node>
	<node id="-476115" lat="60.4086547455" lon="4.98870982903">
		<tag k="name" v="Angeltveitvatnet" />
		<tag k="natural" v="water" />
		<tag k="ssr:stedsnr" v="530363" />
		<tag k="water" v="lake" />
	</node>
	<node id="-476397" lat="60.3472916642" lon="4.96071666168">
		<tag k="name" v="Storevardstjørna" />
		<tag k="natural" v="water" />
		<tag k="ssr:stedsnr" v="652392" />
	</node>
	<node id="-476396" lat="60.350088887" lon="4.95630555804">
		<tag k="name" v="Vågsvatnet" />
		<tag k="natural" v="water" />
		<tag k="ssr:stedsnr" v="652391" />
		<tag k="water" v="lake" />
	</node>
	<node id="-476901" lat="60.2602861085" lon="5.03861388026">
		<tag k="name" v="Lulene" />
		<tag k="place" v="locality" />
		<tag k="ssr:stedsnr" v="916492" />
	</node>
	<node id="-476900" lat="60.3598140418" lon="5.02347421763">
		<tag k="name" v="Klovavatnet" />
		<tag k="natural" v="water" />
		<tag k="ssr:stedsnr" v="916375" />
	</node>
	<node id="-475875" lat="60.2643177246" lon="5.0354221382">
		<tag k="name" v="Isbragdtjørna" />
		<tag k="natural" v="water" />
		<tag k="ssr:stedsnr" v="228878" />
	</node>
	<node id="-476896" lat="60.3523555728" lon="5.07332780505">
		<tag k="name" v="Storavatnet" />
		<tag k="natural" v="water" />
		<tag k="ssr:stedsnr" v="916287" />
		<tag k="water" v="lake" />
	</node>
	<node id="-476894" lat="60.3406161412" lon="5.0702745084">
		<tag k="alt_name" v="Kvernavatnet" />
		<tag k="name" v="Eidesvatnet" />
		<tag k="natural" v="water" />
		<tag k="ssr:stedsnr" v="916278" />
	</node>
	<node id="-476893" lat="60.3405829747" lon="5.06224368586">
		<tag k="name" v="Midtvatnet" />
		<tag k="natural" v="water" />
		<tag k="ssr:stedsnr" v="916279" />
	</node>
	<node id="-476378" lat="60.3572305522" lon="5.14508333482">
		<tag k="name" v="Nordra Skorpeneset" />
		<tag k="natural" v="cape" />
		<tag k="ssr:stedsnr" v="651988" />
	</node>
	<node id="-476889" lat="60.3358169185" lon="5.02900667731">
		<tag k="name" v="Nordsta Rotavatnet" />
		<tag k="natural" v="water" />
		<tag k="ssr:stedsnr" v="916263" />
	</node>
	<node id="-475864" lat="60.3584000009" lon="5.06693054915">
		<tag k="name" v="Nordravatnet" />
		<tag k="natural" v="water" />
		<tag k="ssr:stedsnr" v="228581" />
		<tag k="water" v="lake" />
	</node>
	<node id="-475863" lat="60.3468666678" lon="5.10178611401">
		<tag k="name" v="Kvernelva" />
		<tag k="ssr:stedsnr" v="228576" />
		<tag k="waterway" v="river" />
	</node>
	<node id="-475861" lat="60.3631527744" lon="4.98688055656">
		<tag k="name" v="Skjenevatnet" />
		<tag k="natural" v="water" />
		<tag k="ssr:stedsnr" v="228461" />
		<tag k="water" v="lake" />
	</node>
	<node id="-476884" lat="60.4273314213" lon="4.97849550506">
		<tag k="name" v="Fuglavatnet" />
		<tag k="natural" v="water" />
		<tag k="ssr:stedsnr" v="916166" />
	</node>
	<node id="-475598" lat="60.3219611111" lon="5.05548055398">
		<tag k="name" v="Krokavatnet" />
		<tag k="natural" v="water" />
		<tag k="ssr:stedsnr" v="106679" />
		<tag k="water" v="lake" />
	</node>
	<node id="-476877" lat="60.2927702388" lon="5.07751529447">
		<tag k="name" v="Dalavatnet" />
		<tag k="natural" v="water" />
		<tag k="ssr:stedsnr" v="915423" />
	</node>
	<node id="-476872" lat="60.4066089838" lon="5.01147449096">
		<tag k="name" v="Kvernavatnet" />
		<tag k="natural" v="water" />
		<tag k="ssr:stedsnr" v="915316" />
	</node>
	<node id="-475603" lat="60.3482238157" lon="5.01988938616">
		<tag k="name" v="Skarvatjørna" />
		<tag k="natural" v="water" />
		<tag k="ssr:stedsnr" v="106735" />
	</node>
	<node id="-475509" lat="60.3428945786" lon="5.05323437999">
		<tag k="name" v="Tjørnasteinsvatnet" />
		<tag k="natural" v="water" />
		<tag k="ssr:stedsnr" v="66264" />
	</node>
	<node id="-475324" lat="60.357283337" lon="5.14213889333">
		<tag k="name" v="Vestra Arefjordvatnet" />
		<tag k="natural" v="water" />
		<tag k="ssr:stedsnr" v="895973" />
		<tag k="water" v="lake" />
	</node>
	<node id="-475835" lat="60.353137299" lon="5.05089018525">
		<tag k="name" v="Hatlevatnet" />
		<tag k="natural" v="water" />
		<tag k="ssr:stedsnr" v="227746" />
	</node>
	<node id="-475321" lat="60.3804625359" lon="5.0932040954">
		<tag k="name" v="Tjørna" />
		<tag k="natural" v="water" />
		<tag k="ssr:stedsnr" v="895955" />
	</node>
	<node id="-475827" lat="60.3175805554" lon="5.1111722281">
		<tag k="name" v="Pyttavatnet" />
		<tag k="natural" v="water" />
		<tag k="ssr:stedsnr" v="227644" />
		<tag k="water" v="lake" />
	</node>
	<node id="-475824" lat="60.4004694407" lon="5.00282500001">
		<tag k="name" v="Vardakleivvatnet" />
		<tag k="natural" v="water" />
		<tag k="ssr:stedsnr" v="227462" />
		<tag k="water" v="lake" />
	</node>
	<node id="-476216" lat="60.2989583332" lon="5.09091667321">
		<tag k="name" v="Kvernavatnet" />
		<tag k="natural" v="water" />
		<tag k="ssr:stedsnr" v="551448" />
	</node>
	<node id="-475301" lat="60.351797222" lon="5.03536388898">
		<tag k="name" v="Svehaugvatnet" />
		<tag k="natural" v="water" />
		<tag k="ssr:stedsnr" v="895740" />
		<tag k="water" v="lake" />
	</node>
	<node id="-476324" lat="60.3011983229" lon="5.06530163208">
		<tag k="name" v="Bjørnavågtjørna" />
		<tag k="natural" v="water" />
		<tag k="ssr:stedsnr" v="611466" />
	</node>
	<node id="-475298" lat="60.2892972192" lon="5.04425000002">
		<tag k="name" v="Bekkjarviktjørna" />
		<tag k="natural" v="water" />
		<tag k="ssr:stedsnr" v="895671" />
		<tag k="water" v="lake" />
	</node>
	<node id="-475653" lat="60.3858378332" lon="5.11339157516">
		<tag k="name" v="Storavatnet" />
		<tag k="natural" v="water" />
		<tag k="ssr:stedsnr" v="127709" />
	</node>
	<node id="-476832" lat="60.3669083354" lon="4.98926666073">
		<tag k="name" v="Møyvatnet" />
		<tag k="natural" v="water" />
		<tag k="ssr:stedsnr" v="855350" />
	</node>
	<node id="-476319" lat="60.3976250021" lon="4.99778333219">
		<tag k="alt_name" v="Skulevatnet" />
		<tag k="name" v="Skulehusvatnet" />
		<tag k="natural" v="water" />
		<tag k="ssr:stedsnr" v="611326" />
	</node>
	<node id="-476318" lat="60.3242333838" lon="5.09094239407">
		<tag k="name" v="Buskevatnet" />
		<tag k="natural" v="water" />
		<tag k="ssr:stedsnr" v="611288" />
	</node>
	<node id="-476317" lat="60.3181899325" lon="5.02957886947">
		<tag k="name" v="Langatjørna" />
		<tag k="natural" v="water" />
		<tag k="ssr:stedsnr" v="611285" />
	</node>
	<node id="-476316" lat="60.3181499992" lon="5.04364999282">
		<tag k="name" v="Ulvesetvatnet" />
		<tag k="natural" v="water" />
		<tag k="ssr:stedsnr" v="611281" />
		<tag k="water" v="lake" />
	</node>
	<node id="-476315" lat="60.3113763211" lon="5.01658962918">
		<tag k="name" v="Åsvatnet" />
		<tag k="natural" v="water" />
		<tag k="ssr:stedsnr" v="611279" />
	</node>
	<node id="-476305" lat="60.3847000035" lon="5.0144166702">
		<tag k="name" v="Stegavatnet" />
		<tag k="natural" v="water" />
		<tag k="ssr:stedsnr" v="591915" />
		<tag k="water" v="lake" />
	</node>
	<node id="-476723" lat="60.2887996509" lon="5.02777284956">
		<tag k="name" v="Langavatnet" />
		<tag k="natural" v="water" />
		<tag k="ssr:stedsnr" v="794427" />
	</node>
	<node id="-476813" lat="60.2733638869" lon="5.03797221405">
		<tag k="name" v="Lonane" />
		<tag k="natural" v="water" />
		<tag k="ssr:stedsnr" v="835861" />
		<tag k="water" v="lake" />
	</node>
	<node id="-476641" lat="60.4390472189" lon="4.9752777821">
		<tag k="name" v="Søra Tytesvatnet" />
		<tag k="natural" v="water" />
		<tag k="ssr:stedsnr" v="773357" />
		<tag k="water" v="lake" />
	</node>
	<node id="-476806" lat="60.3262833337" lon="5.05583055722">
		<tag k="name" v="Hestabekkane" />
		<tag k="ssr:stedsnr" v="835633" />
		<tag k="waterway" v="stream" />
	</node>
	<node id="-476890" lat="60.3375722672" lon="5.06554694054">
		<tag k="name" v="Liavatnet" />
		<tag k="natural" v="water" />
		<tag k="ssr:stedsnr" v="916268" />
	</node>
	<node id="-475263" lat="60.3868554444" lon="4.99706609884">
		<tag k="name" v="Træstjørna" />
		<tag k="natural" v="water" />
		<tag k="ssr:stedsnr" v="895284" />
	</node>
	<node id="-475262" lat="60.3785047996" lon="4.98400273272">
		<tag k="name" v="Bakkatjørna" />
		<tag k="natural" v="water" />
		<tag k="ssr:stedsnr" v="895283" />
	</node>
	<node id="-476285" lat="60.3444220946" lon="5.02911330208">
		<tag k="name" v="Tjuvaneset" />
		<tag k="natural" v="cape" />
		<tag k="ssr:stedsnr" v="591527" />
	</node>
	<node id="-475772" lat="60.376165629" lon="5.14319651106">
		<tag k="fixme" v="multiple name tags, choose one and add the other to alt_name" />
		<tag k="name" v="Magnusvatnet;Odavatnet" />
		<tag k="natural" v="water" />
		<tag k="ssr:stedsnr" v="188689" />
	</node>
	<node id="-476281" lat="60.3570138931" lon="4.9987805499">
		<tag k="name" v="Kassvikelva" />
		<tag k="ssr:stedsnr" v="591411" />
		<tag k="waterway" v="river" />
	</node>
	<node id="-476792" lat="60.3503944425" lon="4.993622225">
		<tag k="name" v="Sekkingstadtjørna" />
		<tag k="natural" v="water" />
		<tag k="ssr:stedsnr" v="835468" />
	</node>
	<node id="-476787" lat="60.3191194457" lon="5.16934444603">
		<tag k="name" v="Hellervatnet" />
		<tag k="natural" v="water" />
		<tag k="ssr:stedsnr" v="835363" />
		<tag k="water" v="lake" />
	</node>
	<node id="-475762" lat="60.2837202366" lon="5.03756660473">
		<tag k="name" v="Sjoartjørna" />
		<tag k="natural" v="water" />
		<tag k="ssr:stedsnr" v="187424" />
	</node>
	<node id="-476271" lat="60.4407527809" lon="4.9749027735">
		<tag k="name" v="Nordra Tytesvatnet" />
		<tag k="natural" v="water" />
		<tag k="ssr:stedsnr" v="591322" />
		<tag k="water" v="lake" />
	</node>
	<node id="-476782" lat="60.3549499989" lon="5.10073054992">
		<tag k="name" v="Kvernavatnet" />
		<tag k="natural" v="water" />
		<tag k="ssr:stedsnr" v="835279" />
		<tag k="water" v="lake" />
	</node>
	<node id="-475756" lat="60.3176997046" lon="5.04831129058">
		<tag k="name" v="Svortetjørna" />
		<tag k="natural" v="water" />
		<tag k="ssr:stedsnr" v="187284" />
	</node>
	<node id="-476266" lat="60.3816722262" lon="4.99917499477">
		<tag k="name" v="Vardavatnet" />
		<tag k="natural" v="water" />
		<tag k="ssr:stedsnr" v="591273" />
		<tag k="water" v="lake" />
	</node>
	<node id="-475752" lat="60.3450357399" lon="5.02855223222">
		<tag k="name" v="Insta Skålvikvatnet" />
		<tag k="natural" v="water" />
		<tag k="ssr:stedsnr" v="187257" />
		<tag k="water" v="lake" />
	</node>
	<node id="-475750" lat="60.3412250007" lon="5.00818611055">
		<tag k="alt_name" v="Ytsta Skålvikvatnet" />
		<tag k="name" v="Litlavatnet" />
		<tag k="natural" v="water" />
		<tag k="ssr:stedsnr" v="187251" />
	</node>
	<node id="-476260" lat="60.3752638879" lon="5.1237805483">
		<tag k="name" v="Kotevatnet" />
		<tag k="natural" v="water" />
		<tag k="ssr:stedsnr" v="591230" />
		<tag k="water" v="lake" />
	</node>
	<node id="-476257" lat="60.3816638872" lon="5.14111388311">
		<tag k="name" v="Langavatnet" />
		<tag k="natural" v="water" />
		<tag k="ssr:stedsnr" v="591100" />
		<tag k="water" v="lake" />
	</node>
	<node id="-475232" lat="60.3260039378" lon="5.04465472806">
		<tag k="name" v="Lyngneset" />
		<tag k="natural" v="cape" />
		<tag k="ssr:stedsnr" v="410602" />
	</node>
	<node id="-475742" lat="60.3968083372" lon="5.071922224">
		<tag k="name" v="Vatnet" />
		<tag k="natural" v="water" />
		<tag k="ssr:stedsnr" v="167926" />
		<tag k="water" v="lake" />
	</node>
	<node id="-475229" lat="60.3626083305" lon="5.05921944746">
		<tag k="name" v="Sundet" />
		<tag k="natural" v="strait" />
		<tag k="ssr:stedsnr" v="410550" />
	</node>
	<node id="-475224" lat="60.346590851" lon="4.95639768503">
		<tag k="name" v="Maratjørna" />
		<tag k="natural" v="water" />
		<tag k="ssr:stedsnr" v="410436" />
	</node>
	<node id="-475748" lat="60.3847194403" lon="5.00848610987">
		<tag k="name" v="Krokvatnet" />
		<tag k="natural" v="water" />
		<tag k="ssr:stedsnr" v="187308" />
	</node>
	<node id="-475734" lat="60.3533258605" lon="5.01166665398">
		<tag k="name" v="Bakkatjørna" />
		<tag k="natural" v="water" />
		<tag k="ssr:stedsnr" v="167750" />
	</node>
	<node id="-476757" lat="60.3861416656" lon="5.13681389138">
		<tag k="name" v="Vassledvatnet" />
		<tag k="natural" v="water" />
		<tag k="ssr:stedsnr" v="834132" />
		<tag k="water" v="lake" />
	</node>
	<node id="-475729" lat="60.3365166675" lon="5.02213334223">
		<tag k="name" v="Skjenavatnet" />
		<tag k="natural" v="water" />
		<tag k="ssr:stedsnr" v="167597" />
		<tag k="water" v="lake" />
	</node>
	<node id="-475728" lat="60.3592111091" lon="5.05509721465">
		<tag k="name" v="Neset" />
		<tag k="natural" v="cape" />
		<tag k="ssr:stedsnr" v="167590" />
	</node>
	<node id="-475215" lat="60.3234166703" lon="5.12987777797">
		<tag k="name" v="Dalselva" />
		<tag k="ssr:stedsnr" v="410352" />
		<tag k="waterway" v="river" />
	</node>
	<node id="-475201" lat="60.3941073147" lon="5.10712600205">
		<tag k="name" v="Aretjørna" />
		<tag k="natural" v="water" />
		<tag k="ssr:stedsnr" v="409879" />
	</node>
	<node id="-475377" lat="60.4356555569" lon="5.00276110278">
		<tag k="name" v="Kvernavatnet" />
		<tag k="natural" v="water" />
		<tag k="ssr:stedsnr" v="5168" />
	</node>
	<node id="-476223" lat="60.2930798395" lon="5.11350622897">
		<tag k="name" v="Kattatjørna" />
		<tag k="natural" v="water" />
		<tag k="ssr:stedsnr" v="551863" />
	</node>
	<node id="-475198" lat="60.3633694449" lon="5.02407777896">
		<tag k="name" v="Ørjebekkvatnet" />
		<tag k="natural" v="water" />
		<tag k="ssr:stedsnr" v="409745" />
		<tag k="water" v="lake" />
	</node>
	<node id="-476733" lat="60.3553749974" lon="5.14655000265">
		<tag k="fixme" v="multiple name tags, choose one and add the other to alt_name" />
		<tag k="name" v="Arefjordvatnet;Arevatnet" />
		<tag k="natural" v="water" />
		<tag k="ssr:stedsnr" v="794739" />
		<tag k="water" v="lake" />
	</node>
	<node id="-475195" lat="60.3142527745" lon="5.09278333034">
		<tag k="name" v="Ytsta Elva" />
		<tag k="ssr:stedsnr" v="409702" />
		<tag k="waterway" v="river" />
	</node>
	<node id="-476218" lat="60.34512326" lon="5.14097488581">
		<tag k="name" v="Ebbesvikvatnet" />
		<tag k="natural" v="water" />
		<tag k="ssr:stedsnr" v="551697" />
	</node>
	<node id="-476728" lat="60.383010918" lon="5.11910807991">
		<tag k="name" v="Vågavatnet" />
		<tag k="natural" v="water" />
		<tag k="ssr:stedsnr" v="794686" />
	</node>
	<node id="-476725" lat="60.2706861066" lon="5.05608610342">
		<tag k="name" v="Botnen" />
		<tag k="natural" v="bay" />
		<tag k="ssr:stedsnr" v="794465" />
	</node>
	<node id="-476724" lat="60.2772034306" lon="5.03507357019">
		<tag k="name" v="Bøtjørna" />
		<tag k="natural" v="water" />
		<tag k="ssr:stedsnr" v="794436" />
	</node>
	<node id="-476510" lat="60.2989961182" lon="5.06593169564">
		<tag k="name" v="Grøndalstjørna" />
		<tag k="natural" v="water" />
		<tag k="ssr:stedsnr" v="712679" />
	</node>
	<node id="-475183" lat="60.4449111082" lon="4.96517499475">
		<tag k="name" v="Kvernavatnet" />
		<tag k="natural" v="water" />
		<tag k="ssr:stedsnr" v="409365" />
		<tag k="water" v="lake" />
	</node>
	<node id="-475956" lat="60.333514172" lon="4.95881762363">
		<tag k="name" v="Storavatnet" />
		<tag k="natural" v="water" />
		<tag k="ssr:stedsnr" v="431558" />
	</node>
	<node id="-475686" lat="60.3153194416" lon="5.02046944449">
		<tag k="name" v="Lonane" />
		<tag k="natural" v="water" />
		<tag k="ssr:stedsnr" v="166667" />
		<tag k="water" v="lake" />
	</node>
	<node id="-476194" lat="60.3314596464" lon="5.07155354043">
		<tag k="name" v="Kolavatnet" />
		<tag k="natural" v="water" />
		<tag k="ssr:stedsnr" v="551264" />
	</node>
	<node id="-475168" lat="60.3835277794" lon="5.14527777076">
		<tag k="name" v="Svartavatnet" />
		<tag k="natural" v="water" />
		<tag k="ssr:stedsnr" v="409148" />
		<tag k="water" v="lake" />
	</node>
	<node id="-476701" lat="60.3679999979" lon="5.03004722063">
		<tag k="name" v="Stemmevatnet" />
		<tag k="natural" v="water" />
		<tag k="ssr:stedsnr" v="774935" />
		<tag k="water" v="lake" />
	</node>
	<node id="-476696" lat="60.2749376825" lon="5.04044401405">
		<tag k="name" v="Helgetjørna" />
		<tag k="natural" v="water" />
		<tag k="ssr:stedsnr" v="774866" />
	</node>
	<node id="-476693" lat="60.3548666697" lon="5.03668333367">
		<tag k="name" v="Langedalsvatnet" />
		<tag k="natural" v="water" />
		<tag k="ssr:stedsnr" v="774750" />
		<tag k="water" v="lake" />
	</node>
	<node id="-476690" lat="60.394953154" lon="5.0108243168">
		<tag k="name" v="Setretjørna" />
		<tag k="natural" v="water" />
		<tag k="ssr:stedsnr" v="774674" />
	</node>
	<node id="-476176" lat="60.2677444482" lon="5.04691111347">
		<tag k="name" v="Skinkevatnet" />
		<tag k="natural" v="water" />
		<tag k="ssr:stedsnr" v="531895" />
		<tag k="water" v="lake" />
	</node>
	<node id="-475565" lat="60.2804182401" lon="5.04452869208">
		<tag k="name" v="Skadtjørna" />
		<tag k="natural" v="water" />
		<tag k="ssr:stedsnr" v="106351" />
	</node>
	<node id="-476684" lat="60.3637694413" lon="5.05728056075">
		<tag k="name" v="Knappskogvika" />
		<tag k="natural" v="bay" />
		<tag k="ssr:stedsnr" v="774593" />
	</node>
	<node id="-476683" lat="60.3486333333" lon="5.07257221672">
		<tag k="name" v="Søre Vassenden" />
		<tag k="natural" v="bay" />
		<tag k="ssr:stedsnr" v="774578" />
	</node>
	<node id="-476682" lat="60.3505444418" lon="5.07559443729">
		<tag k="name" v="Beinastaden" />
		<tag k="natural" v="cape" />
		<tag k="ssr:stedsnr" v="774575" />
	</node>
	<node id="-475735" lat="60.350240699" lon="5.01879579036">
		<tag k="name" v="Djupedalstjørna" />
		<tag k="natural" v="water" />
		<tag k="ssr:stedsnr" v="167749" />
	</node>
	<node id="-476166" lat="60.334233334" lon="5.05170000133">
		<tag k="name" v="Kvernavatnet" />
		<tag k="natural" v="water" />
		<tag k="ssr:stedsnr" v="531595" />
		<tag k="water" v="lake" />
	</node>
	<node id="-476165" lat="60.3319458319" lon="5.05921974604">
		<tag k="name" v="Furhaugtjørna" />
		<tag k="natural" v="water" />
		<tag k="ssr:stedsnr" v="531586" />
	</node>
	<node id="-475652" lat="60.381436983" lon="5.12595598005">
		<tag k="name" v="Botnavatnet" />
		<tag k="natural" v="water" />
		<tag k="ssr:stedsnr" v="127706" />
	</node>
</osm>
