<?xml version="1.0" encoding="UTF-8"?>
<osm generator="osmapis" version="0.6">
	<node id="-397309" lat="61.026594443" lon="9.47336944902">
		<tag k="name" v="Baklibekken" />
		<tag k="ssr:stedsnr" v="540126" />
		<tag k="waterway" v="stream" />
	</node>
	<node id="-397308" lat="61.0274694489" lon="9.48720556148">
		<tag k="name" v="Kvednaføssen" />
		<tag k="ssr:stedsnr" v="540101" />
		<tag k="waterway" v="rapids" />
	</node>
	<node id="-397304" lat="61.0527027783" lon="9.70068888675">
		<tag k="name" v="Bjødnahallputten" />
		<tag k="natural" v="water" />
		<tag k="ssr:stedsnr" v="539926" />
	</node>
	<node id="-397302" lat="60.8579972232" lon="9.73133889507">
		<tag k="name" v="Rusestrande" />
		<tag k="natural" v="beach" />
		<tag k="ssr:stedsnr" v="539745" />
	</node>
	<node id="-397290" lat="60.9580472192" lon="9.75186110773">
		<tag k="name" v="Garaoset" />
		<tag k="natural" v="bay" />
		<tag k="ssr:stedsnr" v="539633" />
	</node>
	<node id="-397286" lat="61.0743583297" lon="9.65967222384">
		<tag k="name" v="Hafsennbekken" />
		<tag k="ssr:stedsnr" v="539142" />
		<tag k="waterway" v="stream" />
	</node>
	<node id="-397285" lat="60.9826222213" lon="9.72725277358">
		<tag k="name" v="Griseputten" />
		<tag k="natural" v="water" />
		<tag k="ssr:stedsnr" v="539138" />
	</node>
	<node id="-397282" lat="60.8448361099" lon="9.71598610456">
		<tag k="name" v="Dølstogobekken" />
		<tag k="ssr:stedsnr" v="539096" />
		<tag k="waterway" v="stream" />
	</node>
	<node id="-397279" lat="60.8823527792" lon="9.70489166246">
		<tag k="name" v="Øygardsbekken" />
		<tag k="ssr:stedsnr" v="539448" />
		<tag k="waterway" v="stream" />
	</node>
	<node id="-397278" lat="61.0450611068" lon="9.64489722921">
		<tag k="name" v="Astriddalsbekken" />
		<tag k="ssr:stedsnr" v="538902" />
		<tag k="waterway" v="stream" />
	</node>
	<node id="-397277" lat="60.9559000013" lon="9.57093334063">
		<tag k="name" v="Åkroken" />
		<tag k="natural" v="water" />
		<tag k="ssr:stedsnr" v="538983" />
		<tag k="water" v="lake" />
	</node>
	<node id="-397275" lat="60.8738222187" lon="9.59370555747">
		<tag k="alt_name" v="Gørrtjednputten" />
		<tag k="name" v="Gørrtjernputten" />
		<tag k="natural" v="water" />
		<tag k="ssr:stedsnr" v="538838" />
		<tag k="water" v="pond" />
	</node>
	<node id="-397271" lat="61.088411922" lon="9.60117106415">
		<tag k="alt_name" v="Nørre Svartetjednet" />
		<tag k="name" v="Nørdre Svartetjernet" />
		<tag k="natural" v="water" />
		<tag k="ssr:stedsnr" v="538453" />
		<tag k="water" v="lake" />
	</node>
	<node id="-397270" lat="60.8985749959" lon="9.65002777531">
		<tag k="name" v="Torshaugputtan" />
		<tag k="natural" v="water" />
		<tag k="ssr:stedsnr" v="538451" />
		<tag k="water" v="pond" />
	</node>
	<node id="-397263" lat="61.0809833338" lon="9.61378055244">
		<tag k="name" v="Åfeta" />
		<tag k="ssr:stedsnr" v="538080" />
		<tag k="waterway" v="river" />
	</node>
	<node id="-397252" lat="60.9254527814" lon="9.77237500081">
		<tag k="alt_name" v="Sottjednet" />
		<tag k="name" v="Sottjernet" />
		<tag k="natural" v="water" />
		<tag k="ssr:stedsnr" v="434883" />
	</node>
	<node id="-397244" lat="60.842616667" lon="9.61762777867">
		<tag k="alt_name" v="Nystøltjednet" />
		<tag k="name" v="Nystølvatnet" />
		<tag k="natural" v="water" />
		<tag k="ssr:stedsnr" v="433050" />
	</node>
	<node id="-397235" lat="61.0747055524" lon="9.68718054787">
		<tag k="alt_name" v="Storfjorden" />
		<tag k="name" v="Hafsenn" />
		<tag k="natural" v="water" />
		<tag k="ssr:stedsnr" v="432657" />
		<tag k="water" v="lake" />
	</node>
	<node id="-397233" lat="61.0257198686" lon="9.6918036444">
		<tag k="alt_name" v="Langtjednet" />
		<tag k="name" v="Langtjernet" />
		<tag k="natural" v="water" />
		<tag k="ssr:stedsnr" v="432295" />
	</node>
	<node id="-397229" lat="61.020602775" lon="9.5181277761">
		<tag k="name" v="Dalselve" />
		<tag k="ssr:stedsnr" v="421650" />
		<tag k="waterway" v="river" />
	</node>
	<node id="-397222" lat="60.823755555" lon="9.75170555866">
		<tag k="name" v="Mebenda" />
		<tag k="ssr:stedsnr" v="419565" />
		<tag k="waterway" v="stream" />
	</node>
	<node id="-397218" lat="61.0397166669" lon="9.53238055749">
		<tag k="name" v="Perstølputten" />
		<tag k="natural" v="water" />
		<tag k="ssr:stedsnr" v="419152" />
	</node>
	<node id="-397213" lat="60.8738111074" lon="9.59981943744">
		<tag k="alt_name" v="Gørrtjednet" />
		<tag k="name" v="Gørrtjernet" />
		<tag k="natural" v="water" />
		<tag k="ssr:stedsnr" v="418943" />
	</node>
	<node id="-397212" lat="60.9212805531" lon="9.77405000696">
		<tag k="name" v="Dalsputten" />
		<tag k="natural" v="water" />
		<tag k="ssr:stedsnr" v="418796" />
		<tag k="water" v="pond" />
	</node>
	<node id="-397210" lat="60.9546888909" lon="9.70181944303">
		<tag k="name" v="Krokmyrøddin" />
		<tag k="natural" v="cape" />
		<tag k="ssr:stedsnr" v="418789" />
	</node>
	<node id="-397209" lat="60.8419305514" lon="9.73518610275">
		<tag k="name" v="Plassebekken" />
		<tag k="ssr:stedsnr" v="418782" />
		<tag k="waterway" v="stream" />
	</node>
	<node id="-397208" lat="60.9317583305" lon="9.66312221584">
		<tag k="name" v="Skreodalsputten" />
		<tag k="natural" v="water" />
		<tag k="ssr:stedsnr" v="418734" />
		<tag k="water" v="pond" />
	</node>
	<node id="-397205" lat="60.9205277817" lon="9.71524999543">
		<tag k="name" v="Bjødndalsputten" />
		<tag k="natural" v="water" />
		<tag k="ssr:stedsnr" v="418661" />
	</node>
	<node id="-397204" lat="60.9242722202" lon="9.71671666022">
		<tag k="name" v="Langberget" />
		<tag k="natural" v="water" />
		<tag k="ssr:stedsnr" v="418655" />
	</node>
	<node id="-397194" lat="61.0741138869" lon="9.51755555164">
		<tag k="name" v="Etna" />
		<tag k="ssr:stedsnr" v="418372" />
		<tag k="waterway" v="river" />
	</node>
	<node id="-397190" lat="61.000338891" lon="9.67814166331">
		<tag k="name" v="Røvsholbekken" />
		<tag k="ssr:stedsnr" v="418344" />
		<tag k="waterway" v="stream" />
	</node>
	<node id="-395585" lat="60.9784555584" lon="9.76300277742">
		<tag k="name" v="Svilleoset" />
		<tag k="natural" v="bay" />
		<tag k="ssr:stedsnr" v="54173" />
	</node>
	<node id="-397185" lat="61.0723305521" lon="9.6718055512">
		<tag k="name" v="Hafsennsundet" />
		<tag k="natural" v="strait" />
		<tag k="ssr:stedsnr" v="418172" />
	</node>
	<node id="-397179" lat="60.8468027755" lon="9.66717500195">
		<tag k="name" v="Øvre Gråndalsvatnet" />
		<tag k="natural" v="water" />
		<tag k="ssr:stedsnr" v="418126" />
	</node>
	<node id="-397177" lat="60.9315444425" lon="9.72195555759">
		<tag k="name" v="Høddntjennbekken" />
		<tag k="ssr:stedsnr" v="418070" />
		<tag k="waterway" v="stream" />
	</node>
	<node id="-397175" lat="61.0274416653" lon="9.67518610471">
		<tag k="name" v="Hølmyrbekken" />
		<tag k="ssr:stedsnr" v="418285" />
		<tag k="waterway" v="stream" />
	</node>
	<node id="-397174" lat="61.0317916623" lon="9.64871944897">
		<tag k="alt_name" v="Skotjednbekken" />
		<tag k="name" v="Skotjernbekken" />
		<tag k="ssr:stedsnr" v="418249" />
		<tag k="waterway" v="stream" />
	</node>
	<node id="-397172" lat="60.9540027788" lon="9.58016944154">
		<tag k="name" v="Vesle Åkroken" />
		<tag k="natural" v="water" />
		<tag k="ssr:stedsnr" v="417982" />
		<tag k="water" v="lake" />
	</node>
	<node id="-397165" lat="60.9326999988" lon="9.62958054765">
		<tag k="name" v="Etna" />
		<tag k="ssr:stedsnr" v="417741" />
		<tag k="waterway" v="river" />
	</node>
	<node id="-397163" lat="60.9075388904" lon="9.67812499515">
		<tag k="name" v="Byfelibekken" />
		<tag k="ssr:stedsnr" v="417571" />
		<tag k="waterway" v="stream" />
	</node>
	<node id="-397159" lat="60.9039944484" lon="9.63010000436">
		<tag k="name" v="Gøttenbørgsbekken" />
		<tag k="ssr:stedsnr" v="417452" />
		<tag k="waterway" v="stream" />
	</node>
	<node id="-397147" lat="61.0313694451" lon="9.71942777149">
		<tag k="name" v="Brennaelve" />
		<tag k="ssr:stedsnr" v="417256" />
		<tag k="waterway" v="river" />
	</node>
	<node id="-397145" lat="60.9941111076" lon="9.64079444225">
		<tag k="name" v="Åfeta" />
		<tag k="ssr:stedsnr" v="416284" />
		<tag k="waterway" v="river" />
	</node>
	<node id="-397142" lat="60.9629179057" lon="9.59791425494">
		<tag k="alt_name" v="Karussputten;Karrusputten" />
		<tag k="name" v="Karusputten" />
		<tag k="natural" v="water" />
		<tag k="ssr:stedsnr" v="373951" />
	</node>
	<node id="-395577" lat="60.9352972208" lon="9.69812499628">
		<tag k="alt_name" v="Holotjednet" />
		<tag k="name" v="Holotjernet" />
		<tag k="natural" v="water" />
		<tag k="ssr:stedsnr" v="54209" />
	</node>
	<node id="-397138" lat="60.9835305554" lon="9.74825000727">
		<tag k="name" v="Løken" />
		<tag k="ssr:stedsnr" v="373987" />
		<tag k="waterway" v="stream" />
	</node>
	<node id="-397127" lat="60.8500777747" lon="9.68776111158">
		<tag k="name" v="Svartevatnet" />
		<tag k="natural" v="water" />
		<tag k="ssr:stedsnr" v="373049" />
	</node>
	<node id="-397119" lat="60.9016500007" lon="9.72697500282">
		<tag k="alt_name" v="Andtjednet" />
		<tag k="name" v="Andtjernet" />
		<tag k="natural" v="water" />
		<tag k="ssr:stedsnr" v="372079" />
	</node>
	<node id="-397116" lat="61.0557611149" lon="9.67493611957">
		<tag k="alt_name" v="Ukseputten" />
		<tag k="name" v="Okseputten" />
		<tag k="natural" v="water" />
		<tag k="ssr:stedsnr" v="371630" />
	</node>
	<node id="-397109" lat="61.0802861155" lon="9.51433888009">
		<tag k="name" v="Etna" />
		<tag k="ssr:stedsnr" v="358795" />
		<tag k="waterway" v="river" />
	</node>
	<node id="-397108" lat="60.8336386911" lon="9.76345472062">
		<tag k="alt_name" v="Øystogotjednet" />
		<tag k="name" v="Øystogotjernet" />
		<tag k="natural" v="water" />
		<tag k="ssr:stedsnr" v="358641" />
	</node>
	<node id="-397101" lat="61.0401666649" lon="9.46105555074">
		<tag k="name" v="Haugafjorden" />
		<tag k="natural" v="water" />
		<tag k="ssr:stedsnr" v="358279" />
	</node>
	<node id="-397098" lat="60.880002774" lon="9.60303056153">
		<tag k="name" v="Hestekindbekken" />
		<tag k="ssr:stedsnr" v="357894" />
		<tag k="waterway" v="stream" />
	</node>
	<node id="-397095" lat="61.0871611138" lon="9.50790555325">
		<tag k="name" v="Etna" />
		<tag k="ssr:stedsnr" v="357696" />
		<tag k="waterway" v="river" />
	</node>
	<node id="-397092" lat="60.8326249967" lon="9.75376945053">
		<tag k="name" v="Etna" />
		<tag k="ssr:stedsnr" v="357585" />
		<tag k="waterway" v="river" />
	</node>
	<node id="-397090" lat="60.8789805515" lon="9.69737499436">
		<tag k="name" v="Vollsbekken" />
		<tag k="ssr:stedsnr" v="357460" />
		<tag k="waterway" v="stream" />
	</node>
	<node id="-397076" lat="61.0192638883" lon="9.62668610751">
		<tag k="name" v="Kloppskålbekken" />
		<tag k="ssr:stedsnr" v="357265" />
		<tag k="waterway" v="stream" />
	</node>
	<node id="-397074" lat="61.0311333361" lon="9.64370832523">
		<tag k="alt_name" v="Vølltjednbekken" />
		<tag k="name" v="Volltjernbekken" />
		<tag k="ssr:stedsnr" v="357260" />
		<tag k="waterway" v="stream" />
	</node>
	<node id="-397067" lat="61.0722388848" lon="9.71596389504">
		<tag k="name" v="Brennelve" />
		<tag k="ssr:stedsnr" v="357170" />
		<tag k="waterway" v="river" />
	</node>
	<node id="-397065" lat="60.9780805585" lon="9.75634166311">
		<tag k="name" v="Svillesundet" />
		<tag k="natural" v="strait" />
		<tag k="ssr:stedsnr" v="357165" />
	</node>
	<node id="-397062" lat="60.8849638911" lon="9.76580000709">
		<tag k="alt_name" v="Furuskåltjednet" />
		<tag k="name" v="Furuskåltjernet" />
		<tag k="natural" v="water" />
		<tag k="ssr:stedsnr" v="357078" />
	</node>
	<node id="-397059" lat="60.9232833296" lon="9.59137777461">
		<tag k="alt_name" v="Urdtjednbekken" />
		<tag k="name" v="Urdtjernbekken" />
		<tag k="ssr:stedsnr" v="356968" />
		<tag k="waterway" v="stream" />
	</node>
	<node id="-397052" lat="60.917613888" lon="9.57799445148">
		<tag k="name" v="Puttan" />
		<tag k="natural" v="water" />
		<tag k="ssr:stedsnr" v="356800" />
		<tag k="water" v="pond" />
	</node>
	<node id="-397049" lat="60.9146222263" lon="9.68207222536">
		<tag k="alt_name" v="Damtjednbekken" />
		<tag k="name" v="Damtjernbekken" />
		<tag k="ssr:stedsnr" v="356556" />
		<tag k="waterway" v="stream" />
	</node>
	<node id="-397040" lat="60.9993861104" lon="9.76713055441">
		<tag k="name" v="Breistølbekken" />
		<tag k="ssr:stedsnr" v="356473" />
		<tag k="waterway" v="stream" />
	</node>
	<node id="-397037" lat="61.0606638894" lon="9.61229445031">
		<tag k="name" v="Hukagrelputten" />
		<tag k="natural" v="water" />
		<tag k="ssr:stedsnr" v="356262" />
		<tag k="water" v="pond" />
	</node>
	<node id="-397036" lat="61.0101527742" lon="9.64696389684">
		<tag k="name" v="Åfeta" />
		<tag k="ssr:stedsnr" v="356240" />
		<tag k="waterway" v="river" />
	</node>
	<node id="-397032" lat="60.8723972257" lon="9.70800556405">
		<tag k="name" v="Andøye" />
		<tag k="place" v="island" />
		<tag k="ssr:stedsnr" v="357828" />
	</node>
	<node id="-397029" lat="60.9364409324" lon="9.66809965793">
		<tag k="alt_name" v="Holmetjednputten" />
		<tag k="name" v="Holmetjernputten" />
		<tag k="natural" v="water" />
		<tag k="ssr:stedsnr" v="357738" />
	</node>
	<node id="-397027" lat="60.8996611141" lon="9.54239167175">
		<tag k="name" v="Rotvasselve" />
		<tag k="ssr:stedsnr" v="357723" />
		<tag k="waterway" v="river" />
	</node>
	<node id="-397026" lat="60.9564527739" lon="9.72805832789">
		<tag k="name" v="Storøysundet" />
		<tag k="natural" v="strait" />
		<tag k="ssr:stedsnr" v="357630" />
	</node>
	<node id="-397023" lat="61.0095972223" lon="9.53600000311">
		<tag k="name" v="Dalselve" />
		<tag k="ssr:stedsnr" v="355319" />
		<tag k="waterway" v="river" />
	</node>
	<node id="-397019" lat="61.0065611091" lon="9.60054444229">
		<tag k="name" v="Langedalsbekken" />
		<tag k="ssr:stedsnr" v="355205" />
		<tag k="waterway" v="stream" />
	</node>
	<node id="-397018" lat="61.0609416696" lon="9.39572499394">
		<tag k="name" v="Stavsengelve" />
		<tag k="ssr:stedsnr" v="342766" />
		<tag k="waterway" v="river" />
	</node>
	<node id="-397014" lat="60.9288277792" lon="9.6711222178">
		<tag k="alt_name" v="Svarteputten" />
		<tag k="name" v="Svartputten" />
		<tag k="natural" v="water" />
		<tag k="ssr:stedsnr" v="313900" />
	</node>
	<node id="-397011" lat="60.9105120915" lon="9.5606877251">
		<tag k="alt_name" v="Damtjednet" />
		<tag k="name" v="Damtjernet" />
		<tag k="natural" v="water" />
		<tag k="ssr:stedsnr" v="313739" />
	</node>
	<node id="-397006" lat="60.8838638876" lon="9.55144166882">
		<tag k="alt_name" v="Bergetjednet" />
		<tag k="name" v="Bergatjernet" />
		<tag k="natural" v="water" />
		<tag k="ssr:stedsnr" v="312672" />
	</node>
	<node id="-396999" lat="61.0967638875" lon="9.61328333226">
		<tag k="name" v="Slaveritjernet" />
		<tag k="natural" v="water" />
		<tag k="ssr:stedsnr" v="311713" />
	</node>
	<node id="-396998" lat="61.1068638866" lon="9.62053611887">
		<tag k="alt_name" v="Elgtjednet" />
		<tag k="name" v="Elgtjernet" />
		<tag k="natural" v="water" />
		<tag k="ssr:stedsnr" v="311700" />
	</node>
	<node id="-396994" lat="60.9662138934" lon="9.53414166771">
		<tag k="name" v="Tvillingatn" />
		<tag k="natural" v="water" />
		<tag k="ssr:stedsnr" v="311586" />
	</node>
	<node id="-396991" lat="61.0298944489" lon="9.68883889233">
		<tag k="alt_name" v="Gamlestøltjednet" />
		<tag k="name" v="Gamlestøltjernet" />
		<tag k="natural" v="water" />
		<tag k="ssr:stedsnr" v="311400" />
	</node>
	<node id="-396989" lat="60.8990111133" lon="9.73469166087">
		<tag k="alt_name" v="Kroktjednet" />
		<tag k="name" v="Kroktjern" />
		<tag k="natural" v="water" />
		<tag k="ssr:stedsnr" v="311079" />
	</node>
	<node id="-396987" lat="60.8477361136" lon="9.77885833175">
		<tag k="alt_name" v="Bjødnaskarvatnet" />
		<tag k="loc_name" v="Bjørnaskardvatnet" />
		<tag k="name" v="Bjørnskardvatnet" />
		<tag k="natural" v="water" />
		<tag k="ssr:stedsnr" v="311066" />
	</node>
	<node id="-396986" lat="60.8419764177" lon="9.65779882754">
		<tag k="name" v="Bergavatni" />
		<tag k="natural" v="water" />
		<tag k="ssr:stedsnr" v="311052" />
		<tag k="water" v="lake" />
	</node>
	<node id="-395551" lat="60.8974472257" lon="9.55713610619">
		<tag k="name" v="Risgardsvike" />
		<tag k="natural" v="bay" />
		<tag k="ssr:stedsnr" v="53004" />
	</node>
	<node id="-396984" lat="61.0730472246" lon="9.57682221357">
		<tag k="alt_name" v="Rotvella" />
		<tag k="name" v="Rotvolla" />
		<tag k="ssr:stedsnr" v="310874" />
		<tag k="waterway" v="river" />
	</node>
	<node id="-396978" lat="61.0720083294" lon="9.49498611645">
		<tag k="name" v="Valegrovelve" />
		<tag k="ssr:stedsnr" v="194773" />
		<tag k="waterway" v="river" />
	</node>
	<node id="-396969" lat="60.9711500012" lon="9.52299166646">
		<tag k="alt_name" v="Storslett-tjednet" />
		<tag k="name" v="Storslettjernet" />
		<tag k="natural" v="water" />
		<tag k="old_name" v="Storsletttjernet" />
		<tag k="ssr:stedsnr" v="191570" />
	</node>
	<node id="-396967" lat="60.9272805573" lon="9.57652778169">
		<tag k="alt_name" v="Urdtjednet" />
		<tag k="name" v="Urdtjernet" />
		<tag k="natural" v="water" />
		<tag k="ssr:stedsnr" v="191485" />
	</node>
	<node id="-396965" lat="60.8372833376" lon="9.63997221403">
		<tag k="alt_name" v="Stølstjednet" />
		<tag k="name" v="Stølstjernet" />
		<tag k="natural" v="water" />
		<tag k="ssr:stedsnr" v="191169" />
	</node>
	<node id="-396963" lat="61.1007555577" lon="9.69347777581">
		<tag k="name" v="Hyttebekken" />
		<tag k="ssr:stedsnr" v="190678" />
		<tag k="waterway" v="stream" />
	</node>
	<node id="-396962" lat="60.8480027771" lon="9.5755916743">
		<tag k="alt_name" v="Flåtjednet" />
		<tag k="name" v="Flåtjern" />
		<tag k="natural" v="water" />
		<tag k="ssr:stedsnr" v="190669" />
	</node>
	<node id="-396961" lat="61.0418222182" lon="9.52634167163">
		<tag k="alt_name" v="Flatlandstjednet" />
		<tag k="name" v="Flatlandtjernet" />
		<tag k="natural" v="water" />
		<tag k="ssr:stedsnr" v="190569" />
	</node>
	<node id="-396959" lat="61.0330032705" lon="9.64053752489">
		<tag k="alt_name" v="Vølltjednet" />
		<tag k="name" v="Volltjern" />
		<tag k="natural" v="water" />
		<tag k="ssr:stedsnr" v="190342" />
	</node>
	<node id="-396955" lat="60.8972499977" lon="9.69537500894">
		<tag k="name" v="Åbortjernet" />
		<tag k="natural" v="water" />
		<tag k="old_name" v="Øbbervatnet" />
		<tag k="ssr:stedsnr" v="190078" />
	</node>
	<node id="-396951" lat="60.8448750022" lon="9.66775833116">
		<tag k="alt_name" v="Nedre Gråndalsvatnet" />
		<tag k="name" v="Gråndalsvatni" />
		<tag k="natural" v="water" />
		<tag k="ssr:stedsnr" v="190051" />
	</node>
	<node id="-396949" lat="60.9990361077" lon="9.77375832996">
		<tag k="name" v="Breistølbekken" />
		<tag k="ssr:stedsnr" v="189873" />
		<tag k="waterway" v="stream" />
	</node>
	<node id="-396948" lat="61.0686194477" lon="9.61606111992">
		<tag k="name" v="Åfeta" />
		<tag k="ssr:stedsnr" v="189647" />
		<tag k="waterway" v="stream" />
	</node>
	<node id="-396946" lat="61.1008361105" lon="9.65756944371">
		<tag k="alt_name" v="Hølbekken" />
		<tag k="name" v="Holbekken" />
		<tag k="ssr:stedsnr" v="189629" />
		<tag k="waterway" v="stream" />
	</node>
	<node id="-396941" lat="61.0127499977" lon="9.67925833156">
		<tag k="alt_name" v="Skåletjednet" />
		<tag k="name" v="Skåletjernet" />
		<tag k="natural" v="water" />
		<tag k="ssr:stedsnr" v="189335" />
	</node>
	<node id="-396930" lat="60.8678749992" lon="9.77719445277">
		<tag k="name" v="Vestre Tomlesæterputten" />
		<tag k="natural" v="water" />
		<tag k="ssr:stedsnr" v="176673" />
		<tag k="water" v="pond" />
	</node>
	<node id="-396921" lat="61.0666833369" lon="9.52364167578">
		<tag k="name" v="Sinderbekken" />
		<tag k="ssr:stedsnr" v="176448" />
		<tag k="waterway" v="stream" />
	</node>
	<node id="-396917" lat="61.035897218" lon="9.48272500844">
		<tag k="name" v="Kvednabekken" />
		<tag k="ssr:stedsnr" v="176218" />
		<tag k="waterway" v="stream" />
	</node>
	<node id="-396910" lat="60.9667500024" lon="9.69789166159">
		<tag k="alt_name" v="Kjerringstøltjednet" />
		<tag k="name" v="Kjerringstøltjernet" />
		<tag k="natural" v="water" />
		<tag k="ssr:stedsnr" v="175820" />
	</node>
	<node id="-396903" lat="61.1176555523" lon="9.67833332898">
		<tag k="name" v="Fløten" />
		<tag k="natural" v="water" />
		<tag k="ssr:stedsnr" v="175748" />
		<tag k="water" v="lake" />
	</node>
	<node id="-396898" lat="60.9740555559" lon="9.67887499907">
		<tag k="name" v="Signalputten" />
		<tag k="natural" v="water" />
		<tag k="ssr:stedsnr" v="175518" />
		<tag k="water" v="pond" />
	</node>
	<node id="-396894" lat="61.0063527763" lon="9.75311388126">
		<tag k="alt_name" v="Gravatjednbekken" />
		<tag k="name" v="Gravatjernbekken" />
		<tag k="ssr:stedsnr" v="175466" />
		<tag k="waterway" v="stream" />
	</node>
	<node id="-396892" lat="60.9942249982" lon="9.66555000124">
		<tag k="name" v="Åkroken" />
		<tag k="place" v="locality" />
		<tag k="ssr:stedsnr" v="175419" />
	</node>
	<node id="-396890" lat="61.0019055557" lon="9.65907499814">
		<tag k="name" v="Glennebakkputten" />
		<tag k="natural" v="water" />
		<tag k="ssr:stedsnr" v="175365" />
		<tag k="water" v="pond" />
	</node>
	<node id="-396885" lat="61.0125944405" lon="9.65480000607">
		<tag k="name" v="Skålelibekken" />
		<tag k="ssr:stedsnr" v="175250" />
		<tag k="waterway" v="stream" />
	</node>
	<node id="-396882" lat="60.9684555562" lon="9.65875000294">
		<tag k="name" v="Storbekken" />
		<tag k="ssr:stedsnr" v="175173" />
		<tag k="waterway" v="stream" />
	</node>
	<node id="-396881" lat="61.0725666672" lon="9.70818889131">
		<tag k="name" v="Hølgrøp" />
		<tag k="natural" v="water" />
		<tag k="ssr:stedsnr" v="175161" />
	</node>
	<node id="-396874" lat="60.8858944436" lon="9.68868056192">
		<tag k="name" v="Bjørkebekken" />
		<tag k="ssr:stedsnr" v="175009" />
		<tag k="waterway" v="stream" />
	</node>
	<node id="-396870" lat="60.8517055517" lon="9.56927777183">
		<tag k="name" v="Mørevike" />
		<tag k="natural" v="bay" />
		<tag k="ssr:stedsnr" v="174909" />
	</node>
	<node id="-396865" lat="61.0205805511" lon="9.57496388908">
		<tag k="alt_name" v="Hovdatjednet" />
		<tag k="name" v="Hovdatjernet" />
		<tag k="natural" v="water" />
		<tag k="ssr:stedsnr" v="174620" />
	</node>
	<node id="-396859" lat="61.0816722248" lon="9.57538610668">
		<tag k="name" v="Midthølen" />
		<tag k="place" v="locality" />
		<tag k="ssr:stedsnr" v="174436" />
	</node>
	<node id="-396855" lat="61.0097555598" lon="9.5568472229">
		<tag k="name" v="Etna" />
		<tag k="ssr:stedsnr" v="174412" />
		<tag k="waterway" v="river" />
	</node>
	<node id="-396853" lat="61.0494972208" lon="9.57526388635">
		<tag k="name" v="Rotvollbekken" />
		<tag k="ssr:stedsnr" v="174376" />
		<tag k="waterway" v="stream" />
	</node>
	<node id="-396842" lat="60.9820138859" lon="9.65767776986">
		<tag k="alt_name" v="Nystøltjednet" />
		<tag k="name" v="Nystøltjernet" />
		<tag k="natural" v="water" />
		<tag k="ssr:stedsnr" v="131982" />
	</node>
	<node id="-396841" lat="60.9391305592" lon="9.75270277526">
		<tag k="alt_name" v="Bergstøltjednet" />
		<tag k="name" v="Bergstøltjernet" />
		<tag k="natural" v="water" />
		<tag k="ssr:stedsnr" v="131947" />
	</node>
	<node id="-396840" lat="60.9547555566" lon="9.77871667555">
		<tag k="name" v="Svartvatnet" />
		<tag k="natural" v="water" />
		<tag k="ssr:stedsnr" v="130960" />
	</node>
	<node id="-396839" lat="60.972072226" lon="9.76442222286">
		<tag k="name" v="Langeråk" />
		<tag k="natural" v="water" />
		<tag k="ssr:stedsnr" v="130953" />
		<tag k="water" v="lake" />
	</node>
	<node id="-396834" lat="60.9538083295" lon="9.53690278552">
		<tag k="alt_name" v="Åslettjednet" />
		<tag k="name" v="Årslettjernet" />
		<tag k="natural" v="water" />
		<tag k="ssr:stedsnr" v="130575" />
	</node>
	<node id="-396833" lat="60.9195111153" lon="9.58773055947">
		<tag k="alt_name" v="Øyvassbekken" />
		<tag k="name" v="Dokkbekken" />
		<tag k="ssr:stedsnr" v="130478" />
		<tag k="waterway" v="stream" />
	</node>
	<node id="-396831" lat="61.0521083377" lon="9.67261667166">
		<tag k="alt_name" v="Tretjedne" />
		<tag k="name" v="Tretjerni" />
		<tag k="natural" v="water" />
		<tag k="ssr:stedsnr" v="129636" />
		<tag k="water" v="lake" />
	</node>
	<node id="-396811" lat="60.8445666665" lon="9.72788611302">
		<tag k="name" v="Dølstogobekken" />
		<tag k="ssr:stedsnr" v="115722" />
		<tag k="waterway" v="stream" />
	</node>
	<node id="-395788" lat="61.0471500038" lon="9.7480638924">
		<tag k="name" v="Budeibekken" />
		<tag k="ssr:stedsnr" v="296894" />
		<tag k="waterway" v="stream" />
	</node>
	<node id="-396797" lat="61.0710650393" lon="9.65605748287">
		<tag k="name" v="Hafsennhaugputten" />
		<tag k="natural" v="water" />
		<tag k="ssr:stedsnr" v="115199" />
	</node>
	<node id="-396794" lat="60.9763277781" lon="9.71680000138">
		<tag k="alt_name" v="Veslestøltjednbekken" />
		<tag k="name" v="Veslestøltjernbekken" />
		<tag k="ssr:stedsnr" v="115184" />
		<tag k="waterway" v="stream" />
	</node>
	<node id="-396793" lat="61.050202778" lon="9.74993055006">
		<tag k="name" v="Budeieputten" />
		<tag k="natural" v="water" />
		<tag k="ssr:stedsnr" v="115176" />
	</node>
	<node id="-396791" lat="60.8478861117" lon="9.66401389643">
		<tag k="name" v="Ørmeputten" />
		<tag k="natural" v="water" />
		<tag k="ssr:stedsnr" v="115161" />
	</node>
	<node id="-396789" lat="61.0431388862" lon="9.53665833626">
		<tag k="name" v="Fauskebekken" />
		<tag k="ssr:stedsnr" v="115157" />
		<tag k="waterway" v="stream" />
	</node>
	<node id="-396788" lat="60.8441499971" lon="9.66220833816">
		<tag k="name" v="Ringstølputten" />
		<tag k="natural" v="water" />
		<tag k="ssr:stedsnr" v="115156" />
	</node>
	<node id="-397812" lat="60.9423638847" lon="9.71323056179">
		<tag k="name" v="Vestre Garavike" />
		<tag k="natural" v="bay" />
		<tag k="ssr:stedsnr" v="964241" />
	</node>
	<node id="-396781" lat="60.9090722232" lon="9.64559721744">
		<tag k="name" v="Robølsbekken" />
		<tag k="ssr:stedsnr" v="114852" />
		<tag k="waterway" v="stream" />
	</node>
	<node id="-396780" lat="60.9628194471" lon="9.77027500534">
		<tag k="name" v="Veslejuvbekken" />
		<tag k="ssr:stedsnr" v="114654" />
		<tag k="waterway" v="stream" />
	</node>
	<node id="-396779" lat="60.9512416665" lon="9.76460555982">
		<tag k="name" v="Meinsetbekken" />
		<tag k="ssr:stedsnr" v="114652" />
		<tag k="waterway" v="stream" />
	</node>
	<node id="-396769" lat="60.9971861134" lon="9.68728055534">
		<tag k="name" v="Bergastølbekken" />
		<tag k="ssr:stedsnr" v="114449" />
		<tag k="waterway" v="stream" />
	</node>
	<node id="-396766" lat="60.900441668" lon="9.76611666072">
		<tag k="alt_name" v="Snorobakktjednet" />
		<tag k="name" v="Snorobakktjernet" />
		<tag k="natural" v="water" />
		<tag k="ssr:stedsnr" v="114148" />
	</node>
	<node id="-396762" lat="61.0175527821" lon="9.74436945041">
		<tag k="name" v="Bamseputten" />
		<tag k="natural" v="water" />
		<tag k="ssr:stedsnr" v="114248" />
		<tag k="water" v="pond" />
	</node>
	<node id="-396759" lat="60.838438887" lon="9.63488054774">
		<tag k="name" v="Haugstølputten" />
		<tag k="natural" v="water" />
		<tag k="ssr:stedsnr" v="114114" />
	</node>
	<node id="-395448" lat="60.9379916685" lon="9.67245554735">
		<tag k="alt_name" v="Holmetjednet" />
		<tag k="name" v="Holmetjernet" />
		<tag k="natural" v="water" />
		<tag k="ssr:stedsnr" v="10935" />
	</node>
	<node id="-396750" lat="60.9906361118" lon="9.67612222273">
		<tag k="name" v="Ørsjebekken" />
		<tag k="ssr:stedsnr" v="87619" />
		<tag k="waterway" v="stream" />
	</node>
	<node id="-396749" lat="61.0562583352" lon="9.42724722961">
		<tag k="name" v="Tomassetøddin" />
		<tag k="natural" v="cape" />
		<tag k="ssr:stedsnr" v="73896" />
	</node>
	<node id="-396746" lat="60.9583157332" lon="9.69244681116">
		<tag k="name" v="Totjerni" />
		<tag k="natural" v="water" />
		<tag k="ssr:stedsnr" v="70968" />
		<tag k="water" v="lake" />
	</node>
	<node id="-396745" lat="60.9596499971" lon="9.70912500382">
		<tag k="alt_name" v="Killingøye" />
		<tag k="name" v="Garaøyi" />
		<tag k="place" v="islet" />
		<tag k="ssr:stedsnr" v="70966" />
	</node>
	<node id="-396742" lat="60.8905194461" lon="9.54548056396">
		<tag k="alt_name" v="Flåtjednet" />
		<tag k="name" v="Flåtjernet" />
		<tag k="natural" v="water" />
		<tag k="ssr:stedsnr" v="70719" />
	</node>
	<node id="-396740" lat="60.9230055591" lon="9.67865556094">
		<tag k="alt_name" v="Fjelltjednet" />
		<tag k="name" v="Fjelltjernet" />
		<tag k="natural" v="water" />
		<tag k="ssr:stedsnr" v="70879" />
	</node>
	<node id="-395510" lat="61.0237861127" lon="9.61126945245">
		<tag k="name" v="Marabrennputten" />
		<tag k="natural" v="water" />
		<tag k="ssr:stedsnr" v="236280" />
	</node>
	<node id="-396737" lat="60.9336555541" lon="9.61018332735">
		<tag k="alt_name" v="Ulvslykkjeelvi;Ulvslykkjaelve;Ørslykkjeelve" />
		<tag k="name" v="Ølslykkjeelve" />
		<tag k="ssr:stedsnr" v="70850" />
		<tag k="waterway" v="stream" />
	</node>
	<node id="-396735" lat="60.8337694435" lon="9.64017777402">
		<tag k="alt_name" v="Hølbekken" />
		<tag k="name" v="Holbekken" />
		<tag k="ssr:stedsnr" v="70186" />
		<tag k="waterway" v="stream" />
	</node>
	<node id="-396730" lat="60.9119694409" lon="9.78011110611">
		<tag k="alt_name" v="Leppsjøen, øvre;Nørdre Leppsjøen" />
		<tag k="name" v="Øvre Leppsjøen" />
		<tag k="natural" v="water" />
		<tag k="ssr:stedsnr" v="69094" />
	</node>
	<node id="-396729" lat="60.8502888876" lon="9.6337888956">
		<tag k="alt_name" v="Nøkkeltjednet" />
		<tag k="name" v="Nøkletjernet" />
		<tag k="natural" v="water" />
		<tag k="ssr:stedsnr" v="69059" />
	</node>
	<node id="-396726" lat="60.8637916689" lon="9.79152500408">
		<tag k="alt_name" v="Rismyrtjednet" />
		<tag k="name" v="Ryssemyrtjernet" />
		<tag k="natural" v="water" />
		<tag k="ssr:stedsnr" v="69013" />
	</node>
	<node id="-396723" lat="61.0044083376" lon="9.70424723154">
		<tag k="name" v="Blekkjemyrputten" />
		<tag k="natural" v="water" />
		<tag k="ssr:stedsnr" v="68361" />
		<tag k="water" v="pond" />
	</node>
	<node id="-396720" lat="61.0225749982" lon="9.65720834106">
		<tag k="alt_name" v="Roleghaugtjednet" />
		<tag k="name" v="Roleghaugtjernet" />
		<tag k="natural" v="water" />
		<tag k="ssr:stedsnr" v="68335" />
	</node>
	<node id="-396716" lat="61.0652428982" lon="9.47467479997">
		<tag k="alt_name" v="Austalitjednet" />
		<tag k="name" v="Austalitjernet" />
		<tag k="natural" v="water" />
		<tag k="ssr:stedsnr" v="55757" />
	</node>
	<node id="-396705" lat="60.8271972252" lon="9.77491944314">
		<tag k="name" v="Grytbekken" />
		<tag k="ssr:stedsnr" v="54575" />
		<tag k="waterway" v="stream" />
	</node>
	<node id="-396699" lat="61.0003388916" lon="9.69060277518">
		<tag k="name" v="Beinstimyrbekken" />
		<tag k="ssr:stedsnr" v="54370" />
		<tag k="waterway" v="stream" />
	</node>
	<node id="-396691" lat="60.9878694462" lon="9.76369167336">
		<tag k="name" v="Skilnadputten" />
		<tag k="natural" v="water" />
		<tag k="ssr:stedsnr" v="54198" />
		<tag k="water" v="pond" />
	</node>
	<node id="-396685" lat="60.967938886" lon="9.61788333772">
		<tag k="name" v="Åfeta" />
		<tag k="ssr:stedsnr" v="53882" />
		<tag k="waterway" v="river" />
	</node>
	<node id="-396679" lat="60.9875666661" lon="9.6117944391">
		<tag k="name" v="Dalsbekken" />
		<tag k="ssr:stedsnr" v="53648" />
		<tag k="waterway" v="stream" />
	</node>
	<node id="-396673" lat="60.893050001" lon="9.63919166039">
		<tag k="name" v="Etna" />
		<tag k="ssr:stedsnr" v="53392" />
		<tag k="waterway" v="river" />
	</node>
	<node id="-396668" lat="61.0957861087" lon="9.6870444485">
		<tag k="name" v="Hølbekkføssen" />
		<tag k="natural" v="waterfall" />
		<tag k="ssr:stedsnr" v="53241" />
	</node>
	<node id="-396660" lat="60.9343249957" lon="9.66438888868">
		<tag k="alt_name" v="Damtjednet" />
		<tag k="name" v="Damtjernet" />
		<tag k="natural" v="water" />
		<tag k="ssr:stedsnr" v="10895" />
	</node>
	<node id="-396657" lat="60.9546124793" lon="9.70974463446">
		<tag k="name" v="Roskifttangen" />
		<tag k="natural" v="cape" />
		<tag k="ssr:stedsnr" v="9963" />
	</node>
	<node id="-396656" lat="60.9529972245" lon="9.5618666622">
		<tag k="name" v="Langemyrbekken" />
		<tag k="ssr:stedsnr" v="9577" />
		<tag k="waterway" v="stream" />
	</node>
	<node id="-395496" lat="61.0325333321" lon="9.48483889266">
		<tag k="name" v="Kvednabekken" />
		<tag k="ssr:stedsnr" v="236079" />
		<tag k="waterway" v="stream" />
	</node>
	<node id="-396654" lat="60.9790777737" lon="9.5461583383">
		<tag k="name" v="Skjenangselvi" />
		<tag k="ssr:stedsnr" v="9291" />
		<tag k="waterway" v="river" />
	</node>
	<node id="-396648" lat="60.8381361106" lon="9.66460000162">
		<tag k="name" v="Midtsætervatnet" />
		<tag k="natural" v="water" />
		<tag k="ssr:stedsnr" v="8050" />
	</node>
	<node id="-396645" lat="61.0851999967" lon="9.54253889064">
		<tag k="alt_name" v="Langetjednet" />
		<tag k="name" v="Langetjernet" />
		<tag k="natural" v="water" />
		<tag k="ssr:stedsnr" v="7909" />
	</node>
	<node id="-396643" lat="61.0901527741" lon="9.66171944819">
		<tag k="alt_name" v="Flåtjednet" />
		<tag k="name" v="Flåtjernet" />
		<tag k="natural" v="water" />
		<tag k="ssr:stedsnr" v="7642" />
	</node>
	<node id="-396642" lat="61.052894443" lon="9.7373083346">
		<tag k="name" v="Fjellsætervatnet" />
		<tag k="natural" v="water" />
		<tag k="ssr:stedsnr" v="7619" />
	</node>
	<node id="-396633" lat="61.0584888873" lon="9.39991667472">
		<tag k="name" v="Sisseløddin" />
		<tag k="natural" v="cape" />
		<tag k="ssr:stedsnr" v="967872" />
	</node>
	<node id="-396630" lat="60.9995194467" lon="9.54383611565">
		<tag k="name" v="Slaktarbekken" />
		<tag k="ssr:stedsnr" v="965660" />
		<tag k="waterway" v="stream" />
	</node>
	<node id="-396629" lat="61.0684194482" lon="9.48909443675">
		<tag k="name" v="Austalibekken" />
		<tag k="ssr:stedsnr" v="965777" />
		<tag k="waterway" v="stream" />
	</node>
	<node id="-396626" lat="61.0345750025" lon="9.47578332533">
		<tag k="name" v="Tonstølbekken" />
		<tag k="ssr:stedsnr" v="965219" />
		<tag k="waterway" v="stream" />
	</node>
	<node id="-396621" lat="60.880175" lon="9.73243610721">
		<tag k="alt_name" v="Høgdetjednet" />
		<tag k="name" v="Høgdetjernet" />
		<tag k="natural" v="water" />
		<tag k="ssr:stedsnr" v="964754" />
	</node>
	<node id="-396618" lat="60.9514777779" lon="9.73163611016">
		<tag k="name" v="Åkerhaugbekken" />
		<tag k="ssr:stedsnr" v="964613" />
		<tag k="waterway" v="stream" />
	</node>
	<node id="-396617" lat="60.9598972236" lon="9.52376944644">
		<tag k="alt_name" v="Bonketjednet" />
		<tag k="name" v="Bonketjernet" />
		<tag k="natural" v="water" />
		<tag k="ssr:stedsnr" v="964514" />
	</node>
	<node id="-396616" lat="61.0130194434" lon="9.76470278092">
		<tag k="name" v="Rakasløngputten" />
		<tag k="natural" v="water" />
		<tag k="ssr:stedsnr" v="964415" />
		<tag k="water" v="pond" />
	</node>
	<node id="-396613" lat="60.8498333319" lon="9.58707499329">
		<tag k="alt_name" v="Elgtjednet" />
		<tag k="name" v="Elgtjernet" />
		<tag k="natural" v="water" />
		<tag k="ssr:stedsnr" v="963916" />
	</node>
	<node id="-396612" lat="60.8583194412" lon="9.56571389334">
		<tag k="name" v="Fjellheimsvike" />
		<tag k="natural" v="bay" />
		<tag k="ssr:stedsnr" v="963913" />
	</node>
	<node id="-396609" lat="60.951163892" lon="9.70825833716">
		<tag k="name" v="Svartøysundet" />
		<tag k="natural" v="strait" />
		<tag k="ssr:stedsnr" v="963872" />
	</node>
	<node id="-396604" lat="61.0453861103" lon="9.5665444414">
		<tag k="name" v="Rotvella" />
		<tag k="ssr:stedsnr" v="963353" />
		<tag k="waterway" v="river" />
	</node>
	<node id="-395443" lat="60.9712305566" lon="9.77790554689">
		<tag k="name" v="Kråka" />
		<tag k="place" v="island" />
		<tag k="ssr:stedsnr" v="221558" />
	</node>
	<node id="-396601" lat="61.0809833342" lon="9.61776667361">
		<tag k="name" v="Åfetosen" />
		<tag k="natural" v="bay" />
		<tag k="ssr:stedsnr" v="963069" />
	</node>
	<node id="-396599" lat="61.0486027776" lon="9.44312499798">
		<tag k="name" v="Netodden" />
		<tag k="natural" v="cape" />
		<tag k="ssr:stedsnr" v="962957" />
	</node>
	<node id="-396596" lat="60.8256527752" lon="9.6884527814">
		<tag k="name" v="Lierdemma" />
		<tag k="natural" v="water" />
		<tag k="ssr:stedsnr" v="919177" />
	</node>
	<node id="-396592" lat="60.8575138846" lon="9.70202499368">
		<tag k="alt_name" v="Skardtjednet" />
		<tag k="name" v="Skardtjernet" />
		<tag k="natural" v="water" />
		<tag k="ssr:stedsnr" v="919009" />
	</node>
	<node id="-396588" lat="61.028180557" lon="9.70960278393">
		<tag k="alt_name" v="Tobrenntjednet" />
		<tag k="name" v="Tobrenntjernet" />
		<tag k="natural" v="water" />
		<tag k="ssr:stedsnr" v="918377" />
	</node>
	<node id="-396585" lat="60.9337111104" lon="9.79344722637">
		<tag k="name" v="Steindaelve" />
		<tag k="ssr:stedsnr" v="917915" />
		<tag k="waterway" v="stream" />
	</node>
	<node id="-396584" lat="61.0971166699" lon="9.57304999888">
		<tag k="name" v="Rotvollfjorden" />
		<tag k="natural" v="water" />
		<tag k="ssr:stedsnr" v="917903" />
		<tag k="water" v="lake" />
	</node>
	<node id="-395825" lat="60.9086333346" lon="9.78727500667">
		<tag k="name" v="Fløten" />
		<tag k="place" v="locality" />
		<tag k="ssr:stedsnr" v="297805" />
	</node>
	<node id="-396568" lat="60.961105559" lon="9.71798889441">
		<tag k="name" v="Garastølvike" />
		<tag k="natural" v="bay" />
		<tag k="ssr:stedsnr" v="903624" />
	</node>
	<node id="-396567" lat="60.9821166671" lon="9.68444166729">
		<tag k="name" v="Grånstølbekken" />
		<tag k="ssr:stedsnr" v="903614" />
		<tag k="waterway" v="stream" />
	</node>
	<node id="-395578" lat="60.933997225" lon="9.69276388873">
		<tag k="alt_name" v="Vardatjednet" />
		<tag k="name" v="Vardatjernet" />
		<tag k="natural" v="water" />
		<tag k="ssr:stedsnr" v="54211" />
	</node>
	<node id="-396552" lat="61.0952833364" lon="9.70083332902">
		<tag k="name" v="Reglebekken" />
		<tag k="ssr:stedsnr" v="902262" />
		<tag k="waterway" v="stream" />
	</node>
	<node id="-396546" lat="61.0062500007" lon="9.59584165805">
		<tag k="name" v="Dalsbekken" />
		<tag k="ssr:stedsnr" v="902206" />
		<tag k="waterway" v="stream" />
	</node>
	<node id="-396544" lat="60.9873416708" lon="9.6180194382">
		<tag k="alt_name" v="Juvføssen" />
		<tag k="name" v="Gjuvfossen" />
		<tag k="natural" v="waterfall" />
		<tag k="ssr:stedsnr" v="859964" />
	</node>
	<node id="-396540" lat="60.9088999995" lon="9.5676388964">
		<tag k="alt_name" v="Totjednet" />
		<tag k="name" v="Totjernet" />
		<tag k="natural" v="water" />
		<tag k="ssr:stedsnr" v="859714" />
	</node>
	<node id="-396537" lat="60.8061416656" lon="9.8108694491">
		<tag k="alt_name" v="Tintontjednet" />
		<tag k="name" v="Tintotjernet" />
		<tag k="natural" v="water" />
		<tag k="ssr:stedsnr" v="859203" />
	</node>
	<node id="-396535" lat="61.1077444435" lon="9.58818611137">
		<tag k="alt_name" v="Dillingstadtjednet" />
		<tag k="name" v="Dillingstadtjernet" />
		<tag k="natural" v="water" />
		<tag k="ssr:stedsnr" v="857912" />
	</node>
	<node id="-396534" lat="60.9688722193" lon="9.51822778642">
		<tag k="alt_name" v="Slettemyrtjednet" />
		<tag k="name" v="Slettemyrtjernet" />
		<tag k="natural" v="water" />
		<tag k="ssr:stedsnr" v="857557" />
	</node>
	<node id="-396533" lat="61.0295888857" lon="9.6265027866">
		<tag k="name" v="Åfeta" />
		<tag k="ssr:stedsnr" v="857358" />
		<tag k="waterway" v="river" />
	</node>
	<node id="-396531" lat="61.0789472187" lon="9.53754166536">
		<tag k="name" v="Lauhaugputten" />
		<tag k="natural" v="water" />
		<tag k="ssr:stedsnr" v="844803" />
	</node>
	<node id="-396528" lat="60.8998111098" lon="9.72083333777">
		<tag k="name" v="Storflæputten" />
		<tag k="natural" v="water" />
		<tag k="ssr:stedsnr" v="843156" />
	</node>
	<node id="-396525" lat="61.0080749958" lon="9.73232777463">
		<tag k="name" v="Solbjørtangin" />
		<tag k="natural" v="cape" />
		<tag k="ssr:stedsnr" v="843408" />
	</node>
	<node id="-396524" lat="60.9455027739" lon="9.70890832717">
		<tag k="name" v="Møltøddin" />
		<tag k="natural" v="cape" />
		<tag k="ssr:stedsnr" v="843215" />
	</node>
	<node id="-396522" lat="60.9835361071" lon="9.64274444037">
		<tag k="name" v="Storputten" />
		<tag k="natural" v="water" />
		<tag k="ssr:stedsnr" v="842665" />
		<tag k="water" v="pond" />
	</node>
	<node id="-396517" lat="61.0982805582" lon="9.67485833166">
		<tag k="name" v="Hølbekken" />
		<tag k="ssr:stedsnr" v="842222" />
		<tag k="waterway" v="stream" />
	</node>
	<node id="-396501" lat="60.9889583356" lon="9.67392499837">
		<tag k="name" v="Killinghusfjorden" />
		<tag k="natural" v="water" />
		<tag k="ssr:stedsnr" v="920974" />
		<tag k="water" v="lake" />
	</node>
	<node id="-396488" lat="60.9237083307" lon="9.53801667117">
		<tag k="name" v="Stiklingen" />
		<tag k="natural" v="water" />
		<tag k="ssr:stedsnr" v="919512" />
	</node>
	<node id="-396486" lat="60.8697914488" lon="9.79394611995">
		<tag k="fixme" v="multiple name tags, choose one and add the other to alt_name" />
		<tag k="name" v="Nedre Skilnadputten;Nedre Skjelnetjern" />
		<tag k="natural" v="water" />
		<tag k="ssr:stedsnr" v="919094" />
	</node>
	<node id="-395467" lat="61.0436083324" lon="9.57054723136">
		<tag k="name" v="Nyhusbekken" />
		<tag k="ssr:stedsnr" v="235368" />
		<tag k="waterway" v="stream" />
	</node>
	<node id="-396474" lat="61.0093916654" lon="9.74719167546">
		<tag k="alt_name" v="Gravtjernet;Gravatjednet" />
		<tag k="name" v="Gravatjernet" />
		<tag k="natural" v="water" />
		<tag k="ssr:stedsnr" v="917341" />
	</node>
	<node id="-396472" lat="61.0199777807" lon="9.72577499306">
		<tag k="name" v="Øyvassbekken" />
		<tag k="ssr:stedsnr" v="917280" />
		<tag k="waterway" v="stream" />
	</node>
	<node id="-396456" lat="61.0540805542" lon="9.74681944642">
		<tag k="name" v="Puttan" />
		<tag k="natural" v="water" />
		<tag k="ssr:stedsnr" v="904152" />
	</node>
	<node id="-396449" lat="61.0586249961" lon="9.45345278448">
		<tag k="name" v="Markabekken" />
		<tag k="ssr:stedsnr" v="904480" />
		<tag k="waterway" v="stream" />
	</node>
	<node id="-396447" lat="60.856425" lon="9.77452223007">
		<tag k="name" v="Hovdaputten" />
		<tag k="natural" v="water" />
		<tag k="ssr:stedsnr" v="904293" />
		<tag k="water" v="pond" />
	</node>
	<node id="-396440" lat="60.9152777783" lon="9.63609722441">
		<tag k="name" v="Brusvebekken" />
		<tag k="ssr:stedsnr" v="903869" />
		<tag k="waterway" v="stream" />
	</node>
	<node id="-396434" lat="61.0095111133" lon="9.7169749916">
		<tag k="name" v="Pongebekken" />
		<tag k="ssr:stedsnr" v="903393" />
		<tag k="waterway" v="stream" />
	</node>
	<node id="-396433" lat="61.0107499969" lon="9.66987500037">
		<tag k="alt_name" v="Skåletjednbekken" />
		<tag k="name" v="Skåletjernbekken" />
		<tag k="ssr:stedsnr" v="903383" />
		<tag k="waterway" v="stream" />
	</node>
	<node id="-396422" lat="60.84962222" lon="9.62945276923">
		<tag k="name" v="Putten" />
		<tag k="natural" v="water" />
		<tag k="ssr:stedsnr" v="903032" />
	</node>
	<node id="-396419" lat="60.8916694461" lon="9.70024999276">
		<tag k="alt_name" v="Bjørketjednet" />
		<tag k="name" v="Bjørketjernet" />
		<tag k="natural" v="water" />
		<tag k="ssr:stedsnr" v="903002" />
	</node>
	<node id="-396409" lat="60.9328250017" lon="9.6448972192">
		<tag k="name" v="Skreodalsbekken" />
		<tag k="ssr:stedsnr" v="902728" />
		<tag k="waterway" v="stream" />
	</node>
	<node id="-396398" lat="61.0662361128" lon="9.51433334127">
		<tag k="name" v="Valegrovelve" />
		<tag k="ssr:stedsnr" v="722390" />
		<tag k="waterway" v="river" />
	</node>
	<node id="-396391" lat="60.9360944442" lon="9.75813333395">
		<tag k="name" v="Svartliputten" />
		<tag k="natural" v="water" />
		<tag k="ssr:stedsnr" v="721360" />
		<tag k="water" v="lake" />
	</node>
	<node id="-396377" lat="61.0610638887" lon="9.56356389162">
		<tag k="name" v="Kattulstølbekken" />
		<tag k="ssr:stedsnr" v="720362" />
		<tag k="waterway" v="stream" />
	</node>
	<node id="-396367" lat="60.9497888864" lon="9.63851943821">
		<tag k="alt_name" v="Storebekken" />
		<tag k="name" v="Storbekken" />
		<tag k="ssr:stedsnr" v="677927" />
		<tag k="waterway" v="stream" />
	</node>
	<node id="-395789" lat="61.0469527734" lon="9.65467500157">
		<tag k="name" v="Astriddalsbekken" />
		<tag k="ssr:stedsnr" v="296940" />
		<tag k="waterway" v="stream" />
	</node>
	<node id="-396364" lat="60.9628499966" lon="9.70301110523">
		<tag k="name" v="Gjørma" />
		<tag k="natural" v="water" />
		<tag k="ssr:stedsnr" v="676971" />
	</node>
	<node id="-396363" lat="60.9569505229" lon="9.71185964585">
		<tag k="name" v="Garin" />
		<tag k="natural" v="water" />
		<tag k="ssr:stedsnr" v="676970" />
		<tag k="water" v="lake" />
	</node>
	<node id="-396359" lat="60.8882649731" lon="9.56689688594">
		<tag k="alt_name" v="Gravatjedn" />
		<tag k="name" v="Gravatjernet" />
		<tag k="natural" v="water" />
		<tag k="ssr:stedsnr" v="676709" />
	</node>
	<node id="-396358" lat="60.8910194485" lon="9.56109721954">
		<tag k="alt_name" v="Dipilen" />
		<tag k="name" v="Dipillen" />
		<tag k="natural" v="water" />
		<tag k="ssr:stedsnr" v="676705" />
	</node>
	<node id="-396357" lat="60.9971833301" lon="9.54891667241">
		<tag k="name" v="Brusveputten" />
		<tag k="natural" v="water" />
		<tag k="ssr:stedsnr" v="676320" />
		<tag k="water" v="pond" />
	</node>
	<node id="-396354" lat="61.0360305525" lon="9.66315000064">
		<tag k="alt_name" v="Kalvetjednet" />
		<tag k="name" v="Kalvetjernet" />
		<tag k="natural" v="water" />
		<tag k="ssr:stedsnr" v="675670" />
	</node>
	<node id="-396342" lat="60.8500694409" lon="9.76358611374">
		<tag k="name" v="Fossen" />
		<tag k="natural" v="waterfall" />
		<tag k="ssr:stedsnr" v="661275" />
	</node>
	<node id="-396339" lat="60.9576138858" lon="9.73434443712">
		<tag k="name" v="Garastølfjorden" />
		<tag k="natural" v="bay" />
		<tag k="ssr:stedsnr" v="660660" />
	</node>
	<node id="-396338" lat="60.959369447" lon="9.71508889664">
		<tag k="name" v="Grånøye" />
		<tag k="place" v="island" />
		<tag k="ssr:stedsnr" v="660657" />
	</node>
	<node id="-396337" lat="61.0010166697" lon="9.74072777666">
		<tag k="alt_name" v="Holotjednet" />
		<tag k="name" v="Holotjernet" />
		<tag k="natural" v="water" />
		<tag k="ssr:stedsnr" v="660461" />
	</node>
	<node id="-396336" lat="61.0296464472" lon="9.60933211817">
		<tag k="alt_name" v="Høgbrenntjednet" />
		<tag k="name" v="Høgbrenntjernet" />
		<tag k="natural" v="water" />
		<tag k="ssr:stedsnr" v="660282" />
	</node>
	<node id="-396333" lat="61.0515333299" lon="9.62804722899">
		<tag k="name" v="Flæbekken" />
		<tag k="ssr:stedsnr" v="659901" />
		<tag k="waterway" v="stream" />
	</node>
	<node id="-396330" lat="61.0905250024" lon="9.57332222874">
		<tag k="name" v="Sundet" />
		<tag k="natural" v="strait" />
		<tag k="ssr:stedsnr" v="659413" />
	</node>
	<node id="-396328" lat="60.8886055547" lon="9.73620278609">
		<tag k="alt_name" v="Damtjednet" />
		<tag k="name" v="Damtjernet" />
		<tag k="natural" v="water" />
		<tag k="ssr:stedsnr" v="736109" />
	</node>
	<node id="-395502" lat="60.9768638934" lon="9.73068610996">
		<tag k="name" v="Heimre Brennbekken" />
		<tag k="ssr:stedsnr" v="236173" />
		<tag k="waterway" v="stream" />
	</node>
	<node id="-396325" lat="60.9129972195" lon="9.74952778349">
		<tag k="name" v="Langvassbekken" />
		<tag k="ssr:stedsnr" v="736094" />
		<tag k="waterway" v="stream" />
	</node>
	<node id="-396324" lat="61.110375676" lon="9.58516015349">
		<tag k="alt_name" v="Lammtjernet;Lambetjednet" />
		<tag k="name" v="Lambetjernet" />
		<tag k="natural" v="water" />
		<tag k="ssr:stedsnr" v="735905" />
	</node>
	<node id="-396314" lat="60.8323222213" lon="9.71197499212">
		<tag k="name" v="Haustsæterbekken" />
		<tag k="ssr:stedsnr" v="722702" />
		<tag k="waterway" v="stream" />
	</node>
	<node id="-395779" lat="60.9269083357" lon="9.71607500226">
		<tag k="name" v="Stakklibekken" />
		<tag k="ssr:stedsnr" v="296677" />
		<tag k="waterway" v="stream" />
	</node>
	<node id="-396303" lat="61.0354305578" lon="9.45698888677">
		<tag k="name" v="Jutulstølbekken" />
		<tag k="ssr:stedsnr" v="722305" />
		<tag k="waterway" v="stream" />
	</node>
	<node id="-396301" lat="61.0393138931" lon="9.45604722988">
		<tag k="name" v="Lomøye" />
		<tag k="place" v="island" />
		<tag k="ssr:stedsnr" v="722296" />
	</node>
	<node id="-396294" lat="60.9107277747" lon="9.59228889348">
		<tag k="alt_name" v="Totjednbekken" />
		<tag k="name" v="Totjernbekken" />
		<tag k="ssr:stedsnr" v="721758" />
		<tag k="waterway" v="stream" />
	</node>
	<node id="-396293" lat="60.980872224" lon="9.73513889309">
		<tag k="alt_name" v="Hurratjednet" />
		<tag k="name" v="Huldretjern" />
		<tag k="natural" v="water" />
		<tag k="ssr:stedsnr" v="616991" />
	</node>
	<node id="-396291" lat="60.9882555535" lon="9.63789999339">
		<tag k="alt_name" v="Nystøltjednbekken;Kvernbekken" />
		<tag k="name" v="Nystøltjernbekken" />
		<tag k="ssr:stedsnr" v="616981" />
		<tag k="waterway" v="stream" />
	</node>
	<node id="-396282" lat="60.9432305581" lon="9.71590834218">
		<tag k="name" v="Austre Garavike" />
		<tag k="natural" v="bay" />
		<tag k="ssr:stedsnr" v="721468" />
	</node>
	<node id="-396273" lat="60.8614250038" lon="9.59765000904">
		<tag k="name" v="Øyangsbekken" />
		<tag k="ssr:stedsnr" v="615016" />
		<tag k="waterway" v="stream" />
	</node>
	<node id="-396266" lat="60.8499805513" lon="9.66179443597">
		<tag k="name" v="Tronsæterputten" />
		<tag k="natural" v="water" />
		<tag k="ssr:stedsnr" v="721107" />
	</node>
	<node id="-396260" lat="60.8424444413" lon="9.60743610697">
		<tag k="alt_name" v="Kyrtjednet" />
		<tag k="name" v="Kyrtjernet" />
		<tag k="natural" v="water" />
		<tag k="ssr:stedsnr" v="721020" />
	</node>
	<node id="-396258" lat="60.9349166655" lon="9.69190000416">
		<tag k="alt_name" v="Størrtjednet" />
		<tag k="name" v="Størrtjernet" />
		<tag k="natural" v="water" />
		<tag k="ssr:stedsnr" v="721171" />
	</node>
	<node id="-396251" lat="61.0056861083" lon="9.76800278501">
		<tag k="name" v="Plassegutputten" />
		<tag k="natural" v="water" />
		<tag k="ssr:stedsnr" v="613357" />
	</node>
	<node id="-396244" lat="61.1125750001" lon="9.64135555804">
		<tag k="name" v="Hieihytta" />
		<tag k="ssr:stedsnr" v="720655" />
		<tag k="waterway" v="river" />
	</node>
	<node id="-396242" lat="60.9132222195" lon="9.692147221">
		<tag k="alt_name" v="Fjelltjednbekken" />
		<tag k="name" v="Fjelltjernbekken" />
		<tag k="ssr:stedsnr" v="720542" />
		<tag k="waterway" v="stream" />
	</node>
	<node id="-396235" lat="61.0639500032" lon="9.64116944915">
		<tag k="name" v="Størrputtbekken" />
		<tag k="ssr:stedsnr" v="720263" />
		<tag k="waterway" v="stream" />
	</node>
	<node id="-396230" lat="60.9142138865" lon="9.63900555374">
		<tag k="name" v="Etna" />
		<tag k="ssr:stedsnr" v="720121" />
		<tag k="waterway" v="river" />
	</node>
	<node id="-396229" lat="60.9230472247" lon="9.62193610761">
		<tag k="name" v="Espelibekken" />
		<tag k="ssr:stedsnr" v="720116" />
		<tag k="waterway" v="stream" />
	</node>
	<node id="-396227" lat="61.0847000027" lon="9.6221027834">
		<tag k="name" v="Steinbergputten" />
		<tag k="natural" v="water" />
		<tag k="ssr:stedsnr" v="720075" />
	</node>
	<node id="-396224" lat="60.8741694462" lon="9.7037166688">
		<tag k="name" v="Etna" />
		<tag k="ssr:stedsnr" v="600837" />
		<tag k="waterway" v="river" />
	</node>
	<node id="-396221" lat="60.9546055567" lon="9.51806944257">
		<tag k="name" v="Rundehaugsbekken" />
		<tag k="ssr:stedsnr" v="600352" />
		<tag k="waterway" v="stream" />
	</node>
	<node id="-396215" lat="60.9862305573" lon="9.65357499345">
		<tag k="name" v="Bekkekneet" />
		<tag k="place" v="locality" />
		<tag k="ssr:stedsnr" v="599627" />
	</node>
	<node id="-396212" lat="61.0798861106" lon="9.57735556293">
		<tag k="name" v="Rotvollstølhølen" />
		<tag k="place" v="locality" />
		<tag k="ssr:stedsnr" v="599370" />
	</node>
	<node id="-396211" lat="61.0809888859" lon="9.57563333136">
		<tag k="name" v="Svarthølen" />
		<tag k="place" v="locality" />
		<tag k="ssr:stedsnr" v="599366" />
	</node>
	<node id="-396209" lat="60.944599997" lon="9.67684443856">
		<tag k="name" v="Sjuruputten" />
		<tag k="natural" v="water" />
		<tag k="ssr:stedsnr" v="599204" />
	</node>
	<node id="-396193" lat="60.995325002" lon="9.55207777179">
		<tag k="alt_name" v="Kvannestølbekken" />
		<tag k="name" v="Kvannebekken" />
		<tag k="ssr:stedsnr" v="736317" />
		<tag k="waterway" v="stream" />
	</node>
	<node id="-396186" lat="61.0412944477" lon="9.51661388963">
		<tag k="name" v="Tjednputten" />
		<tag k="natural" v="water" />
		<tag k="ssr:stedsnr" v="540163" />
		<tag k="water" v="pond" />
	</node>
	<node id="-396178" lat="60.932480559" lon="9.69575833839">
		<tag k="alt_name" v="Kyrtjednet" />
		<tag k="name" v="Kyrtjernet" />
		<tag k="natural" v="water" />
		<tag k="ssr:stedsnr" v="539156" />
	</node>
	<node id="-395757" lat="61.0317999957" lon="9.58184721322">
		<tag k="name" v="Dalsbekken" />
		<tag k="ssr:stedsnr" v="296207" />
		<tag k="waterway" v="stream" />
	</node>
	<node id="-396172" lat="61.0431194449" lon="9.57157777044">
		<tag k="name" v="Dalsbekken" />
		<tag k="ssr:stedsnr" v="538379" />
		<tag k="waterway" v="stream" />
	</node>
	<node id="-396171" lat="60.8994249996" lon="9.56476389552">
		<tag k="alt_name" v="Lustjednbekken" />
		<tag k="name" v="Lustjernbekken" />
		<tag k="ssr:stedsnr" v="538233" />
		<tag k="waterway" v="stream" />
	</node>
	<node id="-396166" lat="60.9303916671" lon="9.73703611602">
		<tag k="alt_name" v="Flatlandstjednet" />
		<tag k="name" v="Flatlandstjernet" />
		<tag k="natural" v="water" />
		<tag k="ssr:stedsnr" v="495902" />
	</node>
	<node id="-396165" lat="60.903216663" lon="9.568516661">
		<tag k="alt_name" v="Lustjednet" />
		<tag k="name" v="Lustjernet" />
		<tag k="natural" v="water" />
		<tag k="ssr:stedsnr" v="495723" />
	</node>
	<node id="-396159" lat="60.9580666646" lon="9.75769722574">
		<tag k="alt_name" v="Gongi, nedre;Nedre Gonge" />
		<tag k="name" v="Nedre Gongi" />
		<tag k="natural" v="water" />
		<tag k="ssr:stedsnr" v="677974" />
	</node>
	<node id="-396157" lat="60.9658027804" lon="9.65861666227">
		<tag k="alt_name" v="Lunningsløotjednet" />
		<tag k="name" v="Lundingsløetjern" />
		<tag k="natural" v="water" />
		<tag k="ssr:stedsnr" v="676940" />
	</node>
	<node id="-396153" lat="60.8908416674" lon="9.58578332458">
		<tag k="alt_name" v="Fjellselve" />
		<tag k="name" v="Fjellselvi" />
		<tag k="ssr:stedsnr" v="676683" />
		<tag k="waterway" v="stream" />
	</node>
	<node id="-396150" lat="60.8910055553" lon="9.75814999619">
		<tag k="alt_name" v="Bergevatnet;Nørre Bergvatnet" />
		<tag k="name" v="Nørdre Bergevatnet" />
		<tag k="natural" v="water" />
		<tag k="ssr:stedsnr" v="676119" />
	</node>
	<node id="-396147" lat="60.9152083375" lon="9.73013888906">
		<tag k="alt_name" v="Langevatnet" />
		<tag k="name" v="Langvatnet" />
		<tag k="natural" v="water" />
		<tag k="ssr:stedsnr" v="676088" />
	</node>
	<node id="-396144" lat="61.0701250031" lon="9.69095555311">
		<tag k="alt_name" v="Ryggetrøtjednet" />
		<tag k="name" v="Ryggetrøvatnet" />
		<tag k="natural" v="water" />
		<tag k="ssr:stedsnr" v="675646" />
	</node>
	<node id="-396140" lat="60.8549333329" lon="9.56686389346">
		<tag k="name" v="Jukamsøyangen" />
		<tag k="natural" v="water" />
		<tag k="ssr:stedsnr" v="675688" />
	</node>
	<node id="-396134" lat="60.8448583364" lon="9.64858333324">
		<tag k="alt_name" v="Flåtjednet" />
		<tag k="name" v="Flåtjern" />
		<tag k="natural" v="water" />
		<tag k="ssr:stedsnr" v="675050" />
	</node>
	<node id="-396133" lat="60.8393138853" lon="9.65172777061">
		<tag k="name" v="Meinsetputten" />
		<tag k="natural" v="water" />
		<tag k="ssr:stedsnr" v="675049" />
	</node>
	<node id="-396132" lat="61.092975001" lon="9.50414166103">
		<tag k="alt_name" v="Kelvafjorden" />
		<tag k="name" v="Kalvefjorden" />
		<tag k="natural" v="water" />
		<tag k="ssr:stedsnr" v="674896" />
	</node>
	<node id="-396131" lat="61.1189638868" lon="9.58680833853">
		<tag k="name" v="Døla" />
		<tag k="ssr:stedsnr" v="674893" />
		<tag k="waterway" v="stream" />
	</node>
	<node id="-396128" lat="61.0091916688" lon="9.72499444925">
		<tag k="name" v="Øyvatnet" />
		<tag k="natural" v="water" />
		<tag k="ssr:stedsnr" v="674353" />
	</node>
	<node id="-396119" lat="60.9444083305" lon="9.75375277524">
		<tag k="alt_name" v="Navarskafttjednet" />
		<tag k="name" v="Navarskafttjernet" />
		<tag k="natural" v="water" />
		<tag k="ssr:stedsnr" v="479367" />
	</node>
	<node id="-396112" lat="61.0357111106" lon="9.46978332852">
		<tag k="name" v="Dalselve" />
		<tag k="ssr:stedsnr" v="479210" />
		<tag k="waterway" v="river" />
	</node>
	<node id="-396111" lat="60.9535361132" lon="9.70064721523">
		<tag k="name" v="Smørberget" />
		<tag k="place" v="islet" />
		<tag k="ssr:stedsnr" v="478808" />
	</node>
	<node id="-396110" lat="60.9534694435" lon="9.71696944273">
		<tag k="name" v="Lortevike" />
		<tag k="natural" v="bay" />
		<tag k="ssr:stedsnr" v="478659" />
	</node>
	<node id="-396100" lat="61.0584746223" lon="9.62033323293">
		<tag k="alt_name" v="Liastøltjednet" />
		<tag k="name" v="Liastøltjernet" />
		<tag k="natural" v="water" />
		<tag k="ssr:stedsnr" v="478256" />
	</node>
	<node id="-396098" lat="60.9022527742" lon="9.70070277072">
		<tag k="name" v="Stubbehosoføsleputten" />
		<tag k="natural" v="water" />
		<tag k="ssr:stedsnr" v="478019" />
	</node>
	<node id="-396093" lat="61.042761114" lon="9.56307221848">
		<tag k="name" v="Stølabekken" />
		<tag k="ssr:stedsnr" v="477354" />
		<tag k="waterway" v="stream" />
	</node>
	<node id="-396091" lat="60.9545055546" lon="9.54986110868">
		<tag k="alt_name" v="Ørslykkjeelve" />
		<tag k="name" v="Ølslykkjeelve" />
		<tag k="ssr:stedsnr" v="477603" />
		<tag k="waterway" v="river" />
	</node>
	<node id="-396089" lat="60.9916333332" lon="9.63730833413">
		<tag k="name" v="Mjølkebekken" />
		<tag k="ssr:stedsnr" v="477309" />
		<tag k="waterway" v="stream" />
	</node>
	<node id="-396086" lat="61.0844027803" lon="9.69897777156">
		<tag k="name" v="Fjellbekken" />
		<tag k="ssr:stedsnr" v="477258" />
		<tag k="waterway" v="stream" />
	</node>
	<node id="-396083" lat="61.0606083312" lon="9.39675832933">
		<tag k="name" v="Stavsengelve" />
		<tag k="ssr:stedsnr" v="663894" />
		<tag k="waterway" v="river" />
	</node>
	<node id="-396075" lat="60.8598166635" lon="9.7813972257">
		<tag k="name" v="Bamserudbekken" />
		<tag k="ssr:stedsnr" v="661611" />
		<tag k="waterway" v="stream" />
	</node>
	<node id="-396072" lat="60.8278555595" lon="9.74769999927">
		<tag k="name" v="Madslangrudbekken" />
		<tag k="ssr:stedsnr" v="661486" />
		<tag k="waterway" v="stream" />
	</node>
	<node id="-396068" lat="60.8952999984" lon="9.54615278154">
		<tag k="name" v="Heggeslettbekken" />
		<tag k="ssr:stedsnr" v="661395" />
		<tag k="waterway" v="stream" />
	</node>
	<node id="-396067" lat="60.9242837068" lon="9.53644832734">
		<tag k="name" v="Storstiklingen" />
		<tag k="natural" v="water" />
		<tag k="ssr:stedsnr" v="661390" />
		<tag k="water" v="lake" />
	</node>
	<node id="-396066" lat="60.9402999988" lon="9.53691944589">
		<tag k="alt_name" v="Bergatjednet" />
		<tag k="name" v="Bergatjernet" />
		<tag k="natural" v="water" />
		<tag k="ssr:stedsnr" v="661373" />
	</node>
	<node id="-396062" lat="61.0515555566" lon="9.53959722018">
		<tag k="name" v="Høgefossen" />
		<tag k="natural" v="waterfall" />
		<tag k="ssr:stedsnr" v="661125" />
	</node>
	<node id="-396059" lat="60.9500944463" lon="9.6999277725">
		<tag k="name" v="Matvike" />
		<tag k="natural" v="bay" />
		<tag k="ssr:stedsnr" v="660823" />
	</node>
	<node id="-396055" lat="60.9567472264" lon="9.70295277599">
		<tag k="name" v="Strandvippøddin" />
		<tag k="natural" v="cape" />
		<tag k="ssr:stedsnr" v="660792" />
	</node>
	<node id="-396054" lat="60.9578833362" lon="9.7109749959">
		<tag k="name" v="Kråka" />
		<tag k="place" v="islet" />
		<tag k="ssr:stedsnr" v="660789" />
	</node>
	<node id="-396053" lat="60.9552222207" lon="9.69067777706">
		<tag k="name" v="Krokmyrbekken" />
		<tag k="ssr:stedsnr" v="660784" />
		<tag k="waterway" v="stream" />
	</node>
	<node id="-396052" lat="60.8681055587" lon="9.58266111461">
		<tag k="name" v="Andøye" />
		<tag k="place" v="island" />
		<tag k="ssr:stedsnr" v="660782" />
	</node>
	<node id="-396049" lat="60.9152333305" lon="9.73788889708">
		<tag k="name" v="Vike" />
		<tag k="natural" v="bay" />
		<tag k="ssr:stedsnr" v="660702" />
	</node>
	<node id="-396048" lat="60.9826055564" lon="9.67107499501">
		<tag k="name" v="Griseputten" />
		<tag k="natural" v="water" />
		<tag k="ssr:stedsnr" v="660631" />
	</node>
	<node id="-396045" lat="61.0097361136" lon="9.71890277117">
		<tag k="name" v="Øyvastøltangin" />
		<tag k="natural" v="cape" />
		<tag k="ssr:stedsnr" v="660402" />
	</node>
	<node id="-396044" lat="60.9952333361" lon="9.65928610217">
		<tag k="name" v="Åfeta" />
		<tag k="ssr:stedsnr" v="660384" />
		<tag k="waterway" v="river" />
	</node>
	<node id="-396039" lat="60.8526000003" lon="9.708080561">
		<tag k="alt_name" v="Skartjednbekken" />
		<tag k="name" v="Skardtjernbekken" />
		<tag k="ssr:stedsnr" v="660169" />
		<tag k="waterway" v="stream" />
	</node>
	<node id="-396038" lat="60.8950194474" lon="9.76736944066">
		<tag k="name" v="Stubbehosoputten" />
		<tag k="natural" v="water" />
		<tag k="ssr:stedsnr" v="660157" />
		<tag k="water" v="pond" />
	</node>
	<node id="-396036" lat="61.0497555525" lon="9.71484443716">
		<tag k="name" v="Kvannebekken" />
		<tag k="ssr:stedsnr" v="660142" />
		<tag k="waterway" v="stream" />
	</node>
	<node id="-396033" lat="60.8480722206" lon="9.67905277552">
		<tag k="name" v="Gråndalsbekken" />
		<tag k="ssr:stedsnr" v="660128" />
		<tag k="waterway" v="stream" />
	</node>
	<node id="-396031" lat="60.8763055549" lon="9.55895832699">
		<tag k="alt_name" v="Samelstadtjednet" />
		<tag k="name" v="Samelstadtjernet" />
		<tag k="natural" v="water" />
		<tag k="ssr:stedsnr" v="659840" />
	</node>
	<node id="-396030" lat="61.029872219" lon="9.55536666972">
		<tag k="name" v="Etna" />
		<tag k="ssr:stedsnr" v="659584" />
		<tag k="waterway" v="river" />
	</node>
	<node id="-396026" lat="61.0108083347" lon="9.62415278146">
		<tag k="name" v="Geitbergputten" />
		<tag k="natural" v="water" />
		<tag k="ssr:stedsnr" v="659189" />
		<tag k="water" v="pond" />
	</node>
	<node id="-396014" lat="61.046149996" lon="9.68608333145">
		<tag k="alt_name" v="Langevatnet" />
		<tag k="name" v="Langtjernet" />
		<tag k="natural" v="water" />
		<tag k="ssr:stedsnr" v="433629" />
		<tag k="water" v="lake" />
	</node>
	<node id="-395998" lat="61.0499944462" lon="9.47208888872">
		<tag k="name" v="Trandebekken" />
		<tag k="ssr:stedsnr" v="419216" />
		<tag k="waterway" v="stream" />
	</node>
	<node id="-395995" lat="60.9593166649" lon="9.72321110512">
		<tag k="name" v="Vesleøye" />
		<tag k="place" v="island" />
		<tag k="ssr:stedsnr" v="418621" />
	</node>
	<node id="-395994" lat="61.1170277804" lon="9.68897221458">
		<tag k="name" v="Stormyrbekken" />
		<tag k="ssr:stedsnr" v="418718" />
		<tag k="waterway" v="stream" />
	</node>
	<node id="-395993" lat="60.9134416627" lon="9.73412222217">
		<tag k="name" v="Sundet" />
		<tag k="natural" v="strait" />
		<tag k="ssr:stedsnr" v="418708" />
	</node>
	<node id="-395990" lat="60.9933444417" lon="9.66776945074">
		<tag k="name" v="Løken" />
		<tag k="place" v="locality" />
		<tag k="ssr:stedsnr" v="418404" />
	</node>
	<node id="-395979" lat="60.8592583339" lon="9.62933056272">
		<tag k="name" v="Gravdalsbekken" />
		<tag k="ssr:stedsnr" v="417106" />
		<tag k="waterway" v="stream" />
	</node>
	<node id="-395978" lat="61.1031749972" lon="9.57371667487">
		<tag k="alt_name" v="Stuvevaet" />
		<tag k="name" v="Stuvevadet" />
		<tag k="natural" v="strait" />
		<tag k="ssr:stedsnr" v="417006" />
	</node>
	<node id="-395969" lat="60.9247888872" lon="9.68392777256">
		<tag k="alt_name" v="Nystøltjednet" />
		<tag k="name" v="Nystøltjernet" />
		<tag k="natural" v="water" />
		<tag k="ssr:stedsnr" v="373904" />
	</node>
	<node id="-395968" lat="60.9450611093" lon="9.52969165867">
		<tag k="alt_name" v="Ørslykkjeelve" />
		<tag k="name" v="Ølslykkja" />
		<tag k="ssr:stedsnr" v="373570" />
		<tag k="waterway" v="stream" />
	</node>
	<node id="-395966" lat="61.037141666" lon="9.6866833256">
		<tag k="alt_name" v="Bakketjednet" />
		<tag k="name" v="Bakketjernet" />
		<tag k="natural" v="water" />
		<tag k="ssr:stedsnr" v="372672" />
	</node>
	<node id="-395963" lat="60.8557888906" lon="9.67084166645">
		<tag k="alt_name" v="Karusputten;Karussputtatn" />
		<tag k="name" v="Karussputten" />
		<tag k="natural" v="water" />
		<tag k="ssr:stedsnr" v="372063" />
	</node>
	<node id="-395959" lat="61.0742388916" lon="9.74961111861">
		<tag k="name" v="Goddalsvatnet" />
		<tag k="natural" v="water" />
		<tag k="ssr:stedsnr" v="371618" />
	</node>
	<node id="-395721" lat="60.7998027765" lon="9.80727777909">
		<tag k="name" v="Krokbenda" />
		<tag k="ssr:stedsnr" v="191208" />
		<tag k="waterway" v="stream" />
	</node>
	<node id="-395954" lat="60.9966027746" lon="9.61662500093">
		<tag k="alt_name" v="Bergabekken" />
		<tag k="name" v="Åsbekken" />
		<tag k="ssr:stedsnr" v="494728" />
		<tag k="waterway" v="stream" />
	</node>
	<node id="-395952" lat="60.8533888857" lon="9.5859777864">
		<tag k="alt_name" v="Øytjednet" />
		<tag k="name" v="Øyvatnet" />
		<tag k="natural" v="water" />
		<tag k="ssr:stedsnr" v="494628" />
	</node>
	<node id="-395949" lat="60.9579666627" lon="9.58476387967">
		<tag k="alt_name" v="Gamleelve" />
		<tag k="name" v="Gamleelvi" />
		<tag k="ssr:stedsnr" v="494556" />
		<tag k="waterway" v="stream" />
	</node>
	<node id="-395945" lat="60.9992722257" lon="9.54725277008">
		<tag k="alt_name" v="Lundmotjednet" />
		<tag k="name" v="Lundmotjernet" />
		<tag k="natural" v="water" />
		<tag k="ssr:stedsnr" v="494293" />
	</node>
	<node id="-395942" lat="60.9060694425" lon="9.71070555245">
		<tag k="alt_name" v="Flætjednet" />
		<tag k="name" v="Flætjernet" />
		<tag k="natural" v="water" />
		<tag k="ssr:stedsnr" v="494075" />
	</node>
	<node id="-395940" lat="60.8642249989" lon="9.6004444402">
		<tag k="alt_name" v="Elgtjednet" />
		<tag k="name" v="Elgstjernet" />
		<tag k="natural" v="water" />
		<tag k="ssr:stedsnr" v="494038" />
	</node>
	<node id="-395937" lat="61.1151916628" lon="9.61687222102">
		<tag k="name" v="Steinbutjerne" />
		<tag k="natural" v="water" />
		<tag k="old_name" v="Øystre Steinbutjednet;Vestre Steinbutjednet" />
		<tag k="ssr:stedsnr" v="493737" />
		<tag k="water" v="lake" />
	</node>
	<node id="-395936" lat="61.0889916658" lon="9.69735556091">
		<tag k="alt_name" v="Lortetjednet" />
		<tag k="name" v="Lortetjernet" />
		<tag k="natural" v="water" />
		<tag k="ssr:stedsnr" v="493699" />
	</node>
	<node id="-395927" lat="61.0715141465" lon="9.54746159542">
		<tag k="alt_name" v="Kvitestøltjednet" />
		<tag k="name" v="Kvitestøltjernet" />
		<tag k="natural" v="water" />
		<tag k="ssr:stedsnr" v="492879" />
	</node>
	<node id="-395917" lat="61.0355666651" lon="9.69292499516">
		<tag k="name" v="Gamlestølbekken" />
		<tag k="ssr:stedsnr" v="357947" />
		<tag k="waterway" v="stream" />
	</node>
	<node id="-395912" lat="60.9651333373" lon="9.69094722388">
		<tag k="name" v="Skarsputtatn" />
		<tag k="natural" v="water" />
		<tag k="ssr:stedsnr" v="357808" />
	</node>
	<node id="-395907" lat="60.9585361108" lon="9.74439443599">
		<tag k="alt_name" v="Gongi, øvre;Øvre Gonge" />
		<tag k="name" v="Øvre Gongi" />
		<tag k="natural" v="water" />
		<tag k="ssr:stedsnr" v="494974" />
	</node>
	<node id="-395901" lat="60.870111108" lon="9.77251667241">
		<tag k="name" v="Solliputten" />
		<tag k="natural" v="water" />
		<tag k="ssr:stedsnr" v="479880" />
		<tag k="water" v="pond" />
	</node>
	<node id="-395896" lat="60.8277666635" lon="9.78666665789">
		<tag k="name" v="Eidshaugfossen" />
		<tag k="ssr:stedsnr" v="479547" />
		<tag k="waterway" v="rapids" />
	</node>
	<node id="-395890" lat="61.0461111069" lon="9.54485555763">
		<tag k="name" v="Etna" />
		<tag k="ssr:stedsnr" v="479139" />
		<tag k="waterway" v="river" />
	</node>
	<node id="-395886" lat="60.9546916656" lon="9.6714833386">
		<tag k="name" v="Rognestølputten" />
		<tag k="natural" v="water" />
		<tag k="ssr:stedsnr" v="478829" />
	</node>
	<node id="-395883" lat="60.9699444488" lon="9.67178611907">
		<tag k="name" v="Nedre Hallaputten" />
		<tag k="natural" v="water" />
		<tag k="ssr:stedsnr" v="478537" />
		<tag k="water" v="pond" />
	</node>
	<node id="-395880" lat="60.888327777" lon="9.61042777063">
		<tag k="name" v="Liaføssen" />
		<tag k="natural" v="waterfall" />
		<tag k="ssr:stedsnr" v="478473" />
	</node>
	<node id="-395876" lat="61.0103166674" lon="9.68656666651">
		<tag k="name" v="Kingerudputten" />
		<tag k="natural" v="water" />
		<tag k="ssr:stedsnr" v="478381" />
		<tag k="water" v="pond" />
	</node>
	<node id="-395871" lat="60.9708194448" lon="9.75901666041">
		<tag k="name" v="Lorterova" />
		<tag k="natural" v="bay" />
		<tag k="ssr:stedsnr" v="478146" />
	</node>
	<node id="-395706" lat="60.8623583298" lon="9.61696388562">
		<tag k="alt_name" v="Bergselve" />
		<tag k="name" v="Bergselvi" />
		<tag k="ssr:stedsnr" v="129122" />
		<tag k="waterway" v="stream" />
	</node>
	<node id="-395855" lat="61.0362666653" lon="9.6014583349">
		<tag k="alt_name" v="Køllsetputten" />
		<tag k="name" v="Kollsetputten" />
		<tag k="natural" v="water" />
		<tag k="ssr:stedsnr" v="477959" />
	</node>
	<node id="-395851" lat="61.0789250022" lon="9.55390833802">
		<tag k="alt_name" v="Kelvetjednbekken" />
		<tag k="name" v="Kalvetjernbekken" />
		<tag k="ssr:stedsnr" v="477388" />
		<tag k="waterway" v="stream" />
	</node>
	<node id="-395848" lat="61.0291027746" lon="9.72555833886">
		<tag k="alt_name" v="Lundtjednbekken" />
		<tag k="name" v="Lundtjernbekken" />
		<tag k="ssr:stedsnr" v="477287" />
		<tag k="waterway" v="stream" />
	</node>
	<node id="-395845" lat="60.9294351239" lon="9.70768712813">
		<tag k="alt_name" v="Høddentjednet" />
		<tag k="name" v="Stakklitjernet" />
		<tag k="natural" v="water" />
		<tag k="ssr:stedsnr" v="313905" />
	</node>
	<node id="-395837" lat="61.0920138851" lon="9.57368333489">
		<tag k="name" v="Skjæret" />
		<tag k="place" v="islet" />
		<tag k="ssr:stedsnr" v="296356" />
	</node>
	<node id="-395831" lat="61.0158194451" lon="9.65969444774">
		<tag k="name" v="Skålelibekken" />
		<tag k="ssr:stedsnr" v="235306" />
		<tag k="waterway" v="stream" />
	</node>
	<node id="-395830" lat="61.0259027765" lon="9.65781388464">
		<tag k="name" v="Roleghaugsbekken" />
		<tag k="ssr:stedsnr" v="235305" />
		<tag k="waterway" v="stream" />
	</node>
	<node id="-395829" lat="60.8037444406" lon="9.74842221639">
		<tag k="name" v="Mebenda" />
		<tag k="ssr:stedsnr" v="297990" />
		<tag k="waterway" v="stream" />
	</node>
	<node id="-397874" lat="60.872709398" lon="9.79686969117">
		<tag k="fixme" v="multiple name tags, choose one and add the other to alt_name" />
		<tag k="name" v="Midtre Skilnadputten;Midtre Skjelnetjern" />
		<tag k="natural" v="water" />
		<tag k="ssr:stedsnr" v="312087" />
	</node>
	<node id="-397873" lat="60.8748916259" lon="9.79715385898">
		<tag k="fixme" v="multiple name tags, choose one and add the other to alt_name" />
		<tag k="name" v="Øvre Skilnadputten;Øvre Skjelnetjern" />
		<tag k="natural" v="water" />
		<tag k="ssr:stedsnr" v="129115" />
	</node>
	<node id="-397870" lat="61.1194773402" lon="9.56781550303">
		<tag k="name" v="Røssjøen" />
		<tag k="natural" v="water" />
		<tag k="ssr:stedsnr" v="68907" />
		<tag k="water" v="lake" />
	</node>
	<node id="-397868" lat="60.9510167939" lon="9.72635648739">
		<tag k="alt_name" v="Nedre Småtjednet" />
		<tag k="name" v="Nedre Småtjernet" />
		<tag k="natural" v="water" />
		<tag k="ssr:stedsnr" v="1072600" />
	</node>
	<node id="-397865" lat="60.8412250555" lon="9.65949630063">
		<tag k="alt_name" v="Sørre Bergavatnet" />
		<tag k="name" v="Søre Bergavatnet" />
		<tag k="natural" v="water" />
		<tag k="ssr:stedsnr" v="1072149" />
	</node>
	<node id="-397864" lat="60.9206269357" lon="9.67328041622">
		<tag k="alt_name" v="Sørre Damtjednet" />
		<tag k="name" v="Søre Damtjernet" />
		<tag k="natural" v="water" />
		<tag k="ssr:stedsnr" v="1072148" />
	</node>
	<node id="-395815" lat="60.8279166665" lon="9.71526110712">
		<tag k="name" v="Høgeføss" />
		<tag k="natural" v="waterfall" />
		<tag k="ssr:stedsnr" v="297666" />
	</node>
	<node id="-395697" lat="61.0824749982" lon="9.45490555382">
		<tag k="name" v="Kjørobekken" />
		<tag k="ssr:stedsnr" v="115530" />
		<tag k="waterway" v="stream" />
	</node>
	<node id="-397860" lat="60.9580495307" lon="9.68890684174">
		<tag k="alt_name" v="Totjednet" />
		<tag k="name" v="Totjernet" />
		<tag k="natural" v="water" />
		<tag k="ssr:stedsnr" v="991320" />
	</node>
	<node id="-395808" lat="61.0746555567" lon="9.54866389756">
		<tag k="alt_name" v="Hovdatjednet" />
		<tag k="name" v="Hovdatjernet" />
		<tag k="natural" v="water" />
		<tag k="ssr:stedsnr" v="297472" />
	</node>
	<node id="-395801" lat="61.0418277736" lon="9.45819166512">
		<tag k="name" v="Sundet" />
		<tag k="natural" v="strait" />
		<tag k="ssr:stedsnr" v="297298" />
	</node>
	<node id="-395799" lat="60.9323499982" lon="9.7021583386">
		<tag k="name" v="Hesteputten" />
		<tag k="natural" v="water" />
		<tag k="ssr:stedsnr" v="297211" />
		<tag k="water" v="pond" />
	</node>
	<node id="-395794" lat="61.0456666676" lon="9.54818056219">
		<tag k="name" v="Rundtombekken" />
		<tag k="ssr:stedsnr" v="297163" />
		<tag k="waterway" v="stream" />
	</node>
	<node id="-397837" lat="60.8697861146" lon="9.78392499243">
		<tag k="alt_name" v="Nørre Tomlesæterputten" />
		<tag k="name" v="Nørdre Tomlesæterputten" />
		<tag k="natural" v="water" />
		<tag k="ssr:stedsnr" v="965682" />
		<tag k="water" v="pond" />
	</node>
	<node id="-397836" lat="61.0445027802" lon="9.46376667351">
		<tag k="name" v="Haugabekken" />
		<tag k="ssr:stedsnr" v="965323" />
		<tag k="waterway" v="stream" />
	</node>
	<node id="-397835" lat="61.04263889" lon="9.46022222048">
		<tag k="name" v="Langøye" />
		<tag k="natural" v="cape" />
		<tag k="ssr:stedsnr" v="965321" />
	</node>
	<node id="-395785" lat="60.9502416644" lon="9.65963055622">
		<tag k="name" v="Krøssmyrputtatn" />
		<tag k="natural" v="water" />
		<tag k="ssr:stedsnr" v="296828" />
		<tag k="water" v="pond" />
	</node>
	<node id="-395783" lat="60.908466668" lon="9.55426667149">
		<tag k="name" v="Steinputten" />
		<tag k="natural" v="water" />
		<tag k="ssr:stedsnr" v="296788" />
		<tag k="water" v="pond" />
	</node>
	<node id="-395782" lat="60.9115194449" lon="9.76014999766">
		<tag k="alt_name" v="Sørresæterbekken" />
		<tag k="name" v="Søresæterbekken" />
		<tag k="ssr:stedsnr" v="296732" />
		<tag k="waterway" v="stream" />
	</node>
	<node id="-397827" lat="60.96623056" lon="9.71958333067">
		<tag k="name" v="Garastølputten" />
		<tag k="natural" v="water" />
		<tag k="ssr:stedsnr" v="964646" />
	</node>
	<node id="-397825" lat="60.8355944401" lon="9.66916944229">
		<tag k="name" v="Saukyteputten" />
		<tag k="natural" v="water" />
		<tag k="ssr:stedsnr" v="964640" />
	</node>
	<node id="-395772" lat="60.8318861117" lon="9.76228610633">
		<tag k="name" v="Purkehuggu" />
		<tag k="place" v="locality" />
		<tag k="ssr:stedsnr" v="296572" />
	</node>
	<node id="-397814" lat="60.9285222183" lon="9.7442472279">
		<tag k="name" v="Flatlandsbekken" />
		<tag k="ssr:stedsnr" v="964384" />
		<tag k="waterway" v="stream" />
	</node>
	<node id="-395764" lat="61.0094555557" lon="9.70395276896">
		<tag k="name" v="Pongebekken" />
		<tag k="ssr:stedsnr" v="296350" />
		<tag k="waterway" v="stream" />
	</node>
	<node id="-397809" lat="60.8593916623" lon="9.69149721421">
		<tag k="name" v="Karussputten" />
		<tag k="natural" v="water" />
		<tag k="ssr:stedsnr" v="964172" />
		<tag k="water" v="pond" />
	</node>
	<node id="-397808" lat="60.8502472244" lon="9.66744999287">
		<tag k="name" v="Heggeputten" />
		<tag k="natural" v="water" />
		<tag k="ssr:stedsnr" v="964151" />
		<tag k="water" v="pond" />
	</node>
	<node id="-397806" lat="60.8481111136" lon="9.69252500374">
		<tag k="name" v="Svartevassbekken" />
		<tag k="ssr:stedsnr" v="964148" />
		<tag k="waterway" v="stream" />
	</node>
	<node id="-397805" lat="61.0162999991" lon="9.49034445357">
		<tag k="name" v="Rauebekken" />
		<tag k="ssr:stedsnr" v="964144" />
		<tag k="waterway" v="stream" />
	</node>
	<node id="-395755" lat="60.9008277821" lon="9.74706665774">
		<tag k="name" v="Øvre Dalsvatnet" />
		<tag k="natural" v="water" />
		<tag k="ssr:stedsnr" v="296122" />
	</node>
	<node id="-395751" lat="60.8907861071" lon="9.77139444391">
		<tag k="alt_name" v="Sørre Bergevatnet" />
		<tag k="name" v="Søre Bergevatnet" />
		<tag k="natural" v="water" />
		<tag k="ssr:stedsnr" v="296057" />
	</node>
	<node id="-397798" lat="60.9090777785" lon="9.72434166353">
		<tag k="name" v="Bjødnalaugen" />
		<tag k="natural" v="water" />
		<tag k="ssr:stedsnr" v="963768" />
		<tag k="water" v="pond" />
	</node>
	<node id="-395747" lat="61.0489999994" lon="9.62453332479">
		<tag k="name" v="Åfeta" />
		<tag k="ssr:stedsnr" v="295932" />
		<tag k="waterway" v="river" />
	</node>
	<node id="-395746" lat="60.8543685861" lon="9.59667679164">
		<tag k="alt_name" v="Grånstøltjednet" />
		<tag k="name" v="Grånstøltjernet" />
		<tag k="natural" v="water" />
		<tag k="ssr:stedsnr" v="295905" />
	</node>
	<node id="-395740" lat="60.906561109" lon="9.66400000279">
		<tag k="name" v="Dammyrbekken" />
		<tag k="ssr:stedsnr" v="295530" />
		<tag k="waterway" v="stream" />
	</node>
	<node id="-397784" lat="61.0773388853" lon="9.64066110201">
		<tag k="name" v="Hafsennbekken" />
		<tag k="ssr:stedsnr" v="963352" />
		<tag k="waterway" v="stream" />
	</node>
	<node id="-395733" lat="61.0231388889" lon="9.75223334184">
		<tag k="name" v="Maradalsbekken" />
		<tag k="ssr:stedsnr" v="295266" />
		<tag k="waterway" v="stream" />
	</node>
	<node id="-397777" lat="60.8551999956" lon="9.63322500369">
		<tag k="name" v="Tonsåsbekken" />
		<tag k="ssr:stedsnr" v="963102" />
		<tag k="waterway" v="stream" />
	</node>
	<node id="-395728" lat="60.894602776" lon="9.57814999704">
		<tag k="name" v="Hølbekken" />
		<tag k="ssr:stedsnr" v="295011" />
		<tag k="waterway" v="stream" />
	</node>
	<node id="-395726" lat="60.9605629666" lon="9.67815930641">
		<tag k="alt_name" v="Langevatnet" />
		<tag k="name" v="Langvatnet" />
		<tag k="natural" v="water" />
		<tag k="ssr:stedsnr" v="191926" />
	</node>
	<node id="-397769" lat="60.9631750015" lon="9.75934999277">
		<tag k="alt_name" v="Juvatjednet" />
		<tag k="name" v="Gjuvatjernet" />
		<tag k="natural" v="water" />
		<tag k="ssr:stedsnr" v="859929" />
	</node>
	<node id="-395716" lat="60.9589500017" lon="9.72626944535">
		<tag k="name" v="Vesleøysundet" />
		<tag k="natural" v="strait" />
		<tag k="ssr:stedsnr" v="175653" />
	</node>
	<node id="-397757" lat="60.8282833314" lon="9.7053361192">
		<tag k="name" v="Øyvassbekken" />
		<tag k="ssr:stedsnr" v="859181" />
		<tag k="waterway" v="stream" />
	</node>
	<node id="-395708" lat="60.9793472261" lon="9.5820527764">
		<tag k="name" v="Etna" />
		<tag k="ssr:stedsnr" v="130312" />
		<tag k="waterway" v="river" />
	</node>
	<node id="-397755" lat="61.108641664" lon="9.60042222896">
		<tag k="alt_name" v="Størr-tjednet" />
		<tag k="name" v="Storrtjern" />
		<tag k="natural" v="water" />
		<tag k="ssr:stedsnr" v="858752" />
	</node>
	<node id="-397754" lat="60.8702083329" lon="9.58149999531">
		<tag k="alt_name" v="Killingøye" />
		<tag k="name" v="Killingøyi" />
		<tag k="place" v="islet" />
		<tag k="ssr:stedsnr" v="858691" />
	</node>
	<node id="-395704" lat="61.0865444069" lon="9.60237076747">
		<tag k="name" v="Svartetjerni" />
		<tag k="natural" v="water" />
		<tag k="ssr:stedsnr" v="128648" />
		<tag k="water" v="lake" />
	</node>
	<node id="-395703" lat="61.0952388927" lon="9.59645832768">
		<tag k="alt_name" v="Svartetjednbekken" />
		<tag k="name" v="Svartetjernbekken" />
		<tag k="ssr:stedsnr" v="128640" />
		<tag k="waterway" v="stream" />
	</node>
	<node id="-395700" lat="61.0289722218" lon="9.74254444479">
		<tag k="alt_name" v="Lundtjedenputtatn" />
		<tag k="name" v="Lundtjernputtane" />
		<tag k="natural" v="water" />
		<tag k="ssr:stedsnr" v="128302" />
	</node>
	<node id="-397747" lat="61.0850555587" lon="9.67698610255">
		<tag k="alt_name" v="Røgletjednbekken" />
		<tag k="name" v="Røglebekken" />
		<tag k="ssr:stedsnr" v="857683" />
		<tag k="waterway" v="stream" />
	</node>
	<node id="-397745" lat="61.0251638864" lon="9.4993277778">
		<tag k="alt_name" v="Dalselve" />
		<tag k="name" v="Dalselvi" />
		<tag k="ssr:stedsnr" v="857598" />
		<tag k="waterway" v="river" />
	</node>
	<node id="-395696" lat="60.9164666662" lon="9.54990555207">
		<tag k="name" v="Lundsvatnet" />
		<tag k="natural" v="water" />
		<tag k="ssr:stedsnr" v="115417" />
	</node>
	<node id="-395692" lat="61.0744666669" lon="9.70374443534">
		<tag k="name" v="Indrefjorden" />
		<tag k="natural" v="water" />
		<tag k="ssr:stedsnr" v="115204" />
	</node>
	<node id="-395687" lat="60.9217777741" lon="9.66389166198">
		<tag k="alt_name" v="Nørre Damtjednet" />
		<tag k="name" v="Nørdre Damtjernet" />
		<tag k="natural" v="water" />
		<tag k="ssr:stedsnr" v="114728" />
	</node>
	<node id="-397734" lat="60.847577777" lon="9.74978055161">
		<tag k="name" v="Lundsteinbekken" />
		<tag k="ssr:stedsnr" v="844279" />
		<tag k="waterway" v="stream" />
	</node>
	<node id="-397731" lat="61.0426833336" lon="9.48568056196">
		<tag k="name" v="Grånstølputten" />
		<tag k="natural" v="water" />
		<tag k="ssr:stedsnr" v="844202" />
	</node>
	<node id="-395681" lat="61.0849805558" lon="9.60364444806">
		<tag k="alt_name" v="Sørre Svartetjednet" />
		<tag k="name" v="Søre Svartetjernet" />
		<tag k="natural" v="water" />
		<tag k="ssr:stedsnr" v="114441" />
		<tag k="water" v="lake" />
	</node>
	<node id="-395680" lat="60.9441805525" lon="9.5607749979">
		<tag k="name" v="Kloppmyrbekken" />
		<tag k="ssr:stedsnr" v="114427" />
		<tag k="waterway" v="stream" />
	</node>
	<node id="-397726" lat="60.8660499998" lon="9.61300278405">
		<tag k="alt_name" v="Elgtjednbekken" />
		<tag k="name" v="Elgstjernbekken" />
		<tag k="ssr:stedsnr" v="843796" />
		<tag k="waterway" v="stream" />
	</node>
	<node id="-397725" lat="60.8631722192" lon="9.62362778375">
		<tag k="name" v="Føssatn" />
		<tag k="natural" v="waterfall" />
		<tag k="ssr:stedsnr" v="843783" />
	</node>
	<node id="-397724" lat="60.9281333325" lon="9.65679166516">
		<tag k="name" v="Rundbergsbekken" />
		<tag k="ssr:stedsnr" v="843774" />
		<tag k="waterway" v="stream" />
	</node>
	<node id="-397720" lat="61.0865666671" lon="9.49150555494">
		<tag k="name" v="Beljamyrbekken" />
		<tag k="ssr:stedsnr" v="843726" />
		<tag k="waterway" v="stream" />
	</node>
	<node id="-395671" lat="61.1041388889" lon="9.61385834005">
		<tag k="name" v="Slaveriputten" />
		<tag k="natural" v="water" />
		<tag k="ssr:stedsnr" v="113621" />
		<tag k="water" v="lake" />
	</node>
	<node id="-397717" lat="60.9553000023" lon="9.71721389753">
		<tag k="name" v="Kleivøddin" />
		<tag k="natural" v="cape" />
		<tag k="ssr:stedsnr" v="843656" />
	</node>
	<node id="-397716" lat="60.9503305576" lon="9.76066943556">
		<tag k="name" v="Meinsetputten" />
		<tag k="natural" v="water" />
		<tag k="ssr:stedsnr" v="843637" />
	</node>
	<node id="-395666" lat="61.0795333303" lon="9.69101111213">
		<tag k="alt_name" v="Røgletjednet" />
		<tag k="name" v="Røgletjernet" />
		<tag k="natural" v="water" />
		<tag k="ssr:stedsnr" v="113224" />
	</node>
	<node id="-397711" lat="60.8683694453" lon="9.75661945056">
		<tag k="name" v="Bamserudbekken" />
		<tag k="ssr:stedsnr" v="843852" />
		<tag k="waterway" v="stream" />
	</node>
	<node id="-397708" lat="60.9534944403" lon="9.69341110816">
		<tag k="name" v="Krokmyrputten" />
		<tag k="natural" v="water" />
		<tag k="ssr:stedsnr" v="843829" />
	</node>
	<node id="-397706" lat="60.8787222209" lon="9.68441944108">
		<tag k="name" v="Hansespranget" />
		<tag k="place" v="locality" />
		<tag k="ssr:stedsnr" v="843498" />
	</node>
	<node id="-397703" lat="60.9381000016" lon="9.76571111362">
		<tag k="name" v="Fåfengputten" />
		<tag k="natural" v="water" />
		<tag k="ssr:stedsnr" v="843386" />
	</node>
	<node id="-397702" lat="60.9461111131" lon="9.53214443568">
		<tag k="alt_name" v="Preststølvaet" />
		<tag k="name" v="Preststølvadet" />
		<tag k="place" v="locality" />
		<tag k="ssr:stedsnr" v="843383" />
	</node>
	<node id="-395651" lat="60.9265472213" lon="9.56530000743">
		<tag k="name" v="Øyvatnet" />
		<tag k="natural" v="water" />
		<tag k="ssr:stedsnr" v="252479" />
		<tag k="water" v="lake" />
	</node>
	<node id="-397698" lat="61.0191972186" lon="9.71922776919">
		<tag k="name" v="Slettaputten" />
		<tag k="natural" v="water" />
		<tag k="ssr:stedsnr" v="843288" />
		<tag k="water" v="lake" />
	</node>
	<node id="-397697" lat="61.017044444" lon="9.67361389075">
		<tag k="name" v="Glenneputten" />
		<tag k="natural" v="water" />
		<tag k="ssr:stedsnr" v="843286" />
	</node>
	<node id="-397694" lat="61.0206999971" lon="9.63609445053">
		<tag k="alt_name" v="Vaet" />
		<tag k="name" v="Vadet" />
		<tag k="place" v="locality" />
		<tag k="ssr:stedsnr" v="843253" />
	</node>
	<node id="-395644" lat="60.8956000022" lon="9.73715277293">
		<tag k="alt_name" v="Tubbetjednet" />
		<tag k="name" v="Tubbetjernet" />
		<tag k="natural" v="water" />
		<tag k="ssr:stedsnr" v="251133" />
	</node>
	<node id="-395640" lat="60.8803388856" lon="9.78041943711">
		<tag k="name" v="Åborvassbekken" />
		<tag k="ssr:stedsnr" v="251110" />
		<tag k="waterway" v="stream" />
	</node>
	<node id="-397684" lat="60.9786555512" lon="9.75112777626">
		<tag k="name" v="Buøye" />
		<tag k="place" v="island" />
		<tag k="ssr:stedsnr" v="843173" />
	</node>
	<node id="-395633" lat="61.0709805557" lon="9.63758611954">
		<tag k="alt_name" v="Størreputten" />
		<tag k="name" v="Margitputten" />
		<tag k="natural" v="water" />
		<tag k="ssr:stedsnr" v="250678" />
	</node>
	<node id="-395626" lat="61.0424750035" lon="9.7066222247">
		<tag k="name" v="Ormeputten" />
		<tag k="natural" v="water" />
		<tag k="ssr:stedsnr" v="250345" />
	</node>
	<node id="-397673" lat="60.8692805559" lon="9.58890555696">
		<tag k="name" v="Kallevike" />
		<tag k="natural" v="bay" />
		<tag k="ssr:stedsnr" v="842827" />
	</node>
	<node id="-395624" lat="61.0308000038" lon="9.73834999378">
		<tag k="alt_name" v="Lundtjednet" />
		<tag k="name" v="Lundtjernet" />
		<tag k="natural" v="water" />
		<tag k="ssr:stedsnr" v="250336" />
	</node>
	<node id="-397669" lat="60.9706555562" lon="9.64577222001">
		<tag k="name" v="Storbekken" />
		<tag k="ssr:stedsnr" v="842682" />
		<tag k="waterway" v="stream" />
	</node>
	<node id="-395620" lat="60.9304166644" lon="9.78727777929">
		<tag k="alt_name" v="Vesle Bjørtjednet" />
		<tag k="name" v="Vesle Bjørtjernet" />
		<tag k="natural" v="water" />
		<tag k="ssr:stedsnr" v="249933" />
	</node>
	<node id="-397667" lat="60.970647225" lon="9.66228611112">
		<tag k="name" v="Øvre Hallaputten" />
		<tag k="natural" v="water" />
		<tag k="ssr:stedsnr" v="842527" />
		<tag k="water" v="pond" />
	</node>
	<node id="-395618" lat="60.9300999984" lon="9.52619444125">
		<tag k="name" v="Stiklingsbekken" />
		<tag k="ssr:stedsnr" v="73403" />
		<tag k="waterway" v="stream" />
	</node>
	<node id="-395616" lat="60.9490914099" lon="9.72988129903">
		<tag k="name" v="Småtjerni" />
		<tag k="natural" v="water" />
		<tag k="ssr:stedsnr" v="70920" />
		<tag k="water" v="lake" />
	</node>
	<node id="-395615" lat="60.9483805587" lon="9.67832777224">
		<tag k="alt_name" v="Tjednsettjednet" />
		<tag k="name" v="Tjernsettjernet" />
		<tag k="natural" v="water" />
		<tag k="old_name" v="Tvillingtjernet" />
		<tag k="ssr:stedsnr" v="70919" />
	</node>
	<node id="-395614" lat="60.9371249994" lon="9.55626111457">
		<tag k="alt_name" v="Langetjednet" />
		<tag k="name" v="Langtjernet" />
		<tag k="natural" v="water" />
		<tag k="ssr:stedsnr" v="70544" />
	</node>
	<node id="-395613" lat="60.9740750031" lon="9.53208888037">
		<tag k="name" v="Goarputten" />
		<tag k="natural" v="water" />
		<tag k="ssr:stedsnr" v="70319" />
	</node>
	<node id="-395610" lat="61.0521388874" lon="9.43828332612">
		<tag k="name" v="Steinsetfjorden" />
		<tag k="natural" v="water" />
		<tag k="ssr:stedsnr" v="68605" />
		<tag k="water" v="lake" />
	</node>
	<node id="-397656" lat="61.0325330342" lon="9.65469329737">
		<tag k="alt_name" v="Kalvetjednbekken" />
		<tag k="name" v="Kalvetjernbekken" />
		<tag k="ssr:stedsnr" v="842284" />
		<tag k="waterway" v="stream" />
	</node>
	<node id="-395607" lat="61.0645999985" lon="9.42167222866">
		<tag k="name" v="Brøtaelve" />
		<tag k="ssr:stedsnr" v="238897" />
		<tag k="waterway" v="stream" />
	</node>
	<node id="-395606" lat="61.058825004" lon="9.40412777672">
		<tag k="name" v="Sørengøddin" />
		<tag k="natural" v="cape" />
		<tag k="ssr:stedsnr" v="238895" />
	</node>
	<node id="-397652" lat="61.1196305527" lon="9.58001111361">
		<tag k="name" v="Dølaoset" />
		<tag k="natural" v="bay" />
		<tag k="ssr:stedsnr" v="842043" />
	</node>
	<node id="-395602" lat="61.0896972195" lon="9.50670278329">
		<tag k="name" v="Etnsenndammen" />
		<tag k="ssr:stedsnr" v="237715" />
		<tag k="waterway" v="dam" />
	</node>
	<node id="-397647" lat="60.977116663" lon="9.77095277919">
		<tag k="alt_name" v="Svillelva" />
		<tag k="name" v="Svillelvi" />
		<tag k="ssr:stedsnr" v="798997" />
		<tag k="waterway" v="stream" />
	</node>
	<node id="-395598" lat="61.0382444446" lon="9.49455277878">
		<tag k="name" v="Løken" />
		<tag k="natural" v="bay" />
		<tag k="ssr:stedsnr" v="55213" />
	</node>
	<node id="-397645" lat="60.9775500013" lon="9.70952500627">
		<tag k="alt_name" v="Veslestøltjednet" />
		<tag k="name" v="Veslestøltjernet" />
		<tag k="natural" v="water" />
		<tag k="ssr:stedsnr" v="798985" />
	</node>
	<node id="-395587" lat="60.9626111092" lon="9.52785833588">
		<tag k="name" v="Østreputten" />
		<tag k="natural" v="water" />
		<tag k="ssr:stedsnr" v="54551" />
	</node>
	<node id="-397633" lat="60.8717743627" lon="9.57898244607">
		<tag k="name" v="Øyangen" />
		<tag k="natural" v="water" />
		<tag k="ssr:stedsnr" v="797687" />
		<tag k="water" v="lake" />
	</node>
	<node id="-395583" lat="60.9781888884" lon="9.73313888842">
		<tag k="name" v="Austre Brennbekken" />
		<tag k="ssr:stedsnr" v="54169" />
		<tag k="waterway" v="stream" />
	</node>
	<node id="-397628" lat="60.8993905222" lon="9.74355109256">
		<tag k="name" v="Dalsvatnet" />
		<tag k="natural" v="water" />
		<tag k="ssr:stedsnr" v="797072" />
	</node>
	<node id="-397627" lat="60.8486611086" lon="9.6516805513">
		<tag k="alt_name" v="Langevatnet" />
		<tag k="name" v="Langavatnet" />
		<tag k="natural" v="water" />
		<tag k="ssr:stedsnr" v="797067" />
	</node>
	<node id="-397626" lat="61.0765111073" lon="9.57555278166">
		<tag k="alt_name" v="Flætjednet" />
		<tag k="name" v="Fletjernet" />
		<tag k="natural" v="water" />
		<tag k="ssr:stedsnr" v="796900" />
	</node>
	<node id="-397625" lat="61.0920111093" lon="9.68803888171">
		<tag k="alt_name" v="Langtjednet" />
		<tag k="name" v="Langtjernet" />
		<tag k="natural" v="water" />
		<tag k="ssr:stedsnr" v="796684" />
	</node>
	<node id="-397622" lat="61.0671000037" lon="9.69281666952">
		<tag k="alt_name" v="Ryggetrøtjednbekken" />
		<tag k="name" v="Kinnsbekken" />
		<tag k="ssr:stedsnr" v="796637" />
		<tag k="waterway" v="stream" />
	</node>
	<node id="-395566" lat="61.0437833293" lon="9.4614416682">
		<tag k="name" v="Trandevike" />
		<tag k="natural" v="bay" />
		<tag k="ssr:stedsnr" v="237296" />
	</node>
	<node id="-395564" lat="61.038230559" lon="9.4573805466">
		<tag k="name" v="Hukavike" />
		<tag k="natural" v="bay" />
		<tag k="ssr:stedsnr" v="237290" />
	</node>
	<node id="-395562" lat="60.8901888877" lon="9.6037194456">
		<tag k="name" v="Fjellselve" />
		<tag k="ssr:stedsnr" v="53468" />
		<tag k="waterway" v="river" />
	</node>
	<node id="-395561" lat="61.0807083309" lon="9.57659166252">
		<tag k="name" v="Rotvella" />
		<tag k="ssr:stedsnr" v="53415" />
		<tag k="waterway" v="river" />
	</node>
	<node id="-395560" lat="61.0768888856" lon="9.63160555387">
		<tag k="name" v="Storsteinputten" />
		<tag k="natural" v="water" />
		<tag k="ssr:stedsnr" v="53268" />
	</node>
	<node id="-397607" lat="61.0487138901" lon="9.45312499147">
		<tag k="name" v="Blokkebærøddin" />
		<tag k="natural" v="cape" />
		<tag k="ssr:stedsnr" v="783196" />
	</node>
	<node id="-397606" lat="61.0743555595" lon="9.44198334155">
		<tag k="alt_name" v="Goartjednet" />
		<tag k="name" v="Goartjernet" />
		<tag k="natural" v="water" />
		<tag k="ssr:stedsnr" v="782977" />
	</node>
	<node id="-395557" lat="60.980594445" lon="9.55901665965">
		<tag k="name" v="Skjenangselve" />
		<tag k="ssr:stedsnr" v="53502" />
		<tag k="waterway" v="river" />
	</node>
	<node id="-397604" lat="60.8639555591" lon="9.7237444499">
		<tag k="name" v="Vesleelve" />
		<tag k="ssr:stedsnr" v="782813" />
		<tag k="waterway" v="stream" />
	</node>
	<node id="-397601" lat="60.8654999964" lon="9.71173610219">
		<tag k="name" v="Lundebruføssen" />
		<tag k="natural" v="waterfall" />
		<tag k="ssr:stedsnr" v="782801" />
	</node>
	<node id="-397599" lat="60.8670583313" lon="9.64881666318">
		<tag k="name" v="Køllsbekken" />
		<tag k="ssr:stedsnr" v="782725" />
		<tag k="waterway" v="stream" />
	</node>
	<node id="-397598" lat="60.9335472211" lon="9.65699722687">
		<tag k="alt_name" v="Damtjednbekken" />
		<tag k="name" v="Damtjernbekken" />
		<tag k="ssr:stedsnr" v="782720" />
		<tag k="waterway" v="stream" />
	</node>
	<node id="-397596" lat="60.9527666662" lon="9.72402221982">
		<tag k="alt_name" v="Småtjednbekken" />
		<tag k="name" v="Småtjernbekken" />
		<tag k="ssr:stedsnr" v="782619" />
		<tag k="waterway" v="stream" />
	</node>
	<node id="-395546" lat="61.1149999973" lon="9.58589999391">
		<tag k="alt_name" v="Størrtjednbekken" />
		<tag k="name" v="Storrtjernbekken" />
		<tag k="ssr:stedsnr" v="52553" />
		<tag k="waterway" v="stream" />
	</node>
	<node id="-395544" lat="61.0050527822" lon="9.55850278639">
		<tag k="name" v="Hølaføssen" />
		<tag k="natural" v="waterfall" />
		<tag k="ssr:stedsnr" v="52309" />
	</node>
	<node id="-395543" lat="60.8170194455" lon="9.72295833673">
		<tag k="name" v="Lierbekken" />
		<tag k="ssr:stedsnr" v="236995" />
		<tag k="waterway" v="stream" />
	</node>
	<node id="-397589" lat="60.9345611133" lon="9.76258054723">
		<tag k="name" v="Steindabekken" />
		<tag k="ssr:stedsnr" v="782357" />
		<tag k="waterway" v="stream" />
	</node>
	<node id="-397588" lat="60.9365500036" lon="9.73935834233">
		<tag k="alt_name" v="Vølltjednet" />
		<tag k="name" v="Vølltjernet" />
		<tag k="natural" v="water" />
		<tag k="ssr:stedsnr" v="782346" />
	</node>
	<node id="-397586" lat="60.9548111144" lon="9.53193888248">
		<tag k="name" v="Innslagputten" />
		<tag k="natural" v="water" />
		<tag k="ssr:stedsnr" v="782340" />
		<tag k="water" v="pond" />
	</node>
	<node id="-395536" lat="61.0434083334" lon="9.7653416585">
		<tag k="name" v="Lundbekken" />
		<tag k="ssr:stedsnr" v="236880" />
		<tag k="waterway" v="stream" />
	</node>
	<node id="-397581" lat="60.9894555561" lon="9.72341665962">
		<tag k="alt_name" v="Navarskafttjednet" />
		<tag k="name" v="Navarskafttjernet" />
		<tag k="natural" v="water" />
		<tag k="ssr:stedsnr" v="782164" />
	</node>
	<node id="-395531" lat="60.8675166637" lon="9.70552223031">
		<tag k="name" v="Nysvebekken" />
		<tag k="ssr:stedsnr" v="236823" />
		<tag k="waterway" v="stream" />
	</node>
	<node id="-397576" lat="60.9685250015" lon="9.68095555849">
		<tag k="name" v="Kuvmyrputten" />
		<tag k="natural" v="water" />
		<tag k="ssr:stedsnr" v="782141" />
	</node>
	<node id="-395526" lat="60.8788972241" lon="9.75594721609">
		<tag k="name" v="Trevassputtatn" />
		<tag k="natural" v="water" />
		<tag k="ssr:stedsnr" v="236727" />
	</node>
	<node id="-397571" lat="60.842800127" lon="9.65554495807">
		<tag k="alt_name" v="Nørre Bergavatnet" />
		<tag k="name" v="Nørdre Bergavatnet" />
		<tag k="natural" v="water" />
		<tag k="ssr:stedsnr" v="782025" />
	</node>
	<node id="-397569" lat="60.8884722207" lon="9.71265277207">
		<tag k="name" v="Øygardsbekken" />
		<tag k="ssr:stedsnr" v="782011" />
		<tag k="waterway" v="stream" />
	</node>
	<node id="-397567" lat="60.8904194441" lon="9.70040555403">
		<tag k="alt_name" v="Vesle Bjørketjednet" />
		<tag k="name" v="Vesle Bjørketjernet" />
		<tag k="natural" v="water" />
		<tag k="ssr:stedsnr" v="782001" />
	</node>
	<node id="-395516" lat="60.839536115" lon="9.72957500638">
		<tag k="name" v="Øyvassbekken" />
		<tag k="ssr:stedsnr" v="236482" />
		<tag k="waterway" v="stream" />
	</node>
	<node id="-397559" lat="60.8694055581" lon="9.58537222469">
		<tag k="name" v="Sankt Helena" />
		<tag k="place" v="islet" />
		<tag k="ssr:stedsnr" v="781835" />
	</node>
	<node id="-397558" lat="60.9531476002" lon="9.70204174478">
		<tag k="name" v="Smørbergvike" />
		<tag k="natural" v="bay" />
		<tag k="ssr:stedsnr" v="781826" />
	</node>
	<node id="-395507" lat="60.9292185872" lon="9.69375193286">
		<tag k="alt_name" v="Bergatjednet" />
		<tag k="name" v="Bergatjernet" />
		<tag k="natural" v="water" />
		<tag k="ssr:stedsnr" v="236206" />
	</node>
	<node id="-395506" lat="61.0718858179" lon="9.66579488249">
		<tag k="name" v="Veslefjorden" />
		<tag k="natural" v="water" />
		<tag k="ssr:stedsnr" v="236192" />
	</node>
	<node id="-397550" lat="61.0160666691" lon="9.58888611704">
		<tag k="name" v="Dalsbekken" />
		<tag k="ssr:stedsnr" v="781602" />
		<tag k="waterway" v="stream" />
	</node>
	<node id="-395501" lat="61.0843444457" lon="9.71356666487">
		<tag k="name" v="Fjellbekken" />
		<tag k="ssr:stedsnr" v="236162" />
		<tag k="waterway" v="stream" />
	</node>
	<node id="-395498" lat="60.8567916696" lon="9.67301665785">
		<tag k="name" v="Steinmurdammen" />
		<tag k="ssr:stedsnr" v="236149" />
		<tag k="waterway" v="dam" />
	</node>
	<node id="-395497" lat="60.8971916705" lon="9.7186916695">
		<tag k="name" v="Gåsebergputten" />
		<tag k="natural" v="water" />
		<tag k="ssr:stedsnr" v="236142" />
	</node>
	<node id="-397544" lat="61.0370888924" lon="9.57978054914">
		<tag k="alt_name" v="Dalstjednet" />
		<tag k="name" v="Dalstjernet" />
		<tag k="natural" v="water" />
		<tag k="ssr:stedsnr" v="781377" />
	</node>
	<node id="-395491" lat="60.9624555564" lon="9.62133889119">
		<tag k="name" v="Etna" />
		<tag k="ssr:stedsnr" v="235880" />
		<tag k="waterway" v="river" />
	</node>
	<node id="-397538" lat="61.0080361137" lon="9.63696944747">
		<tag k="name" v="Rusteliputten" />
		<tag k="natural" v="water" />
		<tag k="ssr:stedsnr" v="781238" />
		<tag k="water" v="pond" />
	</node>
	<node id="-395489" lat="60.8752500016" lon="9.57238611804">
		<tag k="name" v="Storfjorden" />
		<tag k="natural" v="bay" />
		<tag k="ssr:stedsnr" v="235836" />
	</node>
	<node id="-395487" lat="60.9594916655" lon="9.70524721867">
		<tag k="name" v="Bjørkøye" />
		<tag k="place" v="island" />
		<tag k="ssr:stedsnr" v="235834" />
	</node>
	<node id="-395486" lat="60.9114527764" lon="9.57638888283">
		<tag k="name" v="Ukseputten" />
		<tag k="natural" v="water" />
		<tag k="ssr:stedsnr" v="235804" />
		<tag k="water" v="pond" />
	</node>
	<node id="-397531" lat="60.9779722191" lon="9.58256389188">
		<tag k="name" v="Bråketongaøye" />
		<tag k="place" v="island" />
		<tag k="ssr:stedsnr" v="781072" />
	</node>
	<node id="-397529" lat="61.1130333292" lon="9.62210278196">
		<tag k="name" v="Stubben" />
		<tag k="natural" v="strait" />
		<tag k="ssr:stedsnr" v="780571" />
	</node>
	<node id="-397528" lat="61.000847218" lon="9.5912861149">
		<tag k="alt_name" v="Rødningstjednet" />
		<tag k="name" v="Rudningstjernet" />
		<tag k="natural" v="water" />
		<tag k="ssr:stedsnr" v="780315" />
	</node>
	<node id="-395477" lat="61.0050111127" lon="9.76493611383">
		<tag k="alt_name" v="Kyrtjednbekken" />
		<tag k="name" v="Kyrtjernbekken" />
		<tag k="ssr:stedsnr" v="235497" />
		<tag k="waterway" v="stream" />
	</node>
	<node id="-395473" lat="60.933397219" lon="9.56289166577">
		<tag k="alt_name" v="Vestre Flætjednet" />
		<tag k="name" v="Vestre Flætjernet" />
		<tag k="natural" v="water" />
		<tag k="ssr:stedsnr" v="235411" />
	</node>
	<node id="-395472" lat="61.0813638875" lon="9.55070832509">
		<tag k="alt_name" v="Kelvetjednet" />
		<tag k="name" v="Kalvetjernet" />
		<tag k="natural" v="water" />
		<tag k="ssr:stedsnr" v="235410" />
	</node>
	<node id="-397519" lat="60.9579749981" lon="9.72304999076">
		<tag k="alt_name" v="Buøye" />
		<tag k="name" v="Buøyi" />
		<tag k="place" v="islet" />
		<tag k="ssr:stedsnr" v="737967" />
	</node>
	<node id="-397515" lat="60.9212203332" lon="9.6680989009">
		<tag k="name" v="Damtjernet" />
		<tag k="natural" v="water" />
		<tag k="ssr:stedsnr" v="737648" />
		<tag k="water" v="lake" />
	</node>
	<node id="-397514" lat="60.933194825" lon="9.56470384366">
		<tag k="name" v="Flævatni" />
		<tag k="natural" v="water" />
		<tag k="ssr:stedsnr" v="737516" />
		<tag k="water" v="lake" />
	</node>
	<node id="-397513" lat="60.8303083316" lon="9.68070000599">
		<tag k="name" v="Øyvassputten" />
		<tag k="natural" v="water" />
		<tag k="ssr:stedsnr" v="737194" />
	</node>
	<node id="-397511" lat="61.0452277742" lon="9.76758888848">
		<tag k="fixme" v="multiple name tags, choose one and add the other to alt_name" />
		<tag k="name" v="Bergsæterelva;Tverrelve" />
		<tag k="ssr:stedsnr" v="736644" />
		<tag k="waterway" v="stream" />
	</node>
	<node id="-397510" lat="61.0484453764" lon="9.7169655338">
		<tag k="alt_name" v="Brennaelve" />
		<tag k="name" v="Brendaelvi" />
		<tag k="ssr:stedsnr" v="736642" />
		<tag k="waterway" v="river" />
	</node>
	<node id="-397509" lat="60.860358333" lon="9.58868610352">
		<tag k="alt_name" v="Øyangen, vle;Vesleøyangen" />
		<tag k="name" v="Vesle Øyangen" />
		<tag k="natural" v="water" />
		<tag k="ssr:stedsnr" v="736635" />
	</node>
	<node id="-395459" lat="60.9891777785" lon="9.56581944644">
		<tag k="name" v="Etna" />
		<tag k="ssr:stedsnr" v="235135" />
		<tag k="waterway" v="river" />
	</node>
	<node id="-395453" lat="60.9968000019" lon="9.6067222139">
		<tag k="name" v="Bergabekken" />
		<tag k="ssr:stedsnr" v="234208" />
		<tag k="waterway" v="stream" />
	</node>
	<node id="-397499" lat="60.9276749968" lon="9.66517500453">
		<tag k="alt_name" v="Rundebergstjednet" />
		<tag k="name" v="Rundborgtjernet" />
		<tag k="natural" v="water" />
		<tag k="ssr:stedsnr" v="616902" />
	</node>
	<node id="-397497" lat="60.9928666662" lon="9.68066389423">
		<tag k="alt_name" v="Ørsjebekken" />
		<tag k="name" v="Ørsjøbekken" />
		<tag k="ssr:stedsnr" v="616794" />
		<tag k="waterway" v="stream" />
	</node>
	<node id="-397496" lat="60.9893722195" lon="9.62553610764">
		<tag k="name" v="Åfeta" />
		<tag k="ssr:stedsnr" v="616781" />
		<tag k="waterway" v="river" />
	</node>
	<node id="-395445" lat="60.8499749971" lon="9.60391111448">
		<tag k="fixme" v="multiple name tags, choose one and add the other to alt_name" />
		<tag k="name" v="Svarteputtatn;Øyvatni" />
		<tag k="natural" v="water" />
		<tag k="ssr:stedsnr" v="9031" />
	</node>
	<node id="-397491" lat="60.8953496928" lon="9.55807948707">
		<tag k="name" v="Kippesjøen" />
		<tag k="natural" v="water" />
		<tag k="ssr:stedsnr" v="615685" />
		<tag k="water" v="lake" />
	</node>
	<node id="-395442" lat="60.9622638911" lon="9.77921944089">
		<tag k="alt_name" v="Veslejuvtjednet" />
		<tag k="name" v="Veslejuvtjernet" />
		<tag k="natural" v="water" />
		<tag k="ssr:stedsnr" v="6912" />
	</node>
	<node id="-397489" lat="60.919186112" lon="9.7617694506">
		<tag k="name" v="Flatlandsbekken" />
		<tag k="ssr:stedsnr" v="615884" />
		<tag k="waterway" v="stream" />
	</node>
	<node id="-397485" lat="60.879602782" lon="9.77469443708">
		<tag k="name" v="Åborvatnet" />
		<tag k="natural" v="water" />
		<tag k="old_name" v="Øbbervatnet" />
		<tag k="ssr:stedsnr" v="615088" />
	</node>
	<node id="-397479" lat="61.073922218" lon="9.65482500036">
		<tag k="alt_name" v="Hafsenn, vle;Veslehafsenn" />
		<tag k="name" v="Vesle Hafsenn" />
		<tag k="natural" v="water" />
		<tag k="ssr:stedsnr" v="614707" />
	</node>
	<node id="-397478" lat="61.1022555597" lon="9.60765833764">
		<tag k="alt_name" v="Tjuvesteintjednet" />
		<tag k="name" v="Tjuvsteintjernet" />
		<tag k="natural" v="water" />
		<tag k="ssr:stedsnr" v="614681" />
	</node>
	<node id="-397475" lat="61.0404166691" lon="9.49468056112">
		<tag k="alt_name" v="Grånstøltjednet" />
		<tag k="name" v="Grannstøltjernet" />
		<tag k="natural" v="water" />
		<tag k="ssr:stedsnr" v="614588" />
	</node>
	<node id="-397470" lat="60.8929383694" lon="9.7326459884">
		<tag k="alt_name" v="Svartevatnet" />
		<tag k="name" v="Svartetjernet" />
		<tag k="natural" v="water" />
		<tag k="ssr:stedsnr" v="614071" />
	</node>
	<node id="-397460" lat="60.8793638879" lon="9.76688054843">
		<tag k="name" v="Putten" />
		<tag k="natural" v="water" />
		<tag k="ssr:stedsnr" v="600736" />
		<tag k="water" v="pond" />
	</node>
	<node id="-397459" lat="60.8521305556" lon="9.74971944057">
		<tag k="name" v="Haugabekken" />
		<tag k="ssr:stedsnr" v="600733" />
		<tag k="waterway" v="stream" />
	</node>
	<node id="-395676" lat="61.0463722237" lon="9.55783888614">
		<tag k="name" v="Rundtombekken" />
		<tag k="ssr:stedsnr" v="114346" />
		<tag k="waterway" v="stream" />
	</node>
	<node id="-397450" lat="61.0841388848" lon="9.45941667526">
		<tag k="name" v="Valegrovelva" />
		<tag k="ssr:stedsnr" v="600517" />
		<tag k="waterway" v="river" />
	</node>
	<node id="-397448" lat="60.9606166705" lon="9.52141667108">
		<tag k="name" v="Kinndalsputten" />
		<tag k="natural" v="water" />
		<tag k="ssr:stedsnr" v="600505" />
		<tag k="water" v="pond" />
	</node>
	<node id="-397447" lat="60.8252666694" lon="9.74169999787">
		<tag k="name" v="Puttatn" />
		<tag k="natural" v="water" />
		<tag k="ssr:stedsnr" v="600493" />
		<tag k="water" v="pond" />
	</node>
	<node id="-397444" lat="60.9475861091" lon="9.73269166514">
		<tag k="alt_name" v="Øvre Småtjednet" />
		<tag k="name" v="Øvre Småtjernet" />
		<tag k="natural" v="water" />
		<tag k="ssr:stedsnr" v="600456" />
	</node>
	<node id="-397442" lat="60.9970249972" lon="9.534863886">
		<tag k="alt_name" v="Bjødnatjednet" />
		<tag k="name" v="Bjørnatjernet" />
		<tag k="natural" v="water" />
		<tag k="ssr:stedsnr" v="600616" />
	</node>
	<node id="-397440" lat="61.0384444451" lon="9.46619721791">
		<tag k="name" v="Veslesundet" />
		<tag k="natural" v="strait" />
		<tag k="ssr:stedsnr" v="600292" />
	</node>
	<node id="-397434" lat="61.0475805545" lon="9.69777778607">
		<tag k="name" v="Kvannbekken" />
		<tag k="ssr:stedsnr" v="599938" />
		<tag k="waterway" v="stream" />
	</node>
	<node id="-397433" lat="61.0374333322" lon="9.71399444609">
		<tag k="name" v="Brennbekken" />
		<tag k="ssr:stedsnr" v="599925" />
		<tag k="waterway" v="stream" />
	</node>
	<node id="-397430" lat="61.1062638912" lon="9.68883054763">
		<tag k="name" v="Lenningen settefiskdam" />
		<tag k="ssr:stedsnr" v="599725" />
		<tag k="waterway" v="dam" />
	</node>
	<node id="-395625" lat="61.0335232584" lon="9.64727090626">
		<tag k="alt_name" v="Skotjednet" />
		<tag k="name" v="Skotjern" />
		<tag k="natural" v="water" />
		<tag k="ssr:stedsnr" v="250339" />
	</node>
	<node id="-397428" lat="60.9586222194" lon="9.69486944866">
		<tag k="alt_name" v="Vesle Totjednet" />
		<tag k="name" v="Vesle Totjernet" />
		<tag k="natural" v="water" />
		<tag k="ssr:stedsnr" v="599820" />
	</node>
	<node id="-397427" lat="60.9193972233" lon="9.78778054681">
		<tag k="alt_name" v="Pillartjednet" />
		<tag k="name" v="Pillartjernet" />
		<tag k="natural" v="water" />
		<tag k="ssr:stedsnr" v="599817" />
	</node>
	<node id="-397425" lat="60.9733694472" lon="9.65596944107">
		<tag k="alt_name" v="Erikstjednet" />
		<tag k="name" v="Erikstjernet" />
		<tag k="natural" v="water" />
		<tag k="ssr:stedsnr" v="599524" />
	</node>
	<node id="-397421" lat="60.8760638904" lon="9.70044166464">
		<tag k="name" v="Molandsvesandin" />
		<tag k="natural" v="shoal" />
		<tag k="place" v="locality" />
		<tag k="ssr:stedsnr" v="599486" />
	</node>
	<node id="-397415" lat="61.0262166644" lon="9.64686389489">
		<tag k="name" v="Roleghaugsbekken" />
		<tag k="ssr:stedsnr" v="599252" />
		<tag k="waterway" v="stream" />
	</node>
	<node id="-397413" lat="61.0626138912" lon="9.64486388416">
		<tag k="name" v="Liastølbekken" />
		<tag k="ssr:stedsnr" v="599239" />
		<tag k="waterway" v="stream" />
	</node>
	<node id="-397407" lat="60.9047888875" lon="9.7303083257">
		<tag k="name" v="Lundsæterputten" />
		<tag k="natural" v="water" />
		<tag k="ssr:stedsnr" v="599129" />
	</node>
	<node id="-395621" lat="61.0275638908" lon="9.70226111433">
		<tag k="alt_name" v="Langtjednbekken" />
		<tag k="name" v="Langtjernbekken" />
		<tag k="ssr:stedsnr" v="250311" />
		<tag k="waterway" v="stream" />
	</node>
	<node id="-397400" lat="60.967499999" lon="9.66879722187">
		<tag k="alt_name" v="Strandetjednet" />
		<tag k="name" v="Strandetjernet" />
		<tag k="natural" v="water" />
		<tag k="ssr:stedsnr" v="599170" />
	</node>
	<node id="-397398" lat="61.0618388856" lon="9.65283333803">
		<tag k="name" v="Liastølbekken" />
		<tag k="ssr:stedsnr" v="599153" />
		<tag k="waterway" v="stream" />
	</node>
	<node id="-395619" lat="61.2440083345" lon="9.29772500346">
		<tag k="name" v="Etne" />
		<tag k="ssr:stedsnr" v="249739" />
		<tag k="waterway" v="river" />
	</node>
	<node id="-397389" lat="60.8850000034" lon="9.63676388651">
		<tag k="name" v="Bergselve" />
		<tag k="ssr:stedsnr" v="598447" />
		<tag k="waterway" v="river" />
	</node>
	<node id="-397372" lat="61.079961111" lon="9.60762500555">
		<tag k="name" v="Åfetføssen" />
		<tag k="natural" v="waterfall" />
		<tag k="ssr:stedsnr" v="598099" />
	</node>
	<node id="-397367" lat="60.9334371943" lon="9.56740618878">
		<tag k="alt_name" v="Austre Flætjednet" />
		<tag k="name" v="Austre Flætjernet" />
		<tag k="natural" v="water" />
		<tag k="ssr:stedsnr" v="587191" />
	</node>
	<node id="-397366" lat="60.9729333377" lon="9.72154165822">
		<tag k="alt_name" v="Oksetjern;Uksetjednet" />
		<tag k="name" v="Uksetjernet" />
		<tag k="natural" v="water" />
		<tag k="ssr:stedsnr" v="555998" />
	</node>
	<node id="-397365" lat="60.9772833343" lon="9.7461444408">
		<tag k="alt_name" v="Svillen" />
		<tag k="name" v="Svillin" />
		<tag k="natural" v="water" />
		<tag k="ssr:stedsnr" v="555996" />
		<tag k="water" v="lake" />
	</node>
	<node id="-397364" lat="60.9560138889" lon="9.73716666792">
		<tag k="name" v="Skoputten" />
		<tag k="natural" v="water" />
		<tag k="ssr:stedsnr" v="555944" />
	</node>
	<node id="-397363" lat="60.9569111068" lon="9.76704999834">
		<tag k="alt_name" v="Garaelve" />
		<tag k="name" v="Garaelvi" />
		<tag k="ssr:stedsnr" v="555941" />
		<tag k="waterway" v="stream" />
	</node>
	<node id="-397354" lat="60.9328222267" lon="9.51859999499">
		<tag k="alt_name" v="Veslestiklingen;Stiklingen, vesle" />
		<tag k="name" v="Vesle Stiklingen" />
		<tag k="natural" v="water" />
		<tag k="ssr:stedsnr" v="555478" />
	</node>
	<node id="-397352" lat="60.976100004" lon="9.53853889756">
		<tag k="alt_name" v="Høgeføss" />
		<tag k="name" v="Høgefossen" />
		<tag k="natural" v="waterfall" />
		<tag k="ssr:stedsnr" v="555290" />
	</node>
	<node id="-397351" lat="60.9773194408" lon="9.51581666295">
		<tag k="alt_name" v="Skjenangselve" />
		<tag k="name" v="Sjenangselvi" />
		<tag k="ssr:stedsnr" v="555288" />
		<tag k="waterway" v="river" />
	</node>
	<node id="-397347" lat="61.0802282388" lon="9.63333467466">
		<tag k="name" v="Ølsjølifjorden" />
		<tag k="natural" v="water" />
		<tag k="ssr:stedsnr" v="553689" />
		<tag k="water" v="lake" />
	</node>
	<node id="-397333" lat="61.0042194466" lon="9.7619027839">
		<tag k="alt_name" v="Kyrtjednet" />
		<tag k="name" v="Kyrtjernet" />
		<tag k="natural" v="water" />
		<tag k="ssr:stedsnr" v="553470" />
	</node>
	<node id="-397330" lat="60.8222916647" lon="9.70731945179">
		<tag k="name" v="Svartevassbekken" />
		<tag k="ssr:stedsnr" v="550612" />
		<tag k="waterway" v="stream" />
	</node>
	<node id="-397320" lat="60.7993694418" lon="9.81489166466">
		<tag k="name" v="Veslekroken" />
		<tag k="natural" v="water" />
		<tag k="ssr:stedsnr" v="540531" />
	</node>
</osm>
