<?xml version="1.0" encoding="UTF-8"?>
<osm version="0.6" generator="osmapis">
	<node lat="61.05263333380088" lon="9.585083341863253" id="-46286">
		<tag k="junction" v="yes" />
		<tag k="name" v="Rotvollstølkrysset" />
		<tag k="place" v="locality" />
		<tag k="ssr:stedsnr" v="235349" />
	</node>
	<node lat="61.03727499917477" lon="9.63994443632811" id="-46303">
		<tag k="highway" v="path" />
		<tag k="name" v="Fjellvegen" />
		<tag k="ssr:stedsnr" v="235922" />
	</node>
	<node lat="60.93988888528787" lon="9.731372222653457" id="-46315">
		<tag k="highway" v="path" />
		<tag k="name" v="Gamle Skonnordvegen" />
		<tag k="ssr:stedsnr" v="236443" />
	</node>
	<node lat="61.07012777410449" lon="9.631749997700163" id="-46353">
		<tag k="highway" v="path" />
		<tag k="name" v="Ølsjølivegen" />
		<tag k="ssr:stedsnr" v="53279" />
	</node>
	<node lat="60.84413333551916" lon="9.620588887844434" id="-46394">
		<tag k="alt_name" v="Tonsåsen" />
		<tag k="name" v="Tonsåsen stasjon" />
		<tag k="railway" v="station" />
		<tag k="ssr:stedsnr" v="69042" />
		<tag k="train" v="yes" />
	</node>
	<node lat="61.0839611156453" lon="9.711594438423385" id="-46412">
		<tag k="highway" v="path" />
		<tag k="name" v="Spåtindstien" />
		<tag k="ssr:stedsnr" v="113246" />
	</node>
	<node lat="61.085330555018366" lon="9.582811111299563" id="-46428">
		<tag k="highway" v="path" />
		<tag k="name" v="Slaverivegen" />
		<tag k="ssr:stedsnr" v="114411" />
	</node>
	<node lat="61.08675555448325" lon="9.581411107445243" id="-46429">
		<tag k="highway" v="path" />
		<tag k="name" v="Briskevegen" />
		<tag k="ssr:stedsnr" v="114412" />
	</node>
	<node lat="60.83314097587521" lon="9.75061666931373" id="-46440">
		<tag k="bridge" v="yes" />
		<tag k="layer" v="1" />
		<tag k="name" v="Madslangrudbrue" />
		<tag k="old_name" v="Madslagrudbru" />
		<tag k="ssr:stedsnr" v="114618" />
	</node>
	<node lat="60.858305552781694" lon="9.735819451680134" id="-46451">
		<tag k="highway" v="path" />
		<tag k="name" v="Bamserudstien" />
		<tag k="ssr:stedsnr" v="115725" />
	</node>
	<node lat="61.080683333964814" lon="9.600930560057403" id="-46503">
		<tag k="highway" v="path" />
		<tag k="name" v="Ølsjølivegen" />
		<tag k="ssr:stedsnr" v="174108" />
	</node>
	<node lat="61.03996813433825" lon="9.719432714259657" id="-46540">
		<tag k="bridge" v="yes" />
		<tag k="layer" v="1" />
		<tag k="name" v="Brennabrue" />
		<tag k="ssr:stedsnr" v="175908" />
	</node>
	<node lat="60.827080556774916" lon="9.761058325888667" id="-46630">
		<tag k="bridge" v="yes" />
		<tag k="layer" v="1" />
		<tag k="name" v="Mebenda" />
		<tag k="ssr:stedsnr" v="289130" />
	</node>
	<node lat="60.96128610701394" lon="9.761558340542493" id="-46649">
		<tag k="highway" v="path" />
		<tag k="name" v="Jerlivegen" />
		<tag k="ssr:stedsnr" v="296623" />
	</node>
	<node lat="61.01046389014768" lon="9.541727770652466" id="-46663">
		<tag k="junction" v="yes" />
		<tag k="name" v="Lundmo" />
		<tag k="place" v="locality" />
		<tag k="ssr:stedsnr" v="297626" />
	</node>
	<node lat="60.886955557685596" lon="9.644433330179728" id="-46686">
		<tag k="bridge" v="yes" />
		<tag k="layer" v="1" />
		<tag k="name" v="Bruflat søndre" />
		<tag k="ssr:stedsnr" v="471140" />
	</node>
	<node lat="60.88745277716994" lon="9.593000001512964" id="-46692">
		<tag k="highway" v="path" />
		<tag k="name" v="Gamle Kongeveg" />
		<tag k="ssr:stedsnr" v="356009" />
	</node>
	<node lat="60.91115833119126" lon="9.741166661387103" id="-46716">
		<tag k="highway" v="path" />
		<tag k="name" v="Langvassvegen" />
		<tag k="ssr:stedsnr" v="357717" />
	</node>
	<node lat="60.965881522046054" lon="9.698702806611841" id="-46717">
		<tag k="bridge" v="yes" />
		<tag k="layer" v="1" />
		<tag k="name" v="Kjerringstølbrue" />
		<tag k="ssr:stedsnr" v="357807" />
	</node>
	<node lat="61.06551388807918" lon="9.545113887668348" id="-46724">
		<tag k="highway" v="path" />
		<tag k="name" v="Gamle Nysetervegen" />
		<tag k="ssr:stedsnr" v="358454" />
	</node>
	<node lat="60.87510277710549" lon="9.593874999146573" id="-46748">
		<tag k="highway" v="path" />
		<tag k="name" v="Ossætervegen" />
		<tag k="ssr:stedsnr" v="477877" />
	</node>
	<node lat="60.877333333673334" lon="9.559786107360184" id="-46749">
		<tag k="highway" v="path" />
		<tag k="name" v="Gamle Kongeveg" />
		<tag k="ssr:stedsnr" v="477880" />
	</node>
	<node lat="60.99730833735146" lon="9.65736944703696" id="-46758">
		<tag k="highway" v="path" />
		<tag k="name" v="Sagvegen" />
		<tag k="ssr:stedsnr" v="478409" />
	</node>
	<node lat="60.95396389262016" lon="9.658525002387586" id="-46767">
		<tag k="highway" v="path" />
		<tag k="name" v="Steinåsvegen" />
		<tag k="ssr:stedsnr" v="478831" />
	</node>
	<node lat="61.069558337223896" lon="9.448680556927544" id="-46809">
		<tag k="highway" v="path" />
		<tag k="name" v="Goarvegen" />
		<tag k="ssr:stedsnr" v="479997" />
	</node>
	<node lat="61.00744166400638" lon="9.566866659348753" id="-46812">
		<tag k="highway" v="path" />
		<tag k="name" v="Fossheimvegen" />
		<tag k="ssr:stedsnr" v="416317" />
	</node>
	<node lat="61.10274444580324" lon="9.579977778570244" id="-46815">
		<tag k="highway" v="path" />
		<tag k="name" v="Køfhusvegen" />
		<tag k="ssr:stedsnr" v="417018" />
	</node>
	<node lat="61.08941388837836" lon="9.575136112340918" id="-46820">
		<tag k="highway" v="path" />
		<tag k="name" v="Kølhusvegen" />
		<tag k="ssr:stedsnr" v="417435" />
	</node>
	<node lat="61.03948542486994" lon="9.551189802749594" id="-46855">
		<tag k="alt_name" v="Brenn" />
		<tag k="bridge" v="yes" />
		<tag k="layer" v="1" />
		<tag k="name" v="Brenn bru" />
		<tag k="ssr:stedsnr" v="422144" />
	</node>
	<node lat="61.021049998074375" lon="9.53008610956008" id="-46958">
		<tag k="highway" v="path" />
		<tag k="name" v="Gamle Kyrkjevegen" />
		<tag k="ssr:stedsnr" v="678567" />
	</node>
	<node lat="60.86186666377245" lon="9.610708327296255" id="-46973">
		<tag k="bridge" v="yes" />
		<tag k="layer" v="1" />
		<tag k="name" v="Bergselv" />
		<tag k="ssr:stedsnr" v="532122" />
	</node>
	<node lat="60.82615833465462" lon="9.791911113581474" id="-46974">
		<tag k="bridge" v="yes" />
		<tag k="layer" v="1" />
		<tag k="name" v="Finnstubekk" />
		<tag k="ssr:stedsnr" v="532124" />
	</node>
	<node lat="60.8656915413052" lon="9.710758331996013" id="-46975">
		<tag k="alt_name" v="Lunde" />
		<tag k="bridge" v="yes" />
		<tag k="layer" v="1" />
		<tag k="name" v="Lunde bru" />
		<tag k="ssr:stedsnr" v="532126" />
	</node>
	<node lat="61.08535833443342" lon="9.464700006741083" id="-46997">
		<tag k="highway" v="path" />
		<tag k="name" v="Valegrovvegen" />
		<tag k="ssr:stedsnr" v="539518" />
	</node>
	<node lat="61.00966667067891" lon="9.600677781374293" id="-47038">
		<tag k="fixme" v="consider highway=path" />
		<tag k="highway" v="track" />
		<tag k="name" v="Dalavegen" />
		<tag k="ssr:stedsnr" v="598163" />
	</node>
	<node lat="61.06988055574478" lon="9.443347227842356" id="-47077">
		<tag k="highway" v="path" />
		<tag k="name" v="Agnbrokkvegen" />
		<tag k="ssr:stedsnr" v="600997" />
	</node>
	<node lat="60.839930554780246" lon="9.654908330168345" id="-47111">
		<tag k="highway" v="path" />
		<tag k="name" v="Midtsætervegen" />
		<tag k="ssr:stedsnr" v="660130" />
	</node>
	<node lat="61.0864918539657" lon="9.5089619325083" id="-47138">
		<tag k="bridge" v="yes" />
		<tag k="layer" v="1" />
		<tag k="name" v="Nysetbrue" />
		<tag k="ssr:stedsnr" v="661680" />
	</node>
	<node lat="60.89080277791122" lon="9.641402773737017" id="-47175">
		<tag k="bridge" v="yes" />
		<tag k="layer" v="1" />
		<tag k="name" v="Bruflat nordre" />
		<tag k="ssr:stedsnr" v="896134" />
	</node>
	<node lat="61.056730552710164" lon="9.619433331192171" id="-47176">
		<tag k="bridge" v="yes" />
		<tag k="layer" v="1" />
		<tag k="name" v="Åfeta" />
		<tag k="ssr:stedsnr" v="896142" />
	</node>
	<node lat="61.00431666932575" lon="9.656405563642847" id="-47177">
		<tag k="alt_name" v="Åfetstølbruitn" />
		<tag k="bridge" v="yes" />
		<tag k="layer" v="1" />
		<tag k="name" v="Åfetstølbrua" />
		<tag k="ssr:stedsnr" v="714119" />
	</node>
	<node lat="61.09469722366099" lon="9.647688884671316" id="-47181">
		<tag k="highway" v="path" />
		<tag k="name" v="Lenningsvegen" />
		<tag k="ssr:stedsnr" v="720320" />
	</node>
	<node lat="61.049927779244676" lon="9.644736113261821" id="-47191">
		<tag k="highway" v="path" />
		<tag k="name" v="Jomfruslettstien" />
		<tag k="ssr:stedsnr" v="720904" />
	</node>
	<node lat="61.03400555406778" lon="9.658444440174557" id="-47197">
		<tag k="alt_name" v="Tjednsetstien" />
		<tag k="highway" v="path" />
		<tag k="name" v="Tjernsetstien" />
		<tag k="ssr:stedsnr" v="721286" />
	</node>
	<node lat="60.95375832964498" lon="9.628261112965307" id="-47209">
		<tag k="highway" v="path" />
		<tag k="name" v="Gamle bygdavegen" />
		<tag k="ssr:stedsnr" v="721889" />
	</node>
	<node lat="60.94014167025541" lon="9.558158339611687" id="-47249">
		<tag k="highway" v="path" />
		<tag k="name" v="Gamle sætervegen" />
		<tag k="ssr:stedsnr" v="902449" />
	</node>
	<node lat="60.839097218040784" lon="9.755669447961482" id="-47274">
		<tag k="highway" v="path" />
		<tag k="name" v="Sjurukastvegen" />
		<tag k="ssr:stedsnr" v="903591" />
	</node>
	<node lat="61.04696111208463" lon="9.658602783712535" id="-47283">
		<tag k="highway" v="path" />
		<tag k="name" v="Jomfruslettvegen" />
		<tag k="ssr:stedsnr" v="903935" />
	</node>
	<node lat="61.0444694474624" lon="9.674250008725757" id="-47284">
		<tag k="highway" v="path" />
		<tag k="name" v="Fjellvegen" />
		<tag k="ssr:stedsnr" v="903937" />
	</node>
	<node lat="61.03819166895144" lon="9.513377784316289" id="-47288">
		<tag k="highway" v="path" />
		<tag k="name" v="Vintervegen" />
		<tag k="ssr:stedsnr" v="904147" />
	</node>
	<node lat="60.933366666773544" lon="9.685794442365404" id="-47292">
		<tag k="man_made" v="cairn" />
		<tag k="name" v="Dalavardin" />
		<tag k="place" v="locality" />
		<tag k="ssr:stedsnr" v="904191" />
	</node>
	<node lat="61.0066861108651" lon="9.558580553895448" id="-47313">
		<tag k="bridge" v="yes" />
		<tag k="layer" v="1" />
		<tag k="name" v="Høla" />
		<tag k="ssr:stedsnr" v="774161" />
	</node>
	<node lat="61.060227779365285" lon="9.397358338569651" id="-47314">
		<tag k="bridge" v="yes" />
		<tag k="layer" v="1" />
		<tag k="name" v="Stavseng" />
		<tag k="ssr:stedsnr" v="774163" />
	</node>
	<node lat="61.010041669799705" lon="9.62075276915615" id="-47318">
		<tag k="highway" v="path" />
		<tag k="name" v="Sommarvegen" />
		<tag k="ssr:stedsnr" v="781169" />
	</node>
	<node lat="61.08112500019686" lon="9.596175007481015" id="-47388">
		<tag k="highway" v="path" />
		<tag k="name" v="Slaverivegen" />
		<tag k="ssr:stedsnr" v="842090" />
	</node>
	<node lat="61.0053416678547" lon="9.621752785252756" id="-47389">
		<tag k="fixme" v="consider highway=path" />
		<tag k="highway" v="track" />
		<tag k="name" v="Rustelivegen" />
		<tag k="ssr:stedsnr" v="842210" />
	</node>
	<node lat="60.98612222449554" lon="9.722527782693152" id="-47412">
		<tag k="highway" v="path" />
		<tag k="name" v="Blesavegen" />
		<tag k="ssr:stedsnr" v="843184" />
	</node>
	<node lat="60.982116665221554" lon="9.556030560571271" id="-47458">
		<tag k="highway" v="path" />
		<tag k="name" v="Tøravegen" />
		<tag k="ssr:stedsnr" v="902515" />
	</node>
	<node lat="61.075058333511926" lon="9.661316661874718" id="-47465">
		<tag k="highway" v="path" />
		<tag k="name" v="Ølsjølivegen" />
		<tag k="ssr:stedsnr" v="903159" />
	</node>
	<node lat="61.09360833248673" lon="9.623075007920178" id="-47501">
		<tag k="highway" v="path" />
		<tag k="name" v="Gamle Slaverivegen" />
		<tag k="ssr:stedsnr" v="963336" />
	</node>
	<node lat="61.06498611196667" lon="9.63464999859888" id="-47560">
		<tag k="highway" v="path" />
		<tag k="name" v="Veavegen" />
		<tag k="ssr:stedsnr" v="53255" />
	</node>
	<node lat="60.909341668199275" lon="9.656113880988443" id="-47635">
		<tag k="bridge" v="yes" />
		<tag k="layer" v="1" />
		<tag k="name" v="Byfugli" />
		<tag k="ssr:stedsnr" v="107113" />
	</node>
	<node lat="60.88687499740488" lon="9.615194439527908" id="-47636">
		<tag k="bridge" v="yes" />
		<tag k="layer" v="1" />
		<tag k="name" v="Brusveen" />
		<tag k="ssr:stedsnr" v="107114" />
	</node>
	<node lat="61.00088889163516" lon="9.76180277366462" id="-47641">
		<tag k="highway" v="path" />
		<tag k="name" v="Tanterhaugvegen" />
		<tag k="ssr:stedsnr" v="113443" />
	</node>
	<node lat="60.93648470546986" lon="9.628788030011794" id="-47664">
		<tag k="bridge" v="yes" />
		<tag k="layer" v="1" />
		<tag k="name" v="Lisbrue" />
		<tag k="ssr:stedsnr" v="114554" />
	</node>
	<node lat="60.854436107752306" lon="9.754927780833746" id="-47687">
		<tag k="bridge" v="yes" />
		<tag k="layer" v="1" />
		<tag k="name" v="Grasmarkkloppe" />
		<tag k="ssr:stedsnr" v="115298" />
	</node>
	<node lat="61.07479982037716" lon="9.48612213211814" id="-47695">
		<tag k="bridge" v="yes" />
		<tag k="layer" v="1" />
		<tag k="name" v="Valegrovbrue" />
		<tag k="ssr:stedsnr" v="115755" />
	</node>
	<node lat="61.059822225769906" lon="9.421811112526806" id="-47721">
		<tag k="alt_name" v="Hundehenga" />
		<tag k="bridge" v="yes" />
		<tag k="layer" v="1" />
		<tag k="name" v="Hundeheng" />
		<tag k="ssr:stedsnr" v="168147" />
	</node>
	<node lat="60.8318722257591" lon="9.693441674422203" id="-47766">
		<tag k="highway" v="path" />
		<tag k="name" v="Øyvassvegen" />
		<tag k="ssr:stedsnr" v="176638" />
	</node>
	<node lat="60.96903055535834" lon="9.619116667298085" id="-47801">
		<tag k="bridge" v="yes" />
		<tag k="layer" v="1" />
		<tag k="name" v="Flatøydegard" />
		<tag k="ssr:stedsnr" v="228148" />
	</node>
	<node lat="61.11768055406012" lon="9.689394450638954" id="-47845">
		<tag k="highway" v="path" />
		<tag k="name" v="Osihaugstien" />
		<tag k="ssr:stedsnr" v="296728" />
	</node>
	<node lat="61.0503722261078" lon="9.739972229587245" id="-47856">
		<tag k="highway" v="path" />
		<tag k="name" v="Midtfjellsvegen" />
		<tag k="ssr:stedsnr" v="297170" />
	</node>
	<node lat="61.049111112579716" lon="9.731052786412505" id="-47857">
		<tag k="highway" v="path" />
		<tag k="name" v="Lenningsvegen" />
		<tag k="ssr:stedsnr" v="297179" />
	</node>
	<node lat="60.88773333461076" lon="9.60284444146239" id="-47912">
		<tag k="highway" v="path" />
		<tag k="name" v="Gamle Kongeveg" />
		<tag k="ssr:stedsnr" v="356487" />
	</node>
	<node lat="61.05220833040047" lon="9.760219450596779" id="-48024">
		<tag k="highway" v="path" />
		<tag k="name" v="Godalsvegen" />
		<tag k="ssr:stedsnr" v="418137" />
	</node>
	<node lat="61.06385555885723" lon="9.71549722891799" id="-48030">
		<tag k="highway" v="path" />
		<tag k="name" v="Fjellsæterstien" />
		<tag k="ssr:stedsnr" v="418167" />
	</node>
	<node lat="61.022777777907976" lon="9.531836115329588" id="-48067">
		<tag k="highway" v="path" />
		<tag k="name" v="Kleivitn" />
		<tag k="ssr:stedsnr" v="421653" />
	</node>
	<node lat="61.030244443340564" lon="9.674652786969189" id="-48107">
		<tag k="highway" v="path" />
		<tag k="name" v="Slettastien" />
		<tag k="ssr:stedsnr" v="539255" />
	</node>
	<node lat="60.96070147458705" lon="9.70272571112106" id="-48127">
		<tag k="bridge" v="yes" />
		<tag k="layer" v="1" />
		<tag k="name" v="Gjørmebrue" />
		<tag k="ssr:stedsnr" v="539798" />
	</node>
	<node lat="60.88591166160917" lon="9.640555812844992" id="-48174">
		<tag k="bridge" v="yes" />
		<tag k="layer" v="1" />
		<tag k="name" v="Bruflat" />
		<tag k="ssr:stedsnr" v="592144" />
	</node>
	<node lat="60.94842777772314" lon="9.626880550631554" id="-48175">
		<tag k="bridge" v="yes" />
		<tag k="layer" v="1" />
		<tag k="name" v="Storebekken" />
		<tag k="ssr:stedsnr" v="592149" />
	</node>
	<node lat="61.07899444070694" lon="9.59459444185685" id="-48182">
		<tag k="highway" v="path" />
		<tag k="name" v="Bekkedalen" />
		<tag k="ssr:stedsnr" v="598088" />
	</node>
	<node lat="61.00503611352939" lon="9.586222228173149" id="-48188">
		<tag k="highway" v="path" />
		<tag k="name" v="Rødningsvegen" />
		<tag k="ssr:stedsnr" v="598333" />
	</node>
	<node lat="61.11463610787234" lon="9.599161112659601" id="-48191">
		<tag k="highway" v="path" />
		<tag k="name" v="Kølhusvegen" />
		<tag k="ssr:stedsnr" v="598625" />
	</node>
	<node lat="61.09388333395252" lon="9.581911111760718" id="-48193">
		<tag k="highway" v="path" />
		<tag k="name" v="Kølhusvintervegen" />
		<tag k="ssr:stedsnr" v="598400" />
	</node>
	<node lat="60.85907500164572" lon="9.628150008666221" id="-48205">
		<tag k="fixme" v="consider highway=path" />
		<tag k="highway" v="track" />
		<tag k="name" v="Prestvegen" />
		<tag k="ssr:stedsnr" v="599086" />
	</node>
	<node lat="61.019438886884146" lon="9.724172229613657" id="-48214">
		<tag k="highway" v="path" />
		<tag k="name" v="Kvassesæterstien" />
		<tag k="ssr:stedsnr" v="599236" />
	</node>
	<node lat="61.006463888069305" lon="9.586119445868594" id="-48281">
		<tag k="fixme" v="consider highway=path" />
		<tag k="highway" v="track" />
		<tag k="name" v="Gamle Hestekinnvegen" />
		<tag k="ssr:stedsnr" v="658374" />
	</node>
	<node lat="61.10938055323458" lon="9.669083340621105" id="-48290">
		<tag k="highway" v="path" />
		<tag k="name" v="Steinbuvatnstien" />
		<tag k="ssr:stedsnr" v="660716" />
	</node>
	<node lat="60.818316670445626" lon="9.721958335873524" id="-48320">
		<tag k="highway" v="path" />
		<tag k="name" v="Midtvegen" />
		<tag k="ssr:stedsnr" v="661992" />
	</node>
	<node lat="60.979144441274364" lon="9.618386119019892" id="-48322">
		<tag k="bridge" v="yes" />
		<tag k="layer" v="1" />
		<tag k="name" v="Svingen" />
		<tag k="ssr:stedsnr" v="714120" />
	</node>
	<node lat="61.092977776146135" lon="9.55830832599711" id="-48343">
		<tag k="highway" v="path" />
		<tag k="name" v="Gamle Stuvelistien" />
		<tag k="ssr:stedsnr" v="720433" />
	</node>
	<node lat="60.89451388810406" lon="9.6143972140397" id="-48345">
		<tag k="highway" v="path" />
		<tag k="name" v="Knippevegen" />
		<tag k="ssr:stedsnr" v="720392" />
	</node>
	<node lat="60.98583055994905" lon="9.729969446075147" id="-48364">
		<tag k="highway" v="path" />
		<tag k="name" v="Listølvegen" />
		<tag k="ssr:stedsnr" v="721158" />
	</node>
	<node lat="61.052016669329404" lon="9.590663884857022" id="-48412">
		<tag k="junction" v="yes" />
		<tag k="name" v="Frugesetkrysset" />
		<tag k="place" v="locality" />
		<tag k="ssr:stedsnr" v="781324" />
	</node>
	<node lat="60.91513889237125" lon="9.53607222499628" id="-48427">
		<tag k="highway" v="path" />
		<tag k="name" v="Bjørgovardstien" />
		<tag k="ssr:stedsnr" v="781813" />
	</node>
	<node lat="60.92148333118415" lon="9.592397227503723" id="-48441">
		<tag k="highway" v="path" />
		<tag k="name" v="Heimstølvegen" />
		<tag k="ssr:stedsnr" v="781975" />
	</node>
	<node lat="60.88989722221705" lon="9.74299722688327" id="-48450">
		<tag k="highway" v="path" />
		<tag k="name" v="Dalavegen" />
		<tag k="ssr:stedsnr" v="782154" />
	</node>
	<node lat="61.00535704637042" lon="9.544770662955573" id="-48569">
		<tag k="bridge" v="yes" />
		<tag k="layer" v="1" />
		<tag k="name" v="Lundmobrue" />
		<tag k="ssr:stedsnr" v="844657" />
	</node>
	<node lat="61.05381944401212" lon="9.382450007282086" id="-48595">
		<tag k="bridge" v="yes" />
		<tag k="layer" v="1" />
		<tag k="name" v="Skrinda" />
		<tag k="ssr:stedsnr" v="957145" />
	</node>
	<node lat="60.98285020703647" lon="9.570592449990832" id="-48608">
		<tag k="bridge" v="yes" />
		<tag k="layer" v="1" />
		<tag k="name" v="Brusvebrue" />
		<tag k="ssr:stedsnr" v="963530" />
	</node>
	<node lat="61.08043611248567" lon="9.700727769293296" id="-48610">
		<tag k="highway" v="path" />
		<tag k="name" v="Lenningsvegen" />
		<tag k="ssr:stedsnr" v="963263" />
	</node>
	<node lat="60.91410277706436" lon="9.610349992998765" id="-48627">
		<tag k="highway" v="path" />
		<tag k="name" v="Fjellbygdvegen" />
		<tag k="ssr:stedsnr" v="963878" />
	</node>
	<node lat="61.07530277930954" lon="9.70700832793898" id="-48638">
		<tag k="highway" v="path" />
		<tag k="name" v="Lenningsvegen" />
		<tag k="ssr:stedsnr" v="964218" />
	</node>
	<node lat="61.05486666365446" lon="9.67765833760396" id="-48660">
		<tag k="highway" v="path" />
		<tag k="name" v="Lenningsvegen" />
		<tag k="ssr:stedsnr" v="964914" />
	</node>
	<node lat="60.81870833426475" lon="9.724633327947496" id="-48662">
		<tag k="highway" v="path" />
		<tag k="name" v="Kløvvegen" />
		<tag k="ssr:stedsnr" v="964980" />
	</node>
	<node lat="61.06623055589005" lon="9.416802775018226" id="-48674">
		<tag k="highway" v="path" />
		<tag k="name" v="Agdnbrokvegen" />
		<tag k="ssr:stedsnr" v="967864" />
	</node>
	<node lat="60.86921083910173" lon="9.708447413554957" id="-48682">
		<tag k="bridge" v="yes" />
		<tag k="layer" v="1" />
		<tag k="name" v="Hellefossbrue" />
		<tag k="ssr:stedsnr" v="985585" />
	</node>
</osm>
