<?xml version="1.0" encoding="UTF-8"?>
<<<<<<< HEAD
<osm version="0.6" generator="osmapis">
	<node lat="60.99705277397879" lon="9.624252772035426" id="-18111">
		<tag k="name" v="Graneimyre" />
		<tag k="natural" v="wetland" />
		<tag k="ssr:stedsnr" v="234212" />
	</node>
	<node lat="60.88466666915974" lon="9.577361114320048" id="-18112">
		<tag k="landuse" v="meadow" />
		<tag k="name" v="Tetrud" />
		<tag k="ssr:stedsnr" v="235022" />
	</node>
	<node lat="61.04170833498773" lon="9.576291669725036" id="-18117">
		<tag k="name" v="Dalsmyre" />
		<tag k="natural" v="wetland" />
		<tag k="ssr:stedsnr" v="235364" />
	</node>
	<node lat="60.91502778215256" lon="9.694216664212309" id="-18127">
		<tag k="name" v="Olaskålin" />
		<tag k="place" v="locality" />
		<tag k="ssr:stedsnr" v="235575" />
	</node>
	<node lat="60.8538527805165" lon="9.661119438478972" id="-18137">
		<tag k="name" v="Slåttmyre" />
		<tag k="natural" v="wetland" />
		<tag k="ssr:stedsnr" v="236153" />
	</node>
	<node lat="60.89330000229317" lon="9.722877769691644" id="-18138">
		<tag k="name" v="Gåsebergmyre" />
		<tag k="natural" v="wetland" />
		<tag k="ssr:stedsnr" v="236158" />
	</node>
	<node lat="61.04077499798641" lon="9.54813332905882" id="-18142">
		<tag k="landuse" v="meadow" />
		<tag k="name" v="Midtslette" />
		<tag k="ssr:stedsnr" v="236257" />
	</node>
	<node lat="60.9510500001286" lon="9.545316665816744" id="-18143">
		<tag k="landuse" v="meadow" />
		<tag k="name" v="Hansevøllen" />
		<tag k="ssr:stedsnr" v="236347" />
	</node>
	<node lat="61.00068888795622" lon="9.536994446900499" id="-18165">
		<tag k="name" v="Fuglebrenne" />
		<tag k="place" v="locality" />
		<tag k="ssr:stedsnr" v="237653" />
	</node>
	<node lat="61.09150833608986" lon="9.542205550481848" id="-18166">
		<tag k="name" v="Stuvelimyratn" />
		<tag k="natural" v="wetland" />
		<tag k="ssr:stedsnr" v="237798" />
	</node>
	<node lat="61.00437499776489" lon="9.568327780777205" id="-18172">
		<tag k="name" v="Personjordet" />
		<tag k="place" v="locality" />
		<tag k="ssr:stedsnr" v="52319" />
	</node>
	<node lat="60.88485555309237" lon="9.581105551545647" id="-18179">
		<tag k="landuse" v="meadow" />
		<tag k="name" v="Brunsmyre" />
		<tag k="ssr:stedsnr" v="53009" />
	</node>
	<node lat="60.911363891836025" lon="9.773016671325662" id="-18187">
		<tag k="name" v="Romyre" />
		<tag k="natural" v="wetland" />
		<tag k="ssr:stedsnr" v="53770" />
	</node>
	<node lat="61.05031944311364" lon="9.624597230031569" id="-18188">
		<tag k="alt_name" v="Sørre Vøllen" />
		<tag k="name" v="Søre Vøllen" />
		<tag k="place" v="locality" />
		<tag k="ssr:stedsnr" v="53906" />
	</node>
	<node lat="61.031119441917724" lon="9.473436114250518" id="-18194">
		<tag k="name" v="Baklivøllen" />
		<tag k="place" v="locality" />
		<tag k="ssr:stedsnr" v="54102" />
	</node>
	<node lat="61.033013888253876" lon="9.617813895715651" id="-18206">
		<tag k="name" v="Kølhusbrøtalie" />
		<tag k="place" v="locality" />
		<tag k="ssr:stedsnr" v="54282" />
	</node>
	<node lat="60.93532777499162" lon="9.731211105142895" id="-18207">
		<tag k="name" v="Puttemyre" />
		<tag k="natural" v="wetland" />
		<tag k="ssr:stedsnr" v="54422" />
	</node>
	<node lat="60.867869444174055" lon="9.723647226995887" id="-18213">
		<tag k="name" v="Kjølskåldokke" />
		<tag k="place" v="locality" />
		<tag k="ssr:stedsnr" v="54853" />
	</node>
	<node lat="60.87091388679162" lon="9.754469450199755" id="-18214">
		<tag k="name" v="Snoromyre" />
		<tag k="natural" v="wetland" />
		<tag k="ssr:stedsnr" v="54884" />
	</node>
	<node lat="60.964230559252634" lon="9.569236104427706" id="-18242">
		<tag k="name" v="Stallmyre" />
		<tag k="natural" v="wetland" />
		<tag k="ssr:stedsnr" v="113512" />
	</node>
	<node lat="60.89051388561691" lon="9.61142777512478" id="-18261">
		<tag k="landuse" v="meadow" />
		<tag k="name" v="Temmerbakkin" />
		<tag k="ssr:stedsnr" v="114523" />
	</node>
	<node lat="60.908922217900326" lon="9.547730561125025" id="-18276">
		<tag k="name" v="Øvre Stølsmyre" />
		<tag k="natural" v="wetland" />
		<tag k="ssr:stedsnr" v="115415" />
	</node>
	<node lat="60.85906666505734" lon="9.724533342064477" id="-18280">
		<tag k="name" v="Nylåveenge" />
		<tag k="place" v="locality" />
		<tag k="ssr:stedsnr" v="115737" />
	</node>
	<node lat="60.885558336970846" lon="9.568294445333922" id="-18305">
		<tag k="alt_name" v="Stormyre" />
		<tag k="name" v="Storemyri" />
		<tag k="natural" v="wetland" />
		<tag k="ssr:stedsnr" v="251744" />
	</node>
	<node lat="60.98941388619415" lon="9.600899995801205" id="-18330">
		<tag k="name" v="Stormyri" />
		<tag k="natural" v="wetland" />
		<tag k="ssr:stedsnr" v="252962" />
	</node>
	<node lat="60.89870000199449" lon="9.5732833323831" id="-18333">
		<tag k="name" v="Handebakkmyre" />
		<tag k="natural" v="wetland" />
		<tag k="ssr:stedsnr" v="174265" />
	</node>
	<node lat="60.95861666327264" lon="9.552222225289407" id="-18341">
		<tag k="name" v="Veslevollen" />
		<tag k="place" v="locality" />
		<tag k="ssr:stedsnr" v="174614" />
	</node>
	<node lat="60.852277775858354" lon="9.596727769163186" id="-18346">
		<tag k="name" v="Grånstølmyre" />
		<tag k="natural" v="wetland" />
		<tag k="ssr:stedsnr" v="174913" />
	</node>
	<node lat="60.9786861141887" lon="9.73932223094584" id="-18352">
		<tag k="name" v="Brennitn" />
		<tag k="natural" v="wetland" />
		<tag k="ssr:stedsnr" v="175154" />
	</node>
	<node lat="60.87378889077605" lon="9.680280561312058" id="-18359">
		<tag k="name" v="Rovemyre" />
		<tag k="natural" v="wetland" />
		<tag k="ssr:stedsnr" v="175472" />
	</node>
	<node lat="60.851213892283695" lon="9.728811119797149" id="-18367">
		<tag k="name" v="Røstenge" />
		<tag k="place" v="locality" />
		<tag k="ssr:stedsnr" v="175766" />
	</node>
	<node lat="60.863305555571664" lon="9.722311114217238" id="-18374">
		<tag k="name" v="Sandmælingen" />
		<tag k="place" v="locality" />
		<tag k="ssr:stedsnr" v="176813" />
	</node>
	<node lat="60.91380555461071" lon="9.703002774042291" id="-18414">
		<tag k="name" v="Roveskålin" />
		<tag k="place" v="locality" />
		<tag k="ssr:stedsnr" v="235565" />
	</node>
	<node lat="60.88033333034888" lon="9.740047216278663" id="-18432">
		<tag k="name" v="Urdmyre" />
=======
<osm generator="osmapis" version="0.6">
	<node id="-397311" lat="61.0352138855" lon="9.54898055686">
		<tag k="name" v="Sletten" />
		<tag k="place" v="locality" />
		<tag k="ssr:stedsnr" v="540144" />
	</node>
	<node id="-396285" lat="61.0974694456" lon="9.69652222774">
		<tag k="name" v="Hyttebekkmyre" />
		<tag k="natural" v="wetland" />
		<tag k="ssr:stedsnr" v="721701" />
	</node>
	<node id="-396284" lat="60.9186416643" lon="9.67361944931">
		<tag k="alt_name" v="Damtjednmyre" />
		<tag k="name" v="Damtjernmyre" />
		<tag k="natural" v="wetland" />
		<tag k="ssr:stedsnr" v="721520" />
	</node>
	<node id="-396795" lat="60.9759194416" lon="9.76671110846">
		<tag k="name" v="Stormyratn" />
		<tag k="natural" v="wetland" />
		<tag k="ssr:stedsnr" v="115190" />
	</node>
	<node id="-396799" lat="61.0268111127" lon="9.50727499685">
		<tag k="name" v="Seta" />
		<tag k="place" v="locality" />
		<tag k="ssr:stedsnr" v="115098" />
	</node>
	<node id="-397816" lat="61.0685055572" lon="9.54659166417">
		<tag k="name" v="Smiugardsmarka" />
		<tag k="place" v="locality" />
		<tag k="ssr:stedsnr" v="964478" />
	</node>
	<node id="-397303" lat="61.04355278" lon="9.73781388186">
		<tag k="name" v="Madslangrudvøllen" />
		<tag k="place" v="locality" />
		<tag k="ssr:stedsnr" v="539921" />
	</node>
	<node id="-396790" lat="60.8434861153" lon="9.66018889647">
		<tag k="name" v="Ringstølmyre" />
		<tag k="natural" v="wetland" />
		<tag k="ssr:stedsnr" v="115159" />
	</node>
	<node id="-397300" lat="61.112244445" lon="9.67408055875">
		<tag k="name" v="Blautmyre" />
		<tag k="natural" v="wetland" />
		<tag k="ssr:stedsnr" v="539721" />
	</node>
	<node id="-395763" lat="61.0015" lon="9.69371667503">
		<tag k="name" v="Beinstimyre" />
		<tag k="natural" v="wetland" />
		<tag k="ssr:stedsnr" v="296336" />
	</node>
	<node id="-397810" lat="60.8943833332" lon="9.75782499741">
		<tag k="name" v="Grasmyre" />
		<tag k="natural" v="wetland" />
		<tag k="ssr:stedsnr" v="964186" />
	</node>
	<node id="-395761" lat="61.0016777809" lon="9.67778055325">
		<tag k="name" v="Brusvemyrhaugen" />
		<tag k="place" v="locality" />
		<tag k="ssr:stedsnr" v="296330" />
	</node>
	<node id="-396272" lat="60.9979500017" lon="9.66563055941">
		<tag k="landuse" v="meadow" />
		<tag k="name" v="Fossøye" />
		<tag k="ssr:stedsnr" v="721405" />
	</node>
	<node id="-397294" lat="61.0820805553" lon="9.47757222508">
		<tag k="alt_name" v="Nørre Tangen" />
		<tag k="landuse" v="meadow" />
		<tag k="name" v="Nørdre Tangen" />
		<tag k="ssr:stedsnr" v="539512" />
	</node>
	<node id="-395773" lat="60.8327027791" lon="9.7604861121">
		<tag k="name" v="Nørstebøenge" />
		<tag k="place" v="locality" />
		<tag k="ssr:stedsnr" v="296573" />
	</node>
	<node id="-395756" lat="60.9617749962" lon="9.65868610239">
		<tag k="name" v="Langemyre" />
		<tag k="natural" v="wetland" />
		<tag k="ssr:stedsnr" v="296142" />
	</node>
	<node id="-397291" lat="60.8904861082" lon="9.60536389361">
		<tag k="name" v="Myratn" />
		<tag k="natural" v="wetland" />
		<tag k="ssr:stedsnr" v="539462" />
	</node>
	<node id="-397289" lat="61.0002444481" lon="9.69871943937">
		<tag k="name" v="Østenmyre" />
		<tag k="natural" v="wetland" />
		<tag k="ssr:stedsnr" v="539323" />
	</node>
	<node id="-397287" lat="61.0281583374" lon="9.61513054857">
		<tag k="landuse" v="meadow" />
		<tag k="name" v="Dalalifeten" />
		<tag k="ssr:stedsnr" v="539235" />
	</node>
	<node id="-396262" lat="60.8955888856" lon="9.69775555125">
		<tag k="name" v="Åborvassmyrane" />
		<tag k="natural" v="wetland" />
		<tag k="old_name" v="Øbbervassmyratn" />
		<tag k="ssr:stedsnr" v="721022" />
	</node>
	<node id="-396261" lat="60.9043555554" lon="9.70696110262">
		<tag k="name" v="Flæten" />
		<tag k="natural" v="wetland" />
		<tag k="ssr:stedsnr" v="721021" />
	</node>
	<node id="-397796" lat="60.9184333365" lon="9.75835833677">
		<tag k="name" v="Telefonmyre" />
		<tag k="natural" v="wetland" />
		<tag k="ssr:stedsnr" v="963730" />
	</node>
	<node id="-397794" lat="60.9637805582" lon="9.55240276916">
		<tag k="name" v="Elgmyratn" />
		<tag k="natural" v="wetland" />
		<tag k="ssr:stedsnr" v="963618" />
	</node>
	<node id="-397792" lat="60.9365027796" lon="9.59878332489">
		<tag k="name" v="Åsskogen" />
		<tag k="place" v="locality" />
		<tag k="ssr:stedsnr" v="963601" />
	</node>
	<node id="-396913" lat="61.0490805598" lon="9.66603332432">
		<tag k="name" v="Steinfotmyratn" />
		<tag k="natural" v="wetland" />
		<tag k="ssr:stedsnr" v="175928" />
	</node>
	<node id="-396254" lat="60.8461222227" lon="9.58783610325">
		<tag k="name" v="Gjestgiverhaugen" />
		<tag k="place" v="locality" />
		<tag k="ssr:stedsnr" v="720910" />
	</node>
	<node id="-395741" lat="60.9410638897" lon="9.59859166318">
		<tag k="landuse" v="meadow" />
		<tag k="name" v="Øyatn" />
		<tag k="ssr:stedsnr" v="295538" />
	</node>
	<node id="-396764" lat="61.0304916649" lon="9.63094444745">
		<tag k="name" v="Rullbakk" />
		<tag k="place" v="locality" />
		<tag k="ssr:stedsnr" v="114279" />
	</node>
	<node id="-395739" lat="60.96371389" lon="9.57478610964">
		<tag k="name" v="Størrmyre" />
		<tag k="natural" v="wetland" />
		<tag k="ssr:stedsnr" v="295526" />
	</node>
	<node id="-396879" lat="60.9786861142" lon="9.73932223095">
		<tag k="name" v="Brennitn" />
		<tag k="natural" v="wetland" />
		<tag k="ssr:stedsnr" v="175154" />
	</node>
	<node id="-397267" lat="61.0609944433" lon="9.63023333484">
		<tag k="name" v="Liastølmyratn" />
>>>>>>> e1d4bc35ff8a6074a6f2e91616a996b547c36f15
		<tag k="natural" v="wetland" />
		<tag k="ssr:stedsnr" v="538268" />
	</node>
<<<<<<< HEAD
	<node lat="61.045566666683655" lon="9.762969448029526" id="-18435">
		<tag k="alt_name" v="Nerre Bergsætermyre" />
		<tag k="name" v="Nedre Bergsætermyre" />
		<tag k="natural" v="wetland" />
		<tag k="ssr:stedsnr" v="236884" />
	</node>
	<node lat="61.04938055850499" lon="9.468152786794457" id="-18443">
		<tag k="name" v="Trandemyre" />
		<tag k="natural" v="wetland" />
		<tag k="ssr:stedsnr" v="237211" />
	</node>
	<node lat="60.86084722180161" lon="9.745286104594308" id="-18445">
		<tag k="name" v="Nybrennmyre" />
		<tag k="natural" v="wetland" />
		<tag k="ssr:stedsnr" v="237285" />
	</node>
	<node lat="61.07807499626477" lon="9.53348610311308" id="-18451">
		<tag k="historic" v="shieling" />
		<tag k="name" v="Nyset" />
		<tag k="place" v="locality" />
		<tag k="ssr:stedsnr" v="237790" />
	</node>
	<node lat="60.963713890028586" lon="9.57478610964373" id="-18465">
		<tag k="name" v="Størrmyre" />
		<tag k="natural" v="wetland" />
		<tag k="ssr:stedsnr" v="295526" />
	</node>
	<node lat="60.96434444699942" lon="9.768558330480065" id="-18477">
		<tag k="name" v="Veslejuvmyre" />
		<tag k="natural" v="wetland" />
		<tag k="ssr:stedsnr" v="296624" />
	</node>
	<node lat="61.004483334697554" lon="9.519269453194033" id="-18489">
		<tag k="name" v="Kallebrøtin" />
		<tag k="place" v="locality" />
		<tag k="ssr:stedsnr" v="297623" />
	</node>
	<node lat="61.088505559089576" lon="9.470844438906935" id="-18495">
		<tag k="alt_name" v="Tangaflætn" />
		<tag k="name" v="Tangeflæin" />
		<tag k="natural" v="wetland" />
		<tag k="ssr:stedsnr" v="310887" />
	</node>
	<node lat="60.85435000304353" lon="9.648427783940447" id="-18504">
		<tag k="alt_name" v="Beitemyratn" />
		<tag k="name" v="Beitesmyran" />
		<tag k="natural" v="wetland" />
		<tag k="ssr:stedsnr" v="312016" />
	</node>
	<node lat="61.02850833336199" lon="9.537705548439593" id="-18512">
		<tag k="name" v="Skilnamyre" />
		<tag k="natural" v="wetland" />
		<tag k="ssr:stedsnr" v="314607" />
	</node>
	<node lat="60.911427775963105" lon="9.709680558015148" id="-18523">
		<tag k="name" v="Liavøllen" />
		<tag k="place" v="locality" />
		<tag k="ssr:stedsnr" v="356505" />
	</node>
	<node lat="60.9124833297064" lon="9.578638893427264" id="-18528">
		<tag k="name" v="Brølløpsmyre" />
		<tag k="natural" v="wetland" />
		<tag k="ssr:stedsnr" v="356804" />
	</node>
	<node lat="60.98633333057015" lon="9.74774166496584" id="-18536">
		<tag k="name" v="Blesamyre" />
		<tag k="natural" v="wetland" />
		<tag k="ssr:stedsnr" v="357168" />
	</node>
	<node lat="61.02221388515855" lon="9.642769446757216" id="-18538">
		<tag k="name" v="Signevøllen" />
		<tag k="place" v="locality" />
		<tag k="ssr:stedsnr" v="357251" />
	</node>
	<node lat="61.00494721973919" lon="9.730852772102299" id="-18539">
		<tag k="name" v="Tanterhaugmarke" />
		<tag k="place" v="locality" />
		<tag k="ssr:stedsnr" v="357449" />
	</node>
	<node lat="60.94924444806045" lon="9.662083326956557" id="-18545">
		<tag k="name" v="Nyhusmyre" />
=======
	<node id="-397266" lat="60.935927782" lon="9.5680111021">
		<tag k="name" v="Flæmyre" />
		<tag k="natural" v="wetland" />
		<tag k="ssr:stedsnr" v="538424" />
	</node>
	<node id="-396753" lat="61.0103638867" lon="9.6096444452">
		<tag k="landuse" v="meadow" />
		<tag k="name" v="Øygarden" />
		<tag k="ssr:stedsnr" v="113155" />
	</node>
	<node id="-397776" lat="60.8592583317" lon="9.60978055432">
		<tag k="name" v="Sagmyre" />
		<tag k="natural" v="wetland" />
		<tag k="ssr:stedsnr" v="963098" />
	</node>
	<node id="-397774" lat="60.9978138893" lon="9.56334722208">
		<tag k="landuse" v="meadow" />
		<tag k="name" v="Lundemoenge" />
		<tag k="ssr:stedsnr" v="962292" />
	</node>
	<node id="-396181" lat="60.8390277771" lon="9.7598444514">
		<tag k="name" v="Ørmeberget" />
		<tag k="natural" v="scree" />
		<tag k="ssr:stedsnr" v="539602" />
	</node>
	<node id="-395499" lat="60.8538527805" lon="9.66111943848">
		<tag k="name" v="Slåttmyre" />
		<tag k="natural" v="wetland" />
		<tag k="ssr:stedsnr" v="236153" />
	</node>
	<node id="-397771" lat="60.9783805587" lon="9.64312222077">
		<tag k="alt_name" v="Skrompen" />
		<tag k="landuse" v="meadow" />
		<tag k="name" v="Skrumpen" />
		<tag k="ssr:stedsnr" v="859952" />
	</node>
	<node id="-396234" lat="61.0728527746" lon="9.58886389083">
		<tag k="name" v="Nystølmyratn" />
		<tag k="natural" v="wetland" />
		<tag k="ssr:stedsnr" v="720258" />
	</node>
	<node id="-397257" lat="60.9535666634" lon="9.64828889052">
		<tag k="alt_name" v="Heimstølen" />
		<tag k="historic" v="shieling" />
		<tag k="name" v="Heimstølvollen" />
		<tag k="place" v="locality" />
		<tag k="ssr:stedsnr" v="434951" />
	</node>
	<node id="-397256" lat="60.9677638909" lon="9.67488056292">
		<tag k="alt_name" v="Kuvmyre" />
		<tag k="name" v="Stormyri" />
		<tag k="natural" v="wetland" />
		<tag k="ssr:stedsnr" v="434935" />
	</node>
	<node id="-397255" lat="60.9514333299" lon="9.75640556368">
		<tag k="historic" v="shieling" />
		<tag k="name" v="Meinset" />
		<tag k="place" v="locality" />
		<tag k="ssr:stedsnr" v="434911" />
	</node>
	<node id="-397254" lat="60.946202774" lon="9.73643888808">
		<tag k="historic" v="shieling" />
		<tag k="name" v="Småtjernstølen" />
		<tag k="place" v="locality" />
		<tag k="ssr:stedsnr" v="434909" />
	</node>
	<node id="-395766" lat="60.9992222198" lon="9.67199721426">
		<tag k="landuse" v="meadow" />
		<tag k="name" v="Akkordløo" />
		<tag k="ssr:stedsnr" v="296387" />
	</node>
	<node id="-397762" lat="60.8865083377" lon="9.5453861023">
		<tag k="name" v="Langemyri" />
		<tag k="natural" v="wetland" />
		<tag k="ssr:stedsnr" v="859697" />
	</node>
	<node id="-397387" lat="60.897258332" lon="9.59883888293">
		<tag k="name" v="Liavollatn" />
		<tag k="place" v="locality" />
		<tag k="ssr:stedsnr" v="598412" />
	</node>
	<node id="-396736" lat="61.0268666655" lon="9.53044166458">
		<tag k="name" v="Hieisåsen" />
		<tag k="place" v="locality" />
		<tag k="ssr:stedsnr" v="70566" />
	</node>
	<node id="-396222" lat="60.934283332" lon="9.7642722173">
		<tag k="name" v="Steindavøllatn" />
		<tag k="place" v="locality" />
		<tag k="ssr:stedsnr" v="600371" />
	</node>
	<node id="-397045" lat="60.9065472178" lon="9.67203611089">
		<tag k="name" v="Hesjastøe" />
		<tag k="place" v="locality" />
		<tag k="ssr:stedsnr" v="356543" />
	</node>
	<node id="-396220" lat="60.9877805516" lon="9.73768332926">
		<tag k="name" v="Blesamyratn" />
		<tag k="natural" v="wetland" />
		<tag k="ssr:stedsnr" v="600183" />
	</node>
	<node id="-396020" lat="60.8868472265" lon="9.58198889027">
		<tag k="name" v="Stølsjordmyre" />
>>>>>>> e1d4bc35ff8a6074a6f2e91616a996b547c36f15
		<tag k="natural" v="wetland" />
		<tag k="ssr:stedsnr" v="659016" />
	</node>
<<<<<<< HEAD
	<node lat="61.06618888521" lon="9.452244450212046" id="-18551">
		<tag k="landuse" v="meadow" />
		<tag k="name" v="Øvreløostølen" />
		<tag k="ssr:stedsnr" v="358502" />
	</node>
	<node lat="60.875522226302884" lon="9.768374997131883" id="-18557">
		<tag k="name" v="Bergsmyre" />
		<tag k="natural" v="wetland" />
		<tag k="ssr:stedsnr" v="358761" />
	</node>
	<node lat="60.90776667008627" lon="9.708805549238324" id="-18568">
		<tag k="name" v="Flæten" />
		<tag k="natural" v="wetland" />
		<tag k="ssr:stedsnr" v="477539" />
	</node>
	<node lat="60.87397777488106" lon="9.596727777803899" id="-18573">
		<tag k="alt_name" v="Gørrtjednmyratn" />
		<tag k="name" v="Gørrtjernmyratn" />
		<tag k="natural" v="wetland" />
		<tag k="ssr:stedsnr" v="477874" />
	</node>
	<node lat="61.02089166919674" lon="9.734344452451335" id="-18580">
		<tag k="alt_name" v="Nørre Vøllatn" />
		<tag k="landuse" v="meadow" />
		<tag k="name" v="Nørdre Vøllatn" />
		<tag k="ssr:stedsnr" v="478255" />
	</node>
	<node lat="61.06370555459749" lon="9.558683340777842" id="-18581">
		<tag k="landuse" v="meadow" />
		<tag k="name" v="Eivindrudningen" />
		<tag k="ssr:stedsnr" v="478345" />
	</node>
	<node lat="61.00805277343616" lon="9.702588885092153" id="-18582">
		<tag k="name" v="Liavøllatn" />
		<tag k="place" v="locality" />
		<tag k="ssr:stedsnr" v="478383" />
	</node>
	<node lat="61.004805553119134" lon="9.705513880301057" id="-18583">
		<tag k="name" v="Blekkemyratn" />
		<tag k="natural" v="wetland" />
		<tag k="ssr:stedsnr" v="478385" />
	</node>
	<node lat="60.92917222296895" lon="9.664858335276259" id="-18590">
		<tag k="name" v="Bjødnasteinen" />
		<tag k="natural" v="stone" />
		<tag k="ssr:stedsnr" v="478767" />
	</node>
	<node lat="60.90627499761384" lon="9.614163882775431" id="-18594">
		<tag k="name" v="Kvithovdmyratn" />
=======
	<node id="-397746" lat="61.0607527795" lon="9.60012500925">
		<tag k="alt_name" v="Grøvmyratn" />
		<tag k="name" v="Grøvamyri" />
		<tag k="natural" v="wetland" />
		<tag k="ssr:stedsnr" v="857637" />
	</node>
	<node id="-396208" lat="60.8988694465" lon="9.69539445082">
		<tag k="name" v="Stamparmyratn" />
		<tag k="natural" v="wetland" />
		<tag k="ssr:stedsnr" v="599017" />
	</node>
	<node id="-396207" lat="60.9035777822" lon="9.66799445201">
		<tag k="name" v="Kloppmyratn" />
		<tag k="natural" v="wetland" />
		<tag k="ssr:stedsnr" v="599014" />
	</node>
	<node id="-396717" lat="61.0650222187" lon="9.48003889098">
		<tag k="name" v="Uråmyre" />
		<tag k="natural" v="wetland" />
		<tag k="ssr:stedsnr" v="55759" />
	</node>
	<node id="-397228" lat="61.0233388875" lon="9.51199166526">
		<tag k="name" v="Hestehagin" />
		<tag k="place" v="locality" />
		<tag k="ssr:stedsnr" v="421649" />
	</node>
	<node id="-396530" lat="60.8561555554" lon="9.70946666947">
		<tag k="name" v="Kyndesmesstein" />
		<tag k="natural" v="stone" />
		<tag k="ssr:stedsnr" v="843170" />
	</node>
	<node id="-395689" lat="60.9080944429" lon="9.71676111912">
		<tag k="name" v="Lundsæterstrypen" />
		<tag k="natural" v="wetland" />
		<tag k="ssr:stedsnr" v="114755" />
	</node>
	<node id="-397736" lat="60.8349250013" lon="9.74887500037">
		<tag k="name" v="Rødningsenge" />
		<tag k="place" v="locality" />
		<tag k="ssr:stedsnr" v="844501" />
	</node>
	<node id="-397221" lat="60.977683335" lon="9.51942500867">
		<tag k="name" v="Dammyre" />
		<tag k="natural" v="wetland" />
		<tag k="ssr:stedsnr" v="419327" />
	</node>
	<node id="-396708" lat="60.8709138868" lon="9.7544694502">
		<tag k="name" v="Snoromyre" />
		<tag k="natural" v="wetland" />
		<tag k="ssr:stedsnr" v="54884" />
	</node>
	<node id="-396703" lat="60.9999277776" lon="9.6847888865">
		<tag k="name" v="Røvsholmyratn" />
		<tag k="natural" v="wetland" />
		<tag k="ssr:stedsnr" v="54434" />
	</node>
	<node id="-396698" lat="61.0330138883" lon="9.61781389572">
		<tag k="name" v="Kølhusbrøtalie" />
		<tag k="place" v="locality" />
		<tag k="ssr:stedsnr" v="54282" />
	</node>
	<node id="-397722" lat="60.8488222265" lon="9.72102777012">
		<tag k="name" v="Dølstogmoen" />
		<tag k="place" v="locality" />
		<tag k="ssr:stedsnr" v="843768" />
	</node>
	<node id="-396697" lat="60.922249996" lon="9.54482222938">
		<tag k="name" v="Stiklingsmyratn" />
		<tag k="natural" v="wetland" />
		<tag k="ssr:stedsnr" v="54429" />
	</node>
	<node id="-396184" lat="61.0425999992" lon="9.52268889139">
		<tag k="landuse" v="meadow" />
		<tag k="name" v="Skutløovøllen" />
		<tag k="ssr:stedsnr" v="540154" />
	</node>
	<node id="-396695" lat="60.935327775" lon="9.73121110514">
		<tag k="name" v="Puttemyre" />
>>>>>>> e1d4bc35ff8a6074a6f2e91616a996b547c36f15
		<tag k="natural" v="wetland" />
		<tag k="ssr:stedsnr" v="54422" />
	</node>
<<<<<<< HEAD
	<node lat="60.83893610963701" lon="9.745825003959382" id="-18604">
		<tag k="name" v="Langøye" />
		<tag k="place" v="locality" />
		<tag k="ssr:stedsnr" v="479485" />
	</node>
	<node lat="61.00765277695193" lon="9.518897215619189" id="-18610">
		<tag k="name" v="Lundmohølet" />
		<tag k="place" v="locality" />
		<tag k="ssr:stedsnr" v="479632" />
	</node>
	<node lat="60.97053610930731" lon="9.726083340586436" id="-18623">
		<tag k="name" v="Myrstølmyran" />
		<tag k="natural" v="wetland" />
		<tag k="ssr:stedsnr" v="373961" />
	</node>
	<node lat="60.8690916636803" lon="9.731575008913808" id="-18625">
		<tag k="name" v="Midtstein" />
		<tag k="natural" v="stone" />
		<tag k="ssr:stedsnr" v="479839" />
	</node>
	<node lat="60.99807500152107" lon="9.624363888148748" id="-18637">
		<tag k="name" v="Bergamyre" />
		<tag k="natural" v="wetland" />
		<tag k="ssr:stedsnr" v="416204" />
	</node>
	<node lat="61.027713891989016" lon="9.72136389205782" id="-18643">
		<tag k="name" v="Lortelivøllatn" />
		<tag k="place" v="locality" />
		<tag k="ssr:stedsnr" v="417294" />
	</node>
	<node lat="61.01806944430149" lon="9.641702770965757" id="-18655">
		<tag k="name" v="Geithølet" />
		<tag k="place" v="locality" />
		<tag k="ssr:stedsnr" v="418239" />
	</node>
	<node lat="60.97768333500654" lon="9.519425008674348" id="-18672">
		<tag k="name" v="Dammyre" />
		<tag k="natural" v="wetland" />
		<tag k="ssr:stedsnr" v="419327" />
	</node>
	<node lat="60.94620277399061" lon="9.736438888075682" id="-18691">
		<tag k="historic" v="shieling" />
		<tag k="name" v="Småtjernstølen" />
		<tag k="place" v="locality" />
		<tag k="ssr:stedsnr" v="434909" />
	</node>
	<node lat="60.951433329863804" lon="9.756405563683451" id="-18692">
		<tag k="historic" v="shieling" />
		<tag k="name" v="Meinset" />
		<tag k="place" v="locality" />
		<tag k="ssr:stedsnr" v="434911" />
	</node>
	<node lat="60.80850555912388" lon="9.814766669844126" id="-18716">
		<tag k="historic" v="shieling" />
		<tag k="name" v="Tintonsætera" />
		<tag k="place" v="locality" />
		<tag k="ssr:stedsnr" v="464523" />
	</node>
	<node lat="60.96745833361759" lon="9.770897213912964" id="-18733">
		<tag k="alt_name" v="Gjuvamyri, vesle" />
		<tag k="name" v="Vesle Gjuvamyri" />
		<tag k="natural" v="wetland" />
		<tag k="ssr:stedsnr" v="676949" />
	</node>
	<node lat="61.01209166940449" lon="9.620144447369377" id="-18740">
		<tag k="name" v="Stormyre" />
		<tag k="natural" v="wetland" />
		<tag k="ssr:stedsnr" v="477172" />
	</node>
	<node lat="61.015794444389016" lon="9.761752783327116" id="-18746">
		<tag k="name" v="Stormyre" />
		<tag k="natural" v="wetland" />
		<tag k="ssr:stedsnr" v="477262" />
	</node>
	<node lat="61.01266389104147" lon="9.582461115246586" id="-18749">
		<tag k="name" v="Kloppemyre" />
		<tag k="natural" v="wetland" />
		<tag k="ssr:stedsnr" v="477607" />
	</node>
	<node lat="60.84245000065059" lon="9.680866663113221" id="-18752">
		<tag k="name" v="Gildremyre" />
=======
	<node id="-396693" lat="60.8453833325" lon="9.69182221408">
		<tag k="name" v="Slettavøllen" />
		<tag k="place" v="locality" />
		<tag k="ssr:stedsnr" v="54138" />
	</node>
	<node id="-396270" lat="60.8931694436" lon="9.75175277609">
		<tag k="name" v="Karlsmyre" />
		<tag k="natural" v="wetland" />
		<tag k="ssr:stedsnr" v="721148" />
	</node>
	<node id="-397713" lat="61.0441999985" lon="9.74580833059">
		<tag k="alt_name" v="Sørre Vøllen" />
		<tag k="name" v="Søre Vøllen" />
		<tag k="place" v="locality" />
		<tag k="ssr:stedsnr" v="843893" />
	</node>
	<node id="-395672" lat="60.9642305593" lon="9.56923610443">
		<tag k="name" v="Stallmyre" />
		<tag k="natural" v="wetland" />
		<tag k="ssr:stedsnr" v="113512" />
	</node>
	<node id="-395662" lat="60.9894138862" lon="9.6008999958">
		<tag k="name" v="Stormyri" />
		<tag k="natural" v="wetland" />
		<tag k="ssr:stedsnr" v="252962" />
	</node>
	<node id="-397709" lat="60.913583329" lon="9.77596388431">
		<tag k="name" v="Stutlimyratn" />
		<tag k="natural" v="wetland" />
		<tag k="ssr:stedsnr" v="843833" />
	</node>
	<node id="-396678" lat="60.9785666705" lon="9.66583333021">
		<tag k="name" v="Stormyre" />
		<tag k="natural" v="wetland" />
		<tag k="ssr:stedsnr" v="53634" />
	</node>
	<node id="-397701" lat="60.9464916649" lon="9.52917776868">
		<tag k="name" v="Stormyre" />
		<tag k="natural" v="wetland" />
		<tag k="ssr:stedsnr" v="843382" />
	</node>
	<node id="-396676" lat="60.905536108" lon="9.66973055953">
		<tag k="name" v="Dammyre" />
		<tag k="natural" v="wetland" />
		<tag k="ssr:stedsnr" v="53548" />
	</node>
	<node id="-397187" lat="60.8763750017" lon="9.6798583339">
		<tag k="name" v="Hovdesvekleive" />
		<tag k="place" v="locality" />
		<tag k="ssr:stedsnr" v="418477" />
	</node>
	<node id="-397186" lat="60.8755361153" lon="9.68256387987">
		<tag k="name" v="Bjødnamyre" />
>>>>>>> e1d4bc35ff8a6074a6f2e91616a996b547c36f15
		<tag k="natural" v="wetland" />
		<tag k="ssr:stedsnr" v="418456" />
	</node>
<<<<<<< HEAD
	<node lat="60.905311107934665" lon="9.729988880214453" id="-18753">
		<tag k="name" v="Lundsætermyre" />
		<tag k="natural" v="wetland" />
		<tag k="ssr:stedsnr" v="478121" />
	</node>
	<node lat="60.885758330404265" lon="9.695883325970327" id="-18754">
		<tag k="name" v="Kyrdokke" />
		<tag k="place" v="locality" />
		<tag k="ssr:stedsnr" v="478005" />
	</node>
	<node lat="60.920474996367126" lon="9.630888881243425" id="-18758">
		<tag k="alt_name" v="Gjeitsvee" />
		<tag k="name" v="Geitsvee" />
=======
	<node id="-395649" lat="60.885558337" lon="9.56829444533">
		<tag k="alt_name" v="Stormyre" />
		<tag k="name" v="Storemyri" />
		<tag k="natural" v="wetland" />
		<tag k="ssr:stedsnr" v="251744" />
	</node>
	<node id="-397696" lat="61.0321805595" lon="9.60347221354">
		<tag k="name" v="Køllsetmarke" />
>>>>>>> e1d4bc35ff8a6074a6f2e91616a996b547c36f15
		<tag k="place" v="locality" />
		<tag k="ssr:stedsnr" v="843269" />
	</node>
<<<<<<< HEAD
	<node lat="61.05208055699324" lon="9.471674996140848" id="-18774">
		<tag k="name" v="Slettingsdalmyre" />
		<tag k="natural" v="wetland" />
		<tag k="ssr:stedsnr" v="479219" />
	</node>
	<node lat="60.90681111483123" lon="9.543655553368207" id="-18779">
		<tag k="name" v="Bessfarmyre" />
		<tag k="natural" v="wetland" />
		<tag k="ssr:stedsnr" v="479407" />
	</node>
	<node lat="60.877119441514715" lon="9.75104444086787" id="-18780">
		<tag k="name" v="Harabåsmyratn" />
		<tag k="natural" v="wetland" />
		<tag k="ssr:stedsnr" v="479758" />
	</node>
	<node lat="60.82163889143146" lon="9.706216668841975" id="-18788">
		<tag k="alt_name" v="Hyttemyre" />
		<tag k="name" v="Hyttemyri" />
		<tag k="natural" v="wetland" />
		<tag k="ssr:stedsnr" v="494169" />
	</node>
	<node lat="60.94910555882363" lon="9.580744443987378" id="-18794">
		<tag k="alt_name" v="Langemyre" />
		<tag k="name" v="Langemyri" />
		<tag k="natural" v="wetland" />
		<tag k="ssr:stedsnr" v="495578" />
	</node>
	<node lat="61.0609944433021" lon="9.630233334836214" id="-18803">
		<tag k="name" v="Liastølmyratn" />
		<tag k="natural" v="wetland" />
		<tag k="ssr:stedsnr" v="538268" />
	</node>
	<node lat="60.93592778201489" lon="9.56801110209967" id="-18805">
		<tag k="name" v="Flæmyre" />
		<tag k="natural" v="wetland" />
		<tag k="ssr:stedsnr" v="538424" />
	</node>
	<node lat="61.02815833743329" lon="9.615130548572235" id="-18815">
		<tag k="landuse" v="meadow" />
		<tag k="name" v="Dalalifeten" />
		<tag k="ssr:stedsnr" v="539235" />
	</node>
	<node lat="61.082080555333" lon="9.477572225075523" id="-18820">
		<tag k="alt_name" v="Nørre Tangen" />
		<tag k="landuse" v="meadow" />
		<tag k="name" v="Nørdre Tangen" />
		<tag k="ssr:stedsnr" v="539512" />
	</node>
	<node lat="60.83902777713625" lon="9.759844451398926" id="-18822">
		<tag k="name" v="Ørmeberget" />
		<tag k="natural" v="scree" />
		<tag k="ssr:stedsnr" v="539602" />
	</node>
	<node lat="61.04355278002271" lon="9.737813881860033" id="-18824">
		<tag k="name" v="Madslangrudvøllen" />
		<tag k="place" v="locality" />
		<tag k="ssr:stedsnr" v="539921" />
	</node>
	<node lat="60.82304722051522" lon="9.730816665132688" id="-18829">
		<tag k="name" v="Stormyre" />
		<tag k="natural" v="wetland" />
		<tag k="ssr:stedsnr" v="540512" />
	</node>
	<node lat="60.93718333598762" lon="9.792022226110879" id="-18835">
		<tag k="landuse" v="meadow" />
		<tag k="name" v="Steindavollan" />
		<tag k="ssr:stedsnr" v="552945" />
	</node>
	<node lat="60.965216666270734" lon="9.52974722794764" id="-18836">
		<tag k="name" v="Sigurdmyre" />
		<tag k="natural" v="wetland" />
		<tag k="ssr:stedsnr" v="553542" />
	</node>
	<node lat="60.897258332012036" lon="9.59883888293483" id="-18865">
		<tag k="name" v="Liavollatn" />
		<tag k="place" v="locality" />
		<tag k="ssr:stedsnr" v="598412" />
	</node>
	<node lat="60.903577782154336" lon="9.66799445200845" id="-18870">
		<tag k="name" v="Kloppmyratn" />
		<tag k="natural" v="wetland" />
		<tag k="ssr:stedsnr" v="599014" />
	</node>
	<node lat="60.89886944647952" lon="9.69539445082161" id="-18871">
		<tag k="name" v="Stamparmyratn" />
		<tag k="natural" v="wetland" />
		<tag k="ssr:stedsnr" v="599017" />
	</node>
	<node lat="60.99556388895153" lon="9.69063056427182" id="-18879">
		<tag k="name" v="Trehølningen" />
		<tag k="place" v="locality" />
		<tag k="ssr:stedsnr" v="599410" />
	</node>
	<node lat="60.96285277734556" lon="9.537391674566358" id="-18890">
		<tag k="name" v="Lybergmyre" />
		<tag k="natural" v="wetland" />
		<tag k="ssr:stedsnr" v="600516" />
	</node>
	<node lat="61.05436110954765" lon="9.57765000010995" id="-18927">
		<tag k="landuse" v="meadow" />
		<tag k="name" v="Hestevøllatn" />
		<tag k="ssr:stedsnr" v="659341" />
	</node>
	<node lat="60.89646110786629" lon="9.637747215771588" id="-18930">
		<tag k="landuse" v="meadow" />
		<tag k="name" v="Tyttebærslette" />
		<tag k="ssr:stedsnr" v="659439" />
	</node>
	<node lat="60.91328333674755" lon="9.77035278297314" id="-18945">
		<tag k="name" v="Stutlimyratn" />
		<tag k="natural" v="wetland" />
		<tag k="ssr:stedsnr" v="660732" />
	</node>
	<node lat="60.92464444475281" lon="9.78837221591712" id="-18946">
		<tag k="name" v="Skilnadmyre" />
		<tag k="natural" v="wetland" />
		<tag k="ssr:stedsnr" v="660781" />
	</node>
	<node lat="60.891961115301264" lon="9.543680551885261" id="-18958">
		<tag k="alt_name" v="Flåtjednmyratn" />
		<tag k="name" v="Flåtjernmyratn" />
		<tag k="natural" v="wetland" />
		<tag k="ssr:stedsnr" v="661396" />
	</node>
	<node lat="61.00206389085025" lon="9.538866663439535" id="-18961">
		<tag k="name" v="Haugamyratn" />
		<tag k="natural" v="wetland" />
		<tag k="ssr:stedsnr" v="661610" />
	</node>
	<node lat="60.86398055867503" lon="9.689499991070612" id="-18965">
		<tag k="name" v="Øspelundsvee" />
		<tag k="place" v="locality" />
		<tag k="ssr:stedsnr" v="661837" />
	</node>
	<node lat="61.029083337394354" lon="9.530886111970387" id="-18967">
		<tag k="name" v="Puttemyre" />
		<tag k="natural" v="wetland" />
		<tag k="ssr:stedsnr" v="663620" />
	</node>
	<node lat="60.96065833014123" lon="9.748616667092792" id="-18994">
		<tag k="alt_name" v="Langmyre" />
		<tag k="name" v="Langmyri" />
		<tag k="natural" v="wetland" />
		<tag k="ssr:stedsnr" v="677975" />
	</node>
	<node lat="60.90435555544226" lon="9.706961102623572" id="-19012">
		<tag k="name" v="Flæten" />
		<tag k="natural" v="wetland" />
		<tag k="ssr:stedsnr" v="721021" />
	</node>
	<node lat="60.895588885593085" lon="9.697755551246733" id="-19013">
		<tag k="name" v="Åborvassmyrane" />
		<tag k="natural" v="wetland" />
		<tag k="old_name" v="Øbbervassmyratn" />
		<tag k="ssr:stedsnr" v="721022" />
	</node>
	<node lat="60.84612222274277" lon="9.58783610324857" id="-19016">
		<tag k="name" v="Gjestgiverhaugen" />
		<tag k="place" v="locality" />
		<tag k="ssr:stedsnr" v="720910" />
	</node>
	<node lat="61.02620555217266" lon="9.592016664031512" id="-19019">
		<tag k="name" v="Gomyre" />
		<tag k="natural" v="wetland" />
		<tag k="ssr:stedsnr" v="721225" />
	</node>
	<node lat="60.99795000169528" lon="9.665630559413598" id="-19021">
		<tag k="landuse" v="meadow" />
		<tag k="name" v="Fossøye" />
		<tag k="ssr:stedsnr" v="721405" />
	</node>
	<node lat="60.91864166425286" lon="9.67361944931183" id="-19025">
		<tag k="alt_name" v="Damtjednmyre" />
		<tag k="name" v="Damtjernmyre" />
=======
	<node id="-397695" lat="61.0160527786" lon="9.61828056369">
		<tag k="name" v="Bergsmyratn" />
		<tag k="natural" v="wetland" />
		<tag k="ssr:stedsnr" v="843258" />
	</node>
	<node id="-397182" lat="61.055091666" lon="9.75030554934">
		<tag k="name" v="Øvre Bergsætermyre" />
		<tag k="natural" v="wetland" />
		<tag k="ssr:stedsnr" v="418138" />
	</node>
	<node id="-397693" lat="61.0183083343" lon="9.613588887">
		<tag k="name" v="Buksetrømyre" />
		<tag k="natural" v="wetland" />
		<tag k="ssr:stedsnr" v="843252" />
	</node>
	<node id="-397692" lat="61.0330777817" lon="9.55525555945">
		<tag k="name" v="Brattengflåe" />
		<tag k="place" v="locality" />
		<tag k="ssr:stedsnr" v="843246" />
	</node>
	<node id="-396667" lat="60.8979083359" lon="9.57937221843">
		<tag k="name" v="Husbakkin" />
		<tag k="place" v="locality" />
		<tag k="ssr:stedsnr" v="53229" />
	</node>
	<node id="-397689" lat="60.9324444461" lon="9.74457777322">
		<tag k="name" v="Lortholmyre" />
		<tag k="natural" v="wetland" />
		<tag k="ssr:stedsnr" v="843358" />
	</node>
	<node id="-396663" lat="60.8848555531" lon="9.58110555155">
		<tag k="landuse" v="meadow" />
		<tag k="name" v="Brunsmyre" />
		<tag k="ssr:stedsnr" v="53009" />
	</node>
	<node id="-396662" lat="61.0043749978" lon="9.56832778078">
		<tag k="name" v="Personjordet" />
		<tag k="place" v="locality" />
		<tag k="ssr:stedsnr" v="52319" />
	</node>
	<node id="-397173" lat="61.0180694443" lon="9.64170277097">
		<tag k="name" v="Geithølet" />
		<tag k="place" v="locality" />
		<tag k="ssr:stedsnr" v="418239" />
	</node>
	<node id="-395695" lat="60.9089222179" lon="9.54773056113">
		<tag k="name" v="Øvre Stølsmyre" />
		<tag k="natural" v="wetland" />
		<tag k="ssr:stedsnr" v="115415" />
	</node>
	<node id="-397682" lat="61.0252694454" lon="9.50667499671">
		<tag k="name" v="Gofarjorde" />
		<tag k="place" v="locality" />
		<tag k="ssr:stedsnr" v="843090" />
	</node>
	<node id="-396179" lat="60.8893222214" lon="9.6127500057">
		<tag k="name" v="Kleive" />
		<tag k="place" v="locality" />
		<tag k="ssr:stedsnr" v="539428" />
	</node>
	<node id="-397679" lat="60.8853888918" lon="9.75269167469">
		<tag k="name" v="Fjellmyre" />
		<tag k="natural" v="wetland" />
		<tag k="ssr:stedsnr" v="843076" />
	</node>
	<node id="-397164" lat="60.917819447" lon="9.69571388683">
		<tag k="name" v="Smørslette" />
		<tag k="place" v="locality" />
		<tag k="ssr:stedsnr" v="417582" />
	</node>
	<node id="-397661" lat="61.028219445" lon="9.56009443541">
		<tag k="name" v="Rennhaugløo" />
		<tag k="place" v="locality" />
		<tag k="ssr:stedsnr" v="842588" />
	</node>
	<node id="-397162" lat="60.9101250007" lon="9.69565832939">
		<tag k="name" v="Bjørkeskålin" />
		<tag k="place" v="locality" />
		<tag k="ssr:stedsnr" v="417567" />
	</node>
	<node id="-395750" lat="60.8890416645" lon="9.72326110894">
		<tag k="name" v="Puttemyre" />
		<tag k="natural" v="wetland" />
		<tag k="ssr:stedsnr" v="296049" />
	</node>
	<node id="-397666" lat="60.9105777761" lon="9.70398333031">
		<tag k="name" v="Tørvmyre" />
		<tag k="natural" v="wetland" />
		<tag k="ssr:stedsnr" v="842499" />
	</node>
	<node id="-397665" lat="61.0003999968" lon="9.74026944797">
		<tag k="name" v="Holovøllatn" />
		<tag k="natural" v="wetland" />
		<tag k="ssr:stedsnr" v="842479" />
	</node>
	<node id="-397151" lat="61.0859555585" lon="9.62403888279">
		<tag k="landuse" v="quarry" />
		<tag k="name" v="Skiferbrudd" />
		<tag k="ssr:stedsnr" v="417072" />
	</node>
	<node id="-397662" lat="60.8899972192" lon="9.6200972193">
		<tag k="name" v="Brøtamyre" />
		<tag k="natural" v="wetland" />
		<tag k="ssr:stedsnr" v="842472" />
	</node>
	<node id="-396125" lat="60.8771194415" lon="9.75104444087">
		<tag k="name" v="Harabåsmyratn" />
		<tag k="natural" v="wetland" />
		<tag k="ssr:stedsnr" v="479758" />
	</node>
	<node id="-397148" lat="61.0173444417" lon="9.7590166751">
		<tag k="alt_name" v="Sørre Vøllatn" />
		<tag k="landuse" v="meadow" />
		<tag k="name" v="Søre Vøllatn" />
		<tag k="ssr:stedsnr" v="417258" />
	</node>
	<node id="-396120" lat="60.9068111148" lon="9.54365555337">
		<tag k="name" v="Bessfarmyre" />
		<tag k="natural" v="wetland" />
		<tag k="ssr:stedsnr" v="479407" />
	</node>
	<node id="-396772" lat="60.8905138856" lon="9.61142777512">
		<tag k="landuse" v="meadow" />
		<tag k="name" v="Temmerbakkin" />
		<tag k="ssr:stedsnr" v="114523" />
	</node>
	<node id="-395605" lat="61.0915083361" lon="9.54220555048">
		<tag k="name" v="Stuvelimyratn" />
		<tag k="natural" v="wetland" />
		<tag k="ssr:stedsnr" v="237798" />
	</node>
	<node id="-395604" lat="61.0780749963" lon="9.53348610311">
		<tag k="historic" v="shieling" />
		<tag k="name" v="Nyset" />
		<tag k="place" v="locality" />
		<tag k="ssr:stedsnr" v="237790" />
	</node>
	<node id="-397609" lat="60.8300222202" lon="9.7123083287">
		<tag k="name" v="Jenseskålmyre" />
		<tag k="natural" v="wetland" />
		<tag k="ssr:stedsnr" v="783664" />
	</node>
	<node id="-396625" lat="61.0540583306" lon="9.48863333985">
		<tag k="name" v="Staksløomyre" />
		<tag k="natural" v="wetland" />
		<tag k="ssr:stedsnr" v="965215" />
	</node>
	<node id="-396109" lat="60.929172223" lon="9.66485833528">
		<tag k="name" v="Bjødnasteinen" />
		<tag k="natural" v="stone" />
		<tag k="ssr:stedsnr" v="478767" />
	</node>
	<node id="-396619" lat="60.8835055533" lon="9.76165832473">
		<tag k="name" v="Slåttemyre" />
		<tag k="natural" v="wetland" />
		<tag k="ssr:stedsnr" v="964722" />
	</node>
	<node id="-395592" lat="60.8742166626" lon="9.7661694506">
		<tag k="name" v="Stormyre" />
		<tag k="natural" v="wetland" />
		<tag k="ssr:stedsnr" v="54759" />
	</node>
	<node id="-395590" lat="60.8678694442" lon="9.723647227">
		<tag k="name" v="Kjølskåldokke" />
		<tag k="place" v="locality" />
		<tag k="ssr:stedsnr" v="54853" />
	</node>
	<node id="-395588" lat="60.9134222262" lon="9.79152499209">
		<tag k="landuse" v="meadow" />
		<tag k="name" v="Teigatn" />
		<tag k="ssr:stedsnr" v="54815" />
	</node>
	<node id="-396099" lat="61.0208916692" lon="9.73434445245">
		<tag k="alt_name" v="Nørre Vøllatn" />
		<tag k="landuse" v="meadow" />
		<tag k="name" v="Nørdre Vøllatn" />
		<tag k="ssr:stedsnr" v="478255" />
	</node>
	<node id="-396608" lat="60.9512583299" lon="9.67916388533">
		<tag k="name" v="Langemyre" />
		<tag k="natural" v="wetland" />
		<tag k="ssr:stedsnr" v="963867" />
	</node>
	<node id="-396095" lat="60.8857583304" lon="9.69588332597">
		<tag k="name" v="Kyrdokke" />
		<tag k="place" v="locality" />
		<tag k="ssr:stedsnr" v="478005" />
	</node>
	<node id="-396092" lat="61.012663891" lon="9.58246111525">
		<tag k="name" v="Kloppemyre" />
		<tag k="natural" v="wetland" />
		<tag k="ssr:stedsnr" v="477607" />
	</node>
	<node id="-396603" lat="60.9007499962" lon="9.58710833184">
		<tag k="name" v="Berteåta" />
		<tag k="place" v="locality" />
		<tag k="ssr:stedsnr" v="963267" />
	</node>
	<node id="-396088" lat="61.0157944444" lon="9.76175278333">
		<tag k="name" v="Stormyre" />
		<tag k="natural" v="wetland" />
		<tag k="ssr:stedsnr" v="477262" />
	</node>
	<node id="-397110" lat="61.0304194433" lon="9.53133610478">
		<tag k="name" v="Langemyre" />
		<tag k="natural" v="wetland" />
		<tag k="ssr:stedsnr" v="360588" />
	</node>
	<node id="-397449" lat="60.9628527773" lon="9.53739167457">
		<tag k="name" v="Lybergmyre" />
>>>>>>> e1d4bc35ff8a6074a6f2e91616a996b547c36f15
		<tag k="natural" v="wetland" />
		<tag k="ssr:stedsnr" v="600516" />
	</node>
<<<<<<< HEAD
	<node lat="60.96555833747385" lon="9.734305553554677" id="-19029">
		<tag k="name" v="Botenbergmyre" />
		<tag k="natural" v="wetland" />
		<tag k="ssr:stedsnr" v="721624" />
	</node>
	<node lat="60.89854721824332" lon="9.593941663436391" id="-19059">
		<tag k="name" v="Brennmelinge" />
		<tag k="place" v="locality" />
		<tag k="ssr:stedsnr" v="902255" />
	</node>
	<node lat="61.09117499833907" lon="9.578691670506663" id="-19070">
		<tag k="name" v="Storemyret" />
		<tag k="natural" v="wetland" />
		<tag k="ssr:stedsnr" v="902434" />
	</node>
	<node lat="60.94226388808313" lon="9.563861108939046" id="-19071">
		<tag k="name" v="Fjellhallmyre" />
		<tag k="natural" v="wetland" />
		<tag k="ssr:stedsnr" v="902446" />
	</node>
	<node lat="60.89887221975612" lon="9.613338886826261" id="-19073">
		<tag k="name" v="Hallatn" />
		<tag k="place" v="locality" />
		<tag k="ssr:stedsnr" v="902469" />
	</node>
	<node lat="61.032208330196255" lon="9.507211116287843" id="-19108">
		<tag k="name" v="Leirholomyre" />
		<tag k="natural" v="wetland" />
		<tag k="ssr:stedsnr" v="904089" />
	</node>
	<node lat="61.021380556418556" lon="9.475400005597937" id="-19109">
		<tag k="name" v="Nedre Vøllen" />
		<tag k="place" v="locality" />
		<tag k="ssr:stedsnr" v="904129" />
	</node>
	<node lat="61.03938333138549" lon="9.53050278423757" id="-19110">
		<tag k="name" v="Perstølmyre" />
		<tag k="natural" v="wetland" />
		<tag k="ssr:stedsnr" v="904143" />
	</node>
	<node lat="61.04781667048634" lon="9.529108336171152" id="-19112">
		<tag k="name" v="Flatlandslie" />
		<tag k="place" v="locality" />
		<tag k="ssr:stedsnr" v="904148" />
	</node>
	<node lat="60.95544722082847" lon="9.523141674685997" id="-19120">
		<tag k="name" v="Vøllmyre" />
		<tag k="natural" v="wetland" />
		<tag k="ssr:stedsnr" v="904361" />
	</node>
	<node lat="60.95096944431503" lon="9.538705561288438" id="-19121">
		<tag k="name" v="Veslevøllen" />
		<tag k="place" v="locality" />
		<tag k="ssr:stedsnr" v="904364" />
	</node>
	<node lat="61.061938886738375" lon="9.545572220265425" id="-19123">
		<tag k="name" v="Åsli" />
		<tag k="place" v="locality" />
		<tag k="ssr:stedsnr" v="904379" />
	</node>
	<node lat="60.87792222222828" lon="9.74544445259157" id="-19129">
		<tag k="name" v="Gurimyre" />
		<tag k="natural" v="wetland" />
		<tag k="ssr:stedsnr" v="904733" />
	</node>
	<node lat="60.89623332922949" lon="9.565980561051152" id="-19139">
		<tag k="name" v="Langmyre" />
		<tag k="natural" v="wetland" />
		<tag k="ssr:stedsnr" v="781003" />
	</node>
	<node lat="60.94219166981955" lon="9.595200002267761" id="-19142">
		<tag k="landuse" v="meadow" />
		<tag k="name" v="Øyatn" />
		<tag k="ssr:stedsnr" v="781408" />
	</node>
	<node lat="60.96336111170642" lon="9.657463888808488" id="-19150">
		<tag k="name" v="Endeløyse" />
		<tag k="natural" v="wetland" />
		<tag k="ssr:stedsnr" v="781865" />
	</node>
	<node lat="60.90051389290913" lon="9.547144436679055" id="-19157">
		<tag k="name" v="Fjellstølmyre" />
		<tag k="natural" v="wetland" />
		<tag k="ssr:stedsnr" v="782475" />
	</node>
	<node lat="60.89257499823182" lon="9.742302782218111" id="-19158">
		<tag k="name" v="Fetedalsmyre" />
		<tag k="natural" v="wetland" />
		<tag k="ssr:stedsnr" v="782149" />
	</node>
	<node lat="61.089874999978555" lon="9.521280551980944" id="-19166">
		<tag k="name" v="Rusland" />
		<tag k="place" v="locality" />
		<tag k="ssr:stedsnr" v="783813" />
	</node>
	<node lat="60.97613457932574" lon="9.692849469127054" id="-19200">
		<tag k="historic" v="shieling" />
		<tag k="name" v="Øystølen" />
		<tag k="place" v="locality" />
		<tag k="ssr:stedsnr" v="919979" />
	</node>
	<node lat="61.06963333729313" lon="9.553727773804667" id="-19215">
		<tag k="name" v="Smiugardsmarke" />
		<tag k="place" v="locality" />
		<tag k="ssr:stedsnr" v="842227" />
	</node>
	<node lat="61.02821944496333" lon="9.560094435413097" id="-19222">
		<tag k="name" v="Rennhaugløo" />
		<tag k="place" v="locality" />
		<tag k="ssr:stedsnr" v="842588" />
	</node>
	<node lat="61.000399996809165" lon="9.740269447972997" id="-19225">
		<tag k="name" v="Holovøllatn" />
		<tag k="natural" v="wetland" />
		<tag k="ssr:stedsnr" v="842479" />
	</node>
	<node lat="60.885388891777176" lon="9.752691674688066" id="-19230">
		<tag k="name" v="Fjellmyre" />
		<tag k="natural" v="wetland" />
		<tag k="ssr:stedsnr" v="843076" />
	</node>
	<node lat="60.94649166493696" lon="9.52917776867541" id="-19236">
		<tag k="name" v="Stormyre" />
		<tag k="natural" v="wetland" />
		<tag k="ssr:stedsnr" v="843382" />
	</node>
	<node lat="60.91358332898362" lon="9.775963884310102" id="-19246">
		<tag k="name" v="Stutlimyratn" />
		<tag k="natural" v="wetland" />
		<tag k="ssr:stedsnr" v="843833" />
	</node>
	<node lat="61.060752779520506" lon="9.600125009247035" id="-19256">
		<tag k="alt_name" v="Grøvmyratn" />
		<tag k="name" v="Grøvamyri" />
		<tag k="natural" v="wetland" />
		<tag k="ssr:stedsnr" v="857637" />
	</node>
	<node lat="60.98000833694934" lon="9.650447225701981" id="-19267">
		<tag k="name" v="Stormyri" />
		<tag k="natural" v="wetland" />
		<tag k="ssr:stedsnr" v="859626" />
	</node>
	<node lat="61.01047777444975" lon="9.585544440855204" id="-19279">
		<tag k="name" v="Gråbeinmyre" />
		<tag k="natural" v="wetland" />
		<tag k="ssr:stedsnr" v="902399" />
	</node>
	<node lat="60.867077781259916" lon="9.558391658636967" id="-19295">
		<tag k="alt_name" v="Brenntjednmyre" />
		<tag k="name" v="Brenntjernmyre" />
		<tag k="natural" v="wetland" />
		<tag k="ssr:stedsnr" v="903800" />
	</node>
	<node lat="61.01578055258601" lon="9.504266665557322" id="-19296">
		<tag k="name" v="Brøtaskogen" />
		<tag k="place" v="locality" />
		<tag k="ssr:stedsnr" v="904011" />
	</node>
	<node lat="61.024394440148846" lon="9.68505832527468" id="-19299">
		<tag k="alt_name" v="Langtjednmyratn" />
		<tag k="name" v="Langtjernmyratn" />
		<tag k="natural" v="wetland" />
		<tag k="ssr:stedsnr" v="904255" />
	</node>
	<node lat="61.006727775042826" lon="9.509708342311875" id="-19301">
		<tag k="name" v="Brennahaugen" />
		<tag k="place" v="locality" />
		<tag k="ssr:stedsnr" v="904605" />
	</node>
	<node lat="60.936502779554985" lon="9.59878332489054" id="-19330">
		<tag k="name" v="Åsskogen" />
		<tag k="place" v="locality" />
		<tag k="ssr:stedsnr" v="963601" />
	</node>
	<node lat="61.054058330586926" lon="9.488633339853603" id="-19339">
		<tag k="name" v="Staksløomyre" />
		<tag k="natural" v="wetland" />
		<tag k="ssr:stedsnr" v="965215" />
	</node>
	<node lat="61.06443561132721" lon="9.411139818541068" id="-19353">
		<tag k="historic" v="shieling" />
		<tag k="name" v="Skånestølen" />
		<tag k="place" v="locality" />
		<tag k="ssr:stedsnr" v="987137" />
	</node>
	<node lat="60.89790833587753" lon="9.579372218427496" id="-19377">
		<tag k="name" v="Husbakkin" />
		<tag k="place" v="locality" />
		<tag k="ssr:stedsnr" v="53229" />
	</node>
	<node lat="60.905536108021124" lon="9.669730559526233" id="-19389">
		<tag k="name" v="Dammyre" />
		<tag k="natural" v="wetland" />
		<tag k="ssr:stedsnr" v="53548" />
	</node>
	<node lat="60.97856667052783" lon="9.665833330212667" id="-19391">
		<tag k="name" v="Stormyre" />
		<tag k="natural" v="wetland" />
		<tag k="ssr:stedsnr" v="53634" />
	</node>
	<node lat="60.84538333246523" lon="9.691822214084565" id="-19401">
		<tag k="name" v="Slettavøllen" />
		<tag k="place" v="locality" />
		<tag k="ssr:stedsnr" v="54138" />
	</node>
	<node lat="60.92224999604738" lon="9.544822229384211" id="-19406">
		<tag k="name" v="Stiklingsmyratn" />
		<tag k="natural" v="wetland" />
		<tag k="ssr:stedsnr" v="54429" />
	</node>
	<node lat="60.999927777636394" lon="9.684788886496417" id="-19407">
		<tag k="name" v="Røvsholmyratn" />
		<tag k="natural" v="wetland" />
		<tag k="ssr:stedsnr" v="54434" />
	</node>
	<node lat="60.91342222617791" lon="9.791524992091464" id="-19411">
		<tag k="landuse" v="meadow" />
		<tag k="name" v="Teigatn" />
		<tag k="ssr:stedsnr" v="54815" />
	</node>
	<node lat="60.874216662599544" lon="9.76616945059918" id="-19414">
		<tag k="name" v="Stormyre" />
		<tag k="natural" v="wetland" />
		<tag k="ssr:stedsnr" v="54759" />
	</node>
	<node lat="61.06502221865245" lon="9.480038890981763" id="-19428">
		<tag k="name" v="Uråmyre" />
		<tag k="natural" v="wetland" />
		<tag k="ssr:stedsnr" v="55759" />
	</node>
	<node lat="61.018905551265114" lon="9.6728750054732" id="-19429">
		<tag k="alt_name" v="Glennemyre" />
		<tag k="name" v="Glennemyrane" />
=======
	<node id="-396084" lat="60.8085055591" lon="9.81476666984">
		<tag k="historic" v="shieling" />
		<tag k="name" v="Tintonsætera" />
		<tag k="place" v="locality" />
		<tag k="ssr:stedsnr" v="464523" />
	</node>
	<node id="-395571" lat="61.0503194431" lon="9.62459723003">
		<tag k="alt_name" v="Sørre Vøllen" />
		<tag k="name" v="Søre Vøllen" />
		<tag k="place" v="locality" />
		<tag k="ssr:stedsnr" v="53906" />
	</node>
	<node id="-396082" lat="61.0290833374" lon="9.53088611197">
		<tag k="name" v="Puttemyre" />
		<tag k="natural" v="wetland" />
		<tag k="ssr:stedsnr" v="663620" />
	</node>
	<node id="-397105" lat="60.8306361145" lon="9.68421945284">
		<tag k="name" v="Puttemyre" />
		<tag k="natural" v="wetland" />
		<tag k="ssr:stedsnr" v="358687" />
	</node>
	<node id="-397616" lat="61.089875" lon="9.52128055198">
		<tag k="name" v="Rusland" />
		<tag k="place" v="locality" />
		<tag k="ssr:stedsnr" v="783813" />
	</node>
	<node id="-396079" lat="60.8639805587" lon="9.68949999107">
		<tag k="name" v="Øspelundsvee" />
		<tag k="place" v="locality" />
		<tag k="ssr:stedsnr" v="661837" />
	</node>
	<node id="-395579" lat="61.0311194419" lon="9.47343611425">
		<tag k="name" v="Baklivøllen" />
		<tag k="place" v="locality" />
		<tag k="ssr:stedsnr" v="54102" />
	</node>
	<node id="-395563" lat="60.8608472218" lon="9.74528610459">
		<tag k="name" v="Nybrennmyre" />
		<tag k="natural" v="wetland" />
		<tag k="ssr:stedsnr" v="237285" />
	</node>
	<node id="-397610" lat="60.8635027799" lon="9.78049445225">
		<tag k="name" v="Tomlesætermyre" />
		<tag k="natural" v="wetland" />
		<tag k="ssr:stedsnr" v="783665" />
	</node>
	<node id="-397097" lat="61.0368972218" lon="9.53257221824">
		<tag k="name" v="Slettalie" />
		<tag k="place" v="locality" />
		<tag k="ssr:stedsnr" v="358141" />
	</node>
	<node id="-396071" lat="60.8340472247" lon="9.73380833836">
		<tag k="name" v="Nedre Hyttemyre" />
		<tag k="natural" v="wetland" />
		<tag k="ssr:stedsnr" v="661471" />
	</node>
	<node id="-396069" lat="60.8919611153" lon="9.54368055189">
		<tag k="alt_name" v="Flåtjednmyratn" />
		<tag k="name" v="Flåtjernmyratn" />
		<tag k="natural" v="wetland" />
		<tag k="ssr:stedsnr" v="661396" />
	</node>
	<node id="-396578" lat="61.006727775" lon="9.50970834231">
		<tag k="name" v="Brennahaugen" />
		<tag k="place" v="locality" />
		<tag k="ssr:stedsnr" v="904605" />
	</node>
	<node id="-396064" lat="61.0476777766" lon="9.4724416704">
		<tag k="name" v="Trandin" />
		<tag k="place" v="locality" />
		<tag k="ssr:stedsnr" v="661210" />
	</node>
	<node id="-396575" lat="61.0243944401" lon="9.68505832527">
		<tag k="alt_name" v="Langtjednmyratn" />
		<tag k="name" v="Langtjernmyratn" />
		<tag k="natural" v="wetland" />
		<tag k="ssr:stedsnr" v="904255" />
	</node>
	<node id="-395549" lat="61.0493805585" lon="9.46815278679">
		<tag k="name" v="Trandemyre" />
		<tag k="natural" v="wetland" />
		<tag k="ssr:stedsnr" v="237211" />
	</node>
	<node id="-396572" lat="60.9554472208" lon="9.52314167469">
		<tag k="name" v="Vøllmyre" />
		<tag k="natural" v="wetland" />
		<tag k="ssr:stedsnr" v="904361" />
	</node>
	<node id="-397594" lat="60.9005138929" lon="9.54714443668">
		<tag k="name" v="Fjellstølmyre" />
		<tag k="natural" v="wetland" />
		<tag k="ssr:stedsnr" v="782475" />
	</node>
	<node id="-397081" lat="61.0070250037" lon="9.66643055049">
		<tag k="name" v="Åfetstølen" />
		<tag k="place" v="locality" />
		<tag k="ssr:stedsnr" v="357364" />
	</node>
	<node id="-397079" lat="60.9539972253" lon="9.51296388625">
		<tag k="landuse" v="meadow" />
		<tag k="name" v="Småsletatn" />
		<tag k="ssr:stedsnr" v="357336" />
	</node>
	<node id="-397614" lat="61.0617083369" lon="9.47070555494">
		<tag k="name" v="Høgehaugmyre" />
		<tag k="natural" v="wetland" />
		<tag k="ssr:stedsnr" v="783787" />
	</node>
	<node id="-396050" lat="60.9132833367" lon="9.77035278297">
		<tag k="name" v="Stutlimyratn" />
		<tag k="natural" v="wetland" />
		<tag k="ssr:stedsnr" v="660732" />
	</node>
	<node id="-395537" lat="61.0455666667" lon="9.76296944803">
		<tag k="alt_name" v="Nerre Bergsætermyre" />
		<tag k="name" v="Nedre Bergsætermyre" />
		<tag k="natural" v="wetland" />
		<tag k="ssr:stedsnr" v="236884" />
	</node>
	<node id="-397584" lat="61.0241222229" lon="9.64704445177">
		<tag k="name" v="Puttmyre" />
		<tag k="natural" v="wetland" />
		<tag k="ssr:stedsnr" v="782240" />
	</node>
	<node id="-396047" lat="60.9964722228" lon="9.67750554794">
		<tag k="landuse" v="meadow" />
		<tag k="name" v="Vesleløo" />
		<tag k="ssr:stedsnr" v="660428" />
	</node>
	<node id="-397582" lat="61.0239611115" lon="9.70101665933">
		<tag k="alt_name" v="Langtjednstrypen" />
		<tag k="name" v="Langtjernstrypen" />
		<tag k="natural" v="wetland" />
		<tag k="ssr:stedsnr" v="782224" />
	</node>
	<node id="-396555" lat="60.8988722198" lon="9.61333888683">
		<tag k="name" v="Hallatn" />
		<tag k="place" v="locality" />
		<tag k="ssr:stedsnr" v="902469" />
	</node>
	<node id="-397066" lat="60.9863333306" lon="9.74774166497">
		<tag k="name" v="Blesamyre" />
		<tag k="natural" v="wetland" />
		<tag k="ssr:stedsnr" v="357168" />
	</node>
	<node id="-397577" lat="60.8925749982" lon="9.74230278222">
		<tag k="name" v="Fetedalsmyre" />
		<tag k="natural" v="wetland" />
		<tag k="ssr:stedsnr" v="782149" />
	</node>
	<node id="-396551" lat="60.8985472182" lon="9.59394166344">
		<tag k="name" v="Brennmelinge" />
		<tag k="place" v="locality" />
		<tag k="ssr:stedsnr" v="902255" />
	</node>
	<node id="-397574" lat="61.0415861072" lon="9.51539722795">
		<tag k="name" v="Tjednmyre" />
		<tag k="natural" v="wetland" />
		<tag k="ssr:stedsnr" v="782127" />
	</node>
	<node id="-396037" lat="60.8978944413" lon="9.71839167039">
		<tag k="name" v="Gåsebergmyratn" />
		<tag k="natural" v="wetland" />
		<tag k="ssr:stedsnr" v="660145" />
	</node>
	<node id="-396158" lat="60.9674583336" lon="9.77089721391">
		<tag k="alt_name" v="Gjuvamyri, vesle" />
		<tag k="name" v="Vesle Gjuvamyri" />
		<tag k="natural" v="wetland" />
		<tag k="ssr:stedsnr" v="676949" />
	</node>
	<node id="-396160" lat="60.9606583301" lon="9.74861666709">
		<tag k="alt_name" v="Langmyre" />
		<tag k="name" v="Langmyri" />
		<tag k="natural" v="wetland" />
		<tag k="ssr:stedsnr" v="677975" />
	</node>
	<node id="-397053" lat="60.9124833297" lon="9.57863889343">
		<tag k="name" v="Brølløpsmyre" />
		<tag k="natural" v="wetland" />
		<tag k="ssr:stedsnr" v="356804" />
	</node>
	<node id="-396539" lat="60.9800083369" lon="9.6504472257">
		<tag k="name" v="Stormyri" />
		<tag k="natural" v="wetland" />
		<tag k="ssr:stedsnr" v="859626" />
	</node>
	<node id="-397561" lat="60.9633611117" lon="9.65746388881">
		<tag k="name" v="Endeløyse" />
>>>>>>> e1d4bc35ff8a6074a6f2e91616a996b547c36f15
		<tag k="natural" v="wetland" />
		<tag k="ssr:stedsnr" v="781865" />
	</node>
<<<<<<< HEAD
	<node lat="61.026866665477975" lon="9.530441664579504" id="-19444">
		<tag k="name" v="Hieisåsen" />
		<tag k="place" v="locality" />
		<tag k="ssr:stedsnr" v="70566" />
	</node>
	<node lat="61.00391111050817" lon="9.622372222135365" id="-19459">
		<tag k="name" v="Stormyre" />
		<tag k="natural" v="wetland" />
		<tag k="ssr:stedsnr" v="113086" />
	</node>
	<node lat="61.01036388665458" lon="9.609644445198768" id="-19464">
		<tag k="landuse" v="meadow" />
		<tag k="name" v="Øygarden" />
		<tag k="ssr:stedsnr" v="113155" />
	</node>
	<node lat="61.030491664850445" lon="9.630944447453459" id="-19469">
		<tag k="name" v="Rullbakk" />
		<tag k="place" v="locality" />
		<tag k="ssr:stedsnr" v="114279" />
	</node>
	<node lat="60.90809444291571" lon="9.71676111912338" id="-19488">
		<tag k="name" v="Lundsæterstrypen" />
		<tag k="natural" v="wetland" />
		<tag k="ssr:stedsnr" v="114755" />
	</node>
	<node lat="61.02681111267888" lon="9.50727499684841" id="-19496">
		<tag k="name" v="Seta" />
		<tag k="place" v="locality" />
		<tag k="ssr:stedsnr" v="115098" />
	</node>
	<node lat="60.84348611532105" lon="9.660188896468833" id="-19501">
		<tag k="name" v="Ringstølmyre" />
		<tag k="natural" v="wetland" />
		<tag k="ssr:stedsnr" v="115159" />
	</node>
	<node lat="60.9759194415666" lon="9.76671110845947" id="-19504">
		<tag k="name" v="Stormyratn" />
		<tag k="natural" v="wetland" />
		<tag k="ssr:stedsnr" v="115190" />
	</node>
	<node lat="60.85360277835735" lon="9.773572230459507" id="-19509">
		<tag k="name" v="Duggurdsmyratn" />
		<tag k="natural" v="wetland" />
		<tag k="ssr:stedsnr" v="115300" />
	</node>
	<node lat="60.873100002504586" lon="9.785111106050397" id="-19511">
		<tag k="alt_name" v="Sørresætermyratn" />
		<tag k="name" v="Søresætermyratn" />
		<tag k="natural" v="wetland" />
		<tag k="ssr:stedsnr" v="115596" />
	</node>
	<node lat="60.993961107644395" lon="9.625405564216782" id="-19534">
		<tag k="name" v="Brennmyri" />
		<tag k="natural" v="wetland" />
		<tag k="ssr:stedsnr" v="130733" />
	</node>
	<node lat="61.050116664518235" lon="9.595647227843756" id="-19556">
		<tag k="name" v="Kveateigen" />
		<tag k="place" v="locality" />
		<tag k="ssr:stedsnr" v="174895" />
	</node>
	<node lat="60.90391111277305" lon="9.742936118859141" id="-19558">
		<tag k="name" v="Bjødnamyratn" />
		<tag k="natural" v="wetland" />
		<tag k="ssr:stedsnr" v="175132" />
	</node>
	<node lat="61.02755555319031" lon="9.671855549139933" id="-19565">
		<tag k="name" v="Hølmyre" />
		<tag k="natural" v="wetland" />
		<tag k="ssr:stedsnr" v="175293" />
	</node>
	<node lat="61.04908055981503" lon="9.66603332431844" id="-19577">
		<tag k="name" v="Steinfotmyratn" />
		<tag k="natural" v="wetland" />
		<tag k="ssr:stedsnr" v="175928" />
	</node>
	<node lat="60.86153888508053" lon="9.754966670477792" id="-19582">
		<tag k="name" v="Gråbeinmyre" />
		<tag k="natural" v="wetland" />
		<tag k="ssr:stedsnr" v="176267" />
	</node>
	<node lat="61.06201944189946" lon="9.453388883749552" id="-19584">
		<tag k="landuse" v="meadow" />
		<tag k="name" v="Skromset" />
		<tag k="ssr:stedsnr" v="176452" />
	</node>
	<node lat="61.04306666292477" lon="9.77812777733944" id="-19624">
		<tag k="name" v="Skivevollene" />
		<tag k="natural" v="wetland" />
		<tag k="ssr:stedsnr" v="297864" />
	</node>
	<node lat="60.90200277727425" lon="9.556163888669271" id="-19626">
		<tag k="name" v="Fjellkinn" />
		<tag k="natural" v="wetland" />
		<tag k="ssr:stedsnr" v="295146" />
	</node>
	<node lat="60.94106388970181" lon="9.59859166317621" id="-19632">
		<tag k="landuse" v="meadow" />
		<tag k="name" v="Øyatn" />
		<tag k="ssr:stedsnr" v="295538" />
	</node>
	<node lat="61.02279444757166" lon="9.643058327488387" id="-19638">
		<tag k="alt_name" v="Nørre Langedalstølen" />
		<tag k="landuse" v="meadow" />
		<tag k="name" v="Nørdre Langedalstølen" />
		<tag k="ssr:stedsnr" v="296218" />
	</node>
	<node lat="61.00167778091085" lon="9.677780553252552" id="-19640">
		<tag k="name" v="Brusvemyrhaugen" />
		<tag k="place" v="locality" />
		<tag k="ssr:stedsnr" v="296330" />
	</node>
	<node lat="61.00150000002995" lon="9.693716675027192" id="-19642">
		<tag k="name" v="Beinstimyre" />
		<tag k="natural" v="wetland" />
		<tag k="ssr:stedsnr" v="296336" />
	</node>
	<node lat="60.88904166450462" lon="9.723261108943944" id="-19643">
		<tag k="name" v="Puttemyre" />
		<tag k="natural" v="wetland" />
		<tag k="ssr:stedsnr" v="296049" />
	</node>
	<node lat="60.961774996181624" lon="9.658686102392473" id="-19647">
		<tag k="name" v="Langemyre" />
		<tag k="natural" v="wetland" />
		<tag k="ssr:stedsnr" v="296142" />
	</node>
	<node lat="60.99922221976839" lon="9.67199721425605" id="-19648">
		<tag k="landuse" v="meadow" />
		<tag k="name" v="Akkordløo" />
		<tag k="ssr:stedsnr" v="296387" />
	</node>
	<node lat="60.83270277910438" lon="9.760486112103619" id="-19662">
		<tag k="name" v="Nørstebøenge" />
		<tag k="place" v="locality" />
		<tag k="ssr:stedsnr" v="296573" />
	</node>
	<node lat="61.0413777753676" lon="9.744669450699703" id="-19668">
		<tag k="name" v="Havdenlykkjemyre" />
		<tag k="natural" v="wetland" />
		<tag k="ssr:stedsnr" v="296880" />
	</node>
	<node lat="61.04800000361934" lon="9.745472229973444" id="-19669">
		<tag k="name" v="Budeimyre" />
		<tag k="natural" v="wetland" />
		<tag k="ssr:stedsnr" v="296892" />
	</node>
	<node lat="60.98767777813195" lon="9.716813894341719" id="-19679">
		<tag k="landuse" v="meadow" />
		<tag k="name" v="Holosetvøllen" />
		<tag k="ssr:stedsnr" v="297204" />
	</node>
	<node lat="60.900255552842914" lon="9.576574998992463" id="-19722">
		<tag k="name" v="Heggeruste" />
		<tag k="place" v="locality" />
		<tag k="ssr:stedsnr" v="356136" />
	</node>
	<node lat="60.897549996234524" lon="9.56701667044879" id="-19724">
		<tag k="name" v="Hølbekkmyre" />
		<tag k="natural" v="wetland" />
		<tag k="ssr:stedsnr" v="356233" />
	</node>
	<node lat="60.97473889045267" lon="9.701538887367338" id="-19727">
		<tag k="name" v="Heimre Beinstimyre" />
		<tag k="natural" v="wetland" />
		<tag k="ssr:stedsnr" v="356540" />
	</node>
	<node lat="60.90654721783642" lon="9.672036110894949" id="-19728">
		<tag k="name" v="Hesjastøe" />
		<tag k="place" v="locality" />
		<tag k="ssr:stedsnr" v="356543" />
	</node>
	<node lat="60.88505833698528" lon="9.739586108576715" id="-19735">
		<tag k="name" v="Sætermyre" />
		<tag k="natural" v="wetland" />
		<tag k="ssr:stedsnr" v="357083" />
	</node>
	<node lat="60.95399722530677" lon="9.512963886254079" id="-19744">
		<tag k="landuse" v="meadow" />
		<tag k="name" v="Småsletatn" />
		<tag k="ssr:stedsnr" v="357336" />
	</node>
	<node lat="61.028713890866186" lon="9.644472218971073" id="-19747">
		<tag k="name" v="Hølbekkmyre" />
		<tag k="natural" v="wetland" />
		<tag k="ssr:stedsnr" v="357262" />
	</node>
	<node lat="61.00702500369993" lon="9.666430550490567" id="-19752">
		<tag k="name" v="Åfetstølen" />
		<tag k="place" v="locality" />
		<tag k="ssr:stedsnr" v="357364" />
	</node>
	<node lat="61.0035055541193" lon="9.66230555663816" id="-19753">
		<tag k="name" v="Flæslette" />
		<tag k="place" v="locality" />
		<tag k="ssr:stedsnr" v="357368" />
	</node>
	<node lat="61.00310000011459" lon="9.540272216931239" id="-19762">
		<tag k="landuse" v="meadow" />
		<tag k="name" v="Borgerlykkja" />
		<tag k="ssr:stedsnr" v="357618" />
	</node>
	<node lat="61.036897221841016" lon="9.532572218241882" id="-19772">
		<tag k="name" v="Slettalie" />
		<tag k="place" v="locality" />
		<tag k="ssr:stedsnr" v="358141" />
	</node>
	<node lat="60.8306361144914" lon="9.684219452844646" id="-19779">
		<tag k="name" v="Puttemyre" />
		<tag k="natural" v="wetland" />
		<tag k="ssr:stedsnr" v="358687" />
	</node>
	<node lat="61.03041944327584" lon="9.531336104784362" id="-19781">
		<tag k="name" v="Langemyre" />
		<tag k="natural" v="wetland" />
		<tag k="ssr:stedsnr" v="360588" />
	</node>
	<node lat="60.961363892673084" lon="9.624422227730204" id="-19806">
		<tag k="name" v="Tangen" />
		<tag k="place" v="locality" />
		<tag k="ssr:stedsnr" v="373964" />
	</node>
	<node lat="60.985402775735785" lon="9.568561115801515" id="-19817">
		<tag k="landuse" v="meadow" />
		<tag k="name" v="Damslette" />
		<tag k="ssr:stedsnr" v="417422" />
	</node>
	<node lat="61.08595555848683" lon="9.624038882785417" id="-19820">
		<tag k="landuse" v="quarry" />
		<tag k="name" v="Skiferbrudd" />
		<tag k="ssr:stedsnr" v="417072" />
	</node>
	<node lat="61.0173444416618" lon="9.759016675100012" id="-19822">
		<tag k="alt_name" v="Sørre Vøllatn" />
		<tag k="landuse" v="meadow" />
		<tag k="name" v="Søre Vøllatn" />
		<tag k="ssr:stedsnr" v="417258" />
	</node>
	<node lat="60.910125000727454" lon="9.695658329387689" id="-19826">
		<tag k="name" v="Bjørkeskålin" />
		<tag k="place" v="locality" />
		<tag k="ssr:stedsnr" v="417567" />
	</node>
	<node lat="60.91781944701636" lon="9.695713886828003" id="-19828">
		<tag k="name" v="Smørslette" />
		<tag k="place" v="locality" />
		<tag k="ssr:stedsnr" v="417582" />
	</node>
	<node lat="61.055091665986254" lon="9.75030554934039" id="-19844">
		<tag k="name" v="Øvre Bergsætermyre" />
		<tag k="natural" v="wetland" />
		<tag k="ssr:stedsnr" v="418138" />
	</node>
	<node lat="61.02684722428577" lon="9.58312777233441" id="-19851">
		<tag k="alt_name" v="Nerre Dalstølen" />
		<tag k="name" v="Nedre Dalstølen" />
		<tag k="place" v="locality" />
		<tag k="ssr:stedsnr" v="418217" />
	</node>
	<node lat="60.875536115294345" lon="9.682563879873204" id="-19857">
		<tag k="name" v="Bjødnamyre" />
		<tag k="natural" v="wetland" />
		<tag k="ssr:stedsnr" v="418456" />
	</node>
	<node lat="60.87637500167728" lon="9.679858333896359" id="-19858">
		<tag k="name" v="Hovdesvekleive" />
		<tag k="place" v="locality" />
		<tag k="ssr:stedsnr" v="418477" />
	</node>
	<node lat="60.88279166858081" lon="9.793491667848562" id="-19878">
		<tag k="name" v="Duggurdsbeitmyratn" />
		<tag k="natural" v="wetland" />
		<tag k="ssr:stedsnr" v="419633" />
	</node>
	<node lat="61.023338887549116" lon="9.511991665264981" id="-19884">
		<tag k="name" v="Hestehagin" />
		<tag k="place" v="locality" />
		<tag k="ssr:stedsnr" v="421649" />
	</node>
	<node lat="60.96776389087433" lon="9.67488056291971" id="-19909">
		<tag k="alt_name" v="Kuvmyre" />
		<tag k="name" v="Stormyri" />
		<tag k="natural" v="wetland" />
		<tag k="ssr:stedsnr" v="434935" />
	</node>
	<node lat="60.95356666339124" lon="9.648288890518636" id="-19910">
		<tag k="alt_name" v="Heimstølen" />
		<tag k="historic" v="shieling" />
		<tag k="name" v="Heimstølvollen" />
		<tag k="place" v="locality" />
		<tag k="ssr:stedsnr" v="434951" />
	</node>
	<node lat="61.00024444811229" lon="9.698719439365941" id="-19926">
		<tag k="name" v="Østenmyre" />
		<tag k="natural" v="wetland" />
		<tag k="ssr:stedsnr" v="539323" />
	</node>
	<node lat="60.88932222142823" lon="9.612750005702006" id="-19939">
		<tag k="name" v="Kleive" />
		<tag k="place" v="locality" />
		<tag k="ssr:stedsnr" v="539428" />
	</node>
	<node lat="60.89048610822536" lon="9.605363893612807" id="-19941">
		<tag k="name" v="Myratn" />
		<tag k="natural" v="wetland" />
		<tag k="ssr:stedsnr" v="539462" />
	</node>
	<node lat="61.11224444501883" lon="9.67408055874732" id="-19946">
		<tag k="name" v="Blautmyre" />
		<tag k="natural" v="wetland" />
		<tag k="ssr:stedsnr" v="539721" />
	</node>
	<node lat="61.035213885523056" lon="9.548980556861418" id="-19955">
		<tag k="name" v="Sletten" />
		<tag k="place" v="locality" />
		<tag k="ssr:stedsnr" v="540144" />
	</node>
	<node lat="61.04259999915925" lon="9.522688891389688" id="-19957">
		<tag k="landuse" v="meadow" />
		<tag k="name" v="Skutløovøllen" />
		<tag k="ssr:stedsnr" v="540154" />
	</node>
	<node lat="61.009594444615395" lon="9.53943888703661" id="-19965">
		<tag k="name" v="Brøtatn" />
		<tag k="place" v="locality" />
		<tag k="ssr:stedsnr" v="540636" />
	</node>
	<node lat="60.8818416643698" lon="9.757455560291994" id="-19966">
		<tag k="name" v="Åmyre" />
		<tag k="natural" v="wetland" />
		<tag k="ssr:stedsnr" v="540734" />
	</node>
	<node lat="60.89357500154302" lon="9.615080549032644" id="-20002">
		<tag k="name" v="Vatningsmyre" />
		<tag k="natural" v="wetland" />
		<tag k="ssr:stedsnr" v="598367" />
	</node>
	<node lat="60.95756110876372" lon="9.589947229153182" id="-20014">
		<tag k="name" v="Tomasskålin" />
		<tag k="place" v="locality" />
		<tag k="ssr:stedsnr" v="598498" />
	</node>
	<node lat="60.95580277381209" lon="9.568180560473655" id="-20016">
		<tag k="name" v="Kjærringmyre" />
		<tag k="natural" v="wetland" />
		<tag k="ssr:stedsnr" v="598978" />
	</node>
	<node lat="61.029611106794235" lon="9.663369445674077" id="-20025">
		<tag k="name" v="Slettamyre" />
		<tag k="natural" v="wetland" />
		<tag k="ssr:stedsnr" v="599258" />
	</node>
	<node lat="60.89681666626999" lon="9.767097217448477" id="-20029">
		<tag k="name" v="Dygdedalsmyratn" />
		<tag k="natural" v="wetland" />
		<tag k="ssr:stedsnr" v="599143" />
	</node>
	<node lat="60.93428333197769" lon="9.764272217301576" id="-20050">
		<tag k="name" v="Steindavøllatn" />
		<tag k="place" v="locality" />
		<tag k="ssr:stedsnr" v="600371" />
	</node>
	<node lat="60.98778055155156" lon="9.737683329257731" id="-20053">
		<tag k="name" v="Blesamyratn" />
		<tag k="natural" v="wetland" />
		<tag k="ssr:stedsnr" v="600183" />
	</node>
	<node lat="60.828288891420215" lon="9.7696666744922" id="-20059">
		<tag k="name" v="Sagbakkenge" />
		<tag k="place" v="locality" />
		<tag k="ssr:stedsnr" v="600528" />
	</node>
	<node lat="60.8313666629522" lon="9.768472224194067" id="-20060">
		<tag k="name" v="Haugsenge" />
		<tag k="place" v="locality" />
		<tag k="ssr:stedsnr" v="600529" />
	</node>
	<node lat="60.83106111135967" lon="9.763702770568049" id="-20061">
		<tag k="name" v="Sørenghaugen" />
		<tag k="place" v="locality" />
		<tag k="ssr:stedsnr" v="600532" />
	</node>
	<node lat="60.8473861129828" lon="9.72933055649133" id="-20065">
		<tag k="landuse" v="meadow" />
		<tag k="name" v="Groin" />
		<tag k="ssr:stedsnr" v="600740" />
	</node>
	<node lat="60.88684722650023" lon="9.581988890272381" id="-20095">
		<tag k="name" v="Stølsjordmyre" />
		<tag k="natural" v="wetland" />
		<tag k="ssr:stedsnr" v="659016" />
	</node>
	<node lat="61.03391111460172" lon="9.554030556971389" id="-20102">
		<tag k="landuse" v="meadow" />
		<tag k="name" v="Brattengflåe" />
		<tag k="ssr:stedsnr" v="659364" />
	</node>
	<node lat="60.996472222770215" lon="9.677505547940465" id="-20105">
		<tag k="landuse" v="meadow" />
		<tag k="name" v="Vesleløo" />
		<tag k="ssr:stedsnr" v="660428" />
	</node>
	<node lat="60.89789444134552" lon="9.718391670394597" id="-20110">
		<tag k="name" v="Gåsebergmyratn" />
		<tag k="natural" v="wetland" />
		<tag k="ssr:stedsnr" v="660145" />
	</node>
	<node lat="61.04767777655506" lon="9.472441670402684" id="-20122">
		<tag k="name" v="Trandin" />
		<tag k="place" v="locality" />
		<tag k="ssr:stedsnr" v="661210" />
	</node>
	<node lat="60.85016944181622" lon="9.759888888949959" id="-20126">
		<tag k="alt_name" v="Røirpipemyre" />
		<tag k="name" v="Røyrpipemyre" />
		<tag k="natural" v="wetland" />
		<tag k="ssr:stedsnr" v="661276" />
	</node>
	<node lat="60.83404722470109" lon="9.733808338363945" id="-20129">
		<tag k="name" v="Nedre Hyttemyre" />
		<tag k="natural" v="wetland" />
		<tag k="ssr:stedsnr" v="661471" />
	</node>
	<node lat="60.89316944355881" lon="9.751752776090386" id="-20152">
		<tag k="name" v="Karlsmyre" />
		<tag k="natural" v="wetland" />
		<tag k="ssr:stedsnr" v="721148" />
	</node>
	<node lat="61.07285277462582" lon="9.588863890827803" id="-20155">
		<tag k="name" v="Nystølmyratn" />
		<tag k="natural" v="wetland" />
		<tag k="ssr:stedsnr" v="720258" />
	</node>
	<node lat="61.097469445554246" lon="9.69652222773604" id="-20188">
		<tag k="name" v="Hyttebekkmyre" />
		<tag k="natural" v="wetland" />
		<tag k="ssr:stedsnr" v="721701" />
	</node>
	<node lat="61.04214444766687" lon="9.51953333437601" id="-20196">
		<tag k="landuse" v="meadow" />
		<tag k="name" v="Heimrevøllen" />
		<tag k="ssr:stedsnr" v="722160" />
	</node>
	<node lat="61.04060555344354" lon="9.51589999674217" id="-20197">
		<tag k="name" v="Kjerringsmyre" />
		<tag k="natural" v="wetland" />
		<tag k="ssr:stedsnr" v="722165" />
	</node>
	<node lat="60.974988890850696" lon="9.71032221744984" id="-20233">
		<tag k="name" v="Austre Beinstimyre" />
		<tag k="natural" v="wetland" />
		<tag k="ssr:stedsnr" v="781535" />
	</node>
	<node lat="60.91863611300991" lon="9.68872499899657" id="-20234">
		<tag k="name" v="Øvrigardsmyre" />
		<tag k="natural" v="wetland" />
		<tag k="ssr:stedsnr" v="781542" />
	</node>
	<node lat="60.92512222345342" lon="9.69526667043486" id="-20251">
		<tag k="alt_name" v="Staklimyre" />
		<tag k="name" v="Stakklimyre" />
		<tag k="natural" v="wetland" />
		<tag k="ssr:stedsnr" v="781728" />
	</node>
	<node lat="61.023961111509095" lon="9.701016659328927" id="-20258">
		<tag k="alt_name" v="Langtjednstrypen" />
		<tag k="name" v="Langtjernstrypen" />
		<tag k="natural" v="wetland" />
		<tag k="ssr:stedsnr" v="782224" />
	</node>
	<node lat="61.024122222867085" lon="9.647044451773994" id="-20260">
		<tag k="name" v="Puttmyre" />
		<tag k="natural" v="wetland" />
		<tag k="ssr:stedsnr" v="782240" />
	</node>
	<node lat="61.041586107226834" lon="9.515397227946357" id="-20262">
		<tag k="name" v="Tjednmyre" />
		<tag k="natural" v="wetland" />
		<tag k="ssr:stedsnr" v="782127" />
	</node>
	<node lat="60.881161112917326" lon="9.729788890188502" id="-20280">
		<tag k="name" v="Tomlemyratn" />
=======
	<node id="-396024" lat="61.0339111146" lon="9.55403055697">
		<tag k="landuse" v="meadow" />
		<tag k="name" v="Brattengflåe" />
		<tag k="ssr:stedsnr" v="659364" />
	</node>
	<node id="-395511" lat="60.9510500001" lon="9.54531666582">
		<tag k="landuse" v="meadow" />
		<tag k="name" v="Hansevøllen" />
		<tag k="ssr:stedsnr" v="236347" />
	</node>
	<node id="-395568" lat="60.9113638918" lon="9.77301667133">
		<tag k="name" v="Romyre" />
		<tag k="natural" v="wetland" />
		<tag k="ssr:stedsnr" v="53770" />
	</node>
	<node id="-396021" lat="61.0543611095" lon="9.57765000011">
		<tag k="landuse" v="meadow" />
		<tag k="name" v="Hestevøllatn" />
		<tag k="ssr:stedsnr" v="659341" />
	</node>
	<node id="-397044" lat="60.9747388905" lon="9.70153888737">
		<tag k="name" v="Heimre Beinstimyre" />
		<tag k="natural" v="wetland" />
		<tag k="ssr:stedsnr" v="356540" />
	</node>
	<node id="-397043" lat="60.911427776" lon="9.70968055802">
		<tag k="name" v="Liavøllen" />
		<tag k="place" v="locality" />
		<tag k="ssr:stedsnr" v="356505" />
	</node>
	<node id="-397554" lat="60.9251222235" lon="9.69526667043">
		<tag k="alt_name" v="Staklimyre" />
		<tag k="name" v="Stakklimyre" />
		<tag k="natural" v="wetland" />
		<tag k="ssr:stedsnr" v="781728" />
	</node>
	<node id="-395500" lat="60.8933000023" lon="9.72287776969">
		<tag k="name" v="Gåsebergmyre" />
		<tag k="natural" v="wetland" />
		<tag k="ssr:stedsnr" v="236158" />
	</node>
	<node id="-397035" lat="60.8975499962" lon="9.56701667045">
		<tag k="name" v="Hølbekkmyre" />
		<tag k="natural" v="wetland" />
		<tag k="ssr:stedsnr" v="356233" />
	</node>
	<node id="-397546" lat="60.9421916698" lon="9.59520000227">
		<tag k="landuse" v="meadow" />
		<tag k="name" v="Øyatn" />
		<tag k="ssr:stedsnr" v="781408" />
	</node>
	<node id="-397033" lat="60.9002555528" lon="9.57657499899">
		<tag k="name" v="Heggeruste" />
		<tag k="place" v="locality" />
		<tag k="ssr:stedsnr" v="356136" />
	</node>
	<node id="-396520" lat="60.8868805536" lon="9.6241250036">
		<tag k="name" v="Harabakkin" />
		<tag k="place" v="locality" />
		<tag k="ssr:stedsnr" v="842454" />
	</node>
	<node id="-396518" lat="61.0696333373" lon="9.5537277738">
		<tag k="name" v="Smiugardsmarke" />
		<tag k="place" v="locality" />
		<tag k="ssr:stedsnr" v="842227" />
	</node>
	<node id="-395730" lat="60.9020027773" lon="9.55616388867">
		<tag k="name" v="Fjellkinn" />
		<tag k="natural" v="wetland" />
		<tag k="ssr:stedsnr" v="295146" />
	</node>
	<node id="-396000" lat="60.8827916686" lon="9.79349166785">
		<tag k="name" v="Duggurdsbeitmyratn" />
		<tag k="natural" v="wetland" />
		<tag k="ssr:stedsnr" v="419633" />
	</node>
	<node id="-396752" lat="61.0039111105" lon="9.62237222214">
		<tag k="name" v="Stormyre" />
		<tag k="natural" v="wetland" />
		<tag k="ssr:stedsnr" v="113086" />
	</node>
	<node id="-395898" lat="61.007652777" lon="9.51889721562">
		<tag k="name" v="Lundmohølet" />
		<tag k="place" v="locality" />
		<tag k="ssr:stedsnr" v="479632" />
	</node>
	<node id="-397530" lat="60.8962333292" lon="9.56598056105">
		<tag k="name" v="Langmyre" />
		<tag k="natural" v="wetland" />
		<tag k="ssr:stedsnr" v="781003" />
	</node>
	<node id="-395481" lat="60.9150277822" lon="9.69421666421">
		<tag k="name" v="Olaskålin" />
		<tag k="place" v="locality" />
		<tag k="ssr:stedsnr" v="235575" />
	</node>
	<node id="-397016" lat="61.0285083334" lon="9.53770554844">
		<tag k="name" v="Skilnamyre" />
		<tag k="natural" v="wetland" />
		<tag k="ssr:stedsnr" v="314607" />
	</node>
	<node id="-395479" lat="60.9138055546" lon="9.70300277404">
		<tag k="name" v="Roveskålin" />
		<tag k="place" v="locality" />
		<tag k="ssr:stedsnr" v="235565" />
	</node>
	<node id="-396074" lat="61.0020638909" lon="9.53886666344">
		<tag k="name" v="Haugamyratn" />
		<tag k="natural" v="wetland" />
		<tag k="ssr:stedsnr" v="661610" />
	</node>
	<node id="-395989" lat="61.0268472243" lon="9.58312777233">
		<tag k="alt_name" v="Nerre Dalstølen" />
		<tag k="name" v="Nedre Dalstølen" />
		<tag k="place" v="locality" />
		<tag k="ssr:stedsnr" v="418217" />
	</node>
	<node id="-396495" lat="60.918636113" lon="9.688724999">
		<tag k="name" v="Øvrigardsmyre" />
		<tag k="natural" v="wetland" />
		<tag k="ssr:stedsnr" v="781542" />
	</node>
	<node id="-396494" lat="60.9749888909" lon="9.71032221745">
		<tag k="name" v="Austre Beinstimyre" />
		<tag k="natural" v="wetland" />
		<tag k="ssr:stedsnr" v="781535" />
	</node>
	<node id="-395466" lat="61.041708335" lon="9.57629166973">
		<tag k="name" v="Dalsmyre" />
		<tag k="natural" v="wetland" />
		<tag k="ssr:stedsnr" v="235364" />
	</node>
	<node id="-396407" lat="60.9422638881" lon="9.56386110894">
		<tag k="name" v="Fjellhallmyre" />
		<tag k="natural" v="wetland" />
		<tag k="ssr:stedsnr" v="902446" />
	</node>
	<node id="-397000" lat="60.854350003" lon="9.64842778394">
		<tag k="alt_name" v="Beitemyratn" />
		<tag k="name" v="Beitesmyran" />
		<tag k="natural" v="wetland" />
		<tag k="ssr:stedsnr" v="312016" />
	</node>
	<node id="-395975" lat="60.9980750015" lon="9.62436388815">
		<tag k="name" v="Bergamyre" />
		<tag k="natural" v="wetland" />
		<tag k="ssr:stedsnr" v="416204" />
	</node>
	<node id="-396802" lat="60.8536027784" lon="9.77357223046">
		<tag k="name" v="Duggurdsmyratn" />
		<tag k="natural" v="wetland" />
		<tag k="ssr:stedsnr" v="115300" />
	</node>
	<node id="-395972" lat="60.9613638927" lon="9.62442222773">
		<tag k="name" v="Tangen" />
		<tag k="place" v="locality" />
		<tag k="ssr:stedsnr" v="373964" />
	</node>
	<node id="-395971" lat="60.9705361093" lon="9.72608334059">
		<tag k="name" v="Myrstølmyran" />
		<tag k="natural" v="wetland" />
		<tag k="ssr:stedsnr" v="373961" />
	</node>
	<node id="-395456" lat="60.8846666692" lon="9.57736111432">
		<tag k="landuse" v="meadow" />
		<tag k="name" v="Tetrud" />
		<tag k="ssr:stedsnr" v="235022" />
	</node>
	<node id="-397600" lat="60.8811611129" lon="9.72978889019">
		<tag k="name" v="Tomlemyratn" />
		<tag k="natural" v="wetland" />
		<tag k="ssr:stedsnr" v="782743" />
	</node>
	<node id="-396985" lat="61.0885055591" lon="9.47084443891">
		<tag k="alt_name" v="Tangaflætn" />
		<tag k="name" v="Tangeflæin" />
		<tag k="natural" v="wetland" />
		<tag k="ssr:stedsnr" v="310887" />
	</node>
	<node id="-395955" lat="60.9491055588" lon="9.58074444399">
		<tag k="alt_name" v="Langemyre" />
		<tag k="name" v="Langemyri" />
		<tag k="natural" v="wetland" />
		<tag k="ssr:stedsnr" v="495578" />
	</node>
	<node id="-396463" lat="60.8779222222" lon="9.74544445259">
		<tag k="name" v="Gurimyre" />
		<tag k="natural" v="wetland" />
		<tag k="ssr:stedsnr" v="904733" />
	</node>
	<node id="-396570" lat="61.0157805526" lon="9.50426666556">
		<tag k="name" v="Brøtaskogen" />
		<tag k="place" v="locality" />
		<tag k="ssr:stedsnr" v="904011" />
	</node>
	<node id="-396573" lat="60.9509694443" lon="9.53870556129">
		<tag k="name" v="Veslevøllen" />
		<tag k="place" v="locality" />
		<tag k="ssr:stedsnr" v="904364" />
	</node>
	<node id="-395944" lat="60.8216388914" lon="9.70621666884">
		<tag k="alt_name" v="Hyttemyre" />
		<tag k="name" v="Hyttemyri" />
		<tag k="natural" v="wetland" />
		<tag k="ssr:stedsnr" v="494169" />
	</node>
	<node id="-396455" lat="61.0478166705" lon="9.52910833617">
		<tag k="name" v="Flatlandslie" />
		<tag k="place" v="locality" />
		<tag k="ssr:stedsnr" v="904148" />
	</node>
	<node id="-396461" lat="61.0619388867" lon="9.54557222027">
		<tag k="name" v="Åsli" />
		<tag k="place" v="locality" />
		<tag k="ssr:stedsnr" v="904379" />
	</node>
	<node id="-396453" lat="61.0393833314" lon="9.53050278424">
		<tag k="name" v="Perstølmyre" />
		<tag k="natural" v="wetland" />
		<tag k="ssr:stedsnr" v="904143" />
	</node>
	<node id="-396452" lat="61.0213805564" lon="9.4754000056">
		<tag k="name" v="Nedre Vøllen" />
		<tag k="place" v="locality" />
		<tag k="ssr:stedsnr" v="904129" />
	</node>
	<node id="-396451" lat="61.0322083302" lon="9.50721111629">
		<tag k="name" v="Leirholomyre" />
		<tag k="natural" v="wetland" />
		<tag k="ssr:stedsnr" v="904089" />
	</node>
	<node id="-396113" lat="61.052080557" lon="9.47167499614">
		<tag k="name" v="Slettingsdalmyre" />
		<tag k="natural" v="wetland" />
		<tag k="ssr:stedsnr" v="479219" />
	</node>
	<node id="-395847" lat="61.0120916694" lon="9.62014444737">
		<tag k="name" v="Stormyre" />
		<tag k="natural" v="wetland" />
		<tag k="ssr:stedsnr" v="477172" />
	</node>
	<node id="-396445" lat="60.8670777813" lon="9.55839165864">
		<tag k="alt_name" v="Brenntjednmyre" />
		<tag k="name" v="Brenntjernmyre" />
		<tag k="natural" v="wetland" />
		<tag k="ssr:stedsnr" v="903800" />
	</node>
	<node id="-397082" lat="61.0035055541" lon="9.66230555664">
		<tag k="name" v="Flæslette" />
		<tag k="place" v="locality" />
		<tag k="ssr:stedsnr" v="357368" />
	</node>
	<node id="-397461" lat="60.847386113" lon="9.72933055649">
		<tag k="landuse" v="meadow" />
		<tag k="name" v="Groin" />
		<tag k="ssr:stedsnr" v="600740" />
	</node>
	<node id="-395924" lat="60.8755222263" lon="9.76837499713">
		<tag k="name" v="Bergsmyre" />
		<tag k="natural" v="wetland" />
		<tag k="ssr:stedsnr" v="358761" />
	</node>
	<node id="-395919" lat="61.0661888852" lon="9.45224445021">
		<tag k="landuse" v="meadow" />
		<tag k="name" v="Øvreløostølen" />
		<tag k="ssr:stedsnr" v="358502" />
	</node>
	<node id="-397454" lat="60.8310611114" lon="9.76370277057">
		<tag k="name" v="Sørenghaugen" />
		<tag k="place" v="locality" />
		<tag k="ssr:stedsnr" v="600532" />
	</node>
	<node id="-397453" lat="60.831366663" lon="9.76847222419">
		<tag k="name" v="Haugsenge" />
		<tag k="place" v="locality" />
		<tag k="ssr:stedsnr" v="600529" />
	</node>
	<node id="-397452" lat="60.8282888914" lon="9.76966667449">
		<tag k="name" v="Sagbakkenge" />
		<tag k="place" v="locality" />
		<tag k="ssr:stedsnr" v="600528" />
	</node>
	<node id="-395913" lat="60.9492444481" lon="9.66208332696">
		<tag k="name" v="Nyhusmyre" />
		<tag k="natural" v="wetland" />
		<tag k="ssr:stedsnr" v="357822" />
	</node>
	<node id="-395911" lat="61.0031000001" lon="9.54027221693">
		<tag k="landuse" v="meadow" />
		<tag k="name" v="Borgerlykkja" />
		<tag k="ssr:stedsnr" v="357618" />
	</node>
	<node id="-396932" lat="60.8633055556" lon="9.72231111422">
		<tag k="name" v="Sandmælingen" />
		<tag k="place" v="locality" />
		<tag k="ssr:stedsnr" v="176813" />
	</node>
	<node id="-395798" lat="60.9876777781" lon="9.71681389434">
		<tag k="landuse" v="meadow" />
		<tag k="name" v="Holosetvøllen" />
		<tag k="ssr:stedsnr" v="297204" />
	</node>
	<node id="-397088" lat="61.0049472197" lon="9.7308527721">
		<tag k="name" v="Tanterhaugmarke" />
		<tag k="place" v="locality" />
		<tag k="ssr:stedsnr" v="357449" />
	</node>
	<node id="-395902" lat="60.8690916637" lon="9.73157500891">
		<tag k="name" v="Midtstein" />
		<tag k="natural" v="stone" />
		<tag k="ssr:stedsnr" v="479839" />
	</node>
	<node id="-396922" lat="61.0620194419" lon="9.45338888375">
		<tag k="landuse" v="meadow" />
		<tag k="name" v="Skromset" />
		<tag k="ssr:stedsnr" v="176452" />
	</node>
	<node id="-395455" lat="60.997052774" lon="9.62425277204">
		<tag k="name" v="Graneimyre" />
		<tag k="natural" v="wetland" />
		<tag k="ssr:stedsnr" v="234212" />
	</node>
	<node id="-396919" lat="60.8615388851" lon="9.75496667048">
		<tag k="name" v="Gråbeinmyre" />
		<tag k="natural" v="wetland" />
		<tag k="ssr:stedsnr" v="176267" />
	</node>
	<node id="-396406" lat="61.0911749983" lon="9.57869167051">
		<tag k="name" v="Storemyret" />
		<tag k="natural" v="wetland" />
		<tag k="ssr:stedsnr" v="902434" />
	</node>
	<node id="-396405" lat="61.0104777744" lon="9.58554444086">
		<tag k="name" v="Gråbeinmyre" />
		<tag k="natural" v="wetland" />
		<tag k="ssr:stedsnr" v="902399" />
	</node>
	<node id="-395892" lat="60.8389361096" lon="9.74582500396">
		<tag k="name" v="Langøye" />
		<tag k="place" v="locality" />
		<tag k="ssr:stedsnr" v="479485" />
	</node>
	<node id="-397075" lat="61.0287138909" lon="9.64447221897">
		<tag k="name" v="Hølbekkmyre" />
		<tag k="natural" v="wetland" />
		<tag k="ssr:stedsnr" v="357262" />
	</node>
	<node id="-395888" lat="60.9062749976" lon="9.61416388278">
		<tag k="name" v="Kvithovdmyratn" />
		<tag k="natural" v="wetland" />
		<tag k="ssr:stedsnr" v="478848" />
	</node>
	<node id="-395709" lat="60.9939611076" lon="9.62540556422">
		<tag k="name" v="Brennmyri" />
		<tag k="natural" v="wetland" />
		<tag k="ssr:stedsnr" v="130733" />
	</node>
	<node id="-396908" lat="60.8512138923" lon="9.7288111198">
		<tag k="name" v="Røstenge" />
		<tag k="place" v="locality" />
		<tag k="ssr:stedsnr" v="175766" />
	</node>
	<node id="-396395" lat="60.9655583375" lon="9.73430555355">
		<tag k="name" v="Botenbergmyre" />
		<tag k="natural" v="wetland" />
		<tag k="ssr:stedsnr" v="721624" />
	</node>
	<node id="-397416" lat="61.0296111068" lon="9.66336944567">
		<tag k="name" v="Slettamyre" />
		<tag k="natural" v="wetland" />
		<tag k="ssr:stedsnr" v="599258" />
	</node>
	<node id="-395879" lat="61.0637055546" lon="9.55868334078">
		<tag k="landuse" v="meadow" />
		<tag k="name" v="Eivindrudningen" />
		<tag k="ssr:stedsnr" v="478345" />
	</node>
	<node id="-395878" lat="61.0048055531" lon="9.7055138803">
		<tag k="name" v="Blekkemyratn" />
		<tag k="natural" v="wetland" />
		<tag k="ssr:stedsnr" v="478385" />
	</node>
	<node id="-397073" lat="61.0222138852" lon="9.64276944676">
		<tag k="name" v="Signevøllen" />
		<tag k="place" v="locality" />
		<tag k="ssr:stedsnr" v="357251" />
	</node>
	<node id="-397409" lat="60.8968166663" lon="9.76709721745">
		<tag k="name" v="Dygdedalsmyratn" />
		<tag k="natural" v="wetland" />
		<tag k="ssr:stedsnr" v="599143" />
	</node>
	<node id="-396896" lat="60.8737888908" lon="9.68028056131">
		<tag k="name" v="Rovemyre" />
		<tag k="natural" v="wetland" />
		<tag k="ssr:stedsnr" v="175472" />
	</node>
	<node id="-395775" lat="60.964344447" lon="9.76855833048">
		<tag k="name" v="Veslejuvmyre" />
		<tag k="natural" v="wetland" />
		<tag k="ssr:stedsnr" v="296624" />
	</node>
	<node id="-395869" lat="60.9053111079" lon="9.72998888021">
		<tag k="name" v="Lundsætermyre" />
		<tag k="natural" v="wetland" />
		<tag k="ssr:stedsnr" v="478121" />
	</node>
	<node id="-395868" lat="60.8424500007" lon="9.68086666311">
		<tag k="name" v="Gildremyre" />
		<tag k="natural" v="wetland" />
		<tag k="ssr:stedsnr" v="478118" />
	</node>
	<node id="-395509" lat="61.040774998" lon="9.54813332906">
		<tag k="landuse" v="meadow" />
		<tag k="name" v="Midtslette" />
		<tag k="ssr:stedsnr" v="236257" />
	</node>
	<node id="-396889" lat="61.0275555532" lon="9.67185554914">
		<tag k="name" v="Hølmyre" />
		<tag k="natural" v="wetland" />
		<tag k="ssr:stedsnr" v="175293" />
	</node>
	<node id="-395863" lat="60.9204749964" lon="9.63088888124">
		<tag k="alt_name" v="Gjeitsvee" />
		<tag k="name" v="Geitsvee" />
		<tag k="place" v="locality" />
		<tag k="ssr:stedsnr" v="478072" />
	</node>
	<node id="-395859" lat="60.8739777749" lon="9.5967277778">
		<tag k="alt_name" v="Gørrtjednmyratn" />
		<tag k="name" v="Gørrtjernmyratn" />
		<tag k="natural" v="wetland" />
		<tag k="ssr:stedsnr" v="477874" />
	</node>
	<node id="-395601" lat="61.000688888" lon="9.5369944469">
		<tag k="name" v="Fuglebrenne" />
		<tag k="place" v="locality" />
		<tag k="ssr:stedsnr" v="237653" />
	</node>
	<node id="-395856" lat="60.9077666701" lon="9.70880554924">
		<tag k="name" v="Flæten" />
		<tag k="natural" v="wetland" />
		<tag k="ssr:stedsnr" v="477539" />
	</node>
	<node id="-397391" lat="60.9575611088" lon="9.58994722915">
		<tag k="name" v="Tomasskålin" />
		<tag k="place" v="locality" />
		<tag k="ssr:stedsnr" v="598498" />
	</node>
	<node id="-396878" lat="60.9039111128" lon="9.74293611886">
		<tag k="name" v="Bjødnamyratn" />
>>>>>>> e1d4bc35ff8a6074a6f2e91616a996b547c36f15
		<tag k="natural" v="wetland" />
		<tag k="ssr:stedsnr" v="175132" />
	</node>
<<<<<<< HEAD
	<node lat="60.83002222018549" lon="9.712308328702242" id="-20286">
		<tag k="name" v="Jenseskålmyre" />
		<tag k="natural" v="wetland" />
		<tag k="ssr:stedsnr" v="783664" />
	</node>
	<node lat="60.86350277985437" lon="9.780494452249481" id="-20287">
		<tag k="name" v="Tomlesætermyre" />
		<tag k="natural" v="wetland" />
		<tag k="ssr:stedsnr" v="783665" />
	</node>
	<node lat="61.06170833693311" lon="9.470705554940235" id="-20290">
		<tag k="name" v="Høgehaugmyre" />
		<tag k="natural" v="wetland" />
		<tag k="ssr:stedsnr" v="783787" />
	</node>
	<node lat="60.910577776118835" lon="9.703983330307565" id="-20321">
		<tag k="name" v="Tørvmyre" />
		<tag k="natural" v="wetland" />
		<tag k="ssr:stedsnr" v="842499" />
	</node>
	<node lat="60.88688055358582" lon="9.62412500359991" id="-20333">
		<tag k="name" v="Harabakkin" />
		<tag k="place" v="locality" />
		<tag k="ssr:stedsnr" v="842454" />
	</node>
	<node lat="60.88999721924153" lon="9.620097219299762" id="-20334">
		<tag k="name" v="Brøtamyre" />
		<tag k="natural" v="wetland" />
		<tag k="ssr:stedsnr" v="842472" />
	</node>
	<node lat="61.025269445412576" lon="9.506674996707758" id="-20340">
		<tag k="name" v="Gofarjorde" />
		<tag k="place" v="locality" />
		<tag k="ssr:stedsnr" v="843090" />
	</node>
	<node lat="60.85615555535809" lon="9.709466669472809" id="-20344">
		<tag k="name" v="Kyndesmesstein" />
		<tag k="natural" v="stone" />
		<tag k="ssr:stedsnr" v="843170" />
	</node>
	<node lat="61.033077781742705" lon="9.55525555944683" id="-20348">
		<tag k="name" v="Brattengflåe" />
		<tag k="place" v="locality" />
		<tag k="ssr:stedsnr" v="843246" />
	</node>
	<node lat="61.01830833430244" lon="9.613588887004196" id="-20349">
		<tag k="name" v="Buksetrømyre" />
		<tag k="natural" v="wetland" />
		<tag k="ssr:stedsnr" v="843252" />
	</node>
	<node lat="61.016052778646774" lon="9.618280563694839" id="-20351">
		<tag k="name" v="Bergsmyratn" />
		<tag k="natural" v="wetland" />
		<tag k="ssr:stedsnr" v="843258" />
	</node>
	<node lat="61.03218055954366" lon="9.603472213536202" id="-20352">
		<tag k="name" v="Køllsetmarke" />
		<tag k="place" v="locality" />
		<tag k="ssr:stedsnr" v="843269" />
	</node>
	<node lat="60.9324444460533" lon="9.74457777322208" id="-20354">
		<tag k="name" v="Lortholmyre" />
		<tag k="natural" v="wetland" />
		<tag k="ssr:stedsnr" v="843358" />
	</node>
	<node lat="60.84882222654304" lon="9.721027770118472" id="-20369">
		<tag k="name" v="Dølstogmoen" />
		<tag k="place" v="locality" />
		<tag k="ssr:stedsnr" v="843768" />
	</node>
	<node lat="61.04419999846935" lon="9.745808330589847" id="-20376">
		<tag k="alt_name" v="Sørre Vøllen" />
		<tag k="name" v="Søre Vøllen" />
		<tag k="place" v="locality" />
		<tag k="ssr:stedsnr" v="843893" />
	</node>
	<node lat="60.83492500133254" lon="9.748875000374527" id="-20380">
		<tag k="name" v="Rødningsenge" />
		<tag k="place" v="locality" />
		<tag k="ssr:stedsnr" v="844501" />
	</node>
	<node lat="60.82330555569571" lon="9.712325007718544" id="-20385">
		<tag k="name" v="Syvermyre" />
		<tag k="natural" v="wetland" />
		<tag k="ssr:stedsnr" v="844659" />
	</node>
	<node lat="60.88650833765267" lon="9.54538610230449" id="-20400">
		<tag k="name" v="Langemyri" />
		<tag k="natural" v="wetland" />
		<tag k="ssr:stedsnr" v="859697" />
	</node>
	<node lat="60.97838055869853" lon="9.643122220768724" id="-20408">
		<tag k="alt_name" v="Skrompen" />
		<tag k="landuse" v="meadow" />
		<tag k="name" v="Skrumpen" />
		<tag k="ssr:stedsnr" v="859952" />
	</node>
	<node lat="60.99781388925967" lon="9.563347222076214" id="-20410">
		<tag k="landuse" v="meadow" />
		<tag k="name" v="Lundemoenge" />
		<tag k="ssr:stedsnr" v="962292" />
	</node>
	<node lat="60.91843333650771" lon="9.758358336767726" id="-20413">
		<tag k="name" v="Telefonmyre" />
		<tag k="natural" v="wetland" />
		<tag k="ssr:stedsnr" v="963730" />
	</node>
	<node lat="60.85925833171371" lon="9.609780554315826" id="-20418">
		<tag k="name" v="Sagmyre" />
		<tag k="natural" v="wetland" />
		<tag k="ssr:stedsnr" v="963098" />
	</node>
	<node lat="60.963780558245475" lon="9.552402769159789" id="-20422">
		<tag k="name" v="Elgmyratn" />
		<tag k="natural" v="wetland" />
		<tag k="ssr:stedsnr" v="963618" />
	</node>
	<node lat="60.900749996236975" lon="9.58710833183522" id="-20424">
		<tag k="name" v="Berteåta" />
		<tag k="place" v="locality" />
		<tag k="ssr:stedsnr" v="963267" />
	</node>
	<node lat="60.95125832992082" lon="9.679163885328883" id="-20438">
		<tag k="name" v="Langemyre" />
		<tag k="natural" v="wetland" />
		<tag k="ssr:stedsnr" v="963867" />
	</node>
	<node lat="60.89438333320446" lon="9.757824997414438" id="-20450">
		<tag k="name" v="Grasmyre" />
		<tag k="natural" v="wetland" />
		<tag k="ssr:stedsnr" v="964186" />
	</node>
	<node lat="60.88350555333028" lon="9.761658324729758" id="-20458">
		<tag k="name" v="Slåttemyre" />
		<tag k="natural" v="wetland" />
		<tag k="ssr:stedsnr" v="964722" />
	</node>
	<node lat="61.0685055572387" lon="9.54659166417312" id="-20461">
		<tag k="name" v="Smiugardsmarka" />
		<tag k="place" v="locality" />
		<tag k="ssr:stedsnr" v="964478" />
	</node>
	<node lat="60.836238885284516" lon="9.682555560641939" id="-20468">
		<tag k="name" v="Langmyre" />
		<tag k="natural" v="wetland" />
		<tag k="ssr:stedsnr" v="964644" />
	</node>
	<node lat="61.05227777506816" lon="9.525330561296629" id="-20477">
		<tag k="alt_name" v="Sørre Hukalie" />
		<tag k="name" v="Søre Hukalie" />
		<tag k="place" v="locality" />
		<tag k="ssr:stedsnr" v="965132" />
	</node>
	<node lat="61.01033888967708" lon="9.516666673835937" id="-20482">
		<tag k="name" v="Dekkatn" />
		<tag k="place" v="locality" />
		<tag k="ssr:stedsnr" v="965651" />
=======
	<node id="-396813" lat="60.8590666651" lon="9.72453334206">
		<tag k="name" v="Nylåveenge" />
		<tag k="place" v="locality" />
		<tag k="ssr:stedsnr" v="115737" />
	</node>
	<node id="-397154" lat="60.9854027757" lon="9.5685611158">
		<tag k="landuse" v="meadow" />
		<tag k="name" v="Damslette" />
		<tag k="ssr:stedsnr" v="417422" />
	</node>
	<node id="-397385" lat="60.8935750015" lon="9.61508054903">
		<tag k="name" v="Vatningsmyre" />
		<tag k="natural" v="wetland" />
		<tag k="ssr:stedsnr" v="598367" />
	</node>
	<node id="-396871" lat="60.8522777759" lon="9.59672776916">
		<tag k="name" v="Grånstølmyre" />
		<tag k="natural" v="wetland" />
		<tag k="ssr:stedsnr" v="174913" />
	</node>
	<node id="-396868" lat="61.0501166645" lon="9.59564722784">
		<tag k="name" v="Kveateigen" />
		<tag k="place" v="locality" />
		<tag k="ssr:stedsnr" v="174895" />
	</node>
	<node id="-396051" lat="60.9246444448" lon="9.78837221592">
		<tag k="name" v="Skilnadmyre" />
		<tag k="natural" v="wetland" />
		<tag k="ssr:stedsnr" v="660781" />
	</node>
	<node id="-395841" lat="61.0044833347" lon="9.51926945319">
		<tag k="name" v="Kallebrøtin" />
		<tag k="place" v="locality" />
		<tag k="ssr:stedsnr" v="297623" />
	</node>
	<node id="-396864" lat="60.9586166633" lon="9.55222222529">
		<tag k="name" v="Veslevollen" />
		<tag k="place" v="locality" />
		<tag k="ssr:stedsnr" v="174614" />
	</node>
	<node id="-395786" lat="61.0413777754" lon="9.7446694507">
		<tag k="name" v="Havdenlykkjemyre" />
		<tag k="natural" v="wetland" />
		<tag k="ssr:stedsnr" v="296880" />
	</node>
	<node id="-396343" lat="60.8501694418" lon="9.75988888895">
		<tag k="alt_name" v="Røirpipemyre" />
		<tag k="name" v="Røyrpipemyre" />
		<tag k="natural" v="wetland" />
		<tag k="ssr:stedsnr" v="661276" />
	</node>
	<node id="-396297" lat="61.0421444477" lon="9.51953333438">
		<tag k="landuse" v="meadow" />
		<tag k="name" v="Heimrevøllen" />
		<tag k="ssr:stedsnr" v="722160" />
	</node>
	<node id="-396389" lat="61.0262055522" lon="9.59201666403">
		<tag k="name" v="Gomyre" />
		<tag k="natural" v="wetland" />
		<tag k="ssr:stedsnr" v="721225" />
	</node>
	<node id="-395827" lat="61.0430666629" lon="9.77812777734">
		<tag k="name" v="Skivevollene" />
		<tag k="natural" v="wetland" />
		<tag k="ssr:stedsnr" v="297864" />
	</node>
	<node id="-396848" lat="60.898700002" lon="9.57328333238">
		<tag k="name" v="Handebakkmyre" />
		<tag k="natural" v="wetland" />
		<tag k="ssr:stedsnr" v="174265" />
	</node>
	<node id="-395758" lat="61.0227944476" lon="9.64305832749">
		<tag k="alt_name" v="Nørre Langedalstølen" />
		<tag k="landuse" v="meadow" />
		<tag k="name" v="Nørdre Langedalstølen" />
		<tag k="ssr:stedsnr" v="296218" />
	</node>
	<node id="-397149" lat="61.027713892" lon="9.72136389206">
		<tag k="name" v="Lortelivøllatn" />
		<tag k="place" v="locality" />
		<tag k="ssr:stedsnr" v="417294" />
	</node>
	<node id="-396332" lat="60.8964611079" lon="9.63774721577">
		<tag k="landuse" v="meadow" />
		<tag k="name" v="Tyttebærslette" />
		<tag k="ssr:stedsnr" v="659439" />
	</node>
	<node id="-396210" lat="60.995563889" lon="9.69063056427">
		<tag k="name" v="Trehølningen" />
		<tag k="place" v="locality" />
		<tag k="ssr:stedsnr" v="599410" />
	</node>
	<node id="-397063" lat="60.885058337" lon="9.73958610858">
		<tag k="name" v="Sætermyre" />
		<tag k="natural" v="wetland" />
		<tag k="ssr:stedsnr" v="357083" />
	</node>
	<node id="-395877" lat="61.0080527734" lon="9.70258888509">
		<tag k="name" v="Liavøllatn" />
		<tag k="place" v="locality" />
		<tag k="ssr:stedsnr" v="478383" />
	</node>
	<node id="-395525" lat="60.8803333303" lon="9.74004721628">
		<tag k="name" v="Urdmyre" />
		<tag k="natural" v="wetland" />
		<tag k="ssr:stedsnr" v="236720" />
	</node>
	<node id="-397852" lat="61.0644356113" lon="9.41113981854">
		<tag k="historic" v="shieling" />
		<tag k="name" v="Skånestølen" />
		<tag k="place" v="locality" />
		<tag k="ssr:stedsnr" v="987137" />
	</node>
	<node id="-396719" lat="61.0189055513" lon="9.67287500547">
		<tag k="alt_name" v="Glennemyre" />
		<tag k="name" v="Glennemyrane" />
		<tag k="natural" v="wetland" />
		<tag k="ssr:stedsnr" v="68333" />
	</node>
	<node id="-397334" lat="60.9652166663" lon="9.52974722795">
		<tag k="name" v="Sigurdmyre" />
		<tag k="natural" v="wetland" />
		<tag k="ssr:stedsnr" v="553542" />
	</node>
	<node id="-397331" lat="60.937183336" lon="9.79202222611">
		<tag k="landuse" v="meadow" />
		<tag k="name" v="Steindavollan" />
		<tag k="ssr:stedsnr" v="552945" />
	</node>
	<node id="-397839" lat="61.0103388897" lon="9.51666667384">
		<tag k="name" v="Dekkatn" />
		<tag k="place" v="locality" />
		<tag k="ssr:stedsnr" v="965651" />
	</node>
	<node id="-396205" lat="60.9558027738" lon="9.56818056047">
		<tag k="name" v="Kjærringmyre" />
		<tag k="natural" v="wetland" />
		<tag k="ssr:stedsnr" v="598978" />
	</node>
	<node id="-397324" lat="60.8818416644" lon="9.75745556029">
		<tag k="name" v="Åmyre" />
		<tag k="natural" v="wetland" />
		<tag k="ssr:stedsnr" v="540734" />
	</node>
	<node id="-395787" lat="61.0480000036" lon="9.74547222997">
		<tag k="name" v="Budeimyre" />
		<tag k="natural" v="wetland" />
		<tag k="ssr:stedsnr" v="296892" />
	</node>
	<node id="-396298" lat="61.0406055534" lon="9.51589999674">
		<tag k="name" v="Kjerringsmyre" />
		<tag k="natural" v="wetland" />
		<tag k="ssr:stedsnr" v="722165" />
	</node>
	<node id="-397833" lat="61.0522777751" lon="9.5253305613">
		<tag k="alt_name" v="Sørre Hukalie" />
		<tag k="name" v="Søre Hukalie" />
		<tag k="place" v="locality" />
		<tag k="ssr:stedsnr" v="965132" />
	</node>
	<node id="-396808" lat="60.8731000025" lon="9.78511110605">
		<tag k="alt_name" v="Sørresætermyratn" />
		<tag k="name" v="Søresætermyratn" />
		<tag k="natural" v="wetland" />
		<tag k="ssr:stedsnr" v="115596" />
	</node>
	<node id="-397740" lat="60.8233055557" lon="9.71232500772">
		<tag k="name" v="Syvermyre" />
		<tag k="natural" v="wetland" />
		<tag k="ssr:stedsnr" v="844659" />
	</node>
	<node id="-397319" lat="60.8230472205" lon="9.73081666513">
		<tag k="name" v="Stormyre" />
		<tag k="natural" v="wetland" />
		<tag k="ssr:stedsnr" v="540512" />
	</node>
	<node id="-397315" lat="61.0095944446" lon="9.53943888704">
		<tag k="name" v="Brøtatn" />
		<tag k="place" v="locality" />
		<tag k="ssr:stedsnr" v="540636" />
	</node>
	<node id="-397826" lat="60.8362388853" lon="9.68255556064">
		<tag k="name" v="Langmyre" />
		<tag k="natural" v="wetland" />
		<tag k="ssr:stedsnr" v="964644" />
>>>>>>> e1d4bc35ff8a6074a6f2e91616a996b547c36f15
	</node>
</osm>
