<?xml version="1.0" encoding="UTF-8"?>
<osm version="0.6" generator="osmapis">
	<node lat="60.94730278013355" lon="9.580583329167034" id="-44749">
		<tag k="name" v="Langemyrkula" />
		<tag k="place" v="locality" />
		<tag k="ssr:stedsnr" v="235435" />
	</node>
	<node lat="60.884961112346545" lon="9.650175002006593" id="-45034">
		<tag k="amenity" v="community_centre" />
		<tag k="name" v="Badstogo" />
		<tag k="ssr:stedsnr" v="295294" />
	</node>
	<node lat="60.895511110633805" lon="9.635166661994703" id="-45044">
		<tag k="name" v="Flisbanin" />
		<tag k="place" v="locality" />
		<tag k="ssr:stedsnr" v="296332" />
	</node>
	<node lat="61.02532837905756" lon="9.500593943065672" id="-45655">
		<tag k="amenity" v="place_of_worship" />
		<tag k="denomination" v="lutheran" />
		<tag k="name" v="Nord-Etnedal kyrkje" />
		<tag k="religion" v="christian" />
		<tag k="ssr:stedsnr" v="797599" />
	</node>
	<node lat="61.060619441746375" lon="9.631969444289911" id="-45671">
		<tag k="name" v="LiastÃ¸le" />
		<tag k="place" v="locality" />
		<tag k="ssr:stedsnr" v="903242" />
	</node>
	<node lat="60.88784444710191" lon="9.639124992328501" id="-45850">
		<tag k="amenity" v="place_of_worship" />
		<tag k="denomination" v="lutheran" />
		<tag k="name" v="Bruflat kyrkje" />
		<tag k="religion" v="christian" />
		<tag k="ssr:stedsnr" v="962992" />
	</node>
	<node lat="61.044166668910044" lon="9.574574998980085" id="-46025">
		<tag k="name" v="Skiftegardsslette" />
		<tag k="place" v="locality" />
		<tag k="ssr:stedsnr" v="53360" />
	</node>
	<node lat="60.944472224254916" lon="9.599688884792622" id="-46118">
		<tag k="name" v="Gildreplassen" />
		<tag k="place" v="locality" />
		<tag k="ssr:stedsnr" v="114542" />
	</node>
	<node lat="60.90297500180689" lon="9.61358334165676" id="-46299">
		<tag k="name" v="Sagbrygga" />
		<tag k="place" v="locality" />
		<tag k="ssr:stedsnr" v="296381" />
	</node>
	<node lat="60.88437778086626" lon="9.616044444155571" id="-46364">
		<tag k="amenity" v="place_of_worship" />
		<tag k="fixme" v="specify religion=*, denomination=*, building=* etc" />
		<tag k="name" v="Fredheim bedehus" />
		<tag k="ssr:stedsnr" v="356496" />
	</node>
	<node lat="60.91670277818133" lon="9.680422220919867" id="-46679">
		<tag k="name" v="Flisbanin" />
		<tag k="place" v="locality" />
		<tag k="ssr:stedsnr" v="598538" />
	</node>
</osm>
