<?xml version="1.0" encoding="UTF-8"?>
<osm version="0.6" generator="osmapis">
	<node lat="60.87380613692269" lon="9.74132600897278" id="-46269">
		<tag k="alt_name" v="Solberg" />
		<tag k="fixme" v="consider place=hamlet" />
		<tag k="name" v="Solbjør" />
		<tag k="place" v="farm" />
		<tag k="ssr:stedsnr" v="8102" />
	</node>
	<node lat="60.880713892065856" lon="9.663222224572335" id="-46270">
		<tag k="alt_name" v="Smelhus" />
		<tag k="name" v="Smellhus" />
		<tag k="place" v="farm" />
		<tag k="ssr:stedsnr" v="8115" />
	</node>
	<node lat="61.11131944015186" lon="9.68669721740812" id="-46271">
		<tag k="historic" v="shieling" />
		<tag k="name" v="Nørdre Lenningen" />
		<tag k="old_name" v="Lenningen, nedre;Landing Sr" />
		<tag k="place" v="isolated_dwelling" />
		<tag k="ssr:stedsnr" v="8689" />
	</node>
	<node lat="60.93458611376983" lon="9.627549997453674" id="-46273">
		<tag k="name" v="Åmot" />
		<tag k="place" v="farm" />
		<tag k="ssr:stedsnr" v="10890" />
	</node>
	<node lat="60.933547218530904" lon="9.725463880881188" id="-46275">
		<tag k="alt_name" v="Flattland" />
		<tag k="historic" v="shieling" />
		<tag k="name" v="Flatlandstølen" />
		<tag k="place" v="isolated_dwelling" />
		<tag k="ssr:stedsnr" v="10898" />
	</node>
	<node lat="60.93537655426053" lon="9.635198857476158" id="-46276">
		<tag k="alt_name" v="Lie" />
		<tag k="fixme" v="consider place=hamlet" />
		<tag k="name" v="Lii" />
		<tag k="place" v="farm" />
		<tag k="ssr:stedsnr" v="10931" />
	</node>
	<node lat="60.941536107133324" lon="9.634866661292733" id="-46277">
		<tag k="alt_name" v="Nylendlykkja" />
		<tag k="name" v="Granset" />
		<tag k="place" v="isolated_dwelling" />
		<tag k="ssr:stedsnr" v="10932" />
	</node>
	<node lat="61.07928055403565" lon="9.58929999474882" id="-46285">
		<tag k="name" v="Rotvollstølen" />
		<tag k="place" v="farm" />
		<tag k="ssr:stedsnr" v="235404" />
	</node>
	<node lat="60.88952500149516" lon="9.642491663651072" id="-46289">
		<tag k="name" v="Juvberg" />
		<tag k="ssr:stedsnr" v="235406" />
		<tag k="tourism" v="guest_house" />
	</node>
	<node lat="60.89106110889185" lon="9.642211104260706" id="-46290">
		<tag k="name" v="Bruberget" />
		<tag k="place" v="isolated_dwelling" />
		<tag k="ssr:stedsnr" v="235407" />
	</node>
	<node lat="60.996730553032755" lon="9.68538610911813" id="-46295">
		<tag k="name" v="Bergastølen" />
		<tag k="place" v="locality" />
		<tag k="ssr:stedsnr" v="235455" />
	</node>
	<node lat="61.02346389203839" lon="9.563822230138562" id="-46300">
		<tag k="name" v="Nedre Hovda" />
		<tag k="place" v="farm" />
		<tag k="ssr:stedsnr" v="235625" />
	</node>
	<node lat="60.88050555476547" lon="9.598563881477599" id="-46302">
		<tag k="name" v="Nedre Hestekind" />
		<tag k="place" v="farm" />
		<tag k="ssr:stedsnr" v="235841" />
	</node>
	<node lat="60.87413333424185" lon="9.783755557084843" id="-46316">
		<tag k="alt_name" v="Sørresæterhytta" />
		<tag k="historic" v="shieling" />
		<tag k="name" v="Søresæterhytta" />
		<tag k="place" v="isolated_dwelling" />
		<tag k="ssr:stedsnr" v="236598" />
	</node>
	<node lat="60.858469441904994" lon="9.776469439236962" id="-46320">
		<tag k="historic" v="shieling" />
		<tag k="name" v="Prostsætra" />
		<tag k="place" v="isolated_dwelling" />
		<tag k="ssr:stedsnr" v="236611" />
	</node>
	<node lat="60.88330833619138" lon="9.665524991845977" id="-46321">
		<tag k="name" v="Stamparstogo" />
		<tag k="place" v="farm" />
		<tag k="ssr:stedsnr" v="236464" />
	</node>
	<node lat="60.875800003046805" lon="9.665883325307355" id="-46322">
		<tag k="name" v="Bamseplassen" />
		<tag k="place" v="locality" />
		<tag k="ssr:stedsnr" v="236469" />
	</node>
	<node lat="60.87543610847472" lon="9.633277784336967" id="-46333">
		<tag k="name" v="Bergseng" />
		<tag k="place" v="farm" />
		<tag k="ssr:stedsnr" v="236959" />
	</node>
	<node lat="61.05779444674454" lon="9.446549991252429" id="-46340">
		<tag k="name" v="Jorde" />
		<tag k="place" v="farm" />
		<tag k="ssr:stedsnr" v="238901" />
	</node>
	<node lat="61.00304722103627" lon="9.60129165889854" id="-46343">
		<tag k="name" v="Søre Langedal" />
		<tag k="place" v="farm" />
		<tag k="ssr:stedsnr" v="52211" />
	</node>
	<node lat="61.112108330511504" lon="9.624386112731658" id="-46344">
		<tag k="name" v="Hieihytta" />
		<tag k="place" v="isolated_dwelling" />
		<tag k="ssr:stedsnr" v="52601" />
	</node>
	<node lat="60.923119448624455" lon="9.614044436809985" id="-46345">
		<tag k="name" v="Øygarden" />
		<tag k="place" v="farm" />
		<tag k="ssr:stedsnr" v="53101" />
	</node>
	<node lat="60.92282222436633" lon="9.637261108114172" id="-46346">
		<tag k="name" v="Etnebo" />
		<tag k="place" v="isolated_dwelling" />
		<tag k="ssr:stedsnr" v="53117" />
	</node>
	<node lat="60.92833611016043" lon="9.635397216378658" id="-46356">
		<tag k="alt_name" v="Bødvarstugu" />
		<tag k="name" v="Bøvarstogo" />
		<tag k="place" v="farm" />
		<tag k="ssr:stedsnr" v="53724" />
	</node>
	<node lat="60.95499444353283" lon="9.627047221176435" id="-46362">
		<tag k="name" v="Nedre Espeset" />
		<tag k="place" v="farm" />
		<tag k="ssr:stedsnr" v="53874" />
	</node>
	<node lat="60.8473444488117" lon="9.692802786949745" id="-46366">
		<tag k="name" v="Smørhølet" />
		<tag k="place" v="locality" />
		<tag k="ssr:stedsnr" v="54118" />
	</node>
	<node lat="60.991038886106864" lon="9.759072216550132" id="-46371">
		<tag k="name" v="Lundgårdhytta" />
		<tag k="place" v="isolated_dwelling" />
		<tag k="ssr:stedsnr" v="54201" />
	</node>
	<node lat="60.92883888845527" lon="9.69003333341927" id="-46373">
		<tag k="name" v="Fjellbu" />
		<tag k="place" v="isolated_dwelling" />
		<tag k="ssr:stedsnr" v="54206" />
	</node>
	<node lat="60.95258611184255" lon="9.549644443076382" id="-46379">
		<tag k="historic" v="shieling" />
		<tag k="name" v="Brøtatrøe" />
		<tag k="place" v="isolated_dwelling" />
		<tag k="ssr:stedsnr" v="54378" />
	</node>
	<node lat="60.88624166899183" lon="9.79646945161449" id="-46387">
		<tag k="name" v="Nordbyhytta" />
		<tag k="place" v="locality" />
		<tag k="ssr:stedsnr" v="55624" />
	</node>
	<node lat="61.013558334286124" lon="9.732325008562865" id="-46389">
		<tag k="historic" v="shieling" />
		<tag k="name" v="Nordtrøe" />
		<tag k="place" v="isolated_dwelling" />
		<tag k="ssr:stedsnr" v="58208" />
	</node>
	<node lat="61.079586107447184" lon="9.530380549121123" id="-46393">
		<tag k="alt_name" v="Bergbakktrøe" />
		<tag k="historic" v="shieling" />
		<tag k="name" v="Nysetstølen" />
		<tag k="place" v="isolated_dwelling" />
		<tag k="ssr:stedsnr" v="68898" />
	</node>
	<node lat="60.910955556624266" lon="9.67373332465424" id="-46398">
		<tag k="name" v="Midtjordet" />
		<tag k="place" v="farm" />
		<tag k="ssr:stedsnr" v="70081" />
	</node>
	<node lat="60.99820277472761" lon="9.686822218774884" id="-46401">
		<tag k="alt_name" v="Røvsholen" />
		<tag k="historic" v="shieling" />
		<tag k="name" v="Revsholen" />
		<tag k="place" v="isolated_dwelling" />
		<tag k="ssr:stedsnr" v="70771" />
	</node>
	<node lat="60.98232222211973" lon="9.74554165976002" id="-46404">
		<tag k="name" v="Bøen" />
		<tag k="place" v="farm" />
		<tag k="ssr:stedsnr" v="70987" />
	</node>
	<node lat="61.1132222224744" lon="9.571116674664445" id="-46407">
		<tag k="name" v="Lundehytta" />
		<tag k="place" v="locality" />
		<tag k="ssr:stedsnr" v="113024" />
	</node>
	<node lat="61.00015833048051" lon="9.601052779061648" id="-46408">
		<tag k="name" v="Nedre Rust" />
		<tag k="place" v="farm" />
		<tag k="ssr:stedsnr" v="113218" />
	</node>
	<node lat="60.88758560611937" lon="9.717430543832169" id="-46416">
		<tag k="name" v="Veslesætermyre" />
		<tag k="place" v="locality" />
		<tag k="ssr:stedsnr" v="114058" />
	</node>
	<node lat="60.92074166955566" lon="9.63662777369261" id="-46417">
		<tag k="name" v="Bjørkelund" />
		<tag k="place" v="isolated_dwelling" />
		<tag k="ssr:stedsnr" v="114082" />
	</node>
	<node lat="61.004702776573545" lon="9.694063889481964" id="-46420">
		<tag k="historic" v="shieling" />
		<tag k="name" v="Veslestølen" />
		<tag k="place" v="isolated_dwelling" />
		<tag k="ssr:stedsnr" v="250353" />
	</node>
	<node lat="61.019077779393676" lon="9.763536110185177" id="-46424">
		<tag k="alt_name" v="Kvastasætra" />
		<tag k="name" v="Kvassesætra" />
		<tag k="place" v="farm" />
		<tag k="ssr:stedsnr" v="250317" />
	</node>
	<node lat="61.017036111875164" lon="9.595083337531587" id="-46425">
		<tag k="name" v="Brendahaugen" />
		<tag k="place" v="farm" />
		<tag k="ssr:stedsnr" v="250324" />
	</node>
	<node lat="61.02055555687386" lon="9.58473333009455" id="-46438">
		<tag k="name" v="Nygard" />
		<tag k="place" v="farm" />
		<tag k="ssr:stedsnr" v="114605" />
	</node>
	<node lat="60.98935277615004" lon="9.755244444388284" id="-46442">
		<tag k="name" v="Kringsjå" />
		<tag k="place" v="isolated_dwelling" />
		<tag k="ssr:stedsnr" v="115211" />
	</node>
	<node lat="60.937922226215896" lon="9.742713896667372" id="-46446">
		<tag k="name" v="Søre Bergstølen" />
		<tag k="place" v="farm" />
		<tag k="ssr:stedsnr" v="115378" />
	</node>
	<node lat="61.07961388690711" lon="9.525874996812691" id="-46453">
		<tag k="historic" v="shieling" />
		<tag k="name" v="Brøtatrøe" />
		<tag k="place" v="isolated_dwelling" />
		<tag k="ssr:stedsnr" v="115779" />
	</node>
	<node lat="61.05615555358813" lon="9.554177769753515" id="-46454">
		<tag k="alt_name" v="Tretteslette" />
		<tag k="name" v="Smiugard" />
		<tag k="place" v="farm" />
		<tag k="ssr:stedsnr" v="250596" />
	</node>
	<node lat="61.05877500189694" lon="9.426744447145273" id="-46455">
		<tag k="alt_name" v="Tomassetslette" />
		<tag k="name" v="Sletti" />
		<tag k="place" v="farm" />
		<tag k="ssr:stedsnr" v="250601" />
	</node>
	<node lat="61.03204444072089" lon="9.575077772232806" id="-46457">
		<tag k="alt_name" v="Granli" />
		<tag k="name" v="Sletti" />
		<tag k="place" v="farm" />
		<tag k="ssr:stedsnr" v="250579" />
	</node>
	<node lat="61.04682499609734" lon="9.634322223480979" id="-46458">
		<tag k="name" v="Tørtehaugen" />
		<tag k="place" v="locality" />
		<tag k="ssr:stedsnr" v="250635" />
	</node>
	<node lat="61.08315278165309" lon="9.63996112005243" id="-46459">
		<tag k="alt_name" v="Nørdre Ølsjølisætra" />
		<tag k="historic" v="shieling" />
		<tag k="name" v="Ølsjølii" />
		<tag k="place" v="isolated_dwelling" />
		<tag k="ssr:stedsnr" v="250667" />
	</node>
	<node lat="61.081297226259615" lon="9.48036944603642" id="-46462">
		<tag k="historic" v="shieling" />
		<tag k="name" v="Tangen" />
		<tag k="place" v="isolated_dwelling" />
		<tag k="ssr:stedsnr" v="250884" />
	</node>
	<node lat="61.08716111259312" lon="9.557483340864122" id="-46463">
		<tag k="alt_name" v="Nørdre Skaret" />
		<tag k="historic" v="shieling" />
		<tag k="name" v="Skardet" />
		<tag k="place" v="isolated_dwelling" />
		<tag k="ssr:stedsnr" v="250894" />
	</node>
	<node lat="60.89628888557528" lon="9.60083055039472" id="-46465">
		<tag k="fixme" v="consider place=hamlet" />
		<tag k="name" v="Fjellsbygdi" />
		<tag k="place" v="village" />
		<tag k="ssr:stedsnr" v="251072" />
	</node>
	<node lat="60.89383182970948" lon="9.603537255541193" id="-46466">
		<tag k="alt_name" v="Fjell, midtre" />
		<tag k="fixme" v="consider place=hamlet" />
		<tag k="name" v="Midtre Fjell" />
		<tag k="place" v="farm" />
		<tag k="ssr:stedsnr" v="251073" />
	</node>
	<node lat="60.87510000058981" lon="9.697511104178956" id="-46467">
		<tag k="alt_name" v="Molandsvee" />
		<tag k="name" v="Nysvei" />
		<tag k="place" v="farm" />
		<tag k="ssr:stedsnr" v="251107" />
	</node>
	<node lat="60.87678333211412" lon="9.65544167062699" id="-46469">
		<tag k="name" v="Smedplassen" />
		<tag k="place" v="farm" />
		<tag k="ssr:stedsnr" v="251120" />
	</node>
	<node lat="60.884433335029264" lon="9.684469448060836" id="-46470">
		<tag k="alt_name" v="Skreddarstogo" />
		<tag k="name" v="Skredderstugu" />
		<tag k="place" v="farm" />
		<tag k="ssr:stedsnr" v="251121" />
	</node>
	<node lat="60.88872046024849" lon="9.682352366051813" id="-46471">
		<tag k="alt_name" v="Fløgei" />
		<tag k="fixme" v="consider place=hamlet" />
		<tag k="name" v="Flogeim" />
		<tag k="place" v="farm" />
		<tag k="ssr:stedsnr" v="251125" />
	</node>
	<node lat="60.99735444037742" lon="9.566315221065496" id="-46473">
		<tag k="alt_name" v="Søre Øye" />
		<tag k="name" v="Øyi" />
		<tag k="place" v="farm" />
		<tag k="ssr:stedsnr" v="251351" />
	</node>
	<node lat="61.00267777394924" lon="9.542427784884865" id="-46474">
		<tag k="alt_name" v="Lundmoen" />
		<tag k="name" v="Lundemoen" />
		<tag k="place" v="farm" />
		<tag k="ssr:stedsnr" v="251573" />
	</node>
	<node lat="60.89585173631783" lon="9.587717369004308" id="-46475">
		<tag k="alt_name" v="Fjell" />
		<tag k="fixme" v="consider place=hamlet" />
		<tag k="name" v="Nordre Fjell" />
		<tag k="place" v="farm" />
		<tag k="ssr:stedsnr" v="251742" />
	</node>
	<node lat="60.88540248440348" lon="9.590326153162595" id="-46476">
		<tag k="fixme" v="consider place=hamlet" />
		<tag k="name" v="Breie" />
		<tag k="place" v="farm" />
		<tag k="ssr:stedsnr" v="251719" />
	</node>
	<node lat="60.90892500161824" lon="9.639325004196158" id="-46478">
		<tag k="name" v="Robøle" />
		<tag k="place" v="farm" />
		<tag k="ssr:stedsnr" v="252081" />
	</node>
	<node lat="61.003786114920814" lon="9.608425000888392" id="-46480">
		<tag k="alt_name" v="Halle" />
		<tag k="name" v="Halli" />
		<tag k="place" v="farm" />
		<tag k="ssr:stedsnr" v="128320" />
	</node>
	<node lat="61.00770555737744" lon="9.658991661800751" id="-46481">
		<tag k="name" v="Åfetstølen" />
		<tag k="place" v="farm" />
		<tag k="ssr:stedsnr" v="128344" />
	</node>
	<node lat="61.017944442046" lon="9.594377785055823" id="-46482">
		<tag k="name" v="Nystølen" />
		<tag k="place" v="farm" />
		<tag k="ssr:stedsnr" v="128297" />
	</node>
	<node lat="61.054733329527885" lon="9.557763880982662" id="-46483">
		<tag k="name" v="Vollen" />
		<tag k="place" v="farm" />
		<tag k="ssr:stedsnr" v="128585" />
	</node>
	<node lat="61.06125989149624" lon="9.419802617862668" id="-46484">
		<tag k="fixme" v="consider place=hamlet" />
		<tag k="name" v="Hagaset" />
		<tag k="place" v="farm" />
		<tag k="ssr:stedsnr" v="128590" />
	</node>
	<node lat="61.04565278068678" lon="9.501094437886076" id="-46485">
		<tag k="alt_name" v="Grånstølen" />
		<tag k="historic" v="shieling" />
		<tag k="name" v="Grannstølen" />
		<tag k="place" v="isolated_dwelling" />
		<tag k="ssr:stedsnr" v="128595" />
	</node>
	<node lat="61.09358888916164" lon="9.699377774790635" id="-46486">
		<tag k="name" v="Fjellheimen" />
		<tag k="place" v="isolated_dwelling" />
		<tag k="ssr:stedsnr" v="128654" />
	</node>
	<node lat="61.02689444626479" lon="9.653374998089214" id="-46489">
		<tag k="historic" v="shieling" />
		<tag k="name" v="Roleghaug" />
		<tag k="place" v="isolated_dwelling" />
		<tag k="ssr:stedsnr" v="129336" />
	</node>
	<node lat="61.03107222372903" lon="9.685088889906673" id="-46490">
		<tag k="alt_name" v="Bakkatn" />
		<tag k="name" v="Bakken" />
		<tag k="place" v="farm" />
		<tag k="ssr:stedsnr" v="129337" />
	</node>
	<node lat="60.95741666876731" lon="9.517486104995072" id="-46491">
		<tag k="alt_name" v="Rundehaugsætra" />
		<tag k="historic" v="shieling" />
		<tag k="name" v="Rundehaug" />
		<tag k="place" v="isolated_dwelling" />
		<tag k="ssr:stedsnr" v="252555" />
	</node>
	<node lat="60.94776111287973" lon="9.681897230884053" id="-46493">
		<tag k="historic" v="shieling" />
		<tag k="name" v="Tvillingane" />
		<tag k="old_name" v="Tvillingan;Tvillingatn" />
		<tag k="place" v="isolated_dwelling" />
		<tag k="ssr:stedsnr" v="130909" />
	</node>
	<node lat="60.996413889513626" lon="9.638291673393194" id="-46496">
		<tag k="name" v="Lauvhaugen" />
		<tag k="place" v="farm" />
		<tag k="ssr:stedsnr" v="252757" />
	</node>
	<node lat="60.924702774071534" lon="9.607674999330436" id="-46499">
		<tag k="alt_name" v="Brøna" />
		<tag k="name" v="Haugerud" />
		<tag k="place" v="farm" />
		<tag k="ssr:stedsnr" v="252865" />
	</node>
	<node lat="60.922397218891795" lon="9.611975005652253" id="-46500">
		<tag k="name" v="Espeliøygarden" />
		<tag k="place" v="farm" />
		<tag k="ssr:stedsnr" v="252867" />
	</node>
	<node lat="60.91235833576036" lon="9.622816674939783" id="-46501">
		<tag k="name" v="Søreng" />
		<tag k="place" v="farm" />
		<tag k="ssr:stedsnr" v="252889" />
	</node>
	<node lat="60.925788889732935" lon="9.630716661028258" id="-46504">
		<tag k="name" v="Haugen" />
		<tag k="place" v="farm" />
		<tag k="ssr:stedsnr" v="174112" />
	</node>
	<node lat="61.010236113505776" lon="9.55805555599962" id="-46508">
		<tag k="name" v="Søre Renna" />
		<tag k="place" v="farm" />
		<tag k="ssr:stedsnr" v="174413" />
	</node>
	<node lat="61.01132222477721" lon="9.579458330577658" id="-46509">
		<tag k="name" v="Åsbakkin" />
		<tag k="place" v="locality" />
		<tag k="ssr:stedsnr" v="174416" />
	</node>
	<node lat="61.07124444420383" lon="9.609255561507315" id="-46510">
		<tag k="name" v="Lokkarhaugen" />
		<tag k="place" v="isolated_dwelling" />
		<tag k="ssr:stedsnr" v="174322" />
	</node>
	<node lat="60.85934444075284" lon="9.590583328642916" id="-46515">
		<tag k="name" v="Øyanstogo" />
		<tag k="place" v="isolated_dwelling" />
		<tag k="ssr:stedsnr" v="174902" />
	</node>
	<node lat="60.92648333534929" lon="9.610494436879693" id="-46516">
		<tag k="name" v="Sveen" />
		<tag k="place" v="farm" />
		<tag k="ssr:stedsnr" v="174756" />
	</node>
	<node lat="60.915855558179786" lon="9.702402780847551" id="-46534">
		<tag k="historic" v="shieling" />
		<tag k="name" v="Lykkjuten" />
		<tag k="place" v="isolated_dwelling" />
		<tag k="ssr:stedsnr" v="175525" />
	</node>
	<node lat="60.96003611402706" lon="9.626427780656252" id="-46536">
		<tag k="building" v="commercial" />
		<tag k="name" v="Sandvik" />
		<tag k="ssr:stedsnr" v="175855" />
	</node>
	<node lat="60.846119444784485" lon="9.739219437561472" id="-46538">
		<tag k="name" v="Lundby" />
		<tag k="place" v="farm" />
		<tag k="ssr:stedsnr" v="175760" />
	</node>
	<node lat="61.04364721973726" lon="9.528002776820811" id="-46542">
		<tag k="name" v="Flatland" />
		<tag k="place" v="locality" />
		<tag k="ssr:stedsnr" v="176161" />
	</node>
	<node lat="60.838641663530055" lon="9.748594448251108" id="-46543">
		<tag k="name" v="Rom" />
		<tag k="place" v="farm" />
		<tag k="ssr:stedsnr" v="176454" />
	</node>
	<node lat="61.005055555080695" lon="9.544816667203703" id="-46546">
		<tag k="name" v="Brustogo" />
		<tag k="place" v="locality" />
		<tag k="ssr:stedsnr" v="176615" />
	</node>
	<node lat="60.83046388769017" lon="9.75149444604745" id="-46549">
		<tag k="name" v="Nordre Madslangrud" />
		<tag k="place" v="farm" />
		<tag k="ssr:stedsnr" v="177774" />
	</node>
	<node lat="61.0498722260581" lon="9.56318611179337" id="-46552">
		<tag k="fixme" v="consider place=hamlet" />
		<tag k="name" v="Smiugardsbygde" />
		<tag k="place" v="village" />
		<tag k="ssr:stedsnr" v="189564" />
	</node>
	<node lat="60.86522700253514" lon="9.722250588043105" id="-46553">
		<tag k="fixme" v="consider place=hamlet" />
		<tag k="name" v="Lunde" />
		<tag k="place" v="farm" />
		<tag k="ssr:stedsnr" v="190022" />
	</node>
	<node lat="60.89293055318661" lon="9.60909722014894" id="-46554">
		<tag k="alt_name" v="Fjelld nordre" />
		<tag k="name" v="Fjell" />
		<tag k="place" v="farm" />
		<tag k="ssr:stedsnr" v="190070" />
	</node>
	<node lat="60.89735555168554" lon="9.640475008305803" id="-46555">
		<tag k="alt_name" v="Nysvee" />
		<tag k="name" v="Nysvei" />
		<tag k="place" v="farm" />
		<tag k="ssr:stedsnr" v="190073" />
	</node>
	<node lat="60.8756277737664" lon="9.696158332182929" id="-46557">
		<tag k="name" v="Tollerud" />
		<tag k="place" v="farm" />
		<tag k="ssr:stedsnr" v="190104" />
	</node>
	<node lat="60.876097226136196" lon="9.630305557206826" id="-46558">
		<tag k="alt_name" v="Berg, nedre;Bergtun;Berg nedre" />
		<tag k="name" v="Nedre Berg" />
		<tag k="place" v="farm" />
		<tag k="ssr:stedsnr" v="190107" />
	</node>
	<node lat="61.066322552618196" lon="9.646044772556063" id="-46559">
		<tag k="historic" v="shieling" />
		<tag k="name" v="Hafsenn" />
		<tag k="place" v="isolated_dwelling" />
		<tag k="ssr:stedsnr" v="190625" />
	</node>
	<node lat="60.9115275667977" lon="9.666593807542741" id="-46563">
		<tag k="fixme" v="consider place=hamlet" />
		<tag k="name" v="Byfellii" />
		<tag k="place" v="farm" />
		<tag k="ssr:stedsnr" v="191071" />
	</node>
	<node lat="60.90324722133909" lon="9.539541664700938" id="-46565">
		<tag k="historic" v="shieling" />
		<tag k="name" v="Nordfjellstølen" />
		<tag k="place" v="isolated_dwelling" />
		<tag k="ssr:stedsnr" v="191670" />
	</node>
	<node lat="60.97073610891221" lon="9.530302770522074" id="-46567">
		<tag k="alt_name" v="Storslettatn" />
		<tag k="historic" v="shieling" />
		<tag k="name" v="Storslettan" />
		<tag k="place" v="isolated_dwelling" />
		<tag k="ssr:stedsnr" v="191569" />
	</node>
	<node lat="60.92085555356949" lon="9.621266672826934" id="-46569">
		<tag k="alt_name" v="Espelii, nedre" />
		<tag k="fixme" v="multiple name tags, choose one and add the other to alt_name" />
		<tag k="name" v="Huse;Nedre Espelii" />
		<tag k="place" v="farm" />
		<tag k="ssr:stedsnr" v="191859" />
	</node>
	<node lat="60.9203750016568" lon="9.613347231218997" id="-46570">
		<tag k="fixme" v="consider place=hamlet" />
		<tag k="name" v="Espelibygdi" />
		<tag k="place" v="village" />
		<tag k="ssr:stedsnr" v="191860" />
	</node>
	<node lat="60.91815555823794" lon="9.60797222303056" id="-46571">
		<tag k="alt_name" v="Espelibråten" />
		<tag k="name" v="Bråten" />
		<tag k="place" v="farm" />
		<tag k="ssr:stedsnr" v="191863" />
	</node>
	<node lat="60.97159444066406" lon="9.705350003170292" id="-46574">
		<tag k="name" v="Fjellheimen" />
		<tag k="place" v="isolated_dwelling" />
		<tag k="ssr:stedsnr" v="269646" />
	</node>
	<node lat="60.991338890871845" lon="9.615655562240597" id="-46576">
		<tag k="name" v="Renna" />
		<tag k="place" v="locality" />
		<tag k="ssr:stedsnr" v="234202" />
	</node>
	<node lat="60.99452222272343" lon="9.630119438778657" id="-46577">
		<tag k="name" v="Furuheim" />
		<tag k="place" v="isolated_dwelling" />
		<tag k="ssr:stedsnr" v="234207" />
	</node>
	<node lat="60.856422223636436" lon="9.617383327828987" id="-46578">
		<tag k="historic" v="shieling" />
		<tag k="name" v="Lushattstølen" />
		<tag k="place" v="isolated_dwelling" />
		<tag k="ssr:stedsnr" v="235107" />
	</node>
	<node lat="61.07467777780975" lon="9.596794453686304" id="-46584">
		<tag k="historic" v="shieling" />
		<tag k="name" v="Nedre Nystølen" />
		<tag k="place" v="isolated_dwelling" />
		<tag k="ssr:stedsnr" v="235298" />
	</node>
	<node lat="60.982219447996236" lon="9.716766667370536" id="-46598">
		<tag k="name" v="Veslebo" />
		<tag k="place" v="isolated_dwelling" />
		<tag k="ssr:stedsnr" v="236177" />
	</node>
	<node lat="61.058561109452924" lon="9.715191658879613" id="-46600">
		<tag k="name" v="Steinhyttutn" />
		<tag k="place" v="locality" />
		<tag k="ssr:stedsnr" v="236188" />
	</node>
	<node lat="61.08006388728818" lon="9.484158325121909" id="-46604">
		<tag k="historic" v="shieling" />
		<tag k="name" v="Tomassettrøe" />
		<tag k="place" v="isolated_dwelling" />
		<tag k="ssr:stedsnr" v="236504" />
	</node>
	<node lat="60.844369443794704" lon="9.743797221891976" id="-46610">
		<tag k="name" v="Bekkelund" />
		<tag k="place" v="locality" />
		<tag k="ssr:stedsnr" v="236781" />
	</node>
	<node lat="60.869786114399744" lon="9.650566665816752" id="-46613">
		<tag k="name" v="Hauglund" />
		<tag k="place" v="farm" />
		<tag k="ssr:stedsnr" v="236987" />
	</node>
	<node lat="60.93826389140826" lon="9.63376667556" id="-46626">
		<tag k="alt_name" v="Mælom" />
		<tag k="name" v="Melum" />
		<tag k="place" v="farm" />
		<tag k="ssr:stedsnr" v="252910" />
	</node>
	<node lat="60.95642777768126" lon="9.63926110620427" id="-46627">
		<tag k="name" v="Berglund" />
		<tag k="place" v="farm" />
		<tag k="ssr:stedsnr" v="252935" />
	</node>
	<node lat="60.955655065849164" lon="9.627956831179025" id="-46628">
		<tag k="fixme" v="consider place=hamlet" />
		<tag k="name" v="Espeset" />
		<tag k="place" v="farm" />
		<tag k="ssr:stedsnr" v="252936" />
	</node>
	<node lat="60.924255552548814" lon="9.620744450478218" id="-46633">
		<tag k="loc_name" v="Nedre Espelie" />
		<tag k="name" v="Nedre Espelien" />
		<tag k="place" v="farm" />
		<tag k="ssr:stedsnr" v="295096" />
	</node>
	<node lat="60.90003611266344" lon="9.65414999359677" id="-46634">
		<tag k="name" v="Kleive" />
		<tag k="place" v="locality" />
		<tag k="ssr:stedsnr" v="295425" />
	</node>
	<node lat="60.92479444236571" lon="9.643552780883903" id="-46643">
		<tag k="alt_name" v="Søndre Rundberg" />
		<tag k="name" v="Søre Rundborg" />
		<tag k="place" v="farm" />
		<tag k="ssr:stedsnr" v="296084" />
	</node>
	<node lat="60.932341662555274" lon="9.637008341634763" id="-46647">
		<tag k="name" v="Storsve" />
		<tag k="place" v="isolated_dwelling" />
		<tag k="ssr:stedsnr" v="296446" />
	</node>
	<node lat="60.88437222609104" lon="9.615233330219986" id="-46648">
		<tag k="amenity" v="school" />
		<tag k="name" v="Breien skule" />
		<tag k="ssr:stedsnr" v="296463" />
	</node>
	<node lat="60.96554722400031" lon="9.760699996823387" id="-46651">
		<tag k="name" v="Anbjørhytta" />
		<tag k="place" v="isolated_dwelling" />
		<tag k="ssr:stedsnr" v="296625" />
	</node>
	<node lat="61.082949997975085" lon="9.478547214379748" id="-46658">
		<tag k="historic" v="shieling" />
		<tag k="name" v="Bergsbakktrøe" />
		<tag k="place" v="isolated_dwelling" />
		<tag k="ssr:stedsnr" v="297520" />
	</node>
	<node lat="60.838383334678355" lon="9.7739583401338" id="-46660">
		<tag k="name" v="Sjurudokke" />
		<tag k="place" v="locality" />
		<tag k="ssr:stedsnr" v="297607" />
	</node>
	<node lat="61.081516668126206" lon="9.527852785176494" id="-46666">
		<tag k="historic" v="shieling" />
		<tag k="name" v="Hagasetnystølen" />
		<tag k="place" v="isolated_dwelling" />
		<tag k="ssr:stedsnr" v="297796" />
	</node>
	<node lat="61.017980554914516" lon="9.588569444423136" id="-46671">
		<tag k="name" v="Undli" />
		<tag k="place" v="farm" />
		<tag k="ssr:stedsnr" v="311580" />
	</node>
	<node lat="61.02090277992443" lon="9.572527779670033" id="-46672">
		<tag k="alt_name" v="Øvre Hovda" />
		<tag k="name" v="Hovda" />
		<tag k="place" v="farm" />
		<tag k="ssr:stedsnr" v="311584" />
	</node>
	<node lat="61.01934999702835" lon="9.474791671021595" id="-46675">
		<tag k="alt_name" v="Stadsvøll" />
		<tag k="historic" v="shieling" />
		<tag k="name" v="Stasvoll" />
		<tag k="place" v="isolated_dwelling" />
		<tag k="ssr:stedsnr" v="311614" />
	</node>
	<node lat="60.86343611244868" lon="9.584877776947476" id="-46676">
		<tag k="alt_name" v="Ossætra" />
		<tag k="historic" v="shieling" />
		<tag k="name" v="Ossætri" />
		<tag k="place" v="isolated_dwelling" />
		<tag k="ssr:stedsnr" v="311678" />
	</node>
	<node lat="60.87232778049263" lon="9.622369438694202" id="-46678">
		<tag k="name" v="Ringsrud" />
		<tag k="place" v="farm" />
		<tag k="ssr:stedsnr" v="312029" />
	</node>
	<node lat="60.83047257989895" lon="9.756317132798545" id="-46679">
		<tag k="alt_name" v="Madslangrud" />
		<tag k="fixme" v="consider place=hamlet" />
		<tag k="name" v="Maslangrud" />
		<tag k="place" v="farm" />
		<tag k="ssr:stedsnr" v="312203" />
	</node>
	<node lat="60.97931111212287" lon="9.771763889233588" id="-46681">
		<tag k="alt_name" v="Søre Svilosen" />
		<tag k="name" v="Svillosen" />
		<tag k="place" v="farm" />
		<tag k="ssr:stedsnr" v="312981" />
	</node>
	<node lat="60.976322222790714" lon="9.62013333882145" id="-46682">
		<tag k="name" v="Bakken" />
		<tag k="place" v="farm" />
		<tag k="ssr:stedsnr" v="312988" />
	</node>
	<node lat="60.95109166715384" lon="9.689388880579894" id="-46684">
		<tag k="alt_name" v="Matviksætra" />
		<tag k="historic" v="shieling" />
		<tag k="name" v="Matvika" />
		<tag k="place" v="isolated_dwelling" />
		<tag k="ssr:stedsnr" v="313930" />
	</node>
	<node lat="60.99536667096892" lon="9.604236110668097" id="-46688">
		<tag k="name" v="Skoglund" />
		<tag k="place" v="isolated_dwelling" />
		<tag k="ssr:stedsnr" v="355216" />
	</node>
	<node lat="60.99623611162178" lon="9.64732778285219" id="-46689">
		<tag k="name" v="Øygarden" />
		<tag k="place" v="farm" />
		<tag k="ssr:stedsnr" v="355220" />
	</node>
	<node lat="60.97948055329846" lon="9.595083342097304" id="-46694">
		<tag k="name" v="Rønsmoen" />
		<tag k="place" v="farm" />
		<tag k="ssr:stedsnr" v="356125" />
	</node>
	<node lat="60.91583889213411" lon="9.705611109226862" id="-46697">
		<tag k="name" v="Jonsstølen" />
		<tag k="place" v="locality" />
		<tag k="ssr:stedsnr" v="356548" />
	</node>
	<node lat="60.93967777357487" lon="9.640808336609448" id="-46698">
		<tag k="name" v="Øverli" />
		<tag k="place" v="farm" />
		<tag k="ssr:stedsnr" v="356551" />
	</node>
	<node lat="61.01360000019108" lon="9.55883611789073" id="-46702">
		<tag k="name" v="Renna" />
		<tag k="place" v="farm" />
		<tag k="ssr:stedsnr" v="356601" />
	</node>
	<node lat="60.949180551803174" lon="9.626341659013475" id="-46704">
		<tag k="name" v="Nertorp" />
		<tag k="place" v="isolated_dwelling" />
		<tag k="ssr:stedsnr" v="356906" />
	</node>
	<node lat="61.02798333618072" lon="9.584333335824418" id="-46710">
		<tag k="name" v="Øvre Dalstølen" />
		<tag k="place" v="farm" />
		<tag k="ssr:stedsnr" v="357248" />
	</node>
	<node lat="61.08382499857649" lon="9.474352776395103" id="-46715">
		<tag k="historic" v="shieling" />
		<tag k="name" v="Ranheimtrøe" />
		<tag k="place" v="isolated_dwelling" />
		<tag k="ssr:stedsnr" v="357501" />
	</node>
	<node lat="61.028275001472615" lon="9.502780564321471" id="-46723">
		<tag k="alt_name" v="Nørre Holo" />
		<tag k="name" v="Nørdre Holo" />
		<tag k="place" v="locality" />
		<tag k="ssr:stedsnr" v="358097" />
	</node>
	<node lat="60.94913611060248" lon="9.629977778554617" id="-46736">
		<tag k="name" v="Plassen" />
		<tag k="place" v="farm" />
		<tag k="ssr:stedsnr" v="477939" />
	</node>
	<node lat="60.89470000395398" lon="9.598938891112388" id="-46738">
		<tag k="name" v="Fjellsbakken" />
		<tag k="place" v="farm" />
		<tag k="ssr:stedsnr" v="477389" />
	</node>
	<node lat="60.945408331920575" lon="9.626730547652633" id="-46740">
		<tag k="name" v="Kringlemoen" />
		<tag k="place" v="farm" />
		<tag k="ssr:stedsnr" v="477644" />
	</node>
	<node lat="60.91339712634521" lon="9.660023669676626" id="-46743">
		<tag k="fixme" v="consider place=hamlet" />
		<tag k="name" v="Byfelibygde" />
		<tag k="place" v="village" />
		<tag k="ssr:stedsnr" v="477551" />
	</node>
	<node lat="60.91901110718697" lon="9.61697222376381" id="-46750">
		<tag k="loc_name" v="Midtre Espelie" />
		<tag k="name" v="Midtre Espelien" />
		<tag k="place" v="farm" />
		<tag k="ssr:stedsnr" v="478078" />
	</node>
	<node lat="61.022986113339684" lon="9.593733328859287" id="-46752">
		<tag k="name" v="Dalen" />
		<tag k="place" v="farm" />
		<tag k="ssr:stedsnr" v="478246" />
	</node>
	<node lat="61.07653333316595" lon="9.574088887965056" id="-46753">
		<tag k="name" v="Pålsbu" />
		<tag k="old_name" v="Påsebu" />
		<tag k="place" v="isolated_dwelling" />
		<tag k="ssr:stedsnr" v="478248" />
	</node>
	<node lat="60.996866670814484" lon="9.665255548498758" id="-46759">
		<tag k="building" v="industrial" />
		<tag k="name" v="Graneissage" />
		<tag k="ssr:stedsnr" v="478411" />
	</node>
	<node lat="60.99676944027501" lon="9.661111114688198" id="-46760">
		<tag k="name" v="Åkrokhytta" />
		<tag k="place" v="isolated_dwelling" />
		<tag k="ssr:stedsnr" v="478412" />
	</node>
	<node lat="60.88908333026931" lon="9.633491663541557" id="-46761">
		<tag k="name" v="Nybu" />
		<tag k="place" v="isolated_dwelling" />
		<tag k="ssr:stedsnr" v="478495" />
	</node>
	<node lat="61.04468333591207" lon="9.524705555635236" id="-46770">
		<tag k="name" v="Hjørdisbu" />
		<tag k="place" v="isolated_dwelling" />
		<tag k="ssr:stedsnr" v="479151" />
	</node>
	<node lat="61.06602499784685" lon="9.596075001208188" id="-46773">
		<tag k="alt_name" v="Grøven" />
		<tag k="historic" v="shieling" />
		<tag k="name" v="Grøvi" />
		<tag k="place" v="isolated_dwelling" />
		<tag k="ssr:stedsnr" v="371616" />
	</node>
	<node lat="61.083530552961996" lon="9.579994448560528" id="-46776">
		<tag k="alt_name" v="Risvøllen" />
		<tag k="name" v="Risvoll" />
		<tag k="place" v="farm" />
		<tag k="ssr:stedsnr" v="371915" />
	</node>
	<node lat="61.08094166482436" lon="9.586772214132623" id="-46777">
		<tag k="historic" v="shieling" />
		<tag k="name" v="Rotvollstølen" />
		<tag k="place" v="isolated_dwelling" />
		<tag k="ssr:stedsnr" v="371916" />
	</node>
	<node lat="61.06170000137251" lon="9.5401583289534" id="-46780">
		<tag k="name" v="Steinsvoll" />
		<tag k="place" v="farm" />
		<tag k="ssr:stedsnr" v="479450" />
	</node>
	<node lat="61.06354721900353" lon="9.54285833090311" id="-46781">
		<tag k="name" v="Ås" />
		<tag k="place" v="farm" />
		<tag k="ssr:stedsnr" v="479452" />
	</node>
	<node lat="60.909849998306576" lon="9.682261105394394" id="-46782">
		<tag k="alt_name" v="Nygård" />
		<tag k="name" v="Nygard" />
		<tag k="place" v="farm" />
		<tag k="ssr:stedsnr" v="372104" />
	</node>
	<node lat="60.889744444366954" lon="9.63380000848007" id="-46783">
		<tag k="alt_name" v="Kyrkjebakkatn" />
		<tag k="name" v="Kyrkjebakken" />
		<tag k="place" v="farm" />
		<tag k="ssr:stedsnr" v="372128" />
	</node>
	<node lat="61.08100833337879" lon="9.481169450247323" id="-46786">
		<tag k="historic" v="shieling" />
		<tag k="name" v="Bergsbakktrøe" />
		<tag k="place" v="isolated_dwelling" />
		<tag k="ssr:stedsnr" v="479526" />
	</node>
	<node lat="61.0188425406567" lon="9.540825493675742" id="-46787">
		<tag k="alt_name" v="Solbrekken" />
		<tag k="name" v="Solbrekka" />
		<tag k="place" v="hamlet" />
		<tag k="ssr:stedsnr" v="372558" />
	</node>
	<node lat="61.000200003368704" lon="9.584927769080497" id="-46788">
		<tag k="alt_name" v="Rødningen" />
		<tag k="name" v="Rudningen" />
		<tag k="place" v="farm" />
		<tag k="ssr:stedsnr" v="372562" />
	</node>
	<node lat="60.825424998359594" lon="9.786774992344803" id="-46790">
		<tag k="name" v="Eidshaug" />
		<tag k="place" v="isolated_dwelling" />
		<tag k="ssr:stedsnr" v="479550" />
	</node>
	<node lat="60.97171944033575" lon="9.70051389343696" id="-46793">
		<tag k="alt_name" v="Nørdre Kjærringstølen;Kjerringstølen, austre;Austre Kjerringstølen" />
		<tag k="name" v="Nørdre Kjerringstølen" />
		<tag k="place" v="farm" />
		<tag k="ssr:stedsnr" v="373944" />
	</node>
	<node lat="60.96403888593569" lon="9.637991659135155" id="-46794">
		<tag k="name" v="Fyk" />
		<tag k="place" v="farm" />
		<tag k="ssr:stedsnr" v="373948" />
	</node>
	<node lat="60.96866110758732" lon="9.620833339045477" id="-46796">
		<tag k="alt_name" v="Flatigarden" />
		<tag k="name" v="Flatøygarden" />
		<tag k="place" v="farm" />
		<tag k="ssr:stedsnr" v="373953" />
	</node>
	<node lat="60.92793055211738" lon="9.685272224362658" id="-46801">
		<tag k="name" v="Nystølen" />
		<tag k="place" v="farm" />
		<tag k="ssr:stedsnr" v="373893" />
	</node>
	<node lat="60.920491662331656" lon="9.645883328658114" id="-46802">
		<tag k="name" v="Gråndalen" />
		<tag k="place" v="locality" />
		<tag k="ssr:stedsnr" v="373898" />
	</node>
	<node lat="60.91802340984678" lon="9.617787897727077" id="-46803">
		<tag k="loc_name" v="Espelie" />
		<tag k="name" v="Espelii" />
		<tag k="place" v="hamlet" />
		<tag k="ssr:stedsnr" v="373899" />
	</node>
	<node lat="60.87145277633645" lon="9.6912611116577" id="-46804">
		<tag k="name" v="Grohalle" />
		<tag k="place" v="locality" />
		<tag k="ssr:stedsnr" v="479854" />
	</node>
	<node lat="61.07720833678479" lon="9.518402786109581" id="-46807">
		<tag k="name" v="Slettatrøe" />
		<tag k="place" v="locality" />
		<tag k="ssr:stedsnr" v="479797" />
	</node>
	<node lat="60.84123333602723" lon="9.737911108277615" id="-46808">
		<tag k="name" v="Plassen" />
		<tag k="place" v="farm" />
		<tag k="ssr:stedsnr" v="479799" />
	</node>
	<node lat="61.00528055311488" lon="9.564533325584181" id="-46813">
		<tag k="name" v="Personlie" />
		<tag k="place" v="locality" />
		<tag k="ssr:stedsnr" v="416318" />
	</node>
	<node lat="60.885749999306235" lon="9.649030547416917" id="-46819">
		<tag k="amenity" v="school" />
		<tag k="name" v="Skogtun" />
		<tag k="ssr:stedsnr" v="417302" />
	</node>
	<node lat="60.97175277504388" lon="9.618233325953971" id="-46822">
		<tag k="name" v="Tuenge" />
		<tag k="place" v="isolated_dwelling" />
		<tag k="ssr:stedsnr" v="417714" />
	</node>
	<node lat="60.84588610955946" lon="9.620125002390026" id="-46828">
		<tag k="amenity" v="nursing_home" />
		<tag k="name" v="Nystølen rekreasjonshjem" />
		<tag k="ssr:stedsnr" v="418019" />
	</node>
	<node lat="61.0087861096723" lon="9.739780548458297" id="-46835">
		<tag k="historic" v="shieling" />
		<tag k="name" v="Sørtrøe" />
		<tag k="place" v="isolated_dwelling" />
		<tag k="ssr:stedsnr" v="418388" />
	</node>
	<node lat="61.01061944768233" lon="9.724600005538079" id="-46836">
		<tag k="name" v="Øyvassbu" />
		<tag k="place" v="isolated_dwelling" />
		<tag k="ssr:stedsnr" v="418394" />
	</node>
	<node lat="61.08133611428535" lon="9.48768056112144" id="-46838">
		<tag k="name" v="Finnslegret" />
		<tag k="place" v="isolated_dwelling" />
		<tag k="ssr:stedsnr" v="418505" />
	</node>
	<node lat="61.02898055537332" lon="9.48645278134889" id="-46845">
		<tag k="name" v="Hulderhaugen" />
		<tag k="place" v="isolated_dwelling" />
		<tag k="ssr:stedsnr" v="419093" />
	</node>
	<node lat="60.82634166536573" lon="9.778522220095384" id="-46849">
		<tag k="name" v="Ringen" />
		<tag k="place" v="locality" />
		<tag k="ssr:stedsnr" v="419504" />
	</node>
	<node lat="61.0846111112102" lon="9.576008339676493" id="-46858">
		<tag k="historic" v="shieling" />
		<tag k="name" v="Bergskardstølen" />
		<tag k="place" v="isolated_dwelling" />
		<tag k="ssr:stedsnr" v="432907" />
	</node>
	<node lat="61.06299722255183" lon="9.428411118998214" id="-46859">
		<tag k="name" v="Fredlund" />
		<tag k="place" v="farm" />
		<tag k="ssr:stedsnr" v="432892" />
	</node>
	<node lat="61.06563611120592" lon="9.442527773821277" id="-46860">
		<tag k="alt_name" v="Klokkarlii" />
		<tag k="historic" v="shieling" />
		<tag k="name" v="Klukkarlie" />
		<tag k="place" v="isolated_dwelling" />
		<tag k="ssr:stedsnr" v="432893" />
	</node>
	<node lat="60.890455552077114" lon="9.65446945099544" id="-46861">
		<tag k="alt_name" v="Kleivgardslii" />
		<tag k="name" v="Kleivgardslie" />
		<tag k="place" v="farm" />
		<tag k="ssr:stedsnr" v="433077" />
	</node>
	<node lat="60.8800111068955" lon="9.699166665258758" id="-46862">
		<tag k="name" v="Voll" />
		<tag k="place" v="farm" />
		<tag k="ssr:stedsnr" v="433113" />
	</node>
	<node lat="60.88778888828293" lon="9.677797214256804" id="-46863">
		<tag k="alt_name" v="Hansebrøtin" />
		<tag k="name" v="Bråten" />
		<tag k="place" v="farm" />
		<tag k="ssr:stedsnr" v="433134" />
	</node>
	<node lat="61.0755472230205" lon="9.563358327579417" id="-46869">
		<tag k="alt_name" v="Flætn" />
		<tag k="historic" v="shieling" />
		<tag k="name" v="Fleten" />
		<tag k="place" v="isolated_dwelling" />
		<tag k="ssr:stedsnr" v="492895" />
	</node>
	<node lat="60.8853416624504" lon="9.59816666082328" id="-46870">
		<tag k="alt_name" v="Breiddal" />
		<tag k="name" v="Breidal" />
		<tag k="place" v="farm" />
		<tag k="ssr:stedsnr" v="493131" />
	</node>
	<node lat="61.02375555382471" lon="9.585697215942181" id="-46872">
		<tag k="alt_name" v="Småløo" />
		<tag k="name" v="Smålønn" />
		<tag k="place" v="farm" />
		<tag k="ssr:stedsnr" v="493542" />
	</node>
	<node lat="61.029180557890164" lon="9.579430560229541" id="-46873">
		<tag k="name" v="Haugen" />
		<tag k="place" v="farm" />
		<tag k="ssr:stedsnr" v="493596" />
	</node>
	<node lat="60.99336111132387" lon="9.565763883332785" id="-46880">
		<tag k="name" v="Øystad" />
		<tag k="place" v="farm" />
		<tag k="ssr:stedsnr" v="494294" />
	</node>
	<node lat="60.926986113589365" lon="9.703788890206937" id="-46882">
		<tag k="alt_name" v="Stakklii" />
		<tag k="historic" v="shieling" />
		<tag k="name" v="Stakklie" />
		<tag k="place" v="isolated_dwelling" />
		<tag k="ssr:stedsnr" v="494894" />
	</node>
	<node lat="61.007197219884475" lon="9.672905555737717" id="-46890">
		<tag k="historic" v="shieling" />
		<tag k="name" v="Sørestølen" />
		<tag k="place" v="isolated_dwelling" />
		<tag k="ssr:stedsnr" v="674335" />
	</node>
	<node lat="60.89688782542433" lon="9.644908834389126" id="-46894">
		<tag k="alt_name" v="Torshaugen" />
		<tag k="fixme" v="consider place=hamlet" />
		<tag k="name" v="Torshaug" />
		<tag k="place" v="farm" />
		<tag k="ssr:stedsnr" v="675074" />
	</node>
	<node lat="61.03523333379157" lon="9.715713881403573" id="-46895">
		<tag k="name" v="Brenna" />
		<tag k="place" v="farm" />
		<tag k="ssr:stedsnr" v="675369" />
	</node>
	<node lat="61.039586110256586" lon="9.475727775122397" id="-46896">
		<tag k="alt_name" v="Mørke" />
		<tag k="name" v="Morki" />
		<tag k="place" v="farm" />
		<tag k="ssr:stedsnr" v="675588" />
	</node>
	<node lat="61.04226415871921" lon="9.564910216960929" id="-46897">
		<tag k="name" v="Stølen" />
		<tag k="place" v="farm" />
		<tag k="ssr:stedsnr" v="675590" />
	</node>
	<node lat="61.03482500099964" lon="9.558599996881638" id="-46898">
		<tag k="name" v="Bratteng" />
		<tag k="place" v="isolated_dwelling" />
		<tag k="ssr:stedsnr" v="675592" />
	</node>
	<node lat="61.109322221646295" lon="9.697333327716075" id="-46900">
		<tag k="name" v="Lenningen" />
		<tag k="old_name" v="Leningan" />
		<tag k="place" v="hamlet" />
		<tag k="ssr:stedsnr" v="675679" />
	</node>
	<node lat="60.89341388953591" lon="9.636675002483356" id="-46904">
		<tag k="alt_name" v="Rødningatn" />
		<tag k="name" v="Rydningen" />
		<tag k="place" v="farm" />
		<tag k="ssr:stedsnr" v="676063" />
	</node>
	<node lat="60.86530277590535" lon="9.667708331803295" id="-46905">
		<tag k="name" v="Sørum" />
		<tag k="place" v="farm" />
		<tag k="ssr:stedsnr" v="676026" />
	</node>
	<node lat="60.91573889146928" lon="9.642708332540964" id="-46906">
		<tag k="alt_name" v="Kluftigarden" />
		<tag k="name" v="Kluftøygarden" />
		<tag k="place" v="farm" />
		<tag k="ssr:stedsnr" v="676085" />
	</node>
	<node lat="60.96118055259493" lon="9.730363893437827" id="-46911">
		<tag k="alt_name" v="Garastølen, s;Garastølen" />
		<tag k="historic" v="shieling" />
		<tag k="name" v="Søre Garastølen" />
		<tag k="place" v="isolated_dwelling" />
		<tag k="ssr:stedsnr" v="676969" />
	</node>
	<node lat="61.01043614190341" lon="9.596472387524038" id="-46914">
		<tag k="fixme" v="consider place=hamlet" />
		<tag k="name" v="Langedal" />
		<tag k="place" v="farm" />
		<tag k="ssr:stedsnr" v="477170" />
	</node>
	<node lat="60.99714166380529" lon="9.643352782041877" id="-46918">
		<tag k="name" v="Øygardsbakkin" />
		<tag k="place" v="farm" />
		<tag k="ssr:stedsnr" v="477222" />
	</node>
	<node lat="60.91991944737419" lon="9.636205563289476" id="-46934">
		<tag k="name" v="Fagereng" />
		<tag k="place" v="isolated_dwelling" />
		<tag k="ssr:stedsnr" v="478074" />
	</node>
	<node lat="60.89260833482078" lon="9.641816675161344" id="-46935">
		<tag k="name" v="Knatten" />
		<tag k="place" v="isolated_dwelling" />
		<tag k="ssr:stedsnr" v="478372" />
	</node>
	<node lat="60.893624998185025" lon="9.641377777488332" id="-46936">
		<tag k="name" v="Valsten" />
		<tag k="place" v="isolated_dwelling" />
		<tag k="ssr:stedsnr" v="478374" />
	</node>
	<node lat="60.8840638864353" lon="9.612005561666061" id="-46939">
		<tag k="name" v="Hovrud" />
		<tag k="place" v="farm" />
		<tag k="ssr:stedsnr" v="478506" />
	</node>
	<node lat="60.92132500320137" lon="9.589441672977776" id="-46947">
		<tag k="name" v="Heimstølen" />
		<tag k="place" v="locality" />
		<tag k="ssr:stedsnr" v="478967" />
	</node>
	<node lat="60.948855558163636" lon="9.544077772532997" id="-46951">
		<tag k="historic" v="shieling" />
		<tag k="name" v="Tomastrøvollen" />
		<tag k="place" v="isolated_dwelling" />
		<tag k="ssr:stedsnr" v="479357" />
	</node>
	<node lat="61.08174721917026" lon="9.52440833379551" id="-46956">
		<tag k="name" v="Skogsjå" />
		<tag k="place" v="isolated_dwelling" />
		<tag k="ssr:stedsnr" v="479806" />
	</node>
	<node lat="61.09776944338151" lon="9.54578054815019" id="-46960">
		<tag k="alt_name" v="Stuvelii" />
		<tag k="historic" v="shieling" />
		<tag k="name" v="Stuvelie" />
		<tag k="place" v="isolated_dwelling" />
		<tag k="ssr:stedsnr" v="492902" />
	</node>
	<node lat="60.85436389026534" lon="9.723783341152041" id="-46961">
		<tag k="alt_name" v="Rustebakkatn" />
		<tag k="name" v="Rustebakke" />
		<tag k="place" v="farm" />
		<tag k="ssr:stedsnr" v="493065" />
	</node>
	<node lat="60.89868220413685" lon="9.708421166097724" id="-46962">
		<tag k="alt_name" v="Kælvedalen" />
		<tag k="name" v="Kalvedalen" />
		<tag k="place" v="locality" />
		<tag k="ssr:stedsnr" v="493085" />
	</node>
	<node lat="60.85022500426274" lon="9.658627774936322" id="-46965">
		<tag k="historic" v="shieling" />
		<tag k="name" v="Trondsætri" />
		<tag k="place" v="isolated_dwelling" />
		<tag k="ssr:stedsnr" v="494068" />
	</node>
	<node lat="60.901197221564246" lon="9.640386116204962" id="-46967">
		<tag k="alt_name" v="Elvely" />
		<tag k="name" v="Elvelii" />
		<tag k="place" v="farm" />
		<tag k="ssr:stedsnr" v="494087" />
	</node>
	<node lat="61.078391670132824" lon="9.578327774198991" id="-46980">
		<tag k="historic" v="shieling" />
		<tag k="name" v="Myrstølen" />
		<tag k="place" v="isolated_dwelling" />
		<tag k="ssr:stedsnr" v="538412" />
	</node>
	<node lat="60.886588887198805" lon="9.626974999693065" id="-46982">
		<tag k="name" v="Fossheim" />
		<tag k="place" v="farm" />
		<tag k="ssr:stedsnr" v="538473" />
	</node>
	<node lat="60.886663885419225" lon="9.643486104083378" id="-46983">
		<tag k="building" v="industrial" />
		<tag k="name" v="Brostogo" />
		<tag k="ssr:stedsnr" v="538477" />
	</node>
	<node lat="60.96715000304791" lon="9.700597216018478" id="-47001">
		<tag k="name" v="Kringlemoslette" />
		<tag k="place" v="farm" />
		<tag k="ssr:stedsnr" v="539802" />
	</node>
	<node lat="60.83681111521992" lon="9.751736110063167" id="-47004">
		<tag k="name" v="Haugli" />
		<tag k="place" v="isolated_dwelling" />
		<tag k="ssr:stedsnr" v="540504" />
	</node>
	<node lat="61.061699996473465" lon="9.412297215462493" id="-47009">
		<tag k="name" v="Veahaugen" />
		<tag k="place" v="farm" />
		<tag k="ssr:stedsnr" v="542902" />
	</node>
	<node lat="61.025441670496164" lon="9.511358336100535" id="-47013">
		<tag k="name" v="Holm" />
		<tag k="place" v="farm" />
		<tag k="ssr:stedsnr" v="553582" />
	</node>
	<node lat="61.02772777616906" lon="9.509602782561569" id="-47015">
		<tag k="name" v="Holo" />
		<tag k="place" v="farm" />
		<tag k="ssr:stedsnr" v="553586" />
	</node>
	<node lat="61.058500537745886" lon="9.442202422251086" id="-47016">
		<tag k="alt_name" v="Bergsbakkin" />
		<tag k="fixme" v="consider place=hamlet" />
		<tag k="name" v="Bergsbakkan" />
		<tag k="place" v="farm" />
		<tag k="ssr:stedsnr" v="553593" />
	</node>
	<node lat="61.051780715777056" lon="9.462978417018558" id="-47017">
		<tag k="fixme" v="consider place=hamlet" />
		<tag k="name" v="Steinset" />
		<tag k="place" v="farm" />
		<tag k="ssr:stedsnr" v="553596" />
	</node>
	<node lat="61.05998055566834" lon="9.422777779449834" id="-47018">
		<tag k="alt_name" v="Brøtin" />
		<tag k="name" v="Bråten" />
		<tag k="place" v="farm" />
		<tag k="ssr:stedsnr" v="553602" />
	</node>
	<node lat="61.06766111038729" lon="9.62727221801553" id="-47019">
		<tag k="historic" v="shieling" />
		<tag k="name" v="Åfetstølen" />
		<tag k="place" v="isolated_dwelling" />
		<tag k="ssr:stedsnr" v="553629" />
	</node>
	<node lat="61.06864444149519" lon="9.508497219082019" id="-47022">
		<tag k="alt_name" v="Tangen, yt" />
		<tag k="historic" v="shieling" />
		<tag k="name" v="Ytre Tangen" />
		<tag k="place" v="isolated_dwelling" />
		<tag k="ssr:stedsnr" v="553897" />
	</node>
	<node lat="60.901644440594175" lon="9.633463884598429" id="-47024">
		<tag k="alt_name" v="Søndre Gøttenbørg" />
		<tag k="name" v="Gottenberg" />
		<tag k="place" v="farm" />
		<tag k="ssr:stedsnr" v="554079" />
	</node>
	<node lat="60.911261114151486" lon="9.64062500202403" id="-47025">
		<tag k="alt_name" v="Urberg" />
		<tag k="name" v="Urdberg" />
		<tag k="place" v="farm" />
		<tag k="ssr:stedsnr" v="555077" />
	</node>
	<node lat="60.82698055439494" lon="9.772083326348579" id="-47026">
		<tag k="name" v="Onsrud" />
		<tag k="place" v="farm" />
		<tag k="ssr:stedsnr" v="555168" />
	</node>
	<node lat="60.94260277390163" lon="9.615786117294148" id="-47030">
		<tag k="name" v="Røste" />
		<tag k="place" v="farm" />
		<tag k="ssr:stedsnr" v="555909" />
	</node>
	<node lat="60.9425083339819" lon="9.639777774106038" id="-47031">
		<tag k="alt_name" v="Skøre" />
		<tag k="name" v="Skori" />
		<tag k="place" v="farm" />
		<tag k="ssr:stedsnr" v="555913" />
	</node>
	<node lat="60.95979166287056" lon="9.622058336700787" id="-47032">
		<tag k="name" v="Strande" />
		<tag k="place" v="farm" />
		<tag k="ssr:stedsnr" v="555935" />
	</node>
	<node lat="60.95868333106971" lon="9.619899992848186" id="-47033">
		<tag k="name" v="Vestli" />
		<tag k="place" v="farm" />
		<tag k="ssr:stedsnr" v="555937" />
	</node>
	<node lat="60.910700004225774" lon="9.678247231424674" id="-47044">
		<tag k="name" v="Sygarden" />
		<tag k="place" v="farm" />
		<tag k="ssr:stedsnr" v="598526" />
	</node>
	<node lat="60.888374998839595" lon="9.70211110300829" id="-47045">
		<tag k="name" v="Kvasehuse" />
		<tag k="place" v="locality" />
		<tag k="ssr:stedsnr" v="599003" />
	</node>
	<node lat="60.8821555559427" lon="9.665850004297075" id="-47057">
		<tag k="building" v="industrial" />
		<tag k="name" v="Etne mølle" />
		<tag k="ssr:stedsnr" v="599499" />
	</node>
	<node lat="61.00181666774859" lon="9.546205564162268" id="-47070">
		<tag k="name" v="Midtmoen" />
		<tag k="place" v="farm" />
		<tag k="ssr:stedsnr" v="600611" />
	</node>
	<node lat="60.95486667115171" lon="9.727580549212584" id="-47071">
		<tag k="name" v="Skånord" />
		<tag k="place" v="farm" />
		<tag k="ssr:stedsnr" v="600615" />
	</node>
	<node lat="60.86650832895012" lon="9.782463892393379" id="-47074">
		<tag k="historic" v="shieling" />
		<tag k="name" v="Tomlesætra" />
		<tag k="place" v="isolated_dwelling" />
		<tag k="ssr:stedsnr" v="600657" />
	</node>
	<node lat="60.86354722301276" lon="9.670416673206946" id="-47075">
		<tag k="name" v="Tussebo" />
		<tag k="place" v="isolated_dwelling" />
		<tag k="ssr:stedsnr" v="600852" />
	</node>
	<node lat="61.01449444516708" lon="9.528480548685849" id="-47078">
		<tag k="amenity" v="school" />
		<tag k="name" v="Bergene skule" />
		<tag k="ssr:stedsnr" v="612676" />
	</node>
	<node lat="60.84405555448547" lon="9.725813882397752" id="-47080">
		<tag k="alt_name" v="Dølstogo" />
		<tag k="name" v="Dølstugu" />
		<tag k="place" v="farm" />
		<tag k="ssr:stedsnr" v="614056" />
	</node>
	<node lat="60.885932459009204" lon="9.673766293097001" id="-47083">
		<tag k="alt_name" v="Kleivgardsbygdi" />
		<tag k="fixme" v="consider place=hamlet" />
		<tag k="name" v="Kleivgardsbygde" />
		<tag k="place" v="village" />
		<tag k="ssr:stedsnr" v="614072" />
	</node>
	<node lat="61.03165260149687" lon="9.69226776668436" id="-47084">
		<tag k="name" v="Gamlestølen" />
		<tag k="ssr:stedsnr" v="614323" />
		<tag k="tourism" v="hotel" />
	</node>
	<node lat="61.03195833735108" lon="9.546111108227748" id="-47085">
		<tag k="alt_name" v="Lien" />
		<tag k="name" v="Lii" />
		<tag k="place" v="farm" />
		<tag k="ssr:stedsnr" v="614603" />
	</node>
	<node lat="60.87619444309403" lon="9.647566664023515" id="-47088">
		<tag k="name" v="Purkestad" />
		<tag k="place" v="farm" />
		<tag k="ssr:stedsnr" v="615097" />
	</node>
	<node lat="60.878838891347286" lon="9.562724995599625" id="-47089">
		<tag k="alt_name" v="Samuelstad" />
		<tag k="name" v="Samelstad" />
		<tag k="place" v="isolated_dwelling" />
		<tag k="ssr:stedsnr" v="615649" />
	</node>
	<node lat="60.92865555206048" lon="9.719769446348757" id="-47096">
		<tag k="alt_name" v="Bjødndalslette" />
		<tag k="name" v="Bjørndalsletta" />
		<tag k="place" v="farm" />
		<tag k="ssr:stedsnr" v="616907" />
	</node>
	<node lat="61.05827499943122" lon="9.393172217272364" id="-47097">
		<tag k="name" v="Nordeng" />
		<tag k="place" v="isolated_dwelling" />
		<tag k="ssr:stedsnr" v="616910" />
	</node>
	<node lat="60.98361944162649" lon="9.71356388732496" id="-47098">
		<tag k="name" v="Gamlestølen" />
		<tag k="place" v="farm" />
		<tag k="ssr:stedsnr" v="616988" />
	</node>
	<node lat="61.021719441257524" lon="9.524177781058999" id="-47100">
		<tag k="name" v="Søre Hiei" />
		<tag k="place" v="farm" />
		<tag k="ssr:stedsnr" v="618655" />
	</node>
	<node lat="61.06118333034022" lon="9.402452771609301" id="-47101">
		<tag k="name" v="Søreng" />
		<tag k="place" v="farm" />
		<tag k="ssr:stedsnr" v="618890" />
	</node>
	<node lat="60.83338889015332" lon="9.771133338107068" id="-47135">
		<tag k="name" v="Øystogo" />
		<tag k="place" v="farm" />
		<tag k="ssr:stedsnr" v="661535" />
	</node>
	<node lat="60.909663892863634" lon="9.686188885668884" id="-47139">
		<tag k="alt_name" v="Lendingsbråten;Ledningsbrøtin" />
		<tag k="name" v="Leningsbrøtin" />
		<tag k="old_name" v="Lendingsbroten;Lendingsbraaten" />
		<tag k="place" v="farm" />
		<tag k="ssr:stedsnr" v="661685" />
	</node>
	<node lat="60.868916668246214" lon="9.743927770815759" id="-47140">
		<tag k="name" v="Bamserud" />
		<tag k="place" v="locality" />
		<tag k="ssr:stedsnr" v="661812" />
	</node>
	<node lat="60.86692222353142" lon="9.710847217077058" id="-47141">
		<tag k="name" v="Hølmen" />
		<tag k="place" v="farm" />
		<tag k="ssr:stedsnr" v="661831" />
	</node>
	<node lat="61.01383889191961" lon="9.644097224927608" id="-47146">
		<tag k="alt_name" v="Flæten" />
		<tag k="name" v="Fleten" />
		<tag k="place" v="farm" />
		<tag k="ssr:stedsnr" v="674354" />
	</node>
	<node lat="60.838627777256264" lon="9.670663880882207" id="-47149">
		<tag k="alt_name" v="Midtsætra" />
		<tag k="historic" v="shieling" />
		<tag k="name" v="Midtsætri" />
		<tag k="place" v="isolated_dwelling" />
		<tag k="ssr:stedsnr" v="675053" />
	</node>
	<node lat="61.02330277651147" lon="9.6437527736597" id="-47150">
		<tag k="alt_name" v="Signetrøe" />
		<tag k="historic" v="shieling" />
		<tag k="name" v="Signetrøi" />
		<tag k="place" v="isolated_dwelling" />
		<tag k="ssr:stedsnr" v="675344" />
	</node>
	<node lat="61.02874999689779" lon="9.493036113189193" id="-47152">
		<tag k="name" v="Smedsrud" />
		<tag k="place" v="farm" />
		<tag k="ssr:stedsnr" v="675609" />
	</node>
	<node lat="61.057666229754076" lon="9.627782653811616" id="-47154">
		<tag k="historic" v="shieling" />
		<tag k="name" v="Liastølen" />
		<tag k="place" v="isolated_dwelling" />
		<tag k="ssr:stedsnr" v="675649" />
	</node>
	<node lat="61.063341666370555" lon="9.654691658242715" id="-47155">
		<tag k="historic" v="shieling" />
		<tag k="name" v="Ryggetrøi" />
		<tag k="place" v="isolated_dwelling" />
		<tag k="ssr:stedsnr" v="675653" />
	</node>
	<node lat="60.9127472226622" lon="9.69221110341938" id="-47158">
		<tag k="alt_name" v="Lødnigarden" />
		<tag k="name" v="Lødnøygarden" />
		<tag k="place" v="farm" />
		<tag k="ssr:stedsnr" v="676090" />
	</node>
	<node lat="60.88130277377078" lon="9.71483333283177" id="-47159">
		<tag k="alt_name" v="Mehus" />
		<tag k="name" v="Midhus" />
		<tag k="place" v="isolated_dwelling" />
		<tag k="ssr:stedsnr" v="676098" />
	</node>
	<node lat="60.926552776605696" lon="9.781241665464337" id="-47164">
		<tag k="alt_name" v="Stutlisætra" />
		<tag k="historic" v="shieling" />
		<tag k="name" v="Stutlii" />
		<tag k="place" v="isolated_dwelling" />
		<tag k="ssr:stedsnr" v="676887" />
	</node>
	<node lat="60.99586110703437" lon="9.779136101964411" id="-47168">
		<tag k="alt_name" v="Breidstølen" />
		<tag k="name" v="Breistølen" />
		<tag k="place" v="farm" />
		<tag k="ssr:stedsnr" v="677778" />
	</node>
	<node lat="60.95029166668618" lon="9.625144447877046" id="-47169">
		<tag k="alt_name" v="Kvedno" />
		<tag k="name" v="Kvernan" />
		<tag k="place" v="farm" />
		<tag k="ssr:stedsnr" v="677923" />
	</node>
	<node lat="60.98633889045101" lon="9.691902770453941" id="-47172">
		<tag k="alt_name" v="Grånstølen" />
		<tag k="historic" v="shieling" />
		<tag k="name" v="Granstølen" />
		<tag k="place" v="isolated_dwelling" />
		<tag k="ssr:stedsnr" v="677989" />
	</node>
	<node lat="61.02385277889083" lon="9.669094449752665" id="-47173">
		<tag k="name" v="Glenna" />
		<tag k="ssr:stedsnr" v="693017" />
		<tag k="tourism" v="guest_house" />
	</node>
	<node lat="61.00879444268574" lon="9.574527785699338" id="-47182">
		<tag k="name" v="Hestekinnbygde" />
		<tag k="place" v="hamlet" />
		<tag k="ssr:stedsnr" v="720370" />
	</node>
	<node lat="60.840847224058066" lon="9.63824166358717" id="-47187">
		<tag k="historic" v="shieling" />
		<tag k="name" v="Haugstølen" />
		<tag k="place" v="isolated_dwelling" />
		<tag k="ssr:stedsnr" v="721019" />
	</node>
	<node lat="60.905586106936624" lon="9.639111116885381" id="-47207">
		<tag k="amenity" v="nursing_home" />
		<tag k="name" v="Granheim" />
		<tag k="ssr:stedsnr" v="721732" />
	</node>
	<node lat="61.02466389030281" lon="9.503149996599548" id="-47210">
		<tag k="name" v="Dokke" />
		<tag k="place" v="farm" />
		<tag k="ssr:stedsnr" v="722107" />
	</node>
	<node lat="60.83780555181001" lon="9.750672219432284" id="-47212">
		<tag k="name" v="Haugen" />
		<tag k="place" v="isolated_dwelling" />
		<tag k="ssr:stedsnr" v="722515" />
	</node>
	<node lat="61.080183330551606" lon="9.524549996488599" id="-47214">
		<tag k="name" v="Markatrøe" />
		<tag k="place" v="isolated_dwelling" />
		<tag k="ssr:stedsnr" v="722821" />
	</node>
	<node lat="61.08319999980222" lon="9.522024997620814" id="-47215">
		<tag k="historic" v="shieling" />
		<tag k="name" v="Hagasettrøe" />
		<tag k="place" v="isolated_dwelling" />
		<tag k="ssr:stedsnr" v="722827" />
	</node>
	<node lat="60.831825003447506" lon="9.704422229224521" id="-47216">
		<tag k="historic" v="shieling" />
		<tag k="name" v="Haustsætra" />
		<tag k="place" v="isolated_dwelling" />
		<tag k="ssr:stedsnr" v="722707" />
	</node>
	<node lat="60.84250608983663" lon="9.727878288024915" id="-47217">
		<tag k="fixme" v="consider place=hamlet" />
		<tag k="name" v="Prestøye" />
		<tag k="place" v="farm" />
		<tag k="ssr:stedsnr" v="722776" />
	</node>
	<node lat="61.02401666338348" lon="9.677722215662737" id="-47218">
		<tag k="amenity" v="school" />
		<tag k="name" v="Fjellvang" />
		<tag k="ssr:stedsnr" v="735323" />
	</node>
	<node lat="61.00431666411765" lon="9.678830551534789" id="-47219">
		<tag k="name" v="Haugtun" />
		<tag k="place" v="farm" />
		<tag k="ssr:stedsnr" v="735352" />
	</node>
	<node lat="61.047299996971546" lon="9.462049994973622" id="-47220">
		<tag k="alt_name" v="Bjørkeset" />
		<tag k="name" v="Bjørkset" />
		<tag k="place" v="farm" />
		<tag k="ssr:stedsnr" v="735609" />
	</node>
	<node lat="60.88690278206479" lon="9.680799994047826" id="-47221">
		<tag k="alt_name" v="Kleivgardsbakko" />
		<tag k="name" v="Bakkan" />
		<tag k="place" v="farm" />
		<tag k="ssr:stedsnr" v="736104" />
	</node>
	<node lat="60.8880451035868" lon="9.74263420998653" id="-47222">
		<tag k="alt_name" v="Haustsætra" />
		<tag k="historic" v="shieling" />
		<tag k="name" v="Haustsætri" />
		<tag k="place" v="isolated_dwelling" />
		<tag k="ssr:stedsnr" v="736108" />
	</node>
	<node lat="61.03253333119947" lon="9.669591673184158" id="-47225">
		<tag k="alt_name" v="Langedalslettatn" />
		<tag k="historic" v="shieling" />
		<tag k="name" v="Slettan" />
		<tag k="place" v="isolated_dwelling" />
		<tag k="ssr:stedsnr" v="736323" />
	</node>
	<node lat="61.05205000406251" lon="9.626833334006204" id="-47228">
		<tag k="alt_name" v="Flæten" />
		<tag k="name" v="Fleten" />
		<tag k="place" v="farm" />
		<tag k="ssr:stedsnr" v="736629" />
	</node>
	<node lat="61.084866664200895" lon="9.662466661887253" id="-47235">
		<tag k="historic" v="shieling" />
		<tag k="name" v="Søre Ølsjølisætra" />
		<tag k="place" v="isolated_dwelling" />
		<tag k="ssr:stedsnr" v="902254" />
	</node>
	<node lat="61.0505055566791" lon="9.563949998288724" id="-47240">
		<tag k="name" v="Elgset" />
		<tag k="place" v="farm" />
		<tag k="ssr:stedsnr" v="902351" />
	</node>
	<node lat="60.94484680107051" lon="9.631860187988408" id="-47241">
		<tag k="alt_name" v="Kringeli" />
		<tag k="name" v="Nørdre Kringle" />
		<tag k="place" v="farm" />
		<tag k="ssr:stedsnr" v="737916" />
	</node>
	<node lat="60.946666668893634" lon="9.674947220148765" id="-47242">
		<tag k="historic" v="shieling" />
		<tag k="name" v="Nyhus" />
		<tag k="place" v="isolated_dwelling" />
		<tag k="ssr:stedsnr" v="737918" />
	</node>
	<node lat="60.987736114285255" lon="9.65966666806166" id="-47244">
		<tag k="alt_name" v="Djupedalssætra" />
		<tag k="loc_name" v="Djupedalen" />
		<tag k="name" v="Djupdalen" />
		<tag k="old_name" v="Djupedal Sr" />
		<tag k="place" v="isolated_dwelling" />
		<tag k="ssr:stedsnr" v="737969" />
	</node>
	<node lat="60.98240277398705" lon="9.616186106032176" id="-47245">
		<tag k="alt_name" v="Løtaslette" />
		<tag k="name" v="Slette" />
		<tag k="place" v="farm" />
		<tag k="ssr:stedsnr" v="737974" />
	</node>
	<node lat="60.98423333359299" lon="9.622422227334564" id="-47246">
		<tag k="alt_name" v="Bergo" />
		<tag k="name" v="Berget" />
		<tag k="place" v="farm" />
		<tag k="ssr:stedsnr" v="737976" />
	</node>
	<node lat="60.940622223088006" lon="9.640438887977552" id="-47252">
		<tag k="name" v="Nordli" />
		<tag k="place" v="farm" />
		<tag k="ssr:stedsnr" v="902569" />
	</node>
	<node lat="60.938544442631745" lon="9.640786116042346" id="-47253">
		<tag k="building" v="industrial" />
		<tag k="name" v="Øverli" />
		<tag k="ssr:stedsnr" v="902574" />
	</node>
	<node lat="60.88768055476271" lon="9.772811107863713" id="-47258">
		<tag k="historic" v="shieling" />
		<tag k="name" v="Molandsætra" />
		<tag k="place" v="isolated_dwelling" />
		<tag k="ssr:stedsnr" v="903067" />
	</node>
	<node lat="61.058950000826385" lon="9.422411116171661" id="-47261">
		<tag k="name" v="Enger" />
		<tag k="place" v="farm" />
		<tag k="ssr:stedsnr" v="740886" />
	</node>
	<node lat="60.86013333495789" lon="9.624394439191732" id="-47262">
		<tag k="name" v="Stangstogo" />
		<tag k="place" v="isolated_dwelling" />
		<tag k="ssr:stedsnr" v="903089" />
	</node>
	<node lat="60.92275555698615" lon="9.636188880905417" id="-47264">
		<tag k="name" v="Skogheim" />
		<tag k="place" v="isolated_dwelling" />
		<tag k="ssr:stedsnr" v="903098" />
	</node>
	<node lat="61.031708331042836" lon="9.681772228535287" id="-47268">
		<tag k="name" v="Fjellheim" />
		<tag k="place" v="farm" />
		<tag k="ssr:stedsnr" v="903295" />
	</node>
	<node lat="60.88844999978377" lon="9.634419435508535" id="-47270">
		<tag k="name" v="Prestegarden" />
		<tag k="place" v="isolated_dwelling" />
		<tag k="ssr:stedsnr" v="903457" />
	</node>
	<node lat="60.88945277967526" lon="9.634772224046028" id="-47272">
		<tag k="name" v="Solheim" />
		<tag k="place" v="isolated_dwelling" />
		<tag k="ssr:stedsnr" v="903460" />
	</node>
	<node lat="60.88530555191116" lon="9.61539999157667" id="-47273">
		<tag k="name" v="Brusveen" />
		<tag k="place" v="isolated_dwelling" />
		<tag k="ssr:stedsnr" v="903473" />
	</node>
	<node lat="60.83593888541229" lon="9.756827782145667" id="-47275">
		<tag k="building" v="industrial" />
		<tag k="name" v="Etnedal sag &amp; høvleri" />
		<tag k="ssr:stedsnr" v="903592" />
	</node>
	<node lat="60.915505553396684" lon="9.639419442537646" id="-47279">
		<tag k="name" v="Enge" />
		<tag k="place" v="farm" />
		<tag k="ssr:stedsnr" v="903871" />
	</node>
	<node lat="60.91767222640896" lon="9.647725009249415" id="-47280">
		<tag k="name" v="Kleive" />
		<tag k="place" v="farm" />
		<tag k="ssr:stedsnr" v="903872" />
	</node>
	<node lat="60.90940555614813" lon="9.637822219415023" id="-47282">
		<tag k="name" v="Solvang" />
		<tag k="place" v="isolated_dwelling" />
		<tag k="ssr:stedsnr" v="903839" />
	</node>
	<node lat="61.05490277374762" lon="9.503019448758748" id="-47290">
		<tag k="name" v="Øvre Etnestøl" />
		<tag k="place" v="locality" />
		<tag k="ssr:stedsnr" v="904228" />
	</node>
	<node lat="60.85334722103782" lon="9.73450833144449" id="-47308">
		<tag k="name" v="Ruse" />
		<tag k="place" v="farm" />
		<tag k="ssr:stedsnr" v="904744" />
	</node>
	<node lat="61.05949999904633" lon="9.397819438690144" id="-47311">
		<tag k="name" v="Valdres Høyfjellshotell" />
		<tag k="ssr:stedsnr" v="754904" />
		<tag k="tourism" v="hotel" />
	</node>
	<node lat="61.100274995646124" lon="9.69788334012441" id="-47312">
		<tag k="name" v="Nordre Leningen" />
		<tag k="place" v="neighbourhood" />
		<tag k="ssr:stedsnr" v="906786" />
	</node>
	<node lat="61.00233333746761" lon="9.608102777020456" id="-47315">
		<tag k="name" v="Øvre Rust" />
		<tag k="place" v="farm" />
		<tag k="ssr:stedsnr" v="780220" />
	</node>
	<node lat="60.92176389241301" lon="9.637330553760776" id="-47317">
		<tag k="name" v="Bråstad" />
		<tag k="place" v="isolated_dwelling" />
		<tag k="ssr:stedsnr" v="781107" />
	</node>
	<node lat="60.97899166669098" lon="9.677686119858933" id="-47324">
		<tag k="name" v="Makabu" />
		<tag k="place" v="isolated_dwelling" />
		<tag k="ssr:stedsnr" v="781616" />
	</node>
	<node lat="60.89148333122162" lon="9.669730549849165" id="-47326">
		<tag k="name" v="Skålerud" />
		<tag k="place" v="locality" />
		<tag k="ssr:stedsnr" v="782106" />
	</node>
	<node lat="60.8843499991609" lon="9.69026943606915" id="-47332">
		<tag k="name" v="Kolverud" />
		<tag k="place" v="locality" />
		<tag k="ssr:stedsnr" v="782014" />
	</node>
	<node lat="60.87067500042982" lon="9.739216671624998" id="-47338">
		<tag k="name" v="Renna" />
		<tag k="place" v="locality" />
		<tag k="ssr:stedsnr" v="782804" />
	</node>
	<node lat="61.07780833217791" lon="9.528422217177994" id="-47342">
		<tag k="fixme" v="multiple name tags, choose one and add the other to alt_name" />
		<tag k="historic" v="shieling" />
		<tag k="name" v="Brendatrøe;Nyset" />
		<tag k="place" v="isolated_dwelling" />
		<tag k="ssr:stedsnr" v="783810" />
	</node>
	<node lat="61.02270000096331" lon="9.593499991098195" id="-47344">
		<tag k="name" v="Dalen" />
		<tag k="place" v="farm" />
		<tag k="ssr:stedsnr" v="796327" />
	</node>
	<node lat="61.00001110809511" lon="9.600330563955255" id="-47345">
		<tag k="name" v="Rust" />
		<tag k="place" v="hamlet" />
		<tag k="ssr:stedsnr" v="796355" />
	</node>
	<node lat="61.01145832977431" lon="9.73558889586676" id="-47346">
		<tag k="name" v="Tanterhaug" />
		<tag k="place" v="hamlet" />
		<tag k="ssr:stedsnr" v="796364" />
	</node>
	<node lat="61.05621944786666" lon="9.386533342095646" id="-47347">
		<tag k="name" v="Røyslund" />
		<tag k="old_name" v="Røyslen" />
		<tag k="place" v="farm" />
		<tag k="ssr:stedsnr" v="796603" />
	</node>
	<node lat="61.047058332556354" lon="9.565813881925989" id="-47348">
		<tag k="name" v="Rundtom" />
		<tag k="place" v="farm" />
		<tag k="ssr:stedsnr" v="796606" />
	</node>
	<node lat="61.034849999647605" lon="9.598897219181724" id="-47352">
		<tag k="alt_name" v="Køllset" />
		<tag k="name" v="Kollset" />
		<tag k="place" v="farm" />
		<tag k="ssr:stedsnr" v="797658" />
	</node>
	<node lat="60.975408511955116" lon="9.539112794624991" id="-47354">
		<tag k="name" v="Fossli" />
		<tag k="place" v="locality" />
		<tag k="ssr:stedsnr" v="798313" />
	</node>
	<node lat="61.02055833467879" lon="9.649080551819225" id="-47357">
		<tag k="historic" v="shieling" />
		<tag k="name" v="Slåttestølen" />
		<tag k="place" v="isolated_dwelling" />
		<tag k="ssr:stedsnr" v="917282" />
	</node>
	<node lat="61.00325278188824" lon="9.686191659586212" id="-47358">
		<tag k="alt_name" v="Hardmannstølen" />
		<tag k="historic" v="shieling" />
		<tag k="name" v="Hermannstølen" />
		<tag k="place" v="isolated_dwelling" />
		<tag k="ssr:stedsnr" v="917329" />
	</node>
	<node lat="60.84678055752742" lon="9.741277772612582" id="-47361">
		<tag k="name" v="Lundstein" />
		<tag k="place" v="farm" />
		<tag k="ssr:stedsnr" v="918059" />
	</node>
	<node lat="60.91447701669271" lon="9.653983833622641" id="-47362">
		<tag k="fixme" v="multiple name tags, choose one and add the other to alt_name" />
		<tag k="name" v="Bråten;Byfelibrøtin" />
		<tag k="place" v="farm" />
		<tag k="ssr:stedsnr" v="919085" />
	</node>
	<node lat="60.909283330193944" lon="9.7915138850517" id="-47363">
		<tag k="alt_name" v="Leppsjøsætra" />
		<tag k="historic" v="shieling" />
		<tag k="name" v="Leppsjøsæter" />
		<tag k="place" v="isolated_dwelling" />
		<tag k="ssr:stedsnr" v="919089" />
	</node>
	<node lat="60.87867777706779" lon="9.690602784636152" id="-47364">
		<tag k="alt_name" v="Kleivgardsøye" />
		<tag k="name" v="Kleivgardsøyi" />
		<tag k="place" v="farm" />
		<tag k="ssr:stedsnr" v="919090" />
	</node>
	<node lat="61.028905554869475" lon="9.681058334903978" id="-47367">
		<tag k="name" v="Fjellsyn" />
		<tag k="place" v="isolated_dwelling" />
		<tag k="ssr:stedsnr" v="918383" />
	</node>
	<node lat="61.03524166889797" lon="9.707391665242003" id="-47368">
		<tag k="name" v="Fjellstad" />
		<tag k="place" v="farm" />
		<tag k="ssr:stedsnr" v="918390" />
	</node>
	<node lat="61.0127666644951" lon="9.552088889507816" id="-47369">
		<tag k="alt_name" v="Kvennhusmoen" />
		<tag k="name" v="Kvernhusmoen" />
		<tag k="place" v="farm" />
		<tag k="ssr:stedsnr" v="918585" />
	</node>
	<node lat="61.00956388508922" lon="9.569619437379297" id="-47370">
		<tag k="name" v="Hagen" />
		<tag k="place" v="farm" />
		<tag k="ssr:stedsnr" v="918588" />
	</node>
	<node lat="61.048458329686035" lon="9.605633324515685" id="-47372">
		<tag k="alt_name" v="Bjødnastølen" />
		<tag k="name" v="Bjørnestølen" />
		<tag k="place" v="isolated_dwelling" />
		<tag k="ssr:stedsnr" v="918702" />
	</node>
	<node lat="60.97315552333758" lon="9.617047567906877" id="-47378">
		<tag k="alt_name" v="Solbjør" />
		<tag k="fixme" v="consider place=hamlet" />
		<tag k="name" v="Solbjørg" />
		<tag k="place" v="farm" />
		<tag k="ssr:stedsnr" v="919985" />
	</node>
	<node lat="60.92958333531261" lon="9.610183326269622" id="-47379">
		<tag k="name" v="Skogstad" />
		<tag k="place" v="farm" />
		<tag k="ssr:stedsnr" v="920895" />
	</node>
	<node lat="60.95203611229944" lon="9.534236116763617" id="-47380">
		<tag k="alt_name" v="Åsletatn" />
		<tag k="name" v="Årslettan" />
		<tag k="place" v="farm" />
		<tag k="ssr:stedsnr" v="920574" />
	</node>
	<node lat="60.9393805544159" lon="9.640933336000435" id="-47381">
		<tag k="alt_name" v="Øverlisbygde" />
		<tag k="fixme" v="consider place=hamlet" />
		<tag k="name" v="Øverlibygdi" />
		<tag k="place" v="village" />
		<tag k="ssr:stedsnr" v="920942" />
	</node>
	<node lat="60.937488887416045" lon="9.733383327422255" id="-47382">
		<tag k="name" v="Midtre Bergstølen" />
		<tag k="place" v="farm" />
		<tag k="ssr:stedsnr" v="920944" />
	</node>
	<node lat="60.98137499887008" lon="9.664247219811942" id="-47385">
		<tag k="alt_name" v="Bergli" />
		<tag k="name" v="Tjernslette" />
		<tag k="place" v="farm" />
		<tag k="ssr:stedsnr" v="920978" />
	</node>
	<node lat="60.873927778484955" lon="9.568733333835358" id="-47386">
		<tag k="name" v="Øyangslihytta" />
		<tag k="place" v="isolated_dwelling" />
		<tag k="ssr:stedsnr" v="841008" />
	</node>
	<node lat="60.88913332942147" lon="9.638119438115641" id="-47396">
		<tag k="name" v="Graner" />
		<tag k="ssr:stedsnr" v="842392" />
		<tag k="tourism" v="guest_house" />
	</node>
	<node lat="60.8908444404236" lon="9.646352777918144" id="-47397">
		<tag k="name" v="Haugali" />
		<tag k="place" v="isolated_dwelling" />
		<tag k="ssr:stedsnr" v="842400" />
	</node>
	<node lat="60.85505555990083" lon="9.594147220257435" id="-47405">
		<tag k="name" v="Grånstølen" />
		<tag k="place" v="locality" />
		<tag k="ssr:stedsnr" v="842902" />
	</node>
	<node lat="60.88851110987691" lon="9.718494437048376" id="-47406">
		<tag k="historic" v="shieling" />
		<tag k="name" v="Veslesætra" />
		<tag k="place" v="isolated_dwelling" />
		<tag k="ssr:stedsnr" v="843063" />
	</node>
	<node lat="61.02904722503963" lon="9.475183326525306" id="-47408">
		<tag k="historic" v="shieling" />
		<tag k="name" v="Veslestølen" />
		<tag k="place" v="isolated_dwelling" />
		<tag k="ssr:stedsnr" v="843079" />
	</node>
	<node lat="60.868630556903085" lon="9.650322230827937" id="-47426">
		<tag k="name" v="Skoglund" />
		<tag k="place" v="isolated_dwelling" />
		<tag k="ssr:stedsnr" v="843974" />
	</node>
	<node lat="61.02819722131313" lon="9.513922230133176" id="-47432">
		<tag k="name" v="Øvre Ton" />
		<tag k="place" v="farm" />
		<tag k="ssr:stedsnr" v="856637" />
	</node>
	<node lat="60.87823055461672" lon="9.617161119868326" id="-47437">
		<tag k="name" v="Rognås" />
		<tag k="place" v="farm" />
		<tag k="ssr:stedsnr" v="858108" />
	</node>
	<node lat="60.88865607998132" lon="9.643304730896924" id="-47439">
		<tag k="fixme" v="consider place=suburb, village or hamlet" />
		<tag k="name" v="Bruflat" />
		<tag k="place" v="quarter" />
		<tag k="ssr:stedsnr" v="858122" />
	</node>
	<node lat="60.86840555609473" lon="9.70581666473065" id="-47440">
		<tag k="alt_name" v="Nytun" />
		<tag k="name" v="Hovde" />
		<tag k="place" v="isolated_dwelling" />
		<tag k="ssr:stedsnr" v="858024" />
	</node>
	<node lat="60.88088055612262" lon="9.67158889514681" id="-47441">
		<tag k="alt_name" v="Hovdesvee" />
		<tag k="name" v="Nordsvei" />
		<tag k="place" v="farm" />
		<tag k="ssr:stedsnr" v="858092" />
	</node>
	<node lat="60.826461112001894" lon="9.801272215457418" id="-47443">
		<tag k="alt_name" v="Kaso" />
		<tag k="name" v="Kasin" />
		<tag k="place" v="farm" />
		<tag k="ssr:stedsnr" v="859172" />
	</node>
	<node lat="60.941922219326386" lon="9.718977781241243" id="-47447">
		<tag k="alt_name" v="Garavike" />
		<tag k="historic" v="shieling" />
		<tag k="name" v="Garaviki" />
		<tag k="place" v="isolated_dwelling" />
		<tag k="ssr:stedsnr" v="859919" />
	</node>
	<node lat="60.92574444299525" lon="9.609113882699761" id="-47449">
		<tag k="name" v="Hagen" />
		<tag k="place" v="farm" />
		<tag k="ssr:stedsnr" v="859864" />
	</node>
	<node lat="60.99963332900955" lon="9.603633324239656" id="-47454">
		<tag k="name" v="Midtre Rust" />
		<tag k="place" v="farm" />
		<tag k="ssr:stedsnr" v="902225" />
	</node>
	<node lat="60.89060555749076" lon="9.653147221085426" id="-47455">
		<tag k="name" v="Grindaheim" />
		<tag k="place" v="isolated_dwelling" />
		<tag k="ssr:stedsnr" v="902308" />
	</node>
	<node lat="60.89084444129033" lon="9.686152776272655" id="-47466">
		<tag k="name" v="Holo" />
		<tag k="place" v="locality" />
		<tag k="ssr:stedsnr" v="903102" />
	</node>
	<node lat="60.88745277570905" lon="9.637955562784418" id="-47467">
		<tag k="amenity" v="nursing_home" />
		<tag k="name" v="Etnedalsheimen" />
		<tag k="ssr:stedsnr" v="903382" />
	</node>
	<node lat="60.98714166525329" lon="9.685216669376546" id="-47469">
		<tag k="name" v="Grånstølhytta" />
		<tag k="place" v="isolated_dwelling" />
		<tag k="ssr:stedsnr" v="903611" />
	</node>
	<node lat="61.00037221968256" lon="9.550469449557973" id="-47480">
		<tag k="name" v="Nedre Lundmoen" />
		<tag k="place" v="farm" />
		<tag k="ssr:stedsnr" v="904608" />
	</node>
	<node lat="61.076872222156695" lon="9.535802771822981" id="-47481">
		<tag k="historic" v="shieling" />
		<tag k="name" v="Kvitebergstølen" />
		<tag k="place" v="isolated_dwelling" />
		<tag k="ssr:stedsnr" v="904804" />
	</node>
	<node lat="60.91173333309483" lon="9.791591666890149" id="-47482">
		<tag k="name" v="Heimen" />
		<tag k="place" v="isolated_dwelling" />
		<tag k="ssr:stedsnr" v="904818" />
	</node>
	<node lat="60.8850499980079" lon="9.703508328501492" id="-47487">
		<tag k="name" v="Øygarden" />
		<tag k="place" v="locality" />
		<tag k="ssr:stedsnr" v="918116" />
	</node>
	<node lat="61.09488055948121" lon="9.635322224730524" id="-47488">
		<tag k="historic" v="shieling" />
		<tag k="name" v="Slaveriet" />
		<tag k="place" v="isolated_dwelling" />
		<tag k="ssr:stedsnr" v="918725" />
	</node>
	<node lat="61.05339444407676" lon="9.560166673722723" id="-47489">
		<tag k="name" v="Skogstad" />
		<tag k="place" v="farm" />
		<tag k="ssr:stedsnr" v="918659" />
	</node>
	<node lat="61.05299722221982" lon="9.517619443657" id="-47490">
		<tag k="alt_name" v="Ringvøll" />
		<tag k="name" v="Ringvoll" />
		<tag k="place" v="farm" />
		<tag k="ssr:stedsnr" v="918662" />
	</node>
	<node lat="60.86523055639068" lon="9.714005563031954" id="-47492">
		<tag k="name" v="Lundejordet" />
		<tag k="place" v="farm" />
		<tag k="ssr:stedsnr" v="919016" />
	</node>
	<node lat="61.0846999987945" lon="9.703600006001876" id="-47493">
		<tag k="name" v="Feplassen" />
		<tag k="place" v="isolated_dwelling" />
		<tag k="ssr:stedsnr" v="918751" />
	</node>
	<node lat="60.87413393989607" lon="9.645657898513464" id="-47494">
		<tag k="alt_name" v="Haug, nedre" />
		<tag k="fixme" v="consider place=hamlet" />
		<tag k="name" v="Nedre Haug" />
		<tag k="place" v="farm" />
		<tag k="ssr:stedsnr" v="919104" />
	</node>
	<node lat="60.87980973757113" lon="9.620296764559317" id="-47495">
		<tag k="alt_name" v="Bjødnigarden" />
		<tag k="fixme" v="consider place=hamlet" />
		<tag k="name" v="Bjørnøygarden" />
		<tag k="place" v="farm" />
		<tag k="ssr:stedsnr" v="919099" />
	</node>
	<node lat="60.95543611515434" lon="9.636674993189672" id="-47496">
		<tag k="alt_name" v="Dokki" />
		<tag k="name" v="Dokke" />
		<tag k="place" v="farm" />
		<tag k="ssr:stedsnr" v="919949" />
	</node>
	<node lat="61.079283334954575" lon="9.584369451500722" id="-47498">
		<tag k="name" v="Tussebu" />
		<tag k="place" v="isolated_dwelling" />
		<tag k="ssr:stedsnr" v="962042" />
	</node>
	<node lat="61.0653222240911" lon="9.64742223147074" id="-47502">
		<tag k="historic" v="shieling" />
		<tag k="name" v="Søre Hafsennstølen" />
		<tag k="place" v="isolated_dwelling" />
		<tag k="ssr:stedsnr" v="963297" />
	</node>
	<node lat="60.91812221908835" lon="9.638291669600154" id="-47510">
		<tag k="name" v="Bergli" />
		<tag k="place" v="isolated_dwelling" />
		<tag k="ssr:stedsnr" v="963903" />
	</node>
	<node lat="60.918180554793615" lon="9.639583337477028" id="-47511">
		<tag k="alt_name" v="Søndre Bråten" />
		<tag k="name" v="Søre Bråten" />
		<tag k="place" v="farm" />
		<tag k="ssr:stedsnr" v="963905" />
	</node>
	<node lat="60.914594445981244" lon="9.622841660833323" id="-47512">
		<tag k="name" v="Midtenge" />
		<tag k="place" v="farm" />
		<tag k="ssr:stedsnr" v="963899" />
	</node>
	<node lat="61.04983055881432" lon="9.483105562252213" id="-47516">
		<tag k="name" v="Stølen" />
		<tag k="place" v="locality" />
		<tag k="ssr:stedsnr" v="965211" />
	</node>
	<node lat="61.101786114104094" lon="9.544366673660118" id="-47520">
		<tag k="historic" v="shieling" />
		<tag k="name" v="Stuvelie" />
		<tag k="place" v="isolated_dwelling" />
		<tag k="ssr:stedsnr" v="965701" />
	</node>
	<node lat="61.04668140800158" lon="9.444299944659766" id="-47524">
		<tag k="name" v="Netodden" />
		<tag k="place" v="neighbourhood" />
		<tag k="ssr:stedsnr" v="981666" />
	</node>
	<node lat="60.985862150490156" lon="9.66349884662676" id="-47525">
		<tag k="name" v="Djupedalslie" />
		<tag k="place" v="neighbourhood" />
		<tag k="ssr:stedsnr" v="981667" />
	</node>
	<node lat="61.037526561499206" lon="9.694646211129726" id="-47527">
		<tag k="name" v="Gamlestølen" />
		<tag k="place" v="neighbourhood" />
		<tag k="ssr:stedsnr" v="981669" />
	</node>
	<node lat="60.92348154187249" lon="9.66567879883901" id="-47529">
		<tag k="name" v="Byfelliberget" />
		<tag k="place" v="neighbourhood" />
		<tag k="ssr:stedsnr" v="981672" />
	</node>
	<node lat="61.02756150777799" lon="9.514404121393794" id="-47532">
		<tag k="fixme" v="consider place=hamlet" />
		<tag k="name" v="Ton" />
		<tag k="place" v="farm" />
		<tag k="ssr:stedsnr" v="987138" />
	</node>
	<node lat="60.94206466712552" lon="9.631525332610995" id="-47533">
		<tag k="alt_name" v="Kringli" />
		<tag k="fixme" v="consider place=hamlet" />
		<tag k="name" v="Kringle" />
		<tag k="place" v="farm" />
		<tag k="ssr:stedsnr" v="987140" />
	</node>
	<node lat="60.81790179302315" lon="9.732274899839352" id="-47534">
		<tag k="name" v="Markestad" />
		<tag k="place" v="locality" />
		<tag k="ssr:stedsnr" v="987165" />
	</node>
	<node lat="61.063580554952544" lon="9.425955553280664" id="-47536">
		<tag k="name" v="Solheim" />
		<tag k="place" v="farm" />
		<tag k="ssr:stedsnr" v="7889" />
	</node>
	<node lat="61.042683334639634" lon="9.55562777297431" id="-47538">
		<tag k="alt_name" v="Brenn, nedre;Nedre Brenne;Nedre Brenn;Brenna;Brænna" />
		<tag k="name" v="Nedre Brenna" />
		<tag k="place" v="farm" />
		<tag k="ssr:stedsnr" v="7567" />
	</node>
	<node lat="61.06054444061408" lon="9.399980557673713" id="-47539">
		<tag k="alt_name" v="Bergseng" />
		<tag k="name" v="Stavseng" />
		<tag k="place" v="farm" />
		<tag k="ssr:stedsnr" v="7594" />
	</node>
	<node lat="60.865786110247" lon="9.706716664090315" id="-47542">
		<tag k="name" v="Lofthus" />
		<tag k="place" v="farm" />
		<tag k="ssr:stedsnr" v="8027" />
	</node>
	<node lat="60.86947499898339" lon="9.657955555899397" id="-47543">
		<tag k="alt_name" v="Bergei" />
		<tag k="name" v="Bergeid" />
		<tag k="place" v="farm" />
		<tag k="ssr:stedsnr" v="8029" />
	</node>
	<node lat="60.8598027794669" lon="9.719266662400107" id="-47546">
		<tag k="name" v="Lybekk" />
		<tag k="place" v="farm" />
		<tag k="ssr:stedsnr" v="9009" />
	</node>
	<node lat="60.99081666853859" lon="9.666902773108031" id="-47549">
		<tag k="historic" v="shieling" />
		<tag k="name" v="Killinghusstølen" />
		<tag k="place" v="isolated_dwelling" />
		<tag k="ssr:stedsnr" v="9772" />
	</node>
	<node lat="60.98927499744275" lon="9.751655550701663" id="-47551">
		<tag k="alt_name" v="Blesen, s" />
		<tag k="name" v="Søre Blesen" />
		<tag k="place" v="farm" />
		<tag k="ssr:stedsnr" v="10778" />
	</node>
	<node lat="60.923936114381554" lon="9.631344449548408" id="-47557">
		<tag k="name" v="Knatten" />
		<tag k="place" v="isolated_dwelling" />
		<tag k="ssr:stedsnr" v="53094" />
	</node>
	<node lat="60.92508055906433" lon="9.636291665522606" id="-47558">
		<tag k="name" v="Lykkja" />
		<tag k="place" v="farm" />
		<tag k="ssr:stedsnr" v="53098" />
	</node>
	<node lat="61.039136107906465" lon="9.570950000701567" id="-47562">
		<tag k="name" v="Svingstad" />
		<tag k="place" v="isolated_dwelling" />
		<tag k="ssr:stedsnr" v="53356" />
	</node>
	<node lat="60.90350277585317" lon="9.638719438531815" id="-47564">
		<tag k="name" v="Briskebyen" />
		<tag k="place" v="hamlet" />
		<tag k="ssr:stedsnr" v="53445" />
	</node>
	<node lat="60.911549997364794" lon="9.671461111652393" id="-47565">
		<tag k="name" v="Systogo" />
		<tag k="place" v="farm" />
		<tag k="ssr:stedsnr" v="53530" />
	</node>
	<node lat="60.91691944549939" lon="9.62084165865892" id="-47573">
		<tag k="loc_name" v="Søre Espelie" />
		<tag k="name" v="Søndre Espelien" />
		<tag k="place" v="farm" />
		<tag k="ssr:stedsnr" v="53895" />
	</node>
	<node lat="60.87067222416261" lon="9.624877772128938" id="-47590">
		<tag k="name" v="Bergli" />
		<tag k="place" v="isolated_dwelling" />
		<tag k="ssr:stedsnr" v="54977" />
	</node>
	<node lat="60.87574166422723" lon="9.638680554590435" id="-47595">
		<tag k="name" v="Kvernhullsbakken" />
		<tag k="place" v="isolated_dwelling" />
		<tag k="ssr:stedsnr" v="54939" />
	</node>
	<node lat="60.87791943995965" lon="9.616694453453999" id="-47597">
		<tag k="name" v="Skogheim" />
		<tag k="place" v="isolated_dwelling" />
		<tag k="ssr:stedsnr" v="54958" />
	</node>
	<node lat="60.87695277652372" lon="9.605883333100252" id="-47598">
		<tag k="name" v="Hestekindhaugen" />
		<tag k="place" v="locality" />
		<tag k="ssr:stedsnr" v="54959" />
	</node>
	<node lat="61.044175001882536" lon="9.537341658110082" id="-47599">
		<tag k="name" v="Øvre Fauske" />
		<tag k="place" v="farm" />
		<tag k="ssr:stedsnr" v="55141" />
	</node>
	<node lat="61.043769441537464" lon="9.53329999729514" id="-47600">
		<tag k="name" v="Mattebu" />
		<tag k="place" v="isolated_dwelling" />
		<tag k="ssr:stedsnr" v="55143" />
	</node>
	<node lat="60.826288888497125" lon="9.772230564110057" id="-47603">
		<tag k="name" v="Bekkeli" />
		<tag k="place" v="isolated_dwelling" />
		<tag k="ssr:stedsnr" v="55552" />
	</node>
	<node lat="61.056261108938955" lon="9.617302771015773" id="-47610">
		<tag k="alt_name" v="Elvesætra" />
		<tag k="historic" v="shieling" />
		<tag k="name" v="Elvesætri" />
		<tag k="place" v="isolated_dwelling" />
		<tag k="ssr:stedsnr" v="68645" />
	</node>
	<node lat="61.04927777754864" lon="9.641947218978345" id="-47611">
		<tag k="alt_name" v="Jomfrusletten" />
		<tag k="historic" v="shieling" />
		<tag k="name" v="Jomfruslette" />
		<tag k="place" v="isolated_dwelling" />
		<tag k="ssr:stedsnr" v="68652" />
	</node>
	<node lat="61.04748333411053" lon="9.764050000841632" id="-47612">
		<tag k="historic" v="shieling" />
		<tag k="name" v="Bergsætra" />
		<tag k="place" v="isolated_dwelling" />
		<tag k="ssr:stedsnr" v="68659" />
	</node>
	<node lat="60.87932357805841" lon="9.598317175232943" id="-47616">
		<tag k="fixme" v="consider place=hamlet" />
		<tag k="name" v="Hestekinn" />
		<tag k="place" v="farm" />
		<tag k="ssr:stedsnr" v="69103" />
	</node>
	<node lat="60.87104605016308" lon="9.643071424743647" id="-47618">
		<tag k="alt_name" v="Haug, øvre" />
		<tag k="fixme" v="consider place=hamlet" />
		<tag k="name" v="Øvre Haug" />
		<tag k="place" v="farm" />
		<tag k="ssr:stedsnr" v="69021" />
	</node>
	<node lat="60.87555555756542" lon="9.617238886183337" id="-47619">
		<tag k="alt_name" v="Ruud" />
		<tag k="name" v="Bakkerud" />
		<tag k="place" v="farm" />
		<tag k="ssr:stedsnr" v="69107" />
	</node>
	<node lat="60.90884722104808" lon="9.627099992665308" id="-47623">
		<tag k="alt_name" v="Svei søre;Svee" />
		<tag k="name" v="Søre Svei" />
		<tag k="place" v="farm" />
		<tag k="ssr:stedsnr" v="70899" />
	</node>
	<node lat="60.99706944694009" lon="9.603158342186514" id="-47624">
		<tag k="alt_name" v="Søre Rust" />
		<tag k="name" v="Rust" />
		<tag k="place" v="farm" />
		<tag k="ssr:stedsnr" v="70757" />
	</node>
	<node lat="60.928366667095524" lon="9.642352780298076" id="-47626">
		<tag k="alt_name" v="Rundberg" />
		<tag k="loc_name" v="Nørdre Rundborg" />
		<tag k="name" v="Rundborg" />
		<tag k="place" v="farm" />
		<tag k="ssr:stedsnr" v="70865" />
	</node>
	<node lat="60.926823488619455" lon="9.643540838602512" id="-47627">
		<tag k="loc_name" v="Rundbergsbygde" />
		<tag k="name" v="Rundborgbygdi" />
		<tag k="place" v="locality" />
		<tag k="ssr:stedsnr" v="70867" />
	</node>
	<node lat="60.96988611264019" lon="9.70612500801216" id="-47628">
		<tag k="alt_name" v="Kjerringstølen, nedre;Søre Kjærringstølen" />
		<tag k="name" v="Nedre Kjerringstølen" />
		<tag k="place" v="farm" />
		<tag k="ssr:stedsnr" v="70949" />
	</node>
	<node lat="60.88656666956799" lon="9.639577781871358" id="-47640">
		<tag k="name" v="Blåflat" />
		<tag k="place" v="farm" />
		<tag k="ssr:stedsnr" v="113427" />
	</node>
	<node lat="61.04146666617549" lon="9.56958334059389" id="-47658">
		<tag k="name" v="Lyngstad" />
		<tag k="place" v="isolated_dwelling" />
		<tag k="ssr:stedsnr" v="114363" />
	</node>
	<node lat="60.91918889218216" lon="9.703344440560548" id="-47665">
		<tag k="name" v="Fjellbu" />
		<tag k="place" v="isolated_dwelling" />
		<tag k="ssr:stedsnr" v="114561" />
	</node>
	<node lat="60.91574999919778" lon="9.621372231002475" id="-47670">
		<tag k="name" v="Kølenge" />
		<tag k="place" v="farm" />
		<tag k="ssr:stedsnr" v="114881" />
	</node>
	<node lat="60.866577775928455" lon="9.603219438612546" id="-47671">
		<tag k="name" v="Gåsehuset" />
		<tag k="place" v="locality" />
		<tag k="ssr:stedsnr" v="114799" />
	</node>
	<node lat="60.91075555867859" lon="9.637461106375236" id="-47673">
		<tag k="name" v="Solli" />
		<tag k="place" v="isolated_dwelling" />
		<tag k="ssr:stedsnr" v="114854" />
	</node>
	<node lat="60.946938892050774" lon="9.543050002357855" id="-47689">
		<tag k="historic" v="shieling" />
		<tag k="name" v="Tomastrøe" />
		<tag k="place" v="isolated_dwelling" />
		<tag k="ssr:stedsnr" v="115395" />
	</node>
	<node lat="61.078094445660135" lon="9.497527786224694" id="-47694">
		<tag k="name" v="Beritbue" />
		<tag k="place" v="locality" />
		<tag k="ssr:stedsnr" v="115666" />
	</node>
	<node lat="60.83710277692133" lon="9.752752778007697" id="-47696">
		<tag k="name" v="Solli" />
		<tag k="place" v="isolated_dwelling" />
		<tag k="ssr:stedsnr" v="115490" />
	</node>
	<node lat="60.86618055575995" lon="9.663033341357096" id="-47698">
		<tag k="name" v="Johansvee" />
		<tag k="place" v="farm" />
		<tag k="ssr:stedsnr" v="115842" />
	</node>
	<node lat="61.05376944721534" lon="9.455586102908411" id="-47699">
		<tag k="name" v="Nørdre Steinset" />
		<tag k="place" v="farm" />
		<tag k="ssr:stedsnr" v="117250" />
	</node>
	<node lat="61.05405555858393" lon="9.458480548124712" id="-47700">
		<tag k="name" v="Øvre Steinset" />
		<tag k="place" v="farm" />
		<tag k="ssr:stedsnr" v="117252" />
	</node>
	<node lat="61.05473888991566" lon="9.452913890792443" id="-47701">
		<tag k="name" v="Steinsli" />
		<tag k="place" v="farm" />
		<tag k="ssr:stedsnr" v="117266" />
	</node>
	<node lat="60.90591666895711" lon="9.744069439599528" id="-47704">
		<tag k="alt_name" v="Søresætra" />
		<tag k="historic" v="shieling" />
		<tag k="name" v="Søresætri" />
		<tag k="place" v="isolated_dwelling" />
		<tag k="ssr:stedsnr" v="129097" />
	</node>
	<node lat="60.83898333339983" lon="9.618661107861918" id="-47706">
		<tag k="building" v="industrial" />
		<tag k="industrial" v="factory" />
		<tag k="name" v="Bergåsen" />
		<tag k="ssr:stedsnr" v="129067" />
	</node>
	<node lat="60.88583611502094" lon="9.60304722042286" id="-47707">
		<tag k="alt_name" v="Småland" />
		<tag k="name" v="Smådal" />
		<tag k="place" v="farm" />
		<tag k="ssr:stedsnr" v="129147" />
	</node>
	<node lat="61.00037499933486" lon="9.562930556841467" id="-47708">
		<tag k="alt_name" v="Nørdre Øye" />
		<tag k="name" v="Øyi" />
		<tag k="place" v="farm" />
		<tag k="ssr:stedsnr" v="129481" />
	</node>
	<node lat="61.021288886184706" lon="9.587686109915042" id="-47709">
		<tag k="name" v="Solhaug" />
		<tag k="place" v="farm" />
		<tag k="ssr:stedsnr" v="129533" />
	</node>
	<node lat="60.823758336641134" lon="9.781494444504448" id="-47712">
		<tag k="alt_name" v="Øvre Ruste;Rusta, øvre" />
		<tag k="name" v="Øvre Rusta" />
		<tag k="place" v="farm" />
		<tag k="ssr:stedsnr" v="130173" />
	</node>
	<node lat="60.96949722642153" lon="9.666541659707374" id="-47715">
		<tag k="fixme" v="multiple name tags, choose one and add the other to alt_name" />
		<tag k="historic" v="shieling" />
		<tag k="name" v="Hallin;Bratrudhalle" />
		<tag k="place" v="isolated_dwelling" />
		<tag k="ssr:stedsnr" v="130931" />
	</node>
	<node lat="61.04242499960021" lon="9.569988887162848" id="-47726">
		<tag k="name" v="Fjellheim" />
		<tag k="place" v="isolated_dwelling" />
		<tag k="ssr:stedsnr" v="174388" />
	</node>
	<node lat="60.9046944401622" lon="9.631775005524663" id="-47727">
		<tag k="name" v="Nordre Gøttenbørg" />
		<tag k="place" v="locality" />
		<tag k="ssr:stedsnr" v="174460" />
	</node>
	<node lat="60.88661666354872" lon="9.619350006098358" id="-47729">
		<tag k="name" v="Åseplassen" />
		<tag k="place" v="farm" />
		<tag k="ssr:stedsnr" v="174535" />
	</node>
	<node lat="60.906597223044734" lon="9.637913884137635" id="-47735">
		<tag k="name" v="Torsheim" />
		<tag k="place" v="isolated_dwelling" />
		<tag k="ssr:stedsnr" v="174874" />
	</node>
	<node lat="60.86103055148512" lon="9.697699996312714" id="-47737">
		<tag k="name" v="Øspelund" />
		<tag k="place" v="farm" />
		<tag k="ssr:stedsnr" v="175131" />
	</node>
	<node lat="61.03024722245757" lon="9.665472231275118" id="-47743">
		<tag k="alt_name" v="Nerre Slettatn" />
		<tag k="name" v="Nedre Slettatn" />
		<tag k="place" v="locality" />
		<tag k="ssr:stedsnr" v="175274" />
	</node>
	<node lat="61.03188889123168" lon="9.665711102219221" id="-47744">
		<tag k="historic" v="shieling" />
		<tag k="name" v="Øvre Slettatn" />
		<tag k="place" v="isolated_dwelling" />
		<tag k="ssr:stedsnr" v="175275" />
	</node>
	<node lat="61.00892777538763" lon="9.660866674232606" id="-47746">
		<tag k="historic" v="shieling" />
		<tag k="name" v="Åfetstølen" />
		<tag k="place" v="isolated_dwelling" />
		<tag k="ssr:stedsnr" v="175378" />
	</node>
	<node lat="61.10870555380782" lon="9.693894438806515" id="-47753">
		<tag k="name" v="Vøllstrøe" />
		<tag k="place" v="locality" />
		<tag k="ssr:stedsnr" v="175749" />
	</node>
	<node lat="60.90768400360481" lon="9.784879347664766" id="-47755">
		<tag k="name" v="Nordlihytta" />
		<tag k="place" v="locality" />
		<tag k="ssr:stedsnr" v="175813" />
	</node>
	<node lat="60.866580557202845" lon="9.709294448167707" id="-47758">
		<tag k="name" v="Elvely" />
		<tag k="place" v="isolated_dwelling" />
		<tag k="ssr:stedsnr" v="175827" />
	</node>
	<node lat="61.04090555266251" lon="9.536083334892915" id="-47759">
		<tag k="name" v="Perstølen" />
		<tag k="place" v="locality" />
		<tag k="ssr:stedsnr" v="176150" />
	</node>
	<node lat="61.04944999575326" lon="9.463561118575544" id="-47761">
		<tag k="name" v="Søre Steinset" />
		<tag k="place" v="farm" />
		<tag k="ssr:stedsnr" v="176219" />
	</node>
	<node lat="60.82895277610059" lon="9.760358332161696" id="-47765">
		<tag k="alt_name" v="Søndre Madslangrud" />
		<tag k="name" v="Søre Madslangrud" />
		<tag k="place" v="farm" />
		<tag k="ssr:stedsnr" v="176523" />
	</node>
	<node lat="60.840249996686296" lon="9.688269451414097" id="-47767">
		<tag k="name" v="Åbjørahytta" />
		<tag k="place" v="locality" />
		<tag k="ssr:stedsnr" v="176647" />
	</node>
	<node lat="60.87034444075263" lon="9.763277780806483" id="-47770">
		<tag k="name" v="Sollie" />
		<tag k="place" v="locality" />
		<tag k="ssr:stedsnr" v="176844" />
	</node>
	<node lat="61.04369999827162" lon="9.449222228512479" id="-47771">
		<tag k="name" v="Fjordstrand" />
		<tag k="place" v="locality" />
		<tag k="ssr:stedsnr" v="176944" />
	</node>
	<node lat="61.015725002855454" lon="9.590969448338372" id="-47777">
		<tag k="alt_name" v="Damslette" />
		<tag k="name" v="Sletti" />
		<tag k="place" v="locality" />
		<tag k="ssr:stedsnr" v="190534" />
	</node>
	<node lat="61.023072218590244" lon="9.669299997993704" id="-47779">
		<tag k="historic" v="shieling" />
		<tag k="name" v="Glenna" />
		<tag k="place" v="isolated_dwelling" />
		<tag k="ssr:stedsnr" v="189291" />
	</node>
	<node lat="61.014316669773216" lon="9.639761116574252" id="-47782">
		<tag k="historic" v="shieling" />
		<tag k="name" v="Liastølen" />
		<tag k="place" v="isolated_dwelling" />
		<tag k="ssr:stedsnr" v="189337" />
	</node>
	<node lat="61.05074722293739" lon="9.59104722212083" id="-47783">
		<tag k="historic" v="shieling" />
		<tag k="name" v="Frugeset" />
		<tag k="place" v="isolated_dwelling" />
		<tag k="ssr:stedsnr" v="189570" />
	</node>
	<node lat="60.88630020833473" lon="9.672253975585988" id="-47785">
		<tag k="fixme" v="consider place=hamlet" />
		<tag k="name" v="Kleivgard" />
		<tag k="place" v="farm" />
		<tag k="ssr:stedsnr" v="190110" />
	</node>
	<node lat="60.83940833427568" lon="9.64783332940152" id="-47787">
		<tag k="historic" v="shieling" />
		<tag k="name" v="Meinset" />
		<tag k="place" v="isolated_dwelling" />
		<tag k="ssr:stedsnr" v="190052" />
	</node>
	<node lat="60.981647222194816" lon="9.582133340718851" id="-47788">
		<tag k="name" v="Øygarden" />
		<tag k="place" v="farm" />
		<tag k="ssr:stedsnr" v="191331" />
	</node>
	<node lat="60.997094440061566" lon="9.77528333178469" id="-47793">
		<tag k="alt_name" v="Breidstølen" />
		<tag k="historic" v="shieling" />
		<tag k="name" v="Breistølen" />
		<tag k="place" v="isolated_dwelling" />
		<tag k="ssr:stedsnr" v="191736" />
	</node>
	<node lat="60.95549444540505" lon="9.732875004386141" id="-47795">
		<tag k="alt_name" v="Skånord" />
		<tag k="name" v="Skonnor" />
		<tag k="place" v="farm" />
		<tag k="ssr:stedsnr" v="191952" />
	</node>
	<node lat="60.97953333160996" lon="9.675166673814832" id="-47796">
		<tag k="name" v="Nystølen" />
		<tag k="place" v="farm" />
		<tag k="ssr:stedsnr" v="191976" />
	</node>
	<node lat="60.97845555869458" lon="9.607202786891303" id="-47797">
		<tag k="alt_name" v="Solbjør, vesle;Nedre Veslesolbjør" />
		<tag k="name" v="Vesle Solbjør" />
		<tag k="place" v="farm" />
		<tag k="ssr:stedsnr" v="191991" />
	</node>
	<node lat="60.86434166394441" lon="9.708175005856775" id="-47803">
		<tag k="name" v="Hanserud" />
		<tag k="place" v="locality" />
		<tag k="ssr:stedsnr" v="297842" />
	</node>
	<node lat="60.99271388966431" lon="9.607124992326534" id="-47805">
		<tag k="name" v="Søre Klopp" />
		<tag k="place" v="farm" />
		<tag k="ssr:stedsnr" v="295225" />
	</node>
	<node lat="60.98016944569299" lon="9.603724996331403" id="-47811">
		<tag k="name" v="Øvre Veslesolbjør" />
		<tag k="place" v="locality" />
		<tag k="ssr:stedsnr" v="295666" />
	</node>
	<node lat="60.93590555290314" lon="9.641027782542883" id="-47813">
		<tag k="name" v="Kompen" />
		<tag k="place" v="farm" />
		<tag k="ssr:stedsnr" v="295560" />
	</node>
	<node lat="60.88689166298821" lon="9.684872218924125" id="-47815">
		<tag k="name" v="Brattkinn" />
		<tag k="place" v="locality" />
		<tag k="ssr:stedsnr" v="296008" />
	</node>
	<node lat="60.97984444599744" lon="9.717488888772325" id="-47835">
		<tag k="name" v="Olabu" />
		<tag k="place" v="isolated_dwelling" />
		<tag k="ssr:stedsnr" v="297319" />
	</node>
	<node lat="61.076011111727055" lon="9.523963882024637" id="-47837">
		<tag k="name" v="Nyset" />
		<tag k="place" v="locality" />
		<tag k="ssr:stedsnr" v="297393" />
	</node>
	<node lat="60.93902499711442" lon="9.743272217642886" id="-47862">
		<tag k="name" v="Bergli" />
		<tag k="place" v="farm" />
		<tag k="ssr:stedsnr" v="297459" />
	</node>
	<node lat="60.87449999831722" lon="9.753816658154335" id="-47869">
		<tag k="name" v="Slette" />
		<tag k="place" v="locality" />
		<tag k="ssr:stedsnr" v="297750" />
	</node>
	<node lat="60.854969443608255" lon="9.734694436389775" id="-47871">
		<tag k="name" v="Heia" />
		<tag k="place" v="isolated_dwelling" />
		<tag k="ssr:stedsnr" v="297758" />
	</node>
	<node lat="61.00745277778911" lon="9.627377784597337" id="-47875">
		<tag k="alt_name" v="Høghalle" />
		<tag k="name" v="Rustelii" />
		<tag k="place" v="isolated_dwelling" />
		<tag k="ssr:stedsnr" v="310357" />
	</node>
	<node lat="61.014352773431234" lon="9.598638886454074" id="-47876">
		<tag k="name" v="Lysthaug" />
		<tag k="place" v="farm" />
		<tag k="ssr:stedsnr" v="310369" />
	</node>
	<node lat="61.017847218962316" lon="9.709355557634476" id="-47877">
		<tag k="name" v="Åsli" />
		<tag k="place" v="farm" />
		<tag k="ssr:stedsnr" v="310316" />
	</node>
	<node lat="61.01969444780017" lon="9.642069452694471" id="-47878">
		<tag k="name" v="Langedalstølen" />
		<tag k="place" v="farm" />
		<tag k="ssr:stedsnr" v="310319" />
	</node>
	<node lat="61.0246472189452" lon="9.621186101809414" id="-47879">
		<tag k="alt_name" v="Brendahauglii" />
		<tag k="historic" v="shieling" />
		<tag k="name" v="Brendahauglie" />
		<tag k="place" v="isolated_dwelling" />
		<tag k="ssr:stedsnr" v="310320" />
	</node>
	<node lat="60.840761111392425" lon="9.721261118629842" id="-47881">
		<tag k="name" v="Lii" />
		<tag k="place" v="farm" />
		<tag k="ssr:stedsnr" v="311045" />
	</node>
	<node lat="60.89158163286458" lon="9.611824817040729" id="-47884">
		<tag k="alt_name" v="Fjell, s" />
		<tag k="fixme" v="consider place=hamlet" />
		<tag k="name" v="Søre Fjell" />
		<tag k="place" v="farm" />
		<tag k="ssr:stedsnr" v="312062" />
	</node>
	<node lat="61.06260555546888" lon="9.623819447046651" id="-47888">
		<tag k="alt_name" v="Briskehalle" />
		<tag k="historic" v="shieling" />
		<tag k="name" v="Briskehalli" />
		<tag k="place" v="isolated_dwelling" />
		<tag k="ssr:stedsnr" v="311662" />
	</node>
	<node lat="60.90550555315795" lon="9.642630552974104" id="-47889">
		<tag k="name" v="Øygarden" />
		<tag k="place" v="farm" />
		<tag k="ssr:stedsnr" v="312079" />
	</node>
	<node lat="60.91517222417944" lon="9.690199994490074" id="-47890">
		<tag k="alt_name" v="Øvrigarden" />
		<tag k="name" v="Øvregarden" />
		<tag k="place" v="farm" />
		<tag k="ssr:stedsnr" v="312080" />
	</node>
	<node lat="60.922113885552726" lon="9.719416672217974" id="-47892">
		<tag k="alt_name" v="Bjødndalen" />
		<tag k="historic" v="shieling" />
		<tag k="name" v="Bjørndalen" />
		<tag k="place" v="isolated_dwelling" />
		<tag k="ssr:stedsnr" v="312889" />
	</node>
	<node lat="60.91487222210394" lon="9.632861114023767" id="-47893">
		<tag k="alt_name" v="Brusveen" />
		<tag k="name" v="Brusvei" />
		<tag k="place" v="farm" />
		<tag k="ssr:stedsnr" v="312898" />
	</node>
	<node lat="60.961513893079996" lon="9.570991669616717" id="-47894">
		<tag k="alt_name" v="Halvordshus" />
		<tag k="name" v="Halvorshus" />
		<tag k="place" v="isolated_dwelling" />
		<tag k="ssr:stedsnr" v="313613" />
	</node>
	<node lat="60.939050004233394" lon="9.631933336697072" id="-47896">
		<tag k="alt_name" v="Søre Kringeli;Kringeli, s" />
		<tag k="name" v="Søre Kringle" />
		<tag k="place" v="farm" />
		<tag k="ssr:stedsnr" v="313946" />
	</node>
	<node lat="60.91581389284056" lon="9.790625004247424" id="-47899">
		<tag k="name" v="Søre Stutlie" />
		<tag k="place" v="farm" />
		<tag k="ssr:stedsnr" v="322813" />
	</node>
	<node lat="60.97171944815354" lon="9.668405563062954" id="-47910">
		<tag k="name" v="Fykhalle" />
		<tag k="place" v="locality" />
		<tag k="ssr:stedsnr" v="356544" />
	</node>
	<node lat="61.03927777897229" lon="9.618122228924559" id="-47914">
		<tag k="name" v="Haugalivøllen" />
		<tag k="place" v="locality" />
		<tag k="ssr:stedsnr" v="356935" />
	</node>
	<node lat="61.02802778149823" lon="9.579688883919545" id="-47923">
		<tag k="name" v="Haug" />
		<tag k="place" v="isolated_dwelling" />
		<tag k="ssr:stedsnr" v="357220" />
	</node>
	<node lat="61.020405551129535" lon="9.652705564451779" id="-47930">
		<tag k="name" v="Bjørkeli" />
		<tag k="place" v="isolated_dwelling" />
		<tag k="ssr:stedsnr" v="357270" />
	</node>
	<node lat="61.01619721813964" lon="9.721213887080737" id="-47931">
		<tag k="historic" v="shieling" />
		<tag k="name" v="Øyvatnet" />
		<tag k="place" v="isolated_dwelling" />
		<tag k="ssr:stedsnr" v="357279" />
	</node>
	<node lat="61.011036106766205" lon="9.74040554870603" id="-47937">
		<tag k="historic" v="shieling" />
		<tag k="name" v="Midttrøe" />
		<tag k="place" v="isolated_dwelling" />
		<tag k="ssr:stedsnr" v="357384" />
	</node>
	<node lat="60.92767221924048" lon="9.680838886389633" id="-47948">
		<tag k="name" v="Prillarhaugen" />
		<tag k="place" v="isolated_dwelling" />
		<tag k="ssr:stedsnr" v="357742" />
	</node>
	<node lat="61.07596944217025" lon="9.532394453664923" id="-47957">
		<tag k="historic" v="shieling" />
		<tag k="name" v="Nyset" />
		<tag k="place" v="isolated_dwelling" />
		<tag k="ssr:stedsnr" v="358373" />
	</node>
	<node lat="61.01645277822199" lon="9.530305560003463" id="-47963">
		<tag k="name" v="Bjørgebo" />
		<tag k="place" v="isolated_dwelling" />
		<tag k="ssr:stedsnr" v="360661" />
	</node>
	<node lat="61.02412499801551" lon="9.517369438078653" id="-47964">
		<tag k="name" v="Solhaug" />
		<tag k="place" v="isolated_dwelling" />
		<tag k="ssr:stedsnr" v="360636" />
	</node>
	<node lat="61.05725555777082" lon="9.449080547478669" id="-47965">
		<tag k="name" v="Marke" />
		<tag k="place" v="farm" />
		<tag k="ssr:stedsnr" v="360890" />
	</node>
	<node lat="60.9178527797181" lon="9.615141659456857" id="-47966">
		<tag k="loc_name" v="Øvre Espelie" />
		<tag k="name" v="Øvre Espelien" />
		<tag k="place" v="farm" />
		<tag k="ssr:stedsnr" v="363008" />
	</node>
	<node lat="61.03354166645969" lon="9.469030559607884" id="-47967">
		<tag k="name" v="Elvely" />
		<tag k="place" v="farm" />
		<tag k="ssr:stedsnr" v="371573" />
	</node>
	<node lat="61.057931018162094" lon="9.386304906126533" id="-47968">
		<tag k="fixme" v="consider place=hamlet" />
		<tag k="name" v="Skrindsrud" />
		<tag k="place" v="farm" />
		<tag k="ssr:stedsnr" v="371599" />
	</node>
	<node lat="61.07524722214981" lon="9.596891666745728" id="-47969">
		<tag k="historic" v="shieling" />
		<tag k="name" v="Nystølen" />
		<tag k="place" v="isolated_dwelling" />
		<tag k="ssr:stedsnr" v="371680" />
	</node>
	<node lat="61.070497137793524" lon="9.608458132875572" id="-47970">
		<tag k="historic" v="shieling" />
		<tag k="name" v="Purkestad" />
		<tag k="place" v="isolated_dwelling" />
		<tag k="ssr:stedsnr" v="371682" />
	</node>
	<node lat="61.06334167087856" lon="9.56627222572078" id="-47972">
		<tag k="fixme" v="multiple name tags, choose one and add the other to alt_name" />
		<tag k="historic" v="shieling" />
		<tag k="name" v="Fjellbu;Kattulstølen" />
		<tag k="place" v="isolated_dwelling" />
		<tag k="ssr:stedsnr" v="371888" />
	</node>
	<node lat="61.070441668809565" lon="9.478563886044" id="-47973">
		<tag k="historic" v="shieling" />
		<tag k="name" v="Heimstølen" />
		<tag k="place" v="isolated_dwelling" />
		<tag k="ssr:stedsnr" v="371893" />
	</node>
	<node lat="60.869513888978574" lon="9.624763896150592" id="-47975">
		<tag k="alt_name" v="Berg, øvre;Berg" />
		<tag k="name" v="Øvre Berg" />
		<tag k="place" v="farm" />
		<tag k="ssr:stedsnr" v="372033" />
	</node>
	<node lat="60.888702779842426" lon="9.622391675646005" id="-47976">
		<tag k="alt_name" v="Brøtin" />
		<tag k="name" v="Bråten" />
		<tag k="place" v="farm" />
		<tag k="ssr:stedsnr" v="372130" />
	</node>
	<node lat="61.0434194405936" lon="9.742347217486268" id="-47978">
		<tag k="alt_name" v="Fjellsætra" />
		<tag k="historic" v="shieling" />
		<tag k="name" v="Fjellsætri" />
		<tag k="place" v="isolated_dwelling" />
		<tag k="ssr:stedsnr" v="372673" />
	</node>
	<node lat="60.88226666409214" lon="9.577705552800323" id="-47979">
		<tag k="name" v="Breiset" />
		<tag k="place" v="farm" />
		<tag k="ssr:stedsnr" v="372695" />
	</node>
	<node lat="61.031277776787995" lon="9.561091661200319" id="-47980">
		<tag k="name" v="Øygarden" />
		<tag k="place" v="farm" />
		<tag k="ssr:stedsnr" v="372594" />
	</node>
	<node lat="60.83673611486793" lon="9.72374999639667" id="-47981">
		<tag k="alt_name" v="Liahaugen" />
		<tag k="name" v="Lihaugen" />
		<tag k="place" v="locality" />
		<tag k="ssr:stedsnr" v="373192" />
	</node>
	<node lat="60.995472088866535" lon="9.639502041207177" id="-47984">
		<tag k="fixme" v="consider place=hamlet" />
		<tag k="name" v="Graneim" />
		<tag k="place" v="farm" />
		<tag k="ssr:stedsnr" v="373772" />
	</node>
	<node lat="60.9900555547236" lon="9.620916672611528" id="-47985">
		<tag k="name" v="Haugen" />
		<tag k="place" v="farm" />
		<tag k="ssr:stedsnr" v="373773" />
	</node>
	<node lat="60.99897222277282" lon="9.776883338296146" id="-47986">
		<tag k="alt_name" v="Breivøll" />
		<tag k="name" v="Breivoll" />
		<tag k="place" v="farm" />
		<tag k="ssr:stedsnr" v="373775" />
	</node>
	<node lat="60.959841664798425" lon="9.631113890005853" id="-47988">
		<tag k="alt_name" v="Bakko" />
		<tag k="name" v="Bakkan" />
		<tag k="place" v="farm" />
		<tag k="ssr:stedsnr" v="373965" />
	</node>
	<node lat="60.97962500306793" lon="9.713324994275375" id="-47990">
		<tag k="historic" v="shieling" />
		<tag k="name" v="Veslestølen" />
		<tag k="place" v="isolated_dwelling" />
		<tag k="ssr:stedsnr" v="373985" />
	</node>
	<node lat="60.98285555617242" lon="9.749730558304757" id="-47992">
		<tag k="name" v="Listølen" />
		<tag k="place" v="farm" />
		<tag k="ssr:stedsnr" v="373988" />
	</node>
	<node lat="61.01272777409536" lon="9.539511103269842" id="-47994">
		<tag k="name" v="Øvre Bergene" />
		<tag k="place" v="locality" />
		<tag k="ssr:stedsnr" v="409564" />
	</node>
	<node lat="61.08354999957029" lon="9.56679999710985" id="-48000">
		<tag k="historic" v="shieling" />
		<tag k="name" v="Skaret" />
		<tag k="place" v="isolated_dwelling" />
		<tag k="ssr:stedsnr" v="417433" />
	</node>
	<node lat="60.912402773581604" lon="9.662333324280649" id="-48005">
		<tag k="name" v="Stubbatn" />
		<tag k="place" v="farm" />
		<tag k="ssr:stedsnr" v="417560" />
	</node>
	<node lat="61.03529722301987" lon="9.618822229645373" id="-48010">
		<tag k="historic" v="shieling" />
		<tag k="name" v="Kølhusbrøtalie" />
		<tag k="place" v="isolated_dwelling" />
		<tag k="ssr:stedsnr" v="417944" />
	</node>
	<node lat="60.9562499981831" lon="9.627255555029544" id="-48013">
		<tag k="name" v="Øvre Espeset" />
		<tag k="place" v="farm" />
		<tag k="ssr:stedsnr" v="417877" />
	</node>
	<node lat="60.905133332089456" lon="9.637938894039825" id="-48014">
		<tag k="name" v="Heimdal" />
		<tag k="place" v="isolated_dwelling" />
		<tag k="ssr:stedsnr" v="417883" />
	</node>
	<node lat="60.84995833128143" lon="9.65907222292376" id="-48021">
		<tag k="historic" v="shieling" />
		<tag k="name" v="Tronsætra" />
		<tag k="place" v="isolated_dwelling" />
		<tag k="ssr:stedsnr" v="418125" />
	</node>
	<node lat="60.83139722578078" lon="9.746769447184082" id="-48034">
		<tag k="name" v="Bergli" />
		<tag k="place" v="isolated_dwelling" />
		<tag k="ssr:stedsnr" v="418497" />
	</node>
	<node lat="61.01083332943302" lon="9.71679999984747" id="-48037">
		<tag k="name" v="Solbjørnaustet" />
		<tag k="place" v="locality" />
		<tag k="ssr:stedsnr" v="418383" />
	</node>
	<node lat="60.91751111070482" lon="9.728922215598134" id="-48044">
		<tag k="historic" v="shieling" />
		<tag k="loc_name" v="Langevasslie" />
		<tag k="name" v="Langevasslien" />
		<tag k="place" v="isolated_dwelling" />
		<tag k="ssr:stedsnr" v="418670" />
	</node>
	<node lat="60.873419448494964" lon="9.626863881504812" id="-48052">
		<tag k="name" v="Bergslette" />
		<tag k="place" v="farm" />
		<tag k="ssr:stedsnr" v="418974" />
	</node>
	<node lat="60.872513887539945" lon="9.624766673417017" id="-48053">
		<tag k="name" v="Skogheim" />
		<tag k="place" v="isolated_dwelling" />
		<tag k="ssr:stedsnr" v="418975" />
	</node>
	<node lat="60.8344888869455" lon="9.765622217404164" id="-48058">
		<tag k="name" v="Kristjanslund" />
		<tag k="place" v="farm" />
		<tag k="ssr:stedsnr" v="419618" />
	</node>
	<node lat="61.03733767143737" lon="9.47015865611009" id="-48063">
		<tag k="name" v="Fjordheim" />
		<tag k="place" v="farm" />
		<tag k="ssr:stedsnr" v="421214" />
	</node>
	<node lat="61.02116110957186" lon="9.54067221467351" id="-48064">
		<tag k="name" v="Solbrekken" />
		<tag k="place" v="farm" />
		<tag k="ssr:stedsnr" v="421565" />
	</node>
	<node lat="60.854633337807975" lon="9.625558340881058" id="-48069">
		<tag k="alt_name" v="Tonsåsen rekreasjonshjem" />
		<tag k="amenity" v="nursing_home" />
		<tag k="name" v="Tonsåsen" />
		<tag k="ssr:stedsnr" v="433020" />
	</node>
	<node lat="61.00453333152371" lon="9.678083328748807" id="-48072">
		<tag k="alt_name" v="Haugalii" />
		<tag k="name" v="Haugalie" />
		<tag k="place" v="farm" />
		<tag k="ssr:stedsnr" v="432318" />
	</node>
	<node lat="61.02663055613388" lon="9.514949992391276" id="-48073">
		<tag k="alt_name" v="Ton" />
		<tag k="name" v="Nedre Ton" />
		<tag k="place" v="farm" />
		<tag k="ssr:stedsnr" v="432563" />
	</node>
	<node lat="61.05536110776676" lon="9.451530551436472" id="-48074">
		<tag k="name" v="Kviteberg" />
		<tag k="place" v="farm" />
		<tag k="ssr:stedsnr" v="432568" />
	</node>
	<node lat="61.050702782203366" lon="9.56180556114705" id="-48075">
		<tag k="name" v="Nytun" />
		<tag k="place" v="farm" />
		<tag k="ssr:stedsnr" v="432588" />
	</node>
	<node lat="61.05234721907676" lon="9.563444452213208" id="-48076">
		<tag k="name" v="Nybrenn" />
		<tag k="place" v="farm" />
		<tag k="ssr:stedsnr" v="432590" />
	</node>
	<node lat="61.05280277465818" lon="9.551027777191608" id="-48077">
		<tag k="name" v="Berget" />
		<tag k="place" v="farm" />
		<tag k="ssr:stedsnr" v="432593" />
	</node>
	<node lat="61.044536107198525" lon="9.539236108797276" id="-48078">
		<tag k="alt_name" v="Nedre Fauske" />
		<tag k="name" v="Fauske" />
		<tag k="place" v="farm" />
		<tag k="ssr:stedsnr" v="432594" />
	</node>
	<node lat="61.05234444373646" lon="9.454400005165022" id="-48080">
		<tag k="fixme" v="consider place=hamlet" />
		<tag k="name" v="Steinsetbygdi" />
		<tag k="place" v="village" />
		<tag k="ssr:stedsnr" v="432572" />
	</node>
	<node lat="60.88560555748213" lon="9.674850003789128" id="-48083">
		<tag k="name" v="Stamperstugu" />
		<tag k="place" v="farm" />
		<tag k="ssr:stedsnr" v="433122" />
	</node>
	<node lat="61.02811944816054" lon="9.679713887237934" id="-48084">
		<tag k="name" v="Granlund" />
		<tag k="place" v="farm" />
		<tag k="ssr:stedsnr" v="433317" />
	</node>
	<node lat="60.99021388602657" lon="9.745763886897109" id="-48087">
		<tag k="alt_name" v="Blesen, midtre;Midt-Blesen" />
		<tag k="historic" v="shieling" />
		<tag k="name" v="Midtre Blesen" />
		<tag k="place" v="isolated_dwelling" />
		<tag k="ssr:stedsnr" v="434737" />
	</node>
	<node lat="60.91634722094462" lon="9.782688883868046" id="-48088">
		<tag k="alt_name" v="Nørdre Stutlie" />
		<tag k="name" v="Stutlii" />
		<tag k="place" v="farm" />
		<tag k="ssr:stedsnr" v="434895" />
	</node>
	<node lat="60.90480277937575" lon="9.57149445009647" id="-48089">
		<tag k="fixme" v="multiple name tags, choose one and add the other to alt_name" />
		<tag k="historic" v="shieling" />
		<tag k="name" v="Tjernsætri;Tjernsli" />
		<tag k="place" v="isolated_dwelling" />
		<tag k="ssr:stedsnr" v="434687" />
	</node>
	<node lat="60.936858334018694" lon="9.640641666162407" id="-48096">
		<tag k="name" v="Øverli" />
		<tag k="place" v="farm" />
		<tag k="ssr:stedsnr" v="495939" />
	</node>
	<node lat="61.0551750038595" lon="9.44632777039849" id="-48097">
		<tag k="name" v="Vestre Kviteberg" />
		<tag k="place" v="farm" />
		<tag k="ssr:stedsnr" v="502957" />
	</node>
	<node lat="60.850276916948204" lon="9.761998614825925" id="-48098">
		<tag k="name" v="Fossehytta" />
		<tag k="place" v="locality" />
		<tag k="ssr:stedsnr" v="540293" />
	</node>
	<node lat="61.07587222218634" lon="9.536488897921444" id="-48099">
		<tag k="historic" v="shieling" />
		<tag k="name" v="Lauvhaugstølen" />
		<tag k="place" v="isolated_dwelling" />
		<tag k="ssr:stedsnr" v="533953" />
	</node>
	<node lat="60.99144166846211" lon="9.608466664058152" id="-48100">
		<tag k="name" v="Heimly" />
		<tag k="place" v="isolated_dwelling" />
		<tag k="ssr:stedsnr" v="537194" />
	</node>
	<node lat="61.11254722413101" lon="9.594149991056042" id="-48102">
		<tag k="name" v="Fjordgløtt" />
		<tag k="place" v="isolated_dwelling" />
		<tag k="ssr:stedsnr" v="537630" />
	</node>
	<node lat="61.082083328920625" lon="9.48461667459137" id="-48118">
		<tag k="historic" v="shieling" />
		<tag k="name" v="Hagasettrøe" />
		<tag k="place" v="isolated_dwelling" />
		<tag k="ssr:stedsnr" v="539497" />
	</node>
	<node lat="61.082388887030866" lon="9.487158334410202" id="-48119">
		<tag k="historic" v="shieling" />
		<tag k="name" v="Nystølen" />
		<tag k="place" v="isolated_dwelling" />
		<tag k="ssr:stedsnr" v="539500" />
	</node>
	<node lat="60.93615556004268" lon="9.719383331111025" id="-48120">
		<tag k="name" v="Gruvedalshytta" />
		<tag k="place" v="isolated_dwelling" />
		<tag k="ssr:stedsnr" v="539370" />
	</node>
	<node lat="60.917319443892474" lon="9.76823611451642" id="-48125">
		<tag k="name" v="Follumshytta" />
		<tag k="place" v="locality" />
		<tag k="ssr:stedsnr" v="539682" />
	</node>
	<node lat="60.90764444003285" lon="9.721838890478267" id="-48128">
		<tag k="name" v="Lundsætra" />
		<tag k="place" v="locality" />
		<tag k="ssr:stedsnr" v="539719" />
	</node>
	<node lat="60.93566111151776" lon="9.672649998794725" id="-48130">
		<tag k="historic" v="shieling" />
		<tag k="name" v="Kristofferdalsætra" />
		<tag k="place" v="isolated_dwelling" />
		<tag k="ssr:stedsnr" v="539735" />
	</node>
	<node lat="60.875747217895956" lon="9.620299996095383" id="-48135">
		<tag k="name" v="Bjørknes" />
		<tag k="place" v="isolated_dwelling" />
		<tag k="ssr:stedsnr" v="539947" />
	</node>
	<node lat="61.030427775805535" lon="9.478850000267206" id="-48137">
		<tag k="historic" v="shieling" />
		<tag k="name" v="Baklie" />
		<tag k="place" v="isolated_dwelling" />
		<tag k="ssr:stedsnr" v="540128" />
	</node>
	<node lat="61.046516670464804" lon="9.537733329449072" id="-48139">
		<tag k="name" v="Trøgdalen" />
		<tag k="place" v="locality" />
		<tag k="ssr:stedsnr" v="540148" />
	</node>
	<node lat="60.82540555845169" lon="9.785155548533133" id="-48147">
		<tag k="name" v="Nedre Ruste" />
		<tag k="place" v="farm" />
		<tag k="ssr:stedsnr" v="540557" />
	</node>
	<node lat="61.02268333776367" lon="9.518919439333526" id="-48154">
		<tag k="name" v="Nedre Hiei" />
		<tag k="place" v="farm" />
		<tag k="ssr:stedsnr" v="542652" />
	</node>
	<node lat="61.013819440063855" lon="9.655416668144353" id="-48156">
		<tag k="alt_name" v="Skålelii" />
		<tag k="name" v="Skålelie" />
		<tag k="place" v="farm" />
		<tag k="ssr:stedsnr" v="553355" />
	</node>
	<node lat="61.022751955489866" lon="9.522181302849711" id="-48158">
		<tag k="alt_name" v="Midtre Hiei" />
		<tag k="fixme" v="consider place=hamlet" />
		<tag k="name" v="Hieim" />
		<tag k="place" v="farm" />
		<tag k="ssr:stedsnr" v="553543" />
	</node>
	<node lat="61.034952779159276" lon="9.700647217757398" id="-48161">
		<tag k="alt_name" v="Graneistølen" />
		<tag k="name" v="Granheimstølen" />
		<tag k="place" v="farm" />
		<tag k="ssr:stedsnr" v="553663" />
	</node>
	<node lat="61.01389166452566" lon="9.517186113107748" id="-48162">
		<tag k="alt_name" v="Søre Brøtin" />
		<tag k="name" v="Bråten" />
		<tag k="place" v="farm" />
		<tag k="ssr:stedsnr" v="554569" />
	</node>
	<node lat="60.9473472219651" lon="9.551430564353158" id="-48165">
		<tag k="historic" v="shieling" />
		<tag k="name" v="Ølslykkja" />
		<tag k="place" v="isolated_dwelling" />
		<tag k="ssr:stedsnr" v="555534" />
	</node>
	<node lat="60.99263604051246" lon="9.626069746743534" id="-48166">
		<tag k="name" v="Graneim" />
		<tag k="place" v="farm" />
		<tag k="ssr:stedsnr" v="555754" />
	</node>
	<node lat="60.99051667089651" lon="9.739633335363193" id="-48167">
		<tag k="alt_name" v="Blesen, nordre" />
		<tag k="historic" v="shieling" />
		<tag k="name" v="Nørdre Blesen" />
		<tag k="place" v="isolated_dwelling" />
		<tag k="ssr:stedsnr" v="555758" />
	</node>
	<node lat="60.91485555322313" lon="9.626536102101676" id="-48168">
		<tag k="name" v="Myreng" />
		<tag k="place" v="farm" />
		<tag k="ssr:stedsnr" v="555880" />
	</node>
	<node lat="60.94398055151532" lon="9.636280563000929" id="-48169">
		<tag k="alt_name" v="Rydningen, nordre;Kringlerødningen" />
		<tag k="name" v="Nordre Rydningen" />
		<tag k="place" v="farm" />
		<tag k="ssr:stedsnr" v="555893" />
	</node>
	<node lat="60.95039236308674" lon="9.78478992214343" id="-48170">
		<tag k="historic" v="shieling" />
		<tag k="name" v="Gjerdlie" />
		<tag k="place" v="isolated_dwelling" />
		<tag k="ssr:stedsnr" v="555900" />
	</node>
	<node lat="60.99576111035435" lon="9.614041661797916" id="-48177">
		<tag k="name" v="Nørdre Berge" />
		<tag k="place" v="farm" />
		<tag k="ssr:stedsnr" v="598209" />
	</node>
	<node lat="60.996330555330125" lon="9.651711105470017" id="-48178">
		<tag k="name" v="Svaberg" />
		<tag k="place" v="locality" />
		<tag k="ssr:stedsnr" v="598220" />
	</node>
	<node lat="61.08396389319151" lon="9.652380559288325" id="-48179">
		<tag k="historic" v="shieling" />
		<tag k="name" v="Midte Ølsjølisætra" />
		<tag k="place" v="isolated_dwelling" />
		<tag k="ssr:stedsnr" v="598242" />
	</node>
	<node lat="61.07778332914696" lon="9.5778361034042" id="-48184">
		<tag k="name" v="Flæbu" />
		<tag k="place" v="isolated_dwelling" />
		<tag k="ssr:stedsnr" v="598364" />
	</node>
	<node lat="60.88456111504948" lon="9.628594440951888" id="-48194">
		<tag k="name" v="Skuggin" />
		<tag k="place" v="farm" />
		<tag k="ssr:stedsnr" v="598432" />
	</node>
	<node lat="61.02581944438488" lon="9.501280554943115" id="-48203">
		<tag k="name" v="Brøtahaugen" />
		<tag k="place" v="farm" />
		<tag k="ssr:stedsnr" v="600092" />
	</node>
	<node lat="60.92300555547969" lon="9.644366671776472" id="-48204">
		<tag k="name" v="Langhaugen" />
		<tag k="place" v="locality" />
		<tag k="ssr:stedsnr" v="599083" />
	</node>
	<node lat="60.92819722058456" lon="9.690997228097723" id="-48207">
		<tag k="historic" v="shieling" />
		<tag k="name" v="Fjellstølen" />
		<tag k="place" v="isolated_dwelling" />
		<tag k="ssr:stedsnr" v="599174" />
	</node>
	<node lat="61.07536667041453" lon="9.597047225042878" id="-48216">
		<tag k="historic" v="shieling" />
		<tag k="name" v="Øvre Nystølen" />
		<tag k="place" v="isolated_dwelling" />
		<tag k="ssr:stedsnr" v="599241" />
	</node>
	<node lat="60.87273055896112" lon="9.632283341053704" id="-48231">
		<tag k="alt_name" v="Mitberg" />
		<tag k="name" v="Midtberg" />
		<tag k="place" v="farm" />
		<tag k="ssr:stedsnr" v="599979" />
	</node>
	<node lat="60.86572499811381" lon="9.657019452700808" id="-48232">
		<tag k="name" v="Sveen" />
		<tag k="place" v="locality" />
		<tag k="ssr:stedsnr" v="599983" />
	</node>
	<node lat="61.02136111140251" lon="9.700238883569124" id="-48233">
		<tag k="name" v="Langvassbu" />
		<tag k="place" v="isolated_dwelling" />
		<tag k="ssr:stedsnr" v="600238" />
	</node>
	<node lat="61.0690888853584" lon="9.514658325096308" id="-48235">
		<tag k="alt_name" v="Sørre Tangen" />
		<tag k="name" v="Søre Tangen" />
		<tag k="place" v="locality" />
		<tag k="ssr:stedsnr" v="600376" />
	</node>
	<node lat="60.93638332901758" lon="9.732177776871882" id="-48239">
		<tag k="name" v="Nedre Bergstølen" />
		<tag k="place" v="farm" />
		<tag k="ssr:stedsnr" v="600388" />
	</node>
	<node lat="60.83851944500774" lon="9.749972222273643" id="-48240">
		<tag k="name" v="Gullhaug" />
		<tag k="place" v="isolated_dwelling" />
		<tag k="ssr:stedsnr" v="600484" />
	</node>
	<node lat="61.07843333456891" lon="9.529044445718464" id="-48246">
		<tag k="historic" v="shieling" />
		<tag k="name" v="Grønbrekktrøe" />
		<tag k="place" v="isolated_dwelling" />
		<tag k="ssr:stedsnr" v="600790" />
	</node>
	<node lat="60.85591666458592" lon="9.735819441121016" id="-48250">
		<tag k="name" v="Øvre Ruse" />
		<tag k="place" v="locality" />
		<tag k="ssr:stedsnr" v="600745" />
	</node>
	<node lat="61.013349998683466" lon="9.52919999215569" id="-48251">
		<tag k="name" v="Nedre Bergene" />
		<tag k="place" v="farm" />
		<tag k="ssr:stedsnr" v="602584" />
	</node>
	<node lat="61.029697222882426" lon="9.513888882759872" id="-48252">
		<tag k="name" v="Skålin" />
		<tag k="place" v="locality" />
		<tag k="ssr:stedsnr" v="602629" />
	</node>
	<node lat="61.03481732723957" lon="9.632249920535122" id="-48253">
		<tag k="alt_name" v="Tjednset;Kjedenset" />
		<tag k="historic" v="shieling" />
		<tag k="name" v="Tjernset" />
		<tag k="place" v="isolated_dwelling" />
		<tag k="ssr:stedsnr" v="614335" />
	</node>
	<node lat="61.06185833644691" lon="9.404499999283463" id="-48254">
		<tag k="name" v="Lieng" />
		<tag k="place" v="farm" />
		<tag k="ssr:stedsnr" v="613887" />
	</node>
	<node lat="60.837869446726785" lon="9.75685554821158" id="-48255">
		<tag k="alt_name" v="Lie" />
		<tag k="name" v="Lii" />
		<tag k="place" v="farm" />
		<tag k="ssr:stedsnr" v="614048" />
	</node>
	<node lat="60.87111944087304" lon="9.70672499522589" id="-48260">
		<tag k="name" v="Fossheim" />
		<tag k="place" v="farm" />
		<tag k="ssr:stedsnr" v="615026" />
	</node>
	<node lat="60.87137979354118" lon="9.676143743865193" id="-48261">
		<tag k="fixme" v="consider place=hamlet" />
		<tag k="name" v="Hovde" />
		<tag k="place" v="farm" />
		<tag k="ssr:stedsnr" v="615028" />
	</node>
	<node lat="60.900244442056724" lon="9.64456944621363" id="-48262">
		<tag k="name" v="Plassen" />
		<tag k="place" v="farm" />
		<tag k="ssr:stedsnr" v="615075" />
	</node>
	<node lat="60.87674722553499" lon="9.661244436339786" id="-48263">
		<tag k="name" v="Turrhaug" />
		<tag k="place" v="farm" />
		<tag k="ssr:stedsnr" v="615082" />
	</node>
	<node lat="60.81893888996288" lon="9.730591664111595" id="-48265">
		<tag k="alt_name" v="Lier" />
		<tag k="name" v="Markestugu" />
		<tag k="place" v="farm" />
		<tag k="ssr:stedsnr" v="615172" />
	</node>
	<node lat="60.8819722205995" lon="9.578355550908459" id="-48267">
		<tag k="name" v="Tetrud" />
		<tag k="place" v="farm" />
		<tag k="ssr:stedsnr" v="615664" />
	</node>
	<node lat="60.97095000395633" lon="9.705094435469748" id="-48269">
		<tag k="alt_name" v="Øvre Kjærringstølen;Kjerringstølen, midtre;Midtre Kjerringstølen" />
		<tag k="name" v="Øvre Kjerringstølen" />
		<tag k="place" v="farm" />
		<tag k="ssr:stedsnr" v="615937" />
	</node>
	<node lat="60.92043331535616" lon="9.640332607671317" id="-48270">
		<tag k="alt_name" v="Brøtin" />
		<tag k="fixme" v="consider place=hamlet" />
		<tag k="name" v="Bråten" />
		<tag k="place" v="farm" />
		<tag k="ssr:stedsnr" v="615878" />
	</node>
	<node lat="60.91913610732975" lon="9.622894439849972" id="-48271">
		<tag k="alt_name" v="Asplund" />
		<tag k="name" v="Ospelund" />
		<tag k="place" v="farm" />
		<tag k="ssr:stedsnr" v="615881" />
	</node>
	<node lat="60.965634038996434" lon="9.752375798839944" id="-48274">
		<tag k="alt_name" v="Juve" />
		<tag k="name" v="Gjuven" />
		<tag k="place" v="farm" />
		<tag k="ssr:stedsnr" v="615948" />
	</node>
	<node lat="60.99559999944239" lon="9.642988892150445" id="-48280">
		<tag k="name" v="Jordet" />
		<tag k="place" v="farm" />
		<tag k="ssr:stedsnr" v="659228" />
	</node>
	<node lat="61.10816667071821" lon="9.630208325182776" id="-48282">
		<tag k="name" v="Brøtahytta" />
		<tag k="place" v="isolated_dwelling" />
		<tag k="ssr:stedsnr" v="658657" />
	</node>
	<node lat="60.97452778108321" lon="9.614241661830443" id="-48283">
		<tag k="building" v="industrial" />
		<tag k="name" v="Kveiten" />
		<tag k="ssr:stedsnr" v="659674" />
	</node>
	<node lat="61.043899998242004" lon="9.56723888629265" id="-48284">
		<tag k="name" v="Treholt" />
		<tag k="place" v="farm" />
		<tag k="ssr:stedsnr" v="659355" />
	</node>
	<node lat="60.885372224620646" lon="9.679899994340968" id="-48291">
		<tag k="name" v="Søre Kleivgard" />
		<tag k="place" v="farm" />
		<tag k="ssr:stedsnr" v="660118" />
	</node>
	<node lat="60.99132777676795" lon="9.739172228611157" id="-48297">
		<tag k="name" v="Tussehaugen" />
		<tag k="place" v="isolated_dwelling" />
		<tag k="ssr:stedsnr" v="660179" />
	</node>
	<node lat="60.918938893022734" lon="9.696383328975125" id="-48302">
		<tag k="name" v="Tovebu" />
		<tag k="place" v="isolated_dwelling" />
		<tag k="ssr:stedsnr" v="660541" />
	</node>
	<node lat="60.994575000309744" lon="9.633891670817377" id="-48323">
		<tag k="name" v="Bakkejordet" />
		<tag k="place" v="farm" />
		<tag k="ssr:stedsnr" v="719208" />
	</node>
	<node lat="61.00605555939684" lon="9.55940832602019" id="-48324">
		<tag k="name" v="Fossheim" />
		<tag k="place" v="isolated_dwelling" />
		<tag k="ssr:stedsnr" v="719337" />
	</node>
	<node lat="61.11279444471418" lon="9.597680564021568" id="-48326">
		<tag k="name" v="Bjørkli" />
		<tag k="place" v="isolated_dwelling" />
		<tag k="ssr:stedsnr" v="719606" />
	</node>
	<node lat="60.88995277635003" lon="9.656211102309356" id="-48329">
		<tag k="name" v="Sørli" />
		<tag k="place" v="isolated_dwelling" />
		<tag k="ssr:stedsnr" v="720295" />
	</node>
	<node lat="61.015383336764145" lon="9.586838890595414" id="-48333">
		<tag k="name" v="Eriksrud" />
		<tag k="place" v="farm" />
		<tag k="ssr:stedsnr" v="720610" />
	</node>
	<node lat="60.98069722183166" lon="9.763261103633896" id="-48337">
		<tag k="name" v="Nørdre Svilosen" />
		<tag k="place" v="farm" />
		<tag k="ssr:stedsnr" v="721153" />
	</node>
	<node lat="61.04356944857557" lon="9.564772230024149" id="-48341">
		<tag k="amenity" v="school" />
		<tag k="name" v="Brusveen skule" />
		<tag k="ssr:stedsnr" v="720361" />
	</node>
	<node lat="60.894183332238455" lon="9.607886106645237" id="-48344">
		<tag k="name" v="Løppelie" />
		<tag k="old_name" v="Løppeliet" />
		<tag k="place" v="locality" />
		<tag k="ssr:stedsnr" v="720384" />
	</node>
	<node lat="60.969261114598304" lon="9.615652782335832" id="-48347">
		<tag k="name" v="Solstrand" />
		<tag k="place" v="farm" />
		<tag k="ssr:stedsnr" v="720688" />
	</node>
	<node lat="60.92806111479593" lon="9.62871388942637" id="-48348">
		<tag k="loc_name" v="Kompelie" />
		<tag k="name" v="Kompelien" />
		<tag k="place" v="farm" />
		<tag k="ssr:stedsnr" v="720713" />
	</node>
	<node lat="60.941247219567465" lon="9.62758888734804" id="-48351">
		<tag k="name" v="Sørmoen" />
		<tag k="place" v="isolated_dwelling" />
		<tag k="ssr:stedsnr" v="720546" />
	</node>
	<node lat="61.08496944663777" lon="9.573238889371435" id="-48354">
		<tag k="name" v="Bakkevøllen" />
		<tag k="place" v="isolated_dwelling" />
		<tag k="ssr:stedsnr" v="720894" />
	</node>
	<node lat="60.89391111264397" lon="9.674555552516038" id="-48361">
		<tag k="historic" v="shieling" />
		<tag k="name" v="Brøtasetra" />
		<tag k="place" v="isolated_dwelling" />
		<tag k="ssr:stedsnr" v="721100" />
	</node>
	<node lat="60.99002500025715" lon="9.753705546539079" id="-48365">
		<tag k="name" v="Persbu" />
		<tag k="place" v="isolated_dwelling" />
		<tag k="ssr:stedsnr" v="721163" />
	</node>
	<node lat="60.89438333471405" lon="9.640527779924996" id="-48371">
		<tag k="name" v="Solheim" />
		<tag k="place" v="isolated_dwelling" />
		<tag k="ssr:stedsnr" v="721366" />
	</node>
	<node lat="60.956611114758466" lon="9.62307223054304" id="-48376">
		<tag k="name" v="Sørli" />
		<tag k="place" v="farm" />
		<tag k="ssr:stedsnr" v="721827" />
	</node>
	<node lat="60.883077779997166" lon="9.655461115913965" id="-48378">
		<tag k="name" v="Furuheim" />
		<tag k="place" v="isolated_dwelling" />
		<tag k="ssr:stedsnr" v="721926" />
	</node>
	<node lat="61.02830277491548" lon="9.4877916729213" id="-48379">
		<tag k="name" v="Kvedne" />
		<tag k="place" v="isolated_dwelling" />
		<tag k="ssr:stedsnr" v="722100" />
	</node>
	<node lat="61.04455277689206" lon="9.467786114045175" id="-48385">
		<tag k="name" v="Nørdre Tollehaug" />
		<tag k="place" v="farm" />
		<tag k="ssr:stedsnr" v="722308" />
	</node>
	<node lat="60.824969447563014" lon="9.735438888890842" id="-48387">
		<tag k="name" v="Brekkehytta" />
		<tag k="place" v="locality" />
		<tag k="ssr:stedsnr" v="722526" />
	</node>
	<node lat="60.83003611036865" lon="9.74780555887076" id="-48388">
		<tag k="name" v="Trondhjem" />
		<tag k="place" v="isolated_dwelling" />
		<tag k="ssr:stedsnr" v="722537" />
	</node>
	<node lat="60.829902775202626" lon="9.749144451112054" id="-48389">
		<tag k="name" v="Smeby" />
		<tag k="place" v="isolated_dwelling" />
		<tag k="ssr:stedsnr" v="722538" />
	</node>
	<node lat="60.82940000340947" lon="9.750972219700857" id="-48390">
		<tag k="name" v="Molde" />
		<tag k="place" v="isolated_dwelling" />
		<tag k="ssr:stedsnr" v="722541" />
	</node>
	<node lat="61.08468611062965" lon="9.504455555254701" id="-48393">
		<tag k="name" v="Geitbergstølen" />
		<tag k="place" v="locality" />
		<tag k="ssr:stedsnr" v="722732" />
	</node>
	<node lat="61.011863888279834" lon="9.701563891607117" id="-48397">
		<tag k="alt_name" v="Øyvastølen" />
		<tag k="historic" v="shieling" />
		<tag k="name" v="Øyvasstølen" />
		<tag k="place" v="isolated_dwelling" />
		<tag k="ssr:stedsnr" v="735364" />
	</node>
	<node lat="61.01763611473352" lon="9.528291674256447" id="-48400">
		<tag k="alt_name" v="Øvre Marke" />
		<tag k="name" v="Marki" />
		<tag k="place" v="farm" />
		<tag k="ssr:stedsnr" v="736530" />
	</node>
	<node lat="61.00016389213846" lon="9.576627768920767" id="-48401">
		<tag k="alt_name" v="Hestkinn, vesle;Veslehestekinn" />
		<tag k="name" v="Vesle Hestkinn" />
		<tag k="place" v="farm" />
		<tag k="ssr:stedsnr" v="736534" />
	</node>
	<node lat="60.96509722472021" lon="9.628613893102141" id="-48407">
		<tag k="alt_name" v="Bratrud" />
		<tag k="name" v="Bratterud" />
		<tag k="place" v="locality" />
		<tag k="ssr:stedsnr" v="737945" />
	</node>
	<node lat="60.92414167061026" lon="9.635369451104337" id="-48411">
		<tag k="name" v="Nereng" />
		<tag k="place" v="isolated_dwelling" />
		<tag k="ssr:stedsnr" v="781114" />
	</node>
	<node lat="61.040769447884976" lon="9.564722227403516" id="-48414">
		<tag k="name" v="Lundbø" />
		<tag k="place" v="farm" />
		<tag k="ssr:stedsnr" v="781334" />
	</node>
	<node lat="60.91573055141373" lon="9.681100003362028" id="-48419">
		<tag k="name" v="Bekkjeløo" />
		<tag k="place" v="farm" />
		<tag k="ssr:stedsnr" v="781544" />
	</node>
	<node lat="60.895413890772375" lon="9.640824991061004" id="-48431">
		<tag k="name" v="Granlund" />
		<tag k="place" v="isolated_dwelling" />
		<tag k="ssr:stedsnr" v="781382" />
	</node>
	<node lat="60.88718611197071" lon="9.620077769732731" id="-48433">
		<tag k="name" v="Fredlund" />
		<tag k="place" v="isolated_dwelling" />
		<tag k="ssr:stedsnr" v="781489" />
	</node>
	<node lat="60.97458611426038" lon="9.63295833647135" id="-48434">
		<tag k="name" v="Lauvhalle" />
		<tag k="place" v="isolated_dwelling" />
		<tag k="ssr:stedsnr" v="781678" />
	</node>
	<node lat="60.90745555940255" lon="9.638705552199319" id="-48439">
		<tag k="name" v="Bergtun" />
		<tag k="place" v="isolated_dwelling" />
		<tag k="ssr:stedsnr" v="781876" />
	</node>
	<node lat="60.91540555797751" lon="9.614522227958567" id="-48440">
		<tag k="name" v="Kvednahuset" />
		<tag k="place" v="locality" />
		<tag k="ssr:stedsnr" v="781884" />
	</node>
	<node lat="61.0284638851989" lon="9.49804722209402" id="-48445">
		<tag k="name" v="Tyrilie" />
		<tag k="place" v="locality" />
		<tag k="ssr:stedsnr" v="782071" />
	</node>
	<node lat="60.93211388650896" lon="9.633941659241565" id="-48459">
		<tag k="name" v="Flatmarken" />
		<tag k="place" v="farm" />
		<tag k="ssr:stedsnr" v="782442" />
	</node>
	<node lat="60.96292222615036" lon="9.717108340067025" id="-48460">
		<tag k="amenity" v="school" />
		<tag k="name" v="Åsvang" />
		<tag k="ssr:stedsnr" v="782609" />
	</node>
	<node lat="61.06292499630896" lon="9.62242778380766" id="-48475">
		<tag k="historic" v="shieling" />
		<tag k="name" v="Åset" />
		<tag k="place" v="isolated_dwelling" />
		<tag k="ssr:stedsnr" v="796630" />
	</node>
	<node lat="61.04237222216629" lon="9.469530550129093" id="-48478">
		<tag k="alt_name" v="Søre Tollehaug" />
		<tag k="name" v="Tollehaugen" />
		<tag k="place" v="farm" />
		<tag k="ssr:stedsnr" v="796577" />
	</node>
	<node lat="61.056533337742415" lon="9.436808327679227" id="-48479">
		<tag k="name" v="Lauvhaug" />
		<tag k="place" v="farm" />
		<tag k="ssr:stedsnr" v="796593" />
	</node>
	<node lat="61.05713055541294" lon="9.432869437302456" id="-48480">
		<tag k="name" v="Tomasset" />
		<tag k="place" v="farm" />
		<tag k="ssr:stedsnr" v="796594" />
	</node>
	<node lat="61.05437500337045" lon="9.566019440566523" id="-48481">
		<tag k="alt_name" v="Brenn, øvre;Øvre Brenne;Øvre Brenn;Brenna øvre" />
		<tag k="name" v="Øvre Brenna" />
		<tag k="place" v="locality" />
		<tag k="ssr:stedsnr" v="796596" />
	</node>
	<node lat="60.901008337599755" lon="9.661008340346575" id="-48485">
		<tag k="alt_name" v="Klatstølen" />
		<tag k="name" v="Klasstølen" />
		<tag k="place" v="farm" />
		<tag k="ssr:stedsnr" v="797090" />
	</node>
	<node lat="61.02733333758772" lon="9.68483611051211" id="-48486">
		<tag k="fixme" v="consider place=hamlet" />
		<tag k="name" v="Bakkebygde" />
		<tag k="place" v="village" />
		<tag k="ssr:stedsnr" v="797325" />
	</node>
	<node lat="61.01165555649131" lon="9.56871666629375" id="-48487">
		<tag k="alt_name" v="Kølhusbrøtin" />
		<tag k="name" v="Kolhusbråten" />
		<tag k="place" v="farm" />
		<tag k="ssr:stedsnr" v="797538" />
	</node>
	<node lat="60.922050002585834" lon="9.568552785103313" id="-48488">
		<tag k="historic" v="shieling" />
		<tag k="name" v="Tobakkhuset" />
		<tag k="place" v="isolated_dwelling" />
		<tag k="ssr:stedsnr" v="798472" />
	</node>
	<node lat="61.0083631868207" lon="9.576907668878833" id="-48489">
		<tag k="fixme" v="consider place=hamlet" />
		<tag k="name" v="Hestkinn" />
		<tag k="place" v="farm" />
		<tag k="ssr:stedsnr" v="797575" />
	</node>
	<node lat="60.91217222357539" lon="9.669297227820792" id="-48492">
		<tag k="alt_name" v="Nordligarden" />
		<tag k="name" v="Nordjordet" />
		<tag k="place" v="farm" />
		<tag k="ssr:stedsnr" v="798080" />
	</node>
	<node lat="60.82581389032413" lon="9.72039999219122" id="-48493">
		<tag k="alt_name" v="Spelmannsslette" />
		<tag k="name" v="Spelemannsslette" />
		<tag k="place" v="isolated_dwelling" />
		<tag k="ssr:stedsnr" v="798179" />
	</node>
	<node lat="60.82591441610013" lon="9.793224512647411" id="-48494">
		<tag k="alt_name" v="Finnstogo" />
		<tag k="fixme" v="consider place=hamlet" />
		<tag k="name" v="Finnstugu" />
		<tag k="place" v="farm" />
		<tag k="ssr:stedsnr" v="798187" />
	</node>
	<node lat="60.995329940855825" lon="9.614223330657286" id="-48495">
		<tag k="name" v="Berget" />
		<tag k="place" v="locality" />
		<tag k="ssr:stedsnr" v="798714" />
	</node>
	<node lat="60.98946666754022" lon="9.610758328398337" id="-48496">
		<tag k="alt_name" v="Beinstien" />
		<tag k="name" v="Bergstigen" />
		<tag k="place" v="farm" />
		<tag k="ssr:stedsnr" v="798716" />
	</node>
	<node lat="60.933722220651134" lon="9.641022225498096" id="-48499">
		<tag k="name" v="Skogli" />
		<tag k="place" v="farm" />
		<tag k="ssr:stedsnr" v="798866" />
	</node>
	<node lat="61.07585555514299" lon="9.536433329687531" id="-48504">
		<tag k="alt_name" v="Lauvhaugtrøe" />
		<tag k="historic" v="shieling" />
		<tag k="name" v="Lauvhaugstølen" />
		<tag k="place" v="isolated_dwelling" />
		<tag k="ssr:stedsnr" v="837951" />
	</node>
	<node lat="61.00820277651961" lon="9.582488883734195" id="-48506">
		<tag k="name" v="Furuhytta" />
		<tag k="place" v="isolated_dwelling" />
		<tag k="ssr:stedsnr" v="841361" />
	</node>
	<node lat="60.90964722519636" lon="9.64931389630762" id="-48513">
		<tag k="alt_name" v="Søndre Urberg" />
		<tag k="name" v="Søre Urdberg" />
		<tag k="place" v="locality" />
		<tag k="ssr:stedsnr" v="842847" />
	</node>
	<node lat="61.08531111271073" lon="9.574894441515045" id="-48515">
		<tag k="name" v="Bergskarstua" />
		<tag k="place" v="isolated_dwelling" />
		<tag k="ssr:stedsnr" v="842856" />
	</node>
	<node lat="61.06437777383417" lon="9.647902785680786" id="-48516">
		<tag k="name" v="Ryggetrøe" />
		<tag k="place" v="locality" />
		<tag k="ssr:stedsnr" v="842251" />
	</node>
	<node lat="60.947783331826834" lon="9.629583332107135" id="-48520">
		<tag k="name" v="Knausen" />
		<tag k="place" v="farm" />
		<tag k="ssr:stedsnr" v="842640" />
	</node>
	<node lat="60.947058330484865" lon="9.623088889600936" id="-48521">
		<tag k="name" v="Flatigardslivegen" />
		<tag k="place" v="farm" />
		<tag k="ssr:stedsnr" v="842643" />
	</node>
	<node lat="61.029016662704585" lon="9.48872778534789" id="-48523">
		<tag k="name" v="Skogtun" />
		<tag k="place" v="isolated_dwelling" />
		<tag k="ssr:stedsnr" v="843086" />
	</node>
	<node lat="60.83443333284846" lon="9.757730551956513" id="-48544">
		<tag k="name" v="Nermoen" />
		<tag k="place" v="farm" />
		<tag k="ssr:stedsnr" v="843597" />
	</node>
	<node lat="61.08268333599872" lon="9.484716663151616" id="-48546">
		<tag k="historic" v="shieling" />
		<tag k="name" v="Fredlund" />
		<tag k="place" v="isolated_dwelling" />
		<tag k="ssr:stedsnr" v="843538" />
	</node>
	<node lat="61.05118889284736" lon="9.521405550277313" id="-48561">
		<tag k="alt_name" v="Sørre Huken" />
		<tag k="name" v="Søre Huken" />
		<tag k="place" v="locality" />
		<tag k="ssr:stedsnr" v="844146" />
	</node>
	<node lat="60.823255556533994" lon="9.748200002069396" id="-48565">
		<tag k="name" v="Saglie" />
		<tag k="place" v="locality" />
		<tag k="ssr:stedsnr" v="844565" />
	</node>
	<node lat="61.10996666507919" lon="9.69501666980634" id="-48572">
		<tag k="name" v="Lenningen fjellstue" />
		<tag k="old_name" v="Leningen Fjellstue;Lenningen Fjellstogo;Lenningen" />
		<tag k="ssr:stedsnr" v="846845" />
		<tag k="tourism" v="guest_house" />
	</node>
	<node lat="61.00789722534072" lon="9.600680549137413" id="-48576">
		<tag k="name" v="Langedal" />
		<tag k="place" v="farm" />
		<tag k="ssr:stedsnr" v="857393" />
	</node>
	<node lat="60.84053889311632" lon="9.750091662545595" id="-48578">
		<tag k="name" v="Bakko" />
		<tag k="place" v="farm" />
		<tag k="ssr:stedsnr" v="858038" />
	</node>
	<node lat="60.82709444560854" lon="9.797316675260188" id="-48581">
		<tag k="alt_name" v="Høljarast" />
		<tag k="name" v="Høljerast" />
		<tag k="place" v="hamlet" />
		<tag k="ssr:stedsnr" v="859186" />
	</node>
	<node lat="60.98181110754956" lon="9.572913881977414" id="-48582">
		<tag k="alt_name" v="Brusvee" />
		<tag k="name" v="Brusvei" />
		<tag k="place" v="farm" />
		<tag k="ssr:stedsnr" v="859328" />
	</node>
	<node lat="60.95614762718888" lon="9.580680472340973" id="-48583">
		<tag k="name" v="Eriksrud" />
		<tag k="place" v="locality" />
		<tag k="ssr:stedsnr" v="859566" />
	</node>
	<node lat="60.89115833372638" lon="9.572669438166347" id="-48584">
		<tag k="alt_name" v="Breiesvee" />
		<tag k="name" v="Breiesvei" />
		<tag k="place" v="isolated_dwelling" />
		<tag k="ssr:stedsnr" v="859692" />
	</node>
	<node lat="60.89342777346675" lon="9.57998333820327" id="-48585">
		<tag k="name" v="Haugen" />
		<tag k="place" v="isolated_dwelling" />
		<tag k="ssr:stedsnr" v="859693" />
	</node>
	<node lat="60.99428055713641" lon="9.606322225285638" id="-48587">
		<tag k="name" v="Klopp" />
		<tag k="place" v="farm" />
		<tag k="ssr:stedsnr" v="859731" />
	</node>
	<node lat="60.92893889180924" lon="9.605983324202782" id="-48588">
		<tag k="alt_name" v="Nordenge" />
		<tag k="name" v="Nordengi" />
		<tag k="place" v="farm" />
		<tag k="ssr:stedsnr" v="859854" />
	</node>
	<node lat="60.962530559699566" lon="9.714027773112697" id="-48589">
		<tag k="alt_name" v="Garastølen, nordre;Garastølen" />
		<tag k="name" v="Nørdre Garastølen" />
		<tag k="place" v="farm" />
		<tag k="ssr:stedsnr" v="859935" />
	</node>
	<node lat="60.949452780773974" lon="9.627788893739332" id="-48590">
		<tag k="name" v="Steinsrud" />
		<tag k="place" v="farm" />
		<tag k="ssr:stedsnr" v="859896" />
	</node>
	<node lat="60.98186944311779" lon="9.62441666092149" id="-48591">
		<tag k="name" v="Venda" />
		<tag k="place" v="locality" />
		<tag k="ssr:stedsnr" v="859966" />
	</node>
	<node lat="60.97812222651046" lon="9.619391663372323" id="-48592">
		<tag k="name" v="Svingen" />
		<tag k="place" v="farm" />
		<tag k="ssr:stedsnr" v="859984" />
	</node>
	<node lat="60.97346944274517" lon="9.729388881208791" id="-48593">
		<tag k="historic" v="shieling" />
		<tag k="name" v="Myrstølen" />
		<tag k="place" v="isolated_dwelling" />
		<tag k="ssr:stedsnr" v="859998" />
	</node>
	<node lat="60.88744167017642" lon="9.666438889735447" id="-48606">
		<tag k="name" v="Sveitn" />
		<tag k="place" v="locality" />
		<tag k="ssr:stedsnr" v="963120" />
	</node>
	<node lat="60.893191663295916" lon="9.59887499353267" id="-48607">
		<tag k="name" v="Storenge" />
		<tag k="place" v="farm" />
		<tag k="ssr:stedsnr" v="963421" />
	</node>
	<node lat="60.94646944797963" lon="9.549888897818494" id="-48620">
		<tag k="historic" v="shieling" />
		<tag k="name" v="Turitrøe" />
		<tag k="place" v="isolated_dwelling" />
		<tag k="ssr:stedsnr" v="964401" />
	</node>
	<node lat="60.878652776404394" lon="9.595119440029992" id="-48624">
		<tag k="name" v="Øvre Hestekind" />
		<tag k="place" v="farm" />
		<tag k="ssr:stedsnr" v="963851" />
	</node>
	<node lat="60.952769440837315" lon="9.614930560671478" id="-48630">
		<tag k="name" v="Espesetlie" />
		<tag k="place" v="locality" />
		<tag k="ssr:stedsnr" v="963927" />
	</node>
	<node lat="61.031602779455156" lon="9.465597229562801" id="-48636">
		<tag k="name" v="Sjåheim" />
		<tag k="place" v="isolated_dwelling" />
		<tag k="ssr:stedsnr" v="964128" />
	</node>
	<node lat="61.07021111236079" lon="9.535502785698181" id="-48649">
		<tag k="name" v="Haldorbue" />
		<tag k="place" v="locality" />
		<tag k="ssr:stedsnr" v="964481" />
	</node>
	<node lat="60.8761916675418" lon="9.767597218125873" id="-48651">
		<tag k="name" v="Krokskålin" />
		<tag k="place" v="locality" />
		<tag k="ssr:stedsnr" v="964732" />
	</node>
	<node lat="60.88105277420126" lon="9.649230549566068" id="-48658">
		<tag k="name" v="Jutulsveen" />
		<tag k="place" v="locality" />
		<tag k="ssr:stedsnr" v="964905" />
	</node>
	<node lat="61.04218055298559" lon="9.737633324885111" id="-48659">
		<tag k="name" v="Grønvoll" />
		<tag k="place" v="farm" />
		<tag k="ssr:stedsnr" v="964908" />
	</node>
	<node lat="61.014375001420184" lon="9.542905551342306" id="-48673">
		<tag k="name" v="Solbrekken" />
		<tag k="place" v="farm" />
		<tag k="ssr:stedsnr" v="967542" />
	</node>
	<node lat="61.058813885440806" lon="9.43656110563175" id="-48676">
		<tag k="name" v="Haugli" />
		<tag k="place" v="farm" />
		<tag k="ssr:stedsnr" v="967878" />
	</node>
	<node lat="61.09055110586939" lon="9.691976496103093" id="-48678">
		<tag k="name" v="Synnfjellfoten" />
		<tag k="place" v="neighbourhood" />
		<tag k="ssr:stedsnr" v="981659" />
	</node>
	<node lat="60.87038919499205" lon="9.62595051584618" id="-48683">
		<tag k="fixme" v="consider place=hamlet" />
		<tag k="name" v="Berg" />
		<tag k="place" v="farm" />
		<tag k="ssr:stedsnr" v="987167" />
	</node>
	<node lat="60.89566782498378" lon="9.597147524027836" id="-48684">
		<tag k="name" v="Fjell" />
		<tag k="place" v="hamlet" />
		<tag k="ssr:stedsnr" v="987168" />
	</node>
	<node lat="60.8897429776072" lon="9.636464142742541" id="-48685">
		<tag k="name" v="Bruflat" />
		<tag k="place" v="locality" />
		<tag k="ssr:stedsnr" v="987169" />
	</node>
	<node lat="60.93735435935869" lon="9.738056598076684" id="-48686">
		<tag k="fixme" v="consider place=hamlet" />
		<tag k="name" v="Bergstølen" />
		<tag k="place" v="farm" />
		<tag k="ssr:stedsnr" v="987170" />
	</node>
	<node lat="61.06762616966471" lon="9.645347203924185" id="-48907">
		<tag k="historic" v="shieling" />
		<tag k="name" v="Nørdre Hafsennstølen" />
		<tag k="place" v="isolated_dwelling" />
		<tag k="ssr:stedsnr" v="1072154" />
	</node>
	<node lat="61.05445901603313" lon="9.56608896771622" id="-48911">
		<tag k="name" v="Øvre Brenna" />
		<tag k="place" v="farm" />
		<tag k="ssr:stedsnr" v="1077957" />
	</node>
	<node lat="60.97052103969963" lon="9.702462768216268" id="-48912">
		<tag k="name" v="Kjerringstølen" />
		<tag k="place" v="locality" />
		<tag k="ssr:stedsnr" v="1080328" />
	</node>
	<node lat="60.87283563324926" lon="9.643186991504118" id="-48913">
		<tag k="name" v="Haug" />
		<tag k="place" v="hamlet" />
		<tag k="ssr:stedsnr" v="1080329" />
	</node>
	<node lat="60.9950096490035" lon="9.614040820086975" id="-48914">
		<tag k="name" v="Søre Berge" />
		<tag k="place" v="farm" />
		<tag k="ssr:stedsnr" v="1080377" />
	</node>
</osm>
