<?xml version="1.0" encoding="UTF-8"?>
<osm generator="osmapis" version="0.6">
	<node id="-337913" lat="60.8701999981" lon="9.66929721827">
		<tag k="alt_name" v="Hovdetoppen" />
		<tag k="fixme" v="consider natural=peak for the most distinct mountains in the district" />
		<tag k="name" v="Hovdeberget" />
		<tag k="natural" v="hill" />
		<tag k="place" v="locality" />
		<tag k="ssr:stedsnr" v="494035" />
	</node>
	<node id="-337912" lat="60.8560749991" lon="9.70765554651">
		<tag k="fixme" v="consider natural=peak for the most distinct mountains in the district" />
		<tag k="name" v="Storstein" />
		<tag k="natural" v="hill" />
		<tag k="place" v="locality" />
		<tag k="ssr:stedsnr" v="494019" />
	</node>
	<node id="-337577" lat="61.0831611097" lon="9.52990277803">
		<tag k="name" v="Nysethøgde" />
		<tag k="natural" v="hill" />
		<tag k="place" v="locality" />
		<tag k="ssr:stedsnr" v="237789" />
	</node>
	<node id="-337907" lat="61.0159777773" lon="9.53917778605">
		<tag k="name" v="Hovdahaugen" />
		<tag k="natural" v="hill" />
		<tag k="place" v="locality" />
		<tag k="ssr:stedsnr" v="493530" />
	</node>
	<node id="-337897" lat="60.8827305577" lon="9.7493694485">
		<tag k="name" v="Beinstigdalen" />
		<tag k="natural" v="valley" />
		<tag k="place" v="locality" />
		<tag k="ssr:stedsnr" v="358756" />
	</node>
	<node id="-337894" lat="61.0620805596" lon="9.45866944377">
		<tag k="name" v="Teimyrberget" />
		<tag k="natural" v="slope" />
		<tag k="place" v="locality" />
		<tag k="ssr:stedsnr" v="358506" />
	</node>
	<node id="-337890" lat="61.0474707918" lon="9.6560317519">
		<tag k="name" v="Astriddalen" />
		<tag k="natural" v="valley" />
		<tag k="place" v="locality" />
		<tag k="ssr:stedsnr" v="357926" />
	</node>
	<node id="-337889" lat="60.9470083294" lon="9.78567500288">
		<tag k="name" v="Gjerdlihøgde" />
		<tag k="natural" v="hill" />
		<tag k="place" v="locality" />
		<tag k="ssr:stedsnr" v="357912" />
	</node>
	<node id="-337884" lat="60.9704277808" lon="9.73872222188">
		<tag k="name" v="Heggeslette" />
		<tag k="place" v="locality" />
		<tag k="ssr:stedsnr" v="357615" />
	</node>
	<node id="-337882" lat="60.9171361093" lon="9.65142222745">
		<tag k="name" v="Ørmura" />
		<tag k="natural" v="cliff" />
		<tag k="ssr:stedsnr" v="356104" />
	</node>
	<node id="-337880" lat="60.9532861107" lon="9.67791666572">
		<tag k="alt_name" v="Storhøgdehaugen;Storehøgahaugen" />
		<tag k="fixme" v="consider natural=peak for the most distinct mountains in the district" />
		<tag k="name" v="Storehøghaugen" />
		<tag k="natural" v="hill" />
		<tag k="place" v="locality" />
		<tag k="ssr:stedsnr" v="494959" />
	</node>
	<node id="-337879" lat="61.0176777794" lon="9.52442499688">
		<tag k="name" v="Bjødnabakkatn" />
		<tag k="natural" v="slope" />
		<tag k="place" v="locality" />
		<tag k="ssr:stedsnr" v="481685" />
	</node>
	<node id="-337877" lat="60.8652055544" lon="9.68729721833">
		<tag k="name" v="Øspelundsvegrettin" />
		<tag k="natural" v="hill" />
		<tag k="place" v="locality" />
		<tag k="ssr:stedsnr" v="479847" />
	</node>
	<node id="-337868" lat="60.8559388853" lon="9.78402777135">
		<tag k="alt_name" v="Kjøotjednsknatten" />
		<tag k="name" v="Kjøetjernsknatten" />
		<tag k="natural" v="hill" />
		<tag k="place" v="locality" />
		<tag k="ssr:stedsnr" v="479580" />
	</node>
	<node id="-337863" lat="61.0370805524" lon="9.67253888579">
		<tag k="name" v="Ølbøgekroken" />
		<tag k="place" v="locality" />
		<tag k="ssr:stedsnr" v="478945" />
	</node>
	<node id="-337859" lat="60.9601916634" lon="9.66483889218">
		<tag k="fixme" v="consider natural=peak for the most distinct mountains in the district" />
		<tag k="name" v="Steinåsen" />
		<tag k="natural" v="hill" />
		<tag k="place" v="locality" />
		<tag k="ssr:stedsnr" v="478823" />
	</node>
	<node id="-337858" lat="60.9111805578" lon="9.57072500275">
		<tag k="name" v="Matlie" />
		<tag k="natural" v="slope" />
		<tag k="place" v="locality" />
		<tag k="ssr:stedsnr" v="478787" />
	</node>
	<node id="-337567" lat="60.9319583356" lon="9.66801667197">
		<tag k="name" v="Skreodalen" />
		<tag k="natural" v="valley" />
		<tag k="place" v="locality" />
		<tag k="ssr:stedsnr" v="54760" />
	</node>
	<node id="-337846" lat="60.8607388859" lon="9.70730554645">
		<tag k="name" v="Lybekkberget" />
		<tag k="natural" v="cliff" />
		<tag k="ssr:stedsnr" v="478151" />
	</node>
	<node id="-337844" lat="60.8986888845" lon="9.75378054637">
		<tag k="name" v="Dalsvassdalen" />
		<tag k="natural" v="valley" />
		<tag k="place" v="locality" />
		<tag k="ssr:stedsnr" v="478134" />
	</node>
	<node id="-337841" lat="60.8407055528" lon="9.66719722576">
		<tag k="fixme" v="consider natural=peak for the most distinct mountains in the district" />
		<tag k="name" v="Midtsæterhøgde" />
		<tag k="natural" v="hill" />
		<tag k="place" v="locality" />
		<tag k="ssr:stedsnr" v="478113" />
	</node>
	<node id="-337832" lat="61.1057694414" lon="9.61843611746">
		<tag k="name" v="Grisedauin" />
		<tag k="place" v="locality" />
		<tag k="ssr:stedsnr" v="477684" />
	</node>
	<node id="-337827" lat="60.9274027761" lon="9.55839722058">
		<tag k="name" v="Øyvasshølet" />
		<tag k="natural" v="valley" />
		<tag k="place" v="locality" />
		<tag k="ssr:stedsnr" v="477400" />
	</node>
	<node id="-337824" lat="60.8978999992" lon="9.58777499643">
		<tag k="name" v="Hestehagaberget" />
		<tag k="natural" v="cliff" />
		<tag k="ssr:stedsnr" v="477248" />
	</node>
	<node id="-337823" lat="60.8837222239" lon="9.64281945327">
		<tag k="name" v="Hovdatn" />
		<tag k="natural" v="ridge" />
		<tag k="place" v="locality" />
		<tag k="ssr:stedsnr" v="477294" />
	</node>
	<node id="-337814" lat="61.0049777819" lon="9.53958333662">
		<tag k="name" v="Skardberget" />
		<tag k="natural" v="cliff" />
		<tag k="ssr:stedsnr" v="297618" />
	</node>
	<node id="-337812" lat="61.0107916684" lon="9.75421667557">
		<tag k="alt_name" v="Gravatjednhaugen" />
		<tag k="name" v="Gravatjernhaugen" />
		<tag k="natural" v="hill" />
		<tag k="place" v="locality" />
		<tag k="ssr:stedsnr" v="296368" />
	</node>
	<node id="-337809" lat="60.8891694424" lon="9.62227222852">
		<tag k="name" v="Brøtaberget" />
		<tag k="natural" v="cliff" />
		<tag k="ssr:stedsnr" v="296443" />
	</node>
	<node id="-337807" lat="60.986894446" lon="9.66619167026">
		<tag k="name" v="Djupedalslie" />
		<tag k="natural" v="slope" />
		<tag k="place" v="locality" />
		<tag k="ssr:stedsnr" v="451635" />
	</node>
	<node id="-337802" lat="60.8188777804" lon="9.72634721444">
		<tag k="name" v="Lierhaugen" />
		<tag k="natural" v="hill" />
		<tag k="place" v="locality" />
		<tag k="ssr:stedsnr" v="297986" />
	</node>
	<node id="-337797" lat="61.0807138896" lon="9.54263334041">
		<tag k="name" v="Høgehøgde" />
		<tag k="natural" v="hill" />
		<tag k="place" v="locality" />
		<tag k="ssr:stedsnr" v="297793" />
	</node>
	<node id="-337795" lat="60.8763777804" lon="9.72759722493">
		<tag k="name" v="Klovoberget" />
		<tag k="natural" v="cliff" />
		<tag k="ssr:stedsnr" v="297777" />
	</node>
	<node id="-337793" lat="60.8520000033" lon="9.73620834088">
		<tag k="name" v="Krutibakkin" />
		<tag k="place" v="locality" />
		<tag k="ssr:stedsnr" v="297755" />
	</node>
	<node id="-339840" lat="61.045579623" lon="9.69508744584">
		<tag k="alt_name" v="Nerre Langetjednhøgde" />
		<tag k="name" v="Nedre Langtjernhøgde" />
		<tag k="natural" v="hill" />
		<tag k="place" v="locality" />
		<tag k="ssr:stedsnr" v="1072151" />
	</node>
	<node id="-337791" lat="60.8815305567" lon="9.74753611071">
		<tag k="name" v="Beinstigdalhøgde" />
		<tag k="natural" v="hill" />
		<tag k="place" v="locality" />
		<tag k="ssr:stedsnr" v="297749" />
	</node>
	<node id="-337790" lat="60.8399583361" lon="9.71460832431">
		<tag k="name" v="Liaberget" />
		<tag k="natural" v="cliff" />
		<tag k="ssr:stedsnr" v="297672" />
	</node>
	<node id="-337788" lat="60.833852782" lon="9.6940916642">
		<tag k="name" v="Hestedalen" />
		<tag k="natural" v="valley" />
		<tag k="place" v="locality" />
		<tag k="ssr:stedsnr" v="297642" />
	</node>
	<node id="-337787" lat="60.953991665" lon="9.73662500175">
		<tag k="name" v="Skoputthøgde" />
		<tag k="natural" v="hill" />
		<tag k="place" v="locality" />
		<tag k="ssr:stedsnr" v="297635" />
	</node>
	<node id="-337786" lat="60.9912472205" lon="9.53811110579">
		<tag k="name" v="Solbrekklie" />
		<tag k="natural" v="slope" />
		<tag k="place" v="locality" />
		<tag k="ssr:stedsnr" v="297634" />
	</node>
	<node id="-337784" lat="60.8213999997" lon="9.79162221955">
		<tag k="name" v="Krokbenddalen" />
		<tag k="natural" v="valley" />
		<tag k="place" v="locality" />
		<tag k="ssr:stedsnr" v="297532" />
	</node>
	<node id="-337779" lat="60.9362583304" lon="9.76448610399">
		<tag k="name" v="Austre Steindavøllhøgde" />
		<tag k="natural" v="hill" />
		<tag k="place" v="locality" />
		<tag k="ssr:stedsnr" v="297388" />
	</node>
	<node id="-337777" lat="60.8459277774" lon="9.75763333673">
		<tag k="alt_name" v="Sørre Sjurukastet" />
		<tag k="name" v="Søre Sjurukastet" />
		<tag k="natural" v="hill" />
		<tag k="place" v="locality" />
		<tag k="ssr:stedsnr" v="297307" />
	</node>
	<node id="-337776" lat="60.8506583292" lon="9.76876943889">
		<tag k="name" v="Nedre Hyttebakkin" />
		<tag k="natural" v="slope" />
		<tag k="place" v="locality" />
		<tag k="ssr:stedsnr" v="297303" />
	</node>
	<node id="-337774" lat="61.0155250008" lon="9.66309167449">
		<tag k="name" v="Robølshaugen" />
		<tag k="natural" v="hill" />
		<tag k="place" v="locality" />
		<tag k="ssr:stedsnr" v="297239" />
	</node>
	<node id="-337771" lat="60.8563027797" lon="9.66308610309">
		<tag k="name" v="Lysengskålin" />
		<tag k="place" v="locality" />
		<tag k="ssr:stedsnr" v="297181" />
	</node>
	<node id="-337767" lat="61.0306527814" lon="9.50776111901">
		<tag k="name" v="Kølskålin" />
		<tag k="place" v="locality" />
		<tag k="ssr:stedsnr" v="297109" />
	</node>
	<node id="-337766" lat="60.9246361132" lon="9.5857416718">
		<tag k="name" v="Heimstøldalen" />
		<tag k="natural" v="valley" />
		<tag k="place" v="locality" />
		<tag k="ssr:stedsnr" v="296957" />
	</node>
	<node id="-337765" lat="60.9254888931" lon="9.57740000199">
		<tag k="alt_name" v="Urdtjednhallitn" />
		<tag k="name" v="Urdtjernhallitn" />
		<tag k="place" v="locality" />
		<tag k="ssr:stedsnr" v="296955" />
	</node>
	<node id="-337764" lat="61.041411113" lon="9.68799721924">
		<tag k="alt_name" v="Øvre Bakketjednhøgde" />
		<tag k="name" v="Øvre Bakketjernhøgde" />
		<tag k="natural" v="hill" />
		<tag k="place" v="locality" />
		<tag k="ssr:stedsnr" v="296946" />
	</node>
	<node id="-339808" lat="60.8526666631" lon="9.76162223106">
		<tag k="name" v="Nordfjellshalle" />
		<tag k="natural" v="slope" />
		<tag k="place" v="locality" />
		<tag k="ssr:stedsnr" v="965313" />
	</node>
	<node id="-339806" lat="61.0423611105" lon="9.69320277111">
		<tag k="name" v="Robølshalle" />
		<tag k="natural" v="slope" />
		<tag k="place" v="locality" />
		<tag k="ssr:stedsnr" v="964931" />
	</node>
	<node id="-339804" lat="61.0674805512" lon="9.43592221799">
		<tag k="name" v="Tøfstølhøvda" />
		<tag k="natural" v="hill" />
		<tag k="place" v="locality" />
		<tag k="ssr:stedsnr" v="964982" />
	</node>
	<node id="-337754" lat="60.9224250035" lon="9.6658249936">
		<tag k="alt_name" v="Damtjednberget" />
		<tag k="name" v="Damtjernberget" />
		<tag k="natural" v="cliff" />
		<tag k="ssr:stedsnr" v="296695" />
	</node>
	<node id="-337752" lat="60.9609472216" lon="9.72705277709">
		<tag k="name" v="Garastølberget" />
		<tag k="natural" v="hill" />
		<tag k="place" v="locality" />
		<tag k="ssr:stedsnr" v="296630" />
	</node>
	<node id="-339798" lat="60.8366777763" lon="9.7708083288">
		<tag k="name" v="Fosseflata" />
		<tag k="place" v="locality" />
		<tag k="ssr:stedsnr" v="964597" />
	</node>
	<node id="-339795" lat="60.8799666683" lon="9.74939721711">
		<tag k="name" v="Håvaldsdalen" />
		<tag k="natural" v="valley" />
		<tag k="place" v="locality" />
		<tag k="ssr:stedsnr" v="964723" />
	</node>
	<node id="-337745" lat="60.9190472235" lon="9.67888332981">
		<tag k="name" v="Haraslette" />
		<tag k="place" v="locality" />
		<tag k="ssr:stedsnr" v="296506" />
	</node>
	<node id="-339792" lat="60.8764916702" lon="9.68356111623">
		<tag k="name" v="Kleivagrettin" />
		<tag k="natural" v="hill" />
		<tag k="place" v="locality" />
		<tag k="ssr:stedsnr" v="964491" />
	</node>
	<node id="-337743" lat="60.9714361111" lon="9.6786888851">
		<tag k="name" v="Nedre Hallaberget" />
		<tag k="natural" v="cliff" />
		<tag k="ssr:stedsnr" v="296497" />
	</node>
	<node id="-337741" lat="60.9045777803" lon="9.61658054852">
		<tag k="name" v="Surtebakkin" />
		<tag k="natural" v="slope" />
		<tag k="place" v="locality" />
		<tag k="ssr:stedsnr" v="296388" />
	</node>
	<node id="-337734" lat="60.9947888922" lon="9.56987499214">
		<tag k="name" v="Kvite Kompen" />
		<tag k="place" v="locality" />
		<tag k="ssr:stedsnr" v="296277" />
	</node>
	<node id="-339781" lat="60.8460472258" lon="9.69728332542">
		<tag k="name" v="Smørhølkleive" />
		<tag k="natural" v="slope" />
		<tag k="place" v="locality" />
		<tag k="ssr:stedsnr" v="964149" />
	</node>
	<node id="-339778" lat="60.8853527781" lon="9.73166944354">
		<tag k="name" v="Selbrennshalle" />
		<tag k="natural" v="slope" />
		<tag k="place" v="locality" />
		<tag k="ssr:stedsnr" v="964080" />
	</node>
	<node id="-337727" lat="60.8532250041" lon="9.63661110551">
		<tag k="alt_name" v="Nøkkeltjednbrenne" />
		<tag k="name" v="Nøkletjernbrenne" />
		<tag k="natural" v="hill" />
		<tag k="place" v="locality" />
		<tag k="ssr:stedsnr" v="296070" />
	</node>
	<node id="-337726" lat="60.9204694473" lon="9.604494447">
		<tag k="name" v="Rennehøgde" />
		<tag k="natural" v="ridge" />
		<tag k="place" v="locality" />
		<tag k="ssr:stedsnr" v="296066" />
	</node>
	<node id="-339773" lat="60.915847226" lon="9.56046388709">
		<tag k="name" v="Tobakkhusskaret" />
		<tag k="natural" v="valley" />
		<tag k="place" v="locality" />
		<tag k="ssr:stedsnr" v="963821" />
	</node>
	<node id="-337723" lat="60.9046055579" lon="9.70217500333">
		<tag k="name" v="Flætangin" />
		<tag k="natural" v="hill" />
		<tag k="place" v="locality" />
		<tag k="ssr:stedsnr" v="296015" />
	</node>
	<node id="-339769" lat="60.9140972252" lon="9.72240833725">
		<tag k="name" v="Kneet" />
		<tag k="place" v="locality" />
		<tag k="ssr:stedsnr" v="963727" />
	</node>
	<node id="-339767" lat="60.9625972216" lon="9.55358332715">
		<tag k="name" v="Bjødnaskaret" />
		<tag k="natural" v="valley" />
		<tag k="place" v="locality" />
		<tag k="ssr:stedsnr" v="963616" />
	</node>
	<node id="-337717" lat="61.0137333319" lon="9.57604167028">
		<tag k="name" v="Pinshaugberget" />
		<tag k="natural" v="hill" />
		<tag k="place" v="locality" />
		<tag k="ssr:stedsnr" v="295605" />
	</node>
	<node id="-339764" lat="60.914183329" lon="9.68169445105">
		<tag k="name" v="Limhusdalen" />
		<tag k="natural" v="valley" />
		<tag k="place" v="locality" />
		<tag k="ssr:stedsnr" v="963594" />
	</node>
	<node id="-339763" lat="60.9661805573" lon="9.56884721348">
		<tag k="name" v="Stallhøgde" />
		<tag k="natural" v="hill" />
		<tag k="place" v="locality" />
		<tag k="ssr:stedsnr" v="963593" />
	</node>
	<node id="-339761" lat="60.9704138931" lon="9.71323055957">
		<tag k="name" v="Øvre Kinnhaugen" />
		<tag k="natural" v="hill" />
		<tag k="place" v="locality" />
		<tag k="ssr:stedsnr" v="963585" />
	</node>
	<node id="-339760" lat="60.9462583304" lon="9.59734167103">
		<tag k="name" v="Langemoen" />
		<tag k="place" v="locality" />
		<tag k="ssr:stedsnr" v="963575" />
	</node>
	<node id="-337710" lat="60.8959694469" lon="9.63147222296">
		<tag k="name" v="Rødningslie" />
		<tag k="natural" v="slope" />
		<tag k="place" v="locality" />
		<tag k="ssr:stedsnr" v="295380" />
	</node>
	<node id="-337709" lat="61.0378111117" lon="9.58680833306">
		<tag k="name" v="Gohauglie" />
		<tag k="natural" v="slope" />
		<tag k="place" v="locality" />
		<tag k="ssr:stedsnr" v="295371" />
	</node>
	<node id="-339756" lat="61.091830556" lon="9.60553611308">
		<tag k="fixme" v="consider natural=peak for the most distinct mountains in the district" />
		<tag k="name" v="Tjuvesteinåsen" />
		<tag k="natural" v="hill" />
		<tag k="place" v="locality" />
		<tag k="ssr:stedsnr" v="963333" />
	</node>
	<node id="-339754" lat="61.0222833309" lon="9.73791110891">
		<tag k="name" v="Blåskreo" />
		<tag k="place" v="locality" />
		<tag k="ssr:stedsnr" v="963277" />
	</node>
	<node id="-339753" lat="60.9039888902" lon="9.58357222776">
		<tag k="name" v="Elgeskaret" />
		<tag k="natural" v="valley" />
		<tag k="place" v="locality" />
		<tag k="ssr:stedsnr" v="963135" />
	</node>
	<node id="-339749" lat="60.8545805575" lon="9.6444611021">
		<tag k="name" v="Bråttgjort" />
		<tag k="natural" v="hill" />
		<tag k="place" v="locality" />
		<tag k="ssr:stedsnr" v="963092" />
	</node>
	<node id="-337699" lat="60.9410793288" lon="9.73275176262">
		<tag k="alt_name" v="Bergstølshøgdi" />
		<tag k="fixme" v="consider natural=peak for the most distinct mountains in the district" />
		<tag k="name" v="Bergstølhøgde" />
		<tag k="natural" v="hill" />
		<tag k="place" v="locality" />
		<tag k="ssr:stedsnr" v="191910" />
	</node>
	<node id="-337697" lat="60.927030556" lon="9.54584721927">
		<tag k="alt_name" v="Stiklingsfjell" />
		<tag k="fixme" v="consider natural=peak for the most distinct mountains in the district" />
		<tag k="name" v="Stiklingfjellet" />
		<tag k="natural" v="hill" />
		<tag k="place" v="locality" />
		<tag k="ssr:stedsnr" v="191502" />
	</node>
	<node id="-337694" lat="61.0599416625" lon="9.70048889408">
		<tag k="fixme" v="consider natural=peak for the most distinct mountains in the district" />
		<tag k="name" v="Bjørnehalli" />
		<tag k="natural" v="hill" />
		<tag k="place" v="locality" />
		<tag k="ssr:stedsnr" v="190633" />
	</node>
	<node id="-337691" lat="61.0226722258" lon="9.54863610795">
		<tag k="name" v="Kveaberget" />
		<tag k="natural" v="cliff" />
		<tag k="ssr:stedsnr" v="178565" />
	</node>
	<node id="-337688" lat="60.9545277743" lon="9.58736111062">
		<tag k="name" v="Kringlelie" />
		<tag k="natural" v="slope" />
		<tag k="place" v="locality" />
		<tag k="ssr:stedsnr" v="174553" />
	</node>
	<node id="-337685" lat="61.0666666659" lon="9.42953610996">
		<tag k="name" v="Hyllebakkatn" />
		<tag k="natural" v="slope" />
		<tag k="place" v="locality" />
		<tag k="ssr:stedsnr" v="268896" />
	</node>
	<node id="-339732" lat="60.8370916652" lon="9.69613055669">
		<tag k="fixme" v="consider natural=peak for the most distinct mountains in the district" />
		<tag k="name" v="Haustsæterfjellet" />
		<tag k="natural" v="hill" />
		<tag k="place" v="locality" />
		<tag k="ssr:stedsnr" v="859183" />
	</node>
	<node id="-337539" lat="60.846322225" lon="9.75602499128">
		<tag k="name" v="Sjururenna" />
		<tag k="place" v="locality" />
		<tag k="ssr:stedsnr" v="237295" />
	</node>
	<node id="-339726" lat="60.8884388852" lon="9.75338332779">
		<tag k="fixme" v="consider natural=peak for the most distinct mountains in the district" />
		<tag k="name" v="Haustsæterfjellet" />
		<tag k="natural" v="hill" />
		<tag k="place" v="locality" />
		<tag k="ssr:stedsnr" v="858115" />
	</node>
	<node id="-339723" lat="61.0893055559" lon="9.55603611604">
		<tag k="alt_name" v="Skardshøgde" />
		<tag k="name" v="Skardshøgdi" />
		<tag k="natural" v="hill" />
		<tag k="place" v="locality" />
		<tag k="ssr:stedsnr" v="857900" />
	</node>
	<node id="-337672" lat="60.8694138901" lon="9.69447776928">
		<tag k="name" v="Molandsveslette" />
		<tag k="place" v="locality" />
		<tag k="ssr:stedsnr" v="115831" />
	</node>
	<node id="-339716" lat="61.0281416647" lon="9.50986667143">
		<tag k="name" v="Holoknatten" />
		<tag k="natural" v="hill" />
		<tag k="place" v="locality" />
		<tag k="ssr:stedsnr" v="854599" />
	</node>
	<node id="-339713" lat="60.8204361091" lon="9.77073056302">
		<tag k="name" v="Sveabakkin" />
		<tag k="natural" v="slope" />
		<tag k="place" v="locality" />
		<tag k="ssr:stedsnr" v="844586" />
	</node>
	<node id="-337664" lat="60.9074944462" lon="9.72806666202">
		<tag k="name" v="Bjødnahaugen" />
		<tag k="natural" v="hill" />
		<tag k="place" v="locality" />
		<tag k="ssr:stedsnr" v="114757" />
	</node>
	<node id="-339711" lat="60.8145027746" lon="9.79639722939">
		<tag k="name" v="Finnstogolie" />
		<tag k="natural" v="slope" />
		<tag k="place" v="locality" />
		<tag k="ssr:stedsnr" v="844549" />
	</node>
	<node id="-337662" lat="60.9512305517" lon="9.66876944632">
		<tag k="name" v="Raunestølberget" />
		<tag k="natural" v="slope" />
		<tag k="place" v="locality" />
		<tag k="ssr:stedsnr" v="114839" />
	</node>
	<node id="-339709" lat="60.8473055561" lon="9.75687500561">
		<tag k="name" v="Norre Sjurukastet" />
		<tag k="natural" v="hill" />
		<tag k="place" v="locality" />
		<tag k="ssr:stedsnr" v="844280" />
	</node>
	<node id="-337660" lat="60.9201111087" lon="9.72280277046">
		<tag k="name" v="Langvassliberget" />
		<tag k="natural" v="hill" />
		<tag k="place" v="locality" />
		<tag k="ssr:stedsnr" v="114716" />
	</node>
	<node id="-337659" lat="60.9184000024" lon="9.72556666863">
		<tag k="name" v="Langvasslie" />
		<tag k="natural" v="slope" />
		<tag k="place" v="locality" />
		<tag k="ssr:stedsnr" v="114715" />
	</node>
	<node id="-337658" lat="60.9267166654" lon="9.74632499962">
		<tag k="name" v="Lunningsløutn" />
		<tag k="place" v="locality" />
		<tag k="ssr:stedsnr" v="114709" />
	</node>
	<node id="-337657" lat="60.9253472265" lon="9.74852499671">
		<tag k="name" v="Nabben" />
		<tag k="place" v="locality" />
		<tag k="ssr:stedsnr" v="114708" />
	</node>
	<node id="-339704" lat="61.0507777756" lon="9.47456388496">
		<tag k="name" v="Trandeberget" />
		<tag k="natural" v="slope" />
		<tag k="place" v="locality" />
		<tag k="ssr:stedsnr" v="844201" />
	</node>
	<node id="-339701" lat="61.048625004" lon="9.68663610851">
		<tag k="alt_name" v="Øvre Langtjednhøgde" />
		<tag k="name" v="Øvre Langtjernhøgde" />
		<tag k="natural" v="hill" />
		<tag k="place" v="locality" />
		<tag k="ssr:stedsnr" v="843926" />
	</node>
	<node id="-337649" lat="60.8857666638" lon="9.662038898">
		<tag k="name" v="Kølbrennarplassen" />
		<tag k="place" v="locality" />
		<tag k="ssr:stedsnr" v="114106" />
	</node>
	<node id="-337648" lat="61.0304833293" lon="9.57710555135">
		<tag k="name" v="Jehanehaugen" />
		<tag k="natural" v="hill" />
		<tag k="place" v="locality" />
		<tag k="ssr:stedsnr" v="114214" />
	</node>
	<node id="-339695" lat="61.1120111075" lon="9.67064165774">
		<tag k="name" v="Tubba" />
		<tag k="natural" v="hill" />
		<tag k="place" v="locality" />
		<tag k="ssr:stedsnr" v="843749" />
	</node>
	<node id="-339693" lat="60.9250416644" lon="9.71922500709">
		<tag k="name" v="Skaret" />
		<tag k="natural" v="valley" />
		<tag k="place" v="locality" />
		<tag k="ssr:stedsnr" v="843709" />
	</node>
	<node id="-339692" lat="60.9530944456" lon="9.73313332872">
		<tag k="name" v="Åkerhaugen" />
		<tag k="natural" v="hill" />
		<tag k="place" v="locality" />
		<tag k="ssr:stedsnr" v="843664" />
	</node>
	<node id="-337642" lat="60.8980222255" lon="9.56521944899">
		<tag k="name" v="Røyliberget" />
		<tag k="natural" v="hill" />
		<tag k="place" v="locality" />
		<tag k="ssr:stedsnr" v="113234" />
	</node>
	<node id="-339689" lat="60.9597138849" lon="9.76200000552">
		<tag k="name" v="Nissehaugen" />
		<tag k="natural" v="hill" />
		<tag k="place" v="locality" />
		<tag k="ssr:stedsnr" v="843636" />
	</node>
	<node id="-339684" lat="60.9505861146" lon="9.68989445241">
		<tag k="name" v="Matvikdalen" />
		<tag k="natural" v="valley" />
		<tag k="place" v="locality" />
		<tag k="ssr:stedsnr" v="843849" />
	</node>
	<node id="-339681" lat="60.9219111106" lon="9.78448611723">
		<tag k="alt_name" v="Pillartjednhøgde" />
		<tag k="name" v="Pillartjernhøgde" />
		<tag k="natural" v="hill" />
		<tag k="place" v="locality" />
		<tag k="ssr:stedsnr" v="843828" />
	</node>
	<node id="-339679" lat="60.935561108" lon="9.52549166715">
		<tag k="name" v="Veslestiklingshøgde" />
		<tag k="natural" v="hill" />
		<tag k="place" v="locality" />
		<tag k="ssr:stedsnr" v="843391" />
	</node>
	<node id="-339678" lat="61.0644277821" lon="9.51532221525">
		<tag k="name" v="Kvitberglie" />
		<tag k="natural" v="slope" />
		<tag k="place" v="locality" />
		<tag k="ssr:stedsnr" v="843387" />
	</node>
	<node id="-337628" lat="60.9880611128" lon="9.73212778122">
		<tag k="name" v="Navarskaftdalen" />
		<tag k="natural" v="valley" />
		<tag k="place" v="locality" />
		<tag k="ssr:stedsnr" v="252763" />
	</node>
	<node id="-339674" lat="60.9231694451" lon="9.70975833859">
		<tag k="name" v="Bergstølknatten" />
		<tag k="natural" v="hill" />
		<tag k="place" v="locality" />
		<tag k="ssr:stedsnr" v="843569" />
	</node>
	<node id="-339665" lat="60.8593082514" lon="9.68386974089">
		<tag k="name" v="Høgberglie" />
		<tag k="natural" v="slope" />
		<tag k="place" v="locality" />
		<tag k="ssr:stedsnr" v="843152" />
	</node>
	<node id="-339664" lat="60.9348527805" lon="9.73428332935">
		<tag k="name" v="Puttemyrhøgde" />
		<tag k="natural" v="hill" />
		<tag k="place" v="locality" />
		<tag k="ssr:stedsnr" v="843363" />
	</node>
	<node id="-339662" lat="60.9487416624" lon="9.51101389372">
		<tag k="name" v="Åsletthøgde" />
		<tag k="natural" v="hill" />
		<tag k="place" v="locality" />
		<tag k="ssr:stedsnr" v="843351" />
	</node>
	<node id="-339660" lat="61.0765611106" lon="9.67358055632">
		<tag k="name" v="Hafsennhalle" />
		<tag k="natural" v="slope" />
		<tag k="place" v="locality" />
		<tag k="ssr:stedsnr" v="843177" />
	</node>
	<node id="-339659" lat="60.8912472198" lon="9.72389999637">
		<tag k="name" v="Veslesæterhøgde" />
		<tag k="natural" v="hill" />
		<tag k="place" v="locality" />
		<tag k="ssr:stedsnr" v="843175" />
	</node>
	<node id="-337610" lat="60.8661710486" lon="9.79008110313">
		<tag k="fixme" v="multiple name tags, choose one and add the other to alt_name; consider natural=peak for the most distinct mountains in the district" />
		<tag k="name" v="Brendahøgde;Stuveåsen" />
		<tag k="natural" v="hill" />
		<tag k="place" v="locality" />
		<tag k="ssr:stedsnr" v="251021" />
	</node>
	<node id="-339657" lat="60.8491361102" lon="9.69355833213">
		<tag k="name" v="Duggurdshølet" />
		<tag k="natural" v="valley" />
		<tag k="place" v="locality" />
		<tag k="ssr:stedsnr" v="843120" />
	</node>
	<node id="-339648" lat="60.8704388927" lon="9.59332777838">
		<tag k="name" v="Rabben" />
		<tag k="natural" v="hill" />
		<tag k="place" v="locality" />
		<tag k="ssr:stedsnr" v="842828" />
	</node>
	<node id="-339646" lat="60.9127250022" lon="9.55961388802">
		<tag k="alt_name" v="Damtjednlie" />
		<tag k="name" v="Damtjernlie" />
		<tag k="natural" v="slope" />
		<tag k="place" v="locality" />
		<tag k="ssr:stedsnr" v="842789" />
	</node>
	<node id="-339638" lat="60.9942055551" lon="9.75761389549">
		<tag k="name" v="Breistøldalen" />
		<tag k="natural" v="valley" />
		<tag k="place" v="locality" />
		<tag k="ssr:stedsnr" v="842477" />
	</node>
	<node id="-337582" lat="61.0602277814" lon="9.44680554831">
		<tag k="name" v="Bergsbakknatten" />
		<tag k="natural" v="hill" />
		<tag k="place" v="locality" />
		<tag k="ssr:stedsnr" v="238900" />
	</node>
	<node id="-339629" lat="60.903808329" lon="9.56902500118">
		<tag k="alt_name" v="Lustjednlie" />
		<tag k="name" v="Lustjernlie" />
		<tag k="natural" v="slope" />
		<tag k="place" v="locality" />
		<tag k="ssr:stedsnr" v="842133" />
	</node>
	<node id="-339627" lat="61.0877500017" lon="9.62616944573">
		<tag k="name" v="Gråurdshøgde" />
		<tag k="natural" v="hill" />
		<tag k="place" v="locality" />
		<tag k="ssr:stedsnr" v="842071" />
	</node>
	<node id="-339625" lat="61.104669442" lon="9.55315277226">
		<tag k="fixme" v="consider natural=peak for the most distinct mountains in the district" />
		<tag k="name" v="Stuvelihøgde" />
		<tag k="natural" v="hill" />
		<tag k="place" v="locality" />
		<tag k="ssr:stedsnr" v="842035" />
	</node>
	<node id="-339623" lat="61.0224833315" lon="9.52857500267">
		<tag k="name" v="Hieisberget" />
		<tag k="natural" v="cliff" />
		<tag k="ssr:stedsnr" v="802732" />
	</node>
	<node id="-339622" lat="61.0254694438" lon="9.53454722027">
		<tag k="name" v="Kløvberget" />
		<tag k="natural" v="hill" />
		<tag k="place" v="locality" />
		<tag k="ssr:stedsnr" v="799599" />
	</node>
	<node id="-337573" lat="60.8557416632" lon="9.77929166493">
		<tag k="name" v="Prostsæterskaret" />
		<tag k="natural" v="valley" />
		<tag k="place" v="locality" />
		<tag k="ssr:stedsnr" v="55611" />
	</node>
	<node id="-339620" lat="60.9762000041" lon="9.66148056423">
		<tag k="alt_name" v="Nystølåsen" />
		<tag k="fixme" v="consider natural=peak for the most distinct mountains in the district" />
		<tag k="name" v="Nystølhaugen" />
		<tag k="natural" v="hill" />
		<tag k="place" v="locality" />
		<tag k="ssr:stedsnr" v="798987" />
	</node>
	<node id="-337571" lat="60.8442027737" lon="9.74957222575">
		<tag k="name" v="Kappersrudokke" />
		<tag k="place" v="locality" />
		<tag k="ssr:stedsnr" v="55211" />
	</node>
	<node id="-337568" lat="60.9294111115" lon="9.68004721827">
		<tag k="name" v="Trøaberget" />
		<tag k="natural" v="cliff" />
		<tag k="ssr:stedsnr" v="54765" />
	</node>
	<node id="-339615" lat="60.933344446" lon="9.68573612015">
		<tag k="alt_name" v="Vardafjellet" />
		<tag k="fixme" v="consider natural=peak for the most distinct mountains in the district" />
		<tag k="name" v="Vardafjell" />
		<tag k="natural" v="hill" />
		<tag k="place" v="locality" />
		<tag k="ssr:stedsnr" v="798859" />
	</node>
	<node id="-337565" lat="60.9321944413" lon="9.66193056278">
		<tag k="name" v="Skreodalsberget" />
		<tag k="natural" v="cliff" />
		<tag k="ssr:stedsnr" v="54756" />
	</node>
	<node id="-337563" lat="60.9631444485" lon="9.69541110818">
		<tag k="name" v="Gjørmehøgde" />
		<tag k="natural" v="hill" />
		<tag k="place" v="locality" />
		<tag k="ssr:stedsnr" v="54821" />
	</node>
	<node id="-339609" lat="60.8499888907" lon="9.7158638806">
		<tag k="alt_name" v="Bakkeberget" />
		<tag k="name" v="Rustbakkberget" />
		<tag k="natural" v="cliff" />
		<tag k="ssr:stedsnr" v="798056" />
	</node>
	<node id="-339608" lat="60.8796472221" lon="9.57135832697">
		<tag k="name" v="Rabben" />
		<tag k="natural" v="ridge" />
		<tag k="place" v="locality" />
		<tag k="ssr:stedsnr" v="797690" />
	</node>
	<node id="-337558" lat="60.8520972224" lon="9.71467778241">
		<tag k="name" v="Røsterenna" />
		<tag k="place" v="locality" />
		<tag k="ssr:stedsnr" v="54170" />
	</node>
	<node id="-337554" lat="61.0223333305" lon="9.46756944019">
		<tag k="name" v="Lauvberget" />
		<tag k="natural" v="hill" />
		<tag k="place" v="locality" />
		<tag k="ssr:stedsnr" v="54115" />
	</node>
	<node id="-339598" lat="61.0465773674" lon="9.69872223038">
		<tag k="name" v="Langtjernhøgdi" />
		<tag k="natural" v="hill" />
		<tag k="place" v="locality" />
		<tag k="ssr:stedsnr" v="796641" />
	</node>
	<node id="-339597" lat="61.0447388869" lon="9.60410000278">
		<tag k="alt_name" v="Gohaugen" />
		<tag k="name" v="Bjørnestølhøgdi" />
		<tag k="natural" v="hill" />
		<tag k="place" v="locality" />
		<tag k="ssr:stedsnr" v="796640" />
	</node>
	<node id="-337546" lat="60.9529361153" lon="9.63335832797">
		<tag k="name" v="Espesetbakkatn" />
		<tag k="natural" v="slope" />
		<tag k="place" v="locality" />
		<tag k="ssr:stedsnr" v="53924" />
	</node>
	<node id="-337544" lat="60.9598166664" lon="9.67517221901">
		<tag k="name" v="Kvilingstein" />
		<tag k="place" v="locality" />
		<tag k="ssr:stedsnr" v="53858" />
	</node>
	<node id="-337543" lat="60.9141138905" lon="9.56471110782">
		<tag k="name" v="Tobakkhusknatten" />
		<tag k="natural" v="hill" />
		<tag k="place" v="locality" />
		<tag k="ssr:stedsnr" v="53820" />
	</node>
	<node id="-337541" lat="60.8429083302" lon="9.77381111686">
		<tag k="name" v="Skardokke" />
		<tag k="place" v="locality" />
		<tag k="ssr:stedsnr" v="237298" />
	</node>
	<node id="-339587" lat="61.0638388848" lon="9.49241388678">
		<tag k="name" v="Kvitberglie" />
		<tag k="natural" v="slope" />
		<tag k="place" v="locality" />
		<tag k="ssr:stedsnr" v="783786" />
	</node>
	<node id="-339586" lat="61.0697694483" lon="9.47341945339">
		<tag k="name" v="Peissteinberget" />
		<tag k="natural" v="hill" />
		<tag k="place" v="locality" />
		<tag k="ssr:stedsnr" v="783784" />
	</node>
	<node id="-339585" lat="60.9495166684" lon="9.53136945132">
		<tag k="name" v="Lushattdalen" />
		<tag k="natural" v="valley" />
		<tag k="place" v="locality" />
		<tag k="ssr:stedsnr" v="783733" />
	</node>
	<node id="-339582" lat="60.9996805529" lon="9.53041388358">
		<tag k="name" v="Lundmolie" />
		<tag k="natural" v="slope" />
		<tag k="place" v="locality" />
		<tag k="ssr:stedsnr" v="783636" />
	</node>
	<node id="-339579" lat="61.0371361082" lon="9.66445000131">
		<tag k="alt_name" v="Kalvetjednhalle" />
		<tag k="name" v="Kalvetjernhalle" />
		<tag k="natural" v="slope" />
		<tag k="place" v="locality" />
		<tag k="ssr:stedsnr" v="782941" />
	</node>
	<node id="-337524" lat="60.8995500008" lon="9.5567666662">
		<tag k="name" v="Kippesjøknatten" />
		<tag k="natural" v="hill" />
		<tag k="place" v="locality" />
		<tag k="ssr:stedsnr" v="53002" />
	</node>
	<node id="-339571" lat="60.8770194423" lon="9.76247777908">
		<tag k="name" v="Gråbeindalen" />
		<tag k="natural" v="valley" />
		<tag k="place" v="locality" />
		<tag k="ssr:stedsnr" v="782716" />
	</node>
	<node id="-337522" lat="61.0469166635" lon="9.50639166335">
		<tag k="name" v="Grånstølhøgde" />
		<tag k="natural" v="hill" />
		<tag k="place" v="locality" />
		<tag k="ssr:stedsnr" v="237206" />
	</node>
	<node id="-339567" lat="61.0655388902" lon="9.45329166593">
		<tag k="name" v="Øvreløohaugen" />
		<tag k="natural" v="hill" />
		<tag k="place" v="locality" />
		<tag k="ssr:stedsnr" v="782462" />
	</node>
	<node id="-339565" lat="60.9258083345" lon="9.53997777278">
		<tag k="name" v="Grauteberget" />
		<tag k="natural" v="hill" />
		<tag k="place" v="locality" />
		<tag k="ssr:stedsnr" v="782383" />
	</node>
	<node id="-339564" lat="60.9969583328" lon="9.66834444774">
		<tag k="name" v="Dansarfeten" />
		<tag k="place" v="locality" />
		<tag k="ssr:stedsnr" v="782378" />
	</node>
	<node id="-337514" lat="61.0515055582" lon="9.67669721942">
		<tag k="name" v="Steinfoten" />
		<tag k="natural" v="hill" />
		<tag k="place" v="locality" />
		<tag k="ssr:stedsnr" v="236949" />
	</node>
	<node id="-337513" lat="61.0431666636" lon="9.73115833402">
		<tag k="name" v="Knarthalle" />
		<tag k="natural" v="slope" />
		<tag k="place" v="locality" />
		<tag k="ssr:stedsnr" v="236942" />
	</node>
	<node id="-337512" lat="61.0440166697" lon="9.75467221762">
		<tag k="name" v="Duggurdshaugen" />
		<tag k="natural" v="hill" />
		<tag k="place" v="locality" />
		<tag k="ssr:stedsnr" v="236900" />
	</node>
	<node id="-339559" lat="61.0263722235" lon="9.64009443888">
		<tag k="name" v="Skildnahaugen" />
		<tag k="natural" v="hill" />
		<tag k="place" v="locality" />
		<tag k="ssr:stedsnr" v="782263" />
	</node>
	<node id="-337509" lat="60.871536111" lon="9.77465000832">
		<tag k="fixme" v="consider natural=peak for the most distinct mountains in the district" />
		<tag k="name" v="Sollihøgde" />
		<tag k="natural" v="hill" />
		<tag k="place" v="locality" />
		<tag k="ssr:stedsnr" v="236873" />
	</node>
	<node id="-337508" lat="60.8714944407" lon="9.7501916641">
		<tag k="name" v="Brennhaugen" />
		<tag k="natural" v="hill" />
		<tag k="place" v="locality" />
		<tag k="ssr:stedsnr" v="236869" />
	</node>
	<node id="-337507" lat="60.8708750013" lon="9.66114166138">
		<tag k="name" v="Bergeishøgde" />
		<tag k="natural" v="hill" />
		<tag k="place" v="locality" />
		<tag k="ssr:stedsnr" v="236858" />
	</node>
	<node id="-339554" lat="60.9799444431" lon="9.76640277912">
		<tag k="name" v="Sviloshalle" />
		<tag k="natural" v="slope" />
		<tag k="place" v="locality" />
		<tag k="ssr:stedsnr" v="782156" />
	</node>
	<node id="-337504" lat="60.9273861139" lon="9.78342221525">
		<tag k="name" v="Stutlisæterhaugen" />
		<tag k="natural" v="hill" />
		<tag k="place" v="locality" />
		<tag k="ssr:stedsnr" v="236791" />
	</node>
	<node id="-337502" lat="60.8616027805" lon="9.72877221445">
		<tag k="name" v="Rekverksbakkin" />
		<tag k="natural" v="slope" />
		<tag k="place" v="locality" />
		<tag k="ssr:stedsnr" v="236744" />
	</node>
	<node id="-339549" lat="60.8515777742" lon="9.68534721349">
		<tag k="name" v="Grønedalen" />
		<tag k="natural" v="valley" />
		<tag k="place" v="locality" />
		<tag k="ssr:stedsnr" v="782135" />
	</node>
	<node id="-337498" lat="60.9700222225" lon="9.71408888633">
		<tag k="name" v="Øvre Kinnhaugen" />
		<tag k="natural" v="hill" />
		<tag k="place" v="locality" />
		<tag k="ssr:stedsnr" v="236638" />
	</node>
	<node id="-337495" lat="60.8532888886" lon="9.77847778039">
		<tag k="name" v="Kølplassen" />
		<tag k="place" v="locality" />
		<tag k="ssr:stedsnr" v="236607" />
	</node>
	<node id="-339542" lat="60.8846833328" lon="9.71218333285">
		<tag k="name" v="Flishøvelen" />
		<tag k="place" v="locality" />
		<tag k="ssr:stedsnr" v="782009" />
	</node>
	<node id="-337493" lat="60.877808335" lon="9.78751111916">
		<tag k="alt_name" v="Sørre Øbbervasslie" />
		<tag k="name" v="Søre Åborvasslie" />
		<tag k="natural" v="slope" />
		<tag k="place" v="locality" />
		<tag k="ssr:stedsnr" v="236600" />
	</node>
	<node id="-339539" lat="61.040436114" lon="9.59655832534">
		<tag k="name" v="Gohauglie" />
		<tag k="natural" v="slope" />
		<tag k="place" v="locality" />
		<tag k="ssr:stedsnr" v="781902" />
	</node>
	<node id="-339538" lat="61.0536583372" lon="9.63458888203">
		<tag k="name" v="Styggdalen" />
		<tag k="natural" v="valley" />
		<tag k="place" v="locality" />
		<tag k="ssr:stedsnr" v="781899" />
	</node>
	<node id="-339534" lat="60.878591668" lon="9.55730556197">
		<tag k="name" v="Samelstadhallitn" />
		<tag k="natural" v="slope" />
		<tag k="place" v="locality" />
		<tag k="ssr:stedsnr" v="781840" />
	</node>
	<node id="-337506" lat="60.8629111155" lon="9.69844166362">
		<tag k="name" v="Fleinskallrenna" />
		<tag k="natural" v="slope" />
		<tag k="place" v="locality" />
		<tag k="ssr:stedsnr" v="236826" />
	</node>
	<node id="-339530" lat="60.9097999986" lon="9.75437500076">
		<tag k="name" v="Bamserudslette" />
		<tag k="place" v="locality" />
		<tag k="ssr:stedsnr" v="781762" />
	</node>
	<node id="-339529" lat="60.9303833321" lon="9.60804166344">
		<tag k="name" v="Skogstadberget" />
		<tag k="natural" v="hill" />
		<tag k="place" v="locality" />
		<tag k="ssr:stedsnr" v="781737" />
	</node>
	<node id="-339527" lat="60.9320194476" lon="9.65351388309">
		<tag k="name" v="Skreodalen" />
		<tag k="natural" v="valley" />
		<tag k="place" v="locality" />
		<tag k="ssr:stedsnr" v="781721" />
	</node>
	<node id="-337478" lat="60.9860277771" lon="9.75599722421">
		<tag k="name" v="Listøllie" />
		<tag k="natural" v="slope" />
		<tag k="place" v="locality" />
		<tag k="ssr:stedsnr" v="236183" />
	</node>
	<node id="-339521" lat="60.9985138852" lon="9.75656943921">
		<tag k="name" v="Duggurdshaugdalen" />
		<tag k="natural" v="valley" />
		<tag k="place" v="locality" />
		<tag k="ssr:stedsnr" v="781476" />
	</node>
	<node id="-339515" lat="61.0421277817" lon="9.56220833824">
		<tag k="name" v="Spelmannshaugen" />
		<tag k="natural" v="hill" />
		<tag k="place" v="locality" />
		<tag k="ssr:stedsnr" v="781332" />
	</node>
	<node id="-339511" lat="60.8965222187" lon="9.57825832544">
		<tag k="name" v="Høgehaugen" />
		<tag k="natural" v="hill" />
		<tag k="place" v="locality" />
		<tag k="ssr:stedsnr" v="781236" />
	</node>
	<node id="-337462" lat="60.8739444465" lon="9.55624722563">
		<tag k="name" v="Pernillehaugen" />
		<tag k="natural" v="hill" />
		<tag k="place" v="locality" />
		<tag k="ssr:stedsnr" v="235835" />
	</node>
	<node id="-339508" lat="60.8585972211" lon="9.64190832441">
		<tag k="fixme" v="consider natural=peak for the most distinct mountains in the district" />
		<tag k="name" v="Haugsåsen" />
		<tag k="natural" v="hill" />
		<tag k="place" v="locality" />
		<tag k="ssr:stedsnr" v="781115" />
	</node>
	<node id="-337459" lat="60.9096111088" lon="9.72994166743">
		<tag k="name" v="Kamben" />
		<tag k="natural" v="ridge" />
		<tag k="place" v="locality" />
		<tag k="ssr:stedsnr" v="235763" />
	</node>
	<node id="-337456" lat="61.0289361075" lon="9.57361666424">
		<tag k="name" v="Tørget" />
		<tag k="place" v="locality" />
		<tag k="ssr:stedsnr" v="235619" />
	</node>
	<node id="-337454" lat="60.9180916636" lon="9.70929443637">
		<tag k="name" v="Hullarhaugen" />
		<tag k="natural" v="hill" />
		<tag k="place" v="locality" />
		<tag k="ssr:stedsnr" v="235574" />
	</node>
	<node id="-339500" lat="60.9593694487" lon="9.68075555416">
		<tag k="alt_name" v="Totjeddenhøgde" />
		<tag k="fixme" v="consider natural=peak for the most distinct mountains in the district" />
		<tag k="name" v="Totjernhøgde" />
		<tag k="natural" v="hill" />
		<tag k="place" v="locality" />
		<tag k="ssr:stedsnr" v="778066" />
	</node>
	<node id="-337449" lat="60.8973416677" lon="9.63363888304">
		<tag k="name" v="Sletta" />
		<tag k="place" v="locality" />
		<tag k="ssr:stedsnr" v="235449" />
	</node>
	<node id="-337445" lat="61.0076694422" lon="9.65543889248">
		<tag k="name" v="Monsebakkin" />
		<tag k="natural" v="slope" />
		<tag k="place" v="locality" />
		<tag k="ssr:stedsnr" v="235408" />
	</node>
	<node id="-339486" lat="60.8588027749" lon="9.70582500657">
		<tag k="alt_name" v="Lybekkskaret" />
		<tag k="name" v="Lybekkskardet" />
		<tag k="natural" v="valley" />
		<tag k="place" v="locality" />
		<tag k="ssr:stedsnr" v="737006" />
	</node>
	<node id="-337437" lat="61.0859805567" lon="9.70466943537">
		<tag k="alt_name" v="Lortetjednhaugen" />
		<tag k="name" v="Lortetjernhaugen" />
		<tag k="natural" v="hill" />
		<tag k="place" v="locality" />
		<tag k="ssr:stedsnr" v="235255" />
	</node>
	<node id="-337436" lat="60.8970861078" lon="9.5684999955">
		<tag k="name" v="Rundehaugen" />
		<tag k="natural" v="hill" />
		<tag k="place" v="locality" />
		<tag k="ssr:stedsnr" v="235247" />
	</node>
	<node id="-337434" lat="60.9001083366" lon="9.57955832548">
		<tag k="name" v="Nedre Skøre" />
		<tag k="place" v="locality" />
		<tag k="ssr:stedsnr" v="235145" />
	</node>
	<node id="-339481" lat="61.0519685706" lon="9.66138986874">
		<tag k="fixme" v="consider natural=peak for the most distinct mountains in the district" />
		<tag k="name" v="Jomfruslettfjellet" />
		<tag k="natural" v="hill" />
		<tag k="place" v="locality" />
		<tag k="ssr:stedsnr" v="736626" />
	</node>
	<node id="-337431" lat="60.8430527779" lon="9.62500000181">
		<tag k="name" v="Stasjonshøgde" />
		<tag k="natural" v="hill" />
		<tag k="place" v="locality" />
		<tag k="ssr:stedsnr" v="235038" />
	</node>
	<node id="-337428" lat="60.998794442" lon="9.65261111935">
		<tag k="name" v="Midthaugen" />
		<tag k="natural" v="hill" />
		<tag k="place" v="locality" />
		<tag k="ssr:stedsnr" v="234211" />
	</node>
	<node id="-339474" lat="60.9282305511" lon="9.71193610722">
		<tag k="alt_name" v="Stakklihødnet" />
		<tag k="fixme" v="consider natural=peak for the most distinct mountains in the district" />
		<tag k="name" v="Stakklihornet" />
		<tag k="natural" v="hill" />
		<tag k="place" v="locality" />
		<tag k="ssr:stedsnr" v="616906" />
	</node>
	<node id="-339472" lat="60.9934583373" lon="9.65172499662">
		<tag k="name" v="Svabergsknatten" />
		<tag k="natural" v="hill" />
		<tag k="place" v="locality" />
		<tag k="ssr:stedsnr" v="616795" />
	</node>
	<node id="-339468" lat="60.9660750039" lon="9.59563889357">
		<tag k="fixme" v="consider natural=peak for the most distinct mountains in the district" />
		<tag k="name" v="Omshovdan" />
		<tag k="natural" v="hill" />
		<tag k="place" v="locality" />
		<tag k="ssr:stedsnr" v="615942" />
	</node>
	<node id="-339466" lat="60.9179500001" lon="9.66856945363">
		<tag k="alt_name" v="Dalahøgde" />
		<tag k="fixme" v="consider natural=peak for the most distinct mountains in the district" />
		<tag k="name" v="Byfelliberget" />
		<tag k="natural" v="hill" />
		<tag k="place" v="locality" />
		<tag k="ssr:stedsnr" v="615891" />
	</node>
	<node id="-337494" lat="60.8220499987" lon="9.71720555364">
		<tag k="name" v="Lierberget" />
		<tag k="natural" v="slope" />
		<tag k="place" v="locality" />
		<tag k="ssr:stedsnr" v="236601" />
	</node>
	<node id="-339456" lat="60.8316861151" lon="9.73936110837">
		<tag k="alt_name" v="Madslangrudberget" />
		<tag k="fixme" v="consider natural=peak for the most distinct mountains in the district" />
		<tag k="name" v="Maslangrudberget" />
		<tag k="natural" v="hill" />
		<tag k="place" v="locality" />
		<tag k="ssr:stedsnr" v="615189" />
	</node>
	<node id="-339451" lat="61.0388999966" lon="9.65808332855">
		<tag k="name" v="Svarteknatten" />
		<tag k="natural" v="hill" />
		<tag k="place" v="locality" />
		<tag k="ssr:stedsnr" v="614671" />
	</node>
	<node id="-339450" lat="61.0573583339" lon="9.7447111064">
		<tag k="name" v="Bergsæterklufta" />
		<tag k="natural" v="valley" />
		<tag k="place" v="locality" />
		<tag k="ssr:stedsnr" v="614660" />
	</node>
	<node id="-339443" lat="60.8431" lon="9.64150278364">
		<tag k="alt_name" v="Haugstølknatten" />
		<tag k="fixme" v="consider natural=peak for the most distinct mountains in the district" />
		<tag k="name" v="Himalaya" />
		<tag k="natural" v="hill" />
		<tag k="place" v="locality" />
		<tag k="ssr:stedsnr" v="614058" />
	</node>
	<node id="-339431" lat="60.8677305533" lon="9.75211110261">
		<tag k="name" v="Bamserudhøgde" />
		<tag k="natural" v="hill" />
		<tag k="place" v="locality" />
		<tag k="ssr:stedsnr" v="600859" />
	</node>
	<node id="-339425" lat="60.8204277813" lon="9.7842444363">
		<tag k="name" v="Rusthovdin" />
		<tag k="natural" v="hill" />
		<tag k="place" v="locality" />
		<tag k="ssr:stedsnr" v="600518" />
	</node>
	<node id="-339420" lat="60.837205559" lon="9.74078055926">
		<tag k="name" v="Plassaberget" />
		<tag k="natural" v="hill" />
		<tag k="place" v="locality" />
		<tag k="ssr:stedsnr" v="600489" />
	</node>
	<node id="-339417" lat="60.8740972261" lon="9.79279722239">
		<tag k="name" v="Åborvasslitoppen" />
		<tag k="natural" v="hill" />
		<tag k="old_name" v="Øbbervasslitoppen" />
		<tag k="place" v="locality" />
		<tag k="ssr:stedsnr" v="600652" />
	</node>
	<node id="-337486" lat="61.0630750024" lon="9.5303999983">
		<tag k="name" v="Storstøllie" />
		<tag k="natural" v="slope" />
		<tag k="place" v="locality" />
		<tag k="ssr:stedsnr" v="236364" />
	</node>
	<node id="-339403" lat="60.9664527774" lon="9.63050554838">
		<tag k="name" v="Flatigardsbakkatn" />
		<tag k="natural" v="slope" />
		<tag k="place" v="locality" />
		<tag k="ssr:stedsnr" v="599859" />
	</node>
	<node id="-339400" lat="60.9168777785" lon="9.71090832966">
		<tag k="name" v="Jonstølberget" />
		<tag k="natural" v="hill" />
		<tag k="place" v="locality" />
		<tag k="ssr:stedsnr" v="599531" />
	</node>
	<node id="-339394" lat="60.8742277778" lon="9.68373333398">
		<tag k="name" v="Rovemyrgrettin" />
		<tag k="natural" v="hill" />
		<tag k="place" v="locality" />
		<tag k="ssr:stedsnr" v="599466" />
	</node>
	<node id="-339393" lat="61.096425" lon="9.63162500892">
		<tag k="name" v="Slaverilie" />
		<tag k="natural" v="slope" />
		<tag k="place" v="locality" />
		<tag k="ssr:stedsnr" v="599295" />
	</node>
	<node id="-339392" lat="61.088775001" lon="9.603975002">
		<tag k="name" v="Gråbeinfeten" />
		<tag k="place" v="locality" />
		<tag k="ssr:stedsnr" v="599293" />
	</node>
	<node id="-339391" lat="61.0903972243" lon="9.60697222055">
		<tag k="name" v="Gråbeindalen" />
		<tag k="natural" v="valley" />
		<tag k="place" v="locality" />
		<tag k="ssr:stedsnr" v="599289" />
	</node>
	<node id="-339384" lat="60.993502778" lon="9.65751388965">
		<tag k="name" v="Steinløohøgde" />
		<tag k="natural" v="hill" />
		<tag k="place" v="locality" />
		<tag k="ssr:stedsnr" v="599401" />
	</node>
	<node id="-339382" lat="60.9055555519" lon="9.76192499575">
		<tag k="name" v="Utsikte" />
		<tag k="place" v="locality" />
		<tag k="ssr:stedsnr" v="599132" />
	</node>
	<node id="-337549" lat="60.9296555577" lon="9.68993888354">
		<tag k="name" v="Haugen" />
		<tag k="natural" v="hill" />
		<tag k="place" v="locality" />
		<tag k="ssr:stedsnr" v="54204" />
	</node>
	<node id="-339380" lat="60.8535722235" lon="9.69518333781">
		<tag k="name" v="Høgberglie" />
		<tag k="natural" v="slope" />
		<tag k="place" v="locality" />
		<tag k="ssr:stedsnr" v="599128" />
	</node>
	<node id="-339379" lat="60.8441527745" lon="9.69908054856">
		<tag k="name" v="Sjåheimberget" />
		<tag k="natural" v="cliff" />
		<tag k="ssr:stedsnr" v="599109" />
	</node>
	<node id="-339378" lat="60.8925222255" lon="9.67183333383">
		<tag k="name" v="Raurenna" />
		<tag k="natural" v="valley" />
		<tag k="place" v="locality" />
		<tag k="ssr:stedsnr" v="599102" />
	</node>
	<node id="-339377" lat="60.8920527777" lon="9.66555833061">
		<tag k="name" v="Tverrhaugskålin" />
		<tag k="place" v="locality" />
		<tag k="ssr:stedsnr" v="599098" />
	</node>
	<node id="-339373" lat="60.8932138852" lon="9.75834999149">
		<tag k="name" v="Karlshaugatn" />
		<tag k="natural" v="ridge" />
		<tag k="place" v="locality" />
		<tag k="ssr:stedsnr" v="599155" />
	</node>
	<node id="-339371" lat="60.9528972187" lon="9.62805833241">
		<tag k="name" v="Hagahaugen" />
		<tag k="natural" v="hill" />
		<tag k="place" v="locality" />
		<tag k="ssr:stedsnr" v="598893" />
	</node>
	<node id="-339369" lat="60.962288885" lon="9.56135277961">
		<tag k="name" v="Storslettlia" />
		<tag k="natural" v="slope" />
		<tag k="place" v="locality" />
		<tag k="ssr:stedsnr" v="598534" />
	</node>
	<node id="-339367" lat="60.9466361081" lon="9.60526666834">
		<tag k="name" v="Kringlelie" />
		<tag k="natural" v="slope" />
		<tag k="place" v="locality" />
		<tag k="ssr:stedsnr" v="598513" />
	</node>
	<node id="-339366" lat="60.9139694421" lon="9.66542499708">
		<tag k="name" v="Byfeliberget" />
		<tag k="natural" v="cliff" />
		<tag k="ssr:stedsnr" v="598505" />
	</node>
	<node id="-339364" lat="60.9570833336" lon="9.59208055226">
		<tag k="name" v="Kleivhalle" />
		<tag k="place" v="locality" />
		<tag k="ssr:stedsnr" v="598496" />
	</node>
	<node id="-339355" lat="61.0034138903" lon="9.58953888644">
		<tag k="alt_name" v="Rødningshøgde" />
		<tag k="name" v="Rudningshøgde" />
		<tag k="natural" v="hill" />
		<tag k="place" v="locality" />
		<tag k="ssr:stedsnr" v="598314" />
	</node>
	<node id="-339354" lat="61.0241694431" lon="9.7493361176">
		<tag k="name" v="Maradalen" />
		<tag k="natural" v="valley" />
		<tag k="place" v="locality" />
		<tag k="ssr:stedsnr" v="598273" />
	</node>
	<node id="-339353" lat="61.014541671" lon="9.75269722522">
		<tag k="name" v="Bakhalle" />
		<tag k="natural" v="slope" />
		<tag k="place" v="locality" />
		<tag k="ssr:stedsnr" v="598248" />
	</node>
	<node id="-339347" lat="60.9007611071" lon="9.56508333823">
		<tag k="alt_name" v="Nørre Kleive" />
		<tag k="name" v="Nørdre Kleive" />
		<tag k="natural" v="slope" />
		<tag k="place" v="locality" />
		<tag k="ssr:stedsnr" v="598141" />
	</node>
	<node id="-339344" lat="60.9839083369" lon="9.5741527738">
		<tag k="name" v="Søndenbergbakkin" />
		<tag k="natural" v="slope" />
		<tag k="place" v="locality" />
		<tag k="ssr:stedsnr" v="598080" />
	</node>
	<node id="-339343" lat="60.8946749981" lon="9.57601389557">
		<tag k="name" v="Nordfjellshaugen" />
		<tag k="natural" v="hill" />
		<tag k="place" v="locality" />
		<tag k="ssr:stedsnr" v="598004" />
	</node>
	<node id="-339323" lat="60.85821389" lon="9.77513333092">
		<tag k="alt_name" v="Kvithovda" />
		<tag k="fixme" v="consider natural=peak for the most distinct mountains in the district" />
		<tag k="name" v="Kjøetjernhøgdi" />
		<tag k="natural" v="hill" />
		<tag k="place" v="locality" />
		<tag k="ssr:stedsnr" v="554007" />
	</node>
	<node id="-339319" lat="61.0435388914" lon="9.63677499475">
		<tag k="name" v="Astriddalen" />
		<tag k="natural" v="valley" />
		<tag k="place" v="locality" />
		<tag k="ssr:stedsnr" v="553661" />
	</node>
	<node id="-339318" lat="61.0548722224" lon="9.63574444051">
		<tag k="alt_name" v="Rundehaugen" />
		<tag k="name" v="Liastølbergi" />
		<tag k="natural" v="hill" />
		<tag k="place" v="locality" />
		<tag k="ssr:stedsnr" v="553634" />
	</node>
	<node id="-339312" lat="61.0289249982" lon="9.47155278426">
		<tag k="name" v="Baklii" />
		<tag k="natural" v="slope" />
		<tag k="place" v="locality" />
		<tag k="ssr:stedsnr" v="553584" />
	</node>
	<node id="-339310" lat="61.0346694451" lon="9.61092499735">
		<tag k="alt_name" v="Køllhaugen" />
		<tag k="name" v="Kollhaugen" />
		<tag k="natural" v="hill" />
		<tag k="place" v="locality" />
		<tag k="ssr:stedsnr" v="553658" />
	</node>
	<node id="-339300" lat="61.0819694484" lon="9.51753610895">
		<tag k="name" v="Nysetlie" />
		<tag k="natural" v="slope" />
		<tag k="place" v="locality" />
		<tag k="ssr:stedsnr" v="540790" />
	</node>
	<node id="-339299" lat="60.8763388892" lon="9.75907222589">
		<tag k="name" v="Gråbeindalshøgde" />
		<tag k="natural" v="hill" />
		<tag k="place" v="locality" />
		<tag k="ssr:stedsnr" v="540740" />
	</node>
	<node id="-337467" lat="61.0374305596" lon="9.62556388372">
		<tag k="alt_name" v="Tjednsetbakkatn" />
		<tag k="name" v="Tjernsetbakkatn" />
		<tag k="natural" v="slope" />
		<tag k="place" v="locality" />
		<tag k="ssr:stedsnr" v="235927" />
	</node>
	<node id="-339296" lat="60.9618249965" lon="9.53635833564">
		<tag k="name" v="Lyberget" />
		<tag k="natural" v="cliff" />
		<tag k="ssr:stedsnr" v="540551" />
	</node>
	<node id="-339295" lat="60.8098777777" lon="9.80714444016">
		<tag k="name" v="Øvre Tinton" />
		<tag k="natural" v="slope" />
		<tag k="place" v="locality" />
		<tag k="ssr:stedsnr" v="540536" />
	</node>
	<node id="-339291" lat="60.8296944473" lon="9.70661944889">
		<tag k="name" v="Tømtedalen" />
		<tag k="natural" v="valley" />
		<tag k="place" v="locality" />
		<tag k="ssr:stedsnr" v="540674" />
	</node>
	<node id="-339290" lat="60.8242694477" lon="9.71517777084">
		<tag k="name" v="Tiriltoppen" />
		<tag k="natural" v="hill" />
		<tag k="place" v="locality" />
		<tag k="ssr:stedsnr" v="540668" />
	</node>
	<node id="-339288" lat="60.9570694461" lon="9.50727221679">
		<tag k="name" v="Rundehaugen" />
		<tag k="natural" v="hill" />
		<tag k="place" v="locality" />
		<tag k="ssr:stedsnr" v="540343" />
	</node>
	<node id="-339279" lat="61.0378666628" lon="9.65500556038">
		<tag k="name" v="Jorkompen" />
		<tag k="natural" v="hill" />
		<tag k="place" v="locality" />
		<tag k="ssr:stedsnr" v="539938" />
	</node>
	<node id="-339272" lat="60.9120944442" lon="9.72938889283">
		<tag k="name" v="Båthusdalen" />
		<tag k="natural" v="valley" />
		<tag k="place" v="locality" />
		<tag k="ssr:stedsnr" v="539711" />
	</node>
	<node id="-339270" lat="60.9163888898" lon="9.71713055293">
		<tag k="name" v="Knatten" />
		<tag k="natural" v="hill" />
		<tag k="place" v="locality" />
		<tag k="ssr:stedsnr" v="539680" />
	</node>
	<node id="-339258" lat="60.8593166647" lon="9.69565834041">
		<tag k="name" v="Karussdalen" />
		<tag k="natural" v="valley" />
		<tag k="place" v="locality" />
		<tag k="ssr:stedsnr" v="539124" />
	</node>
	<node id="-339257" lat="60.8567416664" lon="9.69705555146">
		<tag k="name" v="Maradalen" />
		<tag k="natural" v="valley" />
		<tag k="place" v="locality" />
		<tag k="ssr:stedsnr" v="539117" />
	</node>
	<node id="-339255" lat="60.84256111" lon="9.71129999369">
		<tag k="name" v="Liaberget" />
		<tag k="natural" v="cliff" />
		<tag k="ssr:stedsnr" v="539094" />
	</node>
	<node id="-339254" lat="60.8885416684" lon="9.68544165818">
		<tag k="name" v="Fløgeisberget" />
		<tag k="natural" v="cliff" />
		<tag k="ssr:stedsnr" v="539092" />
	</node>
	<node id="-339250" lat="60.8820277751" lon="9.56010833092">
		<tag k="name" v="Samelstadknatten" />
		<tag k="natural" v="hill" />
		<tag k="place" v="locality" />
		<tag k="ssr:stedsnr" v="538843" />
	</node>
	<node id="-339248" lat="60.9055611124" lon="9.55783056315">
		<tag k="name" v="Klavadalen" />
		<tag k="natural" v="valley" />
		<tag k="place" v="locality" />
		<tag k="ssr:stedsnr" v="538824" />
	</node>
	<node id="-339242" lat="60.8927555564" lon="9.64436388267">
		<tag k="name" v="Slettaknatten" />
		<tag k="natural" v="hill" />
		<tag k="place" v="locality" />
		<tag k="ssr:stedsnr" v="538338" />
	</node>
	<node id="-339236" lat="60.9967527769" lon="9.59546110849">
		<tag k="fixme" v="consider natural=peak for the most distinct mountains in the district" />
		<tag k="name" v="Solbjørgåsen" />
		<tag k="natural" v="hill" />
		<tag k="place" v="locality" />
		<tag k="ssr:stedsnr" v="537201" />
	</node>
	<node id="-339232" lat="60.9797333336" lon="9.64275556151">
		<tag k="fixme" v="consider natural=peak for the most distinct mountains in the district" />
		<tag k="name" v="Nystølåsen" />
		<tag k="natural" v="hill" />
		<tag k="place" v="locality" />
		<tag k="ssr:stedsnr" v="434971" />
	</node>
	<node id="-339225" lat="60.9341694476" lon="9.67789722019">
		<tag k="name" v="Kristofferdalen" />
		<tag k="natural" v="valley" />
		<tag k="place" v="locality" />
		<tag k="ssr:stedsnr" v="434854" />
	</node>
	<node id="-339223" lat="61.0266333313" lon="9.54370833693">
		<tag k="name" v="Liaberget" />
		<tag k="natural" v="cliff" />
		<tag k="ssr:stedsnr" v="433570" />
	</node>
	<node id="-339212" lat="61.0610083299" lon="9.4792499998">
		<tag k="alt_name" v="Høgehaugatn" />
		<tag k="name" v="Høgehøgdi" />
		<tag k="natural" v="hill" />
		<tag k="place" v="locality" />
		<tag k="ssr:stedsnr" v="432570" />
	</node>
	<node id="-339208" lat="61.0234277766" lon="9.7255777699">
		<tag k="alt_name" v="Blåskreohøgde" />
		<tag k="name" v="Blåskriuhøgdi" />
		<tag k="natural" v="hill" />
		<tag k="place" v="locality" />
		<tag k="ssr:stedsnr" v="432298" />
	</node>
	<node id="-339206" lat="61.0603611153" lon="9.43860277623">
		<tag k="name" v="Bergsbakkhaugen" />
		<tag k="natural" v="hill" />
		<tag k="place" v="locality" />
		<tag k="ssr:stedsnr" v="421910" />
	</node>
	<node id="-339201" lat="61.0781861073" lon="9.55033610396">
		<tag k="name" v="Hovda" />
		<tag k="natural" v="hill" />
		<tag k="place" v="locality" />
		<tag k="ssr:stedsnr" v="419792" />
	</node>
	<node id="-339200" lat="60.8746249956" lon="9.74923611705">
		<tag k="name" v="Råseberget" />
		<tag k="natural" v="slope" />
		<tag k="place" v="locality" />
		<tag k="ssr:stedsnr" v="419759" />
	</node>
	<node id="-339199" lat="60.8834555564" lon="9.74192500452">
		<tag k="name" v="Sandbakkin" />
		<tag k="natural" v="hill" />
		<tag k="place" v="locality" />
		<tag k="ssr:stedsnr" v="419754" />
	</node>
	<node id="-339198" lat="60.8383472191" lon="9.70719722678">
		<tag k="name" v="Sjåheimberget" />
		<tag k="natural" v="cliff" />
		<tag k="ssr:stedsnr" v="419689" />
	</node>
	<node id="-339197" lat="60.8392666708" lon="9.68383332489">
		<tag k="alt_name" v="Sørre Midtsæterhøgde" />
		<tag k="name" v="Søre Midtsæterhøgde" />
		<tag k="natural" v="hill" />
		<tag k="place" v="locality" />
		<tag k="ssr:stedsnr" v="419669" />
	</node>
	<node id="-339194" lat="60.85580833" lon="9.74903332611">
		<tag k="name" v="Meberget" />
		<tag k="natural" v="slope" />
		<tag k="place" v="locality" />
		<tag k="ssr:stedsnr" v="419294" />
	</node>
	<node id="-339193" lat="61.0371916664" lon="9.45716388865">
		<tag k="name" v="Hukaslette" />
		<tag k="place" v="locality" />
		<tag k="ssr:stedsnr" v="419291" />
	</node>
	<node id="-339188" lat="60.8696472229" lon="9.61548610513">
		<tag k="name" v="Marsteinhøgde" />
		<tag k="natural" v="hill" />
		<tag k="place" v="locality" />
		<tag k="ssr:stedsnr" v="418972" />
	</node>
	<node id="-339185" lat="60.9205805512" lon="9.78306944359">
		<tag k="alt_name" v="Pillartjednhalle" />
		<tag k="name" v="Pillartjernhalle" />
		<tag k="natural" v="slope" />
		<tag k="place" v="locality" />
		<tag k="ssr:stedsnr" v="418791" />
	</node>
	<node id="-339181" lat="60.8550083322" lon="9.7196388837">
		<tag k="name" v="Geiteryggen" />
		<tag k="place" v="locality" />
		<tag k="ssr:stedsnr" v="418732" />
	</node>
	<node id="-339177" lat="60.9685527755" lon="9.71547777541">
		<tag k="name" v="Turrhaugen" />
		<tag k="natural" v="hill" />
		<tag k="place" v="locality" />
		<tag k="ssr:stedsnr" v="418642" />
	</node>
	<node id="-339176" lat="60.8407444475" lon="9.75476944187">
		<tag k="name" v="Gullstein" />
		<tag k="place" v="locality" />
		<tag k="ssr:stedsnr" v="418577" />
	</node>
	<node id="-339175" lat="60.8397499986" lon="9.75772777139">
		<tag k="name" v="Liadalen" />
		<tag k="natural" v="valley" />
		<tag k="place" v="locality" />
		<tag k="ssr:stedsnr" v="418571" />
	</node>
	<node id="-339174" lat="60.9227111075" lon="9.71157221477">
		<tag k="name" v="Følongberget" />
		<tag k="natural" v="slope" />
		<tag k="place" v="locality" />
		<tag k="ssr:stedsnr" v="418535" />
	</node>
	<node id="-339172" lat="60.9372833289" lon="9.71815555523">
		<tag k="name" v="Flein" />
		<tag k="natural" v="hill" />
		<tag k="place" v="locality" />
		<tag k="ssr:stedsnr" v="418395" />
	</node>
	<node id="-339167" lat="61.0076499964" lon="9.66868056461">
		<tag k="name" v="Åfetstøllie" />
		<tag k="natural" v="slope" />
		<tag k="place" v="locality" />
		<tag k="ssr:stedsnr" v="418370" />
	</node>
	<node id="-339165" lat="60.9336444442" lon="9.74700554878">
		<tag k="name" v="Flatehøgde" />
		<tag k="natural" v="hill" />
		<tag k="place" v="locality" />
		<tag k="ssr:stedsnr" v="418351" />
	</node>
	<node id="-339163" lat="61.0333750039" lon="9.66470556481">
		<tag k="name" v="Slettahaugen" />
		<tag k="natural" v="hill" />
		<tag k="place" v="locality" />
		<tag k="ssr:stedsnr" v="418289" />
	</node>
	<node id="-339157" lat="61.0501555535" lon="9.71709444185">
		<tag k="name" v="Hafsenndalen" />
		<tag k="natural" v="valley" />
		<tag k="place" v="locality" />
		<tag k="ssr:stedsnr" v="418144" />
	</node>
	<node id="-339154" lat="61.0697944454" lon="9.7132416655">
		<tag k="name" v="Harahytthaugatn" />
		<tag k="natural" v="hill" />
		<tag k="place" v="locality" />
		<tag k="ssr:stedsnr" v="418130" />
	</node>
	<node id="-339150" lat="60.8909944472" lon="9.76310833119">
		<tag k="name" v="Bergevassdalen" />
		<tag k="natural" v="valley" />
		<tag k="place" v="locality" />
		<tag k="ssr:stedsnr" v="418063" />
	</node>
	<node id="-339145" lat="60.9187694462" lon="9.6492972184">
		<tag k="name" v="Kleivaberget" />
		<tag k="natural" v="cliff" />
		<tag k="ssr:stedsnr" v="417893" />
	</node>
	<node id="-339141" lat="60.8679694466" lon="9.59939721766">
		<tag k="name" v="Gåsehushøgde" />
		<tag k="natural" v="hill" />
		<tag k="place" v="locality" />
		<tag k="ssr:stedsnr" v="417849" />
	</node>
	<node id="-339140" lat="60.9054444457" lon="9.55355277258">
		<tag k="name" v="Fjellkinnkøllin" />
		<tag k="natural" v="hill" />
		<tag k="place" v="locality" />
		<tag k="ssr:stedsnr" v="417836" />
	</node>
	<node id="-339132" lat="61.0907805589" lon="9.58504444204">
		<tag k="name" v="Smørhalle" />
		<tag k="place" v="locality" />
		<tag k="ssr:stedsnr" v="417440" />
	</node>
	<node id="-339129" lat="60.9854027782" lon="9.55562499722">
		<tag k="name" v="Solbrekklie" />
		<tag k="natural" v="slope" />
		<tag k="place" v="locality" />
		<tag k="ssr:stedsnr" v="417423" />
	</node>
	<node id="-339127" lat="60.9893888881" lon="9.58750555503">
		<tag k="fixme" v="consider natural=peak for the most distinct mountains in the district" />
		<tag k="name" v="Høgbrenne" />
		<tag k="natural" v="hill" />
		<tag k="place" v="locality" />
		<tag k="ssr:stedsnr" v="417418" />
	</node>
	<node id="-339126" lat="60.9870277792" lon="9.58559444401">
		<tag k="fixme" v="consider natural=peak for the most distinct mountains in the district" />
		<tag k="name" v="Solbjørgåsen" />
		<tag k="natural" v="hill" />
		<tag k="place" v="locality" />
		<tag k="ssr:stedsnr" v="417417" />
	</node>
	<node id="-339117" lat="60.9832694403" lon="9.68049445226">
		<tag k="alt_name" v="Kjærringdalen" />
		<tag k="name" v="Kjerringdalen" />
		<tag k="natural" v="valley" />
		<tag k="place" v="locality" />
		<tag k="ssr:stedsnr" v="373993" />
	</node>
	<node id="-339110" lat="60.9838777746" lon="9.70772499376">
		<tag k="alt_name" v="Gamlestølhøgde" />
		<tag k="fixme" v="consider natural=peak for the most distinct mountains in the district" />
		<tag k="name" v="Gammalstøltoppen" />
		<tag k="natural" v="hill" />
		<tag k="place" v="locality" />
		<tag k="ssr:stedsnr" v="373982" />
	</node>
	<node id="-339103" lat="60.9973250028" lon="9.5917861057">
		<tag k="fixme" v="consider natural=peak for the most distinct mountains in the district" />
		<tag k="name" v="Hestekinnåsen" />
		<tag k="natural" v="hill" />
		<tag k="place" v="locality" />
		<tag k="ssr:stedsnr" v="373290" />
	</node>
	<node id="-339098" lat="60.9935611127" lon="9.53772499123">
		<tag k="alt_name" v="Kvannebekkslette" />
		<tag k="name" v="Kvannebekksletta" />
		<tag k="place" v="locality" />
		<tag k="ssr:stedsnr" v="372341" />
	</node>
	<node id="-339081" lat="60.9599500008" lon="9.51494444527">
		<tag k="name" v="Vestre Kinndalen" />
		<tag k="natural" v="valley" />
		<tag k="place" v="locality" />
		<tag k="ssr:stedsnr" v="358550" />
	</node>
	<node id="-339080" lat="61.0662305523" lon="9.48618889194">
		<tag k="name" v="Heimstøllie" />
		<tag k="natural" v="slope" />
		<tag k="place" v="locality" />
		<tag k="ssr:stedsnr" v="358777" />
	</node>
	<node id="-339078" lat="61.0705138924" lon="9.54064166741">
		<tag k="name" v="Sinderslette" />
		<tag k="place" v="locality" />
		<tag k="ssr:stedsnr" v="358496" />
	</node>
	<node id="-339076" lat="60.8434472214" lon="9.76773332973">
		<tag k="name" v="Romsdokke" />
		<tag k="place" v="locality" />
		<tag k="ssr:stedsnr" v="358288" />
	</node>
	<node id="-339074" lat="61.0521722238" lon="9.47863889581">
		<tag k="name" v="Nyløohøgde" />
		<tag k="natural" v="hill" />
		<tag k="place" v="locality" />
		<tag k="ssr:stedsnr" v="358195" />
	</node>
	<node id="-339068" lat="60.9251499958" lon="9.72086944668">
		<tag k="name" v="Skarhøgde" />
		<tag k="natural" v="hill" />
		<tag k="place" v="locality" />
		<tag k="ssr:stedsnr" v="357678" />
	</node>
	<node id="-339067" lat="60.8409861152" lon="9.75804999666">
		<tag k="name" v="Liaknatten" />
		<tag k="natural" v="slope" />
		<tag k="place" v="locality" />
		<tag k="ssr:stedsnr" v="357590" />
	</node>
	<node id="-339063" lat="60.9387416681" lon="9.71940555577">
		<tag k="name" v="Gruvedalen" />
		<tag k="natural" v="valley" />
		<tag k="place" v="locality" />
		<tag k="ssr:stedsnr" v="357457" />
	</node>
	<node id="-339061" lat="60.9964055543" lon="9.66006944375">
		<tag k="name" v="Åkrokhaugen" />
		<tag k="natural" v="hill" />
		<tag k="place" v="locality" />
		<tag k="ssr:stedsnr" v="357391" />
	</node>
	<node id="-339060" lat="60.9119333298" lon="9.54088611461">
		<tag k="name" v="Vardelie" />
		<tag k="natural" v="slope" />
		<tag k="place" v="locality" />
		<tag k="ssr:stedsnr" v="357390" />
	</node>
	<node id="-339058" lat="61.0112833366" lon="9.75772499973">
		<tag k="name" v="Bakhalle" />
		<tag k="natural" v="slope" />
		<tag k="place" v="locality" />
		<tag k="ssr:stedsnr" v="357380" />
	</node>
	<node id="-339057" lat="61.0122111152" lon="9.74085832694">
		<tag k="name" v="Tanterhaugknatten" />
		<tag k="natural" v="hill" />
		<tag k="place" v="locality" />
		<tag k="ssr:stedsnr" v="357378" />
	</node>
	<node id="-339054" lat="60.9425166674" lon="9.76277222129">
		<tag k="name" v="Ellingsæterhøgde" />
		<tag k="natural" v="hill" />
		<tag k="place" v="locality" />
		<tag k="ssr:stedsnr" v="357360" />
	</node>
	<node id="-339045" lat="61.0302611089" lon="9.7084833397">
		<tag k="name" v="Tobrennhøgde" />
		<tag k="natural" v="hill" />
		<tag k="place" v="locality" />
		<tag k="ssr:stedsnr" v="357231" />
	</node>
	<node id="-339043" lat="60.939244445" lon="9.70406110208">
		<tag k="name" v="Flein" />
		<tag k="natural" v="hill" />
		<tag k="place" v="locality" />
		<tag k="ssr:stedsnr" v="357211" />
	</node>
	<node id="-337424" lat="61.0148527803" lon="9.61423333717">
		<tag k="alt_name" v="Høghalli" />
		<tag k="name" v="Signalhøgde" />
		<tag k="natural" v="hill" />
		<tag k="place" v="locality" />
		<tag k="ssr:stedsnr" v="229897" />
	</node>
	<node id="-339038" lat="60.9000361138" lon="9.77093610877">
		<tag k="name" v="Snorobakkdalen" />
		<tag k="natural" v="valley" />
		<tag k="place" v="locality" />
		<tag k="ssr:stedsnr" v="357153" />
	</node>
	<node id="-339035" lat="60.8958027797" lon="9.70149999621">
		<tag k="fixme" v="consider natural=peak for the most distinct mountains in the district" />
		<tag k="name" v="Furuhøgde" />
		<tag k="natural" v="hill" />
		<tag k="place" v="locality" />
		<tag k="ssr:stedsnr" v="357026" />
	</node>
	<node id="-339034" lat="60.8859805519" lon="9.70471389123">
		<tag k="name" v="Øygardsberget" />
		<tag k="natural" v="cliff" />
		<tag k="ssr:stedsnr" v="357008" />
	</node>
	<node id="-339030" lat="60.9485527814" lon="9.65090000638">
		<tag k="name" v="Nyhusdalen" />
		<tag k="natural" v="valley" />
		<tag k="place" v="locality" />
		<tag k="ssr:stedsnr" v="356896" />
	</node>
	<node id="-339029" lat="61.0493055564" lon="9.62068611617">
		<tag k="name" v="Bjødnahaugen" />
		<tag k="natural" v="hill" />
		<tag k="place" v="locality" />
		<tag k="ssr:stedsnr" v="356876" />
	</node>
	<node id="-339008" lat="60.8378777781" lon="9.64285555283">
		<tag k="name" v="Meinsethalle" />
		<tag k="natural" v="slope" />
		<tag k="place" v="locality" />
		<tag k="ssr:stedsnr" v="356147" />
	</node>
	<node id="-339005" lat="60.952583332" lon="9.68157499513">
		<tag k="name" v="Langemyrberget" />
		<tag k="natural" v="slope" />
		<tag k="place" v="locality" />
		<tag k="ssr:stedsnr" v="357827" />
	</node>
	<node id="-339002" lat="60.8435611132" lon="9.71906943682">
		<tag k="name" v="Dølstogodalen" />
		<tag k="natural" v="valley" />
		<tag k="place" v="locality" />
		<tag k="ssr:stedsnr" v="357734" />
	</node>
	<node id="-338998" lat="61.007602781" lon="9.58811945077">
		<tag k="name" v="Skarberget" />
		<tag k="place" v="locality" />
		<tag k="ssr:stedsnr" v="355335" />
	</node>
	<node id="-338996" lat="60.9987500041" lon="9.63948333259">
		<tag k="name" v="Turvabakkin" />
		<tag k="natural" v="hill" />
		<tag k="place" v="locality" />
		<tag k="ssr:stedsnr" v="355224" />
	</node>
	<node id="-337758" lat="60.9514305597" lon="9.70495832818">
		<tag k="name" v="Svartkinnhaugen" />
		<tag k="natural" v="hill" />
		<tag k="place" v="locality" />
		<tag k="ssr:stedsnr" v="296803" />
	</node>
	<node id="-338989" lat="60.9543972254" lon="9.75105556125">
		<tag k="alt_name" v="Meinsethaugatn" />
		<tag k="fixme" v="consider natural=peak for the most distinct mountains in the district" />
		<tag k="name" v="Meinsethaugen" />
		<tag k="natural" v="hill" />
		<tag k="place" v="locality" />
		<tag k="ssr:stedsnr" v="313973" />
	</node>
	<node id="-338964" lat="60.9860583304" lon="9.53835555948">
		<tag k="alt_name" v="Solbrekklii" />
		<tag k="name" v="Solbrekklie" />
		<tag k="natural" v="slope" />
		<tag k="place" v="locality" />
		<tag k="ssr:stedsnr" v="311384" />
	</node>
	<node id="-338962" lat="60.8943416626" lon="9.72984167354">
		<tag k="fixme" v="consider natural=peak for the most distinct mountains in the district" />
		<tag k="name" v="Kroktjernfjellet" />
		<tag k="natural" v="hill" />
		<tag k="place" v="locality" />
		<tag k="ssr:stedsnr" v="311078" />
	</node>
	<node id="-338948" lat="60.9451555534" lon="9.69455833532">
		<tag k="fixme" v="consider natural=peak for the most distinct mountains in the district" />
		<tag k="name" v="Gråurdknatten" />
		<tag k="natural" v="hill" />
		<tag k="place" v="locality" />
		<tag k="ssr:stedsnr" v="191889" />
	</node>
	<node id="-338940" lat="60.9890250029" lon="9.59276666196">
		<tag k="alt_name" v="Solbjørgåsen" />
		<tag k="fixme" v="consider natural=peak for the most distinct mountains in the district" />
		<tag k="name" v="Solbjøråsen" />
		<tag k="natural" v="hill" />
		<tag k="old_name" v="Solbergåsen" />
		<tag k="place" v="locality" />
		<tag k="ssr:stedsnr" v="191333" />
	</node>
	<node id="-338921" lat="61.0741277797" lon="9.63049444178">
		<tag k="alt_name" v="Storsteinhaugatn" />
		<tag k="name" v="Storsteinhaugane" />
		<tag k="natural" v="hill" />
		<tag k="place" v="locality" />
		<tag k="ssr:stedsnr" v="189645" />
	</node>
	<node id="-338919" lat="61.0869444401" lon="9.63250833387">
		<tag k="alt_name" v="Signalet" />
		<tag k="name" v="Signalhøgdi" />
		<tag k="natural" v="hill" />
		<tag k="place" v="locality" />
		<tag k="ssr:stedsnr" v="189620" />
	</node>
	<node id="-338914" lat="61.0245416698" lon="9.60561666788">
		<tag k="name" v="Bjørnehalli" />
		<tag k="natural" v="hill" />
		<tag k="place" v="locality" />
		<tag k="ssr:stedsnr" v="189296" />
	</node>
	<node id="-338912" lat="60.9338249966" lon="9.7814944426">
		<tag k="fixme" v="consider natural=peak for the most distinct mountains in the district" />
		<tag k="name" v="Steindahøgde" />
		<tag k="natural" v="hill" />
		<tag k="place" v="locality" />
		<tag k="ssr:stedsnr" v="188947" />
	</node>
	<node id="-337744" lat="60.9186083303" lon="9.71151944966">
		<tag k="name" v="Jonstølhøgde" />
		<tag k="natural" v="hill" />
		<tag k="place" v="locality" />
		<tag k="ssr:stedsnr" v="296502" />
	</node>
	<node id="-338910" lat="60.8126388929" lon="9.71914721705">
		<tag k="name" v="Haugrudknatten" />
		<tag k="natural" v="hill" />
		<tag k="place" v="locality" />
		<tag k="ssr:stedsnr" v="176988" />
	</node>
	<node id="-338907" lat="60.8656527785" lon="9.72328333114">
		<tag k="name" v="Sagbakkin" />
		<tag k="natural" v="slope" />
		<tag k="place" v="locality" />
		<tag k="ssr:stedsnr" v="176818" />
	</node>
	<node id="-338905" lat="60.8739083361" lon="9.73404166469">
		<tag k="name" v="Utsikte" />
		<tag k="natural" v="cliff" />
		<tag k="ssr:stedsnr" v="176769" />
	</node>
	<node id="-338894" lat="61.05701944" lon="9.51977778567">
		<tag k="alt_name" v="Nørre Haukalie" />
		<tag k="name" v="Nørdre Hukalie" />
		<tag k="natural" v="slope" />
		<tag k="place" v="locality" />
		<tag k="ssr:stedsnr" v="176366" />
	</node>
	<node id="-338880" lat="60.8494083303" lon="9.73861388338">
		<tag k="name" v="Haugabakkin" />
		<tag k="place" v="locality" />
		<tag k="ssr:stedsnr" v="175757" />
	</node>
	<node id="-338876" lat="60.9267083342" lon="9.7281722207">
		<tag k="name" v="Høgdagsknatten" />
		<tag k="natural" v="hill" />
		<tag k="place" v="locality" />
		<tag k="ssr:stedsnr" v="175697" />
	</node>
	<node id="-338874" lat="60.966552775" lon="9.76388332985">
		<tag k="name" v="Juvahøgde" />
		<tag k="natural" v="hill" />
		<tag k="place" v="locality" />
		<tag k="ssr:stedsnr" v="175631" />
	</node>
	<node id="-338869" lat="60.9402083298" lon="9.72700554693">
		<tag k="name" v="Garavikhøgde" />
		<tag k="natural" v="hill" />
		<tag k="place" v="locality" />
		<tag k="ssr:stedsnr" v="175470" />
	</node>
	<node id="-338867" lat="60.9927333301" lon="9.71175277963">
		<tag k="name" v="Navarskaftdalen" />
		<tag k="natural" v="valley" />
		<tag k="place" v="locality" />
		<tag k="ssr:stedsnr" v="175424" />
	</node>
	<node id="-338858" lat="60.9472166691" lon="9.70069443847">
		<tag k="name" v="Gråura" />
		<tag k="place" v="locality" />
		<tag k="ssr:stedsnr" v="175202" />
	</node>
	<node id="-338857" lat="60.9352388864" lon="9.70748055289">
		<tag k="alt_name" v="Veslehødnet" />
		<tag k="name" v="Veslehornet" />
		<tag k="natural" v="hill" />
		<tag k="place" v="locality" />
		<tag k="ssr:stedsnr" v="175183" />
	</node>
	<node id="-338854" lat="60.8913888929" lon="9.72919167124">
		<tag k="alt_name" v="Svartetjednhaugen" />
		<tag k="name" v="Svartetjernhaugen" />
		<tag k="natural" v="hill" />
		<tag k="place" v="locality" />
		<tag k="ssr:stedsnr" v="175155" />
	</node>
	<node id="-338850" lat="60.9185583325" lon="9.60438610249">
		<tag k="name" v="Brøtaberget" />
		<tag k="natural" v="hill" />
		<tag k="place" v="locality" />
		<tag k="ssr:stedsnr" v="175069" />
	</node>
	<node id="-338849" lat="60.8921583368" lon="9.7573861092">
		<tag k="name" v="Bergevasshøgde" />
		<tag k="natural" v="ridge" />
		<tag k="place" v="locality" />
		<tag k="ssr:stedsnr" v="175056" />
	</node>
	<node id="-338847" lat="60.8974999992" lon="9.55942222823">
		<tag k="name" v="Berteberget" />
		<tag k="natural" v="hill" />
		<tag k="place" v="locality" />
		<tag k="ssr:stedsnr" v="175003" />
	</node>
	<node id="-338846" lat="60.9259388923" lon="9.587755564">
		<tag k="name" v="Haugatn" />
		<tag k="natural" v="hill" />
		<tag k="place" v="locality" />
		<tag k="ssr:stedsnr" v="174972" />
	</node>
	<node id="-337733" lat="61.0177472186" lon="9.65124445064">
		<tag k="name" v="Skålelihøgde" />
		<tag k="natural" v="hill" />
		<tag k="place" v="locality" />
		<tag k="ssr:stedsnr" v="296220" />
	</node>
	<node id="-338836" lat="60.9433805552" lon="9.604799995">
		<tag k="name" v="Røstehovde" />
		<tag k="natural" v="hill" />
		<tag k="place" v="locality" />
		<tag k="ssr:stedsnr" v="174565" />
	</node>
	<node id="-338835" lat="61.0838138926" lon="9.59724443713">
		<tag k="alt_name" v="Svartetjednhøgde" />
		<tag k="name" v="Svartetjernhøgde" />
		<tag k="natural" v="hill" />
		<tag k="place" v="locality" />
		<tag k="ssr:stedsnr" v="174463" />
	</node>
	<node id="-338826" lat="61.0751388885" lon="9.60169444601">
		<tag k="name" v="Nystølhøgde" />
		<tag k="natural" v="hill" />
		<tag k="place" v="locality" />
		<tag k="ssr:stedsnr" v="174323" />
	</node>
	<node id="-338824" lat="60.9012388925" lon="9.59391944465">
		<tag k="name" v="Liafjellet" />
		<tag k="natural" v="hill" />
		<tag k="place" v="locality" />
		<tag k="ssr:stedsnr" v="174275" />
	</node>
	<node id="-338823" lat="61.0075277814" lon="9.61116110439">
		<tag k="name" v="Langedalslie" />
		<tag k="natural" v="slope" />
		<tag k="place" v="locality" />
		<tag k="ssr:stedsnr" v="174266" />
	</node>
	<node id="-338821" lat="60.9035805552" lon="9.5542194535">
		<tag k="name" v="Fjellkinnberget" />
		<tag k="natural" v="cliff" />
		<tag k="ssr:stedsnr" v="174152" />
	</node>
	<node id="-338818" lat="60.9758694405" lon="9.55320555282">
		<tag k="name" v="Flatigardslie" />
		<tag k="natural" v="slope" />
		<tag k="place" v="locality" />
		<tag k="ssr:stedsnr" v="174085" />
	</node>
	<node id="-338812" lat="60.9662361114" lon="9.73040556169">
		<tag k="alt_name" v="Botenberga" />
		<tag k="fixme" v="consider natural=peak for the most distinct mountains in the district" />
		<tag k="name" v="Barneberg" />
		<tag k="natural" v="hill" />
		<tag k="place" v="locality" />
		<tag k="ssr:stedsnr" v="130952" />
	</node>
	<node id="-338811" lat="60.9686611108" lon="9.60306110426">
		<tag k="alt_name" v="Flatøygardslii;Flatigardslie" />
		<tag k="name" v="Flatøydegardslii" />
		<tag k="natural" v="slope" />
		<tag k="place" v="locality" />
		<tag k="ssr:stedsnr" v="130939" />
	</node>
	<node id="-338809" lat="60.9508388877" lon="9.71705555928">
		<tag k="alt_name" v="Svartkinnhaugatn" />
		<tag k="fixme" v="consider natural=peak for the most distinct mountains in the district" />
		<tag k="name" v="Svartsinnhaugen" />
		<tag k="natural" v="hill" />
		<tag k="place" v="locality" />
		<tag k="ssr:stedsnr" v="130911" />
	</node>
	<node id="-338803" lat="61.0217999994" lon="9.57000555745">
		<tag k="alt_name" v="Hovdahøgdi" />
		<tag k="name" v="Hovdahaugen" />
		<tag k="natural" v="hill" />
		<tag k="place" v="locality" />
		<tag k="ssr:stedsnr" v="129535" />
	</node>
	<node id="-338793" lat="61.0128666643" lon="9.51248888192">
		<tag k="name" v="Rennedokke" />
		<tag k="place" v="locality" />
		<tag k="ssr:stedsnr" v="117696" />
	</node>
	<node id="-338789" lat="61.0690888848" lon="9.44674721775">
		<tag k="name" v="Varpet" />
		<tag k="place" v="locality" />
		<tag k="ssr:stedsnr" v="115982" />
	</node>
	<node id="-338784" lat="60.8846249965" lon="9.79956110249">
		<tag k="fixme" v="consider natural=peak for the most distinct mountains in the district" />
		<tag k="name" v="Kråkehuggu" />
		<tag k="natural" v="hill" />
		<tag k="place" v="locality" />
		<tag k="ssr:stedsnr" v="115600" />
	</node>
	<node id="-338783" lat="61.0039972202" lon="9.53788332842">
		<tag k="name" v="Lundmohaugen" />
		<tag k="natural" v="hill" />
		<tag k="place" v="locality" />
		<tag k="ssr:stedsnr" v="115597" />
	</node>
	<node id="-338780" lat="61.0935249961" lon="9.49352500523">
		<tag k="name" v="Kelvabakkatn" />
		<tag k="natural" v="slope" />
		<tag k="place" v="locality" />
		<tag k="ssr:stedsnr" v="115661" />
	</node>
	<node id="-338772" lat="60.8506722245" lon="9.77403333525">
		<tag k="name" v="Øvre hyttebakkin" />
		<tag k="natural" v="slope" />
		<tag k="place" v="locality" />
		<tag k="ssr:stedsnr" v="115302" />
	</node>
	<node id="-338770" lat="60.8537833358" lon="9.71525000357">
		<tag k="name" v="Rustebakkberget" />
		<tag k="natural" v="cliff" />
		<tag k="ssr:stedsnr" v="115193" />
	</node>
	<node id="-338766" lat="61.0651694414" lon="9.71506388866">
		<tag k="name" v="Klufteflata" />
		<tag k="place" v="locality" />
		<tag k="ssr:stedsnr" v="115166" />
	</node>
	<node id="-338761" lat="60.8469972196" lon="9.71283332912">
		<tag k="name" v="Dølstogodalen" />
		<tag k="natural" v="valley" />
		<tag k="place" v="locality" />
		<tag k="ssr:stedsnr" v="115146" />
	</node>
	<node id="-338759" lat="60.8652944471" lon="9.60510832772">
		<tag k="alt_name" v="Elgtjednskardet" />
		<tag k="name" v="Elgstjernskardet" />
		<tag k="natural" v="valley" />
		<tag k="place" v="locality" />
		<tag k="ssr:stedsnr" v="114788" />
	</node>
	<node id="-338758" lat="60.8622333363" lon="9.6492722249">
		<tag k="name" v="Bjødnaskardet" />
		<tag k="natural" v="valley" />
		<tag k="place" v="locality" />
		<tag k="ssr:stedsnr" v="114785" />
	</node>
	<node id="-338750" lat="61.0259000015" lon="9.55840556176">
		<tag k="name" v="Slettalie" />
		<tag k="natural" v="slope" />
		<tag k="place" v="locality" />
		<tag k="ssr:stedsnr" v="114598" />
	</node>
	<node id="-338744" lat="60.900875004" lon="9.62093333">
		<tag k="name" v="Øvrelie" />
		<tag k="natural" v="slope" />
		<tag k="place" v="locality" />
		<tag k="ssr:stedsnr" v="114457" />
	</node>
	<node id="-338741" lat="60.9636555539" lon="9.67457221439">
		<tag k="name" v="Hellingshaugen" />
		<tag k="natural" v="hill" />
		<tag k="place" v="locality" />
		<tag k="ssr:stedsnr" v="114168" />
	</node>
	<node id="-338739" lat="60.897188886" lon="9.72924999649">
		<tag k="alt_name" v="Kroktjednlie" />
		<tag k="name" v="Kroktjernlie" />
		<tag k="natural" v="slope" />
		<tag k="place" v="locality" />
		<tag k="ssr:stedsnr" v="114128" />
	</node>
	<node id="-338737" lat="61.023025004" lon="9.65118611606">
		<tag k="name" v="Slåttestølhøgde" />
		<tag k="natural" v="hill" />
		<tag k="place" v="locality" />
		<tag k="ssr:stedsnr" v="114252" />
	</node>
	<node id="-338735" lat="60.8576944408" lon="9.65026667266">
		<tag k="name" v="Bjødnaskardal" />
		<tag k="natural" v="valley" />
		<tag k="place" v="locality" />
		<tag k="ssr:stedsnr" v="114083" />
	</node>
	<node id="-338728" lat="60.8939638871" lon="9.62076389653">
		<tag k="name" v="Rudsvedalen" />
		<tag k="natural" v="valley" />
		<tag k="place" v="locality" />
		<tag k="ssr:stedsnr" v="113367" />
	</node>
	<node id="-338722" lat="61.0196500033" lon="9.52334722125">
		<tag k="name" v="Fossvang" />
		<tag k="natural" v="slope" />
		<tag k="place" v="locality" />
		<tag k="ssr:stedsnr" v="73685" />
	</node>
	<node id="-337712" lat="60.9158277801" lon="9.67284167557">
		<tag k="name" v="Hovdahaugen" />
		<tag k="natural" v="hill" />
		<tag k="place" v="locality" />
		<tag k="ssr:stedsnr" v="295524" />
	</node>
	<node id="-338707" lat="61.0163805572" lon="9.49383888423">
		<tag k="name" v="Stasvollklypa" />
		<tag k="natural" v="hill" />
		<tag k="place" v="locality" />
		<tag k="ssr:stedsnr" v="69571" />
	</node>
	<node id="-338698" lat="61.0710392074" lon="9.45536537939">
		<tag k="fixme" v="consider natural=peak for the most distinct mountains in the district" />
		<tag k="name" v="Goaren" />
		<tag k="natural" v="hill" />
		<tag k="place" v="locality" />
		<tag k="ssr:stedsnr" v="68875" />
	</node>
	<node id="-338696" lat="61.1026194442" lon="9.61197499323">
		<tag k="alt_name" v="Tjuvesteinberget" />
		<tag k="fixme" v="consider natural=peak for the most distinct mountains in the district" />
		<tag k="name" v="Tjuvsteinåsen" />
		<tag k="natural" v="hill" />
		<tag k="place" v="locality" />
		<tag k="ssr:stedsnr" v="68662" />
	</node>
	<node id="-338689" lat="60.8286916655" lon="9.71428333389">
		<tag k="name" v="Høgeføsshalle" />
		<tag k="natural" v="slope" />
		<tag k="place" v="locality" />
		<tag k="ssr:stedsnr" v="55644" />
	</node>
	<node id="-338688" lat="60.8344222223" lon="9.69160278458">
		<tag k="name" v="Hestedalshufset" />
		<tag k="place" v="locality" />
		<tag k="ssr:stedsnr" v="55626" />
	</node>
	<node id="-338686" lat="60.8451722186" lon="9.77025832751">
		<tag k="name" v="Liasæterberget" />
		<tag k="natural" v="hill" />
		<tag k="place" v="locality" />
		<tag k="ssr:stedsnr" v="55291" />
	</node>
	<node id="-337706" lat="61.0791222188" lon="9.67635834133">
		<tag k="name" v="Rundehaugen" />
		<tag k="natural" v="hill" />
		<tag k="place" v="locality" />
		<tag k="ssr:stedsnr" v="295255" />
	</node>
	<node id="-338681" lat="61.0542750031" lon="9.69875834009">
		<tag k="name" v="Bjødnahalle" />
		<tag k="natural" v="slope" />
		<tag k="place" v="locality" />
		<tag k="ssr:stedsnr" v="54943" />
	</node>
	<node id="-338678" lat="60.903683335" lon="9.54448889761">
		<tag k="name" v="Fjellkinnlia" />
		<tag k="natural" v="slope" />
		<tag k="place" v="locality" />
		<tag k="ssr:stedsnr" v="54521" />
	</node>
	<node id="-338676" lat="60.9353277799" lon="9.5185694365">
		<tag k="name" v="Veslestiklingshaugatn" />
		<tag k="natural" v="hill" />
		<tag k="place" v="locality" />
		<tag k="ssr:stedsnr" v="54399" />
	</node>
	<node id="-338675" lat="60.9429555531" lon="9.75344166854">
		<tag k="name" v="Navarskafthøgde" />
		<tag k="natural" v="hill" />
		<tag k="place" v="locality" />
		<tag k="ssr:stedsnr" v="54389" />
	</node>
	<node id="-338670" lat="60.9124388855" lon="9.54847223047">
		<tag k="name" v="Øvre Stølslie" />
		<tag k="natural" v="slope" />
		<tag k="place" v="locality" />
		<tag k="ssr:stedsnr" v="54423" />
	</node>
	<node id="-338668" lat="60.9015388857" lon="9.74175554993">
		<tag k="alt_name" v="Sørresæterhøgde" />
		<tag k="name" v="Søresæterhøgde" />
		<tag k="natural" v="ridge" />
		<tag k="place" v="locality" />
		<tag k="ssr:stedsnr" v="54145" />
	</node>
	<node id="-338666" lat="61.0149027822" lon="9.62980000047">
		<tag k="name" v="Harabrennhalle" />
		<tag k="natural" v="slope" />
		<tag k="place" v="locality" />
		<tag k="ssr:stedsnr" v="54265" />
	</node>
	<node id="-338664" lat="60.9631138916" lon="9.67118054879">
		<tag k="name" v="Støytemyrskålin" />
		<tag k="place" v="locality" />
		<tag k="ssr:stedsnr" v="54193" />
	</node>
	<node id="-338662" lat="60.9026222212" lon="9.68091388362">
		<tag k="name" v="Svartedalen" />
		<tag k="natural" v="valley" />
		<tag k="place" v="locality" />
		<tag k="ssr:stedsnr" v="54032" />
	</node>
	<node id="-338661" lat="60.9036638849" lon="9.65770834085">
		<tag k="name" v="Turkelihalle" />
		<tag k="natural" v="slope" />
		<tag k="place" v="locality" />
		<tag k="ssr:stedsnr" v="54031" />
	</node>
	<node id="-338657" lat="60.9553916647" lon="9.60294165857">
		<tag k="name" v="Espesetlie" />
		<tag k="natural" v="slope" />
		<tag k="place" v="locality" />
		<tag k="ssr:stedsnr" v="53873" />
	</node>
	<node id="-338656" lat="60.9807666679" lon="9.62225277634">
		<tag k="name" v="Vendesvingen" />
		<tag k="place" v="locality" />
		<tag k="ssr:stedsnr" v="53691" />
	</node>
	<node id="-338655" lat="60.9849833348" lon="9.60132222692">
		<tag k="fixme" v="consider natural=peak for the most distinct mountains in the district" />
		<tag k="name" v="Solbjørgåsen" />
		<tag k="natural" v="hill" />
		<tag k="place" v="locality" />
		<tag k="ssr:stedsnr" v="53684" />
	</node>
	<node id="-337701" lat="60.8953583322" lon="9.56471111228">
		<tag k="name" v="Raunehallhøgde" />
		<tag k="natural" v="hill" />
		<tag k="place" v="locality" />
		<tag k="ssr:stedsnr" v="295003" />
	</node>
	<node id="-338651" lat="60.9214361091" lon="9.70485000202">
		<tag k="name" v="Vardin" />
		<tag k="natural" v="hill" />
		<tag k="place" v="locality" />
		<tag k="ssr:stedsnr" v="53549" />
	</node>
	<node id="-338649" lat="60.9658944478" lon="9.57713610539">
		<tag k="name" v="Flatigardslie" />
		<tag k="natural" v="slope" />
		<tag k="place" v="locality" />
		<tag k="ssr:stedsnr" v="53535" />
	</node>
	<node id="-338645" lat="61.0545999974" lon="9.56804167569">
		<tag k="name" v="Kvannedalen" />
		<tag k="natural" v="valley" />
		<tag k="place" v="locality" />
		<tag k="ssr:stedsnr" v="53347" />
	</node>
	<node id="-338627" lat="60.8220527774" lon="9.69836111831">
		<tag k="fixme" v="consider natural=peak for the most distinct mountains in the district" />
		<tag k="name" v="Hyttemyrhaugen" />
		<tag k="natural" v="hill" />
		<tag k="place" v="locality" />
		<tag k="ssr:stedsnr" v="9162" />
	</node>
	<node id="-338625" lat="61.0454555582" lon="9.72993334078">
		<tag k="alt_name" v="Knarten" />
		<tag k="name" v="Fjellsæterknatten" />
		<tag k="natural" v="hill" />
		<tag k="place" v="locality" />
		<tag k="ssr:stedsnr" v="8665" />
	</node>
	<node id="-338615" lat="61.0655749966" lon="9.71284999198">
		<tag k="name" v="Kinndalen" />
		<tag k="natural" v="valley" />
		<tag k="place" v="locality" />
		<tag k="ssr:stedsnr" v="7612" />
	</node>
	<node id="-338612" lat="60.9672944403" lon="9.51498888861">
		<tag k="name" v="Svartberget" />
		<tag k="natural" v="cliff" />
		<tag k="ssr:stedsnr" v="7534" />
	</node>
	<node id="-338605" lat="61.0546861071" lon="9.46860276852">
		<tag k="name" v="Slettingsdalen" />
		<tag k="natural" v="valley" />
		<tag k="place" v="locality" />
		<tag k="ssr:stedsnr" v="966212" />
	</node>
	<node id="-338602" lat="61.074219446" lon="9.46147778035">
		<tag k="name" v="Brimgråbakkin" />
		<tag k="natural" v="slope" />
		<tag k="place" v="locality" />
		<tag k="ssr:stedsnr" v="965771" />
	</node>
	<node id="-338601" lat="61.0279694426" lon="9.65191665871">
		<tag k="name" v="Roleghaugshøgde" />
		<tag k="natural" v="hill" />
		<tag k="place" v="locality" />
		<tag k="ssr:stedsnr" v="965258" />
	</node>
	<node id="-338594" lat="60.8789444476" lon="9.73454445156">
		<tag k="name" v="Tomlehøgde" />
		<tag k="natural" v="hill" />
		<tag k="place" v="locality" />
		<tag k="ssr:stedsnr" v="964753" />
	</node>
	<node id="-338589" lat="61.0734333313" lon="9.52204722686">
		<tag k="name" v="Nyseterlie" />
		<tag k="natural" v="slope" />
		<tag k="place" v="locality" />
		<tag k="ssr:stedsnr" v="964405" />
	</node>
	<node id="-338581" lat="60.9741361136" lon="9.68417778371">
		<tag k="name" v="Steinsrudhallhaugen" />
		<tag k="natural" v="hill" />
		<tag k="place" v="locality" />
		<tag k="ssr:stedsnr" v="963656" />
	</node>
	<node id="-338580" lat="60.897047219" lon="9.62166944133">
		<tag k="name" v="Rødningsberget" />
		<tag k="natural" v="cliff" />
		<tag k="ssr:stedsnr" v="963465" />
	</node>
	<node id="-338579" lat="60.9945861081" lon="9.65572499545">
		<tag k="name" v="Vierdalen" />
		<tag k="natural" v="valley" />
		<tag k="place" v="locality" />
		<tag k="ssr:stedsnr" v="963462" />
	</node>
	<node id="-338571" lat="60.9497138925" lon="9.67019721343">
		<tag k="alt_name" v="Veslehøgdhaugen;Veslehøgahaugen" />
		<tag k="fixme" v="consider natural=peak for the most distinct mountains in the district" />
		<tag k="name" v="Veslehøghaugen" />
		<tag k="natural" v="hill" />
		<tag k="place" v="locality" />
		<tag k="ssr:stedsnr" v="919956" />
	</node>
	<node id="-338568" lat="60.8128369724" lon="9.81122452919">
		<tag k="fixme" v="consider natural=peak for the most distinct mountains in the district" />
		<tag k="name" v="Tintoen" />
		<tag k="natural" v="hill" />
		<tag k="place" v="locality" />
		<tag k="ssr:stedsnr" v="919228" />
	</node>
	<node id="-338556" lat="60.9635083314" lon="9.77969167409">
		<tag k="name" v="Veslejuvhaugen" />
		<tag k="natural" v="hill" />
		<tag k="place" v="locality" />
		<tag k="ssr:stedsnr" v="916913" />
	</node>
	<node id="-338550" lat="60.9210861102" lon="9.53938055602">
		<tag k="name" v="Øverlie" />
		<tag k="natural" v="slope" />
		<tag k="place" v="locality" />
		<tag k="ssr:stedsnr" v="904406" />
	</node>
	<node id="-338548" lat="60.9446611134" lon="9.74705832543">
		<tag k="name" v="Navarskaftberget" />
		<tag k="natural" v="hill" />
		<tag k="place" v="locality" />
		<tag k="ssr:stedsnr" v="904372" />
	</node>
	<node id="-338545" lat="61.0466749994" lon="9.73683055957">
		<tag k="name" v="Skaret" />
		<tag k="natural" v="valley" />
		<tag k="place" v="locality" />
		<tag k="ssr:stedsnr" v="904153" />
	</node>
	<node id="-338537" lat="61.0351583335" lon="9.64649166492">
		<tag k="alt_name" v="Skotjednhalle" />
		<tag k="name" v="Skotjernhalle" />
		<tag k="natural" v="slope" />
		<tag k="place" v="locality" />
		<tag k="ssr:stedsnr" v="902941" />
	</node>
	<node id="-338534" lat="60.9641444443" lon="9.58925555487">
		<tag k="name" v="Karrusputthøgde" />
		<tag k="natural" v="hill" />
		<tag k="place" v="locality" />
		<tag k="ssr:stedsnr" v="902561" />
	</node>
	<node id="-338532" lat="61.0490000015" lon="9.58446110724">
		<tag k="name" v="Frugesetlie" />
		<tag k="natural" v="slope" />
		<tag k="place" v="locality" />
		<tag k="ssr:stedsnr" v="902356" />
	</node>
	<node id="-338531" lat="61.0132527757" lon="9.58123054779">
		<tag k="name" v="Gurihesberget" />
		<tag k="natural" v="cliff" />
		<tag k="ssr:stedsnr" v="902616" />
	</node>
	<node id="-338527" lat="60.9015777793" lon="9.59235832647">
		<tag k="name" v="Trettedalen" />
		<tag k="natural" v="valley" />
		<tag k="place" v="locality" />
		<tag k="ssr:stedsnr" v="902263" />
	</node>
	<node id="-338523" lat="61.0840861091" lon="9.69428056261">
		<tag k="name" v="Feplassen" />
		<tag k="place" v="locality" />
		<tag k="ssr:stedsnr" v="902253" />
	</node>
	<node id="-338521" lat="61.0017906191" lon="9.65277934261">
		<tag k="name" v="Glennebakkin" />
		<tag k="natural" v="slope" />
		<tag k="place" v="locality" />
		<tag k="ssr:stedsnr" v="902224" />
	</node>
	<node id="-338517" lat="60.9867888927" lon="9.61158888284">
		<tag k="name" v="Langdalen" />
		<tag k="natural" v="valley" />
		<tag k="place" v="locality" />
		<tag k="ssr:stedsnr" v="859961" />
	</node>
	<node id="-338503" lat="60.8521694441" lon="9.66539165886">
		<tag k="fixme" v="consider natural=peak for the most distinct mountains in the district" />
		<tag k="name" v="Hesjahøgde" />
		<tag k="natural" v="hill" />
		<tag k="place" v="locality" />
		<tag k="ssr:stedsnr" v="843157" />
	</node>
	<node id="-338501" lat="60.9052611139" lon="9.54517777109">
		<tag k="name" v="Fjellkinna" />
		<tag k="natural" v="hill" />
		<tag k="place" v="locality" />
		<tag k="ssr:stedsnr" v="843428" />
	</node>
	<node id="-338500" lat="60.8983027759" lon="9.53848054662">
		<tag k="name" v="Nonneknatten" />
		<tag k="natural" v="hill" />
		<tag k="place" v="locality" />
		<tag k="ssr:stedsnr" v="843426" />
	</node>
	<node id="-338495" lat="60.9240500024" lon="9.58272223047">
		<tag k="name" v="Heimstølknatten" />
		<tag k="natural" v="hill" />
		<tag k="place" v="locality" />
		<tag k="ssr:stedsnr" v="842628" />
	</node>
	<node id="-338493" lat="60.9478277741" lon="9.56479166959">
		<tag k="name" v="Lauvhaugen" />
		<tag k="natural" v="hill" />
		<tag k="place" v="locality" />
		<tag k="ssr:stedsnr" v="842409" />
	</node>
	<node id="-338490" lat="60.8975333346" lon="9.59359167416">
		<tag k="name" v="Sjaksknatten" />
		<tag k="natural" v="hill" />
		<tag k="place" v="locality" />
		<tag k="ssr:stedsnr" v="842216" />
	</node>
	<node id="-338489" lat="61.0089972198" lon="9.64063333797">
		<tag k="name" v="Rustelie" />
		<tag k="natural" v="slope" />
		<tag k="place" v="locality" />
		<tag k="ssr:stedsnr" v="842212" />
	</node>
	<node id="-338485" lat="60.9656222231" lon="9.54499167115">
		<tag k="fixme" v="consider natural=peak for the most distinct mountains in the district" />
		<tag k="name" v="Gravåsen" />
		<tag k="natural" v="hill" />
		<tag k="place" v="locality" />
		<tag k="ssr:stedsnr" v="798577" />
	</node>
	<node id="-338476" lat="60.9844277747" lon="9.67046111738">
		<tag k="alt_name" v="Nystølknattatn" />
		<tag k="name" v="Nystølknatten" />
		<tag k="natural" v="hill" />
		<tag k="place" v="locality" />
		<tag k="ssr:stedsnr" v="920976" />
	</node>
	<node id="-338467" lat="60.9624861122" lon="9.58021389429">
		<tag k="name" v="Leikhøgde" />
		<tag k="natural" v="hill" />
		<tag k="place" v="locality" />
		<tag k="ssr:stedsnr" v="781530" />
	</node>
	<node id="-338466" lat="60.9495138902" lon="9.59253054648">
		<tag k="name" v="Ragnhildhuslie" />
		<tag k="natural" v="slope" />
		<tag k="place" v="locality" />
		<tag k="ssr:stedsnr" v="781509" />
	</node>
	<node id="-338464" lat="60.9698777799" lon="9.68378610753">
		<tag k="fixme" v="consider natural=peak for the most distinct mountains in the district" />
		<tag k="name" v="Kjerringstølhøgdi" />
		<tag k="natural" v="hill" />
		<tag k="place" v="locality" />
		<tag k="ssr:stedsnr" v="919937" />
	</node>
	<node id="-337668" lat="61.0751388887" lon="9.71576943745">
		<tag k="name" v="Styggedalen" />
		<tag k="natural" v="valley" />
		<tag k="place" v="locality" />
		<tag k="ssr:stedsnr" v="115213" />
	</node>
	<node id="-338454" lat="61.0213416696" lon="9.58245000531">
		<tag k="name" v="Langedalen" />
		<tag k="natural" v="valley" />
		<tag k="place" v="locality" />
		<tag k="ssr:stedsnr" v="918599" />
	</node>
	<node id="-338449" lat="61.0093361155" lon="9.62231111815">
		<tag k="name" v="Geiteberget" />
		<tag k="natural" v="hill" />
		<tag k="place" v="locality" />
		<tag k="ssr:stedsnr" v="917349" />
	</node>
	<node id="-338443" lat="60.8675083321" lon="9.66867499784">
		<tag k="name" v="Gråbeinhaugen" />
		<tag k="natural" v="hill" />
		<tag k="place" v="locality" />
		<tag k="ssr:stedsnr" v="904850" />
	</node>
	<node id="-338442" lat="60.8282444464" lon="9.69034722784">
		<tag k="name" v="Midthaugatn" />
		<tag k="natural" v="hill" />
		<tag k="place" v="locality" />
		<tag k="ssr:stedsnr" v="904645" />
	</node>
	<node id="-338440" lat="60.8621972188" lon="9.74643888834">
		<tag k="name" v="Haugaslette" />
		<tag k="place" v="locality" />
		<tag k="ssr:stedsnr" v="904750" />
	</node>
	<node id="-338438" lat="60.8535027775" lon="9.71866667434">
		<tag k="name" v="Røsterenna" />
		<tag k="place" v="locality" />
		<tag k="ssr:stedsnr" v="904739" />
	</node>
	<node id="-338436" lat="60.8499777765" lon="9.73476387989">
		<tag k="name" v="Lundbyhaugen" />
		<tag k="natural" v="hill" />
		<tag k="place" v="locality" />
		<tag k="ssr:stedsnr" v="904731" />
	</node>
	<node id="-338434" lat="61.0448111143" lon="9.49321110376">
		<tag k="name" v="Grånstøllie" />
		<tag k="natural" v="slope" />
		<tag k="place" v="locality" />
		<tag k="ssr:stedsnr" v="904231" />
	</node>
	<node id="-338424" lat="61.0570194479" lon="9.45585555033">
		<tag k="name" v="Kvitebergknatten" />
		<tag k="natural" v="hill" />
		<tag k="place" v="locality" />
		<tag k="ssr:stedsnr" v="904481" />
	</node>
	<node id="-338422" lat="60.9521083319" lon="9.50892776993">
		<tag k="name" v="Stølslidalen" />
		<tag k="natural" v="valley" />
		<tag k="place" v="locality" />
		<tag k="ssr:stedsnr" v="904342" />
	</node>
	<node id="-338413" lat="60.9110055552" lon="9.56718055214">
		<tag k="alt_name" v="Totjednberget" />
		<tag k="name" v="Totjernberget" />
		<tag k="natural" v="cliff" />
		<tag k="ssr:stedsnr" v="903778" />
	</node>
	<node id="-338412" lat="60.9076944477" lon="9.5736305587">
		<tag k="fixme" v="consider natural=peak for the most distinct mountains in the district" />
		<tag k="name" v="Sæterfjellet" />
		<tag k="natural" v="hill" />
		<tag k="ssr:stedsnr" v="903777" />
	</node>
	<node id="-338411" lat="60.9647805589" lon="9.71914445047">
		<tag k="name" v="Garastøldalen" />
		<tag k="natural" v="valley" />
		<tag k="place" v="locality" />
		<tag k="ssr:stedsnr" v="903627" />
	</node>
	<node id="-338402" lat="61.0662777735" lon="9.60646667213">
		<tag k="name" v="Grøvabergi" />
		<tag k="natural" v="hill" />
		<tag k="place" v="locality" />
		<tag k="ssr:stedsnr" v="736611" />
	</node>
	<node id="-338399" lat="60.932733334" lon="9.62803055235">
		<tag k="name" v="Kalbuhaugen" />
		<tag k="natural" v="hill" />
		<tag k="place" v="locality" />
		<tag k="ssr:stedsnr" v="903459" />
	</node>
	<node id="-338398" lat="60.8932555514" lon="9.73929722785">
		<tag k="alt_name" v="Tubbetjednhaugen" />
		<tag k="name" v="Tubbetjernhaugen" />
		<tag k="natural" v="hill" />
		<tag k="place" v="locality" />
		<tag k="ssr:stedsnr" v="903148" />
	</node>
	<node id="-338397" lat="60.8511638851" lon="9.65447777053">
		<tag k="name" v="Trondsæterknatten" />
		<tag k="natural" v="hill" />
		<tag k="place" v="locality" />
		<tag k="ssr:stedsnr" v="903035" />
	</node>
	<node id="-338395" lat="60.9022472216" lon="9.66614166405">
		<tag k="name" v="Brattbakkhøgde" />
		<tag k="natural" v="hill" />
		<tag k="place" v="locality" />
		<tag k="ssr:stedsnr" v="903027" />
	</node>
	<node id="-338394" lat="60.8455972203" lon="9.65493334184">
		<tag k="alt_name" v="Flåtjednhaugen" />
		<tag k="name" v="Flåtjernhaugen" />
		<tag k="natural" v="hill" />
		<tag k="place" v="locality" />
		<tag k="ssr:stedsnr" v="903024" />
	</node>
	<node id="-338391" lat="60.8929638888" lon="9.67000000488">
		<tag k="name" v="Skålerudberget" />
		<tag k="natural" v="cliff" />
		<tag k="ssr:stedsnr" v="903111" />
	</node>
	<node id="-338390" lat="60.8931749986" lon="9.66536110784">
		<tag k="name" v="Tverrhaugrenna" />
		<tag k="natural" v="valley" />
		<tag k="place" v="locality" />
		<tag k="ssr:stedsnr" v="903109" />
	</node>
	<node id="-338387" lat="60.852036109" lon="9.61453888147">
		<tag k="name" v="Utsikte" />
		<tag k="natural" v="hill" />
		<tag k="place" v="locality" />
		<tag k="ssr:stedsnr" v="903092" />
	</node>
	<node id="-338378" lat="61.0968666653" lon="9.70550277786">
		<tag k="name" v="Bjødnslette" />
		<tag k="place" v="locality" />
		<tag k="ssr:stedsnr" v="902247" />
	</node>
	<node id="-338377" lat="61.0984333358" lon="9.70298055226">
		<tag k="name" v="Lenningshøgdhalle" />
		<tag k="natural" v="slope" />
		<tag k="place" v="locality" />
		<tag k="ssr:stedsnr" v="902243" />
	</node>
	<node id="-338375" lat="60.9008750045" lon="9.57024445167">
		<tag k="name" v="Storesteinatn" />
		<tag k="natural" v="hill" />
		<tag k="place" v="locality" />
		<tag k="ssr:stedsnr" v="902141" />
	</node>
	<node id="-338374" lat="60.9009861082" lon="9.57985000027">
		<tag k="name" v="Øvre Skøre" />
		<tag k="place" v="locality" />
		<tag k="ssr:stedsnr" v="902131" />
	</node>
	<node id="-338367" lat="60.9147972187" lon="9.71217222711">
		<tag k="name" v="Gråbeindalen" />
		<tag k="natural" v="valley" />
		<tag k="place" v="locality" />
		<tag k="ssr:stedsnr" v="721516" />
	</node>
	<node id="-337653" lat="60.8883750004" lon="9.64421944408">
		<tag k="fixme" v="consider natural=peak for the most distinct mountains in the district" />
		<tag k="name" v="Kallehauge" />
		<tag k="natural" v="hill" />
		<tag k="place" v="locality" />
		<tag k="ssr:stedsnr" v="114416" />
	</node>
	<node id="-338364" lat="61.0213416686" lon="9.63903055951">
		<tag k="name" v="Skibakkin" />
		<tag k="natural" v="slope" />
		<tag k="place" v="locality" />
		<tag k="ssr:stedsnr" v="721233" />
	</node>
	<node id="-338359" lat="60.8786944467" lon="9.58771666618">
		<tag k="name" v="Bakke" />
		<tag k="natural" v="slope" />
		<tag k="place" v="locality" />
		<tag k="ssr:stedsnr" v="720855" />
	</node>
	<node id="-338356" lat="60.9395305566" lon="9.57961110264">
		<tag k="name" v="Rotdikje" />
		<tag k="place" v="locality" />
		<tag k="ssr:stedsnr" v="720411" />
	</node>
	<node id="-338353" lat="60.8959444452" lon="9.60729167274">
		<tag k="name" v="Løppelihaugen" />
		<tag k="natural" v="hill" />
		<tag k="place" v="locality" />
		<tag k="ssr:stedsnr" v="720382" />
	</node>
	<node id="-338348" lat="60.8942694447" lon="9.59038056094">
		<tag k="name" v="Usledalen" />
		<tag k="natural" v="valley" />
		<tag k="place" v="locality" />
		<tag k="ssr:stedsnr" v="720004" />
	</node>
	<node id="-337719" lat="61.0456138933" lon="9.59500833605">
		<tag k="name" v="Nyhuslie" />
		<tag k="natural" v="slope" />
		<tag k="place" v="locality" />
		<tag k="ssr:stedsnr" v="295892" />
	</node>
	<node id="-338335" lat="60.9652499965" lon="9.7077555599">
		<tag k="alt_name" v="Nedre Kinnhaugen" />
		<tag k="fixme" v="consider natural=peak for the most distinct mountains in the district" />
		<tag k="name" v="Kinnhaugen" />
		<tag k="natural" v="hill" />
		<tag k="place" v="locality" />
		<tag k="ssr:stedsnr" v="676956" />
	</node>
	<node id="-338334" lat="60.9627499966" lon="9.73865277119">
		<tag k="fixme" v="consider natural=peak for the most distinct mountains in the district" />
		<tag k="name" v="Garastølhaugen" />
		<tag k="natural" v="hill" />
		<tag k="place" v="locality" />
		<tag k="ssr:stedsnr" v="676954" />
	</node>
	<node id="-338327" lat="61.0642111139" lon="9.71018333649">
		<tag k="name" v="Klufteflata" />
		<tag k="place" v="locality" />
		<tag k="ssr:stedsnr" v="675656" />
	</node>
	<node id="-338322" lat="60.8430138927" lon="9.72240555466">
		<tag k="name" v="Hasselslette" />
		<tag k="place" v="locality" />
		<tag k="ssr:stedsnr" v="661726" />
	</node>
	<node id="-338320" lat="60.9217111139" lon="9.79245000095">
		<tag k="name" v="Anderssvehøgde" />
		<tag k="natural" v="hill" />
		<tag k="place" v="locality" />
		<tag k="ssr:stedsnr" v="661870" />
	</node>
	<node id="-338319" lat="60.9548388897" lon="9.50863888829">
		<tag k="name" v="Vesterdalen" />
		<tag k="natural" v="valley" />
		<tag k="place" v="locality" />
		<tag k="ssr:stedsnr" v="661328" />
	</node>
	<node id="-338318" lat="60.9706111144" lon="9.53911110677">
		<tag k="name" v="Storslettlie" />
		<tag k="natural" v="slope" />
		<tag k="place" v="locality" />
		<tag k="ssr:stedsnr" v="661325" />
	</node>
	<node id="-338315" lat="61.0376305573" lon="9.72871665774">
		<tag k="name" v="Melihalle" />
		<tag k="natural" v="slope" />
		<tag k="place" v="locality" />
		<tag k="ssr:stedsnr" v="660916" />
	</node>
	<node id="-338309" lat="61.0756722186" lon="9.60329999082">
		<tag k="name" v="Skilnaddalen" />
		<tag k="natural" v="valley" />
		<tag k="place" v="locality" />
		<tag k="ssr:stedsnr" v="660277" />
	</node>
	<node id="-338294" lat="61.0202694448" lon="9.545875003">
		<tag k="name" v="Kvednahusdalen" />
		<tag k="natural" v="valley" />
		<tag k="place" v="locality" />
		<tag k="ssr:stedsnr" v="724565" />
	</node>
	<node id="-337641" lat="61.0807305592" lon="9.68525554785">
		<tag k="alt_name" v="Røgletjednhalle" />
		<tag k="name" v="Røgletjernhalle" />
		<tag k="natural" v="slope" />
		<tag k="place" v="locality" />
		<tag k="ssr:stedsnr" v="113225" />
	</node>
	<node id="-338292" lat="60.865686113" lon="9.68119444119">
		<tag k="name" v="Vedahogsthøgde" />
		<tag k="natural" v="hill" />
		<tag k="place" v="locality" />
		<tag k="ssr:stedsnr" v="722860" />
	</node>
	<node id="-338279" lat="61.0760972238" lon="9.54991111859">
		<tag k="name" v="Hovda" />
		<tag k="natural" v="hill" />
		<tag k="place" v="locality" />
		<tag k="ssr:stedsnr" v="722492" />
	</node>
	<node id="-338276" lat="60.8479750029" lon="9.77314166855">
		<tag k="name" v="Gråndalen" />
		<tag k="natural" v="valley" />
		<tag k="place" v="locality" />
		<tag k="ssr:stedsnr" v="722299" />
	</node>
	<node id="-338262" lat="60.9094055593" lon="9.72012777962">
		<tag k="name" v="Austre Lundsæterhaugen" />
		<tag k="natural" v="hill" />
		<tag k="place" v="locality" />
		<tag k="ssr:stedsnr" v="721716" />
	</node>
	<node id="-338261" lat="60.9062888865" lon="9.72197499678">
		<tag k="name" v="Vestre Lundsæterhaugen" />
		<tag k="natural" v="hill" />
		<tag k="place" v="locality" />
		<tag k="ssr:stedsnr" v="721714" />
	</node>
	<node id="-338260" lat="60.9623222264" lon="9.55516666152">
		<tag k="name" v="Ørneberget" />
		<tag k="natural" v="hill" />
		<tag k="place" v="locality" />
		<tag k="ssr:stedsnr" v="616595" />
	</node>
	<node id="-338257" lat="60.8877249958" lon="9.61865277607">
		<tag k="name" v="Plassaberget" />
		<tag k="natural" v="cliff" />
		<tag k="ssr:stedsnr" v="721481" />
	</node>
	<node id="-338255" lat="60.9478138885" lon="9.74011943737">
		<tag k="alt_name" v="Småtjednberget" />
		<tag k="name" v="Småtjernberget" />
		<tag k="natural" v="slope" />
		<tag k="place" v="locality" />
		<tag k="ssr:stedsnr" v="721458" />
	</node>
	<node id="-338252" lat="60.9925499965" lon="9.70524167309">
		<tag k="name" v="Grånstølhøgde" />
		<tag k="natural" v="hill" />
		<tag k="place" v="locality" />
		<tag k="ssr:stedsnr" v="721411" />
	</node>
	<node id="-338248" lat="60.9404861095" lon="9.69476943991">
		<tag k="name" v="Heggedal" />
		<tag k="natural" v="valley" />
		<tag k="place" v="locality" />
		<tag k="ssr:stedsnr" v="721194" />
	</node>
	<node id="-338243" lat="60.9724916644" lon="9.71726666758">
		<tag k="alt_name" v="Uksetjednlie" />
		<tag k="name" v="Uksetjernlie" />
		<tag k="natural" v="slope" />
		<tag k="place" v="locality" />
		<tag k="ssr:stedsnr" v="721142" />
	</node>
	<node id="-338242" lat="60.894808332" lon="9.72123611465">
		<tag k="name" v="Gåseberghøgde" />
		<tag k="natural" v="ridge" />
		<tag k="place" v="locality" />
		<tag k="ssr:stedsnr" v="721139" />
	</node>
	<node id="-338238" lat="60.8492305542" lon="9.70690277474">
		<tag k="name" v="Heskinhyttegruva" />
		<tag k="place" v="locality" />
		<tag k="ssr:stedsnr" v="721098" />
	</node>
	<node id="-338237" lat="60.8867916696" lon="9.73256943924">
		<tag k="name" v="Selbrennshøgde" />
		<tag k="natural" v="hill" />
		<tag k="place" v="locality" />
		<tag k="ssr:stedsnr" v="721050" />
	</node>
	<node id="-337631" lat="60.9213861076" lon="9.70486389283">
		<tag k="alt_name" v="Byfelifjellet" />
		<tag k="fixme" v="consider natural=peak for the most distinct mountains in the district" />
		<tag k="name" v="Byfellifjellet" />
		<tag k="natural" v="hill" />
		<tag k="place" v="locality" />
		<tag k="ssr:stedsnr" v="252881" />
	</node>
	<node id="-338231" lat="60.9483277737" lon="9.60277222937">
		<tag k="name" v="Kringlelie" />
		<tag k="natural" v="slope" />
		<tag k="place" v="locality" />
		<tag k="ssr:stedsnr" v="720929" />
	</node>
	<node id="-338230" lat="60.9551361072" lon="9.63535833545">
		<tag k="name" v="Dokkaberget" />
		<tag k="natural" v="cliff" />
		<tag k="ssr:stedsnr" v="720923" />
	</node>
	<node id="-338227" lat="61.0444277796" lon="9.61105555879">
		<tag k="name" v="Bjødnastøllie" />
		<tag k="natural" v="slope" />
		<tag k="place" v="locality" />
		<tag k="ssr:stedsnr" v="720905" />
	</node>
	<node id="-338223" lat="60.881494441" lon="9.58852221362">
		<tag k="name" v="Breieshaugen" />
		<tag k="natural" v="hill" />
		<tag k="place" v="locality" />
		<tag k="ssr:stedsnr" v="720857" />
	</node>
	<node id="-338222" lat="60.9309388904" lon="9.61827221314">
		<tag k="name" v="Heimskoglie" />
		<tag k="natural" v="slope" />
		<tag k="place" v="locality" />
		<tag k="ssr:stedsnr" v="720739" />
	</node>
	<node id="-338219" lat="60.9764749975" lon="9.64531944725">
		<tag k="name" v="Lauvhallhøgde" />
		<tag k="natural" v="hill" />
		<tag k="place" v="locality" />
		<tag k="ssr:stedsnr" v="720677" />
	</node>
	<node id="-338215" lat="60.9523166698" lon="9.58613888752">
		<tag k="name" v="Langemoen" />
		<tag k="place" v="locality" />
		<tag k="ssr:stedsnr" v="720524" />
	</node>
	<node id="-338210" lat="61.0697249957" lon="9.65025278263">
		<tag k="name" v="Hafsennstølhøgde" />
		<tag k="natural" v="hill" />
		<tag k="place" v="locality" />
		<tag k="ssr:stedsnr" v="720284" />
	</node>
	<node id="-338207" lat="61.0655527804" lon="9.56816388251">
		<tag k="name" v="Huldranabben" />
		<tag k="natural" v="hill" />
		<tag k="place" v="locality" />
		<tag k="ssr:stedsnr" v="720256" />
	</node>
	<node id="-338205" lat="60.9308388865" lon="9.57589167318">
		<tag k="name" v="Storhusskaret" />
		<tag k="natural" v="valley" />
		<tag k="place" v="locality" />
		<tag k="ssr:stedsnr" v="720402" />
	</node>
	<node id="-338200" lat="61.0061500042" lon="9.57309444363">
		<tag k="name" v="Brøtatn" />
		<tag k="place" v="locality" />
		<tag k="ssr:stedsnr" v="719341" />
	</node>
	<node id="-338193" lat="61.0564888891" lon="9.73651943905">
		<tag k="name" v="Storhøgde" />
		<tag k="natural" v="hill" />
		<tag k="place" v="locality" />
		<tag k="ssr:stedsnr" v="600163" />
	</node>
	<node id="-338192" lat="61.0394388861" lon="9.66359166849">
		<tag k="alt_name" v="Kalvetjednhøgde" />
		<tag k="name" v="Kalvetjernhøgde" />
		<tag k="natural" v="hill" />
		<tag k="place" v="locality" />
		<tag k="ssr:stedsnr" v="599954" />
	</node>
	<node id="-338191" lat="60.863336107" lon="9.60711666639">
		<tag k="name" v="Høgebrenn" />
		<tag k="natural" v="hill" />
		<tag k="place" v="locality" />
		<tag k="ssr:stedsnr" v="599787" />
	</node>
	<node id="-338190" lat="60.8407722183" lon="9.7658111188">
		<tag k="name" v="Romsrenna" />
		<tag k="place" v="locality" />
		<tag k="ssr:stedsnr" v="599632" />
	</node>
	<node id="-338187" lat="60.9308694417" lon="9.55545000567">
		<tag k="name" v="Matlie" />
		<tag k="natural" v="slope" />
		<tag k="place" v="locality" />
		<tag k="ssr:stedsnr" v="599375" />
	</node>
	<node id="-338178" lat="60.9887777768" lon="9.60220555578">
		<tag k="name" v="Høgbrenne" />
		<tag k="natural" v="hill" />
		<tag k="place" v="locality" />
		<tag k="ssr:stedsnr" v="598642" />
	</node>
	<node id="-338171" lat="60.9078111088" lon="9.58822778332">
		<tag k="name" v="Tiuhaugen" />
		<tag k="natural" v="hill" />
		<tag k="place" v="locality" />
		<tag k="ssr:stedsnr" v="555706" />
	</node>
	<node id="-338170" lat="61.0253972264" lon="9.54771945034">
		<tag k="name" v="Møsebakkatn" />
		<tag k="natural" v="slope" />
		<tag k="place" v="locality" />
		<tag k="ssr:stedsnr" v="555519" />
	</node>
	<node id="-338166" lat="61.1028027818" lon="9.66668055199">
		<tag k="name" v="Hølbekknabben" />
		<tag k="natural" v="ridge" />
		<tag k="place" v="locality" />
		<tag k="ssr:stedsnr" v="693727" />
	</node>
	<node id="-338165" lat="60.9902749977" lon="9.6903472163">
		<tag k="name" v="Grånstøllie" />
		<tag k="natural" v="slope" />
		<tag k="place" v="locality" />
		<tag k="ssr:stedsnr" v="693627" />
	</node>
	<node id="-338163" lat="60.8763277744" lon="9.73175834007">
		<tag k="name" v="Stubberud" />
		<tag k="natural" v="slope" />
		<tag k="place" v="locality" />
		<tag k="ssr:stedsnr" v="540763" />
	</node>
	<node id="-338159" lat="61.0455972254" lon="9.52279444904">
		<tag k="name" v="Myrløodalen" />
		<tag k="natural" v="valley" />
		<tag k="place" v="locality" />
		<tag k="ssr:stedsnr" v="540156" />
	</node>
	<node id="-338157" lat="61.051313887" lon="9.48514445215">
		<tag k="name" v="Stølaberget" />
		<tag k="place" v="locality" />
		<tag k="ssr:stedsnr" v="540212" />
	</node>
	<node id="-338150" lat="60.896869445" lon="9.66086666615">
		<tag k="name" v="Kleivaberget" />
		<tag k="natural" v="cliff" />
		<tag k="ssr:stedsnr" v="539016" />
	</node>
	<node id="-338149" lat="61.0226472184" lon="9.58904444998">
		<tag k="name" v="Huggustup" />
		<tag k="natural" v="cliff" />
		<tag k="ssr:stedsnr" v="538609" />
	</node>
	<node id="-338148" lat="61.0210138906" lon="9.55669166058">
		<tag k="name" v="Hovdalie" />
		<tag k="natural" v="slope" />
		<tag k="place" v="locality" />
		<tag k="ssr:stedsnr" v="538606" />
	</node>
	<node id="-338144" lat="60.8874805533" lon="9.5745027812">
		<tag k="alt_name" v="Gravatjednhaugen" />
		<tag k="name" v="Gravatjernhaugen" />
		<tag k="natural" v="hill" />
		<tag k="place" v="locality" />
		<tag k="ssr:stedsnr" v="538017" />
	</node>
	<node id="-338138" lat="60.9032000038" lon="9.58685832434">
		<tag k="alt_name" v="Fjellsvardin" />
		<tag k="fixme" v="consider natural=peak for the most distinct mountains in the district" />
		<tag k="name" v="Fjellsvarden" />
		<tag k="natural" v="hill" />
		<tag k="place" v="locality" />
		<tag k="ssr:stedsnr" v="495721" />
	</node>
	<node id="-338136" lat="60.9225416662" lon="9.72561944913">
		<tag k="alt_name" v="Bjødnahaugen" />
		<tag k="fixme" v="consider natural=peak for the most distinct mountains in the district" />
		<tag k="name" v="Langvassåsen" />
		<tag k="natural" v="hill" />
		<tag k="place" v="locality" />
		<tag k="ssr:stedsnr" v="494893" />
	</node>
	<node id="-338130" lat="60.9091361115" lon="9.60913055228">
		<tag k="alt_name" v="Kvithovdan" />
		<tag k="fixme" v="consider natural=peak for the most distinct mountains in the district" />
		<tag k="name" v="Kvithovda" />
		<tag k="natural" v="hill" />
		<tag k="place" v="locality" />
		<tag k="ssr:stedsnr" v="676893" />
	</node>
	<node id="-338128" lat="60.9780861077" lon="9.68093889631">
		<tag k="alt_name" v="Utsikta" />
		<tag k="fixme" v="consider natural=peak for the most distinct mountains in the district" />
		<tag k="name" v="Utsikte" />
		<tag k="natural" v="hill" />
		<tag k="place" v="locality" />
		<tag k="ssr:stedsnr" v="676986" />
	</node>
	<node id="-338125" lat="60.8743222208" lon="9.70686667444">
		<tag k="name" v="Etnedalen" />
		<tag k="natural" v="valley" />
		<tag k="place" v="locality" />
		<tag k="ssr:stedsnr" v="676023" />
	</node>
	<node id="-338116" lat="61.0310527752" lon="9.52432777688">
		<tag k="fixme" v="consider natural=peak for the most distinct mountains in the district" />
		<tag k="name" v="Toåsen" />
		<tag k="natural" v="hill" />
		<tag k="place" v="locality" />
		<tag k="ssr:stedsnr" v="675607" />
	</node>
	<node id="-338113" lat="61.093088893" lon="9.63908055801">
		<tag k="name" v="Slaverihøgdi" />
		<tag k="natural" v="hill" />
		<tag k="place" v="locality" />
		<tag k="ssr:stedsnr" v="675684" />
	</node>
	<node id="-338101" lat="61.0819888848" lon="9.71462777567">
		<tag k="fixme" v="consider natural=peak for the most distinct mountains in the district" />
		<tag k="name" v="Nordre Lenningen" />
		<tag k="natural" v="hill" />
		<tag k="place" v="locality" />
		<tag k="ssr:stedsnr" v="482817" />
	</node>
	<node id="-338100" lat="61.0313055532" lon="9.53203332536">
		<tag k="fixme" v="consider natural=peak for the most distinct mountains in the district" />
		<tag k="name" v="Langeberget" />
		<tag k="natural" v="hill" />
		<tag k="place" v="locality" />
		<tag k="ssr:stedsnr" v="481614" />
	</node>
	<node id="-338092" lat="60.9310527805" lon="9.75932222016">
		<tag k="name" v="Vestre Steindavøllhøgde" />
		<tag k="natural" v="hill" />
		<tag k="place" v="locality" />
		<tag k="ssr:stedsnr" v="479359" />
	</node>
	<node id="-338090" lat="60.9744944421" lon="9.52426943792">
		<tag k="name" v="Saghaugen" />
		<tag k="natural" v="hill" />
		<tag k="place" v="locality" />
		<tag k="ssr:stedsnr" v="479327" />
	</node>
	<node id="-338089" lat="61.0387916635" lon="9.51812778586">
		<tag k="name" v="Sandbakkin" />
		<tag k="place" v="locality" />
		<tag k="ssr:stedsnr" v="479154" />
	</node>
	<node id="-338082" lat="60.9292499972" lon="9.67251665898">
		<tag k="name" v="Svarteputtberget" />
		<tag k="natural" v="cliff" />
		<tag k="ssr:stedsnr" v="478766" />
	</node>
	<node id="-338081" lat="60.9225722203" lon="9.76485833244">
		<tag k="name" v="Storsvehalle" />
		<tag k="natural" v="slope" />
		<tag k="place" v="locality" />
		<tag k="ssr:stedsnr" v="478713" />
	</node>
	<node id="-338080" lat="60.9246055557" lon="9.76424166089">
		<tag k="name" v="Storsvehøgde" />
		<tag k="natural" v="hill" />
		<tag k="place" v="locality" />
		<tag k="ssr:stedsnr" v="478712" />
	</node>
	<node id="-338071" lat="60.8555444403" lon="9.65462221679">
		<tag k="name" v="Leikhøgde" />
		<tag k="natural" v="hill" />
		<tag k="place" v="locality" />
		<tag k="ssr:stedsnr" v="478017" />
	</node>
	<node id="-338070" lat="60.8951472253" lon="9.67341944138">
		<tag k="name" v="Storhalle" />
		<tag k="natural" v="slope" />
		<tag k="place" v="locality" />
		<tag k="ssr:stedsnr" v="478014" />
	</node>
	<node id="-338068" lat="60.9173500024" lon="9.68744166399">
		<tag k="name" v="Øvrigardshaugen" />
		<tag k="natural" v="hill" />
		<tag k="place" v="locality" />
		<tag k="ssr:stedsnr" v="477567" />
	</node>
	<node id="-338064" lat="61.0978388887" lon="9.5645611131">
		<tag k="fixme" v="consider natural=peak for the most distinct mountains in the district" />
		<tag k="name" v="Katurdberget" />
		<tag k="natural" v="hill" />
		<tag k="place" v="locality" />
		<tag k="ssr:stedsnr" v="477321" />
	</node>
	<node id="-338061" lat="61.0891611151" lon="9.69053611294">
		<tag k="alt_name" v="Lortetjednhaugatn" />
		<tag k="name" v="Lortetjernhaugatn" />
		<tag k="natural" v="hill" />
		<tag k="place" v="locality" />
		<tag k="ssr:stedsnr" v="477259" />
	</node>
	<node id="-338054" lat="60.863658335" lon="9.74181667223">
		<tag k="name" v="Storfurubakkin" />
		<tag k="natural" v="slope" />
		<tag k="place" v="locality" />
		<tag k="ssr:stedsnr" v="661845" />
	</node>
	<node id="-338039" lat="61.0577444445" lon="9.54094445315">
		<tag k="name" v="Smiugardslie" />
		<tag k="natural" v="slope" />
		<tag k="place" v="locality" />
		<tag k="ssr:stedsnr" v="661356" />
	</node>
	<node id="-338037" lat="61.0357277779" lon="9.51400555259">
		<tag k="name" v="Øykjehoppet" />
		<tag k="place" v="locality" />
		<tag k="ssr:stedsnr" v="661135" />
	</node>
	<node id="-338035" lat="61.014219446" lon="9.48970276865">
		<tag k="name" v="Stadsvøllporten" />
		<tag k="place" v="locality" />
		<tag k="ssr:stedsnr" v="661010" />
	</node>
	<node id="-338034" lat="60.9225305521" lon="9.58918889341">
		<tag k="name" v="Heimstøllie" />
		<tag k="natural" v="slope" />
		<tag k="place" v="locality" />
		<tag k="ssr:stedsnr" v="660946" />
	</node>
	<node id="-338032" lat="60.9176472257" lon="9.79043055827">
		<tag k="name" v="Nysvehaugen" />
		<tag k="natural" v="hill" />
		<tag k="place" v="locality" />
		<tag k="ssr:stedsnr" v="660805" />
	</node>
	<node id="-338020" lat="60.9041527786" lon="9.59922777139">
		<tag k="name" v="Nybrenna" />
		<tag k="place" v="locality" />
		<tag k="ssr:stedsnr" v="660425" />
	</node>
	<node id="-338016" lat="61.0168111155" lon="9.62675000433">
		<tag k="name" v="Kyrhaughøgde" />
		<tag k="natural" v="hill" />
		<tag k="place" v="locality" />
		<tag k="ssr:stedsnr" v="660250" />
	</node>
	<node id="-338009" lat="60.8611805534" lon="9.6929555528">
		<tag k="name" v="Øspelundsveberget" />
		<tag k="natural" v="cliff" />
		<tag k="ssr:stedsnr" v="660135" />
	</node>
	<node id="-338006" lat="60.8855138846" lon="9.69456945046">
		<tag k="name" v="Bringebærdalen" />
		<tag k="natural" v="valley" />
		<tag k="place" v="locality" />
		<tag k="ssr:stedsnr" v="660009" />
	</node>
	<node id="-338003" lat="60.9995777748" lon="9.7522694406">
		<tag k="name" v="Duggurdshaugberget" />
		<tag k="natural" v="hill" />
		<tag k="place" v="locality" />
		<tag k="ssr:stedsnr" v="659484" />
	</node>
	<node id="-337999" lat="61.0327305586" lon="9.567836111">
		<tag k="name" v="Ryggeberget" />
		<tag k="natural" v="hill" />
		<tag k="place" v="locality" />
		<tag k="ssr:stedsnr" v="659368" />
	</node>
	<node id="-337997" lat="61.0108944469" lon="9.58055833166">
		<tag k="name" v="Rundehaugen" />
		<tag k="natural" v="hill" />
		<tag k="place" v="locality" />
		<tag k="ssr:stedsnr" v="659363" />
	</node>
	<node id="-337993" lat="60.8833222205" lon="9.59131944319">
		<tag k="name" v="Bakhalle" />
		<tag k="natural" v="slope" />
		<tag k="place" v="locality" />
		<tag k="ssr:stedsnr" v="659015" />
	</node>
	<node id="-337992" lat="60.8886277741" lon="9.58933610832">
		<tag k="name" v="Lie" />
		<tag k="natural" v="slope" />
		<tag k="place" v="locality" />
		<tag k="ssr:stedsnr" v="659012" />
	</node>
	<node id="-337989" lat="60.9924861105" lon="9.61996110683">
		<tag k="fixme" v="consider natural=peak for the most distinct mountains in the district" />
		<tag k="name" v="Holbakkan" />
		<tag k="natural" v="hill" />
		<tag k="place" v="locality" />
		<tag k="ssr:stedsnr" v="434732" />
	</node>
	<node id="-337982" lat="61.0686194428" lon="9.69229444484">
		<tag k="fixme" v="consider natural=peak for the most distinct mountains in the district" />
		<tag k="name" v="Ryggetrøfjellet" />
		<tag k="natural" v="hill" />
		<tag k="place" v="locality" />
		<tag k="ssr:stedsnr" v="432616" />
	</node>
	<node id="-337981" lat="61.0770722262" lon="9.78943332902">
		<tag k="fixme" v="consider natural=peak for the most distinct mountains in the district" />
		<tag k="name" v="Spåtind" />
		<tag k="natural" v="hill" />
		<tag k="place" v="locality" />
		<tag k="ssr:stedsnr" v="432609" />
	</node>
	<node id="-337978" lat="60.8716611105" lon="9.742941666">
		<tag k="name" v="Kongshølet" />
		<tag k="natural" v="valley" />
		<tag k="place" v="locality" />
		<tag k="ssr:stedsnr" v="419811" />
	</node>
	<node id="-337977" lat="60.9635333318" lon="9.50999722128">
		<tag k="name" v="Austre Kinndalen" />
		<tag k="natural" v="valley" />
		<tag k="place" v="locality" />
		<tag k="ssr:stedsnr" v="419530" />
	</node>
	<node id="-337976" lat="60.8266138903" lon="9.73691111563">
		<tag k="name" v="Leikhøgde" />
		<tag k="natural" v="hill" />
		<tag k="place" v="locality" />
		<tag k="ssr:stedsnr" v="419509" />
	</node>
	<node id="-337971" lat="60.9537749999" lon="9.66825000844">
		<tag k="name" v="Heimstølkleive" />
		<tag k="place" v="locality" />
		<tag k="ssr:stedsnr" v="418822" />
	</node>
	<node id="-337970" lat="60.91798333" lon="9.78224999976">
		<tag k="name" v="Ørmebakkin" />
		<tag k="natural" v="slope" />
		<tag k="place" v="locality" />
		<tag k="ssr:stedsnr" v="418815" />
	</node>
	<node id="-337965" lat="60.99906111" lon="9.71180278476">
		<tag k="name" v="Høghalle" />
		<tag k="natural" v="hill" />
		<tag k="place" v="locality" />
		<tag k="ssr:stedsnr" v="418408" />
	</node>
	<node id="-337962" lat="60.8507944482" lon="9.66766388073">
		<tag k="name" v="Hersjadalen" />
		<tag k="natural" v="valley" />
		<tag k="place" v="locality" />
		<tag k="ssr:stedsnr" v="418122" />
	</node>
	<node id="-337961" lat="60.8448222239" lon="9.70658333656">
		<tag k="name" v="Heimhølet" />
		<tag k="natural" v="valley" />
		<tag k="place" v="locality" />
		<tag k="ssr:stedsnr" v="418107" />
	</node>
	<node id="-337960" lat="60.8937472232" lon="9.69766111206">
		<tag k="name" v="Åborvasshøgde" />
		<tag k="natural" v="hill" />
		<tag k="old_name" v="Øbbervasshøgde" />
		<tag k="place" v="locality" />
		<tag k="ssr:stedsnr" v="418026" />
	</node>
	<node id="-337958" lat="60.8962472261" lon="9.69190832614">
		<tag k="fixme" v="consider natural=peak for the most distinct mountains in the district" />
		<tag k="name" v="Åborvassberget" />
		<tag k="natural" v="hill" />
		<tag k="old_name" v="Øbbervassberget" />
		<tag k="place" v="locality" />
		<tag k="ssr:stedsnr" v="418018" />
	</node>
	<node id="-337956" lat="60.8527138861" lon="9.573049997">
		<tag k="name" v="Tyrihaugen" />
		<tag k="natural" v="hill" />
		<tag k="place" v="locality" />
		<tag k="ssr:stedsnr" v="417906" />
	</node>
	<node id="-337931" lat="60.9898750025" lon="9.69920555579">
		<tag k="fixme" v="consider natural=peak for the most distinct mountains in the district" />
		<tag k="name" v="Granstølhøgdi" />
		<tag k="natural" v="hill" />
		<tag k="place" v="locality" />
		<tag k="ssr:stedsnr" v="495973" />
	</node>
	<node id="-337927" lat="60.8723916647" lon="9.56723333953">
		<tag k="alt_name" v="Øyangslii" />
		<tag k="name" v="Øyangslie" />
		<tag k="natural" v="slope" />
		<tag k="old_name" v="Øygangslii" />
		<tag k="place" v="locality" />
		<tag k="ssr:stedsnr" v="494636" />
	</node>
	<node id="-337925" lat="60.9618444441" lon="9.50924443642">
		<tag k="fixme" v="consider natural=peak for the most distinct mountains in the district" />
		<tag k="name" v="Kyrkjeknatten" />
		<tag k="natural" v="hill" />
		<tag k="place" v="locality" />
		<tag k="ssr:stedsnr" v="494562" />
	</node>
	<node id="-337924" lat="60.9604638933" lon="9.53279166177">
		<tag k="fixme" v="consider natural=peak for the most distinct mountains in the district" />
		<tag k="name" v="Svarteberget" />
		<tag k="natural" v="hill" />
		<tag k="place" v="locality" />
		<tag k="ssr:stedsnr" v="494560" />
	</node>
	<node id="-337922" lat="60.9334861068" lon="9.57831945191">
		<tag k="fixme" v="consider natural=peak for the most distinct mountains in the district" />
		<tag k="name" v="Espelifjellet" />
		<tag k="natural" v="hill" />
		<tag k="place" v="locality" />
		<tag k="ssr:stedsnr" v="494508" />
	</node>
	<node id="-337921" lat="60.9690722225" lon="9.57916943658">
		<tag k="fixme" v="consider natural=peak for the most distinct mountains in the district" />
		<tag k="name" v="Svarteberget" />
		<tag k="natural" v="hill" />
		<tag k="place" v="locality" />
		<tag k="ssr:stedsnr" v="494319" />
	</node>
</osm>
