<?xml version="1.0" encoding="UTF-8"?>
<<<<<<< HEAD
<osm version="0.6" generator="osmapis">
	<node lat="68.28851270356168" lon="14.963476418367518" id="-17167">
		<tag k="name" v="Ulvågsundet" />
		<tag k="ssr:date" v="2020-09-15" />
		<tag k="ssr:gruppe" v="navigasjon" />
		<tag k="ssr:hovedgruppe" v="infrastruktur" />
		<tag k="ssr:stedsnr" v="17610" />
		<tag k="ssr:type" v="fyrlykt" />
	</node>
	<node lat="68.22376111082502" lon="14.562297216523298" id="-17205">
		<tag k="name" v="Vestre Vabeinskjer" />
		<tag k="ssr:date" v="2016-05-10" />
		<tag k="ssr:gruppe" v="navigasjon" />
		<tag k="ssr:hovedgruppe" v="infrastruktur" />
		<tag k="ssr:stedsnr" v="238826" />
		<tag k="ssr:type" v="fyrlykt" />
	</node>
	<node lat="68.22030000344876" lon="14.558472226493475" id="-17320">
		<tag k="name" v="Dynegrunnen" />
		<tag k="ssr:date" v="2016-05-10" />
		<tag k="ssr:gruppe" v="navigasjon" />
		<tag k="ssr:hovedgruppe" v="infrastruktur" />
		<tag k="ssr:stedsnr" v="116809" />
		<tag k="ssr:type" v="lanterne" />
	</node>
	<node lat="68.22685555369326" lon="14.543299990373221" id="-17357">
		<tag k="name" v="Osan" />
		<tag k="ssr:date" v="2016-05-10" />
		<tag k="ssr:gruppe" v="navigasjon" />
		<tag k="ssr:hovedgruppe" v="infrastruktur" />
		<tag k="ssr:stedsnr" v="138308" />
		<tag k="ssr:type" v="fyrlykt" />
	</node>
	<node lat="68.23219444301073" lon="14.562258344740947" id="-17374">
		<tag k="name" v="Vågan kommune" />
		<tag k="ssr:date" v="2016-05-10" />
		<tag k="ssr:gruppe" v="administrativeIndelinger" />
		<tag k="ssr:hovedgruppe" v="offentligAdministrasjon" />
		<tag k="ssr:stedsnr" v="146465" />
		<tag k="ssr:type" v="kommune" />
	</node>
	<node lat="68.24968055758863" lon="14.914366660569678" id="-17402">
		<tag k="name" v="Marlenahola" />
		<tag k="ssr:date" v="2016-05-10" />
		<tag k="ssr:gruppe" v="sjøbunn" />
		<tag k="ssr:hovedgruppe" v="sjø" />
		<tag k="ssr:stedsnr" v="259235" />
		<tag k="ssr:type" v="bakkeISjø" />
	</node>
	<node lat="68.28057499610998" lon="15.07029443223455" id="-17591">
		<tag k="name" v="Årstein" />
		<tag k="ssr:date" v="2016-05-10" />
		<tag k="ssr:gruppe" v="navigasjon" />
		<tag k="ssr:hovedgruppe" v="infrastruktur" />
		<tag k="ssr:stedsnr" v="259075" />
		<tag k="ssr:type" v="fyrlykt" />
	</node>
	<node lat="68.23528611064327" lon="14.214558327883337" id="-17748">
		<tag k="name" v="Lyngvær, Nordre" />
		<tag k="old_name" v="Lyngværet, nordre" />
=======
<osm generator="osmapis" version="0.6">
	<node id="-195071" lat="68.2372749969" lon="14.5910777833">
		<tag k="name" v="Austerløpet" />
		<tag k="ssr:date" v="2016-05-11" />
		<tag k="ssr:gruppe" v="navigasjon" />
		<tag k="ssr:hovedgruppe" v="infrastruktur" />
		<tag k="ssr:stedsnr" v="784848" />
		<tag k="ssr:type" v="lanterne" />
	</node>
	<node id="-192533" lat="68.2083805593" lon="14.4900833379">
		<tag k="name" v="Kabelvåg" />
		<tag k="old_name" v="Kabelvåg lykt" />
>>>>>>> e1d4bc35ff8a6074a6f2e91616a996b547c36f15
		<tag k="ssr:date" v="2016-05-10" />
		<tag k="ssr:gruppe" v="navigasjon" />
		<tag k="ssr:hovedgruppe" v="infrastruktur" />
		<tag k="ssr:stedsnr" v="320590" />
		<tag k="ssr:type" v="fyrlykt" />
	</node>
<<<<<<< HEAD
	<node lat="68.21526023319633" lon="14.196624279614852" id="-17814">
		<tag k="name" v="Lyngvær, Søre" />
		<tag k="old_name" v="Lyngværet, søre" />
		<tag k="ssr:date" v="2020-09-15" />
		<tag k="ssr:gruppe" v="navigasjon" />
		<tag k="ssr:hovedgruppe" v="infrastruktur" />
		<tag k="ssr:stedsnr" v="380620" />
		<tag k="ssr:type" v="fyrlykt" />
	</node>
	<node lat="68.3447916638277" lon="14.090622227752306" id="-17942">
		<tag k="name" v="Hovsund" />
		<tag k="ssr:date" v="2016-05-10" />
		<tag k="ssr:gruppe" v="navigasjon" />
		<tag k="ssr:hovedgruppe" v="infrastruktur" />
		<tag k="ssr:stedsnr" v="442904" />
		<tag k="ssr:type" v="fyrlykt" />
	</node>
	<node lat="68.1700999967901" lon="14.672774999731319" id="-17969">
		<tag k="name" v="Galgeholmen" />
		<tag k="ssr:date" v="2016-05-10" />
		<tag k="ssr:gruppe" v="navigasjon" />
		<tag k="ssr:hovedgruppe" v="infrastruktur" />
		<tag k="ssr:stedsnr" v="458919" />
		<tag k="ssr:type" v="fyrlykt" />
	</node>
	<node lat="68.1556722239428" lon="14.481377789651656" id="-17975">
		<tag k="name" v="Vågehøla" />
		<tag k="ssr:date" v="2016-05-10" />
		<tag k="ssr:gruppe" v="sjøbunn" />
		<tag k="ssr:hovedgruppe" v="sjø" />
		<tag k="ssr:stedsnr" v="471467" />
		<tag k="ssr:type" v="søkkISjø" />
	</node>
	<node lat="68.16786388572196" lon="14.705763881223879" id="-18161">
		<tag k="name" v="Hattvikhalsen" />
		<tag k="ssr:date" v="2021-06-08" />
		<tag k="ssr:gruppe" v="sjøbunn" />
		<tag k="ssr:hovedgruppe" v="sjø" />
		<tag k="ssr:stedsnr" v="695896" />
		<tag k="ssr:type" v="bankeISjø" />
	</node>
	<node lat="68.23155000126748" lon="14.630144445785637" id="-18172">
		<tag k="name" v="Skjæringen" />
		<tag k="ssr:date" v="2016-05-10" />
		<tag k="ssr:gruppe" v="navigasjon" />
		<tag k="ssr:hovedgruppe" v="infrastruktur" />
		<tag k="ssr:stedsnr" v="601805" />
		<tag k="ssr:type" v="lanterne" />
	</node>
	<node lat="68.11795277731747" lon="14.480783322919908" id="-18355">
		<tag k="name" v="Ørsneseggen" />
		<tag k="ssr:date" v="2016-05-11" />
		<tag k="ssr:gruppe" v="sjøbunn" />
		<tag k="ssr:hovedgruppe" v="sjø" />
		<tag k="ssr:stedsnr" v="896465" />
		<tag k="ssr:type" v="ryggISjø" />
	</node>
	<node lat="68.23727499694941" lon="14.591077783269188" id="-18462">
		<tag k="name" v="Austerløpet" />
		<tag k="ssr:date" v="2016-05-11" />
		<tag k="ssr:gruppe" v="navigasjon" />
		<tag k="ssr:hovedgruppe" v="infrastruktur" />
		<tag k="ssr:stedsnr" v="784848" />
		<tag k="ssr:type" v="lanterne" />
	</node>
	<node lat="68.15310833640304" lon="14.64910554611066" id="-18525">
		<tag k="name" v="Skrova" />
		<tag k="old_name" v="Skrova Fyr" />
		<tag k="ssr:date" v="2016-05-11" />
		<tag k="ssr:gruppe" v="navigasjon" />
		<tag k="ssr:hovedgruppe" v="infrastruktur" />
		<tag k="ssr:stedsnr" v="927187" />
		<tag k="ssr:type" v="fyrstasjon" />
	</node>
	<node lat="68.1576636630914" lon="14.405820050387586" id="-18541">
		<tag k="name" v="Moholmen" />
		<tag k="ssr:date" v="2020-09-17" />
		<tag k="ssr:gruppe" v="navigasjon" />
		<tag k="ssr:hovedgruppe" v="infrastruktur" />
		<tag k="ssr:stedsnr" v="927350" />
		<tag k="ssr:type" v="fyrlykt" />
	</node>
	<node lat="68.16945333744796" lon="14.230675936081719" id="-18715">
		<tag k="name" v="Gullvika" />
		<tag k="ssr:date" v="2019-05-30" />
		<tag k="ssr:gruppe" v="veg" />
		<tag k="ssr:hovedgruppe" v="infrastruktur" />
		<tag k="ssr:stedsnr" v="1001565" />
		<tag k="ssr:type" v="adressenavn" />
	</node>
	<node lat="68.21335618588796" lon="14.496235865589234" id="-18716">
		<tag k="name" v="Kantveien" />
		<tag k="ssr:date" v="2019-05-30" />
		<tag k="ssr:gruppe" v="veg" />
		<tag k="ssr:hovedgruppe" v="infrastruktur" />
		<tag k="ssr:stedsnr" v="1002023" />
		<tag k="ssr:type" v="adressenavn" />
	</node>
	<node lat="68.22063055288993" lon="14.501068051892394" id="-18717">
		<tag k="name" v="Urstabben" />
		<tag k="ssr:date" v="2019-05-30" />
		<tag k="ssr:gruppe" v="veg" />
		<tag k="ssr:hovedgruppe" v="infrastruktur" />
		<tag k="ssr:stedsnr" v="1002024" />
		<tag k="ssr:type" v="adressenavn" />
	</node>
	<node lat="68.33848055403601" lon="14.328933324973873" id="-18724">
		<tag k="name" v="Festvåghalsen" />
=======
	<node id="-195324" lat="68.1610777747" lon="14.6506277655">
		<tag k="name" v="Skrova" />
		<tag k="ssr:date" v="2016-05-11" />
		<tag k="ssr:gruppe" v="navigasjon" />
		<tag k="ssr:hovedgruppe" v="infrastruktur" />
		<tag k="ssr:stedsnr" v="867194" />
		<tag k="ssr:type" v="fyrlykt" />
	</node>
	<node id="-192154" lat="68.2237611108" lon="14.5622972165">
		<tag k="name" v="Vestre Vabeinskjer" />
		<tag k="ssr:date" v="2016-05-10" />
		<tag k="ssr:gruppe" v="navigasjon" />
		<tag k="ssr:hovedgruppe" v="infrastruktur" />
		<tag k="ssr:stedsnr" v="238826" />
		<tag k="ssr:type" v="fyrlykt" />
	</node>
	<node id="-195447" lat="69.6388889725" lon="30.5666644427">
		<tag k="fixme" v="multiple name tags, choose one and add the other to alt_name" />
		<tag k="loc_name:se" v="Norgga gonagasriika" />
		<tag k="loc_name:sma" v="Nöörjen gånkarïjhke" />
		<tag k="loc_name:smj" v="Vuona gånågisrijkka" />
		<tag k="name" v="Noreg;Norge" />
		<tag k="name:en" v="Norway" />
		<tag k="name:no" v="Noreg;Norge" />
		<tag k="ssr:date" v="2020-06-04" />
		<tag k="ssr:gruppe" v="administrativeIndelinger" />
		<tag k="ssr:hovedgruppe" v="offentligAdministrasjon" />
		<tag k="ssr:stedsnr" v="26330" />
		<tag k="ssr:type" v="nasjon" />
	</node>
	<node id="-194166" lat="68.1786333363" lon="14.3418055591">
		<tag k="alt_name" v="Bremholmen, litle" />
		<tag k="name" v="Lille Bremholmen" />
>>>>>>> e1d4bc35ff8a6074a6f2e91616a996b547c36f15
		<tag k="ssr:date" v="2016-05-10" />
		<tag k="ssr:gruppe" v="navigasjon" />
		<tag k="ssr:hovedgruppe" v="infrastruktur" />
		<tag k="ssr:stedsnr" v="17088" />
		<tag k="ssr:type" v="fyrlykt" />
	</node>
<<<<<<< HEAD
	<node lat="68.22491111229115" lon="14.842408332395795" id="-18737">
		<tag k="name" v="Soten" />
		<tag k="ssr:date" v="2016-05-10" />
		<tag k="ssr:gruppe" v="navigasjon" />
		<tag k="ssr:hovedgruppe" v="infrastruktur" />
		<tag k="ssr:stedsnr" v="17234" />
		<tag k="ssr:type" v="fyrlykt" />
	</node>
	<node lat="68.21628055841458" lon="14.829244452188037" id="-18738">
		<tag k="name" v="Indre Våtvikneset" />
		<tag k="old_name" v="Votvikneset, in" />
=======
	<node id="-192809" lat="68.3904388873" lon="14.4072472149">
		<tag k="name" v="Laukvik" />
		<tag k="ssr:date" v="2016-05-10" />
		<tag k="ssr:gruppe" v="navigasjon" />
		<tag k="ssr:hovedgruppe" v="infrastruktur" />
		<tag k="ssr:stedsnr" v="502936" />
		<tag k="ssr:type" v="fyrlykt" />
	</node>
	<node id="-192366" lat="68.232194443" lon="14.5622583447">
		<tag k="name" v="Vågan kommune" />
>>>>>>> e1d4bc35ff8a6074a6f2e91616a996b547c36f15
		<tag k="ssr:date" v="2016-05-10" />
		<tag k="ssr:gruppe" v="navigasjon" />
		<tag k="ssr:hovedgruppe" v="infrastruktur" />
		<tag k="ssr:stedsnr" v="17246" />
		<tag k="ssr:type" v="fyrlykt" />
	</node>
<<<<<<< HEAD
	<node lat="68.16939166672867" lon="14.209891669983092" id="-18761">
		<tag k="name" v="Festvåg" />
=======
	<node id="-192744" lat="68.3248666708" lon="14.0708805474">
		<tag k="name" v="Vikspollen" />
>>>>>>> e1d4bc35ff8a6074a6f2e91616a996b547c36f15
		<tag k="ssr:date" v="2016-05-10" />
		<tag k="ssr:gruppe" v="navigasjon" />
		<tag k="ssr:hovedgruppe" v="infrastruktur" />
		<tag k="ssr:stedsnr" v="17448" />
		<tag k="ssr:type" v="fyrlykt" />
	</node>
<<<<<<< HEAD
	<node lat="68.27902777824258" lon="14.715549990829965" id="-18776">
		<tag k="name" v="Følstadklubben" />
		<tag k="ssr:date" v="2021-06-08" />
		<tag k="ssr:gruppe" v="navigasjon" />
		<tag k="ssr:hovedgruppe" v="infrastruktur" />
		<tag k="ssr:stedsnr" v="17643" />
		<tag k="ssr:type" v="fyrlykt" />
	</node>
	<node lat="68.31623055845955" lon="14.264033323156097" id="-18856">
		<tag k="alt_name" v="Gimsøy" />
		<tag k="name" v="Gimsøya" />
		<tag k="ssr:date" v="2016-05-10" />
		<tag k="ssr:gruppe" v="navigasjon" />
		<tag k="ssr:hovedgruppe" v="infrastruktur" />
		<tag k="ssr:stedsnr" v="78123" />
		<tag k="ssr:type" v="fyrlykt" />
	</node>
	<node lat="68.22732778054602" lon="14.778888897125718" id="-18860">
		<tag k="name" v="Husholmen" />
		<tag k="ssr:date" v="2016-05-10" />
		<tag k="ssr:gruppe" v="navigasjon" />
		<tag k="ssr:hovedgruppe" v="infrastruktur" />
		<tag k="ssr:stedsnr" v="78212" />
		<tag k="ssr:type" v="fyrlykt" />
	</node>
	<node lat="68.22080278221618" lon="14.54187221139729" id="-18928">
		<tag k="name" v="Stretarholmen" />
		<tag k="ssr:date" v="2016-05-10" />
=======
	<node id="-192345" lat="68.2268555537" lon="14.5432999904">
		<tag k="name" v="Osan" />
		<tag k="ssr:date" v="2016-05-10" />
		<tag k="ssr:gruppe" v="navigasjon" />
		<tag k="ssr:hovedgruppe" v="infrastruktur" />
		<tag k="ssr:stedsnr" v="138308" />
		<tag k="ssr:type" v="fyrlykt" />
	</node>
	<node id="-192137" lat="68.2250027778" lon="14.5443277747">
		<tag k="name" v="Salttønna" />
		<tag k="ssr:date" v="2016-05-10" />
		<tag k="ssr:gruppe" v="navigasjon" />
		<tag k="ssr:hovedgruppe" v="infrastruktur" />
		<tag k="ssr:stedsnr" v="226765" />
		<tag k="ssr:type" v="fyrlykt" />
	</node>
	<node id="-193504" lat="68.2135500025" lon="14.1758416599">
		<tag k="name" v="Store Lysøy" />
		<tag k="old_name" v="Storlysøya" />
		<tag k="ssr:date" v="2016-05-11" />
>>>>>>> e1d4bc35ff8a6074a6f2e91616a996b547c36f15
		<tag k="ssr:gruppe" v="navigasjon" />
		<tag k="ssr:hovedgruppe" v="infrastruktur" />
		<tag k="ssr:stedsnr" v="105710" />
		<tag k="ssr:type" v="lanterne" />
	</node>
	<node lat="68.15669166225955" lon="14.21967223199622" id="-18949">
		<tag k="name" v="Sauøy" />
		<tag k="old_name" v="Sauøya" />
		<tag k="ssr:date" v="2016-05-10" />
		<tag k="ssr:gruppe" v="navigasjon" />
		<tag k="ssr:hovedgruppe" v="infrastruktur" />
		<tag k="ssr:stedsnr" v="137320" />
		<tag k="ssr:type" v="fyrlykt" />
	</node>
<<<<<<< HEAD
	<node lat="68.23631044301132" lon="14.59551158060047" id="-18973">
		<tag k="name" v="Risøyan" />
		<tag k="ssr:date" v="2020-09-15" />
		<tag k="ssr:gruppe" v="navigasjon" />
=======
	<node id="-195421" lat="68.2284980822" lon="14.5572453199">
		<tag k="name" v="Sjøsiden" />
		<tag k="ssr:date" v="2019-12-10" />
		<tag k="ssr:gruppe" v="veg" />
>>>>>>> e1d4bc35ff8a6074a6f2e91616a996b547c36f15
		<tag k="ssr:hovedgruppe" v="infrastruktur" />
		<tag k="ssr:stedsnr" v="138297" />
		<tag k="ssr:type" v="fyrlykt" />
	</node>
<<<<<<< HEAD
	<node lat="68.17863333627889" lon="14.341805559096732" id="-19106">
		<tag k="alt_name" v="Bremholmen, litle" />
		<tag k="name" v="Lille Bremholmen" />
		<tag k="ssr:date" v="2016-05-10" />
		<tag k="ssr:gruppe" v="navigasjon" />
		<tag k="ssr:hovedgruppe" v="infrastruktur" />
		<tag k="ssr:stedsnr" v="199427" />
		<tag k="ssr:type" v="fyrlykt" />
	</node>
	<node lat="68.25551060299658" lon="14.745316171212142" id="-19134">
		<tag k="name" v="Langholmen" />
		<tag k="ssr:date" v="2020-09-15" />
		<tag k="ssr:gruppe" v="navigasjon" />
=======
	<node id="-195420" lat="68.2183320262" lon="14.7126909172">
		<tag k="name" v="Skjoldvær" />
		<tag k="ssr:date" v="2019-05-30" />
		<tag k="ssr:gruppe" v="veg" />
		<tag k="ssr:hovedgruppe" v="infrastruktur" />
		<tag k="ssr:stedsnr" v="1006868" />
		<tag k="ssr:type" v="adressenavn" />
	</node>
	<node id="-195419" lat="68.2189559717" lon="14.7991687541">
		<tag k="name" v="Lille Molla" />
		<tag k="ssr:date" v="2019-05-30" />
		<tag k="ssr:gruppe" v="veg" />
>>>>>>> e1d4bc35ff8a6074a6f2e91616a996b547c36f15
		<tag k="ssr:hovedgruppe" v="infrastruktur" />
		<tag k="ssr:stedsnr" v="199699" />
		<tag k="ssr:type" v="fyrlykt" />
	</node>
<<<<<<< HEAD
	<node lat="68.22500277778107" lon="14.544327774746979" id="-19180">
		<tag k="name" v="Salttønna" />
		<tag k="ssr:date" v="2016-05-10" />
		<tag k="ssr:gruppe" v="navigasjon" />
=======
	<node id="-195418" lat="68.1713058471" lon="14.687035147">
		<tag k="name" v="Sveet" />
		<tag k="ssr:date" v="2019-05-30" />
		<tag k="ssr:gruppe" v="veg" />
>>>>>>> e1d4bc35ff8a6074a6f2e91616a996b547c36f15
		<tag k="ssr:hovedgruppe" v="infrastruktur" />
		<tag k="ssr:stedsnr" v="226765" />
		<tag k="ssr:type" v="fyrlykt" />
	</node>
<<<<<<< HEAD
	<node lat="68.26230000195166" lon="14.254419444236087" id="-19370">
		<tag k="name" v="Gimsøystraumen bru" />
		<tag k="old_name" v="Gimsøybrua" />
		<tag k="ssr:date" v="2016-05-10" />
		<tag k="ssr:gruppe" v="navigasjon" />
		<tag k="ssr:hovedgruppe" v="infrastruktur" />
		<tag k="ssr:stedsnr" v="381153" />
		<tag k="ssr:type" v="fyrlykt" />
	</node>
	<node lat="68.3300972211506" lon="14.779044455391134" id="-19430">
		<tag k="name" v="Holmdraget" />
		<tag k="ssr:date" v="2021-06-08" />
		<tag k="ssr:gruppe" v="sjøbunn" />
		<tag k="ssr:hovedgruppe" v="sjø" />
		<tag k="ssr:stedsnr" v="392271" />
		<tag k="ssr:type" v="bankeISjø" />
	</node>
	<node lat="68.20838055931944" lon="14.490083337857543" id="-19520">
		<tag k="name" v="Kabelvåg" />
		<tag k="old_name" v="Kabelvåg lykt" />
		<tag k="ssr:date" v="2016-05-10" />
		<tag k="ssr:gruppe" v="navigasjon" />
=======
	<node id="-195417" lat="68.2713499464" lon="15.1245778425">
		<tag k="name" v="Risvær, Årsteinøyan" />
		<tag k="ssr:date" v="2019-05-30" />
		<tag k="ssr:gruppe" v="veg" />
		<tag k="ssr:hovedgruppe" v="infrastruktur" />
		<tag k="ssr:stedsnr" v="1006855" />
		<tag k="ssr:type" v="adressenavn" />
	</node>
	<node id="-195416" lat="68.2808504719" lon="14.7243559798">
		<tag k="name" v="Øyhellsundet" />
		<tag k="ssr:date" v="2019-05-30" />
		<tag k="ssr:gruppe" v="veg" />
>>>>>>> e1d4bc35ff8a6074a6f2e91616a996b547c36f15
		<tag k="ssr:hovedgruppe" v="infrastruktur" />
		<tag k="ssr:stedsnr" v="442264" />
		<tag k="ssr:type" v="fyrlykt" />
	</node>
<<<<<<< HEAD
	<node lat="68.3379929988979" lon="14.04887957268841" id="-19535">
		<tag k="alt_name" v="Vikerøy" />
		<tag k="name" v="Vikarøya" />
		<tag k="ssr:date" v="2020-09-15" />
		<tag k="ssr:gruppe" v="navigasjon" />
=======
	<node id="-195415" lat="68.2118848727" lon="14.4363974831">
		<tag k="name" v="Bergsrudsvingen" />
		<tag k="ssr:date" v="2019-05-30" />
		<tag k="ssr:gruppe" v="veg" />
>>>>>>> e1d4bc35ff8a6074a6f2e91616a996b547c36f15
		<tag k="ssr:hovedgruppe" v="infrastruktur" />
		<tag k="ssr:stedsnr" v="442906" />
		<tag k="ssr:type" v="fyrlykt" />
	</node>
<<<<<<< HEAD
	<node lat="68.32486667076944" lon="14.07088054744306" id="-19550">
		<tag k="name" v="Vikspollen" />
		<tag k="ssr:date" v="2016-05-10" />
		<tag k="ssr:gruppe" v="navigasjon" />
=======
	<node id="-195414" lat="68.2484018653" lon="14.6520364395">
		<tag k="name" v="Husvågen" />
		<tag k="ssr:date" v="2019-05-30" />
		<tag k="ssr:gruppe" v="veg" />
>>>>>>> e1d4bc35ff8a6074a6f2e91616a996b547c36f15
		<tag k="ssr:hovedgruppe" v="infrastruktur" />
		<tag k="ssr:stedsnr" v="502083" />
		<tag k="ssr:type" v="fyrlykt" />
	</node>
<<<<<<< HEAD
	<node lat="68.39043888726755" lon="14.407247214944741" id="-19606">
		<tag k="name" v="Laukvik" />
		<tag k="ssr:date" v="2016-05-10" />
		<tag k="ssr:gruppe" v="navigasjon" />
=======
	<node id="-195413" lat="68.1694533374" lon="14.2306759361">
		<tag k="name" v="Gullvika" />
		<tag k="ssr:date" v="2019-05-30" />
		<tag k="ssr:gruppe" v="veg" />
>>>>>>> e1d4bc35ff8a6074a6f2e91616a996b547c36f15
		<tag k="ssr:hovedgruppe" v="infrastruktur" />
		<tag k="ssr:stedsnr" v="502936" />
		<tag k="ssr:type" v="fyrlykt" />
	</node>
<<<<<<< HEAD
	<node lat="67.2804027758844" lon="14.376388898255625" id="-19623">
		<tag k="alt_name:no" v="Nordland" />
		<tag k="loc_name:se" v="Nordlándda fylka" />
		<tag k="loc_name:sma" v="Nordlaanten fylhke" />
		<tag k="name" v="Nordland fylke - Nordlánda fylkka" />
		<tag k="name:no" v="Nordland fylke" />
		<tag k="name:smj" v="Nordlánda fylkka" />
		<tag k="ssr:date" v="2021-02-03" />
		<tag k="ssr:gruppe" v="administrativeIndelinger" />
		<tag k="ssr:hovedgruppe" v="offentligAdministrasjon" />
		<tag k="ssr:stedsnr" v="511766" />
		<tag k="ssr:type" v="fylke" />
	</node>
	<node lat="68.16588214954913" lon="14.648693816743624" id="-19697">
=======
	<node id="-194643" lat="68.166291669" lon="14.6502194378">
>>>>>>> e1d4bc35ff8a6074a6f2e91616a996b547c36f15
		<tag k="name" v="Skrovøy" />
		<tag k="old_name" v="Skrovøya" />
		<tag k="ssr:date" v="2020-09-15" />
		<tag k="ssr:gruppe" v="navigasjon" />
		<tag k="ssr:hovedgruppe" v="infrastruktur" />
		<tag k="ssr:stedsnr" v="562148" />
		<tag k="ssr:type" v="fyrlykt" />
	</node>
<<<<<<< HEAD
	<node lat="68.31533656620852" lon="14.981167032662757" id="-19768">
		<tag k="name" v="Digermulen" />
		<tag k="ssr:date" v="2020-03-19" />
=======
	<node id="-195280" lat="68.1524666628" lon="14.2430055534">
		<tag k="name" v="Brørne" />
		<tag k="old_name" v="Brødrene" />
		<tag k="ssr:date" v="2016-05-11" />
>>>>>>> e1d4bc35ff8a6074a6f2e91616a996b547c36f15
		<tag k="ssr:gruppe" v="navigasjon" />
		<tag k="ssr:hovedgruppe" v="infrastruktur" />
		<tag k="ssr:stedsnr" v="563539" />
		<tag k="ssr:type" v="fyrlykt" />
	</node>
<<<<<<< HEAD
	<node lat="68.13583889147766" lon="14.478213877522625" id="-19822">
		<tag k="name" v="Helletubakken" />
		<tag k="ssr:date" v="2016-05-10" />
		<tag k="ssr:gruppe" v="sjøbunn" />
		<tag k="ssr:hovedgruppe" v="sjø" />
		<tag k="ssr:stedsnr" v="592479" />
		<tag k="ssr:type" v="bakkeISjø" />
	</node>
	<node lat="68.22501110817001" lon="14.558091655331925" id="-19853">
		<tag k="name" v="Vorsetøy" />
		<tag k="old_name" v="Vårsetøya" />
		<tag k="ssr:date" v="2016-05-10" />
		<tag k="ssr:gruppe" v="navigasjon" />
		<tag k="ssr:hovedgruppe" v="infrastruktur" />
		<tag k="ssr:stedsnr" v="623280" />
		<tag k="ssr:type" v="fyrlykt" />
	</node>
	<node lat="68.19607777766024" lon="14.416094434860772" id="-19877">
		<tag k="name" v="Ørsvåg" />
		<tag k="ssr:date" v="2016-05-10" />
		<tag k="ssr:gruppe" v="navigasjon" />
		<tag k="ssr:hovedgruppe" v="infrastruktur" />
		<tag k="ssr:stedsnr" v="623399" />
		<tag k="ssr:type" v="fyrlykt" />
	</node>
	<node lat="68.14792777808758" lon="14.202802785999577" id="-19947">
		<tag k="name" v="Hellandsøy" />
		<tag k="ssr:date" v="2016-05-10" />
=======
	<node id="-195149" lat="68.2548305537" lon="14.9895416582">
		<tag k="name" v="Værholmen" />
		<tag k="old_name" v="Verholmen" />
		<tag k="ssr:date" v="2016-05-11" />
>>>>>>> e1d4bc35ff8a6074a6f2e91616a996b547c36f15
		<tag k="ssr:gruppe" v="navigasjon" />
		<tag k="ssr:hovedgruppe" v="infrastruktur" />
		<tag k="ssr:stedsnr" v="663979" />
		<tag k="ssr:type" v="fyrlykt" />
	</node>
<<<<<<< HEAD
	<node lat="68.22043984608825" lon="14.538260584614186" id="-19958">
		<tag k="name" v="Stretarneset" />
		<tag k="ssr:date" v="2020-09-17" />
		<tag k="ssr:gruppe" v="navigasjon" />
		<tag k="ssr:hovedgruppe" v="infrastruktur" />
		<tag k="ssr:stedsnr" v="712673" />
		<tag k="ssr:type" v="fyrlykt" />
	</node>
	<node lat="68.22953333756985" lon="14.567072225583656" id="-19964">
		<tag k="name" v="Hjørne DS - kai" />
		<tag k="ssr:date" v="2016-05-11" />
=======
	<node id="-192290" lat="68.2203000034" lon="14.5584722265">
		<tag k="name" v="Dynegrunnen" />
		<tag k="ssr:date" v="2016-05-10" />
		<tag k="ssr:gruppe" v="navigasjon" />
		<tag k="ssr:hovedgruppe" v="infrastruktur" />
		<tag k="ssr:stedsnr" v="116809" />
		<tag k="ssr:type" v="lanterne" />
	</node>
	<node id="-192327" lat="68.1566916623" lon="14.219672232">
		<tag k="name" v="Sauøy" />
		<tag k="old_name" v="Sauøya" />
		<tag k="ssr:date" v="2016-05-10" />
>>>>>>> e1d4bc35ff8a6074a6f2e91616a996b547c36f15
		<tag k="ssr:gruppe" v="navigasjon" />
		<tag k="ssr:hovedgruppe" v="infrastruktur" />
		<tag k="ssr:stedsnr" v="723778" />
		<tag k="ssr:type" v="lanterne" />
	</node>
<<<<<<< HEAD
	<node lat="68.29514444431324" lon="14.280422221063084" id="-19992">
		<tag k="name" v="Klokkerbåen" />
		<tag k="old_name" v="Klokkarbåen" />
		<tag k="ssr:date" v="2016-05-11" />
=======
	<node id="-193733" lat="68.2790277782" lon="14.7155499908">
		<tag k="name" v="Følstadklubben" />
		<tag k="ssr:date" v="2016-05-10" />
>>>>>>> e1d4bc35ff8a6074a6f2e91616a996b547c36f15
		<tag k="ssr:gruppe" v="navigasjon" />
		<tag k="ssr:hovedgruppe" v="infrastruktur" />
		<tag k="ssr:stedsnr" v="745061" />
		<tag k="ssr:type" v="fyrlykt" />
	</node>
<<<<<<< HEAD
	<node lat="68.14816944129149" lon="14.199013883507545" id="-20006">
		<tag k="name" v="Henningsvær" />
		<tag k="ssr:date" v="2016-05-11" />
		<tag k="ssr:gruppe" v="navigasjon" />
		<tag k="ssr:hovedgruppe" v="infrastruktur" />
		<tag k="ssr:stedsnr" v="745352" />
		<tag k="ssr:type" v="fyrlykt" />
	</node>
	<node lat="68.21355000247013" lon="14.175841659910134" id="-20116">
		<tag k="name" v="Store Lysøy" />
		<tag k="old_name" v="Storlysøya" />
		<tag k="ssr:date" v="2016-05-11" />
=======
	<node id="-192566" lat="68.3379027759" lon="14.0488861057">
		<tag k="alt_name" v="Vikerøy" />
		<tag k="name" v="Vikarøya" />
		<tag k="ssr:date" v="2016-05-10" />
		<tag k="ssr:gruppe" v="navigasjon" />
		<tag k="ssr:hovedgruppe" v="infrastruktur" />
		<tag k="ssr:stedsnr" v="442906" />
		<tag k="ssr:type" v="fyrlykt" />
	</node>
	<node id="-193730" lat="68.2883138885" lon="14.9630916605">
		<tag k="name" v="Ulvågsundet" />
		<tag k="ssr:date" v="2016-05-10" />
>>>>>>> e1d4bc35ff8a6074a6f2e91616a996b547c36f15
		<tag k="ssr:gruppe" v="navigasjon" />
		<tag k="ssr:hovedgruppe" v="infrastruktur" />
		<tag k="ssr:stedsnr" v="805592" />
		<tag k="ssr:type" v="fyrlykt" />
	</node>
<<<<<<< HEAD
	<node lat="68.1730055524963" lon="14.681797220874492" id="-20119">
		<tag k="name" v="Ormtunga Skrova" />
		<tag k="old_name" v="Ormtunga" />
		<tag k="ssr:date" v="2016-05-11" />
		<tag k="ssr:gruppe" v="navigasjon" />
		<tag k="ssr:hovedgruppe" v="infrastruktur" />
		<tag k="ssr:stedsnr" v="806170" />
		<tag k="ssr:type" v="fyrlykt" />
	</node>
	<node lat="68.27571110762807" lon="15.15455000131217" id="-20130">
		<tag k="name" v="Risvær" />
		<tag k="ssr:date" v="2016-05-11" />
=======
	<node id="-192629" lat="68.2805749961" lon="15.0702944322">
		<tag k="name" v="Årstein" />
		<tag k="ssr:date" v="2016-05-10" />
		<tag k="ssr:gruppe" v="navigasjon" />
		<tag k="ssr:hovedgruppe" v="infrastruktur" />
		<tag k="ssr:stedsnr" v="259075" />
		<tag k="ssr:type" v="fyrlykt" />
	</node>
	<node id="-193851" lat="68.3162305585" lon="14.2640333232">
		<tag k="name" v="Gimsøy" />
		<tag k="old_name" v="Gimsøya" />
		<tag k="ssr:date" v="2016-05-10" />
>>>>>>> e1d4bc35ff8a6074a6f2e91616a996b547c36f15
		<tag k="ssr:gruppe" v="navigasjon" />
		<tag k="ssr:hovedgruppe" v="infrastruktur" />
		<tag k="ssr:stedsnr" v="806081" />
		<tag k="ssr:type" v="fyrlykt" />
	</node>
<<<<<<< HEAD
	<node lat="68.2548948775783" lon="14.990239494477436" id="-20179">
		<tag k="name" v="Værholmen" />
		<tag k="old_name" v="Verholmen" />
		<tag k="ssr:date" v="2020-09-17" />
=======
	<node id="-193464" lat="68.1577027741" lon="14.4052388872">
		<tag k="name" v="Moholmen" />
		<tag k="ssr:date" v="2016-05-11" />
>>>>>>> e1d4bc35ff8a6074a6f2e91616a996b547c36f15
		<tag k="ssr:gruppe" v="navigasjon" />
		<tag k="ssr:hovedgruppe" v="infrastruktur" />
		<tag k="ssr:stedsnr" v="806627" />
		<tag k="ssr:type" v="fyrlykt" />
	</node>
<<<<<<< HEAD
	<node lat="68.22558055913049" lon="14.634463896396769" id="-20243">
		<tag k="name" v="Kvalbaken" />
		<tag k="ssr:date" v="2016-05-11" />
		<tag k="ssr:gruppe" v="navigasjon" />
		<tag k="ssr:hovedgruppe" v="infrastruktur" />
		<tag k="ssr:stedsnr" v="845855" />
		<tag k="ssr:type" v="lanterne" />
	</node>
	<node lat="68.1801805575656" lon="14.727708343153889" id="-20284">
		<tag k="name" v="Slåkøya" />
		<tag k="old_name" v="Slokøya" />
		<tag k="ssr:date" v="2016-05-11" />
=======
	<node id="-195254" lat="68.1801805576" lon="14.7277083432">
		<tag k="name" v="Slåkøya" />
		<tag k="old_name" v="Slokøya" />
		<tag k="ssr:date" v="2016-05-11" />
		<tag k="ssr:gruppe" v="navigasjon" />
		<tag k="ssr:hovedgruppe" v="infrastruktur" />
		<tag k="ssr:stedsnr" v="866123" />
		<tag k="ssr:type" v="fyrstasjon" />
	</node>
	<node id="-193161" lat="68.2204611076" lon="14.538058331">
		<tag k="name" v="Stretarneset" />
		<tag k="ssr:date" v="2016-05-11" />
		<tag k="ssr:gruppe" v="navigasjon" />
		<tag k="ssr:hovedgruppe" v="infrastruktur" />
		<tag k="ssr:stedsnr" v="712673" />
		<tag k="ssr:type" v="fyrlykt" />
	</node>
	<node id="-193605" lat="68.3012361155" lon="14.8684944429">
		<tag k="name" v="Kvalvikskjæret" />
		<tag k="ssr:date" v="2016-05-11" />
		<tag k="ssr:gruppe" v="navigasjon" />
		<tag k="ssr:hovedgruppe" v="infrastruktur" />
		<tag k="ssr:stedsnr" v="946363" />
		<tag k="ssr:type" v="fyrlykt" />
	</node>
	<node id="-192565" lat="68.3447916638" lon="14.0906222278">
		<tag k="name" v="Hovsund" />
		<tag k="ssr:date" v="2016-05-10" />
>>>>>>> e1d4bc35ff8a6074a6f2e91616a996b547c36f15
		<tag k="ssr:gruppe" v="navigasjon" />
		<tag k="ssr:hovedgruppe" v="infrastruktur" />
		<tag k="ssr:stedsnr" v="866123" />
		<tag k="ssr:type" v="fyrstasjon" />
	</node>
<<<<<<< HEAD
	<node lat="68.15249287962703" lon="14.243031884541953" id="-20301">
		<tag k="name" v="Brørne" />
		<tag k="old_name" v="Brødrene" />
		<tag k="ssr:date" v="2020-09-17" />
=======
	<node id="-192177" lat="68.2273277805" lon="14.7788888971">
		<tag k="name" v="Husholmen" />
		<tag k="ssr:date" v="2016-05-10" />
>>>>>>> e1d4bc35ff8a6074a6f2e91616a996b547c36f15
		<tag k="ssr:gruppe" v="navigasjon" />
		<tag k="ssr:hovedgruppe" v="infrastruktur" />
		<tag k="ssr:stedsnr" v="866316" />
		<tag k="ssr:type" v="fyrlykt" />
	</node>
<<<<<<< HEAD
	<node lat="68.16107777470567" lon="14.650627765465847" id="-20336">
		<tag k="name" v="Skrova" />
		<tag k="ssr:date" v="2016-05-11" />
		<tag k="ssr:gruppe" v="navigasjon" />
		<tag k="ssr:hovedgruppe" v="infrastruktur" />
		<tag k="ssr:stedsnr" v="867194" />
		<tag k="ssr:type" v="fyrlykt" />
	</node>
	<node lat="68.21830832969542" lon="14.554255552009604" id="-20355">
		<tag k="name" v="Rødholmen" />
=======
	<node id="-195117" lat="68.1730055525" lon="14.6817972209">
		<tag k="name" v="Ormtunga Skrova" />
		<tag k="old_name" v="Ormtunga" />
>>>>>>> e1d4bc35ff8a6074a6f2e91616a996b547c36f15
		<tag k="ssr:date" v="2016-05-11" />
		<tag k="ssr:gruppe" v="navigasjon" />
		<tag k="ssr:hovedgruppe" v="infrastruktur" />
		<tag k="ssr:stedsnr" v="867251" />
		<tag k="ssr:type" v="fyrlykt" />
	</node>
<<<<<<< HEAD
	<node lat="68.13265833672868" lon="14.641672217385294" id="-20419">
		<tag k="name" v="Høgge" />
		<tag k="ssr:date" v="2016-05-11" />
		<tag k="ssr:gruppe" v="sjøbunn" />
		<tag k="ssr:hovedgruppe" v="sjø" />
		<tag k="ssr:stedsnr" v="885694" />
		<tag k="ssr:type" v="bakkeISjø" />
	</node>
	<node lat="68.30123611548326" lon="14.868494442885611" id="-20444">
		<tag k="name" v="Kvalvikskjæret" />
		<tag k="ssr:date" v="2016-05-11" />
		<tag k="ssr:gruppe" v="navigasjon" />
		<tag k="ssr:hovedgruppe" v="infrastruktur" />
		<tag k="ssr:stedsnr" v="946363" />
		<tag k="ssr:type" v="fyrlykt" />
	</node>
	<node lat="68.24840186525404" lon="14.652036439543842" id="-20471">
		<tag k="name" v="Husvågen" />
		<tag k="ssr:date" v="2019-05-30" />
		<tag k="ssr:gruppe" v="veg" />
		<tag k="ssr:hovedgruppe" v="infrastruktur" />
		<tag k="ssr:stedsnr" v="1001855" />
		<tag k="ssr:type" v="adressenavn" />
	</node>
	<node lat="68.211884872693" lon="14.436397483077036" id="-20472">
		<tag k="name" v="Bergsrudsvingen" />
		<tag k="ssr:date" v="2019-05-30" />
		<tag k="ssr:gruppe" v="veg" />
		<tag k="ssr:hovedgruppe" v="infrastruktur" />
		<tag k="ssr:stedsnr" v="1002001" />
		<tag k="ssr:type" v="adressenavn" />
	</node>
	<node lat="68.2808504719209" lon="14.724355979810085" id="-20473">
		<tag k="name" v="Øyhellsundet" />
		<tag k="ssr:date" v="2019-05-30" />
		<tag k="ssr:gruppe" v="veg" />
		<tag k="ssr:hovedgruppe" v="infrastruktur" />
		<tag k="ssr:stedsnr" v="1006702" />
		<tag k="ssr:type" v="adressenavn" />
	</node>
	<node lat="68.27134994640903" lon="15.124577842474409" id="-20474">
		<tag k="name" v="Risvær, Årsteinøyan" />
		<tag k="ssr:date" v="2019-05-30" />
		<tag k="ssr:gruppe" v="veg" />
		<tag k="ssr:hovedgruppe" v="infrastruktur" />
		<tag k="ssr:stedsnr" v="1006855" />
		<tag k="ssr:type" v="adressenavn" />
	</node>
	<node lat="68.17130584711684" lon="14.687035147021193" id="-20475">
		<tag k="name" v="Sveet" />
		<tag k="ssr:date" v="2019-05-30" />
		<tag k="ssr:gruppe" v="veg" />
		<tag k="ssr:hovedgruppe" v="infrastruktur" />
		<tag k="ssr:stedsnr" v="1006864" />
		<tag k="ssr:type" v="adressenavn" />
	</node>
	<node lat="68.21895597165286" lon="14.799168754050246" id="-20476">
		<tag k="name" v="Lille Molla" />
		<tag k="ssr:date" v="2019-05-30" />
		<tag k="ssr:gruppe" v="veg" />
		<tag k="ssr:hovedgruppe" v="infrastruktur" />
		<tag k="ssr:stedsnr" v="1006867" />
		<tag k="ssr:type" v="adressenavn" />
	</node>
	<node lat="68.21833202619746" lon="14.712690917192408" id="-20477">
		<tag k="name" v="Skjoldvær" />
		<tag k="ssr:date" v="2019-05-30" />
		<tag k="ssr:gruppe" v="veg" />
=======
	<node id="-194476" lat="68.262300002" lon="14.2544194442">
		<tag k="name" v="Gimsøystraumen bru" />
		<tag k="old_name" v="Gimsøybrua" />
		<tag k="ssr:date" v="2016-05-10" />
		<tag k="ssr:gruppe" v="navigasjon" />
>>>>>>> e1d4bc35ff8a6074a6f2e91616a996b547c36f15
		<tag k="ssr:hovedgruppe" v="infrastruktur" />
		<tag k="ssr:stedsnr" v="381153" />
		<tag k="ssr:type" v="fyrlykt" />
	</node>
<<<<<<< HEAD
	<node lat="68.22849808221655" lon="14.557245319906752" id="-20478">
		<tag k="name" v="Sjøsiden" />
		<tag k="ssr:date" v="2019-12-10" />
		<tag k="ssr:gruppe" v="veg" />
=======
	<node id="-195115" lat="68.2757111076" lon="15.1545500013">
		<tag k="name" v="Risvær" />
		<tag k="ssr:date" v="2016-05-11" />
		<tag k="ssr:gruppe" v="navigasjon" />
>>>>>>> e1d4bc35ff8a6074a6f2e91616a996b547c36f15
		<tag k="ssr:hovedgruppe" v="infrastruktur" />
		<tag k="ssr:stedsnr" v="1073961" />
		<tag k="ssr:type" v="adressenavn" />
	</node>
<<<<<<< HEAD
	<node lat="68.21572410665235" lon="14.464974608924454" id="-20504">
		<tag k="name" v="Ungdomsskolemyra" />
		<tag k="ssr:date" v="2021-01-25" />
		<tag k="ssr:gruppe" v="veg" />
=======
	<node id="-193706" lat="68.2162805584" lon="14.8292444522">
		<tag k="name" v="Indre Våtvikneset" />
		<tag k="old_name" v="Votvikneset, in" />
		<tag k="ssr:date" v="2016-05-10" />
		<tag k="ssr:gruppe" v="navigasjon" />
>>>>>>> e1d4bc35ff8a6074a6f2e91616a996b547c36f15
		<tag k="ssr:hovedgruppe" v="infrastruktur" />
		<tag k="ssr:stedsnr" v="1079745" />
		<tag k="ssr:type" v="adressenavn" />
	</node>
<<<<<<< HEAD
	<node lat="68.3478337748305" lon="14.746213632225716" id="-20505">
		<tag k="name" v="Geitgallien" />
		<tag k="ssr:date" v="2021-01-25" />
		<tag k="ssr:gruppe" v="veg" />
		<tag k="ssr:hovedgruppe" v="infrastruktur" />
		<tag k="ssr:stedsnr" v="1079746" />
		<tag k="ssr:type" v="adressenavn" />
	</node>
	<node lat="68.2280646138348" lon="14.559221750702479" id="-20506">
		<tag k="name" v="Stabbursveien" />
		<tag k="ssr:date" v="2021-01-25" />
		<tag k="ssr:gruppe" v="veg" />
=======
	<node id="-193705" lat="68.2249111123" lon="14.8424083324">
		<tag k="name" v="Soten" />
		<tag k="ssr:date" v="2016-05-10" />
		<tag k="ssr:gruppe" v="navigasjon" />
		<tag k="ssr:hovedgruppe" v="infrastruktur" />
		<tag k="ssr:stedsnr" v="17234" />
		<tag k="ssr:type" v="fyrlykt" />
	</node>
	<node id="-193446" lat="68.1531083364" lon="14.6491055461">
		<tag k="name" v="Skrova" />
		<tag k="old_name" v="Skrova Fyr" />
		<tag k="ssr:date" v="2016-05-11" />
		<tag k="ssr:gruppe" v="navigasjon" />
>>>>>>> e1d4bc35ff8a6074a6f2e91616a996b547c36f15
		<tag k="ssr:hovedgruppe" v="infrastruktur" />
		<tag k="ssr:stedsnr" v="1079747" />
		<tag k="ssr:type" v="adressenavn" />
	</node>
	<node lat="68.1503172905423" lon="14.207078690569661" id="-20507">
		<tag k="name" v="Hjellveien" />
		<tag k="ssr:date" v="2021-01-25" />
		<tag k="ssr:gruppe" v="veg" />
		<tag k="ssr:hovedgruppe" v="infrastruktur" />
		<tag k="ssr:stedsnr" v="1079748" />
		<tag k="ssr:type" v="adressenavn" />
	</node>
	<node lat="68.24625926538828" lon="14.537932807763763" id="-20508">
		<tag k="name" v="Jens Holst vei" />
		<tag k="ssr:date" v="2021-01-26" />
		<tag k="ssr:gruppe" v="veg" />
		<tag k="ssr:hovedgruppe" v="infrastruktur" />
		<tag k="ssr:stedsnr" v="1079749" />
		<tag k="ssr:type" v="adressenavn" />
	</node>
	<node lat="68.36548584514924" lon="14.564240399816736" id="-20509">
		<tag k="name" v="Delpsmarka" />
		<tag k="ssr:date" v="2021-01-25" />
		<tag k="ssr:gruppe" v="veg" />
		<tag k="ssr:hovedgruppe" v="infrastruktur" />
		<tag k="ssr:stedsnr" v="1079751" />
		<tag k="ssr:type" v="adressenavn" />
	</node>
	<node lat="68.26002435947476" lon="14.53775738325122" id="-20510">
		<tag k="name" v="Svolværmarka" />
		<tag k="ssr:date" v="2021-01-25" />
		<tag k="ssr:gruppe" v="veg" />
		<tag k="ssr:hovedgruppe" v="infrastruktur" />
		<tag k="ssr:stedsnr" v="1079750" />
		<tag k="ssr:type" v="adressenavn" />
	</node>
	<node lat="68.32735127525507" lon="14.504017299775494" id="-20511">
		<tag k="name" v="Gåspollhaugen" />
		<tag k="ssr:date" v="2021-02-05" />
		<tag k="ssr:gruppe" v="veg" />
		<tag k="ssr:hovedgruppe" v="infrastruktur" />
		<tag k="ssr:stedsnr" v="1079879" />
		<tag k="ssr:type" v="adressenavn" />
	</node>
	<node lat="68.20992841783782" lon="14.476332686389688" id="-20513">
		<tag k="name" v="Arbeidergata" />
		<tag k="ssr:date" v="2021-05-04" />
		<tag k="ssr:gruppe" v="veg" />
		<tag k="ssr:hovedgruppe" v="infrastruktur" />
		<tag k="ssr:stedsnr" v="1081147" />
		<tag k="ssr:type" v="adressenavn" />
	</node>
	<node lat="68.23494844277272" lon="14.565321758702739" id="-20514">
		<tag k="name" v="Langåsveien" />
		<tag k="ssr:date" v="2021-05-04" />
		<tag k="ssr:gruppe" v="veg" />
		<tag k="ssr:hovedgruppe" v="infrastruktur" />
		<tag k="ssr:stedsnr" v="1081148" />
		<tag k="ssr:type" v="adressenavn" />
	</node>
	<node id="-194853" lat="68.1960777777" lon="14.4160944349">
		<tag k="name" v="Ørsvåg" />
		<tag k="ssr:date" v="2016-05-10" />
		<tag k="ssr:gruppe" v="navigasjon" />
		<tag k="ssr:hovedgruppe" v="infrastruktur" />
		<tag k="ssr:stedsnr" v="623399" />
		<tag k="ssr:type" v="fyrlykt" />
	</node>
	<node id="-193954" lat="68.2208027822" lon="14.5418722114">
		<tag k="name" v="Stretarholmen" />
		<tag k="ssr:date" v="2016-05-10" />
		<tag k="ssr:gruppe" v="navigasjon" />
		<tag k="ssr:hovedgruppe" v="infrastruktur" />
		<tag k="ssr:stedsnr" v="105710" />
		<tag k="ssr:type" v="lanterne" />
	</node>
	<node id="-194977" lat="68.1481694413" lon="14.1990138835">
		<tag k="name" v="Henningsvær" />
		<tag k="ssr:date" v="2016-05-11" />
		<tag k="ssr:gruppe" v="navigasjon" />
		<tag k="ssr:hovedgruppe" v="infrastruktur" />
		<tag k="ssr:stedsnr" v="745352" />
		<tag k="ssr:type" v="fyrlykt" />
	</node>
	<node id="-192926" lat="68.1479277781" lon="14.202802786">
		<tag k="name" v="Hellandsøy" />
		<tag k="ssr:date" v="2016-05-10" />
		<tag k="ssr:gruppe" v="navigasjon" />
		<tag k="ssr:hovedgruppe" v="infrastruktur" />
		<tag k="ssr:stedsnr" v="663979" />
		<tag k="ssr:type" v="fyrlykt" />
	</node>
	<node id="-194717" lat="68.3153365662" lon="14.9811670327">
		<tag k="name" v="Digermulen" />
		<tag k="ssr:date" v="2020-03-19" />
		<tag k="ssr:gruppe" v="navigasjon" />
		<tag k="ssr:hovedgruppe" v="infrastruktur" />
		<tag k="ssr:stedsnr" v="563539" />
		<tag k="ssr:type" v="fyrlykt" />
	</node>
	<node id="-193691" lat="68.1693916667" lon="14.20989167">
		<tag k="name" v="Festvåg" />
		<tag k="ssr:date" v="2016-05-10" />
		<tag k="ssr:gruppe" v="navigasjon" />
		<tag k="ssr:hovedgruppe" v="infrastruktur" />
		<tag k="ssr:stedsnr" v="17448" />
		<tag k="ssr:type" v="fyrlykt" />
	</node>
	<node id="-195226" lat="68.2255805591" lon="14.6344638964">
		<tag k="name" v="Kvalbaken" />
		<tag k="ssr:date" v="2016-05-11" />
		<tag k="ssr:gruppe" v="navigasjon" />
		<tag k="ssr:hovedgruppe" v="infrastruktur" />
		<tag k="ssr:stedsnr" v="845855" />
		<tag k="ssr:type" v="lanterne" />
	</node>
	<node id="-194841" lat="68.2250111082" lon="14.5580916553">
		<tag k="name" v="Vorsetøy" />
		<tag k="old_name" v="Vårsetøya" />
		<tag k="ssr:date" v="2016-05-10" />
		<tag k="ssr:gruppe" v="navigasjon" />
		<tag k="ssr:hovedgruppe" v="infrastruktur" />
		<tag k="ssr:stedsnr" v="623280" />
		<tag k="ssr:type" v="fyrlykt" />
	</node>
	<node id="-194009" lat="68.2362333371" lon="14.5957472177">
		<tag k="name" v="Risøyan" />
		<tag k="ssr:date" v="2016-05-10" />
		<tag k="ssr:gruppe" v="navigasjon" />
		<tag k="ssr:hovedgruppe" v="infrastruktur" />
		<tag k="ssr:stedsnr" v="138297" />
		<tag k="ssr:type" v="fyrlykt" />
	</node>
	<node id="-194326" lat="68.2352861106" lon="14.2145583279">
		<tag k="name" v="Lyngvær, Nordre" />
		<tag k="old_name" v="Lyngværet, nordre" />
		<tag k="ssr:date" v="2016-05-10" />
		<tag k="ssr:gruppe" v="navigasjon" />
		<tag k="ssr:hovedgruppe" v="infrastruktur" />
		<tag k="ssr:stedsnr" v="320590" />
		<tag k="ssr:type" v="fyrlykt" />
	</node>
	<node id="-194453" lat="68.2151638893" lon="14.196427769">
		<tag k="name" v="Lyngvær, Søre" />
		<tag k="old_name" v="Lyngværet, søre" />
		<tag k="ssr:date" v="2016-05-10" />
		<tag k="ssr:gruppe" v="navigasjon" />
		<tag k="ssr:hovedgruppe" v="infrastruktur" />
		<tag k="ssr:stedsnr" v="380620" />
		<tag k="ssr:type" v="fyrlykt" />
	</node>
	<node id="-193684" lat="68.338480554" lon="14.328933325">
		<tag k="name" v="Festvåghalsen" />
		<tag k="ssr:date" v="2016-05-10" />
		<tag k="ssr:gruppe" v="navigasjon" />
		<tag k="ssr:hovedgruppe" v="infrastruktur" />
		<tag k="ssr:stedsnr" v="17088" />
		<tag k="ssr:type" v="fyrlykt" />
	</node>
	<node id="-194189" lat="68.2554222252" lon="14.745536102">
		<tag k="name" v="Langholmen" />
		<tag k="ssr:date" v="2016-05-10" />
		<tag k="ssr:gruppe" v="navigasjon" />
		<tag k="ssr:hovedgruppe" v="infrastruktur" />
		<tag k="ssr:stedsnr" v="199699" />
		<tag k="ssr:type" v="fyrlykt" />
	</node>
	<node id="-193164" lat="68.2315500013" lon="14.6301444458">
		<tag k="name" v="Skjæringen" />
		<tag k="ssr:date" v="2016-05-10" />
		<tag k="ssr:gruppe" v="navigasjon" />
		<tag k="ssr:hovedgruppe" v="infrastruktur" />
		<tag k="ssr:stedsnr" v="601805" />
		<tag k="ssr:type" v="lanterne" />
	</node>
	<node id="-193673" lat="68.2206305529" lon="14.5010680519">
		<tag k="name" v="Urstabben" />
		<tag k="ssr:date" v="2019-05-30" />
		<tag k="ssr:gruppe" v="veg" />
		<tag k="ssr:hovedgruppe" v="infrastruktur" />
		<tag k="ssr:stedsnr" v="1002024" />
		<tag k="ssr:type" v="adressenavn" />
	</node>
	<node id="-193672" lat="68.2133561859" lon="14.4962358656">
		<tag k="name" v="Kantveien" />
		<tag k="ssr:date" v="2019-05-30" />
		<tag k="ssr:gruppe" v="veg" />
		<tag k="ssr:hovedgruppe" v="infrastruktur" />
		<tag k="ssr:stedsnr" v="1002023" />
		<tag k="ssr:type" v="adressenavn" />
	</node>
	<node id="-195334" lat="68.2183083297" lon="14.554255552">
		<tag k="name" v="Rødholmen" />
		<tag k="ssr:date" v="2016-05-11" />
		<tag k="ssr:gruppe" v="navigasjon" />
		<tag k="ssr:hovedgruppe" v="infrastruktur" />
		<tag k="ssr:stedsnr" v="867251" />
		<tag k="ssr:type" v="fyrlykt" />
	</node>
	<node id="-192653" lat="68.1700999968" lon="14.6727749997">
		<tag k="name" v="Galgeholmen" />
		<tag k="ssr:date" v="2016-05-10" />
		<tag k="ssr:gruppe" v="navigasjon" />
		<tag k="ssr:hovedgruppe" v="infrastruktur" />
		<tag k="ssr:stedsnr" v="458919" />
		<tag k="ssr:type" v="fyrlykt" />
	</node>
	<node id="-193174" lat="68.2295333376" lon="14.5670722256">
		<tag k="name" v="Hjørne DS - kai" />
		<tag k="ssr:date" v="2016-05-11" />
		<tag k="ssr:gruppe" v="navigasjon" />
		<tag k="ssr:hovedgruppe" v="infrastruktur" />
		<tag k="ssr:stedsnr" v="723778" />
		<tag k="ssr:type" v="lanterne" />
	</node>
	<node id="-194945" lat="68.2951444443" lon="14.2804222211">
		<tag k="name" v="Klokkerbåen" />
		<tag k="old_name" v="Klokkarbåen" />
		<tag k="ssr:date" v="2016-05-11" />
		<tag k="ssr:gruppe" v="navigasjon" />
		<tag k="ssr:hovedgruppe" v="infrastruktur" />
		<tag k="ssr:stedsnr" v="745061" />
		<tag k="ssr:type" v="fyrlykt" />
	</node>
</osm>
