<?xml version="1.0" encoding="UTF-8"?>
<osm generator="osmapis" version="0.6">
	<node id="-28672" lat="59.7063000025" lon="9.85372777734">
		<tag k="name" v="Sand" />
		<tag k="place" v="farm" />
		<tag k="ssr:stedsnr" v="634528" />
	</node>
	<node id="-28671" lat="59.7072027773" lon="9.84624166307">
		<tag k="name" v="Frydenlund" />
		<tag k="place" v="farm" />
		<tag k="ssr:stedsnr" v="634526" />
	</node>
	<node id="-28666" lat="59.8095638899" lon="9.87406666493">
		<tag k="fixme" v="multiple name tags, choose one and add the other to alt_name" />
		<tag k="name" v="Nordre Hvitstein;Hvitstein" />
		<tag k="place" v="farm" />
		<tag k="ssr:stedsnr" v="633782" />
	</node>
	<node id="-28664" lat="59.8002555523" lon="9.76666389739">
		<tag k="name" v="Barlinddokka" />
		<tag k="place" v="isolated_dwelling" />
		<tag k="ssr:stedsnr" v="633889" />
	</node>
	<node id="-28663" lat="59.7783777807" lon="9.91336665804">
		<tag k="leisure" v="pitch" />
		<tag k="name" v="Falkbanen" />
		<tag k="ssr:stedsnr" v="633872" />
	</node>
	<node id="-28662" lat="59.7752583298" lon="9.87303334175">
		<tag k="name" v="Hovet" />
		<tag k="place" v="farm" />
		<tag k="ssr:stedsnr" v="633729" />
	</node>
	<node id="-28661" lat="59.7431472208" lon="9.86162777758">
		<tag k="name" v="Hals" />
		<tag k="place" v="farm" />
		<tag k="ssr:stedsnr" v="633332" />
	</node>
	<node id="-28659" lat="59.8039583334" lon="9.84874722451">
		<tag k="name" v="Stenset" />
		<tag k="place" v="farm" />
		<tag k="ssr:stedsnr" v="632921" />
	</node>
	<node id="-28653" lat="59.8264333361" lon="9.86584722783">
		<tag k="name" v="Tandbergbakken" />
		<tag k="place" v="farm" />
		<tag k="ssr:stedsnr" v="632607" />
	</node>
	<node id="-28652" lat="59.7892222256" lon="9.86973888669">
		<tag k="name" v="Valheim" />
		<tag k="place" v="farm" />
		<tag k="ssr:stedsnr" v="632697" />
	</node>
	<node id="-28644" lat="59.6997222267" lon="9.80784167514">
		<tag k="name" v="Fiskum" />
		<tag k="place" v="farm" />
		<tag k="ssr:stedsnr" v="630542" />
	</node>
	<node id="-28642" lat="59.7712805591" lon="9.9562999932">
		<tag k="name" v="Horgen" />
		<tag k="place" v="farm" />
		<tag k="ssr:stedsnr" v="629736" />
	</node>
	<node id="-28638" lat="59.7471485807" lon="9.89535715521">
		<tag k="fixme" v="consider place=hamlet" />
		<tag k="name" v="Bryn" />
		<tag k="place" v="farm" />
		<tag k="ssr:stedsnr" v="610722" />
	</node>
	<node id="-28633" lat="59.888866665" lon="9.69017500607">
		<tag k="name" v="Tonhaugen" />
		<tag k="place" v="isolated_dwelling" />
		<tag k="ssr:stedsnr" v="610683" />
	</node>
	<node id="-28632" lat="59.8698449132" lon="9.90846963245">
		<tag k="fixme" v="consider place=hamlet" />
		<tag k="name" v="Ødeverp" />
		<tag k="place" v="farm" />
		<tag k="ssr:stedsnr" v="610675" />
	</node>
	<node id="-28627" lat="59.7735170012" lon="9.94763038045">
		<tag k="fixme" v="consider place=hamlet" />
		<tag k="name" v="Klommestein" />
		<tag k="place" v="farm" />
		<tag k="ssr:stedsnr" v="610642" />
	</node>
	<node id="-28626" lat="59.7704388908" lon="9.8651833314">
		<tag k="name" v="Åsroa" />
		<tag k="place" v="farm" />
		<tag k="ssr:stedsnr" v="610641" />
	</node>
	<node id="-28625" lat="59.6990462804" lon="9.87393603903">
		<tag k="fixme" v="consider place=hamlet" />
		<tag k="name" v="Brekke" />
		<tag k="place" v="farm" />
		<tag k="ssr:stedsnr" v="610640" />
	</node>
	<node id="-28614" lat="59.710022221" lon="9.85930277087">
		<tag k="alt_name" v="Såsen" />
		<tag k="name" v="Lille Såsen" />
		<tag k="place" v="farm" />
		<tag k="ssr:stedsnr" v="609589" />
	</node>
	<node id="-28613" lat="59.7073416652" lon="9.77513611394">
		<tag k="name" v="Myrvang" />
		<tag k="place" v="farm" />
		<tag k="ssr:stedsnr" v="609586" />
	</node>
	<node id="-28603" lat="59.7931007908" lon="9.75976972773">
		<tag k="historic" v="shieling" />
		<tag k="name" v="Hanseplass" />
		<tag k="place" v="locality" />
		<tag k="ssr:stedsnr" v="572791" />
	</node>
	<node id="-28602" lat="59.7911805546" lon="9.87838055877">
		<tag k="name" v="Skotsmoen" />
		<tag k="place" v="farm" />
		<tag k="ssr:stedsnr" v="572744" />
	</node>
	<node id="-28601" lat="59.7883388882" lon="9.87583333225">
		<tag k="name" v="Skjoldhaug" />
		<tag k="place" v="farm" />
		<tag k="ssr:stedsnr" v="572743" />
	</node>
	<node id="-28600" lat="59.7938444451" lon="9.86817777891">
		<tag k="name" v="Varlo" />
		<tag k="place" v="farm" />
		<tag k="ssr:stedsnr" v="572741" />
	</node>
	<node id="-28599" lat="59.8563805553" lon="9.94304165782">
		<tag k="name" v="Fjellheim" />
		<tag k="place" v="isolated_dwelling" />
		<tag k="ssr:stedsnr" v="572692" />
	</node>
	<node id="-28596" lat="59.8550472261" lon="9.79137777355">
		<tag k="name" v="Elsebu" />
		<tag k="place" v="isolated_dwelling" />
		<tag k="ssr:stedsnr" v="572038" />
	</node>
	<node id="-28593" lat="59.8905151088" lon="9.73966040933">
		<tag k="name" v="Ødegården" />
		<tag k="place" v="farm" />
		<tag k="ssr:stedsnr" v="571391" />
	</node>
	<node id="-28586" lat="59.7558916628" lon="9.92668610518">
		<tag k="name" v="Østre Lo" />
		<tag k="place" v="farm" />
		<tag k="ssr:stedsnr" v="568703" />
	</node>
	<node id="-28582" lat="59.8554189893" lon="9.83489198136">
		<tag k="alt_name" v="Øvre Borge" />
		<tag k="name" v="Borge" />
		<tag k="place" v="hamlet" />
		<tag k="ssr:stedsnr" v="550705" />
	</node>
	<node id="-28580" lat="59.8828638882" lon="9.77098888095">
		<tag k="alt_name" v="Nordre Håre" />
		<tag k="name" v="Håre" />
		<tag k="place" v="farm" />
		<tag k="ssr:stedsnr" v="550652" />
	</node>
	<node id="-28579" lat="59.8817000023" lon="9.78653333393">
		<tag k="name" v="Fogderud" />
		<tag k="place" v="farm" />
		<tag k="ssr:stedsnr" v="550651" />
	</node>
	<node id="-28578" lat="59.8881944444" lon="9.77528888335">
		<tag k="alt_name" v="Sønju" />
		<tag k="name" v="Haugsønju" />
		<tag k="place" v="farm" />
		<tag k="ssr:stedsnr" v="550631" />
	</node>
	<node id="-28577" lat="59.870894446" lon="9.70964445007">
		<tag k="name" v="Svartbekk" />
		<tag k="place" v="isolated_dwelling" />
		<tag k="ssr:stedsnr" v="550616" />
	</node>
	<node id="-28575" lat="59.7570222215" lon="9.90886944666">
		<tag k="name" v="Akersborg" />
		<tag k="place" v="farm" />
		<tag k="ssr:stedsnr" v="550576" />
	</node>
	<node id="-28574" lat="59.8042999999" lon="9.90754722501">
		<tag k="name" v="Kolbrekk" />
		<tag k="place" v="farm" />
		<tag k="ssr:stedsnr" v="550541" />
	</node>
	<node id="-28572" lat="59.7932750033" lon="9.8514305597">
		<tag k="name" v="Nordre Solum" />
		<tag k="place" v="farm" />
		<tag k="ssr:stedsnr" v="550507" />
	</node>
	<node id="-28567" lat="59.7432793653" lon="9.88901372109">
		<tag k="name" v="Vålen" />
		<tag k="place" v="hamlet" />
		<tag k="ssr:stedsnr" v="549686" />
	</node>
	<node id="-28566" lat="59.7482833338" lon="9.9471222207">
		<tag k="name" v="Skistad" />
		<tag k="place" v="farm" />
		<tag k="ssr:stedsnr" v="549679" />
	</node>
	<node id="-28565" lat="59.7496805548" lon="9.83593333226">
		<tag k="name" v="Spærenplassen" />
		<tag k="place" v="farm" />
		<tag k="ssr:stedsnr" v="549670" />
	</node>
	<node id="-28564" lat="59.7379594614" lon="9.88674789382">
		<tag k="fixme" v="consider place=hamlet" />
		<tag k="name" v="Smørgrav" />
		<tag k="place" v="farm" />
		<tag k="ssr:stedsnr" v="549660" />
	</node>
	<node id="-28563" lat="59.7333955999" lon="9.84085833858">
		<tag k="name" v="Skarra" />
		<tag k="place" v="hamlet" />
		<tag k="ssr:stedsnr" v="549656" />
	</node>
	<node id="-28562" lat="59.7324611153" lon="9.86802777754">
		<tag k="name" v="Vestfossen" />
		<tag k="place" v="village" />
		<tag k="ssr:stedsnr" v="549646" />
	</node>
	<node id="-28559" lat="59.7104956668" lon="9.81243021435">
		<tag k="fixme" v="consider place=hamlet" />
		<tag k="name" v="Paule" />
		<tag k="place" v="farm" />
		<tag k="ssr:stedsnr" v="549604" />
	</node>
	<node id="-28556" lat="59.7691500045" lon="9.75333332622">
		<tag k="historic" v="shieling" />
		<tag k="name" v="Spærensetra" />
		<tag k="place" v="locality" />
		<tag k="ssr:stedsnr" v="549591" />
	</node>
	<node id="-28555" lat="59.6924027813" lon="9.79468889779">
		<tag k="amenity" v="school" />
		<tag k="name" v="Heimtun" />
		<tag k="ssr:stedsnr" v="549584" />
	</node>
	<node id="-28554" lat="59.6907861125" lon="9.74931667407">
		<tag k="name" v="Slåttebråten" />
		<tag k="place" v="farm" />
		<tag k="ssr:stedsnr" v="549581" />
	</node>
	<node id="-28552" lat="59.6878070299" lon="9.85112618175">
		<tag k="fixme" v="consider place=hamlet" />
		<tag k="name" v="Bollerud" />
		<tag k="place" v="farm" />
		<tag k="ssr:stedsnr" v="549574" />
	</node>
	<node id="-28550" lat="59.6833888859" lon="9.68769999452">
		<tag k="name" v="Midnatten" />
		<tag k="place" v="farm" />
		<tag k="ssr:stedsnr" v="549563" />
	</node>
	<node id="-28549" lat="59.6783643766" lon="9.74794655359">
		<tag k="fixme" v="consider place=hamlet" />
		<tag k="name" v="Liverud" />
		<tag k="place" v="farm" />
		<tag k="ssr:stedsnr" v="549560" />
	</node>
	<node id="-28547" lat="59.6735217682" lon="9.87225329801">
		<tag k="name" v="Nordre Gunhildrud" />
		<tag k="place" v="farm" />
		<tag k="ssr:stedsnr" v="549547" />
	</node>
	<node id="-28546" lat="59.6601654734" lon="9.74765238197">
		<tag k="alt_name" v="Spisshol" />
		<tag k="fixme" v="consider place=hamlet" />
		<tag k="name" v="Spissholt" />
		<tag k="place" v="farm" />
		<tag k="ssr:stedsnr" v="549545" />
	</node>
	<node id="-28533" lat="59.8251250012" lon="9.88734444125">
		<tag k="name" v="Søndre Skott" />
		<tag k="old_name" v="Skott" />
		<tag k="place" v="farm" />
		<tag k="ssr:stedsnr" v="527047" />
	</node>
	<node id="-28532" lat="59.7940523207" lon="9.8324413183">
		<tag k="fixme" v="consider place=hamlet" />
		<tag k="name" v="Grøsland" />
		<tag k="place" v="farm" />
		<tag k="ssr:stedsnr" v="525271" />
	</node>
	<node id="-28526" lat="59.8030408931" lon="9.84141119939">
		<tag k="fixme" v="consider place=hamlet" />
		<tag k="name" v="Stenset" />
		<tag k="place" v="farm" />
		<tag k="ssr:stedsnr" v="429535" />
	</node>
	<node id="-28524" lat="59.7550338958" lon="9.92521995978">
		<tag k="alt_name" v="Lo" />
		<tag k="fixme" v="consider place=hamlet" />
		<tag k="name" v="Vestre Lo" />
		<tag k="place" v="farm" />
		<tag k="ssr:stedsnr" v="429485" />
	</node>
	<node id="-28523" lat="59.7997527781" lon="9.77995278179">
		<tag k="historic" v="shieling" />
		<tag k="name" v="Grøslandsetra" />
		<tag k="place" v="locality" />
		<tag k="ssr:stedsnr" v="429479" />
	</node>
	<node id="-28522" lat="59.8395166682" lon="9.90469722509">
		<tag k="alt_name" v="Dramdal" />
		<tag k="name" v="Nedre Dramdal" />
		<tag k="place" v="farm" />
		<tag k="ssr:stedsnr" v="429677" />
	</node>
	<node id="-28520" lat="59.8240111144" lon="9.974794438">
		<tag k="name" v="Øvervollen" />
		<tag k="place" v="isolated_dwelling" />
		<tag k="ssr:stedsnr" v="429188" />
	</node>
	<node id="-28517" lat="59.6990669686" lon="9.77501122071">
		<tag k="fixme" v="consider place=hamlet" />
		<tag k="name" v="Nyrud" />
		<tag k="place" v="farm" />
		<tag k="ssr:stedsnr" v="428578" />
	</node>
	<node id="-28516" lat="59.769299996" lon="9.73195832663">
		<tag k="historic" v="shieling" />
		<tag k="name" v="Svartskurden" />
		<tag k="place" v="locality" />
		<tag k="ssr:stedsnr" v="428574" />
	</node>
	<node id="-28515" lat="59.6924305555" lon="9.7382861142">
		<tag k="name" v="Bråten" />
		<tag k="place" v="farm" />
		<tag k="ssr:stedsnr" v="428570" />
	</node>
	<node id="-28514" lat="59.78281495" lon="9.91178535911">
		<tag k="alt_name" v="Midtre Hobbelstad" />
		<tag k="name" v="Hobbelstad" />
		<tag k="place" v="hamlet" />
		<tag k="ssr:stedsnr" v="428568" />
	</node>
	<node id="-28513" lat="59.7832111087" lon="9.89925833682">
		<tag k="name" v="Hellefoss" />
		<tag k="place" v="isolated_dwelling" />
		<tag k="ssr:stedsnr" v="428567" />
	</node>
	<node id="-28512" lat="59.6919694406" lon="9.81459167432">
		<tag k="name" v="Råen" />
		<tag k="place" v="farm" />
		<tag k="ssr:stedsnr" v="428566" />
	</node>
	<node id="-28511" lat="59.7764401102" lon="9.92122059175">
		<tag k="fixme" v="consider place=hamlet" />
		<tag k="name" v="Lerberg" />
		<tag k="place" v="farm" />
		<tag k="ssr:stedsnr" v="428563" />
	</node>
	<node id="-28510" lat="59.7798111124" lon="9.85577222338">
		<tag k="name" v="Haugen" />
		<tag k="place" v="farm" />
		<tag k="ssr:stedsnr" v="428554" />
	</node>
	<node id="-28509" lat="59.779103734" lon="9.84065854289">
		<tag k="fixme" v="consider place=hamlet" />
		<tag k="name" v="Stuverud" />
		<tag k="place" v="farm" />
		<tag k="ssr:stedsnr" v="428552" />
	</node>
	<node id="-28508" lat="59.6778777823" lon="9.95001944226">
		<tag k="alt_name" v="Søndre Østerudsetra" />
		<tag k="historic" v="shieling" />
		<tag k="name" v="Søndre Østerudseter" />
		<tag k="place" v="locality" />
		<tag k="ssr:stedsnr" v="428539" />
	</node>
	<node id="-28507" lat="59.6843517516" lon="9.85410146139">
		<tag k="fixme" v="consider place=hamlet" />
		<tag k="name" v="Baksteval" />
		<tag k="place" v="farm" />
		<tag k="ssr:stedsnr" v="428537" />
	</node>
	<node id="-28506" lat="59.8098045777" lon="9.84965107858">
		<tag k="fixme" v="consider place=hamlet" />
		<tag k="name" v="Myre" />
		<tag k="place" v="farm" />
		<tag k="ssr:stedsnr" v="428513" />
	</node>
	<node id="-28505" lat="59.8114999991" lon="9.8820249966">
		<tag k="name" v="Burud" />
		<tag k="place" v="hamlet" />
		<tag k="ssr:stedsnr" v="428511" />
	</node>
	<node id="-28501" lat="59.7372416877" lon="9.89719673411">
		<tag k="name" v="Røkeberg" />
		<tag k="place" v="hamlet" />
		<tag k="ssr:stedsnr" v="428661" />
	</node>
	<node id="-28493" lat="59.6899750015" lon="9.89999721424">
		<tag k="name" v="Markusbråten" />
		<tag k="place" v="isolated_dwelling" />
		<tag k="ssr:stedsnr" v="391729" />
	</node>
	<node id="-28486" lat="59.7953750041" lon="9.85791388101">
		<tag k="name" v="Valset" />
		<tag k="place" v="isolated_dwelling" />
		<tag k="ssr:stedsnr" v="390929" />
	</node>
	<node id="-28483" lat="59.7990222203" lon="9.72638332698">
		<tag k="name" v="Vinterfryd" />
		<tag k="place" v="isolated_dwelling" />
		<tag k="ssr:stedsnr" v="390698" />
	</node>
	<node id="-28482" lat="59.7814361089" lon="9.88006944254">
		<tag k="name" v="Moen" />
		<tag k="place" v="farm" />
		<tag k="ssr:stedsnr" v="390686" />
	</node>
	<node id="-28478" lat="59.8305861076" lon="9.96177778612">
		<tag k="name" v="Skarsstua" />
		<tag k="place" v="isolated_dwelling" />
		<tag k="ssr:stedsnr" v="390587" />
	</node>
	<node id="-28470" lat="59.8887777745" lon="9.75965554665">
		<tag k="name" v="Mastebråten" />
		<tag k="place" v="isolated_dwelling" />
		<tag k="ssr:stedsnr" v="389496" />
	</node>
	<node id="-28469" lat="59.8865749974" lon="9.77647222647">
		<tag k="name" v="Storsønju" />
		<tag k="place" v="farm" />
		<tag k="ssr:stedsnr" v="389490" />
	</node>
	<node id="-28468" lat="59.7313138874" lon="9.94461944599">
		<tag k="name" v="Langslett" />
		<tag k="place" v="isolated_dwelling" />
		<tag k="ssr:stedsnr" v="389344" />
	</node>
	<node id="-28463" lat="59.6559083336" lon="9.80137221648">
		<tag k="name" v="Dalebu" />
		<tag k="place" v="isolated_dwelling" />
		<tag k="ssr:stedsnr" v="388476" />
	</node>
	<node id="-28461" lat="59.663927777" lon="9.75347778653">
		<tag k="name" v="Nordli" />
		<tag k="place" v="farm" />
		<tag k="ssr:stedsnr" v="388428" />
	</node>
	<node id="-28460" lat="59.7744111093" lon="9.94038611226">
		<tag k="name" v="Søndre Haga" />
		<tag k="place" v="farm" />
		<tag k="ssr:stedsnr" v="387721" />
	</node>
	<node id="-28459" lat="59.8390305553" lon="9.80907221391">
		<tag k="alt_name" v="Gamlevoll" />
		<tag k="name" v="Gammelvollen" />
		<tag k="place" v="isolated_dwelling" />
		<tag k="ssr:stedsnr" v="368781" />
	</node>
	<node id="-28457" lat="59.8704277811" lon="9.95764999384">
		<tag k="historic" v="shieling" />
		<tag k="name" v="Verpsetra" />
		<tag k="place" v="locality" />
		<tag k="ssr:stedsnr" v="368693" />
	</node>
	<node id="-28456" lat="59.8676916708" lon="9.89470834041">
		<tag k="name" v="Fukkerud" />
		<tag k="place" v="farm" />
		<tag k="ssr:stedsnr" v="368692" />
	</node>
	<node id="-28454" lat="59.8673444459" lon="9.80085556171">
		<tag k="name" v="Vestby" />
		<tag k="place" v="farm" />
		<tag k="ssr:stedsnr" v="368663" />
	</node>
	<node id="-28452" lat="59.7544980616" lon="9.95236519773">
		<tag k="fixme" v="consider place=hamlet" />
		<tag k="name" v="Tveiten" />
		<tag k="place" v="farm" />
		<tag k="ssr:stedsnr" v="368629" />
	</node>
	<node id="-28451" lat="59.750877777" lon="9.73416389375">
		<tag k="historic" v="shieling" />
		<tag k="name" v="Kolbergsetra" />
		<tag k="place" v="locality" />
		<tag k="ssr:stedsnr" v="368613" />
	</node>
	<node id="-28450" lat="59.8062305593" lon="9.88299166738">
		<tag k="name" v="Tronga" />
		<tag k="place" v="farm" />
		<tag k="ssr:stedsnr" v="368585" />
	</node>
	<node id="-28449" lat="59.7897173458" lon="9.91052017429">
		<tag k="alt_name" v="Ulleren" />
		<tag k="fixme" v="consider place=hamlet" />
		<tag k="name" v="Ullern" />
		<tag k="place" v="farm" />
		<tag k="ssr:stedsnr" v="368553" />
	</node>
	<node id="-28447" lat="59.7965166706" lon="9.87851111625">
		<tag k="alt_name" v="Myrvold" />
		<tag k="name" v="Myrvoll" />
		<tag k="place" v="farm" />
		<tag k="ssr:stedsnr" v="368542" />
	</node>
	<node id="-28446" lat="59.7975027817" lon="9.82489722554">
		<tag k="name" v="Hønerud" />
		<tag k="place" v="farm" />
		<tag k="ssr:stedsnr" v="368541" />
	</node>
	<node id="-28444" lat="59.8025611145" lon="9.78181943659">
		<tag k="historic" v="shieling" />
		<tag k="name" v="Solbergsetra" />
		<tag k="place" v="locality" />
		<tag k="ssr:stedsnr" v="368532" />
	</node>
	<node id="-28442" lat="59.8293000033" lon="9.91174722608">
		<tag k="name" v="Finngardsplass" />
		<tag k="place" v="locality" />
		<tag k="ssr:stedsnr" v="367691" />
	</node>
	<node id="-28441" lat="59.7477777737" lon="9.92591389049">
		<tag k="name" v="Haugland" />
		<tag k="place" v="farm" />
		<tag k="ssr:stedsnr" v="367682" />
	</node>
	<node id="-28440" lat="59.7400809881" lon="9.9336653106">
		<tag k="alt_name" v="Vinsvold" />
		<tag k="name" v="Vinsvoll" />
		<tag k="place" v="hamlet" />
		<tag k="ssr:stedsnr" v="367680" />
	</node>
	<node id="-28437" lat="59.7223361084" lon="9.89747778369">
		<tag k="name" v="Brattås" />
		<tag k="place" v="farm" />
		<tag k="ssr:stedsnr" v="367651" />
	</node>
	<node id="-28436" lat="59.7334611098" lon="9.94665000422">
		<tag k="name" v="Helgerud" />
		<tag k="place" v="farm" />
		<tag k="ssr:stedsnr" v="367633" />
	</node>
	<node id="-28432" lat="59.7006159601" lon="9.78675394508">
		<tag k="fixme" v="consider place=hamlet" />
		<tag k="name" v="Bakkerud" />
		<tag k="place" v="farm" />
		<tag k="ssr:stedsnr" v="367588" />
	</node>
	<node id="-28430" lat="59.6928222197" lon="9.70102500409">
		<tag k="name" v="Løkka" />
		<tag k="place" v="farm" />
		<tag k="ssr:stedsnr" v="367569" />
	</node>
	<node id="-28429" lat="59.6867665915" lon="9.90626686804">
		<tag k="fixme" v="consider place=hamlet" />
		<tag k="name" v="Østerud" />
		<tag k="place" v="farm" />
		<tag k="ssr:stedsnr" v="367558" />
	</node>
	<node id="-28428" lat="59.7790722265" lon="9.8699666591">
		<tag k="name" v="Søndre Varlo" />
		<tag k="place" v="farm" />
		<tag k="ssr:stedsnr" v="367552" />
	</node>
	<node id="-28427" lat="59.6855913992" lon="9.79892750887">
		<tag k="fixme" v="consider place=hamlet" />
		<tag k="name" v="Klunderud" />
		<tag k="place" v="farm" />
		<tag k="ssr:stedsnr" v="367537" />
	</node>
	<node id="-28424" lat="59.6658950932" lon="9.76829897414">
		<tag k="fixme" v="consider place=hamlet" />
		<tag k="name" v="Krekling" />
		<tag k="place" v="farm" />
		<tag k="ssr:stedsnr" v="367516" />
	</node>
	<node id="-28418" lat="59.6431027818" lon="9.85510833953">
		<tag k="historic" v="shieling" />
		<tag k="name" v="Gunhildrudsetra" />
		<tag k="place" v="locality" />
		<tag k="ssr:stedsnr" v="367485" />
	</node>
	<node id="-28417" lat="59.8178680493" lon="9.90722094621">
		<tag k="fixme" v="consider place=hamlet" />
		<tag k="name" v="Skar" />
		<tag k="place" v="farm" />
		<tag k="ssr:stedsnr" v="367477" />
	</node>
	<node id="-28415" lat="59.6993888903" lon="9.80446667081">
		<tag k="fixme" v="consider place=hamlet" />
		<tag k="name" v="Fiskum prestegård" />
		<tag k="place" v="farm" />
		<tag k="ssr:stedsnr" v="363588" />
	</node>
	<node id="-28408" lat="59.7098166681" lon="9.81739166292">
		<tag k="name" v="Rudstøen" />
		<tag k="place" v="farm" />
		<tag k="ssr:stedsnr" v="331483" />
	</node>
	<node id="-28406" lat="59.8128027814" lon="9.75306389041">
		<tag k="name" v="Hølbekkplassen" />
		<tag k="place" v="isolated_dwelling" />
		<tag k="ssr:stedsnr" v="331534" />
	</node>
	<node id="-28403" lat="59.8110000541" lon="9.8844730565">
		<tag k="fixme" v="consider place=hamlet" />
		<tag k="name" v="Burud" />
		<tag k="place" v="farm" />
		<tag k="ssr:stedsnr" v="330796" />
	</node>
	<node id="-28401" lat="59.7663527818" lon="9.92606110676">
		<tag k="leisure" v="pitch" />
		<tag k="name" v="Loesmoen idrettpark" />
		<tag k="ssr:stedsnr" v="330753" />
	</node>
	<node id="-28400" lat="59.6011611079" lon="9.91196388567">
		<tag k="name" v="Øksnevangen" />
		<tag k="place" v="isolated_dwelling" />
		<tag k="ssr:stedsnr" v="330569" />
	</node>
	<node id="-28397" lat="59.8473638919" lon="9.89515555249">
		<tag k="name" v="Kopperud" />
		<tag k="place" v="isolated_dwelling" />
		<tag k="ssr:stedsnr" v="330641" />
	</node>
	<node id="-28396" lat="59.790083329" lon="9.89920832929">
		<tag k="name" v="Fossberget" />
		<tag k="place" v="isolated_dwelling" />
		<tag k="ssr:stedsnr" v="329994" />
	</node>
	<node id="-28393" lat="59.804247226" lon="9.96145000732">
		<tag k="name" v="Seteråsstua" />
		<tag k="place" v="isolated_dwelling" />
		<tag k="ssr:stedsnr" v="329501" />
	</node>
	<node id="-28390" lat="59.8792638905" lon="9.7748944406">
		<tag k="name" v="Finstad" />
		<tag k="place" v="isolated_dwelling" />
		<tag k="ssr:stedsnr" v="329478" />
	</node>
	<node id="-28389" lat="59.8752916689" lon="9.77929444843">
		<tag k="name" v="Snekkerplassen" />
		<tag k="place" v="farm" />
		<tag k="ssr:stedsnr" v="329475" />
	</node>
	<node id="-28388" lat="59.8873694489" lon="9.76500277638">
		<tag k="name" v="Myrbråten" />
		<tag k="place" v="farm" />
		<tag k="ssr:stedsnr" v="329474" />
	</node>
	<node id="-28387" lat="59.7312611136" lon="9.93562500792">
		<tag k="name" v="Gantum" />
		<tag k="place" v="farm" />
		<tag k="ssr:stedsnr" v="329360" />
	</node>
	<node id="-28384" lat="59.7471444415" lon="9.83226667524">
		<tag k="name" v="Påleplassen" />
		<tag k="place" v="farm" />
		<tag k="ssr:stedsnr" v="329070" />
	</node>
	<node id="-28383" lat="59.8590666681" lon="9.852872231">
		<tag k="alt_name" v="Elverhøy" />
		<tag k="name" v="Elvehøi" />
		<tag k="place" v="farm" />
		<tag k="ssr:stedsnr" v="328967" />
	</node>
	<node id="-28382" lat="59.6521555556" lon="9.80539444343">
		<tag k="name" v="Foss-seter" />
		<tag k="place" v="locality" />
		<tag k="ssr:stedsnr" v="328489" />
	</node>
	<node id="-28380" lat="59.6772888859" lon="9.78360555462">
		<tag k="name" v="Stavlum" />
		<tag k="place" v="farm" />
		<tag k="ssr:stedsnr" v="327487" />
	</node>
	<node id="-28374" lat="59.766836114" lon="9.8438083306">
		<tag k="name" v="Gorud" />
		<tag k="place" v="farm" />
		<tag k="ssr:stedsnr" v="308466" />
	</node>
	<node id="-28373" lat="59.858938886" lon="9.85655278648">
		<tag k="name" v="Lille Lobben" />
		<tag k="place" v="farm" />
		<tag k="ssr:stedsnr" v="308460" />
	</node>
	<node id="-28371" lat="59.8474500016" lon="9.88316111608">
		<tag k="name" v="San-Souci" />
		<tag k="place" v="isolated_dwelling" />
		<tag k="ssr:stedsnr" v="307734" />
	</node>
	<node id="-28370" lat="59.8485749971" lon="9.91943332801">
		<tag k="name" v="Stolp" />
		<tag k="place" v="farm" />
		<tag k="ssr:stedsnr" v="307731" />
	</node>
	<node id="-28365" lat="59.6922527761" lon="9.76100555052">
		<tag k="name" v="Øvre Teigen" />
		<tag k="place" v="farm" />
		<tag k="ssr:stedsnr" v="307619" />
	</node>
	<node id="-28362" lat="59.7666444479" lon="9.83225277581">
		<tag k="alt_name" v="Åslia" />
		<tag k="name" v="Åsli" />
		<tag k="place" v="farm" />
		<tag k="ssr:stedsnr" v="307581" />
	</node>
	<node id="-28360" lat="59.7932512265" lon="9.84185219484">
		<tag k="fixme" v="consider place=hamlet" />
		<tag k="name" v="Fossum" />
		<tag k="place" v="farm" />
		<tag k="ssr:stedsnr" v="307545" />
	</node>
	<node id="-28356" lat="59.7330424559" lon="9.83089205256">
		<tag k="name" v="Skarraenga" />
		<tag k="place" v="locality" />
		<tag k="ssr:stedsnr" v="306647" />
	</node>
	<node id="-28355" lat="59.7251579955" lon="9.842625128">
		<tag k="name" v="Eik" />
		<tag k="place" v="hamlet" />
		<tag k="ssr:stedsnr" v="306626" />
	</node>
	<node id="-28354" lat="59.7230650797" lon="9.82688036993">
		<tag k="fixme" v="consider place=hamlet" />
		<tag k="name" v="Skjelbred" />
		<tag k="place" v="farm" />
		<tag k="ssr:stedsnr" v="306625" />
	</node>
	<node id="-28353" lat="59.7123694448" lon="9.6963138817">
		<tag k="alt_name" v="Nyrudsetra" />
		<tag k="name" v="Nyrudseter" />
		<tag k="place" v="farm" />
		<tag k="ssr:stedsnr" v="306608" />
	</node>
	<node id="-28352" lat="59.7072222188" lon="9.77234444825">
		<tag k="name" v="Dunserudhagen" />
		<tag k="place" v="hamlet" />
		<tag k="ssr:stedsnr" v="306604" />
	</node>
	<node id="-28351" lat="59.7197916698" lon="9.82309444731">
		<tag k="loc_name" v="Hekstad" />
		<tag k="name" v="Hegstad" />
		<tag k="old_name" v="Hagstad" />
		<tag k="place" v="farm" />
		<tag k="ssr:stedsnr" v="306598" />
	</node>
	<node id="-28345" lat="59.7062840669" lon="9.70627326522">
		<tag k="name" v="Grønnli" />
		<tag k="place" v="isolated_dwelling" />
		<tag k="ssr:stedsnr" v="210855" />
	</node>
	<node id="-28342" lat="59.6594111139" lon="9.85577499308">
		<tag k="name" v="Karstjernstua" />
		<tag k="place" v="isolated_dwelling" />
		<tag k="ssr:stedsnr" v="210595" />
	</node>
	<node id="-28336" lat="59.8517194462" lon="9.91713610238">
		<tag k="name" v="Skarberg" />
		<tag k="place" v="isolated_dwelling" />
		<tag k="ssr:stedsnr" v="208994" />
	</node>
	<node id="-28335" lat="59.8016861098" lon="9.8062999976">
		<tag k="name" v="Torvhytta" />
		<tag k="place" v="isolated_dwelling" />
		<tag k="ssr:stedsnr" v="208926" />
	</node>
	<node id="-28329" lat="59.7922305573" lon="9.7618000024">
		<tag k="name" v="Nyvollen" />
		<tag k="place" v="isolated_dwelling" />
		<tag k="ssr:stedsnr" v="208783" />
	</node>
	<node id="-28328" lat="59.8462416665" lon="9.86847777467">
		<tag k="name" v="Hære" />
		<tag k="place" v="farm" />
		<tag k="ssr:stedsnr" v="208691" />
	</node>
	<node id="-28327" lat="59.6906722249" lon="9.70968054894">
		<tag k="name" v="Øvre Fiskeløs" />
		<tag k="place" v="isolated_dwelling" />
		<tag k="ssr:stedsnr" v="208689" />
	</node>
	<node id="-28325" lat="59.8101833322" lon="9.83588055475">
		<tag k="name" v="Piggerud" />
		<tag k="place" v="isolated_dwelling" />
		<tag k="ssr:stedsnr" v="208671" />
	</node>
	<node id="-28320" lat="59.8406194449" lon="9.90013889596">
		<tag k="name" v="Kjemperud" />
		<tag k="place" v="isolated_dwelling" />
		<tag k="ssr:stedsnr" v="208548" />
	</node>
	<node id="-28319" lat="59.7237055555" lon="9.87860556341">
		<tag k="name" v="Besseberg" />
		<tag k="place" v="farm" />
		<tag k="ssr:stedsnr" v="208282" />
	</node>
	<node id="-28316" lat="59.7830722253" lon="9.85298055124">
		<tag k="name" v="Østre Kåsa" />
		<tag k="place" v="farm" />
		<tag k="ssr:stedsnr" v="207940" />
	</node>
	<node id="-28315" lat="59.8066444471" lon="9.90038610504">
		<tag k="name" v="Kolbrekk" />
		<tag k="place" v="farm" />
		<tag k="ssr:stedsnr" v="207679" />
	</node>
	<node id="-28313" lat="59.8393583304" lon="9.85335277065">
		<tag k="name" v="Søndre Holte" />
		<tag k="place" v="farm" />
		<tag k="ssr:stedsnr" v="207641" />
	</node>
	<node id="-28312" lat="59.8489194444" lon="9.84839166614">
		<tag k="name" v="Li" />
		<tag k="place" v="farm" />
		<tag k="ssr:stedsnr" v="207638" />
	</node>
	<node id="-28303" lat="59.7037888899" lon="9.69134722202">
		<tag k="historic" v="shieling" />
		<tag k="name" v="Brudevollen" />
		<tag k="place" v="locality" />
		<tag k="ssr:stedsnr" v="205972" />
	</node>
	<node id="-28302" lat="59.7605444415" lon="9.93990000745">
		<tag k="name" v="Moen" />
		<tag k="place" v="farm" />
		<tag k="ssr:stedsnr" v="205737" />
	</node>
	<node id="-28296" lat="59.8901638889" lon="9.70145832776">
		<tag k="name" v="Steffensetra" />
		<tag k="place" v="isolated_dwelling" />
		<tag k="ssr:stedsnr" v="186689" />
	</node>
	<node id="-28295" lat="59.8616499994" lon="9.72978333402">
		<tag k="historic" v="shieling" />
		<tag k="name" v="Sørlisetra" />
		<tag k="place" v="locality" />
		<tag k="ssr:stedsnr" v="186680" />
	</node>
	<node id="-28294" lat="59.755041666" lon="9.86165277602">
		<tag k="name" v="Øverås" />
		<tag k="place" v="farm" />
		<tag k="ssr:stedsnr" v="186638" />
	</node>
	<node id="-28292" lat="59.7618000337" lon="9.84410855074">
		<tag k="fixme" v="consider place=hamlet" />
		<tag k="name" v="Grefsrud" />
		<tag k="place" v="farm" />
		<tag k="ssr:stedsnr" v="186621" />
	</node>
	<node id="-28291" lat="59.8057249955" lon="9.86145277805">
		<tag k="name" v="Lien" />
		<tag k="place" v="farm" />
		<tag k="ssr:stedsnr" v="186605" />
	</node>
	<node id="-28289" lat="59.8162262271" lon="9.89896328909">
		<tag k="fixme" v="consider place=hamlet" />
		<tag k="name" v="Kverk" />
		<tag k="place" v="farm" />
		<tag k="ssr:stedsnr" v="186585" />
	</node>
	<node id="-28284" lat="59.825508332" lon="9.86397778646">
		<tag k="name" v="Kuland" />
		<tag k="place" v="farm" />
		<tag k="ssr:stedsnr" v="185688" />
	</node>
	<node id="-28283" lat="59.7483500004" lon="9.91771110283">
		<tag k="name" v="Skogro" />
		<tag k="place" v="farm" />
		<tag k="ssr:stedsnr" v="185662" />
	</node>
	<node id="-28282" lat="59.7348533876" lon="9.95337128287">
		<tag k="fixme" v="consider place=hamlet" />
		<tag k="name" v="Haugerud" />
		<tag k="place" v="farm" />
		<tag k="ssr:stedsnr" v="185647" />
	</node>
	<node id="-28281" lat="59.7308944405" lon="9.90848055201">
		<tag k="alt_name" v="Hole" />
		<tag k="name" v="Skjelsbekk" />
		<tag k="place" v="farm" />
		<tag k="ssr:stedsnr" v="185646" />
	</node>
	<node id="-28280" lat="59.7327944417" lon="9.79820555195">
		<tag k="alt_name" v="Lundemarka" />
		<tag k="name" v="Lonemarka" />
		<tag k="place" v="isolated_dwelling" />
		<tag k="ssr:stedsnr" v="185642" />
	</node>
	<node id="-28278" lat="59.7221888877" lon="9.87444445323">
		<tag k="name" v="Såsen" />
		<tag k="place" v="farm" />
		<tag k="ssr:stedsnr" v="185625" />
	</node>
	<node id="-28277" lat="59.701224996" lon="9.84511111588">
		<tag k="name" v="Sundet" />
		<tag k="place" v="farm" />
		<tag k="ssr:stedsnr" v="185574" />
	</node>
	<node id="-28273" lat="59.7770500031" lon="9.93170555751">
		<tag k="alt_name" v="Haga" />
		<tag k="name" v="Nordre Haga" />
		<tag k="place" v="farm" />
		<tag k="ssr:stedsnr" v="185548" />
	</node>
	<node id="-28272" lat="59.6775833306" lon="9.92668055718">
		<tag k="name" v="Tørrbekk" />
		<tag k="place" v="isolated_dwelling" />
		<tag k="ssr:stedsnr" v="185530" />
	</node>
	<node id="-28271" lat="59.6705055571" lon="9.70828055285">
		<tag k="name" v="Myra" />
		<tag k="place" v="farm" />
		<tag k="ssr:stedsnr" v="185523" />
	</node>
	<node id="-28268" lat="59.6555916708" lon="9.8359416599">
		<tag k="name" v="Gamlevollen" />
		<tag k="place" v="isolated_dwelling" />
		<tag k="ssr:stedsnr" v="185499" />
	</node>
	<node id="-28263" lat="59.6931004223" lon="9.81966334857">
		<tag k="name" v="Råen" />
		<tag k="place" v="hamlet" />
		<tag k="ssr:stedsnr" v="185002" />
	</node>
	<node id="-28255" lat="59.8263999987" lon="9.88739721952">
		<tag k="name" v="Skott" />
		<tag k="place" v="farm" />
		<tag k="ssr:stedsnr" v="161078" />
	</node>
	<node id="-28252" lat="59.829877775" lon="9.77649443869">
		<tag k="historic" v="shieling" />
		<tag k="name" v="Harstadsetra" />
		<tag k="place" v="locality" />
		<tag k="ssr:stedsnr" v="149617" />
	</node>
	<node id="-28250" lat="59.6894861149" lon="9.84164444343">
		<tag k="name" v="Bollerud" />
		<tag k="place" v="farm" />
		<tag k="ssr:stedsnr" v="149515" />
	</node>
	<node id="-28249" lat="59.7108416669" lon="9.95273333272">
		<tag k="name" v="Svingelen" />
		<tag k="place" v="locality" />
		<tag k="ssr:stedsnr" v="148527" />
	</node>
	<node id="-28247" lat="59.8016861098" lon="9.8062999976">
		<tag k="name" v="Tippen" />
		<tag k="place" v="isolated_dwelling" />
		<tag k="ssr:stedsnr" v="147928" />
	</node>
	<node id="-28246" lat="59.789541668" lon="9.90126944941">
		<tag k="name" v="Vendelborg" />
		<tag k="place" v="isolated_dwelling" />
		<tag k="ssr:stedsnr" v="147993" />
	</node>
	<node id="-28245" lat="59.7883138889" lon="9.90325555138">
		<tag k="name" v="Ulleren" />
		<tag k="place" v="quarter" />
		<tag k="ssr:stedsnr" v="147990" />
	</node>
	<node id="-28240" lat="59.7831111098" lon="9.87873055277">
		<tag k="fixme" v="consider place=hamlet" />
		<tag k="name" v="Skotsmoen" />
		<tag k="place" v="village" />
		<tag k="ssr:stedsnr" v="147678" />
	</node>
	<node id="-28237" lat="59.7282194479" lon="9.84142778046">
		<tag k="alt_name" v="Lundebakken" />
		<tag k="name" v="Lunde-Skarra" />
		<tag k="place" v="farm" />
		<tag k="ssr:stedsnr" v="147439" />
	</node>
	<node id="-28236" lat="59.8576277821" lon="9.88433611415">
		<tag k="name" v="Dalebråten" />
		<tag k="place" v="farm" />
		<tag k="ssr:stedsnr" v="147060" />
	</node>
	<node id="-28233" lat="59.8885277769" lon="9.76386110515">
		<tag k="amenity" v="school" />
		<tag k="name" v="Sønju skole" />
		<tag k="ssr:stedsnr" v="146438" />
	</node>
	<node id="-28232" lat="59.8783083339" lon="9.77683333636">
		<tag k="name" v="Benteplassen" />
		<tag k="place" v="farm" />
		<tag k="ssr:stedsnr" v="146426" />
	</node>
	<node id="-28228" lat="59.6534583353" lon="9.77527777431">
		<tag k="name" v="Berganhytta" />
		<tag k="place" v="isolated_dwelling" />
		<tag k="ssr:stedsnr" v="145549" />
	</node>
	<node id="-28227" lat="59.7059166627" lon="9.69376666133">
		<tag k="amenity" v="school" />
		<tag k="name" v="Lurdalen skole" />
		<tag k="ssr:stedsnr" v="144954" />
	</node>
	<node id="-28226" lat="59.7717166703" lon="9.94768055706">
		<tag k="name" v="Eikerstua" />
		<tag k="ssr:stedsnr" v="144727" />
		<tag k="tourism" v="guest_house" />
	</node>
	<node id="-28225" lat="59.7830444479" lon="9.93215833596">
		<tag k="leisure" v="pitch" />
		<tag k="name" v="Harakollen" />
		<tag k="ssr:stedsnr" v="144724" />
	</node>
	<node id="-28223" lat="59.703061726" lon="9.80787333082">
		<tag k="name" v="Darbu" />
		<tag k="place" v="hamlet" />
		<tag k="ssr:stedsnr" v="145586" />
	</node>
	<node id="-28221" lat="59.7536017407" lon="9.88618778929">
		<tag k="fixme" v="consider place=hamlet" />
		<tag k="name" v="Sem" />
		<tag k="place" v="farm" />
		<tag k="ssr:stedsnr" v="126511" />
	</node>
	<node id="-28219" lat="59.8939805583" lon="9.73588888504">
		<tag k="alt_name" v="Øgården" />
		<tag k="name" v="Ødegården" />
		<tag k="place" v="farm" />
		<tag k="ssr:stedsnr" v="125840" />
	</node>
	<node id="-28215" lat="59.8213250016" lon="9.93517777253">
		<tag k="name" v="Gramvollen" />
		<tag k="place" v="isolated_dwelling" />
		<tag k="ssr:stedsnr" v="125724" />
	</node>
	<node id="-28214" lat="59.8275055528" lon="9.87623333894">
		<tag k="name" v="Stormoen" />
		<tag k="place" v="farm" />
		<tag k="ssr:stedsnr" v="125721" />
	</node>
	<node id="-28211" lat="59.8339166702" lon="9.91330278315">
		<tag k="name" v="Øvre Dramdal" />
		<tag k="place" v="farm" />
		<tag k="ssr:stedsnr" v="125707" />
	</node>
	<node id="-28210" lat="59.7710138921" lon="9.89178334075">
		<tag k="fixme" v="multiple name tags, choose one and add the other to alt_name" />
		<tag k="name" v="Sundmoen;Sundt" />
		<tag k="place" v="farm" />
		<tag k="ssr:stedsnr" v="125642" />
	</node>
	<node id="-28207" lat="59.7691895618" lon="9.84406460267">
		<tag k="fixme" v="consider place=hamlet" />
		<tag k="name" v="Gorud" />
		<tag k="place" v="farm" />
		<tag k="ssr:stedsnr" v="125635" />
	</node>
	<node id="-28206" lat="59.7568025904" lon="9.87091839294">
		<tag k="name" v="Ås" />
		<tag k="place" v="hamlet" />
		<tag k="ssr:stedsnr" v="125590" />
	</node>
	<node id="-28200" lat="59.7417247083" lon="9.86782850977">
		<tag k="alt_name" v="Fåsen" />
		<tag k="name" v="Øvre Fåsen" />
		<tag k="place" v="farm" />
		<tag k="ssr:stedsnr" v="124649" />
	</node>
	<node id="-28199" lat="59.7426887389" lon="9.91272447707">
		<tag k="fixme" v="consider place=hamlet" />
		<tag k="name" v="Dramsrud" />
		<tag k="place" v="farm" />
		<tag k="ssr:stedsnr" v="124645" />
	</node>
	<node id="-28198" lat="59.7333472223" lon="9.68940277954">
		<tag k="name" v="Storemyr" />
		<tag k="place" v="isolated_dwelling" />
		<tag k="ssr:stedsnr" v="124617" />
	</node>
	<node id="-28197" lat="59.7294333349" lon="9.88697499538">
		<tag k="building" v="industrial" />
		<tag k="industrial" v="factory" />
		<tag k="name" v="Fredfoss" />
		<tag k="ssr:stedsnr" v="124609" />
	</node>
	<node id="-28193" lat="59.7102305545" lon="9.86611666258">
		<tag k="name" v="Åsen" />
		<tag k="place" v="farm" />
		<tag k="ssr:stedsnr" v="124561" />
	</node>
	<node id="-28192" lat="59.7058666638" lon="9.79340556275">
		<tag k="name" v="Bjørke" />
		<tag k="place" v="farm" />
		<tag k="ssr:stedsnr" v="124557" />
	</node>
	<node id="-28191" lat="59.6872194428" lon="9.67847500046">
		<tag k="name" v="Grinderud" />
		<tag k="place" v="farm" />
		<tag k="ssr:stedsnr" v="124536" />
	</node>
	<node id="-28190" lat="59.6949638907" lon="9.76625556166">
		<tag k="name" v="Nordre Gulliksrud" />
		<tag k="place" v="farm" />
		<tag k="ssr:stedsnr" v="124534" />
	</node>
	<node id="-28189" lat="59.6818388892" lon="9.75499445277">
		<tag k="name" v="Søndre Kofstad" />
		<tag k="place" v="farm" />
		<tag k="ssr:stedsnr" v="124527" />
	</node>
	<node id="-28188" lat="59.6833277795" lon="9.89339166692">
		<tag k="alt_name" v="Hamreenga" />
		<tag k="name" v="Hamretangen" />
		<tag k="place" v="farm" />
		<tag k="ssr:stedsnr" v="124521" />
	</node>
	<node id="-28187" lat="59.6737027823" lon="9.70655555124">
		<tag k="alt_name" v="Sætra" />
		<tag k="name" v="Seteren" />
		<tag k="place" v="farm" />
		<tag k="ssr:stedsnr" v="124518" />
	</node>
	<node id="-28186" lat="59.6777277805" lon="9.70282777769">
		<tag k="name" v="Korsbakken" />
		<tag k="place" v="farm" />
		<tag k="ssr:stedsnr" v="124516" />
	</node>
	<node id="-28185" lat="59.6734919622" lon="9.7455907352">
		<tag k="fixme" v="consider place=hamlet" />
		<tag k="name" v="Basserud" />
		<tag k="place" v="farm" />
		<tag k="ssr:stedsnr" v="124515" />
	</node>
	<node id="-28180" lat="59.6465083363" lon="9.98284722501">
		<tag k="name" v="Tryterud" />
		<tag k="place" v="farm" />
		<tag k="ssr:stedsnr" v="124157" />
	</node>
	<node id="-28178" lat="59.7883682295" lon="9.83209239977">
		<tag k="fixme" v="consider place=hamlet" />
		<tag k="name" v="Bermingrud" />
		<tag k="place" v="farm" />
		<tag k="ssr:stedsnr" v="125535" />
	</node>
	<node id="-28176" lat="59.7970920868" lon="9.83438375456">
		<tag k="fixme" v="consider place=hamlet" />
		<tag k="name" v="Solberg" />
		<tag k="place" v="farm" />
		<tag k="ssr:stedsnr" v="125524" />
	</node>
	<node id="-28173" lat="59.7964831023" lon="9.74966590607">
		<tag k="name" v="Skomakerplassen" />
		<tag k="place" v="locality" />
		<tag k="ssr:stedsnr" v="125514" />
	</node>
	<node id="-28172" lat="59.7707666711" lon="9.90986666522">
		<tag k="name" v="Hokksund" />
		<tag k="place" v="town" />
		<tag k="ssr:stedsnr" v="117254" />
	</node>
	<node id="-28165" lat="59.7169138874" lon="9.92179721494">
		<tag k="name" v="Feriehjem" />
		<tag k="place" v="isolated_dwelling" />
		<tag k="ssr:stedsnr" v="89320" />
	</node>
	<node id="-28164" lat="59.7949055512" lon="9.89951666984">
		<tag k="name" v="Søndre Langerud" />
		<tag k="place" v="farm" />
		<tag k="ssr:stedsnr" v="88699" />
	</node>
	<node id="-28162" lat="59.7158666649" lon="9.96171666798">
		<tag k="name" v="Hornvollen" />
		<tag k="place" v="isolated_dwelling" />
		<tag k="ssr:stedsnr" v="88413" />
	</node>
	<node id="-28158" lat="59.8059749965" lon="9.86045555249">
		<tag k="name" v="Åsen" />
		<tag k="place" v="isolated_dwelling" />
		<tag k="ssr:stedsnr" v="87914" />
	</node>
	<node id="-28156" lat="59.7356416624" lon="9.69761667136">
		<tag k="name" v="Gåsum" />
		<tag k="place" v="isolated_dwelling" />
		<tag k="ssr:stedsnr" v="87873" />
	</node>
	<node id="-28155" lat="59.7710666628" lon="9.88026389358">
		<tag k="amenity" v="school" />
		<tag k="name" v="Røren skole" />
		<tag k="ssr:stedsnr" v="87860" />
	</node>
	<node id="-28154" lat="59.603805559" lon="9.90832221744">
		<tag k="name" v="Tistillstua" />
		<tag k="place" v="isolated_dwelling" />
		<tag k="ssr:stedsnr" v="87513" />
	</node>
	<node id="-28148" lat="59.8557361119" lon="9.91764721542">
		<tag k="name" v="Stolpestad" />
		<tag k="place" v="farm" />
		<tag k="ssr:stedsnr" v="86994" />
	</node>
	<node id="-28145" lat="59.8428222192" lon="10.0054305577">
		<tag k="name" v="Dypingstua" />
		<tag k="place" v="isolated_dwelling" />
		<tag k="ssr:stedsnr" v="86642" />
	</node>
	<node id="-28140" lat="59.8875499995" lon="9.7810888828">
		<tag k="name" v="Framsønju" />
		<tag k="place" v="farm" />
		<tag k="ssr:stedsnr" v="86482" />
	</node>
	<node id="-28138" lat="59.7334555577" lon="9.94115555661">
		<tag k="name" v="Helgerudplassen" />
		<tag k="place" v="farm" />
		<tag k="ssr:stedsnr" v="86339" />
	</node>
	<node id="-28137" lat="59.7379611136" lon="9.94558333022">
		<tag k="name" v="Stenshorne" />
		<tag k="place" v="farm" />
		<tag k="ssr:stedsnr" v="86324" />
	</node>
	<node id="-28135" lat="59.693477777" lon="9.76297777508">
		<tag k="name" v="Søndre Gulliksrud" />
		<tag k="place" v="farm" />
		<tag k="ssr:stedsnr" v="85590" />
	</node>
	<node id="-28133" lat="59.7010333344" lon="9.78123332885">
		<tag k="name" v="Dunserud" />
		<tag k="place" v="farm" />
		<tag k="ssr:stedsnr" v="85514" />
	</node>
	<node id="-28132" lat="59.7709805569" lon="9.95546388679">
		<tag k="building" v="industrial" />
		<tag k="industrial" v="factory" />
		<tag k="name" v="Isovator" />
		<tag k="ssr:stedsnr" v="83749" />
	</node>
	<node id="-28129" lat="59.883036107" lon="9.79571388275">
		<tag k="name" v="Stuvsrud" />
		<tag k="place" v="farm" />
		<tag k="ssr:stedsnr" v="65670" />
	</node>
	<node id="-28125" lat="59.7423972204" lon="9.95537221824">
		<tag k="name" v="Skjoldhorne" />
		<tag k="place" v="farm" />
		<tag k="ssr:stedsnr" v="64670" />
	</node>
	<node id="-28123" lat="59.7215120135" lon="9.84267267364">
		<tag k="name" v="Måsnes" />
		<tag k="place" v="hamlet" />
		<tag k="ssr:stedsnr" v="64641" />
	</node>
	<node id="-28122" lat="59.7219277793" lon="9.69743055497">
		<tag k="fixme" v="multiple name tags, choose one and add the other to alt_name" />
		<tag k="name" v="Andersplassen;Myrhagen" />
		<tag k="place" v="farm" />
		<tag k="ssr:stedsnr" v="64637" />
	</node>
	<node id="-28121" lat="59.6961444473" lon="9.68694999462">
		<tag k="name" v="Tiggerud" />
		<tag k="place" v="farm" />
		<tag k="ssr:stedsnr" v="64634" />
	</node>
	<node id="-28120" lat="59.6891174388" lon="9.8890004953">
		<tag k="name" v="Hamre" />
		<tag k="place" v="hamlet" />
		<tag k="ssr:stedsnr" v="64598" />
	</node>
	<node id="-28119" lat="59.692588891" lon="9.87870000496">
		<tag k="name" v="Brekke" />
		<tag k="place" v="farm" />
		<tag k="ssr:stedsnr" v="64597" />
	</node>
	<node id="-28118" lat="59.6939347773" lon="9.8391280035">
		<tag k="alt_name" v="Skarud" />
		<tag k="fixme" v="consider place=hamlet" />
		<tag k="name" v="Skarrud" />
		<tag k="place" v="farm" />
		<tag k="ssr:stedsnr" v="64593" />
	</node>
	<node id="-28113" lat="59.7031833297" lon="9.71005556271">
		<tag k="alt_name" v="Aspesetra" />
		<tag k="name" v="Aspeseter" />
		<tag k="place" v="farm" />
		<tag k="ssr:stedsnr" v="64630" />
	</node>
	<node id="-28112" lat="59.705408985" lon="9.78779892825">
		<tag k="fixme" v="consider place=hamlet" />
		<tag k="name" v="Kolsrud" />
		<tag k="place" v="farm" />
		<tag k="ssr:stedsnr" v="64614" />
	</node>
	<node id="-28110" lat="59.6745959446" lon="9.76702870442">
		<tag k="fixme" v="consider place=hamlet" />
		<tag k="name" v="Futerud" />
		<tag k="place" v="farm" />
		<tag k="ssr:stedsnr" v="63588" />
	</node>
	<node id="-28108" lat="59.6967649997" lon="9.80402995729">
		<tag k="fixme" v="consider place=hamlet" />
		<tag k="name" v="Fiskum" />
		<tag k="place" v="farm" />
		<tag k="ssr:stedsnr" v="60617" />
	</node>
	<node id="-28107" lat="59.727151771" lon="9.88373456741">
		<tag k="fixme" v="consider place=hamlet" />
		<tag k="name" v="Torberg" />
		<tag k="place" v="farm" />
		<tag k="ssr:stedsnr" v="63668" />
	</node>
	<node id="-28106" lat="59.7273744745" lon="9.79657179689">
		<tag k="name" v="Rogndalsbråtan" />
		<tag k="place" v="farm" />
		<tag k="ssr:stedsnr" v="63665" />
	</node>
	<node id="-28095" lat="59.8469250015" lon="9.78177500313">
		<tag k="alt_name" v="Ristvedtsetra" />
		<tag k="historic" v="shieling" />
		<tag k="name" v="Ristvetsetra" />
		<tag k="old_name" v="Ristvedtsetera" />
		<tag k="place" v="locality" />
		<tag k="ssr:stedsnr" v="28643" />
	</node>
	<node id="-28094" lat="59.6732638891" lon="9.85861110947">
		<tag k="name" v="Langemyrplassen" />
		<tag k="place" v="isolated_dwelling" />
		<tag k="ssr:stedsnr" v="27585" />
	</node>
	<node id="-28093" lat="59.6655666635" lon="9.81682777357">
		<tag k="name" v="Svennehaugen" />
		<tag k="place" v="isolated_dwelling" />
		<tag k="ssr:stedsnr" v="27573" />
	</node>
	<node id="-28090" lat="59.725555555" lon="9.82729444102">
		<tag k="name" v="Skjelbred" />
		<tag k="place" v="farm" />
		<tag k="ssr:stedsnr" v="27492" />
	</node>
	<node id="-28089" lat="59.6762388866" lon="9.70189722113">
		<tag k="name" v="Korsbakken" />
		<tag k="place" v="locality" />
		<tag k="ssr:stedsnr" v="26999" />
	</node>
	<node id="-28087" lat="59.7671333356" lon="9.89676666131">
		<tag k="name" v="Frydenlund" />
		<tag k="place" v="farm" />
		<tag k="ssr:stedsnr" v="26800" />
	</node>
	<node id="-28085" lat="59.7655305586" lon="9.90040000225">
		<tag k="amenity" v="nursing_home" />
		<tag k="name" v="Eikertun" />
		<tag k="ssr:stedsnr" v="26748" />
	</node>
	<node id="-28083" lat="59.6960138887" lon="9.78723610753">
		<tag k="name" v="Anfinnsplass" />
		<tag k="place" v="farm" />
		<tag k="ssr:stedsnr" v="26680" />
	</node>
	<node id="-28082" lat="59.7727833302" lon="9.86517500583">
		<tag k="name" v="Berg" />
		<tag k="place" v="farm" />
		<tag k="ssr:stedsnr" v="26673" />
	</node>
	<node id="-28074" lat="59.768355553" lon="9.89981388724">
		<tag k="name" v="Sundmoen næringsområde" />
		<tag k="place" v="quarter" />
		<tag k="ssr:stedsnr" v="26558" />
	</node>
	<node id="-28073" lat="59.8527027796" lon="9.84071111531">
		<tag k="name" v="Li" />
		<tag k="place" v="farm" />
		<tag k="ssr:stedsnr" v="25967" />
	</node>
	<node id="-28066" lat="59.7087249992" lon="9.7835944468">
		<tag k="name" v="Løkke" />
		<tag k="place" v="isolated_dwelling" />
		<tag k="ssr:stedsnr" v="25595" />
	</node>
	<node id="-28064" lat="59.8888083333" lon="9.74804443572">
		<tag k="name" v="Ødegård" />
		<tag k="place" v="isolated_dwelling" />
		<tag k="ssr:stedsnr" v="25474" />
	</node>
	<node id="-28063" lat="59.8873444488" lon="9.75791111387">
		<tag k="name" v="Humlehagen" />
		<tag k="place" v="farm" />
		<tag k="ssr:stedsnr" v="25471" />
	</node>
	<node id="-28062" lat="59.8883805597" lon="9.77049166599">
		<tag k="name" v="Nordsønju" />
		<tag k="place" v="farm" />
		<tag k="ssr:stedsnr" v="25464" />
	</node>
	<node id="-28061" lat="59.8004916637" lon="9.87736111036">
		<tag k="name" v="Furuheim" />
		<tag k="place" v="farm" />
		<tag k="ssr:stedsnr" v="25708" />
	</node>
	<node id="-28056" lat="59.7006722267" lon="9.80094166572">
		<tag k="amenity" v="school" />
		<tag k="name" v="Darbu" />
		<tag k="ssr:stedsnr" v="24553" />
	</node>
	<node id="-28053" lat="59.7022805577" lon="9.68006665994">
		<tag k="name" v="Lurstein" />
		<tag k="place" v="isolated_dwelling" />
		<tag k="ssr:stedsnr" v="23970" />
	</node>
	<node id="-28050" lat="59.8585638916" lon="9.91753055764">
		<tag k="name" v="Søndre Fjerdingstad" />
		<tag k="place" v="farm" />
		<tag k="ssr:stedsnr" v="4747" />
	</node>
	<node id="-28048" lat="59.8497291004" lon="9.91206401922">
		<tag k="name" v="Knive" />
		<tag k="place" v="hamlet" />
		<tag k="ssr:stedsnr" v="4737" />
	</node>
	<node id="-28046" lat="59.8370888847" lon="9.72343054805">
		<tag k="alt_name" v="Vestre Myresetra;Myresætra, vestre" />
		<tag k="historic" v="shieling" />
		<tag k="name" v="Myresetra" />
		<tag k="place" v="locality" />
		<tag k="ssr:stedsnr" v="4702" />
	</node>
	<node id="-28045" lat="59.8301083332" lon="9.90950556114">
		<tag k="name" v="Flata" />
		<tag k="place" v="farm" />
		<tag k="ssr:stedsnr" v="4691" />
	</node>
	<node id="-28044" lat="59.8932805591" lon="9.69094721918">
		<tag k="name" v="Sluten" />
		<tag k="place" v="farm" />
		<tag k="ssr:stedsnr" v="4660" />
	</node>
	<node id="-28042" lat="59.8627836442" lon="9.81829658105">
		<tag k="alt_name" v="Søndre Vestby" />
		<tag k="fixme" v="consider place=hamlet" />
		<tag k="name" v="Vestby" />
		<tag k="place" v="farm" />
		<tag k="ssr:stedsnr" v="4640" />
	</node>
	<node id="-28037" lat="59.7932166641" lon="9.74090277985">
		<tag k="historic" v="shieling" />
		<tag k="name" v="Dalesetra" />
		<tag k="place" v="locality" />
		<tag k="ssr:stedsnr" v="4512" />
	</node>
	<node id="-28033" lat="59.8512972262" lon="10.0190361135">
		<tag k="name" v="Sandungsvollen" />
		<tag k="place" v="isolated_dwelling" />
		<tag k="ssr:stedsnr" v="4251" />
	</node>
	<node id="-28031" lat="59.8991194426" lon="9.71898610439">
		<tag k="name" v="Enden" />
		<tag k="place" v="isolated_dwelling" />
		<tag k="ssr:stedsnr" v="3826" />
	</node>
	<node id="-28030" lat="59.7351583344" lon="9.88404166686">
		<tag k="name" v="Smørgrav" />
		<tag k="place" v="farm" />
		<tag k="ssr:stedsnr" v="3645" />
	</node>
	<node id="-28028" lat="59.7236222219" lon="9.67583333755">
		<tag k="name" v="Øvre Lurdalen" />
		<tag k="place" v="farm" />
		<tag k="ssr:stedsnr" v="3621" />
	</node>
	<node id="-28026" lat="59.6856555591" lon="9.73298610689">
		<tag k="alt_name" v="Smemoen" />
		<tag k="name" v="Smedmoen" />
		<tag k="place" v="farm" />
		<tag k="ssr:stedsnr" v="3548" />
	</node>
	<node id="-28023" lat="59.6684527785" lon="9.76193610679">
		<tag k="name" v="Nordre Muggerud" />
		<tag k="place" v="farm" />
		<tag k="ssr:stedsnr" v="3531" />
	</node>
	<node id="-28022" lat="59.7623916982" lon="9.87603257441">
		<tag k="name" v="Lilleås" />
		<tag k="place" v="hamlet" />
		<tag k="ssr:stedsnr" v="3527" />
	</node>
	<node id="-28020" lat="59.8154055541" lon="9.84921389411">
		<tag k="name" v="Myre" />
		<tag k="place" v="farm" />
		<tag k="ssr:stedsnr" v="3500" />
	</node>
	<node id="-28010" lat="59.8477583302" lon="9.8835666753">
		<tag k="amenity" v="nursing_home" />
		<tag k="name" v="Sanssouci" />
		<tag k="ssr:stedsnr" v="937632" />
	</node>
	<node id="-28009" lat="59.8322166655" lon="9.90863888588">
		<tag k="name" v="Bakken" />
		<tag k="place" v="isolated_dwelling" />
		<tag k="ssr:stedsnr" v="937614" />
	</node>
	<node id="-28008" lat="59.8362972188" lon="9.90844999697">
		<tag k="name" v="Midtre Dramdal" />
		<tag k="place" v="farm" />
		<tag k="ssr:stedsnr" v="937610" />
	</node>
	<node id="-28004" lat="59.6398083355" lon="9.92704166683">
		<tag k="name" v="Bogen" />
		<tag k="place" v="farm" />
		<tag k="ssr:stedsnr" v="913511" />
	</node>
	<node id="-27996" lat="59.8457861103" lon="9.85352221374">
		<tag k="name" v="Nordre Holte" />
		<tag k="place" v="farm" />
		<tag k="ssr:stedsnr" v="875644" />
	</node>
	<node id="-27992" lat="59.8205972239" lon="9.87815555567">
		<tag k="name" v="Solsbakk" />
		<tag k="place" v="isolated_dwelling" />
		<tag k="ssr:stedsnr" v="875607" />
	</node>
	<node id="-27991" lat="59.7492416658" lon="9.83596388581">
		<tag k="name" v="Halsbråten" />
		<tag k="place" v="farm" />
		<tag k="ssr:stedsnr" v="875055" />
	</node>
	<node id="-27990" lat="59.6918305575" lon="9.76249166033">
		<tag k="name" v="Nedre Teigen" />
		<tag k="place" v="farm" />
		<tag k="ssr:stedsnr" v="874668" />
	</node>
	<node id="-27989" lat="59.7517979003" lon="9.93370334836">
		<tag k="alt_name" v="Lo" />
		<tag k="fixme" v="consider place=hamlet" />
		<tag k="name" v="Østre Lo" />
		<tag k="place" v="farm" />
		<tag k="ssr:stedsnr" v="854578" />
	</node>
	<node id="-27988" lat="59.7559666665" lon="9.83517500176">
		<tag k="name" v="Skjølsplassen" />
		<tag k="place" v="locality" />
		<tag k="ssr:stedsnr" v="854571" />
	</node>
	<node id="-27986" lat="59.8674743592" lon="9.81469755436">
		<tag k="fixme" v="consider place=hamlet" />
		<tag k="name" v="Sørli" />
		<tag k="place" v="farm" />
		<tag k="ssr:stedsnr" v="854605" />
	</node>
	<node id="-27983" lat="59.7371027758" lon="9.69773610345">
		<tag k="alt_name" v="Dalsetra" />
		<tag k="name" v="Dalseter" />
		<tag k="place" v="farm" />
		<tag k="ssr:stedsnr" v="853659" />
	</node>
	<node id="-27982" lat="59.685916666" lon="9.94843332767">
		<tag k="alt_name" v="Nordre Østerudsetra" />
		<tag k="historic" v="shieling" />
		<tag k="name" v="Nordre Østerudseter" />
		<tag k="place" v="locality" />
		<tag k="ssr:stedsnr" v="853568" />
	</node>
	<node id="-27981" lat="59.6833277814" lon="9.73064166671">
		<tag k="fixme" v="multiple name tags, choose one and add the other to alt_name" />
		<tag k="name" v="Mobekken;Svendsrud" />
		<tag k="place" v="farm" />
		<tag k="ssr:stedsnr" v="853567" />
	</node>
	<node id="-27980" lat="59.6807228577" lon="9.79078433192">
		<tag k="name" v="Stavlum" />
		<tag k="place" v="hamlet" />
		<tag k="ssr:stedsnr" v="853558" />
	</node>
	<node id="-27979" lat="59.7579805519" lon="9.81074999729">
		<tag k="alt_name" v="Eiker kobberverk" />
		<tag k="building" v="industrial" />
		<tag k="industrial" v="factory" />
		<tag k="name" v="Eiker kopperverk" />
		<tag k="ssr:stedsnr" v="853556" />
	</node>
	<node id="-27976" lat="59.7410820385" lon="9.85806486956">
		<tag k="name" v="Hals" />
		<tag k="place" v="hamlet" />
		<tag k="ssr:stedsnr" v="852660" />
	</node>
	<node id="-27963" lat="59.6833888915" lon="9.78425000119">
		<tag k="name" v="Rustan" />
		<tag k="place" v="farm" />
		<tag k="ssr:stedsnr" v="937743" />
	</node>
	<node id="-27962" lat="59.8274611104" lon="9.81438056086">
		<tag k="name" v="Salshytta" />
		<tag k="place" v="isolated_dwelling" />
		<tag k="ssr:stedsnr" v="937722" />
	</node>
	<node id="-27960" lat="59.7324888904" lon="9.84076389748">
		<tag k="name" v="Nedre Skarra" />
		<tag k="place" v="farm" />
		<tag k="ssr:stedsnr" v="937343" />
	</node>
	<node id="-27959" lat="59.8513000014" lon="9.86497777107">
		<tag k="name" v="Hære" />
		<tag k="place" v="farm" />
		<tag k="ssr:stedsnr" v="937083" />
	</node>
	<node id="-27958" lat="59.8771138911" lon="9.91714721751">
		<tag k="name" v="Gata" />
		<tag k="place" v="isolated_dwelling" />
		<tag k="ssr:stedsnr" v="937079" />
	</node>
	<node id="-27953" lat="59.8008972224" lon="9.87480277577">
		<tag k="name" v="Fagerholt" />
		<tag k="place" v="farm" />
		<tag k="ssr:stedsnr" v="936693" />
	</node>
	<node id="-27947" lat="59.8401972239" lon="9.95659999655">
		<tag k="name" v="Huskestua" />
		<tag k="place" v="isolated_dwelling" />
		<tag k="ssr:stedsnr" v="936593" />
	</node>
	<node id="-27940" lat="59.8817166645" lon="9.7726472157">
		<tag k="name" v="Øvre Håre" />
		<tag k="place" v="farm" />
		<tag k="ssr:stedsnr" v="936482" />
	</node>
	<node id="-27939" lat="59.8612722257" lon="9.84017777814">
		<tag k="name" v="Borge" />
		<tag k="place" v="farm" />
		<tag k="ssr:stedsnr" v="935979" />
	</node>
	<node id="-27936" lat="59.7526147478" lon="9.94893879779">
		<tag k="fixme" v="consider place=hamlet" />
		<tag k="name" v="Låtan" />
		<tag k="place" v="farm" />
		<tag k="ssr:stedsnr" v="933745" />
	</node>
	<node id="-27934" lat="59.6850944464" lon="9.90624166984">
		<tag k="name" v="Østerud" />
		<tag k="place" v="farm" />
		<tag k="ssr:stedsnr" v="817704" />
	</node>
	<node id="-27931" lat="59.697480554" lon="9.79793888348">
		<tag k="amenity" v="sports_centre" />
		<tag k="name" v="Skytterhallen" />
		<tag k="ssr:stedsnr" v="815680" />
	</node>
	<node id="-27928" lat="59.7319039052" lon="9.88137172189">
		<tag k="fixme" v="consider place=hamlet" />
		<tag k="name" v="Arneberg" />
		<tag k="place" v="farm" />
		<tag k="ssr:stedsnr" v="815264" />
	</node>
	<node id="-27924" lat="59.8604999982" lon="9.84723055651">
		<tag k="name" v="Furuvollen" />
		<tag k="place" v="farm" />
		<tag k="ssr:stedsnr" v="814973" />
	</node>
	<node id="-27923" lat="59.8361611135" lon="9.86167499547">
		<tag k="name" v="Rakkestad" />
		<tag k="place" v="farm" />
		<tag k="ssr:stedsnr" v="814665" />
	</node>
	<node id="-27922" lat="59.8419416701" lon="9.84646389104">
		<tag k="name" v="Vestheim" />
		<tag k="place" v="farm" />
		<tag k="ssr:stedsnr" v="793762" />
	</node>
	<node id="-27920" lat="59.6985666706" lon="9.68099166526">
		<tag k="alt_name" v="Langåsen" />
		<tag k="name" v="Langås" />
		<tag k="place" v="farm" />
		<tag k="ssr:stedsnr" v="792612" />
	</node>
	<node id="-27919" lat="59.768333334" lon="9.88585277398">
		<tag k="name" v="Solstad" />
		<tag k="place" v="farm" />
		<tag k="ssr:stedsnr" v="792605" />
	</node>
	<node id="-27918" lat="59.6882129322" lon="9.83125698066">
		<tag k="fixme" v="consider place=hamlet" />
		<tag k="name" v="Kolkinn" />
		<tag k="place" v="farm" />
		<tag k="ssr:stedsnr" v="792577" />
	</node>
	<node id="-27917" lat="59.6850472187" lon="9.73352222194">
		<tag k="name" v="Kofstadmoen" />
		<tag k="place" v="farm" />
		<tag k="ssr:stedsnr" v="792570" />
	</node>
	<node id="-27916" lat="59.6848722211" lon="9.76451944894">
		<tag k="name" v="Nordre Skraperud" />
		<tag k="place" v="farm" />
		<tag k="ssr:stedsnr" v="792564" />
	</node>
	<node id="-27913" lat="59.7518277791" lon="9.83477499549">
		<tag k="name" v="Bergsplassen" />
		<tag k="place" v="farm" />
		<tag k="ssr:stedsnr" v="792555" />
	</node>
	<node id="-27911" lat="59.8202222237" lon="9.91192777366">
		<tag k="name" v="Olberg" />
		<tag k="place" v="farm" />
		<tag k="ssr:stedsnr" v="792524" />
	</node>
	<node id="-27908" lat="59.6610213657" lon="9.76219775068">
		<tag k="fixme" v="consider place=hamlet" />
		<tag k="name" v="Vego" />
		<tag k="place" v="farm" />
		<tag k="ssr:stedsnr" v="791557" />
	</node>
	<node id="-27906" lat="59.6687416698" lon="9.87672776913">
		<tag k="name" v="Søndre Gunhildrud" />
		<tag k="place" v="farm" />
		<tag k="ssr:stedsnr" v="791553" />
	</node>
	<node id="-27900" lat="59.8531048723" lon="9.91894155586">
		<tag k="alt_name" v="Skardberg" />
		<tag k="fixme" v="consider place=hamlet" />
		<tag k="name" v="Skarberg" />
		<tag k="place" v="farm" />
		<tag k="ssr:stedsnr" v="914739" />
	</node>
	<node id="-27898" lat="59.8264762854" lon="9.859191465">
		<tag k="alt_name" v="Nes" />
		<tag k="fixme" v="consider place=hamlet" />
		<tag k="name" v="Neset" />
		<tag k="place" v="farm" />
		<tag k="ssr:stedsnr" v="914733" />
	</node>
	<node id="-27896" lat="59.8227111142" lon="9.89999444224">
		<tag k="name" v="Holt" />
		<tag k="place" v="farm" />
		<tag k="ssr:stedsnr" v="914720" />
	</node>
	<node id="-27894" lat="59.8406749998" lon="9.74064167355">
		<tag k="name" v="Holtesetra" />
		<tag k="place" v="locality" />
		<tag k="ssr:stedsnr" v="914712" />
	</node>
	<node id="-27893" lat="59.7401277755" lon="9.94514595087">
		<tag k="fixme" v="consider place=hamlet" />
		<tag k="name" v="Stenshorne" />
		<tag k="place" v="farm" />
		<tag k="ssr:stedsnr" v="914710" />
	</node>
	<node id="-27892" lat="59.8885361078" lon="9.74436389757">
		<tag k="name" v="Ødegården" />
		<tag k="place" v="farm" />
		<tag k="ssr:stedsnr" v="914681" />
	</node>
	<node id="-27891" lat="59.8628083331" lon="9.74138055582">
		<tag k="fixme" v="multiple name tags, choose one and add the other to alt_name" />
		<tag k="name" v="Myresetra;Myrestua" />
		<tag k="place" v="locality" />
		<tag k="ssr:stedsnr" v="914668" />
	</node>
	<node id="-27890" lat="59.8729044088" lon="9.81612530714">
		<tag k="fixme" v="consider place=hamlet" />
		<tag k="name" v="Jaren" />
		<tag k="place" v="farm" />
		<tag k="ssr:stedsnr" v="914644" />
	</node>
	<node id="-27888" lat="59.7717722228" lon="9.85771945179">
		<tag k="name" v="Røren" />
		<tag k="place" v="farm" />
		<tag k="ssr:stedsnr" v="914632" />
	</node>
	<node id="-27887" lat="59.7846169388" lon="9.83146529127">
		<tag k="fixme" v="consider place=hamlet" />
		<tag k="name" v="Humlebekk" />
		<tag k="place" v="farm" />
		<tag k="ssr:stedsnr" v="914619" />
	</node>
	<node id="-27885" lat="59.6801805562" lon="9.77866388482">
		<tag k="name" v="Rustan" />
		<tag k="place" v="farm" />
		<tag k="ssr:stedsnr" v="914605" />
	</node>
	<node id="-27884" lat="59.7526980488" lon="9.94411550417">
		<tag k="fixme" v="consider place=hamlet" />
		<tag k="name" v="Busland" />
		<tag k="place" v="farm" />
		<tag k="ssr:stedsnr" v="914602" />
	</node>
	<node id="-27883" lat="59.750091667" lon="9.88343611739">
		<tag k="name" v="Sem" />
		<tag k="place" v="farm" />
		<tag k="ssr:stedsnr" v="914597" />
	</node>
	<node id="-27881" lat="59.8096194409" lon="9.72852222504">
		<tag k="historic" v="shieling" />
		<tag k="name" v="Honsetra" />
		<tag k="place" v="locality" />
		<tag k="ssr:stedsnr" v="914566" />
	</node>
	<node id="-27880" lat="59.8076861086" lon="9.75085833819">
		<tag k="historic" v="shieling" />
		<tag k="name" v="Bermingrudsetra" />
		<tag k="place" v="locality" />
		<tag k="ssr:stedsnr" v="914562" />
	</node>
	<node id="-27875" lat="59.8030749966" lon="9.97764166075">
		<tag k="alt_name" v="Åsli" />
		<tag k="name" v="Åsly" />
		<tag k="place" v="isolated_dwelling" />
		<tag k="ssr:stedsnr" v="914253" />
	</node>
	<node id="-27874" lat="59.6310019189" lon="9.94267983763">
		<tag k="name" v="Hakavik" />
		<tag k="place" v="farm" />
		<tag k="ssr:stedsnr" v="768134" />
	</node>
	<node id="-27873" lat="59.7167188258" lon="9.81965039707">
		<tag k="fixme" v="consider place=hamlet" />
		<tag k="name" v="Hegstad" />
		<tag k="place" v="farm" />
		<tag k="ssr:stedsnr" v="914008" />
	</node>
	<node id="-27872" lat="59.6833138877" lon="9.79525277587">
		<tag k="name" v="Klunderud" />
		<tag k="place" v="farm" />
		<tag k="ssr:stedsnr" v="914004" />
	</node>
	<node id="-27871" lat="59.7260566867" lon="9.87947117354">
		<tag k="fixme" v="consider place=hamlet" />
		<tag k="name" v="Besseberg" />
		<tag k="place" v="farm" />
		<tag k="ssr:stedsnr" v="913638" />
	</node>
	<node id="-27870" lat="59.7106000024" lon="9.67595832734">
		<tag k="name" v="Nordre Snaret" />
		<tag k="place" v="farm" />
		<tag k="ssr:stedsnr" v="913625" />
	</node>
	<node id="-27867" lat="59.7049277741" lon="9.70280000667">
		<tag k="name" v="Finnerud" />
		<tag k="place" v="farm" />
		<tag k="ssr:stedsnr" v="913600" />
	</node>
	<node id="-27864" lat="59.6665416677" lon="9.75722500499">
		<tag k="name" v="Søndre Muggerud" />
		<tag k="place" v="farm" />
		<tag k="ssr:stedsnr" v="913548" />
	</node>
	<node id="-27863" lat="59.6309638896" lon="9.94271944968">
		<tag k="name" v="Nedre Hakavik" />
		<tag k="place" v="farm" />
		<tag k="ssr:stedsnr" v="913495" />
	</node>
	<node id="-27855" lat="59.7783805515" lon="9.77060000663">
		<tag k="fixme" v="multiple name tags, choose one and add the other to alt_name" />
		<tag k="historic" v="shieling" />
		<tag k="name" v="Lortholsetra;Lortsetra" />
		<tag k="place" v="locality" />
		<tag k="ssr:stedsnr" v="732628" />
	</node>
	<node id="-27853" lat="59.7764444485" lon="9.89646943954">
		<tag k="name" v="Nedre Hoen" />
		<tag k="place" v="farm" />
		<tag k="ssr:stedsnr" v="890143" />
	</node>
	<node id="-27850" lat="59.7757138853" lon="9.88781388312">
		<tag k="name" v="Øvre Hoen" />
		<tag k="place" v="farm" />
		<tag k="ssr:stedsnr" v="694865" />
	</node>
	<node id="-27849" lat="59.7893722222" lon="9.86513888779">
		<tag k="name" v="Varlo" />
		<tag k="place" v="farm" />
		<tag k="ssr:stedsnr" v="694720" />
	</node>
	<node id="-27847" lat="59.7550111071" lon="9.8476416619">
		<tag k="name" v="Kjerkås" />
		<tag k="place" v="isolated_dwelling" />
		<tag k="ssr:stedsnr" v="694004" />
	</node>
	<node id="-27846" lat="59.7716138861" lon="9.86176944713">
		<tag k="name" v="Røren" />
		<tag k="place" v="farm" />
		<tag k="ssr:stedsnr" v="693969" />
	</node>
	<node id="-27845" lat="59.7771611139" lon="9.84959166835">
		<tag k="name" v="Hotvet" />
		<tag k="place" v="farm" />
		<tag k="ssr:stedsnr" v="693958" />
	</node>
	<node id="-27833" lat="59.6861500008" lon="9.84198055136">
		<tag k="name" v="Bollerud" />
		<tag k="place" v="farm" />
		<tag k="ssr:stedsnr" v="878549" />
	</node>
	<node id="-27832" lat="59.7112472239" lon="9.81399444115">
		<tag k="name" v="Fougner" />
		<tag k="place" v="farm" />
		<tag k="ssr:stedsnr" v="878546" />
	</node>
	<node id="-27831" lat="59.6710472189" lon="9.86583889282">
		<tag k="name" v="Gunhildrudplassen" />
		<tag k="place" v="isolated_dwelling" />
		<tag k="ssr:stedsnr" v="877597" />
	</node>
	<node id="-27829" lat="59.8222472195" lon="9.76899444911">
		<tag k="name" v="Warloffhytta" />
		<tag k="place" v="isolated_dwelling" />
		<tag k="ssr:stedsnr" v="877558" />
	</node>
	<node id="-27818" lat="59.6817916625" lon="9.9360750043">
		<tag k="name" v="Huldrebu" />
		<tag k="place" v="isolated_dwelling" />
		<tag k="ssr:stedsnr" v="877178" />
	</node>
	<node id="-27814" lat="59.7802027803" lon="9.91558333706">
		<tag k="name" v="Søndre Hobbelstad" />
		<tag k="place" v="farm" />
		<tag k="ssr:stedsnr" v="876802" />
	</node>
	<node id="-27813" lat="59.8150250034" lon="9.90575834055">
		<tag k="name" v="Skar" />
		<tag k="place" v="farm" />
		<tag k="ssr:stedsnr" v="876772" />
	</node>
	<node id="-27809" lat="59.8382555553" lon="9.86734444039">
		<tag k="name" v="Spiten" />
		<tag k="place" v="isolated_dwelling" />
		<tag k="ssr:stedsnr" v="876616" />
	</node>
	<node id="-27808" lat="59.8490611146" lon="9.87955555267">
		<tag k="amenity" v="school" />
		<tag k="name" v="Skotselv skole" />
		<tag k="ssr:stedsnr" v="876612" />
	</node>
	<node id="-27806" lat="59.7356694473" lon="9.84674166213">
		<tag k="name" v="Kolberg" />
		<tag k="place" v="farm" />
		<tag k="ssr:stedsnr" v="876309" />
	</node>
	<node id="-27805" lat="59.7342388916" lon="9.84608611985">
		<tag k="name" v="Nordre Skarra" />
		<tag k="place" v="farm" />
		<tag k="ssr:stedsnr" v="876306" />
	</node>
	<node id="-27799" lat="59.8438888846" lon="9.9136138849">
		<tag k="alt_name" v="Knive" />
		<tag k="name" v="Øvre Knive" />
		<tag k="place" v="farm" />
		<tag k="ssr:stedsnr" v="732744" />
	</node>
	<node id="-27794" lat="59.838882194" lon="9.91772388574">
		<tag k="fixme" v="consider place=hamlet" />
		<tag k="name" v="Horsrud" />
		<tag k="place" v="farm" />
		<tag k="ssr:stedsnr" v="732706" />
	</node>
	<node id="-27792" lat="59.8550004056" lon="9.91043236635">
		<tag k="name" v="Leversby" />
		<tag k="place" v="hamlet" />
		<tag k="ssr:stedsnr" v="732669" />
	</node>
	<node id="-27791" lat="59.8626164034" lon="9.83155134361">
		<tag k="alt_name" v="Ristvedt" />
		<tag k="fixme" v="consider place=hamlet" />
		<tag k="name" v="Ristvet" />
		<tag k="place" v="farm" />
		<tag k="ssr:stedsnr" v="732668" />
	</node>
	<node id="-27790" lat="59.7604499988" lon="9.78611110872">
		<tag k="name" v="Bergsetervollen" />
		<tag k="place" v="locality" />
		<tag k="ssr:stedsnr" v="732601" />
	</node>
	<node id="-27787" lat="59.8551972208" lon="9.9699916713">
		<tag k="historic" v="shieling" />
		<tag k="name" v="Knivesetra" />
		<tag k="place" v="locality" />
		<tag k="ssr:stedsnr" v="732278" />
	</node>
	<node id="-27783" lat="59.6926638887" lon="9.7970083257">
		<tag k="name" v="Rud" />
		<tag k="place" v="farm" />
		<tag k="ssr:stedsnr" v="732001" />
	</node>
	<node id="-27781" lat="59.7459277746" lon="9.92961665935">
		<tag k="name" v="Smedsrud" />
		<tag k="place" v="farm" />
		<tag k="ssr:stedsnr" v="731669" />
	</node>
	<node id="-27780" lat="59.7486568699" lon="9.87878242688">
		<tag k="fixme" v="consider place=hamlet" />
		<tag k="name" v="Berg" />
		<tag k="place" v="farm" />
		<tag k="ssr:stedsnr" v="731654" />
	</node>
	<node id="-27778" lat="59.708583337" lon="9.85272777759">
		<tag k="fixme" v="multiple name tags, choose one and add the other to alt_name" />
		<tag k="name" v="Grinda;Sand" />
		<tag k="place" v="farm" />
		<tag k="ssr:stedsnr" v="731576" />
	</node>
	<node id="-27777" lat="59.7077937843" lon="9.80865374455">
		<tag k="name" v="Rud" />
		<tag k="place" v="hamlet" />
		<tag k="ssr:stedsnr" v="731575" />
	</node>
	<node id="-27776" lat="59.6965033089" lon="9.80307796237">
		<tag k="name" v="Fiskum" />
		<tag k="place" v="farm" />
		<tag k="ssr:stedsnr" v="731574" />
	</node>
	<node id="-27775" lat="59.6892160212" lon="9.79572314715">
		<tag k="name" v="Rud" />
		<tag k="place" v="hamlet" />
		<tag k="ssr:stedsnr" v="731557" />
	</node>
	<node id="-27774" lat="59.6885888906" lon="9.74143888044">
		<tag k="name" v="Skogen" />
		<tag k="place" v="farm" />
		<tag k="ssr:stedsnr" v="731555" />
	</node>
	<node id="-27773" lat="59.6925249966" lon="9.91771110324">
		<tag k="alt_name" v="Enga" />
		<tag k="name" v="Engasetra" />
		<tag k="place" v="locality" />
		<tag k="ssr:stedsnr" v="731552" />
	</node>
	<node id="-27772" lat="59.6924027757" lon="9.84700277179">
		<tag k="fixme" v="multiple name tags, choose one and add the other to alt_name" />
		<tag k="name" v="Løkka;Tangen" />
		<tag k="place" v="farm" />
		<tag k="ssr:stedsnr" v="731551" />
	</node>
	<node id="-27771" lat="59.6764218329" lon="9.74223017175">
		<tag k="historic" v="shieling" />
		<tag k="name" v="Jøranrud" />
		<tag k="place" v="locality" />
		<tag k="ssr:stedsnr" v="731533" />
	</node>
	<node id="-27770" lat="59.6559888863" lon="9.91137221599">
		<tag k="name" v="Grimnes" />
		<tag k="place" v="farm" />
		<tag k="ssr:stedsnr" v="731516" />
	</node>
	<node id="-27769" lat="59.6541111102" lon="9.8729916717">
		<tag k="name" v="Knattheim" />
		<tag k="place" v="isolated_dwelling" />
		<tag k="ssr:stedsnr" v="731515" />
	</node>
	<node id="-27762" lat="59.7708277816" lon="9.85703610964">
		<tag k="name" v="Solstad" />
		<tag k="place" v="farm" />
		<tag k="ssr:stedsnr" v="632959" />
	</node>
	<node id="-27759" lat="59.6207944467" lon="9.89224444598">
		<tag k="name" v="Buttingen" />
		<tag k="place" v="isolated_dwelling" />
		<tag k="ssr:stedsnr" v="630874" />
	</node>
	<node id="-27754" lat="59.7498689499" lon="9.91427767133">
		<tag k="fixme" v="consider place=hamlet" />
		<tag k="name" v="Åker" />
		<tag k="place" v="farm" />
		<tag k="ssr:stedsnr" v="611505" />
	</node>
	<node id="-27751" lat="59.683266663" lon="9.71347221372">
		<tag k="name" v="Dokka" />
		<tag k="place" v="farm" />
		<tag k="ssr:stedsnr" v="610621" />
	</node>
	<node id="-27750" lat="59.6814444457" lon="9.76253333891">
		<tag k="name" v="Søndre Skraperud" />
		<tag k="place" v="farm" />
		<tag k="ssr:stedsnr" v="610620" />
	</node>
	<node id="-27749" lat="59.7533737521" lon="9.92897005421">
		<tag k="name" v="Lo" />
		<tag k="place" v="hamlet" />
		<tag k="ssr:stedsnr" v="610618" />
	</node>
	<node id="-27748" lat="59.7603223888" lon="9.84273153524">
		<tag k="fixme" v="consider place=hamlet" />
		<tag k="name" v="Ødegården" />
		<tag k="place" v="farm" />
		<tag k="ssr:stedsnr" v="610602" />
	</node>
	<node id="-27747" lat="59.6278583346" lon="9.93850000136">
		<tag k="name" v="Øvre Hakavik" />
		<tag k="place" v="farm" />
		<tag k="ssr:stedsnr" v="610570" />
	</node>
	<node id="-27745" lat="59.7904972178" lon="9.86267222091">
		<tag k="alt_name" v="Varlo" />
		<tag k="name" v="Nordre Varlo" />
		<tag k="place" v="farm" />
		<tag k="ssr:stedsnr" v="610564" />
	</node>
	<node id="-27744" lat="59.7993171259" lon="9.91529727421">
		<tag k="fixme" v="consider place=hamlet" />
		<tag k="name" v="Skibrekk" />
		<tag k="place" v="farm" />
		<tag k="ssr:stedsnr" v="610550" />
	</node>
	<node id="-27743" lat="59.7985555515" lon="9.7729222288">
		<tag k="historic" v="shieling" />
		<tag k="name" v="Humlebekksetra" />
		<tag k="place" v="locality" />
		<tag k="ssr:stedsnr" v="610546" />
	</node>
	<node id="-27733" lat="59.7430555515" lon="9.87231943677">
		<tag k="name" v="Spæren" />
		<tag k="place" v="farm" />
		<tag k="ssr:stedsnr" v="571253" />
	</node>
	<node id="-27732" lat="59.734213886" lon="9.96483888449">
		<tag k="name" v="Kleiva" />
		<tag k="place" v="isolated_dwelling" />
		<tag k="ssr:stedsnr" v="571343" />
	</node>
	<node id="-27730" lat="59.7592277753" lon="9.90149722954">
		<tag k="leisure" v="pitch" />
		<tag k="name" v="Øvre Eiker stadion" />
		<tag k="ssr:stedsnr" v="571066" />
	</node>
	<node id="-27729" lat="59.6782388871" lon="9.78592222093">
		<tag k="name" v="Stavlum" />
		<tag k="place" v="farm" />
		<tag k="ssr:stedsnr" v="549002" />
	</node>
	<node id="-27727" lat="59.71933333" lon="9.87555277046">
		<tag k="name" v="Såsen" />
		<tag k="place" v="farm" />
		<tag k="ssr:stedsnr" v="696679" />
	</node>
	<node id="-27714" lat="59.7930027789" lon="9.85731665923">
		<tag k="name" v="Nordheim" />
		<tag k="place" v="farm" />
		<tag k="ssr:stedsnr" v="693928" />
	</node>
	<node id="-27712" lat="59.8241777778" lon="9.90626111577">
		<tag k="name" v="Suterud" />
		<tag k="place" v="farm" />
		<tag k="ssr:stedsnr" v="693639" />
	</node>
	<node id="-27706" lat="59.8812583321" lon="9.77378611165">
		<tag k="name" v="Nedre Håre" />
		<tag k="place" v="farm" />
		<tag k="ssr:stedsnr" v="693504" />
	</node>
	<node id="-27704" lat="59.7501555532" lon="9.86795833012">
		<tag k="name" v="Skjøl" />
		<tag k="place" v="farm" />
		<tag k="ssr:stedsnr" v="693135" />
	</node>
	<node id="-27699" lat="59.7499611154" lon="9.95071666492">
		<tag k="name" v="Skistad" />
		<tag k="place" v="farm" />
		<tag k="ssr:stedsnr" v="690754" />
	</node>
	<node id="-27698" lat="59.6956444446" lon="9.8770555537">
		<tag k="name" v="Brekke" />
		<tag k="place" v="farm" />
		<tag k="ssr:stedsnr" v="513696" />
	</node>
	<node id="-27696" lat="59.737672219" lon="9.83488333586">
		<tag k="name" v="Kolberg" />
		<tag k="place" v="farm" />
		<tag k="ssr:stedsnr" v="512465" />
	</node>
	<node id="-27695" lat="59.7230861076" lon="9.84003334177">
		<tag k="name" v="Måsnes" />
		<tag k="place" v="farm" />
		<tag k="ssr:stedsnr" v="512462" />
	</node>
	<node id="-27694" lat="59.8743916626" lon="9.91401666313">
		<tag k="name" v="Verp" />
		<tag k="place" v="farm" />
		<tag k="ssr:stedsnr" v="512061" />
	</node>
	<node id="-27693" lat="59.859386107" lon="9.8632333375">
		<tag k="name" v="Lobben" />
		<tag k="place" v="farm" />
		<tag k="ssr:stedsnr" v="512058" />
	</node>
	<node id="-27692" lat="59.7804611146" lon="9.83846666473">
		<tag k="name" v="Stuverud" />
		<tag k="place" v="farm" />
		<tag k="ssr:stedsnr" v="511894" />
	</node>
	<node id="-27691" lat="59.7577888867" lon="9.87005833308">
		<tag k="name" v="Ås" />
		<tag k="place" v="farm" />
		<tag k="ssr:stedsnr" v="511066" />
	</node>
	<node id="-27688" lat="59.686316669" lon="9.69275278101">
		<tag k="name" v="Bomplassen" />
		<tag k="place" v="farm" />
		<tag k="ssr:stedsnr" v="508882" />
	</node>
	<node id="-27687" lat="59.7704054464" lon="9.95124212145">
		<tag k="name" v="Horgen" />
		<tag k="place" v="hamlet" />
		<tag k="ssr:stedsnr" v="508744" />
	</node>
	<node id="-27682" lat="59.6316805532" lon="9.93352499841">
		<tag k="name" v="Holtungen" />
		<tag k="place" v="locality" />
		<tag k="ssr:stedsnr" v="488509" />
	</node>
	<node id="-27679" lat="59.834928881" lon="9.86481358336">
		<tag k="alt_name" v="Nedre Rakkestad" />
		<tag k="fixme" v="consider place=hamlet" />
		<tag k="name" v="Rakkestad" />
		<tag k="place" v="farm" />
		<tag k="ssr:stedsnr" v="671706" />
	</node>
	<node id="-27678" lat="59.7442166697" lon="9.92526388372">
		<tag k="name" v="Dalsrud" />
		<tag k="place" v="farm" />
		<tag k="ssr:stedsnr" v="671703" />
	</node>
	<node id="-27674" lat="59.8729450013" lon="9.89631946347">
		<tag k="name" v="Grøtåsen" />
		<tag k="place" v="farm" />
		<tag k="ssr:stedsnr" v="671660" />
	</node>
	<node id="-27673" lat="59.8609805585" lon="9.920241659">
		<tag k="name" v="Nordre Fjerdingstad" />
		<tag k="place" v="farm" />
		<tag k="ssr:stedsnr" v="671650" />
	</node>
	<node id="-27671" lat="59.8702166671" lon="9.74274167302">
		<tag k="name" v="Håresetra" />
		<tag k="place" v="locality" />
		<tag k="ssr:stedsnr" v="671634" />
	</node>
	<node id="-27670" lat="59.774962228" lon="9.92674926264">
		<tag k="fixme" v="consider place=hamlet" />
		<tag k="name" v="Sanden" />
		<tag k="place" v="farm" />
		<tag k="ssr:stedsnr" v="671626" />
	</node>
	<node id="-27669" lat="59.7732055582" lon="9.83850832899">
		<tag k="name" v="Breidablikk" />
		<tag k="place" v="farm" />
		<tag k="ssr:stedsnr" v="671620" />
	</node>
	<node id="-27668" lat="59.7696083347" lon="9.8517805579">
		<tag k="alt_name" v="Åsgard" />
		<tag k="amenity" v="nursing_home" />
		<tag k="name" v="Åsgård" />
		<tag k="ssr:stedsnr" v="671618" />
	</node>
	<node id="-27667" lat="59.6850666712" lon="9.75719722125">
		<tag k="name" v="Nordre Kofstad" />
		<tag k="place" v="farm" />
		<tag k="ssr:stedsnr" v="671590" />
	</node>
	<node id="-27665" lat="59.7540666664" lon="9.90777499808">
		<tag k="name" v="Åker" />
		<tag k="place" v="farm" />
		<tag k="ssr:stedsnr" v="671580" />
	</node>
	<node id="-27664" lat="59.756377782" lon="9.83171666322">
		<tag k="name" v="Ormåsen" />
		<tag k="place" v="quarter" />
		<tag k="ssr:stedsnr" v="671575" />
	</node>
	<node id="-27663" lat="59.7588361092" lon="9.87175278086">
		<tag k="name" v="Nordre Ås" />
		<tag k="place" v="farm" />
		<tag k="ssr:stedsnr" v="671561" />
	</node>
	<node id="-27662" lat="59.8184916631" lon="9.95321666026">
		<tag k="name" v="Geveltsetra" />
		<tag k="place" v="locality" />
		<tag k="ssr:stedsnr" v="671534" />
	</node>
	<node id="-27661" lat="59.7852233853" lon="9.87696822274">
		<tag k="name" v="Varlo" />
		<tag k="place" v="hamlet" />
		<tag k="ssr:stedsnr" v="671520" />
	</node>
	<node id="-27656" lat="59.7311553408" lon="9.92884352858">
		<tag k="name" v="Gantum" />
		<tag k="place" v="farm" />
		<tag k="ssr:stedsnr" v="670671" />
	</node>
	<node id="-27654" lat="59.7122861136" lon="9.69154443747">
		<tag k="name" v="Lauvlia" />
		<tag k="place" v="farm" />
		<tag k="ssr:stedsnr" v="670636" />
	</node>
	<node id="-27652" lat="59.7211313615" lon="9.84689678606">
		<tag k="fixme" v="consider place=hamlet" />
		<tag k="name" v="Flesaker" />
		<tag k="place" v="farm" />
		<tag k="ssr:stedsnr" v="670626" />
	</node>
	<node id="-27650" lat="59.7039444406" lon="9.85725278612">
		<tag k="name" v="Sand" />
		<tag k="place" v="farm" />
		<tag k="ssr:stedsnr" v="670608" />
	</node>
	<node id="-27649" lat="59.7068527747" lon="9.86174443987">
		<tag k="name" v="Sandsbakken" />
		<tag k="place" v="farm" />
		<tag k="ssr:stedsnr" v="670606" />
	</node>
	<node id="-27646" lat="59.6709383643" lon="9.77516046758">
		<tag k="alt_name" v="Kårtvedt" />
		<tag k="fixme" v="consider place=hamlet" />
		<tag k="name" v="Kårtvet" />
		<tag k="place" v="farm" />
		<tag k="ssr:stedsnr" v="670549" />
	</node>
	<node id="-27644" lat="59.6667305586" lon="9.81829165925">
		<tag k="historic" v="shieling" />
		<tag k="name" v="Råensetra" />
		<tag k="place" v="locality" />
		<tag k="ssr:stedsnr" v="670537" />
	</node>
	<node id="-27643" lat="59.6353083364" lon="9.93698610249">
		<tag k="name" v="Gislerud" />
		<tag k="place" v="farm" />
		<tag k="ssr:stedsnr" v="670502" />
	</node>
	<node id="-27641" lat="59.6847861127" lon="9.89456945145">
		<tag k="name" v="Hamre" />
		<tag k="place" v="farm" />
		<tag k="ssr:stedsnr" v="453720" />
	</node>
	<node id="-27637" lat="59.6910472234" lon="9.83750278637">
		<tag k="name" v="Bollerud" />
		<tag k="place" v="farm" />
		<tag k="ssr:stedsnr" v="453530" />
	</node>
	<node id="-27633" lat="59.7783944472" lon="9.91749721823">
		<tag k="amenity" v="nursing_home" />
		<tag k="name" v="Lerberg Behandlingssenter" />
		<tag k="ssr:stedsnr" v="451806" />
	</node>
	<node id="-27631" lat="59.8378861119" lon="9.95909721978">
		<tag k="name" v="Snaukollhytta" />
		<tag k="place" v="isolated_dwelling" />
		<tag k="ssr:stedsnr" v="451609" />
	</node>
	<node id="-27630" lat="59.6894305597" lon="9.80847777546">
		<tag k="name" v="Råen" />
		<tag k="place" v="farm" />
		<tag k="ssr:stedsnr" v="451723" />
	</node>
	<node id="-27627" lat="59.8123132616" lon="9.90168564897">
		<tag k="fixme" v="consider place=hamlet" />
		<tag k="name" v="Strømbu" />
		<tag k="place" v="farm" />
		<tag k="ssr:stedsnr" v="450643" />
	</node>
	<node id="-27625" lat="59.8662638878" lon="9.95491110502">
		<tag k="name" v="Kjellerhalsen" />
		<tag k="place" v="isolated_dwelling" />
		<tag k="ssr:stedsnr" v="450637" />
	</node>
	<node id="-27621" lat="59.7006472243" lon="9.79772777764">
		<tag k="building" v="industrial" />
		<tag k="name" v="Sag" />
		<tag k="ssr:stedsnr" v="449535" />
	</node>
	<node id="-27620" lat="59.8504369028" lon="9.86485295767">
		<tag k="fixme" v="consider place=hamlet" />
		<tag k="name" v="Hære" />
		<tag k="place" v="farm" />
		<tag k="ssr:stedsnr" v="429721" />
	</node>
	<node id="-27619" lat="59.8507700426" lon="9.84661397797">
		<tag k="fixme" v="consider place=hamlet" />
		<tag k="name" v="Li" />
		<tag k="place" v="farm" />
		<tag k="ssr:stedsnr" v="429720" />
	</node>
	<node id="-27616" lat="59.8588611128" lon="9.82236111161">
		<tag k="name" v="Slottet" />
		<tag k="place" v="farm" />
		<tag k="ssr:stedsnr" v="429623" />
	</node>
	<node id="-27615" lat="59.8730007139" lon="9.91317107938">
		<tag k="fixme" v="consider place=hamlet" />
		<tag k="name" v="Verp" />
		<tag k="place" v="farm" />
		<tag k="ssr:stedsnr" v="429616" />
	</node>
	<node id="-27614" lat="59.7199916677" lon="9.85908056026">
		<tag k="fixme" v="multiple name tags, choose one and add the other to alt_name" />
		<tag k="name" v="Foss;Petraborg" />
		<tag k="place" v="farm" />
		<tag k="ssr:stedsnr" v="428615" />
	</node>
	<node id="-27613" lat="59.7130416649" lon="9.90467499961">
		<tag k="alt_name" v="Svensrud" />
		<tag k="name" v="Søndre Svendsrud" />
		<tag k="place" v="isolated_dwelling" />
		<tag k="ssr:stedsnr" v="428611" />
	</node>
	<node id="-27611" lat="59.7098116019" lon="9.69555510703">
		<tag k="name" v="Haugen" />
		<tag k="place" v="farm" />
		<tag k="ssr:stedsnr" v="513846" />
	</node>
	<node id="-27604" lat="59.8721194487" lon="9.81816111795">
		<tag k="name" v="Jaren" />
		<tag k="place" v="farm" />
		<tag k="ssr:stedsnr" v="512968" />
	</node>
	<node id="-27599" lat="59.8418277754" lon="9.8854833309">
		<tag k="name" v="Pilterud" />
		<tag k="place" v="isolated_dwelling" />
		<tag k="ssr:stedsnr" v="512620" />
	</node>
	<node id="-27598" lat="59.846999999" lon="9.90288889252">
		<tag k="name" v="Løvstad" />
		<tag k="place" v="isolated_dwelling" />
		<tag k="ssr:stedsnr" v="512594" />
	</node>
	<node id="-27596" lat="59.7788166662" lon="9.86092500756">
		<tag k="name" v="Kolstad" />
		<tag k="place" v="farm" />
		<tag k="ssr:stedsnr" v="511966" />
	</node>
	<node id="-27583" lat="59.8241916701" lon="9.95493610668">
		<tag k="name" v="Brennstua" />
		<tag k="place" v="isolated_dwelling" />
		<tag k="ssr:stedsnr" v="511564" />
	</node>
	<node id="-27579" lat="59.8770720459" lon="9.71613260597">
		<tag k="name" v="Torstykket" />
		<tag k="place" v="isolated_dwelling" />
		<tag k="ssr:stedsnr" v="511378" />
	</node>
	<node id="-27577" lat="59.8890805534" lon="9.77300832804">
		<tag k="name" v="Torvaldsønju" />
		<tag k="place" v="farm" />
		<tag k="ssr:stedsnr" v="511465" />
	</node>
	<node id="-27574" lat="59.6582055599" lon="9.75772222338">
		<tag k="name" v="Vego" />
		<tag k="place" v="farm" />
		<tag k="ssr:stedsnr" v="509439" />
	</node>
	<node id="-27571" lat="59.6900444447" lon="9.81004167045">
		<tag k="name" v="Råen" />
		<tag k="place" v="farm" />
		<tag k="ssr:stedsnr" v="392570" />
	</node>
	<node id="-27569" lat="59.8154083323" lon="9.79043333357">
		<tag k="name" v="Midtstua" />
		<tag k="place" v="isolated_dwelling" />
		<tag k="ssr:stedsnr" v="391553" />
	</node>
	<node id="-27566" lat="59.7723305563" lon="9.86854999167">
		<tag k="name" v="Røren" />
		<tag k="place" v="farm" />
		<tag k="ssr:stedsnr" v="390672" />
	</node>
	<node id="-27562" lat="59.8363694406" lon="9.97962222372">
		<tag k="name" v="Trollstua" />
		<tag k="place" v="isolated_dwelling" />
		<tag k="ssr:stedsnr" v="389655" />
	</node>
	<node id="-27561" lat="59.8124472267" lon="9.97787221772">
		<tag k="name" v="Trollheim" />
		<tag k="place" v="isolated_dwelling" />
		<tag k="ssr:stedsnr" v="389514" />
	</node>
	<node id="-27560" lat="59.7571749978" lon="9.89174444055">
		<tag k="name" v="Sem" />
		<tag k="place" v="farm" />
		<tag k="ssr:stedsnr" v="389056" />
	</node>
	<node id="-27559" lat="59.7544527808" lon="9.86895278298">
		<tag k="name" v="Ås" />
		<tag k="place" v="farm" />
		<tag k="ssr:stedsnr" v="389053" />
	</node>
	<node id="-27556" lat="59.752719448" lon="9.83765832838">
		<tag k="name" v="Solberg" />
		<tag k="old_name" v="Hole" />
		<tag k="place" v="farm" />
		<tag k="ssr:stedsnr" v="361609" />
	</node>
	<node id="-27555" lat="59.8429361111" lon="9.87971666671">
		<tag k="name" v="Bakke" />
		<tag k="place" v="farm" />
		<tag k="ssr:stedsnr" v="490748" />
	</node>
	<node id="-27553" lat="59.7436053465" lon="9.95978799085">
		<tag k="name" v="Nesthorne" />
		<tag k="place" v="farm" />
		<tag k="ssr:stedsnr" v="489706" />
	</node>
	<node id="-27552" lat="59.7712671513" lon="9.84214191018">
		<tag k="fixme" v="consider place=hamlet" />
		<tag k="name" v="Haugset" />
		<tag k="place" v="farm" />
		<tag k="ssr:stedsnr" v="489649" />
	</node>
	<node id="-27550" lat="59.7800250015" lon="9.83531111359">
		<tag k="alt_name" v="Enga" />
		<tag k="name" v="Engen" />
		<tag k="place" v="farm" />
		<tag k="ssr:stedsnr" v="489633" />
	</node>
	<node id="-27549" lat="59.7849444482" lon="9.84400277579">
		<tag k="alt_name" v="Kåsa" />
		<tag k="name" v="Vestre Kåsa" />
		<tag k="place" v="farm" />
		<tag k="ssr:stedsnr" v="489632" />
	</node>
	<node id="-27548" lat="59.7505614348" lon="9.89837547911">
		<tag k="alt_name" v="Voldstad" />
		<tag k="fixme" v="consider place=hamlet" />
		<tag k="name" v="Vølstad" />
		<tag k="place" v="farm" />
		<tag k="ssr:stedsnr" v="489616" />
	</node>
	<node id="-27546" lat="59.8082805556" lon="9.95268055538">
		<tag k="alt_name" v="Ullernsetra" />
		<tag k="historic" v="shieling" />
		<tag k="name" v="Ullerensetra" />
		<tag k="place" v="locality" />
		<tag k="ssr:stedsnr" v="489583" />
	</node>
	<node id="-27541" lat="59.7916638895" lon="9.85035556138">
		<tag k="name" v="Søndre Solum" />
		<tag k="place" v="farm" />
		<tag k="ssr:stedsnr" v="489552" />
	</node>
	<node id="-27540" lat="59.7969444479" lon="9.85307499436">
		<tag k="name" v="Valstad" />
		<tag k="place" v="farm" />
		<tag k="ssr:stedsnr" v="489536" />
	</node>
	<node id="-27539" lat="59.7946734145" lon="9.91073659002">
		<tag k="fixme" v="consider place=hamlet" />
		<tag k="name" v="Gevelt" />
		<tag k="place" v="farm" />
		<tag k="ssr:stedsnr" v="489533" />
	</node>
	<node id="-27537" lat="59.8701472223" lon="9.99441388733">
		<tag k="alt_name" v="Gjellumsetra" />
		<tag k="historic" v="shieling" />
		<tag k="name" v="Jellumvollen" />
		<tag k="place" v="locality" />
		<tag k="ssr:stedsnr" v="489356" />
	</node>
	<node id="-27535" lat="59.6744444488" lon="9.7787861146">
		<tag k="alt_name" v="Kårtvedt" />
		<tag k="name" v="Kårtvet" />
		<tag k="place" v="farm" />
		<tag k="ssr:stedsnr" v="489014" />
	</node>
	<node id="-27534" lat="59.685041671" lon="9.84389166164">
		<tag k="name" v="Bollerud" />
		<tag k="place" v="farm" />
		<tag k="ssr:stedsnr" v="489005" />
	</node>
	<node id="-27533" lat="59.6933500027" lon="9.80714167108">
		<tag k="name" v="Fiskum" />
		<tag k="place" v="farm" />
		<tag k="ssr:stedsnr" v="489003" />
	</node>
	<node id="-27532" lat="59.7382416682" lon="9.96286111587">
		<tag k="alt_name" v="Horne" />
		<tag k="name" v="Søndre Horne" />
		<tag k="place" v="farm" />
		<tag k="ssr:stedsnr" v="488665" />
	</node>
	<node id="-27531" lat="59.7301694404" lon="9.9235611053">
		<tag k="name" v="Flesseberg" />
		<tag k="place" v="farm" />
		<tag k="ssr:stedsnr" v="488656" />
	</node>
	<node id="-27530" lat="59.730105555" lon="9.93126110997">
		<tag k="name" v="Svendsrud" />
		<tag k="place" v="farm" />
		<tag k="ssr:stedsnr" v="488637" />
	</node>
	<node id="-27528" lat="59.7012462794" lon="9.77040315313">
		<tag k="fixme" v="consider place=hamlet" />
		<tag k="name" v="Jøstansrud" />
		<tag k="place" v="farm" />
		<tag k="ssr:stedsnr" v="488612" />
	</node>
	<node id="-27527" lat="59.8441055595" lon="9.75789722201">
		<tag k="historic" v="shieling" />
		<tag k="name" v="Lisetra" />
		<tag k="place" v="locality" />
		<tag k="ssr:stedsnr" v="331631" />
	</node>
	<node id="-27524" lat="59.8426583314" lon="9.90763332601">
		<tag k="name" v="Jonsrud" />
		<tag k="place" v="farm" />
		<tag k="ssr:stedsnr" v="330608" />
	</node>
	<node id="-27523" lat="59.8319722226" lon="9.87431666458">
		<tag k="name" v="Moen" />
		<tag k="place" v="isolated_dwelling" />
		<tag k="ssr:stedsnr" v="330607" />
	</node>
	<node id="-27516" lat="59.7027916653" lon="9.85667777133">
		<tag k="name" v="Sand" />
		<tag k="place" v="farm" />
		<tag k="ssr:stedsnr" v="271357" />
	</node>
	<node id="-27510" lat="59.7680027749" lon="9.87515555396">
		<tag k="leisure" v="pitch" />
		<tag k="name" v="Eiker-Kvikk" />
		<tag k="ssr:stedsnr" v="269875" />
	</node>
	<node id="-27509" lat="59.769366665" lon="9.89786666316">
		<tag k="name" v="Sundmoen" />
		<tag k="place" v="quarter" />
		<tag k="ssr:stedsnr" v="269855" />
	</node>
	<node id="-27508" lat="59.7840000039" lon="9.90958055105">
		<tag k="name" v="Nordre Hobbelstad" />
		<tag k="place" v="farm" />
		<tag k="ssr:stedsnr" v="269817" />
	</node>
	<node id="-27506" lat="59.730747224" lon="9.84903889712">
		<tag k="name" v="Lunde" />
		<tag k="place" v="farm" />
		<tag k="ssr:stedsnr" v="269317" />
	</node>
	<node id="-27505" lat="59.751869441" lon="9.71378610304">
		<tag k="alt_name" v="Svendsplassen" />
		<tag k="name" v="Jensrud" />
		<tag k="place" v="locality" />
		<tag k="ssr:stedsnr" v="269411" />
	</node>
	<node id="-27503" lat="59.8520527804" lon="9.88001665917">
		<tag k="name" v="Bråtan" />
		<tag k="place" v="isolated_dwelling" />
		<tag k="ssr:stedsnr" v="269064" />
	</node>
	<node id="-27502" lat="59.7736000045" lon="9.83245278452">
		<tag k="name" v="Brakstadløkka" />
		<tag k="place" v="isolated_dwelling" />
		<tag k="ssr:stedsnr" v="268971" />
	</node>
	<node id="-27501" lat="59.7852388888" lon="9.85235277201">
		<tag k="name" v="Haukerud" />
		<tag k="place" v="isolated_dwelling" />
		<tag k="ssr:stedsnr" v="268969" />
	</node>
	<node id="-27499" lat="59.7287806437" lon="9.87841125529">
		<tag k="fixme" v="consider place=hamlet" />
		<tag k="name" v="Hedenstad" />
		<tag k="place" v="farm" />
		<tag k="ssr:stedsnr" v="268253" />
	</node>
	<node id="-27492" lat="59.7158686565" lon="9.69571897378">
		<tag k="name" v="Myra" />
		<tag k="place" v="farm" />
		<tag k="ssr:stedsnr" v="453833" />
	</node>
	<node id="-27491" lat="59.6841166686" lon="9.90216666198">
		<tag k="name" v="Østerud" />
		<tag k="place" v="farm" />
		<tag k="ssr:stedsnr" v="452699" />
	</node>
	<node id="-27489" lat="59.7149333288" lon="9.93734167536">
		<tag k="name" v="Lostua" />
		<tag k="place" v="isolated_dwelling" />
		<tag k="ssr:stedsnr" v="452046" />
	</node>
	<node id="-27486" lat="59.8623250024" lon="9.91493333823">
		<tag k="name" v="Munkeplassen" />
		<tag k="place" v="isolated_dwelling" />
		<tag k="ssr:stedsnr" v="451987" />
	</node>
	<node id="-27485" lat="59.8691444467" lon="9.8178138922">
		<tag k="name" v="Sørli" />
		<tag k="place" v="farm" />
		<tag k="ssr:stedsnr" v="451962" />
	</node>
	<node id="-27477" lat="59.7265333342" lon="9.8022583283">
		<tag k="name" v="Skjelbredplassen" />
		<tag k="place" v="isolated_dwelling" />
		<tag k="ssr:stedsnr" v="451133" />
	</node>
	<node id="-27476" lat="59.8558222231" lon="9.84139444254">
		<tag k="name" v="Nedre Borge" />
		<tag k="place" v="farm" />
		<tag k="ssr:stedsnr" v="450982" />
	</node>
	<node id="-27473" lat="59.7490611108" lon="9.8948638854">
		<tag k="name" v="Bryn" />
		<tag k="place" v="farm" />
		<tag k="ssr:stedsnr" v="451086" />
	</node>
	<node id="-27472" lat="59.7513977034" lon="9.89158375004">
		<tag k="fixme" v="consider place=hamlet" />
		<tag k="name" v="Bomenga" />
		<tag k="place" v="farm" />
		<tag k="ssr:stedsnr" v="451085" />
	</node>
	<node id="-27471" lat="59.7468222197" lon="9.8377361184">
		<tag k="name" v="Rolighet" />
		<tag k="place" v="isolated_dwelling" />
		<tag k="ssr:stedsnr" v="451078" />
	</node>
	<node id="-27470" lat="59.8562138902" lon="9.86570556207">
		<tag k="name" v="Lobben" />
		<tag k="place" v="farm" />
		<tag k="ssr:stedsnr" v="451070" />
	</node>
	<node id="-27466" lat="59.8114611088" lon="9.86738888654">
		<tag k="name" v="Jensvold" />
		<tag k="place" v="farm" />
		<tag k="ssr:stedsnr" v="450656" />
	</node>
	<node id="-27465" lat="59.8137888904" lon="9.88037500378">
		<tag k="building" v="industrial" />
		<tag k="name" v="Brekka sag" />
		<tag k="ssr:stedsnr" v="450655" />
	</node>
	<node id="-27464" lat="59.8224027794" lon="9.85898056222">
		<tag k="name" v="Harstad" />
		<tag k="place" v="farm" />
		<tag k="ssr:stedsnr" v="450652" />
	</node>
	<node id="-27463" lat="59.7366583353" lon="9.93901945239">
		<tag k="name" v="Steinsborg" />
		<tag k="place" v="farm" />
		<tag k="ssr:stedsnr" v="450294" />
	</node>
	<node id="-27461" lat="59.6351666696" lon="9.89073889523">
		<tag k="name" v="Øytjernstua" />
		<tag k="place" v="isolated_dwelling" />
		<tag k="ssr:stedsnr" v="449864" />
	</node>
	<node id="-27459" lat="59.7081055578" lon="9.8077750031">
		<tag k="name" v="Nordre Rud" />
		<tag k="place" v="farm" />
		<tag k="ssr:stedsnr" v="449580" />
	</node>
	<node id="-27458" lat="59.6962999958" lon="9.76355277721">
		<tag k="name" v="Øvre Gulliksrud" />
		<tag k="place" v="farm" />
		<tag k="ssr:stedsnr" v="449639" />
	</node>
	<node id="-27456" lat="59.7363499978" lon="9.85836111468">
		<tag k="alt_name" v="Fåsen" />
		<tag k="name" v="Øvre Fåsen" />
		<tag k="place" v="farm" />
		<tag k="ssr:stedsnr" v="245656" />
	</node>
	<node id="-27455" lat="59.6631750014" lon="9.74984444044">
		<tag k="name" v="Pinsle" />
		<tag k="place" v="farm" />
		<tag k="ssr:stedsnr" v="245552" />
	</node>
	<node id="-27452" lat="59.6886416681" lon="9.89237778303">
		<tag k="name" v="Hamre" />
		<tag k="place" v="farm" />
		<tag k="ssr:stedsnr" v="210713" />
	</node>
	<node id="-27443" lat="59.8522277815" lon="9.72388332768">
		<tag k="historic" v="shieling" />
		<tag k="name" v="Vestbysetra" />
		<tag k="place" v="locality" />
		<tag k="ssr:stedsnr" v="186757" />
	</node>
	<node id="-27439" lat="59.6857250037" lon="9.73433055767">
		<tag k="amenity" v="school" />
		<tag k="name" v="Skogen" />
		<tag k="ssr:stedsnr" v="148674" />
	</node>
	<node id="-27435" lat="59.7863777811" lon="9.82379723088">
		<tag k="name" v="Bermingrud" />
		<tag k="place" v="farm" />
		<tag k="ssr:stedsnr" v="147904" />
	</node>
	<node id="-27434" lat="59.7731194422" lon="9.90357777655">
		<tag k="amenity" v="school" />
		<tag k="name" v="Hokksund gymnas" />
		<tag k="ssr:stedsnr" v="147814" />
	</node>
	<node id="-27433" lat="59.8198805542" lon="9.89385833979">
		<tag k="name" v="Kåsa" />
		<tag k="place" v="isolated_dwelling" />
		<tag k="ssr:stedsnr" v="147614" />
	</node>
	<node id="-27432" lat="59.8516555528" lon="9.92264999925">
		<tag k="alt_name" v="Kolbjørnsrud Vestre" />
		<tag k="name" v="Vestre Kolbjørnsrud" />
		<tag k="place" v="farm" />
		<tag k="ssr:stedsnr" v="147613" />
	</node>
	<node id="-27424" lat="59.7186194428" lon="9.80928055909">
		<tag k="name" v="Skogstad" />
		<tag k="place" v="farm" />
		<tag k="ssr:stedsnr" v="271549" />
	</node>
	<node id="-27423" lat="59.7089388882" lon="9.80998889506">
		<tag k="name" v="Røed" />
		<tag k="place" v="farm" />
		<tag k="ssr:stedsnr" v="271546" />
	</node>
	<node id="-27419" lat="59.6921416697" lon="9.97583888881">
		<tag k="historic" v="shieling" />
		<tag k="name" v="Brynseter" />
		<tag k="place" v="locality" />
		<tag k="ssr:stedsnr" v="270199" />
	</node>
	<node id="-27416" lat="59.8589777739" lon="9.90637777661">
		<tag k="name" v="Nordre Leversby" />
		<tag k="place" v="farm" />
		<tag k="ssr:stedsnr" v="269997" />
	</node>
	<node id="-27413" lat="59.6815111115" lon="9.795344438">
		<tag k="name" v="Løvstad" />
		<tag k="place" v="farm" />
		<tag k="ssr:stedsnr" v="269730" />
	</node>
	<node id="-27412" lat="59.8132888862" lon="9.83841666782">
		<tag k="name" v="Jakthytta" />
		<tag k="place" v="isolated_dwelling" />
		<tag k="ssr:stedsnr" v="269691" />
	</node>
	<node id="-27403" lat="59.8879055548" lon="9.75603611836">
		<tag k="name" v="Hestebråten" />
		<tag k="place" v="farm" />
		<tag k="ssr:stedsnr" v="268488" />
	</node>
	<node id="-27401" lat="59.7403527757" lon="9.88746666894">
		<tag k="name" v="Vålen" />
		<tag k="place" v="farm" />
		<tag k="ssr:stedsnr" v="268249" />
	</node>
	<node id="-27400" lat="59.7490750008" lon="9.86478332549">
		<tag k="name" v="Berg" />
		<tag k="place" v="farm" />
		<tag k="ssr:stedsnr" v="268034" />
	</node>
	<node id="-27398" lat="59.6225333368" lon="9.91185554818">
		<tag k="historic" v="shieling" />
		<tag k="name" v="Blikktjernsetra" />
		<tag k="place" v="locality" />
		<tag k="ssr:stedsnr" v="267894" />
	</node>
	<node id="-27396" lat="59.6980805577" lon="9.79917499599">
		<tag k="name" v="Darbu" />
		<tag k="place" v="hamlet" />
		<tag k="ssr:stedsnr" v="267189" />
	</node>
	<node id="-27395" lat="59.6532611126" lon="9.98484445142">
		<tag k="loc_name" v="Hamborgplassen" />
		<tag k="name" v="Tryterudplassen" />
		<tag k="place" v="isolated_dwelling" />
		<tag k="ssr:stedsnr" v="267135" />
	</node>
	<node id="-27393" lat="59.7079749994" lon="9.68898611912">
		<tag k="historic" v="shieling" />
		<tag k="name" v="Knipen" />
		<tag k="place" v="locality" />
		<tag k="ssr:stedsnr" v="266951" />
	</node>
	<node id="-27392" lat="59.7771638904" lon="9.93167499958">
		<tag k="name" v="Nordre Haga" />
		<tag k="place" v="farm" />
		<tag k="ssr:stedsnr" v="265773" />
	</node>
	<node id="-27390" lat="59.8733349635" lon="9.81578231792">
		<tag k="name" v="Jaren" />
		<tag k="place" v="farm" />
		<tag k="ssr:stedsnr" v="100455" />
	</node>
	<node id="-27386" lat="59.8219472254" lon="9.91461667136">
		<tag k="name" v="Skar" />
		<tag k="place" v="farm" />
		<tag k="ssr:stedsnr" v="87715" />
	</node>
	<node id="-27385" lat="59.7765875989" lon="9.86221319378">
		<tag k="fixme" v="consider place=hamlet" />
		<tag k="name" v="Røren" />
		<tag k="place" v="farm" />
		<tag k="ssr:stedsnr" v="86978" />
	</node>
	<node id="-27383" lat="59.8634416707" lon="10.0219249999">
		<tag k="name" v="Elsebu" />
		<tag k="place" v="isolated_dwelling" />
		<tag k="ssr:stedsnr" v="86659" />
	</node>
	<node id="-27369" lat="59.7525299573" lon="9.86975281965">
		<tag k="fixme" v="consider place=hamlet" />
		<tag k="name" v="Skjøl" />
		<tag k="place" v="farm" />
		<tag k="ssr:stedsnr" v="247562" />
	</node>
	<node id="-27368" lat="59.7871611075" lon="9.89267222599">
		<tag k="name" v="Holmen" />
		<tag k="place" v="isolated_dwelling" />
		<tag k="ssr:stedsnr" v="247504" />
	</node>
	<node id="-27367" lat="59.7946805548" lon="9.83108054689">
		<tag k="name" v="Nordre Grøsland" />
		<tag k="place" v="farm" />
		<tag k="ssr:stedsnr" v="247489" />
	</node>
	<node id="-27364" lat="59.7964666704" lon="9.9005361184">
		<tag k="name" v="Midtre Langerud" />
		<tag k="place" v="farm" />
		<tag k="ssr:stedsnr" v="247485" />
	</node>
	<node id="-27363" lat="59.8671416663" lon="9.97712777747">
		<tag k="alt_name" v="Nygard" />
		<tag k="name" v="Nygård" />
		<tag k="place" v="isolated_dwelling" />
		<tag k="ssr:stedsnr" v="247329" />
	</node>
	<node id="-27360" lat="59.7465833337" lon="9.95797776957">
		<tag k="name" v="Hovland" />
		<tag k="place" v="farm" />
		<tag k="ssr:stedsnr" v="246663" />
	</node>
	<node id="-27359" lat="59.7435277774" lon="9.85011111906">
		<tag k="name" v="Hals" />
		<tag k="place" v="farm" />
		<tag k="ssr:stedsnr" v="246657" />
	</node>
	<node id="-27355" lat="59.7173722946" lon="9.87227196193">
		<tag k="name" v="Såsen" />
		<tag k="place" v="hamlet" />
		<tag k="ssr:stedsnr" v="246612" />
	</node>
	<node id="-27354" lat="59.7038231097" lon="9.70108296298">
		<tag k="name" v="Biring" />
		<tag k="place" v="farm" />
		<tag k="ssr:stedsnr" v="246605" />
	</node>
	<node id="-27352" lat="59.7720583377" lon="9.95253610777">
		<tag k="alt_name" v="Horgen" />
		<tag k="name" v="Nordre Horgen" />
		<tag k="place" v="farm" />
		<tag k="ssr:stedsnr" v="246585" />
	</node>
	<node id="-27351" lat="59.6925000025" lon="9.75452500581">
		<tag k="name" v="Bakken" />
		<tag k="place" v="farm" />
		<tag k="ssr:stedsnr" v="246573" />
	</node>
	<node id="-27350" lat="59.6936694486" lon="9.68306111731">
		<tag k="name" v="Spennillen" />
		<tag k="place" v="farm" />
		<tag k="ssr:stedsnr" v="246568" />
	</node>
	<node id="-27349" lat="59.776081616" lon="9.88883011552">
		<tag k="name" v="Hoen" />
		<tag k="place" v="hamlet" />
		<tag k="ssr:stedsnr" v="246558" />
	</node>
	<node id="-27347" lat="59.6579999992" lon="9.95669722534">
		<tag k="alt_name" v="Storekleiv" />
		<tag k="name" v="Storkleiv" />
		<tag k="place" v="isolated_dwelling" />
		<tag k="ssr:stedsnr" v="246529" />
	</node>
	<node id="-27344" lat="59.8125097362" lon="9.86414279268">
		<tag k="fixme" v="consider place=hamlet" />
		<tag k="name" v="Tronrud" />
		<tag k="place" v="farm" />
		<tag k="ssr:stedsnr" v="246514" />
	</node>
	<node id="-27342" lat="59.8152749999" lon="9.81701667391">
		<tag k="fixme" v="multiple name tags, choose one and add the other to alt_name" />
		<tag k="name" v="Myrespiten;Spiten" />
		<tag k="place" v="locality" />
		<tag k="ssr:stedsnr" v="246503" />
	</node>
	<node id="-27338" lat="59.7251833329" lon="9.86565000252">
		<tag k="name" v="Foss" />
		<tag k="place" v="farm" />
		<tag k="ssr:stedsnr" v="245646" />
	</node>
	<node id="-27337" lat="59.7281900713" lon="9.84713893891">
		<tag k="name" v="Lunde" />
		<tag k="place" v="hamlet" />
		<tag k="ssr:stedsnr" v="245643" />
	</node>
	<node id="-27335" lat="59.8619555578" lon="9.85511388007">
		<tag k="alt_name" v="Lobben" />
		<tag k="name" v="Øvre Lobben" />
		<tag k="place" v="farm" />
		<tag k="ssr:stedsnr" v="65621" />
	</node>
	<node id="-27334" lat="59.8450277774" lon="9.88405554949">
		<tag k="name" v="Skotselv" />
		<tag k="place" v="village" />
		<tag k="ssr:stedsnr" v="65728" />
	</node>
	<node id="-27332" lat="59.832927779" lon="9.7923861104">
		<tag k="historic" v="shieling" />
		<tag k="name" v="Rakkestadsetra" />
		<tag k="place" v="locality" />
		<tag k="ssr:stedsnr" v="65702" />
	</node>
	<node id="-27331" lat="59.7874916663" lon="9.75903611826">
		<tag k="name" v="Gorudvollen" />
		<tag k="place" v="farm" />
		<tag k="ssr:stedsnr" v="65510" />
	</node>
	<node id="-27330" lat="59.7401138912" lon="9.87275000548">
		<tag k="name" v="Spæren" />
		<tag k="place" v="farm" />
		<tag k="ssr:stedsnr" v="64704" />
	</node>
	<node id="-27329" lat="59.7466562934" lon="9.87245887651">
		<tag k="name" v="Spæren" />
		<tag k="place" v="hamlet" />
		<tag k="ssr:stedsnr" v="64702" />
	</node>
	<node id="-27327" lat="59.6873472236" lon="9.71408888113">
		<tag k="alt_name" v="Fiskeløs" />
		<tag k="name" v="Nedre Fiskeløs" />
		<tag k="place" v="farm" />
		<tag k="ssr:stedsnr" v="64604" />
	</node>
	<node id="-27324" lat="59.6760758912" lon="9.77424553241">
		<tag k="alt_name" v="Rustan" />
		<tag k="fixme" v="consider place=hamlet" />
		<tag k="name" v="Rustaden" />
		<tag k="place" v="farm" />
		<tag k="ssr:stedsnr" v="64005" />
	</node>
	<node id="-27318" lat="59.8082249972" lon="9.87219444002">
		<tag k="name" v="Hvitstein" />
		<tag k="place" v="farm" />
		<tag k="ssr:stedsnr" v="26719" />
	</node>
	<node id="-27317" lat="59.7341472226" lon="9.87458889211">
		<tag k="leisure" v="pitch" />
		<tag k="name" v="Vestfossen idrettspark" />
		<tag k="ssr:stedsnr" v="26301" />
	</node>
	<node id="-27316" lat="59.8049833305" lon="9.88458888841">
		<tag k="name" v="Flataker" />
		<tag k="place" v="farm" />
		<tag k="ssr:stedsnr" v="25702" />
	</node>
	<node id="-27315" lat="59.7359222251" lon="9.92447222356">
		<tag k="name" v="Vinsvold" />
		<tag k="place" v="farm" />
		<tag k="ssr:stedsnr" v="25330" />
	</node>
	<node id="-27313" lat="59.7500972217" lon="9.95344722846">
		<tag k="name" v="Berg" />
		<tag k="place" v="farm" />
		<tag k="ssr:stedsnr" v="23735" />
	</node>
	<node id="-27312" lat="59.8059653842" lon="9.87774190545">
		<tag k="fixme" v="consider place=hamlet" />
		<tag k="name" v="Hvitstein" />
		<tag k="old_name" v="Nordre Hvidsten" />
		<tag k="place" v="farm" />
		<tag k="ssr:stedsnr" v="4553" />
	</node>
	<node id="-27311" lat="59.8099267519" lon="9.90407042996">
		<tag k="fixme" v="consider place=hamlet" />
		<tag k="name" v="Kolbrekk" />
		<tag k="place" v="farm" />
		<tag k="ssr:stedsnr" v="4551" />
	</node>
	<node id="-27310" lat="59.8292940378" lon="9.89734267739">
		<tag k="fixme" v="consider place=hamlet" />
		<tag k="name" v="Ulleland" />
		<tag k="place" v="farm" />
		<tag k="ssr:stedsnr" v="3674" />
	</node>
	<node id="-27309" lat="59.7453719754" lon="9.89141008521">
		<tag k="fixme" v="consider place=hamlet" />
		<tag k="name" v="Sørby" />
		<tag k="place" v="farm" />
		<tag k="ssr:stedsnr" v="3671" />
	</node>
	<node id="-28865" lat="59.8348368266" lon="9.9133368455">
		<tag k="fixme" v="consider place=hamlet" />
		<tag k="name" v="Dramdal" />
		<tag k="place" v="farm" />
		<tag k="ssr:stedsnr" v="1072651" />
	</node>
	<node id="-28864" lat="59.8603154249" lon="9.91845348655">
		<tag k="fixme" v="consider place=hamlet" />
		<tag k="name" v="Fjerdingstad" />
		<tag k="place" v="farm" />
		<tag k="ssr:stedsnr" v="1072650" />
	</node>
	<node id="-28863" lat="59.8594176823" lon="9.85782173912">
		<tag k="name" v="Lobben" />
		<tag k="place" v="hamlet" />
		<tag k="ssr:stedsnr" v="1072649" />
	</node>
	<node id="-28862" lat="59.8642407493" lon="9.8500898583">
		<tag k="fixme" v="consider place=hamlet" />
		<tag k="name" v="Reiersrud" />
		<tag k="place" v="farm" />
		<tag k="ssr:stedsnr" v="1072648" />
	</node>
	<node id="-28861" lat="59.8880289709" lon="9.7802572699">
		<tag k="fixme" v="consider place=hamlet" />
		<tag k="name" v="Sønju" />
		<tag k="place" v="farm" />
		<tag k="ssr:stedsnr" v="1072647" />
	</node>
	<node id="-28860" lat="59.6666199464" lon="9.7591894759">
		<tag k="fixme" v="consider place=hamlet" />
		<tag k="name" v="Muggerud" />
		<tag k="place" v="farm" />
		<tag k="ssr:stedsnr" v="1072646" />
	</node>
	<node id="-28859" lat="59.6930077499" lon="9.76467724588">
		<tag k="name" v="Gulliksrud" />
		<tag k="place" v="hamlet" />
		<tag k="ssr:stedsnr" v="1072645" />
	</node>
	<node id="-28858" lat="59.6910070464" lon="9.76236371442">
		<tag k="fixme" v="consider place=hamlet" />
		<tag k="name" v="Teigen" />
		<tag k="place" v="farm" />
		<tag k="ssr:stedsnr" v="1072644" />
	</node>
	<node id="-28857" lat="59.6820140673" lon="9.76294651473">
		<tag k="fixme" v="consider place=hamlet" />
		<tag k="name" v="Skraperud" />
		<tag k="place" v="farm" />
		<tag k="ssr:stedsnr" v="1072643" />
	</node>
	<node id="-28856" lat="59.6821644535" lon="9.75572776533">
		<tag k="fixme" v="consider place=hamlet" />
		<tag k="name" v="Kofstad" />
		<tag k="place" v="farm" />
		<tag k="ssr:stedsnr" v="1072642" />
	</node>
	<node id="-28855" lat="59.6723625011" lon="9.87311097205">
		<tag k="name" v="Gunhildrud" />
		<tag k="place" v="hamlet" />
		<tag k="ssr:stedsnr" v="1072640" />
	</node>
	<node id="-28854" lat="59.6304111889" lon="9.94310214787">
		<tag k="fixme" v="consider place=hamlet" />
		<tag k="name" v="Fossesholm" />
		<tag k="place" v="farm" />
		<tag k="ssr:stedsnr" v="1072636" />
	</node>
	<node id="-28853" lat="59.7809422979" lon="9.90566449452">
		<tag k="fixme" v="consider place=hamlet" />
		<tag k="name" v="Haugsund" />
		<tag k="place" v="farm" />
		<tag k="ssr:stedsnr" v="1072635" />
	</node>
	<node id="-28852" lat="59.7760577663" lon="9.93599106122">
		<tag k="name" v="Haga" />
		<tag k="place" v="hamlet" />
		<tag k="ssr:stedsnr" v="1072634" />
	</node>
	<node id="-28851" lat="59.7861767554" lon="9.91127369691">
		<tag k="fixme" v="consider place=hamlet" />
		<tag k="name" v="Kruke" />
		<tag k="place" v="farm" />
		<tag k="ssr:stedsnr" v="1072633" />
	</node>
	<node id="-28850" lat="59.7962680818" lon="9.90160368703">
		<tag k="name" v="Langerud" />
		<tag k="place" v="hamlet" />
		<tag k="ssr:stedsnr" v="1072632" />
	</node>
	<node id="-28849" lat="59.7647346152" lon="9.90186708039">
		<tag k="fixme" v="consider place=hamlet" />
		<tag k="name" v="Eiker prestegård" />
		<tag k="place" v="farm" />
		<tag k="ssr:stedsnr" v="1072631" />
	</node>
	<node id="-28848" lat="59.7338536507" lon="9.84032877073">
		<tag k="name" v="Øvre Skarra" />
		<tag k="place" v="farm" />
		<tag k="ssr:stedsnr" v="1072630" />
	</node>
	<node id="-28847" lat="59.7338179341" lon="9.86116494993">
		<tag k="name" v="Fåsen" />
		<tag k="place" v="hamlet" />
		<tag k="ssr:stedsnr" v="1072628" />
	</node>
	<node id="-28846" lat="59.7194808173" lon="9.86416161394">
		<tag k="fixme" v="consider place=hamlet" />
		<tag k="name" v="Fossesholm" />
		<tag k="place" v="farm" />
		<tag k="ssr:stedsnr" v="1072554" />
	</node>
	<node id="-28845" lat="59.7352472937" lon="9.90549036006">
		<tag k="fixme" v="consider place=hamlet" />
		<tag k="name" v="Hole" />
		<tag k="place" v="farm" />
		<tag k="ssr:stedsnr" v="1072553" />
	</node>
	<node id="-28844" lat="59.7391216835" lon="9.96208560179">
		<tag k="name" v="Horne" />
		<tag k="place" v="hamlet" />
		<tag k="ssr:stedsnr" v="1072551" />
	</node>
	<node id="-28840" lat="59.8129805538" lon="9.99609167148">
		<tag k="name" v="Hagaheimen" />
		<tag k="place" v="isolated_dwelling" />
		<tag k="ssr:stedsnr" v="875504" />
	</node>
	<node id="-28838" lat="59.7972444446" lon="9.96729167332">
		<tag k="name" v="Lillebyvollen" />
		<tag k="place" v="isolated_dwelling" />
		<tag k="ssr:stedsnr" v="875497" />
	</node>
	<node id="-28837" lat="59.8883388895" lon="9.75021944761">
		<tag k="name" v="Kinnes" />
		<tag k="place" v="isolated_dwelling" />
		<tag k="ssr:stedsnr" v="875484" />
	</node>
	<node id="-28836" lat="59.8861957284" lon="9.74561772746">
		<tag k="name" v="Kverna" />
		<tag k="place" v="isolated_dwelling" />
		<tag k="ssr:stedsnr" v="875391" />
	</node>
	<node id="-28831" lat="59.7398305597" lon="9.95814999546">
		<tag k="name" v="Nordre Horne" />
		<tag k="place" v="farm" />
		<tag k="ssr:stedsnr" v="875358" />
	</node>
	<node id="-28830" lat="59.7275361101" lon="9.93580000509">
		<tag k="name" v="Kulerud" />
		<tag k="place" v="isolated_dwelling" />
		<tag k="ssr:stedsnr" v="875356" />
	</node>
	<node id="-28824" lat="59.7468750014" lon="9.87857222925">
		<tag k="name" v="Berg" />
		<tag k="place" v="farm" />
		<tag k="ssr:stedsnr" v="875136" />
	</node>
	<node id="-28823" lat="59.7500222235" lon="9.88069722707">
		<tag k="name" v="Berg" />
		<tag k="place" v="farm" />
		<tag k="ssr:stedsnr" v="875132" />
	</node>
	<node id="-28822" lat="59.738286114" lon="9.92617777275">
		<tag k="name" v="Vinsvold" />
		<tag k="place" v="farm" />
		<tag k="ssr:stedsnr" v="875332" />
	</node>
	<node id="-28821" lat="59.7621638891" lon="9.8903388928">
		<tag k="amenity" v="school" />
		<tag k="name" v="Skogplanteskole" />
		<tag k="ssr:stedsnr" v="875086" />
	</node>
	<node id="-28816" lat="59.8422886275" lon="9.85196792618">
		<tag k="alt_name" v="Mellom Holte" />
		<tag k="name" v="Holte" />
		<tag k="place" v="hamlet" />
		<tag k="ssr:stedsnr" v="854718" />
	</node>
	<node id="-28812" lat="59.8335416711" lon="9.94479722489">
		<tag k="name" v="Midtstua" />
		<tag k="place" v="isolated_dwelling" />
		<tag k="ssr:stedsnr" v="854671" />
	</node>
	<node id="-28811" lat="59.801908337" lon="9.87957778275">
		<tag k="name" v="Bergli" />
		<tag k="place" v="farm" />
		<tag k="ssr:stedsnr" v="854534" />
	</node>
	<node id="-28808" lat="59.7246861147" lon="9.69843054975">
		<tag k="name" v="Nedre Lurdalen" />
		<tag k="place" v="farm" />
		<tag k="ssr:stedsnr" v="853644" />
	</node>
	<node id="-28807" lat="59.7080305589" lon="9.67576389618">
		<tag k="name" v="Søndre Snaret" />
		<tag k="place" v="farm" />
		<tag k="ssr:stedsnr" v="853642" />
	</node>
	<node id="-28806" lat="59.8227610889" lon="9.86199299709">
		<tag k="fixme" v="consider place=hamlet" />
		<tag k="name" v="Harstad" />
		<tag k="place" v="farm" />
		<tag k="ssr:stedsnr" v="853707" />
	</node>
	<node id="-28805" lat="59.825823644" lon="9.88811060471">
		<tag k="name" v="Skott" />
		<tag k="place" v="hamlet" />
		<tag k="ssr:stedsnr" v="853690" />
	</node>
	<node id="-28803" lat="59.8188166687" lon="9.79509167478">
		<tag k="fixme" v="multiple name tags, choose one and add the other to alt_name" />
		<tag k="historic" v="shieling" />
		<tag k="name" v="Myresetra;Østre Myresetra" />
		<tag k="old_name" v="Myresetra, østre" />
		<tag k="place" v="locality" />
		<tag k="ssr:stedsnr" v="853512" />
	</node>
	<node id="-28801" lat="59.70341667" lon="9.84349722754">
		<tag k="name" v="Haugen" />
		<tag k="place" v="farm" />
		<tag k="ssr:stedsnr" v="853601" />
	</node>
	<node id="-28800" lat="59.7762500041" lon="9.75737499402">
		<tag k="historic" v="shieling" />
		<tag k="name" v="Skjølsetra" />
		<tag k="place" v="locality" />
		<tag k="ssr:stedsnr" v="853589" />
	</node>
	<node id="-28799" lat="59.7061194463" lon="9.80631388445">
		<tag k="alt_name" v="Rud" />
		<tag k="name" v="Søndre Rud" />
		<tag k="place" v="farm" />
		<tag k="ssr:stedsnr" v="853003" />
	</node>
	<node id="-28797" lat="59.7796448397" lon="9.84012389356">
		<tag k="name" v="Stuverud" />
		<tag k="place" v="farm" />
		<tag k="ssr:stedsnr" v="844050" />
	</node>
	<node id="-28796" lat="59.6529333312" lon="9.84297777137">
		<tag k="name" v="Sveltihjel" />
		<tag k="place" v="isolated_dwelling" />
		<tag k="ssr:stedsnr" v="817994" />
	</node>
	<node id="-28789" lat="59.7892694441" lon="9.82402221656">
		<tag k="name" v="Grøsland" />
		<tag k="place" v="farm" />
		<tag k="ssr:stedsnr" v="815887" />
	</node>
	<node id="-28788" lat="59.8429444453" lon="9.7430000067">
		<tag k="name" v="Åbbortjernstua" />
		<tag k="place" v="isolated_dwelling" />
		<tag k="ssr:stedsnr" v="815749" />
	</node>
	<node id="-28786" lat="59.680222226" lon="9.77966944137">
		<tag k="name" v="Flesberg" />
		<tag k="place" v="farm" />
		<tag k="ssr:stedsnr" v="815701" />
	</node>
	<node id="-28785" lat="59.830025002" lon="9.87319166363">
		<tag k="name" v="Moplassen" />
		<tag k="place" v="farm" />
		<tag k="ssr:stedsnr" v="815519" />
	</node>
	<node id="-28780" lat="59.7641888875" lon="9.84395000217">
		<tag k="name" v="Åsheim" />
		<tag k="place" v="isolated_dwelling" />
		<tag k="ssr:stedsnr" v="815002" />
	</node>
	<node id="-28771" lat="59.7582722247" lon="9.88954722816">
		<tag k="building" v="industrial" />
		<tag k="industrial" v="factory" />
		<tag k="name" v="Ytong" />
		<tag k="ssr:stedsnr" v="814078" />
	</node>
	<node id="-28770" lat="59.75197222" lon="9.83996388304">
		<tag k="name" v="Setersberg" />
		<tag k="place" v="farm" />
		<tag k="ssr:stedsnr" v="814062" />
	</node>
	<node id="-28762" lat="59.7792309997" lon="9.92517611642">
		<tag k="fixme" v="consider place=hamlet" />
		<tag k="name" v="Lilleby" />
		<tag k="place" v="farm" />
		<tag k="ssr:stedsnr" v="812741" />
	</node>
	<node id="-28761" lat="59.7493888897" lon="9.92659443889">
		<tag k="name" v="Solstad" />
		<tag k="place" v="farm" />
		<tag k="ssr:stedsnr" v="812729" />
	</node>
	<node id="-28760" lat="59.7473888846" lon="9.93805277349">
		<tag k="name" v="Sommerstad" />
		<tag k="place" v="farm" />
		<tag k="ssr:stedsnr" v="812727" />
	</node>
	<node id="-28759" lat="59.7472205862" lon="9.95083592673">
		<tag k="name" v="Skistad" />
		<tag k="place" v="hamlet" />
		<tag k="ssr:stedsnr" v="812726" />
	</node>
	<node id="-28758" lat="59.7460472259" lon="9.95933888532">
		<tag k="name" v="Skjoldaker" />
		<tag k="place" v="farm" />
		<tag k="ssr:stedsnr" v="812725" />
	</node>
	<node id="-28757" lat="59.8514128795" lon="9.92499209644">
		<tag k="fixme" v="consider place=hamlet" />
		<tag k="name" v="Kolbjørnsrud" />
		<tag k="place" v="farm" />
		<tag k="ssr:stedsnr" v="793749" />
	</node>
	<node id="-28756" lat="59.8537666674" lon="9.83407221775">
		<tag k="alt_name" v="Langbråtan" />
		<tag k="name" v="Langbråten" />
		<tag k="place" v="farm" />
		<tag k="ssr:stedsnr" v="793744" />
	</node>
	<node id="-28753" lat="59.802763734" lon="9.8526270499">
		<tag k="fixme" v="consider place=hamlet" />
		<tag k="name" v="Lyngås" />
		<tag k="place" v="farm" />
		<tag k="ssr:stedsnr" v="793545" />
	</node>
	<node id="-28752" lat="59.7937166635" lon="9.83186110785">
		<tag k="name" v="Søndre Grøsland" />
		<tag k="place" v="farm" />
		<tag k="ssr:stedsnr" v="793542" />
	</node>
	<node id="-28751" lat="59.8665225472" lon="9.72248907273">
		<tag k="historic" v="shieling" />
		<tag k="name" v="Torvaldsetra" />
		<tag k="place" v="locality" />
		<tag k="ssr:stedsnr" v="793670" />
	</node>
	<node id="-28750" lat="59.8584101928" lon="9.8759611386">
		<tag k="fixme" v="consider place=hamlet" />
		<tag k="name" v="Daler" />
		<tag k="place" v="farm" />
		<tag k="ssr:stedsnr" v="793666" />
	</node>
	<node id="-28749" lat="59.8673361069" lon="9.72974721803">
		<tag k="historic" v="shieling" />
		<tag k="name" v="Sønjusetra" />
		<tag k="place" v="locality" />
		<tag k="ssr:stedsnr" v="793657" />
	</node>
	<node id="-28746" lat="59.7629277778" lon="9.88189999392">
		<tag k="alt_name" v="Semsmyra" />
		<tag k="name" v="Semsmyr" />
		<tag k="place" v="farm" />
		<tag k="ssr:stedsnr" v="792542" />
	</node>
	<node id="-28743" lat="59.6600861112" lon="9.90400832812">
		<tag k="name" v="Tangen" />
		<tag k="place" v="isolated_dwelling" />
		<tag k="ssr:stedsnr" v="792017" />
	</node>
	<node id="-28742" lat="59.7341416623" lon="9.93580277803">
		<tag k="name" v="Teige" />
		<tag k="place" v="farm" />
		<tag k="ssr:stedsnr" v="791687" />
	</node>
	<node id="-28741" lat="59.7369072086" lon="9.95055704079">
		<tag k="alt_name" v="Rollsrud" />
		<tag k="fixme" v="consider place=hamlet" />
		<tag k="name" v="Rolvsrud" />
		<tag k="place" v="farm" />
		<tag k="ssr:stedsnr" v="791686" />
	</node>
	<node id="-28740" lat="59.7373261736" lon="9.84755994989">
		<tag k="name" v="Kolberg" />
		<tag k="place" v="hamlet" />
		<tag k="ssr:stedsnr" v="791679" />
	</node>
	<node id="-28739" lat="59.7272453676" lon="9.89816097651">
		<tag k="fixme" v="consider place=hamlet" />
		<tag k="name" v="Gommerud" />
		<tag k="place" v="farm" />
		<tag k="ssr:stedsnr" v="791666" />
	</node>
	<node id="-28738" lat="59.7279651641" lon="9.82984485858">
		<tag k="fixme" v="consider place=hamlet" />
		<tag k="name" v="Lundteigen" />
		<tag k="place" v="farm" />
		<tag k="ssr:stedsnr" v="791655" />
	</node>
	<node id="-28737" lat="59.7311527821" lon="9.6695111029">
		<tag k="name" v="Rørås" />
		<tag k="place" v="farm" />
		<tag k="ssr:stedsnr" v="791653" />
	</node>
	<node id="-28736" lat="59.8777388914" lon="9.91975833337">
		<tag k="name" v="Skillebekk" />
		<tag k="place" v="farm" />
		<tag k="ssr:stedsnr" v="785911" />
	</node>
	<node id="-28735" lat="59.7734666679" lon="9.88886666614">
		<tag k="building" v="commercial" />
		<tag k="name" v="Mølle" />
		<tag k="ssr:stedsnr" v="875799" />
	</node>
	<node id="-28734" lat="59.8264083355" lon="9.88745000401">
		<tag k="name" v="Nordre Skott" />
		<tag k="old_name" v="Skott;Nordre Skot" />
		<tag k="place" v="farm" />
		<tag k="ssr:stedsnr" v="768077" />
	</node>
	<node id="-28732" lat="59.7025305584" lon="9.87030833848">
		<tag k="name" v="Brekke" />
		<tag k="place" v="farm" />
		<tag k="ssr:stedsnr" v="756706" />
	</node>
	<node id="-28726" lat="59.7155194427" lon="9.90850556195">
		<tag k="name" v="Nordre Svendsrud" />
		<tag k="place" v="farm" />
		<tag k="ssr:stedsnr" v="756296" />
	</node>
	<node id="-28724" lat="59.7996305521" lon="9.89977499181">
		<tag k="name" v="Nordre Langerud" />
		<tag k="place" v="farm" />
		<tag k="ssr:stedsnr" v="755738" />
	</node>
	<node id="-28719" lat="59.7156111087" lon="9.92604166633">
		<tag k="historic" v="shieling" />
		<tag k="name" v="Møllesetra" />
		<tag k="place" v="locality" />
		<tag k="ssr:stedsnr" v="755481" />
	</node>
	<node id="-28718" lat="59.6669027771" lon="9.93929721745">
		<tag k="name" v="Lauvbråten" />
		<tag k="place" v="isolated_dwelling" />
		<tag k="ssr:stedsnr" v="755226" />
	</node>
	<node id="-28715" lat="59.7958749956" lon="9.91972778162">
		<tag k="name" v="Skutro" />
		<tag k="place" v="isolated_dwelling" />
		<tag k="ssr:stedsnr" v="754999" />
	</node>
	<node id="-28714" lat="59.8665694437" lon="9.91172499143">
		<tag k="name" v="Grina" />
		<tag k="place" v="isolated_dwelling" />
		<tag k="ssr:stedsnr" v="754994" />
	</node>
	<node id="-28713" lat="59.8647555547" lon="9.81515000813">
		<tag k="name" v="Nordre Vestby" />
		<tag k="place" v="farm" />
		<tag k="ssr:stedsnr" v="754971" />
	</node>
	<node id="-28712" lat="59.7717888919" lon="9.73988611436">
		<tag k="historic" v="shieling" />
		<tag k="name" v="Nordre Svartskurden" />
		<tag k="place" v="locality" />
		<tag k="ssr:stedsnr" v="754923" />
	</node>
	<node id="-28710" lat="59.7677666652" lon="9.89322778381">
		<tag k="name" v="Prestmo" />
		<tag k="place" v="farm" />
		<tag k="ssr:stedsnr" v="754834" />
	</node>
	<node id="-28706" lat="59.8125750035" lon="9.87188611796">
		<tag k="name" v="Brekka" />
		<tag k="place" v="farm" />
		<tag k="ssr:stedsnr" v="754649" />
	</node>
	<node id="-28705" lat="59.8287138864" lon="9.90569167423">
		<tag k="name" v="Wittenberg" />
		<tag k="place" v="isolated_dwelling" />
		<tag k="ssr:stedsnr" v="754626" />
	</node>
	<node id="-28700" lat="59.8865444406" lon="9.74914721856">
		<tag k="name" v="Biringvad" />
		<tag k="place" v="farm" />
		<tag k="ssr:stedsnr" v="754519" />
	</node>
	<node id="-28698" lat="59.7486277743" lon="9.72299166225">
		<tag k="name" v="Svendseplassen" />
		<tag k="place" v="isolated_dwelling" />
		<tag k="ssr:stedsnr" v="754435" />
	</node>
	<node id="-28696" lat="59.7285388905" lon="9.85567500367">
		<tag k="name" v="Lunde" />
		<tag k="place" v="farm" />
		<tag k="ssr:stedsnr" v="754351" />
	</node>
	<node id="-28694" lat="59.7461638876" lon="9.87553054965">
		<tag k="name" v="Torespæren" />
		<tag k="place" v="farm" />
		<tag k="ssr:stedsnr" v="754150" />
	</node>
	<node id="-28691" lat="59.8045638907" lon="9.89949443743">
		<tag k="name" v="Strømbu" />
		<tag k="place" v="isolated_dwelling" />
		<tag k="ssr:stedsnr" v="753668" />
	</node>
	<node id="-28690" lat="59.8429000027" lon="9.91067778418">
		<tag k="name" v="Nedre Knive" />
		<tag k="place" v="farm" />
		<tag k="ssr:stedsnr" v="753631" />
	</node>
	<node id="-28677" lat="59.691563893" lon="9.68161111854">
		<tag k="name" v="Såtevollen" />
		<tag k="place" v="farm" />
		<tag k="ssr:stedsnr" v="751895" />
	</node>
</osm>
