<?xml version="1.0" encoding="UTF-8"?>
<osm generator="osmapis" version="0.6">
	<node id="-287744" lat="59.6905111113" lon="9.75531110625">
		<tag k="bridge" v="yes" />
		<tag k="layer" v="1" />
		<tag k="name" v="Bakken" />
		<tag k="ssr:stedsnr" v="168906" />
	</node>
	<node id="-288893" lat="59.734339188" lon="9.86745215245">
		<tag k="name" v="Vestfossen stasjon" />
		<tag k="railway" v="station" />
		<tag k="ssr:stedsnr" v="571234" />
		<tag k="train" v="yes" />
	</node>
	<node id="-289144" lat="59.8431527819" lon="9.89721944261">
		<tag k="bridge" v="yes" />
		<tag k="layer" v="1" />
		<tag k="name" v="Skotselv" />
		<tag k="ssr:stedsnr" v="957877" />
	</node>
	<node id="-287734" lat="59.7418666677" lon="9.86765556131">
		<tag k="junction" v="yes" />
		<tag k="name" v="Nordby" />
		<tag k="place" v="locality" />
		<tag k="ssr:stedsnr" v="147254" />
	</node>
	<node id="-289006" lat="59.8409805566" lon="9.93203611695">
		<tag k="junction" v="yes" />
		<tag k="name" v="Laupet" />
		<tag k="place" v="locality" />
		<tag k="ssr:stedsnr" v="754598" />
	</node>
	<node id="-288402" lat="59.7235694415" lon="9.8196972154">
		<tag k="bridge" v="yes" />
		<tag k="layer" v="1" />
		<tag k="name" v="Skjelbred" />
		<tag k="ssr:stedsnr" v="46902" />
	</node>
	<node id="-288106" lat="59.7604999973" lon="9.93566943833">
		<tag k="bridge" v="yes" />
		<tag k="layer" v="1" />
		<tag k="name" v="Pumpehuset" />
		<tag k="ssr:stedsnr" v="653903" />
	</node>
	<node id="-288474" lat="59.7731555579" lon="9.90928888376">
		<tag k="bridge" v="yes" />
		<tag k="layer" v="1" />
		<tag k="name" v="Bruhjørnet" />
		<tag k="ssr:stedsnr" v="107936" />
	</node>
	<node id="-288473" lat="59.7273138933" lon="9.82341110874">
		<tag k="bridge" v="yes" />
		<tag k="layer" v="1" />
		<tag k="name" v="Lundteigen" />
		<tag k="ssr:stedsnr" v="107916" />
	</node>
	<node id="-288472" lat="59.7361833347" lon="9.82948610614">
		<tag k="bridge" v="yes" />
		<tag k="layer" v="1" />
		<tag k="name" v="Skarra" />
		<tag k="ssr:stedsnr" v="107906" />
	</node>
	<node id="-288560" lat="59.709741666" lon="9.79070833024">
		<tag k="bridge" v="yes" />
		<tag k="layer" v="1" />
		<tag k="name" v="Flårud" />
		<tag k="ssr:stedsnr" v="168893" />
	</node>
	<node id="-287822" lat="59.7481499959" lon="9.85482221599">
		<tag k="bridge" v="yes" />
		<tag k="layer" v="1" />
		<tag k="name" v="Leirdalen" />
		<tag k="ssr:stedsnr" v="471895" />
	</node>
	<node id="-288978" lat="59.7177694424" lon="9.81051389656">
		<tag k="bridge" v="yes" />
		<tag k="layer" v="1" />
		<tag k="name" v="Skogstad" />
		<tag k="ssr:stedsnr" v="653885" />
	</node>
	<node id="-288208" lat="59.7429222236" lon="9.84411111408">
		<tag k="bridge" v="yes" />
		<tag k="layer" v="1" />
		<tag k="name" v="Kolberg" />
		<tag k="ssr:stedsnr" v="775876" />
	</node>
	<node id="-288207" lat="59.7144277777" lon="9.80264443798">
		<tag k="bridge" v="yes" />
		<tag k="layer" v="1" />
		<tag k="name" v="Fougner" />
		<tag k="ssr:stedsnr" v="774920" />
	</node>
	<node id="-288206" lat="59.7629055574" lon="9.90047222437">
		<tag k="bridge" v="yes" />
		<tag k="layer" v="1" />
		<tag k="name" v="Kirkegangen" />
		<tag k="ssr:stedsnr" v="774911" />
	</node>
	<node id="-288717" lat="59.6873388862" lon="9.85032777155">
		<tag k="bridge" v="yes" />
		<tag k="layer" v="1" />
		<tag k="name" v="Bollerud" />
		<tag k="ssr:stedsnr" v="350878" />
	</node>
	<node id="-288716" lat="59.7033000029" lon="9.778750002">
		<tag k="bridge" v="yes" />
		<tag k="layer" v="1" />
		<tag k="name" v="Dunserud" />
		<tag k="ssr:stedsnr" v="350868" />
	</node>
	<node id="-288715" lat="59.7307722221" lon="9.82460277378">
		<tag k="bridge" v="yes" />
		<tag k="layer" v="1" />
		<tag k="name" v="Mølledammen" />
		<tag k="ssr:stedsnr" v="350864" />
	</node>
	<node id="-288840" lat="59.6321916689" lon="9.94206944578">
		<tag k="bridge" v="yes" />
		<tag k="layer" v="1" />
		<tag k="name" v="Hakavik" />
		<tag k="ssr:stedsnr" v="532888" />
	</node>
	<node id="-288839" lat="59.7600638893" lon="9.92341389091">
		<tag k="bridge" v="yes" />
		<tag k="layer" v="1" />
		<tag k="name" v="Flyplassen øst" />
		<tag k="ssr:stedsnr" v="532884" />
	</node>
	<node id="-288838" lat="59.707386115" lon="9.78373888731">
		<tag k="bridge" v="yes" />
		<tag k="layer" v="1" />
		<tag k="name" v="Kolsrud" />
		<tag k="ssr:stedsnr" v="532880" />
	</node>
	<node id="-288837" lat="59.8374361086" lon="9.86624166201">
		<tag k="bridge" v="yes" />
		<tag k="layer" v="1" />
		<tag k="name" v="Spiten" />
		<tag k="ssr:stedsnr" v="532870" />
	</node>
	<node id="-288579" lat="59.701722222" lon="9.80000833042">
		<tag k="name" v="Darbu stasjon" />
		<tag k="railway" v="station" />
		<tag k="ssr:stedsnr" v="185572" />
		<tag k="train" v="yes" />
	</node>
	<node id="-288160" lat="59.7598861108" lon="9.91970278648">
		<tag k="aeroway" v="airstrip" />
		<tag k="name" v="Hokksund flyplass" />
		<tag k="ssr:stedsnr" v="906969" />
	</node>
	<node id="-288573" lat="59.6694637625" lon="9.7668499702">
		<tag k="name" v="Krekling stasjon" />
		<tag k="railway" v="station" />
		<tag k="ssr:stedsnr" v="185522" />
		<tag k="train" v="yes" />
	</node>
	<node id="-287626" lat="59.8704138912" lon="9.77902499648">
		<tag k="bridge" v="yes" />
		<tag k="layer" v="1" />
		<tag k="name" v="Gleinbekk" />
		<tag k="ssr:stedsnr" v="228930" />
	</node>
	<node id="-288442" lat="59.8774155721" lon="9.72846021767">
		<tag k="ford" v="yes" />
		<tag k="name" v="Øvre Sørkvad" />
		<tag k="place" v="locality" />
		<tag k="ssr:stedsnr" v="86392" />
	</node>
	<node id="-288563" lat="59.6747055563" lon="9.73570833481">
		<tag k="bridge" v="yes" />
		<tag k="layer" v="1" />
		<tag k="name" v="Jøranrud" />
		<tag k="ssr:stedsnr" v="168901" />
	</node>
	<node id="-288562" lat="59.6841111133" lon="9.89426111096">
		<tag k="bridge" v="yes" />
		<tag k="layer" v="1" />
		<tag k="name" v="Hamreelv" />
		<tag k="ssr:stedsnr" v="168899" />
	</node>
	<node id="-288561" lat="59.6714138932" lon="9.87556388677">
		<tag k="bridge" v="yes" />
		<tag k="layer" v="1" />
		<tag k="name" v="Gunhildrud" />
		<tag k="ssr:stedsnr" v="168897" />
	</node>
	<node id="-288304" lat="59.6050527752" lon="9.91989166133">
		<tag k="amenity" v="parking" />
		<tag k="name" v="Kilane" />
		<tag k="ssr:stedsnr" v="876548" />
	</node>
	<node id="-288559" lat="59.7351611087" lon="9.86803333512">
		<tag k="bridge" v="yes" />
		<tag k="layer" v="1" />
		<tag k="name" v="Vestfossen" />
		<tag k="ssr:stedsnr" v="168878" />
	</node>
	<node id="-288043" lat="59.695855557" lon="9.75888889087">
		<tag k="bridge" v="yes" />
		<tag k="layer" v="1" />
		<tag k="name" v="Gulliksrud" />
		<tag k="ssr:stedsnr" v="714896" />
	</node>
	<node id="-288042" lat="59.6821472183" lon="9.90644722586">
		<tag k="bridge" v="yes" />
		<tag k="layer" v="1" />
		<tag k="name" v="Østerud" />
		<tag k="ssr:stedsnr" v="714889" />
	</node>
	<node id="-288041" lat="59.8748777816" lon="9.71428332561">
		<tag k="bridge" v="yes" />
		<tag k="layer" v="1" />
		<tag k="name" v="Svartbekk" />
		<tag k="ssr:stedsnr" v="714886" />
	</node>
	<node id="-288305" lat="59.770972218" lon="9.89685000203">
		<tag k="bridge" v="yes" />
		<tag k="layer" v="1" />
		<tag k="name" v="Kantum" />
		<tag k="ssr:stedsnr" v="896918" />
	</node>
	<node id="-287821" lat="59.7327444456" lon="9.6968527749">
		<tag k="bridge" v="yes" />
		<tag k="layer" v="1" />
		<tag k="name" v="Lakkeplass" />
		<tag k="ssr:stedsnr" v="471890" />
	</node>
	<node id="-288034" lat="59.7255388889" lon="9.93385556362">
		<tag k="name" v="Skogsleet" />
		<tag k="place" v="locality" />
		<tag k="ssr:stedsnr" v="571340" />
	</node>
	<node id="-288801" lat="59.6936833328" lon="9.80848332671">
		<tag k="bridge" v="yes" />
		<tag k="layer" v="1" />
		<tag k="name" v="Delerelv" />
		<tag k="ssr:stedsnr" v="410905" />
	</node>
	<node id="-288800" lat="59.778844441" lon="9.91288054828">
		<tag k="bridge" v="yes" />
		<tag k="layer" v="1" />
		<tag k="name" v="Raubakk" />
		<tag k="ssr:stedsnr" v="410903" />
	</node>
	<node id="-288799" lat="59.7278444435" lon="9.69695556142">
		<tag k="bridge" v="yes" />
		<tag k="layer" v="1" />
		<tag k="name" v="Krokbekk" />
		<tag k="ssr:stedsnr" v="410901" />
	</node>
	<node id="-288157" lat="59.7490222241" lon="9.87273056203">
		<tag k="bridge" v="yes" />
		<tag k="layer" v="1" />
		<tag k="name" v="Berg" />
		<tag k="ssr:stedsnr" v="896931" />
	</node>
	<node id="-288025" lat="59.7064472208" lon="9.85951666196">
		<tag k="fixme" v="consider highway=path" />
		<tag k="highway" v="track" />
		<tag k="name" v="Brekkeskåka" />
		<tag k="ssr:stedsnr" v="695500" />
	</node>
	<node id="-288408" lat="59.6926111105" lon="9.79350278598">
		<tag k="bridge" v="yes" />
		<tag k="layer" v="1" />
		<tag k="name" v="Darbu" />
		<tag k="ssr:stedsnr" v="46927" />
	</node>
	<node id="-288407" lat="59.7393666696" lon="9.83400277264">
		<tag k="bridge" v="yes" />
		<tag k="layer" v="1" />
		<tag k="name" v="Hovenga" />
		<tag k="ssr:stedsnr" v="46922" />
	</node>
	<node id="-288406" lat="59.6871194444" lon="9.74746111362">
		<tag k="bridge" v="yes" />
		<tag k="layer" v="1" />
		<tag k="name" v="Godokk" />
		<tag k="ssr:stedsnr" v="46918" />
	</node>
	<node id="-288405" lat="59.6928055519" lon="9.76155556018">
		<tag k="bridge" v="yes" />
		<tag k="layer" v="1" />
		<tag k="name" v="Jøtansbekken" />
		<tag k="ssr:stedsnr" v="46912" />
	</node>
	<node id="-288404" lat="59.6764833315" lon="9.92580834141">
		<tag k="bridge" v="yes" />
		<tag k="layer" v="1" />
		<tag k="name" v="Tørrbekk" />
		<tag k="ssr:stedsnr" v="46907" />
	</node>
	<node id="-288403" lat="59.8666194433" lon="9.81002222743">
		<tag k="bridge" v="yes" />
		<tag k="layer" v="1" />
		<tag k="name" v="Vestby" />
		<tag k="ssr:stedsnr" v="46906" />
	</node>
	<node id="-288914" lat="59.6818222205" lon="9.74188611548">
		<tag k="bridge" v="yes" />
		<tag k="layer" v="1" />
		<tag k="name" v="Liverud" />
		<tag k="ssr:stedsnr" v="592925" />
	</node>
	<node id="-287747" lat="59.7768916706" lon="9.91630278226">
		<tag k="bridge" v="yes" />
		<tag k="layer" v="1" />
		<tag k="name" v="Kringsjå" />
		<tag k="ssr:stedsnr" v="289929" />
	</node>
	<node id="-288271" lat="59.8399694441" lon="9.87648610748">
		<tag k="bridge" v="yes" />
		<tag k="layer" v="1" />
		<tag k="name" v="Hære" />
		<tag k="ssr:stedsnr" v="835923" />
	</node>
	<node id="-288270" lat="59.8908249971" lon="9.77098055859">
		<tag k="bridge" v="yes" />
		<tag k="layer" v="1" />
		<tag k="name" v="Thorud" />
		<tag k="ssr:stedsnr" v="835906" />
	</node>
	<node id="-287757" lat="59.6996361074" lon="9.76928055692">
		<tag k="bridge" v="yes" />
		<tag k="layer" v="1" />
		<tag k="name" v="Nyrud" />
		<tag k="ssr:stedsnr" v="228925" />
	</node>
	<node id="-288650" lat="59.6245416646" lon="9.95278333104">
		<tag k="landuse" v="industrial" />
		<tag k="name" v="Hakavik kraftverk" />
		<tag k="power" v="plant" />
		<tag k="ssr:stedsnr" v="306497" />
	</node>
	<node id="-288306" lat="59.7258416672" lon="9.8344166581">
		<tag k="bridge" v="yes" />
		<tag k="layer" v="1" />
		<tag k="name" v="Dørja" />
		<tag k="ssr:stedsnr" v="896923" />
	</node>
	<node id="-288389" lat="59.7671611137" lon="9.91112778637">
		<tag k="name" v="Hokksund stasjon" />
		<tag k="railway" v="station" />
		<tag k="ssr:stedsnr" v="26794" />
		<tag k="train" v="yes" />
	</node>
	<node id="-287748" lat="59.7131749971" lon="9.79852777145">
		<tag k="bridge" v="yes" />
		<tag k="layer" v="1" />
		<tag k="name" v="Røed" />
		<tag k="ssr:stedsnr" v="289933" />
	</node>
	<node id="-288131" lat="59.8263055555" lon="9.79162777503">
		<tag k="name" v="Harstadvelta" />
		<tag k="place" v="locality" />
		<tag k="ssr:stedsnr" v="877554" />
	</node>
	<node id="-288107" lat="59.7626888932" lon="9.90203888439">
		<tag k="bridge" v="yes" />
		<tag k="layer" v="1" />
		<tag k="name" v="Haug" />
		<tag k="ssr:stedsnr" v="653908" />
	</node>
</osm>
