<?xml version="1.0" encoding="UTF-8"?>
<osm version="0.6" generator="osmapis">
	<node lat="59.83567222439788" lon="9.92483610520642" id="-17370">
		<tag k="name" v="Pålsbråten" />
		<tag k="place" v="locality" />
		<tag k="ssr:stedsnr" v="26594" />
	</node>
	<node lat="59.841105558209925" lon="9.716938884620594" id="-17371">
		<tag k="name" v="Kjøttkakemyra" />
		<tag k="natural" v="wetland" />
		<tag k="ssr:stedsnr" v="26722" />
	</node>
	<node lat="59.70958055757502" lon="9.923377782298404" id="-17375">
		<tag k="name" v="Torbergsetermyra" />
		<tag k="natural" v="wetland" />
		<tag k="ssr:stedsnr" v="27493" />
	</node>
	<node lat="59.7655805524403" lon="9.756958329836978" id="-17402">
		<tag k="name" v="Spærensetermyr" />
		<tag k="natural" v="wetland" />
		<tag k="ssr:stedsnr" v="87093" />
	</node>
	<node lat="59.745105553082794" lon="9.729588890963663" id="-17403">
		<tag k="landuse" v="quarry" />
		<tag k="name" v="Skarragruvene" />
		<tag k="ssr:stedsnr" v="87389" />
	</node>
	<node lat="59.89948610856404" lon="9.705758338111977" id="-17404">
		<tag k="name" v="Nordmarka" />
		<tag k="place" v="locality" />
		<tag k="ssr:stedsnr" v="87390" />
	</node>
	<node lat="59.73851111003362" lon="9.828922220906202" id="-17413">
		<tag k="name" v="Tyskegården" />
		<tag k="place" v="locality" />
		<tag k="ssr:stedsnr" v="88406" />
	</node>
	<node lat="59.67279721909512" lon="9.838622226262581" id="-17415">
		<tag k="name" v="Skallerudløkka" />
		<tag k="place" v="locality" />
		<tag k="ssr:stedsnr" v="88505" />
	</node>
	<node lat="59.79680555578082" lon="9.806408331537565" id="-17459">
		<tag k="fixme" v="multiple name tags, choose one and add the other to alt_name" />
		<tag k="name" v="Gørrmyra;Torvmyra" />
		<tag k="natural" v="wetland" />
		<tag k="ssr:stedsnr" v="126506" />
	</node>
	<node lat="59.85118333193684" lon="9.996261110715482" id="-17470">
		<tag k="name" v="Tuvemyr" />
		<tag k="natural" v="wetland" />
		<tag k="ssr:stedsnr" v="147627" />
	</node>
	<node lat="59.84318055665435" lon="9.965272222709547" id="-17472">
		<tag k="historic" v="shieling" />
		<tag k="name" v="Snaukollivollen" />
		<tag k="place" v="locality" />
		<tag k="ssr:stedsnr" v="147570" />
	</node>
	<node lat="59.83923333663715" lon="9.932027769776186" id="-17473">
		<tag k="name" v="Linnemyr" />
		<tag k="natural" v="wetland" />
		<tag k="ssr:stedsnr" v="147577" />
	</node>
	<node lat="59.74591110673565" lon="9.812377781638768" id="-17504">
		<tag k="name" v="Storemyr" />
		<tag k="natural" v="wetland" />
		<tag k="ssr:stedsnr" v="268059" />
	</node>
	<node lat="59.868658335571915" lon="9.750866665523871" id="-17513">
		<tag k="name" v="Gjelleramyra" />
		<tag k="natural" v="wetland" />
		<tag k="ssr:stedsnr" v="207124" />
	</node>
	<node lat="59.83967777699534" lon="9.93702778629417" id="-17519">
		<tag k="name" v="Moen" />
		<tag k="place" v="locality" />
		<tag k="ssr:stedsnr" v="208586" />
	</node>
	<node lat="59.77122778162358" lon="9.777122215197894" id="-17529">
		<tag k="name" v="Høystakkmyr" />
		<tag k="natural" v="wetland" />
		<tag k="ssr:stedsnr" v="269087" />
	</node>
	<node lat="59.66244416155302" lon="9.992735101792384" id="-17546">
		<tag k="name" v="Sandsetermyrene" />
		<tag k="natural" v="wetland" />
		<tag k="ssr:stedsnr" v="270259" />
	</node>
	<node lat="59.71835833186529" lon="9.88574166408542" id="-17551">
		<tag k="name" v="Såsenplassen" />
		<tag k="place" v="locality" />
		<tag k="ssr:stedsnr" v="271735" />
	</node>
	<node lat="59.76954721901208" lon="9.780461105195755" id="-17574">
		<tag k="name" v="Langsmalmyra" />
		<tag k="natural" v="wetland" />
		<tag k="ssr:stedsnr" v="451096" />
	</node>
	<node lat="59.682913885436164" lon="9.746113895565038" id="-17582">
		<tag k="name" v="Kofstadhagan" />
		<tag k="place" v="locality" />
		<tag k="ssr:stedsnr" v="451638" />
	</node>
	<node lat="59.83083333232309" lon="9.782050002142391" id="-17607">
		<tag k="name" v="Barlindmyra" />
		<tag k="natural" v="wetland" />
		<tag k="ssr:stedsnr" v="453633" />
	</node>
	<node lat="59.65382222395458" lon="9.846697223835145" id="-17608">
		<tag k="name" v="Husemyr" />
		<tag k="natural" v="wetland" />
		<tag k="ssr:stedsnr" v="453996" />
	</node>
	<node lat="59.8236361117047" lon="9.94293333197628" id="-17619">
		<tag k="name" v="Pinnemyr" />
		<tag k="natural" v="wetland" />
		<tag k="ssr:stedsnr" v="268578" />
	</node>
	<node lat="59.84410277732898" lon="9.935711110270029" id="-17620">
		<tag k="name" v="Karlstaddokka" />
		<tag k="natural" v="wetland" />
		<tag k="ssr:stedsnr" v="268581" />
	</node>
	<node lat="59.703574996994746" lon="9.679691661132821" id="-17682">
		<tag k="fixme" v="multiple name tags, choose one and add the other to alt_name" />
		<tag k="historic" v="shieling" />
		<tag k="name" v="Åsen;Otterplassen" />
		<tag k="place" v="locality" />
		<tag k="ssr:stedsnr" v="367606" />
	</node>
	<node lat="59.77667500119392" lon="9.76304721807846" id="-17706">
		<tag k="name" v="Eftasmyr" />
		<tag k="natural" v="wetland" />
		<tag k="ssr:stedsnr" v="390097" />
	</node>
	<node lat="59.791688890059035" lon="9.718124997524622" id="-17711">
		<tag k="historic" v="shieling" />
		<tag k="name" v="Katrineplassen" />
		<tag k="place" v="locality" />
		<tag k="ssr:stedsnr" v="390702" />
	</node>
	<node lat="59.753250002658206" lon="9.811702769917245" id="-17752">
		<tag k="name" v="Kloppmyr" />
		<tag k="natural" v="wetland" />
		<tag k="ssr:stedsnr" v="429565" />
	</node>
	<node lat="59.762538888010496" lon="9.864830549675668" id="-17782">
		<tag k="name" v="Åshagan" />
		<tag k="place" v="locality" />
		<tag k="ssr:stedsnr" v="451878" />
	</node>
	<node lat="59.71683362311066" lon="9.82879935156339" id="-17786">
		<tag k="name" v="Hegstadmyrene" />
		<tag k="natural" v="wetland" />
		<tag k="ssr:stedsnr" v="453507" />
	</node>
	<node lat="59.66234166548903" lon="9.802563896545893" id="-17803">
		<tag k="name" v="Setervollen" />
		<tag k="place" v="locality" />
		<tag k="ssr:stedsnr" v="510507" />
	</node>
	<node lat="59.751483337799776" lon="9.8211388965966" id="-17839">
		<tag k="name" v="Førstemyr" />
		<tag k="natural" v="wetland" />
		<tag k="ssr:stedsnr" v="693058" />
	</node>
	<node lat="59.81492221804803" lon="9.876605563106763" id="-17848">
		<tag k="name" v="Sandbekkbråten" />
		<tag k="place" v="locality" />
		<tag k="ssr:stedsnr" v="693643" />
	</node>
	<node lat="59.774741668848336" lon="9.815830546765538" id="-17857">
		<tag k="landuse" v="quarry" />
		<tag k="name" v="Gåomkring" />
		<tag k="ssr:stedsnr" v="693942" />
	</node>
	<node lat="59.70231389271764" lon="9.914063895647242" id="-17862">
		<tag k="name" v="Spælmyr" />
		<tag k="natural" v="wetland" />
		<tag k="ssr:stedsnr" v="574719" />
	</node>
	<node lat="59.600236115275706" lon="9.882755556075248" id="-17877">
		<tag k="name" v="Bjertnesflåren" />
		<tag k="natural" v="wetland" />
		<tag k="ssr:stedsnr" v="610502" />
	</node>
	<node lat="59.85324722487866" lon="9.988274998446967" id="-17893">
		<tag k="name" v="Storemyr" />
		<tag k="natural" v="wetland" />
		<tag k="ssr:stedsnr" v="632629" />
	</node>
	<node lat="59.79538055754402" lon="9.781391674407713" id="-17899">
		<tag k="name" v="Setermyr" />
		<tag k="natural" v="wetland" />
		<tag k="ssr:stedsnr" v="633890" />
	</node>
	<node lat="59.71710000347596" lon="9.968566672756099" id="-17903">
		<tag k="name" v="Sotmyr" />
		<tag k="natural" v="wetland" />
		<tag k="ssr:stedsnr" v="634514" />
	</node>
	<node lat="59.6486250017034" lon="9.982588892122896" id="-17926">
		<tag k="name" v="Engeløkka" />
		<tag k="place" v="locality" />
		<tag k="ssr:stedsnr" v="691222" />
	</node>
	<node lat="59.835850001359" lon="9.953294447799484" id="-17930">
		<tag k="name" v="Rundemyr" />
		<tag k="natural" v="wetland" />
		<tag k="ssr:stedsnr" v="693614" />
	</node>
	<node lat="59.834080558196604" lon="9.924536108361483" id="-17931">
		<tag k="name" v="Kumyr" />
		<tag k="natural" v="wetland" />
		<tag k="ssr:stedsnr" v="693616" />
	</node>
	<node lat="59.740988892999596" lon="9.792488887932766" id="-17975">
		<tag k="name" v="Kolbergtjernmyra" />
		<tag k="natural" v="wetland" />
		<tag k="ssr:stedsnr" v="754155" />
	</node>
	<node lat="59.76825000377683" lon="9.790038891443883" id="-17977">
		<tag k="name" v="Storsteinmyr" />
		<tag k="natural" v="wetland" />
		<tag k="ssr:stedsnr" v="754100" />
	</node>
	<node lat="59.80910277651293" lon="9.9629972269264" id="-17978">
		<tag k="name" v="Soterudmyr" />
		<tag k="natural" v="wetland" />
		<tag k="ssr:stedsnr" v="754609" />
	</node>
	<node lat="59.71649444280692" lon="9.834538883162304" id="-17987">
		<tag k="name" v="Måsnesmyrene" />
		<tag k="natural" v="wetland" />
		<tag k="ssr:stedsnr" v="756496" />
	</node>
	<node lat="59.77087500295621" lon="9.80667500032628" id="-18013">
		<tag k="name" v="Stormyra" />
		<tag k="natural" v="wetland" />
		<tag k="ssr:stedsnr" v="914634" />
	</node>
	<node lat="59.84106944455051" lon="9.982086115311736" id="-18067">
		<tag k="name" v="Trollåsmyrene" />
		<tag k="natural" v="wetland" />
		<tag k="ssr:stedsnr" v="875619" />
	</node>
	<node lat="59.76753332905416" lon="9.815686113897382" id="-18070">
		<tag k="landuse" v="quarry" />
		<tag k="name" v="Åsgruvene" />
		<tag k="ssr:stedsnr" v="875958" />
	</node>
	<node lat="59.677074995973356" lon="9.967283340225926" id="-18076">
		<tag k="name" v="Hestmyra" />
		<tag k="natural" v="wetland" />
		<tag k="ssr:stedsnr" v="877251" />
	</node>
	<node lat="59.66185278039059" lon="9.786450003054938" id="-18081">
		<tag k="name" v="Breimyr" />
		<tag k="natural" v="wetland" />
		<tag k="ssr:stedsnr" v="934460" />
	</node>
	<node lat="59.83089444568963" lon="9.939286109867655" id="-18109">
		<tag k="name" v="Pinnemyr" />
		<tag k="natural" v="wetland" />
		<tag k="ssr:stedsnr" v="936595" />
	</node>
	<node lat="59.86492777497115" lon="9.84081111098512" id="-18122">
		<tag k="name" v="Borgevad" />
		<tag k="place" v="locality" />
		<tag k="ssr:stedsnr" v="937971" />
	</node>
	<node lat="59.811894446945466" lon="9.797661103751086" id="-18123">
		<tag k="name" v="Hyttemyr" />
		<tag k="natural" v="wetland" />
		<tag k="ssr:stedsnr" v="938530" />
	</node>
	<node lat="59.61698333710726" lon="9.957541667509245" id="-18163">
		<tag k="name" v="Øvre Holtet" />
		<tag k="place" v="locality" />
		<tag k="ssr:stedsnr" v="24737" />
	</node>
	<node lat="59.868727776351" lon="9.98275555698719" id="-18182">
		<tag k="name" v="Vollmyr" />
		<tag k="natural" v="wetland" />
		<tag k="ssr:stedsnr" v="26664" />
	</node>
	<node lat="59.66255277479324" lon="9.883549999504424" id="-18193">
		<tag k="name" v="Milebråten" />
		<tag k="place" v="locality" />
		<tag k="ssr:stedsnr" v="28731" />
	</node>
	<node lat="59.84881389203318" lon="9.984894445813913" id="-18236">
		<tag k="name" v="Tretjernsmyrene" />
		<tag k="natural" v="wetland" />
		<tag k="ssr:stedsnr" v="86641" />
	</node>
	<node lat="59.824130555764526" lon="9.818269446554316" id="-18239">
		<tag k="name" v="Skamyr" />
		<tag k="natural" v="wetland" />
		<tag k="ssr:stedsnr" v="86658" />
	</node>
	<node lat="59.7679555553004" lon="9.823755560060267" id="-18242">
		<tag k="landuse" v="quarry" />
		<tag k="name" v="Kølabonn" />
		<tag k="ssr:stedsnr" v="86968" />
	</node>
	<node lat="59.82970832899577" lon="9.766872231010655" id="-18251">
		<tag k="name" v="Langmyrene" />
		<tag k="natural" v="wetland" />
		<tag k="ssr:stedsnr" v="89636" />
	</node>
	<node lat="59.70569721924591" lon="9.73551945126866" id="-18261">
		<tag k="alt_name" v="Hellemyra" />
		<tag k="name" v="Hellemyr" />
		<tag k="natural" v="wetland" />
		<tag k="ssr:stedsnr" v="124588" />
	</node>
	<node lat="59.79065442581321" lon="9.782558875895516" id="-18271">
		<tag k="name" v="Stormyr" />
		<tag k="natural" v="wetland" />
		<tag k="ssr:stedsnr" v="125533" />
	</node>
	<node lat="59.76688333622804" lon="9.808669441087709" id="-18274">
		<tag k="name" v="Hestemyrene" />
		<tag k="natural" v="wetland" />
		<tag k="ssr:stedsnr" v="125574" />
	</node>
	<node lat="59.65740833645497" lon="9.7691361061404" id="-18291">
		<tag k="historic" v="shieling" />
		<tag k="name" v="Vegosetra" />
		<tag k="place" v="locality" />
		<tag k="ssr:stedsnr" v="145465" />
	</node>
	<node lat="59.62182222068717" lon="9.959080551878458" id="-18328">
		<tag k="alt_name" v="Holtet" />
		<tag k="name" v="Nedre Holtet" />
		<tag k="place" v="locality" />
		<tag k="ssr:stedsnr" v="185466" />
	</node>
	<node lat="59.75925555958575" lon="9.790005555368364" id="-18351">
		<tag k="name" v="Bergsetermyra" />
		<tag k="natural" v="wetland" />
		<tag k="ssr:stedsnr" v="208220" />
	</node>
	<node lat="59.84699999991297" lon="10.021130555007833" id="-18359">
		<tag k="name" v="Hobbelstadmyrene" />
		<tag k="natural" v="wetland" />
		<tag k="ssr:stedsnr" v="208625" />
	</node>
	<node lat="59.79334444086784" lon="9.788147215723727" id="-18361">
		<tag k="name" v="Kjøttkulpmyr" />
		<tag k="natural" v="wetland" />
		<tag k="ssr:stedsnr" v="208853" />
	</node>
	<node lat="59.70273223929897" lon="9.736792468856601" id="-18374">
		<tag k="landuse" v="quarry" />
		<tag k="name" v="Kobbergruve" />
		<tag k="ssr:stedsnr" v="210840" />
	</node>
	<node lat="59.789549998434545" lon="9.78844721394548" id="-18411">
		<tag k="name" v="Kjerringhanda" />
		<tag k="natural" v="wetland" />
		<tag k="ssr:stedsnr" v="330897" />
	</node>
	<node lat="59.691236114811986" lon="9.94501666983765" id="-18413">
		<tag k="name" v="Brennevinsmyr" />
		<tag k="natural" v="wetland" />
		<tag k="ssr:stedsnr" v="331180" />
	</node>
	<node lat="59.74488611151391" lon="9.791402776987692" id="-18457">
		<tag k="historic" v="shieling" />
		<tag k="name" v="Hyttevollen" />
		<tag k="place" v="locality" />
		<tag k="ssr:stedsnr" v="390230" />
	</node>
	<node lat="59.650766662288255" lon="9.973816658392623" id="-18465">
		<tag k="name" v="Barlindmyra" />
		<tag k="natural" v="wetland" />
		<tag k="ssr:stedsnr" v="391212" />
	</node>
	<node lat="59.71089189116569" lon="9.742236488639875" id="-18469">
		<tag k="name" v="Tjuruhellmyra" />
		<tag k="natural" v="wetland" />
		<tag k="ssr:stedsnr" v="391847" />
	</node>
	<node lat="59.81244166958005" lon="9.822258326598448" id="-18476">
		<tag k="name" v="Kastmyr" />
		<tag k="natural" v="wetland" />
		<tag k="ssr:stedsnr" v="428493" />
	</node>
	<node lat="59.79491111250978" lon="9.78282499326566" id="-18494">
		<tag k="name" v="Løken" />
		<tag k="natural" v="wetland" />
		<tag k="ssr:stedsnr" v="429501" />
	</node>
	<node lat="59.72384167114638" lon="9.777127774921338" id="-18511">
		<tag k="name" v="Løken" />
		<tag k="natural" v="wetland" />
		<tag k="ssr:stedsnr" v="511118" />
	</node>
	<node lat="59.86153802207655" lon="9.988290490246586" id="-18513">
		<tag k="name" v="Laupendmyrene" />
		<tag k="natural" v="wetland" />
		<tag k="ssr:stedsnr" v="511625" />
	</node>
	<node lat="59.8594111132427" lon="9.717047222987897" id="-18514">
		<tag k="name" v="Torrudmyra" />
		<tag k="natural" v="wetland" />
		<tag k="ssr:stedsnr" v="511367" />
	</node>
	<node lat="59.819188888613624" lon="9.971538896754259" id="-18518">
		<tag k="name" v="Drammenstjernmyrene" />
		<tag k="natural" v="wetland" />
		<tag k="ssr:stedsnr" v="511565" />
	</node>
	<node lat="59.84931388461206" lon="9.97032500871605" id="-18520">
		<tag k="name" v="Rolighetsmyrene" />
		<tag k="natural" v="wetland" />
		<tag k="ssr:stedsnr" v="511570" />
	</node>
	<node lat="59.862455552735355" lon="9.944202781087313" id="-18523">
		<tag k="historic" v="shieling" />
		<tag k="name" v="Hellenevollen" />
		<tag k="place" v="locality" />
		<tag k="ssr:stedsnr" v="511647" />
	</node>
	<node lat="59.80536110742931" lon="9.823536114751832" id="-18526">
		<tag k="name" v="Kyllingmyr" />
		<tag k="natural" v="wetland" />
		<tag k="ssr:stedsnr" v="511928" />
	</node>
	<node lat="59.71425093003565" lon="9.724215398186022" id="-18541">
		<tag k="name" v="Hestedalsmyrene" />
		<tag k="natural" v="wetland" />
		<tag k="ssr:stedsnr" v="513831" />
	</node>
	<node lat="59.80055000117304" lon="9.80394166450605" id="-18568">
		<tag k="alt_name" v="Gørrmyra" />
		<tag k="name" v="Gørrmyr" />
		<tag k="natural" v="wetland" />
		<tag k="ssr:stedsnr" v="550489" />
	</node>
	<node lat="59.86521389204625" lon="9.980211104276373" id="-18583">
		<tag k="name" v="Grasåsmyrene" />
		<tag k="natural" v="wetland" />
		<tag k="ssr:stedsnr" v="571622" />
	</node>
	<node lat="59.741363885846255" lon="9.829627777630465" id="-18594">
		<tag k="name" v="Hovenga" />
		<tag k="place" v="locality" />
		<tag k="ssr:stedsnr" v="573451" />
	</node>
	<node lat="59.65533055676803" lon="9.829558340898227" id="-18600">
		<tag k="name" v="Ursvannsholen" />
		<tag k="natural" v="wetland" />
		<tag k="ssr:stedsnr" v="574993" />
	</node>
	<node lat="59.657288888947534" lon="9.802488894771562" id="-18634">
		<tag k="name" v="Vassdalen" />
		<tag k="natural" v="wetland" />
		<tag k="ssr:stedsnr" v="630465" />
	</node>
	<node lat="59.87576389004089" lon="9.796294444279976" id="-18637">
		<tag k="historic" v="shieling" />
		<tag k="name" v="Sørliplassen" />
		<tag k="place" v="locality" />
		<tag k="ssr:stedsnr" v="632492" />
	</node>
	<node lat="59.72007777731602" lon="9.77453333919366" id="-18687">
		<tag k="name" v="Løken" />
		<tag k="natural" v="wetland" />
		<tag k="ssr:stedsnr" v="752567" />
	</node>
	<node lat="59.71693889207872" lon="9.763477769627336" id="-18688">
		<tag k="historic" v="shieling" />
		<tag k="name" v="Rudseter" />
		<tag k="place" v="locality" />
		<tag k="ssr:stedsnr" v="752568" />
	</node>
	<node lat="59.85753611375364" lon="9.724313886977184" id="-18690">
		<tag k="name" v="Revemyr" />
		<tag k="natural" v="wetland" />
		<tag k="ssr:stedsnr" v="753318" />
	</node>
	<node lat="59.83851110973659" lon="9.876344435839478" id="-18703">
		<tag k="landuse" v="quarry" />
		<tag k="name" v="Hærebrusand" />
		<tag k="ssr:stedsnr" v="754597" />
	</node>
	<node lat="59.66089166670528" lon="9.827583325160973" id="-18714">
		<tag k="name" v="Gråurd" />
		<tag k="natural" v="stone" />
		<tag k="ssr:stedsnr" v="755566" />
	</node>
	<node lat="59.784230551846534" lon="9.884700001770481" id="-18777">
		<tag k="name" v="Hoensmarka" />
		<tag k="place" v="locality" />
		<tag k="ssr:stedsnr" v="815739" />
	</node>
	<node lat="59.77440278137529" lon="9.741144441773518" id="-18782">
		<tag k="name" v="Bjørnemyr" />
		<tag k="natural" v="wetland" />
		<tag k="ssr:stedsnr" v="815934" />
	</node>
	<node lat="59.71915833478272" lon="9.966102778882226" id="-18784">
		<tag k="name" v="Fjellsmyr" />
		<tag k="natural" v="wetland" />
		<tag k="ssr:stedsnr" v="816501" />
	</node>
	<node lat="59.85908889080492" lon="9.715005548600137" id="-18822">
		<tag k="name" v="Storemyr" />
		<tag k="natural" v="wetland" />
		<tag k="ssr:stedsnr" v="875377" />
	</node>
	<node lat="59.67463332993235" lon="9.997722226561049" id="-18845">
		<tag k="name" v="Vinkelmyra" />
		<tag k="natural" v="wetland" />
		<tag k="ssr:stedsnr" v="877267" />
	</node>
	<node lat="59.67028333148899" lon="9.996272219982025" id="-18846">
		<tag k="name" v="Gråura" />
		<tag k="natural" v="stone" />
		<tag k="ssr:stedsnr" v="877269" />
	</node>
	<node lat="59.65379444806212" lon="9.861702780966063" id="-18858">
		<tag k="name" v="Bjørnåta" />
		<tag k="natural" v="wetland" />
		<tag k="ssr:stedsnr" v="878996" />
	</node>
	<node lat="59.87181198001905" lon="9.721026776106685" id="-18863">
		<tag k="name" v="Haugane" />
		<tag k="place" v="locality" />
		<tag k="ssr:stedsnr" v="936368" />
	</node>
	<node lat="59.87823047012074" lon="9.741862320650128" id="-18865">
		<tag k="name" v="Kastbråten" />
		<tag k="place" v="locality" />
		<tag k="ssr:stedsnr" v="936372" />
	</node>
	<node lat="59.720913890423375" lon="9.965422227908897" id="-18877">
		<tag k="name" v="Askemyr" />
		<tag k="natural" v="wetland" />
		<tag k="ssr:stedsnr" v="938476" />
	</node>
	<node lat="59.7137472261398" lon="9.950891668657082" id="-18878">
		<tag k="name" v="Langemyr" />
		<tag k="natural" v="wetland" />
		<tag k="ssr:stedsnr" v="938479" />
	</node>
</osm>
