<?xml version="1.0" encoding="UTF-8"?>
<<<<<<< HEAD
<osm version="0.6" generator="osmapis">
	<node lat="59.73334999776823" lon="9.757638893507522" id="-13217">
		<tag k="name" v="Steinbekk" />
		<tag k="ssr:stedsnr" v="3637" />
		<tag k="waterway" v="stream" />
	</node>
	<node lat="59.78809999815551" lon="9.813313893402677" id="-13222">
		<tag k="name" v="Hoenselva" />
		<tag k="ssr:stedsnr" v="4524" />
		<tag k="waterway" v="stream" />
	</node>
	<node lat="59.809908330227934" lon="9.934322228296896" id="-13223">
		<tag k="name" v="Storøya" />
		<tag k="place" v="island" />
		<tag k="ssr:stedsnr" v="4546" />
	</node>
	<node lat="59.830469442672275" lon="9.735966664174345" id="-13235">
		<tag k="name" v="Nytjern" />
		<tag k="natural" v="water" />
		<tag k="ssr:stedsnr" v="25703" />
	</node>
	<node lat="59.749619447207685" lon="9.73788610971832" id="-13238">
		<tag k="name" v="Øvre Høngassen" />
		<tag k="natural" v="water" />
		<tag k="ssr:stedsnr" v="26421" />
	</node>
	<node lat="59.75259999808684" lon="9.741411116713792" id="-13239">
		<tag k="name" v="Rørtjern" />
		<tag k="natural" v="water" />
		<tag k="ssr:stedsnr" v="26423" />
	</node>
	<node lat="59.701677773834184" lon="9.862197223518287" id="-13247">
		<tag k="name" v="Sandsbukta" />
		<tag k="natural" v="bay" />
		<tag k="ssr:stedsnr" v="28506" />
	</node>
	<node lat="59.668988890440694" lon="9.965849996189885" id="-13254">
		<tag k="name" v="Seterbekken" />
		<tag k="ssr:stedsnr" v="64136" />
		<tag k="waterway" v="stream" />
	</node>
	<node lat="59.62285272744929" lon="9.865889307145167" id="-13255">
		<tag k="alt_name" v="Store Fiskelaus" />
		<tag k="name" v="Store Fiskelausen" />
		<tag k="natural" v="water" />
		<tag k="ssr:stedsnr" v="64520" />
		<tag k="water" v="lake" />
	</node>
	<node lat="59.638674996594396" lon="9.86716110379444" id="-13256">
		<tag k="name" v="Buvann" />
		<tag k="natural" v="water" />
		<tag k="ssr:stedsnr" v="64538" />
	</node>
	<node lat="59.81480833560506" lon="9.757049995029018" id="-13257">
		<tag k="name" v="Hølbekken" />
		<tag k="ssr:stedsnr" v="64541" />
		<tag k="waterway" v="stream" />
	</node>
	<node lat="59.68850555409459" lon="9.800833324689236" id="-13258">
		<tag k="name" v="Delerelva" />
		<tag k="ssr:stedsnr" v="64601" />
		<tag k="waterway" v="stream" />
	</node>
	<node lat="59.7665611233607" lon="9.798637409313653" id="-13261">
		<tag k="name" v="Bergsvannet" />
		<tag k="natural" v="water" />
		<tag k="ssr:stedsnr" v="65500" />
	</node>
	<node lat="59.62087500088249" lon="9.90207777684371" id="-13268">
		<tag k="name" v="Vesle Ålevann" />
		<tag k="natural" v="water" />
		<tag k="ssr:stedsnr" v="85875" />
	</node>
	<node lat="59.74424444676119" lon="9.73568055387355" id="-13276">
		<tag k="name" v="Stigertjern" />
		<tag k="natural" v="water" />
		<tag k="ssr:stedsnr" v="87391" />
	</node>
	<node lat="59.685041666462496" lon="9.947858325556977" id="-13282">
		<tag k="name" v="Setertjern" />
		<tag k="natural" v="water" />
		<tag k="ssr:stedsnr" v="88131" />
	</node>
	<node lat="59.59289994894913" lon="9.902889955895068" id="-13291">
		<tag k="alt_name" v="Auretjern" />
		<tag k="name" v="Auretjernet" />
		<tag k="natural" v="water" />
		<tag k="ssr:stedsnr" v="246438" />
	</node>
	<node lat="59.613888892769054" lon="9.862599997731095" id="-13293">
		<tag k="alt_name" v="Svartjern" />
		<tag k="name" v="Store Svarttjern" />
		<tag k="natural" v="water" />
		<tag k="ssr:stedsnr" v="246477" />
	</node>
	<node lat="59.759200002138776" lon="9.928961105097764" id="-13294">
		<tag k="name" v="Loselva" />
		<tag k="ssr:stedsnr" v="246537" />
		<tag k="waterway" v="river" />
	</node>
	<node lat="59.821191665348806" lon="9.93990000091646" id="-13299">
		<tag k="alt_name" v="Gjeveltseterbekken" />
		<tag k="name" v="Geveltseterbekken" />
		<tag k="ssr:stedsnr" v="246679" />
		<tag k="waterway" v="stream" />
	</node>
	<node lat="59.737302774658005" lon="9.714211104079757" id="-13300">
		<tag k="name" v="Nordre Svarttjern" />
		<tag k="natural" v="water" />
		<tag k="ssr:stedsnr" v="246647" />
	</node>
	<node lat="59.79717777827517" lon="9.951591672602278" id="-13306">
		<tag k="name" v="Stikkabekken" />
		<tag k="ssr:stedsnr" v="247487" />
		<tag k="waterway" v="stream" />
	</node>
	<node lat="59.80143248022332" lon="9.938583994691987" id="-13307">
		<tag k="name" v="Ormetjern" />
		<tag k="natural" v="water" />
		<tag k="ssr:stedsnr" v="247488" />
	</node>
	<node lat="59.85632258191654" lon="9.957530691809241" id="-13310">
		<tag k="name" v="Kringletjern" />
		<tag k="natural" v="water" />
		<tag k="ssr:stedsnr" v="247720" />
	</node>
	<node lat="59.67257499606885" lon="9.842508325524879" id="-13314">
		<tag k="name" v="Skallerudtjern" />
		<tag k="natural" v="water" />
		<tag k="ssr:stedsnr" v="124511" />
	</node>
	<node lat="59.72606314912942" lon="9.737406541395204" id="-13322">
		<tag k="alt_name" v="Brennåstjernet" />
		<tag k="name" v="Brennåstjern" />
		<tag k="natural" v="water" />
		<tag k="ssr:stedsnr" v="124602" />
	</node>
	<node lat="59.84642778142922" lon="10.009108327816184" id="-13327">
		<tag k="alt_name" v="Stordypingen" />
		<tag k="name" v="Store Dypingen" />
		<tag k="natural" v="water" />
		<tag k="ssr:stedsnr" v="125318" />
		<tag k="water" v="lake" />
	</node>
	<node lat="59.693900003307235" lon="9.988105557864984" id="-13347">
		<tag k="name" v="Øvre Fisketjern" />
		<tag k="natural" v="water" />
		<tag k="ssr:stedsnr" v="148156" />
	</node>
	<node lat="59.68113332966202" lon="9.744408338368858" id="-13351">
		<tag k="name" v="Liverudbekken" />
		<tag k="ssr:stedsnr" v="148675" />
		<tag k="waterway" v="stream" />
	</node>
	<node lat="59.60837303405571" lon="9.903986134373765" id="-13356">
		<tag k="alt_name" v="Søndre Skattjernet" />
		<tag k="name" v="Søndre Skattjern" />
		<tag k="natural" v="water" />
		<tag k="ssr:stedsnr" v="185405" />
	</node>
	<node lat="59.84666110875194" lon="9.979363887421611" id="-13362">
=======
<osm generator="osmapis" version="0.6">
	<node id="-288768" lat="59.6335555526" lon="9.9351833394">
		<tag k="name" v="Vesleelva" />
		<tag k="ssr:stedsnr" v="388734" />
		<tag k="waterway" v="stream" />
	</node>
	<node id="-288758" lat="59.8765638851" lon="9.78647222844">
		<tag k="name" v="Gleinebekken" />
		<tag k="ssr:stedsnr" v="368671" />
		<tag k="waterway" v="stream" />
	</node>
	<node id="-288756" lat="59.7797265783" lon="9.78007641885">
		<tag k="alt_name" v="Asktjern" />
		<tag k="name" v="Asketjern" />
		<tag k="natural" v="water" />
		<tag k="ssr:stedsnr" v="368639" />
	</node>
	<node id="-288746" lat="59.8540583333" lon="9.97843889164">
		<tag k="name" v="Kalvetjern" />
		<tag k="natural" v="water" />
		<tag k="ssr:stedsnr" v="368282" />
	</node>
	<node id="-288742" lat="59.7371777792" lon="9.7894638964">
		<tag k="name" v="Jungerbekken" />
		<tag k="ssr:stedsnr" v="367672" />
		<tag k="waterway" v="stream" />
	</node>
	<node id="-288741" lat="59.743930617" lon="9.79712160139">
		<tag k="alt_name" v="Kolbergtjernet" />
		<tag k="name" v="Kolbergtjern" />
		<tag k="natural" v="water" />
		<tag k="ssr:stedsnr" v="367668" />
	</node>
	<node id="-288738" lat="59.7187583368" lon="9.93067778565">
		<tag k="name" v="Røkebergtjerna" />
		<tag k="natural" v="water" />
		<tag k="ssr:stedsnr" v="367625" />
	</node>
	<node id="-288734" lat="59.6975494999" lon="9.96275007495">
		<tag k="alt_name" v="Viertjerna" />
		<tag k="name" v="Vierdammene" />
		<tag k="natural" v="water" />
		<tag k="ssr:stedsnr" v="367584" />
		<tag k="water" v="lake" />
	</node>
	<node id="-288729" lat="59.6787847028" lon="9.95669640914">
		<tag k="name" v="Kimetjern" />
		<tag k="natural" v="water" />
		<tag k="ssr:stedsnr" v="367532" />
	</node>
	<node id="-288728" lat="59.7638033678" lon="9.92723949251">
		<tag k="name" v="Losmoen" />
		<tag k="place" v="island" />
		<tag k="ssr:stedsnr" v="367519" />
	</node>
	<node id="-288726" lat="59.6593536036" lon="9.85909198263">
		<tag k="alt_name" v="Kasttjern" />
		<tag k="name" v="Karstjern" />
		<tag k="natural" v="water" />
		<tag k="ssr:stedsnr" v="367514" />
	</node>
	<node id="-288725" lat="59.762092238" lon="9.79509803412">
		<tag k="name" v="Bergsvannet" />
		<tag k="natural" v="water" />
		<tag k="ssr:stedsnr" v="367511" />
	</node>
	<node id="-288724" lat="59.7598305536" lon="9.71940832812">
		<tag k="name" v="Vesletjern" />
		<tag k="natural" v="water" />
		<tag k="ssr:stedsnr" v="367510" />
	</node>
	<node id="-288723" lat="59.7631673116" lon="9.72233453808">
		<tag k="name" v="Mellomtjern" />
		<tag k="natural" v="water" />
		<tag k="ssr:stedsnr" v="367507" />
	</node>
	<node id="-288719" lat="59.6073750015" lon="9.89729444978">
		<tag k="name" v="Tistillen" />
		<tag k="natural" v="water" />
		<tag k="ssr:stedsnr" v="367376" />
		<tag k="water" v="lake" />
	</node>
	<node id="-288714" lat="59.660086115" lon="9.99821389688">
		<tag k="name" v="Tryterudelva" />
		<tag k="ssr:stedsnr" v="332297" />
		<tag k="waterway" v="stream" />
	</node>
	<node id="-288710" lat="59.6579666625" lon="9.83447222812">
		<tag k="name" v="Åbborkulpene" />
		<tag k="natural" v="water" />
		<tag k="ssr:stedsnr" v="331560" />
		<tag k="water" v="pond" />
	</node>
	<node id="-288689" lat="59.7295166692" lon="9.89467221428">
		<tag k="name" v="Dammen" />
		<tag k="ssr:stedsnr" v="329275" />
		<tag k="waterway" v="dam" />
	</node>
	<node id="-288684" lat="59.7220638881" lon="9.66639443784">
		<tag k="name" v="Skarsbekken" />
		<tag k="ssr:stedsnr" v="327729" />
		<tag k="waterway" v="stream" />
	</node>
	<node id="-288680" lat="59.7186777736" lon="9.68239444167">
		<tag k="name" v="Tuetjern" />
		<tag k="natural" v="water" />
		<tag k="ssr:stedsnr" v="326972" />
	</node>
	<node id="-288678" lat="59.8456542976" lon="9.74300423396">
		<tag k="name" v="Åbbortjern" />
		<tag k="natural" v="water" />
		<tag k="ssr:stedsnr" v="308735" />
	</node>
	<node id="-288675" lat="59.8379071923" lon="9.71853865931">
		<tag k="name" v="Nedre Myresetertjern" />
		<tag k="natural" v="water" />
		<tag k="ssr:stedsnr" v="307747" />
	</node>
	<node id="-288669" lat="59.7717826868" lon="9.74688897808">
		<tag k="name" v="Kroktjern" />
		<tag k="natural" v="water" />
		<tag k="ssr:stedsnr" v="307628" />
	</node>
	<node id="-288667" lat="59.7843638868" lon="9.73604444169">
		<tag k="alt_name" v="Prestvannelva" />
		<tag k="name" v="Prestvannselva" />
		<tag k="ssr:stedsnr" v="307609" />
		<tag k="waterway" v="stream" />
	</node>
	<node id="-288664" lat="59.8085728723" lon="9.92727285401">
		<tag k="name" v="Lystjern" />
		<tag k="natural" v="water" />
		<tag k="ssr:stedsnr" v="307567" />
	</node>
	<node id="-288662" lat="59.6220531923" lon="9.9101823602">
		<tag k="alt_name" v="Blikktjernet" />
		<tag k="name" v="Blikktjern" />
		<tag k="natural" v="water" />
		<tag k="ssr:stedsnr" v="307530" />
	</node>
	<node id="-288660" lat="59.8193499973" lon="9.98209443809">
		<tag k="alt_name" v="Kjellertjernet" />
		<tag k="name" v="Kjellertjern" />
		<tag k="natural" v="water" />
		<tag k="ssr:stedsnr" v="307239" />
	</node>
	<node id="-288653" lat="59.7161361103" lon="9.71427500338">
		<tag k="name" v="Grønntjern" />
		<tag k="natural" v="water" />
		<tag k="ssr:stedsnr" v="306590" />
	</node>
	<node id="-288646" lat="59.8458611078" lon="9.79743055677">
		<tag k="name" v="Totjerna" />
		<tag k="natural" v="water" />
		<tag k="ssr:stedsnr" v="210651" />
		<tag k="water" v="lake" />
	</node>
	<node id="-288640" lat="59.6840805523" lon="9.72820000443">
		<tag k="name" v="Jøranrudmoen" />
		<tag k="ssr:stedsnr" v="209659" />
		<tag k="waterway" v="stream" />
	</node>
	<node id="-288637" lat="59.7671777818" lon="9.74260278119">
		<tag k="name" v="Frågåttjern" />
		<tag k="natural" v="water" />
		<tag k="ssr:stedsnr" v="208916" />
	</node>
	<node id="-288636" lat="59.7229333298" lon="9.7143055546">
		<tag k="name" v="Kjerringtjern" />
		<tag k="natural" v="water" />
		<tag k="ssr:stedsnr" v="208881" />
	</node>
	<node id="-288626" lat="59.6128472211" lon="9.86909167332">
		<tag k="name" v="Vesle Svarttjern" />
		<tag k="natural" v="water" />
		<tag k="ssr:stedsnr" v="208588" />
	</node>
	<node id="-288620" lat="59.7694805546" lon="9.76613610336">
		<tag k="name" v="Totjerna" />
		<tag k="natural" v="water" />
		<tag k="ssr:stedsnr" v="208085" />
	</node>
	<node id="-288614" lat="59.8122166691" lon="9.93234444492">
		<tag k="name" v="Skarsstøa" />
		<tag k="natural" v="beach" />
		<tag k="ssr:stedsnr" v="207579" />
	</node>
	<node id="-288613" lat="59.7270249993" lon="9.95253888793">
		<tag k="name" v="Horneroa" />
		<tag k="natural" v="bay" />
		<tag k="ssr:stedsnr" v="207326" />
	</node>
	<node id="-288610" lat="59.620111113" lon="9.88891388875">
		<tag k="name" v="Vesle Brånevann" />
		<tag k="natural" v="water" />
		<tag k="ssr:stedsnr" v="206885" />
	</node>
	<node id="-288607" lat="59.7166222185" lon="9.68334721815">
		<tag k="name" v="Karusstjern" />
		<tag k="natural" v="water" />
		<tag k="ssr:stedsnr" v="205974" />
	</node>
	<node id="-288600" lat="59.837058337" lon="9.74364444112">
		<tag k="name" v="Sandtjern" />
		<tag k="natural" v="water" />
		<tag k="ssr:stedsnr" v="186725" />
	</node>
	<node id="-288596" lat="59.7523858263" lon="9.72494910235">
		<tag k="name" v="Steintjern" />
		<tag k="natural" v="water" />
		<tag k="ssr:stedsnr" v="186632" />
	</node>
	<node id="-288593" lat="59.8089416656" lon="9.95408333537">
		<tag k="name" v="Butjern" />
		<tag k="natural" v="water" />
		<tag k="ssr:stedsnr" v="186600" />
	</node>
	<node id="-288590" lat="59.8466611088" lon="9.97936388742">
>>>>>>> e1d4bc35ff8a6074a6f2e91616a996b547c36f15
		<tag k="alt_name" v="Dælatjern" />
		<tag k="name" v="Daletjern" />
		<tag k="natural" v="water" />
		<tag k="ssr:stedsnr" v="186310" />
	</node>
<<<<<<< HEAD
	<node lat="59.75238582633279" lon="9.724949102347507" id="-13364">
		<tag k="name" v="Steintjern" />
		<tag k="natural" v="water" />
		<tag k="ssr:stedsnr" v="186632" />
	</node>
	<node lat="59.80894166564958" lon="9.95408333536694" id="-13369">
		<tag k="name" v="Butjern" />
		<tag k="natural" v="water" />
		<tag k="ssr:stedsnr" v="186600" />
	</node>
	<node lat="59.8781598038748" lon="9.705696718115421" id="-13380">
		<tag k="name" v="Svartbekken" />
		<tag k="ssr:stedsnr" v="268369" />
		<tag k="waterway" v="stream" />
	</node>
	<node lat="59.62011111296494" lon="9.88891388875205" id="-13382">
		<tag k="name" v="Vesle Brånevann" />
		<tag k="natural" v="water" />
		<tag k="ssr:stedsnr" v="206885" />
	</node>
	<node lat="59.769480554615406" lon="9.76613610335648" id="-13386">
		<tag k="name" v="Totjerna" />
		<tag k="natural" v="water" />
		<tag k="ssr:stedsnr" v="208085" />
	</node>
	<node lat="59.612847221132064" lon="9.86909167331939" id="-13391">
		<tag k="name" v="Vesle Svarttjern" />
		<tag k="natural" v="water" />
		<tag k="ssr:stedsnr" v="208588" />
	</node>
	<node lat="59.75144999576491" lon="9.77065555235847" id="-13399">
		<tag k="name" v="Svarttjern" />
		<tag k="natural" v="water" />
		<tag k="ssr:stedsnr" v="209209" />
	</node>
	<node lat="59.89380833094863" lon="9.721725003773786" id="-13406">
		<tag k="name" v="Djupedalsbekken" />
		<tag k="ssr:stedsnr" v="269409" />
		<tag k="waterway" v="stream" />
	</node>
	<node lat="59.77704444710825" lon="9.90529722196935" id="-13410">
		<tag k="name" v="Risøra" />
		<tag k="natural" v="cape" />
		<tag k="ssr:stedsnr" v="269851" />
	</node>
	<node lat="59.68718055668751" lon="9.965511104488801" id="-13414">
		<tag k="name" v="Skistadtjern" />
		<tag k="natural" v="water" />
		<tag k="ssr:stedsnr" v="270198" />
	</node>
	<node lat="59.725052774969264" lon="9.947091662121336" id="-13431">
		<tag k="name" v="Sandgrunn" />
		<tag k="natural" v="bay" />
		<tag k="ssr:stedsnr" v="450338" />
	</node>
	<node lat="59.85362221785582" lon="10.046308335690078" id="-13432">
		<tag k="name" v="Sandungselva" />
		<tag k="ssr:stedsnr" v="450682" />
		<tag k="waterway" v="stream" />
	</node>
	<node lat="59.836713890405164" lon="10.012733324596644" id="-13433">
		<tag k="name" v="Hobbelstadtjern" />
		<tag k="natural" v="water" />
		<tag k="ssr:stedsnr" v="450630" />
	</node>
	<node lat="59.81626666924256" lon="9.919202779581815" id="-13434">
		<tag k="alt_name" v="Framre Småtjern" />
		<tag k="name" v="Fremre Småtjern" />
		<tag k="natural" v="water" />
		<tag k="ssr:stedsnr" v="450634" />
	</node>
	<node lat="59.82317777767446" lon="9.897324995592971" id="-13436">
		<tag k="name" v="Kverk hengsle" />
		<tag k="natural" v="cape" />
		<tag k="ssr:stedsnr" v="450639" />
	</node>
	<node lat="59.834647223791485" lon="9.980069448936765" id="-13441">
		<tag k="name" v="Søndre Trollåstjern" />
		<tag k="natural" v="water" />
		<tag k="ssr:stedsnr" v="450657" />
	</node>
	<node lat="59.59187499824541" lon="9.919836106519801" id="-13448">
		<tag k="name" v="Kutjern" />
		<tag k="natural" v="water" />
		<tag k="ssr:stedsnr" v="451526" />
	</node>
	<node lat="59.59124473442969" lon="9.91566480691542" id="-13449">
		<tag k="name" v="Vesle Øksne" />
		<tag k="natural" v="water" />
		<tag k="ssr:stedsnr" v="451527" />
		<tag k="water" v="lake" />
	</node>
	<node lat="59.66987222338161" lon="9.868636109333215" id="-13454">
		<tag k="name" v="Gunhildrudbekken" />
		<tag k="ssr:stedsnr" v="452595" />
		<tag k="waterway" v="stream" />
	</node>
	<node lat="59.784786111306595" lon="9.90311389126352" id="-13455">
		<tag k="name" v="Landskjæret" />
		<tag k="place" v="islet" />
		<tag k="ssr:stedsnr" v="451850" />
	</node>
	<node lat="59.637849997356454" lon="9.887308338238416" id="-13461">
		<tag k="name" v="Svarttjern" />
		<tag k="natural" v="water" />
		<tag k="ssr:stedsnr" v="246513" />
	</node>
	<node lat="59.635924388895525" lon="9.895647554626812" id="-13463">
		<tag k="name" v="Øytjern" />
		<tag k="natural" v="water" />
		<tag k="ssr:stedsnr" v="246516" />
	</node>
	<node lat="59.77984292636285" lon="9.803068411788281" id="-13473">
		<tag k="name" v="Himsjø" />
		<tag k="natural" v="water" />
		<tag k="ssr:stedsnr" v="247573" />
		<tag k="water" v="lake" />
	</node>
	<node lat="59.72565833346842" lon="9.938688897363399" id="-13487">
		<tag k="name" v="Kuleroa" />
		<tag k="natural" v="bay" />
		<tag k="ssr:stedsnr" v="268337" />
	</node>
	<node lat="59.801852773393094" lon="9.967955554297632" id="-13488">
		<tag k="name" v="Lillebyputten" />
		<tag k="natural" v="water" />
		<tag k="ssr:stedsnr" v="268506" />
		<tag k="water" v="pond" />
	</node>
	<node lat="59.8212447864493" lon="9.976712142086383" id="-13493">
		<tag k="name" v="Drammenstjern" />
		<tag k="natural" v="water" />
		<tag k="ssr:stedsnr" v="268587" />
	</node>
	<node lat="59.59493611230485" lon="9.905525003728545" id="-13496">
		<tag k="name" v="Makrelltjern" />
		<tag k="natural" v="water" />
		<tag k="ssr:stedsnr" v="269528" />
	</node>
	<node lat="59.610838893318714" lon="9.879152778148953" id="-13497">
		<tag k="name" v="Burvannskulpen" />
		<tag k="natural" v="water" />
		<tag k="ssr:stedsnr" v="269530" />
	</node>
	<node lat="59.71951389272996" lon="9.930569444372226" id="-13504">
		<tag k="name" v="Stortjern" />
		<tag k="natural" v="water" />
		<tag k="ssr:stedsnr" v="270475" />
		<tag k="water" v="lake" />
	</node>
	<node lat="59.81311111127101" lon="9.731541668267125" id="-13506">
		<tag k="name" v="Honsetertjern" />
		<tag k="natural" v="water" />
		<tag k="ssr:stedsnr" v="270587" />
	</node>
	<node lat="59.78436388677201" lon="9.736044441689682" id="-13514">
		<tag k="alt_name" v="Prestvannelva" />
		<tag k="name" v="Prestvannselva" />
		<tag k="ssr:stedsnr" v="307609" />
		<tag k="waterway" v="stream" />
	</node>
	<node lat="59.80857287227081" lon="9.927272854011228" id="-13517">
		<tag k="name" v="Lystjern" />
		<tag k="natural" v="water" />
		<tag k="ssr:stedsnr" v="307567" />
	</node>
	<node lat="59.83790719233851" lon="9.718538659310214" id="-13521">
		<tag k="name" v="Nedre Myresetertjern" />
		<tag k="natural" v="water" />
		<tag k="ssr:stedsnr" v="307747" />
	</node>
	<node lat="59.657966662504265" lon="9.834472228118688" id="-13537">
		<tag k="name" v="Åbborkulpene" />
		<tag k="natural" v="water" />
		<tag k="ssr:stedsnr" v="331560" />
		<tag k="water" v="pond" />
	</node>
	<node lat="59.66008611496483" lon="9.998213896879548" id="-13539">
		<tag k="name" v="Tryterudelva" />
		<tag k="ssr:stedsnr" v="332297" />
		<tag k="waterway" v="stream" />
	</node>
	<node lat="59.607375001508025" lon="9.89729444978022" id="-13544">
		<tag k="name" v="Tistillen" />
		<tag k="natural" v="water" />
		<tag k="ssr:stedsnr" v="367376" />
		<tag k="water" v="lake" />
	</node>
	<node lat="59.76316731157903" lon="9.7223345380763" id="-13545">
		<tag k="name" v="Mellomtjern" />
		<tag k="natural" v="water" />
		<tag k="ssr:stedsnr" v="367507" />
	</node>
	<node lat="59.759830553624596" lon="9.71940832812116" id="-13546">
		<tag k="name" v="Vesletjern" />
		<tag k="natural" v="water" />
		<tag k="ssr:stedsnr" v="367510" />
	</node>
	<node lat="59.76209223804238" lon="9.795098034116384" id="-13547">
		<tag k="name" v="Bergsvannet" />
		<tag k="natural" v="water" />
		<tag k="ssr:stedsnr" v="367511" />
	</node>
	<node lat="59.659353603639794" lon="9.859091982631135" id="-13548">
		<tag k="alt_name" v="Kasttjern" />
		<tag k="name" v="Karstjern" />
		<tag k="natural" v="water" />
		<tag k="ssr:stedsnr" v="367514" />
	</node>
	<node lat="59.71875833676461" lon="9.930677785650744" id="-13554">
		<tag k="name" v="Røkebergtjerna" />
		<tag k="natural" v="water" />
		<tag k="ssr:stedsnr" v="367625" />
	</node>
	<node lat="59.69754949986812" lon="9.96275007494808" id="-13556">
		<tag k="alt_name" v="Viertjerna" />
		<tag k="name" v="Vierdammene" />
		<tag k="natural" v="water" />
		<tag k="ssr:stedsnr" v="367584" />
		<tag k="water" v="lake" />
	</node>
	<node lat="59.737177779249095" lon="9.789463896396741" id="-13558">
		<tag k="name" v="Jungerbekken" />
		<tag k="ssr:stedsnr" v="367672" />
		<tag k="waterway" v="stream" />
	</node>
	<node lat="59.854058333349315" lon="9.978438891636397" id="-13559">
		<tag k="name" v="Kalvetjern" />
		<tag k="natural" v="water" />
		<tag k="ssr:stedsnr" v="368282" />
	</node>
	<node lat="59.87656388513505" lon="9.786472228443817" id="-13562">
		<tag k="name" v="Gleinebekken" />
		<tag k="ssr:stedsnr" v="368671" />
		<tag k="waterway" v="stream" />
	</node>
	<node lat="59.87400426684655" lon="9.938744408101037" id="-13563">
		<tag k="name" v="Heståstjern" />
		<tag k="natural" v="water" />
		<tag k="ssr:stedsnr" v="368677" />
	</node>
	<node lat="59.71278610820317" lon="9.684072215090534" id="-13566">
		<tag k="name" v="Lauvlitjern" />
		<tag k="natural" v="water" />
		<tag k="ssr:stedsnr" v="387972" />
	</node>
	<node lat="59.841791665921065" lon="9.743569451630306" id="-13574">
		<tag k="name" v="Svarttjern" />
		<tag k="natural" v="water" />
		<tag k="ssr:stedsnr" v="389730" />
	</node>
	<node lat="59.785475004122766" lon="9.797394441709931" id="-13575">
		<tag k="name" v="Himsjødammen" />
		<tag k="ssr:stedsnr" v="390092" />
		<tag k="waterway" v="dam" />
	</node>
	<node lat="59.77993332893908" lon="9.79544721739103" id="-13576">
		<tag k="name" v="Honseelva" />
		<tag k="ssr:stedsnr" v="390093" />
		<tag k="waterway" v="stream" />
	</node>
	<node lat="59.60302222224451" lon="9.88802500057529" id="-13579">
		<tag k="name" v="Utryggbekken" />
		<tag k="ssr:stedsnr" v="390493" />
		<tag k="waterway" v="stream" />
	</node>
	<node lat="59.60218889236808" lon="9.881247228229576" id="-13580">
		<tag k="name" v="Stutauet" />
		<tag k="natural" v="water" />
		<tag k="ssr:stedsnr" v="390496" />
	</node>
	<node lat="59.618561108545386" lon="9.860247228128507" id="-13585">
		<tag k="name" v="Vesle Svarttjern" />
		<tag k="natural" v="water" />
		<tag k="ssr:stedsnr" v="390898" />
	</node>
	<node lat="59.81693055747909" lon="9.732016666852811" id="-13586">
		<tag k="name" v="Vesle Svarttjern" />
		<tag k="natural" v="water" />
		<tag k="ssr:stedsnr" v="391599" />
	</node>
	<node lat="59.71864166337336" lon="9.922911109160877" id="-13587">
		<tag k="name" v="Dammen" />
		<tag k="ssr:stedsnr" v="391496" />
		<tag k="waterway" v="dam" />
	</node>
	<node lat="59.64179166511948" lon="9.932863880011865" id="-13589">
		<tag k="name" v="Bogtangen" />
		<tag k="natural" v="cape" />
		<tag k="ssr:stedsnr" v="392235" />
	</node>
	<node lat="59.76843333656511" lon="9.734141665382877" id="-13593">
		<tag k="name" v="Svartskurdtjern" />
		<tag k="natural" v="water" />
		<tag k="ssr:stedsnr" v="489600" />
	</node>
	<node lat="59.62680000003514" lon="9.876113897373328" id="-13596">
		<tag k="name" v="Holmtjern" />
		<tag k="natural" v="water" />
		<tag k="ssr:stedsnr" v="488513" />
	</node>
	<node lat="59.64066944868621" lon="9.868811111695264" id="-13598">
		<tag k="alt_name" v="Steffens Blekktjern" />
		<tag k="name" v="Steffensblekktjernet" />
		<tag k="natural" v="water" />
		<tag k="ssr:stedsnr" v="488539" />
	</node>
	<node lat="59.790438726957" lon="9.76657143615106" id="-13605">
		<tag k="name" v="Hoensvannet" />
		<tag k="natural" v="water" />
		<tag k="ssr:stedsnr" v="489557" />
		<tag k="water" v="lake" />
	</node>
	<node lat="59.81276316009366" lon="9.774980484663851" id="-13606">
		<tag k="alt_name" v="Ammerudtjern" />
		<tag k="name" v="Ammenrudtjern" />
		<tag k="natural" v="water" />
		<tag k="ssr:stedsnr" v="489562" />
	</node>
	<node lat="59.80916944562872" lon="9.70927777323861" id="-13607">
		<tag k="name" v="Krokvassløkin" />
		<tag k="natural" v="water" />
		<tag k="ssr:stedsnr" v="489563" />
		<tag k="water" v="lake" />
	</node>
	<node lat="59.810892244297534" lon="9.789282041937481" id="-13609">
		<tag k="name" v="Nestvolltjern" />
		<tag k="natural" v="water" />
		<tag k="ssr:stedsnr" v="489572" />
	</node>
	<node lat="59.59931323394412" lon="9.919608310729663" id="-13614">
		<tag k="name" v="Øksne" />
		<tag k="natural" v="water" />
		<tag k="ssr:stedsnr" v="428421" />
		<tag k="water" v="lake" />
	</node>
	<node lat="59.782994441890104" lon="9.786188881645323" id="-13624">
		<tag k="name" v="Årbogen" />
		<tag k="natural" v="water" />
		<tag k="ssr:stedsnr" v="429585" />
	</node>
	<node lat="59.83805555534011" lon="9.893780559257966" id="-13627">
		<tag k="name" v="Oset" />
		<tag k="natural" v="bay" />
		<tag k="ssr:stedsnr" v="429674" />
	</node>
	<node lat="59.830936115104365" lon="10.006624992207593" id="-13629">
		<tag k="alt_name" v="Villinga" />
		<tag k="name" v="Vellingen" />
		<tag k="natural" v="water" />
		<tag k="ssr:stedsnr" v="671285" />
	</node>
	<node lat="59.873952782012985" lon="9.963911117027157" id="-13637">
		<tag k="fixme" v="multiple name tags, choose one and add the other to alt_name" />
		<tag k="name" v="Damtjern;Melumdamtjern" />
		<tag k="natural" v="water" />
		<tag k="ssr:stedsnr" v="671645" />
	</node>
	<node lat="59.57855000283442" lon="9.935227784560514" id="-13641">
		<tag k="alt_name" v="Mjøvann" />
		<tag k="name" v="Mjøvannet" />
		<tag k="natural" v="water" />
		<tag k="ssr:stedsnr" v="671489" />
		<tag k="water" v="lake" />
	</node>
	<node lat="59.839778816270545" lon="9.974392572007288" id="-13644">
		<tag k="name" v="Tretjerna" />
		<tag k="natural" v="water" />
		<tag k="ssr:stedsnr" v="451622" />
		<tag k="water" v="lake" />
	</node>
	<node lat="59.78466997333609" lon="9.721608344221407" id="-13649">
		<tag k="name" v="Prestvannet" />
		<tag k="natural" v="water" />
		<tag k="ssr:stedsnr" v="671588" />
		<tag k="water" v="lake" />
	</node>
	<node lat="59.74790277334767" lon="9.74235555493365" id="-13651">
		<tag k="alt_name" v="Høngassene" />
		<tag k="name" v="Nedre Høngassen" />
		<tag k="natural" v="water" />
		<tag k="ssr:stedsnr" v="671694" />
	</node>
	<node lat="59.83135922014868" lon="9.962667775897573" id="-13652">
		<tag k="name" v="Framre Skarstjern" />
		<tag k="natural" v="water" />
		<tag k="ssr:stedsnr" v="671695" />
	</node>
	<node lat="59.69705833127345" lon="9.89872221356542" id="-13656">
		<tag k="name" v="Hamreelva" />
		<tag k="ssr:stedsnr" v="452707" />
		<tag k="waterway" v="stream" />
	</node>
	<node lat="59.70253055802383" lon="9.908483330372508" id="-13658">
		<tag k="name" v="Kringletjern" />
		<tag k="natural" v="water" />
		<tag k="ssr:stedsnr" v="453703" />
	</node>
	<node lat="59.62701667049576" lon="9.850019443216636" id="-13660">
		<tag k="alt_name" v="Lille Fiskelaus" />
		<tag k="name" v="Lille Fiskelausen" />
		<tag k="natural" v="water" />
		<tag k="ssr:stedsnr" v="488502" />
	</node>
	<node lat="59.85708889147429" lon="10.01453611184264" id="-13667">
		<tag k="alt_name" v="Størtjern" />
		<tag k="name" v="Storrtjern" />
		<tag k="natural" v="water" />
		<tag k="ssr:stedsnr" v="489300" />
	</node>
	<node lat="59.82791252268025" lon="9.705603694716917" id="-13670">
		<tag k="name" v="Grølla" />
		<tag k="natural" v="water" />
		<tag k="ssr:stedsnr" v="489738" />
		<tag k="water" v="lake" />
	</node>
	<node lat="59.78414489290437" lon="9.949343358781038" id="-13671">
		<tag k="name" v="Hagatjern" />
		<tag k="natural" v="water" />
		<tag k="ssr:stedsnr" v="489636" />
	</node>
	<node lat="59.65051110892764" lon="9.992822230689304" id="-13672">
		<tag k="name" v="Tryterudelva" />
		<tag k="ssr:stedsnr" v="505133" />
		<tag k="waterway" v="stream" />
	</node>
	<node lat="59.60636944702903" lon="9.93128610676315" id="-13673">
		<tag k="name" v="Øksnedammen" />
		<tag k="ssr:stedsnr" v="509720" />
		<tag k="waterway" v="dam" />
	</node>
	<node lat="59.847499999446754" lon="9.713911113449802" id="-13677">
		<tag k="name" v="Nedre Blygåttjern" />
		<tag k="natural" v="water" />
		<tag k="ssr:stedsnr" v="511706" />
	</node>
	<node lat="59.67982222297418" lon="9.935180557313227" id="-13685">
		<tag k="name" v="Tørrbekken" />
		<tag k="ssr:stedsnr" v="513180" />
		<tag k="waterway" v="stream" />
	</node>
	<node lat="59.65490833502276" lon="9.95602223084741" id="-13686">
		<tag k="name" v="Sandvik" />
		<tag k="natural" v="bay" />
		<tag k="ssr:stedsnr" v="513229" />
	</node>
	<node lat="59.74073610697141" lon="10.207475005881625" id="-13691">
		<tag k="name" v="Drammenselva" />
		<tag k="ssr:stedsnr" v="548370" />
		<tag k="waterway" v="river" />
	</node>
	<node lat="59.63743610688312" lon="9.876869452039408" id="-13694">
		<tag k="name" v="Langtjern" />
		<tag k="natural" v="water" />
		<tag k="ssr:stedsnr" v="549516" />
	</node>
	<node lat="59.684727776897724" lon="9.960177777908283" id="-13695">
		<tag k="alt_name" v="Svarttjern" />
		<tag k="name" v="Øvre Svarttjern" />
		<tag k="natural" v="water" />
		<tag k="ssr:stedsnr" v="549555" />
	</node>
	<node lat="59.72578863878765" lon="9.777456456836173" id="-13697">
		<tag k="alt_name" v="Lundteigtjernet" />
		<tag k="name" v="Lundteigtjern" />
		<tag k="natural" v="water" />
		<tag k="ssr:stedsnr" v="549644" />
	</node>
	<node lat="59.89019166755946" lon="9.755469448700557" id="-13704">
		<tag k="name" v="Smedselva" />
		<tag k="ssr:stedsnr" v="550654" />
		<tag k="waterway" v="river" />
	</node>
	<node lat="59.86563333188203" lon="9.964958331359576" id="-13706">
		<tag k="name" v="Flåputten" />
		<tag k="natural" v="water" />
		<tag k="ssr:stedsnr" v="550714" />
	</node>
	<node lat="59.70825833578088" lon="9.66956665788496" id="-13714">
		<tag k="name" v="Surtjern" />
		<tag k="natural" v="water" />
		<tag k="ssr:stedsnr" v="569952" />
	</node>
	<node lat="59.81906944827303" lon="9.922719442411505" id="-13717">
		<tag k="name" v="Bjørneputten" />
		<tag k="natural" v="water" />
		<tag k="ssr:stedsnr" v="693630" />
		<tag k="water" v="pond" />
	</node>
	<node lat="59.68826111285129" lon="9.711333331359352" id="-13722">
		<tag k="name" v="Fiskeløstjern" />
		<tag k="natural" v="water" />
		<tag k="ssr:stedsnr" v="693691" />
	</node>
	<node lat="59.84462500180833" lon="9.991800000101518" id="-13723">
		<tag k="name" v="Daletjernsbekken" />
		<tag k="ssr:stedsnr" v="693661" />
		<tag k="waterway" v="stream" />
	</node>
	<node lat="59.84808055151448" lon="9.99866389165691" id="-13725">
		<tag k="name" v="Ormetjern" />
		<tag k="natural" v="water" />
		<tag k="ssr:stedsnr" v="693663" />
	</node>
	<node lat="59.71617597726212" lon="9.69747158019911" id="-13732">
		<tag k="name" v="Lurdalselva" />
		<tag k="ssr:stedsnr" v="574857" />
		<tag k="waterway" v="stream" />
	</node>
	<node lat="59.89804173658118" lon="9.727041155329584" id="-13734">
		<tag k="name" v="Skårfossdammen" />
		<tag k="ssr:stedsnr" v="694393" />
		<tag k="waterway" v="dam" />
	</node>
	<node lat="59.772449998254174" lon="9.919008330118409" id="-13735">
		<tag k="name" v="Øvre Sandøra" />
		<tag k="natural" v="cape" />
		<tag k="ssr:stedsnr" v="694830" />
	</node>
	<node lat="59.70595955727029" lon="9.70064750256394" id="-13740">
		<tag k="name" v="Nedre Kongsvann" />
		<tag k="natural" v="water" />
		<tag k="ssr:stedsnr" v="695827" />
	</node>
	<node lat="59.79273664023039" lon="9.706707129567018" id="-13744">
		<tag k="name" v="Bjørvatnet" />
		<tag k="natural" v="water" />
		<tag k="ssr:stedsnr" v="598506" />
		<tag k="water" v="lake" />
	</node>
	<node lat="59.84057853766973" lon="9.765299158766595" id="-13752">
		<tag k="name" v="Langtjern" />
		<tag k="natural" v="water" />
		<tag k="ssr:stedsnr" v="610720" />
	</node>
	<node lat="59.83984444070726" lon="9.877097216360259" id="-13756">
		<tag k="name" v="Bingselva" />
		<tag k="ssr:stedsnr" v="611729" />
		<tag k="waterway" v="river" />
	</node>
	<node lat="59.85473888896611" lon="9.812958332681303" id="-13757">
		<tag k="name" v="Kjerringbekken" />
		<tag k="ssr:stedsnr" v="611731" />
		<tag k="waterway" v="stream" />
	</node>
	<node lat="59.72847444111529" lon="9.654669229560353" id="-13759">
		<tag k="name" v="Sjutjerna" />
		<tag k="natural" v="water" />
		<tag k="ssr:stedsnr" v="630728" />
		<tag k="water" v="lake" />
	</node>
	<node lat="59.72348611416891" lon="9.686258338458554" id="-13760">
		<tag k="name" v="Krokbekk" />
		<tag k="ssr:stedsnr" v="630729" />
		<tag k="waterway" v="stream" />
	</node>
	<node lat="59.79403333681929" lon="9.913377776896127" id="-13768">
		<tag k="name" v="Kolbrekkvannsbekken" />
		<tag k="ssr:stedsnr" v="632988" />
		<tag k="waterway" v="stream" />
	</node>
	<node lat="59.77464405029972" lon="9.72761969906553" id="-13772">
		<tag k="name" v="Totjerna" />
		<tag k="natural" v="water" />
		<tag k="ssr:stedsnr" v="633934" />
		<tag k="water" v="lake" />
	</node>
	<node lat="59.669827778838766" lon="9.969769449688247" id="-13773">
		<tag k="name" v="Setertjern" />
		<tag k="natural" v="water" />
		<tag k="ssr:stedsnr" v="634219" />
		<tag k="water" v="pond" />
	</node>
	<node lat="59.63154166390355" lon="9.95708055893058" id="-13780">
		<tag k="name" v="Holtøya" />
		<tag k="place" v="island" />
		<tag k="ssr:stedsnr" v="670488" />
	</node>
	<node lat="59.703647023261226" lon="9.66375112552394" id="-13783">
		<tag k="fixme" v="multiple name tags, choose one and add the other to alt_name" />
		<tag k="name" v="Langtjern;Langevann" />
		<tag k="natural" v="water" />
		<tag k="ssr:stedsnr" v="670613" />
	</node>
	<node lat="59.60978055370052" lon="9.919530547173368" id="-13786">
		<tag k="alt_name" v="Mørtjern" />
		<tag k="name" v="Mørtjernet" />
		<tag k="natural" v="water" />
		<tag k="ssr:stedsnr" v="671434" />
	</node>
	<node lat="59.614899553474174" lon="9.883439265030914" id="-13787">
		<tag k="alt_name" v="Burvannet" />
		<tag k="name" v="Burvann" />
		<tag k="natural" v="water" />
		<tag k="ssr:stedsnr" v="671512" />
	</node>
	<node lat="59.86952222344278" lon="9.9573916614988" id="-13793">
		<tag k="fixme" v="multiple name tags, choose one and add the other to alt_name" />
		<tag k="name" v="Verpputten;Seterputten" />
		<tag k="natural" v="water" />
		<tag k="ssr:stedsnr" v="671664" />
	</node>
	<node lat="59.810499998517976" lon="9.945627772912195" id="-13800">
		<tag k="name" v="Butjernbekken" />
		<tag k="ssr:stedsnr" v="693608" />
		<tag k="waterway" v="stream" />
	</node>
	<node lat="59.800466671167385" lon="9.975433326350506" id="-13810">
		<tag k="name" v="Høgfossen" />
		<tag k="natural" v="waterfall" />
		<tag k="ssr:stedsnr" v="694706" />
	</node>
	<node lat="59.812897223602576" lon="9.76717499691042" id="-13813">
		<tag k="name" v="Skrivertjern" />
		<tag k="natural" v="water" />
		<tag k="ssr:stedsnr" v="695546" />
	</node>
	<node lat="59.711650003676695" lon="9.918388892596631" id="-13816">
		<tag k="name" v="Tjernsauet" />
		<tag k="natural" v="water" />
		<tag k="ssr:stedsnr" v="696681" />
	</node>
	<node lat="59.822931787109276" lon="9.993309355741777" id="-13820">
		<tag k="alt_name" v="Øyvann;Øyvatnet" />
		<tag k="name" v="Øyvannet" />
		<tag k="natural" v="water" />
		<tag k="ssr:stedsnr" v="724169" />
		<tag k="water" v="lake" />
	</node>
	<node lat="59.62206636064112" lon="9.903187295244646" id="-13821">
		<tag k="name" v="Ålevanna" />
		<tag k="natural" v="water" />
		<tag k="ssr:stedsnr" v="727910" />
		<tag k="water" v="lake" />
	</node>
	<node lat="59.73869722517906" lon="9.880111114310237" id="-13825">
		<tag k="name" v="Vestfosselva" />
		<tag k="ssr:stedsnr" v="731677" />
		<tag k="waterway" v="river" />
	</node>
	<node lat="59.8528335707663" lon="10.025976846762557" id="-13832">
		<tag k="alt_name" v="Ytre Sandungen;Mellom Sandungen;Framre Sandungen" />
		<tag k="name" v="Sandungen" />
		<tag k="natural" v="water" />
		<tag k="ssr:stedsnr" v="732270" />
		<tag k="water" v="lake" />
	</node>
	<node lat="59.84498245197201" lon="9.99668256513802" id="-13833">
		<tag k="alt_name" v="Vesledypingen" />
		<tag k="name" v="Lille Dypingen" />
		<tag k="natural" v="water" />
		<tag k="ssr:stedsnr" v="732308" />
	</node>
	<node lat="59.89711277747348" lon="9.714428705406263" id="-13834">
=======
	<node id="-288589" lat="59.8557472241" lon="9.9998222194">
		<tag k="alt_name" v="Indre Laupeina" />
		<tag k="name" v="Indre Laupenden" />
		<tag k="natural" v="water" />
		<tag k="ssr:stedsnr" v="186274" />
	</node>
	<node id="-288588" lat="59.8628500018" lon="10.0222944486">
		<tag k="alt_name" v="Åsvatna" />
		<tag k="name" v="Åsvanna" />
		<tag k="natural" v="water" />
		<tag k="ssr:stedsnr" v="186267" />
		<tag k="water" v="lake" />
	</node>
	<node id="-288578" lat="59.6820138901" lon="9.69881110728">
		<tag k="name" v="Fiskumelva" />
		<tag k="ssr:stedsnr" v="185570" />
		<tag k="waterway" v="stream" />
	</node>
	<node id="-288572" lat="59.6721861152" lon="9.95853610996">
		<tag k="alt_name" v="Søndre Svarttjern" />
		<tag k="name" v="Svarttjern" />
		<tag k="natural" v="water" />
		<tag k="ssr:stedsnr" v="185518" />
	</node>
	<node id="-288570" lat="59.6444166709" lon="9.8534388848">
		<tag k="alt_name" v="Sætertjern" />
		<tag k="name" v="Setertjern" />
		<tag k="natural" v="water" />
		<tag k="ssr:stedsnr" v="185491" />
	</node>
	<node id="-288568" lat="59.6083730341" lon="9.90398613437">
		<tag k="alt_name" v="Søndre Skattjernet" />
		<tag k="name" v="Søndre Skattjern" />
		<tag k="natural" v="water" />
		<tag k="ssr:stedsnr" v="185405" />
	</node>
	<node id="-288567" lat="59.6992026882" lon="9.97966628411">
		<tag k="name" v="Dritartjern" />
		<tag k="natural" v="water" />
		<tag k="ssr:stedsnr" v="185285" />
	</node>
	<node id="-288556" lat="59.7188952834" lon="9.70748411933">
		<tag k="name" v="Øvre Steintjern" />
		<tag k="natural" v="water" />
		<tag k="ssr:stedsnr" v="149846" />
	</node>
	<node id="-288551" lat="59.684238892" lon="9.96753056102">
		<tag k="name" v="Lågtjern" />
		<tag k="natural" v="water" />
		<tag k="ssr:stedsnr" v="148180" />
	</node>
	<node id="-288544" lat="59.7940527816" lon="9.74468332693">
		<tag k="name" v="Daleseterbekken" />
		<tag k="ssr:stedsnr" v="147698" />
		<tag k="waterway" v="stream" />
	</node>
	<node id="-288538" lat="59.8056749979" lon="9.94616667036">
		<tag k="name" v="Tvillingtjerna" />
		<tag k="natural" v="water" />
		<tag k="ssr:stedsnr" v="146450" />
		<tag k="water" v="pond" />
	</node>
	<node id="-288525" lat="59.6762666682" lon="9.73239166442">
		<tag k="name" v="Jøranruddammen" />
		<tag k="ssr:stedsnr" v="145490" />
		<tag k="waterway" v="dam" />
	</node>
	<node id="-288519" lat="59.8273611141" lon="9.75748888506">
		<tag k="name" v="Hoggtjern" />
		<tag k="natural" v="water" />
		<tag k="ssr:stedsnr" v="125730" />
	</node>
	<node id="-288512" lat="59.766702775" lon="9.94824444359">
		<tag k="name" v="Hagaøya" />
		<tag k="place" v="island" />
		<tag k="ssr:stedsnr" v="125641" />
	</node>
	<node id="-288511" lat="59.7687055544" lon="9.83751110218">
		<tag k="name" v="Gorudbekken" />
		<tag k="ssr:stedsnr" v="125638" />
		<tag k="waterway" v="stream" />
	</node>
	<node id="-288507" lat="59.8464277814" lon="10.0091083278">
		<tag k="alt_name" v="Stordypingen" />
		<tag k="name" v="Store Dypingen" />
		<tag k="natural" v="water" />
		<tag k="ssr:stedsnr" v="125318" />
		<tag k="water" v="lake" />
	</node>
	<node id="-288499" lat="59.7260631491" lon="9.7374065414">
		<tag k="alt_name" v="Brennåstjernet" />
		<tag k="name" v="Brennåstjern" />
		<tag k="natural" v="water" />
		<tag k="ssr:stedsnr" v="124602" />
	</node>
	<node id="-288498" lat="59.7096397676" lon="9.70048541793">
		<tag k="fixme" v="multiple name tags, choose one and add the other to alt_name" />
		<tag k="name" v="Kongsvann;Øvre Kongsvann" />
		<tag k="natural" v="water" />
		<tag k="ssr:stedsnr" v="124590" />
	</node>
	<node id="-288487" lat="59.6725749961" lon="9.84250832552">
		<tag k="name" v="Skallerudtjern" />
		<tag k="natural" v="water" />
		<tag k="ssr:stedsnr" v="124511" />
	</node>
	<node id="-288486" lat="59.6588500028" lon="9.82962221834">
		<tag k="alt_name" v="Urdsvann" />
		<tag k="name" v="Ursvann" />
		<tag k="natural" v="water" />
		<tag k="ssr:stedsnr" v="124494" />
		<tag k="water" v="lake" />
	</node>
	<node id="-288485" lat="59.6376638892" lon="9.8516194403">
		<tag k="alt_name" v="Brånavannet" />
		<tag k="name" v="Fisås-Brånavann" />
		<tag k="natural" v="water" />
		<tag k="ssr:stedsnr" v="124488" />
		<tag k="water" v="lake" />
	</node>
	<node id="-288484" lat="59.6274555586" lon="9.88689167233">
		<tag k="name" v="Flåtjern" />
		<tag k="natural" v="water" />
		<tag k="ssr:stedsnr" v="124475" />
	</node>
	<node id="-288478" lat="59.7950049639" lon="9.94075549492">
		<tag k="name" v="Lauvtjern" />
		<tag k="natural" v="water" />
		<tag k="ssr:stedsnr" v="125523" />
	</node>
	<node id="-288477" lat="59.7996694442" lon="9.93204166375">
		<tag k="name" v="Svarttjern" />
		<tag k="natural" v="water" />
		<tag k="ssr:stedsnr" v="125521" />
	</node>
	<node id="-288466" lat="59.8171638921" lon="9.78986944148">
		<tag k="name" v="Spitkroken" />
		<tag k="place" v="locality" />
		<tag k="ssr:stedsnr" v="88465" />
	</node>
	<node id="-288456" lat="59.7442444468" lon="9.73568055387">
		<tag k="name" v="Stigertjern" />
		<tag k="natural" v="water" />
		<tag k="ssr:stedsnr" v="87391" />
	</node>
	<node id="-288453" lat="59.8331833351" lon="9.96562499531">
		<tag k="name" v="Indre Skarstjern" />
		<tag k="natural" v="water" />
		<tag k="ssr:stedsnr" v="87610" />
	</node>
	<node id="-288446" lat="59.8371500022" lon="9.97819721974">
		<tag k="name" v="Nordre Trollåstjern" />
		<tag k="natural" v="water" />
		<tag k="ssr:stedsnr" v="86637" />
	</node>
	<node id="-288445" lat="59.8337666669" lon="9.99068333114">
		<tag k="name" v="Vestre Sulustjern" />
		<tag k="natural" v="water" />
		<tag k="ssr:stedsnr" v="86635" />
	</node>
	<node id="-288431" lat="59.7665611234" lon="9.79863740931">
		<tag k="name" v="Bergsvannet" />
		<tag k="natural" v="water" />
		<tag k="ssr:stedsnr" v="65500" />
	</node>
	<node id="-288429" lat="59.832490698" lon="9.72273812838">
		<tag k="name" v="Øvre Myresetertjern" />
		<tag k="natural" v="water" />
		<tag k="ssr:stedsnr" v="64696" />
	</node>
	<node id="-288419" lat="59.8148083356" lon="9.75704999503">
		<tag k="name" v="Hølbekken" />
		<tag k="ssr:stedsnr" v="64541" />
		<tag k="waterway" v="stream" />
	</node>
	<node id="-288418" lat="59.6386749966" lon="9.86716110379">
		<tag k="name" v="Buvann" />
		<tag k="natural" v="water" />
		<tag k="ssr:stedsnr" v="64538" />
	</node>
	<node id="-288417" lat="59.6228527274" lon="9.86588930715">
		<tag k="alt_name" v="Store Fiskelaus" />
		<tag k="name" v="Store Fiskelausen" />
		<tag k="natural" v="water" />
		<tag k="ssr:stedsnr" v="64520" />
		<tag k="water" v="lake" />
	</node>
	<node id="-288414" lat="59.6689888904" lon="9.96584999619">
		<tag k="name" v="Seterbekken" />
		<tag k="ssr:stedsnr" v="64136" />
		<tag k="waterway" v="stream" />
	</node>
	<node id="-288412" lat="59.685902776" lon="9.97234167113">
		<tag k="alt_name" v="Store Kroktjern" />
		<tag k="name" v="Kroktjern" />
		<tag k="natural" v="water" />
		<tag k="ssr:stedsnr" v="63194" />
	</node>
	<node id="-288399" lat="59.7016777738" lon="9.86219722352">
		<tag k="name" v="Sandsbukta" />
		<tag k="natural" v="bay" />
		<tag k="ssr:stedsnr" v="28506" />
	</node>
	<node id="-288379" lat="59.7525999981" lon="9.74141111671">
		<tag k="name" v="Rørtjern" />
		<tag k="natural" v="water" />
		<tag k="ssr:stedsnr" v="26423" />
	</node>
	<node id="-288378" lat="59.7496194472" lon="9.73788610972">
		<tag k="name" v="Øvre Høngassen" />
		<tag k="natural" v="water" />
		<tag k="ssr:stedsnr" v="26421" />
	</node>
	<node id="-288375" lat="59.7342749989" lon="9.76877777818">
		<tag k="name" v="Klarefoss" />
		<tag k="natural" v="waterfall" />
		<tag k="ssr:stedsnr" v="26149" />
	</node>
	<node id="-288374" lat="59.7253611144" lon="9.76874721744">
		<tag k="name" v="Øvre Lundteigtjern" />
		<tag k="natural" v="water" />
		<tag k="ssr:stedsnr" v="26137" />
	</node>
	<node id="-288372" lat="59.7332138931" lon="9.76509167206">
		<tag k="name" v="Tråsabekk" />
		<tag k="ssr:stedsnr" v="26131" />
		<tag k="waterway" v="stream" />
	</node>
	<node id="-288371" lat="59.7755333335" lon="9.84931389313">
		<tag k="name" v="Haugbekken" />
		<tag k="ssr:stedsnr" v="25954" />
		<tag k="waterway" v="stream" />
	</node>
	<node id="-288370" lat="59.815030557" lon="9.93457778209">
		<tag k="name" v="Gampetangen" />
		<tag k="natural" v="cape" />
		<tag k="ssr:stedsnr" v="25612" />
	</node>
	<node id="-288363" lat="59.8304694427" lon="9.73596666417">
		<tag k="name" v="Nytjern" />
		<tag k="natural" v="water" />
		<tag k="ssr:stedsnr" v="25703" />
	</node>
	<node id="-288361" lat="59.627616665" lon="9.93275277911">
		<tag k="name" v="Storeelva" />
		<tag k="ssr:stedsnr" v="24763" />
		<tag k="waterway" v="stream" />
	</node>
	<node id="-288357" lat="59.6433166706" lon="9.98178334047">
		<tag k="name" v="Tryterudtangen" />
		<tag k="natural" v="cape" />
		<tag k="ssr:stedsnr" v="24151" />
	</node>
	<node id="-288352" lat="59.8597027781" lon="9.94818055822">
		<tag k="name" v="Bergdamtjern" />
		<tag k="natural" v="water" />
		<tag k="ssr:stedsnr" v="4745" />
	</node>
	<node id="-288350" lat="59.8450750024" lon="9.81116110291">
		<tag k="name" v="Børjebekken" />
		<tag k="ssr:stedsnr" v="4735" />
		<tag k="waterway" v="stream" />
	</node>
	<node id="-288346" lat="59.8675222229" lon="9.94468888059">
		<tag k="name" v="Verptjern" />
		<tag k="natural" v="water" />
		<tag k="ssr:stedsnr" v="4653" />
	</node>
	<node id="-288343" lat="59.8099083302" lon="9.9343222283">
		<tag k="name" v="Storøya" />
		<tag k="place" v="island" />
		<tag k="ssr:stedsnr" v="4546" />
	</node>
	<node id="-288342" lat="59.7880999982" lon="9.8133138934">
		<tag k="name" v="Hoenselva" />
		<tag k="ssr:stedsnr" v="4524" />
		<tag k="waterway" v="stream" />
	</node>
	<node id="-288339" lat="59.7978416708" lon="9.72967221902">
		<tag k="alt_name" v="Engtjern" />
		<tag k="name" v="Engetjern" />
		<tag k="natural" v="water" />
		<tag k="ssr:stedsnr" v="4496" />
	</node>
	<node id="-288337" lat="59.8654027749" lon="9.97075554949">
		<tag k="alt_name" v="Kolbjørnsrudtjernet" />
		<tag k="name" v="Kolbjørnsrudtjern" />
		<tag k="natural" v="water" />
		<tag k="ssr:stedsnr" v="4335" />
	</node>
	<node id="-288335" lat="59.8532861119" lon="9.99639167368">
		<tag k="name" v="Grantjern" />
		<tag k="natural" v="water" />
		<tag k="ssr:stedsnr" v="4250" />
	</node>
	<node id="-288332" lat="59.7333499978" lon="9.75763889351">
		<tag k="name" v="Steinbekk" />
		<tag k="ssr:stedsnr" v="3637" />
		<tag k="waterway" v="stream" />
	</node>
	<node id="-288327" lat="59.6692027794" lon="9.79749444851">
		<tag k="alt_name" v="Plometjern" />
		<tag k="name" v="Plommetjern" />
		<tag k="natural" v="water" />
		<tag k="ssr:stedsnr" v="3535" />
	</node>
	<node id="-288322" lat="59.6320388863" lon="9.86360554712">
		<tag k="alt_name" v="Tvillingvannet" />
		<tag k="name" v="Tvillingvann" />
		<tag k="natural" v="water" />
		<tag k="ssr:stedsnr" v="3496" />
		<tag k="water" v="lake" />
	</node>
	<node id="-288321" lat="59.8207861099" lon="9.73263334113">
		<tag k="alt_name" v="Svarttjern" />
		<tag k="name" v="Nordre Svarttjern" />
		<tag k="natural" v="water" />
		<tag k="ssr:stedsnr" v="3486" />
	</node>
	<node id="-288309" lat="59.6783861089" lon="9.86506666162">
		<tag k="name" v="Eikeren" />
		<tag k="natural" v="water" />
		<tag k="ssr:stedsnr" v="913541" />
		<tag k="water" v="lake" />
	</node>
	<node id="-288308" lat="59.6336555518" lon="9.90455000054">
		<tag k="name" v="Vesleelva" />
		<tag k="ssr:stedsnr" v="913512" />
		<tag k="waterway" v="stream" />
	</node>
	<node id="-288287" lat="59.7399138865" lon="9.76426110307">
		<tag k="name" v="Dørja" />
		<tag k="ssr:stedsnr" v="853661" />
		<tag k="waterway" v="river" />
	</node>
	<node id="-288281" lat="59.6310638926" lon="9.88425556234">
		<tag k="alt_name" v="Urdtjern" />
		<tag k="name" v="Urtjern" />
		<tag k="natural" v="water" />
		<tag k="ssr:stedsnr" v="853506" />
	</node>
	<node id="-288278" lat="59.7171083324" lon="9.706322222">
		<tag k="name" v="Nedre Steintjern" />
		<tag k="natural" v="water" />
		<tag k="ssr:stedsnr" v="938835" />
	</node>
	<node id="-288276" lat="59.6878222216" lon="9.88080277011">
		<tag k="name" v="Svartvik" />
		<tag k="natural" v="bay" />
		<tag k="ssr:stedsnr" v="938664" />
	</node>
	<node id="-288268" lat="59.8603166625" lon="9.91226943677">
		<tag k="name" v="Kjerringbekken" />
		<tag k="ssr:stedsnr" v="937998" />
		<tag k="waterway" v="stream" />
	</node>
	<node id="-288260" lat="59.7496750036" lon="9.84815555315">
		<tag k="name" v="Leirdalsbekken" />
		<tag k="ssr:stedsnr" v="937002" />
		<tag k="waterway" v="stream" />
	</node>
	<node id="-288257" lat="59.8347444425" lon="9.73521388387">
		<tag k="name" v="Ålbogatjern" />
		<tag k="natural" v="water" />
		<tag k="ssr:stedsnr" v="936695" />
	</node>
	<node id="-288252" lat="59.7940111106" lon="9.93486111671">
		<tag k="name" v="Kruketjern" />
		<tag k="natural" v="water" />
		<tag k="ssr:stedsnr" v="936597" />
		<tag k="water" v="pond" />
	</node>
	<node id="-288246" lat="59.8637583356" lon="9.73042777028">
		<tag k="name" v="Breibekk" />
		<tag k="ssr:stedsnr" v="936369" />
		<tag k="waterway" v="stream" />
	</node>
	<node id="-288240" lat="59.7748083324" lon="9.92317777806">
		<tag k="name" v="Lerbergbekken" />
		<tag k="ssr:stedsnr" v="933762" />
		<tag k="waterway" v="stream" />
	</node>
	<node id="-288233" lat="59.7882888915" lon="9.79813611411">
		<tag k="name" v="Vesledam" />
		<tag k="natural" v="water" />
		<tag k="ssr:stedsnr" v="815771" />
		<tag k="water" v="pond" />
	</node>
	<node id="-288232" lat="59.8475722242" lon="9.71867221679">
		<tag k="name" v="Øvre Blygåttjern" />
		<tag k="natural" v="water" />
		<tag k="ssr:stedsnr" v="815753" />
	</node>
	<node id="-288229" lat="59.7419250014" lon="9.78052777134">
		<tag k="name" v="Spannslokktjern" />
		<tag k="natural" v="water" />
		<tag k="ssr:stedsnr" v="815119" />
	</node>
	<node id="-288224" lat="59.8070194475" lon="9.92954722538">
		<tag k="name" v="Lystjerntangen" />
		<tag k="natural" v="cape" />
		<tag k="ssr:stedsnr" v="793589" />
	</node>
	<node id="-288217" lat="59.6816249958" lon="9.82448055307">
		<tag k="alt_name" v="Svintjern" />
		<tag k="name" v="Svinetjern" />
		<tag k="natural" v="water" />
		<tag k="ssr:stedsnr" v="792561" />
	</node>
	<node id="-288215" lat="59.6506083343" lon="9.82590000414">
		<tag k="alt_name" v="Råtavann" />
		<tag k="name" v="Råtevann" />
		<tag k="natural" v="water" />
		<tag k="ssr:stedsnr" v="792531" />
		<tag k="water" v="lake" />
	</node>
	<node id="-288213" lat="59.6788444473" lon="9.99165276977">
		<tag k="name" v="Kutjern" />
		<tag k="natural" v="water" />
		<tag k="ssr:stedsnr" v="792227" />
	</node>
	<node id="-288212" lat="59.8120805576" lon="9.99676666036">
		<tag k="name" v="Yttervannet" />
		<tag k="natural" v="water" />
		<tag k="ssr:stedsnr" v="792214" />
		<tag k="water" v="lake" />
	</node>
	<node id="-288210" lat="59.6614722181" lon="9.84301110684">
		<tag k="name" v="Auretjern" />
		<tag k="natural" v="water" />
		<tag k="ssr:stedsnr" v="791555" />
	</node>
	<node id="-288200" lat="59.8277722246" lon="9.77944444806">
		<tag k="name" v="Steinbekken" />
		<tag k="ssr:stedsnr" v="914729" />
		<tag k="waterway" v="stream" />
	</node>
	<node id="-288189" lat="59.7814111067" lon="9.84599167407">
		<tag k="name" v="Kåsabekken" />
		<tag k="ssr:stedsnr" v="914618" />
		<tag k="waterway" v="stream" />
	</node>
	<node id="-288182" lat="59.8159305554" lon="9.92454165983">
		<tag k="alt_name" v="Småtjerna" />
		<tag k="name" v="Småtjern" />
		<tag k="natural" v="water" />
		<tag k="ssr:stedsnr" v="914555" />
	</node>
	<node id="-288181" lat="59.8115106512" lon="9.9360798416">
		<tag k="name" v="Kolbrekkvannet" />
		<tag k="natural" v="water" />
		<tag k="ssr:stedsnr" v="914554" />
	</node>
	<node id="-288179" lat="59.8575750028" lon="9.99236111587">
		<tag k="loc_name" v="Framre Laupeina" />
		<tag k="name" v="Fremre Laupenden" />
		<tag k="natural" v="water" />
		<tag k="old_name" v="Framre Laupenden" />
		<tag k="ssr:stedsnr" v="914278" />
	</node>
	<node id="-288172" lat="59.7228250038" lon="9.75230554705">
		<tag k="name" v="Paulebekken" />
		<tag k="ssr:stedsnr" v="913616" />
		<tag k="waterway" v="stream" />
	</node>
	<node id="-288171" lat="59.6977638867" lon="9.68856388819">
		<tag k="name" v="Tiggerudtjern" />
		<tag k="natural" v="water" />
		<tag k="ssr:stedsnr" v="913603" />
	</node>
	<node id="-288169" lat="59.7063619591" lon="9.92750381569">
		<tag k="name" v="Gortjern" />
		<tag k="natural" v="water" />
		<tag k="ssr:stedsnr" v="913591" />
	</node>
	<node id="-288168" lat="59.7042222255" lon="9.89750000743">
		<tag k="name" v="Brekketjern" />
		<tag k="natural" v="water" />
		<tag k="ssr:stedsnr" v="913585" />
	</node>
	<node id="-288165" lat="59.6777090653" lon="9.97707184719">
		<tag k="name" v="Tretjerna" />
		<tag k="natural" v="water" />
		<tag k="ssr:stedsnr" v="913219" />
		<tag k="water" v="lake" />
	</node>
	<node id="-288164" lat="59.6723563724" lon="9.9802279909">
		<tag k="name" v="Grastjern" />
		<tag k="natural" v="water" />
		<tag k="ssr:stedsnr" v="913209" />
	</node>
	<node id="-288163" lat="59.6911722221" lon="9.97627778295">
		<tag k="name" v="Brynsetertjern" />
		<tag k="natural" v="water" />
		<tag k="ssr:stedsnr" v="913201" />
	</node>
	<node id="-288161" lat="59.6441250018" lon="9.92986389232">
		<tag k="name" v="Bånepina" />
		<tag k="place" v="islet" />
		<tag k="ssr:stedsnr" v="756206" />
	</node>
	<node id="-288159" lat="59.7814861126" lon="9.75688888437">
		<tag k="name" v="Djupekollen" />
		<tag k="natural" v="water" />
		<tag k="ssr:stedsnr" v="732630" />
	</node>
	<node id="-288151" lat="59.8004666712" lon="9.97543332635">
		<tag k="name" v="Høgfossen" />
		<tag k="natural" v="waterfall" />
		<tag k="ssr:stedsnr" v="694706" />
	</node>
	<node id="-288146" lat="59.8480805515" lon="9.99866389166">
		<tag k="name" v="Ormetjern" />
		<tag k="natural" v="water" />
		<tag k="ssr:stedsnr" v="693663" />
	</node>
	<node id="-288144" lat="59.8446250018" lon="9.9918000001">
		<tag k="name" v="Daletjernsbekken" />
		<tag k="ssr:stedsnr" v="693661" />
		<tag k="waterway" v="stream" />
	</node>
	<node id="-288142" lat="59.8104999985" lon="9.94562777291">
		<tag k="name" v="Butjernbekken" />
		<tag k="ssr:stedsnr" v="693608" />
		<tag k="waterway" v="stream" />
	</node>
	<node id="-288130" lat="59.8156083319" lon="9.79319166903">
		<tag k="name" v="Vestre Spiten" />
		<tag k="ssr:stedsnr" v="877546" />
		<tag k="waterway" v="stream" />
	</node>
	<node id="-288128" lat="59.7173555595" lon="9.92388333134">
		<tag k="name" v="Vesletjern" />
		<tag k="natural" v="water" />
		<tag k="ssr:stedsnr" v="877486" />
	</node>
	<node id="-288118" lat="59.7743500016" lon="9.91855556267">
		<tag k="name" v="Stryken" />
		<tag k="place" v="locality" />
		<tag k="ssr:stedsnr" v="876838" />
	</node>
	<node id="-288114" lat="59.804139246" lon="9.73913308023">
		<tag k="name" v="Totjerna" />
		<tag k="natural" v="water" />
		<tag k="ssr:stedsnr" v="876728" />
		<tag k="water" v="lake" />
	</node>
	<node id="-288104" lat="59.8971127775" lon="9.71442870541">
>>>>>>> e1d4bc35ff8a6074a6f2e91616a996b547c36f15
		<tag k="name" v="Endetjern" />
		<tag k="natural" v="water" />
		<tag k="ssr:stedsnr" v="732827" />
	</node>
<<<<<<< HEAD
	<node lat="59.79267777797409" lon="9.93865000337873" id="-13843">
		<tag k="name" v="Åleputten" />
		<tag k="natural" v="water" />
		<tag k="ssr:stedsnr" v="753560" />
		<tag k="water" v="pond" />
	</node>
	<node lat="59.675622223495054" lon="9.872272222345353" id="-13854">
		<tag k="name" v="Nordstultangen" />
		<tag k="natural" v="cape" />
		<tag k="ssr:stedsnr" v="755722" />
	</node>
	<node lat="59.6441250018179" lon="9.929863892320535" id="-13855">
		<tag k="name" v="Bånepina" />
		<tag k="place" v="islet" />
		<tag k="ssr:stedsnr" v="756206" />
	</node>
	<node lat="59.807319445592675" lon="9.740783329290247" id="-13859">
		<tag k="name" v="Ragnhildtjern" />
		<tag k="natural" v="water" />
		<tag k="ssr:stedsnr" v="756601" />
	</node>
	<node lat="59.84010897366094" lon="9.76135359193954" id="-13861">
		<tag k="name" v="Aureputten" />
		<tag k="natural" v="water" />
		<tag k="ssr:stedsnr" v="756648" />
	</node>
	<node lat="59.65060833425946" lon="9.825900004135004" id="-13868">
		<tag k="alt_name" v="Råtavann" />
		<tag k="name" v="Råtevann" />
		<tag k="natural" v="water" />
		<tag k="ssr:stedsnr" v="792531" />
		<tag k="water" v="lake" />
	</node>
	<node lat="59.77593611161338" lon="9.777561113733736" id="-13870">
		<tag k="name" v="Lortseterbekken" />
		<tag k="ssr:stedsnr" v="792593" />
		<tag k="waterway" v="stream" />
	</node>
	<node lat="59.85174444493872" lon="9.707930559213278" id="-13871">
		<tag k="name" v="Grøllebekken" />
		<tag k="ssr:stedsnr" v="792727" />
		<tag k="waterway" v="stream" />
	</node>
	<node lat="59.82914668896919" lon="9.987595522328622" id="-13872">
		<tag k="name" v="Flårane" />
		<tag k="natural" v="water" />
		<tag k="ssr:stedsnr" v="793286" />
	</node>
	<node lat="59.69117222212342" lon="9.976277782947832" id="-13876">
		<tag k="name" v="Brynsetertjern" />
		<tag k="natural" v="water" />
		<tag k="ssr:stedsnr" v="913201" />
	</node>
	<node lat="59.706361959127484" lon="9.92750381569428" id="-13878">
		<tag k="name" v="Gortjern" />
		<tag k="natural" v="water" />
		<tag k="ssr:stedsnr" v="913591" />
	</node>
	<node lat="59.8115106512166" lon="9.936079841604082" id="-13885">
		<tag k="name" v="Kolbrekkvannet" />
		<tag k="natural" v="water" />
		<tag k="ssr:stedsnr" v="914554" />
	</node>
	<node lat="59.815930555408315" lon="9.924541659828348" id="-13886">
		<tag k="alt_name" v="Småtjerna" />
		<tag k="name" v="Småtjern" />
		<tag k="natural" v="water" />
		<tag k="ssr:stedsnr" v="914555" />
	</node>
	<node lat="59.82777222456058" lon="9.779444448063693" id="-13893">
		<tag k="name" v="Steinbekken" />
		<tag k="ssr:stedsnr" v="914729" />
		<tag k="waterway" v="stream" />
	</node>
	<node lat="59.61227221903543" lon="9.927513880994184" id="-13901">
		<tag k="name" v="Storelva" />
		<tag k="ssr:stedsnr" v="813875" />
		<tag k="waterway" v="stream" />
	</node>
	<node lat="59.89765277503955" lon="9.699847222935809" id="-13907">
		<tag k="name" v="Ulstaddammen" />
		<tag k="ssr:stedsnr" v="815398" />
		<tag k="waterway" v="dam" />
	</node>
	<node lat="59.788288891456894" lon="9.798136114114618" id="-13908">
		<tag k="name" v="Vesledam" />
		<tag k="natural" v="water" />
		<tag k="ssr:stedsnr" v="815771" />
		<tag k="water" v="pond" />
	</node>
	<node lat="59.65144722190615" lon="9.961136111764516" id="-13911">
		<tag k="name" v="Snipan" />
		<tag k="natural" v="cape" />
		<tag k="ssr:stedsnr" v="816225" />
	</node>
	<node lat="59.631063892601745" lon="9.88425556233636" id="-13919">
		<tag k="alt_name" v="Urdtjern" />
		<tag k="name" v="Urtjern" />
		<tag k="natural" v="water" />
		<tag k="ssr:stedsnr" v="853506" />
	</node>
	<node lat="59.739913886506756" lon="9.7642611030661" id="-13926">
		<tag k="name" v="Dørja" />
		<tag k="ssr:stedsnr" v="853661" />
		<tag k="waterway" v="river" />
	</node>
	<node lat="59.86372914194516" lon="10.06215142058356" id="-13928">
		<tag k="alt_name" v="Glitrevann;Glitrevatnet" />
		<tag k="name" v="Glitre" />
		<tag k="natural" v="water" />
		<tag k="ssr:stedsnr" v="854319" />
		<tag k="water" v="lake" />
	</node>
	<node lat="59.856874451243506" lon="9.753302637052991" id="-13929">
		<tag k="name" v="Vardetjern" />
		<tag k="natural" v="water" />
		<tag k="ssr:stedsnr" v="854715" />
	</node>
	<node lat="59.814447218586366" lon="9.937408326706013" id="-13935">
		<tag k="name" v="Haraøya" />
		<tag k="place" v="islet" />
		<tag k="ssr:stedsnr" v="875588" />
	</node>
	<node lat="59.8041392459693" lon="9.739133080225077" id="-13945">
		<tag k="name" v="Totjerna" />
		<tag k="natural" v="water" />
		<tag k="ssr:stedsnr" v="876728" />
		<tag k="water" v="lake" />
	</node>
	<node lat="59.774808332404874" lon="9.923177778061207" id="-13951">
		<tag k="name" v="Lerbergbekken" />
		<tag k="ssr:stedsnr" v="933762" />
		<tag k="waterway" v="stream" />
	</node>
	<node lat="59.6723563724243" lon="9.98022799090144" id="-13955">
		<tag k="name" v="Grastjern" />
		<tag k="natural" v="water" />
		<tag k="ssr:stedsnr" v="913209" />
	</node>
	<node lat="59.67770906528818" lon="9.977071847189983" id="-13956">
		<tag k="name" v="Tretjerna" />
		<tag k="natural" v="water" />
		<tag k="ssr:stedsnr" v="913219" />
		<tag k="water" v="lake" />
	</node>
	<node lat="59.6336555518167" lon="9.90455000053975" id="-13958">
		<tag k="name" v="Vesleelva" />
		<tag k="ssr:stedsnr" v="913512" />
		<tag k="waterway" v="stream" />
	</node>
	<node lat="59.67838610889249" lon="9.865066661617421" id="-13959">
		<tag k="name" v="Eikeren" />
		<tag k="natural" v="water" />
		<tag k="ssr:stedsnr" v="913541" />
		<tag k="water" v="lake" />
	</node>
	<node lat="59.69776388674779" lon="9.688563888193524" id="-13961">
		<tag k="name" v="Tiggerudtjern" />
		<tag k="natural" v="water" />
		<tag k="ssr:stedsnr" v="913603" />
	</node>
	<node lat="59.72282500377592" lon="9.752305547050476" id="-13962">
		<tag k="name" v="Paulebekken" />
		<tag k="ssr:stedsnr" v="913616" />
		<tag k="waterway" v="stream" />
	</node>
	<node lat="59.70422222551736" lon="9.897500007429748" id="-13965">
		<tag k="name" v="Brekketjern" />
		<tag k="natural" v="water" />
		<tag k="ssr:stedsnr" v="913585" />
	</node>
	<node lat="59.8578842330694" lon="9.992013083622902" id="-13968">
		<tag k="loc_name" v="Framre Laupeina" />
		<tag k="name" v="Fremre Laupenden" />
		<tag k="natural" v="water" />
		<tag k="old_name" v="Framre Laupenden" />
		<tag k="ssr:stedsnr" v="914278" />
	</node>
	<node lat="59.781411106684914" lon="9.845991674074561" id="-13975">
		<tag k="name" v="Kåsabekken" />
		<tag k="ssr:stedsnr" v="914618" />
		<tag k="waterway" v="stream" />
	</node>
	<node lat="59.79401111055393" lon="9.934861116711152" id="-13981">
		<tag k="name" v="Kruketjern" />
		<tag k="natural" v="water" />
		<tag k="ssr:stedsnr" v="936597" />
		<tag k="water" v="pond" />
	</node>
	<node lat="59.834744442505404" lon="9.73521388387346" id="-13984">
		<tag k="name" v="Ålbogatjern" />
		<tag k="natural" v="water" />
		<tag k="ssr:stedsnr" v="936695" />
	</node>
	<node lat="59.71710833242327" lon="9.706322222000127" id="-13997">
		<tag k="name" v="Nedre Steintjern" />
		<tag k="natural" v="water" />
		<tag k="ssr:stedsnr" v="938835" />
	</node>
	<node lat="59.82078610989901" lon="9.732633341128723" id="-14001">
		<tag k="alt_name" v="Svarttjern" />
		<tag k="name" v="Nordre Svarttjern" />
		<tag k="natural" v="water" />
		<tag k="ssr:stedsnr" v="3486" />
	</node>
	<node lat="59.632038886270735" lon="9.863605547116634" id="-14002">
		<tag k="alt_name" v="Tvillingvannet" />
		<tag k="name" v="Tvillingvann" />
=======
	<node id="-288101" lat="59.8224638886" lon="9.7568000019">
		<tag k="alt_name" v="Hølbekktjern" />
		<tag k="name" v="Styggtjern" />
		<tag k="natural" v="water" />
		<tag k="ssr:stedsnr" v="732731" />
	</node>
	<node id="-288099" lat="59.8249807612" lon="9.73692151355">
		<tag k="alt_name" v="Søndre Sjutjern" />
		<tag k="name" v="Sjutjerna" />
		<tag k="natural" v="water" />
		<tag k="ssr:stedsnr" v="732726" />
		<tag k="water" v="lake" />
	</node>
	<node id="-288091" lat="59.844982452" lon="9.99668256514">
		<tag k="alt_name" v="Vesledypingen" />
		<tag k="name" v="Lille Dypingen" />
		<tag k="natural" v="water" />
		<tag k="ssr:stedsnr" v="732308" />
	</node>
	<node id="-288089" lat="59.8528335708" lon="10.0259768468">
		<tag k="alt_name" v="Ytre Sandungen;Mellom Sandungen;Framre Sandungen" />
		<tag k="name" v="Sandungen" />
		<tag k="natural" v="water" />
		<tag k="ssr:stedsnr" v="732270" />
		<tag k="water" v="lake" />
	</node>
	<node id="-288088" lat="59.8160166634" lon="9.76029444617">
		<tag k="name" v="Kringstadtjern" />
		<tag k="natural" v="water" />
		<tag k="ssr:stedsnr" v="732571" />
	</node>
	<node id="-288087" lat="59.7960311977" lon="9.96888144184">
		<tag k="name" v="Øytjern" />
		<tag k="natural" v="water" />
		<tag k="ssr:stedsnr" v="732556" />
	</node>
	<node id="-288085" lat="59.7386972252" lon="9.88011111431">
		<tag k="name" v="Vestfosselva" />
		<tag k="ssr:stedsnr" v="731677" />
		<tag k="waterway" v="river" />
	</node>
	<node id="-288082" lat="59.7000397458" lon="9.69120001477">
		<tag k="name" v="Brudevolltjern" />
		<tag k="natural" v="water" />
		<tag k="ssr:stedsnr" v="731593" />
	</node>
	<node id="-288067" lat="59.688827782" lon="9.98986944803">
		<tag k="name" v="Mellom-Fisketjern" />
		<tag k="natural" v="water" />
		<tag k="ssr:stedsnr" v="634154" />
	</node>
	<node id="-288066" lat="59.612858331" lon="9.90618889713">
		<tag k="name" v="Fosseteråskulpene" />
		<tag k="natural" v="water" />
		<tag k="ssr:stedsnr" v="633560" />
		<tag k="water" v="lake" />
	</node>
	<node id="-288061" lat="59.6220663606" lon="9.90318729524">
		<tag k="name" v="Ålevanna" />
		<tag k="natural" v="water" />
		<tag k="ssr:stedsnr" v="727910" />
		<tag k="water" v="lake" />
	</node>
	<node id="-288058" lat="59.8229317871" lon="9.99330935574">
		<tag k="alt_name" v="Øyvann;Øyvatnet" />
		<tag k="name" v="Øyvannet" />
		<tag k="natural" v="water" />
		<tag k="ssr:stedsnr" v="724169" />
		<tag k="water" v="lake" />
	</node>
	<node id="-288055" lat="59.8566555585" lon="9.71208888899">
		<tag k="name" v="Tverrelva" />
		<tag k="ssr:stedsnr" v="610753" />
		<tag k="waterway" v="stream" />
	</node>
	<node id="-288049" lat="59.7866249984" lon="9.7719861147">
		<tag k="alt_name" v="Lille Honsvannet" />
		<tag k="name" v="Vesle Hoensvannet" />
		<tag k="natural" v="water" />
		<tag k="old_name" v="Honsvannet, l" />
		<tag k="ssr:stedsnr" v="610569" />
	</node>
	<node id="-288044" lat="59.7316585627" lon="9.96206539753">
		<tag k="name" v="Igletjern" />
		<tag k="natural" v="water" />
		<tag k="ssr:stedsnr" v="609612" />
	</node>
	<node id="-288040" lat="59.7161759773" lon="9.6974715802">
		<tag k="name" v="Lurdalselva" />
		<tag k="ssr:stedsnr" v="574857" />
		<tag k="waterway" v="stream" />
	</node>
	<node id="-288031" lat="59.7116500037" lon="9.9183888926">
		<tag k="name" v="Tjernsauet" />
		<tag k="natural" v="water" />
		<tag k="ssr:stedsnr" v="696681" />
	</node>
	<node id="-288027" lat="59.7059595573" lon="9.70064750256">
		<tag k="name" v="Nedre Kongsvann" />
		<tag k="natural" v="water" />
		<tag k="ssr:stedsnr" v="695827" />
	</node>
	<node id="-288026" lat="59.8128972236" lon="9.76717499691">
		<tag k="name" v="Skrivertjern" />
		<tag k="natural" v="water" />
		<tag k="ssr:stedsnr" v="695546" />
	</node>
	<node id="-288021" lat="59.7724499983" lon="9.91900833012">
		<tag k="name" v="Øvre Sandøra" />
		<tag k="natural" v="cape" />
		<tag k="ssr:stedsnr" v="694830" />
	</node>
	<node id="-288014" lat="59.8190694483" lon="9.92271944241">
		<tag k="name" v="Bjørneputten" />
		<tag k="natural" v="water" />
		<tag k="ssr:stedsnr" v="693630" />
		<tag k="water" v="pond" />
	</node>
	<node id="-288011" lat="59.6882611129" lon="9.71133333136">
		<tag k="name" v="Fiskeløstjern" />
		<tag k="natural" v="water" />
		<tag k="ssr:stedsnr" v="693691" />
	</node>
	<node id="-288000" lat="59.7828333362" lon="9.71887221551">
		<tag k="name" v="Kristensplass" />
		<tag k="natural" v="cape" />
		<tag k="ssr:stedsnr" v="512936" />
	</node>
	<node id="-287992" lat="59.606369447" lon="9.93128610676">
		<tag k="name" v="Øksnedammen" />
		<tag k="ssr:stedsnr" v="509720" />
		<tag k="waterway" v="dam" />
	</node>
	<node id="-287988" lat="59.6406694487" lon="9.8688111117">
		<tag k="alt_name" v="Steffens Blekktjern" />
		<tag k="name" v="Steffensblekktjernet" />
		<tag k="natural" v="water" />
		<tag k="ssr:stedsnr" v="488539" />
	</node>
	<node id="-287986" lat="59.6268" lon="9.87611389737">
		<tag k="name" v="Holmtjern" />
		<tag k="natural" v="water" />
		<tag k="ssr:stedsnr" v="488513" />
	</node>
	<node id="-287984" lat="59.6270166705" lon="9.85001944322">
		<tag k="alt_name" v="Lille Fiskelaus" />
		<tag k="name" v="Lille Fiskelausen" />
		<tag k="natural" v="water" />
		<tag k="ssr:stedsnr" v="488502" />
	</node>
	<node id="-287980" lat="59.8313592201" lon="9.9626677759">
		<tag k="name" v="Framre Skarstjern" />
		<tag k="natural" v="water" />
		<tag k="ssr:stedsnr" v="671695" />
	</node>
	<node id="-287979" lat="59.7479027733" lon="9.74235555493">
		<tag k="alt_name" v="Høngassene" />
		<tag k="name" v="Nedre Høngassen" />
		<tag k="natural" v="water" />
		<tag k="ssr:stedsnr" v="671694" />
	</node>
	<node id="-287978" lat="59.8695222234" lon="9.9573916615">
		<tag k="fixme" v="multiple name tags, choose one and add the other to alt_name" />
		<tag k="name" v="Seterputten;Verpputten" />
		<tag k="natural" v="water" />
		<tag k="ssr:stedsnr" v="671664" />
	</node>
	<node id="-287975" lat="59.873952782" lon="9.96391111703">
		<tag k="fixme" v="multiple name tags, choose one and add the other to alt_name" />
		<tag k="name" v="Damtjern;Melumdamtjern" />
		<tag k="natural" v="water" />
		<tag k="ssr:stedsnr" v="671645" />
	</node>
	<node id="-287969" lat="59.7846699733" lon="9.72160834422">
		<tag k="name" v="Prestvannet" />
>>>>>>> e1d4bc35ff8a6074a6f2e91616a996b547c36f15
		<tag k="natural" v="water" />
		<tag k="ssr:stedsnr" v="671588" />
		<tag k="water" v="lake" />
	</node>
<<<<<<< HEAD
	<node lat="59.669202779361854" lon="9.79749444850775" id="-14008">
		<tag k="alt_name" v="Plometjern" />
		<tag k="name" v="Plommetjern" />
		<tag k="natural" v="water" />
		<tag k="ssr:stedsnr" v="3535" />
	</node>
	<node lat="59.74643889101608" lon="9.71328611442218" id="-14013">
		<tag k="name" v="Dørsjø" />
		<tag k="natural" v="water" />
		<tag k="ssr:stedsnr" v="3654" />
	</node>
	<node lat="59.7471138876625" lon="9.76053332581142" id="-14014">
		<tag k="alt_name" v="Junger" />
		<tag k="name" v="Jungeren" />
		<tag k="natural" v="water" />
		<tag k="ssr:stedsnr" v="3657" />
		<tag k="water" v="lake" />
	</node>
	<node lat="59.79784167075221" lon="9.729672219020491" id="-14016">
		<tag k="alt_name" v="Engtjern" />
		<tag k="name" v="Engetjern" />
		<tag k="natural" v="water" />
		<tag k="ssr:stedsnr" v="4496" />
	</node>
	<node lat="59.85328611194113" lon="9.996391673681169" id="-14018">
		<tag k="name" v="Grantjern" />
		<tag k="natural" v="water" />
		<tag k="ssr:stedsnr" v="4250" />
	</node>
	<node lat="59.865402774859355" lon="9.97075554948869" id="-14020">
		<tag k="alt_name" v="Kolbjørnsrudtjernet" />
		<tag k="name" v="Kolbjørnsrudtjern" />
		<tag k="natural" v="water" />
		<tag k="ssr:stedsnr" v="4335" />
	</node>
	<node lat="59.86752222288097" lon="9.94468888059025" id="-14023">
		<tag k="name" v="Verptjern" />
		<tag k="natural" v="water" />
		<tag k="ssr:stedsnr" v="4653" />
	</node>
	<node lat="59.84507500241101" lon="9.811161102910463" id="-14025">
		<tag k="name" v="Børjebekken" />
		<tag k="ssr:stedsnr" v="4735" />
		<tag k="waterway" v="stream" />
	</node>
	<node lat="59.859702778065625" lon="9.948180558220328" id="-14027">
		<tag k="name" v="Bergdamtjern" />
		<tag k="natural" v="water" />
		<tag k="ssr:stedsnr" v="4745" />
	</node>
	<node lat="59.643316670633844" lon="9.981783340471146" id="-14031">
		<tag k="name" v="Tryterudtangen" />
		<tag k="natural" v="cape" />
		<tag k="ssr:stedsnr" v="24151" />
	</node>
	<node lat="59.6276166650238" lon="9.932752779111143" id="-14036">
		<tag k="name" v="Storeelva" />
		<tag k="ssr:stedsnr" v="24763" />
		<tag k="waterway" v="stream" />
	</node>
	<node lat="59.81503055703429" lon="9.934577782091718" id="-14039">
		<tag k="name" v="Gampetangen" />
		<tag k="natural" v="cape" />
		<tag k="ssr:stedsnr" v="25612" />
	</node>
	<node lat="59.77553333352254" lon="9.849313893130397" id="-14040">
		<tag k="name" v="Haugbekken" />
		<tag k="ssr:stedsnr" v="25954" />
		<tag k="waterway" v="stream" />
	</node>
	<node lat="59.73321389310439" lon="9.765091672061068" id="-14042">
		<tag k="name" v="Tråsabekk" />
		<tag k="ssr:stedsnr" v="26131" />
		<tag k="waterway" v="stream" />
	</node>
	<node lat="59.72536111437336" lon="9.768747217439202" id="-14044">
		<tag k="name" v="Øvre Lundteigtjern" />
		<tag k="natural" v="water" />
		<tag k="ssr:stedsnr" v="26137" />
	</node>
	<node lat="59.734274998909584" lon="9.768777778178674" id="-14045">
		<tag k="name" v="Klarefoss" />
		<tag k="natural" v="waterfall" />
		<tag k="ssr:stedsnr" v="26149" />
	</node>
	<node lat="59.71435833035366" lon="9.699991663373392" id="-14062">
		<tag k="name" v="Reiershølen" />
		<tag k="natural" v="water" />
		<tag k="ssr:stedsnr" v="28856" />
	</node>
	<node lat="59.68590277595071" lon="9.972341671133576" id="-14070">
		<tag k="alt_name" v="Store Kroktjern" />
		<tag k="name" v="Kroktjern" />
		<tag k="natural" v="water" />
		<tag k="ssr:stedsnr" v="63194" />
	</node>
	<node lat="59.610958330385834" lon="9.896186110228514" id="-14073">
		<tag k="alt_name" v="Skattjern" />
		<tag k="name" v="Nordre Skattjernet" />
		<tag k="natural" v="water" />
		<tag k="ssr:stedsnr" v="64435" />
	</node>
	<node lat="59.68573655168461" lon="9.681903836980744" id="-14075">
		<tag k="name" v="Kjennerudvannet" />
		<tag k="natural" v="water" />
		<tag k="ssr:stedsnr" v="64605" />
		<tag k="water" v="lake" />
	</node>
	<node lat="59.83249069795419" lon="9.722738128384966" id="-14083">
		<tag k="name" v="Øvre Myresetertjern" />
		<tag k="natural" v="water" />
		<tag k="ssr:stedsnr" v="64696" />
	</node>
	<node lat="59.80306666423878" lon="9.943875005155755" id="-14100">
		<tag k="name" v="Bjørnetjern" />
		<tag k="natural" v="water" />
		<tag k="ssr:stedsnr" v="86509" />
		<tag k="water" v="pond" />
	</node>
	<node lat="59.81924722616208" lon="9.990163894196206" id="-14101">
		<tag k="name" v="Lerbergtjern" />
		<tag k="natural" v="water" />
		<tag k="ssr:stedsnr" v="86513" />
		<tag k="water" v="pond" />
	</node>
	<node lat="59.833766666942914" lon="9.990683331136577" id="-14105">
		<tag k="name" v="Vestre Sulustjern" />
		<tag k="natural" v="water" />
		<tag k="ssr:stedsnr" v="86635" />
	</node>
	<node lat="59.837150002222735" lon="9.97819721974464" id="-14106">
		<tag k="name" v="Nordre Trollåstjern" />
		<tag k="natural" v="water" />
		<tag k="ssr:stedsnr" v="86637" />
	</node>
	<node lat="59.83318333508627" lon="9.965624995306593" id="-14114">
		<tag k="name" v="Indre Skarstjern" />
		<tag k="natural" v="water" />
		<tag k="ssr:stedsnr" v="87610" />
	</node>
	<node lat="59.817163892116156" lon="9.789869441477556" id="-14120">
		<tag k="name" v="Spitkroken" />
		<tag k="place" v="locality" />
		<tag k="ssr:stedsnr" v="88465" />
	</node>
	<node lat="59.627455558620596" lon="9.886891672331997" id="-14126">
		<tag k="name" v="Flåtjern" />
		<tag k="natural" v="water" />
		<tag k="ssr:stedsnr" v="124475" />
	</node>
	<node lat="59.637663889186335" lon="9.851619440303724" id="-14127">
		<tag k="alt_name" v="Brånavannet" />
		<tag k="name" v="Fisås-Brånavann" />
		<tag k="natural" v="water" />
		<tag k="ssr:stedsnr" v="124488" />
		<tag k="water" v="lake" />
	</node>
	<node lat="59.65885000278857" lon="9.829622218338486" id="-14128">
		<tag k="alt_name" v="Urdsvann" />
		<tag k="name" v="Ursvann" />
		<tag k="natural" v="water" />
		<tag k="ssr:stedsnr" v="124494" />
		<tag k="water" v="lake" />
	</node>
	<node lat="59.70963976763692" lon="9.700485417926494" id="-14133">
		<tag k="fixme" v="multiple name tags, choose one and add the other to alt_name" />
		<tag k="name" v="Øvre Kongsvann;Kongsvann" />
		<tag k="natural" v="water" />
		<tag k="ssr:stedsnr" v="124590" />
	</node>
	<node lat="59.779113889145165" lon="9.732461116657367" id="-14134">
		<tag k="name" v="Gruvetjern" />
		<tag k="natural" v="water" />
		<tag k="ssr:stedsnr" v="125610" />
	</node>
	<node lat="59.79966944416629" lon="9.932041663746642" id="-14139">
		<tag k="name" v="Svarttjern" />
		<tag k="natural" v="water" />
		<tag k="ssr:stedsnr" v="125521" />
	</node>
	<node lat="59.795004963867015" lon="9.940755494916228" id="-14140">
		<tag k="name" v="Lauvtjern" />
		<tag k="natural" v="water" />
		<tag k="ssr:stedsnr" v="125523" />
	</node>
	<node lat="59.76870555441285" lon="9.837511102180716" id="-14152">
		<tag k="name" v="Gorudbekken" />
		<tag k="ssr:stedsnr" v="125638" />
		<tag k="waterway" v="stream" />
	</node>
	<node lat="59.766702774975556" lon="9.948244443594662" id="-14153">
		<tag k="name" v="Hagaøya" />
		<tag k="place" v="island" />
		<tag k="ssr:stedsnr" v="125641" />
	</node>
	<node lat="59.82736111408729" lon="9.757488885055695" id="-14156">
		<tag k="name" v="Hoggtjern" />
		<tag k="natural" v="water" />
		<tag k="ssr:stedsnr" v="125730" />
	</node>
	<node lat="59.67626666820263" lon="9.732391664416276" id="-14163">
		<tag k="name" v="Jøranruddammen" />
		<tag k="ssr:stedsnr" v="145490" />
		<tag k="waterway" v="dam" />
	</node>
	<node lat="59.80567499788921" lon="9.946166670357197" id="-14170">
		<tag k="name" v="Tvillingtjerna" />
		<tag k="natural" v="water" />
		<tag k="ssr:stedsnr" v="146450" />
		<tag k="water" v="pond" />
	</node>
	<node lat="59.79405278160363" lon="9.744683326934412" id="-14175">
		<tag k="name" v="Daleseterbekken" />
		<tag k="ssr:stedsnr" v="147698" />
		<tag k="waterway" v="stream" />
	</node>
	<node lat="59.68423889197729" lon="9.967530561016673" id="-14179">
		<tag k="name" v="Lågtjern" />
		<tag k="natural" v="water" />
		<tag k="ssr:stedsnr" v="148180" />
	</node>
	<node lat="59.71889528338266" lon="9.707484119325732" id="-14183">
		<tag k="name" v="Øvre Steintjern" />
		<tag k="natural" v="water" />
		<tag k="ssr:stedsnr" v="149846" />
	</node>
	<node lat="59.64441667093902" lon="9.853438884798905" id="-14192">
		<tag k="alt_name" v="Sætertjern" />
		<tag k="name" v="Setertjern" />
		<tag k="natural" v="water" />
		<tag k="ssr:stedsnr" v="185491" />
	</node>
	<node lat="59.67218611520099" lon="9.958536109961413" id="-14194">
		<tag k="alt_name" v="Søndre Svarttjern" />
		<tag k="name" v="Svarttjern" />
		<tag k="natural" v="water" />
		<tag k="ssr:stedsnr" v="185518" />
	</node>
	<node lat="59.699202688168604" lon="9.97966628410727" id="-14197">
		<tag k="name" v="Dritartjern" />
		<tag k="natural" v="water" />
		<tag k="ssr:stedsnr" v="185285" />
	</node>
	<node lat="59.682013890149065" lon="9.698811107283593" id="-14202">
		<tag k="name" v="Fiskumelva" />
		<tag k="ssr:stedsnr" v="185570" />
		<tag k="waterway" v="stream" />
	</node>
	<node lat="59.86285000179043" lon="10.022294448627349" id="-14207">
		<tag k="alt_name" v="Åsvatna" />
		<tag k="name" v="Åsvanna" />
		<tag k="natural" v="water" />
		<tag k="ssr:stedsnr" v="186267" />
		<tag k="water" v="lake" />
	</node>
	<node lat="59.85623252980665" lon="9.999366550875992" id="-14208">
		<tag k="alt_name" v="Indre Laupeina" />
		<tag k="name" v="Indre Laupenden" />
		<tag k="natural" v="water" />
		<tag k="ssr:stedsnr" v="186274" />
	</node>
	<node lat="59.837058337012145" lon="9.743644441120093" id="-14211">
		<tag k="name" v="Sandtjern" />
		<tag k="natural" v="water" />
		<tag k="ssr:stedsnr" v="186725" />
	</node>
	<node lat="59.85980555418393" lon="9.95376389299814" id="-14213">
		<tag k="alt_name" v="Vesledamtjern" />
		<tag k="name" v="Vesle Bergdamtjern" />
		<tag k="natural" v="water" />
		<tag k="ssr:stedsnr" v="186756" />
	</node>
	<node lat="59.651402780777396" lon="9.984958330803227" id="-14217">
		<tag k="name" v="Seterbekken" />
		<tag k="ssr:stedsnr" v="206188" />
		<tag k="waterway" v="stream" />
	</node>
	<node lat="59.71662221845981" lon="9.683347218152432" id="-14219">
		<tag k="name" v="Karusstjern" />
		<tag k="natural" v="water" />
		<tag k="ssr:stedsnr" v="205974" />
	</node>
	<node lat="59.727024999279266" lon="9.952538887927616" id="-14223">
		<tag k="name" v="Horneroa" />
		<tag k="natural" v="bay" />
		<tag k="ssr:stedsnr" v="207326" />
	</node>
	<node lat="59.812216669145045" lon="9.932344444922148" id="-14224">
		<tag k="name" v="Skarsstøa" />
		<tag k="natural" v="beach" />
		<tag k="ssr:stedsnr" v="207579" />
	</node>
	<node lat="59.72293332983077" lon="9.714305554604147" id="-14235">
		<tag k="name" v="Kjerringtjern" />
		<tag k="natural" v="water" />
		<tag k="ssr:stedsnr" v="208881" />
	</node>
	<node lat="59.76717778184056" lon="9.742602781194286" id="-14236">
		<tag k="name" v="Frågåttjern" />
		<tag k="natural" v="water" />
		<tag k="ssr:stedsnr" v="208916" />
	</node>
	<node lat="59.68408055234504" lon="9.72820000443283" id="-14238">
		<tag k="name" v="Jøranrudmoen" />
		<tag k="ssr:stedsnr" v="209659" />
		<tag k="waterway" v="stream" />
	</node>
	<node lat="59.63284166567028" lon="9.856247227862136" id="-14239">
		<tag k="name" v="Tvillingvannkulpene" />
		<tag k="natural" v="water" />
		<tag k="ssr:stedsnr" v="209908" />
		<tag k="water" v="lake" />
	</node>
	<node lat="59.84586110775901" lon="9.79743055677369" id="-14242">
		<tag k="name" v="Totjerna" />
		<tag k="natural" v="water" />
		<tag k="ssr:stedsnr" v="210651" />
		<tag k="water" v="lake" />
	</node>
	<node lat="59.896541663203955" lon="9.692605563745369" id="-14247">
		<tag k="name" v="Ulsbekk" />
		<tag k="ssr:stedsnr" v="298317" />
		<tag k="waterway" v="stream" />
	</node>
	<node lat="59.71613611026262" lon="9.714275003381129" id="-14251">
		<tag k="name" v="Grønntjern" />
		<tag k="natural" v="water" />
		<tag k="ssr:stedsnr" v="306590" />
	</node>
	<node lat="59.8193499973109" lon="9.982094438093094" id="-14254">
		<tag k="alt_name" v="Kjellertjernet" />
		<tag k="name" v="Kjellertjern" />
		<tag k="natural" v="water" />
		<tag k="ssr:stedsnr" v="307239" />
	</node>
	<node lat="59.62205319227479" lon="9.910182360198116" id="-14257">
		<tag k="alt_name" v="Blikktjernet" />
		<tag k="name" v="Blikktjern" />
		<tag k="natural" v="water" />
		<tag k="ssr:stedsnr" v="307530" />
	</node>
	<node lat="59.77178268678014" lon="9.746888978082469" id="-14259">
		<tag k="name" v="Kroktjern" />
		<tag k="natural" v="water" />
		<tag k="ssr:stedsnr" v="307628" />
	</node>
	<node lat="59.84565429757065" lon="9.743004233962372" id="-14264">
		<tag k="name" v="Åbbortjern" />
		<tag k="natural" v="water" />
		<tag k="ssr:stedsnr" v="308735" />
	</node>
	<node lat="59.76942222417865" lon="9.937375000853054" id="-14266">
		<tag k="name" v="Nedre Sandøra" />
		<tag k="place" v="island" />
		<tag k="ssr:stedsnr" v="326737" />
	</node>
	<node lat="59.71867777357158" lon="9.682394441671441" id="-14268">
		<tag k="name" v="Tuetjern" />
		<tag k="natural" v="water" />
		<tag k="ssr:stedsnr" v="326972" />
	</node>
	<node lat="59.72206388811325" lon="9.666394437844193" id="-14269">
		<tag k="name" v="Skarsbekken" />
		<tag k="ssr:stedsnr" v="327729" />
		<tag k="waterway" v="stream" />
	</node>
	<node lat="59.729516669200585" lon="9.894672214278055" id="-14271">
		<tag k="name" v="Dammen" />
		<tag k="ssr:stedsnr" v="329275" />
		<tag k="waterway" v="dam" />
	</node>
	<node lat="59.678784702775225" lon="9.956696409143305" id="-14293">
		<tag k="name" v="Kimetjern" />
		<tag k="natural" v="water" />
		<tag k="ssr:stedsnr" v="367532" />
	</node>
	<node lat="59.7638033678197" lon="9.927239492508622" id="-14295">
		<tag k="name" v="Losmoen" />
		<tag k="place" v="island" />
		<tag k="ssr:stedsnr" v="367519" />
	</node>
	<node lat="59.743930616981814" lon="9.797121601389007" id="-14304">
		<tag k="alt_name" v="Kolbergtjernet" />
		<tag k="name" v="Kolbergtjern" />
		<tag k="natural" v="water" />
		<tag k="ssr:stedsnr" v="367668" />
	</node>
	<node lat="59.77972657829067" lon="9.78007641885452" id="-14313">
		<tag k="alt_name" v="Asktjern" />
		<tag k="name" v="Asketjern" />
		<tag k="natural" v="water" />
		<tag k="ssr:stedsnr" v="368639" />
	</node>
	<node lat="59.63355555255194" lon="9.935183339401382" id="-14320">
		<tag k="name" v="Vesleelva" />
		<tag k="ssr:stedsnr" v="388734" />
		<tag k="waterway" v="stream" />
	</node>
	<node lat="59.6188027751692" lon="9.940152773084526" id="-14321">
		<tag k="name" v="Bassenget" />
		<tag k="ssr:stedsnr" v="388735" />
		<tag k="waterway" v="dam" />
	</node>
	<node lat="59.72733888474919" lon="9.941919444305196" id="-14329">
		<tag k="name" v="Peneberga" />
		<tag k="natural" v="cape" />
		<tag k="ssr:stedsnr" v="390358" />
	</node>
	<node lat="59.74576666594796" lon="9.730405554800889" id="-14331">
		<tag k="name" v="Smietjern" />
		<tag k="natural" v="water" />
		<tag k="ssr:stedsnr" v="390377" />
	</node>
	<node lat="59.73537500369241" lon="9.70596389518054" id="-14333">
		<tag k="name" v="Hansetjern" />
		<tag k="natural" v="water" />
		<tag k="ssr:stedsnr" v="390865" />
	</node>
	<node lat="59.78579999968055" lon="9.900383338350883" id="-14334">
		<tag k="name" v="Midtskjæret" />
		<tag k="place" v="islet" />
		<tag k="ssr:stedsnr" v="390825" />
	</node>
	<node lat="59.6673777787422" lon="9.867369437643305" id="-14342">
		<tag k="name" v="Karstjernbekken" />
		<tag k="ssr:stedsnr" v="392746" />
		<tag k="waterway" v="stream" />
	</node>
	<node lat="59.68221388920076" lon="9.687716673977096" id="-14343">
		<tag k="name" v="Kjennerudvannsbekken" />
		<tag k="ssr:stedsnr" v="448890" />
		<tag k="waterway" v="stream" />
	</node>
	<node lat="59.60579722149191" lon="9.873033332813609" id="-14345">
		<tag k="alt_name" v="Fagervann" />
		<tag k="name" v="Fagervannet" />
		<tag k="natural" v="water" />
		<tag k="ssr:stedsnr" v="428399" />
	</node>
	<node lat="59.726480551265084" lon="9.944002782572959" id="-14360">
		<tag k="name" v="Åletjern" />
		<tag k="natural" v="water" />
		<tag k="ssr:stedsnr" v="428645" />
	</node>
	<node lat="59.830072834337464" lon="9.71497557949687" id="-14367">
		<tag k="alt_name" v="Tjurutjern" />
		<tag k="name" v="Tjurumtjern" />
		<tag k="natural" v="water" />
		<tag k="ssr:stedsnr" v="429709" />
	</node>
	<node lat="59.847458855842575" lon="9.761461774992144" id="-14371">
		<tag k="name" v="Tryggtjern" />
		<tag k="natural" v="water" />
		<tag k="ssr:stedsnr" v="429739" />
	</node>
	<node lat="59.70669955184882" lon="9.828941212348106" id="-14372">
		<tag k="name" v="Fiskumvannet" />
		<tag k="natural" v="water" />
		<tag k="ssr:stedsnr" v="670600" />
		<tag k="water" v="lake" />
	</node>
	<node lat="59.71103888461246" lon="9.718433325671292" id="-14373">
		<tag k="name" v="Karlstjern" />
		<tag k="natural" v="water" />
		<tag k="ssr:stedsnr" v="670634" />
	</node>
	<node lat="59.71442499711929" lon="9.680258340367248" id="-14379">
		<tag k="name" v="Igletjern" />
		<tag k="natural" v="water" />
		<tag k="ssr:stedsnr" v="508981" />
	</node>
	<node lat="59.88009528895243" lon="9.735642613826913" id="-14387">
		<tag k="name" v="Farlighet" />
		<tag k="ssr:stedsnr" v="511383" />
		<tag k="waterway" v="rapids" />
	</node>
	<node lat="59.812713888778944" lon="9.925633340625566" id="-14392">
		<tag k="name" v="Ormetjern" />
		<tag k="natural" v="water" />
		<tag k="ssr:stedsnr" v="511581" />
	</node>
	<node lat="59.76789167070529" lon="9.751533327108941" id="-14398">
		<tag k="name" v="Spærensetertjern" />
		<tag k="natural" v="water" />
		<tag k="ssr:stedsnr" v="512097" />
	</node>
	<node lat="59.61188055204502" lon="9.887736102534765" id="-14405">
		<tag k="name" v="Vesle Tistillen" />
		<tag k="natural" v="bay" />
		<tag k="ssr:stedsnr" v="512564" />
	</node>
	<node lat="59.79662221870609" lon="9.76459443665032" id="-14406">
		<tag k="name" v="Hoensvannsløken" />
		<tag k="natural" v="water" />
		<tag k="ssr:stedsnr" v="512803" />
	</node>
	<node lat="59.78283333615167" lon="9.718872215508245" id="-14407">
		<tag k="name" v="Kristensplass" />
		<tag k="natural" v="cape" />
		<tag k="ssr:stedsnr" v="512936" />
	</node>
	<node lat="59.65484166951784" lon="9.777722217446435" id="-14416">
		<tag k="name" v="Vegotjern" />
		<tag k="natural" v="water" />
		<tag k="ssr:stedsnr" v="549533" />
	</node>
	<node lat="59.86088333094356" lon="10.02213333297788" id="-14428">
		<tag k="name" v="Flistjern" />
		<tag k="natural" v="water" />
		<tag k="ssr:stedsnr" v="549275" />
	</node>
	<node lat="59.59924444336142" lon="9.931594444824215" id="-14429">
		<tag k="alt_name" v="Brandturtangen" />
		<tag k="name" v="Branturtangen" />
		<tag k="natural" v="cape" />
		<tag k="ssr:stedsnr" v="549433" />
	</node>
	<node lat="59.826283330650085" lon="9.937511114956472" id="-14433">
		<tag k="name" v="Skogsvannet" />
		<tag k="natural" v="water" />
		<tag k="ssr:stedsnr" v="549689" />
		<tag k="water" v="lake" />
	</node>
	<node lat="59.61670833757492" lon="9.938236118437526" id="-14434">
		<tag k="alt_name" v="Gråbeintjernet" />
		<tag k="name" v="Gråbeintjern" />
		<tag k="natural" v="water" />
		<tag k="ssr:stedsnr" v="549480" />
	</node>
	<node lat="59.6236956952848" lon="9.898823340532331" id="-14435">
		<tag k="name" v="Store Ålevann" />
		<tag k="natural" v="water" />
		<tag k="ssr:stedsnr" v="549483" />
	</node>
	<node lat="59.70052221899599" lon="9.859130549505025" id="-14437">
		<tag k="alt_name" v="Tangen" />
		<tag k="name" v="Sandstangen" />
		<tag k="natural" v="cape" />
		<tag k="ssr:stedsnr" v="549596" />
	</node>
	<node lat="59.78216388790643" lon="9.77307777728541" id="-14441">
		<tag k="alt_name" v="Ormtjern" />
		<tag k="name" v="Ormetjern" />
		<tag k="natural" v="water" />
		<tag k="ssr:stedsnr" v="550588" />
	</node>
	<node lat="59.8341749997401" lon="10.008255557548141" id="-14442">
		<tag k="name" v="Grauten" />
		<tag k="natural" v="water" />
		<tag k="ssr:stedsnr" v="550273" />
	</node>
	<node lat="59.86590833074462" lon="9.711050006754302" id="-14450">
		<tag k="name" v="Smedselva" />
		<tag k="ssr:stedsnr" v="571378" />
		<tag k="waterway" v="stream" />
	</node>
	<node lat="59.89656944348883" lon="9.741527777070717" id="-14451">
		<tag k="name" v="Hammerfoss" />
		<tag k="natural" v="waterfall" />
		<tag k="ssr:stedsnr" v="571389" />
	</node>
	<node lat="59.839902778261155" lon="9.928319451220094" id="-14453">
		<tag k="name" v="Horsrudbekken" />
		<tag k="ssr:stedsnr" v="571581" />
		<tag k="waterway" v="stream" />
	</node>
	<node lat="59.74370555595375" lon="9.748677769671371" id="-14458">
		<tag k="name" v="Spannslokket" />
		<tag k="natural" v="water" />
		<tag k="ssr:stedsnr" v="572424" />
	</node>
	<node lat="59.64846990680945" lon="9.85571345631648" id="-14470">
		<tag k="loc_name" v="Raudfolakulpen" />
		<tag k="name" v="Raufålakulpen" />
		<tag k="natural" v="water" />
		<tag k="ssr:stedsnr" v="574919" />
		<tag k="water" v="pond" />
	</node>
	<node lat="59.61772499978665" lon="9.88810555415475" id="-14472">
		<tag k="name" v="Store Brånevann" />
		<tag k="natural" v="water" />
		<tag k="ssr:stedsnr" v="605944" />
	</node>
	<node lat="59.65400833672016" lon="9.79901388545531" id="-14473">
		<tag k="name" v="Møyretjern" />
		<tag k="natural" v="water" />
		<tag k="ssr:stedsnr" v="609524" />
	</node>
	<node lat="59.71567222160371" lon="9.737997219656343" id="-14474">
		<tag k="name" v="Merratjern" />
		<tag k="natural" v="water" />
		<tag k="ssr:stedsnr" v="609597" />
	</node>
	<node lat="59.73165856271888" lon="9.962065397530429" id="-14475">
		<tag k="name" v="Igletjern" />
		<tag k="natural" v="water" />
		<tag k="ssr:stedsnr" v="609612" />
	</node>
	<node lat="59.69585278130165" lon="9.694636119266537" id="-14481">
		<tag k="alt_name" v="Muggerudtjern" />
		<tag k="name" v="Muggerudtjernet" />
		<tag k="natural" v="water" />
		<tag k="ssr:stedsnr" v="610660" />
	</node>
	<node lat="59.86660277525999" lon="9.81518888787791" id="-14482">
		<tag k="name" v="Sørlibekken" />
		<tag k="ssr:stedsnr" v="610671" />
		<tag k="waterway" v="stream" />
	</node>
	<node lat="59.83616111519294" lon="9.851811113622334" id="-14483">
		<tag k="name" v="Spitelva" />
		<tag k="ssr:stedsnr" v="610737" />
		<tag k="waterway" v="river" />
	</node>
	<node lat="59.800466671167385" lon="9.975433326350506" id="-14484">
		<tag k="name" v="Sagelva" />
		<tag k="ssr:stedsnr" v="610290" />
		<tag k="waterway" v="stream" />
	</node>
	<node lat="59.857702776938446" lon="10.026963894871784" id="-14485">
		<tag k="name" v="Aureputten" />
		<tag k="natural" v="water" />
		<tag k="ssr:stedsnr" v="610304" />
	</node>
	<node lat="59.8561194443696" lon="9.975166659867432" id="-14486">
		<tag k="name" v="Bikkjetjern" />
		<tag k="natural" v="water" />
		<tag k="ssr:stedsnr" v="610308" />
	</node>
	<node lat="59.831866664568906" lon="9.994022221219618" id="-14487">
		<tag k="alt_name" v="Østre Sulustjern" />
		<tag k="name" v="Sulustjerna" />
		<tag k="natural" v="water" />
		<tag k="ssr:stedsnr" v="610322" />
	</node>
	<node lat="59.78662499844599" lon="9.771986114698214" id="-14491">
		<tag k="alt_name" v="Lille Honsvannet" />
		<tag k="name" v="Vesle Hoensvannet" />
		<tag k="natural" v="water" />
		<tag k="old_name" v="Honsvannet, l" />
		<tag k="ssr:stedsnr" v="610569" />
	</node>
	<node lat="59.816905557099716" lon="9.771427786415023" id="-14493">
		<tag k="name" v="Hoggtjernbekken" />
		<tag k="ssr:stedsnr" v="610572" />
		<tag k="waterway" v="stream" />
	</node>
	<node lat="59.81781666231356" lon="9.722227772953811" id="-14494">
		<tag k="name" v="Krokvannet" />
		<tag k="natural" v="water" />
		<tag k="ssr:stedsnr" v="610576" />
	</node>
	<node lat="59.735236115377745" lon="9.712813895264421" id="-14500">
		<tag k="name" v="Søndre Svarttjern" />
		<tag k="natural" v="water" />
		<tag k="ssr:stedsnr" v="610696" />
	</node>
	<node lat="59.880602779391964" lon="9.695811108319406" id="-14501">
		<tag k="name" v="Svartbekkdammen" />
		<tag k="natural" v="water" />
		<tag k="ssr:stedsnr" v="610701" />
	</node>
	<node lat="59.856655558453184" lon="9.712088888985887" id="-14502">
		<tag k="name" v="Tverrelva" />
		<tag k="ssr:stedsnr" v="610753" />
		<tag k="waterway" v="stream" />
	</node>
	<node lat="59.70605278160923" lon="9.6888694368985" id="-14504">
=======
	<node id="-287963" lat="59.6148995535" lon="9.88343926503">
		<tag k="alt_name" v="Burvannet" />
		<tag k="name" v="Burvann" />
		<tag k="natural" v="water" />
		<tag k="ssr:stedsnr" v="671512" />
	</node>
	<node id="-287962" lat="59.5785500028" lon="9.93522778456">
		<tag k="alt_name" v="Mjøvann" />
		<tag k="name" v="Mjøvannet" />
		<tag k="natural" v="water" />
		<tag k="ssr:stedsnr" v="671489" />
		<tag k="water" v="lake" />
	</node>
	<node id="-287961" lat="59.6097805537" lon="9.91953054717">
		<tag k="alt_name" v="Mørtjern" />
		<tag k="name" v="Mørtjernet" />
		<tag k="natural" v="water" />
		<tag k="ssr:stedsnr" v="671434" />
	</node>
	<node id="-287960" lat="59.8309361151" lon="10.0066249922">
		<tag k="alt_name" v="Villinga" />
		<tag k="name" v="Vellingen" />
		<tag k="natural" v="water" />
		<tag k="ssr:stedsnr" v="671285" />
	</node>
	<node id="-287956" lat="59.7110388846" lon="9.71843332567">
		<tag k="name" v="Karlstjern" />
		<tag k="natural" v="water" />
		<tag k="ssr:stedsnr" v="670634" />
	</node>
	<node id="-287954" lat="59.7036470233" lon="9.66375112552">
		<tag k="fixme" v="multiple name tags, choose one and add the other to alt_name" />
		<tag k="name" v="Langtjern;Langevann" />
		<tag k="natural" v="water" />
		<tag k="ssr:stedsnr" v="670613" />
	</node>
	<node id="-287951" lat="59.7066995518" lon="9.82894121235">
		<tag k="name" v="Fiskumvannet" />
		<tag k="natural" v="water" />
		<tag k="ssr:stedsnr" v="670600" />
		<tag k="water" v="lake" />
	</node>
	<node id="-287950" lat="59.6930055552" lon="9.68645833492">
		<tag k="name" v="Svartkulp" />
		<tag k="natural" v="water" />
		<tag k="ssr:stedsnr" v="670585" />
	</node>
	<node id="-287948" lat="59.6603015844" lon="9.80467866753">
		<tag k="name" v="Flåtjern" />
		<tag k="natural" v="water" />
		<tag k="ssr:stedsnr" v="670539" />
	</node>
	<node id="-287945" lat="59.6315416639" lon="9.95708055893">
		<tag k="name" v="Holtøya" />
		<tag k="place" v="island" />
		<tag k="ssr:stedsnr" v="670488" />
	</node>
	<node id="-287943" lat="59.702530558" lon="9.90848333037">
		<tag k="name" v="Kringletjern" />
		<tag k="natural" v="water" />
		<tag k="ssr:stedsnr" v="453703" />
	</node>
	<node id="-287938" lat="59.6970583313" lon="9.89872221357">
		<tag k="name" v="Hamreelva" />
		<tag k="ssr:stedsnr" v="452707" />
		<tag k="waterway" v="stream" />
	</node>
	<node id="-287935" lat="59.8397788163" lon="9.97439257201">
		<tag k="name" v="Tretjerna" />
		<tag k="natural" v="water" />
		<tag k="ssr:stedsnr" v="451622" />
		<tag k="water" v="lake" />
	</node>
	<node id="-287929" lat="59.8231777777" lon="9.89732499559">
		<tag k="name" v="Kverk hengsle" />
		<tag k="natural" v="cape" />
		<tag k="ssr:stedsnr" v="450639" />
	</node>
	<node id="-287927" lat="59.8162666692" lon="9.91920277958">
		<tag k="alt_name" v="Framre Småtjern" />
		<tag k="name" v="Fremre Småtjern" />
		<tag k="natural" v="water" />
		<tag k="ssr:stedsnr" v="450634" />
	</node>
	<node id="-287926" lat="59.8367138904" lon="10.0127333246">
		<tag k="name" v="Hobbelstadtjern" />
		<tag k="natural" v="water" />
		<tag k="ssr:stedsnr" v="450630" />
	</node>
	<node id="-287920" lat="59.8300728343" lon="9.7149755795">
		<tag k="alt_name" v="Tjurutjern" />
		<tag k="name" v="Tjurumtjern" />
		<tag k="natural" v="water" />
		<tag k="ssr:stedsnr" v="429709" />
	</node>
	<node id="-287915" lat="59.5993132339" lon="9.91960831073">
		<tag k="name" v="Øksne" />
		<tag k="natural" v="water" />
		<tag k="ssr:stedsnr" v="428421" />
		<tag k="water" v="lake" />
	</node>
	<node id="-287909" lat="59.654908335" lon="9.95602223085">
		<tag k="name" v="Sandvik" />
		<tag k="natural" v="bay" />
		<tag k="ssr:stedsnr" v="513229" />
	</node>
	<node id="-287908" lat="59.679822223" lon="9.93518055731">
		<tag k="name" v="Tørrbekken" />
		<tag k="ssr:stedsnr" v="513180" />
		<tag k="waterway" v="stream" />
	</node>
	<node id="-287906" lat="59.7966222187" lon="9.76459443665">
		<tag k="name" v="Hoensvannsløken" />
		<tag k="natural" v="water" />
		<tag k="ssr:stedsnr" v="512803" />
	</node>
	<node id="-287904" lat="59.7966916684" lon="9.77424722648">
		<tag k="name" v="Sjøglimt" />
		<tag k="natural" v="water" />
		<tag k="ssr:stedsnr" v="512881" />
	</node>
	<node id="-287900" lat="59.611880552" lon="9.88773610253">
		<tag k="name" v="Vesle Tistillen" />
		<tag k="natural" v="bay" />
		<tag k="ssr:stedsnr" v="512564" />
	</node>
	<node id="-287897" lat="59.7678916707" lon="9.75153332711">
		<tag k="name" v="Spærensetertjern" />
		<tag k="natural" v="water" />
		<tag k="ssr:stedsnr" v="512097" />
	</node>
	<node id="-287890" lat="59.8127138888" lon="9.92563334063">
		<tag k="name" v="Ormetjern" />
		<tag k="natural" v="water" />
		<tag k="ssr:stedsnr" v="511581" />
	</node>
	<node id="-287884" lat="59.8474999994" lon="9.71391111345">
		<tag k="name" v="Nedre Blygåttjern" />
		<tag k="natural" v="water" />
		<tag k="ssr:stedsnr" v="511706" />
	</node>
	<node id="-287883" lat="59.880095289" lon="9.73564261383">
		<tag k="name" v="Farlighet" />
		<tag k="ssr:stedsnr" v="511383" />
		<tag k="waterway" v="rapids" />
	</node>
	<node id="-287876" lat="59.7144249971" lon="9.68025834037">
		<tag k="name" v="Igletjern" />
		<tag k="natural" v="water" />
		<tag k="ssr:stedsnr" v="508981" />
	</node>
	<node id="-287875" lat="59.6505111089" lon="9.99282223069">
		<tag k="name" v="Tryterudelva" />
		<tag k="ssr:stedsnr" v="505133" />
		<tag k="waterway" v="stream" />
	</node>
	<node id="-287870" lat="59.7353750037" lon="9.70596389518">
		<tag k="name" v="Hansetjern" />
		<tag k="natural" v="water" />
		<tag k="ssr:stedsnr" v="390865" />
	</node>
	<node id="-287868" lat="59.7273388847" lon="9.94191944431">
		<tag k="name" v="Peneberga" />
		<tag k="natural" v="cape" />
		<tag k="ssr:stedsnr" v="390358" />
	</node>
	<node id="-287860" lat="59.7127861082" lon="9.68407221509">
		<tag k="name" v="Lauvlitjern" />
		<tag k="natural" v="water" />
		<tag k="ssr:stedsnr" v="387972" />
	</node>
	<node id="-287854" lat="59.7841379897" lon="9.94939774361">
		<tag k="name" v="Hagatjern" />
		<tag k="natural" v="water" />
		<tag k="ssr:stedsnr" v="489636" />
	</node>
	<node id="-287850" lat="59.7684333366" lon="9.73414166538">
		<tag k="name" v="Svartskurdtjern" />
		<tag k="natural" v="water" />
		<tag k="ssr:stedsnr" v="489600" />
	</node>
	<node id="-287848" lat="59.8108922443" lon="9.78928204194">
		<tag k="name" v="Nestvolltjern" />
		<tag k="natural" v="water" />
		<tag k="ssr:stedsnr" v="489572" />
	</node>
	<node id="-287847" lat="59.8091694456" lon="9.70927777324">
		<tag k="name" v="Krokvassløkin" />
		<tag k="natural" v="water" />
		<tag k="ssr:stedsnr" v="489563" />
		<tag k="water" v="lake" />
	</node>
	<node id="-287846" lat="59.8127631601" lon="9.77498048466">
		<tag k="alt_name" v="Ammerudtjern" />
		<tag k="name" v="Ammenrudtjern" />
		<tag k="natural" v="water" />
		<tag k="ssr:stedsnr" v="489562" />
	</node>
	<node id="-287845" lat="59.790438727" lon="9.76657143615">
		<tag k="name" v="Hoensvannet" />
		<tag k="natural" v="water" />
		<tag k="ssr:stedsnr" v="489557" />
		<tag k="water" v="lake" />
	</node>
	<node id="-287839" lat="59.8570888915" lon="10.0145361118">
		<tag k="alt_name" v="Størtjern" />
		<tag k="name" v="Storrtjern" />
		<tag k="natural" v="water" />
		<tag k="ssr:stedsnr" v="489300" />
	</node>
	<node id="-287824" lat="59.7694222242" lon="9.93737500085">
		<tag k="name" v="Nedre Sandøra" />
		<tag k="place" v="island" />
		<tag k="ssr:stedsnr" v="326737" />
	</node>
	<node id="-287817" lat="59.7195138927" lon="9.93056944437">
		<tag k="name" v="Stortjern" />
		<tag k="natural" v="water" />
		<tag k="ssr:stedsnr" v="270475" />
		<tag k="water" v="lake" />
	</node>
	<node id="-287807" lat="59.8938083309" lon="9.72172500377">
		<tag k="name" v="Djupedalsbekken" />
		<tag k="ssr:stedsnr" v="269409" />
		<tag k="waterway" v="stream" />
	</node>
	<node id="-287801" lat="59.8018527734" lon="9.9679555543">
		<tag k="name" v="Lillebyputten" />
		<tag k="natural" v="water" />
		<tag k="ssr:stedsnr" v="268506" />
		<tag k="water" v="pond" />
	</node>
	<node id="-287800" lat="59.8781598039" lon="9.70569671812">
		<tag k="name" v="Svartbekken" />
		<tag k="ssr:stedsnr" v="268369" />
		<tag k="waterway" v="stream" />
	</node>
	<node id="-287793" lat="59.6698722234" lon="9.86863610933">
		<tag k="name" v="Gunhildrudbekken" />
		<tag k="ssr:stedsnr" v="452595" />
		<tag k="waterway" v="stream" />
	</node>
	<node id="-287787" lat="59.7847861113" lon="9.90311389126">
		<tag k="name" v="Landskjæret" />
		<tag k="place" v="islet" />
		<tag k="ssr:stedsnr" v="451850" />
	</node>
	<node id="-287783" lat="59.5912447344" lon="9.91566480692">
		<tag k="name" v="Vesle Øksne" />
		<tag k="natural" v="water" />
		<tag k="ssr:stedsnr" v="451527" />
		<tag k="water" v="lake" />
	</node>
	<node id="-287782" lat="59.5918749982" lon="9.91983610652">
		<tag k="name" v="Kutjern" />
		<tag k="natural" v="water" />
		<tag k="ssr:stedsnr" v="451526" />
	</node>
	<node id="-287771" lat="59.8536222179" lon="10.0463083357">
		<tag k="name" v="Sandungselva" />
		<tag k="ssr:stedsnr" v="450682" />
		<tag k="waterway" v="stream" />
	</node>
	<node id="-287770" lat="59.8346472238" lon="9.98006944894">
		<tag k="name" v="Søndre Trollåstjern" />
		<tag k="natural" v="water" />
		<tag k="ssr:stedsnr" v="450657" />
	</node>
	<node id="-287765" lat="59.725052775" lon="9.94709166212">
		<tag k="name" v="Sandgrunn" />
		<tag k="natural" v="bay" />
		<tag k="ssr:stedsnr" v="450338" />
	</node>
	<node id="-287760" lat="59.6822138892" lon="9.68771667398">
		<tag k="name" v="Kjennerudvannsbekken" />
		<tag k="ssr:stedsnr" v="448890" />
		<tag k="waterway" v="stream" />
	</node>
	<node id="-287756" lat="59.8965416632" lon="9.69260556375">
		<tag k="name" v="Ulsbekk" />
		<tag k="ssr:stedsnr" v="298317" />
		<tag k="waterway" v="stream" />
	</node>
	<node id="-287752" lat="59.6328416657" lon="9.85624722786">
		<tag k="name" v="Tvillingvannkulpene" />
		<tag k="natural" v="water" />
		<tag k="ssr:stedsnr" v="209908" />
		<tag k="water" v="lake" />
	</node>
	<node id="-287751" lat="59.7514499958" lon="9.77065555236">
		<tag k="name" v="Svarttjern" />
		<tag k="natural" v="water" />
		<tag k="ssr:stedsnr" v="209209" />
	</node>
	<node id="-287749" lat="59.6514027808" lon="9.9849583308">
		<tag k="name" v="Seterbekken" />
		<tag k="ssr:stedsnr" v="206188" />
		<tag k="waterway" v="stream" />
	</node>
	<node id="-287745" lat="59.8598055542" lon="9.953763893">
		<tag k="alt_name" v="Vesledamtjern" />
		<tag k="name" v="Vesle Bergdamtjern" />
		<tag k="natural" v="water" />
		<tag k="ssr:stedsnr" v="186756" />
	</node>
	<node id="-287743" lat="59.6811333297" lon="9.74440833837">
		<tag k="name" v="Liverudbekken" />
		<tag k="ssr:stedsnr" v="148675" />
		<tag k="waterway" v="stream" />
	</node>
	<node id="-287739" lat="59.6939000033" lon="9.98810555786">
		<tag k="name" v="Øvre Fisketjern" />
		<tag k="natural" v="water" />
		<tag k="ssr:stedsnr" v="148156" />
	</node>
	<node id="-287725" lat="59.8131111113" lon="9.73154166827">
		<tag k="name" v="Honsetertjern" />
		<tag k="natural" v="water" />
		<tag k="ssr:stedsnr" v="270587" />
	</node>
	<node id="-287721" lat="59.6871805567" lon="9.96551110449">
		<tag k="name" v="Skistadtjern" />
		<tag k="natural" v="water" />
		<tag k="ssr:stedsnr" v="270198" />
	</node>
	<node id="-287718" lat="59.7770444471" lon="9.90529722197">
		<tag k="name" v="Risøra" />
		<tag k="natural" v="cape" />
		<tag k="ssr:stedsnr" v="269851" />
	</node>
	<node id="-287714" lat="59.6108388933" lon="9.87915277815">
		<tag k="name" v="Burvannskulpen" />
		<tag k="natural" v="water" />
		<tag k="ssr:stedsnr" v="269530" />
	</node>
	<node id="-287713" lat="59.5949361123" lon="9.90552500373">
		<tag k="name" v="Makrelltjern" />
		<tag k="natural" v="water" />
		<tag k="ssr:stedsnr" v="269528" />
	</node>
	<node id="-287710" lat="59.8212447864" lon="9.97671214209">
		<tag k="name" v="Drammenstjern" />
		<tag k="natural" v="water" />
		<tag k="ssr:stedsnr" v="268587" />
	</node>
	<node id="-287705" lat="59.7256583335" lon="9.93868889736">
		<tag k="name" v="Kuleroa" />
		<tag k="natural" v="bay" />
		<tag k="ssr:stedsnr" v="268337" />
	</node>
	<node id="-287694" lat="59.7791138891" lon="9.73246111666">
		<tag k="name" v="Gruvetjern" />
		<tag k="natural" v="water" />
		<tag k="ssr:stedsnr" v="125610" />
	</node>
	<node id="-287690" lat="59.6850416665" lon="9.94785832556">
		<tag k="name" v="Setertjern" />
		<tag k="natural" v="water" />
		<tag k="ssr:stedsnr" v="88131" />
	</node>
	<node id="-287682" lat="59.8192472262" lon="9.9901638942">
		<tag k="name" v="Lerbergtjern" />
		<tag k="natural" v="water" />
		<tag k="ssr:stedsnr" v="86513" />
		<tag k="water" v="pond" />
	</node>
	<node id="-287681" lat="59.8030666642" lon="9.94387500516">
		<tag k="name" v="Bjørnetjern" />
		<tag k="natural" v="water" />
		<tag k="ssr:stedsnr" v="86509" />
		<tag k="water" v="pond" />
	</node>
	<node id="-287680" lat="59.6208750009" lon="9.90207777684">
		<tag k="name" v="Vesle Ålevann" />
		<tag k="natural" v="water" />
		<tag k="ssr:stedsnr" v="85875" />
	</node>
	<node id="-287677" lat="59.8563225819" lon="9.95753069181">
		<tag k="name" v="Kringletjern" />
		<tag k="natural" v="water" />
		<tag k="ssr:stedsnr" v="247720" />
	</node>
	<node id="-287673" lat="59.7798429264" lon="9.80306841179">
		<tag k="name" v="Himsjø" />
		<tag k="natural" v="water" />
		<tag k="ssr:stedsnr" v="247573" />
		<tag k="water" v="lake" />
	</node>
	<node id="-287669" lat="59.8014324802" lon="9.93858399469">
		<tag k="name" v="Ormetjern" />
		<tag k="natural" v="water" />
		<tag k="ssr:stedsnr" v="247488" />
	</node>
	<node id="-287668" lat="59.7971777783" lon="9.9515916726">
		<tag k="name" v="Stikkabekken" />
		<tag k="ssr:stedsnr" v="247487" />
		<tag k="waterway" v="stream" />
	</node>
	<node id="-287664" lat="59.8211916653" lon="9.93990000092">
		<tag k="alt_name" v="Gjeveltseterbekken" />
		<tag k="name" v="Geveltseterbekken" />
		<tag k="ssr:stedsnr" v="246679" />
		<tag k="waterway" v="stream" />
	</node>
	<node id="-287660" lat="59.7373027747" lon="9.71421110408">
		<tag k="name" v="Nordre Svarttjern" />
		<tag k="natural" v="water" />
		<tag k="ssr:stedsnr" v="246647" />
	</node>
	<node id="-287651" lat="59.7592000021" lon="9.9289611051">
		<tag k="name" v="Loselva" />
		<tag k="ssr:stedsnr" v="246537" />
		<tag k="waterway" v="river" />
	</node>
	<node id="-287648" lat="59.6359243889" lon="9.89564755463">
		<tag k="name" v="Øytjern" />
		<tag k="natural" v="water" />
		<tag k="ssr:stedsnr" v="246516" />
	</node>
	<node id="-287646" lat="59.6378499974" lon="9.88730833824">
		<tag k="name" v="Svarttjern" />
		<tag k="natural" v="water" />
		<tag k="ssr:stedsnr" v="246513" />
	</node>
	<node id="-287644" lat="59.6138888928" lon="9.86259999773">
		<tag k="alt_name" v="Svartjern" />
		<tag k="name" v="Store Svarttjern" />
		<tag k="natural" v="water" />
		<tag k="ssr:stedsnr" v="246477" />
	</node>
	<node id="-287643" lat="59.5928999489" lon="9.9028899559">
		<tag k="alt_name" v="Auretjern" />
		<tag k="name" v="Auretjernet" />
		<tag k="natural" v="water" />
		<tag k="ssr:stedsnr" v="246438" />
	</node>
	<node id="-287631" lat="59.6857365517" lon="9.68190383698">
		<tag k="name" v="Kjennerudvannet" />
		<tag k="natural" v="water" />
		<tag k="ssr:stedsnr" v="64605" />
		<tag k="water" v="lake" />
	</node>
	<node id="-287629" lat="59.6885055541" lon="9.80083332469">
		<tag k="name" v="Delerelva" />
		<tag k="ssr:stedsnr" v="64601" />
		<tag k="waterway" v="stream" />
	</node>
	<node id="-287628" lat="59.6109583304" lon="9.89618611023">
		<tag k="alt_name" v="Skattjern" />
		<tag k="name" v="Nordre Skattjernet" />
		<tag k="natural" v="water" />
		<tag k="ssr:stedsnr" v="64435" />
	</node>
	<node id="-287625" lat="59.7143583304" lon="9.69999166337">
		<tag k="name" v="Reiershølen" />
		<tag k="natural" v="water" />
		<tag k="ssr:stedsnr" v="28856" />
	</node>
	<node id="-287611" lat="59.7471138877" lon="9.76053332581">
		<tag k="alt_name" v="Junger" />
		<tag k="name" v="Jungeren" />
		<tag k="natural" v="water" />
		<tag k="ssr:stedsnr" v="3657" />
		<tag k="water" v="lake" />
	</node>
	<node id="-287610" lat="59.746438891" lon="9.71328611442">
		<tag k="name" v="Dørsjø" />
		<tag k="natural" v="water" />
		<tag k="ssr:stedsnr" v="3654" />
	</node>
	<node id="-289176" lat="59.8637291419" lon="10.0621514206">
		<tag k="alt_name" v="Glitrevann;Glitrevatnet" />
		<tag k="name" v="Glitre" />
		<tag k="natural" v="water" />
		<tag k="ssr:stedsnr" v="854319" />
		<tag k="water" v="lake" />
	</node>
	<node id="-289175" lat="59.8740042668" lon="9.9387444081">
		<tag k="name" v="Heståstjern" />
		<tag k="natural" v="water" />
		<tag k="ssr:stedsnr" v="368677" />
	</node>
	<node id="-289174" lat="59.8279125227" lon="9.70560369472">
		<tag k="name" v="Grølla" />
		<tag k="natural" v="water" />
		<tag k="ssr:stedsnr" v="489738" />
		<tag k="water" v="lake" />
	</node>
	<node id="-289173" lat="59.8980417366" lon="9.72704115533">
		<tag k="name" v="Skårfossdammen" />
		<tag k="ssr:stedsnr" v="694393" />
		<tag k="waterway" v="dam" />
	</node>
	<node id="-289171" lat="59.7927366402" lon="9.70670712957">
		<tag k="name" v="Bjørvatnet" />
		<tag k="natural" v="water" />
		<tag k="ssr:stedsnr" v="598506" />
		<tag k="water" v="lake" />
	</node>
	<node id="-289170" lat="59.856639794" lon="9.99662941053">
		<tag k="name" v="Laupenden" />
		<tag k="natural" v="water" />
		<tag k="ssr:stedsnr" v="1076177" />
		<tag k="water" v="lake" />
	</node>
	<node id="-289142" lat="59.8051527772" lon="9.92059167181">
		<tag k="alt_name" v="Storputten" />
		<tag k="name" v="Starrputten" />
		<tag k="natural" v="water" />
		<tag k="ssr:stedsnr" v="875499" />
		<tag k="water" v="pond" />
	</node>
	<node id="-289137" lat="59.8618555587" lon="9.74148055299">
		<tag k="name" v="Vardetjernbekken" />
		<tag k="ssr:stedsnr" v="875383" />
		<tag k="waterway" v="stream" />
	</node>
	<node id="-289132" lat="59.7301666644" lon="9.94956944077">
		<tag k="name" v="Åletjernbekken" />
		<tag k="ssr:stedsnr" v="875336" />
		<tag k="waterway" v="stream" />
	</node>
	<node id="-289131" lat="59.8144472186" lon="9.93740832671">
		<tag k="name" v="Haraøya" />
		<tag k="place" v="islet" />
		<tag k="ssr:stedsnr" v="875588" />
	</node>
	<node id="-289123" lat="59.6559944476" lon="9.89369999497">
		<tag k="name" v="Tangenbekken" />
		<tag k="ssr:stedsnr" v="874887" />
		<tag k="waterway" v="stream" />
	</node>
	<node id="-289120" lat="59.843589863" lon="9.76947395032">
		<tag k="name" v="Stabbetjern" />
		<tag k="natural" v="water" />
		<tag k="ssr:stedsnr" v="854730" />
	</node>
	<node id="-289118" lat="59.8568744512" lon="9.75330263705">
		<tag k="name" v="Vardetjern" />
		<tag k="natural" v="water" />
		<tag k="ssr:stedsnr" v="854715" />
	</node>
	<node id="-289116" lat="59.8259055597" lon="9.75291944464">
		<tag k="alt_name" v="Vestre Hoggtjern" />
		<tag k="name" v="Vesle Hoggtjern" />
		<tag k="natural" v="water" />
		<tag k="ssr:stedsnr" v="854689" />
	</node>
	<node id="-289112" lat="59.8257777754" lon="9.97737776905">
		<tag k="alt_name" v="Branestjernet" />
		<tag k="name" v="Branestjern" />
		<tag k="natural" v="water" />
		<tag k="ssr:stedsnr" v="854182" />
	</node>
	<node id="-289107" lat="59.6462166642" lon="9.88238332935">
		<tag k="name" v="Knattjern" />
		<tag k="natural" v="water" />
		<tag k="ssr:stedsnr" v="853524" />
	</node>
	<node id="-289101" lat="59.6188986847" lon="9.8882045492">
		<tag k="name" v="Brånavanna" />
		<tag k="natural" v="water" />
		<tag k="ssr:stedsnr" v="849543" />
		<tag k="water" v="lake" />
	</node>
	<node id="-289098" lat="59.7201472258" lon="9.91647777746">
		<tag k="name" v="Møllabekken" />
		<tag k="ssr:stedsnr" v="817298" />
		<tag k="waterway" v="stream" />
	</node>
	<node id="-289097" lat="59.6732638928" lon="9.87687499953">
		<tag k="name" v="Kattøya" />
		<tag k="place" v="island" />
		<tag k="ssr:stedsnr" v="816738" />
	</node>
	<node id="-289095" lat="59.6514472219" lon="9.96113611176">
		<tag k="name" v="Snipan" />
		<tag k="natural" v="cape" />
		<tag k="ssr:stedsnr" v="816225" />
	</node>
	<node id="-289086" lat="59.897652775" lon="9.69984722294">
		<tag k="name" v="Ulstaddammen" />
		<tag k="ssr:stedsnr" v="815398" />
		<tag k="waterway" v="dam" />
	</node>
	<node id="-289084" lat="59.6029138889" lon="9.87805833529">
		<tag k="name" v="Lønnvannet" />
		<tag k="natural" v="water" />
		<tag k="ssr:stedsnr" v="815499" />
	</node>
	<node id="-289082" lat="59.7743527754" lon="9.75485555533">
		<tag k="name" v="Rundetjern" />
		<tag k="natural" v="water" />
		<tag k="ssr:stedsnr" v="815082" />
	</node>
	<node id="-289076" lat="59.8609138924" lon="9.70709721983">
		<tag k="name" v="Tverrelva" />
		<tag k="ssr:stedsnr" v="814398" />
		<tag k="waterway" v="stream" />
	</node>
	<node id="-289075" lat="59.7281527758" lon="9.94886944813">
		<tag k="name" v="Dammen" />
		<tag k="natural" v="bay" />
		<tag k="ssr:stedsnr" v="814381" />
	</node>
	<node id="-289071" lat="59.612272219" lon="9.92751388099">
		<tag k="name" v="Storelva" />
		<tag k="ssr:stedsnr" v="813875" />
		<tag k="waterway" v="stream" />
	</node>
	<node id="-289051" lat="59.829146689" lon="9.98759552233">
		<tag k="name" v="Flårane" />
		<tag k="natural" v="water" />
		<tag k="ssr:stedsnr" v="793286" />
	</node>
	<node id="-289050" lat="59.8517444449" lon="9.70793055921">
		<tag k="name" v="Grøllebekken" />
		<tag k="ssr:stedsnr" v="792727" />
		<tag k="waterway" v="stream" />
	</node>
	<node id="-289048" lat="59.7759361116" lon="9.77756111373">
		<tag k="name" v="Lortseterbekken" />
		<tag k="ssr:stedsnr" v="792593" />
		<tag k="waterway" v="stream" />
	</node>
	<node id="-289034" lat="59.8432833378" lon="9.76314721884">
		<tag k="name" v="Aureputten" />
		<tag k="natural" v="water" />
		<tag k="ssr:stedsnr" v="756648" />
		<tag k="water" v="pond" />
	</node>
	<node id="-289032" lat="59.8073194456" lon="9.74078332929">
		<tag k="name" v="Ragnhildtjern" />
		<tag k="natural" v="water" />
		<tag k="ssr:stedsnr" v="756601" />
	</node>
	<node id="-289028" lat="59.7030555564" lon="9.70449166943">
		<tag k="name" v="Stilla" />
		<tag k="ssr:stedsnr" v="755835" />
		<tag k="waterway" v="stream" />
	</node>
	<node id="-289026" lat="59.6756222235" lon="9.87227222235">
		<tag k="name" v="Nordstultangen" />
		<tag k="natural" v="cape" />
		<tag k="ssr:stedsnr" v="755722" />
	</node>
	<node id="-289023" lat="59.7195108572" lon="9.93599004346">
		<tag k="name" v="Gardstjern" />
		<tag k="natural" v="water" />
		<tag k="ssr:stedsnr" v="755483" />
	</node>
	<node id="-289019" lat="59.6823805526" lon="9.95033332992">
		<tag k="name" v="Småputtene" />
		<tag k="natural" v="water" />
		<tag k="ssr:stedsnr" v="755177" />
		<tag k="water" v="pond" />
	</node>
	<node id="-289002" lat="59.7589305524" lon="9.73218611537">
		<tag k="name" v="Kverntjern" />
		<tag k="natural" v="water" />
		<tag k="ssr:stedsnr" v="754443" />
	</node>
	<node id="-289000" lat="59.7436416662" lon="9.93184722401">
		<tag k="name" v="Bjørkabekken" />
		<tag k="ssr:stedsnr" v="754377" />
		<tag k="waterway" v="stream" />
	</node>
	<node id="-288995" lat="59.8749972206" lon="9.8987361198">
		<tag k="name" v="Grønnvoll" />
		<tag k="natural" v="beach" />
		<tag k="ssr:stedsnr" v="754071" />
	</node>
	<node id="-288988" lat="59.792677778" lon="9.93865000338">
		<tag k="name" v="Åleputten" />
		<tag k="natural" v="water" />
		<tag k="ssr:stedsnr" v="753560" />
		<tag k="water" v="pond" />
	</node>
	<node id="-288984" lat="59.6486083363" lon="9.89847499936">
		<tag k="name" v="Lønndalsbekken" />
		<tag k="ssr:stedsnr" v="752898" />
		<tag k="waterway" v="stream" />
	</node>
	<node id="-288979" lat="59.7864666663" lon="9.89976110946">
		<tag k="name" v="Hellefossen" />
		<tag k="natural" v="waterfall" />
		<tag k="ssr:stedsnr" v="748926" />
	</node>
	<node id="-288972" lat="59.6698277788" lon="9.96976944969">
		<tag k="name" v="Setertjern" />
		<tag k="natural" v="water" />
		<tag k="ssr:stedsnr" v="634219" />
		<tag k="water" v="pond" />
	</node>
	<node id="-288971" lat="59.6782222208" lon="10.0005388959">
		<tag k="name" v="Blygruvebekken" />
		<tag k="ssr:stedsnr" v="634152" />
		<tag k="waterway" v="stream" />
	</node>
	<node id="-288970" lat="59.7746440503" lon="9.72761969907">
		<tag k="name" v="Totjerna" />
		<tag k="natural" v="water" />
		<tag k="ssr:stedsnr" v="633934" />
		<tag k="water" v="lake" />
	</node>
	<node id="-288963" lat="59.7940333368" lon="9.9133777769">
		<tag k="name" v="Kolbrekkvannsbekken" />
		<tag k="ssr:stedsnr" v="632988" />
		<tag k="waterway" v="stream" />
	</node>
	<node id="-288961" lat="59.7762583336" lon="9.88183611415">
		<tag k="name" v="Dammen" />
		<tag k="ssr:stedsnr" v="632785" />
		<tag k="waterway" v="dam" />
	</node>
	<node id="-288958" lat="59.848163891" lon="10.0105250022">
		<tag k="name" v="Furutangen" />
		<tag k="natural" v="cape" />
		<tag k="ssr:stedsnr" v="632623" />
	</node>
	<node id="-288957" lat="59.831702781" lon="9.98634166644">
		<tag k="name" v="Flårane" />
		<tag k="natural" v="water" />
		<tag k="ssr:stedsnr" v="632618" />
	</node>
	<node id="-288952" lat="59.8500138909" lon="9.96399165816">
		<tag k="name" v="Snaukolltjern" />
		<tag k="natural" v="water" />
		<tag k="ssr:stedsnr" v="632582" />
	</node>
	<node id="-288951" lat="59.8489888933" lon="9.933205563">
		<tag k="name" v="Damtjernbekken" />
		<tag k="ssr:stedsnr" v="632579" />
		<tag k="waterway" v="stream" />
	</node>
	<node id="-288950" lat="59.7234861142" lon="9.68625833846">
		<tag k="name" v="Krokbekk" />
		<tag k="ssr:stedsnr" v="630729" />
		<tag k="waterway" v="stream" />
	</node>
	<node id="-288949" lat="59.7284744411" lon="9.65466922956">
		<tag k="name" v="Sjutjerna" />
		<tag k="natural" v="water" />
		<tag k="ssr:stedsnr" v="630728" />
		<tag k="water" v="lake" />
	</node>
	<node id="-288946" lat="59.7060527816" lon="9.6888694369">
>>>>>>> e1d4bc35ff8a6074a6f2e91616a996b547c36f15
		<tag k="name" v="Kniptjern" />
		<tag k="natural" v="water" />
		<tag k="ssr:stedsnr" v="629972" />
	</node>
<<<<<<< HEAD
	<node lat="59.84898889333654" lon="9.933205563003536" id="-14509">
		<tag k="name" v="Damtjernbekken" />
		<tag k="ssr:stedsnr" v="632579" />
		<tag k="waterway" v="stream" />
	</node>
	<node lat="59.85001389093749" lon="9.963991658163165" id="-14510">
		<tag k="name" v="Snaukolltjern" />
		<tag k="natural" v="water" />
		<tag k="ssr:stedsnr" v="632582" />
	</node>
	<node lat="59.831702781017256" lon="9.98634166643921" id="-14512">
		<tag k="name" v="Flårane" />
		<tag k="natural" v="water" />
		<tag k="ssr:stedsnr" v="632618" />
	</node>
	<node lat="59.84816389095548" lon="10.010525002167702" id="-14513">
		<tag k="name" v="Furutangen" />
		<tag k="natural" v="cape" />
		<tag k="ssr:stedsnr" v="632623" />
	</node>
	<node lat="59.776258333570034" lon="9.88183611415428" id="-14514">
		<tag k="name" v="Dammen" />
		<tag k="ssr:stedsnr" v="632785" />
		<tag k="waterway" v="dam" />
	</node>
	<node lat="59.61285833098367" lon="9.906188897134598" id="-14518">
		<tag k="name" v="Fosseteråskulpene" />
		<tag k="natural" v="water" />
		<tag k="ssr:stedsnr" v="633560" />
		<tag k="water" v="lake" />
	</node>
	<node lat="59.67822222077182" lon="10.000538895882114" id="-14521">
		<tag k="name" v="Blygruvebekken" />
		<tag k="ssr:stedsnr" v="634152" />
		<tag k="waterway" v="stream" />
	</node>
	<node lat="59.68882778202811" lon="9.98986944803075" id="-14522">
		<tag k="name" v="Mellom-Fisketjern" />
		<tag k="natural" v="water" />
		<tag k="ssr:stedsnr" v="634154" />
	</node>
	<node lat="59.69300555517169" lon="9.686458334921005" id="-14528">
		<tag k="name" v="Svartkulp" />
		<tag k="natural" v="water" />
		<tag k="ssr:stedsnr" v="670585" />
	</node>
	<node lat="59.66030158440743" lon="9.804678667533436" id="-14530">
		<tag k="name" v="Flåtjern" />
		<tag k="natural" v="water" />
		<tag k="ssr:stedsnr" v="670539" />
	</node>
	<node lat="59.70003974575232" lon="9.691200014765819" id="-14537">
		<tag k="name" v="Brudevolltjern" />
		<tag k="natural" v="water" />
		<tag k="ssr:stedsnr" v="731593" />
	</node>
	<node lat="59.78148611260489" lon="9.75688888436604" id="-14543">
		<tag k="name" v="Djupekollen" />
		<tag k="natural" v="water" />
		<tag k="ssr:stedsnr" v="732630" />
	</node>
	<node lat="59.82498076122854" lon="9.736921513548168" id="-14544">
		<tag k="alt_name" v="Søndre Sjutjern" />
		<tag k="name" v="Sjutjerna" />
		<tag k="natural" v="water" />
		<tag k="ssr:stedsnr" v="732726" />
		<tag k="water" v="lake" />
	</node>
	<node lat="59.79603119768274" lon="9.96888144183811" id="-14546">
		<tag k="name" v="Øytjern" />
		<tag k="natural" v="water" />
		<tag k="ssr:stedsnr" v="732556" />
	</node>
	<node lat="59.81601666341521" lon="9.76029444617479" id="-14547">
		<tag k="name" v="Kringstadtjern" />
		<tag k="natural" v="water" />
		<tag k="ssr:stedsnr" v="732571" />
	</node>
	<node lat="59.82246388861788" lon="9.75680000189616" id="-14552">
		<tag k="alt_name" v="Hølbekktjern" />
		<tag k="name" v="Styggtjern" />
		<tag k="natural" v="water" />
		<tag k="ssr:stedsnr" v="732731" />
	</node>
	<node lat="59.78646666626525" lon="9.899761109456676" id="-14556">
		<tag k="name" v="Hellefossen" />
		<tag k="natural" v="waterfall" />
		<tag k="ssr:stedsnr" v="748926" />
	</node>
	<node lat="59.64860833631825" lon="9.898474999358259" id="-14560">
		<tag k="name" v="Lønndalsbekken" />
		<tag k="ssr:stedsnr" v="752898" />
		<tag k="waterway" v="stream" />
	</node>
	<node lat="59.68238055257097" lon="9.95033332991847" id="-14565">
		<tag k="name" v="Småputtene" />
		<tag k="natural" v="water" />
		<tag k="ssr:stedsnr" v="755177" />
		<tag k="water" v="pond" />
	</node>
	<node lat="59.874997220607376" lon="9.898736119801555" id="-14567">
		<tag k="name" v="Grønnvoll" />
		<tag k="natural" v="beach" />
		<tag k="ssr:stedsnr" v="754071" />
	</node>
	<node lat="59.75893055238866" lon="9.732186115367847" id="-14569">
		<tag k="name" v="Kverntjern" />
		<tag k="natural" v="water" />
		<tag k="ssr:stedsnr" v="754443" />
	</node>
	<node lat="59.74364166617918" lon="9.931847224012046" id="-14572">
		<tag k="name" v="Bjørkabekken" />
		<tag k="ssr:stedsnr" v="754377" />
		<tag k="waterway" v="stream" />
	</node>
	<node lat="59.71951085716251" lon="9.935990043461553" id="-14584">
		<tag k="name" v="Gardstjern" />
		<tag k="natural" v="water" />
		<tag k="ssr:stedsnr" v="755483" />
	</node>
	<node lat="59.703055556354656" lon="9.704491669428524" id="-14587">
		<tag k="name" v="Stilla" />
		<tag k="ssr:stedsnr" v="755835" />
		<tag k="waterway" v="stream" />
	</node>
	<node lat="59.66147221813825" lon="9.84301110683808" id="-14596">
		<tag k="name" v="Auretjern" />
		<tag k="natural" v="water" />
		<tag k="ssr:stedsnr" v="791555" />
	</node>
	<node lat="59.68162499576193" lon="9.824480553073956" id="-14606">
		<tag k="alt_name" v="Svintjern" />
		<tag k="name" v="Svinetjern" />
		<tag k="natural" v="water" />
		<tag k="ssr:stedsnr" v="792561" />
	</node>
	<node lat="59.812080557553465" lon="9.996766660357904" id="-14611">
		<tag k="name" v="Yttervannet" />
		<tag k="natural" v="water" />
		<tag k="ssr:stedsnr" v="792214" />
		<tag k="water" v="lake" />
	</node>
	<node lat="59.678844447320486" lon="9.9916527697657" id="-14612">
		<tag k="name" v="Kutjern" />
		<tag k="natural" v="water" />
		<tag k="ssr:stedsnr" v="792227" />
	</node>
	<node lat="59.80701944749607" lon="9.929547225381498" id="-14616">
		<tag k="name" v="Lystjerntangen" />
		<tag k="natural" v="cape" />
		<tag k="ssr:stedsnr" v="793589" />
	</node>
	<node lat="59.72815277576581" lon="9.948869448133145" id="-14633">
		<tag k="name" v="Dammen" />
		<tag k="natural" v="bay" />
		<tag k="ssr:stedsnr" v="814381" />
	</node>
	<node lat="59.86091389243993" lon="9.707097219827828" id="-14637">
		<tag k="name" v="Tverrelva" />
		<tag k="ssr:stedsnr" v="814398" />
		<tag k="waterway" v="stream" />
	</node>
	<node lat="59.774352775399706" lon="9.754855555325637" id="-14641">
		<tag k="name" v="Rundetjern" />
		<tag k="natural" v="water" />
		<tag k="ssr:stedsnr" v="815082" />
	</node>
	<node lat="59.74192500144937" lon="9.780527771338473" id="-14643">
		<tag k="name" v="Spannslokktjern" />
		<tag k="natural" v="water" />
		<tag k="ssr:stedsnr" v="815119" />
	</node>
	<node lat="59.60291388885869" lon="9.878058335288987" id="-14645">
		<tag k="name" v="Lønnvannet" />
		<tag k="natural" v="water" />
		<tag k="ssr:stedsnr" v="815499" />
	</node>
	<node lat="59.84757222416306" lon="9.71867221679252" id="-14652">
		<tag k="name" v="Øvre Blygåttjern" />
		<tag k="natural" v="water" />
		<tag k="ssr:stedsnr" v="815753" />
	</node>
	<node lat="59.67326389279576" lon="9.876874999525093" id="-14656">
		<tag k="name" v="Kattøya" />
		<tag k="place" v="island" />
		<tag k="ssr:stedsnr" v="816738" />
	</node>
	<node lat="59.720147225848805" lon="9.916477777459086" id="-14657">
		<tag k="name" v="Møllabekken" />
		<tag k="ssr:stedsnr" v="817298" />
		<tag k="waterway" v="stream" />
	</node>
	<node lat="59.618898684675166" lon="9.888204549204973" id="-14661">
		<tag k="name" v="Brånavanna" />
		<tag k="natural" v="water" />
		<tag k="ssr:stedsnr" v="849543" />
		<tag k="water" v="lake" />
	</node>
	<node lat="59.64621666416245" lon="9.882383329350109" id="-14662">
		<tag k="name" v="Knattjern" />
		<tag k="natural" v="water" />
		<tag k="ssr:stedsnr" v="853524" />
	</node>
	<node lat="59.82577777536207" lon="9.977377769052199" id="-14670">
		<tag k="alt_name" v="Branestjernet" />
		<tag k="name" v="Branestjern" />
		<tag k="natural" v="water" />
		<tag k="ssr:stedsnr" v="854182" />
	</node>
	<node lat="59.825905559707365" lon="9.752919444642435" id="-14673">
		<tag k="alt_name" v="Vestre Hoggtjern" />
		<tag k="name" v="Vesle Hoggtjern" />
		<tag k="natural" v="water" />
		<tag k="ssr:stedsnr" v="854689" />
	</node>
	<node lat="59.84358986300696" lon="9.769473950321311" id="-14675">
		<tag k="name" v="Stabbetjern" />
		<tag k="natural" v="water" />
		<tag k="ssr:stedsnr" v="854730" />
	</node>
	<node lat="59.65599444757865" lon="9.89369999496656" id="-14683">
		<tag k="name" v="Tangenbekken" />
		<tag k="ssr:stedsnr" v="874887" />
		<tag k="waterway" v="stream" />
	</node>
	<node lat="59.73016666444767" lon="9.949569440773043" id="-14690">
		<tag k="name" v="Åletjernbekken" />
		<tag k="ssr:stedsnr" v="875336" />
		<tag k="waterway" v="stream" />
	</node>
	<node lat="59.861855558711945" lon="9.741480552987099" id="-14695">
		<tag k="name" v="Vardetjernbekken" />
		<tag k="ssr:stedsnr" v="875383" />
		<tag k="waterway" v="stream" />
	</node>
	<node lat="59.805152777230354" lon="9.920591671812394" id="-14700">
		<tag k="alt_name" v="Storputten" />
		<tag k="name" v="Starrputten" />
		<tag k="natural" v="water" />
		<tag k="ssr:stedsnr" v="875499" />
		<tag k="water" v="pond" />
	</node>
	<node lat="59.774350001613826" lon="9.918555562667505" id="-14712">
		<tag k="name" v="Stryken" />
		<tag k="place" v="locality" />
		<tag k="ssr:stedsnr" v="876838" />
	</node>
	<node lat="59.71735555952892" lon="9.923883331340468" id="-14720">
		<tag k="name" v="Vesletjern" />
		<tag k="natural" v="water" />
		<tag k="ssr:stedsnr" v="877486" />
	</node>
	<node lat="59.815608331872774" lon="9.793191669034153" id="-14722">
		<tag k="name" v="Vestre Spiten" />
		<tag k="ssr:stedsnr" v="877546" />
		<tag k="waterway" v="stream" />
	</node>
	<node lat="59.86375833561268" lon="9.730427770279928" id="-14735">
		<tag k="name" v="Breibekk" />
		<tag k="ssr:stedsnr" v="936369" />
		<tag k="waterway" v="stream" />
	</node>
	<node lat="59.749675003565144" lon="9.848155553151914" id="-14740">
		<tag k="name" v="Leirdalsbekken" />
		<tag k="ssr:stedsnr" v="937002" />
		<tag k="waterway" v="stream" />
	</node>
	<node lat="59.8603166624842" lon="9.91226943676663" id="-14745">
		<tag k="name" v="Kjerringbekken" />
		<tag k="ssr:stedsnr" v="937998" />
		<tag k="waterway" v="stream" />
	</node>
	<node lat="59.68782222159159" lon="9.880802770106023" id="-14751">
		<tag k="name" v="Svartvik" />
		<tag k="natural" v="bay" />
		<tag k="ssr:stedsnr" v="938664" />
=======
	<node id="-288944" lat="59.854738889" lon="9.81295833268">
		<tag k="name" v="Kjerringbekken" />
		<tag k="ssr:stedsnr" v="611731" />
		<tag k="waterway" v="stream" />
	</node>
	<node id="-288943" lat="59.8398444407" lon="9.87709721636">
		<tag k="name" v="Bingselva" />
		<tag k="ssr:stedsnr" v="611729" />
		<tag k="waterway" v="river" />
	</node>
	<node id="-288942" lat="59.8361611152" lon="9.85181111362">
		<tag k="name" v="Spitelva" />
		<tag k="ssr:stedsnr" v="610737" />
		<tag k="waterway" v="river" />
	</node>
	<node id="-288940" lat="59.8405785377" lon="9.76529915877">
		<tag k="name" v="Langtjern" />
		<tag k="natural" v="water" />
		<tag k="ssr:stedsnr" v="610720" />
	</node>
	<node id="-288938" lat="59.8806027794" lon="9.69581110832">
		<tag k="name" v="Svartbekkdammen" />
		<tag k="natural" v="water" />
		<tag k="ssr:stedsnr" v="610701" />
	</node>
	<node id="-288937" lat="59.7352361154" lon="9.71281389526">
		<tag k="name" v="Søndre Svarttjern" />
		<tag k="natural" v="water" />
		<tag k="ssr:stedsnr" v="610696" />
	</node>
	<node id="-288934" lat="59.8666027753" lon="9.81518888788">
		<tag k="name" v="Sørlibekken" />
		<tag k="ssr:stedsnr" v="610671" />
		<tag k="waterway" v="stream" />
	</node>
	<node id="-288933" lat="59.6958527813" lon="9.69463611927">
		<tag k="alt_name" v="Muggerudtjern" />
		<tag k="name" v="Muggerudtjernet" />
		<tag k="natural" v="water" />
		<tag k="ssr:stedsnr" v="610660" />
	</node>
	<node id="-288925" lat="59.8178166623" lon="9.72222777295">
		<tag k="name" v="Krokvannet" />
		<tag k="natural" v="water" />
		<tag k="ssr:stedsnr" v="610576" />
	</node>
	<node id="-288924" lat="59.8169055571" lon="9.77142778642">
		<tag k="name" v="Hoggtjernbekken" />
		<tag k="ssr:stedsnr" v="610572" />
		<tag k="waterway" v="stream" />
	</node>
	<node id="-288923" lat="59.8318666646" lon="9.99402222122">
		<tag k="alt_name" v="Østre Sulustjern" />
		<tag k="name" v="Sulustjerna" />
		<tag k="natural" v="water" />
		<tag k="ssr:stedsnr" v="610322" />
	</node>
	<node id="-288922" lat="59.8561194444" lon="9.97516665987">
		<tag k="name" v="Bikkjetjern" />
		<tag k="natural" v="water" />
		<tag k="ssr:stedsnr" v="610308" />
	</node>
	<node id="-288921" lat="59.8577027769" lon="10.0269638949">
		<tag k="name" v="Aureputten" />
		<tag k="natural" v="water" />
		<tag k="ssr:stedsnr" v="610304" />
	</node>
	<node id="-288920" lat="59.8004666712" lon="9.97543332635">
		<tag k="name" v="Sagelva" />
		<tag k="ssr:stedsnr" v="610290" />
		<tag k="waterway" v="stream" />
	</node>
	<node id="-288919" lat="59.6540083367" lon="9.79901388546">
		<tag k="name" v="Møyretjern" />
		<tag k="natural" v="water" />
		<tag k="ssr:stedsnr" v="609524" />
	</node>
	<node id="-288918" lat="59.7156722216" lon="9.73799721966">
		<tag k="name" v="Merratjern" />
		<tag k="natural" v="water" />
		<tag k="ssr:stedsnr" v="609597" />
	</node>
	<node id="-288915" lat="59.6177249998" lon="9.88810555415">
		<tag k="name" v="Store Brånevann" />
		<tag k="natural" v="water" />
		<tag k="ssr:stedsnr" v="605944" />
	</node>
	<node id="-288912" lat="59.6485111071" lon="9.85568333372">
		<tag k="name" v="Raufålakulpen" />
		<tag k="natural" v="water" />
		<tag k="ssr:stedsnr" v="574919" />
		<tag k="water" v="pond" />
	</node>
	<node id="-288900" lat="59.743705556" lon="9.74867776967">
		<tag k="name" v="Spannslokket" />
		<tag k="natural" v="water" />
		<tag k="ssr:stedsnr" v="572424" />
	</node>
	<node id="-288897" lat="59.8399027783" lon="9.92831945122">
		<tag k="name" v="Horsrudbekken" />
		<tag k="ssr:stedsnr" v="571581" />
		<tag k="waterway" v="stream" />
	</node>
	<node id="-288895" lat="59.8965694435" lon="9.74152777707">
		<tag k="name" v="Hammerfoss" />
		<tag k="natural" v="waterfall" />
		<tag k="ssr:stedsnr" v="571389" />
	</node>
	<node id="-288894" lat="59.8659083307" lon="9.71105000675">
		<tag k="name" v="Smedselva" />
		<tag k="ssr:stedsnr" v="571378" />
		<tag k="waterway" v="stream" />
	</node>
	<node id="-288890" lat="59.7082583358" lon="9.66956665788">
		<tag k="name" v="Surtjern" />
		<tag k="natural" v="water" />
		<tag k="ssr:stedsnr" v="569952" />
	</node>
	<node id="-288886" lat="59.8656333319" lon="9.96495833136">
		<tag k="name" v="Flåputten" />
		<tag k="natural" v="water" />
		<tag k="ssr:stedsnr" v="550714" />
	</node>
	<node id="-288884" lat="59.8901916676" lon="9.7554694487">
		<tag k="name" v="Smedselva" />
		<tag k="ssr:stedsnr" v="550654" />
		<tag k="waterway" v="river" />
	</node>
	<node id="-288879" lat="59.7821638879" lon="9.77307777729">
		<tag k="alt_name" v="Ormtjern" />
		<tag k="name" v="Ormetjern" />
		<tag k="natural" v="water" />
		<tag k="ssr:stedsnr" v="550588" />
	</node>
	<node id="-288873" lat="59.8341749997" lon="10.0082555575">
		<tag k="name" v="Grauten" />
		<tag k="natural" v="water" />
		<tag k="ssr:stedsnr" v="550273" />
	</node>
	<node id="-288871" lat="59.8262833307" lon="9.93751111496">
		<tag k="name" v="Skogsvannet" />
		<tag k="natural" v="water" />
		<tag k="ssr:stedsnr" v="549689" />
		<tag k="water" v="lake" />
	</node>
	<node id="-288864" lat="59.7257886388" lon="9.77745645684">
		<tag k="alt_name" v="Lundteigtjernet" />
		<tag k="name" v="Lundteigtjern" />
		<tag k="natural" v="water" />
		<tag k="ssr:stedsnr" v="549644" />
	</node>
	<node id="-288861" lat="59.700522219" lon="9.85913054951">
		<tag k="alt_name" v="Tangen" />
		<tag k="name" v="Sandstangen" />
		<tag k="natural" v="cape" />
		<tag k="ssr:stedsnr" v="549596" />
	</node>
	<node id="-288851" lat="59.6847277769" lon="9.96017777791">
		<tag k="alt_name" v="Svarttjern" />
		<tag k="name" v="Øvre Svarttjern" />
		<tag k="natural" v="water" />
		<tag k="ssr:stedsnr" v="549555" />
	</node>
	<node id="-288848" lat="59.6548416695" lon="9.77772221745">
		<tag k="name" v="Vegotjern" />
		<tag k="natural" v="water" />
		<tag k="ssr:stedsnr" v="549533" />
	</node>
	<node id="-288847" lat="59.6374361069" lon="9.87686945204">
		<tag k="name" v="Langtjern" />
		<tag k="natural" v="water" />
		<tag k="ssr:stedsnr" v="549516" />
	</node>
	<node id="-288845" lat="59.6236956953" lon="9.89882334053">
		<tag k="name" v="Store Ålevann" />
		<tag k="natural" v="water" />
		<tag k="ssr:stedsnr" v="549483" />
	</node>
	<node id="-288844" lat="59.6167083376" lon="9.93823611844">
		<tag k="alt_name" v="Gråbeintjernet" />
		<tag k="name" v="Gråbeintjern" />
		<tag k="natural" v="water" />
		<tag k="ssr:stedsnr" v="549480" />
	</node>
	<node id="-288843" lat="59.5992444434" lon="9.93159444482">
		<tag k="alt_name" v="Brandturtangen" />
		<tag k="name" v="Branturtangen" />
		<tag k="natural" v="cape" />
		<tag k="ssr:stedsnr" v="549433" />
	</node>
	<node id="-288842" lat="59.8608833309" lon="10.022133333">
		<tag k="name" v="Flistjern" />
		<tag k="natural" v="water" />
		<tag k="ssr:stedsnr" v="549275" />
	</node>
	<node id="-288841" lat="59.740736107" lon="10.2074750059">
		<tag k="name" v="Drammenselva" />
		<tag k="ssr:stedsnr" v="548370" />
		<tag k="waterway" v="river" />
	</node>
	<node id="-288834" lat="59.8474588558" lon="9.76146177499">
		<tag k="name" v="Tryggtjern" />
		<tag k="natural" v="water" />
		<tag k="ssr:stedsnr" v="429739" />
	</node>
	<node id="-288832" lat="59.7829944419" lon="9.78618888165">
		<tag k="name" v="Årbogen" />
		<tag k="natural" v="water" />
		<tag k="ssr:stedsnr" v="429585" />
	</node>
	<node id="-288824" lat="59.8380555553" lon="9.89378055926">
		<tag k="name" v="Oset" />
		<tag k="natural" v="bay" />
		<tag k="ssr:stedsnr" v="429674" />
	</node>
	<node id="-288803" lat="59.7264805513" lon="9.94400278257">
		<tag k="name" v="Åletjern" />
		<tag k="natural" v="water" />
		<tag k="ssr:stedsnr" v="428645" />
	</node>
	<node id="-288802" lat="59.6057972215" lon="9.87303333281">
		<tag k="alt_name" v="Fagervann" />
		<tag k="name" v="Fagervannet" />
		<tag k="natural" v="water" />
		<tag k="ssr:stedsnr" v="428399" />
	</node>
	<node id="-288798" lat="59.6673777787" lon="9.86736943764">
		<tag k="name" v="Karstjernbekken" />
		<tag k="ssr:stedsnr" v="392746" />
		<tag k="waterway" v="stream" />
	</node>
	<node id="-288797" lat="59.6417916651" lon="9.93286388001">
		<tag k="name" v="Bogtangen" />
		<tag k="natural" v="cape" />
		<tag k="ssr:stedsnr" v="392235" />
	</node>
	<node id="-288793" lat="59.8169305575" lon="9.73201666685">
		<tag k="name" v="Vesle Svarttjern" />
		<tag k="natural" v="water" />
		<tag k="ssr:stedsnr" v="391599" />
	</node>
	<node id="-288792" lat="59.7186416634" lon="9.92291110916">
		<tag k="name" v="Dammen" />
		<tag k="ssr:stedsnr" v="391496" />
		<tag k="waterway" v="dam" />
	</node>
	<node id="-288790" lat="59.7857999997" lon="9.90038333835">
		<tag k="name" v="Midtskjæret" />
		<tag k="place" v="islet" />
		<tag k="ssr:stedsnr" v="390825" />
	</node>
	<node id="-288788" lat="59.6185611085" lon="9.86024722813">
		<tag k="name" v="Vesle Svarttjern" />
		<tag k="natural" v="water" />
		<tag k="ssr:stedsnr" v="390898" />
	</node>
	<node id="-288784" lat="59.6021888924" lon="9.88124722823">
		<tag k="name" v="Stutauet" />
		<tag k="natural" v="water" />
		<tag k="ssr:stedsnr" v="390496" />
	</node>
	<node id="-288783" lat="59.6030222222" lon="9.88802500058">
		<tag k="name" v="Utryggbekken" />
		<tag k="ssr:stedsnr" v="390493" />
		<tag k="waterway" v="stream" />
	</node>
	<node id="-288780" lat="59.7457666659" lon="9.7304055548">
		<tag k="name" v="Smietjern" />
		<tag k="natural" v="water" />
		<tag k="ssr:stedsnr" v="390377" />
	</node>
	<node id="-288777" lat="59.7799333289" lon="9.79544721739">
		<tag k="name" v="Honseelva" />
		<tag k="ssr:stedsnr" v="390093" />
		<tag k="waterway" v="stream" />
	</node>
	<node id="-288776" lat="59.7854750041" lon="9.79739444171">
		<tag k="name" v="Himsjødammen" />
		<tag k="ssr:stedsnr" v="390092" />
		<tag k="waterway" v="dam" />
	</node>
	<node id="-288775" lat="59.8417916659" lon="9.74356945163">
		<tag k="name" v="Svarttjern" />
		<tag k="natural" v="water" />
		<tag k="ssr:stedsnr" v="389730" />
	</node>
	<node id="-288769" lat="59.6188027752" lon="9.94015277308">
		<tag k="name" v="Bassenget" />
		<tag k="ssr:stedsnr" v="388735" />
		<tag k="waterway" v="dam" />
>>>>>>> e1d4bc35ff8a6074a6f2e91616a996b547c36f15
	</node>
</osm>
