<?xml version="1.0" encoding="UTF-8"?>
<osm version="0.6" generator="osmapis">
	<node lat="59.66293333745762" lon="9.891133334711848" id="-34540">
		<tag k="name" v="Vanninga" />
		<tag k="place" v="locality" />
		<tag k="ssr:stedsnr" v="89712" />
	</node>
	<node lat="59.73241944878843" lon="9.697858330583136" id="-34740">
		<tag k="name" v="Lakkeplassen" />
		<tag k="place" v="locality" />
		<tag k="ssr:stedsnr" v="451896" />
	</node>
	<node lat="59.70265000370968" lon="9.806075006202379" id="-34760">
		<tag k="alt_name" v="Fiskum" />
		<tag k="amenity" v="place_of_worship" />
		<tag k="denomination" v="lutheran" />
		<tag k="name" v="Fiskum kirke" />
		<tag k="religion" v="christian" />
		<tag k="ssr:stedsnr" v="246587" />
	</node>
	<node lat="59.68201388846808" lon="9.843652780403911" id="-34770">
		<tag k="name" v="Utsikten" />
		<tag k="ssr:stedsnr" v="453535" />
		<tag k="tourism" v="viewpoint" />
	</node>
	<node lat="59.63546110956133" lon="9.940166671387937" id="-34917">
		<tag k="amenity" v="community_centre" />
		<tag k="name" v="Mastebogen" />
		<tag k="ssr:stedsnr" v="488516" />
	</node>
	<node lat="59.62519999670344" lon="9.94119165937498" id="-35043">
		<tag k="name" v="Blåleiresvingen" />
		<tag k="place" v="locality" />
		<tag k="ssr:stedsnr" v="692733" />
	</node>
	<node lat="59.62278611224937" lon="9.939830556755446" id="-35114">
		<tag k="name" v="Åttersvingen" />
		<tag k="place" v="locality" />
		<tag k="ssr:stedsnr" v="630700" />
	</node>
	<node lat="59.692641670445205" lon="9.885902772584533" id="-35140">
		<tag k="name" v="Hamreplassen" />
		<tag k="ssr:stedsnr" v="634707" />
		<tag k="tourism" v="viewpoint" />
	</node>
	<node lat="59.835875000429816" lon="9.872649993947626" id="-35160">
		<tag k="alt_name" v="Bakke" />
		<tag k="amenity" v="place_of_worship" />
		<tag k="denomination" v="lutheran" />
		<tag k="name" v="Bakke kirke" />
		<tag k="religion" v="christian" />
		<tag k="ssr:stedsnr" v="671710" />
	</node>
	<node lat="59.69598610937444" lon="9.79728889725802" id="-35343">
		<tag k="amenity" v="community_centre" />
		<tag k="name" v="Karlsvang" />
		<tag k="ssr:stedsnr" v="876722" />
	</node>
	<node lat="59.69816111492949" lon="9.842441660061729" id="-35432">
		<tag k="amenity" v="community_centre" />
		<tag k="name" v="Sundhaugen" />
		<tag k="ssr:stedsnr" v="3570" />
	</node>
	<node lat="59.705836109368065" lon="9.936647224240108" id="-35490">
		<tag k="name" v="Krambudalsgruvene" />
		<tag k="place" v="locality" />
		<tag k="ssr:stedsnr" v="27499" />
	</node>
	<node lat="59.88921111065395" lon="9.768966672884623" id="-35513">
		<tag k="alt_name" v="Bingen" />
		<tag k="amenity" v="place_of_worship" />
		<tag k="denomination" v="lutheran" />
		<tag k="name" v="Bingen kapell" />
		<tag k="religion" v="christian" />
		<tag k="ssr:stedsnr" v="64661" />
	</node>
	<node lat="59.86681110774966" lon="9.784444450190044" id="-35533">
		<tag k="name" v="Dansesletta" />
		<tag k="place" v="locality" />
		<tag k="ssr:stedsnr" v="86134" />
	</node>
	<node lat="59.76224444427075" lon="9.735647226399402" id="-35538">
		<tag k="name" v="Cellene" />
		<tag k="place" v="locality" />
		<tag k="ssr:stedsnr" v="86413" />
	</node>
	<node lat="59.76341388573566" lon="9.893547227376994" id="-35615">
		<tag k="name" v="Milestein" />
		<tag k="place" v="locality" />
		<tag k="ssr:stedsnr" v="146067" />
	</node>
	<node lat="59.730147219476954" lon="9.866241665821905" id="-35643">
		<tag k="alt_name" v="Vestfossen" />
		<tag k="amenity" v="place_of_worship" />
		<tag k="denomination" v="lutheran" />
		<tag k="name" v="Vestfossen kapell" />
		<tag k="religion" v="christian" />
		<tag k="ssr:stedsnr" v="155855" />
	</node>
	<node lat="59.842211109075144" lon="9.776502770834327" id="-35675">
		<tag k="name" v="Kastet" />
		<tag k="place" v="locality" />
		<tag k="ssr:stedsnr" v="186767" />
	</node>
	<node lat="59.613177780874516" lon="9.933305561966991" id="-35682">
		<tag k="name" v="Kippen" />
		<tag k="place" v="locality" />
		<tag k="ssr:stedsnr" v="206752" />
	</node>
	<node lat="59.686302781471255" lon="9.854013880459863" id="-35706">
		<tag k="amenity" v="community_centre" />
		<tag k="name" v="Bollerud grendehus" />
		<tag k="ssr:stedsnr" v="210516" />
	</node>
	<node lat="59.764573169561984" lon="9.90484029207481" id="-35721">
		<tag k="alt_name" v="Haug" />
		<tag k="amenity" v="place_of_worship" />
		<tag k="denomination" v="lutheran" />
		<tag k="name" v="Haug kirke" />
		<tag k="religion" v="christian" />
		<tag k="ssr:stedsnr" v="307582" />
	</node>
	<node lat="59.79079722210599" lon="9.856677775961384" id="-35788">
		<tag k="amenity" v="community_centre" />
		<tag k="name" v="Valtun" />
		<tag k="ssr:stedsnr" v="368552" />
	</node>
	<node lat="59.728080043913785" lon="9.865521164475094" id="-35874">
		<tag k="name" v="Fossesholm" />
		<tag k="ssr:stedsnr" v="670652" />
		<tag k="tourism" v="attraction" />
	</node>
	<node lat="59.61848610939394" lon="9.929494446077706" id="-36183">
		<tag k="name" v="Eriksvingen" />
		<tag k="place" v="locality" />
		<tag k="ssr:stedsnr" v="813738" />
	</node>
	<node lat="59.622475003995916" lon="9.92991388704301" id="-36184">
		<tag k="name" v="Sykkelsletta" />
		<tag k="place" v="locality" />
		<tag k="ssr:stedsnr" v="813746" />
	</node>
	<node lat="59.6234916698499" lon="9.93052777426548" id="-36233">
		<tag k="name" v="Utsikten" />
		<tag k="ssr:stedsnr" v="853492" />
		<tag k="tourism" v="viewpoint" />
	</node>
	<node lat="59.69889444135107" lon="9.809908336650183" id="-36312">
		<tag k="amenity" v="place_of_worship" />
		<tag k="denomination" v="lutheran" />
		<tag k="name" v="Fiskum gamle kirke" />
		<tag k="religion" v="christian" />
		<tag k="ssr:stedsnr" v="878579" />
	</node>
</osm>
