<?xml version="1.0" encoding="UTF-8"?>
<osm version="0.6" generator="osmapis">
	<node lat="59.787424999643264" lon="9.735705557021749" id="-13221">
		<tag k="fixme" v="multiple name tags, choose one and add the other to alt_name; consider natural=peak for the most distinct mountains in the district" />
		<tag k="name" v="Djupkollåsen;Moltedokkåsen" />
		<tag k="natural" v="hill" />
		<tag k="place" v="locality" />
		<tag k="ssr:stedsnr" v="4513" />
	</node>
	<node lat="59.846477774175376" lon="9.735697230654523" id="-13227">
		<tag k="fixme" v="consider natural=peak for the most distinct mountains in the district" />
		<tag k="name" v="Ramla" />
		<tag k="natural" v="hill" />
		<tag k="place" v="locality" />
		<tag k="ssr:stedsnr" v="4766" />
	</node>
	<node lat="59.790269441198014" lon="9.93396944174986" id="-13232">
		<tag k="fixme" v="consider natural=peak for the most distinct mountains in the district" />
		<tag k="name" v="Liaåsen" />
		<tag k="natural" v="hill" />
		<tag k="place" v="locality" />
		<tag k="ssr:stedsnr" v="25593" />
	</node>
	<node lat="59.8505527749854" lon="9.973472216135047" id="-13240">
		<tag k="name" v="Fugleleikhovet" />
		<tag k="natural" v="hill" />
		<tag k="place" v="locality" />
		<tag k="ssr:stedsnr" v="26592" />
	</node>
	<node lat="59.70379722275573" lon="9.884294441143625" id="-13248">
		<tag k="fixme" v="consider natural=peak for the most distinct mountains in the district" />
		<tag k="name" v="Sandsåsen" />
		<tag k="natural" v="hill" />
		<tag k="place" v="locality" />
		<tag k="ssr:stedsnr" v="28702" />
	</node>
	<node lat="59.86568888862399" lon="9.755997229509088" id="-13263">
		<tag k="fixme" v="consider natural=peak for the most distinct mountains in the district" />
		<tag k="name" v="Gjelleramyråsen" />
		<tag k="natural" v="hill" />
		<tag k="place" v="locality" />
		<tag k="ssr:stedsnr" v="65623" />
	</node>
	<node lat="59.632188886741346" lon="9.915575006811826" id="-13267">
		<tag k="name" v="Geiteryggen" />
		<tag k="natural" v="ridge" />
		<tag k="place" v="locality" />
		<tag k="ssr:stedsnr" v="85868" />
	</node>
	<node lat="59.69052499829973" lon="9.957141663012782" id="-13283">
		<tag k="name" v="Sirilia" />
		<tag k="natural" v="slope" />
		<tag k="place" v="locality" />
		<tag k="ssr:stedsnr" v="88145" />
	</node>
	<node lat="59.66549722121208" lon="9.876591659975512" id="-13288">
		<tag k="name" v="Spireholta" />
		<tag k="natural" v="slope" />
		<tag k="place" v="locality" />
		<tag k="ssr:stedsnr" v="89710" />
	</node>
	<node lat="59.698944443597256" lon="9.970872228698106" id="-13290">
		<tag k="fixme" v="consider natural=peak for the most distinct mountains in the district" />
		<tag k="name" v="Smøråsen" />
		<tag k="natural" v="hill" />
		<tag k="place" v="locality" />
		<tag k="ssr:stedsnr" v="246293" />
	</node>
	<node lat="59.73285000259967" lon="9.723880559526354" id="-13301">
		<tag k="fixme" v="consider natural=peak for the most distinct mountains in the district" />
		<tag k="name" v="Karikollen" />
		<tag k="natural" v="hill" />
		<tag k="place" v="locality" />
		<tag k="ssr:stedsnr" v="246650" />
	</node>
	<node lat="59.8618722221071" lon="10.012322218654845" id="-13303">
		<tag k="alt_name" v="Åsvannsbrenna" />
		<tag k="name" v="Åsvassbrenna" />
		<tag k="natural" v="hill" />
		<tag k="place" v="locality" />
		<tag k="ssr:stedsnr" v="247325" />
	</node>
	<node lat="59.830049997760206" lon="9.812299992587223" id="-13309">
		<tag k="fixme" v="consider natural=peak for the most distinct mountains in the district" />
		<tag k="name" v="Svartåsen" />
		<tag k="natural" v="hill" />
		<tag k="place" v="locality" />
		<tag k="ssr:stedsnr" v="247683" />
	</node>
	<node lat="59.852074998190254" lon="9.737180555132701" id="-13311">
		<tag k="name" v="Gunhildgården" />
		<tag k="natural" v="valley" />
		<tag k="place" v="locality" />
		<tag k="ssr:stedsnr" v="247727" />
	</node>
	<node lat="59.658405556583055" lon="9.819811109549045" id="-13326">
		<tag k="fixme" v="consider natural=peak for the most distinct mountains in the district" />
		<tag k="name" v="Seteråsen" />
		<tag k="natural" v="hill" />
		<tag k="place" v="locality" />
		<tag k="ssr:stedsnr" v="125011" />
	</node>
	<node lat="59.84518055988051" lon="9.8343416625839" id="-13328">
		<tag k="fixme" v="consider natural=peak for the most distinct mountains in the district" />
		<tag k="name" v="Liåsen" />
		<tag k="natural" v="hill" />
		<tag k="place" v="locality" />
		<tag k="ssr:stedsnr" v="125752" />
	</node>
	<node lat="59.85075833698916" lon="9.775277784568125" id="-13333">
		<tag k="name" v="Grasdalen" />
		<tag k="natural" v="valley" />
		<tag k="place" v="locality" />
		<tag k="ssr:stedsnr" v="146118" />
	</node>
	<node lat="59.790474999083294" lon="9.96568334022228" id="-13334">
		<tag k="name" v="Spirebakk" />
		<tag k="natural" v="slope" />
		<tag k="place" v="locality" />
		<tag k="ssr:stedsnr" v="146570" />
	</node>
	<node lat="59.86379166748423" lon="9.92896388597101" id="-13342">
		<tag k="name" v="Laupet" />
		<tag k="place" v="locality" />
		<tag k="ssr:stedsnr" v="147649" />
	</node>
	<node lat="59.685291669368794" lon="9.93739444288849" id="-13348">
		<tag k="name" v="Ospedalen" />
		<tag k="natural" v="valley" />
		<tag k="place" v="locality" />
		<tag k="ssr:stedsnr" v="148164" />
	</node>
	<node lat="59.68825277684618" lon="9.95975000235612" id="-13349">
		<tag k="name" v="Østeruddalen" />
		<tag k="natural" v="valley" />
		<tag k="place" v="locality" />
		<tag k="ssr:stedsnr" v="148165" />
	</node>
	<node lat="59.736044441265655" lon="9.677113890962763" id="-13357">
		<tag k="fixme" v="consider natural=peak for the most distinct mountains in the district" />
		<tag k="name" v="Svartberget" />
		<tag k="natural" v="hill" />
		<tag k="place" v="locality" />
		<tag k="ssr:stedsnr" v="185632" />
	</node>
	<node lat="59.81257499834125" lon="9.919927776405737" id="-13367">
		<tag k="fixme" v="consider natural=peak for the most distinct mountains in the district" />
		<tag k="name" v="Kjøkkenåsen" />
		<tag k="natural" v="hill" />
		<tag k="place" v="locality" />
		<tag k="ssr:stedsnr" v="186583" />
	</node>
	<node lat="59.76549722420992" lon="9.765391661029051" id="-13370">
		<tag k="fixme" v="consider natural=peak for the most distinct mountains in the district" />
		<tag k="name" v="Høgåsen" />
		<tag k="natural" v="hill" />
		<tag k="place" v="locality" />
		<tag k="ssr:stedsnr" v="187473" />
	</node>
	<node lat="59.71594721997686" lon="9.686802771515305" id="-13372">
		<tag k="fixme" v="consider natural=peak for the most distinct mountains in the district" />
		<tag k="name" v="Lauvliåsen" />
		<tag k="natural" v="hill" />
		<tag k="place" v="locality" />
		<tag k="ssr:stedsnr" v="266969" />
	</node>
	<node lat="59.850488886916565" lon="9.714783342082875" id="-13379">
		<tag k="fixme" v="consider natural=peak for the most distinct mountains in the district" />
		<tag k="name" v="Vestre Svartåsen" />
		<tag k="natural" v="hill" />
		<tag k="place" v="locality" />
		<tag k="ssr:stedsnr" v="268358" />
	</node>
	<node lat="59.854675003575586" lon="9.961122222905143" id="-13381">
		<tag k="name" v="Kniveseterkleiva" />
		<tag k="natural" v="slope" />
		<tag k="place" v="locality" />
		<tag k="ssr:stedsnr" v="268653" />
	</node>
	<node lat="59.619863884984326" lon="9.88004165877565" id="-13383">
		<tag k="name" v="Brånevannskollen" />
		<tag k="natural" v="hill" />
		<tag k="place" v="locality" />
		<tag k="ssr:stedsnr" v="206886" />
	</node>
	<node lat="59.812813885223875" lon="9.965105559455335" id="-13389">
		<tag k="name" v="Ese" />
		<tag k="natural" v="slope" />
		<tag k="place" v="locality" />
		<tag k="ssr:stedsnr" v="208584" />
	</node>
	<node lat="59.858666669930905" lon="9.939133327382697" id="-13393">
		<tag k="fixme" v="consider natural=peak for the most distinct mountains in the district" />
		<tag k="name" v="Vardeåsen" />
		<tag k="natural" v="hill" />
		<tag k="place" v="locality" />
		<tag k="ssr:stedsnr" v="208685" />
	</node>
	<node lat="59.805858337595346" lon="9.74961111153042" id="-13394">
		<tag k="name" v="Springerkleiv" />
		<tag k="natural" v="slope" />
		<tag k="place" v="locality" />
		<tag k="ssr:stedsnr" v="208850" />
	</node>
	<node lat="59.80720277766758" lon="9.793086114165432" id="-13396">
		<tag k="name" v="Brattbakk" />
		<tag k="natural" v="slope" />
		<tag k="place" v="locality" />
		<tag k="ssr:stedsnr" v="208784" />
	</node>
	<node lat="59.74770277518971" lon="9.773500004871241" id="-13398">
		<tag k="name" v="Geitberga" />
		<tag k="natural" v="ridge" />
		<tag k="place" v="locality" />
		<tag k="ssr:stedsnr" v="209207" />
	</node>
	<node lat="59.67913611035346" lon="9.961927773838628" id="-13402">
		<tag k="fixme" v="consider natural=peak for the most distinct mountains in the district" />
		<tag k="name" v="Kimetjernåsen" />
		<tag k="natural" v="hill" />
		<tag k="place" v="locality" />
		<tag k="ssr:stedsnr" v="210248" />
	</node>
	<node lat="59.84484722132139" lon="9.785880555841183" id="-13403">
		<tag k="name" v="Bråkedalen" />
		<tag k="natural" v="valley" />
		<tag k="place" v="locality" />
		<tag k="ssr:stedsnr" v="210624" />
	</node>
	<node lat="59.65001944739989" lon="9.847380553446385" id="-13405">
		<tag k="name" v="Seterkippen" />
		<tag k="natural" v="hill" />
		<tag k="place" v="locality" />
		<tag k="ssr:stedsnr" v="210911" />
	</node>
	<node lat="59.83654721819238" lon="9.875288896377334" id="-13408">
		<tag k="name" v="Tandbergbakken" />
		<tag k="natural" v="slope" />
		<tag k="place" v="locality" />
		<tag k="ssr:stedsnr" v="269565" />
	</node>
	<node lat="59.796097224043265" lon="9.818583342010543" id="-13412">
		<tag k="name" v="Møllebakken" />
		<tag k="natural" v="slope" />
		<tag k="place" v="locality" />
		<tag k="ssr:stedsnr" v="269935" />
	</node>
	<node lat="59.6670777754514" lon="9.962841671859303" id="-13416">
		<tag k="fixme" v="consider natural=peak for the most distinct mountains in the district" />
		<tag k="name" v="Storkleivåsen" />
		<tag k="natural" v="hill" />
		<tag k="place" v="locality" />
		<tag k="ssr:stedsnr" v="270236" />
	</node>
	<node lat="59.666966663785416" lon="9.83387776978297" id="-13418">
		<tag k="fixme" v="consider natural=peak for the most distinct mountains in the district" />
		<tag k="name" v="Skallerudåsen" />
		<tag k="natural" v="hill" />
		<tag k="place" v="locality" />
		<tag k="ssr:stedsnr" v="270567" />
	</node>
	<node lat="59.65097500326356" lon="9.85054722457148" id="-13423">
		<tag k="name" v="Deledalen" />
		<tag k="natural" v="valley" />
		<tag k="place" v="locality" />
		<tag k="ssr:stedsnr" v="271920" />
	</node>
	<node lat="59.61685833377446" lon="9.912913883939519" id="-13428">
		<tag k="name" v="Elgleet" />
		<tag k="natural" v="valley" />
		<tag k="place" v="locality" />
		<tag k="ssr:stedsnr" v="449858" />
	</node>
	<node lat="59.77116389029073" lon="9.821569439522001" id="-13442">
		<tag k="name" v="Haugsetbakken" />
		<tag k="natural" v="slope" />
		<tag k="place" v="locality" />
		<tag k="ssr:stedsnr" v="450950" />
	</node>
	<node lat="59.732236109873774" lon="9.781316672047003" id="-13447">
		<tag k="name" v="Skarratangen" />
		<tag k="place" v="locality" />
		<tag k="ssr:stedsnr" v="451145" />
	</node>
	<node lat="59.61050555799581" lon="9.883411114992823" id="-13450">
		<tag k="name" v="Burvannskollen" />
		<tag k="natural" v="hill" />
		<tag k="place" v="locality" />
		<tag k="ssr:stedsnr" v="451533" />
	</node>
	<node lat="59.80820833284901" lon="9.733838887091174" id="-13464">
		<tag k="alt_name" v="Honsnuten" />
		<tag k="fixme" v="consider natural=peak for the most distinct mountains in the district" />
		<tag k="name" v="Honseteråsen" />
		<tag k="natural" v="hill" />
		<tag k="place" v="locality" />
		<tag k="ssr:stedsnr" v="246519" />
	</node>
	<node lat="59.71536110756318" lon="9.782255554358054" id="-13469">
		<tag k="fixme" v="consider natural=peak for the most distinct mountains in the district" />
		<tag k="name" v="Rudsåsen" />
		<tag k="natural" v="hill" />
		<tag k="place" v="locality" />
		<tag k="ssr:stedsnr" v="246616" />
	</node>
	<node lat="59.87799999639649" lon="9.761955549225796" id="-13474">
		<tag k="fixme" v="consider natural=peak for the most distinct mountains in the district" />
		<tag k="name" v="Skurvåsen" />
		<tag k="natural" v="hill" />
		<tag k="place" v="locality" />
		<tag k="ssr:stedsnr" v="247655" />
	</node>
	<node lat="59.833755557101576" lon="9.929558332922344" id="-13475">
		<tag k="name" v="Skottberget" />
		<tag k="natural" v="hill" />
		<tag k="place" v="locality" />
		<tag k="ssr:stedsnr" v="247670" />
	</node>
	<node lat="59.66724444539636" lon="9.80389999229348" id="-13483">
		<tag k="name" v="Klippa" />
		<tag k="natural" v="hill" />
		<tag k="place" v="locality" />
		<tag k="ssr:stedsnr" v="267442" />
	</node>
	<node lat="59.62668611357787" lon="9.933163895789384" id="-13484">
		<tag k="name" v="Gråbeinsletta" />
		<tag k="place" v="locality" />
		<tag k="ssr:stedsnr" v="267717" />
	</node>
	<node lat="59.6401722186101" lon="9.90151944488427" id="-13486">
		<tag k="fixme" v="consider natural=peak for the most distinct mountains in the district" />
		<tag k="name" v="Bogåsen" />
		<tag k="natural" v="hill" />
		<tag k="place" v="locality" />
		<tag k="ssr:stedsnr" v="267911" />
	</node>
	<node lat="59.8195305528865" lon="9.965719435504251" id="-13492">
		<tag k="fixme" v="consider natural=peak for the most distinct mountains in the district" />
		<tag k="name" v="Geveltfjellet" />
		<tag k="natural" v="hill" />
		<tag k="place" v="locality" />
		<tag k="ssr:stedsnr" v="268584" />
	</node>
	<node lat="59.84089444402362" lon="9.962416658844491" id="-13494">
		<tag k="name" v="Kippen" />
		<tag k="natural" v="valley" />
		<tag k="place" v="locality" />
		<tag k="ssr:stedsnr" v="268601" />
	</node>
	<node lat="59.684702779155856" lon="9.936202780010703" id="-13501">
		<tag k="name" v="Hyttefjell" />
		<tag k="natural" v="hill" />
		<tag k="place" v="locality" />
		<tag k="ssr:stedsnr" v="270192" />
	</node>
	<node lat="59.72104722627768" lon="9.925716659353858" id="-13502">
		<tag k="fixme" v="consider natural=peak for the most distinct mountains in the district" />
		<tag k="name" v="Kulerudåsen" />
		<tag k="natural" v="hill" />
		<tag k="place" v="locality" />
		<tag k="ssr:stedsnr" v="270472" />
	</node>
	<node lat="59.731822220236396" lon="9.827322218772828" id="-13503">
		<tag k="name" v="Grautberga" />
		<tag k="natural" v="ridge" />
		<tag k="place" v="locality" />
		<tag k="ssr:stedsnr" v="270473" />
	</node>
	<node lat="59.721241663602186" lon="9.944727777042967" id="-13505">
		<tag k="name" v="Åletjernlia" />
		<tag k="natural" v="slope" />
		<tag k="place" v="locality" />
		<tag k="ssr:stedsnr" v="270477" />
	</node>
	<node lat="59.79503889309797" lon="9.794758341164053" id="-13516">
		<tag k="fixme" v="consider natural=peak for the most distinct mountains in the district" />
		<tag k="name" v="Kløveråsen" />
		<tag k="natural" v="hill" />
		<tag k="place" v="locality" />
		<tag k="ssr:stedsnr" v="307521" />
	</node>
	<node lat="59.837811111540084" lon="9.755077777274266" id="-13518">
		<tag k="fixme" v="consider natural=peak for the most distinct mountains in the district" />
		<tag k="name" v="Lina" />
		<tag k="natural" v="hill" />
		<tag k="place" v="locality" />
		<tag k="ssr:stedsnr" v="307704" />
	</node>
	<node lat="59.83315555809803" lon="9.772941673116023" id="-13519">
		<tag k="fixme" v="consider natural=peak for the most distinct mountains in the district" />
		<tag k="name" v="Harstadseteråsen" />
		<tag k="natural" v="hill" />
		<tag k="place" v="locality" />
		<tag k="ssr:stedsnr" v="307706" />
	</node>
	<node lat="59.828447220713265" lon="9.961469453255718" id="-13520">
		<tag k="fixme" v="consider natural=peak for the most distinct mountains in the district" />
		<tag k="name" v="Høgbrenna" />
		<tag k="natural" v="hill" />
		<tag k="place" v="locality" />
		<tag k="ssr:stedsnr" v="307717" />
	</node>
	<node lat="59.663495890846605" lon="9.998604367932247" id="-13522">
		<tag k="loc_name" v="Trollbrua" />
		<tag k="name" v="Steinbru" />
		<tag k="place" v="locality" />
		<tag k="ssr:stedsnr" v="323977" />
	</node>
	<node lat="59.66329166688656" lon="9.780713892397104" id="-13523">
		<tag k="name" v="Stemningshaugen" />
		<tag k="natural" v="hill" />
		<tag k="place" v="locality" />
		<tag k="ssr:stedsnr" v="327480" />
	</node>
	<node lat="59.743622223257454" lon="9.812119447808607" id="-13527">
		<tag k="name" v="Østermoen" />
		<tag k="natural" v="slope" />
		<tag k="place" v="locality" />
		<tag k="ssr:stedsnr" v="329075" />
	</node>
	<node lat="59.787466662970026" lon="9.74284444632225" id="-13531">
		<tag k="name" v="Kleivene" />
		<tag k="natural" v="slope" />
		<tag k="place" v="locality" />
		<tag k="ssr:stedsnr" v="329675" />
	</node>
	<node lat="59.84283055114122" lon="9.913783339092848" id="-13534">
		<tag k="name" v="Knivebakken" />
		<tag k="natural" v="slope" />
		<tag k="place" v="locality" />
		<tag k="ssr:stedsnr" v="330613" />
	</node>
	<node lat="59.64284444114037" lon="9.863419436369572" id="-13538">
		<tag k="name" v="Rolighet" />
		<tag k="natural" v="valley" />
		<tag k="place" v="locality" />
		<tag k="ssr:stedsnr" v="331998" />
	</node>
	<node lat="59.650736113094155" lon="9.86905555305789" id="-13552">
		<tag k="alt_name" v="Gunnhildrudknatten" />
		<tag k="fixme" v="consider natural=peak for the most distinct mountains in the district" />
		<tag k="name" v="Gunhildrudknatten" />
		<tag k="natural" v="hill" />
		<tag k="old_name" v="Gundhildrudknatten" />
		<tag k="place" v="locality" />
		<tag k="ssr:stedsnr" v="367495" />
	</node>
	<node lat="59.65325833330428" lon="9.788691667990228" id="-13569">
		<tag k="name" v="Vassdalshallane" />
		<tag k="natural" v="slope" />
		<tag k="place" v="locality" />
		<tag k="ssr:stedsnr" v="388479" />
	</node>
	<node lat="59.84129722434421" lon="9.724444448216829" id="-13573">
		<tag k="name" v="Tiuråsen" />
		<tag k="natural" v="hill" />
		<tag k="place" v="locality" />
		<tag k="ssr:stedsnr" v="389728" />
	</node>
	<node lat="59.60400833683102" lon="9.894749999458183" id="-13578">
		<tag k="name" v="Brennevinsdalen" />
		<tag k="natural" v="valley" />
		<tag k="place" v="locality" />
		<tag k="ssr:stedsnr" v="390486" />
	</node>
	<node lat="59.80487778074179" lon="9.771466665458174" id="-13584">
		<tag k="name" v="Langelia" />
		<tag k="natural" v="slope" />
		<tag k="place" v="locality" />
		<tag k="ssr:stedsnr" v="390841" />
	</node>
	<node lat="59.82430833283364" lon="9.719138880755084" id="-13588">
		<tag k="fixme" v="consider natural=peak for the most distinct mountains in the district" />
		<tag k="name" v="Mellomfjellet" />
		<tag k="natural" v="hill" />
		<tag k="place" v="locality" />
		<tag k="ssr:stedsnr" v="391606" />
	</node>
	<node lat="59.72271666588019" lon="9.72568610371628" id="-13601">
		<tag k="fixme" v="consider natural=peak for the most distinct mountains in the district" />
		<tag k="name" v="Storåsen" />
		<tag k="natural" v="hill" />
		<tag k="place" v="locality" />
		<tag k="ssr:stedsnr" v="488614" />
	</node>
	<node lat="59.799436108007136" lon="9.93883056274441" id="-13604">
		<tag k="fixme" v="consider natural=peak for the most distinct mountains in the district" />
		<tag k="name" v="Ormetjernåsen" />
		<tag k="natural" v="hill" />
		<tag k="place" v="locality" />
		<tag k="ssr:stedsnr" v="489527" />
	</node>
	<node lat="59.755055559620274" lon="9.770230553312135" id="-13622">
		<tag k="fixme" v="consider natural=peak for the most distinct mountains in the district" />
		<tag k="name" v="Kolbergåsen" />
		<tag k="natural" v="hill" />
		<tag k="place" v="locality" />
		<tag k="ssr:stedsnr" v="429561" />
	</node>
	<node lat="59.77970555811539" lon="9.76691111345791" id="-13625">
		<tag k="alt_name" v="Lortholseteråsen" />
		<tag k="fixme" v="consider natural=peak for the most distinct mountains in the district" />
		<tag k="name" v="Lortseteråsen" />
		<tag k="natural" v="hill" />
		<tag k="place" v="locality" />
		<tag k="ssr:stedsnr" v="429588" />
	</node>
	<node lat="59.79336944763022" lon="9.95416389247084" id="-13631">
		<tag k="name" v="Korskleiv" />
		<tag k="natural" v="slope" />
		<tag k="place" v="locality" />
		<tag k="ssr:stedsnr" v="450618" />
	</node>
	<node lat="59.8004611101115" lon="9.955605557388955" id="-13632">
		<tag k="name" v="Halvtattåsen" />
		<tag k="natural" v="slope" />
		<tag k="place" v="locality" />
		<tag k="ssr:stedsnr" v="450509" />
	</node>
	<node lat="59.73067777790936" lon="9.861469453297826" id="-13634">
		<tag k="name" v="Smellhaugen" />
		<tag k="natural" v="hill" />
		<tag k="place" v="locality" />
		<tag k="ssr:stedsnr" v="451330" />
	</node>
	<node lat="59.74434166291242" lon="9.770713880904673" id="-13640">
		<tag k="fixme" v="consider natural=peak for the most distinct mountains in the district" />
		<tag k="name" v="Øvre Seteråsen" />
		<tag k="natural" v="hill" />
		<tag k="place" v="locality" />
		<tag k="ssr:stedsnr" v="451229" />
	</node>
	<node lat="59.85926106560103" lon="9.92858730103314" id="-13645">
		<tag k="loc_name" v="Raudkleiv" />
		<tag k="name" v="Raukleiv" />
		<tag k="natural" v="slope" />
		<tag k="place" v="locality" />
		<tag k="ssr:stedsnr" v="451685" />
	</node>
	<node lat="59.68831944140875" lon="9.917066670754696" id="-13655">
		<tag k="fixme" v="consider natural=peak for the most distinct mountains in the district" />
		<tag k="name" v="Østerudfjellet" />
		<tag k="natural" v="hill" />
		<tag k="place" v="locality" />
		<tag k="ssr:stedsnr" v="452702" />
	</node>
	<node lat="59.82057500147625" lon="9.95445277301753" id="-13669">
		<tag k="name" v="Grandalen" />
		<tag k="natural" v="valley" />
		<tag k="place" v="locality" />
		<tag k="ssr:stedsnr" v="489736" />
	</node>
	<node lat="59.81799444128764" lon="9.981063889316403" id="-13676">
		<tag k="name" v="Kjellerdalen" />
		<tag k="natural" v="valley" />
		<tag k="place" v="locality" />
		<tag k="ssr:stedsnr" v="511489" />
	</node>
	<node lat="59.84631389014149" lon="9.712591662090395" id="-13678">
		<tag k="name" v="Blygåtthaugene" />
		<tag k="natural" v="hill" />
		<tag k="place" v="locality" />
		<tag k="ssr:stedsnr" v="511716" />
	</node>
	<node lat="59.85653333421525" lon="9.95186944165095" id="-13679">
		<tag k="fixme" v="consider natural=peak for the most distinct mountains in the district" />
		<tag k="name" v="Bjørnåsen" />
		<tag k="natural" v="hill" />
		<tag k="place" v="locality" />
		<tag k="ssr:stedsnr" v="511641" />
	</node>
	<node lat="59.81218333175568" lon="9.826255553311956" id="-13682">
		<tag k="name" v="Kastet" />
		<tag k="natural" v="slope" />
		<tag k="place" v="locality" />
		<tag k="ssr:stedsnr" v="512711" />
	</node>
	<node lat="59.629099995852336" lon="9.925700004670496" id="-13693">
		<tag k="alt_name" v="Geiteryggen" />
		<tag k="name" v="Geitryggen" />
		<tag k="natural" v="ridge" />
		<tag k="place" v="locality" />
		<tag k="ssr:stedsnr" v="549503" />
	</node>
	<node lat="59.654669444929304" lon="9.881547220657207" id="-13709">
		<tag k="name" v="Maurdalen" />
		<tag k="natural" v="valley" />
		<tag k="place" v="locality" />
		<tag k="ssr:stedsnr" v="692892" />
	</node>
	<node lat="59.74135277919107" lon="9.92272499947448" id="-13713">
		<tag k="fixme" v="consider natural=peak for the most distinct mountains in the district" />
		<tag k="name" v="Vinsvoldåsen" />
		<tag k="natural" v="hill" />
		<tag k="place" v="locality" />
		<tag k="ssr:stedsnr" v="693366" />
	</node>
	<node lat="59.68541388533829" lon="9.769847229498081" id="-13715">
		<tag k="fixme" v="consider natural=peak for the most distinct mountains in the district" />
		<tag k="name" v="Rudsåsen" />
		<tag k="natural" v="hill" />
		<tag k="place" v="locality" />
		<tag k="ssr:stedsnr" v="570606" />
	</node>
	<node lat="59.73580277868469" lon="9.792811111125182" id="-13716">
		<tag k="name" v="Spellemannsberga" />
		<tag k="natural" v="slope" />
		<tag k="place" v="locality" />
		<tag k="ssr:stedsnr" v="571121" />
	</node>
	<node lat="59.8486778045454" lon="9.816568241655608" id="-13721">
		<tag k="name" v="Gamlevolldalen" />
		<tag k="natural" v="valley" />
		<tag k="place" v="locality" />
		<tag k="ssr:stedsnr" v="693684" />
	</node>
	<node lat="59.849633332561154" lon="9.99334999356953" id="-13724">
		<tag k="fixme" v="consider natural=peak for the most distinct mountains in the district" />
		<tag k="name" v="Ormetjernsåsen" />
		<tag k="natural" v="hill" />
		<tag k="place" v="locality" />
		<tag k="ssr:stedsnr" v="693662" />
	</node>
	<node lat="59.81046944834874" lon="9.73356389767077" id="-13730">
		<tag k="fixme" v="consider natural=peak for the most distinct mountains in the district" />
		<tag k="name" v="Honseteråsen" />
		<tag k="natural" v="hill" />
		<tag k="place" v="locality" />
		<tag k="ssr:stedsnr" v="573547" />
	</node>
	<node lat="59.66866110956492" lon="9.858961107629716" id="-13731">
		<tag k="name" v="Skansen" />
		<tag k="natural" v="hill" />
		<tag k="place" v="locality" />
		<tag k="ssr:stedsnr" v="573550" />
	</node>
	<node lat="59.711983335904705" lon="9.934833324760005" id="-13737">
		<tag k="name" v="Nepebråtan" />
		<tag k="natural" v="hill" />
		<tag k="place" v="locality" />
		<tag k="ssr:stedsnr" v="695485" />
	</node>
	<node lat="59.663591663130454" lon="9.854036109340102" id="-13739">
		<tag k="name" v="Ospebakk" />
		<tag k="natural" v="slope" />
		<tag k="place" v="locality" />
		<tag k="ssr:stedsnr" v="695595" />
	</node>
	<node lat="59.64093888888118" lon="9.83738611194396" id="-13741">
		<tag k="name" v="Moltedalen" />
		<tag k="natural" v="valley" />
		<tag k="place" v="locality" />
		<tag k="ssr:stedsnr" v="695992" />
	</node>
	<node lat="59.63712499804715" lon="9.837308339222242" id="-13742">
		<tag k="name" v="Nesfjellia" />
		<tag k="natural" v="slope" />
		<tag k="place" v="locality" />
		<tag k="ssr:stedsnr" v="695993" />
	</node>
	<node lat="59.815444446465854" lon="9.946938882688961" id="-13749">
		<tag k="alt_name" v="Kastet" />
		<tag k="fixme" v="consider natural=peak for the most distinct mountains in the district" />
		<tag k="name" v="Kaståsen" />
		<tag k="natural" v="hill" />
		<tag k="place" v="locality" />
		<tag k="ssr:stedsnr" v="610585" />
	</node>
	<node lat="59.76180555793389" lon="9.73955555715486" id="-13750">
		<tag k="fixme" v="consider natural=peak for the most distinct mountains in the district" />
		<tag k="name" v="Jungerkollen" />
		<tag k="natural" v="hill" />
		<tag k="place" v="locality" />
		<tag k="ssr:stedsnr" v="610600" />
	</node>
	<node lat="59.83025555383411" lon="9.930188889418638" id="-13751">
		<tag k="fixme" v="multiple name tags, choose one and add the other to alt_name; consider natural=peak for the most distinct mountains in the district" />
		<tag k="name" v="Hovet;Skogsvannhovet" />
		<tag k="natural" v="hill" />
		<tag k="place" v="locality" />
		<tag k="ssr:stedsnr" v="610712" />
	</node>
	<node lat="59.777369446875554" lon="9.72749999226749" id="-13754">
		<tag k="fixme" v="consider natural=peak for the most distinct mountains in the district" />
		<tag k="name" v="Grasåsen" />
		<tag k="natural" v="hill" />
		<tag k="place" v="locality" />
		<tag k="ssr:stedsnr" v="611504" />
	</node>
	<node lat="59.88472647389669" lon="9.700959805225743" id="-13762">
		<tag k="name" v="Lauvhuset" />
		<tag k="natural" v="ridge" />
		<tag k="place" v="locality" />
		<tag k="ssr:stedsnr" v="632411" />
	</node>
	<node lat="59.8227722211573" lon="9.813902782869286" id="-13765">
		<tag k="name" v="Bjørnestillingen" />
		<tag k="natural" v="valley" />
		<tag k="place" v="locality" />
		<tag k="ssr:stedsnr" v="632639" />
	</node>
	<node lat="59.749730552943795" lon="9.878872224883693" id="-13798">
		<tag k="name" v="Bergshaugen" />
		<tag k="natural" v="hill" />
		<tag k="place" v="locality" />
		<tag k="ssr:stedsnr" v="693076" />
	</node>
	<node lat="59.88224715381163" lon="9.742165105721016" id="-13799">
		<tag k="name" v="Sagberget" />
		<tag k="natural" v="slope" />
		<tag k="place" v="locality" />
		<tag k="ssr:stedsnr" v="693403" />
	</node>
	<node lat="59.825516665222985" lon="9.928999996000242" id="-13803">
		<tag k="name" v="Skogsvannshallen" />
		<tag k="natural" v="ridge" />
		<tag k="place" v="locality" />
		<tag k="ssr:stedsnr" v="693622" />
	</node>
	<node lat="59.72845833256041" lon="9.914608328666441" id="-13807">
		<tag k="name" v="Kleivkastet" />
		<tag k="natural" v="slope" />
		<tag k="place" v="locality" />
		<tag k="ssr:stedsnr" v="694285" />
	</node>
	<node lat="59.82733333106548" lon="9.829894440399313" id="-13808">
		<tag k="name" v="Nesfjellet" />
		<tag k="natural" v="ridge" />
		<tag k="place" v="locality" />
		<tag k="ssr:stedsnr" v="694674" />
	</node>
	<node lat="59.85579444245675" lon="9.93036666783864" id="-13809">
		<tag k="name" v="Bukkeberga" />
		<tag k="natural" v="cliff" />
		<tag k="ssr:stedsnr" v="694687" />
	</node>
	<node lat="59.72822500200775" lon="9.70673056096108" id="-13812">
		<tag k="name" v="Øytjernkollen" />
		<tag k="natural" v="hill" />
		<tag k="place" v="locality" />
		<tag k="ssr:stedsnr" v="694872" />
	</node>
	<node lat="59.69903333137186" lon="9.887680556068368" id="-13814">
		<tag k="name" v="Knerten" />
		<tag k="natural" v="hill" />
		<tag k="place" v="locality" />
		<tag k="ssr:stedsnr" v="696671" />
	</node>
	<node lat="59.61627222042627" lon="9.897886117905504" id="-13822">
		<tag k="fixme" v="consider natural=peak for the most distinct mountains in the district" />
		<tag k="name" v="Fosseteråsen" />
		<tag k="natural" v="hill" />
		<tag k="place" v="locality" />
		<tag k="ssr:stedsnr" v="731479" />
	</node>
	<node lat="59.83331666464382" lon="9.751144451092568" id="-13837">
		<tag k="fixme" v="consider natural=peak for the most distinct mountains in the district" />
		<tag k="name" v="Myrehogget" />
		<tag k="natural" v="hill" />
		<tag k="place" v="locality" />
		<tag k="ssr:stedsnr" v="732711" />
	</node>
	<node lat="59.62282222017" lon="9.91753611715418" id="-13838">
		<tag k="fixme" v="consider natural=peak for the most distinct mountains in the district" />
		<tag k="name" v="Trollhettåsen" />
		<tag k="natural" v="hill" />
		<tag k="place" v="locality" />
		<tag k="ssr:stedsnr" v="752879" />
	</node>
	<node lat="59.87382499828161" lon="9.749177770429348" id="-13839">
		<tag k="name" v="Klogohallene" />
		<tag k="natural" v="slope" />
		<tag k="place" v="locality" />
		<tag k="ssr:stedsnr" v="753408" />
	</node>
	<node lat="59.815916671135945" lon="9.806549996410567" id="-13840">
		<tag k="name" v="Spitfjellet" />
		<tag k="natural" v="ridge" />
		<tag k="place" v="locality" />
		<tag k="ssr:stedsnr" v="753621" />
	</node>
	<node lat="59.81135278175722" lon="9.811183324556923" id="-13841">
		<tag k="name" v="Jerpelia" />
		<tag k="natural" v="slope" />
		<tag k="place" v="locality" />
		<tag k="ssr:stedsnr" v="753623" />
	</node>
	<node lat="59.79177221785295" lon="9.94969444953933" id="-13842">
		<tag k="name" v="Fuglebakk" />
		<tag k="natural" v="slope" />
		<tag k="place" v="locality" />
		<tag k="ssr:stedsnr" v="753559" />
	</node>
	<node lat="59.711677776760666" lon="9.756272230271259" id="-13844">
		<tag k="fixme" v="consider natural=peak for the most distinct mountains in the district" />
		<tag k="name" v="Sacherhusåsen" />
		<tag k="natural" v="hill" />
		<tag k="place" v="locality" />
		<tag k="ssr:stedsnr" v="753568" />
	</node>
	<node lat="59.79558611249731" lon="9.803011104810567" id="-13853">
		<tag k="name" v="Mileåsen" />
		<tag k="natural" v="hill" />
		<tag k="place" v="locality" />
		<tag k="ssr:stedsnr" v="754848" />
	</node>
	<node lat="59.702902781713" lon="9.953963882552198" id="-13856">
		<tag k="name" v="Helvetesnuten" />
		<tag k="natural" v="hill" />
		<tag k="place" v="locality" />
		<tag k="ssr:stedsnr" v="756509" />
	</node>
	<node lat="59.85095277752003" lon="9.788708335444246" id="-13874">
		<tag k="fixme" v="consider natural=peak for the most distinct mountains in the district" />
		<tag k="name" v="Hafella" />
		<tag k="natural" v="hill" />
		<tag k="place" v="locality" />
		<tag k="ssr:stedsnr" v="793768" />
	</node>
	<node lat="59.65690833179105" lon="9.973608338738163" id="-13875">
		<tag k="fixme" v="consider natural=peak for the most distinct mountains in the district" />
		<tag k="name" v="Barlindmyråsen" />
		<tag k="natural" v="hill" />
		<tag k="place" v="locality" />
		<tag k="ssr:stedsnr" v="913126" />
	</node>
	<node lat="59.858961108716834" lon="9.791694441597654" id="-13895">
		<tag k="name" v="Katrinelia" />
		<tag k="natural" v="slope" />
		<tag k="place" v="locality" />
		<tag k="ssr:stedsnr" v="914736" />
	</node>
	<node lat="59.788947224071315" lon="9.939163893304942" id="-13897">
		<tag k="fixme" v="consider natural=peak for the most distinct mountains in the district" />
		<tag k="name" v="Damåsen" />
		<tag k="natural" v="hill" />
		<tag k="place" v="locality" />
		<tag k="ssr:stedsnr" v="915484" />
	</node>
	<node lat="59.754674999832396" lon="9.723194445703603" id="-13898">
		<tag k="fixme" v="consider natural=peak for the most distinct mountains in the district" />
		<tag k="name" v="Brennåsen" />
		<tag k="natural" v="hill" />
		<tag k="place" v="locality" />
		<tag k="ssr:stedsnr" v="915491" />
	</node>
	<node lat="59.82190555548254" lon="9.931152775895995" id="-13903">
		<tag k="name" v="Tjernsenddalen" />
		<tag k="natural" v="valley" />
		<tag k="place" v="locality" />
		<tag k="ssr:stedsnr" v="814633" />
	</node>
	<node lat="59.75178333558661" lon="9.800922225625126" id="-13905">
		<tag k="name" v="Kloppmyrdalen" />
		<tag k="natural" v="valley" />
		<tag k="place" v="locality" />
		<tag k="ssr:stedsnr" v="815208" />
	</node>
	<node lat="59.89895277589405" lon="9.712583330699571" id="-13906">
		<tag k="fixme" v="consider natural=peak for the most distinct mountains in the district" />
		<tag k="name" v="Endeåsen" />
		<tag k="natural" v="hill" />
		<tag k="place" v="locality" />
		<tag k="ssr:stedsnr" v="815397" />
	</node>
	<node lat="59.82451111334517" lon="9.738922216381672" id="-13912">
		<tag k="name" v="Sjutjernsdalen" />
		<tag k="natural" v="valley" />
		<tag k="place" v="locality" />
		<tag k="ssr:stedsnr" v="816621" />
	</node>
	<node lat="59.70717500420028" lon="9.872233326550848" id="-13914">
		<tag k="name" v="Kølabonn" />
		<tag k="natural" v="valley" />
		<tag k="place" v="locality" />
		<tag k="ssr:stedsnr" v="817678" />
	</node>
	<node lat="59.80821944176113" lon="9.977986113511612" id="-13918">
		<tag k="fixme" v="consider natural=peak for the most distinct mountains in the district" />
		<tag k="name" v="Uleråsen" />
		<tag k="natural" v="hill" />
		<tag k="place" v="locality" />
		<tag k="ssr:stedsnr" v="853204" />
	</node>
	<node lat="59.73773055703576" lon="9.784038882991322" id="-13927">
		<tag k="alt_name" v="Sæteråsen" />
		<tag k="fixme" v="consider natural=peak for the most distinct mountains in the district" />
		<tag k="name" v="Nedre Seteråsen" />
		<tag k="natural" v="hill" />
		<tag k="place" v="locality" />
		<tag k="ssr:stedsnr" v="853662" />
	</node>
	<node lat="59.8488305540742" lon="9.939811117749217" id="-13932">
		<tag k="name" v="Fjellgrinda" />
		<tag k="natural" v="valley" />
		<tag k="place" v="locality" />
		<tag k="ssr:stedsnr" v="875571" />
	</node>
	<node lat="59.846116664415966" lon="9.934469447165952" id="-13933">
		<tag k="name" v="Maurhaugen" />
		<tag k="natural" v="hill" />
		<tag k="place" v="locality" />
		<tag k="ssr:stedsnr" v="875573" />
	</node>
	<node lat="59.791830559224266" lon="9.973436115078282" id="-13934">
		<tag k="name" v="Øytjerndalen" />
		<tag k="natural" v="valley" />
		<tag k="place" v="locality" />
		<tag k="ssr:stedsnr" v="875581" />
	</node>
	<node lat="59.83319722298788" lon="9.97748055795521" id="-13937">
		<tag k="fixme" v="consider natural=peak for the most distinct mountains in the district" />
		<tag k="name" v="Lofthuskollen" />
		<tag k="natural" v="hill" />
		<tag k="place" v="locality" />
		<tag k="ssr:stedsnr" v="875617" />
	</node>
	<node lat="59.844844445499135" lon="9.978094452858281" id="-13939">
		<tag k="name" v="Daletjernslia" />
		<tag k="natural" v="slope" />
		<tag k="place" v="locality" />
		<tag k="ssr:stedsnr" v="875620" />
	</node>
	<node lat="59.67922222411144" lon="9.71027500686334" id="-13940">
		<tag k="name" v="Tamburhaugen" />
		<tag k="natural" v="hill" />
		<tag k="place" v="locality" />
		<tag k="ssr:stedsnr" v="875657" />
	</node>
	<node lat="59.70180555568195" lon="9.883188886954477" id="-13950">
		<tag k="fixme" v="consider natural=peak for the most distinct mountains in the district" />
		<tag k="name" v="Forsvarsåsen" />
		<tag k="natural" v="hill" />
		<tag k="place" v="locality" />
		<tag k="ssr:stedsnr" v="878700" />
	</node>
	<node lat="59.83756388941162" lon="9.980794447537102" id="-13969">
		<tag k="fixme" v="consider natural=peak for the most distinct mountains in the district" />
		<tag k="name" v="Trollåsen" />
		<tag k="natural" v="hill" />
		<tag k="place" v="locality" />
		<tag k="ssr:stedsnr" v="914294" />
	</node>
	<node lat="59.805019592813316" lon="9.915854034514108" id="-13970">
		<tag k="fixme" v="consider natural=peak for the most distinct mountains in the district" />
		<tag k="name" v="Slettbakk" />
		<tag k="natural" v="hill" />
		<tag k="place" v="locality" />
		<tag k="ssr:stedsnr" v="914573" />
	</node>
	<node lat="59.83256111049269" lon="9.800277770415445" id="-13973">
		<tag k="alt_name" v="Nerseterdalen" />
		<tag k="name" v="Nesseterdalen" />
		<tag k="natural" v="valley" />
		<tag k="place" v="locality" />
		<tag k="ssr:stedsnr" v="914714" />
	</node>
	<node lat="59.84755555918145" lon="9.926372221355829" id="-13978">
		<tag k="name" v="Fudderud" />
		<tag k="natural" v="slope" />
		<tag k="place" v="locality" />
		<tag k="ssr:stedsnr" v="936584" />
	</node>
	<node lat="59.78931879271697" lon="9.73351563259611" id="-13982">
		<tag k="name" v="Fjellbudalen" />
		<tag k="natural" v="valley" />
		<tag k="place" v="locality" />
		<tag k="ssr:stedsnr" v="936688" />
	</node>
	<node lat="59.76558889036134" lon="9.773152783105827" id="-13985">
		<tag k="name" v="Nyseterlia" />
		<tag k="natural" v="slope" />
		<tag k="place" v="locality" />
		<tag k="ssr:stedsnr" v="937116" />
	</node>
	<node lat="59.85381111124064" lon="9.789447223085862" id="-13986">
		<tag k="fixme" v="consider natural=peak for the most distinct mountains in the district" />
		<tag k="name" v="Kudalsåsen" />
		<tag k="natural" v="hill" />
		<tag k="place" v="locality" />
		<tag k="ssr:stedsnr" v="937037" />
	</node>
	<node lat="59.78857222563364" lon="9.751361109016443" id="-13992">
		<tag k="fixme" v="consider natural=peak for the most distinct mountains in the district" />
		<tag k="name" v="Gorudvollåsen" />
		<tag k="natural" v="hill" />
		<tag k="place" v="locality" />
		<tag k="ssr:stedsnr" v="937811" />
	</node>
	<node lat="59.82981944168489" lon="9.802566661572536" id="-13995">
		<tag k="name" v="Steinbakken" />
		<tag k="natural" v="slope" />
		<tag k="place" v="locality" />
		<tag k="ssr:stedsnr" v="938605" />
	</node>
	<node lat="59.70974393162537" lon="9.724491115023092" id="-13996">
		<tag k="fixme" v="consider natural=peak for the most distinct mountains in the district" />
		<tag k="name" v="Karlstjernåsen" />
		<tag k="natural" v="hill" />
		<tag k="place" v="locality" />
		<tag k="ssr:stedsnr" v="938820" />
	</node>
	<node lat="59.6869777797174" lon="9.980002769494247" id="-14000">
		<tag k="alt_name" v="Kroktjernåsen" />
		<tag k="fixme" v="consider natural=peak for the most distinct mountains in the district" />
		<tag k="name" v="Kroktjernhaugen" />
		<tag k="natural" v="hill" />
		<tag k="place" v="locality" />
		<tag k="ssr:stedsnr" v="3164" />
	</node>
	<node lat="59.760702773647" lon="9.80811389507126" id="-14005">
		<tag k="alt_name" v="Gruveåsen" />
		<tag k="fixme" v="consider natural=peak for the most distinct mountains in the district" />
		<tag k="name" v="Gruvåsen" />
		<tag k="natural" v="hill" />
		<tag k="place" v="locality" />
		<tag k="ssr:stedsnr" v="3520" />
	</node>
	<node lat="59.673250000923396" lon="9.726963893886108" id="-14009">
		<tag k="fixme" v="consider natural=peak for the most distinct mountains in the district" />
		<tag k="name" v="Damåsen" />
		<tag k="natural" v="hill" />
		<tag k="place" v="locality" />
		<tag k="ssr:stedsnr" v="3536" />
	</node>
	<node lat="59.79561388731892" lon="9.731191671614846" id="-14015">
		<tag k="fixme" v="consider natural=peak for the most distinct mountains in the district" />
		<tag k="name" v="Fjellbuåsen" />
		<tag k="natural" v="hill" />
		<tag k="place" v="locality" />
		<tag k="ssr:stedsnr" v="4495" />
	</node>
	<node lat="59.8695472234934" lon="9.797319452935128" id="-14017">
		<tag k="fixme" v="consider natural=peak for the most distinct mountains in the district" />
		<tag k="name" v="Plassåsen" />
		<tag k="natural" v="hill" />
		<tag k="place" v="locality" />
		<tag k="ssr:stedsnr" v="4630" />
	</node>
	<node lat="59.845880554320196" lon="9.96497777545541" id="-14029">
		<tag k="fixme" v="consider natural=peak for the most distinct mountains in the district" />
		<tag k="name" v="Snaukollen" />
		<tag k="natural" v="hill" />
		<tag k="place" v="locality" />
		<tag k="ssr:stedsnr" v="4754" />
	</node>
	<node lat="59.65386944090952" lon="9.990686111658507" id="-14032">
		<tag k="name" v="Vimekleiv" />
		<tag k="natural" v="slope" />
		<tag k="place" v="locality" />
		<tag k="ssr:stedsnr" v="24153" />
	</node>
	<node lat="59.65365662252145" lon="9.782834174829503" id="-14033">
		<tag k="fixme" v="consider natural=peak for the most distinct mountains in the district" />
		<tag k="loc_name" v="Raudbergåsen" />
		<tag k="name" v="Raubergåsen" />
		<tag k="natural" v="hill" />
		<tag k="place" v="locality" />
		<tag k="ssr:stedsnr" v="24515" />
	</node>
	<node lat="59.60496944211968" lon="9.92690834212077" id="-14037">
		<tag k="name" v="Mørtjernkollen" />
		<tag k="natural" v="hill" />
		<tag k="place" v="locality" />
		<tag k="ssr:stedsnr" v="24768" />
	</node>
	<node lat="59.72916666589391" lon="9.76383888017972" id="-14043">
		<tag k="name" v="Skjeggetrengsla" />
		<tag k="natural" v="valley" />
		<tag k="place" v="locality" />
		<tag k="ssr:stedsnr" v="26133" />
	</node>
	<node lat="59.77932499778287" lon="9.8867972286005" id="-14048">
		<tag k="fixme" v="consider natural=peak for the most distinct mountains in the district" />
		<tag k="name" v="Krillåsen" />
		<tag k="natural" v="hill" />
		<tag k="place" v="locality" />
		<tag k="ssr:stedsnr" v="26682" />
	</node>
	<node lat="59.72566388455602" lon="9.709813896296794" id="-14052">
		<tag k="name" v="Øytjern" />
		<tag k="natural" v="valley" />
		<tag k="place" v="locality" />
		<tag k="ssr:stedsnr" v="26843" />
	</node>
	<node lat="59.87058888594854" lon="10.00246110978532" id="-14054">
		<tag k="name" v="Varmdalen" />
		<tag k="natural" v="valley" />
		<tag k="place" v="locality" />
		<tag k="ssr:stedsnr" v="26665" />
	</node>
	<node lat="59.675272219915826" lon="9.9601972200595" id="-14058">
		<tag k="name" v="Lytterberget" />
		<tag k="natural" v="hill" />
		<tag k="place" v="locality" />
		<tag k="ssr:stedsnr" v="27205" />
	</node>
	<node lat="59.65696111364141" lon="9.969419444616127" id="-14059">
		<tag k="fixme" v="consider natural=peak for the most distinct mountains in the district" />
		<tag k="name" v="Sandvikåsen" />
		<tag k="natural" v="hill" />
		<tag k="place" v="locality" />
		<tag k="ssr:stedsnr" v="27207" />
	</node>
	<node lat="59.71694166960115" lon="9.886202780130606" id="-14061">
		<tag k="name" v="Skjeggetrengsla" />
		<tag k="natural" v="slope" />
		<tag k="place" v="locality" />
		<tag k="ssr:stedsnr" v="28699" />
	</node>
	<node lat="59.69227221936772" lon="9.953461116317541" id="-14077">
		<tag k="fixme" v="consider natural=peak for the most distinct mountains in the district" />
		<tag k="name" v="Sirikjerke" />
		<tag k="natural" v="hill" />
		<tag k="place" v="locality" />
		<tag k="ssr:stedsnr" v="64583" />
	</node>
	<node lat="59.826302782084774" lon="9.836861118239325" id="-14089">
		<tag k="name" v="Rakkestadstordalen" />
		<tag k="natural" v="valley" />
		<tag k="place" v="locality" />
		<tag k="ssr:stedsnr" v="65715" />
	</node>
	<node lat="59.80505000030901" lon="9.923000003223398" id="-14091">
		<tag k="fixme" v="consider natural=peak for the most distinct mountains in the district" />
		<tag k="name" v="Korpåsen" />
		<tag k="natural" v="hill" />
		<tag k="place" v="locality" />
		<tag k="ssr:stedsnr" v="65492" />
	</node>
	<node lat="59.88196666888219" lon="9.765369442834524" id="-14093">
		<tag k="fixme" v="consider natural=peak for the most distinct mountains in the district" />
		<tag k="name" v="Håreåsen" />
		<tag k="natural" v="hill" />
		<tag k="place" v="locality" />
		<tag k="ssr:stedsnr" v="65673" />
	</node>
	<node lat="59.78642500408025" lon="9.955869447551919" id="-14094">
		<tag k="fixme" v="consider natural=peak for the most distinct mountains in the district" />
		<tag k="name" v="Hagatjernåsen" />
		<tag k="natural" v="hill" />
		<tag k="place" v="locality" />
		<tag k="ssr:stedsnr" v="83747" />
	</node>
	<node lat="59.720880551826156" lon="9.659908339697727" id="-14096">
		<tag k="name" v="Lurdalsskaret" />
		<tag k="natural" v="valley" />
		<tag k="place" v="locality" />
		<tag k="ssr:stedsnr" v="85728" />
	</node>
	<node lat="59.81556388467604" lon="9.996197218159766" id="-14102">
		<tag k="name" v="Yttervannslia" />
		<tag k="natural" v="slope" />
		<tag k="place" v="locality" />
		<tag k="ssr:stedsnr" v="86515" />
	</node>
	<node lat="59.8419333353994" lon="9.924294444842847" id="-14103">
		<tag k="name" v="Jernhatten" />
		<tag k="natural" v="hill" />
		<tag k="place" v="locality" />
		<tag k="ssr:stedsnr" v="86596" />
	</node>
	<node lat="59.82294444071137" lon="9.924836116934845" id="-14104">
		<tag k="fixme" v="consider natural=peak for the most distinct mountains in the district" />
		<tag k="name" v="Korpåsen" />
		<tag k="natural" v="hill" />
		<tag k="place" v="locality" />
		<tag k="ssr:stedsnr" v="86600" />
	</node>
	<node lat="59.81072222436991" lon="9.808241661429747" id="-14109">
		<tag k="name" v="Geiteryggen" />
		<tag k="natural" v="ridge" />
		<tag k="place" v="locality" />
		<tag k="ssr:stedsnr" v="86657" />
	</node>
	<node lat="59.76824444410549" lon="9.74226944576703" id="-14117">
		<tag k="fixme" v="consider natural=peak for the most distinct mountains in the district" />
		<tag k="name" v="Frågåttåsen" />
		<tag k="natural" v="hill" />
		<tag k="place" v="locality" />
		<tag k="ssr:stedsnr" v="87892" />
	</node>
	<node lat="59.85810833054487" lon="9.805658341252792" id="-14118">
		<tag k="name" v="Bjørnehullet" />
		<tag k="natural" v="valley" />
		<tag k="place" v="locality" />
		<tag k="ssr:stedsnr" v="87967" />
	</node>
	<node lat="59.64905555446605" lon="9.977613895532892" id="-14119">
		<tag k="fixme" v="consider natural=peak for the most distinct mountains in the district" />
		<tag k="name" v="Blåbergåsen" />
		<tag k="natural" v="hill" />
		<tag k="place" v="locality" />
		<tag k="ssr:stedsnr" v="88168" />
	</node>
	<node lat="59.8196111140371" lon="9.989583341745101" id="-14136">
		<tag k="name" v="Brenna" />
		<tag k="natural" v="hill" />
		<tag k="place" v="locality" />
		<tag k="ssr:stedsnr" v="125239" />
	</node>
	<node lat="59.86305555827534" lon="9.998630563061157" id="-14137">
		<tag k="fixme" v="consider natural=peak for the most distinct mountains in the district" />
		<tag k="name" v="Dypingskollen" />
		<tag k="natural" v="hill" />
		<tag k="place" v="locality" />
		<tag k="ssr:stedsnr" v="125296" />
	</node>
	<node lat="59.81633889059329" lon="9.839661104291958" id="-14144">
		<tag k="fixme" v="consider natural=peak for the most distinct mountains in the district" />
		<tag k="name" v="Slottåsen" />
		<tag k="natural" v="hill" />
		<tag k="place" v="locality" />
		<tag k="ssr:stedsnr" v="125537" />
	</node>
	<node lat="59.835811114852724" lon="9.816211110193976" id="-14148">
		<tag k="fixme" v="consider natural=peak for the most distinct mountains in the district" />
		<tag k="name" v="Salsåsen" />
		<tag k="natural" v="hill" />
		<tag k="place" v="locality" />
		<tag k="ssr:stedsnr" v="125717" />
	</node>
	<node lat="59.833372221312864" lon="9.883672227358849" id="-14149">
		<tag k="alt_name" v="Ullelandsåsen" />
		<tag k="fixme" v="consider natural=peak for the most distinct mountains in the district" />
		<tag k="name" v="Ullandåsen" />
		<tag k="natural" v="hill" />
		<tag k="place" v="locality" />
		<tag k="ssr:stedsnr" v="125719" />
	</node>
	<node lat="59.85427222246087" lon="9.870983331350649" id="-14157">
		<tag k="fixme" v="consider natural=peak for the most distinct mountains in the district" />
		<tag k="name" v="Lobbenåsen" />
		<tag k="natural" v="hill" />
		<tag k="place" v="locality" />
		<tag k="ssr:stedsnr" v="125739" />
	</node>
	<node lat="59.777597225269936" lon="9.950988885987702" id="-14159">
		<tag k="fixme" v="consider natural=peak for the most distinct mountains in the district" />
		<tag k="name" v="Klommesteinfjellet" />
		<tag k="natural" v="hill" />
		<tag k="place" v="locality" />
		<tag k="ssr:stedsnr" v="144722" />
	</node>
	<node lat="59.627936114360416" lon="9.910005564416663" id="-14164">
		<tag k="name" v="Stevningskastet" />
		<tag k="natural" v="ridge" />
		<tag k="place" v="locality" />
		<tag k="ssr:stedsnr" v="145887" />
	</node>
	<node lat="59.884413896086485" lon="9.719578647152279" id="-14167">
		<tag k="fixme" v="consider natural=peak for the most distinct mountains in the district" />
		<tag k="name" v="Kaståsen" />
		<tag k="natural" v="hill" />
		<tag k="place" v="locality" />
		<tag k="ssr:stedsnr" v="146346" />
	</node>
	<node lat="59.88322894411859" lon="9.699078903776002" id="-14168">
		<tag k="name" v="Gampedalen" />
		<tag k="natural" v="valley" />
		<tag k="place" v="locality" />
		<tag k="ssr:stedsnr" v="146354" />
	</node>
	<node lat="59.89126111438977" lon="9.755797220313884" id="-14169">
		<tag k="name" v="Kinnesmoen" />
		<tag k="place" v="locality" />
		<tag k="ssr:stedsnr" v="146439" />
	</node>
	<node lat="59.84394722168103" lon="9.82813055275125" id="-14171">
		<tag k="name" v="Reiersåsen" />
		<tag k="natural" v="ridge" />
		<tag k="place" v="locality" />
		<tag k="ssr:stedsnr" v="146653" />
	</node>
	<node lat="59.79576388961353" lon="9.751633328867296" id="-14172">
		<tag k="name" v="Askedalen" />
		<tag k="natural" v="slope" />
		<tag k="place" v="locality" />
		<tag k="ssr:stedsnr" v="147828" />
	</node>
	<node lat="59.82958332905246" lon="9.785347213389509" id="-14181">
		<tag k="name" v="Trangdalen" />
		<tag k="natural" v="valley" />
		<tag k="place" v="locality" />
		<tag k="ssr:stedsnr" v="149613" />
	</node>
	<node lat="59.77429166676343" lon="9.735088881300284" id="-14201">
		<tag k="fixme" v="consider natural=peak for the most distinct mountains in the district" />
		<tag k="name" v="Svartskurdåsen" />
		<tag k="natural" v="hill" />
		<tag k="place" v="locality" />
		<tag k="ssr:stedsnr" v="185558" />
	</node>
	<node lat="59.83589166384772" lon="9.833605546822033" id="-14212">
		<tag k="fixme" v="consider natural=peak for the most distinct mountains in the district" />
		<tag k="name" v="Murfjellåsen" />
		<tag k="natural" v="hill" />
		<tag k="place" v="locality" />
		<tag k="ssr:stedsnr" v="186732" />
	</node>
	<node lat="59.66775833255137" lon="9.725472221114265" id="-14220">
		<tag k="fixme" v="consider natural=peak for the most distinct mountains in the district" />
		<tag k="name" v="Basserudåsen" />
		<tag k="natural" v="hill" />
		<tag k="place" v="locality" />
		<tag k="ssr:stedsnr" v="206459" />
	</node>
	<node lat="59.83276667061036" lon="9.82240278330599" id="-14227">
		<tag k="name" v="Grååsen" />
		<tag k="natural" v="ridge" />
		<tag k="place" v="locality" />
		<tag k="ssr:stedsnr" v="207645" />
	</node>
	<node lat="59.692091668750706" lon="9.941125006755977" id="-14240">
		<tag k="name" v="Brennerpasset" />
		<tag k="natural" v="valley" />
		<tag k="place" v="locality" />
		<tag k="ssr:stedsnr" v="210196" />
	</node>
	<node lat="59.67034721960546" lon="9.809938888927098" id="-14243">
		<tag k="name" v="Hestås" />
		<tag k="natural" v="hill" />
		<tag k="place" v="locality" />
		<tag k="ssr:stedsnr" v="210569" />
	</node>
	<node lat="59.70643333032262" lon="9.979322226916825" id="-14248">
		<tag k="fixme" v="consider natural=peak for the most distinct mountains in the district" />
		<tag k="name" v="Kyrfjell" />
		<tag k="natural" v="hill" />
		<tag k="place" v="locality" />
		<tag k="ssr:stedsnr" v="306265" />
	</node>
	<node lat="59.69881389033631" lon="9.937125008846536" id="-14249">
		<tag k="alt_name" v="Sarabokkfjell" />
		<tag k="fixme" v="consider natural=peak for the most distinct mountains in the district" />
		<tag k="name" v="Sarabakkfjell" />
		<tag k="natural" v="hill" />
		<tag k="place" v="locality" />
		<tag k="ssr:stedsnr" v="306571" />
	</node>
	<node lat="59.699241667164465" lon="9.960574992738179" id="-14250">
		<tag k="alt_name" v="Fjelltuva" />
		<tag k="fixme" v="consider natural=peak for the most distinct mountains in the district" />
		<tag k="name" v="Fjellstua" />
		<tag k="natural" v="hill" />
		<tag k="place" v="locality" />
		<tag k="ssr:stedsnr" v="306572" />
	</node>
	<node lat="59.68747500194946" lon="9.687608325374885" id="-14267">
		<tag k="fixme" v="consider natural=peak for the most distinct mountains in the district" />
		<tag k="name" v="Byggmesteråsen" />
		<tag k="natural" v="hill" />
		<tag k="place" v="locality" />
		<tag k="ssr:stedsnr" v="326873" />
	</node>
	<node lat="59.81027777734297" lon="9.981450005903806" id="-14273">
		<tag k="name" v="Torgervoll" />
		<tag k="natural" v="hill" />
		<tag k="place" v="locality" />
		<tag k="ssr:stedsnr" v="329490" />
	</node>
	<node lat="59.81201389201953" lon="9.987344449575563" id="-14274">
		<tag k="name" v="Brennbakk" />
		<tag k="natural" v="ridge" />
		<tag k="place" v="locality" />
		<tag k="ssr:stedsnr" v="329496" />
	</node>
	<node lat="59.85201389012293" lon="9.942108330855715" id="-14276">
		<tag k="name" v="Gruvebrenna" />
		<tag k="natural" v="valley" />
		<tag k="place" v="locality" />
		<tag k="ssr:stedsnr" v="329635" />
	</node>
	<node lat="59.83777499854132" lon="9.734786116343393" id="-14277">
		<tag k="name" v="Libergknerten" />
		<tag k="natural" v="hill" />
		<tag k="place" v="locality" />
		<tag k="ssr:stedsnr" v="329681" />
	</node>
	<node lat="59.84169444598325" lon="9.882758336903317" id="-14280">
		<tag k="name" v="Tollevhaugen" />
		<tag k="natural" v="hill" />
		<tag k="place" v="locality" />
		<tag k="ssr:stedsnr" v="330646" />
	</node>
	<node lat="59.83964722232509" lon="9.871499992207495" id="-14281">
		<tag k="name" v="Toppenhaug" />
		<tag k="natural" v="ridge" />
		<tag k="place" v="locality" />
		<tag k="ssr:stedsnr" v="330647" />
	</node>
	<node lat="59.68621111516666" lon="9.960508336141757" id="-14285">
		<tag k="name" v="Svarttjernhaugen" />
		<tag k="natural" v="hill" />
		<tag k="place" v="locality" />
		<tag k="ssr:stedsnr" v="331187" />
	</node>
	<node lat="59.65739999718001" lon="9.850275006636348" id="-14289">
		<tag k="name" v="Hvilestedåsen" />
		<tag k="natural" v="hill" />
		<tag k="place" v="locality" />
		<tag k="ssr:stedsnr" v="331993" />
	</node>
	<node lat="59.70765833079508" lon="9.94285833936875" id="-14296">
		<tag k="name" v="Krambudalen" />
		<tag k="natural" v="valley" />
		<tag k="place" v="locality" />
		<tag k="ssr:stedsnr" v="367599" />
	</node>
	<node lat="59.79932499658312" lon="9.963611102804755" id="-14306">
		<tag k="alt_name" v="Sæteråsen" />
		<tag k="fixme" v="consider natural=peak for the most distinct mountains in the district" />
		<tag k="name" v="Seteråsen" />
		<tag k="natural" v="hill" />
		<tag k="place" v="locality" />
		<tag k="ssr:stedsnr" v="368536" />
	</node>
	<node lat="59.84488055840161" lon="9.926363889620614" id="-14312">
		<tag k="name" v="Brennkollen" />
		<tag k="natural" v="hill" />
		<tag k="place" v="locality" />
		<tag k="ssr:stedsnr" v="368770" />
	</node>
	<node lat="59.66290833476616" lon="9.771177777256499" id="-14317">
		<tag k="name" v="Kreklingplassen" />
		<tag k="place" v="locality" />
		<tag k="ssr:stedsnr" v="388435" />
	</node>
	<node lat="59.627094443126296" lon="9.916283333948694" id="-14318">
		<tag k="name" v="Bjønnestillinga" />
		<tag k="natural" v="valley" />
		<tag k="place" v="locality" />
		<tag k="ssr:stedsnr" v="388872" />
	</node>
	<node lat="59.64287222348129" lon="9.899963885486335" id="-14319">
		<tag k="name" v="Høymyrfjell" />
		<tag k="natural" v="valley" />
		<tag k="place" v="locality" />
		<tag k="ssr:stedsnr" v="388888" />
	</node>
	<node lat="59.862463884719865" lon="9.953036102569298" id="-14326">
		<tag k="name" v="Fjerdingstadkollen" />
		<tag k="natural" v="hill" />
		<tag k="place" v="locality" />
		<tag k="ssr:stedsnr" v="389673" />
	</node>
	<node lat="59.718286111467265" lon="9.697188896552266" id="-14327">
		<tag k="name" v="Lurdalen" />
		<tag k="natural" v="valley" />
		<tag k="place" v="locality" />
		<tag k="ssr:stedsnr" v="390020" />
	</node>
	<node lat="59.69373332906636" lon="9.90820000810867" id="-14338">
		<tag k="name" v="Hamrefjellet" />
		<tag k="natural" v="ridge" />
		<tag k="place" v="locality" />
		<tag k="ssr:stedsnr" v="391726" />
	</node>
	<node lat="59.82068055144576" lon="9.852519444078062" id="-14346">
		<tag k="fixme" v="consider natural=peak for the most distinct mountains in the district" />
		<tag k="name" v="Vindskallåsen" />
		<tag k="natural" v="hill" />
		<tag k="place" v="locality" />
		<tag k="ssr:stedsnr" v="428491" />
	</node>
	<node lat="59.81301111046376" lon="9.742899999623534" id="-14348">
		<tag k="fixme" v="consider natural=peak for the most distinct mountains in the district" />
		<tag k="name" v="Hølbekkfjellet" />
		<tag k="natural" v="hill" />
		<tag k="place" v="locality" />
		<tag k="ssr:stedsnr" v="428500" />
	</node>
	<node lat="59.70847500061064" lon="9.881338882102556" id="-14361">
		<tag k="fixme" v="consider natural=peak for the most distinct mountains in the district" />
		<tag k="name" v="Brekkeåsen" />
		<tag k="natural" v="hill" />
		<tag k="place" v="locality" />
		<tag k="ssr:stedsnr" v="428588" />
	</node>
	<node lat="59.709236112891325" lon="9.939197221525216" id="-14362">
		<tag k="fixme" v="consider natural=peak for the most distinct mountains in the district" />
		<tag k="name" v="Høgåsen" />
		<tag k="natural" v="hill" />
		<tag k="place" v="locality" />
		<tag k="ssr:stedsnr" v="428589" />
	</node>
	<node lat="59.82877777826282" lon="9.727305555543282" id="-14368">
		<tag k="fixme" v="consider natural=peak for the most distinct mountains in the district" />
		<tag k="name" v="Holtefjell" />
		<tag k="natural" v="hill" />
		<tag k="place" v="locality" />
		<tag k="ssr:stedsnr" v="429713" />
	</node>
	<node lat="59.78094166649564" lon="9.92521388089605" id="-14376">
		<tag k="name" v="Lerberghaugen" />
		<tag k="natural" v="hill" />
		<tag k="place" v="locality" />
		<tag k="ssr:stedsnr" v="508733" />
	</node>
	<node lat="59.84419444006539" lon="9.946519450108044" id="-14390">
		<tag k="fixme" v="consider natural=peak for the most distinct mountains in the district" />
		<tag k="name" v="Renningsåsen" />
		<tag k="natural" v="hill" />
		<tag k="place" v="locality" />
		<tag k="ssr:stedsnr" v="511569" />
	</node>
	<node lat="59.68270278008841" lon="9.718122216909359" id="-14393">
		<tag k="name" v="Smebakken" />
		<tag k="natural" v="slope" />
		<tag k="place" v="locality" />
		<tag k="ssr:stedsnr" v="511645" />
	</node>
	<node lat="59.665050000735505" lon="9.950733340919603" id="-14401">
		<tag k="name" v="Rennekastet" />
		<tag k="natural" v="slope" />
		<tag k="place" v="locality" />
		<tag k="ssr:stedsnr" v="513236" />
	</node>
	<node lat="59.7829972267385" lon="9.918880550397462" id="-14408">
		<tag k="name" v="Oseberg" />
		<tag k="natural" v="slope" />
		<tag k="place" v="locality" />
		<tag k="ssr:stedsnr" v="512857" />
	</node>
	<node lat="59.70823333379579" lon="9.969119440504876" id="-14409">
		<tag k="name" v="Hornfjellet" />
		<tag k="natural" v="ridge" />
		<tag k="place" v="locality" />
		<tag k="ssr:stedsnr" v="513528" />
	</node>
	<node lat="59.679197179411666" lon="9.853760234169656" id="-14410">
		<tag k="fixme" v="consider natural=peak for the most distinct mountains in the district" />
		<tag k="name" v="Kleivåsen" />
		<tag k="natural" v="hill" />
		<tag k="place" v="locality" />
		<tag k="ssr:stedsnr" v="513540" />
	</node>
	<node lat="59.690258336113146" lon="9.937438889945238" id="-14421">
		<tag k="fixme" v="consider natural=peak for the most distinct mountains in the district" />
		<tag k="name" v="Slettfjell" />
		<tag k="natural" v="hill" />
		<tag k="place" v="locality" />
		<tag k="ssr:stedsnr" v="549570" />
	</node>
	<node lat="59.78197499568385" lon="9.938875002412606" id="-14423">
		<tag k="fixme" v="consider natural=peak for the most distinct mountains in the district" />
		<tag k="name" v="Harastokkåsen" />
		<tag k="natural" v="hill" />
		<tag k="place" v="locality" />
		<tag k="ssr:stedsnr" v="549579" />
	</node>
	<node lat="59.77415832905898" lon="9.796380546909806" id="-14427">
		<tag k="fixme" v="consider natural=peak for the most distinct mountains in the district" />
		<tag k="name" v="Himsjøkollen" />
		<tag k="natural" v="hill" />
		<tag k="place" v="locality" />
		<tag k="ssr:stedsnr" v="549592" />
	</node>
	<node lat="59.71551666494133" lon="9.950747230048892" id="-14436">
		<tag k="fixme" v="consider natural=peak for the most distinct mountains in the district" />
		<tag k="name" v="Rasaråsen" />
		<tag k="natural" v="hill" />
		<tag k="place" v="locality" />
		<tag k="ssr:stedsnr" v="549630" />
	</node>
	<node lat="59.78761111095897" lon="9.973011103054768" id="-14438">
		<tag k="fixme" v="consider natural=peak for the most distinct mountains in the district" />
		<tag k="name" v="Røysåsen" />
		<tag k="natural" v="hill" />
		<tag k="place" v="locality" />
		<tag k="ssr:stedsnr" v="550150" />
	</node>
	<node lat="59.808780559872865" lon="9.776330555473107" id="-14443">
		<tag k="fixme" v="consider natural=peak for the most distinct mountains in the district" />
		<tag k="name" v="Flisebergåsen" />
		<tag k="natural" v="hill" />
		<tag k="place" v="locality" />
		<tag k="ssr:stedsnr" v="550526" />
	</node>
	<node lat="59.84144721924491" lon="9.739405551693704" id="-14447">
		<tag k="fixme" v="consider natural=peak for the most distinct mountains in the district" />
		<tag k="name" v="Holteseteråsen" />
		<tag k="natural" v="hill" />
		<tag k="place" v="locality" />
		<tag k="ssr:stedsnr" v="550728" />
	</node>
	<node lat="59.84404167036573" lon="9.821086106292881" id="-14448">
		<tag k="fixme" v="consider natural=peak for the most distinct mountains in the district" />
		<tag k="name" v="Middagsåsen" />
		<tag k="natural" v="hill" />
		<tag k="place" v="locality" />
		<tag k="ssr:stedsnr" v="550733" />
	</node>
	<node lat="59.82312777430417" lon="9.821505557939776" id="-14463">
		<tag k="name" v="Harstadfjellet" />
		<tag k="natural" v="ridge" />
		<tag k="place" v="locality" />
		<tag k="ssr:stedsnr" v="572688" />
	</node>
	<node lat="59.860136111008096" lon="9.826463881722905" id="-14466">
		<tag k="fixme" v="consider natural=peak for the most distinct mountains in the district" />
		<tag k="name" v="Slottåsen" />
		<tag k="natural" v="hill" />
		<tag k="place" v="locality" />
		<tag k="ssr:stedsnr" v="572977" />
	</node>
	<node lat="59.80498611131196" lon="9.826575006292932" id="-14467">
		<tag k="name" v="Storekleiv" />
		<tag k="natural" v="slope" />
		<tag k="place" v="locality" />
		<tag k="ssr:stedsnr" v="572937" />
	</node>
	<node lat="59.692258335052145" lon="9.946555562385326" id="-14468">
		<tag k="name" v="Vestknabben" />
		<tag k="natural" v="hill" />
		<tag k="place" v="locality" />
		<tag k="ssr:stedsnr" v="573169" />
	</node>
	<node lat="59.68673888595903" lon="9.81256388223209" id="-14469">
		<tag k="name" v="Ertekollen" />
		<tag k="natural" v="hill" />
		<tag k="place" v="locality" />
		<tag k="ssr:stedsnr" v="574550" />
	</node>
	<node lat="59.87270277488407" lon="9.761477784796954" id="-14479">
		<tag k="fixme" v="consider natural=peak for the most distinct mountains in the district" />
		<tag k="name" v="Røysåsen" />
		<tag k="natural" v="hill" />
		<tag k="place" v="locality" />
		<tag k="ssr:stedsnr" v="610649" />
	</node>
	<node lat="59.868072223016796" lon="9.787302782588105" id="-14480">
		<tag k="name" v="Vestbymoen" />
		<tag k="place" v="locality" />
		<tag k="ssr:stedsnr" v="610651" />
	</node>
	<node lat="59.660300001715626" lon="9.78918889755247" id="-14506">
		<tag k="name" v="Seterbakken" />
		<tag k="natural" v="slope" />
		<tag k="place" v="locality" />
		<tag k="ssr:stedsnr" v="630466" />
	</node>
	<node lat="59.84023611072226" lon="9.926813887356872" id="-14511">
		<tag k="fixme" v="consider natural=peak for the most distinct mountains in the district" />
		<tag k="name" v="Damåsen" />
		<tag k="natural" v="hill" />
		<tag k="place" v="locality" />
		<tag k="ssr:stedsnr" v="632586" />
	</node>
	<node lat="59.86653610726401" lon="9.982144449959254" id="-14515">
		<tag k="fixme" v="consider natural=peak for the most distinct mountains in the district" />
		<tag k="name" v="Grasåsen" />
		<tag k="natural" v="hill" />
		<tag k="place" v="locality" />
		<tag k="ssr:stedsnr" v="632654" />
	</node>
	<node lat="59.83855000166187" lon="9.767991661272465" id="-14523">
		<tag k="fixme" v="consider natural=peak for the most distinct mountains in the district" />
		<tag k="name" v="Langtjernåsen" />
		<tag k="natural" v="hill" />
		<tag k="place" v="locality" />
		<tag k="ssr:stedsnr" v="634653" />
	</node>
	<node lat="59.847283336735046" lon="9.771541669813065" id="-14524">
		<tag k="alt_name" v="Ristvedtseteråsen" />
		<tag k="fixme" v="consider natural=peak for the most distinct mountains in the district" />
		<tag k="name" v="Ristvetseteråsen" />
		<tag k="natural" v="hill" />
		<tag k="place" v="locality" />
		<tag k="ssr:stedsnr" v="634657" />
	</node>
	<node lat="59.7054194431815" lon="9.909619447452576" id="-14525">
		<tag k="name" v="Rogndalen" />
		<tag k="natural" v="valley" />
		<tag k="place" v="locality" />
		<tag k="ssr:stedsnr" v="634723" />
	</node>
	<node lat="59.66737221985851" lon="9.978483329278783" id="-14536">
		<tag k="fixme" v="consider natural=peak for the most distinct mountains in the district" />
		<tag k="name" v="Grasåsen" />
		<tag k="natural" v="hill" />
		<tag k="place" v="locality" />
		<tag k="ssr:stedsnr" v="731176" />
	</node>
	<node lat="59.827261112568024" lon="9.821980551466817" id="-14545">
		<tag k="fixme" v="consider natural=peak for the most distinct mountains in the district" />
		<tag k="name" v="Grååsen" />
		<tag k="natural" v="hill" />
		<tag k="place" v="locality" />
		<tag k="ssr:stedsnr" v="732730" />
	</node>
	<node lat="59.804002777380326" lon="9.814602771425992" id="-14548">
		<tag k="fixme" v="consider natural=peak for the most distinct mountains in the district" />
		<tag k="name" v="Hønerudåsen" />
		<tag k="natural" v="hill" />
		<tag k="place" v="locality" />
		<tag k="ssr:stedsnr" v="732595" />
	</node>
	<node lat="59.87753888932401" lon="9.801905550057366" id="-14551">
		<tag k="fixme" v="consider natural=peak for the most distinct mountains in the district" />
		<tag k="name" v="Sørliåsen" />
		<tag k="natural" v="hill" />
		<tag k="place" v="locality" />
		<tag k="ssr:stedsnr" v="732693" />
	</node>
	<node lat="59.84440555602583" lon="9.753480551253656" id="-14554">
		<tag k="name" v="Grågalten" />
		<tag k="natural" v="hill" />
		<tag k="place" v="locality" />
		<tag k="ssr:stedsnr" v="732754" />
	</node>
	<node lat="59.844683331058874" lon="9.769886112597657" id="-14555">
		<tag k="fixme" v="multiple name tags, choose one and add the other to alt_name; consider natural=peak for the most distinct mountains in the district" />
		<tag k="name" v="Stabbetjernåsen;Sæteråsen" />
		<tag k="natural" v="hill" />
		<tag k="place" v="locality" />
		<tag k="ssr:stedsnr" v="733460" />
	</node>
	<node lat="59.81041388512977" lon="9.913230551720511" id="-14562">
		<tag k="fixme" v="consider natural=peak for the most distinct mountains in the district" />
		<tag k="name" v="Kolbrekkåsen" />
		<tag k="natural" v="hill" />
		<tag k="place" v="locality" />
		<tag k="ssr:stedsnr" v="753579" />
	</node>
	<node lat="59.69687778095287" lon="9.933733341642146" id="-14566">
		<tag k="name" v="Djupedal" />
		<tag k="natural" v="valley" />
		<tag k="place" v="locality" />
		<tag k="ssr:stedsnr" v="755181" />
	</node>
	<node lat="59.851313888608296" lon="9.890663883987145" id="-14573">
		<tag k="fixme" v="consider natural=peak for the most distinct mountains in the district" />
		<tag k="name" v="Kopperudåsen" />
		<tag k="natural" v="hill" />
		<tag k="place" v="locality" />
		<tag k="ssr:stedsnr" v="754595" />
	</node>
	<node lat="59.87009722534275" lon="9.980530556762183" id="-14575">
		<tag k="fixme" v="consider natural=peak for the most distinct mountains in the district" />
		<tag k="name" v="Vollmyråsen" />
		<tag k="natural" v="hill" />
		<tag k="place" v="locality" />
		<tag k="ssr:stedsnr" v="754680" />
	</node>
	<node lat="59.838077778996144" lon="9.873288896215307" id="-14576">
		<tag k="name" v="Bakkebakken" />
		<tag k="natural" v="slope" />
		<tag k="place" v="locality" />
		<tag k="ssr:stedsnr" v="754682" />
	</node>
	<node lat="59.83958333012399" lon="9.728169443411439" id="-14578">
		<tag k="name" v="Øllestokken" />
		<tag k="natural" v="valley" />
		<tag k="place" v="locality" />
		<tag k="ssr:stedsnr" v="754747" />
	</node>
	<node lat="59.68251110865568" lon="9.921180555074157" id="-14588">
		<tag k="name" v="Tyttebæråsen" />
		<tag k="natural" v="hill" />
		<tag k="place" v="locality" />
		<tag k="ssr:stedsnr" v="755688" />
	</node>
	<node lat="59.834105556101264" lon="9.77138055783914" id="-14589">
		<tag k="name" v="Matdalen" />
		<tag k="natural" v="valley" />
		<tag k="place" v="locality" />
		<tag k="ssr:stedsnr" v="756638" />
	</node>
	<node lat="59.70170833079656" lon="9.916477771084786" id="-14590">
		<tag k="name" v="Trollåsen" />
		<tag k="natural" v="hill" />
		<tag k="place" v="locality" />
		<tag k="ssr:stedsnr" v="756715" />
	</node>
	<node lat="59.676930559523484" lon="9.845441663140562" id="-14607">
		<tag k="fixme" v="consider natural=peak for the most distinct mountains in the district" />
		<tag k="name" v="Bakstevalåsen" />
		<tag k="natural" v="hill" />
		<tag k="place" v="locality" />
		<tag k="ssr:stedsnr" v="792562" />
	</node>
	<node lat="59.65778333036517" lon="9.989197220640337" id="-14610">
		<tag k="name" v="Kjelleråsen" />
		<tag k="natural" v="hill" />
		<tag k="place" v="locality" />
		<tag k="ssr:stedsnr" v="792142" />
	</node>
	<node lat="59.8283361091006" lon="9.745125000230257" id="-14619">
		<tag k="fixme" v="consider natural=peak for the most distinct mountains in the district" />
		<tag k="name" v="Urdsdokka" />
		<tag k="natural" v="hill" />
		<tag k="place" v="locality" />
		<tag k="ssr:stedsnr" v="793739" />
	</node>
	<node lat="59.774580553323275" lon="9.963625003883495" id="-14627">
		<tag k="fixme" v="consider natural=peak for the most distinct mountains in the district" />
		<tag k="name" v="Blåfjell" />
		<tag k="natural" v="hill" />
		<tag k="place" v="locality" />
		<tag k="ssr:stedsnr" v="812752" />
	</node>
	<node lat="59.65247499842127" lon="9.794602785986175" id="-14628">
		<tag k="name" v="Petraborg" />
		<tag k="natural" v="hill" />
		<tag k="place" v="locality" />
		<tag k="ssr:stedsnr" v="813468" />
	</node>
	<node lat="59.588133333212674" lon="9.928969449446255" id="-14631">
		<tag k="name" v="Mjøvannsholene" />
		<tag k="natural" v="valley" />
		<tag k="place" v="locality" />
		<tag k="ssr:stedsnr" v="813764" />
	</node>
	<node lat="59.80222499856468" lon="9.93350832528484" id="-14634">
		<tag k="fixme" v="consider natural=peak for the most distinct mountains in the district" />
		<tag k="name" v="Svarttjernåsen" />
		<tag k="natural" v="hill" />
		<tag k="place" v="locality" />
		<tag k="ssr:stedsnr" v="814528" />
	</node>
	<node lat="59.819188888613624" lon="9.971538896754259" id="-14635">
		<tag k="name" v="Veslebrenna" />
		<tag k="natural" v="ridge" />
		<tag k="place" v="locality" />
		<tag k="ssr:stedsnr" v="814608" />
	</node>
	<node lat="59.819619445583285" lon="9.914097223743816" id="-14636">
		<tag k="name" v="Jernhatten" />
		<tag k="natural" v="hill" />
		<tag k="place" v="locality" />
		<tag k="ssr:stedsnr" v="814640" />
	</node>
	<node lat="59.736636110910105" lon="9.734730556270112" id="-14639">
		<tag k="name" v="Skjelbreddalen" />
		<tag k="natural" v="valley" />
		<tag k="place" v="locality" />
		<tag k="ssr:stedsnr" v="814892" />
	</node>
	<node lat="59.74075555788348" lon="9.784936106482874" id="-14642">
		<tag k="name" v="Bjørnekastet" />
		<tag k="natural" v="hill" />
		<tag k="place" v="locality" />
		<tag k="ssr:stedsnr" v="815116" />
	</node>
	<node lat="59.8226333327472" lon="9.841130552960175" id="-14647">
		<tag k="name" v="Hølaløkkene" />
		<tag k="natural" v="valley" />
		<tag k="place" v="locality" />
		<tag k="ssr:stedsnr" v="815649" />
	</node>
	<node lat="59.68372778224601" lon="9.952097214261077" id="-14650">
		<tag k="name" v="Puttåsen" />
		<tag k="natural" v="ridge" />
		<tag k="place" v="locality" />
		<tag k="ssr:stedsnr" v="816179" />
	</node>
	<node lat="59.68083333626929" lon="9.988924994915484" id="-14654">
		<tag k="name" v="Kutjernlia" />
		<tag k="natural" v="slope" />
		<tag k="place" v="locality" />
		<tag k="ssr:stedsnr" v="816165" />
	</node>
	<node lat="59.79224999689907" lon="9.927272216631062" id="-14671">
		<tag k="fixme" v="consider natural=peak for the most distinct mountains in the district" />
		<tag k="name" v="Krukekollen" />
		<tag k="natural" v="hill" />
		<tag k="place" v="locality" />
		<tag k="ssr:stedsnr" v="854493" />
	</node>
	<node lat="59.86053055869869" lon="9.758902783719444" id="-14672">
		<tag k="fixme" v="consider natural=peak for the most distinct mountains in the district" />
		<tag k="name" v="Vestbyvarden" />
		<tag k="natural" v="hill" />
		<tag k="place" v="locality" />
		<tag k="ssr:stedsnr" v="854616" />
	</node>
	<node lat="59.85276666279105" lon="9.77756944144131" id="-14674">
		<tag k="name" v="Bråkedalen" />
		<tag k="natural" v="valley" />
		<tag k="place" v="locality" />
		<tag k="ssr:stedsnr" v="854701" />
	</node>
	<node lat="59.70820277863596" lon="9.785900000232678" id="-14681">
		<tag k="name" v="Flårud" />
		<tag k="place" v="locality" />
		<tag k="ssr:stedsnr" v="874596" />
	</node>
	<node lat="59.6335416692986" lon="9.90042221419902" id="-14682">
		<tag k="name" v="Kavlebakk" />
		<tag k="natural" v="slope" />
		<tag k="place" v="locality" />
		<tag k="ssr:stedsnr" v="874884" />
	</node>
	<node lat="59.87102221999295" lon="9.741405558400906" id="-14694">
		<tag k="name" v="Håreseterkollen" />
		<tag k="natural" v="hill" />
		<tag k="place" v="locality" />
		<tag k="ssr:stedsnr" v="875380" />
	</node>
	<node lat="59.865752778842044" lon="9.741399993945787" id="-14696">
		<tag k="fixme" v="consider natural=peak for the most distinct mountains in the district" />
		<tag k="name" v="Lauvåsen" />
		<tag k="natural" v="hill" />
		<tag k="place" v="locality" />
		<tag k="ssr:stedsnr" v="875385" />
	</node>
	<node lat="59.839869445215925" lon="9.832022213796641" id="-14702">
		<tag k="name" v="Gråbergåsen" />
		<tag k="natural" v="ridge" />
		<tag k="place" v="locality" />
		<tag k="ssr:stedsnr" v="875647" />
	</node>
	<node lat="59.5934499977172" lon="9.923497217744746" id="-14704">
		<tag k="name" v="Mjøvannsholene" />
		<tag k="natural" v="hill" />
		<tag k="place" v="locality" />
		<tag k="ssr:stedsnr" v="876547" />
	</node>
	<node lat="59.84102221815619" lon="9.908744452227973" id="-14708">
		<tag k="name" v="Knivedalen" />
		<tag k="natural" v="valley" />
		<tag k="place" v="locality" />
		<tag k="ssr:stedsnr" v="876581" />
	</node>
	<node lat="59.72921110900355" lon="9.713600002815955" id="-14710">
		<tag k="name" v="Kjøytedalen" />
		<tag k="natural" v="valley" />
		<tag k="place" v="locality" />
		<tag k="ssr:stedsnr" v="876878" />
	</node>
	<node lat="59.69284444887493" lon="9.971758332500226" id="-14715">
		<tag k="name" v="Brynseterlia" />
		<tag k="natural" v="slope" />
		<tag k="place" v="locality" />
		<tag k="ssr:stedsnr" v="877188" />
	</node>
	<node lat="59.73172778211443" lon="9.81201666797436" id="-14718">
		<tag k="name" v="Hallingen" />
		<tag k="natural" v="slope" />
		<tag k="place" v="locality" />
		<tag k="ssr:stedsnr" v="877479" />
	</node>
	<node lat="59.73290833775166" lon="9.818155560101964" id="-14719">
		<tag k="name" v="Djupedal" />
		<tag k="natural" v="valley" />
		<tag k="place" v="locality" />
		<tag k="ssr:stedsnr" v="877485" />
	</node>
	<node lat="59.71670000338783" lon="9.953699997694535" id="-14721">
		<tag k="name" v="Røverberget" />
		<tag k="natural" v="hill" />
		<tag k="place" v="locality" />
		<tag k="ssr:stedsnr" v="877494" />
	</node>
	<node lat="59.67671944452182" lon="9.825402780019367" id="-14723">
		<tag k="name" v="Bollerudmoen" />
		<tag k="place" v="locality" />
		<tag k="ssr:stedsnr" v="877594" />
	</node>
	<node lat="59.64893055563663" lon="9.828502782035967" id="-14728">
		<tag k="name" v="Råtevannslia" />
		<tag k="natural" v="slope" />
		<tag k="place" v="locality" />
		<tag k="ssr:stedsnr" v="878986" />
	</node>
	<node lat="59.85534444743022" lon="9.982519445862074" id="-14730">
		<tag k="name" v="Borkhusbakkene" />
		<tag k="natural" v="slope" />
		<tag k="place" v="locality" />
		<tag k="ssr:stedsnr" v="936651" />
	</node>
	<node lat="59.82764166482999" lon="9.877905550869093" id="-14732">
		<tag k="fixme" v="consider natural=peak for the most distinct mountains in the district" />
		<tag k="name" v="Skottveien" />
		<tag k="natural" v="hill" />
		<tag k="place" v="locality" />
		<tag k="ssr:stedsnr" v="936616" />
	</node>
	<node lat="59.854974999485925" lon="9.716986106369573" id="-14733">
		<tag k="fixme" v="consider natural=peak for the most distinct mountains in the district" />
		<tag k="name" v="Himre Svartåsen" />
		<tag k="natural" v="hill" />
		<tag k="place" v="locality" />
		<tag k="ssr:stedsnr" v="936363" />
	</node>
	<node lat="59.84915833335785" lon="9.944974992478686" id="-14738">
		<tag k="name" v="Flaberga" />
		<tag k="natural" v="hill" />
		<tag k="place" v="locality" />
		<tag k="ssr:stedsnr" v="936581" />
	</node>
	<node lat="59.72612499577963" lon="9.722011112813359" id="-14739">
		<tag k="name" v="Stærtebakkhøgda" />
		<tag k="natural" v="hill" />
		<tag k="place" v="locality" />
		<tag k="ssr:stedsnr" v="936874" />
	</node>
	<node lat="59.76329999648388" lon="9.732947227378537" id="-14743">
		<tag k="fixme" v="consider natural=peak for the most distinct mountains in the district" />
		<tag k="name" v="Frågåttåsen" />
		<tag k="natural" v="hill" />
		<tag k="place" v="locality" />
		<tag k="ssr:stedsnr" v="937431" />
	</node>
	<node lat="59.68528888547337" lon="9.964113894948545" id="-14746">
		<tag k="name" v="Lågtjernberget" />
		<tag k="natural" v="hill" />
		<tag k="place" v="locality" />
		<tag k="ssr:stedsnr" v="938162" />
	</node>
	<node lat="59.671688893323335" lon="9.989461107225214" id="-14747">
		<tag k="name" v="Bjelkedalen" />
		<tag k="natural" v="valley" />
		<tag k="place" v="locality" />
		<tag k="ssr:stedsnr" v="938243" />
	</node>
	<node lat="59.67743611456265" lon="9.838322224416812" id="-14750">
		<tag k="name" v="Foterudkippen" />
		<tag k="natural" v="slope" />
		<tag k="place" v="locality" />
		<tag k="ssr:stedsnr" v="938552" />
	</node>
	<node lat="59.803082950331" lon="9.91344553192099" id="-14753">
		<tag k="fixme" v="consider natural=peak for the most distinct mountains in the district" />
		<tag k="name" v="Skibrekkåsen" />
		<tag k="natural" v="hill" />
		<tag k="place" v="locality" />
		<tag k="ssr:stedsnr" v="979573" />
	</node>
</osm>
