<?xml version="1.0" encoding="UTF-8"?>
<osm version="0.6" generator="osmapis">
	<node lat="78.4103472227006" lon="11.72827221717604" id="-11877">
		<tag k="name" v="Prins Karls Forland" />
		<tag k="place" v="island" />
		<tag k="ssr:date" v="2019-01-06" />
		<tag k="ssr:gruppe" v="kystkontur" />
		<tag k="ssr:hovedgruppe" v="sjø" />
		<tag k="ssr:stedsnr" v="40978" />
		<tag k="ssr:type" v="øyISjø" />
	</node>
	<node lat="80.19219436765209" lon="32.638690157597914" id="-11878">
		<tag k="name" v="Kvitøy-jøkulen" />
		<tag k="natural" v="glacier" />
		<tag k="ssr:date" v="2019-01-06" />
		<tag k="ssr:gruppe" v="isOgPermafrost" />
		<tag k="ssr:hovedgruppe" v="markslag" />
		<tag k="ssr:stedsnr" v="240396" />
		<tag k="ssr:type" v="isbre" />
	</node>
	<node lat="79.9616527724207" lon="27.065669528177025" id="-11879">
		<tag k="name" v="Sørmarka" />
		<tag k="natural" v="slope" />
		<tag k="place" v="locality" />
		<tag k="ssr:date" v="2019-01-06" />
		<tag k="ssr:gruppe" v="skråninger" />
		<tag k="ssr:hovedgruppe" v="terreng" />
		<tag k="ssr:stedsnr" v="58371" />
		<tag k="ssr:type" v="li" />
	</node>
	<node lat="80.06344166062344" lon="27.219550106396884" id="-11880">
		<tag k="name" v="Kapp Laura" />
		<tag k="natural" v="cape" />
		<tag k="ssr:date" v="2019-01-06" />
		<tag k="ssr:gruppe" v="kystkontur" />
		<tag k="ssr:hovedgruppe" v="sjø" />
		<tag k="ssr:stedsnr" v="58376" />
		<tag k="ssr:type" v="nesISjø" />
	</node>
	<node lat="78.92698055395509" lon="11.923588903218569" id="-11881">
		<tag k="building" v="yes" />
		<tag k="name" v="Ny-Ålesund" />
		<tag k="ssr:date" v="2019-01-06" />
		<tag k="ssr:gruppe" v="institusjoner" />
		<tag k="ssr:hovedgruppe" v="bebyggelse" />
		<tag k="ssr:stedsnr" v="241712" />
		<tag k="ssr:type" v="forskningsstasjon" />
	</node>
	<node lat="79.79407499849395" lon="27.150683431260525" id="-11882">
		<tag k="name" v="Einstøingen" />
		<tag k="place" v="island" />
		<tag k="ssr:date" v="2019-01-06" />
		<tag k="ssr:gruppe" v="kystkontur" />
		<tag k="ssr:hovedgruppe" v="sjø" />
		<tag k="ssr:stedsnr" v="176304" />
		<tag k="ssr:type" v="øyISjø" />
	</node>
	<node lat="79.92944721397522" lon="27.243219536044982" id="-11883">
		<tag k="name" v="Frostøyane" />
		<tag k="place" v="islet" />
		<tag k="ssr:date" v="2019-01-06" />
		<tag k="ssr:gruppe" v="kystkontur" />
		<tag k="ssr:hovedgruppe" v="sjø" />
		<tag k="ssr:stedsnr" v="180356" />
		<tag k="ssr:type" v="holmegruppeISjø" />
	</node>
	<node lat="79.7007055534711" lon="26.678466749049626" id="-11884">
		<tag k="name" v="Isispynten" />
		<tag k="natural" v="cape" />
		<tag k="ssr:date" v="2019-01-06" />
		<tag k="ssr:gruppe" v="kystkontur" />
		<tag k="ssr:hovedgruppe" v="sjø" />
		<tag k="ssr:stedsnr" v="237333" />
		<tag k="ssr:type" v="nesISjø" />
	</node>
	<node lat="79.92261666317489" lon="27.5833418170177" id="-11885">
		<tag k="name" v="Håkjerringa" />
		<tag k="place" v="island" />
		<tag k="ssr:date" v="2019-01-06" />
		<tag k="ssr:gruppe" v="kystkontur" />
		<tag k="ssr:hovedgruppe" v="sjø" />
		<tag k="ssr:stedsnr" v="240377" />
		<tag k="ssr:type" v="øyISjø" />
	</node>
	<node lat="80.1410554442608" lon="33.38103225420043" id="-11886">
		<tag k="name" v="Hornodden" />
		<tag k="natural" v="cape" />
		<tag k="ssr:date" v="2019-01-06" />
		<tag k="ssr:gruppe" v="kystkontur" />
		<tag k="ssr:hovedgruppe" v="sjø" />
		<tag k="ssr:stedsnr" v="285902" />
		<tag k="ssr:type" v="nesISjø" />
	</node>
	<node lat="80.10283606208208" lon="31.47207858995067" id="-11887">
		<tag k="name" v="Satellitthøgda" />
		<tag k="natural" v="glacier" />
		<tag k="ssr:date" v="2019-01-06" />
		<tag k="ssr:gruppe" v="isOgPermafrost" />
		<tag k="ssr:hovedgruppe" v="markslag" />
		<tag k="ssr:stedsnr" v="301374" />
		<tag k="ssr:type" v="isbre" />
	</node>
	<node lat="76.96804444604892" lon="15.598969425968903" id="-11888">
		<tag k="name" v="Hornsund" />
		<tag k="natural" v="strait" />
		<tag k="ssr:date" v="2019-01-06" />
		<tag k="ssr:gruppe" v="kystkontur" />
		<tag k="ssr:hovedgruppe" v="sjø" />
		<tag k="ssr:stedsnr" v="465996" />
		<tag k="ssr:type" v="sundISjø" />
	</node>
	<node lat="76.54957499394409" lon="25.107355562534778" id="-11889">
		<tag k="name" v="Hopen" />
		<tag k="place" v="island" />
		<tag k="ssr:date" v="2019-01-06" />
		<tag k="ssr:gruppe" v="kystkontur" />
		<tag k="ssr:hovedgruppe" v="sjø" />
		<tag k="ssr:stedsnr" v="465999" />
		<tag k="ssr:type" v="øyISjø" />
	</node>
	<node lat="78.65348889063578" lon="16.33693610105058" id="-11890">
		<tag k="fixme" v="consider place=suburb, village or hamlet" />
		<tag k="name" v="Pyramiden" />
		<tag k="place" v="quarter" />
		<tag k="ssr:date" v="2019-01-06" />
		<tag k="ssr:gruppe" v="bebyggelsesområder" />
		<tag k="ssr:hovedgruppe" v="bebyggelse" />
		<tag k="ssr:stedsnr" v="466943" />
		<tag k="ssr:type" v="tettbebyggelse" />
	</node>
	<node lat="79.70219166651358" lon="26.66243896958748" id="-11891">
		<tag k="name" v="Isispollen" />
		<tag k="natural" v="bay" />
		<tag k="ssr:date" v="2019-01-06" />
		<tag k="ssr:gruppe" v="kystkontur" />
		<tag k="ssr:hovedgruppe" v="sjø" />
		<tag k="ssr:stedsnr" v="358317" />
		<tag k="ssr:type" v="vikISjø" />
	</node>
	<node lat="79.70086110764431" lon="26.653777882726686" id="-11892">
		<tag k="name" v="Isisøyane" />
		<tag k="natural" v="cape" />
		<tag k="ssr:date" v="2019-01-06" />
		<tag k="ssr:gruppe" v="kystkontur" />
		<tag k="ssr:hovedgruppe" v="sjø" />
		<tag k="ssr:stedsnr" v="419331" />
		<tag k="ssr:type" v="nesISjø" />
	</node>
	<node lat="78.4249694437716" lon="13.518691681734031" id="-11893">
		<tag k="name" v="Oscar II Land" />
		<tag k="place" v="island" />
		<tag k="ssr:date" v="2019-01-06" />
		<tag k="ssr:gruppe" v="kystkontur" />
		<tag k="ssr:hovedgruppe" v="sjø" />
		<tag k="ssr:stedsnr" v="465978" />
		<tag k="ssr:type" v="øyISjø" />
	</node>
	<node lat="77.63751666247323" lon="14.425805550786354" id="-11894">
		<tag k="name" v="Bellsund" />
		<tag k="natural" v="strait" />
		<tag k="ssr:date" v="2019-01-06" />
		<tag k="ssr:gruppe" v="kystkontur" />
		<tag k="ssr:hovedgruppe" v="sjø" />
		<tag k="ssr:stedsnr" v="465995" />
		<tag k="ssr:type" v="sundISjø" />
	</node>
	<node lat="80.11146387765409" lon="27.986744610992854" id="-11895">
		<tag k="name" v="Jøkulrabbane" />
		<tag k="natural" v="ridge" />
		<tag k="place" v="locality" />
		<tag k="ssr:date" v="2019-01-06" />
		<tag k="ssr:gruppe" v="høyder" />
		<tag k="ssr:hovedgruppe" v="terreng" />
		<tag k="ssr:stedsnr" v="483365" />
		<tag k="ssr:type" v="rygg" />
	</node>
	<node lat="80.07802776643028" lon="28.041700165920652" id="-11896">
		<tag k="name" v="Storøyjøkulen" />
		<tag k="natural" v="glacier" />
		<tag k="ssr:date" v="2019-01-06" />
		<tag k="ssr:gruppe" v="isOgPermafrost" />
		<tag k="ssr:hovedgruppe" v="markslag" />
		<tag k="ssr:stedsnr" v="483368" />
		<tag k="ssr:type" v="isbre" />
	</node>
	<node lat="80.15433332789796" lon="26.793675091028533" id="-11897">
		<tag k="name" v="Kapp Leigh Smith" />
		<tag k="natural" v="cape" />
		<tag k="ssr:date" v="2019-01-06" />
		<tag k="ssr:gruppe" v="kystkontur" />
		<tag k="ssr:hovedgruppe" v="sjø" />
		<tag k="ssr:stedsnr" v="483373" />
		<tag k="ssr:type" v="nesISjø" />
	</node>
	<node lat="79.6913249905361" lon="26.63936953908707" id="-11898">
		<tag k="fixme" v="consider seamark:type=rock or natural=shoal" />
		<tag k="name" v="Isflua" />
		<tag k="place" v="islet" />
		<tag k="ssr:date" v="2019-01-06" />
		<tag k="ssr:gruppe" v="grunnerISjø" />
		<tag k="ssr:hovedgruppe" v="sjø" />
		<tag k="ssr:stedsnr" v="540327" />
		<tag k="ssr:type" v="skjærISjø" />
	</node>
	<node lat="79.70758055216452" lon="26.62460284481957" id="-11899">
		<tag k="name" v="Binnevågen" />
		<tag k="natural" v="bay" />
		<tag k="ssr:date" v="2019-01-06" />
		<tag k="ssr:gruppe" v="kystkontur" />
		<tag k="ssr:hovedgruppe" v="sjø" />
		<tag k="ssr:stedsnr" v="540329" />
		<tag k="ssr:type" v="vågISjø" />
	</node>
	<node lat="80.0239249431998" lon="31.628225866167107" id="-11900">
		<tag k="name" v="Lundquistskjera" />
		<tag k="place" v="islet" />
		<tag k="ssr:date" v="2019-01-06" />
		<tag k="ssr:gruppe" v="kystkontur" />
		<tag k="ssr:hovedgruppe" v="sjø" />
		<tag k="ssr:stedsnr" v="544375" />
		<tag k="ssr:type" v="holmegruppeISjø" />
	</node>
	<node lat="77.90029444173989" lon="16.720063886624004" id="-11901">
		<tag k="fixme" v="consider place=suburb, village or hamlet" />
		<tag k="name" v="Sveagruva" />
		<tag k="place" v="quarter" />
		<tag k="ssr:date" v="2019-01-06" />
		<tag k="ssr:gruppe" v="bebyggelsesområder" />
		<tag k="ssr:hovedgruppe" v="bebyggelse" />
		<tag k="ssr:stedsnr" v="647943" />
		<tag k="ssr:type" v="tettbebyggelse" />
	</node>
	<node lat="76.59433889313188" lon="16.312941670480264" id="-11902">
		<tag k="name" v="Sørkapp" />
		<tag k="natural" v="cape" />
		<tag k="ssr:date" v="2019-01-06" />
		<tag k="ssr:gruppe" v="kystkontur" />
		<tag k="ssr:hovedgruppe" v="sjø" />
		<tag k="ssr:stedsnr" v="647998" />
		<tag k="ssr:type" v="nesISjø" />
	</node>
	<node lat="78.2548666685159" lon="14.673338895770778" id="-11903">
		<tag k="bay" v="fjord" />
		<tag k="name" v="Isfjorden" />
		<tag k="natural" v="bay" />
		<tag k="ssr:date" v="2019-01-06" />
		<tag k="ssr:gruppe" v="farvann" />
		<tag k="ssr:hovedgruppe" v="sjø" />
		<tag k="ssr:stedsnr" v="708998" />
		<tag k="ssr:type" v="fjord" />
	</node>
	<node lat="80.04873054833385" lon="27.14631400724299" id="-11904">
		<tag k="name" v="Nordmarka" />
		<tag k="natural" v="ridge" />
		<tag k="place" v="locality" />
		<tag k="ssr:date" v="2019-01-06" />
		<tag k="ssr:gruppe" v="høyder" />
		<tag k="ssr:hovedgruppe" v="terreng" />
		<tag k="ssr:stedsnr" v="665403" />
		<tag k="ssr:type" v="rygg" />
	</node>
	<node lat="80.09703054787227" lon="28.07574463928582" id="-11906">
		<tag k="name" v="Storøya" />
		<tag k="natural" v="beach" />
		<tag k="ssr:date" v="2019-01-06" />
		<tag k="ssr:gruppe" v="kystkontur" />
		<tag k="ssr:hovedgruppe" v="sjø" />
		<tag k="ssr:stedsnr" v="726404" />
		<tag k="ssr:type" v="strandISjø" />
	</node>
	<node lat="79.99910832924618" lon="27.132139002478443" id="-11907">
		<tag k="name" v="Worsleybreen" />
		<tag k="natural" v="glacier" />
		<tag k="ssr:date" v="2019-01-06" />
		<tag k="ssr:gruppe" v="isOgPermafrost" />
		<tag k="ssr:hovedgruppe" v="markslag" />
		<tag k="ssr:stedsnr" v="726379" />
		<tag k="ssr:type" v="isbre" />
	</node>
	<node lat="80.09156388039312" lon="27.529936266831815" id="-11908">
		<tag k="name" v="Storøysundet" />
		<tag k="natural" v="strait" />
		<tag k="ssr:date" v="2019-01-06" />
		<tag k="ssr:gruppe" v="kystkontur" />
		<tag k="ssr:hovedgruppe" v="sjø" />
		<tag k="ssr:stedsnr" v="726380" />
		<tag k="ssr:type" v="sundISjø" />
	</node>
	<node lat="80.06146939752118" lon="31.334020207385844" id="-11909">
		<tag k="name" v="Lancestabben" />
		<tag k="natural" v="shoal" />
		<tag k="place" v="locality" />
		<tag k="ssr:date" v="2019-01-06" />
		<tag k="ssr:gruppe" v="grunnerISjø" />
		<tag k="ssr:hovedgruppe" v="sjø" />
		<tag k="ssr:stedsnr" v="908417" />
		<tag k="ssr:type" v="grunneISjø" />
	</node>
	<node lat="79.7756861081424" lon="26.981380633735174" id="-11910">
		<tag k="name" v="Hvalrosskjera" />
		<tag k="place" v="island" />
		<tag k="ssr:date" v="2019-01-06" />
		<tag k="ssr:gruppe" v="kystkontur" />
		<tag k="ssr:hovedgruppe" v="sjø" />
		<tag k="ssr:stedsnr" v="783308" />
		<tag k="ssr:type" v="øygruppeISjø" />
	</node>
	<node lat="80.13716387946313" lon="28.03754740956979" id="-11911">
		<tag k="name" v="Polarstarodden" />
		<tag k="natural" v="cape" />
		<tag k="ssr:date" v="2019-01-06" />
		<tag k="ssr:gruppe" v="kystkontur" />
		<tag k="ssr:hovedgruppe" v="sjø" />
		<tag k="ssr:stedsnr" v="786348" />
		<tag k="ssr:type" v="nesISjø" />
	</node>
	<node lat="79.95147777419488" lon="27.314402887928125" id="-11912">
		<tag k="name" v="Rimsteinane" />
		<tag k="place" v="islet" />
		<tag k="ssr:date" v="2019-01-06" />
		<tag k="ssr:gruppe" v="kystkontur" />
		<tag k="ssr:hovedgruppe" v="sjø" />
		<tag k="ssr:stedsnr" v="786361" />
		<tag k="ssr:type" v="holmegruppeISjø" />
	</node>
	<node lat="78.06510277446543" lon="14.209727782893658" id="-11913">
		<tag k="name" v="Barentsburg" />
		<tag k="place" v="town" />
		<tag k="ssr:date" v="2019-01-06" />
		<tag k="ssr:gruppe" v="bebyggelsesområder" />
		<tag k="ssr:hovedgruppe" v="bebyggelse" />
		<tag k="ssr:stedsnr" v="830997" />
		<tag k="ssr:type" v="by" />
	</node>
	<node lat="78.06396667130201" lon="13.606813878580859" id="-11914">
		<tag k="name" v="Kapp Linne" />
		<tag k="natural" v="cape" />
		<tag k="ssr:date" v="2019-01-06" />
		<tag k="ssr:gruppe" v="kystkontur" />
		<tag k="ssr:hovedgruppe" v="sjø" />
		<tag k="ssr:stedsnr" v="830999" />
		<tag k="ssr:type" v="nesISjø" />
	</node>
	<node lat="79.9240638766353" lon="27.551411255483625" id="-11915">
		<tag k="name" v="Kaldøyane" />
		<tag k="place" v="islet" />
		<tag k="ssr:date" v="2019-01-06" />
		<tag k="ssr:gruppe" v="kystkontur" />
		<tag k="ssr:hovedgruppe" v="sjø" />
		<tag k="ssr:stedsnr" v="847372" />
		<tag k="ssr:type" v="holmegruppeISjø" />
	</node>
	<node lat="79.95789722123618" lon="27.301866771647916" id="-11916">
		<tag k="name" v="Snøholmen" />
		<tag k="place" v="islet" />
		<tag k="ssr:date" v="2019-01-06" />
		<tag k="ssr:gruppe" v="kystkontur" />
		<tag k="ssr:hovedgruppe" v="sjø" />
		<tag k="ssr:stedsnr" v="847373" />
		<tag k="ssr:type" v="holmeISjø" />
	</node>
	<node lat="77.81025832936854" lon="25.07980559524668" id="-11917">
		<tag k="name" v="Ryke Yseøyane" />
		<tag k="place" v="island" />
		<tag k="ssr:date" v="2019-01-06" />
		<tag k="ssr:gruppe" v="kystkontur" />
		<tag k="ssr:hovedgruppe" v="sjø" />
		<tag k="ssr:stedsnr" v="891000" />
		<tag k="ssr:type" v="øygruppeISjø" />
	</node>
	<node lat="77.75685000383194" lon="13.887986122499193" id="-11918">
		<tag k="name" v="Kapp Martin" />
		<tag k="natural" v="cape" />
		<tag k="ssr:date" v="2019-01-06" />
		<tag k="ssr:gruppe" v="kystkontur" />
		<tag k="ssr:hovedgruppe" v="sjø" />
		<tag k="ssr:stedsnr" v="951997" />
		<tag k="ssr:type" v="nesISjø" />
	</node>
	<node lat="77.77414444329801" lon="22.69725557119045" id="-11919">
		<tag k="name" v="Edgeøya" />
		<tag k="place" v="island" />
		<tag k="ssr:date" v="2019-01-06" />
		<tag k="ssr:gruppe" v="kystkontur" />
		<tag k="ssr:hovedgruppe" v="sjø" />
		<tag k="ssr:stedsnr" v="951999" />
		<tag k="ssr:type" v="øyISjø" />
	</node>
	<node lat="80.09302494780535" lon="31.454228591238447" id="-11920">
		<tag k="name" v="Brattvaagbukta" />
		<tag k="natural" v="glacier" />
		<tag k="ssr:date" v="2019-01-06" />
		<tag k="ssr:gruppe" v="isOgPermafrost" />
		<tag k="ssr:hovedgruppe" v="markslag" />
		<tag k="ssr:stedsnr" v="968397" />
		<tag k="ssr:type" v="isbre" />
	</node>
	<node lat="80.14292776769288" lon="27.981575166810252" id="-11921">
		<tag k="name" v="Norvargodden" />
		<tag k="natural" v="cape" />
		<tag k="ssr:date" v="2019-01-06" />
		<tag k="ssr:gruppe" v="kystkontur" />
		<tag k="ssr:hovedgruppe" v="sjø" />
		<tag k="ssr:stedsnr" v="119368" />
		<tag k="ssr:type" v="nesISjø" />
	</node>
	<node lat="77.30626944499996" lon="15.798113878366673" id="-11922">
		<tag k="name" v="Spitsbergen" />
		<tag k="place" v="island" />
		<tag k="ssr:date" v="2019-01-06" />
		<tag k="ssr:gruppe" v="kystkontur" />
		<tag k="ssr:hovedgruppe" v="sjø" />
		<tag k="ssr:stedsnr" v="162993" />
		<tag k="ssr:type" v="øyISjø" />
	</node>
	<node lat="76.99617777838988" lon="21.993583341773636" id="-11923">
		<tag k="name" v="Tusenøyane" />
		<tag k="place" v="island" />
		<tag k="ssr:date" v="2019-01-06" />
		<tag k="ssr:gruppe" v="kystkontur" />
		<tag k="ssr:hovedgruppe" v="sjø" />
		<tag k="ssr:stedsnr" v="162998" />
		<tag k="ssr:type" v="øygruppeISjø" />
	</node>
	<node lat="77.88573055708869" lon="19.88436667864505" id="-11924">
		<tag k="name" v="Storfjorden" />
		<tag k="natural" v="bay" />
		<tag k="ssr:date" v="2019-01-06" />
		<tag k="ssr:gruppe" v="farvann" />
		<tag k="ssr:hovedgruppe" v="sjø" />
		<tag k="ssr:stedsnr" v="223984" />
		<tag k="ssr:type" v="sjøstykke" />
	</node>
	<node lat="74.44981666621206" lon="19.062405556907287" id="-11925">
		<tag k="name" v="Bjørnøya" />
		<tag k="place" v="island" />
		<tag k="ssr:date" v="2019-01-06" />
		<tag k="ssr:gruppe" v="kystkontur" />
		<tag k="ssr:hovedgruppe" v="sjø" />
		<tag k="ssr:stedsnr" v="344379" />
		<tag k="ssr:type" v="øyISjø" />
	</node>
	<node lat="78.23018889017726" lon="21.529536095746916" id="-11926">
		<tag k="name" v="Freemansundet" />
		<tag k="natural" v="strait" />
		<tag k="ssr:date" v="2019-01-06" />
		<tag k="ssr:gruppe" v="kystkontur" />
		<tag k="ssr:hovedgruppe" v="sjø" />
		<tag k="ssr:stedsnr" v="344980" />
		<tag k="ssr:type" v="sundISjø" />
	</node>
	<node lat="77.28529166875653" lon="23.138469433879354" id="-11927">
		<tag k="name" v="Halvmåneøya" />
		<tag k="place" v="island" />
		<tag k="ssr:date" v="2019-01-06" />
		<tag k="ssr:gruppe" v="kystkontur" />
		<tag k="ssr:hovedgruppe" v="sjø" />
		<tag k="ssr:stedsnr" v="344999" />
		<tag k="ssr:type" v="øyISjø" />
	</node>
	<node lat="80.12660277333673" lon="27.925639060792253" id="-11928">
		<tag k="name" v="Krungletjørnene" />
		<tag k="natural" v="ridge" />
		<tag k="place" v="locality" />
		<tag k="ssr:date" v="2019-01-06" />
		<tag k="ssr:gruppe" v="høyder" />
		<tag k="ssr:hovedgruppe" v="terreng" />
		<tag k="ssr:stedsnr" v="362360" />
		<tag k="ssr:type" v="rygg" />
	</node>
	<node lat="78.44953333376792" lon="21.378908322152025" id="-11929">
		<tag k="name" v="Barentsøya" />
		<tag k="place" v="island" />
		<tag k="ssr:date" v="2019-01-06" />
		<tag k="ssr:gruppe" v="kystkontur" />
		<tag k="ssr:hovedgruppe" v="sjø" />
		<tag k="ssr:stedsnr" v="406000" />
		<tag k="ssr:type" v="øyISjø" />
	</node>
	<node lat="80.04758332557319" lon="28.049675166735828" id="-11930">
		<tag k="name" v="Sørodden" />
		<tag k="natural" v="cape" />
		<tag k="ssr:date" v="2019-01-06" />
		<tag k="ssr:gruppe" v="kystkontur" />
		<tag k="ssr:hovedgruppe" v="sjø" />
		<tag k="ssr:stedsnr" v="423378" />
		<tag k="ssr:type" v="nesISjø" />
	</node>
	<node lat="80.12390832063107" lon="28.07177515729207" id="-11931">
		<tag k="name" v="Breivika" />
		<tag k="natural" v="bay" />
		<tag k="ssr:date" v="2019-01-06" />
		<tag k="ssr:gruppe" v="kystkontur" />
		<tag k="ssr:hovedgruppe" v="sjø" />
		<tag k="ssr:stedsnr" v="423382" />
		<tag k="ssr:type" v="vikISjø" />
	</node>
	<node lat="80.08057221761163" lon="26.975197308598695" id="-11932">
		<tag k="name" v="Van Dongenbukta" />
		<tag k="natural" v="bay" />
		<tag k="ssr:date" v="2019-01-06" />
		<tag k="ssr:gruppe" v="kystkontur" />
		<tag k="ssr:hovedgruppe" v="sjø" />
		<tag k="ssr:stedsnr" v="423385" />
		<tag k="ssr:type" v="vikISjø" />
	</node>
	<node lat="80.08267217498404" lon="31.412286885528076" id="-11933">
		<tag k="name" v="Andréeneset" />
		<tag k="natural" v="cape" />
		<tag k="ssr:date" v="2019-01-06" />
		<tag k="ssr:gruppe" v="kystkontur" />
		<tag k="ssr:hovedgruppe" v="sjø" />
		<tag k="ssr:stedsnr" v="423416" />
		<tag k="ssr:type" v="nesISjø" />
	</node>
	<node lat="80.07060550867836" lon="31.4952869169703" id="-11934">
		<tag k="name" v="Kvalrosstranda" />
		<tag k="natural" v="beach" />
		<tag k="ssr:date" v="2019-01-06" />
		<tag k="ssr:gruppe" v="kystkontur" />
		<tag k="ssr:hovedgruppe" v="sjø" />
		<tag k="ssr:stedsnr" v="544337" />
		<tag k="ssr:type" v="strandISjø" />
	</node>
	<node lat="77.60764444173455" lon="16.852669436404234" id="-11935">
		<tag k="name" v="Svalbard" />
		<tag k="place" v="island" />
		<tag k="ssr:date" v="2019-01-06" />
		<tag k="ssr:gruppe" v="kystkontur" />
		<tag k="ssr:hovedgruppe" v="sjø" />
		<tag k="ssr:stedsnr" v="586988" />
		<tag k="ssr:type" v="øygruppeISjø" />
	</node>
	<node lat="78.92588611366321" lon="11.931402766226636" id="-11936">
		<tag k="fixme" v="consider place=suburb, village or hamlet" />
		<tag k="name" v="Ny-Ålesund" />
		<tag k="place" v="quarter" />
		<tag k="ssr:date" v="2019-01-06" />
		<tag k="ssr:gruppe" v="bebyggelsesområder" />
		<tag k="ssr:hovedgruppe" v="bebyggelse" />
		<tag k="ssr:stedsnr" v="587933" />
		<tag k="ssr:type" v="tettbebyggelse" />
	</node>
	<node lat="79.86847777513296" lon="27.22158898738827" id="-11937">
		<tag k="name" v="Italiaodden" />
		<tag k="natural" v="cape" />
		<tag k="ssr:date" v="2019-01-06" />
		<tag k="ssr:gruppe" v="kystkontur" />
		<tag k="ssr:hovedgruppe" v="sjø" />
		<tag k="ssr:stedsnr" v="601289" />
		<tag k="ssr:type" v="nesISjø" />
	</node>
	<node lat="79.55790833113802" lon="25.728813938886372" id="-11938">
		<tag k="name" v="Hartogbukta" />
		<tag k="natural" v="bay" />
		<tag k="ssr:date" v="2019-01-06" />
		<tag k="ssr:gruppe" v="kystkontur" />
		<tag k="ssr:hovedgruppe" v="sjø" />
		<tag k="ssr:stedsnr" v="601295" />
		<tag k="ssr:type" v="vikISjø" />
	</node>
	<node lat="80.08083884387001" lon="31.4881285769169" id="-11939">
		<tag k="name" v="Bekkeflya" />
		<tag k="place" v="locality" />
		<tag k="ssr:date" v="2019-01-06" />
		<tag k="ssr:gruppe" v="flater" />
		<tag k="ssr:hovedgruppe" v="terreng" />
		<tag k="ssr:stedsnr" v="604393" />
		<tag k="ssr:type" v="slette" />
	</node>
	<node lat="77.4682750018686" lon="20.884833335920753" id="-11940">
		<tag k="name" v="Kvalpynten" />
		<tag k="natural" v="cape" />
		<tag k="ssr:date" v="2019-01-06" />
		<tag k="ssr:gruppe" v="kystkontur" />
		<tag k="ssr:hovedgruppe" v="sjø" />
		<tag k="ssr:stedsnr" v="647975" />
		<tag k="ssr:type" v="nesISjø" />
	</node>
	<node lat="80.22924432970355" lon="33.516318458953535" id="-11941">
		<tag k="alt_name" v="Kræmerodden" />
		<tag k="name" v="Kræmerpynten" />
		<tag k="natural" v="cape" />
		<tag k="ssr:date" v="2019-01-06" />
		<tag k="ssr:gruppe" v="kystkontur" />
		<tag k="ssr:hovedgruppe" v="sjø" />
		<tag k="ssr:stedsnr" v="663424" />
		<tag k="ssr:type" v="nesISjø" />
	</node>
	<node lat="80.17310271277366" lon="32.28362053868183" id="-11942">
		<tag k="name" v="Kvitøya" />
		<tag k="place" v="island" />
		<tag k="ssr:date" v="2019-01-06" />
		<tag k="ssr:gruppe" v="kystkontur" />
		<tag k="ssr:hovedgruppe" v="sjø" />
		<tag k="ssr:stedsnr" v="726399" />
		<tag k="ssr:type" v="øyISjø" />
	</node>
	<node lat="80.0635721727928" lon="31.5488758440804" id="-11943">
		<tag k="name" v="Vindrabbane" />
		<tag k="place" v="locality" />
		<tag k="ssr:date" v="2019-01-06" />
		<tag k="ssr:gruppe" v="skråninger" />
		<tag k="ssr:hovedgruppe" v="terreng" />
		<tag k="ssr:stedsnr" v="726402" />
		<tag k="ssr:type" v="fjellside" />
	</node>
	<node lat="77.79468610728763" lon="15.619777766497844" id="-11944">
		<tag k="bay" v="fjord" />
		<tag k="name" v="Van Mijenfjorden" />
		<tag k="natural" v="bay" />
		<tag k="ssr:date" v="2019-01-06" />
		<tag k="ssr:gruppe" v="farvann" />
		<tag k="ssr:hovedgruppe" v="sjø" />
		<tag k="ssr:stedsnr" v="769993" />
		<tag k="ssr:type" v="fjord" />
	</node>
	<node lat="79.01032222442545" lon="17.490749984444264" id="-11945">
		<tag k="fixme" v="consider natural=peak for the most distinct mountains in the district" />
		<tag k="name" v="Newtontoppen" />
		<tag k="natural" v="hill" />
		<tag k="place" v="locality" />
		<tag k="ssr:date" v="2019-01-06" />
		<tag k="ssr:gruppe" v="høyder" />
		<tag k="ssr:hovedgruppe" v="terreng" />
		<tag k="ssr:stedsnr" v="781493" />
		<tag k="ssr:type" v="fjell" />
	</node>
	<node lat="80.08434443761512" lon="28.262583507045928" id="-11946">
		<tag k="name" v="Diorittodden" />
		<tag k="natural" v="cape" />
		<tag k="ssr:date" v="2019-01-06" />
		<tag k="ssr:gruppe" v="kystkontur" />
		<tag k="ssr:hovedgruppe" v="sjø" />
		<tag k="ssr:stedsnr" v="847367" />
		<tag k="ssr:type" v="nesISjø" />
	</node>
	<node lat="78.22314166323808" lon="15.646855538584004" id="-11947">
		<tag k="name" v="Longyearbyen" />
		<tag k="place" v="town" />
		<tag k="ssr:date" v="2019-01-06" />
		<tag k="ssr:gruppe" v="bebyggelsesområder" />
		<tag k="ssr:hovedgruppe" v="bebyggelse" />
		<tag k="ssr:stedsnr" v="966478" />
		<tag k="ssr:type" v="by" />
	</node>
</osm>
