<?xml version="1.0" encoding="UTF-8"?>
<<<<<<< HEAD
<osm version="0.6" generator="osmapis">
	<node lat="69.33903055310407" lon="20.044436082833737" id="-40314">
		<tag k="name" v="Elsnes" />
		<tag k="natural" v="cape" />
		<tag k="ssr:stedsnr" v="19401" />
	</node>
	<node lat="69.39753056083386" lon="20.143566645908297" id="-40320">
		<tag k="loc_name:se" v="Čuolonjármáđđi" />
		<tag k="name" v="Landgrunnen" />
		<tag k="name:no" v="Landgrunnen" />
		<tag k="natural" v="shoal" />
		<tag k="place" v="locality" />
		<tag k="ssr:stedsnr" v="24827" />
	</node>
	<node lat="69.41670278087103" lon="20.25475554981108" id="-40321">
		<tag k="name" v="Røykenesslaget" />
		<tag k="natural" v="shoal" />
		<tag k="place" v="locality" />
		<tag k="ssr:stedsnr" v="27014" />
	</node>
	<node lat="69.3839138890073" lon="20.178083313772436" id="-40329">
		<tag k="name" v="Bergbukta - Bávttiluokta - Pahanlahti" />
		<tag k="name:fkv" v="Pahanlahti" />
		<tag k="name:no" v="Bergbukta" />
		<tag k="name:se" v="Bávttiluokta" />
		<tag k="natural" v="bay" />
		<tag k="ssr:stedsnr" v="36309" />
	</node>
	<node lat="69.30838055688075" lon="19.995988875333353" id="-40352">
		<tag k="loc_name:se" v="Goaskimnjirran" />
		<tag k="name" v="Bakkeneset - Geskinjirra" />
		<tag k="name:no" v="Bakkeneset" />
		<tag k="name:se" v="Geskinjirra" />
		<tag k="natural" v="cape" />
		<tag k="ssr:stedsnr" v="237621" />
	</node>
	<node lat="69.40783611406043" lon="20.152433310572846" id="-40360">
		<tag k="name" v="Kjærrabukta" />
		<tag k="natural" v="bay" />
		<tag k="ssr:stedsnr" v="237751" />
	</node>
	<node lat="69.33809166233402" lon="19.96832221592054" id="-40414">
		<tag k="loc_name:se" v="Johkasuolu" />
		<tag k="name" v="Elveholman" />
		<tag k="name:no" v="Elveholman" />
		<tag k="place" v="islet" />
		<tag k="ssr:stedsnr" v="115531" />
	</node>
	<node lat="69.29887953631966" lon="19.979224462206265" id="-40455">
		<tag k="alt_name:no" v="Bergbukta" />
		<tag k="name" v="Bergsbukta - Báktemohkki - Pahanmukka" />
		<tag k="name:fkv" v="Pahanmukka" />
		<tag k="name:no" v="Bergsbukta" />
		<tag k="name:se" v="Báktemohkki" />
		<tag k="natural" v="bay" />
		<tag k="ssr:stedsnr" v="261394" />
	</node>
	<node lat="69.33594444568993" lon="19.982774984964863" id="-40469">
		<tag k="loc_name:se" v="Davitnjárga" />
		<tag k="name" v="Ytterneset" />
		<tag k="name:no" v="Ytterneset" />
		<tag k="natural" v="cape" />
		<tag k="ssr:stedsnr" v="176503" />
	</node>
	<node lat="69.39159722463864" lon="20.158824981867472" id="-40519">
		<tag k="loc_name:se" v="Čuolonjárboađđu" />
		<tag k="name" v="Rastebynesgrunnen" />
		<tag k="name:no" v="Rastebynesgrunnen" />
		<tag k="natural" v="shoal" />
		<tag k="place" v="locality" />
		<tag k="ssr:stedsnr" v="449792" />
	</node>
	<node lat="69.36991389191294" lon="20.1358138629568" id="-40521">
		<tag k="loc_name:se" v="Vuoksanjárga" />
		<tag k="name" v="Okseneset" />
		<tag k="name:no" v="Okseneset" />
		<tag k="natural" v="cape" />
		<tag k="ssr:stedsnr" v="236719" />
	</node>
	<node lat="69.37889167112847" lon="20.227152760091673" id="-40524">
		<tag k="loc_name:se" v="Sálteroggi" />
		<tag k="name" v="Saltirånka" />
		<tag k="name:no" v="Saltirånka" />
		<tag k="natural" v="beach" />
		<tag k="ssr:stedsnr" v="237212" />
	</node>
	<node lat="69.33420555211373" lon="20.024163871177286" id="-40539">
		<tag k="alt_name:no" v="Salmenes" />
		<tag k="name" v="Salmeneset - Čoalmminjárga - Salminiemi" />
		<tag k="name:fkv" v="Salminiemi" />
		<tag k="name:no" v="Salmeneset" />
		<tag k="name:se" v="Čoalmminjárga" />
=======
<osm generator="osmapis" version="0.6">
	<node id="-885760" lat="69.4114250028" lon="20.1548138724">
		<tag k="name" v="Bergodden - Orritgeahči" />
		<tag k="name:no" v="Bergodden" />
		<tag k="name:se" v="Orritgeahči" />
>>>>>>> e1d4bc35ff8a6074a6f2e91616a996b547c36f15
		<tag k="natural" v="cape" />
		<tag k="ssr:stedsnr" v="458293" />
	</node>
<<<<<<< HEAD
	<node lat="69.36419166470047" lon="20.020855545314234" id="-40541">
		<tag k="name" v="Steinvika" />
		<tag k="natural" v="bay" />
		<tag k="ssr:stedsnr" v="269030" />
	</node>
	<node lat="69.33151388978608" lon="20.022116651804033" id="-40568">
		<tag k="name" v="Salmenesgrunnen" />
		<tag k="natural" v="shoal" />
		<tag k="place" v="locality" />
		<tag k="ssr:stedsnr" v="327965" />
	</node>
	<node lat="69.30399444388969" lon="19.98972498281539" id="-40586">
		<tag k="name" v="Ádjit" />
		<tag k="name:se" v="Ádjit" />
=======
	<node id="-886780" lat="69.2766166652" lon="19.9024638824">
		<tag k="loc_name" v="Áhkenjárga" />
		<tag k="name" v="Akenes" />
		<tag k="natural" v="cape" />
		<tag k="ssr:stedsnr" v="964434" />
	</node>
	<node id="-886543" lat="69.2814972222" lon="19.9589833121">
		<tag k="name" v="Pieti-äijän mukka" />
		<tag k="name:fkv" v="Pieti-äijän mukka" />
		<tag k="natural" v="bay" />
		<tag k="ssr:stedsnr" v="642184" />
	</node>
	<node id="-885747" lat="69.3731027789" lon="20.0489694191">
		<tag k="name" v="Johkanjárga" />
		<tag k="name:se" v="Johkanjárga" />
>>>>>>> e1d4bc35ff8a6074a6f2e91616a996b547c36f15
		<tag k="natural" v="cape" />
		<tag k="ssr:stedsnr" v="358607" />
	</node>
<<<<<<< HEAD
	<node lat="69.33675910367425" lon="19.97986325819255" id="-40612">
		<tag k="name" v="Sandørneset - Stállugárggunjárga" />
		<tag k="name:no" v="Sandørneset" />
		<tag k="name:se" v="Stállugárggunjárga" />
=======
	<node id="-885234" lat="69.3210555543" lon="20.0105972044">
		<tag k="name" v="Slettneset - Gossal" />
		<tag k="name:no" v="Slettneset" />
		<tag k="name:se" v="Gossal" />
>>>>>>> e1d4bc35ff8a6074a6f2e91616a996b547c36f15
		<tag k="natural" v="cape" />
		<tag k="ssr:stedsnr" v="382406" />
	</node>
<<<<<<< HEAD
	<node lat="69.44189166375764" lon="20.291544428082386" id="-40635">
		<tag k="name" v="Luhča" />
		<tag k="name:se" v="Luhča" />
=======
	<node id="-885745" lat="69.291219448" lon="19.9167527716">
		<tag k="name" v="Badjánanluokta" />
		<tag k="name:se" v="Badjánanluokta" />
>>>>>>> e1d4bc35ff8a6074a6f2e91616a996b547c36f15
		<tag k="natural" v="bay" />
		<tag k="ssr:stedsnr" v="419991" />
	</node>
<<<<<<< HEAD
	<node lat="69.29968333127243" lon="19.92427220518483" id="-40648">
=======
	<node id="-885224" lat="69.2996833313" lon="19.9242722052">
>>>>>>> e1d4bc35ff8a6074a6f2e91616a996b547c36f15
		<tag k="name" v="Cizášnjárga" />
		<tag k="name:se" v="Cizášnjárga" />
		<tag k="natural" v="cape" />
		<tag k="ssr:stedsnr" v="443389" />
	</node>
<<<<<<< HEAD
	<node lat="69.42882777604382" lon="20.27679997337476" id="-40656">
		<tag k="name" v="Aspeneset - Haapaniemi" />
		<tag k="name:fkv" v="Haapaniemi" />
		<tag k="name:no" v="Aspeneset" />
		<tag k="natural" v="cape" />
		<tag k="ssr:stedsnr" v="449913" />
	</node>
	<node lat="69.3861750016641" lon="20.258097215578818" id="-40657">
		<tag k="name" v="Okseneset - Heargenjárga - Härkäniemi" />
		<tag k="name:fkv" v="Härkäniemi" />
		<tag k="name:no" v="Okseneset" />
		<tag k="name:se" v="Heargenjárga" />
		<tag k="natural" v="cape" />
		<tag k="ssr:stedsnr" v="457923" />
	</node>
	<node lat="69.3247750046769" lon="20.014872210287766" id="-40663">
		<tag k="loc_name:se" v="Grapenjárga" />
		<tag k="name" v="Grapeneset" />
		<tag k="name:se" v="Grapeneset" />
=======
	<node id="-886268" lat="69.3361055541" lon="19.9807610929">
		<tag k="name" v="Sandørneset - Stállugárggunjárga" />
		<tag k="name:no" v="Sandørneset" />
		<tag k="name:se" v="Stállugárggunjárga" />
		<tag k="natural" v="cape" />
		<tag k="ssr:stedsnr" v="382406" />
	</node>
	<node id="-886747" lat="69.3668138897" lon="20.1244138729">
		<tag k="alt_name:no" v="Grasnes" />
		<tag k="name" v="Grasneset - Rássenjárga - Rassiniemi" />
		<tag k="name:fkv" v="Rassiniemi" />
		<tag k="name:no" v="Grasneset" />
		<tag k="name:se" v="Rássenjárga" />
		<tag k="natural" v="cape" />
		<tag k="ssr:stedsnr" v="868446" />
	</node>
	<node id="-886233" lat="69.4425166652" lon="20.2956833071">
		<tag k="loc_name:fkv" v="Larspahanhieta" />
		<tag k="name" v="Larsbergsanden" />
		<tag k="name:no" v="Larsbergsanden" />
		<tag k="natural" v="beach" />
		<tag k="place" v="locality" />
		<tag k="ssr:stedsnr" v="358993" />
	</node>
	<node id="-885205" lat="69.425280555" lon="20.274088884">
		<tag k="fixme" v="multiple name tags, choose one and add the other to alt_name" />
		<tag k="name" v="Røykenesbukta - Ruikatmohkki - Ruikkatanmukka;Vuoslahti" />
		<tag k="name:fkv" v="Ruikkatanmukka;Vuoslahti" />
		<tag k="name:no" v="Røykenesbukta" />
		<tag k="name:se" v="Ruikatmohkki" />
		<tag k="natural" v="bay" />
		<tag k="ssr:stedsnr" v="443273" />
	</node>
	<node id="-886225" lat="69.2865111111" lon="19.9109583231">
		<tag k="name" v="Pederanjárga" />
		<tag k="name:se" v="Pederanjárga" />
		<tag k="natural" v="cape" />
		<tag k="ssr:stedsnr" v="358624" />
	</node>
	<node id="-885200" lat="69.270605553" lon="19.9249749952">
		<tag k="name" v="Taterneset - Guoskat" />
		<tag k="name:no" v="Taterneset" />
		<tag k="name:se" v="Guoskat" />
>>>>>>> e1d4bc35ff8a6074a6f2e91616a996b547c36f15
		<tag k="natural" v="cape" />
		<tag k="ssr:stedsnr" v="479559" />
	</node>
<<<<<<< HEAD
	<node lat="69.34268333380217" lon="20.056452755804518" id="-40664">
		<tag k="loc_name:se" v="Riebannjárga" />
		<tag k="name" v="Revneset" />
		<tag k="name:se" v="Revneset" />
		<tag k="natural" v="cape" />
		<tag k="ssr:stedsnr" v="479562" />
	</node>
	<node lat="69.29351944607103" lon="19.918563880852158" id="-40667">
		<tag k="name" v="Kvalneset" />
		<tag k="natural" v="cape" />
		<tag k="ssr:stedsnr" v="479602" />
	</node>
	<node lat="69.28864722103795" lon="19.960719419286875" id="-40668">
		<tag k="fixme" v="consider seamark:type=rock or natural=shoal" />
		<tag k="loc_name:se" v="Sehppageargi" />
		<tag k="name" v="Loddesteinen" />
		<tag k="name:no" v="Loddesteinen" />
		<tag k="place" v="islet" />
		<tag k="ssr:stedsnr" v="479604" />
	</node>
	<node lat="69.36035000430847" lon="20.00623331004663" id="-40669">
		<tag k="loc_name:se" v="Dávgonjárga" />
		<tag k="name" v="Davvoneset" />
		<tag k="name:no" v="Davvoneset" />
=======
	<node id="-886223" lat="69.3039944439" lon="19.9897249828">
		<tag k="name" v="Ádjit" />
		<tag k="name:se" v="Ádjit" />
		<tag k="natural" v="cape" />
		<tag k="ssr:stedsnr" v="358607" />
	</node>
	<node id="-885325" lat="69.3279888865" lon="19.9720305343">
		<tag k="loc_name:se" v="Dántanjárga" />
		<tag k="name" v="Pantaneset" />
		<tag k="name:no" v="Pantaneset" />
		<tag k="natural" v="cape" />
		<tag k="ssr:stedsnr" v="358567" />
	</node>
	<node id="-886729" lat="69.4501083334" lon="20.3075083141">
		<tag k="name" v="Larsbergneset - Larspahanniemi" />
		<tag k="name:fkv" v="Larspahanniemi" />
		<tag k="name:no" v="Larsbergneset" />
		<tag k="natural" v="cape" />
		<tag k="ssr:stedsnr" v="868229" />
	</node>
	<node id="-886721" lat="69.2866555548" lon="19.9595222092">
		<tag k="loc_name:se" v="Davitnjárga" />
		<tag k="name" v="Ytterneset" />
		<tag k="name:no" v="Ytterneset" />
>>>>>>> e1d4bc35ff8a6074a6f2e91616a996b547c36f15
		<tag k="natural" v="cape" />
		<tag k="ssr:stedsnr" v="479610" />
	</node>
<<<<<<< HEAD
	<node lat="69.32258611368502" lon="19.962463871547254" id="-40737">
		<tag k="loc_name:se" v="Geargenjárga" />
		<tag k="name" v="Steinnes" />
		<tag k="name:no" v="Steinnes" />
		<tag k="natural" v="cape" />
		<tag k="ssr:stedsnr" v="540584" />
	</node>
	<node lat="69.38006388957743" lon="20.222936102774895" id="-40768">
		<tag k="name" v="Nállovuohppi - Nalluvuopio" />
		<tag k="name:fkv" v="Nalluvuopio" />
		<tag k="name:se" v="Nállovuohppi" />
		<tag k="natural" v="bay" />
		<tag k="ssr:stedsnr" v="570821" />
	</node>
	<node lat="69.34249722327475" lon="19.96816110748793" id="-40769">
		<tag k="name" v="Skogspleierdalsbukta" />
=======
	<node id="-886703" lat="69.378263889" lon="20.0730388817">
		<tag k="loc_name:se" v="Siidagaska" />
		<tag k="name" v="Siidugaska" />
		<tag k="name:se" v="Siidugaska" />
		<tag k="natural" v="bay" />
		<tag k="ssr:stedsnr" v="843762" />
	</node>
	<node id="-886190" lat="69.3315138898" lon="20.0221166518">
		<tag k="name" v="Salmenesgrunnen" />
		<tag k="natural" v="shoal" />
		<tag k="place" v="locality" />
		<tag k="ssr:stedsnr" v="327965" />
	</node>
	<node id="-886701" lat="69.2623249964" lon="19.920144436">
		<tag k="name" v="Bukta" />
>>>>>>> e1d4bc35ff8a6074a6f2e91616a996b547c36f15
		<tag k="natural" v="bay" />
		<tag k="ssr:stedsnr" v="694031" />
	</node>
<<<<<<< HEAD
	<node lat="69.33111661486168" lon="20.022219278951976" id="-40794">
		<tag k="alt_name:no" v="Litlebukta" />
		<tag k="fixme" v="multiple name tags, choose one and add the other to alt_name" />
		<tag k="name" v="Lillebukta - Unnamohkki;Uhcaluokta - Pikkulahti" />
		<tag k="name:fkv" v="Pikkulahti" />
		<tag k="name:no" v="Lillebukta" />
		<tag k="name:se" v="Unnamohkki;Uhcaluokta" />
=======
	<node id="-885666" lat="69.3754388914" lon="20.0576194281">
		<tag k="name" v="Steindalsbukta" />
>>>>>>> e1d4bc35ff8a6074a6f2e91616a996b547c36f15
		<tag k="natural" v="bay" />
		<tag k="ssr:stedsnr" v="624426" />
	</node>
<<<<<<< HEAD
	<node lat="69.40835555237297" lon="20.260849991437535" id="-40808">
		<tag k="name" v="Ruikkatanranta" />
		<tag k="name:fkv" v="Ruikkatanranta" />
		<tag k="natural" v="beach" />
		<tag k="ssr:stedsnr" v="642176" />
	</node>
	<node lat="69.40118888602913" lon="20.143372199679703" id="-40821">
		<tag k="name" v="Neset" />
		<tag k="natural" v="cape" />
		<tag k="ssr:stedsnr" v="661691" />
	</node>
	<node lat="69.39104444846988" lon="20.119894443177085" id="-40823">
		<tag k="name" v="Jossi" />
		<tag k="natural" v="cape" />
		<tag k="ssr:stedsnr" v="661693" />
	</node>
	<node lat="69.35324999688764" lon="20.036455546610778" id="-40834">
		<tag k="bay" v="fjord" />
		<tag k="name" v="Storfjorden - Omasvuotna - Isovuono" />
		<tag k="name:fkv" v="Isovuono" />
		<tag k="name:no" v="Storfjorden" />
		<tag k="name:se" v="Omasvuotna" />
		<tag k="natural" v="bay" />
		<tag k="ssr:stedsnr" v="686456" />
	</node>
	<node lat="69.38590000175704" lon="20.190822207393218" id="-40836">
		<tag k="name" v="Falsnesodden - Falsnjárga - Falisniemi" />
		<tag k="name:fkv" v="Falisniemi" />
		<tag k="name:no" v="Falsnesodden" />
		<tag k="name:se" v="Falsnjárga" />
=======
	<node id="-885153" lat="69.3021111082" lon="19.9840083206">
		<tag k="name" v="Guolbanvákkiluokta - Kuolpanvankanlahti" />
		<tag k="name:fkv" v="Kuolpanvankanlahti" />
		<tag k="name:se" v="Guolbanvákkiluokta" />
		<tag k="natural" v="bay" />
		<tag k="ssr:stedsnr" v="279360" />
	</node>
	<node id="-886687" lat="69.3330638863" lon="19.9777305284">
		<tag k="fixme" v="multiple name tags, choose one and add the other to alt_name" />
		<tag k="name" v="Kjellarneset - Geallirnjárga;Gárggunjárga" />
		<tag k="name:no" v="Kjellarneset" />
		<tag k="name:se" v="Geallirnjárga;Gárggunjárga" />
		<tag k="natural" v="cape" />
		<tag k="ssr:stedsnr" v="825627" />
	</node>
	<node id="-886686" lat="69.336094445" lon="20.0390666536">
		<tag k="fixme" v="multiple name tags, choose one and add the other to alt_name" />
		<tag k="name" v="Bukta;Piltbukta - Luokta - Lahti" />
		<tag k="name:fkv" v="Lahti" />
		<tag k="name:no" v="Bukta;Piltbukta" />
		<tag k="name:se" v="Luokta" />
		<tag k="natural" v="bay" />
		<tag k="ssr:stedsnr" v="825607" />
	</node>
	<node id="-885657" lat="69.4154944411" lon="20.258258311">
		<tag k="name" v="Røykeneset - Ruikat - Ruikkatanniemi" />
		<tag k="name:fkv" v="Ruikkatanniemi" />
		<tag k="name:no" v="Røykeneset" />
		<tag k="name:se" v="Ruikat" />
		<tag k="natural" v="cape" />
		<tag k="ssr:stedsnr" v="746265" />
	</node>
	<node id="-885144" lat="69.3474249977" lon="20.0576471962">
		<tag k="loc_name:se" v="Sivlonjárlássá" />
		<tag k="name" v="Masternesbåen" />
		<tag k="name:no" v="Masternesbåen" />
		<tag k="place" v="locality" />
		<tag k="seamark:type" v="rock" />
		<tag k="ssr:stedsnr" v="145972" />
	</node>
	<node id="-885137" lat="69.3641916647" lon="20.0208555453">
		<tag k="name" v="Steinvika" />
		<tag k="natural" v="bay" />
		<tag k="ssr:stedsnr" v="269030" />
	</node>
	<node id="-886680" lat="69.3309694481" lon="19.9755444233">
		<tag k="loc_name:se" v="Stálugárggumohkki" />
		<tag k="name" v="Sandørbukta" />
		<tag k="name:no" v="Sandørbukta" />
		<tag k="natural" v="bay" />
		<tag k="ssr:stedsnr" v="813957" />
	</node>
	<node id="-885126" lat="69.3287722207" lon="19.9723971955">
		<tag k="loc_name:se" v="Unnanjárggaš" />
		<tag k="name" v="Lilleneset" />
		<tag k="name:no" v="Lilleneset" />
>>>>>>> e1d4bc35ff8a6074a6f2e91616a996b547c36f15
		<tag k="natural" v="cape" />
		<tag k="ssr:stedsnr" v="686493" />
	</node>
<<<<<<< HEAD
	<node lat="69.38169999838776" lon="20.251783306009138" id="-40837">
		<tag k="name" v="Guosgattaholmen - Guoskat - Kuoskatansaari" />
		<tag k="name:fkv" v="Kuoskatansaari" />
		<tag k="name:no" v="Guosgattaholmen" />
		<tag k="name:se" v="Guoskat" />
		<tag k="place" v="islet" />
		<tag k="ssr:stedsnr" v="686509" />
	</node>
	<node lat="69.34134444774479" lon="20.049172219566113" id="-40845">
=======
	<node id="-885125" lat="69.3380916623" lon="19.9683222159">
		<tag k="loc_name:se" v="Johkasuolu" />
		<tag k="name" v="Elveholman" />
		<tag k="name:no" v="Elveholman" />
		<tag k="place" v="islet" />
		<tag k="ssr:stedsnr" v="115531" />
	</node>
	<node id="-885630" lat="69.3413444477" lon="20.0491722196">
>>>>>>> e1d4bc35ff8a6074a6f2e91616a996b547c36f15
		<tag k="loc_name:se" v="Juomváhluokta" />
		<tag k="name" v="Elsnesbukta" />
		<tag k="name:no" v="Elsnesbukta" />
		<tag k="natural" v="bay" />
		<tag k="ssr:stedsnr" v="694021" />
	</node>
<<<<<<< HEAD
	<node lat="69.37549722418986" lon="20.057361108356755" id="-40852">
		<tag k="name" v="Gievdanluokta" />
		<tag k="name:se" v="Gievdanluokta" />
=======
	<node id="-886139" lat="69.4091333382" lon="20.2578166453">
		<tag k="name" v="Røykenesgrunnen" />
		<tag k="natural" v="shoal" />
		<tag k="place" v="locality" />
		<tag k="ssr:stedsnr" v="206949" />
	</node>
	<node id="-885623" lat="69.3346388918" lon="19.9970555489">
		<tag k="name" v="Čoalbmi - Salmi" />
		<tag k="name:fkv" v="Salmi" />
		<tag k="name:se" v="Čoalbmi" />
		<tag k="natural" v="strait" />
		<tag k="ssr:stedsnr" v="885346" />
	</node>
	<node id="-886640" lat="69.4581972237" lon="20.3215221961">
		<tag k="name" v="Innerbukta - Sisämukka" />
		<tag k="name:fkv" v="Sisämukka" />
		<tag k="name:no" v="Innerbukta" />
>>>>>>> e1d4bc35ff8a6074a6f2e91616a996b547c36f15
		<tag k="natural" v="bay" />
		<tag k="ssr:stedsnr" v="703435" />
	</node>
<<<<<<< HEAD
	<node lat="69.3660972224379" lon="20.029288886045006" id="-40853">
		<tag k="name" v="Guohcaluokta" />
		<tag k="name:se" v="Guohcaluokta" />
=======
	<node id="-885053" lat="69.3083805569" lon="19.9959888753">
		<tag k="loc_name:se" v="Goaskimnjirran" />
		<tag k="name" v="Bakkeneset - Geskinjirra" />
		<tag k="name:no" v="Bakkeneset" />
		<tag k="name:se" v="Geskinjirra" />
		<tag k="natural" v="cape" />
		<tag k="ssr:stedsnr" v="237621" />
	</node>
	<node id="-886119" lat="69.3560499958" lon="20.0877583276">
		<tag k="name" v="Bentsjordbukta - Suollatvákkiluokta" />
		<tag k="name:no" v="Bentsjordbukta" />
		<tag k="name:se" v="Suollatvákkiluokta" />
>>>>>>> e1d4bc35ff8a6074a6f2e91616a996b547c36f15
		<tag k="natural" v="bay" />
		<tag k="ssr:stedsnr" v="703437" />
	</node>
<<<<<<< HEAD
	<node lat="69.37736111388351" lon="20.260663874745962" id="-40880">
		<tag k="name" v="Littineset" />
		<tag k="natural" v="cape" />
		<tag k="ssr:stedsnr" v="904121" />
	</node>
	<node lat="69.3754388913851" lon="20.057619428071895" id="-40896">
		<tag k="name" v="Steindalsbukta" />
		<tag k="natural" v="bay" />
		<tag k="ssr:stedsnr" v="755021" />
	</node>
	<node lat="69.30559999629762" lon="19.99289721252915" id="-40915">
=======
	<node id="-885094" lat="69.2986333348" lon="19.9751972196">
		<tag k="alt_name:no" v="Bergbukta" />
		<tag k="name" v="Bergsbukta - Báktemohkki - Pahanmukka" />
		<tag k="name:fkv" v="Pahanmukka" />
		<tag k="name:no" v="Bergsbukta" />
		<tag k="name:se" v="Báktemohkki" />
		<tag k="natural" v="bay" />
		<tag k="ssr:stedsnr" v="261394" />
	</node>
	<node id="-886111" lat="69.2653250009" lon="19.9211333223">
		<tag k="alt_name:no" v="Mælneset" />
		<tag k="loc_name:se" v="Miellenjárga" />
		<tag k="name" v="Melneset" />
		<tag k="name:no" v="Melneset" />
		<tag k="natural" v="cape" />
		<tag k="ssr:stedsnr" v="200597" />
	</node>
	<node id="-886622" lat="69.3055999963" lon="19.9928972125">
>>>>>>> e1d4bc35ff8a6074a6f2e91616a996b547c36f15
		<tag k="name" v="Storsteinen" />
		<tag k="natural" v="cape" />
		<tag k="ssr:stedsnr" v="783599" />
	</node>
<<<<<<< HEAD
	<node lat="69.33096944814245" lon="19.975544423272265" id="-40930">
		<tag k="loc_name:se" v="Stálugárggumohkki" />
		<tag k="name" v="Sandørbukta" />
		<tag k="name:no" v="Sandørbukta" />
=======
	<node id="-886097" lat="69.4147944482" lon="20.1544277581">
		<tag k="alt_name:no" v="Kabelbukta, indre;Indre Kabelvik" />
		<tag k="name" v="Indre Kabelbukt - Gáhpoluokta" />
		<tag k="name:no" v="Indre Kabelbukt" />
		<tag k="name:se" v="Gáhpoluokta" />
>>>>>>> e1d4bc35ff8a6074a6f2e91616a996b547c36f15
		<tag k="natural" v="bay" />
		<tag k="ssr:stedsnr" v="813957" />
	</node>
<<<<<<< HEAD
	<node lat="69.33609444496626" lon="20.039066653581337" id="-40935">
		<tag k="fixme" v="multiple name tags, choose one and add the other to alt_name" />
		<tag k="name" v="Piltbukta;Bukta - Luokta - Lahti" />
		<tag k="name:fkv" v="Lahti" />
		<tag k="name:no" v="Piltbukta;Bukta" />
		<tag k="name:se" v="Luokta" />
=======
	<node id="-886092" lat="69.7796777795" lon="20.3826833161">
		<tag k="alt_name:no" v="Lyngenfjorden" />
		<tag k="bay" v="fjord" />
		<tag k="name" v="Lyngen - Ivguvuotna - Yykeänvuono" />
		<tag k="name:fkv" v="Yykeänvuono" />
		<tag k="name:no" v="Lyngen" />
		<tag k="name:se" v="Ivguvuotna" />
>>>>>>> e1d4bc35ff8a6074a6f2e91616a996b547c36f15
		<tag k="natural" v="bay" />
		<tag k="ssr:stedsnr" v="825607" />
	</node>
<<<<<<< HEAD
	<node lat="69.26232499643201" lon="19.920144435990874" id="-40937">
		<tag k="name" v="Bukta" />
		<tag k="natural" v="bay" />
		<tag k="ssr:stedsnr" v="843435" />
	</node>
	<node lat="69.39985000028187" lon="20.253219435549468" id="-40951">
		<tag k="alt_name" v="Skibotnbukt" />
		<tag k="name" v="Skibotnbukta" />
=======
	<node id="-886602" lat="69.2788583308" lon="19.9064277715">
		<tag k="fixme" v="consider seamark:type=rock or natural=shoal" />
		<tag k="loc_name:se" v="Doappalgearggit" />
		<tag k="name" v="Dubbelsteinen" />
		<tag k="name:no" v="Dubbelsteinen" />
		<tag k="place" v="islet" />
		<tag k="ssr:stedsnr" v="782388" />
	</node>
	<node id="-885303" lat="69.3426833338" lon="20.0564527558">
		<tag k="loc_name:se" v="Riebannjárga" />
		<tag k="name" v="Revneset" />
		<tag k="name:se" v="Revneset" />
		<tag k="natural" v="cape" />
		<tag k="ssr:stedsnr" v="479562" />
	</node>
	<node id="-885063" lat="69.4078361141" lon="20.1524333106">
		<tag k="name" v="Kjærrabukta" />
>>>>>>> e1d4bc35ff8a6074a6f2e91616a996b547c36f15
		<tag k="natural" v="bay" />
		<tag k="ssr:stedsnr" v="928435" />
	</node>
<<<<<<< HEAD
	<node lat="69.41142500284563" lon="20.154813872353184" id="-40995">
		<tag k="name" v="Bergodden - Orritgeahči" />
		<tag k="name:no" v="Bergodden" />
		<tag k="name:se" v="Orritgeahči" />
		<tag k="natural" v="cape" />
		<tag k="ssr:stedsnr" v="876034" />
	</node>
	<node lat="69.306816816056" lon="19.99147928441042" id="-41013">
		<tag k="name" v="Storsteinbukta - Stuorageađgemohkki - Isonkivenmukka" />
		<tag k="name:fkv" v="Isonkivenmukka" />
		<tag k="name:no" v="Storsteinbukta" />
		<tag k="name:se" v="Stuorageađgemohkki" />
=======
	<node id="-885567" lat="69.364750001" lon="20.0243138691">
		<tag k="fixme" v="consider seamark:type=rock or natural=shoal" />
		<tag k="loc_name:se" v="Lássá" />
		<tag k="name" v="Skjæresteinen" />
		<tag k="name:no" v="Skjæresteinen" />
		<tag k="place" v="islet" />
		<tag k="ssr:stedsnr" v="600583" />
	</node>
	<node id="-885566" lat="69.3033888884" lon="19.9324499746">
		<tag k="name" v="Bukta" />
>>>>>>> e1d4bc35ff8a6074a6f2e91616a996b547c36f15
		<tag k="natural" v="bay" />
		<tag k="ssr:stedsnr" v="928408" />
	</node>
<<<<<<< HEAD
	<node lat="69.27661666520407" lon="19.902463882408945" id="-41031">
		<tag k="loc_name" v="Áhkenjárga" />
		<tag k="name" v="Akenes" />
		<tag k="natural" v="cape" />
		<tag k="ssr:stedsnr" v="964434" />
	</node>
	<node lat="69.38393610824362" lon="20.263111100219575" id="-41033">
		<tag k="name" v="Guosgatta" />
		<tag k="natural" v="cape" />
		<tag k="ssr:stedsnr" v="965115" />
	</node>
	<node lat="69.33373888848291" lon="19.993602758920648" id="-41080">
		<tag k="loc_name:se" v="Goikeboađđu" />
		<tag k="name" v="Tørrgrunnen" />
		<tag k="name:no" v="Tørrgrunnen" />
		<tag k="natural" v="shoal" />
=======
	<node id="-885565" lat="69.3053916702" lon="19.9356972204">
		<tag k="name" v="Gohppenjárga" />
		<tag k="name:se" v="Gohppenjárga" />
		<tag k="natural" v="cape" />
		<tag k="ssr:stedsnr" v="600560" />
	</node>
	<node id="-885553" lat="69.3710000013" lon="20.0452694298">
		<tag k="name" v="Storengbukta - Roggeluokta" />
		<tag k="name:no" v="Storengbukta" />
		<tag k="name:se" v="Roggeluokta" />
		<tag k="natural" v="bay" />
		<tag k="ssr:stedsnr" v="582671" />
	</node>
	<node id="-885552" lat="69.3346083387" lon="19.981263866">
		<tag k="name" v="Kjellarbukta - Geallirluokta" />
		<tag k="name:no" v="Kjellarbukta" />
		<tag k="name:se" v="Geallirluokta" />
		<tag k="natural" v="bay" />
		<tag k="ssr:stedsnr" v="582669" />
	</node>
	<node id="-885035" lat="69.3788916711" lon="20.2271527601">
		<tag k="loc_name:se" v="Sálteroggi" />
		<tag k="name" v="Saltirånka" />
		<tag k="name:no" v="Saltirånka" />
		<tag k="natural" v="beach" />
>>>>>>> e1d4bc35ff8a6074a6f2e91616a996b547c36f15
		<tag k="place" v="locality" />
		<tag k="ssr:stedsnr" v="24960" />
	</node>
<<<<<<< HEAD
	<node lat="69.36557222336789" lon="20.020894425493573" id="-41083">
		<tag k="name" v="Muorranjárga" />
		<tag k="name:se" v="Muorranjárga" />
		<tag k="natural" v="cape" />
		<tag k="ssr:stedsnr" v="36365" />
	</node>
	<node lat="69.4306382248791" lon="20.27717663086236" id="-41118">
		<tag k="name" v="Aspebukta - Suhpemohkki - Haapamukka" />
		<tag k="name:fkv" v="Haapamukka" />
		<tag k="name:no" v="Aspebukta" />
		<tag k="name:se" v="Suhpemohkki" />
		<tag k="natural" v="bay" />
		<tag k="ssr:stedsnr" v="79258" />
	</node>
	<node lat="69.38383888961252" lon="20.099322195818825" id="-41162">
		<tag k="name" v="Buollángáddi" />
		<tag k="name:se" v="Buollángáddi" />
		<tag k="natural" v="beach" />
		<tag k="ssr:stedsnr" v="92819" />
	</node>
	<node lat="69.32877222067681" lon="19.972397195501287" id="-41173">
		<tag k="loc_name:se" v="Unnanjárggaš" />
		<tag k="name" v="Lilleneset" />
		<tag k="name:no" v="Lilleneset" />
		<tag k="natural" v="cape" />
		<tag k="ssr:stedsnr" v="115538" />
	</node>
	<node lat="69.31682778067209" lon="19.956574994108742" id="-41175">
		<tag k="name" v="Ytterneset" />
=======
	<node id="-885546" lat="69.4453672196" lon="20.3009689088">
		<tag k="name" v="Larsberggrunnen - Larspahdansoro" />
		<tag k="name:fkv" v="Larspahdansoro" />
		<tag k="name:no" v="Larsberggrunnen" />
		<tag k="natural" v="shoal" />
		<tag k="place" v="locality" />
		<tag k="ssr:stedsnr" v="570933" />
	</node>
	<node id="-885544" lat="69.3660972224" lon="20.029288886">
		<tag k="name" v="Guohcaluokta" />
		<tag k="name:se" v="Guohcaluokta" />
		<tag k="natural" v="bay" />
		<tag k="ssr:stedsnr" v="703437" />
	</node>
	<node id="-885543" lat="69.3754972242" lon="20.0573611084">
		<tag k="name" v="Gievdanluokta" />
		<tag k="name:se" v="Gievdanluokta" />
		<tag k="natural" v="bay" />
		<tag k="ssr:stedsnr" v="703435" />
	</node>
	<node id="-886562" lat="69.2637361092" lon="19.8964833161">
		<tag k="loc_name:se" v="Suoksanjárga" />
		<tag k="name" v="Gretteneset" />
		<tag k="name:no" v="Gretteneset" />
		<tag k="natural" v="cape" />
		<tag k="ssr:stedsnr" v="746396" />
	</node>
	<node id="-885533" lat="69.3424972233" lon="19.9681611075">
		<tag k="name" v="Skogspleierdalsbukta" />
		<tag k="natural" v="bay" />
		<tag k="ssr:stedsnr" v="694031" />
	</node>
	<node id="-885532" lat="69.4185111143" lon="20.2590472102">
		<tag k="name" v="Sandneset" />
>>>>>>> e1d4bc35ff8a6074a6f2e91616a996b547c36f15
		<tag k="natural" v="cape" />
		<tag k="ssr:stedsnr" v="115553" />
	</node>
<<<<<<< HEAD
	<node lat="69.3195096729894" lon="20.007587563559646" id="-41209">
		<tag k="name" v="Slettnesbukta - Gossalaluokta - Kossalanlahti" />
		<tag k="name:fkv" v="Kossalanlahti" />
		<tag k="name:no" v="Slettnesbukta" />
		<tag k="name:se" v="Gossalaluokta" />
		<tag k="natural" v="bay" />
		<tag k="ssr:stedsnr" v="139445" />
	</node>
	<node lat="69.38666111494808" lon="20.241849996942737" id="-41216">
		<tag k="name" v="Leira" />
		<tag k="natural" v="bay" />
		<tag k="ssr:stedsnr" v="139514" />
	</node>
	<node lat="69.35067499770037" lon="20.06611387462216" id="-41222">
		<tag k="alt_name:no" v="Reppenes" />
		<tag k="name" v="Reppeneset - Reahpennjárga - Reppiniemi" />
		<tag k="name:fkv" v="Reppiniemi" />
		<tag k="name:no" v="Reppeneset" />
		<tag k="name:se" v="Reahpennjárga" />
=======
	<node id="-885018" lat="69.4167027809" lon="20.2547555498">
		<tag k="name" v="Røykenesslaget" />
		<tag k="natural" v="shoal" />
		<tag k="place" v="locality" />
		<tag k="ssr:stedsnr" v="27014" />
	</node>
	<node id="-885529" lat="69.3225861137" lon="19.9624638715">
		<tag k="loc_name:se" v="Geargenjárga" />
		<tag k="name" v="Steinnes" />
		<tag k="name:no" v="Steinnes" />
		<tag k="natural" v="cape" />
		<tag k="ssr:stedsnr" v="540584" />
	</node>
	<node id="-885015" lat="69.3390305531" lon="20.0444360828">
		<tag k="name" v="Elsnes" />
>>>>>>> e1d4bc35ff8a6074a6f2e91616a996b547c36f15
		<tag k="natural" v="cape" />
		<tag k="ssr:stedsnr" v="140457" />
	</node>
<<<<<<< HEAD
	<node lat="69.34743925895339" lon="20.05765059026831" id="-41234">
		<tag k="loc_name:se" v="Sivlonjárlássá" />
		<tag k="name" v="Masternesbåen" />
		<tag k="name:no" v="Masternesbåen" />
		<tag k="place" v="locality" />
		<tag k="seamark:type" v="rock" />
		<tag k="ssr:stedsnr" v="145972" />
	</node>
	<node lat="69.88558611017307" lon="20.273833314628867" id="-41237">
=======
	<node id="-885010" lat="69.2962277778" lon="19.9688222126">
		<tag k="name" v="Bergenden - Báktegeahči - Pahanpää" />
		<tag k="name:fkv" v="Pahanpää" />
		<tag k="name:no" v="Bergenden" />
		<tag k="name:se" v="Báktegeahči" />
		<tag k="natural" v="cape" />
		<tag k="ssr:stedsnr" v="218364" />
	</node>
	<node id="-886058" lat="69.3359444457" lon="19.982774985">
		<tag k="loc_name:se" v="Davitnjárga" />
		<tag k="name" v="Ytterneset" />
		<tag k="name:no" v="Ytterneset" />
		<tag k="natural" v="cape" />
		<tag k="ssr:stedsnr" v="176503" />
	</node>
	<node id="-886031" lat="69.8855861102" lon="20.2738333146">
>>>>>>> e1d4bc35ff8a6074a6f2e91616a996b547c36f15
		<tag k="name" v="Lyngenhalvøya - Ittunjárga" />
		<tag k="name:no" v="Lyngenhalvøya" />
		<tag k="name:se" v="Ittunjárga" />
		<tag k="natural" v="cape" />
		<tag k="ssr:stedsnr" v="152638" />
	</node>
<<<<<<< HEAD
	<node lat="69.41479444824499" lon="20.154427758129987" id="-41277">
		<tag k="alt_name:no" v="Kabelbukta, indre;Indre Kabelvik" />
		<tag k="name" v="Indre Kabelbukt - Gáhpoluokta" />
		<tag k="name:no" v="Indre Kabelbukt" />
		<tag k="name:se" v="Gáhpoluokta" />
		<tag k="natural" v="bay" />
		<tag k="ssr:stedsnr" v="200273" />
	</node>
	<node lat="69.77967777947062" lon="20.382683316093747" id="-41279">
		<tag k="alt_name:no" v="Lyngenfjorden" />
		<tag k="bay" v="fjord" />
		<tag k="name" v="Lyngen - Ivguvuotna - Yykeänvuono" />
		<tag k="name:fkv" v="Yykeänvuono" />
		<tag k="name:no" v="Lyngen" />
		<tag k="name:se" v="Ivguvuotna" />
		<tag k="natural" v="bay" />
		<tag k="ssr:stedsnr" v="200243" />
	</node>
	<node lat="69.26532500091555" lon="19.921133322259042" id="-41294">
		<tag k="alt_name:no" v="Mælneset" />
		<tag k="loc_name:se" v="Miellenjárga" />
		<tag k="name" v="Melneset" />
		<tag k="name:no" v="Melneset" />
=======
	<node id="-886542" lat="69.4083555524" lon="20.2608499914">
		<tag k="name" v="Ruikkatanranta" />
		<tag k="name:fkv" v="Ruikkatanranta" />
		<tag k="natural" v="beach" />
		<tag k="place" v="locality" />
		<tag k="ssr:stedsnr" v="642176" />
	</node>
	<node id="-886015" lat="69.3506749977" lon="20.0661138746">
		<tag k="alt_name:no" v="Reppenes" />
		<tag k="name" v="Reppeneset - Reahpennjárga - Reppiniemi" />
		<tag k="name:fkv" v="Reppiniemi" />
		<tag k="name:no" v="Reppeneset" />
		<tag k="name:se" v="Reahpennjárga" />
		<tag k="natural" v="cape" />
		<tag k="ssr:stedsnr" v="140457" />
	</node>
	<node id="-886523" lat="69.3861722214" lon="20.107188868">
		<tag k="alt_name:no" v="Solnes" />
		<tag k="name" v="Solneset - Gieddenjárga" />
		<tag k="name:no" v="Solneset" />
		<tag k="name:se" v="Gieddenjárga" />
		<tag k="natural" v="cape" />
		<tag k="ssr:stedsnr" v="625473" />
	</node>
	<node id="-886010" lat="69.3866611149" lon="20.2418499969">
		<tag k="name" v="Leira" />
		<tag k="natural" v="bay" />
		<tag k="ssr:stedsnr" v="139514" />
	</node>
	<node id="-886002" lat="69.3196277767" lon="20.0070138872">
		<tag k="name" v="Slettnesbukta - Gossalaluokta - Kossalanlahti" />
		<tag k="name:fkv" v="Kossalanlahti" />
		<tag k="name:no" v="Slettnesbukta" />
		<tag k="name:se" v="Gossalaluokta" />
		<tag k="natural" v="bay" />
		<tag k="ssr:stedsnr" v="139445" />
	</node>
	<node id="-885487" lat="69.3816999984" lon="20.251783306">
		<tag k="name" v="Guosgattaholmen - Guoskat - Kuoskatansaari" />
		<tag k="name:fkv" v="Kuoskatansaari" />
		<tag k="name:no" v="Guosgattaholmen" />
		<tag k="name:se" v="Guoskat" />
		<tag k="place" v="islet" />
		<tag k="ssr:stedsnr" v="686509" />
	</node>
	<node id="-885486" lat="69.3859000018" lon="20.1908222074">
		<tag k="name" v="Falsnesodden - Falsnjárga - Falisniemi" />
		<tag k="name:fkv" v="Falisniemi" />
		<tag k="name:no" v="Falsnesodden" />
		<tag k="name:se" v="Falsnjárga" />
>>>>>>> e1d4bc35ff8a6074a6f2e91616a996b547c36f15
		<tag k="natural" v="cape" />
		<tag k="ssr:stedsnr" v="200597" />
	</node>
<<<<<<< HEAD
	<node lat="69.3556445737184" lon="20.088902854659423" id="-41301">
		<tag k="name" v="Bentsjordbukta - Suollatvákkiluokta" />
		<tag k="name:no" v="Bentsjordbukta" />
		<tag k="name:se" v="Suollatvákkiluokta" />
=======
	<node id="-885482" lat="69.3532499969" lon="20.0364555466">
		<tag k="bay" v="fjord" />
		<tag k="name" v="Storfjorden - Omasvuotna - Isovuono" />
		<tag k="name:fkv" v="Isovuono" />
		<tag k="name:no" v="Storfjorden" />
		<tag k="name:se" v="Omasvuotna" />
>>>>>>> e1d4bc35ff8a6074a6f2e91616a996b547c36f15
		<tag k="natural" v="bay" />
		<tag k="ssr:stedsnr" v="201429" />
	</node>
<<<<<<< HEAD
	<node lat="69.40913333822502" lon="20.257816645304803" id="-41313">
		<tag k="name" v="Røykenesgrunnen" />
		<tag k="natural" v="shoal" />
		<tag k="place" v="locality" />
		<tag k="ssr:stedsnr" v="206949" />
	</node>
	<node lat="69.29622777781118" lon="19.96882221258731" id="-41320">
		<tag k="name" v="Bergenden - Báktegeahči - Pahanpää" />
		<tag k="name:fkv" v="Pahanpää" />
		<tag k="name:no" v="Bergenden" />
		<tag k="name:se" v="Báktegeahči" />
		<tag k="natural" v="cape" />
		<tag k="ssr:stedsnr" v="218364" />
	</node>
	<node lat="69.30211110824482" lon="19.98400832058774" id="-41331">
		<tag k="name" v="Guolbanvákkiluokta - Kuolpanvankanlahti" />
		<tag k="name:fkv" v="Kuolpanvankanlahti" />
		<tag k="name:se" v="Guolbanvákkiluokta" />
=======
	<node id="-885031" lat="69.3699138919" lon="20.135813863">
		<tag k="loc_name:se" v="Vuoksanjárga" />
		<tag k="name" v="Okseneset" />
		<tag k="name:no" v="Okseneset" />
		<tag k="natural" v="cape" />
		<tag k="ssr:stedsnr" v="236719" />
	</node>
	<node id="-886502" lat="69.3316194473" lon="20.021494434">
		<tag k="alt_name:no" v="Litlebukta" />
		<tag k="fixme" v="multiple name tags, choose one and add the other to alt_name" />
		<tag k="name" v="Lillebukta - Unnamohkki;Uhcaluokta - Pikkulahti" />
		<tag k="name:fkv" v="Pikkulahti" />
		<tag k="name:no" v="Lillebukta" />
		<tag k="name:se" v="Unnamohkki;Uhcaluokta" />
		<tag k="natural" v="bay" />
		<tag k="ssr:stedsnr" v="624426" />
	</node>
	<node id="-886490" lat="69.3884194455" lon="20.1116527599">
		<tag k="loc_name:se" v="Gipmiluokta" />
		<tag k="name" v="Bukta" />
		<tag k="name:no" v="Bukta" />
>>>>>>> e1d4bc35ff8a6074a6f2e91616a996b547c36f15
		<tag k="natural" v="bay" />
		<tag k="ssr:stedsnr" v="279360" />
	</node>
<<<<<<< HEAD
	<node lat="69.32798888645475" lon="19.972030534346008" id="-41426">
		<tag k="loc_name:se" v="Dántanjárga" />
		<tag k="name" v="Pantaneset" />
		<tag k="name:no" v="Pantaneset" />
		<tag k="natural" v="cape" />
		<tag k="ssr:stedsnr" v="358567" />
	</node>
	<node lat="69.2865111110683" lon="19.910958323124113" id="-41429">
		<tag k="name" v="Pederanjárga" />
		<tag k="name:se" v="Pederanjárga" />
		<tag k="natural" v="cape" />
		<tag k="ssr:stedsnr" v="358624" />
	</node>
	<node lat="69.44251666515214" lon="20.295683307076086" id="-41436">
		<tag k="loc_name:fkv" v="Larspahanhieta" />
		<tag k="name" v="Larsbergsanden" />
		<tag k="name:no" v="Larsbergsanden" />
=======
	<node id="-885199" lat="69.3474111073" lon="20.0602083193">
		<tag k="alt_name:no" v="Masternes" />
		<tag k="name" v="Masterneset - Sivlonjárga - Siuluniemi" />
		<tag k="name:fkv" v="Siuluniemi" />
		<tag k="name:no" v="Masterneset" />
		<tag k="name:se" v="Sivlonjárga" />
		<tag k="natural" v="cape" />
		<tag k="ssr:stedsnr" v="443060" />
	</node>
	<node id="-886522" lat="69.379825002" lon="20.0810805534">
		<tag k="alt_name:no" v="Ytre Selnes" />
		<tag k="name" v="Selnes - Sálljanjárga" />
		<tag k="name:no" v="Selnes" />
		<tag k="name:se" v="Sálljanjárga" />
		<tag k="natural" v="cape" />
		<tag k="ssr:stedsnr" v="625471" />
	</node>
	<node id="-885971" lat="69.3168277807" lon="19.9565749941">
		<tag k="name" v="Ytterneset" />
		<tag k="natural" v="cape" />
		<tag k="ssr:stedsnr" v="115553" />
	</node>
	<node id="-885953" lat="69.3838388896" lon="20.0993221958">
		<tag k="name" v="Buollángáddi" />
		<tag k="name:se" v="Buollángáddi" />
>>>>>>> e1d4bc35ff8a6074a6f2e91616a996b547c36f15
		<tag k="natural" v="beach" />
		<tag k="ssr:stedsnr" v="358993" />
	</node>
<<<<<<< HEAD
	<node lat="69.35349444151002" lon="20.077802755663953" id="-41473">
		<tag k="alt_name:no" v="Faddersneset" />
		<tag k="name" v="Faddasnes - Fáddásnjárga" />
		<tag k="name:no" v="Faddasnes" />
		<tag k="name:se" v="Fáddásnjárga" />
=======
	<node id="-885430" lat="69.3603500043" lon="20.00623331">
		<tag k="loc_name:se" v="Dávgonjárga" />
		<tag k="name" v="Davvoneset" />
		<tag k="name:no" v="Davvoneset" />
>>>>>>> e1d4bc35ff8a6074a6f2e91616a996b547c36f15
		<tag k="natural" v="cape" />
		<tag k="ssr:stedsnr" v="382452" />
	</node>
<<<<<<< HEAD
	<node lat="69.43176944365591" lon="20.27733886998113" id="-41495">
		<tag k="name" v="Aspenesgrunnen" />
		<tag k="natural" v="shoal" />
		<tag k="place" v="locality" />
		<tag k="ssr:stedsnr" v="388930" />
	</node>
	<node lat="69.3686527779228" lon="20.03741386834122" id="-41500">
		<tag k="name" v="Kvalneset" />
=======
	<node id="-885429" lat="69.288647221" lon="19.9607194193">
		<tag k="fixme" v="consider seamark:type=rock or natural=shoal" />
		<tag k="loc_name:se" v="Sehppageargi" />
		<tag k="name" v="Loddesteinen" />
		<tag k="name:no" v="Loddesteinen" />
		<tag k="place" v="islet" />
		<tag k="ssr:stedsnr" v="479604" />
	</node>
	<node id="-885428" lat="69.2935194461" lon="19.9185638809">
		<tag k="name" v="Kvalneset" />
		<tag k="natural" v="cape" />
		<tag k="ssr:stedsnr" v="479602" />
	</node>
	<node id="-885413" lat="69.3030250036" lon="19.9880722194">
		<tag k="loc_name:se" v="Fierahat" />
		<tag k="name" v="Vierikkø" />
		<tag k="name:no" v="Vierikkø" />
>>>>>>> e1d4bc35ff8a6074a6f2e91616a996b547c36f15
		<tag k="natural" v="cape" />
		<tag k="ssr:stedsnr" v="395871" />
	</node>
<<<<<<< HEAD
	<node lat="69.32638888930852" lon="19.96994721720964" id="-41521">
		<tag k="loc_name:se" v="Niillámohkki" />
		<tag k="name" v="Niilabukta" />
		<tag k="name:no" v="Niilabukta" />
		<tag k="natural" v="bay" />
		<tag k="ssr:stedsnr" v="419557" />
	</node>
	<node lat="69.34741110730329" lon="20.0602083193142" id="-41539">
		<tag k="alt_name:no" v="Masternes" />
		<tag k="name" v="Masterneset - Sivlonjárga - Siuluniemi" />
		<tag k="name:fkv" v="Siuluniemi" />
		<tag k="name:no" v="Masterneset" />
		<tag k="name:se" v="Sivlonjárga" />
=======
	<node id="-885412" lat="69.3152583319" lon="19.9547972174">
		<tag k="name" v="Sáttogárgu" />
		<tag k="name:se" v="Sáttogárgu" />
		<tag k="natural" v="beach" />
		<tag k="place" v="locality" />
		<tag k="ssr:stedsnr" v="661553" />
	</node>
	<node id="-886554" lat="69.4443055578" lon="20.3005749905">
		<tag k="name" v="Larsbergbukta - Lárasbáhmohkki - Larspahta" />
		<tag k="name:fkv" v="Larspahta" />
		<tag k="name:no" v="Larsbergbukta" />
		<tag k="name:se" v="Lárasbáhmohkki" />
		<tag k="natural" v="bay" />
		<tag k="ssr:stedsnr" v="746234" />
	</node>
	<node id="-885401" lat="69.3910444485" lon="20.1198944432">
		<tag k="name" v="Jossi" />
>>>>>>> e1d4bc35ff8a6074a6f2e91616a996b547c36f15
		<tag k="natural" v="cape" />
		<tag k="ssr:stedsnr" v="443060" />
	</node>
<<<<<<< HEAD
	<node lat="69.27060555296087" lon="19.924974995155207" id="-41540">
		<tag k="name" v="Taterneset - Guoskat" />
		<tag k="name:no" v="Taterneset" />
		<tag k="name:se" v="Guoskat" />
=======
	<node id="-885399" lat="69.401188886" lon="20.1433721997">
		<tag k="name" v="Neset" />
>>>>>>> e1d4bc35ff8a6074a6f2e91616a996b547c36f15
		<tag k="natural" v="cape" />
		<tag k="ssr:stedsnr" v="443064" />
	</node>
<<<<<<< HEAD
	<node lat="69.42521654944555" lon="20.274370708538346" id="-41556">
		<tag k="fixme" v="multiple name tags, choose one and add the other to alt_name" />
		<tag k="name" v="Røykenesbukta - Ruikatmohkki - Ruikkatanmukka;Vuoslahti" />
		<tag k="name:fkv" v="Ruikkatanmukka;Vuoslahti" />
		<tag k="name:no" v="Røykenesbukta" />
		<tag k="name:se" v="Ruikatmohkki" />
		<tag k="natural" v="bay" />
		<tag k="ssr:stedsnr" v="443273" />
	</node>
	<node lat="69.3210555542732" lon="20.01059720437176" id="-41564">
		<tag k="name" v="Slettneset - Gossal" />
		<tag k="name:no" v="Slettneset" />
		<tag k="name:se" v="Gossal" />
=======
	<node id="-885392" lat="69.428827776" lon="20.2767999734">
		<tag k="name" v="Aspeneset - Haapaniemi" />
		<tag k="name:fkv" v="Haapaniemi" />
		<tag k="name:no" v="Aspeneset" />
>>>>>>> e1d4bc35ff8a6074a6f2e91616a996b547c36f15
		<tag k="natural" v="cape" />
		<tag k="ssr:stedsnr" v="443436" />
	</node>
<<<<<<< HEAD
	<node lat="69.37799166564774" lon="20.252883323429575" id="-41586">
		<tag k="loc_name:se" v="Biehtarasuolu" />
		<tag k="name" v="Petterøya - Pietarinsaari" />
		<tag k="name:fkv" v="Pietarinsaari" />
		<tag k="name:no" v="Petterøya" />
		<tag k="place" v="islet" />
		<tag k="ssr:stedsnr" v="504434" />
	</node>
	<node lat="69.29471389219474" lon="19.96623330907431" id="-41597">
		<tag k="name" v="Sandneset - Sáttonjárga - Hietaniemi" />
		<tag k="name:fkv" v="Hietaniemi" />
		<tag k="name:no" v="Sandneset" />
		<tag k="name:se" v="Sáttonjárga" />
=======
	<node id="-885898" lat="69.4306499986" lon="20.2771944255">
		<tag k="name" v="Aspebukta - Suhpemohkki - Haapamukka" />
		<tag k="name:fkv" v="Haapamukka" />
		<tag k="name:no" v="Aspebukta" />
		<tag k="name:se" v="Suhpemohkki" />
		<tag k="natural" v="bay" />
		<tag k="ssr:stedsnr" v="79258" />
	</node>
	<node id="-886404" lat="69.4367250037" lon="20.284080542">
		<tag k="alt_name:no" v="Foraneset" />
		<tag k="name" v="Forraneset - Beahcenjárga - Petäjäniemi" />
		<tag k="name:fkv" v="Petäjäniemi" />
		<tag k="name:no" v="Forraneset" />
		<tag k="name:se" v="Beahcenjárga" />
>>>>>>> e1d4bc35ff8a6074a6f2e91616a996b547c36f15
		<tag k="natural" v="cape" />
		<tag k="ssr:stedsnr" v="504385" />
	</node>
<<<<<<< HEAD
	<node lat="69.3712361148829" lon="20.141661098773014" id="-41626">
=======
	<node id="-885373" lat="69.3712361149" lon="20.1416610988">
>>>>>>> e1d4bc35ff8a6074a6f2e91616a996b547c36f15
		<tag k="alt_name:no" v="Vassbergan" />
		<tag k="loc_name:se" v="Čáhcebávttit" />
		<tag k="name" v="Vassberget" />
		<tag k="name:no" v="Vassberget" />
		<tag k="natural" v="shoal" />
		<tag k="place" v="locality" />
		<tag k="ssr:stedsnr" v="509808" />
	</node>
<<<<<<< HEAD
	<node lat="69.38154444165512" lon="20.21268054462323" id="-41632">
=======
	<node id="-885267" lat="69.3861750017" lon="20.2580972156">
		<tag k="name" v="Okseneset - Heargenjárga - Härkäniemi" />
		<tag k="name:fkv" v="Härkäniemi" />
		<tag k="name:no" v="Okseneset" />
		<tag k="name:se" v="Heargenjárga" />
		<tag k="natural" v="cape" />
		<tag k="ssr:stedsnr" v="457923" />
	</node>
	<node id="-885861" lat="69.3655722234" lon="20.0208944255">
		<tag k="name" v="Muorranjárga" />
		<tag k="name:se" v="Muorranjárga" />
		<tag k="natural" v="cape" />
		<tag k="ssr:stedsnr" v="36365" />
	</node>
	<node id="-885345" lat="69.3779916656" lon="20.2528833234">
		<tag k="loc_name:se" v="Biehtarasuolu" />
		<tag k="name" v="Petterøya - Pietarinsaari" />
		<tag k="name:fkv" v="Pietarinsaari" />
		<tag k="name:no" v="Petterøya" />
		<tag k="place" v="islet" />
		<tag k="ssr:stedsnr" v="504434" />
	</node>
	<node id="-886366" lat="69.3815444417" lon="20.2126805446">
>>>>>>> e1d4bc35ff8a6074a6f2e91616a996b547c36f15
		<tag k="fixme" v="multiple name tags, choose one and add the other to alt_name" />
		<tag k="name" v="Døbukta - Sorbmeluokta;Ávdinluokta - Surmalahti" />
		<tag k="name:fkv" v="Surmalahti" />
		<tag k="name:no" v="Døbukta" />
		<tag k="name:se" v="Sorbmeluokta;Ávdinluokta" />
		<tag k="natural" v="bay" />
		<tag k="ssr:stedsnr" v="521331" />
	</node>
<<<<<<< HEAD
	<node lat="69.38547500243135" lon="20.183980531872223" id="-41649">
		<tag k="loc_name:se" v="Sáttunjárga" />
		<tag k="name" v="Sandneset" />
=======
	<node id="-885341" lat="69.2947138922" lon="19.9662333091">
		<tag k="name" v="Sandneset - Sáttonjárga - Hietaniemi" />
		<tag k="name:fkv" v="Hietaniemi" />
>>>>>>> e1d4bc35ff8a6074a6f2e91616a996b547c36f15
		<tag k="name:no" v="Sandneset" />
		<tag k="natural" v="cape" />
		<tag k="ssr:stedsnr" v="540227" />
	</node>
<<<<<<< HEAD
	<node lat="69.41851111434298" lon="20.259047210171573" id="-41664">
		<tag k="name" v="Sandneset" />
		<tag k="natural" v="cape" />
		<tag k="ssr:stedsnr" v="540996" />
	</node>
	<node lat="69.43662402305704" lon="20.284006139154826" id="-41674">
		<tag k="alt_name:no" v="Foraneset" />
		<tag k="name" v="Forraneset - Beahcenjárga - Petäjäniemi" />
		<tag k="name:fkv" v="Petäjäniemi" />
		<tag k="name:no" v="Forraneset" />
		<tag k="name:se" v="Beahcenjárga" />
		<tag k="natural" v="cape" />
		<tag k="ssr:stedsnr" v="564255" />
	</node>
	<node lat="69.38786388837268" lon="20.19453054899168" id="-41708">
		<tag k="loc_name:se" v="Falsnjárggabuođđu" />
		<tag k="name" v="Falsnesgrunnen" />
		<tag k="name:no" v="Falsnesgrunnen" />
		<tag k="natural" v="shoal" />
=======
	<node id="-885519" lat="69.3854750024" lon="20.1839805319">
		<tag k="loc_name:se" v="Sáttunjárga" />
		<tag k="name" v="Sandneset" />
		<tag k="name:no" v="Sandneset" />
		<tag k="natural" v="cape" />
		<tag k="ssr:stedsnr" v="540227" />
	</node>
	<node id="-885840" lat="69.3337388885" lon="19.9936027589">
		<tag k="loc_name:se" v="Goikeboađđu" />
		<tag k="name" v="Tørrgrunnen" />
		<tag k="name:no" v="Tørrgrunnen" />
		<tag k="natural" v="shoal" />
		<tag k="place" v="locality" />
		<tag k="ssr:stedsnr" v="24960" />
	</node>
	<node id="-885839" lat="69.3327277764" lon="20.0048972118">
		<tag k="name" v="Revet" />
>>>>>>> e1d4bc35ff8a6074a6f2e91616a996b547c36f15
		<tag k="place" v="locality" />
		<tag k="ssr:stedsnr" v="570829" />
	</node>
<<<<<<< HEAD
	<node lat="69.44536721955758" lon="20.300968908779375" id="-41709">
		<tag k="name" v="Larsberggrunnen - Larspahdansoro" />
		<tag k="name:fkv" v="Larspahdansoro" />
		<tag k="name:no" v="Larsberggrunnen" />
=======
	<node id="-885838" lat="69.3975305608" lon="20.1435666459">
		<tag k="loc_name:se" v="Čuolonjármáđđi" />
		<tag k="name" v="Landgrunnen" />
		<tag k="name:no" v="Landgrunnen" />
>>>>>>> e1d4bc35ff8a6074a6f2e91616a996b547c36f15
		<tag k="natural" v="shoal" />
		<tag k="place" v="locality" />
		<tag k="ssr:stedsnr" v="570933" />
	</node>
<<<<<<< HEAD
	<node lat="69.33460833873482" lon="19.981263865980274" id="-41721">
		<tag k="name" v="Kjellarbukta - Geallirluokta" />
		<tag k="name:no" v="Kjellarbukta" />
		<tag k="name:se" v="Geallirluokta" />
=======
	<node id="-886349" lat="69.4418916638" lon="20.2915444281">
		<tag k="name" v="Luhča" />
		<tag k="name:se" v="Luhča" />
>>>>>>> e1d4bc35ff8a6074a6f2e91616a996b547c36f15
		<tag k="natural" v="bay" />
		<tag k="ssr:stedsnr" v="582669" />
	</node>
<<<<<<< HEAD
	<node lat="69.37100000129644" lon="20.045269429819236" id="-41722">
		<tag k="name" v="Storengbukta - Roggeluokta" />
		<tag k="name:no" v="Storengbukta" />
		<tag k="name:se" v="Roggeluokta" />
		<tag k="natural" v="bay" />
		<tag k="ssr:stedsnr" v="582671" />
	</node>
	<node lat="69.30539167022042" lon="19.935697220375737" id="-41744">
		<tag k="name" v="Gohppenjárga" />
		<tag k="name:se" v="Gohppenjárga" />
		<tag k="natural" v="cape" />
		<tag k="ssr:stedsnr" v="600560" />
	</node>
	<node lat="69.3033888883808" lon="19.93244997461001" id="-41745">
		<tag k="name" v="Bukta" />
=======
	<node id="-886341" lat="69.3263888893" lon="19.9699472172">
		<tag k="loc_name:se" v="Niillámohkki" />
		<tag k="name" v="Niilabukta" />
		<tag k="name:no" v="Niilabukta" />
>>>>>>> e1d4bc35ff8a6074a6f2e91616a996b547c36f15
		<tag k="natural" v="bay" />
		<tag k="ssr:stedsnr" v="600563" />
	</node>
	<node lat="69.36475000096542" lon="20.024313869073758" id="-41746">
		<tag k="fixme" v="consider seamark:type=rock or natural=shoal" />
		<tag k="loc_name:se" v="Lássá" />
		<tag k="name" v="Skjæresteinen" />
		<tag k="name:no" v="Skjæresteinen" />
		<tag k="place" v="islet" />
		<tag k="ssr:stedsnr" v="600583" />
	</node>
	<node lat="69.38841944547043" lon="20.11165275993914" id="-41748">
		<tag k="loc_name:se" v="Gipmiluokta" />
		<tag k="name" v="Bukta" />
		<tag k="name:no" v="Bukta" />
		<tag k="natural" v="bay" />
		<tag k="ssr:stedsnr" v="600731" />
	</node>
	<node lat="69.37963977334702" lon="20.080892452946795" id="-41768">
		<tag k="alt_name:no" v="Ytre Selnes" />
		<tag k="name" v="Selnes - Sálljanjárga" />
		<tag k="name:no" v="Selnes" />
		<tag k="name:se" v="Sálljanjárga" />
		<tag k="natural" v="cape" />
		<tag k="ssr:stedsnr" v="625471" />
	</node>
	<node lat="69.38616202639302" lon="20.107193181217408" id="-41769">
		<tag k="alt_name:no" v="Solnes" />
		<tag k="name" v="Solneset - Gieddenjárga" />
		<tag k="name:no" v="Solneset" />
		<tag k="name:se" v="Gieddenjárga" />
		<tag k="natural" v="cape" />
		<tag k="ssr:stedsnr" v="625473" />
	</node>
	<node lat="69.28149722222378" lon="19.95898331211221" id="-41795">
		<tag k="name" v="Pieti-äijän mukka" />
		<tag k="name:fkv" v="Pieti-äijän mukka" />
		<tag k="natural" v="bay" />
		<tag k="ssr:stedsnr" v="642184" />
	</node>
	<node lat="69.31525833189153" lon="19.95479721737861" id="-41822">
		<tag k="name" v="Sáttogárgu" />
		<tag k="name:se" v="Sáttogárgu" />
		<tag k="natural" v="beach" />
		<tag k="ssr:stedsnr" v="661553" />
	</node>
	<node lat="69.30302500362892" lon="19.98807221938907" id="-41823">
		<tag k="loc_name:se" v="Fierahat" />
		<tag k="name" v="Vierikkø" />
		<tag k="name:no" v="Vierikkø" />
		<tag k="natural" v="cape" />
		<tag k="ssr:stedsnr" v="661559" />
	</node>
	<node lat="69.2637361092083" lon="19.89648331607733" id="-41852">
		<tag k="loc_name:se" v="Suoksanjárga" />
		<tag k="name" v="Gretteneset" />
		<tag k="name:no" v="Gretteneset" />
		<tag k="natural" v="cape" />
		<tag k="ssr:stedsnr" v="746396" />
	</node>
	<node lat="69.44430555775224" lon="20.300574990541723" id="-41859">
		<tag k="name" v="Larsbergbukta - Lárasbáhmohkki - Larspahta" />
		<tag k="name:fkv" v="Larspahta" />
		<tag k="name:no" v="Larsbergbukta" />
		<tag k="name:se" v="Lárasbáhmohkki" />
		<tag k="natural" v="bay" />
		<tag k="ssr:stedsnr" v="746234" />
	</node>
	<node lat="69.4154944411478" lon="20.258258311012725" id="-41861">
		<tag k="name" v="Røykeneset - Ruikat - Ruikkatanniemi" />
		<tag k="name:fkv" v="Ruikkatanniemi" />
		<tag k="name:no" v="Røykeneset" />
		<tag k="name:se" v="Ruikat" />
		<tag k="natural" v="cape" />
		<tag k="ssr:stedsnr" v="746265" />
	</node>
	<node id="-886453" lat="69.3878638884" lon="20.194530549">
		<tag k="loc_name:se" v="Falsnjárggabuođđu" />
		<tag k="name" v="Falsnesgrunnen" />
		<tag k="name:no" v="Falsnesgrunnen" />
		<tag k="natural" v="shoal" />
		<tag k="place" v="locality" />
		<tag k="ssr:stedsnr" v="570829" />
	</node>
	<node id="-886452" lat="69.3800638896" lon="20.2229361028">
		<tag k="name" v="Nállovuohppi - Nalluvuopio" />
		<tag k="name:fkv" v="Nalluvuopio" />
		<tag k="name:se" v="Nállovuohppi" />
		<tag k="natural" v="bay" />
		<tag k="ssr:stedsnr" v="570821" />
	</node>
	<node id="-885302" lat="69.3247750047" lon="20.0148722103">
		<tag k="loc_name:se" v="Grapenjárga" />
		<tag k="name" v="Grapeneset" />
		<tag k="name:se" v="Grapeneset" />
		<tag k="natural" v="cape" />
		<tag k="ssr:stedsnr" v="479559" />
	</node>
	<node id="-885854" lat="69.383913889" lon="20.1780833138">
		<tag k="name" v="Bergbukta - Bávttiluokta - Pahanlahti" />
		<tag k="name:fkv" v="Pahanlahti" />
		<tag k="name:no" v="Bergbukta" />
		<tag k="name:se" v="Bávttiluokta" />
		<tag k="natural" v="bay" />
		<tag k="ssr:stedsnr" v="36309" />
	</node>
	<node id="-885796" lat="69.3839361082" lon="20.2631111002">
		<tag k="name" v="Guosgatta" />
		<tag k="natural" v="cape" />
		<tag k="ssr:stedsnr" v="965115" />
	</node>
	<node id="-886304" lat="69.3686527779" lon="20.0374138683">
		<tag k="name" v="Kvalneset" />
		<tag k="natural" v="cape" />
		<tag k="ssr:stedsnr" v="395871" />
	</node>
	<node id="-886300" lat="69.4317694437" lon="20.27733887">
		<tag k="name" v="Aspenesgrunnen" />
		<tag k="natural" v="shoal" />
		<tag k="place" v="locality" />
		<tag k="ssr:stedsnr" v="388930" />
	</node>
	<node id="-886810" lat="69.4534736221" lon="20.3130908127">
		<tag k="name" v="Uhca Lárasbáhmohkáš" />
		<tag k="name:se" v="Uhca Lárasbáhmohkáš" />
		<tag k="natural" v="bay" />
		<tag k="ssr:stedsnr" v="991064" />
	</node>
	<node id="-885269" lat="69.3342055521" lon="20.0241638712">
		<tag k="alt_name:no" v="Salmenes" />
		<tag k="name" v="Salmeneset - Čoalmminjárga - Salminiemi" />
		<tag k="name:fkv" v="Salminiemi" />
		<tag k="name:no" v="Salmeneset" />
		<tag k="name:se" v="Čoalmminjárga" />
		<tag k="natural" v="cape" />
		<tag k="ssr:stedsnr" v="458293" />
	</node>
	<node id="-885780" lat="69.3998500003" lon="20.2532194355">
		<tag k="alt_name" v="Skibotnbukt" />
		<tag k="name" v="Skibotnbukta" />
		<tag k="natural" v="bay" />
		<tag k="ssr:stedsnr" v="928435" />
	</node>
	<node id="-885779" lat="69.3068638894" lon="19.9914444294">
		<tag k="name" v="Storsteinbukta - Stuorageađgemohkki - Isonkivenmukka" />
		<tag k="name:fkv" v="Isonkivenmukka" />
		<tag k="name:no" v="Storsteinbukta" />
		<tag k="name:se" v="Stuorageađgemohkki" />
		<tag k="natural" v="bay" />
		<tag k="ssr:stedsnr" v="928408" />
	</node>
	<node id="-885261" lat="69.3915972246" lon="20.1588249819">
		<tag k="loc_name:se" v="Čuolonjárboađđu" />
		<tag k="name" v="Rastebynesgrunnen" />
		<tag k="name:no" v="Rastebynesgrunnen" />
		<tag k="natural" v="shoal" />
		<tag k="place" v="locality" />
		<tag k="ssr:stedsnr" v="449792" />
	</node>
	<node id="-886274" lat="69.3534944415" lon="20.0778027557">
		<tag k="alt_name:no" v="Faddersneset" />
		<tag k="name" v="Faddasnes - Fáddásnjárga" />
		<tag k="name:no" v="Faddasnes" />
		<tag k="name:se" v="Fáddásnjárga" />
		<tag k="natural" v="cape" />
		<tag k="ssr:stedsnr" v="382452" />
	</node>
	<node id="-885767" lat="69.3773611139" lon="20.2606638747">
		<tag k="name" v="Littineset" />
		<tag k="natural" v="cape" />
		<tag k="ssr:stedsnr" v="904121" />
	</node>
	<node id="-885762" lat="69.2846916653" lon="19.9115055393">
		<tag k="name" v="Gáicaluokta" />
		<tag k="name:se" v="Gáicaluokta" />
		<tag k="natural" v="bay" />
		<tag k="ssr:stedsnr" v="885368" />
	</node>
</osm>
