<?xml version="1.0" encoding="UTF-8"?>
<osm version="0.6" generator="osmapis">
	<node lat="69.28219167063367" lon="20.44096665980924" id="-32901">
		<tag k="name" v="Gustavslåtta" />
		<tag k="place" v="locality" />
		<tag k="ssr:stedsnr" v="18646" />
	</node>
	<node lat="69.3247305566601" lon="19.83202498619368" id="-32903">
		<tag k="name" v="Langemyra" />
		<tag k="natural" v="wetland" />
		<tag k="ssr:stedsnr" v="19405" />
	</node>
	<node lat="69.36039721894223" lon="20.26411665207923" id="-32914">
		<tag k="fixme" v="multiple name tags, choose one and add the other to alt_name" />
		<tag k="name" v="Hiirihaasiobakken - Hiirihaasio;Hiirihaasiontörmä" />
		<tag k="name:fkv" v="Hiirihaasio;Hiirihaasiontörmä" />
		<tag k="name:no" v="Hiirihaasiobakken" />
		<tag k="place" v="locality" />
		<tag k="ssr:stedsnr" v="36103" />
	</node>
	<node lat="69.3623333304746" lon="20.110588880083704" id="-32916">
		<tag k="historic" v="shieling" />
		<tag k="name" v="Dáččagieddi" />
		<tag k="name:se" v="Dáččagieddi" />
		<tag k="place" v="locality" />
		<tag k="ssr:stedsnr" v="36302" />
	</node>
	<node lat="69.23500555797374" lon="19.958355542643183" id="-32928">
		<tag k="name" v="Dreyerstykket" />
		<tag k="place" v="locality" />
		<tag k="ssr:stedsnr" v="236454" />
	</node>
	<node lat="69.3505194411094" lon="20.390283309816887" id="-32933">
		<tag k="name" v="Margareteniitty" />
		<tag k="name:fkv" v="Margareteniitty" />
		<tag k="place" v="locality" />
		<tag k="ssr:stedsnr" v="237022" />
	</node>
	<node lat="69.33298333555341" lon="19.937616642672022" id="-32943">
		<tag k="loc_name:se" v="Stuorjuovva" />
		<tag k="name" v="Storura" />
		<tag k="name:no" v="Storura" />
		<tag k="natural" v="scree" />
		<tag k="ssr:stedsnr" v="237561" />
	</node>
	<node lat="69.34748333272722" lon="20.080049992400628" id="-32946">
		<tag k="loc_name:se" v="Reahpennjárggajeakkit" />
		<tag k="name" v="Reppenesmyran" />
		<tag k="name:no" v="Reppenesmyran" />
		<tag k="natural" v="wetland" />
		<tag k="ssr:stedsnr" v="237744" />
	</node>
	<node lat="69.21361389333192" lon="19.97475554925122" id="-32957">
		<tag k="name" v="Gjerdmyra" />
		<tag k="natural" v="wetland" />
		<tag k="ssr:stedsnr" v="54507" />
	</node>
	<node lat="69.37018889028207" lon="20.29552497921718" id="-32993">
		<tag k="name" v="Leppäjänkkä" />
		<tag k="name:fkv" v="Leppäjänkkä" />
		<tag k="natural" v="wetland" />
		<tag k="ssr:stedsnr" v="97160" />
	</node>
	<node lat="69.34066388698884" lon="19.957152758831214" id="-33001">
		<tag k="name" v="Čuohpaga" />
		<tag k="name:se" v="Čuohpaga" />
		<tag k="place" v="locality" />
		<tag k="ssr:stedsnr" v="115522" />
	</node>
	<node lat="69.20314166276204" lon="19.967677773091804" id="-33031">
		<tag k="name" v="Luhppujeaggi" />
		<tag k="name:se" v="Luhppujeaggi" />
		<tag k="natural" v="wetland" />
		<tag k="ssr:stedsnr" v="261342" />
	</node>
	<node lat="69.33314167217601" lon="20.39831386565672" id="-33084">
		<tag k="name" v="Stolpemyra" />
		<tag k="natural" v="wetland" />
		<tag k="ssr:stedsnr" v="200416" />
	</node>
	<node lat="69.38967499666296" lon="20.312544423810515" id="-33089">
		<tag k="alt_name:no" v="Melkeloftmyran" />
		<tag k="name" v="Melkeloftmyra - Maitolohanjänkkä" />
		<tag k="name:fkv" v="Maitolohanjänkkä" />
		<tag k="name:no" v="Melkeloftmyra" />
		<tag k="natural" v="wetland" />
		<tag k="ssr:stedsnr" v="200511" />
	</node>
	<node lat="69.3666722183707" lon="20.276008326081918" id="-33110">
		<tag k="name" v="Apajasteinen" />
		<tag k="natural" v="stone" />
		<tag k="ssr:stedsnr" v="237006" />
	</node>
	<node lat="69.24645833580226" lon="19.931958311838848" id="-33116">
		<tag k="name" v="Dimbbardievvajeaggi" />
		<tag k="name:se" v="Dimbbardievvajeaggi" />
		<tag k="natural" v="wetland" />
		<tag k="ssr:stedsnr" v="237581" />
	</node>
	<node lat="69.35657778091996" lon="20.27451664163173" id="-33131">
		<tag k="historic" v="shieling" />
		<tag k="name" v="Fossevollen - Koskenkenttä" />
		<tag k="name:fkv" v="Koskenkenttä" />
		<tag k="name:no" v="Fossevollen" />
		<tag k="place" v="locality" />
		<tag k="ssr:stedsnr" v="279127" />
	</node>
	<node lat="69.34086944405601" lon="19.934891665773446" id="-33132">
		<tag k="name" v="Stállogeađgi" />
		<tag k="name:se" v="Stállogeađgi" />
		<tag k="natural" v="stone" />
		<tag k="ssr:stedsnr" v="279386" />
	</node>
	<node lat="69.34333611494469" lon="20.309099996634533" id="-33138">
		<tag k="name" v="Kuokkirova" />
		<tag k="name:fkv" v="Kuokkirova" />
		<tag k="place" v="locality" />
		<tag k="ssr:stedsnr" v="461395" />
	</node>
	<node lat="69.3649222272142" lon="20.377083309195182" id="-33159">
		<tag k="name" v="Suoidneorda - Suoinuorta" />
		<tag k="name:fkv" v="Suoinuorta" />
		<tag k="name:se" v="Suoidneorda" />
		<tag k="place" v="locality" />
		<tag k="ssr:stedsnr" v="334053" />
	</node>
	<node lat="69.39103055164401" lon="20.282866651633896" id="-33160">
		<tag k="historic" v="shieling" />
		<tag k="name" v="Lillevollen - Pikkukenttä" />
		<tag k="name:fkv" v="Pikkukenttä" />
		<tag k="name:no" v="Lillevollen" />
		<tag k="place" v="locality" />
		<tag k="ssr:stedsnr" v="334801" />
	</node>
	<node lat="69.37826111177954" lon="20.049574986508812" id="-33163">
		<tag k="name" v="Stuorajuovva" />
		<tag k="name:se" v="Stuorajuovva" />
		<tag k="natural" v="scree" />
		<tag k="ssr:stedsnr" v="339896" />
	</node>
	<node lat="69.26291111209079" lon="19.885413873271325" id="-33166">
		<tag k="loc_name:se" v="Ruksesgeargi" />
		<tag k="name" v="Rødsteinen" />
		<tag k="name:no" v="Rødsteinen" />
		<tag k="natural" v="stone" />
		<tag k="ssr:stedsnr" v="357409" />
	</node>
	<node lat="69.27170277606577" lon="19.901016655817237" id="-33167">
		<tag k="loc_name:se" v="Reašši" />
		<tag k="name" v="Mælleira" />
		<tag k="name:no" v="Mælleira" />
		<tag k="place" v="locality" />
		<tag k="ssr:stedsnr" v="357418" />
	</node>
	<node lat="69.25555000026915" lon="19.906844423923367" id="-33178">
		<tag k="loc_name:se" v="Liissájeaggi" />
		<tag k="name" v="Stormyra" />
		<tag k="name:no" v="Stormyra" />
		<tag k="natural" v="wetland" />
		<tag k="ssr:stedsnr" v="478393" />
	</node>
	<node lat="69.39529721918781" lon="20.31099998328712" id="-33184">
		<tag k="name" v="Sennemyra" />
		<tag k="natural" v="wetland" />
		<tag k="ssr:stedsnr" v="479096" />
	</node>
	<node lat="69.27310555364234" lon="20.144755542858764" id="-33199">
		<tag k="name" v="Didnojiehkki" />
		<tag k="name:se" v="Didnojiehkki" />
		<tag k="natural" v="glacier" />
		<tag k="ssr:stedsnr" v="382402" />
	</node>
	<node lat="69.3114638932222" lon="20.391202756685125" id="-33203">
		<tag k="name" v="Rattumælen - Rattumella" />
		<tag k="name:fkv" v="Rattumella" />
		<tag k="name:no" v="Rattumælen" />
		<tag k="place" v="locality" />
		<tag k="ssr:stedsnr" v="395386" />
	</node>
	<node lat="69.38711945005588" lon="20.267252752120704" id="-33204">
		<tag k="name" v="Markedskogen - Márkanroavvi - Markkinarova" />
		<tag k="name:fkv" v="Markkinarova" />
		<tag k="name:no" v="Markedskogen" />
		<tag k="name:se" v="Márkanroavvi" />
		<tag k="place" v="locality" />
		<tag k="ssr:stedsnr" v="396982" />
	</node>
	<node lat="69.37104722371743" lon="20.0336583171291" id="-33211">
		<tag k="name" v="Rundskogen - Jorbarohtu" />
		<tag k="name:no" v="Rundskogen" />
		<tag k="name:se" v="Jorbarohtu" />
		<tag k="place" v="locality" />
		<tag k="ssr:stedsnr" v="400930" />
	</node>
	<node lat="69.26990000274131" lon="19.90700554163154" id="-33215">
		<tag k="loc_name:se" v="Vancagárgu" />
		<tag k="name" v="Båtøra" />
		<tag k="name:no" v="Båtøra" />
		<tag k="place" v="locality" />
		<tag k="ssr:stedsnr" v="418389" />
	</node>
	<node lat="69.40227500315045" lon="20.288616660800415" id="-33219">
		<tag k="name" v="Brentemyra" />
		<tag k="natural" v="wetland" />
		<tag k="ssr:stedsnr" v="419104" />
	</node>
	<node lat="69.38356944240435" lon="20.343874977143827" id="-33222">
		<tag k="name" v="Šleađđugieddi" />
		<tag k="name:se" v="Šleađđugieddi" />
		<tag k="place" v="locality" />
		<tag k="ssr:stedsnr" v="419986" />
	</node>
	<node lat="69.40339166231138" lon="20.283308324655685" id="-33247">
		<tag k="name" v="Skierpijeaggi" />
		<tag k="name:se" v="Skierpijeaggi" />
		<tag k="natural" v="wetland" />
		<tag k="ssr:stedsnr" v="479077" />
	</node>
	<node lat="69.22419999702244" lon="19.964708311429128" id="-33254">
		<tag k="loc_name:se" v="Mihkkalalájut" />
		<tag k="name" v="Mikalslåtten" />
		<tag k="name:no" v="Mikalslåtten" />
		<tag k="place" v="locality" />
		<tag k="ssr:stedsnr" v="479478" />
	</node>
	<node lat="69.15951389054314" lon="20.763449985799568" id="-33259">
		<tag k="name" v="Perskogen - Pierarohtu" />
		<tag k="name:no" v="Perskogen" />
		<tag k="name:se" v="Pierarohtu" />
		<tag k="place" v="locality" />
		<tag k="ssr:stedsnr" v="479907" />
	</node>
	<node lat="69.19428055837727" lon="20.713513859077356" id="-33275">
		<tag k="name" v="Basevuovdi" />
		<tag k="name:se" v="Basevuovdi" />
		<tag k="place" v="locality" />
		<tag k="ssr:stedsnr" v="505967" />
	</node>
	<node lat="69.37118889162949" lon="20.02094166393161" id="-33280">
		<tag k="name" v="Bumbasteinen - Bumbágeađgi" />
		<tag k="name:no" v="Bumbasteinen" />
		<tag k="name:se" v="Bumbágeađgi" />
		<tag k="natural" v="stone" />
		<tag k="ssr:stedsnr" v="521915" />
	</node>
	<node lat="69.33316111516324" lon="20.353530546985198" id="-33283">
		<tag k="name" v="Brennfjellmyra - Puolamavaaranjänkkä" />
		<tag k="name:fkv" v="Puolamavaaranjänkkä" />
		<tag k="name:no" v="Brennfjellmyra" />
		<tag k="natural" v="wetland" />
		<tag k="ssr:stedsnr" v="685391" />
	</node>
	<node lat="69.35247222676188" lon="20.253816648092823" id="-33320">
		<tag k="name" v="Dommajeaggi" />
		<tag k="name:se" v="Dommajeaggi" />
		<tag k="natural" v="wetland" />
		<tag k="ssr:stedsnr" v="540003" />
	</node>
	<node lat="69.39701110764622" lon="20.29332498929493" id="-33321">
		<tag k="name" v="Kanuttamyra" />
		<tag k="natural" v="wetland" />
		<tag k="ssr:stedsnr" v="540114" />
	</node>
	<node lat="69.32584256246045" lon="20.340831322604505" id="-33363">
		<tag k="alt_name:no" v="Kvitli" />
		<tag k="historic" v="shieling" />
		<tag k="name" v="Kvitlia - Guvgesloapmi - Kuukisloma" />
		<tag k="name:fkv" v="Kuukisloma" />
		<tag k="name:no" v="Kvitlia" />
		<tag k="name:se" v="Guvgesloapmi" />
		<tag k="place" v="locality" />
		<tag k="ssr:stedsnr" v="581343" />
	</node>
	<node lat="69.2613055558184" lon="19.94831109335351" id="-33364">
		<tag k="name" v="Turvejänkkä" />
		<tag k="name:fkv" v="Turvejänkkä" />
		<tag k="natural" v="wetland" />
		<tag k="ssr:stedsnr" v="582210" />
	</node>
	<node lat="69.39688888969965" lon="20.298166655033146" id="-33369">
		<tag k="name" v="Langmyra" />
		<tag k="natural" v="wetland" />
		<tag k="ssr:stedsnr" v="600103" />
	</node>
	<node lat="69.23576111401319" lon="19.95854443151828" id="-33374">
		<tag k="name" v="Olderskogen" />
		<tag k="place" v="locality" />
		<tag k="ssr:stedsnr" v="600459" />
	</node>
	<node lat="69.44605555657613" lon="20.305774991980048" id="-33378">
		<tag k="name" v="Hellaren" />
		<tag k="natural" v="stone" />
		<tag k="ssr:stedsnr" v="600998" />
	</node>
	<node lat="69.25097469362251" lon="19.940470198258733" id="-33387">
		<tag k="name" v="Stormyra - Stuorajeaggi - Isojänkkä" />
		<tag k="name:fkv" v="Isojänkkä" />
		<tag k="name:no" v="Stormyra" />
		<tag k="name:se" v="Stuorajeaggi" />
		<tag k="natural" v="wetland" />
		<tag k="ssr:stedsnr" v="625556" />
	</node>
	<node lat="69.37129166665152" lon="20.34889997295528" id="-33389">
		<tag k="name" v="Nallujänkkä" />
		<tag k="name:fkv" v="Nallujänkkä" />
		<tag k="natural" v="wetland" />
		<tag k="ssr:stedsnr" v="703199" />
	</node>
	<node lat="69.39425278034504" lon="20.3140638844386" id="-33404">
		<tag k="name" v="Langmyra" />
		<tag k="natural" v="wetland" />
		<tag k="ssr:stedsnr" v="661088" />
	</node>
	<node lat="69.33890833677717" lon="19.96678609574038" id="-33405">
		<tag k="landuse" v="meadow" />
		<tag k="name" v="Fiervágieddi" />
		<tag k="name:se" v="Fiervágieddi" />
		<tag k="ssr:stedsnr" v="661510" />
	</node>
	<node lat="69.38182500281059" lon="20.356969427452718" id="-33434">
		<tag k="name" v="Šleađđu - Sleetu" />
		<tag k="name:fkv" v="Sleetu" />
		<tag k="name:se" v="Šleađđu" />
		<tag k="place" v="locality" />
		<tag k="ssr:stedsnr" v="698874" />
	</node>
	<node lat="69.36053055649704" lon="20.27443332626847" id="-33438">
		<tag k="loc_name:no" v="Fossemelen" />
		<tag k="name" v="Fossemælen - Koskenmella" />
		<tag k="name:fkv" v="Koskenmella" />
		<tag k="name:no" v="Fossemælen" />
		<tag k="place" v="locality" />
		<tag k="ssr:stedsnr" v="703115" />
	</node>
	<node lat="69.35709166909498" lon="20.248319437228055" id="-33439">
		<tag k="name" v="Aspeskogen - Haapamettä" />
		<tag k="name:fkv" v="Haapamettä" />
		<tag k="name:no" v="Aspeskogen" />
		<tag k="place" v="locality" />
		<tag k="ssr:stedsnr" v="703121" />
	</node>
	<node lat="69.24390555980862" lon="20.026991642306285" id="-33442">
		<tag k="name" v="Paharuto" />
		<tag k="name:fkv" v="Paharuto" />
		<tag k="place" v="locality" />
		<tag k="ssr:stedsnr" v="703511" />
	</node>
	<node lat="69.35896944559512" lon="20.319544420994312" id="-33489">
		<tag k="name" v="Suonjujeaggi - Suoinunjänkkä" />
		<tag k="name:fkv" v="Suoinunjänkkä" />
		<tag k="name:se" v="Suonjujeaggi" />
		<tag k="natural" v="wetland" />
		<tag k="ssr:stedsnr" v="759047" />
	</node>
	<node lat="69.37979444946865" lon="20.02570831686095" id="-33524">
		<tag k="name" v="Fierahat" />
		<tag k="name:se" v="Fierahat" />
		<tag k="natural" v="scree" />
		<tag k="ssr:stedsnr" v="825972" />
	</node>
	<node lat="69.37372777754484" lon="20.277424985545384" id="-33531">
		<tag k="name" v="Gunnarskogen" />
		<tag k="place" v="locality" />
		<tag k="ssr:stedsnr" v="844989" />
	</node>
	<node lat="69.09122500031054" lon="21.045883313421886" id="-33567">
		<tag k="name" v="Buolvirrohtu" />
		<tag k="name:se" v="Buolvirrohtu" />
		<tag k="natural" v="wetland" />
		<tag k="ssr:stedsnr" v="929531" />
	</node>
	<node lat="69.06670833472499" lon="20.549374971175094" id="-33578">
		<tag k="name" v="Golddajeakkit" />
		<tag k="name:se" v="Golddajeakkit" />
		<tag k="natural" v="wetland" />
		<tag k="ssr:stedsnr" v="869580" />
	</node>
	<node lat="69.401463003967" lon="20.31177402676959" id="-33606">
		<tag k="name" v="Liigevuopmi - Liikavuoma" />
		<tag k="name:fkv" v="Liikavuoma" />
		<tag k="name:se" v="Liigevuopmi" />
		<tag k="place" v="locality" />
		<tag k="ssr:stedsnr" v="929460" />
	</node>
	<node lat="69.3857249992283" lon="20.290155539893373" id="-33622">
		<tag k="name" v="Gállokenttä" />
		<tag k="name:fkv" v="Gállokenttä" />
		<tag k="place" v="locality" />
		<tag k="ssr:stedsnr" v="965116" />
	</node>
	<node lat="69.3411944424722" lon="19.942547206831755" id="-33624">
		<tag k="name" v="Čolperskogen" />
		<tag k="place" v="locality" />
		<tag k="ssr:stedsnr" v="965536" />
	</node>
	<node lat="69.2378027802485" lon="20.09458054053071" id="-33645">
		<tag k="name" v="Dámpageađgi" />
		<tag k="name:se" v="Dámpageađgi" />
		<tag k="natural" v="stone" />
		<tag k="ssr:stedsnr" v="18329" />
	</node>
	<node lat="69.21492777771957" lon="20.205080540278992" id="-33657">
		<tag k="name" v="Skankemyra" />
		<tag k="natural" v="wetland" />
		<tag k="ssr:stedsnr" v="19348" />
	</node>
	<node lat="69.34250000261386" lon="20.324366648621744" id="-33680">
		<tag k="name" v="Eevinjänkkä" />
		<tag k="name:fkv" v="Eevinjänkkä" />
		<tag k="natural" v="wetland" />
		<tag k="ssr:stedsnr" v="36551" />
	</node>
	<node lat="69.38628055267567" lon="19.99468609737187" id="-33682">
		<tag k="name" v="Heastageađgi" />
		<tag k="name:se" v="Heastageađgi" />
		<tag k="natural" v="stone" />
		<tag k="ssr:stedsnr" v="36952" />
	</node>
	<node lat="69.33374166989064" lon="19.840324979521757" id="-33685">
		<tag k="name" v="Kivvokenttä" />
		<tag k="name:fkv" v="Kivvokenttä" />
		<tag k="natural" v="wetland" />
		<tag k="ssr:stedsnr" v="54390" />
	</node>
	<node lat="69.36244722437972" lon="20.273555550424383" id="-33692">
		<tag k="name" v="Balloskogen" />
		<tag k="place" v="locality" />
		<tag k="ssr:stedsnr" v="55234" />
	</node>
	<node lat="69.32911388553384" lon="20.451180544318746" id="-33703">
		<tag k="name" v="Bjørnskogen" />
		<tag k="place" v="locality" />
		<tag k="ssr:stedsnr" v="79080" />
	</node>
	<node lat="69.37479444380348" lon="20.156727752314204" id="-33716">
		<tag k="name" v="Kløvenstein - Luoddanangeađgi - Halkeamankivi" />
		<tag k="name:fkv" v="Halkeamankivi" />
		<tag k="name:no" v="Kløvenstein" />
		<tag k="name:se" v="Luoddanangeađgi" />
		<tag k="natural" v="stone" />
		<tag k="ssr:stedsnr" v="79420" />
	</node>
</osm>
