<?xml version="1.0" encoding="UTF-8"?>
<<<<<<< HEAD
<osm version="0.6" generator="osmapis">
	<node lat="69.21020000122682" lon="19.969463864642716" id="-40341">
		<tag k="name" v="Fiskegammen" />
		<tag k="place" v="locality" />
		<tag k="ssr:stedsnr" v="236461" />
	</node>
	<node lat="69.27222499709815" lon="19.94700555306736" id="-40498">
=======
<osm generator="osmapis" version="0.6">
	<node id="-886104" lat="69.2722249971" lon="19.9470055531">
>>>>>>> e1d4bc35ff8a6074a6f2e91616a996b547c36f15
		<tag k="amenity" v="place_of_worship" />
		<tag k="denomination" v="lutheran" />
		<tag k="name" v="Storfjord" />
		<tag k="religion" v="christian" />
		<tag k="ssr:stedsnr" v="200401" />
	</node>
<<<<<<< HEAD
	<node lat="69.38184721879098" lon="20.265319427070207" id="-40878">
=======
	<node id="-885766" lat="69.3818472188" lon="20.2653194271">
>>>>>>> e1d4bc35ff8a6074a6f2e91616a996b547c36f15
		<tag k="name" v="Laplassen" />
		<tag k="place" v="locality" />
		<tag k="ssr:stedsnr" v="904112" />
	</node>
<<<<<<< HEAD
=======
	<node id="-885030" lat="69.2102000012" lon="19.9694638646">
		<tag k="name" v="Fiskegammen" />
		<tag k="place" v="locality" />
		<tag k="ssr:stedsnr" v="236461" />
	</node>
>>>>>>> e1d4bc35ff8a6074a6f2e91616a996b547c36f15
</osm>
