<?xml version="1.0" encoding="UTF-8"?>
<osm version="0.6" generator="osmapis">
	<node lat="69.15684999739472" lon="19.97458609825086" id="-32899">
		<tag k="name" v="Signalneselva - Čiekŋaljávrrejohka" />
		<tag k="name:no" v="Signalneselva" />
		<tag k="name:se" v="Čiekŋaljávrrejohka" />
		<tag k="ssr:stedsnr" v="18273" />
		<tag k="waterway" v="stream" />
	</node>
	<node lat="69.12612777575654" lon="20.620749980439065" id="-32906">
		<tag k="name" v="Guhkesjávri" />
		<tag k="name:se" v="Guhkesjávri" />
		<tag k="natural" v="water" />
		<tag k="ssr:stedsnr" v="19937" />
		<tag k="water" v="lake" />
	</node>
	<node lat="69.30616389181485" lon="20.39056386990349" id="-32911">
		<tag k="name" v="Ahonlauttauspaikka" />
		<tag k="name:fkv" v="Ahonlauttauspaikka" />
		<tag k="natural" v="beach" />
		<tag k="ssr:stedsnr" v="31364" />
	</node>
	<node lat="69.40179722052294" lon="19.99265833162908" id="-32920">
		<tag k="name" v="Jorbajávri" />
		<tag k="name:se" v="Jorbajávri" />
		<tag k="natural" v="water" />
		<tag k="ssr:stedsnr" v="36362" />
	</node>
	<node lat="69.32235000196846" lon="19.835097222722837" id="-32926">
		<tag k="name" v="Rypdalselva" />
		<tag k="ssr:stedsnr" v="236372" />
		<tag k="waterway" v="stream" />
	</node>
	<node lat="69.40873611123361" lon="20.120572219704243" id="-32930">
		<tag k="name" v="Elijávri" />
		<tag k="name:se" v="Elijávri" />
		<tag k="natural" v="water" />
		<tag k="ssr:stedsnr" v="237740" />
	</node>
	<node lat="69.33131388943751" lon="20.328322213165386" id="-32932">
		<tag k="name" v="Putaansaari" />
		<tag k="name:fkv" v="Putaansaari" />
		<tag k="place" v="islet" />
		<tag k="ssr:stedsnr" v="237038" />
	</node>
	<node lat="69.37536388675798" lon="20.2701194322841" id="-32934">
		<tag k="name" v="Bekkoholmen" />
		<tag k="natural" v="cape" />
		<tag k="ssr:stedsnr" v="237126" />
	</node>
	<node lat="69.35298055541814" lon="19.980244441763375" id="-32945">
		<tag k="name" v="Njirran" />
		<tag k="name:se" v="Njirran" />
		<tag k="ssr:stedsnr" v="237637" />
		<tag k="waterway" v="stream" />
	</node>
	<node lat="69.42405000261407" lon="20.30628053125606" id="-32949">
		<tag k="name" v="Lomvatnet" />
		<tag k="natural" v="water" />
		<tag k="ssr:stedsnr" v="237999" />
	</node>
	<node lat="69.19277499792766" lon="19.980152775521546" id="-32952">
		<tag k="name" v="Kassholmen" />
		<tag k="place" v="islet" />
		<tag k="ssr:stedsnr" v="54401" />
	</node>
	<node lat="69.18089444371027" lon="19.97019442456632" id="-32954">
		<tag k="name" v="Skredbekken" />
		<tag k="ssr:stedsnr" v="54373" />
		<tag k="waterway" v="stream" />
	</node>
	<node lat="69.21391389235467" lon="19.96512219750966" id="-32958">
		<tag k="name" v="Lilleelva" />
		<tag k="ssr:stedsnr" v="54513" />
		<tag k="waterway" v="stream" />
	</node>
	<node lat="69.37307499669312" lon="20.269461099127454" id="-32959">
		<tag k="name" v="Hundhalsøra" />
		<tag k="natural" v="cape" />
		<tag k="ssr:stedsnr" v="55119" />
	</node>
	<node lat="69.23602777425171" lon="20.088208311783347" id="-32963">
		<tag k="name" v="Holmen" />
		<tag k="place" v="islet" />
		<tag k="ssr:stedsnr" v="55678" />
	</node>
	<node lat="69.39624444255442" lon="20.271852767943994" id="-32990">
		<tag k="name" v="Ronkanjoki" />
		<tag k="name:fkv" v="Ronkanjoki" />
		<tag k="ssr:stedsnr" v="92985" />
		<tag k="waterway" v="stream" />
	</node>
	<node lat="69.35507499909465" lon="20.242416660577188" id="-32999">
		<tag k="name" v="Gamskogelva" />
		<tag k="ssr:stedsnr" v="115016" />
		<tag k="waterway" v="stream" />
	</node>
	<node lat="69.15330000173776" lon="20.09470553397435" id="-33008">
		<tag k="name" v="Tverrelva" />
		<tag k="ssr:stedsnr" v="139307" />
		<tag k="waterway" v="stream" />
	</node>
	<node lat="69.11381666913302" lon="20.233211107473934" id="-33010">
		<tag k="alt_name:no" v="Markuselva, indre" />
		<tag k="name" v="Indre Markuselva - Márkosvádjajohka" />
		<tag k="name:no" v="Indre Markuselva" />
		<tag k="name:se" v="Márkosvádjajohka" />
		<tag k="ssr:stedsnr" v="139294" />
		<tag k="waterway" v="stream" />
	</node>
	<node lat="69.27668055712661" lon="19.877349993970483" id="-33011">
		<tag k="name" v="Akeelva - Áhkejohka" />
		<tag k="name:no" v="Akeelva" />
		<tag k="name:se" v="Áhkejohka" />
		<tag k="ssr:stedsnr" v="139407" />
		<tag k="waterway" v="stream" />
	</node>
	<node lat="69.38053611370722" lon="20.02573887240871" id="-33013">
		<tag k="name" v="Gobijohka" />
		<tag k="name:se" v="Gobijohka" />
		<tag k="ssr:stedsnr" v="139505" />
		<tag k="waterway" v="stream" />
	</node>
	<node lat="69.07788611517962" lon="20.119224974475213" id="-33015">
		<tag k="name" v="Skjærbekken" />
		<tag k="ssr:stedsnr" v="142457" />
		<tag k="waterway" v="stream" />
	</node>
	<node lat="69.0901750015012" lon="20.126197217762478" id="-33022">
		<tag k="name" v="Skredbekken - Čáŋahatjohka" />
		<tag k="name:no" v="Skredbekken" />
		<tag k="name:se" v="Čáŋahatjohka" />
		<tag k="ssr:stedsnr" v="261260" />
		<tag k="waterway" v="stream" />
	</node>
	<node lat="69.42097222125761" lon="20.364727748849656" id="-33023">
		<tag k="name" v="Søndre Larsbergelva" />
		<tag k="ssr:stedsnr" v="261264" />
		<tag k="waterway" v="stream" />
	</node>
	<node lat="69.11387777880688" lon="20.10100275751462" id="-33027">
		<tag k="name" v="Paraselva - Bárrásjohka" />
		<tag k="name:no" v="Paraselva" />
		<tag k="name:se" v="Bárrásjohka" />
		<tag k="ssr:stedsnr" v="261292" />
		<tag k="waterway" v="river" />
	</node>
	<node lat="69.34128889119076" lon="20.371547199207253" id="-33032">
		<tag k="alt_name:no" v="Haskielva, midtre" />
		<tag k="name" v="Midtre Haskielva - Keski-Haskijoki" />
		<tag k="name:fkv" v="Keski-Haskijoki" />
		<tag k="name:no" v="Midtre Haskielva" />
		<tag k="ssr:stedsnr" v="261416" />
		<tag k="waterway" v="stream" />
	</node>
	<node lat="69.33757222284517" lon="20.291522203962057" id="-33033">
		<tag k="alt_name:se" v="Ivgojohka" />
		<tag k="name" v="Skibotnelva - Gálggojohka - Yykeänperänjoki" />
		<tag k="name:fkv" v="Yykeänperänjoki" />
		<tag k="name:no" v="Skibotnelva" />
		<tag k="name:se" v="Gálggojohka" />
		<tag k="ssr:stedsnr" v="261417" />
		<tag k="waterway" v="river" />
	</node>
	<node lat="69.1802888857645" lon="20.004638878329253" id="-33036">
		<tag k="name" v="Kroneset" />
		<tag k="natural" v="cape" />
		<tag k="ssr:stedsnr" v="175363" />
	</node>
	<node lat="69.23346666656226" lon="19.942933321849893" id="-33037">
		<tag k="name" v="Borrejohka" />
		<tag k="name:se" v="Borrejohka" />
		<tag k="ssr:stedsnr" v="175368" />
		<tag k="waterway" v="stream" />
	</node>
	<node lat="69.35637500213498" lon="20.217522210678606" id="-33050">
		<tag k="name" v="Rádjejohka" />
		<tag k="name:se" v="Rádjejohka" />
		<tag k="ssr:stedsnr" v="261468" />
		<tag k="waterway" v="stream" />
	</node>
	<node lat="69.12401944218351" lon="20.09064166212954" id="-33062">
		<tag k="name" v="Storholmen" />
		<tag k="place" v="islet" />
		<tag k="ssr:stedsnr" v="176705" />
	</node>
	<node lat="69.27967777638261" lon="20.489783322594498" id="-33067">
		<tag k="name" v="Slemelva" />
		<tag k="ssr:stedsnr" v="176962" />
		<tag k="waterway" v="stream" />
	</node>
	<node lat="69.27015277518234" lon="20.405480547333617" id="-33068">
		<tag k="name" v="Luhčajohka" />
		<tag k="name:se" v="Luhčajohka" />
		<tag k="ssr:stedsnr" v="261588" />
		<tag k="waterway" v="stream" />
	</node>
	<node lat="69.29708055837123" lon="20.704283302817277" id="-33069">
		<tag k="name" v="Geasášjávri" />
		<tag k="name:se" v="Geasášjávri" />
		<tag k="natural" v="water" />
		<tag k="old_name:se" v="Geasásjávri" />
		<tag k="ssr:stedsnr" v="261543" />
		<tag k="water" v="lake" />
	</node>
	<node lat="69.1434833338472" lon="20.431891660267812" id="-33074">
		<tag k="name" v="Goahteorotjávrrit" />
		<tag k="name:se" v="Goahteorotjávrrit" />
		<tag k="natural" v="water" />
		<tag k="ssr:stedsnr" v="261935" />
	</node>
	<node lat="69.0908999976504" lon="20.90388053026117" id="-33079">
		<tag k="name" v="Gállajávri" />
		<tag k="name:se" v="Gállajávri" />
		<tag k="natural" v="water" />
		<tag k="ssr:stedsnr" v="262559" />
		<tag k="water" v="lake" />
	</node>
	<node lat="69.19438333583784" lon="20.704808307711275" id="-33080">
		<tag k="name" v="Gálggojohka" />
		<tag k="name:se" v="Gálggojohka" />
		<tag k="ssr:stedsnr" v="262984" />
		<tag k="waterway" v="river" />
	</node>
	<node lat="69.38566944197422" lon="20.00611110717746" id="-33087">
		<tag k="name" v="Tverrelva - Doaresjohka" />
		<tag k="name:no" v="Tverrelva" />
		<tag k="name:se" v="Doaresjohka" />
		<tag k="ssr:stedsnr" v="200503" />
		<tag k="waterway" v="stream" />
	</node>
	<node lat="69.10257500074815" lon="20.985808302341137" id="-33095">
		<tag k="name" v="Heargejohka" />
		<tag k="name:se" v="Heargejohka" />
		<tag k="ssr:stedsnr" v="201505" />
		<tag k="waterway" v="river" />
	</node>
	<node lat="69.18517499803308" lon="19.996411089917196" id="-33097">
		<tag k="alt_name:no" v="Kavelfossen" />
		<tag k="loc_name:se" v="Gávalgurti" />
		<tag k="name" v="Kavlefossen" />
		<tag k="name:no" v="Kavlefossen" />
		<tag k="natural" v="waterfall" />
		<tag k="ssr:stedsnr" v="201297" />
	</node>
	<node lat="69.10344999868659" lon="20.832649965448883" id="-33099">
		<tag k="name" v="Gállajohka" />
		<tag k="name:se" v="Gállajohka" />
		<tag k="ssr:stedsnr" v="201501" />
		<tag k="waterway" v="river" />
	</node>
	<node lat="69.13307499903425" lon="20.507899978837315" id="-33100">
		<tag k="name" v="Doggejávrrit" />
		<tag k="name:se" v="Doggejávrrit" />
		<tag k="natural" v="water" />
		<tag k="ssr:stedsnr" v="201950" />
		<tag k="water" v="lake" />
	</node>
	<node lat="69.14914166276024" lon="20.625288873792243" id="-33101">
		<tag k="name" v="Bajit Sallojávri" />
		<tag k="name:se" v="Bajit Sallojávri" />
		<tag k="natural" v="water" />
		<tag k="old_name:se" v="Sallojávri, bajit" />
		<tag k="ssr:stedsnr" v="201954" />
		<tag k="water" v="lake" />
	</node>
	<node lat="69.29779167191641" lon="20.406438868011374" id="-33103">
		<tag k="name" v="Potkanlantto" />
		<tag k="name:fkv" v="Potkanlantto" />
		<tag k="natural" v="water" />
		<tag k="ssr:stedsnr" v="213381" />
		<tag k="water" v="lake" />
	</node>
	<node lat="69.33400555210585" lon="20.310491646335127" id="-33111">
		<tag k="name" v="Bjørkholmen" />
		<tag k="place" v="islet" />
		<tag k="ssr:stedsnr" v="237032" />
	</node>
	<node lat="69.36726944846222" lon="20.237716645848224" id="-33113">
		<tag k="name" v="Riidejohka" />
		<tag k="name:se" v="Riidejohka" />
		<tag k="ssr:stedsnr" v="237233" />
		<tag k="waterway" v="stream" />
	</node>
	<node lat="69.19628333355573" lon="19.95949999374263" id="-33114">
		<tag k="name" v="Sennekjosen" />
		<tag k="natural" v="water" />
		<tag k="ssr:stedsnr" v="237477" />
	</node>
	<node lat="69.11775000222396" lon="20.145052760967715" id="-33118">
		<tag k="name" v="Sløkbekken" />
		<tag k="ssr:stedsnr" v="237711" />
		<tag k="waterway" v="stream" />
	</node>
	<node lat="69.12182777509953" lon="20.100588873505007" id="-33119">
		<tag k="name" v="Erikholmen" />
		<tag k="place" v="islet" />
		<tag k="ssr:stedsnr" v="237727" />
	</node>
	<node lat="69.44031666911455" lon="20.299097196290322" id="-33121">
		<tag k="name" v="Inner-Larsbergelva" />
		<tag k="ssr:stedsnr" v="237997" />
		<tag k="waterway" v="stream" />
	</node>
	<node lat="69.29674167069103" lon="20.41516665252346" id="-33122">
		<tag k="name" v="Ylä-Potka" />
		<tag k="name:fkv" v="Ylä-Potka" />
		<tag k="place" v="islet" />
		<tag k="ssr:stedsnr" v="456358" />
	</node>
	<node lat="69.33945277441617" lon="20.28438610045385" id="-33134">
		<tag k="name" v="Äimänsaari" />
		<tag k="name:fkv" v="Äimänsaari" />
		<tag k="place" v="islet" />
		<tag k="ssr:stedsnr" v="461030" />
	</node>
	<node lat="69.3123666633669" lon="20.015641643858764" id="-33135">
		<tag k="name" v="Sisgeažejohka - Sisäpäänjoki" />
		<tag k="name:fkv" v="Sisäpäänjoki" />
		<tag k="name:se" v="Sisgeažejohka" />
		<tag k="ssr:stedsnr" v="461365" />
		<tag k="waterway" v="stream" />
	</node>
	<node lat="69.30226389176812" lon="20.395649989814434" id="-33139">
		<tag k="name" v="Lullinniemi" />
		<tag k="name:fkv" v="Lullinniemi" />
		<tag k="natural" v="cape" />
		<tag k="ssr:stedsnr" v="461437" />
	</node>
	<node lat="69.27729444874491" lon="20.478191651663742" id="-33147">
		<tag k="name" v="Svingen" />
		<tag k="natural" v="bay" />
		<tag k="ssr:stedsnr" v="297972" />
	</node>
	<node lat="69.29865833848724" lon="20.51647775295945" id="-33152">
		<tag k="name" v="Speainnajávrrit" />
		<tag k="name:se" v="Speainnajávrrit" />
		<tag k="natural" v="water" />
		<tag k="ssr:stedsnr" v="321510" />
	</node>
	<node lat="69.11389999780477" lon="20.04648332149818" id="-33165">
		<tag k="name" v="Tverrelvvatnet" />
		<tag k="natural" v="water" />
		<tag k="ssr:stedsnr" v="473634" />
	</node>
	<node lat="69.4070888897642" lon="20.29913330910322" id="-33171">
		<tag k="name" v="Iselva" />
		<tag k="ssr:stedsnr" v="358100" />
		<tag k="waterway" v="stream" />
	</node>
	<node lat="69.3412222212901" lon="20.27868886430834" id="-33180">
		<tag k="name" v="Bergkulpen" />
		<tag k="place" v="locality" />
		<tag k="ssr:stedsnr" v="479025" />
	</node>
	<node lat="69.3365638874294" lon="20.304136095090897" id="-33181">
		<tag k="name" v="Bukkholman" />
		<tag k="place" v="islet" />
		<tag k="ssr:stedsnr" v="479026" />
	</node>
	<node lat="69.36995277688565" lon="20.275466660560557" id="-33186">
		<tag k="name" v="Småholman" />
		<tag k="place" v="islet" />
		<tag k="ssr:stedsnr" v="479130" />
	</node>
	<node lat="69.3375972251922" lon="19.968041653234337" id="-33191">
		<tag k="name" v="Vellantto" />
		<tag k="name:fkv" v="Vellantto" />
		<tag k="natural" v="bay" />
		<tag k="ssr:stedsnr" v="479549" />
	</node>
	<node lat="69.3370027823556" lon="20.091061095834153" id="-33194">
		<tag k="loc_name:se" v="Ruovddášjohka" />
		<tag k="name" v="Ramnelva" />
		<tag k="name:no" v="Ramnelva" />
		<tag k="ssr:stedsnr" v="479726" />
		<tag k="waterway" v="stream" />
	</node>
	<node lat="69.23933333228365" lon="20.31170832394641" id="-33197">
		<tag k="name" v="Viessogasjávrrit" />
		<tag k="name:se" v="Viessogasjávrrit" />
		<tag k="natural" v="water" />
		<tag k="ssr:stedsnr" v="382358" />
		<tag k="water" v="lake" />
	</node>
	<node lat="69.12233333218677" lon="21.00993885098874" id="-33202">
		<tag k="name" v="Áldojohka" />
		<tag k="name:se" v="Áldojohka" />
		<tag k="ssr:stedsnr" v="383947" />
		<tag k="waterway" v="river" />
	</node>
	<node lat="69.33805555625031" lon="20.286947214519973" id="-33205">
		<tag k="name" v="Äimä" />
		<tag k="name:fkv" v="Äimä" />
		<tag k="place" v="locality" />
		<tag k="ssr:stedsnr" v="400086" />
	</node>
	<node lat="69.30320555787164" lon="19.909916664371924" id="-33207">
		<tag k="name" v="Luovttajohka" />
		<tag k="name:se" v="Luovttajohka" />
		<tag k="ssr:stedsnr" v="400383" />
		<tag k="waterway" v="stream" />
	</node>
	<node lat="69.38492222286223" lon="19.99229997895469" id="-33210">
		<tag k="name" v="Geailu" />
		<tag k="name:se" v="Geailu" />
		<tag k="natural" v="bay" />
		<tag k="ssr:stedsnr" v="400926" />
	</node>
	<node lat="69.2351833326952" lon="20.68349442867005" id="-33220">
		<tag k="name" v="Bajit Gearrajohka" />
		<tag k="name:se" v="Bajit Gearrajohka" />
		<tag k="ssr:stedsnr" v="419930" />
		<tag k="waterway" v="stream" />
	</node>
	<node lat="69.16878055779033" lon="20.042180538631076" id="-33233">
		<tag k="name" v="Attkjippa" />
		<tag k="place" v="locality" />
		<tag k="ssr:stedsnr" v="443333" />
	</node>
	<node lat="69.31010000251185" lon="20.380477773932903" id="-33235">
		<tag k="alt_name:no" v="Rattunes" />
		<tag k="name" v="Rattuneset - Rattuniemi" />
		<tag k="name:fkv" v="Rattuniemi" />
		<tag k="name:no" v="Rattuneset" />
		<tag k="natural" v="cape" />
		<tag k="ssr:stedsnr" v="443386" />
	</node>
	<node lat="69.30407222403052" lon="20.39466109139865" id="-33238">
		<tag k="name" v="Lullekulpen - Lullinjurma" />
		<tag k="name:fkv" v="Lullinjurma" />
		<tag k="name:no" v="Lullekulpen" />
		<tag k="place" v="locality" />
		<tag k="ssr:stedsnr" v="443396" />
	</node>
	<node lat="69.31177499917663" lon="20.53428887252678" id="-33241">
		<tag k="name" v="Ákšogaikunjohka" />
		<tag k="name:se" v="Ákšogaikunjohka" />
		<tag k="ssr:stedsnr" v="444528" />
		<tag k="waterway" v="stream" />
	</node>
	<node lat="69.30230000401734" lon="20.438772207132033" id="-33264">
		<tag k="name" v="Lulleelva - Lullejohka - Lullinjoki" />
		<tag k="name:fkv" v="Lullinjoki" />
		<tag k="name:no" v="Lulleelva" />
		<tag k="name:se" v="Lullejohka" />
		<tag k="ssr:stedsnr" v="503512" />
		<tag k="waterway" v="stream" />
	</node>
	<node lat="69.30370277942163" lon="20.7362999679004" id="-33265">
		<tag k="name" v="Geasášjohka" />
		<tag k="name:se" v="Geasášjohka" />
		<tag k="old_name:se" v="Geasásjohka" />
		<tag k="ssr:stedsnr" v="503514" />
		<tag k="waterway" v="stream" />
	</node>
	<node lat="69.25559999715398" lon="20.87559441880995" id="-33272">
		<tag k="name" v="Ráššajárnjárga" />
		<tag k="name:se" v="Ráššajárnjárga" />
		<tag k="natural" v="cape" />
		<tag k="ssr:stedsnr" v="504703" />
	</node>
	<node lat="69.15750555443732" lon="20.84224997711483" id="-33273">
		<tag k="name" v="Leattajohka" />
		<tag k="name:se" v="Leattajohka" />
		<tag k="ssr:stedsnr" v="504966" />
		<tag k="waterway" v="stream" />
	</node>
	<node lat="69.3400027761602" lon="20.30732774837205" id="-33278">
		<tag k="name" v="Goaki - Kuokkilantto" />
		<tag k="name:fkv" v="Kuokkilantto" />
		<tag k="name:no" v="Goaki" />
		<tag k="natural" v="water" />
		<tag k="ssr:stedsnr" v="521077" />
	</node>
	<node lat="69.35931666371648" lon="20.267102754539913" id="-33279">
		<tag k="fixme" v="multiple name tags, choose one and add the other to alt_name" />
		<tag k="name" v="Fossesteinen - Karvosenkivi;Koskenkivi" />
		<tag k="name:fkv" v="Karvosenkivi;Koskenkivi" />
		<tag k="name:no" v="Fossesteinen" />
		<tag k="place" v="islet" />
		<tag k="ssr:stedsnr" v="521113" />
	</node>
	<node lat="69.18904166464728" lon="20.277922200417073" id="-33284">
		<tag k="name" v="Govdajárnjárga" />
		<tag k="name:se" v="Govdajárnjárga" />
		<tag k="natural" v="cape" />
		<tag k="ssr:stedsnr" v="686288" />
	</node>
	<node lat="69.17766944709346" lon="20.032588876242215" id="-33285">
		<tag k="name" v="Mannfjellelva" />
		<tag k="ssr:stedsnr" v="686293" />
		<tag k="waterway" v="stream" />
	</node>
	<node lat="69.19912500073896" lon="19.95145277505234" id="-33287">
		<tag k="name" v="Luppoelva - Luhppujohka" />
		<tag k="name:no" v="Luppoelva" />
		<tag k="name:se" v="Luhppujohka" />
		<tag k="ssr:stedsnr" v="686320" />
		<tag k="waterway" v="stream" />
	</node>
	<node lat="69.05895277779727" lon="20.257702761470746" id="-33298">
		<tag k="name" v="Gáhppojohka" />
		<tag k="name:se" v="Gáhppojohka" />
		<tag k="ssr:stedsnr" v="686254" />
		<tag k="waterway" v="river" />
	</node>
	<node lat="69.12068333363736" lon="20.402108306969264" id="-33299">
		<tag k="name" v="Ragatjohka" />
		<tag k="name:se" v="Ragatjohka" />
		<tag k="ssr:stedsnr" v="686268" />
		<tag k="waterway" v="river" />
	</node>
	<node lat="69.17797221889381" lon="20.001188879918296" id="-33308">
		<tag k="loc_name:se" v="Gávalmohkki" />
		<tag k="name" v="Storattkjippa" />
		<tag k="name:no" v="Storattkjippa" />
		<tag k="place" v="locality" />
		<tag k="ssr:stedsnr" v="686286" />
	</node>
	<node lat="69.08564166635217" lon="20.558955545763958" id="-33309">
		<tag k="name" v="Golddaláhkojávri" />
		<tag k="name:se" v="Golddaláhkojávri" />
		<tag k="natural" v="water" />
		<tag k="ssr:stedsnr" v="686547" />
	</node>
	<node lat="69.081377779319" lon="21.013061086479972" id="-33311">
		<tag k="name" v="Sáđgejávri" />
		<tag k="name:se" v="Sáđgejávri" />
		<tag k="natural" v="water" />
		<tag k="ssr:stedsnr" v="686551" />
		<tag k="water" v="lake" />
	</node>
	<node lat="69.27065833235707" lon="20.689419428527167" id="-33319">
		<tag k="name" v="Rovvejohluoppal" />
		<tag k="name:se" v="Rovvejohluoppal" />
		<tag k="place" v="locality" />
		<tag k="ssr:stedsnr" v="686716" />
	</node>
	<node lat="69.20459444266581" lon="19.972283328507068" id="-33323">
		<tag k="name" v="Luppotjønna" />
		<tag k="natural" v="water" />
		<tag k="ssr:stedsnr" v="540511" />
	</node>
	<node lat="69.14549166769238" lon="20.794208299957308" id="-33331">
		<tag k="alt_name:se" v="Pierajohka" />
		<tag k="name" v="Bierajohka" />
		<tag k="name:se" v="Bierajohka" />
		<tag k="ssr:stedsnr" v="686947" />
		<tag k="waterway" v="stream" />
	</node>
	<node lat="69.1542333363826" lon="20.661566635724338" id="-33332">
		<tag k="name" v="Bajit Sallojohka" />
		<tag k="name:se" v="Bajit Sallojohka" />
		<tag k="old_name:se" v="Sallojohka, bajit" />
		<tag k="ssr:stedsnr" v="686950" />
		<tag k="waterway" v="stream" />
	</node>
	<node lat="69.15794166354117" lon="20.458591650856143" id="-33333">
		<tag k="name" v="Ragatjávri" />
		<tag k="name:se" v="Ragatjávri" />
		<tag k="natural" v="water" />
		<tag k="ssr:stedsnr" v="686953" />
		<tag k="water" v="lake" />
	</node>
	<node lat="69.24237500342993" lon="20.56739163991996" id="-33339">
		<tag k="name" v="Lávkaskáidi" />
		<tag k="name:se" v="Lávkaskáidi" />
		<tag k="natural" v="cape" />
		<tag k="ssr:stedsnr" v="687991" />
	</node>
	<node lat="69.26195000339233" lon="19.849377767301082" id="-33343">
		<tag k="name" v="Akselelva - Oalggijohka" />
		<tag k="name:no" v="Akselelva" />
		<tag k="name:se" v="Oalggijohka" />
		<tag k="ssr:stedsnr" v="564414" />
		<tag k="waterway" v="stream" />
	</node>
	<node lat="69.2566055593139" lon="20.849563875354455" id="-33352">
		<tag k="name" v="Stuora Ráššajávri" />
		<tag k="name:se" v="Stuora Ráššajávri" />
		<tag k="natural" v="water" />
		<tag k="old_name:se" v="Ráššajávri, stuora" />
		<tag k="ssr:stedsnr" v="564675" />
		<tag k="water" v="lake" />
	</node>
	<node lat="69.24374166380478" lon="20.57899718940239" id="-33354">
		<tag k="alt_name:se" v="Riehppejohka" />
		<tag k="name" v="Rihpojohka" />
		<tag k="name:se" v="Rihpojohka" />
		<tag k="ssr:stedsnr" v="565994" />
		<tag k="waterway" v="river" />
	</node>
	<node lat="69.32884722378748" lon="20.337258317540286" id="-33361">
		<tag k="name" v="Iisakinkivi" />
		<tag k="name:fkv" v="Iisakinkivi" />
		<tag k="place" v="locality" />
		<tag k="ssr:stedsnr" v="581108" />
	</node>
	<node lat="69.37682222240873" lon="20.273480529562036" id="-33362">
		<tag k="name" v="Venejurma" />
		<tag k="name:fkv" v="Venejurma" />
		<tag k="place" v="locality" />
		<tag k="ssr:stedsnr" v="581198" />
	</node>
	<node lat="69.33830277482433" lon="19.931969437593295" id="-33365">
		<tag k="name" v="Skáidi" />
		<tag k="name:se" v="Skáidi" />
		<tag k="natural" v="cape" />
		<tag k="ssr:stedsnr" v="582402" />
	</node>
	<node lat="69.3235027793544" lon="19.84089999115678" id="-33367">
		<tag k="name" v="Stillvatnan" />
		<tag k="natural" v="water" />
		<tag k="ssr:stedsnr" v="599369" />
		<tag k="water" v="lake" />
	</node>
	<node lat="69.16119444509657" lon="20.018558327728464" id="-33370">
		<tag k="name" v="Signalfossen" />
		<tag k="natural" v="waterfall" />
		<tag k="ssr:stedsnr" v="600358" />
	</node>
	<node lat="69.15790833489301" lon="20.040619432108105" id="-33371">
		<tag k="name" v="Renasvingen" />
		<tag k="natural" v="bay" />
		<tag k="ssr:stedsnr" v="600359" />
	</node>
	<node lat="69.15179166457253" lon="20.28769998950334" id="-33383">
		<tag k="name" v="Allibergvatnet" />
		<tag k="natural" v="water" />
		<tag k="ssr:stedsnr" v="624319" />
	</node>
	<node lat="69.2582999974597" lon="19.925099997029697" id="-33391">
		<tag k="name" v="Girkonjárga - Kirkkoniemi" />
		<tag k="name:fkv" v="Kirkkoniemi" />
		<tag k="name:se" v="Girkonjárga" />
		<tag k="natural" v="cape" />
		<tag k="ssr:stedsnr" v="703408" />
	</node>
	<node lat="69.3351277806502" lon="20.310555538512737" id="-33394">
		<tag k="name" v="Koijusaari" />
		<tag k="name:fkv" v="Koijusaari" />
		<tag k="place" v="islet" />
		<tag k="ssr:stedsnr" v="642124" />
	</node>
	<node lat="69.36867500418964" lon="20.161244440170332" id="-33397">
		<tag k="name" v="Guršojohka - Kursunjoki" />
		<tag k="name:fkv" v="Kursunjoki" />
		<tag k="name:se" v="Guršojohka" />
		<tag k="ssr:stedsnr" v="642307" />
		<tag k="waterway" v="stream" />
	</node>
	<node lat="69.34693055668026" lon="19.89594721361712" id="-33399">
		<tag k="loc_name:se" v="Rássenjárga" />
		<tag k="name" v="Rasseneset" />
		<tag k="name:no" v="Rasseneset" />
		<tag k="natural" v="cape" />
		<tag k="ssr:stedsnr" v="660408" />
	</node>
	<node lat="69.23941111139919" lon="19.94679165640855" id="-33407">
		<tag k="name" v="Hoppaneset" />
		<tag k="natural" v="cape" />
		<tag k="ssr:stedsnr" v="661539" />
	</node>
	<node lat="69.26489444593429" lon="19.963399981023624" id="-33408">
		<tag k="loc_name:se" v="Beahkájorbmi" />
		<tag k="name" v="Pekkajorma" />
		<tag k="name:fkv" v="Pekkajorma" />
		<tag k="place" v="locality" />
		<tag k="ssr:stedsnr" v="661404" />
	</node>
	<node lat="69.15373055489958" lon="20.771219420426263" id="-33414">
		<tag k="name" v="Peianlantto" />
		<tag k="name:fkv" v="Peianlantto" />
		<tag k="natural" v="water" />
		<tag k="ssr:stedsnr" v="661914" />
	</node>
	<node lat="69.16911111574947" lon="20.359277752798057" id="-33418">
		<tag k="name" v="Ruovddášjávri" />
		<tag k="name:se" v="Ruovddášjávri" />
		<tag k="natural" v="water" />
		<tag k="ssr:stedsnr" v="685305" />
	</node>
	<node lat="69.1267388930989" lon="21.002855532714424" id="-33431">
		<tag k="name" v="Nigošjávri" />
		<tag k="name:se" v="Nigošjávri" />
		<tag k="natural" v="water" />
		<tag k="ssr:stedsnr" v="686937" />
	</node>
	<node lat="69.2746888905736" lon="19.867691644777125" id="-33444">
		<tag k="loc_name:se" v="Áhkejávri" />
		<tag k="name" v="Akevatnet" />
		<tag k="name:no" v="Akevatnet" />
		<tag k="natural" v="water" />
		<tag k="ssr:stedsnr" v="721415" />
	</node>
	<node lat="69.16716666679041" lon="20.229830545103955" id="-33457">
		<tag k="name" v="Poikkiharjunjärvi" />
		<tag k="name:fkv" v="Poikkiharjunjärvi" />
		<tag k="natural" v="water" />
		<tag k="ssr:stedsnr" v="746306" />
	</node>
	<node lat="69.29905000142797" lon="19.858563885776015" id="-33458">
		<tag k="name" v="Galbmajohka" />
		<tag k="name:se" v="Galbmajohka" />
		<tag k="ssr:stedsnr" v="746368" />
		<tag k="waterway" v="stream" />
	</node>
	<node lat="69.3785222215264" lon="20.21686109342313" id="-33473">
		<tag k="name" v="Starkbekken" />
		<tag k="ssr:stedsnr" v="904241" />
		<tag k="waterway" v="stream" />
	</node>
	<node lat="69.19771666953865" lon="19.992286108992054" id="-33478">
		<tag k="name" v="Gustavbergan" />
		<tag k="ssr:stedsnr" v="904479" />
		<tag k="waterway" v="stream" />
	</node>
	<node lat="69.38432499901461" lon="20.32841387363035" id="-33490">
		<tag k="name" v="Hengen - Henko" />
		<tag k="name:fkv" v="Henko" />
		<tag k="name:no" v="Hengen" />
		<tag k="natural" v="waterfall" />
		<tag k="ssr:stedsnr" v="760910" />
	</node>
	<node lat="69.22406666428269" lon="19.975477751665082" id="-33494">
		<tag k="name" v="Gugasholmen" />
		<tag k="place" v="islet" />
		<tag k="ssr:stedsnr" v="782451" />
	</node>
	<node lat="69.3609388885545" lon="20.26872497630233" id="-33497">
		<tag k="name" v="Magerneset" />
		<tag k="natural" v="cape" />
		<tag k="ssr:stedsnr" v="783007" />
	</node>
	<node lat="69.12071667182046" lon="20.133824978468063" id="-33504">
		<tag k="name" v="Bråtefloen" />
		<tag k="natural" v="water" />
		<tag k="ssr:stedsnr" v="783709" />
		<tag k="water" v="lake" />
	</node>
	<node lat="69.09715000292024" lon="20.45916110216411" id="-33512">
		<tag k="name" v="Doggejohka" />
		<tag k="name:se" v="Doggejohka" />
		<tag k="ssr:stedsnr" v="808523" />
		<tag k="waterway" v="river" />
	</node>
	<node lat="69.07328611247502" lon="20.955663850546205" id="-33513">
		<tag k="name" v="Gállaluoppal" />
		<tag k="name:se" v="Gállaluoppal" />
		<tag k="natural" v="water" />
		<tag k="ssr:stedsnr" v="808533" />
	</node>
	<node lat="69.0513444455646" lon="21.01358053744483" id="-33514">
		<tag k="name" v="Čoahppeluoppal" />
		<tag k="name:se" v="Čoahppeluoppal" />
		<tag k="natural" v="water" />
		<tag k="ssr:stedsnr" v="808537" />
	</node>
	<node lat="69.08770000304163" lon="21.05542773860397" id="-33515">
		<tag k="name" v="Duolljehuipojohka" />
		<tag k="name:se" v="Duolljehuipojohka" />
		<tag k="ssr:stedsnr" v="808543" />
		<tag k="waterway" v="river" />
	</node>
	<node lat="69.34149585051077" lon="19.896792494786165" id="-33520">
		<tag k="name" v="Nervatnet - Vuollejávri" />
		<tag k="name:no" v="Nervatnet" />
		<tag k="name:se" v="Vuollejávri" />
		<tag k="natural" v="water" />
		<tag k="ssr:stedsnr" v="821025" />
	</node>
	<node lat="69.32813889029099" lon="20.376497195170888" id="-33522">
		<tag k="name" v="Ylinen Puolamavaaranjärvi" />
		<tag k="name:fkv" v="Ylinen Puolamavaaranjärvi" />
		<tag k="natural" v="water" />
		<tag k="ssr:stedsnr" v="825416" />
	</node>
	<node lat="69.23890277467979" lon="19.94443888549466" id="-33528">
		<tag k="name" v="Lapingárdi" />
		<tag k="name:se" v="Lapingárdi" />
		<tag k="natural" v="water" />
		<tag k="ssr:stedsnr" v="844583" />
		<tag k="water" v="lake" />
	</node>
	<node lat="69.12227499959498" lon="20.388122191499004" id="-33535">
		<tag k="name" v="Breidalselva - Govdajohka" />
		<tag k="name:no" v="Breidalselva" />
		<tag k="name:se" v="Govdajohka" />
		<tag k="old_name:no" v="Breiddalselva" />
		<tag k="ssr:stedsnr" v="928248" />
		<tag k="waterway" v="river" />
	</node>
	<node lat="69.33241111120144" lon="20.32884720444248" id="-33541">
		<tag k="alt_name:no" v="Isaksteinen" />
		<tag k="name" v="Isakstein - Iisakinkivi" />
		<tag k="name:fkv" v="Iisakinkivi" />
		<tag k="name:no" v="Isakstein" />
		<tag k="place" v="islet" />
		<tag k="ssr:stedsnr" v="928385" />
	</node>
	<node lat="69.31361944803976" lon="20.267277751649562" id="-33542">
		<tag k="name" v="Kielva - Gihccejohka - Kitsijoki" />
		<tag k="name:fkv" v="Kitsijoki" />
		<tag k="name:no" v="Kielva" />
		<tag k="name:se" v="Gihccejohka" />
		<tag k="ssr:stedsnr" v="928398" />
		<tag k="waterway" v="river" />
	</node>
	<node lat="69.28439444233886" lon="20.500980532894907" id="-33544">
		<tag k="name" v="Steinelva" />
		<tag k="ssr:stedsnr" v="928665" />
		<tag k="waterway" v="stream" />
	</node>
	<node lat="69.28523611105777" lon="20.825988854845015" id="-33545">
		<tag k="name" v="Bajimus Rovvejávri" />
		<tag k="name:se" v="Bajimus Rovvejávri" />
		<tag k="natural" v="water" />
		<tag k="old_name:se" v="Rovvejávri, bajimus" />
		<tag k="ssr:stedsnr" v="928670" />
		<tag k="water" v="lake" />
	</node>
	<node lat="69.0672500041848" lon="20.251655546482983" id="-33548">
		<tag k="name" v="Visieđggajohka" />
		<tag k="name:se" v="Visieđggajohka" />
		<tag k="ssr:stedsnr" v="929244" />
		<tag k="waterway" v="river" />
	</node>
	<node lat="69.29311389306505" lon="19.772233323615577" id="-33551">
		<tag k="loc_name:se" v="Jiehkkejávri" />
		<tag k="name" v="Jekkivatnet" />
		<tag k="name:no" v="Jekkivatnet" />
		<tag k="natural" v="water" />
		<tag k="ssr:stedsnr" v="929339" />
		<tag k="water" v="lake" />
	</node>
	<node lat="69.17722499790919" lon="20.254683323821784" id="-33552">
		<tag k="name" v="Oksefjellsmåvatnan - Härkävaaranjärvet" />
		<tag k="name:fkv" v="Härkävaaranjärvet" />
		<tag k="name:no" v="Oksefjellsmåvatnan" />
		<tag k="natural" v="water" />
		<tag k="ssr:stedsnr" v="929293" />
	</node>
	<node lat="69.38726111184808" lon="20.3266305319634" id="-33559">
		<tag k="name" v="Gobijohka - Kupanjoki" />
		<tag k="name:fkv" v="Kupanjoki" />
		<tag k="name:se" v="Gobijohka" />
		<tag k="ssr:stedsnr" v="929472" />
		<tag k="waterway" v="stream" />
	</node>
	<node lat="69.26467778186016" lon="20.671777765464647" id="-33563">
		<tag k="name" v="Rovijokkelva - Rovvejohka - Rovijoki" />
		<tag k="name:fkv" v="Rovijoki" />
		<tag k="name:no" v="Rovijokkelva" />
		<tag k="name:se" v="Rovvejohka" />
		<tag k="ssr:stedsnr" v="929669" />
		<tag k="waterway" v="river" />
	</node>
	<node lat="69.25258333589163" lon="20.674008315193003" id="-33564">
		<tag k="name" v="Lávvojohka" />
		<tag k="name:se" v="Lávvojohka" />
		<tag k="ssr:stedsnr" v="929680" />
		<tag k="waterway" v="stream" />
	</node>
	<node lat="69.11892777727867" lon="20.75986663141059" id="-33565">
		<tag k="name" v="Russeneset - Ruoššanjárga" />
		<tag k="name:no" v="Russeneset" />
		<tag k="name:se" v="Ruoššanjárga" />
		<tag k="natural" v="cape" />
		<tag k="ssr:stedsnr" v="929515" />
	</node>
	<node lat="69.09495833641004" lon="20.647127754642735" id="-33566">
		<tag k="name" v="Goallárjávri" />
		<tag k="name:se" v="Goallárjávri" />
		<tag k="natural" v="water" />
		<tag k="ssr:stedsnr" v="929519" />
		<tag k="water" v="lake" />
	</node>
	<node lat="69.18517500427228" lon="20.931286086995442" id="-33568">
		<tag k="name" v="Didnojávri" />
		<tag k="name:se" v="Didnojávri" />
		<tag k="natural" v="water" />
		<tag k="ssr:stedsnr" v="929966" />
		<tag k="water" v="lake" />
	</node>
	<node lat="69.26634167074539" lon="19.775074985017717" id="-33571">
		<tag k="name" v="Rieppevatnet - Riehpijávri" />
		<tag k="name:no" v="Rieppevatnet" />
		<tag k="name:se" v="Riehpijávri" />
		<tag k="natural" v="water" />
		<tag k="ssr:stedsnr" v="868311" />
		<tag k="water" v="lake" />
	</node>
	<node lat="69.11123333046997" lon="20.40060831839194" id="-33575">
		<tag k="name" v="Rávdoluoppal" />
		<tag k="name:se" v="Rávdoluoppal" />
		<tag k="place" v="locality" />
		<tag k="ssr:stedsnr" v="868279" />
	</node>
	<node lat="69.29688333174488" lon="20.61818887621434" id="-33576">
		<tag k="name" v="Doaresjávrrit" />
		<tag k="name:se" v="Doaresjávrrit" />
		<tag k="natural" v="water" />
		<tag k="ssr:stedsnr" v="868529" />
	</node>
	<node lat="69.23208055289513" lon="20.613111095878985" id="-33581">
		<tag k="alt_name:se" v="Busesjohka" />
		<tag k="name" v="Buvssasjohka" />
		<tag k="name:se" v="Buvssasjohka" />
		<tag k="ssr:stedsnr" v="930985" />
		<tag k="waterway" v="stream" />
	</node>
	<node lat="69.30241944499224" lon="20.3991444244867" id="-33585">
		<tag k="name" v="Ala-Potka" />
		<tag k="name:fkv" v="Ala-Potka" />
		<tag k="place" v="islet" />
		<tag k="ssr:stedsnr" v="881357" />
	</node>
	<node lat="69.355722219436" lon="20.263286104902846" id="-33587">
		<tag k="name" v="Koskensaari" />
		<tag k="name:fkv" v="Koskensaari" />
		<tag k="place" v="islet" />
		<tag k="ssr:stedsnr" v="886109" />
	</node>
	<node lat="69.35268055486468" lon="20.246566656543248" id="-33592">
		<tag k="name" v="Storskredelva" />
		<tag k="ssr:stedsnr" v="904013" />
		<tag k="waterway" v="stream" />
	</node>
	<node lat="69.25985555587579" lon="19.89015275849615" id="-33595">
		<tag k="name" v="Skáidi" />
		<tag k="name:se" v="Skáidi" />
		<tag k="natural" v="cape" />
		<tag k="ssr:stedsnr" v="904410" />
	</node>
	<node lat="69.30083055699933" lon="19.82588888535999" id="-33600">
		<tag k="name" v="Gievdnejohka" />
		<tag k="name:se" v="Gievdnejohka" />
		<tag k="ssr:stedsnr" v="928357" />
		<tag k="waterway" v="stream" />
	</node>
	<node lat="69.30376666819474" lon="20.466224976436244" id="-33602">
		<tag k="name" v="Ákšogaikunskáidi" />
		<tag k="name:se" v="Ákšogaikunskáidi" />
		<tag k="natural" v="cape" />
		<tag k="ssr:stedsnr" v="928505" />
	</node>
	<node lat="69.30775555555987" lon="20.38631663809843" id="-33611">
		<tag k="fixme" v="multiple name tags, choose one and add the other to alt_name" />
		<tag k="name" v="Valkeapahta;Valkeanpahanjurma" />
		<tag k="name:fkv" v="Valkeapahta;Valkeanpahanjurma" />
		<tag k="place" v="locality" />
		<tag k="ssr:stedsnr" v="946109" />
	</node>
	<node lat="69.29033611161213" lon="19.901744438605384" id="-33612">
		<tag k="alt_name:se" v="Dálujohka" />
		<tag k="name" v="Daloelva" />
		<tag k="name:se" v="Daloelva" />
		<tag k="ssr:stedsnr" v="946339" />
		<tag k="waterway" v="stream" />
	</node>
	<node lat="69.32977500157918" lon="20.369597213682894" id="-33613">
		<tag k="name" v="Alainen Puolamavaaranjärvi" />
		<tag k="name:fkv" v="Alainen Puolamavaaranjärvi" />
		<tag k="natural" v="water" />
		<tag k="ssr:stedsnr" v="946430" />
	</node>
	<node lat="69.2461583377628" lon="20.026733314395255" id="-33614">
		<tag k="name" v="Saranjorma" />
		<tag k="name:fkv" v="Saranjorma" />
		<tag k="place" v="locality" />
		<tag k="ssr:stedsnr" v="946444" />
	</node>
	<node lat="69.14863333158289" lon="20.053036100686864" id="-33618">
		<tag k="name" v="Floen" />
		<tag k="natural" v="water" />
		<tag k="ssr:stedsnr" v="964403" />
		<tag k="water" v="lake" />
	</node>
	<node lat="69.2455166706421" lon="20.6507499732481" id="-33631">
		<tag k="name" v="Vuolit Garranjohka" />
		<tag k="name:se" v="Vuolit Garranjohka" />
		<tag k="ssr:stedsnr" v="965909" />
		<tag k="waterway" v="stream" />
	</node>
	<node lat="69.30181111197157" lon="20.48310276059986" id="-33632">
		<tag k="name" v="Ákšogaikunjávri" />
		<tag k="name:se" v="Ákšogaikunjávri" />
		<tag k="natural" v="water" />
		<tag k="ssr:stedsnr" v="965942" />
	</node>
	<node lat="69.44229463818158" lon="20.297327048888324" id="-33638">
		<tag k="loc_name:fkv" v="Larspahdanjoki" />
		<tag k="name" v="Larsbergelva - Lárasbáhjohka" />
		<tag k="name:no" v="Larsbergelva" />
		<tag k="name:se" v="Lárasbáhjohka" />
		<tag k="ssr:stedsnr" v="985383" />
		<tag k="waterway" v="river" />
	</node>
	<node lat="69.25452500473321" lon="19.845336089267196" id="-33639">
		<tag k="alt_name:se" v="Doaresjohka;Tverrdalselva" />
		<tag k="name" v="Tverrelva" />
		<tag k="name:se" v="Tverrelva" />
		<tag k="ssr:stedsnr" v="18551" />
		<tag k="waterway" v="river" />
	</node>
	<node lat="69.43071944944616" lon="20.368030539429334" id="-33642">
		<tag k="name" v="Midtre Larsbergelva" />
		<tag k="ssr:stedsnr" v="18253" />
		<tag k="waterway" v="stream" />
	</node>
	<node lat="69.31635531015803" lon="20.325594601958517" id="-33652">
		<tag k="name" v="Kvitlielva - Guvgesloapmejohka - Kuukislomanjoki" />
		<tag k="name:fkv" v="Kuukislomanjoki" />
		<tag k="name:no" v="Kvitlielva" />
		<tag k="name:se" v="Guvgesloapmejohka" />
		<tag k="ssr:stedsnr" v="18392" />
		<tag k="waterway" v="river" />
	</node>
	<node lat="69.3929249988049" lon="20.01200833107694" id="-33653">
		<tag k="name" v="Svartvasselva" />
		<tag k="ssr:stedsnr" v="18437" />
		<tag k="waterway" v="stream" />
	</node>
	<node lat="69.18805555707583" lon="20.651099970401667" id="-33662">
		<tag k="name" v="Roggejohka" />
		<tag k="name:se" v="Roggejohka" />
		<tag k="ssr:stedsnr" v="19951" />
		<tag k="waterway" v="river" />
	</node>
	<node lat="69.17675833231267" lon="20.669299968429616" id="-33663">
		<tag k="name" v="Roggejávri" />
		<tag k="name:se" v="Roggejávri" />
		<tag k="natural" v="water" />
		<tag k="ssr:stedsnr" v="19958" />
		<tag k="water" v="lake" />
	</node>
	<node lat="69.22320000522265" lon="20.58914997794318" id="-33664">
		<tag k="name" v="Buvssasmohkki" />
		<tag k="name:se" v="Buvssasmohkki" />
		<tag k="natural" v="bay" />
		<tag k="ssr:stedsnr" v="19977" />
	</node>
	<node lat="69.23265000173089" lon="20.833624969375734" id="-33665">
		<tag k="name" v="Meahccevátjohka" />
		<tag k="name:se" v="Meahccevátjohka" />
		<tag k="ssr:stedsnr" v="19980" />
		<tag k="waterway" v="stream" />
	</node>
	<node lat="69.32902500084151" lon="20.33699997805481" id="-33673">
		<tag k="name" v="Kuukislomanjurma" />
		<tag k="name:fkv" v="Kuukislomanjurma" />
		<tag k="place" v="locality" />
		<tag k="ssr:stedsnr" v="36119" />
	</node>
	<node lat="69.36406666809341" lon="20.289952762243406" id="-33674">
		<tag k="name" v="Gállojohka - Kahlujoki" />
		<tag k="name:fkv" v="Kahlujoki" />
		<tag k="name:se" v="Gállojohka" />
		<tag k="ssr:stedsnr" v="36123" />
		<tag k="waterway" v="stream" />
	</node>
	<node lat="69.3046027787946" lon="19.909591641858643" id="-33678">
		<tag k="name" v="Gobijohka" />
		<tag k="name:se" v="Gobijohka" />
		<tag k="ssr:stedsnr" v="36348" />
		<tag k="waterway" v="stream" />
	</node>
	<node lat="69.25176110926334" lon="19.87978887144804" id="-33686">
		<tag k="loc_name:se" v="Sarašjohka" />
		<tag k="name" v="Sarabekken" />
		<tag k="name:no" v="Sarabekken" />
		<tag k="ssr:stedsnr" v="54406" />
		<tag k="waterway" v="stream" />
	</node>
	<node lat="69.33588888604686" lon="20.30339721616363" id="-33687">
		<tag k="name" v="Olderholman" />
		<tag k="place" v="islet" />
		<tag k="ssr:stedsnr" v="55034" />
	</node>
	<node lat="69.37004166395565" lon="20.25214163806335" id="-33689">
		<tag k="loc_name:se" v="Heargesilddijohka" />
		<tag k="name" v="Okselva" />
		<tag k="name:no" v="Okselva" />
		<tag k="ssr:stedsnr" v="55127" />
		<tag k="waterway" v="stream" />
	</node>
	<node lat="69.25727499777364" lon="19.71901387263137" id="-33708">
		<tag k="loc_name:se" v="Gurgalanjávri" />
		<tag k="name" v="Gurgela" />
		<tag k="name:no" v="Gurgela" />
		<tag k="natural" v="water" />
		<tag k="ssr:stedsnr" v="79281" />
		<tag k="water" v="lake" />
	</node>
	<node lat="69.29449999767382" lon="20.000102771532287" id="-33717">
		<tag k="alt_name:no" v="Bergelva" />
		<tag k="name" v="Bergselva - Guolbanváhjohka - Kuolpanvankanjoki" />
		<tag k="name:fkv" v="Kuolpanvankanjoki" />
		<tag k="name:no" v="Bergselva" />
		<tag k="name:se" v="Guolbanváhjohka" />
		<tag k="ssr:stedsnr" v="79373" />
		<tag k="waterway" v="river" />
	</node>
	<node lat="69.31392499802304" lon="20.65251941473777" id="-33723">
		<tag k="name" v="Stálujohka" />
		<tag k="name:se" v="Stálujohka" />
		<tag k="ssr:stedsnr" v="79529" />
		<tag k="waterway" v="stream" />
	</node>
</osm>
