<?xml version="1.0" encoding="UTF-8"?>
<osm version="0.6" generator="osmapis">
	<node lat="69.04576110975582" lon="20.06005275250228" id="-32898">
		<tag k="fixme" v="multiple name tags, choose one and add the other to alt_name" />
		<tag k="historic" v="boundary_stone" />
		<tag k="man_made" v="cairn" />
		<tag k="name" v="Tiorro Kaitzarøysa;Sikkarøysa" />
		<tag k="old_name" v="Tiorro Kaitza Røset" />
		<tag k="place" v="locality" />
		<tag k="ssr:stedsnr" v="231777" />
	</node>
	<node lat="69.15684999739472" lon="19.97458609825086" id="-32899">
		<tag k="name" v="Signalneselva - Čiekŋaljávrrejohka" />
		<tag k="name:no" v="Signalneselva" />
		<tag k="name:se" v="Čiekŋaljávrrejohka" />
		<tag k="ssr:stedsnr" v="18273" />
		<tag k="waterway" v="stream" />
	</node>
	<node lat="69.26057500373737" lon="19.879847204912075" id="-32900">
		<tag k="name" v="Sætersletta" />
		<tag k="place" v="farm" />
		<tag k="ssr:stedsnr" v="18358" />
	</node>
	<node lat="69.28219167063367" lon="20.44096665980924" id="-32901">
		<tag k="name" v="Gustavslåtta" />
		<tag k="place" v="locality" />
		<tag k="ssr:stedsnr" v="18646" />
	</node>
	<node lat="69.33903055310407" lon="20.044436082833737" id="-32902">
		<tag k="name" v="Elsnes" />
		<tag k="natural" v="cape" />
		<tag k="ssr:stedsnr" v="19401" />
	</node>
	<node lat="69.3247305566601" lon="19.83202498619368" id="-32903">
		<tag k="name" v="Langemyra" />
		<tag k="natural" v="wetland" />
		<tag k="ssr:stedsnr" v="19405" />
	</node>
	<node lat="69.36743611253252" lon="20.38115831144305" id="-32904">
		<tag k="name" v="Ádjetluohkká" />
		<tag k="name:se" v="Ádjetluohkká" />
		<tag k="natural" v="slope" />
		<tag k="place" v="locality" />
		<tag k="ssr:stedsnr" v="19444" />
	</node>
	<node lat="69.34476556183903" lon="20.203964186794938" id="-32905">
		<tag k="name" v="Reindalen - Boazolanvággi - Porovankka" />
		<tag k="name:fkv" v="Porovankka" />
		<tag k="name:no" v="Reindalen" />
		<tag k="name:se" v="Boazolanvággi" />
		<tag k="natural" v="valley" />
		<tag k="place" v="locality" />
		<tag k="ssr:stedsnr" v="19448" />
	</node>
	<node lat="69.12612777575654" lon="20.620749980439065" id="-32906">
		<tag k="name" v="Guhkesjávri" />
		<tag k="name:se" v="Guhkesjávri" />
		<tag k="natural" v="water" />
		<tag k="ssr:stedsnr" v="19937" />
		<tag k="water" v="lake" />
	</node>
	<node lat="69.32623730912442" lon="20.211078692290066" id="-32907">
		<tag k="fixme" v="consider natural=peak for the most distinct mountains in the district" />
		<tag k="name" v="Middagsfjellet - Gaskagáisi - Keskipäivänvaara" />
		<tag k="name:fkv" v="Keskipäivänvaara" />
		<tag k="name:no" v="Middagsfjellet" />
		<tag k="name:se" v="Gaskagáisi" />
		<tag k="natural" v="hill" />
		<tag k="place" v="locality" />
		<tag k="ssr:stedsnr" v="24381" />
	</node>
	<node lat="69.39753056083386" lon="20.143566645908297" id="-32908">
		<tag k="loc_name:se" v="Čuolonjármáđđi" />
		<tag k="name" v="Landgrunnen" />
		<tag k="name:no" v="Landgrunnen" />
		<tag k="natural" v="shoal" />
		<tag k="place" v="locality" />
		<tag k="ssr:stedsnr" v="24827" />
	</node>
	<node lat="69.41670278087103" lon="20.25475554981108" id="-32909">
		<tag k="name" v="Røykenesslaget" />
		<tag k="natural" v="shoal" />
		<tag k="place" v="locality" />
		<tag k="ssr:stedsnr" v="27014" />
	</node>
	<node lat="69.35126666538126" lon="20.27454165353758" id="-32910">
		<tag k="name" v="Paskaput" />
		<tag k="place" v="farm" />
		<tag k="ssr:stedsnr" v="31204" />
	</node>
	<node lat="69.30616389181485" lon="20.39056386990349" id="-32911">
		<tag k="name" v="Ahonlauttauspaikka" />
		<tag k="name:fkv" v="Ahonlauttauspaikka" />
		<tag k="natural" v="beach" />
		<tag k="ssr:stedsnr" v="31364" />
	</node>
	<node lat="69.25720277802824" lon="19.94623332163092" id="-32912">
		<tag k="name" v="Hálgoládju" />
		<tag k="name:se" v="Hálgoládju" />
		<tag k="place" v="locality" />
		<tag k="ssr:stedsnr" v="32022" />
	</node>
	<node lat="69.35437778157183" lon="19.879699978568077" id="-32913">
		<tag k="name" v="Tverrbakken - Doaresdievvá" />
		<tag k="name:no" v="Tverrbakken" />
		<tag k="name:se" v="Doaresdievvá" />
		<tag k="natural" v="slope" />
		<tag k="place" v="locality" />
		<tag k="ssr:stedsnr" v="32080" />
	</node>
	<node lat="69.36039721894223" lon="20.26411665207923" id="-32914">
		<tag k="fixme" v="multiple name tags, choose one and add the other to alt_name" />
		<tag k="name" v="Hiirihaasiobakken - Hiirihaasio;Hiirihaasiontörmä" />
		<tag k="name:fkv" v="Hiirihaasio;Hiirihaasiontörmä" />
		<tag k="name:no" v="Hiirihaasiobakken" />
		<tag k="place" v="locality" />
		<tag k="ssr:stedsnr" v="36103" />
	</node>
	<node lat="69.36178055818189" lon="20.21698609166233" id="-32915">
		<tag k="name" v="Laskutörmä" />
		<tag k="name:fkv" v="Laskutörmä" />
		<tag k="natural" v="slope" />
		<tag k="place" v="locality" />
		<tag k="ssr:stedsnr" v="36104" />
	</node>
	<node lat="69.3623333304746" lon="20.110588880083704" id="-32916">
		<tag k="historic" v="shieling" />
		<tag k="name" v="Dáččagieddi" />
		<tag k="name:se" v="Dáččagieddi" />
		<tag k="place" v="locality" />
		<tag k="ssr:stedsnr" v="36302" />
	</node>
	<node lat="69.3839138890073" lon="20.178083313772436" id="-32917">
		<tag k="name" v="Bergbukta - Bávttiluokta - Pahanlahti" />
		<tag k="name:fkv" v="Pahanlahti" />
		<tag k="name:no" v="Bergbukta" />
		<tag k="name:se" v="Bávttiluokta" />
		<tag k="natural" v="bay" />
		<tag k="ssr:stedsnr" v="36309" />
	</node>
	<node lat="69.32770833503626" lon="20.04053053989879" id="-32918">
		<tag k="name" v="Stuorabákti - Isopahta" />
		<tag k="name:fkv" v="Isopahta" />
		<tag k="name:se" v="Stuorabákti" />
		<tag k="natural" v="hill" />
		<tag k="place" v="locality" />
		<tag k="ssr:stedsnr" v="36313" />
	</node>
	<node lat="69.40179722052294" lon="19.99265833162908" id="-32920">
		<tag k="name" v="Jorbajávri" />
		<tag k="name:se" v="Jorbajávri" />
		<tag k="natural" v="water" />
		<tag k="ssr:stedsnr" v="36362" />
	</node>
	<node lat="69.26382778155552" lon="19.885797212164118" id="-32921">
		<tag k="name" v="Skogeng" />
		<tag k="place" v="farm" />
		<tag k="ssr:stedsnr" v="236389" />
	</node>
	<node lat="69.18621111333627" lon="19.98351109813696" id="-32922">
		<tag k="name" v="Melbakken" />
		<tag k="natural" v="slope" />
		<tag k="place" v="locality" />
		<tag k="ssr:stedsnr" v="236349" />
	</node>
	<node lat="69.15860555647542" lon="20.027061093826994" id="-32923">
		<tag k="name" v="Skreddalen" />
		<tag k="natural" v="valley" />
		<tag k="place" v="locality" />
		<tag k="ssr:stedsnr" v="236353" />
	</node>
	<node lat="69.37870555870819" lon="20.00705832490807" id="-32924">
		<tag k="name" v="Stuoraceaggut" />
		<tag k="name:se" v="Stuoraceaggut" />
		<tag k="natural" v="slope" />
		<tag k="place" v="locality" />
		<tag k="ssr:stedsnr" v="36967" />
	</node>
	<node lat="69.33570833022314" lon="19.836663886999016" id="-32925">
		<tag k="name" v="Spiidnehárji" />
		<tag k="name:se" v="Spiidnehárji" />
		<tag k="natural" v="hill" />
		<tag k="place" v="locality" />
		<tag k="ssr:stedsnr" v="236359" />
	</node>
	<node lat="69.32235000196846" lon="19.835097222722837" id="-32926">
		<tag k="name" v="Rypdalselva" />
		<tag k="ssr:stedsnr" v="236372" />
		<tag k="waterway" v="stream" />
	</node>
	<node lat="69.24413888613076" lon="19.84303331479939" id="-32927">
		<tag k="name" v="Jorba" />
		<tag k="name:se" v="Jorba" />
		<tag k="natural" v="hill" />
		<tag k="place" v="locality" />
		<tag k="ssr:stedsnr" v="236374" />
	</node>
	<node lat="69.23500555797374" lon="19.958355542643183" id="-32928">
		<tag k="name" v="Dreyerstykket" />
		<tag k="place" v="locality" />
		<tag k="ssr:stedsnr" v="236454" />
	</node>
	<node lat="69.21020000122682" lon="19.969463864642716" id="-32929">
		<tag k="name" v="Fiskegammen" />
		<tag k="place" v="locality" />
		<tag k="ssr:stedsnr" v="236461" />
	</node>
	<node lat="69.40873611123361" lon="20.120572219704243" id="-32930">
		<tag k="name" v="Elijávri" />
		<tag k="name:se" v="Elijávri" />
		<tag k="natural" v="water" />
		<tag k="ssr:stedsnr" v="237740" />
	</node>
	<node lat="69.40980833363157" lon="20.14532219491886" id="-32931">
		<tag k="name" v="Buollán" />
		<tag k="name:se" v="Buollán" />
		<tag k="natural" v="slope" />
		<tag k="place" v="locality" />
		<tag k="ssr:stedsnr" v="237741" />
	</node>
	<node lat="69.33131388943751" lon="20.328322213165386" id="-32932">
		<tag k="name" v="Putaansaari" />
		<tag k="name:fkv" v="Putaansaari" />
		<tag k="place" v="islet" />
		<tag k="ssr:stedsnr" v="237038" />
	</node>
	<node lat="69.3505194411094" lon="20.390283309816887" id="-32933">
		<tag k="name" v="Margareteniitty" />
		<tag k="name:fkv" v="Margareteniitty" />
		<tag k="place" v="locality" />
		<tag k="ssr:stedsnr" v="237022" />
	</node>
	<node lat="69.37536388675798" lon="20.2701194322841" id="-32934">
		<tag k="name" v="Bekkoholmen" />
		<tag k="natural" v="cape" />
		<tag k="ssr:stedsnr" v="237126" />
	</node>
	<node lat="69.37233611065975" lon="20.255799970738924" id="-32935">
		<tag k="name" v="Billigbakken" />
		<tag k="natural" v="slope" />
		<tag k="place" v="locality" />
		<tag k="ssr:stedsnr" v="237125" />
	</node>
	<node lat="69.38482222164015" lon="20.1903416557168" id="-32936">
		<tag k="fixme" v="consider natural=peak for the most distinct mountains in the district" />
		<tag k="loc_name:se" v="Unnaoalgi" />
		<tag k="name" v="Lilleaksla" />
		<tag k="name:no" v="Lilleaksla" />
		<tag k="natural" v="hill" />
		<tag k="place" v="locality" />
		<tag k="ssr:stedsnr" v="237224" />
	</node>
	<node lat="69.37457500147322" lon="20.287369434977105" id="-32937">
		<tag k="name" v="Myrbakken" />
		<tag k="natural" v="slope" />
		<tag k="place" v="locality" />
		<tag k="ssr:stedsnr" v="237132" />
	</node>
	<node lat="69.26921111596862" lon="19.968205540695813" id="-32938">
		<tag k="name" v="Midtersokken" />
		<tag k="natural" v="hill" />
		<tag k="place" v="locality" />
		<tag k="ssr:stedsnr" v="237443" />
	</node>
	<node lat="69.26028888814463" lon="19.999074997358367" id="-32939">
		<tag k="name" v="Einebakken" />
		<tag k="natural" v="slope" />
		<tag k="place" v="locality" />
		<tag k="ssr:stedsnr" v="237449" />
	</node>
	<node lat="69.30838055688075" lon="19.995988875333353" id="-32940">
		<tag k="loc_name:se" v="Goaskimnjirran" />
		<tag k="name" v="Bakkeneset - Geskinjirra" />
		<tag k="name:no" v="Bakkeneset" />
		<tag k="name:se" v="Geskinjirra" />
		<tag k="natural" v="cape" />
		<tag k="ssr:stedsnr" v="237621" />
	</node>
	<node lat="69.33887499606502" lon="19.912891657855393" id="-32942">
		<tag k="name" v="Čahca" />
		<tag k="name:se" v="Čahca" />
		<tag k="natural" v="valley" />
		<tag k="place" v="locality" />
		<tag k="ssr:stedsnr" v="237542" />
	</node>
	<node lat="69.33298333555341" lon="19.937616642672022" id="-32943">
		<tag k="loc_name:se" v="Stuorjuovva" />
		<tag k="name" v="Storura" />
		<tag k="name:no" v="Storura" />
		<tag k="natural" v="scree" />
		<tag k="ssr:stedsnr" v="237561" />
	</node>
	<node lat="69.36741111290486" lon="20.02068608730048" id="-32944">
		<tag k="name" v="Haug" />
		<tag k="place" v="farm" />
		<tag k="ssr:stedsnr" v="237566" />
	</node>
	<node lat="69.35298055541814" lon="19.980244441763375" id="-32945">
		<tag k="name" v="Njirran" />
		<tag k="name:se" v="Njirran" />
		<tag k="ssr:stedsnr" v="237637" />
		<tag k="waterway" v="stream" />
	</node>
	<node lat="69.34748333272722" lon="20.080049992400628" id="-32946">
		<tag k="loc_name:se" v="Reahpennjárggajeakkit" />
		<tag k="name" v="Reppenesmyran" />
		<tag k="name:no" v="Reppenesmyran" />
		<tag k="natural" v="wetland" />
		<tag k="ssr:stedsnr" v="237744" />
	</node>
	<node lat="69.35946111544814" lon="20.09941943923389" id="-32947">
		<tag k="name" v="Bentsnes" />
		<tag k="place" v="farm" />
		<tag k="ssr:stedsnr" v="237746" />
	</node>
	<node lat="69.40783611406043" lon="20.152433310572846" id="-32948">
		<tag k="name" v="Kjærrabukta" />
		<tag k="natural" v="bay" />
		<tag k="ssr:stedsnr" v="237751" />
	</node>
	<node lat="69.42405000261407" lon="20.30628053125606" id="-32949">
		<tag k="name" v="Lomvatnet" />
		<tag k="natural" v="water" />
		<tag k="ssr:stedsnr" v="237999" />
	</node>
	<node lat="69.28489722267346" lon="20.465366636911178" id="-32950">
		<tag k="name" v="Ahmakoivu" />
		<tag k="name:fkv" v="Ahmakoivu" />
		<tag k="natural" v="slope" />
		<tag k="place" v="locality" />
		<tag k="ssr:stedsnr" v="237970" />
	</node>
	<node lat="69.10759444125478" lon="20.02429166312831" id="-32951">
		<tag k="name" v="Tverrelvskardet" />
		<tag k="natural" v="valley" />
		<tag k="place" v="locality" />
		<tag k="ssr:stedsnr" v="49681" />
	</node>
	<node lat="69.19277499792766" lon="19.980152775521546" id="-32952">
		<tag k="name" v="Kassholmen" />
		<tag k="place" v="islet" />
		<tag k="ssr:stedsnr" v="54401" />
	</node>
	<node lat="69.2528277780695" lon="19.882366651858614" id="-32953">
		<tag k="loc_name:se" v="Stuorroggi" />
		<tag k="name" v="Storgropa" />
		<tag k="name:no" v="Storgropa" />
		<tag k="natural" v="valley" />
		<tag k="place" v="locality" />
		<tag k="ssr:stedsnr" v="54403" />
	</node>
	<node lat="69.18089444371027" lon="19.97019442456632" id="-32954">
		<tag k="name" v="Skredbekken" />
		<tag k="ssr:stedsnr" v="54373" />
		<tag k="waterway" v="stream" />
	</node>
	<node lat="69.23705000059444" lon="19.946502756690595" id="-32955">
		<tag k="name" v="Pederrommet" />
		<tag k="place" v="locality" />
		<tag k="ssr:stedsnr" v="54376" />
	</node>
	<node lat="69.3321194474694" lon="19.84213888354307" id="-32956">
		<tag k="fixme" v="consider natural=peak for the most distinct mountains in the district" />
		<tag k="name" v="Eanavárri" />
		<tag k="natural" v="hill" />
		<tag k="place" v="locality" />
		<tag k="ssr:stedsnr" v="54384" />
	</node>
	<node lat="69.21361389333192" lon="19.97475554925122" id="-32957">
		<tag k="name" v="Gjerdmyra" />
		<tag k="natural" v="wetland" />
		<tag k="ssr:stedsnr" v="54507" />
	</node>
	<node lat="69.21391389235467" lon="19.96512219750966" id="-32958">
		<tag k="name" v="Lilleelva" />
		<tag k="ssr:stedsnr" v="54513" />
		<tag k="waterway" v="stream" />
	</node>
	<node lat="69.37307499669312" lon="20.269461099127454" id="-32959">
		<tag k="name" v="Hundhalsøra" />
		<tag k="natural" v="cape" />
		<tag k="ssr:stedsnr" v="55119" />
	</node>
	<node lat="69.29976944823889" lon="19.92552775872909" id="-32960">
		<tag k="name" v="Tillnes" />
		<tag k="place" v="farm" />
		<tag k="ssr:stedsnr" v="55573" />
	</node>
	<node lat="69.3012611158146" lon="20.008869428107374" id="-32961">
		<tag k="name" v="Storskredet" />
		<tag k="natural" v="slope" />
		<tag k="place" v="locality" />
		<tag k="ssr:stedsnr" v="55584" />
	</node>
	<node lat="69.13738333134562" lon="20.102741639881113" id="-32962">
		<tag k="name" v="Revva" />
		<tag k="natural" v="hill" />
		<tag k="place" v="locality" />
		<tag k="ssr:stedsnr" v="55672" />
	</node>
	<node lat="69.23602777425171" lon="20.088208311783347" id="-32963">
		<tag k="name" v="Holmen" />
		<tag k="place" v="islet" />
		<tag k="ssr:stedsnr" v="55678" />
	</node>
	<node lat="69.37273889018104" lon="20.36668887532707" id="-32964">
		<tag k="name" v="Inga-Billiriidi" />
		<tag k="name:se" v="Inga-Billiriidi" />
		<tag k="natural" v="slope" />
		<tag k="place" v="locality" />
		<tag k="ssr:stedsnr" v="55991" />
	</node>
	<node lat="69.06588333540735" lon="20.343947204040933" id="-32977">
		<tag k="alt_name" v="Skjærdalen, indre" />
		<tag k="name" v="Indre Skjærdalen" />
		<tag k="natural" v="valley" />
		<tag k="place" v="locality" />
		<tag k="ssr:stedsnr" v="79246" />
	</node>
	<node lat="69.23891945000753" lon="19.79754997858218" id="-32978">
		<tag k="name" v="Jorbariehppi" />
		<tag k="name:se" v="Jorbariehppi" />
		<tag k="natural" v="valley" />
		<tag k="place" v="locality" />
		<tag k="ssr:stedsnr" v="79144" />
	</node>
	<node lat="69.23576111358214" lon="19.83192221318044" id="-32979">
		<tag k="name" v="Molund" />
		<tag k="place" v="farm" />
		<tag k="ssr:stedsnr" v="79346" />
	</node>
	<node lat="69.23274999813006" lon="19.898952753076056" id="-32980">
		<tag k="name" v="Oteraksla - Čávkosčohkka" />
		<tag k="name:no" v="Oteraksla" />
		<tag k="name:se" v="Čávkosčohkka" />
		<tag k="natural" v="ridge" />
		<tag k="place" v="locality" />
		<tag k="ssr:stedsnr" v="79349" />
	</node>
	<node lat="69.23780000388871" lon="20.179936093066967" id="-32981">
		<tag k="name" v="Jorbagieddi - Jorbmakenttä" />
		<tag k="name:fkv" v="Jorbmakenttä" />
		<tag k="name:se" v="Jorbagieddi" />
		<tag k="place" v="locality" />
		<tag k="ssr:stedsnr" v="79352" />
	</node>
	<node lat="69.1503249998869" lon="20.054347196479327" id="-32982">
		<tag k="name" v="Elverum" />
		<tag k="place" v="farm" />
		<tag k="ssr:stedsnr" v="79292" />
	</node>
	<node lat="69.3176027816217" lon="20.010352772464014" id="-32983">
		<tag k="name" v="Slettås" />
		<tag k="place" v="farm" />
		<tag k="ssr:stedsnr" v="79404" />
	</node>
	<node lat="69.4009499972346" lon="20.143599994886202" id="-32984">
		<tag k="name" v="Gunnarberg" />
		<tag k="place" v="farm" />
		<tag k="ssr:stedsnr" v="79448" />
	</node>
	<node lat="69.40478055237749" lon="19.951894418382942" id="-32985">
		<tag k="fixme" v="consider natural=peak for the most distinct mountains in the district" />
		<tag k="name" v="Gaskačohkka" />
		<tag k="name:se" v="Gaskačohkka" />
		<tag k="natural" v="hill" />
		<tag k="place" v="locality" />
		<tag k="ssr:stedsnr" v="79451" />
	</node>
	<node lat="69.2498999995812" lon="20.02827220824266" id="-32986">
		<tag k="name" v="Bjørkeli" />
		<tag k="place" v="farm" />
		<tag k="ssr:stedsnr" v="79551" />
	</node>
	<node lat="69.22385555878977" lon="20.615883312634054" id="-32987">
		<tag k="alt_name:se" v="Busesvárri" />
		<tag k="fixme" v="consider natural=peak for the most distinct mountains in the district" />
		<tag k="name" v="Buvssasvárri" />
		<tag k="name:se" v="Buvssasvárri" />
		<tag k="natural" v="hill" />
		<tag k="place" v="locality" />
		<tag k="ssr:stedsnr" v="80988" />
	</node>
	<node lat="69.33995116169466" lon="19.96281506445656" id="-32989">
		<tag k="fixme" v="consider place=hamlet" />
		<tag k="name" v="Elvevoll - Stállovággi - Staaluvankka" />
		<tag k="name:fkv" v="Staaluvankka" />
		<tag k="name:no" v="Elvevoll" />
		<tag k="name:se" v="Stállovággi" />
		<tag k="place" v="village" />
		<tag k="ssr:stedsnr" v="87126" />
	</node>
	<node lat="69.39624444255442" lon="20.271852767943994" id="-32990">
		<tag k="name" v="Ronkanjoki" />
		<tag k="name:fkv" v="Ronkanjoki" />
		<tag k="ssr:stedsnr" v="92985" />
		<tag k="waterway" v="stream" />
	</node>
	<node lat="69.36634289762166" lon="20.201037960602847" id="-32991">
		<tag k="fixme" v="multiple name tags, choose one and add the other to alt_name" />
		<tag k="name" v="Storgryta - Stuoramohkki - Isomukka;Isopata" />
		<tag k="name:fkv" v="Isomukka;Isopata" />
		<tag k="name:no" v="Storgryta" />
		<tag k="name:se" v="Stuoramohkki" />
		<tag k="place" v="locality" />
		<tag k="ssr:stedsnr" v="92988" />
	</node>
	<node lat="69.4137194449411" lon="20.27751665741407" id="-32992">
		<tag k="fixme" v="consider natural=peak for the most distinct mountains in the district" />
		<tag k="name" v="Røykenesaksla - Ruikkatanolka" />
		<tag k="name:fkv" v="Ruikkatanolka" />
		<tag k="name:no" v="Røykenesaksla" />
		<tag k="natural" v="hill" />
		<tag k="place" v="locality" />
		<tag k="ssr:stedsnr" v="93366" />
	</node>
	<node lat="69.37018889028207" lon="20.29552497921718" id="-32993">
		<tag k="name" v="Leppäjänkkä" />
		<tag k="name:fkv" v="Leppäjänkkä" />
		<tag k="natural" v="wetland" />
		<tag k="ssr:stedsnr" v="97160" />
	</node>
	<node lat="69.23724166445406" lon="20.06221942689765" id="-32994">
		<tag k="name" v="Suonijänkkä" />
		<tag k="name:fkv" v="Suonijänkkä" />
		<tag k="place" v="locality" />
		<tag k="ssr:stedsnr" v="97669" />
	</node>
	<node lat="69.37533888863246" lon="20.047552755120126" id="-32995">
		<tag k="name" v="Stuoradievvá" />
		<tag k="name:se" v="Stuoradievvá" />
		<tag k="natural" v="hill" />
		<tag k="place" v="locality" />
		<tag k="ssr:stedsnr" v="97912" />
	</node>
	<node lat="69.38850000146516" lon="20.00637776852279" id="-32996">
		<tag k="name" v="Nállangilga" />
		<tag k="name:se" v="Nállangilga" />
		<tag k="place" v="locality" />
		<tag k="ssr:stedsnr" v="97916" />
	</node>
	<node lat="69.39895833515524" lon="20.277980528934698" id="-32997">
		<tag k="highway" v="path" />
		<tag k="name" v="Marketsgropveien" />
		<tag k="ssr:stedsnr" v="115107" />
	</node>
	<node lat="69.3703555597815" lon="20.258080547020494" id="-32998">
		<tag k="name" v="Apaja" />
		<tag k="name:fkv" v="Apaja" />
		<tag k="natural" v="slope" />
		<tag k="place" v="locality" />
		<tag k="ssr:stedsnr" v="115136" />
	</node>
	<node lat="69.35507499909465" lon="20.242416660577188" id="-32999">
		<tag k="name" v="Gamskogelva" />
		<tag k="ssr:stedsnr" v="115016" />
		<tag k="waterway" v="stream" />
	</node>
	<node lat="69.35449166591695" lon="19.891924986411418" id="-33000">
		<tag k="name" v="Gruva" />
		<tag k="natural" v="slope" />
		<tag k="place" v="locality" />
		<tag k="ssr:stedsnr" v="115384" />
	</node>
	<node lat="69.34066388698884" lon="19.957152758831214" id="-33001">
		<tag k="name" v="Čuohpaga" />
		<tag k="name:se" v="Čuohpaga" />
		<tag k="place" v="locality" />
		<tag k="ssr:stedsnr" v="115522" />
	</node>
	<node lat="69.33809166233402" lon="19.96832221592054" id="-33002">
		<tag k="loc_name:se" v="Johkasuolu" />
		<tag k="name" v="Elveholman" />
		<tag k="name:no" v="Elveholman" />
		<tag k="place" v="islet" />
		<tag k="ssr:stedsnr" v="115531" />
	</node>
	<node lat="69.25102222581967" lon="19.872441665382855" id="-33003">
		<tag k="name" v="Sáiserohtu" />
		<tag k="name:se" v="Sáiserohtu" />
		<tag k="place" v="farm" />
		<tag k="ssr:stedsnr" v="115404" />
	</node>
	<node lat="69.25557221950226" lon="19.838808311685433" id="-33004">
		<tag k="name" v="Åsbakken" />
		<tag k="natural" v="slope" />
		<tag k="place" v="locality" />
		<tag k="ssr:stedsnr" v="115407" />
	</node>
	<node lat="69.26044722510066" lon="19.878836100897896" id="-33005">
		<tag k="loc_name:se" v="Geassesadji" />
		<tag k="name" v="Sommarset" />
		<tag k="name:no" v="Sommarset" />
		<tag k="place" v="farm" />
		<tag k="ssr:stedsnr" v="115419" />
	</node>
	<node lat="69.15330000173776" lon="20.09470553397435" id="-33008">
		<tag k="name" v="Tverrelva" />
		<tag k="ssr:stedsnr" v="139307" />
		<tag k="waterway" v="stream" />
	</node>
	<node lat="69.11511944258689" lon="20.102122213772244" id="-33009">
		<tag k="name" v="Rognli" />
		<tag k="place" v="farm" />
		<tag k="ssr:stedsnr" v="139291" />
	</node>
	<node lat="69.11381666913302" lon="20.233211107473934" id="-33010">
		<tag k="alt_name:no" v="Markuselva, indre" />
		<tag k="name" v="Indre Markuselva - Márkosvádjajohka" />
		<tag k="name:no" v="Indre Markuselva" />
		<tag k="name:se" v="Márkosvádjajohka" />
		<tag k="ssr:stedsnr" v="139294" />
		<tag k="waterway" v="stream" />
	</node>
	<node lat="69.27668055712661" lon="19.877349993970483" id="-33011">
		<tag k="name" v="Akeelva - Áhkejohka" />
		<tag k="name:no" v="Akeelva" />
		<tag k="name:se" v="Áhkejohka" />
		<tag k="ssr:stedsnr" v="139407" />
		<tag k="waterway" v="stream" />
	</node>
	<node lat="69.24758055967379" lon="20.043919432386996" id="-33012">
		<tag k="name" v="Heggeblom" />
		<tag k="place" v="farm" />
		<tag k="ssr:stedsnr" v="139387" />
	</node>
	<node lat="69.38053611370722" lon="20.02573887240871" id="-33013">
		<tag k="name" v="Gobijohka" />
		<tag k="name:se" v="Gobijohka" />
		<tag k="ssr:stedsnr" v="139505" />
		<tag k="waterway" v="stream" />
	</node>
	<node lat="69.1042499972858" lon="20.662480540283028" id="-33014">
		<tag k="fixme" v="consider natural=peak for the most distinct mountains in the district" />
		<tag k="name" v="Goallároaivi" />
		<tag k="name:se" v="Goallároaivi" />
		<tag k="natural" v="hill" />
		<tag k="place" v="locality" />
		<tag k="ssr:stedsnr" v="140506" />
	</node>
	<node lat="69.07788611517962" lon="20.119224974475213" id="-33015">
		<tag k="name" v="Skjærbekken" />
		<tag k="ssr:stedsnr" v="142457" />
		<tag k="waterway" v="stream" />
	</node>
	<node lat="69.25643611295776" lon="19.967774990540736" id="-33016">
		<tag k="name" v="Pitkätörmä" />
		<tag k="name:fkv" v="Pitkätörmä" />
		<tag k="natural" v="slope" />
		<tag k="place" v="locality" />
		<tag k="ssr:stedsnr" v="157166" />
	</node>
	<node lat="69.26040277708489" lon="19.85963055420171" id="-33017">
		<tag k="name" v="Akselbergan - Oalggibávttit" />
		<tag k="name:no" v="Akselbergan" />
		<tag k="name:se" v="Oalggibávttit" />
		<tag k="natural" v="hill" />
		<tag k="place" v="locality" />
		<tag k="ssr:stedsnr" v="157609" />
	</node>
	<node lat="69.38795000026546" lon="20.000419442117945" id="-33018">
		<tag k="name" v="Márttot" />
		<tag k="name:se" v="Márttot" />
		<tag k="natural" v="hill" />
		<tag k="place" v="locality" />
		<tag k="ssr:stedsnr" v="157912" />
	</node>
	<node lat="69.37203333392225" lon="20.042799988769616" id="-33019">
		<tag k="name" v="Stálledievvá" />
		<tag k="name:se" v="Stálledievvá" />
		<tag k="natural" v="hill" />
		<tag k="place" v="locality" />
		<tag k="ssr:stedsnr" v="157916" />
	</node>
	<node lat="69.052661112112" lon="20.303094437294767" id="-33020">
		<tag k="fixme" v="multiple name tags, choose one and add the other to alt_name" />
		<tag k="historic" v="boundary_stone" />
		<tag k="man_made" v="cairn" />
		<tag k="name" v="Kappovarerøysa;Gappovarrirøysa" />
		<tag k="old_name" v="Gapo Vari Røset" />
		<tag k="place" v="locality" />
		<tag k="ssr:stedsnr" v="171676" />
	</node>
	<node lat="69.2494944445516" lon="19.78947775479455" id="-33021">
		<tag k="alt_name:se" v="Jorbavárri" />
		<tag k="fixme" v="consider natural=peak for the most distinct mountains in the district" />
		<tag k="name" v="Rundfjellet - Jorbaoaivi" />
		<tag k="name:no" v="Rundfjellet" />
		<tag k="name:se" v="Jorbaoaivi" />
		<tag k="natural" v="hill" />
		<tag k="place" v="locality" />
		<tag k="ssr:stedsnr" v="261170" />
	</node>
	<node lat="69.0901750015012" lon="20.126197217762478" id="-33022">
		<tag k="name" v="Skredbekken - Čáŋahatjohka" />
		<tag k="name:no" v="Skredbekken" />
		<tag k="name:se" v="Čáŋahatjohka" />
		<tag k="ssr:stedsnr" v="261260" />
		<tag k="waterway" v="stream" />
	</node>
	<node lat="69.42097222125761" lon="20.364727748849656" id="-33023">
		<tag k="name" v="Søndre Larsbergelva" />
		<tag k="ssr:stedsnr" v="261264" />
		<tag k="waterway" v="stream" />
	</node>
	<node lat="69.06307499952341" lon="20.07642497733782" id="-33024">
		<tag k="name" v="Čorrovággi" />
		<tag k="name:se" v="Čorrovággi" />
		<tag k="natural" v="valley" />
		<tag k="place" v="locality" />
		<tag k="ssr:stedsnr" v="261266" />
	</node>
	<node lat="69.1285083344988" lon="20.37813053611128" id="-33025">
		<tag k="name" v="Stoarbmagieddi" />
		<tag k="name:se" v="Stoarbmagieddi" />
		<tag k="place" v="locality" />
		<tag k="ssr:stedsnr" v="261281" />
	</node>
	<node lat="69.10375278319748" lon="20.101713868677628" id="-33026">
		<tag k="alt_name:no" v="Barasdalen" />
		<tag k="name" v="Parasdalen - Bárrásvuovdi" />
		<tag k="name:no" v="Parasdalen" />
		<tag k="name:se" v="Bárrásvuovdi" />
		<tag k="natural" v="valley" />
		<tag k="place" v="locality" />
		<tag k="ssr:stedsnr" v="261290" />
	</node>
	<node lat="69.11387777880688" lon="20.10100275751462" id="-33027">
		<tag k="name" v="Paraselva - Bárrásjohka" />
		<tag k="name:no" v="Paraselva" />
		<tag k="name:se" v="Bárrásjohka" />
		<tag k="ssr:stedsnr" v="261292" />
		<tag k="waterway" v="river" />
	</node>
	<node lat="69.11582499560711" lon="20.0681499918077" id="-33028">
		<tag k="name" v="Várreovda" />
		<tag k="name:se" v="Várreovda" />
		<tag k="natural" v="slope" />
		<tag k="place" v="locality" />
		<tag k="ssr:stedsnr" v="261321" />
	</node>
	<node lat="69.22328888888002" lon="20.115591653066833" id="-33029">
		<tag k="fixme" v="consider natural=peak for the most distinct mountains in the district" />
		<tag k="name" v="Beahcenjunni - Petäjänenä" />
		<tag k="name:fkv" v="Petäjänenä" />
		<tag k="name:se" v="Beahcenjunni" />
		<tag k="natural" v="hill" />
		<tag k="place" v="locality" />
		<tag k="ssr:stedsnr" v="261365" />
	</node>
	<node lat="69.16745879932911" lon="20.04867591959969" id="-33030">
		<tag k="fixme" v="consider place=hamlet" />
		<tag k="name" v="Mannfjell" />
		<tag k="place" v="farm" />
		<tag k="ssr:stedsnr" v="261332" />
	</node>
	<node lat="69.20314166276204" lon="19.967677773091804" id="-33031">
		<tag k="name" v="Luhppujeaggi" />
		<tag k="name:se" v="Luhppujeaggi" />
		<tag k="natural" v="wetland" />
		<tag k="ssr:stedsnr" v="261342" />
	</node>
	<node lat="69.34128889119076" lon="20.371547199207253" id="-33032">
		<tag k="alt_name:no" v="Haskielva, midtre" />
		<tag k="name" v="Midtre Haskielva - Keski-Haskijoki" />
		<tag k="name:fkv" v="Keski-Haskijoki" />
		<tag k="name:no" v="Midtre Haskielva" />
		<tag k="ssr:stedsnr" v="261416" />
		<tag k="waterway" v="stream" />
	</node>
	<node lat="69.33757222284517" lon="20.291522203962057" id="-33033">
		<tag k="alt_name:se" v="Ivgojohka" />
		<tag k="name" v="Skibotnelva - Gálggojohka - Yykeänperänjoki" />
		<tag k="name:fkv" v="Yykeänperänjoki" />
		<tag k="name:no" v="Skibotnelva" />
		<tag k="name:se" v="Gálggojohka" />
		<tag k="ssr:stedsnr" v="261417" />
		<tag k="waterway" v="river" />
	</node>
	<node lat="69.31578324939917" lon="19.94995804428281" id="-33034">
		<tag k="alt_name" v="Nygard" />
		<tag k="fixme" v="consider place=hamlet" />
		<tag k="name" v="Nygård" />
		<tag k="place" v="farm" />
		<tag k="ssr:stedsnr" v="261427" />
	</node>
	<node lat="69.32091389390887" lon="20.383074975277587" id="-33035">
		<tag k="fixme" v="multiple name tags, choose one and add the other to alt_name; consider natural=peak for the most distinct mountains in the district" />
		<tag k="name" v="Bærfjellet - Muorjevárri - Marjavaara;Iivarinvaara" />
		<tag k="name:fkv" v="Marjavaara;Iivarinvaara" />
		<tag k="name:no" v="Bærfjellet" />
		<tag k="name:se" v="Muorjevárri" />
		<tag k="natural" v="hill" />
		<tag k="place" v="locality" />
		<tag k="ssr:stedsnr" v="261431" />
	</node>
	<node lat="69.1802888857645" lon="20.004638878329253" id="-33036">
		<tag k="name" v="Kroneset" />
		<tag k="natural" v="cape" />
		<tag k="ssr:stedsnr" v="175363" />
	</node>
	<node lat="69.23346666656226" lon="19.942933321849893" id="-33037">
		<tag k="name" v="Borrejohka" />
		<tag k="name:se" v="Borrejohka" />
		<tag k="ssr:stedsnr" v="175368" />
		<tag k="waterway" v="stream" />
	</node>
	<node lat="69.1567916696747" lon="20.04774443658774" id="-33038">
		<tag k="name" v="Russemoen" />
		<tag k="place" v="locality" />
		<tag k="ssr:stedsnr" v="175371" />
	</node>
	<node lat="69.23471389344515" lon="20.156605533020745" id="-33039">
		<tag k="name" v="Norddalen - Gáranassuorgi - Kaarnassuorki" />
		<tag k="name:fkv" v="Kaarnassuorki" />
		<tag k="name:no" v="Norddalen" />
		<tag k="name:se" v="Gáranassuorgi" />
		<tag k="natural" v="valley" />
		<tag k="place" v="locality" />
		<tag k="ssr:stedsnr" v="261373" />
	</node>
	<node lat="69.23668888676521" lon="20.077713884739037" id="-33040">
		<tag k="loc_name:se" v="Ruodnesluohkká" />
		<tag k="name" v="Grønli" />
		<tag k="name:no" v="Grønli" />
		<tag k="place" v="farm" />
		<tag k="ssr:stedsnr" v="261377" />
	</node>
	<node lat="69.247241672263" lon="20.018288865396677" id="-33041">
		<tag k="name" v="Elvemo" />
		<tag k="place" v="farm" />
		<tag k="ssr:stedsnr" v="261381" />
	</node>
	<node lat="69.24641111298814" lon="20.04955831958752" id="-33042">
		<tag k="name" v="Heggeli" />
		<tag k="place" v="farm" />
		<tag k="ssr:stedsnr" v="261387" />
	</node>
	<node lat="69.29887953631966" lon="19.979224462206265" id="-33043">
		<tag k="alt_name:no" v="Bergbukta" />
		<tag k="name" v="Bergsbukta - Báktemohkki - Pahanmukka" />
		<tag k="name:fkv" v="Pahanmukka" />
		<tag k="name:no" v="Bergsbukta" />
		<tag k="name:se" v="Báktemohkki" />
		<tag k="natural" v="bay" />
		<tag k="ssr:stedsnr" v="261394" />
	</node>
	<node lat="69.30859444446226" lon="19.86670553323485" id="-33044">
		<tag k="fixme" v="consider natural=peak for the most distinct mountains in the district" />
		<tag k="name" v="Kvalnesfjellet - Bossonjárvárri" />
		<tag k="name:no" v="Kvalnesfjellet" />
		<tag k="name:se" v="Bossonjárvárri" />
		<tag k="natural" v="hill" />
		<tag k="old_name:se" v="Bossonjár-varri" />
		<tag k="place" v="locality" />
		<tag k="ssr:stedsnr" v="261435" />
	</node>
	<node lat="69.31126269352974" lon="19.940544293657616" id="-33045">
		<tag k="fixme" v="consider place=hamlet" />
		<tag k="name" v="Stubbeng - Láđugieddi" />
		<tag k="name:no" v="Stubbeng" />
		<tag k="name:se" v="Láđugieddi" />
		<tag k="place" v="farm" />
		<tag k="ssr:stedsnr" v="261438" />
	</node>
	<node lat="69.38120555228491" lon="20.268522209227143" id="-33046">
		<tag k="alt_name" v="Furuholm" />
		<tag k="name" v="Furuholmen" />
		<tag k="place" v="farm" />
		<tag k="ssr:stedsnr" v="261514" />
	</node>
	<node lat="69.36425555880994" lon="20.502077757921974" id="-33047">
		<tag k="fixme" v="consider natural=peak for the most distinct mountains in the district" />
		<tag k="name" v="Fávrrosvárri" />
		<tag k="name:se" v="Fávrrosvárri" />
		<tag k="natural" v="hill" />
		<tag k="place" v="locality" />
		<tag k="ssr:stedsnr" v="261515" />
	</node>
	<node lat="69.3651749979251" lon="20.269702759517436" id="-33048">
		<tag k="name" v="Fossmo" />
		<tag k="place" v="farm" />
		<tag k="ssr:stedsnr" v="261457" />
	</node>
	<node lat="69.36318055371389" lon="19.850236107092844" id="-33049">
		<tag k="name" v="Dalbotn - Vággevuođđu" />
		<tag k="name:no" v="Dalbotn" />
		<tag k="name:se" v="Vággevuođđu" />
		<tag k="natural" v="valley" />
		<tag k="place" v="locality" />
		<tag k="ssr:stedsnr" v="261465" />
	</node>
	<node lat="69.35637500213498" lon="20.217522210678606" id="-33050">
		<tag k="name" v="Rádjejohka" />
		<tag k="name:se" v="Rádjejohka" />
		<tag k="ssr:stedsnr" v="261468" />
		<tag k="waterway" v="stream" />
	</node>
	<node lat="69.36287500148805" lon="20.307105542038514" id="-33051">
		<tag k="name" v="Nyheim" />
		<tag k="place" v="farm" />
		<tag k="ssr:stedsnr" v="261470" />
	</node>
	<node lat="69.34556388726075" lon="19.969822199664677" id="-33052">
		<tag k="name" v="Borge" />
		<tag k="place" v="farm" />
		<tag k="ssr:stedsnr" v="261477" />
	</node>
	<node lat="69.3963833362113" lon="20.131369422958777" id="-33053">
		<tag k="name" v="Årland" />
		<tag k="place" v="farm" />
		<tag k="ssr:stedsnr" v="261482" />
	</node>
	<node lat="69.3926783666748" lon="20.119356103225712" id="-33054">
		<tag k="fixme" v="consider place=hamlet" />
		<tag k="name" v="Rasteby" />
		<tag k="place" v="farm" />
		<tag k="ssr:stedsnr" v="261488" />
	</node>
	<node lat="69.3974747507395" lon="20.135719869847946" id="-33055">
		<tag k="fixme" v="consider place=hamlet" />
		<tag k="name" v="Rasteby - Čuollonjárga - Sulluniemi" />
		<tag k="name:fkv" v="Sulluniemi" />
		<tag k="name:no" v="Rasteby" />
		<tag k="name:se" v="Čuollonjárga" />
		<tag k="place" v="village" />
		<tag k="ssr:stedsnr" v="261490" />
	</node>
	<node lat="69.40774166652169" lon="20.345627757102513" id="-33056">
		<tag k="fixme" v="consider natural=peak for the most distinct mountains in the district" />
		<tag k="name" v="Marketsfjellet - Márkanvárri - Markkinavaara" />
		<tag k="name:fkv" v="Markkinavaara" />
		<tag k="name:no" v="Marketsfjellet" />
		<tag k="name:se" v="Márkanvárri" />
		<tag k="natural" v="hill" />
		<tag k="place" v="locality" />
		<tag k="ssr:stedsnr" v="261492" />
	</node>
	<node lat="69.33594444568993" lon="19.982774984964863" id="-33057">
		<tag k="loc_name:se" v="Davitnjárga" />
		<tag k="name" v="Ytterneset" />
		<tag k="name:no" v="Ytterneset" />
		<tag k="natural" v="cape" />
		<tag k="ssr:stedsnr" v="176503" />
	</node>
	<node lat="69.34483611045225" lon="19.960508316817524" id="-33058">
		<tag k="name" v="Langlia" />
		<tag k="natural" v="slope" />
		<tag k="place" v="locality" />
		<tag k="ssr:stedsnr" v="176511" />
	</node>
	<node lat="69.36816944695788" lon="20.018438868857263" id="-33059">
		<tag k="name" v="Faŋka" />
		<tag k="name:se" v="Faŋka" />
		<tag k="natural" v="hill" />
		<tag k="place" v="locality" />
		<tag k="ssr:stedsnr" v="176514" />
	</node>
	<node lat="69.32524722075658" lon="19.95469720154473" id="-33060">
		<tag k="loc_name:se" v="Čáhppesbákti" />
		<tag k="name" v="Svartberget" />
		<tag k="name:no" v="Svartberget" />
		<tag k="natural" v="hill" />
		<tag k="place" v="locality" />
		<tag k="ssr:stedsnr" v="176518" />
	</node>
	<node lat="69.25911388608121" lon="20.00092499592841" id="-33061">
		<tag k="name" v="Eine" />
		<tag k="natural" v="slope" />
		<tag k="place" v="locality" />
		<tag k="ssr:stedsnr" v="176554" />
	</node>
	<node lat="69.12401944218351" lon="20.09064166212954" id="-33062">
		<tag k="name" v="Storholmen" />
		<tag k="place" v="islet" />
		<tag k="ssr:stedsnr" v="176705" />
	</node>
	<node lat="69.23307500276303" lon="20.108752769403605" id="-33063">
		<tag k="name" v="Tindstad" />
		<tag k="place" v="farm" />
		<tag k="ssr:stedsnr" v="176714" />
	</node>
	<node lat="69.30260833516037" lon="20.50777775410543" id="-33064">
		<tag k="name" v="Kotahumppi" />
		<tag k="name:fkv" v="Kotahumppi" />
		<tag k="natural" v="hill" />
		<tag k="place" v="locality" />
		<tag k="ssr:stedsnr" v="261553" />
	</node>
	<node lat="69.30753888930884" lon="20.427541638490798" id="-33065">
		<tag k="name" v="Lullevárri" />
		<tag k="name:se" v="Lullevárri" />
		<tag k="place" v="isolated_dwelling" />
		<tag k="ssr:stedsnr" v="261562" />
	</node>
	<node lat="69.27185833007786" lon="20.524474972102936" id="-33066">
		<tag k="name" v="Halsen" />
		<tag k="natural" v="valley" />
		<tag k="place" v="locality" />
		<tag k="ssr:stedsnr" v="176959" />
	</node>
	<node lat="69.27967777638261" lon="20.489783322594498" id="-33067">
		<tag k="name" v="Slemelva" />
		<tag k="ssr:stedsnr" v="176962" />
		<tag k="waterway" v="stream" />
	</node>
	<node lat="69.27015277518234" lon="20.405480547333617" id="-33068">
		<tag k="name" v="Luhčajohka" />
		<tag k="name:se" v="Luhčajohka" />
		<tag k="ssr:stedsnr" v="261588" />
		<tag k="waterway" v="stream" />
	</node>
	<node lat="69.29708055837123" lon="20.704283302817277" id="-33069">
		<tag k="name" v="Geasášjávri" />
		<tag k="name:se" v="Geasášjávri" />
		<tag k="natural" v="water" />
		<tag k="old_name:se" v="Geasásjávri" />
		<tag k="ssr:stedsnr" v="261543" />
		<tag k="water" v="lake" />
	</node>
	<node lat="69.25588333020382" lon="20.541136090466427" id="-33070">
		<tag k="name" v="Stuoratoailatnja" />
		<tag k="name:se" v="Stuoratoailatnja" />
		<tag k="natural" v="valley" />
		<tag k="place" v="locality" />
		<tag k="ssr:stedsnr" v="261669" />
	</node>
	<node lat="69.13380000080933" lon="20.883274977433082" id="-33072">
		<tag k="name" v="Gárášoaičahca" />
		<tag k="name:se" v="Gárášoaičahca" />
		<tag k="natural" v="valley" />
		<tag k="place" v="locality" />
		<tag k="ssr:stedsnr" v="261922" />
	</node>
	<node lat="69.13547777642157" lon="20.644724984332697" id="-33073">
		<tag k="fixme" v="consider natural=peak for the most distinct mountains in the district" />
		<tag k="name" v="Sallooaivi" />
		<tag k="name:se" v="Sallooaivi" />
		<tag k="natural" v="hill" />
		<tag k="place" v="locality" />
		<tag k="ssr:stedsnr" v="261934" />
	</node>
	<node lat="69.1434833338472" lon="20.431891660267812" id="-33074">
		<tag k="name" v="Goahteorotjávrrit" />
		<tag k="name:se" v="Goahteorotjávrrit" />
		<tag k="natural" v="water" />
		<tag k="ssr:stedsnr" v="261935" />
	</node>
	<node lat="69.0908999976504" lon="20.90388053026117" id="-33079">
		<tag k="name" v="Gállajávri" />
		<tag k="name:se" v="Gállajávri" />
		<tag k="natural" v="water" />
		<tag k="ssr:stedsnr" v="262559" />
		<tag k="water" v="lake" />
	</node>
	<node lat="69.19438333583784" lon="20.704808307711275" id="-33080">
		<tag k="name" v="Gálggojohka" />
		<tag k="name:se" v="Gálggojohka" />
		<tag k="ssr:stedsnr" v="262984" />
		<tag k="waterway" v="river" />
	</node>
	<node lat="69.31279444573254" lon="20.553183308658607" id="-33081">
		<tag k="fixme" v="consider natural=peak for the most distinct mountains in the district" />
		<tag k="name" v="Ákšogaikunvárri" />
		<tag k="name:se" v="Ákšogaikunvárri" />
		<tag k="natural" v="hill" />
		<tag k="place" v="locality" />
		<tag k="ssr:stedsnr" v="264331" />
	</node>
	<node lat="69.33400376971096" lon="20.140729161308066" id="-33082">
		<tag k="fixme" v="consider natural=peak for the most distinct mountains in the district" />
		<tag k="name" v="Reppifjellet - Reahpennjárggavárri - Reppiniemenvaara" />
		<tag k="name:fkv" v="Reppiniemenvaara" />
		<tag k="name:no" v="Reppifjellet" />
		<tag k="name:se" v="Reahpennjárggavárri" />
		<tag k="natural" v="hill" />
		<tag k="place" v="locality" />
		<tag k="ssr:stedsnr" v="267352" />
	</node>
	<node lat="69.42440277550224" lon="20.414108302695215" id="-33083">
		<tag k="fixme" v="consider natural=peak for the most distinct mountains in the district" />
		<tag k="name" v="Foranesfjellet" />
		<tag k="natural" v="hill" />
		<tag k="place" v="locality" />
		<tag k="ssr:stedsnr" v="200262" />
	</node>
	<node lat="69.33314167217601" lon="20.39831386565672" id="-33084">
		<tag k="name" v="Stolpemyra" />
		<tag k="natural" v="wetland" />
		<tag k="ssr:stedsnr" v="200416" />
	</node>
	<node lat="69.15966944583575" lon="20.056427770891503" id="-33085">
		<tag k="name" v="Márkoslatnja" />
		<tag k="name:se" v="Márkoslatnja" />
		<tag k="natural" v="slope" />
		<tag k="place" v="locality" />
		<tag k="ssr:stedsnr" v="200306" />
	</node>
	<node lat="69.27222499709815" lon="19.94700555306736" id="-33086">
		<tag k="amenity" v="place_of_worship" />
		<tag k="denomination" v="lutheran" />
		<tag k="name" v="Storfjord" />
		<tag k="religion" v="christian" />
		<tag k="ssr:stedsnr" v="200401" />
	</node>
	<node lat="69.38566944197422" lon="20.00611110717746" id="-33087">
		<tag k="name" v="Tverrelva - Doaresjohka" />
		<tag k="name:no" v="Tverrelva" />
		<tag k="name:se" v="Doaresjohka" />
		<tag k="ssr:stedsnr" v="200503" />
		<tag k="waterway" v="stream" />
	</node>
	<node lat="69.3800277771055" lon="20.07917221773719" id="-33088">
		<tag k="name" v="Steinmoen" />
		<tag k="place" v="farm" />
		<tag k="ssr:stedsnr" v="200505" />
	</node>
	<node lat="69.38967499666296" lon="20.312544423810515" id="-33089">
		<tag k="alt_name:no" v="Melkeloftmyran" />
		<tag k="name" v="Melkeloftmyra - Maitolohanjänkkä" />
		<tag k="name:fkv" v="Maitolohanjänkkä" />
		<tag k="name:no" v="Melkeloftmyra" />
		<tag k="natural" v="wetland" />
		<tag k="ssr:stedsnr" v="200511" />
	</node>
	<node lat="69.28887499875708" lon="20.66563609996933" id="-33090">
		<tag k="name" v="Rovveluoppalnibba" />
		<tag k="name:se" v="Rovveluoppalnibba" />
		<tag k="natural" v="hill" />
		<tag k="place" v="locality" />
		<tag k="ssr:stedsnr" v="200697" />
	</node>
	<node lat="69.25335278166159" lon="19.862477765378767" id="-33091">
		<tag k="name" v="Myreng" />
		<tag k="place" v="farm" />
		<tag k="ssr:stedsnr" v="200600" />
	</node>
	<node lat="69.255155558719" lon="19.866744426918206" id="-33092">
		<tag k="name" v="Myra" />
		<tag k="place" v="farm" />
		<tag k="ssr:stedsnr" v="200601" />
	</node>
	<node lat="69.17210000365137" lon="19.95907775349112" id="-33093">
		<tag k="fixme" v="consider natural=peak for the most distinct mountains in the district" />
		<tag k="name" v="Polvartinden - Čiekŋaljávarregáisi" />
		<tag k="name:no" v="Polvartinden" />
		<tag k="name:se" v="Čiekŋaljávarregáisi" />
		<tag k="natural" v="hill" />
		<tag k="place" v="locality" />
		<tag k="ssr:stedsnr" v="267249" />
	</node>
	<node lat="69.1030916701758" lon="21.00995552470005" id="-33094">
		<tag k="fixme" v="consider natural=peak for the most distinct mountains in the district" />
		<tag k="name" v="Heargevárri" />
		<tag k="name:se" v="Heargevárri" />
		<tag k="natural" v="hill" />
		<tag k="place" v="locality" />
		<tag k="ssr:stedsnr" v="201504" />
	</node>
	<node lat="69.10257500074815" lon="20.985808302341137" id="-33095">
		<tag k="name" v="Heargejohka" />
		<tag k="name:se" v="Heargejohka" />
		<tag k="ssr:stedsnr" v="201505" />
		<tag k="waterway" v="river" />
	</node>
	<node lat="69.09051620922193" lon="20.834755291868202" id="-33096">
		<tag k="fixme" v="consider natural=peak for the most distinct mountains in the district" />
		<tag k="name" v="Jiehkkáš" />
		<tag k="name:se" v="Jiehkkáš" />
		<tag k="natural" v="hill" />
		<tag k="place" v="locality" />
		<tag k="ssr:stedsnr" v="201507" />
	</node>
	<node lat="69.18517499803308" lon="19.996411089917196" id="-33097">
		<tag k="alt_name:no" v="Kavelfossen" />
		<tag k="loc_name:se" v="Gávalgurti" />
		<tag k="name" v="Kavlefossen" />
		<tag k="name:no" v="Kavlefossen" />
		<tag k="natural" v="waterfall" />
		<tag k="ssr:stedsnr" v="201297" />
	</node>
	<node lat="69.34765277874072" lon="19.973561095280512" id="-33098">
		<tag k="name" v="Storeng - Muorjenjárga" />
		<tag k="name:no" v="Storeng" />
		<tag k="name:se" v="Muorjenjárga" />
		<tag k="place" v="farm" />
		<tag k="ssr:stedsnr" v="201445" />
	</node>
	<node lat="69.10344999868659" lon="20.832649965448883" id="-33099">
		<tag k="name" v="Gállajohka" />
		<tag k="name:se" v="Gállajohka" />
		<tag k="ssr:stedsnr" v="201501" />
		<tag k="waterway" v="river" />
	</node>
	<node lat="69.13307499903425" lon="20.507899978837315" id="-33100">
		<tag k="name" v="Doggejávrrit" />
		<tag k="name:se" v="Doggejávrrit" />
		<tag k="natural" v="water" />
		<tag k="ssr:stedsnr" v="201950" />
		<tag k="water" v="lake" />
	</node>
	<node lat="69.14914166276024" lon="20.625288873792243" id="-33101">
		<tag k="name" v="Bajit Sallojávri" />
		<tag k="name:se" v="Bajit Sallojávri" />
		<tag k="natural" v="water" />
		<tag k="old_name:se" v="Sallojávri, bajit" />
		<tag k="ssr:stedsnr" v="201954" />
		<tag k="water" v="lake" />
	</node>
	<node lat="69.35921944237191" lon="20.234769417477956" id="-33102">
		<tag k="name" v="Sorpa - Čorpa" />
		<tag k="name:no" v="Sorpa" />
		<tag k="name:se" v="Čorpa" />
		<tag k="natural" v="slope" />
		<tag k="place" v="locality" />
		<tag k="ssr:stedsnr" v="213094" />
	</node>
	<node lat="69.29779167191641" lon="20.406438868011374" id="-33103">
		<tag k="name" v="Potkanlantto" />
		<tag k="name:fkv" v="Potkanlantto" />
		<tag k="natural" v="water" />
		<tag k="ssr:stedsnr" v="213381" />
		<tag k="water" v="lake" />
	</node>
	<node lat="69.26019166347022" lon="19.994852763024326" id="-33104">
		<tag k="highway" v="path" />
		<tag k="name" v="Kesätie" />
		<tag k="name:fkv" v="Kesätie" />
		<tag k="ssr:stedsnr" v="218202" />
	</node>
	<node lat="69.36513611215695" lon="20.245622198766217" id="-33105">
		<tag k="name" v="Mullogurra - Myllykuru" />
		<tag k="name:fkv" v="Myllykuru" />
		<tag k="name:se" v="Mullogurra" />
		<tag k="natural" v="valley" />
		<tag k="place" v="locality" />
		<tag k="ssr:stedsnr" v="218178" />
	</node>
	<node lat="69.37286111088403" lon="20.021483326913785" id="-33106">
		<tag k="highway" v="path" />
		<tag k="name" v="Njunibálggis" />
		<tag k="name:se" v="Njunibálggis" />
		<tag k="ssr:stedsnr" v="218924" />
	</node>
	<node lat="69.39159722463864" lon="20.158824981867472" id="-33107">
		<tag k="loc_name:se" v="Čuolonjárboađđu" />
		<tag k="name" v="Rastebynesgrunnen" />
		<tag k="name:no" v="Rastebynesgrunnen" />
		<tag k="natural" v="shoal" />
		<tag k="place" v="locality" />
		<tag k="ssr:stedsnr" v="449792" />
	</node>
	<node lat="69.38444999999665" lon="20.057783320572966" id="-33108">
		<tag k="name" v="Tommočohkka" />
		<tag k="name:se" v="Tommočohkka" />
		<tag k="natural" v="hill" />
		<tag k="place" v="locality" />
		<tag k="ssr:stedsnr" v="449955" />
	</node>
	<node lat="69.36991389191294" lon="20.1358138629568" id="-33109">
		<tag k="loc_name:se" v="Vuoksanjárga" />
		<tag k="name" v="Okseneset" />
		<tag k="name:no" v="Okseneset" />
		<tag k="natural" v="cape" />
		<tag k="ssr:stedsnr" v="236719" />
	</node>
	<node lat="69.3666722183707" lon="20.276008326081918" id="-33110">
		<tag k="name" v="Apajasteinen" />
		<tag k="natural" v="stone" />
		<tag k="ssr:stedsnr" v="237006" />
	</node>
	<node lat="69.33400555210585" lon="20.310491646335127" id="-33111">
		<tag k="name" v="Bjørkholmen" />
		<tag k="place" v="islet" />
		<tag k="ssr:stedsnr" v="237032" />
	</node>
	<node lat="69.37889167112847" lon="20.227152760091673" id="-33112">
		<tag k="loc_name:se" v="Sálteroggi" />
		<tag k="name" v="Saltirånka" />
		<tag k="name:no" v="Saltirånka" />
		<tag k="natural" v="beach" />
		<tag k="ssr:stedsnr" v="237212" />
	</node>
	<node lat="69.36726944846222" lon="20.237716645848224" id="-33113">
		<tag k="name" v="Riidejohka" />
		<tag k="name:se" v="Riidejohka" />
		<tag k="ssr:stedsnr" v="237233" />
		<tag k="waterway" v="stream" />
	</node>
	<node lat="69.19628333355573" lon="19.95949999374263" id="-33114">
		<tag k="name" v="Sennekjosen" />
		<tag k="natural" v="water" />
		<tag k="ssr:stedsnr" v="237477" />
	</node>
	<node lat="69.29724166641104" lon="19.973083318720803" id="-33115">
		<tag k="name" v="Jamešgurra" />
		<tag k="name:se" v="Jamešgurra" />
		<tag k="natural" v="valley" />
		<tag k="place" v="locality" />
		<tag k="ssr:stedsnr" v="237628" />
	</node>
	<node lat="69.24645833580226" lon="19.931958311838848" id="-33116">
		<tag k="name" v="Dimbbardievvajeaggi" />
		<tag k="name:se" v="Dimbbardievvajeaggi" />
		<tag k="natural" v="wetland" />
		<tag k="ssr:stedsnr" v="237581" />
	</node>
	<node lat="69.2457027818552" lon="19.974305556175473" id="-33117">
		<tag k="loc_name:se" v="Njoammilráigi" />
		<tag k="name" v="Harehollet" />
		<tag k="name:no" v="Harehollet" />
		<tag k="natural" v="valley" />
		<tag k="place" v="locality" />
		<tag k="ssr:stedsnr" v="237594" />
	</node>
	<node lat="69.11775000222396" lon="20.145052760967715" id="-33118">
		<tag k="name" v="Sløkbekken" />
		<tag k="ssr:stedsnr" v="237711" />
		<tag k="waterway" v="stream" />
	</node>
	<node lat="69.12182777509953" lon="20.100588873505007" id="-33119">
		<tag k="name" v="Erikholmen" />
		<tag k="place" v="islet" />
		<tag k="ssr:stedsnr" v="237727" />
	</node>
	<node lat="69.33852222172064" lon="20.416677767024336" id="-33120">
		<tag k="fixme" v="consider natural=peak for the most distinct mountains in the district" />
		<tag k="name" v="Øvre Stolpefjell" />
		<tag k="natural" v="hill" />
		<tag k="place" v="locality" />
		<tag k="ssr:stedsnr" v="237933" />
	</node>
	<node lat="69.44031666911455" lon="20.299097196290322" id="-33121">
		<tag k="name" v="Inner-Larsbergelva" />
		<tag k="ssr:stedsnr" v="237997" />
		<tag k="waterway" v="stream" />
	</node>
	<node lat="69.29674167069103" lon="20.41516665252346" id="-33122">
		<tag k="name" v="Ylä-Potka" />
		<tag k="name:fkv" v="Ylä-Potka" />
		<tag k="place" v="islet" />
		<tag k="ssr:stedsnr" v="456358" />
	</node>
	<node lat="69.36730277689618" lon="19.98523609896934" id="-33123">
		<tag k="fixme" v="consider natural=peak for the most distinct mountains in the district" />
		<tag k="name" v="Bikkenjunni" />
		<tag k="name:se" v="Bikkenjunni" />
		<tag k="natural" v="hill" />
		<tag k="place" v="locality" />
		<tag k="ssr:stedsnr" v="456831" />
	</node>
	<node lat="69.29675112606006" lon="20.132156213129672" id="-33124">
		<tag k="fixme" v="consider natural=peak for the most distinct mountains in the district" />
		<tag k="name" v="Sommarfjellet - Geassevárri - Kesävaara" />
		<tag k="name:fkv" v="Kesävaara" />
		<tag k="name:no" v="Sommarfjellet" />
		<tag k="name:se" v="Geassevárri" />
		<tag k="natural" v="hill" />
		<tag k="place" v="locality" />
		<tag k="ssr:stedsnr" v="261402" />
	</node>
	<node lat="69.37559999596687" lon="20.230399990657496" id="-33125">
		<tag k="name" v="Skogtun" />
		<tag k="place" v="farm" />
		<tag k="ssr:stedsnr" v="261450" />
	</node>
	<node lat="69.23613889399537" lon="21.00499997295694" id="-33126">
		<tag k="fixme" v="consider natural=peak for the most distinct mountains in the district" />
		<tag k="name" v="Urttasoaivi" />
		<tag k="name:se" v="Urttasoaivi" />
		<tag k="natural" v="hill" />
		<tag k="place" v="locality" />
		<tag k="ssr:stedsnr" v="262994" />
	</node>
	<node lat="69.33420555211373" lon="20.024163871177286" id="-33127">
		<tag k="alt_name:no" v="Salmenes" />
		<tag k="name" v="Salmeneset - Čoalmminjárga - Salminiemi" />
		<tag k="name:fkv" v="Salminiemi" />
		<tag k="name:no" v="Salmeneset" />
		<tag k="name:se" v="Čoalmminjárga" />
		<tag k="natural" v="cape" />
		<tag k="ssr:stedsnr" v="458293" />
	</node>
	<node lat="69.26346111381885" lon="19.946394422314256" id="-33128">
		<tag k="loc_name:se" v="Állebákti" />
		<tag k="name" v="Helleberget" />
		<tag k="name:no" v="Helleberget" />
		<tag k="natural" v="hill" />
		<tag k="place" v="locality" />
		<tag k="ssr:stedsnr" v="269024" />
	</node>
	<node lat="69.36419166470047" lon="20.020855545314234" id="-33129">
		<tag k="name" v="Steinvika" />
		<tag k="natural" v="bay" />
		<tag k="ssr:stedsnr" v="269030" />
	</node>
	<node lat="69.36023611478898" lon="20.35871664767753" id="-33130">
		<tag k="name" v="Fjellroaŋki - Fielluronkka" />
		<tag k="name:fkv" v="Fielluronkka" />
		<tag k="name:se" v="Fjellroaŋki" />
		<tag k="natural" v="valley" />
		<tag k="place" v="locality" />
		<tag k="ssr:stedsnr" v="279123" />
	</node>
	<node lat="69.35657778091996" lon="20.27451664163173" id="-33131">
		<tag k="historic" v="shieling" />
		<tag k="name" v="Fossevollen - Koskenkenttä" />
		<tag k="name:fkv" v="Koskenkenttä" />
		<tag k="name:no" v="Fossevollen" />
		<tag k="place" v="locality" />
		<tag k="ssr:stedsnr" v="279127" />
	</node>
	<node lat="69.34086944405601" lon="19.934891665773446" id="-33132">
		<tag k="name" v="Stállogeađgi" />
		<tag k="name:se" v="Stállogeađgi" />
		<tag k="natural" v="stone" />
		<tag k="ssr:stedsnr" v="279386" />
	</node>
	<node lat="69.3765333359143" lon="20.01365554924831" id="-33133">
		<tag k="name" v="Vuoiŋŋastandievvá" />
		<tag k="name:se" v="Vuoiŋŋastandievvá" />
		<tag k="natural" v="hill" />
		<tag k="place" v="locality" />
		<tag k="ssr:stedsnr" v="279974" />
	</node>
	<node lat="69.33945277441617" lon="20.28438610045385" id="-33134">
		<tag k="name" v="Äimänsaari" />
		<tag k="name:fkv" v="Äimänsaari" />
		<tag k="place" v="islet" />
		<tag k="ssr:stedsnr" v="461030" />
	</node>
	<node lat="69.3123666633669" lon="20.015641643858764" id="-33135">
		<tag k="name" v="Sisgeažejohka - Sisäpäänjoki" />
		<tag k="name:fkv" v="Sisäpäänjoki" />
		<tag k="name:se" v="Sisgeažejohka" />
		<tag k="ssr:stedsnr" v="461365" />
		<tag k="waterway" v="stream" />
	</node>
	<node lat="69.27731110776584" lon="20.009836097470558" id="-33136">
		<tag k="fixme" v="consider natural=peak for the most distinct mountains in the district" />
		<tag k="name" v="Unna Háhtaš - Pikku-Hattu" />
		<tag k="name:fkv" v="Pikku-Hattu" />
		<tag k="name:se" v="Unna Háhtaš" />
		<tag k="natural" v="hill" />
		<tag k="place" v="locality" />
		<tag k="ssr:stedsnr" v="461370" />
	</node>
	<node lat="69.27242221943861" lon="19.94169442457367" id="-33137">
		<tag k="fixme" v="multiple name tags, choose one and add the other to alt_name" />
		<tag k="name" v="Jeanssamielli;Háhtamielli - Jensinmella" />
		<tag k="name:fkv" v="Jensinmella" />
		<tag k="name:se" v="Jeanssamielli;Háhtamielli" />
		<tag k="natural" v="slope" />
		<tag k="place" v="locality" />
		<tag k="ssr:stedsnr" v="461379" />
	</node>
	<node lat="69.34333611494469" lon="20.309099996634533" id="-33138">
		<tag k="name" v="Kuokkirova" />
		<tag k="name:fkv" v="Kuokkirova" />
		<tag k="place" v="locality" />
		<tag k="ssr:stedsnr" v="461395" />
	</node>
	<node lat="69.30226389176812" lon="20.395649989814434" id="-33139">
		<tag k="name" v="Lullinniemi" />
		<tag k="name:fkv" v="Lullinniemi" />
		<tag k="natural" v="cape" />
		<tag k="ssr:stedsnr" v="461437" />
	</node>
	<node lat="69.23895277830788" lon="20.04697775578566" id="-33140">
		<tag k="name" v="Pahtatörmä" />
		<tag k="name:fkv" v="Pahtatörmä" />
		<tag k="natural" v="slope" />
		<tag k="place" v="locality" />
		<tag k="ssr:stedsnr" v="461485" />
	</node>
	<node lat="69.24661944174127" lon="20.027397214531398" id="-33141">
		<tag k="name" v="Sara" />
		<tag k="name:fkv" v="Sara" />
		<tag k="natural" v="slope" />
		<tag k="place" v="locality" />
		<tag k="ssr:stedsnr" v="461486" />
	</node>
	<node lat="69.39890555905947" lon="20.282616646858106" id="-33142">
		<tag k="name" v="Slettelia" />
		<tag k="natural" v="slope" />
		<tag k="place" v="locality" />
		<tag k="ssr:stedsnr" v="297122" />
	</node>
	<node lat="69.37483888772753" lon="20.002286100279907" id="-33143">
		<tag k="name" v="Spiidnehárji" />
		<tag k="name:se" v="Spiidnehárji" />
		<tag k="natural" v="hill" />
		<tag k="place" v="locality" />
		<tag k="ssr:stedsnr" v="297539" />
	</node>
	<node lat="69.40032777710478" lon="20.128608308389854" id="-33144">
		<tag k="name" v="Lemmen" />
		<tag k="natural" v="hill" />
		<tag k="place" v="locality" />
		<tag k="ssr:stedsnr" v="297736" />
	</node>
	<node lat="69.40021389182903" lon="20.116719428180552" id="-33145">
		<tag k="name" v="Skáhpegurra" />
		<tag k="name:se" v="Skáhpegurra" />
		<tag k="natural" v="valley" />
		<tag k="place" v="locality" />
		<tag k="ssr:stedsnr" v="297737" />
	</node>
	<node lat="69.11415555122325" lon="20.21097499308001" id="-33146">
		<tag k="name" v="Styggdalen" />
		<tag k="natural" v="valley" />
		<tag k="place" v="locality" />
		<tag k="ssr:stedsnr" v="297682" />
	</node>
	<node lat="69.27729444874491" lon="20.478191651663742" id="-33147">
		<tag k="name" v="Svingen" />
		<tag k="natural" v="bay" />
		<tag k="ssr:stedsnr" v="297972" />
	</node>
	<node lat="69.297358333817" lon="20.565480545585174" id="-33151">
		<tag k="name" v="Čeabetgobit" />
		<tag k="name:se" v="Čeabetgobit" />
		<tag k="natural" v="valley" />
		<tag k="place" v="locality" />
		<tag k="ssr:stedsnr" v="321507" />
	</node>
	<node lat="69.29865833848724" lon="20.51647775295945" id="-33152">
		<tag k="name" v="Speainnajávrrit" />
		<tag k="name:se" v="Speainnajávrrit" />
		<tag k="natural" v="water" />
		<tag k="ssr:stedsnr" v="321510" />
	</node>
	<node lat="69.17860833274247" lon="20.017824982616567" id="-33153">
		<tag k="name" v="Lund" />
		<tag k="place" v="farm" />
		<tag k="ssr:stedsnr" v="322289" />
	</node>
	<node lat="69.10232500148997" lon="20.60400831679778" id="-33154">
		<tag k="fixme" v="consider natural=peak for the most distinct mountains in the district" />
		<tag k="name" v="Nilppagielas" />
		<tag k="name:se" v="Nilppagielas" />
		<tag k="natural" v="hill" />
		<tag k="place" v="locality" />
		<tag k="ssr:stedsnr" v="322532" />
	</node>
	<node lat="69.26022777817009" lon="20.097333318878942" id="-33155">
		<tag k="fixme" v="consider natural=peak for the most distinct mountains in the district" />
		<tag k="name" v="Skáidegáisi" />
		<tag k="name:se" v="Skáidegáisi" />
		<tag k="natural" v="hill" />
		<tag k="place" v="locality" />
		<tag k="ssr:stedsnr" v="322576" />
	</node>
	<node lat="69.33151388978608" lon="20.022116651804033" id="-33156">
		<tag k="name" v="Salmenesgrunnen" />
		<tag k="natural" v="shoal" />
		<tag k="place" v="locality" />
		<tag k="ssr:stedsnr" v="327965" />
	</node>
	<node lat="69.2046545122236" lon="20.042703840307873" id="-33157">
		<tag k="fixme" v="consider natural=peak for the most distinct mountains in the district" />
		<tag k="name" v="Mannfjellet - Olmmáivárri - Olmavaara" />
		<tag k="name:fkv" v="Olmavaara" />
		<tag k="name:no" v="Mannfjellet" />
		<tag k="name:se" v="Olmmáivárri" />
		<tag k="natural" v="hill" />
		<tag k="place" v="locality" />
		<tag k="ssr:stedsnr" v="328276" />
	</node>
	<node lat="69.35918610702937" lon="20.325433320724166" id="-33158">
		<tag k="name" v="Suoidnedievvá - Suoinuntörmä" />
		<tag k="name:fkv" v="Suoinuntörmä" />
		<tag k="name:se" v="Suoidnedievvá" />
		<tag k="natural" v="slope" />
		<tag k="place" v="locality" />
		<tag k="ssr:stedsnr" v="334046" />
	</node>
	<node lat="69.3649222272142" lon="20.377083309195182" id="-33159">
		<tag k="name" v="Suoidneorda - Suoinuorta" />
		<tag k="name:fkv" v="Suoinuorta" />
		<tag k="name:se" v="Suoidneorda" />
		<tag k="place" v="locality" />
		<tag k="ssr:stedsnr" v="334053" />
	</node>
	<node lat="69.39103055164401" lon="20.282866651633896" id="-33160">
		<tag k="historic" v="shieling" />
		<tag k="name" v="Lillevollen - Pikkukenttä" />
		<tag k="name:fkv" v="Pikkukenttä" />
		<tag k="name:no" v="Lillevollen" />
		<tag k="place" v="locality" />
		<tag k="ssr:stedsnr" v="334801" />
	</node>
	<node lat="69.31117778061741" lon="20.208544440381562" id="-33162">
		<tag k="name" v="Gihccečahca" />
		<tag k="name:se" v="Gihccečahca" />
		<tag k="natural" v="valley" />
		<tag k="place" v="locality" />
		<tag k="ssr:stedsnr" v="339349" />
	</node>
	<node lat="69.37826111177954" lon="20.049574986508812" id="-33163">
		<tag k="name" v="Stuorajuovva" />
		<tag k="name:se" v="Stuorajuovva" />
		<tag k="natural" v="scree" />
		<tag k="ssr:stedsnr" v="339896" />
	</node>
	<node lat="69.37693333247462" lon="20.049244427999497" id="-33164">
		<tag k="name" v="Guollebákti" />
		<tag k="name:se" v="Guollebákti" />
		<tag k="natural" v="hill" />
		<tag k="place" v="locality" />
		<tag k="ssr:stedsnr" v="339897" />
	</node>
	<node lat="69.11389999780477" lon="20.04648332149818" id="-33165">
		<tag k="name" v="Tverrelvvatnet" />
		<tag k="natural" v="water" />
		<tag k="ssr:stedsnr" v="473634" />
	</node>
	<node lat="69.26291111209079" lon="19.885413873271325" id="-33166">
		<tag k="loc_name:se" v="Ruksesgeargi" />
		<tag k="name" v="Rødsteinen" />
		<tag k="name:no" v="Rødsteinen" />
		<tag k="natural" v="stone" />
		<tag k="ssr:stedsnr" v="357409" />
	</node>
	<node lat="69.27170277606577" lon="19.901016655817237" id="-33167">
		<tag k="loc_name:se" v="Reašši" />
		<tag k="name" v="Mælleira" />
		<tag k="name:no" v="Mælleira" />
		<tag k="place" v="locality" />
		<tag k="ssr:stedsnr" v="357418" />
	</node>
	<node lat="69.38398610857863" lon="20.276902769254338" id="-33168">
		<tag k="name" v="Gammelrasingen" />
		<tag k="natural" v="slope" />
		<tag k="place" v="locality" />
		<tag k="ssr:stedsnr" v="358117" />
	</node>
	<node lat="69.3618888856148" lon="20.294499982717557" id="-33169">
		<tag k="name" v="Suolagurra" />
		<tag k="name:se" v="Suolagurra" />
		<tag k="natural" v="valley" />
		<tag k="place" v="locality" />
		<tag k="ssr:stedsnr" v="358002" />
	</node>
	<node lat="69.36146110812618" lon="20.271811099377075" id="-33170">
		<tag k="name" v="Ballones" />
		<tag k="place" v="farm" />
		<tag k="ssr:stedsnr" v="358004" />
	</node>
	<node lat="69.4070888897642" lon="20.29913330910322" id="-33171">
		<tag k="name" v="Iselva" />
		<tag k="ssr:stedsnr" v="358100" />
		<tag k="waterway" v="stream" />
	</node>
	<node lat="69.36373333604257" lon="20.25141941920977" id="-33172">
		<tag k="name" v="Hestegropa" />
		<tag k="natural" v="valley" />
		<tag k="place" v="locality" />
		<tag k="ssr:stedsnr" v="358222" />
	</node>
	<node lat="69.26582222210324" lon="19.97484720035917" id="-33173">
		<tag k="name" v="Innersokken" />
		<tag k="natural" v="hill" />
		<tag k="place" v="locality" />
		<tag k="ssr:stedsnr" v="358408" />
	</node>
	<node lat="69.30399444388969" lon="19.98972498281539" id="-33174">
		<tag k="name" v="Ádjit" />
		<tag k="name:se" v="Ádjit" />
		<tag k="natural" v="cape" />
		<tag k="ssr:stedsnr" v="358607" />
	</node>
	<node lat="69.38593333133466" lon="20.071436100971642" id="-33175">
		<tag k="name" v="Šleađđu" />
		<tag k="name:se" v="Šleađđu" />
		<tag k="natural" v="hill" />
		<tag k="place" v="locality" />
		<tag k="ssr:stedsnr" v="358747" />
	</node>
	<node lat="69.25555000026915" lon="19.906844423923367" id="-33178">
		<tag k="loc_name:se" v="Liissájeaggi" />
		<tag k="name" v="Stormyra" />
		<tag k="name:no" v="Stormyra" />
		<tag k="natural" v="wetland" />
		<tag k="ssr:stedsnr" v="478393" />
	</node>
	<node lat="69.25932500372846" lon="19.892786112627245" id="-33179">
		<tag k="name" v="Roland" />
		<tag k="place" v="farm" />
		<tag k="ssr:stedsnr" v="478397" />
	</node>
	<node lat="69.3412222212901" lon="20.27868886430834" id="-33180">
		<tag k="name" v="Bergkulpen" />
		<tag k="place" v="locality" />
		<tag k="ssr:stedsnr" v="479025" />
	</node>
	<node lat="69.3365638874294" lon="20.304136095090897" id="-33181">
		<tag k="name" v="Bukkholman" />
		<tag k="place" v="islet" />
		<tag k="ssr:stedsnr" v="479026" />
	</node>
	<node lat="69.39630000236993" lon="20.27753331342252" id="-33182">
		<tag k="historic" v="shieling" />
		<tag k="name" v="Yttersætra" />
		<tag k="place" v="isolated_dwelling" />
		<tag k="ssr:stedsnr" v="479086" />
	</node>
	<node lat="69.39908888723733" lon="20.27496943314825" id="-33183">
		<tag k="highway" v="path" />
		<tag k="name" v="Loivatie" />
		<tag k="name:fkv" v="Loivatie" />
		<tag k="ssr:stedsnr" v="479092" />
	</node>
	<node lat="69.39529721918781" lon="20.31099998328712" id="-33184">
		<tag k="name" v="Sennemyra" />
		<tag k="natural" v="wetland" />
		<tag k="ssr:stedsnr" v="479096" />
	</node>
	<node lat="69.37637499976012" lon="20.175113872582713" id="-33185">
		<tag k="highway" v="path" />
		<tag k="name" v="Bollmannsveien" />
		<tag k="ssr:stedsnr" v="479225" />
	</node>
	<node lat="69.36995277688565" lon="20.275466660560557" id="-33186">
		<tag k="name" v="Småholman" />
		<tag k="place" v="islet" />
		<tag k="ssr:stedsnr" v="479130" />
	</node>
	<node lat="69.21180833092052" lon="19.978933307021506" id="-33187">
		<tag k="name" v="Brorstad" />
		<tag k="place" v="farm" />
		<tag k="ssr:stedsnr" v="479480" />
	</node>
	<node lat="69.33966944174645" lon="19.9251471970016" id="-33188">
		<tag k="name" v="Finnstua" />
		<tag k="place" v="isolated_dwelling" />
		<tag k="ssr:stedsnr" v="479521" />
	</node>
	<node lat="69.34232499857579" lon="19.954836100320193" id="-33189">
		<tag k="name" v="Gohpisletta" />
		<tag k="place" v="locality" />
		<tag k="ssr:stedsnr" v="479529" />
	</node>
	<node lat="69.3399027738785" lon="19.953277765734914" id="-33190">
		<tag k="name" v="Spiidnehárji" />
		<tag k="name:se" v="Spiidnehárji" />
		<tag k="natural" v="hill" />
		<tag k="place" v="locality" />
		<tag k="ssr:stedsnr" v="479544" />
	</node>
	<node lat="69.3375972251922" lon="19.968041653234337" id="-33191">
		<tag k="name" v="Vellantto" />
		<tag k="name:fkv" v="Vellantto" />
		<tag k="natural" v="bay" />
		<tag k="ssr:stedsnr" v="479549" />
	</node>
	<node lat="69.40071110946865" lon="20.108777769582904" id="-33192">
		<tag k="name" v="Reinberget" />
		<tag k="natural" v="hill" />
		<tag k="place" v="locality" />
		<tag k="ssr:stedsnr" v="479716" />
	</node>
	<node lat="69.12055833668569" lon="20.091186109228612" id="-33193">
		<tag k="loc_name:se" v="Bárrásvállas" />
		<tag k="name" v="Parasmoen" />
		<tag k="name:no" v="Parasmoen" />
		<tag k="place" v="locality" />
		<tag k="ssr:stedsnr" v="479696" />
	</node>
	<node lat="69.3370027823556" lon="20.091061095834153" id="-33194">
		<tag k="loc_name:se" v="Ruovddášjohka" />
		<tag k="name" v="Ramnelva" />
		<tag k="name:no" v="Ramnelva" />
		<tag k="ssr:stedsnr" v="479726" />
		<tag k="waterway" v="stream" />
	</node>
	<node lat="69.13625555311799" lon="20.07090831234275" id="-33195">
		<tag k="loc_name:se" v="Čáhcevággi" />
		<tag k="name" v="Vassdal" />
		<tag k="name:no" v="Vassdal" />
		<tag k="place" v="farm" />
		<tag k="ssr:stedsnr" v="382306" />
	</node>
	<node lat="69.17882500275861" lon="20.329947195584026" id="-33196">
		<tag k="name" v="Goahteorotlatnja" />
		<tag k="name:se" v="Goahteorotlatnja" />
		<tag k="natural" v="slope" />
		<tag k="place" v="locality" />
		<tag k="ssr:stedsnr" v="382314" />
	</node>
	<node lat="69.23933333228365" lon="20.31170832394641" id="-33197">
		<tag k="name" v="Viessogasjávrrit" />
		<tag k="name:se" v="Viessogasjávrrit" />
		<tag k="natural" v="water" />
		<tag k="ssr:stedsnr" v="382358" />
		<tag k="water" v="lake" />
	</node>
	<node lat="69.30812409899491" lon="20.407669840719592" id="-33198">
		<tag k="name" v="Lulleroavvi - Lullinrova" />
		<tag k="name:fkv" v="Lullinrova" />
		<tag k="name:se" v="Lulleroavvi" />
		<tag k="place" v="locality" />
		<tag k="ssr:stedsnr" v="382364" />
	</node>
	<node lat="69.27310555364234" lon="20.144755542858764" id="-33199">
		<tag k="name" v="Didnojiehkki" />
		<tag k="name:se" v="Didnojiehkki" />
		<tag k="natural" v="glacier" />
		<tag k="ssr:stedsnr" v="382402" />
	</node>
	<node lat="69.33675910367425" lon="19.97986325819255" id="-33200">
		<tag k="name" v="Sandørneset - Stállugárggunjárga" />
		<tag k="name:no" v="Sandørneset" />
		<tag k="name:se" v="Stállugárggunjárga" />
		<tag k="natural" v="cape" />
		<tag k="ssr:stedsnr" v="382406" />
	</node>
	<node lat="69.39860000349917" lon="20.13648053811654" id="-33201">
		<tag k="name" v="Tuevoll" />
		<tag k="place" v="farm" />
		<tag k="ssr:stedsnr" v="382467" />
	</node>
	<node lat="69.12233333218677" lon="21.00993885098874" id="-33202">
		<tag k="name" v="Áldojohka" />
		<tag k="name:se" v="Áldojohka" />
		<tag k="ssr:stedsnr" v="383947" />
		<tag k="waterway" v="river" />
	</node>
	<node lat="69.3114638932222" lon="20.391202756685125" id="-33203">
		<tag k="name" v="Rattumælen - Rattumella" />
		<tag k="name:fkv" v="Rattumella" />
		<tag k="name:no" v="Rattumælen" />
		<tag k="place" v="locality" />
		<tag k="ssr:stedsnr" v="395386" />
	</node>
	<node lat="69.38711945005588" lon="20.267252752120704" id="-33204">
		<tag k="name" v="Markedskogen - Márkanroavvi - Markkinarova" />
		<tag k="name:fkv" v="Markkinarova" />
		<tag k="name:no" v="Markedskogen" />
		<tag k="name:se" v="Márkanroavvi" />
		<tag k="place" v="locality" />
		<tag k="ssr:stedsnr" v="396982" />
	</node>
	<node lat="69.33805555625031" lon="20.286947214519973" id="-33205">
		<tag k="name" v="Äimä" />
		<tag k="name:fkv" v="Äimä" />
		<tag k="place" v="locality" />
		<tag k="ssr:stedsnr" v="400086" />
	</node>
	<node lat="69.29087777943666" lon="20.40473332875113" id="-33206">
		<tag k="loc_name:fkv" v="Mätämukka" />
		<tag k="name" v="Mätämutka" />
		<tag k="name:fkv" v="Mätämutka" />
		<tag k="place" v="farm" />
		<tag k="ssr:stedsnr" v="400136" />
	</node>
	<node lat="69.30320555787164" lon="19.909916664371924" id="-33207">
		<tag k="name" v="Luovttajohka" />
		<tag k="name:se" v="Luovttajohka" />
		<tag k="ssr:stedsnr" v="400383" />
		<tag k="waterway" v="stream" />
	</node>
	<node lat="69.32522222638947" lon="19.85428609464707" id="-33208">
		<tag k="name" v="Vággemohkki" />
		<tag k="name:se" v="Vággemohkki" />
		<tag k="natural" v="valley" />
		<tag k="place" v="locality" />
		<tag k="ssr:stedsnr" v="400394" />
	</node>
	<node lat="69.38492222286223" lon="19.99229997895469" id="-33210">
		<tag k="name" v="Geailu" />
		<tag k="name:se" v="Geailu" />
		<tag k="natural" v="bay" />
		<tag k="ssr:stedsnr" v="400926" />
	</node>
	<node lat="69.37104722371743" lon="20.0336583171291" id="-33211">
		<tag k="name" v="Rundskogen - Jorbarohtu" />
		<tag k="name:no" v="Rundskogen" />
		<tag k="name:se" v="Jorbarohtu" />
		<tag k="place" v="locality" />
		<tag k="ssr:stedsnr" v="400930" />
	</node>
	<node lat="69.27088888661764" lon="19.891738884315167" id="-33213">
		<tag k="loc_name:se" v="Vuolit Smávvabákti" />
		<tag k="name" v="Lilleberget" />
		<tag k="name:no" v="Lilleberget" />
		<tag k="natural" v="hill" />
		<tag k="place" v="locality" />
		<tag k="ssr:stedsnr" v="418416" />
	</node>
	<node lat="69.25445653535458" lon="19.886375649744817" id="-33214">
		<tag k="fixme" v="consider place=hamlet" />
		<tag k="name" v="Oterodden" />
		<tag k="place" v="farm" />
		<tag k="ssr:stedsnr" v="418384" />
	</node>
	<node lat="69.26990000274131" lon="19.90700554163154" id="-33215">
		<tag k="loc_name:se" v="Vancagárgu" />
		<tag k="name" v="Båtøra" />
		<tag k="name:no" v="Båtøra" />
		<tag k="place" v="locality" />
		<tag k="ssr:stedsnr" v="418389" />
	</node>
	<node lat="69.24056389313877" lon="19.84519720683793" id="-33216">
		<tag k="loc_name:se" v="Heavvaldievvá" />
		<tag k="name" v="Høvelbakken" />
		<tag k="name:no" v="Høvelbakken" />
		<tag k="natural" v="slope" />
		<tag k="place" v="locality" />
		<tag k="ssr:stedsnr" v="418396" />
	</node>
	<node lat="69.40362777879307" lon="20.30607220175145" id="-33217">
		<tag k="name" v="Midterhalsen" />
		<tag k="natural" v="valley" />
		<tag k="place" v="locality" />
		<tag k="ssr:stedsnr" v="419094" />
	</node>
	<node lat="69.40522222122372" lon="20.274788864709773" id="-33218">
		<tag k="name" v="Håttigropa" />
		<tag k="natural" v="valley" />
		<tag k="place" v="locality" />
		<tag k="ssr:stedsnr" v="419097" />
	</node>
	<node lat="69.40227500315045" lon="20.288616660800415" id="-33219">
		<tag k="name" v="Brentemyra" />
		<tag k="natural" v="wetland" />
		<tag k="ssr:stedsnr" v="419104" />
	</node>
	<node lat="69.2351833326952" lon="20.68349442867005" id="-33220">
		<tag k="name" v="Bajit Gearrajohka" />
		<tag k="name:se" v="Bajit Gearrajohka" />
		<tag k="ssr:stedsnr" v="419930" />
		<tag k="waterway" v="stream" />
	</node>
	<node lat="69.29896666992889" lon="20.418072217689865" id="-33221">
		<tag k="name" v="Lullinsakea" />
		<tag k="name:fkv" v="Lullinsakea" />
		<tag k="place" v="locality" />
		<tag k="ssr:stedsnr" v="419943" />
	</node>
	<node lat="69.38356944240435" lon="20.343874977143827" id="-33222">
		<tag k="name" v="Šleađđugieddi" />
		<tag k="name:se" v="Šleađđugieddi" />
		<tag k="place" v="locality" />
		<tag k="ssr:stedsnr" v="419986" />
	</node>
	<node lat="69.44189166375764" lon="20.291544428082386" id="-33223">
		<tag k="name" v="Luhča" />
		<tag k="name:se" v="Luhča" />
		<tag k="natural" v="bay" />
		<tag k="ssr:stedsnr" v="419991" />
	</node>
	<node lat="69.440088891291" lon="20.289433320032863" id="-33224">
		<tag k="name" v="Jamahagurra" />
		<tag k="name:se" v="Jamahagurra" />
		<tag k="natural" v="valley" />
		<tag k="place" v="locality" />
		<tag k="ssr:stedsnr" v="419993" />
	</node>
	<node lat="69.45311389201122" lon="20.312186093245945" id="-33225">
		<tag k="name" v="Lille-Larsberget" />
		<tag k="natural" v="hill" />
		<tag k="place" v="locality" />
		<tag k="ssr:stedsnr" v="419994" />
	</node>
	<node lat="69.41916944182893" lon="20.27531387333342" id="-33226">
		<tag k="name" v="Balo" />
		<tag k="natural" v="slope" />
		<tag k="place" v="locality" />
		<tag k="ssr:stedsnr" v="419999" />
	</node>
	<node lat="69.41202777506386" lon="20.14961665834671" id="-33227">
		<tag k="name" v="Buollán" />
		<tag k="name:se" v="Buollán" />
		<tag k="place" v="locality" />
		<tag k="ssr:stedsnr" v="420606" />
	</node>
	<node lat="69.28704444153331" lon="19.833424990131633" id="-33229">
		<tag k="name" v="Riehppi" />
		<tag k="name:se" v="Riehppi" />
		<tag k="natural" v="valley" />
		<tag k="place" v="locality" />
		<tag k="ssr:stedsnr" v="443405" />
	</node>
	<node lat="69.30320277386913" lon="20.41364998534204" id="-33230">
		<tag k="alt_name" v="Lullestova" />
		<tag k="name" v="Lullestua" />
		<tag k="place" v="isolated_dwelling" />
		<tag k="ssr:stedsnr" v="443406" />
	</node>
	<node lat="69.1550083351973" lon="20.056624998294552" id="-33231">
		<tag k="name" v="Løvland" />
		<tag k="place" v="farm" />
		<tag k="ssr:stedsnr" v="443303" />
	</node>
	<node lat="69.15819167141547" lon="20.293405538437234" id="-33232">
		<tag k="name" v="Állebákti" />
		<tag k="name:se" v="Állebákti" />
		<tag k="natural" v="hill" />
		<tag k="place" v="locality" />
		<tag k="ssr:stedsnr" v="443305" />
	</node>
	<node lat="69.16878055779033" lon="20.042180538631076" id="-33233">
		<tag k="name" v="Attkjippa" />
		<tag k="place" v="locality" />
		<tag k="ssr:stedsnr" v="443333" />
	</node>
	<node lat="69.17330277978401" lon="20.030949996378144" id="-33234">
		<tag k="name" v="Fredheim" />
		<tag k="place" v="farm" />
		<tag k="ssr:stedsnr" v="443338" />
	</node>
	<node lat="69.31010000251185" lon="20.380477773932903" id="-33235">
		<tag k="alt_name:no" v="Rattunes" />
		<tag k="name" v="Rattuneset - Rattuniemi" />
		<tag k="name:fkv" v="Rattuniemi" />
		<tag k="name:no" v="Rattuneset" />
		<tag k="natural" v="cape" />
		<tag k="ssr:stedsnr" v="443386" />
	</node>
	<node lat="69.29968333127243" lon="19.92427220518483" id="-33236">
		<tag k="name" v="Cizášnjárga" />
		<tag k="name:se" v="Cizášnjárga" />
		<tag k="natural" v="cape" />
		<tag k="ssr:stedsnr" v="443389" />
	</node>
	<node lat="69.30385000141774" lon="19.90795553608794" id="-33237">
		<tag k="fixme" v="consider natural=peak for the most distinct mountains in the district" />
		<tag k="name" v="Luovttanjunni" />
		<tag k="name:se" v="Luovttanjunni" />
		<tag k="natural" v="hill" />
		<tag k="place" v="locality" />
		<tag k="ssr:stedsnr" v="443394" />
	</node>
	<node lat="69.30407222403052" lon="20.39466109139865" id="-33238">
		<tag k="name" v="Lullekulpen - Lullinjurma" />
		<tag k="name:fkv" v="Lullinjurma" />
		<tag k="name:no" v="Lullekulpen" />
		<tag k="place" v="locality" />
		<tag k="ssr:stedsnr" v="443396" />
	</node>
	<node lat="69.3908097064565" lon="20.26748010830732" id="-33239">
		<tag k="name" v="Skibotn - Ivgobahta - Yykeänperä" />
		<tag k="name:fkv" v="Yykeänperä" />
		<tag k="name:no" v="Skibotn" />
		<tag k="name:se" v="Ivgobahta" />
		<tag k="place" v="village" />
		<tag k="ssr:stedsnr" v="443485" />
	</node>
	<node lat="69.38408055530695" lon="19.870272198877398" id="-33240">
		<tag k="fixme" v="consider natural=peak for the most distinct mountains in the district" />
		<tag k="name" v="Imagáisi" />
		<tag k="name:se" v="Imagáisi" />
		<tag k="natural" v="hill" />
		<tag k="place" v="locality" />
		<tag k="ssr:stedsnr" v="443494" />
	</node>
	<node lat="69.31177499917663" lon="20.53428887252678" id="-33241">
		<tag k="name" v="Ákšogaikunjohka" />
		<tag k="name:se" v="Ákšogaikunjohka" />
		<tag k="ssr:stedsnr" v="444528" />
		<tag k="waterway" v="stream" />
	</node>
	<node lat="69.31469444219114" lon="20.500652762785364" id="-33242">
		<tag k="name" v="Fávrroslatnja" />
		<tag k="name:se" v="Fávrroslatnja" />
		<tag k="natural" v="valley" />
		<tag k="place" v="locality" />
		<tag k="ssr:stedsnr" v="444532" />
	</node>
	<node lat="69.22794722565088" lon="20.45393054369912" id="-33243">
		<tag k="fixme" v="consider natural=peak for the most distinct mountains in the district" />
		<tag k="name" v="Lávkaslubbu" />
		<tag k="name:se" v="Lávkaslubbu" />
		<tag k="natural" v="hill" />
		<tag k="old_name:se" v="Lavkaslubbu" />
		<tag k="place" v="locality" />
		<tag k="ssr:stedsnr" v="444986" />
	</node>
	<node lat="69.42882777604382" lon="20.27679997337476" id="-33244">
		<tag k="name" v="Aspeneset - Haapaniemi" />
		<tag k="name:fkv" v="Haapaniemi" />
		<tag k="name:no" v="Aspeneset" />
		<tag k="natural" v="cape" />
		<tag k="ssr:stedsnr" v="449913" />
	</node>
	<node lat="69.3861750016641" lon="20.258097215578818" id="-33245">
		<tag k="name" v="Okseneset - Heargenjárga - Härkäniemi" />
		<tag k="name:fkv" v="Härkäniemi" />
		<tag k="name:no" v="Okseneset" />
		<tag k="name:se" v="Heargenjárga" />
		<tag k="natural" v="cape" />
		<tag k="ssr:stedsnr" v="457923" />
	</node>
	<node lat="69.3589888850867" lon="20.37583610065109" id="-33246">
		<tag k="name" v="Bientsi" />
		<tag k="name:se" v="Bientsi" />
		<tag k="natural" v="valley" />
		<tag k="place" v="locality" />
		<tag k="ssr:stedsnr" v="479009" />
	</node>
	<node lat="69.40339166231138" lon="20.283308324655685" id="-33247">
		<tag k="name" v="Skierpijeaggi" />
		<tag k="name:se" v="Skierpijeaggi" />
		<tag k="natural" v="wetland" />
		<tag k="ssr:stedsnr" v="479077" />
	</node>
	<node lat="69.40927500062169" lon="20.292158314681117" id="-33248">
		<tag k="fixme" v="consider natural=peak for the most distinct mountains in the district" />
		<tag k="name" v="Isfjellet" />
		<tag k="natural" v="hill" />
		<tag k="place" v="locality" />
		<tag k="ssr:stedsnr" v="479079" />
	</node>
	<node lat="69.1715027804389" lon="20.008163874179044" id="-33249">
		<tag k="name" v="Skredan" />
		<tag k="natural" v="slope" />
		<tag k="place" v="locality" />
		<tag k="ssr:stedsnr" v="479362" />
	</node>
	<node lat="69.14917777554554" lon="20.055705532004513" id="-33250">
		<tag k="name" v="Storvollen" />
		<tag k="place" v="locality" />
		<tag k="ssr:stedsnr" v="479378" />
	</node>
	<node lat="69.3247750046769" lon="20.014872210287766" id="-33251">
		<tag k="loc_name:se" v="Grapenjárga" />
		<tag k="name" v="Grapeneset" />
		<tag k="name:se" v="Grapeneset" />
		<tag k="natural" v="cape" />
		<tag k="ssr:stedsnr" v="479559" />
	</node>
	<node lat="69.34268333380217" lon="20.056452755804518" id="-33252">
		<tag k="loc_name:se" v="Riebannjárga" />
		<tag k="name" v="Revneset" />
		<tag k="name:se" v="Revneset" />
		<tag k="natural" v="cape" />
		<tag k="ssr:stedsnr" v="479562" />
	</node>
	<node lat="69.25806388999706" lon="19.9374611043108" id="-33253">
		<tag k="name" v="Trappegropa" />
		<tag k="natural" v="valley" />
		<tag k="place" v="locality" />
		<tag k="ssr:stedsnr" v="479566" />
	</node>
	<node lat="69.22419999702244" lon="19.964708311429128" id="-33254">
		<tag k="loc_name:se" v="Mihkkalalájut" />
		<tag k="name" v="Mikalslåtten" />
		<tag k="name:no" v="Mikalslåtten" />
		<tag k="place" v="locality" />
		<tag k="ssr:stedsnr" v="479478" />
	</node>
	<node lat="69.29351944607103" lon="19.918563880852158" id="-33255">
		<tag k="name" v="Kvalneset" />
		<tag k="natural" v="cape" />
		<tag k="ssr:stedsnr" v="479602" />
	</node>
	<node lat="69.28864722103795" lon="19.960719419286875" id="-33256">
		<tag k="fixme" v="consider seamark:type=rock or natural=shoal" />
		<tag k="loc_name:se" v="Sehppageargi" />
		<tag k="name" v="Loddesteinen" />
		<tag k="name:no" v="Loddesteinen" />
		<tag k="place" v="islet" />
		<tag k="ssr:stedsnr" v="479604" />
	</node>
	<node lat="69.36035000430847" lon="20.00623331004663" id="-33257">
		<tag k="loc_name:se" v="Dávgonjárga" />
		<tag k="name" v="Davvoneset" />
		<tag k="name:no" v="Davvoneset" />
		<tag k="natural" v="cape" />
		<tag k="ssr:stedsnr" v="479610" />
	</node>
	<node lat="69.23431667064905" lon="20.132258322137975" id="-33258">
		<tag k="name" v="Hárvanjirra" />
		<tag k="name:se" v="Hárvanjirra" />
		<tag k="natural" v="slope" />
		<tag k="place" v="locality" />
		<tag k="ssr:stedsnr" v="479702" />
	</node>
	<node lat="69.15951389054314" lon="20.763449985799568" id="-33259">
		<tag k="name" v="Perskogen - Pierarohtu" />
		<tag k="name:no" v="Perskogen" />
		<tag k="name:se" v="Pierarohtu" />
		<tag k="place" v="locality" />
		<tag k="ssr:stedsnr" v="479907" />
	</node>
	<node lat="69.2872500054833" lon="20.340122197320042" id="-33262">
		<tag k="name" v="Norddalen - Heargevággi" />
		<tag k="name:no" v="Norddalen" />
		<tag k="name:se" v="Heargevággi" />
		<tag k="natural" v="valley" />
		<tag k="place" v="locality" />
		<tag k="ssr:stedsnr" v="503072" />
	</node>
	<node lat="69.28921944337351" lon="20.434577754579816" id="-33263">
		<tag k="fixme" v="multiple name tags, choose one and add the other to alt_name; consider natural=peak for the most distinct mountains in the district" />
		<tag k="name" v="Rundfjellet;Lillerundfjellet" />
		<tag k="natural" v="hill" />
		<tag k="place" v="locality" />
		<tag k="ssr:stedsnr" v="503504" />
	</node>
	<node lat="69.30230000401734" lon="20.438772207132033" id="-33264">
		<tag k="name" v="Lulleelva - Lullejohka - Lullinjoki" />
		<tag k="name:fkv" v="Lullinjoki" />
		<tag k="name:no" v="Lulleelva" />
		<tag k="name:se" v="Lullejohka" />
		<tag k="ssr:stedsnr" v="503512" />
		<tag k="waterway" v="stream" />
	</node>
	<node lat="69.30370277942163" lon="20.7362999679004" id="-33265">
		<tag k="name" v="Geasášjohka" />
		<tag k="name:se" v="Geasášjohka" />
		<tag k="old_name:se" v="Geasásjohka" />
		<tag k="ssr:stedsnr" v="503514" />
		<tag k="waterway" v="stream" />
	</node>
	<node lat="69.32314444347934" lon="20.378697210601107" id="-33266">
		<tag k="name" v="Jammerdalen - Tammavankka" />
		<tag k="name:fkv" v="Tammavankka" />
		<tag k="name:no" v="Jammerdalen" />
		<tag k="natural" v="valley" />
		<tag k="place" v="locality" />
		<tag k="ssr:stedsnr" v="503415" />
	</node>
	<node lat="69.3100544770301" lon="20.070020052443805" id="-33267">
		<tag k="name" v="Reppidalen - Riehppevággi - Rieppivankka" />
		<tag k="name:fkv" v="Rieppivankka" />
		<tag k="name:no" v="Reppidalen" />
		<tag k="name:se" v="Riehppevággi" />
		<tag k="natural" v="valley" />
		<tag k="place" v="locality" />
		<tag k="ssr:stedsnr" v="503420" />
	</node>
	<node lat="69.2046944443634" lon="20.145424973358118" id="-33268">
		<tag k="name" v="Sallogieddi - Kallukenttä" />
		<tag k="name:fkv" v="Kallukenttä" />
		<tag k="name:se" v="Sallogieddi" />
		<tag k="place" v="locality" />
		<tag k="ssr:stedsnr" v="504303" />
	</node>
	<node lat="69.2012749982013" lon="19.978774996497368" id="-33269">
		<tag k="name" v="Solli" />
		<tag k="place" v="farm" />
		<tag k="ssr:stedsnr" v="504306" />
	</node>
	<node lat="69.37960833047924" lon="20.26980276812104" id="-33270">
		<tag k="name" v="Grønslett" />
		<tag k="place" v="farm" />
		<tag k="ssr:stedsnr" v="504502" />
	</node>
	<node lat="69.25116111574926" lon="20.764069413534425" id="-33271">
		<tag k="fixme" v="consider natural=peak for the most distinct mountains in the district" />
		<tag k="name" v="Suonjernjaŋggut" />
		<tag k="name:se" v="Suonjernjaŋggut" />
		<tag k="natural" v="hill" />
		<tag k="place" v="locality" />
		<tag k="ssr:stedsnr" v="504702" />
	</node>
	<node lat="69.25559999715398" lon="20.87559441880995" id="-33272">
		<tag k="name" v="Ráššajárnjárga" />
		<tag k="name:se" v="Ráššajárnjárga" />
		<tag k="natural" v="cape" />
		<tag k="ssr:stedsnr" v="504703" />
	</node>
	<node lat="69.15750555443732" lon="20.84224997711483" id="-33273">
		<tag k="name" v="Leattajohka" />
		<tag k="name:se" v="Leattajohka" />
		<tag k="ssr:stedsnr" v="504966" />
		<tag k="waterway" v="stream" />
	</node>
	<node lat="69.1928249988669" lon="20.955899960899686" id="-33274">
		<tag k="name" v="Didnoláhku" />
		<tag k="name:se" v="Didnoláhku" />
		<tag k="place" v="locality" />
		<tag k="ssr:stedsnr" v="505964" />
	</node>
	<node lat="69.19428055837727" lon="20.713513859077356" id="-33275">
		<tag k="name" v="Basevuovdi" />
		<tag k="name:se" v="Basevuovdi" />
		<tag k="place" v="locality" />
		<tag k="ssr:stedsnr" v="505967" />
	</node>
	<node lat="69.15665000370407" lon="20.15033055114568" id="-33276">
		<tag k="fixme" v="consider natural=peak for the most distinct mountains in the district" />
		<tag k="name" v="Markusfjellet - Márkos" />
		<tag k="name:no" v="Markusfjellet" />
		<tag k="name:se" v="Márkos" />
		<tag k="natural" v="hill" />
		<tag k="place" v="locality" />
		<tag k="ssr:stedsnr" v="510262" />
	</node>
	<node lat="69.36746111283918" lon="20.314388868951095" id="-33277">
		<tag k="name" v="Puollama" />
		<tag k="name:fkv" v="Puollama" />
		<tag k="place" v="locality" />
		<tag k="ssr:stedsnr" v="521016" />
	</node>
	<node lat="69.3400027761602" lon="20.30732774837205" id="-33278">
		<tag k="name" v="Goaki - Kuokkilantto" />
		<tag k="name:fkv" v="Kuokkilantto" />
		<tag k="name:no" v="Goaki" />
		<tag k="natural" v="water" />
		<tag k="ssr:stedsnr" v="521077" />
	</node>
	<node lat="69.35931666371648" lon="20.267102754539913" id="-33279">
		<tag k="fixme" v="multiple name tags, choose one and add the other to alt_name" />
		<tag k="name" v="Fossesteinen - Karvosenkivi;Koskenkivi" />
		<tag k="name:fkv" v="Karvosenkivi;Koskenkivi" />
		<tag k="name:no" v="Fossesteinen" />
		<tag k="place" v="islet" />
		<tag k="ssr:stedsnr" v="521113" />
	</node>
	<node lat="69.37118889162949" lon="20.02094166393161" id="-33280">
		<tag k="name" v="Bumbasteinen - Bumbágeađgi" />
		<tag k="name:no" v="Bumbasteinen" />
		<tag k="name:se" v="Bumbágeađgi" />
		<tag k="natural" v="stone" />
		<tag k="ssr:stedsnr" v="521915" />
	</node>
	<node lat="69.37990000141791" lon="20.00385553632231" id="-33281">
		<tag k="name" v="Unnaceaggut" />
		<tag k="name:se" v="Unnaceaggut" />
		<tag k="natural" v="slope" />
		<tag k="place" v="locality" />
		<tag k="ssr:stedsnr" v="521965" />
	</node>
	<node lat="69.44413144679366" lon="20.30345213176787" id="-33282">
		<tag k="name" v="Larsberget - Lárasbákti - Larspahta" />
		<tag k="name:fkv" v="Larspahta" />
		<tag k="name:no" v="Larsberget" />
		<tag k="name:se" v="Lárasbákti" />
		<tag k="natural" v="hill" />
		<tag k="place" v="locality" />
		<tag k="ssr:stedsnr" v="685241" />
	</node>
	<node lat="69.33316111516324" lon="20.353530546985198" id="-33283">
		<tag k="name" v="Brennfjellmyra - Puolamavaaranjänkkä" />
		<tag k="name:fkv" v="Puolamavaaranjänkkä" />
		<tag k="name:no" v="Brennfjellmyra" />
		<tag k="natural" v="wetland" />
		<tag k="ssr:stedsnr" v="685391" />
	</node>
	<node lat="69.18904166464728" lon="20.277922200417073" id="-33284">
		<tag k="name" v="Govdajárnjárga" />
		<tag k="name:se" v="Govdajárnjárga" />
		<tag k="natural" v="cape" />
		<tag k="ssr:stedsnr" v="686288" />
	</node>
	<node lat="69.17766944709346" lon="20.032588876242215" id="-33285">
		<tag k="name" v="Mannfjellelva" />
		<tag k="ssr:stedsnr" v="686293" />
		<tag k="waterway" v="stream" />
	</node>
	<node lat="69.18927777834273" lon="19.968361086390185" id="-33286">
		<tag k="alt_name" v="Skogly" />
		<tag k="name" v="Skogli" />
		<tag k="place" v="farm" />
		<tag k="ssr:stedsnr" v="686318" />
	</node>
	<node lat="69.19912500073896" lon="19.95145277505234" id="-33287">
		<tag k="name" v="Luppoelva - Luhppujohka" />
		<tag k="name:no" v="Luppoelva" />
		<tag k="name:se" v="Luhppujohka" />
		<tag k="ssr:stedsnr" v="686320" />
		<tag k="waterway" v="stream" />
	</node>
	<node lat="69.23120278265114" lon="19.881852758562545" id="-33288">
		<tag k="name" v="Bjørnskardet - Bierdnaskoarru" />
		<tag k="name:no" v="Bjørnskardet" />
		<tag k="name:se" v="Bierdnaskoarru" />
		<tag k="natural" v="valley" />
		<tag k="place" v="locality" />
		<tag k="ssr:stedsnr" v="686333" />
	</node>
	<node lat="69.2626138881852" lon="20.01215276330279" id="-33289">
		<tag k="name" v="Kitdalen - Čoaigedanvuovdi - Soiketanouta" />
		<tag k="name:fkv" v="Soiketanouta" />
		<tag k="name:no" v="Kitdalen" />
		<tag k="name:se" v="Čoaigedanvuovdi" />
		<tag k="natural" v="valley" />
		<tag k="place" v="locality" />
		<tag k="ssr:stedsnr" v="686348" />
	</node>
	<node lat="69.2411666633697" lon="20.04655275474395" id="-33290">
		<tag k="name" v="Sørli" />
		<tag k="place" v="farm" />
		<tag k="ssr:stedsnr" v="686351" />
	</node>
	<node lat="69.23646388948148" lon="19.838311094536316" id="-33291">
		<tag k="name" v="Fjelldal" />
		<tag k="place" v="farm" />
		<tag k="ssr:stedsnr" v="686356" />
	</node>
	<node lat="69.23371944103323" lon="19.8224333112748" id="-33292">
		<tag k="loc_name:se" v="Riehppi" />
		<tag k="name" v="Skogli" />
		<tag k="name:no" v="Skogli" />
		<tag k="place" v="farm" />
		<tag k="ssr:stedsnr" v="686359" />
	</node>
	<node lat="69.22992777781127" lon="19.82414998769145" id="-33293">
		<tag k="name" v="Elvebakken" />
		<tag k="place" v="farm" />
		<tag k="ssr:stedsnr" v="686365" />
	</node>
	<node lat="69.24316388732623" lon="19.932802765313433" id="-33294">
		<tag k="name" v="Fjellset" />
		<tag k="place" v="farm" />
		<tag k="ssr:stedsnr" v="686376" />
	</node>
	<node lat="69.30467777358304" lon="19.93133887915554" id="-33295">
		<tag k="name" v="Bukta - Luokta" />
		<tag k="name:no" v="Bukta" />
		<tag k="name:se" v="Luokta" />
		<tag k="place" v="farm" />
		<tag k="ssr:stedsnr" v="686380" />
	</node>
	<node lat="69.24442726796201" lon="20.063163350041133" id="-33296">
		<tag k="fixme" v="consider place=hamlet" />
		<tag k="name" v="Kitdalen" />
		<tag k="place" v="farm" />
		<tag k="ssr:stedsnr" v="686381" />
	</node>
	<node lat="69.30388056003956" lon="20.329863867220567" id="-33297">
		<tag k="fixme" v="consider natural=peak for the most distinct mountains in the district" />
		<tag k="name" v="Heargevárri" />
		<tag k="name:se" v="Heargevárri" />
		<tag k="natural" v="hill" />
		<tag k="place" v="locality" />
		<tag k="ssr:stedsnr" v="686386" />
	</node>
	<node lat="69.05895277779727" lon="20.257702761470746" id="-33298">
		<tag k="name" v="Gáhppojohka" />
		<tag k="name:se" v="Gáhppojohka" />
		<tag k="ssr:stedsnr" v="686254" />
		<tag k="waterway" v="river" />
	</node>
	<node lat="69.12068333363736" lon="20.402108306969264" id="-33299">
		<tag k="name" v="Ragatjohka" />
		<tag k="name:se" v="Ragatjohka" />
		<tag k="ssr:stedsnr" v="686268" />
		<tag k="waterway" v="river" />
	</node>
	<node lat="69.11703055521347" lon="20.105788864049167" id="-33300">
		<tag k="name" v="Paras" />
		<tag k="place" v="farm" />
		<tag k="ssr:stedsnr" v="686270" />
	</node>
	<node lat="69.12805000005798" lon="20.257299987088906" id="-33301">
		<tag k="name" v="Márkosváddjá" />
		<tag k="name:se" v="Márkosváddjá" />
		<tag k="natural" v="valley" />
		<tag k="place" v="locality" />
		<tag k="ssr:stedsnr" v="686271" />
	</node>
	<node lat="69.28410000321836" lon="20.3230221984266" id="-33302">
		<tag k="fixme" v="consider natural=peak for the most distinct mountains in the district" />
		<tag k="name" v="Buoidenjunni" />
		<tag k="name:se" v="Buoidenjunni" />
		<tag k="natural" v="hill" />
		<tag k="place" v="locality" />
		<tag k="ssr:stedsnr" v="686400" />
	</node>
	<node lat="69.27147778148549" lon="19.86015553645188" id="-33303">
		<tag k="fixme" v="consider natural=peak for the most distinct mountains in the district" />
		<tag k="name" v="Miellevárri" />
		<tag k="name:se" v="Miellevárri" />
		<tag k="natural" v="hill" />
		<tag k="place" v="locality" />
		<tag k="ssr:stedsnr" v="686403" />
	</node>
	<node lat="69.27570000015793" lon="20.074522209778138" id="-33304">
		<tag k="fixme" v="consider natural=peak for the most distinct mountains in the district" />
		<tag k="name" v="Háhttanjunni" />
		<tag k="name:se" v="Háhttanjunni" />
		<tag k="natural" v="hill" />
		<tag k="place" v="locality" />
		<tag k="ssr:stedsnr" v="686411" />
	</node>
	<node lat="69.36797222565522" lon="20.023049999481664" id="-33305">
		<tag k="name" v="Teigen" />
		<tag k="place" v="farm" />
		<tag k="ssr:stedsnr" v="686459" />
	</node>
	<node lat="69.35979999881596" lon="19.86869998489113" id="-33306">
		<tag k="name" v="Elvevolldalen - Stállovággi" />
		<tag k="name:no" v="Elvevolldalen" />
		<tag k="name:se" v="Stállovággi" />
		<tag k="natural" v="valley" />
		<tag k="place" v="locality" />
		<tag k="ssr:stedsnr" v="686461" />
	</node>
	<node lat="69.14467500233717" lon="20.105924984815864" id="-33307">
		<tag k="fixme" v="consider natural=peak for the most distinct mountains in the district" />
		<tag k="name" v="Humpen - Váráš" />
		<tag k="name:no" v="Humpen" />
		<tag k="name:se" v="Váráš" />
		<tag k="natural" v="hill" />
		<tag k="place" v="locality" />
		<tag k="ssr:stedsnr" v="686283" />
	</node>
	<node lat="69.17797221889381" lon="20.001188879918296" id="-33308">
		<tag k="loc_name:se" v="Gávalmohkki" />
		<tag k="name" v="Storattkjippa" />
		<tag k="name:no" v="Storattkjippa" />
		<tag k="place" v="locality" />
		<tag k="ssr:stedsnr" v="686286" />
	</node>
	<node lat="69.08564166635217" lon="20.558955545763958" id="-33309">
		<tag k="name" v="Golddaláhkojávri" />
		<tag k="name:se" v="Golddaláhkojávri" />
		<tag k="natural" v="water" />
		<tag k="ssr:stedsnr" v="686547" />
	</node>
	<node lat="69.09142499681492" lon="20.861811084442607" id="-33310">
		<tag k="fixme" v="consider natural=peak for the most distinct mountains in the district" />
		<tag k="name" v="Veajetnibba" />
		<tag k="name:se" v="Veajetnibba" />
		<tag k="natural" v="hill" />
		<tag k="place" v="locality" />
		<tag k="ssr:stedsnr" v="686549" />
	</node>
	<node lat="69.081377779319" lon="21.013061086479972" id="-33311">
		<tag k="name" v="Sáđgejávri" />
		<tag k="name:se" v="Sáđgejávri" />
		<tag k="natural" v="water" />
		<tag k="ssr:stedsnr" v="686551" />
		<tag k="water" v="lake" />
	</node>
	<node lat="69.07790277938855" lon="20.8863944226573" id="-33312">
		<tag k="fixme" v="consider natural=peak for the most distinct mountains in the district" />
		<tag k="name" v="Unna Jiehkkášaš" />
		<tag k="name:se" v="Unna Jiehkkášaš" />
		<tag k="natural" v="hill" />
		<tag k="old_name:se" v="Jiehkkášaš, unna" />
		<tag k="place" v="locality" />
		<tag k="ssr:stedsnr" v="686555" />
	</node>
	<node lat="69.32063610985125" lon="20.612933303400506" id="-33313">
		<tag k="fixme" v="consider natural=peak for the most distinct mountains in the district" />
		<tag k="name" v="Stálloborčohkka" />
		<tag k="name:se" v="Stálloborčohkka" />
		<tag k="natural" v="hill" />
		<tag k="place" v="locality" />
		<tag k="ssr:stedsnr" v="686558" />
	</node>
	<node lat="69.32836944600449" lon="20.495338866480846" id="-33314">
		<tag k="name" v="Lulit Ádjetriehppi" />
		<tag k="name:se" v="Lulit Ádjetriehppi" />
		<tag k="natural" v="valley" />
		<tag k="old_name:se" v="Ádjetriehppi, lulit" />
		<tag k="place" v="locality" />
		<tag k="ssr:stedsnr" v="686563" />
	</node>
	<node lat="69.25757499866221" lon="20.38935832059263" id="-33315">
		<tag k="fixme" v="consider natural=peak for the most distinct mountains in the district" />
		<tag k="name" v="Luhčavárri" />
		<tag k="name:se" v="Luhčavárri" />
		<tag k="natural" v="hill" />
		<tag k="place" v="locality" />
		<tag k="ssr:stedsnr" v="686581" />
	</node>
	<node lat="69.2858472236957" lon="20.616819433919815" id="-33316">
		<tag k="fixme" v="consider natural=peak for the most distinct mountains in the district" />
		<tag k="name" v="Doaresoaivi" />
		<tag k="name:se" v="Doaresoaivi" />
		<tag k="natural" v="hill" />
		<tag k="place" v="locality" />
		<tag k="ssr:stedsnr" v="686702" />
	</node>
	<node lat="69.27535278146422" lon="20.51348608512854" id="-33317">
		<tag k="name" v="Halsebakkan - Čeabetluohkká" />
		<tag k="name:no" v="Halsebakkan" />
		<tag k="name:se" v="Čeabetluohkká" />
		<tag k="natural" v="slope" />
		<tag k="place" v="locality" />
		<tag k="ssr:stedsnr" v="686712" />
	</node>
	<node lat="69.26965000031512" lon="20.81678330364798" id="-33318">
		<tag k="fixme" v="consider natural=peak for the most distinct mountains in the district" />
		<tag k="name" v="Ráššanjaŋggutčohkka" />
		<tag k="name:se" v="Ráššanjaŋggutčohkka" />
		<tag k="natural" v="hill" />
		<tag k="place" v="locality" />
		<tag k="ssr:stedsnr" v="686715" />
	</node>
	<node lat="69.27065833235707" lon="20.689419428527167" id="-33319">
		<tag k="name" v="Rovvejohluoppal" />
		<tag k="name:se" v="Rovvejohluoppal" />
		<tag k="place" v="locality" />
		<tag k="ssr:stedsnr" v="686716" />
	</node>
	<node lat="69.35247222676188" lon="20.253816648092823" id="-33320">
		<tag k="name" v="Dommajeaggi" />
		<tag k="name:se" v="Dommajeaggi" />
		<tag k="natural" v="wetland" />
		<tag k="ssr:stedsnr" v="540003" />
	</node>
	<node lat="69.39701110764622" lon="20.29332498929493" id="-33321">
		<tag k="name" v="Kanuttamyra" />
		<tag k="natural" v="wetland" />
		<tag k="ssr:stedsnr" v="540114" />
	</node>
	<node lat="69.36968333613876" lon="20.219497214810776" id="-33322">
		<tag k="name" v="Laskobakken" />
		<tag k="natural" v="slope" />
		<tag k="place" v="locality" />
		<tag k="ssr:stedsnr" v="540217" />
	</node>
	<node lat="69.20459444266581" lon="19.972283328507068" id="-33323">
		<tag k="name" v="Luppotjønna" />
		<tag k="natural" v="water" />
		<tag k="ssr:stedsnr" v="540511" />
	</node>
	<node lat="69.24931111639575" lon="19.927722203679423" id="-33324">
		<tag k="name" v="Veneten" />
		<tag k="natural" v="slope" />
		<tag k="place" v="locality" />
		<tag k="ssr:stedsnr" v="540570" />
	</node>
	<node lat="69.32258611368502" lon="19.962463871547254" id="-33325">
		<tag k="loc_name:se" v="Geargenjárga" />
		<tag k="name" v="Steinnes" />
		<tag k="name:no" v="Steinnes" />
		<tag k="natural" v="cape" />
		<tag k="ssr:stedsnr" v="540584" />
	</node>
	<node lat="69.40221944329014" lon="20.1233111064855" id="-33326">
		<tag k="name" v="Nalgančohkka" />
		<tag k="name:se" v="Nalgančohkka" />
		<tag k="natural" v="hill" />
		<tag k="place" v="locality" />
		<tag k="ssr:stedsnr" v="540706" />
	</node>
	<node lat="69.35795277444917" lon="20.116769421191755" id="-33327">
		<tag k="name" v="Čohkka" />
		<tag k="name:se" v="Čohkka" />
		<tag k="natural" v="hill" />
		<tag k="place" v="locality" />
		<tag k="ssr:stedsnr" v="540710" />
	</node>
	<node lat="69.36111944917874" lon="20.212052764368647" id="-33328">
		<tag k="fixme" v="consider natural=peak for the most distinct mountains in the district" />
		<tag k="name" v="Framfjellet" />
		<tag k="natural" v="hill" />
		<tag k="place" v="locality" />
		<tag k="ssr:stedsnr" v="540717" />
	</node>
	<node lat="69.31828611204759" lon="20.00791110301338" id="-33329">
		<tag k="name" v="Orritta" />
		<tag k="natural" v="hill" />
		<tag k="place" v="locality" />
		<tag k="ssr:stedsnr" v="540605" />
	</node>
	<node lat="69.36333888768462" lon="20.01728332148244" id="-33330">
		<tag k="name" v="Skolebakken" />
		<tag k="natural" v="slope" />
		<tag k="place" v="locality" />
		<tag k="ssr:stedsnr" v="540615" />
	</node>
	<node lat="69.14549166769238" lon="20.794208299957308" id="-33331">
		<tag k="alt_name:se" v="Pierajohka" />
		<tag k="name" v="Bierajohka" />
		<tag k="name:se" v="Bierajohka" />
		<tag k="ssr:stedsnr" v="686947" />
		<tag k="waterway" v="stream" />
	</node>
	<node lat="69.1542333363826" lon="20.661566635724338" id="-33332">
		<tag k="name" v="Bajit Sallojohka" />
		<tag k="name:se" v="Bajit Sallojohka" />
		<tag k="old_name:se" v="Sallojohka, bajit" />
		<tag k="ssr:stedsnr" v="686950" />
		<tag k="waterway" v="stream" />
	</node>
	<node lat="69.15794166354117" lon="20.458591650856143" id="-33333">
		<tag k="name" v="Ragatjávri" />
		<tag k="name:se" v="Ragatjávri" />
		<tag k="natural" v="water" />
		<tag k="ssr:stedsnr" v="686953" />
		<tag k="water" v="lake" />
	</node>
	<node lat="69.15680000241645" lon="20.860108310947922" id="-33334">
		<tag k="fixme" v="consider natural=peak for the most distinct mountains in the district" />
		<tag k="name" v="Leattanjunni" />
		<tag k="name:se" v="Leattanjunni" />
		<tag k="natural" v="hill" />
		<tag k="place" v="locality" />
		<tag k="ssr:stedsnr" v="686956" />
	</node>
	<node lat="69.12196944990582" lon="21.055702750366322" id="-33336">
		<tag k="fixme" v="consider natural=peak for the most distinct mountains in the district" />
		<tag k="name" v="Áldovárri" />
		<tag k="name:se" v="Áldovárri" />
		<tag k="natural" v="hill" />
		<tag k="place" v="locality" />
		<tag k="ssr:stedsnr" v="687562" />
	</node>
	<node lat="69.22042499911157" lon="20.960141628284358" id="-33337">
		<tag k="fixme" v="consider natural=peak for the most distinct mountains in the district" />
		<tag k="name" v="Skihpaoaivi" />
		<tag k="name:se" v="Skihpaoaivi" />
		<tag k="natural" v="hill" />
		<tag k="place" v="locality" />
		<tag k="ssr:stedsnr" v="687984" />
	</node>
	<node lat="69.20811666387046" lon="20.585727765272317" id="-33338">
		<tag k="name" v="Rihporiidi" />
		<tag k="name:se" v="Rihporiidi" />
		<tag k="natural" v="slope" />
		<tag k="place" v="locality" />
		<tag k="ssr:stedsnr" v="687987" />
	</node>
	<node lat="69.24237500342993" lon="20.56739163991996" id="-33339">
		<tag k="name" v="Lávkaskáidi" />
		<tag k="name:se" v="Lávkaskáidi" />
		<tag k="natural" v="cape" />
		<tag k="ssr:stedsnr" v="687991" />
	</node>
	<node lat="69.23896666827169" lon="20.80355830739414" id="-33340">
		<tag k="fixme" v="consider natural=peak for the most distinct mountains in the district" />
		<tag k="name" v="Meahccenjaŋggut" />
		<tag k="name:se" v="Meahccenjaŋggut" />
		<tag k="natural" v="hill" />
		<tag k="place" v="locality" />
		<tag k="ssr:stedsnr" v="687996" />
	</node>
	<node lat="69.28874722018078" lon="19.91297497556268" id="-33341">
		<tag k="name" v="Dállu" />
		<tag k="name:se" v="Dállu" />
		<tag k="place" v="farm" />
		<tag k="ssr:stedsnr" v="564404" />
	</node>
	<node lat="69.2836344188551" lon="19.99216657901769" id="-33342">
		<tag k="fixme" v="multiple name tags, choose one and add the other to alt_name; consider natural=peak for the most distinct mountains in the district" />
		<tag k="name" v="Hatten - Háhtta - Hattu;Iso-Hattu" />
		<tag k="name:fkv" v="Hattu;Iso-Hattu" />
		<tag k="name:no" v="Hatten" />
		<tag k="name:se" v="Háhtta" />
		<tag k="natural" v="hill" />
		<tag k="place" v="locality" />
		<tag k="ssr:stedsnr" v="564407" />
	</node>
	<node lat="69.26195000339233" lon="19.849377767301082" id="-33343">
		<tag k="name" v="Akselelva - Oalggijohka" />
		<tag k="name:no" v="Akselelva" />
		<tag k="name:se" v="Oalggijohka" />
		<tag k="ssr:stedsnr" v="564414" />
		<tag k="waterway" v="stream" />
	</node>
	<node lat="69.33932777561333" lon="19.960552753282155" id="-33344">
		<tag k="name" v="Brustad" />
		<tag k="place" v="farm" />
		<tag k="ssr:stedsnr" v="564419" />
	</node>
	<node lat="69.3357750022707" lon="20.04578609475623" id="-33345">
		<tag k="name" v="Bukta - Luokta" />
		<tag k="name:no" v="Bukta" />
		<tag k="name:se" v="Luokta" />
		<tag k="place" v="farm" />
		<tag k="ssr:stedsnr" v="564420" />
	</node>
	<node lat="69.33131111152572" lon="19.971836095939175" id="-33346">
		<tag k="name" v="Sandøra - Stálugárgu" />
		<tag k="name:no" v="Sandøra" />
		<tag k="name:se" v="Stálugárgu" />
		<tag k="place" v="farm" />
		<tag k="ssr:stedsnr" v="564424" />
	</node>
	<node lat="69.32563610824715" lon="19.964222203820537" id="-33347">
		<tag k="loc_name:se" v="Dimbbarnjárga" />
		<tag k="name" v="Tømmernes" />
		<tag k="name:no" v="Tømmernes" />
		<tag k="place" v="farm" />
		<tag k="ssr:stedsnr" v="564426" />
	</node>
	<node lat="69.33202499984601" lon="20.388658305457746" id="-33348">
		<tag k="fixme" v="consider natural=peak for the most distinct mountains in the district" />
		<tag k="name" v="Stolpefjellet" />
		<tag k="natural" v="hill" />
		<tag k="place" v="locality" />
		<tag k="ssr:stedsnr" v="564431" />
	</node>
	<node lat="69.23524444761162" lon="20.098199988937818" id="-33349">
		<tag k="alt_name" v="Bjørkelund" />
		<tag k="name" v="Bjørklund" />
		<tag k="place" v="farm" />
		<tag k="ssr:stedsnr" v="564371" />
	</node>
	<node lat="69.24916666763099" lon="20.008538871861766" id="-33350">
		<tag k="loc_name:se" v="Beassefállas" />
		<tag k="name" v="Nevermo" />
		<tag k="name:no" v="Nevermo" />
		<tag k="place" v="farm" />
		<tag k="ssr:stedsnr" v="564378" />
	</node>
	<node lat="69.25078333456239" lon="19.854974987510467" id="-33351">
		<tag k="name" v="Bakke" />
		<tag k="place" v="farm" />
		<tag k="ssr:stedsnr" v="564576" />
	</node>
	<node lat="69.2566055593139" lon="20.849563875354455" id="-33352">
		<tag k="name" v="Stuora Ráššajávri" />
		<tag k="name:se" v="Stuora Ráššajávri" />
		<tag k="natural" v="water" />
		<tag k="old_name:se" v="Ráššajávri, stuora" />
		<tag k="ssr:stedsnr" v="564675" />
		<tag k="water" v="lake" />
	</node>
	<node lat="69.24116388828112" lon="20.718199974124694" id="-33353">
		<tag k="fixme" v="consider natural=peak for the most distinct mountains in the district" />
		<tag k="name" v="Ráššavárnibba" />
		<tag k="name:se" v="Ráššavárnibba" />
		<tag k="natural" v="hill" />
		<tag k="place" v="locality" />
		<tag k="ssr:stedsnr" v="565992" />
	</node>
	<node lat="69.24374166380478" lon="20.57899718940239" id="-33354">
		<tag k="alt_name:se" v="Riehppejohka" />
		<tag k="name" v="Rihpojohka" />
		<tag k="name:se" v="Rihpojohka" />
		<tag k="ssr:stedsnr" v="565994" />
		<tag k="waterway" v="river" />
	</node>
	<node lat="69.30636152864214" lon="20.047359371571698" id="-33355">
		<tag k="fixme" v="multiple name tags, choose one and add the other to alt_name; consider natural=peak for the most distinct mountains in the district" />
		<tag k="name" v="Horsnesfjellet - Horstagáisi;Čohkkugiettivárri - Horsnesinvaara" />
		<tag k="name:fkv" v="Horsnesinvaara" />
		<tag k="name:no" v="Horsnesfjellet" />
		<tag k="name:se" v="Horstagáisi;Čohkkugiettivárri" />
		<tag k="natural" v="hill" />
		<tag k="place" v="locality" />
		<tag k="ssr:stedsnr" v="570364" />
	</node>
	<node lat="69.38006388957743" lon="20.222936102774895" id="-33356">
		<tag k="name" v="Nállovuohppi - Nalluvuopio" />
		<tag k="name:fkv" v="Nalluvuopio" />
		<tag k="name:se" v="Nállovuohppi" />
		<tag k="natural" v="bay" />
		<tag k="ssr:stedsnr" v="570821" />
	</node>
	<node lat="69.34249722327475" lon="19.96816110748793" id="-33357">
		<tag k="name" v="Skogspleierdalsbukta" />
		<tag k="natural" v="bay" />
		<tag k="ssr:stedsnr" v="694031" />
	</node>
	<node lat="69.35306110816599" lon="19.98021110345095" id="-33358">
		<tag k="name" v="Njirran" />
		<tag k="name:se" v="Njirran" />
		<tag k="natural" v="valley" />
		<tag k="place" v="locality" />
		<tag k="ssr:stedsnr" v="577114" />
	</node>
	<node lat="69.44420555757948" lon="20.303297216391233" id="-33359">
		<tag k="name" v="Iso Larspahta" />
		<tag k="name:fkv" v="Iso Larspahta" />
		<tag k="natural" v="hill" />
		<tag k="place" v="locality" />
		<tag k="ssr:stedsnr" v="577816" />
	</node>
	<node lat="69.35933888579338" lon="20.322661087047166" id="-33360">
		<tag k="name" v="Bjørnberget - Biertnabákti - Karhupahta" />
		<tag k="name:fkv" v="Karhupahta" />
		<tag k="name:no" v="Bjørnberget" />
		<tag k="name:se" v="Biertnabákti" />
		<tag k="natural" v="hill" />
		<tag k="place" v="locality" />
		<tag k="ssr:stedsnr" v="578000" />
	</node>
	<node lat="69.32884722378748" lon="20.337258317540286" id="-33361">
		<tag k="name" v="Iisakinkivi" />
		<tag k="name:fkv" v="Iisakinkivi" />
		<tag k="place" v="locality" />
		<tag k="ssr:stedsnr" v="581108" />
	</node>
	<node lat="69.37682222240873" lon="20.273480529562036" id="-33362">
		<tag k="name" v="Venejurma" />
		<tag k="name:fkv" v="Venejurma" />
		<tag k="place" v="locality" />
		<tag k="ssr:stedsnr" v="581198" />
	</node>
	<node lat="69.32584256246045" lon="20.340831322604505" id="-33363">
		<tag k="alt_name:no" v="Kvitli" />
		<tag k="historic" v="shieling" />
		<tag k="name" v="Kvitlia - Guvgesloapmi - Kuukisloma" />
		<tag k="name:fkv" v="Kuukisloma" />
		<tag k="name:no" v="Kvitlia" />
		<tag k="name:se" v="Guvgesloapmi" />
		<tag k="place" v="locality" />
		<tag k="ssr:stedsnr" v="581343" />
	</node>
	<node lat="69.2613055558184" lon="19.94831109335351" id="-33364">
		<tag k="name" v="Turvejänkkä" />
		<tag k="name:fkv" v="Turvejänkkä" />
		<tag k="natural" v="wetland" />
		<tag k="ssr:stedsnr" v="582210" />
	</node>
	<node lat="69.33830277482433" lon="19.931969437593295" id="-33365">
		<tag k="name" v="Skáidi" />
		<tag k="name:se" v="Skáidi" />
		<tag k="natural" v="cape" />
		<tag k="ssr:stedsnr" v="582402" />
	</node>
	<node lat="69.38021110822456" lon="20.059647195830998" id="-33366">
		<tag k="name" v="Jeaggelatnja" />
		<tag k="name:se" v="Jeaggelatnja" />
		<tag k="place" v="locality" />
		<tag k="ssr:stedsnr" v="582916" />
	</node>
	<node lat="69.3235027793544" lon="19.84089999115678" id="-33367">
		<tag k="name" v="Stillvatnan" />
		<tag k="natural" v="water" />
		<tag k="ssr:stedsnr" v="599369" />
		<tag k="water" v="lake" />
	</node>
	<node lat="69.26805555597532" lon="19.891886101843085" id="-33368">
		<tag k="loc_name:se" v="Ullegieddi" />
		<tag k="name" v="Ullvollen" />
		<tag k="name:no" v="Ullvollen" />
		<tag k="place" v="locality" />
		<tag k="ssr:stedsnr" v="599412" />
	</node>
	<node lat="69.39688888969965" lon="20.298166655033146" id="-33369">
		<tag k="name" v="Langmyra" />
		<tag k="natural" v="wetland" />
		<tag k="ssr:stedsnr" v="600103" />
	</node>
	<node lat="69.16119444509657" lon="20.018558327728464" id="-33370">
		<tag k="name" v="Signalfossen" />
		<tag k="natural" v="waterfall" />
		<tag k="ssr:stedsnr" v="600358" />
	</node>
	<node lat="69.15790833489301" lon="20.040619432108105" id="-33371">
		<tag k="name" v="Renasvingen" />
		<tag k="natural" v="bay" />
		<tag k="ssr:stedsnr" v="600359" />
	</node>
	<node lat="69.3424694466299" lon="19.939944430364058" id="-33372">
		<tag k="name" v="Roassariidi" />
		<tag k="name:se" v="Roassariidi" />
		<tag k="natural" v="slope" />
		<tag k="place" v="locality" />
		<tag k="ssr:stedsnr" v="600506" />
	</node>
	<node lat="69.36880555196431" lon="20.02804720529394" id="-33373">
		<tag k="name" v="Lillemo" />
		<tag k="place" v="farm" />
		<tag k="ssr:stedsnr" v="600520" />
	</node>
	<node lat="69.23576111401319" lon="19.95854443151828" id="-33374">
		<tag k="name" v="Olderskogen" />
		<tag k="place" v="locality" />
		<tag k="ssr:stedsnr" v="600459" />
	</node>
	<node lat="69.24643333564273" lon="19.9810999962546" id="-33375">
		<tag k="name" v="Åsen" />
		<tag k="natural" v="ridge" />
		<tag k="place" v="locality" />
		<tag k="ssr:stedsnr" v="600547" />
	</node>
	<node lat="69.35864722639056" lon="20.22632776771633" id="-33376">
		<tag k="name" v="Bjørnberget" />
		<tag k="natural" v="hill" />
		<tag k="place" v="locality" />
		<tag k="ssr:stedsnr" v="600713" />
	</node>
	<node lat="69.21769166602651" lon="20.685011077899134" id="-33377">
		<tag k="name" v="Steinbakken" />
		<tag k="natural" v="slope" />
		<tag k="place" v="locality" />
		<tag k="ssr:stedsnr" v="600950" />
	</node>
	<node lat="69.44605555657613" lon="20.305774991980048" id="-33378">
		<tag k="name" v="Hellaren" />
		<tag k="natural" v="stone" />
		<tag k="ssr:stedsnr" v="600998" />
	</node>
	<node lat="69.18481199832779" lon="19.991735074065787" id="-33379">
		<tag k="fixme" v="consider place=hamlet" />
		<tag k="name" v="Signaldalen - Čiekŋalvuovdi - Singalanouta" />
		<tag k="name:fkv" v="Singalanouta" />
		<tag k="name:no" v="Signaldalen" />
		<tag k="name:se" v="Čiekŋalvuovdi" />
		<tag k="place" v="village" />
		<tag k="ssr:stedsnr" v="601353" />
	</node>
	<node lat="69.33111661486168" lon="20.022219278951976" id="-33382">
		<tag k="alt_name:no" v="Litlebukta" />
		<tag k="fixme" v="multiple name tags, choose one and add the other to alt_name" />
		<tag k="name" v="Lillebukta - Unnamohkki;Uhcaluokta - Pikkulahti" />
		<tag k="name:fkv" v="Pikkulahti" />
		<tag k="name:no" v="Lillebukta" />
		<tag k="name:se" v="Unnamohkki;Uhcaluokta" />
		<tag k="natural" v="bay" />
		<tag k="ssr:stedsnr" v="624426" />
	</node>
	<node lat="69.15179166457253" lon="20.28769998950334" id="-33383">
		<tag k="name" v="Allibergvatnet" />
		<tag k="natural" v="water" />
		<tag k="ssr:stedsnr" v="624319" />
	</node>
	<node lat="69.34980555429338" lon="19.92945276164931" id="-33384">
		<tag k="fixme" v="consider natural=peak for the most distinct mountains in the district" />
		<tag k="name" v="Riidavárri" />
		<tag k="name:se" v="Riidavárri" />
		<tag k="natural" v="hill" />
		<tag k="place" v="locality" />
		<tag k="ssr:stedsnr" v="625453" />
	</node>
	<node lat="69.30666944796496" lon="20.369986100646127" id="-33385">
		<tag k="fixme" v="multiple name tags, choose one and add the other to alt_name" />
		<tag k="name" v="Skibotndalen - Ivguvuovdi - Yykeänperänvankka;Yykeänvankka" />
		<tag k="name:fkv" v="Yykeänperänvankka;Yykeänvankka" />
		<tag k="name:no" v="Skibotndalen" />
		<tag k="name:se" v="Ivguvuovdi" />
		<tag k="natural" v="valley" />
		<tag k="place" v="locality" />
		<tag k="ssr:stedsnr" v="625379" />
	</node>
	<node lat="69.2452500007852" lon="20.054399989963994" id="-33386">
		<tag k="name" v="Slettvoll" />
		<tag k="place" v="farm" />
		<tag k="ssr:stedsnr" v="625382" />
	</node>
	<node lat="69.25097469362251" lon="19.940470198258733" id="-33387">
		<tag k="name" v="Stormyra - Stuorajeaggi - Isojänkkä" />
		<tag k="name:fkv" v="Isojänkkä" />
		<tag k="name:no" v="Stormyra" />
		<tag k="name:se" v="Stuorajeaggi" />
		<tag k="natural" v="wetland" />
		<tag k="ssr:stedsnr" v="625556" />
	</node>
	<node lat="69.39983333750786" lon="20.27102221886159" id="-33388">
		<tag k="name" v="Storberget - Isopahta" />
		<tag k="name:fkv" v="Isopahta" />
		<tag k="name:no" v="Storberget" />
		<tag k="natural" v="hill" />
		<tag k="place" v="locality" />
		<tag k="ssr:stedsnr" v="703196" />
	</node>
	<node lat="69.37129166665152" lon="20.34889997295528" id="-33389">
		<tag k="name" v="Nallujänkkä" />
		<tag k="name:fkv" v="Nallujänkkä" />
		<tag k="natural" v="wetland" />
		<tag k="ssr:stedsnr" v="703199" />
	</node>
	<node lat="69.35164722256988" lon="20.10279443593674" id="-33390">
		<tag k="name" v="Svartberget - Čáhppesbákti - Mustapahta" />
		<tag k="name:fkv" v="Mustapahta" />
		<tag k="name:no" v="Svartberget" />
		<tag k="name:se" v="Čáhppesbákti" />
		<tag k="natural" v="hill" />
		<tag k="place" v="locality" />
		<tag k="ssr:stedsnr" v="703386" />
	</node>
	<node lat="69.2582999974597" lon="19.925099997029697" id="-33391">
		<tag k="name" v="Girkonjárga - Kirkkoniemi" />
		<tag k="name:fkv" v="Kirkkoniemi" />
		<tag k="name:se" v="Girkonjárga" />
		<tag k="natural" v="cape" />
		<tag k="ssr:stedsnr" v="703408" />
	</node>
	<node lat="69.37818610843966" lon="20.03581943316792" id="-33392">
		<tag k="name" v="Gaskkasnjunni" />
		<tag k="name:se" v="Gaskkasnjunni" />
		<tag k="place" v="locality" />
		<tag k="ssr:stedsnr" v="703970" />
	</node>
	<node lat="69.3836000030739" lon="19.99988610658431" id="-33393">
		<tag k="name" v="Huldergammen - Háldigoahti" />
		<tag k="name:no" v="Huldergammen" />
		<tag k="name:se" v="Háldigoahti" />
		<tag k="natural" v="hill" />
		<tag k="place" v="locality" />
		<tag k="ssr:stedsnr" v="638083" />
	</node>
	<node lat="69.3351277806502" lon="20.310555538512737" id="-33394">
		<tag k="name" v="Koijusaari" />
		<tag k="name:fkv" v="Koijusaari" />
		<tag k="place" v="islet" />
		<tag k="ssr:stedsnr" v="642124" />
	</node>
	<node lat="69.24964166587188" lon="20.033861102583778" id="-33395">
		<tag k="name" v="Sarankenttä" />
		<tag k="name:fkv" v="Sarankenttä" />
		<tag k="place" v="locality" />
		<tag k="ssr:stedsnr" v="642423" />
	</node>
	<node lat="69.40835555237297" lon="20.260849991437535" id="-33396">
		<tag k="name" v="Ruikkatanranta" />
		<tag k="name:fkv" v="Ruikkatanranta" />
		<tag k="natural" v="beach" />
		<tag k="ssr:stedsnr" v="642176" />
	</node>
	<node lat="69.36867500418964" lon="20.161244440170332" id="-33397">
		<tag k="name" v="Guršojohka - Kursunjoki" />
		<tag k="name:fkv" v="Kursunjoki" />
		<tag k="name:se" v="Guršojohka" />
		<tag k="ssr:stedsnr" v="642307" />
		<tag k="waterway" v="stream" />
	</node>
	<node lat="69.37221944577735" lon="20.027536110227405" id="-33398">
		<tag k="name" v="Álli" />
		<tag k="name:se" v="Álli" />
		<tag k="place" v="locality" />
		<tag k="ssr:stedsnr" v="642913" />
	</node>
	<node lat="69.34693055668026" lon="19.89594721361712" id="-33399">
		<tag k="loc_name:se" v="Rássenjárga" />
		<tag k="name" v="Rasseneset" />
		<tag k="name:no" v="Rasseneset" />
		<tag k="natural" v="cape" />
		<tag k="ssr:stedsnr" v="660408" />
	</node>
	<node lat="69.36609444837703" lon="19.902774996732326" id="-33400">
		<tag k="fixme" v="consider natural=peak for the most distinct mountains in the district" />
		<tag k="name" v="Kjølen" />
		<tag k="natural" v="hill" />
		<tag k="place" v="locality" />
		<tag k="ssr:stedsnr" v="660409" />
	</node>
	<node lat="69.28167222341652" lon="19.870011099802163" id="-33401">
		<tag k="fixme" v="consider natural=peak for the most distinct mountains in the district" />
		<tag k="name" v="Buefjellet" />
		<tag k="natural" v="hill" />
		<tag k="place" v="locality" />
		<tag k="ssr:stedsnr" v="660412" />
	</node>
	<node lat="69.33495833321" lon="19.90189166129372" id="-33402">
		<tag k="name" v="Roankiberget" />
		<tag k="natural" v="hill" />
		<tag k="place" v="locality" />
		<tag k="ssr:stedsnr" v="660392" />
	</node>
	<node lat="69.36783055803055" lon="20.3299083209682" id="-33403">
		<tag k="name" v="Rittagurra" />
		<tag k="name:se" v="Rittagurra" />
		<tag k="natural" v="valley" />
		<tag k="place" v="locality" />
		<tag k="ssr:stedsnr" v="661008" />
	</node>
	<node lat="69.39425278034504" lon="20.3140638844386" id="-33404">
		<tag k="name" v="Langmyra" />
		<tag k="natural" v="wetland" />
		<tag k="ssr:stedsnr" v="661088" />
	</node>
	<node lat="69.33890833677717" lon="19.96678609574038" id="-33405">
		<tag k="landuse" v="meadow" />
		<tag k="name" v="Fiervágieddi" />
		<tag k="name:se" v="Fiervágieddi" />
		<tag k="ssr:stedsnr" v="661510" />
	</node>
	<node lat="69.34297777862636" lon="19.964991665617973" id="-33406">
		<tag k="name" v="Letto" />
		<tag k="place" v="farm" />
		<tag k="ssr:stedsnr" v="661511" />
	</node>
	<node lat="69.23941111139919" lon="19.94679165640855" id="-33407">
		<tag k="name" v="Hoppaneset" />
		<tag k="natural" v="cape" />
		<tag k="ssr:stedsnr" v="661539" />
	</node>
	<node lat="69.26489444593429" lon="19.963399981023624" id="-33408">
		<tag k="loc_name:se" v="Beahkájorbmi" />
		<tag k="name" v="Pekkajorma" />
		<tag k="name:fkv" v="Pekkajorma" />
		<tag k="place" v="locality" />
		<tag k="ssr:stedsnr" v="661404" />
	</node>
	<node lat="69.40118888602913" lon="20.143372199679703" id="-33409">
		<tag k="name" v="Neset" />
		<tag k="natural" v="cape" />
		<tag k="ssr:stedsnr" v="661691" />
	</node>
	<node lat="69.39009444453467" lon="20.112905530983497" id="-33410">
		<tag k="name" v="Rohtobákti" />
		<tag k="name:se" v="Rohtobákti" />
		<tag k="natural" v="hill" />
		<tag k="place" v="locality" />
		<tag k="ssr:stedsnr" v="661692" />
	</node>
	<node lat="69.39104444846988" lon="20.119894443177085" id="-33411">
		<tag k="name" v="Jossi" />
		<tag k="natural" v="cape" />
		<tag k="ssr:stedsnr" v="661693" />
	</node>
	<node lat="69.36686388885647" lon="20.2268222184036" id="-33412">
		<tag k="name" v="Márjágurra" />
		<tag k="name:se" v="Márjágurra" />
		<tag k="natural" v="valley" />
		<tag k="place" v="locality" />
		<tag k="ssr:stedsnr" v="661703" />
	</node>
	<node lat="69.18108888827697" lon="20.755199988800875" id="-33413">
		<tag k="name" v="Russänmutka" />
		<tag k="name:fkv" v="Russänmutka" />
		<tag k="natural" v="valley" />
		<tag k="place" v="locality" />
		<tag k="ssr:stedsnr" v="661906" />
	</node>
	<node lat="69.15373055489958" lon="20.771219420426263" id="-33414">
		<tag k="name" v="Peianlantto" />
		<tag k="name:fkv" v="Peianlantto" />
		<tag k="natural" v="water" />
		<tag k="ssr:stedsnr" v="661914" />
	</node>
	<node lat="69.16911111574947" lon="20.359277752798057" id="-33418">
		<tag k="name" v="Ruovddášjávri" />
		<tag k="name:se" v="Ruovddášjávri" />
		<tag k="natural" v="water" />
		<tag k="ssr:stedsnr" v="685305" />
	</node>
	<node lat="69.31741111540804" lon="20.364058309002314" id="-33419">
		<tag k="name" v="Kavelnes" />
		<tag k="place" v="farm" />
		<tag k="ssr:stedsnr" v="685404" />
	</node>
	<node lat="69.31186516658204" lon="19.94500600680326" id="-33420">
		<tag k="alt_name:no" v="Oldernes" />
		<tag k="loc_name:se" v="Ruššugieddi" />
		<tag k="name" v="Oldereng - Russugieddi" />
		<tag k="name:no" v="Oldereng" />
		<tag k="name:se" v="Russugieddi" />
		<tag k="place" v="farm" />
		<tag k="ssr:stedsnr" v="685406" />
	</node>
	<node lat="69.3087111115066" lon="19.94008332599857" id="-33421">
		<tag k="name" v="Nyvoll" />
		<tag k="place" v="farm" />
		<tag k="ssr:stedsnr" v="685410" />
	</node>
	<node lat="69.35324999688764" lon="20.036455546610778" id="-33422">
		<tag k="bay" v="fjord" />
		<tag k="name" v="Storfjorden - Omasvuotna - Isovuono" />
		<tag k="name:fkv" v="Isovuono" />
		<tag k="name:no" v="Storfjorden" />
		<tag k="name:se" v="Omasvuotna" />
		<tag k="natural" v="bay" />
		<tag k="ssr:stedsnr" v="686456" />
	</node>
	<node lat="69.4136750019419" lon="20.4044222051593" id="-33423">
		<tag k="name" v="Midtskardet" />
		<tag k="natural" v="valley" />
		<tag k="place" v="locality" />
		<tag k="ssr:stedsnr" v="686488" />
	</node>
	<node lat="69.38590000175704" lon="20.190822207393218" id="-33424">
		<tag k="name" v="Falsnesodden - Falsnjárga - Falisniemi" />
		<tag k="name:fkv" v="Falisniemi" />
		<tag k="name:no" v="Falsnesodden" />
		<tag k="name:se" v="Falsnjárga" />
		<tag k="natural" v="cape" />
		<tag k="ssr:stedsnr" v="686493" />
	</node>
	<node lat="69.38169999838776" lon="20.251783306009138" id="-33425">
		<tag k="name" v="Guosgattaholmen - Guoskat - Kuoskatansaari" />
		<tag k="name:fkv" v="Kuoskatansaari" />
		<tag k="name:no" v="Guosgattaholmen" />
		<tag k="name:se" v="Guoskat" />
		<tag k="place" v="islet" />
		<tag k="ssr:stedsnr" v="686509" />
	</node>
	<node lat="69.30049166522872" lon="20.640944413312127" id="-33426">
		<tag k="fixme" v="consider natural=peak for the most distinct mountains in the district" />
		<tag k="name" v="Stállobornippat" />
		<tag k="name:se" v="Stállobornippat" />
		<tag k="natural" v="hill" />
		<tag k="place" v="locality" />
		<tag k="ssr:stedsnr" v="686539" />
	</node>
	<node lat="69.26676476491765" lon="19.96845029331941" id="-33427">
		<tag k="name" v="Brenna - Buollán - Palo" />
		<tag k="name:fkv" v="Palo" />
		<tag k="name:no" v="Brenna" />
		<tag k="name:se" v="Buollán" />
		<tag k="place" v="locality" />
		<tag k="ssr:stedsnr" v="686594" />
	</node>
	<node lat="69.2589555592155" lon="19.83196110019722" id="-33428">
		<tag k="name" v="Tverrdalen - Doaresvággi" />
		<tag k="name:no" v="Tverrdalen" />
		<tag k="name:se" v="Doaresvággi" />
		<tag k="natural" v="valley" />
		<tag k="place" v="locality" />
		<tag k="ssr:stedsnr" v="686597" />
	</node>
	<node lat="69.25664444148855" lon="19.874058323011102" id="-33429">
		<tag k="name" v="Seljeli" />
		<tag k="place" v="farm" />
		<tag k="ssr:stedsnr" v="686598" />
	</node>
	<node lat="69.2859499986786" lon="20.46078053289516" id="-33430">
		<tag k="alt_name" v="Langbakken" />
		<tag k="name" v="Langbakkan" />
		<tag k="natural" v="slope" />
		<tag k="place" v="locality" />
		<tag k="ssr:stedsnr" v="686706" />
	</node>
	<node lat="69.1267388930989" lon="21.002855532714424" id="-33431">
		<tag k="name" v="Nigošjávri" />
		<tag k="name:se" v="Nigošjávri" />
		<tag k="natural" v="water" />
		<tag k="ssr:stedsnr" v="686937" />
	</node>
	<node lat="69.13382500354537" lon="20.94647498347676" id="-33432">
		<tag k="fixme" v="consider natural=peak for the most distinct mountains in the district" />
		<tag k="name" v="Leattan" />
		<tag k="name:se" v="Leattan" />
		<tag k="natural" v="hill" />
		<tag k="place" v="locality" />
		<tag k="ssr:stedsnr" v="686939" />
	</node>
	<node lat="69.34134444774479" lon="20.049172219566113" id="-33433">
		<tag k="loc_name:se" v="Juomváhluokta" />
		<tag k="name" v="Elsnesbukta" />
		<tag k="name:no" v="Elsnesbukta" />
		<tag k="natural" v="bay" />
		<tag k="ssr:stedsnr" v="694021" />
	</node>
	<node lat="69.38182500281059" lon="20.356969427452718" id="-33434">
		<tag k="name" v="Šleađđu - Sleetu" />
		<tag k="name:fkv" v="Sleetu" />
		<tag k="name:se" v="Šleađđu" />
		<tag k="place" v="locality" />
		<tag k="ssr:stedsnr" v="698874" />
	</node>
	<node lat="69.3847361118257" lon="20.317363871842716" id="-33435">
		<tag k="name" v="Nergohpi - Ala-Kuppa" />
		<tag k="name:fkv" v="Ala-Kuppa" />
		<tag k="name:no" v="Nergohpi" />
		<tag k="natural" v="valley" />
		<tag k="place" v="locality" />
		<tag k="ssr:stedsnr" v="699915" />
	</node>
	<node lat="69.33706111410632" lon="20.30930275855479" id="-33436">
		<tag k="name" v="Kuokantörmä" />
		<tag k="name:fkv" v="Kuokantörmä" />
		<tag k="natural" v="slope" />
		<tag k="place" v="locality" />
		<tag k="ssr:stedsnr" v="700416" />
	</node>
	<node lat="69.41225000181969" lon="20.27376387309263" id="-33437">
		<tag k="name" v="Buollán - Palo" />
		<tag k="name:fkv" v="Palo" />
		<tag k="name:se" v="Buollán" />
		<tag k="place" v="locality" />
		<tag k="ssr:stedsnr" v="703212" />
	</node>
	<node lat="69.36053055649704" lon="20.27443332626847" id="-33438">
		<tag k="loc_name:no" v="Fossemelen" />
		<tag k="name" v="Fossemælen - Koskenmella" />
		<tag k="name:fkv" v="Koskenmella" />
		<tag k="name:no" v="Fossemælen" />
		<tag k="place" v="locality" />
		<tag k="ssr:stedsnr" v="703115" />
	</node>
	<node lat="69.35709166909498" lon="20.248319437228055" id="-33439">
		<tag k="name" v="Aspeskogen - Haapamettä" />
		<tag k="name:fkv" v="Haapamettä" />
		<tag k="name:no" v="Aspeskogen" />
		<tag k="place" v="locality" />
		<tag k="ssr:stedsnr" v="703121" />
	</node>
	<node lat="69.37549722418986" lon="20.057361108356755" id="-33440">
		<tag k="name" v="Gievdanluokta" />
		<tag k="name:se" v="Gievdanluokta" />
		<tag k="natural" v="bay" />
		<tag k="ssr:stedsnr" v="703435" />
	</node>
	<node lat="69.3660972224379" lon="20.029288886045006" id="-33441">
		<tag k="name" v="Guohcaluokta" />
		<tag k="name:se" v="Guohcaluokta" />
		<tag k="natural" v="bay" />
		<tag k="ssr:stedsnr" v="703437" />
	</node>
	<node lat="69.24390555980862" lon="20.026991642306285" id="-33442">
		<tag k="name" v="Paharuto" />
		<tag k="name:fkv" v="Paharuto" />
		<tag k="place" v="locality" />
		<tag k="ssr:stedsnr" v="703511" />
	</node>
	<node lat="69.26530277933142" lon="19.883647200220366" id="-33443">
		<tag k="loc_name:se" v="Gusadievvá" />
		<tag k="name" v="Kubakken" />
		<tag k="name:no" v="Kubakken" />
		<tag k="natural" v="slope" />
		<tag k="place" v="locality" />
		<tag k="ssr:stedsnr" v="721413" />
	</node>
	<node lat="69.2746888905736" lon="19.867691644777125" id="-33444">
		<tag k="loc_name:se" v="Áhkejávri" />
		<tag k="name" v="Akevatnet" />
		<tag k="name:no" v="Akevatnet" />
		<tag k="natural" v="water" />
		<tag k="ssr:stedsnr" v="721415" />
	</node>
	<node lat="69.39258889280805" lon="20.277713863696096" id="-33445">
		<tag k="name" v="Gustavgjerdet" />
		<tag k="place" v="quarter" />
		<tag k="ssr:stedsnr" v="722111" />
	</node>
	<node lat="69.16235278076289" lon="20.044327769767268" id="-33446">
		<tag k="name" v="Signalnesmoen" />
		<tag k="place" v="locality" />
		<tag k="ssr:stedsnr" v="722378" />
	</node>
	<node lat="69.33824444887738" lon="19.938474988957342" id="-33447">
		<tag k="name" v="Stállovággi" />
		<tag k="name:se" v="Stállovággi" />
		<tag k="natural" v="valley" />
		<tag k="place" v="locality" />
		<tag k="ssr:stedsnr" v="722503" />
	</node>
	<node lat="69.33890555776004" lon="19.936561096103794" id="-33448">
		<tag k="ford" v="yes" />
		<tag k="name" v="Skáidigála" />
		<tag k="name:se" v="Skáidigála" />
		<tag k="place" v="locality" />
		<tag k="ssr:stedsnr" v="722570" />
	</node>
	<node lat="69.09290833307041" lon="20.109988882440913" id="-33449">
		<tag k="name" v="Storbakken" />
		<tag k="natural" v="slope" />
		<tag k="place" v="locality" />
		<tag k="ssr:stedsnr" v="722720" />
	</node>
	<node lat="69.25341111432182" lon="20.594466639117755" id="-33450">
		<tag k="name" v="Gabaganbákti" />
		<tag k="name:se" v="Gabaganbákti" />
		<tag k="natural" v="hill" />
		<tag k="place" v="locality" />
		<tag k="ssr:stedsnr" v="722917" />
	</node>
	<node lat="69.16716666679041" lon="20.229830545103955" id="-33457">
		<tag k="name" v="Poikkiharjunjärvi" />
		<tag k="name:fkv" v="Poikkiharjunjärvi" />
		<tag k="natural" v="water" />
		<tag k="ssr:stedsnr" v="746306" />
	</node>
	<node lat="69.29905000142797" lon="19.858563885776015" id="-33458">
		<tag k="name" v="Galbmajohka" />
		<tag k="name:se" v="Galbmajohka" />
		<tag k="ssr:stedsnr" v="746368" />
		<tag k="waterway" v="stream" />
	</node>
	<node lat="69.30015833374125" lon="19.981827776786915" id="-33459">
		<tag k="alt_name:no" v="Berg, in;Inberg" />
		<tag k="name" v="Indre Berg - Guolbanvággi" />
		<tag k="name:no" v="Indre Berg" />
		<tag k="name:se" v="Guolbanvággi" />
		<tag k="place" v="farm" />
		<tag k="ssr:stedsnr" v="746376" />
	</node>
	<node lat="69.30560838419305" lon="20.401881702572766" id="-33460">
		<tag k="name" v="Lullenes" />
		<tag k="place" v="farm" />
		<tag k="ssr:stedsnr" v="746381" />
	</node>
	<node lat="69.32028948652768" lon="20.401951753270986" id="-33461">
		<tag k="name" v="Bærdalen - Marjavaaranmukka" />
		<tag k="name:fkv" v="Marjavaaranmukka" />
		<tag k="name:no" v="Bærdalen" />
		<tag k="natural" v="valley" />
		<tag k="place" v="locality" />
		<tag k="ssr:stedsnr" v="746421" />
	</node>
	<node lat="69.28479444964633" lon="20.773074976555794" id="-33462">
		<tag k="fixme" v="consider natural=peak for the most distinct mountains in the district" />
		<tag k="name" v="Rovvenjaŋggut" />
		<tag k="name:se" v="Rovvenjaŋggut" />
		<tag k="natural" v="hill" />
		<tag k="place" v="locality" />
		<tag k="ssr:stedsnr" v="746673" />
	</node>
	<node lat="69.26215000439241" lon="20.226713865283443" id="-33463">
		<tag k="name" v="Juomváhčahca" />
		<tag k="name:se" v="Juomváhčahca" />
		<tag k="natural" v="valley" />
		<tag k="place" v="locality" />
		<tag k="ssr:stedsnr" v="746573" />
	</node>
	<node lat="69.2600249970702" lon="19.97404443473908" id="-33464">
		<tag k="loc_name:se" v="Biertnagieddi" />
		<tag k="name" v="Bjørnevoll" />
		<tag k="name:no" v="Bjørnevoll" />
		<tag k="place" v="farm" />
		<tag k="ssr:stedsnr" v="746579" />
	</node>
	<node lat="69.18731388760466" lon="20.184591645691604" id="-33465">
		<tag k="name" v="Poikkiharjut" />
		<tag k="name:fkv" v="Poikkiharjut" />
		<tag k="natural" v="hill" />
		<tag k="place" v="locality" />
		<tag k="ssr:stedsnr" v="747306" />
	</node>
	<node lat="69.38184721879098" lon="20.265319427070207" id="-33466">
		<tag k="name" v="Laplassen" />
		<tag k="place" v="locality" />
		<tag k="ssr:stedsnr" v="904112" />
	</node>
	<node lat="69.40676111206707" lon="20.280369419924316" id="-33467">
		<tag k="fixme" v="consider natural=peak for the most distinct mountains in the district" />
		<tag k="name" v="Lokoaivi" />
		<tag k="name:se" v="Lokoaivi" />
		<tag k="natural" v="hill" />
		<tag k="place" v="locality" />
		<tag k="ssr:stedsnr" v="904093" />
	</node>
	<node lat="69.37736111388351" lon="20.260663874745962" id="-33468">
		<tag k="name" v="Littineset" />
		<tag k="natural" v="cape" />
		<tag k="ssr:stedsnr" v="904121" />
	</node>
	<node lat="69.37664444858568" lon="20.27124721106227" id="-33469">
		<tag k="fixme" v="verify maritime location" />
		<tag k="mooring" v="yes" />
		<tag k="name" v="Båtplassen" />
		<tag k="place" v="locality" />
		<tag k="ssr:stedsnr" v="904132" />
	</node>
	<node lat="69.37754444462952" lon="20.27874721281851" id="-33470">
		<tag k="name" v="Bekkevoll" />
		<tag k="place" v="farm" />
		<tag k="ssr:stedsnr" v="904135" />
	</node>
	<node lat="69.2184222204542" lon="19.971952762854286" id="-33471">
		<tag k="name" v="Fossmo" />
		<tag k="place" v="farm" />
		<tag k="ssr:stedsnr" v="904471" />
	</node>
	<node lat="69.37006111261843" lon="20.227697216738946" id="-33472">
		<tag k="name" v="Latnja" />
		<tag k="name:se" v="Latnja" />
		<tag k="natural" v="slope" />
		<tag k="place" v="locality" />
		<tag k="ssr:stedsnr" v="904239" />
	</node>
	<node lat="69.3785222215264" lon="20.21686109342313" id="-33473">
		<tag k="name" v="Starkbekken" />
		<tag k="ssr:stedsnr" v="904241" />
		<tag k="waterway" v="stream" />
	</node>
	<node lat="69.28059166666708" lon="19.96371387317885" id="-33474">
		<tag k="name" v="Harelemmen" />
		<tag k="natural" v="hill" />
		<tag k="place" v="locality" />
		<tag k="ssr:stedsnr" v="904431" />
	</node>
	<node lat="69.33507777944119" lon="19.953130534781476" id="-33475">
		<tag k="name" v="Rásttoš" />
		<tag k="name:se" v="Rásttoš" />
		<tag k="natural" v="hill" />
		<tag k="place" v="locality" />
		<tag k="ssr:stedsnr" v="904524" />
	</node>
	<node lat="69.16757500239912" lon="20.017969429242186" id="-33476">
		<tag k="name" v="Kleiva" />
		<tag k="natural" v="slope" />
		<tag k="place" v="locality" />
		<tag k="ssr:stedsnr" v="904358" />
	</node>
	<node lat="69.34229721964005" lon="19.905302759686123" id="-33477">
		<tag k="loc_name:se" v="Juopmobákti" />
		<tag k="name" v="Surgrasberget" />
		<tag k="name:no" v="Surgrasberget" />
		<tag k="natural" v="hill" />
		<tag k="place" v="locality" />
		<tag k="ssr:stedsnr" v="904370" />
	</node>
	<node lat="69.19771666953865" lon="19.992286108992054" id="-33478">
		<tag k="name" v="Gustavbergan" />
		<tag k="ssr:stedsnr" v="904479" />
		<tag k="waterway" v="stream" />
	</node>
	<node lat="69.28852499809094" lon="19.913466653634067" id="-33479">
		<tag k="loc_name:se" v="Bellehačorru" />
		<tag k="name" v="Bellikabakken" />
		<tag k="name:no" v="Bellikabakken" />
		<tag k="natural" v="slope" />
		<tag k="place" v="locality" />
		<tag k="ssr:stedsnr" v="904576" />
	</node>
	<node lat="69.37826388654133" lon="20.001974987967664" id="-33480">
		<tag k="name" v="Piennaragorsa" />
		<tag k="name:se" v="Piennaragorsa" />
		<tag k="natural" v="valley" />
		<tag k="place" v="locality" />
		<tag k="ssr:stedsnr" v="904532" />
	</node>
	<node lat="69.38740833126572" lon="20.099858322442604" id="-33481">
		<tag k="name" v="Gohpi" />
		<tag k="name:se" v="Gohpi" />
		<tag k="natural" v="valley" />
		<tag k="place" v="locality" />
		<tag k="ssr:stedsnr" v="904722" />
	</node>
	<node lat="69.30067500048821" lon="20.427102760312035" id="-33482">
		<tag k="name" v="Lullemoen" />
		<tag k="place" v="locality" />
		<tag k="ssr:stedsnr" v="904967" />
	</node>
	<node lat="69.37591666412708" lon="20.29480275945476" id="-33483">
		<tag k="name" v="Åsli" />
		<tag k="place" v="farm" />
		<tag k="ssr:stedsnr" v="904991" />
	</node>
	<node lat="69.3754388913851" lon="20.057619428071895" id="-33484">
		<tag k="name" v="Steindalsbukta" />
		<tag k="natural" v="bay" />
		<tag k="ssr:stedsnr" v="755021" />
	</node>
	<node lat="69.31747778128488" lon="19.954797222235463" id="-33485">
		<tag k="name" v="Nordnes" />
		<tag k="place" v="farm" />
		<tag k="ssr:stedsnr" v="755025" />
	</node>
	<node lat="69.25637626407821" lon="19.99458104320203" id="-33487">
		<tag k="fixme" v="consider place=hamlet" />
		<tag k="name" v="Kitdalen - Čoaigedanvuovdi - Soiketanouta" />
		<tag k="name:fkv" v="Soiketanouta" />
		<tag k="name:no" v="Kitdalen" />
		<tag k="name:se" v="Čoaigedanvuovdi" />
		<tag k="place" v="village" />
		<tag k="ssr:stedsnr" v="905362" />
	</node>
	<node lat="69.35896944559512" lon="20.319544420994312" id="-33489">
		<tag k="name" v="Suonjujeaggi - Suoinunjänkkä" />
		<tag k="name:fkv" v="Suoinunjänkkä" />
		<tag k="name:se" v="Suonjujeaggi" />
		<tag k="natural" v="wetland" />
		<tag k="ssr:stedsnr" v="759047" />
	</node>
	<node lat="69.38432499901461" lon="20.32841387363035" id="-33490">
		<tag k="name" v="Hengen - Henko" />
		<tag k="name:fkv" v="Henko" />
		<tag k="name:no" v="Hengen" />
		<tag k="natural" v="waterfall" />
		<tag k="ssr:stedsnr" v="760910" />
	</node>
	<node lat="69.38977778004869" lon="20.261791640117128" id="-33491">
		<tag k="name" v="Mustapahta" />
		<tag k="name:fkv" v="Mustapahta" />
		<tag k="natural" v="hill" />
		<tag k="place" v="locality" />
		<tag k="ssr:stedsnr" v="760920" />
	</node>
	<node lat="69.22406666428269" lon="19.975477751665082" id="-33494">
		<tag k="name" v="Gugasholmen" />
		<tag k="place" v="islet" />
		<tag k="ssr:stedsnr" v="782451" />
	</node>
	<node lat="69.20905277851288" lon="19.96489719925353" id="-33495">
		<tag k="name" v="Fossbakken" />
		<tag k="natural" v="slope" />
		<tag k="place" v="locality" />
		<tag k="ssr:stedsnr" v="782457" />
	</node>
	<node lat="69.15235555217481" lon="20.043455531131823" id="-33496">
		<tag k="name" v="Innset" />
		<tag k="place" v="farm" />
		<tag k="ssr:stedsnr" v="782347" />
	</node>
	<node lat="69.3609388885545" lon="20.26872497630233" id="-33497">
		<tag k="name" v="Magerneset" />
		<tag k="natural" v="cape" />
		<tag k="ssr:stedsnr" v="783007" />
	</node>
	<node lat="69.36263333809406" lon="20.233505530060796" id="-33498">
		<tag k="name" v="Velma" />
		<tag k="natural" v="slope" />
		<tag k="place" v="locality" />
		<tag k="ssr:stedsnr" v="783203" />
	</node>
	<node lat="69.36429999851275" lon="20.245499971293217" id="-33499">
		<tag k="name" v="Keskistealli" />
		<tag k="name:se" v="Keskistealli" />
		<tag k="place" v="locality" />
		<tag k="ssr:stedsnr" v="783204" />
	</node>
	<node lat="69.34077499958927" lon="19.919630546866195" id="-33500">
		<tag k="name" v="Gomubákti" />
		<tag k="name:se" v="Gomubákti" />
		<tag k="natural" v="hill" />
		<tag k="place" v="locality" />
		<tag k="ssr:stedsnr" v="783521" />
	</node>
	<node lat="69.29351690090436" lon="19.91477598062546" id="-33502">
		<tag k="name" v="Kileng" />
		<tag k="place" v="farm" />
		<tag k="ssr:stedsnr" v="783608" />
	</node>
	<node lat="69.30559999629762" lon="19.99289721252915" id="-33503">
		<tag k="name" v="Storsteinen" />
		<tag k="natural" v="cape" />
		<tag k="ssr:stedsnr" v="783599" />
	</node>
	<node lat="69.12071667182046" lon="20.133824978468063" id="-33504">
		<tag k="name" v="Bråtefloen" />
		<tag k="natural" v="water" />
		<tag k="ssr:stedsnr" v="783709" />
		<tag k="water" v="lake" />
	</node>
	<node lat="69.37981389186844" lon="20.294797197872573" id="-33506">
		<tag k="name" v="Olderelv camping" />
		<tag k="ssr:stedsnr" v="910473" />
		<tag k="tourism" v="camp_site" />
	</node>
	<node lat="69.09715000292024" lon="20.45916110216411" id="-33512">
		<tag k="name" v="Doggejohka" />
		<tag k="name:se" v="Doggejohka" />
		<tag k="ssr:stedsnr" v="808523" />
		<tag k="waterway" v="river" />
	</node>
	<node lat="69.07328611247502" lon="20.955663850546205" id="-33513">
		<tag k="name" v="Gállaluoppal" />
		<tag k="name:se" v="Gállaluoppal" />
		<tag k="natural" v="water" />
		<tag k="ssr:stedsnr" v="808533" />
	</node>
	<node lat="69.0513444455646" lon="21.01358053744483" id="-33514">
		<tag k="name" v="Čoahppeluoppal" />
		<tag k="name:se" v="Čoahppeluoppal" />
		<tag k="natural" v="water" />
		<tag k="ssr:stedsnr" v="808537" />
	</node>
	<node lat="69.08770000304163" lon="21.05542773860397" id="-33515">
		<tag k="name" v="Duolljehuipojohka" />
		<tag k="name:se" v="Duolljehuipojohka" />
		<tag k="ssr:stedsnr" v="808543" />
		<tag k="waterway" v="river" />
	</node>
	<node lat="69.07682777713252" lon="21.07717497479764" id="-33516">
		<tag k="fixme" v="consider natural=peak for the most distinct mountains in the district" />
		<tag k="name" v="Deamádanvárri" />
		<tag k="name:se" v="Deamádanvárri" />
		<tag k="natural" v="hill" />
		<tag k="place" v="locality" />
		<tag k="ssr:stedsnr" v="808544" />
	</node>
	<node lat="69.23977499967371" lon="20.47483886655605" id="-33517">
		<tag k="name" v="Stuoratoaimoski" />
		<tag k="name:se" v="Stuoratoaimoski" />
		<tag k="natural" v="valley" />
		<tag k="place" v="locality" />
		<tag k="ssr:stedsnr" v="808997" />
	</node>
	<node lat="69.33096944814245" lon="19.975544423272265" id="-33518">
		<tag k="loc_name:se" v="Stálugárggumohkki" />
		<tag k="name" v="Sandørbukta" />
		<tag k="name:no" v="Sandørbukta" />
		<tag k="natural" v="bay" />
		<tag k="ssr:stedsnr" v="813957" />
	</node>
	<node lat="69.290522220343" lon="19.895830530754797" id="-33519">
		<tag k="name" v="Sulločielgi" />
		<tag k="name:se" v="Sulločielgi" />
		<tag k="place" v="locality" />
		<tag k="ssr:stedsnr" v="821013" />
	</node>
	<node lat="69.34149585051077" lon="19.896792494786165" id="-33520">
		<tag k="name" v="Nervatnet - Vuollejávri" />
		<tag k="name:no" v="Nervatnet" />
		<tag k="name:se" v="Vuollejávri" />
		<tag k="natural" v="water" />
		<tag k="ssr:stedsnr" v="821025" />
	</node>
	<node lat="69.37655555806911" lon="20.31821387641908" id="-33521">
		<tag k="name" v="Storluohkka - Isoluokka" />
		<tag k="name:fkv" v="Isoluokka" />
		<tag k="name:se" v="Storluohkka" />
		<tag k="natural" v="slope" />
		<tag k="place" v="locality" />
		<tag k="ssr:stedsnr" v="825124" />
	</node>
	<node lat="69.32813889029099" lon="20.376497195170888" id="-33522">
		<tag k="name" v="Ylinen Puolamavaaranjärvi" />
		<tag k="name:fkv" v="Ylinen Puolamavaaranjärvi" />
		<tag k="natural" v="water" />
		<tag k="ssr:stedsnr" v="825416" />
	</node>
	<node lat="69.33609444496626" lon="20.039066653581337" id="-33523">
		<tag k="fixme" v="multiple name tags, choose one and add the other to alt_name" />
		<tag k="name" v="Piltbukta;Bukta - Luokta - Lahti" />
		<tag k="name:fkv" v="Lahti" />
		<tag k="name:no" v="Piltbukta;Bukta" />
		<tag k="name:se" v="Luokta" />
		<tag k="natural" v="bay" />
		<tag k="ssr:stedsnr" v="825607" />
	</node>
	<node lat="69.37979444946865" lon="20.02570831686095" id="-33524">
		<tag k="name" v="Fierahat" />
		<tag k="name:se" v="Fierahat" />
		<tag k="natural" v="scree" />
		<tag k="ssr:stedsnr" v="825972" />
	</node>
	<node lat="69.26232499643201" lon="19.920144435990874" id="-33525">
		<tag k="name" v="Bukta" />
		<tag k="natural" v="bay" />
		<tag k="ssr:stedsnr" v="843435" />
	</node>
	<node lat="69.37575833656084" lon="20.28295276058873" id="-33526">
		<tag k="name" v="Skibotn" />
		<tag k="place" v="farm" />
		<tag k="ssr:stedsnr" v="844134" />
	</node>
	<node lat="69.36864167059764" lon="20.189905540183542" id="-33527">
		<tag k="name" v="Falsnesgropa" />
		<tag k="natural" v="valley" />
		<tag k="place" v="locality" />
		<tag k="ssr:stedsnr" v="844208" />
	</node>
	<node lat="69.23890277467979" lon="19.94443888549466" id="-33528">
		<tag k="name" v="Lapingárdi" />
		<tag k="name:se" v="Lapingárdi" />
		<tag k="natural" v="water" />
		<tag k="ssr:stedsnr" v="844583" />
		<tag k="water" v="lake" />
	</node>
	<node lat="69.37243889268399" lon="20.042461103742593" id="-33529">
		<tag k="name" v="Nyheim" />
		<tag k="place" v="farm" />
		<tag k="ssr:stedsnr" v="844716" />
	</node>
	<node lat="69.30595000221133" lon="20.433530530510698" id="-33530">
		<tag k="name" v="Lulleborg" />
		<tag k="place" v="farm" />
		<tag k="ssr:stedsnr" v="844988" />
	</node>
	<node lat="69.37372777754484" lon="20.277424985545384" id="-33531">
		<tag k="name" v="Gunnarskogen" />
		<tag k="place" v="locality" />
		<tag k="ssr:stedsnr" v="844989" />
	</node>
	<node lat="69.43111389104513" lon="20.388722197311015" id="-33534">
		<tag k="name" v="Ytterskardet" />
		<tag k="natural" v="valley" />
		<tag k="place" v="locality" />
		<tag k="ssr:stedsnr" v="928233" />
	</node>
	<node lat="69.12227499959498" lon="20.388122191499004" id="-33535">
		<tag k="name" v="Breidalselva - Govdajohka" />
		<tag k="name:no" v="Breidalselva" />
		<tag k="name:se" v="Govdajohka" />
		<tag k="old_name:no" v="Breiddalselva" />
		<tag k="ssr:stedsnr" v="928248" />
		<tag k="waterway" v="river" />
	</node>
	<node lat="69.11829999986887" lon="20.328922208172735" id="-33536">
		<tag k="fixme" v="consider natural=peak for the most distinct mountains in the district" />
		<tag k="name" v="Márkos-Malla" />
		<tag k="name:se" v="Márkos-Malla" />
		<tag k="natural" v="hill" />
		<tag k="place" v="locality" />
		<tag k="ssr:stedsnr" v="928249" />
	</node>
	<node lat="69.12367777850254" lon="20.104336097661086" id="-33537">
		<tag k="alt_name" v="Olsborgsæter" />
		<tag k="historic" v="shieling" />
		<tag k="name" v="Olsborgsætra" />
		<tag k="place" v="isolated_dwelling" />
		<tag k="ssr:stedsnr" v="928250" />
	</node>
	<node lat="69.14882778185766" lon="20.257208312012175" id="-33538">
		<tag k="name" v="Márkosvádjáčahca" />
		<tag k="name:se" v="Márkosvádjáčahca" />
		<tag k="natural" v="valley" />
		<tag k="place" v="locality" />
		<tag k="ssr:stedsnr" v="928271" />
	</node>
	<node lat="69.39985000028187" lon="20.253219435549468" id="-33539">
		<tag k="alt_name" v="Skibotnbukt" />
		<tag k="name" v="Skibotnbukta" />
		<tag k="natural" v="bay" />
		<tag k="ssr:stedsnr" v="928435" />
	</node>
	<node lat="69.40117499688273" lon="19.890199995045684" id="-33540">
		<tag k="fixme" v="consider natural=peak for the most distinct mountains in the district" />
		<tag k="name" v="Nállančohkka" />
		<tag k="name:se" v="Nállančohkka" />
		<tag k="natural" v="hill" />
		<tag k="place" v="locality" />
		<tag k="ssr:stedsnr" v="928436" />
	</node>
	<node lat="69.33241111120144" lon="20.32884720444248" id="-33541">
		<tag k="alt_name:no" v="Isaksteinen" />
		<tag k="name" v="Isakstein - Iisakinkivi" />
		<tag k="name:fkv" v="Iisakinkivi" />
		<tag k="name:no" v="Isakstein" />
		<tag k="place" v="islet" />
		<tag k="ssr:stedsnr" v="928385" />
	</node>
	<node lat="69.31361944803976" lon="20.267277751649562" id="-33542">
		<tag k="name" v="Kielva - Gihccejohka - Kitsijoki" />
		<tag k="name:fkv" v="Kitsijoki" />
		<tag k="name:no" v="Kielva" />
		<tag k="name:se" v="Gihccejohka" />
		<tag k="ssr:stedsnr" v="928398" />
		<tag k="waterway" v="river" />
	</node>
	<node lat="69.29100277783039" lon="20.47000554657726" id="-33543">
		<tag k="alt_name:no" v="Rundfjellet, store" />
		<tag k="fixme" v="consider natural=peak for the most distinct mountains in the district" />
		<tag k="name" v="Store Rundfjellet - Jorbavárri" />
		<tag k="name:no" v="Store Rundfjellet" />
		<tag k="name:se" v="Jorbavárri" />
		<tag k="natural" v="hill" />
		<tag k="place" v="locality" />
		<tag k="ssr:stedsnr" v="928494" />
	</node>
	<node lat="69.28439444233886" lon="20.500980532894907" id="-33544">
		<tag k="name" v="Steinelva" />
		<tag k="ssr:stedsnr" v="928665" />
		<tag k="waterway" v="stream" />
	</node>
	<node lat="69.28523611105777" lon="20.825988854845015" id="-33545">
		<tag k="name" v="Bajimus Rovvejávri" />
		<tag k="name:se" v="Bajimus Rovvejávri" />
		<tag k="natural" v="water" />
		<tag k="old_name:se" v="Rovvejávri, bajimus" />
		<tag k="ssr:stedsnr" v="928670" />
		<tag k="water" v="lake" />
	</node>
	<node lat="69.2883333326879" lon="20.721272205051818" id="-33546">
		<tag k="barrier" v="fence" />
		<tag k="name" v="Rovvegárdi" />
		<tag k="name:se" v="Rovvegárdi" />
		<tag k="ssr:stedsnr" v="928671" />
	</node>
	<node lat="69.07813333759181" lon="20.408847204768378" id="-33547">
		<tag k="name" v="Čiekŋalgorsa" />
		<tag k="name:se" v="Čiekŋalgorsa" />
		<tag k="natural" v="valley" />
		<tag k="place" v="locality" />
		<tag k="ssr:stedsnr" v="929240" />
	</node>
	<node lat="69.0672500041848" lon="20.251655546482983" id="-33548">
		<tag k="name" v="Visieđggajohka" />
		<tag k="name:se" v="Visieđggajohka" />
		<tag k="ssr:stedsnr" v="929244" />
		<tag k="waterway" v="river" />
	</node>
	<node lat="69.23421110939086" lon="20.098749995521953" id="-33549">
		<tag k="name" v="Søreng" />
		<tag k="place" v="farm" />
		<tag k="ssr:stedsnr" v="929324" />
	</node>
	<node lat="69.23833333506116" lon="20.060074976790006" id="-33550">
		<tag k="name" v="Olderlund" />
		<tag k="place" v="farm" />
		<tag k="ssr:stedsnr" v="929338" />
	</node>
	<node lat="69.29311389306505" lon="19.772233323615577" id="-33551">
		<tag k="loc_name:se" v="Jiehkkejávri" />
		<tag k="name" v="Jekkivatnet" />
		<tag k="name:no" v="Jekkivatnet" />
		<tag k="natural" v="water" />
		<tag k="ssr:stedsnr" v="929339" />
		<tag k="water" v="lake" />
	</node>
	<node lat="69.17722499790919" lon="20.254683323821784" id="-33552">
		<tag k="name" v="Oksefjellsmåvatnan - Härkävaaranjärvet" />
		<tag k="name:fkv" v="Härkävaaranjärvet" />
		<tag k="name:no" v="Oksefjellsmåvatnan" />
		<tag k="natural" v="water" />
		<tag k="ssr:stedsnr" v="929293" />
	</node>
	<node lat="69.17325744360653" lon="20.298557960469175" id="-33553">
		<tag k="fixme" v="consider natural=peak for the most distinct mountains in the district" />
		<tag k="name" v="Oksefjellet - Heargevárit - Härkävaara" />
		<tag k="name:fkv" v="Härkävaara" />
		<tag k="name:no" v="Oksefjellet" />
		<tag k="name:se" v="Heargevárit" />
		<tag k="natural" v="hill" />
		<tag k="place" v="locality" />
		<tag k="ssr:stedsnr" v="929298" />
	</node>
	<node lat="69.29353333731814" lon="19.916630535599783" id="-33554">
		<tag k="name" v="Kvalnes - Bossonjárga" />
		<tag k="name:no" v="Kvalnes" />
		<tag k="name:se" v="Bossonjárga" />
		<tag k="place" v="farm" />
		<tag k="ssr:stedsnr" v="929366" />
	</node>
	<node lat="69.29291666427042" lon="20.364758307834833" id="-33555">
		<tag k="fixme" v="multiple name tags, choose one and add the other to alt_name; consider natural=peak for the most distinct mountains in the district" />
		<tag k="name" v="Norddalsfjellet - Nuortaváhoaivi - Nuorttuvaara;Nuorttuvajanvaara" />
		<tag k="name:fkv" v="Nuorttuvaara;Nuorttuvajanvaara" />
		<tag k="name:no" v="Norddalsfjellet" />
		<tag k="name:se" v="Nuortaváhoaivi" />
		<tag k="natural" v="hill" />
		<tag k="place" v="locality" />
		<tag k="ssr:stedsnr" v="929375" />
	</node>
	<node lat="69.34082884799066" lon="19.961082286463068" id="-33556">
		<tag k="alt_name:no" v="Elvevoll" />
		<tag k="fixme" v="consider place=hamlet" />
		<tag k="loc_name:se" v="Johkamielli" />
		<tag k="name" v="Elvevollen" />
		<tag k="name:no" v="Elvevollen" />
		<tag k="place" v="farm" />
		<tag k="ssr:stedsnr" v="929393" />
	</node>
	<node lat="69.33860555935718" lon="20.055083331723218" id="-33557">
		<tag k="loc_name:se" v="Juomvággi" />
		<tag k="name" v="Elsnes" />
		<tag k="name:no" v="Elsnes" />
		<tag k="place" v="farm" />
		<tag k="ssr:stedsnr" v="929396" />
	</node>
	<node lat="69.39273610719938" lon="20.33015276393466" id="-33558">
		<tag k="fixme" v="consider natural=peak for the most distinct mountains in the district" />
		<tag k="name" v="Várdovárri - Varttovaara" />
		<tag k="name:fkv" v="Varttovaara" />
		<tag k="name:se" v="Várdovárri" />
		<tag k="natural" v="hill" />
		<tag k="place" v="locality" />
		<tag k="ssr:stedsnr" v="929467" />
	</node>
	<node lat="69.38726111184808" lon="20.3266305319634" id="-33559">
		<tag k="name" v="Gobijohka - Kupanjoki" />
		<tag k="name:fkv" v="Kupanjoki" />
		<tag k="name:se" v="Gobijohka" />
		<tag k="ssr:stedsnr" v="929472" />
		<tag k="waterway" v="stream" />
	</node>
	<node lat="69.38255277726422" lon="20.391388863663657" id="-33560">
		<tag k="name" v="Ádjetvággi" />
		<tag k="name:se" v="Ádjetvággi" />
		<tag k="natural" v="valley" />
		<tag k="place" v="locality" />
		<tag k="ssr:stedsnr" v="929474" />
	</node>
	<node lat="69.38407778027329" lon="20.20159997868668" id="-33561">
		<tag k="name" v="Falsnes" />
		<tag k="place" v="farm" />
		<tag k="ssr:stedsnr" v="929476" />
	</node>
	<node lat="69.37827027672898" lon="20.227767012068853" id="-33562">
		<tag k="name" v="Nállovuohppi - Nalluvuopio" />
		<tag k="name:fkv" v="Nalluvuopio" />
		<tag k="name:se" v="Nállovuohppi" />
		<tag k="place" v="locality" />
		<tag k="ssr:stedsnr" v="929477" />
	</node>
	<node lat="69.26467778186016" lon="20.671777765464647" id="-33563">
		<tag k="name" v="Rovijokkelva - Rovvejohka - Rovijoki" />
		<tag k="name:fkv" v="Rovijoki" />
		<tag k="name:no" v="Rovijokkelva" />
		<tag k="name:se" v="Rovvejohka" />
		<tag k="ssr:stedsnr" v="929669" />
		<tag k="waterway" v="river" />
	</node>
	<node lat="69.25258333589163" lon="20.674008315193003" id="-33564">
		<tag k="name" v="Lávvojohka" />
		<tag k="name:se" v="Lávvojohka" />
		<tag k="ssr:stedsnr" v="929680" />
		<tag k="waterway" v="stream" />
	</node>
	<node lat="69.11892777727867" lon="20.75986663141059" id="-33565">
		<tag k="name" v="Russeneset - Ruoššanjárga" />
		<tag k="name:no" v="Russeneset" />
		<tag k="name:se" v="Ruoššanjárga" />
		<tag k="natural" v="cape" />
		<tag k="ssr:stedsnr" v="929515" />
	</node>
	<node lat="69.09495833641004" lon="20.647127754642735" id="-33566">
		<tag k="name" v="Goallárjávri" />
		<tag k="name:se" v="Goallárjávri" />
		<tag k="natural" v="water" />
		<tag k="ssr:stedsnr" v="929519" />
		<tag k="water" v="lake" />
	</node>
	<node lat="69.09122500031054" lon="21.045883313421886" id="-33567">
		<tag k="name" v="Buolvirrohtu" />
		<tag k="name:se" v="Buolvirrohtu" />
		<tag k="natural" v="wetland" />
		<tag k="ssr:stedsnr" v="929531" />
	</node>
	<node lat="69.18517500427228" lon="20.931286086995442" id="-33568">
		<tag k="name" v="Didnojávri" />
		<tag k="name:se" v="Didnojávri" />
		<tag k="natural" v="water" />
		<tag k="ssr:stedsnr" v="929966" />
		<tag k="water" v="lake" />
	</node>
	<node lat="69.17460555139998" lon="20.02697776710381" id="-33569">
		<tag k="name" v="Olsborg" />
		<tag k="place" v="farm" />
		<tag k="ssr:stedsnr" v="868308" />
	</node>
	<node lat="69.20159999871153" lon="20.22532776951633" id="-33570">
		<tag k="name" v="Siktagurra" />
		<tag k="natural" v="valley" />
		<tag k="place" v="locality" />
		<tag k="ssr:stedsnr" v="868310" />
	</node>
	<node lat="69.26634167074539" lon="19.775074985017717" id="-33571">
		<tag k="name" v="Rieppevatnet - Riehpijávri" />
		<tag k="name:no" v="Rieppevatnet" />
		<tag k="name:se" v="Riehpijávri" />
		<tag k="natural" v="water" />
		<tag k="ssr:stedsnr" v="868311" />
		<tag k="water" v="lake" />
	</node>
	<node lat="69.18793055156209" lon="19.975149986596403" id="-33572">
		<tag k="name" v="Frydenlund" />
		<tag k="place" v="farm" />
		<tag k="ssr:stedsnr" v="868318" />
	</node>
	<node lat="69.2039527747862" lon="20.25628608360111" id="-33573">
		<tag k="fixme" v="consider natural=peak for the most distinct mountains in the district" />
		<tag k="name" v="Čazavárri" />
		<tag k="name:se" v="Čazavárri" />
		<tag k="natural" v="hill" />
		<tag k="place" v="locality" />
		<tag k="ssr:stedsnr" v="868325" />
	</node>
	<node lat="69.2198722191316" lon="19.97274442271919" id="-33574">
		<tag k="name" v="Fossli" />
		<tag k="place" v="farm" />
		<tag k="ssr:stedsnr" v="868329" />
	</node>
	<node lat="69.11123333046997" lon="20.40060831839194" id="-33575">
		<tag k="name" v="Rávdoluoppal" />
		<tag k="name:se" v="Rávdoluoppal" />
		<tag k="place" v="locality" />
		<tag k="ssr:stedsnr" v="868279" />
	</node>
	<node lat="69.29688333174488" lon="20.61818887621434" id="-33576">
		<tag k="name" v="Doaresjávrrit" />
		<tag k="name:se" v="Doaresjávrrit" />
		<tag k="natural" v="water" />
		<tag k="ssr:stedsnr" v="868529" />
	</node>
	<node lat="69.09045000295987" lon="20.44464998963981" id="-33577">
		<tag k="name" v="Doggehytta" />
		<tag k="place" v="isolated_dwelling" />
		<tag k="ssr:stedsnr" v="869575" />
	</node>
	<node lat="69.06670833472499" lon="20.549374971175094" id="-33578">
		<tag k="name" v="Golddajeakkit" />
		<tag k="name:se" v="Golddajeakkit" />
		<tag k="natural" v="wetland" />
		<tag k="ssr:stedsnr" v="869580" />
	</node>
	<node lat="69.221697222646" lon="20.62607498180711" id="-33579">
		<tag k="alt_name:se" v="Busesgurra" />
		<tag k="name" v="Buvssasgurra" />
		<tag k="name:se" v="Buvssasgurra" />
		<tag k="natural" v="valley" />
		<tag k="place" v="locality" />
		<tag k="ssr:stedsnr" v="869983" />
	</node>
	<node lat="69.22531666723683" lon="20.67048053532811" id="-33580">
		<tag k="name" v="Baseguolbanat" />
		<tag k="name:se" v="Baseguolbanat" />
		<tag k="natural" v="valley" />
		<tag k="place" v="locality" />
		<tag k="ssr:stedsnr" v="869986" />
	</node>
	<node lat="69.23208055289513" lon="20.613111095878985" id="-33581">
		<tag k="alt_name:se" v="Busesjohka" />
		<tag k="name" v="Buvssasjohka" />
		<tag k="name:se" v="Buvssasjohka" />
		<tag k="ssr:stedsnr" v="930985" />
		<tag k="waterway" v="stream" />
	</node>
	<node lat="69.11574444395931" lon="20.0109110852273" id="-33582">
		<tag k="fixme" v="consider natural=peak for the most distinct mountains in the district" />
		<tag k="name" v="Vassdalstinden - Čáhceváhgáisi" />
		<tag k="name:no" v="Vassdalstinden" />
		<tag k="name:se" v="Čáhceváhgáisi" />
		<tag k="natural" v="hill" />
		<tag k="place" v="locality" />
		<tag k="ssr:stedsnr" v="932285" />
	</node>
	<node lat="69.41142500284563" lon="20.154813872353184" id="-33583">
		<tag k="name" v="Bergodden - Orritgeahči" />
		<tag k="name:no" v="Bergodden" />
		<tag k="name:se" v="Orritgeahči" />
		<tag k="natural" v="cape" />
		<tag k="ssr:stedsnr" v="876034" />
	</node>
	<node lat="69.29633056097441" lon="19.849727758416122" id="-33584">
		<tag k="name" v="Boskoriidi" />
		<tag k="name:se" v="Boskoriidi" />
		<tag k="natural" v="slope" />
		<tag k="place" v="locality" />
		<tag k="ssr:stedsnr" v="881052" />
	</node>
	<node lat="69.30241944499224" lon="20.3991444244867" id="-33585">
		<tag k="name" v="Ala-Potka" />
		<tag k="name:fkv" v="Ala-Potka" />
		<tag k="place" v="islet" />
		<tag k="ssr:stedsnr" v="881357" />
	</node>
	<node lat="69.3708138910567" lon="20.322358324465604" id="-33586">
		<tag k="name" v="Rittakuru" />
		<tag k="name:fkv" v="Rittakuru" />
		<tag k="natural" v="valley" />
		<tag k="place" v="locality" />
		<tag k="ssr:stedsnr" v="881912" />
	</node>
	<node lat="69.355722219436" lon="20.263286104902846" id="-33587">
		<tag k="name" v="Koskensaari" />
		<tag k="name:fkv" v="Koskensaari" />
		<tag k="place" v="islet" />
		<tag k="ssr:stedsnr" v="886109" />
	</node>
	<node lat="69.332441667467" lon="20.276444426470682" id="-33588">
		<tag k="name" v="Leppäveräjänvaara" />
		<tag k="name:fkv" v="Leppäveräjänvaara" />
		<tag k="place" v="locality" />
		<tag k="ssr:stedsnr" v="886313" />
	</node>
	<node lat="69.34473333048217" lon="19.89463608571873" id="-33589">
		<tag k="ford" v="yes" />
		<tag k="name" v="Øverčahca - Badječahca" />
		<tag k="name:no" v="Øverčahca" />
		<tag k="name:se" v="Badječahca" />
		<tag k="place" v="locality" />
		<tag k="ssr:stedsnr" v="886656" />
	</node>
	<node lat="69.38514722042292" lon="20.001222217741272" id="-33590">
		<tag k="fixme" v="consider tourism=alpine_hut or tourism=chalet" />
		<tag k="name" v="Steindalshytta" />
		<tag k="ssr:stedsnr" v="891007" />
		<tag k="tourism" v="wilderness_hut" />
	</node>
	<node lat="69.35915278261535" lon="20.391516642520745" id="-33591">
		<tag k="name" v="Oktilasnjunni" />
		<tag k="name:se" v="Oktilasnjunni" />
		<tag k="natural" v="hill" />
		<tag k="place" v="locality" />
		<tag k="ssr:stedsnr" v="904008" />
	</node>
	<node lat="69.35268055486468" lon="20.246566656543248" id="-33592">
		<tag k="name" v="Storskredelva" />
		<tag k="ssr:stedsnr" v="904013" />
		<tag k="waterway" v="stream" />
	</node>
	<node lat="69.39320833159098" lon="20.271633310207257" id="-33593">
		<tag k="name" v="Storsanden" />
		<tag k="place" v="quarter" />
		<tag k="ssr:stedsnr" v="904100" />
	</node>
	<node lat="69.36418610921122" lon="20.256613864530618" id="-33594">
		<tag k="name" v="Himmelgleden" />
		<tag k="place" v="locality" />
		<tag k="ssr:stedsnr" v="904257" />
	</node>
	<node lat="69.25985555587579" lon="19.89015275849615" id="-33595">
		<tag k="name" v="Skáidi" />
		<tag k="name:se" v="Skáidi" />
		<tag k="natural" v="cape" />
		<tag k="ssr:stedsnr" v="904410" />
	</node>
	<node lat="69.32506388580413" lon="20.086994432423634" id="-33596">
		<tag k="loc_name:se" v="Moskkujeaggi" />
		<tag k="name" v="Mosebakkan" />
		<tag k="name:no" v="Mosebakkan" />
		<tag k="natural" v="slope" />
		<tag k="place" v="locality" />
		<tag k="ssr:stedsnr" v="904703" />
	</node>
	<node lat="69.40155555194818" lon="20.117911092748162" id="-33597">
		<tag k="loc_name:se" v="Stuoraroggi" />
		<tag k="name" v="Storgropa" />
		<tag k="name:no" v="Storgropa" />
		<tag k="natural" v="valley" />
		<tag k="place" v="locality" />
		<tag k="ssr:stedsnr" v="904702" />
	</node>
	<node lat="69.30083055699933" lon="19.82588888535999" id="-33600">
		<tag k="name" v="Gievdnejohka" />
		<tag k="name:se" v="Gievdnejohka" />
		<tag k="ssr:stedsnr" v="928357" />
		<tag k="waterway" v="stream" />
	</node>
	<node lat="69.306816816056" lon="19.99147928441042" id="-33601">
		<tag k="name" v="Storsteinbukta - Stuorageađgemohkki - Isonkivenmukka" />
		<tag k="name:fkv" v="Isonkivenmukka" />
		<tag k="name:no" v="Storsteinbukta" />
		<tag k="name:se" v="Stuorageađgemohkki" />
		<tag k="natural" v="bay" />
		<tag k="ssr:stedsnr" v="928408" />
	</node>
	<node lat="69.30376666819474" lon="20.466224976436244" id="-33602">
		<tag k="name" v="Ákšogaikunskáidi" />
		<tag k="name:se" v="Ákšogaikunskáidi" />
		<tag k="natural" v="cape" />
		<tag k="ssr:stedsnr" v="928505" />
	</node>
	<node lat="69.19640000231493" lon="20.19468330953534" id="-33603">
		<tag k="name" v="Orjjessuorggičahca" />
		<tag k="name:se" v="Orjjessuorggičahca" />
		<tag k="natural" v="valley" />
		<tag k="place" v="locality" />
		<tag k="ssr:stedsnr" v="929310" />
	</node>
	<node lat="69.24977500349745" lon="20.032561086886474" id="-33604">
		<tag k="name" v="Moen" />
		<tag k="place" v="farm" />
		<tag k="ssr:stedsnr" v="929358" />
	</node>
	<node lat="69.17204166875807" lon="20.033469421858694" id="-33605">
		<tag k="name" v="Løkstad" />
		<tag k="place" v="farm" />
		<tag k="ssr:stedsnr" v="929299" />
	</node>
	<node lat="69.401463003967" lon="20.31177402676959" id="-33606">
		<tag k="name" v="Liigevuopmi - Liikavuoma" />
		<tag k="name:fkv" v="Liikavuoma" />
		<tag k="name:se" v="Liigevuopmi" />
		<tag k="place" v="locality" />
		<tag k="ssr:stedsnr" v="929460" />
	</node>
	<node lat="69.247241665645" lon="20.939027749673972" id="-33607">
		<tag k="fixme" v="consider natural=peak for the most distinct mountains in the district" />
		<tag k="name" v="Ráššagieddeoaivi" />
		<tag k="name:se" v="Ráššagieddeoaivi" />
		<tag k="natural" v="hill" />
		<tag k="place" v="locality" />
		<tag k="ssr:stedsnr" v="929998" />
	</node>
	<node lat="69.24000833493449" lon="20.430049969628193" id="-33608">
		<tag k="fixme" v="consider natural=peak for the most distinct mountains in the district" />
		<tag k="name" v="Lávkavárri" />
		<tag k="name:se" v="Lávkavárri" />
		<tag k="natural" v="hill" />
		<tag k="place" v="locality" />
		<tag k="ssr:stedsnr" v="929999" />
	</node>
	<node lat="69.3977611084731" lon="20.13762497344051" id="-33609">
		<tag k="name" v="Rastebynes" />
		<tag k="place" v="farm" />
		<tag k="ssr:stedsnr" v="935816" />
	</node>
	<node lat="69.37362500096677" lon="20.29153886167147" id="-33610">
		<tag k="name" v="Olderbakken - Leaibeluohkká - Leppäluokka" />
		<tag k="name:fkv" v="Leppäluokka" />
		<tag k="name:no" v="Olderbakken" />
		<tag k="name:se" v="Leaibeluohkká" />
		<tag k="natural" v="slope" />
		<tag k="place" v="locality" />
		<tag k="ssr:stedsnr" v="937925" />
	</node>
	<node lat="69.30775555555987" lon="20.38631663809843" id="-33611">
		<tag k="fixme" v="multiple name tags, choose one and add the other to alt_name" />
		<tag k="name" v="Valkeapahta;Valkeanpahanjurma" />
		<tag k="name:fkv" v="Valkeapahta;Valkeanpahanjurma" />
		<tag k="place" v="locality" />
		<tag k="ssr:stedsnr" v="946109" />
	</node>
	<node lat="69.29033611161213" lon="19.901744438605384" id="-33612">
		<tag k="alt_name:se" v="Dálujohka" />
		<tag k="name" v="Daloelva" />
		<tag k="name:se" v="Daloelva" />
		<tag k="ssr:stedsnr" v="946339" />
		<tag k="waterway" v="stream" />
	</node>
	<node lat="69.32977500157918" lon="20.369597213682894" id="-33613">
		<tag k="name" v="Alainen Puolamavaaranjärvi" />
		<tag k="name:fkv" v="Alainen Puolamavaaranjärvi" />
		<tag k="natural" v="water" />
		<tag k="ssr:stedsnr" v="946430" />
	</node>
	<node lat="69.2461583377628" lon="20.026733314395255" id="-33614">
		<tag k="name" v="Saranjorma" />
		<tag k="name:fkv" v="Saranjorma" />
		<tag k="place" v="locality" />
		<tag k="ssr:stedsnr" v="946444" />
	</node>
	<node lat="69.09986666423528" lon="20.036008312987722" id="-33616">
		<tag k="fixme" v="consider natural=peak for the most distinct mountains in the district" />
		<tag k="name" v="Tverrelvtinden" />
		<tag k="natural" v="hill" />
		<tag k="place" v="locality" />
		<tag k="ssr:stedsnr" v="959616" />
	</node>
	<node lat="69.05997499691762" lon="20.548652763957595" id="-33617">
		<tag k="historic" v="boundary_stone" />
		<tag k="man_made" v="cairn" />
		<tag k="name" v="Treriksrøysa - Golddajávri" />
		<tag k="name:no" v="Treriksrøysa" />
		<tag k="name:se" v="Golddajávri" />
		<tag k="place" v="locality" />
		<tag k="ssr:stedsnr" v="960636" />
	</node>
	<node lat="69.14863333158289" lon="20.053036100686864" id="-33618">
		<tag k="name" v="Floen" />
		<tag k="natural" v="water" />
		<tag k="ssr:stedsnr" v="964403" />
		<tag k="water" v="lake" />
	</node>
	<node lat="69.27661666520407" lon="19.902463882408945" id="-33619">
		<tag k="loc_name" v="Áhkenjárga" />
		<tag k="name" v="Akenes" />
		<tag k="natural" v="cape" />
		<tag k="ssr:stedsnr" v="964434" />
	</node>
	<node lat="69.27328889118115" lon="19.961683325056008" id="-33620">
		<tag k="amenity" v="school" />
		<tag k="name" v="Hatteng skole" />
		<tag k="ssr:stedsnr" v="964442" />
	</node>
	<node lat="69.38393610824362" lon="20.263111100219575" id="-33621">
		<tag k="name" v="Guosgatta" />
		<tag k="natural" v="cape" />
		<tag k="ssr:stedsnr" v="965115" />
	</node>
	<node lat="69.3857249992283" lon="20.290155539893373" id="-33622">
		<tag k="name" v="Gállokenttä" />
		<tag k="name:fkv" v="Gállokenttä" />
		<tag k="place" v="locality" />
		<tag k="ssr:stedsnr" v="965116" />
	</node>
	<node lat="69.36575555768734" lon="20.27741110537027" id="-33623">
		<tag k="name" v="Brubakken" />
		<tag k="natural" v="slope" />
		<tag k="place" v="locality" />
		<tag k="ssr:stedsnr" v="965009" />
	</node>
	<node lat="69.3411944424722" lon="19.942547206831755" id="-33624">
		<tag k="name" v="Čolperskogen" />
		<tag k="place" v="locality" />
		<tag k="ssr:stedsnr" v="965536" />
	</node>
	<node lat="69.32078889058253" lon="19.957449978224147" id="-33625">
		<tag k="name" v="Sandøra" />
		<tag k="place" v="farm" />
		<tag k="ssr:stedsnr" v="965603" />
	</node>
	<node lat="69.30856944209215" lon="19.925802751222054" id="-33626">
		<tag k="name" v="Gohpi" />
		<tag k="name:se" v="Gohpi" />
		<tag k="natural" v="valley" />
		<tag k="place" v="locality" />
		<tag k="ssr:stedsnr" v="965605" />
	</node>
	<node lat="69.30781389231227" lon="19.938519440169785" id="-33627">
		<tag k="name" v="Stubbeng" />
		<tag k="place" v="farm" />
		<tag k="ssr:stedsnr" v="965609" />
	</node>
	<node lat="69.29098333656711" lon="19.963241652963216" id="-33628">
		<tag k="name" v="Høvesteinen" />
		<tag k="natural" v="hill" />
		<tag k="place" v="locality" />
		<tag k="ssr:stedsnr" v="965622" />
	</node>
	<node lat="69.38511110960007" lon="20.09274999390258" id="-33629">
		<tag k="name" v="Buollángáddi" />
		<tag k="name:se" v="Buollángáddi" />
		<tag k="natural" v="slope" />
		<tag k="place" v="locality" />
		<tag k="ssr:stedsnr" v="965741" />
	</node>
	<node lat="69.14559166369114" lon="20.767855535910083" id="-33630">
		<tag k="name" v="Gálggogohpi" />
		<tag k="name:se" v="Gálggogohpi" />
		<tag k="natural" v="valley" />
		<tag k="place" v="locality" />
		<tag k="ssr:stedsnr" v="965908" />
	</node>
	<node lat="69.2455166706421" lon="20.6507499732481" id="-33631">
		<tag k="name" v="Vuolit Garranjohka" />
		<tag k="name:se" v="Vuolit Garranjohka" />
		<tag k="ssr:stedsnr" v="965909" />
		<tag k="waterway" v="stream" />
	</node>
	<node lat="69.30181111197157" lon="20.48310276059986" id="-33632">
		<tag k="name" v="Ákšogaikunjávri" />
		<tag k="name:se" v="Ákšogaikunjávri" />
		<tag k="natural" v="water" />
		<tag k="ssr:stedsnr" v="965942" />
	</node>
	<node lat="69.19268333349542" lon="20.724094429563102" id="-33633">
		<tag k="name" v="Dápmottörmä" />
		<tag k="name:fkv" v="Dápmottörmä" />
		<tag k="natural" v="slope" />
		<tag k="place" v="locality" />
		<tag k="ssr:stedsnr" v="965900" />
	</node>
	<node lat="69.25762290252726" lon="20.61241395107882" id="-33635">
		<tag k="fixme" v="consider natural=peak for the most distinct mountains in the district" />
		<tag k="name" v="Rovijoenvaara" />
		<tag k="name:fkv" v="Rovijoenvaara" />
		<tag k="natural" v="hill" />
		<tag k="place" v="locality" />
		<tag k="ssr:stedsnr" v="974626" />
	</node>
	<node lat="69.28697852014717" lon="20.715440851202807" id="-33636">
		<tag k="name" v="Rovvehytta" />
		<tag k="name:se" v="Rovvehytta" />
		<tag k="place" v="locality" />
		<tag k="ssr:stedsnr" v="974627" />
	</node>
	<node lat="69.26295871744415" lon="19.96450215721956" id="-33637">
		<tag k="name" v="Veibakken" />
		<tag k="place" v="farm" />
		<tag k="ssr:stedsnr" v="980322" />
	</node>
	<node lat="69.44229463818158" lon="20.297327048888324" id="-33638">
		<tag k="loc_name:fkv" v="Larspahdanjoki" />
		<tag k="name" v="Larsbergelva - Lárasbáhjohka" />
		<tag k="name:no" v="Larsbergelva" />
		<tag k="name:se" v="Lárasbáhjohka" />
		<tag k="ssr:stedsnr" v="985383" />
		<tag k="waterway" v="river" />
	</node>
	<node lat="69.25452500473321" lon="19.845336089267196" id="-33639">
		<tag k="alt_name:se" v="Doaresjohka;Tverrdalselva" />
		<tag k="name" v="Tverrelva" />
		<tag k="name:se" v="Tverrelva" />
		<tag k="ssr:stedsnr" v="18551" />
		<tag k="waterway" v="river" />
	</node>
	<node lat="69.25769999850385" lon="19.8774999795341" id="-33640">
		<tag k="name" v="Sommerlund" />
		<tag k="place" v="farm" />
		<tag k="ssr:stedsnr" v="18553" />
	</node>
	<node lat="69.06868332958268" lon="20.05408332070692" id="-33641">
		<tag k="fixme" v="consider natural=peak for the most distinct mountains in the district" />
		<tag k="name" v="Gievdneváhgáisi" />
		<tag k="name:se" v="Gievdneváhgáisi" />
		<tag k="natural" v="hill" />
		<tag k="place" v="locality" />
		<tag k="ssr:stedsnr" v="18248" />
	</node>
	<node lat="69.43071944944616" lon="20.368030539429334" id="-33642">
		<tag k="name" v="Midtre Larsbergelva" />
		<tag k="ssr:stedsnr" v="18253" />
		<tag k="waterway" v="stream" />
	</node>
	<node lat="69.23122323234949" lon="20.02409583083041" id="-33643">
		<tag k="fixme" v="consider natural=peak for the most distinct mountains in the district" />
		<tag k="name" v="Mannfjellaksla - Geađgámas - Kelkame" />
		<tag k="name:fkv" v="Kelkame" />
		<tag k="name:no" v="Mannfjellaksla" />
		<tag k="name:se" v="Geađgámas" />
		<tag k="natural" v="hill" />
		<tag k="place" v="locality" />
		<tag k="ssr:stedsnr" v="18317" />
	</node>
	<node lat="69.2366500013012" lon="20.073972198309356" id="-33644">
		<tag k="name" v="Lauvset" />
		<tag k="place" v="farm" />
		<tag k="ssr:stedsnr" v="18328" />
	</node>
	<node lat="69.2378027802485" lon="20.09458054053071" id="-33645">
		<tag k="name" v="Dámpageađgi" />
		<tag k="name:se" v="Dámpageađgi" />
		<tag k="natural" v="stone" />
		<tag k="ssr:stedsnr" v="18329" />
	</node>
	<node lat="69.24890555334476" lon="19.857677765328038" id="-33646">
		<tag k="name" v="Furumo" />
		<tag k="place" v="farm" />
		<tag k="ssr:stedsnr" v="18336" />
	</node>
	<node lat="69.39354722286322" lon="20.41252220492827" id="-33647">
		<tag k="fixme" v="consider natural=peak for the most distinct mountains in the district" />
		<tag k="name" v="Bálggesvárri" />
		<tag k="name:se" v="Bálggesvárri" />
		<tag k="natural" v="hill" />
		<tag k="place" v="locality" />
		<tag k="ssr:stedsnr" v="18451" />
	</node>
	<node lat="69.32908055922262" lon="20.23689997333033" id="-33648">
		<tag k="name" v="Kidalen - Gihccevággi - Kitsivankka" />
		<tag k="name:fkv" v="Kitsivankka" />
		<tag k="name:no" v="Kidalen" />
		<tag k="name:se" v="Gihccevággi" />
		<tag k="natural" v="valley" />
		<tag k="place" v="locality" />
		<tag k="ssr:stedsnr" v="18378" />
	</node>
	<node lat="69.32118192590481" lon="19.960137690412637" id="-33649">
		<tag k="fixme" v="consider place=hamlet" />
		<tag k="name" v="Sandøra" />
		<tag k="place" v="farm" />
		<tag k="ssr:stedsnr" v="18384" />
	</node>
	<node lat="69.32290278098255" lon="20.01533888774482" id="-33650">
		<tag k="name" v="Lundheim" />
		<tag k="place" v="farm" />
		<tag k="ssr:stedsnr" v="18387" />
	</node>
	<node lat="69.32153311744366" lon="20.015806064073917" id="-33651">
		<tag k="fixme" v="consider place=hamlet" />
		<tag k="name" v="Slettnes" />
		<tag k="place" v="farm" />
		<tag k="ssr:stedsnr" v="18388" />
	</node>
	<node lat="69.31635531015803" lon="20.325594601958517" id="-33652">
		<tag k="name" v="Kvitlielva - Guvgesloapmejohka - Kuukislomanjoki" />
		<tag k="name:fkv" v="Kuukislomanjoki" />
		<tag k="name:no" v="Kvitlielva" />
		<tag k="name:se" v="Guvgesloapmejohka" />
		<tag k="ssr:stedsnr" v="18392" />
		<tag k="waterway" v="river" />
	</node>
	<node lat="69.3929249988049" lon="20.01200833107694" id="-33653">
		<tag k="name" v="Svartvasselva" />
		<tag k="ssr:stedsnr" v="18437" />
		<tag k="waterway" v="stream" />
	</node>
	<node lat="69.26949166369462" lon="20.363524989186573" id="-33654">
		<tag k="name" v="Norddalen - Nuortavággi - Nuorttuvankka" />
		<tag k="name:fkv" v="Nuorttuvankka" />
		<tag k="name:no" v="Norddalen" />
		<tag k="name:se" v="Nuortavággi" />
		<tag k="natural" v="valley" />
		<tag k="place" v="locality" />
		<tag k="ssr:stedsnr" v="18545" />
	</node>
	<node lat="69.25471111133459" lon="20.73134997916974" id="-33655">
		<tag k="fixme" v="consider natural=peak for the most distinct mountains in the district" />
		<tag k="name" v="Suonjerčohkka" />
		<tag k="name:se" v="Suonjerčohkka" />
		<tag k="natural" v="hill" />
		<tag k="place" v="locality" />
		<tag k="ssr:stedsnr" v="18630" />
	</node>
	<node lat="69.35279444118031" lon="20.297766660550618" id="-33656">
		<tag k="fixme" v="consider natural=peak for the most distinct mountains in the district" />
		<tag k="name" v="Ruohtovárri - Ruottuvaara" />
		<tag k="name:fkv" v="Ruottuvaara" />
		<tag k="name:se" v="Ruohtovárri" />
		<tag k="natural" v="hill" />
		<tag k="place" v="locality" />
		<tag k="ssr:stedsnr" v="19439" />
	</node>
	<node lat="69.21492777771957" lon="20.205080540278992" id="-33657">
		<tag k="name" v="Skankemyra" />
		<tag k="natural" v="wetland" />
		<tag k="ssr:stedsnr" v="19348" />
	</node>
	<node lat="69.18620832976733" lon="19.928572217289386" id="-33658">
		<tag k="fixme" v="consider natural=peak for the most distinct mountains in the district" />
		<tag k="name" v="Saunakken" />
		<tag k="natural" v="hill" />
		<tag k="place" v="locality" />
		<tag k="ssr:stedsnr" v="19329" />
	</node>
	<node lat="69.0737851281464" lon="20.501885792456044" id="-33659">
		<tag k="fixme" v="consider tourism=alpine_hut or tourism=chalet" />
		<tag k="name" v="Goldahytta" />
		<tag k="ssr:stedsnr" v="19526" />
		<tag k="tourism" v="wilderness_hut" />
	</node>
	<node lat="69.35179444534934" lon="20.49561109200607" id="-33660">
		<tag k="name" v="Ádjetčahca" />
		<tag k="name:se" v="Ádjetčahca" />
		<tag k="natural" v="valley" />
		<tag k="place" v="locality" />
		<tag k="ssr:stedsnr" v="19534" />
	</node>
	<node lat="69.11990909524519" lon="20.71727116049926" id="-33661">
		<tag k="fixme" v="consider natural=peak for the most distinct mountains in the district" />
		<tag k="name" v="Bossovárri - Possovaara" />
		<tag k="name:fkv" v="Possovaara" />
		<tag k="name:se" v="Bossovárri" />
		<tag k="natural" v="hill" />
		<tag k="place" v="locality" />
		<tag k="ssr:stedsnr" v="19933" />
	</node>
	<node lat="69.18805555707583" lon="20.651099970401667" id="-33662">
		<tag k="name" v="Roggejohka" />
		<tag k="name:se" v="Roggejohka" />
		<tag k="ssr:stedsnr" v="19951" />
		<tag k="waterway" v="river" />
	</node>
	<node lat="69.17675833231267" lon="20.669299968429616" id="-33663">
		<tag k="name" v="Roggejávri" />
		<tag k="name:se" v="Roggejávri" />
		<tag k="natural" v="water" />
		<tag k="ssr:stedsnr" v="19958" />
		<tag k="water" v="lake" />
	</node>
	<node lat="69.22320000522265" lon="20.58914997794318" id="-33664">
		<tag k="name" v="Buvssasmohkki" />
		<tag k="name:se" v="Buvssasmohkki" />
		<tag k="natural" v="bay" />
		<tag k="ssr:stedsnr" v="19977" />
	</node>
	<node lat="69.23265000173089" lon="20.833624969375734" id="-33665">
		<tag k="name" v="Meahccevátjohka" />
		<tag k="name:se" v="Meahccevátjohka" />
		<tag k="ssr:stedsnr" v="19980" />
		<tag k="waterway" v="stream" />
	</node>
	<node lat="69.22707500409982" lon="20.67187498348115" id="-33666">
		<tag k="name" v="Steinbakken" />
		<tag k="place" v="locality" />
		<tag k="ssr:stedsnr" v="19982" />
	</node>
	<node lat="69.33373888848291" lon="19.993602758920648" id="-33668">
		<tag k="loc_name:se" v="Goikeboađđu" />
		<tag k="name" v="Tørrgrunnen" />
		<tag k="name:no" v="Tørrgrunnen" />
		<tag k="natural" v="shoal" />
		<tag k="place" v="locality" />
		<tag k="ssr:stedsnr" v="24960" />
	</node>
	<node lat="69.19980555256802" lon="20.709061096331183" id="-33669">
		<tag k="fixme" v="consider tourism=alpine_hut or tourism=chalet" />
		<tag k="name" v="Helligskogen vandrerhjem" />
		<tag k="old_name" v="Helligskogen Fjellstove" />
		<tag k="ssr:stedsnr" v="24972" />
		<tag k="tourism" v="wilderness_hut" />
	</node>
	<node lat="69.3807111161223" lon="20.01280275784818" id="-33670">
		<tag k="name" v="Gobinjunni" />
		<tag k="name:se" v="Gobinjunni" />
		<tag k="place" v="locality" />
		<tag k="ssr:stedsnr" v="36364" />
	</node>
	<node lat="69.36557222336789" lon="20.020894425493573" id="-33671">
		<tag k="name" v="Muorranjárga" />
		<tag k="name:se" v="Muorranjárga" />
		<tag k="natural" v="cape" />
		<tag k="ssr:stedsnr" v="36365" />
	</node>
	<node lat="69.36179444703767" lon="19.897883313064433" id="-33672">
		<tag k="name" v="Njoammeloalgi" />
		<tag k="name:se" v="Njoammeloalgi" />
		<tag k="place" v="locality" />
		<tag k="ssr:stedsnr" v="36366" />
	</node>
	<node lat="69.32902500084151" lon="20.33699997805481" id="-33673">
		<tag k="name" v="Kuukislomanjurma" />
		<tag k="name:fkv" v="Kuukislomanjurma" />
		<tag k="place" v="locality" />
		<tag k="ssr:stedsnr" v="36119" />
	</node>
	<node lat="69.36406666809341" lon="20.289952762243406" id="-33674">
		<tag k="name" v="Gállojohka - Kahlujoki" />
		<tag k="name:fkv" v="Kahlujoki" />
		<tag k="name:se" v="Gállojohka" />
		<tag k="ssr:stedsnr" v="36123" />
		<tag k="waterway" v="stream" />
	</node>
	<node lat="69.36445833527564" lon="20.214347199659105" id="-33675">
		<tag k="name" v="Keinopahta" />
		<tag k="name:fkv" v="Keinopahta" />
		<tag k="natural" v="hill" />
		<tag k="place" v="locality" />
		<tag k="ssr:stedsnr" v="36124" />
	</node>
	<node lat="69.39189722020764" lon="20.343186100133792" id="-33676">
		<tag k="name" v="Kupanlalva" />
		<tag k="name:fkv" v="Kupanlalva" />
		<tag k="natural" v="valley" />
		<tag k="place" v="locality" />
		<tag k="ssr:stedsnr" v="36138" />
	</node>
	<node lat="69.33495277501119" lon="20.298247204743397" id="-33677">
		<tag k="name" v="Leppäveräjä" />
		<tag k="name:fkv" v="Leppäveräjä" />
		<tag k="place" v="farm" />
		<tag k="ssr:stedsnr" v="36042" />
	</node>
	<node lat="69.3046027787946" lon="19.909591641858643" id="-33678">
		<tag k="name" v="Gobijohka" />
		<tag k="name:se" v="Gobijohka" />
		<tag k="ssr:stedsnr" v="36348" />
		<tag k="waterway" v="stream" />
	</node>
	<node lat="69.29885833660278" lon="19.844219430181678" id="-33679">
		<tag k="name" v="Hearvadievvá" />
		<tag k="name:se" v="Hearvadievvá" />
		<tag k="natural" v="hill" />
		<tag k="place" v="locality" />
		<tag k="ssr:stedsnr" v="36351" />
	</node>
	<node lat="69.34250000261386" lon="20.324366648621744" id="-33680">
		<tag k="name" v="Eevinjänkkä" />
		<tag k="name:fkv" v="Eevinjänkkä" />
		<tag k="natural" v="wetland" />
		<tag k="ssr:stedsnr" v="36551" />
	</node>
	<node lat="69.37538300163087" lon="20.011386953175915" id="-33681">
		<tag k="name" v="Lilledalen - Vákkáš" />
		<tag k="name:no" v="Lilledalen" />
		<tag k="name:se" v="Vákkáš" />
		<tag k="natural" v="valley" />
		<tag k="place" v="locality" />
		<tag k="ssr:stedsnr" v="36950" />
	</node>
	<node lat="69.38628055267567" lon="19.99468609737187" id="-33682">
		<tag k="name" v="Heastageađgi" />
		<tag k="name:se" v="Heastageađgi" />
		<tag k="natural" v="stone" />
		<tag k="ssr:stedsnr" v="36952" />
	</node>
	<node lat="69.38188055361113" lon="20.002374993600295" id="-33683">
		<tag k="name" v="Ruovddáščorru" />
		<tag k="name:se" v="Ruovddáščorru" />
		<tag k="natural" v="hill" />
		<tag k="place" v="locality" />
		<tag k="ssr:stedsnr" v="36958" />
	</node>
	<node lat="69.27188888723829" lon="19.95011109022937" id="-33684">
		<tag k="name" v="Hatten søndre" />
		<tag k="place" v="farm" />
		<tag k="ssr:stedsnr" v="52464" />
	</node>
	<node lat="69.33374166989064" lon="19.840324979521757" id="-33685">
		<tag k="name" v="Kivvokenttä" />
		<tag k="name:fkv" v="Kivvokenttä" />
		<tag k="natural" v="wetland" />
		<tag k="ssr:stedsnr" v="54390" />
	</node>
	<node lat="69.25176110926334" lon="19.87978887144804" id="-33686">
		<tag k="loc_name:se" v="Sarašjohka" />
		<tag k="name" v="Sarabekken" />
		<tag k="name:no" v="Sarabekken" />
		<tag k="ssr:stedsnr" v="54406" />
		<tag k="waterway" v="stream" />
	</node>
	<node lat="69.33588888604686" lon="20.30339721616363" id="-33687">
		<tag k="name" v="Olderholman" />
		<tag k="place" v="islet" />
		<tag k="ssr:stedsnr" v="55034" />
	</node>
	<node lat="69.37299722572405" lon="20.25521666286883" id="-33688">
		<tag k="name" v="Lettavollen" />
		<tag k="place" v="locality" />
		<tag k="ssr:stedsnr" v="55121" />
	</node>
	<node lat="69.37004166395565" lon="20.25214163806335" id="-33689">
		<tag k="loc_name:se" v="Heargesilddijohka" />
		<tag k="name" v="Okselva" />
		<tag k="name:no" v="Okselva" />
		<tag k="ssr:stedsnr" v="55127" />
		<tag k="waterway" v="stream" />
	</node>
	<node lat="69.37838610814237" lon="20.278516643377444" id="-33690">
		<tag k="loc_name" v="Skoggårdan" />
		<tag k="name" v="Skoggård" />
		<tag k="place" v="hamlet" />
		<tag k="ssr:stedsnr" v="55130" />
	</node>
	<node lat="69.38003055256193" lon="20.303422201747917" id="-33691">
		<tag k="name" v="Grindholmen" />
		<tag k="place" v="farm" />
		<tag k="ssr:stedsnr" v="55115" />
	</node>
	<node lat="69.36244722437972" lon="20.273555550424383" id="-33692">
		<tag k="name" v="Balloskogen" />
		<tag k="place" v="locality" />
		<tag k="ssr:stedsnr" v="55234" />
	</node>
	<node lat="69.40873333155116" lon="20.139988860757768" id="-33693">
		<tag k="name" v="Vaddas" />
		<tag k="name:se" v="Vaddas" />
		<tag k="natural" v="hill" />
		<tag k="place" v="locality" />
		<tag k="ssr:stedsnr" v="55688" />
	</node>
	<node lat="69.35465000217596" lon="20.10566943045498" id="-33694">
		<tag k="loc_name:se" v="Ruovddáš" />
		<tag k="name" v="Ruohtas" />
		<tag k="name:se" v="Ruohtas" />
		<tag k="natural" v="valley" />
		<tag k="place" v="locality" />
		<tag k="ssr:stedsnr" v="55699" />
	</node>
	<node lat="69.3423138869218" lon="19.94556388390171" id="-33695">
		<tag k="name" v="Čorru" />
		<tag k="name:se" v="Čorru" />
		<tag k="natural" v="hill" />
		<tag k="place" v="locality" />
		<tag k="ssr:stedsnr" v="55514" />
	</node>
	<node lat="69.29621666423371" lon="20.50226943555327" id="-33696">
		<tag k="name" v="Speinnahumpa" />
		<tag k="name:se" v="Speinnahumpa" />
		<tag k="natural" v="hill" />
		<tag k="place" v="locality" />
		<tag k="ssr:stedsnr" v="55930" />
	</node>
	<node lat="69.29280833090733" lon="20.46007775740215" id="-33697">
		<tag k="fixme" v="consider natural=peak for the most distinct mountains in the district" />
		<tag k="name" v="Rundfjellet" />
		<tag k="natural" v="hill" />
		<tag k="place" v="locality" />
		<tag k="ssr:stedsnr" v="55956" />
	</node>
	<node lat="69.38398611431228" lon="20.33312221444508" id="-33698">
		<tag k="ford" v="yes" />
		<tag k="name" v="Reinbrua" />
		<tag k="place" v="locality" />
		<tag k="ssr:stedsnr" v="55990" />
	</node>
	<node lat="69.32911388553384" lon="20.451180544318746" id="-33703">
		<tag k="name" v="Bjørnskogen" />
		<tag k="place" v="locality" />
		<tag k="ssr:stedsnr" v="79080" />
	</node>
	<node lat="69.05057500066603" lon="20.15683053127604" id="-33704">
		<tag k="name" v="Njearreláhku" />
		<tag k="name:se" v="Njearreláhku" />
		<tag k="natural" v="valley" />
		<tag k="place" v="locality" />
		<tag k="ssr:stedsnr" v="79254" />
	</node>
	<node lat="69.05302499888036" lon="20.253377765617817" id="-33705">
		<tag k="fixme" v="consider tourism=alpine_hut or tourism=chalet" />
		<tag k="name" v="Gappohytta" />
		<tag k="name:no" v="Gappohytta" />
		<tag k="old_name:se" v="Gáhppostohpu" />
		<tag k="ssr:stedsnr" v="79255" />
		<tag k="tourism" v="wilderness_hut" />
	</node>
	<node lat="69.4306382248791" lon="20.27717663086236" id="-33706">
		<tag k="name" v="Aspebukta - Suhpemohkki - Haapamukka" />
		<tag k="name:fkv" v="Haapamukka" />
		<tag k="name:no" v="Aspebukta" />
		<tag k="name:se" v="Suhpemohkki" />
		<tag k="natural" v="bay" />
		<tag k="ssr:stedsnr" v="79258" />
	</node>
	<node lat="69.12048333343886" lon="20.160627759736723" id="-33707">
		<tag k="loc_name:se" v="Bulljarasvuovdi" />
		<tag k="name" v="Stordalen" />
		<tag k="name:no" v="Stordalen" />
		<tag k="natural" v="valley" />
		<tag k="place" v="locality" />
		<tag k="ssr:stedsnr" v="79268" />
	</node>
	<node lat="69.25727499777364" lon="19.71901387263137" id="-33708">
		<tag k="loc_name:se" v="Gurgalanjávri" />
		<tag k="name" v="Gurgela" />
		<tag k="name:no" v="Gurgela" />
		<tag k="natural" v="water" />
		<tag k="ssr:stedsnr" v="79281" />
		<tag k="water" v="lake" />
	</node>
	<node lat="69.23837499689827" lon="20.289086082109023" id="-33709">
		<tag k="name" v="Viessogasvággi" />
		<tag k="name:se" v="Viessogasvággi" />
		<tag k="natural" v="valley" />
		<tag k="place" v="locality" />
		<tag k="ssr:stedsnr" v="79357" />
	</node>
	<node lat="69.17731111324325" lon="20.06988053560182" id="-33710">
		<tag k="name" v="Kortelvskardet" />
		<tag k="natural" v="valley" />
		<tag k="place" v="locality" />
		<tag k="ssr:stedsnr" v="79314" />
	</node>
	<node lat="69.19708610939641" lon="19.93430276127904" id="-33711">
		<tag k="name" v="Luhppuráigi" />
		<tag k="name:se" v="Luhppuráigi" />
		<tag k="natural" v="valley" />
		<tag k="place" v="locality" />
		<tag k="ssr:stedsnr" v="79330" />
	</node>
	<node lat="69.32587090367895" lon="20.369840265880352" id="-33712">
		<tag k="fixme" v="consider natural=peak for the most distinct mountains in the district" />
		<tag k="name" v="Brennfjellet - Buollánvárri - Puolamavaara" />
		<tag k="name:fkv" v="Puolamavaara" />
		<tag k="name:no" v="Brennfjellet" />
		<tag k="name:se" v="Buollánvárri" />
		<tag k="natural" v="hill" />
		<tag k="place" v="locality" />
		<tag k="ssr:stedsnr" v="79396" />
	</node>
	<node lat="69.31084166458218" lon="19.832444425518908" id="-33713">
		<tag k="name" v="Gievdneváhčahca" />
		<tag k="name:se" v="Gievdneváhčahca" />
		<tag k="natural" v="valley" />
		<tag k="place" v="locality" />
		<tag k="ssr:stedsnr" v="79409" />
	</node>
	<node lat="69.37600000004687" lon="20.301583308510953" id="-33714">
		<tag k="name" v="Fagerli" />
		<tag k="place" v="farm" />
		<tag k="ssr:stedsnr" v="79415" />
	</node>
	<node lat="69.375880558021" lon="20.28444998823848" id="-33715">
		<tag k="alt_name" v="Skibotn, s" />
		<tag k="name" v="Søre Skibotn" />
		<tag k="place" v="farm" />
		<tag k="ssr:stedsnr" v="79419" />
	</node>
	<node lat="69.37479444380348" lon="20.156727752314204" id="-33716">
		<tag k="name" v="Kløvenstein - Luoddanangeađgi - Halkeamankivi" />
		<tag k="name:fkv" v="Halkeamankivi" />
		<tag k="name:no" v="Kløvenstein" />
		<tag k="name:se" v="Luoddanangeađgi" />
		<tag k="natural" v="stone" />
		<tag k="ssr:stedsnr" v="79420" />
	</node>
	<node lat="69.29449999767382" lon="20.000102771532287" id="-33717">
		<tag k="alt_name:no" v="Bergelva" />
		<tag k="name" v="Bergselva - Guolbanváhjohka - Kuolpanvankanjoki" />
		<tag k="name:fkv" v="Kuolpanvankanjoki" />
		<tag k="name:no" v="Bergselva" />
		<tag k="name:se" v="Guolbanváhjohka" />
		<tag k="ssr:stedsnr" v="79373" />
		<tag k="waterway" v="river" />
	</node>
	<node lat="69.39403332951993" lon="19.973563882237418" id="-33718">
		<tag k="name" v="Steindalen - Gievdanvággi" />
		<tag k="name:no" v="Steindalen" />
		<tag k="name:se" v="Gievdanvággi" />
		<tag k="natural" v="valley" />
		<tag k="place" v="locality" />
		<tag k="ssr:stedsnr" v="79461" />
	</node>
	<node lat="69.37826057297075" lon="20.06279790379967" id="-33719">
		<tag k="alt_name" v="Indre Selnes" />
		<tag k="fixme" v="consider place=hamlet" />
		<tag k="name" v="Selnes" />
		<tag k="place" v="farm" />
		<tag k="ssr:stedsnr" v="79465" />
	</node>
	<node lat="69.36756944248017" lon="20.0266277694321" id="-33720">
		<tag k="loc_name:se" v="Gieddegeahči" />
		<tag k="name" v="Strandeng" />
		<tag k="name:no" v="Strandeng" />
		<tag k="place" v="farm" />
		<tag k="ssr:stedsnr" v="79427" />
	</node>
	<node lat="69.36834999891269" lon="20.41108054721502" id="-33721">
		<tag k="fixme" v="consider natural=peak for the most distinct mountains in the district" />
		<tag k="name" v="Ádjit" />
		<tag k="name:se" v="Ádjit" />
		<tag k="natural" v="hill" />
		<tag k="old_name:se" v="Adjit" />
		<tag k="place" v="locality" />
		<tag k="ssr:stedsnr" v="79439" />
	</node>
	<node lat="69.29679166934802" lon="20.430297212980125" id="-33722">
		<tag k="name" v="Silobakken" />
		<tag k="natural" v="slope" />
		<tag k="place" v="locality" />
		<tag k="ssr:stedsnr" v="79520" />
	</node>
	<node lat="69.31392499802304" lon="20.65251941473777" id="-33723">
		<tag k="name" v="Stálujohka" />
		<tag k="name:se" v="Stálujohka" />
		<tag k="ssr:stedsnr" v="79529" />
		<tag k="waterway" v="stream" />
	</node>
</osm>
