<?xml version="1.0" encoding="UTF-8"?>
<osm version="0.6" generator="osmapis">
	<node lat="69.25720277802824" lon="19.94623332163092" id="-32912">
		<tag k="name" v="Hálgoládju" />
		<tag k="name:se" v="Hálgoládju" />
		<tag k="place" v="locality" />
		<tag k="ssr:stedsnr" v="32022" />
	</node>
	<node lat="69.39895833515524" lon="20.277980528934698" id="-32997">
		<tag k="highway" v="path" />
		<tag k="name" v="Marketsgropveien" />
		<tag k="ssr:stedsnr" v="115107" />
	</node>
	<node lat="69.26019166347022" lon="19.994852763024326" id="-33104">
		<tag k="highway" v="path" />
		<tag k="name" v="Kesätie" />
		<tag k="name:fkv" v="Kesätie" />
		<tag k="ssr:stedsnr" v="218202" />
	</node>
	<node lat="69.37286111088403" lon="20.021483326913785" id="-33106">
		<tag k="highway" v="path" />
		<tag k="name" v="Njunibálggis" />
		<tag k="name:se" v="Njunibálggis" />
		<tag k="ssr:stedsnr" v="218924" />
	</node>
	<node lat="69.39908888723733" lon="20.27496943314825" id="-33183">
		<tag k="highway" v="path" />
		<tag k="name" v="Loivatie" />
		<tag k="name:fkv" v="Loivatie" />
		<tag k="ssr:stedsnr" v="479092" />
	</node>
	<node lat="69.37637499976012" lon="20.175113872582713" id="-33185">
		<tag k="highway" v="path" />
		<tag k="name" v="Bollmannsveien" />
		<tag k="ssr:stedsnr" v="479225" />
	</node>
	<node lat="69.33890555776004" lon="19.936561096103794" id="-33448">
		<tag k="ford" v="yes" />
		<tag k="name" v="Skáidigála" />
		<tag k="name:se" v="Skáidigála" />
		<tag k="place" v="locality" />
		<tag k="ssr:stedsnr" v="722570" />
	</node>
	<node lat="69.37664444858568" lon="20.27124721106227" id="-33469">
		<tag k="fixme" v="verify maritime location" />
		<tag k="mooring" v="yes" />
		<tag k="name" v="Båtplassen" />
		<tag k="place" v="locality" />
		<tag k="ssr:stedsnr" v="904132" />
	</node>
	<node lat="69.34473333048217" lon="19.89463608571873" id="-33589">
		<tag k="ford" v="yes" />
		<tag k="name" v="Øverčahca - Badječahca" />
		<tag k="name:no" v="Øverčahca" />
		<tag k="name:se" v="Badječahca" />
		<tag k="place" v="locality" />
		<tag k="ssr:stedsnr" v="886656" />
	</node>
	<node lat="69.38398611431228" lon="20.33312221444508" id="-33698">
		<tag k="ford" v="yes" />
		<tag k="name" v="Reinbrua" />
		<tag k="place" v="locality" />
		<tag k="ssr:stedsnr" v="55990" />
	</node>
</osm>
