<?xml version="1.0" encoding="UTF-8"?>
<osm version="0.6" generator="osmapis">
	<node lat="69.36743611253252" lon="20.38115831144305" id="-100325">
		<tag k="name" v="Ádjetluohkká" />
		<tag k="name:se" v="Ádjetluohkká" />
		<tag k="natural" v="slope" />
		<tag k="place" v="locality" />
		<tag k="ssr:stedsnr" v="19444" />
	</node>
	<node lat="69.34476556183903" lon="20.203964186794938" id="-100326">
		<tag k="name" v="Reindalen" />
		<tag k="name:fkv" v="Porovankka" />
		<tag k="name:no" v="Reindalen" />
		<tag k="name:se" v="Boazolanvággi" />
		<tag k="natural" v="valley" />
		<tag k="place" v="locality" />
		<tag k="ssr:stedsnr" v="19448" />
	</node>
	<node lat="69.32623730912442" lon="20.211078692290066" id="-100328">
		<tag k="fixme" v="consider natural=peak for the most distinct mountains in the district" />
		<tag k="name" v="Middagsfjellet" />
		<tag k="name:fkv" v="Keskipäivänvaara" />
		<tag k="name:no" v="Middagsfjellet" />
		<tag k="name:se" v="Gaskagáisi" />
		<tag k="natural" v="hill" />
		<tag k="place" v="locality" />
		<tag k="ssr:stedsnr" v="24381" />
	</node>
	<node lat="69.35437778157183" lon="19.879699978568077" id="-100334">
		<tag k="name" v="Tverrbakken" />
		<tag k="name:no" v="Tverrbakken" />
		<tag k="name:se" v="Doaresdievvá" />
		<tag k="natural" v="slope" />
		<tag k="place" v="locality" />
		<tag k="ssr:stedsnr" v="32080" />
	</node>
	<node lat="69.18621111333627" lon="19.98351109813696" id="-100343">
		<tag k="name" v="Melbakken" />
		<tag k="natural" v="slope" />
		<tag k="place" v="locality" />
		<tag k="ssr:stedsnr" v="236349" />
	</node>
	<node lat="69.15860555647542" lon="20.027061093826994" id="-100344">
		<tag k="name" v="Skreddalen" />
		<tag k="natural" v="valley" />
		<tag k="place" v="locality" />
		<tag k="ssr:stedsnr" v="236353" />
	</node>
	<node lat="69.33570833022314" lon="19.836663886999016" id="-100346">
		<tag k="name" v="Spiidnehárji" />
		<tag k="name:se" v="Spiidnehárji" />
		<tag k="natural" v="hill" />
		<tag k="place" v="locality" />
		<tag k="ssr:stedsnr" v="236359" />
	</node>
	<node lat="69.24413888613076" lon="19.84303331479939" id="-100348">
		<tag k="name" v="Jorba" />
		<tag k="name:se" v="Jorba" />
		<tag k="natural" v="hill" />
		<tag k="place" v="locality" />
		<tag k="ssr:stedsnr" v="236374" />
	</node>
	<node lat="69.40980833363157" lon="20.14532219491886" id="-100352">
		<tag k="name" v="Buollán" />
		<tag k="name:se" v="Buollán" />
		<tag k="natural" v="slope" />
		<tag k="place" v="locality" />
		<tag k="ssr:stedsnr" v="237741" />
	</node>
	<node lat="69.37233611065975" lon="20.255799970738924" id="-100356">
		<tag k="name" v="Billigbakken" />
		<tag k="natural" v="slope" />
		<tag k="place" v="locality" />
		<tag k="ssr:stedsnr" v="237125" />
	</node>
	<node lat="69.38482222164015" lon="20.1903416557168" id="-100357">
		<tag k="fixme" v="consider natural=peak for the most distinct mountains in the district" />
		<tag k="loc_name:se" v="Unnaoalgi" />
		<tag k="name" v="Lilleaksla" />
		<tag k="name:no" v="Lilleaksla" />
		<tag k="natural" v="hill" />
		<tag k="place" v="locality" />
		<tag k="ssr:stedsnr" v="237224" />
	</node>
	<node lat="69.37457500147322" lon="20.287369434977105" id="-100358">
		<tag k="name" v="Myrbakken" />
		<tag k="natural" v="slope" />
		<tag k="place" v="locality" />
		<tag k="ssr:stedsnr" v="237132" />
	</node>
	<node lat="69.26921111596862" lon="19.968205540695813" id="-100359">
		<tag k="name" v="Midtersokken" />
		<tag k="natural" v="hill" />
		<tag k="place" v="locality" />
		<tag k="ssr:stedsnr" v="237443" />
	</node>
	<node lat="69.26028888814463" lon="19.999074997358367" id="-100360">
		<tag k="name" v="Einebakken" />
		<tag k="natural" v="slope" />
		<tag k="place" v="locality" />
		<tag k="ssr:stedsnr" v="237449" />
	</node>
	<node lat="69.33887499606502" lon="19.912891657855393" id="-100363">
		<tag k="name" v="Čahca" />
		<tag k="name:se" v="Čahca" />
		<tag k="natural" v="valley" />
		<tag k="place" v="locality" />
		<tag k="ssr:stedsnr" v="237542" />
	</node>
	<node lat="69.28489722267346" lon="20.465366636911178" id="-100371">
		<tag k="name" v="Ahmakoivu" />
		<tag k="name:fkv" v="Ahmakoivu" />
		<tag k="natural" v="slope" />
		<tag k="place" v="locality" />
		<tag k="ssr:stedsnr" v="237970" />
	</node>
	<node lat="69.10759444125478" lon="20.02429166312831" id="-100372">
		<tag k="name" v="Tverrelvskardet" />
		<tag k="natural" v="valley" />
		<tag k="place" v="locality" />
		<tag k="ssr:stedsnr" v="49681" />
	</node>
	<node lat="69.2528277780695" lon="19.882366651858614" id="-100374">
		<tag k="loc_name:se" v="Stuorroggi" />
		<tag k="name" v="Storgropa" />
		<tag k="name:no" v="Storgropa" />
		<tag k="natural" v="valley" />
		<tag k="place" v="locality" />
		<tag k="ssr:stedsnr" v="54403" />
	</node>
	<node lat="69.23705000059444" lon="19.946502756690595" id="-100376">
		<tag k="name" v="Pederrommet" />
		<tag k="place" v="locality" />
		<tag k="ssr:stedsnr" v="54376" />
	</node>
	<node lat="69.3321194474694" lon="19.84213888354307" id="-100377">
		<tag k="fixme" v="consider natural=peak for the most distinct mountains in the district" />
		<tag k="name" v="Eanavárri" />
		<tag k="natural" v="hill" />
		<tag k="place" v="locality" />
		<tag k="ssr:stedsnr" v="54384" />
	</node>
	<node lat="69.3012611158146" lon="20.008869428107374" id="-100382">
		<tag k="name" v="Storskredet" />
		<tag k="natural" v="slope" />
		<tag k="place" v="locality" />
		<tag k="ssr:stedsnr" v="55584" />
	</node>
	<node lat="69.13738333134562" lon="20.102741639881113" id="-100383">
		<tag k="name" v="Revva" />
		<tag k="natural" v="hill" />
		<tag k="place" v="locality" />
		<tag k="ssr:stedsnr" v="55672" />
	</node>
	<node lat="69.37273889018104" lon="20.36668887532707" id="-100385">
		<tag k="name" v="Inga-Billiriidi" />
		<tag k="name:se" v="Inga-Billiriidi" />
		<tag k="natural" v="slope" />
		<tag k="place" v="locality" />
		<tag k="ssr:stedsnr" v="55991" />
	</node>
	<node lat="69.06588333540735" lon="20.343947204040933" id="-100398">
		<tag k="alt_name" v="Skjærdalen, indre" />
		<tag k="name" v="Indre Skjærdalen" />
		<tag k="natural" v="valley" />
		<tag k="place" v="locality" />
		<tag k="ssr:stedsnr" v="79246" />
	</node>
	<node lat="69.23891945000753" lon="19.79754997858218" id="-100399">
		<tag k="name" v="Jorbariehppi" />
		<tag k="name:se" v="Jorbariehppi" />
		<tag k="natural" v="valley" />
		<tag k="place" v="locality" />
		<tag k="ssr:stedsnr" v="79144" />
	</node>
	<node lat="69.23274999813006" lon="19.898952753076056" id="-100401">
		<tag k="name" v="Oteraksla - Čávkosčohkka" />
		<tag k="name:no" v="Oteraksla" />
		<tag k="name:se" v="Čávkosčohkka" />
		<tag k="natural" v="ridge" />
		<tag k="place" v="locality" />
		<tag k="ssr:stedsnr" v="79349" />
	</node>
	<node lat="69.40478055237749" lon="19.951894418382942" id="-100406">
		<tag k="fixme" v="consider natural=peak for the most distinct mountains in the district" />
		<tag k="name" v="Gaskačohkka" />
		<tag k="name:se" v="Gaskačohkka" />
		<tag k="natural" v="hill" />
		<tag k="place" v="locality" />
		<tag k="ssr:stedsnr" v="79451" />
	</node>
	<node lat="69.22385555878977" lon="20.615883312634054" id="-100408">
		<tag k="alt_name:se" v="Busesvárri" />
		<tag k="fixme" v="consider natural=peak for the most distinct mountains in the district" />
		<tag k="name" v="Buvssasvárri" />
		<tag k="name:se" v="Buvssasvárri" />
		<tag k="natural" v="hill" />
		<tag k="place" v="locality" />
		<tag k="ssr:stedsnr" v="80988" />
	</node>
	<node lat="69.36634289762166" lon="20.201037960602847" id="-100412">
		<tag k="fixme" v="multiple name:fkv tags, choose one and add the other to alt_name:fkv" />
		<tag k="name" v="Storgryta" />
		<tag k="name:fkv" v="Isomukka;Isopata" />
		<tag k="name:no" v="Storgryta" />
		<tag k="name:se" v="Stuoramohkki" />
		<tag k="place" v="locality" />
		<tag k="ssr:stedsnr" v="92988" />
	</node>
	<node lat="69.4137194449411" lon="20.27751665741407" id="-100413">
		<tag k="fixme" v="consider natural=peak for the most distinct mountains in the district" />
		<tag k="name" v="Røykenesaksla" />
		<tag k="name:fkv" v="Ruikkatanolka" />
		<tag k="name:no" v="Røykenesaksla" />
		<tag k="natural" v="hill" />
		<tag k="place" v="locality" />
		<tag k="ssr:stedsnr" v="93366" />
	</node>
	<node lat="69.3703555597815" lon="20.258080547020494" id="-100419">
		<tag k="name" v="Apaja" />
		<tag k="name:fkv" v="Apaja" />
		<tag k="natural" v="slope" />
		<tag k="place" v="locality" />
		<tag k="ssr:stedsnr" v="115136" />
	</node>
	<node lat="69.35449166591695" lon="19.891924986411418" id="-100421">
		<tag k="name" v="Gruva" />
		<tag k="natural" v="slope" />
		<tag k="place" v="locality" />
		<tag k="ssr:stedsnr" v="115384" />
	</node>
	<node lat="69.25557221950226" lon="19.838808311685433" id="-100425">
		<tag k="name" v="Åsbakken" />
		<tag k="natural" v="slope" />
		<tag k="place" v="locality" />
		<tag k="ssr:stedsnr" v="115407" />
	</node>
	<node lat="69.1042499972858" lon="20.662480540283028" id="-100436">
		<tag k="fixme" v="consider natural=peak for the most distinct mountains in the district" />
		<tag k="name" v="Goallároaivi" />
		<tag k="name:se" v="Goallároaivi" />
		<tag k="natural" v="hill" />
		<tag k="place" v="locality" />
		<tag k="ssr:stedsnr" v="140506" />
	</node>
	<node lat="69.26040277708489" lon="19.85963055420171" id="-100439">
		<tag k="name" v="Akselbergan" />
		<tag k="name:no" v="Akselbergan" />
		<tag k="name:se" v="Oalggibávttit" />
		<tag k="natural" v="hill" />
		<tag k="place" v="locality" />
		<tag k="ssr:stedsnr" v="157609" />
	</node>
	<node lat="69.2494944445516" lon="19.78947775479455" id="-100443">
		<tag k="alt_name:se" v="Jorbavárri" />
		<tag k="fixme" v="consider natural=peak for the most distinct mountains in the district" />
		<tag k="name" v="Rundfjellet - Jorbaoaivi" />
		<tag k="name:no" v="Rundfjellet" />
		<tag k="name:se" v="Jorbaoaivi" />
		<tag k="natural" v="hill" />
		<tag k="place" v="locality" />
		<tag k="ssr:stedsnr" v="261170" />
	</node>
	<node lat="69.06307499952341" lon="20.07642497733782" id="-100446">
		<tag k="name" v="Čorrovággi" />
		<tag k="name:se" v="Čorrovággi" />
		<tag k="natural" v="valley" />
		<tag k="place" v="locality" />
		<tag k="ssr:stedsnr" v="261266" />
	</node>
	<node lat="69.10375278319748" lon="20.101713868677628" id="-100448">
		<tag k="alt_name:no" v="Barasdalen" />
		<tag k="name" v="Parasdalen - Bárrásvuovdi" />
		<tag k="name:no" v="Parasdalen" />
		<tag k="name:se" v="Bárrásvuovdi" />
		<tag k="natural" v="valley" />
		<tag k="place" v="locality" />
		<tag k="ssr:stedsnr" v="261290" />
	</node>
	<node lat="69.11582499560711" lon="20.0681499918077" id="-100450">
		<tag k="name" v="Várreovda" />
		<tag k="name:se" v="Várreovda" />
		<tag k="natural" v="slope" />
		<tag k="place" v="locality" />
		<tag k="ssr:stedsnr" v="261321" />
	</node>
	<node lat="69.22328888888002" lon="20.115591653066833" id="-100451">
		<tag k="fixme" v="consider natural=peak for the most distinct mountains in the district" />
		<tag k="name" v="Beahcenjunni" />
		<tag k="name:fkv" v="Petäjänenä" />
		<tag k="name:se" v="Beahcenjunni" />
		<tag k="natural" v="hill" />
		<tag k="place" v="locality" />
		<tag k="ssr:stedsnr" v="261365" />
	</node>
	<node lat="69.32091389390887" lon="20.383074975277587" id="-100457">
		<tag k="fixme" v="multiple name:fkv tags, choose one and add the other to alt_name:fkv; consider natural=peak for the most distinct mountains in the district" />
		<tag k="name" v="Bærfjellet" />
		<tag k="name:fkv" v="Marjavaara;Iivarinvaara" />
		<tag k="name:no" v="Bærfjellet" />
		<tag k="name:se" v="Muorjevárri" />
		<tag k="natural" v="hill" />
		<tag k="place" v="locality" />
		<tag k="ssr:stedsnr" v="261431" />
	</node>
	<node lat="69.1567916696747" lon="20.04774443658774" id="-100460">
		<tag k="name" v="Russemoen" />
		<tag k="place" v="locality" />
		<tag k="ssr:stedsnr" v="175371" />
	</node>
	<node lat="69.23471389344515" lon="20.156605533020745" id="-100461">
		<tag k="name" v="Norddalen - Gáranassuorgi" />
		<tag k="name:fkv" v="Kaarnassuorki" />
		<tag k="name:no" v="Norddalen" />
		<tag k="name:se" v="Gáranassuorgi" />
		<tag k="natural" v="valley" />
		<tag k="place" v="locality" />
		<tag k="ssr:stedsnr" v="261373" />
	</node>
	<node lat="69.30859444446226" lon="19.86670553323485" id="-100466">
		<tag k="fixme" v="consider natural=peak for the most distinct mountains in the district" />
		<tag k="name" v="Kvalnesfjellet - Bossonjárvárri" />
		<tag k="name:no" v="Kvalnesfjellet" />
		<tag k="name:se" v="Bossonjárvárri" />
		<tag k="natural" v="hill" />
		<tag k="old_name:se" v="Bossonjár-varri" />
		<tag k="place" v="locality" />
		<tag k="ssr:stedsnr" v="261435" />
	</node>
	<node lat="69.36425555880994" lon="20.502077757921974" id="-100469">
		<tag k="fixme" v="consider natural=peak for the most distinct mountains in the district" />
		<tag k="name" v="Fávrrosvárri" />
		<tag k="name:se" v="Fávrrosvárri" />
		<tag k="natural" v="hill" />
		<tag k="place" v="locality" />
		<tag k="ssr:stedsnr" v="261515" />
	</node>
	<node lat="69.36318055371389" lon="19.850236107092844" id="-100471">
		<tag k="name" v="Dalbotn" />
		<tag k="name:no" v="Dalbotn" />
		<tag k="name:se" v="Vággevuođđu" />
		<tag k="natural" v="valley" />
		<tag k="place" v="locality" />
		<tag k="ssr:stedsnr" v="261465" />
	</node>
	<node lat="69.40774166652169" lon="20.345627757102513" id="-100478">
		<tag k="fixme" v="consider natural=peak for the most distinct mountains in the district" />
		<tag k="name" v="Marketsfjellet" />
		<tag k="name:fkv" v="Markkinavaara" />
		<tag k="name:no" v="Marketsfjellet" />
		<tag k="name:se" v="Márkanvárri" />
		<tag k="natural" v="hill" />
		<tag k="place" v="locality" />
		<tag k="ssr:stedsnr" v="261492" />
	</node>
	<node lat="69.34483611045225" lon="19.960508316817524" id="-100480">
		<tag k="name" v="Langlia" />
		<tag k="natural" v="slope" />
		<tag k="place" v="locality" />
		<tag k="ssr:stedsnr" v="176511" />
	</node>
	<node lat="69.36816944695788" lon="20.018438868857263" id="-100481">
		<tag k="name" v="Faŋka" />
		<tag k="name:se" v="Faŋka" />
		<tag k="natural" v="hill" />
		<tag k="place" v="locality" />
		<tag k="ssr:stedsnr" v="176514" />
	</node>
	<node lat="69.32524722075658" lon="19.95469720154473" id="-100482">
		<tag k="loc_name:se" v="Čáhppesbákti" />
		<tag k="name" v="Svartberget" />
		<tag k="name:no" v="Svartberget" />
		<tag k="natural" v="hill" />
		<tag k="place" v="locality" />
		<tag k="ssr:stedsnr" v="176518" />
	</node>
	<node lat="69.25911388608121" lon="20.00092499592841" id="-100483">
		<tag k="name" v="Eine" />
		<tag k="natural" v="slope" />
		<tag k="place" v="locality" />
		<tag k="ssr:stedsnr" v="176554" />
	</node>
	<node lat="69.30260833516037" lon="20.50777775410543" id="-100486">
		<tag k="name" v="Kotahumppi" />
		<tag k="name:fkv" v="Kotahumppi" />
		<tag k="natural" v="hill" />
		<tag k="place" v="locality" />
		<tag k="ssr:stedsnr" v="261553" />
	</node>
	<node lat="69.27185833007786" lon="20.524474972102936" id="-100488">
		<tag k="name" v="Halsen" />
		<tag k="natural" v="valley" />
		<tag k="place" v="locality" />
		<tag k="ssr:stedsnr" v="176959" />
	</node>
	<node lat="69.25588333020382" lon="20.541136090466427" id="-100492">
		<tag k="name" v="Stuoratoailatnja" />
		<tag k="name:se" v="Stuoratoailatnja" />
		<tag k="natural" v="valley" />
		<tag k="place" v="locality" />
		<tag k="ssr:stedsnr" v="261669" />
	</node>
	<node lat="69.13380000080933" lon="20.883274977433082" id="-100494">
		<tag k="name" v="Gárášoaičahca" />
		<tag k="name:se" v="Gárášoaičahca" />
		<tag k="natural" v="valley" />
		<tag k="place" v="locality" />
		<tag k="ssr:stedsnr" v="261922" />
	</node>
	<node lat="69.13547777642157" lon="20.644724984332697" id="-100495">
		<tag k="fixme" v="consider natural=peak for the most distinct mountains in the district" />
		<tag k="name" v="Sallooaivi" />
		<tag k="name:se" v="Sallooaivi" />
		<tag k="natural" v="hill" />
		<tag k="place" v="locality" />
		<tag k="ssr:stedsnr" v="261934" />
	</node>
	<node lat="69.31279444573254" lon="20.553183308658607" id="-100503">
		<tag k="fixme" v="consider natural=peak for the most distinct mountains in the district" />
		<tag k="name" v="Ákšogaikunvárri" />
		<tag k="name:se" v="Ákšogaikunvárri" />
		<tag k="natural" v="hill" />
		<tag k="place" v="locality" />
		<tag k="ssr:stedsnr" v="264331" />
	</node>
	<node lat="69.33400376971096" lon="20.140729161308066" id="-100504">
		<tag k="fixme" v="consider natural=peak for the most distinct mountains in the district" />
		<tag k="name" v="Reppifjellet" />
		<tag k="name:fkv" v="Reppiniemenvaara" />
		<tag k="name:no" v="Reppifjellet" />
		<tag k="name:se" v="Reahpennjárggavárri" />
		<tag k="natural" v="hill" />
		<tag k="place" v="locality" />
		<tag k="ssr:stedsnr" v="267352" />
	</node>
	<node lat="69.42440277550224" lon="20.414108302695215" id="-100505">
		<tag k="fixme" v="consider natural=peak for the most distinct mountains in the district" />
		<tag k="name" v="Foranesfjellet" />
		<tag k="natural" v="hill" />
		<tag k="place" v="locality" />
		<tag k="ssr:stedsnr" v="200262" />
	</node>
	<node lat="69.15966944583575" lon="20.056427770891503" id="-100507">
		<tag k="name" v="Márkoslatnja" />
		<tag k="name:se" v="Márkoslatnja" />
		<tag k="natural" v="slope" />
		<tag k="place" v="locality" />
		<tag k="ssr:stedsnr" v="200306" />
	</node>
	<node lat="69.17210000365137" lon="19.95907775349112" id="-100515">
		<tag k="fixme" v="consider natural=peak for the most distinct mountains in the district" />
		<tag k="name" v="Polvartinden - Čiekŋaljávarregáisi" />
		<tag k="name:no" v="Polvartinden" />
		<tag k="name:se" v="Čiekŋaljávarregáisi" />
		<tag k="natural" v="hill" />
		<tag k="place" v="locality" />
		<tag k="ssr:stedsnr" v="267249" />
	</node>
	<node lat="69.1030916701758" lon="21.00995552470005" id="-100516">
		<tag k="fixme" v="consider natural=peak for the most distinct mountains in the district" />
		<tag k="name" v="Heargevárri" />
		<tag k="name:se" v="Heargevárri" />
		<tag k="natural" v="hill" />
		<tag k="place" v="locality" />
		<tag k="ssr:stedsnr" v="201504" />
	</node>
	<node lat="69.09051620922193" lon="20.834755291868202" id="-100518">
		<tag k="fixme" v="consider natural=peak for the most distinct mountains in the district" />
		<tag k="name" v="Jiehkkáš" />
		<tag k="name:se" v="Jiehkkáš" />
		<tag k="natural" v="hill" />
		<tag k="place" v="locality" />
		<tag k="ssr:stedsnr" v="201507" />
	</node>
	<node lat="69.35921944237191" lon="20.234769417477956" id="-100525">
		<tag k="name" v="Sorpa" />
		<tag k="name:no" v="Sorpa" />
		<tag k="name:se" v="Čorpa" />
		<tag k="natural" v="slope" />
		<tag k="place" v="locality" />
		<tag k="ssr:stedsnr" v="213094" />
	</node>
	<node lat="69.36513611215695" lon="20.245622198766217" id="-100528">
		<tag k="name" v="Mullogurra" />
		<tag k="name:fkv" v="Myllykuru" />
		<tag k="name:se" v="Mullogurra" />
		<tag k="natural" v="valley" />
		<tag k="place" v="locality" />
		<tag k="ssr:stedsnr" v="218178" />
	</node>
	<node lat="69.38444999999665" lon="20.057783320572966" id="-100531">
		<tag k="name" v="Tommočohkka" />
		<tag k="name:se" v="Tommočohkka" />
		<tag k="natural" v="hill" />
		<tag k="place" v="locality" />
		<tag k="ssr:stedsnr" v="449955" />
	</node>
	<node lat="69.29724166641104" lon="19.973083318720803" id="-100538">
		<tag k="name" v="Jamešgurra" />
		<tag k="name:se" v="Jamešgurra" />
		<tag k="natural" v="valley" />
		<tag k="place" v="locality" />
		<tag k="ssr:stedsnr" v="237628" />
	</node>
	<node lat="69.2457027818552" lon="19.974305556175473" id="-100540">
		<tag k="loc_name:se" v="Njoammilráigi" />
		<tag k="name" v="Harehollet" />
		<tag k="name:no" v="Harehollet" />
		<tag k="natural" v="valley" />
		<tag k="place" v="locality" />
		<tag k="ssr:stedsnr" v="237594" />
	</node>
	<node lat="69.33852222172064" lon="20.416677767024336" id="-100543">
		<tag k="fixme" v="consider natural=peak for the most distinct mountains in the district" />
		<tag k="name" v="Øvre Stolpefjell" />
		<tag k="natural" v="hill" />
		<tag k="place" v="locality" />
		<tag k="ssr:stedsnr" v="237933" />
	</node>
	<node lat="69.29675112606006" lon="20.132156213129672" id="-100547">
		<tag k="fixme" v="consider natural=peak for the most distinct mountains in the district" />
		<tag k="name" v="Sommarfjellet" />
		<tag k="name:fkv" v="Kesävaara" />
		<tag k="name:no" v="Sommarfjellet" />
		<tag k="name:se" v="Geassevárri" />
		<tag k="natural" v="hill" />
		<tag k="place" v="locality" />
		<tag k="ssr:stedsnr" v="261402" />
	</node>
	<node lat="69.23613889399537" lon="21.00499997295694" id="-100549">
		<tag k="fixme" v="consider natural=peak for the most distinct mountains in the district" />
		<tag k="name" v="Urttasoaivi" />
		<tag k="name:se" v="Urttasoaivi" />
		<tag k="natural" v="hill" />
		<tag k="place" v="locality" />
		<tag k="ssr:stedsnr" v="262994" />
	</node>
	<node lat="69.26346111381885" lon="19.946394422314256" id="-100551">
		<tag k="loc_name:se" v="Állebákti" />
		<tag k="name" v="Helleberget" />
		<tag k="name:no" v="Helleberget" />
		<tag k="natural" v="hill" />
		<tag k="place" v="locality" />
		<tag k="ssr:stedsnr" v="269024" />
	</node>
	<node lat="69.36023611478898" lon="20.35871664767753" id="-100553">
		<tag k="name" v="Fjellroaŋki" />
		<tag k="name:fkv" v="Fielluronkka" />
		<tag k="name:se" v="Fjellroaŋki" />
		<tag k="natural" v="valley" />
		<tag k="place" v="locality" />
		<tag k="ssr:stedsnr" v="279123" />
	</node>
	<node lat="69.39890555905947" lon="20.282616646858106" id="-100565">
		<tag k="name" v="Slettelia" />
		<tag k="natural" v="slope" />
		<tag k="place" v="locality" />
		<tag k="ssr:stedsnr" v="297122" />
	</node>
	<node lat="69.37483888772753" lon="20.002286100279907" id="-100566">
		<tag k="name" v="Spiidnehárji" />
		<tag k="name:se" v="Spiidnehárji" />
		<tag k="natural" v="hill" />
		<tag k="place" v="locality" />
		<tag k="ssr:stedsnr" v="297539" />
	</node>
	<node lat="69.40032777710478" lon="20.128608308389854" id="-100567">
		<tag k="name" v="Lemmen" />
		<tag k="natural" v="hill" />
		<tag k="place" v="locality" />
		<tag k="ssr:stedsnr" v="297736" />
	</node>
	<node lat="69.40021389182903" lon="20.116719428180552" id="-100568">
		<tag k="name" v="Skáhpegurra" />
		<tag k="name:se" v="Skáhpegurra" />
		<tag k="natural" v="valley" />
		<tag k="place" v="locality" />
		<tag k="ssr:stedsnr" v="297737" />
	</node>
	<node lat="69.11415555122325" lon="20.21097499308001" id="-100569">
		<tag k="name" v="Styggdalen" />
		<tag k="natural" v="valley" />
		<tag k="place" v="locality" />
		<tag k="ssr:stedsnr" v="297682" />
	</node>
	<node lat="69.297358333817" lon="20.565480545585174" id="-100574">
		<tag k="name" v="Čeabetgobit" />
		<tag k="name:se" v="Čeabetgobit" />
		<tag k="natural" v="valley" />
		<tag k="place" v="locality" />
		<tag k="ssr:stedsnr" v="321507" />
	</node>
	<node lat="69.10232500148997" lon="20.60400831679778" id="-100577">
		<tag k="fixme" v="consider natural=peak for the most distinct mountains in the district" />
		<tag k="name" v="Nilppagielas" />
		<tag k="name:se" v="Nilppagielas" />
		<tag k="natural" v="hill" />
		<tag k="place" v="locality" />
		<tag k="ssr:stedsnr" v="322532" />
	</node>
	<node lat="69.26022777817009" lon="20.097333318878942" id="-100578">
		<tag k="fixme" v="consider natural=peak for the most distinct mountains in the district" />
		<tag k="name" v="Skáidegáisi" />
		<tag k="name:se" v="Skáidegáisi" />
		<tag k="natural" v="hill" />
		<tag k="place" v="locality" />
		<tag k="ssr:stedsnr" v="322576" />
	</node>
	<node lat="69.2046545122236" lon="20.042703840307873" id="-100580">
		<tag k="fixme" v="consider natural=peak for the most distinct mountains in the district" />
		<tag k="name" v="Mannfjellet - Olmmáivárri" />
		<tag k="name:fkv" v="Olmavaara" />
		<tag k="name:no" v="Mannfjellet" />
		<tag k="name:se" v="Olmmáivárri" />
		<tag k="natural" v="hill" />
		<tag k="place" v="locality" />
		<tag k="ssr:stedsnr" v="328276" />
	</node>
	<node lat="69.38398610857863" lon="20.276902769254338" id="-100591">
		<tag k="name" v="Gammelrasingen" />
		<tag k="natural" v="slope" />
		<tag k="place" v="locality" />
		<tag k="ssr:stedsnr" v="358117" />
	</node>
	<node lat="69.3618888856148" lon="20.294499982717557" id="-100592">
		<tag k="name" v="Suolagurra" />
		<tag k="name:se" v="Suolagurra" />
		<tag k="natural" v="valley" />
		<tag k="place" v="locality" />
		<tag k="ssr:stedsnr" v="358002" />
	</node>
	<node lat="69.36373333604257" lon="20.25141941920977" id="-100595">
		<tag k="name" v="Hestegropa" />
		<tag k="natural" v="valley" />
		<tag k="place" v="locality" />
		<tag k="ssr:stedsnr" v="358222" />
	</node>
	<node lat="69.26582222210324" lon="19.97484720035917" id="-100596">
		<tag k="name" v="Innersokken" />
		<tag k="natural" v="hill" />
		<tag k="place" v="locality" />
		<tag k="ssr:stedsnr" v="358408" />
	</node>
	<node lat="69.38593333133466" lon="20.071436100971642" id="-100598">
		<tag k="name" v="Šleađđu" />
		<tag k="name:se" v="Šleađđu" />
		<tag k="natural" v="hill" />
		<tag k="place" v="locality" />
		<tag k="ssr:stedsnr" v="358747" />
	</node>
	<node lat="69.34232499857579" lon="19.954836100320193" id="-100612">
		<tag k="name" v="Gohpisletta" />
		<tag k="place" v="locality" />
		<tag k="ssr:stedsnr" v="479529" />
	</node>
	<node lat="69.3399027738785" lon="19.953277765734914" id="-100613">
		<tag k="name" v="Spiidnehárji" />
		<tag k="name:se" v="Spiidnehárji" />
		<tag k="natural" v="hill" />
		<tag k="place" v="locality" />
		<tag k="ssr:stedsnr" v="479544" />
	</node>
	<node lat="69.40071110946865" lon="20.108777769582904" id="-100615">
		<tag k="name" v="Reinberget" />
		<tag k="natural" v="hill" />
		<tag k="place" v="locality" />
		<tag k="ssr:stedsnr" v="479716" />
	</node>
	<node lat="69.12055833668569" lon="20.091186109228612" id="-100616">
		<tag k="loc_name:se" v="Bárrásvállas" />
		<tag k="name" v="Parasmoen" />
		<tag k="name:no" v="Parasmoen" />
		<tag k="place" v="locality" />
		<tag k="ssr:stedsnr" v="479696" />
	</node>
	<node lat="69.17882500275861" lon="20.329947195584026" id="-100619">
		<tag k="name" v="Goahteorotlatnja" />
		<tag k="name:se" v="Goahteorotlatnja" />
		<tag k="natural" v="slope" />
		<tag k="place" v="locality" />
		<tag k="ssr:stedsnr" v="382314" />
	</node>
	<node lat="69.27088888661764" lon="19.891738884315167" id="-100636">
		<tag k="loc_name:se" v="Vuolit Smávvabákti" />
		<tag k="name" v="Lilleberget" />
		<tag k="name:no" v="Lilleberget" />
		<tag k="natural" v="hill" />
		<tag k="place" v="locality" />
		<tag k="ssr:stedsnr" v="418416" />
	</node>
	<node lat="69.24056389313877" lon="19.84519720683793" id="-100639">
		<tag k="loc_name:se" v="Heavvaldievvá" />
		<tag k="name" v="Høvelbakken" />
		<tag k="name:no" v="Høvelbakken" />
		<tag k="natural" v="slope" />
		<tag k="place" v="locality" />
		<tag k="ssr:stedsnr" v="418396" />
	</node>
	<node lat="69.40362777879307" lon="20.30607220175145" id="-100641">
		<tag k="name" v="Midterhalsen" />
		<tag k="natural" v="valley" />
		<tag k="place" v="locality" />
		<tag k="ssr:stedsnr" v="419094" />
	</node>
	<node lat="69.40522222122372" lon="20.274788864709773" id="-100642">
		<tag k="name" v="Håttigropa" />
		<tag k="natural" v="valley" />
		<tag k="place" v="locality" />
		<tag k="ssr:stedsnr" v="419097" />
	</node>
	<node lat="69.29896666992889" lon="20.418072217689865" id="-100645">
		<tag k="name" v="Lullinsakea" />
		<tag k="name:fkv" v="Lullinsakea" />
		<tag k="place" v="locality" />
		<tag k="ssr:stedsnr" v="419943" />
	</node>
	<node lat="69.440088891291" lon="20.289433320032863" id="-100648">
		<tag k="name" v="Jamahagurra" />
		<tag k="name:se" v="Jamahagurra" />
		<tag k="natural" v="valley" />
		<tag k="place" v="locality" />
		<tag k="ssr:stedsnr" v="419993" />
	</node>
	<node lat="69.41916944182893" lon="20.27531387333342" id="-100650">
		<tag k="name" v="Balo" />
		<tag k="natural" v="slope" />
		<tag k="place" v="locality" />
		<tag k="ssr:stedsnr" v="419999" />
	</node>
	<node lat="69.41202777506386" lon="20.14961665834671" id="-100651">
		<tag k="name" v="Buollán" />
		<tag k="name:se" v="Buollán" />
		<tag k="place" v="locality" />
		<tag k="ssr:stedsnr" v="420606" />
	</node>
	<node lat="69.28704444153331" lon="19.833424990131633" id="-100653">
		<tag k="name" v="Riehppi" />
		<tag k="name:se" v="Riehppi" />
		<tag k="natural" v="valley" />
		<tag k="place" v="locality" />
		<tag k="ssr:stedsnr" v="443405" />
	</node>
	<node lat="69.15819167141547" lon="20.293405538437234" id="-100656">
		<tag k="name" v="Állebákti" />
		<tag k="name:se" v="Állebákti" />
		<tag k="natural" v="hill" />
		<tag k="place" v="locality" />
		<tag k="ssr:stedsnr" v="443305" />
	</node>
	<node lat="69.30385000141774" lon="19.90795553608794" id="-100661">
		<tag k="fixme" v="consider natural=peak for the most distinct mountains in the district" />
		<tag k="name" v="Luovttanjunni" />
		<tag k="name:se" v="Luovttanjunni" />
		<tag k="natural" v="hill" />
		<tag k="place" v="locality" />
		<tag k="ssr:stedsnr" v="443394" />
	</node>
	<node lat="69.38408055530695" lon="19.870272198877398" id="-100664">
		<tag k="fixme" v="consider natural=peak for the most distinct mountains in the district" />
		<tag k="name" v="Imagáisi" />
		<tag k="name:se" v="Imagáisi" />
		<tag k="natural" v="hill" />
		<tag k="place" v="locality" />
		<tag k="ssr:stedsnr" v="443494" />
	</node>
	<node lat="69.31469444219114" lon="20.500652762785364" id="-100666">
		<tag k="name" v="Fávrroslatnja" />
		<tag k="name:se" v="Fávrroslatnja" />
		<tag k="natural" v="valley" />
		<tag k="place" v="locality" />
		<tag k="ssr:stedsnr" v="444532" />
	</node>
	<node lat="69.22794722565088" lon="20.45393054369912" id="-100667">
		<tag k="fixme" v="consider natural=peak for the most distinct mountains in the district" />
		<tag k="name" v="Lávkaslubbu" />
		<tag k="name:se" v="Lávkaslubbu" />
		<tag k="natural" v="hill" />
		<tag k="old_name:se" v="Lavkaslubbu" />
		<tag k="place" v="locality" />
		<tag k="ssr:stedsnr" v="444986" />
	</node>
	<node lat="69.3589888850867" lon="20.37583610065109" id="-100670">
		<tag k="name" v="Bientsi" />
		<tag k="name:se" v="Bientsi" />
		<tag k="natural" v="valley" />
		<tag k="place" v="locality" />
		<tag k="ssr:stedsnr" v="479009" />
	</node>
	<node lat="69.40927500062169" lon="20.292158314681117" id="-100672">
		<tag k="fixme" v="consider natural=peak for the most distinct mountains in the district" />
		<tag k="name" v="Isfjellet" />
		<tag k="natural" v="hill" />
		<tag k="place" v="locality" />
		<tag k="ssr:stedsnr" v="479079" />
	</node>
	<node lat="69.1715027804389" lon="20.008163874179044" id="-100673">
		<tag k="name" v="Skredan" />
		<tag k="natural" v="slope" />
		<tag k="place" v="locality" />
		<tag k="ssr:stedsnr" v="479362" />
	</node>
	<node lat="69.14917777554554" lon="20.055705532004513" id="-100674">
		<tag k="name" v="Storvollen" />
		<tag k="place" v="locality" />
		<tag k="ssr:stedsnr" v="479378" />
	</node>
	<node lat="69.25806388999706" lon="19.9374611043108" id="-100677">
		<tag k="name" v="Trappegropa" />
		<tag k="natural" v="valley" />
		<tag k="place" v="locality" />
		<tag k="ssr:stedsnr" v="479566" />
	</node>
	<node lat="69.23431667064905" lon="20.132258322137975" id="-100682">
		<tag k="name" v="Hárvanjirra" />
		<tag k="name:se" v="Hárvanjirra" />
		<tag k="natural" v="slope" />
		<tag k="place" v="locality" />
		<tag k="ssr:stedsnr" v="479702" />
	</node>
	<node lat="69.2872500054833" lon="20.340122197320042" id="-100686">
		<tag k="name" v="Norddalen - Heargevággi" />
		<tag k="name:no" v="Norddalen" />
		<tag k="name:se" v="Heargevággi" />
		<tag k="natural" v="valley" />
		<tag k="place" v="locality" />
		<tag k="ssr:stedsnr" v="503072" />
	</node>
	<node lat="69.28921944337351" lon="20.434577754579816" id="-100687">
		<tag k="fixme" v="multiple name tags, choose one and add the other to alt_name; consider natural=peak for the most distinct mountains in the district" />
		<tag k="name" v="Rundfjellet;Lillerundfjellet" />
		<tag k="natural" v="hill" />
		<tag k="place" v="locality" />
		<tag k="ssr:stedsnr" v="503504" />
	</node>
	<node lat="69.32314444347934" lon="20.378697210601107" id="-100690">
		<tag k="name" v="Jammerdalen" />
		<tag k="name:fkv" v="Tammavankka" />
		<tag k="name:no" v="Jammerdalen" />
		<tag k="natural" v="valley" />
		<tag k="place" v="locality" />
		<tag k="ssr:stedsnr" v="503415" />
	</node>
	<node lat="69.3100544770301" lon="20.070020052443805" id="-100691">
		<tag k="name" v="Reppidalen" />
		<tag k="name:fkv" v="Rieppivankka" />
		<tag k="name:no" v="Reppidalen" />
		<tag k="name:se" v="Riehppevággi" />
		<tag k="natural" v="valley" />
		<tag k="place" v="locality" />
		<tag k="ssr:stedsnr" v="503420" />
	</node>
	<node lat="69.2046944443634" lon="20.145424973358118" id="-100692">
		<tag k="name" v="Sallogieddi" />
		<tag k="name:fkv" v="Kallukenttä" />
		<tag k="name:se" v="Sallogieddi" />
		<tag k="place" v="locality" />
		<tag k="ssr:stedsnr" v="504303" />
	</node>
	<node lat="69.25116111574926" lon="20.764069413534425" id="-100695">
		<tag k="fixme" v="consider natural=peak for the most distinct mountains in the district" />
		<tag k="name" v="Suonjernjaŋggut" />
		<tag k="name:se" v="Suonjernjaŋggut" />
		<tag k="natural" v="hill" />
		<tag k="place" v="locality" />
		<tag k="ssr:stedsnr" v="504702" />
	</node>
	<node lat="69.1928249988669" lon="20.955899960899686" id="-100698">
		<tag k="name" v="Didnoláhku" />
		<tag k="name:se" v="Didnoláhku" />
		<tag k="place" v="locality" />
		<tag k="ssr:stedsnr" v="505964" />
	</node>
	<node lat="69.15665000370407" lon="20.15033055114568" id="-100700">
		<tag k="fixme" v="consider natural=peak for the most distinct mountains in the district" />
		<tag k="name" v="Markusfjellet - Márkos" />
		<tag k="name:no" v="Markusfjellet" />
		<tag k="name:se" v="Márkos" />
		<tag k="natural" v="hill" />
		<tag k="place" v="locality" />
		<tag k="ssr:stedsnr" v="510262" />
	</node>
	<node lat="69.23120278265114" lon="19.881852758562545" id="-100713">
		<tag k="name" v="Bjørnskardet - Bierdnaskoarru" />
		<tag k="name:no" v="Bjørnskardet" />
		<tag k="name:se" v="Bierdnaskoarru" />
		<tag k="natural" v="valley" />
		<tag k="place" v="locality" />
		<tag k="ssr:stedsnr" v="686333" />
	</node>
	<node lat="69.2626138881852" lon="20.01215276330279" id="-100714">
		<tag k="name" v="Kitdalen" />
		<tag k="name:fkv" v="Soiketanouta" />
		<tag k="name:no" v="Kitdalen" />
		<tag k="name:se" v="Čoaigedanvuovdi" />
		<tag k="natural" v="valley" />
		<tag k="place" v="locality" />
		<tag k="ssr:stedsnr" v="686348" />
	</node>
	<node lat="69.30388056003956" lon="20.329863867220567" id="-100722">
		<tag k="fixme" v="consider natural=peak for the most distinct mountains in the district" />
		<tag k="name" v="Heargevárri" />
		<tag k="name:se" v="Heargevárri" />
		<tag k="natural" v="hill" />
		<tag k="place" v="locality" />
		<tag k="ssr:stedsnr" v="686386" />
	</node>
	<node lat="69.12805000005798" lon="20.257299987088906" id="-100726">
		<tag k="name" v="Márkosváddjá" />
		<tag k="name:se" v="Márkosváddjá" />
		<tag k="natural" v="valley" />
		<tag k="place" v="locality" />
		<tag k="ssr:stedsnr" v="686271" />
	</node>
	<node lat="69.28410000321836" lon="20.3230221984266" id="-100727">
		<tag k="fixme" v="consider natural=peak for the most distinct mountains in the district" />
		<tag k="name" v="Buoidenjunni" />
		<tag k="name:se" v="Buoidenjunni" />
		<tag k="natural" v="hill" />
		<tag k="place" v="locality" />
		<tag k="ssr:stedsnr" v="686400" />
	</node>
	<node lat="69.27570000015793" lon="20.074522209778138" id="-100729">
		<tag k="fixme" v="consider natural=peak for the most distinct mountains in the district" />
		<tag k="name" v="Háhttanjunni" />
		<tag k="name:se" v="Háhttanjunni" />
		<tag k="natural" v="hill" />
		<tag k="place" v="locality" />
		<tag k="ssr:stedsnr" v="686411" />
	</node>
	<node lat="69.35979999881596" lon="19.86869998489113" id="-100731">
		<tag k="name" v="Elvevolldalen" />
		<tag k="name:no" v="Elvevolldalen" />
		<tag k="name:se" v="Stállovággi" />
		<tag k="natural" v="valley" />
		<tag k="place" v="locality" />
		<tag k="ssr:stedsnr" v="686461" />
	</node>
	<node lat="69.14467500233717" lon="20.105924984815864" id="-100732">
		<tag k="fixme" v="consider natural=peak for the most distinct mountains in the district" />
		<tag k="name" v="Humpen - Váráš" />
		<tag k="name:no" v="Humpen" />
		<tag k="name:se" v="Váráš" />
		<tag k="natural" v="hill" />
		<tag k="place" v="locality" />
		<tag k="ssr:stedsnr" v="686283" />
	</node>
	<node lat="69.09142499681492" lon="20.861811084442607" id="-100735">
		<tag k="fixme" v="consider natural=peak for the most distinct mountains in the district" />
		<tag k="name" v="Veajetnibba" />
		<tag k="name:se" v="Veajetnibba" />
		<tag k="natural" v="hill" />
		<tag k="place" v="locality" />
		<tag k="ssr:stedsnr" v="686549" />
	</node>
	<node lat="69.07790277938855" lon="20.8863944226573" id="-100737">
		<tag k="fixme" v="consider natural=peak for the most distinct mountains in the district" />
		<tag k="name" v="Unna Jiehkkášaš" />
		<tag k="name:se" v="Unna Jiehkkášaš" />
		<tag k="natural" v="hill" />
		<tag k="old_name:se" v="Jiehkkášaš, unna" />
		<tag k="place" v="locality" />
		<tag k="ssr:stedsnr" v="686555" />
	</node>
	<node lat="69.32063610985125" lon="20.612933303400506" id="-100738">
		<tag k="fixme" v="consider natural=peak for the most distinct mountains in the district" />
		<tag k="name" v="Stálloborčohkka" />
		<tag k="name:se" v="Stálloborčohkka" />
		<tag k="natural" v="hill" />
		<tag k="place" v="locality" />
		<tag k="ssr:stedsnr" v="686558" />
	</node>
	<node lat="69.32836944600449" lon="20.495338866480846" id="-100739">
		<tag k="name" v="Lulit Ádjetriehppi" />
		<tag k="name:se" v="Lulit Ádjetriehppi" />
		<tag k="natural" v="valley" />
		<tag k="old_name:se" v="Ádjetriehppi, lulit" />
		<tag k="place" v="locality" />
		<tag k="ssr:stedsnr" v="686563" />
	</node>
	<node lat="69.25757499866221" lon="20.38935832059263" id="-100740">
		<tag k="fixme" v="consider natural=peak for the most distinct mountains in the district" />
		<tag k="name" v="Luhčavárri" />
		<tag k="name:se" v="Luhčavárri" />
		<tag k="natural" v="hill" />
		<tag k="place" v="locality" />
		<tag k="ssr:stedsnr" v="686581" />
	</node>
	<node lat="69.2858472236957" lon="20.616819433919815" id="-100741">
		<tag k="fixme" v="consider natural=peak for the most distinct mountains in the district" />
		<tag k="name" v="Doaresoaivi" />
		<tag k="name:se" v="Doaresoaivi" />
		<tag k="natural" v="hill" />
		<tag k="place" v="locality" />
		<tag k="ssr:stedsnr" v="686702" />
	</node>
	<node lat="69.27535278146422" lon="20.51348608512854" id="-100742">
		<tag k="name" v="Halsebakkan - Čeabetluohkká" />
		<tag k="name:no" v="Halsebakkan" />
		<tag k="name:se" v="Čeabetluohkká" />
		<tag k="natural" v="slope" />
		<tag k="place" v="locality" />
		<tag k="ssr:stedsnr" v="686712" />
	</node>
	<node lat="69.26965000031512" lon="20.81678330364798" id="-100743">
		<tag k="fixme" v="consider natural=peak for the most distinct mountains in the district" />
		<tag k="name" v="Ráššanjaŋggutčohkka" />
		<tag k="name:se" v="Ráššanjaŋggutčohkka" />
		<tag k="natural" v="hill" />
		<tag k="place" v="locality" />
		<tag k="ssr:stedsnr" v="686715" />
	</node>
	<node lat="69.36968333613876" lon="20.219497214810776" id="-100747">
		<tag k="name" v="Laskobakken" />
		<tag k="natural" v="slope" />
		<tag k="place" v="locality" />
		<tag k="ssr:stedsnr" v="540217" />
	</node>
	<node lat="69.24931111639575" lon="19.927722203679423" id="-100749">
		<tag k="name" v="Veneten" />
		<tag k="natural" v="slope" />
		<tag k="place" v="locality" />
		<tag k="ssr:stedsnr" v="540570" />
	</node>
	<node lat="69.40221944329014" lon="20.1233111064855" id="-100751">
		<tag k="name" v="Nalgančohkka" />
		<tag k="name:se" v="Nalgančohkka" />
		<tag k="natural" v="hill" />
		<tag k="place" v="locality" />
		<tag k="ssr:stedsnr" v="540706" />
	</node>
	<node lat="69.35795277444917" lon="20.116769421191755" id="-100752">
		<tag k="name" v="Čohkka" />
		<tag k="name:se" v="Čohkka" />
		<tag k="natural" v="hill" />
		<tag k="place" v="locality" />
		<tag k="ssr:stedsnr" v="540710" />
	</node>
	<node lat="69.36111944917874" lon="20.212052764368647" id="-100753">
		<tag k="fixme" v="consider natural=peak for the most distinct mountains in the district" />
		<tag k="name" v="Framfjellet" />
		<tag k="natural" v="hill" />
		<tag k="place" v="locality" />
		<tag k="ssr:stedsnr" v="540717" />
	</node>
	<node lat="69.31828611204759" lon="20.00791110301338" id="-100754">
		<tag k="name" v="Orritta" />
		<tag k="natural" v="hill" />
		<tag k="place" v="locality" />
		<tag k="ssr:stedsnr" v="540605" />
	</node>
	<node lat="69.36333888768462" lon="20.01728332148244" id="-100755">
		<tag k="name" v="Skolebakken" />
		<tag k="natural" v="slope" />
		<tag k="place" v="locality" />
		<tag k="ssr:stedsnr" v="540615" />
	</node>
	<node lat="69.15680000241645" lon="20.860108310947922" id="-100759">
		<tag k="fixme" v="consider natural=peak for the most distinct mountains in the district" />
		<tag k="name" v="Leattanjunni" />
		<tag k="name:se" v="Leattanjunni" />
		<tag k="natural" v="hill" />
		<tag k="place" v="locality" />
		<tag k="ssr:stedsnr" v="686956" />
	</node>
	<node lat="69.12196944990582" lon="21.055702750366322" id="-100761">
		<tag k="fixme" v="consider natural=peak for the most distinct mountains in the district" />
		<tag k="name" v="Áldovárri" />
		<tag k="name:se" v="Áldovárri" />
		<tag k="natural" v="hill" />
		<tag k="place" v="locality" />
		<tag k="ssr:stedsnr" v="687562" />
	</node>
	<node lat="69.22042499911157" lon="20.960141628284358" id="-100762">
		<tag k="fixme" v="consider natural=peak for the most distinct mountains in the district" />
		<tag k="name" v="Skihpaoaivi" />
		<tag k="name:se" v="Skihpaoaivi" />
		<tag k="natural" v="hill" />
		<tag k="place" v="locality" />
		<tag k="ssr:stedsnr" v="687984" />
	</node>
	<node lat="69.20811666387046" lon="20.585727765272317" id="-100763">
		<tag k="name" v="Rihporiidi" />
		<tag k="name:se" v="Rihporiidi" />
		<tag k="natural" v="slope" />
		<tag k="place" v="locality" />
		<tag k="ssr:stedsnr" v="687987" />
	</node>
	<node lat="69.23896666827169" lon="20.80355830739414" id="-100765">
		<tag k="fixme" v="consider natural=peak for the most distinct mountains in the district" />
		<tag k="name" v="Meahccenjaŋggut" />
		<tag k="name:se" v="Meahccenjaŋggut" />
		<tag k="natural" v="hill" />
		<tag k="place" v="locality" />
		<tag k="ssr:stedsnr" v="687996" />
	</node>
	<node lat="69.2836344188551" lon="19.99216657901769" id="-100767">
		<tag k="fixme" v="multiple name:fkv tags, choose one and add the other to alt_name:fkv; consider natural=peak for the most distinct mountains in the district" />
		<tag k="name" v="Hatten" />
		<tag k="name:fkv" v="Hattu;Iso-Hattu" />
		<tag k="name:no" v="Hatten" />
		<tag k="name:se" v="Háhtta" />
		<tag k="natural" v="hill" />
		<tag k="place" v="locality" />
		<tag k="ssr:stedsnr" v="564407" />
	</node>
	<node lat="69.33202499984601" lon="20.388658305457746" id="-100773">
		<tag k="fixme" v="consider natural=peak for the most distinct mountains in the district" />
		<tag k="name" v="Stolpefjellet" />
		<tag k="natural" v="hill" />
		<tag k="place" v="locality" />
		<tag k="ssr:stedsnr" v="564431" />
	</node>
	<node lat="69.24116388828112" lon="20.718199974124694" id="-100778">
		<tag k="fixme" v="consider natural=peak for the most distinct mountains in the district" />
		<tag k="name" v="Ráššavárnibba" />
		<tag k="name:se" v="Ráššavárnibba" />
		<tag k="natural" v="hill" />
		<tag k="place" v="locality" />
		<tag k="ssr:stedsnr" v="565992" />
	</node>
	<node lat="69.30636152864214" lon="20.047359371571698" id="-100780">
		<tag k="fixme" v="multiple name:se tags, choose one and add the other to alt_name:se; consider natural=peak for the most distinct mountains in the district" />
		<tag k="name" v="Horsnesfjellet" />
		<tag k="name:fkv" v="Horsnesinvaara" />
		<tag k="name:no" v="Horsnesfjellet" />
		<tag k="name:se" v="Horstagáisi;Čohkkugiettivárri" />
		<tag k="natural" v="hill" />
		<tag k="place" v="locality" />
		<tag k="ssr:stedsnr" v="570364" />
	</node>
	<node lat="69.35933888579338" lon="20.322661087047166" id="-100785">
		<tag k="name" v="Bjørnberget" />
		<tag k="name:fkv" v="Karhupahta" />
		<tag k="name:no" v="Bjørnberget" />
		<tag k="name:se" v="Biertnabákti" />
		<tag k="natural" v="hill" />
		<tag k="place" v="locality" />
		<tag k="ssr:stedsnr" v="578000" />
	</node>
	<node lat="69.26805555597532" lon="19.891886101843085" id="-100793">
		<tag k="loc_name:se" v="Ullegieddi" />
		<tag k="name" v="Ullvollen" />
		<tag k="name:no" v="Ullvollen" />
		<tag k="place" v="locality" />
		<tag k="ssr:stedsnr" v="599412" />
	</node>
	<node lat="69.3424694466299" lon="19.939944430364058" id="-100798">
		<tag k="name" v="Roassariidi" />
		<tag k="name:se" v="Roassariidi" />
		<tag k="natural" v="slope" />
		<tag k="place" v="locality" />
		<tag k="ssr:stedsnr" v="600506" />
	</node>
	<node lat="69.24643333564273" lon="19.9810999962546" id="-100801">
		<tag k="name" v="Åsen" />
		<tag k="natural" v="ridge" />
		<tag k="place" v="locality" />
		<tag k="ssr:stedsnr" v="600547" />
	</node>
	<node lat="69.35864722639056" lon="20.22632776771633" id="-100802">
		<tag k="name" v="Bjørnberget" />
		<tag k="natural" v="hill" />
		<tag k="place" v="locality" />
		<tag k="ssr:stedsnr" v="600713" />
	</node>
	<node lat="69.21769166602651" lon="20.685011077899134" id="-100803">
		<tag k="name" v="Steinbakken" />
		<tag k="natural" v="slope" />
		<tag k="place" v="locality" />
		<tag k="ssr:stedsnr" v="600950" />
	</node>
	<node lat="69.34980555429338" lon="19.92945276164931" id="-100810">
		<tag k="fixme" v="consider natural=peak for the most distinct mountains in the district" />
		<tag k="name" v="Riidavárri" />
		<tag k="name:se" v="Riidavárri" />
		<tag k="natural" v="hill" />
		<tag k="place" v="locality" />
		<tag k="ssr:stedsnr" v="625453" />
	</node>
	<node lat="69.30666944796496" lon="20.369986100646127" id="-100811">
		<tag k="fixme" v="multiple name:fkv tags, choose one and add the other to alt_name:fkv" />
		<tag k="name" v="Skibotndalen" />
		<tag k="name:fkv" v="Yykeänperänvankka;Yykeänvankka" />
		<tag k="name:no" v="Skibotndalen" />
		<tag k="name:se" v="Ivguvuovdi" />
		<tag k="natural" v="valley" />
		<tag k="place" v="locality" />
		<tag k="ssr:stedsnr" v="625379" />
	</node>
	<node lat="69.39983333750786" lon="20.27102221886159" id="-100814">
		<tag k="name" v="Storberget" />
		<tag k="name:fkv" v="Isopahta" />
		<tag k="name:no" v="Storberget" />
		<tag k="natural" v="hill" />
		<tag k="place" v="locality" />
		<tag k="ssr:stedsnr" v="703196" />
	</node>
	<node lat="69.35164722256988" lon="20.10279443593674" id="-100816">
		<tag k="name" v="Svartberget" />
		<tag k="name:fkv" v="Mustapahta" />
		<tag k="name:no" v="Svartberget" />
		<tag k="name:se" v="Čáhppesbákti" />
		<tag k="natural" v="hill" />
		<tag k="place" v="locality" />
		<tag k="ssr:stedsnr" v="703386" />
	</node>
	<node lat="69.3836000030739" lon="19.99988610658431" id="-100819">
		<tag k="name" v="Huldergammen" />
		<tag k="name:no" v="Huldergammen" />
		<tag k="name:se" v="Háldigoahti" />
		<tag k="natural" v="hill" />
		<tag k="place" v="locality" />
		<tag k="ssr:stedsnr" v="638083" />
	</node>
	<node lat="69.36609444837703" lon="19.902774996732326" id="-100826">
		<tag k="fixme" v="consider natural=peak for the most distinct mountains in the district" />
		<tag k="name" v="Kjølen" />
		<tag k="natural" v="hill" />
		<tag k="place" v="locality" />
		<tag k="ssr:stedsnr" v="660409" />
	</node>
	<node lat="69.28167222341652" lon="19.870011099802163" id="-100827">
		<tag k="fixme" v="consider natural=peak for the most distinct mountains in the district" />
		<tag k="name" v="Buefjellet" />
		<tag k="natural" v="hill" />
		<tag k="place" v="locality" />
		<tag k="ssr:stedsnr" v="660412" />
	</node>
	<node lat="69.33495833321" lon="19.90189166129372" id="-100828">
		<tag k="name" v="Roankiberget" />
		<tag k="natural" v="hill" />
		<tag k="place" v="locality" />
		<tag k="ssr:stedsnr" v="660392" />
	</node>
	<node lat="69.36783055803055" lon="20.3299083209682" id="-100829">
		<tag k="name" v="Rittagurra" />
		<tag k="name:se" v="Rittagurra" />
		<tag k="natural" v="valley" />
		<tag k="place" v="locality" />
		<tag k="ssr:stedsnr" v="661008" />
	</node>
	<node lat="69.39009444453467" lon="20.112905530983497" id="-100836">
		<tag k="name" v="Rohtobákti" />
		<tag k="name:se" v="Rohtobákti" />
		<tag k="natural" v="hill" />
		<tag k="place" v="locality" />
		<tag k="ssr:stedsnr" v="661692" />
	</node>
	<node lat="69.36686388885647" lon="20.2268222184036" id="-100838">
		<tag k="name" v="Márjágurra" />
		<tag k="name:se" v="Márjágurra" />
		<tag k="natural" v="valley" />
		<tag k="place" v="locality" />
		<tag k="ssr:stedsnr" v="661703" />
	</node>
	<node lat="69.18108888827697" lon="20.755199988800875" id="-100839">
		<tag k="name" v="Russänmutka" />
		<tag k="name:fkv" v="Russänmutka" />
		<tag k="natural" v="valley" />
		<tag k="place" v="locality" />
		<tag k="ssr:stedsnr" v="661906" />
	</node>
	<node lat="69.4136750019419" lon="20.4044222051593" id="-100849">
		<tag k="name" v="Midtskardet" />
		<tag k="natural" v="valley" />
		<tag k="place" v="locality" />
		<tag k="ssr:stedsnr" v="686488" />
	</node>
	<node lat="69.30049166522872" lon="20.640944413312127" id="-100852">
		<tag k="fixme" v="consider natural=peak for the most distinct mountains in the district" />
		<tag k="name" v="Stállobornippat" />
		<tag k="name:se" v="Stállobornippat" />
		<tag k="natural" v="hill" />
		<tag k="place" v="locality" />
		<tag k="ssr:stedsnr" v="686539" />
	</node>
	<node lat="69.26676476491765" lon="19.96845029331941" id="-100853">
		<tag k="name" v="Brenna" />
		<tag k="name:fkv" v="Palo" />
		<tag k="name:no" v="Brenna" />
		<tag k="name:se" v="Buollán" />
		<tag k="place" v="locality" />
		<tag k="ssr:stedsnr" v="686594" />
	</node>
	<node lat="69.2589555592155" lon="19.83196110019722" id="-100854">
		<tag k="name" v="Tverrdalen - Doaresvággi" />
		<tag k="name:no" v="Tverrdalen" />
		<tag k="name:se" v="Doaresvággi" />
		<tag k="natural" v="valley" />
		<tag k="place" v="locality" />
		<tag k="ssr:stedsnr" v="686597" />
	</node>
	<node lat="69.2859499986786" lon="20.46078053289516" id="-100856">
		<tag k="alt_name" v="Langbakken" />
		<tag k="name" v="Langbakkan" />
		<tag k="natural" v="slope" />
		<tag k="place" v="locality" />
		<tag k="ssr:stedsnr" v="686706" />
	</node>
	<node lat="69.13382500354537" lon="20.94647498347676" id="-100858">
		<tag k="fixme" v="consider natural=peak for the most distinct mountains in the district" />
		<tag k="name" v="Leattan" />
		<tag k="name:se" v="Leattan" />
		<tag k="natural" v="hill" />
		<tag k="place" v="locality" />
		<tag k="ssr:stedsnr" v="686939" />
	</node>
	<node lat="69.3847361118257" lon="20.317363871842716" id="-100861">
		<tag k="name" v="Nergohpi" />
		<tag k="name:fkv" v="Ala-Kuppa" />
		<tag k="name:no" v="Nergohpi" />
		<tag k="natural" v="valley" />
		<tag k="place" v="locality" />
		<tag k="ssr:stedsnr" v="699915" />
	</node>
	<node lat="69.26530277933142" lon="19.883647200220366" id="-100869">
		<tag k="loc_name:se" v="Gusadievvá" />
		<tag k="name" v="Kubakken" />
		<tag k="name:no" v="Kubakken" />
		<tag k="natural" v="slope" />
		<tag k="place" v="locality" />
		<tag k="ssr:stedsnr" v="721413" />
	</node>
	<node lat="69.16235278076289" lon="20.044327769767268" id="-100872">
		<tag k="name" v="Signalnesmoen" />
		<tag k="place" v="locality" />
		<tag k="ssr:stedsnr" v="722378" />
	</node>
	<node lat="69.33824444887738" lon="19.938474988957342" id="-100873">
		<tag k="name" v="Stállovággi" />
		<tag k="name:se" v="Stállovággi" />
		<tag k="natural" v="valley" />
		<tag k="place" v="locality" />
		<tag k="ssr:stedsnr" v="722503" />
	</node>
	<node lat="69.09290833307041" lon="20.109988882440913" id="-100875">
		<tag k="name" v="Storbakken" />
		<tag k="natural" v="slope" />
		<tag k="place" v="locality" />
		<tag k="ssr:stedsnr" v="722720" />
	</node>
	<node lat="69.25341111432182" lon="20.594466639117755" id="-100876">
		<tag k="name" v="Gabaganbákti" />
		<tag k="name:se" v="Gabaganbákti" />
		<tag k="natural" v="hill" />
		<tag k="place" v="locality" />
		<tag k="ssr:stedsnr" v="722917" />
	</node>
	<node lat="69.32028948652768" lon="20.401951753270986" id="-100887">
		<tag k="name" v="Bærdalen" />
		<tag k="name:fkv" v="Marjavaaranmukka" />
		<tag k="name:no" v="Bærdalen" />
		<tag k="natural" v="valley" />
		<tag k="place" v="locality" />
		<tag k="ssr:stedsnr" v="746421" />
	</node>
	<node lat="69.40676111206707" lon="20.280369419924316" id="-100893">
		<tag k="fixme" v="consider natural=peak for the most distinct mountains in the district" />
		<tag k="name" v="Lokoaivi" />
		<tag k="name:se" v="Lokoaivi" />
		<tag k="natural" v="hill" />
		<tag k="place" v="locality" />
		<tag k="ssr:stedsnr" v="904093" />
	</node>
	<node lat="69.37006111261843" lon="20.227697216738946" id="-100898">
		<tag k="name" v="Latnja" />
		<tag k="name:se" v="Latnja" />
		<tag k="natural" v="slope" />
		<tag k="place" v="locality" />
		<tag k="ssr:stedsnr" v="904239" />
	</node>
	<node lat="69.28059166666708" lon="19.96371387317885" id="-100900">
		<tag k="name" v="Harelemmen" />
		<tag k="natural" v="hill" />
		<tag k="place" v="locality" />
		<tag k="ssr:stedsnr" v="904431" />
	</node>
	<node lat="69.33507777944119" lon="19.953130534781476" id="-100901">
		<tag k="name" v="Rásttoš" />
		<tag k="name:se" v="Rásttoš" />
		<tag k="natural" v="hill" />
		<tag k="place" v="locality" />
		<tag k="ssr:stedsnr" v="904524" />
	</node>
	<node lat="69.16757500239912" lon="20.017969429242186" id="-100902">
		<tag k="name" v="Kleiva" />
		<tag k="natural" v="slope" />
		<tag k="place" v="locality" />
		<tag k="ssr:stedsnr" v="904358" />
	</node>
	<node lat="69.34229721964005" lon="19.905302759686123" id="-100903">
		<tag k="loc_name:se" v="Juopmobákti" />
		<tag k="name" v="Surgrasberget" />
		<tag k="name:no" v="Surgrasberget" />
		<tag k="natural" v="hill" />
		<tag k="place" v="locality" />
		<tag k="ssr:stedsnr" v="904370" />
	</node>
	<node lat="69.28852499809094" lon="19.913466653634067" id="-100905">
		<tag k="loc_name:se" v="Bellehačorru" />
		<tag k="name" v="Bellikabakken" />
		<tag k="name:no" v="Bellikabakken" />
		<tag k="natural" v="slope" />
		<tag k="place" v="locality" />
		<tag k="ssr:stedsnr" v="904576" />
	</node>
	<node lat="69.37826388654133" lon="20.001974987967664" id="-100906">
		<tag k="name" v="Piennaragorsa" />
		<tag k="name:se" v="Piennaragorsa" />
		<tag k="natural" v="valley" />
		<tag k="place" v="locality" />
		<tag k="ssr:stedsnr" v="904532" />
	</node>
	<node lat="69.38740833126572" lon="20.099858322442604" id="-100907">
		<tag k="name" v="Gohpi" />
		<tag k="name:se" v="Gohpi" />
		<tag k="natural" v="valley" />
		<tag k="place" v="locality" />
		<tag k="ssr:stedsnr" v="904722" />
	</node>
	<node lat="69.30067500048821" lon="20.427102760312035" id="-100908">
		<tag k="name" v="Lullemoen" />
		<tag k="place" v="locality" />
		<tag k="ssr:stedsnr" v="904967" />
	</node>
	<node lat="69.20905277851288" lon="19.96489719925353" id="-100921">
		<tag k="name" v="Fossbakken" />
		<tag k="natural" v="slope" />
		<tag k="place" v="locality" />
		<tag k="ssr:stedsnr" v="782457" />
	</node>
	<node lat="69.36263333809406" lon="20.233505530060796" id="-100924">
		<tag k="name" v="Velma" />
		<tag k="natural" v="slope" />
		<tag k="place" v="locality" />
		<tag k="ssr:stedsnr" v="783203" />
	</node>
	<node lat="69.36429999851275" lon="20.245499971293217" id="-100925">
		<tag k="name" v="Keskistealli" />
		<tag k="name:se" v="Keskistealli" />
		<tag k="place" v="locality" />
		<tag k="ssr:stedsnr" v="783204" />
	</node>
	<node lat="69.34077499958927" lon="19.919630546866195" id="-100926">
		<tag k="name" v="Gomubákti" />
		<tag k="name:se" v="Gomubákti" />
		<tag k="natural" v="hill" />
		<tag k="place" v="locality" />
		<tag k="ssr:stedsnr" v="783521" />
	</node>
	<node lat="69.07682777713252" lon="21.07717497479764" id="-100942">
		<tag k="fixme" v="consider natural=peak for the most distinct mountains in the district" />
		<tag k="name" v="Deamádanvárri" />
		<tag k="name:se" v="Deamádanvárri" />
		<tag k="natural" v="hill" />
		<tag k="place" v="locality" />
		<tag k="ssr:stedsnr" v="808544" />
	</node>
	<node lat="69.23977499967371" lon="20.47483886655605" id="-100943">
		<tag k="name" v="Stuoratoaimoski" />
		<tag k="name:se" v="Stuoratoaimoski" />
		<tag k="natural" v="valley" />
		<tag k="place" v="locality" />
		<tag k="ssr:stedsnr" v="808997" />
	</node>
	<node lat="69.37655555806911" lon="20.31821387641908" id="-100947">
		<tag k="name" v="Storluohkka" />
		<tag k="name:fkv" v="Isoluokka" />
		<tag k="name:se" v="Storluohkka" />
		<tag k="natural" v="slope" />
		<tag k="place" v="locality" />
		<tag k="ssr:stedsnr" v="825124" />
	</node>
	<node lat="69.36864167059764" lon="20.189905540183542" id="-100953">
		<tag k="name" v="Falsnesgropa" />
		<tag k="natural" v="valley" />
		<tag k="place" v="locality" />
		<tag k="ssr:stedsnr" v="844208" />
	</node>
	<node lat="69.43111389104513" lon="20.388722197311015" id="-100960">
		<tag k="name" v="Ytterskardet" />
		<tag k="natural" v="valley" />
		<tag k="place" v="locality" />
		<tag k="ssr:stedsnr" v="928233" />
	</node>
	<node lat="69.11829999986887" lon="20.328922208172735" id="-100962">
		<tag k="fixme" v="consider natural=peak for the most distinct mountains in the district" />
		<tag k="name" v="Márkos-Malla" />
		<tag k="name:se" v="Márkos-Malla" />
		<tag k="natural" v="hill" />
		<tag k="place" v="locality" />
		<tag k="ssr:stedsnr" v="928249" />
	</node>
	<node lat="69.14882778185766" lon="20.257208312012175" id="-100964">
		<tag k="name" v="Márkosvádjáčahca" />
		<tag k="name:se" v="Márkosvádjáčahca" />
		<tag k="natural" v="valley" />
		<tag k="place" v="locality" />
		<tag k="ssr:stedsnr" v="928271" />
	</node>
	<node lat="69.40117499688273" lon="19.890199995045684" id="-100966">
		<tag k="fixme" v="consider natural=peak for the most distinct mountains in the district" />
		<tag k="name" v="Nállančohkka" />
		<tag k="name:se" v="Nállančohkka" />
		<tag k="natural" v="hill" />
		<tag k="place" v="locality" />
		<tag k="ssr:stedsnr" v="928436" />
	</node>
	<node lat="69.29100277783039" lon="20.47000554657726" id="-100969">
		<tag k="alt_name:no" v="Rundfjellet, store" />
		<tag k="fixme" v="consider natural=peak for the most distinct mountains in the district" />
		<tag k="name" v="Store Rundfjellet - Jorbavárri" />
		<tag k="name:no" v="Store Rundfjellet" />
		<tag k="name:se" v="Jorbavárri" />
		<tag k="natural" v="hill" />
		<tag k="place" v="locality" />
		<tag k="ssr:stedsnr" v="928494" />
	</node>
	<node lat="69.07813333759181" lon="20.408847204768378" id="-100973">
		<tag k="name" v="Čiekŋalgorsa" />
		<tag k="name:se" v="Čiekŋalgorsa" />
		<tag k="natural" v="valley" />
		<tag k="place" v="locality" />
		<tag k="ssr:stedsnr" v="929240" />
	</node>
	<node lat="69.17325744360653" lon="20.298557960469175" id="-100979">
		<tag k="fixme" v="consider natural=peak for the most distinct mountains in the district" />
		<tag k="name" v="Oksefjellet - Heargevárit" />
		<tag k="name:fkv" v="Härkävaara" />
		<tag k="name:no" v="Oksefjellet" />
		<tag k="name:se" v="Heargevárit" />
		<tag k="natural" v="hill" />
		<tag k="place" v="locality" />
		<tag k="ssr:stedsnr" v="929298" />
	</node>
	<node lat="69.29291666427042" lon="20.364758307834833" id="-100981">
		<tag k="fixme" v="multiple name:fkv tags, choose one and add the other to alt_name:fkv; consider natural=peak for the most distinct mountains in the district" />
		<tag k="name" v="Norddalsfjellet" />
		<tag k="name:fkv" v="Nuorttuvaara;Nuorttuvajanvaara" />
		<tag k="name:no" v="Norddalsfjellet" />
		<tag k="name:se" v="Nuortaváhoaivi" />
		<tag k="natural" v="hill" />
		<tag k="place" v="locality" />
		<tag k="ssr:stedsnr" v="929375" />
	</node>
	<node lat="69.38255277726422" lon="20.391388863663657" id="-100986">
		<tag k="name" v="Ádjetvággi" />
		<tag k="name:se" v="Ádjetvággi" />
		<tag k="natural" v="valley" />
		<tag k="place" v="locality" />
		<tag k="ssr:stedsnr" v="929474" />
	</node>
	<node lat="69.20159999871153" lon="20.22532776951633" id="-100996">
		<tag k="name" v="Siktagurra" />
		<tag k="natural" v="valley" />
		<tag k="place" v="locality" />
		<tag k="ssr:stedsnr" v="868310" />
	</node>
	<node lat="69.2039527747862" lon="20.25628608360111" id="-100999">
		<tag k="fixme" v="consider natural=peak for the most distinct mountains in the district" />
		<tag k="name" v="Čazavárri" />
		<tag k="name:se" v="Čazavárri" />
		<tag k="natural" v="hill" />
		<tag k="place" v="locality" />
		<tag k="ssr:stedsnr" v="868325" />
	</node>
	<node lat="69.221697222646" lon="20.62607498180711" id="-101005">
		<tag k="alt_name:se" v="Busesgurra" />
		<tag k="name" v="Buvssasgurra" />
		<tag k="name:se" v="Buvssasgurra" />
		<tag k="natural" v="valley" />
		<tag k="place" v="locality" />
		<tag k="ssr:stedsnr" v="869983" />
	</node>
	<node lat="69.22531666723683" lon="20.67048053532811" id="-101006">
		<tag k="name" v="Baseguolbanat" />
		<tag k="name:se" v="Baseguolbanat" />
		<tag k="natural" v="valley" />
		<tag k="place" v="locality" />
		<tag k="ssr:stedsnr" v="869986" />
	</node>
	<node lat="69.11574444395931" lon="20.0109110852273" id="-101008">
		<tag k="fixme" v="consider natural=peak for the most distinct mountains in the district" />
		<tag k="name" v="Vassdalstinden" />
		<tag k="name:no" v="Vassdalstinden" />
		<tag k="name:se" v="Čáhceváhgáisi" />
		<tag k="natural" v="hill" />
		<tag k="place" v="locality" />
		<tag k="ssr:stedsnr" v="932285" />
	</node>
	<node lat="69.35915278261535" lon="20.391516642520745" id="-101017">
		<tag k="name" v="Oktilasnjunni" />
		<tag k="name:se" v="Oktilasnjunni" />
		<tag k="natural" v="hill" />
		<tag k="place" v="locality" />
		<tag k="ssr:stedsnr" v="904008" />
	</node>
	<node lat="69.36418610921122" lon="20.256613864530618" id="-101020">
		<tag k="name" v="Himmelgleden" />
		<tag k="place" v="locality" />
		<tag k="ssr:stedsnr" v="904257" />
	</node>
	<node lat="69.32506388580413" lon="20.086994432423634" id="-101022">
		<tag k="loc_name:se" v="Moskkujeaggi" />
		<tag k="name" v="Mosebakkan" />
		<tag k="name:no" v="Mosebakkan" />
		<tag k="natural" v="slope" />
		<tag k="place" v="locality" />
		<tag k="ssr:stedsnr" v="904703" />
	</node>
	<node lat="69.40155555194818" lon="20.117911092748162" id="-101023">
		<tag k="loc_name:se" v="Stuoraroggi" />
		<tag k="name" v="Storgropa" />
		<tag k="name:no" v="Storgropa" />
		<tag k="natural" v="valley" />
		<tag k="place" v="locality" />
		<tag k="ssr:stedsnr" v="904702" />
	</node>
	<node lat="69.19640000231493" lon="20.19468330953534" id="-101029">
		<tag k="name" v="Orjjessuorggičahca" />
		<tag k="name:se" v="Orjjessuorggičahca" />
		<tag k="natural" v="valley" />
		<tag k="place" v="locality" />
		<tag k="ssr:stedsnr" v="929310" />
	</node>
	<node lat="69.247241665645" lon="20.939027749673972" id="-101033">
		<tag k="fixme" v="consider natural=peak for the most distinct mountains in the district" />
		<tag k="name" v="Ráššagieddeoaivi" />
		<tag k="name:se" v="Ráššagieddeoaivi" />
		<tag k="natural" v="hill" />
		<tag k="place" v="locality" />
		<tag k="ssr:stedsnr" v="929998" />
	</node>
	<node lat="69.24000833493449" lon="20.430049969628193" id="-101034">
		<tag k="fixme" v="consider natural=peak for the most distinct mountains in the district" />
		<tag k="name" v="Lávkavárri" />
		<tag k="name:se" v="Lávkavárri" />
		<tag k="natural" v="hill" />
		<tag k="place" v="locality" />
		<tag k="ssr:stedsnr" v="929999" />
	</node>
	<node lat="69.37362500096677" lon="20.29153886167147" id="-101036">
		<tag k="name" v="Olderbakken" />
		<tag k="name:fkv" v="Leppäluokka" />
		<tag k="name:no" v="Olderbakken" />
		<tag k="name:se" v="Leaibeluohkká" />
		<tag k="natural" v="slope" />
		<tag k="place" v="locality" />
		<tag k="ssr:stedsnr" v="937925" />
	</node>
	<node lat="69.09986666423528" lon="20.036008312987722" id="-101042">
		<tag k="fixme" v="consider natural=peak for the most distinct mountains in the district" />
		<tag k="name" v="Tverrelvtinden" />
		<tag k="natural" v="hill" />
		<tag k="place" v="locality" />
		<tag k="ssr:stedsnr" v="959616" />
	</node>
	<node lat="69.36575555768734" lon="20.27741110537027" id="-101049">
		<tag k="name" v="Brubakken" />
		<tag k="natural" v="slope" />
		<tag k="place" v="locality" />
		<tag k="ssr:stedsnr" v="965009" />
	</node>
	<node lat="69.30856944209215" lon="19.925802751222054" id="-101052">
		<tag k="name" v="Gohpi" />
		<tag k="name:se" v="Gohpi" />
		<tag k="natural" v="valley" />
		<tag k="place" v="locality" />
		<tag k="ssr:stedsnr" v="965605" />
	</node>
	<node lat="69.29098333656711" lon="19.963241652963216" id="-101054">
		<tag k="name" v="Høvesteinen" />
		<tag k="natural" v="hill" />
		<tag k="place" v="locality" />
		<tag k="ssr:stedsnr" v="965622" />
	</node>
	<node lat="69.38511110960007" lon="20.09274999390258" id="-101055">
		<tag k="name" v="Buollángáddi" />
		<tag k="name:se" v="Buollángáddi" />
		<tag k="natural" v="slope" />
		<tag k="place" v="locality" />
		<tag k="ssr:stedsnr" v="965741" />
	</node>
	<node lat="69.14559166369114" lon="20.767855535910083" id="-101056">
		<tag k="name" v="Gálggogohpi" />
		<tag k="name:se" v="Gálggogohpi" />
		<tag k="natural" v="valley" />
		<tag k="place" v="locality" />
		<tag k="ssr:stedsnr" v="965908" />
	</node>
	<node lat="69.19268333349542" lon="20.724094429563102" id="-101059">
		<tag k="name" v="Dápmottörmä" />
		<tag k="name:fkv" v="Dápmottörmä" />
		<tag k="natural" v="slope" />
		<tag k="place" v="locality" />
		<tag k="ssr:stedsnr" v="965900" />
	</node>
	<node lat="69.23122323234949" lon="20.02409583083041" id="-101081">
		<tag k="fixme" v="consider natural=peak for the most distinct mountains in the district" />
		<tag k="name" v="Mannfjellaksla - Geađgámas" />
		<tag k="name:fkv" v="Kelkame" />
		<tag k="name:no" v="Mannfjellaksla" />
		<tag k="name:se" v="Geađgámas" />
		<tag k="natural" v="hill" />
		<tag k="place" v="locality" />
		<tag k="ssr:stedsnr" v="18317" />
	</node>
	<node lat="69.39354722286322" lon="20.41252220492827" id="-101085">
		<tag k="fixme" v="consider natural=peak for the most distinct mountains in the district" />
		<tag k="name" v="Bálggesvárri" />
		<tag k="name:se" v="Bálggesvárri" />
		<tag k="natural" v="hill" />
		<tag k="place" v="locality" />
		<tag k="ssr:stedsnr" v="18451" />
	</node>
	<node lat="69.26949166369462" lon="20.363524989186573" id="-101092">
		<tag k="name" v="Norddalen" />
		<tag k="name:fkv" v="Nuorttuvankka" />
		<tag k="name:no" v="Norddalen" />
		<tag k="name:se" v="Nuortavággi" />
		<tag k="natural" v="valley" />
		<tag k="place" v="locality" />
		<tag k="ssr:stedsnr" v="18545" />
	</node>
	<node lat="69.25471111133459" lon="20.73134997916974" id="-101093">
		<tag k="fixme" v="consider natural=peak for the most distinct mountains in the district" />
		<tag k="name" v="Suonjerčohkka" />
		<tag k="name:se" v="Suonjerčohkka" />
		<tag k="natural" v="hill" />
		<tag k="place" v="locality" />
		<tag k="ssr:stedsnr" v="18630" />
	</node>
	<node lat="69.18620832976733" lon="19.928572217289386" id="-101096">
		<tag k="fixme" v="consider natural=peak for the most distinct mountains in the district" />
		<tag k="name" v="Saunakken" />
		<tag k="natural" v="hill" />
		<tag k="place" v="locality" />
		<tag k="ssr:stedsnr" v="19329" />
	</node>
	<node lat="69.35179444534934" lon="20.49561109200607" id="-101098">
		<tag k="name" v="Ádjetčahca" />
		<tag k="name:se" v="Ádjetčahca" />
		<tag k="natural" v="valley" />
		<tag k="place" v="locality" />
		<tag k="ssr:stedsnr" v="19534" />
	</node>
	<node lat="69.11990909524519" lon="20.71727116049926" id="-101099">
		<tag k="fixme" v="consider natural=peak for the most distinct mountains in the district" />
		<tag k="name" v="Bossovárri - Possovaara" />
		<tag k="name:fkv" v="Possovaara" />
		<tag k="name:se" v="Bossovárri" />
		<tag k="natural" v="hill" />
		<tag k="place" v="locality" />
		<tag k="ssr:stedsnr" v="19933" />
	</node>
	<node lat="69.37538300163087" lon="20.011386953175915" id="-101119">
		<tag k="name" v="Lilledalen" />
		<tag k="name:no" v="Lilledalen" />
		<tag k="name:se" v="Vákkáš" />
		<tag k="natural" v="valley" />
		<tag k="place" v="locality" />
		<tag k="ssr:stedsnr" v="36950" />
	</node>
	<node lat="69.37299722572405" lon="20.25521666286883" id="-101126">
		<tag k="name" v="Lettavollen" />
		<tag k="place" v="locality" />
		<tag k="ssr:stedsnr" v="55121" />
	</node>
	<node lat="69.40873333155116" lon="20.139988860757768" id="-101131">
		<tag k="name" v="Vaddas" />
		<tag k="name:se" v="Vaddas" />
		<tag k="natural" v="hill" />
		<tag k="place" v="locality" />
		<tag k="ssr:stedsnr" v="55688" />
	</node>
	<node lat="69.35465000217596" lon="20.10566943045498" id="-101132">
		<tag k="loc_name:se" v="Ruovddáš" />
		<tag k="name" v="Ruohtas" />
		<tag k="name:se" v="Ruohtas" />
		<tag k="natural" v="valley" />
		<tag k="place" v="locality" />
		<tag k="ssr:stedsnr" v="55699" />
	</node>
	<node lat="69.3423138869218" lon="19.94556388390171" id="-101133">
		<tag k="name" v="Čorru" />
		<tag k="name:se" v="Čorru" />
		<tag k="natural" v="hill" />
		<tag k="place" v="locality" />
		<tag k="ssr:stedsnr" v="55514" />
	</node>
	<node lat="69.29621666423371" lon="20.50226943555327" id="-101134">
		<tag k="name" v="Speinnahumpa" />
		<tag k="name:se" v="Speinnahumpa" />
		<tag k="natural" v="hill" />
		<tag k="place" v="locality" />
		<tag k="ssr:stedsnr" v="55930" />
	</node>
	<node lat="69.29280833090733" lon="20.46007775740215" id="-101135">
		<tag k="fixme" v="consider natural=peak for the most distinct mountains in the district" />
		<tag k="name" v="Rundfjellet" />
		<tag k="natural" v="hill" />
		<tag k="place" v="locality" />
		<tag k="ssr:stedsnr" v="55956" />
	</node>
	<node lat="69.05057500066603" lon="20.15683053127604" id="-101142">
		<tag k="name" v="Njearreláhku" />
		<tag k="name:se" v="Njearreláhku" />
		<tag k="natural" v="valley" />
		<tag k="place" v="locality" />
		<tag k="ssr:stedsnr" v="79254" />
	</node>
	<node lat="69.12048333343886" lon="20.160627759736723" id="-101145">
		<tag k="loc_name:se" v="Bulljarasvuovdi" />
		<tag k="name" v="Stordalen" />
		<tag k="name:no" v="Stordalen" />
		<tag k="natural" v="valley" />
		<tag k="place" v="locality" />
		<tag k="ssr:stedsnr" v="79268" />
	</node>
	<node lat="69.23837499689827" lon="20.289086082109023" id="-101147">
		<tag k="name" v="Viessogasvággi" />
		<tag k="name:se" v="Viessogasvággi" />
		<tag k="natural" v="valley" />
		<tag k="place" v="locality" />
		<tag k="ssr:stedsnr" v="79357" />
	</node>
	<node lat="69.17731111324325" lon="20.06988053560182" id="-101148">
		<tag k="name" v="Kortelvskardet" />
		<tag k="natural" v="valley" />
		<tag k="place" v="locality" />
		<tag k="ssr:stedsnr" v="79314" />
	</node>
	<node lat="69.19708610939641" lon="19.93430276127904" id="-101149">
		<tag k="name" v="Luhppuráigi" />
		<tag k="name:se" v="Luhppuráigi" />
		<tag k="natural" v="valley" />
		<tag k="place" v="locality" />
		<tag k="ssr:stedsnr" v="79330" />
	</node>
	<node lat="69.32587090367895" lon="20.369840265880352" id="-101150">
		<tag k="fixme" v="consider natural=peak for the most distinct mountains in the district" />
		<tag k="name" v="Brennfjellet" />
		<tag k="name:fkv" v="Puolamavaara" />
		<tag k="name:no" v="Brennfjellet" />
		<tag k="name:se" v="Buollánvárri" />
		<tag k="natural" v="hill" />
		<tag k="place" v="locality" />
		<tag k="ssr:stedsnr" v="79396" />
	</node>
	<node lat="69.39403332951993" lon="19.973563882237418" id="-101156">
		<tag k="name" v="Steindalen" />
		<tag k="name:no" v="Steindalen" />
		<tag k="name:se" v="Gievdanvággi" />
		<tag k="natural" v="valley" />
		<tag k="place" v="locality" />
		<tag k="ssr:stedsnr" v="79461" />
	</node>
	<node lat="69.36834999891269" lon="20.41108054721502" id="-101159">
		<tag k="fixme" v="consider natural=peak for the most distinct mountains in the district" />
		<tag k="name" v="Ádjit" />
		<tag k="name:se" v="Ádjit" />
		<tag k="natural" v="hill" />
		<tag k="old_name:se" v="Adjit" />
		<tag k="place" v="locality" />
		<tag k="ssr:stedsnr" v="79439" />
	</node>
	<node lat="69.29679166934802" lon="20.430297212980125" id="-101160">
		<tag k="name" v="Silobakken" />
		<tag k="natural" v="slope" />
		<tag k="place" v="locality" />
		<tag k="ssr:stedsnr" v="79520" />
	</node>
	<node lat="69.28201944260975" lon="20.4813166380328" id="-101168">
		<tag k="name" v="Lappgropa - Bahágurra" />
		<tag k="name:no" v="Lappgropa" />
		<tag k="name:se" v="Bahágurra" />
		<tag k="natural" v="valley" />
		<tag k="place" v="locality" />
		<tag k="ssr:stedsnr" v="79655" />
	</node>
	<node lat="69.27721111571117" lon="20.679238874332484" id="-101170">
		<tag k="name" v="Bajit Doggeoaivi" />
		<tag k="name:se" v="Bajit Doggeoaivi" />
		<tag k="natural" v="hill" />
		<tag k="old_name:se" v="Doggeoaivi, bajit" />
		<tag k="place" v="locality" />
		<tag k="ssr:stedsnr" v="79669" />
	</node>
	<node lat="69.23840555240578" lon="20.82464997870702" id="-101175">
		<tag k="name" v="Meahccevággi" />
		<tag k="name:se" v="Meahccevággi" />
		<tag k="natural" v="valley" />
		<tag k="place" v="locality" />
		<tag k="ssr:stedsnr" v="80998" />
	</node>
	<node lat="69.13018610912108" lon="20.872533299373135" id="-101176">
		<tag k="fixme" v="consider natural=peak for the most distinct mountains in the district" />
		<tag k="name" v="Gárášoaivi" />
		<tag k="name:se" v="Gárášoaivi" />
		<tag k="natural" v="hill" />
		<tag k="place" v="locality" />
		<tag k="ssr:stedsnr" v="80951" />
	</node>
	<node lat="69.13924166468405" lon="20.91819998396609" id="-101177">
		<tag k="fixme" v="consider natural=peak for the most distinct mountains in the district" />
		<tag k="name" v="Allaleattan" />
		<tag k="name:se" v="Allaleattan" />
		<tag k="natural" v="hill" />
		<tag k="place" v="locality" />
		<tag k="ssr:stedsnr" v="80953" />
	</node>
	<node lat="69.1675277761436" lon="20.558349972971868" id="-101178">
		<tag k="name" v="Ollenjoaski" />
		<tag k="name:se" v="Ollenjoaski" />
		<tag k="natural" v="slope" />
		<tag k="place" v="locality" />
		<tag k="ssr:stedsnr" v="80966" />
	</node>
	<node lat="69.18277499691263" lon="20.49252775697859" id="-101179">
		<tag k="fixme" v="consider natural=peak for the most distinct mountains in the district" />
		<tag k="name" v="Ruksesgáisi" />
		<tag k="name:se" v="Ruksesgáisi" />
		<tag k="natural" v="hill" />
		<tag k="place" v="locality" />
		<tag k="ssr:stedsnr" v="80974" />
	</node>
	<node lat="69.19374722220938" lon="20.537838860149414" id="-101182">
		<tag k="fixme" v="consider natural=peak for the most distinct mountains in the district" />
		<tag k="name" v="Rihpogáisi" />
		<tag k="name:se" v="Rihpogáisi" />
		<tag k="natural" v="hill" />
		<tag k="place" v="locality" />
		<tag k="ssr:stedsnr" v="80980" />
	</node>
	<node lat="69.31404722021887" lon="20.37776664892464" id="-101186">
		<tag k="name" v="Rattumoen" />
		<tag k="name:fkv" v="Ratturova" />
		<tag k="name:no" v="Rattumoen" />
		<tag k="place" v="locality" />
		<tag k="ssr:stedsnr" v="92421" />
	</node>
	<node lat="69.40766388734163" lon="20.27975276269625" id="-101189">
		<tag k="name" v="Gorso" />
		<tag k="name:fkv" v="Ruikkatanjoenkursu" />
		<tag k="name:no" v="Gorso" />
		<tag k="natural" v="valley" />
		<tag k="place" v="locality" />
		<tag k="ssr:stedsnr" v="92835" />
	</node>
	<node lat="69.36189166692516" lon="20.129191649725882" id="-101192">
		<tag k="name" v="Storberget" />
		<tag k="name:fkv" v="Isopahta" />
		<tag k="name:no" v="Storberget" />
		<tag k="name:se" v="Stuorabákti" />
		<tag k="natural" v="hill" />
		<tag k="place" v="locality" />
		<tag k="ssr:stedsnr" v="97055" />
	</node>
	<node lat="69.25554722239244" lon="19.95415554426791" id="-101200">
		<tag k="name" v="Kronfurua" />
		<tag k="natural" v="hill" />
		<tag k="place" v="locality" />
		<tag k="ssr:stedsnr" v="115543" />
	</node>
	<node lat="69.29857221921148" lon="19.996924975592602" id="-101202">
		<tag k="name" v="Vedhøgga" />
		<tag k="natural" v="slope" />
		<tag k="place" v="locality" />
		<tag k="ssr:stedsnr" v="115572" />
	</node>
	<node lat="69.37040833392598" lon="20.219266656489598" id="-101203">
		<tag k="name" v="Sankthanshaugen" />
		<tag k="natural" v="hill" />
		<tag k="place" v="locality" />
		<tag k="ssr:stedsnr" v="115240" />
	</node>
	<node lat="69.36164166423659" lon="20.23643886041152" id="-101205">
		<tag k="name" v="Bjørnberget" />
		<tag k="natural" v="hill" />
		<tag k="place" v="locality" />
		<tag k="ssr:stedsnr" v="115259" />
	</node>
	<node lat="69.11065277554238" lon="20.13907219463666" id="-101208">
		<tag k="fixme" v="consider natural=peak for the most distinct mountains in the district" />
		<tag k="name" v="Paras" />
		<tag k="natural" v="hill" />
		<tag k="place" v="locality" />
		<tag k="ssr:stedsnr" v="115662" />
	</node>
	<node lat="69.12872777761804" lon="20.090947214558682" id="-101209">
		<tag k="name" v="Grønngrubba" />
		<tag k="natural" v="hill" />
		<tag k="place" v="locality" />
		<tag k="ssr:stedsnr" v="115665" />
	</node>
	<node lat="69.42646111279724" lon="20.30378053060155" id="-101212">
		<tag k="name" v="Røykenesbuktskaret" />
		<tag k="natural" v="valley" />
		<tag k="place" v="locality" />
		<tag k="ssr:stedsnr" v="115995" />
	</node>
	<node lat="69.0674361100056" lon="20.273713883591693" id="-101220">
		<tag k="alt_name" v="Skjærdalen, nedre" />
		<tag k="name" v="Nedre Skjærdalen" />
		<tag k="natural" v="valley" />
		<tag k="place" v="locality" />
		<tag k="ssr:stedsnr" v="139269" />
	</node>
	<node lat="69.29435277925762" lon="19.852797213876137" id="-101227">
		<tag k="alt_name:no" v="Kjeledalen" />
		<tag k="name" v="Kjeldalen" />
		<tag k="name:no" v="Kjeldalen" />
		<tag k="name:se" v="Gievdnevággi" />
		<tag k="natural" v="valley" />
		<tag k="place" v="locality" />
		<tag k="ssr:stedsnr" v="139398" />
	</node>
	<node lat="69.27556915216074" lon="20.015632672563825" id="-101228">
		<tag k="fixme" v="multiple name:se tags, choose one and add the other to alt_name:se; consider natural=peak for the most distinct mountains in the district" />
		<tag k="name" v="Hattefjellet" />
		<tag k="name:fkv" v="Hatunvaara" />
		<tag k="name:no" v="Hattefjellet" />
		<tag k="name:se" v="Háhttavárri;Háhttagáisi" />
		<tag k="natural" v="hill" />
		<tag k="place" v="locality" />
		<tag k="ssr:stedsnr" v="139411" />
	</node>
	<node lat="69.24478069451497" lon="19.98565350512824" id="-101231">
		<tag k="alt_name:no" v="Skilhumpen" />
		<tag k="fixme" v="consider natural=peak for the most distinct mountains in the district" />
		<tag k="name" v="Skjellhumpen" />
		<tag k="name:fkv" v="Rajahumppi" />
		<tag k="name:no" v="Skjellhumpen" />
		<tag k="natural" v="hill" />
		<tag k="place" v="locality" />
		<tag k="ssr:stedsnr" v="139383" />
	</node>
	<node lat="69.37350000171844" lon="20.191199976907704" id="-101238">
		<tag k="name" v="Hullberget" />
		<tag k="name:fkv" v="Reikäpahta" />
		<tag k="name:no" v="Hullberget" />
		<tag k="name:se" v="Ráigebákti" />
		<tag k="natural" v="hill" />
		<tag k="place" v="locality" />
		<tag k="ssr:stedsnr" v="139462" />
	</node>
	<node lat="69.13946111022975" lon="21.04646109459705" id="-101247">
		<tag k="fixme" v="consider natural=peak for the most distinct mountains in the district" />
		<tag k="name" v="Áldorášša" />
		<tag k="name:se" v="Áldorášša" />
		<tag k="natural" v="hill" />
		<tag k="place" v="locality" />
		<tag k="ssr:stedsnr" v="140533" />
	</node>
	<node lat="69.15647500400235" lon="20.91186387117329" id="-101254">
		<tag k="name" v="Gáhkkorvággi" />
		<tag k="name:se" v="Gáhkkorvággi" />
		<tag k="natural" v="valley" />
		<tag k="place" v="locality" />
		<tag k="ssr:stedsnr" v="140963" />
	</node>
	<node lat="69.16708889392476" lon="20.767524967133394" id="-101255">
		<tag k="alt_name:se" v="Gárdeborvárri" />
		<tag k="fixme" v="consider natural=peak for the most distinct mountains in the district" />
		<tag k="name" v="Gárdeborri" />
		<tag k="name:se" v="Gárdeborri" />
		<tag k="natural" v="hill" />
		<tag k="place" v="locality" />
		<tag k="ssr:stedsnr" v="140966" />
	</node>
	<node lat="69.22476971801937" lon="20.718096476038745" id="-101257">
		<tag k="fixme" v="consider natural=peak for the most distinct mountains in the district" />
		<tag k="name" v="Rasfjellet - Ráššavárri" />
		<tag k="name:no" v="Rasfjellet" />
		<tag k="name:se" v="Ráššavárri" />
		<tag k="natural" v="hill" />
		<tag k="place" v="locality" />
		<tag k="ssr:stedsnr" v="140997" />
	</node>
	<node lat="69.3380749986068" lon="19.733074994806856" id="-101259">
		<tag k="fixme" v="consider natural=peak for the most distinct mountains in the district" />
		<tag k="name" v="Durmålstinden - Spiidnegáisá" />
		<tag k="name:no" v="Durmålstinden" />
		<tag k="name:se" v="Spiidnegáisá" />
		<tag k="natural" v="hill" />
		<tag k="place" v="locality" />
		<tag k="ssr:stedsnr" v="142101" />
	</node>
	<node lat="69.3325805572913" lon="19.868163875278558" id="-101270">
		<tag k="name" v="Čoarda" />
		<tag k="name:se" v="Čoarda" />
		<tag k="natural" v="hill" />
		<tag k="place" v="locality" />
		<tag k="ssr:stedsnr" v="175377" />
	</node>
	<node lat="69.25102499906777" lon="19.876944423796793" id="-101271">
		<tag k="loc_name:se" v="Sálbmedievvá" />
		<tag k="name" v="Salmebakken" />
		<tag k="name:no" v="Salmebakken" />
		<tag k="natural" v="slope" />
		<tag k="place" v="locality" />
		<tag k="ssr:stedsnr" v="175393" />
	</node>
	<node lat="69.26091111311028" lon="19.92378332002112" id="-101272">
		<tag k="loc_name:se" v="Sorbmedievvá" />
		<tag k="name" v="Mordarbakken" />
		<tag k="name:no" v="Mordarbakken" />
		<tag k="natural" v="slope" />
		<tag k="place" v="locality" />
		<tag k="ssr:stedsnr" v="175446" />
	</node>
	<node lat="69.23563611365111" lon="19.988986103126575" id="-101273">
		<tag k="name" v="Borregohpi" />
		<tag k="name:se" v="Borregohpi" />
		<tag k="natural" v="valley" />
		<tag k="place" v="locality" />
		<tag k="ssr:stedsnr" v="175488" />
	</node>
	<node lat="69.21954166614606" lon="19.958361093555233" id="-101274">
		<tag k="name" v="Falkbergskreda" />
		<tag k="natural" v="slope" />
		<tag k="place" v="locality" />
		<tag k="ssr:stedsnr" v="175496" />
	</node>
	<node lat="69.35681389030229" lon="20.328749995484852" id="-101275">
		<tag k="name" v="Øverste Vannbakken" />
		<tag k="natural" v="slope" />
		<tag k="place" v="locality" />
		<tag k="ssr:stedsnr" v="176019" />
	</node>
	<node lat="69.3308694490429" lon="20.310666657200123" id="-101276">
		<tag k="name" v="Storbakken" />
		<tag k="natural" v="slope" />
		<tag k="place" v="locality" />
		<tag k="ssr:stedsnr" v="176038" />
	</node>
	<node lat="69.37179999664491" lon="20.258463877010215" id="-101277">
		<tag k="name" v="Hattiskoll" />
		<tag k="natural" v="hill" />
		<tag k="place" v="locality" />
		<tag k="ssr:stedsnr" v="176136" />
	</node>
	<node lat="69.34474999981029" lon="19.952230550234038" id="-101278">
		<tag k="name" v="Bjørnbergan" />
		<tag k="natural" v="hill" />
		<tag k="place" v="locality" />
		<tag k="ssr:stedsnr" v="176499" />
	</node>
	<node lat="69.33617499608663" lon="19.97163888006365" id="-101279">
		<tag k="loc_name:se" v="Roavvi" />
		<tag k="name" v="Råa" />
		<tag k="name:no" v="Råa" />
		<tag k="natural" v="hill" />
		<tag k="place" v="locality" />
		<tag k="ssr:stedsnr" v="176501" />
	</node>
	<node lat="69.26212777412191" lon="19.985322202335947" id="-101280">
		<tag k="name" v="Sokka" />
		<tag k="natural" v="hill" />
		<tag k="place" v="locality" />
		<tag k="ssr:stedsnr" v="176399" />
	</node>
	<node lat="69.2479166678803" lon="19.928194444192158" id="-101282">
		<tag k="loc_name:se" v="Láireroggi" />
		<tag k="name" v="Leirhollet" />
		<tag k="name:no" v="Leirhollet" />
		<tag k="natural" v="valley" />
		<tag k="place" v="locality" />
		<tag k="ssr:stedsnr" v="176540" />
	</node>
	<node lat="69.24489722056315" lon="20.084572206453675" id="-101284">
		<tag k="name" v="Lillenasen" />
		<tag k="natural" v="ridge" />
		<tag k="place" v="locality" />
		<tag k="ssr:stedsnr" v="176725" />
	</node>
	<node lat="69.36198055904444" lon="20.14024998232248" id="-101285">
		<tag k="name" v="Várdu" />
		<tag k="name:se" v="Várdu" />
		<tag k="natural" v="hill" />
		<tag k="place" v="locality" />
		<tag k="ssr:stedsnr" v="176726" />
	</node>
	<node lat="69.34529444271129" lon="20.09848610579319" id="-101286">
		<tag k="loc_name:se" v="Firkalbákti" />
		<tag k="name" v="Forkleberget" />
		<tag k="name:no" v="Forkleberget" />
		<tag k="natural" v="hill" />
		<tag k="place" v="locality" />
		<tag k="ssr:stedsnr" v="176730" />
	</node>
	<node lat="69.3441194431157" lon="20.101761100965344" id="-101287">
		<tag k="name" v="Spenna" />
		<tag k="natural" v="hill" />
		<tag k="place" v="locality" />
		<tag k="ssr:stedsnr" v="176732" />
	</node>
	<node lat="69.36139999859513" lon="20.11545832056418" id="-101288">
		<tag k="name" v="Gohpi" />
		<tag k="name:se" v="Gohpi" />
		<tag k="natural" v="valley" />
		<tag k="place" v="locality" />
		<tag k="ssr:stedsnr" v="176734" />
	</node>
	<node lat="69.29719722203582" lon="19.991869441189106" id="-101289">
		<tag k="name" v="Storbakken" />
		<tag k="natural" v="slope" />
		<tag k="place" v="locality" />
		<tag k="ssr:stedsnr" v="176590" />
	</node>
	<node lat="69.29269166573987" lon="20.480430528569606" id="-101290">
		<tag k="fixme" v="consider natural=peak for the most distinct mountains in the district" />
		<tag k="name" v="Storrundfjellet" />
		<tag k="natural" v="hill" />
		<tag k="place" v="locality" />
		<tag k="ssr:stedsnr" v="176922" />
	</node>
	<node lat="69.24258889262562" lon="20.627613860091014" id="-101292">
		<tag k="name" v="Slettumbakken" />
		<tag k="natural" v="slope" />
		<tag k="place" v="locality" />
		<tag k="ssr:stedsnr" v="176897" />
	</node>
	<node lat="69.35086118066683" lon="19.729379819467795" id="-101302">
		<tag k="name" v="Langdalen - Guhkesvággi" />
		<tag k="name:no" v="Langdalen" />
		<tag k="name:se" v="Guhkesvággi" />
		<tag k="natural" v="valley" />
		<tag k="place" v="locality" />
		<tag k="ssr:stedsnr" v="200147" />
	</node>
	<node lat="69.30183332972919" lon="19.74367498169905" id="-101310">
		<tag k="fixme" v="consider natural=peak for the most distinct mountains in the district" />
		<tag k="name" v="Biellogáisá" />
		<tag k="name:se" v="Biellogáisá" />
		<tag k="natural" v="hill" />
		<tag k="old_name:se" v="Biellogáisa" />
		<tag k="place" v="locality" />
		<tag k="ssr:stedsnr" v="200373" />
	</node>
	<node lat="69.30854167081736" lon="20.847274988386133" id="-101317">
		<tag k="fixme" v="consider natural=peak for the most distinct mountains in the district" />
		<tag k="name" v="Ráššanibba" />
		<tag k="name:se" v="Ráššanibba" />
		<tag k="natural" v="hill" />
		<tag k="place" v="locality" />
		<tag k="ssr:stedsnr" v="200564" />
	</node>
	<node lat="69.09514166675618" lon="20.54397496909889" id="-101324">
		<tag k="name" v="Golddaláhku" />
		<tag k="name:se" v="Golddaláhku" />
		<tag k="place" v="locality" />
		<tag k="ssr:stedsnr" v="201510" />
	</node>
	<node lat="69.36578332983778" lon="20.18818608850089" id="-101326">
		<tag k="fixme" v="consider natural=peak for the most distinct mountains in the district" />
		<tag k="name" v="Falsnestinden - Falsnjárčohkka" />
		<tag k="name:no" v="Falsnestinden" />
		<tag k="name:se" v="Falsnjárčohkka" />
		<tag k="natural" v="hill" />
		<tag k="place" v="locality" />
		<tag k="ssr:stedsnr" v="201418" />
	</node>
	<node lat="69.11418333308465" lon="20.638311087402872" id="-101332">
		<tag k="fixme" v="consider natural=peak for the most distinct mountains in the district" />
		<tag k="name" v="Goallároainibba" />
		<tag k="name:se" v="Goallároainibba" />
		<tag k="natural" v="hill" />
		<tag k="place" v="locality" />
		<tag k="ssr:stedsnr" v="201942" />
	</node>
	<node lat="69.14483055587924" lon="20.998202757585965" id="-101333">
		<tag k="fixme" v="consider natural=peak for the most distinct mountains in the district" />
		<tag k="name" v="Gáhkkorčazavárri" />
		<tag k="name:se" v="Gáhkkorčazavárri" />
		<tag k="natural" v="hill" />
		<tag k="place" v="locality" />
		<tag k="ssr:stedsnr" v="201947" />
	</node>
	<node lat="69.18541666787448" lon="20.862322199110626" id="-101334">
		<tag k="fixme" v="consider natural=peak for the most distinct mountains in the district" />
		<tag k="name" v="Didnooaivi" />
		<tag k="name:se" v="Didnooaivi" />
		<tag k="natural" v="hill" />
		<tag k="place" v="locality" />
		<tag k="ssr:stedsnr" v="201963" />
	</node>
	<node lat="69.1906250048161" lon="20.586749972459117" id="-101335">
		<tag k="fixme" v="consider natural=peak for the most distinct mountains in the district" />
		<tag k="name" v="Rihpočohkka" />
		<tag k="name:se" v="Rihpočohkka" />
		<tag k="natural" v="hill" />
		<tag k="place" v="locality" />
		<tag k="ssr:stedsnr" v="201969" />
	</node>
	<node lat="69.12512500267457" lon="20.85645552886736" id="-101337">
		<tag k="name" v="Gárášgohpi" />
		<tag k="name:se" v="Gárášgohpi" />
		<tag k="natural" v="valley" />
		<tag k="place" v="locality" />
		<tag k="ssr:stedsnr" v="201941" />
	</node>
	<node lat="69.19632500067819" lon="20.137980542556786" id="-101339">
		<tag k="fixme" v="consider natural=peak for the most distinct mountains in the district" />
		<tag k="name" v="Bogen - Čoamohas" />
		<tag k="name:no" v="Bogen" />
		<tag k="name:se" v="Čoamohas" />
		<tag k="natural" v="hill" />
		<tag k="place" v="locality" />
		<tag k="ssr:stedsnr" v="206302" />
	</node>
	<node lat="69.36933055871059" lon="20.00963608633245" id="-101341">
		<tag k="loc_name:se" v="Hárveriidi" />
		<tag k="name" v="Harvaritto" />
		<tag k="name:fkv" v="Harvaritto" />
		<tag k="natural" v="slope" />
		<tag k="place" v="locality" />
		<tag k="ssr:stedsnr" v="209015" />
	</node>
	<node lat="69.37359443995572" lon="20.233622214878018" id="-101342">
		<tag k="loc_name:se" v="Badje-Gangat" />
		<tag k="name" v="Gangata" />
		<tag k="name:fkv" v="Ala-Kankatta" />
		<tag k="name:no" v="Gangata" />
		<tag k="place" v="locality" />
		<tag k="ssr:stedsnr" v="213884" />
	</node>
	<node lat="69.37892500271914" lon="20.17946941766617" id="-101344">
		<tag k="name" v="Ramnberget" />
		<tag k="name:fkv" v="Korppipahta" />
		<tag k="name:no" v="Ramnberget" />
		<tag k="name:se" v="Ruovddagasbákti" />
		<tag k="natural" v="hill" />
		<tag k="place" v="locality" />
		<tag k="ssr:stedsnr" v="218320" />
	</node>
	<node lat="69.20033333631844" lon="20.032597203641238" id="-101345">
		<tag k="fixme" v="consider natural=peak for the most distinct mountains in the district" />
		<tag k="name" v="Jiehtanasgáisi" />
		<tag k="name:se" v="Jiehtanasgáisi" />
		<tag k="natural" v="hill" />
		<tag k="place" v="locality" />
		<tag k="ssr:stedsnr" v="218321" />
	</node>
	<node lat="69.39700833277236" lon="20.321794434828984" id="-101352">
		<tag k="alt_name:fkv" v="Markkinankuru" />
		<tag k="name" v="Marketsgropa" />
		<tag k="name:fkv" v="Marketsgropa" />
		<tag k="natural" v="valley" />
		<tag k="place" v="locality" />
		<tag k="ssr:stedsnr" v="274780" />
	</node>
	<node lat="69.14938611124802" lon="19.964574991891713" id="-101362">
		<tag k="name" v="Istindaksla" />
		<tag k="place" v="locality" />
		<tag k="ssr:stedsnr" v="291638" />
	</node>
	<node lat="69.35154166686232" lon="19.89766944312343" id="-101363">
		<tag k="name" v="Bjørken" />
		<tag k="natural" v="slope" />
		<tag k="place" v="locality" />
		<tag k="ssr:stedsnr" v="297381" />
	</node>
	<node lat="69.14570555612679" lon="20.05751665586683" id="-101364">
		<tag k="name" v="Vassberget" />
		<tag k="natural" v="hill" />
		<tag k="place" v="locality" />
		<tag k="ssr:stedsnr" v="297390" />
	</node>
	<node lat="69.25791666322044" lon="19.884202771507862" id="-101365">
		<tag k="loc_name:se" v="Gánjel" />
		<tag k="name" v="Ganjeln" />
		<tag k="name:no" v="Ganjeln" />
		<tag k="natural" v="hill" />
		<tag k="place" v="locality" />
		<tag k="ssr:stedsnr" v="297404" />
	</node>
	<node lat="69.3819722217461" lon="20.27366386288967" id="-101369">
		<tag k="name" v="Per-Heikibakken" />
		<tag k="natural" v="slope" />
		<tag k="place" v="locality" />
		<tag k="ssr:stedsnr" v="297139" />
	</node>
	<node lat="69.19379722509521" lon="19.973872214443528" id="-101372">
		<tag k="name" v="Verselbakken" />
		<tag k="natural" v="slope" />
		<tag k="place" v="locality" />
		<tag k="ssr:stedsnr" v="297370" />
	</node>
	<node lat="69.33309444310261" lon="19.96790275584679" id="-101375">
		<tag k="name" v="Skávžaberget" />
		<tag k="natural" v="hill" />
		<tag k="place" v="locality" />
		<tag k="ssr:stedsnr" v="297544" />
	</node>
	<node lat="69.25242222336965" lon="19.961238882094808" id="-101378">
		<tag k="name" v="Vaggadat" />
		<tag k="name:se" v="Vaggadat" />
		<tag k="natural" v="valley" />
		<tag k="place" v="locality" />
		<tag k="ssr:stedsnr" v="297549" />
	</node>
	<node lat="69.26911111188296" lon="19.954488879812647" id="-101380">
		<tag k="name" v="Oldersletta" />
		<tag k="place" v="locality" />
		<tag k="ssr:stedsnr" v="297420" />
	</node>
	<node lat="69.25631388723916" lon="20.09312497147397" id="-101383">
		<tag k="fixme" v="consider natural=peak for the most distinct mountains in the district" />
		<tag k="name" v="Skáidečohkka" />
		<tag k="name:se" v="Skáidečohkka" />
		<tag k="natural" v="hill" />
		<tag k="place" v="locality" />
		<tag k="ssr:stedsnr" v="297716" />
	</node>
	<node lat="69.12757222231672" lon="20.168502753504043" id="-101395">
		<tag k="name" v="Skurčovággi" />
		<tag k="name:se" v="Skurčovággi" />
		<tag k="natural" v="valley" />
		<tag k="place" v="locality" />
		<tag k="ssr:stedsnr" v="321266" />
	</node>
	<node lat="69.17488055883845" lon="20.38967497552783" id="-101398">
		<tag k="fixme" v="consider natural=peak for the most distinct mountains in the district" />
		<tag k="name" v="Goahteorotrášša" />
		<tag k="name:se" v="Goahteorotrášša" />
		<tag k="natural" v="hill" />
		<tag k="place" v="locality" />
		<tag k="ssr:stedsnr" v="322291" />
	</node>
	<node lat="69.07257499901776" lon="20.14804721808979" id="-101399">
		<tag k="name" v="Bárrásvuovdegeahči" />
		<tag k="name:se" v="Bárrásvuovdegeahči" />
		<tag k="natural" v="valley" />
		<tag k="place" v="locality" />
		<tag k="ssr:stedsnr" v="322235" />
	</node>
	<node lat="69.22355000273468" lon="20.324599975802553" id="-101402">
		<tag k="fixme" v="consider natural=peak for the most distinct mountains in the district" />
		<tag k="name" v="Gaskkamus Viessogasgáisi" />
		<tag k="name:se" v="Gaskkamus Viessogasgáisi" />
		<tag k="natural" v="hill" />
		<tag k="place" v="locality" />
		<tag k="ssr:stedsnr" v="322343" />
	</node>
	<node lat="69.24986388796822" lon="20.303202754252947" id="-101403">
		<tag k="fixme" v="consider natural=peak for the most distinct mountains in the district" />
		<tag k="name" v="Davimus Viessogasgáisi" />
		<tag k="name:se" v="Davimus Viessogasgáisi" />
		<tag k="natural" v="hill" />
		<tag k="place" v="locality" />
		<tag k="ssr:stedsnr" v="322350" />
	</node>
	<node lat="69.34790000202747" lon="20.14302775284763" id="-101407">
		<tag k="name" v="Bentsjorddalen" />
		<tag k="name:fkv" v="Suolakkavankka" />
		<tag k="name:no" v="Bentsjorddalen" />
		<tag k="name:se" v="Suollatvággi" />
		<tag k="natural" v="valley" />
		<tag k="place" v="locality" />
		<tag k="ssr:stedsnr" v="322463" />
	</node>
	<node lat="69.38130278255478" lon="20.17431942601712" id="-101413">
		<tag k="name" v="Falsnesberget" />
		<tag k="name:fkv" v="Falisniemenpahta" />
		<tag k="name:no" v="Falsnesberget" />
		<tag k="name:se" v="Falsnjárbákti" />
		<tag k="natural" v="hill" />
		<tag k="place" v="locality" />
		<tag k="ssr:stedsnr" v="322479" />
	</node>
	<node lat="69.05386389208572" lon="20.988016646395288" id="-101416">
		<tag k="fixme" v="consider natural=peak for the most distinct mountains in the district" />
		<tag k="name" v="Jeageloaivi" />
		<tag k="name:se" v="Jeageloaivi" />
		<tag k="natural" v="hill" />
		<tag k="place" v="locality" />
		<tag k="ssr:stedsnr" v="322543" />
	</node>
	<node lat="69.23765833686133" lon="20.909891637212457" id="-101419">
		<tag k="fixme" v="consider natural=peak for the most distinct mountains in the district" />
		<tag k="name" v="Gieddečohkka" />
		<tag k="name:se" v="Gieddečohkka" />
		<tag k="natural" v="hill" />
		<tag k="place" v="locality" />
		<tag k="ssr:stedsnr" v="322988" />
	</node>
	<node lat="69.12461388543339" lon="20.57932776010319" id="-101420">
		<tag k="fixme" v="consider natural=peak for the most distinct mountains in the district" />
		<tag k="name" v="Sallorášša" />
		<tag k="name:se" v="Sallorášša" />
		<tag k="natural" v="hill" />
		<tag k="place" v="locality" />
		<tag k="ssr:stedsnr" v="322941" />
	</node>
	<node lat="69.13593333016591" lon="20.988258314442803" id="-101421">
		<tag k="name" v="Gáhkkorčahca" />
		<tag k="name:se" v="Gáhkkorčahca" />
		<tag k="natural" v="valley" />
		<tag k="place" v="locality" />
		<tag k="ssr:stedsnr" v="322942" />
	</node>
	<node lat="69.15415555670911" lon="20.62472497527592" id="-101422">
		<tag k="name" v="Ollelatnja" />
		<tag k="name:se" v="Ollelatnja" />
		<tag k="natural" v="slope" />
		<tag k="place" v="locality" />
		<tag k="ssr:stedsnr" v="322945" />
	</node>
	<node lat="69.1689499988718" lon="20.997024974706314" id="-101424">
		<tag k="fixme" v="consider natural=peak for the most distinct mountains in the district" />
		<tag k="name" v="Bajit Gieddeoaivi" />
		<tag k="name:se" v="Bajit Gieddeoaivi" />
		<tag k="natural" v="hill" />
		<tag k="old_name:se" v="Gieddeoaivi, bajit" />
		<tag k="place" v="locality" />
		<tag k="ssr:stedsnr" v="322956" />
	</node>
	<node lat="69.22470555720787" lon="20.54329719905758" id="-101425">
		<tag k="fixme" v="consider natural=peak for the most distinct mountains in the district" />
		<tag k="name" v="Rihponjunni" />
		<tag k="name:se" v="Rihponjunni" />
		<tag k="natural" v="hill" />
		<tag k="place" v="locality" />
		<tag k="ssr:stedsnr" v="323986" />
	</node>
	<node lat="69.22563889253185" lon="20.746988864384814" id="-101426">
		<tag k="name" v="Bogivággi" />
		<tag k="name:se" v="Bogivággi" />
		<tag k="natural" v="valley" />
		<tag k="place" v="locality" />
		<tag k="ssr:stedsnr" v="323991" />
	</node>
	<node lat="69.35155000066332" lon="19.980997219569264" id="-101430">
		<tag k="name" v="Vaddas" />
		<tag k="name:no" v="Vaddas" />
		<tag k="name:se" v="Váddásbákti" />
		<tag k="natural" v="hill" />
		<tag k="place" v="locality" />
		<tag k="ssr:stedsnr" v="335074" />
	</node>
	<node lat="69.40145555668873" lon="20.26648610436775" id="-101432">
		<tag k="name" v="Håttiberget" />
		<tag k="name:fkv" v="Hotinpahta" />
		<tag k="name:no" v="Håttiberget" />
		<tag k="natural" v="hill" />
		<tag k="place" v="locality" />
		<tag k="ssr:stedsnr" v="335940" />
	</node>
	<node lat="69.35223888766318" lon="20.12157776725509" id="-101436">
		<tag k="name" v="Ordaberget" />
		<tag k="name:fkv" v="Ortapahta" />
		<tag k="name:no" v="Ordaberget" />
		<tag k="name:se" v="Ordabákti" />
		<tag k="natural" v="hill" />
		<tag k="place" v="locality" />
		<tag k="ssr:stedsnr" v="339585" />
	</node>
	<node lat="69.35499722734964" lon="19.875580536540614" id="-101439">
		<tag k="name" v="Reingjerdet" />
		<tag k="natural" v="slope" />
		<tag k="place" v="locality" />
		<tag k="ssr:stedsnr" v="357361" />
	</node>
	<node lat="69.34698333334701" lon="19.877497201900834" id="-101440">
		<tag k="name" v="Borrisia" />
		<tag k="natural" v="slope" />
		<tag k="place" v="locality" />
		<tag k="ssr:stedsnr" v="357363" />
	</node>
	<node lat="69.18607500148663" lon="19.960666664422963" id="-101441">
		<tag k="name" v="Pissberget" />
		<tag k="natural" v="hill" />
		<tag k="place" v="locality" />
		<tag k="ssr:stedsnr" v="357374" />
	</node>
	<node lat="69.21168333637046" lon="19.95795554029714" id="-101444">
		<tag k="name" v="Stygglemskreda" />
		<tag k="natural" v="slope" />
		<tag k="place" v="locality" />
		<tag k="ssr:stedsnr" v="357476" />
	</node>
	<node lat="69.26693166547112" lon="19.951264149446608" id="-101445">
		<tag k="loc_name:se" v="Jovnnagieddi" />
		<tag k="name" v="Jovollen" />
		<tag k="name:no" v="Jovollen" />
		<tag k="place" v="locality" />
		<tag k="ssr:stedsnr" v="357424" />
	</node>
	<node lat="69.40402222241426" lon="20.279669433609225" id="-101446">
		<tag k="name" v="Bossoberget" />
		<tag k="natural" v="hill" />
		<tag k="place" v="locality" />
		<tag k="ssr:stedsnr" v="358092" />
	</node>
	<node lat="69.35665277824533" lon="20.26897220650122" id="-101447">
		<tag k="name" v="Fossenakken" />
		<tag k="natural" v="hill" />
		<tag k="place" v="locality" />
		<tag k="ssr:stedsnr" v="358016" />
	</node>
	<node lat="69.37407777856352" lon="20.24823609728361" id="-101451">
		<tag k="name" v="Polvariluokka" />
		<tag k="name:fkv" v="Polvariluokka" />
		<tag k="natural" v="slope" />
		<tag k="place" v="locality" />
		<tag k="ssr:stedsnr" v="358134" />
	</node>
	<node lat="69.34423333059974" lon="19.966252766147846" id="-101452">
		<tag k="name" v="Grindberget" />
		<tag k="natural" v="hill" />
		<tag k="place" v="locality" />
		<tag k="ssr:stedsnr" v="358560" />
	</node>
	<node lat="69.25240278153282" lon="19.96685555269802" id="-101455">
		<tag k="name" v="Gealgamas" />
		<tag k="name:se" v="Gealgamas" />
		<tag k="natural" v="slope" />
		<tag k="place" v="locality" />
		<tag k="ssr:stedsnr" v="358582" />
	</node>
	<node lat="69.3658166705947" lon="20.00214164399741" id="-101458">
		<tag k="name" v="Bittunjunni" />
		<tag k="name:se" v="Bittunjunni" />
		<tag k="natural" v="ridge" />
		<tag k="place" v="locality" />
		<tag k="ssr:stedsnr" v="358633" />
	</node>
	<node lat="69.36093611413922" lon="20.0018611035579" id="-101459">
		<tag k="name" v="Gáddebákti" />
		<tag k="name:se" v="Gáddebákti" />
		<tag k="natural" v="hill" />
		<tag k="place" v="locality" />
		<tag k="ssr:stedsnr" v="358636" />
	</node>
	<node lat="69.23396666711061" lon="20.137274974434792" id="-101460">
		<tag k="name" v="Myrhaug" />
		<tag k="natural" v="hill" />
		<tag k="place" v="locality" />
		<tag k="ssr:stedsnr" v="358724" />
	</node>
	<node lat="69.4090472256003" lon="20.130855535638055" id="-101461">
		<tag k="loc_name:se" v="Vilgesbákti" />
		<tag k="name" v="Kvitberget" />
		<tag k="name:no" v="Kvitberget" />
		<tag k="natural" v="hill" />
		<tag k="place" v="locality" />
		<tag k="ssr:stedsnr" v="358736" />
	</node>
	<node lat="69.31342499808791" lon="20.42595276201893" id="-101463">
		<tag k="fixme" v="consider natural=peak for the most distinct mountains in the district" />
		<tag k="name" v="Lullefjellet" />
		<tag k="natural" v="hill" />
		<tag k="place" v="locality" />
		<tag k="ssr:stedsnr" v="358979" />
	</node>
	<node lat="69.26796111278796" lon="20.094949992249315" id="-101480">
		<tag k="fixme" v="consider natural=peak for the most distinct mountains in the district" />
		<tag k="name" v="Hattefjell" />
		<tag k="natural" v="hill" />
		<tag k="place" v="locality" />
		<tag k="ssr:stedsnr" v="382396" />
	</node>
	<node lat="69.22913610863205" lon="20.165919439475235" id="-101489">
		<tag k="alt_name" v="Hompen" />
		<tag k="fixme" v="consider natural=peak for the most distinct mountains in the district" />
		<tag k="name" v="Humpen" />
		<tag k="natural" v="hill" />
		<tag k="place" v="locality" />
		<tag k="ssr:stedsnr" v="382332" />
	</node>
	<node lat="69.21196111207566" lon="20.250361103743693" id="-101490">
		<tag k="name" v="Gaskasuorggičahca" />
		<tag k="name:se" v="Gaskasuorggičahca" />
		<tag k="natural" v="valley" />
		<tag k="place" v="locality" />
		<tag k="ssr:stedsnr" v="382337" />
	</node>
	<node lat="69.21220833352896" lon="20.32630276702427" id="-101491">
		<tag k="fixme" v="consider natural=peak for the most distinct mountains in the district" />
		<tag k="name" v="Lulimus Viessogasgáisi" />
		<tag k="name:se" v="Lulimus Viessogasgáisi" />
		<tag k="natural" v="hill" />
		<tag k="place" v="locality" />
		<tag k="ssr:stedsnr" v="382339" />
	</node>
	<node lat="69.22165277881867" lon="20.226224975839717" id="-101494">
		<tag k="fixme" v="consider natural=peak for the most distinct mountains in the district" />
		<tag k="name" v="Gaskasuorggigáisi" />
		<tag k="name:se" v="Gaskasuorggigáisi" />
		<tag k="natural" v="hill" />
		<tag k="place" v="locality" />
		<tag k="ssr:stedsnr" v="382343" />
	</node>
	<node lat="69.32622161590099" lon="20.055757626979936" id="-101496">
		<tag k="fixme" v="consider natural=peak for the most distinct mountains in the district" />
		<tag k="name" v="Nasen" />
		<tag k="name:fkv" v="Nokka" />
		<tag k="name:no" v="Nasen" />
		<tag k="name:se" v="Juomváhnjunni" />
		<tag k="natural" v="hill" />
		<tag k="place" v="locality" />
		<tag k="ssr:stedsnr" v="382420" />
	</node>
	<node lat="69.32245000539193" lon="20.26868608753158" id="-101498">
		<tag k="fixme" v="multiple name:fkv tags, choose one and add the other to alt_name:fkv; consider natural=peak for the most distinct mountains in the district" />
		<tag k="loc_name:se" v="Várddut" />
		<tag k="name" v="Lågberget" />
		<tag k="name:fkv" v="Matala;Matalavaara" />
		<tag k="name:no" v="Lågberget" />
		<tag k="natural" v="hill" />
		<tag k="place" v="locality" />
		<tag k="ssr:stedsnr" v="382426" />
	</node>
	<node lat="69.42832777994181" lon="20.441311101524548" id="-101502">
		<tag k="fixme" v="consider natural=peak for the most distinct mountains in the district" />
		<tag k="name" v="Vázzinoalgi" />
		<tag k="name:se" v="Vázzinoalgi" />
		<tag k="natural" v="hill" />
		<tag k="place" v="locality" />
		<tag k="ssr:stedsnr" v="382518" />
	</node>
	<node lat="69.31142499912922" lon="20.520424978225705" id="-101503">
		<tag k="name" v="Ákšogaikungorsa" />
		<tag k="name:se" v="Ákšogaikungorsa" />
		<tag k="natural" v="valley" />
		<tag k="place" v="locality" />
		<tag k="ssr:stedsnr" v="382539" />
	</node>
	<node lat="69.31238055263702" lon="20.69800830272434" id="-101504">
		<tag k="fixme" v="multiple name tags, choose one and add the other to alt_name; consider natural=peak for the most distinct mountains in the district" />
		<tag k="name" v="Geasášvárri;Geasáščohkka" />
		<tag k="name:se" v="Geasášvárri;Geasáščohkka" />
		<tag k="natural" v="hill" />
		<tag k="place" v="locality" />
		<tag k="ssr:stedsnr" v="382541" />
	</node>
	<node lat="69.27216944118611" lon="20.509274973498766" id="-101511">
		<tag k="fixme" v="consider natural=peak for the most distinct mountains in the district" />
		<tag k="name" v="Unnaváráš" />
		<tag k="name:se" v="Unnaváráš" />
		<tag k="natural" v="hill" />
		<tag k="place" v="locality" />
		<tag k="ssr:stedsnr" v="382681" />
	</node>
	<node lat="69.10362777693946" lon="21.108399964134737" id="-101518">
		<tag k="fixme" v="consider natural=peak for the most distinct mountains in the district" />
		<tag k="name" v="Duolljehuipput" />
		<tag k="name:se" v="Duolljehuipput" />
		<tag k="natural" v="hill" />
		<tag k="place" v="locality" />
		<tag k="ssr:stedsnr" v="383579" />
	</node>
	<node lat="69.1997888888174" lon="20.49691108392117" id="-101521">
		<tag k="name" v="Nilsadalen - Skurčovággi" />
		<tag k="name:no" v="Nilsadalen" />
		<tag k="name:se" v="Skurčovággi" />
		<tag k="natural" v="valley" />
		<tag k="place" v="locality" />
		<tag k="ssr:stedsnr" v="383984" />
	</node>
	<node lat="69.22682500026997" lon="20.788074967978712" id="-101522">
		<tag k="fixme" v="consider natural=peak for the most distinct mountains in the district" />
		<tag k="name" v="Biedjonjaŋggut" />
		<tag k="name:se" v="Biedjonjaŋggut" />
		<tag k="natural" v="hill" />
		<tag k="place" v="locality" />
		<tag k="ssr:stedsnr" v="383993" />
	</node>
	<node lat="69.44289722002276" lon="20.29831663873914" id="-101524">
		<tag k="name" v="Skarvberget" />
		<tag k="name:fkv" v="Kuollutpahta" />
		<tag k="name:no" v="Skarvberget" />
		<tag k="natural" v="hill" />
		<tag k="place" v="locality" />
		<tag k="ssr:stedsnr" v="390019" />
	</node>
	<node lat="69.19101389019941" lon="19.958816660482622" id="-101541">
		<tag k="name" v="Potetbakken" />
		<tag k="natural" v="slope" />
		<tag k="place" v="locality" />
		<tag k="ssr:stedsnr" v="418376" />
	</node>
	<node lat="69.33270833212316" lon="20.06597776092323" id="-101547">
		<tag k="loc_name:se" v="Vággenjunni" />
		<tag k="name" v="Dalnesen" />
		<tag k="name:se" v="Dalnesen" />
		<tag k="natural" v="ridge" />
		<tag k="place" v="locality" />
		<tag k="ssr:stedsnr" v="419552" />
	</node>
	<node lat="69.32618333725064" lon="19.957949992064584" id="-101548">
		<tag k="loc_name:se" v="Loktabákti" />
		<tag k="name" v="Lofteberget" />
		<tag k="name:no" v="Lofteberget" />
		<tag k="natural" v="hill" />
		<tag k="place" v="locality" />
		<tag k="ssr:stedsnr" v="419555" />
	</node>
	<node lat="69.25828333615225" lon="19.931124997889196" id="-101550">
		<tag k="name" v="Čuohpa" />
		<tag k="name:se" v="Čuohpa" />
		<tag k="natural" v="valley" />
		<tag k="place" v="locality" />
		<tag k="ssr:stedsnr" v="419563" />
	</node>
	<node lat="69.38590277728711" lon="20.30302775880704" id="-101552">
		<tag k="name" v="Leirbakken" />
		<tag k="natural" v="slope" />
		<tag k="place" v="locality" />
		<tag k="ssr:stedsnr" v="419132" />
	</node>
	<node lat="69.36513055257156" lon="20.263549994306185" id="-101553">
		<tag k="name" v="Uribakken" />
		<tag k="natural" v="slope" />
		<tag k="place" v="locality" />
		<tag k="ssr:stedsnr" v="419238" />
	</node>
	<node lat="69.26877500467012" lon="19.963011098365133" id="-101555">
		<tag k="name" v="Lindevollen" />
		<tag k="place" v="locality" />
		<tag k="ssr:stedsnr" v="419428" />
	</node>
	<node lat="69.33516388477621" lon="19.913002773274858" id="-101557">
		<tag k="name" v="Storsletta" />
		<tag k="place" v="locality" />
		<tag k="ssr:stedsnr" v="419529" />
	</node>
	<node lat="69.34151944596164" lon="19.929727753218348" id="-101558">
		<tag k="name" v="Dallien" />
		<tag k="natural" v="slope" />
		<tag k="place" v="locality" />
		<tag k="ssr:stedsnr" v="419531" />
	</node>
	<node lat="69.4079777784938" lon="20.145038872120733" id="-101559">
		<tag k="name" v="Brentvaddas" />
		<tag k="natural" v="hill" />
		<tag k="place" v="locality" />
		<tag k="ssr:stedsnr" v="419737" />
	</node>
	<node lat="69.30151666924759" lon="20.448758307438286" id="-101560">
		<tag k="name" v="Lulledalen" />
		<tag k="natural" v="valley" />
		<tag k="place" v="locality" />
		<tag k="ssr:stedsnr" v="419953" />
	</node>
	<node lat="69.28447778047477" lon="20.475155527273937" id="-101561">
		<tag k="name" v="Láhppingurra" />
		<tag k="name:se" v="Láhppingurra" />
		<tag k="natural" v="valley" />
		<tag k="place" v="locality" />
		<tag k="ssr:stedsnr" v="419954" />
	</node>
	<node lat="69.21244444228401" lon="20.11749721661212" id="-101570">
		<tag k="name" v="Sørdalen - Orjjessuorgi" />
		<tag k="name:fkv" v="Orjassuorki" />
		<tag k="name:no" v="Sørdalen" />
		<tag k="name:se" v="Orjjessuorgi" />
		<tag k="natural" v="valley" />
		<tag k="place" v="locality" />
		<tag k="ssr:stedsnr" v="443068" />
	</node>
	<node lat="69.10126111152648" lon="20.15702497699743" id="-101572">
		<tag k="fixme" v="consider natural=peak for the most distinct mountains in the district" />
		<tag k="name" v="Bárrás" />
		<tag k="name:se" v="Bárrás" />
		<tag k="natural" v="hill" />
		<tag k="place" v="locality" />
		<tag k="ssr:stedsnr" v="443298" />
	</node>
	<node lat="69.15863610705563" lon="20.25377221390728" id="-101573">
		<tag k="name" v="Varitlatnja" />
		<tag k="name:se" v="Varitlatnja" />
		<tag k="natural" v="slope" />
		<tag k="place" v="locality" />
		<tag k="ssr:stedsnr" v="443307" />
	</node>
	<node lat="69.144425000341" lon="20.406022196269216" id="-101575">
		<tag k="name" v="Goahteorotriehppi" />
		<tag k="name:se" v="Goahteorotriehppi" />
		<tag k="natural" v="valley" />
		<tag k="place" v="locality" />
		<tag k="ssr:stedsnr" v="443319" />
	</node>
	<node lat="69.17448333203194" lon="19.972736089136493" id="-101576">
		<tag k="name" v="Heimgardsberget" />
		<tag k="natural" v="hill" />
		<tag k="place" v="locality" />
		<tag k="ssr:stedsnr" v="443321" />
	</node>
	<node lat="69.27503610929337" lon="20.169374987847046" id="-101582">
		<tag k="name" v="Galbmariehppi" />
		<tag k="name:se" v="Galbmariehppi" />
		<tag k="natural" v="valley" />
		<tag k="place" v="locality" />
		<tag k="ssr:stedsnr" v="443420" />
	</node>
	<node lat="69.22205768670686" lon="20.134115052999114" id="-101587">
		<tag k="fixme" v="consider natural=peak for the most distinct mountains in the district" />
		<tag k="name" v="Jiehtanas" />
		<tag k="name:fkv" v="Sokkeritoppi" />
		<tag k="name:se" v="Jiehtanas" />
		<tag k="natural" v="hill" />
		<tag k="place" v="locality" />
		<tag k="ssr:stedsnr" v="443364" />
	</node>
	<node lat="69.23238611320838" lon="20.037322214067586" id="-101588">
		<tag k="name" v="Johtinlatnja" />
		<tag k="name:se" v="Johtinlatnja" />
		<tag k="natural" v="slope" />
		<tag k="place" v="locality" />
		<tag k="ssr:stedsnr" v="443371" />
	</node>
	<node lat="69.3680250016001" lon="20.28503886268282" id="-101595">
		<tag k="name" v="Leaibeluohkká" />
		<tag k="name:se" v="Leaibeluohkká" />
		<tag k="natural" v="slope" />
		<tag k="place" v="locality" />
		<tag k="ssr:stedsnr" v="443464" />
	</node>
	<node lat="69.3477527783513" lon="19.843461110825324" id="-101597">
		<tag k="fixme" v="consider natural=peak for the most distinct mountains in the district" />
		<tag k="name" v="Stálloborri" />
		<tag k="name:se" v="Stálloborri" />
		<tag k="natural" v="hill" />
		<tag k="place" v="locality" />
		<tag k="ssr:stedsnr" v="443471" />
	</node>
	<node lat="69.39437499960245" lon="20.075549992075448" id="-101598">
		<tag k="fixme" v="consider natural=peak for the most distinct mountains in the district" />
		<tag k="name" v="Rastebyfjellet" />
		<tag k="natural" v="hill" />
		<tag k="place" v="locality" />
		<tag k="ssr:stedsnr" v="443479" />
	</node>
	<node lat="69.15500833673765" lon="20.506424988840294" id="-101604">
		<tag k="fixme" v="consider natural=peak for the most distinct mountains in the district" />
		<tag k="name" v="Jeagelbákti" />
		<tag k="name:se" v="Jeagelbákti" />
		<tag k="natural" v="hill" />
		<tag k="place" v="locality" />
		<tag k="ssr:stedsnr" v="444958" />
	</node>
	<node lat="69.30999413039211" lon="20.29214497960435" id="-101612">
		<tag k="fixme" v="consider natural=peak for the most distinct mountains in the district" />
		<tag k="name" v="Kvitlifjellet" />
		<tag k="name:fkv" v="Kuukislomanvaara" />
		<tag k="name:no" v="Kvitlifjellet" />
		<tag k="name:se" v="Guvgesgáisi" />
		<tag k="natural" v="hill" />
		<tag k="place" v="locality" />
		<tag k="ssr:stedsnr" v="503357" />
	</node>
	<node lat="69.28707500264366" lon="20.02053332791534" id="-101626">
		<tag k="name" v="Bergsdalen - Guolbanvággi" />
		<tag k="name:fkv" v="Kuolpanvankka" />
		<tag k="name:no" v="Bergsdalen" />
		<tag k="name:se" v="Guolbanvággi" />
		<tag k="natural" v="valley" />
		<tag k="place" v="locality" />
		<tag k="ssr:stedsnr" v="504386" />
	</node>
	<node lat="69.40507778047142" lon="20.408180549035414" id="-101629">
		<tag k="name" v="Innerskardet" />
		<tag k="natural" v="valley" />
		<tag k="place" v="locality" />
		<tag k="ssr:stedsnr" v="504483" />
	</node>
	<node lat="69.09778611274935" lon="20.920877748543553" id="-101632">
		<tag k="name" v="Biercceráhppát" />
		<tag k="name:se" v="Biercceráhppát" />
		<tag k="natural" v="slope" />
		<tag k="place" v="locality" />
		<tag k="ssr:stedsnr" v="504546" />
	</node>
	<node lat="69.10710833078731" lon="21.076752737088007" id="-101634">
		<tag k="name" v="Buolvirgorsa" />
		<tag k="name:se" v="Buolvirgorsa" />
		<tag k="natural" v="valley" />
		<tag k="place" v="locality" />
		<tag k="ssr:stedsnr" v="504561" />
	</node>
	<node lat="69.35536635438234" lon="20.181893560881573" id="-101635">
		<tag k="fixme" v="consider natural=peak for the most distinct mountains in the district" />
		<tag k="name" v="Falsnesfjellet" />
		<tag k="name:fkv" v="Falisniemenvaara" />
		<tag k="name:no" v="Falsnesfjellet" />
		<tag k="name:se" v="Falsnjárvárri" />
		<tag k="natural" v="hill" />
		<tag k="place" v="locality" />
		<tag k="ssr:stedsnr" v="504452" />
	</node>
	<node lat="69.37966666325059" lon="19.967680538616882" id="-101638">
		<tag k="fixme" v="consider natural=peak for the most distinct mountains in the district" />
		<tag k="name" v="Middagshaugen" />
		<tag k="name:no" v="Middagshaugen" />
		<tag k="name:se" v="Gaskabeaičohkka" />
		<tag k="natural" v="hill" />
		<tag k="place" v="locality" />
		<tag k="ssr:stedsnr" v="504495" />
	</node>
	<node lat="69.37895000119667" lon="19.910499998997224" id="-101639">
		<tag k="fixme" v="consider natural=peak for the most distinct mountains in the district" />
		<tag k="name" v="Steindalstinden" />
		<tag k="natural" v="hill" />
		<tag k="place" v="locality" />
		<tag k="ssr:stedsnr" v="504496" />
	</node>
	<node lat="69.25885000483329" lon="20.077905535109995" id="-101641">
		<tag k="alt_name:no" v="Skardet" />
		<tag k="loc_name:se" v="Dittiváddjá" />
		<tag k="name" v="Skaret" />
		<tag k="name:no" v="Skaret" />
		<tag k="natural" v="valley" />
		<tag k="place" v="locality" />
		<tag k="ssr:stedsnr" v="504588" />
	</node>
	<node lat="69.25118333185947" lon="20.488088858756722" id="-101644">
		<tag k="fixme" v="consider natural=peak for the most distinct mountains in the district" />
		<tag k="name" v="Stuoratoainibba" />
		<tag k="name:se" v="Stuoratoainibba" />
		<tag k="natural" v="hill" />
		<tag k="place" v="locality" />
		<tag k="ssr:stedsnr" v="504692" />
	</node>
	<node lat="69.12172500087298" lon="20.95330830298816" id="-101649">
		<tag k="name" v="Duolbaleattan" />
		<tag k="name:se" v="Duolbaleattan" />
		<tag k="natural" v="slope" />
		<tag k="place" v="locality" />
		<tag k="ssr:stedsnr" v="504953" />
	</node>
	<node lat="69.26519166949916" lon="19.929772200975798" id="-101653">
		<tag k="alt_name:no" v="Helleren" />
		<tag k="name" v="Hellaren" />
		<tag k="name:fkv" v="Allionpahta" />
		<tag k="name:no" v="Hellaren" />
		<tag k="name:se" v="Álli" />
		<tag k="natural" v="hill" />
		<tag k="place" v="locality" />
		<tag k="ssr:stedsnr" v="509948" />
	</node>
	<node lat="69.20719722070102" lon="19.959180548884845" id="-101664">
		<tag k="name" v="Luppolia" />
		<tag k="natural" v="slope" />
		<tag k="place" v="locality" />
		<tag k="ssr:stedsnr" v="540495" />
	</node>
	<node lat="69.2276111137356" lon="19.929699985558795" id="-101666">
		<tag k="name" v="Riehppi" />
		<tag k="name:se" v="Riehppi" />
		<tag k="natural" v="valley" />
		<tag k="place" v="locality" />
		<tag k="ssr:stedsnr" v="539326" />
	</node>
	<node lat="69.15123888861392" lon="20.037966663775947" id="-101669">
		<tag k="name" v="Gjerddalen" />
		<tag k="natural" v="valley" />
		<tag k="place" v="locality" />
		<tag k="ssr:stedsnr" v="539349" />
	</node>
	<node lat="69.13001110815341" lon="20.07399166219141" id="-101670">
		<tag k="name" v="Kruslokkmoen" />
		<tag k="place" v="locality" />
		<tag k="ssr:stedsnr" v="539352" />
	</node>
	<node lat="69.23028333210299" lon="19.961891655700075" id="-101672">
		<tag k="name" v="Låstebakkan" />
		<tag k="natural" v="slope" />
		<tag k="place" v="locality" />
		<tag k="ssr:stedsnr" v="539449" />
	</node>
	<node lat="69.2184083334971" lon="19.96187775290508" id="-101673">
		<tag k="name" v="Falkberget" />
		<tag k="natural" v="hill" />
		<tag k="place" v="locality" />
		<tag k="ssr:stedsnr" v="539457" />
	</node>
	<node lat="69.3857499986265" lon="20.274349995098717" id="-101675">
		<tag k="name" v="Rasingen" />
		<tag k="natural" v="slope" />
		<tag k="place" v="locality" />
		<tag k="ssr:stedsnr" v="540127" />
	</node>
	<node lat="69.35805833672505" lon="20.241194427192553" id="-101678">
		<tag k="name" v="Borrivollen" />
		<tag k="place" v="locality" />
		<tag k="ssr:stedsnr" v="540229" />
	</node>
	<node lat="69.30820000293672" lon="20.382955538413356" id="-101681">
		<tag k="name" v="Kvitberg" />
		<tag k="natural" v="hill" />
		<tag k="place" v="locality" />
		<tag k="ssr:stedsnr" v="540241" />
	</node>
	<node lat="69.31330555276797" lon="20.36117221439038" id="-101682">
		<tag k="name" v="Øvre Kvitlia" />
		<tag k="natural" v="slope" />
		<tag k="place" v="locality" />
		<tag k="ssr:stedsnr" v="540242" />
	</node>
	<node lat="69.26400833220633" lon="20.00031943440485" id="-101686">
		<tag k="name" v="Hattelia" />
		<tag k="natural" v="slope" />
		<tag k="place" v="locality" />
		<tag k="ssr:stedsnr" v="540436" />
	</node>
	<node lat="69.34183055404868" lon="19.935224986180984" id="-101687">
		<tag k="name" v="Salljariidi" />
		<tag k="name:se" v="Salljariidi" />
		<tag k="natural" v="slope" />
		<tag k="place" v="locality" />
		<tag k="ssr:stedsnr" v="540537" />
	</node>
	<node lat="69.32818055979995" lon="19.912388884548502" id="-101688">
		<tag k="loc_name:se" v="Ánddálokta" />
		<tag k="name" v="Antalåkta" />
		<tag k="name:no" v="Antalåkta" />
		<tag k="natural" v="hill" />
		<tag k="place" v="locality" />
		<tag k="ssr:stedsnr" v="540555" />
	</node>
	<node lat="69.34421944851195" lon="19.959469441265774" id="-101689">
		<tag k="name" v="Grabberiidi" />
		<tag k="name:se" v="Grabberiidi" />
		<tag k="natural" v="slope" />
		<tag k="place" v="locality" />
		<tag k="ssr:stedsnr" v="540558" />
	</node>
	<node lat="69.1907083338759" lon="19.98100554463142" id="-101703">
		<tag k="fixme" v="multiple name:fkv tags, choose one and add the other to alt_name:fkv" />
		<tag k="name" v="Signaldalen" />
		<tag k="name:fkv" v="Singalanouta;Singala" />
		<tag k="name:no" v="Signaldalen" />
		<tag k="name:se" v="Čiekŋalvuovdi" />
		<tag k="natural" v="valley" />
		<tag k="place" v="locality" />
		<tag k="ssr:stedsnr" v="564318" />
	</node>
	<node lat="69.10157778045111" lon="19.987849990428007" id="-101704">
		<tag k="name" v="Finnelvskardet" />
		<tag k="natural" v="valley" />
		<tag k="place" v="locality" />
		<tag k="ssr:stedsnr" v="564276" />
	</node>
	<node lat="69.27933611469766" lon="19.744338883065208" id="-101707">
		<tag k="fixme" v="consider natural=peak for the most distinct mountains in the district" />
		<tag k="loc_name:se" v="Riehppevárri" />
		<tag k="name" v="Rieppetinden" />
		<tag k="name:no" v="Rieppetinden" />
		<tag k="natural" v="hill" />
		<tag k="old_name:no" v="Rippetinden" />
		<tag k="place" v="locality" />
		<tag k="ssr:stedsnr" v="564300" />
	</node>
	<node lat="69.22373610974594" lon="19.913311088070177" id="-101714">
		<tag k="fixme" v="consider natural=peak for the most distinct mountains in the district" />
		<tag k="name" v="Čávkosvárri" />
		<tag k="name:se" v="Čávkosvárri" />
		<tag k="natural" v="hill" />
		<tag k="old_name:se" v="Čavkosvárri" />
		<tag k="place" v="locality" />
		<tag k="ssr:stedsnr" v="564338" />
	</node>
	<node lat="69.24665000082935" lon="20.251311104992286" id="-101717">
		<tag k="fixme" v="consider natural=peak for the most distinct mountains in the district" />
		<tag k="name" v="Heargevárri" />
		<tag k="name:se" v="Heargevárri" />
		<tag k="natural" v="hill" />
		<tag k="place" v="locality" />
		<tag k="ssr:stedsnr" v="564362" />
	</node>
	<node lat="69.23549583156719" lon="20.142406223406848" id="-101718">
		<tag k="alt_name:se" v="Ráigadasgieddi" />
		<tag k="name" v="Ráidarasgieddi" />
		<tag k="name:fkv" v="Raitiskenttä" />
		<tag k="name:se" v="Ráidarasgieddi" />
		<tag k="place" v="locality" />
		<tag k="ssr:stedsnr" v="564366" />
	</node>
	<node lat="69.29472499635268" lon="20.1776833234238" id="-101719">
		<tag k="name" v="Doaresdievvá" />
		<tag k="name:se" v="Doaresdievvá" />
		<tag k="natural" v="hill" />
		<tag k="place" v="locality" />
		<tag k="ssr:stedsnr" v="564401" />
	</node>
	<node lat="69.37470555327431" lon="20.384758306117014" id="-101720">
		<tag k="fixme" v="consider natural=peak for the most distinct mountains in the district" />
		<tag k="name" v="Ádjetnjunni" />
		<tag k="name:se" v="Ádjetnjunni" />
		<tag k="natural" v="hill" />
		<tag k="place" v="locality" />
		<tag k="ssr:stedsnr" v="564468" />
	</node>
	<node lat="69.37473611557566" lon="19.990991643548888" id="-101722">
		<tag k="fixme" v="consider natural=peak for the most distinct mountains in the district" />
		<tag k="name" v="Rundtinden" />
		<tag k="name:no" v="Rundtinden" />
		<tag k="name:se" v="Jorbaoaivi" />
		<tag k="natural" v="hill" />
		<tag k="place" v="locality" />
		<tag k="ssr:stedsnr" v="564513" />
	</node>
	<node lat="69.36757500060288" lon="20.4364055399588" id="-101723">
		<tag k="name" v="Davit Ádjetriehppi" />
		<tag k="name:se" v="Davit Ádjetriehppi" />
		<tag k="natural" v="valley" />
		<tag k="old_name:se" v="Ádjetriehppi, davit" />
		<tag k="place" v="locality" />
		<tag k="ssr:stedsnr" v="564515" />
	</node>
	<node lat="69.41586944664297" lon="20.451705544150833" id="-101724">
		<tag k="fixme" v="consider natural=peak for the most distinct mountains in the district" />
		<tag k="name" v="Ruikatnjárčohkka" />
		<tag k="name:se" v="Ruikatnjárčohkka" />
		<tag k="natural" v="hill" />
		<tag k="place" v="locality" />
		<tag k="ssr:stedsnr" v="564533" />
	</node>
	<node lat="69.2869111159491" lon="20.641736090453534" id="-101725">
		<tag k="name" v="Doggevággi" />
		<tag k="name:se" v="Doggevággi" />
		<tag k="natural" v="valley" />
		<tag k="place" v="locality" />
		<tag k="ssr:stedsnr" v="564683" />
	</node>
	<node lat="69.28649999976278" lon="20.54059997694191" id="-101726">
		<tag k="fixme" v="consider natural=peak for the most distinct mountains in the district" />
		<tag k="name" v="Halsefjellet - Čeabet" />
		<tag k="name:no" v="Halsefjellet" />
		<tag k="name:se" v="Čeabet" />
		<tag k="natural" v="hill" />
		<tag k="place" v="locality" />
		<tag k="ssr:stedsnr" v="564684" />
	</node>
	<node lat="69.27392499605206" lon="20.488619431546503" id="-101727">
		<tag k="fixme" v="consider natural=peak for the most distinct mountains in the district" />
		<tag k="name" v="Hengen" />
		<tag k="natural" v="hill" />
		<tag k="place" v="locality" />
		<tag k="ssr:stedsnr" v="564687" />
	</node>
	<node lat="69.13190000207463" lon="20.735063858140457" id="-101728">
		<tag k="name" v="Salloguolbanat" />
		<tag k="name:se" v="Salloguolbanat" />
		<tag k="place" v="locality" />
		<tag k="ssr:stedsnr" v="564945" />
	</node>
	<node lat="69.05892778022034" lon="21.022277755868693" id="-101730">
		<tag k="fixme" v="consider natural=peak for the most distinct mountains in the district" />
		<tag k="name" v="Čoahppevárri" />
		<tag k="name:se" v="Čoahppevárri" />
		<tag k="natural" v="hill" />
		<tag k="place" v="locality" />
		<tag k="ssr:stedsnr" v="565558" />
	</node>
	<node lat="69.0363753052805" lon="21.057359636566485" id="-101731">
		<tag k="fixme" v="consider natural=peak for the most distinct mountains in the district" />
		<tag k="name" v="Muvravárri" />
		<tag k="name:se" v="Muvravárri" />
		<tag k="natural" v="hill" />
		<tag k="old_name:se" v="Murravárri" />
		<tag k="place" v="locality" />
		<tag k="ssr:stedsnr" v="565560" />
	</node>
	<node lat="69.18624166699749" lon="20.563619425095435" id="-101732">
		<tag k="name" v="Rihposkohppi" />
		<tag k="name:se" v="Rihposkohppi" />
		<tag k="natural" v="valley" />
		<tag k="place" v="locality" />
		<tag k="ssr:stedsnr" v="565971" />
	</node>
	<node lat="69.19419999973269" lon="20.88368330227597" id="-101734">
		<tag k="fixme" v="consider natural=peak for the most distinct mountains in the district" />
		<tag k="name" v="Didnočohkka" />
		<tag k="name:se" v="Didnočohkka" />
		<tag k="natural" v="hill" />
		<tag k="place" v="locality" />
		<tag k="ssr:stedsnr" v="565973" />
	</node>
	<node lat="69.20112778076853" lon="20.785038862363855" id="-101735">
		<tag k="fixme" v="consider natural=peak for the most distinct mountains in the district" />
		<tag k="name" v="Boginippat" />
		<tag k="name:se" v="Boginippat" />
		<tag k="natural" v="hill" />
		<tag k="place" v="locality" />
		<tag k="ssr:stedsnr" v="565974" />
	</node>
	<node lat="69.37876388695956" lon="20.181386084967755" id="-101741">
		<tag k="name" v="Storaksla" />
		<tag k="name:fkv" v="Iso-olka" />
		<tag k="name:no" v="Storaksla" />
		<tag k="name:se" v="Stuoraoalgi" />
		<tag k="place" v="locality" />
		<tag k="ssr:stedsnr" v="577914" />
	</node>
	<node lat="69.2913444457795" lon="19.90108610088025" id="-101753">
		<tag k="loc_name:se" v="Váttis" />
		<tag k="name" v="Vaddas" />
		<tag k="name:no" v="Vaddas" />
		<tag k="natural" v="hill" />
		<tag k="place" v="locality" />
		<tag k="ssr:stedsnr" v="599393" />
	</node>
	<node lat="69.36662778149189" lon="20.242188883001234" id="-101757">
		<tag k="name" v="Snaldobakken" />
		<tag k="natural" v="slope" />
		<tag k="place" v="locality" />
		<tag k="ssr:stedsnr" v="600240" />
	</node>
	<node lat="69.37192778128848" lon="20.271863861669885" id="-101760">
		<tag k="name" v="Hundhalsen" />
		<tag k="natural" v="valley" />
		<tag k="place" v="locality" />
		<tag k="ssr:stedsnr" v="600135" />
	</node>
	<node lat="69.37186388833847" lon="20.26514999392619" id="-101761">
		<tag k="name" v="Hotinuitto" />
		<tag k="name:fkv" v="Hotinuitto" />
		<tag k="natural" v="slope" />
		<tag k="place" v="locality" />
		<tag k="ssr:stedsnr" v="600136" />
	</node>
	<node lat="69.22197778134868" lon="19.96375276182545" id="-101762">
		<tag k="name" v="Kjøttberget" />
		<tag k="natural" v="hill" />
		<tag k="place" v="locality" />
		<tag k="ssr:stedsnr" v="600463" />
	</node>
	<node lat="69.22141944427906" lon="19.973427769918153" id="-101763">
		<tag k="name" v="Masseveian" />
		<tag k="natural" v="hill" />
		<tag k="place" v="locality" />
		<tag k="ssr:stedsnr" v="600464" />
	</node>
	<node lat="69.33210555856449" lon="20.078902752002264" id="-101766">
		<tag k="loc_name:se" v="Láđđogieddi" />
		<tag k="name" v="Lavollen" />
		<tag k="name:no" v="Lavollen" />
		<tag k="place" v="locality" />
		<tag k="ssr:stedsnr" v="600699" />
	</node>
	<node lat="69.25852499720449" lon="19.952822195980257" id="-101768">
		<tag k="name" v="Langmyrbergan" />
		<tag k="natural" v="hill" />
		<tag k="place" v="locality" />
		<tag k="ssr:stedsnr" v="600533" />
	</node>
	<node lat="69.25410277652027" lon="19.965938876055947" id="-101769">
		<tag k="alt_name" v="Skjellhompen" />
		<tag k="loc_name" v="Bjørnhumpen" />
		<tag k="name" v="Skjellhumpen" />
		<tag k="natural" v="hill" />
		<tag k="place" v="locality" />
		<tag k="ssr:stedsnr" v="600536" />
	</node>
	<node lat="69.24432222114905" lon="19.937349987476672" id="-101770">
		<tag k="name" v="Råttskinnet" />
		<tag k="place" v="locality" />
		<tag k="ssr:stedsnr" v="600539" />
	</node>
	<node lat="69.12627222098338" lon="20.093011099809072" id="-101775">
		<tag k="name" v="Sætermoen" />
		<tag k="place" v="locality" />
		<tag k="ssr:stedsnr" v="600677" />
	</node>
	<node lat="69.28696388908226" lon="20.44983609047773" id="-101777">
		<tag k="name" v="Gustavberget" />
		<tag k="natural" v="hill" />
		<tag k="place" v="locality" />
		<tag k="ssr:stedsnr" v="600964" />
	</node>
	<node lat="69.14034999829647" lon="20.357380525125908" id="-101784">
		<tag k="loc_name:no" v="Govdadalen" />
		<tag k="name" v="Breidalen - Govdavággi" />
		<tag k="name:no" v="Breidalen" />
		<tag k="name:se" v="Govdavággi" />
		<tag k="natural" v="valley" />
		<tag k="old_name:no" v="Breiddalen" />
		<tag k="place" v="locality" />
		<tag k="ssr:stedsnr" v="624320" />
	</node>
	<node lat="69.3121777813733" lon="20.25908053322459" id="-101786">
		<tag k="name" v="Gihcceriehppi" />
		<tag k="name:se" v="Gihcceriehppi" />
		<tag k="natural" v="valley" />
		<tag k="place" v="locality" />
		<tag k="ssr:stedsnr" v="624452" />
	</node>
	<node lat="69.2924861122876" lon="20.424227770562293" id="-101787">
		<tag k="name" v="Sitnodievvá" />
		<tag k="name:se" v="Sitnodievvá" />
		<tag k="natural" v="hill" />
		<tag k="place" v="locality" />
		<tag k="ssr:stedsnr" v="624531" />
	</node>
	<node lat="69.21625869528951" lon="20.143569833350398" id="-101789">
		<tag k="fixme" v="consider natural=peak for the most distinct mountains in the district" />
		<tag k="name" v="Moskkogáisi" />
		<tag k="name:fkv" v="Moskukaisa" />
		<tag k="name:se" v="Moskkogáisi" />
		<tag k="natural" v="hill" />
		<tag k="place" v="locality" />
		<tag k="ssr:stedsnr" v="625355" />
	</node>
	<node lat="69.0943250010162" lon="20.13637776050866" id="-101790">
		<tag k="name" v="Bárráslatnja" />
		<tag k="name:se" v="Bárráslatnja" />
		<tag k="natural" v="slope" />
		<tag k="place" v="locality" />
		<tag k="ssr:stedsnr" v="625294" />
	</node>
	<node lat="69.10350000309101" lon="20.362949978496097" id="-101791">
		<tag k="name" v="Várrelatnja" />
		<tag k="name:se" v="Várrelatnja" />
		<tag k="natural" v="slope" />
		<tag k="place" v="locality" />
		<tag k="ssr:stedsnr" v="625296" />
	</node>
	<node lat="69.26412777868102" lon="20.033824989673843" id="-101794">
		<tag k="fixme" v="consider natural=peak for the most distinct mountains in the district" />
		<tag k="name" v="Háhttagáisi" />
		<tag k="name:se" v="Háhttagáisi" />
		<tag k="natural" v="hill" />
		<tag k="place" v="locality" />
		<tag k="ssr:stedsnr" v="625398" />
	</node>
	<node lat="69.3181111120068" lon="20.538763871176002" id="-101802">
		<tag k="fixme" v="consider natural=peak for the most distinct mountains in the district" />
		<tag k="name" v="Fávrrosvárnjunni" />
		<tag k="name:se" v="Fávrrosvárnjunni" />
		<tag k="natural" v="hill" />
		<tag k="place" v="locality" />
		<tag k="ssr:stedsnr" v="625534" />
	</node>
	<node lat="69.26831111101282" lon="20.655711088915385" id="-101804">
		<tag k="fixme" v="consider natural=peak for the most distinct mountains in the district" />
		<tag k="name" v="Doggeoaivi" />
		<tag k="name:se" v="Doggeoaivi" />
		<tag k="natural" v="hill" />
		<tag k="place" v="locality" />
		<tag k="ssr:stedsnr" v="625732" />
	</node>
	<node lat="69.13493610921262" lon="20.793774968638612" id="-101805">
		<tag k="fixme" v="consider natural=peak for the most distinct mountains in the district" />
		<tag k="name" v="Gálggonjunni" />
		<tag k="name:se" v="Gálggonjunni" />
		<tag k="natural" v="hill" />
		<tag k="place" v="locality" />
		<tag k="ssr:stedsnr" v="625954" />
	</node>
	<node lat="69.14143610981277" lon="20.50099164820622" id="-101807">
		<tag k="fixme" v="consider natural=peak for the most distinct mountains in the district" />
		<tag k="name" v="Jeagellatnja" />
		<tag k="name:se" v="Jeagellatnja" />
		<tag k="natural" v="hill" />
		<tag k="place" v="locality" />
		<tag k="ssr:stedsnr" v="625950" />
	</node>
	<node lat="69.16926388993653" lon="20.93969998181507" id="-101810">
		<tag k="fixme" v="consider natural=peak for the most distinct mountains in the district" />
		<tag k="name" v="Vuolit Gieddeoaivi" />
		<tag k="name:se" v="Vuolit Gieddeoaivi" />
		<tag k="natural" v="hill" />
		<tag k="old_name:se" v="Gieddeoaivi, vuolit" />
		<tag k="place" v="locality" />
		<tag k="ssr:stedsnr" v="625967" />
	</node>
	<node lat="69.23788889352177" lon="20.636438865183333" id="-101812">
		<tag k="name" v="Dalmunningen" />
		<tag k="natural" v="valley" />
		<tag k="place" v="locality" />
		<tag k="ssr:stedsnr" v="626995" />
	</node>
	<node lat="69.18977500218558" lon="20.43644997415836" id="-101813">
		<tag k="name" v="Ruksesvággi" />
		<tag k="name:se" v="Ruksesvággi" />
		<tag k="natural" v="valley" />
		<tag k="place" v="locality" />
		<tag k="ssr:stedsnr" v="626978" />
	</node>
	<node lat="69.21077777871227" lon="20.973733313882924" id="-101814">
		<tag k="name" v="Skihpavággi" />
		<tag k="name:se" v="Skihpavággi" />
		<tag k="natural" v="valley" />
		<tag k="place" v="locality" />
		<tag k="ssr:stedsnr" v="626979" />
	</node>
	<node lat="69.19978333782086" lon="20.667127763494328" id="-101815">
		<tag k="fixme" v="consider natural=peak for the most distinct mountains in the district" />
		<tag k="name" v="Várddut" />
		<tag k="name:se" v="Várddut" />
		<tag k="natural" v="hill" />
		<tag k="place" v="locality" />
		<tag k="ssr:stedsnr" v="626982" />
	</node>
	<node lat="69.2198777806546" lon="20.899299965488115" id="-101816">
		<tag k="fixme" v="consider natural=peak for the most distinct mountains in the district" />
		<tag k="name" v="Suolonibba" />
		<tag k="name:se" v="Suolonibba" />
		<tag k="natural" v="hill" />
		<tag k="place" v="locality" />
		<tag k="ssr:stedsnr" v="626985" />
	</node>
	<node lat="69.19210000167718" lon="20.201452768072983" id="-101817">
		<tag k="fixme" v="consider natural=peak for the most distinct mountains in the district" />
		<tag k="name" v="Moskkogáissinjunni" />
		<tag k="name:se" v="Moskkogáissinjunni" />
		<tag k="natural" v="hill" />
		<tag k="place" v="locality" />
		<tag k="ssr:stedsnr" v="625339" />
	</node>
	<node lat="69.3261388872474" lon="19.927911085946818" id="-101819">
		<tag k="fixme" v="consider natural=peak for the most distinct mountains in the district" />
		<tag k="name" v="Middagsfjellet" />
		<tag k="name:fkv" v="Keskipäivänvaara" />
		<tag k="name:no" v="Middagsfjellet" />
		<tag k="name:se" v="Gaskabeaivárri" />
		<tag k="natural" v="hill" />
		<tag k="place" v="locality" />
		<tag k="ssr:stedsnr" v="625410" />
	</node>
	<node lat="69.21882221964205" lon="19.888961101052868" id="-101830">
		<tag k="loc_name:se" v="Luhpporiehppi" />
		<tag k="name" v="Lupposkaret" />
		<tag k="name:no" v="Lupposkaret" />
		<tag k="natural" v="valley" />
		<tag k="place" v="locality" />
		<tag k="ssr:stedsnr" v="655243" />
	</node>
	<node lat="69.25192500210656" lon="19.8955166635545" id="-101832">
		<tag k="loc_name" v="Fállstohkkedearbmi" />
		<tag k="name" v="Fallstokkbakken" />
		<tag k="natural" v="slope" />
		<tag k="place" v="locality" />
		<tag k="ssr:stedsnr" v="660418" />
	</node>
	<node lat="69.2708750032113" lon="19.964480539801365" id="-101833">
		<tag k="name" v="Sokkbakken" />
		<tag k="natural" v="slope" />
		<tag k="place" v="locality" />
		<tag k="ssr:stedsnr" v="660438" />
	</node>
	<node lat="69.33743611377842" lon="19.949866651837016" id="-101837">
		<tag k="loc_name:se" v="Ándáradievvá" />
		<tag k="name" v="Anderbakken" />
		<tag k="name:no" v="Anderbakken" />
		<tag k="natural" v="slope" />
		<tag k="place" v="locality" />
		<tag k="ssr:stedsnr" v="661516" />
	</node>
	<node lat="69.33382778165314" lon="19.921880533920465" id="-101838">
		<tag k="loc_name:se" v="Ráiddáš" />
		<tag k="name" v="Raidas" />
		<tag k="name:no" v="Raidas" />
		<tag k="natural" v="slope" />
		<tag k="place" v="locality" />
		<tag k="ssr:stedsnr" v="661519" />
	</node>
	<node lat="69.33763332920404" lon="19.976905545525142" id="-101839">
		<tag k="name" v="Borkavollen" />
		<tag k="place" v="locality" />
		<tag k="ssr:stedsnr" v="661521" />
	</node>
	<node lat="69.3295638916444" lon="19.96068331209973" id="-101841">
		<tag k="name" v="Latnja" />
		<tag k="name:se" v="Latnja" />
		<tag k="place" v="locality" />
		<tag k="ssr:stedsnr" v="661528" />
	</node>
	<node lat="69.35670832957811" lon="19.992091650000916" id="-101842">
		<tag k="loc_name:se" v="Ruksesorrit" />
		<tag k="name" v="Rødberget" />
		<tag k="name:no" v="Rødberget" />
		<tag k="natural" v="hill" />
		<tag k="place" v="locality" />
		<tag k="ssr:stedsnr" v="661584" />
	</node>
	<node lat="69.19424167087458" lon="19.967291647188897" id="-101846">
		<tag k="name" v="Mærrabakken" />
		<tag k="natural" v="slope" />
		<tag k="place" v="locality" />
		<tag k="ssr:stedsnr" v="661358" />
	</node>
	<node lat="69.23129167093256" lon="19.986711108048382" id="-101847">
		<tag k="name" v="Brenthaugen" />
		<tag k="natural" v="hill" />
		<tag k="place" v="locality" />
		<tag k="ssr:stedsnr" v="661444" />
	</node>
	<node lat="69.29831944666002" lon="19.987024975692812" id="-101852">
		<tag k="name" v="Storbakken" />
		<tag k="natural" v="slope" />
		<tag k="place" v="locality" />
		<tag k="ssr:stedsnr" v="661573" />
	</node>
	<node lat="69.29354722136388" lon="20.403747204356655" id="-101853">
		<tag k="name" v="Norddalsvollen" />
		<tag k="place" v="locality" />
		<tag k="ssr:stedsnr" v="661969" />
	</node>
	<node lat="69.3276972217476" lon="20.320691641121893" id="-101862">
		<tag k="name" v="Storbakken" />
		<tag k="natural" v="slope" />
		<tag k="place" v="locality" />
		<tag k="ssr:stedsnr" v="722039" />
	</node>
	<node lat="69.37420833446605" lon="20.185194432153658" id="-101865">
		<tag k="loc_name:se" v="Ruonasriidi" />
		<tag k="name" v="Grønnlia" />
		<tag k="name:no" v="Grønnlia" />
		<tag k="natural" v="slope" />
		<tag k="place" v="locality" />
		<tag k="ssr:stedsnr" v="722233" />
	</node>
	<node lat="69.23260555867968" lon="19.97701942261869" id="-101867">
		<tag k="loc_name:se" v="Boarredievvá" />
		<tag k="name" v="Borrebakken" />
		<tag k="name:no" v="Borrebakken" />
		<tag k="natural" v="slope" />
		<tag k="place" v="locality" />
		<tag k="ssr:stedsnr" v="722484" />
	</node>
	<node lat="69.2426055555722" lon="19.974072214549683" id="-101869">
		<tag k="name" v="Hovde" />
		<tag k="natural" v="hill" />
		<tag k="place" v="locality" />
		<tag k="ssr:stedsnr" v="722595" />
	</node>
	<node lat="69.2488638924652" lon="19.956880546947232" id="-101871">
		<tag k="loc_name:se" v="Jovnnabákti" />
		<tag k="name" v="Jobergan" />
		<tag k="name:no" v="Jobergan" />
		<tag k="natural" v="hill" />
		<tag k="place" v="locality" />
		<tag k="ssr:stedsnr" v="722598" />
	</node>
	<node lat="69.3668527783391" lon="20.218555534553172" id="-101872">
		<tag k="name" v="Riidi" />
		<tag k="name:se" v="Riidi" />
		<tag k="natural" v="slope" />
		<tag k="place" v="locality" />
		<tag k="ssr:stedsnr" v="722750" />
	</node>
	<node lat="69.21622777605556" lon="19.934408329846224" id="-101891">
		<tag k="fixme" v="consider natural=peak for the most distinct mountains in the district" />
		<tag k="name" v="Otertinden - Ivvárasággi" />
		<tag k="name:no" v="Otertinden" />
		<tag k="name:se" v="Ivvárasággi" />
		<tag k="natural" v="hill" />
		<tag k="place" v="locality" />
		<tag k="ssr:stedsnr" v="746338" />
	</node>
	<node lat="69.24818481881402" lon="20.18696710059596" id="-101892">
		<tag k="fixme" v="consider natural=peak for the most distinct mountains in the district" />
		<tag k="name" v="Ráigegáisi" />
		<tag k="name:fkv" v="Raikiskaisa" />
		<tag k="name:se" v="Ráigegáisi" />
		<tag k="natural" v="hill" />
		<tag k="place" v="locality" />
		<tag k="ssr:stedsnr" v="746363" />
	</node>
	<node lat="69.39329999556816" lon="20.37054721453838" id="-101894">
		<tag k="fixme" v="consider natural=peak for the most distinct mountains in the district" />
		<tag k="name" v="Bálggesvárnjunni" />
		<tag k="name:se" v="Bálggesvárnjunni" />
		<tag k="natural" v="hill" />
		<tag k="place" v="locality" />
		<tag k="ssr:stedsnr" v="746493" />
	</node>
	<node lat="69.37203333705608" lon="20.228211102785338" id="-101897">
		<tag k="name" v="Apaja" />
		<tag k="name:fkv" v="Apaja" />
		<tag k="natural" v="slope" />
		<tag k="place" v="locality" />
		<tag k="ssr:stedsnr" v="746434" />
	</node>
	<node lat="69.29556389199423" lon="20.50737499433028" id="-101901">
		<tag k="name" v="Speainnačohkat" />
		<tag k="name:se" v="Speainnačohkat" />
		<tag k="natural" v="hill" />
		<tag k="place" v="locality" />
		<tag k="ssr:stedsnr" v="746542" />
	</node>
	<node lat="69.25570277944459" lon="20.96712498447735" id="-101903">
		<tag k="fixme" v="consider natural=peak for the most distinct mountains in the district" />
		<tag k="name" v="Smuolkorášša" />
		<tag k="name:se" v="Smuolkorášša" />
		<tag k="natural" v="hill" />
		<tag k="place" v="locality" />
		<tag k="ssr:stedsnr" v="746660" />
	</node>
	<node lat="69.10753333673826" lon="20.933391634191963" id="-101905">
		<tag k="fixme" v="consider natural=peak for the most distinct mountains in the district" />
		<tag k="name" v="Gállaoaivi" />
		<tag k="name:se" v="Gállaoaivi" />
		<tag k="natural" v="hill" />
		<tag k="place" v="locality" />
		<tag k="ssr:stedsnr" v="747523" />
	</node>
	<node lat="69.07835000400381" lon="20.996013852897903" id="-101906">
		<tag k="fixme" v="consider natural=peak for the most distinct mountains in the district" />
		<tag k="name" v="Sáđgevárri" />
		<tag k="name:se" v="Sáđgevárri" />
		<tag k="natural" v="hill" />
		<tag k="place" v="locality" />
		<tag k="ssr:stedsnr" v="747528" />
	</node>
	<node lat="69.08199999864343" lon="20.537588870434337" id="-101907">
		<tag k="fixme" v="consider natural=peak for the most distinct mountains in the district" />
		<tag k="name" v="Golddabákti" />
		<tag k="name:se" v="Golddabákti" />
		<tag k="natural" v="hill" />
		<tag k="place" v="locality" />
		<tag k="ssr:stedsnr" v="747530" />
	</node>
	<node lat="69.05893333226648" lon="20.430533320558922" id="-101908">
		<tag k="fixme" v="multiple name tags, choose one and add the other to alt_name" />
		<tag k="name" v="Valljihat;Gåldahaugen" />
		<tag k="name:se" v="Valljihat;Gåldahaugen" />
		<tag k="natural" v="hill" />
		<tag k="place" v="locality" />
		<tag k="ssr:stedsnr" v="747534" />
	</node>
	<node lat="69.19744999827435" lon="19.97815275123238" id="-101911">
		<tag k="name" v="Gustavmoen" />
		<tag k="place" v="locality" />
		<tag k="ssr:stedsnr" v="747325" />
	</node>
	<node lat="69.20163333808034" lon="20.772499975125676" id="-101915">
		<tag k="name" v="Bogileahki" />
		<tag k="name:se" v="Bogileahki" />
		<tag k="natural" v="valley" />
		<tag k="place" v="locality" />
		<tag k="ssr:stedsnr" v="747974" />
	</node>
	<node lat="69.18356944539482" lon="19.967369430857232" id="-101926">
		<tag k="name" v="Svaberget" />
		<tag k="natural" v="hill" />
		<tag k="place" v="locality" />
		<tag k="ssr:stedsnr" v="782336" />
	</node>
	<node lat="69.25631388599493" lon="19.88183052928578" id="-101928">
		<tag k="name" v="Oterrabben" />
		<tag k="natural" v="hill" />
		<tag k="place" v="locality" />
		<tag k="ssr:stedsnr" v="782374" />
	</node>
	<node lat="69.40197499996012" lon="20.30966664606092" id="-101931">
		<tag k="name" v="Innerhalsen" />
		<tag k="natural" v="valley" />
		<tag k="place" v="locality" />
		<tag k="ssr:stedsnr" v="783070" />
	</node>
	<node lat="69.38877777655647" lon="20.27126943016787" id="-101933">
		<tag k="name" v="Stormælen" />
		<tag k="natural" v="slope" />
		<tag k="place" v="locality" />
		<tag k="ssr:stedsnr" v="783095" />
	</node>
	<node lat="69.37658055583437" lon="20.227466650687177" id="-101935">
		<tag k="loc_name:se" v="Smávvasilddit" />
		<tag k="name" v="Småbruen" />
		<tag k="name:no" v="Småbruen" />
		<tag k="place" v="locality" />
		<tag k="ssr:stedsnr" v="783195" />
	</node>
	<node lat="69.33725000404569" lon="19.92831389002627" id="-101936">
		<tag k="name" v="Tverrbakken" />
		<tag k="natural" v="slope" />
		<tag k="place" v="locality" />
		<tag k="ssr:stedsnr" v="783527" />
	</node>
	<node lat="69.33562777671284" lon="19.923036097348614" id="-101937">
		<tag k="loc_name:se" v="Čohkkadievvá" />
		<tag k="name" v="Rundbakken" />
		<tag k="name:no" v="Rundbakken" />
		<tag k="natural" v="hill" />
		<tag k="place" v="locality" />
		<tag k="ssr:stedsnr" v="783539" />
	</node>
	<node lat="69.33220000440566" lon="19.911044431069598" id="-101938">
		<tag k="name" v="Sanderčahca" />
		<tag k="name:se" v="Sanderčahca" />
		<tag k="natural" v="valley" />
		<tag k="place" v="locality" />
		<tag k="ssr:stedsnr" v="783541" />
	</node>
	<node lat="69.33831666499776" lon="19.974305534114" id="-101939">
		<tag k="loc_name:se" v="Guoskat" />
		<tag k="name" v="Goaskat" />
		<tag k="name:se" v="Goaskat" />
		<tag k="place" v="locality" />
		<tag k="ssr:stedsnr" v="783547" />
	</node>
	<node lat="69.34209722620942" lon="19.958327758295514" id="-101940">
		<tag k="name" v="Nerlegi" />
		<tag k="natural" v="slope" />
		<tag k="place" v="locality" />
		<tag k="ssr:stedsnr" v="783552" />
	</node>
	<node lat="69.25212222257842" lon="19.91222776917144" id="-101941">
		<tag k="name" v="Čávkosgohpi" />
		<tag k="name:se" v="Čávkosgohpi" />
		<tag k="natural" v="valley" />
		<tag k="place" v="locality" />
		<tag k="ssr:stedsnr" v="783567" />
	</node>
	<node lat="69.3701777793818" lon="20.00402777298314" id="-101944">
		<tag k="name" v="Jetan" />
		<tag k="natural" v="hill" />
		<tag k="place" v="locality" />
		<tag k="ssr:stedsnr" v="783694" />
	</node>
	<node lat="69.20551388830138" lon="20.653386095065958" id="-101945">
		<tag k="fixme" v="consider natural=peak for the most distinct mountains in the district" />
		<tag k="name" v="Várdu" />
		<tag k="name:se" v="Várdu" />
		<tag k="natural" v="hill" />
		<tag k="place" v="locality" />
		<tag k="ssr:stedsnr" v="783943" />
	</node>
	<node lat="69.20394722626858" lon="20.363247204294293" id="-101960">
		<tag k="name" v="Lávkavággi" />
		<tag k="name:se" v="Lávkavággi" />
		<tag k="natural" v="valley" />
		<tag k="place" v="locality" />
		<tag k="ssr:stedsnr" v="807329" />
	</node>
	<node lat="69.0627083339742" lon="20.232533313124208" id="-101962">
		<tag k="name" v="Visieđga" />
		<tag k="name:se" v="Visieđga" />
		<tag k="natural" v="plateau" />
		<tag k="ssr:stedsnr" v="807253" />
	</node>
	<node lat="69.3086000041264" lon="20.306499993750748" id="-101968">
		<tag k="name" v="Kvitlidalen" />
		<tag k="name:fkv" v="Kuukislomanvankka" />
		<tag k="name:no" v="Kvitlidalen" />
		<tag k="name:se" v="Guvgesloapmevággi" />
		<tag k="natural" v="valley" />
		<tag k="place" v="locality" />
		<tag k="ssr:stedsnr" v="807374" />
	</node>
	<node lat="69.25604444685035" lon="20.118102758512762" id="-101969">
		<tag k="name" v="Stordalen" />
		<tag k="name:fkv" v="Isovankka" />
		<tag k="name:no" v="Stordalen" />
		<tag k="name:se" v="Didnovággi" />
		<tag k="natural" v="valley" />
		<tag k="place" v="locality" />
		<tag k="ssr:stedsnr" v="807375" />
	</node>
	<node lat="69.27944444308073" lon="19.855008316747465" id="-101970">
		<tag k="fixme" v="consider natural=peak for the most distinct mountains in the district" />
		<tag k="name" v="Bogefjell" />
		<tag k="name:no" v="Bogefjell" />
		<tag k="name:se" v="Dávgeleahki" />
		<tag k="natural" v="hill" />
		<tag k="place" v="locality" />
		<tag k="ssr:stedsnr" v="807386" />
	</node>
	<node lat="69.39357499966837" lon="19.935699986942762" id="-101974">
		<tag k="name" v="Nállanriehppi" />
		<tag k="name:se" v="Nállanriehppi" />
		<tag k="natural" v="valley" />
		<tag k="place" v="locality" />
		<tag k="ssr:stedsnr" v="807479" />
	</node>
	<node lat="69.11971944522764" lon="20.84888052448793" id="-101981">
		<tag k="fixme" v="consider natural=peak for the most distinct mountains in the district" />
		<tag k="name" v="Gálggooaivi" />
		<tag k="name:se" v="Gálggooaivi" />
		<tag k="natural" v="hill" />
		<tag k="place" v="locality" />
		<tag k="ssr:stedsnr" v="808937" />
	</node>
	<node lat="69.12237777837139" lon="20.475599978186057" id="-101982">
		<tag k="fixme" v="consider natural=peak for the most distinct mountains in the district" />
		<tag k="name" v="Doggeoaivi" />
		<tag k="name:se" v="Doggeoaivi" />
		<tag k="natural" v="hill" />
		<tag k="place" v="locality" />
		<tag k="ssr:stedsnr" v="808941" />
	</node>
	<node lat="69.13125556039593" lon="20.691524975530026" id="-101983">
		<tag k="name" v="Sallolatnja" />
		<tag k="name:se" v="Sallolatnja" />
		<tag k="natural" v="slope" />
		<tag k="place" v="locality" />
		<tag k="ssr:stedsnr" v="808946" />
	</node>
	<node lat="69.16415000108334" lon="20.60652498546042" id="-101987">
		<tag k="fixme" v="consider natural=peak for the most distinct mountains in the district" />
		<tag k="name" v="Ollevárri" />
		<tag k="name:se" v="Ollevárri" />
		<tag k="natural" v="hill" />
		<tag k="place" v="locality" />
		<tag k="ssr:stedsnr" v="808959" />
	</node>
	<node lat="69.19227500041157" lon="20.98767498342422" id="-101990">
		<tag k="name" v="Loassomuvra" />
		<tag k="name:se" v="Loassomuvra" />
		<tag k="natural" v="hill" />
		<tag k="place" v="locality" />
		<tag k="ssr:stedsnr" v="808966" />
	</node>
	<node lat="69.16238055479405" lon="20.050952755703563" id="-102007">
		<tag k="name" v="Åskleiva" />
		<tag k="natural" v="slope" />
		<tag k="place" v="locality" />
		<tag k="ssr:stedsnr" v="843364" />
	</node>
	<node lat="69.33741388697388" lon="19.884649984394823" id="-102008">
		<tag k="fixme" v="consider natural=peak for the most distinct mountains in the district" />
		<tag k="name" v="Borrinasen" />
		<tag k="natural" v="hill" />
		<tag k="place" v="locality" />
		<tag k="ssr:stedsnr" v="843367" />
	</node>
	<node lat="69.18685000317693" lon="19.982194444482733" id="-102009">
		<tag k="name" v="Johngrubba" />
		<tag k="natural" v="slope" />
		<tag k="place" v="locality" />
		<tag k="ssr:stedsnr" v="843385" />
	</node>
	<node lat="69.12920556113181" lon="20.07095553247599" id="-102010">
		<tag k="name" v="Kruslokk" />
		<tag k="natural" v="hill" />
		<tag k="place" v="locality" />
		<tag k="ssr:stedsnr" v="843389" />
	</node>
	<node lat="69.25003610925089" lon="19.866699977843954" id="-102011">
		<tag k="loc_name:se" v="Gárdievvá" />
		<tag k="name" v="Gjerdebakken" />
		<tag k="name:no" v="Gjerdebakken" />
		<tag k="natural" v="slope" />
		<tag k="place" v="locality" />
		<tag k="ssr:stedsnr" v="843400" />
	</node>
	<node lat="69.34983610832784" lon="19.894705547187147" id="-102012">
		<tag k="loc_name:se" v="Heikuhagieddi" />
		<tag k="name" v="Heik-Olavollen" />
		<tag k="name:no" v="Heik-Olavollen" />
		<tag k="place" v="locality" />
		<tag k="ssr:stedsnr" v="843402" />
	</node>
	<node lat="69.33285833061122" lon="19.950977774200663" id="-102016">
		<tag k="loc_name:se" v="Rummábákti" />
		<tag k="name" v="Rommaberget" />
		<tag k="name:no" v="Rommaberget" />
		<tag k="natural" v="hill" />
		<tag k="place" v="locality" />
		<tag k="ssr:stedsnr" v="844550" />
	</node>
	<node lat="69.35542222176684" lon="20.30596943816019" id="-102020">
		<tag k="fixme" v="consider natural=peak for the most distinct mountains in the district" />
		<tag k="name" v="Rohtovárri" />
		<tag k="name:se" v="Rohtovárri" />
		<tag k="natural" v="hill" />
		<tag k="place" v="locality" />
		<tag k="ssr:stedsnr" v="844012" />
	</node>
	<node lat="69.39714999897183" lon="20.2852722117965" id="-102022">
		<tag k="name" v="Marketsgropbakken" />
		<tag k="natural" v="slope" />
		<tag k="place" v="locality" />
		<tag k="ssr:stedsnr" v="844100" />
	</node>
	<node lat="69.37036111117763" lon="20.242947203233058" id="-102023">
		<tag k="name" v="Pirunpaisti" />
		<tag k="name:fkv" v="Pirunpaisti" />
		<tag k="place" v="locality" />
		<tag k="ssr:stedsnr" v="844122" />
	</node>
	<node lat="69.25145000286926" lon="19.919369445091817" id="-102025">
		<tag k="name" v="Brenna" />
		<tag k="place" v="locality" />
		<tag k="ssr:stedsnr" v="844570" />
	</node>
	<node lat="69.34086667072823" lon="19.965880550363245" id="-102026">
		<tag k="name" v="Melkegropa" />
		<tag k="natural" v="valley" />
		<tag k="place" v="locality" />
		<tag k="ssr:stedsnr" v="844541" />
	</node>
	<node lat="69.25425555696371" lon="19.993583324605584" id="-102028">
		<tag k="name" v="Hansenhaugen" />
		<tag k="natural" v="hill" />
		<tag k="place" v="locality" />
		<tag k="ssr:stedsnr" v="844594" />
	</node>
	<node lat="69.37071944401168" lon="20.03999165581891" id="-102029">
		<tag k="loc_name:no" v="Kvalhauet" />
		<tag k="name" v="Kvalhodet" />
		<tag k="name:no" v="Kvalhodet" />
		<tag k="name:se" v="Bossooaivi" />
		<tag k="natural" v="hill" />
		<tag k="place" v="locality" />
		<tag k="ssr:stedsnr" v="844718" />
	</node>
	<node lat="69.40211111379219" lon="20.126802762308248" id="-102035">
		<tag k="name" v="Buollángurra" />
		<tag k="name:se" v="Buollángurra" />
		<tag k="natural" v="valley" />
		<tag k="place" v="locality" />
		<tag k="ssr:stedsnr" v="844737" />
	</node>
	<node lat="69.14907500141946" lon="20.00187499219549" id="-102038">
		<tag k="name" v="Signalhøgda" />
		<tag k="natural" v="hill" />
		<tag k="place" v="locality" />
		<tag k="ssr:stedsnr" v="868290" />
	</node>
	<node lat="69.31922500413503" lon="19.780261092897387" id="-102040">
		<tag k="loc_name:se" v="Rievssatvággi" />
		<tag k="name" v="Rypedalen" />
		<tag k="name:no" v="Rypedalen" />
		<tag k="natural" v="valley" />
		<tag k="place" v="locality" />
		<tag k="ssr:stedsnr" v="868125" />
	</node>
	<node lat="69.05255354811713" lon="20.29733611589972" id="-102043">
		<tag k="fixme" v="consider natural=peak for the most distinct mountains in the district" />
		<tag k="name" v="Rundfjellet - Gáhppooaivi" />
		<tag k="name:no" v="Rundfjellet" />
		<tag k="name:se" v="Gáhppooaivi" />
		<tag k="natural" v="hill" />
		<tag k="place" v="locality" />
		<tag k="ssr:stedsnr" v="868250" />
	</node>
	<node lat="69.23416944537998" lon="19.84684997838911" id="-102044">
		<tag k="alt_name:no" v="Mortendalen" />
		<tag k="name" v="Mortensdalen - Márttavággi" />
		<tag k="name:no" v="Mortensdalen" />
		<tag k="name:se" v="Márttavággi" />
		<tag k="natural" v="valley" />
		<tag k="place" v="locality" />
		<tag k="ssr:stedsnr" v="868330" />
	</node>
	<node lat="69.23003333298021" lon="20.159002759146006" id="-102045">
		<tag k="name" v="Midterdalen - Gaskasuorgi" />
		<tag k="name:fkv" v="Keskisuorki" />
		<tag k="name:no" v="Midterdalen" />
		<tag k="name:se" v="Gaskasuorgi" />
		<tag k="natural" v="valley" />
		<tag k="place" v="locality" />
		<tag k="ssr:stedsnr" v="868332" />
	</node>
	<node lat="69.39801111217716" lon="19.98538608948316" id="-102054">
		<tag k="fixme" v="consider natural=peak for the most distinct mountains in the district" />
		<tag k="name" v="Nállannjunni" />
		<tag k="name:se" v="Nállannjunni" />
		<tag k="natural" v="hill" />
		<tag k="place" v="locality" />
		<tag k="ssr:stedsnr" v="868474" />
	</node>
	<node lat="69.2539250015136" lon="19.95505276806477" id="-102061">
		<tag k="fixme" v="consider natural=peak for the most distinct mountains in the district" />
		<tag k="name" v="Geađgámas" />
		<tag k="name:se" v="Geađgámas" />
		<tag k="natural" v="hill" />
		<tag k="place" v="locality" />
		<tag k="ssr:stedsnr" v="868555" />
	</node>
	<node lat="69.26576667205032" lon="20.830380524464534" id="-102065">
		<tag k="fixme" v="consider natural=peak for the most distinct mountains in the district" />
		<tag k="name" v="Ráššanjaŋggut" />
		<tag k="name:se" v="Ráššanjaŋggut" />
		<tag k="natural" v="hill" />
		<tag k="old_name:se" v="Ráššanjanggut" />
		<tag k="place" v="locality" />
		<tag k="ssr:stedsnr" v="868646" />
	</node>
	<node lat="69.28958611009914" lon="20.524586096727855" id="-102066">
		<tag k="fixme" v="consider natural=peak for the most distinct mountains in the district" />
		<tag k="name" v="Čeabetnjunni" />
		<tag k="name:se" v="Čeabetnjunni" />
		<tag k="natural" v="hill" />
		<tag k="place" v="locality" />
		<tag k="ssr:stedsnr" v="868656" />
	</node>
	<node lat="69.26920833158016" lon="20.430794423807637" id="-102067">
		<tag k="alt_name:se" v="Stuoratoaivi;Stuoraoaivi" />
		<tag k="fixme" v="consider natural=peak for the most distinct mountains in the district" />
		<tag k="name" v="Stuorraoaivi" />
		<tag k="name:se" v="Stuorraoaivi" />
		<tag k="natural" v="hill" />
		<tag k="place" v="locality" />
		<tag k="ssr:stedsnr" v="868662" />
	</node>
	<node lat="69.40014999662284" lon="20.310844425799157" id="-102093">
		<tag k="name" v="Várdovárregropa" />
		<tag k="name:fkv" v="Varttovaarankuru" />
		<tag k="name:no" v="Várdovárregropa" />
		<tag k="natural" v="valley" />
		<tag k="place" v="locality" />
		<tag k="ssr:stedsnr" v="942881" />
	</node>
	<node lat="69.3898361116996" lon="20.336186081411338" id="-102094">
		<tag k="name" v="Øvergohpi" />
		<tag k="name:fkv" v="Yli-Kuppa" />
		<tag k="name:no" v="Øvergohpi" />
		<tag k="natural" v="valley" />
		<tag k="place" v="locality" />
		<tag k="ssr:stedsnr" v="942922" />
	</node>
	<node lat="69.25618055499137" lon="19.96272776957724" id="-102095">
		<tag k="name" v="Langmyrhollet" />
		<tag k="name:fkv" v="Pitkänjänkänsuu" />
		<tag k="name:no" v="Langmyrhollet" />
		<tag k="natural" v="valley" />
		<tag k="place" v="locality" />
		<tag k="ssr:stedsnr" v="942962" />
	</node>
	<node lat="69.23488610979858" lon="19.947516657438673" id="-102114">
		<tag k="name" v="Hareberget" />
		<tag k="natural" v="hill" />
		<tag k="place" v="locality" />
		<tag k="ssr:stedsnr" v="964386" />
	</node>
	<node lat="69.25069721931236" lon="19.878983311709387" id="-102116">
		<tag k="name" v="Gillagohpi" />
		<tag k="name:se" v="Gillagohpi" />
		<tag k="natural" v="valley" />
		<tag k="place" v="locality" />
		<tag k="ssr:stedsnr" v="964412" />
	</node>
	<node lat="69.2520388877949" lon="19.86743053153404" id="-102117">
		<tag k="loc_name:se" v="Rástealli" />
		<tag k="name" v="Grassletta" />
		<tag k="name:no" v="Grassletta" />
		<tag k="place" v="locality" />
		<tag k="ssr:stedsnr" v="964416" />
	</node>
	<node lat="69.21614444496066" lon="19.955444441482513" id="-102118">
		<tag k="name" v="Gjerdeskreda" />
		<tag k="natural" v="slope" />
		<tag k="place" v="locality" />
		<tag k="ssr:stedsnr" v="964492" />
	</node>
	<node lat="69.35145555992614" lon="20.380652762206005" id="-102120">
		<tag k="name" v="Luteenteilatva" />
		<tag k="name:fkv" v="Luteenteilatva" />
		<tag k="natural" v="slope" />
		<tag k="place" v="locality" />
		<tag k="ssr:stedsnr" v="965032" />
	</node>
	<node lat="69.24912777478347" lon="19.974066641280263" id="-102122">
		<tag k="alt_name" v="Kiilhompen" />
		<tag k="name" v="Kiilhumpen" />
		<tag k="natural" v="hill" />
		<tag k="place" v="locality" />
		<tag k="ssr:stedsnr" v="965580" />
	</node>
	<node lat="69.28185278127188" lon="19.961602776800238" id="-102123">
		<tag k="name" v="Høgda" />
		<tag k="natural" v="hill" />
		<tag k="place" v="locality" />
		<tag k="ssr:stedsnr" v="965631" />
	</node>
	<node lat="69.40565000307188" lon="20.138633326556246" id="-102126">
		<tag k="loc_name:se" v="Ruksesmuoldodievvá" />
		<tag k="name" v="Brunbakken" />
		<tag k="name:no" v="Brunbakken" />
		<tag k="natural" v="slope" />
		<tag k="place" v="locality" />
		<tag k="ssr:stedsnr" v="965723" />
	</node>
	<node lat="69.29538888713809" lon="20.428738877033016" id="-102130">
		<tag k="name" v="Lullemælen" />
		<tag k="natural" v="slope" />
		<tag k="place" v="locality" />
		<tag k="ssr:stedsnr" v="965964" />
	</node>
	<node lat="69.27470833683307" lon="20.507777763823174" id="-102131">
		<tag k="name" v="Hengen" />
		<tag k="natural" v="cliff" />
		<tag k="ssr:stedsnr" v="965980" />
	</node>
</osm>
