<?xml version="1.0" encoding="UTF-8"?>
<<<<<<< HEAD
<osm version="0.6" generator="osmapis">
	<node lat="69.26057500373737" lon="19.879847204912075" id="-40312">
		<tag k="name" v="Sætersletta" />
		<tag k="place" v="farm" />
		<tag k="ssr:stedsnr" v="18358" />
	</node>
	<node lat="69.35126666538126" lon="20.27454165353758" id="-40322">
		<tag k="name" v="Paskaput" />
		<tag k="place" v="farm" />
		<tag k="ssr:stedsnr" v="31204" />
	</node>
	<node lat="69.26382778155552" lon="19.885797212164118" id="-40333">
		<tag k="name" v="Skogeng" />
		<tag k="place" v="farm" />
		<tag k="ssr:stedsnr" v="236389" />
	</node>
	<node lat="69.36741111290486" lon="20.02068608730048" id="-40356">
		<tag k="name" v="Haug" />
		<tag k="place" v="farm" />
		<tag k="ssr:stedsnr" v="237566" />
	</node>
	<node lat="69.35946111544814" lon="20.09941943923389" id="-40359">
		<tag k="name" v="Bentsnes" />
		<tag k="place" v="farm" />
		<tag k="ssr:stedsnr" v="237746" />
	</node>
	<node lat="69.29976944823889" lon="19.92552775872909" id="-40372">
		<tag k="name" v="Tillnes" />
		<tag k="place" v="farm" />
		<tag k="ssr:stedsnr" v="55573" />
	</node>
	<node lat="69.23576111358214" lon="19.83192221318044" id="-40391">
		<tag k="name" v="Molund" />
		<tag k="place" v="farm" />
		<tag k="ssr:stedsnr" v="79346" />
	</node>
	<node lat="69.23780000388871" lon="20.179936093066967" id="-40393">
		<tag k="name" v="Jorbagieddi - Jorbmakenttä" />
		<tag k="name:fkv" v="Jorbmakenttä" />
		<tag k="name:se" v="Jorbagieddi" />
		<tag k="place" v="locality" />
		<tag k="ssr:stedsnr" v="79352" />
	</node>
	<node lat="69.1503249998869" lon="20.054347196479327" id="-40394">
		<tag k="name" v="Elverum" />
		<tag k="place" v="farm" />
		<tag k="ssr:stedsnr" v="79292" />
	</node>
	<node lat="69.3176027816217" lon="20.010352772464014" id="-40395">
		<tag k="name" v="Slettås" />
		<tag k="place" v="farm" />
		<tag k="ssr:stedsnr" v="79404" />
	</node>
	<node lat="69.4009499972346" lon="20.143599994886202" id="-40396">
		<tag k="name" v="Gunnarberg" />
		<tag k="place" v="farm" />
		<tag k="ssr:stedsnr" v="79448" />
	</node>
	<node lat="69.2498999995812" lon="20.02827220824266" id="-40398">
		<tag k="name" v="Bjørkeli" />
		<tag k="place" v="farm" />
		<tag k="ssr:stedsnr" v="79551" />
	</node>
	<node lat="69.33995116169466" lon="19.96281506445656" id="-40401">
		<tag k="fixme" v="consider place=hamlet" />
		<tag k="name" v="Elvevoll - Stállovággi - Staaluvankka" />
		<tag k="name:fkv" v="Staaluvankka" />
		<tag k="name:no" v="Elvevoll" />
		<tag k="name:se" v="Stállovággi" />
		<tag k="place" v="village" />
		<tag k="ssr:stedsnr" v="87126" />
	</node>
	<node lat="69.25102222581967" lon="19.872441665382855" id="-40415">
		<tag k="name" v="Sáiserohtu" />
		<tag k="name:se" v="Sáiserohtu" />
		<tag k="place" v="farm" />
		<tag k="ssr:stedsnr" v="115404" />
	</node>
	<node lat="69.26044722510066" lon="19.878836100897896" id="-40417">
		<tag k="loc_name:se" v="Geassesadji" />
		<tag k="name" v="Sommarset" />
		<tag k="name:no" v="Sommarset" />
		<tag k="place" v="farm" />
		<tag k="ssr:stedsnr" v="115419" />
	</node>
	<node lat="69.11511944258689" lon="20.102122213772244" id="-40421">
		<tag k="name" v="Rognli" />
		<tag k="place" v="farm" />
		<tag k="ssr:stedsnr" v="139291" />
	</node>
	<node lat="69.24758055967379" lon="20.043919432386996" id="-40424">
		<tag k="name" v="Heggeblom" />
		<tag k="place" v="farm" />
		<tag k="ssr:stedsnr" v="139387" />
	</node>
	<node lat="69.1285083344988" lon="20.37813053611128" id="-40437">
		<tag k="name" v="Stoarbmagieddi" />
		<tag k="name:se" v="Stoarbmagieddi" />
		<tag k="place" v="locality" />
		<tag k="ssr:stedsnr" v="261281" />
	</node>
	<node lat="69.16745879932911" lon="20.04867591959969" id="-40442">
		<tag k="fixme" v="consider place=hamlet" />
		<tag k="name" v="Mannfjell" />
		<tag k="place" v="farm" />
		<tag k="ssr:stedsnr" v="261332" />
	</node>
	<node lat="69.31578324939917" lon="19.94995804428281" id="-40446">
		<tag k="alt_name" v="Nygard" />
		<tag k="fixme" v="consider place=hamlet" />
		<tag k="name" v="Nygård" />
		<tag k="place" v="farm" />
		<tag k="ssr:stedsnr" v="261427" />
	</node>
	<node lat="69.23668888676521" lon="20.077713884739037" id="-40452">
		<tag k="loc_name:se" v="Ruodnesluohkká" />
		<tag k="name" v="Grønli" />
		<tag k="name:no" v="Grønli" />
		<tag k="place" v="farm" />
		<tag k="ssr:stedsnr" v="261377" />
	</node>
	<node lat="69.247241672263" lon="20.018288865396677" id="-40453">
		<tag k="name" v="Elvemo" />
		<tag k="place" v="farm" />
		<tag k="ssr:stedsnr" v="261381" />
	</node>
	<node lat="69.24641111298814" lon="20.04955831958752" id="-40454">
		<tag k="name" v="Heggeli" />
		<tag k="place" v="farm" />
		<tag k="ssr:stedsnr" v="261387" />
	</node>
	<node lat="69.31126269352974" lon="19.940544293657616" id="-40457">
		<tag k="fixme" v="consider place=hamlet" />
		<tag k="name" v="Stubbeng - Láđugieddi" />
		<tag k="name:no" v="Stubbeng" />
		<tag k="name:se" v="Láđugieddi" />
		<tag k="place" v="farm" />
		<tag k="ssr:stedsnr" v="261438" />
	</node>
	<node lat="69.38120555228491" lon="20.268522209227143" id="-40458">
		<tag k="alt_name" v="Furuholm" />
		<tag k="name" v="Furuholmen" />
		<tag k="place" v="farm" />
		<tag k="ssr:stedsnr" v="261514" />
	</node>
	<node lat="69.3651749979251" lon="20.269702759517436" id="-40460">
		<tag k="name" v="Fossmo" />
		<tag k="place" v="farm" />
		<tag k="ssr:stedsnr" v="261457" />
	</node>
	<node lat="69.36287500148805" lon="20.307105542038514" id="-40463">
		<tag k="name" v="Nyheim" />
		<tag k="place" v="farm" />
		<tag k="ssr:stedsnr" v="261470" />
	</node>
	<node lat="69.34556388726075" lon="19.969822199664677" id="-40464">
		<tag k="name" v="Borge" />
		<tag k="place" v="farm" />
		<tag k="ssr:stedsnr" v="261477" />
	</node>
	<node lat="69.3963833362113" lon="20.131369422958777" id="-40465">
		<tag k="name" v="Årland" />
=======
<osm generator="osmapis" version="0.6">
	<node id="-886272" lat="69.3142166656" lon="20.0021360849">
		<tag k="name" v="Solstrand - Beaivegieddi" />
		<tag k="name:no" v="Solstrand" />
		<tag k="name:se" v="Beaivegieddi" />
>>>>>>> e1d4bc35ff8a6074a6f2e91616a996b547c36f15
		<tag k="place" v="farm" />
		<tag k="ssr:stedsnr" v="261482" />
	</node>
<<<<<<< HEAD
	<node lat="69.3926783666748" lon="20.119356103225712" id="-40466">
		<tag k="fixme" v="consider place=hamlet" />
		<tag k="name" v="Rasteby" />
=======
	<node id="-885759" lat="69.3715527784" lon="20.2541833049">
		<tag k="name" v="Furustad" />
>>>>>>> e1d4bc35ff8a6074a6f2e91616a996b547c36f15
		<tag k="place" v="farm" />
		<tag k="ssr:stedsnr" v="261488" />
	</node>
<<<<<<< HEAD
	<node lat="69.3974747507395" lon="20.135719869847946" id="-40467">
		<tag k="fixme" v="consider place=hamlet" />
		<tag k="name" v="Rasteby - Čuollonjárga - Sulluniemi" />
		<tag k="name:fkv" v="Sulluniemi" />
		<tag k="name:no" v="Rasteby" />
		<tag k="name:se" v="Čuollonjárga" />
		<tag k="place" v="village" />
		<tag k="ssr:stedsnr" v="261490" />
	</node>
	<node lat="69.23307500276303" lon="20.108752769403605" id="-40475">
		<tag k="name" v="Tindstad" />
=======
	<node id="-885758" lat="69.3329249984" lon="20.0398360937">
		<tag k="name" v="Salmenes" />
>>>>>>> e1d4bc35ff8a6074a6f2e91616a996b547c36f15
		<tag k="place" v="farm" />
		<tag k="ssr:stedsnr" v="176714" />
	</node>
<<<<<<< HEAD
	<node lat="69.30753888930884" lon="20.427541638490798" id="-40477">
		<tag k="name" v="Lullevárri" />
		<tag k="name:se" v="Lullevárri" />
		<tag k="place" v="isolated_dwelling" />
		<tag k="ssr:stedsnr" v="261562" />
	</node>
	<node lat="69.3800277771055" lon="20.07917221773719" id="-40500">
		<tag k="name" v="Steinmoen" />
=======
	<node id="-886781" lat="69.2732888912" lon="19.9616833251">
		<tag k="amenity" v="school" />
		<tag k="name" v="Hatteng skole" />
		<tag k="ssr:stedsnr" v="964442" />
	</node>
	<node id="-885756" lat="69.2408361159" lon="20.0834805312">
		<tag k="name" v="Steinbakken" />
>>>>>>> e1d4bc35ff8a6074a6f2e91616a996b547c36f15
		<tag k="place" v="farm" />
		<tag k="ssr:stedsnr" v="200505" />
	</node>
<<<<<<< HEAD
	<node lat="69.25335278166159" lon="19.862477765378767" id="-40503">
		<tag k="name" v="Myreng" />
=======
	<node id="-886266" lat="69.268899998" lon="19.8987499879">
		<tag k="name" v="Melen - Mielli" />
		<tag k="name:no" v="Melen" />
		<tag k="name:se" v="Mielli" />
>>>>>>> e1d4bc35ff8a6074a6f2e91616a996b547c36f15
		<tag k="place" v="farm" />
		<tag k="ssr:stedsnr" v="200600" />
	</node>
<<<<<<< HEAD
	<node lat="69.255155558719" lon="19.866744426918206" id="-40504">
		<tag k="name" v="Myra" />
=======
	<node id="-885241" lat="69.3944388898" lon="20.1277249964">
		<tag k="name" v="Steinberg" />
>>>>>>> e1d4bc35ff8a6074a6f2e91616a996b547c36f15
		<tag k="place" v="farm" />
		<tag k="ssr:stedsnr" v="200601" />
	</node>
<<<<<<< HEAD
	<node lat="69.34765277874072" lon="19.973561095280512" id="-40510">
		<tag k="name" v="Storeng - Muorjenjárga" />
		<tag k="name:no" v="Storeng" />
		<tag k="name:se" v="Muorjenjárga" />
		<tag k="place" v="farm" />
		<tag k="ssr:stedsnr" v="201445" />
	</node>
	<node lat="69.37559999596687" lon="20.230399990657496" id="-40537">
		<tag k="name" v="Skogtun" />
		<tag k="place" v="farm" />
		<tag k="ssr:stedsnr" v="261450" />
	</node>
	<node lat="69.17860833274247" lon="20.017824982616567" id="-40565">
		<tag k="name" v="Lund" />
		<tag k="place" v="farm" />
		<tag k="ssr:stedsnr" v="322289" />
	</node>
	<node lat="69.36146110812618" lon="20.271811099377075" id="-40582">
		<tag k="name" v="Ballones" />
=======
	<node id="-885784" lat="69.2342111094" lon="20.0987499955">
		<tag k="name" v="Søreng" />
		<tag k="place" v="farm" />
		<tag k="ssr:stedsnr" v="929324" />
	</node>
	<node id="-886260" lat="69.222913891" lon="20.2546944415">
		<tag k="name" v="Brakke" />
		<tag k="place" v="isolated_dwelling" />
		<tag k="ssr:stedsnr" v="382342" />
	</node>
	<node id="-886259" lat="69.2247305512" lon="20.1750833268">
		<tag k="name" v="Midtdalsvollen" />
		<tag k="place" v="locality" />
		<tag k="ssr:stedsnr" v="382341" />
	</node>
	<node id="-885331" lat="69.3013583304" lon="19.9260722114">
		<tag k="name" v="Brattvoll" />
		<tag k="place" v="farm" />
		<tag k="ssr:stedsnr" v="503361" />
	</node>
	<node id="-885232" lat="69.2630333346" lon="19.8805749882">
		<tag k="name" v="Slåtten" />
>>>>>>> e1d4bc35ff8a6074a6f2e91616a996b547c36f15
		<tag k="place" v="farm" />
		<tag k="ssr:stedsnr" v="358004" />
	</node>
<<<<<<< HEAD
	<node lat="69.25932500372846" lon="19.892786112627245" id="-40591">
		<tag k="name" v="Roland" />
		<tag k="place" v="farm" />
		<tag k="ssr:stedsnr" v="478397" />
	</node>
	<node lat="69.39630000236993" lon="20.27753331342252" id="-40594">
=======
	<node id="-886767" lat="69.090450003" lon="20.4446499896">
		<tag k="name" v="Doggehytta" />
		<tag k="place" v="isolated_dwelling" />
		<tag k="ssr:stedsnr" v="869575" />
	</node>
	<node id="-886254" lat="69.2032944419" lon="19.9591388814">
		<tag k="alt_name" v="Sollisæter" />
>>>>>>> e1d4bc35ff8a6074a6f2e91616a996b547c36f15
		<tag k="historic" v="shieling" />
		<tag k="name" v="Yttersætra" />
		<tag k="place" v="isolated_dwelling" />
		<tag k="ssr:stedsnr" v="479086" />
	</node>
<<<<<<< HEAD
	<node lat="69.21180833092052" lon="19.978933307021506" id="-40599">
		<tag k="name" v="Brorstad" />
		<tag k="place" v="farm" />
		<tag k="ssr:stedsnr" v="479480" />
	</node>
	<node lat="69.33966944174645" lon="19.9251471970016" id="-40600">
		<tag k="name" v="Finnstua" />
		<tag k="place" v="isolated_dwelling" />
		<tag k="ssr:stedsnr" v="479521" />
	</node>
	<node lat="69.13625555311799" lon="20.07090831234275" id="-40607">
=======
	<node id="-885757" lat="69.2361416676" lon="20.0996527595">
		<tag k="name" v="Myrhaug" />
		<tag k="place" v="farm" />
		<tag k="ssr:stedsnr" v="868358" />
	</node>
	<node id="-885228" lat="69.2491111105" lon="19.8509971997">
		<tag k="name" v="Solvoll" />
		<tag k="place" v="farm" />
		<tag k="ssr:stedsnr" v="443401" />
	</node>
	<node id="-886250" lat="69.1362555531" lon="20.0709083123">
>>>>>>> e1d4bc35ff8a6074a6f2e91616a996b547c36f15
		<tag k="loc_name:se" v="Čáhcevággi" />
		<tag k="name" v="Vassdal" />
		<tag k="name:no" v="Vassdal" />
		<tag k="place" v="farm" />
		<tag k="ssr:stedsnr" v="382306" />
	</node>
<<<<<<< HEAD
	<node lat="69.39860000349917" lon="20.13648053811654" id="-40613">
		<tag k="name" v="Tuevoll" />
		<tag k="place" v="farm" />
		<tag k="ssr:stedsnr" v="382467" />
	</node>
	<node lat="69.29087777943666" lon="20.40473332875113" id="-40618">
		<tag k="loc_name:fkv" v="Mätämukka" />
		<tag k="name" v="Mätämutka" />
		<tag k="name:fkv" v="Mätämutka" />
		<tag k="place" v="farm" />
		<tag k="ssr:stedsnr" v="400136" />
	</node>
	<node lat="69.25445653535458" lon="19.886375649744817" id="-40626">
		<tag k="fixme" v="consider place=hamlet" />
		<tag k="name" v="Oterodden" />
=======
	<node id="-886247" lat="69.119116665" lon="20.0948666598">
		<tag k="name" v="Lundeng" />
		<tag k="place" v="farm" />
		<tag k="ssr:stedsnr" v="382274" />
	</node>
	<node id="-885222" lat="69.2432749967" lon="20.1901999825">
		<tag k="name" v="Stuoragieddi" />
		<tag k="name:se" v="Stuoragieddi" />
		<tag k="place" v="locality" />
		<tag k="ssr:stedsnr" v="443377" />
	</node>
	<node id="-886757" lat="69.2501999986" lon="20.0255527755">
		<tag k="name" v="Fagerli" />
		<tag k="place" v="farm" />
		<tag k="ssr:stedsnr" v="868552" />
	</node>
	<node id="-885732" lat="69.3749055546" lon="20.0440555471">
		<tag k="name" v="Elvestrand" />
>>>>>>> e1d4bc35ff8a6074a6f2e91616a996b547c36f15
		<tag k="place" v="farm" />
		<tag k="ssr:stedsnr" v="418384" />
	</node>
<<<<<<< HEAD
	<node lat="69.30320277386913" lon="20.41364998534204" id="-40642">
		<tag k="alt_name" v="Lullestova" />
		<tag k="name" v="Lullestua" />
		<tag k="place" v="isolated_dwelling" />
		<tag k="ssr:stedsnr" v="443406" />
	</node>
	<node lat="69.1550083351973" lon="20.056624998294552" id="-40643">
		<tag k="name" v="Løvland" />
=======
	<node id="-885730" lat="69.3724388927" lon="20.0424611037">
		<tag k="name" v="Nyheim" />
		<tag k="place" v="farm" />
		<tag k="ssr:stedsnr" v="844716" />
	</node>
	<node id="-886753" lat="69.3866444413" lon="20.102816651">
		<tag k="alt_name" v="Nybrot" />
		<tag k="name" v="Nybrott" />
>>>>>>> e1d4bc35ff8a6074a6f2e91616a996b547c36f15
		<tag k="place" v="farm" />
		<tag k="ssr:stedsnr" v="443303" />
	</node>
<<<<<<< HEAD
	<node lat="69.17330277978401" lon="20.030949996378144" id="-40646">
		<tag k="name" v="Fredheim" />
=======
	<node id="-886752" lat="69.394299998" lon="20.2701972147">
		<tag k="name" v="Solbakken" />
>>>>>>> e1d4bc35ff8a6074a6f2e91616a996b547c36f15
		<tag k="place" v="farm" />
		<tag k="ssr:stedsnr" v="443338" />
	</node>
<<<<<<< HEAD
	<node lat="69.3908097064565" lon="20.26748010830732" id="-40651">
		<tag k="name" v="Skibotn - Ivgobahta - Yykeänperä" />
		<tag k="name:fkv" v="Yykeänperä" />
		<tag k="name:no" v="Skibotn" />
		<tag k="name:se" v="Ivgobahta" />
		<tag k="place" v="village" />
		<tag k="ssr:stedsnr" v="443485" />
	</node>
	<node lat="69.2012749982013" lon="19.978774996497368" id="-40681">
		<tag k="name" v="Solli" />
=======
	<node id="-886751" lat="69.3912263177" lon="20.1196620509">
		<tag k="name" v="Elvegård" />
>>>>>>> e1d4bc35ff8a6074a6f2e91616a996b547c36f15
		<tag k="place" v="farm" />
		<tag k="ssr:stedsnr" v="504306" />
	</node>
<<<<<<< HEAD
	<node lat="69.37960833047924" lon="20.26980276812104" id="-40682">
		<tag k="name" v="Grønslett" />
=======
	<node id="-885925" lat="69.2518444466" lon="19.8747499783">
		<tag k="name" v="Øverli" />
		<tag k="place" v="farm" />
		<tag k="ssr:stedsnr" v="79556" />
	</node>
	<node id="-886748" lat="69.363455558" lon="20.0141249903">
		<tag k="alt_name" v="Steinslund" />
		<tag k="name" v="Steinlund" />
>>>>>>> e1d4bc35ff8a6074a6f2e91616a996b547c36f15
		<tag k="place" v="farm" />
		<tag k="ssr:stedsnr" v="504502" />
	</node>
<<<<<<< HEAD
	<node lat="69.18927777834273" lon="19.968361086390185" id="-40698">
		<tag k="alt_name" v="Skogly" />
		<tag k="name" v="Skogli" />
		<tag k="place" v="farm" />
		<tag k="ssr:stedsnr" v="686318" />
	</node>
	<node lat="69.2411666633697" lon="20.04655275474395" id="-40702">
		<tag k="name" v="Sørli" />
=======
	<node id="-885242" lat="69.390866663" lon="20.2673972098">
		<tag k="name" v="Skibotn - Ivgobahta - Yykeänperä" />
		<tag k="name:fkv" v="Yykeänperä" />
		<tag k="name:no" v="Skibotn" />
		<tag k="name:se" v="Ivgobahta" />
		<tag k="place" v="village" />
		<tag k="ssr:stedsnr" v="443485" />
	</node>
	<node id="-886746" lat="69.2804722243" lon="19.9034083119">
		<tag k="alt_name:no" v="Olderbakk" />
		<tag k="fixme" v="multiple name tags, choose one and add the other to alt_name" />
		<tag k="loc_name:se" v="Leaibečorru" />
		<tag k="name" v="Olderbakken;Oldernes" />
		<tag k="name:no" v="Olderbakken;Oldernes" />
>>>>>>> e1d4bc35ff8a6074a6f2e91616a996b547c36f15
		<tag k="place" v="farm" />
		<tag k="ssr:stedsnr" v="686351" />
	</node>
<<<<<<< HEAD
	<node lat="69.23646388948148" lon="19.838311094536316" id="-40703">
		<tag k="name" v="Fjelldal" />
		<tag k="place" v="farm" />
		<tag k="ssr:stedsnr" v="686356" />
	</node>
	<node lat="69.23371944103323" lon="19.8224333112748" id="-40704">
		<tag k="loc_name:se" v="Riehppi" />
		<tag k="name" v="Skogli" />
		<tag k="name:no" v="Skogli" />
		<tag k="place" v="farm" />
		<tag k="ssr:stedsnr" v="686359" />
	</node>
	<node lat="69.22992777781127" lon="19.82414998769145" id="-40705">
		<tag k="name" v="Elvebakken" />
=======
	<node id="-885207" lat="69.1550083352" lon="20.0566249983">
		<tag k="name" v="Løvland" />
		<tag k="place" v="farm" />
		<tag k="ssr:stedsnr" v="443303" />
	</node>
	<node id="-886741" lat="69.2198722191" lon="19.9727444227">
		<tag k="name" v="Fossli" />
>>>>>>> e1d4bc35ff8a6074a6f2e91616a996b547c36f15
		<tag k="place" v="farm" />
		<tag k="ssr:stedsnr" v="686365" />
	</node>
<<<<<<< HEAD
	<node lat="69.24316388732623" lon="19.932802765313433" id="-40706">
		<tag k="name" v="Fjellset" />
		<tag k="place" v="farm" />
		<tag k="ssr:stedsnr" v="686376" />
	</node>
	<node lat="69.30467777358304" lon="19.93133887915554" id="-40707">
		<tag k="name" v="Bukta - Luokta" />
		<tag k="name:no" v="Bukta" />
		<tag k="name:se" v="Luokta" />
=======
	<node id="-885716" lat="69.3782702767" lon="20.2277670121">
		<tag k="name" v="Nállovuohppi - Nalluvuopio" />
		<tag k="name:fkv" v="Nalluvuopio" />
		<tag k="name:se" v="Nállovuohppi" />
		<tag k="place" v="locality" />
		<tag k="ssr:stedsnr" v="929477" />
	</node>
	<node id="-886739" lat="69.1879305516" lon="19.9751499866">
		<tag k="name" v="Frydenlund" />
>>>>>>> e1d4bc35ff8a6074a6f2e91616a996b547c36f15
		<tag k="place" v="farm" />
		<tag k="ssr:stedsnr" v="686380" />
	</node>
<<<<<<< HEAD
	<node lat="69.24442726796201" lon="20.063163350041133" id="-40708">
		<tag k="fixme" v="consider place=hamlet" />
		<tag k="name" v="Kitdalen" />
=======
	<node id="-885411" lat="69.3142944458" lon="19.9485277608">
		<tag k="name" v="Myrvoll" />
		<tag k="place" v="farm" />
		<tag k="ssr:stedsnr" v="661552" />
	</node>
	<node id="-886736" lat="69.1746055514" lon="20.0269777671">
		<tag k="name" v="Olsborg" />
>>>>>>> e1d4bc35ff8a6074a6f2e91616a996b547c36f15
		<tag k="place" v="farm" />
		<tag k="ssr:stedsnr" v="686381" />
	</node>
<<<<<<< HEAD
	<node lat="69.11703055521347" lon="20.105788864049167" id="-40712">
		<tag k="name" v="Paras" />
=======
	<node id="-886735" lat="69.148088894" lon="20.0684916488">
		<tag k="name" v="Eggen" />
>>>>>>> e1d4bc35ff8a6074a6f2e91616a996b547c36f15
		<tag k="place" v="farm" />
		<tag k="ssr:stedsnr" v="686270" />
	</node>
<<<<<<< HEAD
	<node lat="69.36797222565522" lon="20.023049999481664" id="-40717">
		<tag k="name" v="Teigen" />
=======
	<node id="-886733" lat="69.1505999977" lon="20.0635999932">
		<tag k="name" v="Solvang" />
>>>>>>> e1d4bc35ff8a6074a6f2e91616a996b547c36f15
		<tag k="place" v="farm" />
		<tag k="ssr:stedsnr" v="686459" />
	</node>
<<<<<<< HEAD
	<node lat="69.28874722018078" lon="19.91297497556268" id="-40753">
		<tag k="name" v="Dállu" />
		<tag k="name:se" v="Dállu" />
=======
	<node id="-886732" lat="69.1522555566" lon="20.0593749879">
		<tag k="name" v="Skogstad" />
>>>>>>> e1d4bc35ff8a6074a6f2e91616a996b547c36f15
		<tag k="place" v="farm" />
		<tag k="ssr:stedsnr" v="564404" />
	</node>
<<<<<<< HEAD
	<node lat="69.33932777561333" lon="19.960552753282155" id="-40756">
		<tag k="name" v="Brustad" />
=======
	<node id="-885707" lat="69.3386055594" lon="20.0550833317">
		<tag k="loc_name:se" v="Juomvággi" />
		<tag k="name" v="Elsnes" />
		<tag k="name:no" v="Elsnes" />
>>>>>>> e1d4bc35ff8a6074a6f2e91616a996b547c36f15
		<tag k="place" v="farm" />
		<tag k="ssr:stedsnr" v="564419" />
	</node>
<<<<<<< HEAD
	<node lat="69.3357750022707" lon="20.04578609475623" id="-40757">
		<tag k="name" v="Bukta - Luokta" />
		<tag k="name:no" v="Bukta" />
		<tag k="name:se" v="Luokta" />
=======
	<node id="-885706" lat="69.3403305576" lon="19.9661083104">
		<tag k="alt_name:no" v="Elvevoll" />
		<tag k="loc_name:se" v="Johkamielli" />
		<tag k="name" v="Elvevollen" />
		<tag k="name:no" v="Elvevollen" />
>>>>>>> e1d4bc35ff8a6074a6f2e91616a996b547c36f15
		<tag k="place" v="farm" />
		<tag k="ssr:stedsnr" v="564420" />
	</node>
<<<<<<< HEAD
	<node lat="69.33131111152572" lon="19.971836095939175" id="-40758">
		<tag k="name" v="Sandøra - Stálugárgu" />
		<tag k="name:no" v="Sandøra" />
		<tag k="name:se" v="Stálugárgu" />
		<tag k="place" v="farm" />
		<tag k="ssr:stedsnr" v="564424" />
	</node>
	<node lat="69.32563610824715" lon="19.964222203820537" id="-40759">
		<tag k="loc_name:se" v="Dimbbarnjárga" />
		<tag k="name" v="Tømmernes" />
		<tag k="name:no" v="Tømmernes" />
		<tag k="place" v="farm" />
		<tag k="ssr:stedsnr" v="564426" />
	</node>
	<node lat="69.23524444761162" lon="20.098199988937818" id="-40761">
		<tag k="alt_name" v="Bjørkelund" />
		<tag k="name" v="Bjørklund" />
=======
	<node id="-886007" lat="69.3611916682" lon="20.1047138843">
		<tag k="name" v="Strandvoll" />
		<tag k="place" v="farm" />
		<tag k="ssr:stedsnr" v="139468" />
	</node>
	<node id="-885704" lat="69.1720416688" lon="20.0334694219">
		<tag k="name" v="Løkstad" />
		<tag k="place" v="farm" />
		<tag k="ssr:stedsnr" v="929299" />
	</node>
	<node id="-886725" lat="69.3059500022" lon="20.4335305305">
		<tag k="name" v="Lulleborg" />
>>>>>>> e1d4bc35ff8a6074a6f2e91616a996b547c36f15
		<tag k="place" v="farm" />
		<tag k="ssr:stedsnr" v="564371" />
	</node>
<<<<<<< HEAD
	<node lat="69.24916666763099" lon="20.008538871861766" id="-40762">
		<tag k="loc_name:se" v="Beassefállas" />
		<tag k="name" v="Nevermo" />
		<tag k="name:no" v="Nevermo" />
=======
	<node id="-885700" lat="69.2497750035" lon="20.0325610869">
		<tag k="name" v="Moen" />
>>>>>>> e1d4bc35ff8a6074a6f2e91616a996b547c36f15
		<tag k="place" v="farm" />
		<tag k="ssr:stedsnr" v="564378" />
	</node>
<<<<<<< HEAD
	<node lat="69.25078333456239" lon="19.854974987510467" id="-40763">
		<tag k="name" v="Bakke" />
=======
	<node id="-886006" lat="69.3730833307" lon="20.045355529">
		<tag k="name" v="Elvenes" />
		<tag k="place" v="farm" />
		<tag k="ssr:stedsnr" v="139465" />
	</node>
	<node id="-886722" lat="69.3661055541" lon="20.0215833095">
		<tag k="name" v="Steinvik" />
>>>>>>> e1d4bc35ff8a6074a6f2e91616a996b547c36f15
		<tag k="place" v="farm" />
		<tag k="ssr:stedsnr" v="564576" />
	</node>
<<<<<<< HEAD
	<node lat="69.36880555196431" lon="20.02804720529394" id="-40785">
		<tag k="name" v="Lillemo" />
=======
	<node id="-886720" lat="69.2964444411" lon="19.9190777628">
		<tag k="name" v="Láiregieddi" />
		<tag k="name:se" v="Láiregieddi" />
>>>>>>> e1d4bc35ff8a6074a6f2e91616a996b547c36f15
		<tag k="place" v="farm" />
		<tag k="ssr:stedsnr" v="600520" />
	</node>
<<<<<<< HEAD
	<node lat="69.18481199832779" lon="19.991735074065787" id="-40791">
		<tag k="fixme" v="consider place=hamlet" />
		<tag k="name" v="Signaldalen - Čiekŋalvuovdi - Singalanouta" />
		<tag k="name:fkv" v="Singalanouta" />
		<tag k="name:no" v="Signaldalen" />
		<tag k="name:se" v="Čiekŋalvuovdi" />
		<tag k="place" v="village" />
		<tag k="ssr:stedsnr" v="601353" />
	</node>
	<node lat="69.2452500007852" lon="20.054399989963994" id="-40798">
		<tag k="name" v="Slettvoll" />
=======
	<node id="-885695" lat="69.2883333327" lon="20.7212722051">
		<tag k="barrier" v="fence" />
		<tag k="name" v="Rovvegárdi" />
		<tag k="name:se" v="Rovvegárdi" />
		<tag k="ssr:stedsnr" v="928671" />
	</node>
	<node id="-886206" lat="69.2744999982" lon="19.9559388817">
		<tag k="name" v="Hatten" />
>>>>>>> e1d4bc35ff8a6074a6f2e91616a996b547c36f15
		<tag k="place" v="farm" />
		<tag k="ssr:stedsnr" v="625382" />
	</node>
<<<<<<< HEAD
	<node lat="69.34297777862636" lon="19.964991665617973" id="-40818">
		<tag k="name" v="Letto" />
=======
	<node id="-886716" lat="69.3244944435" lon="19.9620694228">
		<tag k="name" v="Fagerhaug" />
>>>>>>> e1d4bc35ff8a6074a6f2e91616a996b547c36f15
		<tag k="place" v="farm" />
		<tag k="ssr:stedsnr" v="661511" />
	</node>
<<<<<<< HEAD
	<node lat="69.31741111540804" lon="20.364058309002314" id="-40831">
		<tag k="name" v="Kavelnes" />
=======
	<node id="-886713" lat="69.3453194471" lon="19.9723222122">
		<tag k="name" v="Riidekenttä" />
		<tag k="name:fkv" v="Riidekenttä" />
>>>>>>> e1d4bc35ff8a6074a6f2e91616a996b547c36f15
		<tag k="place" v="farm" />
		<tag k="ssr:stedsnr" v="685404" />
	</node>
<<<<<<< HEAD
	<node lat="69.31186516658204" lon="19.94500600680326" id="-40832">
		<tag k="alt_name:no" v="Oldernes" />
		<tag k="loc_name:se" v="Ruššugieddi" />
		<tag k="name" v="Oldereng - Russugieddi" />
		<tag k="name:no" v="Oldereng" />
		<tag k="name:se" v="Russugieddi" />
=======
	<node id="-886710" lat="69.3757583366" lon="20.2829527606">
		<tag k="name" v="Skibotn" />
>>>>>>> e1d4bc35ff8a6074a6f2e91616a996b547c36f15
		<tag k="place" v="farm" />
		<tag k="ssr:stedsnr" v="685406" />
	</node>
<<<<<<< HEAD
	<node lat="69.3087111115066" lon="19.94008332599857" id="-40833">
		<tag k="name" v="Nyvoll" />
=======
	<node id="-885173" lat="69.370555553" lon="20.2825166527">
		<tag k="name" v="Seljestad" />
>>>>>>> e1d4bc35ff8a6074a6f2e91616a996b547c36f15
		<tag k="place" v="farm" />
		<tag k="ssr:stedsnr" v="685410" />
	</node>
<<<<<<< HEAD
	<node lat="69.25664444148855" lon="19.874058323011102" id="-40841">
		<tag k="name" v="Seljeli" />
		<tag k="place" v="farm" />
		<tag k="ssr:stedsnr" v="686598" />
	</node>
	<node lat="69.39258889280805" lon="20.277713863696096" id="-40857">
		<tag k="name" v="Gustavgjerdet" />
		<tag k="place" v="quarter" />
		<tag k="ssr:stedsnr" v="722111" />
	</node>
	<node lat="69.30015833374125" lon="19.981827776786915" id="-40871">
		<tag k="alt_name:no" v="Berg, in;Inberg" />
		<tag k="name" v="Indre Berg - Guolbanvággi" />
		<tag k="name:no" v="Indre Berg" />
		<tag k="name:se" v="Guolbanvággi" />
=======
	<node id="-885170" lat="69.3924805563" lon="20.2685999744">
		<tag k="name" v="Marketsplassen" />
		<tag k="place" v="square" />
		<tag k="ssr:stedsnr" v="297120" />
	</node>
	<node id="-886705" lat="69.3427611141" lon="20.3524527591">
		<tag k="name" v="Haskihytta" />
		<tag k="place" v="isolated_dwelling" />
		<tag k="ssr:stedsnr" v="844038" />
	</node>
	<node id="-885245" lat="69.258250001" lon="19.8942861062">
		<tag k="name" v="Åsgården" />
		<tag k="place" v="farm" />
		<tag k="ssr:stedsnr" v="443579" />
	</node>
	<node id="-885167" lat="69.1822972199" lon="19.9873999743">
		<tag k="loc_name:se" v="Luhpposiida" />
		<tag k="name" v="Heggelund" />
		<tag k="name:no" v="Heggelund" />
>>>>>>> e1d4bc35ff8a6074a6f2e91616a996b547c36f15
		<tag k="place" v="farm" />
		<tag k="ssr:stedsnr" v="746376" />
	</node>
<<<<<<< HEAD
	<node lat="69.30560838419305" lon="20.401881702572766" id="-40872">
		<tag k="name" v="Lullenes" />
=======
	<node id="-885166" lat="69.3876222196" lon="20.286811095">
		<tag k="alt_name" v="Lillevoll" />
		<tag k="name" v="Litlevollen" />
>>>>>>> e1d4bc35ff8a6074a6f2e91616a996b547c36f15
		<tag k="place" v="farm" />
		<tag k="ssr:stedsnr" v="746381" />
	</node>
<<<<<<< HEAD
	<node lat="69.2600249970702" lon="19.97404443473908" id="-40876">
		<tag k="loc_name:se" v="Biertnagieddi" />
		<tag k="name" v="Bjørnevoll" />
		<tag k="name:no" v="Bjørnevoll" />
		<tag k="place" v="farm" />
		<tag k="ssr:stedsnr" v="746579" />
	</node>
	<node lat="69.37754444462952" lon="20.27874721281851" id="-40882">
		<tag k="name" v="Bekkevoll" />
=======
	<node id="-885917" lat="69.4009499972" lon="20.1435999949">
		<tag k="name" v="Gunnarberg" />
		<tag k="place" v="farm" />
		<tag k="ssr:stedsnr" v="79448" />
	</node>
	<node id="-885163" lat="69.3800277771" lon="20.0791722177">
		<tag k="name" v="Steinmoen" />
>>>>>>> e1d4bc35ff8a6074a6f2e91616a996b547c36f15
		<tag k="place" v="farm" />
		<tag k="ssr:stedsnr" v="904135" />
	</node>
<<<<<<< HEAD
	<node lat="69.2184222204542" lon="19.971952762854286" id="-40883">
		<tag k="name" v="Fossmo" />
=======
	<node id="-885161" lat="69.3184361132" lon="19.9539333326">
		<tag k="name" v="Nyborg" />
>>>>>>> e1d4bc35ff8a6074a6f2e91616a996b547c36f15
		<tag k="place" v="farm" />
		<tag k="ssr:stedsnr" v="904471" />
	</node>
<<<<<<< HEAD
	<node lat="69.37591666412708" lon="20.29480275945476" id="-40895">
		<tag k="name" v="Åsli" />
		<tag k="place" v="farm" />
		<tag k="ssr:stedsnr" v="904991" />
	</node>
	<node lat="69.31747778128488" lon="19.954797222235463" id="-40897">
=======
	<node id="-885671" lat="69.3798138919" lon="20.2947971979">
		<tag k="name" v="Olderelv camping" />
		<tag k="ssr:stedsnr" v="910473" />
		<tag k="tourism" v="camp_site" />
	</node>
	<node id="-886001" lat="69.3224500008" lon="19.9594222039">
		<tag k="name" v="Myrbakken" />
		<tag k="place" v="farm" />
		<tag k="ssr:stedsnr" v="139443" />
	</node>
	<node id="-885667" lat="69.3174777813" lon="19.9547972222">
>>>>>>> e1d4bc35ff8a6074a6f2e91616a996b547c36f15
		<tag k="name" v="Nordnes" />
		<tag k="place" v="farm" />
		<tag k="ssr:stedsnr" v="755025" />
	</node>
<<<<<<< HEAD
	<node lat="69.25637626407821" lon="19.99458104320203" id="-40899">
		<tag k="fixme" v="consider place=hamlet" />
		<tag k="name" v="Kitdalen - Čoaigedanvuovdi - Soiketanouta" />
		<tag k="name:fkv" v="Soiketanouta" />
		<tag k="name:no" v="Kitdalen" />
		<tag k="name:se" v="Čoaigedanvuovdi" />
		<tag k="place" v="village" />
		<tag k="ssr:stedsnr" v="905362" />
	</node>
	<node lat="69.15235555217481" lon="20.043455531131823" id="-40908">
		<tag k="name" v="Innset" />
=======
	<node id="-885915" lat="69.3675694425" lon="20.0266277694">
		<tag k="loc_name:se" v="Gieddegeahči" />
		<tag k="name" v="Strandeng" />
		<tag k="name:no" v="Strandeng" />
		<tag k="place" v="farm" />
		<tag k="ssr:stedsnr" v="79427" />
	</node>
	<node id="-886173" lat="69.3815138894" lon="20.3021777566">
		<tag k="name" v="Sommarset" />
>>>>>>> e1d4bc35ff8a6074a6f2e91616a996b547c36f15
		<tag k="place" v="farm" />
		<tag k="ssr:stedsnr" v="782347" />
	</node>
<<<<<<< HEAD
	<node lat="69.29351690090436" lon="19.91477598062546" id="-40914">
		<tag k="name" v="Kileng" />
=======
	<node id="-886171" lat="69.4009083307" lon="20.2684388693">
		<tag k="name" v="Furuli" />
>>>>>>> e1d4bc35ff8a6074a6f2e91616a996b547c36f15
		<tag k="place" v="farm" />
		<tag k="ssr:stedsnr" v="783608" />
	</node>
<<<<<<< HEAD
	<node lat="69.37981389186844" lon="20.294797197872573" id="-40918">
		<tag k="name" v="Olderelv camping" />
		<tag k="ssr:stedsnr" v="910473" />
		<tag k="tourism" v="camp_site" />
	</node>
	<node lat="69.37575833656084" lon="20.28295276058873" id="-40938">
		<tag k="name" v="Skibotn" />
=======
	<node id="-885231" lat="69.2756583344" lon="19.9604305371">
		<tag k="alt_name" v="Hatteng nordre" />
		<tag k="name" v="Nordre Hatteng" />
		<tag k="place" v="farm" />
		<tag k="ssr:stedsnr" v="443417" />
	</node>
	<node id="-886167" lat="69.2940361088" lon="19.916449992">
		<tag k="name" v="Nordli" />
>>>>>>> e1d4bc35ff8a6074a6f2e91616a996b547c36f15
		<tag k="place" v="farm" />
		<tag k="ssr:stedsnr" v="844134" />
	</node>
<<<<<<< HEAD
	<node lat="69.37243889268399" lon="20.042461103742593" id="-40941">
		<tag k="name" v="Nyheim" />
=======
	<node id="-885142" lat="69.1151194426" lon="20.1021222138">
		<tag k="name" v="Rognli" />
>>>>>>> e1d4bc35ff8a6074a6f2e91616a996b547c36f15
		<tag k="place" v="farm" />
		<tag k="ssr:stedsnr" v="844716" />
	</node>
<<<<<<< HEAD
	<node lat="69.30595000221133" lon="20.433530530510698" id="-40942">
		<tag k="name" v="Lulleborg" />
=======
	<node id="-886165" lat="69.2397249964" lon="20.0848027668">
		<tag k="loc_name:se" v="Vuovdesiida" />
		<tag k="name" v="Kitdalen" />
		<tag k="name:no" v="Kitdalen" />
>>>>>>> e1d4bc35ff8a6074a6f2e91616a996b547c36f15
		<tag k="place" v="farm" />
		<tag k="ssr:stedsnr" v="844988" />
	</node>
<<<<<<< HEAD
	<node lat="69.12367777850254" lon="20.104336097661086" id="-40949">
		<tag k="alt_name" v="Olsborgsæter" />
		<tag k="historic" v="shieling" />
		<tag k="name" v="Olsborgsætra" />
		<tag k="place" v="isolated_dwelling" />
		<tag k="ssr:stedsnr" v="928250" />
	</node>
	<node lat="69.2883333326879" lon="20.721272205051818" id="-40958">
		<tag k="barrier" v="fence" />
		<tag k="name" v="Rovvegárdi" />
		<tag k="name:se" v="Rovvegárdi" />
		<tag k="ssr:stedsnr" v="928671" />
	</node>
	<node lat="69.23421110939086" lon="20.098749995521953" id="-40961">
		<tag k="name" v="Søreng" />
=======
	<node id="-885652" lat="69.3759166641" lon="20.2948027595">
		<tag k="name" v="Åsli" />
		<tag k="place" v="farm" />
		<tag k="ssr:stedsnr" v="904991" />
	</node>
	<node id="-885230" lat="69.3032027739" lon="20.4136499853">
		<tag k="alt_name" v="Lullestova" />
		<tag k="name" v="Lullestua" />
		<tag k="place" v="isolated_dwelling" />
		<tag k="ssr:stedsnr" v="443406" />
	</node>
	<node id="-885244" lat="69.3793583328" lon="20.2851110927">
		<tag k="name" v="Tu" />
		<tag k="place" v="farm" />
		<tag k="ssr:stedsnr" v="443497" />
	</node>
	<node id="-886161" lat="69.2092416722" lon="19.9815027558">
		<tag k="name" v="Fjellstad" />
>>>>>>> e1d4bc35ff8a6074a6f2e91616a996b547c36f15
		<tag k="place" v="farm" />
		<tag k="ssr:stedsnr" v="929324" />
	</node>
<<<<<<< HEAD
	<node lat="69.23833333506116" lon="20.060074976790006" id="-40962">
		<tag k="name" v="Olderlund" />
		<tag k="place" v="farm" />
		<tag k="ssr:stedsnr" v="929338" />
	</node>
	<node lat="69.29353333731814" lon="19.916630535599783" id="-40966">
		<tag k="name" v="Kvalnes - Bossonjárga" />
		<tag k="name:no" v="Kvalnes" />
		<tag k="name:se" v="Bossonjárga" />
=======
	<node id="-885912" lat="69.376" lon="20.3015833085">
		<tag k="name" v="Fagerli" />
		<tag k="place" v="farm" />
		<tag k="ssr:stedsnr" v="79415" />
	</node>
	<node id="-886158" lat="69.1786083327" lon="20.0178249826">
		<tag k="name" v="Lund" />
>>>>>>> e1d4bc35ff8a6074a6f2e91616a996b547c36f15
		<tag k="place" v="farm" />
		<tag k="ssr:stedsnr" v="929366" />
	</node>
<<<<<<< HEAD
	<node lat="69.34082884799066" lon="19.961082286463068" id="-40968">
		<tag k="alt_name:no" v="Elvevoll" />
		<tag k="fixme" v="consider place=hamlet" />
		<tag k="loc_name:se" v="Johkamielli" />
		<tag k="name" v="Elvevollen" />
		<tag k="name:no" v="Elvevollen" />
=======
	<node id="-885644" lat="69.3775444446" lon="20.2787472128">
		<tag k="name" v="Bekkevoll" />
>>>>>>> e1d4bc35ff8a6074a6f2e91616a996b547c36f15
		<tag k="place" v="farm" />
		<tag k="ssr:stedsnr" v="929393" />
	</node>
<<<<<<< HEAD
	<node lat="69.33860555935718" lon="20.055083331723218" id="-40969">
		<tag k="loc_name:se" v="Juomvággi" />
		<tag k="name" v="Elsnes" />
		<tag k="name:no" v="Elsnes" />
=======
	<node id="-885329" lat="69.3169138927" lon="20.3768472107">
		<tag k="name" v="Ivarvollen" />
		<tag k="place" v="isolated_dwelling" />
		<tag k="ssr:stedsnr" v="503356" />
	</node>
	<node id="-886154" lat="69.3973000023" lon="20.1368805501">
		<tag k="name" v="Nymoen" />
>>>>>>> e1d4bc35ff8a6074a6f2e91616a996b547c36f15
		<tag k="place" v="farm" />
		<tag k="ssr:stedsnr" v="929396" />
	</node>
<<<<<<< HEAD
	<node lat="69.38407778027329" lon="20.20159997868668" id="-40973">
		<tag k="name" v="Falsnes" />
		<tag k="place" v="farm" />
		<tag k="ssr:stedsnr" v="929476" />
	</node>
	<node lat="69.37827027672898" lon="20.227767012068853" id="-40974">
		<tag k="name" v="Nállovuohppi - Nalluvuopio" />
		<tag k="name:fkv" v="Nalluvuopio" />
		<tag k="name:se" v="Nállovuohppi" />
		<tag k="place" v="locality" />
		<tag k="ssr:stedsnr" v="929477" />
	</node>
	<node lat="69.17460555139998" lon="20.02697776710381" id="-40981">
		<tag k="name" v="Olsborg" />
		<tag k="place" v="farm" />
		<tag k="ssr:stedsnr" v="868308" />
	</node>
	<node lat="69.18793055156209" lon="19.975149986596403" id="-40984">
		<tag k="name" v="Frydenlund" />
=======
	<node id="-885906" lat="69.2378000039" lon="20.1799360931">
		<tag k="name" v="Jorbagieddi - Jorbmakenttä" />
		<tag k="name:fkv" v="Jorbmakenttä" />
		<tag k="name:se" v="Jorbagieddi" />
		<tag k="place" v="locality" />
		<tag k="ssr:stedsnr" v="79352" />
	</node>
	<node id="-885637" lat="69.3957166673" lon="20.1302472169">
		<tag k="name" v="Moberg" />
		<tag k="place" v="farm" />
		<tag k="ssr:stedsnr" v="722765" />
	</node>
	<node id="-885123" lat="69.2604472251" lon="19.8788361009">
		<tag k="loc_name:se" v="Geassesadji" />
		<tag k="name" v="Sommarset" />
		<tag k="name:no" v="Sommarset" />
>>>>>>> e1d4bc35ff8a6074a6f2e91616a996b547c36f15
		<tag k="place" v="farm" />
		<tag k="ssr:stedsnr" v="868318" />
	</node>
<<<<<<< HEAD
	<node lat="69.2198722191316" lon="19.97274442271919" id="-40986">
		<tag k="name" v="Fossli" />
=======
	<node id="-886658" lat="69.2577190164" lon="19.981438463">
		<tag k="name" v="Ryddestad" />
>>>>>>> e1d4bc35ff8a6074a6f2e91616a996b547c36f15
		<tag k="place" v="farm" />
		<tag k="ssr:stedsnr" v="868329" />
	</node>
	<node lat="69.09045000295987" lon="20.44464998963981" id="-40989">
		<tag k="name" v="Doggehytta" />
		<tag k="place" v="isolated_dwelling" />
		<tag k="ssr:stedsnr" v="869575" />
	</node>
<<<<<<< HEAD
	<node lat="69.38514722042292" lon="20.001222217741272" id="-41002">
=======
	<node id="-885633" lat="69.3851472204" lon="20.0012222177">
>>>>>>> e1d4bc35ff8a6074a6f2e91616a996b547c36f15
		<tag k="fixme" v="consider tourism=alpine_hut or tourism=chalet" />
		<tag k="name" v="Steindalshytta" />
		<tag k="ssr:stedsnr" v="891007" />
		<tag k="tourism" v="wilderness_hut" />
	</node>
<<<<<<< HEAD
	<node lat="69.39320833159098" lon="20.271633310207257" id="-41005">
		<tag k="name" v="Storsanden" />
		<tag k="place" v="quarter" />
		<tag k="ssr:stedsnr" v="904100" />
	</node>
	<node lat="69.24977500349745" lon="20.032561086886474" id="-41016">
		<tag k="name" v="Moen" />
=======
	<node id="-886656" lat="69.2534916703" lon="19.921352757">
		<tag k="loc_name:se" v="Stuoranjárga" />
		<tag k="name" v="Stornes" />
		<tag k="name:no" v="Stornes" />
		<tag k="place" v="farm" />
		<tag k="ssr:stedsnr" v="807566" />
	</node>
	<node id="-886653" lat="69.3425555544" lon="19.9643749967">
		<tag k="name" v="Skredvollen - Riđđogieddi" />
		<tag k="name:no" v="Skredvollen" />
		<tag k="name:se" v="Riđđogieddi" />
>>>>>>> e1d4bc35ff8a6074a6f2e91616a996b547c36f15
		<tag k="place" v="farm" />
		<tag k="ssr:stedsnr" v="929358" />
	</node>
<<<<<<< HEAD
	<node lat="69.17204166875807" lon="20.033469421858694" id="-41017">
		<tag k="name" v="Løkstad" />
		<tag k="place" v="farm" />
		<tag k="ssr:stedsnr" v="929299" />
	</node>
	<node lat="69.3977611084731" lon="20.13762497344051" id="-41021">
		<tag k="name" v="Rastebynes" />
		<tag k="place" v="farm" />
		<tag k="ssr:stedsnr" v="935816" />
	</node>
	<node lat="69.27328889118115" lon="19.961683325056008" id="-41032">
		<tag k="amenity" v="school" />
		<tag k="name" v="Hatteng skole" />
		<tag k="ssr:stedsnr" v="964442" />
	</node>
	<node lat="69.32078889058253" lon="19.957449978224147" id="-41037">
		<tag k="name" v="Sandøra" />
=======
	<node id="-885116" lat="69.3075388893" lon="20.4275416385">
		<tag k="name" v="Lullevárri" />
		<tag k="name:se" v="Lullevárri" />
		<tag k="place" v="isolated_dwelling" />
		<tag k="ssr:stedsnr" v="261562" />
	</node>
	<node id="-886649" lat="69.2371055523" lon="20.0684194344">
		<tag k="alt_name:no" v="Heggemo" />
		<tag k="loc_name:se" v="Ávžáfállas" />
		<tag k="name" v="Heggemoen" />
		<tag k="name:no" v="Heggemoen" />
>>>>>>> e1d4bc35ff8a6074a6f2e91616a996b547c36f15
		<tag k="place" v="farm" />
		<tag k="ssr:stedsnr" v="965603" />
	</node>
<<<<<<< HEAD
	<node lat="69.30781389231227" lon="19.938519440169785" id="-41039">
		<tag k="name" v="Stubbeng" />
=======
	<node id="-885112" lat="69.3812055523" lon="20.2685222092">
		<tag k="alt_name" v="Furuholm" />
		<tag k="name" v="Furuholmen" />
>>>>>>> e1d4bc35ff8a6074a6f2e91616a996b547c36f15
		<tag k="place" v="farm" />
		<tag k="ssr:stedsnr" v="965609" />
	</node>
<<<<<<< HEAD
	<node lat="69.28697852014717" lon="20.715440851202807" id="-41048">
		<tag k="name" v="Rovvehytta" />
		<tag k="name:se" v="Rovvehytta" />
		<tag k="place" v="locality" />
		<tag k="ssr:stedsnr" v="974627" />
	</node>
	<node lat="69.26295871744415" lon="19.96450215721956" id="-41049">
		<tag k="name" v="Veibakken" />
=======
	<node id="-885110" lat="69.397486109" lon="20.1356944255">
		<tag k="fixme" v="consider place=hamlet" />
		<tag k="name" v="Rasteby - Čuollonjárga - Sulluniemi" />
		<tag k="name:fkv" v="Sulluniemi" />
		<tag k="name:no" v="Rasteby" />
		<tag k="name:se" v="Čuollonjárga" />
		<tag k="place" v="village" />
		<tag k="ssr:stedsnr" v="261490" />
	</node>
	<node id="-885109" lat="69.3921500041" lon="20.1212249819">
		<tag k="name" v="Rasteby" />
>>>>>>> e1d4bc35ff8a6074a6f2e91616a996b547c36f15
		<tag k="place" v="farm" />
		<tag k="ssr:stedsnr" v="980322" />
	</node>
<<<<<<< HEAD
	<node lat="69.25769999850385" lon="19.8774999795341" id="-41052">
		<tag k="name" v="Sommerlund" />
=======
	<node id="-886644" lat="69.2058583372" lon="19.9797333183">
		<tag k="name" v="Nystad" />
>>>>>>> e1d4bc35ff8a6074a6f2e91616a996b547c36f15
		<tag k="place" v="farm" />
		<tag k="ssr:stedsnr" v="18553" />
	</node>
<<<<<<< HEAD
	<node lat="69.2366500013012" lon="20.073972198309356" id="-41056">
		<tag k="name" v="Lauvset" />
		<tag k="place" v="farm" />
		<tag k="ssr:stedsnr" v="18328" />
	</node>
	<node lat="69.24890555334476" lon="19.857677765328038" id="-41058">
		<tag k="name" v="Furumo" />
=======
	<node id="-885107" lat="69.3455638873" lon="19.9698221997">
		<tag k="name" v="Borge" />
		<tag k="place" v="farm" />
		<tag k="ssr:stedsnr" v="261477" />
	</node>
	<node id="-885618" lat="69.1892777783" lon="19.9683610864">
		<tag k="alt_name" v="Skogly" />
		<tag k="name" v="Skogli" />
>>>>>>> e1d4bc35ff8a6074a6f2e91616a996b547c36f15
		<tag k="place" v="farm" />
		<tag k="ssr:stedsnr" v="18336" />
	</node>
<<<<<<< HEAD
	<node lat="69.32118192590481" lon="19.960137690412637" id="-41061">
		<tag k="fixme" v="consider place=hamlet" />
		<tag k="name" v="Sandøra" />
=======
	<node id="-885139" lat="69.1317527761" lon="20.0696666418">
		<tag k="name" v="Nymo" />
		<tag k="place" v="farm" />
		<tag k="ssr:stedsnr" v="139316" />
	</node>
	<node id="-886128" lat="69.2526249967" lon="20.0077749815">
		<tag k="loc_name:se" v="Njáimmet" />
		<tag k="name" v="Naimakka" />
		<tag k="name:fkv" v="Naimakka" />
>>>>>>> e1d4bc35ff8a6074a6f2e91616a996b547c36f15
		<tag k="place" v="farm" />
		<tag k="ssr:stedsnr" v="18384" />
	</node>
<<<<<<< HEAD
	<node lat="69.32290278098255" lon="20.01533888774482" id="-41062">
		<tag k="name" v="Lundheim" />
=======
	<node id="-885103" lat="69.3651749979" lon="20.2697027595">
		<tag k="name" v="Fossmo" />
>>>>>>> e1d4bc35ff8a6074a6f2e91616a996b547c36f15
		<tag k="place" v="farm" />
		<tag k="ssr:stedsnr" v="18387" />
	</node>
<<<<<<< HEAD
	<node lat="69.32153311744366" lon="20.015806064073917" id="-41063">
		<tag k="fixme" v="consider place=hamlet" />
		<tag k="name" v="Slettnes" />
=======
	<node id="-885102" lat="69.375599996" lon="20.2303999907">
		<tag k="name" v="Skogtun" />
>>>>>>> e1d4bc35ff8a6074a6f2e91616a996b547c36f15
		<tag k="place" v="farm" />
		<tag k="ssr:stedsnr" v="18388" />
	</node>
<<<<<<< HEAD
	<node lat="69.0737851281464" lon="20.501885792456044" id="-41071">
		<tag k="fixme" v="consider tourism=alpine_hut or tourism=chalet" />
		<tag k="name" v="Goldahytta" />
		<tag k="ssr:stedsnr" v="19526" />
		<tag k="tourism" v="wilderness_hut" />
	</node>
	<node lat="69.22707500409982" lon="20.67187498348115" id="-41078">
		<tag k="name" v="Steinbakken" />
		<tag k="place" v="locality" />
		<tag k="ssr:stedsnr" v="19982" />
	</node>
	<node lat="69.19980555256802" lon="20.709061096331183" id="-41081">
		<tag k="fixme" v="consider tourism=alpine_hut or tourism=chalet" />
		<tag k="name" v="Helligskogen vandrerhjem" />
		<tag k="old_name" v="Helligskogen Fjellstove" />
		<tag k="ssr:stedsnr" v="24972" />
		<tag k="tourism" v="wilderness_hut" />
	</node>
	<node lat="69.33495277501119" lon="20.298247204743397" id="-41089">
		<tag k="name" v="Leppäveräjä" />
		<tag k="name:fkv" v="Leppäveräjä" />
=======
	<node id="-886637" lat="69.3682500022" lon="20.2653999925">
		<tag k="name" v="Skibotn" />
		<tag k="place" v="farm" />
		<tag k="ssr:stedsnr" v="807450" />
	</node>
	<node id="-886636" lat="69.3633749966" lon="20.0129027683">
		<tag k="name" v="Storeng" />
		<tag k="place" v="hamlet" />
		<tag k="ssr:stedsnr" v="807442" />
	</node>
	<node id="-886635" lat="69.3775694469" lon="20.3023833124">
		<tag k="name" v="Bakken" />
		<tag k="place" v="farm" />
		<tag k="ssr:stedsnr" v="807424" />
	</node>
	<node id="-885098" lat="69.3154638929" lon="19.9518194439">
		<tag k="alt_name" v="Nygard" />
		<tag k="name" v="Nygård" />
>>>>>>> e1d4bc35ff8a6074a6f2e91616a996b547c36f15
		<tag k="place" v="farm" />
		<tag k="ssr:stedsnr" v="36042" />
	</node>
<<<<<<< HEAD
	<node lat="69.27188888723829" lon="19.95011109022937" id="-41096">
		<tag k="name" v="Hatten søndre" />
		<tag k="place" v="farm" />
		<tag k="ssr:stedsnr" v="52464" />
	</node>
	<node lat="69.37838610814237" lon="20.278516643377444" id="-41102">
		<tag k="loc_name" v="Skoggårdan" />
		<tag k="name" v="Skoggård" />
		<tag k="place" v="hamlet" />
		<tag k="ssr:stedsnr" v="55130" />
	</node>
	<node lat="69.38003055256193" lon="20.303422201747917" id="-41103">
		<tag k="name" v="Grindholmen" />
=======
	<node id="-886759" lat="69.2592749973" lon="19.9163555464">
		<tag k="name" v="Solstad" />
		<tag k="place" v="farm" />
		<tag k="ssr:stedsnr" v="868558" />
	</node>
	<node id="-886120" lat="69.3671555582" lon="20.3036305421">
		<tag k="name" v="Nedstevatn" />
>>>>>>> e1d4bc35ff8a6074a6f2e91616a996b547c36f15
		<tag k="place" v="farm" />
		<tag k="ssr:stedsnr" v="55115" />
	</node>
<<<<<<< HEAD
	<node lat="69.05302499888036" lon="20.253377765617817" id="-41117">
		<tag k="fixme" v="consider tourism=alpine_hut or tourism=chalet" />
		<tag k="name" v="Gappohytta" />
		<tag k="name:no" v="Gappohytta" />
		<tag k="old_name:se" v="Gáhppostohpu" />
		<tag k="ssr:stedsnr" v="79255" />
		<tag k="tourism" v="wilderness_hut" />
	</node>
	<node lat="69.37600000004687" lon="20.301583308510953" id="-41126">
		<tag k="name" v="Fagerli" />
=======
	<node id="-886118" lat="69.3609611095" lon="20.1048305328">
		<tag k="alt_name:no" v="Bentsjord" />
		<tag k="fixme" v="consider place=hamlet" />
		<tag k="name" v="Bentsjorda - Suollatvággi" />
		<tag k="name:no" v="Bentsjorda" />
		<tag k="name:se" v="Suollatvággi" />
>>>>>>> e1d4bc35ff8a6074a6f2e91616a996b547c36f15
		<tag k="place" v="farm" />
		<tag k="ssr:stedsnr" v="79415" />
	</node>
<<<<<<< HEAD
	<node lat="69.375880558021" lon="20.28444998823848" id="-41127">
		<tag k="alt_name" v="Skibotn, s" />
		<tag k="name" v="Søre Skibotn" />
=======
	<node id="-885093" lat="69.246411113" lon="20.0495583196">
		<tag k="name" v="Heggeli" />
>>>>>>> e1d4bc35ff8a6074a6f2e91616a996b547c36f15
		<tag k="place" v="farm" />
		<tag k="ssr:stedsnr" v="79419" />
	</node>
<<<<<<< HEAD
	<node lat="69.37826057297075" lon="20.06279790379967" id="-41131">
		<tag k="alt_name" v="Indre Selnes" />
		<tag k="fixme" v="consider place=hamlet" />
		<tag k="name" v="Selnes" />
=======
	<node id="-885092" lat="69.2472416723" lon="20.0182888654">
		<tag k="name" v="Elvemo" />
>>>>>>> e1d4bc35ff8a6074a6f2e91616a996b547c36f15
		<tag k="place" v="farm" />
		<tag k="ssr:stedsnr" v="79465" />
	</node>
<<<<<<< HEAD
	<node lat="69.36756944248017" lon="20.0266277694321" id="-41132">
		<tag k="loc_name:se" v="Gieddegeahči" />
		<tag k="name" v="Strandeng" />
		<tag k="name:no" v="Strandeng" />
=======
	<node id="-885091" lat="69.2366888868" lon="20.0777138847">
		<tag k="loc_name:se" v="Ruodnesluohkká" />
		<tag k="name" v="Grønli" />
		<tag k="name:no" v="Grønli" />
>>>>>>> e1d4bc35ff8a6074a6f2e91616a996b547c36f15
		<tag k="place" v="farm" />
		<tag k="ssr:stedsnr" v="79427" />
	</node>
<<<<<<< HEAD
	<node lat="69.24991944535688" lon="20.013177776346833" id="-41136">
		<tag k="name" v="Bakkely" />
=======
	<node id="-886626" lat="69.3927833368" lon="20.1229555547">
		<tag k="loc_name:se" v="Sildegieddi" />
		<tag k="name" v="Bruvoll" />
		<tag k="name:no" v="Bruvoll" />
>>>>>>> e1d4bc35ff8a6074a6f2e91616a996b547c36f15
		<tag k="place" v="farm" />
		<tag k="ssr:stedsnr" v="79553" />
	</node>
<<<<<<< HEAD
	<node lat="69.25184444656915" lon="19.87474997831147" id="-41137">
		<tag k="name" v="Øverli" />
=======
	<node id="-886113" lat="69.2551555587" lon="19.8667444269">
		<tag k="name" v="Myra" />
>>>>>>> e1d4bc35ff8a6074a6f2e91616a996b547c36f15
		<tag k="place" v="farm" />
		<tag k="ssr:stedsnr" v="79556" />
	</node>
<<<<<<< HEAD
	<node lat="69.25170833593029" lon="19.996136098114107" id="-41138">
		<tag k="name" v="Åsvang" />
=======
	<node id="-886112" lat="69.2533527817" lon="19.8624777654">
		<tag k="name" v="Myreng" />
>>>>>>> e1d4bc35ff8a6074a6f2e91616a996b547c36f15
		<tag k="place" v="farm" />
		<tag k="ssr:stedsnr" v="79558" />
	</node>
<<<<<<< HEAD
	<node lat="69.26151111092459" lon="19.911522211063684" id="-41139">
		<tag k="name" v="Strand" />
=======
	<node id="-886623" lat="69.292700003" lon="19.9139666442">
		<tag k="name" v="Kileng" />
>>>>>>> e1d4bc35ff8a6074a6f2e91616a996b547c36f15
		<tag k="place" v="farm" />
		<tag k="ssr:stedsnr" v="79561" />
	</node>
<<<<<<< HEAD
	<node lat="69.32403994957704" lon="20.017511464174262" id="-41158">
		<tag k="fixme" v="consider place=hamlet" />
		<tag k="loc_name:se" v="Čohkkugieddi" />
		<tag k="name" v="Horsnes" />
		<tag k="name:no" v="Horsnes" />
=======
	<node id="-886110" lat="69.2535499997" lon="19.9955722196">
		<tag k="loc_name:se" v="Soahkefállas" />
		<tag k="name" v="Bjørkemo" />
		<tag k="name:no" v="Bjørkemo" />
>>>>>>> e1d4bc35ff8a6074a6f2e91616a996b547c36f15
		<tag k="place" v="farm" />
		<tag k="ssr:stedsnr" v="89637" />
	</node>
<<<<<<< HEAD
	<node lat="69.35126666538126" lon="20.27454165353758" id="-41164">
		<tag k="name" v="Paskaput" />
=======
	<node id="-885085" lat="69.1285083345" lon="20.3781305361">
		<tag k="name" v="Stoarbmagieddi" />
		<tag k="name:se" v="Stoarbmagieddi" />
>>>>>>> e1d4bc35ff8a6074a6f2e91616a996b547c36f15
		<tag k="place" v="locality" />
		<tag k="ssr:stedsnr" v="93251" />
	</node>
<<<<<<< HEAD
	<node lat="69.4002777803243" lon="20.052886100251854" id="-41172">
		<tag k="fixme" v="consider tourism=alpine_hut or tourism=chalet" />
		<tag k="name" v="Rullebu" />
		<tag k="ssr:stedsnr" v="102059" />
		<tag k="tourism" v="wilderness_hut" />
	</node>
	<node lat="69.37365277800409" lon="20.044747209234664" id="-41189">
		<tag k="fixme" v="consider place=hamlet" />
		<tag k="name" v="Steindalen - Gievdanvággi - Kivetänlahti" />
		<tag k="name:fkv" v="Kivetänlahti" />
		<tag k="name:no" v="Steindalen" />
		<tag k="name:se" v="Gievdanvággi" />
		<tag k="place" v="village" />
		<tag k="ssr:stedsnr" v="116355" />
	</node>
	<node lat="69.23131389313352" lon="19.98309722038864" id="-41197">
		<tag k="name" v="Nyli" />
=======
	<node id="-885101" lat="69.310700002" lon="19.9432611008">
		<tag k="name" v="Stubbeng - Láđugieddi" />
		<tag k="name:no" v="Stubbeng" />
		<tag k="name:se" v="Láđugieddi" />
		<tag k="place" v="hamlet" />
		<tag k="ssr:stedsnr" v="261438" />
	</node>
	<node id="-886107" lat="69.2540777753" lon="19.8819499962">
		<tag k="loc_name:se" v="Čávkosdievvá" />
		<tag k="name" v="Oterbakken" />
		<tag k="name:no" v="Oterbakken" />
>>>>>>> e1d4bc35ff8a6074a6f2e91616a996b547c36f15
		<tag k="place" v="farm" />
		<tag k="ssr:stedsnr" v="139354" />
	</node>
<<<<<<< HEAD
	<node lat="69.13175277608434" lon="20.069666641809906" id="-41199">
		<tag k="name" v="Nymo" />
=======
	<node id="-885591" lat="69.2658055511" lon="19.9523444383">
		<tag k="name" v="Åsheim" />
>>>>>>> e1d4bc35ff8a6074a6f2e91616a996b547c36f15
		<tag k="place" v="farm" />
		<tag k="ssr:stedsnr" v="139316" />
	</node>
<<<<<<< HEAD
	<node lat="69.32321361067325" lon="20.017952188492146" id="-41203">
		<tag k="name" v="Horsnes - Čohkkugieddi" />
		<tag k="name:no" v="Horsnes" />
		<tag k="name:se" v="Čohkkugieddi" />
=======
	<node id="-886102" lat="69.2423999974" lon="20.0398499956">
		<tag k="name" v="Mo" />
>>>>>>> e1d4bc35ff8a6074a6f2e91616a996b547c36f15
		<tag k="place" v="farm" />
		<tag k="ssr:stedsnr" v="139431" />
	</node>
<<<<<<< HEAD
	<node lat="69.24142222081244" lon="19.84211664229518" id="-41206">
		<tag k="name" v="Solvoll" />
=======
	<node id="-886100" lat="69.374405561" lon="20.2535416405">
		<tag k="alt_name" v="Sommarset" />
		<tag k="name" v="Sommerset" />
>>>>>>> e1d4bc35ff8a6074a6f2e91616a996b547c36f15
		<tag k="place" v="farm" />
		<tag k="ssr:stedsnr" v="139384" />
	</node>
<<<<<<< HEAD
	<node lat="69.32245000081271" lon="19.959422203917285" id="-41208">
		<tag k="name" v="Myrbakken" />
		<tag k="place" v="farm" />
		<tag k="ssr:stedsnr" v="139443" />
	</node>
	<node lat="69.3062777761775" lon="19.93403330822375" id="-41210">
		<tag k="name" v="Jernoll" />
=======
	<node id="-886099" lat="69.1250833317" lon="20.1022138683">
		<tag k="alt_name" v="Fredheimsæter" />
		<tag k="historic" v="shieling" />
		<tag k="name" v="Fredheimsætra" />
		<tag k="place" v="locality" />
		<tag k="ssr:stedsnr" v="200286" />
	</node>
	<node id="-886413" lat="69.2229138884" lon="19.9716166454">
		<tag k="loc_name:se" v="Gurti" />
		<tag k="name" v="Fossen" />
		<tag k="name:no" v="Fossen" />
		<tag k="place" v="farm" />
		<tag k="ssr:stedsnr" v="564341" />
	</node>
	<node id="-885577" lat="69.372938893" lon="20.2645555292">
		<tag k="name" v="Holmen" />
>>>>>>> e1d4bc35ff8a6074a6f2e91616a996b547c36f15
		<tag k="place" v="farm" />
		<tag k="ssr:stedsnr" v="139453" />
	</node>
<<<<<<< HEAD
	<node lat="69.37308333067033" lon="20.045355529040354" id="-41213">
		<tag k="name" v="Elvenes" />
=======
	<node id="-886600" lat="69.1523555522" lon="20.0434555311">
		<tag k="name" v="Innseth" />
>>>>>>> e1d4bc35ff8a6074a6f2e91616a996b547c36f15
		<tag k="place" v="farm" />
		<tag k="ssr:stedsnr" v="139465" />
	</node>
<<<<<<< HEAD
	<node lat="69.36119166816692" lon="20.10471388433528" id="-41214">
		<tag k="name" v="Strandvoll" />
		<tag k="place" v="farm" />
		<tag k="ssr:stedsnr" v="139468" />
	</node>
	<node lat="69.16765336595826" lon="20.029667786040505" id="-41219">
		<tag k="name" v="Signalnes - Čiekŋalnjárga" />
		<tag k="name:no" v="Signalnes" />
		<tag k="name:se" v="Čiekŋalnjárga" />
=======
	<node id="-885575" lat="69.3925888928" lon="20.2777138637">
		<tag k="name" v="Gustavgjerdet" />
		<tag k="place" v="quarter" />
		<tag k="ssr:stedsnr" v="722111" />
	</node>
	<node id="-885062" lat="69.3594611154" lon="20.0994194392">
		<tag k="name" v="Bentsnes" />
		<tag k="place" v="farm" />
		<tag k="ssr:stedsnr" v="237746" />
	</node>
	<node id="-885571" lat="69.2576000004" lon="19.8920888725">
		<tag k="name" v="Hauge" />
		<tag k="place" v="farm" />
		<tag k="ssr:stedsnr" v="721398" />
	</node>
	<node id="-885569" lat="69.1848249959" lon="19.9917722125">
		<tag k="fixme" v="consider place=hamlet" />
		<tag k="name" v="Signaldalen - Čiekŋalvuovdi - Singalanouta" />
		<tag k="name:fkv" v="Singalanouta" />
		<tag k="name:no" v="Signaldalen" />
		<tag k="name:se" v="Čiekŋalvuovdi" />
		<tag k="place" v="village" />
		<tag k="ssr:stedsnr" v="601353" />
	</node>
	<node id="-885728" lat="69.2620250043" lon="19.8841694241">
		<tag k="loc_name:se" v="Márttadievvá" />
		<tag k="name" v="Martabakken" />
		<tag k="name:no" v="Martabakken" />
		<tag k="place" v="farm" />
		<tag k="ssr:stedsnr" v="843421" />
	</node>
	<node id="-885301" lat="69.2118083309" lon="19.978933307">
		<tag k="name" v="Broderstad" />
		<tag k="place" v="farm" />
		<tag k="ssr:stedsnr" v="479480" />
	</node>
	<node id="-885051" lat="69.2997694482" lon="19.9255277587">
		<tag k="name" v="Tillnes" />
		<tag k="place" v="farm" />
		<tag k="ssr:stedsnr" v="55573" />
	</node>
	<node id="-885215" lat="69.1733027798" lon="20.0309499964">
		<tag k="name" v="Fredheim" />
		<tag k="place" v="farm" />
		<tag k="ssr:stedsnr" v="443338" />
	</node>
	<node id="-885048" lat="69.3674111129" lon="20.0206860873">
		<tag k="name" v="Haug" />
		<tag k="place" v="farm" />
		<tag k="ssr:stedsnr" v="237566" />
	</node>
	<node id="-886068" lat="69.2330750028" lon="20.1087527694">
		<tag k="name" v="Tindstad" />
		<tag k="place" v="farm" />
		<tag k="ssr:stedsnr" v="176714" />
	</node>
	<node id="-886576" lat="69.2600249971" lon="19.9740444347">
		<tag k="loc_name:se" v="Biertnagieddi" />
		<tag k="name" v="Bjørnevoll" />
		<tag k="name:no" v="Bjørnevoll" />
		<tag k="place" v="farm" />
		<tag k="ssr:stedsnr" v="746579" />
	</node>
	<node id="-885701" lat="69.2935333373" lon="19.9166305356">
		<tag k="name" v="Kvalnes - Bossonjárga" />
		<tag k="name:no" v="Kvalnes" />
		<tag k="name:se" v="Bossonjárga" />
		<tag k="place" v="farm" />
		<tag k="ssr:stedsnr" v="929366" />
	</node>
	<node id="-886574" lat="69.3683611138" lon="20.2543333288">
		<tag k="name" v="Myrslett" />
		<tag k="place" v="farm" />
		<tag k="ssr:stedsnr" v="746444" />
	</node>
	<node id="-886571" lat="69.3744611139" lon="20.2576610888">
		<tag k="alt_name" v="Mellomjord" />
		<tag k="name" v="Mellomjorda" />
		<tag k="place" v="farm" />
		<tag k="ssr:stedsnr" v="746431" />
	</node>
	<node id="-885028" lat="69.2638277816" lon="19.8857972122">
		<tag k="name" v="Skogeng" />
>>>>>>> e1d4bc35ff8a6074a6f2e91616a996b547c36f15
		<tag k="place" v="farm" />
		<tag k="ssr:stedsnr" v="140339" />
	</node>
<<<<<<< HEAD
	<node lat="69.19118888986901" lon="20.983099982069277" id="-41230">
		<tag k="name" v="Loassuhytta" />
		<tag k="place" v="isolated_dwelling" />
		<tag k="ssr:stedsnr" v="140968" />
	</node>
	<node lat="69.33673055532593" lon="20.35081942522649" id="-41235">
=======
	<node id="-886561" lat="69.3054305526" lon="20.4022222117">
		<tag k="name" v="Lullenes" />
		<tag k="place" v="isolated_dwelling" />
		<tag k="ssr:stedsnr" v="746381" />
	</node>
	<node id="-886560" lat="69.3001583337" lon="19.9818277768">
		<tag k="alt_name:no" v="Berg, in;Inberg" />
		<tag k="name" v="Indre Berg - Guolbanvággi" />
		<tag k="name:no" v="Indre Berg" />
		<tag k="name:se" v="Guolbanvággi" />
		<tag k="place" v="farm" />
		<tag k="ssr:stedsnr" v="746376" />
	</node>
	<node id="-886558" lat="69.2970499978" lon="19.9198610925">
		<tag k="name" v="Bjørkåker" />
		<tag k="place" v="farm" />
		<tag k="ssr:stedsnr" v="746364" />
	</node>
	<node id="-886555" lat="69.1190999958" lon="20.1193111036">
		<tag k="name" v="Dalheim" />
		<tag k="place" v="farm" />
		<tag k="ssr:stedsnr" v="746279" />
	</node>
	<node id="-885530" lat="69.309080557" lon="19.9405638853">
		<tag k="name" v="Lavoll" />
		<tag k="place" v="farm" />
		<tag k="ssr:stedsnr" v="540591" />
	</node>
	<node id="-885017" lat="69.0737851281" lon="20.5018857925">
		<tag k="fixme" v="consider tourism=alpine_hut or tourism=chalet" />
		<tag k="name" v="Goldahytta" />
		<tag k="ssr:stedsnr" v="19526" />
		<tag k="tourism" v="wilderness_hut" />
	</node>
	<node id="-885522" lat="69.2597972206" lon="19.9948944327">
		<tag k="name" v="Lien" />
		<tag k="place" v="farm" />
		<tag k="ssr:stedsnr" v="540434" />
	</node>
	<node id="-886030" lat="69.3367305553" lon="20.3508194252">
>>>>>>> e1d4bc35ff8a6074a6f2e91616a996b547c36f15
		<tag k="name" v="Brennfjell" />
		<tag k="place" v="neighbourhood" />
		<tag k="ssr:stedsnr" v="149682" />
	</node>
<<<<<<< HEAD
	<node lat="69.12508333173643" lon="20.10221386833788" id="-41281">
		<tag k="alt_name" v="Fredheimsæter" />
		<tag k="historic" v="shieling" />
		<tag k="name" v="Fredheimsætra" />
		<tag k="place" v="isolated_dwelling" />
		<tag k="ssr:stedsnr" v="200286" />
	</node>
	<node lat="69.24239999740712" lon="20.039849995556228" id="-41282">
		<tag k="name" v="Mo" />
=======
	<node id="-885288" lat="69.2593250037" lon="19.8927861126">
		<tag k="name" v="Roland" />
		<tag k="place" v="farm" />
		<tag k="ssr:stedsnr" v="478397" />
	</node>
	<node id="-886109" lat="69.2523944431" lon="19.8762721964">
		<tag k="name" v="Skogtun" />
		<tag k="place" v="farm" />
		<tag k="ssr:stedsnr" v="200589" />
	</node>
	<node id="-886025" lat="69.1911888899" lon="20.9830999821">
		<tag k="name" v="Loassuhytta" />
		<tag k="place" v="isolated_dwelling" />
		<tag k="ssr:stedsnr" v="140968" />
	</node>
	<node id="-885121" lat="69.2510222258" lon="19.8724416654">
		<tag k="name" v="Sáiserohtu" />
		<tag k="name:se" v="Sáiserohtu" />
		<tag k="place" v="farm" />
		<tag k="ssr:stedsnr" v="115404" />
	</node>
	<node id="-886013" lat="69.1678944432" lon="20.0289110911">
		<tag k="name" v="Signalnes - Čiekŋalnjárga" />
		<tag k="name:no" v="Signalnes" />
		<tag k="name:se" v="Čiekŋalnjárga" />
		<tag k="place" v="farm" />
		<tag k="ssr:stedsnr" v="140339" />
	</node>
	<node id="-886296" lat="69.1440444431" lon="20.764183299">
		<tag k="name" v="Gálggogobba" />
		<tag k="name:se" v="Gálggogobba" />
		<tag k="place" v="locality" />
		<tag k="ssr:stedsnr" v="383963" />
	</node>
	<node id="-885498" lat="69.2566444415" lon="19.874058323">
		<tag k="name" v="Seljeli" />
		<tag k="place" v="farm" />
		<tag k="ssr:stedsnr" v="686598" />
	</node>
	<node id="-886521" lat="69.3959611117" lon="20.2801416551">
		<tag k="name" v="Solli" />
		<tag k="place" v="farm" />
		<tag k="ssr:stedsnr" v="625467" />
	</node>
	<node id="-886519" lat="69.3720499969" lon="20.3006499756">
		<tag k="name" v="Myreng" />
		<tag k="place" v="farm" />
		<tag k="ssr:stedsnr" v="625448" />
	</node>
	<node id="-886518" lat="69.3780111096" lon="20.29165555">
		<tag k="name" v="Olderelv" />
		<tag k="place" v="farm" />
		<tag k="ssr:stedsnr" v="625437" />
	</node>
	<node id="-886003" lat="69.3062777762" lon="19.9340333082">
		<tag k="name" v="Jernoll" />
		<tag k="place" v="farm" />
		<tag k="ssr:stedsnr" v="139453" />
	</node>
	<node id="-886514" lat="69.2845194467" lon="19.9578472165">
		<tag k="name" v="Kvesmenes - Vieksegieddi - Vieksikenttä" />
		<tag k="name:fkv" v="Vieksikenttä" />
		<tag k="name:no" v="Kvesmenes" />
		<tag k="name:se" v="Vieksegieddi" />
		<tag k="place" v="hamlet" />
		<tag k="ssr:stedsnr" v="625396" />
	</node>
	<node id="-886513" lat="69.293069442" lon="19.8765861012">
		<tag k="name" v="Geassegieddi" />
		<tag k="name:se" v="Geassegieddi" />
		<tag k="place" v="locality" />
		<tag k="ssr:stedsnr" v="625390" />
	</node>
	<node id="-886512" lat="69.2452500008" lon="20.05439999">
		<tag k="name" v="Slettvoll" />
		<tag k="place" v="farm" />
		<tag k="ssr:stedsnr" v="625382" />
	</node>
	<node id="-885999" lat="69.3249500009" lon="20.0162527648">
		<tag k="name" v="Horsnes - Čohkkugieddi" />
		<tag k="name:no" v="Horsnes" />
		<tag k="name:se" v="Čohkkugieddi" />
		<tag k="place" v="farm" />
		<tag k="ssr:stedsnr" v="139431" />
	</node>
	<node id="-885846" lat="69.334952775" lon="20.2982472047">
		<tag k="name" v="Leppäveräjä" />
		<tag k="name:fkv" v="Leppäveräjä" />
		<tag k="place" v="farm" />
		<tag k="ssr:stedsnr" v="36042" />
	</node>
	<node id="-885483" lat="69.3679722257" lon="20.0230499995">
		<tag k="name" v="Teigen" />
		<tag k="place" v="farm" />
		<tag k="ssr:stedsnr" v="686459" />
	</node>
	<node id="-885994" lat="69.2475805597" lon="20.0439194324">
		<tag k="name" v="Heggeblom" />
>>>>>>> e1d4bc35ff8a6074a6f2e91616a996b547c36f15
		<tag k="place" v="farm" />
		<tag k="ssr:stedsnr" v="200366" />
	</node>
<<<<<<< HEAD
	<node lat="69.31843611321148" lon="19.953933332626484" id="-41284">
		<tag k="name" v="Nyborg" />
=======
	<node id="-885993" lat="69.2414222208" lon="19.8421166423">
		<tag k="name" v="Solvoll" />
>>>>>>> e1d4bc35ff8a6074a6f2e91616a996b547c36f15
		<tag k="place" v="farm" />
		<tag k="ssr:stedsnr" v="200420" />
	</node>
<<<<<<< HEAD
	<node lat="69.3744055609651" lon="20.253541640540202" id="-41285">
		<tag k="alt_name" v="Sommarset" />
		<tag k="name" v="Sommerset" />
=======
	<node id="-885477" lat="69.2443138845" lon="20.0630777706">
		<tag k="name" v="Kitdalen" />
		<tag k="place" v="farm" />
		<tag k="ssr:stedsnr" v="686381" />
	</node>
	<node id="-886503" lat="69.3233250021" lon="19.9606860995">
		<tag k="name" v="Solås" />
>>>>>>> e1d4bc35ff8a6074a6f2e91616a996b547c36f15
		<tag k="place" v="farm" />
		<tag k="ssr:stedsnr" v="200446" />
	</node>
<<<<<<< HEAD
	<node lat="69.38502777860543" lon="20.266994427818293" id="-41286">
		<tag k="name" v="Myrgjerdet" />
		<tag k="place" v="farm" />
		<tag k="ssr:stedsnr" v="200522" />
	</node>
	<node lat="69.38762221959524" lon="20.286811095049806" id="-41287">
		<tag k="alt_name" v="Lillevoll" />
		<tag k="name" v="Litlevollen" />
=======
	<node id="-885989" lat="69.2313138931" lon="19.9830972204">
		<tag k="name" v="Nyli" />
		<tag k="place" v="farm" />
		<tag k="ssr:stedsnr" v="139354" />
	</node>
	<node id="-885476" lat="69.3046777736" lon="19.9313388792">
		<tag k="name" v="Bukta - Luokta" />
		<tag k="name:no" v="Bukta" />
		<tag k="name:se" v="Luokta" />
>>>>>>> e1d4bc35ff8a6074a6f2e91616a996b547c36f15
		<tag k="place" v="farm" />
		<tag k="ssr:stedsnr" v="200523" />
	</node>
<<<<<<< HEAD
	<node lat="69.25407777528254" lon="19.881949996235672" id="-41291">
		<tag k="loc_name:se" v="Čávkosdievvá" />
		<tag k="name" v="Oterbakken" />
		<tag k="name:no" v="Oterbakken" />
=======
	<node id="-885475" lat="69.2431638873" lon="19.9328027653">
		<tag k="name" v="Fjellset" />
>>>>>>> e1d4bc35ff8a6074a6f2e91616a996b547c36f15
		<tag k="place" v="farm" />
		<tag k="ssr:stedsnr" v="200586" />
	</node>
<<<<<<< HEAD
	<node lat="69.25239444310635" lon="19.876272196367868" id="-41292">
		<tag k="name" v="Skogtun" />
=======
	<node id="-885474" lat="69.2299277778" lon="19.8241499877">
		<tag k="name" v="Elvebakken" />
>>>>>>> e1d4bc35ff8a6074a6f2e91616a996b547c36f15
		<tag k="place" v="farm" />
		<tag k="ssr:stedsnr" v="200589" />
	</node>
<<<<<<< HEAD
	<node lat="69.25354999967342" lon="19.99557221958428" id="-41293">
		<tag k="loc_name:se" v="Soahkefállas" />
		<tag k="name" v="Bjørkemo" />
		<tag k="name:no" v="Bjørkemo" />
=======
	<node id="-885473" lat="69.233719441" lon="19.8224333113">
		<tag k="loc_name:se" v="Riehppi" />
		<tag k="name" v="Skogli" />
		<tag k="name:no" v="Skogli" />
>>>>>>> e1d4bc35ff8a6074a6f2e91616a996b547c36f15
		<tag k="place" v="farm" />
		<tag k="ssr:stedsnr" v="200594" />
	</node>
<<<<<<< HEAD
	<node lat="69.18229721989087" lon="19.987399974262427" id="-41296">
		<tag k="loc_name:se" v="Luhpposiida" />
		<tag k="name" v="Heggelund" />
		<tag k="name:no" v="Heggelund" />
=======
	<node id="-885472" lat="69.2364638895" lon="19.8383110945">
		<tag k="name" v="Fjelldal" />
>>>>>>> e1d4bc35ff8a6074a6f2e91616a996b547c36f15
		<tag k="place" v="farm" />
		<tag k="ssr:stedsnr" v="201316" />
	</node>
<<<<<<< HEAD
	<node lat="69.25262499670039" lon="20.00777498154037" id="-41298">
		<tag k="loc_name:se" v="Njáimmet" />
		<tag k="name" v="Naimakka" />
		<tag k="name:fkv" v="Naimakka" />
=======
	<node id="-885471" lat="69.2411666634" lon="20.0465527547">
		<tag k="name" v="Sørli" />
>>>>>>> e1d4bc35ff8a6074a6f2e91616a996b547c36f15
		<tag k="place" v="farm" />
		<tag k="ssr:stedsnr" v="201534" />
	</node>
<<<<<<< HEAD
	<node lat="69.35916996915024" lon="20.10327265615038" id="-41300">
		<tag k="alt_name:no" v="Bentsjord" />
		<tag k="fixme" v="consider place=hamlet" />
		<tag k="name" v="Bentsjorda - Suollatvággi" />
		<tag k="name:no" v="Bentsjorda" />
		<tag k="name:se" v="Suollatvággi" />
=======
	<node id="-885981" lat="69.373652778" lon="20.0447472092">
		<tag k="fixme" v="consider place=hamlet" />
		<tag k="name" v="Steindalen - Gievdanvággi - Kivetänlahti" />
		<tag k="name:fkv" v="Kivetänlahti" />
		<tag k="name:no" v="Steindalen" />
		<tag k="name:se" v="Gievdanvággi" />
		<tag k="place" v="village" />
		<tag k="ssr:stedsnr" v="116355" />
	</node>
	<node id="-885221" lat="69.2377000001" lon="19.8381444375">
		<tag k="name" v="Krokan" />
		<tag k="place" v="farm" />
		<tag k="ssr:stedsnr" v="443376" />
	</node>
	<node id="-885462" lat="69.1170305552" lon="20.105788864">
		<tag k="name" v="Paras" />
>>>>>>> e1d4bc35ff8a6074a6f2e91616a996b547c36f15
		<tag k="place" v="farm" />
		<tag k="ssr:stedsnr" v="201420" />
	</node>
<<<<<<< HEAD
	<node lat="69.36715555816058" lon="20.30363054205904" id="-41302">
		<tag k="name" v="Nedstevatn" />
		<tag k="place" v="farm" />
		<tag k="ssr:stedsnr" v="201435" />
	</node>
	<node lat="69.3705555529866" lon="20.28251665274383" id="-41342">
		<tag k="name" v="Seljestad" />
		<tag k="place" v="farm" />
		<tag k="ssr:stedsnr" v="297152" />
	</node>
	<node lat="69.39248055633767" lon="20.268599974423505" id="-41343">
		<tag k="name" v="Marketsplassen" />
		<tag k="place" v="square" />
		<tag k="ssr:stedsnr" v="297120" />
	</node>
	<node lat="69.39730000233357" lon="20.136880550146895" id="-41369">
		<tag k="name" v="Nymoen" />
=======
	<node id="-885715" lat="69.3840777803" lon="20.2015999787">
		<tag k="name" v="Falsnes" />
		<tag k="place" v="farm" />
		<tag k="ssr:stedsnr" v="929476" />
	</node>
	<node id="-885458" lat="69.3116694415" lon="19.9447083312">
		<tag k="alt_name:no" v="Oldernes" />
		<tag k="loc_name:se" v="Ruššugieddi" />
		<tag k="name" v="Oldereng - Russugieddi" />
		<tag k="name:no" v="Oldereng" />
		<tag k="name:se" v="Russugieddi" />
>>>>>>> e1d4bc35ff8a6074a6f2e91616a996b547c36f15
		<tag k="place" v="farm" />
		<tag k="ssr:stedsnr" v="321441" />
	</node>
<<<<<<< HEAD
	<node lat="69.20924167216924" lon="19.981502755787673" id="-41372">
		<tag k="name" v="Fjellstad" />
=======
	<node id="-885457" lat="69.3174111154" lon="20.364058309">
		<tag k="name" v="Kavelnes" />
>>>>>>> e1d4bc35ff8a6074a6f2e91616a996b547c36f15
		<tag k="place" v="farm" />
		<tag k="ssr:stedsnr" v="322330" />
	</node>
<<<<<<< HEAD
	<node lat="69.23972499642527" lon="20.08480276679751" id="-41376">
		<tag k="loc_name:se" v="Vuovdesiida" />
		<tag k="name" v="Kitdalen" />
		<tag k="name:no" v="Kitdalen" />
=======
	<node id="-886480" lat="69.368805552" lon="20.0280472053">
		<tag k="name" v="Lillemo" />
>>>>>>> e1d4bc35ff8a6074a6f2e91616a996b547c36f15
		<tag k="place" v="farm" />
		<tag k="ssr:stedsnr" v="322362" />
	</node>
<<<<<<< HEAD
	<node lat="69.40090833065415" lon="20.268438869317958" id="-41380">
		<tag k="name" v="Furuli" />
		<tag k="place" v="farm" />
		<tag k="ssr:stedsnr" v="322466" />
	</node>
	<node lat="69.29403610879788" lon="19.916449991984326" id="-41381">
		<tag k="name" v="Nordli" />
		<tag k="place" v="farm" />
		<tag k="ssr:stedsnr" v="322377" />
	</node>
	<node lat="69.38151388940352" lon="20.30217775656218" id="-41386">
		<tag k="name" v="Sommarset" />
		<tag k="place" v="farm" />
		<tag k="ssr:stedsnr" v="322487" />
	</node>
	<node lat="69.27447328391767" lon="19.959005196206743" id="-41409">
		<tag k="fixme" v="consider place=hamlet" />
		<tag k="name" v="Hatten" />
=======
	<node id="-885800" lat="69.3078138923" lon="19.9385194402">
		<tag k="name" v="Stubbeng" />
		<tag k="place" v="farm" />
		<tag k="ssr:stedsnr" v="965609" />
	</node>
	<node id="-885459" lat="69.3087111115" lon="19.940083326">
		<tag k="name" v="Nyvoll" />
		<tag k="place" v="farm" />
		<tag k="ssr:stedsnr" v="685410" />
	</node>
	<node id="-885964" lat="69.4002777803" lon="20.0528861003">
		<tag k="fixme" v="consider tourism=alpine_hut or tourism=chalet" />
		<tag k="name" v="Rullebu" />
		<tag k="ssr:stedsnr" v="102059" />
		<tag k="tourism" v="wilderness_hut" />
	</node>
	<node id="-885446" lat="69.2012749982" lon="19.9787749965">
		<tag k="name" v="Solli" />
		<tag k="place" v="farm" />
		<tag k="ssr:stedsnr" v="504306" />
	</node>
	<node id="-885957" lat="69.3512666654" lon="20.2745416535">
		<tag k="name" v="Paskaput" />
		<tag k="place" v="locality" />
		<tag k="ssr:stedsnr" v="93251" />
	</node>
	<node id="-885220" lat="69.2341166676" lon="19.9624416426">
		<tag k="loc_name:se" v="Boarrenjárga" />
		<tag k="name" v="Borrenes" />
		<tag k="name:no" v="Borrenes" />
		<tag k="place" v="farm" />
		<tag k="ssr:stedsnr" v="443372" />
	</node>
	<node id="-885948" lat="69.3250472205" lon="20.0181916512">
		<tag k="loc_name:se" v="Čohkkugieddi" />
		<tag k="name" v="Horsnes" />
		<tag k="name:no" v="Horsnes" />
		<tag k="place" v="hamlet" />
		<tag k="ssr:stedsnr" v="89637" />
	</node>
	<node id="-885947" lat="69.3399555526" lon="19.9628666588">
		<tag k="fixme" v="consider place=hamlet" />
		<tag k="name" v="Elvevoll - Stállovággi - Staaluvankka" />
		<tag k="name:fkv" v="Staaluvankka" />
		<tag k="name:no" v="Elvevoll" />
		<tag k="name:se" v="Stállovággi" />
		<tag k="place" v="village" />
		<tag k="ssr:stedsnr" v="87126" />
	</node>
	<node id="-885108" lat="69.3963833362" lon="20.131369423">
		<tag k="name" v="Årland" />
		<tag k="place" v="farm" />
		<tag k="ssr:stedsnr" v="261482" />
	</node>
	<node id="-885642" lat="69.3932083316" lon="20.2716333102">
		<tag k="name" v="Storsanden" />
		<tag k="place" v="quarter" />
		<tag k="ssr:stedsnr" v="904100" />
	</node>
	<node id="-886443" lat="69.1098416704" lon="20.7959388644">
		<tag k="name" v="Gálggonjárga" />
		<tag k="name:se" v="Gálggonjárga" />
>>>>>>> e1d4bc35ff8a6074a6f2e91616a996b547c36f15
		<tag k="place" v="farm" />
		<tag k="ssr:stedsnr" v="355465" />
	</node>
<<<<<<< HEAD
	<node lat="69.31485778438908" lon="20.00473827279416" id="-41428">
		<tag k="name" v="Berg" />
=======
	<node id="-885447" lat="69.3796083305" lon="20.2698027681">
		<tag k="name" v="Grønslett" />
		<tag k="place" v="farm" />
		<tag k="ssr:stedsnr" v="504502" />
	</node>
	<node id="-885927" lat="69.2615111109" lon="19.9115222111">
		<tag k="name" v="Strand" />
>>>>>>> e1d4bc35ff8a6074a6f2e91616a996b547c36f15
		<tag k="place" v="farm" />
		<tag k="ssr:stedsnr" v="358617" />
	</node>
<<<<<<< HEAD
	<node lat="69.2692646498585" lon="19.89701254752789" id="-41453">
		<tag k="fixme" v="consider place=hamlet" />
		<tag k="name" v="Melen - Mielli" />
		<tag k="name:no" v="Melen" />
		<tag k="name:se" v="Mielli" />
=======
	<node id="-885926" lat="69.2517083359" lon="19.9961360981">
		<tag k="name" v="Åsvang" />
>>>>>>> e1d4bc35ff8a6074a6f2e91616a996b547c36f15
		<tag k="place" v="farm" />
		<tag k="ssr:stedsnr" v="382397" />
	</node>
<<<<<<< HEAD
	<node lat="69.40513055236167" lon="20.265977765735602" id="-41454">
		<tag k="name" v="Kvalberg" />
=======
	<node id="-886437" lat="69.2507833346" lon="19.8549749875">
		<tag k="name" v="Bakke" />
>>>>>>> e1d4bc35ff8a6074a6f2e91616a996b547c36f15
		<tag k="place" v="farm" />
		<tag k="ssr:stedsnr" v="382470" />
	</node>
<<<<<<< HEAD
	<node lat="69.40368055720354" lon="20.14650832035035" id="-41455">
		<tag k="alt_name:no" v="Yttergård" />
		<tag k="loc_name:se" v="Davvesiida" />
		<tag k="name" v="Yttergården" />
		<tag k="name:no" v="Yttergården" />
=======
	<node id="-885924" lat="69.2499194454" lon="20.0131777763">
		<tag k="name" v="Bakkely" />
>>>>>>> e1d4bc35ff8a6074a6f2e91616a996b547c36f15
		<tag k="place" v="farm" />
		<tag k="ssr:stedsnr" v="382473" />
	</node>
<<<<<<< HEAD
	<node lat="69.11911666502522" lon="20.09486665982346" id="-41456">
		<tag k="name" v="Lundeng" />
=======
	<node id="-885923" lat="69.2498999996" lon="20.0282722082">
		<tag k="name" v="Bjørkeli" />
>>>>>>> e1d4bc35ff8a6074a6f2e91616a996b547c36f15
		<tag k="place" v="farm" />
		<tag k="ssr:stedsnr" v="382274" />
	</node>
<<<<<<< HEAD
	<node lat="69.20329444188677" lon="19.959138881433578" id="-41459">
		<tag k="alt_name" v="Sollisæter" />
		<tag k="historic" v="shieling" />
		<tag k="name" v="Sollisætra" />
		<tag k="place" v="isolated_dwelling" />
		<tag k="ssr:stedsnr" v="382326" />
	</node>
	<node lat="69.22473055123453" lon="20.175083326751153" id="-41464">
		<tag k="name" v="Midtdalsvollen" />
		<tag k="place" v="locality" />
		<tag k="ssr:stedsnr" v="382341" />
	</node>
	<node lat="69.22291389095255" lon="20.25469444146888" id="-41465">
		<tag k="name" v="Brakke" />
		<tag k="place" v="isolated_dwelling" />
		<tag k="ssr:stedsnr" v="382342" />
	</node>
	<node lat="69.31319429524041" lon="20.000016948685225" id="-41471">
		<tag k="name" v="Solstrand - Beaivegieddi" />
		<tag k="name:no" v="Solstrand" />
		<tag k="name:se" v="Beaivegieddi" />
=======
	<node id="-885920" lat="69.3781250032" lon="20.0660388699">
		<tag k="alt_name" v="Indre Selnes" />
		<tag k="name" v="Selnes" />
		<tag k="place" v="farm" />
		<tag k="ssr:stedsnr" v="79465" />
	</node>
	<node id="-885872" lat="69.3800305526" lon="20.3034222017">
		<tag k="name" v="Grindholmen" />
		<tag k="place" v="farm" />
		<tag k="ssr:stedsnr" v="55115" />
	</node>
	<node id="-886430" lat="69.3256361082" lon="19.9642222038">
		<tag k="loc_name:se" v="Dimbbarnjárga" />
		<tag k="name" v="Tømmernes" />
		<tag k="name:no" v="Tømmernes" />
		<tag k="place" v="farm" />
		<tag k="ssr:stedsnr" v="564426" />
	</node>
	<node id="-886429" lat="69.3313111115" lon="19.9718360959">
		<tag k="name" v="Sandøra - Stálugárgu" />
		<tag k="name:no" v="Sandøra" />
		<tag k="name:se" v="Stálugárgu" />
		<tag k="place" v="farm" />
		<tag k="ssr:stedsnr" v="564424" />
	</node>
	<node id="-886428" lat="69.3357750023" lon="20.0457860948">
		<tag k="name" v="Bukta - Luokta" />
		<tag k="name:no" v="Bukta" />
		<tag k="name:se" v="Luokta" />
		<tag k="place" v="farm" />
		<tag k="ssr:stedsnr" v="564420" />
	</node>
	<node id="-886427" lat="69.3393277756" lon="19.9605527533">
		<tag k="name" v="Brustad" />
		<tag k="place" v="farm" />
		<tag k="ssr:stedsnr" v="564419" />
	</node>
	<node id="-885913" lat="69.375880558" lon="20.2844499882">
		<tag k="alt_name" v="Skibotn, s" />
		<tag k="name" v="Søre Skibotn" />
		<tag k="place" v="farm" />
		<tag k="ssr:stedsnr" v="79419" />
	</node>
	<node id="-886424" lat="69.2887472202" lon="19.9129749756">
		<tag k="name" v="Dállu" />
		<tag k="name:se" v="Dállu" />
		<tag k="place" v="farm" />
		<tag k="ssr:stedsnr" v="564404" />
	</node>
	<node id="-885910" lat="69.3176027816" lon="20.0103527725">
		<tag k="name" v="Slettås" />
		<tag k="place" v="farm" />
		<tag k="ssr:stedsnr" v="79404" />
	</node>
	<node id="-885785" lat="69.3977611085" lon="20.1376249734">
		<tag k="name" v="Rastebynes" />
		<tag k="place" v="farm" />
		<tag k="ssr:stedsnr" v="935816" />
	</node>
	<node id="-886418" lat="69.2491666676" lon="20.0085388719">
		<tag k="loc_name:se" v="Beassefállas" />
		<tag k="name" v="Nevermo" />
		<tag k="name:no" v="Nevermo" />
		<tag k="place" v="farm" />
		<tag k="ssr:stedsnr" v="564378" />
	</node>
	<node id="-886417" lat="69.2352444476" lon="20.0981999889">
		<tag k="alt_name" v="Bjørkelund" />
		<tag k="name" v="Bjørklund" />
>>>>>>> e1d4bc35ff8a6074a6f2e91616a996b547c36f15
		<tag k="place" v="farm" />
		<tag k="ssr:stedsnr" v="382432" />
	</node>
<<<<<<< HEAD
	<node lat="69.37133888801684" lon="20.260524984494264" id="-41472">
		<tag k="name" v="Skogvoll" />
=======
	<node id="-885904" lat="69.2357611136" lon="19.8319222132">
		<tag k="name" v="Molund" />
>>>>>>> e1d4bc35ff8a6074a6f2e91616a996b547c36f15
		<tag k="place" v="farm" />
		<tag k="ssr:stedsnr" v="382437" />
	</node>
<<<<<<< HEAD
	<node lat="69.25077191090067" lon="19.845582547878397" id="-41477">
		<tag k="alt_name" v="Tverrdal" />
		<tag k="fixme" v="consider place=hamlet" />
		<tag k="name" v="Tverrdalen" />
		<tag k="place" v="farm" />
		<tag k="ssr:stedsnr" v="382559" />
	</node>
	<node lat="69.25546643359571" lon="19.883931328371123" id="-41479">
		<tag k="fixme" v="consider place=hamlet" />
		<tag k="name" v="Oteren - Čávkkus - Saukkonen" />
		<tag k="name:fkv" v="Saukkonen" />
		<tag k="name:no" v="Oteren" />
		<tag k="name:se" v="Čávkkus" />
		<tag k="place" v="village" />
		<tag k="ssr:stedsnr" v="382568" />
	</node>
	<node lat="69.14404444305693" lon="20.764183299019585" id="-41491">
		<tag k="name" v="Gálggogobba" />
		<tag k="name:se" v="Gálggogobba" />
		<tag k="place" v="locality" />
		<tag k="ssr:stedsnr" v="383963" />
	</node>
	<node lat="69.18783611039618" lon="19.989866652079744" id="-41509">
		<tag k="name" v="Solstad" />
		<tag k="place" v="farm" />
		<tag k="ssr:stedsnr" v="418350" />
	</node>
	<node lat="69.24911111045421" lon="19.850997199721558" id="-41551">
		<tag k="name" v="Solvoll" />
		<tag k="place" v="farm" />
		<tag k="ssr:stedsnr" v="443401" />
	</node>
	<node lat="69.27565833442439" lon="19.960430537074647" id="-41552">
		<tag k="alt_name" v="Hatteng nordre" />
		<tag k="name" v="Nordre Hatteng" />
		<tag k="place" v="farm" />
		<tag k="ssr:stedsnr" v="443417" />
	</node>
	<node lat="69.26303333463662" lon="19.88057498824479" id="-41553">
		<tag k="name" v="Slåtten" />
		<tag k="place" v="farm" />
		<tag k="ssr:stedsnr" v="443418" />
	</node>
	<node lat="69.23289167091373" lon="20.105980539234338" id="-41557">
		<tag k="name" v="Moskkagáisi" />
		<tag k="name:se" v="Moskkagáisi" />
		<tag k="place" v="farm" />
		<tag k="ssr:stedsnr" v="443361" />
	</node>
	<node lat="69.23411666756797" lon="19.962441642632346" id="-41561">
		<tag k="loc_name:se" v="Boarrenjárga" />
		<tag k="name" v="Borrenes" />
		<tag k="name:no" v="Borrenes" />
		<tag k="place" v="farm" />
		<tag k="ssr:stedsnr" v="443372" />
	</node>
	<node lat="69.23770000007679" lon="19.83814443745234" id="-41562">
		<tag k="name" v="Krokan" />
		<tag k="place" v="farm" />
		<tag k="ssr:stedsnr" v="443376" />
	</node>
	<node lat="69.24327499674554" lon="20.190199982481687" id="-41563">
		<tag k="name" v="Stuoragieddi" />
		<tag k="name:se" v="Stuoragieddi" />
		<tag k="place" v="locality" />
		<tag k="ssr:stedsnr" v="443377" />
	</node>
	<node lat="69.31386036393715" lon="20.0008219695107" id="-41565">
		<tag k="alt_name:no" v="Berg, ytre" />
		<tag k="name" v="Ytre Berg - Sisgeahči" />
		<tag k="name:no" v="Ytre Berg" />
		<tag k="name:se" v="Sisgeahči" />
		<tag k="place" v="farm" />
		<tag k="ssr:stedsnr" v="443445" />
	</node>
	<node lat="69.39443888983331" lon="20.127724996415655" id="-41571">
		<tag k="name" v="Steinberg" />
		<tag k="place" v="farm" />
		<tag k="ssr:stedsnr" v="443480" />
	</node>
	<node lat="69.37935833282324" lon="20.285111092660053" id="-41572">
		<tag k="name" v="Tu" />
		<tag k="place" v="farm" />
		<tag k="ssr:stedsnr" v="443497" />
	</node>
	<node lat="69.25825000097687" lon="19.89428610622127" id="-41573">
		<tag k="name" v="Åsgården" />
		<tag k="place" v="farm" />
		<tag k="ssr:stedsnr" v="443579" />
	</node>
	<node lat="69.38857499964234" lon="20.10889999489598" id="-41577">
		<tag k="name" v="Rasteby" />
		<tag k="place" v="farm" />
		<tag k="ssr:stedsnr" v="503069" />
	</node>
	<node lat="69.40049444739908" lon="20.138686109301506" id="-41581">
		<tag k="name" v="Bjørklund" />
		<tag k="place" v="farm" />
		<tag k="ssr:stedsnr" v="503444" />
	</node>
	<node lat="69.31704388536576" lon="20.37684778074601" id="-41583">
		<tag k="name" v="Ivarvollen" />
		<tag k="place" v="locality" />
		<tag k="ssr:stedsnr" v="503356" />
	</node>
	<node lat="69.3013583303877" lon="19.926072211411046" id="-41585">
		<tag k="name" v="Brattvoll" />
=======
	<node id="-885391" lat="69.2596527795" lon="19.9188333292">
		<tag k="name" v="Kirkenes" />
		<tag k="place" v="farm" />
		<tag k="ssr:stedsnr" v="660441" />
	</node>
	<node id="-885901" lat="69.1503249999" lon="20.0543471965">
		<tag k="name" v="Elverum" />
		<tag k="place" v="farm" />
		<tag k="ssr:stedsnr" v="79292" />
	</node>
	<node id="-885698" lat="69.2383333351" lon="20.0600749768">
		<tag k="name" v="Olderlund" />
		<tag k="place" v="farm" />
		<tag k="ssr:stedsnr" v="929338" />
	</node>
	<node id="-886410" lat="69.1830472195" lon="20.0052694249">
		<tag k="name" v="Fosshaug" />
		<tag k="place" v="farm" />
		<tag k="ssr:stedsnr" v="564306" />
	</node>
	<node id="-885897" lat="69.0530249989" lon="20.2533777656">
		<tag k="fixme" v="consider tourism=alpine_hut or tourism=chalet" />
		<tag k="name" v="Gappohytta" />
		<tag k="name:no" v="Gappohytta" />
		<tag k="old_name:se" v="Gáhppostohpu" />
		<tag k="ssr:stedsnr" v="79255" />
		<tag k="tourism" v="wilderness_hut" />
	</node>
	<node id="-885235" lat="69.3129750002" lon="20.0002110972">
		<tag k="alt_name:no" v="Berg, ytre" />
		<tag k="name" v="Ytre Berg - Sisgeahči" />
		<tag k="name:no" v="Ytre Berg" />
		<tag k="name:se" v="Sisgeahči" />
		<tag k="place" v="farm" />
		<tag k="ssr:stedsnr" v="443445" />
	</node>
	<node id="-886123" lat="69.3476527787" lon="19.9735610953">
		<tag k="name" v="Storeng - Muorjenjárga" />
		<tag k="name:no" v="Storeng" />
		<tag k="name:se" v="Muorjenjárga" />
		<tag k="place" v="farm" />
		<tag k="ssr:stedsnr" v="201445" />
	</node>
	<node id="-885876" lat="69.3783861081" lon="20.2785166434">
		<tag k="loc_name" v="Skoggårdan" />
		<tag k="name" v="Skoggård" />
		<tag k="place" v="hamlet" />
		<tag k="ssr:stedsnr" v="55130" />
	</node>
	<node id="-886384" lat="69.3763138902" lon="20.2871583242">
		<tag k="name" v="Huggenhull" />
>>>>>>> e1d4bc35ff8a6074a6f2e91616a996b547c36f15
		<tag k="place" v="farm" />
		<tag k="ssr:stedsnr" v="503361" />
	</node>
<<<<<<< HEAD
	<node lat="69.37486666648691" lon="20.052222212503878" id="-41587">
		<tag k="name" v="Steindalen" />
=======
	<node id="-885359" lat="69.2579749979" lon="19.9838971948">
		<tag k="name" v="Ryeng" />
>>>>>>> e1d4bc35ff8a6074a6f2e91616a996b547c36f15
		<tag k="place" v="farm" />
		<tag k="ssr:stedsnr" v="504440" />
	</node>
<<<<<<< HEAD
	<node lat="69.24395000183635" lon="19.847749998376795" id="-41594">
		<tag k="name" v="Daleng" />
=======
	<node id="-885357" lat="69.2586555518" lon="19.9173499957">
		<tag k="alt_name:no" v="Kjerkenes" />
		<tag k="name" v="Kjerkeneset - Girkonjárga" />
		<tag k="name:no" v="Kjerkeneset" />
		<tag k="name:se" v="Girkonjárga" />
>>>>>>> e1d4bc35ff8a6074a6f2e91616a996b547c36f15
		<tag k="place" v="farm" />
		<tag k="ssr:stedsnr" v="504358" />
	</node>
<<<<<<< HEAD
	<node lat="69.28459150508161" lon="19.903848324811282" id="-41596">
		<tag k="fixme" v="consider place=hamlet" />
		<tag k="name" v="Kileng" />
=======
	<node id="-885866" lat="69.2718888872" lon="19.9501110902">
		<tag k="name" v="Hatten søndre" />
>>>>>>> e1d4bc35ff8a6074a6f2e91616a996b547c36f15
		<tag k="place" v="farm" />
		<tag k="ssr:stedsnr" v="504383" />
	</node>
<<<<<<< HEAD
	<node lat="69.2839027816944" lon="19.907099983917696" id="-41599">
		<tag k="name" v="Geitstein - Gáicageađgi" />
		<tag k="name:no" v="Geitstein" />
		<tag k="name:se" v="Gáicageađgi" />
=======
	<node id="-885346" lat="69.3748666665" lon="20.0522222125">
		<tag k="name" v="Steindalen" />
>>>>>>> e1d4bc35ff8a6074a6f2e91616a996b547c36f15
		<tag k="place" v="farm" />
		<tag k="ssr:stedsnr" v="504391" />
	</node>
<<<<<<< HEAD
	<node lat="69.27070798112375" lon="19.959478446821564" id="-41600">
=======
	<node id="-885435" lat="69.3885749996" lon="20.1088999949">
		<tag k="name" v="Rasteby" />
		<tag k="place" v="farm" />
		<tag k="ssr:stedsnr" v="503069" />
	</node>
	<node id="-885344" lat="69.2706944447" lon="19.9594611048">
>>>>>>> e1d4bc35ff8a6074a6f2e91616a996b547c36f15
		<tag k="fixme" v="consider place=suburb, village or hamlet" />
		<tag k="name" v="Hatteng - Háhtta - Hattu" />
		<tag k="name:fkv" v="Hattu" />
		<tag k="name:no" v="Hatteng" />
		<tag k="name:se" v="Háhtta" />
		<tag k="place" v="quarter" />
		<tag k="ssr:stedsnr" v="504395" />
	</node>
<<<<<<< HEAD
	<node lat="69.25865555184721" lon="19.917349995668584" id="-41612">
		<tag k="alt_name:no" v="Kjerkenes" />
		<tag k="name" v="Kjerkeneset - Girkonjárga" />
		<tag k="name:no" v="Kjerkeneset" />
		<tag k="name:se" v="Girkonjárga" />
=======
	<node id="-885343" lat="69.2839027817" lon="19.9070999839">
		<tag k="name" v="Geitstein - Gáicageađgi" />
		<tag k="name:no" v="Geitstein" />
		<tag k="name:se" v="Gáicageađgi" />
>>>>>>> e1d4bc35ff8a6074a6f2e91616a996b547c36f15
		<tag k="place" v="farm" />
		<tag k="ssr:stedsnr" v="504583" />
	</node>
<<<<<<< HEAD
	<node lat="69.25797499794521" lon="19.983897194798217" id="-41614">
		<tag k="name" v="Ryeng" />
=======
	<node id="-885340" lat="69.2848777799" lon="19.9070833272">
		<tag k="name" v="Kileng" />
>>>>>>> e1d4bc35ff8a6074a6f2e91616a996b547c36f15
		<tag k="place" v="farm" />
		<tag k="ssr:stedsnr" v="504590" />
	</node>
<<<<<<< HEAD
	<node lat="69.30908055704569" lon="19.94056388528067" id="-41637">
		<tag k="name" v="Lavoll" />
=======
	<node id="-885339" lat="69.2439500018" lon="19.8477499984">
		<tag k="name" v="Daleng" />
>>>>>>> e1d4bc35ff8a6074a6f2e91616a996b547c36f15
		<tag k="place" v="farm" />
		<tag k="ssr:stedsnr" v="540591" />
	</node>
<<<<<<< HEAD
	<node lat="69.3763138902297" lon="20.287158324177227" id="-41648">
		<tag k="name" v="Huggenhull" />
		<tag k="place" v="farm" />
		<tag k="ssr:stedsnr" v="540139" />
	</node>
	<node lat="69.25979722055477" lon="19.99489443268945" id="-41657">
		<tag k="name" v="Lien" />
		<tag k="place" v="farm" />
		<tag k="ssr:stedsnr" v="540434" />
	</node>
	<node lat="69.18304721951513" lon="20.005269424876136" id="-41681">
		<tag k="name" v="Fosshaug" />
		<tag k="place" v="farm" />
		<tag k="ssr:stedsnr" v="564306" />
	</node>
	<node lat="69.22291388841981" lon="19.971616645388597" id="-41687">
		<tag k="loc_name:se" v="Gurti" />
		<tag k="name" v="Fossen" />
		<tag k="name:no" v="Fossen" />
		<tag k="place" v="farm" />
		<tag k="ssr:stedsnr" v="564341" />
	</node>
	<node lat="69.10984167041214" lon="20.795938864353403" id="-41701">
		<tag k="name" v="Gálggonjárga" />
		<tag k="name:se" v="Gálggonjárga" />
		<tag k="place" v="farm" />
		<tag k="ssr:stedsnr" v="565535" />
	</node>
	<node lat="69.32332500206077" lon="19.960686099458446" id="-41757">
		<tag k="name" v="Solås" />
		<tag k="place" v="farm" />
		<tag k="ssr:stedsnr" v="624427" />
	</node>
	<node lat="69.2930694419525" lon="19.876586101183758" id="-41764">
		<tag k="name" v="Geassegieddi" />
		<tag k="name:se" v="Geassegieddi" />
=======
	<node id="-885404" lat="69.3429777786" lon="19.9649916656">
		<tag k="name" v="Letto" />
		<tag k="place" v="farm" />
		<tag k="ssr:stedsnr" v="661511" />
	</node>
	<node id="-885334" lat="69.4004944474" lon="20.1386861093">
		<tag k="name" v="Bjørklund" />
		<tag k="place" v="farm" />
		<tag k="ssr:stedsnr" v="503444" />
	</node>
	<node id="-885843" lat="69.3512666654" lon="20.2745416535">
		<tag k="name" v="Paskaput" />
		<tag k="place" v="farm" />
		<tag k="ssr:stedsnr" v="31204" />
	</node>
	<node id="-885841" lat="69.1998055526" lon="20.7090610963">
		<tag k="fixme" v="consider tourism=alpine_hut or tourism=chalet" />
		<tag k="name" v="Helligskogen vandrerhjem" />
		<tag k="old_name" v="Helligskogen Fjellstove" />
		<tag k="ssr:stedsnr" v="24972" />
		<tag k="tourism" v="wilderness_hut" />
	</node>
	<node id="-885836" lat="69.2270750041" lon="20.6718749835">
		<tag k="name" v="Steinbakken" />
>>>>>>> e1d4bc35ff8a6074a6f2e91616a996b547c36f15
		<tag k="place" v="locality" />
		<tag k="ssr:stedsnr" v="625390" />
	</node>
<<<<<<< HEAD
	<node lat="69.28451895057934" lon="19.957854103166806" id="-41765">
		<tag k="name" v="Kvesmenes - Vieksegieddi - Vieksikenttä" />
		<tag k="name:fkv" v="Vieksikenttä" />
		<tag k="name:no" v="Kvesmenes" />
		<tag k="name:se" v="Vieksegieddi" />
		<tag k="place" v="hamlet" />
		<tag k="ssr:stedsnr" v="625396" />
	</node>
	<node lat="69.39596111172624" lon="20.280141655059943" id="-41767">
		<tag k="name" v="Solli" />
		<tag k="place" v="farm" />
		<tag k="ssr:stedsnr" v="625467" />
	</node>
	<node lat="69.37786715013611" lon="20.29136931706843" id="-41771">
		<tag k="loc_name" v="Olderelva" />
		<tag k="name" v="Olderelv" />
		<tag k="place" v="farm" />
		<tag k="ssr:stedsnr" v="625437" />
	</node>
	<node lat="69.37204999692426" lon="20.300649975554094" id="-41772">
		<tag k="name" v="Myreng" />
		<tag k="place" v="farm" />
		<tag k="ssr:stedsnr" v="625448" />
	</node>
	<node lat="69.2658055511022" lon="19.952344438264216" id="-41773">
		<tag k="name" v="Åsheim" />
		<tag k="place" v="farm" />
		<tag k="ssr:stedsnr" v="625573" />
	</node>
	<node lat="69.3374494104091" lon="20.057362256703357" id="-41792">
		<tag k="loc_name:se" v="Juomvággi" />
		<tag k="name" v="Elsnes" />
		<tag k="name:no" v="Elsnes" />
		<tag k="place" v="hamlet" />
		<tag k="ssr:stedsnr" v="633909" />
	</node>
	<node lat="69.25965277954292" lon="19.918833329224913" id="-41806">
		<tag k="name" v="Kirkenes" />
=======
	<node id="-885106" lat="69.3628750015" lon="20.307105542">
		<tag k="name" v="Nyheim" />
>>>>>>> e1d4bc35ff8a6074a6f2e91616a996b547c36f15
		<tag k="place" v="farm" />
		<tag k="ssr:stedsnr" v="261470" />
	</node>
<<<<<<< HEAD
	<node lat="69.31429444581687" lon="19.9485277608346" id="-41821">
		<tag k="name" v="Myrvoll" />
		<tag k="place" v="farm" />
		<tag k="ssr:stedsnr" v="661552" />
	</node>
	<node lat="69.25760000044903" lon="19.892088872525957" id="-41833">
		<tag k="name" v="Hauge" />
		<tag k="place" v="farm" />
		<tag k="ssr:stedsnr" v="721398" />
	</node>
	<node lat="69.37293889302592" lon="20.264555529236787" id="-41836">
		<tag k="name" v="Holmen" />
		<tag k="place" v="farm" />
		<tag k="ssr:stedsnr" v="722139" />
	</node>
	<node lat="69.39571666725269" lon="20.1302472168989" id="-41845">
		<tag k="name" v="Moberg" />
=======
	<node id="-885216" lat="69.2328916709" lon="20.1059805392">
		<tag k="name" v="Moskkagáisi" />
		<tag k="name:se" v="Moskkagáisi" />
		<tag k="place" v="farm" />
		<tag k="ssr:stedsnr" v="443361" />
	</node>
	<node id="-885317" lat="69.3614611081" lon="20.2718110994">
		<tag k="name" v="Ballones" />
		<tag k="place" v="farm" />
		<tag k="ssr:stedsnr" v="358004" />
	</node>
	<node id="-885686" lat="69.1236777785" lon="20.1043360977">
		<tag k="alt_name" v="Olsborgsæter" />
		<tag k="historic" v="shieling" />
		<tag k="name" v="Olsborgsætra" />
		<tag k="place" v="locality" />
		<tag k="ssr:stedsnr" v="928250" />
	</node>
	<node id="-885819" lat="69.2576999985" lon="19.8774999795">
		<tag k="name" v="Sommerlund" />
>>>>>>> e1d4bc35ff8a6074a6f2e91616a996b547c36f15
		<tag k="place" v="farm" />
		<tag k="ssr:stedsnr" v="722765" />
	</node>
<<<<<<< HEAD
	<node lat="69.11909999581295" lon="20.119311103619964" id="-41857">
		<tag k="name" v="Dalheim" />
		<tag k="place" v="farm" />
		<tag k="ssr:stedsnr" v="746279" />
	</node>
	<node lat="69.29704999778657" lon="19.919861092533306" id="-41864">
		<tag k="name" v="Bjørkåker" />
		<tag k="place" v="farm" />
		<tag k="ssr:stedsnr" v="746364" />
	</node>
	<node lat="69.37446111385982" lon="20.257661088845232" id="-41867">
		<tag k="alt_name" v="Mellomjord" />
		<tag k="name" v="Mellomjorda" />
		<tag k="place" v="farm" />
		<tag k="ssr:stedsnr" v="746431" />
	</node>
	<node lat="69.3683611137512" lon="20.254333328783982" id="-41870">
		<tag k="name" v="Myrslett" />
		<tag k="place" v="farm" />
		<tag k="ssr:stedsnr" v="746444" />
=======
	<node id="-885305" lat="69.3396694417" lon="19.925147197">
		<tag k="name" v="Finnstua" />
		<tag k="place" v="isolated_dwelling" />
		<tag k="ssr:stedsnr" v="479521" />
>>>>>>> e1d4bc35ff8a6074a6f2e91616a996b547c36f15
	</node>
	<node id="-886327" lat="69.2548277798" lon="19.8754055319">
		<tag k="name" v="Oterodden" />
		<tag k="place" v="farm" />
		<tag k="ssr:stedsnr" v="418384" />
	</node>
	<node id="-885813" lat="69.3212027778" lon="20.0159999799">
		<tag k="name" v="Slettnes" />
		<tag k="place" v="farm" />
		<tag k="ssr:stedsnr" v="18388" />
	</node>
	<node id="-885812" lat="69.322902781" lon="20.0153388877">
		<tag k="name" v="Lundheim" />
		<tag k="place" v="farm" />
		<tag k="ssr:stedsnr" v="18387" />
	</node>
	<node id="-885811" lat="69.3213500045" lon="19.957722201">
		<tag k="name" v="Sandøra" />
		<tag k="place" v="hamlet" />
		<tag k="ssr:stedsnr" v="18384" />
	</node>
	<node id="-886322" lat="69.1878361104" lon="19.9898666521">
		<tag k="name" v="Solstad" />
		<tag k="place" v="farm" />
		<tag k="ssr:stedsnr" v="418350" />
	</node>
	<node id="-885809" lat="69.2605750037" lon="19.8798472049">
		<tag k="name" v="Sætersletta" />
		<tag k="place" v="farm" />
		<tag k="ssr:stedsnr" v="18358" />
	</node>
	<node id="-885808" lat="69.2489055533" lon="19.8576777653">
		<tag k="name" v="Furumo" />
		<tag k="place" v="farm" />
		<tag k="ssr:stedsnr" v="18336" />
	</node>
	<node id="-885806" lat="69.2366500013" lon="20.0739721983">
		<tag k="name" v="Lauvset" />
		<tag k="place" v="farm" />
		<tag k="ssr:stedsnr" v="18328" />
	</node>
	<node id="-885597" lat="69.3378083367" lon="20.0534138884">
		<tag k="loc_name:se" v="Juomvággi" />
		<tag k="name" v="Elsnes" />
		<tag k="name:no" v="Elsnes" />
		<tag k="place" v="hamlet" />
		<tag k="ssr:stedsnr" v="633909" />
	</node>
	<node id="-885804" lat="69.2629587174" lon="19.9645021572">
		<tag k="name" v="Veibakken" />
		<tag k="place" v="farm" />
		<tag k="ssr:stedsnr" v="980322" />
	</node>
	<node id="-885291" lat="69.3963000024" lon="20.2775333134">
		<tag k="historic" v="shieling" />
		<tag k="name" v="Yttersætra" />
		<tag k="place" v="locality" />
		<tag k="ssr:stedsnr" v="479086" />
	</node>
	<node id="-886824" lat="69.6807751959" lon="19.0868014399">
		<tag k="fixme" v="consider place=hamlet" />
		<tag k="name" v="Krokelv" />
		<tag k="place" v="farm" />
		<tag k="ssr:stedsnr" v="1076826" />
	</node>
	<node id="-886823" lat="69.6548386171" lon="18.9540555979">
		<tag k="amenity" v="school" />
		<tag k="name" v="Ishavsbyen videregående skole" />
		<tag k="ssr:stedsnr" v="1075695" />
	</node>
	<node id="-885798" lat="69.3207888906" lon="19.9574499782">
		<tag k="name" v="Sandøra" />
		<tag k="place" v="farm" />
		<tag k="ssr:stedsnr" v="965603" />
	</node>
	<node id="-886307" lat="69.2908777794" lon="20.4047333288">
		<tag k="loc_name:fkv" v="Mätämukka" />
		<tag k="name" v="Mätämutka" />
		<tag k="name:fkv" v="Mätämutka" />
		<tag k="place" v="farm" />
		<tag k="ssr:stedsnr" v="400136" />
	</node>
	<node id="-886817" lat="69.1136274908" lon="20.2405566187">
		<tag k="fixme" v="consider tourism=alpine_hut or tourism=chalet" />
		<tag k="name" v="Mallahytta" />
		<tag k="ssr:stedsnr" v="1071910" />
		<tag k="tourism" v="wilderness_hut" />
	</node>
	<node id="-886789" lat="69.3625666695" lon="20.012666647">
		<tag k="name" v="Strand" />
		<tag k="place" v="farm" />
		<tag k="ssr:stedsnr" v="965635" />
	</node>
	<node id="-886809" lat="69.4418925803" lon="20.3028317093">
		<tag k="loc_name" v="Larsberget" />
		<tag k="name" v="Larsberg" />
		<tag k="place" v="farm" />
		<tag k="ssr:stedsnr" v="990664" />
	</node>
	<node id="-886808" lat="69.2869785201" lon="20.7154408512">
		<tag k="name" v="Rovvehytta" />
		<tag k="name:se" v="Rovvehytta" />
		<tag k="place" v="locality" />
		<tag k="ssr:stedsnr" v="974627" />
	</node>
	<node id="-885778" lat="69.2563611113" lon="19.9946499819">
		<tag k="fixme" v="consider place=hamlet" />
		<tag k="name" v="Kitdalen - Čoaigedanvuovdi - Soiketanouta" />
		<tag k="name:fkv" v="Soiketanouta" />
		<tag k="name:no" v="Kitdalen" />
		<tag k="name:se" v="Čoaigedanvuovdi" />
		<tag k="place" v="village" />
		<tag k="ssr:stedsnr" v="905362" />
	</node>
	<node id="-885264" lat="69.1673388912" lon="20.0441860883">
		<tag k="name" v="Mannfjell" />
		<tag k="place" v="farm" />
		<tag k="ssr:stedsnr" v="261332" />
	</node>
	<node id="-885775" lat="69.2184222205" lon="19.9719527629">
		<tag k="name" v="Fossmo" />
		<tag k="place" v="farm" />
		<tag k="ssr:stedsnr" v="904471" />
	</node>
	<node id="-886224" lat="69.3151027789" lon="20.0031360868">
		<tag k="name" v="Berg" />
		<tag k="place" v="farm" />
		<tag k="ssr:stedsnr" v="358617" />
	</node>
	<node id="-885165" lat="69.3850277786" lon="20.2669944278">
		<tag k="name" v="Myrgjerdet" />
		<tag k="place" v="farm" />
		<tag k="ssr:stedsnr" v="200522" />
	</node>
	<node id="-886283" lat="69.2554499965" lon="19.883927761">
		<tag k="fixme" v="consider place=hamlet" />
		<tag k="name" v="Oteren - Čávkkus - Saukkonen" />
		<tag k="name:fkv" v="Saukkonen" />
		<tag k="name:no" v="Oteren" />
		<tag k="name:se" v="Čávkkus" />
		<tag k="place" v="village" />
		<tag k="ssr:stedsnr" v="382568" />
	</node>
	<node id="-886281" lat="69.2501555538" lon="19.8497249972">
		<tag k="name" v="Tverrdal" />
		<tag k="place" v="farm" />
		<tag k="ssr:stedsnr" v="382559" />
	</node>
	<node id="-886792" lat="69.3971750005" lon="20.1332694265">
		<tag k="name" v="Blomli" />
		<tag k="place" v="farm" />
		<tag k="ssr:stedsnr" v="965743" />
	</node>
	<node id="-886277" lat="69.4036805572" lon="20.1465083204">
		<tag k="alt_name:no" v="Yttergård" />
		<tag k="loc_name:se" v="Davvesiida" />
		<tag k="name" v="Yttergården" />
		<tag k="name:no" v="Yttergården" />
		<tag k="place" v="farm" />
		<tag k="ssr:stedsnr" v="382473" />
	</node>
	<node id="-886276" lat="69.4051305524" lon="20.2659777657">
		<tag k="name" v="Kvalberg" />
		<tag k="place" v="farm" />
		<tag k="ssr:stedsnr" v="382470" />
	</node>
	<node id="-886275" lat="69.3986000035" lon="20.1364805381">
		<tag k="name" v="Tuevoll" />
		<tag k="place" v="farm" />
		<tag k="ssr:stedsnr" v="382467" />
	</node>
	<node id="-886273" lat="69.371338888" lon="20.2605249845">
		<tag k="name" v="Skogvoll" />
		<tag k="place" v="farm" />
		<tag k="ssr:stedsnr" v="382437" />
	</node>
</osm>
