<?xml version="1.0" encoding="UTF-8"?>
<osm generator="osmapis" version="0.6">
	<node id="-207870" lat="59.4550333377" lon="10.1274138946">
		<tag k="name" v="Skjærebenktomta" />
		<tag k="place" v="locality" />
		<tag k="ssr:stedsnr" v="330147" />
	</node>
	<node id="-207356" lat="59.4708388895" lon="10.2487805611">
		<tag k="landuse" v="meadow" />
		<tag k="name" v="Vestby" />
		<tag k="ssr:stedsnr" v="88645" />
	</node>
	<node id="-207350" lat="59.5002583291" lon="10.1647277777">
		<tag k="landuse" v="meadow" />
		<tag k="name" v="Ladeenga" />
		<tag k="ssr:stedsnr" v="877647" />
	</node>
	<node id="-207347" lat="59.5345944465" lon="10.2155638935">
		<tag k="name" v="Rødmyr" />
		<tag k="natural" v="wetland" />
		<tag k="ssr:stedsnr" v="331756" />
	</node>
	<node id="-207858" lat="59.5216000037" lon="10.0705416668">
		<tag k="landuse" v="meadow" />
		<tag k="name" v="Nord-engen" />
		<tag k="ssr:stedsnr" v="89387" />
	</node>
	<node id="-207340" lat="59.4795972223" lon="10.3295361142">
		<tag k="landuse" v="meadow" />
		<tag k="name" v="Hagemannsparken" />
		<tag k="ssr:stedsnr" v="938948" />
	</node>
	<node id="-207336" lat="59.5009833317" lon="10.2981888821">
		<tag k="name" v="Solbergskogen" />
		<tag k="place" v="locality" />
		<tag k="ssr:stedsnr" v="27853" />
	</node>
	<node id="-207845" lat="59.5077777737" lon="10.0971166707">
		<tag k="name" v="Jonsrønningen" />
		<tag k="place" v="locality" />
		<tag k="ssr:stedsnr" v="89379" />
	</node>
	<node id="-207842" lat="59.4540638903" lon="10.0983750017">
		<tag k="name" v="Kremmermyra" />
		<tag k="natural" v="wetland" />
		<tag k="ssr:stedsnr" v="331102" />
	</node>
	<node id="-208348" lat="59.5518055554" lon="10.0639138845">
		<tag k="name" v="Torvmyra" />
		<tag k="natural" v="wetland" />
		<tag k="ssr:stedsnr" v="513682" />
	</node>
	<node id="-208347" lat="59.4578027819" lon="10.0775638962">
		<tag k="name" v="Gampedalsmyra" />
		<tag k="natural" v="wetland" />
		<tag k="ssr:stedsnr" v="88061" />
	</node>
	<node id="-207832" lat="59.5402055599" lon="10.0656888914">
		<tag k="name" v="Skøgsjordet" />
		<tag k="place" v="locality" />
		<tag k="ssr:stedsnr" v="695297" />
	</node>
	<node id="-208331" lat="59.562686114" lon="10.0737611083">
		<tag k="name" v="Åsenmyra" />
		<tag k="natural" v="wetland" />
		<tag k="ssr:stedsnr" v="513688" />
	</node>
	<node id="-208329" lat="59.5658472235" lon="10.1276111155">
		<tag k="name" v="Nordre Herstadskogen" />
		<tag k="place" v="locality" />
		<tag k="ssr:stedsnr" v="756700" />
	</node>
	<node id="-207303" lat="59.5560305592" lon="10.1585666665">
		<tag k="name" v="Torvstrømyra" />
		<tag k="natural" v="wetland" />
		<tag k="ssr:stedsnr" v="453605" />
	</node>
	<node id="-207811" lat="59.5611194445" lon="10.0240027696">
		<tag k="name" v="Toppmyr" />
		<tag k="natural" v="wetland" />
		<tag k="ssr:stedsnr" v="513341" />
	</node>
	<node id="-208322" lat="59.5706583294" lon="9.99081666054">
		<tag k="alt_name" v="Styttåsmyr" />
		<tag k="name" v="Styttåsmyra" />
		<tag k="natural" v="wetland" />
		<tag k="ssr:stedsnr" v="731056" />
	</node>
	<node id="-208320" lat="59.5405500029" lon="10.0797055643">
		<tag k="landuse" v="meadow" />
		<tag k="name" v="Kirkebrekka" />
		<tag k="ssr:stedsnr" v="756283" />
	</node>
	<node id="-208319" lat="59.5622055533" lon="10.0218083381">
		<tag k="name" v="Stokke-Hofsmyr" />
		<tag k="natural" v="wetland" />
		<tag k="ssr:stedsnr" v="877335" />
	</node>
	<node id="-207804" lat="59.4583027779" lon="10.0646972287">
		<tag k="name" v="Bjørnemyr" />
		<tag k="natural" v="wetland" />
		<tag k="ssr:stedsnr" v="330114" />
	</node>
	<node id="-207799" lat="59.5329972256" lon="10.0201555495">
		<tag k="name" v="Langmyr" />
		<tag k="natural" v="wetland" />
		<tag k="ssr:stedsnr" v="510456" />
	</node>
	<node id="-207797" lat="59.5387361078" lon="10.0109527858">
		<tag k="name" v="Moltemyr" />
		<tag k="natural" v="wetland" />
		<tag k="ssr:stedsnr" v="513531" />
	</node>
	<node id="-207795" lat="59.5366500012" lon="10.1349194396">
		<tag k="name" v="Bustemyr" />
		<tag k="natural" v="wetland" />
		<tag k="ssr:stedsnr" v="271435" />
	</node>
	<node id="-208305" lat="59.4949361132" lon="10.1475250075">
		<tag k="name" v="Gampemyra" />
		<tag k="natural" v="wetland" />
		<tag k="ssr:stedsnr" v="755484" />
	</node>
	<node id="-207277" lat="59.5568611105" lon="10.1505694487">
		<tag k="name" v="Østmyra" />
		<tag k="place" v="locality" />
		<tag k="ssr:stedsnr" v="877713" />
	</node>
	<node id="-207785" lat="59.5620388857" lon="10.0194749993">
		<tag k="name" v="Furumyr" />
		<tag k="natural" v="wetland" />
		<tag k="ssr:stedsnr" v="938317" />
	</node>
	<node id="-208292" lat="59.5647527808" lon="10.1190722136">
		<tag k="name" v="Oremyr" />
		<tag k="natural" v="wetland" />
		<tag k="ssr:stedsnr" v="574702" />
	</node>
	<node id="-207266" lat="59.4931500016" lon="10.2572527808">
		<tag k="name" v="Bergskogen" />
		<tag k="place" v="locality" />
		<tag k="ssr:stedsnr" v="816638" />
	</node>
	<node id="-208285" lat="59.5988527767" lon="10.091594442">
		<tag k="name" v="Lindalsmyr" />
		<tag k="natural" v="wetland" />
		<tag k="ssr:stedsnr" v="877755" />
	</node>
	<node id="-208275" lat="59.5523111129" lon="10.0987944531">
		<tag k="landuse" v="meadow" />
		<tag k="name" v="Vassengen" />
		<tag k="ssr:stedsnr" v="574707" />
	</node>
	<node id="-207756" lat="59.4947444422" lon="10.1180166711">
		<tag k="name" v="Fuglemyr" />
		<tag k="natural" v="wetland" />
		<tag k="ssr:stedsnr" v="488006" />
	</node>
	<node id="-207398" lat="59.4959555511" lon="10.2334277846">
		<tag k="name" v="Kokkejordet" />
		<tag k="place" v="locality" />
		<tag k="ssr:stedsnr" v="573555" />
	</node>
	<node id="-207240" lat="59.4970277734" lon="10.1968055638">
		<tag k="name" v="Nesskogen" />
		<tag k="place" v="locality" />
		<tag k="ssr:stedsnr" v="877626" />
	</node>
	<node id="-207748" lat="59.5564194402" lon="10.0264749976">
		<tag k="name" v="Lindset Hofsmyr" />
		<tag k="natural" v="wetland" />
		<tag k="ssr:stedsnr" v="938312" />
	</node>
	<node id="-208258" lat="59.5490166663" lon="9.99656388938">
		<tag k="name" v="Tjernmyr" />
		<tag k="natural" v="wetland" />
		<tag k="ssr:stedsnr" v="88445" />
	</node>
	<node id="-207231" lat="59.4904694421" lon="10.2279333282">
		<tag k="name" v="Grettemyr" />
		<tag k="natural" v="wetland" />
		<tag k="ssr:stedsnr" v="816660" />
	</node>
	<node id="-208249" lat="59.5026472257" lon="10.122591658">
		<tag k="name" v="Moltemyr" />
		<tag k="natural" v="wetland" />
		<tag k="ssr:stedsnr" v="88045" />
	</node>
	<node id="-207224" lat="59.5031361114" lon="10.2104333367">
		<tag k="name" v="Solbergtorvet" />
		<tag k="place" v="locality" />
		<tag k="ssr:stedsnr" v="816653" />
	</node>
	<node id="-207223" lat="59.4985305558" lon="10.2354388835">
		<tag k="name" v="Klokkejordet" />
		<tag k="place" v="locality" />
		<tag k="ssr:stedsnr" v="877617" />
	</node>
	<node id="-207217" lat="59.5018194423" lon="10.1854861081">
		<tag k="name" v="Sperte" />
		<tag k="place" v="locality" />
		<tag k="ssr:stedsnr" v="331623" />
	</node>
	<node id="-207728" lat="59.501497222" lon="10.2358805516">
		<tag k="landuse" v="meadow" />
		<tag k="name" v="Bringakerenga" />
		<tag k="ssr:stedsnr" v="513623" />
	</node>
	<node id="-207719" lat="59.5598833359" lon="10.1621333369">
		<tag k="name" v="Vanninga" />
		<tag k="place" v="locality" />
		<tag k="ssr:stedsnr" v="510360" />
	</node>
	<node id="-207718" lat="59.5224888885" lon="10.2376527718">
		<tag k="name" v="Vittemyr" />
		<tag k="natural" v="wetland" />
		<tag k="ssr:stedsnr" v="89557" />
	</node>
	<node id="-208226" lat="59.5006999999" lon="10.0918861169">
		<tag k="name" v="Gampesteinen" />
		<tag k="natural" v="stone" />
		<tag k="ssr:stedsnr" v="573027" />
	</node>
	<node id="-207713" lat="59.557294445" lon="10.1459222162">
		<tag k="name" v="Hagastykket" />
		<tag k="place" v="locality" />
		<tag k="ssr:stedsnr" v="817686" />
	</node>
	<node id="-207709" lat="59.5560916684" lon="10.149130563">
		<tag k="name" v="Movenda" />
		<tag k="place" v="locality" />
		<tag k="ssr:stedsnr" v="817685" />
	</node>
	<node id="-208220" lat="59.4892111119" lon="10.0674666733">
		<tag k="landuse" v="meadow" />
		<tag k="name" v="Hestenga" />
		<tag k="ssr:stedsnr" v="88030" />
	</node>
	<node id="-207195" lat="59.4894333352" lon="10.2359055549">
		<tag k="name" v="Hetteløkka" />
		<tag k="place" v="locality" />
		<tag k="ssr:stedsnr" v="88526" />
	</node>
	<node id="-207702" lat="59.4981722233" lon="10.2894083288">
		<tag k="landuse" v="meadow" />
		<tag k="name" v="Snugg" />
		<tag k="ssr:stedsnr" v="452857" />
	</node>
	<node id="-207699" lat="59.4949250028" lon="10.2340027712">
		<tag k="landuse" v="meadow" />
		<tag k="name" v="Flatevenda" />
		<tag k="ssr:stedsnr" v="88522" />
	</node>
	<node id="-207698" lat="59.5016138911" lon="10.2159611131">
		<tag k="name" v="Skarpås" />
		<tag k="place" v="locality" />
		<tag k="ssr:stedsnr" v="633618" />
	</node>
	<node id="-207587" lat="59.4625638849" lon="10.3148694362">
		<tag k="name" v="Kiste-stue" />
		<tag k="place" v="locality" />
		<tag k="ssr:stedsnr" v="27795" />
	</node>
	<node id="-208206" lat="59.5585388869" lon="10.0015638935">
		<tag k="name" v="Elvemyrene" />
		<tag k="natural" v="wetland" />
		<tag k="ssr:stedsnr" v="634346" />
	</node>
	<node id="-208200" lat="59.5616861138" lon="9.98961389437">
		<tag k="name" v="Kringlemyr" />
		<tag k="natural" v="wetland" />
		<tag k="ssr:stedsnr" v="573437" />
	</node>
	<node id="-208199" lat="59.5522472219" lon="9.99317778071">
		<tag k="name" v="Krokmyr" />
		<tag k="natural" v="wetland" />
		<tag k="ssr:stedsnr" v="573438" />
	</node>
	<node id="-207686" lat="59.5539888928" lon="10.1763027767">
		<tag k="name" v="Saga" />
		<tag k="place" v="locality" />
		<tag k="ssr:stedsnr" v="692389" />
	</node>
	<node id="-207498" lat="59.4674666699" lon="10.2509138967">
		<tag k="landuse" v="meadow" />
		<tag k="name" v="Fudske-enga" />
		<tag k="ssr:stedsnr" v="633709" />
	</node>
	<node id="-208185" lat="59.5292722203" lon="10.0514305551">
		<tag k="name" v="Voldshogste" />
		<tag k="place" v="locality" />
		<tag k="ssr:stedsnr" v="877307" />
	</node>
	<node id="-208175" lat="59.5664611092" lon="9.97175832461">
		<tag k="name" v="Elgemyr" />
		<tag k="natural" v="wetland" />
		<tag k="ssr:stedsnr" v="634507" />
	</node>
	<node id="-208166" lat="59.5466611125" lon="10.081841673">
		<tag k="name" v="Hamnehagen" />
		<tag k="place" v="locality" />
		<tag k="ssr:stedsnr" v="149265" />
	</node>
	<node id="-207640" lat="59.5516249968" lon="10.1751305615">
		<tag k="landuse" v="meadow" />
		<tag k="name" v="Hestehagen" />
		<tag k="ssr:stedsnr" v="874423" />
	</node>
	<node id="-207636" lat="59.5538583299" lon="10.1535638839">
		<tag k="name" v="Myrene" />
		<tag k="natural" v="wetland" />
		<tag k="ssr:stedsnr" v="695593" />
	</node>
	<node id="-208654" lat="59.5363388866" lon="10.0392249978">
		<tag k="name" v="Blakkemyr" />
		<tag k="natural" v="wetland" />
		<tag k="ssr:stedsnr" v="331495" />
	</node>
	<node id="-207620" lat="59.5229388894" lon="10.2651833361">
		<tag k="alt_name" v="Djupdalsmyr" />
		<tag k="name" v="Djupedalsmyra" />
		<tag k="natural" v="wetland" />
		<tag k="ssr:stedsnr" v="367892" />
	</node>
	<node id="-208641" lat="59.5299194452" lon="10.0213694417">
		<tag k="name" v="Rundmyr" />
		<tag k="natural" v="wetland" />
		<tag k="ssr:stedsnr" v="570394" />
	</node>
	<node id="-208596" lat="59.5926277774" lon="9.94919444631">
		<tag k="name" v="Tretjernmyr" />
		<tag k="natural" v="wetland" />
		<tag k="ssr:stedsnr" v="510451" />
	</node>
	<node id="-208117" lat="59.5170277737" lon="10.0754777763">
		<tag k="name" v="Sørjordet" />
		<tag k="place" v="locality" />
		<tag k="ssr:stedsnr" v="817381" />
	</node>
	<node id="-207601" lat="59.4973166668" lon="10.2572527752">
		<tag k="landuse" v="meadow" />
		<tag k="name" v="Tamburhagen" />
		<tag k="ssr:stedsnr" v="148622" />
	</node>
	<node id="-208112" lat="59.5632027734" lon="10.1301111135">
		<tag k="name" v="Søndre Herstadskogen" />
		<tag k="place" v="locality" />
		<tag k="ssr:stedsnr" v="877705" />
	</node>
	<node id="-207599" lat="59.5634805585" lon="10.1708194413">
		<tag k="name" v="Blakemyrsvingen" />
		<tag k="place" v="locality" />
		<tag k="ssr:stedsnr" v="206374" />
	</node>
	<node id="-207589" lat="59.5546666624" lon="10.1495861188">
		<tag k="name" v="Vestmyra" />
		<tag k="place" v="locality" />
		<tag k="ssr:stedsnr" v="634724" />
	</node>
	<node id="-208611" lat="59.49845833" lon="10.1356138804">
		<tag k="name" v="Rundmyr" />
		<tag k="natural" v="wetland" />
		<tag k="ssr:stedsnr" v="27491" />
	</node>
	<node id="-208095" lat="59.4982861144" lon="10.1383222161">
		<tag k="name" v="Moltemyr" />
		<tag k="natural" v="wetland" />
		<tag k="ssr:stedsnr" v="877484" />
	</node>
	<node id="-207578" lat="59.4738972209" lon="10.3075111064">
		<tag k="name" v="Bakketun" />
		<tag k="place" v="locality" />
		<tag k="ssr:stedsnr" v="695862" />
	</node>
	<node id="-208598" lat="59.5457472181" lon="10.0843416612">
		<tag k="landuse" v="meadow" />
		<tag k="name" v="Prestegårdshagen" />
		<tag k="ssr:stedsnr" v="513313" />
	</node>
	<node id="-208084" lat="59.4972944427" lon="10.1444249949">
		<tag k="historic" v="shieling" />
		<tag k="name" v="Seterstulen" />
		<tag k="place" v="locality" />
		<tag k="ssr:stedsnr" v="877489" />
	</node>
	<node id="-208083" lat="59.5586305541" lon="10.0677000007">
		<tag k="name" v="Breisetmyra" />
		<tag k="natural" v="wetland" />
		<tag k="ssr:stedsnr" v="877701" />
	</node>
	<node id="-208594" lat="59.4663444431" lon="10.1121222166">
		<tag k="name" v="Dyremyr" />
		<tag k="natural" v="wetland" />
		<tag k="ssr:stedsnr" v="148525" />
	</node>
	<node id="-207568" lat="59.5585361076" lon="10.1675111078">
		<tag k="name" v="Firingshogstet" />
		<tag k="place" v="locality" />
		<tag k="ssr:stedsnr" v="938573" />
	</node>
	<node id="-208578" lat="59.4725333322" lon="10.0798305553">
		<tag k="name" v="Bjørkestubbmyr" />
		<tag k="natural" v="wetland" />
		<tag k="ssr:stedsnr" v="391485" />
	</node>
	<node id="-208576" lat="59.452847226" lon="10.127119445">
		<tag k="name" v="Narvestomta" />
		<tag k="place" v="locality" />
		<tag k="ssr:stedsnr" v="755118" />
	</node>
	<node id="-208063" lat="59.5102222264" lon="10.1309555613">
		<tag k="name" v="Engrønningen" />
		<tag k="place" v="locality" />
		<tag k="ssr:stedsnr" v="331355" />
	</node>
	<node id="-208062" lat="59.5595472196" lon="9.96409999554">
		<tag k="name" v="Tjernmyr" />
		<tag k="natural" v="wetland" />
		<tag k="ssr:stedsnr" v="88397" />
	</node>
	<node id="-207545" lat="59.5014055544" lon="10.2323277836">
		<tag k="landuse" v="meadow" />
		<tag k="name" v="Hettehagen" />
		<tag k="ssr:stedsnr" v="148605" />
	</node>
	<node id="-208565" lat="59.5491888881" lon="10.060908339">
		<tag k="alt_name" v="Hestehagen" />
		<tag k="name" v="Hesthagen" />
		<tag k="place" v="locality" />
		<tag k="ssr:stedsnr" v="210688" />
	</node>
	<node id="-208038" lat="59.5616749977" lon="10.1146555629">
		<tag k="name" v="Bråtaskogen" />
		<tag k="place" v="locality" />
		<tag k="ssr:stedsnr" v="634708" />
	</node>
	<node id="-208035" lat="59.5563833321" lon="10.0193805565">
		<tag k="name" v="Vesle-Hofsmyr" />
		<tag k="natural" v="wetland" />
		<tag k="ssr:stedsnr" v="453332" />
	</node>
	<node id="-207216" lat="59.56346111" lon="10.1657027726">
		<tag k="alt_name" v="Blakemyr" />
		<tag k="name" v="Blakkmyr" />
		<tag k="natural" v="wetland" />
		<tag k="ssr:stedsnr" v="124049" />
	</node>
	<node id="-208023" lat="59.5667055511" lon="9.99663055171">
		<tag k="name" v="Middagsmyr" />
		<tag k="natural" v="wetland" />
		<tag k="ssr:stedsnr" v="877467" />
	</node>
	<node id="-207508" lat="59.5326416627" lon="10.2333138947">
		<tag k="name" v="Hestehuemyr" />
		<tag k="natural" v="wetland" />
		<tag k="ssr:stedsnr" v="271583" />
	</node>
	<node id="-207503" lat="59.537644442" lon="10.1944722261">
		<tag k="name" v="Høymyr" />
		<tag k="natural" v="wetland" />
		<tag k="ssr:stedsnr" v="877790" />
	</node>
	<node id="-208013" lat="59.5384500032" lon="10.1280638932">
		<tag k="name" v="Prestegårdsskogen" />
		<tag k="place" v="locality" />
		<tag k="ssr:stedsnr" v="938375" />
	</node>
	<node id="-208011" lat="59.4946916671" lon="10.1258277776">
		<tag k="name" v="Bjørkemyr" />
		<tag k="natural" v="wetland" />
		<tag k="ssr:stedsnr" v="452499" />
	</node>
	<node id="-208010" lat="59.6034138878" lon="10.094155547">
		<tag k="name" v="Haukelimyra" />
		<tag k="natural" v="wetland" />
		<tag k="ssr:stedsnr" v="246126" />
	</node>
	<node id="-208001" lat="59.5642638879" lon="10.0725861102">
		<tag k="name" v="Hemsmyr" />
		<tag k="natural" v="wetland" />
		<tag k="ssr:stedsnr" v="634699" />
	</node>
	<node id="-208509" lat="59.5837805592" lon="10.095483326">
		<tag k="name" v="Brandstumyra" />
		<tag k="natural" v="wetland" />
		<tag k="ssr:stedsnr" v="185013" />
	</node>
	<node id="-207995" lat="59.5347972233" lon="10.0757277726">
		<tag k="landuse" v="meadow" />
		<tag k="name" v="Grefsrud" />
		<tag k="ssr:stedsnr" v="634293" />
	</node>
	<node id="-207478" lat="59.4692000014" lon="10.2523944427">
		<tag k="name" v="Korsgården-Greaker" />
		<tag k="place" v="locality" />
		<tag k="ssr:stedsnr" v="209701" />
	</node>
	<node id="-207476" lat="59.4787638862" lon="10.1827666693">
		<tag k="name" v="Barkost Torvmyr" />
		<tag k="natural" v="wetland" />
		<tag k="ssr:stedsnr" v="452708" />
	</node>
	<node id="-208497" lat="59.5614138869" lon="9.98400277784">
		<tag k="historic" v="shieling" />
		<tag k="name" v="Vikesetra" />
		<tag k="place" v="locality" />
		<tag k="ssr:stedsnr" v="392502" />
	</node>
	<node id="-207464" lat="59.5581777766" lon="10.142408327">
		<tag k="name" v="Purkemyra" />
		<tag k="place" v="locality" />
		<tag k="ssr:stedsnr" v="513702" />
	</node>
	<node id="-207465" lat="59.5410916682" lon="10.1571138881">
		<tag k="name" v="Auerudmyra" />
		<tag k="place" v="locality" />
		<tag k="ssr:stedsnr" v="877785" />
	</node>
	<node id="-207976" lat="59.5633472189" lon="10.0126722211">
		<tag k="name" v="Stulemyr" />
		<tag k="natural" v="wetland" />
		<tag k="ssr:stedsnr" v="695325" />
	</node>
	<node id="-207972" lat="59.5105916662" lon="10.1513972304">
		<tag k="name" v="Herland" />
		<tag k="place" v="locality" />
		<tag k="ssr:stedsnr" v="392373" />
	</node>
	<node id="-208478" lat="59.586249999" lon="9.96017222079">
		<tag k="name" v="Storemyr" />
		<tag k="natural" v="wetland" />
		<tag k="ssr:stedsnr" v="510435" />
	</node>
	<node id="-207452" lat="59.5629027782" lon="10.1745888847">
		<tag k="name" v="Dammyr" />
		<tag k="natural" v="wetland" />
		<tag k="ssr:stedsnr" v="570353" />
	</node>
	<node id="-207960" lat="59.5073361108" lon="10.0450777769">
		<tag k="name" v="Åtemyr" />
		<tag k="natural" v="wetland" />
		<tag k="ssr:stedsnr" v="816036" />
	</node>
	<node id="-207372" lat="59.4798916624" lon="10.2212583351">
		<tag k="alt_name" v="Langemyr" />
		<tag k="name" v="Langmyr" />
		<tag k="natural" v="wetland" />
		<tag k="ssr:stedsnr" v="791012" />
	</node>
	<node id="-207939" lat="59.4933027784" lon="10.1468555485">
		<tag k="name" v="Fuglemyr" />
		<tag k="natural" v="wetland" />
		<tag k="ssr:stedsnr" v="452488" />
	</node>
	<node id="-208449" lat="59.5555194469" lon="9.98713056023">
		<tag k="name" v="Gavlemyr" />
		<tag k="natural" v="wetland" />
		<tag k="ssr:stedsnr" v="817454" />
	</node>
	<node id="-207929" lat="59.6574999966" lon="10.0160611095">
		<tag k="name" v="Gampemyr" />
		<tag k="natural" v="wetland" />
		<tag k="ssr:stedsnr" v="817306" />
	</node>
	<node id="-207926" lat="59.545350002" lon="9.99517778183">
		<tag k="name" v="Voldsmyr" />
		<tag k="natural" v="wetland" />
		<tag k="ssr:stedsnr" v="453532" />
	</node>
	<node id="-207966" lat="59.5641694465" lon="10.0166583263">
		<tag k="name" v="Gullmyr" />
		<tag k="natural" v="wetland" />
		<tag k="ssr:stedsnr" v="210338" />
	</node>
	<node id="-207916" lat="59.5942000019" lon="9.97492500189">
		<tag k="name" v="Dammyr" />
		<tag k="natural" v="wetland" />
		<tag k="ssr:stedsnr" v="453307" />
	</node>
	<node id="-207913" lat="59.4914722216" lon="10.1261749915">
		<tag k="name" v="Breimyr" />
		<tag k="natural" v="wetland" />
		<tag k="ssr:stedsnr" v="548009" />
	</node>
	<node id="-208423" lat="59.558899997" lon="9.97478888997">
		<tag k="name" v="Stubbemyr" />
		<tag k="natural" v="wetland" />
		<tag k="ssr:stedsnr" v="938471" />
	</node>
	<node id="-208422" lat="59.5004444483" lon="10.1353000057">
		<tag k="name" v="Langmyr" />
		<tag k="natural" v="wetland" />
		<tag k="ssr:stedsnr" v="695049" />
	</node>
	<node id="-207397" lat="59.4936972238" lon="10.2395222234">
		<tag k="name" v="Tangen" />
		<tag k="place" v="locality" />
		<tag k="ssr:stedsnr" v="573556" />
	</node>
	<node id="-208418" lat="59.4993694433" lon="10.1389111143">
		<tag k="name" v="Størmyr" />
		<tag k="natural" v="wetland" />
		<tag k="ssr:stedsnr" v="938472" />
	</node>
	<node id="-207392" lat="59.4804694441" lon="10.2571277726">
		<tag k="name" v="Løvald-teigen" />
		<tag k="place" v="locality" />
		<tag k="ssr:stedsnr" v="88651" />
	</node>
	<node id="-208066" lat="59.514555553" lon="10.1310500075">
		<tag k="name" v="Lørdal N." />
		<tag k="place" v="locality" />
		<tag k="ssr:stedsnr" v="210364" />
	</node>
	<node id="-207384" lat="59.5269416639" lon="10.2274583391">
		<tag k="name" v="Stokkemyr" />
		<tag k="natural" v="wetland" />
		<tag k="ssr:stedsnr" v="695541" />
	</node>
	<node id="-208405" lat="59.4687472237" lon="10.0802694413">
		<tag k="name" v="Plasseskogen" />
		<tag k="place" v="locality" />
		<tag k="ssr:stedsnr" v="573489" />
	</node>
	<node id="-207377" lat="59.4918555575" lon="10.2368249992">
		<tag k="name" v="Goddokk-myra" />
		<tag k="natural" v="wetland" />
		<tag k="ssr:stedsnr" v="755592" />
	</node>
	<node id="-207448" lat="59.5638861074" lon="10.1536166657">
		<tag k="historic" v="shieling" />
		<tag k="name" v="Eplerudsetra" />
		<tag k="place" v="locality" />
		<tag k="ssr:stedsnr" v="574606" />
	</node>
	<node id="-207886" lat="59.5216555567" lon="10.0260666712">
		<tag k="name" v="Kjøytemyr" />
		<tag k="natural" v="wetland" />
		<tag k="ssr:stedsnr" v="874458" />
	</node>
	<node id="-208396" lat="59.5013222263" lon="10.1308694487">
		<tag k="name" v="Bjørkemyr" />
		<tag k="natural" v="wetland" />
		<tag k="ssr:stedsnr" v="148051" />
	</node>
	<node id="-207882" lat="59.5580277798" lon="10.0175138871">
		<tag k="historic" v="shieling" />
		<tag k="name" v="Prestesetra" />
		<tag k="place" v="locality" />
		<tag k="ssr:stedsnr" v="331323" />
	</node>
	<node id="-208393" lat="59.5625777796" lon="10.0472138858">
		<tag k="name" v="Oremyr" />
		<tag k="natural" v="wetland" />
		<tag k="ssr:stedsnr" v="392703" />
	</node>
	<node id="-208392" lat="59.6368861139" lon="10.0179666653">
		<tag k="name" v="Bjørnestillingsmyr" />
		<tag k="natural" v="wetland" />
		<tag k="ssr:stedsnr" v="332270" />
	</node>
</osm>
