<?xml version="1.0" encoding="UTF-8"?>
<osm generator="osmapis" version="0.6">
	<node id="-208658" lat="59.5440908995" lon="10.0801116495">
		<tag k="loc_name" v="Bjørkelund" />
		<tag k="name" v="Bjørgelund" />
		<tag k="place" v="farm" />
		<tag k="ssr:stedsnr" v="981593" />
	</node>
	<node id="-208651" lat="59.5495777807" lon="10.0971111175">
		<tag k="name" v="Haugen" />
		<tag k="place" v="isolated_dwelling" />
		<tag k="ssr:stedsnr" v="938275" />
	</node>
	<node id="-208644" lat="59.6326250005" lon="9.99401667056">
		<tag k="name" v="Torrud" />
		<tag k="place" v="farm" />
		<tag k="ssr:stedsnr" v="574350" />
	</node>
	<node id="-208640" lat="59.4661305538" lon="10.0838388831">
		<tag k="name" v="Borebenken" />
		<tag k="place" v="isolated_dwelling" />
		<tag k="ssr:stedsnr" v="755526" />
	</node>
	<node id="-208635" lat="59.5777694445" lon="10.0584916621">
		<tag k="name" v="Stubben" />
		<tag k="place" v="farm" />
		<tag k="ssr:stedsnr" v="28338" />
	</node>
	<node id="-208634" lat="59.6005000025" lon="10.0252472227">
		<tag k="name" v="Heia" />
		<tag k="place" v="isolated_dwelling" />
		<tag k="ssr:stedsnr" v="939302" />
	</node>
	<node id="-208633" lat="59.5420083354" lon="10.0081277867">
		<tag k="name" v="Fossnessetra" />
		<tag k="place" v="isolated_dwelling" />
		<tag k="ssr:stedsnr" v="185899" />
	</node>
	<node id="-208626" lat="59.5352944439" lon="10.1063305612">
		<tag k="name" v="Haugestad" />
		<tag k="place" v="farm" />
		<tag k="ssr:stedsnr" v="271428" />
	</node>
	<node id="-208625" lat="59.5378861068" lon="10.0902000087">
		<tag k="name" v="Haugantoppen" />
		<tag k="place" v="quarter" />
		<tag k="ssr:stedsnr" v="938269" />
	</node>
	<node id="-208624" lat="59.4799027816" lon="10.0951083363">
		<tag k="name" v="Tretteholmen" />
		<tag k="place" v="farm" />
		<tag k="ssr:stedsnr" v="331501" />
	</node>
	<node id="-208623" lat="59.5194249975" lon="10.1154527725">
		<tag k="alt_name" v="Mellom-Sundby" />
		<tag k="name" v="Sundby" />
		<tag k="place" v="farm" />
		<tag k="ssr:stedsnr" v="792881" />
	</node>
	<node id="-208622" lat="59.5622277748" lon="9.95423888549">
		<tag k="name" v="Bamle" />
		<tag k="place" v="isolated_dwelling" />
		<tag k="ssr:stedsnr" v="817461" />
	</node>
	<node id="-208621" lat="59.5006305518" lon="10.1546638868">
		<tag k="name" v="Gjeldstadrønningen" />
		<tag k="place" v="farm" />
		<tag k="ssr:stedsnr" v="633616" />
	</node>
	<node id="-208619" lat="59.5359277788" lon="10.0074805499">
		<tag k="historic" v="shieling" />
		<tag k="name" v="S.Sundbyseterstulen" />
		<tag k="place" v="locality" />
		<tag k="ssr:stedsnr" v="331499" />
	</node>
	<node id="-208610" lat="59.5614555527" lon="10.0684333378">
		<tag k="name" v="Bergastua" />
		<tag k="place" v="isolated_dwelling" />
		<tag k="ssr:stedsnr" v="210692" />
	</node>
	<node id="-208608" lat="59.6448916654" lon="9.98830277699">
		<tag k="name" v="Engerud" />
		<tag k="place" v="isolated_dwelling" />
		<tag k="ssr:stedsnr" v="852177" />
	</node>
	<node id="-208604" lat="59.5682277788" lon="10.1142361031">
		<tag k="name" v="Herstad" />
		<tag k="place" v="farm" />
		<tag k="ssr:stedsnr" v="306069" />
	</node>
	<node id="-208599" lat="59.5649361142" lon="10.0753388975">
		<tag k="name" v="Lia" />
		<tag k="place" v="farm" />
		<tag k="ssr:stedsnr" v="210694" />
	</node>
	<node id="-208597" lat="59.5183861112" lon="10.1190777758">
		<tag k="name" v="Sundby S." />
		<tag k="place" v="farm" />
		<tag k="ssr:stedsnr" v="877367" />
	</node>
	<node id="-208595" lat="59.5967611139" lon="10.069480553">
		<tag k="name" v="Berg mellom" />
		<tag k="place" v="isolated_dwelling" />
		<tag k="ssr:stedsnr" v="938707" />
	</node>
	<node id="-208590" lat="59.4743805515" lon="10.1064194387">
		<tag k="name" v="Ønnemørk" />
		<tag k="place" v="farm" />
		<tag k="ssr:stedsnr" v="427028" />
	</node>
	<node id="-208589" lat="59.5781999988" lon="10.0385222231">
		<tag k="name" v="Holt" />
		<tag k="place" v="farm" />
		<tag k="ssr:stedsnr" v="185021" />
	</node>
	<node id="-208585" lat="59.5139444438" lon="10.1308083378">
		<tag k="name" v="Sundbyfoss" />
		<tag k="place" v="farm" />
		<tag k="ssr:stedsnr" v="488981" />
	</node>
	<node id="-208582" lat="59.5085666634" lon="10.1436666694">
		<tag k="name" v="Haugtuft" />
		<tag k="place" v="farm" />
		<tag k="ssr:stedsnr" v="63973" />
	</node>
	<node id="-208581" lat="59.5703166651" lon="9.95364999729">
		<tag k="name" v="Grønntjernstua" />
		<tag k="place" v="isolated_dwelling" />
		<tag k="ssr:stedsnr" v="513501" />
	</node>
	<node id="-208579" lat="59.5187861127" lon="10.0914388867">
		<tag k="name" v="Rønneberg øvre" />
		<tag k="place" v="farm" />
		<tag k="ssr:stedsnr" v="756360" />
	</node>
	<node id="-208574" lat="59.5550555579" lon="10.0980833415">
		<tag k="name" v="Kopstad" />
		<tag k="place" v="isolated_dwelling" />
		<tag k="ssr:stedsnr" v="609921" />
	</node>
	<node id="-208569" lat="59.5061472223" lon="10.1516694363">
		<tag k="name" v="Herland" />
		<tag k="place" v="farm" />
		<tag k="ssr:stedsnr" v="27056" />
	</node>
	<node id="-208564" lat="59.5530138891" lon="9.98327499134">
		<tag k="name" v="Gullistua" />
		<tag k="place" v="isolated_dwelling" />
		<tag k="ssr:stedsnr" v="609030" />
	</node>
	<node id="-208557" lat="59.4527888931" lon="10.0922805629">
		<tag k="name" v="Engebråten" />
		<tag k="place" v="farm" />
		<tag k="ssr:stedsnr" v="512098" />
	</node>
	<node id="-208556" lat="59.4787194414" lon="10.0835777725">
		<tag k="name" v="Gran vestre" />
		<tag k="place" v="farm" />
		<tag k="ssr:stedsnr" v="391482" />
	</node>
	<node id="-208552" lat="59.5472249974" lon="10.1388472263">
		<tag k="name" v="Dalen" />
		<tag k="place" v="isolated_dwelling" />
		<tag k="ssr:stedsnr" v="695283" />
	</node>
	<node id="-208550" lat="59.5369916693" lon="10.018675003">
		<tag k="name" v="Sundbysetra" />
		<tag k="place" v="isolated_dwelling" />
		<tag k="ssr:stedsnr" v="609923" />
	</node>
	<node id="-208545" lat="59.4815583366" lon="10.0679277747">
		<tag k="name" v="Mellomgranseter" />
		<tag k="place" v="isolated_dwelling" />
		<tag k="ssr:stedsnr" v="391491" />
	</node>
	<node id="-208543" lat="59.5210444446" lon="10.1020750061">
		<tag k="name" v="Fogstad S." />
		<tag k="place" v="farm" />
		<tag k="ssr:stedsnr" v="756352" />
	</node>
	<node id="-208540" lat="59.5644499984" lon="9.99778332995">
		<tag k="name" v="Stokkestua" />
		<tag k="place" v="isolated_dwelling" />
		<tag k="ssr:stedsnr" v="428051" />
	</node>
	<node id="-208539" lat="59.5077500026" lon="10.1553333322">
		<tag k="alt_name" v="Herland" />
		<tag k="name" v="Hærland" />
		<tag k="place" v="farm" />
		<tag k="ssr:stedsnr" v="731979" />
	</node>
	<node id="-208537" lat="59.5425000033" lon="10.085966666">
		<tag k="name" v="Hjelmseth" />
		<tag k="place" v="farm" />
		<tag k="ssr:stedsnr" v="938284" />
	</node>
	<node id="-208536" lat="59.5856250004" lon="9.98892221972">
		<tag k="name" v="Markenrudsetra" />
		<tag k="place" v="locality" />
		<tag k="ssr:stedsnr" v="185018" />
	</node>
	<node id="-208535" lat="59.538255559" lon="10.023483333">
		<tag k="alt_name" v="Gurriksetra" />
		<tag k="name" v="Gurrikstua" />
		<tag k="place" v="isolated_dwelling" />
		<tag k="ssr:stedsnr" v="306931" />
	</node>
	<node id="-208530" lat="59.5564361143" lon="10.0673305567">
		<tag k="name" v="Nordby" />
		<tag k="place" v="farm" />
		<tag k="ssr:stedsnr" v="124032" />
	</node>
	<node id="-208528" lat="59.5769055596" lon="10.0891416595">
		<tag k="name" v="Ekeberg" />
		<tag k="place" v="isolated_dwelling" />
		<tag k="ssr:stedsnr" v="271409" />
	</node>
	<node id="-208527" lat="59.6277138872" lon="10.0320694375">
		<tag k="name" v="Fjelltuen" />
		<tag k="place" v="isolated_dwelling" />
		<tag k="ssr:stedsnr" v="696307" />
	</node>
	<node id="-208526" lat="59.5255388909" lon="10.0950500052">
		<tag k="name" v="Voll" />
		<tag k="place" v="farm" />
		<tag k="ssr:stedsnr" v="670873" />
	</node>
	<node id="-208525" lat="59.6329138858" lon="10.0372472201">
		<tag k="name" v="Håkonshallen" />
		<tag k="place" v="isolated_dwelling" />
		<tag k="ssr:stedsnr" v="573313" />
	</node>
	<node id="-208522" lat="59.5225527788" lon="10.0983249936">
		<tag k="alt_name" v="Fogstad N." />
		<tag k="name" v="Fogstad" />
		<tag k="place" v="farm" />
		<tag k="ssr:stedsnr" v="185884" />
	</node>
	<node id="-208521" lat="59.502877782" lon="10.1492333326">
		<tag k="name" v="Gjelstad" />
		<tag k="place" v="farm" />
		<tag k="ssr:stedsnr" v="549985" />
	</node>
	<node id="-208517" lat="59.5799805547" lon="10.072761106">
		<tag k="name" v="Rød" />
		<tag k="place" v="farm" />
		<tag k="ssr:stedsnr" v="149350" />
	</node>
	<node id="-208515" lat="59.510202779" lon="10.0439277865">
		<tag k="name" v="Haslestadstua" />
		<tag k="place" v="isolated_dwelling" />
		<tag k="ssr:stedsnr" v="877379" />
	</node>
	<node id="-208514" lat="59.5864361145" lon="10.0322361113">
		<tag k="name" v="Kullstua" />
		<tag k="place" v="isolated_dwelling" />
		<tag k="ssr:stedsnr" v="331469" />
	</node>
	<node id="-208510" lat="59.5894555552" lon="10.119547225">
		<tag k="historic" v="shieling" />
		<tag k="name" v="Hafsrud-seter" />
		<tag k="place" v="locality" />
		<tag k="ssr:stedsnr" v="271390" />
	</node>
	<node id="-208508" lat="59.500163888" lon="10.0680972283">
		<tag k="name" v="Leikås" />
		<tag k="place" v="farm" />
		<tag k="ssr:stedsnr" v="391044" />
	</node>
	<node id="-208507" lat="59.5974722183" lon="10.0200722238">
		<tag k="name" v="Hammeren" />
		<tag k="place" v="farm" />
		<tag k="ssr:stedsnr" v="332281" />
	</node>
	<node id="-208505" lat="59.5310805566" lon="10.0061861181">
		<tag k="name" v="Blåkollstua" />
		<tag k="place" v="isolated_dwelling" />
		<tag k="ssr:stedsnr" v="185876" />
	</node>
	<node id="-208502" lat="59.5320222202" lon="10.0934277789">
		<tag k="name" v="Kolstad søndre" />
		<tag k="place" v="farm" />
		<tag k="ssr:stedsnr" v="392294" />
	</node>
	<node id="-208500" lat="59.5674944474" lon="10.0620277732">
		<tag k="name" v="Magnor" />
		<tag k="place" v="farm" />
		<tag k="ssr:stedsnr" v="695657" />
	</node>
	<node id="-208498" lat="59.4905972253" lon="10.0812000072">
		<tag k="name" v="Solberg" />
		<tag k="place" v="farm" />
		<tag k="ssr:stedsnr" v="330066" />
	</node>
	<node id="-208496" lat="59.5936388902" lon="9.99656111207">
		<tag k="name" v="Markenrudplassen" />
		<tag k="place" v="isolated_dwelling" />
		<tag k="ssr:stedsnr" v="89329" />
	</node>
	<node id="-208495" lat="59.462116668" lon="10.0893999998">
		<tag k="name" v="Åkerholt nedre" />
		<tag k="place" v="farm" />
		<tag k="ssr:stedsnr" v="573091" />
	</node>
	<node id="-208494" lat="59.5833277766" lon="10.0269416631">
		<tag k="name" v="Holterønningen" />
		<tag k="place" v="farm" />
		<tag k="ssr:stedsnr" v="185016" />
	</node>
	<node id="-208493" lat="59.5814111084" lon="10.0114499958">
		<tag k="name" v="Sagbråtan" />
		<tag k="place" v="isolated_dwelling" />
		<tag k="ssr:stedsnr" v="331465" />
	</node>
	<node id="-208491" lat="59.497966667" lon="10.0790944429">
		<tag k="name" v="Hostvedt øvre" />
		<tag k="place" v="farm" />
		<tag k="ssr:stedsnr" v="330065" />
	</node>
	<node id="-208488" lat="59.5731416645" lon="10.0633638945">
		<tag k="name" v="Stubben" />
		<tag k="place" v="isolated_dwelling" />
		<tag k="ssr:stedsnr" v="246061" />
	</node>
	<node id="-208487" lat="59.4537777739" lon="10.086849992">
		<tag k="name" v="Moholt" />
		<tag k="place" v="farm" />
		<tag k="ssr:stedsnr" v="670119" />
	</node>
	<node id="-208485" lat="59.5627111117" lon="10.0622416688">
		<tag k="name" v="Rustan" />
		<tag k="place" v="farm" />
		<tag k="ssr:stedsnr" v="306055" />
	</node>
	<node id="-208479" lat="59.5113861085" lon="10.0938083418">
		<tag k="name" v="Dokka" />
		<tag k="place" v="isolated_dwelling" />
		<tag k="ssr:stedsnr" v="548967" />
	</node>
	<node id="-208477" lat="59.531430558" lon="10.0782472311">
		<tag k="name" v="Veset" />
		<tag k="place" v="farm" />
		<tag k="ssr:stedsnr" v="792861" />
	</node>
	<node id="-208472" lat="59.6031166696" lon="10.037375008">
		<tag k="name" v="Bollerud" />
		<tag k="place" v="isolated_dwelling" />
		<tag k="ssr:stedsnr" v="332286" />
	</node>
	<node id="-208471" lat="59.5481250007" lon="10.1264583395">
		<tag k="name" v="Ravnås" />
		<tag k="place" v="farm" />
		<tag k="ssr:stedsnr" v="392296" />
	</node>
	<node id="-208462" lat="59.5135888912" lon="10.0856444467">
		<tag k="building" v="industrial" />
		<tag k="industrial" v="factory" />
		<tag k="name" v="Haslestad bruk" />
		<tag k="ssr:stedsnr" v="3987" />
	</node>
	<node id="-208461" lat="59.6310944481" lon="10.0415666627">
		<tag k="historic" v="shieling" />
		<tag k="name" v="Rønnebergseter" />
		<tag k="place" v="locality" />
		<tag k="ssr:stedsnr" v="756727" />
	</node>
	<node id="-208460" lat="59.5672888873" lon="10.0815500044">
		<tag k="alt_name" v="Myhren" />
		<tag k="name" v="Myra" />
		<tag k="place" v="farm" />
		<tag k="ssr:stedsnr" v="306051" />
	</node>
	<node id="-208455" lat="59.4653666657" lon="10.0755055584">
		<tag k="alt_name" v="Damengen" />
		<tag k="name" v="Damenga" />
		<tag k="place" v="farm" />
		<tag k="ssr:stedsnr" v="548099" />
	</node>
	<node id="-208452" lat="59.4808888934" lon="10.1009083378">
		<tag k="name" v="Buen" />
		<tag k="place" v="farm" />
		<tag k="ssr:stedsnr" v="852023" />
	</node>
	<node id="-208450" lat="59.5252777796" lon="10.0630750043">
		<tag k="name" v="Hedde" />
		<tag k="place" v="farm" />
		<tag k="ssr:stedsnr" v="185869" />
	</node>
	<node id="-208445" lat="59.6072277734" lon="10.0256861129">
		<tag k="name" v="Hovet" />
		<tag k="place" v="farm" />
		<tag k="ssr:stedsnr" v="488110" />
	</node>
	<node id="-208444" lat="59.5860083345" lon="10.1213249959">
		<tag k="historic" v="shieling" />
		<tag k="name" v="Romneseter" />
		<tag k="place" v="locality" />
		<tag k="ssr:stedsnr" v="149328" />
	</node>
	<node id="-208438" lat="59.5485027789" lon="10.0311750057">
		<tag k="name" v="Nedre Lindsetseter" />
		<tag k="place" v="isolated_dwelling" />
		<tag k="ssr:stedsnr" v="306909" />
	</node>
	<node id="-208437" lat="59.5820277768" lon="10.022350002">
		<tag k="name" v="Jerpelia" />
		<tag k="place" v="isolated_dwelling" />
		<tag k="ssr:stedsnr" v="609011" />
	</node>
	<node id="-208435" lat="59.4702249982" lon="10.1118055497">
		<tag k="name" v="Auenstua" />
		<tag k="place" v="isolated_dwelling" />
		<tag k="ssr:stedsnr" v="755514" />
	</node>
	<node id="-208429" lat="59.4628499968" lon="10.0936500022">
		<tag k="name" v="Fiskehytta" />
		<tag k="place" v="isolated_dwelling" />
		<tag k="ssr:stedsnr" v="573079" />
	</node>
	<node id="-208420" lat="59.5365861144" lon="10.0650777765">
		<tag k="name" v="Lindset V" />
		<tag k="place" v="farm" />
		<tag k="ssr:stedsnr" v="392287" />
	</node>
	<node id="-208419" lat="59.4977388866" lon="10.1508166723">
		<tag k="name" v="Gommerud" />
		<tag k="place" v="locality" />
		<tag k="ssr:stedsnr" v="331464" />
	</node>
	<node id="-208417" lat="59.5443944473" lon="10.0933972269">
		<tag k="name" v="Lønnvik" />
		<tag k="place" v="farm" />
		<tag k="ssr:stedsnr" v="574318" />
	</node>
	<node id="-208414" lat="59.5258861102" lon="10.026977771">
		<tag k="historic" v="shieling" />
		<tag k="name" v="Åkerholtsetra" />
		<tag k="place" v="locality" />
		<tag k="ssr:stedsnr" v="267396" />
	</node>
	<node id="-208413" lat="59.5992499967" lon="9.98086944831">
		<tag k="name" v="Sjulerud" />
		<tag k="place" v="farm" />
		<tag k="ssr:stedsnr" v="64090" />
	</node>
	<node id="-208411" lat="59.5575555585" lon="10.0107472185">
		<tag k="name" v="Øvre Lindsetseter" />
		<tag k="place" v="isolated_dwelling" />
		<tag k="ssr:stedsnr" v="428037" />
	</node>
	<node id="-208408" lat="59.5343277814" lon="10.1213749951">
		<tag k="alt_name" v="Kammelrød S." />
		<tag k="name" v="Kammelrød" />
		<tag k="place" v="farm" />
		<tag k="ssr:stedsnr" v="124874" />
	</node>
	<node id="-208401" lat="59.5914305517" lon="10.0095111078">
		<tag k="name" v="Markenrud" />
		<tag k="place" v="farm" />
		<tag k="ssr:stedsnr" v="428033" />
	</node>
	<node id="-208400" lat="59.5577555571" lon="10.0731444496">
		<tag k="name" v="Breiset" />
		<tag k="place" v="farm" />
		<tag k="ssr:stedsnr" v="852908" />
	</node>
	<node id="-208397" lat="59.6442583295" lon="10.0225111159">
		<tag k="name" v="Torrudsetra" />
		<tag k="place" v="isolated_dwelling" />
		<tag k="ssr:stedsnr" v="367144" />
	</node>
	<node id="-208395" lat="59.5497611108" lon="10.0939500036">
		<tag k="name" v="Leirkvam" />
		<tag k="place" v="farm" />
		<tag k="ssr:stedsnr" v="332273" />
	</node>
	<node id="-208391" lat="59.6039249976" lon="10.0426638931">
		<tag k="alt_name" v="Gastholtet" />
		<tag k="name" v="Gasteholtet" />
		<tag k="place" v="isolated_dwelling" />
		<tag k="ssr:stedsnr" v="64087" />
	</node>
	<node id="-208389" lat="59.5535833304" lon="10.0677166645">
		<tag k="name" v="Stokke" />
		<tag k="place" v="farm" />
		<tag k="ssr:stedsnr" v="428034" />
	</node>
	<node id="-208384" lat="59.565299999" lon="10.0622027778">
		<tag k="name" v="Vestheim" />
		<tag k="place" v="farm" />
		<tag k="ssr:stedsnr" v="392704" />
	</node>
	<node id="-208382" lat="59.554497224" lon="10.0754388812">
		<tag k="name" v="Breiset S" />
		<tag k="place" v="farm" />
		<tag k="ssr:stedsnr" v="938651" />
	</node>
	<node id="-208381" lat="59.491436112" lon="10.0727361134">
		<tag k="name" v="Nauf" />
		<tag k="place" v="farm" />
		<tag k="ssr:stedsnr" v="791002" />
	</node>
	<node id="-208379" lat="59.5227916688" lon="10.1081750009">
		<tag k="name" v="Haneval" />
		<tag k="place" v="farm" />
		<tag k="ssr:stedsnr" v="609895" />
	</node>
	<node id="-208377" lat="59.4629277806" lon="10.0879916585">
		<tag k="name" v="Åkerholt" />
		<tag k="place" v="farm" />
		<tag k="ssr:stedsnr" v="488102" />
	</node>
	<node id="-208373" lat="59.4624361133" lon="10.1049000047">
		<tag k="alt_name" v="Berg øvre" />
		<tag k="name" v="Berg" />
		<tag k="place" v="farm" />
		<tag k="ssr:stedsnr" v="488101" />
	</node>
	<node id="-208370" lat="59.5466916651" lon="10.0692694509">
		<tag k="name" v="Nyhus" />
		<tag k="place" v="farm" />
		<tag k="ssr:stedsnr" v="731931" />
	</node>
	<node id="-208369" lat="59.5647888915" lon="10.0653138935">
		<tag k="name" v="Bjørkelund" />
		<tag k="place" v="isolated_dwelling" />
		<tag k="ssr:stedsnr" v="938655" />
	</node>
	<node id="-208367" lat="59.5555777762" lon="10.0572138963">
		<tag k="name" v="Vendskau" />
		<tag k="place" v="farm" />
		<tag k="ssr:stedsnr" v="513681" />
	</node>
	<node id="-208365" lat="59.637199998" lon="9.99382222543">
		<tag k="name" v="Tinnerud" />
		<tag k="place" v="isolated_dwelling" />
		<tag k="ssr:stedsnr" v="930973" />
	</node>
	<node id="-208362" lat="59.5348305523" lon="10.1120555488">
		<tag k="name" v="Haugestad" />
		<tag k="place" v="farm" />
		<tag k="ssr:stedsnr" v="124871" />
	</node>
	<node id="-208361" lat="59.5800805534" lon="10.095327781">
		<tag k="alt_name" v="Rivelsrud" />
		<tag k="name" v="Ruelsrud" />
		<tag k="place" v="farm" />
		<tag k="ssr:stedsnr" v="124008" />
	</node>
	<node id="-208349" lat="59.5181239876" lon="10.0649583029">
		<tag k="alt_name" v="Lian, vestre" />
		<tag k="name" v="Vestre Lian" />
		<tag k="place" v="farm" />
		<tag k="ssr:stedsnr" v="246880" />
	</node>
	<node id="-208343" lat="59.4895388914" lon="10.1008555478">
		<tag k="name" v="Eikenes" />
		<tag k="place" v="farm" />
		<tag k="ssr:stedsnr" v="366017" />
	</node>
	<node id="-208341" lat="59.4828805589" lon="10.0613055587">
		<tag k="alt_name" v="Nord-Granseter" />
		<tag k="name" v="Gransetra" />
		<tag k="place" v="isolated_dwelling" />
		<tag k="ssr:stedsnr" v="609006" />
	</node>
	<node id="-208339" lat="59.4727416623" lon="10.1114666636">
		<tag k="name" v="Ønnemørkstua" />
		<tag k="place" v="isolated_dwelling" />
		<tag k="ssr:stedsnr" v="573476" />
	</node>
	<node id="-208338" lat="59.5284999987" lon="10.0761583361">
		<tag k="name" v="Grønset" />
		<tag k="place" v="farm" />
		<tag k="ssr:stedsnr" v="367861" />
	</node>
	<node id="-208337" lat="59.6282499977" lon="9.99949723077">
		<tag k="name" v="Sparkopp" />
		<tag k="place" v="isolated_dwelling" />
		<tag k="ssr:stedsnr" v="81974" />
	</node>
	<node id="-208333" lat="59.5530972184" lon="10.006408335">
		<tag k="name" v="Elvemyrshytta" />
		<tag k="place" v="isolated_dwelling" />
		<tag k="ssr:stedsnr" v="149310" />
	</node>
	<node id="-208327" lat="59.6227166674" lon="10.0039083402">
		<tag k="name" v="Torrud" />
		<tag k="place" v="farm" />
		<tag k="ssr:stedsnr" v="549103" />
	</node>
	<node id="-208325" lat="59.4886527737" lon="10.0843000001">
		<tag k="alt_name" v="Solberg S." />
		<tag k="name" v="Solberg" />
		<tag k="place" v="farm" />
		<tag k="ssr:stedsnr" v="427005" />
	</node>
	<node id="-208317" lat="59.4934916656" lon="10.0903527735">
		<tag k="name" v="Hostvedt nedre" />
		<tag k="place" v="farm" />
		<tag k="ssr:stedsnr" v="512041" />
	</node>
	<node id="-208314" lat="59.4542027773" lon="10.0964194376">
		<tag k="name" v="Åsnes" />
		<tag k="place" v="farm" />
		<tag k="ssr:stedsnr" v="270101" />
	</node>
	<node id="-208310" lat="59.6392805571" lon="9.99190276898">
		<tag k="name" v="Tinnerud" />
		<tag k="place" v="isolated_dwelling" />
		<tag k="ssr:stedsnr" v="756304" />
	</node>
	<node id="-208309" lat="59.5235416693" lon="10.0808555587">
		<tag k="alt_name" v="Grønset" />
		<tag k="name" v="Grønnset" />
		<tag k="place" v="farm" />
		<tag k="ssr:stedsnr" v="64893" />
	</node>
	<node id="-208308" lat="59.6005194488" lon="9.9497999967">
		<tag k="alt_name" v="Sjulerudsetra" />
		<tag k="name" v="Sjulerudseter" />
		<tag k="place" v="locality" />
		<tag k="ssr:stedsnr" v="853447" />
	</node>
	<node id="-208306" lat="59.6022499972" lon="10.0396750019">
		<tag k="alt_name" v="Vassbonn" />
		<tag k="name" v="Vassbotn" />
		<tag k="place" v="isolated_dwelling" />
		<tag k="ssr:stedsnr" v="488094" />
	</node>
	<node id="-208300" lat="59.4531305548" lon="10.089252776">
		<tag k="name" v="Engebråten" />
		<tag k="place" v="farm" />
		<tag k="ssr:stedsnr" v="270096" />
	</node>
	<node id="-208296" lat="59.5362194434" lon="10.0996833275">
		<tag k="name" v="Kolstad" />
		<tag k="place" v="isolated_dwelling" />
		<tag k="ssr:stedsnr" v="89291" />
	</node>
	<node id="-208286" lat="59.4919555518" lon="10.0696750049">
		<tag k="name" v="Nauf N." />
		<tag k="place" v="farm" />
		<tag k="ssr:stedsnr" v="755050" />
	</node>
	<node id="-208281" lat="59.5993722266" lon="10.0202611137">
		<tag k="name" v="Orevika" />
		<tag k="place" v="hamlet" />
		<tag k="ssr:stedsnr" v="488096" />
	</node>
	<node id="-208280" lat="59.4834305544" lon="10.0861083411">
		<tag k="alt_name" v="Gran Nordre" />
		<tag k="name" v="Gran" />
		<tag k="place" v="farm" />
		<tag k="ssr:stedsnr" v="791005" />
	</node>
	<node id="-208271" lat="59.5552416702" lon="10.1143249944">
		<tag k="name" v="Kjennerud S." />
		<tag k="place" v="farm" />
		<tag k="ssr:stedsnr" v="574708" />
	</node>
	<node id="-208270" lat="59.5753861135" lon="9.95122222836">
		<tag k="name" v="Øksnestua" />
		<tag k="place" v="isolated_dwelling" />
		<tag k="ssr:stedsnr" v="328422" />
	</node>
	<node id="-208266" lat="59.6264749961" lon="10.034427772">
		<tag k="name" v="Hesthammarsetra" />
		<tag k="place" v="isolated_dwelling" />
		<tag k="ssr:stedsnr" v="3083" />
	</node>
	<node id="-208264" lat="59.5678055573" lon="10.0020777815">
		<tag k="name" v="Bukkemyr" />
		<tag k="place" v="locality" />
		<tag k="ssr:stedsnr" v="731043" />
	</node>
	<node id="-208262" lat="59.5243777764" lon="10.0612027811">
		<tag k="name" v="Gurrikstua" />
		<tag k="place" v="isolated_dwelling" />
		<tag k="ssr:stedsnr" v="695405" />
	</node>
	<node id="-208259" lat="59.540874997" lon="10.0768472146">
		<tag k="name" v="Lillehof" />
		<tag k="place" v="farm" />
		<tag k="ssr:stedsnr" v="609875" />
	</node>
	<node id="-208257" lat="59.5826277789" lon="10.0332944478">
		<tag k="name" v="Skarpsno" />
		<tag k="place" v="isolated_dwelling" />
		<tag k="ssr:stedsnr" v="756478" />
	</node>
	<node id="-208253" lat="59.5484000012" lon="10.0767083339">
		<tag k="name" v="Fjell" />
		<tag k="place" v="farm" />
		<tag k="ssr:stedsnr" v="271337" />
	</node>
	<node id="-208252" lat="59.5004777792" lon="10.075575">
		<tag k="name" v="Kleppan" />
		<tag k="place" v="farm" />
		<tag k="ssr:stedsnr" v="367985" />
	</node>
	<node id="-208248" lat="59.4662499981" lon="10.0795583399">
		<tag k="name" v="Plassen" />
		<tag k="place" v="farm" />
		<tag k="ssr:stedsnr" v="123117" />
	</node>
	<node id="-208246" lat="59.5458527756" lon="10.1026916739">
		<tag k="name" v="Sundhaug" />
		<tag k="place" v="farm" />
		<tag k="ssr:stedsnr" v="817392" />
	</node>
	<node id="-208245" lat="59.5338388854" lon="10.0883638839">
		<tag k="name" v="Kolstad" />
		<tag k="place" v="farm" />
		<tag k="ssr:stedsnr" v="756262" />
	</node>
	<node id="-208244" lat="59.5827916687" lon="10.0421416728">
		<tag k="name" v="Askim" />
		<tag k="place" v="isolated_dwelling" />
		<tag k="ssr:stedsnr" v="306012" />
	</node>
	<node id="-208243" lat="59.5685305537" lon="9.96603055934">
		<tag k="name" v="Dovrehallen" />
		<tag k="place" v="isolated_dwelling" />
		<tag k="ssr:stedsnr" v="573447" />
	</node>
	<node id="-208241" lat="59.5532222197" lon="10.0803388966">
		<tag k="name" v="Havblikk" />
		<tag k="place" v="farm" />
		<tag k="ssr:stedsnr" v="28677" />
	</node>
	<node id="-208234" lat="59.5195805552" lon="10.1382055585">
		<tag k="alt_name" v="Nøtnes N." />
		<tag k="name" v="Nøtnes" />
		<tag k="place" v="farm" />
		<tag k="ssr:stedsnr" v="428976" />
	</node>
	<node id="-208233" lat="59.5655194416" lon="10.07083056">
		<tag k="name" v="Solli" />
		<tag k="place" v="isolated_dwelling" />
		<tag k="ssr:stedsnr" v="574693" />
	</node>
	<node id="-208230" lat="59.5005638926" lon="10.0965138929">
		<tag k="alt_name" v="Grennes N;Grennes N." />
		<tag k="name" v="Grennes" />
		<tag k="place" v="farm" />
		<tag k="ssr:stedsnr" v="428008" />
	</node>
	<node id="-208225" lat="59.4739777796" lon="10.0941000054">
		<tag k="name" v="Lofsberg" />
		<tag k="place" v="farm" />
		<tag k="ssr:stedsnr" v="63033" />
	</node>
	<node id="-208216" lat="59.5390111097" lon="10.0688722281">
		<tag k="name" v="Lindset" />
		<tag k="place" v="farm" />
		<tag k="ssr:stedsnr" v="549920" />
	</node>
	<node id="-208211" lat="59.574902781" lon="10.0089500012">
		<tag k="name" v="Holtesetra" />
		<tag k="place" v="locality" />
		<tag k="ssr:stedsnr" v="731052" />
	</node>
	<node id="-208209" lat="59.6002464895" lon="10.018203501">
		<tag k="alt_name" v="Hesthammar, nedre" />
		<tag k="name" v="Nedre Hesthammar" />
		<tag k="place" v="farm" />
		<tag k="ssr:stedsnr" v="671109" />
	</node>
	<node id="-208208" lat="59.56516944" lon="10.058991666">
		<tag k="name" v="Ås" />
		<tag k="place" v="isolated_dwelling" />
		<tag k="ssr:stedsnr" v="28662" />
	</node>
	<node id="-208201" lat="59.6033916699" lon="9.93378332505">
		<tag k="name" v="Sjulerudstua" />
		<tag k="place" v="isolated_dwelling" />
		<tag k="ssr:stedsnr" v="149266" />
	</node>
	<node id="-208198" lat="59.451830559" lon="10.1018000041">
		<tag k="name" v="Hovland" />
		<tag k="place" v="farm" />
		<tag k="ssr:stedsnr" v="427128" />
	</node>
	<node id="-208192" lat="59.630236112" lon="9.99651111855">
		<tag k="name" v="Torrud" />
		<tag k="place" v="farm" />
		<tag k="ssr:stedsnr" v="878362" />
	</node>
	<node id="-208189" lat="59.5735833344" lon="10.0987694376">
		<tag k="name" v="Hafsrud" />
		<tag k="old_name" v="Herstad" />
		<tag k="place" v="farm" />
		<tag k="ssr:stedsnr" v="549075" />
	</node>
	<node id="-208187" lat="59.5219361099" lon="10.0298000054">
		<tag k="name" v="Kommunestua" />
		<tag k="place" v="isolated_dwelling" />
		<tag k="ssr:stedsnr" v="24430" />
	</node>
	<node id="-208181" lat="59.589733334" lon="9.95965000802">
		<tag k="name" v="Sandbekkstua" />
		<tag k="place" v="isolated_dwelling" />
		<tag k="ssr:stedsnr" v="24425" />
	</node>
	<node id="-208179" lat="59.5660638861" lon="10.0679666655">
		<tag k="name" v="Myrvang" />
		<tag k="place" v="farm" />
		<tag k="ssr:stedsnr" v="89658" />
	</node>
	<node id="-208176" lat="59.5661055535" lon="10.10414722">
		<tag k="alt_name" v="Næss søndre" />
		<tag k="name" v="Nes" />
		<tag k="place" v="farm" />
		<tag k="ssr:stedsnr" v="549057" />
	</node>
	<node id="-208173" lat="59.5380277803" lon="10.0592083377">
		<tag k="name" v="Enga" />
		<tag k="place" v="farm" />
		<tag k="ssr:stedsnr" v="271309" />
	</node>
	<node id="-208170" lat="59.5597055553" lon="10.0767250079">
		<tag k="name" v="Åsen" />
		<tag k="place" v="farm" />
		<tag k="ssr:stedsnr" v="549059" />
	</node>
	<node id="-208169" lat="59.512986114" lon="10.1346611143">
		<tag k="alt_name" v="Lørdal S" />
		<tag k="name" v="Lørdal" />
		<tag k="place" v="farm" />
		<tag k="ssr:stedsnr" v="185975" />
	</node>
	<node id="-208168" lat="59.5519833376" lon="10.0752111047">
		<tag k="alt_name" v="Stua" />
		<tag k="name" v="Stuen" />
		<tag k="old_name" v="Flåtnes" />
		<tag k="place" v="farm" />
		<tag k="ssr:stedsnr" v="877694" />
	</node>
	<node id="-208163" lat="59.5271694417" lon="10.0803722259">
		<tag k="name" v="Grønset" />
		<tag k="place" v="farm" />
		<tag k="ssr:stedsnr" v="695377" />
	</node>
	<node id="-208162" lat="59.5830027807" lon="10.0932111086">
		<tag k="name" v="Hagastua" />
		<tag k="place" v="isolated_dwelling" />
		<tag k="ssr:stedsnr" v="817366" />
	</node>
	<node id="-208160" lat="59.5307861136" lon="10.0987277718">
		<tag k="name" v="Haugestad" />
		<tag k="place" v="farm" />
		<tag k="ssr:stedsnr" v="513414" />
	</node>
	<node id="-208157" lat="59.4543500043" lon="10.1014055608">
		<tag k="name" v="Åsnes" />
		<tag k="place" v="farm" />
		<tag k="ssr:stedsnr" v="609121" />
	</node>
	<node id="-208154" lat="59.5759611135" lon="9.98569723003">
		<tag k="name" v="Gausesetra" />
		<tag k="place" v="isolated_dwelling" />
		<tag k="ssr:stedsnr" v="64047" />
	</node>
	<node id="-208153" lat="59.580211112" lon="10.0431583368">
		<tag k="name" v="Vesterud" />
		<tag k="place" v="farm" />
		<tag k="ssr:stedsnr" v="695371" />
	</node>
	<node id="-208152" lat="59.5750194424" lon="10.0872138909">
		<tag k="name" v="Haugerud" />
		<tag k="place" v="farm" />
		<tag k="ssr:stedsnr" v="246014" />
	</node>
	<node id="-208150" lat="59.5556027775" lon="10.0978916696">
		<tag k="name" v="Sorgenfri" />
		<tag k="place" v="farm" />
		<tag k="ssr:stedsnr" v="634714" />
	</node>
	<node id="-208148" lat="59.5711222202" lon="10.0611277718">
		<tag k="name" v="Tuft" />
		<tag k="place" v="isolated_dwelling" />
		<tag k="ssr:stedsnr" v="877685" />
	</node>
	<node id="-208144" lat="59.5199333294" lon="10.1094555566">
		<tag k="name" v="Sundby N." />
		<tag k="place" v="farm" />
		<tag k="ssr:stedsnr" v="817360" />
	</node>
	<node id="-208143" lat="59.4849555578" lon="10.0908416669">
		<tag k="name" v="Vassås" />
		<tag k="place" v="hamlet" />
		<tag k="ssr:stedsnr" v="26390" />
	</node>
	<node id="-208140" lat="59.5858499973" lon="10.0921972182">
		<tag k="name" v="Brantestua" />
		<tag k="place" v="isolated_dwelling" />
		<tag k="ssr:stedsnr" v="695370" />
	</node>
	<node id="-208138" lat="59.5980138844" lon="10.06175556">
		<tag k="name" v="Heierstad" />
		<tag k="place" v="farm" />
		<tag k="ssr:stedsnr" v="185106" />
	</node>
	<node id="-208136" lat="59.4765194404" lon="10.0683249929">
		<tag k="name" v="Sør-Granseter" />
		<tag k="place" v="isolated_dwelling" />
		<tag k="ssr:stedsnr" v="877476" />
	</node>
	<node id="-208135" lat="59.5713055512" lon="10.0837666675">
		<tag k="alt_name" v="Næss nordre" />
		<tag k="name" v="Nes" />
		<tag k="place" v="farm" />
		<tag k="ssr:stedsnr" v="913060" />
	</node>
	<node id="-208133" lat="59.5365055524" lon="10.1188666712">
		<tag k="name" v="Kammelrød nedre" />
		<tag k="place" v="farm" />
		<tag k="ssr:stedsnr" v="938382" />
	</node>
	<node id="-208129" lat="59.5484166678" lon="10.1156333329">
		<tag k="name" v="Bråten" />
		<tag k="place" v="isolated_dwelling" />
		<tag k="ssr:stedsnr" v="938383" />
	</node>
	<node id="-208127" lat="59.5643305559" lon="10.0669861051">
		<tag k="name" v="Stubberud" />
		<tag k="place" v="farm" />
		<tag k="ssr:stedsnr" v="149662" />
	</node>
	<node id="-208125" lat="59.5731666674" lon="10.059958339">
		<tag k="name" v="Brekke" />
		<tag k="place" v="farm" />
		<tag k="ssr:stedsnr" v="3053" />
	</node>
	<node id="-208124" lat="59.4831972211" lon="10.098230562">
		<tag k="name" v="Fagerheim" />
		<tag k="place" v="farm" />
		<tag k="ssr:stedsnr" v="209523" />
	</node>
	<node id="-208123" lat="59.5961027774" lon="10.0745916747">
		<tag k="alt_name" v="Berg øvre" />
		<tag k="name" v="Berg" />
		<tag k="place" v="farm" />
		<tag k="ssr:stedsnr" v="367090" />
	</node>
	<node id="-208118" lat="59.6031027407" lon="10.0218604173">
		<tag k="alt_name" v="Hesthammar, øvre" />
		<tag k="name" v="Øvre Hesthammar" />
		<tag k="place" v="isolated_dwelling" />
		<tag k="ssr:stedsnr" v="185098" />
	</node>
	<node id="-208115" lat="59.4647416701" lon="10.0865694527">
		<tag k="name" v="Åkerholt øvre" />
		<tag k="place" v="farm" />
		<tag k="ssr:stedsnr" v="209525" />
	</node>
	<node id="-208113" lat="59.6063194459" lon="10.0172111086">
		<tag k="name" v="Hammerborg" />
		<tag k="place" v="farm" />
		<tag k="ssr:stedsnr" v="186115" />
	</node>
	<node id="-208109" lat="59.5793861077" lon="10.0652416585">
		<tag k="name" v="Øya" />
		<tag k="place" v="farm" />
		<tag k="ssr:stedsnr" v="246012" />
	</node>
	<node id="-208107" lat="59.5120833308" lon="10.1241388886">
		<tag k="name" v="Kårby" />
		<tag k="place" v="farm" />
		<tag k="ssr:stedsnr" v="185967" />
	</node>
	<node id="-208087" lat="59.5635249991" lon="10.0676972262">
		<tag k="name" v="Fjellvang" />
		<tag k="place" v="isolated_dwelling" />
		<tag k="ssr:stedsnr" v="271718" />
	</node>
	<node id="-208085" lat="59.544316665" lon="10.0902805511">
		<tag k="name" v="Vike" />
		<tag k="place" v="farm" />
		<tag k="ssr:stedsnr" v="634318" />
	</node>
	<node id="-208078" lat="59.5661527759" lon="10.0647277853">
		<tag k="name" v="Sommerrud" />
		<tag k="place" v="isolated_dwelling" />
		<tag k="ssr:stedsnr" v="271701" />
	</node>
	<node id="-208077" lat="59.5081861104" lon="10.147766675">
		<tag k="name" v="Haugtuft" />
		<tag k="place" v="farm" />
		<tag k="ssr:stedsnr" v="938355" />
	</node>
	<node id="-208076" lat="59.5539055598" lon="10.0911583401">
		<tag k="name" v="Vassengen" />
		<tag k="place" v="farm" />
		<tag k="ssr:stedsnr" v="634692" />
	</node>
	<node id="-208074" lat="59.5668749966" lon="10.0635000009">
		<tag k="name" v="Fredheim" />
		<tag k="place" v="isolated_dwelling" />
		<tag k="ssr:stedsnr" v="271699" />
	</node>
	<node id="-208072" lat="59.5039638868" lon="10.067174997">
		<tag k="name" v="Hulebak" />
		<tag k="place" v="farm" />
		<tag k="ssr:stedsnr" v="791974" />
	</node>
	<node id="-208071" lat="59.4775777751" lon="10.1046749918">
		<tag k="name" v="Ønnemørk N." />
		<tag k="place" v="farm" />
		<tag k="ssr:stedsnr" v="209510" />
	</node>
	<node id="-208070" lat="59.6487611125" lon="10.0183805576">
		<tag k="name" v="Sandsetervollen" />
		<tag k="place" v="isolated_dwelling" />
		<tag k="ssr:stedsnr" v="635305" />
	</node>
	<node id="-208069" lat="59.5450666696" lon="10.0762277715">
		<tag k="name" v="Hovland" />
		<tag k="place" v="farm" />
		<tag k="ssr:stedsnr" v="878305" />
	</node>
	<node id="-208068" lat="59.5271055551" lon="10.092208335">
		<tag k="name" v="Hofslund" />
		<tag k="place" v="farm" />
		<tag k="ssr:stedsnr" v="938359" />
	</node>
	<node id="-208059" lat="59.546766665" lon="10.1296055564">
		<tag k="name" v="Stigen" />
		<tag k="place" v="farm" />
		<tag k="ssr:stedsnr" v="853933" />
	</node>
	<node id="-208058" lat="59.4912583328" lon="10.0721444461">
		<tag k="name" v="Nauf M." />
		<tag k="place" v="farm" />
		<tag k="ssr:stedsnr" v="270028" />
	</node>
	<node id="-208056" lat="59.5689250001" lon="10.0637333361">
		<tag k="name" v="Nordheim" />
		<tag k="place" v="farm" />
		<tag k="ssr:stedsnr" v="149641" />
	</node>
	<node id="-208054" lat="59.500691665" lon="10.0869777787">
		<tag k="name" v="Grinastua" />
		<tag k="place" v="isolated_dwelling" />
		<tag k="ssr:stedsnr" v="816055" />
	</node>
	<node id="-208052" lat="59.5798277767" lon="10.1057305592">
		<tag k="name" v="Røyamyr" />
		<tag k="place" v="isolated_dwelling" />
		<tag k="ssr:stedsnr" v="695344" />
	</node>
	<node id="-208050" lat="59.599174999" lon="10.0514305617">
		<tag k="name" v="Teigen" />
		<tag k="place" v="farm" />
		<tag k="ssr:stedsnr" v="610125" />
	</node>
	<node id="-208046" lat="59.5058138923" lon="10.0779805625">
		<tag k="name" v="Haslestad S." />
		<tag k="place" v="farm" />
		<tag k="ssr:stedsnr" v="270038" />
	</node>
	<node id="-208043" lat="59.485463886" lon="10.0790250071">
		<tag k="name" v="Grette" />
		<tag k="place" v="farm" />
		<tag k="ssr:stedsnr" v="2016" />
	</node>
	<node id="-208041" lat="59.5357944402" lon="10.122480551">
		<tag k="name" v="Kammelrød øvre" />
		<tag k="place" v="farm" />
		<tag k="ssr:stedsnr" v="392405" />
	</node>
	<node id="-208039" lat="59.5642388908" lon="10.085063889">
		<tag k="name" v="Løvås" />
		<tag k="place" v="farm" />
		<tag k="ssr:stedsnr" v="913042" />
	</node>
	<node id="-208031" lat="59.4688000003" lon="10.103305552">
		<tag k="name" v="Auen" />
		<tag k="place" v="farm" />
		<tag k="ssr:stedsnr" v="548027" />
	</node>
	<node id="-208026" lat="59.5822277742" lon="10.098038888">
		<tag k="name" v="Tangen" />
		<tag k="place" v="farm" />
		<tag k="ssr:stedsnr" v="331345" />
	</node>
	<node id="-208018" lat="59.5113027794" lon="10.1421416704">
		<tag k="name" v="Haugtuft" />
		<tag k="place" v="farm" />
		<tag k="ssr:stedsnr" v="817353" />
	</node>
	<node id="-208017" lat="59.5185083321" lon="10.14152223">
		<tag k="name" v="Nøtnes S." />
		<tag k="place" v="farm" />
		<tag k="ssr:stedsnr" v="695362" />
	</node>
	<node id="-208016" lat="59.5790027761" lon="10.0691472247">
		<tag k="name" v="Taje" />
		<tag k="place" v="isolated_dwelling" />
		<tag k="ssr:stedsnr" v="331340" />
	</node>
	<node id="-208015" lat="59.5679444454" lon="10.068561119">
		<tag k="name" v="Åsly" />
		<tag k="place" v="farm" />
		<tag k="ssr:stedsnr" v="877682" />
	</node>
	<node id="-208014" lat="59.55270278" lon="10.0764499964">
		<tag k="name" v="Stuabrua" />
		<tag k="place" v="isolated_dwelling" />
		<tag k="ssr:stedsnr" v="913919" />
	</node>
	<node id="-208006" lat="59.5286499982" lon="10.082086108">
		<tag k="name" v="Vollshagen" />
		<tag k="place" v="hamlet" />
		<tag k="ssr:stedsnr" v="817346" />
	</node>
	<node id="-208004" lat="59.4634472223" lon="10.1209361029">
		<tag k="name" v="Sjuestua" />
		<tag k="place" v="isolated_dwelling" />
		<tag k="ssr:stedsnr" v="937140" />
	</node>
	<node id="-207997" lat="59.4954388847" lon="10.0857888892">
		<tag k="alt_name" v="Hostvedt" />
		<tag k="name" v="Hostvet" />
		<tag k="place" v="farm" />
		<tag k="ssr:stedsnr" v="913049" />
	</node>
	<node id="-207987" lat="59.5677666679" lon="10.0026777819">
		<tag k="name" v="Bokkemyrstua" />
		<tag k="place" v="isolated_dwelling" />
		<tag k="ssr:stedsnr" v="453341" />
	</node>
	<node id="-207983" lat="59.5393611116" lon="10.0903499937">
		<tag k="name" v="Haugan" />
		<tag k="place" v="farm" />
		<tag k="ssr:stedsnr" v="634290" />
	</node>
	<node id="-207982" lat="59.5815416655" lon="10.0050555507">
		<tag k="name" v="Finneplassen" />
		<tag k="place" v="isolated_dwelling" />
		<tag k="ssr:stedsnr" v="731008" />
	</node>
	<node id="-207981" lat="59.5528916704" lon="9.98207777032">
		<tag k="name" v="Gullistua" />
		<tag k="place" v="isolated_dwelling" />
		<tag k="ssr:stedsnr" v="877461" />
	</node>
	<node id="-207977" lat="59.5462555522" lon="10.1011500019">
		<tag k="name" v="Tveiten" />
		<tag k="place" v="farm" />
		<tag k="ssr:stedsnr" v="853938" />
	</node>
	<node id="-207973" lat="59.6176194459" lon="10.0115972216">
		<tag k="name" v="Solbakken" />
		<tag k="place" v="farm" />
		<tag k="ssr:stedsnr" v="453320" />
	</node>
	<node id="-207971" lat="59.5568638851" lon="10.1106222174">
		<tag k="alt_name" v="Kjennerud N" />
		<tag k="name" v="Kjennerud" />
		<tag k="place" v="farm" />
		<tag k="ssr:stedsnr" v="428916" />
	</node>
	<node id="-207970" lat="59.6028777774" lon="10.0217638837">
		<tag k="name" v="Skogstad" />
		<tag k="place" v="farm" />
		<tag k="ssr:stedsnr" v="817309" />
	</node>
	<node id="-207965" lat="59.5760361153" lon="10.0476916722">
		<tag k="name" v="Linnerud" />
		<tag k="place" v="farm" />
		<tag k="ssr:stedsnr" v="938331" />
	</node>
	<node id="-207963" lat="59.5051166711" lon="10.1007999953">
		<tag k="name" v="Engen" />
		<tag k="place" v="isolated_dwelling" />
		<tag k="ssr:stedsnr" v="209052" />
	</node>
	<node id="-207958" lat="59.593541668" lon="9.99664722442">
		<tag k="name" v="Plassen" />
		<tag k="place" v="farm" />
		<tag k="ssr:stedsnr" v="670027" />
	</node>
	<node id="-207956" lat="59.5152750031" lon="10.1055249913">
		<tag k="alt_name" v="Thormodsrud" />
		<tag k="name" v="Tormodsrud" />
		<tag k="place" v="farm" />
		<tag k="ssr:stedsnr" v="913888" />
	</node>
	<node id="-207955" lat="59.525941664" lon="10.1553555588">
		<tag k="name" v="Lybekk" />
		<tag k="place" v="farm" />
		<tag k="ssr:stedsnr" v="670904" />
	</node>
	<node id="-207951" lat="59.5333722178" lon="10.0273111198">
		<tag k="name" v="Solstua" />
		<tag k="place" v="isolated_dwelling" />
		<tag k="ssr:stedsnr" v="935474" />
	</node>
	<node id="-207949" lat="59.4576611133" lon="10.1186472187">
		<tag k="name" v="Åsgården" />
		<tag k="place" v="farm" />
		<tag k="ssr:stedsnr" v="185064" />
	</node>
	<node id="-207947" lat="59.5855166655" lon="10.0421000049">
		<tag k="name" v="Eid" />
		<tag k="place" v="farm" />
		<tag k="ssr:stedsnr" v="3023" />
	</node>
	<node id="-207946" lat="59.5782444461" lon="10.0663611194">
		<tag k="name" v="Furuholmen" />
		<tag k="place" v="isolated_dwelling" />
		<tag k="ssr:stedsnr" v="331339" />
	</node>
	<node id="-207940" lat="59.4933583294" lon="10.0802694398">
		<tag k="name" v="Nauf" />
		<tag k="place" v="farm" />
		<tag k="ssr:stedsnr" v="209043" />
	</node>
	<node id="-207933" lat="59.4791666639" lon="10.0932972144">
		<tag k="alt_name" v="Gran Søndre" />
		<tag k="name" v="Gran" />
		<tag k="place" v="farm" />
		<tag k="ssr:stedsnr" v="495661" />
	</node>
	<node id="-207932" lat="59.5868444465" lon="9.94560556219">
		<tag k="name" v="Markenrudhytta" />
		<tag k="place" v="isolated_dwelling" />
		<tag k="ssr:stedsnr" v="429459" />
	</node>
	<node id="-207928" lat="59.506025003" lon="10.0349722138">
		<tag k="name" v="Goverudhytta" />
		<tag k="place" v="isolated_dwelling" />
		<tag k="ssr:stedsnr" v="815829" />
	</node>
	<node id="-207925" lat="59.5390805548" lon="9.98728888294">
		<tag k="name" v="Hølasetra" />
		<tag k="place" v="isolated_dwelling" />
		<tag k="ssr:stedsnr" v="428920" />
	</node>
	<node id="-207923" lat="59.5187730686" lon="10.0733842089">
		<tag k="alt_name" v="Lian, østre;Lian østre" />
		<tag k="name" v="Østre Lian" />
		<tag k="place" v="farm" />
		<tag k="ssr:stedsnr" v="610917" />
	</node>
	<node id="-207922" lat="59.5827083358" lon="10.0735861041">
		<tag k="name" v="Rød" />
		<tag k="place" v="farm" />
		<tag k="ssr:stedsnr" v="64011" />
	</node>
	<node id="-207918" lat="59.5961527793" lon="10.0359472203">
		<tag k="fixme" v="consider place=suburb, village or hamlet" />
		<tag k="name" v="Eidsfoss" />
		<tag k="place" v="quarter" />
		<tag k="ssr:stedsnr" v="813700" />
	</node>
	<node id="-207915" lat="59.5862833307" lon="10.0666694442">
		<tag k="alt_name" v="Bjerke" />
		<tag k="name" v="Bjørke" />
		<tag k="place" v="farm" />
		<tag k="ssr:stedsnr" v="549011" />
	</node>
	<node id="-207914" lat="59.4828416682" lon="10.0769472266">
		<tag k="name" v="Nord-Granplassen" />
		<tag k="place" v="locality" />
		<tag k="ssr:stedsnr" v="633477" />
	</node>
	<node id="-207910" lat="59.5073250041" lon="10.0746083264">
		<tag k="name" v="Haugen" />
		<tag k="place" v="isolated_dwelling" />
		<tag k="ssr:stedsnr" v="209040" />
	</node>
	<node id="-207907" lat="59.5163000036" lon="10.0396416598">
		<tag k="alt_name" v="Kullstuen" />
		<tag k="name" v="Kolastua" />
		<tag k="place" v="isolated_dwelling" />
		<tag k="ssr:stedsnr" v="3887" />
	</node>
	<node id="-207905" lat="59.4955805584" lon="10.06753055">
		<tag k="name" v="Goverud" />
		<tag k="place" v="farm" />
		<tag k="ssr:stedsnr" v="548008" />
	</node>
	<node id="-207903" lat="59.4614305542" lon="10.1429055551">
		<tag k="name" v="Langeli øvre" />
		<tag k="place" v="farm" />
		<tag k="ssr:stedsnr" v="391116" />
	</node>
	<node id="-207902" lat="59.5552749962" lon="10.120638888">
		<tag k="alt_name" v="Høijord" />
		<tag k="name" v="Høyjord" />
		<tag k="place" v="farm" />
		<tag k="ssr:stedsnr" v="853924" />
	</node>
	<node id="-207900" lat="59.5461361089" lon="10.1089972165">
		<tag k="name" v="Tangen" />
		<tag k="place" v="farm" />
		<tag k="ssr:stedsnr" v="792928" />
	</node>
	<node id="-207896" lat="59.5430527759" lon="10.0801055533">
		<tag k="name" v="Veierud" />
		<tag k="place" v="farm" />
		<tag k="ssr:stedsnr" v="453310" />
	</node>
	<node id="-207894" lat="59.5791888915" lon="10.0462027756">
		<tag k="name" v="Gausen" />
		<tag k="place" v="farm" />
		<tag k="ssr:stedsnr" v="3016" />
	</node>
	<node id="-207892" lat="59.5311111071" lon="10.0861027756">
		<tag k="fixme" v="consider place=hamlet" />
		<tag k="name" v="Hof" />
		<tag k="place" v="village" />
		<tag k="ssr:stedsnr" v="570766" />
	</node>
	<node id="-207885" lat="59.5785444446" lon="10.06365833">
		<tag k="name" v="Fjordgløtt" />
		<tag k="place" v="isolated_dwelling" />
		<tag k="ssr:stedsnr" v="695333" />
	</node>
	<node id="-207883" lat="59.577980558" lon="10.0775416626">
		<tag k="name" v="Rød" />
		<tag k="place" v="farm" />
		<tag k="ssr:stedsnr" v="549016" />
	</node>
	<node id="-207881" lat="59.5094999968" lon="10.0813611142">
		<tag k="alt_name" v="Haslestad N." />
		<tag k="name" v="Haslestad" />
		<tag k="place" v="farm" />
		<tag k="ssr:stedsnr" v="245972" />
	</node>
	<node id="-207880" lat="59.5254138929" lon="10.0826944364">
		<tag k="name" v="Grønstad" />
		<tag k="place" v="farm" />
		<tag k="ssr:stedsnr" v="28375" />
	</node>
	<node id="-207878" lat="59.4788888883" lon="10.110988891">
		<tag k="name" v="Buenstua" />
		<tag k="place" v="isolated_dwelling" />
		<tag k="ssr:stedsnr" v="330528" />
	</node>
	<node id="-207877" lat="59.5976527797" lon="10.0668055554">
		<tag k="name" v="Berg nedre" />
		<tag k="place" v="isolated_dwelling" />
		<tag k="ssr:stedsnr" v="453731" />
	</node>
	<node id="-207873" lat="59.5907277795" lon="10.0881499984">
		<tag k="alt_name" v="Sagastua" />
		<tag k="name" v="Saga" />
		<tag k="place" v="isolated_dwelling" />
		<tag k="ssr:stedsnr" v="488024" />
	</node>
	<node id="-207871" lat="59.4607333306" lon="10.0886111083">
		<tag k="name" v="Dammen" />
		<tag k="place" v="locality" />
		<tag k="ssr:stedsnr" v="937117" />
	</node>
	<node id="-207868" lat="59.5851249983" lon="10.0799805559">
		<tag k="name" v="Åsen" />
		<tag k="place" v="farm" />
		<tag k="ssr:stedsnr" v="549018" />
	</node>
	<node id="-207867" lat="59.5118805538" lon="10.125650007">
		<tag k="name" v="Sundbyfoss" />
		<tag k="place" v="village" />
		<tag k="ssr:stedsnr" v="510485" />
	</node>
	<node id="-207863" lat="59.5351305558" lon="10.0849055623">
		<tag k="name" v="Storeng" />
		<tag k="place" v="farm" />
		<tag k="ssr:stedsnr" v="3884" />
	</node>
	<node id="-207862" lat="59.5732083293" lon="10.1137472259">
		<tag k="name" v="Dammenga" />
		<tag k="place" v="isolated_dwelling" />
		<tag k="ssr:stedsnr" v="938340" />
	</node>
	<node id="-207859" lat="59.5962388856" lon="10.0367055631">
		<tag k="building" v="industrial" />
		<tag k="industrial" v="factory" />
		<tag k="name" v="Eidsfoss verk" />
		<tag k="ssr:stedsnr" v="913032" />
	</node>
	<node id="-207856" lat="59.4728083296" lon="10.1004555567">
		<tag k="name" v="Nordengen" />
		<tag k="place" v="locality" />
		<tag k="ssr:stedsnr" v="27524" />
	</node>
	<node id="-207853" lat="59.5673527761" lon="10.0658083277">
		<tag k="name" v="Hem" />
		<tag k="place" v="farm" />
		<tag k="ssr:stedsnr" v="185050" />
	</node>
	<node id="-207852" lat="59.4871333313" lon="10.0741916699">
		<tag k="name" v="Gretteberg" />
		<tag k="place" v="farm" />
		<tag k="ssr:stedsnr" v="913006" />
	</node>
	<node id="-207851" lat="59.5276861105" lon="10.0898638846">
		<tag k="name" v="Voll N." />
		<tag k="place" v="farm" />
		<tag k="ssr:stedsnr" v="574376" />
	</node>
	<node id="-207850" lat="59.4561722223" lon="10.0849861199">
		<tag k="name" v="Moholt" />
		<tag k="place" v="locality" />
		<tag k="ssr:stedsnr" v="695091" />
	</node>
	<node id="-207849" lat="59.5442194451" lon="10.0874083384">
		<tag k="name" v="Stenseth" />
		<tag k="place" v="locality" />
		<tag k="ssr:stedsnr" v="210309" />
	</node>
	<node id="-207848" lat="59.542980555" lon="10.0135777719">
		<tag k="name" v="Nystua" />
		<tag k="place" v="isolated_dwelling" />
		<tag k="ssr:stedsnr" v="513541" />
	</node>
	<node id="-207847" lat="59.5468333333" lon="10.0695444504">
		<tag k="name" v="Rønningen" />
		<tag k="place" v="farm" />
		<tag k="ssr:stedsnr" v="817283" />
	</node>
	<node id="-207843" lat="59.6331083356" lon="9.99510833126">
		<tag k="name" v="Torrud" />
		<tag k="place" v="farm" />
		<tag k="ssr:stedsnr" v="3147" />
	</node>
	<node id="-207837" lat="59.5558805599" lon="10.0799638937">
		<tag k="name" v="Østby" />
		<tag k="place" v="farm" />
		<tag k="ssr:stedsnr" v="185914" />
	</node>
	<node id="-207836" lat="59.458888892" lon="10.1047500067">
		<tag k="name" v="Berg S." />
		<tag k="place" v="farm" />
		<tag k="ssr:stedsnr" v="331100" />
	</node>
	<node id="-207831" lat="59.5128749969" lon="10.114052786">
		<tag k="name" v="Hallerud" />
		<tag k="place" v="farm" />
		<tag k="ssr:stedsnr" v="245969" />
	</node>
	<node id="-207830" lat="59.54126111" lon="10.0559916722">
		<tag k="name" v="Steinbekk" />
		<tag k="place" v="isolated_dwelling" />
		<tag k="ssr:stedsnr" v="124927" />
	</node>
	<node id="-207815" lat="59.550175001" lon="10.1312055485">
		<tag k="alt_name" v="Opsahl" />
		<tag k="name" v="Oppsal" />
		<tag k="place" v="farm" />
		<tag k="ssr:stedsnr" v="185910" />
	</node>
	<node id="-207814" lat="59.5025638931" lon="10.1045972229">
		<tag k="name" v="Grennesrønningen" />
		<tag k="place" v="farm" />
		<tag k="ssr:stedsnr" v="452050" />
	</node>
	<node id="-207803" lat="59.5285527749" lon="10.1223138968">
		<tag k="name" v="Delsbekk" />
		<tag k="place" v="isolated_dwelling" />
		<tag k="ssr:stedsnr" v="149383" />
	</node>
	<node id="-207802" lat="59.5670999994" lon="10.0235805579">
		<tag k="name" v="Nordbysetra" />
		<tag k="place" v="isolated_dwelling" />
		<tag k="ssr:stedsnr" v="124054" />
	</node>
	<node id="-207801" lat="59.4617250036" lon="10.110108328">
		<tag k="name" v="Berg N." />
		<tag k="place" v="farm" />
		<tag k="ssr:stedsnr" v="695102" />
	</node>
	<node id="-207798" lat="59.5412805512" lon="10.0677638926">
		<tag k="name" v="Skau" />
		<tag k="place" v="isolated_dwelling" />
		<tag k="ssr:stedsnr" v="331292" />
	</node>
	<node id="-207792" lat="59.4559055573" lon="10.0999583401">
		<tag k="name" v="Myre N." />
		<tag k="place" v="farm" />
		<tag k="ssr:stedsnr" v="695104" />
	</node>
	<node id="-207788" lat="59.5170305536" lon="10.1293944466">
		<tag k="name" v="Sletten" />
		<tag k="place" v="farm" />
		<tag k="ssr:stedsnr" v="28357" />
	</node>
	<node id="-207787" lat="59.4722222182" lon="10.0679777711">
		<tag k="name" v="Lofsberghytta" />
		<tag k="place" v="isolated_dwelling" />
		<tag k="ssr:stedsnr" v="330496" />
	</node>
	<node id="-207783" lat="59.5447888883" lon="9.98769166151">
		<tag k="name" v="Veslebu" />
		<tag k="place" v="isolated_dwelling" />
		<tag k="ssr:stedsnr" v="817508" />
	</node>
	<node id="-207780" lat="59.4974000044" lon="10.0987999949">
		<tag k="alt_name" v="Grennes S" />
		<tag k="name" v="Grennes" />
		<tag k="place" v="farm" />
		<tag k="ssr:stedsnr" v="427048" />
	</node>
	<node id="-207778" lat="59.5870194456" lon="9.94601389127">
		<tag k="name" v="Fredly" />
		<tag k="place" v="isolated_dwelling" />
		<tag k="ssr:stedsnr" v="207414" />
	</node>
	<node id="-207774" lat="59.4932055546" lon="10.0800111138">
		<tag k="name" v="Solbakken" />
		<tag k="place" v="farm" />
		<tag k="ssr:stedsnr" v="488003" />
	</node>
	<node id="-207773" lat="59.541050002" lon="10.1195111117">
		<tag k="name" v="Støa" />
		<tag k="place" v="farm" />
		<tag k="ssr:stedsnr" v="64948" />
	</node>
	<node id="-207771" lat="59.5417361077" lon="10.0987166669">
		<tag k="name" v="Vike" />
		<tag k="place" v="farm" />
		<tag k="ssr:stedsnr" v="306943" />
	</node>
	<node id="-207769" lat="59.5483916633" lon="9.99483333552">
		<tag k="name" v="Kolahytta" />
		<tag k="place" v="isolated_dwelling" />
		<tag k="ssr:stedsnr" v="367903" />
	</node>
	<node id="-207765" lat="59.5419638927" lon="10.0858833396">
		<tag k="name" v="Brekke" />
		<tag k="place" v="farm" />
		<tag k="ssr:stedsnr" v="817292" />
	</node>
	<node id="-207763" lat="59.4601555542" lon="10.0951777843">
		<tag k="name" v="Verkensmyra" />
		<tag k="place" v="locality" />
		<tag k="ssr:stedsnr" v="391096" />
	</node>
	<node id="-207761" lat="59.573883337" lon="10.0975694463">
		<tag k="name" v="Hafsrud" />
		<tag k="place" v="farm" />
		<tag k="ssr:stedsnr" v="89362" />
	</node>
	<node id="-207759" lat="59.5046083349" lon="10.1080805614">
		<tag k="name" v="Djupedal" />
		<tag k="place" v="farm" />
		<tag k="ssr:stedsnr" v="63986" />
	</node>
	<node id="-207758" lat="59.4529777742" lon="10.0951583315">
		<tag k="name" v="Bakkelia" />
		<tag k="place" v="isolated_dwelling" />
		<tag k="ssr:stedsnr" v="391097" />
	</node>
	<node id="-207749" lat="59.6014138877" lon="10.0124472222">
		<tag k="name" v="Hesthammer" />
		<tag k="place" v="farm" />
		<tag k="ssr:stedsnr" v="817296" />
	</node>
	<node id="-207747" lat="59.5495055516" lon="10.1141666617">
		<tag k="name" v="Oreberg" />
		<tag k="place" v="farm" />
		<tag k="ssr:stedsnr" v="246924" />
	</node>
	<node id="-207743" lat="59.5291638887" lon="10.0678499938">
		<tag k="name" v="Gurrik" />
		<tag k="place" v="farm" />
		<tag k="ssr:stedsnr" v="913873" />
	</node>
	<node id="-207742" lat="59.5177750023" lon="10.097675004">
		<tag k="alt_name" v="Rønneberg nedre" />
		<tag k="name" v="Rønneberg" />
		<tag k="place" v="farm" />
		<tag k="ssr:stedsnr" v="428892" />
	</node>
	<node id="-207738" lat="59.4807222181" lon="10.0916277763">
		<tag k="name" v="Gran mellom" />
		<tag k="place" v="farm" />
		<tag k="ssr:stedsnr" v="513538" />
	</node>
	<node id="-207735" lat="59.5417722222" lon="10.0950611034">
		<tag k="name" v="Vike" />
		<tag k="place" v="farm" />
		<tag k="ssr:stedsnr" v="331294" />
	</node>
	<node id="-207734" lat="59.4663861069" lon="10.1033499917">
		<tag k="name" v="Sjue" />
		<tag k="place" v="farm" />
		<tag k="ssr:stedsnr" v="366054" />
	</node>
	<node id="-207732" lat="59.5224555594" lon="10.1725416635">
		<tag k="name" v="Løken" />
		<tag k="place" v="farm" />
		<tag k="ssr:stedsnr" v="185896" />
	</node>
	<node id="-207731" lat="59.5055472187" lon="10.240058336">
		<tag k="name" v="Lie nedre" />
		<tag k="place" v="farm" />
		<tag k="ssr:stedsnr" v="27604" />
	</node>
	<node id="-207729" lat="59.4964138859" lon="10.207338885">
		<tag k="name" v="Solbakke" />
		<tag k="place" v="farm" />
		<tag k="ssr:stedsnr" v="938599" />
	</node>
	<node id="-207727" lat="59.5134027789" lon="10.2110722233">
		<tag k="name" v="Elverum" />
		<tag k="place" v="isolated_dwelling" />
		<tag k="ssr:stedsnr" v="89559" />
	</node>
	<node id="-207725" lat="59.5410138897" lon="10.2019083351">
		<tag k="name" v="Markussetra" />
		<tag k="place" v="isolated_dwelling" />
		<tag k="ssr:stedsnr" v="246917" />
	</node>
	<node id="-207724" lat="59.497177776" lon="10.2992638891">
		<tag k="name" v="Solvang" />
		<tag k="place" v="farm" />
		<tag k="ssr:stedsnr" v="88827" />
	</node>
	<node id="-207722" lat="59.4751388868" lon="10.3149944424">
		<tag k="name" v="Marienborg" />
		<tag k="place" v="farm" />
		<tag k="ssr:stedsnr" v="184084" />
	</node>
	<node id="-207717" lat="59.5065555525" lon="10.2775555615">
		<tag k="name" v="Spettås" />
		<tag k="place" v="farm" />
		<tag k="ssr:stedsnr" v="609996" />
	</node>
	<node id="-207716" lat="59.5604416708" lon="10.1481000005">
		<tag k="name" v="Nordli" />
		<tag k="place" v="isolated_dwelling" />
		<tag k="ssr:stedsnr" v="634721" />
	</node>
	<node id="-207714" lat="59.5000657009" lon="10.2475992535">
		<tag k="name" v="Guåker" />
		<tag k="place" v="hamlet" />
		<tag k="ssr:stedsnr" v="124986" />
	</node>
	<node id="-207712" lat="59.4998215964" lon="10.2703851122">
		<tag k="alt_name" v="Foss, nordre" />
		<tag k="name" v="Nordre Foss" />
		<tag k="place" v="farm" />
		<tag k="ssr:stedsnr" v="852988" />
	</node>
	<node id="-207711" lat="59.4889888878" lon="10.1790861198">
		<tag k="name" v="Bjerke" />
		<tag k="place" v="farm" />
		<tag k="ssr:stedsnr" v="331600" />
	</node>
	<node id="-207707" lat="59.4999138931" lon="10.2861916746">
		<tag k="name" v="Voll" />
		<tag k="place" v="farm" />
		<tag k="ssr:stedsnr" v="88831" />
	</node>
	<node id="-207706" lat="59.5056249962" lon="10.2223055594">
		<tag k="name" v="Gran" />
		<tag k="place" v="farm" />
		<tag k="ssr:stedsnr" v="633620" />
	</node>
	<node id="-207701" lat="59.512813886" lon="10.2906250034">
		<tag k="name" v="Sjøskogen" />
		<tag k="place" v="farm" />
		<tag k="ssr:stedsnr" v="185976" />
	</node>
	<node id="-207700" lat="59.5083333375" lon="10.224427783">
		<tag k="name" v="Hynnås søndre" />
		<tag k="place" v="farm" />
		<tag k="ssr:stedsnr" v="89561" />
	</node>
	<node id="-207697" lat="59.4805333359" lon="10.3116888942">
		<tag k="alt_name" v="Kleivbratten" />
		<tag k="name" v="Kleivbrottet" />
		<tag k="place" v="farm" />
		<tag k="ssr:stedsnr" v="852032" />
	</node>
	<node id="-207696" lat="59.5524861081" lon="10.1585638878">
		<tag k="alt_name" v="Vestre Kaldåker" />
		<tag k="name" v="Kaldåker" />
		<tag k="place" v="farm" />
		<tag k="ssr:stedsnr" v="488919" />
	</node>
	<node id="-207693" lat="59.4679750026" lon="10.2751666687">
		<tag k="alt_name" v="Vestre Lajord" />
		<tag k="name" v="Lajord" />
		<tag k="place" v="farm" />
		<tag k="ssr:stedsnr" v="852102" />
	</node>
	<node id="-207691" lat="59.4876083369" lon="10.1659666597">
		<tag k="name" v="Gjøgri" />
		<tag k="place" v="farm" />
		<tag k="ssr:stedsnr" v="184002" />
	</node>
	<node id="-207690" lat="59.4846249986" lon="10.1461972195">
		<tag k="name" v="Skarrbo" />
		<tag k="place" v="farm" />
		<tag k="ssr:stedsnr" v="755524" />
	</node>
	<node id="-207689" lat="59.5283888861" lon="10.2298166667">
		<tag k="name" v="Holtanhytta" />
		<tag k="place" v="isolated_dwelling" />
		<tag k="ssr:stedsnr" v="185890" />
	</node>
	<node id="-207687" lat="59.4679888927" lon="10.2464694498">
		<tag k="name" v="Greåker" />
		<tag k="place" v="farm" />
		<tag k="ssr:stedsnr" v="2113" />
	</node>
	<node id="-207684" lat="59.5730333316" lon="10.1431861038">
		<tag k="name" v="Bakkesetra" />
		<tag k="place" v="isolated_dwelling" />
		<tag k="ssr:stedsnr" v="913057" />
	</node>
	<node id="-207683" lat="59.5553388918" lon="10.1710500028">
		<tag k="alt_name" v="Kjeksrud" />
		<tag k="name" v="Kjeksrød" />
		<tag k="place" v="farm" />
		<tag k="ssr:stedsnr" v="549914" />
	</node>
	<node id="-207680" lat="59.4687027814" lon="10.2776138958">
		<tag k="name" v="Søndre Lajord" />
		<tag k="place" v="farm" />
		<tag k="ssr:stedsnr" v="573841" />
	</node>
	<node id="-207679" lat="59.4971611102" lon="10.2483583274">
		<tag k="name" v="Bjerkeli" />
		<tag k="place" v="isolated_dwelling" />
		<tag k="ssr:stedsnr" v="513628" />
	</node>
	<node id="-207678" lat="59.5179250005" lon="10.2148249928">
		<tag k="name" v="Jonsrud" />
		<tag k="place" v="farm" />
		<tag k="ssr:stedsnr" v="124982" />
	</node>
	<node id="-207676" lat="59.4890861118" lon="10.3029666699">
		<tag k="name" v="Kleiva" />
		<tag k="place" v="quarter" />
		<tag k="ssr:stedsnr" v="695058" />
	</node>
	<node id="-207675" lat="59.5592555588" lon="10.143663896">
		<tag k="name" v="Løvås" />
		<tag k="old_name" v="Løvas" />
		<tag k="place" v="isolated_dwelling" />
		<tag k="ssr:stedsnr" v="271732" />
	</node>
	<node id="-207674" lat="59.4940444482" lon="10.1699499965">
		<tag k="name" v="Hegg" />
		<tag k="place" v="farm" />
		<tag k="ssr:stedsnr" v="755626" />
	</node>
	<node id="-207673" lat="59.4603944446" lon="10.2459083333">
		<tag k="name" v="Varløs" />
		<tag k="place" v="farm" />
		<tag k="ssr:stedsnr" v="791116" />
	</node>
	<node id="-207671" lat="59.5310055576" lon="10.1656944368">
		<tag k="alt_name" v="Stubsrud" />
		<tag k="name" v="Stubbsrød" />
		<tag k="place" v="farm" />
		<tag k="ssr:stedsnr" v="185895" />
	</node>
	<node id="-207669" lat="59.4833416701" lon="10.3063277857">
		<tag k="name" v="Gausen" />
		<tag k="place" v="quarter" />
		<tag k="ssr:stedsnr" v="695056" />
	</node>
	<node id="-207665" lat="59.5419138917" lon="10.2030388854">
		<tag k="historic" v="shieling" />
		<tag k="name" v="Bakkeseter" />
		<tag k="place" v="locality" />
		<tag k="ssr:stedsnr" v="574775" />
	</node>
	<node id="-207664" lat="59.4805916625" lon="10.3115722168">
		<tag k="name" v="Ekeberg" />
		<tag k="place" v="farm" />
		<tag k="ssr:stedsnr" v="573845" />
	</node>
	<node id="-207662" lat="59.5363416685" lon="10.1742777759">
		<tag k="name" v="Solvang" />
		<tag k="place" v="isolated_dwelling" />
		<tag k="ssr:stedsnr" v="756775" />
	</node>
	<node id="-207658" lat="59.4966500023" lon="10.2488361137">
		<tag k="name" v="Bergtun" />
		<tag k="place" v="isolated_dwelling" />
		<tag k="ssr:stedsnr" v="331590" />
	</node>
	<node id="-207657" lat="59.5004472262" lon="10.2862388895">
		<tag k="name" v="Voll fellesfjøs" />
		<tag k="place" v="locality" />
		<tag k="ssr:stedsnr" v="148843" />
	</node>
	<node id="-207654" lat="59.5597000003" lon="10.1525999956">
		<tag k="name" v="Eplerud" />
		<tag k="place" v="farm" />
		<tag k="ssr:stedsnr" v="695594" />
	</node>
	<node id="-207653" lat="59.4700916697" lon="10.3277194382">
		<tag k="name" v="Tolfsrud" />
		<tag k="place" v="farm" />
		<tag k="ssr:stedsnr" v="2107" />
	</node>
	<node id="-207651" lat="59.5087361098" lon="10.2219833296">
		<tag k="name" v="Hynnås" />
		<tag k="place" v="farm" />
		<tag k="ssr:stedsnr" v="453563" />
	</node>
	<node id="-207650" lat="59.5031750021" lon="10.2729055497">
		<tag k="name" v="Bås" />
		<tag k="place" v="farm" />
		<tag k="ssr:stedsnr" v="791998" />
	</node>
	<node id="-207646" lat="59.4846611133" lon="10.2923250055">
		<tag k="name" v="Mofjøl" />
		<tag k="place" v="farm" />
		<tag k="ssr:stedsnr" v="427029" />
	</node>
	<node id="-207645" lat="59.5348250042" lon="10.2109888951">
		<tag k="name" v="Løkensetra" />
		<tag k="place" v="isolated_dwelling" />
		<tag k="ssr:stedsnr" v="670878" />
	</node>
	<node id="-207644" lat="59.5073555532" lon="10.2378388884">
		<tag k="name" v="Øvre Li" />
		<tag k="place" v="farm" />
		<tag k="ssr:stedsnr" v="816628" />
	</node>
	<node id="-207643" lat="59.5026361114" lon="10.1994250001">
		<tag k="name" v="Solberg" />
		<tag k="place" v="farm" />
		<tag k="ssr:stedsnr" v="938612" />
	</node>
	<node id="-207639" lat="59.4963222226" lon="10.2369972161">
		<tag k="name" v="Bringaker østre" />
		<tag k="place" v="farm" />
		<tag k="ssr:stedsnr" v="816632" />
	</node>
	<node id="-207638" lat="59.514344441" lon="10.2831194444">
		<tag k="alt_name" v="Kleivan, nedre;Søndre Kleivan" />
		<tag k="name" v="Nedre Kleivan" />
		<tag k="place" v="farm" />
		<tag k="ssr:stedsnr" v="671980" />
	</node>
	<node id="-207637" lat="59.4932777804" lon="10.2719138945">
		<tag k="name" v="Heimsyn" />
		<tag k="place" v="isolated_dwelling" />
		<tag k="ssr:stedsnr" v="573822" />
	</node>
	<node id="-207633" lat="59.4922111068" lon="10.247291669">
		<tag k="alt_name" v="Berg Nordre" />
		<tag k="name" v="Berg" />
		<tag k="place" v="farm" />
		<tag k="ssr:stedsnr" v="184001" />
	</node>
	<node id="-207631" lat="59.4828111073" lon="10.2749388964">
		<tag k="name" v="Åsly" />
		<tag k="place" v="farm" />
		<tag k="ssr:stedsnr" v="755857" />
	</node>
	<node id="-207630" lat="59.5017242335" lon="10.250839433">
		<tag k="name" v="Godaker bad" />
		<tag k="place" v="farm" />
		<tag k="ssr:stedsnr" v="977294" />
	</node>
	<node id="-207629" lat="59.4940222228" lon="10.1754583414">
		<tag k="alt_name" v="Hegg Nordre" />
		<tag k="name" v="Hegg" />
		<tag k="place" v="farm" />
		<tag k="ssr:stedsnr" v="548049" />
	</node>
	<node id="-207628" lat="59.5011916623" lon="10.2833944403">
		<tag k="name" v="Nordre Gaupås" />
		<tag k="place" v="farm" />
		<tag k="ssr:stedsnr" v="573824" />
	</node>
	<node id="-207627" lat="59.5029894111" lon="10.2422275301">
		<tag k="name" v="Godaker lille" />
		<tag k="place" v="farm" />
		<tag k="ssr:stedsnr" v="977292" />
	</node>
	<node id="-207626" lat="59.4579000036" lon="10.2621055548">
		<tag k="alt_name" v="Rød, s;Rød;Rød søndre" />
		<tag k="name" v="Søndre Rød" />
		<tag k="place" v="farm" />
		<tag k="ssr:stedsnr" v="245110" />
	</node>
	<node id="-207625" lat="59.4956055544" lon="10.2928999954">
		<tag k="name" v="Østre Gudum" />
		<tag k="place" v="farm" />
		<tag k="ssr:stedsnr" v="209842" />
	</node>
	<node id="-207624" lat="59.5151358571" lon="10.2483293157">
		<tag k="name" v="Godaker lille" />
		<tag k="place" v="farm" />
		<tag k="ssr:stedsnr" v="977291" />
	</node>
	<node id="-207623" lat="59.5011018301" lon="10.2513110234">
		<tag k="name" v="Godaker lille" />
		<tag k="place" v="farm" />
		<tag k="ssr:stedsnr" v="977290" />
	</node>
	<node id="-207622" lat="59.4981694402" lon="10.2785833392">
		<tag k="name" v="Fossdalen" />
		<tag k="place" v="isolated_dwelling" />
		<tag k="ssr:stedsnr" v="573826" />
	</node>
	<node id="-207618" lat="59.4981083294" lon="10.2534277839">
		<tag k="name" v="Stubberud" />
		<tag k="place" v="isolated_dwelling" />
		<tag k="ssr:stedsnr" v="670073" />
	</node>
	<node id="-207616" lat="59.4914305519" lon="10.1312694419">
		<tag k="name" v="Askerud" />
		<tag k="place" v="isolated_dwelling" />
		<tag k="ssr:stedsnr" v="695486" />
	</node>
	<node id="-207615" lat="59.4950166634" lon="10.2527083321">
		<tag k="name" v="Bergvillaen" />
		<tag k="place" v="isolated_dwelling" />
		<tag k="ssr:stedsnr" v="331595" />
	</node>
	<node id="-207612" lat="59.5619444463" lon="10.1337027777">
		<tag k="name" v="Nedre Tømmerås" />
		<tag k="place" v="farm" />
		<tag k="ssr:stedsnr" v="453678" />
	</node>
	<node id="-207610" lat="59.5026467054" lon="10.2490410342">
		<tag k="name" v="Godaker lille" />
		<tag k="place" v="farm" />
		<tag k="ssr:stedsnr" v="977289" />
	</node>
	<node id="-207609" lat="59.4701833334" lon="10.2859083328">
		<tag k="name" v="Haugan" />
		<tag k="place" v="farm" />
		<tag k="ssr:stedsnr" v="2101" />
	</node>
	<node id="-207608" lat="59.5001446224" lon="10.2502298451">
		<tag k="name" v="Godaker store" />
		<tag k="place" v="farm" />
		<tag k="ssr:stedsnr" v="977288" />
	</node>
	<node id="-207607" lat="59.4751055562" lon="10.2855388876">
		<tag k="name" v="Gunnerud" />
		<tag k="place" v="farm" />
		<tag k="ssr:stedsnr" v="209846" />
	</node>
	<node id="-207606" lat="59.4925277812" lon="10.1770972305">
		<tag k="name" v="Hegg" />
		<tag k="place" v="farm" />
		<tag k="ssr:stedsnr" v="209630" />
	</node>
	<node id="-207605" lat="59.5214329662" lon="10.2519982188">
		<tag k="name" v="Godaker store" />
		<tag k="place" v="farm" />
		<tag k="ssr:stedsnr" v="977287" />
	</node>
	<node id="-207604" lat="59.4900999963" lon="10.2935194366">
		<tag k="name" v="Nordeng" />
		<tag k="place" v="farm" />
		<tag k="ssr:stedsnr" v="573829" />
	</node>
	<node id="-207600" lat="59.5606277765" lon="10.1465722217">
		<tag k="name" v="Lien" />
		<tag k="place" v="isolated_dwelling" />
		<tag k="ssr:stedsnr" v="695693" />
	</node>
	<node id="-207598" lat="59.4998476185" lon="10.2567288113">
		<tag k="fixme" v="consider place=hamlet" />
		<tag k="name" v="Godaker store" />
		<tag k="place" v="farm" />
		<tag k="ssr:stedsnr" v="977286" />
	</node>
	<node id="-207597" lat="59.5042500029" lon="10.1802916658">
		<tag k="name" v="Øie" />
		<tag k="place" v="farm" />
		<tag k="ssr:stedsnr" v="938609" />
	</node>
	<node id="-207595" lat="59.4792472222" lon="10.2854194521">
		<tag k="name" v="Gunnerud" />
		<tag k="place" v="farm" />
		<tag k="ssr:stedsnr" v="209848" />
	</node>
	<node id="-207593" lat="59.4979555587" lon="10.175094438">
		<tag k="name" v="Hegg" />
		<tag k="place" v="farm" />
		<tag k="ssr:stedsnr" v="209632" />
	</node>
	<node id="-207592" lat="59.4644583374" lon="10.2782444518">
		<tag k="name" v="Kårjord" />
		<tag k="place" v="farm" />
		<tag k="ssr:stedsnr" v="609116" />
	</node>
	<node id="-207591" lat="59.4784722209" lon="10.1367972182">
		<tag k="name" v="Soa" />
		<tag k="place" v="farm" />
		<tag k="ssr:stedsnr" v="2027" />
	</node>
	<node id="-207590" lat="59.4641111099" lon="10.2519027816">
		<tag k="alt_name" v="Fudske søndre" />
		<tag k="name" v="Føske" />
		<tag k="place" v="farm" />
		<tag k="ssr:stedsnr" v="852111" />
	</node>
	<node id="-207585" lat="59.5602944463" lon="10.1439111063">
		<tag k="name" v="Hanevoll" />
		<tag k="place" v="isolated_dwelling" />
		<tag k="ssr:stedsnr" v="453676" />
	</node>
	<node id="-207584" lat="59.4645694461" lon="10.2403750041">
		<tag k="name" v="Greaker vestre" />
		<tag k="place" v="farm" />
		<tag k="ssr:stedsnr" v="270550" />
	</node>
	<node id="-207583" lat="59.5296527821" lon="10.2730249982">
		<tag k="alt_name" v="Engnes" />
		<tag k="name" v="Engenes" />
		<tag k="place" v="farm" />
		<tag k="ssr:stedsnr" v="124889" />
	</node>
	<node id="-207581" lat="59.5134333362" lon="10.2299638854">
		<tag k="name" v="Høgåshytta" />
		<tag k="place" v="isolated_dwelling" />
		<tag k="ssr:stedsnr" v="271597" />
	</node>
	<node id="-207576" lat="59.5594916639" lon="10.1505416636">
		<tag k="alt_name" v="Eplerud" />
		<tag k="name" v="Eplerød" />
		<tag k="place" v="farm" />
		<tag k="ssr:stedsnr" v="306049" />
	</node>
	<node id="-207575" lat="59.5018027775" lon="10.2251555597">
		<tag k="alt_name" v="Nordre Bringaker" />
		<tag k="name" v="Bringåker" />
		<tag k="place" v="farm" />
		<tag k="ssr:stedsnr" v="306989" />
	</node>
	<node id="-207573" lat="59.4718222212" lon="10.3021749955">
		<tag k="name" v="Bakkevoll" />
		<tag k="place" v="farm" />
		<tag k="ssr:stedsnr" v="695864" />
	</node>
	<node id="-207572" lat="59.5296777755" lon="10.2730444517">
		<tag k="name" v="Kleivbogen" />
		<tag k="place" v="farm" />
		<tag k="ssr:stedsnr" v="756027" />
	</node>
	<node id="-207571" lat="59.4663333336" lon="10.3136111133">
		<tag k="name" v="Solum" />
		<tag k="place" v="farm" />
		<tag k="ssr:stedsnr" v="245107" />
	</node>
	<node id="-207570" lat="59.4777944451" lon="10.3244333348">
		<tag k="name" v="Ekelund" />
		<tag k="place" v="farm" />
		<tag k="ssr:stedsnr" v="148934" />
	</node>
	<node id="-207569" lat="59.4936805536" lon="10.1650222193">
		<tag k="name" v="Skoleåsen" />
		<tag k="place" v="farm" />
		<tag k="ssr:stedsnr" v="452612" />
	</node>
	<node id="-207566" lat="59.4863972233" lon="10.2961166644">
		<tag k="name" v="NAI Vesthøy" />
		<tag k="place" v="quarter" />
		<tag k="ssr:stedsnr" v="331868" />
	</node>
	<node id="-207564" lat="59.5147777806" lon="10.1835499962">
		<tag k="alt_name" v="Hillestad høye" />
		<tag k="name" v="Hillestad" />
		<tag k="place" v="farm" />
		<tag k="ssr:stedsnr" v="246979" />
	</node>
	<node id="-207559" lat="59.4642833376" lon="10.3102999979">
		<tag k="name" v="Allum" />
		<tag k="place" v="farm" />
		<tag k="ssr:stedsnr" v="245108" />
	</node>
	<node id="-207558" lat="59.4969388922" lon="10.2816027817">
		<tag k="name" v="Botnestål" />
		<tag k="place" v="farm" />
		<tag k="ssr:stedsnr" v="209838" />
	</node>
	<node id="-207557" lat="59.47231667" lon="10.2570972178">
		<tag k="name" v="Granli" />
		<tag k="place" v="farm" />
		<tag k="ssr:stedsnr" v="513710" />
	</node>
	<node id="-207556" lat="59.5080805532" lon="10.2062611174">
		<tag k="name" v="Nordli" />
		<tag k="place" v="farm" />
		<tag k="ssr:stedsnr" v="452616" />
	</node>
	<node id="-207554" lat="59.4859166693" lon="10.3036222307">
		<tag k="name" v="Innloa" />
		<tag k="place" v="quarter" />
		<tag k="ssr:stedsnr" v="89824" />
	</node>
	<node id="-207552" lat="59.4873250026" lon="10.2953194494">
		<tag k="name" v="Hvitstein" />
		<tag k="place" v="farm" />
		<tag k="ssr:stedsnr" v="852015" />
	</node>
	<node id="-207549" lat="59.492474997" lon="10.2905527783">
		<tag k="name" v="Hvalberg" />
		<tag k="place" v="farm" />
		<tag k="ssr:stedsnr" v="63003" />
	</node>
	<node id="-207547" lat="59.5071249996" lon="10.1837055566">
		<tag k="name" v="Rønningen" />
		<tag k="place" v="farm" />
		<tag k="ssr:stedsnr" v="670996" />
	</node>
	<node id="-207546" lat="59.5158861091" lon="10.2132138807">
		<tag k="name" v="Lagården" />
		<tag k="place" v="farm" />
		<tag k="ssr:stedsnr" v="453558" />
	</node>
	<node id="-207544" lat="59.5106666629" lon="10.2288083249">
		<tag k="name" v="Skaug nedre" />
		<tag k="place" v="isolated_dwelling" />
		<tag k="ssr:stedsnr" v="695550" />
	</node>
	<node id="-207543" lat="59.5125111123" lon="10.2229111143">
		<tag k="name" v="Holtan" />
		<tag k="place" v="farm" />
		<tag k="ssr:stedsnr" v="306995" />
	</node>
	<node id="-207541" lat="59.4744749998" lon="10.2601611104">
		<tag k="name" v="Granli" />
		<tag k="place" v="isolated_dwelling" />
		<tag k="ssr:stedsnr" v="331698" />
	</node>
	<node id="-207540" lat="59.477933335" lon="10.2415777756">
		<tag k="name" v="Løvald vestre" />
		<tag k="place" v="farm" />
		<tag k="ssr:stedsnr" v="513711" />
	</node>
	<node id="-207539" lat="59.5003999998" lon="10.2828500001">
		<tag k="alt_name" v="Mellom Gaupås" />
		<tag k="name" v="Gaupås" />
		<tag k="place" v="farm" />
		<tag k="ssr:stedsnr" v="306993" />
	</node>
	<node id="-207538" lat="59.4880250014" lon="10.2786999996">
		<tag k="name" v="Søndre Myhre" />
		<tag k="place" v="farm" />
		<tag k="ssr:stedsnr" v="209831" />
	</node>
	<node id="-207537" lat="59.5601416661" lon="10.1427500064">
		<tag k="name" v="Granly" />
		<tag k="place" v="isolated_dwelling" />
		<tag k="ssr:stedsnr" v="938674" />
	</node>
	<node id="-207536" lat="59.5239472182" lon="10.2510249912">
		<tag k="name" v="Solberghytta" />
		<tag k="place" v="isolated_dwelling" />
		<tag k="ssr:stedsnr" v="453555" />
	</node>
	<node id="-207535" lat="59.4550777778" lon="10.2478500047">
		<tag k="name" v="Kaupang" />
		<tag k="place" v="farm" />
		<tag k="ssr:stedsnr" v="487056" />
	</node>
	<node id="-207534" lat="59.4993499997" lon="10.160697214">
		<tag k="name" v="Heggshytta" />
		<tag k="place" v="isolated_dwelling" />
		<tag k="ssr:stedsnr" v="573601" />
	</node>
	<node id="-207531" lat="59.5633000005" lon="10.1366027724">
		<tag k="alt_name" v="Øvre Tømmerås" />
		<tag k="name" v="Tømmerås" />
		<tag k="place" v="farm" />
		<tag k="ssr:stedsnr" v="913041" />
	</node>
	<node id="-207530" lat="59.4661500011" lon="10.2801055526">
		<tag k="name" v="Tangen" />
		<tag k="place" v="farm" />
		<tag k="ssr:stedsnr" v="695852" />
	</node>
	<node id="-207529" lat="59.470294447" lon="10.3202777825">
		<tag k="name" v="Bentsrud" />
		<tag k="place" v="farm" />
		<tag k="ssr:stedsnr" v="609106" />
	</node>
	<node id="-207524" lat="59.5017194459" lon="10.2757472221">
		<tag k="name" v="Nordheim" />
		<tag k="place" v="farm" />
		<tag k="ssr:stedsnr" v="209834" />
	</node>
	<node id="-207521" lat="59.4989916692" lon="10.1966361178">
		<tag k="name" v="Vad" />
		<tag k="place" v="farm" />
		<tag k="ssr:stedsnr" v="573604" />
	</node>
	<node id="-207519" lat="59.5356527735" lon="10.1666499941">
		<tag k="name" v="Odderud" />
		<tag k="place" v="farm" />
		<tag k="ssr:stedsnr" v="634788" />
	</node>
	<node id="-207518" lat="59.5099222236" lon="10.2132444491">
		<tag k="name" v="Island" />
		<tag k="place" v="farm" />
		<tag k="ssr:stedsnr" v="271599" />
	</node>
	<node id="-207517" lat="59.4736555513" lon="10.3216638909">
		<tag k="name" v="Grefsrud" />
		<tag k="place" v="farm" />
		<tag k="ssr:stedsnr" v="609107" />
	</node>
	<node id="-207516" lat="59.5128361125" lon="10.2190916692">
		<tag k="name" v="Holtan" />
		<tag k="place" v="farm" />
		<tag k="ssr:stedsnr" v="149534" />
	</node>
	<node id="-207510" lat="59.504752777" lon="10.1637833322">
		<tag k="name" v="Kronlia" />
		<tag k="place" v="farm" />
		<tag k="ssr:stedsnr" v="245994" />
	</node>
	<node id="-207509" lat="59.5212615611" lon="10.1801352452">
		<tag k="alt_name" v="Bergan, s;Bergan søndre" />
		<tag k="name" v="Søndre Bergan" />
		<tag k="place" v="farm" />
		<tag k="ssr:stedsnr" v="306981" />
	</node>
	<node id="-207506" lat="59.4808583345" lon="10.2669305491">
		<tag k="name" v="Bekk" />
		<tag k="place" v="isolated_dwelling" />
		<tag k="ssr:stedsnr" v="245017" />
	</node>
	<node id="-207505" lat="59.4621638895" lon="10.2402027719">
		<tag k="name" v="Østsol" />
		<tag k="place" v="farm" />
		<tag k="ssr:stedsnr" v="391563" />
	</node>
	<node id="-207504" lat="59.5108833295" lon="10.2038027797">
		<tag k="name" v="Grelland" />
		<tag k="place" v="farm" />
		<tag k="ssr:stedsnr" v="149533" />
	</node>
	<node id="-207502" lat="59.520338886" lon="10.2772833332">
		<tag k="alt_name" v="Kleivan, øvre;Nordre Kleivan" />
		<tag k="name" v="Øvre Kleivan" />
		<tag k="place" v="farm" />
		<tag k="ssr:stedsnr" v="913988" />
	</node>
	<node id="-207500" lat="59.5361416631" lon="10.1624777855">
		<tag k="name" v="Traet" />
		<tag k="place" v="farm" />
		<tag k="ssr:stedsnr" v="792875" />
	</node>
	<node id="-207499" lat="59.4587888912" lon="10.2825166651">
		<tag k="alt_name" v="Kvån søndre" />
		<tag k="name" v="Kvån" />
		<tag k="place" v="farm" />
		<tag k="ssr:stedsnr" v="633809" />
	</node>
	<node id="-207496" lat="59.5300499989" lon="10.1722027745">
		<tag k="alt_name" v="Løken nordre" />
		<tag k="name" v="Løken" />
		<tag k="place" v="farm" />
		<tag k="ssr:stedsnr" v="306908" />
	</node>
	<node id="-207495" lat="59.4743583306" lon="10.1424277822">
		<tag k="name" v="Soaenga" />
		<tag k="place" v="farm" />
		<tag k="ssr:stedsnr" v="852099" />
	</node>
	<node id="-207493" lat="59.5403583331" lon="10.2112861063">
		<tag k="fixme" v="consider tourism=alpine_hut or tourism=chalet" />
		<tag k="name" v="Nordre Løkenseter" />
		<tag k="ssr:stedsnr" v="780286" />
		<tag k="tourism" v="wilderness_hut" />
	</node>
	<node id="-207492" lat="59.5250750021" lon="10.2464000002">
		<tag k="historic" v="shieling" />
		<tag k="name" v="Østre Liseter" />
		<tag k="place" v="locality" />
		<tag k="ssr:stedsnr" v="392595" />
	</node>
	<node id="-207491" lat="59.5050027771" lon="10.2949333306">
		<tag k="alt_name" v="Østre Ramberg" />
		<tag k="name" v="Ramberg" />
		<tag k="place" v="farm" />
		<tag k="ssr:stedsnr" v="245996" />
	</node>
	<node id="-207490" lat="59.4905416642" lon="10.2498555578">
		<tag k="name" v="Berg søndre" />
		<tag k="place" v="farm" />
		<tag k="ssr:stedsnr" v="938589" />
	</node>
	<node id="-207489" lat="59.4952777735" lon="10.2941055517">
		<tag k="alt_name" v="Sommerro" />
		<tag k="name" v="Sommero" />
		<tag k="place" v="farm" />
		<tag k="ssr:stedsnr" v="487046" />
	</node>
	<node id="-207488" lat="59.481750004" lon="10.3033305641">
		<tag k="name" v="Rolighet" />
		<tag k="place" v="farm" />
		<tag k="ssr:stedsnr" v="391872" />
	</node>
	<node id="-207484" lat="59.5035194402" lon="10.1839555513">
		<tag k="name" v="Broberg" />
		<tag k="place" v="farm" />
		<tag k="ssr:stedsnr" v="270635" />
	</node>
	<node id="-207483" lat="59.5349500039" lon="10.2330666625">
		<tag k="name" v="Slettaseter" />
		<tag k="place" v="isolated_dwelling" />
		<tag k="ssr:stedsnr" v="453538" />
	</node>
	<node id="-207482" lat="59.4893111079" lon="10.3168972189">
		<tag k="name" v="Thomas Bache-Gabrielsens plass" />
		<tag k="place" v="square" />
		<tag k="ssr:stedsnr" v="165770" />
	</node>
	<node id="-207479" lat="59.5132666634" lon="10.207647218">
		<tag k="name" v="Grelland" />
		<tag k="place" v="farm" />
		<tag k="ssr:stedsnr" v="756531" />
	</node>
	<node id="-207477" lat="59.476549999" lon="10.2900750069">
		<tag k="alt_name" v="Gunnerød" />
		<tag k="name" v="Gunnerud" />
		<tag k="place" v="farm" />
		<tag k="ssr:stedsnr" v="366023" />
	</node>
	<node id="-207475" lat="59.5210388922" lon="10.251661103">
		<tag k="name" v="Veierødsetra" />
		<tag k="place" v="isolated_dwelling" />
		<tag k="ssr:stedsnr" v="306985" />
	</node>
	<node id="-207473" lat="59.4610861068" lon="10.280286107">
		<tag k="name" v="Kvån nordre" />
		<tag k="place" v="farm" />
		<tag k="ssr:stedsnr" v="148804" />
	</node>
	<node id="-207471" lat="59.4819027753" lon="10.2461611129">
		<tag k="name" v="Løvald nordre" />
		<tag k="place" v="farm" />
		<tag k="ssr:stedsnr" v="938688" />
	</node>
	<node id="-207469" lat="59.4649111092" lon="10.251205556">
		<tag k="name" v="Fudske nordre" />
		<tag k="place" v="farm" />
		<tag k="ssr:stedsnr" v="391564" />
	</node>
	<node id="-207468" lat="59.459874999" lon="10.2887277725">
		<tag k="name" v="Kvån" />
		<tag k="place" v="farm" />
		<tag k="ssr:stedsnr" v="548107" />
	</node>
	<node id="-207467" lat="59.4941638873" lon="10.236433339">
		<tag k="name" v="Bringåker" />
		<tag k="place" v="farm" />
		<tag k="ssr:stedsnr" v="487050" />
	</node>
	<node id="-207466" lat="59.498902777" lon="10.2288166584">
		<tag k="name" v="Øde Bringaker" />
		<tag k="place" v="farm" />
		<tag k="ssr:stedsnr" v="755609" />
	</node>
	<node id="-207463" lat="59.4854638922" lon="10.247699996">
		<tag k="name" v="Nordby" />
		<tag k="place" v="farm" />
		<tag k="ssr:stedsnr" v="609014" />
	</node>
	<node id="-207462" lat="59.4742000011" lon="10.2769194406">
		<tag k="name" v="Nygård" />
		<tag k="place" v="farm" />
		<tag k="ssr:stedsnr" v="366086" />
	</node>
	<node id="-207461" lat="59.483513891" lon="10.2841222143">
		<tag k="name" v="Grønnmørk" />
		<tag k="place" v="farm" />
		<tag k="ssr:stedsnr" v="366022" />
	</node>
	<node id="-207459" lat="59.5394666649" lon="10.1645722211">
		<tag k="name" v="Haga" />
		<tag k="place" v="isolated_dwelling" />
		<tag k="ssr:stedsnr" v="453758" />
	</node>
	<node id="-207458" lat="59.5175638891" lon="10.1812861157">
		<tag k="name" v="Hillestad nordre" />
		<tag k="place" v="farm" />
		<tag k="ssr:stedsnr" v="756529" />
	</node>
	<node id="-207457" lat="59.470025003" lon="10.2447444502">
		<tag k="alt_name" v="Løvald søndre" />
		<tag k="name" v="Løvall" />
		<tag k="place" v="farm" />
		<tag k="ssr:stedsnr" v="791105" />
	</node>
	<node id="-207453" lat="59.4938999997" lon="10.1755055568">
		<tag k="name" v="Hegg" />
		<tag k="place" v="farm" />
		<tag k="ssr:stedsnr" v="695635" />
	</node>
	<node id="-207451" lat="59.5184388882" lon="10.1753361032">
		<tag k="name" v="Bergheim" />
		<tag k="place" v="isolated_dwelling" />
		<tag k="ssr:stedsnr" v="634562" />
	</node>
	<node id="-207450" lat="59.5019888868" lon="10.2003194504">
		<tag k="name" v="Solberg" />
		<tag k="place" v="farm" />
		<tag k="ssr:stedsnr" v="695638" />
	</node>
	<node id="-207449" lat="59.4910666671" lon="10.2746944412">
		<tag k="name" v="Barstad" />
		<tag k="place" v="farm" />
		<tag k="ssr:stedsnr" v="609001" />
	</node>
	<node id="-207446" lat="59.4698666654" lon="10.2961333296">
		<tag k="name" v="Skjeggestad" />
		<tag k="place" v="farm" />
		<tag k="ssr:stedsnr" v="306104" />
	</node>
	<node id="-207442" lat="59.5150166626" lon="10.2048833311">
		<tag k="name" v="Grelland" />
		<tag k="place" v="farm" />
		<tag k="ssr:stedsnr" v="853986" />
	</node>
	<node id="-207441" lat="59.5098805574" lon="10.1910222261">
		<tag k="name" v="Granly" />
		<tag k="place" v="farm" />
		<tag k="ssr:stedsnr" v="817522" />
	</node>
	<node id="-207439" lat="59.4709777771" lon="10.2577833393">
		<tag k="name" v="Korsgården nordre" />
		<tag k="place" v="farm" />
		<tag k="ssr:stedsnr" v="573673" />
	</node>
	<node id="-207437" lat="59.5239666701" lon="10.1663750061">
		<tag k="name" v="Brekke" />
		<tag k="place" v="farm" />
		<tag k="ssr:stedsnr" v="610927" />
	</node>
	<node id="-207436" lat="59.4919055599" lon="10.3076305497">
		<tag k="name" v="Rove" />
		<tag k="place" v="suburb" />
		<tag k="ssr:stedsnr" v="366008" />
	</node>
	<node id="-207433" lat="59.488794441" lon="10.275774995">
		<tag k="alt_name" v="Nordre Myhre" />
		<tag k="name" v="Myre" />
		<tag k="place" v="farm" />
		<tag k="ssr:stedsnr" v="366010" />
	</node>
	<node id="-207432" lat="59.5001000013" lon="10.2914638968">
		<tag k="name" v="Ekely" />
		<tag k="place" v="isolated_dwelling" />
		<tag k="ssr:stedsnr" v="938848" />
	</node>
	<node id="-207430" lat="59.5015027781" lon="10.296441668">
		<tag k="name" v="Fredheim" />
		<tag k="place" v="quarter" />
		<tag k="ssr:stedsnr" v="513071" />
	</node>
	<node id="-207429" lat="59.4700305534" lon="10.2447444426">
		<tag k="name" v="Greaker østre" />
		<tag k="place" v="farm" />
		<tag k="ssr:stedsnr" v="209699" />
	</node>
	<node id="-207427" lat="59.4790583364" lon="10.2643388832">
		<tag k="name" v="Knatten nordre" />
		<tag k="place" v="farm" />
		<tag k="ssr:stedsnr" v="573675" />
	</node>
	<node id="-207425" lat="59.4944749971" lon="10.2758749932">
		<tag k="name" v="Søndre Foss" />
		<tag k="place" v="farm" />
		<tag k="ssr:stedsnr" v="877852" />
	</node>
	<node id="-207421" lat="59.4963250045" lon="10.2733749961">
		<tag k="alt_name" v="Mellom Foss" />
		<tag k="name" v="Foss" />
		<tag k="place" v="farm" />
		<tag k="ssr:stedsnr" v="184038" />
	</node>
	<node id="-207420" lat="59.5086250021" lon="10.1771138861">
		<tag k="alt_name" v="Nes nedre" />
		<tag k="name" v="Nes" />
		<tag k="place" v="farm" />
		<tag k="ssr:stedsnr" v="428995" />
	</node>
	<node id="-207419" lat="59.5134277816" lon="10.1836527861">
		<tag k="name" v="Hillestad høye" />
		<tag k="place" v="farm" />
		<tag k="ssr:stedsnr" v="817517" />
	</node>
	<node id="-207418" lat="59.5525499986" lon="10.1631999944">
		<tag k="name" v="Østre Kaldåker" />
		<tag k="place" v="farm" />
		<tag k="ssr:stedsnr" v="756597" />
	</node>
	<node id="-207417" lat="59.4633361125" lon="10.2589194358">
		<tag k="alt_name" v="Rød, nordre" />
		<tag k="name" v="Nordre Rød" />
		<tag k="place" v="farm" />
		<tag k="ssr:stedsnr" v="306110" />
	</node>
	<node id="-207416" lat="59.490636109" lon="10.1702000086">
		<tag k="amenity" v="school" />
		<tag k="name" v="Hegg skole" />
		<tag k="ssr:stedsnr" v="573574" />
	</node>
	<node id="-207414" lat="59.5601388856" lon="10.1494499956">
		<tag k="name" v="Soltun" />
		<tag k="place" v="isolated_dwelling" />
		<tag k="ssr:stedsnr" v="28701" />
	</node>
	<node id="-207410" lat="59.4845388865" lon="10.2361861126">
		<tag k="name" v="Sukke" />
		<tag k="place" v="farm" />
		<tag k="ssr:stedsnr" v="366013" />
	</node>
	<node id="-207409" lat="59.4823333317" lon="10.2979166583">
		<tag k="amenity" v="school" />
		<tag k="name" v="Gjøklep ungd.skole" />
		<tag k="ssr:stedsnr" v="27864" />
	</node>
	<node id="-207407" lat="59.482649999" lon="10.2943583324">
		<tag k="amenity" v="school" />
		<tag k="name" v="Holmestrand yrkesskole" />
		<tag k="ssr:stedsnr" v="27867" />
	</node>
	<node id="-207406" lat="59.5056222191" lon="10.174036116">
		<tag k="name" v="Kronlia" />
		<tag k="place" v="farm" />
		<tag k="ssr:stedsnr" v="816669" />
	</node>
	<node id="-207405" lat="59.5043722197" lon="10.2094750052">
		<tag k="name" v="Østre Solberg" />
		<tag k="place" v="farm" />
		<tag k="ssr:stedsnr" v="573578" />
	</node>
	<node id="-207404" lat="59.487430557" lon="10.2946222183">
		<tag k="name" v="Haug" />
		<tag k="place" v="farm" />
		<tag k="ssr:stedsnr" v="938844" />
	</node>
	<node id="-207403" lat="59.5039249963" lon="10.2922666732">
		<tag k="name" v="Vestre Ramberg" />
		<tag k="place" v="farm" />
		<tag k="ssr:stedsnr" v="634858" />
	</node>
	<node id="-207401" lat="59.5028555598" lon="10.2495222191">
		<tag k="name" v="Gullhaug" />
		<tag k="place" v="village" />
		<tag k="ssr:stedsnr" v="730053" />
	</node>
	<node id="-207400" lat="59.5041305574" lon="10.2096055519">
		<tag k="alt_name" v="Solberg østre" />
		<tag k="name" v="Solberg" />
		<tag k="place" v="farm" />
		<tag k="ssr:stedsnr" v="367995" />
	</node>
	<node id="-207399" lat="59.5082277767" lon="10.1837166752">
		<tag k="name" v="Fjellhall" />
		<tag k="place" v="farm" />
		<tag k="ssr:stedsnr" v="877544" />
	</node>
	<node id="-207396" lat="59.4869666649" lon="10.2528388966">
		<tag k="alt_name" v="Guran" />
		<tag k="name" v="Gurann" />
		<tag k="place" v="farm" />
		<tag k="ssr:stedsnr" v="548006" />
	</node>
	<node id="-207395" lat="59.522205554" lon="10.280655549">
		<tag k="alt_name" v="Bråten" />
		<tag k="name" v="Bråtan" />
		<tag k="place" v="farm" />
		<tag k="ssr:stedsnr" v="913897" />
	</node>
	<node id="-207393" lat="59.5019166692" lon="10.1598055471">
		<tag k="name" v="Kronehytta" />
		<tag k="place" v="isolated_dwelling" />
		<tag k="ssr:stedsnr" v="88555" />
	</node>
	<node id="-207390" lat="59.5108305518" lon="10.2139666738">
		<tag k="name" v="Island" />
		<tag k="place" v="farm" />
		<tag k="ssr:stedsnr" v="578704" />
	</node>
	<node id="-207388" lat="59.4813083334" lon="10.2678472154">
		<tag k="name" v="Eknes" />
		<tag k="place" v="farm" />
		<tag k="ssr:stedsnr" v="27862" />
	</node>
	<node id="-207387" lat="59.5457138916" lon="10.1757361175">
		<tag k="alt_name" v="Dalsrud" />
		<tag k="name" v="Dalsrød" />
		<tag k="place" v="farm" />
		<tag k="ssr:stedsnr" v="185923" />
	</node>
	<node id="-207386" lat="59.5121055522" lon="10.2125222232">
		<tag k="name" v="Island" />
		<tag k="place" v="farm" />
		<tag k="ssr:stedsnr" v="574593" />
	</node>
	<node id="-207382" lat="59.4668583337" lon="10.1448277792">
		<tag k="name" v="Langeli" />
		<tag k="place" v="farm" />
		<tag k="ssr:stedsnr" v="63122" />
	</node>
	<node id="-207381" lat="59.4604027779" lon="10.2686694368">
		<tag k="name" v="Tufta" />
		<tag k="place" v="farm" />
		<tag k="ssr:stedsnr" v="755801" />
	</node>
	<node id="-207380" lat="59.4757055541" lon="10.2881361155">
		<tag k="name" v="Sandåker" />
		<tag k="place" v="farm" />
		<tag k="ssr:stedsnr" v="938861" />
	</node>
	<node id="-207378" lat="59.4838750015" lon="10.1889888908">
		<tag k="name" v="Hallingsrud" />
		<tag k="place" v="farm" />
		<tag k="ssr:stedsnr" v="791013" />
	</node>
	<node id="-207376" lat="59.4565638853" lon="10.304533333">
		<tag k="alt_name" v="Svinnsland" />
		<tag k="name" v="Svinsland" />
		<tag k="place" v="farm" />
		<tag k="ssr:stedsnr" v="2068" />
	</node>
	<node id="-207374" lat="59.4857888865" lon="10.2751861151">
		<tag k="name" v="Myhrely" />
		<tag k="place" v="isolated_dwelling" />
		<tag k="ssr:stedsnr" v="513868" />
	</node>
	<node id="-207373" lat="59.5199194436" lon="10.2621722239">
		<tag k="name" v="Fossglaneren" />
		<tag k="place" v="isolated_dwelling" />
		<tag k="ssr:stedsnr" v="331530" />
	</node>
	<node id="-207370" lat="59.4708250008" lon="10.3185722168">
		<tag k="name" v="Norsk Titanduk" />
		<tag k="place" v="quarter" />
		<tag k="ssr:stedsnr" v="270840" />
	</node>
	<node id="-207369" lat="59.5395305599" lon="10.1637861198">
		<tag k="name" v="Auerud" />
		<tag k="place" v="farm" />
		<tag k="ssr:stedsnr" v="392779" />
	</node>
	<node id="-207367" lat="59.5060249992" lon="10.1714222202">
		<tag k="name" v="Teien" />
		<tag k="place" v="farm" />
		<tag k="ssr:stedsnr" v="877644" />
	</node>
	<node id="-207366" lat="59.5089083298" lon="10.2013805495">
		<tag k="name" v="Rønningen" />
		<tag k="place" v="farm" />
		<tag k="ssr:stedsnr" v="634570" />
	</node>
	<node id="-207363" lat="59.4727666697" lon="10.3044694526">
		<tag k="name" v="Bakke" />
		<tag k="place" v="farm" />
		<tag k="ssr:stedsnr" v="548085" />
	</node>
	<node id="-207361" lat="59.4948083329" lon="10.2824111199">
		<tag k="alt_name" v="Vestre Gudum" />
		<tag k="name" v="Gudum" />
		<tag k="place" v="farm" />
		<tag k="ssr:stedsnr" v="730049" />
	</node>
	<node id="-207360" lat="59.4767194458" lon="10.15026944">
		<tag k="name" v="Sætra" />
		<tag k="place" v="isolated_dwelling" />
		<tag k="ssr:stedsnr" v="306101" />
	</node>
	<node id="-207359" lat="59.4644583367" lon="10.2881444483">
		<tag k="name" v="Tverdal" />
		<tag k="place" v="farm" />
		<tag k="ssr:stedsnr" v="755797" />
	</node>
	<node id="-207358" lat="59.4839194476" lon="10.2991027732">
		<tag k="leisure" v="pitch" />
		<tag k="name" v="Hvitstein stadion" />
		<tag k="ssr:stedsnr" v="270838" />
	</node>
	<node id="-207355" lat="59.5094083365" lon="10.1920166694">
		<tag k="name" v="Fagerheim" />
		<tag k="place" v="isolated_dwelling" />
		<tag k="ssr:stedsnr" v="695538" />
	</node>
	<node id="-207354" lat="59.4849111097" lon="10.15455834">
		<tag k="name" v="Skarrbo" />
		<tag k="place" v="farm" />
		<tag k="ssr:stedsnr" v="488021" />
	</node>
	<node id="-207352" lat="59.5403972205" lon="10.2112055472">
		<tag k="name" v="Løkenseter nord" />
		<tag k="place" v="isolated_dwelling" />
		<tag k="ssr:stedsnr" v="331755" />
	</node>
	<node id="-207351" lat="59.509719449" lon="10.1778666671">
		<tag k="name" v="Nes øvre" />
		<tag k="place" v="farm" />
		<tag k="ssr:stedsnr" v="634567" />
	</node>
	<node id="-207348" lat="59.4642722189" lon="10.2916249925">
		<tag k="name" v="Tverdal" />
		<tag k="place" v="farm" />
		<tag k="ssr:stedsnr" v="573772" />
	</node>
	<node id="-207345" lat="59.4788722251" lon="10.2791555498">
		<tag k="name" v="Botne prestegård" />
		<tag k="place" v="farm" />
		<tag k="ssr:stedsnr" v="634872" />
	</node>
	<node id="-207344" lat="59.4600861103" lon="10.2403666676">
		<tag k="name" v="Vidskjold nordre" />
		<tag k="place" v="farm" />
		<tag k="ssr:stedsnr" v="331540" />
	</node>
	<node id="-207343" lat="59.4803138848" lon="10.2870333385">
		<tag k="name" v="Gunnerud" />
		<tag k="place" v="farm" />
		<tag k="ssr:stedsnr" v="938855" />
	</node>
	<node id="-207342" lat="59.4736388885" lon="10.1856083358">
		<tag k="name" v="Barkost" />
		<tag k="place" v="farm" />
		<tag k="ssr:stedsnr" v="306098" />
	</node>
	<node id="-207341" lat="59.5002472264" lon="10.2270500021">
		<tag k="name" v="Bringaker nordre" />
		<tag k="place" v="farm" />
		<tag k="ssr:stedsnr" v="88552" />
	</node>
	<node id="-207339" lat="59.4656555598" lon="10.2943500055">
		<tag k="name" v="Tverrdal" />
		<tag k="place" v="farm" />
		<tag k="ssr:stedsnr" v="123121" />
	</node>
	<node id="-207337" lat="59.4862583338" lon="10.1791583349">
		<tag k="name" v="Bekkebråten" />
		<tag k="place" v="farm" />
		<tag k="ssr:stedsnr" v="573567" />
	</node>
	<node id="-207335" lat="59.4792111109" lon="10.1641611042">
		<tag k="name" v="Holm" />
		<tag k="place" v="farm" />
		<tag k="ssr:stedsnr" v="488023" />
	</node>
	<node id="-207331" lat="59.509200003" lon="10.1624861105">
		<tag k="name" v="Strand" />
		<tag k="place" v="farm" />
		<tag k="ssr:stedsnr" v="367998" />
	</node>
	<node id="-207330" lat="59.4588416642" lon="10.2401527822">
		<tag k="alt_name" v="Vidskjold søndre" />
		<tag k="name" v="Vidskjøld" />
		<tag k="place" v="farm" />
		<tag k="ssr:stedsnr" v="913109" />
	</node>
	<node id="-207328" lat="59.5104749993" lon="10.2840111131">
		<tag k="alt_name" v="Kleiverud" />
		<tag k="name" v="Kleiverød" />
		<tag k="place" v="farm" />
		<tag k="ssr:stedsnr" v="185998" />
	</node>
	<node id="-207327" lat="59.4737138853" lon="10.2600333389">
		<tag k="name" v="Granli" />
		<tag k="place" v="isolated_dwelling" />
		<tag k="ssr:stedsnr" v="877717" />
	</node>
	<node id="-207326" lat="59.5141916708" lon="10.2824777841">
		<tag k="name" v="Søndre Kleivan" />
		<tag k="place" v="quarter" />
		<tag k="ssr:stedsnr" v="597304" />
	</node>
	<node id="-207322" lat="59.4636000006" lon="10.2452249916">
		<tag k="name" v="Greaker søndre" />
		<tag k="place" v="farm" />
		<tag k="ssr:stedsnr" v="452559" />
	</node>
	<node id="-207321" lat="59.4995416623" lon="10.2853999953">
		<tag k="name" v="Søndre Gaupås" />
		<tag k="place" v="farm" />
		<tag k="ssr:stedsnr" v="27849" />
	</node>
	<node id="-207320" lat="59.4695611138" lon="10.2575055638">
		<tag k="alt_name" v="Korsgården søndre" />
		<tag k="name" v="Korsgården" />
		<tag k="place" v="farm" />
		<tag k="ssr:stedsnr" v="63117" />
	</node>
	<node id="-207319" lat="59.5364805554" lon="10.1720027797">
		<tag k="alt_name" v="Hvittingsrud" />
		<tag k="name" v="Hvitingsrød" />
		<tag k="place" v="farm" />
		<tag k="ssr:stedsnr" v="853896" />
	</node>
	<node id="-207318" lat="59.5024276842" lon="10.2494051056">
		<tag k="fixme" v="consider place=hamlet" />
		<tag k="name" v="Godaker lille" />
		<tag k="place" v="farm" />
		<tag k="ssr:stedsnr" v="977295" />
	</node>
	<node id="-207316" lat="59.4633277796" lon="10.2278472217">
		<tag k="name" v="Vidskjold grustak" />
		<tag k="place" v="quarter" />
		<tag k="ssr:stedsnr" v="452564" />
	</node>
	<node id="-207315" lat="59.4765500003" lon="10.1798194423">
		<tag k="name" v="Barkost" />
		<tag k="place" v="farm" />
		<tag k="ssr:stedsnr" v="270705" />
	</node>
	<node id="-207314" lat="59.487611111" lon="10.3175833346">
		<tag k="name" v="Holmestrand" />
		<tag k="place" v="town" />
		<tag k="ssr:stedsnr" v="670011" />
	</node>
	<node id="-207312" lat="59.4951111135" lon="10.2086638928">
		<tag k="name" v="Ende" />
		<tag k="place" v="farm" />
		<tag k="ssr:stedsnr" v="816649" />
	</node>
	<node id="-207311" lat="59.5272694414" lon="10.2801166711">
		<tag k="name" v="Smørstein" />
		<tag k="place" v="isolated_dwelling" />
		<tag k="ssr:stedsnr" v="246870" />
	</node>
	<node id="-207310" lat="59.5015305568" lon="10.2623666739">
		<tag k="alt_name" v="Sollie" />
		<tag k="name" v="Solli" />
		<tag k="place" v="farm" />
		<tag k="ssr:stedsnr" v="367982" />
	</node>
	<node id="-207308" lat="59.4973805519" lon="10.2374250058">
		<tag k="name" v="Østre Bringaker" />
		<tag k="place" v="farm" />
		<tag k="ssr:stedsnr" v="270596" />
	</node>
	<node id="-207307" lat="59.5065888873" lon="10.2406111024">
		<tag k="alt_name" v="Nedre Li" />
		<tag k="name" v="Li" />
		<tag k="place" v="farm" />
		<tag k="ssr:stedsnr" v="64000" />
	</node>
	<node id="-207306" lat="59.5095999979" lon="10.1880722286">
		<tag k="name" v="Hillestad" />
		<tag k="place" v="farm" />
		<tag k="ssr:stedsnr" v="331520" />
	</node>
	<node id="-207305" lat="59.5404916698" lon="10.1630027785">
		<tag k="name" v="Fjellbakken" />
		<tag k="place" v="isolated_dwelling" />
		<tag k="ssr:stedsnr" v="938739" />
	</node>
	<node id="-207304" lat="59.5071833327" lon="10.2344638846">
		<tag k="name" v="Øvre Li" />
		<tag k="place" v="farm" />
		<tag k="ssr:stedsnr" v="27628" />
	</node>
	<node id="-207301" lat="59.5105972208" lon="10.1852999932">
		<tag k="name" v="Hillestad søndre" />
		<tag k="place" v="farm" />
		<tag k="ssr:stedsnr" v="210524" />
	</node>
	<node id="-207300" lat="59.534175004" lon="10.168155552">
		<tag k="alt_name" v="Odderud" />
		<tag k="name" v="Odderød" />
		<tag k="place" v="farm" />
		<tag k="ssr:stedsnr" v="3880" />
	</node>
	<node id="-207297" lat="59.5022972265" lon="10.2430416705">
		<tag k="name" v="Sletten" />
		<tag k="place" v="farm" />
		<tag k="ssr:stedsnr" v="695607" />
	</node>
	<node id="-207296" lat="59.5114666708" lon="10.278319437">
		<tag k="name" v="Ødgardshytta" />
		<tag k="place" v="isolated_dwelling" />
		<tag k="ssr:stedsnr" v="877004" />
	</node>
	<node id="-207295" lat="59.4993194437" lon="10.1751527822">
		<tag k="name" v="Hegg" />
		<tag k="place" v="farm" />
		<tag k="ssr:stedsnr" v="513653" />
	</node>
	<node id="-207294" lat="59.5349805536" lon="10.2253944524">
		<tag k="name" v="Tyristua" />
		<tag k="place" v="isolated_dwelling" />
		<tag k="ssr:stedsnr" v="513545" />
	</node>
	<node id="-207293" lat="59.5264722225" lon="10.1658305469">
		<tag k="name" v="Åsvang" />
		<tag k="place" v="isolated_dwelling" />
		<tag k="ssr:stedsnr" v="513549" />
	</node>
	<node id="-207291" lat="59.475658334" lon="10.3189888974">
		<tag k="name" v="Alfheim" />
		<tag k="place" v="farm" />
		<tag k="ssr:stedsnr" v="88851" />
	</node>
	<node id="-207290" lat="59.5016861075" lon="10.3005138813">
		<tag k="name" v="Tvillingbru" />
		<tag k="place" v="isolated_dwelling" />
		<tag k="ssr:stedsnr" v="367990" />
	</node>
	<node id="-207288" lat="59.5275638858" lon="10.2408749962">
		<tag k="name" v="Vestre Liseter" />
		<tag k="place" v="isolated_dwelling" />
		<tag k="ssr:stedsnr" v="428903" />
	</node>
	<node id="-207287" lat="59.4965944414" lon="10.2948305507">
		<tag k="name" v="Svartebu" />
		<tag k="place" v="quarter" />
		<tag k="ssr:stedsnr" v="331829" />
	</node>
	<node id="-207286" lat="59.5517499984" lon="10.1702194399">
		<tag k="alt_name" v="Bergan, nordre" />
		<tag k="name" v="Nordre Bergan" />
		<tag k="place" v="farm" />
		<tag k="ssr:stedsnr" v="731908" />
	</node>
	<node id="-207285" lat="59.5630472267" lon="10.1763833265">
		<tag k="name" v="Jansen" />
		<tag k="place" v="isolated_dwelling" />
		<tag k="ssr:stedsnr" v="185047" />
	</node>
	<node id="-207283" lat="59.4808750032" lon="10.2466277833">
		<tag k="alt_name" v="Løvald østre" />
		<tag k="name" v="Løvall" />
		<tag k="place" v="farm" />
		<tag k="ssr:stedsnr" v="488014" />
	</node>
	<node id="-207282" lat="59.4701750001" lon="10.286408332">
		<tag k="name" v="Goddok" />
		<tag k="place" v="farm" />
		<tag k="ssr:stedsnr" v="88848" />
	</node>
	<node id="-207278" lat="59.4903250013" lon="10.2132500028">
		<tag k="name" v="Løkka" />
		<tag k="place" v="farm" />
		<tag k="ssr:stedsnr" v="913001" />
	</node>
	<node id="-207276" lat="59.5019972188" lon="10.2042916727">
		<tag k="name" v="Solberg" />
		<tag k="place" v="farm" />
		<tag k="ssr:stedsnr" v="27622" />
	</node>
	<node id="-207274" lat="59.4913722178" lon="10.1602027817">
		<tag k="name" v="Vestskogen" />
		<tag k="place" v="farm" />
		<tag k="ssr:stedsnr" v="816640" />
	</node>
	<node id="-207273" lat="59.494269441" lon="10.1732722209">
		<tag k="name" v="Hegg" />
		<tag k="place" v="farm" />
		<tag k="ssr:stedsnr" v="512646" />
	</node>
	<node id="-207271" lat="59.4803138929" lon="10.1753194397">
		<tag k="name" v="Gutu" />
		<tag k="place" v="farm" />
		<tag k="ssr:stedsnr" v="730022" />
	</node>
	<node id="-207269" lat="59.5238444479" lon="10.171841664">
		<tag k="name" v="Løken" />
		<tag k="place" v="farm" />
		<tag k="ssr:stedsnr" v="513551" />
	</node>
	<node id="-207267" lat="59.5005166677" lon="10.267738896">
		<tag k="name" v="Hagan" />
		<tag k="place" v="isolated_dwelling" />
		<tag k="ssr:stedsnr" v="270820" />
	</node>
	<node id="-207264" lat="59.4804666695" lon="10.3051027824">
		<tag k="alt_name" v="Gjøklep nedre" />
		<tag k="name" v="Gjøklepp" />
		<tag k="place" v="farm" />
		<tag k="ssr:stedsnr" v="63037" />
	</node>
	<node id="-207261" lat="59.4600888927" lon="10.3140555606">
		<tag k="name" v="Kiste" />
		<tag k="place" v="farm" />
		<tag k="ssr:stedsnr" v="185115" />
	</node>
	<node id="-207260" lat="59.4524250004" lon="10.2381194466">
		<tag k="name" v="Åsen" />
		<tag k="place" v="farm" />
		<tag k="ssr:stedsnr" v="791071" />
	</node>
	<node id="-207259" lat="59.5010499998" lon="10.2199722205">
		<tag k="name" v="Bringaker nordre" />
		<tag k="place" v="farm" />
		<tag k="ssr:stedsnr" v="695622" />
	</node>
	<node id="-207258" lat="59.495658329" lon="10.1745111028">
		<tag k="name" v="Hegg" />
		<tag k="place" v="farm" />
		<tag k="ssr:stedsnr" v="148652" />
	</node>
	<node id="-207257" lat="59.5076249963" lon="10.2139083383">
		<tag k="name" v="Søndre Island" />
		<tag k="place" v="farm" />
		<tag k="ssr:stedsnr" v="27618" />
	</node>
	<node id="-207256" lat="59.4860666696" lon="10.13653612">
		<tag k="name" v="Askerud" />
		<tag k="place" v="farm" />
		<tag k="ssr:stedsnr" v="184016" />
	</node>
	<node id="-207254" lat="59.4707777752" lon="10.3024666695">
		<tag k="name" v="Bakke" />
		<tag k="place" v="farm" />
		<tag k="ssr:stedsnr" v="452867" />
	</node>
	<node id="-207251" lat="59.4981666693" lon="10.2996194368">
		<tag k="name" v="Solberg" />
		<tag k="place" v="farm" />
		<tag k="ssr:stedsnr" v="245055" />
	</node>
	<node id="-207250" lat="59.485711107" lon="10.1620361157">
		<tag k="name" v="Moen" />
		<tag k="place" v="farm" />
		<tag k="ssr:stedsnr" v="877625" />
	</node>
	<node id="-207249" lat="59.5146833323" lon="10.2912166605">
		<tag k="name" v="Hasselbakken" />
		<tag k="place" v="farm" />
		<tag k="ssr:stedsnr" v="392033" />
	</node>
	<node id="-207248" lat="59.4999250899" lon="10.2574611296">
		<tag k="name" v="Godaker store" />
		<tag k="place" v="farm" />
		<tag k="ssr:stedsnr" v="88531" />
	</node>
	<node id="-207247" lat="59.4782888917" lon="10.2624194502">
		<tag k="alt_name" v="Knatten søndre" />
		<tag k="name" v="Knatten" />
		<tag k="place" v="farm" />
		<tag k="ssr:stedsnr" v="913015" />
	</node>
	<node id="-207246" lat="59.5040888911" lon="10.2186222297">
		<tag k="name" v="Nordre Bringaker" />
		<tag k="place" v="farm" />
		<tag k="ssr:stedsnr" v="695623" />
	</node>
	<node id="-207244" lat="59.5105944467" lon="10.2314277844">
		<tag k="alt_name" v="Skaug øvre" />
		<tag k="name" v="Skog" />
		<tag k="place" v="isolated_dwelling" />
		<tag k="ssr:stedsnr" v="731999" />
	</node>
	<node id="-207243" lat="59.4917999999" lon="10.1814305637">
		<tag k="name" v="Skogheim" />
		<tag k="place" v="isolated_dwelling" />
		<tag k="ssr:stedsnr" v="877627" />
	</node>
	<node id="-207242" lat="59.4938361143" lon="10.2721861133">
		<tag k="name" v="Granhaug" />
		<tag k="place" v="isolated_dwelling" />
		<tag k="ssr:stedsnr" v="634855" />
	</node>
	<node id="-207241" lat="59.4999250024" lon="10.253097218">
		<tag k="name" v="Gullhaug" />
		<tag k="place" v="farm" />
		<tag k="ssr:stedsnr" v="27615" />
	</node>
	<node id="-207239" lat="59.5022722229" lon="10.2543999926">
		<tag k="name" v="Solskogen" />
		<tag k="place" v="isolated_dwelling" />
		<tag k="ssr:stedsnr" v="88535" />
	</node>
	<node id="-207237" lat="59.5253583341" lon="10.171608334">
		<tag k="name" v="Borge" />
		<tag k="place" v="farm" />
		<tag k="ssr:stedsnr" v="574569" />
	</node>
	<node id="-207236" lat="59.4724916676" lon="10.2435111198">
		<tag k="name" v="Greaker nordre" />
		<tag k="place" v="farm" />
		<tag k="ssr:stedsnr" v="391714" />
	</node>
	<node id="-207234" lat="59.4638194405" lon="10.3009138935">
		<tag k="name" v="Helgestad" />
		<tag k="place" v="farm" />
		<tag k="ssr:stedsnr" v="2124" />
	</node>
	<node id="-207232" lat="59.5090500032" lon="10.2256833315">
		<tag k="alt_name" v="Hynnås nordre" />
		<tag k="name" v="Hynnås" />
		<tag k="place" v="farm" />
		<tag k="ssr:stedsnr" v="549998" />
	</node>
	<node id="-207229" lat="59.5139305582" lon="10.2059777739">
		<tag k="name" v="Grelland" />
		<tag k="place" v="farm" />
		<tag k="ssr:stedsnr" v="574571" />
	</node>
	<node id="-207227" lat="59.4991250009" lon="10.2169888837">
		<tag k="name" v="Lakjeld" />
		<tag k="place" v="farm" />
		<tag k="ssr:stedsnr" v="791066" />
	</node>
	<node id="-207226" lat="59.5399694443" lon="10.1647611161">
		<tag k="name" v="Auerud" />
		<tag k="place" v="isolated_dwelling" />
		<tag k="ssr:stedsnr" v="331735" />
	</node>
	<node id="-207221" lat="59.5025444444" lon="10.2129472151">
		<tag k="name" v="Solberg" />
		<tag k="place" v="farm" />
		<tag k="ssr:stedsnr" v="816652" />
	</node>
	<node id="-207220" lat="59.5424499977" lon="10.1648333255">
		<tag k="alt_name" v="Auerud" />
		<tag k="name" v="Auerød" />
		<tag k="place" v="farm" />
		<tag k="ssr:stedsnr" v="64946" />
	</node>
	<node id="-207219" lat="59.5570861146" lon="10.1460888937">
		<tag k="name" v="Bakke" />
		<tag k="place" v="farm" />
		<tag k="ssr:stedsnr" v="792906" />
	</node>
	<node id="-207215" lat="59.5409583351" lon="10.2016666609">
		<tag k="name" v="Brekkeseter" />
		<tag k="place" v="isolated_dwelling" />
		<tag k="ssr:stedsnr" v="28767" />
	</node>
	<node id="-207213" lat="59.5187749971" lon="10.2860777828">
		<tag k="name" v="Åsen" />
		<tag k="place" v="farm" />
		<tag k="ssr:stedsnr" v="185978" />
	</node>
	<node id="-207210" lat="59.4785472204" lon="10.3319222183">
		<tag k="name" v="Holmestrand kornsilo" />
		<tag k="place" v="locality" />
		<tag k="ssr:stedsnr" v="634949" />
	</node>
	<node id="-207209" lat="59.5270166683" lon="10.1722222294">
		<tag k="name" v="Løken" />
		<tag k="place" v="farm" />
		<tag k="ssr:stedsnr" v="331512" />
	</node>
	<node id="-207207" lat="59.5330222227" lon="10.2392472244">
		<tag k="fixme" v="consider tourism=alpine_hut or tourism=chalet" />
		<tag k="name" v="Brannåsen turisthytte" />
		<tag k="ssr:stedsnr" v="453496" />
		<tag k="tourism" v="wilderness_hut" />
	</node>
	<node id="-207206" lat="59.5037666637" lon="10.1616638807">
		<tag k="name" v="Krone" />
		<tag k="place" v="farm" />
		<tag k="ssr:stedsnr" v="63984" />
	</node>
	<node id="-207203" lat="59.5059277747" lon="10.1790527847">
		<tag k="name" v="Løvheim" />
		<tag k="place" v="farm" />
		<tag k="ssr:stedsnr" v="331622" />
	</node>
	<node id="-207202" lat="59.4982527794" lon="10.2339916603">
		<tag k="name" v="Bringaker mellom" />
		<tag k="place" v="farm" />
		<tag k="ssr:stedsnr" v="27607" />
	</node>
	<node id="-207201" lat="59.4976249985" lon="10.2067249978">
		<tag k="name" v="Ende" />
		<tag k="place" v="farm" />
		<tag k="ssr:stedsnr" v="427050" />
	</node>
	<node id="-207200" lat="59.5066388883" lon="10.1813250054">
		<tag k="name" v="Neshaugen" />
		<tag k="place" v="farm" />
		<tag k="ssr:stedsnr" v="331619" />
	</node>
	<node id="-207198" lat="59.5121388859" lon="10.1875277804">
		<tag k="name" v="Hillestad lille" />
		<tag k="place" v="farm" />
		<tag k="ssr:stedsnr" v="938528" />
	</node>
	<node id="-207197" lat="59.5566333375" lon="10.1459138917">
		<tag k="name" v="Vollen" />
		<tag k="place" v="farm" />
		<tag k="ssr:stedsnr" v="210708" />
	</node>
	<node id="-207196" lat="59.5329835274" lon="10.2393047019">
		<tag k="alt_name" v="Brannåsen turisthytte" />
		<tag k="fixme" v="consider tourism=alpine_hut or tourism=chalet" />
		<tag k="name" v="Brannåshytta" />
		<tag k="ssr:stedsnr" v="173277" />
		<tag k="tourism" v="wilderness_hut" />
	</node>
</osm>
