<?xml version="1.0" encoding="UTF-8"?>
<osm generator="osmapis" version="0.6">
	<node id="-207869" lat="59.6120777779" lon="10.0415527861">
		<tag k="alt_name" v="Sauebekken" />
		<tag k="name" v="Saubekken" />
		<tag k="ssr:stedsnr" v="853098" />
		<tag k="waterway" v="stream" />
	</node>
	<node id="-207860" lat="59.5881194448" lon="9.95357777196">
		<tag k="name" v="Blåtjern" />
		<tag k="natural" v="water" />
		<tag k="ssr:stedsnr" v="752413" />
	</node>
	<node id="-208371" lat="59.5271166688" lon="10.0330722254">
		<tag k="name" v="Korselv" />
		<tag k="ssr:stedsnr" v="449412" />
		<tag k="waterway" v="stream" />
	</node>
	<node id="-207857" lat="59.6279944435" lon="9.99088054737">
		<tag k="name" v="Torrudøya" />
		<tag k="place" v="islet" />
		<tag k="ssr:stedsnr" v="853071" />
	</node>
	<node id="-207854" lat="59.573383332" lon="10.0756027759">
		<tag k="name" v="Næss-nordre" />
		<tag k="place" v="islet" />
		<tag k="ssr:stedsnr" v="28367" />
	</node>
	<node id="-207334" lat="59.4565861074" lon="10.2934777717">
		<tag k="name" v="Vesleelva" />
		<tag k="ssr:stedsnr" v="452795" />
		<tag k="waterway" v="stream" />
	</node>
	<node id="-207332" lat="59.5371888904" lon="10.1979805587">
		<tag k="name" v="Svartebekk" />
		<tag k="ssr:stedsnr" v="817741" />
		<tag k="waterway" v="stream" />
	</node>
	<node id="-208355" lat="59.6110777789" lon="10.0530083287">
		<tag k="name" v="Stordalsbekken" />
		<tag k="ssr:stedsnr" v="877738" />
		<tag k="waterway" v="stream" />
	</node>
	<node id="-208354" lat="59.5296166623" lon="10.0103861095">
		<tag k="name" v="Vrifoss" />
		<tag k="natural" v="waterfall" />
		<tag k="ssr:stedsnr" v="573474" />
	</node>
	<node id="-207841" lat="59.5216416637" lon="10.0807583261">
		<tag k="name" v="Grønsethbekken" />
		<tag k="ssr:stedsnr" v="89383" />
		<tag k="waterway" v="stream" />
	</node>
	<node id="-207833" lat="59.5833833344" lon="10.078400005">
		<tag k="name" v="Rødsbekken" />
		<tag k="ssr:stedsnr" v="89381" />
		<tag k="waterway" v="stream" />
	</node>
	<node id="-208342" lat="59.575847606" lon="10.0654472576">
		<tag k="name" v="Bergsvannet" />
		<tag k="natural" v="water" />
		<tag k="ssr:stedsnr" v="671119" />
		<tag k="water" v="lake" />
	</node>
	<node id="-207827" lat="59.5742666681" lon="9.97689444239">
		<tag k="name" v="Kutjern" />
		<tag k="natural" v="water" />
		<tag k="ssr:stedsnr" v="145433" />
	</node>
	<node id="-207825" lat="59.4953750044" lon="10.0975083252">
		<tag k="name" v="Midtvannsgrunn" />
		<tag k="place" v="islet" />
		<tag k="ssr:stedsnr" v="452047" />
	</node>
	<node id="-208335" lat="59.5281" lon="10.1178805574">
		<tag k="name" v="Haugestadvannet" />
		<tag k="natural" v="water" />
		<tag k="ssr:stedsnr" v="306904" />
		<tag k="water" v="lake" />
	</node>
	<node id="-207819" lat="59.6145361148" lon="10.0301472163">
		<tag k="name" v="Kjennabekken" />
		<tag k="ssr:stedsnr" v="211304" />
		<tag k="waterway" v="stream" />
	</node>
	<node id="-207299" lat="59.5094277817" lon="10.1716055576">
		<tag k="name" v="Nesvangen" />
		<tag k="natural" v="cape" />
		<tag k="ssr:stedsnr" v="331517" />
	</node>
	<node id="-207810" lat="59.5205305525" lon="10.1295666745">
		<tag k="name" v="Nøtneselva" />
		<tag k="ssr:stedsnr" v="574385" />
		<tag k="waterway" v="river" />
	</node>
	<node id="-207809" lat="59.533436108" lon="9.98888054717">
		<tag k="name" v="Kluftbekken" />
		<tag k="ssr:stedsnr" v="392564" />
		<tag k="waterway" v="stream" />
	</node>
	<node id="-207806" lat="59.5421305525" lon="10.1110250079">
		<tag k="name" v="Vikevannet" />
		<tag k="natural" v="water" />
		<tag k="ssr:stedsnr" v="609935" />
		<tag k="water" v="lake" />
	</node>
	<node id="-208316" lat="59.6166388895" lon="10.0684055546">
		<tag k="name" v="Laksetjernet" />
		<tag k="natural" v="water" />
		<tag k="ssr:stedsnr" v="550082" />
	</node>
	<node id="-207289" lat="59.5596861103" lon="10.1346222236">
		<tag k="alt_name" v="Tømmeråstj." />
		<tag k="name" v="Tømmeråstjernet" />
		<tag k="natural" v="water" />
		<tag k="ssr:stedsnr" v="731037" />
	</node>
	<node id="-207800" lat="59.54419722" lon="10.0139888901">
		<tag k="name" v="Østelva" />
		<tag k="ssr:stedsnr" v="331508" />
		<tag k="waterway" v="river" />
	</node>
	<node id="-208311" lat="59.5367583378" lon="10.0136805599">
		<tag k="name" v="Fossnesseterbekken" />
		<tag k="ssr:stedsnr" v="149509" />
		<tag k="waterway" v="stream" />
	</node>
	<node id="-207945" lat="59.6459472206" lon="9.99288056178">
		<tag k="name" v="Skjellingsbekken" />
		<tag k="ssr:stedsnr" v="635274" />
		<tag k="waterway" v="stream" />
	</node>
	<node id="-208307" lat="59.5706222215" lon="9.94793332911">
		<tag k="name" v="Maurtjern" />
		<tag k="natural" v="water" />
		<tag k="ssr:stedsnr" v="573456" />
	</node>
	<node id="-207794" lat="59.5577749992" lon="10.0783166711">
		<tag k="name" v="Østbybekken" />
		<tag k="ssr:stedsnr" v="870769" />
		<tag k="waterway" v="stream" />
	</node>
	<node id="-208294" lat="59.5150999977" lon="10.1551083278">
		<tag k="name" v="Hillestadvannet" />
		<tag k="natural" v="water" />
		<tag k="ssr:stedsnr" v="610989" />
		<tag k="water" v="lake" />
	</node>
	<node id="-208290" lat="59.5278972259" lon="10.0370472266">
		<tag k="name" v="Breibekk" />
		<tag k="ssr:stedsnr" v="328416" />
		<tag k="waterway" v="stream" />
	</node>
	<node id="-208289" lat="59.5239500017" lon="10.0426333254">
		<tag k="name" v="Lianelva" />
		<tag k="ssr:stedsnr" v="124857" />
		<tag k="waterway" v="river" />
	</node>
	<node id="-208284" lat="59.5690250003" lon="10.0533888888">
		<tag k="name" v="Hemsbekken" />
		<tag k="ssr:stedsnr" v="513670" />
		<tag k="waterway" v="stream" />
	</node>
	<node id="-208277" lat="59.570638889" lon="9.96618056123">
		<tag k="name" v="Bingtjernet" />
		<tag k="natural" v="water" />
		<tag k="ssr:stedsnr" v="793397" />
	</node>
	<node id="-207764" lat="59.4588833377" lon="10.0758333417">
		<tag k="name" v="Gampedalsbekken" />
		<tag k="ssr:stedsnr" v="330110" />
		<tag k="waterway" v="stream" />
	</node>
	<node id="-208274" lat="59.5375583306" lon="10.0661666593">
		<tag k="name" v="Lindsetbekken" />
		<tag k="ssr:stedsnr" v="89285" />
		<tag k="waterway" v="stream" />
	</node>
	<node id="-208272" lat="59.5950499963" lon="10.1114555529">
		<tag k="name" v="Djupdalstjern" />
		<tag k="natural" v="water" />
		<tag k="ssr:stedsnr" v="246037" />
	</node>
	<node id="-208268" lat="59.6037666705" lon="10.0591944389">
		<tag k="name" v="Heierstadbekken" />
		<tag k="ssr:stedsnr" v="149709" />
		<tag k="waterway" v="stream" />
	</node>
	<node id="-207754" lat="59.5189250014" lon="10.0151833246">
		<tag k="name" v="Åsbekken" />
		<tag k="ssr:stedsnr" v="510460" />
		<tag k="waterway" v="stream" />
	</node>
	<node id="-207745" lat="59.4894777739" lon="10.0574861067">
		<tag k="name" v="Nedrebekk" />
		<tag k="ssr:stedsnr" v="633038" />
		<tag k="waterway" v="stream" />
	</node>
	<node id="-208254" lat="59.5908166667" lon="10.0543027853">
		<tag k="alt_name" v="Bjerkøya" />
		<tag k="name" v="Bjørkøya" />
		<tag k="place" v="island" />
		<tag k="ssr:stedsnr" v="246033" />
	</node>
	<node id="-208251" lat="59.5974500021" lon="9.96945278314">
		<tag k="name" v="Sjulerudbekken" />
		<tag k="ssr:stedsnr" v="271336" />
		<tag k="waterway" v="stream" />
	</node>
	<node id="-207252" lat="59.531481342" lon="10.2093050315">
		<tag k="name" v="Bergantjern" />
		<tag k="natural" v="water" />
		<tag k="ssr:stedsnr" v="609866" />
	</node>
	<node id="-207507" lat="59.4898805584" lon="10.1456500046">
		<tag k="alt_name" v="Langtjern" />
		<tag k="name" v="Langtjernet" />
		<tag k="natural" v="water" />
		<tag k="ssr:stedsnr" v="730003" />
	</node>
	<node id="-207212" lat="59.5208250006" lon="10.233038891">
		<tag k="name" v="Holtantjern" />
		<tag k="natural" v="water" />
		<tag k="ssr:stedsnr" v="367980" />
	</node>
	<node id="-208231" lat="59.4905750006" lon="10.0513722215">
		<tag k="name" v="Midtbekk" />
		<tag k="ssr:stedsnr" v="512036" />
		<tag k="waterway" v="stream" />
	</node>
	<node id="-208358" lat="59.5919472258" lon="9.94772778331">
		<tag k="name" v="Svarttjern" />
		<tag k="natural" v="water" />
		<tag k="ssr:stedsnr" v="449415" />
	</node>
	<node id="-208222" lat="59.6327416628" lon="10.0434388897">
		<tag k="name" v="Svarttjernkulpen" />
		<tag k="natural" v="water" />
		<tag k="ssr:stedsnr" v="877733" />
	</node>
	<node id="-208221" lat="59.4925527822" lon="10.0939944496">
		<tag k="name" v="Sandgrunn" />
		<tag k="natural" v="beach" />
		<tag k="ssr:stedsnr" v="573029" />
	</node>
	<node id="-208217" lat="59.5502361083" lon="10.1118055573">
		<tag k="name" v="Fiskebekk" />
		<tag k="ssr:stedsnr" v="271321" />
		<tag k="waterway" v="stream" />
	</node>
	<node id="-208215" lat="59.6133722181" lon="10.0689666626">
		<tag k="name" v="Laksetjernbekken" />
		<tag k="ssr:stedsnr" v="877734" />
		<tag k="waterway" v="stream" />
	</node>
	<node id="-207694" lat="59.5349055572" lon="10.182872219">
		<tag k="name" v="Brattfoss" />
		<tag k="natural" v="waterfall" />
		<tag k="ssr:stedsnr" v="817777" />
	</node>
	<node id="-208204" lat="59.4855555579" lon="10.0964388815">
		<tag k="name" v="Eikenesvannet" />
		<tag k="natural" v="water" />
		<tag k="ssr:stedsnr" v="63027" />
	</node>
	<node id="-207677" lat="59.5097083374" lon="10.19424722">
		<tag k="name" v="Møllerdammen" />
		<tag k="natural" v="water" />
		<tag k="ssr:stedsnr" v="756540" />
	</node>
	<node id="-208183" lat="59.6082194414" lon="9.95220556362">
		<tag k="name" v="Nordre Sjulerudbekken" />
		<tag k="ssr:stedsnr" v="271326" />
		<tag k="waterway" v="stream" />
	</node>
	<node id="-207659" lat="59.4900305538" lon="10.2389694382">
		<tag k="name" v="Sukkevannet" />
		<tag k="natural" v="water" />
		<tag k="ssr:stedsnr" v="670004" />
	</node>
	<node id="-207649" lat="59.4776583307" lon="10.2950055587">
		<tag k="name" v="Mofjellbekken" />
		<tag k="ssr:stedsnr" v="209850" />
		<tag k="waterway" v="stream" />
	</node>
	<node id="-208156" lat="59.5594277765" lon="10.0628972259">
		<tag k="name" v="Sagbekken" />
		<tag k="ssr:stedsnr" v="271724" />
		<tag k="waterway" v="stream" />
	</node>
	<node id="-208155" lat="59.5803611103" lon="10.0652055525">
		<tag k="name" v="Rødsøya" />
		<tag k="natural" v="cape" />
		<tag k="ssr:stedsnr" v="695372" />
	</node>
	<node id="-208151" lat="59.5083916629" lon="10.0859416587">
		<tag k="name" v="Bikjetj." />
		<tag k="natural" v="water" />
		<tag k="ssr:stedsnr" v="453374" />
	</node>
	<node id="-208313" lat="59.5612611095" lon="10.0943444447">
		<tag k="name" v="Kopstadelva" />
		<tag k="ssr:stedsnr" v="141752" />
		<tag k="waterway" v="river" />
	</node>
	<node id="-208089" lat="59.5408888932" lon="10.0500250051">
		<tag k="name" v="Steinbekken" />
		<tag k="ssr:stedsnr" v="634319" />
		<tag k="waterway" v="stream" />
	</node>
	<node id="-208652" lat="59.5652222219" lon="9.99045555915">
		<tag k="name" v="Løken" />
		<tag k="ssr:stedsnr" v="573316" />
		<tag k="waterway" v="river" />
	</node>
	<node id="-208650" lat="59.6184305517" lon="10.024416662">
		<tag k="name" v="Tjønna" />
		<tag k="natural" v="water" />
		<tag k="ssr:stedsnr" v="696306" />
	</node>
	<node id="-208137" lat="59.4930888877" lon="10.0848083318">
		<tag k="name" v="Hostvedtbekken" />
		<tag k="ssr:stedsnr" v="573025" />
		<tag k="waterway" v="stream" />
	</node>
	<node id="-208126" lat="59.5443722199" lon="10.1165361096">
		<tag k="name" v="Stigsodden" />
		<tag k="natural" v="cape" />
		<tag k="ssr:stedsnr" v="149248" />
	</node>
	<node id="-208122" lat="59.5476500026" lon="9.97843055306">
		<tag k="name" v="Hajerbekken" />
		<tag k="ssr:stedsnr" v="488906" />
		<tag k="waterway" v="stream" />
	</node>
	<node id="-208120" lat="59.6162833333" lon="10.0273611124">
		<tag k="alt_name" v="Tjønna" />
		<tag k="name" v="Tjerna" />
		<tag k="natural" v="water" />
		<tag k="ssr:stedsnr" v="4074" />
	</node>
	<node id="-208631" lat="59.6017499983" lon="10.0688472227">
		<tag k="name" v="Bergsbekken" />
		<tag k="ssr:stedsnr" v="331712" />
		<tag k="waterway" v="stream" />
	</node>
	<node id="-208627" lat="59.5132722211" lon="10.1500111134">
		<tag k="name" v="Sandtangen" />
		<tag k="natural" v="shoal" />
		<tag k="place" v="locality" />
		<tag k="ssr:stedsnr" v="877364" />
	</node>
	<node id="-207594" lat="59.5062277795" lon="10.2612666735">
		<tag k="name" v="Sollidammen" />
		<tag k="natural" v="water" />
		<tag k="ssr:stedsnr" v="148619" />
	</node>
	<node id="-208105" lat="59.5336499986" lon="10.0244916709">
		<tag k="alt_name" v="Lianelva, østre;Ø.Lianelv;Østre Lianelv" />
		<tag k="name" v="Østre Lianelva" />
		<tag k="ssr:stedsnr" v="3923" />
		<tag k="waterway" v="stream" />
	</node>
	<node id="-208616" lat="59.5761833343" lon="10.121580556">
		<tag k="name" v="Svelleruddammen" />
		<tag k="natural" v="water" />
		<tag k="ssr:stedsnr" v="756339" />
	</node>
	<node id="-208102" lat="59.5184777778" lon="10.0868305477">
		<tag k="name" v="Rønnebergelva" />
		<tag k="ssr:stedsnr" v="331370" />
		<tag k="waterway" v="river" />
	</node>
	<node id="-208101" lat="59.564455559" lon="10.0014722287">
		<tag k="name" v="Svartbekk" />
		<tag k="ssr:stedsnr" v="756463" />
		<tag k="waterway" v="stream" />
	</node>
	<node id="-208097" lat="59.567449996" lon="9.9529194437">
		<tag k="alt_name" v="Grønntjern" />
		<tag k="name" v="Grøntjernet" />
		<tag k="natural" v="water" />
		<tag k="ssr:stedsnr" v="671373" />
	</node>
	<node id="-208093" lat="59.6365111076" lon="10.0383388867">
		<tag k="alt_name" v="Svartetjern, store;Svarttj." />
		<tag k="name" v="Store Svartetjern" />
		<tag k="natural" v="water" />
		<tag k="ssr:stedsnr" v="489191" />
	</node>
	<node id="-207579" lat="59.5455750014" lon="10.1547055476">
		<tag k="name" v="Løkebergtjern" />
		<tag k="natural" v="water" />
		<tag k="ssr:stedsnr" v="453762" />
	</node>
	<node id="-207577" lat="59.4660443159" lon="10.1493463507">
		<tag k="name" v="Korssjøen" />
		<tag k="natural" v="water" />
		<tag k="ssr:stedsnr" v="2098" />
		<tag k="water" v="lake" />
	</node>
	<node id="-208593" lat="59.606561111" lon="10.0019916583">
		<tag k="name" v="Hesthammarøya" />
		<tag k="place" v="island" />
		<tag k="ssr:stedsnr" v="550130" />
	</node>
	<node id="-208106" lat="59.6288888913" lon="10.0441138826">
		<tag k="name" v="Plommetj." />
		<tag k="natural" v="water" />
		<tag k="ssr:stedsnr" v="877707" />
	</node>
	<node id="-207565" lat="59.4925277733" lon="10.1388527847">
		<tag k="alt_name" v="Rundtjern" />
		<tag k="name" v="Rundtjernet" />
		<tag k="natural" v="water" />
		<tag k="ssr:stedsnr" v="123007" />
	</node>
	<node id="-208587" lat="59.5428166628" lon="10.1036250012">
		<tag k="name" v="Tusta" />
		<tag k="place" v="island" />
		<tag k="ssr:stedsnr" v="817271" />
	</node>
	<node id="-207562" lat="59.5443111124" lon="10.1446999941">
		<tag k="alt_name" v="Foksetj." />
		<tag k="name" v="Foksetjern" />
		<tag k="natural" v="water" />
		<tag k="ssr:stedsnr" v="853934" />
	</node>
	<node id="-208584" lat="59.5540055551" lon="10.0364333404">
		<tag k="alt_name" v="Svarttjern" />
		<tag k="name" v="Svartetjern" />
		<tag k="natural" v="water" />
		<tag k="ssr:stedsnr" v="124034" />
	</node>
	<node id="-208055" lat="59.5366555519" lon="10.1163055501">
		<tag k="name" v="Kattholmen" />
		<tag k="place" v="islet" />
		<tag k="ssr:stedsnr" v="392408" />
	</node>
	<node id="-208563" lat="59.5925555599" lon="10.0219722202">
		<tag k="name" v="Sandvik" />
		<tag k="natural" v="bay" />
		<tag k="ssr:stedsnr" v="513508" />
	</node>
	<node id="-208561" lat="59.5420166696" lon="10.1141055529">
		<tag k="name" v="Støagrunn" />
		<tag k="natural" v="shoal" />
		<tag k="place" v="locality" />
		<tag k="ssr:stedsnr" v="817275" />
	</node>
	<node id="-208047" lat="59.6310944417" lon="10.0140222272">
		<tag k="name" v="Torrudelva" />
		<tag k="ssr:stedsnr" v="792098" />
		<tag k="waterway" v="stream" />
	</node>
	<node id="-208040" lat="59.4636447133" lon="10.0978650222">
		<tag k="name" v="Bergsvannet" />
		<tag k="natural" v="water" />
		<tag k="ssr:stedsnr" v="366096" />
		<tag k="water" v="lake" />
	</node>
	<node id="-208542" lat="59.5259611078" lon="10.0156333393">
		<tag k="alt_name" v="Lianelva, vestre;V.Lianelv;Vestre Lianelv" />
		<tag k="name" v="Vestre Lianelva" />
		<tag k="ssr:stedsnr" v="853884" />
		<tag k="waterway" v="stream" />
	</node>
	<node id="-207515" lat="59.5117555598" lon="10.2582083399">
		<tag k="name" v="Sollivannet" />
		<tag k="natural" v="water" />
		<tag k="ssr:stedsnr" v="428999" />
	</node>
	<node id="-208534" lat="59.5528884341" lon="10.1098230366">
		<tag k="name" v="Kjennerudtjern" />
		<tag k="natural" v="water" />
		<tag k="ssr:stedsnr" v="566774" />
	</node>
	<node id="-208019" lat="59.5203944404" lon="10.062680559">
		<tag k="name" v="Monebekken" />
		<tag k="ssr:stedsnr" v="938374" />
		<tag k="waterway" v="stream" />
	</node>
	<node id="-208524" lat="59.5576777739" lon="10.119741663">
		<tag k="name" v="Høijordtj." />
		<tag k="natural" v="water" />
		<tag k="ssr:stedsnr" v="695690" />
	</node>
	<node id="-207298" lat="59.5012111154" lon="10.1930083291">
		<tag k="name" v="Rønningdammen" />
		<tag k="natural" v="water" />
		<tag k="ssr:stedsnr" v="513652" />
	</node>
	<node id="-208520" lat="59.5519361125" lon="10.0356333335">
		<tag k="name" v="Skavjøtene" />
		<tag k="natural" v="water" />
		<tag k="ssr:stedsnr" v="573314" />
	</node>
	<node id="-208003" lat="59.6101277814" lon="10.079472228">
		<tag k="alt_name" v="Blektj." />
		<tag k="name" v="Blekktjern" />
		<tag k="natural" v="water" />
		<tag k="ssr:stedsnr" v="428107" />
	</node>
	<node id="-208002" lat="59.5785500028" lon="9.93522778456">
		<tag k="alt_name" v="Mjøvann" />
		<tag k="name" v="Mjøvannet" />
		<tag k="natural" v="water" />
		<tag k="ssr:stedsnr" v="671489" />
		<tag k="water" v="lake" />
	</node>
	<node id="-208513" lat="59.5316555591" lon="10.0356722235">
		<tag k="name" v="Breibekk" />
		<tag k="ssr:stedsnr" v="267402" />
		<tag k="waterway" v="stream" />
	</node>
	<node id="-207996" lat="59.5271111104" lon="10.122047229">
		<tag k="name" v="Sandtangen" />
		<tag k="natural" v="shoal" />
		<tag k="place" v="locality" />
		<tag k="ssr:stedsnr" v="695358" />
	</node>
	<node id="-208504" lat="59.5589583299" lon="9.95470278233">
		<tag k="name" v="Lammetjern" />
		<tag k="natural" v="bay" />
		<tag k="ssr:stedsnr" v="938466" />
	</node>
	<node id="-207989" lat="59.638766665" lon="10.030424997">
		<tag k="name" v="Ormetjern" />
		<tag k="place" v="locality" />
		<tag k="ssr:stedsnr" v="489176" />
	</node>
	<node id="-207988" lat="59.5106361122" lon="10.0923249964">
		<tag k="name" v="Dokkatj." />
		<tag k="natural" v="water" />
		<tag k="ssr:stedsnr" v="392390" />
	</node>
	<node id="-207470" lat="59.5086388899" lon="10.168441661">
		<tag k="alt_name" v="Øyebukta" />
		<tag k="name" v="Øiebukta" />
		<tag k="natural" v="bay" />
		<tag k="ssr:stedsnr" v="573589" />
	</node>
	<node id="-207979" lat="59.5764749962" lon="9.97992500813">
		<tag k="alt_name" v="Surka, nordre" />
		<tag k="name" v="Nordre Surka" />
		<tag k="ssr:stedsnr" v="671066" />
		<tag k="waterway" v="stream" />
	</node>
	<node id="-207975" lat="59.6475416655" lon="10.0250222244">
		<tag k="name" v="Setertjern" />
		<tag k="natural" v="water" />
		<tag k="ssr:stedsnr" v="670182" />
	</node>
	<node id="-208614" lat="59.6035361114" lon="9.94336388943">
		<tag k="name" v="Sjulerudsetertjern" />
		<tag k="natural" v="water" />
		<tag k="ssr:stedsnr" v="331283" />
	</node>
	<node id="-207967" lat="59.543333334" lon="9.99008888612">
		<tag k="name" v="Vestdammen" />
		<tag k="natural" v="water" />
		<tag k="ssr:stedsnr" v="453529" />
	</node>
	<node id="-207962" lat="59.579791667" lon="9.96585278459">
		<tag k="name" v="Bingtjern" />
		<tag k="natural" v="water" />
		<tag k="ssr:stedsnr" v="874455" />
	</node>
	<node id="-207445" lat="59.4941250028" lon="10.2797333371">
		<tag k="name" v="Fossbekken" />
		<tag k="ssr:stedsnr" v="877860" />
		<tag k="waterway" v="stream" />
	</node>
	<node id="-208464" lat="59.5708250021" lon="10.0032361071">
		<tag k="name" v="Svartbekk" />
		<tag k="ssr:stedsnr" v="210468" />
		<tag k="waterway" v="stream" />
	</node>
	<node id="-207846" lat="59.6324227224" lon="10.0375994167">
		<tag k="name" v="Kleivtj." />
		<tag k="natural" v="water" />
		<tag k="ssr:stedsnr" v="939328" />
	</node>
	<node id="-208459" lat="59.5905277776" lon="9.98778888197">
		<tag k="alt_name" v="Ramskollbekken" />
		<tag k="name" v="Ramsbekken" />
		<tag k="ssr:stedsnr" v="428030" />
		<tag k="waterway" v="stream" />
	</node>
	<node id="-208457" lat="59.6064749996" lon="10.0475277804">
		<tag k="alt_name" v="Tekstj." />
		<tag k="name" v="Teigstjern" />
		<tag k="natural" v="water" />
		<tag k="ssr:stedsnr" v="488111" />
	</node>
	<node id="-208456" lat="59.5027138889" lon="10.0456527798">
		<tag k="name" v="Vånabekk" />
		<tag k="ssr:stedsnr" v="391028" />
		<tag k="waterway" v="stream" />
	</node>
	<node id="-208454" lat="59.4959527772" lon="10.0929527812">
		<tag k="name" v="Tellaholmen" />
		<tag k="natural" v="beach" />
		<tag k="ssr:stedsnr" v="330056" />
	</node>
	<node id="-207941" lat="59.5135948097" lon="10.1010213993">
		<tag k="name" v="Rønnebergdammen" />
		<tag k="natural" v="water" />
		<tag k="ssr:stedsnr" v="392381" />
		<tag k="water" v="lake" />
	</node>
	<node id="-207937" lat="59.5865888857" lon="10.0189305642">
		<tag k="name" v="Surka" />
		<tag k="ssr:stedsnr" v="3020" />
		<tag k="waterway" v="stream" />
	</node>
	<node id="-207424" lat="59.5123444405" lon="10.1673833412">
		<tag k="name" v="Øya" />
		<tag k="place" v="islet" />
		<tag k="ssr:stedsnr" v="817518" />
	</node>
	<node id="-208446" lat="59.4940861086" lon="10.0969555571">
		<tag k="name" v="Hostvedtøya" />
		<tag k="natural" v="cape" />
		<tag k="ssr:stedsnr" v="331041" />
	</node>
	<node id="-208443" lat="59.6004999999" lon="9.93610833028">
		<tag k="name" v="Sjulerudvika" />
		<tag k="natural" v="bay" />
		<tag k="ssr:stedsnr" v="28303" />
	</node>
	<node id="-208439" lat="59.4899861133" lon="10.0466861046">
		<tag k="name" v="Øvrebekk" />
		<tag k="ssr:stedsnr" v="27028" />
		<tag k="waterway" v="stream" />
	</node>
	<node id="-207924" lat="59.5156944484" lon="10.1205805521">
		<tag k="name" v="Sundbyelva" />
		<tag k="ssr:stedsnr" v="392377" />
		<tag k="waterway" v="river" />
	</node>
	<node id="-208434" lat="59.5649000006" lon="10.0875472237">
		<tag k="name" v="Kopstadelva" />
		<tag k="ssr:stedsnr" v="331669" />
		<tag k="waterway" v="river" />
	</node>
	<node id="-207920" lat="59.5919562436" lon="9.95245814993">
		<tag k="name" v="Blåtjern" />
		<tag k="natural" v="water" />
		<tag k="ssr:stedsnr" v="631439" />
	</node>
	<node id="-208430" lat="59.5701613799" lon="10.0444536637">
		<tag k="name" v="Hemsdammen" />
		<tag k="natural" v="water" />
		<tag k="ssr:stedsnr" v="210664" />
	</node>
	<node id="-208427" lat="59.5835499999" lon="10.1173999933">
		<tag k="name" v="Seterbekken" />
		<tag k="ssr:stedsnr" v="149331" />
		<tag k="waterway" v="stream" />
	</node>
	<node id="-208424" lat="59.5619222236" lon="10.0812166734">
		<tag k="name" v="Åsentjern" />
		<tag k="natural" v="water" />
		<tag k="ssr:stedsnr" v="817662" />
	</node>
	<node id="-207911" lat="59.5808750007" lon="9.93822499487">
		<tag k="name" v="Loppetjern" />
		<tag k="natural" v="water" />
		<tag k="ssr:stedsnr" v="631436" />
	</node>
	<node id="-207389" lat="59.5401444454" lon="10.172447215">
		<tag k="name" v="Hvittingsrudtjern" />
		<tag k="natural" v="water" />
		<tag k="ssr:stedsnr" v="817744" />
	</node>
	<node id="-207898" lat="59.6091749958" lon="10.0710055524">
		<tag k="alt_name" v="Maurtj." />
		<tag k="name" v="Mauretjern" />
		<tag k="natural" v="water" />
		<tag k="ssr:stedsnr" v="853103" />
	</node>
	<node id="-207891" lat="59.5816166634" lon="10.1318111118">
		<tag k="name" v="Mauråstj." />
		<tag k="natural" v="water" />
		<tag k="ssr:stedsnr" v="392365" />
	</node>
	<node id="-207889" lat="59.4960111099" lon="10.0961583347">
		<tag k="name" v="Grennesvannet" />
		<tag k="natural" v="water" />
		<tag k="ssr:stedsnr" v="548011" />
		<tag k="water" v="lake" />
	</node>
	<node id="-208387" lat="59.5706194456" lon="9.96612222889">
		<tag k="name" v="Størtjern" />
		<tag k="natural" v="water" />
		<tag k="ssr:stedsnr" v="783394" />
	</node>
</osm>
