<?xml version="1.0" encoding="UTF-8"?>
<osm generator="osmapis" version="0.6">
	<node id="-207204" lat="59.5162472261" lon="10.1998305619">
		<tag k="layer" v="-1" />
		<tag k="name" v="Hillestadtunnelen NL" />
		<tag k="ssr:stedsnr" v="105485" />
		<tag k="tunnel" v="yes" />
	</node>
	<node id="-207613" lat="59.556166663" lon="10.1770722156">
		<tag k="layer" v="-1" />
		<tag k="name" v="Hanekleivtunnelen NL" />
		<tag k="ssr:stedsnr" v="43439" />
		<tag k="tunnel" v="yes" />
	</node>
	<node id="-207740" lat="59.6365055531" lon="9.99340832554">
		<tag k="bridge" v="yes" />
		<tag k="layer" v="1" />
		<tag k="name" v="Pinnestad bru" />
		<tag k="ssr:stedsnr" v="957724" />
	</node>
	<node id="-207225" lat="59.491030553" lon="10.3120194384">
		<tag k="layer" v="-1" />
		<tag k="name" v="Holmestrandtunnelen" />
		<tag k="ssr:stedsnr" v="165498" />
		<tag k="tunnel" v="yes" />
	</node>
	<node id="-207736" lat="59.5961416653" lon="10.0435583414">
		<tag k="bridge" v="yes" />
		<tag k="layer" v="1" />
		<tag k="name" v="Gata" />
		<tag k="ssr:stedsnr" v="957725" />
	</node>
	<node id="-207222" lat="59.5071583349" lon="10.1947916706">
		<tag k="bridge" v="yes" />
		<tag k="layer" v="1" />
		<tag k="name" v="Hillestad skole" />
		<tag k="ssr:stedsnr" v="349668" />
	</node>
	<node id="-208659" lat="59.4901331704" lon="10.3169512894">
		<tag k="man_made" v="quay" />
		<tag k="name" v="Langøybrygga" />
		<tag k="place" v="locality" />
		<tag k="ssr:stedsnr" v="985996" />
	</node>
	<node id="-207984" lat="59.4702916657" lon="10.0966222272">
		<tag k="bridge" v="yes" />
		<tag k="layer" v="1" />
		<tag k="name" v="Auen bru" />
		<tag k="ssr:stedsnr" v="410705" />
	</node>
	<node id="-207855" lat="59.6258777795" lon="10.0011388912">
		<tag k="bridge" v="yes" />
		<tag k="layer" v="1" />
		<tag k="name" v="Torrud bru" />
		<tag k="ssr:stedsnr" v="532716" />
	</node>
	<node id="-207805" lat="59.4873000028" lon="10.0879250059">
		<tag k="bridge" v="yes" />
		<tag k="layer" v="1" />
		<tag k="name" v="Solberg" />
		<tag k="ssr:stedsnr" v="350696" />
	</node>
	<node id="-207211" lat="59.507572224" lon="10.211986104">
		<tag k="layer" v="-1" />
		<tag k="name" v="Islandtunnelen SL" />
		<tag k="ssr:stedsnr" v="651259" />
		<tag k="tunnel" v="yes" />
	</node>
	<node id="-207720" lat="59.4802694427" lon="10.3274638926">
		<tag k="bridge" v="yes" />
		<tag k="layer" v="1" />
		<tag k="name" v="Bleikvolden Felleskjøpet" />
		<tag k="ssr:stedsnr" v="289689" />
	</node>
	<node id="-207333" lat="59.4706527753" lon="10.2976861172">
		<tag k="bridge" v="yes" />
		<tag k="layer" v="1" />
		<tag k="name" v="Mofjellbekken vest" />
		<tag k="ssr:stedsnr" v="896672" />
	</node>
	<node id="-207460" lat="59.506024999" lon="10.1824055541">
		<tag k="bridge" v="yes" />
		<tag k="layer" v="1" />
		<tag k="name" v="Neshaugen kulvert" />
		<tag k="ssr:stedsnr" v="107648" />
	</node>
	<node id="-208353" lat="59.4813111127" lon="10.0965972166">
		<tag k="bridge" v="yes" />
		<tag k="layer" v="1" />
		<tag k="name" v="Buen bru" />
		<tag k="ssr:stedsnr" v="228741" />
	</node>
	<node id="-208223" lat="59.5618916656" lon="10.1199555606">
		<tag k="bridge" v="yes" />
		<tag k="layer" v="1" />
		<tag k="name" v="Herstad" />
		<tag k="ssr:stedsnr" v="471718" />
	</node>
	<node id="-207582" lat="59.4773305593" lon="10.3167333316">
		<tag k="layer" v="-1" />
		<tag k="name" v="Grefsrud tunnelen" />
		<tag k="ssr:stedsnr" v="226494" />
		<tag k="tunnel" v="yes" />
	</node>
	<node id="-207705" lat="59.4715166644" lon="10.2934472159">
		<tag k="bridge" v="yes" />
		<tag k="layer" v="1" />
		<tag k="name" v="Skjeggestad øst" />
		<tag k="ssr:stedsnr" v="168619" />
	</node>
	<node id="-207703" lat="59.5239666697" lon="10.2822277743">
		<tag k="bridge" v="yes" />
		<tag k="layer" v="1" />
		<tag k="name" v="Smørstein halvbru" />
		<tag k="ssr:stedsnr" v="410637" />
	</node>
	<node id="-207574" lat="59.5066944439" lon="10.1888222168">
		<tag k="layer" v="-1" />
		<tag k="name" v="Rønningentunnelen" />
		<tag k="ssr:stedsnr" v="954752" />
		<tag k="tunnel" v="yes" />
	</node>
	<node id="-207317" lat="59.4897333305" lon="10.3147472267">
		<tag k="bridge" v="yes" />
		<tag k="layer" v="1" />
		<tag k="name" v="Bekkegata" />
		<tag k="ssr:stedsnr" v="471626" />
	</node>
	<node id="-207567" lat="59.4715055519" lon="10.2925805574">
		<tag k="bridge" v="yes" />
		<tag k="layer" v="1" />
		<tag k="name" v="Skjeggestad vest" />
		<tag k="ssr:stedsnr" v="592675" />
	</node>
	<node id="-207950" lat="59.5135027777" lon="10.1269611128">
		<tag k="bridge" v="yes" />
		<tag k="layer" v="1" />
		<tag k="name" v="Sundbyfoss sentrum" />
		<tag k="ssr:stedsnr" v="775704" />
	</node>
	<node id="-207692" lat="59.5278444476" lon="10.1876250013">
		<tag k="layer" v="-1" />
		<tag k="name" v="Løkentunnelen NL" />
		<tag k="ssr:stedsnr" v="650308" />
		<tag k="tunnel" v="yes" />
	</node>
	<node id="-207561" lat="59.5072166682" lon="10.1985861071">
		<tag k="layer" v="-1" />
		<tag k="name" v="Hillestad miljøtunnel" />
		<tag k="ssr:stedsnr" v="894518" />
		<tag k="tunnel" v="yes" />
	</node>
	<node id="-207431" lat="59.4682694482" lon="10.3249361116">
		<tag k="bridge" v="yes" />
		<tag k="layer" v="1" />
		<tag k="name" v="Vålevegen" />
		<tag k="ssr:stedsnr" v="652630" />
	</node>
	<node id="-207938" lat="59.5788499956" lon="10.0618027772">
		<tag k="bridge" v="yes" />
		<tag k="layer" v="1" />
		<tag k="name" v="Rød" />
		<tag k="ssr:stedsnr" v="107738" />
	</node>
	<node id="-208447" lat="59.5553999999" lon="10.0969888803">
		<tag k="bridge" v="yes" />
		<tag k="layer" v="1" />
		<tag k="name" v="Kopstad" />
		<tag k="ssr:stedsnr" v="228761" />
	</node>
	<node id="-207550" lat="59.4787138918" lon="10.2561388939">
		<tag k="layer" v="-1" />
		<tag k="name" v="Botnetunnelen" />
		<tag k="ssr:stedsnr" v="588730" />
		<tag k="tunnel" v="yes" />
	</node>
	<node id="-208061" lat="59.5115055528" lon="10.0926305588">
		<tag k="bridge" v="yes" />
		<tag k="layer" v="1" />
		<tag k="name" v="Dokken bru søndre" />
		<tag k="ssr:stedsnr" v="836713" />
	</node>
	<node id="-207807" lat="59.5144138882" lon="10.0831416632">
		<tag k="bridge" v="yes" />
		<tag k="layer" v="1" />
		<tag k="name" v="Haslestad" />
		<tag k="ssr:stedsnr" v="957726" />
	</node>
	<node id="-207199" lat="59.4829222219" lon="10.2458111115">
		<tag k="layer" v="-1" />
		<tag k="name" v="Botnetunnelen SL" />
		<tag k="ssr:stedsnr" v="590120" />
		<tag k="tunnel" v="yes" />
	</node>
	<node id="-207542" lat="59.5571861137" lon="10.1327777852">
		<tag k="bridge" v="yes" />
		<tag k="layer" v="1" />
		<tag k="name" v="Hanekleiva" />
		<tag k="ssr:stedsnr" v="896683" />
	</node>
	<node id="-207667" lat="59.488691666" lon="10.2342972141">
		<tag k="alt_name" v="Bringåkertunnelen NL" />
		<tag k="layer" v="-1" />
		<tag k="name" v="Bringåkertunnelen" />
		<tag k="ssr:stedsnr" v="408133" />
		<tag k="tunnel" v="yes" />
	</node>
	<node id="-207408" lat="59.5044361071" lon="10.2147138831">
		<tag k="layer" v="-1" />
		<tag k="name" v="Islandtunnelen NL" />
		<tag k="ssr:stedsnr" v="712216" />
		<tag k="tunnel" v="yes" />
	</node>
	<node id="-207660" lat="59.5090222227" lon="10.2130194357">
		<tag k="bridge" v="yes" />
		<tag k="layer" v="1" />
		<tag k="name" v="Island øst kulvert" />
		<tag k="ssr:stedsnr" v="228681" />
	</node>
	<node id="-208553" lat="59.5675861112" lon="10.1151916603">
		<tag k="bridge" v="yes" />
		<tag k="layer" v="1" />
		<tag k="name" v="Dameng" />
		<tag k="ssr:stedsnr" v="714700" />
	</node>
	<node id="-207270" lat="59.5053000029" lon="10.1751472222">
		<tag k="bridge" v="yes" />
		<tag k="layer" v="1" />
		<tag k="name" v="Kronlia kulvert" />
		<tag k="ssr:stedsnr" v="653630" />
	</node>
	<node id="-207525" lat="59.4725972256" lon="10.2769972155">
		<tag k="bridge" v="yes" />
		<tag k="layer" v="1" />
		<tag k="name" v="Nygård kulvert" />
		<tag k="ssr:stedsnr" v="107662" />
	</node>
	<node id="-207652" lat="59.5222888885" lon="10.1916777773">
		<tag k="layer" v="-1" />
		<tag k="name" v="Hillestadtunnelen SL" />
		<tag k="ssr:stedsnr" v="469511" />
		<tag k="tunnel" v="yes" />
	</node>
	<node id="-207480" lat="59.4874611129" lon="10.3170944508">
		<tag k="bridge" v="yes" />
		<tag k="layer" v="1" />
		<tag k="name" v="Kleivbrottet mur" />
		<tag k="ssr:stedsnr" v="107645" />
	</node>
	<node id="-207472" lat="59.4956666673" lon="10.2857083368">
		<tag k="bridge" v="yes" />
		<tag k="layer" v="1" />
		<tag k="name" v="Island" />
		<tag k="ssr:stedsnr" v="107643" />
	</node>
	<node id="-207904" lat="59.5813972215" lon="9.97030000537">
		<tag k="man_made" v="cairn" />
		<tag k="name" v="Skibergfjell" />
		<tag k="place" v="locality" />
		<tag k="ssr:stedsnr" v="535087" />
	</node>
	<node id="-207897" lat="59.6451722245" lon="9.98477221718">
		<tag k="bridge" v="yes" />
		<tag k="layer" v="1" />
		<tag k="name" v="Tryterud bru" />
		<tag k="ssr:stedsnr" v="836700" />
	</node>
	<node id="-207695" lat="59.5061416657" lon="10.1867777719">
		<tag k="bridge" v="yes" />
		<tag k="layer" v="1" />
		<tag k="name" v="Rønningen" />
		<tag k="ssr:stedsnr" v="168617" />
	</node>
	<node id="-207641" lat="59.5335888844" lon="10.1823944506">
		<tag k="layer" v="-1" />
		<tag k="name" v="Løkentunnelen SL" />
		<tag k="ssr:stedsnr" v="894351" />
		<tag k="tunnel" v="yes" />
	</node>
	<node id="-208428" lat="59.5961305555" lon="10.038766669">
		<tag k="bridge" v="yes" />
		<tag k="layer" v="1" />
		<tag k="name" v="Eidsfoss bru" />
		<tag k="ssr:stedsnr" v="228763" />
	</node>
	<node id="-207379" lat="59.4713666664" lon="10.3122111053">
		<tag k="landuse" v="industrial" />
		<tag k="name" v="Bentsrud koblingstasjon" />
		<tag k="power" v="plant" />
		<tag k="ssr:stedsnr" v="634879" />
	</node>
	<node id="-207635" lat="59.4702444425" lon="10.3012583378">
		<tag k="bridge" v="yes" />
		<tag k="layer" v="1" />
		<tag k="name" v="Mofjellbekken øst" />
		<tag k="ssr:stedsnr" v="168604" />
	</node>
	<node id="-207368" lat="59.4748361114" lon="10.2638666711">
		<tag k="layer" v="-1" />
		<tag k="loc_name" v="Botnetunnelen" />
		<tag k="name" v="Botnetunnelen NL" />
		<tag k="ssr:stedsnr" v="954111" />
		<tag k="tunnel" v="yes" />
	</node>
	<node id="-208647" lat="59.5727166701" lon="10.0597250012">
		<tag k="bridge" v="yes" />
		<tag k="layer" v="1" />
		<tag k="name" v="Stubben bru" />
		<tag k="ssr:stedsnr" v="168715" />
	</node>
	<node id="-207617" lat="59.4738083313" lon="10.3316638942">
		<tag k="bridge" v="yes" />
		<tag k="layer" v="1" />
		<tag k="name" v="Peter Pan" />
		<tag k="ssr:stedsnr" v="410634" />
	</node>
	<node id="-207619" lat="59.4968944439" lon="10.222736111">
		<tag k="layer" v="-1" />
		<tag k="name" v="Bringåkertunnelen SL" />
		<tag k="ssr:stedsnr" v="833397" />
		<tag k="tunnel" v="yes" />
	</node>
	<node id="-208385" lat="59.5126333291" lon="10.0934222197">
		<tag k="bridge" v="yes" />
		<tag k="layer" v="1" />
		<tag k="name" v="Dokken bru nordre" />
		<tag k="ssr:stedsnr" v="592771" />
	</node>
</osm>
