<?xml version="1.0" encoding="UTF-8"?>
<osm generator="osmapis" version="0.6">
	<node id="-208895" lat="59.6181194418" lon="10.0670416728">
		<tag k="fixme" v="consider natural=peak for the most distinct mountains in the district" />
		<tag k="name" v="Laksetjernkollen" />
		<tag k="natural" v="hill" />
		<tag k="place" v="locality" />
		<tag k="ssr:stedsnr" v="695704" />
	</node>
	<node id="-208892" lat="59.5677111143" lon="9.96032221573">
		<tag k="name" v="Skoklebakkane" />
		<tag k="natural" v="slope" />
		<tag k="place" v="locality" />
		<tag k="ssr:stedsnr" v="513502" />
	</node>
	<node id="-208890" lat="59.5375527749" lon="10.0290638924">
		<tag k="name" v="Bileberget" />
		<tag k="natural" v="hill" />
		<tag k="place" v="locality" />
		<tag k="ssr:stedsnr" v="938507" />
	</node>
	<node id="-208888" lat="59.4914166702" lon="10.0930722266">
		<tag k="name" v="Lakatarhaugen" />
		<tag k="natural" v="hill" />
		<tag k="place" v="locality" />
		<tag k="ssr:stedsnr" v="391060" />
	</node>
	<node id="-208887" lat="59.4746250036" lon="10.0805555518">
		<tag k="name" v="Trangkleiv" />
		<tag k="natural" v="slope" />
		<tag k="place" v="locality" />
		<tag k="ssr:stedsnr" v="391486" />
	</node>
	<node id="-208886" lat="59.4957444422" lon="10.1429361161">
		<tag k="alt_name" v="Rundtjernkollen" />
		<tag k="fixme" v="consider natural=peak for the most distinct mountains in the district" />
		<tag k="name" v="Rundtjernåsen" />
		<tag k="natural" v="hill" />
		<tag k="place" v="locality" />
		<tag k="ssr:stedsnr" v="306057" />
	</node>
	<node id="-208885" lat="59.4989111103" lon="10.141155555">
		<tag k="name" v="Kølabonn" />
		<tag k="natural" v="valley" />
		<tag k="place" v="locality" />
		<tag k="ssr:stedsnr" v="513507" />
	</node>
	<node id="-208883" lat="59.5318555534" lon="10.0380166642">
		<tag k="name" v="Kattjota" />
		<tag k="natural" v="valley" />
		<tag k="place" v="locality" />
		<tag k="ssr:stedsnr" v="85368" />
	</node>
	<node id="-208882" lat="59.4925027812" lon="10.1226833285">
		<tag k="name" v="Breimyrbråtan" />
		<tag k="place" v="locality" />
		<tag k="ssr:stedsnr" v="695489" />
	</node>
	<node id="-208881" lat="59.494661111" lon="10.1447083406">
		<tag k="name" v="Bjørnestillinga" />
		<tag k="natural" v="valley" />
		<tag k="place" v="locality" />
		<tag k="ssr:stedsnr" v="937484" />
	</node>
	<node id="-208877" lat="59.5728361142" lon="10.015027785">
		<tag k="alt_name" v="Holtåsen" />
		<tag k="fixme" v="consider natural=peak for the most distinct mountains in the district" />
		<tag k="name" v="Holteseteråsen" />
		<tag k="natural" v="hill" />
		<tag k="place" v="locality" />
		<tag k="ssr:stedsnr" v="210485" />
	</node>
	<node id="-208875" lat="59.4584861076" lon="10.1165527756">
		<tag k="fixme" v="consider natural=peak for the most distinct mountains in the district" />
		<tag k="name" v="Åsgårdåsen" />
		<tag k="natural" v="hill" />
		<tag k="place" v="locality" />
		<tag k="ssr:stedsnr" v="755113" />
	</node>
	<node id="-208874" lat="59.6541666631" lon="10.0194000086">
		<tag k="fixme" v="consider natural=peak for the most distinct mountains in the district" />
		<tag k="name" v="Stuåsen" />
		<tag k="natural" v="hill" />
		<tag k="place" v="locality" />
		<tag k="ssr:stedsnr" v="574339" />
	</node>
	<node id="-208873" lat="59.5179722263" lon="10.1472833412">
		<tag k="fixme" v="consider natural=peak for the most distinct mountains in the district" />
		<tag k="name" v="Kjellås" />
		<tag k="natural" v="hill" />
		<tag k="place" v="locality" />
		<tag k="ssr:stedsnr" v="271402" />
	</node>
	<node id="-208870" lat="59.5839027741" lon="9.97743611467">
		<tag k="name" v="Trangdalen" />
		<tag k="natural" v="valley" />
		<tag k="place" v="locality" />
		<tag k="ssr:stedsnr" v="331478" />
	</node>
	<node id="-208869" lat="59.6108999987" lon="10.013205562">
		<tag k="name" v="Maristuløkka" />
		<tag k="natural" v="slope" />
		<tag k="place" v="locality" />
		<tag k="ssr:stedsnr" v="696316" />
	</node>
	<node id="-208866" lat="59.5814944488" lon="9.97824999807">
		<tag k="name" v="Gauseseterskarva" />
		<tag k="natural" v="hill" />
		<tag k="place" v="locality" />
		<tag k="ssr:stedsnr" v="331479" />
	</node>
	<node id="-208864" lat="59.6030000016" lon="9.97559165871">
		<tag k="name" v="Sjulerudmoene" />
		<tag k="place" v="locality" />
		<tag k="ssr:stedsnr" v="938282" />
	</node>
	<node id="-208863" lat="59.60645556" lon="10.0552777811">
		<tag k="name" v="Ø.Fjellbru" />
		<tag k="natural" v="valley" />
		<tag k="place" v="locality" />
		<tag k="ssr:stedsnr" v="513727" />
	</node>
	<node id="-208862" lat="59.5668805563" lon="9.9660166613">
		<tag k="fixme" v="consider natural=peak for the most distinct mountains in the district" />
		<tag k="name" v="Elgeåsen" />
		<tag k="natural" v="hill" />
		<tag k="place" v="locality" />
		<tag k="ssr:stedsnr" v="210476" />
	</node>
	<node id="-208859" lat="59.5987916649" lon="9.9682888825">
		<tag k="name" v="Klubbekollsletta" />
		<tag k="place" v="locality" />
		<tag k="ssr:stedsnr" v="938283" />
	</node>
	<node id="-208856" lat="59.4795500001" lon="10.0766027825">
		<tag k="name" v="Glanaberget" />
		<tag k="natural" v="hill" />
		<tag k="place" v="locality" />
		<tag k="ssr:stedsnr" v="937476" />
	</node>
	<node id="-208853" lat="59.560600003" lon="10.0432222306">
		<tag k="name" v="Busedalen" />
		<tag k="natural" v="valley" />
		<tag k="place" v="locality" />
		<tag k="ssr:stedsnr" v="791045" />
	</node>
	<node id="-208848" lat="59.6614361077" lon="10.0043611076">
		<tag k="fixme" v="consider natural=peak for the most distinct mountains in the district" />
		<tag k="name" v="Kapputåsen" />
		<tag k="natural" v="hill" />
		<tag k="place" v="locality" />
		<tag k="ssr:stedsnr" v="332300" />
	</node>
	<node id="-208847" lat="59.6145694483" lon="10.0662361057">
		<tag k="name" v="Tuteren" />
		<tag k="natural" v="hill" />
		<tag k="place" v="locality" />
		<tag k="ssr:stedsnr" v="331710" />
	</node>
	<node id="-208846" lat="59.5802472261" lon="9.97033056084">
		<tag k="name" v="Fromsedalen" />
		<tag k="natural" v="valley" />
		<tag k="place" v="locality" />
		<tag k="ssr:stedsnr" v="85361" />
	</node>
	<node id="-208844" lat="59.5868416655" lon="9.99828332702">
		<tag k="name" v="Gullikbunn" />
		<tag k="place" v="locality" />
		<tag k="ssr:stedsnr" v="513515" />
	</node>
	<node id="-208838" lat="59.4659749992" lon="10.0703944408">
		<tag k="name" v="Svenskeplassen" />
		<tag k="place" v="locality" />
		<tag k="ssr:stedsnr" v="330478" />
	</node>
	<node id="-208834" lat="59.6037666656" lon="10.0516249974">
		<tag k="fixme" v="consider natural=peak for the most distinct mountains in the district" />
		<tag k="name" v="Teienåsen" />
		<tag k="natural" v="hill" />
		<tag k="place" v="locality" />
		<tag k="ssr:stedsnr" v="28735" />
	</node>
	<node id="-208833" lat="59.5767833331" lon="9.94212777195">
		<tag k="name" v="Mjøvannsskarva" />
		<tag k="natural" v="hill" />
		<tag k="place" v="locality" />
		<tag k="ssr:stedsnr" v="817477" />
	</node>
	<node id="-208831" lat="59.5857805576" lon="9.97683611733">
		<tag k="fixme" v="consider natural=peak for the most distinct mountains in the district" />
		<tag k="name" v="Ramskollen" />
		<tag k="natural" v="hill" />
		<tag k="place" v="locality" />
		<tag k="ssr:stedsnr" v="513514" />
	</node>
	<node id="-208827" lat="59.5044305515" lon="10.1225222253">
		<tag k="name" v="Steinkleiva" />
		<tag k="natural" v="slope" />
		<tag k="place" v="locality" />
		<tag k="ssr:stedsnr" v="695043" />
	</node>
	<node id="-208826" lat="59.5096027767" lon="10.0450833329">
		<tag k="fixme" v="consider natural=peak for the most distinct mountains in the district" />
		<tag k="name" v="Seteråsen" />
		<tag k="natural" v="hill" />
		<tag k="place" v="locality" />
		<tag k="ssr:stedsnr" v="634389" />
	</node>
	<node id="-208821" lat="59.5499472268" lon="10.0732138835">
		<tag k="name" v="Dunnaren" />
		<tag k="place" v="locality" />
		<tag k="ssr:stedsnr" v="514314" />
	</node>
	<node id="-208818" lat="59.5641472243" lon="9.98380278416">
		<tag k="name" v="Tiursvingen" />
		<tag k="natural" v="valley" />
		<tag k="place" v="locality" />
		<tag k="ssr:stedsnr" v="392501" />
	</node>
	<node id="-208816" lat="59.5036499972" lon="10.1434166669">
		<tag k="name" v="Bråtan" />
		<tag k="place" v="locality" />
		<tag k="ssr:stedsnr" v="755068" />
	</node>
	<node id="-208814" lat="59.5482194486" lon="9.96817500062">
		<tag k="name" v="Hajerdalen" />
		<tag k="natural" v="valley" />
		<tag k="place" v="locality" />
		<tag k="ssr:stedsnr" v="28522" />
	</node>
	<node id="-208807" lat="59.554850001" lon="9.9745638877">
		<tag k="name" v="Storseterstulen" />
		<tag k="natural" v="hill" />
		<tag k="place" v="locality" />
		<tag k="ssr:stedsnr" v="938470" />
	</node>
	<node id="-208805" lat="59.5057416661" lon="10.1206138913">
		<tag k="name" v="Kilejota" />
		<tag k="natural" v="valley" />
		<tag k="place" v="locality" />
		<tag k="ssr:stedsnr" v="938046" />
	</node>
	<node id="-208804" lat="59.57269722" lon="10.107186108">
		<tag k="fixme" v="consider natural=peak for the most distinct mountains in the district" />
		<tag k="name" v="Stueåsen" />
		<tag k="natural" v="hill" />
		<tag k="place" v="locality" />
		<tag k="ssr:stedsnr" v="271400" />
	</node>
	<node id="-208801" lat="59.5012555528" lon="10.1412305507">
		<tag k="name" v="Lønnekleiv" />
		<tag k="natural" v="slope" />
		<tag k="place" v="locality" />
		<tag k="ssr:stedsnr" v="330078" />
	</node>
	<node id="-208799" lat="59.6129333329" lon="10.049044436">
		<tag k="name" v="Jordbærbonn" />
		<tag k="natural" v="valley" />
		<tag k="place" v="locality" />
		<tag k="ssr:stedsnr" v="756729" />
	</node>
	<node id="-208798" lat="59.5621222236" lon="10.0162555591">
		<tag k="name" v="Stokkeseterstulen" />
		<tag k="natural" v="hill" />
		<tag k="place" v="locality" />
		<tag k="ssr:stedsnr" v="877343" />
	</node>
	<node id="-208797" lat="59.6077222222" lon="10.0529027827">
		<tag k="name" v="Tekstjernkollen" />
		<tag k="natural" v="hill" />
		<tag k="place" v="locality" />
		<tag k="ssr:stedsnr" v="756730" />
	</node>
	<node id="-208796" lat="59.4935444453" lon="10.1215499914">
		<tag k="name" v="Bjørnestille" />
		<tag k="natural" v="valley" />
		<tag k="place" v="locality" />
		<tag k="ssr:stedsnr" v="148494" />
	</node>
	<node id="-208795" lat="59.567294441" lon="10.0581861099">
		<tag k="name" v="Bjønneroa" />
		<tag k="natural" v="valley" />
		<tag k="place" v="locality" />
		<tag k="ssr:stedsnr" v="695655" />
	</node>
	<node id="-208791" lat="59.4807666667" lon="10.0823333312">
		<tag k="name" v="Plasse Løkka" />
		<tag k="place" v="locality" />
		<tag k="ssr:stedsnr" v="391479" />
	</node>
	<node id="-208790" lat="59.5688166672" lon="10.1240500064">
		<tag k="name" v="Gampedalen" />
		<tag k="natural" v="valley" />
		<tag k="place" v="locality" />
		<tag k="ssr:stedsnr" v="938675" />
	</node>
	<node id="-208789" lat="59.5659805544" lon="9.9563138818">
		<tag k="name" v="Grønntjernlia" />
		<tag k="natural" v="slope" />
		<tag k="place" v="locality" />
		<tag k="ssr:stedsnr" v="392513" />
	</node>
	<node id="-208788" lat="59.4969888903" lon="10.1075583412">
		<tag k="name" v="Plassløkka" />
		<tag k="place" v="locality" />
		<tag k="ssr:stedsnr" v="330073" />
	</node>
	<node id="-208785" lat="59.5814500013" lon="10.0361861094">
		<tag k="name" v="Linnerønningen" />
		<tag k="place" v="locality" />
		<tag k="ssr:stedsnr" v="331474" />
	</node>
	<node id="-208784" lat="59.5009222236" lon="10.1030805631">
		<tag k="name" v="Olabråtan" />
		<tag k="place" v="locality" />
		<tag k="ssr:stedsnr" v="755061" />
	</node>
	<node id="-208783" lat="59.4973222236" lon="10.1256305472">
		<tag k="name" v="Gampedalen" />
		<tag k="natural" v="valley" />
		<tag k="place" v="locality" />
		<tag k="ssr:stedsnr" v="148498" />
	</node>
	<node id="-208782" lat="59.5420916629" lon="10.0244694433">
		<tag k="fixme" v="consider natural=peak for the most distinct mountains in the district" />
		<tag k="name" v="Bikjeleiken" />
		<tag k="natural" v="hill" />
		<tag k="place" v="locality" />
		<tag k="ssr:stedsnr" v="28517" />
	</node>
	<node id="-208781" lat="59.5747305569" lon="10.029052786">
		<tag k="fixme" v="consider natural=peak for the most distinct mountains in the district" />
		<tag k="name" v="Holtåsen" />
		<tag k="natural" v="hill" />
		<tag k="place" v="locality" />
		<tag k="ssr:stedsnr" v="331471" />
	</node>
	<node id="-208780" lat="59.6437944401" lon="9.98958055913">
		<tag k="name" v="Hellemoen" />
		<tag k="place" v="locality" />
		<tag k="ssr:stedsnr" v="574334" />
	</node>
	<node id="-208778" lat="59.5895305524" lon="10.1011166693">
		<tag k="name" v="Bergstigen" />
		<tag k="natural" v="valley" />
		<tag k="place" v="locality" />
		<tag k="ssr:stedsnr" v="271393" />
	</node>
	<node id="-208773" lat="59.6129888866" lon="10.0251861132">
		<tag k="fixme" v="consider natural=peak for the most distinct mountains in the district" />
		<tag k="name" v="Hovåsen" />
		<tag k="natural" v="hill" />
		<tag k="place" v="locality" />
		<tag k="ssr:stedsnr" v="65060" />
	</node>
	<node id="-208768" lat="59.4669777818" lon="10.1239500027">
		<tag k="name" v="Orejota" />
		<tag k="natural" v="hill" />
		<tag k="place" v="locality" />
		<tag k="ssr:stedsnr" v="755517" />
	</node>
	<node id="-208766" lat="59.4882250024" lon="10.0604000071">
		<tag k="name" v="Kastet" />
		<tag k="natural" v="slope" />
		<tag k="place" v="locality" />
		<tag k="ssr:stedsnr" v="937042" />
	</node>
	<node id="-208763" lat="59.4569083355" lon="10.1298694465">
		<tag k="name" v="Myrholmen" />
		<tag k="place" v="locality" />
		<tag k="ssr:stedsnr" v="88079" />
	</node>
	<node id="-208757" lat="59.5000583296" lon="10.0483305564">
		<tag k="name" v="Almkloa" />
		<tag k="natural" v="valley" />
		<tag k="place" v="locality" />
		<tag k="ssr:stedsnr" v="330052" />
	</node>
	<node id="-208756" lat="59.6305777792" lon="10.0245916746">
		<tag k="name" v="Spissen" />
		<tag k="natural" v="valley" />
		<tag k="place" v="locality" />
		<tag k="ssr:stedsnr" v="271375" />
	</node>
	<node id="-208755" lat="59.5539194481" lon="10.1030166698">
		<tag k="fixme" v="consider natural=peak for the most distinct mountains in the district" />
		<tag k="name" v="Vassengåsen" />
		<tag k="natural" v="hill" />
		<tag k="place" v="locality" />
		<tag k="ssr:stedsnr" v="817672" />
	</node>
	<node id="-208751" lat="59.5489999992" lon="10.0040944446">
		<tag k="fixme" v="consider natural=peak for the most distinct mountains in the district" />
		<tag k="name" v="Høgås" />
		<tag k="natural" v="hill" />
		<tag k="place" v="locality" />
		<tag k="ssr:stedsnr" v="368010" />
	</node>
	<node id="-208748" lat="59.5532777822" lon="10.0316722214">
		<tag k="alt_name" v="Svarttjernåsen" />
		<tag k="name" v="Svartetjernhøgdene" />
		<tag k="natural" v="hill" />
		<tag k="place" v="locality" />
		<tag k="ssr:stedsnr" v="306038" />
	</node>
	<node id="-208747" lat="59.561980552" lon="10.0968749987">
		<tag k="name" v="Gaupåsløkka" />
		<tag k="natural" v="slope" />
		<tag k="place" v="locality" />
		<tag k="ssr:stedsnr" v="513693" />
	</node>
	<node id="-208746" lat="59.5185444455" lon="10.066236109">
		<tag k="fixme" v="consider natural=peak for the most distinct mountains in the district" />
		<tag k="name" v="Tjøneberga" />
		<tag k="natural" v="hill" />
		<tag k="place" v="locality" />
		<tag k="ssr:stedsnr" v="634399" />
	</node>
	<node id="-208741" lat="59.546911112" lon="10.0521999942">
		<tag k="name" v="Vrangkleiv" />
		<tag k="natural" v="valley" />
		<tag k="place" v="locality" />
		<tag k="ssr:stedsnr" v="514305" />
	</node>
	<node id="-208740" lat="59.5734805576" lon="10.1249222163">
		<tag k="name" v="Hattekollen" />
		<tag k="natural" v="hill" />
		<tag k="place" v="locality" />
		<tag k="ssr:stedsnr" v="877361" />
	</node>
	<node id="-208736" lat="59.6166833309" lon="10.0455444485">
		<tag k="fixme" v="consider natural=peak for the most distinct mountains in the district" />
		<tag k="name" v="St. Hansås" />
		<tag k="natural" v="hill" />
		<tag k="place" v="locality" />
		<tag k="ssr:stedsnr" v="938687" />
	</node>
	<node id="-208731" lat="59.5050472194" lon="10.1244027701">
		<tag k="name" v="Utsikten" />
		<tag k="natural" v="hill" />
		<tag k="place" v="locality" />
		<tag k="ssr:stedsnr" v="148047" />
	</node>
	<node id="-208730" lat="59.5982527782" lon="9.9567416715">
		<tag k="name" v="Klubbekollen" />
		<tag k="natural" v="hill" />
		<tag k="place" v="locality" />
		<tag k="ssr:stedsnr" v="89308" />
	</node>
	<node id="-208727" lat="59.6050611088" lon="9.9584444493">
		<tag k="name" v="Bjønnehølet" />
		<tag k="natural" v="valley" />
		<tag k="place" v="locality" />
		<tag k="ssr:stedsnr" v="28296" />
	</node>
	<node id="-208725" lat="59.5557472265" lon="10.0362083336">
		<tag k="fixme" v="consider natural=peak for the most distinct mountains in the district" />
		<tag k="name" v="Jomfrutrippen" />
		<tag k="natural" v="hill" />
		<tag k="place" v="locality" />
		<tag k="ssr:stedsnr" v="149321" />
	</node>
	<node id="-208724" lat="59.6507111136" lon="10.0221722188">
		<tag k="fixme" v="consider natural=peak for the most distinct mountains in the district" />
		<tag k="name" v="Sandseteråsen" />
		<tag k="natural" v="hill" />
		<tag k="place" v="locality" />
		<tag k="ssr:stedsnr" v="670126" />
	</node>
	<node id="-208722" lat="59.5654916707" lon="9.97456111113">
		<tag k="fixme" v="consider natural=peak for the most distinct mountains in the district" />
		<tag k="name" v="Vikeseteråsen" />
		<tag k="natural" v="hill" />
		<tag k="place" v="locality" />
		<tag k="ssr:stedsnr" v="331459" />
	</node>
	<node id="-208721" lat="59.5445611138" lon="10.0571611109">
		<tag k="name" v="Dammhøgste" />
		<tag k="natural" v="ridge" />
		<tag k="place" v="locality" />
		<tag k="ssr:stedsnr" v="939283" />
	</node>
	<node id="-208719" lat="59.5644333365" lon="10.1075805583">
		<tag k="name" v="Hestenga" />
		<tag k="place" v="locality" />
		<tag k="ssr:stedsnr" v="331679" />
	</node>
	<node id="-208718" lat="59.5493611144" lon="10.0539694373">
		<tag k="fixme" v="consider natural=peak for the most distinct mountains in the district" />
		<tag k="name" v="Bjønnåsen" />
		<tag k="natural" v="hill" />
		<tag k="place" v="locality" />
		<tag k="ssr:stedsnr" v="332272" />
	</node>
	<node id="-208717" lat="59.636186112" lon="10.0099722176">
		<tag k="name" v="Jordbakk" />
		<tag k="natural" v="hill" />
		<tag k="place" v="locality" />
		<tag k="ssr:stedsnr" v="271381" />
	</node>
	<node id="-208714" lat="59.5436027812" lon="10.064375006">
		<tag k="name" v="Bråtan" />
		<tag k="natural" v="slope" />
		<tag k="place" v="locality" />
		<tag k="ssr:stedsnr" v="939284" />
	</node>
	<node id="-208713" lat="59.5631777743" lon="10.004525003">
		<tag k="name" v="Skogslia" />
		<tag k="natural" v="slope" />
		<tag k="place" v="locality" />
		<tag k="ssr:stedsnr" v="756320" />
	</node>
	<node id="-208709" lat="59.5596000014" lon="10.0657249981">
		<tag k="name" v="Maurhaugen" />
		<tag k="natural" v="hill" />
		<tag k="place" v="locality" />
		<tag k="ssr:stedsnr" v="331677" />
	</node>
	<node id="-208705" lat="59.5000666652" lon="10.0871111117">
		<tag k="name" v="Grinaløkka" />
		<tag k="place" v="locality" />
		<tag k="ssr:stedsnr" v="330058" />
	</node>
	<node id="-208703" lat="59.5123138849" lon="10.0580555615">
		<tag k="name" v="Brånan" />
		<tag k="natural" v="hill" />
		<tag k="place" v="locality" />
		<tag k="ssr:stedsnr" v="3976" />
	</node>
	<node id="-208701" lat="59.5641527759" lon="9.94775555266">
		<tag k="fixme" v="consider natural=peak for the most distinct mountains in the district" />
		<tag k="name" v="Grøntjernkollen" />
		<tag k="natural" v="hill" />
		<tag k="place" v="locality" />
		<tag k="ssr:stedsnr" v="938478" />
	</node>
	<node id="-208698" lat="59.5306416657" lon="10.0829694446">
		<tag k="name" v="Thorshaug" />
		<tag k="natural" v="hill" />
		<tag k="place" v="locality" />
		<tag k="ssr:stedsnr" v="392285" />
	</node>
	<node id="-208695" lat="59.5422805586" lon="10.0595638805">
		<tag k="fixme" v="consider natural=peak for the most distinct mountains in the district" />
		<tag k="name" v="Dammen" />
		<tag k="natural" v="hill" />
		<tag k="place" v="locality" />
		<tag k="ssr:stedsnr" v="877324" />
	</node>
	<node id="-208693" lat="59.4606305548" lon="10.1239388908">
		<tag k="name" v="Sagdammen" />
		<tag k="place" v="locality" />
		<tag k="ssr:stedsnr" v="270113" />
	</node>
	<node id="-208691" lat="59.5704833378" lon="10.1226694431">
		<tag k="fixme" v="consider natural=peak for the most distinct mountains in the district" />
		<tag k="name" v="Stueåsen" />
		<tag k="natural" v="hill" />
		<tag k="place" v="locality" />
		<tag k="ssr:stedsnr" v="574713" />
	</node>
	<node id="-208690" lat="59.4998222258" lon="10.0631111037">
		<tag k="name" v="Hesthagen" />
		<tag k="natural" v="hill" />
		<tag k="place" v="locality" />
		<tag k="ssr:stedsnr" v="755044" />
	</node>
	<node id="-208689" lat="59.4641750029" lon="10.1270944416">
		<tag k="name" v="Orejota" />
		<tag k="natural" v="slope" />
		<tag k="place" v="locality" />
		<tag k="ssr:stedsnr" v="270112" />
	</node>
	<node id="-208687" lat="59.5593638888" lon="10.0391611094">
		<tag k="name" v="Nedre svingen" />
		<tag k="natural" v="valley" />
		<tag k="place" v="locality" />
		<tag k="ssr:stedsnr" v="513680" />
	</node>
	<node id="-208681" lat="59.4825666692" lon="10.1102444409">
		<tag k="name" v="Ådalen" />
		<tag k="natural" v="valley" />
		<tag k="place" v="locality" />
		<tag k="ssr:stedsnr" v="270518" />
	</node>
	<node id="-208679" lat="59.5021527761" lon="10.1009500047">
		<tag k="fixme" v="consider natural=peak for the most distinct mountains in the district" />
		<tag k="name" v="Mauråsen" />
		<tag k="natural" v="hill" />
		<tag k="place" v="locality" />
		<tag k="ssr:stedsnr" v="512056" />
	</node>
	<node id="-208678" lat="59.4826611138" lon="10.0587249966">
		<tag k="name" v="Ådalen" />
		<tag k="natural" v="valley" />
		<tag k="place" v="locality" />
		<tag k="ssr:stedsnr" v="148477" />
	</node>
	<node id="-208675" lat="59.5017999979" lon="10.0430638836">
		<tag k="name" v="Andersfeltet" />
		<tag k="natural" v="slope" />
		<tag k="place" v="locality" />
		<tag k="ssr:stedsnr" v="330037" />
	</node>
	<node id="-208674" lat="59.5053694477" lon="10.1307583272">
		<tag k="name" v="Harejota" />
		<tag k="natural" v="valley" />
		<tag k="place" v="locality" />
		<tag k="ssr:stedsnr" v="148045" />
	</node>
	<node id="-208672" lat="59.4654055555" lon="10.0658277767">
		<tag k="name" v="Bjønnehølet" />
		<tag k="natural" v="valley" />
		<tag k="place" v="locality" />
		<tag k="ssr:stedsnr" v="755467" />
	</node>
	<node id="-208667" lat="59.4773666648" lon="10.0886444439">
		<tag k="name" v="Sauehaugen" />
		<tag k="natural" v="hill" />
		<tag k="place" v="locality" />
		<tag k="ssr:stedsnr" v="877522" />
	</node>
	<node id="-208666" lat="59.5419333377" lon="9.99936388885">
		<tag k="fixme" v="consider natural=peak for the most distinct mountains in the district" />
		<tag k="name" v="Voldsås" />
		<tag k="natural" v="hill" />
		<tag k="place" v="locality" />
		<tag k="ssr:stedsnr" v="692434" />
	</node>
	<node id="-208665" lat="59.4510388909" lon="10.1404000053">
		<tag k="fixme" v="consider natural=peak for the most distinct mountains in the district" />
		<tag k="name" v="Plankåsen" />
		<tag k="natural" v="hill" />
		<tag k="place" v="locality" />
		<tag k="ssr:stedsnr" v="877112" />
	</node>
	<node id="-208661" lat="59.5181916652" lon="10.0164055597">
		<tag k="name" v="Åsseterdalen" />
		<tag k="natural" v="valley" />
		<tag k="place" v="locality" />
		<tag k="ssr:stedsnr" v="692431" />
	</node>
	<node id="-208660" lat="59.5903777814" lon="9.98425277835">
		<tag k="name" v="Finnebund" />
		<tag k="place" v="locality" />
		<tag k="ssr:stedsnr" v="28495" />
	</node>
	<node id="-208659" lat="59.5951249991" lon="10.0879361196">
		<tag k="name" v="Svensken" />
		<tag k="natural" v="hill" />
		<tag k="place" v="locality" />
		<tag k="ssr:stedsnr" v="671118" />
	</node>
	<node id="-208655" lat="59.5323027809" lon="10.0370638945">
		<tag k="name" v="Geiteryggen" />
		<tag k="natural" v="ridge" />
		<tag k="place" v="locality" />
		<tag k="ssr:stedsnr" v="692432" />
	</node>
	<node id="-208651" lat="59.5399611086" lon="9.98983889732">
		<tag k="fixme" v="consider natural=peak for the most distinct mountains in the district" />
		<tag k="name" v="Lyaråsen" />
		<tag k="natural" v="hill" />
		<tag k="place" v="locality" />
		<tag k="ssr:stedsnr" v="634553" />
	</node>
	<node id="-208649" lat="59.5712527801" lon="10.0423944519">
		<tag k="fixme" v="consider natural=peak for the most distinct mountains in the district" />
		<tag k="name" v="Dammås" />
		<tag k="natural" v="hill" />
		<tag k="place" v="locality" />
		<tag k="ssr:stedsnr" v="938647" />
	</node>
	<node id="-208647" lat="59.460938891" lon="10.1302055488">
		<tag k="name" v="Nordskogløkka" />
		<tag k="place" v="locality" />
		<tag k="ssr:stedsnr" v="270118" />
	</node>
	<node id="-208645" lat="59.5523555588" lon="10.0223388887">
		<tag k="name" v="Mørkedal" />
		<tag k="natural" v="valley" />
		<tag k="place" v="locality" />
		<tag k="ssr:stedsnr" v="88269" />
	</node>
	<node id="-208643" lat="59.4644111104" lon="10.1339916643">
		<tag k="name" v="Langelibrottet" />
		<tag k="natural" v="slope" />
		<tag k="place" v="locality" />
		<tag k="ssr:stedsnr" v="270117" />
	</node>
	<node id="-208641" lat="59.5579305566" lon="10.0394805622">
		<tag k="name" v="Askejota" />
		<tag k="natural" v="valley" />
		<tag k="place" v="locality" />
		<tag k="ssr:stedsnr" v="938649" />
	</node>
	<node id="-208639" lat="59.4691583356" lon="10.0757083334">
		<tag k="name" v="Ådalsskiftet" />
		<tag k="natural" v="valley" />
		<tag k="place" v="locality" />
		<tag k="ssr:stedsnr" v="877527" />
	</node>
	<node id="-208638" lat="59.5817828545" lon="9.96958043121">
		<tag k="alt_name" v="Skibergfjell" />
		<tag k="fixme" v="consider natural=peak for the most distinct mountains in the district" />
		<tag k="name" v="Skibergfjellet" />
		<tag k="natural" v="hill" />
		<tag k="place" v="locality" />
		<tag k="ssr:stedsnr" v="853018" />
	</node>
	<node id="-208636" lat="59.5323638879" lon="10.0303194475">
		<tag k="name" v="Kippen" />
		<tag k="place" v="locality" />
		<tag k="ssr:stedsnr" v="692429" />
	</node>
	<node id="-208633" lat="59.5140666639" lon="10.0223222168">
		<tag k="name" v="Danserberget" />
		<tag k="natural" v="hill" />
		<tag k="place" v="locality" />
		<tag k="ssr:stedsnr" v="328420" />
	</node>
	<node id="-208630" lat="59.6435055595" lon="10.0271999998">
		<tag k="alt_name" v="Bjønnstillingsås" />
		<tag k="fixme" v="consider natural=peak for the most distinct mountains in the district" />
		<tag k="name" v="Bjørnestillingsåsen" />
		<tag k="natural" v="hill" />
		<tag k="place" v="locality" />
		<tag k="ssr:stedsnr" v="306166" />
	</node>
	<node id="-208627" lat="59.5392083376" lon="10.014836104">
		<tag k="fixme" v="consider natural=peak for the most distinct mountains in the district" />
		<tag k="name" v="Sundbyholmene" />
		<tag k="natural" v="hill" />
		<tag k="place" v="locality" />
		<tag k="ssr:stedsnr" v="756513" />
	</node>
	<node id="-208619" lat="59.5565277745" lon="10.0157861137">
		<tag k="name" v="Persebunn" />
		<tag k="natural" v="valley" />
		<tag k="place" v="locality" />
		<tag k="ssr:stedsnr" v="149303" />
	</node>
	<node id="-208618" lat="59.4997416702" lon="10.111966661">
		<tag k="name" v="Langbråtan" />
		<tag k="place" v="locality" />
		<tag k="ssr:stedsnr" v="573457" />
	</node>
	<node id="-208617" lat="59.6073861098" lon="10.0793555574">
		<tag k="name" v="Seterdalen" />
		<tag k="natural" v="valley" />
		<tag k="place" v="locality" />
		<tag k="ssr:stedsnr" v="89498" />
	</node>
	<node id="-208616" lat="59.5426833326" lon="10.0364805619">
		<tag k="name" v="Langrallen" />
		<tag k="natural" v="hill" />
		<tag k="place" v="locality" />
		<tag k="ssr:stedsnr" v="271559" />
	</node>
	<node id="-208614" lat="59.5713361073" lon="9.97746666521">
		<tag k="name" v="Kutjerndalen" />
		<tag k="natural" v="valley" />
		<tag k="place" v="locality" />
		<tag k="ssr:stedsnr" v="938455" />
	</node>
	<node id="-208613" lat="59.4677861101" lon="10.1146750047">
		<tag k="name" v="Skyttarbråtan" />
		<tag k="place" v="locality" />
		<tag k="ssr:stedsnr" v="270504" />
	</node>
	<node id="-208612" lat="59.5628166679" lon="10.1284166706">
		<tag k="fixme" v="consider natural=peak for the most distinct mountains in the district" />
		<tag k="name" v="Høgetømmerås" />
		<tag k="natural" v="hill" />
		<tag k="place" v="locality" />
		<tag k="ssr:stedsnr" v="28691" />
	</node>
	<node id="-208610" lat="59.57291944" lon="10.1369611109">
		<tag k="alt_name" v="Seteråsen" />
		<tag k="fixme" v="consider natural=peak for the most distinct mountains in the district" />
		<tag k="name" v="Sæteråsen" />
		<tag k="natural" v="hill" />
		<tag k="place" v="locality" />
		<tag k="ssr:stedsnr" v="428010" />
	</node>
	<node id="-208608" lat="59.5003138858" lon="10.059169451">
		<tag k="fixme" v="consider natural=peak for the most distinct mountains in the district" />
		<tag k="name" v="Hesthageåsen" />
		<tag k="natural" v="hill" />
		<tag k="place" v="locality" />
		<tag k="ssr:stedsnr" v="148033" />
	</node>
	<node id="-208606" lat="59.4935138869" lon="10.0928611077">
		<tag k="name" v="Tryteberg" />
		<tag k="place" v="locality" />
		<tag k="ssr:stedsnr" v="755049" />
	</node>
	<node id="-208603" lat="59.5268749999" lon="10.0229527803">
		<tag k="name" v="Sundbyskarva" />
		<tag k="natural" v="hill" />
		<tag k="place" v="locality" />
		<tag k="ssr:stedsnr" v="206419" />
	</node>
	<node id="-208602" lat="59.4979861125" lon="10.1177222158">
		<tag k="fixme" v="consider natural=peak for the most distinct mountains in the district" />
		<tag k="name" v="Seteråsen" />
		<tag k="natural" v="hill" />
		<tag k="place" v="locality" />
		<tag k="ssr:stedsnr" v="573461" />
	</node>
	<node id="-208598" lat="59.6086611132" lon="9.95686666775">
		<tag k="name" v="Blank-berga" />
		<tag k="natural" v="hill" />
		<tag k="place" v="locality" />
		<tag k="ssr:stedsnr" v="756299" />
	</node>
	<node id="-208594" lat="59.501777782" lon="10.1355194431">
		<tag k="fixme" v="consider natural=peak for the most distinct mountains in the district" />
		<tag k="name" v="Lørdalåsen" />
		<tag k="natural" v="hill" />
		<tag k="place" v="locality" />
		<tag k="ssr:stedsnr" v="88046" />
	</node>
	<node id="-208593" lat="59.5573166705" lon="10.0615861184">
		<tag k="name" v="Gråten" />
		<tag k="place" v="locality" />
		<tag k="ssr:stedsnr" v="938661" />
	</node>
	<node id="-208591" lat="59.4648250017" lon="10.0786305606">
		<tag k="name" v="Jordslia" />
		<tag k="natural" v="slope" />
		<tag k="place" v="locality" />
		<tag k="ssr:stedsnr" v="270513" />
	</node>
	<node id="-208588" lat="59.6287999971" lon="10.0201750074">
		<tag k="fixme" v="consider natural=peak for the most distinct mountains in the district" />
		<tag k="name" v="Falkenåsen" />
		<tag k="natural" v="hill" />
		<tag k="place" v="locality" />
		<tag k="ssr:stedsnr" v="3082" />
	</node>
	<node id="-208584" lat="59.551438889" lon="9.96401667188">
		<tag k="name" v="Loddebettet" />
		<tag k="natural" v="valley" />
		<tag k="place" v="locality" />
		<tag k="ssr:stedsnr" v="28478" />
	</node>
	<node id="-208582" lat="59.5819444455" lon="9.98489722509">
		<tag k="name" v="Ramskollbakkane" />
		<tag k="natural" v="slope" />
		<tag k="place" v="locality" />
		<tag k="ssr:stedsnr" v="573466" />
	</node>
	<node id="-208580" lat="59.5127972204" lon="10.0300444453">
		<tag k="fixme" v="consider natural=peak for the most distinct mountains in the district" />
		<tag k="name" v="Fjellet" />
		<tag k="natural" v="hill" />
		<tag k="place" v="locality" />
		<tag k="ssr:stedsnr" v="206412" />
	</node>
	<node id="-208578" lat="59.4477194455" lon="10.1370333279">
		<tag k="name" v="Trengsledalen" />
		<tag k="natural" v="valley" />
		<tag k="place" v="locality" />
		<tag k="ssr:stedsnr" v="633145" />
	</node>
	<node id="-208576" lat="59.5701750013" lon="10.1357694397">
		<tag k="name" v="Saksedalen" />
		<tag k="natural" v="valley" />
		<tag k="place" v="locality" />
		<tag k="ssr:stedsnr" v="89684" />
	</node>
	<node id="-208575" lat="59.5361000039" lon="10.030788887">
		<tag k="fixme" v="consider natural=peak for the most distinct mountains in the district" />
		<tag k="name" v="Bilebergåsen" />
		<tag k="natural" v="hill" />
		<tag k="place" v="locality" />
		<tag k="ssr:stedsnr" v="149498" />
	</node>
	<node id="-208571" lat="59.499938891" lon="10.1021222264">
		<tag k="name" v="Plassløkka" />
		<tag k="place" v="locality" />
		<tag k="ssr:stedsnr" v="573040" />
	</node>
	<node id="-208570" lat="59.5037416655" lon="10.0407277836">
		<tag k="name" v="Stubbslehogste" />
		<tag k="natural" v="hill" />
		<tag k="place" v="locality" />
		<tag k="ssr:stedsnr" v="512026" />
	</node>
	<node id="-208565" lat="59.5227444467" lon="10.0562194413">
		<tag k="name" v="Ø. Gurrikstumoen" />
		<tag k="place" v="locality" />
		<tag k="ssr:stedsnr" v="695401" />
	</node>
	<node id="-208562" lat="59.4622638887" lon="10.1253333332">
		<tag k="fixme" v="consider natural=peak for the most distinct mountains in the district" />
		<tag k="name" v="Sjuestuåsen" />
		<tag k="natural" v="hill" />
		<tag k="place" v="locality" />
		<tag k="ssr:stedsnr" v="816118" />
	</node>
	<node id="-208557" lat="59.4629055565" lon="10.1144305633">
		<tag k="name" v="Høyrønningen" />
		<tag k="natural" v="hill" />
		<tag k="place" v="locality" />
		<tag k="ssr:stedsnr" v="877097" />
	</node>
	<node id="-208555" lat="59.510302782" lon="10.0415277824">
		<tag k="name" v="Fjelldalen" />
		<tag k="natural" v="valley" />
		<tag k="place" v="locality" />
		<tag k="ssr:stedsnr" v="817384" />
	</node>
	<node id="-208554" lat="59.5597888886" lon="10.0547972271">
		<tag k="name" v="Løkkene" />
		<tag k="place" v="locality" />
		<tag k="ssr:stedsnr" v="89678" />
	</node>
	<node id="-208553" lat="59.5488166662" lon="10.0527638904">
		<tag k="name" v="Stordalen" />
		<tag k="natural" v="valley" />
		<tag k="place" v="locality" />
		<tag k="ssr:stedsnr" v="574689" />
	</node>
	<node id="-208552" lat="59.4617638912" lon="10.0654000031">
		<tag k="name" v="Oppstig" />
		<tag k="natural" v="hill" />
		<tag k="place" v="locality" />
		<tag k="ssr:stedsnr" v="270092" />
	</node>
	<node id="-208551" lat="59.6124888931" lon="9.97185277418">
		<tag k="name" v="Veslehamna" />
		<tag k="place" v="locality" />
		<tag k="ssr:stedsnr" v="149283" />
	</node>
	<node id="-208550" lat="59.5333250023" lon="10.0448805626">
		<tag k="fixme" v="consider natural=peak for the most distinct mountains in the district" />
		<tag k="name" v="Mellom-kanelen" />
		<tag k="natural" v="hill" />
		<tag k="place" v="locality" />
		<tag k="ssr:stedsnr" v="877291" />
	</node>
	<node id="-208547" lat="59.5717888851" lon="10.0500083275">
		<tag k="name" v="Moane" />
		<tag k="place" v="locality" />
		<tag k="ssr:stedsnr" v="28673" />
	</node>
	<node id="-208544" lat="59.5608000032" lon="10.0471583421">
		<tag k="name" v="Stutekleiv" />
		<tag k="natural" v="slope" />
		<tag k="place" v="locality" />
		<tag k="ssr:stedsnr" v="756696" />
	</node>
	<node id="-208543" lat="59.5274194407" lon="10.060308332">
		<tag k="fixme" v="consider natural=peak for the most distinct mountains in the district" />
		<tag k="name" v="Furuåsen" />
		<tag k="natural" v="hill" />
		<tag k="place" v="locality" />
		<tag k="ssr:stedsnr" v="513426" />
	</node>
	<node id="-208542" lat="59.5249777754" lon="10.0030583293">
		<tag k="fixme" v="consider natural=peak for the most distinct mountains in the district" />
		<tag k="name" v="Blåkollen" />
		<tag k="natural" v="hill" />
		<tag k="place" v="locality" />
		<tag k="ssr:stedsnr" v="609865" />
	</node>
	<node id="-208539" lat="59.4844138921" lon="10.1211583348">
		<tag k="name" v="Dulmondkollen" />
		<tag k="natural" v="hill" />
		<tag k="place" v="locality" />
		<tag k="ssr:stedsnr" v="877517" />
	</node>
	<node id="-208534" lat="59.563855556" lon="10.0554416642">
		<tag k="name" v="Moen" />
		<tag k="natural" v="valley" />
		<tag k="place" v="locality" />
		<tag k="ssr:stedsnr" v="28661" />
	</node>
	<node id="-208533" lat="59.5892777765" lon="10.0147888898">
		<tag k="name" v="Bråtan" />
		<tag k="natural" v="slope" />
		<tag k="place" v="locality" />
		<tag k="ssr:stedsnr" v="271532" />
	</node>
	<node id="-208529" lat="59.5034916676" lon="10.1536805549">
		<tag k="name" v="Svartebu" />
		<tag k="natural" v="slope" />
		<tag k="place" v="locality" />
		<tag k="ssr:stedsnr" v="513641" />
	</node>
	<node id="-208528" lat="59.4678777751" lon="10.0730944419">
		<tag k="name" v="Bråten" />
		<tag k="place" v="locality" />
		<tag k="ssr:stedsnr" v="573433" />
	</node>
	<node id="-208527" lat="59.4824527755" lon="10.1171388923">
		<tag k="name" v="Barlindslette" />
		<tag k="place" v="locality" />
		<tag k="ssr:stedsnr" v="88436" />
	</node>
	<node id="-208525" lat="59.5778555539" lon="10.1362777725">
		<tag k="fixme" v="consider natural=peak for the most distinct mountains in the district" />
		<tag k="name" v="Mauråsen" />
		<tag k="natural" v="hill" />
		<tag k="place" v="locality" />
		<tag k="ssr:stedsnr" v="306004" />
	</node>
	<node id="-208522" lat="59.5663138852" lon="10.0753138872">
		<tag k="name" v="Lia nordre" />
		<tag k="place" v="locality" />
		<tag k="ssr:stedsnr" v="89665" />
	</node>
	<node id="-208520" lat="59.570033336" lon="10.0396083388">
		<tag k="name" v="Ruteliane" />
		<tag k="natural" v="slope" />
		<tag k="place" v="locality" />
		<tag k="ssr:stedsnr" v="756688" />
	</node>
	<node id="-208518" lat="59.5415944483" lon="10.1373305549">
		<tag k="name" v="Dalene" />
		<tag k="natural" v="valley" />
		<tag k="place" v="locality" />
		<tag k="ssr:stedsnr" v="756271" />
	</node>
	<node id="-208517" lat="59.5417249963" lon="10.0227111086">
		<tag k="name" v="Fjøsdalen" />
		<tag k="natural" v="valley" />
		<tag k="place" v="locality" />
		<tag k="ssr:stedsnr" v="634543" />
	</node>
	<node id="-208512" lat="59.6011166661" lon="9.9381249947">
		<tag k="name" v="Øksnelia" />
		<tag k="natural" v="slope" />
		<tag k="place" v="locality" />
		<tag k="ssr:stedsnr" v="271330" />
	</node>
	<node id="-208511" lat="59.4628194457" lon="10.1332666662">
		<tag k="name" v="Langelihøgda" />
		<tag k="natural" v="hill" />
		<tag k="place" v="locality" />
		<tag k="ssr:stedsnr" v="816120" />
	</node>
	<node id="-208510" lat="59.4782611119" lon="10.0752888904">
		<tag k="name" v="Kølabonn" />
		<tag k="natural" v="hill" />
		<tag k="place" v="locality" />
		<tag k="ssr:stedsnr" v="573439" />
	</node>
	<node id="-208509" lat="59.5506888899" lon="10.1268361104">
		<tag k="name" v="Ravnåskollen" />
		<tag k="natural" v="hill" />
		<tag k="place" v="locality" />
		<tag k="ssr:stedsnr" v="731917" />
	</node>
	<node id="-208508" lat="59.5560805581" lon="9.99641665902">
		<tag k="name" v="Høgsetlia" />
		<tag k="natural" v="slope" />
		<tag k="place" v="locality" />
		<tag k="ssr:stedsnr" v="573440" />
	</node>
	<node id="-208506" lat="59.4965638866" lon="10.1351499994">
		<tag k="fixme" v="consider natural=peak for the most distinct mountains in the district" />
		<tag k="name" v="Moltemyråsen" />
		<tag k="natural" v="hill" />
		<tag k="place" v="locality" />
		<tag k="ssr:stedsnr" v="270487" />
	</node>
	<node id="-208505" lat="59.4960083362" lon="10.1274388812">
		<tag k="fixme" v="consider natural=peak for the most distinct mountains in the district" />
		<tag k="name" v="Lusemyråsen" />
		<tag k="natural" v="hill" />
		<tag k="place" v="locality" />
		<tag k="ssr:stedsnr" v="270486" />
	</node>
	<node id="-208503" lat="59.4949555591" lon="10.1204083404">
		<tag k="name" v="Pina" />
		<tag k="natural" v="valley" />
		<tag k="place" v="locality" />
		<tag k="ssr:stedsnr" v="270485" />
	</node>
	<node id="-208501" lat="59.5480027806" lon="10.0401166596">
		<tag k="name" v="Skavjøttene" />
		<tag k="natural" v="slope" />
		<tag k="place" v="locality" />
		<tag k="ssr:stedsnr" v="149270" />
	</node>
	<node id="-208499" lat="59.5947749995" lon="9.96524999229">
		<tag k="name" v="Siljulia" />
		<tag k="natural" v="slope" />
		<tag k="place" v="locality" />
		<tag k="ssr:stedsnr" v="149271" />
	</node>
	<node id="-208497" lat="59.5447777793" lon="10.1392888918">
		<tag k="name" v="Dalenlia" />
		<tag k="natural" v="slope" />
		<tag k="place" v="locality" />
		<tag k="ssr:stedsnr" v="271312" />
	</node>
	<node id="-208495" lat="59.5813555576" lon="9.99441943731">
		<tag k="fixme" v="consider natural=peak for the most distinct mountains in the district" />
		<tag k="name" v="Høgrønningsåsen" />
		<tag k="natural" v="hill" />
		<tag k="place" v="locality" />
		<tag k="ssr:stedsnr" v="88420" />
	</node>
	<node id="-208493" lat="59.576666663" lon="10.0029388966">
		<tag k="name" v="Brannbakken" />
		<tag k="natural" v="slope" />
		<tag k="place" v="locality" />
		<tag k="ssr:stedsnr" v="634508" />
	</node>
	<node id="-208492" lat="59.5002861142" lon="10.1517333322">
		<tag k="name" v="Gjelstadrønningen" />
		<tag k="place" v="locality" />
		<tag k="ssr:stedsnr" v="270059" />
	</node>
	<node id="-208489" lat="59.5503999983" lon="10.1053833387">
		<tag k="fixme" v="consider natural=peak for the most distinct mountains in the district" />
		<tag k="name" v="Tangenåsen" />
		<tag k="natural" v="hill" />
		<tag k="place" v="locality" />
		<tag k="ssr:stedsnr" v="149260" />
	</node>
	<node id="-208487" lat="59.5559888868" lon="9.96800833548">
		<tag k="fixme" v="consider natural=peak for the most distinct mountains in the district" />
		<tag k="name" v="Nordre-Storseteråsen" />
		<tag k="natural" v="hill" />
		<tag k="place" v="locality" />
		<tag k="ssr:stedsnr" v="634506" />
	</node>
	<node id="-208486" lat="59.5781777775" lon="10.0060222188">
		<tag k="name" v="Søndre Surka" />
		<tag k="natural" v="valley" />
		<tag k="place" v="locality" />
		<tag k="ssr:stedsnr" v="877482" />
	</node>
	<node id="-208482" lat="59.4819527758" lon="10.0697472224">
		<tag k="name" v="Utsikten" />
		<tag k="natural" v="hill" />
		<tag k="place" v="locality" />
		<tag k="ssr:stedsnr" v="270467" />
	</node>
	<node id="-208480" lat="59.6098972206" lon="9.96885832606">
		<tag k="name" v="Veslehamnlia" />
		<tag k="natural" v="slope" />
		<tag k="place" v="locality" />
		<tag k="ssr:stedsnr" v="878331" />
	</node>
	<node id="-208479" lat="59.5260333334" lon="10.0637444451">
		<tag k="name" v="Brekka" />
		<tag k="natural" v="slope" />
		<tag k="place" v="locality" />
		<tag k="ssr:stedsnr" v="938388" />
	</node>
	<node id="-208476" lat="59.6047305548" lon="10.0848083396">
		<tag k="alt_name" v="Seteråsen" />
		<tag k="fixme" v="consider natural=peak for the most distinct mountains in the district" />
		<tag k="name" v="Sæteråsen" />
		<tag k="natural" v="hill" />
		<tag k="place" v="locality" />
		<tag k="ssr:stedsnr" v="610142" />
	</node>
	<node id="-208474" lat="59.5247333358" lon="10.0420361158">
		<tag k="name" v="Pinehølen" />
		<tag k="natural" v="cliff" />
		<tag k="ssr:stedsnr" v="210395" />
	</node>
	<node id="-208473" lat="59.4943805531" lon="10.1338861194">
		<tag k="name" v="Skrubbdalen" />
		<tag k="natural" v="valley" />
		<tag k="place" v="locality" />
		<tag k="ssr:stedsnr" v="88422" />
	</node>
	<node id="-208464" lat="59.5593666659" lon="10.0592777794">
		<tag k="name" v="Rønninglia" />
		<tag k="natural" v="slope" />
		<tag k="place" v="locality" />
		<tag k="ssr:stedsnr" v="149667" />
	</node>
	<node id="-208462" lat="59.4843611109" lon="10.0703694448">
		<tag k="name" v="Gretteberglia" />
		<tag k="natural" v="slope" />
		<tag k="place" v="locality" />
		<tag k="ssr:stedsnr" v="877473" />
	</node>
	<node id="-208461" lat="59.5685388875" lon="9.98388888532">
		<tag k="name" v="Gråbeinlia" />
		<tag k="natural" v="slope" />
		<tag k="place" v="locality" />
		<tag k="ssr:stedsnr" v="149464" />
	</node>
	<node id="-208460" lat="59.5575638933" lon="9.95880277883">
		<tag k="name" v="Hajerlia" />
		<tag k="natural" v="slope" />
		<tag k="place" v="locality" />
		<tag k="ssr:stedsnr" v="271527" />
	</node>
	<node id="-208457" lat="59.5620111087" lon="9.9609611144">
		<tag k="fixme" v="consider natural=peak for the most distinct mountains in the district" />
		<tag k="name" v="Bamleåsen" />
		<tag k="natural" v="hill" />
		<tag k="place" v="locality" />
		<tag k="ssr:stedsnr" v="634503" />
	</node>
	<node id="-208456" lat="59.4565666661" lon="10.0670055542">
		<tag k="name" v="Bjørnemyrskarva" />
		<tag k="natural" v="hill" />
		<tag k="place" v="locality" />
		<tag k="ssr:stedsnr" v="633107" />
	</node>
	<node id="-208454" lat="59.5404861131" lon="10.1163777778">
		<tag k="fixme" v="consider natural=peak for the most distinct mountains in the district" />
		<tag k="name" v="Brentåsen" />
		<tag k="natural" v="hill" />
		<tag k="place" v="locality" />
		<tag k="ssr:stedsnr" v="938381" />
	</node>
	<node id="-208449" lat="59.571750004" lon="10.0039194383">
		<tag k="name" v="Sterta" />
		<tag k="natural" v="valley" />
		<tag k="place" v="locality" />
		<tag k="ssr:stedsnr" v="271524" />
	</node>
	<node id="-208447" lat="59.509916663" lon="10.1082722281">
		<tag k="fixme" v="consider natural=peak for the most distinct mountains in the district" />
		<tag k="name" v="Myrås" />
		<tag k="natural" v="hill" />
		<tag k="place" v="locality" />
		<tag k="ssr:stedsnr" v="817358" />
	</node>
	<node id="-208446" lat="59.4812305543" lon="10.0740527833">
		<tag k="name" v="Granslia" />
		<tag k="natural" v="slope" />
		<tag k="place" v="locality" />
		<tag k="ssr:stedsnr" v="877475" />
	</node>
	<node id="-208445" lat="59.5615277762" lon="9.97361388784">
		<tag k="alt_name" v="Haredalen" />
		<tag k="name" v="Haradalen" />
		<tag k="natural" v="valley" />
		<tag k="place" v="locality" />
		<tag k="ssr:stedsnr" v="549066" />
	</node>
	<node id="-208443" lat="59.520458333" lon="10.0427138826">
		<tag k="name" v="Blålisvingen" />
		<tag k="natural" v="valley" />
		<tag k="place" v="locality" />
		<tag k="ssr:stedsnr" v="513422" />
	</node>
	<node id="-208436" lat="59.5702972258" lon="9.98796943991">
		<tag k="fixme" v="consider natural=peak for the most distinct mountains in the district" />
		<tag k="name" v="Styttås" />
		<tag k="natural" v="hill" />
		<tag k="place" v="locality" />
		<tag k="ssr:stedsnr" v="270453" />
	</node>
	<node id="-208434" lat="59.4579944428" lon="10.1337722301">
		<tag k="name" v="Krokstigrinda" />
		<tag k="natural" v="slope" />
		<tag k="place" v="locality" />
		<tag k="ssr:stedsnr" v="452101" />
	</node>
	<node id="-208431" lat="59.480213889" lon="10.1260111069">
		<tag k="name" v="Soaflået" />
		<tag k="natural" v="hill" />
		<tag k="place" v="locality" />
		<tag k="ssr:stedsnr" v="452516" />
	</node>
	<node id="-208429" lat="59.5102388929" lon="10.0573888961">
		<tag k="name" v="Gampedalen" />
		<tag k="natural" v="valley" />
		<tag k="place" v="locality" />
		<tag k="ssr:stedsnr" v="331371" />
	</node>
	<node id="-208426" lat="59.4961083309" lon="10.1128277762">
		<tag k="name" v="Storebonn" />
		<tag k="natural" v="valley" />
		<tag k="place" v="locality" />
		<tag k="ssr:stedsnr" v="877496" />
	</node>
	<node id="-208425" lat="59.5273361105" lon="10.0573527771">
		<tag k="name" v="Heddejota" />
		<tag k="natural" v="slope" />
		<tag k="place" v="locality" />
		<tag k="ssr:stedsnr" v="817379" />
	</node>
	<node id="-208423" lat="59.506588889" lon="10.1297249919">
		<tag k="name" v="Brattkleiva" />
		<tag k="natural" v="slope" />
		<tag k="place" v="locality" />
		<tag k="ssr:stedsnr" v="270043" />
	</node>
	<node id="-208419" lat="59.5518138862" lon="9.97181110456">
		<tag k="fixme" v="consider natural=peak for the most distinct mountains in the district" />
		<tag k="name" v="Storseteråsen" />
		<tag k="natural" v="hill" />
		<tag k="place" v="locality" />
		<tag k="ssr:stedsnr" v="549050" />
	</node>
	<node id="-208418" lat="59.5216555576" lon="10.0425305568">
		<tag k="name" v="Helveteshølen" />
		<tag k="natural" v="valley" />
		<tag k="place" v="locality" />
		<tag k="ssr:stedsnr" v="392415" />
	</node>
	<node id="-208415" lat="59.4693638921" lon="10.0898694425">
		<tag k="name" v="Toreløkka" />
		<tag k="natural" v="slope" />
		<tag k="place" v="locality" />
		<tag k="ssr:stedsnr" v="633522" />
	</node>
	<node id="-208414" lat="59.4618444485" lon="10.0813805515">
		<tag k="name" v="Småliene" />
		<tag k="natural" v="slope" />
		<tag k="place" v="locality" />
		<tag k="ssr:stedsnr" v="209098" />
	</node>
	<node id="-208413" lat="59.51239444" lon="10.0679388971">
		<tag k="name" v="Grevlingberget" />
		<tag k="natural" v="hill" />
		<tag k="place" v="locality" />
		<tag k="ssr:stedsnr" v="817371" />
	</node>
	<node id="-208411" lat="59.4786666638" lon="10.0634500023">
		<tag k="name" v="Mellomrinen" />
		<tag k="natural" v="ridge" />
		<tag k="place" v="locality" />
		<tag k="ssr:stedsnr" v="270463" />
	</node>
	<node id="-208409" lat="59.5225305538" lon="10.0634611096">
		<tag k="name" v="Potetløkka" />
		<tag k="natural" v="valley" />
		<tag k="place" v="locality" />
		<tag k="ssr:stedsnr" v="331382" />
	</node>
	<node id="-208407" lat="59.4814611153" lon="10.108813883">
		<tag k="fixme" v="consider natural=peak for the most distinct mountains in the district" />
		<tag k="name" v="Milåsen" />
		<tag k="natural" v="hill" />
		<tag k="place" v="locality" />
		<tag k="ssr:stedsnr" v="209513" />
	</node>
	<node id="-208406" lat="59.471238888" lon="10.1317888806">
		<tag k="fixme" v="consider natural=peak for the most distinct mountains in the district" />
		<tag k="name" v="Auensfjellet" />
		<tag k="natural" v="hill" />
		<tag k="place" v="locality" />
		<tag k="ssr:stedsnr" v="209515" />
	</node>
	<node id="-208405" lat="59.5310138866" lon="10.0484055486">
		<tag k="fixme" v="consider natural=peak for the most distinct mountains in the district" />
		<tag k="name" v="Syd-kanelen" />
		<tag k="natural" v="hill" />
		<tag k="place" v="locality" />
		<tag k="ssr:stedsnr" v="271301" />
	</node>
	<node id="-208403" lat="59.5314250032" lon="10.0404638924">
		<tag k="name" v="Danseberget" />
		<tag k="natural" v="hill" />
		<tag k="place" v="locality" />
		<tag k="ssr:stedsnr" v="149245" />
	</node>
	<node id="-208401" lat="59.5205638906" lon="10.0709666735">
		<tag k="fixme" v="consider natural=peak for the most distinct mountains in the district" />
		<tag k="name" v="Smiåsen" />
		<tag k="natural" v="hill" />
		<tag k="place" v="locality" />
		<tag k="ssr:stedsnr" v="817373" />
	</node>
	<node id="-208397" lat="59.6514694447" lon="10.0057777699">
		<tag k="name" v="Tørrgranflata" />
		<tag k="natural" v="valley" />
		<tag k="place" v="locality" />
		<tag k="ssr:stedsnr" v="878339" />
	</node>
	<node id="-208396" lat="59.5307888909" lon="10.1427388816">
		<tag k="fixme" v="consider natural=peak for the most distinct mountains in the district" />
		<tag k="name" v="Nøtnesåsen" />
		<tag k="natural" v="hill" />
		<tag k="place" v="locality" />
		<tag k="ssr:stedsnr" v="331378" />
	</node>
	<node id="-208395" lat="59.4934333323" lon="10.1485305618">
		<tag k="name" v="Natta" />
		<tag k="place" v="locality" />
		<tag k="ssr:stedsnr" v="877488" />
	</node>
	<node id="-208394" lat="59.4823305578" lon="10.0664861032">
		<tag k="fixme" v="consider natural=peak for the most distinct mountains in the district" />
		<tag k="name" v="Seteråsen" />
		<tag k="natural" v="hill" />
		<tag k="place" v="locality" />
		<tag k="ssr:stedsnr" v="816487" />
	</node>
	<node id="-208390" lat="59.5318083308" lon="10.0601499981">
		<tag k="fixme" v="consider natural=peak for the most distinct mountains in the district" />
		<tag k="name" v="Uleåsen" />
		<tag k="natural" v="hill" />
		<tag k="place" v="locality" />
		<tag k="ssr:stedsnr" v="634287" />
	</node>
	<node id="-208388" lat="59.562680552" lon="10.0547194373">
		<tag k="name" v="Hatteråslia" />
		<tag k="natural" v="slope" />
		<tag k="place" v="locality" />
		<tag k="ssr:stedsnr" v="149646" />
	</node>
	<node id="-208382" lat="59.5047083375" lon="10.1388222217">
		<tag k="name" v="Blåbærflata" />
		<tag k="place" v="locality" />
		<tag k="ssr:stedsnr" v="816064" />
	</node>
	<node id="-208380" lat="59.5108833314" lon="10.137869443">
		<tag k="name" v="Gudbrandsdalen" />
		<tag k="natural" v="valley" />
		<tag k="place" v="locality" />
		<tag k="ssr:stedsnr" v="513384" />
	</node>
	<node id="-208379" lat="59.6012000019" lon="10.0328888929">
		<tag k="fixme" v="consider natural=peak for the most distinct mountains in the district" />
		<tag k="name" v="Hurtaåsen" />
		<tag k="natural" v="hill" />
		<tag k="place" v="locality" />
		<tag k="ssr:stedsnr" v="124100" />
	</node>
	<node id="-208375" lat="59.5232499979" lon="10.0348166659">
		<tag k="alt_name" v="Bosebonnskarva" />
		<tag k="name" v="Bosmonskarva" />
		<tag k="natural" v="hill" />
		<tag k="place" v="locality" />
		<tag k="ssr:stedsnr" v="731869" />
	</node>
	<node id="-208372" lat="59.5272999963" lon="10.0615888872">
		<tag k="name" v="Saglibakken" />
		<tag k="natural" v="slope" />
		<tag k="place" v="locality" />
		<tag k="ssr:stedsnr" v="89426" />
	</node>
	<node id="-208368" lat="59.6187694439" lon="10.0289416611">
		<tag k="name" v="Tjønnelia" />
		<tag k="natural" v="slope" />
		<tag k="place" v="locality" />
		<tag k="ssr:stedsnr" v="635301" />
	</node>
	<node id="-208366" lat="59.4771583338" lon="10.1156611191">
		<tag k="name" v="Saglia" />
		<tag k="natural" v="slope" />
		<tag k="place" v="locality" />
		<tag k="ssr:stedsnr" v="452510" />
	</node>
	<node id="-208364" lat="59.4645222239" lon="10.0651694406">
		<tag k="name" v="Oppstig" />
		<tag k="natural" v="slope" />
		<tag k="place" v="locality" />
		<tag k="ssr:stedsnr" v="88387" />
	</node>
	<node id="-208363" lat="59.5199861144" lon="10.0456583281">
		<tag k="name" v="Nilsekleiv" />
		<tag k="natural" v="valley" />
		<tag k="place" v="locality" />
		<tag k="ssr:stedsnr" v="89423" />
	</node>
	<node id="-208360" lat="59.4766527792" lon="10.0796500058">
		<tag k="name" v="Kjøyta" />
		<tag k="natural" v="hill" />
		<tag k="place" v="locality" />
		<tag k="ssr:stedsnr" v="88393" />
	</node>
	<node id="-208359" lat="59.5236805542" lon="10.0648944424">
		<tag k="fixme" v="consider natural=peak for the most distinct mountains in the district" />
		<tag k="name" v="Engåsen" />
		<tag k="natural" v="hill" />
		<tag k="place" v="locality" />
		<tag k="ssr:stedsnr" v="513394" />
	</node>
	<node id="-208357" lat="59.5485000008" lon="10.0250833276">
		<tag k="fixme" v="consider natural=peak for the most distinct mountains in the district" />
		<tag k="name" v="Elvåsen" />
		<tag k="natural" v="hill" />
		<tag k="place" v="locality" />
		<tag k="ssr:stedsnr" v="3908" />
	</node>
	<node id="-208352" lat="59.5534222192" lon="10.0209749959">
		<tag k="fixme" v="consider natural=peak for the most distinct mountains in the district" />
		<tag k="name" v="Mørkedalsåsen" />
		<tag k="natural" v="hill" />
		<tag k="place" v="locality" />
		<tag k="ssr:stedsnr" v="453333" />
	</node>
	<node id="-208351" lat="59.4899611124" lon="10.1201750027">
		<tag k="name" v="Trengsle" />
		<tag k="natural" v="valley" />
		<tag k="place" v="locality" />
		<tag k="ssr:stedsnr" v="816498" />
	</node>
	<node id="-208349" lat="59.5018027809" lon="10.1255611106">
		<tag k="fixme" v="consider natural=peak for the most distinct mountains in the district" />
		<tag k="name" v="Askedalsåsen" />
		<tag k="natural" v="hill" />
		<tag k="place" v="locality" />
		<tag k="ssr:stedsnr" v="816075" />
	</node>
	<node id="-208348" lat="59.5137249992" lon="10.0718305617">
		<tag k="name" v="Saksedalen" />
		<tag k="natural" v="valley" />
		<tag k="place" v="locality" />
		<tag k="ssr:stedsnr" v="392386" />
	</node>
	<node id="-208347" lat="59.5336416657" lon="10.0368666599">
		<tag k="alt_name" v="Nord-kanelen" />
		<tag k="name" v="Nord Kanelen" />
		<tag k="natural" v="slope" />
		<tag k="place" v="locality" />
		<tag k="ssr:stedsnr" v="388415" />
	</node>
	<node id="-208345" lat="59.4996305565" lon="10.1096166751">
		<tag k="name" v="Senningdalen" />
		<tag k="natural" v="valley" />
		<tag k="place" v="locality" />
		<tag k="ssr:stedsnr" v="209492" />
	</node>
	<node id="-208344" lat="59.5023055578" lon="10.1522638812">
		<tag k="fixme" v="consider natural=peak for the most distinct mountains in the district" />
		<tag k="name" v="Svartbuåsen" />
		<tag k="natural" v="hill" />
		<tag k="place" v="locality" />
		<tag k="ssr:stedsnr" v="209065" />
	</node>
	<node id="-208343" lat="59.5217583349" lon="10.0616861062">
		<tag k="name" v="Susen" />
		<tag k="place" v="locality" />
		<tag k="ssr:stedsnr" v="938372" />
	</node>
	<node id="-208342" lat="59.5533222207" lon="9.98815277806">
		<tag k="name" v="Gavlemyrsdalen" />
		<tag k="natural" v="valley" />
		<tag k="place" v="locality" />
		<tag k="ssr:stedsnr" v="877464" />
	</node>
	<node id="-208340" lat="59.564338885" lon="10.0487777815">
		<tag k="fixme" v="consider natural=peak for the most distinct mountains in the district" />
		<tag k="name" v="Hatteråsen" />
		<tag k="natural" v="hill" />
		<tag k="place" v="locality" />
		<tag k="ssr:stedsnr" v="877677" />
	</node>
	<node id="-208339" lat="59.5231722263" lon="10.0592138872">
		<tag k="name" v="N. Gurrikstumoen" />
		<tag k="place" v="locality" />
		<tag k="ssr:stedsnr" v="28405" />
	</node>
	<node id="-208337" lat="59.5956749973" lon="10.1083777812">
		<tag k="fixme" v="consider natural=peak for the most distinct mountains in the district" />
		<tag k="name" v="Høgås" />
		<tag k="natural" v="hill" />
		<tag k="place" v="locality" />
		<tag k="ssr:stedsnr" v="428098" />
	</node>
	<node id="-208336" lat="59.4618472219" lon="10.0723055468">
		<tag k="fixme" v="consider natural=peak for the most distinct mountains in the district" />
		<tag k="name" v="Tømmerås" />
		<tag k="natural" v="hill" />
		<tag k="place" v="locality" />
		<tag k="ssr:stedsnr" v="452082" />
	</node>
	<node id="-208335" lat="59.4954805522" lon="10.1120555537">
		<tag k="name" v="Rugbråtan" />
		<tag k="natural" v="hill" />
		<tag k="place" v="locality" />
		<tag k="ssr:stedsnr" v="452494" />
	</node>
	<node id="-208327" lat="59.5863777737" lon="9.94939444536">
		<tag k="name" v="Gampedalen" />
		<tag k="natural" v="valley" />
		<tag k="place" v="locality" />
		<tag k="ssr:stedsnr" v="388411" />
	</node>
	<node id="-208323" lat="59.53820278" lon="10.1338805568">
		<tag k="fixme" v="consider natural=peak for the most distinct mountains in the district" />
		<tag k="name" v="Høgås" />
		<tag k="natural" v="hill" />
		<tag k="place" v="locality" />
		<tag k="ssr:stedsnr" v="574421" />
	</node>
	<node id="-208322" lat="59.4901472209" lon="10.0637361122">
		<tag k="name" v="Kleiva" />
		<tag k="natural" v="slope" />
		<tag k="place" v="locality" />
		<tag k="ssr:stedsnr" v="270027" />
	</node>
	<node id="-208320" lat="59.5227027779" lon="10.0464277794">
		<tag k="fixme" v="consider natural=peak for the most distinct mountains in the district" />
		<tag k="name" v="Ø.Brånan" />
		<tag k="natural" v="hill" />
		<tag k="place" v="locality" />
		<tag k="ssr:stedsnr" v="28401" />
	</node>
	<node id="-208315" lat="59.6071777788" lon="10.0103111172">
		<tag k="name" v="Struten" />
		<tag k="place" v="locality" />
		<tag k="ssr:stedsnr" v="635314" />
	</node>
	<node id="-208314" lat="59.5686000001" lon="10.0448305631">
		<tag k="name" v="Gampedalen" />
		<tag k="natural" v="valley" />
		<tag k="place" v="locality" />
		<tag k="ssr:stedsnr" v="877671" />
	</node>
	<node id="-208313" lat="59.5138777746" lon="10.0444055559">
		<tag k="fixme" v="consider natural=peak for the most distinct mountains in the district" />
		<tag k="name" v="Snødalsåsen" />
		<tag k="natural" v="hill" />
		<tag k="place" v="locality" />
		<tag k="ssr:stedsnr" v="392395" />
	</node>
	<node id="-208309" lat="59.6055055592" lon="9.98036111818">
		<tag k="name" v="Storevelta" />
		<tag k="natural" v="valley" />
		<tag k="place" v="locality" />
		<tag k="ssr:stedsnr" v="878310" />
	</node>
	<node id="-208308" lat="59.5239555567" lon="10.1493194477">
		<tag k="name" v="Bråtan" />
		<tag k="natural" v="valley" />
		<tag k="place" v="locality" />
		<tag k="ssr:stedsnr" v="331353" />
	</node>
	<node id="-208307" lat="59.5184472179" lon="10.0772972252">
		<tag k="name" v="Åsen" />
		<tag k="natural" v="hill" />
		<tag k="place" v="locality" />
		<tag k="ssr:stedsnr" v="513376" />
	</node>
	<node id="-208306" lat="59.5945638864" lon="9.96098889539">
		<tag k="name" v="Sandbekkjuvet" />
		<tag k="natural" v="valley" />
		<tag k="place" v="locality" />
		<tag k="ssr:stedsnr" v="878313" />
	</node>
	<node id="-208305" lat="59.5020555597" lon="10.0474250041">
		<tag k="name" v="Lørdalfeltet" />
		<tag k="natural" v="slope" />
		<tag k="place" v="locality" />
		<tag k="ssr:stedsnr" v="270023" />
	</node>
	<node id="-208301" lat="59.4975083316" lon="10.0424388972">
		<tag k="name" v="Lindefeltet" />
		<tag k="natural" v="hill" />
		<tag k="place" v="locality" />
		<tag k="ssr:stedsnr" v="270022" />
	</node>
	<node id="-208300" lat="59.5096249955" lon="10.0887611133">
		<tag k="name" v="Rinen" />
		<tag k="place" v="locality" />
		<tag k="ssr:stedsnr" v="938367" />
	</node>
	<node id="-208295" lat="59.5225499995" lon="10.0495222161">
		<tag k="fixme" v="consider natural=peak for the most distinct mountains in the district" />
		<tag k="name" v="N.Brånan" />
		<tag k="natural" v="hill" />
		<tag k="place" v="locality" />
		<tag k="ssr:stedsnr" v="28399" />
	</node>
	<node id="-208293" lat="59.5037833344" lon="10.1307861027">
		<tag k="fixme" v="consider natural=peak for the most distinct mountains in the district" />
		<tag k="name" v="Indre Lørdalåsen" />
		<tag k="natural" v="hill" />
		<tag k="place" v="locality" />
		<tag k="ssr:stedsnr" v="209061" />
	</node>
	<node id="-208289" lat="59.5593833293" lon="10.0363333247">
		<tag k="name" v="Øvre svingen" />
		<tag k="natural" v="valley" />
		<tag k="place" v="locality" />
		<tag k="ssr:stedsnr" v="513358" />
	</node>
	<node id="-208284" lat="59.5738111101" lon="10.0561472291">
		<tag k="name" v="Brekkedalen" />
		<tag k="natural" v="valley" />
		<tag k="place" v="locality" />
		<tag k="ssr:stedsnr" v="938330" />
	</node>
	<node id="-208283" lat="59.5368500011" lon="10.0008444369">
		<tag k="name" v="Vienerbruvaet" />
		<tag k="natural" v="valley" />
		<tag k="place" v="locality" />
		<tag k="ssr:stedsnr" v="453523" />
	</node>
	<node id="-208279" lat="59.5485111151" lon="10.0893638911">
		<tag k="name" v="Sørby" />
		<tag k="place" v="locality" />
		<tag k="ssr:stedsnr" v="635278" />
	</node>
	<node id="-208276" lat="59.5277777783" lon="10.0397027812">
		<tag k="name" v="Pinesletta" />
		<tag k="place" v="locality" />
		<tag k="ssr:stedsnr" v="89407" />
	</node>
	<node id="-208274" lat="59.4699472219" lon="10.0806250065">
		<tag k="name" v="Hagen" />
		<tag k="natural" v="hill" />
		<tag k="place" v="locality" />
		<tag k="ssr:stedsnr" v="330532" />
	</node>
	<node id="-208272" lat="59.6256750017" lon="10.0451666611">
		<tag k="alt_name" v="Elgmyrkollene" />
		<tag k="fixme" v="consider natural=peak for the most distinct mountains in the district" />
		<tag k="name" v="Elgmyrkollane" />
		<tag k="natural" v="hill" />
		<tag k="place" v="locality" />
		<tag k="ssr:stedsnr" v="610105" />
	</node>
	<node id="-208269" lat="59.4592166701" lon="10.0654055614">
		<tag k="name" v="Skarvene" />
		<tag k="natural" v="hill" />
		<tag k="place" v="locality" />
		<tag k="ssr:stedsnr" v="937111" />
	</node>
	<node id="-208268" lat="59.5437750027" lon="9.9800166648">
		<tag k="fixme" v="consider natural=peak for the most distinct mountains in the district" />
		<tag k="name" v="Vesle-Buaren" />
		<tag k="natural" v="hill" />
		<tag k="place" v="locality" />
		<tag k="ssr:stedsnr" v="695526" />
	</node>
	<node id="-208267" lat="59.6460527815" lon="10.0079249965">
		<tag k="name" v="Heggedalen" />
		<tag k="natural" v="valley" />
		<tag k="place" v="locality" />
		<tag k="ssr:stedsnr" v="913170" />
	</node>
	<node id="-208263" lat="59.5873999975" lon="9.97204166277">
		<tag k="fixme" v="consider natural=peak for the most distinct mountains in the district" />
		<tag k="name" v="Kirkefjell" />
		<tag k="natural" v="hill" />
		<tag k="place" v="locality" />
		<tag k="ssr:stedsnr" v="670026" />
	</node>
	<node id="-208259" lat="59.6550166632" lon="10.0008583349">
		<tag k="name" v="Langebakk" />
		<tag k="natural" v="valley" />
		<tag k="place" v="locality" />
		<tag k="ssr:stedsnr" v="817304" />
	</node>
	<node id="-208258" lat="59.518333335" lon="10.0362666598">
		<tag k="fixme" v="consider natural=peak for the most distinct mountains in the district" />
		<tag k="name" v="Seteråsen" />
		<tag k="natural" v="hill" />
		<tag k="place" v="locality" />
		<tag k="ssr:stedsnr" v="388409" />
	</node>
	<node id="-208257" lat="59.520055554" lon="10.0743833269">
		<tag k="name" v="Gapet" />
		<tag k="natural" v="valley" />
		<tag k="place" v="locality" />
		<tag k="ssr:stedsnr" v="574410" />
	</node>
	<node id="-208251" lat="59.5403638932" lon="10.0618055607">
		<tag k="name" v="Smestua" />
		<tag k="natural" v="slope" />
		<tag k="place" v="locality" />
		<tag k="ssr:stedsnr" v="695313" />
	</node>
	<node id="-208250" lat="59.5058833378" lon="10.140899998">
		<tag k="name" v="Danserud" />
		<tag k="place" v="locality" />
		<tag k="ssr:stedsnr" v="209045" />
	</node>
	<node id="-208249" lat="59.5713833314" lon="10.0247249918">
		<tag k="fixme" v="consider natural=peak for the most distinct mountains in the district" />
		<tag k="name" v="Briskåsen" />
		<tag k="natural" v="hill" />
		<tag k="place" v="locality" />
		<tag k="ssr:stedsnr" v="453328" />
	</node>
	<node id="-208246" lat="59.4972916711" lon="10.1389944479">
		<tag k="name" v="Mørkhullet" />
		<tag k="natural" v="valley" />
		<tag k="place" v="locality" />
		<tag k="ssr:stedsnr" v="209478" />
	</node>
	<node id="-208245" lat="59.4949500029" lon="10.1305666602">
		<tag k="name" v="Askedalen" />
		<tag k="natural" v="valley" />
		<tag k="place" v="locality" />
		<tag k="ssr:stedsnr" v="937512" />
	</node>
	<node id="-208242" lat="59.4553249963" lon="10.1051527855">
		<tag k="name" v="Skrubbedalen" />
		<tag k="natural" v="valley" />
		<tag k="place" v="locality" />
		<tag k="ssr:stedsnr" v="695106" />
	</node>
	<node id="-208236" lat="59.4976555578" lon="10.0525666654">
		<tag k="name" v="Moen" />
		<tag k="place" v="locality" />
		<tag k="ssr:stedsnr" v="816049" />
	</node>
	<node id="-208234" lat="59.5904416633" lon="10.1104499989">
		<tag k="name" v="Vekta" />
		<tag k="place" v="locality" />
		<tag k="ssr:stedsnr" v="695338" />
	</node>
	<node id="-208232" lat="59.5317777798" lon="10.0308083369">
		<tag k="fixme" v="consider natural=peak for the most distinct mountains in the district" />
		<tag k="name" v="Breibekkskarva" />
		<tag k="natural" v="hill" />
		<tag k="place" v="locality" />
		<tag k="ssr:stedsnr" v="145441" />
	</node>
	<node id="-208227" lat="59.5910027773" lon="10.070638886">
		<tag k="name" v="Bergan" />
		<tag k="place" v="locality" />
		<tag k="ssr:stedsnr" v="695335" />
	</node>
	<node id="-208224" lat="59.5137749969" lon="10.0791999926">
		<tag k="name" v="Vabråtan" />
		<tag k="natural" v="slope" />
		<tag k="place" v="locality" />
		<tag k="ssr:stedsnr" v="28378" />
	</node>
	<node id="-208223" lat="59.5037166709" lon="10.1372138919">
		<tag k="name" v="Brattkleiv" />
		<tag k="natural" v="slope" />
		<tag k="place" v="locality" />
		<tag k="ssr:stedsnr" v="633073" />
	</node>
	<node id="-208221" lat="59.4780972228" lon="10.079436111">
		<tag k="name" v="Askefeltet" />
		<tag k="natural" v="slope" />
		<tag k="place" v="locality" />
		<tag k="ssr:stedsnr" v="452468" />
	</node>
	<node id="-208216" lat="59.5758805597" lon="10.0238805587">
		<tag k="name" v="Vassdalen" />
		<tag k="natural" v="valley" />
		<tag k="place" v="locality" />
		<tag k="ssr:stedsnr" v="185063" />
	</node>
	<node id="-208214" lat="59.6293888902" lon="10.0007472255">
		<tag k="name" v="Sparkopp" />
		<tag k="natural" v="valley" />
		<tag k="place" v="locality" />
		<tag k="ssr:stedsnr" v="635290" />
	</node>
	<node id="-208210" lat="59.5616833356" lon="10.0584722161">
		<tag k="name" v="Vestenga" />
		<tag k="place" v="locality" />
		<tag k="ssr:stedsnr" v="634676" />
	</node>
	<node id="-208208" lat="59.4754861074" lon="10.0802999951">
		<tag k="name" v="Svartordiket" />
		<tag k="natural" v="valley" />
		<tag k="place" v="locality" />
		<tag k="ssr:stedsnr" v="209471" />
	</node>
	<node id="-208205" lat="59.4745055595" lon="10.0639277708">
		<tag k="name" v="Høgåsrinen" />
		<tag k="natural" v="ridge" />
		<tag k="place" v="locality" />
		<tag k="ssr:stedsnr" v="452472" />
	</node>
	<node id="-208203" lat="59.5537249961" lon="10.0385055485">
		<tag k="fixme" v="consider natural=peak for the most distinct mountains in the district" />
		<tag k="name" v="Midtås" />
		<tag k="natural" v="hill" />
		<tag k="place" v="locality" />
		<tag k="ssr:stedsnr" v="695330" />
	</node>
	<node id="-208202" lat="59.4695083315" lon="10.0710611085">
		<tag k="name" v="Glennebonn" />
		<tag k="natural" v="valley" />
		<tag k="place" v="locality" />
		<tag k="ssr:stedsnr" v="816470" />
	</node>
	<node id="-208199" lat="59.5422388874" lon="10.0610694416">
		<tag k="name" v="Sagløkka" />
		<tag k="natural" v="slope" />
		<tag k="place" v="locality" />
		<tag k="ssr:stedsnr" v="453313" />
	</node>
	<node id="-208194" lat="59.583125004" lon="10.1269888848">
		<tag k="fixme" v="consider natural=peak for the most distinct mountains in the district" />
		<tag k="name" v="Mauråsen" />
		<tag k="natural" v="hill" />
		<tag k="place" v="locality" />
		<tag k="ssr:stedsnr" v="938337" />
	</node>
	<node id="-208191" lat="59.4741138933" lon="10.069113885">
		<tag k="name" v="Seterrinen" />
		<tag k="natural" v="ridge" />
		<tag k="place" v="locality" />
		<tag k="ssr:stedsnr" v="452476" />
	</node>
	<node id="-208190" lat="59.4643083359" lon="10.1304638807">
		<tag k="name" v="Skarvene" />
		<tag k="natural" v="hill" />
		<tag k="place" v="locality" />
		<tag k="ssr:stedsnr" v="695119" />
	</node>
	<node id="-208189" lat="59.61366389" lon="10.0156694465">
		<tag k="name" v="Bjørkehogstet" />
		<tag k="natural" v="valley" />
		<tag k="place" v="locality" />
		<tag k="ssr:stedsnr" v="211319" />
	</node>
	<node id="-208187" lat="59.5603444417" lon="10.0368583337">
		<tag k="name" v="Busedalen" />
		<tag k="natural" v="valley" />
		<tag k="place" v="locality" />
		<tag k="ssr:stedsnr" v="513355" />
	</node>
	<node id="-208181" lat="59.4899249988" lon="10.0617277744">
		<tag k="name" v="Rundtom" />
		<tag k="natural" v="valley" />
		<tag k="place" v="locality" />
		<tag k="ssr:stedsnr" v="816043" />
	</node>
	<node id="-208180" lat="59.5205111128" lon="10.085419443">
		<tag k="name" v="Grønsethaugen" />
		<tag k="natural" v="hill" />
		<tag k="place" v="locality" />
		<tag k="ssr:stedsnr" v="28373" />
	</node>
	<node id="-208179" lat="59.4662833297" lon="10.0681888824">
		<tag k="name" v="Kjøytebråtan" />
		<tag k="place" v="locality" />
		<tag k="ssr:stedsnr" v="816473" />
	</node>
	<node id="-208176" lat="59.5807166633" lon="9.95142500569">
		<tag k="name" v="Øksnelia" />
		<tag k="natural" v="slope" />
		<tag k="place" v="locality" />
		<tag k="ssr:stedsnr" v="145439" />
	</node>
	<node id="-208159" lat="59.5002638903" lon="10.1445222213">
		<tag k="fixme" v="consider natural=peak for the most distinct mountains in the district" />
		<tag k="name" v="Heimåsen" />
		<tag k="natural" v="hill" />
		<tag k="place" v="locality" />
		<tag k="ssr:stedsnr" v="937082" />
	</node>
	<node id="-208155" lat="59.6046666701" lon="10.0562944533">
		<tag k="name" v="N.Fjellbru" />
		<tag k="place" v="locality" />
		<tag k="ssr:stedsnr" v="817712" />
	</node>
	<node id="-208154" lat="59.4912027817" lon="10.1168666703">
		<tag k="fixme" v="consider natural=peak for the most distinct mountains in the district" />
		<tag k="name" v="Eikenesåsen" />
		<tag k="natural" v="hill" />
		<tag k="place" v="locality" />
		<tag k="ssr:stedsnr" v="937496" />
	</node>
	<node id="-208153" lat="59.5315249969" lon="9.99247777144">
		<tag k="name" v="Blåkollia" />
		<tag k="natural" v="slope" />
		<tag k="place" v="locality" />
		<tag k="ssr:stedsnr" v="817499" />
	</node>
	<node id="-208150" lat="59.5067944404" lon="10.1342472163">
		<tag k="name" v="Engrønningløkka søndre" />
		<tag k="place" v="locality" />
		<tag k="ssr:stedsnr" v="452043" />
	</node>
	<node id="-208149" lat="59.5258138905" lon="10.0519388821">
		<tag k="name" v="Brattekleiv" />
		<tag k="natural" v="valley" />
		<tag k="place" v="locality" />
		<tag k="ssr:stedsnr" v="756371" />
	</node>
	<node id="-208144" lat="59.4939638852" lon="10.1262194434">
		<tag k="name" v="Breimyrshøgda" />
		<tag k="natural" v="hill" />
		<tag k="place" v="locality" />
		<tag k="ssr:stedsnr" v="330506" />
	</node>
	<node id="-208143" lat="59.4741444422" lon="10.1108638849">
		<tag k="name" v="Ønnemørkmoen" />
		<tag k="place" v="locality" />
		<tag k="ssr:stedsnr" v="391521" />
	</node>
	<node id="-208141" lat="59.5241916675" lon="10.0559194439">
		<tag k="name" v="Sagdalen" />
		<tag k="natural" v="valley" />
		<tag k="place" v="locality" />
		<tag k="ssr:stedsnr" v="149390" />
	</node>
	<node id="-208139" lat="59.5345805526" lon="10.0843333398">
		<tag k="name" v="Kolstad-brekka" />
		<tag k="place" v="locality" />
		<tag k="ssr:stedsnr" v="817279" />
	</node>
	<node id="-208138" lat="59.5390500039" lon="10.1359499987">
		<tag k="fixme" v="consider natural=peak for the most distinct mountains in the district" />
		<tag k="name" v="Presthøgås" />
		<tag k="natural" v="hill" />
		<tag k="place" v="locality" />
		<tag k="ssr:stedsnr" v="670885" />
	</node>
	<node id="-208137" lat="59.473638888" lon="10.1298833394">
		<tag k="fixme" v="consider natural=peak for the most distinct mountains in the district" />
		<tag k="name" v="Moltemyråsen" />
		<tag k="natural" v="hill" />
		<tag k="place" v="locality" />
		<tag k="ssr:stedsnr" v="391530" />
	</node>
	<node id="-208136" lat="59.5013111087" lon="10.116416662">
		<tag k="name" v="Askedal" />
		<tag k="natural" v="valley" />
		<tag k="place" v="locality" />
		<tag k="ssr:stedsnr" v="937076" />
	</node>
	<node id="-208135" lat="59.5795392713" lon="9.96291200014">
		<tag k="alt_name" v="Vestfjellet" />
		<tag k="fixme" v="consider natural=peak for the most distinct mountains in the district" />
		<tag k="name" v="Bingtjennknatten" />
		<tag k="natural" v="hill" />
		<tag k="place" v="locality" />
		<tag k="ssr:stedsnr" v="935455" />
	</node>
	<node id="-208133" lat="59.5086750022" lon="10.1119999937">
		<tag k="name" v="Jønsstigen" />
		<tag k="natural" v="slope" />
		<tag k="place" v="locality" />
		<tag k="ssr:stedsnr" v="28359" />
	</node>
	<node id="-208132" lat="59.5666888918" lon="10.0163277758">
		<tag k="fixme" v="consider natural=peak for the most distinct mountains in the district" />
		<tag k="name" v="Bokkemyråsen" />
		<tag k="natural" v="hill" />
		<tag k="place" v="locality" />
		<tag k="ssr:stedsnr" v="513343" />
	</node>
	<node id="-208131" lat="59.5021027753" lon="10.1232944407">
		<tag k="fixme" v="consider natural=peak for the most distinct mountains in the district" />
		<tag k="name" v="Moltemyråsen" />
		<tag k="natural" v="hill" />
		<tag k="place" v="locality" />
		<tag k="ssr:stedsnr" v="937078" />
	</node>
	<node id="-208128" lat="59.6199416681" lon="10.0181361106">
		<tag k="name" v="Trettarstykket" />
		<tag k="natural" v="valley" />
		<tag k="place" v="locality" />
		<tag k="ssr:stedsnr" v="211306" />
	</node>
	<node id="-208127" lat="59.5447611151" lon="10.0412472273">
		<tag k="alt_name" v="Langrallen" />
		<tag k="fixme" v="consider natural=peak for the most distinct mountains in the district" />
		<tag k="name" v="Langrellen" />
		<tag k="natural" v="hill" />
		<tag k="place" v="locality" />
		<tag k="ssr:stedsnr" v="64953" />
	</node>
	<node id="-208123" lat="59.5164277791" lon="10.0546333405">
		<tag k="name" v="Sandåker" />
		<tag k="place" v="locality" />
		<tag k="ssr:stedsnr" v="877392" />
	</node>
	<node id="-208111" lat="59.5906416639" lon="10.0978111023">
		<tag k="name" v="Dammene" />
		<tag k="place" v="locality" />
		<tag k="ssr:stedsnr" v="574361" />
	</node>
	<node id="-208108" lat="59.5006527759" lon="10.0512888898">
		<tag k="fixme" v="consider natural=peak for the most distinct mountains in the district" />
		<tag k="name" v="Grasåsen" />
		<tag k="natural" v="hill" />
		<tag k="place" v="locality" />
		<tag k="ssr:stedsnr" v="633047" />
	</node>
	<node id="-208106" lat="59.5306527764" lon="10.0124361192">
		<tag k="fixme" v="consider natural=peak for the most distinct mountains in the district" />
		<tag k="name" v="Himaråsen" />
		<tag k="natural" v="hill" />
		<tag k="place" v="locality" />
		<tag k="ssr:stedsnr" v="510454" />
	</node>
	<node id="-208105" lat="59.5390361109" lon="10.0583222155">
		<tag k="name" v="Bråtan" />
		<tag k="natural" v="slope" />
		<tag k="place" v="locality" />
		<tag k="ssr:stedsnr" v="331289" />
	</node>
	<node id="-208104" lat="59.4584749973" lon="10.1288972249">
		<tag k="fixme" v="consider natural=peak for the most distinct mountains in the district" />
		<tag k="name" v="Sagåsen" />
		<tag k="natural" v="hill" />
		<tag k="place" v="locality" />
		<tag k="ssr:stedsnr" v="148108" />
	</node>
	<node id="-208101" lat="59.4663861071" lon="10.0866944476">
		<tag k="name" v="Skjærebenkbakken" />
		<tag k="natural" v="slope" />
		<tag k="place" v="locality" />
		<tag k="ssr:stedsnr" v="512520" />
	</node>
	<node id="-208099" lat="59.5856305553" lon="10.097588883">
		<tag k="fixme" v="consider natural=peak for the most distinct mountains in the district" />
		<tag k="name" v="Brantestuåsen" />
		<tag k="natural" v="hill" />
		<tag k="place" v="locality" />
		<tag k="ssr:stedsnr" v="574363" />
	</node>
	<node id="-208097" lat="59.4736055539" lon="10.1208833349">
		<tag k="fixme" v="consider natural=peak for the most distinct mountains in the district" />
		<tag k="name" v="Sperreåsen" />
		<tag k="natural" v="hill" />
		<tag k="place" v="locality" />
		<tag k="ssr:stedsnr" v="695517" />
	</node>
	<node id="-208096" lat="59.4997388914" lon="10.0433416744">
		<tag k="name" v="Tiurleiken" />
		<tag k="natural" v="slope" />
		<tag k="place" v="locality" />
		<tag k="ssr:stedsnr" v="452024" />
	</node>
	<node id="-208094" lat="59.5245472254" lon="10.0544333383">
		<tag k="fixme" v="consider natural=peak for the most distinct mountains in the district" />
		<tag k="name" v="Bråtan" />
		<tag k="natural" v="hill" />
		<tag k="place" v="locality" />
		<tag k="ssr:stedsnr" v="149386" />
	</node>
	<node id="-208092" lat="59.4657777771" lon="10.1251611198">
		<tag k="fixme" v="consider natural=peak for the most distinct mountains in the district" />
		<tag k="name" v="Brannåsen" />
		<tag k="natural" v="hill" />
		<tag k="place" v="locality" />
		<tag k="ssr:stedsnr" v="695513" />
	</node>
	<node id="-208091" lat="59.6569111081" lon="10.0149111033">
		<tag k="name" v="Tømmervelta" />
		<tag k="natural" v="valley" />
		<tag k="place" v="locality" />
		<tag k="ssr:stedsnr" v="392331" />
	</node>
	<node id="-208090" lat="59.488313889" lon="10.0563833401">
		<tag k="name" v="Sifredalen" />
		<tag k="natural" v="valley" />
		<tag k="place" v="locality" />
		<tag k="ssr:stedsnr" v="633044" />
	</node>
	<node id="-208087" lat="59.499058334" lon="10.0642166597">
		<tag k="name" v="Leikåsskarva" />
		<tag k="natural" v="hill" />
		<tag k="place" v="locality" />
		<tag k="ssr:stedsnr" v="452030" />
	</node>
	<node id="-208085" lat="59.4588527802" lon="10.0862055639">
		<tag k="fixme" v="consider natural=peak for the most distinct mountains in the district" />
		<tag k="name" v="Sommerfjøsåsen" />
		<tag k="natural" v="hill" />
		<tag k="place" v="locality" />
		<tag k="ssr:stedsnr" v="27086" />
	</node>
	<node id="-208083" lat="59.5848805588" lon="9.96823611846">
		<tag k="name" v="Tranget" />
		<tag k="natural" v="slope" />
		<tag k="place" v="locality" />
		<tag k="ssr:stedsnr" v="207416" />
	</node>
	<node id="-208082" lat="59.5363972246" lon="10.0236805596">
		<tag k="name" v="Oredalen" />
		<tag k="natural" v="valley" />
		<tag k="place" v="locality" />
		<tag k="ssr:stedsnr" v="210511" />
	</node>
	<node id="-208081" lat="59.5292222248" lon="10.0065000036">
		<tag k="name" v="Elgjota" />
		<tag k="natural" v="slope" />
		<tag k="place" v="locality" />
		<tag k="ssr:stedsnr" v="695514" />
	</node>
	<node id="-208077" lat="59.4540166679" lon="10.1216749987">
		<tag k="fixme" v="consider natural=peak for the most distinct mountains in the district" />
		<tag k="name" v="Ottåsen" />
		<tag k="natural" v="hill" />
		<tag k="place" v="locality" />
		<tag k="ssr:stedsnr" v="148103" />
	</node>
	<node id="-208075" lat="59.4940694402" lon="10.1241138961">
		<tag k="name" v="Kippen" />
		<tag k="place" v="locality" />
		<tag k="ssr:stedsnr" v="27505" />
	</node>
	<node id="-208072" lat="59.5744333348" lon="9.99744722607">
		<tag k="fixme" v="consider natural=peak for the most distinct mountains in the district" />
		<tag k="name" v="Nedre Styttås" />
		<tag k="natural" v="hill" />
		<tag k="place" v="locality" />
		<tag k="ssr:stedsnr" v="453492" />
	</node>
	<node id="-208070" lat="59.5577194421" lon="10.1235722269">
		<tag k="fixme" v="consider natural=peak for the most distinct mountains in the district" />
		<tag k="name" v="Ulerudåsen" />
		<tag k="natural" v="hill" />
		<tag k="place" v="locality" />
		<tag k="ssr:stedsnr" v="210705" />
	</node>
	<node id="-208068" lat="59.4945444427" lon="10.1060972303">
		<tag k="name" v="Skiftet" />
		<tag k="natural" v="slope" />
		<tag k="place" v="locality" />
		<tag k="ssr:stedsnr" v="27501" />
	</node>
	<node id="-208067" lat="59.5412833368" lon="10.0611249967">
		<tag k="fixme" v="consider natural=peak for the most distinct mountains in the district" />
		<tag k="name" v="Husæråsen" />
		<tag k="natural" v="hill" />
		<tag k="place" v="locality" />
		<tag k="ssr:stedsnr" v="331297" />
	</node>
	<node id="-208066" lat="59.5779194429" lon="10.1292833412">
		<tag k="name" v="Øvre Korpås" />
		<tag k="natural" v="cliff" />
		<tag k="ssr:stedsnr" v="574371" />
	</node>
	<node id="-208065" lat="59.5354583351" lon="10.0599750053">
		<tag k="name" v="Hestebråtan" />
		<tag k="natural" v="slope" />
		<tag k="place" v="locality" />
		<tag k="ssr:stedsnr" v="453294" />
	</node>
	<node id="-208061" lat="59.4559055554" lon="10.0748250062">
		<tag k="fixme" v="consider natural=peak for the most distinct mountains in the district" />
		<tag k="name" v="Fremreåsene" />
		<tag k="natural" v="hill" />
		<tag k="place" v="locality" />
		<tag k="ssr:stedsnr" v="330119" />
	</node>
	<node id="-208059" lat="59.495708337" lon="10.13831667">
		<tag k="fixme" v="consider natural=peak for the most distinct mountains in the district" />
		<tag k="name" v="Røysåsen" />
		<tag k="natural" v="hill" />
		<tag k="place" v="locality" />
		<tag k="ssr:stedsnr" v="391513" />
	</node>
	<node id="-208056" lat="59.5912722185" lon="10.0202805496">
		<tag k="name" v="Holtestøa" />
		<tag k="natural" v="slope" />
		<tag k="place" v="locality" />
		<tag k="ssr:stedsnr" v="453495" />
	</node>
	<node id="-208054" lat="59.510286109" lon="10.0708944467">
		<tag k="name" v="Haslestadplassen" />
		<tag k="natural" v="plateau" />
		<tag k="ssr:stedsnr" v="149377" />
	</node>
	<node id="-208052" lat="59.5326527768" lon="10.0736638854">
		<tag k="name" v="Kjellerhaugen" />
		<tag k="natural" v="hill" />
		<tag k="place" v="locality" />
		<tag k="ssr:stedsnr" v="210291" />
	</node>
	<node id="-208048" lat="59.5248027814" lon="10.048419453">
		<tag k="name" v="Heggehølet" />
		<tag k="natural" v="valley" />
		<tag k="place" v="locality" />
		<tag k="ssr:stedsnr" v="271437" />
	</node>
	<node id="-208045" lat="59.5460750005" lon="10.1616333372">
		<tag k="fixme" v="consider natural=peak for the most distinct mountains in the district" />
		<tag k="name" v="Kaldåkeråsen" />
		<tag k="natural" v="hill" />
		<tag k="place" v="locality" />
		<tag k="ssr:stedsnr" v="3933" />
	</node>
	<node id="-208041" lat="59.5213222259" lon="10.2656277704">
		<tag k="name" v="Djupedalskleiva" />
		<tag k="natural" v="valley" />
		<tag k="place" v="locality" />
		<tag k="ssr:stedsnr" v="28548" />
	</node>
	<node id="-208038" lat="59.5652027781" lon="10.1554944362">
		<tag k="fixme" v="consider natural=peak for the most distinct mountains in the district" />
		<tag k="name" v="Vindfallåsen" />
		<tag k="natural" v="hill" />
		<tag k="place" v="locality" />
		<tag k="ssr:stedsnr" v="695585" />
	</node>
	<node id="-208036" lat="59.5641388881" lon="10.1638249968">
		<tag k="name" v="Vesle Jeriko" />
		<tag k="natural" v="hill" />
		<tag k="place" v="locality" />
		<tag k="ssr:stedsnr" v="513621" />
	</node>
	<node id="-208030" lat="59.5581666663" lon="10.1723611123">
		<tag k="name" v="Kvernebrua" />
		<tag k="natural" v="slope" />
		<tag k="place" v="locality" />
		<tag k="ssr:stedsnr" v="328382" />
	</node>
	<node id="-208025" lat="59.5053027784" lon="10.2832250004">
		<tag k="fixme" v="consider natural=peak for the most distinct mountains in the district" />
		<tag k="name" v="Vollsås" />
		<tag k="natural" v="hill" />
		<tag k="place" v="locality" />
		<tag k="ssr:stedsnr" v="755843" />
	</node>
	<node id="-208023" lat="59.5145194401" lon="10.2342722178">
		<tag k="name" v="Vassdalen" />
		<tag k="natural" v="valley" />
		<tag k="place" v="locality" />
		<tag k="ssr:stedsnr" v="756547" />
	</node>
	<node id="-208019" lat="59.5221749998" lon="10.2835249915">
		<tag k="name" v="Båsebakken" />
		<tag k="natural" v="slope" />
		<tag k="place" v="locality" />
		<tag k="ssr:stedsnr" v="634026" />
	</node>
	<node id="-208003" lat="59.5629638857" lon="10.1538722152">
		<tag k="fixme" v="consider natural=peak for the most distinct mountains in the district" />
		<tag k="name" v="Seteråsen" />
		<tag k="natural" v="hill" />
		<tag k="place" v="locality" />
		<tag k="ssr:stedsnr" v="817570" />
	</node>
	<node id="-207997" lat="59.5321999957" lon="10.1927250059">
		<tag k="name" v="Askedal" />
		<tag k="natural" v="valley" />
		<tag k="place" v="locality" />
		<tag k="ssr:stedsnr" v="149770" />
	</node>
	<node id="-207985" lat="59.5263472237" lon="10.2337111093">
		<tag k="name" v="Holtandompa" />
		<tag k="natural" v="valley" />
		<tag k="place" v="locality" />
		<tag k="ssr:stedsnr" v="89554" />
	</node>
	<node id="-207983" lat="59.5655916703" lon="10.1751722294">
		<tag k="name" v="Søndre Høyslassdalen" />
		<tag k="natural" v="valley" />
		<tag k="place" v="locality" />
		<tag k="ssr:stedsnr" v="692385" />
	</node>
	<node id="-207981" lat="59.4935638859" lon="10.1593138938">
		<tag k="fixme" v="consider natural=peak for the most distinct mountains in the district" />
		<tag k="name" v="Vestskogåsen" />
		<tag k="natural" v="hill" />
		<tag k="place" v="locality" />
		<tag k="ssr:stedsnr" v="938597" />
	</node>
	<node id="-207978" lat="59.5599611102" lon="10.1453305585">
		<tag k="name" v="Svaneroa" />
		<tag k="natural" v="gorge" />
		<tag k="ssr:stedsnr" v="392722" />
	</node>
	<node id="-207976" lat="59.5246527807" lon="10.1844277815">
		<tag k="name" v="Natterud" />
		<tag k="place" v="locality" />
		<tag k="ssr:stedsnr" v="28535" />
	</node>
	<node id="-207971" lat="59.5328444416" lon="10.1779416585">
		<tag k="name" v="Surlia" />
		<tag k="natural" v="slope" />
		<tag k="place" v="locality" />
		<tag k="ssr:stedsnr" v="756776" />
	</node>
	<node id="-207963" lat="59.56063889" lon="10.1755138893">
		<tag k="fixme" v="consider natural=peak for the most distinct mountains in the district" />
		<tag k="name" v="Seteråsen" />
		<tag k="natural" v="hill" />
		<tag k="place" v="locality" />
		<tag k="ssr:stedsnr" v="145397" />
	</node>
	<node id="-207962" lat="59.567811107" lon="10.1487611195">
		<tag k="fixme" v="consider natural=peak for the most distinct mountains in the district" />
		<tag k="name" v="Delingsåsen" />
		<tag k="natural" v="hill" />
		<tag k="place" v="locality" />
		<tag k="ssr:stedsnr" v="513609" />
	</node>
	<node id="-207947" lat="59.5181361144" lon="10.2274277744">
		<tag k="fixme" v="consider natural=peak for the most distinct mountains in the district" />
		<tag k="name" v="Høgås" />
		<tag k="natural" v="hill" />
		<tag k="place" v="locality" />
		<tag k="ssr:stedsnr" v="914010" />
	</node>
	<node id="-207936" lat="59.5547000008" lon="10.1844305534">
		<tag k="name" v="Kjeksrudlia" />
		<tag k="natural" v="slope" />
		<tag k="place" v="locality" />
		<tag k="ssr:stedsnr" v="145391" />
	</node>
	<node id="-207929" lat="59.5025722235" lon="10.2527416659">
		<tag k="name" v="Pytten" />
		<tag k="place" v="locality" />
		<tag k="ssr:stedsnr" v="148617" />
	</node>
	<node id="-207926" lat="59.5326388881" lon="10.1902722225">
		<tag k="fixme" v="consider natural=peak for the most distinct mountains in the district" />
		<tag k="name" v="Løkenåsene" />
		<tag k="natural" v="hill" />
		<tag k="place" v="locality" />
		<tag k="ssr:stedsnr" v="453784" />
	</node>
	<node id="-207918" lat="59.5665527797" lon="10.1759499978">
		<tag k="name" v="Høyslasset" />
		<tag k="natural" v="hill" />
		<tag k="place" v="locality" />
		<tag k="ssr:stedsnr" v="513620" />
	</node>
	<node id="-207917" lat="59.511611113" lon="10.249277769">
		<tag k="name" v="Gullhaugstulen" />
		<tag k="place" v="locality" />
		<tag k="ssr:stedsnr" v="756554" />
	</node>
	<node id="-207911" lat="59.4638805511" lon="10.2695222232">
		<tag k="fixme" v="consider natural=peak for the most distinct mountains in the district" />
		<tag k="name" v="Rypåsen" />
		<tag k="natural" v="hill" />
		<tag k="place" v="locality" />
		<tag k="ssr:stedsnr" v="270779" />
	</node>
	<node id="-207903" lat="59.5224638908" lon="10.1565277799">
		<tag k="fixme" v="consider natural=peak for the most distinct mountains in the district" />
		<tag k="name" v="Brekkeåsen" />
		<tag k="natural" v="hill" />
		<tag k="place" v="locality" />
		<tag k="ssr:stedsnr" v="246985" />
	</node>
	<node id="-207901" lat="59.5550972233" lon="10.1397611102">
		<tag k="fixme" v="consider natural=peak for the most distinct mountains in the district" />
		<tag k="name" v="Bråten" />
		<tag k="natural" v="hill" />
		<tag k="place" v="locality" />
		<tag k="ssr:stedsnr" v="392728" />
	</node>
	<node id="-207895" lat="59.5260722245" lon="10.27155">
		<tag k="name" v="Angerskleiv" />
		<tag k="natural" v="slope" />
		<tag k="place" v="locality" />
		<tag k="ssr:stedsnr" v="756025" />
	</node>
	<node id="-207878" lat="59.5295444408" lon="10.2599499959">
		<tag k="name" v="Bogen" />
		<tag k="natural" v="hill" />
		<tag k="place" v="locality" />
		<tag k="ssr:stedsnr" v="392990" />
	</node>
	<node id="-207875" lat="59.5130055512" lon="10.2765499971">
		<tag k="fixme" v="consider natural=peak for the most distinct mountains in the district" />
		<tag k="name" v="Nordkollen" />
		<tag k="natural" v="hill" />
		<tag k="place" v="locality" />
		<tag k="ssr:stedsnr" v="513004" />
	</node>
	<node id="-207866" lat="59.4787777793" lon="10.3237277807">
		<tag k="fixme" v="consider natural=peak for the most distinct mountains in the district" />
		<tag k="name" v="Ekelundåsen" />
		<tag k="natural" v="hill" />
		<tag k="place" v="locality" />
		<tag k="ssr:stedsnr" v="695861" />
	</node>
	<node id="-207863" lat="59.5281083311" lon="10.2529055556">
		<tag k="name" v="Lidompa" />
		<tag k="place" v="locality" />
		<tag k="ssr:stedsnr" v="453551" />
	</node>
	<node id="-207848" lat="59.5266749969" lon="10.25410834">
		<tag k="name" v="Kentucky" />
		<tag k="natural" v="hill" />
		<tag k="place" v="locality" />
		<tag k="ssr:stedsnr" v="877552" />
	</node>
	<node id="-207847" lat="59.5680833323" lon="10.1474416669">
		<tag k="name" v="Delingsdalen" />
		<tag k="natural" v="valley" />
		<tag k="place" v="locality" />
		<tag k="ssr:stedsnr" v="938567" />
	</node>
	<node id="-207842" lat="59.5350527766" lon="10.1582999995">
		<tag k="fixme" v="consider natural=peak for the most distinct mountains in the district" />
		<tag k="name" v="Tasserudåsen" />
		<tag k="natural" v="hill" />
		<tag k="place" v="locality" />
		<tag k="ssr:stedsnr" v="695759" />
	</node>
	<node id="-207841" lat="59.5216388881" lon="10.2013777851">
		<tag k="fixme" v="consider natural=peak for the most distinct mountains in the district" />
		<tag k="name" v="Saueråsen" />
		<tag k="natural" v="hill" />
		<tag k="place" v="locality" />
		<tag k="ssr:stedsnr" v="64914" />
	</node>
	<node id="-207838" lat="59.5048250027" lon="10.1643138967">
		<tag k="name" v="Knatten" />
		<tag k="natural" v="hill" />
		<tag k="place" v="locality" />
		<tag k="ssr:stedsnr" v="209617" />
	</node>
	<node id="-207837" lat="59.4685777797" lon="10.2534500013">
		<tag k="name" v="Kvilhaug" />
		<tag k="natural" v="hill" />
		<tag k="place" v="locality" />
		<tag k="ssr:stedsnr" v="938677" />
	</node>
	<node id="-207835" lat="59.5313972229" lon="10.1566777717">
		<tag k="name" v="Dalane" />
		<tag k="place" v="locality" />
		<tag k="ssr:stedsnr" v="271811" />
	</node>
	<node id="-207829" lat="59.5297500015" lon="10.2499027818">
		<tag k="name" v="Liglaneren" />
		<tag k="natural" v="hill" />
		<tag k="place" v="locality" />
		<tag k="ssr:stedsnr" v="246892" />
	</node>
	<node id="-207828" lat="59.5173666679" lon="10.288655551">
		<tag k="name" v="Hasselbakken" />
		<tag k="natural" v="slope" />
		<tag k="place" v="locality" />
		<tag k="ssr:stedsnr" v="149026" />
	</node>
	<node id="-207827" lat="59.4734138867" lon="10.1538500028">
		<tag k="name" v="Tjuvberget" />
		<tag k="natural" v="hill" />
		<tag k="place" v="locality" />
		<tag k="ssr:stedsnr" v="731091" />
	</node>
	<node id="-207826" lat="59.4933666644" lon="10.1342361158">
		<tag k="fixme" v="consider natural=peak for the most distinct mountains in the district" />
		<tag k="name" v="Skrubbedalåsen" />
		<tag k="natural" v="hill" />
		<tag k="place" v="locality" />
		<tag k="ssr:stedsnr" v="209493" />
	</node>
	<node id="-207816" lat="59.4995805548" lon="10.1710027863">
		<tag k="fixme" v="consider natural=peak for the most distinct mountains in the district" />
		<tag k="name" v="Heggsåsen" />
		<tag k="natural" v="hill" />
		<tag k="place" v="locality" />
		<tag k="ssr:stedsnr" v="270638" />
	</node>
	<node id="-207812" lat="59.4893250013" lon="10.1543527817">
		<tag k="name" v="Skarrbodalen" />
		<tag k="natural" v="valley" />
		<tag k="place" v="locality" />
		<tag k="ssr:stedsnr" v="633607" />
	</node>
	<node id="-207809" lat="59.5086555575" lon="10.2121361143">
		<tag k="name" v="Islandhøgda" />
		<tag k="place" v="locality" />
		<tag k="ssr:stedsnr" v="149538" />
	</node>
	<node id="-207802" lat="59.5045722195" lon="10.2261916753">
		<tag k="name" v="Breimyrbakken" />
		<tag k="natural" v="slope" />
		<tag k="place" v="locality" />
		<tag k="ssr:stedsnr" v="209609" />
	</node>
	<node id="-207801" lat="59.5304277821" lon="10.2167166675">
		<tag k="name" v="Merkingsdalen" />
		<tag k="natural" v="valley" />
		<tag k="place" v="locality" />
		<tag k="ssr:stedsnr" v="210767" />
	</node>
	<node id="-207800" lat="59.5597944471" lon="10.1685361042">
		<tag k="name" v="Steinbrottet" />
		<tag k="natural" v="slope" />
		<tag k="place" v="locality" />
		<tag k="ssr:stedsnr" v="817567" />
	</node>
	<node id="-207796" lat="59.5710000024" lon="10.1455944528">
		<tag k="name" v="Hesjan" />
		<tag k="natural" v="hill" />
		<tag k="place" v="locality" />
		<tag k="ssr:stedsnr" v="331670" />
	</node>
	<node id="-207789" lat="59.4928083307" lon="10.1310694389">
		<tag k="name" v="Tronka" />
		<tag k="natural" v="slope" />
		<tag k="place" v="locality" />
		<tag k="ssr:stedsnr" v="209487" />
	</node>
	<node id="-207771" lat="59.5004222263" lon="10.2336416756">
		<tag k="name" v="Bakkely" />
		<tag k="natural" v="slope" />
		<tag k="place" v="locality" />
		<tag k="ssr:stedsnr" v="938584" />
	</node>
	<node id="-207769" lat="59.4915972195" lon="10.2315111158">
		<tag k="fixme" v="consider natural=peak for the most distinct mountains in the district" />
		<tag k="name" v="Stuåsen" />
		<tag k="natural" v="hill" />
		<tag k="place" v="locality" />
		<tag k="ssr:stedsnr" v="877636" />
	</node>
	<node id="-207759" lat="59.4665361117" lon="10.3235277721">
		<tag k="name" v="Grønli" />
		<tag k="natural" v="slope" />
		<tag k="place" v="locality" />
		<tag k="ssr:stedsnr" v="209921" />
	</node>
	<node id="-207758" lat="59.4999138849" lon="10.2664416697">
		<tag k="name" v="Fosslien" />
		<tag k="natural" v="slope" />
		<tag k="place" v="locality" />
		<tag k="ssr:stedsnr" v="695839" />
	</node>
	<node id="-207753" lat="59.5446472194" lon="10.1801333356">
		<tag k="name" v="Øvre Dalsrud" />
		<tag k="natural" v="valley" />
		<tag k="place" v="locality" />
		<tag k="ssr:stedsnr" v="392783" />
	</node>
	<node id="-207749" lat="59.5415388909" lon="10.1506916748">
		<tag k="alt_name" v="Tjuvborga" />
		<tag k="name" v="Tjuvborgen" />
		<tag k="natural" v="hill" />
		<tag k="place" v="locality" />
		<tag k="ssr:stedsnr" v="367927" />
	</node>
	<node id="-207743" lat="59.4617916655" lon="10.2265805495">
		<tag k="name" v="Plassen" />
		<tag k="place" v="locality" />
		<tag k="ssr:stedsnr" v="88474" />
	</node>
	<node id="-207741" lat="59.538786113" lon="10.1840249941">
		<tag k="fixme" v="consider natural=peak for the most distinct mountains in the district" />
		<tag k="name" v="Vesle-Hvittingen" />
		<tag k="natural" v="hill" />
		<tag k="place" v="locality" />
		<tag k="ssr:stedsnr" v="331768" />
	</node>
	<node id="-207738" lat="59.4596249963" lon="10.3197749958">
		<tag k="alt_name" v="Solumås" />
		<tag k="fixme" v="consider natural=peak for the most distinct mountains in the district" />
		<tag k="name" v="Solumsåsen" />
		<tag k="natural" v="hill" />
		<tag k="place" v="locality" />
		<tag k="ssr:stedsnr" v="63131" />
	</node>
	<node id="-207737" lat="59.5097194464" lon="10.2428527856">
		<tag k="name" v="Brunløkka" />
		<tag k="place" v="locality" />
		<tag k="ssr:stedsnr" v="938537" />
	</node>
	<node id="-207730" lat="59.4814277746" lon="10.214922218">
		<tag k="fixme" v="consider natural=peak for the most distinct mountains in the district" />
		<tag k="name" v="Løvaldborgen" />
		<tag k="natural" v="hill" />
		<tag k="place" v="locality" />
		<tag k="ssr:stedsnr" v="452696" />
	</node>
	<node id="-207727" lat="59.4699194413" lon="10.3305388817">
		<tag k="fixme" v="consider natural=peak for the most distinct mountains in the district" />
		<tag k="name" v="Kaståsen" />
		<tag k="natural" v="hill" />
		<tag k="place" v="locality" />
		<tag k="ssr:stedsnr" v="695928" />
	</node>
	<node id="-207726" lat="59.4905527778" lon="10.1640222247">
		<tag k="fixme" v="consider natural=peak for the most distinct mountains in the district" />
		<tag k="name" v="Korpåsen" />
		<tag k="natural" v="hill" />
		<tag k="place" v="locality" />
		<tag k="ssr:stedsnr" v="573576" />
	</node>
	<node id="-207709" lat="59.4788499962" lon="10.2596166733">
		<tag k="alt_name" v="Knattenåsen" />
		<tag k="fixme" v="consider natural=peak for the most distinct mountains in the district" />
		<tag k="name" v="Knattåsen" />
		<tag k="natural" v="hill" />
		<tag k="place" v="locality" />
		<tag k="ssr:stedsnr" v="488017" />
	</node>
	<node id="-207700" lat="59.5249861131" lon="10.2235388813">
		<tag k="name" v="Sandbakken" />
		<tag k="natural" v="slope" />
		<tag k="place" v="locality" />
		<tag k="ssr:stedsnr" v="634574" />
	</node>
	<node id="-207698" lat="59.5222916661" lon="10.2575805536">
		<tag k="fixme" v="consider natural=peak for the most distinct mountains in the district" />
		<tag k="name" v="Veierødseteråsen" />
		<tag k="natural" v="hill" />
		<tag k="place" v="locality" />
		<tag k="ssr:stedsnr" v="210533" />
	</node>
	<node id="-207690" lat="59.5132499991" lon="10.238666665">
		<tag k="fixme" v="consider natural=peak for the most distinct mountains in the district" />
		<tag k="name" v="Brattås" />
		<tag k="natural" v="hill" />
		<tag k="place" v="locality" />
		<tag k="ssr:stedsnr" v="428980" />
	</node>
	<node id="-207686" lat="59.4889472201" lon="10.2362277724">
		<tag k="name" v="Vannløkka" />
		<tag k="place" v="locality" />
		<tag k="ssr:stedsnr" v="755593" />
	</node>
	<node id="-207680" lat="59.5462805551" lon="10.1961222204">
		<tag k="fixme" v="consider natural=peak for the most distinct mountains in the district" />
		<tag k="name" v="Hvittingen" />
		<tag k="natural" v="hill" />
		<tag k="place" v="locality" />
		<tag k="ssr:stedsnr" v="792923" />
	</node>
	<node id="-207679" lat="59.5269361084" lon="10.2130916746">
		<tag k="name" v="Spiråsen" />
		<tag k="natural" v="hill" />
		<tag k="place" v="locality" />
		<tag k="ssr:stedsnr" v="306897" />
	</node>
	<node id="-207677" lat="59.4843527745" lon="10.269952779">
		<tag k="fixme" v="consider natural=peak for the most distinct mountains in the district" />
		<tag k="name" v="Grønnmarkåsen" />
		<tag k="natural" v="hill" />
		<tag k="place" v="locality" />
		<tag k="ssr:stedsnr" v="938851" />
	</node>
	<node id="-207672" lat="59.5185499983" lon="10.288241658">
		<tag k="name" v="Husdalen" />
		<tag k="natural" v="valley" />
		<tag k="place" v="locality" />
		<tag k="ssr:stedsnr" v="877030" />
	</node>
	<node id="-207668" lat="59.5594083336" lon="10.172641661">
		<tag k="name" v="Gamlekleiva" />
		<tag k="natural" v="slope" />
		<tag k="place" v="locality" />
		<tag k="ssr:stedsnr" v="510399" />
	</node>
	<node id="-207664" lat="59.518408337" lon="10.2329972258">
		<tag k="fixme" v="consider natural=peak for the most distinct mountains in the district" />
		<tag k="name" v="Mellomåsen" />
		<tag k="natural" v="hill" />
		<tag k="place" v="locality" />
		<tag k="ssr:stedsnr" v="817534" />
	</node>
	<node id="-207661" lat="59.5186500015" lon="10.1836583293">
		<tag k="name" v="Verket" />
		<tag k="place" v="locality" />
		<tag k="ssr:stedsnr" v="634565" />
	</node>
	<node id="-207653" lat="59.5623444414" lon="10.1682611192">
		<tag k="fixme" v="consider natural=peak for the most distinct mountains in the district" />
		<tag k="name" v="Skarvet" />
		<tag k="natural" v="hill" />
		<tag k="place" v="locality" />
		<tag k="ssr:stedsnr" v="89593" />
	</node>
	<node id="-207644" lat="59.5590305564" lon="10.1464250009">
		<tag k="name" v="Kongseplerud" />
		<tag k="natural" v="valley" />
		<tag k="place" v="locality" />
		<tag k="ssr:stedsnr" v="574710" />
	</node>
	<node id="-207640" lat="59.5077249958" lon="10.2742222177">
		<tag k="alt_name" v="Spettås" />
		<tag k="fixme" v="consider natural=peak for the most distinct mountains in the district" />
		<tag k="name" v="Spettåsen" />
		<tag k="natural" v="hill" />
		<tag k="place" v="locality" />
		<tag k="ssr:stedsnr" v="210003" />
	</node>
	<node id="-207638" lat="59.5340333313" lon="10.2018777741">
		<tag k="fixme" v="consider natural=peak for the most distinct mountains in the district" />
		<tag k="name" v="Hillestadåsen" />
		<tag k="natural" v="hill" />
		<tag k="place" v="locality" />
		<tag k="ssr:stedsnr" v="306883" />
	</node>
	<node id="-207628" lat="59.5180583374" lon="10.269902772">
		<tag k="name" v="Husdalen" />
		<tag k="natural" v="valley" />
		<tag k="place" v="locality" />
		<tag k="ssr:stedsnr" v="938825" />
	</node>
	<node id="-207624" lat="59.5265472191" lon="10.2642750068">
		<tag k="fixme" v="consider natural=peak for the most distinct mountains in the district" />
		<tag k="name" v="Dyvelåsen" />
		<tag k="natural" v="hill" />
		<tag k="place" v="locality" />
		<tag k="ssr:stedsnr" v="574580" />
	</node>
	<node id="-207617" lat="59.504197222" lon="10.2502333338">
		<tag k="name" v="Godakerlia" />
		<tag k="natural" v="slope" />
		<tag k="place" v="locality" />
		<tag k="ssr:stedsnr" v="695608" />
	</node>
	<node id="-207599" lat="59.5690222233" lon="10.1633527778">
		<tag k="name" v="Jeriko" />
		<tag k="natural" v="hill" />
		<tag k="place" v="locality" />
		<tag k="ssr:stedsnr" v="124059" />
	</node>
	<node id="-207596" lat="59.5023777758" lon="10.2587361079">
		<tag k="name" v="Mellombasseng" />
		<tag k="natural" v="slope" />
		<tag k="place" v="locality" />
		<tag k="ssr:stedsnr" v="88537" />
	</node>
	<node id="-207595" lat="59.5002361107" lon="10.1600861057">
		<tag k="fixme" v="consider natural=peak for the most distinct mountains in the district" />
		<tag k="name" v="Syverkollen" />
		<tag k="natural" v="hill" />
		<tag k="place" v="locality" />
		<tag k="ssr:stedsnr" v="391638" />
	</node>
	<node id="-207594" lat="59.5059916629" lon="10.225877776">
		<tag k="fixme" v="consider natural=peak for the most distinct mountains in the district" />
		<tag k="name" v="Breimyråsen" />
		<tag k="natural" v="hill" />
		<tag k="place" v="locality" />
		<tag k="ssr:stedsnr" v="27626" />
	</node>
	<node id="-207590" lat="59.5328527735" lon="10.2391027688">
		<tag k="fixme" v="consider natural=peak for the most distinct mountains in the district" />
		<tag k="name" v="Brandåsen" />
		<tag k="natural" v="hill" />
		<tag k="place" v="locality" />
		<tag k="ssr:stedsnr" v="670881" />
	</node>
	<node id="-207587" lat="59.5379583343" lon="10.2028055637">
		<tag k="name" v="Siljuklev" />
		<tag k="natural" v="valley" />
		<tag k="place" v="locality" />
		<tag k="ssr:stedsnr" v="938732" />
	</node>
	<node id="-207583" lat="59.4554361143" lon="10.2303833248">
		<tag k="fixme" v="consider natural=peak for the most distinct mountains in the district" />
		<tag k="name" v="Ryksåsen" />
		<tag k="natural" v="hill" />
		<tag k="place" v="locality" />
		<tag k="ssr:stedsnr" v="245062" />
	</node>
	<node id="-207580" lat="59.5057833333" lon="10.1609138971">
		<tag k="name" v="Nylende" />
		<tag k="natural" v="hill" />
		<tag k="place" v="locality" />
		<tag k="ssr:stedsnr" v="391634" />
	</node>
	<node id="-207578" lat="59.5670694451" lon="10.1449277838">
		<tag k="name" v="Svanerudkollen" />
		<tag k="natural" v="hill" />
		<tag k="place" v="locality" />
		<tag k="ssr:stedsnr" v="367042" />
	</node>
	<node id="-207577" lat="59.5068249979" lon="10.1594777754">
		<tag k="fixme" v="consider natural=peak for the most distinct mountains in the district" />
		<tag k="name" v="Strandåsen" />
		<tag k="natural" v="hill" />
		<tag k="place" v="locality" />
		<tag k="ssr:stedsnr" v="331617" />
	</node>
	<node id="-207568" lat="59.535680556" lon="10.2585472216">
		<tag k="name" v="Saltbubakken" />
		<tag k="natural" v="slope" />
		<tag k="place" v="locality" />
		<tag k="ssr:stedsnr" v="331509" />
	</node>
	<node id="-207553" lat="59.4970722256" lon="10.2305194516">
		<tag k="name" v="Flannum" />
		<tag k="natural" v="slope" />
		<tag k="place" v="locality" />
		<tag k="ssr:stedsnr" v="816662" />
	</node>
	<node id="-207550" lat="59.5429777808" lon="10.1544722277">
		<tag k="name" v="Løkebergplassen" />
		<tag k="place" v="locality" />
		<tag k="ssr:stedsnr" v="513748" />
	</node>
	<node id="-207548" lat="59.4885277787" lon="10.1675166692">
		<tag k="name" v="Gjøgrihaugen" />
		<tag k="natural" v="hill" />
		<tag k="place" v="locality" />
		<tag k="ssr:stedsnr" v="877628" />
	</node>
	<node id="-207545" lat="59.5570916668" lon="10.1685166678">
		<tag k="name" v="Snippen" />
		<tag k="natural" v="slope" />
		<tag k="place" v="locality" />
		<tag k="ssr:stedsnr" v="271630" />
	</node>
	<node id="-207543" lat="59.5562055578" lon="10.1877972157">
		<tag k="fixme" v="consider natural=peak for the most distinct mountains in the district" />
		<tag k="name" v="Steinbruåsen" />
		<tag k="natural" v="hill" />
		<tag k="place" v="locality" />
		<tag k="ssr:stedsnr" v="449383" />
	</node>
	<node id="-207533" lat="59.512825002" lon="10.2668250044">
		<tag k="name" v="Fosslia" />
		<tag k="natural" v="slope" />
		<tag k="place" v="locality" />
		<tag k="ssr:stedsnr" v="89564" />
	</node>
	<node id="-207529" lat="59.551036114" lon="10.1459249925">
		<tag k="fixme" v="consider natural=peak for the most distinct mountains in the district" />
		<tag k="name" v="Bakkeåsen" />
		<tag k="natural" v="hill" />
		<tag k="place" v="locality" />
		<tag k="ssr:stedsnr" v="792905" />
	</node>
	<node id="-207523" lat="59.4914166697" lon="10.1982277711">
		<tag k="fixme" v="consider natural=peak for the most distinct mountains in the district" />
		<tag k="name" v="Hallingsrudåsen" />
		<tag k="natural" v="hill" />
		<tag k="place" v="locality" />
		<tag k="ssr:stedsnr" v="391621" />
	</node>
	<node id="-208971" lat="59.4834777769" lon="10.1219027722">
		<tag k="name" v="Bjønnhyttedalen" />
		<tag k="natural" v="valley" />
		<tag k="place" v="locality" />
		<tag k="ssr:stedsnr" v="512511" />
	</node>
	<node id="-208970" lat="59.6396611131" lon="10.0052666608">
		<tag k="alt_name" v="Skjæralia" />
		<tag k="name" v="Skjælalia" />
		<tag k="natural" v="slope" />
		<tag k="place" v="locality" />
		<tag k="ssr:stedsnr" v="427189" />
	</node>
	<node id="-208968" lat="59.5979583326" lon="10.0370666578">
		<tag k="name" v="Sagkollen" />
		<tag k="natural" v="hill" />
		<tag k="place" v="locality" />
		<tag k="ssr:stedsnr" v="392321" />
	</node>
	<node id="-208964" lat="59.5103305547" lon="10.0638166581">
		<tag k="name" v="Skarvene" />
		<tag k="natural" v="hill" />
		<tag k="place" v="locality" />
		<tag k="ssr:stedsnr" v="271419" />
	</node>
	<node id="-208963" lat="59.5787083363" lon="10.1239500053">
		<tag k="fixme" v="consider natural=peak for the most distinct mountains in the district" />
		<tag k="name" v="Nedre Korpås" />
		<tag k="natural" v="hill" />
		<tag k="place" v="locality" />
		<tag k="ssr:stedsnr" v="89353" />
	</node>
	<node id="-208961" lat="59.5895611131" lon="10.0466666742">
		<tag k="name" v="Flisestøa" />
		<tag k="natural" v="slope" />
		<tag k="place" v="locality" />
		<tag k="ssr:stedsnr" v="367021" />
	</node>
	<node id="-208960" lat="59.4796916667" lon="10.1234722196">
		<tag k="name" v="Skrubbjota" />
		<tag k="natural" v="valley" />
		<tag k="place" v="locality" />
		<tag k="ssr:stedsnr" v="512510" />
	</node>
	<node id="-208958" lat="59.5819083328" lon="10.1224083293">
		<tag k="fixme" v="consider natural=peak for the most distinct mountains in the district" />
		<tag k="name" v="Øvre Korpås" />
		<tag k="natural" v="hill" />
		<tag k="place" v="locality" />
		<tag k="ssr:stedsnr" v="89352" />
	</node>
	<node id="-208957" lat="59.4736277789" lon="10.0683499997">
		<tag k="name" v="Seterdalen" />
		<tag k="natural" v="valley" />
		<tag k="place" v="locality" />
		<tag k="ssr:stedsnr" v="695479" />
	</node>
	<node id="-208954" lat="59.5735027803" lon="10.1305138976">
		<tag k="name" v="Kumyrdalen" />
		<tag k="natural" v="valley" />
		<tag k="place" v="locality" />
		<tag k="ssr:stedsnr" v="756341" />
	</node>
	<node id="-208953" lat="59.5874999959" lon="9.97929444553">
		<tag k="name" v="Heggedokka" />
		<tag k="natural" v="slope" />
		<tag k="place" v="locality" />
		<tag k="ssr:stedsnr" v="817472" />
	</node>
	<node id="-208952" lat="59.5228861117" lon="10.1410583351">
		<tag k="fixme" v="consider natural=peak for the most distinct mountains in the district" />
		<tag k="name" v="Nøtnesåsen" />
		<tag k="natural" v="hill" />
		<tag k="place" v="locality" />
		<tag k="ssr:stedsnr" v="792888" />
	</node>
	<node id="-208951" lat="59.5130833293" lon="10.0412861095">
		<tag k="name" v="Barlindbakkane" />
		<tag k="natural" v="slope" />
		<tag k="place" v="locality" />
		<tag k="ssr:stedsnr" v="149371" />
	</node>
	<node id="-208947" lat="59.5410027788" lon="10.0458500079">
		<tag k="name" v="Langrall-lia" />
		<tag k="natural" v="slope" />
		<tag k="place" v="locality" />
		<tag k="ssr:stedsnr" v="392318" />
	</node>
	<node id="-208945" lat="59.5870472201" lon="10.1127888968">
		<tag k="fixme" v="consider natural=peak for the most distinct mountains in the district" />
		<tag k="name" v="St. Hansåsen" />
		<tag k="natural" v="hill" />
		<tag k="place" v="locality" />
		<tag k="ssr:stedsnr" v="756338" />
	</node>
	<node id="-208944" lat="59.5812194468" lon="10.1286138896">
		<tag k="fixme" v="consider natural=peak for the most distinct mountains in the district" />
		<tag k="name" v="Nedre Maurås" />
		<tag k="natural" v="hill" />
		<tag k="place" v="locality" />
		<tag k="ssr:stedsnr" v="89356" />
	</node>
	<node id="-208943" lat="59.5599361146" lon="10.0000388887">
		<tag k="name" v="Vaet" />
		<tag k="natural" v="valley" />
		<tag k="place" v="locality" />
		<tag k="ssr:stedsnr" v="453481" />
	</node>
	<node id="-208935" lat="59.4993499969" lon="10.1138972148">
		<tag k="name" v="Bonn" />
		<tag k="place" v="locality" />
		<tag k="ssr:stedsnr" v="695475" />
	</node>
	<node id="-208933" lat="59.5680499975" lon="10.046636111">
		<tag k="alt_name" v="St. Hansås" />
		<tag k="fixme" v="consider natural=peak for the most distinct mountains in the district" />
		<tag k="name" v="Sankt Hansåsen" />
		<tag k="natural" v="hill" />
		<tag k="place" v="locality" />
		<tag k="ssr:stedsnr" v="428061" />
	</node>
	<node id="-208932" lat="59.4897138866" lon="10.0509555497">
		<tag k="name" v="Langbråtan" />
		<tag k="natural" v="valley" />
		<tag k="place" v="locality" />
		<tag k="ssr:stedsnr" v="937049" />
	</node>
	<node id="-208930" lat="59.5377250018" lon="10.1353527837">
		<tag k="name" v="Bjønneklova" />
		<tag k="natural" v="valley" />
		<tag k="place" v="locality" />
		<tag k="ssr:stedsnr" v="271426" />
	</node>
	<node id="-208928" lat="59.4822583353" lon="10.0547333276">
		<tag k="name" v="Granalia" />
		<tag k="natural" v="slope" />
		<tag k="place" v="locality" />
		<tag k="ssr:stedsnr" v="755525" />
	</node>
	<node id="-208927" lat="59.5601277734" lon="10.0337194506">
		<tag k="name" v="Øvre-bonn" />
		<tag k="natural" v="valley" />
		<tag k="place" v="locality" />
		<tag k="ssr:stedsnr" v="28336" />
	</node>
	<node id="-208924" lat="59.4817333343" lon="10.0615611122">
		<tag k="name" v="Larsehogst" />
		<tag k="natural" v="slope" />
		<tag k="place" v="locality" />
		<tag k="ssr:stedsnr" v="330488" />
	</node>
	<node id="-208922" lat="59.5446305589" lon="10.1173138857">
		<tag k="name" v="Laneng-kollen" />
		<tag k="natural" v="hill" />
		<tag k="place" v="locality" />
		<tag k="ssr:stedsnr" v="331280" />
	</node>
	<node id="-208921" lat="59.5323305544" lon="10.026402775">
		<tag k="name" v="Trøgsenbunn" />
		<tag k="natural" v="valley" />
		<tag k="place" v="locality" />
		<tag k="ssr:stedsnr" v="510452" />
	</node>
	<node id="-208920" lat="59.6171000036" lon="10.0490833417">
		<tag k="name" v="Stordalen" />
		<tag k="natural" v="valley" />
		<tag k="place" v="locality" />
		<tag k="ssr:stedsnr" v="247064" />
	</node>
	<node id="-208918" lat="59.6174527751" lon="10.0606500073">
		<tag k="fixme" v="consider natural=peak for the most distinct mountains in the district" />
		<tag k="name" v="Heierstadåsen" />
		<tag k="natural" v="hill" />
		<tag k="place" v="locality" />
		<tag k="ssr:stedsnr" v="392740" />
	</node>
	<node id="-208917" lat="59.5431527753" lon="10.1370777838">
		<tag k="fixme" v="consider natural=peak for the most distinct mountains in the district" />
		<tag k="name" v="Furuåsen" />
		<tag k="natural" v="hill" />
		<tag k="place" v="locality" />
		<tag k="ssr:stedsnr" v="938273" />
	</node>
	<node id="-208916" lat="59.6149083353" lon="10.0512138945">
		<tag k="fixme" v="consider natural=peak for the most distinct mountains in the district" />
		<tag k="name" v="Stordalsåsen" />
		<tag k="natural" v="hill" />
		<tag k="place" v="locality" />
		<tag k="ssr:stedsnr" v="938705" />
	</node>
	<node id="-208915" lat="59.5878722244" lon="10.0462805595">
		<tag k="name" v="Eidsbrekka" />
		<tag k="natural" v="slope" />
		<tag k="place" v="locality" />
		<tag k="ssr:stedsnr" v="574357" />
	</node>
	<node id="-208907" lat="59.5514138933" lon="10.0081638972">
		<tag k="name" v="Rolighullet" />
		<tag k="natural" v="hill" />
		<tag k="place" v="locality" />
		<tag k="ssr:stedsnr" v="28328" />
	</node>
	<node id="-208906" lat="59.6296222185" lon="10.0062222239">
		<tag k="name" v="Hanseløkka" />
		<tag k="place" v="locality" />
		<tag k="ssr:stedsnr" v="392326" />
	</node>
	<node id="-208903" lat="59.5151333367" lon="10.0662222182">
		<tag k="fixme" v="consider natural=peak for the most distinct mountains in the district" />
		<tag k="name" v="Lianbrånan" />
		<tag k="natural" v="hill" />
		<tag k="place" v="locality" />
		<tag k="ssr:stedsnr" v="756358" />
	</node>
	<node id="-208901" lat="59.5302833346" lon="10.0435694456">
		<tag k="name" v="Kaste" />
		<tag k="natural" v="slope" />
		<tag k="place" v="locality" />
		<tag k="ssr:stedsnr" v="513293" />
	</node>
	<node id="-208898" lat="59.5743000015" lon="9.99081944422">
		<tag k="name" v="Nedre vaet" />
		<tag k="natural" v="valley" />
		<tag k="place" v="locality" />
		<tag k="ssr:stedsnr" v="392519" />
	</node>
</osm>
