<?xml version="1.0" encoding="UTF-8"?>
<osm generator="osmapis" version="0.6">
	<node id="-208671" lat="59.4849972186" lon="10.0914249941">
		<tag k="alt_name" v="Vassås kirke" />
		<tag k="amenity" v="place_of_worship" />
		<tag k="denomination" v="lutheran" />
		<tag k="name" v="Vassås" />
		<tag k="old_name" v="Vasås" />
		<tag k="religion" v="christian" />
		<tag k="ssr:stedsnr" v="609005" />
	</node>
	<node id="-207770" lat="59.4811111141" lon="10.2770749947">
		<tag k="amenity" v="place_of_worship" />
		<tag k="denomination" v="lutheran" />
		<tag k="name" v="Botne" />
		<tag k="religion" v="christian" />
		<tag k="ssr:stedsnr" v="306032" />
	</node>
	<node id="-207570" lat="59.5119611096" lon="10.1832555564">
		<tag k="alt_name" v="Hillestad kirke" />
		<tag k="amenity" v="place_of_worship" />
		<tag k="denomination" v="lutheran" />
		<tag k="name" v="Hillestad" />
		<tag k="religion" v="christian" />
		<tag k="ssr:stedsnr" v="549995" />
	</node>
	<node id="-208683" lat="59.5919750015" lon="10.0450055636">
		<tag k="alt_name" v="Eidsfoss kpl." />
		<tag k="amenity" v="place_of_worship" />
		<tag k="denomination" v="lutheran" />
		<tag k="name" v="Eidsfoss" />
		<tag k="religion" v="christian" />
		<tag k="ssr:stedsnr" v="853024" />
	</node>
	<node id="-207717" lat="59.5265166699" lon="10.2698777717">
		<tag k="name" v="Gml. Kongevei" />
		<tag k="place" v="locality" />
		<tag k="ssr:stedsnr" v="817003" />
	</node>
	<node id="-208324" lat="59.5394916631" lon="10.0798888929">
		<tag k="alt_name" v="Hof" />
		<tag k="amenity" v="place_of_worship" />
		<tag k="denomination" v="lutheran" />
		<tag k="name" v="Hof kirke" />
		<tag k="religion" v="christian" />
		<tag k="ssr:stedsnr" v="731876" />
	</node>
</osm>
