<?xml version="1.0" encoding="UTF-8"?>
<osm generator="osmapis" version="0.6">
	<node id="-493558" lat="60.919871041" lon="5.44208239589">
		<tag k="name" v="Fitjetjørna" />
		<tag k="natural" v="water" />
		<tag k="ssr:stedsnr" v="494939" />
	</node>
	<node id="-493553" lat="60.7771291458" lon="5.42893928991">
		<tag k="name" v="Timbrebotstjørna" />
		<tag k="natural" v="water" />
		<tag k="ssr:stedsnr" v="494658" />
	</node>
	<node id="-493538" lat="60.9166716479" lon="5.71693124113">
		<tag k="name" v="Grønlivatnet" />
		<tag k="natural" v="water" />
		<tag k="ssr:stedsnr" v="494338" />
	</node>
	<node id="-493537" lat="60.8859769948" lon="5.54946211501">
		<tag k="name" v="Botnetjørna" />
		<tag k="natural" v="water" />
		<tag k="ssr:stedsnr" v="494302" />
	</node>
	<node id="-493536" lat="60.9225833366" lon="5.41932500647">
		<tag k="name" v="Sulevatnet" />
		<tag k="natural" v="water" />
		<tag k="ssr:stedsnr" v="494181" />
		<tag k="water" v="lake" />
	</node>
	<node id="-493527" lat="60.9143514722" lon="5.44506647492">
		<tag k="name" v="Sulelva" />
		<tag k="ssr:stedsnr" v="493926" />
		<tag k="waterway" v="river" />
	</node>
	<node id="-493520" lat="60.8358861128" lon="5.43645554689">
		<tag k="name" v="Glyvreelva" />
		<tag k="ssr:stedsnr" v="493574" />
		<tag k="waterway" v="river" />
	</node>
	<node id="-493492" lat="60.7659416647" lon="5.32454722927">
		<tag k="name" v="Furneset" />
		<tag k="natural" v="cape" />
		<tag k="ssr:stedsnr" v="446387" />
	</node>
	<node id="-492529" lat="60.8022333307" lon="5.34291944171">
		<tag k="name" v="Bjørnetjørna" />
		<tag k="natural" v="water" />
		<tag k="ssr:stedsnr" v="372662" />
	</node>
	<node id="-493476" lat="60.9067221336" lon="5.58572493496">
		<tag k="name" v="Trodalstjørna" />
		<tag k="natural" v="water" />
		<tag k="ssr:stedsnr" v="445842" />
	</node>
	<node id="-493461" lat="60.8347388913" lon="5.51546944707">
		<tag k="name" v="Haugsdalselva" />
		<tag k="ssr:stedsnr" v="445593" />
		<tag k="waterway" v="river" />
	</node>
	<node id="-493457" lat="60.9195916683" lon="5.49294721379">
		<tag k="name" v="Lona" />
		<tag k="natural" v="water" />
		<tag k="ssr:stedsnr" v="445545" />
		<tag k="water" v="lake" />
	</node>
	<node id="-493448" lat="60.8619584948" lon="5.25741851327">
		<tag k="name" v="Hindefosstjørna" />
		<tag k="natural" v="water" />
		<tag k="ssr:stedsnr" v="445394" />
	</node>
	<node id="-493443" lat="60.7670999959" lon="5.41444445253">
		<tag k="name" v="Timbrebotsneset" />
		<tag k="natural" v="cape" />
		<tag k="ssr:stedsnr" v="445307" />
	</node>
	<node id="-493437" lat="60.7423833329" lon="5.37076944422">
		<tag k="name" v="Katlegrova" />
		<tag k="ssr:stedsnr" v="445277" />
		<tag k="waterway" v="river" />
	</node>
	<node id="-493430" lat="60.8102666684" lon="5.3715833326">
		<tag k="name" v="Fossen" />
		<tag k="natural" v="waterfall" />
		<tag k="ssr:stedsnr" v="446215" />
	</node>
	<node id="-493427" lat="60.7521913691" lon="5.35363049176">
		<tag k="name" v="Nordsta Tjørna" />
		<tag k="natural" v="water" />
		<tag k="ssr:stedsnr" v="434701" />
	</node>
	<node id="-493424" lat="60.8716309416" lon="5.6491013039">
		<tag k="name" v="Rundebotsvatnet" />
		<tag k="natural" v="water" />
		<tag k="ssr:stedsnr" v="434279" />
	</node>
	<node id="-493423" lat="60.8839713834" lon="5.35388969389">
		<tag k="name" v="Øvre Huldlogtjørn" />
		<tag k="natural" v="water" />
		<tag k="ssr:stedsnr" v="433990" />
	</node>
	<node id="-493413" lat="60.9063034274" lon="5.322572071">
		<tag k="name" v="Nedste Botnetjørna" />
		<tag k="natural" v="water" />
		<tag k="ssr:stedsnr" v="433928" />
	</node>
	<node id="-493405" lat="60.7632083322" lon="5.38050555799">
		<tag k="name" v="Kvingedalsvatnet" />
		<tag k="natural" v="water" />
		<tag k="ssr:stedsnr" v="433729" />
		<tag k="water" v="lake" />
	</node>
	<node id="-493400" lat="60.7744585291" lon="5.30689508606">
		<tag k="name" v="Håvardstjørna" />
		<tag k="natural" v="water" />
		<tag k="ssr:stedsnr" v="433715" />
	</node>
	<node id="-493396" lat="60.7949757648" lon="5.30885173622">
		<tag k="name" v="Tjørna" />
		<tag k="natural" v="water" />
		<tag k="ssr:stedsnr" v="433657" />
	</node>
	<node id="-493390" lat="60.8276799113" lon="5.28593084401">
		<tag k="name" v="Ildalstjørna" />
		<tag k="natural" v="water" />
		<tag k="ssr:stedsnr" v="433573" />
	</node>
	<node id="-493385" lat="60.8614037819" lon="5.26816310672">
		<tag k="name" v="Lågen" />
		<tag k="natural" v="water" />
		<tag k="ssr:stedsnr" v="433497" />
	</node>
	<node id="-493382" lat="60.8410388903" lon="5.46915833806">
		<tag k="name" v="Kupevatnet" />
		<tag k="natural" v="water" />
		<tag k="ssr:stedsnr" v="433390" />
	</node>
	<node id="-493379" lat="60.9162623031" lon="5.57762925357">
		<tag k="name" v="Langavatnet" />
		<tag k="natural" v="water" />
		<tag k="ssr:stedsnr" v="433344" />
	</node>
	<node id="-493378" lat="60.9125150107" lon="5.55738048434">
		<tag k="name" v="Hestefjellvatnet" />
		<tag k="natural" v="water" />
		<tag k="ssr:stedsnr" v="433343" />
	</node>
	<node id="-493376" lat="60.9686111151" lon="5.64366945138">
		<tag k="name" v="Store Fjellvatnet" />
		<tag k="natural" v="water" />
		<tag k="ssr:stedsnr" v="433306" />
	</node>
	<node id="-493370" lat="60.7335561436" lon="5.45452458902">
		<tag k="name" v="Tverrdalsvatnet" />
		<tag k="natural" v="water" />
		<tag k="ssr:stedsnr" v="431663" />
	</node>
	<node id="-493365" lat="60.8411805596" lon="5.60409445314">
		<tag k="name" v="Storevassøyna" />
		<tag k="place" v="island" />
		<tag k="ssr:stedsnr" v="263867" />
	</node>
	<node id="-493363" lat="60.9193250001" lon="5.64815832827">
		<tag k="name" v="Brydalsvika" />
		<tag k="natural" v="bay" />
		<tag k="ssr:stedsnr" v="263863" />
	</node>
	<node id="-493350" lat="60.9055888851" lon="5.46711666479">
		<tag k="name" v="Steinløypneset" />
		<tag k="natural" v="cape" />
		<tag k="ssr:stedsnr" v="263735" />
	</node>
	<node id="-493347" lat="60.8995388897" lon="5.54357777017">
		<tag k="name" v="Litlevatnet" />
		<tag k="natural" v="water" />
		<tag k="ssr:stedsnr" v="263717" />
		<tag k="water" v="lake" />
	</node>
	<node id="-493346" lat="60.8749388851" lon="5.18083334192">
		<tag k="name" v="Storlineset" />
		<tag k="natural" v="cape" />
		<tag k="ssr:stedsnr" v="263698" />
	</node>
	<node id="-493339" lat="60.8575683155" lon="5.16991713972">
		<tag k="name" v="Erdalstjørna" />
		<tag k="natural" v="water" />
		<tag k="ssr:stedsnr" v="263658" />
	</node>
	<node id="-493336" lat="60.8529046523" lon="5.22233896244">
		<tag k="name" v="Høgebergtjørna" />
		<tag k="natural" v="water" />
		<tag k="ssr:stedsnr" v="263640" />
	</node>
	<node id="-493335" lat="60.8911465491" lon="5.28695067119">
		<tag k="name" v="Lindebotstjørna" />
		<tag k="natural" v="water" />
		<tag k="ssr:stedsnr" v="263638" />
	</node>
	<node id="-493334" lat="60.8948027816" lon="5.25183889551">
		<tag k="name" v="Inste Vaulen" />
		<tag k="place" v="island" />
		<tag k="ssr:stedsnr" v="263633" />
	</node>
	<node id="-493333" lat="60.8982329614" lon="5.45738271248">
		<tag k="name" v="Midtkviltjørna" />
		<tag k="natural" v="water" />
		<tag k="ssr:stedsnr" v="263623" />
	</node>
	<node id="-493326" lat="60.8851555549" lon="5.57126666781">
		<tag k="name" v="Litlelielva" />
		<tag k="ssr:stedsnr" v="263538" />
		<tag k="waterway" v="river" />
	</node>
	<node id="-493322" lat="60.7749743897" lon="5.4015231017">
		<tag k="name" v="Blåfjelltjørna" />
		<tag k="natural" v="water" />
		<tag k="ssr:stedsnr" v="263488" />
	</node>
	<node id="-493320" lat="60.7909694466" lon="5.37862222198">
		<tag k="name" v="Svartediket" />
		<tag k="ssr:stedsnr" v="263485" />
		<tag k="waterway" v="drain" />
	</node>
	<node id="-493305" lat="60.8199887603" lon="5.24514522455">
		<tag k="name" v="Skjelsundtjørna" />
		<tag k="natural" v="water" />
		<tag k="ssr:stedsnr" v="263384" />
	</node>
	<node id="-493304" lat="60.8117385794" lon="5.25142525016">
		<tag k="name" v="Doppetjørna" />
		<tag k="natural" v="water" />
		<tag k="ssr:stedsnr" v="263383" />
	</node>
	<node id="-493295" lat="60.741288892" lon="5.36356944312">
		<tag k="name" v="Blomtjørna" />
		<tag k="natural" v="water" />
		<tag k="ssr:stedsnr" v="263302" />
	</node>
	<node id="-493285" lat="60.8053305551" lon="5.39672499827">
		<tag k="name" v="Tveråfossen" />
		<tag k="natural" v="waterfall" />
		<tag k="ssr:stedsnr" v="263179" />
	</node>
	<node id="-493276" lat="60.8931583324" lon="5.41059167577">
		<tag k="name" v="Sollielva" />
		<tag k="ssr:stedsnr" v="251962" />
		<tag k="waterway" v="river" />
	</node>
	<node id="-493268" lat="60.7624093076" lon="5.43298439478">
		<tag k="name" v="Setretjørna" />
		<tag k="natural" v="water" />
		<tag k="ssr:stedsnr" v="251773" />
	</node>
	<node id="-493259" lat="60.8140888925" lon="5.35148611573">
		<tag k="name" v="Mølsvikelva" />
		<tag k="ssr:stedsnr" v="251648" />
		<tag k="waterway" v="river" />
	</node>
	<node id="-493253" lat="60.8322129257" lon="5.23073082192">
		<tag k="name" v="Baldersvågtjørna" />
		<tag k="natural" v="water" />
		<tag k="ssr:stedsnr" v="251581" />
	</node>
	<node id="-493250" lat="60.8542638882" lon="5.24282778562">
		<tag k="name" v="Holmen" />
		<tag k="place" v="islet" />
		<tag k="ssr:stedsnr" v="251548" />
	</node>
	<node id="-493248" lat="60.8615638928" lon="5.26384166623">
		<tag k="name" v="Hindefossen" />
		<tag k="natural" v="waterfall" />
		<tag k="ssr:stedsnr" v="251534" />
	</node>
	<node id="-493242" lat="60.8472833302" lon="5.51133888573">
		<tag k="name" v="Haugsdalselva" />
		<tag k="ssr:stedsnr" v="251426" />
		<tag k="waterway" v="river" />
	</node>
	<node id="-493239" lat="60.9048333352" lon="5.68835000353">
		<tag k="name" v="Lovatnet" />
		<tag k="natural" v="water" />
		<tag k="ssr:stedsnr" v="251372" />
	</node>
	<node id="-493235" lat="60.8708081844" lon="5.70788617562">
		<tag k="name" v="Endeløysa" />
		<tag k="natural" v="water" />
		<tag k="ssr:stedsnr" v="251352" />
	</node>
	<node id="-493232" lat="60.9422064654" lon="5.80152250196">
		<tag k="name" v="Langevatnet" />
		<tag k="natural" v="water" />
		<tag k="ssr:stedsnr" v="251305" />
	</node>
	<node id="-493231" lat="60.9496419571" lon="5.76045676399">
		<tag k="name" v="Meinsperro" />
		<tag k="natural" v="water" />
		<tag k="ssr:stedsnr" v="251303" />
	</node>
	<node id="-493227" lat="60.9357666622" lon="5.70273610879">
		<tag k="name" v="Endeløysa" />
		<tag k="natural" v="water" />
		<tag k="ssr:stedsnr" v="251273" />
	</node>
	<node id="-493226" lat="60.9317008275" lon="5.67406623469">
		<tag k="name" v="Lonevatnet" />
		<tag k="natural" v="water" />
		<tag k="ssr:stedsnr" v="251270" />
	</node>
	<node id="-493225" lat="60.7831636231" lon="5.37231664476">
		<tag k="name" v="Lometjørna" />
		<tag k="natural" v="water" />
		<tag k="ssr:stedsnr" v="250033" />
	</node>
	<node id="-493217" lat="60.9289192648" lon="5.66304419909">
		<tag k="name" v="Banetjørna" />
		<tag k="natural" v="water" />
		<tag k="ssr:stedsnr" v="203847" />
	</node>
	<node id="-493215" lat="60.9167694431" lon="5.65208055858">
		<tag k="name" v="Tangen" />
		<tag k="natural" v="cape" />
		<tag k="ssr:stedsnr" v="203841" />
	</node>
	<node id="-493209" lat="60.948958332" lon="5.71223334043">
		<tag k="name" v="Skavlebotsneset" />
		<tag k="natural" v="cape" />
		<tag k="ssr:stedsnr" v="203804" />
	</node>
	<node id="-493197" lat="60.8453611142" lon="5.22675832496">
		<tag k="name" v="Lommetjørna" />
		<tag k="natural" v="water" />
		<tag k="ssr:stedsnr" v="203630" />
	</node>
	<node id="-493186" lat="60.8408333355" lon="5.30720832811">
		<tag k="name" v="Langeneset" />
		<tag k="natural" v="cape" />
		<tag k="ssr:stedsnr" v="203502" />
	</node>
	<node id="-493164" lat="60.7485166654" lon="5.4110750081">
		<tag k="name" v="Furneset" />
		<tag k="natural" v="cape" />
		<tag k="ssr:stedsnr" v="203329" />
	</node>
	<node id="-493163" lat="60.7989361116" lon="5.44132223106">
		<tag k="name" v="Langevatnet" />
		<tag k="natural" v="water" />
		<tag k="ssr:stedsnr" v="203318" />
		<tag k="water" v="lake" />
	</node>
	<node id="-493154" lat="60.8902527773" lon="5.56018055678">
		<tag k="name" v="Bjørnestegvatnet" />
		<tag k="natural" v="water" />
		<tag k="ssr:stedsnr" v="202713" />
		<tag k="water" v="lake" />
	</node>
	<node id="-492475" lat="60.9005658454" lon="5.18436861168">
		<tag k="name" v="Støkjetjørna" />
		<tag k="natural" v="water" />
		<tag k="ssr:stedsnr" v="324644" />
	</node>
	<node id="-493141" lat="60.8062879318" lon="5.25811293508">
		<tag k="name" v="Båthaugtjørna" />
		<tag k="natural" v="water" />
		<tag k="ssr:stedsnr" v="202274" />
	</node>
	<node id="-493129" lat="60.8520173837" lon="5.43363634786">
		<tag k="name" v="Ljøsåvatnet" />
		<tag k="natural" v="water" />
		<tag k="ssr:stedsnr" v="191511" />
	</node>
	<node id="-493128" lat="60.8525637546" lon="5.26797894412">
		<tag k="name" v="Hindevatnet" />
		<tag k="natural" v="water" />
		<tag k="ssr:stedsnr" v="191505" />
	</node>
	<node id="-493118" lat="60.9044255198" lon="5.43941584912">
		<tag k="name" v="Bårdvatnet" />
		<tag k="natural" v="water" />
		<tag k="ssr:stedsnr" v="190952" />
	</node>
	<node id="-493115" lat="60.7898500035" lon="5.44907500246">
		<tag k="name" v="Langeneset" />
		<tag k="natural" v="cape" />
		<tag k="ssr:stedsnr" v="190938" />
	</node>
	<node id="-493114" lat="60.9027552115" lon="5.17746762182">
		<tag k="name" v="Vardlitjørna" />
		<tag k="natural" v="water" />
		<tag k="ssr:stedsnr" v="190930" />
	</node>
	<node id="-493113" lat="60.9338000025" lon="5.85890278238">
		<tag k="alt_name" v="Smalevatnet" />
		<tag k="fixme" v="multiple name tags, choose one and add the other to alt_name" />
		<tag k="name" v="Langavatnet;Smalavatnet" />
		<tag k="natural" v="water" />
		<tag k="ssr:stedsnr" v="190833" />
		<tag k="water" v="lake" />
	</node>
	<node id="-493112" lat="60.7665305542" lon="5.32777777363">
		<tag k="name" v="Hopsvatnet" />
		<tag k="natural" v="water" />
		<tag k="ssr:stedsnr" v="190734" />
	</node>
	<node id="-493106" lat="60.8184815932" lon="5.43186820987">
		<tag k="name" v="Raunebotsvatnet" />
		<tag k="natural" v="water" />
		<tag k="ssr:stedsnr" v="190617" />
	</node>
	<node id="-493104" lat="60.8286833356" lon="5.46128333859">
		<tag k="name" v="Gavlevatnet" />
		<tag k="natural" v="water" />
		<tag k="ssr:stedsnr" v="190599" />
	</node>
	<node id="-493091" lat="60.8499714036" lon="5.58949498865">
		<tag k="name" v="Søtjørnane" />
		<tag k="natural" v="water" />
		<tag k="ssr:stedsnr" v="190442" />
		<tag k="water" v="lake" />
	</node>
	<node id="-493088" lat="60.9205861153" lon="5.75508611757">
		<tag k="name" v="Rundevatnet" />
		<tag k="natural" v="water" />
		<tag k="ssr:stedsnr" v="190381" />
	</node>
	<node id="-493087" lat="60.9135499986" lon="5.80448889235">
		<tag k="name" v="Glufsedalsvotna" />
		<tag k="natural" v="water" />
		<tag k="ssr:stedsnr" v="190378" />
		<tag k="water" v="lake" />
	</node>
	<node id="-493085" lat="60.9271001929" lon="5.83897137103">
		<tag k="name" v="Harekupvatnet" />
		<tag k="natural" v="water" />
		<tag k="ssr:stedsnr" v="190371" />
	</node>
	<node id="-493084" lat="60.8991194466" lon="5.62015278503">
		<tag k="name" v="Hummelfossen" />
		<tag k="natural" v="waterfall" />
		<tag k="ssr:stedsnr" v="190361" />
	</node>
	<node id="-493078" lat="60.9514104869" lon="5.73984127757">
		<tag k="name" v="Røyrdalsvatnet" />
		<tag k="natural" v="water" />
		<tag k="ssr:stedsnr" v="190272" />
	</node>
	<node id="-493059" lat="60.7778733826" lon="5.35652098549">
		<tag k="name" v="Stemmetjørna" />
		<tag k="natural" v="water" />
		<tag k="ssr:stedsnr" v="142446" />
	</node>
	<node id="-493046" lat="60.7840111067" lon="5.32477777791">
		<tag k="name" v="Lonene" />
		<tag k="natural" v="water" />
		<tag k="ssr:stedsnr" v="142349" />
		<tag k="water" v="lake" />
	</node>
	<node id="-493024" lat="60.9189999985" lon="5.65973888535">
		<tag k="name" v="Mjølkeneset" />
		<tag k="natural" v="cape" />
		<tag k="ssr:stedsnr" v="141819" />
	</node>
	<node id="-493014" lat="60.9210083364" lon="5.52324999922">
		<tag k="name" v="Stuvelva" />
		<tag k="ssr:stedsnr" v="141701" />
		<tag k="waterway" v="river" />
	</node>
	<node id="-493000" lat="60.8416472208" lon="5.44572778137">
		<tag k="name" v="Glyvrebotsvatnet" />
		<tag k="natural" v="water" />
		<tag k="ssr:stedsnr" v="141506" />
		<tag k="water" v="lake" />
	</node>
	<node id="-492995" lat="60.8662500023" lon="5.27876666489">
		<tag k="name" v="Lona" />
		<tag k="natural" v="water" />
		<tag k="ssr:stedsnr" v="141420" />
	</node>
	<node id="-492994" lat="60.7460194402" lon="5.41273888645">
		<tag k="name" v="Juvika" />
		<tag k="natural" v="bay" />
		<tag k="ssr:stedsnr" v="141326" />
	</node>
	<node id="-492989" lat="60.8439250042" lon="5.3070249934">
		<tag k="name" v="Vikeneset" />
		<tag k="natural" v="cape" />
		<tag k="ssr:stedsnr" v="130968" />
	</node>
	<node id="-492976" lat="60.8140381191" lon="5.25624199157">
		<tag k="name" v="Spikartjørna" />
		<tag k="natural" v="water" />
		<tag k="ssr:stedsnr" v="130589" />
	</node>
	<node id="-492975" lat="60.8321833355" lon="5.43872777587">
		<tag k="name" v="Rørbotselva" />
		<tag k="ssr:stedsnr" v="130578" />
		<tag k="waterway" v="river" />
	</node>
	<node id="-492970" lat="60.8099878796" lon="5.50134610415">
		<tag k="name" v="Synste Langevatnet" />
		<tag k="natural" v="water" />
		<tag k="ssr:stedsnr" v="130344" />
		<tag k="water" v="lake" />
	</node>
	<node id="-492963" lat="60.8582924122" lon="5.16222362101">
		<tag k="name" v="Helleskleivtjørna" />
		<tag k="natural" v="water" />
		<tag k="ssr:stedsnr" v="130462" />
	</node>
	<node id="-492962" lat="60.8009276437" lon="5.49392509358">
		<tag k="name" v="Kupevatnet" />
		<tag k="natural" v="water" />
		<tag k="ssr:stedsnr" v="130456" />
		<tag k="water" v="lake" />
	</node>
	<node id="-492961" lat="60.7976775918" lon="5.57582523714">
		<tag k="name" v="Djupedalstjørna" />
		<tag k="natural" v="water" />
		<tag k="ssr:stedsnr" v="130441" />
	</node>
	<node id="-492950" lat="60.9045749981" lon="5.38325277656">
		<tag k="name" v="Fossdalsvatnet" />
		<tag k="natural" v="water" />
		<tag k="ssr:stedsnr" v="129961" />
		<tag k="water" v="lake" />
	</node>
	<node id="-492943" lat="60.905216496" lon="5.17820335258">
		<tag k="name" v="Fossetjørna" />
		<tag k="natural" v="water" />
		<tag k="ssr:stedsnr" v="129656" />
	</node>
	<node id="-492936" lat="60.9614333313" lon="5.62601389097">
		<tag k="name" v="Hestevatnet" />
		<tag k="natural" v="water" />
		<tag k="ssr:stedsnr" v="129295" />
	</node>
	<node id="-492935" lat="60.8363027806" lon="5.38661667413">
		<tag k="name" v="Paddemyrvatnet" />
		<tag k="natural" v="water" />
		<tag k="ssr:stedsnr" v="129568" />
		<tag k="water" v="lake" />
	</node>
	<node id="-492933" lat="60.8474098993" lon="5.56564336778">
		<tag k="name" v="Langetjørna" />
		<tag k="natural" v="water" />
		<tag k="ssr:stedsnr" v="129419" />
	</node>
	<node id="-492927" lat="60.718088886" lon="5.41873332979">
		<tag k="name" v="Strandaelva" />
		<tag k="ssr:stedsnr" v="127176" />
		<tag k="waterway" v="river" />
	</node>
	<node id="-492926" lat="60.7264871423" lon="5.41682229906">
		<tag k="name" v="Breiskartjørna" />
		<tag k="natural" v="water" />
		<tag k="ssr:stedsnr" v="127174" />
	</node>
	<node id="-492925" lat="60.72473056" lon="5.4382638888">
		<tag k="name" v="Stemmetjørna" />
		<tag k="natural" v="water" />
		<tag k="ssr:stedsnr" v="127172" />
	</node>
	<node id="-492914" lat="60.7956885062" lon="5.35989335078">
		<tag k="name" v="Søre Svartebotstjørna" />
		<tag k="natural" v="water" />
		<tag k="ssr:stedsnr" v="82450" />
	</node>
	<node id="-492888" lat="60.8909027799" lon="5.42281388935">
		<tag k="name" v="Lona" />
		<tag k="natural" v="water" />
		<tag k="ssr:stedsnr" v="81622" />
		<tag k="water" v="lake" />
	</node>
	<node id="-492882" lat="60.8781499967" lon="5.22314722326">
		<tag k="name" v="Frøysetholmen" />
		<tag k="place" v="islet" />
		<tag k="ssr:stedsnr" v="81700" />
	</node>
	<node id="-492870" lat="60.8834322209" lon="5.33330460549">
		<tag k="name" v="Hommeltjørna" />
		<tag k="natural" v="water" />
		<tag k="ssr:stedsnr" v="81419" />
	</node>
	<node id="-492868" lat="60.7511611086" lon="5.41976945213">
		<tag k="name" v="Alvika" />
		<tag k="natural" v="bay" />
		<tag k="ssr:stedsnr" v="81334" />
	</node>
	<node id="-492865" lat="60.7497250034" lon="5.40279721912">
		<tag k="name" v="Vasslineset" />
		<tag k="natural" v="cape" />
		<tag k="ssr:stedsnr" v="81323" />
	</node>
	<node id="-492864" lat="60.7824027749" lon="5.46098610818">
		<tag k="name" v="Klokkarelva" />
		<tag k="ssr:stedsnr" v="81319" />
		<tag k="waterway" v="river" />
	</node>
	<node id="-492861" lat="60.8059367706" lon="5.2547821483">
		<tag k="name" v="Slaketjørna" />
		<tag k="natural" v="water" />
		<tag k="ssr:stedsnr" v="81293" />
	</node>
	<node id="-492859" lat="60.8068277742" lon="5.38578333306">
		<tag k="name" v="Mjåneset" />
		<tag k="natural" v="cape" />
		<tag k="ssr:stedsnr" v="81175" />
	</node>
	<node id="-492857" lat="60.8048916624" lon="5.37043055239">
		<tag k="name" v="Fossetjørna" />
		<tag k="natural" v="water" />
		<tag k="ssr:stedsnr" v="81167" />
	</node>
	<node id="-492850" lat="60.8821083323" lon="5.22523332463">
		<tag k="name" v="Kjeneset" />
		<tag k="natural" v="cape" />
		<tag k="ssr:stedsnr" v="69960" />
	</node>
	<node id="-492846" lat="60.9072948966" lon="5.33175161079">
		<tag k="name" v="Øvste Botnetjørna" />
		<tag k="natural" v="water" />
		<tag k="ssr:stedsnr" v="69933" />
	</node>
	<node id="-492838" lat="60.8033190938" lon="5.25419549574">
		<tag k="name" v="Øvre Stemma" />
		<tag k="natural" v="water" />
		<tag k="ssr:stedsnr" v="69687" />
	</node>
	<node id="-492837" lat="60.8030694417" lon="5.36523056243">
		<tag k="name" v="Lykelsvatnet" />
		<tag k="natural" v="water" />
		<tag k="ssr:stedsnr" v="69679" />
		<tag k="water" v="lake" />
	</node>
	<node id="-492829" lat="60.8457274696" lon="5.42163109021">
		<tag k="name" v="Fagrebotstjørna" />
		<tag k="natural" v="water" />
		<tag k="ssr:stedsnr" v="69608" />
	</node>
	<node id="-492822" lat="60.8470406113" lon="5.68802495351">
		<tag k="name" v="Nedre Vemundsvatnet" />
		<tag k="natural" v="water" />
		<tag k="ssr:stedsnr" v="69437" />
		<tag k="water" v="lake" />
	</node>
	<node id="-492821" lat="60.8363166687" lon="5.55605833497">
		<tag k="name" v="Sagelva" />
		<tag k="ssr:stedsnr" v="69423" />
		<tag k="waterway" v="stream" />
	</node>
	<node id="-492819" lat="60.915416665" lon="5.64507778062">
		<tag k="name" v="Fossevatnet" />
		<tag k="natural" v="water" />
		<tag k="ssr:stedsnr" v="69386" />
		<tag k="water" v="lake" />
	</node>
	<node id="-492818" lat="60.9021250015" lon="5.6490583416">
		<tag k="name" v="Hummelvatnet" />
		<tag k="natural" v="water" />
		<tag k="ssr:stedsnr" v="69367" />
		<tag k="water" v="lake" />
	</node>
	<node id="-492804" lat="60.7261277772" lon="5.45645278452">
		<tag k="name" v="Langevatnet" />
		<tag k="natural" v="water" />
		<tag k="ssr:stedsnr" v="67185" />
		<tag k="water" v="lake" />
	</node>
	<node id="-492801" lat="60.7462207899" lon="5.44475757646">
		<tag k="name" v="Nutevatnet" />
		<tag k="natural" v="water" />
		<tag k="ssr:stedsnr" v="66601" />
	</node>
	<node id="-492784" lat="60.8908027756" lon="5.61052222662">
		<tag k="name" v="Svartetjørna" />
		<tag k="natural" v="water" />
		<tag k="ssr:stedsnr" v="21810" />
		<tag k="water" v="lake" />
	</node>
	<node id="-492781" lat="60.9431916637" lon="5.71410278232">
		<tag k="name" v="Skavlebotsvatnet" />
		<tag k="natural" v="water" />
		<tag k="ssr:stedsnr" v="21798" />
		<tag k="water" v="lake" />
	</node>
	<node id="-492764" lat="60.8849051018" lon="5.56331925031">
		<tag k="name" v="Kvitskartjørna" />
		<tag k="natural" v="water" />
		<tag k="ssr:stedsnr" v="21562" />
	</node>
	<node id="-492758" lat="60.7881192872" lon="5.38048981605">
		<tag k="name" v="Kroktjørna" />
		<tag k="natural" v="water" />
		<tag k="ssr:stedsnr" v="21485" />
	</node>
	<node id="-492754" lat="60.8890694473" lon="5.38319444136">
		<tag k="name" v="Fossdalselva" />
		<tag k="ssr:stedsnr" v="21441" />
		<tag k="waterway" v="river" />
	</node>
	<node id="-492730" lat="60.8366333312" lon="5.51129999939">
		<tag k="name" v="Storholmen" />
		<tag k="place" v="islet" />
		<tag k="ssr:stedsnr" v="20606" />
	</node>
	<node id="-492729" lat="60.888094443" lon="5.29118334111">
		<tag k="name" v="Storneset" />
		<tag k="natural" v="cape" />
		<tag k="ssr:stedsnr" v="20594" />
	</node>
	<node id="-492709" lat="60.9130393224" lon="5.30704271171">
		<tag k="name" v="Tjørna" />
		<tag k="natural" v="water" />
		<tag k="ssr:stedsnr" v="9868" />
	</node>
	<node id="-492707" lat="60.8118027754" lon="5.38143055579">
		<tag k="name" v="Litlevatnet" />
		<tag k="natural" v="water" />
		<tag k="ssr:stedsnr" v="9628" />
		<tag k="water" v="lake" />
	</node>
	<node id="-492703" lat="60.8473833316" lon="5.23661943749">
		<tag k="name" v="Fitjevatnet" />
		<tag k="natural" v="water" />
		<tag k="ssr:stedsnr" v="9535" />
		<tag k="water" v="lake" />
	</node>
	<node id="-492700" lat="60.8171833337" lon="5.49694999095">
		<tag k="name" v="Heimste Langevatnet" />
		<tag k="natural" v="water" />
		<tag k="ssr:stedsnr" v="9361" />
		<tag k="water" v="lake" />
	</node>
	<node id="-492696" lat="60.9417999958" lon="5.63348889133">
		<tag k="name" v="Krokvatnet" />
		<tag k="natural" v="water" />
		<tag k="ssr:stedsnr" v="9242" />
	</node>
	<node id="-492694" lat="60.8799888896" lon="5.21838611128">
		<tag k="name" v="Sleirsvatnet" />
		<tag k="natural" v="water" />
		<tag k="ssr:stedsnr" v="8998" />
		<tag k="water" v="lake" />
	</node>
	<node id="-492692" lat="60.8718793314" lon="5.29554083451">
		<tag k="name" v="Setretjørna" />
		<tag k="natural" v="water" />
		<tag k="ssr:stedsnr" v="8981" />
	</node>
	<node id="-492691" lat="60.8683500031" lon="5.18854165836">
		<tag k="name" v="Buvatnet" />
		<tag k="natural" v="water" />
		<tag k="ssr:stedsnr" v="8973" />
	</node>
	<node id="-492681" lat="60.8957111143" lon="5.25583055369">
		<tag k="name" v="Markhusdalsvatnet" />
		<tag k="natural" v="water" />
		<tag k="ssr:stedsnr" v="8913" />
		<tag k="water" v="lake" />
	</node>
	<node id="-492678" lat="60.7881250005" lon="5.44505000679">
		<tag k="name" v="Meisdalsvatnet" />
		<tag k="natural" v="water" />
		<tag k="ssr:stedsnr" v="8744" />
		<tag k="water" v="lake" />
	</node>
	<node id="-492676" lat="60.7982066991" lon="5.44877927723">
		<tag k="name" v="Lometjørna" />
		<tag k="natural" v="water" />
		<tag k="ssr:stedsnr" v="8728" />
	</node>
	<node id="-492670" lat="60.787228765" lon="5.31923773384">
		<tag k="name" v="Stemmevatnet" />
		<tag k="natural" v="water" />
		<tag k="ssr:stedsnr" v="8686" />
	</node>
	<node id="-492394" lat="60.8609596839" lon="5.32282366064">
		<tag k="name" v="Stemmetjørna" />
		<tag k="natural" v="water" />
		<tag k="ssr:stedsnr" v="312528" />
	</node>
	<node id="-492663" lat="60.8433861155" lon="5.31126666524">
		<tag k="name" v="Juvika" />
		<tag k="natural" v="bay" />
		<tag k="ssr:stedsnr" v="8588" />
	</node>
	<node id="-492658" lat="60.8597583349" lon="5.24397499741">
		<tag k="name" v="Sagevatnet" />
		<tag k="natural" v="water" />
		<tag k="ssr:stedsnr" v="8536" />
	</node>
	<node id="-492656" lat="60.8515413968" lon="5.60812428117">
		<tag k="name" v="Langevatnet" />
		<tag k="natural" v="water" />
		<tag k="ssr:stedsnr" v="8447" />
	</node>
	<node id="-492650" lat="60.9104244202" lon="5.56223354953">
		<tag k="name" v="Eidavatnet" />
		<tag k="natural" v="water" />
		<tag k="ssr:stedsnr" v="8379" />
	</node>
	<node id="-492649" lat="60.9776277767" lon="5.78346388663">
		<tag k="name" v="Svafjellvatna" />
		<tag k="natural" v="water" />
		<tag k="ssr:stedsnr" v="8332" />
		<tag k="water" v="lake" />
	</node>
	<node id="-492647" lat="60.9242253075" lon="5.73303090883">
		<tag k="name" v="Fagerdalsvatnet" />
		<tag k="natural" v="water" />
		<tag k="ssr:stedsnr" v="8298" />
	</node>
	<node id="-492642" lat="60.7537903292" lon="5.46966476174">
		<tag k="name" v="Ytre Klefjellvatnet" />
		<tag k="natural" v="water" />
		<tag k="ssr:stedsnr" v="991074" />
		<tag k="water" v="lake" />
	</node>
	<node id="-492641" lat="60.7533949434" lon="5.47779765457">
		<tag k="name" v="Klefjellvatna" />
		<tag k="natural" v="water" />
		<tag k="ssr:stedsnr" v="736055" />
		<tag k="water" v="lake" />
	</node>
	<node id="-492640" lat="60.8527249882" lon="5.70521227717">
		<tag k="name" v="Øvste Godbotsfossen" />
		<tag k="natural" v="waterfall" />
		<tag k="ssr:stedsnr" v="651034" />
	</node>
	<node id="-492639" lat="60.8515627968" lon="5.69981350417">
		<tag k="name" v="Nedste Godbotsfossen" />
		<tag k="natural" v="waterfall" />
		<tag k="ssr:stedsnr" v="773034" />
	</node>
	<node id="-492638" lat="60.9784777767" lon="5.75572778382">
		<tag k="name" v="Spongavatnet" />
		<tag k="natural" v="water" />
		<tag k="ssr:stedsnr" v="797297" />
		<tag k="water" v="lake" />
	</node>
	<node id="-492637" lat="60.8325611756" lon="5.3099892007">
		<tag k="name" v="Mollandseidet" />
		<tag k="natural" v="strait" />
		<tag k="ssr:stedsnr" v="1072202" />
	</node>
	<node id="-492634" lat="60.8128756926" lon="5.26191353901">
		<tag k="name" v="Stemmetjørn" />
		<tag k="natural" v="water" />
		<tag k="ssr:stedsnr" v="1071945" />
	</node>
	<node id="-492621" lat="60.797716173" lon="5.36097979249">
		<tag k="name" v="Nordre Svartebotstjørna" />
		<tag k="natural" v="water" />
		<tag k="ssr:stedsnr" v="385456" />
	</node>
	<node id="-492615" lat="60.9153749987" lon="5.45853333072">
		<tag k="name" v="Svaelva" />
		<tag k="ssr:stedsnr" v="385407" />
		<tag k="waterway" v="river" />
	</node>
	<node id="-492613" lat="60.7674916704" lon="5.32550277828">
		<tag k="name" v="Vika" />
		<tag k="natural" v="bay" />
		<tag k="ssr:stedsnr" v="385358" />
	</node>
	<node id="-492612" lat="60.7670444419" lon="5.33076110733">
		<tag k="name" v="Lyngneset" />
		<tag k="natural" v="cape" />
		<tag k="ssr:stedsnr" v="385350" />
	</node>
	<node id="-492601" lat="60.8236100603" lon="5.60268406313">
		<tag k="name" v="Botnestigtjørna" />
		<tag k="natural" v="water" />
		<tag k="ssr:stedsnr" v="384850" />
	</node>
	<node id="-492594" lat="60.8968361128" lon="5.55762222252">
		<tag k="name" v="Litlevatnet" />
		<tag k="natural" v="water" />
		<tag k="ssr:stedsnr" v="384699" />
		<tag k="water" v="lake" />
	</node>
	<node id="-492589" lat="60.8501776112" lon="5.18134647766">
		<tag k="name" v="Hatleviktjørna" />
		<tag k="natural" v="water" />
		<tag k="ssr:stedsnr" v="384630" />
	</node>
	<node id="-492587" lat="60.887011112" lon="5.23816665866">
		<tag k="name" v="Kinnefossen" />
		<tag k="natural" v="waterfall" />
		<tag k="ssr:stedsnr" v="384614" />
	</node>
	<node id="-494632" lat="60.714494446" lon="5.46920555704">
		<tag k="name" v="Føykjeelva" />
		<tag k="ssr:stedsnr" v="958441" />
		<tag k="waterway" v="river" />
	</node>
	<node id="-492580" lat="60.8343333334" lon="5.51041945033">
		<tag k="name" v="Fjellelva" />
		<tag k="ssr:stedsnr" v="384556" />
		<tag k="waterway" v="river" />
	</node>
	<node id="-492379" lat="60.948244448" lon="5.68799166631">
		<tag k="name" v="Kleivhølen" />
		<tag k="place" v="locality" />
		<tag k="ssr:stedsnr" v="312257" />
	</node>
	<node id="-494623" lat="60.9193527797" lon="5.65114444433">
		<tag k="name" v="Baneneset" />
		<tag k="natural" v="cape" />
		<tag k="ssr:stedsnr" v="931877" />
	</node>
	<node id="-494622" lat="60.9121638913" lon="5.64203888924">
		<tag k="name" v="Ureneset" />
		<tag k="natural" v="cape" />
		<tag k="ssr:stedsnr" v="931860" />
	</node>
	<node id="-494621" lat="60.9142777774" lon="5.64791389327">
		<tag k="name" v="Myrbærtona" />
		<tag k="natural" v="cape" />
		<tag k="ssr:stedsnr" v="931856" />
	</node>
	<node id="-492569" lat="60.8377980282" lon="5.27326298743">
		<tag k="name" v="Fjelltjørna" />
		<tag k="natural" v="water" />
		<tag k="ssr:stedsnr" v="384485" />
	</node>
	<node id="-494614" lat="60.8337916692" lon="5.16792777225">
		<tag k="name" v="Skottjørna" />
		<tag k="natural" v="water" />
		<tag k="ssr:stedsnr" v="931739" />
	</node>
	<node id="-492377" lat="60.9267723771" lon="5.70686599949">
		<tag k="name" v="Nordrevotna" />
		<tag k="natural" v="water" />
		<tag k="ssr:stedsnr" v="312248" />
		<tag k="water" v="lake" />
	</node>
	<node id="-494612" lat="60.899404832" lon="5.52994714254">
		<tag k="name" v="Kvernhuselva" />
		<tag k="ssr:stedsnr" v="931726" />
		<tag k="waterway" v="river" />
	</node>
	<node id="-494605" lat="60.8181565199" lon="5.17273908836">
		<tag k="name" v="Igletjørna" />
		<tag k="natural" v="water" />
		<tag k="ssr:stedsnr" v="931677" />
	</node>
	<node id="-492555" lat="60.8446011084" lon="5.26891417157">
		<tag k="name" v="Kolldalstjørna" />
		<tag k="natural" v="water" />
		<tag k="ssr:stedsnr" v="373564" />
	</node>
	<node id="-492554" lat="60.7974525239" lon="5.48443020223">
		<tag k="name" v="Austrevatnet" />
		<tag k="natural" v="water" />
		<tag k="ssr:stedsnr" v="373491" />
	</node>
	<node id="-494599" lat="60.8898916666" lon="5.29782499296">
		<tag k="name" v="Vikeneset" />
		<tag k="natural" v="cape" />
		<tag k="ssr:stedsnr" v="931634" />
	</node>
	<node id="-492550" lat="60.8874861133" lon="5.29984999441">
		<tag k="name" v="Kvamsdalsvatnet" />
		<tag k="natural" v="water" />
		<tag k="ssr:stedsnr" v="372996" />
		<tag k="water" v="lake" />
	</node>
	<node id="-494597" lat="60.8941472259" lon="5.25622222947">
		<tag k="name" v="Munkholmen" />
		<tag k="place" v="islet" />
		<tag k="ssr:stedsnr" v="931631" />
	</node>
	<node id="-492548" lat="60.8671336279" lon="5.2586019519">
		<tag k="name" v="Låveidvatnet" />
		<tag k="natural" v="water" />
		<tag k="ssr:stedsnr" v="372973" />
	</node>
	<node id="-494595" lat="60.9255500087" lon="5.29208346419">
		<tag k="name" v="Storetjørna" />
		<tag k="natural" v="water" />
		<tag k="ssr:stedsnr" v="931621" />
	</node>
	<node id="-494592" lat="60.838138886" lon="5.50862777573">
		<tag k="name" v="Vadgardhølen" />
		<tag k="place" v="locality" />
		<tag k="ssr:stedsnr" v="931586" />
	</node>
	<node id="-492540" lat="60.9217027783" lon="5.42691944148">
		<tag k="name" v="Aurtjørna" />
		<tag k="natural" v="water" />
		<tag k="ssr:stedsnr" v="372945" />
	</node>
	<node id="-492539" lat="60.922370874" lon="5.27332249993">
		<tag k="name" v="Svartetjørna" />
		<tag k="natural" v="water" />
		<tag k="ssr:stedsnr" v="372914" />
	</node>
	<node id="-494579" lat="60.7639999987" lon="5.38405278625">
		<tag k="name" v="Furneset" />
		<tag k="natural" v="cape" />
		<tag k="ssr:stedsnr" v="931483" />
	</node>
	<node id="-494578" lat="60.8851777786" lon="5.40974167289">
		<tag k="name" v="Sjohølen" />
		<tag k="place" v="locality" />
		<tag k="ssr:stedsnr" v="931460" />
	</node>
	<node id="-494577" lat="60.8688611134" lon="5.43839722972">
		<tag k="name" v="Stranda" />
		<tag k="natural" v="beach" />
		<tag k="ssr:stedsnr" v="931459" />
	</node>
	<node id="-494576" lat="60.8456459092" lon="5.38497800401">
		<tag k="name" v="Lauvgjeltjørna" />
		<tag k="natural" v="water" />
		<tag k="ssr:stedsnr" v="931447" />
	</node>
	<node id="-492520" lat="60.8273972204" lon="5.39670277915">
		<tag k="name" v="Kringlevatnet" />
		<tag k="natural" v="water" />
		<tag k="ssr:stedsnr" v="372609" />
		<tag k="water" v="lake" />
	</node>
	<node id="-492519" lat="60.8288547144" lon="5.30163567336">
		<tag k="name" v="Litletjørna" />
		<tag k="natural" v="water" />
		<tag k="ssr:stedsnr" v="372599" />
	</node>
	<node id="-494566" lat="60.8432861099" lon="5.31117778509">
		<tag k="name" v="Juvika" />
		<tag k="natural" v="bay" />
		<tag k="ssr:stedsnr" v="931400" />
	</node>
	<node id="-492515" lat="60.8372362657" lon="5.24090626712">
		<tag k="name" v="Storstemvatnet" />
		<tag k="natural" v="water" />
		<tag k="ssr:stedsnr" v="372571" />
	</node>
	<node id="-492513" lat="60.842671781" lon="5.30306671374">
		<tag k="name" v="Mollandsvatnet" />
		<tag k="natural" v="water" />
		<tag k="ssr:stedsnr" v="372560" />
		<tag k="water" v="lake" />
	</node>
	<node id="-492511" lat="60.8623305589" lon="5.27784999828">
		<tag k="name" v="Ostavatnet" />
		<tag k="natural" v="water" />
		<tag k="ssr:stedsnr" v="372529" />
		<tag k="water" v="lake" />
	</node>
	<node id="-494556" lat="60.7920558708" lon="5.45259967208">
		<tag k="name" v="Grasvika" />
		<tag k="natural" v="bay" />
		<tag k="ssr:stedsnr" v="931312" />
	</node>
	<node id="-492366" lat="60.8501421004" lon="5.67076131498">
		<tag k="name" v="Godbotsvatnet" />
		<tag k="natural" v="water" />
		<tag k="ssr:stedsnr" v="311476" />
		<tag k="water" v="lake" />
	</node>
	<node id="-494546" lat="60.7537861128" lon="5.32542777402">
		<tag k="name" v="Hopselva" />
		<tag k="ssr:stedsnr" v="931194" />
		<tag k="waterway" v="river" />
	</node>
	<node id="-494543" lat="60.8009861153" lon="5.38772222495">
		<tag k="name" v="Kalneset" />
		<tag k="natural" v="cape" />
		<tag k="ssr:stedsnr" v="931183" />
	</node>
	<node id="-494538" lat="60.8755959554" lon="5.28460812397">
		<tag k="name" v="Svartedalstjørna" />
		<tag k="natural" v="water" />
		<tag k="ssr:stedsnr" v="919963" />
	</node>
	<node id="-492480" lat="60.8819555587" lon="5.19896389587">
		<tag k="name" v="Hesthovdtjørna" />
		<tag k="natural" v="water" />
		<tag k="ssr:stedsnr" v="324683" />
	</node>
	<node id="-494525" lat="60.8306166657" lon="5.55754999917">
		<tag k="name" v="Fosshølen" />
		<tag k="place" v="locality" />
		<tag k="ssr:stedsnr" v="919398" />
	</node>
	<node id="-494524" lat="60.8260638874" lon="5.57561666429">
		<tag k="name" v="Haukelandsvatnet" />
		<tag k="natural" v="water" />
		<tag k="ssr:stedsnr" v="919395" />
		<tag k="water" v="lake" />
	</node>
	<node id="-494523" lat="60.8276722191" lon="5.52718611616">
		<tag k="name" v="Daleelva" />
		<tag k="ssr:stedsnr" v="919394" />
		<tag k="waterway" v="stream" />
	</node>
	<node id="-494519" lat="60.9064916654" lon="5.70539167191">
		<tag k="name" v="Skredlivatnet" />
		<tag k="natural" v="water" />
		<tag k="ssr:stedsnr" v="919336" />
	</node>
	<node id="-494517" lat="60.8940666698" lon="5.52278055392">
		<tag k="name" v="Haugsværvatnet" />
		<tag k="natural" v="water" />
		<tag k="ssr:stedsnr" v="919332" />
		<tag k="water" v="lake" />
	</node>
	<node id="-494514" lat="60.9379746053" lon="5.60737108274">
		<tag k="name" v="Øyrevatnet" />
		<tag k="natural" v="water" />
		<tag k="ssr:stedsnr" v="919245" />
	</node>
	<node id="-494513" lat="60.9347138921" lon="5.7808527814">
		<tag k="name" v="Klantefjellsvatna" />
		<tag k="natural" v="water" />
		<tag k="ssr:stedsnr" v="919246" />
		<tag k="water" v="lake" />
	</node>
	<node id="-494512" lat="60.9064111153" lon="5.46196110681">
		<tag k="name" v="Kalhovdavatnet" />
		<tag k="natural" v="water" />
		<tag k="ssr:stedsnr" v="918969" />
		<tag k="water" v="lake" />
	</node>
	<node id="-492462" lat="60.8808674413" lon="5.54848300283">
		<tag k="name" v="Litlefjelltjørna" />
		<tag k="natural" v="water" />
		<tag k="ssr:stedsnr" v="324529" />
	</node>
	<node id="-494506" lat="60.787756102" lon="5.37588369334">
		<tag k="name" v="Båthaugtjørna" />
		<tag k="natural" v="water" />
		<tag k="ssr:stedsnr" v="918733" />
	</node>
	<node id="-494503" lat="60.8000310466" lon="5.25161853334">
		<tag k="name" v="Nedre Stemma" />
		<tag k="natural" v="water" />
		<tag k="ssr:stedsnr" v="918706" />
	</node>
	<node id="-494498" lat="60.8532194422" lon="5.62666388159">
		<tag k="name" v="Gagnløysa" />
		<tag k="ssr:stedsnr" v="918486" />
		<tag k="waterway" v="river" />
	</node>
	<node id="-494497" lat="60.840422224" lon="5.59844166663">
		<tag k="name" v="Storevatnet" />
		<tag k="natural" v="water" />
		<tag k="ssr:stedsnr" v="918473" />
		<tag k="water" v="lake" />
	</node>
	<node id="-494496" lat="60.9636888886" lon="5.74241111841">
		<tag k="name" v="Bukkedalsvatnet" />
		<tag k="natural" v="water" />
		<tag k="ssr:stedsnr" v="918334" />
		<tag k="water" v="lake" />
	</node>
	<node id="-492447" lat="60.8758861114" lon="5.31649445251">
		<tag k="name" v="Geitevatnet" />
		<tag k="natural" v="water" />
		<tag k="ssr:stedsnr" v="324398" />
		<tag k="water" v="lake" />
	</node>
	<node id="-492446" lat="60.8447166704" lon="5.24651110939">
		<tag k="name" v="Gulbergvika" />
		<tag k="natural" v="bay" />
		<tag k="ssr:stedsnr" v="324392" />
	</node>
	<node id="-494487" lat="60.9150027796" lon="5.6408583358">
		<tag k="name" v="Vikneset" />
		<tag k="natural" v="cape" />
		<tag k="ssr:stedsnr" v="870854" />
	</node>
	<node id="-494486" lat="60.9133111958" lon="5.61750456546">
		<tag k="name" v="Hyttemarktjørna" />
		<tag k="natural" v="water" />
		<tag k="ssr:stedsnr" v="870850" />
	</node>
	<node id="-492437" lat="60.7955972255" lon="5.31832499243">
		<tag k="name" v="Sandneselva" />
		<tag k="ssr:stedsnr" v="324349" />
		<tag k="waterway" v="river" />
	</node>
	<node id="-494476" lat="60.876691663" lon="5.2152333399">
		<tag k="name" v="Rophogneset" />
		<tag k="natural" v="cape" />
		<tag k="ssr:stedsnr" v="870685" />
	</node>
	<node id="-492416" lat="60.8635253854" lon="5.14020360149">
		<tag k="name" v="Svelivatnet" />
		<tag k="natural" v="water" />
		<tag k="ssr:stedsnr" v="312985" />
	</node>
	<node id="-492412" lat="60.9254586053" lon="5.444222489">
		<tag k="name" v="Kupetjørna" />
		<tag k="natural" v="water" />
		<tag k="ssr:stedsnr" v="312882" />
	</node>
	<node id="-494456" lat="60.8810694482" lon="5.23671666261">
		<tag k="name" v="Frøyseteidet" />
		<tag k="natural" v="strait" />
		<tag k="ssr:stedsnr" v="870409" />
	</node>
	<node id="-494449" lat="60.7784882799" lon="5.30920459947">
		<tag k="name" v="Raudtjørna" />
		<tag k="natural" v="water" />
		<tag k="ssr:stedsnr" v="870367" />
	</node>
	<node id="-492400" lat="60.8347555599" lon="5.43063056069">
		<tag k="name" v="Svaelva" />
		<tag k="ssr:stedsnr" v="312579" />
		<tag k="waterway" v="river" />
	</node>
	<node id="-492399" lat="60.8436250003" lon="5.44990277543">
		<tag k="name" v="Glyvrevatnet" />
		<tag k="natural" v="water" />
		<tag k="ssr:stedsnr" v="312577" />
		<tag k="water" v="lake" />
	</node>
	<node id="-492397" lat="60.86508611" lon="5.42319444244">
		<tag k="name" v="Ljøsåna" />
		<tag k="ssr:stedsnr" v="312548" />
		<tag k="waterway" v="stream" />
	</node>
	<node id="-492396" lat="60.8553616676" lon="5.39647917252">
		<tag k="name" v="Gaddetjørna" />
		<tag k="natural" v="water" />
		<tag k="ssr:stedsnr" v="312546" />
	</node>
	<node id="-494442" lat="60.8021027381" lon="5.34283305504">
		<tag k="name" v="Stortjørna" />
		<tag k="natural" v="water" />
		<tag k="ssr:stedsnr" v="870281" />
	</node>
	<node id="-492391" lat="60.7896379724" lon="5.56103057263">
		<tag k="name" v="Fagerskarvatnet" />
		<tag k="natural" v="water" />
		<tag k="ssr:stedsnr" v="312460" />
	</node>
	<node id="-494436" lat="60.8782180343" lon="5.19156728655">
		<tag k="name" v="Tangedalsvatnet" />
		<tag k="natural" v="water" />
		<tag k="ssr:stedsnr" v="858993" />
	</node>
	<node id="-494435" lat="60.8836671722" lon="5.3596483715">
		<tag k="name" v="Nedre Huldlogtjørn" />
		<tag k="natural" v="water" />
		<tag k="ssr:stedsnr" v="858986" />
	</node>
	<node id="-492383" lat="60.8983065534" lon="5.81396056745">
		<tag k="name" v="Hjortetjørna" />
		<tag k="natural" v="water" />
		<tag k="ssr:stedsnr" v="312341" />
		<tag k="water" v="lake" />
	</node>
	<node id="-492380" lat="60.8781255344" lon="5.68720574604">
		<tag k="name" v="Øvste Kvitevatnet" />
		<tag k="natural" v="water" />
		<tag k="ssr:stedsnr" v="312315" />
	</node>
	<node id="-494427" lat="60.9239166634" lon="5.30370832627">
		<tag k="name" v="Dalelva" />
		<tag k="ssr:stedsnr" v="858888" />
		<tag k="waterway" v="stream" />
	</node>
	<node id="-492378" lat="60.942813885" lon="5.60362500665">
		<tag k="name" v="Nordgjelsvatnet" />
		<tag k="natural" v="water" />
		<tag k="ssr:stedsnr" v="312254" />
	</node>
	<node id="-494425" lat="60.7662685168" lon="5.43257037581">
		<tag k="name" v="Rotthaugtjørna" />
		<tag k="natural" v="water" />
		<tag k="ssr:stedsnr" v="858735" />
	</node>
	<node id="-494424" lat="60.7677027758" lon="5.42085277643">
		<tag k="name" v="Blådalsvatnet" />
		<tag k="natural" v="water" />
		<tag k="ssr:stedsnr" v="858733" />
		<tag k="water" v="lake" />
	</node>
	<node id="-494423" lat="60.7761027785" lon="5.31060277722">
		<tag k="name" v="Totjørna" />
		<tag k="natural" v="water" />
		<tag k="ssr:stedsnr" v="858714" />
	</node>
	<node id="-492372" lat="60.906319445" lon="5.35067500407">
		<tag k="name" v="Grønefjellsvatnet" />
		<tag k="natural" v="water" />
		<tag k="ssr:stedsnr" v="311945" />
		<tag k="water" v="lake" />
	</node>
	<node id="-494416" lat="60.8044888894" lon="5.38542499751">
		<tag k="name" v="Storevatnet" />
		<tag k="natural" v="water" />
		<tag k="ssr:stedsnr" v="858668" />
		<tag k="water" v="lake" />
	</node>
	<node id="-494414" lat="60.8121889982" lon="5.26396280814">
		<tag k="name" v="Stemma" />
		<tag k="natural" v="water" />
		<tag k="ssr:stedsnr" v="858639" />
	</node>
	<node id="-492364" lat="60.8327937226" lon="5.4739176065">
		<tag k="name" v="Trolldalsvatnet" />
		<tag k="natural" v="water" />
		<tag k="ssr:stedsnr" v="311457" />
	</node>
	<node id="-494406" lat="60.8453500008" lon="5.24694999727">
		<tag k="name" v="Gulbergvika" />
		<tag k="natural" v="bay" />
		<tag k="ssr:stedsnr" v="858573" />
	</node>
	<node id="-494399" lat="60.8666710887" lon="5.662875541">
		<tag k="name" v="Degavatnet" />
		<tag k="natural" v="water" />
		<tag k="ssr:stedsnr" v="858457" />
	</node>
	<node id="-494395" lat="60.8508417493" lon="5.69622834137">
		<tag k="name" v="Øvre Vemundsvatnet" />
		<tag k="natural" v="water" />
		<tag k="ssr:stedsnr" v="858423" />
		<tag k="water" v="lake" />
	</node>
	<node id="-494392" lat="60.8983694412" lon="5.67546111482">
		<tag k="name" v="Krokvatnet" />
		<tag k="natural" v="water" />
		<tag k="ssr:stedsnr" v="858362" />
	</node>
	<node id="-494391" lat="60.9047833365" lon="5.69596110161">
		<tag k="name" v="Klendalsvatnet" />
		<tag k="natural" v="water" />
		<tag k="ssr:stedsnr" v="858360" />
	</node>
	<node id="-494389" lat="60.8681904343" lon="5.64407331097">
		<tag k="name" v="Kvernhusvatnet" />
		<tag k="natural" v="water" />
		<tag k="ssr:stedsnr" v="858332" />
	</node>
	<node id="-494385" lat="60.9593305588" lon="5.76921111448">
		<tag k="name" v="Gygrevatnet" />
		<tag k="natural" v="water" />
		<tag k="ssr:stedsnr" v="858270" />
	</node>
	<node id="-494384" lat="60.9281356169" lon="5.69109240263">
		<tag k="name" v="Skjerjevatnet" />
		<tag k="natural" v="water" />
		<tag k="ssr:stedsnr" v="858265" />
	</node>
	<node id="-494383" lat="60.9205000031" lon="5.53738055221">
		<tag k="name" v="Hopsvatnet" />
		<tag k="natural" v="water" />
		<tag k="ssr:stedsnr" v="858257" />
		<tag k="water" v="lake" />
	</node>
	<node id="-494379" lat="60.7451311884" lon="5.40676596625">
		<tag k="name" v="Sørkvingevatnet" />
		<tag k="natural" v="water" />
		<tag k="ssr:stedsnr" v="855642" />
		<tag k="water" v="lake" />
	</node>
	<node id="-494371" lat="60.8957817613" lon="5.17613631917">
		<tag k="name" v="Haugetjørna" />
		<tag k="natural" v="water" />
		<tag k="ssr:stedsnr" v="810649" />
	</node>
	<node id="-494368" lat="60.8837213808" lon="5.53339759631">
		<tag k="name" v="Trodalstjørna" />
		<tag k="natural" v="water" />
		<tag k="ssr:stedsnr" v="810528" />
	</node>
	<node id="-494367" lat="60.7609861092" lon="5.38252499435">
		<tag k="name" v="Stekråna" />
		<tag k="natural" v="bay" />
		<tag k="ssr:stedsnr" v="810461" />
	</node>
	<node id="-494352" lat="60.8482555591" lon="5.67260555342">
		<tag k="name" v="Bjørnahiet" />
		<tag k="place" v="locality" />
		<tag k="ssr:stedsnr" v="809861" />
	</node>
	<node id="-494340" lat="60.904947223" lon="5.44374443811">
		<tag k="name" v="Bjørkeneset" />
		<tag k="natural" v="cape" />
		<tag k="ssr:stedsnr" v="809631" />
	</node>
	<node id="-494308" lat="60.7882388891" lon="5.47666945098">
		<tag k="name" v="Svartevatnet" />
		<tag k="natural" v="water" />
		<tag k="ssr:stedsnr" v="798439" />
	</node>
	<node id="-494298" lat="60.8971750024" lon="5.46403055409">
		<tag k="name" v="Stemmevatnet" />
		<tag k="natural" v="water" />
		<tag k="ssr:stedsnr" v="797932" />
		<tag k="water" v="lake" />
	</node>
	<node id="-494287" lat="60.782620126" lon="5.34212326646">
		<tag k="name" v="Fyresdalstjørna" />
		<tag k="natural" v="water" />
		<tag k="ssr:stedsnr" v="797691" />
	</node>
	<node id="-494281" lat="60.829719442" lon="5.41160832954">
		<tag k="name" v="Storevatnet" />
		<tag k="natural" v="water" />
		<tag k="ssr:stedsnr" v="797612" />
		<tag k="water" v="lake" />
	</node>
	<node id="-494275" lat="60.8483249969" lon="5.39479165831">
		<tag k="name" v="Svartevatnet" />
		<tag k="natural" v="water" />
		<tag k="ssr:stedsnr" v="797573" />
		<tag k="water" v="lake" />
	</node>
	<node id="-494269" lat="60.8233138849" lon="5.56792499539">
		<tag k="name" v="Djupedalselva" />
		<tag k="ssr:stedsnr" v="797367" />
		<tag k="waterway" v="stream" />
	</node>
	<node id="-492464" lat="60.8326833325" lon="5.49572222523">
		<tag k="name" v="Fjellfossen" />
		<tag k="natural" v="waterfall" />
		<tag k="ssr:stedsnr" v="324548" />
	</node>
	<node id="-494261" lat="60.9664583367" lon="5.80716388567">
		<tag k="name" v="Store Fjellvatnet" />
		<tag k="natural" v="water" />
		<tag k="ssr:stedsnr" v="797280" />
		<tag k="water" v="lake" />
	</node>
	<node id="-494251" lat="60.8121708211" lon="5.45367345286">
		<tag k="name" v="Sørlivatnet" />
		<tag k="natural" v="water" />
		<tag k="ssr:stedsnr" v="798588" />
	</node>
	<node id="-494242" lat="60.9588194487" lon="5.72576667416">
		<tag k="name" v="Bukkedalselva" />
		<tag k="ssr:stedsnr" v="749827" />
		<tag k="waterway" v="river" />
	</node>
	<node id="-494238" lat="60.8819833297" lon="5.22338054924">
		<tag k="name" v="Sundet" />
		<tag k="natural" v="strait" />
		<tag k="ssr:stedsnr" v="749700" />
	</node>
	<node id="-494237" lat="60.8768666635" lon="5.2258694378">
		<tag k="name" v="Kvernhusvika" />
		<tag k="natural" v="bay" />
		<tag k="ssr:stedsnr" v="749696" />
	</node>
	<node id="-494233" lat="60.887971841" lon="5.21217710025">
		<tag k="name" v="Tjørnskarstjørna" />
		<tag k="natural" v="water" />
		<tag k="ssr:stedsnr" v="749656" />
	</node>
	<node id="-494227" lat="60.7823783726" lon="5.36589186142">
		<tag k="name" v="Lometjørna" />
		<tag k="natural" v="water" />
		<tag k="ssr:stedsnr" v="749474" />
	</node>
	<node id="-494226" lat="60.7804883691" lon="5.36129406978">
		<tag k="name" v="Huvetjørna" />
		<tag k="natural" v="water" />
		<tag k="ssr:stedsnr" v="749472" />
	</node>
	<node id="-494220" lat="60.8628833328" lon="5.32838889407">
		<tag k="name" v="Stemmeelva" />
		<tag k="ssr:stedsnr" v="749452" />
		<tag k="waterway" v="river" />
	</node>
	<node id="-494217" lat="60.9205282232" lon="5.419177432">
		<tag k="name" v="Blomvika" />
		<tag k="natural" v="bay" />
		<tag k="ssr:stedsnr" v="749440" />
	</node>
	<node id="-494213" lat="60.8556750032" lon="5.24332778114">
		<tag k="name" v="Låveidet" />
		<tag k="natural" v="strait" />
		<tag k="ssr:stedsnr" v="749413" />
	</node>
	<node id="-494199" lat="60.7950500038" lon="5.43786944403">
		<tag k="name" v="Meisdalsvika" />
		<tag k="natural" v="bay" />
		<tag k="ssr:stedsnr" v="749300" />
	</node>
	<node id="-494192" lat="60.8866638896" lon="5.58144444874">
		<tag k="name" v="Matresvatnet" />
		<tag k="natural" v="water" />
		<tag k="ssr:stedsnr" v="748879" />
		<tag k="water" v="lake" />
	</node>
	<node id="-494439" lat="60.8078194437" lon="5.38107778259">
		<tag k="name" v="Rekevika" />
		<tag k="natural" v="bay" />
		<tag k="ssr:stedsnr" v="870186" />
	</node>
	<node id="-494178" lat="60.9028833317" lon="5.25530278133">
		<tag k="name" v="Markhusdalselva" />
		<tag k="ssr:stedsnr" v="748642" />
		<tag k="waterway" v="river" />
	</node>
	<node id="-494172" lat="60.8864816117" lon="5.34192701847">
		<tag k="name" v="Setretjørna" />
		<tag k="natural" v="water" />
		<tag k="ssr:stedsnr" v="748583" />
	</node>
	<node id="-494171" lat="60.9162277739" lon="5.46347499667">
		<tag k="name" v="Geitestallelva" />
		<tag k="ssr:stedsnr" v="748541" />
		<tag k="waterway" v="river" />
	</node>
	<node id="-494168" lat="60.8463444426" lon="5.49564999681">
		<tag k="name" v="Oksla" />
		<tag k="ssr:stedsnr" v="748529" />
		<tag k="waterway" v="river" />
	</node>
	<node id="-494165" lat="60.838874998" lon="5.30688610541">
		<tag k="name" v="Gildreneset" />
		<tag k="natural" v="cape" />
		<tag k="ssr:stedsnr" v="748486" />
	</node>
	<node id="-494162" lat="60.8816777789" lon="5.3136722159">
		<tag k="name" v="Middagsskarelva" />
		<tag k="ssr:stedsnr" v="748388" />
		<tag k="waterway" v="river" />
	</node>
	<node id="-494160" lat="60.8125015205" lon="5.34037764609">
		<tag k="name" v="Skoltetjørna" />
		<tag k="natural" v="water" />
		<tag k="ssr:stedsnr" v="748288" />
	</node>
	<node id="-494156" lat="60.8001055531" lon="5.34531388976">
		<tag k="name" v="Djupetjørna" />
		<tag k="natural" v="water" />
		<tag k="ssr:stedsnr" v="748259" />
	</node>
	<node id="-494154" lat="60.8853643665" lon="5.34932380943">
		<tag k="name" v="Vardetjørna" />
		<tag k="natural" v="water" />
		<tag k="ssr:stedsnr" v="737989" />
	</node>
	<node id="-494148" lat="60.8538916683" lon="5.39513611838">
		<tag k="name" v="Slettevatnet" />
		<tag k="natural" v="water" />
		<tag k="ssr:stedsnr" v="737519" />
		<tag k="water" v="lake" />
	</node>
	<node id="-494146" lat="60.9013749975" lon="5.58593054892">
		<tag k="name" v="Krokstadvatnet" />
		<tag k="natural" v="water" />
		<tag k="ssr:stedsnr" v="737340" />
		<tag k="water" v="lake" />
	</node>
	<node id="-494144" lat="60.894166666" lon="5.62621110898">
		<tag k="name" v="Litle Hummelvatnet" />
		<tag k="natural" v="water" />
		<tag k="ssr:stedsnr" v="737315" />
		<tag k="water" v="lake" />
	</node>
	<node id="-494134" lat="60.8934560294" lon="5.42938342643">
		<tag k="name" v="Djupbotsvatnet" />
		<tag k="natural" v="water" />
		<tag k="ssr:stedsnr" v="736944" />
	</node>
	<node id="-494129" lat="60.9105971874" lon="5.41770971892">
		<tag k="name" v="Kjerringetjørna" />
		<tag k="natural" v="water" />
		<tag k="ssr:stedsnr" v="736908" />
	</node>
	<node id="-494127" lat="60.8101582211" lon="5.25141759484">
		<tag k="name" v="Vardetjørna" />
		<tag k="natural" v="water" />
		<tag k="ssr:stedsnr" v="737620" />
	</node>
	<node id="-494122" lat="60.7881444406" lon="5.3535250073">
		<tag k="name" v="Svartevatnet" />
		<tag k="natural" v="water" />
		<tag k="ssr:stedsnr" v="736695" />
		<tag k="water" v="lake" />
	</node>
	<node id="-494116" lat="60.8333636732" lon="5.46162968211">
		<tag k="name" v="Krokevatnet" />
		<tag k="natural" v="water" />
		<tag k="ssr:stedsnr" v="736582" />
	</node>
	<node id="-494115" lat="60.8273138899" lon="5.3929249969">
		<tag k="name" v="Langevatnet" />
		<tag k="natural" v="water" />
		<tag k="ssr:stedsnr" v="736578" />
		<tag k="water" v="lake" />
	</node>
	<node id="-494112" lat="60.8342500023" lon="5.26571111734">
		<tag k="name" v="Lammetjørna" />
		<tag k="natural" v="water" />
		<tag k="ssr:stedsnr" v="736548" />
	</node>
	<node id="-494110" lat="60.8624326362" lon="5.29837257757">
		<tag k="name" v="Tenndalsvatnet" />
		<tag k="natural" v="water" />
		<tag k="ssr:stedsnr" v="736497" />
	</node>
	<node id="-494108" lat="60.8610194401" lon="5.68143055217">
		<tag k="name" v="Nedre Kvitevatnet" />
		<tag k="natural" v="water" />
		<tag k="ssr:stedsnr" v="736430" />
		<tag k="water" v="lake" />
	</node>
	<node id="-494107" lat="60.8611749976" lon="5.72117500195">
		<tag k="name" v="Langavatnet" />
		<tag k="natural" v="water" />
		<tag k="ssr:stedsnr" v="736421" />
		<tag k="water" v="lake" />
	</node>
	<node id="-494103" lat="60.9070611087" lon="5.67107500574">
		<tag k="name" v="Kringlebotsvatnet" />
		<tag k="natural" v="water" />
		<tag k="ssr:stedsnr" v="736335" />
		<tag k="water" v="lake" />
	</node>
	<node id="-494102" lat="60.9578583333" lon="5.59458611209">
		<tag k="name" v="Holmevatnet" />
		<tag k="natural" v="water" />
		<tag k="ssr:stedsnr" v="736301" />
		<tag k="water" v="lake" />
	</node>
	<node id="-494101" lat="60.7428850698" lon="5.36578693928">
		<tag k="name" v="Kråketjørna" />
		<tag k="natural" v="water" />
		<tag k="ssr:stedsnr" v="734664" />
	</node>
	<node id="-494082" lat="60.8819611108" lon="5.58403888512">
		<tag k="name" v="Kvernhusfossen" />
		<tag k="natural" v="waterfall" />
		<tag k="ssr:stedsnr" v="688866" />
	</node>
	<node id="-494081" lat="60.8380527786" lon="5.59845556254">
		<tag k="name" v="Setrevika" />
		<tag k="natural" v="bay" />
		<tag k="ssr:stedsnr" v="688861" />
	</node>
	<node id="-494080" lat="60.9263694443" lon="5.63881110522">
		<tag k="name" v="Rundevatnet" />
		<tag k="natural" v="water" />
		<tag k="ssr:stedsnr" v="688854" />
		<tag k="water" v="lake" />
	</node>
	<node id="-494074" lat="60.909947226" lon="5.5245944522">
		<tag k="name" v="Stuvselva" />
		<tag k="ssr:stedsnr" v="688736" />
		<tag k="waterway" v="river" />
	</node>
	<node id="-494070" lat="60.898027779" lon="5.55979722339">
		<tag k="name" v="Langevatnet" />
		<tag k="natural" v="water" />
		<tag k="ssr:stedsnr" v="688701" />
		<tag k="water" v="lake" />
	</node>
	<node id="-494064" lat="60.8277527818" lon="5.17063056214">
		<tag k="name" v="Indre Vatnet" />
		<tag k="natural" v="water" />
		<tag k="ssr:stedsnr" v="688677" />
		<tag k="water" v="lake" />
	</node>
	<node id="-494063" lat="60.8388401926" lon="5.22033590738">
		<tag k="name" v="Lonetjørna" />
		<tag k="natural" v="water" />
		<tag k="ssr:stedsnr" v="688674" />
	</node>
	<node id="-494053" lat="60.8325388855" lon="5.51658889099">
		<tag k="name" v="Stegåna" />
		<tag k="ssr:stedsnr" v="688580" />
		<tag k="waterway" v="stream" />
	</node>
	<node id="-494047" lat="60.8503388918" lon="5.50670832675">
		<tag k="name" v="Flatafossgrova" />
		<tag k="ssr:stedsnr" v="688518" />
		<tag k="waterway" v="river" />
	</node>
	<node id="-494045" lat="60.8291555593" lon="5.44599999195">
		<tag k="name" v="Lyngrabbelva" />
		<tag k="ssr:stedsnr" v="688502" />
		<tag k="waterway" v="river" />
	</node>
	<node id="-494042" lat="60.8391932133" lon="5.29423287902">
		<tag k="name" v="Lægdarvika" />
		<tag k="natural" v="bay" />
		<tag k="ssr:stedsnr" v="688490" />
	</node>
	<node id="-494040" lat="60.8753750035" lon="5.35005000557">
		<tag k="name" v="Hommelelva" />
		<tag k="ssr:stedsnr" v="688480" />
		<tag k="waterway" v="river" />
	</node>
	<node id="-494034" lat="60.8780138926" lon="5.2463333313">
		<tag k="name" v="Vaulen" />
		<tag k="natural" v="water" />
		<tag k="ssr:stedsnr" v="688421" />
		<tag k="water" v="lake" />
	</node>
	<node id="-494031" lat="60.8443574292" lon="5.23570544704">
		<tag k="name" v="Merkesdalstjørna" />
		<tag k="natural" v="water" />
		<tag k="ssr:stedsnr" v="688405" />
	</node>
	<node id="-494027" lat="60.8040240653" lon="5.25912026069">
		<tag k="name" v="Daletjørna" />
		<tag k="natural" v="water" />
		<tag k="ssr:stedsnr" v="688372" />
	</node>
	<node id="-494017" lat="60.8865694414" lon="5.42181111504">
		<tag k="name" v="Stemmetjørna" />
		<tag k="natural" v="water" />
		<tag k="ssr:stedsnr" v="676978" />
	</node>
	<node id="-494014" lat="60.8330226367" lon="5.57159436422">
		<tag k="name" v="Svartetjørna" />
		<tag k="natural" v="water" />
		<tag k="ssr:stedsnr" v="676957" />
	</node>
	<node id="-494002" lat="60.7966396778" lon="5.36079875428">
		<tag k="name" v="Svartebotstjørnane" />
		<tag k="natural" v="water" />
		<tag k="ssr:stedsnr" v="676645" />
		<tag k="water" v="lake" />
	</node>
	<node id="-493989" lat="60.8579669302" lon="5.17979627411">
		<tag k="name" v="Rambjørgsvatnet" />
		<tag k="natural" v="water" />
		<tag k="ssr:stedsnr" v="676507" />
	</node>
	<node id="-493988" lat="60.8638222203" lon="5.63818888476">
		<tag k="name" v="Meinsemdevatnet" />
		<tag k="natural" v="water" />
		<tag k="ssr:stedsnr" v="676436" />
		<tag k="water" v="lake" />
	</node>
	<node id="-493987" lat="60.8359203342" lon="5.64412415559">
		<tag k="name" v="Midtvatnet" />
		<tag k="natural" v="water" />
		<tag k="ssr:stedsnr" v="676405" />
	</node>
	<node id="-493976" lat="60.8622500024" lon="5.48854167078">
		<tag k="name" v="Lysebugelva" />
		<tag k="ssr:stedsnr" v="676325" />
		<tag k="waterway" v="river" />
	</node>
	<node id="-493973" lat="60.8851055587" lon="5.71418332785">
		<tag k="name" v="Meinsemdevatnet" />
		<tag k="natural" v="water" />
		<tag k="ssr:stedsnr" v="676319" />
	</node>
	<node id="-493971" lat="60.9552027759" lon="5.70482221756">
		<tag k="name" v="Stordalsvatnet" />
		<tag k="natural" v="water" />
		<tag k="ssr:stedsnr" v="676285" />
		<tag k="water" v="lake" />
	</node>
	<node id="-493967" lat="60.9599138874" lon="5.79654444307">
		<tag k="name" v="Små Fjellvatnet" />
		<tag k="natural" v="water" />
		<tag k="ssr:stedsnr" v="676258" />
		<tag k="water" v="lake" />
	</node>
	<node id="-493965" lat="60.9310194453" lon="5.59161945212">
		<tag k="name" v="Stemmevatnet" />
		<tag k="natural" v="water" />
		<tag k="ssr:stedsnr" v="676242" />
	</node>
	<node id="-493964" lat="60.9076063023" lon="5.23141883161">
		<tag k="name" v="Råsetjørna" />
		<tag k="natural" v="water" />
		<tag k="ssr:stedsnr" v="675939" />
	</node>
	<node id="-493954" lat="60.7435666681" lon="5.46159166447">
		<tag k="name" v="Reivatnet" />
		<tag k="natural" v="water" />
		<tag k="ssr:stedsnr" v="673640" />
	</node>
	<node id="-493938" lat="60.8394194469" lon="5.60187500497">
		<tag k="name" v="Setreneset" />
		<tag k="natural" v="cape" />
		<tag k="ssr:stedsnr" v="627878" />
	</node>
	<node id="-493918" lat="60.8996972245" lon="5.21691389067">
		<tag k="name" v="Myrdalselva" />
		<tag k="ssr:stedsnr" v="627667" />
		<tag k="waterway" v="river" />
	</node>
	<node id="-493909" lat="60.8352111131" lon="5.51651111398">
		<tag k="name" v="Skogholmen" />
		<tag k="place" v="islet" />
		<tag k="ssr:stedsnr" v="627581" />
	</node>
	<node id="-493907" lat="60.904633332" lon="5.33769722075">
		<tag k="name" v="Grønfjellsfossen" />
		<tag k="natural" v="waterfall" />
		<tag k="ssr:stedsnr" v="627567" />
	</node>
	<node id="-493906" lat="60.8410119355" lon="5.56884387226">
		<tag k="name" v="Stemmetjørna" />
		<tag k="natural" v="water" />
		<tag k="ssr:stedsnr" v="627549" />
	</node>
	<node id="-493891" lat="60.849434366" lon="5.3811907017">
		<tag k="name" v="Kupetjørna" />
		<tag k="natural" v="water" />
		<tag k="ssr:stedsnr" v="627452" />
	</node>
	<node id="-493886" lat="60.8493611093" lon="5.23984443799">
		<tag k="name" v="Baseneset" />
		<tag k="natural" v="cape" />
		<tag k="ssr:stedsnr" v="627407" />
	</node>
	<node id="-493873" lat="60.75022778" lon="5.40847221296">
		<tag k="name" v="Øya" />
		<tag k="place" v="island" />
		<tag k="ssr:stedsnr" v="627334" />
	</node>
	<node id="-493865" lat="60.8779305509" lon="5.2433861037">
		<tag k="name" v="Langevatnet" />
		<tag k="natural" v="water" />
		<tag k="ssr:stedsnr" v="615995" />
		<tag k="water" v="lake" />
	</node>
	<node id="-493864" lat="60.8786249968" lon="5.17259166731">
		<tag k="name" v="Eikebotsvatnet" />
		<tag k="natural" v="water" />
		<tag k="ssr:stedsnr" v="615985" />
	</node>
	<node id="-493844" lat="60.8094497081" lon="5.25947338958">
		<tag k="name" v="Åsetjørna" />
		<tag k="natural" v="water" />
		<tag k="ssr:stedsnr" v="615601" />
	</node>
	<node id="-493838" lat="60.8389416679" lon="5.38840000439">
		<tag k="name" v="Geilebotsvatnet" />
		<tag k="natural" v="water" />
		<tag k="ssr:stedsnr" v="615568" />
		<tag k="water" v="lake" />
	</node>
	<node id="-493829" lat="60.8617611097" lon="5.27130832763">
		<tag k="name" v="Lågefossen" />
		<tag k="natural" v="waterfall" />
		<tag k="ssr:stedsnr" v="615502" />
	</node>
	<node id="-493825" lat="60.8013243738" lon="5.55062132626">
		<tag k="name" v="Svartevatnet" />
		<tag k="natural" v="water" />
		<tag k="ssr:stedsnr" v="615467" />
	</node>
	<node id="-493824" lat="60.8338944403" lon="5.50644444324">
		<tag k="name" v="Kvernhuselva" />
		<tag k="ssr:stedsnr" v="615404" />
		<tag k="waterway" v="stream" />
	</node>
	<node id="-493819" lat="60.9200944448" lon="5.78312222522">
		<tag k="name" v="Kringlebotselva" />
		<tag k="ssr:stedsnr" v="615342" />
		<tag k="waterway" v="stream" />
	</node>
	<node id="-493812" lat="60.8863277788" lon="5.68715278684">
		<tag k="name" v="Langevatnet" />
		<tag k="natural" v="water" />
		<tag k="ssr:stedsnr" v="615295" />
	</node>
	<node id="-493810" lat="60.9576599298" lon="5.68301119474">
		<tag k="name" v="Ulvedalsvatnet" />
		<tag k="natural" v="water" />
		<tag k="ssr:stedsnr" v="615270" />
	</node>
	<node id="-493808" lat="60.961872224" lon="5.82950555913">
		<tag k="name" v="Austre Fjellvatnet" />
		<tag k="natural" v="water" />
		<tag k="ssr:stedsnr" v="615242" />
		<tag k="water" v="lake" />
	</node>
	<node id="-493804" lat="60.9284362395" lon="5.61320348802">
		<tag k="name" v="Hopsstølsvatnet" />
		<tag k="natural" v="water" />
		<tag k="ssr:stedsnr" v="615236" />
	</node>
	<node id="-493801" lat="60.9039018935" lon="5.41573431206">
		<tag k="name" v="Mosetjørna" />
		<tag k="natural" v="water" />
		<tag k="ssr:stedsnr" v="614956" />
	</node>
	<node id="-493799" lat="60.9127944454" lon="5.33847499197">
		<tag k="name" v="Gravene" />
		<tag k="place" v="locality" />
		<tag k="ssr:stedsnr" v="614918" />
	</node>
	<node id="-493788" lat="60.8461749987" lon="5.58135278567">
		<tag k="name" v="Djupetjørna" />
		<tag k="natural" v="water" />
		<tag k="ssr:stedsnr" v="614420" />
	</node>
	<node id="-493787" lat="60.844425003" lon="5.49891666275">
		<tag k="name" v="Skredgrova" />
		<tag k="ssr:stedsnr" v="614419" />
		<tag k="waterway" v="river" />
	</node>
	<node id="-493781" lat="60.9001027779" lon="5.51359166818">
		<tag k="name" v="Gjerdbergelva" />
		<tag k="ssr:stedsnr" v="567727" />
		<tag k="waterway" v="river" />
	</node>
	<node id="-493772" lat="60.9095027774" lon="5.63223055512">
		<tag k="name" v="Eidet" />
		<tag k="natural" v="strait" />
		<tag k="ssr:stedsnr" v="566869" />
	</node>
	<node id="-493769" lat="60.9058000018" lon="5.58352500498">
		<tag k="name" v="Tjørna" />
		<tag k="natural" v="water" />
		<tag k="ssr:stedsnr" v="566853" />
	</node>
	<node id="-493768" lat="60.9265222261" lon="5.66927222163">
		<tag k="name" v="Hogahølen" />
		<tag k="place" v="locality" />
		<tag k="ssr:stedsnr" v="566846" />
	</node>
	<node id="-494625" lat="60.9744277812" lon="5.65250554613">
		<tag k="name" v="Mosedalsvatna" />
		<tag k="natural" v="water" />
		<tag k="ssr:stedsnr" v="939926" />
		<tag k="water" v="lake" />
	</node>
	<node id="-493759" lat="60.9045944481" lon="5.53293889246">
		<tag k="name" v="Stallelva" />
		<tag k="ssr:stedsnr" v="566708" />
		<tag k="waterway" v="river" />
	</node>
	<node id="-493757" lat="60.9013777743" lon="5.55036665987">
		<tag k="name" v="Stemmevatnet" />
		<tag k="natural" v="water" />
		<tag k="ssr:stedsnr" v="566692" />
		<tag k="water" v="lake" />
	</node>
	<node id="-493756" lat="60.8989611072" lon="5.54764167275">
		<tag k="name" v="Drengjestemma" />
		<tag k="natural" v="water" />
		<tag k="ssr:stedsnr" v="566691" />
		<tag k="water" v="lake" />
	</node>
	<node id="-493754" lat="60.8912638866" lon="5.30565832591">
		<tag k="name" v="Lona" />
		<tag k="natural" v="water" />
		<tag k="ssr:stedsnr" v="566626" />
		<tag k="water" v="lake" />
	</node>
	<node id="-493719" lat="60.7802666637" lon="5.45939167507">
		<tag k="name" v="Duesundtjørna" />
		<tag k="natural" v="water" />
		<tag k="ssr:stedsnr" v="566311" />
	</node>
	<node id="-493718" lat="60.8056581178" lon="5.26191595396">
		<tag k="name" v="Geitetjørna" />
		<tag k="natural" v="water" />
		<tag k="ssr:stedsnr" v="566292" />
	</node>
	<node id="-493714" lat="60.8084250006" lon="5.38413333984">
		<tag k="name" v="Hovlandsvika" />
		<tag k="natural" v="bay" />
		<tag k="ssr:stedsnr" v="566178" />
	</node>
	<node id="-493711" lat="60.8823972191" lon="5.27779723007">
		<tag k="name" v="Kvamsøyna" />
		<tag k="place" v="islet" />
		<tag k="ssr:stedsnr" v="555000" />
	</node>
	<node id="-493710" lat="60.882830553" lon="5.37195277479">
		<tag k="name" v="Dyrkollebotselva" />
		<tag k="ssr:stedsnr" v="554993" />
		<tag k="waterway" v="stream" />
	</node>
	<node id="-493709" lat="60.8711959952" lon="5.16344716191">
		<tag k="name" v="Gravatn" />
		<tag k="natural" v="water" />
		<tag k="ssr:stedsnr" v="554992" />
	</node>
	<node id="-493705" lat="60.8902916909" lon="5.19623072108">
		<tag k="name" v="Bastelielva" />
		<tag k="ssr:stedsnr" v="554963" />
		<tag k="waterway" v="stream" />
	</node>
	<node id="-493697" lat="60.7523202423" lon="5.35976303512">
		<tag k="name" v="Heimsta Tjørna" />
		<tag k="natural" v="water" />
		<tag k="ssr:stedsnr" v="554774" />
	</node>
	<node id="-493695" lat="60.7621472264" lon="5.39226945135">
		<tag k="name" v="Blådalselva" />
		<tag k="ssr:stedsnr" v="554757" />
		<tag k="waterway" v="river" />
	</node>
	<node id="-493694" lat="60.7586366947" lon="5.39225797929">
		<tag k="name" v="Døldholetjørna" />
		<tag k="natural" v="water" />
		<tag k="ssr:stedsnr" v="554756" />
	</node>
	<node id="-493688" lat="60.7864666095" lon="5.33313865451">
		<tag k="name" v="Torsteinsvatnet" />
		<tag k="natural" v="water" />
		<tag k="ssr:stedsnr" v="554717" />
	</node>
	<node id="-493683" lat="60.8278499968" lon="5.40124166712">
		<tag k="name" v="Kleivvatnet" />
		<tag k="natural" v="water" />
		<tag k="ssr:stedsnr" v="554639" />
		<tag k="water" v="lake" />
	</node>
	<node id="-493674" lat="60.8417305513" lon="5.30151945004">
		<tag k="name" v="Klubbeneset" />
		<tag k="natural" v="cape" />
		<tag k="ssr:stedsnr" v="554588" />
	</node>
	<node id="-493672" lat="60.8769694473" lon="5.33821110227">
		<tag k="name" v="Ågjelelva" />
		<tag k="ssr:stedsnr" v="554546" />
		<tag k="waterway" v="stream" />
	</node>
	<node id="-493671" lat="60.7667055566" lon="5.47938334023">
		<tag k="name" v="Storevatnet" />
		<tag k="natural" v="water" />
		<tag k="ssr:stedsnr" v="554464" />
		<tag k="water" v="lake" />
	</node>
	<node id="-493669" lat="60.8421555422" lon="5.6410437924">
		<tag k="name" v="Nedstevatnet" />
		<tag k="natural" v="water" />
		<tag k="ssr:stedsnr" v="554418" />
	</node>
	<node id="-493661" lat="60.8910499992" lon="5.59854722626">
		<tag k="name" v="Matreselva" />
		<tag k="ssr:stedsnr" v="554353" />
		<tag k="waterway" v="river" />
	</node>
	<node id="-493657" lat="60.9766921055" lon="5.63191991098">
		<tag k="name" v="Kvanngrøvatnet" />
		<tag k="natural" v="water" />
		<tag k="ssr:stedsnr" v="554333" />
		<tag k="water" v="lake" />
	</node>
	<node id="-493655" lat="60.9337363178" lon="5.82571134387">
		<tag k="name" v="Krangledalsvatnet" />
		<tag k="natural" v="water" />
		<tag k="ssr:stedsnr" v="554280" />
	</node>
	<node id="-494264" lat="60.9369777785" lon="5.66296943897">
		<tag k="name" v="Nedste Mosedalsvatnet" />
		<tag k="natural" v="water" />
		<tag k="ssr:stedsnr" v="797301" />
		<tag k="water" v="lake" />
	</node>
	<node id="-493645" lat="60.8382750033" lon="5.58971944735">
		<tag k="name" v="Askilneset" />
		<tag k="natural" v="cape" />
		<tag k="ssr:stedsnr" v="506858" />
	</node>
	<node id="-493643" lat="60.8535888848" lon="5.62755277312">
		<tag k="name" v="Gagnløysevatnet" />
		<tag k="natural" v="water" />
		<tag k="ssr:stedsnr" v="506844" />
		<tag k="water" v="lake" />
	</node>
	<node id="-493641" lat="60.9012583312" lon="5.59292222926">
		<tag k="name" v="Langevatnet" />
		<tag k="natural" v="water" />
		<tag k="ssr:stedsnr" v="506839" />
		<tag k="water" v="lake" />
	</node>
	<node id="-493632" lat="60.9242916639" lon="5.54826943773">
		<tag k="name" v="Storelva" />
		<tag k="ssr:stedsnr" v="506718" />
		<tag k="waterway" v="river" />
	</node>
	<node id="-493626" lat="60.8226725325" lon="5.18919746965">
		<tag k="name" v="Staurøytjørna" />
		<tag k="natural" v="water" />
		<tag k="ssr:stedsnr" v="506664" />
	</node>
	<node id="-493614" lat="60.9175388851" lon="5.29399999648">
		<tag k="name" v="Tverelva" />
		<tag k="ssr:stedsnr" v="506606" />
		<tag k="waterway" v="river" />
	</node>
	<node id="-493609" lat="60.8278377332" lon="5.489922109">
		<tag k="name" v="Haugsdalsvatnet" />
		<tag k="natural" v="water" />
		<tag k="ssr:stedsnr" v="506557" />
		<tag k="water" v="lake" />
	</node>
	<node id="-493596" lat="60.88085278" lon="5.38823888355">
		<tag k="name" v="Eikemofossen" />
		<tag k="natural" v="waterfall" />
		<tag k="ssr:stedsnr" v="506476" />
	</node>
	<node id="-493593" lat="60.7656361128" lon="5.41801388708">
		<tag k="name" v="Vasslineset" />
		<tag k="natural" v="cape" />
		<tag k="ssr:stedsnr" v="506466" />
	</node>
	<node id="-493590" lat="60.8417916711" lon="5.36427222714">
		<tag k="name" v="Råsegjeltjørna" />
		<tag k="natural" v="water" />
		<tag k="ssr:stedsnr" v="506446" />
	</node>
	<node id="-492547" lat="60.9039750035" lon="5.29979166931">
		<tag k="name" v="Byrkjelandsvatnet" />
		<tag k="natural" v="water" />
		<tag k="ssr:stedsnr" v="372966" />
	</node>
	<node id="-493583" lat="60.8828782164" lon="5.24331457283">
		<tag k="name" v="Påltjørna" />
		<tag k="natural" v="water" />
		<tag k="ssr:stedsnr" v="506418" />
	</node>
	<node id="-493581" lat="60.8431583371" lon="5.29622777411">
		<tag k="name" v="Alvika" />
		<tag k="natural" v="bay" />
		<tag k="ssr:stedsnr" v="506399" />
	</node>
	<node id="-493580" lat="60.7614805554" lon="5.31143888479">
		<tag k="name" v="Stemlitjørna" />
		<tag k="natural" v="water" />
		<tag k="ssr:stedsnr" v="506387" />
	</node>
</osm>
