<?xml version="1.0" encoding="UTF-8"?>
<osm generator="osmapis" version="0.6">
	<node id="-493054" lat="60.9077388876" lon="5.55893611261">
		<tag k="historic" v="shieling" />
		<tag k="name" v="Trommeluren" />
		<tag k="place" v="locality" />
		<tag k="ssr:stedsnr" v="554380" />
	</node>
	<node id="-492628" lat="60.8997416627" lon="5.57295276993">
		<tag k="historic" v="shieling" />
		<tag k="name" v="Trodalssetret" />
		<tag k="place" v="locality" />
		<tag k="ssr:stedsnr" v="251378" />
	</node>
	<node id="-493046" lat="60.8633500038" lon="5.51438610885">
		<tag k="historic" v="shieling" />
		<tag k="name" v="Solheim" />
		<tag k="place" v="locality" />
		<tag k="ssr:stedsnr" v="554344" />
	</node>
	<node id="-492019" lat="60.7264388898" lon="5.40195833704">
		<tag k="name" v="Lia" />
		<tag k="place" v="farm" />
		<tag k="ssr:stedsnr" v="894298" />
	</node>
	<node id="-492018" lat="60.7925194481" lon="5.21824166498">
		<tag k="fixme" v="consider place=hamlet" />
		<tag k="name" v="Raunøyna" />
		<tag k="place" v="farm" />
		<tag k="ssr:stedsnr" v="476578" />
	</node>
	<node id="-492017" lat="60.845288886" lon="5.17563610788">
		<tag k="name" v="Hatlevika" />
		<tag k="place" v="farm" />
		<tag k="ssr:stedsnr" v="476353" />
	</node>
	<node id="-492712" lat="60.8331444452" lon="5.25502221404">
		<tag k="name" v="Træet" />
		<tag k="place" v="farm" />
		<tag k="ssr:stedsnr" v="263521" />
	</node>
	<node id="-493545" lat="60.8028916646" lon="5.26556666471">
		<tag k="name" v="Træsdalen" />
		<tag k="place" v="farm" />
		<tag k="ssr:stedsnr" v="748274" />
	</node>
	<node id="-492520" lat="60.8133333359" lon="5.29751945142">
		<tag k="name" v="Nesjane" />
		<tag k="place" v="farm" />
		<tag k="ssr:stedsnr" v="191590" />
	</node>
	<node id="-492198" lat="60.9411805526" lon="5.57943055832">
		<tag k="historic" v="shieling" />
		<tag k="name" v="Dukestølen" />
		<tag k="place" v="locality" />
		<tag k="ssr:stedsnr" v="69292" />
	</node>
	<node id="-492514" lat="60.8465772146" lon="5.21080089146">
		<tag k="fixme" v="consider place=hamlet" />
		<tag k="name" v="Risnes" />
		<tag k="place" v="farm" />
		<tag k="ssr:stedsnr" v="191493" />
	</node>
	<node id="-491754" lat="60.8486888931" lon="5.55028054929">
		<tag k="historic" v="shieling" />
		<tag k="name" v="Smørdalssetret" />
		<tag k="place" v="locality" />
		<tag k="ssr:stedsnr" v="311468" />
	</node>
	<node id="-492512" lat="60.8756251627" lon="5.59073947236">
		<tag k="fixme" v="consider place=hamlet" />
		<tag k="name" v="Litlematre" />
		<tag k="place" v="farm" />
		<tag k="ssr:stedsnr" v="191289" />
	</node>
	<node id="-492184" lat="60.9505805526" lon="5.79362500544">
		<tag k="fixme" v="consider tourism=alpine_hut or tourism=chalet" />
		<tag k="name" v="Fjellvassbu" />
		<tag k="ssr:stedsnr" v="56081" />
		<tag k="tourism" v="wilderness_hut" />
	</node>
	<node id="-493989" lat="60.8437999978" lon="5.17211943693">
		<tag k="name" v="Solli" />
		<tag k="place" v="farm" />
		<tag k="ssr:stedsnr" v="931655" />
	</node>
	<node id="-492508" lat="60.8720090632" lon="5.25624376889">
		<tag k="fixme" v="consider place=hamlet" />
		<tag k="name" v="Låveidet" />
		<tag k="place" v="farm" />
		<tag k="ssr:stedsnr" v="190965" />
	</node>
	<node id="-493524" lat="60.8860250005" lon="5.34310833879">
		<tag k="name" v="Kvamsdalsstølen" />
		<tag k="place" v="isolated_dwelling" />
		<tag k="ssr:stedsnr" v="736947" />
	</node>
	<node id="-493523" lat="60.8896972241" lon="5.36618888635">
		<tag k="historic" v="shieling" />
		<tag k="name" v="Hogasetret" />
		<tag k="place" v="locality" />
		<tag k="ssr:stedsnr" v="736948" />
	</node>
	<node id="-491985" lat="60.9068333314" lon="5.58260277729">
		<tag k="historic" v="shieling" />
		<tag k="name" v="Gamlestølen" />
		<tag k="place" v="locality" />
		<tag k="ssr:stedsnr" v="384818" />
	</node>
	<node id="-493520" lat="60.8962666681" lon="5.4170111071">
		<tag k="name" v="Stallane" />
		<tag k="place" v="farm" />
		<tag k="ssr:stedsnr" v="736935" />
	</node>
	<node id="-493007" lat="60.8443249978" lon="5.20329999989">
		<tag k="name" v="Leirvågen" />
		<tag k="place" v="farm" />
		<tag k="ssr:stedsnr" v="506631" />
	</node>
	<node id="-493518" lat="60.9114916661" lon="5.41755555013">
		<tag k="name" v="Klausstølen" />
		<tag k="place" v="locality" />
		<tag k="ssr:stedsnr" v="736919" />
	</node>
	<node id="-493517" lat="60.9097888928" lon="5.46459722973">
		<tag k="name" v="Nystykket" />
		<tag k="place" v="farm" />
		<tag k="ssr:stedsnr" v="736910" />
	</node>
	<node id="-493515" lat="60.8057083324" lon="5.26580834058">
		<tag k="name" v="Solstrand" />
		<tag k="place" v="farm" />
		<tag k="ssr:stedsnr" v="737634" />
	</node>
	<node id="-492485" lat="60.8392250028" lon="5.25936389376">
		<tag k="name" v="Midtbø" />
		<tag k="place" v="farm" />
		<tag k="ssr:stedsnr" v="190559" />
	</node>
	<node id="-492483" lat="60.8456388898" lon="5.17592499074">
		<tag k="fixme" v="consider place=hamlet" />
		<tag k="name" v="Hatlevika" />
		<tag k="place" v="farm" />
		<tag k="ssr:stedsnr" v="190531" />
	</node>
	<node id="-493505" lat="60.8150960712" lon="5.30699408583">
		<tag k="fixme" v="consider place=hamlet" />
		<tag k="name" v="Duesund" />
		<tag k="place" v="farm" />
		<tag k="ssr:stedsnr" v="736598" />
	</node>
	<node id="-493504" lat="60.8153361108" lon="5.26882222036">
		<tag k="name" v="Holsnøyni" />
		<tag k="place" v="isolated_dwelling" />
		<tag k="ssr:stedsnr" v="736587" />
	</node>
	<node id="-494014" lat="60.7429972229" lon="5.39239166279">
		<tag k="fixme" v="consider place=hamlet" />
		<tag k="name" v="Kvingo" />
		<tag k="place" v="village" />
		<tag k="ssr:stedsnr" v="954165" />
	</node>
	<node id="-492477" lat="60.833727775" lon="5.51927499348">
		<tag k="name" v="Tverrbjørg" />
		<tag k="place" v="farm" />
		<tag k="ssr:stedsnr" v="190430" />
	</node>
	<node id="-492473" lat="60.9098186406" lon="5.49159110871">
		<tag k="fixme" v="consider place=hamlet" />
		<tag k="name" v="Furebotn" />
		<tag k="place" v="farm" />
		<tag k="ssr:stedsnr" v="190374" />
	</node>
	<node id="-491956" lat="60.8464972255" lon="5.41508334119">
		<tag k="historic" v="shieling" />
		<tag k="name" v="Totlandssetra" />
		<tag k="place" v="locality" />
		<tag k="ssr:stedsnr" v="384404" />
	</node>
	<node id="-493999" lat="60.9014472244" lon="5.53380000114">
		<tag k="historic" v="shieling" />
		<tag k="name" v="Setsstølen" />
		<tag k="place" v="locality" />
		<tag k="ssr:stedsnr" v="931727" />
	</node>
	<node id="-493997" lat="60.8708166672" lon="5.22457222766">
		<tag k="historic" v="shieling" />
		<tag k="name" v="Furestølen" />
		<tag k="place" v="locality" />
		<tag k="ssr:stedsnr" v="931708" />
	</node>
	<node id="-492453" lat="60.9008638892" lon="5.51505278382">
		<tag k="name" v="Skaret" />
		<tag k="place" v="farm" />
		<tag k="ssr:stedsnr" v="142746" />
	</node>
	<node id="-492452" lat="60.8743750022" lon="5.1976944404">
		<tag k="name" v="Buskhaug" />
		<tag k="place" v="farm" />
		<tag k="ssr:stedsnr" v="142686" />
	</node>
	<node id="-491938" lat="60.8848444406" lon="5.45830833783">
		<tag k="name" v="Knappen" />
		<tag k="place" v="farm" />
		<tag k="ssr:stedsnr" v="372981" />
	</node>
	<node id="-492959" lat="60.7697194434" lon="5.29064165802">
		<tag k="historic" v="shieling" />
		<tag k="name" v="Fjellstølen" />
		<tag k="place" v="locality" />
		<tag k="ssr:stedsnr" v="506336" />
	</node>
	<node id="-491934" lat="60.8908777796" lon="5.35985554916">
		<tag k="name" v="Fossdalsstølen" />
		<tag k="place" v="isolated_dwelling" />
		<tag k="ssr:stedsnr" v="372958" />
	</node>
	<node id="-492443" lat="60.8659027782" lon="5.3406888979">
		<tag k="fixme" v="consider place=hamlet" />
		<tag k="name" v="Bergsvik" />
		<tag k="place" v="farm" />
		<tag k="ssr:stedsnr" v="142373" />
	</node>
	<node id="-493465" lat="60.8976527737" lon="5.58271943825">
		<tag k="historic" v="shieling" />
		<tag k="name" v="Slottestølen" />
		<tag k="place" v="locality" />
		<tag k="ssr:stedsnr" v="688831" />
	</node>
	<node id="-492356" lat="60.8129361111" lon="5.48732778021">
		<tag k="historic" v="shieling" />
		<tag k="name" v="Kupa" />
		<tag k="place" v="locality" />
		<tag k="ssr:stedsnr" v="130339" />
	</node>
	<node id="-492943" lat="60.7529444471" lon="5.32168055606">
		<tag k="name" v="Gjerdet" />
		<tag k="place" v="farm" />
		<tag k="ssr:stedsnr" v="494690" />
	</node>
	<node id="-491757" lat="60.7996500029" lon="5.43862500141">
		<tag k="historic" v="shieling" />
		<tag k="name" v="Andviksetret" />
		<tag k="place" v="locality" />
		<tag k="ssr:stedsnr" v="311718" />
	</node>
	<node id="-492939" lat="60.7758194465" lon="5.35232778389">
		<tag k="historic" v="shieling" />
		<tag k="name" v="Mjangerssetret" />
		<tag k="place" v="locality" />
		<tag k="ssr:stedsnr" v="494654" />
	</node>
	<node id="-493962" lat="60.918469442" lon="5.44909166706">
		<tag k="historic" v="shieling" />
		<tag k="name" v="Gamlesetra" />
		<tag k="place" v="locality" />
		<tag k="ssr:stedsnr" v="931441" />
	</node>
	<node id="-493959" lat="60.8465583369" lon="5.41857499108">
		<tag k="historic" v="shieling" />
		<tag k="name" v="Floksetra" />
		<tag k="place" v="locality" />
		<tag k="ssr:stedsnr" v="931425" />
	</node>
	<node id="-492930" lat="60.810711113" lon="5.54264166821">
		<tag k="historic" v="shieling" />
		<tag k="name" v="Fonnhogen" />
		<tag k="place" v="locality" />
		<tag k="ssr:stedsnr" v="494459" />
	</node>
	<node id="-492927" lat="60.8366998243" lon="5.55362173724">
		<tag k="fixme" v="consider place=hamlet" />
		<tag k="name" v="Bjørnekletten" />
		<tag k="place" v="farm" />
		<tag k="ssr:stedsnr" v="494377" />
	</node>
	<node id="-493802" lat="60.8107775387" lon="5.33478635989">
		<tag k="fixme" v="consider place=hamlet" />
		<tag k="name" v="Bogen" />
		<tag k="place" v="farm" />
		<tag k="ssr:stedsnr" v="858652" />
	</node>
	<node id="-491898" lat="60.8599750018" lon="5.66103333842">
		<tag k="historic" v="shieling" />
		<tag k="name" v="Litlematresstølen" />
		<tag k="place" v="locality" />
		<tag k="ssr:stedsnr" v="372454" />
	</node>
	<node id="-492406" lat="60.889675" lon="5.2290361027">
		<tag k="name" v="Høgemark" />
		<tag k="place" v="farm" />
		<tag k="ssr:stedsnr" v="141625" />
	</node>
	<node id="-492917" lat="60.7810388857" lon="5.39233888523">
		<tag k="historic" v="shieling" />
		<tag k="name" v="Nedsta Kvingedalssetret" />
		<tag k="place" v="locality" />
		<tag k="ssr:stedsnr" v="493690" />
	</node>
	<node id="-491888" lat="60.7211777806" lon="5.40046110724">
		<tag k="name" v="Tjørnabakken" />
		<tag k="place" v="farm" />
		<tag k="ssr:stedsnr" v="370198" />
	</node>
	<node id="-493423" lat="60.9181944469" lon="5.43777777169">
		<tag k="historic" v="shieling" />
		<tag k="name" v="Steinstølen" />
		<tag k="place" v="locality" />
		<tag k="ssr:stedsnr" v="688430" />
	</node>
	<node id="-491886" lat="60.8250805539" lon="5.17308333419">
		<tag k="fixme" v="consider place=hamlet" />
		<tag k="name" v="Haugsøyna" />
		<tag k="place" v="farm" />
		<tag k="ssr:stedsnr" v="355547" />
	</node>
	<node id="-493419" lat="60.853936115" lon="5.40969166052">
		<tag k="historic" v="shieling" />
		<tag k="name" v="Stigalviksetra" />
		<tag k="place" v="locality" />
		<tag k="ssr:stedsnr" v="688413" />
	</node>
	<node id="-492905" lat="60.7372567616" lon="5.40064888765">
		<tag k="fixme" v="consider place=hamlet" />
		<tag k="name" v="Sørkvingo" />
		<tag k="place" v="farm" />
		<tag k="ssr:stedsnr" v="491639" />
	</node>
	<node id="-492388" lat="60.831294442" lon="5.43079166261">
		<tag k="historic" v="shieling" />
		<tag k="name" v="Stølen" />
		<tag k="place" v="locality" />
		<tag k="ssr:stedsnr" v="141510" />
	</node>
	<node id="-493921" lat="60.7807527763" lon="5.45468611298">
		<tag k="historic" v="shieling" />
		<tag k="name" v="Reknessetret" />
		<tag k="place" v="locality" />
		<tag k="ssr:stedsnr" v="919665" />
	</node>
	<node id="-493917" lat="60.8267771952" lon="5.37969058332">
		<tag k="fixme" v="consider place=hamlet" />
		<tag k="name" v="Totlandsdalen" />
		<tag k="place" v="farm" />
		<tag k="ssr:stedsnr" v="919571" />
	</node>
	<node id="-491868" lat="60.8698222265" lon="5.22474443575">
		<tag k="historic" v="shieling" />
		<tag k="name" v="Fjelldalsstølen" />
		<tag k="place" v="locality" />
		<tag k="ssr:stedsnr" v="324679" />
	</node>
	<node id="-493402" lat="60.8926944466" lon="5.29775834099">
		<tag k="name" v="Lia" />
		<tag k="place" v="farm" />
		<tag k="ssr:stedsnr" v="676958" />
	</node>
	<node id="-492374" lat="60.8932055582" lon="5.28323055423">
		<tag k="name" v="Brekkene" />
		<tag k="place" v="farm" />
		<tag k="ssr:stedsnr" v="130954" />
	</node>
	<node id="-491861" lat="60.8485694422" lon="5.18786388652">
		<tag k="name" v="Havnen" />
		<tag k="place" v="farm" />
		<tag k="ssr:stedsnr" v="324623" />
	</node>
	<node id="-493908" lat="60.9055833332" lon="5.58180834221">
		<tag k="historic" v="shieling" />
		<tag k="name" v="Storematressetret" />
		<tag k="place" v="locality" />
		<tag k="ssr:stedsnr" v="919341" />
	</node>
	<node id="-493906" lat="60.8989805561" lon="5.50638055284">
		<tag k="name" v="Grimhaugane" />
		<tag k="place" v="farm" />
		<tag k="ssr:stedsnr" v="919335" />
	</node>
	<node id="-493393" lat="60.7817083374" lon="5.45720000253">
		<tag k="historic" v="shieling" />
		<tag k="name" v="Duesundsetret" />
		<tag k="place" v="locality" />
		<tag k="ssr:stedsnr" v="676681" />
	</node>
	<node id="-492366" lat="60.7500361066" lon="5.31723888191">
		<tag k="name" v="Hopslia" />
		<tag k="place" v="farm" />
		<tag k="ssr:stedsnr" v="130695" />
	</node>
	<node id="-493899" lat="60.8883347638" lon="5.21951390239">
		<tag k="fixme" v="consider place=hamlet" />
		<tag k="name" v="Litle Sleire" />
		<tag k="place" v="farm" />
		<tag k="ssr:stedsnr" v="918956" />
	</node>
	<node id="-493897" lat="60.9133583367" lon="5.45690833494">
		<tag k="name" v="Legene" />
		<tag k="place" v="farm" />
		<tag k="ssr:stedsnr" v="918935" />
	</node>
	<node id="-493896" lat="60.8905205715" lon="5.17091938742">
		<tag k="fixme" v="consider place=hamlet" />
		<tag k="name" v="Tangedal" />
		<tag k="place" v="farm" />
		<tag k="ssr:stedsnr" v="918929" />
	</node>
	<node id="-492359" lat="60.8487077323" lon="5.15523589473">
		<tag k="fixme" v="consider place=hamlet" />
		<tag k="name" v="Haugsdal" />
		<tag k="place" v="farm" />
		<tag k="ssr:stedsnr" v="130498" />
	</node>
	<node id="-491846" lat="60.7855805574" lon="5.37763333882">
		<tag k="historic" v="shieling" />
		<tag k="name" v="Grønestølen" />
		<tag k="place" v="locality" />
		<tag k="ssr:stedsnr" v="324464" />
	</node>
	<node id="-493380" lat="60.8476032764" lon="5.29991533187">
		<tag k="fixme" v="consider place=hamlet" />
		<tag k="name" v="Molland" />
		<tag k="place" v="farm" />
		<tag k="ssr:stedsnr" v="676558" />
	</node>
	<node id="-493891" lat="60.8027444461" lon="5.26466111786">
		<tag k="name" v="Trædsdalen" />
		<tag k="place" v="isolated_dwelling" />
		<tag k="ssr:stedsnr" v="918708" />
	</node>
	<node id="-492000" lat="60.7688333335" lon="5.32991110262">
		<tag k="historic" v="shieling" />
		<tag k="name" v="Setret" />
		<tag k="place" v="locality" />
		<tag k="ssr:stedsnr" v="385347" />
	</node>
	<node id="-491838" lat="60.8992166695" lon="5.51605833997">
		<tag k="name" v="Rimmane" />
		<tag k="place" v="farm" />
		<tag k="ssr:stedsnr" v="324737" />
	</node>
	<node id="-493373" lat="60.824695148" lon="5.57232784127">
		<tag k="fixme" v="consider place=hamlet" />
		<tag k="name" v="Haukeland" />
		<tag k="place" v="farm" />
		<tag k="ssr:stedsnr" v="676397" />
	</node>
	<node id="-492345" lat="60.8881496883" lon="5.22415556423">
		<tag k="fixme" v="consider place=hamlet" />
		<tag k="name" v="Store Sleire" />
		<tag k="place" v="farm" />
		<tag k="ssr:stedsnr" v="129942" />
	</node>
	<node id="-493880" lat="60.7110011871" lon="5.42549813488">
		<tag k="fixme" v="consider place=hamlet" />
		<tag k="name" v="Eikebotnen" />
		<tag k="place" v="farm" />
		<tag k="ssr:stedsnr" v="916196" />
	</node>
	<node id="-493879" lat="60.7164308445" lon="5.41446561159">
		<tag k="fixme" v="consider place=hamlet" />
		<tag k="name" v="Einestranda" />
		<tag k="place" v="farm" />
		<tag k="ssr:stedsnr" v="916197" />
	</node>
	<node id="-493878" lat="60.7867879109" lon="5.21979484961">
		<tag k="name" v="Raunøyna" />
		<tag k="place" v="farm" />
		<tag k="ssr:stedsnr" v="901362" />
	</node>
	<node id="-492341" lat="60.8823833293" lon="5.38721944829">
		<tag k="name" v="Fossheim" />
		<tag k="place" v="farm" />
		<tag k="ssr:stedsnr" v="129989" />
	</node>
	<node id="-492851" lat="60.8292722225" lon="5.52859721681">
		<tag k="historic" v="shieling" />
		<tag k="name" v="Stølane" />
		<tag k="place" v="locality" />
		<tag k="ssr:stedsnr" v="445600" />
	</node>
	<node id="-492339" lat="60.8714083371" lon="5.20592499106">
		<tag k="name" v="Brudal" />
		<tag k="place" v="farm" />
		<tag k="ssr:stedsnr" v="129966" />
	</node>
	<node id="-493357" lat="60.9638583318" lon="5.74936110347">
		<tag k="historic" v="shieling" />
		<tag k="name" v="Bukkedalsstølen" />
		<tag k="place" v="locality" />
		<tag k="ssr:stedsnr" v="676283" />
	</node>
	<node id="-492935" lat="60.8277666628" lon="5.41390833034">
		<tag k="historic" v="shieling" />
		<tag k="name" v="Florstræet" />
		<tag k="place" v="locality" />
		<tag k="ssr:stedsnr" v="494567" />
	</node>
	<node id="-493350" lat="60.9075777802" lon="5.39984722508">
		<tag k="historic" v="shieling" />
		<tag k="name" v="Øvre Fossdalsstølen" />
		<tag k="place" v="locality" />
		<tag k="ssr:stedsnr" v="675930" />
	</node>
	<node id="-493916" lat="60.8361564985" lon="5.36544263645">
		<tag k="fixme" v="consider place=hamlet" />
		<tag k="name" v="Ådnekvamme" />
		<tag k="place" v="farm" />
		<tag k="ssr:stedsnr" v="919557" />
	</node>
	<node id="-493346" lat="60.8328249985" lon="5.30913888765">
		<tag k="name" v="Eidet" />
		<tag k="place" v="isolated_dwelling" />
		<tag k="ssr:stedsnr" v="675580" />
	</node>
	<node id="-492080" lat="60.8713499992" lon="5.29988333542">
		<tag k="name" v="Mollandsstølen" />
		<tag k="place" v="locality" />
		<tag k="ssr:stedsnr" v="8982" />
	</node>
	<node id="-492318" lat="60.7459416649" lon="5.37362499264">
		<tag k="name" v="Solbakken" />
		<tag k="place" v="farm" />
		<tag k="ssr:stedsnr" v="127705" />
	</node>
	<node id="-493853" lat="60.920525004" lon="5.49947500591">
		<tag k="historic" v="shieling" />
		<tag k="name" v="Stølen" />
		<tag k="place" v="locality" />
		<tag k="ssr:stedsnr" v="870537" />
	</node>
	<node id="-493340" lat="60.7114086805" lon="5.44233057138">
		<tag k="fixme" v="consider place=hamlet" />
		<tag k="name" v="Kjekallen" />
		<tag k="place" v="farm" />
		<tag k="ssr:stedsnr" v="673192" />
	</node>
	<node id="-493337" lat="60.8235361129" lon="5.17153611656">
		<tag k="name" v="Haugsøyna" />
		<tag k="place" v="farm" />
		<tag k="ssr:stedsnr" v="658372" />
	</node>
	<node id="-492306" lat="60.8891805546" lon="5.4684694377">
		<tag k="fixme" v="consider place=hamlet" />
		<tag k="name" v="Solheim" />
		<tag k="place" v="farm" />
		<tag k="ssr:stedsnr" v="82712" />
	</node>
	<node id="-493329" lat="60.8456833352" lon="5.17872222779">
		<tag k="name" v="Hellevika" />
		<tag k="place" v="farm" />
		<tag k="ssr:stedsnr" v="631654" />
	</node>
	<node id="-493840" lat="60.7700555513" lon="5.30230554827">
		<tag k="historic" v="shieling" />
		<tag k="name" v="Vallestølen" />
		<tag k="place" v="locality" />
		<tag k="ssr:stedsnr" v="870387" />
	</node>
	<node id="-493327" lat="60.8004891175" lon="5.30558929403">
		<tag k="fixme" v="consider place=hamlet" />
		<tag k="name" v="Masfjordnes" />
		<tag k="place" v="village" />
		<tag k="ssr:stedsnr" v="631165" />
	</node>
	<node id="-492589" lat="60.8829361067" lon="5.21208611229">
		<tag k="name" v="Fagrevika" />
		<tag k="place" v="farm" />
		<tag k="ssr:stedsnr" v="203697" />
	</node>
	<node id="-491784" lat="60.8549704559" lon="5.20125651052">
		<tag k="fixme" v="consider place=hamlet" />
		<tag k="name" v="Torsvika" />
		<tag k="place" v="farm" />
		<tag k="ssr:stedsnr" v="312535" />
	</node>
	<node id="-492806" lat="60.8931111123" lon="5.28708055656">
		<tag k="name" v="Lindebotnen" />
		<tag k="place" v="farm" />
		<tag k="ssr:stedsnr" v="433956" />
	</node>
	<node id="-493317" lat="60.9034888881" lon="5.51611389099">
		<tag k="name" v="Vollen" />
		<tag k="place" v="farm" />
		<tag k="ssr:stedsnr" v="627752" />
	</node>
	<node id="-491779" lat="60.831924677" lon="5.52698914502">
		<tag k="fixme" v="consider place=hamlet" />
		<tag k="name" v="Kjetland" />
		<tag k="place" v="farm" />
		<tag k="ssr:stedsnr" v="312409" />
	</node>
	<node id="-491776" lat="60.8326249962" lon="5.6117750091">
		<tag k="historic" v="shieling" />
		<tag k="name" v="Haukelandssetret" />
		<tag k="place" v="locality" />
		<tag k="ssr:stedsnr" v="312390" />
	</node>
	<node id="-492798" lat="60.912914257" lon="5.46440132892">
		<tag k="fixme" v="consider place=hamlet" />
		<tag k="name" v="Kalhovda" />
		<tag k="place" v="farm" />
		<tag k="ssr:stedsnr" v="433918" />
	</node>
	<node id="-492283" lat="60.9128694454" lon="5.61893332565">
		<tag k="historic" v="shieling" />
		<tag k="name" v="Hyttemarkstølen" />
		<tag k="place" v="locality" />
		<tag k="ssr:stedsnr" v="81856" />
	</node>
	<node id="-493818" lat="60.8994805562" lon="5.28506944622">
		<tag k="historic" v="shieling" />
		<tag k="name" v="Dyrebotssetra" />
		<tag k="place" v="locality" />
		<tag k="ssr:stedsnr" v="858954" />
	</node>
	<node id="-492793" lat="60.7560471594" lon="5.33053292283">
		<tag k="fixme" v="consider place=hamlet" />
		<tag k="name" v="Hope" />
		<tag k="place" v="farm" />
		<tag k="ssr:stedsnr" v="433732" />
	</node>
	<node id="-492054" lat="60.8005333321" lon="5.43667777306">
		<tag k="name" v="Nørlandssetret" />
		<tag k="place" v="isolated_dwelling" />
		<tag k="ssr:stedsnr" v="8666" />
	</node>
	<node id="-493813" lat="60.7677223992" lon="5.34832280509">
		<tag k="fixme" v="consider place=hamlet" />
		<tag k="name" v="Mjanger" />
		<tag k="place" v="farm" />
		<tag k="ssr:stedsnr" v="858753" />
	</node>
	<node id="-491763" lat="60.9036083316" lon="5.25710555868">
		<tag k="name" v="Grava" />
		<tag k="place" v="locality" />
		<tag k="ssr:stedsnr" v="311947" />
	</node>
	<node id="-491760" lat="60.9081238452" lon="5.29830628408">
		<tag k="fixme" v="consider place=hamlet" />
		<tag k="name" v="Byrkjeland" />
		<tag k="place" v="farm" />
		<tag k="ssr:stedsnr" v="311940" />
	</node>
	<node id="-492782" lat="60.7897500042" lon="5.33285277781">
		<tag k="name" v="Sandnessetret" />
		<tag k="place" v="isolated_dwelling" />
		<tag k="ssr:stedsnr" v="433654" />
	</node>
	<node id="-492781" lat="60.7969904863" lon="5.26264592906">
		<tag k="fixme" v="consider place=hamlet" />
		<tag k="name" v="Arekletten" />
		<tag k="place" v="farm" />
		<tag k="ssr:stedsnr" v="433642" />
	</node>
	<node id="-492780" lat="60.8041833371" lon="5.26833332563">
		<tag k="name" v="Strandheim" />
		<tag k="place" v="farm" />
		<tag k="ssr:stedsnr" v="433640" />
	</node>
	<node id="-492779" lat="60.8186111105" lon="5.36320556386">
		<tag k="name" v="Breimyra" />
		<tag k="place" v="farm" />
		<tag k="ssr:stedsnr" v="433601" />
	</node>
	<node id="-492778" lat="60.8175499969" lon="5.27259167009">
		<tag k="name" v="Vikedalen" />
		<tag k="place" v="farm" />
		<tag k="ssr:stedsnr" v="433593" />
	</node>
	<node id="-492653" lat="60.7552555547" lon="5.30872499328">
		<tag k="name" v="Elvikesetret" />
		<tag k="place" v="farm" />
		<tag k="ssr:stedsnr" v="251752" />
	</node>
	<node id="-492326" lat="60.912613243" lon="5.51894860256">
		<tag k="fixme" v="consider place=hamlet" />
		<tag k="name" v="Vågset" />
		<tag k="place" v="farm" />
		<tag k="ssr:stedsnr" v="129368" />
	</node>
	<node id="-493794" lat="60.8453977096" lon="5.36870373636">
		<tag k="fixme" v="consider place=hamlet" />
		<tag k="name" v="Skjeggedalen" />
		<tag k="place" v="farm" />
		<tag k="ssr:stedsnr" v="858580" />
	</node>
	<node id="-493792" lat="60.8352416635" lon="5.2583055474">
		<tag k="name" v="Hosteland" />
		<tag k="place" v="hamlet" />
		<tag k="ssr:stedsnr" v="858570" />
	</node>
	<node id="-492253" lat="60.7431555554" lon="5.39570832767">
		<tag k="name" v="Storemyra" />
		<tag k="place" v="farm" />
		<tag k="ssr:stedsnr" v="81326" />
	</node>
	<node id="-493787" lat="60.8767244198" lon="5.34477809654">
		<tag k="historic" v="shieling" />
		<tag k="name" v="Bergsviksetra" />
		<tag k="place" v="locality" />
		<tag k="ssr:stedsnr" v="858531" />
	</node>
	<node id="-492762" lat="60.9549500047" lon="5.61035000618">
		<tag k="historic" v="shieling" />
		<tag k="name" v="Vågsetstølen" />
		<tag k="place" v="locality" />
		<tag k="ssr:stedsnr" v="433293" />
	</node>
	<node id="-492249" lat="60.8127083336" lon="5.33566389709">
		<tag k="historic" v="shieling" />
		<tag k="name" v="Tostølen" />
		<tag k="place" v="locality" />
		<tag k="ssr:stedsnr" v="81299" />
	</node>
	<node id="-493784" lat="60.8518695123" lon="5.51225010654">
		<tag k="fixme" v="consider place=hamlet" />
		<tag k="name" v="Haugsdal" />
		<tag k="place" v="farm" />
		<tag k="ssr:stedsnr" v="858441" />
	</node>
	<node id="-492247" lat="60.7093166688" lon="5.44814165903">
		<tag k="historic" v="shieling" />
		<tag k="name" v="Stølane" />
		<tag k="place" v="locality" />
		<tag k="ssr:stedsnr" v="81288" />
	</node>
	<node id="-493781" lat="60.9068831096" lon="5.52342691994">
		<tag k="fixme" v="consider place=hamlet" />
		<tag k="name" v="Haugsvær" />
		<tag k="place" v="farm" />
		<tag k="ssr:stedsnr" v="858378" />
	</node>
	<node id="-492756" lat="60.7866111092" lon="5.21965555583">
		<tag k="name" v="Raunøyna" />
		<tag k="place" v="farm" />
		<tag k="ssr:stedsnr" v="416321" />
	</node>
	<node id="-492241" lat="60.8733055554" lon="5.20348333657">
		<tag k="name" v="Nordvang" />
		<tag k="place" v="farm" />
		<tag k="ssr:stedsnr" v="69994" />
	</node>
	<node id="-492240" lat="60.8865868619" lon="5.3121155193">
		<tag k="fixme" v="consider place=hamlet" />
		<tag k="name" v="Kvamsdalen" />
		<tag k="place" v="farm" />
		<tag k="ssr:stedsnr" v="69988" />
	</node>
	<node id="-493005" lat="60.8439527801" lon="5.21265277496">
		<tag k="historic" v="shieling" />
		<tag k="name" v="Stølen" />
		<tag k="place" v="locality" />
		<tag k="ssr:stedsnr" v="506624" />
	</node>
	<node id="-492747" lat="60.889116666" lon="5.587136108">
		<tag k="historic" v="shieling" />
		<tag k="name" v="Holmane" />
		<tag k="place" v="locality" />
		<tag k="ssr:stedsnr" v="263842" />
	</node>
	<node id="-492234" lat="60.9109277807" lon="5.3159388826">
		<tag k="name" v="Leitet" />
		<tag k="place" v="locality" />
		<tag k="ssr:stedsnr" v="69937" />
	</node>
	<node id="-492228" lat="60.7861528033" lon="5.21881290026">
		<tag k="name" v="Tjørevikhogen" />
		<tag k="place" v="farm" />
		<tag k="ssr:stedsnr" v="69708" />
	</node>
	<node id="-492222" lat="60.8220619238" lon="5.38577793532">
		<tag k="fixme" v="consider place=hamlet" />
		<tag k="name" v="Nørland" />
		<tag k="place" v="farm" />
		<tag k="ssr:stedsnr" v="69661" />
	</node>
	<node id="-491893" lat="60.9219248922" lon="5.54288619272">
		<tag k="fixme" v="consider place=hamlet" />
		<tag k="name" v="Hope" />
		<tag k="place" v="farm" />
		<tag k="ssr:stedsnr" v="372278" />
	</node>
	<node id="-493238" lat="60.7771515925" lon="5.27900184111">
		<tag k="fixme" v="consider place=hamlet" />
		<tag k="name" v="Kvamme" />
		<tag k="place" v="farm" />
		<tag k="ssr:stedsnr" v="615673" />
	</node>
	<node id="-492725" lat="60.8535722188" lon="5.20531666173">
		<tag k="name" v="Stølsneset" />
		<tag k="place" v="farm" />
		<tag k="ssr:stedsnr" v="263653" />
	</node>
	<node id="-491806" lat="60.8891859563" lon="5.41507466675">
		<tag k="fixme" v="consider place=hamlet" />
		<tag k="name" v="Eikemo" />
		<tag k="place" v="farm" />
		<tag k="ssr:stedsnr" v="312993" />
	</node>
	<node id="-492207" lat="60.8317583291" lon="5.55961945401">
		<tag k="name" v="Fosshaugen" />
		<tag k="place" v="farm" />
		<tag k="ssr:stedsnr" v="69420" />
	</node>
	<node id="-493282" lat="60.7846444447" lon="5.38200832699">
		<tag k="historic" v="shieling" />
		<tag k="name" v="Giljestølane" />
		<tag k="place" v="locality" />
		<tag k="ssr:stedsnr" v="627469" />
	</node>
	<node id="-492716" lat="60.8335222253" lon="5.52972222094">
		<tag k="historic" v="shieling" />
		<tag k="name" v="Stølen" />
		<tag k="place" v="locality" />
		<tag k="ssr:stedsnr" v="263598" />
	</node>
	<node id="-493224" lat="60.8416111149" lon="5.2512249916">
		<tag k="name" v="Ålevollane" />
		<tag k="place" v="farm" />
		<tag k="ssr:stedsnr" v="615552" />
	</node>
	<node id="-493223" lat="60.8435000036" lon="5.20495555036">
		<tag k="name" v="Straumsvika" />
		<tag k="place" v="farm" />
		<tag k="ssr:stedsnr" v="615538" />
	</node>
	<node id="-493734" lat="60.9003027797" lon="5.54736388844">
		<tag k="historic" v="shieling" />
		<tag k="name" v="Søsetret" />
		<tag k="place" v="locality" />
		<tag k="ssr:stedsnr" v="809709" />
	</node>
	<node id="-493789" lat="60.8395333296" lon="5.20947500407">
		<tag k="name" v="Fagrevika" />
		<tag k="place" v="farm" />
		<tag k="ssr:stedsnr" v="858560" />
	</node>
	<node id="-492196" lat="60.9259638923" lon="5.71810000129">
		<tag k="historic" v="shieling" />
		<tag k="name" v="Fagerdalssetret" />
		<tag k="place" v="locality" />
		<tag k="ssr:stedsnr" v="69279" />
	</node>
	<node id="-493219" lat="60.8494305564" lon="5.1837333252">
		<tag k="name" v="Rambjørgsvika" />
		<tag k="place" v="farm" />
		<tag k="ssr:stedsnr" v="615522" />
	</node>
	<node id="-493215" lat="60.8644950882" lon="5.21394266832">
		<tag k="fixme" v="consider place=hamlet" />
		<tag k="name" v="Frøyset" />
		<tag k="place" v="farm" />
		<tag k="ssr:stedsnr" v="615500" />
	</node>
	<node id="-493725" lat="60.8270111116" lon="5.56699722153">
		<tag k="name" v="Stigen" />
		<tag k="place" v="farm" />
		<tag k="ssr:stedsnr" v="809621" />
	</node>
	<node id="-492187" lat="60.7377277742" lon="5.43053610282">
		<tag k="historic" v="shieling" />
		<tag k="name" v="Sørkvingesetra" />
		<tag k="place" v="locality" />
		<tag k="ssr:stedsnr" v="66598" />
	</node>
	<node id="-493722" lat="60.8336749992" lon="5.52078333965">
		<tag k="fixme" v="consider place=hamlet" />
		<tag k="name" v="Tverrbjørg" />
		<tag k="place" v="farm" />
		<tag k="ssr:stedsnr" v="809605" />
	</node>
	<node id="-493167" lat="60.9030027746" lon="5.52026945345">
		<tag k="name" v="Leitet" />
		<tag k="place" v="farm" />
		<tag k="ssr:stedsnr" v="567718" />
	</node>
	<node id="-493208" lat="60.8138611068" lon="5.53591666266">
		<tag k="historic" v="shieling" />
		<tag k="name" v="Dalesetret" />
		<tag k="place" v="locality" />
		<tag k="ssr:stedsnr" v="615349" />
	</node>
	<node id="-493207" lat="60.9108329215" lon="5.63193108376">
		<tag k="fixme" v="consider place=hamlet" />
		<tag k="name" v="Fossen" />
		<tag k="place" v="farm" />
		<tag k="ssr:stedsnr" v="615345" />
	</node>
	<node id="-493213" lat="60.8625522284" lon="5.17172158416">
		<tag k="fixme" v="consider place=hamlet" />
		<tag k="name" v="Rambjørg" />
		<tag k="place" v="farm" />
		<tag k="ssr:stedsnr" v="615485" />
	</node>
	<node id="-492690" lat="60.794213887" lon="5.31134167306">
		<tag k="historic" v="shieling" />
		<tag k="name" v="Setsstølen" />
		<tag k="place" v="locality" />
		<tag k="ssr:stedsnr" v="263370" />
	</node>
	<node id="-493200" lat="60.8767552588" lon="5.54105341673">
		<tag k="fixme" v="consider place=hamlet" />
		<tag k="name" v="Trodalen" />
		<tag k="place" v="farm" />
		<tag k="ssr:stedsnr" v="615309" />
	</node>
	<node id="-493198" lat="60.8742777795" lon="5.58263332417">
		<tag k="name" v="Matre" />
		<tag k="place" v="hamlet" />
		<tag k="ssr:stedsnr" v="615293" />
	</node>
	<node id="-493709" lat="60.8727250009" lon="5.33265832587">
		<tag k="historic" v="shieling" />
		<tag k="name" v="Gamlesetra" />
		<tag k="place" v="locality" />
		<tag k="ssr:stedsnr" v="809420" />
	</node>
	<node id="-493194" lat="60.9535944429" lon="5.7185750048">
		<tag k="fixme" v="consider tourism=alpine_hut or tourism=chalet" />
		<tag k="name" v="Stordalen Fjellstove" />
		<tag k="old_name" v="Stordalen fjellstue" />
		<tag k="ssr:stedsnr" v="615239" />
		<tag k="tourism" v="wilderness_hut" />
	</node>
	<node id="-493193" lat="60.9289277766" lon="5.60766666393">
		<tag k="historic" v="shieling" />
		<tag k="name" v="Hopsstølen" />
		<tag k="place" v="locality" />
		<tag k="ssr:stedsnr" v="615237" />
	</node>
	<node id="-493190" lat="60.9321861101" lon="5.57563055148">
		<tag k="historic" v="shieling" />
		<tag k="name" v="Røyrfiten" />
		<tag k="place" v="locality" />
		<tag k="ssr:stedsnr" v="615230" />
	</node>
	<node id="-493189" lat="60.9348055556" lon="5.67941667147">
		<tag k="historic" v="shieling" />
		<tag k="name" v="Fossestølen" />
		<tag k="place" v="locality" />
		<tag k="ssr:stedsnr" v="615231" />
	</node>
	<node id="-493187" lat="60.9177486935" lon="5.45078526245">
		<tag k="historic" v="shieling" />
		<tag k="name" v="Kalhovdasetra" />
		<tag k="place" v="locality" />
		<tag k="ssr:stedsnr" v="614940" />
	</node>
	<node id="-492671" lat="60.8820000009" lon="5.38961944348">
		<tag k="name" v="Solhaug" />
		<tag k="place" v="farm" />
		<tag k="ssr:stedsnr" v="251996" />
	</node>
	<node id="-493182" lat="60.8397888926" lon="5.30801388089">
		<tag k="name" v="Gildreneset" />
		<tag k="place" v="locality" />
		<tag k="ssr:stedsnr" v="614586" />
	</node>
	<node id="-493181" lat="60.8341111083" lon="5.25920556423">
		<tag k="name" v="Vonheim" />
		<tag k="place" v="farm" />
		<tag k="ssr:stedsnr" v="614581" />
	</node>
	<node id="-493691" lat="60.8754694433" lon="5.21263055635">
		<tag k="name" v="Dalset" />
		<tag k="place" v="farm" />
		<tag k="ssr:stedsnr" v="797999" />
	</node>
	<node id="-493310" lat="60.8458611069" lon="5.16483333405">
		<tag k="name" v="Øvrebotnen" />
		<tag k="place" v="farm" />
		<tag k="ssr:stedsnr" v="627690" />
	</node>
	<node id="-493689" lat="60.8738277772" lon="5.21403610617">
		<tag k="name" v="Kjerdal" />
		<tag k="place" v="farm" />
		<tag k="ssr:stedsnr" v="797964" />
	</node>
	<node id="-493683" lat="60.8958825105" lon="5.38203541321">
		<tag k="fixme" v="consider place=hamlet" />
		<tag k="name" v="Fossdalen" />
		<tag k="place" v="farm" />
		<tag k="ssr:stedsnr" v="797925" />
	</node>
	<node id="-492656" lat="60.7520264636" lon="5.3787157788">
		<tag k="fixme" v="consider place=hamlet" />
		<tag k="name" v="Nordkvingo" />
		<tag k="place" v="farm" />
		<tag k="ssr:stedsnr" v="251777" />
	</node>
	<node id="-493679" lat="60.9135999972" lon="5.2200888894">
		<tag k="name" v="Dalen" />
		<tag k="place" v="isolated_dwelling" />
		<tag k="ssr:stedsnr" v="797878" />
	</node>
	<node id="-493166" lat="60.9047750016" lon="5.52368611431">
		<tag k="name" v="Haugsvær" />
		<tag k="place" v="farm" />
		<tag k="ssr:stedsnr" v="567675" />
	</node>
	<node id="-493677" lat="60.7646944458" lon="5.38794444656">
		<tag k="name" v="Fredheim" />
		<tag k="place" v="farm" />
		<tag k="ssr:stedsnr" v="797723" />
	</node>
	<node id="-493675" lat="60.7959666675" lon="5.46236666393">
		<tag k="historic" v="shieling" />
		<tag k="name" v="Ådnekvamssetret" />
		<tag k="place" v="locality" />
		<tag k="ssr:stedsnr" v="797703" />
	</node>
	<node id="-492138" lat="60.8459888894" lon="5.27326110376">
		<tag k="historic" v="shieling" />
		<tag k="name" v="Stølane" />
		<tag k="place" v="locality" />
		<tag k="ssr:stedsnr" v="21396" />
	</node>
	<node id="-493673" lat="60.779847222" lon="5.41148055663">
		<tag k="historic" v="shieling" />
		<tag k="name" v="Øvsta Kvingedalssetret" />
		<tag k="place" v="locality" />
		<tag k="ssr:stedsnr" v="797685" />
	</node>
	<node id="-493160" lat="60.8755999963" lon="5.59265833312">
		<tag k="name" v="Stien" />
		<tag k="place" v="farm" />
		<tag k="ssr:stedsnr" v="566886" />
	</node>
	<node id="-492049" lat="60.8391500039" lon="5.25679444078">
		<tag k="name" v="Hogen" />
		<tag k="place" v="farm" />
		<tag k="ssr:stedsnr" v="8584" />
	</node>
	<node id="-493664" lat="60.8349802032" lon="5.32465472522">
		<tag k="fixme" v="consider place=hamlet" />
		<tag k="name" v="Rekneset" />
		<tag k="place" v="farm" />
		<tag k="ssr:stedsnr" v="797584" />
	</node>
	<node id="-493663" lat="60.8369646844" lon="5.25935859707">
		<tag k="fixme" v="consider place=hamlet" />
		<tag k="name" v="Hosteland" />
		<tag k="place" v="farm" />
		<tag k="ssr:stedsnr" v="797582" />
	</node>
	<node id="-492634" lat="60.8582944465" lon="5.20730278285">
		<tag k="name" v="Rusta" />
		<tag k="place" v="farm" />
		<tag k="ssr:stedsnr" v="251532" />
	</node>
	<node id="-493655" lat="60.9004083347" lon="5.61171388129">
		<tag k="historic" v="shieling" />
		<tag k="name" v="Holene" />
		<tag k="place" v="locality" />
		<tag k="ssr:stedsnr" v="797344" />
	</node>
	<node id="-493654" lat="60.907847785" lon="5.67941063347">
		<tag k="fixme" v="consider place=hamlet" />
		<tag k="name" v="Kringlebotnen" />
		<tag k="place" v="farm" />
		<tag k="ssr:stedsnr" v="797336" />
	</node>
	<node id="-493652" lat="60.8880694435" lon="5.47164999197">
		<tag k="name" v="Solheim" />
		<tag k="place" v="hamlet" />
		<tag k="ssr:stedsnr" v="797323" />
	</node>
	<node id="-493139" lat="60.9065361127" lon="5.25259443689">
		<tag k="historic" v="shieling" />
		<tag k="name" v="Stølane" />
		<tag k="place" v="locality" />
		<tag k="ssr:stedsnr" v="566623" />
	</node>
	<node id="-492648" lat="60.8119805566" lon="5.38484443916">
		<tag k="name" v="Hovland" />
		<tag k="place" v="farm" />
		<tag k="ssr:stedsnr" v="251659" />
	</node>
	<node id="-492621" lat="60.8757293778" lon="5.57969340338">
		<tag k="fixme" v="consider place=hamlet" />
		<tag k="name" v="Storematre" />
		<tag k="place" v="farm" />
		<tag k="ssr:stedsnr" v="251347" />
	</node>
	<node id="-492329" lat="60.7999533803" lon="5.30107942877">
		<tag k="fixme" v="consider place=hamlet" />
		<tag k="name" v="Sandnes" />
		<tag k="place" v="farm" />
		<tag k="ssr:stedsnr" v="129645" />
	</node>
	<node id="-493129" lat="60.8526472246" lon="5.50970555438">
		<tag k="name" v="Træet" />
		<tag k="place" v="farm" />
		<tag k="ssr:stedsnr" v="566512" />
	</node>
	<node id="-492897" lat="60.7872833348" lon="5.22093610802">
		<tag k="name" v="Gamlegarden" />
		<tag k="place" v="isolated_dwelling" />
		<tag k="ssr:stedsnr" v="449179" />
	</node>
	<node id="-493178" lat="60.8460961178" lon="5.33510566748">
		<tag k="fixme" v="consider place=hamlet" />
		<tag k="name" v="Lauvvik" />
		<tag k="place" v="farm" />
		<tag k="ssr:stedsnr" v="614556" />
	</node>
	<node id="-492093" lat="60.8140076643" lon="5.3814930889">
		<tag k="fixme" v="consider place=hamlet" />
		<tag k="name" v="Andvika" />
		<tag k="place" v="farm" />
		<tag k="ssr:stedsnr" v="9626" />
	</node>
	<node id="-492639" lat="60.8484861072" lon="5.36285277101">
		<tag k="name" v="Lund" />
		<tag k="place" v="farm" />
		<tag k="ssr:stedsnr" v="251567" />
	</node>
	<node id="-493104" lat="60.8152027768" lon="5.26994999855">
		<tag k="fixme" v="consider place=hamlet" />
		<tag k="name" v="Holsøya" />
		<tag k="place" v="farm" />
		<tag k="ssr:stedsnr" v="566291" />
	</node>
	<node id="-492893" lat="60.9059416637" lon="5.5215277691">
		<tag k="name" v="Tufta" />
		<tag k="place" v="farm" />
		<tag k="ssr:stedsnr" v="446751" />
	</node>
	<node id="-492071" lat="60.8836777817" lon="5.23972499668">
		<tag k="name" v="Saghaugen" />
		<tag k="place" v="farm" />
		<tag k="ssr:stedsnr" v="8946" />
	</node>
	<node id="-492580" lat="60.8336611123" lon="5.51506666703">
		<tag k="name" v="Storemyr" />
		<tag k="place" v="farm" />
		<tag k="ssr:stedsnr" v="203578" />
	</node>
	<node id="-492579" lat="60.8382361134" lon="5.50586666217">
		<tag k="historic" v="shieling" />
		<tag k="name" v="Setstølen" />
		<tag k="place" v="locality" />
		<tag k="ssr:stedsnr" v="203574" />
	</node>
	<node id="-492066" lat="60.764324996" lon="5.43290000008">
		<tag k="historic" v="shieling" />
		<tag k="name" v="Nordkvingesetret" />
		<tag k="place" v="locality" />
		<tag k="ssr:stedsnr" v="8757" />
	</node>
	<node id="-492805" lat="60.9037051484" lon="5.41048052247">
		<tag k="historic" v="shieling" />
		<tag k="name" v="Eikemosetra" />
		<tag k="place" v="locality" />
		<tag k="ssr:stedsnr" v="433950" />
	</node>
	<node id="-493083" lat="60.7586969216" lon="5.29184481659">
		<tag k="fixme" v="consider place=hamlet" />
		<tag k="name" v="Elvika" />
		<tag k="place" v="farm" />
		<tag k="ssr:stedsnr" v="554764" />
	</node>
	<node id="-492568" lat="60.7744527803" lon="5.46359166866">
		<tag k="historic" v="shieling" />
		<tag k="name" v="Kleivsetret" />
		<tag k="place" v="locality" />
		<tag k="ssr:stedsnr" v="203482" />
	</node>
	<node id="-493078" lat="60.7714889312" lon="5.38672213152">
		<tag k="fixme" v="consider place=hamlet" />
		<tag k="name" v="Kvingedalen" />
		<tag k="place" v="farm" />
		<tag k="ssr:stedsnr" v="554734" />
	</node>
	<node id="-493230" lat="60.824758192" lon="5.38203303381">
		<tag k="fixme" v="consider place=hamlet" />
		<tag k="name" v="Totland" />
		<tag k="place" v="farm" />
		<tag k="ssr:stedsnr" v="615579" />
	</node>
	<node id="-493585" lat="60.7227944403" lon="5.43469721922">
		<tag k="historic" v="shieling" />
		<tag k="name" v="Einestrandsetret" />
		<tag k="place" v="locality" />
		<tag k="ssr:stedsnr" v="749297" />
	</node>
	<node id="-492047" lat="60.8624619298" lon="5.39112400234">
		<tag k="fixme" v="consider place=hamlet" />
		<tag k="name" v="Stigalvika" />
		<tag k="place" v="farm" />
		<tag k="ssr:stedsnr" v="8543" />
	</node>
	<node id="-492461" lat="60.8624194405" lon="5.39054444305">
		<tag k="name" v="Stigalvika" />
		<tag k="place" v="farm" />
		<tag k="ssr:stedsnr" v="173326" />
	</node>
	<node id="-492015" lat="60.7546777754" lon="5.3234694404">
		<tag k="name" v="Solberg" />
		<tag k="place" v="farm" />
		<tag k="ssr:stedsnr" v="388155" />
	</node>
	<node id="-493067" lat="60.8294861129" lon="5.33315555562">
		<tag k="name" v="Skjerjebu" />
		<tag k="place" v="isolated_dwelling" />
		<tag k="ssr:stedsnr" v="554629" />
	</node>
	<node id="-492042" lat="60.8100027774" lon="5.53958888623">
		<tag k="name" v="Storemyr" />
		<tag k="place" v="farm" />
		<tag k="ssr:stedsnr" v="8439" />
	</node>
	<node id="-492041" lat="60.8257416712" lon="5.48441667261">
		<tag k="historic" v="shieling" />
		<tag k="name" v="Haugsdalssetret" />
		<tag k="place" v="locality" />
		<tag k="ssr:stedsnr" v="8421" />
	</node>
	<node id="-493064" lat="60.8377888872" lon="5.33357499215">
		<tag k="name" v="Soltun" />
		<tag k="place" v="farm" />
		<tag k="ssr:stedsnr" v="554611" />
	</node>
	<node id="-492038" lat="60.9115499972" lon="5.52558056033">
		<tag k="name" v="Juvika" />
		<tag k="place" v="farm" />
		<tag k="ssr:stedsnr" v="8388" />
	</node>
	<node id="-492035" lat="60.9513499992" lon="5.6827555479">
		<tag k="name" v="Persstova" />
		<tag k="place" v="isolated_dwelling" />
		<tag k="ssr:stedsnr" v="8323" />
	</node>
	<node id="-491793" lat="60.8328361126" lon="5.41766666063">
		<tag k="name" v="Åsheim" />
		<tag k="place" v="farm" />
		<tag k="ssr:stedsnr" v="312592" />
	</node>
</osm>
