<?xml version="1.0" encoding="UTF-8"?>
<osm version="0.6" generator="osmapis">
	<node lat="62.678709916688" lon="8.161099080104643" id="-4800">
		<tag k="alt_name" v="Grandsætra" />
		<tag k="fixme" v="consider place=hamlet" />
		<tag k="name" v="Grandsetra" />
		<tag k="place" v="farm" />
		<tag k="ssr:stedsnr" v="11288" />
	</node>
	<node lat="62.786523490747605" lon="8.128720484483075" id="-4804">
		<tag k="fixme" v="consider place=hamlet" />
		<tag k="name" v="Myrset" />
		<tag k="place" v="farm" />
		<tag k="ssr:stedsnr" v="11601" />
	</node>
	<node lat="62.72751389225478" lon="7.318108337378007" id="-4810">
		<tag k="name" v="Sandvikbøen" />
		<tag k="place" v="farm" />
		<tag k="ssr:stedsnr" v="11820" />
	</node>
	<node lat="62.69422956312908" lon="7.4059509119314075" id="-4813">
		<tag k="fixme" v="consider place=hamlet" />
		<tag k="name" v="Flovik" />
		<tag k="place" v="farm" />
		<tag k="ssr:stedsnr" v="11708" />
	</node>
	<node lat="62.73497499996758" lon="7.299561111496103" id="-4823">
		<tag k="name" v="Vardholmbukta" />
		<tag k="place" v="farm" />
		<tag k="ssr:stedsnr" v="12765" />
	</node>
	<node lat="62.746961107805205" lon="7.486561120006681" id="-4824">
		<tag k="name" v="Gjerdeplassen" />
		<tag k="place" v="farm" />
		<tag k="ssr:stedsnr" v="12769" />
	</node>
	<node lat="62.70748889065558" lon="6.928638881384196" id="-4839">
		<tag k="name" v="Jenset" />
		<tag k="place" v="farm" />
		<tag k="ssr:stedsnr" v="30566" />
	</node>
	<node lat="62.73906111201503" lon="6.8565666605723665" id="-4840">
		<tag k="name" v="Bjerkeland" />
		<tag k="place" v="farm" />
		<tag k="ssr:stedsnr" v="30520" />
	</node>
	<node lat="62.66270833350976" lon="7.3748888854221155" id="-4869">
		<tag k="name" v="Skaret" />
		<tag k="place" v="farm" />
		<tag k="ssr:stedsnr" v="35313" />
	</node>
	<node lat="62.72758888982315" lon="7.911527786461445" id="-4876">
		<tag k="name" v="Øverlia" />
		<tag k="place" v="farm" />
		<tag k="ssr:stedsnr" v="37010" />
	</node>
	<node lat="62.49094444325935" lon="8.14160832446524" id="-4877">
		<tag k="name" v="Mardalsbøen" />
		<tag k="place" v="farm" />
		<tag k="ssr:stedsnr" v="37011" />
	</node>
	<node lat="62.68339166340855" lon="8.178197225777001" id="-4878">
		<tag k="historic" v="shieling" />
		<tag k="name" v="Dokksetra" />
		<tag k="place" v="isolated_dwelling" />
		<tag k="ssr:stedsnr" v="37013" />
	</node>
	<node lat="62.748961114203226" lon="8.047536106779365" id="-4910">
		<tag k="name" v="Buktasetra" />
		<tag k="place" v="locality" />
		<tag k="ssr:stedsnr" v="38400" />
	</node>
	<node lat="62.748686107598786" lon="7.809441669947257" id="-4913">
		<tag k="name" v="Gammelstøa" />
		<tag k="place" v="farm" />
		<tag k="ssr:stedsnr" v="38703" />
	</node>
	<node lat="62.71858611336721" lon="8.127022219187785" id="-4914">
		<tag k="name" v="Øvre Hjellen" />
		<tag k="place" v="farm" />
		<tag k="ssr:stedsnr" v="38705" />
	</node>
	<node lat="62.77747221812575" lon="8.064338887761886" id="-4915">
		<tag k="name" v="Myra" />
		<tag k="place" v="farm" />
		<tag k="ssr:stedsnr" v="38693" />
	</node>
	<node lat="62.77496944864357" lon="8.04996110637668" id="-4916">
		<tag k="name" v="Sjølaupet" />
		<tag k="place" v="farm" />
		<tag k="ssr:stedsnr" v="38696" />
	</node>
	<node lat="62.74090000330396" lon="7.194497219230728" id="-4920">
		<tag k="name" v="Nedre Fuglset" />
		<tag k="place" v="isolated_dwelling" />
		<tag k="ssr:stedsnr" v="58825" />
	</node>
	<node lat="62.75436145753668" lon="7.308542201901317" id="-4938">
		<tag k="alt_name" v="Elgsås" />
		<tag k="fixme" v="consider place=hamlet" />
		<tag k="name" v="Elsås" />
		<tag k="place" v="farm" />
		<tag k="ssr:stedsnr" v="72805" />
	</node>
	<node lat="62.76069476693846" lon="7.370432394511136" id="-4940">
		<tag k="fixme" v="consider place=hamlet" />
		<tag k="name" v="Lønset" />
		<tag k="place" v="farm" />
		<tag k="ssr:stedsnr" v="72816" />
	</node>
	<node lat="62.685566668504066" lon="7.45482777265796" id="-4961">
		<tag k="name" v="Sølsnes" />
		<tag k="place" v="hamlet" />
		<tag k="ssr:stedsnr" v="83297" />
	</node>
	<node lat="62.732352779120596" lon="6.798213881619121" id="-4962">
		<tag k="name" v="Lunheim" />
		<tag k="place" v="farm" />
		<tag k="ssr:stedsnr" v="87684" />
	</node>
	<node lat="62.66585277728895" lon="6.595972226895014" id="-4966">
		<tag k="name" v="Nyheim" />
		<tag k="place" v="farm" />
		<tag k="ssr:stedsnr" v="91126" />
	</node>
	<node lat="62.70583611108329" lon="6.701700008518704" id="-4977">
		<tag k="name" v="Jogarden" />
		<tag k="place" v="farm" />
		<tag k="ssr:stedsnr" v="91606" />
	</node>
	<node lat="62.687738887657325" lon="7.465044441664392" id="-4985">
		<tag k="name" v="Gjerdet" />
		<tag k="place" v="farm" />
		<tag k="ssr:stedsnr" v="95206" />
	</node>
	<node lat="62.68572222500987" lon="7.470644446995106" id="-4986">
		<tag k="name" v="Breivika" />
		<tag k="place" v="farm" />
		<tag k="ssr:stedsnr" v="95207" />
	</node>
	<node lat="62.690705860965664" lon="7.4570033363238455" id="-4987">
		<tag k="fixme" v="consider place=hamlet" />
		<tag k="name" v="Vik" />
		<tag k="place" v="farm" />
		<tag k="ssr:stedsnr" v="95208" />
	</node>
	<node lat="62.798069443778466" lon="7.677997227905329" id="-4991">
		<tag k="name" v="Solheim" />
		<tag k="place" v="farm" />
		<tag k="ssr:stedsnr" v="95236" />
	</node>
	<node lat="62.829897224550415" lon="7.784055553848537" id="-5003">
		<tag k="name" v="Solligjerdet" />
		<tag k="place" v="farm" />
		<tag k="ssr:stedsnr" v="95164" />
	</node>
	<node lat="62.74270000023934" lon="6.993055546186836" id="-5008">
		<tag k="name" v="Gausetgjerdet" />
		<tag k="place" v="farm" />
		<tag k="ssr:stedsnr" v="95422" />
	</node>
	<node lat="62.76087777905839" lon="7.1513750019138005" id="-5010">
		<tag k="name" v="Skihytta" />
		<tag k="place" v="isolated_dwelling" />
		<tag k="ssr:stedsnr" v="95614" />
	</node>
	<node lat="62.74670555250297" lon="7.126688879705959" id="-5015">
		<tag k="historic" v="shieling" />
		<tag k="name" v="Hjertsetra" />
		<tag k="place" v="isolated_dwelling" />
		<tag k="ssr:stedsnr" v="95704" />
	</node>
	<node lat="62.7732888912429" lon="8.017099998619772" id="-5048">
		<tag k="name" v="Jordmorteigen" />
		<tag k="place" v="farm" />
		<tag k="ssr:stedsnr" v="98425" />
	</node>
	<node lat="62.71879722284635" lon="7.936122221554914" id="-5083">
		<tag k="name" v="Nedregardan" />
		<tag k="place" v="hamlet" />
		<tag k="ssr:stedsnr" v="98962" />
	</node>
	<node lat="62.67351388823645" lon="7.998825000160837" id="-5089">
		<tag k="name" v="Halsen" />
		<tag k="place" v="farm" />
		<tag k="ssr:stedsnr" v="132270" />
	</node>
	<node lat="62.691626056298524" lon="7.41597978798681" id="-5093">
		<tag k="fixme" v="consider place=hamlet" />
		<tag k="name" v="Flovikholmen" />
		<tag k="place" v="farm" />
		<tag k="ssr:stedsnr" v="132705" />
	</node>
	<node lat="62.7289416659175" lon="7.420822224250945" id="-5100">
		<tag k="fixme" v="consider place=hamlet" />
		<tag k="loc_name" v="Røvik" />
		<tag k="name" v="Røvika" />
		<tag k="place" v="village" />
		<tag k="ssr:stedsnr" v="132804" />
	</node>
	<node lat="62.73065277898061" lon="7.424666663982856" id="-5101">
		<tag k="name" v="Lauvåsen" />
		<tag k="place" v="farm" />
		<tag k="ssr:stedsnr" v="132805" />
	</node>
	<node lat="62.7302444459574" lon="7.322022215299682" id="-5102">
		<tag k="name" v="Torhaug" />
		<tag k="place" v="farm" />
		<tag k="ssr:stedsnr" v="132809" />
	</node>
	<node lat="62.4911138891827" lon="8.14187499317024" id="-5106">
		<tag k="name" v="Mardalen" />
		<tag k="place" v="farm" />
		<tag k="ssr:stedsnr" v="133060" />
	</node>
	<node lat="62.81600904575933" lon="7.7382548066364505" id="-5110">
		<tag k="fixme" v="consider place=hamlet" />
		<tag k="name" v="Øygarden" />
		<tag k="place" v="farm" />
		<tag k="ssr:stedsnr" v="133524" />
	</node>
	<node lat="62.75095789893032" lon="7.252794322382399" id="-5116">
		<tag k="fixme" v="consider place=hamlet" />
		<tag k="name" v="Eikrem" />
		<tag k="place" v="farm" />
		<tag k="ssr:stedsnr" v="133765" />
	</node>
	<node lat="62.69982777431848" lon="6.79103056314705" id="-5123">
		<tag k="name" v="Sømmehytta" />
		<tag k="place" v="isolated_dwelling" />
		<tag k="ssr:stedsnr" v="254042" />
	</node>
	<node lat="62.735381232580586" lon="7.10932698418912" id="-5124">
		<tag k="name" v="Stenrud" />
		<tag k="place" v="farm" />
		<tag k="ssr:stedsnr" v="254052" />
	</node>
	<node lat="62.71901589283965" lon="6.934006478623361" id="-5133">
		<tag k="fixme" v="consider place=hamlet" />
		<tag k="name" v="Solholmen" />
		<tag k="place" v="farm" />
		<tag k="ssr:stedsnr" v="254067" />
	</node>
	<node lat="62.569748859904976" lon="8.17884225501994" id="-5136">
		<tag k="fixme" v="consider place=hamlet" />
		<tag k="name" v="Vike" />
		<tag k="place" v="farm" />
		<tag k="ssr:stedsnr" v="254166" />
	</node>
	<node lat="62.67357039550213" lon="8.125784874943927" id="-5137">
		<tag k="alt_name" v="Fagerslett" />
		<tag k="fixme" v="consider place=hamlet" />
		<tag k="name" v="Fagersletta" />
		<tag k="place" v="farm" />
		<tag k="ssr:stedsnr" v="254238" />
	</node>
	<node lat="62.67086666734126" lon="8.006802772473264" id="-5138">
		<tag k="name" v="Hagen" />
		<tag k="place" v="farm" />
		<tag k="ssr:stedsnr" v="254246" />
	</node>
	<node lat="62.65763055989038" lon="8.039563891887568" id="-5139">
		<tag k="name" v="Fjellgarden" />
		<tag k="place" v="locality" />
		<tag k="ssr:stedsnr" v="254255" />
	</node>
	<node lat="62.735994444684636" lon="7.958866665096679" id="-5148">
		<tag k="historic" v="shieling" />
		<tag k="name" v="Øvregardsætra" />
		<tag k="place" v="isolated_dwelling" />
		<tag k="ssr:stedsnr" v="254444" />
	</node>
	<node lat="62.73506911856203" lon="7.7409587110267015" id="-5149">
		<tag k="fixme" v="consider place=hamlet" />
		<tag k="name" v="Åram" />
		<tag k="place" v="farm" />
		<tag k="ssr:stedsnr" v="254447" />
	</node>
	<node lat="62.734986003793075" lon="8.106801500222614" id="-5150">
		<tag k="fixme" v="consider place=hamlet" />
		<tag k="name" v="Hagbøen" />
		<tag k="place" v="farm" />
		<tag k="ssr:stedsnr" v="254448" />
	</node>
	<node lat="62.741191662354524" lon="7.75466943856612" id="-5155">
		<tag k="name" v="Stormyra" />
		<tag k="place" v="farm" />
		<tag k="ssr:stedsnr" v="254467" />
	</node>
	<node lat="62.7764421737142" lon="8.018866502597353" id="-5159">
		<tag k="fixme" v="consider place=hamlet" />
		<tag k="name" v="Klokkset" />
		<tag k="place" v="farm" />
		<tag k="ssr:stedsnr" v="254596" />
	</node>
	<node lat="62.745402780108925" lon="7.5463666759912105" id="-5162">
		<tag k="name" v="Bakkesetra" />
		<tag k="place" v="isolated_dwelling" />
		<tag k="ssr:stedsnr" v="254743" />
	</node>
	<node lat="62.72934166715057" lon="7.670355561121468" id="-5165">
		<tag k="historic" v="shieling" />
		<tag k="name" v="Buviksetra" />
		<tag k="place" v="isolated_dwelling" />
		<tag k="ssr:stedsnr" v="254768" />
	</node>
	<node lat="62.776179103425" lon="7.472142158578146" id="-5166">
		<tag k="fixme" v="consider place=hamlet" />
		<tag k="name" v="Mork" />
		<tag k="place" v="farm" />
		<tag k="ssr:stedsnr" v="254770" />
	</node>
	<node lat="62.77738753840285" lon="7.618805057477163" id="-5167">
		<tag k="fixme" v="consider place=hamlet" />
		<tag k="name" v="Kortgarden" />
		<tag k="place" v="farm" />
		<tag k="ssr:stedsnr" v="254772" />
	</node>
	<node lat="62.784831636594475" lon="7.531760447134106" id="-5168">
		<tag k="name" v="Vika" />
		<tag k="place" v="farm" />
		<tag k="ssr:stedsnr" v="254774" />
	</node>
	<node lat="62.726058328996196" lon="7.303908342706437" id="-5171">
		<tag k="name" v="Hals" />
		<tag k="place" v="farm" />
		<tag k="ssr:stedsnr" v="254792" />
	</node>
	<node lat="62.77181381748137" lon="7.446333942504661" id="-5174">
		<tag k="fixme" v="consider place=hamlet" />
		<tag k="name" v="Mjelve" />
		<tag k="place" v="farm" />
		<tag k="ssr:stedsnr" v="254766" />
	</node>
	<node lat="62.756207602180794" lon="7.326180123265417" id="-5175">
		<tag k="fixme" v="consider place=hamlet" />
		<tag k="name" v="Strande" />
		<tag k="place" v="farm" />
		<tag k="ssr:stedsnr" v="254828" />
	</node>
	<node lat="62.79537222006224" lon="7.625144453942531" id="-5183">
		<tag k="name" v="Geilen" />
		<tag k="place" v="farm" />
		<tag k="ssr:stedsnr" v="255780" />
	</node>
	<node lat="62.793313887988155" lon="7.526400001966711" id="-5189">
		<tag k="name" v="Flatmark" />
		<tag k="place" v="farm" />
		<tag k="ssr:stedsnr" v="255791" />
	</node>
	<node lat="62.705283673587" lon="6.91036041097113" id="-5194">
		<tag k="fixme" v="consider place=hamlet" />
		<tag k="name" v="Reiten" />
		<tag k="place" v="farm" />
		<tag k="ssr:stedsnr" v="148707" />
	</node>
	<node lat="62.66096389315219" lon="6.588213894074886" id="-5197">
		<tag k="name" v="Seberg" />
		<tag k="place" v="farm" />
		<tag k="ssr:stedsnr" v="151166" />
	</node>
	<node lat="62.730027781307946" lon="6.730036102620669" id="-5200">
		<tag k="name" v="Orvika" />
		<tag k="place" v="farm" />
		<tag k="ssr:stedsnr" v="151061" />
	</node>
	<node lat="62.75037030870164" lon="7.237226108584947" id="-5208">
		<tag k="name" v="Fannbostad" />
		<tag k="old_name" v="Indre Fanbostad;Ytre Fanbostad" />
		<tag k="place" v="locality" />
		<tag k="ssr:stedsnr" v="156168" />
	</node>
	<node lat="62.70656944869254" lon="6.926900003794342" id="-5269">
		<tag k="name" v="Hammarholen" />
		<tag k="place" v="isolated_dwelling" />
		<tag k="ssr:stedsnr" v="172658" />
	</node>
	<node lat="62.706598557765695" lon="6.737911289549815" id="-5274">
		<tag k="fixme" v="consider place=hamlet" />
		<tag k="name" v="Hole" />
		<tag k="place" v="farm" />
		<tag k="ssr:stedsnr" v="262332" />
	</node>
	<node lat="62.81320301982678" lon="7.715914648810883" id="-5286">
		<tag k="fixme" v="consider place=hamlet" />
		<tag k="name" v="Istad" />
		<tag k="place" v="farm" />
		<tag k="ssr:stedsnr" v="195736" />
	</node>
	<node lat="62.705025001497916" lon="6.702269446251219" id="-5298">
		<tag k="name" v="Trondgarden" />
		<tag k="place" v="farm" />
		<tag k="ssr:stedsnr" v="212593" />
	</node>
	<node lat="62.73512777553485" lon="6.838016665285147" id="-5300">
		<tag k="name" v="Garden" />
		<tag k="place" v="farm" />
		<tag k="ssr:stedsnr" v="213585" />
	</node>
	<node lat="62.742138887290444" lon="7.223797228927968" id="-5314">
		<tag k="alt_name" v="Nøysomhet" />
		<tag k="name" v="Nøisomhed" />
		<tag k="place" v="farm" />
		<tag k="ssr:stedsnr" v="217277" />
	</node>
	<node lat="62.82761110834964" lon="7.783169449416425" id="-5315">
		<tag k="name" v="Forhaugen" />
		<tag k="place" v="farm" />
		<tag k="ssr:stedsnr" v="217287" />
	</node>
	<node lat="62.697233333921226" lon="7.4243333389793325" id="-5330">
		<tag k="name" v="Saksegjerdet" />
		<tag k="place" v="quarter" />
		<tag k="ssr:stedsnr" v="217831" />
	</node>
	<node lat="62.79265600493082" lon="8.208162855707025" id="-5363">
		<tag k="fixme" v="consider place=hamlet" />
		<tag k="name" v="Bjerkholen" />
		<tag k="place" v="farm" />
		<tag k="ssr:stedsnr" v="220410" />
	</node>
	<node lat="62.80320833518489" lon="8.060958336374055" id="-5364">
		<tag k="historic" v="shieling" />
		<tag k="name" v="Hagasetra" />
		<tag k="place" v="isolated_dwelling" />
		<tag k="ssr:stedsnr" v="220476" />
	</node>
	<node lat="62.69988611029431" lon="6.791275008248752" id="-5409">
		<tag k="historic" v="shieling" />
		<tag k="name" v="Heggdalssetra" />
		<tag k="place" v="isolated_dwelling" />
		<tag k="ssr:stedsnr" v="455694" />
	</node>
	<node lat="62.68768055277078" lon="8.116772216955686" id="-5417">
		<tag k="name" v="Nauste" />
		<tag k="place" v="hamlet" />
		<tag k="ssr:stedsnr" v="254287" />
	</node>
	<node lat="62.72028055828547" lon="7.93282223139827" id="-5420">
		<tag k="fixme" v="consider place=hamlet" />
		<tag k="name" v="Myklebostad" />
		<tag k="place" v="village" />
		<tag k="ssr:stedsnr" v="254419" />
	</node>
	<node lat="62.77301947378154" lon="7.960109163073024" id="-5425">
		<tag k="fixme" v="consider place=hamlet" />
		<tag k="name" v="Rød" />
		<tag k="place" v="farm" />
		<tag k="ssr:stedsnr" v="254570" />
	</node>
	<node lat="62.696511112590315" lon="7.471102779608632" id="-5427">
		<tag k="name" v="Granli" />
		<tag k="place" v="isolated_dwelling" />
		<tag k="ssr:stedsnr" v="254683" />
	</node>
	<node lat="62.69478992477932" lon="7.525201078325202" id="-5428">
		<tag k="alt_name" v="Hegneset" />
		<tag k="fixme" v="consider place=hamlet" />
		<tag k="name" v="Heggenes" />
		<tag k="place" v="farm" />
		<tag k="ssr:stedsnr" v="254688" />
	</node>
	<node lat="62.7512500032027" lon="7.290477774055717" id="-5429">
		<tag k="name" v="Nyhagen" />
		<tag k="place" v="farm" />
		<tag k="ssr:stedsnr" v="254814" />
	</node>
	<node lat="62.76206666740279" lon="7.62224721623992" id="-5431">
		<tag k="name" v="Tjørhjellhaugen" />
		<tag k="place" v="isolated_dwelling" />
		<tag k="ssr:stedsnr" v="254818" />
	</node>
	<node lat="62.766448816921844" lon="7.406817718676842" id="-5432">
		<tag k="fixme" v="consider place=hamlet" />
		<tag k="name" v="Sigerset" />
		<tag k="place" v="farm" />
		<tag k="ssr:stedsnr" v="254827" />
	</node>
	<node lat="62.80773889185893" lon="7.704230564164762" id="-5439">
		<tag k="name" v="Saglia" />
		<tag k="place" v="farm" />
		<tag k="ssr:stedsnr" v="255803" />
	</node>
	<node lat="62.801122224103125" lon="7.542658335535717" id="-5441">
		<tag k="name" v="Lunde" />
		<tag k="place" v="farm" />
		<tag k="ssr:stedsnr" v="255821" />
	</node>
	<node lat="62.735224998698165" lon="6.847955560272458" id="-5449">
		<tag k="name" v="Grønstøl" />
		<tag k="place" v="farm" />
		<tag k="ssr:stedsnr" v="456544" />
	</node>
	<node lat="62.726578466399666" lon="6.931587492896078" id="-5495">
		<tag k="fixme" v="consider place=hamlet" />
		<tag k="name" v="Setet" />
		<tag k="place" v="farm" />
		<tag k="ssr:stedsnr" v="273522" />
	</node>
	<node lat="62.73649166318982" lon="6.9280083299514805" id="-5496">
		<tag k="alt_name" v="Rongkallen" />
		<tag k="fixme" v="consider place=hamlet" />
		<tag k="name" v="Romkallen" />
		<tag k="place" v="farm" />
		<tag k="ssr:stedsnr" v="273529" />
	</node>
	<node lat="62.77282778071064" lon="7.456527785759792" id="-5499">
		<tag k="name" v="Mjelvehagen" />
		<tag k="place" v="farm" />
		<tag k="ssr:stedsnr" v="459254" />
	</node>
	<node lat="62.73984166499784" lon="7.127961119416283" id="-5509">
		<tag k="name" v="Glomstua" />
		<tag k="place" v="farm" />
		<tag k="ssr:stedsnr" v="459637" />
	</node>
	<node lat="62.73283610995032" lon="7.01043610825808" id="-5510">
		<tag k="name" v="Bjerkalia" />
		<tag k="place" v="farm" />
		<tag k="ssr:stedsnr" v="459640" />
	</node>
	<node lat="62.72820833319878" lon="7.020719438970063" id="-5511">
		<tag k="name" v="Gjerdet" />
		<tag k="place" v="farm" />
		<tag k="ssr:stedsnr" v="459641" />
	</node>
	<node lat="62.735863889478736" lon="7.423736112470212" id="-5532">
		<tag k="name" v="Myran" />
		<tag k="place" v="farm" />
		<tag k="ssr:stedsnr" v="277217" />
	</node>
	<node lat="62.6539333371911" lon="7.317700004785355" id="-5533">
		<tag k="name" v="Oppsal" />
		<tag k="place" v="farm" />
		<tag k="ssr:stedsnr" v="277222" />
	</node>
	<node lat="62.72583055372147" lon="7.479211118155327" id="-5534">
		<tag k="historic" v="shieling" />
		<tag k="name" v="Setra" />
		<tag k="place" v="isolated_dwelling" />
		<tag k="ssr:stedsnr" v="277228" />
	</node>
	<node lat="62.76207500140226" lon="7.186863888130529" id="-5548">
		<tag k="historic" v="shieling" />
		<tag k="name" v="Moldegårdstølen" />
		<tag k="place" v="isolated_dwelling" />
		<tag k="ssr:stedsnr" v="277703" />
	</node>
	<node lat="62.74185555635285" lon="7.221491660536298" id="-5555">
		<tag k="name" v="Lubbenes" />
		<tag k="place" v="isolated_dwelling" />
		<tag k="ssr:stedsnr" v="277819" />
	</node>
	<node lat="62.76890988482203" lon="7.5209535225879645" id="-5570">
		<tag k="name" v="Tolåsnausta" />
		<tag k="place" v="locality" />
		<tag k="ssr:stedsnr" v="277980" />
	</node>
	<node lat="62.659730553128824" lon="7.251686106670086" id="-5575">
		<tag k="historic" v="shieling" />
		<tag k="name" v="Skoviksetra" />
		<tag k="place" v="isolated_dwelling" />
		<tag k="ssr:stedsnr" v="459950" />
	</node>
	<node lat="62.7211000004813" lon="7.77963056207383" id="-5579">
		<tag k="name" v="Plassen" />
		<tag k="place" v="farm" />
		<tag k="ssr:stedsnr" v="280005" />
	</node>
	<node lat="62.74288889106878" lon="7.458866667994482" id="-5583">
		<tag k="historic" v="shieling" />
		<tag k="name" v="Gamle Røviksetra" />
		<tag k="place" v="isolated_dwelling" />
		<tag k="ssr:stedsnr" v="460334" />
	</node>
	<node lat="62.785016189807884" lon="7.532078518843688" id="-5584">
		<tag k="fixme" v="consider place=hamlet" />
		<tag k="name" v="Skjevik" />
		<tag k="place" v="farm" />
		<tag k="ssr:stedsnr" v="460349" />
	</node>
	<node lat="62.780713887125934" lon="8.138725008356376" id="-5621">
		<tag k="name" v="Myrsetsetra" />
		<tag k="place" v="locality" />
		<tag k="ssr:stedsnr" v="462347" />
	</node>
	<node lat="62.678638886380845" lon="8.10810556205039" id="-5640">
		<tag k="name" v="Hagen" />
		<tag k="place" v="farm" />
		<tag k="ssr:stedsnr" v="462507" />
	</node>
	<node lat="62.814519448046234" lon="7.848147218966214" id="-5649">
		<tag k="name" v="Gusjåsgjerdet" />
		<tag k="place" v="farm" />
		<tag k="ssr:stedsnr" v="462531" />
	</node>
	<node lat="62.78782499759153" lon="8.107880561944288" id="-5656">
		<tag k="name" v="Damman" />
		<tag k="place" v="farm" />
		<tag k="ssr:stedsnr" v="462670" />
	</node>
	<node lat="62.80009167031832" lon="7.851677777783703" id="-5667">
		<tag k="name" v="Enga" />
		<tag k="place" v="farm" />
		<tag k="ssr:stedsnr" v="462849" />
	</node>
	<node lat="62.68180277934576" lon="7.901708330978181" id="-5677">
		<tag k="name" v="Sunnmørstølen" />
		<tag k="place" v="locality" />
		<tag k="ssr:stedsnr" v="462999" />
	</node>
	<node lat="62.73663610783155" lon="7.113316669222925" id="-5679">
		<tag k="name" v="Rotvoll" />
		<tag k="place" v="farm" />
		<tag k="ssr:stedsnr" v="314065" />
	</node>
	<node lat="62.66765683227393" lon="8.10772680881494" id="-5681">
		<tag k="fixme" v="consider place=hamlet" />
		<tag k="name" v="Sira" />
		<tag k="place" v="farm" />
		<tag k="ssr:stedsnr" v="314304" />
	</node>
	<node lat="62.72959444733125" lon="7.335325000584785" id="-5683">
		<tag k="alt_name" v="Neset, søre" />
		<tag k="name" v="Søre Neset" />
		<tag k="place" v="farm" />
		<tag k="ssr:stedsnr" v="314814" />
	</node>
	<node lat="62.753047225868215" lon="8.024852782337208" id="-5695">
		<tag k="name" v="Bukta" />
		<tag k="place" v="farm" />
		<tag k="ssr:stedsnr" v="315605" />
	</node>
	<node lat="62.7344416647203" lon="7.324661118535251" id="-5736">
		<tag k="name" v="Naustneset" />
		<tag k="place" v="farm" />
		<tag k="ssr:stedsnr" v="338213" />
	</node>
	<node lat="62.7296249998969" lon="7.334813887910815" id="-5737">
		<tag k="name" v="Bolsneset" />
		<tag k="place" v="farm" />
		<tag k="ssr:stedsnr" v="338217" />
	</node>
	<node lat="62.77812777942926" lon="7.413261119942167" id="-5738">
		<tag k="historic" v="shieling" />
		<tag k="name" v="Setra" />
		<tag k="place" v="isolated_dwelling" />
		<tag k="ssr:stedsnr" v="338218" />
	</node>
	<node lat="62.76516226189029" lon="7.400717890357844" id="-5739">
		<tag k="fixme" v="consider place=hamlet" />
		<tag k="name" v="Ekra" />
		<tag k="place" v="farm" />
		<tag k="ssr:stedsnr" v="338219" />
	</node>
	<node lat="62.73093333288095" lon="7.392727771941672" id="-5740">
		<tag k="name" v="Røvikneset" />
		<tag k="place" v="farm" />
		<tag k="ssr:stedsnr" v="338220" />
	</node>
	<node lat="62.73479166727125" lon="7.084749994351351" id="-5745">
		<tag k="name" v="Knatten" />
		<tag k="place" v="farm" />
		<tag k="ssr:stedsnr" v="338596" />
	</node>
	<node lat="62.64501666286633" lon="7.845316662899575" id="-5760">
		<tag k="name" v="Sausetra" />
		<tag k="place" v="locality" />
		<tag k="ssr:stedsnr" v="340044" />
	</node>
	<node lat="62.721394446085526" lon="7.879413888578537" id="-5767">
		<tag k="name" v="Husmannsbua" />
		<tag k="place" v="locality" />
		<tag k="ssr:stedsnr" v="340948" />
	</node>
	<node lat="62.7972555532385" lon="8.052302778240309" id="-5773">
		<tag k="historic" v="shieling" />
		<tag k="name" v="Hansgardsetra" />
		<tag k="place" v="isolated_dwelling" />
		<tag k="ssr:stedsnr" v="341459" />
	</node>
	<node lat="62.79639444166551" lon="8.121241665069517" id="-5807">
		<tag k="name" v="Toven" />
		<tag k="place" v="farm" />
		<tag k="ssr:stedsnr" v="344448" />
	</node>
	<node lat="62.731194444384904" lon="7.715844448318516" id="-5812">
		<tag k="name" v="Sandvik" />
		<tag k="place" v="farm" />
		<tag k="ssr:stedsnr" v="354452" />
	</node>
	<node lat="62.66654569343707" lon="8.02054260260488" id="-5827">
		<tag k="alt_name" v="Rødal" />
		<tag k="fixme" v="consider place=hamlet" />
		<tag k="name" v="Rødalen" />
		<tag k="place" v="farm" />
		<tag k="ssr:stedsnr" v="375220" />
	</node>
	<node lat="62.66976388630909" lon="8.080658341991683" id="-5828">
		<tag k="alt_name" v="Husbysetra" />
		<tag k="historic" v="shieling" />
		<tag k="name" v="Husbysætra" />
		<tag k="place" v="isolated_dwelling" />
		<tag k="ssr:stedsnr" v="375223" />
	</node>
	<node lat="62.66060000007561" lon="7.9757416581838845" id="-5829">
		<tag k="alt_name" v="Oppdalssetra" />
		<tag k="historic" v="shieling" />
		<tag k="name" v="Oppdalsætra" />
		<tag k="place" v="isolated_dwelling" />
		<tag k="ssr:stedsnr" v="375229" />
	</node>
	<node lat="62.63097777732327" lon="7.988052775737594" id="-5834">
		<tag k="name" v="Vasstindbu" />
		<tag k="place" v="isolated_dwelling" />
		<tag k="ssr:stedsnr" v="375337" />
	</node>
	<node lat="62.70768742592038" lon="7.945594024882486" id="-5836">
		<tag k="fixme" v="consider place=hamlet" />
		<tag k="name" v="Hanset" />
		<tag k="place" v="farm" />
		<tag k="ssr:stedsnr" v="375401" />
	</node>
	<node lat="62.72544722630787" lon="7.425786106148483" id="-5846">
		<tag k="name" v="Nygard" />
		<tag k="place" v="farm" />
		<tag k="ssr:stedsnr" v="375782" />
	</node>
	<node lat="62.69637656341398" lon="7.418081194324537" id="-5855">
		<tag k="fixme" v="consider place=hamlet" />
		<tag k="name" v="Stenså" />
		<tag k="place" v="farm" />
		<tag k="ssr:stedsnr" v="375680" />
	</node>
	<node lat="62.75770555795384" lon="7.343886118148771" id="-5856">
		<tag k="name" v="Bøen" />
		<tag k="place" v="farm" />
		<tag k="ssr:stedsnr" v="375803" />
	</node>
	<node lat="62.762075004173006" lon="7.506158329301582" id="-5858">
		<tag k="name" v="Midthaug" />
		<tag k="place" v="farm" />
		<tag k="ssr:stedsnr" v="375813" />
	</node>
	<node lat="62.76395801811832" lon="7.394399922348831" id="-5859">
		<tag k="fixme" v="consider place=hamlet" />
		<tag k="name" v="Ellingsgarden" />
		<tag k="place" v="farm" />
		<tag k="ssr:stedsnr" v="375827" />
	</node>
	<node lat="62.740075001549165" lon="7.153194443191863" id="-5905">
		<tag k="leisure" v="pitch" />
		<tag k="name" v="Tennisbane" />
		<tag k="ssr:stedsnr" v="398690" />
	</node>
	<node lat="62.69257777340256" lon="7.36892221683043" id="-5911">
		<tag k="name" v="Teigan" />
		<tag k="place" v="farm" />
		<tag k="ssr:stedsnr" v="399295" />
	</node>
	<node lat="62.741427776028154" lon="6.84596944498069" id="-5970">
		<tag k="name" v="Ræstadtangen" />
		<tag k="place" v="farm" />
		<tag k="ssr:stedsnr" v="436109" />
	</node>
	<node lat="62.66009166960537" lon="8.06103055512301" id="-5976">
		<tag k="alt_name" v="Solhjellsetra" />
		<tag k="historic" v="shieling" />
		<tag k="name" v="Solhjellsætra" />
		<tag k="place" v="isolated_dwelling" />
		<tag k="ssr:stedsnr" v="436250" />
	</node>
	<node lat="62.68775000211777" lon="7.923638890901476" id="-5978">
		<tag k="alt_name" v="Hellesetra" />
		<tag k="historic" v="shieling" />
		<tag k="name" v="Hellesætra" />
		<tag k="place" v="isolated_dwelling" />
		<tag k="ssr:stedsnr" v="436272" />
	</node>
	<node lat="62.63827221894325" lon="8.029463883668491" id="-5984">
		<tag k="historic" v="shieling" />
		<tag k="name" v="Rødalsætra" />
		<tag k="place" v="isolated_dwelling" />
		<tag k="ssr:stedsnr" v="436356" />
	</node>
	<node lat="62.79018889194316" lon="7.856386101626284" id="-5985">
		<tag k="name" v="Tverrlia" />
		<tag k="place" v="farm" />
		<tag k="ssr:stedsnr" v="436559" />
	</node>
	<node lat="62.75307873843284" lon="7.760422787068331" id="-5989">
		<tag k="historic" v="shieling" />
		<tag k="name" v="Åramsetra" />
		<tag k="place" v="isolated_dwelling" />
		<tag k="ssr:stedsnr" v="436603" />
	</node>
	<node lat="62.67830985278662" lon="7.266227232413101" id="-5991">
		<tag k="fixme" v="consider place=hamlet" />
		<tag k="name" v="Vedalshaugen" />
		<tag k="place" v="farm" />
		<tag k="ssr:stedsnr" v="436707" />
	</node>
	<node lat="62.81998611522968" lon="8.137747221321566" id="-6002">
		<tag k="name" v="Bersåsvollan" />
		<tag k="place" v="farm" />
		<tag k="ssr:stedsnr" v="437560" />
	</node>
	<node lat="62.7905361106163" lon="7.606333332028796" id="-6007">
		<tag k="name" v="Einen" />
		<tag k="place" v="farm" />
		<tag k="ssr:stedsnr" v="437754" />
	</node>
	<node lat="62.70547777382118" lon="6.758619447759059" id="-6012">
		<tag k="name" v="Grøvla" />
		<tag k="place" v="isolated_dwelling" />
		<tag k="ssr:stedsnr" v="451688" />
	</node>
	<node lat="62.65220833717526" lon="6.55156667126727" id="-6017">
		<tag k="name" v="Varnes" />
		<tag k="place" v="farm" />
		<tag k="ssr:stedsnr" v="455011" />
	</node>
	<node lat="62.7221361150737" lon="7.410563898078288" id="-6063">
		<tag k="alt_name" v="Geitnesskaget" />
		<tag k="name" v="Skaget" />
		<tag k="place" v="farm" />
		<tag k="ssr:stedsnr" v="460309" />
	</node>
	<node lat="62.73254444887434" lon="7.384216662860368" id="-6116">
		<tag k="alt_name" v="Skjevika" />
		<tag k="fixme" v="consider place=hamlet" />
		<tag k="name" v="Skjevik" />
		<tag k="place" v="farm" />
		<tag k="ssr:stedsnr" v="678751" />
	</node>
	<node lat="62.74184999605255" lon="6.990788895407763" id="-6120">
		<tag k="name" v="Gausetvika" />
		<tag k="place" v="farm" />
		<tag k="ssr:stedsnr" v="679110" />
	</node>
	<node lat="62.67960000196017" lon="7.9076472162127525" id="-6128">
		<tag k="historic" v="shieling" />
		<tag k="name" v="Ølmerket" />
		<tag k="place" v="isolated_dwelling" />
		<tag k="ssr:stedsnr" v="679252" />
	</node>
	<node lat="62.403050004117226" lon="8.423333330680956" id="-6133">
		<tag k="name" v="Aurstølen" />
		<tag k="place" v="locality" />
		<tag k="ssr:stedsnr" v="679274" />
	</node>
	<node lat="62.71513574474569" lon="7.7484776740177415" id="-6140">
		<tag k="alt_name" v="Stranda" />
		<tag k="fixme" v="consider place=hamlet" />
		<tag k="name" v="Skorgestranda" />
		<tag k="place" v="farm" />
		<tag k="ssr:stedsnr" v="679424" />
	</node>
	<node lat="62.77831456475551" lon="7.779739027792707" id="-6152">
		<tag k="fixme" v="consider place=hamlet" />
		<tag k="name" v="Sotnakken" />
		<tag k="place" v="farm" />
		<tag k="ssr:stedsnr" v="679557" />
	</node>
	<node lat="62.70782023817217" lon="7.582051805848564" id="-6155">
		<tag k="fixme" v="consider place=hamlet" />
		<tag k="name" v="Grebbestad" />
		<tag k="place" v="farm" />
		<tag k="ssr:stedsnr" v="679676" />
	</node>
	<node lat="62.697119444795" lon="7.431788896505621" id="-6156">
		<tag k="name" v="Nesjestranda" />
		<tag k="place" v="village" />
		<tag k="ssr:stedsnr" v="679687" />
	</node>
	<node lat="62.78509999725011" lon="7.546372231672942" id="-6160">
		<tag k="name" v="Reitan" />
		<tag k="place" v="farm" />
		<tag k="ssr:stedsnr" v="679762" />
	</node>
	<node lat="62.734116675262754" lon="7.069955028683348" id="-6171">
		<tag k="fixme" v="consider place=hamlet" />
		<tag k="name" v="Kringstad" />
		<tag k="place" v="farm" />
		<tag k="ssr:stedsnr" v="496065" />
	</node>
	<node lat="62.39740555966184" lon="8.350586119765929" id="-6172">
		<tag k="name" v="Løypåvollen" />
		<tag k="place" v="isolated_dwelling" />
		<tag k="ssr:stedsnr" v="496341" />
	</node>
	<node lat="62.697947225073165" lon="7.453027771940069" id="-6175">
		<tag k="name" v="Bergsvik" />
		<tag k="place" v="farm" />
		<tag k="ssr:stedsnr" v="496702" />
	</node>
	<node lat="62.730214818216034" lon="7.327081036955895" id="-6179">
		<tag k="fixme" v="consider place=hamlet" />
		<tag k="loc_name" v="Bolsøya" />
		<tag k="name" v="Bolsøy" />
		<tag k="place" v="farm" />
		<tag k="ssr:stedsnr" v="496813" />
	</node>
	<node lat="62.67296944501698" lon="7.304369447474785" id="-6192">
		<tag k="name" v="Seterbø" />
		<tag k="place" v="farm" />
		<tag k="ssr:stedsnr" v="497715" />
	</node>
	<node lat="62.79132105072976" lon="7.513536465410697" id="-6193">
		<tag k="fixme" v="consider place=hamlet" />
		<tag k="name" v="Berg" />
		<tag k="place" v="farm" />
		<tag k="ssr:stedsnr" v="497758" />
	</node>
	<node lat="62.7250111153536" lon="7.41653611315423" id="-6195">
		<tag k="name" v="Geitneshaugen" />
		<tag k="place" v="farm" />
		<tag k="ssr:stedsnr" v="497800" />
	</node>
	<node lat="62.63047500432938" lon="7.984097231387975" id="-6210">
		<tag k="fixme" v="consider tourism=alpine_hut or tourism=chalet" />
		<tag k="name" v="Vasstindbu" />
		<tag k="ssr:stedsnr" v="510768" />
		<tag k="tourism" v="wilderness_hut" />
	</node>
	<node lat="62.6953861154872" lon="6.790538891522193" id="-6221">
		<tag k="name" v="Vikasetra" />
		<tag k="place" v="locality" />
		<tag k="ssr:stedsnr" v="515719" />
	</node>
	<node lat="62.64790833717622" lon="6.5341611020549815" id="-6224">
		<tag k="name" v="Fjøsan" />
		<tag k="place" v="locality" />
		<tag k="ssr:stedsnr" v="516116" />
	</node>
	<node lat="62.72245277644328" lon="6.898033338834896" id="-6229">
		<tag k="name" v="Myrsetstølen" />
		<tag k="place" v="locality" />
		<tag k="ssr:stedsnr" v="516921" />
	</node>
	<node lat="62.7443999989213" lon="7.430286107309575" id="-6246">
		<tag k="historic" v="shieling" />
		<tag k="name" v="Setra" />
		<tag k="place" v="isolated_dwelling" />
		<tag k="ssr:stedsnr" v="520262" />
	</node>
	<node lat="62.82281666473035" lon="7.732841671255139" id="-6248">
		<tag k="name" v="Åbakken" />
		<tag k="place" v="isolated_dwelling" />
		<tag k="ssr:stedsnr" v="520278" />
	</node>
	<node lat="62.75972499777332" lon="7.198477785171955" id="-6250">
		<tag k="historic" v="shieling" />
		<tag k="name" v="Øverlandsetra" />
		<tag k="place" v="isolated_dwelling" />
		<tag k="ssr:stedsnr" v="520660" />
	</node>
	<node lat="62.7305886238498" lon="7.830310370741631" id="-6276">
		<tag k="alt_name" v="Elgenes" />
		<tag k="fixme" v="consider place=hamlet" />
		<tag k="name" v="Elgeneset" />
		<tag k="place" v="farm" />
		<tag k="ssr:stedsnr" v="523304" />
	</node>
	<node lat="62.77580277634838" lon="8.088680557545302" id="-6283">
		<tag k="name" v="Trondplassen" />
		<tag k="place" v="locality" />
		<tag k="ssr:stedsnr" v="523460" />
	</node>
	<node lat="62.723191669157636" lon="7.940344437276459" id="-6299">
		<tag k="name" v="Vågbø" />
		<tag k="place" v="farm" />
		<tag k="ssr:stedsnr" v="535312" />
	</node>
	<node lat="62.46911388792108" lon="8.186219441735727" id="-6305">
		<tag k="name" v="Austigard" />
		<tag k="place" v="farm" />
		<tag k="ssr:stedsnr" v="557101" />
	</node>
	<node lat="62.66148343553749" lon="8.123495491691763" id="-6306">
		<tag k="fixme" v="consider place=hamlet" />
		<tag k="name" v="Ljørvoll" />
		<tag k="place" v="farm" />
		<tag k="ssr:stedsnr" v="557263" />
	</node>
	<node lat="62.6998999970335" lon="8.082302772730406" id="-6309">
		<tag k="alt_name" v="Vassetra" />
		<tag k="name" v="Vassætra" />
		<tag k="place" v="isolated_dwelling" />
		<tag k="ssr:stedsnr" v="557422" />
	</node>
	<node lat="62.79708693837178" lon="8.130980901847563" id="-6320">
		<tag k="fixme" v="consider place=hamlet" />
		<tag k="name" v="Toven" />
		<tag k="place" v="farm" />
		<tag k="ssr:stedsnr" v="557548" />
	</node>
	<node lat="62.79800242580037" lon="8.167279177975567" id="-6321">
		<tag k="fixme" v="consider place=hamlet" />
		<tag k="name" v="Eide" />
		<tag k="place" v="farm" />
		<tag k="ssr:stedsnr" v="557549" />
	</node>
	<node lat="62.77389207965047" lon="7.9938201209996755" id="-6322">
		<tag k="fixme" v="consider place=hamlet" />
		<tag k="name" v="Kvernberget" />
		<tag k="place" v="farm" />
		<tag k="ssr:stedsnr" v="557560" />
	</node>
	<node lat="62.753797218755594" lon="7.27995277220273" id="-6329">
		<tag k="name" v="Myrset" />
		<tag k="place" v="farm" />
		<tag k="ssr:stedsnr" v="557813" />
	</node>
	<node lat="62.75524444741014" lon="7.285352773069602" id="-6330">
		<tag k="name" v="Myre" />
		<tag k="place" v="farm" />
		<tag k="ssr:stedsnr" v="557814" />
	</node>
	<node lat="62.78443934776224" lon="8.241756973220989" id="-6335">
		<tag k="fixme" v="consider place=hamlet" />
		<tag k="name" v="Lia" />
		<tag k="place" v="farm" />
		<tag k="ssr:stedsnr" v="558420" />
	</node>
	<node lat="62.795161113708865" lon="7.527091671084218" id="-6336">
		<tag k="name" v="Nakken" />
		<tag k="place" v="farm" />
		<tag k="ssr:stedsnr" v="558806" />
	</node>
	<node lat="62.791772221755316" lon="7.620547222820529" id="-6341">
		<tag k="name" v="Nesbøen" />
		<tag k="place" v="farm" />
		<tag k="ssr:stedsnr" v="558794" />
	</node>
	<node lat="62.663650003478395" lon="6.580147220303743" id="-6355">
		<tag k="name" v="Drynjasundremma" />
		<tag k="place" v="farm" />
		<tag k="ssr:stedsnr" v="576146" />
	</node>
	<node lat="62.77743888884024" lon="7.603730559272027" id="-6382">
		<tag k="amenity" v="school" />
		<tag k="name" v="Risan skule" />
		<tag k="ssr:stedsnr" v="580752" />
	</node>
	<node lat="62.74093333692673" lon="7.133691658226321" id="-6384">
		<tag k="name" v="Cecilienfryd" />
		<tag k="place" v="farm" />
		<tag k="ssr:stedsnr" v="580602" />
	</node>
	<node lat="62.740552781997444" lon="7.155633336114242" id="-6389">
		<tag k="leisure" v="pitch" />
		<tag k="name" v="Molde stadion" />
		<tag k="ssr:stedsnr" v="580699" />
	</node>
	<node lat="62.79024444606151" lon="8.175677769895504" id="-6437">
		<tag k="name" v="Eidsetra" />
		<tag k="place" v="locality" />
		<tag k="ssr:stedsnr" v="583704" />
	</node>
	<node lat="62.69286111417745" lon="8.022583329179687" id="-6448">
		<tag k="name" v="Gamle Aslakstølen" />
		<tag k="place" v="locality" />
		<tag k="ssr:stedsnr" v="583809" />
	</node>
	<node lat="62.66267389589458" lon="6.585855279357461" id="-6463">
		<tag k="fixme" v="consider place=hamlet" />
		<tag k="name" v="Drynjasund" />
		<tag k="place" v="farm" />
		<tag k="ssr:stedsnr" v="697151" />
	</node>
	<node lat="62.736849996608385" lon="6.844849994943493" id="-6482">
		<tag k="name" v="Leitet" />
		<tag k="place" v="farm" />
		<tag k="ssr:stedsnr" v="698527" />
	</node>
	<node lat="62.73389444185208" lon="6.8310611020929715" id="-6487">
		<tag k="name" v="Plassen" />
		<tag k="place" v="farm" />
		<tag k="ssr:stedsnr" v="698588" />
	</node>
	<node lat="62.65288888596402" lon="8.112772226386573" id="-6508">
		<tag k="name" v="Bjørnes" />
		<tag k="place" v="farm" />
		<tag k="ssr:stedsnr" v="618227" />
	</node>
	<node lat="62.66933971329071" lon="8.129285344429663" id="-6510">
		<tag k="fixme" v="consider place=hamlet" />
		<tag k="name" v="Frisvoll" />
		<tag k="place" v="farm" />
		<tag k="ssr:stedsnr" v="618229" />
	</node>
	<node lat="62.64352126873788" lon="8.105140241443177" id="-6512">
		<tag k="fixme" v="consider place=hamlet" />
		<tag k="name" v="Moen" />
		<tag k="place" v="farm" />
		<tag k="ssr:stedsnr" v="618337" />
	</node>
	<node lat="62.713452774943484" lon="7.9681638941172706" id="-6515">
		<tag k="alt_name" v="Nedregardsetra" />
		<tag k="historic" v="shieling" />
		<tag k="name" v="Nedregardsætra" />
		<tag k="place" v="isolated_dwelling" />
		<tag k="ssr:stedsnr" v="618433" />
	</node>
	<node lat="62.776555553276424" lon="8.065500005818679" id="-6523">
		<tag k="name" v="Eidsvåg" />
		<tag k="place" v="village" />
		<tag k="ssr:stedsnr" v="618595" />
	</node>
	<node lat="62.78384247479767" lon="7.704745115016358" id="-6537">
		<tag k="fixme" v="consider place=hamlet" />
		<tag k="name" v="Sotåa" />
		<tag k="place" v="farm" />
		<tag k="ssr:stedsnr" v="618772" />
	</node>
	<node lat="62.794467073991946" lon="7.8459906776206285" id="-6549">
		<tag k="fixme" v="consider place=hamlet" />
		<tag k="name" v="Skjørlia" />
		<tag k="place" v="farm" />
		<tag k="ssr:stedsnr" v="619613" />
	</node>
	<node lat="62.768398153443194" lon="7.42250159093548" id="-6553">
		<tag k="fixme" v="consider place=hamlet" />
		<tag k="name" v="Hatlen" />
		<tag k="place" v="farm" />
		<tag k="ssr:stedsnr" v="619588" />
	</node>
	<node lat="62.69584779120478" lon="7.451280838847017" id="-6558">
		<tag k="fixme" v="consider place=hamlet" />
		<tag k="name" v="Bergsvika" />
		<tag k="place" v="farm" />
		<tag k="ssr:stedsnr" v="702222" />
	</node>
	<node lat="62.687105556756016" lon="7.487055557298195" id="-6559">
		<tag k="name" v="Maloneset" />
		<tag k="place" v="farm" />
		<tag k="ssr:stedsnr" v="702223" />
	</node>
	<node lat="62.761102780461066" lon="7.492216657861816" id="-6569">
		<tag k="name" v="Kvistsetra" />
		<tag k="place" v="locality" />
		<tag k="ssr:stedsnr" v="702239" />
	</node>
	<node lat="62.753711113039174" lon="7.5680666601566955" id="-6570">
		<tag k="name" v="Øyelivollen" />
		<tag k="place" v="isolated_dwelling" />
		<tag k="ssr:stedsnr" v="702242" />
	</node>
	<node lat="62.77560833660796" lon="7.62526666829655" id="-6571">
		<tag k="name" v="Brautin" />
		<tag k="place" v="farm" />
		<tag k="ssr:stedsnr" v="702243" />
	</node>
	<node lat="62.77894444516451" lon="7.475480564723012" id="-6572">
		<tag k="name" v="Åsen" />
		<tag k="place" v="farm" />
		<tag k="ssr:stedsnr" v="702250" />
	</node>
	<node lat="62.84701388680055" lon="7.72360277173652" id="-6573">
		<tag k="name" v="Slåssbakken" />
		<tag k="place" v="isolated_dwelling" />
		<tag k="ssr:stedsnr" v="702252" />
	</node>
	<node lat="62.73966389267357" lon="7.144097217160758" id="-6582">
		<tag k="amenity" v="school" />
		<tag k="name" v="Sellanrå" />
		<tag k="ssr:stedsnr" v="702630" />
	</node>
	<node lat="62.74795094919445" lon="7.143376617836843" id="-6583">
		<tag k="name" v="Storlihytta" />
		<tag k="place" v="farm" />
		<tag k="ssr:stedsnr" v="702642" />
	</node>
	<node lat="62.699851745682686" lon="8.144870834068753" id="-6612">
		<tag k="fixme" v="consider place=hamlet" />
		<tag k="name" v="Stranda" />
		<tag k="place" v="farm" />
		<tag k="ssr:stedsnr" v="704008" />
	</node>
	<node lat="62.671069441099235" lon="6.719591671013892" id="-6616">
		<tag k="name" v="Myrvoll" />
		<tag k="place" v="farm" />
		<tag k="ssr:stedsnr" v="633699" />
	</node>
	<node lat="62.673766668160866" lon="6.734608334542785" id="-6628">
		<tag k="name" v="Klauset" />
		<tag k="place" v="hamlet" />
		<tag k="ssr:stedsnr" v="636410" />
	</node>
	<node lat="62.720202778986426" lon="7.8387861073309315" id="-6630">
		<tag k="name" v="Nysetra" />
		<tag k="place" v="locality" />
		<tag k="ssr:stedsnr" v="705059" />
	</node>
	<node lat="62.73674444749882" lon="6.84134443881856" id="-6639">
		<tag k="name" v="Nytun" />
		<tag k="place" v="farm" />
		<tag k="ssr:stedsnr" v="637578" />
	</node>
	<node lat="62.80091111408783" lon="8.179227772852334" id="-6670">
		<tag k="name" v="Skaffaren" />
		<tag k="place" v="farm" />
		<tag k="ssr:stedsnr" v="705739" />
	</node>
	<node lat="62.75178888643626" lon="8.048625006972896" id="-6671">
		<tag k="historic" v="shieling" />
		<tag k="name" v="Prestsetra" />
		<tag k="place" v="isolated_dwelling" />
		<tag k="ssr:stedsnr" v="705745" />
	</node>
	<node lat="62.76768667680611" lon="7.516876533705951" id="-6679">
		<tag k="name" v="Solemdalsnausta" />
		<tag k="place" v="locality" />
		<tag k="ssr:stedsnr" v="640978" />
	</node>
	<node lat="62.73801944396995" lon="7.748508341233985" id="-6682">
		<tag k="name" v="Åramshagen" />
		<tag k="place" v="farm" />
		<tag k="ssr:stedsnr" v="705867" />
	</node>
	<node lat="62.769694455713754" lon="7.433483351771489" id="-6690">
		<tag k="fixme" v="consider place=hamlet" />
		<tag k="name" v="Øygarden" />
		<tag k="place" v="farm" />
		<tag k="ssr:stedsnr" v="641223" />
	</node>
	<node lat="62.77913829634232" lon="7.485697359235233" id="-6692">
		<tag k="fixme" v="consider place=hamlet" />
		<tag k="name" v="Nerhagen" />
		<tag k="place" v="farm" />
		<tag k="ssr:stedsnr" v="641237" />
	</node>
	<node lat="62.772613889348165" lon="7.459341673604474" id="-6693">
		<tag k="name" v="Hjellsethagen" />
		<tag k="place" v="farm" />
		<tag k="ssr:stedsnr" v="641238" />
	</node>
	<node lat="62.80829444619089" lon="7.561627777073291" id="-6694">
		<tag k="historic" v="shieling" />
		<tag k="name" v="Hugnessetra" />
		<tag k="place" v="isolated_dwelling" />
		<tag k="ssr:stedsnr" v="641242" />
	</node>
	<node lat="62.76002777807675" lon="7.209408337161729" id="-6711">
		<tag k="historic" v="shieling" />
		<tag k="name" v="Tøndergårdsetra" />
		<tag k="place" v="isolated_dwelling" />
		<tag k="ssr:stedsnr" v="641626" />
	</node>
	<node lat="62.692230554593394" lon="7.3660861054554525" id="-6724">
		<tag k="name" v="Tjørnholet" />
		<tag k="place" v="farm" />
		<tag k="ssr:stedsnr" v="641891" />
	</node>
	<node lat="62.703200000428524" lon="7.939263885515588" id="-6738">
		<tag k="name" v="Gjerdvollen" />
		<tag k="place" v="farm" />
		<tag k="ssr:stedsnr" v="643014" />
	</node>
	<node lat="62.790911432972536" lon="8.21742808542636" id="-6758">
		<tag k="fixme" v="consider place=hamlet" />
		<tag k="name" v="Svenslia" />
		<tag k="place" v="farm" />
		<tag k="ssr:stedsnr" v="644709" />
	</node>
	<node lat="62.70481111137844" lon="7.781449999708758" id="-6774">
		<tag k="name" v="Ytterskorgestølen" />
		<tag k="place" v="locality" />
		<tag k="ssr:stedsnr" v="644927" />
	</node>
	<node lat="62.69871666349474" lon="6.699991660401786" id="-6783">
		<tag k="name" v="Naustvik" />
		<tag k="place" v="farm" />
		<tag k="ssr:stedsnr" v="657681" />
	</node>
	<node lat="62.73116666967656" lon="7.715844441450148" id="-6784">
		<tag k="name" v="Sandvika" />
		<tag k="place" v="isolated_dwelling" />
		<tag k="ssr:stedsnr" v="665632" />
	</node>
	<node lat="62.46998611432163" lon="8.184819442959698" id="-6788">
		<tag k="name" v="Utigard" />
		<tag k="place" v="farm" />
		<tag k="ssr:stedsnr" v="678107" />
	</node>
	<node lat="62.67466666221051" lon="7.898708332416807" id="-6792">
		<tag k="historic" v="shieling" />
		<tag k="loc_name" v="Hansetsetra" />
		<tag k="name" v="Hansetsætra" />
		<tag k="place" v="isolated_dwelling" />
		<tag k="ssr:stedsnr" v="678308" />
	</node>
	<node lat="62.67057500144078" lon="7.892066675165102" id="-6793">
		<tag k="alt_name" v="Bjørkalihaugen" />
		<tag k="name" v="Bjørkelihaugen" />
		<tag k="place" v="isolated_dwelling" />
		<tag k="ssr:stedsnr" v="678309" />
	</node>
	<node lat="62.72758260286588" lon="7.010182568088755" id="-6799">
		<tag k="fixme" v="consider place=hamlet" />
		<tag k="name" v="Baret" />
		<tag k="place" v="farm" />
		<tag k="ssr:stedsnr" v="679073" />
	</node>
	<node lat="62.69494166416077" lon="8.018072221102715" id="-6804">
		<tag k="alt_name" v="Aslaksetra" />
		<tag k="name" v="Aslaksætra" />
		<tag k="place" v="isolated_dwelling" />
		<tag k="ssr:stedsnr" v="679405" />
	</node>
	<node lat="62.70501666558849" lon="7.7857277755822" id="-6805">
		<tag k="alt_name" v="Skorgesetra" />
		<tag k="historic" v="shieling" />
		<tag k="name" v="Skorgedalssætra" />
		<tag k="place" v="isolated_dwelling" />
		<tag k="ssr:stedsnr" v="679407" />
	</node>
	<node lat="62.75863333041004" lon="7.515280546568665" id="-6812">
		<tag k="name" v="Bakken" />
		<tag k="place" v="farm" />
		<tag k="ssr:stedsnr" v="679808" />
	</node>
	<node lat="62.82838184271666" lon="8.11591979307556" id="-6818">
		<tag k="fixme" v="consider place=hamlet" />
		<tag k="name" v="Neverlia" />
		<tag k="place" v="farm" />
		<tag k="ssr:stedsnr" v="680607" />
	</node>
	<node lat="62.733891666678836" lon="6.836027770995377" id="-6843">
		<tag k="name" v="Stegan" />
		<tag k="place" v="farm" />
		<tag k="ssr:stedsnr" v="698516" />
	</node>
	<node lat="62.72788383206802" lon="7.912817703496584" id="-6890">
		<tag k="name" v="Lia" />
		<tag k="place" v="locality" />
		<tag k="ssr:stedsnr" v="705105" />
	</node>
	<node lat="62.777500000587715" lon="7.906894439481637" id="-6907">
		<tag k="name" v="Gammelsetra" />
		<tag k="place" v="locality" />
		<tag k="ssr:stedsnr" v="705523" />
	</node>
	<node lat="62.77805277621279" lon="7.915761106455394" id="-6908">
		<tag k="name" v="Trollmyrsetra" />
		<tag k="place" v="locality" />
		<tag k="ssr:stedsnr" v="705524" />
	</node>
	<node lat="62.63643055623366" lon="8.022811114270608" id="-6915">
		<tag k="name" v="Gammelstølsetra" />
		<tag k="place" v="locality" />
		<tag k="ssr:stedsnr" v="705825" />
	</node>
	<node lat="62.759994447760974" lon="7.85849999300874" id="-6917">
		<tag k="name" v="Hytta" />
		<tag k="place" v="locality" />
		<tag k="ssr:stedsnr" v="705716" />
	</node>
	<node lat="62.73205833624722" lon="7.9376805517178015" id="-6924">
		<tag k="name" v="Amundgjerdet" />
		<tag k="place" v="isolated_dwelling" />
		<tag k="ssr:stedsnr" v="719315" />
	</node>
	<node lat="62.699186111837484" lon="6.896511102220763" id="-6926">
		<tag k="name" v="Kleiva" />
		<tag k="place" v="farm" />
		<tag k="ssr:stedsnr" v="900731" />
	</node>
	<node lat="62.76429721846714" lon="8.048536111629794" id="-6931">
		<tag k="name" v="Breidvik" />
		<tag k="place" v="isolated_dwelling" />
		<tag k="ssr:stedsnr" v="900696" />
	</node>
	<node lat="62.5439694414659" lon="8.18656666758625" id="-6935">
		<tag k="alt_name" v="Vikesetra" />
		<tag k="name" v="Vikesætra" />
		<tag k="place" v="farm" />
		<tag k="ssr:stedsnr" v="739105" />
	</node>
	<node lat="62.78835747390197" lon="8.086885446744596" id="-6945">
		<tag k="fixme" v="consider place=hamlet" />
		<tag k="name" v="Åsen" />
		<tag k="place" v="farm" />
		<tag k="ssr:stedsnr" v="739604" />
	</node>
	<node lat="62.77130858988135" lon="8.074055100737949" id="-6947">
		<tag k="fixme" v="consider place=hamlet" />
		<tag k="name" v="Langset" />
		<tag k="place" v="farm" />
		<tag k="ssr:stedsnr" v="739612" />
	</node>
	<node lat="62.72840716267869" lon="7.288230891172081" id="-6951">
		<tag k="fixme" v="consider place=hamlet" />
		<tag k="name" v="Litlebostad" />
		<tag k="place" v="farm" />
		<tag k="ssr:stedsnr" v="739750" />
	</node>
	<node lat="62.72985555805103" lon="7.29423888316367" id="-6952">
		<tag k="name" v="Haugen" />
		<tag k="place" v="farm" />
		<tag k="ssr:stedsnr" v="739751" />
	</node>
	<node lat="62.72830833115444" lon="7.293899998195588" id="-6953">
		<tag k="name" v="Heimdal" />
		<tag k="place" v="farm" />
		<tag k="ssr:stedsnr" v="739754" />
	</node>
	<node lat="62.774578291951855" lon="7.458686276949329" id="-6954">
		<tag k="fixme" v="consider place=hamlet" />
		<tag k="name" v="Hjellset" />
		<tag k="place" v="farm" />
		<tag k="ssr:stedsnr" v="739793" />
	</node>
	<node lat="62.768913892968996" lon="7.440766666846989" id="-6957">
		<tag k="building" v="industrial" />
		<tag k="industrial" v="factory" />
		<tag k="name" v="Molde Verft" />
		<tag k="ssr:stedsnr" v="739846" />
	</node>
	<node lat="62.689805555375926" lon="7.940250008747778" id="-6960">
		<tag k="alt_name" v="Selsetra" />
		<tag k="historic" v="shieling" />
		<tag k="name" v="Selsætra" />
		<tag k="place" v="isolated_dwelling" />
		<tag k="ssr:stedsnr" v="740290" />
	</node>
	<node lat="62.808488891636905" lon="7.74933612006541" id="-6963">
		<tag k="name" v="Langholen" />
		<tag k="place" v="farm" />
		<tag k="ssr:stedsnr" v="740540" />
	</node>
	<node lat="62.6873583317034" lon="6.82984445420426" id="-6978">
		<tag k="name" v="Porsmyra" />
		<tag k="place" v="farm" />
		<tag k="ssr:stedsnr" v="758307" />
	</node>
	<node lat="62.747108335453085" lon="6.913324996136175" id="-6985">
		<tag k="name" v="Sundsbø" />
		<tag k="place" v="hamlet" />
		<tag k="ssr:stedsnr" v="758723" />
	</node>
	<node lat="62.70521111546529" lon="6.718274990773796" id="-6989">
		<tag k="name" v="Lunheim" />
		<tag k="place" v="farm" />
		<tag k="ssr:stedsnr" v="758618" />
	</node>
	<node lat="62.831263886203146" lon="7.7881500013097815" id="-7027">
		<tag k="name" v="Øverbøen" />
		<tag k="place" v="farm" />
		<tag k="ssr:stedsnr" v="763303" />
	</node>
	<node lat="62.826566668222384" lon="7.777841673321984" id="-7028">
		<tag k="name" v="Hatlelia" />
		<tag k="place" v="farm" />
		<tag k="ssr:stedsnr" v="763305" />
	</node>
	<node lat="62.740505553738124" lon="7.140933336005524" id="-7033">
		<tag k="amenity" v="school" />
		<tag k="name" v="Bekkevoll" />
		<tag k="ssr:stedsnr" v="763746" />
	</node>
	<node lat="62.82159166831847" lon="8.093061108846447" id="-7052">
		<tag k="name" v="Nysetra" />
		<tag k="place" v="locality" />
		<tag k="ssr:stedsnr" v="765727" />
	</node>
	<node lat="62.6614361116016" lon="8.114883325004195" id="-7068">
		<tag k="amenity" v="school" />
		<tag k="name" v="Eresfjord skule" />
		<tag k="ssr:stedsnr" v="766093" />
	</node>
	<node lat="62.76426666803961" lon="8.095705564678441" id="-7072">
		<tag k="name" v="Langsetsetra" />
		<tag k="place" v="locality" />
		<tag k="ssr:stedsnr" v="766390" />
	</node>
	<node lat="62.761241664091735" lon="8.036413891760903" id="-7076">
		<tag k="name" v="Tjærabrenneriet" />
		<tag k="place" v="locality" />
		<tag k="ssr:stedsnr" v="766402" />
	</node>
	<node lat="62.73826111067766" lon="8.06307221337922" id="-7083">
		<tag k="name" v="Teigen" />
		<tag k="place" v="farm" />
		<tag k="ssr:stedsnr" v="766711" />
	</node>
	<node lat="62.78047222344844" lon="8.069091676398818" id="-7084">
		<tag k="name" v="Storteigen" />
		<tag k="place" v="farm" />
		<tag k="ssr:stedsnr" v="766712" />
	</node>
	<node lat="62.74730833141295" lon="7.094408323914515" id="-7097">
		<tag k="historic" v="shieling" />
		<tag k="name" v="Meksetra" />
		<tag k="place" v="isolated_dwelling" />
		<tag k="ssr:stedsnr" v="800086" />
	</node>
	<node lat="62.697027776426786" lon="7.89658889639068" id="-7100">
		<tag k="alt_name" v="Liasetra" />
		<tag k="historic" v="shieling" />
		<tag k="name" v="Liasætra" />
		<tag k="place" v="isolated_dwelling" />
		<tag k="ssr:stedsnr" v="800431" />
	</node>
	<node lat="62.78206054219491" lon="8.122501485420317" id="-7110">
		<tag k="fixme" v="consider place=hamlet" />
		<tag k="name" v="Teigset" />
		<tag k="place" v="farm" />
		<tag k="ssr:stedsnr" v="800629" />
	</node>
	<node lat="62.670650118154825" lon="7.29301625298886" id="-7114">
		<tag k="fixme" v="consider place=hamlet" />
		<tag k="name" v="Sollibøen" />
		<tag k="place" v="farm" />
		<tag k="ssr:stedsnr" v="800699" />
	</node>
	<node lat="62.795292368131705" lon="8.097922891049356" id="-7120">
		<tag k="fixme" v="consider place=hamlet" />
		<tag k="name" v="Øyan" />
		<tag k="place" v="farm" />
		<tag k="ssr:stedsnr" v="800588" />
	</node>
	<node lat="62.72160555697021" lon="6.7220611155470165" id="-7138">
		<tag k="fixme" v="consider place=hamlet" />
		<tag k="name" v="Raknes" />
		<tag k="place" v="village" />
		<tag k="ssr:stedsnr" v="819004" />
	</node>
	<node lat="62.667055559477944" lon="8.15539443813922" id="-7155">
		<tag k="name" v="Ufssalen" />
		<tag k="place" v="isolated_dwelling" />
		<tag k="ssr:stedsnr" v="921259" />
	</node>
	<node lat="62.66285833074814" lon="8.055691659326055" id="-7159">
		<tag k="alt_name" v="Turhussetra" />
		<tag k="historic" v="shieling" />
		<tag k="name" v="Turhussætra" />
		<tag k="place" v="isolated_dwelling" />
		<tag k="ssr:stedsnr" v="921283" />
	</node>
	<node lat="62.42078953546866" lon="8.321436489941835" id="-7164">
		<tag k="fixme" v="consider place=hamlet" />
		<tag k="name" v="Finnset" />
		<tag k="place" v="farm" />
		<tag k="ssr:stedsnr" v="921358" />
	</node>
	<node lat="62.77599999870517" lon="7.299705548969595" id="-7171">
		<tag k="historic" v="shieling" />
		<tag k="name" v="Årøsetra" />
		<tag k="place" v="isolated_dwelling" />
		<tag k="ssr:stedsnr" v="824303" />
	</node>
	<node lat="62.77402499736446" lon="7.270213885792771" id="-7172">
		<tag k="historic" v="shieling" />
		<tag k="name" v="Eikremssetra" />
		<tag k="place" v="isolated_dwelling" />
		<tag k="ssr:stedsnr" v="824304" />
	</node>
	<node lat="62.77068333550382" lon="7.43813332937851" id="-7173">
		<tag k="name" v="Mjelve" />
		<tag k="place" v="farm" />
		<tag k="ssr:stedsnr" v="824305" />
	</node>
	<node lat="62.76793530509312" lon="7.5197139792734236" id="-7174">
		<tag k="fixme" v="consider place=hamlet" />
		<tag k="name" v="Franssetet" />
		<tag k="place" v="farm" />
		<tag k="ssr:stedsnr" v="824311" />
	</node>
	<node lat="62.78057833672057" lon="7.480534956973755" id="-7175">
		<tag k="fixme" v="consider place=hamlet" />
		<tag k="name" v="Øverhagen" />
		<tag k="place" v="farm" />
		<tag k="ssr:stedsnr" v="824317" />
	</node>
	<node lat="62.71813720171999" lon="7.763231600288283" id="-7186">
		<tag k="alt_name" v="Skorga, ytre" />
		<tag k="fixme" v="consider place=hamlet" />
		<tag k="name" v="Ytre Skorga" />
		<tag k="place" v="farm" />
		<tag k="ssr:stedsnr" v="921495" />
	</node>
	<node lat="62.73347500009036" lon="7.857444441048744" id="-7188">
		<tag k="name" v="Myrhaug" />
		<tag k="place" v="farm" />
		<tag k="ssr:stedsnr" v="921502" />
	</node>
	<node lat="62.68802500097953" lon="7.478522226562108" id="-7194">
		<tag k="name" v="Myran" />
		<tag k="place" v="farm" />
		<tag k="ssr:stedsnr" v="824293" />
	</node>
	<node lat="62.65064722371468" lon="7.320913884466437" id="-7195">
		<tag k="name" v="Vestad" />
		<tag k="place" v="farm" />
		<tag k="ssr:stedsnr" v="824301" />
	</node>
	<node lat="62.74955033437333" lon="7.282287498696351" id="-7196">
		<tag k="fixme" v="consider place=hamlet" />
		<tag k="name" v="Årøneset" />
		<tag k="place" v="farm" />
		<tag k="ssr:stedsnr" v="824302" />
	</node>
	<node lat="62.55198333307589" lon="8.184733342815434" id="-7238">
		<tag k="alt_name" v="Vike, øvre" />
		<tag k="name" v="Øvre Vike" />
		<tag k="place" v="farm" />
		<tag k="ssr:stedsnr" v="922138" />
	</node>
	<node lat="62.77426944725186" lon="8.050661115852874" id="-7251">
		<tag k="name" v="Sjøgarden" />
		<tag k="place" v="farm" />
		<tag k="ssr:stedsnr" v="827724" />
	</node>
	<node lat="62.79428650350178" lon="8.207290762379955" id="-7252">
		<tag k="fixme" v="consider place=hamlet" />
		<tag k="name" v="Vika" />
		<tag k="place" v="farm" />
		<tag k="ssr:stedsnr" v="827726" />
	</node>
	<node lat="62.800508336786784" lon="8.176366674574489" id="-7253">
		<tag k="name" v="Myra" />
		<tag k="place" v="farm" />
		<tag k="ssr:stedsnr" v="827728" />
	</node>
	<node lat="62.68800497484307" lon="7.9958126264898794" id="-7254">
		<tag k="fixme" v="consider place=hamlet" />
		<tag k="name" v="Nerland" />
		<tag k="place" v="farm" />
		<tag k="ssr:stedsnr" v="922292" />
	</node>
	<node lat="62.702476830931516" lon="7.944211268537843" id="-7266">
		<tag k="fixme" v="consider place=hamlet" />
		<tag k="name" v="Hjellen" />
		<tag k="place" v="farm" />
		<tag k="ssr:stedsnr" v="922401" />
	</node>
	<node lat="62.805558332711186" lon="7.6868472292166246" id="-7275">
		<tag k="name" v="Brattsetgjerdet" />
		<tag k="place" v="farm" />
		<tag k="ssr:stedsnr" v="922736" />
	</node>
	<node lat="62.71655000384732" lon="7.539452771231076" id="-7276">
		<tag k="historic" v="shieling" />
		<tag k="name" v="Skålsetra" />
		<tag k="place" v="isolated_dwelling" />
		<tag k="ssr:stedsnr" v="922746" />
	</node>
	<node lat="62.77303333398787" lon="7.962477772496646" id="-7278">
		<tag k="name" v="Gussiåsstua" />
		<tag k="place" v="farm" />
		<tag k="ssr:stedsnr" v="830420" />
	</node>
	<node lat="62.77087877983253" lon="7.426003767683469" id="-7280">
		<tag k="fixme" v="consider place=hamlet" />
		<tag k="name" v="Skjerslia" />
		<tag k="place" v="farm" />
		<tag k="ssr:stedsnr" v="922750" />
	</node>
	<node lat="62.777189437948515" lon="7.476726212690075" id="-7281">
		<tag k="fixme" v="consider place=hamlet" />
		<tag k="name" v="Hamna" />
		<tag k="place" v="farm" />
		<tag k="ssr:stedsnr" v="922757" />
	</node>
	<node lat="62.783164910452776" lon="7.543865315443857" id="-7282">
		<tag k="fixme" v="consider place=hamlet" />
		<tag k="name" v="Hungnes" />
		<tag k="place" v="farm" />
		<tag k="ssr:stedsnr" v="922760" />
	</node>
	<node lat="62.80974645861461" lon="7.6939696115083684" id="-7293">
		<tag k="fixme" v="consider place=hamlet" />
		<tag k="name" v="Øverlia" />
		<tag k="place" v="farm" />
		<tag k="ssr:stedsnr" v="923747" />
	</node>
	<node lat="62.733411109597824" lon="7.148125005144871" id="-7299">
		<tag k="leisure" v="pitch" />
		<tag k="name" v="Aker Stadion" />
		<tag k="ssr:stedsnr" v="847622" />
	</node>
	<node lat="62.736619446480915" lon="7.096702768937699" id="-7304">
		<tag k="name" v="Kvam" />
		<tag k="place" v="farm" />
		<tag k="ssr:stedsnr" v="861071" />
	</node>
	<node lat="62.70111802902776" lon="7.94877490262518" id="-7311">
		<tag k="fixme" v="consider place=hamlet" />
		<tag k="name" v="Helle" />
		<tag k="place" v="farm" />
		<tag k="ssr:stedsnr" v="861405" />
	</node>
	<node lat="62.7031666659261" lon="7.99297500486339" id="-7314">
		<tag k="alt_name" v="Øygardsetra" />
		<tag k="historic" v="shieling" />
		<tag k="name" v="Øygardsætra" />
		<tag k="place" v="isolated_dwelling" />
		<tag k="ssr:stedsnr" v="861418" />
	</node>
	<node lat="62.72703611013502" lon="8.1361361096287" id="-7320">
		<tag k="alt_name" v="Breiviksetra" />
		<tag k="name" v="Breidviksætra" />
		<tag k="place" v="isolated_dwelling" />
		<tag k="ssr:stedsnr" v="861435" />
	</node>
	<node lat="62.717994441970895" lon="7.813611117634084" id="-7321">
		<tag k="alt_name" v="Trollhaugsetra" />
		<tag k="name" v="Trollhaugsætra" />
		<tag k="place" v="isolated_dwelling" />
		<tag k="ssr:stedsnr" v="861437" />
	</node>
	<node lat="62.66591388780341" lon="7.351983333782885" id="-7324">
		<tag k="name" v="Engvik" />
		<tag k="place" v="farm" />
		<tag k="ssr:stedsnr" v="861722" />
	</node>
	<node lat="62.78390277704777" lon="7.489802786134867" id="-7327">
		<tag k="name" v="Trøa" />
		<tag k="place" v="farm" />
		<tag k="ssr:stedsnr" v="861809" />
	</node>
	<node lat="62.80643055695115" lon="7.842613891282704" id="-7340">
		<tag k="name" v="Sagtrøa" />
		<tag k="place" v="farm" />
		<tag k="ssr:stedsnr" v="862556" />
	</node>
	<node lat="62.72893332906087" lon="6.762344446076934" id="-7353">
		<tag k="name" v="Nyland" />
		<tag k="place" v="farm" />
		<tag k="ssr:stedsnr" v="876701" />
	</node>
	<node lat="62.69081666653647" lon="6.854677779442667" id="-7359">
		<tag k="name" v="Midttun" />
		<tag k="place" v="farm" />
		<tag k="ssr:stedsnr" v="880239" />
	</node>
	<node lat="62.704786108918654" lon="6.707597228332647" id="-7363">
		<tag k="name" v="Bakken" />
		<tag k="place" v="farm" />
		<tag k="ssr:stedsnr" v="880604" />
	</node>
	<node lat="62.70028610898157" lon="7.443791659476976" id="-7377">
		<tag k="name" v="Kvila" />
		<tag k="place" v="isolated_dwelling" />
		<tag k="ssr:stedsnr" v="884204" />
	</node>
	<node lat="62.67189722212138" lon="7.3095611106658644" id="-7383">
		<tag k="name" v="Bjørga" />
		<tag k="place" v="farm" />
		<tag k="ssr:stedsnr" v="884158" />
	</node>
	<node lat="62.79003610671298" lon="8.18106110864932" id="-7424">
		<tag k="name" v="Rønningsetra" />
		<tag k="place" v="locality" />
		<tag k="ssr:stedsnr" v="887252" />
	</node>
	<node lat="62.73355833333535" lon="8.141216661737781" id="-7428">
		<tag k="historic" v="shieling" />
		<tag k="name" v="Gammelsetra" />
		<tag k="place" v="isolated_dwelling" />
		<tag k="ssr:stedsnr" v="887359" />
	</node>
	<node lat="62.77073611367475" lon="8.106963897687173" id="-7432">
		<tag k="name" v="Stubøsetra" />
		<tag k="place" v="locality" />
		<tag k="ssr:stedsnr" v="887401" />
	</node>
	<node lat="62.74433333726385" lon="8.098502784479024" id="-7433">
		<tag k="name" v="Fangstølen" />
		<tag k="place" v="locality" />
		<tag k="ssr:stedsnr" v="887516" />
	</node>
	<node lat="62.693941663033485" lon="8.02221111979536" id="-7448">
		<tag k="name" v="Reitasetra" />
		<tag k="place" v="locality" />
		<tag k="ssr:stedsnr" v="887808" />
	</node>
	<node lat="62.79462499902726" lon="7.802488890985727" id="-7451">
		<tag k="name" v="Saga" />
		<tag k="place" v="farm" />
		<tag k="ssr:stedsnr" v="887847" />
	</node>
	<node lat="62.67810689868502" lon="7.905477325192986" id="-7457">
		<tag k="name" v="Gammelstølen" />
		<tag k="place" v="locality" />
		<tag k="ssr:stedsnr" v="887998" />
	</node>
	<node lat="62.68160000437816" lon="7.908366669250654" id="-7458">
		<tag k="name" v="Svagrovstølen" />
		<tag k="place" v="locality" />
		<tag k="ssr:stedsnr" v="888000" />
	</node>
	<node lat="62.747978188224394" lon="7.143214821896175" id="-7462">
		<tag k="fixme" v="consider tourism=alpine_hut or tourism=chalet" />
		<tag k="name" v="Storlihytta" />
		<tag k="old_name" v="Storlia" />
		<tag k="ssr:stedsnr" v="921085" />
		<tag k="tourism" v="wilderness_hut" />
	</node>
	<node lat="62.700053913808766" lon="7.467802576786217" id="-7468">
		<tag k="fixme" v="consider place=hamlet" />
		<tag k="name" v="Berg" />
		<tag k="place" v="farm" />
		<tag k="ssr:stedsnr" v="921711" />
	</node>
	<node lat="62.64266666797245" lon="8.025183330409043" id="-7469">
		<tag k="historic" v="shieling" />
		<tag k="name" v="Brekkesætra" />
		<tag k="place" v="isolated_dwelling" />
		<tag k="ssr:stedsnr" v="921391" />
	</node>
	<node lat="62.73227330054617" lon="7.003351388574243" id="-7473">
		<tag k="fixme" v="consider place=hamlet" />
		<tag k="name" v="Mordal" />
		<tag k="place" v="farm" />
		<tag k="ssr:stedsnr" v="922076" />
	</node>
	<node lat="62.72414825011916" lon="7.294393875228112" id="-7476">
		<tag k="fixme" v="consider place=hamlet" />
		<tag k="name" v="Draget" />
		<tag k="place" v="farm" />
		<tag k="ssr:stedsnr" v="922253" />
	</node>
	<node lat="62.60618055675069" lon="8.131202783736898" id="-7477">
		<tag k="alt_name" v="Meringdalsetra" />
		<tag k="name" v="Meringdalsætra" />
		<tag k="place" v="locality" />
		<tag k="ssr:stedsnr" v="922316" />
	</node>
	<node lat="62.83614297577451" lon="7.804112801822658" id="-7479">
		<tag k="fixme" v="consider place=hamlet" />
		<tag k="name" v="Botterlia" />
		<tag k="place" v="farm" />
		<tag k="ssr:stedsnr" v="922506" />
	</node>
	<node lat="62.64880277653571" lon="7.321127770640364" id="-7482">
		<tag k="name" v="Solheim" />
		<tag k="place" v="farm" />
		<tag k="ssr:stedsnr" v="922605" />
	</node>
	<node lat="62.77567501454968" lon="8.075053046098086" id="-7485">
		<tag k="fixme" v="consider place=hamlet" />
		<tag k="name" v="Stubøen" />
		<tag k="place" v="farm" />
		<tag k="ssr:stedsnr" v="922591" />
	</node>
	<node lat="62.73325277940178" lon="6.932947212563111" id="-7498">
		<tag k="name" v="Løneset" />
		<tag k="place" v="isolated_dwelling" />
		<tag k="ssr:stedsnr" v="937719" />
	</node>
	<node lat="62.73684931095512" lon="7.138760989447239" id="-7520">
		<tag k="amenity" v="hospital" />
		<tag k="name" v="Molde sjukehus" />
		<tag k="old_name" v="Fylkesjukehuset" />
		<tag k="ssr:stedsnr" v="945708" />
	</node>
	<node lat="62.732365264529165" lon="7.064232177624692" id="-7521">
		<tag k="alt_name" v="Kringstadvorpen" />
		<tag k="name" v="Kringstadvorpa" />
		<tag k="old_name" v="Kringstad" />
		<tag k="place" v="farm" />
		<tag k="ssr:stedsnr" v="945606" />
	</node>
	<node lat="62.74035000278206" lon="7.01813888887701" id="-7522">
		<tag k="historic" v="shieling" />
		<tag k="name" v="Mordalssetra" />
		<tag k="place" v="isolated_dwelling" />
		<tag k="ssr:stedsnr" v="945609" />
	</node>
	<node lat="62.79177499874776" lon="8.214441669569348" id="-7553">
		<tag k="fixme" v="consider place=hamlet" />
		<tag k="name" v="Meisalstranda" />
		<tag k="place" v="village" />
		<tag k="ssr:stedsnr" v="948382" />
	</node>
	<node lat="62.74646110906024" lon="7.19825000884058" id="-7575">
		<tag k="name" v="Øvre Fuglset" />
		<tag k="place" v="isolated_dwelling" />
		<tag k="ssr:stedsnr" v="949809" />
	</node>
	<node lat="62.776598006201226" lon="8.065445247644858" id="-7582">
		<tag k="fixme" v="consider place=hamlet" />
		<tag k="name" v="Eidsvåg" />
		<tag k="place" v="farm" />
		<tag k="ssr:stedsnr" v="981002" />
	</node>
	<node lat="62.80173813320858" lon="8.17151941314691" id="-7583">
		<tag k="fixme" v="consider place=hamlet" />
		<tag k="name" v="Eidsøra" />
		<tag k="place" v="farm" />
		<tag k="ssr:stedsnr" v="981088" />
	</node>
	<node lat="62.73213684386879" lon="8.107234187624224" id="-7584">
		<tag k="name" v="Sandvika" />
		<tag k="place" v="locality" />
		<tag k="ssr:stedsnr" v="981089" />
	</node>
	<node lat="62.6836613177955" lon="8.116199895403604" id="-7586">
		<tag k="fixme" v="consider place=hamlet" />
		<tag k="name" v="Nauste" />
		<tag k="place" v="farm" />
		<tag k="ssr:stedsnr" v="981127" />
	</node>
	<node lat="62.716201196993275" lon="6.725443421343625" id="-7587">
		<tag k="fixme" v="consider place=hamlet" />
		<tag k="name" v="Nerland" />
		<tag k="place" v="farm" />
		<tag k="ssr:stedsnr" v="981325" />
	</node>
	<node lat="62.674787897555255" lon="6.900301008405301" id="-7589">
		<tag k="name" v="Tautra" />
		<tag k="place" v="hamlet" />
		<tag k="ssr:stedsnr" v="981300" />
	</node>
	<node lat="62.67269892697619" lon="6.677318643807713" id="-7591">
		<tag k="fixme" v="consider place=hamlet" />
		<tag k="name" v="Indre Midsund" />
		<tag k="place" v="farm" />
		<tag k="ssr:stedsnr" v="981302" />
	</node>
	<node lat="62.673521795976455" lon="6.66301234218675" id="-7592">
		<tag k="fixme" v="consider place=hamlet" />
		<tag k="name" v="Midsundholmen" />
		<tag k="place" v="farm" />
		<tag k="ssr:stedsnr" v="981303" />
	</node>
	<node lat="62.6810446071662" lon="6.671573192714411" id="-7593">
		<tag k="fixme" v="consider place=hamlet" />
		<tag k="name" v="Ytre Midsund" />
		<tag k="place" v="farm" />
		<tag k="ssr:stedsnr" v="981304" />
	</node>
	<node lat="62.68351702226417" lon="6.639088609607359" id="-7594">
		<tag k="fixme" v="consider place=hamlet" />
		<tag k="name" v="Bløfeta" />
		<tag k="place" v="farm" />
		<tag k="ssr:stedsnr" v="981306" />
	</node>
	<node lat="62.69600064112656" lon="6.694649750271614" id="-7595">
		<tag k="fixme" v="consider place=hamlet" />
		<tag k="name" v="Akselvoll" />
		<tag k="place" v="farm" />
		<tag k="ssr:stedsnr" v="981307" />
	</node>
	<node lat="62.736570836893975" lon="7.097958128185051" id="-7596">
		<tag k="fixme" v="consider place=hamlet" />
		<tag k="name" v="Mek" />
		<tag k="place" v="farm" />
		<tag k="ssr:stedsnr" v="981462" />
	</node>
	<node lat="62.74029181544563" lon="7.13201930390437" id="-7597">
		<tag k="fixme" v="consider place=hamlet" />
		<tag k="name" v="Bjørset" />
		<tag k="place" v="farm" />
		<tag k="ssr:stedsnr" v="981463" />
	</node>
	<node lat="62.82369167316195" lon="7.7703761954769845" id="-7598">
		<tag k="fixme" v="consider place=hamlet" />
		<tag k="name" v="Hatlen" />
		<tag k="place" v="farm" />
		<tag k="ssr:stedsnr" v="981523" />
	</node>
	<node lat="62.73505278014817" lon="7.0857055482324975" id="-7605">
		<tag k="name" v="Mek" />
		<tag k="place" v="suburb" />
		<tag k="ssr:stedsnr" v="11060" />
	</node>
	<node lat="62.66101944752438" lon="8.110891674266004" id="-7617">
		<tag k="fixme" v="consider place=hamlet" />
		<tag k="name" v="Eresfjord" />
		<tag k="place" v="village" />
		<tag k="ssr:stedsnr" v="11250" />
	</node>
	<node lat="62.63166666827429" lon="8.099797227289704" id="-7622">
		<tag k="name" v="Osen" />
		<tag k="place" v="farm" />
		<tag k="ssr:stedsnr" v="11368" />
	</node>
	<node lat="62.70490832954045" lon="8.07542222844804" id="-7625">
		<tag k="alt_name" v="Sølåttsetra" />
		<tag k="name" v="Sølåttsætra" />
		<tag k="place" v="isolated_dwelling" />
		<tag k="ssr:stedsnr" v="11449" />
	</node>
	<node lat="62.72882857880212" lon="8.031094782444113" id="-7626">
		<tag k="fixme" v="consider place=hamlet" />
		<tag k="name" v="Ernes" />
		<tag k="place" v="farm" />
		<tag k="ssr:stedsnr" v="11470" />
	</node>
	<node lat="62.78365065557244" lon="8.084090766943232" id="-7628">
		<tag k="fixme" v="consider place=hamlet" />
		<tag k="name" v="Jordfallet" />
		<tag k="place" v="farm" />
		<tag k="ssr:stedsnr" v="11600" />
	</node>
	<node lat="62.67909148269879" lon="7.281894764449976" id="-7631">
		<tag k="alt_name" v="Storvik" />
		<tag k="fixme" v="consider place=hamlet" />
		<tag k="name" v="Storvika" />
		<tag k="place" v="farm" />
		<tag k="ssr:stedsnr" v="11717" />
	</node>
	<node lat="62.66927428721149" lon="7.303705753938387" id="-7632">
		<tag k="fixme" v="consider place=hamlet" />
		<tag k="name" v="Sekkesetra" />
		<tag k="place" v="farm" />
		<tag k="ssr:stedsnr" v="11727" />
	</node>
	<node lat="62.763840195785754" lon="7.497137844891176" id="-7637">
		<tag k="name" v="Fransgjerdet" />
		<tag k="old_name" v="FRANSGJERDET OG HAMMEREN" />
		<tag k="place" v="farm" />
		<tag k="ssr:stedsnr" v="11853" />
	</node>
	<node lat="62.727252775551065" lon="7.294852773837156" id="-7639">
		<tag k="name" v="Geilen" />
		<tag k="old_name" v="Geiten" />
		<tag k="place" v="farm" />
		<tag k="ssr:stedsnr" v="11750" />
	</node>
	<node lat="62.735699995819616" lon="7.419269453225301" id="-7641">
		<tag k="name" v="Nygjerdet" />
		<tag k="place" v="farm" />
		<tag k="ssr:stedsnr" v="11763" />
	</node>
	<node lat="62.734331111011564" lon="7.411400175588978" id="-7642">
		<tag k="fixme" v="consider place=hamlet" />
		<tag k="name" v="Røvik" />
		<tag k="place" v="farm" />
		<tag k="ssr:stedsnr" v="11765" />
	</node>
	<node lat="62.79531666394635" lon="7.530749992813449" id="-7666">
		<tag k="name" v="Furulund" />
		<tag k="place" v="farm" />
		<tag k="ssr:stedsnr" v="12757" />
	</node>
	<node lat="62.72736111543149" lon="6.759263882754503" id="-7697">
		<tag k="name" v="Lyngstad" />
		<tag k="place" v="farm" />
		<tag k="ssr:stedsnr" v="30252" />
	</node>
	<node lat="62.70465277735823" lon="6.728169449779623" id="-7708">
		<tag k="name" v="Strømme" />
		<tag k="place" v="farm" />
		<tag k="ssr:stedsnr" v="30572" />
	</node>
	<node lat="62.706997224417876" lon="6.86543056258617" id="-7715">
		<tag k="name" v="Gurosetra" />
		<tag k="place" v="locality" />
		<tag k="ssr:stedsnr" v="31526" />
	</node>
	<node lat="62.78838611014121" lon="7.712180556072745" id="-7727">
		<tag k="name" v="Malmen" />
		<tag k="place" v="isolated_dwelling" />
		<tag k="ssr:stedsnr" v="34134" />
	</node>
	<node lat="62.73747222408994" lon="7.388886110164173" id="-7763">
		<tag k="name" v="Reiten" />
		<tag k="place" v="farm" />
		<tag k="ssr:stedsnr" v="35298" />
	</node>
	<node lat="62.69440277975917" lon="7.920063889747478" id="-7778">
		<tag k="name" v="Stusetra" />
		<tag k="place" v="locality" />
		<tag k="ssr:stedsnr" v="37047" />
	</node>
	<node lat="62.66065555910204" lon="8.027408324631788" id="-7781">
		<tag k="name" v="Botnen" />
		<tag k="place" v="locality" />
		<tag k="ssr:stedsnr" v="37119" />
	</node>
	<node lat="62.65458992889173" lon="8.030640584534677" id="-7782">
		<tag k="name" v="Brekka" />
		<tag k="place" v="locality" />
		<tag k="ssr:stedsnr" v="37120" />
	</node>
	<node lat="62.68207222510665" lon="8.198722218175426" id="-7787">
		<tag k="name" v="Klæsså" />
		<tag k="place" v="locality" />
		<tag k="ssr:stedsnr" v="37137" />
	</node>
	<node lat="62.78030277505525" lon="7.512505563313582" id="-7874">
		<tag k="amenity" v="hospital" />
		<tag k="name" v="Oppdøl sjukehus" />
		<tag k="old_name" v="Oppdøl" />
		<tag k="ssr:stedsnr" v="72775" />
	</node>
	<node lat="62.78049999649726" lon="7.492772228939796" id="-7876">
		<tag k="name" v="Hjelset" />
		<tag k="place" v="village" />
		<tag k="ssr:stedsnr" v="72784" />
	</node>
	<node lat="62.650678582119795" lon="8.108547893373451" id="-7893">
		<tag k="alt_name" v="Ner Slenes;Slenes, nedre" />
		<tag k="fixme" v="consider place=hamlet" />
		<tag k="name" v="Nedre Slenes" />
		<tag k="place" v="farm" />
		<tag k="ssr:stedsnr" v="72343" />
	</node>
	<node lat="62.6946833376494" lon="8.019838897464373" id="-7897">
		<tag k="alt_name" v="Herutsetra" />
		<tag k="historic" v="shieling" />
		<tag k="name" v="Herutsætra" />
		<tag k="place" v="isolated_dwelling" />
		<tag k="ssr:stedsnr" v="72421" />
	</node>
	<node lat="62.710924887830345" lon="8.089771475395537" id="-7898">
		<tag k="fixme" v="consider place=hamlet" />
		<tag k="name" v="Sølåtta" />
		<tag k="place" v="farm" />
		<tag k="ssr:stedsnr" v="72428" />
	</node>
	<node lat="62.680930557854474" lon="7.894197224227311" id="-7906">
		<tag k="alt_name" v="Langesetra" />
		<tag k="historic" v="shieling" />
		<tag k="name" v="Langasætra" />
		<tag k="place" v="isolated_dwelling" />
		<tag k="ssr:stedsnr" v="72281" />
	</node>
	<node lat="62.79077222547634" lon="8.092866665353275" id="-7913">
		<tag k="name" v="Årstad" />
		<tag k="place" v="farm" />
		<tag k="ssr:stedsnr" v="72580" />
	</node>
	<node lat="62.698583331011534" lon="7.37723612037743" id="-7918">
		<tag k="fixme" v="consider place=hamlet" />
		<tag k="name" v="Nordnesje" />
		<tag k="place" v="farm" />
		<tag k="ssr:stedsnr" v="72670" />
	</node>
	<node lat="62.70488624946559" lon="7.5685238061364295" id="-7920">
		<tag k="fixme" v="consider place=hamlet" />
		<tag k="name" v="Reitan" />
		<tag k="place" v="farm" />
		<tag k="ssr:stedsnr" v="72677" />
	</node>
	<node lat="62.6943055551199" lon="7.390994438910623" id="-7921">
		<tag k="name" v="Nytun" />
		<tag k="place" v="farm" />
		<tag k="ssr:stedsnr" v="72681" />
	</node>
	<node lat="62.74821110960276" lon="7.490902785213619" id="-7924">
		<tag k="name" v="Gjerdet" />
		<tag k="place" v="farm" />
		<tag k="ssr:stedsnr" v="72752" />
	</node>
	<node lat="62.747941663717604" lon="7.236513880691098" id="-7925">
		<tag k="name" v="Solvang" />
		<tag k="place" v="farm" />
		<tag k="ssr:stedsnr" v="72759" />
	</node>
	<node lat="62.663055555611216" lon="6.578333339737723" id="-7927">
		<tag k="name" v="Drynjasundet" />
		<tag k="place" v="farm" />
		<tag k="ssr:stedsnr" v="72928" />
	</node>
	<node lat="62.808241667950355" lon="7.837991669950656" id="-7931">
		<tag k="name" v="Skogmo" />
		<tag k="place" v="farm" />
		<tag k="ssr:stedsnr" v="73596" />
	</node>
	<node lat="62.65998687515745" lon="7.3814434004473" id="-7933">
		<tag k="fixme" v="consider place=hamlet" />
		<tag k="name" v="Sekkenes" />
		<tag k="place" v="farm" />
		<tag k="ssr:stedsnr" v="73639" />
	</node>
	<node lat="62.43549722183244" lon="8.291286102313586" id="-7944">
		<tag k="name" v="Reiten" />
		<tag k="place" v="farm" />
		<tag k="ssr:stedsnr" v="81766" />
	</node>
	<node lat="62.697624998423024" lon="6.697613892102275" id="-7958">
		<tag k="name" v="Akselvoll" />
		<tag k="place" v="hamlet" />
		<tag k="ssr:stedsnr" v="91584" />
	</node>
	<node lat="62.67518333476138" lon="6.899619443530419" id="-7964">
		<tag k="name" v="Jogarden" />
		<tag k="place" v="farm" />
		<tag k="ssr:stedsnr" v="91479" />
	</node>
	<node lat="62.70918611524061" lon="7.597636108772789" id="-7973">
		<tag k="name" v="Stranda" />
		<tag k="place" v="farm" />
		<tag k="ssr:stedsnr" v="92484" />
	</node>
	<node lat="62.7245972255756" lon="6.916141670803373" id="-7976">
		<tag k="name" v="Gamlesetra" />
		<tag k="place" v="locality" />
		<tag k="ssr:stedsnr" v="92905" />
	</node>
	<node lat="62.68375277855287" lon="7.91062777592238" id="-8038">
		<tag k="name" v="Pestølen" />
		<tag k="place" v="locality" />
		<tag k="ssr:stedsnr" v="98049" />
	</node>
	<node lat="62.72895555476745" lon="7.823722229987611" id="-8039">
		<tag k="name" v="Gjerdet" />
		<tag k="place" v="farm" />
		<tag k="ssr:stedsnr" v="98004" />
	</node>
	<node lat="62.77876667118579" lon="8.07984166794199" id="-8076">
		<tag k="name" v="Stubøgeilen" />
		<tag k="place" v="farm" />
		<tag k="ssr:stedsnr" v="98698" />
	</node>
	<node lat="62.67365000074364" lon="8.167399994160988" id="-8088">
		<tag k="name" v="Kvidalsstølen" />
		<tag k="place" v="locality" />
		<tag k="ssr:stedsnr" v="98833" />
	</node>
	<node lat="62.82582222536145" lon="8.133136116881632" id="-8090">
		<tag k="name" v="Sivertstua" />
		<tag k="place" v="farm" />
		<tag k="ssr:stedsnr" v="98843" />
	</node>
	<node lat="62.7180222194889" lon="8.122575007437725" id="-8101">
		<tag k="name" v="Geilen" />
		<tag k="place" v="farm" />
		<tag k="ssr:stedsnr" v="111297" />
	</node>
	<node lat="62.74830278112108" lon="7.061997217192687" id="-8115">
		<tag k="historic" v="shieling" />
		<tag k="name" v="Haukabøsetra" />
		<tag k="place" v="isolated_dwelling" />
		<tag k="ssr:stedsnr" v="132080" />
	</node>
	<node lat="62.74415506190771" lon="7.198535707515824" id="-8118">
		<tag k="name" v="Fuglset" />
		<tag k="place" v="suburb" />
		<tag k="ssr:stedsnr" v="132093" />
	</node>
	<node lat="62.744555079300554" lon="6.994972299010149" id="-8119">
		<tag k="fixme" v="consider place=hamlet" />
		<tag k="name" v="Gauset" />
		<tag k="place" v="farm" />
		<tag k="ssr:stedsnr" v="132096" />
	</node>
	<node lat="62.7336864646422" lon="8.133849635618327" id="-8124">
		<tag k="alt_name" v="Hagbøsetra" />
		<tag k="historic" v="shieling" />
		<tag k="name" v="Hagbøsætra" />
		<tag k="place" v="isolated_dwelling" />
		<tag k="ssr:stedsnr" v="132449" />
	</node>
	<node lat="62.74557304248767" lon="7.770899630782841" id="-8125">
		<tag k="alt_name" v="Ranvika" />
		<tag k="fixme" v="consider place=hamlet" />
		<tag k="name" v="Ranvik" />
		<tag k="place" v="farm" />
		<tag k="ssr:stedsnr" v="132478" />
	</node>
	<node lat="62.777228055894746" lon="7.645211092723871" id="-8128">
		<tag k="fixme" v="consider place=hamlet" />
		<tag k="name" v="Ullaland" />
		<tag k="place" v="farm" />
		<tag k="ssr:stedsnr" v="132773" />
	</node>
	<node lat="62.766002780572535" lon="7.274502772258581" id="-8129">
		<tag k="name" v="Slemmestad" />
		<tag k="place" v="locality" />
		<tag k="ssr:stedsnr" v="132781" />
	</node>
	<node lat="62.74516666482441" lon="8.039263882442668" id="-8136">
		<tag k="name" v="Spelvika" />
		<tag k="place" v="isolated_dwelling" />
		<tag k="ssr:stedsnr" v="133430" />
	</node>
	<node lat="62.8008567231274" lon="7.7353779241028295" id="-8138">
		<tag k="fixme" v="consider place=hamlet" />
		<tag k="name" v="Nordhaugan" />
		<tag k="place" v="farm" />
		<tag k="ssr:stedsnr" v="133535" />
	</node>
	<node lat="62.80280729570706" lon="7.757937474517136" id="-8139">
		<tag k="fixme" v="consider place=hamlet" />
		<tag k="name" v="Aspholen" />
		<tag k="place" v="farm" />
		<tag k="ssr:stedsnr" v="133536" />
	</node>
	<node lat="62.791861179584316" lon="7.616431343337363" id="-8141">
		<tag k="alt_name" v="Ytre Nes;Nes, ytre" />
		<tag k="fixme" v="consider place=hamlet" />
		<tag k="name" v="Nes" />
		<tag k="place" v="farm" />
		<tag k="ssr:stedsnr" v="133735" />
	</node>
	<node lat="62.717352781915835" lon="6.738799993057712" id="-8150">
		<tag k="name" v="Lægda" />
		<tag k="place" v="farm" />
		<tag k="ssr:stedsnr" v="142226" />
	</node>
	<node lat="62.70845277441559" lon="6.7411444515036445" id="-8168">
		<tag k="name" v="Hole" />
		<tag k="place" v="hamlet" />
		<tag k="ssr:stedsnr" v="151759" />
	</node>
	<node lat="62.73339721858909" lon="6.841080565102865" id="-8169">
		<tag k="name" v="Dalsbø" />
		<tag k="place" v="farm" />
		<tag k="ssr:stedsnr" v="152576" />
	</node>
	<node lat="62.71313333042135" lon="7.491169443620733" id="-8180">
		<tag k="historic" v="shieling" />
		<tag k="name" v="Gammelseterstølen" />
		<tag k="place" v="isolated_dwelling" />
		<tag k="ssr:stedsnr" v="156222" />
	</node>
	<node lat="62.79184722211648" lon="7.735677774593456" id="-8190">
		<tag k="name" v="Røra" />
		<tag k="place" v="farm" />
		<tag k="ssr:stedsnr" v="156245" />
	</node>
	<node lat="62.753216670891405" lon="7.115183337179194" id="-8213">
		<tag k="historic" v="shieling" />
		<tag k="name" v="Preuthunsetra" />
		<tag k="place" v="isolated_dwelling" />
		<tag k="ssr:stedsnr" v="156636" />
	</node>
	<node lat="62.738147219195376" lon="7.148252784124069" id="-8217">
		<tag k="leisure" v="park" />
		<tag k="name" v="Reknesparken" />
		<tag k="ssr:stedsnr" v="156720" />
	</node>
	<node lat="62.69674479113468" lon="7.432295954658887" id="-8222">
		<tag k="fixme" v="consider place=hamlet" />
		<tag k="name" v="Hamnavika" />
		<tag k="place" v="farm" />
		<tag k="ssr:stedsnr" v="156844" />
	</node>
	<node lat="62.75810555559801" lon="8.033591669407254" id="-8288">
		<tag k="name" v="Nordbø" />
		<tag k="place" v="farm" />
		<tag k="ssr:stedsnr" v="159740" />
	</node>
	<node lat="62.697347225945926" lon="7.9103861194804885" id="-8319">
		<tag k="name" v="Haugsetra" />
		<tag k="place" v="locality" />
		<tag k="ssr:stedsnr" v="159946" />
	</node>
	<node lat="62.70613610792203" lon="7.95291944543003" id="-8322">
		<tag k="leisure" v="pitch" />
		<tag k="name" v="Vistdal idrettsplass" />
		<tag k="ssr:stedsnr" v="159989" />
	</node>
	<node lat="62.68613805944419" lon="6.805717260213365" id="-8339">
		<tag k="fixme" v="consider place=hamlet" />
		<tag k="name" v="Skottgarden" />
		<tag k="place" v="farm" />
		<tag k="ssr:stedsnr" v="193035" />
	</node>
	<node lat="62.73774325981522" lon="7.179713396493702" id="-8348">
		<tag k="fixme" v="consider place=hamlet" />
		<tag k="name" v="Moldegård" />
		<tag k="place" v="farm" />
		<tag k="ssr:stedsnr" v="193065" />
	</node>
	<node lat="62.73601208448592" lon="6.9813407145378354" id="-8349">
		<tag k="fixme" v="consider place=hamlet" />
		<tag k="name" v="Julbøen" />
		<tag k="place" v="farm" />
		<tag k="ssr:stedsnr" v="193070" />
	</node>
	<node lat="62.56459444214689" lon="8.143802786991277" id="-8357">
		<tag k="fixme" v="consider tourism=alpine_hut or tourism=chalet" />
		<tag k="name" v="Hoemsbu" />
		<tag k="ssr:stedsnr" v="193174" />
		<tag k="tourism" v="wilderness_hut" />
	</node>
	<node lat="62.682511110456225" lon="8.166750001726935" id="-8360">
		<tag k="name" v="Gudleikslia" />
		<tag k="place" v="locality" />
		<tag k="ssr:stedsnr" v="193291" />
	</node>
	<node lat="62.406141668719094" lon="8.540136105775192" id="-8363">
		<tag k="fixme" v="consider tourism=alpine_hut or tourism=chalet" />
		<tag k="name" v="Aursjøhytta" />
		<tag k="ssr:stedsnr" v="193330" />
		<tag k="tourism" v="wilderness_hut" />
	</node>
	<node lat="62.4733694480711" lon="8.177027780283776" id="-8367">
		<tag k="name" v="Reitan" />
		<tag k="place" v="farm" />
		<tag k="ssr:stedsnr" v="194086" />
	</node>
	<node lat="62.741188891075275" lon="7.720280556517996" id="-8374">
		<tag k="name" v="Hestadsætra" />
		<tag k="place" v="isolated_dwelling" />
		<tag k="ssr:stedsnr" v="193509" />
	</node>
	<node lat="62.74022222049103" lon="7.526463890313655" id="-8378">
		<tag k="name" v="Solemdalssetra" />
		<tag k="place" v="isolated_dwelling" />
		<tag k="ssr:stedsnr" v="193739" />
	</node>
	<node lat="62.73070278186247" lon="7.340136107840242" id="-8381">
		<tag k="name" v="Nygjerdet" />
		<tag k="place" v="farm" />
		<tag k="ssr:stedsnr" v="193745" />
	</node>
	<node lat="62.75922222115112" lon="7.318730564366206" id="-8384">
		<tag k="name" v="Frydenlund" />
		<tag k="place" v="farm" />
		<tag k="ssr:stedsnr" v="193772" />
	</node>
	<node lat="62.77278888584117" lon="7.458255554499586" id="-8385">
		<tag k="name" v="Hagen" />
		<tag k="place" v="farm" />
		<tag k="ssr:stedsnr" v="193776" />
	</node>
	<node lat="62.77598439993835" lon="7.579263175794304" id="-8386">
		<tag k="fixme" v="consider place=hamlet" />
		<tag k="name" v="Mauset" />
		<tag k="place" v="farm" />
		<tag k="ssr:stedsnr" v="193781" />
	</node>
	<node lat="62.767550000532474" lon="7.4191722306487495" id="-8388">
		<tag k="name" v="Hatlen" />
		<tag k="place" v="farm" />
		<tag k="ssr:stedsnr" v="193851" />
	</node>
	<node lat="62.695190313518324" lon="7.3793057140951905" id="-8390">
		<tag k="fixme" v="consider place=hamlet" />
		<tag k="name" v="Sørnesje" />
		<tag k="place" v="farm" />
		<tag k="ssr:stedsnr" v="193679" />
	</node>
	<node lat="62.723716668416955" lon="7.413983333669583" id="-8395">
		<tag k="name" v="Båtneset" />
		<tag k="place" v="farm" />
		<tag k="ssr:stedsnr" v="193802" />
	</node>
	<node lat="62.7262518043205" lon="7.4211545322562955" id="-8397">
		<tag k="fixme" v="consider place=hamlet" />
		<tag k="name" v="Geitnes" />
		<tag k="place" v="farm" />
		<tag k="ssr:stedsnr" v="193805" />
	</node>
	<node lat="62.7288055547433" lon="7.332375008400096" id="-8398">
		<tag k="name" v="Bergly" />
		<tag k="place" v="farm" />
		<tag k="ssr:stedsnr" v="193814" />
	</node>
	<node lat="62.75098132747636" lon="7.507088424522925" id="-8399">
		<tag k="fixme" v="consider place=hamlet" />
		<tag k="name" v="Solemdalen" />
		<tag k="place" v="farm" />
		<tag k="ssr:stedsnr" v="193829" />
	</node>
	<node lat="62.76132233033909" lon="7.528533823729012" id="-8401">
		<tag k="fixme" v="consider place=hamlet" />
		<tag k="name" v="Tollåsen" />
		<tag k="place" v="farm" />
		<tag k="ssr:stedsnr" v="193833" />
	</node>
	<node lat="62.75293611356536" lon="7.282213882091204" id="-8402">
		<tag k="name" v="Berglund" />
		<tag k="place" v="farm" />
		<tag k="ssr:stedsnr" v="193835" />
	</node>
	<node lat="62.68563055285432" lon="8.206374991231943" id="-8411">
		<tag k="historic" v="shieling" />
		<tag k="name" v="Storstølen" />
		<tag k="place" v="isolated_dwelling" />
		<tag k="ssr:stedsnr" v="194281" />
	</node>
	<node lat="62.691763891138656" lon="8.100002776785582" id="-8412">
		<tag k="alt_name" v="Naustesetra" />
		<tag k="historic" v="shieling" />
		<tag k="name" v="Naustesætra" />
		<tag k="place" v="isolated_dwelling" />
		<tag k="ssr:stedsnr" v="194282" />
	</node>
	<node lat="62.79716561436753" lon="7.642737894354638" id="-8421">
		<tag k="fixme" v="consider place=hamlet" />
		<tag k="name" v="Grovan" />
		<tag k="place" v="farm" />
		<tag k="ssr:stedsnr" v="194734" />
	</node>
	<node lat="62.799191545436436" lon="7.5437612722456695" id="-8424">
		<tag k="fixme" v="consider place=hamlet" />
		<tag k="name" v="Roaldset" />
		<tag k="place" v="farm" />
		<tag k="ssr:stedsnr" v="194766" />
	</node>
	<node lat="62.791562845275436" lon="7.7251458295543225" id="-8434">
		<tag k="fixme" v="consider place=hamlet" />
		<tag k="name" v="Øyra" />
		<tag k="place" v="farm" />
		<tag k="ssr:stedsnr" v="195600" />
	</node>
	<node lat="62.744379796692016" lon="7.956851594644461" id="-8446">
		<tag k="fixme" v="consider place=hamlet" />
		<tag k="name" v="Gauprøra" />
		<tag k="place" v="farm" />
		<tag k="ssr:stedsnr" v="207718" />
	</node>
	<node lat="62.71829444670888" lon="7.428830550937928" id="-8499">
		<tag k="name" v="Vågen" />
		<tag k="place" v="farm" />
		<tag k="ssr:stedsnr" v="217266" />
	</node>
	<node lat="62.747517565118926" lon="7.491338898620551" id="-8500">
		<tag k="fixme" v="consider place=hamlet" />
		<tag k="name" v="Solemdalsgjerdet" />
		<tag k="place" v="farm" />
		<tag k="ssr:stedsnr" v="217267" />
	</node>
	<node lat="62.75442222114489" lon="7.513244450461133" id="-8501">
		<tag k="name" v="Solstad" />
		<tag k="place" v="farm" />
		<tag k="ssr:stedsnr" v="217269" />
	</node>
	<node lat="62.731155554206374" lon="7.056188893407374" id="-8509">
		<tag k="name" v="Hatlevika" />
		<tag k="place" v="isolated_dwelling" />
		<tag k="ssr:stedsnr" v="217636" />
	</node>
	<node lat="62.64909444156051" lon="8.112536109358016" id="-8531">
		<tag k="name" v="Slenes" />
		<tag k="place" v="farm" />
		<tag k="ssr:stedsnr" v="219395" />
	</node>
	<node lat="62.672091671126836" lon="8.12690278209121" id="-8555">
		<tag k="name" v="Risan" />
		<tag k="place" v="farm" />
		<tag k="ssr:stedsnr" v="220495" />
	</node>
	<node lat="62.7717777776107" lon="7.987697229808592" id="-8574">
		<tag k="name" v="Jevika" />
		<tag k="place" v="farm" />
		<tag k="ssr:stedsnr" v="220747" />
	</node>
	<node lat="62.68560277596414" lon="8.016905559606199" id="-8576">
		<tag k="name" v="Åkrokstølen" />
		<tag k="place" v="locality" />
		<tag k="ssr:stedsnr" v="220847" />
	</node>
	<node lat="62.80978333776179" lon="7.827499990461502" id="-8581">
		<tag k="name" v="Reitlia" />
		<tag k="place" v="farm" />
		<tag k="ssr:stedsnr" v="220866" />
	</node>
	<node lat="62.46906722443739" lon="8.184943486654246" id="-8587">
		<tag k="fixme" v="consider place=hamlet" />
		<tag k="name" v="Eikesdal" />
		<tag k="place" v="farm" />
		<tag k="ssr:stedsnr" v="223459" />
	</node>
	<node lat="62.832858332110135" lon="7.79550277873087" id="-8622">
		<tag k="name" v="Nersollia" />
		<tag k="place" v="farm" />
		<tag k="ssr:stedsnr" v="277254" />
	</node>
	<node lat="62.760780553476835" lon="7.1949972134652445" id="-8638">
		<tag k="historic" v="shieling" />
		<tag k="name" v="Fuglsetsetra" />
		<tag k="place" v="isolated_dwelling" />
		<tag k="ssr:stedsnr" v="277659" />
	</node>
	<node lat="62.74261389278043" lon="7.14318889624848" id="-8639">
		<tag k="name" v="Kringsjå" />
		<tag k="place" v="suburb" />
		<tag k="ssr:stedsnr" v="277667" />
	</node>
	<node lat="62.413061106764445" lon="8.34143610885138" id="-8674">
		<tag k="name" v="Finnsetsetra" />
		<tag k="place" v="locality" />
		<tag k="ssr:stedsnr" v="280087" />
	</node>
	<node lat="62.80804444700841" lon="8.070780547536762" id="-8680">
		<tag k="name" v="Storlisetra" />
		<tag k="place" v="isolated_dwelling" />
		<tag k="ssr:stedsnr" v="280298" />
	</node>
	<node lat="62.791019448689866" lon="7.893266669159453" id="-8701">
		<tag k="name" v="Pinneska" />
		<tag k="place" v="isolated_dwelling" />
		<tag k="ssr:stedsnr" v="280694" />
	</node>
	<node lat="62.72005833743564" lon="7.778186114177878" id="-8720">
		<tag k="amenity" v="school" />
		<tag k="name" v="Skorgenesskulen" />
		<tag k="ssr:stedsnr" v="280896" />
	</node>
	<node lat="62.77259444224589" lon="7.966394449673248" id="-8736">
		<tag k="name" v="Asbjørnstua" />
		<tag k="place" v="farm" />
		<tag k="ssr:stedsnr" v="284445" />
	</node>
	<node lat="62.686061114174755" lon="6.803450008450919" id="-8740">
		<tag k="name" v="Vikanes" />
		<tag k="place" v="farm" />
		<tag k="ssr:stedsnr" v="293722" />
	</node>
	<node lat="62.76030223630163" lon="7.470836100424186" id="-8755">
		<tag k="fixme" v="consider place=hamlet" />
		<tag k="name" v="Stranda" />
		<tag k="place" v="farm" />
		<tag k="ssr:stedsnr" v="314837" />
	</node>
	<node lat="62.68323693164546" lon="6.7717425475089446" id="-8757">
		<tag k="fixme" v="consider place=hamlet" />
		<tag k="name" v="Sør-Heggdal" />
		<tag k="place" v="farm" />
		<tag k="ssr:stedsnr" v="315034" />
	</node>
	<node lat="62.687923727713915" lon="6.821162610518872" id="-8758">
		<tag k="fixme" v="consider place=hamlet" />
		<tag k="name" v="Orset" />
		<tag k="place" v="farm" />
		<tag k="ssr:stedsnr" v="315050" />
	</node>
	<node lat="62.69617777719903" lon="8.158491657246337" id="-8764">
		<tag k="name" v="Drivsætra" />
		<tag k="place" v="locality" />
		<tag k="ssr:stedsnr" v="315284" />
	</node>
	<node lat="62.78721621269716" lon="8.231532237138241" id="-8769">
		<tag k="alt_name" v="Meisal" />
		<tag k="fixme" v="consider place=hamlet" />
		<tag k="name" v="Meisalen" />
		<tag k="place" v="farm" />
		<tag k="ssr:stedsnr" v="315377" />
	</node>
	<node lat="62.73432399016798" lon="7.71998022654269" id="-8773">
		<tag k="fixme" v="consider place=hamlet" />
		<tag k="name" v="Hestad" />
		<tag k="place" v="farm" />
		<tag k="ssr:stedsnr" v="315474" />
	</node>
	<node lat="62.647955558262716" lon="7.834175006414542" id="-8776">
		<tag k="fixme" v="consider tourism=alpine_hut or tourism=chalet" />
		<tag k="name" v="Måsvassbu" />
		<tag k="old_name" v="Måsvassbu th" />
		<tag k="ssr:stedsnr" v="315235" />
		<tag k="tourism" v="wilderness_hut" />
	</node>
	<node lat="62.64061069477794" lon="8.12111828213784" id="-8780">
		<tag k="fixme" v="consider place=hamlet" />
		<tag k="name" v="Nerås" />
		<tag k="place" v="farm" />
		<tag k="ssr:stedsnr" v="315338" />
	</node>
	<node lat="62.767261998005566" lon="8.067275073650597" id="-8786">
		<tag k="fixme" v="consider place=hamlet" />
		<tag k="name" v="Grønfeta" />
		<tag k="place" v="farm" />
		<tag k="ssr:stedsnr" v="315578" />
	</node>
	<node lat="62.73154166511808" lon="7.428688888653947" id="-8791">
		<tag k="name" v="Vonheim" />
		<tag k="place" v="farm" />
		<tag k="ssr:stedsnr" v="315806" />
	</node>
	<node lat="62.73060000224015" lon="7.420736102066949" id="-8792">
		<tag k="name" v="Borvik" />
		<tag k="place" v="farm" />
		<tag k="ssr:stedsnr" v="315807" />
	</node>
	<node lat="62.757005555515505" lon="7.3196583354528375" id="-8796">
		<tag k="name" v="Elsåshagen" />
		<tag k="place" v="farm" />
		<tag k="ssr:stedsnr" v="315830" />
	</node>
	<node lat="62.71006944124795" lon="7.512108338937557" id="-8797">
		<tag k="historic" v="shieling" />
		<tag k="name" v="Bergsviksetra" />
		<tag k="place" v="isolated_dwelling" />
		<tag k="ssr:stedsnr" v="315694" />
	</node>
	<node lat="62.72126708305617" lon="7.448997346215169" id="-8802">
		<tag k="fixme" v="consider place=hamlet" />
		<tag k="name" v="Hovdenakken" />
		<tag k="place" v="farm" />
		<tag k="ssr:stedsnr" v="315778" />
	</node>
	<node lat="62.785429912177044" lon="7.565389468941852" id="-8805">
		<tag k="fixme" v="consider place=hamlet" />
		<tag k="name" v="Eide" />
		<tag k="place" v="farm" />
		<tag k="ssr:stedsnr" v="315789" />
	</node>
	<node lat="62.72646111182948" lon="7.652566658309845" id="-8806">
		<tag k="name" v="Horsgardsetra" />
		<tag k="place" v="isolated_dwelling" />
		<tag k="ssr:stedsnr" v="315792" />
	</node>
	<node lat="62.72615000121223" lon="7.433063883133978" id="-8807">
		<tag k="name" v="Nordheim" />
		<tag k="place" v="farm" />
		<tag k="ssr:stedsnr" v="315794" />
	</node>
	<node lat="62.72428055389665" lon="7.4265305592029245" id="-8808">
		<tag k="name" v="Steinbakken" />
		<tag k="place" v="farm" />
		<tag k="ssr:stedsnr" v="315796" />
	</node>
	<node lat="62.80256430963642" lon="7.832010257534958" id="-8813">
		<tag k="fixme" v="consider place=hamlet" />
		<tag k="name" v="Bakken" />
		<tag k="place" v="farm" />
		<tag k="ssr:stedsnr" v="316615" />
	</node>
	<node lat="62.83398649084582" lon="7.795953093616387" id="-8818">
		<tag k="fixme" v="consider place=hamlet" />
		<tag k="name" v="Sollia" />
		<tag k="place" v="farm" />
		<tag k="ssr:stedsnr" v="316589" />
	</node>
	<node lat="62.73438381462177" lon="7.148195133523811" id="-8824">
		<tag k="fixme" v="consider place=hamlet" />
		<tag k="name" v="Reknes" />
		<tag k="place" v="farm" />
		<tag k="ssr:stedsnr" v="330718" />
	</node>
	<node lat="62.73477500152312" lon="6.833361119622426" id="-8825">
		<tag k="name" v="Bøtun" />
		<tag k="place" v="farm" />
		<tag k="ssr:stedsnr" v="330728" />
	</node>
	<node lat="62.683771031780246" lon="6.770399524146292" id="-8838">
		<tag k="name" v="Sør Heggdal" />
		<tag k="place" v="hamlet" />
		<tag k="ssr:stedsnr" v="333478" />
	</node>
	<node lat="62.741458335212506" lon="6.845422218582195" id="-8854">
		<tag k="name" v="Ræstadholm" />
		<tag k="place" v="farm" />
		<tag k="ssr:stedsnr" v="334483" />
	</node>
	<node lat="62.755180557201214" lon="7.253758335654732" id="-8869">
		<tag k="name" v="Huslia" />
		<tag k="place" v="farm" />
		<tag k="ssr:stedsnr" v="338226" />
	</node>
	<node lat="62.79995278045041" lon="8.050199996935559" id="-8940">
		<tag k="historic" v="shieling" />
		<tag k="name" v="Steinteigsetra" />
		<tag k="place" v="isolated_dwelling" />
		<tag k="ssr:stedsnr" v="341746" />
	</node>
	<node lat="62.80155555833653" lon="8.174897222713376" id="-8941">
		<tag k="name" v="Gjestgjevarplassen" />
		<tag k="place" v="farm" />
		<tag k="ssr:stedsnr" v="341748" />
	</node>
	<node lat="62.802911114291724" lon="8.170461105559085" id="-8942">
		<tag k="name" v="Ytterøra" />
		<tag k="place" v="farm" />
		<tag k="ssr:stedsnr" v="341749" />
	</node>
	<node lat="62.73616388664191" lon="8.09747499906595" id="-8944">
		<tag k="name" v="Risan" />
		<tag k="place" v="farm" />
		<tag k="ssr:stedsnr" v="341759" />
	</node>
	<node lat="62.780363887044665" lon="8.066519450477136" id="-8945">
		<tag k="name" v="Steinteigen" />
		<tag k="place" v="farm" />
		<tag k="ssr:stedsnr" v="341761" />
	</node>
	<node lat="62.748552776714675" lon="7.8019916698355996" id="-8990">
		<tag k="name" v="Kvammen" />
		<tag k="place" v="farm" />
		<tag k="ssr:stedsnr" v="354373" />
	</node>
	<node lat="62.69625540839648" lon="6.8812466950767375" id="-9000">
		<tag k="fixme" v="consider place=hamlet" />
		<tag k="name" v="Hagset" />
		<tag k="place" v="farm" />
		<tag k="ssr:stedsnr" v="375034" />
	</node>
	<node lat="62.73751666971125" lon="7.159124990733758" id="-9005">
		<tag k="name" v="Molde" />
		<tag k="place" v="town" />
		<tag k="ssr:stedsnr" v="375055" />
	</node>
	<node lat="62.73126666559979" lon="7.051966658878245" id="-9006">
		<tag k="name" v="Djupdalen" />
		<tag k="place" v="quarter" />
		<tag k="ssr:stedsnr" v="375060" />
	</node>
	<node lat="62.46663055344157" lon="8.191133329320612" id="-9010">
		<tag k="name" v="Oppigard" />
		<tag k="place" v="farm" />
		<tag k="ssr:stedsnr" v="375078" />
	</node>
	<node lat="62.42058139684106" lon="8.32266152861352" id="-9014">
		<tag k="name" v="Elverhøy" />
		<tag k="place" v="farm" />
		<tag k="ssr:stedsnr" v="375299" />
	</node>
	<node lat="62.690080557068036" lon="8.025286116841377" id="-9018">
		<tag k="alt_name" v="Jakobstølen" />
		<tag k="historic" v="shieling" />
		<tag k="name" v="Jakobsætra" />
		<tag k="place" v="isolated_dwelling" />
		<tag k="ssr:stedsnr" v="375275" />
	</node>
	<node lat="62.77491022933322" lon="8.023204637315674" id="-9021">
		<tag k="fixme" v="consider place=hamlet" />
		<tag k="name" v="Hatlen" />
		<tag k="place" v="farm" />
		<tag k="ssr:stedsnr" v="375587" />
	</node>
	<node lat="62.780025003135755" lon="8.062233330022337" id="-9022">
		<tag k="alt_name" v="Hansgarden" />
		<tag k="name" v="Haugen" />
		<tag k="place" v="farm" />
		<tag k="ssr:stedsnr" v="375592" />
	</node>
	<node lat="62.74570555823395" lon="7.778066670610712" id="-9024">
		<tag k="name" v="Storneset" />
		<tag k="place" v="farm" />
		<tag k="ssr:stedsnr" v="375447" />
	</node>
	<node lat="62.79136388687183" lon="8.14556388786719" id="-9025">
		<tag k="name" v="Brannholen" />
		<tag k="place" v="farm" />
		<tag k="ssr:stedsnr" v="375559" />
	</node>
	<node lat="62.78243722159052" lon="8.069720812832823" id="-9026">
		<tag k="fixme" v="consider place=hamlet" />
		<tag k="name" v="Hagen" />
		<tag k="place" v="farm" />
		<tag k="ssr:stedsnr" v="375562" />
	</node>
	<node lat="62.78749721991953" lon="8.11546944406059" id="-9027">
		<tag k="name" v="Teigset" />
		<tag k="place" v="farm" />
		<tag k="ssr:stedsnr" v="375564" />
	</node>
	<node lat="62.71300990171967" lon="7.4297418758504365" id="-9029">
		<tag k="fixme" v="consider place=hamlet" />
		<tag k="name" v="Vågseter" />
		<tag k="place" v="farm" />
		<tag k="ssr:stedsnr" v="375662" />
	</node>
	<node lat="62.71300389580167" lon="7.508733910698514" id="-9030">
		<tag k="alt_name" v="Bergsetra" />
		<tag k="historic" v="shieling" />
		<tag k="name" v="Bergssetra" />
		<tag k="place" v="isolated_dwelling" />
		<tag k="ssr:stedsnr" v="375668" />
	</node>
	<node lat="62.73472221885272" lon="7.324116675844333" id="-9031">
		<tag k="name" v="Øyum" />
		<tag k="place" v="farm" />
		<tag k="ssr:stedsnr" v="375749" />
	</node>
	<node lat="62.775539789281495" lon="7.627517485853443" id="-9032">
		<tag k="fixme" v="consider place=hamlet" />
		<tag k="name" v="Nakken" />
		<tag k="place" v="farm" />
		<tag k="ssr:stedsnr" v="375758" />
	</node>
	<node lat="62.71803055511568" lon="7.430444449263483" id="-9034">
		<tag k="name" v="Flatheim" />
		<tag k="place" v="farm" />
		<tag k="ssr:stedsnr" v="375769" />
	</node>
	<node lat="62.763023578569" lon="7.491634563822311" id="-9037">
		<tag k="fixme" v="consider place=hamlet" />
		<tag k="name" v="Hammaren" />
		<tag k="place" v="farm" />
		<tag k="ssr:stedsnr" v="375818" />
	</node>
	<node lat="62.64900555165194" lon="7.324588887114421" id="-9045">
		<tag k="alt_name" v="Vestahagen" />
		<tag k="name" v="Vestadhagen" />
		<tag k="place" v="farm" />
		<tag k="ssr:stedsnr" v="376637" />
	</node>
	<node lat="62.81562778099641" lon="7.798241667578755" id="-9046">
		<tag k="name" v="Fossbakken" />
		<tag k="place" v="farm" />
		<tag k="ssr:stedsnr" v="376591" />
	</node>
	<node lat="62.806380898307594" lon="7.6857070104497085" id="-9050">
		<tag k="fixme" v="consider place=hamlet" />
		<tag k="name" v="Brattset" />
		<tag k="place" v="farm" />
		<tag k="ssr:stedsnr" v="376756" />
	</node>
	<node lat="62.794485357979866" lon="7.679232209979117" id="-9051">
		<tag k="name" v="Holsbøvågen" />
		<tag k="place" v="farm" />
		<tag k="ssr:stedsnr" v="376779" />
	</node>
	<node lat="62.71573611326536" lon="7.618452776873649" id="-9064">
		<tag k="name" v="Ytterhorsgora" />
		<tag k="place" v="farm" />
		<tag k="ssr:stedsnr" v="395401" />
	</node>
	<node lat="62.658838884828995" lon="6.581036103053523" id="-9067">
		<tag k="name" v="Lyngstad" />
		<tag k="place" v="farm" />
		<tag k="ssr:stedsnr" v="394148" />
	</node>
	<node lat="62.69318333274375" lon="6.811577776449448" id="-9069">
		<tag k="name" v="Orsetsetra" />
		<tag k="place" v="locality" />
		<tag k="ssr:stedsnr" v="394113" />
	</node>
	<node lat="62.70670833195142" lon="6.6994722258434365" id="-9082">
		<tag k="name" v="Myra" />
		<tag k="place" v="farm" />
		<tag k="ssr:stedsnr" v="394576" />
	</node>
	<node lat="62.73466388966799" lon="6.845905549589247" id="-9088">
		<tag k="name" v="Sørstølan" />
		<tag k="place" v="farm" />
		<tag k="ssr:stedsnr" v="395556" />
	</node>
	<node lat="62.736227778247795" lon="7.0829666690844935" id="-9127">
		<tag k="name" v="Sole" />
		<tag k="place" v="farm" />
		<tag k="ssr:stedsnr" v="398624" />
	</node>
	<node lat="62.74133333515084" lon="7.216627783077509" id="-9132">
		<tag k="name" v="Retiro" />
		<tag k="place" v="farm" />
		<tag k="ssr:stedsnr" v="398640" />
	</node>
	<node lat="62.81537777404339" lon="8.075297224572402" id="-9168">
		<tag k="name" v="Nistusetra" />
		<tag k="place" v="locality" />
		<tag k="ssr:stedsnr" v="402367" />
	</node>
	<node lat="62.66550277526671" lon="8.129986118448498" id="-9175">
		<tag k="name" v="Myra" />
		<tag k="place" v="farm" />
		<tag k="ssr:stedsnr" v="401454" />
	</node>
	<node lat="62.698403681077146" lon="8.146137772980142" id="-9189">
		<tag k="fixme" v="consider place=hamlet" />
		<tag k="name" v="Indre Stranda" />
		<tag k="place" v="farm" />
		<tag k="ssr:stedsnr" v="401799" />
	</node>
	<node lat="62.75778888853363" lon="8.023452775987128" id="-9221">
		<tag k="name" v="Prestnaustet" />
		<tag k="place" v="locality" />
		<tag k="ssr:stedsnr" v="402419" />
	</node>
	<node lat="62.718091666901884" lon="8.12266665730703" id="-9227">
		<tag k="name" v="Hjellen" />
		<tag k="place" v="farm" />
		<tag k="ssr:stedsnr" v="402729" />
	</node>
	<node lat="62.83059722546618" lon="8.129350003861383" id="-9228">
		<tag k="name" v="Nerslættet" />
		<tag k="place" v="farm" />
		<tag k="ssr:stedsnr" v="402869" />
	</node>
	<node lat="62.803452780957464" lon="7.841330557567699" id="-9229">
		<tag k="name" v="Myran" />
		<tag k="place" v="farm" />
		<tag k="ssr:stedsnr" v="402870" />
	</node>
	<node lat="62.771975003242446" lon="8.016602769282976" id="-9233">
		<tag k="name" v="Otta" />
		<tag k="place" v="farm" />
		<tag k="ssr:stedsnr" v="402717" />
	</node>
	<node lat="62.74130555925117" lon="7.7554027802557295" id="-9234">
		<tag k="name" v="Åramsosen" />
		<tag k="place" v="farm" />
		<tag k="ssr:stedsnr" v="402875" />
	</node>
	<node lat="62.73801389315554" lon="7.158797215730243" id="-9241">
		<tag k="amenity" v="townhall" />
		<tag k="name" v="Molde rådhus" />
		<tag k="ssr:stedsnr" v="422621" />
	</node>
	<node lat="62.456605553994095" lon="8.171330553217478" id="-9260">
		<tag k="name" v="Børkløvet" />
		<tag k="place" v="locality" />
		<tag k="ssr:stedsnr" v="436097" />
	</node>
	<node lat="62.664871404740346" lon="8.109796745016357" id="-9263">
		<tag k="fixme" v="consider place=hamlet" />
		<tag k="name" v="Turhus" />
		<tag k="place" v="farm" />
		<tag k="ssr:stedsnr" v="436252" />
	</node>
	<node lat="62.647296345517326" lon="8.112169463521333" id="-9268">
		<tag k="alt_name" v="Øver Slenes;Slenes, øvre" />
		<tag k="fixme" v="consider place=hamlet" />
		<tag k="name" v="Øvre Slenes" />
		<tag k="place" v="farm" />
		<tag k="ssr:stedsnr" v="436340" />
	</node>
	<node lat="62.64349166845614" lon="8.025197220328742" id="-9270">
		<tag k="alt_name" v="Haustengsetra" />
		<tag k="historic" v="shieling" />
		<tag k="name" v="Haustengssætra" />
		<tag k="place" v="isolated_dwelling" />
		<tag k="ssr:stedsnr" v="436345" />
	</node>
	<node lat="62.7093333329568" lon="7.751572226642106" id="-9276">
		<tag k="alt_name" v="Strandsetra" />
		<tag k="name" v="Strandsætra" />
		<tag k="place" v="isolated_dwelling" />
		<tag k="ssr:stedsnr" v="436441" />
	</node>
	<node lat="62.71949686449698" lon="7.7729201420135094" id="-9277">
		<tag k="alt_name" v="Skorga, indre;Skorga" />
		<tag k="fixme" v="consider place=hamlet" />
		<tag k="name" v="Indre Skorga" />
		<tag k="place" v="farm" />
		<tag k="ssr:stedsnr" v="436445" />
	</node>
	<node lat="62.69075278178035" lon="7.449358330685345" id="-9281">
		<tag k="name" v="Skogtun" />
		<tag k="place" v="farm" />
		<tag k="ssr:stedsnr" v="436699" />
	</node>
	<node lat="62.7507737702758" lon="7.435670148033517" id="-9288">
		<tag k="fixme" v="consider place=hamlet" />
		<tag k="name" v="Brokstad" />
		<tag k="place" v="farm" />
		<tag k="ssr:stedsnr" v="436822" />
	</node>
	<node lat="62.65407673032957" lon="7.345147403707944" id="-9306">
		<tag k="fixme" v="consider place=hamlet" />
		<tag k="name" v="Eik" />
		<tag k="place" v="farm" />
		<tag k="ssr:stedsnr" v="437626" />
	</node>
	<node lat="62.79334444267622" lon="7.703822220913481" id="-9312">
		<tag k="name" v="Plassen" />
		<tag k="place" v="farm" />
		<tag k="ssr:stedsnr" v="437762" />
	</node>
	<node lat="62.64998335266992" lon="8.125598803768595" id="-9326">
		<tag k="fixme" v="consider place=hamlet" />
		<tag k="name" v="Steinsvoll" />
		<tag k="place" v="farm" />
		<tag k="ssr:stedsnr" v="496276" />
	</node>
	<node lat="62.74893333482282" lon="7.497188881095387" id="-9362">
		<tag k="name" v="Gjerdebø" />
		<tag k="place" v="farm" />
		<tag k="ssr:stedsnr" v="497773" />
	</node>
	<node lat="62.721399251619125" lon="8.119383060752622" id="-9370">
		<tag k="alt_name" v="Breidvik" />
		<tag k="fixme" v="consider place=hamlet" />
		<tag k="name" v="Breivika" />
		<tag k="place" v="farm" />
		<tag k="ssr:stedsnr" v="497432" />
	</node>
	<node lat="62.794461986613854" lon="8.199831513594674" id="-9371">
		<tag k="fixme" v="consider place=hamlet" />
		<tag k="name" v="Finnset" />
		<tag k="place" v="farm" />
		<tag k="ssr:stedsnr" v="497552" />
	</node>
	<node lat="62.79828013363667" lon="8.177302934777414" id="-9372">
		<tag k="fixme" v="consider place=hamlet" />
		<tag k="name" v="Rønningan" />
		<tag k="place" v="farm" />
		<tag k="ssr:stedsnr" v="497554" />
	</node>
	<node lat="62.77307941358058" lon="7.981046134087712" id="-9373">
		<tag k="fixme" v="consider place=hamlet" />
		<tag k="name" v="Reitan" />
		<tag k="place" v="farm" />
		<tag k="ssr:stedsnr" v="497569" />
	</node>
	<node lat="62.78376535138796" lon="8.105318023440338" id="-9374">
		<tag k="fixme" v="consider place=hamlet" />
		<tag k="name" v="Brekka" />
		<tag k="place" v="farm" />
		<tag k="ssr:stedsnr" v="497579" />
	</node>
	<node lat="62.7685854138802" lon="7.916554287179898" id="-9375">
		<tag k="fixme" v="consider place=hamlet" />
		<tag k="name" v="Trollmyra" />
		<tag k="place" v="farm" />
		<tag k="ssr:stedsnr" v="497588" />
	</node>
	<node lat="62.66295000104174" lon="7.374322225955459" id="-9377">
		<tag k="name" v="Skaret" />
		<tag k="place" v="isolated_dwelling" />
		<tag k="ssr:stedsnr" v="497733" />
	</node>
	<node lat="62.65756666512784" lon="6.605925002041746" id="-9406">
		<tag k="name" v="Gangstadreiten" />
		<tag k="place" v="farm" />
		<tag k="ssr:stedsnr" v="515145" />
	</node>
	<node lat="62.73115277755848" lon="6.774686117494862" id="-9407">
		<tag k="name" v="Nyheim" />
		<tag k="place" v="farm" />
		<tag k="ssr:stedsnr" v="515254" />
	</node>
	<node lat="62.66817777566198" lon="7.241738890011304" id="-9447">
		<tag k="name" v="Melvik" />
		<tag k="place" v="farm" />
		<tag k="ssr:stedsnr" v="520250" />
	</node>
	<node lat="62.72872777968328" lon="7.0402000004665615" id="-9457">
		<tag k="name" v="Nesaplassen" />
		<tag k="place" v="locality" />
		<tag k="ssr:stedsnr" v="520500" />
	</node>
	<node lat="62.72825277336046" lon="7.0357435477283214" id="-9468">
		<tag k="name" v="Sagstøa" />
		<tag k="place" v="locality" />
		<tag k="ssr:stedsnr" v="520700" />
	</node>
	<node lat="62.74012221949599" lon="7.208249994608252" id="-9469">
		<tag k="name" v="Tøndergård" />
		<tag k="place" v="suburb" />
		<tag k="ssr:stedsnr" v="520707" />
	</node>
	<node lat="62.75799166298475" lon="7.152497231087299" id="-9472">
		<tag k="historic" v="shieling" />
		<tag k="name" v="Reknesstølen" />
		<tag k="place" v="isolated_dwelling" />
		<tag k="ssr:stedsnr" v="520730" />
	</node>
	<node lat="62.65648332995837" lon="8.124269447010963" id="-9491">
		<tag k="name" v="Steinsvoll" />
		<tag k="place" v="farm" />
		<tag k="ssr:stedsnr" v="522461" />
	</node>
	<node lat="62.823341667311965" lon="8.023266671607717" id="-9499">
		<tag k="name" v="Øyasetra" />
		<tag k="place" v="locality" />
		<tag k="ssr:stedsnr" v="522708" />
	</node>
	<node lat="62.716522218339115" lon="7.940466659652629" id="-9531">
		<tag k="name" v="Øvregardan" />
		<tag k="place" v="hamlet" />
		<tag k="ssr:stedsnr" v="523969" />
	</node>
	<node lat="62.779480555171496" lon="8.05994721391188" id="-9537">
		<tag k="name" v="Hjellen" />
		<tag k="place" v="farm" />
		<tag k="ssr:stedsnr" v="523756" />
	</node>
	<node lat="62.73555277734848" lon="8.09305554872065" id="-9550">
		<tag k="name" v="Hølvollen" />
		<tag k="place" v="farm" />
		<tag k="ssr:stedsnr" v="536794" />
	</node>
	<node lat="62.702931597484124" lon="6.904838024793321" id="-9566">
		<tag k="fixme" v="consider place=hamlet" />
		<tag k="name" v="Nord-Heggdal" />
		<tag k="place" v="farm" />
		<tag k="ssr:stedsnr" v="557025" />
	</node>
	<node lat="62.744654154719605" lon="7.207805887753814" id="-9570">
		<tag k="fixme" v="consider place=hamlet" />
		<tag k="name" v="Øverland" />
		<tag k="place" v="farm" />
		<tag k="ssr:stedsnr" v="557107" />
	</node>
	<node lat="62.74513889007289" lon="6.995636109325074" id="-9574">
		<tag k="name" v="Gauset" />
		<tag k="place" v="farm" />
		<tag k="ssr:stedsnr" v="557097" />
	</node>
	<node lat="62.74606666217819" lon="7.066058330619172" id="-9575">
		<tag k="historic" v="shieling" />
		<tag k="name" v="Kringstadsetra" />
		<tag k="place" v="isolated_dwelling" />
		<tag k="ssr:stedsnr" v="557098" />
	</node>
	<node lat="62.69184840722566" lon="7.978653333695109" id="-9579">
		<tag k="fixme" v="consider place=hamlet" />
		<tag k="name" v="Meland" />
		<tag k="place" v="farm" />
		<tag k="ssr:stedsnr" v="557290" />
	</node>
	<node lat="62.653463890484794" lon="7.973294446076269" id="-9581">
		<tag k="alt_name" v="Lensmannsstølen" />
		<tag k="name" v="Lensmannssætra" />
		<tag k="place" v="isolated_dwelling" />
		<tag k="ssr:stedsnr" v="557241" />
	</node>
	<node lat="62.72739444471208" lon="8.01472499581331" id="-9586">
		<tag k="alt_name" v="Ernessetra" />
		<tag k="historic" v="shieling" />
		<tag k="name" v="Ernessætra" />
		<tag k="place" v="isolated_dwelling" />
		<tag k="ssr:stedsnr" v="557437" />
	</node>
	<node lat="62.69373333701984" lon="7.363197215393264" id="-9595">
		<tag k="name" v="Øygarden" />
		<tag k="place" v="farm" />
		<tag k="ssr:stedsnr" v="557668" />
	</node>
	<node lat="62.691022218508955" lon="7.412569439590758" id="-9596">
		<tag k="name" v="Flovikhaugen" />
		<tag k="place" v="farm" />
		<tag k="ssr:stedsnr" v="557672" />
	</node>
	<node lat="62.67483333121132" lon="7.296705562256313" id="-9597">
		<tag k="name" v="Sollibygget" />
		<tag k="place" v="farm" />
		<tag k="ssr:stedsnr" v="557694" />
	</node>
	<node lat="62.74764444730264" lon="7.225724999106113" id="-9598">
		<tag k="name" v="Berg" />
		<tag k="place" v="locality" />
		<tag k="ssr:stedsnr" v="557765" />
	</node>
	<node lat="62.71757777421883" lon="7.479772222313165" id="-9601">
		<tag k="name" v="Nysetra" />
		<tag k="place" v="isolated_dwelling" />
		<tag k="ssr:stedsnr" v="557774" />
	</node>
	<node lat="62.729271742715554" lon="7.696835841784309" id="-9603">
		<tag k="fixme" v="consider place=hamlet" />
		<tag k="name" v="Buvika" />
		<tag k="place" v="farm" />
		<tag k="ssr:stedsnr" v="557777" />
	</node>
	<node lat="62.7323888882557" lon="7.392658330262241" id="-9604">
		<tag k="name" v="Røvikhagen" />
		<tag k="place" v="farm" />
		<tag k="ssr:stedsnr" v="557788" />
	</node>
	<node lat="62.8228944424413" lon="8.136522218742135" id="-9615">
		<tag k="name" v="Sjølia" />
		<tag k="place" v="farm" />
		<tag k="ssr:stedsnr" v="558578" />
	</node>
	<node lat="62.820535991383146" lon="7.75626078632971" id="-9616">
		<tag k="fixme" v="consider place=hamlet" />
		<tag k="name" v="Steinløysa" />
		<tag k="place" v="farm" />
		<tag k="ssr:stedsnr" v="558584" />
	</node>
	<node lat="62.731233332950495" lon="6.772500008188829" id="-9636">
		<tag k="name" v="Remmen" />
		<tag k="place" v="farm" />
		<tag k="ssr:stedsnr" v="576226" />
	</node>
	<node lat="62.75122766471357" lon="7.444985064529551" id="-9676">
		<tag k="fixme" v="consider place=hamlet" />
		<tag k="name" v="Øvre Brokstad" />
		<tag k="place" v="farm" />
		<tag k="ssr:stedsnr" v="580221" />
	</node>
	<node lat="62.670749999316975" lon="8.172816670491436" id="-9717">
		<tag k="historic" v="shieling" />
		<tag k="name" v="Forhaugstølen" />
		<tag k="place" v="isolated_dwelling" />
		<tag k="ssr:stedsnr" v="583016" />
	</node>
	<node lat="62.79488889307757" lon="7.8920333240818925" id="-9719">
		<tag k="name" v="Seila" />
		<tag k="place" v="isolated_dwelling" />
		<tag k="ssr:stedsnr" v="583674" />
	</node>
	<node lat="62.78192777721984" lon="8.227466666920305" id="-9726">
		<tag k="name" v="Kvennsetsetra" />
		<tag k="place" v="locality" />
		<tag k="ssr:stedsnr" v="583337" />
	</node>
	<node lat="62.736194443619354" lon="7.958113890798976" id="-9774">
		<tag k="historic" v="shieling" />
		<tag k="name" v="Øvregardsetra" />
		<tag k="place" v="isolated_dwelling" />
		<tag k="ssr:stedsnr" v="583965" />
	</node>
	<node lat="62.73883055699045" lon="6.855027781488122" id="-9784">
		<tag k="alt_name" v="Gulnes" />
		<tag k="name" v="Gullneset" />
		<tag k="place" v="farm" />
		<tag k="ssr:stedsnr" v="596624" />
	</node>
	<node lat="62.78360833041652" lon="7.542527783589962" id="-9785">
		<tag k="name" v="Hungnes" />
		<tag k="place" v="isolated_dwelling" />
		<tag k="ssr:stedsnr" v="596828" />
	</node>
	<node lat="62.72968888891057" lon="7.938997217089098" id="-9788">
		<tag k="name" v="Petrogjerdet" />
		<tag k="place" v="isolated_dwelling" />
		<tag k="ssr:stedsnr" v="597320" />
	</node>
	<node lat="62.629463890335586" lon="8.167594449567966" id="-9799">
		<tag k="name" v="Ljøsåbotn sæter" />
		<tag k="place" v="locality" />
		<tag k="ssr:stedsnr" v="618324" />
	</node>
	<node lat="62.68830844529451" lon="7.499331778301522" id="-9802">
		<tag k="fixme" v="consider place=hamlet" />
		<tag k="name" v="Malo" />
		<tag k="place" v="farm" />
		<tag k="ssr:stedsnr" v="618684" />
	</node>
	<node lat="62.740685987894366" lon="6.869947494574119" id="-9804">
		<tag k="alt_name" v="Beinset;Benset" />
		<tag k="fixme" v="consider place=hamlet" />
		<tag k="name" v="Bendset" />
		<tag k="place" v="farm" />
		<tag k="ssr:stedsnr" v="618101" />
	</node>
	<node lat="62.70962408761434" lon="6.893645346927868" id="-9815">
		<tag k="historic" v="shieling" />
		<tag k="name" v="Stølen" />
		<tag k="place" v="isolated_dwelling" />
		<tag k="ssr:stedsnr" v="618072" />
	</node>
	<node lat="62.79926281334813" lon="8.147291718222435" id="-9830">
		<tag k="fixme" v="consider place=hamlet" />
		<tag k="name" v="Talset" />
		<tag k="place" v="farm" />
		<tag k="ssr:stedsnr" v="618567" />
	</node>
	<node lat="62.7806027809078" lon="7.479249993790388" id="-9832">
		<tag k="name" v="Hagen" />
		<tag k="place" v="farm" />
		<tag k="ssr:stedsnr" v="618779" />
	</node>
	<node lat="62.7813556368854" lon="7.489446048684349" id="-9833">
		<tag k="fixme" v="consider place=hamlet" />
		<tag k="name" v="Hjelset" />
		<tag k="place" v="farm" />
		<tag k="ssr:stedsnr" v="618780" />
	</node>
	<node lat="62.80505534032353" lon="7.67759165012399" id="-9837">
		<tag k="fixme" v="consider place=hamlet" />
		<tag k="name" v="Lykkja" />
		<tag k="place" v="farm" />
		<tag k="ssr:stedsnr" v="618736" />
	</node>
	<node lat="62.67630555690514" lon="6.907274996799613" id="-9852">
		<tag k="name" v="Nordigarden" />
		<tag k="place" v="farm" />
		<tag k="ssr:stedsnr" v="626377" />
	</node>
	<node lat="62.73802777369151" lon="6.834533338529837" id="-9860">
		<tag k="name" v="Naustplassen" />
		<tag k="place" v="locality" />
		<tag k="ssr:stedsnr" v="636523" />
	</node>
	<node lat="62.676466669931365" lon="6.904124994754386" id="-9872">
		<tag k="name" v="Larsgarden" />
		<tag k="place" v="farm" />
		<tag k="ssr:stedsnr" v="637495" />
	</node>
	<node lat="62.705769445396484" lon="7.574144440296953" id="-9877">
		<tag k="name" v="Teigen" />
		<tag k="place" v="farm" />
		<tag k="ssr:stedsnr" v="637536" />
	</node>
	<node lat="62.708338892206385" lon="6.862850001169756" id="-9879">
		<tag k="name" v="Gurisetra" />
		<tag k="place" v="locality" />
		<tag k="ssr:stedsnr" v="637566" />
	</node>
	<node lat="62.71294166640077" lon="7.443486113282457" id="-9889">
		<tag k="historic" v="shieling" />
		<tag k="name" v="Gammelsetra" />
		<tag k="place" v="isolated_dwelling" />
		<tag k="ssr:stedsnr" v="641209" />
	</node>
	<node lat="62.79968888830895" lon="7.822455564096122" id="-9954">
		<tag k="name" v="Dalen" />
		<tag k="place" v="farm" />
		<tag k="ssr:stedsnr" v="644858" />
	</node>
	<node lat="62.77443610678651" lon="8.047497223245662" id="-9960">
		<tag k="name" v="Vollahaugen" />
		<tag k="place" v="farm" />
		<tag k="ssr:stedsnr" v="644436" />
	</node>
	<node lat="62.765119446773724" lon="8.245469452272209" id="-9970">
		<tag k="name" v="Fjellsetra" />
		<tag k="place" v="locality" />
		<tag k="ssr:stedsnr" v="644353" />
	</node>
	<node lat="62.7862527822274" lon="7.7084277813805056" id="-10010">
		<tag k="name" v="Saltbunes" />
		<tag k="place" v="farm" />
		<tag k="ssr:stedsnr" v="658447" />
	</node>
	<node lat="62.735322226100166" lon="7.117708329273594" id="-10012">
		<tag k="name" v="Strandheim" />
		<tag k="place" v="isolated_dwelling" />
		<tag k="ssr:stedsnr" v="664600" />
	</node>
	<node lat="62.71381110888047" lon="7.426363880890083" id="-10027">
		<tag k="name" v="Skåran" />
		<tag k="place" v="farm" />
		<tag k="ssr:stedsnr" v="739679" />
	</node>
	<node lat="62.71473436117975" lon="6.931210176712786" id="-10030">
		<tag k="fixme" v="consider place=hamlet" />
		<tag k="name" v="Sølvika" />
		<tag k="place" v="farm" />
		<tag k="ssr:stedsnr" v="739046" />
	</node>
	<node lat="62.73230385474738" lon="6.792937400851809" id="-10032">
		<tag k="fixme" v="consider place=hamlet" />
		<tag k="name" v="Rørset" />
		<tag k="place" v="farm" />
		<tag k="ssr:stedsnr" v="739071" />
	</node>
	<node lat="62.63421867336692" lon="8.121305828904987" id="-10037">
		<tag k="fixme" v="consider place=hamlet" />
		<tag k="name" v="Øverås" />
		<tag k="place" v="farm" />
		<tag k="ssr:stedsnr" v="739320" />
	</node>
	<node lat="62.352273428481055" lon="8.244427804607618" id="-10039">
		<tag k="name" v="Westbua" />
		<tag k="place" v="locality" />
		<tag k="ssr:stedsnr" v="739327" />
	</node>
	<node lat="62.57013055186204" lon="8.144572226469576" id="-10044">
		<tag k="name" v="Geitreiten" />
		<tag k="place" v="locality" />
		<tag k="ssr:stedsnr" v="739182" />
	</node>
	<node lat="62.73606111030309" lon="7.96784445202274" id="-10051">
		<tag k="alt_name" v="Gauprørsetra" />
		<tag k="historic" v="shieling" />
		<tag k="name" v="Gauprørsætra" />
		<tag k="place" v="isolated_dwelling" />
		<tag k="ssr:stedsnr" v="739478" />
	</node>
	<node lat="62.70167586040897" lon="7.559164619982984" id="-10053">
		<tag k="fixme" v="consider place=hamlet" />
		<tag k="name" v="Årset" />
		<tag k="place" v="farm" />
		<tag k="ssr:stedsnr" v="739695" />
	</node>
	<node lat="62.697611107383466" lon="7.354694447104729" id="-10060">
		<tag k="name" v="Bukta" />
		<tag k="place" v="farm" />
		<tag k="ssr:stedsnr" v="739690" />
	</node>
	<node lat="62.7892509946762" lon="7.587876246047233" id="-10065">
		<tag k="fixme" v="consider place=hamlet" />
		<tag k="name" v="Røsberg" />
		<tag k="place" v="farm" />
		<tag k="ssr:stedsnr" v="740760" />
	</node>
	<node lat="62.74275000308095" lon="7.227055550615896" id="-10066">
		<tag k="name" v="Kviltorp" />
		<tag k="place" v="farm" />
		<tag k="ssr:stedsnr" v="740769" />
	</node>
	<node lat="62.7778973315521" lon="7.607737972596384" id="-10068">
		<tag k="fixme" v="consider place=hamlet" />
		<tag k="name" v="Risan" />
		<tag k="place" v="farm" />
		<tag k="ssr:stedsnr" v="739798" />
	</node>
	<node lat="62.724179420816306" lon="7.293812189024254" id="-10071">
		<tag k="name" v="Draget" />
		<tag k="place" v="farm" />
		<tag k="ssr:stedsnr" v="739815" />
	</node>
	<node lat="62.7548666671695" lon="7.5224222292772875" id="-10074">
		<tag k="alt_name" v="Kvernhusligjerdet" />
		<tag k="name" v="Solemsbøen" />
		<tag k="place" v="farm" />
		<tag k="ssr:stedsnr" v="739834" />
	</node>
	<node lat="62.682788889077806" lon="8.02220556035396" id="-10077">
		<tag k="alt_name" v="Gammelsetra" />
		<tag k="historic" v="shieling" />
		<tag k="name" v="Gammelsætra" />
		<tag k="place" v="isolated_dwelling" />
		<tag k="ssr:stedsnr" v="740271" />
	</node>
	<node lat="62.80577311553353" lon="7.561549604643261" id="-10084">
		<tag k="fixme" v="consider place=hamlet" />
		<tag k="name" v="Roaldsetlia" />
		<tag k="place" v="farm" />
		<tag k="ssr:stedsnr" v="740730" />
	</node>
	<node lat="62.79347254664551" lon="8.088011046477563" id="-10093">
		<tag k="fixme" v="consider place=hamlet" />
		<tag k="name" v="Holen" />
		<tag k="place" v="farm" />
		<tag k="ssr:stedsnr" v="741663" />
	</node>
	<node lat="62.6915333308762" lon="6.8562694454317" id="-10099">
		<tag k="name" v="Gjerdet" />
		<tag k="place" v="farm" />
		<tag k="ssr:stedsnr" v="755677" />
	</node>
	<node lat="62.65833611068042" lon="6.602408327551789" id="-10106">
		<tag k="name" v="Gangstadlia" />
		<tag k="place" v="farm" />
		<tag k="ssr:stedsnr" v="758142" />
	</node>
	<node lat="62.73297500425076" lon="6.800330557832943" id="-10112">
		<tag k="name" v="Haugen" />
		<tag k="place" v="farm" />
		<tag k="ssr:stedsnr" v="758271" />
	</node>
	<node lat="62.73767222581581" lon="7.002013894889867" id="-10134">
		<tag k="historic" v="shieling" />
		<tag k="name" v="Julbøsetra" />
		<tag k="place" v="isolated_dwelling" />
		<tag k="ssr:stedsnr" v="762620" />
	</node>
	<node lat="62.723522221894314" lon="7.4169861123987015" id="-10140">
		<tag k="name" v="Geilen" />
		<tag k="place" v="farm" />
		<tag k="ssr:stedsnr" v="763277" />
	</node>
	<node lat="62.776516669622815" lon="7.334283330041152" id="-10143">
		<tag k="historic" v="shieling" />
		<tag k="name" v="Strandsetra" />
		<tag k="place" v="isolated_dwelling" />
		<tag k="ssr:stedsnr" v="763288" />
	</node>
	<node lat="62.72123055116998" lon="7.428366660755895" id="-10148">
		<tag k="name" v="Brubakken" />
		<tag k="place" v="farm" />
		<tag k="ssr:stedsnr" v="762871" />
	</node>
	<node lat="62.774177775535684" lon="7.5618555580844244" id="-10159">
		<tag k="name" v="Mausetbøen" />
		<tag k="place" v="farm" />
		<tag k="ssr:stedsnr" v="763294" />
	</node>
	<node lat="62.77344444839271" lon="7.5582250060735685" id="-10160">
		<tag k="name" v="Bøplassen" />
		<tag k="place" v="farm" />
		<tag k="ssr:stedsnr" v="763295" />
	</node>
	<node lat="62.83140000270255" lon="7.790972218608987" id="-10161">
		<tag k="name" v="Nerbøen" />
		<tag k="place" v="farm" />
		<tag k="ssr:stedsnr" v="763302" />
	</node>
	<node lat="62.70407222060039" lon="7.786833326590503" id="-10190">
		<tag k="name" v="Pestølen" />
		<tag k="place" v="locality" />
		<tag k="ssr:stedsnr" v="765062" />
	</node>
	<node lat="62.723155551718044" lon="7.842513890637179" id="-10233">
		<tag k="name" v="Gammelsetra" />
		<tag k="place" v="locality" />
		<tag k="ssr:stedsnr" v="765934" />
	</node>
	<node lat="62.77285555289546" lon="7.968697217703961" id="-10251">
		<tag k="name" v="Sjurstua" />
		<tag k="place" v="farm" />
		<tag k="ssr:stedsnr" v="769440" />
	</node>
	<node lat="62.74346944321413" lon="7.764458337193408" id="-10264">
		<tag k="name" v="Hjellen" />
		<tag k="place" v="farm" />
		<tag k="ssr:stedsnr" v="800484" />
	</node>
	<node lat="62.7724545212015" lon="8.027256716188866" id="-10265">
		<tag k="fixme" v="consider place=hamlet" />
		<tag k="name" v="Hargota" />
		<tag k="place" v="farm" />
		<tag k="ssr:stedsnr" v="800620" />
	</node>
	<node lat="62.747245256363314" lon="6.9169485285501695" id="-10267">
		<tag k="alt_name" v="Sundsbø" />
		<tag k="fixme" v="consider place=hamlet" />
		<tag k="name" v="Sundsbøen" />
		<tag k="place" v="farm" />
		<tag k="ssr:stedsnr" v="800089" />
	</node>
	<node lat="62.66108611052351" lon="7.975841668786274" id="-10275">
		<tag k="alt_name" v="Bergsetsetra" />
		<tag k="historic" v="shieling" />
		<tag k="name" v="Bergsetsætra" />
		<tag k="place" v="isolated_dwelling" />
		<tag k="ssr:stedsnr" v="800275" />
	</node>
	<node lat="62.714472642664546" lon="7.487658410889794" id="-10278">
		<tag k="historic" v="shieling" />
		<tag k="name" v="Floviksetra" />
		<tag k="place" v="isolated_dwelling" />
		<tag k="ssr:stedsnr" v="800672" />
	</node>
	<node lat="62.69269722014019" lon="7.529505563909042" id="-10334">
		<tag k="name" v="Nesløvollen" />
		<tag k="place" v="isolated_dwelling" />
		<tag k="ssr:stedsnr" v="820439" />
	</node>
	<node lat="62.73460833576031" lon="7.141155547862886" id="-10382">
		<tag k="name" v="Røysan" />
		<tag k="place" v="suburb" />
		<tag k="ssr:stedsnr" v="824657" />
	</node>
	<node lat="62.703008335456616" lon="7.977836102078752" id="-10406">
		<tag k="name" v="Åssetra" />
		<tag k="place" v="locality" />
		<tag k="ssr:stedsnr" v="826054" />
	</node>
	<node lat="62.65389111656971" lon="8.106912164367595" id="-10413">
		<tag k="fixme" v="consider place=hamlet" />
		<tag k="name" v="Bjørnes" />
		<tag k="place" v="farm" />
		<tag k="ssr:stedsnr" v="826476" />
	</node>
	<node lat="62.71000555847595" lon="7.949075009569528" id="-10428">
		<tag k="fixme" v="consider tourism=alpine_hut or tourism=chalet" />
		<tag k="name" v="Visthus leirstad" />
		<tag k="ssr:stedsnr" v="826993" />
		<tag k="tourism" v="wilderness_hut" />
	</node>
	<node lat="62.66075000310708" lon="7.970730554189042" id="-10434">
		<tag k="name" v="Storåkersetra" />
		<tag k="place" v="locality" />
		<tag k="ssr:stedsnr" v="826906" />
	</node>
	<node lat="62.61273611375246" lon="8.173727779237757" id="-10464">
		<tag k="name" v="Strandstølen" />
		<tag k="place" v="locality" />
		<tag k="ssr:stedsnr" v="827858" />
	</node>
	<node lat="62.79773611255223" lon="8.132261102768839" id="-10467">
		<tag k="name" v="Toven" />
		<tag k="place" v="farm" />
		<tag k="ssr:stedsnr" v="830414" />
	</node>
	<node lat="62.66354691537886" lon="8.024988381940153" id="-10472">
		<tag k="fixme" v="consider place=hamlet" />
		<tag k="name" v="Haustenga" />
		<tag k="place" v="farm" />
		<tag k="ssr:stedsnr" v="861254" />
	</node>
	<node lat="62.677934458768355" lon="8.004193631391914" id="-10473">
		<tag k="fixme" v="consider place=hamlet" />
		<tag k="name" v="Oppdal" />
		<tag k="place" v="farm" />
		<tag k="ssr:stedsnr" v="861259" />
	</node>
	<node lat="62.47591667073748" lon="8.17361945007672" id="-10478">
		<tag k="fixme" v="consider place=hamlet" />
		<tag k="name" v="Eikesdalen" />
		<tag k="place" v="village" />
		<tag k="ssr:stedsnr" v="861092" />
	</node>
	<node lat="62.68515367616664" lon="8.220203329339004" id="-10485">
		<tag k="historic" v="shieling" />
		<tag k="name" v="Gaddhaugen" />
		<tag k="old_name" v="Kvanndalssætra;Kanndalssetra" />
		<tag k="place" v="isolated_dwelling" />
		<tag k="ssr:stedsnr" v="861047" />
	</node>
	<node lat="62.740874997783294" lon="7.203091669194403" id="-10486">
		<tag k="name" v="Einen" />
		<tag k="place" v="farm" />
		<tag k="ssr:stedsnr" v="861110" />
	</node>
	<node lat="62.656103710518636" lon="8.09994947373532" id="-10493">
		<tag k="fixme" v="consider place=hamlet" />
		<tag k="name" v="Solhjell" />
		<tag k="place" v="farm" />
		<tag k="ssr:stedsnr" v="861248" />
	</node>
	<node lat="62.721433329101515" lon="7.883766660702488" id="-10500">
		<tag k="alt_name" v="Sandnessetra" />
		<tag k="historic" v="shieling" />
		<tag k="name" v="Sandnessætra" />
		<tag k="place" v="isolated_dwelling" />
		<tag k="ssr:stedsnr" v="861442" />
	</node>
	<node lat="62.734097225838845" lon="7.855719449250142" id="-10501">
		<tag k="name" v="Myra" />
		<tag k="place" v="farm" />
		<tag k="ssr:stedsnr" v="861444" />
	</node>
	<node lat="62.72747500221961" lon="7.817063895919524" id="-10502">
		<tag k="alt_name" v="Trollhaugen" />
		<tag k="name" v="Trollhaug" />
		<tag k="place" v="farm" />
		<tag k="ssr:stedsnr" v="861449" />
	</node>
	<node lat="62.79186944007957" lon="8.212574991777423" id="-10503">
		<tag k="name" v="Svenslia" />
		<tag k="place" v="farm" />
		<tag k="ssr:stedsnr" v="861571" />
	</node>
	<node lat="62.734216668318446" lon="7.312599992273237" id="-10515">
		<tag k="name" v="Orvika" />
		<tag k="place" v="farm" />
		<tag k="ssr:stedsnr" v="861750" />
	</node>
	<node lat="62.76447222594208" lon="7.517377784280828" id="-10516">
		<tag k="name" v="Brauta" />
		<tag k="place" v="farm" />
		<tag k="ssr:stedsnr" v="861845" />
	</node>
	<node lat="62.80146943999951" lon="8.170647217293064" id="-10526">
		<tag k="fixme" v="consider place=hamlet" />
		<tag k="name" v="Eidsøra" />
		<tag k="place" v="village" />
		<tag k="ssr:stedsnr" v="862581" />
	</node>
	<node lat="62.81496300079027" lon="7.70352330755654" id="-10531">
		<tag k="fixme" v="consider place=hamlet" />
		<tag k="name" v="Høystakklia" />
		<tag k="place" v="farm" />
		<tag k="ssr:stedsnr" v="862725" />
	</node>
	<node lat="62.79863055538668" lon="7.643602784654816" id="-10534">
		<tag k="name" v="Gjerdet" />
		<tag k="place" v="farm" />
		<tag k="ssr:stedsnr" v="862776" />
	</node>
	<node lat="62.67618333271565" lon="6.8990777723979875" id="-10539">
		<tag k="name" v="Haugen" />
		<tag k="place" v="farm" />
		<tag k="ssr:stedsnr" v="869380" />
	</node>
	<node lat="62.6795666631485" lon="6.6374888975470565" id="-10562">
		<tag k="name" v="Hagen" />
		<tag k="place" v="farm" />
		<tag k="ssr:stedsnr" v="880275" />
	</node>
	<node lat="62.687550003834225" lon="6.814499995960872" id="-10564">
		<tag k="name" v="Heimtun" />
		<tag k="place" v="farm" />
		<tag k="ssr:stedsnr" v="880344" />
	</node>
	<node lat="62.674016669351865" lon="6.901383337506592" id="-10568">
		<tag k="name" v="Neromberga" />
		<tag k="place" v="farm" />
		<tag k="ssr:stedsnr" v="880492" />
	</node>
	<node lat="62.706132375341575" lon="6.923064395852244" id="-10576">
		<tag k="fixme" v="consider place=hamlet" />
		<tag k="name" v="Jenset" />
		<tag k="place" v="farm" />
		<tag k="ssr:stedsnr" v="881693" />
	</node>
	<node lat="62.73156944673006" lon="7.419583330865396" id="-10578">
		<tag k="name" v="Sendingan" />
		<tag k="place" v="farm" />
		<tag k="ssr:stedsnr" v="884818" />
	</node>
	<node lat="62.747972223979126" lon="7.004833333372867" id="-10613">
		<tag k="historic" v="shieling" />
		<tag k="name" v="Gausetsetra" />
		<tag k="place" v="isolated_dwelling" />
		<tag k="ssr:stedsnr" v="884442" />
	</node>
	<node lat="62.715655551380905" lon="7.92917500781542" id="-10648">
		<tag k="name" v="Lange" />
		<tag k="place" v="hamlet" />
		<tag k="ssr:stedsnr" v="887090" />
	</node>
	<node lat="62.801549996259126" lon="8.046825001304908" id="-10662">
		<tag k="historic" v="shieling" />
		<tag k="name" v="Hammervollstølen" />
		<tag k="place" v="isolated_dwelling" />
		<tag k="ssr:stedsnr" v="887438" />
	</node>
	<node lat="62.795838892431846" lon="7.805761118270519" id="-10667">
		<tag k="alt_name" v="Plassen" />
		<tag k="name" v="Trøhaugen" />
		<tag k="place" v="farm" />
		<tag k="ssr:stedsnr" v="887575" />
	</node>
	<node lat="62.77617499785322" lon="8.059583337993587" id="-10687">
		<tag k="name" v="Liedgarden" />
		<tag k="place" v="farm" />
		<tag k="ssr:stedsnr" v="887693" />
	</node>
	<node lat="62.735579892532996" lon="6.714293825182224" id="-10706">
		<tag k="fixme" v="consider place=hamlet" />
		<tag k="name" v="Raknestangen" />
		<tag k="place" v="farm" />
		<tag k="ssr:stedsnr" v="940065" />
	</node>
	<node lat="62.69385833176991" lon="6.849916668905898" id="-10719">
		<tag k="name" v="Setra" />
		<tag k="place" v="locality" />
		<tag k="ssr:stedsnr" v="941232" />
	</node>
	<node lat="62.713133336578004" lon="6.859091672153137" id="-10723">
		<tag k="name" v="Vatnestølen" />
		<tag k="place" v="locality" />
		<tag k="ssr:stedsnr" v="941531" />
	</node>
	<node lat="62.72313751470794" lon="6.930227677611433" id="-10724">
		<tag k="alt_name" v="Svinset" />
		<tag k="fixme" v="consider place=hamlet" />
		<tag k="name" v="Svinnset" />
		<tag k="place" v="farm" />
		<tag k="ssr:stedsnr" v="941539" />
	</node>
	<node lat="62.7075222222845" lon="7.448247216168024" id="-10737">
		<tag k="historic" v="shieling" />
		<tag k="name" v="Kamsetra" />
		<tag k="place" v="isolated_dwelling" />
		<tag k="ssr:stedsnr" v="945249" />
	</node>
	<node lat="62.76713333469723" lon="7.211886115545979" id="-10781">
		<tag k="historic" v="shieling" />
		<tag k="name" v="Nøisomhedseter" />
		<tag k="place" v="isolated_dwelling" />
		<tag k="ssr:stedsnr" v="945620" />
	</node>
	<node lat="62.75638055110676" lon="7.317369439413536" id="-10790">
		<tag k="name" v="Hesthagen" />
		<tag k="place" v="quarter" />
		<tag k="ssr:stedsnr" v="945891" />
	</node>
	<node lat="62.77338888684541" lon="8.022219449371393" id="-10865">
		<tag k="name" v="Linreiten" />
		<tag k="place" v="farm" />
		<tag k="ssr:stedsnr" v="948756" />
	</node>
	<node lat="62.73997777988074" lon="8.091622227480872" id="-10866">
		<tag k="name" v="Olagarden" />
		<tag k="place" v="farm" />
		<tag k="ssr:stedsnr" v="948761" />
	</node>
	<node lat="62.637508333607165" lon="8.0270333258553" id="-10870">
		<tag k="historic" v="shieling" />
		<tag k="name" v="Hornesetra" />
		<tag k="place" v="isolated_dwelling" />
		<tag k="ssr:stedsnr" v="948851" />
	</node>
	<node lat="62.67276944584354" lon="8.161669439132208" id="-10873">
		<tag k="name" v="Litlsetra" />
		<tag k="place" v="locality" />
		<tag k="ssr:stedsnr" v="948881" />
	</node>
	<node lat="62.77310051181909" lon="7.971784005505214" id="-10896">
		<tag k="name" v="Jogarden" />
		<tag k="place" v="farm" />
		<tag k="ssr:stedsnr" v="979919" />
	</node>
	<node lat="62.7725981194591" lon="7.958722591360355" id="-10897">
		<tag k="name" v="Pålgarden" />
		<tag k="place" v="farm" />
		<tag k="ssr:stedsnr" v="979920" />
	</node>
	<node lat="62.720206102691236" lon="7.936716385267176" id="-10898">
		<tag k="name" v="Myklebostad" />
		<tag k="place" v="hamlet" />
		<tag k="ssr:stedsnr" v="981130" />
	</node>
	<node lat="62.722966478782574" lon="7.919831205825603" id="-10899">
		<tag k="fixme" v="consider place=hamlet" />
		<tag k="name" v="Øra" />
		<tag k="place" v="farm" />
		<tag k="ssr:stedsnr" v="981132" />
	</node>
	<node lat="62.8310105505704" lon="8.124533131955472" id="-10900">
		<tag k="fixme" v="consider place=hamlet" />
		<tag k="name" v="Raudsandhaugen" />
		<tag k="place" v="farm" />
		<tag k="ssr:stedsnr" v="981022" />
	</node>
	<node lat="62.837578163450296" lon="8.124970977638858" id="-10901">
		<tag k="fixme" v="consider place=hamlet" />
		<tag k="name" v="Raudsand" />
		<tag k="place" v="farm" />
		<tag k="ssr:stedsnr" v="981023" />
	</node>
	<node lat="62.69556573992629" lon="7.464892900596698" id="-10903">
		<tag k="name" v="Åsen" />
		<tag k="place" v="locality" />
		<tag k="ssr:stedsnr" v="981547" />
	</node>
	<node lat="62.74324943725201" lon="7.195728551855635" id="-10905">
		<tag k="fixme" v="consider place=hamlet" />
		<tag k="name" v="Fuglset" />
		<tag k="place" v="farm" />
		<tag k="ssr:stedsnr" v="981465" />
	</node>
	<node lat="62.74120036560894" lon="7.211959539020936" id="-10906">
		<tag k="fixme" v="consider place=hamlet" />
		<tag k="name" v="Tøndergård" />
		<tag k="place" v="farm" />
		<tag k="ssr:stedsnr" v="981473" />
	</node>
	<node lat="62.791202591479504" lon="7.6136900378259" id="-10908">
		<tag k="name" v="Ytre Nes" />
		<tag k="place" v="farm" />
		<tag k="ssr:stedsnr" v="981512" />
	</node>
	<node lat="62.79791571104843" lon="7.656463340647836" id="-10909">
		<tag k="fixme" v="consider place=hamlet" />
		<tag k="name" v="Kleive" />
		<tag k="place" v="farm" />
		<tag k="ssr:stedsnr" v="981514" />
	</node>
	<node lat="62.76770191479123" lon="8.066720224129753" id="-10913">
		<tag k="name" v="Grønfet" />
		<tag k="place" v="farm" />
		<tag k="ssr:stedsnr" v="991110" />
	</node>
	<node lat="62.66721430602605" lon="7.425796684764274" id="-11573">
		<tag k="fixme" v="consider tourism=alpine_hut or tourism=chalet" />
		<tag k="name" v="Veøystua" />
		<tag k="ssr:stedsnr" v="1072262" />
		<tag k="tourism" v="wilderness_hut" />
	</node>
	<node lat="62.69718971130634" lon="7.964640613816823" id="-11574">
		<tag k="fixme" v="consider place=hamlet" />
		<tag k="name" v="Bersethjellen" />
		<tag k="place" v="farm" />
		<tag k="ssr:stedsnr" v="1072500" />
	</node>
	<node lat="62.738138871210495" lon="7.118062988863487" id="-11581">
		<tag k="name" v="Montebo" />
		<tag k="place" v="farm" />
		<tag k="ssr:stedsnr" v="1079029" />
	</node>
	<node lat="62.739771684743424" lon="8.04992820044147" id="-11584">
		<tag k="name" v="Kløfta" />
		<tag k="old_name" v="KOSEKROKEN" />
		<tag k="place" v="farm" />
		<tag k="ssr:stedsnr" v="1082785" />
	</node>
</osm>
