<?xml version="1.0" encoding="UTF-8"?>
<osm generator="osmapis" version="0.6">
	<node id="-10240" lat="62.6612555514" lon="6.5774888917">
		<tag k="name" v="Drynjasundvågen" />
		<tag k="natural" v="bay" />
		<tag k="ssr:stedsnr" v="758192" />
	</node>
	<node id="-8191" lat="62.7307055592" lon="7.40711667273">
		<tag k="name" v="Klipra" />
		<tag k="natural" v="cape" />
		<tag k="ssr:stedsnr" v="95115" />
	</node>
	<node id="-10238" lat="62.6381999977" lon="6.51523055381">
		<tag k="fixme" v="consider seamark:type=rock or natural=shoal" />
		<tag k="name" v="Pølsa" />
		<tag k="place" v="islet" />
		<tag k="ssr:stedsnr" v="758147" />
	</node>
	<node id="-6136" lat="62.690388893" lon="6.85925556058">
		<tag k="fixme" v="consider seamark:type=rock or natural=shoal" />
		<tag k="name" v="Skjeret" />
		<tag k="place" v="islet" />
		<tag k="ssr:stedsnr" v="455256" />
	</node>
	<node id="-6130" lat="62.6552555555" lon="6.62542778027">
		<tag k="name" v="Sveneset" />
		<tag k="natural" v="cape" />
		<tag k="ssr:stedsnr" v="455003" />
	</node>
	<node id="-6129" lat="62.7334722232" lon="6.6878333329">
		<tag k="name" v="Fagergåsvika" />
		<tag k="natural" v="bay" />
		<tag k="ssr:stedsnr" v="445205" />
	</node>
	<node id="-6127" lat="62.7383777768" lon="8.05187500531">
		<tag k="name" v="Gammalnausthaugen" />
		<tag k="natural" v="cape" />
		<tag k="ssr:stedsnr" v="657751" />
	</node>
	<node id="-6125" lat="62.6922194456" lon="7.42710277392">
		<tag k="name" v="Hamnavika" />
		<tag k="natural" v="bay" />
		<tag k="ssr:stedsnr" v="657957" />
	</node>
	<node id="-6124" lat="62.6933083291" lon="7.41690276867">
		<tag k="name" v="Holmaleira" />
		<tag k="natural" v="bay" />
		<tag k="ssr:stedsnr" v="657953" />
	</node>
	<node id="-6123" lat="62.6681166643" lon="6.58020278211">
		<tag k="name" v="Småfluene" />
		<tag k="natural" v="shoal" />
		<tag k="place" v="locality" />
		<tag k="ssr:stedsnr" v="657594" />
	</node>
	<node id="-7164" lat="62.6742350005" lon="6.8966794453">
		<tag k="name" v="Tautra" />
		<tag k="place" v="island" />
		<tag k="ssr:stedsnr" v="922057" />
	</node>
	<node id="-10214" lat="62.6921611083" lon="6.65460555569">
		<tag k="name" v="Jørholmane" />
		<tag k="place" v="islet" />
		<tag k="ssr:stedsnr" v="740987" />
	</node>
	<node id="-10213" lat="62.7476083371" lon="6.69444167291">
		<tag k="name" v="Bondeflua" />
		<tag k="natural" v="shoal" />
		<tag k="place" v="locality" />
		<tag k="ssr:stedsnr" v="740829" />
	</node>
	<node id="-4774" lat="62.7841888893" lon="8.30546943644">
		<tag k="name" v="Litlneset" />
		<tag k="natural" v="cape" />
		<tag k="ssr:stedsnr" v="219273" />
	</node>
	<node id="-8156" lat="62.7449861075" lon="6.92297500555">
		<tag k="name" v="Peliksneset" />
		<tag k="natural" v="cape" />
		<tag k="ssr:stedsnr" v="91725" />
	</node>
	<node id="-8152" lat="62.7135277778" lon="6.73159443573">
		<tag k="name" v="Saltvika" />
		<tag k="natural" v="bay" />
		<tag k="ssr:stedsnr" v="91637" />
	</node>
	<node id="-10199" lat="62.7195777744" lon="7.23697221865">
		<tag k="fixme" v="consider seamark:type=rock or natural=shoal" />
		<tag k="name" v="Midtfjordskjeret" />
		<tag k="place" v="islet" />
		<tag k="ssr:stedsnr" v="739802" />
	</node>
	<node id="-8148" lat="62.7126972203" lon="6.9381527832">
		<tag k="name" v="Gubben" />
		<tag k="natural" v="cape" />
		<tag k="ssr:stedsnr" v="91587" />
	</node>
	<node id="-6099" lat="62.7498472265" lon="6.90714999068">
		<tag k="fixme" v="consider seamark:type=rock or natural=shoal" />
		<tag k="name" v="Knubben" />
		<tag k="place" v="islet" />
		<tag k="ssr:stedsnr" v="516744" />
	</node>
	<node id="-8146" lat="62.6749249972" lon="6.9114805515">
		<tag k="name" v="Vatlebukta" />
		<tag k="natural" v="bay" />
		<tag k="ssr:stedsnr" v="91496" />
	</node>
	<node id="-10192" lat="62.7121416629" lon="7.24324443806">
		<tag k="name" v="Kolholman" />
		<tag k="place" v="islet" />
		<tag k="ssr:stedsnr" v="739784" />
	</node>
	<node id="-10189" lat="62.6754388867" lon="7.4261555586">
		<tag k="name" v="Katteneset" />
		<tag k="natural" v="cape" />
		<tag k="ssr:stedsnr" v="739723" />
	</node>
	<node id="-6092" lat="62.667700004" lon="6.87353333031">
		<tag k="fixme" v="consider seamark:type=rock or natural=shoal" />
		<tag k="name" v="Kalven" />
		<tag k="place" v="islet" />
		<tag k="ssr:stedsnr" v="516485" />
	</node>
	<node id="-6090" lat="62.7123250019" lon="7.61799444854">
		<tag k="name" v="Skineset" />
		<tag k="natural" v="cape" />
		<tag k="ssr:stedsnr" v="516379" />
	</node>
	<node id="-8137" lat="62.6810055533" lon="6.65588611492">
		<tag k="fixme" v="consider seamark:type=rock or natural=shoal" />
		<tag k="name" v="Storflua" />
		<tag k="place" v="islet" />
		<tag k="ssr:stedsnr" v="91308" />
	</node>
	<node id="-8129" lat="62.7341611096" lon="6.77411389872">
		<tag k="fixme" v="consider seamark:type=rock or natural=shoal" />
		<tag k="name" v="Litleskjeret" />
		<tag k="place" v="islet" />
		<tag k="ssr:stedsnr" v="91013" />
	</node>
	<node id="-8127" lat="62.6556972253" lon="6.62914166302">
		<tag k="name" v="Rosvika" />
		<tag k="natural" v="bay" />
		<tag k="ssr:stedsnr" v="91002" />
	</node>
	<node id="-8126" lat="62.7273638877" lon="6.9806388804">
		<tag k="alt_name" v="Frihamnneset" />
		<tag k="name" v="Frihamnsnagen" />
		<tag k="natural" v="cape" />
		<tag k="ssr:stedsnr" v="95445" />
	</node>
	<node id="-6076" lat="62.6775805535" lon="6.59315833119">
		<tag k="name" v="Digernesvika" />
		<tag k="natural" v="bay" />
		<tag k="ssr:stedsnr" v="515379" />
	</node>
	<node id="-9247" lat="62.7795277793" lon="8.26846387969">
		<tag k="name" v="Hyllberget" />
		<tag k="natural" v="cape" />
		<tag k="ssr:stedsnr" v="401523" />
	</node>
	<node id="-6072" lat="62.6560666686" lon="6.61081388767">
		<tag k="name" v="Ramsvika" />
		<tag k="natural" v="bay" />
		<tag k="ssr:stedsnr" v="515142" />
	</node>
	<node id="-6071" lat="62.6553833363" lon="6.60490832814">
		<tag k="name" v="Gangstadbukta" />
		<tag k="natural" v="bay" />
		<tag k="ssr:stedsnr" v="515140" />
	</node>
	<node id="-6069" lat="62.7252027813" lon="6.72398054704">
		<tag k="name" v="Raknesgjerdet" />
		<tag k="natural" v="beach" />
		<tag k="place" v="locality" />
		<tag k="ssr:stedsnr" v="515055" />
	</node>
	<node id="-10164" lat="62.7200638891" lon="7.11940278136">
		<tag k="fixme" v="consider seamark:type=rock or natural=shoal" />
		<tag k="name" v="Kløvningan" />
		<tag k="place" v="islet" />
		<tag k="ssr:stedsnr" v="739077" />
	</node>
	<node id="-10163" lat="62.7244055512" lon="6.73301944263">
		<tag k="name" v="Rakvågen" />
		<tag k="natural" v="bay" />
		<tag k="ssr:stedsnr" v="739072" />
	</node>
	<node id="-6066" lat="62.7307138881" lon="6.76038055424">
		<tag k="name" v="Steinvika" />
		<tag k="natural" v="bay" />
		<tag k="ssr:stedsnr" v="515026" />
	</node>
	<node id="-6061" lat="62.7545888924" lon="6.86841666894">
		<tag k="name" v="Store Skarvholmen" />
		<tag k="place" v="islet" />
		<tag k="ssr:stedsnr" v="419605" />
	</node>
	<node id="-10155" lat="62.7294277736" lon="7.92685832789">
		<tag k="name" v="Vistdalsbukta" />
		<tag k="natural" v="bay" />
		<tag k="ssr:stedsnr" v="644976" />
	</node>
	<node id="-8100" lat="62.7537666659" lon="6.91927778706">
		<tag k="name" v="Bollholmen" />
		<tag k="place" v="islet" />
		<tag k="ssr:stedsnr" v="73847" />
	</node>
	<node id="-8094" lat="62.793180558" lon="7.66681389194">
		<tag k="name" v="Oltervågen" />
		<tag k="natural" v="bay" />
		<tag k="ssr:stedsnr" v="73761" />
	</node>
	<node id="-4762" lat="62.6545638848" lon="7.23521111654">
		<tag k="name" v="Svartnesbukta" />
		<tag k="natural" v="bay" />
		<tag k="ssr:stedsnr" v="217951" />
	</node>
	<node id="-6041" lat="62.6541027737" lon="7.36228611771">
		<tag k="name" v="Hagabukta" />
		<tag k="natural" v="bay" />
		<tag k="ssr:stedsnr" v="399961" />
	</node>
	<node id="-8516" lat="62.7045833291" lon="8.14148333966">
		<tag k="alt_name" v="Kjelneset" />
		<tag k="name" v="Tjeldneset" />
		<tag k="natural" v="cape" />
		<tag k="ssr:stedsnr" v="158844" />
	</node>
	<node id="-8085" lat="62.6844361074" lon="6.66363888609">
		<tag k="name" v="Selvika" />
		<tag k="natural" v="bay" />
		<tag k="ssr:stedsnr" v="72974" />
	</node>
	<node id="-8084" lat="62.6684972236" lon="7.23249443852">
		<tag k="alt_name" v="Melvika, litle" />
		<tag k="name" v="Litle Melvika" />
		<tag k="natural" v="bay" />
		<tag k="ssr:stedsnr" v="72699" />
	</node>
	<node id="-6033" lat="62.7272805576" lon="6.72622222007">
		<tag k="name" v="Orvika" />
		<tag k="natural" v="bay" />
		<tag k="ssr:stedsnr" v="505338" />
	</node>
	<node id="-4760" lat="62.6983833308" lon="7.34996389348">
		<tag k="name" v="Andersbukta" />
		<tag k="natural" v="bay" />
		<tag k="ssr:stedsnr" v="217928" />
	</node>
	<node id="-10125" lat="62.7141722254" lon="8.13288888412">
		<tag k="name" v="Godvika" />
		<tag k="natural" v="bay" />
		<tag k="ssr:stedsnr" v="644781" />
	</node>
	<node id="-6026" lat="62.7514222199" lon="6.85590277172">
		<tag k="fixme" v="consider seamark:type=rock or natural=shoal" />
		<tag k="name" v="Litlkalvøya" />
		<tag k="place" v="islet" />
		<tag k="ssr:stedsnr" v="394523" />
	</node>
	<node id="-6025" lat="62.6791611148" lon="6.59021944476">
		<tag k="fixme" v="consider seamark:type=rock or natural=shoal" />
		<tag k="name" v="Pølsa" />
		<tag k="place" v="islet" />
		<tag k="ssr:stedsnr" v="394365" />
	</node>
	<node id="-6024" lat="62.6856388896" lon="6.81271389849">
		<tag k="alt_name" v="Skottgardbukta" />
		<tag k="name" v="Skotgårdbukta" />
		<tag k="natural" v="bay" />
		<tag k="ssr:stedsnr" v="394360" />
	</node>
	<node id="-8071" lat="62.7067805584" lon="7.40636666656">
		<tag k="name" v="Vågsetervågen" />
		<tag k="natural" v="bay" />
		<tag k="ssr:stedsnr" v="72763" />
	</node>
	<node id="-8070" lat="62.7102888871" lon="7.40156389865">
		<tag k="name" v="Grasholmen" />
		<tag k="place" v="islet" />
		<tag k="ssr:stedsnr" v="72762" />
	</node>
	<node id="-6021" lat="62.7188166649" lon="6.6723888853">
		<tag k="name" v="Magerøysundet" />
		<tag k="natural" v="strait" />
		<tag k="ssr:stedsnr" v="394163" />
	</node>
	<node id="-10113" lat="62.753844445" lon="7.83856389769">
		<tag k="name" v="Tjuvbukta" />
		<tag k="natural" v="bay" />
		<tag k="ssr:stedsnr" v="644645" />
	</node>
	<node id="-6016" lat="62.6832416706" lon="6.79075555259">
		<tag k="name" v="Evjeneset" />
		<tag k="natural" v="cape" />
		<tag k="ssr:stedsnr" v="390655" />
	</node>
	<node id="-8062" lat="62.6660249988" lon="6.70041666494">
		<tag k="name" v="Juvika" />
		<tag k="natural" v="bay" />
		<tag k="ssr:stedsnr" v="72463" />
	</node>
	<node id="-8060" lat="62.7427888849" lon="7.99324999968">
		<tag k="alt_name" v="Klebjørkneset" />
		<tag k="name" v="Kleibjørkneset" />
		<tag k="natural" v="cape" />
		<tag k="ssr:stedsnr" v="72460" />
	</node>
	<node id="-6010" lat="62.7112138892" lon="6.67873611525">
		<tag k="name" v="Skrapasholman" />
		<tag k="place" v="islet" />
		<tag k="ssr:stedsnr" v="375909" />
	</node>
	<node id="-6009" lat="62.7052194475" lon="6.61316944958">
		<tag k="fixme" v="consider seamark:type=rock or natural=shoal" />
		<tag k="name" v="Blydrotten" />
		<tag k="place" v="islet" />
		<tag k="ssr:stedsnr" v="375908" />
	</node>
	<node id="-10098" lat="62.7642388897" lon="7.92090833338">
		<tag k="name" v="Trollmyrgrunna" />
		<tag k="natural" v="shoal" />
		<tag k="place" v="locality" />
		<tag k="ssr:stedsnr" v="644470" />
	</node>
	<node id="-6118" lat="62.6895861106" lon="6.6063583402">
		<tag k="name" v="Myrbærholmen" />
		<tag k="place" v="islet" />
		<tag k="ssr:stedsnr" v="436884" />
	</node>
	<node id="-10497" lat="62.7386499975" lon="6.72424443519">
		<tag k="name" v="Båtnesbukta" />
		<tag k="natural" v="bay" />
		<tag k="ssr:stedsnr" v="819188" />
	</node>
	<node id="-10080" lat="62.8038944414" lon="8.17270834169">
		<tag k="name" v="Djuphølen" />
		<tag k="place" v="locality" />
		<tag k="ssr:stedsnr" v="644271" />
	</node>
	<node id="-8031" lat="62.7083916627" lon="7.41134444595">
		<tag k="name" v="Mjeltnesgrunnen" />
		<tag k="natural" v="shoal" />
		<tag k="place" v="locality" />
		<tag k="ssr:stedsnr" v="51900" />
	</node>
	<node id="-8030" lat="62.6387861073" lon="6.51451666907">
		<tag k="name" v="Drynjaholmane" />
		<tag k="place" v="islet" />
		<tag k="ssr:stedsnr" v="51896" />
	</node>
	<node id="-5981" lat="62.7010583343" lon="6.69298333074">
		<tag k="name" v="Notaholmen" />
		<tag k="place" v="islet" />
		<tag k="ssr:stedsnr" v="497901" />
	</node>
	<node id="-5980" lat="62.6861638914" lon="6.60837500104">
		<tag k="name" v="Søre Sandan" />
		<tag k="natural" v="beach" />
		<tag k="place" v="locality" />
		<tag k="ssr:stedsnr" v="497883" />
	</node>
	<node id="-8027" lat="62.7356500022" lon="6.93086944982">
		<tag k="alt_name" v="Remkollbukta" />
		<tag k="name" v="Romkallbukta" />
		<tag k="natural" v="bay" />
		<tag k="ssr:stedsnr" v="51138" />
	</node>
	<node id="-8026" lat="62.6491999978" lon="7.25996944728">
		<tag k="name" v="Kvitneset" />
		<tag k="natural" v="cape" />
		<tag k="ssr:stedsnr" v="51130" />
	</node>
	<node id="-8025" lat="62.6669138911" lon="6.84673889578">
		<tag k="fixme" v="consider seamark:type=rock or natural=shoal" />
		<tag k="name" v="Tenneknubbane" />
		<tag k="place" v="islet" />
		<tag k="ssr:stedsnr" v="50692" />
	</node>
	<node id="-8024" lat="62.6905111152" lon="6.93210832842">
		<tag k="name" v="Tautreflua" />
		<tag k="natural" v="shoal" />
		<tag k="place" v="locality" />
		<tag k="ssr:stedsnr" v="50688" />
	</node>
	<node id="-8023" lat="62.7227000014" lon="7.30151944358">
		<tag k="name" v="Dragfluan" />
		<tag k="natural" v="shoal" />
		<tag k="place" v="locality" />
		<tag k="ssr:stedsnr" v="50134" />
	</node>
	<node id="-10070" lat="62.6606888904" lon="6.68005833932">
		<tag k="fixme" v="consider seamark:type=rock or natural=shoal" />
		<tag k="name" v="Årnesklubben" />
		<tag k="place" v="islet" />
		<tag k="ssr:stedsnr" v="643693" />
	</node>
	<node id="-10069" lat="62.7024499994" lon="6.91190000347">
		<tag k="name" v="Osen" />
		<tag k="natural" v="bay" />
		<tag k="ssr:stedsnr" v="643682" />
	</node>
	<node id="-5968" lat="62.737069446" lon="7.29161110573">
		<tag k="name" v="Turhusholmen" />
		<tag k="place" v="islet" />
		<tag k="ssr:stedsnr" v="497770" />
	</node>
	<node id="-5964" lat="62.6751472223" lon="7.43308610713">
		<tag k="name" v="Nørvågen" />
		<tag k="natural" v="bay" />
		<tag k="ssr:stedsnr" v="497724" />
	</node>
	<node id="-8011" lat="62.7829499991" lon="8.25652221322">
		<tag k="name" v="Elvaneset" />
		<tag k="natural" v="cape" />
		<tag k="ssr:stedsnr" v="38390" />
	</node>
	<node id="-5962" lat="62.6735472189" lon="7.23547499314">
		<tag k="name" v="Kvalen" />
		<tag k="natural" v="cape" />
		<tag k="ssr:stedsnr" v="497713" />
	</node>
	<node id="-5961" lat="62.6460111138" lon="7.31055277175">
		<tag k="alt_name" v="Vestaholmen, l;Litle Vestaholmen" />
		<tag k="name" v="Litle Vestadholmen" />
		<tag k="place" v="islet" />
		<tag k="ssr:stedsnr" v="497613" />
	</node>
	<node id="-10046" lat="62.7789611117" lon="7.6756305492">
		<tag k="name" v="Bordalsbukta" />
		<tag k="natural" v="bay" />
		<tag k="ssr:stedsnr" v="641929" />
	</node>
	<node id="-10045" lat="62.7070916688" lon="7.3820888863">
		<tag k="name" v="Geitholmen" />
		<tag k="place" v="islet" />
		<tag k="ssr:stedsnr" v="641920" />
	</node>
	<node id="-10039" lat="62.6914305577" lon="7.34994722758">
		<tag k="fixme" v="consider seamark:type=rock or natural=shoal" />
		<tag k="name" v="Langskjeret" />
		<tag k="place" v="islet" />
		<tag k="ssr:stedsnr" v="641886" />
	</node>
	<node id="-10036" lat="62.7031388911" lon="7.3687444456">
		<tag k="name" v="Saltkjelen" />
		<tag k="natural" v="bay" />
		<tag k="ssr:stedsnr" v="641870" />
	</node>
	<node id="-5935" lat="62.7247694446" lon="6.68549999494">
		<tag k="name" v="Kvalvika" />
		<tag k="natural" v="bay" />
		<tag k="ssr:stedsnr" v="496820" />
	</node>
	<node id="-5934" lat="62.7290324933" lon="6.67772687581">
		<tag k="name" v="Ålesundsneset" />
		<tag k="natural" v="cape" />
		<tag k="ssr:stedsnr" v="496819" />
	</node>
	<node id="-10027" lat="62.761980558" lon="7.4772638793">
		<tag k="name" v="Dingeneset" />
		<tag k="natural" v="cape" />
		<tag k="ssr:stedsnr" v="641763" />
	</node>
	<node id="-4743" lat="62.7303694403" lon="6.98452221403">
		<tag k="name" v="Grønvika" />
		<tag k="natural" v="bay" />
		<tag k="ssr:stedsnr" v="217666" />
	</node>
	<node id="-5926" lat="62.7228499965" lon="8.11108610347">
		<tag k="name" v="Grytneset" />
		<tag k="natural" v="cape" />
		<tag k="ssr:stedsnr" v="496492" />
	</node>
	<node id="-7473" lat="62.7830611141" lon="8.2995388851">
		<tag k="name" v="Inner Altervika" />
		<tag k="natural" v="bay" />
		<tag k="ssr:stedsnr" v="947276" />
	</node>
	<node id="-10019" lat="62.7383833315" lon="6.98122222242">
		<tag k="name" v="Bårstauå" />
		<tag k="natural" v="bay" />
		<tag k="ssr:stedsnr" v="641661" />
	</node>
	<node id="-7970" lat="62.7475305513" lon="7.80466944865">
		<tag k="fixme" v="consider seamark:type=rock or natural=shoal" />
		<tag k="name" v="Barsteinskjera" />
		<tag k="place" v="islet" />
		<tag k="ssr:stedsnr" v="37629" />
	</node>
	<node id="-5921" lat="62.722755553" lon="7.19795276989">
		<tag k="name" v="Brentøya" />
		<tag k="place" v="islet" />
		<tag k="ssr:stedsnr" v="496082" />
	</node>
	<node id="-5920" lat="62.7197722205" lon="7.1777111087">
		<tag k="name" v="Hjertholmen" />
		<tag k="place" v="islet" />
		<tag k="ssr:stedsnr" v="496042" />
	</node>
	<node id="-5919" lat="62.716852782" lon="7.18311388098">
		<tag k="name" v="Aurikkelholmen" />
		<tag k="place" v="islet" />
		<tag k="ssr:stedsnr" v="496041" />
	</node>
	<node id="-10014" lat="62.6741861069" lon="7.41557499312">
		<tag k="alt_name" v="Katnesgrunna" />
		<tag k="name" v="Kattenesgrunnen" />
		<tag k="natural" v="shoal" />
		<tag k="place" v="locality" />
		<tag k="ssr:stedsnr" v="641601" />
	</node>
	<node id="-10012" lat="62.6849833315" lon="7.4500722151">
		<tag k="name" v="Labergneset" />
		<tag k="natural" v="cape" />
		<tag k="ssr:stedsnr" v="641592" />
	</node>
	<node id="-10011" lat="62.6648916647" lon="7.40718888337">
		<tag k="name" v="Hangholmsundet" />
		<tag k="natural" v="strait" />
		<tag k="ssr:stedsnr" v="641587" />
	</node>
	<node id="-5914" lat="62.6573027755" lon="6.87293054984">
		<tag k="name" v="Stabbefluna" />
		<tag k="natural" v="shoal" />
		<tag k="place" v="locality" />
		<tag k="ssr:stedsnr" v="354817" />
	</node>
	<node id="-5913" lat="62.7680000034" lon="7.95329722726">
		<tag k="name" v="Litlevika" />
		<tag k="natural" v="bay" />
		<tag k="ssr:stedsnr" v="341480" />
	</node>
	<node id="-5912" lat="62.7678833363" lon="7.94978333557">
		<tag k="fixme" v="consider seamark:type=rock or natural=shoal" />
		<tag k="name" v="Kobbeskjæret" />
		<tag k="place" v="islet" />
		<tag k="ssr:stedsnr" v="341478" />
	</node>
	<node id="-10005" lat="62.7323055514" lon="7.0854444371">
		<tag k="fixme" v="consider seamark:type=rock or natural=shoal" />
		<tag k="name" v="Pinskjeret" />
		<tag k="place" v="islet" />
		<tag k="ssr:stedsnr" v="641431" />
	</node>
	<node id="-10004" lat="62.732358335" lon="7.08643056497">
		<tag k="name" v="Geitapina" />
		<tag k="place" v="islet" />
		<tag k="ssr:stedsnr" v="641429" />
	</node>
	<node id="-5422" lat="62.656941665" lon="6.55987221716">
		<tag k="alt_name" v="Sjærfluene" />
		<tag k="name" v="Skjerfluene" />
		<tag k="natural" v="shoal" />
		<tag k="place" v="locality" />
		<tag k="ssr:stedsnr" v="293605" />
	</node>
	<node id="-5904" lat="62.7239083354" lon="7.39705277936">
		<tag k="name" v="Storurgrunna" />
		<tag k="natural" v="shoal" />
		<tag k="place" v="locality" />
		<tag k="ssr:stedsnr" v="338835" />
	</node>
	<node id="-7951" lat="62.7691972249" lon="8.0062249931">
		<tag k="fixme" v="consider seamark:type=rock or natural=shoal" />
		<tag k="name" v="Høvikskjæret" />
		<tag k="place" v="islet" />
		<tag k="ssr:stedsnr" v="37474" />
	</node>
	<node id="-10487" lat="62.6626305537" lon="6.67871389878">
		<tag k="name" v="Korsvika" />
		<tag k="natural" v="bay" />
		<tag k="ssr:stedsnr" v="809072" />
	</node>
	<node id="-8151" lat="62.7393500028" lon="6.92901111061">
		<tag k="name" v="Midtvikneset" />
		<tag k="natural" v="cape" />
		<tag k="ssr:stedsnr" v="91598" />
	</node>
	<node id="-7467" lat="62.6786277789" lon="7.29165277312">
		<tag k="name" v="Kleivneset" />
		<tag k="natural" v="cape" />
		<tag k="ssr:stedsnr" v="945969" />
	</node>
	<node id="-7808" lat="62.6697916653" lon="6.66227777968">
		<tag k="name" v="Innerneset" />
		<tag k="natural" v="cape" />
		<tag k="ssr:stedsnr" v="21068" />
	</node>
	<node id="-7932" lat="62.6440305558" lon="7.30120555949">
		<tag k="name" v="Vestadholmane" />
		<tag k="place" v="islet" />
		<tag k="ssr:stedsnr" v="36547" />
	</node>
	<node id="-5418" lat="62.732463893" lon="7.17321388086">
		<tag k="name" v="Moldegrunna" />
		<tag k="natural" v="shoal" />
		<tag k="place" v="locality" />
		<tag k="ssr:stedsnr" v="293206" />
	</node>
	<node id="-5874" lat="62.687350001" lon="6.83933333609">
		<tag k="name" v="Osen" />
		<tag k="natural" v="bay" />
		<tag k="ssr:stedsnr" v="334242" />
	</node>
	<node id="-5870" lat="62.6814611073" lon="6.77457500329">
		<tag k="name" v="Heggdalsbukta" />
		<tag k="natural" v="bay" />
		<tag k="ssr:stedsnr" v="333302" />
	</node>
	<node id="-4733" lat="62.7335277762" lon="7.08214445062">
		<tag k="name" v="Kringstadbukta" />
		<tag k="natural" v="bay" />
		<tag k="ssr:stedsnr" v="217474" />
	</node>
	<node id="-5866" lat="62.7193416683" lon="6.66061110516">
		<tag k="name" v="Fagervika" />
		<tag k="natural" v="bay" />
		<tag k="ssr:stedsnr" v="333212" />
	</node>
	<node id="-5865" lat="62.717588885" lon="6.66372222924">
		<tag k="name" v="Langvika" />
		<tag k="natural" v="bay" />
		<tag k="ssr:stedsnr" v="333207" />
	</node>
	<node id="-5864" lat="62.7183249999" lon="6.73033611168">
		<tag k="name" v="Spissneset" />
		<tag k="natural" v="cape" />
		<tag k="ssr:stedsnr" v="333015" />
	</node>
	<node id="-9955" lat="62.695188885" lon="6.88538334077">
		<tag k="alt_name" v="Buaberget" />
		<tag k="name" v="Vikaberget" />
		<tag k="natural" v="cape" />
		<tag k="ssr:stedsnr" v="637752" />
	</node>
	<node id="-9954" lat="62.7505500022" lon="6.91670000117">
		<tag k="fixme" v="consider seamark:type=rock or natural=shoal" />
		<tag k="name" v="Storhaugskjeret" />
		<tag k="place" v="islet" />
		<tag k="ssr:stedsnr" v="637751" />
	</node>
	<node id="-7905" lat="62.7217694486" lon="7.4154722167">
		<tag k="name" v="Båtnesleira" />
		<tag k="natural" v="bay" />
		<tag k="ssr:stedsnr" v="34843" />
	</node>
	<node id="-5856" lat="62.6662805594" lon="6.57484443806">
		<tag k="fixme" v="consider seamark:type=rock or natural=shoal" />
		<tag k="name" v="Haugskjæret" />
		<tag k="place" v="islet" />
		<tag k="ssr:stedsnr" v="475601" />
	</node>
	<node id="-5855" lat="62.7388361076" lon="7.27377777891">
		<tag k="name" v="Årøgrunna" />
		<tag k="natural" v="shoal" />
		<tag k="place" v="locality" />
		<tag k="ssr:stedsnr" v="475141" />
	</node>
	<node id="-7902" lat="62.6955361074" lon="7.44240277513">
		<tag k="name" v="Bergsvikbukta" />
		<tag k="natural" v="bay" />
		<tag k="ssr:stedsnr" v="34827" />
	</node>
	<node id="-5853" lat="62.728602775" lon="6.93355277739">
		<tag k="name" v="Setbukta" />
		<tag k="natural" v="bay" />
		<tag k="ssr:stedsnr" v="475127" />
	</node>
	<node id="-5852" lat="62.7837055599" lon="8.25240278724">
		<tag k="name" v="Bøneset" />
		<tag k="natural" v="cape" />
		<tag k="ssr:stedsnr" v="474564" />
	</node>
	<node id="-5850" lat="62.7191527803" lon="6.67603889137">
		<tag k="name" v="Korveneset" />
		<tag k="natural" v="cape" />
		<tag k="ssr:stedsnr" v="315923" />
	</node>
	<node id="-9945" lat="62.6939972246" lon="7.53353055377">
		<tag k="name" v="Apalneset" />
		<tag k="natural" v="cape" />
		<tag k="ssr:stedsnr" v="637547" />
	</node>
	<node id="-9942" lat="62.6677194468" lon="6.87048612024">
		<tag k="name" v="Grønebukta" />
		<tag k="natural" v="bay" />
		<tag k="ssr:stedsnr" v="637531" />
	</node>
	<node id="-9938" lat="62.7037750023" lon="6.64392221454">
		<tag k="name" v="Geitvika" />
		<tag k="natural" v="bay" />
		<tag k="ssr:stedsnr" v="636848" />
	</node>
	<node id="-9937" lat="62.7150194463" lon="6.73108055255">
		<tag k="name" v="Saltvikneset" />
		<tag k="natural" v="cape" />
		<tag k="ssr:stedsnr" v="636648" />
	</node>
	<node id="-9934" lat="62.7429638857" lon="6.850508326">
		<tag k="alt_name" v="Kalveskjeret" />
		<tag k="fixme" v="consider seamark:type=rock or natural=shoal" />
		<tag k="name" v="Kalveskjæret" />
		<tag k="place" v="islet" />
		<tag k="ssr:stedsnr" v="636537" />
	</node>
	<node id="-9932" lat="62.672013888" lon="6.6604277715">
		<tag k="name" v="Torveneset" />
		<tag k="natural" v="cape" />
		<tag k="ssr:stedsnr" v="636026" />
	</node>
	<node id="-7880" lat="62.6848777749" lon="7.44477499316">
		<tag k="name" v="Sundet" />
		<tag k="natural" v="strait" />
		<tag k="ssr:stedsnr" v="34212" />
	</node>
	<node id="-9927" lat="62.6781805591" lon="6.67220833656">
		<tag k="name" v="Flekken" />
		<tag k="natural" v="shoal" />
		<tag k="place" v="locality" />
		<tag k="ssr:stedsnr" v="627050" />
	</node>
	<node id="-5830" lat="62.7417472234" lon="6.94761111887">
		<tag k="name" v="Julsundet" />
		<tag k="natural" v="strait" />
		<tag k="ssr:stedsnr" v="315113" />
	</node>
	<node id="-5825" lat="62.7371861125" lon="7.29833889791">
		<tag k="name" v="Vardholmneset" />
		<tag k="natural" v="cape" />
		<tag k="ssr:stedsnr" v="314769" />
	</node>
	<node id="-5824" lat="62.7332638878" lon="7.33353332903">
		<tag k="name" v="Bolsøybukta" />
		<tag k="natural" v="bay" />
		<tag k="ssr:stedsnr" v="314766" />
	</node>
	<node id="-9218" lat="62.7175472214" lon="7.64573332443">
		<tag k="name" v="Oksebåsen" />
		<tag k="natural" v="bay" />
		<tag k="ssr:stedsnr" v="399991" />
	</node>
	<node id="-9914" lat="62.6931722242" lon="6.6133388942">
		<tag k="name" v="Kjelsviknesja" />
		<tag k="natural" v="cape" />
		<tag k="ssr:stedsnr" v="618877" />
	</node>
	<node id="-9911" lat="62.7522207599" lon="7.40126757845">
		<tag k="bay" v="fjord" />
		<tag k="name" v="Fannefjorden" />
		<tag k="natural" v="bay" />
		<tag k="old_name" v="Fannen" />
		<tag k="ssr:stedsnr" v="618746" />
	</node>
	<node id="-5814" lat="62.7026555567" lon="8.14260000731">
		<tag k="name" v="Strandneset" />
		<tag k="natural" v="cape" />
		<tag k="ssr:stedsnr" v="462842" />
	</node>
	<node id="-9905" lat="62.7235444424" lon="7.27153888861">
		<tag k="alt_name" v="Måsholmen, store" />
		<tag k="name" v="Store Måsholmen" />
		<tag k="place" v="islet" />
		<tag k="ssr:stedsnr" v="618724" />
	</node>
	<node id="-9904" lat="62.670560809" lon="7.42484801634">
		<tag k="name" v="Veøya" />
		<tag k="place" v="island" />
		<tag k="ssr:stedsnr" v="618703" />
	</node>
	<node id="-9903" lat="62.6710083293" lon="7.23492223146">
		<tag k="alt_name" v="Melvika, store" />
		<tag k="name" v="Store Melvika" />
		<tag k="natural" v="bay" />
		<tag k="ssr:stedsnr" v="618691" />
	</node>
	<node id="-7851" lat="62.7021972244" lon="6.61474167221">
		<tag k="fixme" v="consider seamark:type=rock or natural=shoal" />
		<tag k="name" v="Blydråtten" />
		<tag k="place" v="islet" />
		<tag k="ssr:stedsnr" v="30821" />
	</node>
	<node id="-7848" lat="62.7412944442" lon="6.92793332642">
		<tag k="name" v="Håneskråna" />
		<tag k="natural" v="bay" />
		<tag k="ssr:stedsnr" v="30578" />
	</node>
	<node id="-7845" lat="62.7138944486" lon="6.93433889215">
		<tag k="alt_name" v="Sølvika" />
		<tag k="name" v="Sølvikbukta" />
		<tag k="natural" v="bay" />
		<tag k="ssr:stedsnr" v="30563" />
	</node>
	<node id="-9892" lat="62.6382472231" lon="6.51710277671">
		<tag k="name" v="Storholmen" />
		<tag k="place" v="islet" />
		<tag k="ssr:stedsnr" v="618468" />
	</node>
	<node id="-7842" lat="62.7174361076" lon="6.93485555933">
		<tag k="name" v="Inste Kjeberget" />
		<tag k="natural" v="cape" />
		<tag k="ssr:stedsnr" v="30523" />
	</node>
	<node id="-7553" lat="62.6719972222" lon="6.73263887976">
		<tag k="name" v="Morteberget" />
		<tag k="natural" v="cape" />
		<tag k="ssr:stedsnr" v="880486" />
	</node>
	<node id="-9887" lat="62.7895944408" lon="6.68811944514">
		<tag k="bay" v="fjord" />
		<tag k="name" v="Matløysdjupet" />
		<tag k="natural" v="bay" />
		<tag k="ssr:stedsnr" v="618800" />
	</node>
	<node id="-7837" lat="62.6916472188" lon="6.61458333641">
		<tag k="name" v="Kjelsvika" />
		<tag k="natural" v="bay" />
		<tag k="ssr:stedsnr" v="30375" />
	</node>
	<node id="-7836" lat="62.6903666708" lon="6.60235277239">
		<tag k="alt_name" v="Skurvene" />
		<tag k="fixme" v="consider seamark:type=rock or natural=shoal" />
		<tag k="name" v="Skorven/Svartskjeret" />
		<tag k="place" v="islet" />
		<tag k="ssr:stedsnr" v="30372" />
	</node>
	<node id="-9876" lat="62.6416916624" lon="6.51594999704">
		<tag k="name" v="Eiremsneset" />
		<tag k="natural" v="cape" />
		<tag k="ssr:stedsnr" v="618455" />
	</node>
	<node id="-7827" lat="62.7170805585" lon="6.72774721453">
		<tag k="name" v="Nerlandsbukta" />
		<tag k="natural" v="bay" />
		<tag k="ssr:stedsnr" v="30018" />
	</node>
	<node id="-7825" lat="62.7393361088" lon="6.70597221917">
		<tag k="name" v="Kontholmen" />
		<tag k="place" v="islet" />
		<tag k="ssr:stedsnr" v="30162" />
	</node>
	<node id="-7823" lat="62.6516416636" lon="6.55701944126">
		<tag k="name" v="Vardnesbukta" />
		<tag k="natural" v="bay" />
		<tag k="ssr:stedsnr" v="30159" />
	</node>
	<node id="-9856" lat="62.7315527751" lon="6.9376333399">
		<tag k="name" v="Nautneset" />
		<tag k="natural" v="cape" />
		<tag k="ssr:stedsnr" v="618062" />
	</node>
	<node id="-9855" lat="62.7324888889" lon="7.09346389331">
		<tag k="name" v="Cap Clara" />
		<tag k="natural" v="cape" />
		<tag k="ssr:stedsnr" v="618055" />
	</node>
	<node id="-9854" lat="62.6650777805" lon="6.8560277698">
		<tag k="alt_name" v="Klungreholmen" />
		<tag k="name" v="Klungerholmen" />
		<tag k="place" v="islet" />
		<tag k="ssr:stedsnr" v="618050" />
	</node>
	<node id="-9853" lat="62.6653277737" lon="6.84413888649">
		<tag k="alt_name" v="Skarveholmen" />
		<tag k="name" v="Storholmen" />
		<tag k="place" v="islet" />
		<tag k="ssr:stedsnr" v="618049" />
	</node>
	<node id="-9852" lat="62.7574722223" lon="6.69090833496">
		<tag k="name" v="Tangeflua" />
		<tag k="natural" v="shoal" />
		<tag k="place" v="locality" />
		<tag k="ssr:stedsnr" v="618047" />
	</node>
	<node id="-6079" lat="62.714180559" lon="6.68360832989">
		<tag k="name" v="Skjelvika" />
		<tag k="natural" v="bay" />
		<tag k="ssr:stedsnr" v="515598" />
	</node>
	<node id="-9848" lat="62.7620305598" lon="6.79061111503">
		<tag k="name" v="Grunnflua" />
		<tag k="natural" v="shoal" />
		<tag k="place" v="locality" />
		<tag k="ssr:stedsnr" v="597841" />
	</node>
	<node id="-9846" lat="62.6840888876" lon="8.14260277256">
		<tag k="name" v="Paulen" />
		<tag k="natural" v="bay" />
		<tag k="ssr:stedsnr" v="596864" />
	</node>
	<node id="-9845" lat="62.7883333315" lon="7.64905555331">
		<tag k="name" v="Kobbesteingrunnen" />
		<tag k="natural" v="shoal" />
		<tag k="place" v="locality" />
		<tag k="ssr:stedsnr" v="596839" />
	</node>
	<node id="-9843" lat="62.7007472267" lon="8.11745832762">
		<tag k="name" v="Hundnesflua" />
		<tag k="natural" v="shoal" />
		<tag k="place" v="locality" />
		<tag k="ssr:stedsnr" v="596769" />
	</node>
	<node id="-9842" lat="62.6632111074" lon="6.84661667047">
		<tag k="fixme" v="consider seamark:type=rock or natural=shoal" />
		<tag k="name" v="Skarveskjæret" />
		<tag k="place" v="islet" />
		<tag k="ssr:stedsnr" v="596707" />
	</node>
	<node id="-9840" lat="62.7327777789" lon="6.93701945405">
		<tag k="name" v="Løvika" />
		<tag k="natural" v="bay" />
		<tag k="ssr:stedsnr" v="596132" />
	</node>
	<node id="-7787" lat="62.6635527766" lon="7.40009999156">
		<tag k="name" v="Hangholmen" />
		<tag k="place" v="islet" />
		<tag k="ssr:stedsnr" v="12733" />
	</node>
	<node id="-7786" lat="62.6624138862" lon="7.38915277786">
		<tag k="alt_name" v="Sekkensundet" />
		<tag k="name" v="Sekkesundet" />
		<tag k="natural" v="strait" />
		<tag k="ssr:stedsnr" v="12732" />
	</node>
	<node id="-7784" lat="62.655394444" lon="6.63260277769">
		<tag k="name" v="Oksvollneset" />
		<tag k="natural" v="cape" />
		<tag k="ssr:stedsnr" v="12480" />
	</node>
	<node id="-9831" lat="62.7332666693" lon="7.93623611622">
		<tag k="name" v="Myklebostadstranda" />
		<tag k="natural" v="beach" />
		<tag k="place" v="locality" />
		<tag k="ssr:stedsnr" v="583966" />
	</node>
	<node id="-7782" lat="62.638216671" lon="6.52258333485">
		<tag k="name" v="Litleholmen" />
		<tag k="place" v="islet" />
		<tag k="ssr:stedsnr" v="12471" />
	</node>
	<node id="-9823" lat="62.7188611125" lon="8.05675832701">
		<tag k="fixme" v="consider seamark:type=rock or natural=shoal" />
		<tag k="name" v="Røsskjerflua" />
		<tag k="place" v="islet" />
		<tag k="ssr:stedsnr" v="583817" />
	</node>
	<node id="-5722" lat="62.7340722193" lon="8.09459721295">
		<tag k="name" v="Risabukta" />
		<tag k="natural" v="bay" />
		<tag k="ssr:stedsnr" v="280509" />
	</node>
	<node id="-7765" lat="62.6986666649" lon="7.33839445111">
		<tag k="alt_name" v="Store Karlsøya" />
		<tag k="name" v="Karlsøya" />
		<tag k="place" v="islet" />
		<tag k="ssr:stedsnr" v="11696" />
	</node>
	<node id="-5390" lat="62.7173611108" lon="7.13620000401">
		<tag k="name" v="Langholmen" />
		<tag k="place" v="islet" />
		<tag k="ssr:stedsnr" v="193038" />
	</node>
	<node id="-7761" lat="62.7710083369" lon="6.96088611252">
		<tag k="bay" v="fjord" />
		<tag k="name" v="Julsundet" />
		<tag k="natural" v="bay" />
		<tag k="ssr:stedsnr" v="11779" />
	</node>
	<node id="-7760" lat="62.7359083322" lon="7.3462611171">
		<tag k="fixme" v="consider seamark:type=rock or natural=shoal" />
		<tag k="name" v="Rogna" />
		<tag k="place" v="islet" />
		<tag k="ssr:stedsnr" v="11768" />
	</node>
	<node id="-10509" lat="62.7491527814" lon="6.84296666242">
		<tag k="alt_name" v="Maurongskjeret" />
		<tag k="fixme" v="consider seamark:type=rock or natural=shoal" />
		<tag k="name" v="Maurungskjæret" />
		<tag k="place" v="islet" />
		<tag k="ssr:stedsnr" v="819537" />
	</node>
	<node id="-7756" lat="62.7897000034" lon="7.71051388819">
		<tag k="name" v="Haugneset" />
		<tag k="natural" v="cape" />
		<tag k="ssr:stedsnr" v="11758" />
	</node>
	<node id="-7754" lat="62.7448777784" lon="7.95939444268">
		<tag k="alt_name" v="Gauprøra" />
		<tag k="name" v="Gauprørhammaren" />
		<tag k="natural" v="cape" />
		<tag k="ssr:stedsnr" v="11492" />
	</node>
	<node id="-7753" lat="62.7349583364" lon="8.08606666779">
		<tag k="name" v="Motberget" />
		<tag k="natural" v="cape" />
		<tag k="ssr:stedsnr" v="11489" />
	</node>
	<node id="-5704" lat="62.7246194407" lon="7.26556944437">
		<tag k="fixme" v="consider seamark:type=rock or natural=shoal" />
		<tag k="name" v="Kobbeflua" />
		<tag k="place" v="islet" />
		<tag k="ssr:stedsnr" v="459920" />
	</node>
	<node id="-9798" lat="62.7348333306" lon="7.74296944488">
		<tag k="name" v="Hundeholet" />
		<tag k="natural" v="bay" />
		<tag k="ssr:stedsnr" v="583543" />
	</node>
	<node id="-9797" lat="62.7795833318" lon="8.26432499162">
		<tag k="name" v="Bleikneset" />
		<tag k="natural" v="cape" />
		<tag k="ssr:stedsnr" v="583540" />
	</node>
	<node id="-5698" lat="62.7529166651" lon="7.41843888931">
		<tag k="fixme" v="consider seamark:type=rock or natural=shoal" />
		<tag k="name" v="Brokstadskjeret" />
		<tag k="place" v="islet" />
		<tag k="ssr:stedsnr" v="459837" />
	</node>
	<node id="-5696" lat="62.7437361119" lon="7.2459666658">
		<tag k="name" v="Leirgrovvika" />
		<tag k="natural" v="bay" />
		<tag k="ssr:stedsnr" v="459810" />
	</node>
	<node id="-7735" lat="62.7246416699" lon="6.98162778247">
		<tag k="name" v="Julneset" />
		<tag k="natural" v="cape" />
		<tag k="ssr:stedsnr" v="11066" />
	</node>
	<node id="-9781" lat="62.7579305515" lon="8.0146194457">
		<tag k="name" v="Prestgrunna" />
		<tag k="place" v="locality" />
		<tag k="ssr:stedsnr" v="583387" />
	</node>
	<node id="-9780" lat="62.7488472224" lon="8.02071388933">
		<tag k="fixme" v="consider seamark:type=rock or natural=shoal" />
		<tag k="name" v="Bollskjæret" />
		<tag k="place" v="islet" />
		<tag k="ssr:stedsnr" v="583385" />
	</node>
	<node id="-6750" lat="62.7231916675" lon="6.93428332476">
		<tag k="name" v="Svinnsetbukta" />
		<tag k="natural" v="bay" />
		<tag k="ssr:stedsnr" v="880558" />
	</node>
	<node id="-6067" lat="62.7379833317" lon="6.70603888734">
		<tag k="name" v="Naustvågen" />
		<tag k="natural" v="bay" />
		<tag k="ssr:stedsnr" v="515039" />
	</node>
	<node id="-5678" lat="62.7341972244" lon="6.97455000114">
		<tag k="fixme" v="consider seamark:type=rock or natural=shoal" />
		<tag k="name" v="Skjeret" />
		<tag k="place" v="islet" />
		<tag k="ssr:stedsnr" v="459678" />
	</node>
	<node id="-8455" lat="62.7370027752" lon="7.18856111976">
		<tag k="name" v="Moldegårdneset" />
		<tag k="natural" v="cape" />
		<tag k="ssr:stedsnr" v="156677" />
	</node>
	<node id="-5672" lat="62.6779722186" lon="7.44999444607">
		<tag k="name" v="Fyrholmen" />
		<tag k="place" v="islet" />
		<tag k="ssr:stedsnr" v="459624" />
	</node>
	<node id="-9767" lat="62.7501666696" lon="7.42897777498">
		<tag k="name" v="Brokstadneset" />
		<tag k="natural" v="cape" />
		<tag k="ssr:stedsnr" v="580838" />
	</node>
	<node id="-7718" lat="62.6741527748" lon="6.91283888933">
		<tag k="name" v="Valtflua" />
		<tag k="natural" v="shoal" />
		<tag k="place" v="locality" />
		<tag k="ssr:stedsnr" v="960721" />
	</node>
	<node id="-7717" lat="62.6816888932" lon="6.92135277528">
		<tag k="name" v="Kleppskjærgrunnen" />
		<tag k="natural" v="shoal" />
		<tag k="place" v="locality" />
		<tag k="ssr:stedsnr" v="960720" />
	</node>
	<node id="-7712" lat="62.7321333372" lon="7.90590554921">
		<tag k="name" v="Gildernesbukta" />
		<tag k="natural" v="bay" />
		<tag k="ssr:stedsnr" v="948972" />
	</node>
	<node id="-9758" lat="62.7168277799" lon="7.64307778329">
		<tag k="name" v="Staurvika" />
		<tag k="natural" v="bay" />
		<tag k="ssr:stedsnr" v="580993" />
	</node>
	<node id="-9755" lat="62.6694611084" lon="7.31564167442">
		<tag k="name" v="Reitabukta" />
		<tag k="natural" v="bay" />
		<tag k="ssr:stedsnr" v="580955" />
	</node>
	<node id="-9752" lat="62.6642083371" lon="7.37691666636">
		<tag k="name" v="Skarbukta" />
		<tag k="natural" v="bay" />
		<tag k="ssr:stedsnr" v="580945" />
	</node>
	<node id="-5654" lat="62.7542861136" lon="7.44157500371">
		<tag k="name" v="Merrabuktneset" />
		<tag k="natural" v="cape" />
		<tag k="ssr:stedsnr" v="277839" />
	</node>
	<node id="-6326" lat="62.6478249997" lon="7.27415833424">
		<tag k="name" v="Bytneset" />
		<tag k="natural" v="cape" />
		<tag k="ssr:stedsnr" v="701387" />
	</node>
	<node id="-9747" lat="62.7275277769" lon="7.21316388965">
		<tag k="name" v="Bollan" />
		<tag k="place" v="island" />
		<tag k="ssr:stedsnr" v="580639" />
	</node>
	<node id="-6403" lat="62.7436222208" lon="7.24915556067">
		<tag k="name" v="Leirgrovvikneset" />
		<tag k="natural" v="cape" />
		<tag k="ssr:stedsnr" v="702210" />
	</node>
	<node id="-7694" lat="62.7383138845" lon="8.06712500267">
		<tag k="name" v="Stygghola" />
		<tag k="natural" v="bay" />
		<tag k="ssr:stedsnr" v="948564" />
	</node>
	<node id="-6402" lat="62.6882472209" lon="7.44960555004">
		<tag k="name" v="Vikbukta" />
		<tag k="natural" v="bay" />
		<tag k="ssr:stedsnr" v="702204" />
	</node>
	<node id="-5642" lat="62.7928083288" lon="7.65157499409">
		<tag k="name" v="Kleivvågen" />
		<tag k="natural" v="bay" />
		<tag k="ssr:stedsnr" v="459108" />
	</node>
	<node id="-7689" lat="62.7438333342" lon="7.77826944814">
		<tag k="name" v="Ranvikholmen" />
		<tag k="place" v="islet" />
		<tag k="ssr:stedsnr" v="948660" />
	</node>
	<node id="-9735" lat="62.7347222211" lon="7.13403332415">
		<tag k="alt_name" v="Litlevika" />
		<tag k="name" v="Lillevika" />
		<tag k="natural" v="bay" />
		<tag k="ssr:stedsnr" v="580431" />
	</node>
	<node id="-9733" lat="62.7267055534" lon="7.17486110266">
		<tag k="fixme" v="consider seamark:type=rock or natural=shoal" />
		<tag k="name" v="Kvalen" />
		<tag k="place" v="islet" />
		<tag k="ssr:stedsnr" v="580628" />
	</node>
	<node id="-10496" lat="62.6793750019" lon="6.77052499799">
		<tag k="name" v="Kattholmen" />
		<tag k="place" v="islet" />
		<tag k="ssr:stedsnr" v="819284" />
	</node>
	<node id="-9723" lat="62.7588499962" lon="7.36791110991">
		<tag k="name" v="Bukta" />
		<tag k="natural" v="bay" />
		<tag k="ssr:stedsnr" v="580258" />
	</node>
	<node id="-5033" lat="62.7340694454" lon="7.09941388713">
		<tag k="name" v="Mekbukta" />
		<tag k="natural" v="bay" />
		<tag k="ssr:stedsnr" v="95619" />
	</node>
	<node id="-7664" lat="62.6501999989" lon="6.57778333326">
		<tag k="name" v="Flesjebukta" />
		<tag k="natural" v="bay" />
		<tag k="ssr:stedsnr" v="940007" />
	</node>
	<node id="-6748" lat="62.7402388919" lon="6.85166944782">
		<tag k="name" v="Ræstadbukta" />
		<tag k="natural" v="bay" />
		<tag k="ssr:stedsnr" v="880547" />
	</node>
	<node id="-9710" lat="62.6840472259" lon="7.44862778046">
		<tag k="alt_name" v="Sølja" />
		<tag k="fixme" v="consider seamark:type=rock or natural=shoal" />
		<tag k="name" v="Søljå" />
		<tag k="place" v="islet" />
		<tag k="ssr:stedsnr" v="580184" />
	</node>
	<node id="-7661" lat="62.6950388911" lon="6.64326388957">
		<tag k="name" v="Bjørnaremsbukta" />
		<tag k="natural" v="bay" />
		<tag k="ssr:stedsnr" v="931047" />
	</node>
	<node id="-7657" lat="62.7064611093" lon="6.59795277086">
		<tag k="name" v="Steinflua" />
		<tag k="natural" v="shoal" />
		<tag k="place" v="locality" />
		<tag k="ssr:stedsnr" v="922905" />
	</node>
	<node id="-5607" lat="62.7943972245" lon="7.66717778618">
		<tag k="name" v="Øyrtjønna" />
		<tag k="natural" v="bay" />
		<tag k="ssr:stedsnr" v="277019" />
	</node>
	<node id="-7654" lat="62.7212111141" lon="7.18278888676">
		<tag k="name" v="Kongerholmen" />
		<tag k="place" v="islet" />
		<tag k="ssr:stedsnr" v="921074" />
	</node>
	<node id="-9701" lat="62.7483305512" lon="6.92618333703">
		<tag k="name" v="Stavikneset" />
		<tag k="natural" v="cape" />
		<tag k="ssr:stedsnr" v="576742" />
	</node>
	<node id="-7652" lat="62.7369361113" lon="6.73675554625">
		<tag k="fixme" v="consider seamark:type=rock or natural=shoal" />
		<tag k="name" v="Grøningen" />
		<tag k="place" v="islet" />
		<tag k="ssr:stedsnr" v="921121" />
	</node>
	<node id="-9696" lat="62.712061107" lon="6.72857222631">
		<tag k="name" v="Rakvågstraumen" />
		<tag k="natural" v="strait" />
		<tag k="ssr:stedsnr" v="576603" />
	</node>
	<node id="-9695" lat="62.7395777813" lon="6.92833333395">
		<tag k="name" v="Midtvika" />
		<tag k="natural" v="bay" />
		<tag k="ssr:stedsnr" v="576588" />
	</node>
	<node id="-9694" lat="62.7340611123" lon="6.93208334119">
		<tag k="name" v="Haustvika" />
		<tag k="natural" v="bay" />
		<tag k="ssr:stedsnr" v="576555" />
	</node>
	<node id="-7644" lat="62.7572999985" lon="7.35282222661">
		<tag k="name" v="Myraneset" />
		<tag k="natural" v="cape" />
		<tag k="ssr:stedsnr" v="217238" />
	</node>
	<node id="-7642" lat="62.6689777752" lon="6.67146111508">
		<tag k="name" v="Gråmyrtaren" />
		<tag k="natural" v="shoal" />
		<tag k="place" v="locality" />
		<tag k="ssr:stedsnr" v="900723" />
	</node>
	<node id="-5593" lat="62.6990166631" lon="6.64418055169">
		<tag k="name" v="Biskopshammaren" />
		<tag k="natural" v="cape" />
		<tag k="ssr:stedsnr" v="272824" />
	</node>
	<node id="-9688" lat="62.6842722261" lon="6.81978611479">
		<tag k="name" v="Langneset" />
		<tag k="natural" v="cape" />
		<tag k="ssr:stedsnr" v="576360" />
	</node>
	<node id="-9687" lat="62.720461109" lon="6.93599999283">
		<tag k="name" v="Haugabukta" />
		<tag k="natural" v="bay" />
		<tag k="ssr:stedsnr" v="576538" />
	</node>
	<node id="-9685" lat="62.7193583316" lon="6.73002777687">
		<tag k="name" v="Raknesneset" />
		<tag k="natural" v="cape" />
		<tag k="ssr:stedsnr" v="576048" />
	</node>
	<node id="-9684" lat="62.7335305522" lon="6.77979167026">
		<tag k="name" v="Skjervika" />
		<tag k="natural" v="bay" />
		<tag k="ssr:stedsnr" v="576018" />
	</node>
	<node id="-5585" lat="62.6963416672" lon="6.89385276797">
		<tag k="alt_name" v="Flesjane" />
		<tag k="fixme" v="consider seamark:type=rock or natural=shoal" />
		<tag k="name" v="Flesja" />
		<tag k="place" v="islet" />
		<tag k="ssr:stedsnr" v="456705" />
	</node>
	<node id="-9676" lat="62.6848083299" lon="6.82820555263">
		<tag k="alt_name" v="Digerneset" />
		<tag k="name" v="Degerneset" />
		<tag k="natural" v="cape" />
		<tag k="ssr:stedsnr" v="572687" />
	</node>
	<node id="-9674" lat="62.6873002702" lon="7.07816332371">
		<tag k="name" v="Storfjorden" />
		<tag k="place" v="sea" />
		<tag k="ssr:stedsnr" v="568919" />
	</node>
	<node id="-5577" lat="62.6966833296" lon="6.68009167428">
		<tag k="name" v="Krabbevikneset" />
		<tag k="natural" v="cape" />
		<tag k="ssr:stedsnr" v="455923" />
	</node>
	<node id="-9669" lat="62.7062666629" lon="6.69203889447">
		<tag k="name" v="Lyngholmen" />
		<tag k="natural" v="cape" />
		<tag k="ssr:stedsnr" v="566202" />
	</node>
	<node id="-5572" lat="62.6981916643" lon="6.68944166551">
		<tag k="name" v="Akslabukta" />
		<tag k="natural" v="bay" />
		<tag k="ssr:stedsnr" v="455556" />
	</node>
	<node id="-5571" lat="62.7060666713" lon="6.93066945019">
		<tag k="name" v="Heggevika" />
		<tag k="natural" v="bay" />
		<tag k="ssr:stedsnr" v="455544" />
	</node>
	<node id="-7618" lat="62.7670749995" lon="7.98222500868">
		<tag k="alt_name" v="Torshammaren" />
		<tag k="name" v="Torshamran" />
		<tag k="natural" v="cape" />
		<tag k="ssr:stedsnr" v="887461" />
	</node>
	<node id="-5568" lat="62.671016668" lon="6.72943610746">
		<tag k="alt_name" v="Skjeret" />
		<tag k="fixme" v="consider seamark:type=rock or natural=shoal" />
		<tag k="name" v="Klausetskjæret" />
		<tag k="place" v="islet" />
		<tag k="ssr:stedsnr" v="455461" />
	</node>
	<node id="-5706" lat="62.6959305585" lon="7.33784443614">
		<tag k="alt_name" v="Litle Kalvsøya" />
		<tag k="name" v="Litle Kalvsøyna" />
		<tag k="place" v="islet" />
		<tag k="ssr:stedsnr" v="459926" />
	</node>
	<node id="-9658" lat="62.7907250004" lon="7.65694443957">
		<tag k="name" v="Kleivneset" />
		<tag k="natural" v="cape" />
		<tag k="ssr:stedsnr" v="558797" />
	</node>
	<node id="-8207" lat="62.6799333292" lon="7.45495277981">
		<tag k="name" v="Skjeret" />
		<tag k="place" v="islet" />
		<tag k="ssr:stedsnr" v="95173" />
	</node>
	<node id="-5559" lat="62.7337388857" lon="6.80156388483">
		<tag k="name" v="Tømmervikneset" />
		<tag k="natural" v="cape" />
		<tag k="ssr:stedsnr" v="455212" />
	</node>
	<node id="-5705" lat="62.7257444431" lon="7.29254722869">
		<tag k="name" v="Nothusbukta" />
		<tag k="natural" v="bay" />
		<tag k="ssr:stedsnr" v="459923" />
	</node>
	<node id="-5555" lat="62.6397166664" lon="6.5203805568">
		<tag k="name" v="Tarekastet" />
		<tag k="natural" v="cape" />
		<tag k="old_name" v="Torekastet" />
		<tag k="ssr:stedsnr" v="455114" />
	</node>
	<node id="-5554" lat="62.6706888892" lon="6.8722083421">
		<tag k="name" v="Ufsevika" />
		<tag k="natural" v="bay" />
		<tag k="ssr:stedsnr" v="455367" />
	</node>
	<node id="-5552" lat="62.6944527821" lon="6.64399165833">
		<tag k="name" v="Neset" />
		<tag k="natural" v="cape" />
		<tag k="ssr:stedsnr" v="455289" />
	</node>
	<node id="-5551" lat="62.6850055537" lon="6.63929444292">
		<tag k="name" v="Nygårdsvika" />
		<tag k="natural" v="bay" />
		<tag k="ssr:stedsnr" v="455280" />
	</node>
	<node id="-5549" lat="62.7211611156" lon="6.68209445152">
		<tag k="name" v="Brennvinsholå" />
		<tag k="natural" v="bay" />
		<tag k="ssr:stedsnr" v="455078" />
	</node>
	<node id="-5547" lat="62.7371750037" lon="6.72141667114">
		<tag k="name" v="Buanesleira" />
		<tag k="place" v="locality" />
		<tag k="ssr:stedsnr" v="455046" />
	</node>
	<node id="-5546" lat="62.7562638858" lon="6.77507778437">
		<tag k="bay" v="fjord" />
		<tag k="name" v="Grunnefjorden" />
		<tag k="natural" v="bay" />
		<tag k="ssr:stedsnr" v="255865" />
	</node>
	<node id="-6437" lat="62.7309527742" lon="7.38463888676">
		<tag k="alt_name" v="Skjevika" />
		<tag k="name" v="Skjevikbukta" />
		<tag k="natural" v="bay" />
		<tag k="ssr:stedsnr" v="702879" />
	</node>
	<node id="-5537" lat="62.6581805533" lon="6.57341665908">
		<tag k="name" v="Korsvika" />
		<tag k="natural" v="bay" />
		<tag k="ssr:stedsnr" v="254922" />
	</node>
	<node id="-5536" lat="62.7142055516" lon="6.68374445188">
		<tag k="name" v="Ufsevika" />
		<tag k="natural" v="bay" />
		<tag k="ssr:stedsnr" v="254910" />
	</node>
	<node id="-7583" lat="62.729355555" lon="7.2654888873">
		<tag k="name" v="Storbukta" />
		<tag k="natural" v="bay" />
		<tag k="ssr:stedsnr" v="884903" />
	</node>
	<node id="-9630" lat="62.7579027754" lon="8.00812500285">
		<tag k="name" v="Prestholmen" />
		<tag k="place" v="islet" />
		<tag k="ssr:stedsnr" v="557579" />
	</node>
	<node id="-9629" lat="62.6396055533" lon="6.51836943986">
		<tag k="name" v="Holmebukta" />
		<tag k="natural" v="bay" />
		<tag k="ssr:stedsnr" v="557444" />
	</node>
	<node id="-5529" lat="62.7179805535" lon="7.41407499287">
		<tag k="name" v="Raneset" />
		<tag k="natural" v="cape" />
		<tag k="ssr:stedsnr" v="254763" />
	</node>
	<node id="-9622" lat="62.681355559" lon="6.92575277087">
		<tag k="name" v="Apalholmen" />
		<tag k="place" v="islet" />
		<tag k="ssr:stedsnr" v="557051" />
	</node>
	<node id="-5525" lat="62.6956361145" lon="7.34704444149">
		<tag k="name" v="Vevarneset" />
		<tag k="natural" v="cape" />
		<tag k="ssr:stedsnr" v="254675" />
	</node>
	<node id="-7570" lat="62.7340749989" lon="7.08208054956">
		<tag k="fixme" v="consider seamark:type=rock or natural=shoal" />
		<tag k="name" v="Joflua" />
		<tag k="place" v="islet" />
		<tag k="ssr:stedsnr" v="884625" />
	</node>
	<node id="-7569" lat="62.7167250037" lon="7.17386943585">
		<tag k="name" v="Buholmen" />
		<tag k="place" v="islet" />
		<tag k="ssr:stedsnr" v="884620" />
	</node>
	<node id="-9615" lat="62.6982222251" lon="8.14498888401">
		<tag k="name" v="Strand" />
		<tag k="natural" v="beach" />
		<tag k="place" v="locality" />
		<tag k="ssr:stedsnr" v="557284" />
	</node>
	<node id="-9610" lat="62.7216694413" lon="7.1435777701">
		<tag k="fixme" v="consider seamark:type=rock or natural=shoal" />
		<tag k="name" v="Bleikeskjeret" />
		<tag k="place" v="islet" />
		<tag k="ssr:stedsnr" v="557091" />
	</node>
	<node id="-9606" lat="62.7129250041" lon="7.41291944109">
		<tag k="name" v="Skårantangen" />
		<tag k="natural" v="cape" />
		<tag k="ssr:stedsnr" v="536903" />
	</node>
	<node id="-9605" lat="62.637291669" lon="6.51274999174">
		<tag k="fixme" v="consider seamark:type=rock or natural=shoal" />
		<tag k="name" v="Skjæret" />
		<tag k="place" v="islet" />
		<tag k="ssr:stedsnr" v="536898" />
	</node>
	<node id="-9604" lat="62.7522055538" lon="6.71580555289">
		<tag k="name" v="Klakken" />
		<tag k="natural" v="shoal" />
		<tag k="place" v="locality" />
		<tag k="ssr:stedsnr" v="536857" />
	</node>
	<node id="-9603" lat="62.6890222232" lon="7.44372499714">
		<tag k="name" v="Hagaflua" />
		<tag k="natural" v="shoal" />
		<tag k="place" v="locality" />
		<tag k="ssr:stedsnr" v="536975" />
	</node>
	<node id="-9602" lat="62.6831000026" lon="6.79225833726">
		<tag k="fixme" v="consider seamark:type=rock or natural=shoal" />
		<tag k="name" v="Vikaskjæret" />
		<tag k="place" v="islet" />
		<tag k="ssr:stedsnr" v="536730" />
	</node>
	<node id="-9601" lat="62.7637222178" lon="6.81663888614">
		<tag k="fixme" v="consider seamark:type=rock or natural=shoal" />
		<tag k="name" v="Kvernholmskjæret" />
		<tag k="place" v="islet" />
		<tag k="ssr:stedsnr" v="536654" />
	</node>
	<node id="-7552" lat="62.7426000003" lon="6.846625004">
		<tag k="fixme" v="consider seamark:type=rock or natural=shoal" />
		<tag k="name" v="Milteskjeret" />
		<tag k="place" v="islet" />
		<tag k="ssr:stedsnr" v="880519" />
	</node>
	<node id="-9599" lat="62.7392166684" lon="8.04963611479">
		<tag k="name" v="Utboggbukta" />
		<tag k="natural" v="bay" />
		<tag k="ssr:stedsnr" v="536792" />
	</node>
	<node id="-9598" lat="62.7395833335" lon="6.74596945399">
		<tag k="name" v="Hellertaren" />
		<tag k="natural" v="shoal" />
		<tag k="place" v="locality" />
		<tag k="ssr:stedsnr" v="536149" />
	</node>
	<node id="-9597" lat="62.7102000012" lon="7.16774444363">
		<tag k="name" v="Hjertøyflua" />
		<tag k="natural" v="shoal" />
		<tag k="place" v="locality" />
		<tag k="ssr:stedsnr" v="536148" />
	</node>
	<node id="-6036" lat="62.6506388872" lon="7.25029722565">
		<tag k="alt_name" v="Romdalvika" />
		<tag k="name" v="Romdalvikbukta" />
		<tag k="natural" v="bay" />
		<tag k="ssr:stedsnr" v="399941" />
	</node>
	<node id="-5491" lat="62.6688305525" lon="6.67689166893">
		<tag k="name" v="Heimstevika" />
		<tag k="natural" v="bay" />
		<tag k="ssr:stedsnr" v="445060" />
	</node>
	<node id="-9586" lat="62.7325666676" lon="7.83788332631">
		<tag k="name" v="Saltsteinvika" />
		<tag k="natural" v="bay" />
		<tag k="ssr:stedsnr" v="523896" />
	</node>
	<node id="-5489" lat="62.6691055522" lon="6.6753361093">
		<tag k="name" v="Gråmyrneset" />
		<tag k="natural" v="shoal" />
		<tag k="place" v="locality" />
		<tag k="ssr:stedsnr" v="445053" />
	</node>
	<node id="-5487" lat="62.671674998" lon="6.52840276886">
		<tag k="name" v="Synholdskjærskallan" />
		<tag k="natural" v="shoal" />
		<tag k="place" v="locality" />
		<tag k="ssr:stedsnr" v="232520" />
	</node>
	<node id="-9582" lat="62.7792055538" lon="8.27575277973">
		<tag k="name" v="Brakka" />
		<tag k="natural" v="cape" />
		<tag k="ssr:stedsnr" v="523731" />
	</node>
	<node id="-8423" lat="62.7496472249" lon="7.40789166664">
		<tag k="name" v="Skallen" />
		<tag k="natural" v="shoal" />
		<tag k="place" v="locality" />
		<tag k="ssr:stedsnr" v="156140" />
	</node>
	<node id="-9575" lat="62.7095333322" lon="8.08566665965">
		<tag k="alt_name" v="Sølåttvika" />
		<tag k="name" v="Sølåttbukta" />
		<tag k="natural" v="bay" />
		<tag k="ssr:stedsnr" v="523836" />
	</node>
	<node id="-5041" lat="62.7273527785" lon="7.02909165777">
		<tag k="name" v="Haukabøbukta" />
		<tag k="natural" v="bay" />
		<tag k="ssr:stedsnr" v="95452" />
	</node>
	<node id="-6320" lat="62.745561112" lon="6.92269721652">
		<tag k="name" v="Småvika" />
		<tag k="natural" v="bay" />
		<tag k="ssr:stedsnr" v="698687" />
	</node>
	<node id="-7517" lat="62.7724944439" lon="8.03954723081">
		<tag k="name" v="Kvitberget" />
		<tag k="natural" v="cape" />
		<tag k="ssr:stedsnr" v="948448" />
	</node>
	<node id="-6714" lat="62.7217666645" lon="7.20214166834">
		<tag k="name" v="Ospholmen" />
		<tag k="place" v="islet" />
		<tag k="ssr:stedsnr" v="663865" />
	</node>
	<node id="-5433" lat="62.7216583322" lon="6.74040000164">
		<tag k="name" v="Breivika" />
		<tag k="natural" v="bay" />
		<tag k="ssr:stedsnr" v="212017" />
	</node>
	<node id="-5456" lat="62.7347749977" lon="7.3322222307">
		<tag k="name" v="Naustnesenden" />
		<tag k="natural" v="cape" />
		<tag k="ssr:stedsnr" v="217918" />
	</node>
	<node id="-5453" lat="62.690463889" lon="7.39673888265">
		<tag k="name" v="Kjerringa" />
		<tag k="natural" v="shoal" />
		<tag k="place" v="locality" />
		<tag k="ssr:stedsnr" v="217621" />
	</node>
	<node id="-5451" lat="62.7295749973" lon="6.983569449">
		<tag k="name" v="Mordalsvågen" />
		<tag k="natural" v="bay" />
		<tag k="ssr:stedsnr" v="217503" />
	</node>
	<node id="-6324" lat="62.7339527804" lon="7.37164721631">
		<tag k="name" v="Båtbukta" />
		<tag k="natural" v="bay" />
		<tag k="ssr:stedsnr" v="701380" />
	</node>
	<node id="-7733" lat="62.7138583309" lon="6.78683334069">
		<tag k="name" v="Otrøya" />
		<tag k="place" v="island" />
		<tag k="ssr:stedsnr" v="11035" />
	</node>
	<node id="-7481" lat="62.7626416701" lon="8.04206389464">
		<tag k="alt_name" v="Breidvika" />
		<tag k="name" v="Breivika" />
		<tag k="natural" v="bay" />
		<tag k="ssr:stedsnr" v="947713" />
	</node>
	<node id="-5431" lat="62.6694444405" lon="6.58803610918">
		<tag k="name" v="Gardvika" />
		<tag k="natural" v="bay" />
		<tag k="ssr:stedsnr" v="212127" />
	</node>
	<node id="-5428" lat="62.6401111084" lon="6.51586944718">
		<tag k="name" v="Sørebukta" />
		<tag k="natural" v="bay" />
		<tag k="ssr:stedsnr" v="294887" />
	</node>
	<node id="-5427" lat="62.7237361077" lon="6.64861943969">
		<tag k="name" v="Magerøyrengene" />
		<tag k="natural" v="shoal" />
		<tag k="place" v="locality" />
		<tag k="ssr:stedsnr" v="293836" />
	</node>
	<node id="-7474" lat="62.6864805588" lon="8.12609167437">
		<tag k="name" v="Øratangen" />
		<tag k="natural" v="cape" />
		<tag k="ssr:stedsnr" v="947377" />
	</node>
	<node id="-5425" lat="62.6839472205" lon="6.78727222896">
		<tag k="name" v="Sandberget" />
		<tag k="natural" v="cape" />
		<tag k="ssr:stedsnr" v="293723" />
	</node>
	<node id="-9519" lat="62.7571972207" lon="6.87030832758">
		<tag k="name" v="Store Skarvholmen" />
		<tag k="place" v="islet" />
		<tag k="ssr:stedsnr" v="521301" />
	</node>
	<node id="-7470" lat="62.7598027822" lon="6.89582778409">
		<tag k="name" v="Forholmdjupet" />
		<tag k="place" v="locality" />
		<tag k="ssr:stedsnr" v="946397" />
	</node>
	<node id="-5421" lat="62.6658916664" lon="6.58032500186">
		<tag k="name" v="Vikane" />
		<tag k="natural" v="bay" />
		<tag k="ssr:stedsnr" v="293600" />
	</node>
	<node id="-5420" lat="62.6888555555" lon="6.55559999353">
		<tag k="name" v="Mongskallen" />
		<tag k="natural" v="shoal" />
		<tag k="place" v="locality" />
		<tag k="ssr:stedsnr" v="293574" />
	</node>
	<node id="-9515" lat="62.6908055575" lon="7.37409166842">
		<tag k="name" v="Naustnesbukta" />
		<tag k="natural" v="bay" />
		<tag k="ssr:stedsnr" v="520927" />
	</node>
	<node id="-7466" lat="62.6521777782" lon="7.23623333028">
		<tag k="alt_name" v="Horkarneset" />
		<tag k="name" v="Ytter Hårkallneset" />
		<tag k="natural" v="cape" />
		<tag k="ssr:stedsnr" v="945954" />
	</node>
	<node id="-5416" lat="62.7231055573" lon="7.23531667513">
		<tag k="name" v="Einarvika" />
		<tag k="natural" v="bay" />
		<tag k="ssr:stedsnr" v="293174" />
	</node>
	<node id="-5415" lat="62.7125555577" lon="7.11776945145">
		<tag k="name" v="Hjertøytangen" />
		<tag k="natural" v="cape" />
		<tag k="ssr:stedsnr" v="293172" />
	</node>
	<node id="-7462" lat="62.7014416632" lon="7.35914999893">
		<tag k="name" v="Tjørnvika" />
		<tag k="natural" v="bay" />
		<tag k="ssr:stedsnr" v="945934" />
	</node>
	<node id="-7000" lat="62.6672166706" lon="7.35646111131">
		<tag k="name" v="Engvika" />
		<tag k="natural" v="bay" />
		<tag k="ssr:stedsnr" v="718953" />
	</node>
	<node id="-7459" lat="62.6903194428" lon="7.35996388129">
		<tag k="name" v="Hjellneset" />
		<tag k="natural" v="cape" />
		<tag k="ssr:stedsnr" v="945919" />
	</node>
	<node id="-7452" lat="62.7191944407" lon="7.65388610497">
		<tag k="name" v="Litlegodsommaren" />
		<tag k="natural" v="beach" />
		<tag k="place" v="locality" />
		<tag k="ssr:stedsnr" v="945885" />
	</node>
	<node id="-7451" lat="62.7303472186" lon="7.38746389209">
		<tag k="name" v="Nesberget" />
		<tag k="natural" v="cape" />
		<tag k="ssr:stedsnr" v="945874" />
	</node>
	<node id="-7447" lat="62.7280805547" lon="7.41426666278">
		<tag k="name" v="Geitnesvågen" />
		<tag k="natural" v="bay" />
		<tag k="ssr:stedsnr" v="945840" />
	</node>
	<node id="-9488" lat="62.7332888932" lon="7.08978610451">
		<tag k="name" v="Mekverpa" />
		<tag k="natural" v="cape" />
		<tag k="ssr:stedsnr" v="520668" />
	</node>
	<node id="-5391" lat="62.72421944" lon="7.23196388182">
		<tag k="name" v="Seterøya" />
		<tag k="place" v="island" />
		<tag k="ssr:stedsnr" v="193042" />
	</node>
	<node id="-9486" lat="62.6702888879" lon="7.43399999913">
		<tag k="name" v="Hatlevika" />
		<tag k="natural" v="bay" />
		<tag k="ssr:stedsnr" v="520632" />
	</node>
	<node id="-5387" lat="62.7081027771" lon="7.21216110623">
		<tag k="name" v="Svartneset" />
		<tag k="natural" v="cape" />
		<tag k="ssr:stedsnr" v="193031" />
	</node>
	<node id="-9481" lat="62.7498250034" lon="6.98896110125">
		<tag k="alt_name" v="Litle Gausetholmen" />
		<tag k="name" v="Litleholmen" />
		<tag k="place" v="islet" />
		<tag k="ssr:stedsnr" v="520489" />
	</node>
	<node id="-9480" lat="62.7406361144" lon="6.9869472197">
		<tag k="fixme" v="consider seamark:type=rock or natural=shoal" />
		<tag k="name" v="Håskjeret" />
		<tag k="place" v="islet" />
		<tag k="ssr:stedsnr" v="520486" />
	</node>
	<node id="-5378" lat="62.6670500028" lon="6.57310277556">
		<tag k="name" v="Sjurflua" />
		<tag k="natural" v="shoal" />
		<tag k="place" v="locality" />
		<tag k="ssr:stedsnr" v="172624" />
	</node>
	<node id="-5377" lat="62.7051555566" lon="6.68815000795">
		<tag k="name" v="Kobbefluene" />
		<tag k="natural" v="shoal" />
		<tag k="place" v="locality" />
		<tag k="ssr:stedsnr" v="171740" />
	</node>
	<node id="-7420" lat="62.7380333301" lon="7.3008916607">
		<tag k="fixme" v="consider seamark:type=rock or natural=shoal" />
		<tag k="name" v="Ytste Skjeret" />
		<tag k="place" v="islet" />
		<tag k="ssr:stedsnr" v="945591" />
	</node>
	<node id="-7419" lat="62.7111777751" lon="7.41503332778">
		<tag k="name" v="Vågseterneset" />
		<tag k="natural" v="cape" />
		<tag k="ssr:stedsnr" v="945578" />
	</node>
	<node id="-5370" lat="62.7692472251" lon="7.94808610162">
		<tag k="alt_name" v="Rødvikan" />
		<tag k="name" v="Rødvika" />
		<tag k="natural" v="bay" />
		<tag k="ssr:stedsnr" v="281656" />
	</node>
	<node id="-7413" lat="62.7256527802" lon="6.9832499971">
		<tag k="name" v="Hamballbukta" />
		<tag k="natural" v="bay" />
		<tag k="ssr:stedsnr" v="945449" />
	</node>
	<node id="-4990" lat="62.7008361074" lon="8.10652777681">
		<tag k="name" v="Jevika" />
		<tag k="natural" v="bay" />
		<tag k="ssr:stedsnr" v="254410" />
	</node>
	<node id="-7719" lat="62.7298055521" lon="7.36706944643">
		<tag k="name" v="Teinskagbåen" />
		<tag k="natural" v="shoal" />
		<tag k="place" v="locality" />
		<tag k="ssr:stedsnr" v="961911" />
	</node>
	<node id="-5670" lat="62.6866805524" lon="7.49226945391">
		<tag k="name" v="Malonesbukta" />
		<tag k="natural" v="bay" />
		<tag k="ssr:stedsnr" v="459597" />
	</node>
	<node id="-5345" lat="62.7392972189" lon="7.93190277542">
		<tag k="name" v="Myklebostadneset" />
		<tag k="natural" v="cape" />
		<tag k="ssr:stedsnr" v="280792" />
	</node>
	<node id="-7376" lat="62.791977782" lon="7.67217223112">
		<tag k="name" v="Lønesvågen" />
		<tag k="natural" v="bay" />
		<tag k="ssr:stedsnr" v="945023" />
	</node>
	<node id="-7367" lat="62.7767583311" lon="7.57826389132">
		<tag k="name" v="Mausetneset" />
		<tag k="natural" v="cape" />
		<tag k="ssr:stedsnr" v="944767" />
	</node>
	<node id="-9414" lat="62.7796638918" lon="8.27611667201">
		<tag k="name" v="Fredsvikbukta" />
		<tag k="natural" v="bay" />
		<tag k="ssr:stedsnr" v="437425" />
	</node>
	<node id="-7365" lat="62.7160083297" lon="6.65652777785">
		<tag k="name" v="Leira" />
		<tag k="natural" v="bay" />
		<tag k="ssr:stedsnr" v="861928" />
	</node>
	<node id="-7364" lat="62.7057222191" lon="6.69578889398">
		<tag k="name" v="Ugelvika" />
		<tag k="natural" v="bay" />
		<tag k="ssr:stedsnr" v="861920" />
	</node>
	<node id="-9411" lat="62.753047221" lon="6.70255556149">
		<tag k="name" v="Bondflutaren" />
		<tag k="natural" v="shoal" />
		<tag k="place" v="locality" />
		<tag k="ssr:stedsnr" v="437066" />
	</node>
	<node id="-7362" lat="62.7012027746" lon="6.69017776966">
		<tag k="name" v="Tennholmen" />
		<tag k="place" v="islet" />
		<tag k="ssr:stedsnr" v="861912" />
	</node>
	<node id="-7361" lat="62.7024472225" lon="6.64250833929">
		<tag k="name" v="Bjørnøya" />
		<tag k="place" v="island" />
		<tag k="ssr:stedsnr" v="861906" />
	</node>
	<node id="-7360" lat="62.6998388927" lon="6.63206110206">
		<tag k="fixme" v="consider seamark:type=rock or natural=shoal" />
		<tag k="name" v="Strandskjæret" />
		<tag k="place" v="islet" />
		<tag k="ssr:stedsnr" v="861903" />
	</node>
	<node id="-7357" lat="62.6641250025" lon="6.69251944248">
		<tag k="name" v="Geitvika" />
		<tag k="natural" v="bay" />
		<tag k="ssr:stedsnr" v="861467" />
	</node>
	<node id="-7356" lat="62.7385266804" lon="8.08086119755">
		<tag k="name" v="Boggestranda" />
		<tag k="natural" v="beach" />
		<tag k="place" v="locality" />
		<tag k="ssr:stedsnr" v="861454" />
	</node>
	<node id="-9400" lat="62.7209666634" lon="7.39402222762">
		<tag k="name" v="Skagodden" />
		<tag k="natural" v="cape" />
		<tag k="ssr:stedsnr" v="436790" />
	</node>
	<node id="-9397" lat="62.7122805518" lon="7.40859166119">
		<tag k="name" v="Kuholmen" />
		<tag k="place" v="islet" />
		<tag k="ssr:stedsnr" v="436775" />
	</node>
	<node id="-9394" lat="62.6646333346" lon="7.41372777426">
		<tag k="name" v="Storsandvika" />
		<tag k="natural" v="bay" />
		<tag k="ssr:stedsnr" v="436739" />
	</node>
	<node id="-9393" lat="62.6783555552" lon="7.44938054713">
		<tag k="name" v="Sølsnesholmane" />
		<tag k="old_name" v="Solsnesholmane" />
		<tag k="place" v="islet" />
		<tag k="ssr:stedsnr" v="436724" />
	</node>
	<node id="-7344" lat="62.6801833313" lon="6.92899999347">
		<tag k="fixme" v="consider seamark:type=rock or natural=shoal" />
		<tag k="name" v="Måsskjeret" />
		<tag k="place" v="islet" />
		<tag k="ssr:stedsnr" v="861061" />
	</node>
	<node id="-7340" lat="62.6977916664" lon="7.34194166702">
		<tag k="name" v="Holmen" />
		<tag k="place" v="islet" />
		<tag k="ssr:stedsnr" v="944344" />
	</node>
	<node id="-7339" lat="62.7203555583" lon="7.2842222294">
		<tag k="name" v="Selvika" />
		<tag k="natural" v="bay" />
		<tag k="ssr:stedsnr" v="944343" />
	</node>
	<node id="-7338" lat="62.6942166624" lon="7.34983611758">
		<tag k="name" v="Sandvika" />
		<tag k="natural" v="bay" />
		<tag k="ssr:stedsnr" v="944337" />
	</node>
	<node id="-9382" lat="62.6687777759" lon="6.61194444307">
		<tag k="name" v="Midøya" />
		<tag k="place" v="island" />
		<tag k="ssr:stedsnr" v="436955" />
	</node>
	<node id="-4977" lat="62.7359138904" lon="6.81088889457">
		<tag k="name" v="Ræstadvika" />
		<tag k="natural" v="bay" />
		<tag k="ssr:stedsnr" v="92624" />
	</node>
	<node id="-7332" lat="62.7489138856" lon="6.92178056059">
		<tag k="name" v="Stavika" />
		<tag k="natural" v="bay" />
		<tag k="ssr:stedsnr" v="941715" />
	</node>
	<node id="-7324" lat="62.6812027749" lon="6.92048610503">
		<tag k="fixme" v="consider seamark:type=rock or natural=shoal" />
		<tag k="name" v="Kleppskjeret" />
		<tag k="place" v="islet" />
		<tag k="ssr:stedsnr" v="941469" />
	</node>
	<node id="-7322" lat="62.689702774" lon="7.51254444239">
		<tag k="name" v="Vikan" />
		<tag k="natural" v="beach" />
		<tag k="place" v="locality" />
		<tag k="ssr:stedsnr" v="941445" />
	</node>
	<node id="-7318" lat="62.6767083313" lon="6.59364999077">
		<tag k="name" v="Litledigerneset" />
		<tag k="natural" v="cape" />
		<tag k="ssr:stedsnr" v="940369" />
	</node>
	<node id="-6927" lat="62.721933333" lon="7.78387499652">
		<tag k="name" v="Grovbukta" />
		<tag k="natural" v="bay" />
		<tag k="ssr:stedsnr" v="887888" />
	</node>
	<node id="-7316" lat="62.7401166654" lon="6.70616389661">
		<tag k="name" v="Søre Grønningen" />
		<tag k="place" v="islet" />
		<tag k="ssr:stedsnr" v="940171" />
	</node>
	<node id="-7315" lat="62.6537472204" lon="6.56534444604">
		<tag k="name" v="Grønneset" />
		<tag k="natural" v="cape" />
		<tag k="ssr:stedsnr" v="940170" />
	</node>
	<node id="-7314" lat="62.6623305578" lon="6.57081666821">
		<tag k="name" v="Drynjasundneset" />
		<tag k="natural" v="cape" />
		<tag k="ssr:stedsnr" v="940167" />
	</node>
	<node id="-7363" lat="62.7057638881" lon="6.6506916601">
		<tag k="name" v="Søre Kvaløysundet" />
		<tag k="natural" v="strait" />
		<tag k="ssr:stedsnr" v="861917" />
	</node>
	<node id="-7312" lat="62.7406583331" lon="6.71699445353">
		<tag k="name" v="Stokkvika" />
		<tag k="natural" v="bay" />
		<tag k="ssr:stedsnr" v="940165" />
	</node>
	<node id="-7309" lat="62.6570361072" lon="6.64606111295">
		<tag k="name" v="Storvikneset" />
		<tag k="natural" v="cape" />
		<tag k="ssr:stedsnr" v="940025" />
	</node>
	<node id="-9355" lat="62.7164954523" lon="6.73587474942">
		<tag k="name" v="Torsvika" />
		<tag k="natural" v="bay" />
		<tag k="ssr:stedsnr" v="436086" />
	</node>
	<node id="-7306" lat="62.7897833308" lon="7.67102499447">
		<tag k="name" v="Lønesbukta" />
		<tag k="natural" v="bay" />
		<tag k="ssr:stedsnr" v="840804" />
	</node>
	<node id="-9353" lat="62.7159472263" lon="7.15150555565">
		<tag k="name" v="Hjertøya" />
		<tag k="place" v="island" />
		<tag k="ssr:stedsnr" v="436039" />
	</node>
	<node id="-9352" lat="62.7462388886" lon="8.03048054877">
		<tag k="name" v="Skålneset" />
		<tag k="natural" v="cape" />
		<tag k="ssr:stedsnr" v="436463" />
	</node>
	<node id="-9351" lat="62.7321388906" lon="7.83139721911">
		<tag k="alt_name" v="Elgeneset" />
		<tag k="name" v="Elgenes" />
		<tag k="natural" v="cape" />
		<tag k="ssr:stedsnr" v="436457" />
	</node>
	<node id="-5859" lat="62.6391444431" lon="6.52215554758">
		<tag k="name" v="Nørebukta" />
		<tag k="natural" v="bay" />
		<tag k="ssr:stedsnr" v="476887" />
	</node>
	<node id="-5426" lat="62.6844194419" lon="6.79499445158">
		<tag k="name" v="Vikabukta" />
		<tag k="natural" v="bay" />
		<tag k="ssr:stedsnr" v="293725" />
	</node>
	<node id="-9343" lat="62.7177416674" lon="7.26166944501">
		<tag k="name" v="Forøya" />
		<tag k="place" v="island" />
		<tag k="ssr:stedsnr" v="436032" />
	</node>
	<node id="-9340" lat="62.6627388851" lon="6.66556666502">
		<tag k="name" v="Høgsetneset" />
		<tag k="natural" v="cape" />
		<tag k="ssr:stedsnr" v="419144" />
	</node>
	<node id="-9339" lat="62.685119442" lon="7.46684723081">
		<tag k="name" v="Breidvika" />
		<tag k="natural" v="bay" />
		<tag k="ssr:stedsnr" v="415974" />
	</node>
	<node id="-9337" lat="62.6988777761" lon="6.89930833768">
		<tag k="name" v="Tautreberget" />
		<tag k="natural" v="cape" />
		<tag k="ssr:stedsnr" v="415692" />
	</node>
	<node id="-9336" lat="62.6529027802" lon="6.57143055955">
		<tag k="name" v="Kuleira" />
		<tag k="natural" v="shoal" />
		<tag k="place" v="locality" />
		<tag k="ssr:stedsnr" v="415649" />
	</node>
	<node id="-9335" lat="62.766155559" lon="7.95032222119">
		<tag k="name" v="Ljøstbotn" />
		<tag k="natural" v="shoal" />
		<tag k="place" v="locality" />
		<tag k="ssr:stedsnr" v="415273" />
	</node>
	<node id="-9334" lat="62.7189710338" lon="6.73693729327">
		<tag k="name" v="Torsvikbukta" />
		<tag k="natural" v="bay" />
		<tag k="ssr:stedsnr" v="415147" />
	</node>
	<node id="-9333" lat="62.6999277808" lon="6.67868332373">
		<tag k="name" v="Akslaflua" />
		<tag k="natural" v="shoal" />
		<tag k="place" v="locality" />
		<tag k="ssr:stedsnr" v="414692" />
	</node>
	<node id="-7283" lat="62.7414416622" lon="6.98836388624">
		<tag k="name" v="Skippervika" />
		<tag k="natural" v="bay" />
		<tag k="ssr:stedsnr" v="824508" />
	</node>
	<node id="-5231" lat="62.6963166633" lon="7.54188332843">
		<tag k="name" v="Haganeset" />
		<tag k="natural" v="cape" />
		<tag k="ssr:stedsnr" v="277762" />
	</node>
	<node id="-9325" lat="62.7753249983" lon="8.06397499814">
		<tag k="name" v="Kråkholmen" />
		<tag k="place" v="islet" />
		<tag k="ssr:stedsnr" v="402428" />
	</node>
	<node id="-5227" lat="62.7382805544" lon="7.19905000394">
		<tag k="name" v="Fuglsetneset" />
		<tag k="natural" v="cape" />
		<tag k="ssr:stedsnr" v="277693" />
	</node>
	<node id="-5226" lat="62.7392972207" lon="7.19041943832">
		<tag k="name" v="Moldegårdsleira" />
		<tag k="natural" v="beach" />
		<tag k="place" v="locality" />
		<tag k="ssr:stedsnr" v="277691" />
	</node>
	<node id="-5225" lat="62.7782972222" lon="7.66811667189">
		<tag k="name" v="Otergrovbukta" />
		<tag k="natural" v="bay" />
		<tag k="ssr:stedsnr" v="277943" />
	</node>
	<node id="-7272" lat="62.6946250011" lon="7.42213888664">
		<tag k="name" v="Valen" />
		<tag k="natural" v="bay" />
		<tag k="ssr:stedsnr" v="824167" />
	</node>
	<node id="-7269" lat="62.7831527814" lon="7.55611666975">
		<tag k="name" v="Eidsneset" />
		<tag k="natural" v="cape" />
		<tag k="ssr:stedsnr" v="824077" />
	</node>
	<node id="-5220" lat="62.7291111128" lon="7.41389999085">
		<tag k="name" v="Revsneset" />
		<tag k="natural" v="cape" />
		<tag k="ssr:stedsnr" v="277854" />
	</node>
	<node id="-5219" lat="62.7301694426" lon="7.41082499213">
		<tag k="name" v="Røvikvågen" />
		<tag k="natural" v="bay" />
		<tag k="ssr:stedsnr" v="277853" />
	</node>
	<node id="-6672" lat="62.783419441" lon="7.66203888006">
		<tag k="name" v="Nesa" />
		<tag k="natural" v="cape" />
		<tag k="ssr:stedsnr" v="618774" />
	</node>
	<node id="-7259" lat="62.7309833343" lon="7.37461666013">
		<tag k="fixme" v="consider seamark:type=rock or natural=shoal" />
		<tag k="name" v="Skeia" />
		<tag k="place" v="islet" />
		<tag k="ssr:stedsnr" v="823265" />
	</node>
	<node id="-9302" lat="62.7417777754" lon="7.99753055798">
		<tag k="name" v="Grasneset" />
		<tag k="natural" v="cape" />
		<tag k="ssr:stedsnr" v="401950" />
	</node>
	<node id="-7253" lat="62.7009583305" lon="6.64384721463">
		<tag k="name" v="Vølbukta" />
		<tag k="natural" v="bay" />
		<tag k="ssr:stedsnr" v="819860" />
	</node>
	<node id="-7251" lat="62.7298888849" lon="6.93373888517">
		<tag k="name" v="Nautneskråna" />
		<tag k="natural" v="bay" />
		<tag k="ssr:stedsnr" v="819559" />
	</node>
	<node id="-7250" lat="62.7059611108" lon="6.69384721591">
		<tag k="name" v="Asmundsholmen" />
		<tag k="place" v="islet" />
		<tag k="ssr:stedsnr" v="819604" />
	</node>
	<node id="-7248" lat="62.7274722238" lon="6.6627138959">
		<tag k="alt_name" v="Tresskjæra" />
		<tag k="fixme" v="consider seamark:type=rock or natural=shoal" />
		<tag k="name" v="Tresskjeret" />
		<tag k="place" v="islet" />
		<tag k="ssr:stedsnr" v="819206" />
	</node>
	<node id="-7244" lat="62.7285444454" lon="6.75276110532">
		<tag k="name" v="Vebergvika" />
		<tag k="natural" v="bay" />
		<tag k="ssr:stedsnr" v="819020" />
	</node>
	<node id="-7243" lat="62.6507388926" lon="6.5704416733">
		<tag k="name" v="Pettervika" />
		<tag k="natural" v="bay" />
		<tag k="ssr:stedsnr" v="819006" />
	</node>
	<node id="-5194" lat="62.6734611093" lon="7.44343888183">
		<tag k="name" v="Øyaneset" />
		<tag k="natural" v="cape" />
		<tag k="ssr:stedsnr" v="277196" />
	</node>
	<node id="-7235" lat="62.6701972254" lon="6.8697055493">
		<tag k="alt_name" v="Longeneset" />
		<tag k="name" v="Langneset" />
		<tag k="natural" v="cape" />
		<tag k="ssr:stedsnr" v="816723" />
	</node>
	<node id="-9280" lat="62.7195388892" lon="8.05074722141">
		<tag k="alt_name" v="Rangneset" />
		<tag k="name" v="Rangåneset" />
		<tag k="natural" v="cape" />
		<tag k="ssr:stedsnr" v="401784" />
	</node>
	<node id="-9279" lat="62.7126361135" lon="8.07643055737">
		<tag k="name" v="Nonshauggrunna" />
		<tag k="natural" v="shoal" />
		<tag k="place" v="locality" />
		<tag k="ssr:stedsnr" v="401780" />
	</node>
	<node id="-7227" lat="62.70905833" lon="7.39582221961">
		<tag k="name" v="Langholmen" />
		<tag k="place" v="islet" />
		<tag k="ssr:stedsnr" v="800760" />
	</node>
	<node id="-7226" lat="62.7060194404" lon="7.37528332587">
		<tag k="name" v="Notholmen" />
		<tag k="place" v="islet" />
		<tag k="ssr:stedsnr" v="800759" />
	</node>
	<node id="-7225" lat="62.7059527805" lon="7.30646945275">
		<tag k="bay" v="fjord" />
		<tag k="name" v="Karlsøyfjorden" />
		<tag k="natural" v="bay" />
		<tag k="ssr:stedsnr" v="800757" />
	</node>
	<node id="-7223" lat="62.7346361135" lon="6.67452777125">
		<tag k="name" v="Ålesundstaren" />
		<tag k="natural" v="shoal" />
		<tag k="place" v="locality" />
		<tag k="ssr:stedsnr" v="800816" />
	</node>
	<node id="-9269" lat="62.7443722186" lon="8.03806666843">
		<tag k="name" v="Spelvika" />
		<tag k="natural" v="bay" />
		<tag k="ssr:stedsnr" v="401729" />
	</node>
	<node id="-7215" lat="62.716025002" lon="7.11551111895">
		<tag k="name" v="Orholmen" />
		<tag k="place" v="islet" />
		<tag k="ssr:stedsnr" v="800045" />
	</node>
	<node id="-8029" lat="62.6985777739" lon="8.1180694476">
		<tag k="name" v="Hellvika" />
		<tag k="natural" v="bay" />
		<tag k="ssr:stedsnr" v="51821" />
	</node>
	<node id="-5164" lat="62.7199250032" lon="6.93743055488">
		<tag k="name" v="Solholmen" />
		<tag k="place" v="islet" />
		<tag k="ssr:stedsnr" v="273516" />
	</node>
	<node id="-5163" lat="62.7074333373" lon="6.68999166908">
		<tag k="name" v="Sendingsbukta" />
		<tag k="natural" v="bay" />
		<tag k="ssr:stedsnr" v="273584" />
	</node>
	<node id="-9256" lat="62.7628416689" lon="7.87788055193">
		<tag k="alt_name" v="Tjellefonnbukta" />
		<tag k="name" v="Tjellafonnbukta" />
		<tag k="natural" v="bay" />
		<tag k="ssr:stedsnr" v="401585" />
	</node>
	<node id="-5423" lat="62.6631972212" lon="6.56215000506">
		<tag k="name" v="Stabben" />
		<tag k="natural" v="shoal" />
		<tag k="place" v="locality" />
		<tag k="ssr:stedsnr" v="293607" />
	</node>
	<node id="-5151" lat="62.6798138908" lon="6.91078888016">
		<tag k="name" v="Nordigardsbukta" />
		<tag k="natural" v="bay" />
		<tag k="ssr:stedsnr" v="269687" />
	</node>
	<node id="-7198" lat="62.7164222202" lon="7.42305833911">
		<tag k="name" v="Hovdenakkvågen" />
		<tag k="natural" v="bay" />
		<tag k="ssr:stedsnr" v="922749" />
	</node>
	<node id="-6022" lat="62.7183805583" lon="6.66948610778">
		<tag k="name" v="Småholman" />
		<tag k="place" v="islet" />
		<tag k="ssr:stedsnr" v="394165" />
	</node>
	<node id="-7193" lat="62.66763889" lon="7.42692500332">
		<tag k="alt_name" v="Skitnevika" />
		<tag k="name" v="Skjetnevika" />
		<tag k="natural" v="bay" />
		<tag k="ssr:stedsnr" v="922724" />
	</node>
	<node id="-9239" lat="62.7678583306" lon="7.91718889355">
		<tag k="name" v="Maliberget" />
		<tag k="natural" v="cape" />
		<tag k="ssr:stedsnr" v="401461" />
	</node>
	<node id="-9238" lat="62.7674250001" lon="7.98550555045">
		<tag k="fixme" v="consider seamark:type=rock or natural=shoal" />
		<tag k="name" v="Matbordet" />
		<tag k="place" v="islet" />
		<tag k="ssr:stedsnr" v="401458" />
	</node>
	<node id="-9237" lat="62.7677972178" lon="7.97540556393">
		<tag k="name" v="Gjengstøa" />
		<tag k="natural" v="bay" />
		<tag k="ssr:stedsnr" v="401456" />
	</node>
	<node id="-5140" lat="62.7148416701" lon="6.64157777209">
		<tag k="name" v="Grøtneset" />
		<tag k="natural" v="cape" />
		<tag k="ssr:stedsnr" v="132919" />
	</node>
	<node id="-7183" lat="62.6492944441" lon="6.56325277658">
		<tag k="name" v="Drynjasundet" />
		<tag k="natural" v="strait" />
		<tag k="ssr:stedsnr" v="922452" />
	</node>
	<node id="-7180" lat="62.7200027736" lon="8.05183610645">
		<tag k="fixme" v="consider seamark:type=rock or natural=shoal" />
		<tag k="name" v="Røsskjeret" />
		<tag k="place" v="islet" />
		<tag k="ssr:stedsnr" v="922415" />
	</node>
	<node id="-5130" lat="62.7296305524" lon="6.68403610633">
		<tag k="name" v="Ålesundsleira" />
		<tag k="natural" v="bay" />
		<tag k="ssr:stedsnr" v="263228" />
	</node>
	<node id="-7170" lat="62.6861777776" lon="6.59811110516">
		<tag k="name" v="Hamnaneset" />
		<tag k="natural" v="cape" />
		<tag k="ssr:stedsnr" v="922243" />
	</node>
	<node id="-5120" lat="62.6580666708" lon="6.54611389401">
		<tag k="name" v="Vågskjeft" />
		<tag k="natural" v="bay" />
		<tag k="ssr:stedsnr" v="112613" />
	</node>
	<node id="-5118" lat="62.7622833363" lon="6.82812778667">
		<tag k="name" v="Kvernholmen" />
		<tag k="place" v="islet" />
		<tag k="ssr:stedsnr" v="255870" />
	</node>
	<node id="-6997" lat="62.746627775" lon="6.74296389025">
		<tag k="name" v="Breidgrunnen" />
		<tag k="natural" v="shoal" />
		<tag k="place" v="locality" />
		<tag k="ssr:stedsnr" v="718154" />
	</node>
	<node id="-9212" lat="62.6901611097" lon="7.36511111599">
		<tag k="name" v="Tjørnholneset" />
		<tag k="natural" v="cape" />
		<tag k="ssr:stedsnr" v="399898" />
	</node>
	<node id="-7160" lat="62.7246083321" lon="7.30358055346">
		<tag k="name" v="Sandvika" />
		<tag k="natural" v="bay" />
		<tag k="ssr:stedsnr" v="921814" />
	</node>
	<node id="-7158" lat="62.7261527819" lon="7.2300861145">
		<tag k="name" v="Gåsøya" />
		<tag k="place" v="islet" />
		<tag k="ssr:stedsnr" v="921766" />
	</node>
	<node id="-9203" lat="62.7171277812" lon="7.41869445354">
		<tag k="name" v="Sponneset" />
		<tag k="natural" v="cape" />
		<tag k="ssr:stedsnr" v="398868" />
	</node>
	<node id="-9201" lat="62.7528361099" lon="7.43228888752">
		<tag k="name" v="Brokstadflua" />
		<tag k="natural" v="shoal" />
		<tag k="place" v="locality" />
		<tag k="ssr:stedsnr" v="398830" />
	</node>
	<node id="-7152" lat="62.6733305554" lon="6.65278611499">
		<tag k="name" v="Leirvikholmen" />
		<tag k="place" v="islet" />
		<tag k="ssr:stedsnr" v="922938" />
	</node>
	<node id="-9182" lat="62.7248805512" lon="7.01104722082">
		<tag k="name" v="Gullstabben" />
		<tag k="natural" v="cape" />
		<tag k="ssr:stedsnr" v="398653" />
	</node>
	<node id="-9180" lat="62.7175222253" lon="7.1900222318">
		<tag k="name" v="Ramsøya" />
		<tag k="place" v="island" />
		<tag k="ssr:stedsnr" v="398647" />
	</node>
	<node id="-9178" lat="62.6940833333" lon="7.42456943618">
		<tag k="name" v="Leirholmen" />
		<tag k="place" v="islet" />
		<tag k="ssr:stedsnr" v="398637" />
	</node>
	<node id="-7129" lat="62.7733861119" lon="7.99706388122">
		<tag k="name" v="Øyan" />
		<tag k="place" v="island" />
		<tag k="ssr:stedsnr" v="766663" />
	</node>
	<node id="-9176" lat="62.7368083339" lon="7.28920278151">
		<tag k="alt_name" v="Vardholman" />
		<tag k="name" v="Vardholmen" />
		<tag k="place" v="islet" />
		<tag k="ssr:stedsnr" v="398613" />
	</node>
	<node id="-9175" lat="62.6673083344" lon="7.4262666718">
		<tag k="alt_name" v="Skitnevikneset" />
		<tag k="name" v="Skjetnevikneset" />
		<tag k="natural" v="cape" />
		<tag k="ssr:stedsnr" v="398604" />
	</node>
	<node id="-5078" lat="62.7548055546" lon="8.01998889755">
		<tag k="name" v="Prestbukta" />
		<tag k="natural" v="bay" />
		<tag k="ssr:stedsnr" v="98402" />
	</node>
	<node id="-6649" lat="62.6728277796" lon="6.73823610841">
		<tag k="name" v="Myraflua" />
		<tag k="natural" v="shoal" />
		<tag k="place" v="locality" />
		<tag k="ssr:stedsnr" v="718728" />
	</node>
	<node id="-9172" lat="62.7287694486" lon="7.04672222379">
		<tag k="name" v="Kroppungsvika" />
		<tag k="natural" v="bay" />
		<tag k="ssr:stedsnr" v="398475" />
	</node>
	<node id="-5075" lat="62.6963833334" lon="8.11975277188">
		<tag k="name" v="Storhundneset" />
		<tag k="natural" v="cape" />
		<tag k="ssr:stedsnr" v="98374" />
	</node>
	<node id="-9170" lat="62.7312166648" lon="6.98291110627">
		<tag k="name" v="Svartholet" />
		<tag k="natural" v="bay" />
		<tag k="ssr:stedsnr" v="398470" />
	</node>
	<node id="-9169" lat="62.7331888849" lon="6.97871667077">
		<tag k="name" v="Engjavikneset" />
		<tag k="natural" v="cape" />
		<tag k="ssr:stedsnr" v="398468" />
	</node>
	<node id="-5072" lat="62.7905611082" lon="8.22384167192">
		<tag k="name" v="Hyllbukta" />
		<tag k="natural" v="bay" />
		<tag k="ssr:stedsnr" v="98362" />
	</node>
	<node id="-9162" lat="62.6906166669" lon="7.33837499509">
		<tag k="name" v="Håkåflua" />
		<tag k="natural" v="shoal" />
		<tag k="place" v="locality" />
		<tag k="ssr:stedsnr" v="398283" />
	</node>
	<node id="-5065" lat="62.7293277806" lon="8.03309166305">
		<tag k="name" v="Erneset" />
		<tag k="natural" v="cape" />
		<tag k="ssr:stedsnr" v="98073" />
	</node>
	<node id="-6305" lat="62.7089972186" lon="6.72390833326">
		<tag k="name" v="Kattholmen" />
		<tag k="place" v="islet" />
		<tag k="ssr:stedsnr" v="697582" />
	</node>
	<node id="-6646" lat="62.6930000022" lon="7.5286972172">
		<tag k="name" v="Heggeneset" />
		<tag k="natural" v="cape" />
		<tag k="ssr:stedsnr" v="718963" />
	</node>
	<node id="-7105" lat="62.7270555512" lon="7.39793888141">
		<tag k="name" v="Røvika" />
		<tag k="natural" v="bay" />
		<tag k="ssr:stedsnr" v="765814" />
	</node>
	<node id="-7104" lat="62.7295694445" lon="8.03023889689">
		<tag k="name" v="Ytste Ernesbukta" />
		<tag k="natural" v="bay" />
		<tag k="ssr:stedsnr" v="765808" />
	</node>
	<node id="-9150" lat="62.7220416636" lon="7.66789444938">
		<tag k="name" v="Hoåneset" />
		<tag k="natural" v="cape" />
		<tag k="ssr:stedsnr" v="398157" />
	</node>
	<node id="-6645" lat="62.7230944403" lon="7.09833610788">
		<tag k="name" v="Mekgrunna" />
		<tag k="natural" v="shoal" />
		<tag k="place" v="locality" />
		<tag k="ssr:stedsnr" v="597138" />
	</node>
	<node id="-6647" lat="62.679508329" lon="6.76284999316">
		<tag k="name" v="Strandaneset" />
		<tag k="natural" v="cape" />
		<tag k="ssr:stedsnr" v="718710" />
	</node>
	<node id="-5051" lat="62.6907333351" lon="7.35348611224">
		<tag k="name" v="Klokkarbryggja" />
		<tag k="natural" v="cape" />
		<tag k="ssr:stedsnr" v="95907" />
	</node>
	<node id="-7095" lat="62.7834916624" lon="8.29663889017">
		<tag k="name" v="Altervika" />
		<tag k="natural" v="bay" />
		<tag k="ssr:stedsnr" v="765258" />
	</node>
	<node id="-5043" lat="62.7241638871" lon="6.98731111318">
		<tag k="name" v="Kjerringøyrå" />
		<tag k="natural" v="shoal" />
		<tag k="place" v="locality" />
		<tag k="ssr:stedsnr" v="95455" />
	</node>
	<node id="-7090" lat="62.6488666679" lon="7.31138611905">
		<tag k="name" v="Vestadbukta" />
		<tag k="natural" v="bay" />
		<tag k="ssr:stedsnr" v="763911" />
	</node>
	<node id="-7089" lat="62.6485638927" lon="7.26332500299">
		<tag k="name" v="Litlevikan" />
		<tag k="natural" v="bay" />
		<tag k="ssr:stedsnr" v="763910" />
	</node>
	<node id="-5038" lat="62.7168000017" lon="7.17280555342">
		<tag k="name" v="Båtsundet" />
		<tag k="natural" v="strait" />
		<tag k="ssr:stedsnr" v="95409" />
	</node>
	<node id="-9129" lat="62.703233332" lon="6.91733888703">
		<tag k="name" v="Reitaneset" />
		<tag k="natural" v="bay" />
		<tag k="ssr:stedsnr" v="395728" />
	</node>
	<node id="-5029" lat="62.7408583358" lon="6.68590278115">
		<tag k="fixme" v="consider seamark:type=rock or natural=shoal" />
		<tag k="name" v="Blea" />
		<tag k="place" v="islet" />
		<tag k="ssr:stedsnr" v="254832" />
	</node>
	<node id="-5025" lat="62.7391666675" lon="6.70483056157">
		<tag k="name" v="Langholmen" />
		<tag k="place" v="islet" />
		<tag k="ssr:stedsnr" v="254817" />
	</node>
	<node id="-9120" lat="62.7519638885" lon="6.90867776952">
		<tag k="fixme" v="consider seamark:type=rock or natural=shoal" />
		<tag k="name" v="Grønskjeret" />
		<tag k="place" v="islet" />
		<tag k="ssr:stedsnr" v="394754" />
	</node>
	<node id="-9119" lat="62.7514055516" lon="6.91036389482">
		<tag k="fixme" v="consider seamark:type=rock or natural=shoal" />
		<tag k="name" v="Grønskjerflua" />
		<tag k="place" v="islet" />
		<tag k="ssr:stedsnr" v="394753" />
	</node>
	<node id="-5022" lat="62.6791333329" lon="6.59221666362">
		<tag k="name" v="Store Digerneset" />
		<tag k="natural" v="cape" />
		<tag k="ssr:stedsnr" v="254996" />
	</node>
	<node id="-7069" lat="62.7216472263" lon="7.20178611283">
		<tag k="name" v="Jektøya" />
		<tag k="place" v="island" />
		<tag k="ssr:stedsnr" v="762653" />
	</node>
	<node id="-5018" lat="62.806236109" lon="8.26768333916">
		<tag k="bay" v="fjord" />
		<tag k="name" v="Tingvollfjorden" />
		<tag k="natural" v="bay" />
		<tag k="ssr:stedsnr" v="254881" />
	</node>
	<node id="-9111" lat="62.6911416643" lon="6.61096111643">
		<tag k="name" v="Kjelsvikholmen" />
		<tag k="place" v="islet" />
		<tag k="ssr:stedsnr" v="394373" />
	</node>
	<node id="-9108" lat="62.6669111142" lon="6.57899445105">
		<tag k="alt_name" v="Vikeskjæret" />
		<tag k="fixme" v="consider seamark:type=rock or natural=shoal" />
		<tag k="name" v="Vikaskjera" />
		<tag k="place" v="islet" />
		<tag k="ssr:stedsnr" v="394146" />
	</node>
	<node id="-9107" lat="62.6679305586" lon="6.58229166171">
		<tag k="name" v="Båtvika" />
		<tag k="natural" v="bay" />
		<tag k="ssr:stedsnr" v="394145" />
	</node>
	<node id="-7057" lat="62.7243137923" lon="6.70150152637">
		<tag k="name" v="Døftevika" />
		<tag k="natural" v="bay" />
		<tag k="ssr:stedsnr" v="758063" />
	</node>
	<node id="-9103" lat="62.6502694431" lon="6.5331638894">
		<tag k="name" v="Stombekastet" />
		<tag k="natural" v="bay" />
		<tag k="ssr:stedsnr" v="394096" />
	</node>
	<node id="-5613" lat="62.7682583297" lon="7.43805833224">
		<tag k="fixme" v="consider seamark:type=rock or natural=shoal" />
		<tag k="name" v="Øygardsflua" />
		<tag k="place" v="islet" />
		<tag k="ssr:stedsnr" v="277061" />
	</node>
	<node id="-7050" lat="62.7057083329" lon="7.19529723171">
		<tag k="name" v="Risholmen" />
		<tag k="natural" v="shoal" />
		<tag k="place" v="locality" />
		<tag k="ssr:stedsnr" v="908888" />
	</node>
	<node id="-5000" lat="62.6453527748" lon="6.53045555955">
		<tag k="name" v="Dryna" />
		<tag k="place" v="island" />
		<tag k="ssr:stedsnr" v="254437" />
	</node>
	<node id="-7047" lat="62.7166027805" lon="6.67760277051">
		<tag k="name" v="Skjelvika" />
		<tag k="natural" v="bay" />
		<tag k="ssr:stedsnr" v="749209" />
	</node>
	<node id="-9094" lat="62.7386499966" lon="6.74116388575">
		<tag k="fixme" v="consider seamark:type=rock or natural=shoal" />
		<tag k="name" v="Grasskjæret" />
		<tag k="place" v="islet" />
		<tag k="ssr:stedsnr" v="384144" />
	</node>
	<node id="-5270" lat="62.7304805563" lon="7.7130111047">
		<tag k="name" v="Sandvika" />
		<tag k="natural" v="bay" />
		<tag k="ssr:stedsnr" v="159702" />
	</node>
	<node id="-4994" lat="62.7440222247" lon="6.98508054744">
		<tag k="alt_name" v="Store Gausetholmen" />
		<tag k="name" v="Storholmen" />
		<tag k="place" v="islet" />
		<tag k="ssr:stedsnr" v="254088" />
	</node>
	<node id="-9086" lat="62.7586333294" lon="6.87784444878">
		<tag k="name" v="Sæmundsholmen" />
		<tag k="place" v="islet" />
		<tag k="ssr:stedsnr" v="376872" />
	</node>
	<node id="-9085" lat="62.756863887" lon="6.86836666045">
		<tag k="name" v="Skarvholman" />
		<tag k="place" v="islet" />
		<tag k="ssr:stedsnr" v="376867" />
	</node>
	<node id="-9080" lat="62.6437540991" lon="7.30068376716">
		<tag k="alt_name" v="Vestaholmen, store" />
		<tag k="name" v="Store Vestadholmen" />
		<tag k="place" v="islet" />
		<tag k="ssr:stedsnr" v="376635" />
	</node>
	<node id="-9079" lat="62.8085027773" lon="8.17327500288">
		<tag k="name" v="Øraneset" />
		<tag k="natural" v="cape" />
		<tag k="ssr:stedsnr" v="376600" />
	</node>
	<node id="-7026" lat="62.7293305582" lon="7.27167221572">
		<tag k="name" v="Bolsøya" />
		<tag k="place" v="island" />
		<tag k="ssr:stedsnr" v="739775" />
	</node>
	<node id="-7025" lat="62.7359166625" lon="7.36923611019">
		<tag k="name" v="Smoltnes" />
		<tag k="natural" v="cape" />
		<tag k="ssr:stedsnr" v="739773" />
	</node>
	<node id="-7024" lat="62.7349861098" lon="7.37181388288">
		<tag k="name" v="Juvika" />
		<tag k="natural" v="bay" />
		<tag k="ssr:stedsnr" v="739770" />
	</node>
	<node id="-4973" lat="62.6799888925" lon="6.91500278574">
		<tag k="name" v="Leira" />
		<tag k="natural" v="bay" />
		<tag k="ssr:stedsnr" v="91503" />
	</node>
	<node id="-4969" lat="62.6593111105" lon="6.65816111214">
		<tag k="name" v="Kobbestranda" />
		<tag k="natural" v="beach" />
		<tag k="place" v="locality" />
		<tag k="ssr:stedsnr" v="247043" />
	</node>
	<node id="-9064" lat="62.7732583326" lon="6.55539167144">
		<tag k="bay" v="fjord" />
		<tag k="name" v="Harøyfjorden" />
		<tag k="natural" v="bay" />
		<tag k="ssr:stedsnr" v="375815" />
	</node>
	<node id="-9061" lat="62.7329805532" lon="6.68031388145">
		<tag k="name" v="Ålesundsholmen" />
		<tag k="place" v="islet" />
		<tag k="ssr:stedsnr" v="375812" />
	</node>
	<node id="-4961" lat="62.7130222253" lon="6.66363055391">
		<tag k="name" v="Tustra" />
		<tag k="place" v="islet" />
		<tag k="ssr:stedsnr" v="72913" />
	</node>
	<node id="-7008" lat="62.7666694487" lon="7.94699166395">
		<tag k="name" v="Skolten" />
		<tag k="natural" v="shoal" />
		<tag k="place" v="locality" />
		<tag k="ssr:stedsnr" v="901234" />
	</node>
	<node id="-7007" lat="62.7240388884" lon="6.69939166833">
		<tag k="name" v="Kvalvikleira" />
		<tag k="natural" v="shoal" />
		<tag k="place" v="locality" />
		<tag k="ssr:stedsnr" v="900835" />
	</node>
	<node id="-8353" lat="62.7007472238" lon="8.1137805538">
		<tag k="alt_name" v="Hundneset;Hundneset, store" />
		<tag k="name" v="Store Hundneset" />
		<tag k="natural" v="cape" />
		<tag k="ssr:stedsnr" v="133266" />
	</node>
	<node id="-7004" lat="62.7075111071" lon="7.3876777755">
		<tag k="fixme" v="consider seamark:type=rock or natural=shoal" />
		<tag k="name" v="Røsteskjera" />
		<tag k="place" v="islet" />
		<tag k="ssr:stedsnr" v="900891" />
	</node>
	<node id="-7003" lat="62.6906722232" lon="6.86197500287">
		<tag k="name" v="Bogen" />
		<tag k="natural" v="shoal" />
		<tag k="place" v="locality" />
		<tag k="ssr:stedsnr" v="900734" />
	</node>
	<node id="-9048" lat="62.7803083362" lon="7.65646111308">
		<tag k="name" v="Holmen" />
		<tag k="place" v="islet" />
		<tag k="ssr:stedsnr" v="375783" />
	</node>
	<node id="-6999" lat="62.7060583362" lon="8.12013333999">
		<tag k="name" v="Klakken" />
		<tag k="natural" v="shoal" />
		<tag k="place" v="locality" />
		<tag k="ssr:stedsnr" v="718788" />
	</node>
	<node id="-9046" lat="62.7301722189" lon="7.26432222379">
		<tag k="name" v="Turhusneset" />
		<tag k="natural" v="cape" />
		<tag k="ssr:stedsnr" v="375732" />
	</node>
	<node id="-9045" lat="62.7238694409" lon="7.25571389086">
		<tag k="fixme" v="consider seamark:type=rock or natural=shoal" />
		<tag k="name" v="Mauringan" />
		<tag k="place" v="islet" />
		<tag k="ssr:stedsnr" v="375727" />
	</node>
	<node id="-9044" lat="62.7275666674" lon="7.26705833408">
		<tag k="name" v="Vikan" />
		<tag k="natural" v="bay" />
		<tag k="ssr:stedsnr" v="375726" />
	</node>
	<node id="-6993" lat="62.7976083336" lon="8.20436945031">
		<tag k="name" v="Oddlineset" />
		<tag k="natural" v="cape" />
		<tag k="ssr:stedsnr" v="705407" />
	</node>
	<node id="-6991" lat="62.7721083334" lon="8.03549165959">
		<tag k="name" v="Ålberget" />
		<tag k="natural" v="cape" />
		<tag k="ssr:stedsnr" v="704712" />
	</node>
	<node id="-4934" lat="62.6850944408" lon="6.82618889575">
		<tag k="name" v="Orsetbukta" />
		<tag k="natural" v="bay" />
		<tag k="ssr:stedsnr" v="51760" />
	</node>
	<node id="-6981" lat="62.7546305573" lon="7.44131945283">
		<tag k="name" v="Merrabukta" />
		<tag k="natural" v="bay" />
		<tag k="ssr:stedsnr" v="702828" />
	</node>
	<node id="-4932" lat="62.7568166694" lon="6.69681943498">
		<tag k="name" v="Søreflua" />
		<tag k="natural" v="shoal" />
		<tag k="place" v="locality" />
		<tag k="ssr:stedsnr" v="50815" />
	</node>
	<node id="-4931" lat="62.7432833347" lon="8.00067222494">
		<tag k="name" v="Kleibjørkgrunna" />
		<tag k="natural" v="shoal" />
		<tag k="place" v="locality" />
		<tag k="ssr:stedsnr" v="233572" />
	</node>
	<node id="-4929" lat="62.7122500029" lon="8.09028888094">
		<tag k="name" v="Sølåttholmen" />
		<tag k="place" v="islet" />
		<tag k="ssr:stedsnr" v="232757" />
	</node>
	<node id="-6975" lat="62.7394722211" lon="6.98626111367">
		<tag k="name" v="Håskjervika" />
		<tag k="natural" v="bay" />
		<tag k="ssr:stedsnr" v="702477" />
	</node>
	<node id="-6974" lat="62.7305972226" lon="7.05644999874">
		<tag k="name" v="Hatlevikbukta" />
		<tag k="natural" v="bay" />
		<tag k="ssr:stedsnr" v="702462" />
	</node>
	<node id="-9018" lat="62.7484805526" lon="6.90970277462">
		<tag k="name" v="Hansholmen" />
		<tag k="place" v="islet" />
		<tag k="ssr:stedsnr" v="375081" />
	</node>
	<node id="-5599" lat="62.6980722182" lon="6.64470832904">
		<tag k="name" v="Kremmarberget" />
		<tag k="natural" v="cape" />
		<tag k="ssr:stedsnr" v="273874" />
	</node>
	<node id="-9011" lat="62.7382694413" lon="7.19790556401">
		<tag k="name" v="Bolsøynes" />
		<tag k="natural" v="cape" />
		<tag k="ssr:stedsnr" v="375054" />
	</node>
	<node id="-9009" lat="62.6930194437" lon="6.87335833892">
		<tag k="fixme" v="consider seamark:type=rock or natural=shoal" />
		<tag k="name" v="Kobbeskjæret" />
		<tag k="place" v="islet" />
		<tag k="ssr:stedsnr" v="354751" />
	</node>
	<node id="-9008" lat="62.6923305575" lon="6.880619449">
		<tag k="name" v="Skallen" />
		<tag k="natural" v="shoal" />
		<tag k="place" v="locality" />
		<tag k="ssr:stedsnr" v="354749" />
	</node>
	<node id="-9007" lat="62.7053777798" lon="6.93060000777">
		<tag k="name" v="Jensetflua" />
		<tag k="natural" v="shoal" />
		<tag k="place" v="locality" />
		<tag k="ssr:stedsnr" v="354658" />
	</node>
	<node id="-9004" lat="62.7481722234" lon="6.76039166095">
		<tag k="name" v="Rørsetskallen" />
		<tag k="natural" v="shoal" />
		<tag k="place" v="locality" />
		<tag k="ssr:stedsnr" v="354168" />
	</node>
	<node id="-9003" lat="62.7311583317" lon="7.15920556364">
		<tag k="name" v="Løkkeskallen" />
		<tag k="natural" v="shoal" />
		<tag k="place" v="locality" />
		<tag k="ssr:stedsnr" v="354159" />
	</node>
	<node id="-9002" lat="62.6809083306" lon="6.93248610886">
		<tag k="name" v="Måseskjærflua" />
		<tag k="natural" v="shoal" />
		<tag k="place" v="locality" />
		<tag k="ssr:stedsnr" v="353740" />
	</node>
	<node id="-9001" lat="62.6892499981" lon="6.65282500817">
		<tag k="name" v="Midsundet" />
		<tag k="natural" v="strait" />
		<tag k="ssr:stedsnr" v="353721" />
	</node>
	<node id="-9000" lat="62.6767194409" lon="7.29825833104">
		<tag k="name" v="Reitaberget" />
		<tag k="natural" v="cape" />
		<tag k="ssr:stedsnr" v="353169" />
	</node>
	<node id="-8999" lat="62.7234555549" lon="7.27154721341">
		<tag k="name" v="Måsholman" />
		<tag k="place" v="islet" />
		<tag k="ssr:stedsnr" v="353165" />
	</node>
	<node id="-8326" lat="62.7492499976" lon="6.8483166577">
		<tag k="fixme" v="consider seamark:type=rock or natural=shoal" />
		<tag k="name" v="Maurungan" />
		<tag k="place" v="islet" />
		<tag k="ssr:stedsnr" v="132087" />
	</node>
	<node id="-5596" lat="62.6812694425" lon="6.78070277676">
		<tag k="name" v="Båtneset" />
		<tag k="natural" v="cape" />
		<tag k="ssr:stedsnr" v="273260" />
	</node>
	<node id="-6942" lat="62.6919249978" lon="6.64077778759">
		<tag k="name" v="Sjøvika" />
		<tag k="natural" v="bay" />
		<tag k="ssr:stedsnr" v="697317" />
	</node>
	<node id="-5594" lat="62.675980559" lon="6.58475556162">
		<tag k="fixme" v="consider seamark:type=rock or natural=shoal" />
		<tag k="name" v="Dalskjera" />
		<tag k="place" v="islet" />
		<tag k="ssr:stedsnr" v="273363" />
	</node>
	<node id="-4890" lat="62.6795972255" lon="7.34133888052">
		<tag k="bay" v="fjord" />
		<tag k="name" v="Veøyfjorden" />
		<tag k="natural" v="bay" />
		<tag k="ssr:stedsnr" v="232144" />
	</node>
	<node id="-4889" lat="62.7349138895" lon="6.73487500198">
		<tag k="name" v="Orviktangen" />
		<tag k="natural" v="cape" />
		<tag k="ssr:stedsnr" v="232141" />
	</node>
	<node id="-4880" lat="62.7533333309" lon="6.86673888304">
		<tag k="name" v="Inste Skarvholmen" />
		<tag k="place" v="islet" />
		<tag k="ssr:stedsnr" v="30748" />
	</node>
	<node id="-4879" lat="62.7432027795" lon="6.92384167321">
		<tag k="name" v="Hagebukta" />
		<tag k="natural" v="bay" />
		<tag k="ssr:stedsnr" v="30713" />
	</node>
	<node id="-4876" lat="62.6669972227" lon="6.53449443938">
		<tag k="name" v="Matløysdjupet" />
		<tag k="place" v="locality" />
		<tag k="ssr:stedsnr" v="227258" />
	</node>
	<node id="-8971" lat="62.7307916652" lon="8.10637222123">
		<tag k="name" v="Sandvika" />
		<tag k="natural" v="bay" />
		<tag k="ssr:stedsnr" v="341802" />
	</node>
	<node id="-4872" lat="62.6657305567" lon="6.6819666656">
		<tag k="name" v="Trollvika" />
		<tag k="natural" v="bay" />
		<tag k="ssr:stedsnr" v="12945" />
	</node>
	<node id="-4866" lat="62.7118916708" lon="6.66002499994">
		<tag k="name" v="Nørdre Kvaløysundet" />
		<tag k="natural" v="strait" />
		<tag k="ssr:stedsnr" v="11905" />
	</node>
	<node id="-7979" lat="62.7255694451" lon="7.8061194481">
		<tag k="name" v="Trollstoin" />
		<tag k="natural" v="cape" />
		<tag k="ssr:stedsnr" v="37898" />
	</node>
	<node id="-7637" lat="62.7429305565" lon="7.98876666093">
		<tag k="name" v="Styggeholet" />
		<tag k="natural" v="bay" />
		<tag k="ssr:stedsnr" v="887964" />
	</node>
	<node id="-8955" lat="62.7547694455" lon="7.84120555233">
		<tag k="name" v="Skinnstakkhola" />
		<tag k="natural" v="bay" />
		<tag k="ssr:stedsnr" v="341676" />
	</node>
	<node id="-8953" lat="62.7632416655" lon="7.8830138864">
		<tag k="name" v="Naustbukta" />
		<tag k="natural" v="bay" />
		<tag k="ssr:stedsnr" v="341669" />
	</node>
	<node id="-8947" lat="62.7253472244" lon="7.68353055539">
		<tag k="name" v="Daveslettneset" />
		<tag k="natural" v="cape" />
		<tag k="ssr:stedsnr" v="341623" />
	</node>
	<node id="-8945" lat="62.7375611073" lon="7.75669722488">
		<tag k="name" v="Litlehagneset" />
		<tag k="natural" v="cape" />
		<tag k="ssr:stedsnr" v="341607" />
	</node>
	<node id="-8943" lat="62.7795222187" lon="8.27220554894">
		<tag k="name" v="Hyllbekkneset" />
		<tag k="natural" v="cape" />
		<tag k="ssr:stedsnr" v="341596" />
	</node>
	<node id="-6890" lat="62.7711583324" lon="8.02171389133">
		<tag k="name" v="Flatabukta" />
		<tag k="natural" v="bay" />
		<tag k="ssr:stedsnr" v="887423" />
	</node>
	<node id="-6883" lat="62.7519555549" lon="8.01592222488">
		<tag k="alt_name" v="Skjærjegrunna" />
		<tag k="name" v="Skjeragrunna" />
		<tag k="natural" v="shoal" />
		<tag k="place" v="locality" />
		<tag k="ssr:stedsnr" v="887397" />
	</node>
	<node id="-6882" lat="62.7481388896" lon="8.0260333322">
		<tag k="name" v="Stygghola" />
		<tag k="natural" v="bay" />
		<tag k="ssr:stedsnr" v="887391" />
	</node>
	<node id="-4830" lat="62.7199694421" lon="8.11760556291">
		<tag k="alt_name" v="Breidvika" />
		<tag k="name" v="Breivika" />
		<tag k="natural" v="bay" />
		<tag k="ssr:stedsnr" v="220810" />
	</node>
	<node id="-6266" lat="62.7336416665" lon="7.73404444692">
		<tag k="name" v="Bekkerklipa" />
		<tag k="natural" v="bay" />
		<tag k="ssr:stedsnr" v="523613" />
	</node>
	<node id="-4823" lat="62.7684722221" lon="7.9627361035">
		<tag k="name" v="Leira" />
		<tag k="natural" v="bay" />
		<tag k="ssr:stedsnr" v="220697" />
	</node>
	<node id="-8918" lat="62.7267722246" lon="7.81258333158">
		<tag k="name" v="Trollhaugbukta" />
		<tag k="natural" v="bay" />
		<tag k="ssr:stedsnr" v="340892" />
	</node>
	<node id="-8916" lat="62.6859722235" lon="8.14428610586">
		<tag k="name" v="Vorpeneset" />
		<tag k="natural" v="cape" />
		<tag k="ssr:stedsnr" v="340820" />
	</node>
	<node id="-8915" lat="62.7436666694" lon="8.04209166575">
		<tag k="name" v="Åsneset" />
		<tag k="natural" v="cape" />
		<tag k="ssr:stedsnr" v="340733" />
	</node>
	<node id="-8914" lat="62.7765194478" lon="8.06991388574">
		<tag k="name" v="Bruneset" />
		<tag k="natural" v="cape" />
		<tag k="ssr:stedsnr" v="340727" />
	</node>
	<node id="-6865" lat="62.6679361115" lon="7.33153333719">
		<tag k="name" v="Byttollbukta" />
		<tag k="natural" v="bay" />
		<tag k="ssr:stedsnr" v="884936" />
	</node>
	<node id="-8412" lat="62.7817361119" lon="7.54245555214">
		<tag k="name" v="Haugneset" />
		<tag k="natural" v="cape" />
		<tag k="ssr:stedsnr" v="156043" />
	</node>
	<node id="-5238" lat="62.6685166659" lon="7.33878610202">
		<tag k="name" v="Seterneset" />
		<tag k="natural" v="cape" />
		<tag k="ssr:stedsnr" v="277961" />
	</node>
	<node id="-8898" lat="62.7183638928" lon="7.64964721262">
		<tag k="name" v="Brenslevika" />
		<tag k="natural" v="bay" />
		<tag k="ssr:stedsnr" v="338992" />
	</node>
	<node id="-5237" lat="62.7418055598" lon="7.39115555534">
		<tag k="name" v="Ytste Grønnesbukta" />
		<tag k="natural" v="bay" />
		<tag k="ssr:stedsnr" v="277800" />
	</node>
	<node id="-6842" lat="62.6982805595" lon="7.54840277564">
		<tag k="name" v="Storråbukta" />
		<tag k="natural" v="bay" />
		<tag k="ssr:stedsnr" v="884714" />
	</node>
	<node id="-8889" lat="62.7247083314" lon="7.28574166594">
		<tag k="name" v="Skomakarneset" />
		<tag k="natural" v="cape" />
		<tag k="ssr:stedsnr" v="338908" />
	</node>
	<node id="-5479" lat="62.7981638903" lon="8.20186388601">
		<tag k="name" v="Laberget" />
		<tag k="natural" v="cape" />
		<tag k="ssr:stedsnr" v="219733" />
	</node>
	<node id="-6570" lat="62.6671805514" lon="7.37046110942">
		<tag k="name" v="Følfoten" />
		<tag k="natural" v="cape" />
		<tag k="ssr:stedsnr" v="580140" />
	</node>
	<node id="-7966" lat="62.7376055552" lon="8.05252222445">
		<tag k="name" v="Tømmerberget" />
		<tag k="natural" v="cape" />
		<tag k="ssr:stedsnr" v="37529" />
	</node>
	<node id="-4785" lat="62.7251222267" lon="7.80233054999">
		<tag k="name" v="Bytberget" />
		<tag k="natural" v="cape" />
		<tag k="ssr:stedsnr" v="219900" />
	</node>
	<node id="-4784" lat="62.724644443" lon="7.79634999892">
		<tag k="name" v="Kvassneset" />
		<tag k="natural" v="cape" />
		<tag k="ssr:stedsnr" v="219899" />
	</node>
	<node id="-4933" lat="62.7338777752" lon="6.7689333271">
		<tag k="fixme" v="consider seamark:type=rock or natural=shoal" />
		<tag k="name" v="Steinane" />
		<tag k="place" v="islet" />
		<tag k="ssr:stedsnr" v="51157" />
	</node>
	<node id="-6824" lat="62.7118222233" lon="7.41142222583">
		<tag k="name" v="Vikan" />
		<tag k="natural" v="bay" />
		<tag k="ssr:stedsnr" v="884194" />
	</node>
	<node id="-6822" lat="62.6736527792" lon="7.42031944583">
		<tag k="name" v="Sørvågen" />
		<tag k="natural" v="bay" />
		<tag k="ssr:stedsnr" v="884189" />
	</node>
	<node id="-8869" lat="62.72605833" lon="7.00982778337">
		<tag k="name" v="Barbukta" />
		<tag k="natural" v="bay" />
		<tag k="ssr:stedsnr" v="338646" />
	</node>
	<node id="-4771" lat="62.7320000021" lon="7.91028056316">
		<tag k="name" v="Lianeset" />
		<tag k="natural" v="cape" />
		<tag k="ssr:stedsnr" v="219092" />
	</node>
	<node id="-6818" lat="62.7209888879" lon="7.41159999724">
		<tag k="name" v="Litlvika" />
		<tag k="natural" v="bay" />
		<tag k="ssr:stedsnr" v="884139" />
	</node>
	<node id="-4768" lat="62.6458777821" lon="7.31040833032">
		<tag k="name" v="Litleholmen" />
		<tag k="place" v="islet" />
		<tag k="ssr:stedsnr" v="218572" />
	</node>
	<node id="-8862" lat="62.6611388927" lon="7.38824444424">
		<tag k="name" v="Sekkeneset" />
		<tag k="natural" v="cape" />
		<tag k="ssr:stedsnr" v="338579" />
	</node>
	<node id="-8861" lat="62.6920027787" lon="7.38982221918">
		<tag k="name" v="Rogneneset" />
		<tag k="natural" v="cape" />
		<tag k="ssr:stedsnr" v="338571" />
	</node>
	<node id="-8858" lat="62.7258277749" lon="6.99600556095">
		<tag k="name" v="Gjølbukta" />
		<tag k="natural" v="bay" />
		<tag k="ssr:stedsnr" v="338454" />
	</node>
	<node id="-4761" lat="62.7367472199" lon="7.36736110959">
		<tag k="name" v="Dvergsnesbukta" />
		<tag k="natural" v="bay" />
		<tag k="ssr:stedsnr" v="217938" />
	</node>
	<node id="-8856" lat="62.7429277758" lon="6.98891389629">
		<tag k="name" v="Vikaneset" />
		<tag k="natural" v="cape" />
		<tag k="ssr:stedsnr" v="338435" />
	</node>
	<node id="-6807" lat="62.7506583291" lon="6.85579166627">
		<tag k="name" v="Kalvøya" />
		<tag k="place" v="islet" />
		<tag k="ssr:stedsnr" v="680906" />
	</node>
	<node id="-8854" lat="62.721258336" lon="7.16518888756">
		<tag k="fixme" v="consider seamark:type=rock or natural=shoal" />
		<tag k="name" v="Hyseskjeret" />
		<tag k="place" v="islet" />
		<tag k="ssr:stedsnr" v="338407" />
	</node>
	<node id="-4757" lat="62.7865666637" lon="7.70677222958">
		<tag k="name" v="Skipneset" />
		<tag k="natural" v="cape" />
		<tag k="ssr:stedsnr" v="217764" />
	</node>
	<node id="-4756" lat="62.6984638933" lon="7.55026388229">
		<tag k="name" v="Hagaknubben" />
		<tag k="natural" v="cape" />
		<tag k="ssr:stedsnr" v="217749" />
	</node>
	<node id="-6802" lat="62.7827472224" lon="7.52971111399">
		<tag k="name" v="Skjevika" />
		<tag k="natural" v="bay" />
		<tag k="ssr:stedsnr" v="679764" />
	</node>
	<node id="-6800" lat="62.7174833331" lon="7.24902778401">
		<tag k="alt_name" v="Storvika" />
		<tag k="name" v="Storvikbukta" />
		<tag k="natural" v="bay" />
		<tag k="ssr:stedsnr" v="679756" />
	</node>
	<node id="-6799" lat="62.6713583378" lon="7.41948055423">
		<tag k="name" v="Bondvika" />
		<tag k="natural" v="bay" />
		<tag k="ssr:stedsnr" v="679707" />
	</node>
	<node id="-6791" lat="62.6474500007" lon="6.52768610602">
		<tag k="name" v="Storsteinvika" />
		<tag k="natural" v="bay" />
		<tag k="ssr:stedsnr" v="679454" />
	</node>
	<node id="-4742" lat="62.726258332" lon="7.02624999532">
		<tag k="fixme" v="consider seamark:type=rock or natural=shoal" />
		<tag k="name" v="Skjeret" />
		<tag k="place" v="islet" />
		<tag k="ssr:stedsnr" v="217661" />
	</node>
	<node id="-4740" lat="62.7346527751" lon="7.12671388149">
		<tag k="name" v="Storvika" />
		<tag k="natural" v="bay" />
		<tag k="ssr:stedsnr" v="217650" />
	</node>
	<node id="-8834" lat="62.7053972265" lon="7.39933056163">
		<tag k="name" v="Vikneset" />
		<tag k="natural" v="cape" />
		<tag k="ssr:stedsnr" v="338181" />
	</node>
	<node id="-8833" lat="62.6869749976" lon="7.45399721362">
		<tag k="name" v="Pershola" />
		<tag k="natural" v="bay" />
		<tag k="ssr:stedsnr" v="338177" />
	</node>
	<node id="-4736" lat="62.6771444448" lon="7.43335555017">
		<tag k="alt_name" v="Grønneset" />
		<tag k="name" v="Grønvikneset" />
		<tag k="natural" v="cape" />
		<tag k="ssr:stedsnr" v="217634" />
	</node>
	<node id="-8829" lat="62.7248499963" lon="7.28371388737">
		<tag k="name" v="Mekvika" />
		<tag k="natural" v="bay" />
		<tag k="ssr:stedsnr" v="337326" />
	</node>
	<node id="-8828" lat="62.6954305598" lon="7.33793054688">
		<tag k="fixme" v="consider seamark:type=rock or natural=shoal" />
		<tag k="name" v="Juten" />
		<tag k="place" v="islet" />
		<tag k="ssr:stedsnr" v="337318" />
	</node>
	<node id="-8822" lat="62.7045305571" lon="6.92220277942">
		<tag k="name" v="Sørebukta" />
		<tag k="natural" v="bay" />
		<tag k="ssr:stedsnr" v="334688" />
	</node>
	<node id="-8821" lat="62.7376638861" lon="6.93033054636">
		<tag k="alt_name" v="Rongkallneset" />
		<tag k="name" v="Romkallneset" />
		<tag k="natural" v="cape" />
		<tag k="ssr:stedsnr" v="334567" />
	</node>
	<node id="-8816" lat="62.6779277758" lon="6.92370832468">
		<tag k="alt_name" v="Storskardbukta" />
		<tag k="name" v="Storskarbukta" />
		<tag k="natural" v="bay" />
		<tag k="ssr:stedsnr" v="334462" />
	</node>
	<node id="-8815" lat="62.7121944432" lon="7.6142472258">
		<tag k="name" v="Horsgorsjøen" />
		<tag k="natural" v="beach" />
		<tag k="place" v="locality" />
		<tag k="ssr:stedsnr" v="334451" />
	</node>
	<node id="-6765" lat="62.7345499978" lon="6.78583054706">
		<tag k="name" v="Rørsetholmen" />
		<tag k="place" v="islet" />
		<tag k="ssr:stedsnr" v="678129" />
	</node>
	<node id="-6763" lat="62.7456055586" lon="6.86790556455">
		<tag k="alt_name" v="Litleholmen" />
		<tag k="name" v="Bendsetholmen" />
		<tag k="place" v="islet" />
		<tag k="ssr:stedsnr" v="678106" />
	</node>
	<node id="-8810" lat="62.6920750029" lon="6.86230833289">
		<tag k="name" v="Bogen" />
		<tag k="natural" v="bay" />
		<tag k="ssr:stedsnr" v="334252" />
	</node>
	<node id="-8806" lat="62.7122194443" lon="6.65403610772">
		<tag k="name" v="Neset" />
		<tag k="natural" v="cape" />
		<tag k="ssr:stedsnr" v="333850" />
	</node>
	<node id="-6246" lat="62.6656666673" lon="6.70180277109">
		<tag k="name" v="Juvikneset" />
		<tag k="natural" v="cape" />
		<tag k="ssr:stedsnr" v="506065" />
	</node>
	<node id="-8802" lat="62.679547218" lon="6.59288054969">
		<tag k="name" v="Trollvika" />
		<tag k="natural" v="bay" />
		<tag k="ssr:stedsnr" v="333398" />
	</node>
	<node id="-8798" lat="62.673447223" lon="6.66297499491">
		<tag k="name" v="Midsundholmen" />
		<tag k="place" v="islet" />
		<tag k="ssr:stedsnr" v="333328" />
	</node>
	<node id="-8796" lat="62.6538611107" lon="6.55319445331">
		<tag k="name" v="Vardneset" />
		<tag k="natural" v="cape" />
		<tag k="ssr:stedsnr" v="333197" />
	</node>
	<node id="-8795" lat="62.6651222213" lon="6.57527499582">
		<tag k="fixme" v="consider seamark:type=rock or natural=shoal" />
		<tag k="name" v="Moldskjeret" />
		<tag k="place" v="islet" />
		<tag k="ssr:stedsnr" v="333186" />
	</node>
	<node id="-6746" lat="62.6687916643" lon="6.87141388956">
		<tag k="name" v="Holmesundet" />
		<tag k="natural" v="strait" />
		<tag k="ssr:stedsnr" v="880496" />
	</node>
	<node id="-5903" lat="62.7498111075" lon="7.42932500732">
		<tag k="name" v="Brokstadbukta" />
		<tag k="natural" v="bay" />
		<tag k="ssr:stedsnr" v="338827" />
	</node>
	<node id="-8792" lat="62.6786611078" lon="6.75549443739">
		<tag k="name" v="Stokkvika" />
		<tag k="natural" v="bay" />
		<tag k="ssr:stedsnr" v="333296" />
	</node>
	<node id="-6742" lat="62.6711305599" lon="6.89163888253">
		<tag k="name" v="Mjukebertleira" />
		<tag k="natural" v="beach" />
		<tag k="place" v="locality" />
		<tag k="ssr:stedsnr" v="880371" />
	</node>
	<node id="-6736" lat="62.6851194475" lon="6.79748889293">
		<tag k="name" v="Pina" />
		<tag k="place" v="islet" />
		<tag k="ssr:stedsnr" v="880268" />
	</node>
	<node id="-6733" lat="62.677483331" lon="6.74871389217">
		<tag k="alt_name" v="Klausetbukta" />
		<tag k="name" v="Orebukta" />
		<tag k="natural" v="bay" />
		<tag k="ssr:stedsnr" v="880244" />
	</node>
	<node id="-6730" lat="62.6548590701" lon="6.56389919566">
		<tag k="alt_name" v="Kuskjæret" />
		<tag k="fixme" v="consider seamark:type=rock or natural=shoal" />
		<tag k="name" v="Kuskjeret" />
		<tag k="place" v="islet" />
		<tag k="ssr:stedsnr" v="880166" />
	</node>
	<node id="-6729" lat="62.6662166682" lon="6.58017222888">
		<tag k="name" v="Storvika" />
		<tag k="natural" v="bay" />
		<tag k="ssr:stedsnr" v="880162" />
	</node>
	<node id="-10823" lat="62.7339109635" lon="6.7251318937">
		<tag k="name" v="Sandvika" />
		<tag k="natural" v="bay" />
		<tag k="ssr:stedsnr" v="985855" />
	</node>
	<node id="-6725" lat="62.6704583375" lon="6.66722778208">
		<tag k="name" v="Geitapina" />
		<tag k="natural" v="cape" />
		<tag k="ssr:stedsnr" v="880016" />
	</node>
	<node id="-8772" lat="62.7527888914" lon="6.8909888851">
		<tag k="name" v="Kyrholmen" />
		<tag k="place" v="islet" />
		<tag k="ssr:stedsnr" v="315886" />
	</node>
	<node id="-8770" lat="62.6755833343" lon="6.67445556462">
		<tag k="name" v="Midsundbukta" />
		<tag k="natural" v="bay" />
		<tag k="ssr:stedsnr" v="315944" />
	</node>
	<node id="-6721" lat="62.7387083369" lon="6.69467222206">
		<tag k="name" v="Hånetholmen" />
		<tag k="place" v="islet" />
		<tag k="ssr:stedsnr" v="879158" />
	</node>
	<node id="-6719" lat="62.7273805535" lon="6.68318333032">
		<tag k="fixme" v="consider seamark:type=rock or natural=shoal" />
		<tag k="name" v="Kuskjeret" />
		<tag k="place" v="islet" />
		<tag k="ssr:stedsnr" v="879048" />
	</node>
	<node id="-5557" lat="62.6738750033" lon="6.59553055281">
		<tag k="name" v="Stordalsfjøra" />
		<tag k="natural" v="beach" />
		<tag k="place" v="locality" />
		<tag k="ssr:stedsnr" v="455124" />
	</node>
	<node id="-8762" lat="62.7138944468" lon="7.22907777056">
		<tag k="name" v="Islandsvågen" />
		<tag k="natural" v="bay" />
		<tag k="ssr:stedsnr" v="315785" />
	</node>
	<node id="-6713" lat="62.7166861146" lon="7.40665555792">
		<tag k="name" v="Flua" />
		<tag k="natural" v="shoal" />
		<tag k="place" v="locality" />
		<tag k="ssr:stedsnr" v="657862" />
	</node>
	<node id="-8759" lat="62.7151222191" lon="7.6313194503">
		<tag k="name" v="Gammelstøneset" />
		<tag k="natural" v="cape" />
		<tag k="ssr:stedsnr" v="315698" />
	</node>
	<node id="-7945" lat="62.7480249977" lon="8.01138056474">
		<tag k="name" v="Egga" />
		<tag k="place" v="locality" />
		<tag k="ssr:stedsnr" v="37091" />
	</node>
	<node id="-8755" lat="62.7654388856" lon="7.95892499744">
		<tag k="name" v="Skaget" />
		<tag k="natural" v="cape" />
		<tag k="ssr:stedsnr" v="315580" />
	</node>
	<node id="-6701" lat="62.6975333367" lon="6.62549722077">
		<tag k="name" v="Åtleggstøa" />
		<tag k="natural" v="beach" />
		<tag k="place" v="locality" />
		<tag k="ssr:stedsnr" v="636855" />
	</node>
	<node id="-6578" lat="62.7301472195" lon="6.99036111549">
		<tag k="name" v="Mordalsvågen" />
		<tag k="natural" v="bay" />
		<tag k="ssr:stedsnr" v="580464" />
	</node>
	<node id="-6696" lat="62.6814972241" lon="6.65648332888">
		<tag k="name" v="Torveneset" />
		<tag k="natural" v="cape" />
		<tag k="ssr:stedsnr" v="636306" />
	</node>
	<node id="-6695" lat="62.7396083326" lon="6.71927778705">
		<tag k="name" v="Kjelsvika" />
		<tag k="natural" v="bay" />
		<tag k="ssr:stedsnr" v="636168" />
	</node>
	<node id="-6694" lat="62.6807250008" lon="6.77467500411">
		<tag k="name" v="Naustberget" />
		<tag k="natural" v="cape" />
		<tag k="ssr:stedsnr" v="636265" />
	</node>
	<node id="-6690" lat="62.724841664" lon="6.99066945162">
		<tag k="name" v="Prestvika" />
		<tag k="natural" v="bay" />
		<tag k="ssr:stedsnr" v="633704" />
	</node>
	<node id="-5211" lat="62.7378027738" lon="7.30708333437">
		<tag k="fixme" v="consider seamark:type=rock or natural=shoal" />
		<tag k="name" v="Inste Skjeret" />
		<tag k="place" v="islet" />
		<tag k="ssr:stedsnr" v="277630" />
	</node>
	<node id="-6680" lat="62.7156638923" lon="7.22334165889">
		<tag k="name" v="Klaveråsa" />
		<tag k="place" v="locality" />
		<tag k="ssr:stedsnr" v="725851" />
	</node>
	<node id="-6233" lat="62.7283254912" lon="7.10935190311">
		<tag k="bay" v="fjord" />
		<tag k="name" v="Moldefjorden" />
		<tag k="natural" v="bay" />
		<tag k="ssr:stedsnr" v="497264" />
	</node>
	<node id="-6676" lat="62.708130552" lon="6.66020276923">
		<tag k="name" v="Kvaløya" />
		<tag k="place" v="island" />
		<tag k="ssr:stedsnr" v="618902" />
	</node>
	<node id="-8720" lat="62.7388222213" lon="6.69471666473">
		<tag k="name" v="Honitholmen" />
		<tag k="place" v="islet" />
		<tag k="ssr:stedsnr" v="314831" />
	</node>
	<node id="-8718" lat="62.7234101226" lon="7.27527225636">
		<tag k="alt_name" v="Måsholmen, l" />
		<tag k="name" v="Litle Måsholmen" />
		<tag k="place" v="islet" />
		<tag k="ssr:stedsnr" v="314751" />
	</node>
	<node id="-10762" lat="62.7940305534" lon="8.2840750017">
		<tag k="name" v="Meløya" />
		<tag k="place" v="islet" />
		<tag k="ssr:stedsnr" v="862399" />
	</node>
	<node id="-10757" lat="62.6797555569" lon="6.66351944868">
		<tag k="name" v="Breivika" />
		<tag k="natural" v="bay" />
		<tag k="ssr:stedsnr" v="861983" />
	</node>
	<node id="-10756" lat="62.678397221" lon="6.66391666628">
		<tag k="name" v="Stuttneset" />
		<tag k="natural" v="cape" />
		<tag k="ssr:stedsnr" v="861982" />
	</node>
	<node id="-7254" lat="62.6990499967" lon="6.63392500905">
		<tag k="name" v="Stranda" />
		<tag k="natural" v="beach" />
		<tag k="place" v="locality" />
		<tag k="ssr:stedsnr" v="819870" />
	</node>
	<node id="-6654" lat="62.7319916693" lon="8.02114722696">
		<tag k="name" v="Skjelbekkneset" />
		<tag k="natural" v="cape" />
		<tag k="ssr:stedsnr" v="719494" />
	</node>
	<node id="-6652" lat="62.7413666693" lon="7.31951389134">
		<tag k="name" v="Gulhaugflua" />
		<tag k="natural" v="shoal" />
		<tag k="place" v="locality" />
		<tag k="ssr:stedsnr" v="718891" />
	</node>
	<node id="-6651" lat="62.7153250015" lon="7.39734166951">
		<tag k="name" v="Ranesgrunnen" />
		<tag k="natural" v="shoal" />
		<tag k="place" v="locality" />
		<tag k="ssr:stedsnr" v="718889" />
	</node>
	<node id="-6650" lat="62.727869448" lon="6.68930832976">
		<tag k="name" v="Ålesundsleira" />
		<tag k="natural" v="shoal" />
		<tag k="place" v="locality" />
		<tag k="ssr:stedsnr" v="718815" />
	</node>
	<node id="-8697" lat="62.7538555516" lon="6.89530833657">
		<tag k="name" v="Litle Kyrholmen" />
		<tag k="place" v="islet" />
		<tag k="ssr:stedsnr" v="212740" />
	</node>
	<node id="-6648" lat="62.6724611086" lon="6.87192223056">
		<tag k="name" v="Storbrauta" />
		<tag k="place" v="locality" />
		<tag k="ssr:stedsnr" v="718727" />
	</node>
	<node id="-8695" lat="62.7117416632" lon="6.68941943954">
		<tag k="name" v="Risvika" />
		<tag k="natural" v="bay" />
		<tag k="ssr:stedsnr" v="212588" />
	</node>
	<node id="-10742" lat="62.7271333314" lon="7.2387722128">
		<tag k="name" v="Gåsøyvalen" />
		<tag k="natural" v="bay" />
		<tag k="ssr:stedsnr" v="861736" />
	</node>
	<node id="-8693" lat="62.7060666713" lon="6.93066945019">
		<tag k="name" v="Grønlandsneset" />
		<tag k="natural" v="cape" />
		<tag k="ssr:stedsnr" v="212572" />
	</node>
	<node id="-8688" lat="62.6698305538" lon="6.87179444615">
		<tag k="name" v="Kråa" />
		<tag k="natural" v="bay" />
		<tag k="ssr:stedsnr" v="212498" />
	</node>
	<node id="-8685" lat="62.6864333371" lon="6.65795000052">
		<tag k="alt_name" v="Selvikneset" />
		<tag k="name" v="Digerneset" />
		<tag k="natural" v="cape" />
		<tag k="ssr:stedsnr" v="212288" />
	</node>
	<node id="-8684" lat="62.6806333302" lon="6.63983333325">
		<tag k="name" v="Fetabukta" />
		<tag k="natural" v="bay" />
		<tag k="ssr:stedsnr" v="212283" />
	</node>
	<node id="-8681" lat="62.7379416629" lon="6.7280055623">
		<tag k="name" v="Buaneset" />
		<tag k="natural" v="cape" />
		<tag k="ssr:stedsnr" v="212049" />
	</node>
	<node id="-8680" lat="62.73594167" lon="6.73328055837">
		<tag k="fixme" v="consider seamark:type=rock or natural=shoal" />
		<tag k="name" v="Svartskjeret" />
		<tag k="place" v="islet" />
		<tag k="ssr:stedsnr" v="212047" />
	</node>
	<node id="-9259" lat="62.7527249988" lon="7.83481667275">
		<tag k="fixme" v="consider seamark:type=rock or natural=shoal" />
		<tag k="name" v="Kyrkjebåten" />
		<tag k="place" v="islet" />
		<tag k="ssr:stedsnr" v="401599" />
	</node>
	<node id="-4960" lat="62.7086916626" lon="6.6842722236">
		<tag k="name" v="Brandholmen" />
		<tag k="place" v="islet" />
		<tag k="ssr:stedsnr" v="72903" />
	</node>
	<node id="-5200" lat="62.727169441" lon="7.26809444483">
		<tag k="name" v="Bollen" />
		<tag k="natural" v="cape" />
		<tag k="ssr:stedsnr" v="277279" />
	</node>
	<node id="-7313" lat="62.7412777812" lon="6.71335000015">
		<tag k="fixme" v="consider seamark:type=rock or natural=shoal" />
		<tag k="name" v="Vålongskjeret" />
		<tag k="place" v="islet" />
		<tag k="ssr:stedsnr" v="940166" />
	</node>
	<node id="-6618" lat="62.7320916675" lon="8.10165555324">
		<tag k="name" v="Eikjeberget" />
		<tag k="natural" v="cape" />
		<tag k="ssr:stedsnr" v="583495" />
	</node>
	<node id="-6615" lat="62.7678944462" lon="7.9818777774">
		<tag k="name" v="Jevikbukta" />
		<tag k="natural" v="bay" />
		<tag k="ssr:stedsnr" v="583459" />
	</node>
	<node id="-6905" lat="62.7369944434" lon="8.08118889024">
		<tag k="name" v="Vikan" />
		<tag k="natural" v="bay" />
		<tag k="ssr:stedsnr" v="887742" />
	</node>
	<node id="-10708" lat="62.7888611127" lon="8.32847500554">
		<tag k="bay" v="fjord" />
		<tag k="name" v="Sunndalsfjorden" />
		<tag k="natural" v="bay" />
		<tag k="ssr:stedsnr" v="861179" />
	</node>
	<node id="-8657" lat="62.6989444427" lon="6.69422776882">
		<tag k="name" v="Evjeneset" />
		<tag k="natural" v="cape" />
		<tag k="ssr:stedsnr" v="194899" />
	</node>
	<node id="-8656" lat="62.7000277751" lon="6.63861388868">
		<tag k="name" v="Vølveita" />
		<tag k="natural" v="strait" />
		<tag k="ssr:stedsnr" v="194894" />
	</node>
	<node id="-8655" lat="62.6882194452" lon="6.60048611738">
		<tag k="name" v="Hamnholmen" />
		<tag k="place" v="islet" />
		<tag k="ssr:stedsnr" v="194875" />
	</node>
	<node id="-10698" lat="62.7140694467" lon="7.24651388842">
		<tag k="name" v="Midtbukta" />
		<tag k="natural" v="bay" />
		<tag k="ssr:stedsnr" v="847868" />
	</node>
	<node id="-10694" lat="62.7394750017" lon="6.96914445331">
		<tag k="name" v="Gausetflua" />
		<tag k="natural" v="shoal" />
		<tag k="place" v="locality" />
		<tag k="ssr:stedsnr" v="840133" />
	</node>
	<node id="-6596" lat="62.7238694487" lon="8.03832222677">
		<tag k="alt_name" v="Urdvikan" />
		<tag k="name" v="Orvikan" />
		<tag k="natural" v="bay" />
		<tag k="ssr:stedsnr" v="583073" />
	</node>
	<node id="-10691" lat="62.7405083301" lon="8.00069722986">
		<tag k="name" v="Hissurbukta" />
		<tag k="natural" v="bay" />
		<tag k="ssr:stedsnr" v="827965" />
	</node>
	<node id="-5195" lat="62.6767388874" lon="7.43342776916">
		<tag k="name" v="Grønvika" />
		<tag k="natural" v="bay" />
		<tag k="ssr:stedsnr" v="277198" />
	</node>
	<node id="-6590" lat="62.6765416649" lon="7.25721110214">
		<tag k="name" v="Kvernavika" />
		<tag k="natural" v="bay" />
		<tag k="ssr:stedsnr" v="580939" />
	</node>
	<node id="-10681" lat="62.7141833354" lon="8.0684361204">
		<tag k="name" v="Hundkroken" />
		<tag k="natural" v="bay" />
		<tag k="ssr:stedsnr" v="827849" />
	</node>
	<node id="-6579" lat="62.7267805599" lon="7.02420555823">
		<tag k="name" v="Supabenken" />
		<tag k="natural" v="cape" />
		<tag k="ssr:stedsnr" v="580465" />
	</node>
	<node id="-8626" lat="62.7359583293" lon="7.3520722209">
		<tag k="name" v="Bolsøysundet" />
		<tag k="natural" v="strait" />
		<tag k="ssr:stedsnr" v="193743" />
	</node>
	<node id="-6577" lat="62.7264888888" lon="6.98272221695">
		<tag k="name" v="Steinvika" />
		<tag k="natural" v="bay" />
		<tag k="ssr:stedsnr" v="580453" />
	</node>
	<node id="-8618" lat="62.7636416653" lon="8.03153334129">
		<tag k="name" v="Eidsvågen" />
		<tag k="natural" v="bay" />
		<tag k="ssr:stedsnr" v="193622" />
	</node>
	<node id="-10663" lat="62.7684694437" lon="7.99166945123">
		<tag k="name" v="Kvitberget" />
		<tag k="natural" v="cape" />
		<tag k="ssr:stedsnr" v="827491" />
	</node>
	<node id="-10662" lat="62.7655500026" lon="7.96518055566">
		<tag k="name" v="Bonholmen" />
		<tag k="place" v="islet" />
		<tag k="ssr:stedsnr" v="827489" />
	</node>
	<node id="-9055" lat="62.7012388921" lon="6.6077805498">
		<tag k="fixme" v="consider seamark:type=rock or natural=shoal" />
		<tag k="name" v="Søre Skjæret" />
		<tag k="place" v="islet" />
		<tag k="ssr:stedsnr" v="375889" />
	</node>
	<node id="-10657" lat="62.7705083355" lon="8.01640833202">
		<tag k="name" v="Ottabukta" />
		<tag k="natural" v="bay" />
		<tag k="ssr:stedsnr" v="827449" />
	</node>
	<node id="-10655" lat="62.7723388922" lon="8.06074722554">
		<tag k="name" v="Eidsvågleira" />
		<tag k="natural" v="beach" />
		<tag k="place" v="locality" />
		<tag k="ssr:stedsnr" v="827443" />
	</node>
	<node id="-6558" lat="62.7029833325" lon="6.9141472306">
		<tag k="name" v="Reitabukta" />
		<tag k="natural" v="bay" />
		<tag k="ssr:stedsnr" v="577726" />
	</node>
	<node id="-6556" lat="62.7541027796" lon="6.86394166977">
		<tag k="fixme" v="consider seamark:type=rock or natural=shoal" />
		<tag k="name" v="Tobiasflua" />
		<tag k="place" v="islet" />
		<tag k="ssr:stedsnr" v="576525" />
	</node>
	<node id="-10651" lat="62.7934916705" lon="8.21680278159">
		<tag k="name" v="Svensligrunna" />
		<tag k="place" v="locality" />
		<tag k="ssr:stedsnr" v="827391" />
	</node>
	<node id="-6895" lat="62.7387666634" lon="8.0503166601">
		<tag k="name" v="Størkafjøra" />
		<tag k="natural" v="beach" />
		<tag k="place" v="locality" />
		<tag k="ssr:stedsnr" v="887517" />
	</node>
	<node id="-8600" lat="62.7403083332" lon="6.73259999873">
		<tag k="alt_name" v="Oterskjeret" />
		<tag k="fixme" v="consider seamark:type=rock or natural=shoal" />
		<tag k="name" v="Oterskjæret" />
		<tag k="place" v="islet" />
		<tag k="ssr:stedsnr" v="193093" />
	</node>
	<node id="-8599" lat="62.7254527822" lon="7.14247777141">
		<tag k="name" v="Reknesholmen" />
		<tag k="place" v="islet" />
		<tag k="ssr:stedsnr" v="193085" />
	</node>
	<node id="-6550" lat="62.7384388901" lon="6.74131944526">
		<tag k="alt_name" v="Kleppskjeret" />
		<tag k="fixme" v="consider seamark:type=rock or natural=shoal" />
		<tag k="name" v="Kleppskjæret" />
		<tag k="place" v="islet" />
		<tag k="ssr:stedsnr" v="576054" />
	</node>
	<node id="-8597" lat="62.7350111103" lon="6.96841389092">
		<tag k="name" v="Julholmen" />
		<tag k="natural" v="cape" />
		<tag k="ssr:stedsnr" v="193071" />
	</node>
	<node id="-8594" lat="62.6671416636" lon="6.86763610281">
		<tag k="fixme" v="multiple name tags, choose one and add the other to alt_name" />
		<tag k="name" v="Futholmen;Løholmen" />
		<tag k="place" v="islet" />
		<tag k="ssr:stedsnr" v="193060" />
	</node>
	<node id="-10652" lat="62.7949694464" lon="8.20853611444">
		<tag k="name" v="Vikabukta" />
		<tag k="natural" v="bay" />
		<tag k="ssr:stedsnr" v="827394" />
	</node>
	<node id="-8590" lat="62.6450444422" lon="6.51448054721">
		<tag k="name" v="Eiremsgrunna" />
		<tag k="natural" v="shoal" />
		<tag k="place" v="locality" />
		<tag k="ssr:stedsnr" v="172900" />
	</node>
	<node id="-8589" lat="62.7816833337" lon="7.64553888131">
		<tag k="name" v="Ullalandsgrunna" />
		<tag k="natural" v="shoal" />
		<tag k="place" v="locality" />
		<tag k="ssr:stedsnr" v="172867" />
	</node>
	<node id="-8588" lat="62.7427777764" lon="8.04539166717">
		<tag k="name" v="Bleinesbukta" />
		<tag k="natural" v="bay" />
		<tag k="ssr:stedsnr" v="172821" />
	</node>
	<node id="-8587" lat="62.7335500029" lon="6.74611666372">
		<tag k="name" v="Hellerflua" />
		<tag k="natural" v="shoal" />
		<tag k="place" v="locality" />
		<tag k="ssr:stedsnr" v="172139" />
	</node>
	<node id="-10634" lat="62.7320388865" lon="7.82931389288">
		<tag k="fixme" v="consider seamark:type=rock or natural=shoal" />
		<tag k="name" v="Smedneset" />
		<tag k="place" v="islet" />
		<tag k="ssr:stedsnr" v="826889" />
	</node>
	<node id="-8585" lat="62.7388499957" lon="6.71063056143">
		<tag k="name" v="Kjellsvika" />
		<tag k="natural" v="bay" />
		<tag k="ssr:stedsnr" v="172134" />
	</node>
	<node id="-8584" lat="62.7493055514" lon="6.92834722735">
		<tag k="name" v="Geitskinnflua" />
		<tag k="natural" v="shoal" />
		<tag k="place" v="locality" />
		<tag k="ssr:stedsnr" v="172127" />
	</node>
	<node id="-8583" lat="62.661136108" lon="6.83476110511">
		<tag k="name" v="Håskjærflua" />
		<tag k="natural" v="shoal" />
		<tag k="place" v="locality" />
		<tag k="ssr:stedsnr" v="171760" />
	</node>
	<node id="-10629" lat="62.7468611113" lon="8.0289944421">
		<tag k="name" v="Oterhola" />
		<tag k="natural" v="bay" />
		<tag k="ssr:stedsnr" v="826739" />
	</node>
	<node id="-8742" lat="62.7839638845" lon="8.31203332755">
		<tag k="name" v="Ballsneset" />
		<tag k="natural" v="cape" />
		<tag k="ssr:stedsnr" v="315374" />
	</node>
	<node id="-6525" lat="62.7436472231" lon="7.94919721272">
		<tag k="name" v="Hammarbukta" />
		<tag k="natural" v="bay" />
		<tag k="ssr:stedsnr" v="705829" />
	</node>
	<node id="-5183" lat="62.6594333306" lon="7.23227221958">
		<tag k="alt_name" v="Skogvika" />
		<tag k="name" v="Skovika" />
		<tag k="natural" v="bay" />
		<tag k="ssr:stedsnr" v="277142" />
	</node>
	<node id="-6519" lat="62.7416055518" lon="8.04763055418">
		<tag k="name" v="Bogen" />
		<tag k="natural" v="bay" />
		<tag k="ssr:stedsnr" v="705797" />
	</node>
	<node id="-10613" lat="62.7804305598" lon="8.2848555499">
		<tag k="name" v="Skrøbukta" />
		<tag k="natural" v="bay" />
		<tag k="ssr:stedsnr" v="826525" />
	</node>
	<node id="-10612" lat="62.7295194424" lon="7.70914722405">
		<tag k="name" v="Sandvikneset" />
		<tag k="natural" v="cape" />
		<tag k="ssr:stedsnr" v="826514" />
	</node>
	<node id="-8559" lat="62.7606388896" lon="7.86357776855">
		<tag k="name" v="Helgevika" />
		<tag k="natural" v="bay" />
		<tag k="ssr:stedsnr" v="159648" />
	</node>
	<node id="-8556" lat="62.7354416696" lon="7.74534166493">
		<tag k="name" v="Trollbrua" />
		<tag k="natural" v="cape" />
		<tag k="ssr:stedsnr" v="159597" />
	</node>
	<node id="-10601" lat="62.7377222199" lon="7.9310027762">
		<tag k="name" v="Neset" />
		<tag k="natural" v="cape" />
		<tag k="ssr:stedsnr" v="826110" />
	</node>
	<node id="-10600" lat="62.7044138922" lon="8.0989750034">
		<tag k="name" v="Sandvika" />
		<tag k="natural" v="bay" />
		<tag k="ssr:stedsnr" v="826085" />
	</node>
	<node id="-5521" lat="62.737186107" lon="7.92633889879">
		<tag k="name" v="Vistdalsholmen" />
		<tag k="place" v="islet" />
		<tag k="ssr:stedsnr" v="254457" />
	</node>
	<node id="-4922" lat="62.7243999998" lon="7.92244999938">
		<tag k="name" v="Leirneset" />
		<tag k="natural" v="cape" />
		<tag k="ssr:stedsnr" v="37970" />
	</node>
	<node id="-6495" lat="62.7370305599" lon="8.05758610708">
		<tag k="name" v="Leirholet" />
		<tag k="natural" v="bay" />
		<tag k="ssr:stedsnr" v="705568" />
	</node>
	<node id="-10589" lat="62.6795388896" lon="7.28524445309">
		<tag k="name" v="Storvikbukta" />
		<tag k="natural" v="bay" />
		<tag k="ssr:stedsnr" v="824958" />
	</node>
	<node id="-10587" lat="62.7471333349" lon="7.38063055033">
		<tag k="alt_name" v="Austre Grønnesfluin" />
		<tag k="name" v="Grønnesfluin" />
		<tag k="place" v="locality" />
		<tag k="seamark:type" v="rock" />
		<tag k="ssr:stedsnr" v="824945" />
	</node>
	<node id="-8591" lat="62.7464472184" lon="7.37746667333">
		<tag k="name" v="Vestre Grønnesfluin" />
		<tag k="natural" v="shoal" />
		<tag k="place" v="locality" />
		<tag k="ssr:stedsnr" v="172908" />
	</node>
	<node id="-5918" lat="62.7094249976" lon="6.93802222697">
		<tag k="name" v="Heggeneset" />
		<tag k="natural" v="cape" />
		<tag k="ssr:stedsnr" v="496039" />
	</node>
	<node id="-10583" lat="62.7336555514" lon="7.34291388388">
		<tag k="name" v="Tingneset" />
		<tag k="natural" v="cape" />
		<tag k="ssr:stedsnr" v="824936" />
	</node>
	<node id="-8534" lat="62.7647722226" lon="8.04539444931">
		<tag k="name" v="Moddsteinen" />
		<tag k="place" v="locality" />
		<tag k="ssr:stedsnr" v="159451" />
	</node>
	<node id="-8533" lat="62.7567611124" lon="8.02020834005">
		<tag k="name" v="Prestneset" />
		<tag k="natural" v="cape" />
		<tag k="ssr:stedsnr" v="159436" />
	</node>
	<node id="-6481" lat="62.7509000012" lon="8.01826667222">
		<tag k="fixme" v="consider seamark:type=rock or natural=shoal" />
		<tag k="name" v="Langskjæret" />
		<tag k="place" v="islet" />
		<tag k="ssr:stedsnr" v="705452" />
	</node>
	<node id="-5808" lat="62.7300083304" lon="8.035172216">
		<tag k="name" v="Ernesgrunna" />
		<tag k="natural" v="shoal" />
		<tag k="place" v="locality" />
		<tag k="ssr:stedsnr" v="462811" />
	</node>
	<node id="-8527" lat="62.7151972205" lon="8.13005555641">
		<tag k="name" v="Kuhellarneset" />
		<tag k="natural" v="cape" />
		<tag k="ssr:stedsnr" v="159533" />
	</node>
	<node id="-6476" lat="62.7994472216" lon="8.18850278304">
		<tag k="name" v="Myraløbukta" />
		<tag k="natural" v="bay" />
		<tag k="ssr:stedsnr" v="705293" />
	</node>
	<node id="-5858" lat="62.7865611114" lon="7.66726944837">
		<tag k="name" v="Langneset" />
		<tag k="natural" v="cape" />
		<tag k="ssr:stedsnr" v="475835" />
	</node>
	<node id="-8519" lat="62.734655555" lon="7.8778750036">
		<tag k="name" v="Sandnesbukta" />
		<tag k="natural" v="bay" />
		<tag k="ssr:stedsnr" v="158947" />
	</node>
	<node id="-10566" lat="62.66852778" lon="7.41196666449">
		<tag k="name" v="Litlesandvika" />
		<tag k="natural" v="bay" />
		<tag k="ssr:stedsnr" v="824625" />
	</node>
	<node id="-5857" lat="62.6968250046" lon="6.62375834069">
		<tag k="name" v="Åtlegget" />
		<tag k="natural" v="cape" />
		<tag k="ssr:stedsnr" v="475683" />
	</node>
	<node id="-10564" lat="62.7425666626" lon="6.98882778455">
		<tag k="name" v="Matholet" />
		<tag k="natural" v="bay" />
		<tag k="ssr:stedsnr" v="824695" />
	</node>
	<node id="-10563" lat="62.7281722187" lon="7.03766389683">
		<tag k="name" v="Sagneset" />
		<tag k="natural" v="cape" />
		<tag k="ssr:stedsnr" v="824690" />
	</node>
	<node id="-6463" lat="62.7141472194" lon="8.06948333796">
		<tag k="name" v="Bytneset" />
		<tag k="natural" v="cape" />
		<tag k="ssr:stedsnr" v="705082" />
	</node>
	<node id="-5671" lat="62.6913222268" lon="7.39840278434">
		<tag k="name" v="Kjerringneset" />
		<tag k="natural" v="cape" />
		<tag k="ssr:stedsnr" v="459619" />
	</node>
	<node id="-7221" lat="62.7395250026" lon="6.70977500782">
		<tag k="name" v="Myrbærneset" />
		<tag k="natural" v="cape" />
		<tag k="ssr:stedsnr" v="800812" />
	</node>
	<node id="-6454" lat="62.8031944414" lon="8.1761833374">
		<tag k="name" v="Ørabukta" />
		<tag k="natural" v="bay" />
		<tag k="ssr:stedsnr" v="704681" />
	</node>
	<node id="-5854" lat="62.714158331" lon="7.19128056502">
		<tag k="name" v="Ramsøyflua" />
		<tag k="natural" v="shoal" />
		<tag k="place" v="locality" />
		<tag k="ssr:stedsnr" v="475139" />
	</node>
	<node id="-6448" lat="62.7842805593" lon="8.29169445237">
		<tag k="name" v="Maliholet" />
		<tag k="natural" v="bay" />
		<tag k="ssr:stedsnr" v="704256" />
	</node>
	<node id="-6442" lat="62.6902527744" lon="7.37201944808">
		<tag k="name" v="Naustneset" />
		<tag k="natural" v="cape" />
		<tag k="ssr:stedsnr" v="702912" />
	</node>
	<node id="-7307" lat="62.7588694469" lon="8.01259999024">
		<tag k="name" v="Prestgrunna" />
		<tag k="natural" v="shoal" />
		<tag k="place" v="locality" />
		<tag k="ssr:stedsnr" v="840704" />
	</node>
	<node id="-6440" lat="62.725508329" lon="7.29605277175">
		<tag k="name" v="Dragvågen" />
		<tag k="natural" v="bay" />
		<tag k="ssr:stedsnr" v="702890" />
	</node>
	<node id="-6439" lat="62.7492527776" lon="7.28882222421">
		<tag k="name" v="Årønesbukta" />
		<tag k="natural" v="bay" />
		<tag k="ssr:stedsnr" v="702888" />
	</node>
	<node id="-8485" lat="62.6788749995" lon="7.26090000715">
		<tag k="name" v="Steinbukta" />
		<tag k="natural" v="bay" />
		<tag k="ssr:stedsnr" v="156952" />
	</node>
	<node id="-6432" lat="62.7006638893" lon="7.5629611054">
		<tag k="name" v="Neråkerneset" />
		<tag k="natural" v="cape" />
		<tag k="ssr:stedsnr" v="702723" />
	</node>
	<node id="-6431" lat="62.7060055518" lon="7.19056666702">
		<tag k="name" v="Forøytangen" />
		<tag k="natural" v="cape" />
		<tag k="ssr:stedsnr" v="702686" />
	</node>
	<node id="-8475" lat="62.7178138896" lon="7.4185583274">
		<tag k="name" v="Hegervika" />
		<tag k="natural" v="bay" />
		<tag k="ssr:stedsnr" v="156870" />
	</node>
	<node id="-6424" lat="62.7324222222" lon="7.09205554786">
		<tag k="name" v="Valen" />
		<tag k="place" v="islet" />
		<tag k="ssr:stedsnr" v="702648" />
	</node>
	<node id="-10519" lat="62.6987027805" lon="6.8996249942">
		<tag k="name" v="Tauterberget" />
		<tag k="natural" v="cape" />
		<tag k="ssr:stedsnr" v="820701" />
	</node>
	<node id="-5849" lat="62.707816663" lon="6.68557499338">
		<tag k="name" v="Hamnaneset" />
		<tag k="natural" v="cape" />
		<tag k="ssr:stedsnr" v="315915" />
	</node>
	<node id="-8465" lat="62.7827416689" lon="7.69627222198">
		<tag k="name" v="Saltbøbukta" />
		<tag k="natural" v="bay" />
		<tag k="ssr:stedsnr" v="156775" />
	</node>
	<node id="-6416" lat="62.7196305512" lon="7.17638610442">
		<tag k="name" v="Litle Hjertøya" />
		<tag k="place" v="island" />
		<tag k="ssr:stedsnr" v="702446" />
	</node>
	<node id="-6415" lat="62.7328527803" lon="6.98138611922">
		<tag k="name" v="Hatlevika" />
		<tag k="natural" v="bay" />
		<tag k="ssr:stedsnr" v="702485" />
	</node>
	<node id="-5165" lat="62.7183083339" lon="6.93611111285">
		<tag k="name" v="Ytste Kjeberget" />
		<tag k="natural" v="cape" />
		<tag k="ssr:stedsnr" v="273517" />
	</node>
	<node id="-10508" lat="62.6929638867" lon="6.60794723172">
		<tag k="fixme" v="consider seamark:type=rock or natural=shoal" />
		<tag k="name" v="Kjelsvikskjeret" />
		<tag k="place" v="islet" />
		<tag k="ssr:stedsnr" v="819402" />
	</node>
	<node id="-10507" lat="62.6821805519" lon="6.59859166892">
		<tag k="name" v="Trollholmen" />
		<tag k="place" v="islet" />
		<tag k="ssr:stedsnr" v="819401" />
	</node>
	<node id="-10506" lat="62.6666527736" lon="6.8703611034">
		<tag k="name" v="Løbukta" />
		<tag k="natural" v="bay" />
		<tag k="ssr:stedsnr" v="819510" />
	</node>
	<node id="-10503" lat="62.6942027819" lon="6.61457221932">
		<tag k="name" v="Tynnevika" />
		<tag k="natural" v="bay" />
		<tag k="ssr:stedsnr" v="819334" />
	</node>
	<node id="-10501" lat="62.6880388897" lon="6.66221943689">
		<tag k="name" v="Litleselvika" />
		<tag k="natural" v="bay" />
		<tag k="ssr:stedsnr" v="819316" />
	</node>
	<node id="-10500" lat="62.6842666642" lon="6.7995583257">
		<tag k="name" v="Forneset" />
		<tag k="natural" v="cape" />
		<tag k="ssr:stedsnr" v="819297" />
	</node>
	<node id="-10499" lat="62.6856166682" lon="6.81886389795">
		<tag k="name" v="Sanden" />
		<tag k="natural" v="beach" />
		<tag k="place" v="locality" />
		<tag k="ssr:stedsnr" v="819390" />
	</node>
	<node id="-10498" lat="62.7202638921" lon="6.66931111997">
		<tag k="name" v="Øyarenden" />
		<tag k="natural" v="cape" />
		<tag k="ssr:stedsnr" v="819190" />
	</node>
	<node id="-8449" lat="62.6910055546" lon="7.44337778297">
		<tag k="name" v="Haganeset" />
		<tag k="natural" v="cape" />
		<tag k="ssr:stedsnr" v="156633" />
	</node>
	<node id="-8448" lat="62.7745194467" lon="7.55879443644">
		<tag k="name" v="Bøplassneset" />
		<tag k="natural" v="cape" />
		<tag k="ssr:stedsnr" v="156621" />
	</node>
	<node id="-10495" lat="62.6789555572" lon="6.75932778709">
		<tag k="name" v="Grønvika" />
		<tag k="natural" v="bay" />
		<tag k="ssr:stedsnr" v="819277" />
	</node>
	<node id="-8439" lat="62.7471694483" lon="6.99102222512">
		<tag k="alt_name" v="Gausetvika" />
		<tag k="name" v="Gausetbukta" />
		<tag k="natural" v="bay" />
		<tag k="ssr:stedsnr" v="156474" />
	</node>
	<node id="-10484" lat="62.6623166686" lon="6.68028056195">
		<tag k="name" v="Årneset" />
		<tag k="natural" v="cape" />
		<tag k="ssr:stedsnr" v="801943" />
	</node>
	<node id="-10483" lat="62.6975916698" lon="6.66789999154">
		<tag k="name" v="Akslaholman" />
		<tag k="place" v="islet" />
		<tag k="ssr:stedsnr" v="801888" />
	</node>
	<node id="-10482" lat="62.6999166654" lon="6.61542221762">
		<tag k="fixme" v="consider seamark:type=rock or natural=shoal" />
		<tag k="name" v="Midtskjæret" />
		<tag k="place" v="islet" />
		<tag k="ssr:stedsnr" v="801885" />
	</node>
	<node id="-10481" lat="62.6763888873" lon="6.5851138841">
		<tag k="fixme" v="consider seamark:type=rock or natural=shoal" />
		<tag k="name" v="Stordalskjæra" />
		<tag k="place" v="islet" />
		<tag k="ssr:stedsnr" v="801997" />
	</node>
	<node id="-5160" lat="62.7340888886" lon="6.7794916577">
		<tag k="fixme" v="consider seamark:type=rock or natural=shoal" />
		<tag k="name" v="Langskjeret" />
		<tag k="place" v="islet" />
		<tag k="ssr:stedsnr" v="273026" />
	</node>
	<node id="-7890" lat="62.6760333322" lon="7.4273000032">
		<tag k="name" v="Futgarden" />
		<tag k="natural" v="bay" />
		<tag k="ssr:stedsnr" v="34617" />
	</node>
	<node id="-5600" lat="62.6715194476" lon="6.64371388655">
		<tag k="name" v="Bløbukta" />
		<tag k="natural" v="bay" />
		<tag k="ssr:stedsnr" v="273965" />
	</node>
	<node id="-10471" lat="62.6512916688" lon="6.53373055534">
		<tag k="name" v="Gjerdsnessnagen" />
		<tag k="natural" v="cape" />
		<tag k="ssr:stedsnr" v="801476" />
	</node>
	<node id="-10470" lat="62.6484166665" lon="6.5810083417">
		<tag k="fixme" v="consider seamark:type=rock or natural=shoal" />
		<tag k="name" v="Flesjeskjeret" />
		<tag k="place" v="islet" />
		<tag k="ssr:stedsnr" v="801474" />
	</node>
	<node id="-5841" lat="62.6486683981" lon="7.29875950342">
		<tag k="alt_name" v="Vestastranda" />
		<tag k="name" v="Vestadstranda" />
		<tag k="natural" v="beach" />
		<tag k="place" v="locality" />
		<tag k="ssr:stedsnr" v="315612" />
	</node>
	<node id="-8416" lat="62.7579500005" lon="7.3617749933">
		<tag k="name" v="Hommelneset" />
		<tag k="natural" v="cape" />
		<tag k="ssr:stedsnr" v="156079" />
	</node>
	<node id="-10462" lat="62.7208499964" lon="6.67287222383">
		<tag k="name" v="Ivarsholmen" />
		<tag k="place" v="islet" />
		<tag k="ssr:stedsnr" v="800920" />
	</node>
	<node id="-10460" lat="62.733086109" lon="7.34129166041">
		<tag k="name" v="Bolsøyneset" />
		<tag k="natural" v="cape" />
		<tag k="ssr:stedsnr" v="800735" />
	</node>
	<node id="-6355" lat="62.6619555537" lon="7.27518887956">
		<tag k="name" v="Sekken" />
		<tag k="place" v="island" />
		<tag k="ssr:stedsnr" v="557711" />
	</node>
	<node id="-8396" lat="62.6953916695" lon="6.61793611292">
		<tag k="name" v="Morteberget" />
		<tag k="natural" v="cape" />
		<tag k="ssr:stedsnr" v="151326" />
	</node>
	<node id="-6347" lat="62.7402555591" lon="8.04844722913">
		<tag k="name" v="Bleineset" />
		<tag k="natural" v="cape" />
		<tag k="ssr:stedsnr" v="557461" />
	</node>
	<node id="-8394" lat="62.6535166681" lon="6.57136666118">
		<tag k="name" v="Makkevågen" />
		<tag k="natural" v="bay" />
		<tag k="ssr:stedsnr" v="151179" />
	</node>
	<node id="-8393" lat="62.7406583356" lon="6.70731111351">
		<tag k="name" v="Stor-Grønningen" />
		<tag k="place" v="islet" />
		<tag k="ssr:stedsnr" v="151175" />
	</node>
	<node id="-7884" lat="62.7242805548" lon="7.27075833191">
		<tag k="name" v="Vikneset" />
		<tag k="natural" v="cape" />
		<tag k="ssr:stedsnr" v="34278" />
	</node>
	<node id="-8387" lat="62.7207416639" lon="6.72597222627">
		<tag k="name" v="Pålsettet" />
		<tag k="natural" v="bay" />
		<tag k="ssr:stedsnr" v="151055" />
	</node>
	<node id="-8385" lat="62.736424998" lon="6.6994527755">
		<tag k="name" v="Mekvika" />
		<tag k="natural" v="bay" />
		<tag k="ssr:stedsnr" v="151041" />
	</node>
	<node id="-8383" lat="62.732741663" lon="6.76715834197">
		<tag k="name" v="Grønvika" />
		<tag k="natural" v="bay" />
		<tag k="ssr:stedsnr" v="151018" />
	</node>
	<node id="-6334" lat="62.6628166629" lon="6.83973055384">
		<tag k="fixme" v="consider seamark:type=rock or natural=shoal" />
		<tag k="name" v="Håskjeret" />
		<tag k="place" v="islet" />
		<tag k="ssr:stedsnr" v="557054" />
	</node>
	<node id="-6333" lat="62.6195073979" lon="7.36710202886">
		<tag k="bay" v="fjord" />
		<tag k="name" v="Romsdalsfjorden" />
		<tag k="natural" v="bay" />
		<tag k="ssr:stedsnr" v="557053" />
	</node>
	<node id="-6332" lat="62.7348694488" lon="6.74102222569">
		<tag k="name" v="Hellarenden" />
		<tag k="natural" v="cape" />
		<tag k="ssr:stedsnr" v="557113" />
	</node>
	<node id="-6331" lat="62.7422861118" lon="6.92979721479">
		<tag k="name" v="Fiskeneset" />
		<tag k="natural" v="cape" />
		<tag k="ssr:stedsnr" v="557111" />
	</node>
	<node id="-8377" lat="62.7859138891" lon="7.69209721274">
		<tag k="bay" v="fjord" />
		<tag k="name" v="Osen" />
		<tag k="natural" v="bay" />
		<tag k="ssr:stedsnr" v="142843" />
	</node>
	<node id="-10422" lat="62.7147749974" lon="7.25628888058">
		<tag k="name" v="Instebukta" />
		<tag k="natural" v="bay" />
		<tag k="ssr:stedsnr" v="786855" />
	</node>
	<node id="-10421" lat="62.7155972232" lon="7.13034722918">
		<tag k="name" v="Rennsteinen" />
		<tag k="natural" v="shoal" />
		<tag k="place" v="locality" />
		<tag k="ssr:stedsnr" v="784872" />
	</node>
	<node id="-10420" lat="62.6689416663" lon="7.35821943808">
		<tag k="name" v="Engvikflua" />
		<tag k="natural" v="shoal" />
		<tag k="place" v="locality" />
		<tag k="ssr:stedsnr" v="779957" />
	</node>
	<node id="-10419" lat="62.7848083342" lon="7.65684167262">
		<tag k="name" v="Haugneset" />
		<tag k="natural" v="cape" />
		<tag k="ssr:stedsnr" v="779842" />
	</node>
	<node id="-10417" lat="62.6479861105" lon="7.28472499483">
		<tag k="name" v="Sagneset" />
		<tag k="natural" v="cape" />
		<tag k="ssr:stedsnr" v="779117" />
	</node>
	<node id="-10416" lat="62.6687027777" lon="6.85500556371">
		<tag k="name" v="Kroppungsfluene" />
		<tag k="natural" v="shoal" />
		<tag k="place" v="locality" />
		<tag k="ssr:stedsnr" v="778731" />
	</node>
	<node id="-8364" lat="62.7305916673" lon="7.247527786">
		<tag k="fixme" v="consider seamark:type=rock or natural=shoal" />
		<tag k="name" v="Grønningan" />
		<tag k="place" v="islet" />
		<tag k="ssr:stedsnr" v="133755" />
	</node>
	<node id="-10401" lat="62.7536916707" lon="8.02148888633">
		<tag k="name" v="Storfjøra" />
		<tag k="natural" v="beach" />
		<tag k="place" v="locality" />
		<tag k="ssr:stedsnr" v="766384" />
	</node>
	<node id="-8351" lat="62.7837583295" lon="8.29953332857">
		<tag k="name" v="Altervika" />
		<tag k="natural" v="bay" />
		<tag k="ssr:stedsnr" v="133360" />
	</node>
	<node id="-6302" lat="62.682927782" lon="6.78620832484">
		<tag k="name" v="Båtnesvika" />
		<tag k="natural" v="bay" />
		<tag k="ssr:stedsnr" v="697302" />
	</node>
	<node id="-6552" lat="62.6912666629" lon="6.66710834071">
		<tag k="name" v="Galteneset" />
		<tag k="natural" v="cape" />
		<tag k="ssr:stedsnr" v="576274" />
	</node>
	<node id="-8341" lat="62.6743749983" lon="7.44037221593">
		<tag k="name" v="Galtevika" />
		<tag k="natural" v="bay" />
		<tag k="ssr:stedsnr" v="132722" />
	</node>
	<node id="-6289" lat="62.7199388886" lon="7.76935278237">
		<tag k="name" v="Skorgeneset" />
		<tag k="natural" v="cape" />
		<tag k="ssr:stedsnr" v="536436" />
	</node>
	<node id="-5256" lat="62.7894638908" lon="8.23056666463">
		<tag k="name" v="Meisalneset" />
		<tag k="natural" v="cape" />
		<tag k="ssr:stedsnr" v="159403" />
	</node>
	<node id="-8334" lat="62.7299583317" lon="8.06411388649">
		<tag k="bay" v="fjord" />
		<tag k="name" v="Eresfjorden" />
		<tag k="natural" v="bay" />
		<tag k="ssr:stedsnr" v="132461" />
	</node>
	<node id="-4802" lat="62.7491222238" lon="8.02015000533">
		<tag k="fixme" v="consider seamark:type=rock or natural=shoal" />
		<tag k="name" v="Skarveskjæret" />
		<tag k="place" v="islet" />
		<tag k="ssr:stedsnr" v="220432" />
	</node>
	<node id="-8330" lat="62.7420777802" lon="6.8431222195">
		<tag k="name" v="Ræstadtangen" />
		<tag k="natural" v="cape" />
		<tag k="ssr:stedsnr" v="132101" />
	</node>
	<node id="-10374" lat="62.6345166629" lon="7.30966944179">
		<tag k="name" v="Vestadgrunna" />
		<tag k="natural" v="shoal" />
		<tag k="place" v="locality" />
		<tag k="ssr:stedsnr" v="765652" />
	</node>
	<node id="-8324" lat="62.7280749972" lon="7.180369442">
		<tag k="name" v="Moldeholmen" />
		<tag k="place" v="islet" />
		<tag k="ssr:stedsnr" v="132073" />
	</node>
	<node id="-8529" lat="62.7844444467" lon="8.24478888154">
		<tag k="alt_name" v="Innervika" />
		<tag k="name" v="Vikabukta" />
		<tag k="natural" v="bay" />
		<tag k="ssr:stedsnr" v="159401" />
	</node>
	<node id="-8322" lat="62.7303055578" lon="6.9796166731">
		<tag k="alt_name" v="Klarneset" />
		<tag k="name" v="Klorneset" />
		<tag k="natural" v="cape" />
		<tag k="ssr:stedsnr" v="132061" />
	</node>
	<node id="-8317" lat="62.7625250035" lon="7.95223333779">
		<tag k="name" v="Skaggrunna" />
		<tag k="natural" v="shoal" />
		<tag k="place" v="locality" />
		<tag k="ssr:stedsnr" v="112297" />
	</node>
	<node id="-8316" lat="62.7395777769" lon="7.3104138802">
		<tag k="name" v="Orvikholmflua" />
		<tag k="natural" v="shoal" />
		<tag k="place" v="locality" />
		<tag k="ssr:stedsnr" v="111882" />
	</node>
	<node id="-8314" lat="62.6975833347" lon="6.5903638928">
		<tag k="name" v="Gullflua" />
		<tag k="natural" v="shoal" />
		<tag k="place" v="locality" />
		<tag k="ssr:stedsnr" v="111665" />
	</node>
	<node id="-6261" lat="62.6823277803" lon="6.65736111941">
		<tag k="name" v="Mjelkeneset" />
		<tag k="natural" v="cape" />
		<tag k="ssr:stedsnr" v="688039" />
	</node>
	<node id="-6260" lat="62.6908555568" lon="6.66723888812">
		<tag k="name" v="Galtenesbukta" />
		<tag k="natural" v="bay" />
		<tag k="ssr:stedsnr" v="688038" />
	</node>
	<node id="-10353" lat="62.7246194462" lon="7.94038332545">
		<tag k="name" v="Sandvika" />
		<tag k="natural" v="bay" />
		<tag k="ssr:stedsnr" v="765094" />
	</node>
	<node id="-6256" lat="62.673008333" lon="6.88216666944">
		<tag k="name" v="Storbrautbukta" />
		<tag k="natural" v="bay" />
		<tag k="ssr:stedsnr" v="516445" />
	</node>
	<node id="-8552" lat="62.7225444447" lon="7.7864638845">
		<tag k="name" v="Hundekroken" />
		<tag k="natural" v="bay" />
		<tag k="ssr:stedsnr" v="159895" />
	</node>
	<node id="-6252" lat="62.7109361118" lon="6.7220000014">
		<tag k="name" v="Krafsebukta" />
		<tag k="natural" v="bay" />
		<tag k="ssr:stedsnr" v="515618" />
	</node>
	<node id="-6249" lat="62.6811916699" lon="6.64171666778">
		<tag k="name" v="Fetaholmen" />
		<tag k="place" v="islet" />
		<tag k="ssr:stedsnr" v="515306" />
	</node>
	<node id="-10344" lat="62.650302777" lon="7.25465000791">
		<tag k="name" v="Kvitnesbukta" />
		<tag k="natural" v="bay" />
		<tag k="ssr:stedsnr" v="763943" />
	</node>
	<node id="-10342" lat="62.7788222235" lon="7.6403666708">
		<tag k="name" v="Håsteinsbukta" />
		<tag k="natural" v="bay" />
		<tag k="ssr:stedsnr" v="763937" />
	</node>
	<node id="-10341" lat="62.7785944459" lon="7.65757777935">
		<tag k="name" v="Langneset" />
		<tag k="natural" v="cape" />
		<tag k="ssr:stedsnr" v="763936" />
	</node>
	<node id="-6242" lat="62.6989388864" lon="6.61606111305">
		<tag k="name" v="Lamholmen" />
		<tag k="place" v="islet" />
		<tag k="ssr:stedsnr" v="497904" />
	</node>
	<node id="-10329" lat="62.7272416667" lon="6.98094167362">
		<tag k="name" v="Frihamna" />
		<tag k="natural" v="bay" />
		<tag k="ssr:stedsnr" v="763686" />
	</node>
	<node id="-8277" lat="62.7631083345" lon="7.88047222267">
		<tag k="name" v="Sauvika" />
		<tag k="natural" v="bay" />
		<tag k="ssr:stedsnr" v="98643" />
	</node>
	<node id="-6223" lat="62.7173888885" lon="6.65160556194">
		<tag k="name" v="Magerøya" />
		<tag k="place" v="island" />
		<tag k="ssr:stedsnr" v="496916" />
	</node>
	<node id="-8270" lat="62.760158335" lon="8.03011666206">
		<tag k="name" v="Kjegelneset" />
		<tag k="natural" v="cape" />
		<tag k="ssr:stedsnr" v="98398" />
	</node>
	<node id="-8268" lat="62.7504527787" lon="8.01905833116">
		<tag k="fixme" v="consider seamark:type=rock or natural=shoal" />
		<tag k="name" v="Sauskjæret" />
		<tag k="place" v="islet" />
		<tag k="ssr:stedsnr" v="98391" />
	</node>
	<node id="-10313" lat="62.7065722197" lon="7.38818611784">
		<tag k="name" v="Røsta" />
		<tag k="natural" v="cape" />
		<tag k="ssr:stedsnr" v="763247" />
	</node>
	<node id="-6212" lat="62.6614888918" lon="6.54205832608">
		<tag k="fixme" v="consider seamark:type=rock or natural=shoal" />
		<tag k="name" v="Syneldskjeret" />
		<tag k="place" v="islet" />
		<tag k="ssr:stedsnr" v="679928" />
	</node>
	<node id="-6211" lat="62.7408333359" lon="6.70789167267">
		<tag k="name" v="Grønningen" />
		<tag k="place" v="islet" />
		<tag k="ssr:stedsnr" v="679833" />
	</node>
	<node id="-6208" lat="62.6875916673" lon="6.61040832956">
		<tag k="name" v="Nørdre Sandan" />
		<tag k="natural" v="beach" />
		<tag k="place" v="locality" />
		<tag k="ssr:stedsnr" v="679883" />
	</node>
	<node id="-10303" lat="62.7342472225" lon="6.97858055458">
		<tag k="alt_name" v="Engavika" />
		<tag k="name" v="Engjavika" />
		<tag k="natural" v="bay" />
		<tag k="ssr:stedsnr" v="763544" />
	</node>
	<node id="-6206" lat="62.7247092798" lon="7.73290866756">
		<tag k="bay" v="fjord" />
		<tag k="name" v="Langfjorden" />
		<tag k="natural" v="bay" />
		<tag k="ssr:stedsnr" v="679691" />
	</node>
	<node id="-10300" lat="62.7243055589" lon="7.12498334031">
		<tag k="name" v="Bjørsetholmen" />
		<tag k="place" v="islet" />
		<tag k="ssr:stedsnr" v="763508" />
	</node>
	<node id="-6835" lat="62.6888138849" lon="7.40603055892">
		<tag k="name" v="Flovikgrunna" />
		<tag k="natural" v="shoal" />
		<tag k="place" v="locality" />
		<tag k="ssr:stedsnr" v="884593" />
	</node>
	<node id="-8240" lat="62.6521888867" lon="7.23778611753">
		<tag k="name" v="Hårskallvika" />
		<tag k="natural" v="bay" />
		<tag k="ssr:stedsnr" v="95947" />
	</node>
	<node id="-8239" lat="62.7401999963" lon="7.37510556522">
		<tag k="name" v="Brattstøa" />
		<tag k="natural" v="bay" />
		<tag k="ssr:stedsnr" v="95932" />
	</node>
	<node id="-8541" lat="62.7345499961" lon="8.08975555048">
		<tag k="name" v="Holvollbukta" />
		<tag k="natural" v="bay" />
		<tag k="ssr:stedsnr" v="159548" />
	</node>
	<node id="-8233" lat="62.7190944472" lon="7.1855027692">
		<tag k="name" v="Hjertøysundet" />
		<tag k="natural" v="strait" />
		<tag k="ssr:stedsnr" v="95680" />
	</node>
	<node id="-6183" lat="62.6960666696" lon="8.11888611006">
		<tag k="alt_name" v="Hundneset, litle" />
		<tag k="name" v="Litle Hundneset" />
		<tag k="natural" v="cape" />
		<tag k="ssr:stedsnr" v="679264" />
	</node>
	<node id="-10278" lat="62.7978250011" lon="7.74864722423">
		<tag k="name" v="Lappvikbukta" />
		<tag k="natural" v="bay" />
		<tag k="ssr:stedsnr" v="762766" />
	</node>
	<node id="-10277" lat="62.7918666649" lon="7.72156666748">
		<tag k="name" v="Bordneset" />
		<tag k="natural" v="cape" />
		<tag k="ssr:stedsnr" v="762763" />
	</node>
	<node id="-6179" lat="62.7259388906" lon="7.02411665687">
		<tag k="name" v="Haukabøholmen" />
		<tag k="place" v="islet" />
		<tag k="ssr:stedsnr" v="679094" />
	</node>
	<node id="-10272" lat="62.6723638919" lon="7.41844443762">
		<tag k="name" v="Bispeneset" />
		<tag k="natural" v="cape" />
		<tag k="ssr:stedsnr" v="762608" />
	</node>
	<node id="-10271" lat="62.6773361139" lon="7.45770277187">
		<tag k="name" v="Nørdre Holmen" />
		<tag k="place" v="islet" />
		<tag k="ssr:stedsnr" v="762605" />
	</node>
	<node id="-10267" lat="62.7771972261" lon="7.64937776905">
		<tag k="name" v="Hamna" />
		<tag k="natural" v="bay" />
		<tag k="ssr:stedsnr" v="762162" />
	</node>
	<node id="-6169" lat="62.7347194425" lon="7.10160000781">
		<tag k="name" v="Mekstranda" />
		<tag k="natural" v="beach" />
		<tag k="place" v="locality" />
		<tag k="ssr:stedsnr" v="482615" />
	</node>
	<node id="-6166" lat="62.7378638875" lon="7.92938887987">
		<tag k="name" v="Holmesundet" />
		<tag k="natural" v="strait" />
		<tag k="ssr:stedsnr" v="462966" />
	</node>
	<node id="-6160" lat="62.7360722231" lon="7.86867500463">
		<tag k="alt_name" v="Sandneset" />
		<tag k="name" v="Geilneset" />
		<tag k="natural" v="cape" />
		<tag k="ssr:stedsnr" v="462925" />
	</node>
	<node id="-10584" lat="62.7320305536" lon="7.36654999786">
		<tag k="name" v="Teinskaget" />
		<tag k="natural" v="cape" />
		<tag k="ssr:stedsnr" v="824937" />
	</node>
	<node id="-10254" lat="62.7331888886" lon="6.93526388273">
		<tag k="name" v="Rongkallen" />
		<tag k="natural" v="bay" />
		<tag k="ssr:stedsnr" v="758588" />
	</node>
	<node id="-10252" lat="62.7498527803" lon="6.92090554923">
		<tag k="name" v="Storhaugneset" />
		<tag k="natural" v="cape" />
		<tag k="ssr:stedsnr" v="758740" />
	</node>
	<node id="-10251" lat="62.6842416701" lon="6.60819721635">
		<tag k="name" v="Sandan" />
		<tag k="natural" v="beach" />
		<tag k="place" v="locality" />
		<tag k="ssr:stedsnr" v="758406" />
	</node>
	<node id="-5047" lat="62.7973472194" lon="7.74850278279">
		<tag k="name" v="Lappvikneset" />
		<tag k="natural" v="cape" />
		<tag k="ssr:stedsnr" v="95756" />
	</node>
	<node id="-10639" lat="62.7351555522" lon="7.8632666687">
		<tag k="alt_name" v="Hollibukta" />
		<tag k="name" v="Sandnesvika" />
		<tag k="natural" v="bay" />
		<tag k="ssr:stedsnr" v="826937" />
	</node>
	<node id="-10247" lat="62.7241027735" lon="6.93480000702">
		<tag k="name" v="Morteberget" />
		<tag k="natural" v="cape" />
		<tag k="ssr:stedsnr" v="758570" />
	</node>
	<node id="-10246" lat="62.7411805589" lon="6.84032777473">
		<tag k="name" v="Storvika" />
		<tag k="natural" v="bay" />
		<tag k="ssr:stedsnr" v="758554" />
	</node>
	<node id="-10245" lat="62.7545888924" lon="6.86841666894">
		<tag k="alt_name" v="Midtre Skarvholmen" />
		<tag k="name" v="Minste Skarvholmen" />
		<tag k="place" v="islet" />
		<tag k="ssr:stedsnr" v="758549" />
	</node>
	<node id="-6148" lat="62.6927416702" lon="7.39125277832">
		<tag k="name" v="Rogna" />
		<tag k="natural" v="cape" />
		<tag k="ssr:stedsnr" v="459209" />
	</node>
	<node id="-10243" lat="62.7394611097" lon="6.7252222155">
		<tag k="name" v="Båtneset" />
		<tag k="natural" v="cape" />
		<tag k="ssr:stedsnr" v="758221" />
	</node>
</osm>
