<?xml version="1.0" encoding="UTF-8"?>
<osm generator="osmapis" version="0.6">
	<node id="-4862" lat="62.4973333303" lon="8.13348888867">
		<tag k="fixme" v="consider boundary=protected_area and relevant protect_class if not nature reserve" />
		<tag k="leisure" v="nature_reserve" />
		<tag k="name" v="Eikesdalsvatnet landskapsvernområde" />
		<tag k="ssr:stedsnr" v="163463" />
	</node>
	<node id="-7385" lat="62.5166666649" lon="8.06622778668">
		<tag k="fixme" v="consider boundary=protected_area and relevant protect_class if not nature reserve" />
		<tag k="leisure" v="nature_reserve" />
		<tag k="name" v="Sandgrovbotn - Mardalsbotn biotopvernområde" />
		<tag k="ssr:stedsnr" v="29011" />
	</node>
	<node id="-8875" lat="62.7060555572" lon="7.95519722714">
		<tag k="fixme" v="specify shooting=range, clay_pigeon etc" />
		<tag k="leisure" v="pitch" />
		<tag k="name" v="Vistdal skytebane" />
		<tag k="sport" v="shooting" />
		<tag k="ssr:stedsnr" v="401990" />
	</node>
	<node id="-8577" lat="62.4818611133" lon="8.11538889672">
		<tag k="fixme" v="consider boundary=protected_area and relevant protect_class if not nature reserve" />
		<tag k="leisure" v="nature_reserve" />
		<tag k="name" v="Mardalen naturreservat" />
		<tag k="ssr:stedsnr" v="362296" />
	</node>
</osm>
