<?xml version="1.0" encoding="UTF-8"?>
<<<<<<< HEAD
<osm version="0.6" generator="osmapis">
	<node lat="62.42229444354809" lon="8.339791663129196" id="-609">
		<tag k="name" v="Høyøya" />
		<tag k="place" v="locality" />
		<tag k="ssr:stedsnr" v="20794" />
	</node>
	<node lat="62.65927500263271" lon="6.619008325150129" id="-614">
		<tag k="name" v="Øvresvean" />
		<tag k="place" v="locality" />
		<tag k="ssr:stedsnr" v="30003" />
	</node>
	<node lat="62.66943889041092" lon="6.713827783637988" id="-615">
		<tag k="name" v="Leitet" />
		<tag k="place" v="locality" />
		<tag k="ssr:stedsnr" v="30503" />
	</node>
	<node lat="62.813116666179894" lon="7.7485388865592695" id="-626">
		<tag k="name" v="Løbakkmyra" />
		<tag k="natural" v="wetland" />
		<tag k="ssr:stedsnr" v="34010" />
	</node>
	<node lat="62.76066110917515" lon="7.322269449559839" id="-650">
		<tag k="name" v="Liamyra" />
		<tag k="natural" v="wetland" />
		<tag k="ssr:stedsnr" v="35385" />
	</node>
	<node lat="62.7625166645899" lon="7.28633888962873" id="-651">
		<tag k="name" v="Leikplassen" />
		<tag k="natural" v="wetland" />
		<tag k="ssr:stedsnr" v="35906" />
	</node>
	<node lat="62.71953610790168" lon="7.775619453729821" id="-657">
		<tag k="name" v="Dampen" />
		<tag k="natural" v="stone" />
		<tag k="ssr:stedsnr" v="37072" />
	</node>
	<node lat="62.66354444112794" lon="8.029738888884852" id="-665">
		<tag k="name" v="Kvithammarura" />
		<tag k="natural" v="scree" />
		<tag k="ssr:stedsnr" v="37804" />
	</node>
	<node lat="62.82651388491761" lon="8.099163881151807" id="-671">
		<tag k="historic" v="shieling" />
		<tag k="name" v="Litlbuplassen" />
		<tag k="place" v="locality" />
		<tag k="ssr:stedsnr" v="37565" />
	</node>
	<node lat="62.82698888975596" lon="8.091711118381538" id="-672">
		<tag k="historic" v="shieling" />
		<tag k="name" v="Neverlisetra" />
		<tag k="place" v="locality" />
		<tag k="ssr:stedsnr" v="37568" />
	</node>
	<node lat="62.71921388854282" lon="6.898155559129784" id="-700">
		<tag k="name" v="Myran" />
		<tag k="natural" v="wetland" />
		<tag k="ssr:stedsnr" v="72090" />
	</node>
	<node lat="62.732847221922746" lon="7.296630550798233" id="-728">
		<tag k="name" v="Stormyra" />
		<tag k="natural" v="wetland" />
		<tag k="ssr:stedsnr" v="73774" />
	</node>
	<node lat="62.69288333007417" lon="6.849850005932037" id="-750">
		<tag k="name" v="Skatmyra" />
		<tag k="natural" v="wetland" />
		<tag k="ssr:stedsnr" v="91271" />
	</node>
	<node lat="62.671516671157526" lon="6.887122223110764" id="-751">
		<tag k="name" v="Nestemyrane" />
		<tag k="natural" v="wetland" />
		<tag k="ssr:stedsnr" v="91415" />
	</node>
	<node lat="62.70896944584287" lon="6.758847227352811" id="-754">
		<tag k="name" v="Skotura" />
		<tag k="natural" v="scree" />
		<tag k="ssr:stedsnr" v="91720" />
	</node>
	<node lat="62.748494443375556" lon="7.484586106061868" id="-770">
		<tag k="name" v="Dalamyra" />
		<tag k="natural" v="wetland" />
		<tag k="ssr:stedsnr" v="95124" />
	</node>
	<node lat="62.85762222521843" lon="7.778216671864434" id="-776">
		<tag k="historic" v="shieling" />
		<tag k="name" v="Botterlisetra" />
		<tag k="place" v="locality" />
		<tag k="ssr:stedsnr" v="95160" />
	</node>
	<node lat="62.755313891461824" lon="7.21942777963383" id="-777">
		<tag k="name" v="Skjøljarmyra" />
		<tag k="natural" v="wetland" />
		<tag k="ssr:stedsnr" v="95162" />
	</node>
	<node lat="62.73049166684032" lon="7.060027782296083" id="-782">
		<tag k="name" v="Pålsteinen" />
		<tag k="natural" v="stone" />
		<tag k="ssr:stedsnr" v="95413" />
	</node>
	<node lat="62.696919440752694" lon="7.388602773319305" id="-784">
		<tag k="name" v="Dansarholen" />
		<tag k="natural" v="wetland" />
		<tag k="ssr:stedsnr" v="95608" />
	</node>
	<node lat="62.73738055529736" lon="7.405161111716741" id="-799">
		<tag k="name" v="Liaskarsmyra" />
		<tag k="natural" v="wetland" />
		<tag k="ssr:stedsnr" v="95761" />
	</node>
	<node lat="62.732166668724666" lon="7.331066658844921" id="-804">
		<tag k="name" v="Rusketeigkråna" />
		<tag k="place" v="locality" />
		<tag k="ssr:stedsnr" v="95913" />
	</node>
	<node lat="62.66635277703028" lon="7.857633325190663" id="-808">
		<tag k="name" v="Fallmyra" />
		<tag k="natural" v="wetland" />
		<tag k="ssr:stedsnr" v="98059" />
	</node>
	<node lat="62.72183055163467" lon="7.79719445330436" id="-809">
		<tag k="name" v="Nyfonna" />
		<tag k="place" v="locality" />
		<tag k="ssr:stedsnr" v="98065" />
	</node>
	<node lat="62.7374527816558" lon="8.009611109072548" id="-811">
		<tag k="name" v="Mjølbøra" />
		<tag k="natural" v="glacier" />
		<tag k="ssr:stedsnr" v="98074" />
	</node>
	<node lat="62.80288333282508" lon="8.15883055409242" id="-814">
		<tag k="name" v="Trøstenmyra" />
		<tag k="natural" v="wetland" />
		<tag k="ssr:stedsnr" v="98213" />
	</node>
	<node lat="62.82795555786738" lon="8.097100005942321" id="-837">
		<tag k="name" v="Neverlimyran" />
		<tag k="natural" v="wetland" />
		<tag k="ssr:stedsnr" v="98562" />
	</node>
	<node lat="62.56473888840416" lon="8.059077775368538" id="-910">
		<tag k="name" v="Hoemsbreen" />
		<tag k="natural" v="glacier" />
		<tag k="ssr:stedsnr" v="254160" />
	</node>
	<node lat="62.64424999748351" lon="6.538725005268831" id="-920">
		<tag k="name" v="Terningen" />
		<tag k="natural" v="stone" />
		<tag k="ssr:stedsnr" v="254434" />
	</node>
	<node lat="62.779616665969385" lon="7.38290277628323" id="-978">
		<tag k="name" v="Gråsteinen" />
		<tag k="natural" v="stone" />
		<tag k="ssr:stedsnr" v="156108" />
	</node>
	<node lat="62.776327773741" lon="7.773822227214787" id="-979">
		<tag k="name" v="Krokøyan" />
		<tag k="natural" v="wetland" />
		<tag k="ssr:stedsnr" v="156123" />
	</node>
	<node lat="62.80221389009993" lon="7.717525009224461" id="-993">
		<tag k="name" v="Stormyra" />
		<tag k="natural" v="wetland" />
		<tag k="ssr:stedsnr" v="156308" />
	</node>
	<node lat="62.77346388830301" lon="8.20552500873809" id="-1016">
=======
<osm generator="osmapis" version="0.6">
	<node id="-51541" lat="62.4205444455" lon="8.34951110393">
		<tag k="name" v="Skadfallhola" />
		<tag k="place" v="locality" />
		<tag k="ssr:stedsnr" v="809767" />
	</node>
	<node id="-49148" lat="62.7328472219" lon="7.2966305508">
>>>>>>> e1d4bc35ff8a6074a6f2e91616a996b547c36f15
		<tag k="name" v="Stormyra" />
		<tag k="natural" v="wetland" />
		<tag k="ssr:stedsnr" v="158714" />
	</node>
<<<<<<< HEAD
	<node lat="62.62038611513334" lon="8.105361111506165" id="-1020">
		<tag k="name" v="Sandgeilen" />
=======
	<node id="-47098" lat="62.4169916676" lon="8.35733054847">
		<tag k="name" v="Hessura" />
>>>>>>> e1d4bc35ff8a6074a6f2e91616a996b547c36f15
		<tag k="place" v="locality" />
		<tag k="ssr:stedsnr" v="159058" />
	</node>
<<<<<<< HEAD
	<node lat="62.757755553994706" lon="8.061855565331019" id="-1023">
		<tag k="name" v="Ragnhildura" />
		<tag k="natural" v="scree" />
		<tag k="ssr:stedsnr" v="159410" />
	</node>
	<node lat="62.77675000438543" lon="8.228844446945075" id="-1027">
		<tag k="name" v="Storsteinen" />
		<tag k="natural" v="stone" />
		<tag k="ssr:stedsnr" v="159361" />
	</node>
	<node lat="62.77038889244134" lon="8.236736104565804" id="-1028">
		<tag k="name" v="Slettamyra" />
=======
	<node id="-47090" lat="62.6609666642" lon="7.33681388021">
		<tag k="name" v="Ørnehaugmyra" />
>>>>>>> e1d4bc35ff8a6074a6f2e91616a996b547c36f15
		<tag k="natural" v="wetland" />
		<tag k="ssr:stedsnr" v="159369" />
	</node>
<<<<<<< HEAD
	<node lat="62.8047083343385" lon="7.9755111084502905" id="-1031">
		<tag k="name" v="Lussteinen" />
=======
	<node id="-47443" lat="62.7766277794" lon="7.76597777009">
		<tag k="name" v="Isakøyna" />
		<tag k="natural" v="wetland" />
		<tag k="ssr:stedsnr" v="702132" />
	</node>
	<node id="-51179" lat="62.4231361087" lon="8.31939999939">
		<tag k="name" v="Hampehesten" />
>>>>>>> e1d4bc35ff8a6074a6f2e91616a996b547c36f15
		<tag k="natural" v="stone" />
		<tag k="ssr:stedsnr" v="159514" />
	</node>
<<<<<<< HEAD
	<node lat="62.79418055125613" lon="7.809075003356793" id="-1038">
		<tag k="name" v="Trøa" />
=======
	<node id="-51177" lat="62.4397499968" lon="8.27891111201">
		<tag k="name" v="Grønesvaet" />
>>>>>>> e1d4bc35ff8a6074a6f2e91616a996b547c36f15
		<tag k="place" v="locality" />
		<tag k="ssr:stedsnr" v="159707" />
	</node>
<<<<<<< HEAD
	<node lat="62.68718889087294" lon="6.621138879123069" id="-1050">
		<tag k="name" v="Skjervamyra" />
		<tag k="natural" v="wetland" />
		<tag k="ssr:stedsnr" v="263061" />
	</node>
	<node lat="62.42938333644971" lon="8.320269451368281" id="-1057">
		<tag k="name" v="Høgbakken" />
=======
	<node id="-47080" lat="62.7742333326" lon="7.78025278712">
		<tag k="name" v="Engan" />
>>>>>>> e1d4bc35ff8a6074a6f2e91616a996b547c36f15
		<tag k="place" v="locality" />
		<tag k="ssr:stedsnr" v="263764" />
	</node>
<<<<<<< HEAD
	<node lat="62.399941665632305" lon="8.599527783775839" id="-1058">
		<tag k="name" v="Fattigbekkvollan" />
=======
	<node id="-47079" lat="62.7864583361" lon="7.45338332453">
		<tag k="name" v="Nedre myrane" />
>>>>>>> e1d4bc35ff8a6074a6f2e91616a996b547c36f15
		<tag k="natural" v="wetland" />
		<tag k="ssr:stedsnr" v="263774" />
	</node>
<<<<<<< HEAD
	<node lat="62.74507222090762" lon="7.473358331446025" id="-1092">
		<tag k="name" v="Hansgjerdet" />
		<tag k="place" v="locality" />
		<tag k="ssr:stedsnr" v="217788" />
	</node>
	<node lat="62.733830552508955" lon="7.421447218576193" id="-1102">
		<tag k="name" v="Larsplassen" />
		<tag k="place" v="locality" />
		<tag k="ssr:stedsnr" v="217824" />
	</node>
	<node lat="62.76313611192611" lon="7.523880564738511" id="-1108">
		<tag k="name" v="Skitnemyra" />
		<tag k="natural" v="wetland" />
		<tag k="ssr:stedsnr" v="217977" />
	</node>
	<node lat="62.43281666996635" lon="8.30441111909589" id="-1116">
		<tag k="name" v="Espet" />
=======
	<node id="-47078" lat="62.7077000013" lon="6.84272500551">
		<tag k="name" v="Rabbane" />
		<tag k="natural" v="scree" />
		<tag k="ssr:stedsnr" v="395515" />
	</node>
	<node id="-51166" lat="62.8013166685" lon="7.82308332826">
		<tag k="name" v="Kyrkjeteigen" />
>>>>>>> e1d4bc35ff8a6074a6f2e91616a996b547c36f15
		<tag k="place" v="locality" />
		<tag k="ssr:stedsnr" v="219079" />
	</node>
<<<<<<< HEAD
	<node lat="62.78310555650315" lon="8.296900005703089" id="-1119">
		<tag k="name" v="Altersteinen" />
		<tag k="natural" v="stone" />
		<tag k="ssr:stedsnr" v="219274" />
	</node>
	<node lat="62.81341944106693" lon="8.136047221298906" id="-1120">
		<tag k="name" v="Stuåmyra" />
		<tag k="natural" v="wetland" />
		<tag k="ssr:stedsnr" v="219723" />
	</node>
	<node lat="62.697761111508996" lon="7.796377774828463" id="-1124">
		<tag k="name" v="Storsteinan" />
		<tag k="natural" v="stone" />
		<tag k="ssr:stedsnr" v="219926" />
	</node>
	<node lat="62.78701944402595" lon="8.18623889282431" id="-1130">
		<tag k="name" v="Flatmyran" />
		<tag k="natural" v="wetland" />
		<tag k="ssr:stedsnr" v="220314" />
	</node>
	<node lat="62.772550002478816" lon="7.9224111109619475" id="-1132">
		<tag k="name" v="Bjørnasteinen" />
		<tag k="natural" v="stone" />
		<tag k="ssr:stedsnr" v="220511" />
	</node>
	<node lat="62.78734166359852" lon="7.993969445500164" id="-1133">
		<tag k="name" v="Gilsemyra" />
		<tag k="natural" v="wetland" />
		<tag k="ssr:stedsnr" v="220512" />
	</node>
	<node lat="62.784383329758015" lon="7.847383337866706" id="-1143">
		<tag k="name" v="Bleikmyra" />
=======
	<node id="-51161" lat="62.7629694419" lon="7.81397778498">
		<tag k="name" v="Miltholsteinen" />
		<tag k="natural" v="stone" />
		<tag k="ssr:stedsnr" v="644602" />
	</node>
	<node id="-51152" lat="62.6328916634" lon="8.09627777363">
		<tag k="name" v="Hafella" />
		<tag k="place" v="locality" />
		<tag k="ssr:stedsnr" v="644506" />
	</node>
	<node id="-49455" lat="62.7496527799" lon="7.53333610564">
		<tag k="name" v="Rødtjeldmyra" />
		<tag k="natural" v="wetland" />
		<tag k="ssr:stedsnr" v="155751" />
	</node>
	<node id="-51147" lat="62.7937805537" lon="8.07765278192">
		<tag k="name" v="Storåsmyra" />
		<tag k="natural" v="wetland" />
		<tag k="ssr:stedsnr" v="644451" />
	</node>
	<node id="-51146" lat="62.7883694424" lon="8.12145834095">
		<tag k="name" v="Eidsvågmyran" />
		<tag k="natural" v="wetland" />
		<tag k="ssr:stedsnr" v="644449" />
	</node>
	<node id="-49091" lat="62.7192138885" lon="6.89815555913">
		<tag k="name" v="Myran" />
		<tag k="natural" v="wetland" />
		<tag k="ssr:stedsnr" v="72090" />
	</node>
	<node id="-51126" lat="62.801533337" lon="8.10990277711">
		<tag k="name" v="Langmyra" />
>>>>>>> e1d4bc35ff8a6074a6f2e91616a996b547c36f15
		<tag k="natural" v="wetland" />
		<tag k="ssr:stedsnr" v="220686" />
	</node>
<<<<<<< HEAD
	<node lat="62.66772499630946" lon="7.262647219795374" id="-1206">
		<tag k="name" v="Roligmyra" />
=======
	<node id="-51125" lat="62.8022361086" lon="8.12585555209">
		<tag k="name" v="Råkemyra" />
>>>>>>> e1d4bc35ff8a6074a6f2e91616a996b547c36f15
		<tag k="natural" v="wetland" />
		<tag k="ssr:stedsnr" v="254712" />
	</node>
<<<<<<< HEAD
	<node lat="62.81608333326155" lon="8.116591666958099" id="-1211">
		<tag k="name" v="Bersåsmyra" />
=======
	<node id="-46302" lat="62.7767500044" lon="8.22884444695">
		<tag k="name" v="Storsteinen" />
		<tag k="natural" v="stone" />
		<tag k="ssr:stedsnr" v="159361" />
	</node>
	<node id="-49059" lat="62.802647218" lon="8.09411665918">
		<tag k="name" v="Brannrotmyra" />
>>>>>>> e1d4bc35ff8a6074a6f2e91616a996b547c36f15
		<tag k="natural" v="wetland" />
		<tag k="ssr:stedsnr" v="255572" />
	</node>
<<<<<<< HEAD
	<node lat="62.700483336426565" lon="7.758822221627727" id="-1227">
		<tag k="name" v="Bekren" />
		<tag k="natural" v="stone" />
		<tag k="ssr:stedsnr" v="457699" />
	</node>
	<node lat="62.80505277397741" lon="7.5000666688783735" id="-1231">
		<tag k="name" v="Godtgongarmyra" />
=======
	<node id="-49054" lat="62.8123861126" lon="8.10504444686">
		<tag k="name" v="Grønlimyran" />
>>>>>>> e1d4bc35ff8a6074a6f2e91616a996b547c36f15
		<tag k="natural" v="wetland" />
		<tag k="ssr:stedsnr" v="459116" />
	</node>
<<<<<<< HEAD
	<node lat="62.80819166971053" lon="7.544480549074436" id="-1235">
		<tag k="name" v="Nakkmyrane" />
=======
	<node id="-51100" lat="62.6728500028" lon="7.24469722305">
		<tag k="name" v="Kvalmyran" />
>>>>>>> e1d4bc35ff8a6074a6f2e91616a996b547c36f15
		<tag k="natural" v="wetland" />
		<tag k="ssr:stedsnr" v="459044" />
	</node>
<<<<<<< HEAD
	<node lat="62.76690833669866" lon="7.35191111030082" id="-1241">
		<tag k="name" v="Brøtlimyra" />
=======
	<node id="-51099" lat="62.7741388894" lon="7.63973333714">
		<tag k="name" v="Kvernhusmyra" />
>>>>>>> e1d4bc35ff8a6074a6f2e91616a996b547c36f15
		<tag k="natural" v="wetland" />
		<tag k="ssr:stedsnr" v="459094" />
	</node>
<<<<<<< HEAD
	<node lat="62.7974055558157" lon="7.489113889512869" id="-1244">
		<tag k="name" v="Hjelsetmyrane" />
=======
	<node id="-51093" lat="62.7292472234" lon="7.30591388529">
		<tag k="name" v="Vågaplassen" />
		<tag k="place" v="locality" />
		<tag k="ssr:stedsnr" v="641905" />
	</node>
	<node id="-49042" lat="62.6143888908" lon="8.17451388435">
		<tag k="name" v="Strandura" />
		<tag k="natural" v="scree" />
		<tag k="ssr:stedsnr" v="37839" />
	</node>
	<node id="-51079" lat="62.7410777783" lon="7.48521110274">
		<tag k="name" v="Potifarøyan" />
>>>>>>> e1d4bc35ff8a6074a6f2e91616a996b547c36f15
		<tag k="natural" v="wetland" />
		<tag k="ssr:stedsnr" v="459118" />
	</node>
<<<<<<< HEAD
	<node lat="62.70091944071875" lon="7.428183342046302" id="-1257">
		<tag k="name" v="Glåmå" />
		<tag k="natural" v="wetland" />
		<tag k="ssr:stedsnr" v="459213" />
	</node>
	<node lat="62.69598333771028" lon="7.503644445631631" id="-1264">
		<tag k="name" v="Langmyra" />
=======
	<node id="-51076" lat="62.7924444466" lon="7.74728055609">
		<tag k="name" v="Vasshaugmyra" />
		<tag k="natural" v="wetland" />
		<tag k="ssr:stedsnr" v="641752" />
	</node>
	<node id="-49027" lat="62.467308337" lon="8.20507500454">
		<tag k="name" v="Skogsetura" />
		<tag k="natural" v="scree" />
		<tag k="ssr:stedsnr" v="37788" />
	</node>
	<node id="-47083" lat="62.8019250003" lon="7.62808612005">
		<tag k="name" v="Trettaneset" />
		<tag k="natural" v="wetland" />
		<tag k="ssr:stedsnr" v="398008" />
	</node>
	<node id="-48448" lat="62.742599997" lon="7.43559443868">
		<tag k="name" v="Korsmyra" />
		<tag k="natural" v="wetland" />
		<tag k="ssr:stedsnr" v="945137" />
	</node>
	<node id="-49019" lat="62.8035722259" lon="7.82008889075">
		<tag k="name" v="Sigridsteinen" />
		<tag k="natural" v="stone" />
		<tag k="ssr:stedsnr" v="37543" />
	</node>
	<node id="-49018" lat="62.7327944432" lon="7.6994666639">
		<tag k="name" v="Brantmyra" />
>>>>>>> e1d4bc35ff8a6074a6f2e91616a996b547c36f15
		<tag k="natural" v="wetland" />
		<tag k="ssr:stedsnr" v="459218" />
	</node>
<<<<<<< HEAD
	<node lat="62.71753333737588" lon="7.516994449399346" id="-1292">
		<tag k="name" v="Skjenstømyra" />
		<tag k="natural" v="wetland" />
		<tag k="ssr:stedsnr" v="459734" />
	</node>
	<node lat="62.79000555484626" lon="7.760913879811409" id="-1295">
=======
	<node id="-49010" lat="62.8269888898" lon="8.09171111838">
>>>>>>> e1d4bc35ff8a6074a6f2e91616a996b547c36f15
		<tag k="historic" v="shieling" />
		<tag k="name" v="Gamle Nordhaugsetra" />
		<tag k="place" v="locality" />
		<tag k="ssr:stedsnr" v="459792" />
	</node>
<<<<<<< HEAD
	<node lat="62.810563890815" lon="7.561194448155378" id="-1304">
		<tag k="name" v="Seterhaugmyrane" />
		<tag k="natural" v="wetland" />
		<tag k="ssr:stedsnr" v="277026" />
	</node>
	<node lat="62.73929444482756" lon="7.415611111795132" id="-1329">
		<tag k="name" v="Marigardsmyra" />
		<tag k="natural" v="wetland" />
		<tag k="ssr:stedsnr" v="277835" />
	</node>
	<node lat="62.7202416622841" lon="7.398172215627" id="-1331">
		<tag k="name" v="Geitasteinan" />
		<tag k="natural" v="stone" />
		<tag k="ssr:stedsnr" v="277877" />
	</node>
	<node lat="62.77279999989278" lon="7.292374998121855" id="-1338">
		<tag k="name" v="Stillegjerdet" />
		<tag k="natural" v="wetland" />
		<tag k="ssr:stedsnr" v="277917" />
	</node>
	<node lat="62.5495916690077" lon="8.150466673728003" id="-1373">
		<tag k="name" v="Seterfonna" />
		<tag k="place" v="locality" />
		<tag k="ssr:stedsnr" v="280869" />
	</node>
	<node lat="62.72989999823724" lon="7.837305546460189" id="-1379">
		<tag k="name" v="Elgenesmyran" />
		<tag k="natural" v="wetland" />
		<tag k="ssr:stedsnr" v="280927" />
	</node>
	<node lat="62.75487222128738" lon="8.048086103846419" id="-1388">
		<tag k="name" v="Bjørnasvaet" />
		<tag k="place" v="locality" />
		<tag k="ssr:stedsnr" v="462369" />
	</node>
	<node lat="62.81904999675537" lon="8.129597222310041" id="-1401">
		<tag k="name" v="Kvernhusmyran" />
=======
	<node id="-49009" lat="62.8265138849" lon="8.09916388115">
		<tag k="historic" v="shieling" />
		<tag k="name" v="Litlbuplassen" />
		<tag k="place" v="locality" />
		<tag k="ssr:stedsnr" v="37565" />
	</node>
	<node id="-49005" lat="62.7969861099" lon="7.91636111759">
		<tag k="name" v="Fagerlisteinen" />
		<tag k="natural" v="stone" />
		<tag k="ssr:stedsnr" v="37494" />
	</node>
	<node id="-48998" lat="62.4914194478" lon="8.16997500909">
		<tag k="name" v="Ballan" />
		<tag k="natural" v="stone" />
		<tag k="ssr:stedsnr" v="37157" />
	</node>
	<node id="-51044" lat="62.7683999958" lon="7.36106944156">
		<tag k="name" v="Teramyra" />
		<tag k="natural" v="wetland" />
		<tag k="ssr:stedsnr" v="641256" />
	</node>
	<node id="-48993" lat="62.7195361079" lon="7.77561945373">
		<tag k="name" v="Dampen" />
		<tag k="natural" v="stone" />
		<tag k="ssr:stedsnr" v="37072" />
	</node>
	<node id="-48987" lat="62.6761111115" lon="8.16732778241">
		<tag k="name" v="Tortøyan" />
>>>>>>> e1d4bc35ff8a6074a6f2e91616a996b547c36f15
		<tag k="natural" v="wetland" />
		<tag k="ssr:stedsnr" v="462303" />
	</node>
<<<<<<< HEAD
	<node lat="62.76968332962739" lon="7.919438891542348" id="-1403">
		<tag k="name" v="Purkesteinen" />
		<tag k="natural" v="stone" />
		<tag k="ssr:stedsnr" v="462448" />
	</node>
	<node lat="62.75347500388421" lon="8.02402777549317" id="-1408">
		<tag k="name" v="Bjørnattlega" />
		<tag k="place" v="locality" />
		<tag k="ssr:stedsnr" v="462375" />
	</node>
	<node lat="62.74340277687881" lon="8.108074999044307" id="-1414">
		<tag k="name" v="Hardholtmyra" />
=======
	<node id="-46935" lat="62.8337333289" lon="7.50034165784">
		<tag k="name" v="Resmyrane" />
		<tag k="natural" v="wetland" />
		<tag k="ssr:stedsnr" v="338075" />
	</node>
	<node id="-51029" lat="62.7702611084" lon="7.32476110717">
		<tag k="name" v="Svarthammarmyra" />
		<tag k="natural" v="wetland" />
		<tag k="ssr:stedsnr" v="641072" />
	</node>
	<node id="-48980" lat="62.7328583302" lon="7.30745277031">
		<tag k="name" v="Johjellmyra" />
>>>>>>> e1d4bc35ff8a6074a6f2e91616a996b547c36f15
		<tag k="natural" v="wetland" />
		<tag k="ssr:stedsnr" v="462509" />
	</node>
<<<<<<< HEAD
	<node lat="62.77997222375874" lon="8.288791674418134" id="-1426">
		<tag k="name" v="Gråura" />
		<tag k="natural" v="scree" />
		<tag k="ssr:stedsnr" v="462645" />
	</node>
	<node lat="62.748141665848884" lon="7.160944444650035" id="-1453">
		<tag k="name" v="Nonsmyra" />
=======
	<node id="-48979" lat="62.7625166646" lon="7.28633888963">
		<tag k="name" v="Leikplassen" />
		<tag k="natural" v="wetland" />
		<tag k="ssr:stedsnr" v="35906" />
	</node>
	<node id="-51023" lat="62.7757111084" lon="7.41223611899">
		<tag k="name" v="Storhaugmyra" />
>>>>>>> e1d4bc35ff8a6074a6f2e91616a996b547c36f15
		<tag k="natural" v="wetland" />
		<tag k="old_name" v="Lonsmyra" />
		<tag k="ssr:stedsnr" v="314127" />
	</node>
<<<<<<< HEAD
	<node lat="62.69755000296999" lon="7.393552783331629" id="-1464">
		<tag k="name" v="Stormyra" />
=======
	<node id="-48974" lat="62.7606611092" lon="7.32226944956">
		<tag k="name" v="Liamyra" />
>>>>>>> e1d4bc35ff8a6074a6f2e91616a996b547c36f15
		<tag k="natural" v="wetland" />
		<tag k="ssr:stedsnr" v="315703" />
	</node>
<<<<<<< HEAD
	<node lat="62.67874722173173" lon="6.6026083251988625" id="-1489">
		<tag k="name" v="Grøsokvollen" />
=======
	<node id="-51013" lat="62.7549833334" lon="7.59850555337">
		<tag k="historic" v="shieling" />
		<tag k="name" v="Gamle Mausetsetra" />
>>>>>>> e1d4bc35ff8a6074a6f2e91616a996b547c36f15
		<tag k="place" v="locality" />
		<tag k="ssr:stedsnr" v="333400" />
	</node>
<<<<<<< HEAD
	<node lat="62.7788527764657" lon="7.488944446959888" id="-1506">
		<tag k="name" v="Kråkøyran" />
		<tag k="place" v="locality" />
		<tag k="ssr:stedsnr" v="338058" />
	</node>
	<node lat="62.84090277744698" lon="8.109933337349444" id="-1550">
		<tag k="name" v="Dalabumyran" />
		<tag k="natural" v="wetland" />
		<tag k="ssr:stedsnr" v="341615" />
	</node>
	<node lat="62.56576666267437" lon="8.144636109327353" id="-1569">
		<tag k="name" v="Staursteinen" />
=======
	<node id="-51012" lat="62.7521305535" lon="7.60319443957">
		<tag k="historic" v="shieling" />
		<tag k="name" v="Gammelstølan" />
		<tag k="place" v="locality" />
		<tag k="ssr:stedsnr" v="640766" />
	</node>
	<node id="-51011" lat="62.756758336" lon="7.60892777923">
		<tag k="name" v="Skålmyran" />
		<tag k="natural" v="wetland" />
		<tag k="ssr:stedsnr" v="640765" />
	</node>
	<node id="-51008" lat="62.6657361131" lon="7.33071667322">
		<tag k="name" v="Stormyra" />
		<tag k="natural" v="wetland" />
		<tag k="ssr:stedsnr" v="640185" />
	</node>
	<node id="-48958" lat="62.7745194413" lon="7.68154445276">
		<tag k="historic" v="shieling" />
		<tag k="name" v="Kleivsetra" />
		<tag k="place" v="locality" />
		<tag k="ssr:stedsnr" v="34925" />
	</node>
	<node id="-48955" lat="62.7255000042" lon="7.41121944394">
		<tag k="name" v="Gardsteinen" />
>>>>>>> e1d4bc35ff8a6074a6f2e91616a996b547c36f15
		<tag k="natural" v="stone" />
		<tag k="ssr:stedsnr" v="341892" />
	</node>
<<<<<<< HEAD
	<node lat="62.69339444709967" lon="6.617841675708671" id="-1638">
		<tag k="name" v="Hellarmyra" />
		<tag k="natural" v="wetland" />
		<tag k="ssr:stedsnr" v="384052" />
	</node>
	<node lat="62.8019250003141" lon="7.6280861200549355" id="-1658">
		<tag k="name" v="Trettaneset" />
		<tag k="natural" v="wetland" />
		<tag k="ssr:stedsnr" v="398008" />
	</node>
	<node lat="62.77423333259135" lon="7.7802527871175595" id="-1661">
		<tag k="name" v="Engan" />
		<tag k="place" v="locality" />
		<tag k="ssr:stedsnr" v="398127" />
	</node>
	<node lat="62.83372222097702" lon="7.679125003392623" id="-1665">
		<tag k="historic" v="shieling" />
		<tag k="name" v="Skallesetra" />
=======
	<node id="-51002" lat="62.7035499993" lon="6.90075834286">
		<tag k="name" v="Bjørasteinen" />
		<tag k="natural" v="stone" />
		<tag k="ssr:stedsnr" v="637721" />
	</node>
	<node id="-50999" lat="62.7355416657" lon="6.85099445314">
		<tag k="name" v="Hansplassen" />
		<tag k="place" v="locality" />
		<tag k="ssr:stedsnr" v="637582" />
	</node>
	<node id="-48943" lat="62.7264444409" lon="7.02144443775">
		<tag k="name" v="Vorpå" />
>>>>>>> e1d4bc35ff8a6074a6f2e91616a996b547c36f15
		<tag k="place" v="locality" />
		<tag k="ssr:stedsnr" v="398214" />
	</node>
<<<<<<< HEAD
	<node lat="62.702383334679745" lon="7.496755562354721" id="-1671">
		<tag k="name" v="Skjenstøet" />
=======
	<node id="-46894" lat="62.697550003" lon="7.39355278333">
		<tag k="name" v="Stormyra" />
>>>>>>> e1d4bc35ff8a6074a6f2e91616a996b547c36f15
		<tag k="natural" v="wetland" />
		<tag k="ssr:stedsnr" v="398598" />
	</node>
<<<<<<< HEAD
	<node lat="62.77848333366869" lon="7.60535556105806" id="-1673">
		<tag k="name" v="Risamunken" />
		<tag k="natural" v="stone" />
		<tag k="ssr:stedsnr" v="398735" />
	</node>
	<node lat="62.44733888507227" lon="8.27032776853005" id="-1694">
		<tag k="name" v="Einangen" />
=======
	<node id="-48928" lat="62.8386583377" lon="7.73649445257">
		<tag k="name" v="Svartholen" />
>>>>>>> e1d4bc35ff8a6074a6f2e91616a996b547c36f15
		<tag k="place" v="locality" />
		<tag k="ssr:stedsnr" v="401081" />
	</node>
<<<<<<< HEAD
	<node lat="62.748463886341156" lon="7.816491663415684" id="-1704">
		<tag k="name" v="Barsteinen" />
		<tag k="natural" v="stone" />
		<tag k="ssr:stedsnr" v="401594" />
	</node>
	<node lat="62.79738889293967" lon="8.159136111042255" id="-1706">
		<tag k="name" v="Røytvåta" />
=======
	<node id="-48927" lat="62.8205805527" lon="7.78485277653">
		<tag k="name" v="Gnarrmyra" />
		<tag k="natural" v="wetland" />
		<tag k="ssr:stedsnr" v="34188" />
	</node>
	<node id="-48925" lat="62.7022305551" lon="7.54011943681">
		<tag k="name" v="Kringla" />
>>>>>>> e1d4bc35ff8a6074a6f2e91616a996b547c36f15
		<tag k="natural" v="wetland" />
		<tag k="ssr:stedsnr" v="401706" />
	</node>
<<<<<<< HEAD
	<node lat="62.729522224725116" lon="7.855822230425474" id="-1718">
		<tag k="name" v="Sjektemyran" />
=======
	<node id="-48923" lat="62.7063361091" lon="7.55019721363">
		<tag k="name" v="Bekkholå" />
>>>>>>> e1d4bc35ff8a6074a6f2e91616a996b547c36f15
		<tag k="natural" v="wetland" />
		<tag k="ssr:stedsnr" v="401908" />
	</node>
<<<<<<< HEAD
	<node lat="62.68635000427009" lon="7.910869438762813" id="-1725">
		<tag k="name" v="Pestølmyra" />
=======
	<node id="-46383" lat="62.7895111079" lon="7.80797499767">
		<tag k="historic" v="shieling" />
		<tag k="name" v="Setra" />
		<tag k="place" v="locality" />
		<tag k="ssr:stedsnr" v="280676" />
	</node>
	<node id="-46871" lat="62.7481416658" lon="7.16094444465">
		<tag k="name" v="Nonsmyra" />
>>>>>>> e1d4bc35ff8a6074a6f2e91616a996b547c36f15
		<tag k="natural" v="wetland" />
		<tag k="ssr:stedsnr" v="401999" />
	</node>
<<<<<<< HEAD
	<node lat="62.68706666617001" lon="6.668975002094376" id="-1794">
		<tag k="name" v="Stormyra" />
=======
	<node id="-48918" lat="62.7655638909" lon="7.33877776888">
		<tag k="name" v="Smigjerdsmyra" />
>>>>>>> e1d4bc35ff8a6074a6f2e91616a996b547c36f15
		<tag k="natural" v="wetland" />
		<tag k="ssr:stedsnr" v="455324" />
	</node>
<<<<<<< HEAD
	<node lat="62.71272500023862" lon="7.594922217707813" id="-1800">
		<tag k="name" v="Haukmyra" />
=======
	<node id="-48911" lat="62.8131166662" lon="7.74853888656">
		<tag k="name" v="Løbakkmyra" />
>>>>>>> e1d4bc35ff8a6074a6f2e91616a996b547c36f15
		<tag k="natural" v="wetland" />
		<tag k="ssr:stedsnr" v="456472" />
	</node>
<<<<<<< HEAD
	<node lat="62.81513055545379" lon="7.747197223830152" id="-1802">
		<tag k="name" v="Løvollmyra" />
		<tag k="natural" v="wetland" />
		<tag k="ssr:stedsnr" v="459009" />
	</node>
	<node lat="62.788033329846165" lon="7.529922221228536" id="-1807">
		<tag k="name" v="Ytste Vikamyra" />
		<tag k="natural" v="wetland" />
		<tag k="ssr:stedsnr" v="459064" />
	</node>
	<node lat="62.84325555711894" lon="7.752180548518488" id="-1808">
		<tag k="historic" v="shieling" />
		<tag k="name" v="Øygardsetra" />
		<tag k="place" v="locality" />
		<tag k="ssr:stedsnr" v="459203" />
	</node>
	<node lat="62.84094722024884" lon="7.732080556026124" id="-1809">
		<tag k="name" v="Myrslettløken" />
		<tag k="natural" v="wetland" />
		<tag k="ssr:stedsnr" v="459205" />
	</node>
	<node lat="62.728169447263404" lon="6.996069447816471" id="-1820">
		<tag k="name" v="Oterura" />
		<tag k="natural" v="scree" />
		<tag k="ssr:stedsnr" v="459672" />
	</node>
	<node lat="62.81187500350944" lon="7.576438879504354" id="-1834">
		<tag k="name" v="Ljøsmyra" />
		<tag k="natural" v="wetland" />
		<tag k="ssr:stedsnr" v="460413" />
	</node>
	<node lat="62.71215833515096" lon="7.775561114025016" id="-1841">
		<tag k="name" v="Fonna" />
=======
	<node id="-48891" lat="62.6694388904" lon="6.71382778364">
		<tag k="name" v="Leitet" />
>>>>>>> e1d4bc35ff8a6074a6f2e91616a996b547c36f15
		<tag k="place" v="locality" />
		<tag k="ssr:stedsnr" v="462057" />
	</node>
<<<<<<< HEAD
	<node lat="62.81416389184537" lon="8.146763886252993" id="-1844">
		<tag k="name" v="Løyftermyra" />
		<tag k="natural" v="wetland" />
		<tag k="ssr:stedsnr" v="462219" />
	</node>
	<node lat="62.757022223344954" lon="8.062791657514236" id="-1847">
		<tag k="name" v="Prekstolen" />
		<tag k="natural" v="stone" />
		<tag k="ssr:stedsnr" v="462361" />
	</node>
	<node lat="62.798036113759274" lon="7.809708326433195" id="-1857">
=======
	<node id="-46839" lat="62.7799722238" lon="8.28879167442">
		<tag k="name" v="Gråura" />
		<tag k="natural" v="scree" />
		<tag k="ssr:stedsnr" v="462645" />
	</node>
	<node id="-46830" lat="62.7980361138" lon="7.80970832643">
>>>>>>> e1d4bc35ff8a6074a6f2e91616a996b547c36f15
		<tag k="name" v="Naustteigen" />
		<tag k="place" v="locality" />
		<tag k="ssr:stedsnr" v="462562" />
	</node>
<<<<<<< HEAD
	<node lat="62.41699166764337" lon="8.357330548471603" id="-1981">
		<tag k="name" v="Hessura" />
=======
	<node id="-48877" lat="62.6592750026" lon="6.61900832515">
		<tag k="name" v="Øvresvean" />
>>>>>>> e1d4bc35ff8a6074a6f2e91616a996b547c36f15
		<tag k="place" v="locality" />
		<tag k="ssr:stedsnr" v="506760" />
	</node>
<<<<<<< HEAD
	<node lat="62.774030554475175" lon="7.603963890371158" id="-2012">
		<tag k="name" v="Myrhola" />
		<tag k="natural" v="wetland" />
		<tag k="ssr:stedsnr" v="520160" />
	</node>
	<node lat="62.77504722068146" lon="7.769111118679336" id="-2027">
		<tag k="name" v="Kvernamyra" />
		<tag k="natural" v="wetland" />
		<tag k="ssr:stedsnr" v="520809" />
	</node>
	<node lat="62.71684721792837" lon="7.568824998760076" id="-2031">
		<tag k="name" v="Nøkktjørna" />
		<tag k="natural" v="wetland" />
		<tag k="ssr:stedsnr" v="520765" />
	</node>
	<node lat="62.46775833736932" lon="8.189511114614904" id="-2042">
		<tag k="name" v="Geilan" />
=======
	<node id="-48871" lat="62.6682805591" lon="6.59168333315">
		<tag k="name" v="Øygardsskjerven" />
		<tag k="place" v="locality" />
		<tag k="ssr:stedsnr" v="30128" />
	</node>
	<node id="-46815" lat="62.7696833296" lon="7.91943889154">
		<tag k="name" v="Purkesteinen" />
		<tag k="natural" v="stone" />
		<tag k="ssr:stedsnr" v="462448" />
	</node>
	<node id="-48858" lat="62.4222944435" lon="8.33979166313">
		<tag k="name" v="Høyøya" />
		<tag k="place" v="locality" />
		<tag k="ssr:stedsnr" v="20794" />
	</node>
	<node id="-46809" lat="62.7534750039" lon="8.02402777549">
		<tag k="name" v="Bjørnattlega" />
		<tag k="place" v="locality" />
		<tag k="ssr:stedsnr" v="462375" />
	</node>
	<node id="-46808" lat="62.7548722213" lon="8.04808610385">
		<tag k="name" v="Bjørnasvaet" />
>>>>>>> e1d4bc35ff8a6074a6f2e91616a996b547c36f15
		<tag k="place" v="locality" />
		<tag k="ssr:stedsnr" v="523119" />
	</node>
<<<<<<< HEAD
	<node lat="62.82019722244474" lon="8.061713881681595" id="-2050">
		<tag k="name" v="Bjørnsonsteinen" />
=======
	<node id="-46805" lat="62.7570222233" lon="8.06279165751">
		<tag k="name" v="Prekstolen" />
>>>>>>> e1d4bc35ff8a6074a6f2e91616a996b547c36f15
		<tag k="natural" v="stone" />
		<tag k="ssr:stedsnr" v="523368" />
	</node>
<<<<<<< HEAD
	<node lat="62.766569441762925" lon="8.055288884181744" id="-2056">
		<tag k="name" v="Notavollen" />
		<tag k="place" v="locality" />
		<tag k="ssr:stedsnr" v="523465" />
	</node>
	<node lat="62.77890833780385" lon="8.27700832756348" id="-2058">
		<tag k="name" v="Svartsvaet" />
		<tag k="place" v="locality" />
		<tag k="ssr:stedsnr" v="523603" />
	</node>
	<node lat="62.458983329763036" lon="8.211316670223216" id="-2067">
		<tag k="name" v="Hølsteingjerdet" />
=======
	<node id="-46802" lat="62.8190499968" lon="8.12959722231">
		<tag k="name" v="Kvernhusmyran" />
		<tag k="natural" v="wetland" />
		<tag k="ssr:stedsnr" v="462303" />
	</node>
	<node id="-46800" lat="62.8141638918" lon="8.14676388625">
		<tag k="name" v="Løyftermyra" />
		<tag k="natural" v="wetland" />
		<tag k="ssr:stedsnr" v="462219" />
	</node>
	<node id="-46792" lat="62.7121583352" lon="7.77556111403">
		<tag k="name" v="Fonna" />
>>>>>>> e1d4bc35ff8a6074a6f2e91616a996b547c36f15
		<tag k="place" v="locality" />
		<tag k="ssr:stedsnr" v="523816" />
	</node>
<<<<<<< HEAD
	<node lat="62.46834721790776" lon="8.169958334557746" id="-2068">
		<tag k="name" v="Nautfonna" />
		<tag k="place" v="locality" />
		<tag k="ssr:stedsnr" v="523821" />
	</node>
	<node lat="62.66876666428991" lon="6.649863885209466" id="-2074">
		<tag k="name" v="Høgsetmyrane" />
=======
	<node id="-46789" lat="62.8118750035" lon="7.5764388795">
		<tag k="name" v="Ljøsmyra" />
>>>>>>> e1d4bc35ff8a6074a6f2e91616a996b547c36f15
		<tag k="natural" v="wetland" />
		<tag k="ssr:stedsnr" v="688045" />
	</node>
<<<<<<< HEAD
	<node lat="62.45207499843132" lon="8.262477783813397" id="-2082">
		<tag k="alt_name" v="Digerura" />
		<tag k="name" v="Digerurda" />
		<tag k="natural" v="scree" />
		<tag k="ssr:stedsnr" v="557169" />
	</node>
	<node lat="62.66158055817579" lon="7.274019446416199" id="-2096">
		<tag k="name" v="Stormyra" />
=======
	<node id="-46779" lat="62.8066555584" lon="7.84521945045">
		<tag k="name" v="Bustisteinen" />
		<tag k="natural" v="stone" />
		<tag k="ssr:stedsnr" v="280544" />
	</node>
	<node id="-46777" lat="62.7491666679" lon="8.09525277304">
		<tag k="name" v="Langmyran" />
>>>>>>> e1d4bc35ff8a6074a6f2e91616a996b547c36f15
		<tag k="natural" v="wetland" />
		<tag k="ssr:stedsnr" v="557709" />
	</node>
<<<<<<< HEAD
	<node lat="62.42755833421478" lon="8.31450000038634" id="-2119">
		<tag k="name" v="Moen" />
		<tag k="place" v="locality" />
		<tag k="ssr:stedsnr" v="566768" />
	</node>
	<node lat="62.682763884829185" lon="6.75289721733207" id="-2131">
		<tag k="name" v="Liamyra" />
=======
	<node id="-48818" lat="62.7256861099" lon="7.65598610358">
		<tag k="name" v="Gjeldmyra" />
>>>>>>> e1d4bc35ff8a6074a6f2e91616a996b547c36f15
		<tag k="natural" v="wetland" />
		<tag k="ssr:stedsnr" v="576256" />
	</node>
<<<<<<< HEAD
	<node lat="62.66969722246524" lon="6.88388889474093" id="-2133">
		<tag k="name" v="Kløvningen" />
		<tag k="natural" v="stone" />
		<tag k="ssr:stedsnr" v="576394" />
	</node>
	<node lat="62.81064167086557" lon="7.770841663451548" id="-2146">
		<tag k="name" v="Torvmyra" />
=======
	<node id="-50850" lat="62.8315722184" lon="8.0891194454">
		<tag k="name" v="Setermyran" />
>>>>>>> e1d4bc35ff8a6074a6f2e91616a996b547c36f15
		<tag k="natural" v="wetland" />
		<tag k="ssr:stedsnr" v="580213" />
	</node>
<<<<<<< HEAD
	<node lat="62.71786944405596" lon="7.268936111171577" id="-2148">
=======
	<node id="-46742" lat="62.7900055548" lon="7.76091387981">
>>>>>>> e1d4bc35ff8a6074a6f2e91616a996b547c36f15
		<tag k="historic" v="shieling" />
		<tag k="name" v="Setran" />
		<tag k="place" v="locality" />
		<tag k="ssr:stedsnr" v="580250" />
	</node>
<<<<<<< HEAD
	<node lat="62.74052500169468" lon="7.5101250053514" id="-2157">
		<tag k="name" v="Breiskarmyran" />
		<tag k="natural" v="wetland" />
		<tag k="ssr:stedsnr" v="580614" />
	</node>
	<node lat="62.72126944737178" lon="7.642999990518557" id="-2172">
		<tag k="name" v="Hjellmyra" />
		<tag k="natural" v="wetland" />
		<tag k="ssr:stedsnr" v="580998" />
	</node>
	<node lat="62.48199721890595" lon="8.154199998560713" id="-2180">
=======
	<node id="-46738" lat="62.7175333374" lon="7.5169944494">
		<tag k="name" v="Skjenstømyra" />
		<tag k="natural" v="wetland" />
		<tag k="ssr:stedsnr" v="459734" />
	</node>
	<node id="-50833" lat="62.7572499972" lon="8.02706110938">
		<tag k="name" v="Kalvskinnet" />
		<tag k="place" v="locality" />
		<tag k="ssr:stedsnr" v="583391" />
	</node>
	<node id="-46728" lat="62.7281694473" lon="6.99606944782">
		<tag k="name" v="Oterura" />
		<tag k="natural" v="scree" />
		<tag k="ssr:stedsnr" v="459672" />
	</node>
	<node id="-50823" lat="62.4819972189" lon="8.15419999856">
>>>>>>> e1d4bc35ff8a6074a6f2e91616a996b547c36f15
		<tag k="name" v="Gripura" />
		<tag k="natural" v="scree" />
		<tag k="ssr:stedsnr" v="583120" />
	</node>
<<<<<<< HEAD
	<node lat="62.65406944701974" lon="8.025222218066611" id="-2187">
		<tag k="name" v="Såta" />
		<tag k="natural" v="stone" />
		<tag k="ssr:stedsnr" v="583091" />
	</node>
	<node lat="62.757249997184644" lon="8.027061109382071" id="-2198">
		<tag k="name" v="Kalvskinnet" />
=======
	<node id="-46497" lat="62.7825166684" lon="7.70484167474">
		<tag k="name" v="Vollan" />
		<tag k="place" v="locality" />
		<tag k="ssr:stedsnr" v="217121" />
	</node>
	<node id="-50812" lat="62.7613250008" lon="7.4796111023">
		<tag k="name" v="Hestehagen" />
>>>>>>> e1d4bc35ff8a6074a6f2e91616a996b547c36f15
		<tag k="place" v="locality" />
		<tag k="ssr:stedsnr" v="583391" />
	</node>
<<<<<<< HEAD
	<node lat="62.821005559714195" lon="8.131444443794788" id="-2200">
		<tag k="name" v="Kloppmyra" />
=======
	<node id="-50811" lat="62.7212694474" lon="7.64299999052">
		<tag k="name" v="Hjellmyra" />
>>>>>>> e1d4bc35ff8a6074a6f2e91616a996b547c36f15
		<tag k="natural" v="wetland" />
		<tag k="ssr:stedsnr" v="583453" />
	</node>
<<<<<<< HEAD
	<node lat="62.82730278108239" lon="8.132097231606352" id="-2205">
		<tag k="name" v="Byturin" />
		<tag k="natural" v="scree" />
		<tag k="ssr:stedsnr" v="583652" />
	</node>
	<node lat="62.6903305544448" lon="6.618677784147083" id="-2240">
		<tag k="name" v="Langemyra" />
=======
	<node id="-48762" lat="62.7167000035" lon="7.93873888289">
		<tag k="name" v="Kjesteinen" />
		<tag k="natural" v="stone" />
		<tag k="ssr:stedsnr" v="948969" />
	</node>
	<node id="-46712" lat="62.7727999999" lon="7.29237499812">
		<tag k="name" v="Stillegjerdet" />
>>>>>>> e1d4bc35ff8a6074a6f2e91616a996b547c36f15
		<tag k="natural" v="wetland" />
		<tag k="ssr:stedsnr" v="697329" />
	</node>
<<<<<<< HEAD
	<node lat="62.66593055609613" lon="6.6600500089156025" id="-2247">
		<tag k="name" v="Gråura" />
		<tag k="natural" v="scree" />
		<tag k="ssr:stedsnr" v="697951" />
	</node>
	<node lat="62.65687222032203" lon="7.3112833259606225" id="-2267">
		<tag k="name" v="Løkan" />
		<tag k="natural" v="wetland" />
		<tag k="ssr:stedsnr" v="701388" />
	</node>
	<node lat="62.75489721868302" lon="7.563088886412766" id="-2270">
		<tag k="name" v="Røsslimyra" />
		<tag k="natural" v="wetland" />
		<tag k="ssr:stedsnr" v="701791" />
	</node>
	<node lat="62.776627779432225" lon="7.765977770090456" id="-2322">
		<tag k="name" v="Isakøyna" />
=======
	<node id="-48754" lat="62.553708332" lon="8.14571110928">
		<tag k="name" v="Breifonna" />
		<tag k="place" v="locality" />
		<tag k="ssr:stedsnr" v="948910" />
	</node>
	<node id="-46704" lat="62.7392944448" lon="7.4156111118">
		<tag k="name" v="Marigardsmyra" />
		<tag k="natural" v="wetland" />
		<tag k="ssr:stedsnr" v="277835" />
	</node>
	<node id="-50797" lat="62.7573222196" lon="7.57638611587">
		<tag k="historic" v="shieling" />
		<tag k="name" v="Tollåssetra" />
		<tag k="place" v="locality" />
		<tag k="ssr:stedsnr" v="580760" />
	</node>
	<node id="-46695" lat="62.7974055558" lon="7.48911388951">
		<tag k="name" v="Hjelsetmyrane" />
		<tag k="natural" v="wetland" />
		<tag k="ssr:stedsnr" v="459118" />
	</node>
	<node id="-48742" lat="62.7700277778" lon="7.99804444432">
		<tag k="name" v="Salhusvollen" />
		<tag k="place" v="locality" />
		<tag k="ssr:stedsnr" v="948507" />
	</node>
	<node id="-46694" lat="62.805052774" lon="7.50006666888">
		<tag k="name" v="Godtgongarmyra" />
		<tag k="natural" v="wetland" />
		<tag k="ssr:stedsnr" v="459116" />
	</node>
	<node id="-46689" lat="62.7669083367" lon="7.3519111103">
		<tag k="name" v="Brøtlimyra" />
>>>>>>> e1d4bc35ff8a6074a6f2e91616a996b547c36f15
		<tag k="natural" v="wetland" />
		<tag k="ssr:stedsnr" v="702132" />
	</node>
<<<<<<< HEAD
	<node lat="62.82285000063272" lon="7.5850333400821475" id="-2347">
		<tag k="name" v="Hestelia" />
=======
	<node id="-50783" lat="62.7405250017" lon="7.51012500535">
		<tag k="name" v="Breiskarmyran" />
>>>>>>> e1d4bc35ff8a6074a6f2e91616a996b547c36f15
		<tag k="natural" v="wetland" />
		<tag k="ssr:stedsnr" v="702320" />
	</node>
<<<<<<< HEAD
	<node lat="62.73560833587943" lon="7.055680562805648" id="-2349">
		<tag k="name" v="Ødegårdsmyra" />
=======
	<node id="-46685" lat="62.7880333298" lon="7.52992222123">
		<tag k="name" v="Ytste Vikamyra" />
>>>>>>> e1d4bc35ff8a6074a6f2e91616a996b547c36f15
		<tag k="natural" v="wetland" />
		<tag k="ssr:stedsnr" v="702459" />
	</node>
<<<<<<< HEAD
	<node lat="62.69479999622566" lon="7.458552775852402" id="-2351">
		<tag k="name" v="Brennsteinen" />
		<tag k="natural" v="stone" />
		<tag k="ssr:stedsnr" v="702593" />
	</node>
	<node lat="62.76283055693939" lon="7.18898056216918" id="-2353">
		<tag k="name" v="Krokan" />
=======
	<node id="-46684" lat="62.69666111" lon="7.36891666135">
		<tag k="name" v="Glåmå" />
		<tag k="natural" v="wetland" />
		<tag k="ssr:stedsnr" v="277270" />
	</node>
	<node id="-48731" lat="62.8019444485" lon="8.0931583283">
		<tag k="name" v="Brentråkmyra" />
>>>>>>> e1d4bc35ff8a6074a6f2e91616a996b547c36f15
		<tag k="natural" v="wetland" />
		<tag k="ssr:stedsnr" v="702629" />
	</node>
<<<<<<< HEAD
	<node lat="62.74968611136461" lon="7.183774995182863" id="-2360">
		<tag k="name" v="Gjeldmyra" />
=======
	<node id="-50778" lat="62.6997972261" lon="7.47211665918">
		<tag k="name" v="Bergsmyra" />
>>>>>>> e1d4bc35ff8a6074a6f2e91616a996b547c36f15
		<tag k="natural" v="wetland" />
		<tag k="ssr:stedsnr" v="702685" />
	</node>
<<<<<<< HEAD
	<node lat="62.69994721978952" lon="7.408958326175269" id="-2368">
		<tag k="name" v="Haslelisteinen" />
		<tag k="natural" v="stone" />
		<tag k="ssr:stedsnr" v="702848" />
	</node>
	<node lat="62.71904444156995" lon="7.496141664287796" id="-2369">
		<tag k="name" v="Svortesvaet" />
		<tag k="place" v="locality" />
		<tag k="ssr:stedsnr" v="702867" />
	</node>
	<node lat="62.692902780594125" lon="6.690875004954891" id="-2379">
		<tag k="name" v="Langåkermyra" />
=======
	<node id="-50776" lat="62.7178694441" lon="7.26893611117">
		<tag k="historic" v="shieling" />
		<tag k="name" v="Setran" />
		<tag k="place" v="locality" />
		<tag k="ssr:stedsnr" v="580250" />
	</node>
	<node id="-46678" lat="62.8081916697" lon="7.54448054907">
		<tag k="name" v="Nakkmyrane" />
		<tag k="natural" v="wetland" />
		<tag k="ssr:stedsnr" v="459044" />
	</node>
	<node id="-48723" lat="62.8093750022" lon="7.62076944509">
		<tag k="name" v="Slåløken" />
>>>>>>> e1d4bc35ff8a6074a6f2e91616a996b547c36f15
		<tag k="natural" v="wetland" />
		<tag k="ssr:stedsnr" v="627060" />
	</node>
<<<<<<< HEAD
	<node lat="62.41423055778678" lon="8.356869447462284" id="-2385">
		<tag k="name" v="Hessura" />
		<tag k="natural" v="scree" />
		<tag k="ssr:stedsnr" v="704009" />
	</node>
	<node lat="62.80841944541715" lon="8.13537777091026" id="-2386">
		<tag k="name" v="Litlemyrbærholten" />
=======
	<node id="-50765" lat="62.8106416709" lon="7.77084166345">
		<tag k="name" v="Torvmyra" />
>>>>>>> e1d4bc35ff8a6074a6f2e91616a996b547c36f15
		<tag k="natural" v="wetland" />
		<tag k="ssr:stedsnr" v="704237" />
	</node>
<<<<<<< HEAD
	<node lat="62.78835833713199" lon="8.136511104236526" id="-2389">
		<tag k="name" v="Myran" />
=======
	<node id="-46667" lat="62.8151305555" lon="7.74719722383">
		<tag k="name" v="Løvollmyra" />
>>>>>>> e1d4bc35ff8a6074a6f2e91616a996b547c36f15
		<tag k="natural" v="wetland" />
		<tag k="ssr:stedsnr" v="704682" />
	</node>
<<<<<<< HEAD
	<node lat="62.68973610769437" lon="7.908713886047273" id="-2401">
		<tag k="name" v="Såtmyra" />
=======
	<node id="-48713" lat="62.7311194447" lon="6.69228055676">
		<tag k="name" v="Stormyra" />
>>>>>>> e1d4bc35ff8a6074a6f2e91616a996b547c36f15
		<tag k="natural" v="wetland" />
		<tag k="ssr:stedsnr" v="705057" />
	</node>
<<<<<<< HEAD
	<node lat="62.723249997302695" lon="7.865027770162732" id="-2403">
		<tag k="name" v="Høgura" />
=======
	<node id="-50755" lat="62.6953777778" lon="6.87464443756">
		<tag k="name" v="Rabben" />
>>>>>>> e1d4bc35ff8a6074a6f2e91616a996b547c36f15
		<tag k="natural" v="scree" />
		<tag k="ssr:stedsnr" v="705063" />
	</node>
<<<<<<< HEAD
	<node lat="62.73554166567981" lon="6.850994453139116" id="-2412">
		<tag k="name" v="Hansplassen" />
		<tag k="place" v="locality" />
		<tag k="ssr:stedsnr" v="637582" />
	</node>
	<node lat="62.79331666898985" lon="7.7894305557818315" id="-2424">
		<tag k="name" v="Kløvnesteinmyra" />
=======
	<node id="-48697" lat="62.7501083377" lon="7.52221388713">
		<tag k="name" v="Monsmyra" />
>>>>>>> e1d4bc35ff8a6074a6f2e91616a996b547c36f15
		<tag k="natural" v="wetland" />
		<tag k="ssr:stedsnr" v="705639" />
	</node>
<<<<<<< HEAD
	<node lat="62.740780557777086" lon="7.714691657776477" id="-2437">
		<tag k="name" v="Svaet" />
		<tag k="place" v="locality" />
		<tag k="ssr:stedsnr" v="705731" />
	</node>
	<node lat="62.80860833526572" lon="7.851727773860457" id="-2439">
		<tag k="name" v="Saghaugmyra" />
=======
	<node id="-48696" lat="62.7640749976" lon="7.23340277057">
		<tag k="name" v="Fanbostadmyra" />
>>>>>>> e1d4bc35ff8a6074a6f2e91616a996b547c36f15
		<tag k="natural" v="wetland" />
		<tag k="ssr:stedsnr" v="705588" />
	</node>
<<<<<<< HEAD
	<node lat="62.76839999575071" lon="7.361069441557488" id="-2468">
		<tag k="name" v="Teramyra" />
		<tag k="natural" v="wetland" />
		<tag k="ssr:stedsnr" v="641256" />
	</node>
	<node lat="62.73126944322654" lon="7.9038333370635385" id="-2480">
		<tag k="name" v="Innklovsteinen" />
=======
	<node id="-50742" lat="62.6696972225" lon="6.88388889474">
		<tag k="name" v="Kløvningen" />
		<tag k="natural" v="stone" />
		<tag k="ssr:stedsnr" v="576394" />
	</node>
	<node id="-50740" lat="62.6897333378" lon="6.83183888673">
		<tag k="name" v="Storsteinane" />
>>>>>>> e1d4bc35ff8a6074a6f2e91616a996b547c36f15
		<tag k="natural" v="stone" />
		<tag k="ssr:stedsnr" v="705962" />
	</node>
<<<<<<< HEAD
	<node lat="62.69887778187883" lon="7.969625002292572" id="-2488">
		<tag k="name" v="Ørnesteinen" />
=======
	<node id="-46640" lat="62.7004833364" lon="7.75882222163">
		<tag k="name" v="Bekren" />
>>>>>>> e1d4bc35ff8a6074a6f2e91616a996b547c36f15
		<tag k="natural" v="stone" />
		<tag k="ssr:stedsnr" v="705991" />
	</node>
<<<<<<< HEAD
	<node lat="62.729247223443345" lon="7.305913885293287" id="-2501">
		<tag k="name" v="Vågaplassen" />
=======
	<node id="-48682" lat="62.5772166639" lon="8.14635833444">
		<tag k="name" v="Blikskårsvaa" />
>>>>>>> e1d4bc35ff8a6074a6f2e91616a996b547c36f15
		<tag k="place" v="locality" />
		<tag k="ssr:stedsnr" v="641905" />
	</node>
<<<<<<< HEAD
	<node lat="62.80223610860943" lon="8.125855552094844" id="-2516">
		<tag k="name" v="Råkemyra" />
		<tag k="natural" v="wetland" />
		<tag k="ssr:stedsnr" v="643726" />
	</node>
	<node lat="62.80153333702863" lon="8.109902777110136" id="-2517">
		<tag k="name" v="Langmyra" />
		<tag k="natural" v="wetland" />
		<tag k="ssr:stedsnr" v="643728" />
	</node>
	<node lat="62.63289166337963" lon="8.096277773631375" id="-2528">
		<tag k="name" v="Hafella" />
=======
	<node id="-50780" lat="62.6917861076" lon="7.49693610436">
		<tag k="name" v="Kvitsteinmyra" />
		<tag k="natural" v="wetland" />
		<tag k="ssr:stedsnr" v="580573" />
	</node>
	<node id="-50723" lat="62.4275583342" lon="8.31450000039">
		<tag k="name" v="Moen" />
>>>>>>> e1d4bc35ff8a6074a6f2e91616a996b547c36f15
		<tag k="place" v="locality" />
		<tag k="ssr:stedsnr" v="644506" />
	</node>
<<<<<<< HEAD
	<node lat="62.716958333680694" lon="7.841438885760304" id="-2545">
		<tag k="name" v="Skjenstømyran" />
=======
	<node id="-48672" lat="62.7760694404" lon="7.90045554867">
		<tag k="name" v="Øvre Kjerringmyra" />
>>>>>>> e1d4bc35ff8a6074a6f2e91616a996b547c36f15
		<tag k="natural" v="wetland" />
		<tag k="ssr:stedsnr" v="644924" />
	</node>
<<<<<<< HEAD
	<node lat="62.52093333647441" lon="8.268783332970505" id="-2569">
		<tag k="name" v="Storbreen" />
		<tag k="natural" v="glacier" />
		<tag k="ssr:stedsnr" v="679316" />
	</node>
	<node lat="62.73541111491031" lon="7.0351472161270445" id="-2570">
		<tag k="name" v="Bjørnamyra" />
=======
	<node id="-50718" lat="62.6678444428" lon="6.7059472184">
		<tag k="name" v="Juvikmyrane" />
>>>>>>> e1d4bc35ff8a6074a6f2e91616a996b547c36f15
		<tag k="natural" v="wetland" />
		<tag k="ssr:stedsnr" v="679070" />
	</node>
<<<<<<< HEAD
	<node lat="62.657080556461146" lon="7.3467555492898535" id="-2582">
		<tag k="name" v="Eikamyra" />
=======
	<node id="-50715" lat="62.6687666643" lon="6.64947500361">
		<tag k="name" v="Rambergmyrane" />
>>>>>>> e1d4bc35ff8a6074a6f2e91616a996b547c36f15
		<tag k="natural" v="wetland" />
		<tag k="ssr:stedsnr" v="679581" />
	</node>
<<<<<<< HEAD
	<node lat="62.83507221875299" lon="7.653252775374943" id="-2593">
		<tag k="name" v="Raudliløken" />
=======
	<node id="-48664" lat="62.7612277754" lon="7.83979166595">
		<tag k="name" v="Fjellmyra" />
>>>>>>> e1d4bc35ff8a6074a6f2e91616a996b547c36f15
		<tag k="natural" v="wetland" />
		<tag k="ssr:stedsnr" v="680733" />
	</node>
<<<<<<< HEAD
	<node lat="62.696799997958095" lon="6.63161387991722" id="-2613">
		<tag k="name" v="Hjellmyra" />
		<tag k="natural" v="wetland" />
		<tag k="ssr:stedsnr" v="697872" />
	</node>
	<node lat="62.72696944208646" lon="7.317858333300624" id="-2618">
		<tag k="name" v="Bøen" />
=======
	<node id="-48648" lat="62.7217888924" lon="7.85564722046">
		<tag k="name" v="Blåsvaet" />
>>>>>>> e1d4bc35ff8a6074a6f2e91616a996b547c36f15
		<tag k="place" v="locality" />
		<tag k="ssr:stedsnr" v="701381" />
	</node>
<<<<<<< HEAD
	<node lat="62.83394166679616" lon="7.7053500095093765" id="-2635">
		<tag k="name" v="Lykkjeøyna" />
		<tag k="natural" v="wetland" />
		<tag k="ssr:stedsnr" v="702195" />
	</node>
	<node lat="62.7513472239123" lon="7.1480166642913945" id="-2643">
		<tag k="name" v="Olaringarmyra" />
=======
	<node id="-48640" lat="62.5679055576" lon="8.1363166696">
		<tag k="name" v="Fjørå" />
		<tag k="natural" v="beach" />
		<tag k="ssr:stedsnr" v="887103" />
		<tag k="surface" v="sand" />
	</node>
	<node id="-48639" lat="62.7107499995" lon="7.52676666151">
		<tag k="name" v="Løkan" />
>>>>>>> e1d4bc35ff8a6074a6f2e91616a996b547c36f15
		<tag k="natural" v="wetland" />
		<tag k="ssr:stedsnr" v="702677" />
	</node>
<<<<<<< HEAD
	<node lat="62.738041669872466" lon="7.4350916660218065" id="-2647">
		<tag k="name" v="Nakketeigen" />
		<tag k="place" v="locality" />
		<tag k="ssr:stedsnr" v="702818" />
	</node>
	<node lat="62.765469441047514" lon="7.2988638824180025" id="-2649">
		<tag k="name" v="Gammelsetermyra" />
=======
	<node id="-50674" lat="62.4520749984" lon="8.26247778381">
		<tag k="alt_name" v="Digerura" />
		<tag k="name" v="Digerurda" />
		<tag k="natural" v="scree" />
		<tag k="ssr:stedsnr" v="557169" />
	</node>
	<node id="-46577" lat="62.6677249963" lon="7.2626472198">
		<tag k="name" v="Roligmyra" />
>>>>>>> e1d4bc35ff8a6074a6f2e91616a996b547c36f15
		<tag k="natural" v="wetland" />
		<tag k="ssr:stedsnr" v="702906" />
	</node>
<<<<<<< HEAD
	<node lat="62.74771667037314" lon="7.743608329179862" id="-2654">
		<tag k="name" v="Klokkemyra" />
		<tag k="natural" v="wetland" />
		<tag k="ssr:stedsnr" v="704665" />
	</node>
	<node lat="62.79398055778656" lon="8.283013887614871" id="-2656">
		<tag k="name" v="Teistura" />
=======
	<node id="-48619" lat="62.7906027786" lon="7.53056665695">
		<tag k="name" v="Storøya" />
		<tag k="place" v="locality" />
		<tag k="ssr:stedsnr" v="884309" />
	</node>
	<node id="-48618" lat="62.6499083317" lon="7.27776945188">
		<tag k="name" v="Gråura" />
>>>>>>> e1d4bc35ff8a6074a6f2e91616a996b547c36f15
		<tag k="natural" v="scree" />
		<tag k="ssr:stedsnr" v="704674" />
	</node>
<<<<<<< HEAD
	<node lat="62.42340277993754" lon="8.32757499208909" id="-2682">
		<tag k="name" v="Geitsteinen" />
		<tag k="natural" v="stone" />
		<tag k="ssr:stedsnr" v="705805" />
	</node>
	<node lat="62.84210277882258" lon="8.124766667941032" id="-2733">
		<tag k="alt_name" v="Rødsand Gruver" />
		<tag k="landuse" v="quarry" />
		<tag k="name" v="Gruver" />
		<tag k="ssr:stedsnr" v="740512" />
	</node>
	<node lat="62.42314721937195" lon="8.330091657087122" id="-2740">
		<tag k="name" v="Storura" />
=======
	<node id="-48617" lat="62.820241671" lon="7.79419443887">
		<tag k="name" v="Lømyra" />
		<tag k="natural" v="wetland" />
		<tag k="ssr:stedsnr" v="884209" />
	</node>
	<node id="-48616" lat="62.8442555561" lon="7.7379055469">
		<tag k="historic" v="shieling" />
		<tag k="name" v="Øyasetra" />
		<tag k="place" v="locality" />
		<tag k="ssr:stedsnr" v="884206" />
	</node>
	<node id="-48608" lat="62.7873083364" lon="7.58118332826">
		<tag k="name" v="Røsbergura" />
>>>>>>> e1d4bc35ff8a6074a6f2e91616a996b547c36f15
		<tag k="natural" v="scree" />
		<tag k="ssr:stedsnr" v="748778" />
	</node>
<<<<<<< HEAD
	<node lat="62.68463610682401" lon="6.7590722293303145" id="-2751">
		<tag k="name" v="Gullbergmyra" />
		<tag k="natural" v="wetland" />
		<tag k="ssr:stedsnr" v="758312" />
	</node>
	<node lat="62.693108335280975" lon="7.530605549333059" id="-2762">
		<tag k="name" v="Mortensteinen" />
		<tag k="natural" v="stone" />
		<tag k="ssr:stedsnr" v="759407" />
	</node>
	<node lat="62.71252500251035" lon="6.885419435134205" id="-2764">
		<tag k="name" v="Kvilaran" />
=======
	<node id="-48605" lat="62.7162083309" lon="6.89666388403">
		<tag k="name" v="Myrsetvaet" />
		<tag k="natural" v="wetland" />
		<tag k="ssr:stedsnr" v="881903" />
	</node>
	<node id="-46547" lat="62.4230805518" lon="8.31653889285">
		<tag k="name" v="Mofonnin" />
		<tag k="place" v="locality" />
		<tag k="ssr:stedsnr" v="445772" />
	</node>
	<node id="-48593" lat="62.6855638844" lon="7.9749055506">
		<tag k="name" v="Domkyrkja" />
>>>>>>> e1d4bc35ff8a6074a6f2e91616a996b547c36f15
		<tag k="natural" v="stone" />
		<tag k="ssr:stedsnr" v="759719" />
	</node>
<<<<<<< HEAD
	<node lat="62.699272223079795" lon="7.436077785438249" id="-2778">
		<tag k="name" v="Hamnavikmyra" />
		<tag k="natural" v="wetland" />
		<tag k="ssr:stedsnr" v="762852" />
	</node>
	<node lat="62.75629722115933" lon="7.468238883611563" id="-2780">
		<tag k="name" v="Blokkemyra" />
		<tag k="natural" v="wetland" />
		<tag k="ssr:stedsnr" v="762799" />
	</node>
	<node lat="62.82907222111084" lon="7.6444694349644635" id="-2789">
		<tag k="name" v="Smålimyrane" />
		<tag k="natural" v="wetland" />
		<tag k="ssr:stedsnr" v="763222" />
	</node>
	<node lat="62.75701388938712" lon="7.346441671512094" id="-2793">
		<tag k="name" v="Strandhagen" />
=======
	<node id="-46326" lat="62.6699833297" lon="7.87571944364">
		<tag k="name" v="Fallmyrslættet" />
		<tag k="natural" v="wetland" />
		<tag k="ssr:stedsnr" v="159916" />
	</node>
	<node id="-50625" lat="62.648405559" lon="8.03233611904">
		<tag k="name" v="Hansslættet" />
		<tag k="place" v="locality" />
		<tag k="ssr:stedsnr" v="523828" />
	</node>
	<node id="-50624" lat="62.4683472179" lon="8.16995833456">
		<tag k="name" v="Nautfonna" />
>>>>>>> e1d4bc35ff8a6074a6f2e91616a996b547c36f15
		<tag k="place" v="locality" />
		<tag k="ssr:stedsnr" v="763253" />
	</node>
<<<<<<< HEAD
	<node lat="62.57196111300126" lon="8.180227779582914" id="-2817">
		<tag k="name" v="Gjerde" />
=======
	<node id="-50623" lat="62.4589833298" lon="8.21131667022">
		<tag k="name" v="Hølsteingjerdet" />
>>>>>>> e1d4bc35ff8a6074a6f2e91616a996b547c36f15
		<tag k="place" v="locality" />
		<tag k="ssr:stedsnr" v="765106" />
	</node>
<<<<<<< HEAD
	<node lat="62.73751666679298" lon="7.716438892925953" id="-2819">
		<tag k="name" v="Setermyra" />
=======
	<node id="-48570" lat="62.7746583378" lon="7.89876111319">
		<tag k="name" v="Nedre Kjerringmyra" />
>>>>>>> e1d4bc35ff8a6074a6f2e91616a996b547c36f15
		<tag k="natural" v="wetland" />
		<tag k="ssr:stedsnr" v="765503" />
	</node>
<<<<<<< HEAD
	<node lat="62.44037222442745" lon="8.284744445641516" id="-2825">
		<tag k="name" v="Høvelreitan" />
		<tag k="place" v="locality" />
		<tag k="ssr:stedsnr" v="765756" />
	</node>
	<node lat="62.68978055455553" lon="7.991088880644158" id="-2835">
		<tag k="name" v="Kyrkjemyra" />
=======
	<node id="-46520" lat="62.7195277773" lon="7.77561944645">
		<tag k="name" v="Jutulen" />
		<tag k="natural" v="stone" />
		<tag k="ssr:stedsnr" v="219057" />
	</node>
	<node id="-50615" lat="62.7896083334" lon="8.06945834114">
		<tag k="name" v="Lauvåsmyra" />
>>>>>>> e1d4bc35ff8a6074a6f2e91616a996b547c36f15
		<tag k="natural" v="wetland" />
		<tag k="ssr:stedsnr" v="765988" />
	</node>
<<<<<<< HEAD
	<node lat="62.63683888820722" lon="8.122047229263298" id="-2839">
		<tag k="name" v="Neråsbøen" />
=======
	<node id="-46665" lat="62.7629999989" lon="7.33537500771">
		<tag k="name" v="Smigjerdet" />
		<tag k="place" v="locality" />
		<tag k="ssr:stedsnr" v="277074" />
	</node>
	<node id="-50611" lat="62.7665694418" lon="8.05528888418">
		<tag k="name" v="Notavollen" />
>>>>>>> e1d4bc35ff8a6074a6f2e91616a996b547c36f15
		<tag k="place" v="locality" />
		<tag k="ssr:stedsnr" v="766080" />
	</node>
<<<<<<< HEAD
	<node lat="62.775783334696925" lon="8.074105548155485" id="-2846">
		<tag k="name" v="Heggåkran" />
=======
	<node id="-46511" lat="62.7338305525" lon="7.42144721858">
		<tag k="name" v="Larsplassen" />
>>>>>>> e1d4bc35ff8a6074a6f2e91616a996b547c36f15
		<tag k="place" v="locality" />
		<tag k="ssr:stedsnr" v="766394" />
	</node>
<<<<<<< HEAD
	<node lat="62.7195277736671" lon="6.91171388947622" id="-2921">
		<tag k="name" v="Langlimyrane" />
=======
	<node id="-46510" lat="62.7351805596" lon="7.43213332383">
		<tag k="name" v="Erikhjellmyra" />
>>>>>>> e1d4bc35ff8a6074a6f2e91616a996b547c36f15
		<tag k="natural" v="wetland" />
		<tag k="ssr:stedsnr" v="820919" />
	</node>
<<<<<<< HEAD
	<node lat="62.80215833734251" lon="7.6951888800299875" id="-2942">
		<tag k="name" v="Litleøyna" />
=======
	<node id="-50603" lat="62.7985055519" lon="7.85365833095">
		<tag k="name" v="Engamyran" />
>>>>>>> e1d4bc35ff8a6074a6f2e91616a996b547c36f15
		<tag k="natural" v="wetland" />
		<tag k="ssr:stedsnr" v="824027" />
	</node>
<<<<<<< HEAD
	<node lat="62.73071389100309" lon="7.513138896548326" id="-2948">
		<tag k="name" v="Langmyra" />
		<tag k="natural" v="wetland" />
		<tag k="ssr:stedsnr" v="824338" />
	</node>
	<node lat="62.82874166343913" lon="7.514283334536402" id="-2954">
		<tag k="name" v="Løken" />
=======
	<node id="-47376" lat="62.7269694421" lon="7.3178583333">
		<tag k="name" v="Bøen" />
		<tag k="place" v="locality" />
		<tag k="ssr:stedsnr" v="701381" />
	</node>
	<node id="-50593" lat="62.4677583374" lon="8.18951111461">
		<tag k="name" v="Geilan" />
		<tag k="place" v="locality" />
		<tag k="ssr:stedsnr" v="523119" />
	</node>
	<node id="-48542" lat="62.8166111081" lon="8.11863888359">
		<tag k="name" v="Holbekkmyran" />
>>>>>>> e1d4bc35ff8a6074a6f2e91616a996b547c36f15
		<tag k="natural" v="wetland" />
		<tag k="ssr:stedsnr" v="824369" />
	</node>
<<<<<<< HEAD
	<node lat="62.752522224696314" lon="7.183752786067725" id="-2973">
		<tag k="name" v="Myrsletta" />
		<tag k="natural" v="wetland" />
		<tag k="ssr:stedsnr" v="824731" />
	</node>
	<node lat="62.754333336184104" lon="7.08809999636955" id="-2979">
		<tag k="name" v="Hyttemyra" />
=======
	<node id="-48539" lat="62.4147472242" lon="8.35422222925">
		<tag k="name" v="Kusteinane" />
		<tag k="natural" v="stone" />
		<tag k="ssr:stedsnr" v="948122" />
	</node>
	<node id="-50585" lat="62.806888887" lon="8.07682221571">
		<tag k="name" v="Pelømyra" />
>>>>>>> e1d4bc35ff8a6074a6f2e91616a996b547c36f15
		<tag k="natural" v="wetland" />
		<tag k="ssr:stedsnr" v="824680" />
	</node>
<<<<<<< HEAD
	<node lat="62.568538884691854" lon="8.144277781105675" id="-2992">
		<tag k="name" v="Hagen" />
=======
	<node id="-50579" lat="62.6126083328" lon="8.1197722227">
		<tag k="name" v="Seljefonna" />
>>>>>>> e1d4bc35ff8a6074a6f2e91616a996b547c36f15
		<tag k="place" v="locality" />
		<tag k="ssr:stedsnr" v="826119" />
	</node>
<<<<<<< HEAD
	<node lat="62.65926388801184" lon="8.136911106487323" id="-2993">
		<tag k="name" v="Gråura" />
		<tag k="natural" v="scree" />
		<tag k="ssr:stedsnr" v="826127" />
	</node>
	<node lat="62.734886107379324" lon="7.719305548741594" id="-2999">
		<tag k="name" v="Smivollen" />
=======
	<node id="-46480" lat="62.6646888925" lon="6.59977500945">
		<tag k="name" v="Ådalssletta" />
>>>>>>> e1d4bc35ff8a6074a6f2e91616a996b547c36f15
		<tag k="place" v="locality" />
		<tag k="ssr:stedsnr" v="826528" />
	</node>
	<node lat="62.83354999787118" lon="8.127577773992005" id="-3021">
		<tag k="name" v="Haugaura" />
		<tag k="natural" v="scree" />
		<tag k="ssr:stedsnr" v="827704" />
	</node>
	<node lat="62.770774996994476" lon="8.00016666877587" id="-3027">
		<tag k="name" v="Brekka" />
		<tag k="place" v="locality" />
		<tag k="ssr:stedsnr" v="827671" />
	</node>
	<node lat="62.78041111456826" lon="7.992658325713577" id="-3030">
		<tag k="name" v="Kvilaren" />
		<tag k="natural" v="stone" />
		<tag k="ssr:stedsnr" v="827679" />
	</node>
	<node lat="62.478733332900006" lon="8.162927777736774" id="-3033">
		<tag k="name" v="Skjeparhellaren" />
		<tag k="natural" v="stone" />
		<tag k="ssr:stedsnr" v="827824" />
	</node>
<<<<<<< HEAD
	<node lat="62.731119444709904" lon="6.692280556762262" id="-3122">
=======
	<node id="-48526" lat="62.6569500013" lon="8.1062222171">
>>>>>>> e1d4bc35ff8a6074a6f2e91616a996b547c36f15
		<tag k="name" v="Stormyra" />
		<tag k="natural" v="wetland" />
		<tag k="ssr:stedsnr" v="931212" />
	</node>
<<<<<<< HEAD
	<node lat="62.732669443574466" lon="6.806894436184852" id="-3139">
		<tag k="name" v="Rørsetura" />
=======
	<node id="-50573" lat="62.7264000039" lon="7.86348888443">
		<tag k="name" v="Nerura" />
>>>>>>> e1d4bc35ff8a6074a6f2e91616a996b547c36f15
		<tag k="natural" v="scree" />
		<tag k="ssr:stedsnr" v="881607" />
	</node>
<<<<<<< HEAD
	<node lat="62.71620833091754" lon="6.896663884025173" id="-3142">
		<tag k="name" v="Myrsetvaet" />
=======
	<node id="-50572" lat="62.6792666643" lon="7.99832221582">
		<tag k="name" v="Øyna" />
>>>>>>> e1d4bc35ff8a6074a6f2e91616a996b547c36f15
		<tag k="natural" v="wetland" />
		<tag k="ssr:stedsnr" v="881903" />
	</node>
<<<<<<< HEAD
	<node lat="62.815680556336595" lon="7.529727773401172" id="-3146">
		<tag k="name" v="Fonnasteinen" />
		<tag k="natural" v="stone" />
		<tag k="ssr:stedsnr" v="884052" />
	</node>
	<node lat="62.84425555613345" lon="7.7379055469024705" id="-3149">
		<tag k="historic" v="shieling" />
		<tag k="name" v="Øyasetra" />
=======
	<node id="-48522" lat="62.6648444437" lon="8.00534445188">
		<tag k="name" v="Bonfonna" />
>>>>>>> e1d4bc35ff8a6074a6f2e91616a996b547c36f15
		<tag k="place" v="locality" />
		<tag k="ssr:stedsnr" v="884206" />
	</node>
<<<<<<< HEAD
	<node lat="62.8202416709812" lon="7.79419443887133" id="-3150">
		<tag k="name" v="Lømyra" />
=======
	<node id="-48516" lat="62.7743361076" lon="7.6485305644">
		<tag k="name" v="Bleikmyra" />
>>>>>>> e1d4bc35ff8a6074a6f2e91616a996b547c36f15
		<tag k="natural" v="wetland" />
		<tag k="ssr:stedsnr" v="884209" />
	</node>
<<<<<<< HEAD
	<node lat="62.73565832923098" lon="7.518149997366251" id="-3165">
		<tag k="historic" v="shieling" />
		<tag k="name" v="Gjerdsetra" />
		<tag k="place" v="locality" />
		<tag k="ssr:stedsnr" v="884706" />
	</node>
	<node lat="62.70038333387502" lon="7.536897217136161" id="-3167">
		<tag k="name" v="Gjerdmyra" />
=======
	<node id="-50563" lat="62.7314722267" lon="7.4696000068">
		<tag k="name" v="Setermyra" />
		<tag k="natural" v="wetland" />
		<tag k="ssr:stedsnr" v="520885" />
	</node>
	<node id="-50557" lat="62.7750472207" lon="7.76911111868">
		<tag k="name" v="Kvernamyra" />
>>>>>>> e1d4bc35ff8a6074a6f2e91616a996b547c36f15
		<tag k="natural" v="wetland" />
		<tag k="ssr:stedsnr" v="884709" />
	</node>
<<<<<<< HEAD
	<node lat="62.77842499870268" lon="7.642858333270776" id="-3173">
		<tag k="name" v="Håsteinen" />
		<tag k="natural" v="stone" />
		<tag k="ssr:stedsnr" v="884926" />
	</node>
	<node lat="62.567905557584375" lon="8.136316669599584" id="-3183">
		<tag k="name" v="Fjørå" />
		<tag k="natural" v="beach" />
		<tag k="ssr:stedsnr" v="887103" />
		<tag k="surface" v="sand" />
	</node>
	<node lat="62.721788892352336" lon="7.855647220464849" id="-3190">
		<tag k="name" v="Blåsvaet" />
=======
	<node id="-46459" lat="62.6561277733" lon="6.58508333084">
		<tag k="name" v="Leitemyran" />
		<tag k="natural" v="wetland" />
		<tag k="ssr:stedsnr" v="194435" />
	</node>
	<node id="-50552" lat="62.7597944486" lon="7.48736111287">
		<tag k="name" v="Hamnateigen" />
>>>>>>> e1d4bc35ff8a6074a6f2e91616a996b547c36f15
		<tag k="place" v="locality" />
		<tag k="ssr:stedsnr" v="887056" />
	</node>
<<<<<<< HEAD
	<node lat="62.784366667106156" lon="8.176811105233337" id="-3194">
		<tag k="name" v="Eidshaugura" />
		<tag k="natural" v="scree" />
		<tag k="ssr:stedsnr" v="887248" />
	</node>
	<node lat="62.74474465834309" lon="6.888177302921044" id="-3231">
		<tag k="name" v="Bendsethagen" />
		<tag k="place" v="locality" />
		<tag k="ssr:stedsnr" v="900658" />
	</node>
	<node lat="62.79934722585339" lon="7.574911101381124" id="-3273">
		<tag k="name" v="Baklimyrane" />
=======
	<node id="-50548" lat="62.7168472179" lon="7.56882499876">
		<tag k="name" v="Nøkktjørna" />
>>>>>>> e1d4bc35ff8a6074a6f2e91616a996b547c36f15
		<tag k="natural" v="wetland" />
		<tag k="ssr:stedsnr" v="945010" />
	</node>
<<<<<<< HEAD
	<node lat="62.78825833647746" lon="7.762350008431501" id="-3276">
		<tag k="name" v="Rundmyra" />
		<tag k="natural" v="wetland" />
		<tag k="ssr:stedsnr" v="945104" />
	</node>
	<node lat="62.742599996970704" lon="7.435594438680786" id="-3279">
		<tag k="name" v="Korsmyra" />
=======
	<node id="-48495" lat="62.7445722191" lon="7.44322499661">
		<tag k="name" v="Storskarsmyra" />
		<tag k="natural" v="wetland" />
		<tag k="ssr:stedsnr" v="945798" />
	</node>
	<node id="-50534" lat="62.6878027778" lon="7.49135278383">
		<tag k="name" v="Sjølaupet" />
		<tag k="place" v="locality" />
		<tag k="ssr:stedsnr" v="520609" />
	</node>
	<node id="-48481" lat="62.7350111106" lon="7.03536388804">
		<tag k="name" v="Løypmyra" />
		<tag k="natural" v="wetland" />
		<tag k="ssr:stedsnr" v="945661" />
	</node>
	<node id="-50527" lat="62.7629861144" lon="7.29816388114">
		<tag k="name" v="Langmyra" />
>>>>>>> e1d4bc35ff8a6074a6f2e91616a996b547c36f15
		<tag k="natural" v="wetland" />
		<tag k="ssr:stedsnr" v="945137" />
	</node>
<<<<<<< HEAD
	<node lat="62.83520555403281" lon="7.661380550945999" id="-3281">
		<tag k="name" v="Hjellimyra" />
=======
	<node id="-48469" lat="62.7101805551" lon="7.49340555834">
		<tag k="name" v="Horgamyra" />
>>>>>>> e1d4bc35ff8a6074a6f2e91616a996b547c36f15
		<tag k="natural" v="wetland" />
		<tag k="ssr:stedsnr" v="945189" />
	</node>
<<<<<<< HEAD
	<node lat="62.66484444367005" lon="8.005344451877223" id="-3311">
		<tag k="name" v="Bonfonna" />
		<tag k="place" v="locality" />
		<tag k="ssr:stedsnr" v="947039" />
	</node>
	<node lat="62.77002777783423" lon="7.998044444319411" id="-3326">
		<tag k="name" v="Salhusvollen" />
=======
	<node id="-46414" lat="62.7153222181" lon="7.89891665907">
		<tag k="name" v="Vedafonna" />
>>>>>>> e1d4bc35ff8a6074a6f2e91616a996b547c36f15
		<tag k="place" v="locality" />
		<tag k="ssr:stedsnr" v="948507" />
	</node>
<<<<<<< HEAD
	<node lat="62.774658337751966" lon="7.898761113185143" id="-3328">
		<tag k="name" v="Nedre Kjerringmyra" />
=======
	<node id="-51292" lat="62.6580777748" lon="6.57528888597">
		<tag k="name" v="Kvamskjerven" />
		<tag k="place" v="locality" />
		<tag k="ssr:stedsnr" v="758194" />
	</node>
	<node id="-50506" lat="62.7740305545" lon="7.60396389037">
		<tag k="name" v="Myrhola" />
>>>>>>> e1d4bc35ff8a6074a6f2e91616a996b547c36f15
		<tag k="natural" v="wetland" />
		<tag k="ssr:stedsnr" v="948531" />
	</node>
<<<<<<< HEAD
	<node lat="62.68556388440524" lon="7.974905550602916" id="-3343">
		<tag k="name" v="Domkyrkja" />
		<tag k="natural" v="stone" />
		<tag k="ssr:stedsnr" v="948986" />
	</node>
	<node lat="62.72568610992115" lon="7.6559861035840475" id="-3397">
		<tag k="name" v="Gjeldmyra" />
=======
	<node id="-48457" lat="62.8424500011" lon="7.73929722768">
		<tag k="name" v="Øyamyra" />
>>>>>>> e1d4bc35ff8a6074a6f2e91616a996b547c36f15
		<tag k="natural" v="wetland" />
		<tag k="ssr:stedsnr" v="11789" />
	</node>
<<<<<<< HEAD
	<node lat="62.668280559081516" lon="6.591683333149333" id="-3452">
		<tag k="name" v="Øygardsskjerven" />
		<tag k="place" v="locality" />
		<tag k="ssr:stedsnr" v="30128" />
	</node>
	<node lat="62.765563890869274" lon="7.338777768878568" id="-3482">
		<tag k="name" v="Smigjerdsmyra" />
=======
	<node id="-48453" lat="62.835205554" lon="7.66138055095">
		<tag k="name" v="Hjellimyra" />
>>>>>>> e1d4bc35ff8a6074a6f2e91616a996b547c36f15
		<tag k="natural" v="wetland" />
		<tag k="ssr:stedsnr" v="34095" />
	</node>
<<<<<<< HEAD
	<node lat="62.82058055273758" lon="7.784852776527185" id="-3485">
		<tag k="name" v="Gnarrmyra" />
=======
	<node id="-48451" lat="62.8127916702" lon="7.7785500011">
		<tag k="name" v="Skiljarmyra" />
>>>>>>> e1d4bc35ff8a6074a6f2e91616a996b547c36f15
		<tag k="natural" v="wetland" />
		<tag k="ssr:stedsnr" v="34188" />
	</node>
<<<<<<< HEAD
	<node lat="62.83865833768349" lon="7.7364944525717325" id="-3486">
		<tag k="name" v="Svartholen" />
=======
	<node id="-46402" lat="62.549591669" lon="8.15046667373">
		<tag k="name" v="Seterfonna" />
>>>>>>> e1d4bc35ff8a6074a6f2e91616a996b547c36f15
		<tag k="place" v="locality" />
		<tag k="ssr:stedsnr" v="34189" />
	</node>
<<<<<<< HEAD
	<node lat="62.70633610910545" lon="7.550197213632275" id="-3493">
		<tag k="name" v="Bekkholå" />
		<tag k="natural" v="wetland" />
		<tag k="ssr:stedsnr" v="34143" />
	</node>
	<node lat="62.70223055511859" lon="7.540119436813866" id="-3495">
		<tag k="name" v="Kringla" />
=======
	<node id="-50496" lat="62.8315138848" lon="7.46234167456">
		<tag k="name" v="Hjelsetsletta" />
		<tag k="natural" v="wetland" />
		<tag k="ssr:stedsnr" v="520081" />
	</node>
	<node id="-48445" lat="62.7225583325" lon="7.40214443733">
		<tag k="name" v="Storura" />
		<tag k="natural" v="scree" />
		<tag k="ssr:stedsnr" v="945122" />
	</node>
	<node id="-48444" lat="62.7882583365" lon="7.76235000843">
		<tag k="name" v="Rundmyra" />
>>>>>>> e1d4bc35ff8a6074a6f2e91616a996b547c36f15
		<tag k="natural" v="wetland" />
		<tag k="ssr:stedsnr" v="34150" />
	</node>
<<<<<<< HEAD
	<node lat="62.72644444090055" lon="7.021444437747739" id="-3513">
		<tag k="name" v="Vorpå" />
		<tag k="place" v="locality" />
		<tag k="ssr:stedsnr" v="34656" />
	</node>
	<node lat="62.72550000417115" lon="7.411219443941922" id="-3517">
		<tag k="name" v="Gardsteinen" />
=======
	<node id="-46393" lat="62.425941667" lon="8.3089861111">
		<tag k="name" v="Nysteinen" />
>>>>>>> e1d4bc35ff8a6074a6f2e91616a996b547c36f15
		<tag k="natural" v="stone" />
		<tag k="ssr:stedsnr" v="34841" />
	</node>
<<<<<<< HEAD
	<node lat="62.77451944126714" lon="7.68154445275772" id="-3519">
=======
	<node id="-48436" lat="62.7967333314" lon="7.42057221737">
>>>>>>> e1d4bc35ff8a6074a6f2e91616a996b547c36f15
		<tag k="historic" v="shieling" />
		<tag k="name" v="Kleivsetra" />
		<tag k="place" v="locality" />
		<tag k="ssr:stedsnr" v="34925" />
	</node>
<<<<<<< HEAD
	<node lat="62.73285833019764" lon="7.307452770314096" id="-3531">
		<tag k="name" v="Johjellmyra" />
=======
	<node id="-46387" lat="62.7943416687" lon="8.13862777216">
		<tag k="name" v="Stormyra" />
>>>>>>> e1d4bc35ff8a6074a6f2e91616a996b547c36f15
		<tag k="natural" v="wetland" />
		<tag k="ssr:stedsnr" v="35927" />
	</node>
<<<<<<< HEAD
	<node lat="62.67611111146522" lon="8.167327782408044" id="-3549">
		<tag k="name" v="Tortøyan" />
=======
	<node id="-50479" lat="62.8151222232" lon="7.67945555276">
		<tag k="name" v="Bolletehaugmyra" />
>>>>>>> e1d4bc35ff8a6074a6f2e91616a996b547c36f15
		<tag k="natural" v="wetland" />
		<tag k="ssr:stedsnr" v="37135" />
	</node>
<<<<<<< HEAD
	<node lat="62.49141944784162" lon="8.169975009091463" id="-3554">
		<tag k="name" v="Ballan" />
		<tag k="natural" v="stone" />
		<tag k="ssr:stedsnr" v="37157" />
	</node>
	<node lat="62.821308337063165" lon="8.072036103703208" id="-3557">
		<tag k="name" v="Skiljarsteinen" />
		<tag k="natural" v="stone" />
		<tag k="ssr:stedsnr" v="38365" />
	</node>
	<node lat="62.796986109853044" lon="7.916361117587031" id="-3563">
		<tag k="name" v="Fagerlisteinen" />
		<tag k="natural" v="stone" />
		<tag k="ssr:stedsnr" v="37494" />
	</node>
	<node lat="62.46730833698967" lon="8.205075004537152" id="-3569">
		<tag k="name" v="Skogsetura" />
		<tag k="natural" v="scree" />
		<tag k="ssr:stedsnr" v="37788" />
	</node>
	<node lat="62.73279444316606" lon="7.69946666389814" id="-3577">
		<tag k="name" v="Brantmyra" />
=======
	<node id="-46382" lat="62.8208611121" lon="7.82415276892">
		<tag k="name" v="Etarmyra" />
>>>>>>> e1d4bc35ff8a6074a6f2e91616a996b547c36f15
		<tag k="natural" v="wetland" />
		<tag k="ssr:stedsnr" v="37534" />
	</node>
<<<<<<< HEAD
	<node lat="62.80357222592638" lon="7.820088890748988" id="-3578">
		<tag k="name" v="Sigridsteinen" />
=======
	<node id="-48429" lat="62.8138222214" lon="7.51728888998">
		<tag k="name" v="Fonnavarden" />
>>>>>>> e1d4bc35ff8a6074a6f2e91616a996b547c36f15
		<tag k="natural" v="stone" />
		<tag k="ssr:stedsnr" v="37543" />
	</node>
<<<<<<< HEAD
	<node lat="62.73272222215832" lon="7.72384721449535" id="-3580">
		<tag k="name" v="Kyrkjeura" />
		<tag k="natural" v="scree" />
		<tag k="ssr:stedsnr" v="37556" />
	</node>
	<node lat="62.614388890757155" lon="8.174513884347924" id="-3588">
		<tag k="name" v="Strandura" />
		<tag k="natural" v="scree" />
		<tag k="ssr:stedsnr" v="37839" />
	</node>
	<node lat="62.81238611256402" lon="8.105044446857285" id="-3605">
		<tag k="name" v="Grønlimyran" />
=======
	<node id="-46409" lat="62.7298999982" lon="7.83730554646">
		<tag k="name" v="Elgenesmyran" />
		<tag k="natural" v="wetland" />
		<tag k="ssr:stedsnr" v="280927" />
	</node>
	<node id="-48423" lat="62.7993472259" lon="7.57491110138">
		<tag k="name" v="Baklimyrane" />
>>>>>>> e1d4bc35ff8a6074a6f2e91616a996b547c36f15
		<tag k="natural" v="wetland" />
		<tag k="ssr:stedsnr" v="38343" />
	</node>
<<<<<<< HEAD
	<node lat="62.80264721800758" lon="8.09411665918312" id="-3609">
		<tag k="name" v="Brannrotmyra" />
=======
	<node id="-48421" lat="62.7637750035" lon="7.6157111118">
		<tag k="name" v="Tjørhjellmyra" />
>>>>>>> e1d4bc35ff8a6074a6f2e91616a996b547c36f15
		<tag k="natural" v="wetland" />
		<tag k="ssr:stedsnr" v="38425" />
	</node>
<<<<<<< HEAD
	<node lat="62.69690555409081" lon="7.870091673460719" id="-3659">
		<tag k="name" v="Heia" />
=======
	<node id="-48419" lat="62.7531694455" lon="7.57939999876">
		<tag k="name" v="Skålmyran" />
>>>>>>> e1d4bc35ff8a6074a6f2e91616a996b547c36f15
		<tag k="natural" v="wetland" />
		<tag k="ssr:stedsnr" v="72418" />
	</node>
<<<<<<< HEAD
	<node lat="62.64631388748155" lon="6.530311101904588" id="-3712">
		<tag k="name" v="Trollkjerka" />
		<tag k="natural" v="stone" />
		<tag k="ssr:stedsnr" v="91111" />
	</node>
	<node lat="62.68936944449757" lon="6.770647217041347" id="-3716">
		<tag k="name" v="Diplane" />
=======
	<node id="-46367" lat="62.783436111" lon="8.01576110587">
		<tag k="name" v="Hatlbakkmyra" />
>>>>>>> e1d4bc35ff8a6074a6f2e91616a996b547c36f15
		<tag k="natural" v="wetland" />
		<tag k="ssr:stedsnr" v="91389" />
	</node>
<<<<<<< HEAD
	<node lat="62.719616665603596" lon="6.899888885258763" id="-3737">
		<tag k="name" v="Håkåbumyra" />
=======
	<node id="-46361" lat="62.7765361138" lon="8.07880554767">
		<tag k="name" v="Bergamyra" />
>>>>>>> e1d4bc35ff8a6074a6f2e91616a996b547c36f15
		<tag k="natural" v="wetland" />
		<tag k="ssr:stedsnr" v="92898" />
	</node>
<<<<<<< HEAD
	<node lat="62.81067222004834" lon="7.673855555582887" id="-3745">
		<tag k="name" v="Skalleløken" />
		<tag k="natural" v="wetland" />
		<tag k="ssr:stedsnr" v="95012" />
	</node>
	<node lat="62.78618055601638" lon="7.542583335816661" id="-3748">
		<tag k="name" v="Hungnestrøa" />
=======
	<node id="-46360" lat="62.7745611147" lon="8.08198055325">
		<tag k="name" v="Skuljorda" />
		<tag k="place" v="locality" />
		<tag k="ssr:stedsnr" v="280394" />
	</node>
	<node id="-46359" lat="62.6379722212" lon="8.11059445022">
		<tag k="name" v="Øverbøen" />
>>>>>>> e1d4bc35ff8a6074a6f2e91616a996b547c36f15
		<tag k="place" v="locality" />
		<tag k="ssr:stedsnr" v="95032" />
	</node>
<<<<<<< HEAD
	<node lat="62.82637222015395" lon="7.429999998007216" id="-3754">
		<tag k="name" v="Langvassmyran" />
=======
	<node id="-50454" lat="62.75161389" lon="7.53159166204">
		<tag k="name" v="Mikkelmyra" />
>>>>>>> e1d4bc35ff8a6074a6f2e91616a996b547c36f15
		<tag k="natural" v="wetland" />
		<tag k="ssr:stedsnr" v="95074" />
	</node>
<<<<<<< HEAD
	<node lat="62.80803055357212" lon="7.465144453378564" id="-3755">
		<tag k="name" v="Poppelskjeta" />
		<tag k="natural" v="wetland" />
		<tag k="ssr:stedsnr" v="95079" />
	</node>
	<node lat="62.708683336357026" lon="7.5473555540870985" id="-3760">
		<tag k="name" v="Løkmyra" />
=======
	<node id="-46357" lat="62.758802776" lon="8.037288881">
		<tag k="name" v="Brunvollgjerdet" />
		<tag k="place" v="locality" />
		<tag k="ssr:stedsnr" v="280383" />
	</node>
	<node id="-46355" lat="62.7493500005" lon="8.03977500463">
		<tag k="name" v="Teppingsmyra" />
>>>>>>> e1d4bc35ff8a6074a6f2e91616a996b547c36f15
		<tag k="natural" v="wetland" />
		<tag k="ssr:stedsnr" v="95106" />
	</node>
<<<<<<< HEAD
	<node lat="62.69455555815361" lon="7.532375009252177" id="-3761">
		<tag k="name" v="Urin" />
		<tag k="natural" v="scree" />
		<tag k="ssr:stedsnr" v="95109" />
	</node>
	<node lat="62.66081666333416" lon="7.36162499309647" id="-3762">
		<tag k="name" v="Skarmyra" />
=======
	<node id="-48402" lat="62.5467250044" lon="8.18631666179">
		<tag k="name" v="Reitan" />
		<tag k="place" v="locality" />
		<tag k="ssr:stedsnr" v="861118" />
	</node>
	<node id="-46352" lat="62.7891083354" lon="8.14831111423">
		<tag k="name" v="Slåttamyran" />
>>>>>>> e1d4bc35ff8a6074a6f2e91616a996b547c36f15
		<tag k="natural" v="wetland" />
		<tag k="ssr:stedsnr" v="95140" />
	</node>
<<<<<<< HEAD
	<node lat="62.770897218107734" lon="7.346430553234335" id="-3769">
		<tag k="name" v="Torvet" />
=======
	<node id="-50440" lat="62.7037027779" lon="7.37994445242">
		<tag k="name" v="Røstemyra" />
>>>>>>> e1d4bc35ff8a6074a6f2e91616a996b547c36f15
		<tag k="natural" v="wetland" />
		<tag k="ssr:stedsnr" v="95271" />
	</node>
<<<<<<< HEAD
	<node lat="62.7490194456399" lon="7.519475001489442" id="-3788">
		<tag k="name" v="PePlassamyra" />
		<tag k="natural" v="wetland" />
		<tag k="ssr:stedsnr" v="95741" />
	</node>
	<node lat="62.63540277760923" lon="8.131044446167497" id="-3802">
		<tag k="name" v="Slettskredet" />
		<tag k="natural" v="scree" />
		<tag k="ssr:stedsnr" v="98099" />
	</node>
	<node lat="62.806608337735135" lon="8.115547219720657" id="-3804">
		<tag k="name" v="Langmyrhalsen" />
		<tag k="natural" v="wetland" />
		<tag k="ssr:stedsnr" v="98292" />
	</node>
	<node lat="62.78278333600917" lon="7.834016660619642" id="-3833">
		<tag k="name" v="Langripa" />
		<tag k="natural" v="wetland" />
		<tag k="ssr:stedsnr" v="98653" />
	</node>
	<node lat="62.784577781771546" lon="8.17447778507311" id="-3835">
		<tag k="name" v="Fonna" />
		<tag k="place" v="locality" />
		<tag k="ssr:stedsnr" v="98724" />
	</node>
	<node lat="62.72749999833062" lon="7.6776388810271206" id="-3839">
		<tag k="name" v="Langteigen" />
		<tag k="place" v="locality" />
		<tag k="ssr:stedsnr" v="98705" />
	</node>
	<node lat="62.48178888748404" lon="8.151019440707932" id="-3841">
		<tag k="name" v="Påskesteinen" />
=======
	<node id="-46338" lat="62.6190361071" lon="8.08190000261">
		<tag k="name" v="Styggeværshaugen" />
		<tag k="place" v="locality" />
		<tag k="ssr:stedsnr" v="280064" />
	</node>
	<node id="-46327" lat="62.6485194459" lon="7.82409166766">
		<tag k="name" v="Dansarsteinen" />
		<tag k="natural" v="stone" />
		<tag k="ssr:stedsnr" v="159918" />
	</node>
	<node id="-48374" lat="62.6752666623" lon="6.90666944686">
		<tag k="name" v="Leitamyra" />
		<tag k="natural" v="wetland" />
		<tag k="ssr:stedsnr" v="941461" />
	</node>
	<node id="-46323" lat="62.7941805513" lon="7.80907500336">
		<tag k="name" v="Trøa" />
		<tag k="place" v="locality" />
		<tag k="ssr:stedsnr" v="159707" />
	</node>
	<node id="-46319" lat="62.7543722253" lon="7.80789721618">
		<tag k="name" v="Hjellmyra" />
		<tag k="natural" v="wetland" />
		<tag k="ssr:stedsnr" v="159668" />
	</node>
	<node id="-46318" lat="62.7546611129" lon="7.81402499826">
		<tag k="name" v="Venndalstimyran" />
		<tag k="natural" v="wetland" />
		<tag k="ssr:stedsnr" v="159667" />
	</node>
	<node id="-46631" lat="62.7127250002" lon="7.59492221771">
		<tag k="name" v="Haukmyra" />
		<tag k="natural" v="wetland" />
		<tag k="ssr:stedsnr" v="456472" />
	</node>
	<node id="-46312" lat="62.8160083355" lon="7.91951944552">
		<tag k="name" v="Kureronkjesteinen" />
>>>>>>> e1d4bc35ff8a6074a6f2e91616a996b547c36f15
		<tag k="natural" v="stone" />
		<tag k="ssr:stedsnr" v="98786" />
	</node>
<<<<<<< HEAD
	<node lat="62.66619722188763" lon="8.171252777264362" id="-3849">
		<tag k="name" v="Korsseterfonna" />
		<tag k="place" v="locality" />
		<tag k="ssr:stedsnr" v="98827" />
	</node>
	<node lat="62.43381388841684" lon="8.30854722262679" id="-3909">
		<tag k="name" v="Espet" />
		<tag k="place" v="locality" />
		<tag k="ssr:stedsnr" v="141736" />
	</node>
	<node lat="62.411649998882936" lon="8.367122221159363" id="-3910">
		<tag k="name" v="Slættet" />
		<tag k="place" v="locality" />
		<tag k="ssr:stedsnr" v="141737" />
	</node>
	<node lat="62.45285833039584" lon="8.348808339885661" id="-3911">
		<tag k="name" v="Selskreden" />
=======
	<node id="-46305" lat="62.8047083343" lon="7.97551110845">
		<tag k="name" v="Lussteinen" />
		<tag k="natural" v="stone" />
		<tag k="ssr:stedsnr" v="159514" />
	</node>
	<node id="-46303" lat="62.7703888924" lon="8.23673610457">
		<tag k="name" v="Slettamyra" />
		<tag k="natural" v="wetland" />
		<tag k="ssr:stedsnr" v="159369" />
	</node>
	<node id="-48350" lat="62.8335499979" lon="8.12757777399">
		<tag k="name" v="Haugaura" />
		<tag k="natural" v="scree" />
		<tag k="ssr:stedsnr" v="827704" />
	</node>
	<node id="-46301" lat="62.6203861151" lon="8.10536111151">
		<tag k="name" v="Sandgeilen" />
>>>>>>> e1d4bc35ff8a6074a6f2e91616a996b547c36f15
		<tag k="place" v="locality" />
		<tag k="ssr:stedsnr" v="141745" />
	</node>
<<<<<<< HEAD
	<node lat="62.71860833224327" lon="6.6987333313073645" id="-3920">
		<tag k="name" v="Grønskarmyra" />
		<tag k="natural" v="wetland" />
		<tag k="ssr:stedsnr" v="151044" />
	</node>
	<node lat="62.815036111961376" lon="7.534047219194038" id="-3937">
		<tag k="name" v="Resmyrane" />
=======
	<node id="-48346" lat="62.7015944439" lon="7.81364722843">
		<tag k="name" v="Kråkgullsteinen" />
		<tag k="natural" v="stone" />
		<tag k="ssr:stedsnr" v="826911" />
	</node>
	<node id="-48337" lat="62.7352916671" lon="7.03221666286">
		<tag k="name" v="Samsemyra" />
>>>>>>> e1d4bc35ff8a6074a6f2e91616a996b547c36f15
		<tag k="natural" v="wetland" />
		<tag k="ssr:stedsnr" v="156040" />
	</node>
<<<<<<< HEAD
	<node lat="62.701613884670024" lon="7.561452783654691" id="-3939">
		<tag k="name" v="Nerbøen" />
=======
	<node id="-50383" lat="62.7743222188" lon="8.28088611317">
		<tag k="name" v="Svain" />
>>>>>>> e1d4bc35ff8a6074a6f2e91616a996b547c36f15
		<tag k="place" v="locality" />
		<tag k="ssr:stedsnr" v="156128" />
	</node>
<<<<<<< HEAD
	<node lat="62.7496527798803" lon="7.53333610564345" id="-3943">
		<tag k="name" v="Rødtjeldmyra" />
=======
	<node id="-46286" lat="62.7599333363" lon="7.47354444458">
		<tag k="name" v="Slåttamyra" />
>>>>>>> e1d4bc35ff8a6074a6f2e91616a996b547c36f15
		<tag k="natural" v="wetland" />
		<tag k="ssr:stedsnr" v="155751" />
	</node>
<<<<<<< HEAD
	<node lat="62.83351388617093" lon="7.70008888510362" id="-3950">
		<tag k="name" v="Brattsetøyna" />
		<tag k="natural" v="wetland" />
		<tag k="ssr:stedsnr" v="156188" />
	</node>
	<node lat="62.792233330581766" lon="7.501138881281299" id="-3953">
		<tag k="name" v="Gjermyra" />
		<tag k="natural" v="wetland" />
		<tag k="ssr:stedsnr" v="156313" />
	</node>
	<node lat="62.735511111076335" lon="6.973977773687547" id="-3957">
		<tag k="name" v="Skjerskogen" />
=======
	<node id="-47649" lat="62.4485722191" lon="8.2852083362">
		<tag k="name" v="Styggura" />
		<tag k="natural" v="scree" />
		<tag k="ssr:stedsnr" v="583077" />
	</node>
	<node id="-48324" lat="62.7356416687" lon="7.4808499995">
		<tag k="name" v="Stormyra" />
		<tag k="natural" v="wetland" />
		<tag k="ssr:stedsnr" v="824172" />
	</node>
	<node id="-50371" lat="62.7654555522" lon="8.20406943757">
		<tag k="name" v="Gråsteinen" />
		<tag k="natural" v="stone" />
		<tag k="ssr:stedsnr" v="402370" />
	</node>
	<node id="-46272" lat="62.7202416623" lon="7.39817221563">
		<tag k="name" v="Geitasteinan" />
		<tag k="natural" v="stone" />
		<tag k="ssr:stedsnr" v="277877" />
	</node>
	<node id="-48317" lat="62.8026166628" lon="7.58152500414">
		<tag k="name" v="Ola Hauaskogen" />
>>>>>>> e1d4bc35ff8a6074a6f2e91616a996b547c36f15
		<tag k="place" v="locality" />
		<tag k="ssr:stedsnr" v="156492" />
	</node>
<<<<<<< HEAD
	<node lat="62.73143611118089" lon="7.028097218867039" id="-3958">
		<tag k="name" v="Bjønnamyra" />
=======
	<node id="-48316" lat="62.8021583373" lon="7.69518888003">
		<tag k="name" v="Litleøyna" />
>>>>>>> e1d4bc35ff8a6074a6f2e91616a996b547c36f15
		<tag k="natural" v="wetland" />
		<tag k="ssr:stedsnr" v="156497" />
	</node>
<<<<<<< HEAD
	<node lat="62.76117500182067" lon="7.495419451349663" id="-3968">
		<tag k="name" v="Seterbøen" />
=======
	<node id="-50362" lat="62.6863500043" lon="7.91086943876">
		<tag k="name" v="Pestølmyra" />
>>>>>>> e1d4bc35ff8a6074a6f2e91616a996b547c36f15
		<tag k="natural" v="wetland" />
		<tag k="ssr:stedsnr" v="156780" />
	</node>
<<<<<<< HEAD
	<node lat="62.78363333254678" lon="7.394247222574923" id="-3973">
		<tag k="name" v="Klumpesteinen" />
		<tag k="natural" v="stone" />
		<tag k="ssr:stedsnr" v="156896" />
	</node>
	<node lat="62.74676111010774" lon="7.161744439190364" id="-3976">
		<tag k="name" v="Storsteinen" />
		<tag k="natural" v="stone" />
		<tag k="ssr:stedsnr" v="156703" />
	</node>
	<node lat="62.749163885855836" lon="7.43873888537338" id="-3982">
		<tag k="name" v="Ospateigen" />
		<tag k="place" v="locality" />
		<tag k="ssr:stedsnr" v="156841" />
	</node>
	<node lat="62.67582499713252" lon="7.25295556312413" id="-3985">
		<tag k="name" v="Eikasteinen" />
=======
	<node id="-48306" lat="62.7195277737" lon="6.91171388948">
		<tag k="name" v="Langlimyrane" />
		<tag k="natural" v="wetland" />
		<tag k="ssr:stedsnr" v="820919" />
	</node>
	<node id="-46256" lat="62.7855611124" lon="7.49844165905">
		<tag k="name" v="Langmyra" />
		<tag k="natural" v="wetland" />
		<tag k="ssr:stedsnr" v="277299" />
	</node>
	<node id="-46255" lat="62.7689944487" lon="7.31261665907">
		<tag k="name" v="Dyrmyra" />
		<tag k="natural" v="wetland" />
		<tag k="ssr:stedsnr" v="277289" />
	</node>
	<node id="-46253" lat="62.7577222187" lon="7.26983889008">
		<tag k="name" v="Kvilaren" />
>>>>>>> e1d4bc35ff8a6074a6f2e91616a996b547c36f15
		<tag k="natural" v="stone" />
		<tag k="ssr:stedsnr" v="156947" />
	</node>
<<<<<<< HEAD
	<node lat="62.75918610670661" lon="7.53169721956134" id="-3988">
		<tag k="name" v="Langgjerda" />
=======
	<node id="-50347" lat="62.7295222247" lon="7.85582223043">
		<tag k="name" v="Sjektemyran" />
>>>>>>> e1d4bc35ff8a6074a6f2e91616a996b547c36f15
		<tag k="natural" v="wetland" />
		<tag k="ssr:stedsnr" v="156976" />
	</node>
<<<<<<< HEAD
	<node lat="62.72345277398044" lon="7.662377784800679" id="-3991">
		<tag k="name" v="Hoåteigen" />
		<tag k="place" v="locality" />
		<tag k="ssr:stedsnr" v="156987" />
	</node>
	<node lat="62.685672226267194" lon="7.983261107455216" id="-3992">
		<tag k="name" v="Grasøyna" />
=======
	<node id="-46250" lat="62.6673194468" lon="7.28142777355">
		<tag k="name" v="Langmyra" />
>>>>>>> e1d4bc35ff8a6074a6f2e91616a996b547c36f15
		<tag k="natural" v="wetland" />
		<tag k="ssr:stedsnr" v="158049" />
	</node>
<<<<<<< HEAD
	<node lat="62.69717221869342" lon="7.979122220944044" id="-3994">
		<tag k="name" v="Brentura" />
		<tag k="natural" v="scree" />
		<tag k="ssr:stedsnr" v="158061" />
	</node>
	<node lat="62.72533055301864" lon="7.838805547860211" id="-3998">
		<tag k="name" v="Kollurin" />
		<tag k="natural" v="scree" />
		<tag k="ssr:stedsnr" v="158089" />
	</node>
	<node lat="62.701577774035634" lon="7.913808334508547" id="-3999">
		<tag k="name" v="Trøin" />
=======
	<node id="-48296" lat="62.6713749979" lon="6.59938889666">
		<tag k="name" v="Nygardssletta" />
		<tag k="place" v="locality" />
		<tag k="ssr:stedsnr" v="819117" />
	</node>
	<node id="-50340" lat="62.5968361109" lon="8.14069166746">
		<tag k="name" v="Fjordungsvåin" />
>>>>>>> e1d4bc35ff8a6074a6f2e91616a996b547c36f15
		<tag k="place" v="locality" />
		<tag k="ssr:stedsnr" v="158120" />
	</node>
<<<<<<< HEAD
	<node lat="62.7360861085162" lon="7.9346999957177005" id="-4001">
		<tag k="name" v="Nesmyra" />
=======
	<node id="-46240" lat="62.7887777747" lon="7.5355666664">
		<tag k="name" v="Nøre Vikamyra" />
>>>>>>> e1d4bc35ff8a6074a6f2e91616a996b547c36f15
		<tag k="natural" v="wetland" />
		<tag k="ssr:stedsnr" v="158125" />
	</node>
<<<<<<< HEAD
	<node lat="62.75144722454248" lon="7.742430551330353" id="-4005">
		<tag k="name" v="Skrufarmyran" />
=======
	<node id="-46238" lat="62.8132500043" lon="7.57884445372">
		<tag k="name" v="Heimholene" />
>>>>>>> e1d4bc35ff8a6074a6f2e91616a996b547c36f15
		<tag k="natural" v="wetland" />
		<tag k="ssr:stedsnr" v="158692" />
	</node>
<<<<<<< HEAD
	<node lat="62.803783330573744" lon="8.117877786361502" id="-4009">
		<tag k="name" v="Vassmyra" />
=======
	<node id="-46237" lat="62.8216194482" lon="7.60877499568">
		<tag k="name" v="Stangarkrokane" />
>>>>>>> e1d4bc35ff8a6074a6f2e91616a996b547c36f15
		<tag k="natural" v="wetland" />
		<tag k="ssr:stedsnr" v="158731" />
	</node>
<<<<<<< HEAD
	<node lat="62.75298888538368" lon="8.027586120179503" id="-4011">
		<tag k="name" v="Svintrøa" />
		<tag k="place" v="locality" />
		<tag k="ssr:stedsnr" v="158745" />
	</node>
	<node lat="62.71061666585538" lon="7.77443611431526" id="-4014">
		<tag k="name" v="Kvilarsteinen" />
		<tag k="natural" v="stone" />
		<tag k="ssr:stedsnr" v="158945" />
	</node>
	<node lat="62.75299444877593" lon="8.019202779290337" id="-4018">
		<tag k="name" v="Grøtsteinen" />
		<tag k="natural" v="stone" />
		<tag k="ssr:stedsnr" v="159426" />
	</node>
	<node lat="62.816008335462186" lon="7.919519445517225" id="-4021">
		<tag k="name" v="Kureronkjesteinen" />
		<tag k="natural" v="stone" />
		<tag k="ssr:stedsnr" v="159608" />
	</node>
	<node lat="62.736502776202244" lon="7.712380555489654" id="-4029">
		<tag k="name" v="Teppingmyra" />
		<tag k="natural" v="wetland" />
		<tag k="ssr:stedsnr" v="159588" />
	</node>
	<node lat="62.754661112890936" lon="7.814024998256832" id="-4042">
		<tag k="name" v="Venndalstimyran" />
=======
	<node id="-46236" lat="62.8105638908" lon="7.56119444816">
		<tag k="name" v="Seterhaugmyrane" />
		<tag k="natural" v="wetland" />
		<tag k="ssr:stedsnr" v="277026" />
	</node>
	<node id="-46235" lat="62.7398305553" lon="7.55960278235">
		<tag k="name" v="Seilmyra" />
>>>>>>> e1d4bc35ff8a6074a6f2e91616a996b547c36f15
		<tag k="natural" v="wetland" />
		<tag k="ssr:stedsnr" v="159667" />
	</node>
<<<<<<< HEAD
	<node lat="62.75437222525552" lon="7.807897216176743" id="-4043">
		<tag k="name" v="Hjellmyra" />
		<tag k="natural" v="wetland" />
		<tag k="ssr:stedsnr" v="159668" />
	</node>
	<node lat="62.720388888297194" lon="7.897341672351141" id="-4063">
		<tag k="name" v="Svartsvaet" />
=======
	<node id="-50328" lat="62.6591111117" lon="8.04518610621">
		<tag k="name" v="Kjerringslættet" />
>>>>>>> e1d4bc35ff8a6074a6f2e91616a996b547c36f15
		<tag k="place" v="locality" />
		<tag k="ssr:stedsnr" v="159964" />
	</node>
<<<<<<< HEAD
	<node lat="62.42516666439715" lon="8.312341674433215" id="-4067">
		<tag k="name" v="Opplendingsteinen" />
		<tag k="natural" v="stone" />
		<tag k="ssr:stedsnr" v="159814" />
	</node>
	<node lat="62.486083337316806" lon="8.17308333574911" id="-4071">
		<tag k="name" v="Katthammarura" />
=======
	<node id="-48270" lat="62.7643277803" lon="7.75815832493">
		<tag k="name" v="Storura" />
>>>>>>> e1d4bc35ff8a6074a6f2e91616a996b547c36f15
		<tag k="natural" v="scree" />
		<tag k="ssr:stedsnr" v="159826" />
	</node>
<<<<<<< HEAD
	<node lat="62.66998332971373" lon="7.875719443637871" id="-4078">
		<tag k="name" v="Fallmyrslættet" />
=======
	<node id="-50317" lat="62.7973888929" lon="8.15913611104">
		<tag k="name" v="Røytvåta" />
>>>>>>> e1d4bc35ff8a6074a6f2e91616a996b547c36f15
		<tag k="natural" v="wetland" />
		<tag k="ssr:stedsnr" v="159916" />
	</node>
<<<<<<< HEAD
	<node lat="62.648519445885924" lon="7.824091667660343" id="-4079">
		<tag k="name" v="Dansarsteinen" />
=======
	<node id="-50309" lat="62.7484638863" lon="7.81649166342">
		<tag k="name" v="Barsteinen" />
>>>>>>> e1d4bc35ff8a6074a6f2e91616a996b547c36f15
		<tag k="natural" v="stone" />
		<tag k="ssr:stedsnr" v="159918" />
	</node>
<<<<<<< HEAD
	<node lat="62.63525277568522" lon="8.071527770044275" id="-4133">
		<tag k="name" v="Blåsvaet" />
		<tag k="place" v="locality" />
		<tag k="ssr:stedsnr" v="193394" />
	</node>
	<node lat="62.72364444241383" lon="7.28693055728055" id="-4153">
		<tag k="name" v="Forøyura" />
=======
	<node id="-50304" lat="62.7758361088" lon="7.97543055065">
		<tag k="name" v="Skjorabergura" />
>>>>>>> e1d4bc35ff8a6074a6f2e91616a996b547c36f15
		<tag k="natural" v="scree" />
		<tag k="ssr:stedsnr" v="193789" />
	</node>
<<<<<<< HEAD
	<node lat="62.65612777331976" lon="6.585083330844321" id="-4175">
		<tag k="name" v="Leitemyran" />
		<tag k="natural" v="wetland" />
		<tag k="ssr:stedsnr" v="194435" />
	</node>
	<node lat="62.70245278055868" lon="6.711591668252212" id="-4198">
		<tag k="name" v="Gråhaugmyra" />
		<tag k="natural" v="wetland" />
		<tag k="ssr:stedsnr" v="203230" />
	</node>
	<node lat="62.73236110909865" lon="6.695436118450709" id="-4204">
		<tag k="name" v="Torvemyrane" />
		<tag k="natural" v="wetland" />
		<tag k="ssr:stedsnr" v="203242" />
	</node>
	<node lat="62.43909999775313" lon="8.289052779378178" id="-4207">
		<tag k="name" v="Einan" />
=======
	<node id="-51594" lat="62.825061111" lon="7.63222778466">
		<tag k="historic" v="shieling" />
		<tag k="name" v="Gamle Romoldsetra" />
		<tag k="place" v="locality" />
		<tag k="ssr:stedsnr" v="824239" />
	</node>
	<node id="-50284" lat="62.7996916634" lon="8.17451111282">
		<tag k="name" v="Gullsmedteigen" />
>>>>>>> e1d4bc35ff8a6074a6f2e91616a996b547c36f15
		<tag k="place" v="locality" />
		<tag k="ssr:stedsnr" v="203769" />
	</node>
<<<<<<< HEAD
	<node lat="62.66468889245575" lon="6.5997750094471686" id="-4214">
		<tag k="name" v="Ådalssletta" />
		<tag k="place" v="locality" />
		<tag k="ssr:stedsnr" v="212112" />
	</node>
	<node lat="62.67845833719245" lon="6.600630546754925" id="-4218">
		<tag k="name" v="Digernesmyran" />
=======
	<node id="-46184" lat="62.3999416656" lon="8.59952778378">
		<tag k="name" v="Fattigbekkvollan" />
>>>>>>> e1d4bc35ff8a6074a6f2e91616a996b547c36f15
		<tag k="natural" v="wetland" />
		<tag k="ssr:stedsnr" v="212364" />
	</node>
<<<<<<< HEAD
	<node lat="62.67535555172245" lon="6.893358332134894" id="-4221">
		<tag k="name" v="Ekra" />
=======
	<node id="-46183" lat="62.4293833364" lon="8.32026945137">
		<tag k="name" v="Høgbakken" />
>>>>>>> e1d4bc35ff8a6074a6f2e91616a996b547c36f15
		<tag k="place" v="locality" />
		<tag k="ssr:stedsnr" v="212451" />
	</node>
<<<<<<< HEAD
	<node lat="62.67427777340786" lon="6.905761106154948" id="-4222">
		<tag k="name" v="Nestemyra" />
		<tag k="natural" v="wetland" />
		<tag k="ssr:stedsnr" v="212454" />
	</node>
	<node lat="62.747663889782196" lon="7.510202781311715" id="-4244">
		<tag k="name" v="Fåkjeldmyra" />
		<tag k="natural" v="wetland" />
		<tag k="ssr:stedsnr" v="216739" />
	</node>
	<node lat="62.78251666840185" lon="7.704841674740572" id="-4249">
		<tag k="name" v="Vollan" />
=======
	<node id="-50278" lat="62.4473388851" lon="8.27032776853">
		<tag k="name" v="Einangen" />
>>>>>>> e1d4bc35ff8a6074a6f2e91616a996b547c36f15
		<tag k="place" v="locality" />
		<tag k="ssr:stedsnr" v="217121" />
	</node>
<<<<<<< HEAD
	<node lat="62.710749999535786" lon="7.5267666615083195" id="-4251">
		<tag k="name" v="Løkan" />
=======
	<node id="-46177" lat="62.6871888909" lon="6.62113887912">
		<tag k="name" v="Skjervamyra" />
>>>>>>> e1d4bc35ff8a6074a6f2e91616a996b547c36f15
		<tag k="natural" v="wetland" />
		<tag k="ssr:stedsnr" v="217141" />
	</node>
<<<<<<< HEAD
	<node lat="62.76407499759654" lon="7.233402770570181" id="-4259">
		<tag k="name" v="Fanbostadmyra" />
		<tag k="natural" v="wetland" />
		<tag k="ssr:stedsnr" v="217246" />
	</node>
	<node lat="62.75010833767697" lon="7.522213887132524" id="-4260">
		<tag k="name" v="Monsmyra" />
=======
	<node id="-50264" lat="62.6754388848" lon="7.27573611665">
		<tag k="name" v="Storvikmyra" />
>>>>>>> e1d4bc35ff8a6074a6f2e91616a996b547c36f15
		<tag k="natural" v="wetland" />
		<tag k="ssr:stedsnr" v="217252" />
	</node>
<<<<<<< HEAD
	<node lat="62.73518055955458" lon="7.432133323830824" id="-4267">
		<tag k="name" v="Erikhjellmyra" />
=======
	<node id="-50260" lat="62.7662055593" lon="7.34402500349">
		<tag k="name" v="Nakkmyra" />
>>>>>>> e1d4bc35ff8a6074a6f2e91616a996b547c36f15
		<tag k="natural" v="wetland" />
		<tag k="ssr:stedsnr" v="217819" />
	</node>
<<<<<<< HEAD
	<node lat="62.7188194401989" lon="7.413261103942351" id="-4272">
		<tag k="name" v="Kobbesteinen" />
		<tag k="natural" v="stone" />
		<tag k="ssr:stedsnr" v="217641" />
	</node>
	<node lat="62.717080559542886" lon="7.437280548764992" id="-4283">
		<tag k="name" v="Kårstykket" />
=======
	<node id="-50251" lat="62.742447224" lon="7.49189721911">
		<tag k="name" v="Råkgjerdet" />
		<tag k="place" v="locality" />
		<tag k="ssr:stedsnr" v="398800" />
	</node>
	<node id="-46153" lat="62.7845777818" lon="8.17447778507">
		<tag k="name" v="Fonna" />
>>>>>>> e1d4bc35ff8a6074a6f2e91616a996b547c36f15
		<tag k="place" v="locality" />
		<tag k="ssr:stedsnr" v="217848" />
	</node>
<<<<<<< HEAD
	<node lat="62.71952777733702" lon="7.7756194464538675" id="-4297">
		<tag k="name" v="Jutulen" />
		<tag k="natural" v="stone" />
		<tag k="ssr:stedsnr" v="219057" />
	</node>
	<node lat="62.833258330728036" lon="8.07728054923227" id="-4301">
		<tag k="name" v="Tjønnmyra" />
=======
	<node id="-46152" lat="62.7274999983" lon="7.67763888103">
		<tag k="name" v="Langteigen" />
		<tag k="place" v="locality" />
		<tag k="ssr:stedsnr" v="98705" />
	</node>
	<node id="-50247" lat="62.784486113" lon="7.71577777835">
		<tag k="name" v="Teppingsmyra" />
>>>>>>> e1d4bc35ff8a6074a6f2e91616a996b547c36f15
		<tag k="natural" v="wetland" />
		<tag k="ssr:stedsnr" v="219534" />
	</node>
<<<<<<< HEAD
	<node lat="62.77320278076712" lon="8.236416672595093" id="-4308">
		<tag k="name" v="Bønåmyra" />
=======
	<node id="-50245" lat="62.7554388928" lon="7.56409166459">
		<tag k="name" v="Liljeroshola" />
>>>>>>> e1d4bc35ff8a6074a6f2e91616a996b547c36f15
		<tag k="natural" v="wetland" />
		<tag k="ssr:stedsnr" v="219737" />
	</node>
<<<<<<< HEAD
	<node lat="62.770391668345674" lon="8.07926666256806" id="-4321">
		<tag k="name" v="Langsetgeilen" />
		<tag k="place" v="locality" />
		<tag k="ssr:stedsnr" v="220449" />
	</node>
	<node lat="62.76299999888035" lon="7.335375007707428" id="-4360">
		<tag k="name" v="Smigjerdet" />
		<tag k="place" v="locality" />
		<tag k="ssr:stedsnr" v="277074" />
	</node>
	<node lat="62.821619448204366" lon="7.608774995676106" id="-4365">
		<tag k="name" v="Stangarkrokane" />
=======
	<node id="-50244" lat="62.7545555539" lon="7.57522222856">
		<tag k="name" v="Grønlimyra" />
		<tag k="natural" v="wetland" />
		<tag k="ssr:stedsnr" v="398744" />
	</node>
	<node id="-50243" lat="62.7784833337" lon="7.60535556106">
		<tag k="name" v="Risamunken" />
		<tag k="natural" v="stone" />
		<tag k="ssr:stedsnr" v="398735" />
	</node>
	<node id="-50234" lat="62.7278527777" lon="6.99281389495">
		<tag k="name" v="Stormyra" />
>>>>>>> e1d4bc35ff8a6074a6f2e91616a996b547c36f15
		<tag k="natural" v="wetland" />
		<tag k="ssr:stedsnr" v="277042" />
	</node>
<<<<<<< HEAD
	<node lat="62.813250004333504" lon="7.578844453717975" id="-4366">
		<tag k="name" v="Heimholene" />
=======
	<node id="-46137" lat="62.8279555579" lon="8.09710000594">
		<tag k="name" v="Neverlimyran" />
>>>>>>> e1d4bc35ff8a6074a6f2e91616a996b547c36f15
		<tag k="natural" v="wetland" />
		<tag k="ssr:stedsnr" v="277045" />
	</node>
<<<<<<< HEAD
	<node lat="62.78877777466114" lon="7.535566666400274" id="-4368">
		<tag k="name" v="Nøre Vikamyra" />
=======
	<node id="-48179" lat="62.7527722252" lon="7.7896527851">
		<tag k="name" v="Langmyra" />
>>>>>>> e1d4bc35ff8a6074a6f2e91616a996b547c36f15
		<tag k="natural" v="wetland" />
		<tag k="ssr:stedsnr" v="277050" />
	</node>
<<<<<<< HEAD
	<node lat="62.739830555251785" lon="7.559602782353227" id="-4379">
		<tag k="name" v="Seilmyra" />
=======
	<node id="-50225" lat="62.7023833347" lon="7.49675556235">
		<tag k="name" v="Skjenstøet" />
>>>>>>> e1d4bc35ff8a6074a6f2e91616a996b547c36f15
		<tag k="natural" v="wetland" />
		<tag k="ssr:stedsnr" v="277151" />
	</node>
<<<<<<< HEAD
	<node lat="62.81840277815928" lon="7.7899277811729535" id="-4382">
		<tag k="name" v="Litlemyra" />
		<tag k="natural" v="wetland" />
		<tag k="ssr:stedsnr" v="277160" />
	</node>
	<node lat="62.684575001829245" lon="7.456261118205427" id="-4388">
		<tag k="name" v="Skaget" />
=======
	<node id="-48167" lat="62.8082861139" lon="8.13196666786">
		<tag k="name" v="Stormyrbærholten" />
		<tag k="natural" v="wetland" />
		<tag k="ssr:stedsnr" v="766327" />
	</node>
	<node id="-46117" lat="62.7374527817" lon="8.00961110907">
		<tag k="name" v="Mjølbøra" />
		<tag k="natural" v="glacier" />
		<tag k="ssr:stedsnr" v="98074" />
	</node>
	<node id="-48163" lat="62.6368388882" lon="8.12204722926">
		<tag k="name" v="Neråsbøen" />
>>>>>>> e1d4bc35ff8a6074a6f2e91616a996b547c36f15
		<tag k="place" v="locality" />
		<tag k="ssr:stedsnr" v="277184" />
	</node>
<<<<<<< HEAD
	<node lat="62.69666111001033" lon="7.36891666135454" id="-4389">
		<tag k="name" v="Glåmå" />
		<tag k="natural" v="wetland" />
		<tag k="ssr:stedsnr" v="277270" />
	</node>
	<node lat="62.667319446802864" lon="7.281427773547426" id="-4390">
		<tag k="name" v="Langmyra" />
		<tag k="natural" v="wetland" />
		<tag k="ssr:stedsnr" v="277278" />
	</node>
	<node lat="62.757722218748135" lon="7.2698388900769135" id="-4393">
		<tag k="name" v="Kvilaren" />
		<tag k="natural" v="stone" />
		<tag k="ssr:stedsnr" v="277285" />
	</node>
	<node lat="62.76899444873397" lon="7.312616659070985" id="-4395">
		<tag k="name" v="Dyrmyra" />
=======
	<node id="-50210" lat="62.833722221" lon="7.67912500339">
		<tag k="historic" v="shieling" />
		<tag k="name" v="Skallesetra" />
		<tag k="place" v="locality" />
		<tag k="ssr:stedsnr" v="398214" />
	</node>
	<node id="-50202" lat="62.7442555598" lon="7.64753056359">
		<tag k="name" v="Storbrea" />
		<tag k="natural" v="glacier" />
		<tag k="ssr:stedsnr" v="398159" />
	</node>
	<node id="-47321" lat="62.7611166682" lon="7.81190278459">
		<tag k="name" v="Grovasteinen" />
		<tag k="natural" v="stone" />
		<tag k="ssr:stedsnr" v="523641" />
	</node>
	<node id="-46103" lat="62.7321666687" lon="7.33106665884">
		<tag k="name" v="Rusketeigkråna" />
		<tag k="place" v="locality" />
		<tag k="ssr:stedsnr" v="95913" />
	</node>
	<node id="-48150" lat="62.7375166668" lon="7.71643889293">
		<tag k="name" v="Setermyra" />
>>>>>>> e1d4bc35ff8a6074a6f2e91616a996b547c36f15
		<tag k="natural" v="wetland" />
		<tag k="ssr:stedsnr" v="277289" />
	</node>
<<<<<<< HEAD
	<node lat="62.78556111243587" lon="7.498441659051028" id="-4396">
		<tag k="name" v="Langmyra" />
		<tag k="natural" v="wetland" />
		<tag k="ssr:stedsnr" v="277299" />
	</node>
	<node lat="62.7599333363258" lon="7.47354444458038" id="-4410">
		<tag k="name" v="Slåttamyra" />
=======
	<node id="-48148" lat="62.6332638891" lon="8.10671944333">
		<tag k="name" v="Geilen" />
		<tag k="place" v="locality" />
		<tag k="ssr:stedsnr" v="765462" />
	</node>
	<node id="-46099" lat="62.7373805553" lon="7.40516111172">
		<tag k="name" v="Liaskarsmyra" />
>>>>>>> e1d4bc35ff8a6074a6f2e91616a996b547c36f15
		<tag k="natural" v="wetland" />
		<tag k="ssr:stedsnr" v="277793" />
	</node>
<<<<<<< HEAD
	<node lat="62.78343611095296" lon="8.015761105873883" id="-4427">
		<tag k="name" v="Hatlbakkmyra" />
		<tag k="natural" v="wetland" />
		<tag k="ssr:stedsnr" v="280442" />
	</node>
	<node lat="62.619036107114205" lon="8.081900002612585" id="-4440">
		<tag k="name" v="Styggeværshaugen" />
=======
	<node id="-48142" lat="62.571961113" lon="8.18022777958">
		<tag k="name" v="Gjerde" />
>>>>>>> e1d4bc35ff8a6074a6f2e91616a996b547c36f15
		<tag k="place" v="locality" />
		<tag k="ssr:stedsnr" v="280064" />
	</node>
<<<<<<< HEAD
	<node lat="62.74935000045858" lon="8.03977500462955" id="-4443">
		<tag k="name" v="Teppingsmyra" />
		<tag k="natural" v="wetland" />
		<tag k="ssr:stedsnr" v="280368" />
	</node>
	<node lat="62.75880277600891" lon="8.037288880997956" id="-4445">
		<tag k="name" v="Brunvollgjerdet" />
=======
	<node id="-46090" lat="62.7304916668" lon="7.0600277823">
		<tag k="name" v="Pålsteinen" />
		<tag k="natural" v="stone" />
		<tag k="ssr:stedsnr" v="95413" />
	</node>
	<node id="-50184" lat="62.6965888889" lon="6.86848611447">
		<tag k="name" v="Skaflåna" />
>>>>>>> e1d4bc35ff8a6074a6f2e91616a996b547c36f15
		<tag k="place" v="locality" />
		<tag k="ssr:stedsnr" v="280383" />
	</node>
<<<<<<< HEAD
	<node lat="62.637972221241235" lon="8.110594450223333" id="-4447">
		<tag k="name" v="Øverbøen" />
=======
	<node id="-48135" lat="62.7570138894" lon="7.34644167151">
		<tag k="name" v="Strandhagen" />
>>>>>>> e1d4bc35ff8a6074a6f2e91616a996b547c36f15
		<tag k="place" v="locality" />
		<tag k="ssr:stedsnr" v="280393" />
	</node>
<<<<<<< HEAD
	<node lat="62.77456111471618" lon="8.081980553247387" id="-4448">
		<tag k="name" v="Skuljorda" />
		<tag k="place" v="locality" />
		<tag k="ssr:stedsnr" v="280394" />
	</node>
	<node lat="62.78910833535786" lon="8.148311114233332" id="-4450">
		<tag k="name" v="Slåttamyran" />
=======
	<node id="-48131" lat="62.75428889" lon="7.27863612038">
		<tag k="name" v="Årømyran" />
		<tag k="natural" v="wetland" />
		<tag k="ssr:stedsnr" v="763318" />
	</node>
	<node id="-46082" lat="62.6969194408" lon="7.38860277332">
		<tag k="name" v="Dansarholen" />
>>>>>>> e1d4bc35ff8a6074a6f2e91616a996b547c36f15
		<tag k="natural" v="wetland" />
		<tag k="ssr:stedsnr" v="280340" />
	</node>
<<<<<<< HEAD
	<node lat="62.74916666786468" lon="8.095252773036421" id="-4453">
		<tag k="name" v="Langmyran" />
		<tag k="natural" v="wetland" />
		<tag k="ssr:stedsnr" v="280527" />
	</node>
	<node lat="62.80665555843874" lon="7.845219450447319" id="-4455">
		<tag k="name" v="Bustisteinen" />
=======
	<node id="-46592" lat="62.8160833333" lon="8.11659166696">
		<tag k="name" v="Bersåsmyra" />
		<tag k="natural" v="wetland" />
		<tag k="ssr:stedsnr" v="255572" />
	</node>
	<node id="-46933" lat="62.7788527765" lon="7.48894444696">
		<tag k="name" v="Kråkøyran" />
		<tag k="place" v="locality" />
		<tag k="ssr:stedsnr" v="338058" />
	</node>
	<node id="-48116" lat="62.7125250025" lon="6.88541943513">
		<tag k="name" v="Kvilaran" />
>>>>>>> e1d4bc35ff8a6074a6f2e91616a996b547c36f15
		<tag k="natural" v="stone" />
		<tag k="ssr:stedsnr" v="280544" />
	</node>
<<<<<<< HEAD
	<node lat="62.77653611384613" lon="8.078805547673515" id="-4457">
		<tag k="name" v="Bergamyra" />
		<tag k="natural" v="wetland" />
		<tag k="ssr:stedsnr" v="280401" />
	</node>
	<node lat="62.78951110787251" lon="7.807974997666515" id="-4461">
		<tag k="historic" v="shieling" />
		<tag k="name" v="Setra" />
		<tag k="place" v="locality" />
		<tag k="ssr:stedsnr" v="280676" />
	</node>
	<node lat="62.425941666975845" lon="8.308986111100834" id="-4465">
		<tag k="name" v="Nysteinen" />
		<tag k="natural" v="stone" />
		<tag k="ssr:stedsnr" v="280768" />
	</node>
	<node lat="62.82086111210815" lon="7.824152768916757" id="-4473">
		<tag k="name" v="Etarmyra" />
=======
	<node id="-48106" lat="62.6761166636" lon="6.6364444465">
		<tag k="name" v="Instemyra" />
>>>>>>> e1d4bc35ff8a6074a6f2e91616a996b547c36f15
		<tag k="natural" v="wetland" />
		<tag k="ssr:stedsnr" v="280655" />
	</node>
<<<<<<< HEAD
	<node lat="62.794341668731455" lon="8.138627772164115" id="-4475">
		<tag k="name" v="Stormyra" />
=======
	<node id="-48104" lat="62.6846361068" lon="6.75907222933">
		<tag k="name" v="Gullbergmyra" />
>>>>>>> e1d4bc35ff8a6074a6f2e91616a996b547c36f15
		<tag k="natural" v="wetland" />
		<tag k="ssr:stedsnr" v="280734" />
	</node>
<<<<<<< HEAD
	<node lat="62.715322218106266" lon="7.898916659070519" id="-4487">
		<tag k="name" v="Vedafonna" />
		<tag k="place" v="locality" />
		<tag k="ssr:stedsnr" v="280952" />
	</node>
	<node lat="62.7505055563999" lon="7.557177783773778" id="-4554">
		<tag k="name" v="Trollåsstormyra" />
=======
	<node id="-46049" lat="62.6442499975" lon="6.53872500527">
		<tag k="name" v="Terningen" />
		<tag k="natural" v="stone" />
		<tag k="ssr:stedsnr" v="254434" />
	</node>
	<node id="-50144" lat="62.6933944471" lon="6.61784167571">
		<tag k="name" v="Hellarmyra" />
>>>>>>> e1d4bc35ff8a6074a6f2e91616a996b547c36f15
		<tag k="natural" v="wetland" />
		<tag k="ssr:stedsnr" v="315814" />
	</node>
<<<<<<< HEAD
	<node lat="62.75576388560005" lon="7.5559611150994375" id="-4556">
		<tag k="name" v="Sagmyra" />
=======
	<node id="-48095" lat="62.6636305536" lon="6.68566110486">
		<tag k="name" v="Korsvikmyra" />
>>>>>>> e1d4bc35ff8a6074a6f2e91616a996b547c36f15
		<tag k="natural" v="wetland" />
		<tag k="ssr:stedsnr" v="315828" />
	</node>
<<<<<<< HEAD
	<node lat="62.81985278177502" lon="7.60510277808921" id="-4578">
		<tag k="name" v="Stangarmyra" />
		<tag k="natural" v="wetland" />
		<tag k="ssr:stedsnr" v="316790" />
	</node>
	<node lat="62.65755832986423" lon="6.587236109398761" id="-4589">
		<tag k="name" v="Sebergskjerven" />
=======
	<node id="-46244" lat="62.6845750018" lon="7.45626111821">
		<tag k="name" v="Skaget" />
		<tag k="place" v="locality" />
		<tag k="ssr:stedsnr" v="277184" />
	</node>
	<node id="-51022" lat="62.7763222222" lon="7.46303611785">
		<tag k="name" v="Hjellsetflata" />
		<tag k="place" v="locality" />
		<tag k="ssr:stedsnr" v="641048" />
	</node>
	<node id="-50126" lat="62.8136861095" lon="7.76669443769">
		<tag k="alt_name" v="Ny-Jord" />
		<tag k="name" v="Ny Jord" />
>>>>>>> e1d4bc35ff8a6074a6f2e91616a996b547c36f15
		<tag k="place" v="locality" />
		<tag k="ssr:stedsnr" v="333178" />
	</node>
<<<<<<< HEAD
	<node lat="62.65518333421054" lon="6.588794445584193" id="-4590">
		<tag k="name" v="Botnmyran" />
		<tag k="natural" v="wetland" />
		<tag k="ssr:stedsnr" v="333179" />
	</node>
	<node lat="62.67107222439469" lon="6.878736109954403" id="-4605">
		<tag k="name" v="Brensla" />
=======
	<node id="-45998" lat="62.6969055541" lon="7.87009167346">
		<tag k="name" v="Heia" />
		<tag k="natural" v="wetland" />
		<tag k="ssr:stedsnr" v="72418" />
	</node>
	<node id="-47602" lat="62.6827638848" lon="6.75289721733">
		<tag k="name" v="Liamyra" />
		<tag k="natural" v="wetland" />
		<tag k="ssr:stedsnr" v="576256" />
	</node>
	<node id="-48038" lat="62.4142305578" lon="8.35686944746">
		<tag k="name" v="Hessura" />
		<tag k="natural" v="scree" />
		<tag k="ssr:stedsnr" v="704009" />
	</node>
	<node id="-48036" lat="62.765469441" lon="7.29886388242">
		<tag k="name" v="Gammelsetermyra" />
>>>>>>> e1d4bc35ff8a6074a6f2e91616a996b547c36f15
		<tag k="natural" v="wetland" />
		<tag k="ssr:stedsnr" v="334358" />
	</node>
<<<<<<< HEAD
	<node lat="62.67374999702154" lon="6.892044453294007" id="-4606">
		<tag k="name" v="Stegane" />
		<tag k="place" v="locality" />
		<tag k="ssr:stedsnr" v="334425" />
	</node>
	<node lat="62.675419441284824" lon="6.911397221074244" id="-4607">
		<tag k="name" v="Vatle" />
=======
	<node id="-48035" lat="62.6999472198" lon="7.40895832618">
		<tag k="name" v="Haslelisteinen" />
		<tag k="natural" v="stone" />
		<tag k="ssr:stedsnr" v="702848" />
	</node>
	<node id="-48031" lat="62.7380416699" lon="7.43509166602">
		<tag k="name" v="Nakketeigen" />
>>>>>>> e1d4bc35ff8a6074a6f2e91616a996b547c36f15
		<tag k="place" v="locality" />
		<tag k="ssr:stedsnr" v="334438" />
	</node>
<<<<<<< HEAD
	<node lat="62.71270833542004" lon="6.912922228034498" id="-4613">
		<tag k="name" v="Langemyra" />
=======
	<node id="-48024" lat="62.7356083359" lon="7.05568056281">
		<tag k="name" v="Ødegårdsmyra" />
>>>>>>> e1d4bc35ff8a6074a6f2e91616a996b547c36f15
		<tag k="natural" v="wetland" />
		<tag k="ssr:stedsnr" v="334692" />
	</node>
<<<<<<< HEAD
	<node lat="62.833733328902625" lon="7.500341657842478" id="-4631">
		<tag k="name" v="Resmyrane" />
=======
	<node id="-48022" lat="62.8228500006" lon="7.58503334008">
		<tag k="name" v="Hestelia" />
>>>>>>> e1d4bc35ff8a6074a6f2e91616a996b547c36f15
		<tag k="natural" v="wetland" />
		<tag k="ssr:stedsnr" v="338075" />
	</node>
<<<<<<< HEAD
	<node lat="62.72626389259323" lon="6.987833332530035" id="-4637">
		<tag k="landuse" v="meadow" />
		<tag k="name" v="Sveinplassen" />
		<tag k="ssr:stedsnr" v="338439" />
	</node>
	<node lat="62.76364999836257" lon="7.284969443623617" id="-4644">
		<tag k="name" v="Halsmyra" />
		<tag k="natural" v="wetland" />
		<tag k="ssr:stedsnr" v="338262" />
	</node>
	<node lat="62.80693888572928" lon="7.642805556812371" id="-4646">
		<tag k="name" v="Løkmyra" />
=======
	<node id="-45962" lat="62.6635444411" lon="8.02973888888">
		<tag k="name" v="Kvithammarura" />
		<tag k="natural" v="scree" />
		<tag k="ssr:stedsnr" v="37804" />
	</node>
	<node id="-45960" lat="62.7327222222" lon="7.7238472145">
		<tag k="name" v="Kyrkjeura" />
		<tag k="natural" v="scree" />
		<tag k="ssr:stedsnr" v="37556" />
	</node>
	<node id="-47998" lat="62.696799998" lon="6.63161387992">
		<tag k="name" v="Hjellmyra" />
>>>>>>> e1d4bc35ff8a6074a6f2e91616a996b547c36f15
		<tag k="natural" v="wetland" />
		<tag k="ssr:stedsnr" v="338270" />
	</node>
<<<<<<< HEAD
	<node lat="62.805713887576346" lon="7.740883332339743" id="-4647">
		<tag k="name" v="Stormyra" />
		<tag k="natural" v="wetland" />
		<tag k="ssr:stedsnr" v="338271" />
	</node>
	<node lat="62.785861112739205" lon="7.515930561061036" id="-4649">
		<tag k="name" v="Løkane" />
		<tag k="natural" v="wetland" />
		<tag k="ssr:stedsnr" v="338287" />
	</node>
	<node lat="62.74262777787632" lon="7.061291668658935" id="-4653">
		<tag k="name" v="Krokan" />
=======
	<node id="-50033" lat="62.5657666627" lon="8.14463610933">
		<tag k="name" v="Staursteinen" />
		<tag k="natural" v="stone" />
		<tag k="ssr:stedsnr" v="341892" />
	</node>
	<node id="-50032" lat="62.5665361129" lon="8.14061389788">
		<tag k="name" v="Hoemkjerka" />
		<tag k="natural" v="stone" />
		<tag k="ssr:stedsnr" v="341889" />
	</node>
	<node id="-47982" lat="62.7050416637" lon="7.95408888714">
		<tag k="name" v="Sortediket" />
>>>>>>> e1d4bc35ff8a6074a6f2e91616a996b547c36f15
		<tag k="natural" v="wetland" />
		<tag k="ssr:stedsnr" v="338635" />
	</node>
<<<<<<< HEAD
	<node lat="62.62701666949325" lon="8.092008335640097" id="-4686">
		<tag k="name" v="Breifonna" />
		<tag k="place" v="locality" />
		<tag k="ssr:stedsnr" v="341066" />
	</node>
	<node lat="62.81109722513836" lon="8.144008329294975" id="-4694">
		<tag k="name" v="Hopmyran" />
=======
	<node id="-46675" lat="62.8184027782" lon="7.78992778117">
		<tag k="name" v="Litlemyra" />
		<tag k="natural" v="wetland" />
		<tag k="ssr:stedsnr" v="277160" />
	</node>
	<node id="-47590" lat="62.7312694432" lon="7.90383333706">
		<tag k="name" v="Innklovsteinen" />
		<tag k="natural" v="stone" />
		<tag k="ssr:stedsnr" v="705962" />
	</node>
	<node id="-47970" lat="62.7794444464" lon="8.26014443998">
		<tag k="name" v="Våta" />
>>>>>>> e1d4bc35ff8a6074a6f2e91616a996b547c36f15
		<tag k="natural" v="wetland" />
		<tag k="ssr:stedsnr" v="340707" />
	</node>
<<<<<<< HEAD
	<node lat="62.823994442102574" lon="8.090225001374515" id="-4709">
		<tag k="name" v="Tjønnmyra" />
=======
	<node id="-47966" lat="62.7546055517" lon="7.78331389188">
		<tag k="name" v="Gildermyran" />
>>>>>>> e1d4bc35ff8a6074a6f2e91616a996b547c36f15
		<tag k="natural" v="wetland" />
		<tag k="ssr:stedsnr" v="341340" />
	</node>
<<<<<<< HEAD
	<node lat="62.75724166279242" lon="8.174263881009079" id="-4715">
		<tag k="name" v="Kvennsetfjellet" />
		<tag k="natural" v="wetland" />
		<tag k="ssr:stedsnr" v="341374" />
	</node>
	<node lat="62.756830554780414" lon="8.194936101907063" id="-4716">
		<tag k="name" v="Liafjellet" />
		<tag k="natural" v="wetland" />
		<tag k="ssr:stedsnr" v="341378" />
	</node>
	<node lat="62.79240555585607" lon="8.147202783116446" id="-4717">
		<tag k="name" v="Myrledmyran" />
=======
	<node id="-50013" lat="62.7374027784" lon="7.73111388064">
		<tag k="name" v="Hegolura" />
		<tag k="natural" v="scree" />
		<tag k="ssr:stedsnr" v="341726" />
	</node>
	<node id="-47930" lat="62.8046388919" lon="8.1347166603">
		<tag k="name" v="Langgrovmyra" />
		<tag k="natural" v="wetland" />
		<tag k="ssr:stedsnr" v="887240" />
	</node>
	<node id="-49997" lat="62.8409027774" lon="8.10993333735">
		<tag k="name" v="Dalabumyran" />
>>>>>>> e1d4bc35ff8a6074a6f2e91616a996b547c36f15
		<tag k="natural" v="wetland" />
		<tag k="ssr:stedsnr" v="341388" />
	</node>
<<<<<<< HEAD
	<node lat="62.679377775851954" lon="8.118855550754336" id="-4722">
=======
	<node id="-49988" lat="62.6793777759" lon="8.11885555075">
>>>>>>> e1d4bc35ff8a6074a6f2e91616a996b547c36f15
		<tag k="name" v="Grytosen" />
		<tag k="place" v="locality" />
		<tag k="ssr:stedsnr" v="341564" />
	</node>
<<<<<<< HEAD
	<node lat="62.73740277839083" lon="7.731113880644303" id="-4727">
		<tag k="name" v="Hegolura" />
		<tag k="natural" v="scree" />
		<tag k="ssr:stedsnr" v="341726" />
	</node>
	<node lat="62.484349999996454" lon="8.14249167004504" id="-4741">
		<tag k="landuse" v="meadow" />
		<tag k="name" v="Storgjerdet" />
		<tag k="ssr:stedsnr" v="341877" />
	</node>
	<node lat="62.56653611291299" lon="8.14061389787831" id="-4742">
		<tag k="name" v="Hoemkjerka" />
		<tag k="natural" v="stone" />
		<tag k="ssr:stedsnr" v="341889" />
	</node>
	<node lat="62.81368610952505" lon="7.76669443769243" id="-4804">
		<tag k="alt_name" v="Ny-Jord" />
		<tag k="name" v="Ny Jord" />
=======
	<node id="-47938" lat="62.7843666671" lon="8.17681110523">
		<tag k="name" v="Eidshaugura" />
		<tag k="natural" v="scree" />
		<tag k="ssr:stedsnr" v="887248" />
	</node>
	<node id="-49982" lat="62.7924055559" lon="8.14720278312">
		<tag k="name" v="Myrledmyran" />
		<tag k="natural" v="wetland" />
		<tag k="ssr:stedsnr" v="341388" />
	</node>
	<node id="-49981" lat="62.7568305548" lon="8.19493610191">
		<tag k="name" v="Liafjellet" />
		<tag k="natural" v="wetland" />
		<tag k="ssr:stedsnr" v="341378" />
	</node>
	<node id="-49980" lat="62.7572416628" lon="8.17426388101">
		<tag k="name" v="Kvennsetfjellet" />
		<tag k="natural" v="wetland" />
		<tag k="ssr:stedsnr" v="341374" />
	</node>
	<node id="-49978" lat="62.8239944421" lon="8.09022500137">
		<tag k="name" v="Tjønnmyra" />
		<tag k="natural" v="wetland" />
		<tag k="ssr:stedsnr" v="341340" />
	</node>
	<node id="-49973" lat="62.6270166695" lon="8.09200833564">
		<tag k="name" v="Breifonna" />
>>>>>>> e1d4bc35ff8a6074a6f2e91616a996b547c36f15
		<tag k="place" v="locality" />
		<tag k="ssr:stedsnr" v="376559" />
	</node>
<<<<<<< HEAD
	<node lat="62.70770000125897" lon="6.8427250055135325" id="-4851">
		<tag k="name" v="Rabbane" />
		<tag k="natural" v="scree" />
		<tag k="ssr:stedsnr" v="395515" />
	</node>
	<node lat="62.69658888892806" lon="6.868486114471679" id="-4857">
		<tag k="name" v="Skaflåna" />
=======
	<node id="-47921" lat="62.4370416678" lon="8.28749166926">
		<tag k="name" v="Einan" />
>>>>>>> e1d4bc35ff8a6074a6f2e91616a996b547c36f15
		<tag k="place" v="locality" />
		<tag k="ssr:stedsnr" v="395771" />
	</node>
<<<<<<< HEAD
	<node lat="62.786458336076834" lon="7.453383324531499" id="-4867">
		<tag k="name" v="Nedre myrane" />
=======
	<node id="-45872" lat="62.7843833298" lon="7.84738333787">
		<tag k="name" v="Bleikmyra" />
>>>>>>> e1d4bc35ff8a6074a6f2e91616a996b547c36f15
		<tag k="natural" v="wetland" />
		<tag k="ssr:stedsnr" v="398117" />
	</node>
<<<<<<< HEAD
	<node lat="62.74425555979851" lon="7.647530563592541" id="-4875">
		<tag k="name" v="Storbrea" />
		<tag k="natural" v="glacier" />
		<tag k="ssr:stedsnr" v="398159" />
	</node>
	<node lat="62.727852777666634" lon="6.992813894948079" id="-4897">
		<tag k="name" v="Stormyra" />
=======
	<node id="-46557" lat="62.5647388884" lon="8.05907777537">
		<tag k="name" v="Hoemsbreen" />
		<tag k="natural" v="glacier" />
		<tag k="ssr:stedsnr" v="254160" />
	</node>
	<node id="-47914" lat="62.7784249987" lon="7.64285833327">
		<tag k="name" v="Håsteinen" />
		<tag k="natural" v="stone" />
		<tag k="ssr:stedsnr" v="884926" />
	</node>
	<node id="-47911" lat="62.7583194408" lon="7.64311112066">
		<tag k="name" v="Skålmyran" />
>>>>>>> e1d4bc35ff8a6074a6f2e91616a996b547c36f15
		<tag k="natural" v="wetland" />
		<tag k="ssr:stedsnr" v="398660" />
	</node>
<<<<<<< HEAD
	<node lat="62.754555553887336" lon="7.575222228558481" id="-4899">
		<tag k="name" v="Grønlimyra" />
		<tag k="natural" v="wetland" />
		<tag k="ssr:stedsnr" v="398744" />
	</node>
	<node lat="62.75543889281193" lon="7.564091664591449" id="-4900">
		<tag k="name" v="Liljeroshola" />
=======
	<node id="-45862" lat="62.7873416636" lon="7.9939694455">
		<tag k="name" v="Gilsemyra" />
		<tag k="natural" v="wetland" />
		<tag k="ssr:stedsnr" v="220512" />
	</node>
	<node id="-45861" lat="62.7725500025" lon="7.92241111096">
		<tag k="name" v="Bjørnasteinen" />
		<tag k="natural" v="stone" />
		<tag k="ssr:stedsnr" v="220511" />
	</node>
	<node id="-45854" lat="62.7703916683" lon="8.07926666257">
		<tag k="name" v="Langsetgeilen" />
		<tag k="place" v="locality" />
		<tag k="ssr:stedsnr" v="220449" />
	</node>
	<node id="-45847" lat="62.787019444" lon="8.18623889282">
		<tag k="name" v="Flatmyran" />
>>>>>>> e1d4bc35ff8a6074a6f2e91616a996b547c36f15
		<tag k="natural" v="wetland" />
		<tag k="ssr:stedsnr" v="398749" />
	</node>
<<<<<<< HEAD
	<node lat="62.784486113034795" lon="7.715777778348255" id="-4902">
		<tag k="name" v="Teppingsmyra" />
=======
	<node id="-47892" lat="62.7003833339" lon="7.53689721714">
		<tag k="name" v="Gjerdmyra" />
>>>>>>> e1d4bc35ff8a6074a6f2e91616a996b547c36f15
		<tag k="natural" v="wetland" />
		<tag k="ssr:stedsnr" v="398763" />
	</node>
<<<<<<< HEAD
	<node lat="62.742447223980804" lon="7.491897219108809" id="-4903">
		<tag k="name" v="Råkgjerdet" />
=======
	<node id="-47890" lat="62.7356583292" lon="7.51814999737">
		<tag k="historic" v="shieling" />
		<tag k="name" v="Gjerdsetra" />
>>>>>>> e1d4bc35ff8a6074a6f2e91616a996b547c36f15
		<tag k="place" v="locality" />
		<tag k="ssr:stedsnr" v="398800" />
	</node>
<<<<<<< HEAD
	<node lat="62.76620555931406" lon="7.344025003492288" id="-4908">
		<tag k="name" v="Nakkmyra" />
		<tag k="natural" v="wetland" />
		<tag k="ssr:stedsnr" v="399358" />
	</node>
	<node lat="62.660966664187406" lon="7.336813880207307" id="-4917">
		<tag k="name" v="Ørnehaugmyra" />
=======
	<node id="-45841" lat="62.6977611115" lon="7.79637777483">
		<tag k="name" v="Storsteinan" />
		<tag k="natural" v="stone" />
		<tag k="ssr:stedsnr" v="219926" />
	</node>
	<node id="-45832" lat="62.7732027808" lon="8.2364166726">
		<tag k="name" v="Bønåmyra" />
>>>>>>> e1d4bc35ff8a6074a6f2e91616a996b547c36f15
		<tag k="natural" v="wetland" />
		<tag k="ssr:stedsnr" v="399956" />
	</node>
<<<<<<< HEAD
	<node lat="62.67543888481864" lon="7.275736116649103" id="-4920">
		<tag k="name" v="Storvikmyra" />
=======
	<node id="-45827" lat="62.8332583307" lon="8.07728054923">
		<tag k="name" v="Tjønnmyra" />
>>>>>>> e1d4bc35ff8a6074a6f2e91616a996b547c36f15
		<tag k="natural" v="wetland" />
		<tag k="ssr:stedsnr" v="399963" />
	</node>
<<<<<<< HEAD
	<node lat="62.76545555223117" lon="8.204069437573308" id="-4930">
		<tag k="name" v="Gråsteinen" />
=======
	<node id="-45826" lat="62.7831055565" lon="8.2969000057">
		<tag k="name" v="Altersteinen" />
>>>>>>> e1d4bc35ff8a6074a6f2e91616a996b547c36f15
		<tag k="natural" v="stone" />
		<tag k="ssr:stedsnr" v="402370" />
	</node>
<<<<<<< HEAD
	<node lat="62.79969166340876" lon="8.17451111281926" id="-4935">
		<tag k="name" v="Gullsmedteigen" />
=======
	<node id="-47872" lat="62.6856750017" lon="7.45130554698">
		<tag k="name" v="Rompa" />
>>>>>>> e1d4bc35ff8a6074a6f2e91616a996b547c36f15
		<tag k="place" v="locality" />
		<tag k="ssr:stedsnr" v="401262" />
	</node>
<<<<<<< HEAD
	<node lat="62.775836108817344" lon="7.975430550654025" id="-4957">
		<tag k="name" v="Skjorabergura" />
		<tag k="natural" v="scree" />
		<tag k="ssr:stedsnr" v="401570" />
	</node>
	<node lat="62.65911111169088" lon="8.045186106207767" id="-4966">
		<tag k="name" v="Kjerringslættet" />
		<tag k="place" v="locality" />
		<tag k="ssr:stedsnr" v="401766" />
	</node>
	<node lat="62.59683611091689" lon="8.140691667456528" id="-4971">
		<tag k="name" v="Fjordungsvåin" />
		<tag k="place" v="locality" />
		<tag k="ssr:stedsnr" v="401842" />
	</node>
	<node lat="62.7743222188191" lon="8.280886113174791" id="-4992">
		<tag k="name" v="Svain" />
=======
	<node id="-49918" lat="62.7426277779" lon="7.06129166866">
		<tag k="name" v="Krokan" />
		<tag k="natural" v="wetland" />
		<tag k="ssr:stedsnr" v="338635" />
	</node>
	<node id="-45821" lat="62.43281667" lon="8.3044111191">
		<tag k="name" v="Espet" />
		<tag k="place" v="locality" />
		<tag k="ssr:stedsnr" v="219079" />
	</node>
	<node id="-47868" lat="62.8156805563" lon="7.5297277734">
		<tag k="name" v="Fonnasteinen" />
		<tag k="natural" v="stone" />
		<tag k="ssr:stedsnr" v="884052" />
	</node>
	<node id="-49962" lat="62.8110972251" lon="8.14400832929">
		<tag k="name" v="Hopmyran" />
		<tag k="natural" v="wetland" />
		<tag k="ssr:stedsnr" v="340707" />
	</node>
	<node id="-51327" lat="62.76195278" lon="7.51200556244">
		<tag k="name" v="Guriannaplassen" />
		<tag k="place" v="locality" />
		<tag k="ssr:stedsnr" v="762978" />
	</node>
	<node id="-45816" lat="62.7631361119" lon="7.52388056474">
		<tag k="name" v="Skitnemyra" />
		<tag k="natural" v="wetland" />
		<tag k="ssr:stedsnr" v="217977" />
	</node>
	<node id="-47862" lat="62.7936861097" lon="7.42517221594">
		<tag k="historic" v="shieling" />
		<tag k="name" v="Ytre Mjelvesetra" />
		<tag k="place" v="locality" />
		<tag k="ssr:stedsnr" v="884071" />
	</node>
	<node id="-47861" lat="62.7880916638" lon="7.56596389226">
		<tag k="name" v="Skjøljaren" />
		<tag k="natural" v="wetland" />
		<tag k="ssr:stedsnr" v="884070" />
	</node>
	<node id="-49908" lat="62.7262638926" lon="6.98783333253">
		<tag k="landuse" v="meadow" />
		<tag k="name" v="Sveinplassen" />
		<tag k="ssr:stedsnr" v="338439" />
	</node>
	<node id="-45810" lat="62.7450722209" lon="7.47335833145">
		<tag k="name" v="Hansgjerdet" />
>>>>>>> e1d4bc35ff8a6074a6f2e91616a996b547c36f15
		<tag k="place" v="locality" />
		<tag k="ssr:stedsnr" v="402689" />
	</node>
<<<<<<< HEAD
	<node lat="62.582700000004216" lon="8.098358327746848" id="-5010">
		<tag k="name" v="Blikskårbreen" />
		<tag k="natural" v="glacier" />
		<tag k="ssr:stedsnr" v="436147" />
	</node>
	<node lat="62.70370277790219" lon="7.3799444524195" id="-5041">
		<tag k="name" v="Røstemyra" />
=======
	<node id="-47571" lat="62.4234027799" lon="8.32757499209">
		<tag k="name" v="Geitsteinen" />
		<tag k="natural" v="stone" />
		<tag k="ssr:stedsnr" v="705805" />
	</node>
	<node id="-49904" lat="62.7858611127" lon="7.51593056106">
		<tag k="name" v="Løkane" />
>>>>>>> e1d4bc35ff8a6074a6f2e91616a996b547c36f15
		<tag k="natural" v="wetland" />
		<tag k="ssr:stedsnr" v="436685" />
	</node>
<<<<<<< HEAD
	<node lat="62.75161389004181" lon="7.531591662038772" id="-5048">
		<tag k="name" v="Mikkelmyra" />
=======
	<node id="-49902" lat="62.8057138876" lon="7.74088333234">
		<tag k="name" v="Stormyra" />
>>>>>>> e1d4bc35ff8a6074a6f2e91616a996b547c36f15
		<tag k="natural" v="wetland" />
		<tag k="ssr:stedsnr" v="436820" />
	</node>
<<<<<<< HEAD
	<node lat="62.68659167064583" lon="6.614533337530268" id="-5054">
		<tag k="name" v="Hellarmyra" />
=======
	<node id="-49901" lat="62.8069388857" lon="7.64280555681">
		<tag k="name" v="Løkmyra" />
>>>>>>> e1d4bc35ff8a6074a6f2e91616a996b547c36f15
		<tag k="natural" v="wetland" />
		<tag k="ssr:stedsnr" v="436883" />
	</node>
<<<<<<< HEAD
	<node lat="62.81512222315746" lon="7.679455552756511" id="-5072">
		<tag k="name" v="Bolletehaugmyra" />
=======
	<node id="-49899" lat="62.7636499984" lon="7.28496944362">
		<tag k="name" v="Halsmyra" />
>>>>>>> e1d4bc35ff8a6074a6f2e91616a996b547c36f15
		<tag k="natural" v="wetland" />
		<tag k="ssr:stedsnr" v="437743" />
	</node>
<<<<<<< HEAD
	<node lat="62.42308055175011" lon="8.316538892845188" id="-5083">
		<tag k="name" v="Mofonnin" />
		<tag k="place" v="locality" />
		<tag k="ssr:stedsnr" v="445772" />
	</node>
	<node lat="62.72391944098709" lon="6.748611117942718" id="-5110">
		<tag k="name" v="Vågsmyran" />
=======
	<node id="-45801" lat="62.7170805595" lon="7.43728054876">
		<tag k="name" v="Kårstykket" />
		<tag k="place" v="locality" />
		<tag k="ssr:stedsnr" v="217848" />
	</node>
	<node id="-45789" lat="62.7188194402" lon="7.41326110394">
		<tag k="name" v="Kobbesteinen" />
		<tag k="natural" v="stone" />
		<tag k="ssr:stedsnr" v="217641" />
	</node>
	<node id="-47834" lat="62.5209333365" lon="8.26878333297">
		<tag k="name" v="Storbreen" />
		<tag k="natural" v="glacier" />
		<tag k="ssr:stedsnr" v="679316" />
	</node>
	<node id="-49876" lat="62.7127083354" lon="6.91292222803">
		<tag k="name" v="Langemyra" />
>>>>>>> e1d4bc35ff8a6074a6f2e91616a996b547c36f15
		<tag k="natural" v="wetland" />
		<tag k="ssr:stedsnr" v="497076" />
	</node>
<<<<<<< HEAD
	<node lat="62.831513884815934" lon="7.4623416745552875" id="-5196">
		<tag k="name" v="Hjelsetsletta" />
=======
	<node id="-47826" lat="62.7354111149" lon="7.03514721613">
		<tag k="name" v="Bjørnamyra" />
>>>>>>> e1d4bc35ff8a6074a6f2e91616a996b547c36f15
		<tag k="natural" v="wetland" />
		<tag k="ssr:stedsnr" v="520081" />
	</node>
<<<<<<< HEAD
	<node lat="62.76298611440364" lon="7.2981638811425675" id="-5212">
		<tag k="name" v="Langmyra" />
=======
	<node id="-49864" lat="62.6710722244" lon="6.87873610995">
		<tag k="name" v="Brensla" />
>>>>>>> e1d4bc35ff8a6074a6f2e91616a996b547c36f15
		<tag k="natural" v="wetland" />
		<tag k="ssr:stedsnr" v="520319" />
	</node>
<<<<<<< HEAD
	<node lat="62.687802777832054" lon="7.491352783827353" id="-5220">
		<tag k="name" v="Sjølaupet" />
=======
	<node id="-49863" lat="62.6754194413" lon="6.91139722107">
		<tag k="name" v="Vatle" />
>>>>>>> e1d4bc35ff8a6074a6f2e91616a996b547c36f15
		<tag k="place" v="locality" />
		<tag k="ssr:stedsnr" v="520609" />
	</node>
<<<<<<< HEAD
	<node lat="62.75979444859816" lon="7.4873611128719295" id="-5226">
		<tag k="name" v="Hamnateigen" />
=======
	<node id="-49862" lat="62.673749997" lon="6.89204445329">
		<tag k="name" v="Stegane" />
>>>>>>> e1d4bc35ff8a6074a6f2e91616a996b547c36f15
		<tag k="place" v="locality" />
		<tag k="ssr:stedsnr" v="520799" />
	</node>
<<<<<<< HEAD
	<node lat="62.731472226729174" lon="7.469600006799139" id="-5238">
		<tag k="name" v="Setermyra" />
		<tag k="natural" v="wetland" />
		<tag k="ssr:stedsnr" v="520885" />
	</node>
	<node lat="62.72640000390636" lon="7.863488884432918" id="-5246">
		<tag k="name" v="Nerura" />
=======
	<node id="-47809" lat="62.7326694436" lon="6.80689443618">
		<tag k="name" v="Rørsetura" />
>>>>>>> e1d4bc35ff8a6074a6f2e91616a996b547c36f15
		<tag k="natural" v="scree" />
		<tag k="ssr:stedsnr" v="522066" />
	</node>
<<<<<<< HEAD
	<node lat="62.67926666425665" lon="7.998322215817061" id="-5251">
		<tag k="name" v="Øyna" />
		<tag k="natural" v="wetland" />
		<tag k="ssr:stedsnr" v="522058" />
	</node>
	<node lat="62.61260833275142" lon="8.119772222695776" id="-5253">
		<tag k="name" v="Seljefonna" />
=======
	<node id="-49854" lat="62.6787472217" lon="6.6026083252">
		<tag k="name" v="Grøsokvollen" />
>>>>>>> e1d4bc35ff8a6074a6f2e91616a996b547c36f15
		<tag k="place" v="locality" />
		<tag k="ssr:stedsnr" v="522426" />
	</node>
<<<<<<< HEAD
	<node lat="62.806888886997974" lon="8.076822215712053" id="-5259">
		<tag k="name" v="Pelømyra" />
=======
	<node id="-49845" lat="62.6551833342" lon="6.58879444558">
		<tag k="name" v="Botnmyran" />
>>>>>>> e1d4bc35ff8a6074a6f2e91616a996b547c36f15
		<tag k="natural" v="wetland" />
		<tag k="ssr:stedsnr" v="522706" />
	</node>
<<<<<<< HEAD
	<node lat="62.78960833335778" lon="8.069458341143866" id="-5274">
		<tag k="name" v="Lauvåsmyra" />
		<tag k="natural" v="wetland" />
		<tag k="ssr:stedsnr" v="523494" />
	</node>
	<node lat="62.76111666819547" lon="7.811902784585039" id="-5277">
		<tag k="name" v="Grovasteinen" />
		<tag k="natural" v="stone" />
		<tag k="ssr:stedsnr" v="523641" />
	</node>
	<node lat="62.6484055590114" lon="8.032336119043418" id="-5278">
		<tag k="name" v="Hansslættet" />
=======
	<node id="-49844" lat="62.6575583299" lon="6.5872361094">
		<tag k="name" v="Sebergskjerven" />
>>>>>>> e1d4bc35ff8a6074a6f2e91616a996b547c36f15
		<tag k="place" v="locality" />
		<tag k="ssr:stedsnr" v="523828" />
	</node>
<<<<<<< HEAD
	<node lat="62.798505551855044" lon="7.853658330947634" id="-5288">
		<tag k="name" v="Engamyran" />
=======
	<node id="-47786" lat="62.6855444485" lon="6.76059722345">
		<tag k="name" v="Mølet" />
>>>>>>> e1d4bc35ff8a6074a6f2e91616a996b547c36f15
		<tag k="natural" v="wetland" />
		<tag k="ssr:stedsnr" v="523700" />
	</node>
<<<<<<< HEAD
	<node lat="62.69076388691694" lon="7.974986108182882" id="-5294">
		<tag k="name" v="Brekkemyra" />
=======
	<node id="-49831" lat="62.8198527818" lon="7.60510277809">
		<tag k="name" v="Stangarmyra" />
>>>>>>> e1d4bc35ff8a6074a6f2e91616a996b547c36f15
		<tag k="natural" v="wetland" />
		<tag k="ssr:stedsnr" v="523977" />
	</node>
<<<<<<< HEAD
	<node lat="62.66784444284422" lon="6.705947218397252" id="-5379">
		<tag k="name" v="Juvikmyrane" />
=======
	<node id="-47778" lat="62.6615777798" lon="6.63711666256">
		<tag k="name" v="Grønlimyra" />
>>>>>>> e1d4bc35ff8a6074a6f2e91616a996b547c36f15
		<tag k="natural" v="wetland" />
		<tag k="ssr:stedsnr" v="566071" />
	</node>
<<<<<<< HEAD
	<node lat="62.66876666430288" lon="6.649475003614796" id="-5381">
		<tag k="name" v="Rambergmyrane" />
=======
	<node id="-49818" lat="62.7557638856" lon="7.5559611151">
		<tag k="name" v="Sagmyra" />
>>>>>>> e1d4bc35ff8a6074a6f2e91616a996b547c36f15
		<tag k="natural" v="wetland" />
		<tag k="ssr:stedsnr" v="566051" />
	</node>
<<<<<<< HEAD
	<node lat="62.6897333377502" lon="6.831838886729203" id="-5396">
		<tag k="name" v="Storsteinane" />
		<tag k="natural" v="stone" />
		<tag k="ssr:stedsnr" v="576379" />
	</node>
	<node lat="62.695377777755716" lon="6.874644437558688" id="-5412">
		<tag k="name" v="Rabben" />
		<tag k="natural" v="scree" />
		<tag k="ssr:stedsnr" v="577773" />
	</node>
	<node lat="62.79069166347943" lon="7.653255559641819" id="-5417">
		<tag k="name" v="Kobbesteinen" />
		<tag k="natural" v="stone" />
		<tag k="ssr:stedsnr" v="580081" />
	</node>
	<node lat="62.83281110822419" lon="7.484272221340847" id="-5418">
		<tag k="name" v="Stokksletta" />
=======
	<node id="-47757" lat="62.7280777743" lon="7.46976388197">
		<tag k="name" v="Steinkleivmyra" />
		<tag k="natural" v="wetland" />
		<tag k="ssr:stedsnr" v="641837" />
	</node>
	<node id="-49801" lat="62.7505055564" lon="7.55717778377">
		<tag k="name" v="Trollåsstormyra" />
>>>>>>> e1d4bc35ff8a6074a6f2e91616a996b547c36f15
		<tag k="natural" v="wetland" />
		<tag k="ssr:stedsnr" v="580087" />
	</node>
<<<<<<< HEAD
	<node lat="62.707924997330885" lon="7.557405561333857" id="-5422">
		<tag k="name" v="Kvamyra" />
=======
	<node id="-46529" lat="62.8134194411" lon="8.1360472213">
		<tag k="name" v="Stuåmyra" />
		<tag k="natural" v="wetland" />
		<tag k="ssr:stedsnr" v="219723" />
	</node>
	<node id="-47748" lat="62.6942388877" lon="6.63498332624">
		<tag k="name" v="Ytstemyra" />
>>>>>>> e1d4bc35ff8a6074a6f2e91616a996b547c36f15
		<tag k="natural" v="wetland" />
		<tag k="ssr:stedsnr" v="580119" />
	</node>
<<<<<<< HEAD
	<node lat="62.77713611355823" lon="7.75164444898281" id="-5427">
		<tag k="name" v="Storøyan" />
=======
	<node id="-47735" lat="62.6929027806" lon="6.69087500495">
		<tag k="name" v="Langåkermyra" />
>>>>>>> e1d4bc35ff8a6074a6f2e91616a996b547c36f15
		<tag k="natural" v="wetland" />
		<tag k="ssr:stedsnr" v="580136" />
	</node>
<<<<<<< HEAD
	<node lat="62.699797226146096" lon="7.4721166591800126" id="-5445">
		<tag k="name" v="Bergsmyra" />
=======
	<node id="-47547" lat="62.8086083353" lon="7.85172777386">
		<tag k="name" v="Saghaugmyra" />
		<tag k="natural" v="wetland" />
		<tag k="ssr:stedsnr" v="705588" />
	</node>
	<node id="-51576" lat="62.7127916654" lon="7.55533889438">
		<tag k="historic" v="shieling" />
		<tag k="name" v="Årsetsetra" />
		<tag k="place" v="locality" />
		<tag k="ssr:stedsnr" v="823747" />
	</node>
	<node id="-49740" lat="62.6784583372" lon="6.60063054675">
		<tag k="name" v="Digernesmyran" />
>>>>>>> e1d4bc35ff8a6074a6f2e91616a996b547c36f15
		<tag k="natural" v="wetland" />
		<tag k="ssr:stedsnr" v="580566" />
	</node>
<<<<<<< HEAD
	<node lat="62.6917861075611" lon="7.496936104358064" id="-5447">
		<tag k="name" v="Kvitsteinmyra" />
=======
	<node id="-47202" lat="62.6959833377" lon="7.50364444563">
		<tag k="name" v="Langmyra" />
		<tag k="natural" v="wetland" />
		<tag k="ssr:stedsnr" v="459218" />
	</node>
	<node id="-49738" lat="62.6742777734" lon="6.90576110615">
		<tag k="name" v="Nestemyra" />
>>>>>>> e1d4bc35ff8a6074a6f2e91616a996b547c36f15
		<tag k="natural" v="wetland" />
		<tag k="ssr:stedsnr" v="580573" />
	</node>
<<<<<<< HEAD
	<node lat="62.757322219600695" lon="7.576386115874913" id="-5458">
		<tag k="historic" v="shieling" />
		<tag k="name" v="Tollåssetra" />
=======
	<node id="-49737" lat="62.6753555517" lon="6.89335833213">
		<tag k="name" v="Ekra" />
>>>>>>> e1d4bc35ff8a6074a6f2e91616a996b547c36f15
		<tag k="place" v="locality" />
		<tag k="ssr:stedsnr" v="580760" />
	</node>
<<<<<<< HEAD
	<node lat="62.761325000834766" lon="7.479611102296483" id="-5459">
		<tag k="name" v="Hestehagen" />
=======
	<node id="-47687" lat="62.5401833323" lon="8.18505278518">
		<tag k="name" v="Kobbesteingjerdet" />
>>>>>>> e1d4bc35ff8a6074a6f2e91616a996b547c36f15
		<tag k="place" v="locality" />
		<tag k="ssr:stedsnr" v="580772" />
	</node>
<<<<<<< HEAD
	<node lat="62.68605000302736" lon="8.022272229281102" id="-5469">
		<tag k="name" v="Langmyra" />
		<tag k="natural" v="wetland" />
		<tag k="ssr:stedsnr" v="583072" />
	</node>
	<node lat="62.44900555252122" lon="8.272513894682945" id="-5471">
		<tag k="name" v="Sandane" />
=======
	<node id="-47679" lat="62.8273027811" lon="8.13209723161">
		<tag k="name" v="Byturin" />
		<tag k="natural" v="scree" />
		<tag k="ssr:stedsnr" v="583652" />
	</node>
	<node id="-49725" lat="62.4390999978" lon="8.28905277938">
		<tag k="name" v="Einan" />
>>>>>>> e1d4bc35ff8a6074a6f2e91616a996b547c36f15
		<tag k="place" v="locality" />
		<tag k="ssr:stedsnr" v="583075" />
	</node>
<<<<<<< HEAD
	<node lat="62.44857221914608" lon="8.28520833620034" id="-5472">
		<tag k="name" v="Styggura" />
		<tag k="natural" v="scree" />
		<tag k="ssr:stedsnr" v="583077" />
	</node>
	<node lat="62.77755832895533" lon="8.22339999610176" id="-5484">
		<tag k="name" v="Mårsteinan" />
		<tag k="natural" v="stone" />
		<tag k="ssr:stedsnr" v="583333" />
	</node>
	<node lat="62.831572218362105" lon="8.089119445401316" id="-5513">
		<tag k="name" v="Setermyran" />
=======
	<node id="-49723" lat="62.7323611091" lon="6.69543611845">
		<tag k="name" v="Torvemyrane" />
		<tag k="natural" v="wetland" />
		<tag k="ssr:stedsnr" v="203242" />
	</node>
	<node id="-49719" lat="62.7024527806" lon="6.71159166825">
		<tag k="name" v="Gråhaugmyra" />
>>>>>>> e1d4bc35ff8a6074a6f2e91616a996b547c36f15
		<tag k="natural" v="wetland" />
		<tag k="ssr:stedsnr" v="583552" />
	</node>
<<<<<<< HEAD
	<node lat="62.54018333228869" lon="8.185052785182647" id="-5525">
		<tag k="name" v="Kobbesteingjerdet" />
		<tag k="place" v="locality" />
		<tag k="ssr:stedsnr" v="583865" />
	</node>
	<node lat="62.69423888772367" lon="6.634983326242248" id="-5617">
		<tag k="name" v="Ytstemyra" />
		<tag k="natural" v="wetland" />
		<tag k="ssr:stedsnr" v="636318" />
	</node>
	<node lat="62.703549999318966" lon="6.9007583428550605" id="-5632">
		<tag k="name" v="Bjørasteinen" />
		<tag k="natural" v="stone" />
		<tag k="ssr:stedsnr" v="637721" />
	</node>
	<node lat="62.66573611307655" lon="7.330716673215674" id="-5641">
		<tag k="name" v="Stormyra" />
		<tag k="natural" v="wetland" />
		<tag k="ssr:stedsnr" v="640185" />
	</node>
	<node lat="62.75675833597885" lon="7.608927779233948" id="-5644">
		<tag k="name" v="Skålmyran" />
=======
	<node id="-47665" lat="62.8210055597" lon="8.13144444379">
		<tag k="name" v="Kloppmyra" />
		<tag k="natural" v="wetland" />
		<tag k="ssr:stedsnr" v="583453" />
	</node>
	<node id="-51760" lat="62.5071027785" lon="8.02021389578">
		<tag k="name" v="Midthøbreen" />
		<tag k="natural" v="glacier" />
		<tag k="ssr:stedsnr" v="861202" />
	</node>
	<node id="-47661" lat="62.777558329" lon="8.2233999961">
		<tag k="name" v="Mårsteinan" />
		<tag k="natural" v="stone" />
		<tag k="ssr:stedsnr" v="583333" />
	</node>
	<node id="-49244" lat="62.7484944434" lon="7.48458610606">
		<tag k="name" v="Dalamyra" />
		<tag k="natural" v="wetland" />
		<tag k="ssr:stedsnr" v="95124" />
	</node>
	<node id="-47654" lat="62.654069447" lon="8.02522221807">
		<tag k="name" v="Såta" />
		<tag k="natural" v="stone" />
		<tag k="ssr:stedsnr" v="583091" />
	</node>
	<node id="-49051" lat="62.8213083371" lon="8.0720361037">
		<tag k="name" v="Skiljarsteinen" />
		<tag k="natural" v="stone" />
		<tag k="ssr:stedsnr" v="38365" />
	</node>
	<node id="-47648" lat="62.4490055525" lon="8.27251389468">
		<tag k="name" v="Sandane" />
		<tag k="place" v="locality" />
		<tag k="ssr:stedsnr" v="583075" />
	</node>
	<node id="-47646" lat="62.686050003" lon="8.02227222928">
		<tag k="name" v="Langmyra" />
>>>>>>> e1d4bc35ff8a6074a6f2e91616a996b547c36f15
		<tag k="natural" v="wetland" />
		<tag k="ssr:stedsnr" v="640765" />
	</node>
<<<<<<< HEAD
	<node lat="62.75213055348087" lon="7.603194439570649" id="-5645">
		<tag k="historic" v="shieling" />
		<tag k="name" v="Gammelstølan" />
		<tag k="place" v="locality" />
		<tag k="ssr:stedsnr" v="640766" />
	</node>
	<node lat="62.75498333337168" lon="7.598505553366016" id="-5646">
		<tag k="historic" v="shieling" />
		<tag k="name" v="Gamle Mausetsetra" />
		<tag k="place" v="locality" />
		<tag k="ssr:stedsnr" v="640767" />
	</node>
	<node lat="62.776322222220536" lon="7.46303611785116" id="-5653">
		<tag k="name" v="Hjellsetflata" />
		<tag k="place" v="locality" />
		<tag k="ssr:stedsnr" v="641048" />
	</node>
	<node lat="62.775711108370636" lon="7.412236118994599" id="-5654">
		<tag k="name" v="Storhaugmyra" />
		<tag k="natural" v="wetland" />
		<tag k="ssr:stedsnr" v="641049" />
	</node>
	<node lat="62.770261108364224" lon="7.324761107170581" id="-5660">
		<tag k="name" v="Svarthammarmyra" />
		<tag k="natural" v="wetland" />
		<tag k="ssr:stedsnr" v="641072" />
	</node>
	<node lat="62.741077778273485" lon="7.485211102741007" id="-5676">
		<tag k="name" v="Potifarøyan" />
=======
	<node id="-51741" lat="62.5572916627" lon="8.17809999264">
		<tag k="name" v="Storjakopgjerdet" />
		<tag k="place" v="locality" />
		<tag k="ssr:stedsnr" v="827894" />
	</node>
	<node id="-49684" lat="62.7236444424" lon="7.28693055728">
		<tag k="name" v="Forøyura" />
		<tag k="natural" v="scree" />
		<tag k="ssr:stedsnr" v="193789" />
	</node>
	<node id="-51731" lat="62.4787333329" lon="8.16292777774">
		<tag k="name" v="Skjeparhellaren" />
		<tag k="natural" v="stone" />
		<tag k="ssr:stedsnr" v="827824" />
	</node>
	<node id="-51728" lat="62.740452782" lon="8.05283333216">
		<tag k="name" v="Geilen" />
		<tag k="place" v="locality" />
		<tag k="ssr:stedsnr" v="827800" />
	</node>
	<node id="-51726" lat="62.7804111146" lon="7.99265832571">
		<tag k="name" v="Kvilaren" />
		<tag k="natural" v="stone" />
		<tag k="ssr:stedsnr" v="827679" />
	</node>
	<node id="-51723" lat="62.770774997" lon="8.00016666878">
		<tag k="name" v="Brekka" />
		<tag k="place" v="locality" />
		<tag k="ssr:stedsnr" v="827671" />
	</node>
	<node id="-47626" lat="62.8328111082" lon="7.48427222134">
		<tag k="name" v="Stokksletta" />
		<tag k="natural" v="wetland" />
		<tag k="ssr:stedsnr" v="580087" />
	</node>
	<node id="-47625" lat="62.7906916635" lon="7.65325555964">
		<tag k="name" v="Kobbesteinen" />
		<tag k="natural" v="stone" />
		<tag k="ssr:stedsnr" v="580081" />
	</node>
	<node id="-47619" lat="62.7771361136" lon="7.75164444898">
		<tag k="name" v="Storøyan" />
		<tag k="natural" v="wetland" />
		<tag k="ssr:stedsnr" v="580136" />
	</node>
	<node id="-49666" lat="62.6352527757" lon="8.07152777004">
		<tag k="name" v="Blåsvaet" />
		<tag k="place" v="locality" />
		<tag k="ssr:stedsnr" v="193394" />
	</node>
	<node id="-47614" lat="62.7079249973" lon="7.55740556133">
		<tag k="name" v="Kvamyra" />
>>>>>>> e1d4bc35ff8a6074a6f2e91616a996b547c36f15
		<tag k="natural" v="wetland" />
		<tag k="ssr:stedsnr" v="641787" />
	</node>
<<<<<<< HEAD
	<node lat="62.79244444656259" lon="7.74728055609378" id="-5679">
		<tag k="name" v="Vasshaugmyra" />
=======
	<node id="-51705" lat="62.7771444425" lon="8.09215555172">
		<tag k="name" v="Ljøsmyran" />
>>>>>>> e1d4bc35ff8a6074a6f2e91616a996b547c36f15
		<tag k="natural" v="wetland" />
		<tag k="ssr:stedsnr" v="641752" />
	</node>
<<<<<<< HEAD
	<node lat="62.72807777425694" lon="7.469763881969602" id="-5682">
		<tag k="name" v="Steinkleivmyra" />
		<tag k="natural" v="wetland" />
		<tag k="ssr:stedsnr" v="641837" />
	</node>
	<node lat="62.77413888939891" lon="7.639733337142739" id="-5693">
		<tag k="name" v="Kvernhusmyra" />
		<tag k="natural" v="wetland" />
		<tag k="ssr:stedsnr" v="641937" />
	</node>
	<node lat="62.67285000284879" lon="7.244697223046224" id="-5694">
		<tag k="name" v="Kvalmyran" />
		<tag k="natural" v="wetland" />
		<tag k="ssr:stedsnr" v="641940" />
	</node>
	<node lat="62.788369442435425" lon="8.121458340949195" id="-5719">
		<tag k="name" v="Eidsvågmyran" />
		<tag k="natural" v="wetland" />
		<tag k="ssr:stedsnr" v="644449" />
	</node>
	<node lat="62.79378055372777" lon="8.077652781918257" id="-5720">
		<tag k="name" v="Storåsmyra" />
		<tag k="natural" v="wetland" />
		<tag k="ssr:stedsnr" v="644451" />
	</node>
	<node lat="62.762969441931254" lon="7.8139777849844805" id="-5732">
		<tag k="name" v="Miltholsteinen" />
=======
	<node id="-51698" lat="62.8174972213" lon="8.10624444381">
		<tag k="name" v="Sagstumyran" />
		<tag k="natural" v="wetland" />
		<tag k="ssr:stedsnr" v="827344" />
	</node>
	<node id="-51693" lat="62.7320666641" lon="7.89962777654">
		<tag k="name" v="Frøsteinkyrkja" />
		<tag k="natural" v="stone" />
		<tag k="ssr:stedsnr" v="826970" />
	</node>
	<node id="-47593" lat="62.6988777819" lon="7.96962500229">
		<tag k="name" v="Ørnesteinen" />
		<tag k="natural" v="stone" />
		<tag k="ssr:stedsnr" v="705991" />
	</node>
	<node id="-51686" lat="62.7227416647" lon="7.79840834016">
		<tag k="name" v="Gammelfonna" />
		<tag k="place" v="locality" />
		<tag k="ssr:stedsnr" v="826894" />
	</node>
	<node id="-47185" lat="62.6870666662" lon="6.66897500209">
		<tag k="name" v="Stormyra" />
		<tag k="natural" v="wetland" />
		<tag k="ssr:stedsnr" v="455324" />
	</node>
	<node id="-51675" lat="62.7992472251" lon="8.16984721897">
		<tag k="name" v="Sjømyra" />
		<tag k="natural" v="wetland" />
		<tag k="ssr:stedsnr" v="826706" />
	</node>
	<node id="-49626" lat="62.7203888883" lon="7.89734167235">
		<tag k="name" v="Svartsvaet" />
		<tag k="place" v="locality" />
		<tag k="ssr:stedsnr" v="159964" />
	</node>
	<node id="-51668" lat="62.7667388905" lon="7.8189166592">
		<tag k="name" v="Rundløkan" />
		<tag k="natural" v="wetland" />
		<tag k="ssr:stedsnr" v="826549" />
	</node>
	<node id="-49619" lat="62.4860833373" lon="8.17308333575">
		<tag k="name" v="Katthammarura" />
		<tag k="natural" v="scree" />
		<tag k="ssr:stedsnr" v="159826" />
	</node>
	<node id="-51665" lat="62.7348861074" lon="7.71930554874">
		<tag k="name" v="Smivollen" />
		<tag k="place" v="locality" />
		<tag k="ssr:stedsnr" v="826528" />
	</node>
	<node id="-49615" lat="62.4251666644" lon="8.31234167443">
		<tag k="name" v="Opplendingsteinen" />
>>>>>>> e1d4bc35ff8a6074a6f2e91616a996b547c36f15
		<tag k="natural" v="stone" />
		<tag k="ssr:stedsnr" v="644602" />
	</node>
<<<<<<< HEAD
	<node lat="62.43974999681021" lon="8.278911112007469" id="-5737">
		<tag k="name" v="Grønesvaet" />
		<tag k="place" v="locality" />
		<tag k="ssr:stedsnr" v="644791" />
	</node>
	<node lat="62.423136108670796" lon="8.31939999938512" id="-5739">
		<tag k="name" v="Hampehesten" />
		<tag k="natural" v="stone" />
		<tag k="ssr:stedsnr" v="644797" />
	</node>
	<node lat="62.801316668535165" lon="7.823083328256823" id="-5755">
		<tag k="name" v="Kyrkjeteigen" />
=======
	<node id="-47565" lat="62.7407805578" lon="7.71469165778">
		<tag k="name" v="Svaet" />
		<tag k="place" v="locality" />
		<tag k="ssr:stedsnr" v="705731" />
	</node>
	<node id="-51657" lat="62.4647361118" lon="8.19193610756">
		<tag k="name" v="Kjeura" />
		<tag k="natural" v="scree" />
		<tag k="ssr:stedsnr" v="826140" />
	</node>
	<node id="-51655" lat="62.659263888" lon="8.13691110649">
		<tag k="name" v="Gråura" />
		<tag k="natural" v="scree" />
		<tag k="ssr:stedsnr" v="826127" />
	</node>
	<node id="-51654" lat="62.5685388847" lon="8.14427778111">
		<tag k="name" v="Hagen" />
>>>>>>> e1d4bc35ff8a6074a6f2e91616a996b547c36f15
		<tag k="place" v="locality" />
		<tag k="ssr:stedsnr" v="644669" />
	</node>
<<<<<<< HEAD
	<node lat="62.66363055358794" lon="6.6856611048623265" id="-5852">
		<tag k="name" v="Korsvikmyra" />
		<tag k="natural" v="wetland" />
		<tag k="ssr:stedsnr" v="748057" />
	</node>
	<node lat="62.65680555266136" lon="6.577469442921716" id="-5864">
		<tag k="name" v="Djupemyran" />
=======
	<node id="-48545" lat="62.4461111114" lon="8.28254443597">
		<tag k="name" v="Fløten" />
		<tag k="place" v="locality" />
		<tag k="ssr:stedsnr" v="948083" />
	</node>
	<node id="-47552" lat="62.793316669" lon="7.78943055578">
		<tag k="name" v="Kløvnesteinmyra" />
		<tag k="natural" v="wetland" />
		<tag k="ssr:stedsnr" v="705639" />
	</node>
	<node id="-51643" lat="62.7742972216" lon="7.69874722733">
		<tag k="historic" v="shieling" />
		<tag k="name" v="Kleivsetra" />
		<tag k="place" v="locality" />
		<tag k="ssr:stedsnr" v="824997" />
	</node>
	<node id="-49590" lat="62.7365027762" lon="7.71238055549">
		<tag k="name" v="Teppingmyra" />
>>>>>>> e1d4bc35ff8a6074a6f2e91616a996b547c36f15
		<tag k="natural" v="wetland" />
		<tag k="ssr:stedsnr" v="758199" />
	</node>
<<<<<<< HEAD
	<node lat="62.658077774772494" lon="6.575288885968214" id="-5868">
		<tag k="name" v="Kvamskjerven" />
		<tag k="place" v="locality" />
		<tag k="ssr:stedsnr" v="758194" />
	</node>
	<node lat="62.67611666355222" lon="6.636444446502556" id="-5870">
		<tag k="name" v="Instemyra" />
=======
	<node id="-51637" lat="62.7370888928" lon="7.36510000499">
		<tag k="name" v="Nothusvollen" />
		<tag k="place" v="locality" />
		<tag k="ssr:stedsnr" v="824944" />
	</node>
	<node id="-49583" lat="62.7529944488" lon="8.01920277929">
		<tag k="name" v="Grøtsteinen" />
		<tag k="natural" v="stone" />
		<tag k="ssr:stedsnr" v="159426" />
	</node>
	<node id="-49582" lat="62.757755554" lon="8.06185556533">
		<tag k="name" v="Ragnhildura" />
		<tag k="natural" v="scree" />
		<tag k="ssr:stedsnr" v="159410" />
	</node>
	<node id="-51629" lat="62.7542111135" lon="7.48333333985">
		<tag k="name" v="Langåsmyra" />
>>>>>>> e1d4bc35ff8a6074a6f2e91616a996b547c36f15
		<tag k="natural" v="wetland" />
		<tag k="ssr:stedsnr" v="758341" />
	</node>
<<<<<<< HEAD
	<node lat="62.70764444238993" lon="6.875883335803844" id="-5882">
		<tag k="name" v="Veafalmyra" />
=======
	<node id="-51624" lat="62.7525222247" lon="7.18375278607">
		<tag k="name" v="Myrsletta" />
>>>>>>> e1d4bc35ff8a6074a6f2e91616a996b547c36f15
		<tag k="natural" v="wetland" />
		<tag k="ssr:stedsnr" v="759534" />
	</node>
<<<<<<< HEAD
	<node lat="62.7022555532495" lon="7.554866664353634" id="-5889">
		<tag k="name" v="Urin" />
		<tag k="natural" v="scree" />
		<tag k="ssr:stedsnr" v="762165" />
	</node>
	<node lat="62.71615277708984" lon="7.52184723190192" id="-5890">
		<tag k="name" v="Alteret" />
=======
	<node id="-49564" lat="62.8037833306" lon="8.11787778636">
		<tag k="name" v="Vassmyra" />
		<tag k="natural" v="wetland" />
		<tag k="ssr:stedsnr" v="158731" />
	</node>
	<node id="-51618" lat="62.6754083338" lon="7.42420278152">
		<tag k="name" v="Mortensteinen" />
		<tag k="natural" v="stone" />
		<tag k="ssr:stedsnr" v="824641" />
	</node>
	<node id="-49569" lat="62.7106166659" lon="7.77443611432">
		<tag k="name" v="Kvilarsteinen" />
>>>>>>> e1d4bc35ff8a6074a6f2e91616a996b547c36f15
		<tag k="natural" v="stone" />
		<tag k="ssr:stedsnr" v="762170" />
	</node>
<<<<<<< HEAD
	<node lat="62.76195277999472" lon="7.512005562441723" id="-5906">
		<tag k="name" v="Guriannaplassen" />
		<tag k="place" v="locality" />
		<tag k="ssr:stedsnr" v="762978" />
	</node>
	<node lat="62.75428889000259" lon="7.278636120380139" id="-5919">
		<tag k="name" v="Årømyran" />
		<tag k="natural" v="wetland" />
		<tag k="ssr:stedsnr" v="763318" />
	</node>
	<node lat="62.72950833117138" lon="7.034166663920661" id="-5941">
		<tag k="name" v="Almevåtå" />
		<tag k="place" v="locality" />
		<tag k="ssr:stedsnr" v="763687" />
	</node>
	<node lat="62.69990278031268" lon="7.757597222945544" id="-5948">
		<tag k="name" v="Bekren" />
		<tag k="natural" v="stone" />
		<tag k="ssr:stedsnr" v="765022" />
	</node>
	<node lat="62.59705555328232" lon="8.172138891786227" id="-5950">
		<tag k="name" v="Slåssura" />
		<tag k="natural" v="scree" />
		<tag k="ssr:stedsnr" v="765112" />
	</node>
	<node lat="62.53208055278218" lon="8.17583332622327" id="-5952">
		<tag k="name" v="Styggura" />
		<tag k="natural" v="scree" />
		<tag k="ssr:stedsnr" v="765130" />
	</node>
	<node lat="62.65824166874663" lon="8.039380561193756" id="-5953">
		<tag k="name" v="Blåbærslættet" />
		<tag k="place" v="locality" />
		<tag k="ssr:stedsnr" v="765793" />
	</node>
	<node lat="62.633263889100306" lon="8.106719443327346" id="-5969">
		<tag k="name" v="Geilen" />
		<tag k="place" v="locality" />
		<tag k="ssr:stedsnr" v="765462" />
	</node>
	<node lat="62.75211944486118" lon="7.812474994016811" id="-5975">
		<tag k="name" v="Fåtjønnmyra" />
		<tag k="natural" v="wetland" />
		<tag k="ssr:stedsnr" v="765584" />
	</node>
	<node lat="62.730358337196854" lon="7.670066670971864" id="-5978">
		<tag k="name" v="Slipsteinteigen" />
=======
	<node id="-49566" lat="62.7529888854" lon="8.02758612018">
		<tag k="name" v="Svintrøa" />
		<tag k="place" v="locality" />
		<tag k="ssr:stedsnr" v="158745" />
	</node>
	<node id="-51612" lat="62.7543333362" lon="7.08809999637">
		<tag k="name" v="Hyttemyra" />
		<tag k="natural" v="wetland" />
		<tag k="ssr:stedsnr" v="824680" />
	</node>
	<node id="-47513" lat="62.7232499973" lon="7.86502777016">
		<tag k="name" v="Høgura" />
		<tag k="natural" v="scree" />
		<tag k="ssr:stedsnr" v="705063" />
	</node>
	<node id="-49559" lat="62.7734638883" lon="8.20552500874">
		<tag k="name" v="Stormyra" />
		<tag k="natural" v="wetland" />
		<tag k="ssr:stedsnr" v="158714" />
	</node>
	<node id="-49558" lat="62.7514472245" lon="7.74243055133">
		<tag k="name" v="Skrufarmyran" />
		<tag k="natural" v="wetland" />
		<tag k="ssr:stedsnr" v="158692" />
	</node>
	<node id="-46489" lat="62.7476638898" lon="7.51020278131">
		<tag k="name" v="Fåkjeldmyra" />
		<tag k="natural" v="wetland" />
		<tag k="ssr:stedsnr" v="216739" />
	</node>
	<node id="-47506" lat="62.7883583371" lon="8.13651110424">
		<tag k="name" v="Myran" />
		<tag k="natural" v="wetland" />
		<tag k="ssr:stedsnr" v="704682" />
	</node>
	<node id="-46147" lat="62.782783336" lon="7.83401666062">
		<tag k="name" v="Langripa" />
		<tag k="natural" v="wetland" />
		<tag k="ssr:stedsnr" v="98653" />
	</node>
	<node id="-47504" lat="62.7939805578" lon="8.28301388761">
		<tag k="name" v="Teistura" />
		<tag k="natural" v="scree" />
		<tag k="ssr:stedsnr" v="704674" />
	</node>
	<node id="-51599" lat="62.8287416634" lon="7.51428333454">
		<tag k="name" v="Løken" />
		<tag k="natural" v="wetland" />
		<tag k="ssr:stedsnr" v="824369" />
	</node>
	<node id="-47502" lat="62.7477166704" lon="7.74360832918">
		<tag k="name" v="Klokkemyra" />
		<tag k="natural" v="wetland" />
		<tag k="ssr:stedsnr" v="704665" />
	</node>
	<node id="-49546" lat="62.6971722187" lon="7.97912222094">
		<tag k="name" v="Brentura" />
		<tag k="natural" v="scree" />
		<tag k="ssr:stedsnr" v="158061" />
	</node>
	<node id="-47511" lat="62.6897361077" lon="7.90871388605">
		<tag k="name" v="Såtmyra" />
		<tag k="natural" v="wetland" />
		<tag k="ssr:stedsnr" v="705057" />
	</node>
	<node id="-51592" lat="62.7711972213" lon="7.57940278146">
		<tag k="name" v="Torvmyra" />
		<tag k="natural" v="wetland" />
		<tag k="ssr:stedsnr" v="824216" />
	</node>
	<node id="-49542" lat="62.723452774" lon="7.6623777848">
		<tag k="name" v="Hoåteigen" />
		<tag k="place" v="locality" />
		<tag k="ssr:stedsnr" v="156987" />
	</node>
	<node id="-49539" lat="62.7591861067" lon="7.53169721956">
		<tag k="name" v="Langgjerda" />
		<tag k="natural" v="wetland" />
		<tag k="ssr:stedsnr" v="156976" />
	</node>
	<node id="-49535" lat="62.6758249971" lon="7.25295556312">
		<tag k="name" v="Eikasteinen" />
		<tag k="natural" v="stone" />
		<tag k="ssr:stedsnr" v="156947" />
	</node>
	<node id="-51605" lat="62.730713891" lon="7.51313889655">
		<tag k="name" v="Langmyra" />
		<tag k="natural" v="wetland" />
		<tag k="ssr:stedsnr" v="824338" />
	</node>
	<node id="-49530" lat="62.7836333325" lon="7.39424722257">
		<tag k="name" v="Klumpesteinen" />
		<tag k="natural" v="stone" />
		<tag k="ssr:stedsnr" v="156896" />
	</node>
	<node id="-47481" lat="62.7496861114" lon="7.18377499518">
		<tag k="name" v="Gjeldmyra" />
		<tag k="natural" v="wetland" />
		<tag k="ssr:stedsnr" v="702685" />
	</node>
	<node id="-47480" lat="62.7513472239" lon="7.14801666429">
		<tag k="name" v="Olaringarmyra" />
		<tag k="natural" v="wetland" />
		<tag k="ssr:stedsnr" v="702677" />
	</node>
	<node id="-49522" lat="62.7491638859" lon="7.43873888537">
		<tag k="name" v="Ospateigen" />
>>>>>>> e1d4bc35ff8a6074a6f2e91616a996b547c36f15
		<tag k="place" v="locality" />
		<tag k="ssr:stedsnr" v="765679" />
	</node>
<<<<<<< HEAD
	<node lat="62.725547221828336" lon="7.672175007658058" id="-5979">
		<tag k="name" v="Hopteigen" />
=======
	<node id="-47473" lat="62.7190444416" lon="7.49614166429">
		<tag k="name" v="Svortesvaet" />
>>>>>>> e1d4bc35ff8a6074a6f2e91616a996b547c36f15
		<tag k="place" v="locality" />
		<tag k="ssr:stedsnr" v="765681" />
	</node>
<<<<<<< HEAD
	<node lat="62.64686110692382" lon="8.02496944319879" id="-5984">
		<tag k="name" v="Hellarsteinen" />
=======
	<node id="-47471" lat="62.6947999962" lon="7.45855277585">
		<tag k="name" v="Brennsteinen" />
>>>>>>> e1d4bc35ff8a6074a6f2e91616a996b547c36f15
		<tag k="natural" v="stone" />
		<tag k="ssr:stedsnr" v="765787" />
	</node>
<<<<<<< HEAD
	<node lat="62.66886666522006" lon="7.978844442393463" id="-5987">
		<tag k="name" v="Kloppvollen" />
=======
	<node id="-49517" lat="62.7611750018" lon="7.49541945135">
		<tag k="name" v="Seterbøen" />
>>>>>>> e1d4bc35ff8a6074a6f2e91616a996b547c36f15
		<tag k="natural" v="wetland" />
		<tag k="ssr:stedsnr" v="765883" />
	</node>
<<<<<<< HEAD
	<node lat="62.808286113875745" lon="8.131966667856679" id="-5995">
		<tag k="name" v="Stormyrbærholten" />
		<tag k="natural" v="wetland" />
		<tag k="ssr:stedsnr" v="766327" />
	</node>
	<node lat="62.752772225199415" lon="7.7896527851019055" id="-6002">
		<tag k="name" v="Langmyra" />
=======
	<node id="-46823" lat="62.7434027769" lon="8.10807499904">
		<tag k="name" v="Hardholtmyra" />
		<tag k="natural" v="wetland" />
		<tag k="ssr:stedsnr" v="462509" />
	</node>
	<node id="-49510" lat="62.7467611101" lon="7.16174443919">
		<tag k="name" v="Storsteinen" />
		<tag k="natural" v="stone" />
		<tag k="ssr:stedsnr" v="156703" />
	</node>
	<node id="-49553" lat="62.7360861085" lon="7.93469999572">
		<tag k="name" v="Nesmyra" />
		<tag k="natural" v="wetland" />
		<tag k="ssr:stedsnr" v="158125" />
	</node>
	<node id="-47451" lat="62.8339416668" lon="7.70535000951">
		<tag k="name" v="Lykkjeøyna" />
>>>>>>> e1d4bc35ff8a6074a6f2e91616a996b547c36f15
		<tag k="natural" v="wetland" />
		<tag k="ssr:stedsnr" v="766659" />
	</node>
<<<<<<< HEAD
	<node lat="62.79778333267861" lon="7.8243833261100955" id="-6004">
		<tag k="name" v="Dalamyra" />
=======
	<node id="-49551" lat="62.701577774" lon="7.91380833451">
		<tag k="name" v="Trøin" />
		<tag k="place" v="locality" />
		<tag k="ssr:stedsnr" v="158120" />
	</node>
	<node id="-49494" lat="62.7314361112" lon="7.02809721887">
		<tag k="name" v="Bjønnamyra" />
>>>>>>> e1d4bc35ff8a6074a6f2e91616a996b547c36f15
		<tag k="natural" v="wetland" />
		<tag k="ssr:stedsnr" v="766668" />
	</node>
	<node lat="62.799463893108715" lon="7.819291669689758" id="-6005">
		<tag k="name" v="Ura" />
		<tag k="natural" v="scree" />
		<tag k="ssr:stedsnr" v="766680" />
	</node>
<<<<<<< HEAD
	<node lat="62.76432778034975" lon="7.7581583249329" id="-6022">
		<tag k="name" v="Storura" />
		<tag k="natural" v="scree" />
		<tag k="ssr:stedsnr" v="800621" />
	</node>
	<node lat="62.420544445534475" lon="8.349511103930242" id="-6062">
		<tag k="name" v="Skadfallhola" />
=======
	<node id="-49493" lat="62.7355111111" lon="6.97397777369">
		<tag k="name" v="Skjerskogen" />
>>>>>>> e1d4bc35ff8a6074a6f2e91616a996b547c36f15
		<tag k="place" v="locality" />
		<tag k="ssr:stedsnr" v="156492" />
	</node>
<<<<<<< HEAD
	<node lat="62.67137499789763" lon="6.599388896657606" id="-6075">
		<tag k="name" v="Nygardssletta" />
		<tag k="place" v="locality" />
		<tag k="ssr:stedsnr" v="819117" />
	</node>
	<node lat="62.71279166539851" lon="7.555338894378161" id="-6100">
		<tag k="historic" v="shieling" />
		<tag k="name" v="Årsetsetra" />
		<tag k="place" v="locality" />
		<tag k="ssr:stedsnr" v="823747" />
	</node>
	<node lat="62.802616662800965" lon="7.581525004135773" id="-6105">
		<tag k="name" v="Ola Hauaskogen" />
=======
	<node id="-49550" lat="62.725330553" lon="7.83880554786">
		<tag k="name" v="Kollurin" />
		<tag k="natural" v="scree" />
		<tag k="ssr:stedsnr" v="158089" />
	</node>
	<node id="-49486" lat="62.7922333306" lon="7.50113888128">
		<tag k="name" v="Gjermyra" />
		<tag k="natural" v="wetland" />
		<tag k="ssr:stedsnr" v="156313" />
	</node>
	<node id="-49485" lat="62.8022138901" lon="7.71752500922">
		<tag k="name" v="Stormyra" />
		<tag k="natural" v="wetland" />
		<tag k="ssr:stedsnr" v="156308" />
	</node>
	<node id="-49481" lat="62.8335138862" lon="7.7000888851">
		<tag k="name" v="Brattsetøyna" />
		<tag k="natural" v="wetland" />
		<tag k="ssr:stedsnr" v="156188" />
	</node>
	<node id="-49473" lat="62.7016138847" lon="7.56145278365">
		<tag k="name" v="Nerbøen" />
>>>>>>> e1d4bc35ff8a6074a6f2e91616a996b547c36f15
		<tag k="place" v="locality" />
		<tag k="ssr:stedsnr" v="824056" />
	</node>
<<<<<<< HEAD
	<node lat="62.7356416686957" lon="7.4808499995040165" id="-6119">
		<tag k="name" v="Stormyra" />
		<tag k="natural" v="wetland" />
		<tag k="ssr:stedsnr" v="824172" />
	</node>
	<node lat="62.77119722134977" lon="7.579402781460327" id="-6122">
		<tag k="name" v="Torvmyra" />
		<tag k="natural" v="wetland" />
		<tag k="ssr:stedsnr" v="824216" />
	</node>
	<node lat="62.825061110969514" lon="7.632227784664334" id="-6124">
		<tag k="historic" v="shieling" />
		<tag k="name" v="Gamle Romoldsetra" />
		<tag k="place" v="locality" />
		<tag k="ssr:stedsnr" v="824239" />
	</node>
	<node lat="62.73529166707912" lon="7.0322166628562135" id="-6128">
		<tag k="name" v="Samsemyra" />
=======
	<node id="-49472" lat="62.7763277737" lon="7.77382222721">
		<tag k="name" v="Krokøyan" />
		<tag k="natural" v="wetland" />
		<tag k="ssr:stedsnr" v="156123" />
	</node>
	<node id="-49471" lat="62.779616666" lon="7.38290277628">
		<tag k="name" v="Gråsteinen" />
		<tag k="natural" v="stone" />
		<tag k="ssr:stedsnr" v="156108" />
	</node>
	<node id="-47498" lat="62.8084194454" lon="8.13537777091">
		<tag k="name" v="Litlemyrbærholten" />
		<tag k="natural" v="wetland" />
		<tag k="ssr:stedsnr" v="704237" />
	</node>
	<node id="-49462" lat="62.815036112" lon="7.53404721919">
		<tag k="name" v="Resmyrane" />
		<tag k="natural" v="wetland" />
		<tag k="ssr:stedsnr" v="156040" />
	</node>
	<node id="-49544" lat="62.6856722263" lon="7.98326110746">
		<tag k="name" v="Grasøyna" />
		<tag k="natural" v="wetland" />
		<tag k="ssr:stedsnr" v="158049" />
	</node>
	<node id="-47405" lat="62.6615805582" lon="7.27401944642">
		<tag k="name" v="Stormyra" />
>>>>>>> e1d4bc35ff8a6074a6f2e91616a996b547c36f15
		<tag k="natural" v="wetland" />
		<tag k="ssr:stedsnr" v="824522" />
	</node>
<<<<<<< HEAD
	<node lat="62.67540833375113" lon="7.424202781524442" id="-6135">
		<tag k="name" v="Mortensteinen" />
		<tag k="natural" v="stone" />
		<tag k="ssr:stedsnr" v="824641" />
	</node>
	<node lat="62.754211113462716" lon="7.48333333984897" id="-6142">
		<tag k="name" v="Langåsmyra" />
		<tag k="natural" v="wetland" />
		<tag k="ssr:stedsnr" v="824842" />
	</node>
	<node lat="62.737088892842785" lon="7.365100004992234" id="-6153">
		<tag k="name" v="Nothusvollen" />
=======
	<node id="-47401" lat="62.7548972187" lon="7.56308888641">
		<tag k="name" v="Røsslimyra" />
		<tag k="natural" v="wetland" />
		<tag k="ssr:stedsnr" v="701791" />
	</node>
	<node id="-49437" lat="62.7186083322" lon="6.69873333131">
		<tag k="name" v="Grønskarmyra" />
		<tag k="natural" v="wetland" />
		<tag k="ssr:stedsnr" v="151044" />
	</node>
	<node id="-47378" lat="62.6568722203" lon="7.31128332596">
		<tag k="name" v="Løkan" />
		<tag k="natural" v="wetland" />
		<tag k="ssr:stedsnr" v="701388" />
	</node>
	<node id="-49425" lat="62.4528583304" lon="8.34880833989">
		<tag k="name" v="Selskreden" />
		<tag k="place" v="locality" />
		<tag k="ssr:stedsnr" v="141745" />
	</node>
	<node id="-49424" lat="62.4116499989" lon="8.36712222116">
		<tag k="name" v="Slættet" />
>>>>>>> e1d4bc35ff8a6074a6f2e91616a996b547c36f15
		<tag k="place" v="locality" />
		<tag k="ssr:stedsnr" v="824944" />
	</node>
<<<<<<< HEAD
	<node lat="62.77429722164994" lon="7.698747227328647" id="-6156">
		<tag k="historic" v="shieling" />
		<tag k="name" v="Kleivsetra" />
=======
	<node id="-49423" lat="62.4338138884" lon="8.30854722263">
		<tag k="name" v="Espet" />
>>>>>>> e1d4bc35ff8a6074a6f2e91616a996b547c36f15
		<tag k="place" v="locality" />
		<tag k="ssr:stedsnr" v="824997" />
	</node>
<<<<<<< HEAD
	<node lat="62.46473611176714" lon="8.191936107561169" id="-6164">
		<tag k="name" v="Kjeura" />
=======
	<node id="-51461" lat="62.7994638931" lon="7.81929166969">
		<tag k="name" v="Ura" />
>>>>>>> e1d4bc35ff8a6074a6f2e91616a996b547c36f15
		<tag k="natural" v="scree" />
		<tag k="ssr:stedsnr" v="826140" />
	</node>
<<<<<<< HEAD
	<node lat="62.76673889049017" lon="7.8189166591992825" id="-6175">
		<tag k="name" v="Rundløkan" />
=======
	<node id="-51460" lat="62.7977833327" lon="7.82438332611">
		<tag k="name" v="Dalamyra" />
>>>>>>> e1d4bc35ff8a6074a6f2e91616a996b547c36f15
		<tag k="natural" v="wetland" />
		<tag k="ssr:stedsnr" v="826549" />
	</node>
<<<<<<< HEAD
	<node lat="62.79924722512012" lon="8.169847218965762" id="-6181">
		<tag k="name" v="Sjømyra" />
		<tag k="natural" v="wetland" />
		<tag k="ssr:stedsnr" v="826706" />
	</node>
	<node lat="62.732066664060305" lon="7.899627776535597" id="-6182">
		<tag k="name" v="Frøsteinkyrkja" />
		<tag k="natural" v="stone" />
		<tag k="ssr:stedsnr" v="826970" />
	</node>
	<node lat="62.72274166467026" lon="7.798408340158604" id="-6188">
		<tag k="name" v="Gammelfonna" />
=======
	<node id="-47362" lat="62.6659305561" lon="6.66005000892">
		<tag k="name" v="Gråura" />
		<tag k="natural" v="scree" />
		<tag k="ssr:stedsnr" v="697951" />
	</node>
	<node id="-51455" lat="62.7757833347" lon="8.07410554816">
		<tag k="name" v="Heggåkran" />
>>>>>>> e1d4bc35ff8a6074a6f2e91616a996b547c36f15
		<tag k="place" v="locality" />
		<tag k="ssr:stedsnr" v="826894" />
	</node>
<<<<<<< HEAD
	<node lat="62.70159444394606" lon="7.813647228433939" id="-6191">
		<tag k="name" v="Kråkgullsteinen" />
		<tag k="natural" v="stone" />
		<tag k="ssr:stedsnr" v="826911" />
	</node>
	<node lat="62.81749722130998" lon="8.106244443809086" id="-6193">
		<tag k="name" v="Sagstumyran" />
=======
	<node id="-47354" lat="62.6903305544" lon="6.61867778415">
		<tag k="name" v="Langemyra" />
>>>>>>> e1d4bc35ff8a6074a6f2e91616a996b547c36f15
		<tag k="natural" v="wetland" />
		<tag k="ssr:stedsnr" v="827344" />
	</node>
<<<<<<< HEAD
	<node lat="62.77714444245141" lon="8.092155551719372" id="-6194">
		<tag k="name" v="Ljøsmyran" />
=======
	<node id="-51446" lat="62.6897805546" lon="7.99108888064">
		<tag k="name" v="Kyrkjemyra" />
>>>>>>> e1d4bc35ff8a6074a6f2e91616a996b547c36f15
		<tag k="natural" v="wetland" />
		<tag k="ssr:stedsnr" v="827438" />
	</node>
<<<<<<< HEAD
	<node lat="62.740452781965296" lon="8.052833332160281" id="-6213">
		<tag k="name" v="Geilen" />
		<tag k="place" v="locality" />
		<tag k="ssr:stedsnr" v="827800" />
	</node>
	<node lat="62.55729166270571" lon="8.178099992642892" id="-6222">
		<tag k="name" v="Storjakopgjerdet" />
=======
	<node id="-51445" lat="62.6582416687" lon="8.03938056119">
		<tag k="name" v="Blåbærslættet" />
		<tag k="place" v="locality" />
		<tag k="ssr:stedsnr" v="765793" />
	</node>
	<node id="-51442" lat="62.6468611069" lon="8.0249694432">
		<tag k="name" v="Hellarsteinen" />
		<tag k="natural" v="stone" />
		<tag k="ssr:stedsnr" v="765787" />
	</node>
	<node id="-51437" lat="62.4403722244" lon="8.28474444564">
		<tag k="name" v="Høvelreitan" />
>>>>>>> e1d4bc35ff8a6074a6f2e91616a996b547c36f15
		<tag k="place" v="locality" />
		<tag k="ssr:stedsnr" v="827894" />
	</node>
<<<<<<< HEAD
	<node lat="62.50710277854135" lon="8.020213895775472" id="-6236">
		<tag k="name" v="Midthøbreen" />
		<tag k="natural" v="glacier" />
		<tag k="ssr:stedsnr" v="861202" />
	</node>
	<node lat="62.54672500436159" lon="8.186316661786975" id="-6245">
		<tag k="name" v="Reitan" />
		<tag k="place" v="locality" />
		<tag k="ssr:stedsnr" v="861118" />
	</node>
	<node lat="62.661577779789084" lon="6.637116662559613" id="-6310">
		<tag k="name" v="Grønlimyra" />
		<tag k="natural" v="wetland" />
		<tag k="ssr:stedsnr" v="880025" />
	</node>
	<node lat="62.68554444847624" lon="6.760597223453834" id="-6314">
		<tag k="name" v="Mølet" />
		<tag k="natural" v="wetland" />
		<tag k="ssr:stedsnr" v="880265" />
	</node>
	<node lat="62.79060277859979" lon="7.530566656947794" id="-6340">
		<tag k="name" v="Storøya" />
=======
	<node id="-46119" lat="62.8028833328" lon="8.15883055409">
		<tag k="name" v="Trøstenmyra" />
		<tag k="natural" v="wetland" />
		<tag k="ssr:stedsnr" v="98213" />
	</node>
	<node id="-47336" lat="62.6907638869" lon="7.97498610818">
		<tag k="name" v="Brekkemyra" />
		<tag k="natural" v="wetland" />
		<tag k="ssr:stedsnr" v="523977" />
	</node>
	<node id="-51427" lat="62.6688666652" lon="7.97884444239">
		<tag k="name" v="Kloppvollen" />
		<tag k="natural" v="wetland" />
		<tag k="ssr:stedsnr" v="765883" />
	</node>
	<node id="-51424" lat="62.7521194449" lon="7.81247499402">
		<tag k="name" v="Fåtjønnmyra" />
		<tag k="natural" v="wetland" />
		<tag k="ssr:stedsnr" v="765584" />
	</node>
	<node id="-47327" lat="62.8201972224" lon="8.06171388168">
		<tag k="name" v="Bjørnsonsteinen" />
		<tag k="natural" v="stone" />
		<tag k="ssr:stedsnr" v="523368" />
	</node>
	<node id="-51417" lat="62.7255472218" lon="7.67217500766">
		<tag k="name" v="Hopteigen" />
		<tag k="place" v="locality" />
		<tag k="ssr:stedsnr" v="765681" />
	</node>
	<node id="-51416" lat="62.7303583372" lon="7.67006667097">
		<tag k="name" v="Slipsteinteigen" />
>>>>>>> e1d4bc35ff8a6074a6f2e91616a996b547c36f15
		<tag k="place" v="locality" />
		<tag k="ssr:stedsnr" v="884309" />
	</node>
<<<<<<< HEAD
	<node lat="62.78730833638203" lon="7.581183328257762" id="-6341">
		<tag k="name" v="Røsbergura" />
		<tag k="natural" v="scree" />
		<tag k="ssr:stedsnr" v="884006" />
	</node>
	<node lat="62.788091663763055" lon="7.56596389225515" id="-6345">
		<tag k="name" v="Skjøljaren" />
=======
	<node id="-47315" lat="62.7789083378" lon="8.27700832756">
		<tag k="name" v="Svartsvaet" />
		<tag k="place" v="locality" />
		<tag k="ssr:stedsnr" v="523603" />
	</node>
	<node id="-47314" lat="62.6687666643" lon="6.64986388521">
		<tag k="name" v="Høgsetmyrane" />
>>>>>>> e1d4bc35ff8a6074a6f2e91616a996b547c36f15
		<tag k="natural" v="wetland" />
		<tag k="ssr:stedsnr" v="884070" />
	</node>
<<<<<<< HEAD
	<node lat="62.79368610966426" lon="7.425172215936281" id="-6346">
		<tag k="historic" v="shieling" />
		<tag k="name" v="Ytre Mjelvesetra" />
		<tag k="place" v="locality" />
		<tag k="ssr:stedsnr" v="884071" />
	</node>
	<node lat="62.68567500168263" lon="7.451305546982655" id="-6351">
		<tag k="name" v="Rompa" />
		<tag k="place" v="locality" />
		<tag k="ssr:stedsnr" v="884186" />
	</node>
	<node lat="62.64990833167505" lon="7.277769451883164" id="-6355">
		<tag k="name" v="Gråura" />
		<tag k="natural" v="scree" />
		<tag k="ssr:stedsnr" v="884275" />
	</node>
	<node lat="62.7583194407967" lon="7.643111120662395" id="-6382">
		<tag k="name" v="Skålmyran" />
		<tag k="natural" v="wetland" />
		<tag k="ssr:stedsnr" v="884995" />
	</node>
	<node lat="62.776069440378755" lon="7.900455548665466" id="-6387">
		<tag k="name" v="Øvre Kjerringmyra" />
=======
	<node id="-46115" lat="62.7218305516" lon="7.7971944533">
		<tag k="name" v="Nyfonna" />
		<tag k="place" v="locality" />
		<tag k="ssr:stedsnr" v="98065" />
	</node>
	<node id="-51408" lat="62.6999027803" lon="7.75759722295">
		<tag k="name" v="Bekren" />
		<tag k="natural" v="stone" />
		<tag k="ssr:stedsnr" v="765022" />
	</node>
	<node id="-51407" lat="62.5320805528" lon="8.17583332622">
		<tag k="name" v="Styggura" />
		<tag k="natural" v="scree" />
		<tag k="ssr:stedsnr" v="765130" />
	</node>
	<node id="-51405" lat="62.5970555533" lon="8.17213889179">
		<tag k="name" v="Slåssura" />
		<tag k="natural" v="scree" />
		<tag k="ssr:stedsnr" v="765112" />
	</node>
	<node id="-46114" lat="62.666352777" lon="7.85763332519">
		<tag k="name" v="Fallmyra" />
		<tag k="natural" v="wetland" />
		<tag k="ssr:stedsnr" v="98059" />
	</node>
	<node id="-49346" lat="62.4817888875" lon="8.15101944071">
		<tag k="name" v="Påskesteinen" />
		<tag k="natural" v="stone" />
		<tag k="ssr:stedsnr" v="98786" />
	</node>
	<node id="-47289" lat="62.8350722188" lon="7.65325277537">
		<tag k="name" v="Raudliløken" />
>>>>>>> e1d4bc35ff8a6074a6f2e91616a996b547c36f15
		<tag k="natural" v="wetland" />
		<tag k="ssr:stedsnr" v="887470" />
	</node>
<<<<<<< HEAD
	<node lat="62.754605551672675" lon="7.78331389187814" id="-6392">
		<tag k="name" v="Gildermyran" />
		<tag k="natural" v="wetland" />
		<tag k="ssr:stedsnr" v="887599" />
	</node>
	<node lat="62.437041667846515" lon="8.287491669257575" id="-6401">
		<tag k="name" v="Einan" />
=======
	<node id="-51381" lat="62.7295083312" lon="7.03416666392">
		<tag k="name" v="Almevåtå" />
		<tag k="place" v="locality" />
		<tag k="ssr:stedsnr" v="763687" />
	</node>
	<node id="-49332" lat="62.6661972219" lon="8.17125277726">
		<tag k="name" v="Korsseterfonna" />
>>>>>>> e1d4bc35ff8a6074a6f2e91616a996b547c36f15
		<tag k="place" v="locality" />
		<tag k="ssr:stedsnr" v="887088" />
	</node>
<<<<<<< HEAD
	<node lat="62.8046388919072" lon="8.134716660302649" id="-6408">
		<tag k="name" v="Langgrovmyra" />
=======
	<node id="-47277" lat="62.723919441" lon="6.74861111794">
		<tag k="name" v="Vågsmyran" />
>>>>>>> e1d4bc35ff8a6074a6f2e91616a996b547c36f15
		<tag k="natural" v="wetland" />
		<tag k="ssr:stedsnr" v="887240" />
	</node>
<<<<<<< HEAD
	<node lat="62.76122777541127" lon="7.839791665945325" id="-6422">
		<tag k="name" v="Fjellmyra" />
=======
	<node id="-49316" lat="62.8066083377" lon="8.11554721972">
		<tag k="name" v="Langmyrhalsen" />
>>>>>>> e1d4bc35ff8a6074a6f2e91616a996b547c36f15
		<tag k="natural" v="wetland" />
		<tag k="ssr:stedsnr" v="887577" />
	</node>
<<<<<<< HEAD
	<node lat="62.77944444641626" lon="8.260144439983414" id="-6437">
		<tag k="name" v="Våta" />
=======
	<node id="-51361" lat="62.8290722211" lon="7.64446943496">
		<tag k="name" v="Smålimyrane" />
>>>>>>> e1d4bc35ff8a6074a6f2e91616a996b547c36f15
		<tag k="natural" v="wetland" />
		<tag k="ssr:stedsnr" v="887671" />
	</node>
<<<<<<< HEAD
	<node lat="62.57721666389602" lon="8.146358334438498" id="-6442">
		<tag k="name" v="Blikskårsvaa" />
		<tag k="place" v="locality" />
		<tag k="ssr:stedsnr" v="887868" />
	</node>
	<node lat="62.705041663705074" lon="7.954088887139862" id="-6453">
		<tag k="name" v="Sortediket" />
		<tag k="natural" v="wetland" />
		<tag k="ssr:stedsnr" v="887993" />
	</node>
	<node lat="62.67526666233367" lon="6.9066694468638765" id="-6474">
		<tag k="name" v="Leitamyra" />
=======
	<node id="-47255" lat="62.6570805565" lon="7.34675554929">
		<tag k="name" v="Eikamyra" />
>>>>>>> e1d4bc35ff8a6074a6f2e91616a996b547c36f15
		<tag k="natural" v="wetland" />
		<tag k="ssr:stedsnr" v="941461" />
	</node>
<<<<<<< HEAD
	<node lat="62.84245000105282" lon="7.739297227678246" id="-6491">
		<tag k="name" v="Øyamyra" />
		<tag k="natural" v="wetland" />
		<tag k="ssr:stedsnr" v="945252" />
	</node>
	<node lat="62.753169445492254" lon="7.579399998755493" id="-6494">
		<tag k="name" v="Skålmyran" />
		<tag k="natural" v="wetland" />
		<tag k="ssr:stedsnr" v="944773" />
	</node>
	<node lat="62.81382222135355" lon="7.517288889979675" id="-6500">
		<tag k="name" v="Fonnavarden" />
		<tag k="natural" v="stone" />
		<tag k="ssr:stedsnr" v="945028" />
	</node>
	<node lat="62.76377500351996" lon="7.615711111797984" id="-6504">
		<tag k="name" v="Tjørhjellmyra" />
		<tag k="natural" v="wetland" />
		<tag k="ssr:stedsnr" v="944971" />
	</node>
	<node lat="62.796733331390776" lon="7.420572217372778" id="-6509">
		<tag k="historic" v="shieling" />
		<tag k="name" v="Indre Mjelvesetra" />
		<tag k="place" v="locality" />
		<tag k="ssr:stedsnr" v="945050" />
	</node>
	<node lat="62.81279167017641" lon="7.778550001099839" id="-6515">
		<tag k="name" v="Skiljarmyra" />
		<tag k="natural" v="wetland" />
		<tag k="ssr:stedsnr" v="945174" />
	</node>
	<node lat="62.722901876926215" lon="7.401986306209729" id="-6518">
		<tag k="name" v="Storura" />
=======
	<node id="-49302" lat="62.6354027776" lon="8.13104444617">
		<tag k="name" v="Slettskredet" />
		<tag k="natural" v="scree" />
		<tag k="ssr:stedsnr" v="98099" />
	</node>
	<node id="-47469" lat="62.7628305569" lon="7.18898056217">
		<tag k="name" v="Krokan" />
		<tag k="natural" v="wetland" />
		<tag k="ssr:stedsnr" v="702629" />
	</node>
	<node id="-51339" lat="62.6992722231" lon="7.43607778544">
		<tag k="name" v="Hamnavikmyra" />
		<tag k="natural" v="wetland" />
		<tag k="ssr:stedsnr" v="762852" />
	</node>
	<node id="-51331" lat="62.7562972212" lon="7.46823888361">
		<tag k="name" v="Blokkemyra" />
		<tag k="natural" v="wetland" />
		<tag k="ssr:stedsnr" v="762799" />
	</node>
	<node id="-49279" lat="62.7490194456" lon="7.51947500149">
		<tag k="name" v="PePlassamyra" />
		<tag k="natural" v="wetland" />
		<tag k="ssr:stedsnr" v="95741" />
	</node>
	<node id="-51320" lat="62.7161527771" lon="7.5218472319">
		<tag k="name" v="Alteret" />
		<tag k="natural" v="stone" />
		<tag k="ssr:stedsnr" v="762170" />
	</node>
	<node id="-51319" lat="62.7022555532" lon="7.55486666435">
		<tag k="name" v="Urin" />
>>>>>>> e1d4bc35ff8a6074a6f2e91616a996b547c36f15
		<tag k="natural" v="scree" />
		<tag k="ssr:stedsnr" v="945122" />
	</node>
<<<<<<< HEAD
	<node lat="62.80937500217688" lon="7.620769445089676" id="-6522">
		<tag k="name" v="Slåløken" />
		<tag k="natural" v="wetland" />
		<tag k="ssr:stedsnr" v="945321" />
	</node>
	<node lat="62.71018055514528" lon="7.493405558339328" id="-6529">
		<tag k="name" v="Horgamyra" />
=======
	<node id="-49270" lat="62.7708972181" lon="7.34643055323">
		<tag k="name" v="Torvet" />
		<tag k="natural" v="wetland" />
		<tag k="ssr:stedsnr" v="95271" />
	</node>
	<node id="-51313" lat="62.6931083353" lon="7.53060554933">
		<tag k="name" v="Mortensteinen" />
		<tag k="natural" v="stone" />
		<tag k="ssr:stedsnr" v="759407" />
	</node>
	<node id="-51311" lat="62.7076444424" lon="6.8758833358">
		<tag k="name" v="Veafalmyra" />
>>>>>>> e1d4bc35ff8a6074a6f2e91616a996b547c36f15
		<tag k="natural" v="wetland" />
		<tag k="ssr:stedsnr" v="945575" />
	</node>
<<<<<<< HEAD
	<node lat="62.7350111105731" lon="7.035363888042966" id="-6533">
		<tag k="name" v="Løypmyra" />
=======
	<node id="-49256" lat="62.7553138915" lon="7.21942777963">
		<tag k="name" v="Skjøljarmyra" />
>>>>>>> e1d4bc35ff8a6074a6f2e91616a996b547c36f15
		<tag k="natural" v="wetland" />
		<tag k="ssr:stedsnr" v="945661" />
	</node>
<<<<<<< HEAD
	<node lat="62.74457221905374" lon="7.4432249966100095" id="-6538">
		<tag k="name" v="Storskarsmyra" />
		<tag k="natural" v="wetland" />
		<tag k="ssr:stedsnr" v="945798" />
	</node>
	<node lat="62.774336107625324" lon="7.648530564399106" id="-6557">
		<tag k="name" v="Bleikmyra" />
=======
	<node id="-49255" lat="62.8576222252" lon="7.77821667186">
		<tag k="historic" v="shieling" />
		<tag k="name" v="Botterlisetra" />
		<tag k="place" v="locality" />
		<tag k="ssr:stedsnr" v="95160" />
	</node>
	<node id="-49250" lat="62.6608166633" lon="7.3616249931">
		<tag k="name" v="Skarmyra" />
>>>>>>> e1d4bc35ff8a6074a6f2e91616a996b547c36f15
		<tag k="natural" v="wetland" />
		<tag k="ssr:stedsnr" v="945953" />
	</node>
<<<<<<< HEAD
	<node lat="62.656950001343716" lon="8.106222217097017" id="-6565">
		<tag k="name" v="Stormyra" />
=======
	<node id="-47201" lat="62.7009194407" lon="7.42818334205">
		<tag k="name" v="Glåmå" />
>>>>>>> e1d4bc35ff8a6074a6f2e91616a996b547c36f15
		<tag k="natural" v="wetland" />
		<tag k="ssr:stedsnr" v="947385" />
	</node>
<<<<<<< HEAD
	<node lat="62.44611111139027" lon="8.282544435972842" id="-6571">
		<tag k="name" v="Fløten" />
		<tag k="place" v="locality" />
		<tag k="ssr:stedsnr" v="948083" />
	</node>
	<node lat="62.41474722415027" lon="8.35422222924855" id="-6576">
		<tag k="name" v="Kusteinane" />
		<tag k="natural" v="stone" />
		<tag k="ssr:stedsnr" v="948122" />
	</node>
	<node lat="62.816611108086896" lon="8.118638883593883" id="-6578">
		<tag k="name" v="Holbekkmyran" />
=======
	<node id="-51293" lat="62.6568055527" lon="6.57746944292">
		<tag k="name" v="Djupemyran" />
>>>>>>> e1d4bc35ff8a6074a6f2e91616a996b547c36f15
		<tag k="natural" v="wetland" />
		<tag k="ssr:stedsnr" v="948340" />
	</node>
<<<<<<< HEAD
	<node lat="62.801944448530485" lon="8.093158328303346" id="-6596">
		<tag k="name" v="Brentråkmyra" />
		<tag k="natural" v="wetland" />
		<tag k="ssr:stedsnr" v="948463" />
	</node>
	<node lat="62.5537083320068" lon="8.145711109275092" id="-6629">
		<tag k="name" v="Breifonna" />
		<tag k="place" v="locality" />
		<tag k="ssr:stedsnr" v="948910" />
	</node>
	<node lat="62.716700003486594" lon="7.9387388828925465" id="-6639">
		<tag k="name" v="Kjesteinen" />
		<tag k="natural" v="stone" />
		<tag k="ssr:stedsnr" v="948969" />
=======
	<node id="-47196" lat="62.8409472202" lon="7.73208055603">
		<tag k="name" v="Myrslettløken" />
		<tag k="natural" v="wetland" />
		<tag k="ssr:stedsnr" v="459205" />
	</node>
	<node id="-47195" lat="62.8432555571" lon="7.75218054852">
		<tag k="historic" v="shieling" />
		<tag k="name" v="Øygardsetra" />
		<tag k="place" v="locality" />
		<tag k="ssr:stedsnr" v="459203" />
	</node>
	<node id="-49240" lat="62.6945555582" lon="7.53237500925">
		<tag k="name" v="Urin" />
		<tag k="natural" v="scree" />
		<tag k="ssr:stedsnr" v="95109" />
	</node>
	<node id="-49239" lat="62.7086833364" lon="7.54735555409">
		<tag k="name" v="Løkmyra" />
		<tag k="natural" v="wetland" />
		<tag k="ssr:stedsnr" v="95106" />
	</node>
	<node id="-49234" lat="62.8080305536" lon="7.46514445338">
		<tag k="name" v="Poppelskjeta" />
		<tag k="natural" v="wetland" />
		<tag k="ssr:stedsnr" v="95079" />
	</node>
	<node id="-49233" lat="62.8263722202" lon="7.42999999801">
		<tag k="name" v="Langvassmyran" />
		<tag k="natural" v="wetland" />
		<tag k="ssr:stedsnr" v="95074" />
	</node>
	<node id="-51277" lat="62.4231472194" lon="8.33009165709">
		<tag k="name" v="Storura" />
		<tag k="natural" v="scree" />
		<tag k="ssr:stedsnr" v="748778" />
	</node>
	<node id="-49227" lat="62.786180556" lon="7.54258333582">
		<tag k="name" v="Hungnestrøa" />
		<tag k="place" v="locality" />
		<tag k="ssr:stedsnr" v="95032" />
	</node>
	<node id="-49224" lat="62.81067222" lon="7.67385555558">
		<tag k="name" v="Skalleløken" />
		<tag k="natural" v="wetland" />
		<tag k="ssr:stedsnr" v="95012" />
	</node>
	<node id="-49217" lat="62.7196166656" lon="6.89988888526">
		<tag k="name" v="Håkåbumyra" />
		<tag k="natural" v="wetland" />
		<tag k="ssr:stedsnr" v="92898" />
	</node>
	<node id="-47168" lat="62.6865916706" lon="6.61453333753">
		<tag k="name" v="Hellarmyra" />
		<tag k="natural" v="wetland" />
		<tag k="ssr:stedsnr" v="436883" />
	</node>
	<node id="-51259" lat="62.8421027788" lon="8.12476666794">
		<tag k="alt_name" v="Rødsand Gruver" />
		<tag k="landuse" v="quarry" />
		<tag k="name" v="Gruver" />
		<tag k="ssr:stedsnr" v="740512" />
	</node>
	<node id="-49205" lat="62.7089694458" lon="6.75884722735">
		<tag k="name" v="Skotura" />
		<tag k="natural" v="scree" />
		<tag k="ssr:stedsnr" v="91720" />
	</node>
	<node id="-47153" lat="62.5827" lon="8.09835832775">
		<tag k="name" v="Blikskårbreen" />
		<tag k="natural" v="glacier" />
		<tag k="ssr:stedsnr" v="436147" />
	</node>
	<node id="-49194" lat="62.6715166712" lon="6.88712222311">
		<tag k="name" v="Nestemyrane" />
		<tag k="natural" v="wetland" />
		<tag k="ssr:stedsnr" v="91415" />
	</node>
	<node id="-49190" lat="62.6893694445" lon="6.77064721704">
		<tag k="name" v="Diplane" />
		<tag k="natural" v="wetland" />
		<tag k="ssr:stedsnr" v="91389" />
	</node>
	<node id="-49186" lat="62.6928833301" lon="6.84985000593">
		<tag k="name" v="Skatmyra" />
		<tag k="natural" v="wetland" />
		<tag k="ssr:stedsnr" v="91271" />
	</node>
	<node id="-49181" lat="62.6463138875" lon="6.5303111019">
		<tag k="name" v="Trollkjerka" />
		<tag k="natural" v="stone" />
		<tag k="ssr:stedsnr" v="91111" />
	</node>
	<node id="-51201" lat="62.7169583337" lon="7.84143888576">
		<tag k="name" v="Skjenstømyran" />
		<tag k="natural" v="wetland" />
		<tag k="ssr:stedsnr" v="644924" />
>>>>>>> e1d4bc35ff8a6074a6f2e91616a996b547c36f15
	</node>
</osm>
