<?xml version="1.0" encoding="UTF-8"?>
<osm version="0.6" generator="osmapis">
	<node lat="62.771066662824026" lon="8.19228610341089" id="-1441">
		<tag k="name" v="Meisalelva" />
		<tag k="ssr:stedsnr" v="11613" />
		<tag k="waterway" v="river" />
	</node>
	<node lat="62.78619444142478" lon="7.854247231499434" id="-1447">
		<tag k="name" v="Skjørsetervatnet" />
		<tag k="natural" v="water" />
		<tag k="ssr:stedsnr" v="11580" />
		<tag k="water" v="lake" />
	</node>
	<node lat="62.80235000306189" lon="8.020497229225022" id="-1452">
		<tag k="name" v="Solbjørvatna" />
		<tag k="natural" v="water" />
		<tag k="ssr:stedsnr" v="12572" />
	</node>
	<node lat="62.49863888466141" lon="8.074050008291726" id="-1454">
		<tag k="name" v="Nedste Mardalsvatnet" />
		<tag k="natural" v="water" />
		<tag k="ssr:stedsnr" v="12827" />
		<tag k="water" v="lake" />
	</node>
	<node lat="62.756847220930695" lon="7.08221665834277" id="-1455">
		<tag k="name" v="Langvatnet" />
		<tag k="natural" v="water" />
		<tag k="ssr:stedsnr" v="12873" />
	</node>
	<node lat="62.725413890611414" lon="6.868388897881396" id="-1469">
		<tag k="name" v="Beinsetvatnet" />
		<tag k="natural" v="water" />
		<tag k="ssr:stedsnr" v="27705" />
	</node>
	<node lat="62.700847221298375" lon="6.859891662743604" id="-1480">
		<tag k="name" v="Kyrabotnelva" />
		<tag k="ssr:stedsnr" v="31511" />
		<tag k="waterway" v="stream" />
	</node>
	<node lat="62.716794447165405" lon="6.874827783409155" id="-1482">
		<tag k="name" v="Foselva" />
		<tag k="ssr:stedsnr" v="31976" />
		<tag k="waterway" v="river" />
	</node>
	<node lat="62.80918055904843" lon="7.655680559364116" id="-1487">
		<tag k="name" v="Lomtjønna" />
		<tag k="natural" v="water" />
		<tag k="ssr:stedsnr" v="34022" />
	</node>
	<node lat="62.70125833423152" lon="7.485997228895529" id="-1490">
		<tag k="name" v="Teppa" />
		<tag k="ssr:stedsnr" v="34217" />
		<tag k="waterway" v="dam" />
	</node>
	<node lat="62.754372226272814" lon="7.082125006806265" id="-1494">
		<tag k="name" v="Ørnehammarneset" />
		<tag k="natural" v="cape" />
		<tag k="ssr:stedsnr" v="34707" />
	</node>
	<node lat="62.75164721985925" lon="7.193066674586736" id="-1498">
		<tag k="name" v="Fuglsettjønna" />
		<tag k="natural" v="water" />
		<tag k="ssr:stedsnr" v="34700" />
	</node>
	<node lat="62.75833333588574" lon="7.54635833486568" id="-1507">
		<tag k="name" v="Kregrova" />
		<tag k="ssr:stedsnr" v="35375" />
		<tag k="waterway" v="stream" />
	</node>
	<node lat="62.69477221789976" lon="8.01189999819628" id="-1516">
		<tag k="name" v="Grova" />
		<tag k="ssr:stedsnr" v="37084" />
		<tag k="waterway" v="stream" />
	</node>
	<node lat="62.77989444770217" lon="7.989766672313669" id="-1520">
		<tag k="name" v="Bulautbekken" />
		<tag k="ssr:stedsnr" v="37602" />
		<tag k="waterway" v="stream" />
	</node>
	<node lat="62.492491671138524" lon="8.143769452087682" id="-1525">
		<tag k="name" v="Mardalssanden" />
		<tag k="natural" v="beach" />
		<tag k="ssr:stedsnr" v="37860" />
	</node>
	<node lat="62.83632222072969" lon="8.029341659491696" id="-1526">
		<tag k="name" v="Svartakseltjønna" />
		<tag k="natural" v="water" />
		<tag k="ssr:stedsnr" v="37562" />
	</node>
	<node lat="62.84193055693685" lon="8.114127780477016" id="-1531">
		<tag k="name" v="Kleivdammen" />
		<tag k="ssr:stedsnr" v="37570" />
		<tag k="waterway" v="dam" />
	</node>
	<node lat="62.68154722311042" lon="8.122094444253984" id="-1543">
		<tag k="name" v="Nausteelva" />
		<tag k="ssr:stedsnr" v="38115" />
		<tag k="waterway" v="river" />
	</node>
	<node lat="62.74816110889487" lon="8.04843333408211" id="-1544">
		<tag k="name" v="Bytingsbekken" />
		<tag k="ssr:stedsnr" v="38399" />
		<tag k="waterway" v="stream" />
	</node>
	<node lat="62.749275001594604" lon="8.124163887742155" id="-1546">
		<tag k="name" v="Tverrbekkan" />
		<tag k="ssr:stedsnr" v="38507" />
		<tag k="waterway" v="stream" />
	</node>
	<node lat="62.713766669804684" lon="6.894650006135533" id="-1556">
		<tag k="name" v="Tverråna" />
		<tag k="ssr:stedsnr" v="72076" />
		<tag k="waterway" v="stream" />
	</node>
	<node lat="62.56133055905628" lon="8.171230548288529" id="-1561">
		<tag k="name" v="Førneset" />
		<tag k="natural" v="cape" />
		<tag k="ssr:stedsnr" v="72168" />
	</node>
	<node lat="62.66610000359411" lon="7.271219449682769" id="-1566">
		<tag k="name" v="Sollibøvatnet" />
		<tag k="natural" v="water" />
		<tag k="ssr:stedsnr" v="72714" />
	</node>
	<node lat="62.812544441590575" lon="7.480016670150328" id="-1582">
		<tag k="name" v="Kloppavatnet" />
		<tag k="natural" v="water" />
		<tag k="ssr:stedsnr" v="73730" />
		<tag k="water" v="lake" />
	</node>
	<node lat="62.79090555431097" lon="7.43548610527038" id="-1585">
		<tag k="name" v="Mjelveelva" />
		<tag k="ssr:stedsnr" v="73768" />
		<tag k="waterway" v="stream" />
	</node>
	<node lat="62.69916944473139" lon="6.750391657443392" id="-1592">
		<tag k="name" v="Løkane" />
		<tag k="ssr:stedsnr" v="81239" />
		<tag k="waterway" v="stream" />
	</node>
	<node lat="62.66392777449503" lon="6.599602768358071" id="-1598">
		<tag k="name" v="Ådalselva" />
		<tag k="ssr:stedsnr" v="91120" />
		<tag k="waterway" v="stream" />
	</node>
	<node lat="62.685400003582814" lon="6.7885166660861795" id="-1603">
		<tag k="name" v="Vikaelva" />
		<tag k="ssr:stedsnr" v="91302" />
		<tag k="waterway" v="stream" />
	</node>
	<node lat="62.72935555487364" lon="7.462952775694063" id="-1627">
		<tag k="name" v="Sandøya" />
		<tag k="place" v="islet" />
		<tag k="ssr:stedsnr" v="95121" />
	</node>
	<node lat="62.75442500432054" lon="7.4453416667046595" id="-1629">
		<tag k="name" v="Bytgrova" />
		<tag k="ssr:stedsnr" v="95125" />
		<tag k="waterway" v="stream" />
	</node>
	<node lat="62.73518333160854" lon="7.08891666884033" id="-1645">
		<tag k="name" v="Mekelva" />
		<tag k="ssr:stedsnr" v="95621" />
		<tag k="waterway" v="river" />
	</node>
	<node lat="62.79243888869626" lon="7.773105546453781" id="-1660">
		<tag k="name" v="Seterløken" />
		<tag k="ssr:stedsnr" v="95778" />
		<tag k="waterway" v="stream" />
	</node>
	<node lat="62.7644861150594" lon="7.5778583338494325" id="-1664">
		<tag k="name" v="Bjerkaligrova" />
		<tag k="ssr:stedsnr" v="95975" />
		<tag k="waterway" v="stream" />
	</node>
	<node lat="62.55940555867798" lon="8.174230551694583" id="-1675">
		<tag k="name" v="Spelen" />
		<tag k="natural" v="cape" />
		<tag k="ssr:stedsnr" v="98125" />
	</node>
	<node lat="62.50788333138674" lon="8.143119443143124" id="-1676">
		<tag k="name" v="Fløtelva" />
		<tag k="ssr:stedsnr" v="98127" />
		<tag k="waterway" v="stream" />
	</node>
	<node lat="62.823436110790816" lon="8.053383343018366" id="-1679">
		<tag k="name" v="Midtvatnet" />
		<tag k="natural" v="water" />
		<tag k="ssr:stedsnr" v="98308" />
		<tag k="water" v="lake" />
	</node>
	<node lat="62.67912500299098" lon="8.1180555537505" id="-1683">
		<tag k="name" v="Husbybekken" />
		<tag k="ssr:stedsnr" v="98460" />
		<tag k="waterway" v="stream" />
	</node>
	<node lat="62.77645555797132" lon="8.136788888539233" id="-1687">
		<tag k="name" v="Råkbekken" />
		<tag k="ssr:stedsnr" v="98369" />
		<tag k="waterway" v="stream" />
	</node>
	<node lat="62.687602774050504" lon="8.103822228559748" id="-1689">
		<tag k="name" v="Svabekken" />
		<tag k="ssr:stedsnr" v="98376" />
		<tag k="waterway" v="stream" />
	</node>
	<node lat="62.804958337455375" lon="7.81027221830675" id="-1701">
		<tag k="name" v="Holman" />
		<tag k="place" v="islet" />
		<tag k="ssr:stedsnr" v="98661" />
	</node>
	<node lat="62.614211112843925" lon="8.145375000342243" id="-1710">
		<tag k="name" v="Inste Rotvika" />
		<tag k="natural" v="bay" />
		<tag k="ssr:stedsnr" v="98874" />
	</node>
	<node lat="62.69525277710179" lon="7.87630277880373" id="-1711">
		<tag k="name" v="Langbekken" />
		<tag k="ssr:stedsnr" v="98878" />
		<tag k="waterway" v="stream" />
	</node>
	<node lat="62.45871944698796" lon="8.239125001919822" id="-1712">
		<tag k="name" v="Lauvsteinneset" />
		<tag k="natural" v="cape" />
		<tag k="ssr:stedsnr" v="98769" />
	</node>
	<node lat="62.47593888476093" lon="8.17205556410714" id="-1713">
		<tag k="name" v="Sandgrovosen" />
		<tag k="natural" v="bay" />
		<tag k="ssr:stedsnr" v="98783" />
	</node>
	<node lat="62.71534444133184" lon="7.847119439765523" id="-1714">
		<tag k="name" v="Elgeneselva" />
		<tag k="ssr:stedsnr" v="98912" />
		<tag k="waterway" v="river" />
	</node>
	<node lat="62.694677777091975" lon="7.961013889400823" id="-1717">
		<tag k="name" v="Vommabekken" />
		<tag k="ssr:stedsnr" v="98969" />
		<tag k="waterway" v="stream" />
	</node>
	<node lat="62.693936112414924" lon="7.8913888920395605" id="-1723">
		<tag k="alt_name" v="Grøvla, fremre" />
		<tag k="name" v="Fremre Grøvla" />
		<tag k="ssr:stedsnr" v="132417" />
		<tag k="waterway" v="stream" />
	</node>
	<node lat="62.779399998898455" lon="7.873324996187011" id="-1732">
		<tag k="name" v="Gammelsetervatnet" />
		<tag k="natural" v="water" />
		<tag k="ssr:stedsnr" v="132606" />
		<tag k="water" v="lake" />
	</node>
	<node lat="62.671847224474206" lon="6.6272833275453245" id="-1750">
		<tag k="name" v="Bløelva" />
		<tag k="ssr:stedsnr" v="133954" />
		<tag k="waterway" v="stream" />
	</node>
	<node lat="62.698152777239784" lon="6.789552769220867" id="-1754">
		<tag k="name" v="Heggdalselva" />
		<tag k="ssr:stedsnr" v="254036" />
		<tag k="waterway" v="stream" />
	</node>
	<node lat="62.46002500372029" lon="8.448561102192176" id="-1767">
		<tag k="name" v="Øvste Lægeret" />
		<tag k="natural" v="cape" />
		<tag k="ssr:stedsnr" v="254148" />
	</node>
	<node lat="62.74067221896297" lon="8.1275750018664" id="-1786">
		<tag k="alt_name" v="Strykelva" />
		<tag k="name" v="Sandvikelva" />
		<tag k="ssr:stedsnr" v="254463" />
		<tag k="waterway" v="stream" />
	</node>
	<node lat="62.77447222107547" lon="7.2237194531117215" id="-1794">
		<tag k="name" v="Bårdsdalsvatnet" />
		<tag k="natural" v="water" />
		<tag k="ssr:stedsnr" v="254729" />
	</node>
	<node lat="62.73160555351602" lon="7.45895554772429" id="-1803">
		<tag k="name" v="Kroken" />
		<tag k="place" v="locality" />
		<tag k="ssr:stedsnr" v="254780" />
	</node>
	<node lat="62.76359166466289" lon="7.313272224889279" id="-1805">
		<tag k="name" v="Elsåselva" />
		<tag k="ssr:stedsnr" v="254760" />
		<tag k="waterway" v="stream" />
	</node>
	<node lat="62.80612777743414" lon="7.491252779518813" id="-1818">
		<tag k="name" v="Gujordselva" />
		<tag k="ssr:stedsnr" v="255735" />
		<tag k="waterway" v="stream" />
	</node>
	<node lat="62.79808611330912" lon="7.599816672915784" id="-1823">
		<tag k="name" v="Røsbergelva" />
		<tag k="ssr:stedsnr" v="255794" />
		<tag k="waterway" v="stream" />
	</node>
	<node lat="62.80445278182013" lon="7.617363889278669" id="-1824">
		<tag k="name" v="Stokkevatnet" />
		<tag k="natural" v="water" />
		<tag k="ssr:stedsnr" v="255796" />
	</node>
	<node lat="62.809149997236986" lon="7.798605551564429" id="-1839">
		<tag k="name" v="Aspelundøyan" />
		<tag k="natural" v="bay" />
		<tag k="ssr:stedsnr" v="156163" />
	</node>
	<node lat="62.74839166835534" lon="7.009455556830641" id="-1855">
		<tag k="name" v="Gausetelva" />
		<tag k="ssr:stedsnr" v="156481" />
		<tag k="waterway" v="stream" />
	</node>
	<node lat="62.77721111338251" lon="7.314411120511189" id="-1860">
		<tag k="name" v="Tjønnseterløken" />
		<tag k="ssr:stedsnr" v="156904" />
		<tag k="waterway" v="stream" />
	</node>
	<node lat="62.73875278197134" lon="7.481747230839562" id="-1865">
		<tag k="name" v="Djuphølen" />
		<tag k="place" v="locality" />
		<tag k="ssr:stedsnr" v="156810" />
	</node>
	<node lat="62.736797221768114" lon="7.496433324956656" id="-1868">
		<tag k="name" v="Tverrelvkroken" />
		<tag k="natural" v="water" />
		<tag k="ssr:stedsnr" v="156858" />
		<tag k="water" v="lake" />
	</node>
	<node lat="62.48214722349362" lon="8.178358336276165" id="-1873">
		<tag k="name" v="Tyvika" />
		<tag k="natural" v="bay" />
		<tag k="ssr:stedsnr" v="158157" />
	</node>
	<node lat="62.80714166820321" lon="7.963533324396168" id="-1890">
		<tag k="name" v="Jevikneset" />
		<tag k="natural" v="cape" />
		<tag k="ssr:stedsnr" v="159515" />
	</node>
	<node lat="62.80736111446542" lon="7.825905562650866" id="-1895">
		<tag k="name" v="Liabukta" />
		<tag k="natural" v="bay" />
		<tag k="ssr:stedsnr" v="159704" />
	</node>
	<node lat="62.79949166796746" lon="7.809827784452381" id="-1897">
		<tag k="name" v="Holbukta" />
		<tag k="natural" v="bay" />
		<tag k="ssr:stedsnr" v="159708" />
	</node>
	<node lat="62.545947224687644" lon="8.294283325284702" id="-1914">
		<tag k="name" v="Glupelva" />
		<tag k="ssr:stedsnr" v="263712" />
		<tag k="waterway" v="river" />
	</node>
	<node lat="62.808399999230325" lon="7.487469439891079" id="-1935">
		<tag k="name" v="Kloppavassteppinga" />
		<tag k="ssr:stedsnr" v="217106" />
		<tag k="waterway" v="dam" />
	</node>
	<node lat="62.74955833593396" lon="7.21031111366087" id="-1954">
		<tag k="name" v="Tøndergårdbekken" />
		<tag k="ssr:stedsnr" v="217679" />
		<tag k="waterway" v="stream" />
	</node>
	<node lat="62.77618611022541" lon="7.214983327627055" id="-1955">
		<tag k="name" v="Gangskargrova" />
		<tag k="ssr:stedsnr" v="217687" />
		<tag k="waterway" v="stream" />
	</node>
	<node lat="62.75588333089016" lon="7.158369444103084" id="-1958">
		<tag k="name" v="Botnabekken" />
		<tag k="ssr:stedsnr" v="217696" />
		<tag k="waterway" v="stream" />
	</node>
	<node lat="62.701336108703096" lon="7.439630550283457" id="-1961">
		<tag k="name" v="Steinsåelva" />
		<tag k="ssr:stedsnr" v="217830" />
		<tag k="waterway" v="stream" />
	</node>
	<node lat="62.47812778129751" lon="8.12275556374274" id="-1965">
		<tag k="name" v="Inste Mardøla" />
		<tag k="ssr:stedsnr" v="218088" />
		<tag k="waterway" v="river" />
	</node>
	<node lat="62.4290416672249" lon="8.303347214673245" id="-1973">
		<tag k="name" v="Meløya" />
		<tag k="place" v="islet" />
		<tag k="ssr:stedsnr" v="219077" />
	</node>
	<node lat="62.783391664490516" lon="7.86576666715974" id="-1979">
		<tag k="name" v="Svarttjønna" />
		<tag k="natural" v="water" />
		<tag k="ssr:stedsnr" v="219639" />
	</node>
	<node lat="62.69030555334146" lon="7.814544437913066" id="-1987">
		<tag k="name" v="Skjenstøvatna" />
		<tag k="natural" v="water" />
		<tag k="ssr:stedsnr" v="219888" />
	</node>
	<node lat="62.79283888947569" lon="8.1643527798745" id="-1994">
		<tag k="name" v="Fonnabekken" />
		<tag k="ssr:stedsnr" v="220406" />
		<tag k="waterway" v="stream" />
	</node>
	<node lat="62.692513889178315" lon="7.952886103873153" id="-2011">
		<tag k="name" v="Seterbekken" />
		<tag k="ssr:stedsnr" v="220974" />
		<tag k="waterway" v="stream" />
	</node>
	<node lat="62.707694445819506" lon="6.763019442966376" id="-2039">
		<tag k="name" v="Grøvlelva" />
		<tag k="ssr:stedsnr" v="455685" />
		<tag k="waterway" v="river" />
	</node>
	<node lat="62.73912222330212" lon="6.881686104236622" id="-2041">
		<tag k="name" v="Beinsetelva" />
		<tag k="ssr:stedsnr" v="455729" />
		<tag k="waterway" v="river" />
	</node>
	<node lat="62.52633055921975" lon="8.06609999285916" id="-2044">
		<tag k="alt_name" v="Haudukvatnet, indre;Mardalsvatnet, øvre" />
		<tag k="fixme" v="multiple name tags, choose one and add the other to alt_name" />
		<tag k="name" v="Indre Haudukvatnet;Øvre Mardalsvatnet" />
		<tag k="natural" v="water" />
		<tag k="ssr:stedsnr" v="254116" />
		<tag k="water" v="lake" />
	</node>
	<node lat="62.53473888984508" lon="8.21750555206892" id="-2045">
		<tag k="name" v="Fagerbottvatnet" />
		<tag k="natural" v="water" />
		<tag k="ssr:stedsnr" v="254124" />
	</node>
	<node lat="62.53243333510055" lon="8.131205564171319" id="-2046">
		<tag k="name" v="Rangåna" />
		<tag k="ssr:stedsnr" v="254128" />
		<tag k="waterway" v="stream" />
	</node>
	<node lat="62.61699444554807" lon="8.14317499414373" id="-2052">
		<tag k="name" v="Reitneset" />
		<tag k="natural" v="cape" />
		<tag k="ssr:stedsnr" v="254304" />
	</node>
	<node lat="62.383080557111434" lon="8.683591663736781" id="-2054">
		<tag k="name" v="Skjellbreia" />
		<tag k="ssr:stedsnr" v="254333" />
		<tag k="waterway" v="river" />
	</node>
	<node lat="62.78039444403888" lon="7.968999993127508" id="-2055">
		<tag k="name" v="Duggå" />
		<tag k="ssr:stedsnr" v="254569" />
		<tag k="waterway" v="stream" />
	</node>
	<node lat="62.75925833001071" lon="7.204244445135889" id="-2077">
		<tag k="name" v="Øverlandsvatnet" />
		<tag k="natural" v="water" />
		<tag k="ssr:stedsnr" v="255904" />
	</node>
	<node lat="62.765358334565036" lon="7.665563888268519" id="-2086">
		<tag k="name" v="Bordalselva" />
		<tag k="ssr:stedsnr" v="263837" />
		<tag k="waterway" v="river" />
	</node>
	<node lat="62.76464166949466" lon="7.3203583418538205" id="-2097">
		<tag k="name" v="Hundehaugløken" />
		<tag k="ssr:stedsnr" v="459088" />
		<tag k="waterway" v="stream" />
	</node>
	<node lat="62.79379722509116" lon="7.724786113636195" id="-2106">
		<tag k="name" v="Oselva" />
		<tag k="ssr:stedsnr" v="459132" />
		<tag k="waterway" v="river" />
	</node>
	<node lat="62.734747218358855" lon="7.458908337898707" id="-2107">
		<tag k="name" v="Evja" />
		<tag k="natural" v="water" />
		<tag k="ssr:stedsnr" v="459144" />
		<tag k="water" v="lake" />
	</node>
	<node lat="62.830913888715585" lon="7.508902774448833" id="-2118">
		<tag k="name" v="Lunddalselva" />
		<tag k="ssr:stedsnr" v="459201" />
		<tag k="waterway" v="river" />
	</node>
	<node lat="62.774927775634715" lon="7.2973777857915065" id="-2123">
		<tag k="name" v="Kordalselva" />
		<tag k="ssr:stedsnr" v="459226" />
		<tag k="waterway" v="river" />
	</node>
	<node lat="62.70077778090064" lon="6.7677000018975235" id="-2131">
		<tag k="name" v="Holslielva" />
		<tag k="ssr:stedsnr" v="273724" />
		<tag k="waterway" v="stream" />
	</node>
	<node lat="62.807536111842836" lon="7.534755547856226" id="-2134">
		<tag k="name" v="Kamgrova" />
		<tag k="ssr:stedsnr" v="459326" />
		<tag k="waterway" v="stream" />
	</node>
	<node lat="62.770880553643536" lon="7.208069440164902" id="-2139">
		<tag k="name" v="Grastjønna" />
		<tag k="natural" v="water" />
		<tag k="ssr:stedsnr" v="459691" />
	</node>
	<node lat="62.74364722375576" lon="7.1357805643303225" id="-2145">
		<tag k="name" v="Bjørsetelva" />
		<tag k="ssr:stedsnr" v="459700" />
		<tag k="waterway" v="stream" />
	</node>
	<node lat="62.75405833313077" lon="7.5442527712693455" id="-2146">
		<tag k="name" v="Tollåsfossen" />
		<tag k="natural" v="waterfall" />
		<tag k="ssr:stedsnr" v="459759" />
	</node>
	<node lat="62.69957221893481" lon="7.413130548123583" id="-2151">
		<tag k="name" v="Strandagrova" />
		<tag k="ssr:stedsnr" v="459890" />
		<tag k="waterway" v="stream" />
	</node>
	<node lat="62.79917777818208" lon="7.644336102467186" id="-2159">
		<tag k="name" v="Grovanelva" />
		<tag k="ssr:stedsnr" v="277018" />
		<tag k="waterway" v="stream" />
	</node>
	<node lat="62.819980553021765" lon="7.6579555592052" id="-2161">
		<tag k="name" v="Litle Kleivevatnet" />
		<tag k="natural" v="water" />
		<tag k="ssr:stedsnr" v="277021" />
		<tag k="water" v="lake" />
	</node>
	<node lat="62.773177780651594" lon="7.774886107720836" id="-2183">
		<tag k="name" v="Skarbekken" />
		<tag k="ssr:stedsnr" v="277805" />
		<tag k="waterway" v="stream" />
	</node>
	<node lat="62.7971944408792" lon="7.763977779363599" id="-2184">
		<tag k="name" v="Vasshaugbukta" />
		<tag k="natural" v="bay" />
		<tag k="ssr:stedsnr" v="277812" />
	</node>
	<node lat="62.74875277701997" lon="7.480813883003319" id="-2185">
		<tag k="name" v="Djupgrova" />
		<tag k="ssr:stedsnr" v="277818" />
		<tag k="waterway" v="stream" />
	</node>
	<node lat="62.643686111734596" lon="7.3002694447990315" id="-2197">
		<tag k="name" v="Storholmen" />
		<tag k="place" v="islet" />
		<tag k="ssr:stedsnr" v="277919" />
	</node>
	<node lat="62.76226110991063" lon="7.5912638816325675" id="-2200">
		<tag k="name" v="Livgjordtjørna" />
		<tag k="natural" v="water" />
		<tag k="ssr:stedsnr" v="277976" />
	</node>
	<node lat="62.7707833374372" lon="7.689191671721752" id="-2203">
		<tag k="name" v="Vadbekkløken" />
		<tag k="ssr:stedsnr" v="459933" />
		<tag k="waterway" v="stream" />
	</node>
	<node lat="62.769449996370554" lon="8.223516669177421" id="-2212">
		<tag k="name" v="Høgfallet" />
		<tag k="ssr:stedsnr" v="280317" />
		<tag k="waterway" v="rapids" />
	</node>
	<node lat="62.81445555547444" lon="8.01584166626815" id="-2217">
		<tag k="name" v="Fiskarneset" />
		<tag k="natural" v="cape" />
		<tag k="ssr:stedsnr" v="280289" />
	</node>
	<node lat="62.73304999913412" lon="8.10993055571674" id="-2224">
		<tag k="name" v="Sandvikgrova" />
		<tag k="ssr:stedsnr" v="280508" />
		<tag k="waterway" v="stream" />
	</node>
	<node lat="62.603519440450114" lon="8.17314443746731" id="-2233">
		<tag k="name" v="Ytste Fløtaelva" />
		<tag k="ssr:stedsnr" v="280877" />
		<tag k="waterway" v="stream" />
	</node>
	<node lat="62.67478055342727" lon="7.905599991349196" id="-2241">
		<tag k="name" v="Ljøsåbekken" />
		<tag k="ssr:stedsnr" v="280972" />
		<tag k="waterway" v="stream" />
	</node>
	<node lat="62.78738055778046" lon="8.193127782799177" id="-2244">
		<tag k="name" v="Bjerkholelva" />
		<tag k="ssr:stedsnr" v="462204" />
		<tag k="waterway" v="stream" />
	</node>
	<node lat="62.67409722130668" lon="8.16836944491396" id="-2254">
		<tag k="name" v="Djupdalsbekken" />
		<tag k="ssr:stedsnr" v="462833" />
		<tag k="waterway" v="stream" />
	</node>
	<node lat="62.66819444883446" lon="8.121552777118149" id="-2267">
		<tag k="name" v="Siraøyna" />
		<tag k="natural" v="cape" />
		<tag k="ssr:stedsnr" v="462383" />
	</node>
	<node lat="62.80374444067418" lon="7.8794722309064475" id="-2273">
		<tag k="name" v="Lomtjønna" />
		<tag k="natural" v="water" />
		<tag k="ssr:stedsnr" v="462517" />
	</node>
	<node lat="62.80689166636631" lon="7.828075001106619" id="-2279">
		<tag k="name" v="Naustneset" />
		<tag k="natural" v="cape" />
		<tag k="ssr:stedsnr" v="462524" />
	</node>
	<node lat="62.493480553562236" lon="8.16947499063479" id="-2294">
		<tag k="name" v="Ljåstranda" />
		<tag k="natural" v="beach" />
		<tag k="ssr:stedsnr" v="462773" />
	</node>
	<node lat="62.73438333084067" lon="7.9614333292040556" id="-2301">
		<tag k="name" v="Fremstebekken" />
		<tag k="ssr:stedsnr" v="462938" />
		<tag k="waterway" v="stream" />
	</node>
	<node lat="62.39809166337761" lon="8.455986115313278" id="-2313">
		<tag k="name" v="Tverrberghølen" />
		<tag k="place" v="locality" />
		<tag k="ssr:stedsnr" v="314357" />
	</node>
	<node lat="62.7769916660254" lon="7.831130560830809" id="-2321">
		<tag k="name" v="Barsteintjørna" />
		<tag k="natural" v="water" />
		<tag k="ssr:stedsnr" v="315573" />
	</node>
	<node lat="62.75609166529099" lon="8.188738886625213" id="-2327">
		<tag k="name" v="Kvennsetvatnet" />
		<tag k="natural" v="water" />
		<tag k="ssr:stedsnr" v="315610" />
	</node>
	<node lat="62.79560000363509" lon="7.469927771222228" id="-2333">
		<tag k="name" v="Hagaelva" />
		<tag k="ssr:stedsnr" v="316819" />
		<tag k="waterway" v="stream" />
	</node>
	<node lat="62.673638891604696" lon="6.607899992863019" id="-2342">
		<tag k="name" v="Stordalselva" />
		<tag k="ssr:stedsnr" v="333124" />
		<tag k="waterway" v="stream" />
	</node>
	<node lat="62.713247220418886" lon="6.861244435178344" id="-2359">
		<tag k="name" v="Vatneneset" />
		<tag k="natural" v="cape" />
		<tag k="ssr:stedsnr" v="334502" />
	</node>
	<node lat="62.831400000573616" lon="7.76255277097646" id="-2373">
		<tag k="name" v="Steinløystjørna" />
		<tag k="natural" v="water" />
		<tag k="ssr:stedsnr" v="338142" />
	</node>
	<node lat="62.819133333677314" lon="7.777474998128755" id="-2374">
		<tag k="name" v="Rundsteinbekken" />
		<tag k="ssr:stedsnr" v="338146" />
		<tag k="waterway" v="stream" />
	</node>
	<node lat="62.7565722242399" lon="7.5580666685900795" id="-2381">
		<tag k="name" v="Oksegrova" />
		<tag k="ssr:stedsnr" v="338757" />
		<tag k="waterway" v="stream" />
	</node>
	<node lat="62.79441388536891" lon="7.765072215159048" id="-2385">
		<tag k="name" v="Vasshaugløken" />
		<tag k="ssr:stedsnr" v="338794" />
		<tag k="waterway" v="stream" />
	</node>
	<node lat="62.79654444264726" lon="7.769055550139876" id="-2386">
		<tag k="name" v="Fjøsneset" />
		<tag k="natural" v="cape" />
		<tag k="ssr:stedsnr" v="338798" />
	</node>
	<node lat="62.45698611380864" lon="8.250166660688754" id="-2392">
		<tag k="name" v="Flua" />
		<tag k="place" v="locality" />
		<tag k="seamark:type" v="rock" />
		<tag k="ssr:stedsnr" v="340095" />
	</node>
	<node lat="62.45860833264205" lon="8.226994451592855" id="-2393">
		<tag k="name" v="Osen" />
		<tag k="natural" v="bay" />
		<tag k="ssr:stedsnr" v="340100" />
	</node>
	<node lat="62.71744443999346" lon="7.93235277666857" id="-2395">
		<tag k="name" v="Myklå" />
		<tag k="ssr:stedsnr" v="340103" />
		<tag k="waterway" v="river" />
	</node>
	<node lat="62.58124166442261" lon="8.14942222195018" id="-2396">
		<tag k="name" v="Uraneset" />
		<tag k="natural" v="cape" />
		<tag k="ssr:stedsnr" v="340117" />
	</node>
	<node lat="62.69975555425022" lon="7.7985749956021895" id="-2397">
		<tag k="name" v="Langrusttunga" />
		<tag k="natural" v="cape" />
		<tag k="ssr:stedsnr" v="340921" />
	</node>
	<node lat="62.80993333656687" lon="8.007052776480258" id="-2413">
		<tag k="name" v="Stenhjemsvoran" />
		<tag k="natural" v="beach" />
		<tag k="ssr:stedsnr" v="341512" />
	</node>
	<node lat="62.82948611274444" lon="7.832344441601327" id="-2415">
		<tag k="name" v="Fagerløkhølen" />
		<tag k="place" v="locality" />
		<tag k="ssr:stedsnr" v="341593" />
	</node>
	<node lat="62.829322220242815" lon="7.840819445774155" id="-2416">
		<tag k="name" v="Litlenghølen" />
		<tag k="place" v="locality" />
		<tag k="ssr:stedsnr" v="341594" />
	</node>
	<node lat="62.78728055651232" lon="7.881386106076851" id="-2420">
		<tag k="name" v="Sandbekken" />
		<tag k="ssr:stedsnr" v="341693" />
		<tag k="waterway" v="stream" />
	</node>
	<node lat="62.78828611451292" lon="7.8280611126550665" id="-2421">
		<tag k="name" v="Svarttjønna" />
		<tag k="natural" v="water" />
		<tag k="ssr:stedsnr" v="341694" />
	</node>
	<node lat="62.68477222663323" lon="8.03315555292603" id="-2424">
		<tag k="name" v="Breiskarelva" />
		<tag k="ssr:stedsnr" v="341846" />
		<tag k="waterway" v="river" />
	</node>
	<node lat="62.684286108959625" lon="8.229524996494364" id="-2426">
		<tag k="name" v="Fremste Tverrelva" />
		<tag k="ssr:stedsnr" v="341856" />
		<tag k="waterway" v="river" />
	</node>
	<node lat="62.589833329542834" lon="8.141850009720336" id="-2429">
		<tag k="name" v="Bytebekken" />
		<tag k="ssr:stedsnr" v="341896" />
		<tag k="waterway" v="stream" />
	</node>
	<node lat="62.660108337585754" lon="7.979594446408793" id="-2431">
		<tag k="name" v="Seterbekken" />
		<tag k="ssr:stedsnr" v="341915" />
		<tag k="waterway" v="stream" />
	</node>
	<node lat="62.73197222310762" lon="7.851341674879443" id="-2432">
		<tag k="name" v="Myrbekken" />
		<tag k="ssr:stedsnr" v="341942" />
		<tag k="waterway" v="stream" />
	</node>
	<node lat="62.70144166805043" lon="7.908491674293496" id="-2433">
		<tag k="name" v="Røysgrøvla" />
		<tag k="ssr:stedsnr" v="341956" />
		<tag k="waterway" v="stream" />
	</node>
	<node lat="62.71405833472152" lon="7.913580551175312" id="-2434">
		<tag k="name" v="Korsbekken" />
		<tag k="ssr:stedsnr" v="341958" />
		<tag k="waterway" v="stream" />
	</node>
	<node lat="62.68895277723549" lon="7.895408324641875" id="-2435">
		<tag k="name" v="Såtmyrbekken" />
		<tag k="ssr:stedsnr" v="341994" />
		<tag k="waterway" v="stream" />
	</node>
	<node lat="62.66128055227395" lon="8.259177773486662" id="-2454">
		<tag k="name" v="Frusalvatnet" />
		<tag k="natural" v="water" />
		<tag k="ssr:stedsnr" v="375005" />
		<tag k="water" v="lake" />
	</node>
	<node lat="62.69415555214863" lon="7.909413894714605" id="-2457">
		<tag k="name" v="Tverrelva" />
		<tag k="ssr:stedsnr" v="375214" />
		<tag k="waterway" v="river" />
	</node>
	<node lat="62.63112222628918" lon="8.177608330465036" id="-2464">
		<tag k="name" v="Ljøsåna" />
		<tag k="ssr:stedsnr" v="375310" />
		<tag k="waterway" v="stream" />
	</node>
	<node lat="62.75039444826317" lon="7.672599992954856" id="-2482">
		<tag k="name" v="Bordalsvatnet" />
		<tag k="natural" v="water" />
		<tag k="ssr:stedsnr" v="375793" />
	</node>
	<node lat="62.6932916697498" lon="6.694008328682394" id="-2499">
		<tag k="name" v="Sivertdammen" />
		<tag k="natural" v="water" />
		<tag k="ssr:stedsnr" v="384067" />
	</node>
	<node lat="62.79119722595061" lon="7.719227775480444" id="-2500">
		<tag k="name" v="Osen" />
		<tag k="natural" v="water" />
		<tag k="ssr:stedsnr" v="384150" />
		<tag k="water" v="lake" />
	</node>
	<node lat="62.76334166824119" lon="7.220655559749383" id="-2525">
		<tag k="name" v="Bergstjønna" />
		<tag k="natural" v="water" />
		<tag k="ssr:stedsnr" v="398228" />
	</node>
	<node lat="62.68615555466051" lon="7.991774996536708" id="-2550">
		<tag k="name" v="Grova" />
		<tag k="ssr:stedsnr" v="401031" />
		<tag k="waterway" v="stream" />
	</node>
	<node lat="62.68072222513968" lon="8.132174991862842" id="-2555">
		<tag k="name" v="Dokkelva" />
		<tag k="ssr:stedsnr" v="401502" />
		<tag k="waterway" v="river" />
	</node>
	<node lat="62.80734722231458" lon="7.824122214168846" id="-2557">
		<tag k="name" v="Fiskarneset" />
		<tag k="natural" v="cape" />
		<tag k="ssr:stedsnr" v="401509" />
	</node>
	<node lat="62.75341388993934" lon="7.731216669637691" id="-2570">
		<tag k="name" v="Litlevatnet" />
		<tag k="natural" v="water" />
		<tag k="ssr:stedsnr" v="401696" />
		<tag k="water" v="lake" />
	</node>
	<node lat="62.68665833738688" lon="7.963216674656924" id="-2578">
		<tag k="name" v="Gammelfonnbekken" />
		<tag k="ssr:stedsnr" v="401980" />
		<tag k="waterway" v="stream" />
	</node>
	<node lat="62.684886114321124" lon="7.99288333331457" id="-2579">
		<tag k="name" v="Drivandfossen" />
		<tag k="ssr:stedsnr" v="401987" />
		<tag k="waterway" v="rapids" />
	</node>
	<node lat="62.701066666897965" lon="7.774986108571254" id="-2584">
		<tag k="name" v="Seterbekken" />
		<tag k="ssr:stedsnr" v="401891" />
		<tag k="waterway" v="stream" />
	</node>
	<node lat="62.71449721952862" lon="7.7456388911082" id="-2585">
		<tag k="name" v="Klungerbekken" />
		<tag k="ssr:stedsnr" v="401894" />
		<tag k="waterway" v="stream" />
	</node>
	<node lat="62.71387499631158" lon="7.742913887759621" id="-2586">
		<tag k="name" v="Sommarfjøsbekken" />
		<tag k="ssr:stedsnr" v="401895" />
		<tag k="waterway" v="stream" />
	</node>
	<node lat="62.787275004269155" lon="8.228913889315818" id="-2587">
		<tag k="name" v="Storbekken" />
		<tag k="ssr:stedsnr" v="402393" />
		<tag k="waterway" v="stream" />
	</node>
	<node lat="62.79555833222005" lon="8.171044439778372" id="-2590">
		<tag k="name" v="Sjøåkerbekken" />
		<tag k="ssr:stedsnr" v="402278" />
		<tag k="waterway" v="stream" />
	</node>
	<node lat="62.72273333511041" lon="6.705019447620599" id="-2594">
		<tag k="name" v="Osen" />
		<tag k="natural" v="bay" />
		<tag k="ssr:stedsnr" v="272100" />
	</node>
	<node lat="62.462469444506105" lon="8.27635555825233" id="-2603">
		<tag k="alt_name" v="Kjøtåna" />
		<tag k="name" v="Kjøtåa" />
		<tag k="ssr:stedsnr" v="436166" />
		<tag k="waterway" v="stream" />
	</node>
	<node lat="62.56913333547143" lon="8.202963879790735" id="-2604">
		<tag k="name" v="Vikeelva" />
		<tag k="ssr:stedsnr" v="436173" />
		<tag k="waterway" v="stream" />
	</node>
	<node lat="62.51032777589504" lon="8.17152222779902" id="-2605">
		<tag k="alt_name" v="Bjørk, øvre" />
		<tag k="name" v="Inste Bjørk" />
		<tag k="natural" v="cape" />
		<tag k="ssr:stedsnr" v="436210" />
	</node>
	<node lat="62.710738891389376" lon="7.903819454026539" id="-2612">
		<tag k="alt_name" v="Andersskarsvatnet" />
		<tag k="name" v="Anderskardvatnet" />
		<tag k="natural" v="water" />
		<tag k="ssr:stedsnr" v="436422" />
	</node>
	<node lat="62.36520277995109" lon="8.321000007848108" id="-2614">
		<tag k="name" v="Nørdre Løypåa" />
		<tag k="ssr:stedsnr" v="436355" />
		<tag k="waterway" v="stream" />
	</node>
	<node lat="62.36488610810446" lon="8.338502773810816" id="-2623">
		<tag k="name" v="Sølvgruvetjønna" />
		<tag k="natural" v="water" />
		<tag k="ssr:stedsnr" v="436756" />
	</node>
	<node lat="62.69914167091476" lon="6.708519451643695" id="-2626">
		<tag k="name" v="Kyrkjeelva" />
		<tag k="ssr:stedsnr" v="436902" />
		<tag k="waterway" v="stream" />
	</node>
	<node lat="62.82410555400307" lon="7.952672220515312" id="-2632">
		<tag k="name" v="Fagervatnet" />
		<tag k="natural" v="water" />
		<tag k="ssr:stedsnr" v="437556" />
	</node>
	<node lat="62.81472499943453" lon="7.784955554834767" id="-2634">
		<tag k="name" v="Nilsbekken" />
		<tag k="ssr:stedsnr" v="437562" />
		<tag k="waterway" v="stream" />
	</node>
	<node lat="62.758138893217556" lon="7.119250004631405" id="-2635">
		<tag k="name" v="Arsdalselva" />
		<tag k="ssr:stedsnr" v="437850" />
		<tag k="waterway" v="stream" />
	</node>
	<node lat="62.75371944374981" lon="7.023647214132924" id="-2636">
		<tag k="name" v="Lomtjørna" />
		<tag k="natural" v="water" />
		<tag k="ssr:stedsnr" v="437862" />
	</node>
	<node lat="62.83901110805256" lon="7.717691669551683" id="-2668">
		<tag k="name" v="Myrslættløken" />
		<tag k="ssr:stedsnr" v="459206" />
		<tag k="waterway" v="stream" />
	</node>
	<node lat="62.766563891593506" lon="7.519961107798621" id="-2691">
		<tag k="name" v="Sagfossen" />
		<tag k="natural" v="waterfall" />
		<tag k="ssr:stedsnr" v="459980" />
	</node>
	<node lat="62.770786114350884" lon="7.248588894590353" id="-2696">
		<tag k="name" v="Tusselva" />
		<tag k="ssr:stedsnr" v="460319" />
		<tag k="waterway" v="stream" />
	</node>
	<node lat="62.718630556769945" lon="8.049358342536724" id="-2700">
		<tag k="name" v="Rangåa" />
		<tag k="ssr:stedsnr" v="462068" />
		<tag k="waterway" v="stream" />
	</node>
	<node lat="62.748208330409206" lon="8.090497228705408" id="-2706">
		<tag k="name" v="Ytste Langmyrbekken" />
		<tag k="ssr:stedsnr" v="462364" />
		<tag k="waterway" v="stream" />
	</node>
	<node lat="62.801527773833655" lon="7.970713898676035" id="-2709">
		<tag k="name" v="Rembekken" />
		<tag k="ssr:stedsnr" v="462455" />
		<tag k="waterway" v="stream" />
	</node>
	<node lat="62.79135277838393" lon="7.843244452998419" id="-2711">
		<tag k="name" v="Vollabekken" />
		<tag k="ssr:stedsnr" v="462607" />
		<tag k="waterway" v="stream" />
	</node>
	<node lat="62.751452774521965" lon="8.098983332388249" id="-2713">
		<tag k="name" v="Inste Langmyrbekken" />
		<tag k="ssr:stedsnr" v="462503" />
		<tag k="waterway" v="stream" />
	</node>
	<node lat="62.79751944750958" lon="8.066580559819993" id="-2719">
		<tag k="name" v="Holelva" />
		<tag k="ssr:stedsnr" v="462719" />
		<tag k="waterway" v="stream" />
	</node>
	<node lat="62.4195305590508" lon="8.344977775920604" id="-2721">
		<tag k="name" v="Skafallhølbekken" />
		<tag k="ssr:stedsnr" v="462741" />
		<tag k="waterway" v="stream" />
	</node>
	<node lat="62.70931111360314" lon="8.078113879947868" id="-2724">
		<tag k="name" v="Storbekken" />
		<tag k="ssr:stedsnr" v="462808" />
		<tag k="waterway" v="stream" />
	</node>
	<node lat="62.416991663823296" lon="8.339263881250975" id="-2726">
		<tag k="name" v="Gjølbekken" />
		<tag k="ssr:stedsnr" v="462816" />
		<tag k="waterway" v="stream" />
	</node>
	<node lat="62.722338886109085" lon="8.037072226570508" id="-2727">
		<tag k="name" v="Orvikelva" />
		<tag k="ssr:stedsnr" v="462817" />
		<tag k="waterway" v="stream" />
	</node>
	<node lat="62.6549916676354" lon="7.857352768752861" id="-2730">
		<tag k="name" v="Mørkvasselva" />
		<tag k="ssr:stedsnr" v="462906" />
		<tag k="waterway" v="stream" />
	</node>
	<node lat="62.5791333318179" lon="8.128772224336428" id="-2740">
		<tag k="name" v="Blikskåra" />
		<tag k="ssr:stedsnr" v="678173" />
		<tag k="waterway" v="stream" />
	</node>
	<node lat="62.431569446483664" lon="8.2600777841039" id="-2742">
		<tag k="name" v="Tverrgrova" />
		<tag k="ssr:stedsnr" v="678367" />
		<tag k="waterway" v="stream" />
	</node>
	<node lat="62.68013888592159" lon="7.847080563354051" id="-2759">
		<tag k="name" v="Grøvelvatnet" />
		<tag k="natural" v="water" />
		<tag k="ssr:stedsnr" v="679254" />
	</node>
	<node lat="62.4018249970172" lon="8.264524995956112" id="-2762">
		<tag k="name" v="Høvelvatnet" />
		<tag k="natural" v="water" />
		<tag k="ssr:stedsnr" v="679272" />
	</node>
	<node lat="62.40011944350583" lon="8.620630564233897" id="-2764">
		<tag k="name" v="Fattigbekken" />
		<tag k="ssr:stedsnr" v="679276" />
		<tag k="waterway" v="stream" />
	</node>
	<node lat="62.39237777744709" lon="8.291294454072014" id="-2765">
		<tag k="name" v="Breimegå" />
		<tag k="ssr:stedsnr" v="679278" />
		<tag k="waterway" v="river" />
	</node>
	<node lat="62.6140500040828" lon="8.089066669527805" id="-2766">
		<tag k="alt_name" v="Rønndøla" />
		<tag k="name" v="Røndøla" />
		<tag k="ssr:stedsnr" v="679280" />
		<tag k="waterway" v="stream" />
	</node>
	<node lat="62.629605558990896" lon="7.942066673117425" id="-2767">
		<tag k="name" v="Kjøvdalsvatnet" />
		<tag k="natural" v="water" />
		<tag k="ssr:stedsnr" v="679332" />
		<tag k="water" v="lake" />
	</node>
	<node lat="62.63548888708065" lon="8.085619442490492" id="-2768">
		<tag k="fixme" v="multiple name tags, choose one and add the other to alt_name" />
		<tag k="name" v="Sauebekken;Sandlibekken" />
		<tag k="ssr:stedsnr" v="679339" />
		<tag k="waterway" v="stream" />
	</node>
	<node lat="62.41963889173993" lon="8.36981388680298" id="-2769">
		<tag k="alt_name" v="Tjørna" />
		<tag k="name" v="Tjønna" />
		<tag k="natural" v="water" />
		<tag k="ssr:stedsnr" v="679292" />
	</node>
	<node lat="62.77928888556093" lon="7.731544434874954" id="-2776">
		<tag k="name" v="Sotåa" />
		<tag k="ssr:stedsnr" v="679553" />
		<tag k="waterway" v="river" />
	</node>
	<node lat="62.74569444590792" lon="8.207033328917356" id="-2778">
		<tag k="name" v="Fredsviktjørna" />
		<tag k="natural" v="water" />
		<tag k="ssr:stedsnr" v="679445" />
	</node>
	<node lat="62.73010555861102" lon="7.482591662059008" id="-2788">
		<tag k="name" v="Horjagrova" />
		<tag k="ssr:stedsnr" v="679767" />
		<tag k="waterway" v="stream" />
	</node>
	<node lat="62.81552222425122" lon="7.660169445028676" id="-2796">
		<tag k="name" v="Kleivvatnet" />
		<tag k="natural" v="water" />
		<tag k="ssr:stedsnr" v="680791" />
	</node>
	<node lat="62.75152222588975" lon="7.0270055525580055" id="-2800">
		<tag k="name" v="Skartjørna" />
		<tag k="natural" v="water" />
		<tag k="ssr:stedsnr" v="680911" />
	</node>
	<node lat="62.51038889206568" lon="8.076927771120186" id="-2816">
		<tag k="alt_name" v="Mardalsvatnet, midtre" />
		<tag k="fixme" v="multiple name tags, choose one and add the other to alt_name" />
		<tag k="name" v="Urdavatnet;Midtre Mardalsvatnet" />
		<tag k="natural" v="water" />
		<tag k="ssr:stedsnr" v="497203" />
		<tag k="water" v="lake" />
	</node>
	<node lat="62.6562861135186" lon="7.288030552812544" id="-2819">
		<tag k="alt_name" v="Vestavatnet" />
		<tag k="name" v="Vestadvatnet" />
		<tag k="natural" v="water" />
		<tag k="ssr:stedsnr" v="497609" />
	</node>
	<node lat="62.509463887501944" lon="8.234111118611807" id="-2827">
		<tag k="name" v="Langvatnet" />
		<tag k="natural" v="water" />
		<tag k="ssr:stedsnr" v="497909" />
	</node>
	<node lat="62.77706944053403" lon="7.356066670702014" id="-2828">
		<tag k="name" v="Hommelelva" />
		<tag k="ssr:stedsnr" v="497803" />
		<tag k="waterway" v="stream" />
	</node>
	<node lat="62.81808055118617" lon="7.634644443330314" id="-2829">
		<tag k="name" v="Skallelva" />
		<tag k="ssr:stedsnr" v="497844" />
		<tag k="waterway" v="river" />
	</node>
	<node lat="62.77607777965295" lon="7.184113881235659" id="-2830">
		<tag k="name" v="Moldevatnet" />
		<tag k="natural" v="water" />
		<tag k="ssr:stedsnr" v="497849" />
	</node>
	<node lat="62.71015833481999" lon="6.723369453542125" id="-2846">
		<tag k="name" v="Kattaneset" />
		<tag k="natural" v="cape" />
		<tag k="ssr:stedsnr" v="515607" />
	</node>
	<node lat="62.708569448611065" lon="6.728980559235677" id="-2847">
		<tag k="name" v="Innafor straumen" />
		<tag k="natural" v="water" />
		<tag k="ssr:stedsnr" v="515609" />
		<tag k="water" v="lake" />
	</node>
	<node lat="62.80517777439491" lon="7.721972221928955" id="-2862">
		<tag k="name" v="Istadløken" />
		<tag k="ssr:stedsnr" v="520018" />
		<tag k="waterway" v="stream" />
	</node>
	<node lat="62.784536110116186" lon="7.288538896670248" id="-2865">
		<tag k="name" v="Brekkeelva" />
		<tag k="ssr:stedsnr" v="520063" />
		<tag k="waterway" v="stream" />
	</node>
	<node lat="62.72795833666293" lon="7.455588897070907" id="-2869">
		<tag k="name" v="Kroken" />
		<tag k="place" v="locality" />
		<tag k="ssr:stedsnr" v="520125" />
	</node>
	<node lat="62.70704999656989" lon="7.554894445916625" id="-2890">
		<tag k="name" v="Årsetelva" />
		<tag k="ssr:stedsnr" v="520772" />
		<tag k="waterway" v="stream" />
	</node>
	<node lat="62.76493333536189" lon="7.271555556446241" id="-2891">
		<tag k="name" v="Styggedalsgrova" />
		<tag k="ssr:stedsnr" v="520925" />
		<tag k="waterway" v="stream" />
	</node>
	<node lat="62.795838888963196" lon="8.076775007674557" id="-2895">
		<tag k="name" v="Holelva" />
		<tag k="ssr:stedsnr" v="522714" />
		<tag k="waterway" v="stream" />
	</node>
	<node lat="62.82070277643672" lon="8.04630834265416" id="-2909">
		<tag k="name" v="Mørklitjønna" />
		<tag k="natural" v="water" />
		<tag k="ssr:stedsnr" v="523369" />
	</node>
	<node lat="62.77831666433497" lon="7.918824995783731" id="-2912">
		<tag k="name" v="Øyrstingartjønna" />
		<tag k="natural" v="water" />
		<tag k="ssr:stedsnr" v="523524" />
	</node>
	<node lat="62.775674997610004" lon="7.760130562709376" id="-2953">
		<tag k="name" v="Ytste Sotnakkvatnet" />
		<tag k="natural" v="water" />
		<tag k="ssr:stedsnr" v="557562" />
	</node>
	<node lat="62.712569444657035" lon="7.528719447090216" id="-2957">
		<tag k="name" v="Kringla" />
		<tag k="natural" v="water" />
		<tag k="ssr:stedsnr" v="557658" />
	</node>
	<node lat="62.4612833369637" lon="8.240058339709938" id="-2963">
		<tag k="name" v="Lauvsteinneset" />
		<tag k="natural" v="cape" />
		<tag k="ssr:stedsnr" v="688771" />
	</node>
	<node lat="62.79334166828154" lon="7.542827779924506" id="-2968">
		<tag k="name" v="Oppdølselva" />
		<tag k="ssr:stedsnr" v="558811" />
		<tag k="waterway" v="river" />
	</node>
	<node lat="62.809591662238034" lon="7.504455552517511" id="-2969">
		<tag k="name" v="Steinsdalsvatnet" />
		<tag k="natural" v="water" />
		<tag k="ssr:stedsnr" v="558749" />
	</node>
	<node lat="62.8191472195596" lon="7.696427783725596" id="-2970">
		<tag k="name" v="Høljan" />
		<tag k="natural" v="water" />
		<tag k="ssr:stedsnr" v="558755" />
	</node>
	<node lat="62.67941388751513" lon="6.677894441390547" id="-2973">
		<tag k="name" v="Bakkelva" />
		<tag k="ssr:stedsnr" v="566061" />
		<tag k="waterway" v="river" />
	</node>
	<node lat="62.71927499573715" lon="6.7002916665047305" id="-2984">
		<tag k="name" v="Oselva" />
		<tag k="ssr:stedsnr" v="575077" />
		<tag k="waterway" v="river" />
	</node>
	<node lat="62.72025555549447" lon="7.540544452255763" id="-3005">
		<tag k="name" v="Åna" />
		<tag k="ssr:stedsnr" v="580243" />
		<tag k="waterway" v="stream" />
	</node>
	<node lat="62.712994444095706" lon="7.41777499403022" id="-3008">
		<tag k="name" v="Isdammen" />
		<tag k="ssr:stedsnr" v="580195" />
		<tag k="waterway" v="dam" />
	</node>
	<node lat="62.7610916663311" lon="7.20414444624209" id="-3018">
		<tag k="name" v="Bergsvasselva" />
		<tag k="ssr:stedsnr" v="580689" />
		<tag k="waterway" v="river" />
	</node>
	<node lat="62.67318055311577" lon="7.298049992914424" id="-3024">
		<tag k="name" v="Sollibøelva" />
		<tag k="ssr:stedsnr" v="580948" />
		<tag k="waterway" v="stream" />
	</node>
	<node lat="62.40093610811789" lon="8.433125003526163" id="-3035">
		<tag k="name" v="Svarthølen" />
		<tag k="place" v="locality" />
		<tag k="ssr:stedsnr" v="695476" />
	</node>
	<node lat="62.41225833057718" lon="8.358222222819311" id="-3037">
		<tag k="name" v="Nilsspranget" />
		<tag k="ssr:stedsnr" v="583108" />
		<tag k="waterway" v="rapids" />
	</node>
	<node lat="62.75900000015862" lon="8.177855559862925" id="-3053">
		<tag k="name" v="Kvennsetbekken" />
		<tag k="ssr:stedsnr" v="583344" />
		<tag k="waterway" v="stream" />
	</node>
	<node lat="62.785541665785324" lon="7.989930563337373" id="-3060">
		<tag k="name" v="Pyntå" />
		<tag k="natural" v="water" />
		<tag k="ssr:stedsnr" v="583616" />
	</node>
	<node lat="62.42304722462815" lon="8.333097227797593" id="-3072">
		<tag k="name" v="Skarbekken" />
		<tag k="ssr:stedsnr" v="583750" />
		<tag k="waterway" v="stream" />
	</node>
	<node lat="62.67793055262807" lon="8.246024994736091" id="-3079">
		<tag k="name" v="Salbotnelva" />
		<tag k="ssr:stedsnr" v="583839" />
		<tag k="waterway" v="stream" />
	</node>
	<node lat="62.70719722218419" lon="6.747297217934349" id="-3100">
		<tag k="name" v="Holselva" />
		<tag k="ssr:stedsnr" v="697525" />
		<tag k="waterway" v="river" />
	</node>
	<node lat="62.71989166799782" lon="6.835700001920007" id="-3132">
		<tag k="name" v="Ræstadvatnet" />
		<tag k="natural" v="water" />
		<tag k="ssr:stedsnr" v="618081" />
	</node>
	<node lat="62.466413888006564" lon="8.117705552940492" id="-3135">
		<tag k="name" v="Mardalstjønna" />
		<tag k="natural" v="water" />
		<tag k="ssr:stedsnr" v="618090" />
	</node>
	<node lat="62.64923332910977" lon="8.073433326125203" id="-3139">
		<tag k="name" v="Slenesbekken" />
		<tag k="ssr:stedsnr" v="618228" />
		<tag k="waterway" v="stream" />
	</node>
	<node lat="62.70684721985908" lon="7.906836105510533" id="-3144">
		<tag k="alt_name" v="Grøvla, heimre" />
		<tag k="name" v="Heimre Grøvla" />
		<tag k="ssr:stedsnr" v="618427" />
		<tag k="waterway" v="stream" />
	</node>
	<node lat="62.82263055370979" lon="7.60535276834055" id="-3150">
		<tag k="name" v="Stangarelva" />
		<tag k="ssr:stedsnr" v="702045" />
		<tag k="waterway" v="river" />
	</node>
	<node lat="62.78151666748037" lon="7.993516674004888" id="-3152">
		<tag k="name" v="Høvikelva" />
		<tag k="ssr:stedsnr" v="618579" />
		<tag k="waterway" v="stream" />
	</node>
	<node lat="62.77314722310556" lon="7.338830552367427" id="-3173">
		<tag k="name" v="Tverrelva" />
		<tag k="ssr:stedsnr" v="702094" />
		<tag k="waterway" v="stream" />
	</node>
	<node lat="62.78672500022772" lon="7.312216665285733" id="-3177">
		<tag k="name" v="Løkelva" />
		<tag k="ssr:stedsnr" v="702129" />
		<tag k="waterway" v="stream" />
	</node>
	<node lat="62.656433337635995" lon="7.277822227099721" id="-3222">
		<tag k="name" v="Lomtjørna" />
		<tag k="natural" v="water" />
		<tag k="ssr:stedsnr" v="702970" />
	</node>
	<node lat="62.75316667097959" lon="7.446786110519501" id="-3223">
		<tag k="name" v="Plassagrova" />
		<tag k="ssr:stedsnr" v="702799" />
		<tag k="waterway" v="stream" />
	</node>
	<node lat="62.73720555142786" lon="7.459730551967791" id="-3224">
		<tag k="name" v="Svartløken" />
		<tag k="ssr:stedsnr" v="702801" />
		<tag k="waterway" v="stream" />
	</node>
	<node lat="62.768336114631694" lon="7.547880549727263" id="-3229">
		<tag k="name" v="Sjurs-Ingeborgtjørna" />
		<tag k="natural" v="water" />
		<tag k="ssr:stedsnr" v="702884" />
	</node>
	<node lat="62.76370833452093" lon="7.636661116074687" id="-3233">
		<tag k="name" v="Skjenvassløken" />
		<tag k="ssr:stedsnr" v="702937" />
		<tag k="waterway" v="stream" />
	</node>
	<node lat="62.66557777911739" lon="7.240533338934141" id="-3234">
		<tag k="name" v="Melvikbekken" />
		<tag k="ssr:stedsnr" v="702948" />
		<tag k="waterway" v="stream" />
	</node>
	<node lat="62.660022221359995" lon="8.085847224962231" id="-3265">
		<tag k="name" v="Hestskosvåbekken" />
		<tag k="ssr:stedsnr" v="705133" />
		<tag k="waterway" v="stream" />
	</node>
	<node lat="62.781294442854225" lon="8.090875007265756" id="-3283">
		<tag k="name" v="Jordfallhølan" />
		<tag k="place" v="locality" />
		<tag k="ssr:stedsnr" v="705470" />
	</node>
	<node lat="62.77886667082814" lon="8.023077781523325" id="-3284">
		<tag k="name" v="Øygardsbekken" />
		<tag k="ssr:stedsnr" v="705471" />
		<tag k="waterway" v="stream" />
	</node>
	<node lat="62.79467499735879" lon="8.051336118095454" id="-3285">
		<tag k="name" v="Sautjønna" />
		<tag k="natural" v="water" />
		<tag k="ssr:stedsnr" v="705499" />
	</node>
	<node lat="62.79080278038797" lon="7.994261101492233" id="-3289">
		<tag k="name" v="Seterhølen" />
		<tag k="place" v="locality" />
		<tag k="ssr:stedsnr" v="705543" />
	</node>
	<node lat="62.79466666903576" lon="7.792130553503872" id="-3291">
		<tag k="name" v="Litlebukta" />
		<tag k="natural" v="bay" />
		<tag k="ssr:stedsnr" v="705642" />
	</node>
	<node lat="62.79065277872386" lon="7.825338880620778" id="-3305">
		<tag k="name" v="Fagerlitjønna" />
		<tag k="natural" v="water" />
		<tag k="ssr:stedsnr" v="705697" />
	</node>
	<node lat="62.52539166334219" lon="8.144772219042345" id="-3313">
		<tag k="name" v="Lavransfløtbekken" />
		<tag k="ssr:stedsnr" v="705873" />
		<tag k="waterway" v="stream" />
	</node>
	<node lat="62.68016944279631" lon="8.03064722566033" id="-3317">
		<tag k="name" v="Sulskarelva" />
		<tag k="ssr:stedsnr" v="705847" />
		<tag k="waterway" v="stream" />
	</node>
	<node lat="62.73017777707226" lon="8.020922223316816" id="-3318">
		<tag k="name" v="Skjelbekken" />
		<tag k="ssr:stedsnr" v="705853" />
		<tag k="waterway" v="stream" />
	</node>
	<node lat="62.80240277582784" lon="7.455733332002361" id="-3330">
		<tag k="name" v="Hagaelva" />
		<tag k="ssr:stedsnr" v="641285" />
		<tag k="waterway" v="stream" />
	</node>
	<node lat="62.73960555205779" lon="8.002791675517926" id="-3336">
		<tag k="name" v="Hådjupbekken" />
		<tag k="ssr:stedsnr" v="705956" />
		<tag k="waterway" v="stream" />
	</node>
	<node lat="62.67682499879514" lon="7.977241671554031" id="-3345">
		<tag k="name" v="Kleppelva" />
		<tag k="ssr:stedsnr" v="705979" />
		<tag k="waterway" v="stream" />
	</node>
	<node lat="62.77942777652027" lon="7.655124991004172" id="-3363">
		<tag k="name" v="Søre Holmesundet" />
		<tag k="natural" v="strait" />
		<tag k="ssr:stedsnr" v="641931" />
	</node>
	<node lat="62.66075555624901" lon="8.179475002463588" id="-3371">
		<tag k="name" v="Fossan" />
		<tag k="ssr:stedsnr" v="643124" />
		<tag k="waterway" v="rapids" />
	</node>
	<node lat="62.80426944451784" lon="7.966724990211093" id="-3385">
		<tag k="name" v="Reitavoran" />
		<tag k="natural" v="beach" />
		<tag k="ssr:stedsnr" v="644503" />
	</node>
	<node lat="62.461097218627046" lon="8.256680551005726" id="-3391">
		<tag k="name" v="Slættabekken" />
		<tag k="ssr:stedsnr" v="644804" />
		<tag k="waterway" v="stream" />
	</node>
	<node lat="62.483188884923635" lon="8.151225004779102" id="-3395">
		<tag k="name" v="Bjønnakløvsanden" />
		<tag k="natural" v="beach" />
		<tag k="ssr:stedsnr" v="644872" />
	</node>
	<node lat="62.603325001560385" lon="8.148633332051041" id="-3398">
		<tag k="name" v="Jutulbåten" />
		<tag k="place" v="islet" />
		<tag k="ssr:stedsnr" v="644888" />
	</node>
	<node lat="62.45316389295152" lon="8.267975004813131" id="-3420">
		<tag k="name" v="Kjøtøyan" />
		<tag k="natural" v="cape" />
		<tag k="ssr:stedsnr" v="678182" />
	</node>
	<node lat="62.67833333521003" lon="8.176925006488501" id="-3424">
		<tag k="alt_name" v="Dokkelva" />
		<tag k="name" v="Kanndalselva" />
		<tag k="ssr:stedsnr" v="678314" />
		<tag k="waterway" v="river" />
	</node>
	<node lat="62.67954722040535" lon="6.63014444493411" id="-3447">
		<tag k="name" v="Fetaelva" />
		<tag k="ssr:stedsnr" v="679970" />
		<tag k="waterway" v="stream" />
	</node>
	<node lat="62.71636111320473" lon="6.7594361118472435" id="-3461">
		<tag k="name" v="Torsvikelva" />
		<tag k="ssr:stedsnr" v="694685" />
		<tag k="waterway" v="river" />
	</node>
	<node lat="62.48354999929839" lon="8.291872212947927" id="-3462">
		<tag k="name" v="Langvatnet" />
		<tag k="natural" v="water" />
		<tag k="ssr:stedsnr" v="695508" />
		<tag k="water" v="lake" />
	</node>
	<node lat="62.67327500123337" lon="6.637852768255742" id="-3465">
		<tag k="name" v="Kvennelva" />
		<tag k="ssr:stedsnr" v="697014" />
		<tag k="waterway" v="stream" />
	</node>
	<node lat="62.799536111704576" lon="7.552297216529847" id="-3478">
		<tag k="name" v="Storgrova" />
		<tag k="ssr:stedsnr" v="702008" />
		<tag k="waterway" v="stream" />
	</node>
	<node lat="62.77335833117274" lon="7.408413889512403" id="-3481">
		<tag k="name" v="Sigersetelva" />
		<tag k="ssr:stedsnr" v="702070" />
		<tag k="waterway" v="stream" />
	</node>
	<node lat="62.762563892181895" lon="7.574949991145419" id="-3483">
		<tag k="name" v="Langåsløken" />
		<tag k="ssr:stedsnr" v="701968" />
		<tag k="waterway" v="stream" />
	</node>
	<node lat="62.80523333016939" lon="7.50270556099849" id="-3487">
		<tag k="name" v="Steinsdalselva" />
		<tag k="ssr:stedsnr" v="702113" />
		<tag k="waterway" v="stream" />
	</node>
	<node lat="62.75629444321554" lon="7.1853527852672086" id="-3500">
		<tag k="name" v="Seterelva" />
		<tag k="ssr:stedsnr" v="702666" />
		<tag k="waterway" v="river" />
	</node>
	<node lat="62.74412777931617" lon="7.447024999039591" id="-3503">
		<tag k="name" v="Merraløken" />
		<tag k="ssr:stedsnr" v="702804" />
		<tag k="waterway" v="stream" />
	</node>
	<node lat="62.74198055454821" lon="7.747938894978432" id="-3513">
		<tag k="name" v="Tverrelva" />
		<tag k="ssr:stedsnr" v="704671" />
		<tag k="waterway" v="stream" />
	</node>
	<node lat="62.571505552888894" lon="8.177741669534038" id="-3521">
		<tag k="name" v="Mjølvika" />
		<tag k="natural" v="bay" />
		<tag k="ssr:stedsnr" v="705111" />
	</node>
	<node lat="62.54171944171099" lon="8.18410556279354" id="-3526">
		<tag k="name" v="Fløten" />
		<tag k="natural" v="cape" />
		<tag k="ssr:stedsnr" v="705131" />
	</node>
	<node lat="62.78355555606827" lon="8.236113887035371" id="-3528">
		<tag k="name" v="Kvennsetelva" />
		<tag k="ssr:stedsnr" v="705411" />
		<tag k="waterway" v="stream" />
	</node>
	<node lat="62.693505555700376" lon="8.098883330696971" id="-3529">
		<tag k="name" v="Bjørndalsbekken" />
		<tag k="ssr:stedsnr" v="705437" />
		<tag k="waterway" v="stream" />
	</node>
	<node lat="62.809933336799205" lon="8.017530562847552" id="-3531">
		<tag k="name" v="Paulbekken" />
		<tag k="ssr:stedsnr" v="705363" />
		<tag k="waterway" v="stream" />
	</node>
	<node lat="62.7823222216743" lon="8.242197231906953" id="-3532">
		<tag k="name" v="Slettabekken" />
		<tag k="ssr:stedsnr" v="705386" />
		<tag k="waterway" v="stream" />
	</node>
	<node lat="62.79214721914335" lon="8.013855560582464" id="-3536">
		<tag k="name" v="Stordalsbekken" />
		<tag k="ssr:stedsnr" v="705510" />
		<tag k="waterway" v="stream" />
	</node>
	<node lat="62.47299999776977" lon="8.163813879594612" id="-3543">
		<tag k="name" v="Gjølbekken" />
		<tag k="ssr:stedsnr" v="705818" />
		<tag k="waterway" v="stream" />
	</node>
	<node lat="62.51091111338481" lon="8.075594447418304" id="-3558">
		<tag k="name" v="Mardalsvatna" />
		<tag k="natural" v="water" />
		<tag k="ssr:stedsnr" v="726084" />
		<tag k="water" v="lake" />
	</node>
	<node lat="62.70829722435567" lon="6.8976222273372905" id="-3560">
		<tag k="name" v="Nord-Heggdalselva" />
		<tag k="ssr:stedsnr" v="900645" />
		<tag k="waterway" v="river" />
	</node>
	<node lat="62.54366111330212" lon="8.157297226479999" id="-3566">
		<tag k="alt_name" v="Hoemseterfløten" />
		<tag k="name" v="Hoemsæterfløta" />
		<tag k="natural" v="cape" />
		<tag k="ssr:stedsnr" v="739109" />
	</node>
	<node lat="62.39306110816948" lon="8.404413880206608" id="-3570">
		<tag k="name" v="Ytste Seljefonnbekken" />
		<tag k="ssr:stedsnr" v="739298" />
		<tag k="waterway" v="stream" />
	</node>
	<node lat="62.40240278059721" lon="8.492283333572358" id="-3571">
		<tag k="name" v="Stordalsåhølen" />
		<tag k="place" v="locality" />
		<tag k="ssr:stedsnr" v="739301" />
	</node>
	<node lat="62.36087500324742" lon="8.252199997044391" id="-3574">
		<tag k="name" v="Gravdalsvatnet" />
		<tag k="natural" v="water" />
		<tag k="ssr:stedsnr" v="739359" />
		<tag k="water" v="lake" />
	</node>
	<node lat="62.71244722102009" lon="6.741438885937425" id="-3618">
		<tag k="name" v="Kjerringvatnet" />
		<tag k="natural" v="water" />
		<tag k="ssr:stedsnr" v="758604" />
		<tag k="water" v="lake" />
	</node>
	<node lat="62.72173055844279" lon="6.909352782567702" id="-3624">
		<tag k="name" v="Svinsetelva" />
		<tag k="ssr:stedsnr" v="759922" />
		<tag k="waterway" v="stream" />
	</node>
	<node lat="62.76730833739674" lon="7.613874990080398" id="-3644">
		<tag k="name" v="Vasslivatnet" />
		<tag k="natural" v="water" />
		<tag k="ssr:stedsnr" v="763095" />
	</node>
	<node lat="62.83811944233104" lon="7.76124165829445" id="-3645">
		<tag k="name" v="Åsløbekken" />
		<tag k="ssr:stedsnr" v="763203" />
		<tag k="waterway" v="stream" />
	</node>
	<node lat="62.830852781998736" lon="7.528638892104744" id="-3648">
		<tag k="name" v="Stordalsgrova" />
		<tag k="ssr:stedsnr" v="763224" />
		<tag k="waterway" v="stream" />
	</node>
	<node lat="62.70532222392618" lon="7.564102780665148" id="-3655">
		<tag k="name" v="Åsgrova" />
		<tag k="ssr:stedsnr" v="763146" />
		<tag k="waterway" v="stream" />
	</node>
	<node lat="62.659538887812516" lon="7.244261115743443" id="-3669">
		<tag k="name" v="Kvernagrova" />
		<tag k="ssr:stedsnr" v="763946" />
		<tag k="waterway" v="stream" />
	</node>
	<node lat="62.81493888606598" lon="7.863216658417475" id="-3686">
		<tag k="name" v="Rupdalsbekken" />
		<tag k="ssr:stedsnr" v="765490" />
		<tag k="waterway" v="stream" />
	</node>
	<node lat="62.70243055724633" lon="7.807766661318967" id="-3691">
		<tag k="name" v="Langrustbekken" />
		<tag k="ssr:stedsnr" v="765904" />
		<tag k="waterway" v="stream" />
	</node>
	<node lat="62.70848055901233" lon="7.96735834019947" id="-3695">
		<tag k="name" v="Gråsteinsbekken" />
		<tag k="ssr:stedsnr" v="765993" />
		<tag k="waterway" v="stream" />
	</node>
	<node lat="62.6422750037712" lon="7.842819448277525" id="-3696">
		<tag k="name" v="Loftskarbekken" />
		<tag k="ssr:stedsnr" v="765894" />
		<tag k="waterway" v="river" />
	</node>
	<node lat="62.672027775639805" lon="8.108674996543051" id="-3699">
		<tag k="name" v="Husbybekken" />
		<tag k="ssr:stedsnr" v="766102" />
		<tag k="waterway" v="stream" />
	</node>
	<node lat="62.764588890773545" lon="8.110286119780618" id="-3703">
		<tag k="name" v="Bytbekken" />
		<tag k="ssr:stedsnr" v="766391" />
		<tag k="waterway" v="stream" />
	</node>
	<node lat="62.774619443168866" lon="8.089575006216844" id="-3705">
		<tag k="name" v="Stubøbekken" />
		<tag k="ssr:stedsnr" v="766397" />
		<tag k="waterway" v="stream" />
	</node>
	<node lat="62.790213885765155" lon="7.9923166677289" id="-3707">
		<tag k="name" v="Marihølen" />
		<tag k="place" v="locality" />
		<tag k="ssr:stedsnr" v="766461" />
	</node>
	<node lat="62.8089861136768" lon="7.968052776477861" id="-3708">
		<tag k="name" v="Kjerringbekkosen" />
		<tag k="natural" v="bay" />
		<tag k="ssr:stedsnr" v="766466" />
	</node>
	<node lat="62.62214999579865" lon="8.15804444942623" id="-3715">
		<tag k="name" v="Rødbelgneset" />
		<tag k="natural" v="cape" />
		<tag k="ssr:stedsnr" v="766828" />
	</node>
	<node lat="62.49997778120287" lon="8.142683329876736" id="-3716">
		<tag k="name" v="Kobbesvagrunna" />
		<tag k="natural" v="shoal" />
		<tag k="place" v="locality" />
		<tag k="ssr:stedsnr" v="766854" />
	</node>
	<node lat="62.404508329551696" lon="8.183461109445998" id="-3728">
		<tag k="name" v="Inste Bruåbottvatna" />
		<tag k="natural" v="water" />
		<tag k="ssr:stedsnr" v="800034" />
		<tag k="water" v="lake" />
	</node>
	<node lat="62.70284722275459" lon="7.788083325441096" id="-3731">
		<tag k="alt_name" v="Skorgeelva" />
		<tag k="name" v="Skorga" />
		<tag k="ssr:stedsnr" v="800447" />
		<tag k="waterway" v="stream" />
	</node>
	<node lat="62.38083888712776" lon="8.663022229844005" id="-3738">
		<tag k="name" v="Krøstjønna" />
		<tag k="natural" v="water" />
		<tag k="ssr:stedsnr" v="800346" />
	</node>
	<node lat="62.78792221995511" lon="7.82863889164001" id="-3749">
		<tag k="name" v="Svarttjørna" />
		<tag k="natural" v="water" />
		<tag k="ssr:stedsnr" v="800582" />
	</node>
	<node lat="62.470052778408466" lon="8.203586113702405" id="-3753">
		<tag k="name" v="Rangåa" />
		<tag k="ssr:stedsnr" v="801089" />
		<tag k="waterway" v="stream" />
	</node>
	<node lat="62.79652777577842" lon="8.054788896557087" id="-3755">
		<tag k="name" v="Kleppvatnet" />
		<tag k="natural" v="water" />
		<tag k="ssr:stedsnr" v="801569" />
	</node>
	<node lat="62.678344448758004" lon="6.73362500261383" id="-3775">
		<tag k="name" v="Svorabekken" />
		<tag k="ssr:stedsnr" v="819673" />
		<tag k="waterway" v="stream" />
	</node>
	<node lat="62.685172220481874" lon="6.7130055553400885" id="-3776">
		<tag k="name" v="Digergubbvatnet" />
		<tag k="natural" v="water" />
		<tag k="ssr:stedsnr" v="819678" />
	</node>
	<node lat="62.697136110437604" lon="6.702644438006254" id="-3777">
		<tag k="name" v="Holåelva" />
		<tag k="ssr:stedsnr" v="819580" />
		<tag k="waterway" v="river" />
	</node>
	<node lat="62.49250000407323" lon="8.254611118155248" id="-3784">
		<tag k="name" v="Kjøtåvatnet" />
		<tag k="natural" v="water" />
		<tag k="ssr:stedsnr" v="921148" />
		<tag k="water" v="lake" />
	</node>
	<node lat="62.73209166619787" lon="7.374069449159632" id="-3788">
		<tag k="name" v="Keilå" />
		<tag k="ssr:stedsnr" v="823267" />
		<tag k="waterway" v="stream" />
	</node>
	<node lat="62.58811666544329" lon="8.155877782638877" id="-3790">
		<tag k="name" v="Elingsneset" />
		<tag k="natural" v="cape" />
		<tag k="ssr:stedsnr" v="921339" />
	</node>
	<node lat="62.42305277848888" lon="8.270649995297234" id="-3792">
		<tag k="alt_name" v="Høvlå" />
		<tag k="name" v="Høvla" />
		<tag k="ssr:stedsnr" v="921355" />
		<tag k="waterway" v="stream" />
	</node>
	<node lat="62.41586110925636" lon="8.369641665832086" id="-3795">
		<tag k="name" v="Slættabekken" />
		<tag k="ssr:stedsnr" v="921359" />
		<tag k="waterway" v="stream" />
	</node>
	<node lat="62.801272221112356" lon="7.532516670651251" id="-3796">
		<tag k="name" v="Kallsgrova" />
		<tag k="ssr:stedsnr" v="824010" />
		<tag k="waterway" v="stream" />
	</node>
	<node lat="62.77263888611359" lon="7.333686118699919" id="-3808">
		<tag k="name" v="Løkan" />
		<tag k="ssr:stedsnr" v="824352" />
		<tag k="waterway" v="stream" />
	</node>
	<node lat="62.76074444142436" lon="7.266608342769154" id="-3809">
		<tag k="name" v="Saggrova" />
		<tag k="ssr:stedsnr" v="824354" />
		<tag k="waterway" v="stream" />
	</node>
	<node lat="62.79140555409669" lon="7.458230557001572" id="-3811">
		<tag k="name" v="Tverelva" />
		<tag k="ssr:stedsnr" v="824365" />
		<tag k="waterway" v="stream" />
	</node>
	<node lat="62.75593611538945" lon="7.163363892217379" id="-3830">
		<tag k="name" v="Andersbekken" />
		<tag k="ssr:stedsnr" v="824721" />
		<tag k="waterway" v="stream" />
	</node>
	<node lat="62.764561113728234" lon="7.549422219744236" id="-3840">
		<tag k="name" v="Teppingsgrova" />
		<tag k="ssr:stedsnr" v="824980" />
		<tag k="waterway" v="stream" />
	</node>
	<node lat="62.765505553451554" lon="7.567202779275579" id="-3841">
		<tag k="name" v="Almelivatnet" />
		<tag k="natural" v="water" />
		<tag k="ssr:stedsnr" v="824981" />
	</node>
	<node lat="62.71402499818499" lon="7.851555546749812" id="-3843">
		<tag k="name" v="Fossen" />
		<tag k="natural" v="waterfall" />
		<tag k="ssr:stedsnr" v="826013" />
	</node>
	<node lat="62.744386113856855" lon="7.972583326720774" id="-3849">
		<tag k="name" v="Fevika" />
		<tag k="ssr:stedsnr" v="826114" />
		<tag k="waterway" v="drain" />
	</node>
	<node lat="62.80101944117086" lon="7.834644451625283" id="-3853">
		<tag k="name" v="Bakkebekken" />
		<tag k="ssr:stedsnr" v="826622" />
		<tag k="waterway" v="stream" />
	</node>
	<node lat="62.81970278130338" lon="7.807819452470541" id="-3859">
		<tag k="name" v="Storhølen" />
		<tag k="place" v="locality" />
		<tag k="ssr:stedsnr" v="826532" />
	</node>
	<node lat="62.71898610763402" lon="7.979811112761628" id="-3866">
		<tag k="name" v="Gauprørvatnet" />
		<tag k="natural" v="water" />
		<tag k="ssr:stedsnr" v="826948" />
		<tag k="water" v="lake" />
	</node>
	<node lat="62.69319722552726" lon="7.80615278098524" id="-3870">
		<tag k="name" v="Blåfjellvatnet" />
		<tag k="natural" v="water" />
		<tag k="ssr:stedsnr" v="826885" />
	</node>
	<node lat="62.77925555222619" lon="8.233197226954921" id="-3873">
		<tag k="name" v="Morsgogbekken" />
		<tag k="ssr:stedsnr" v="827365" />
		<tag k="waterway" v="stream" />
	</node>
	<node lat="62.76851389086721" lon="8.228261103194157" id="-3874">
		<tag k="name" v="Jordalsbekken" />
		<tag k="ssr:stedsnr" v="827370" />
		<tag k="waterway" v="stream" />
	</node>
	<node lat="62.43199999696399" lon="8.306175009590767" id="-3889">
		<tag k="name" v="Espebekken" />
		<tag k="ssr:stedsnr" v="827810" />
		<tag k="waterway" v="stream" />
	</node>
	<node lat="62.50383055176398" lon="8.170505548958621" id="-3893">
		<tag k="name" v="Sandoddan" />
		<tag k="natural" v="cape" />
		<tag k="ssr:stedsnr" v="827878" />
	</node>
	<node lat="62.48856666282104" lon="8.148288893515" id="-3894">
		<tag k="name" v="Mardalsholmen" />
		<tag k="place" v="islet" />
		<tag k="ssr:stedsnr" v="827880" />
	</node>
	<node lat="62.35966666580853" lon="8.344275003604794" id="-3898">
		<tag k="name" v="Nilstjønna" />
		<tag k="natural" v="water" />
		<tag k="ssr:stedsnr" v="922341" />
	</node>
	<node lat="62.357958336622445" lon="8.315369448415089" id="-3899">
		<tag k="name" v="Nørdre Isløyptjønna" />
		<tag k="natural" v="water" />
		<tag k="ssr:stedsnr" v="922343" />
	</node>
	<node lat="62.74518888461923" lon="7.75593055427568" id="-3900">
		<tag k="name" v="Åramselva" />
		<tag k="ssr:stedsnr" v="922449" />
		<tag k="waterway" v="stream" />
	</node>
	<node lat="62.77551111513408" lon="7.80332499255586" id="-3902">
		<tag k="name" v="Nørdre Sotnakkvatnet" />
		<tag k="natural" v="water" />
		<tag k="ssr:stedsnr" v="922569" />
	</node>
	<node lat="62.41470000332216" lon="8.147605552781853" id="-3929">
		<tag k="name" v="Ytste Bruåbottvatnet" />
		<tag k="natural" v="water" />
		<tag k="ssr:stedsnr" v="860015" />
		<tag k="water" v="lake" />
	</node>
	<node lat="62.62456661798928" lon="8.102578427968078" id="-3937">
		<tag k="name" v="Kvitneset" />
		<tag k="natural" v="cape" />
		<tag k="ssr:stedsnr" v="861316" />
	</node>
	<node lat="62.50723333681584" lon="8.146577768427086" id="-3938">
		<tag k="alt_name" v="Gunhildfløten" />
		<tag k="name" v="Gunhildsfløta" />
		<tag k="natural" v="cape" />
		<tag k="ssr:stedsnr" v="861203" />
	</node>
	<node lat="62.71802499972285" lon="8.181569438654163" id="-3947">
		<tag k="name" v="Stranddalsvatnet" />
		<tag k="natural" v="water" />
		<tag k="ssr:stedsnr" v="861428" />
	</node>
	<node lat="62.80627222316936" lon="7.916038886637291" id="-3968">
		<tag k="name" v="Litle Vetavatnet" />
		<tag k="natural" v="water" />
		<tag k="ssr:stedsnr" v="862552" />
	</node>
	<node lat="62.812205555849424" lon="7.539638898534892" id="-3970">
		<tag k="name" v="Roaldsetelva" />
		<tag k="ssr:stedsnr" v="862716" />
		<tag k="waterway" v="stream" />
	</node>
	<node lat="62.763616670416894" lon="7.211599998003684" id="-3972">
		<tag k="name" v="Bergsvatnet" />
		<tag k="natural" v="water" />
		<tag k="ssr:stedsnr" v="862885" />
	</node>
	<node lat="62.50786944876641" lon="8.22333889543731" id="-3977">
		<tag k="name" v="Ytste Kjøtåvatnet" />
		<tag k="natural" v="water" />
		<tag k="ssr:stedsnr" v="870718" />
		<tag k="water" v="lake" />
	</node>
	<node lat="62.72624722183473" lon="6.779083329033176" id="-3987">
		<tag k="name" v="Svora" />
		<tag k="ssr:stedsnr" v="880214" />
		<tag k="waterway" v="stream" />
	</node>
	<node lat="62.6838000042636" lon="6.74639999803659" id="-3990">
		<tag k="name" v="Hålåelva" />
		<tag k="ssr:stedsnr" v="880351" />
		<tag k="waterway" v="stream" />
	</node>
	<node lat="62.708627782125376" lon="6.716513894081583" id="-3993">
		<tag k="name" v="Leirgrova" />
		<tag k="ssr:stedsnr" v="880617" />
		<tag k="waterway" v="stream" />
	</node>
	<node lat="62.72519444480658" lon="6.917858331105714" id="-4001">
		<tag k="name" v="Leteelva" />
		<tag k="ssr:stedsnr" v="881920" />
		<tag k="waterway" v="stream" />
	</node>
	<node lat="62.816333331244635" lon="7.536294445762195" id="-4003">
		<tag k="name" v="Tverligrova" />
		<tag k="ssr:stedsnr" v="884049" />
		<tag k="waterway" v="stream" />
	</node>
	<node lat="62.654436109456654" lon="7.266647215824451" id="-4032">
		<tag k="name" v="Hjellgrova" />
		<tag k="ssr:stedsnr" v="884951" />
		<tag k="waterway" v="stream" />
	</node>
	<node lat="62.724088886945026" lon="7.527616669932473" id="-4034">
		<tag k="name" v="Storvatnet" />
		<tag k="natural" v="water" />
		<tag k="ssr:stedsnr" v="884701" />
		<tag k="water" v="lake" />
	</node>
	<node lat="62.72355555669323" lon="7.530552776985126" id="-4035">
		<tag k="name" v="Kaffikokarneset" />
		<tag k="natural" v="cape" />
		<tag k="ssr:stedsnr" v="884702" />
	</node>
	<node lat="62.758855557667125" lon="7.670236119671113" id="-4039">
		<tag k="name" v="Vinkjellargrova" />
		<tag k="ssr:stedsnr" v="884858" />
		<tag k="waterway" v="stream" />
	</node>
	<node lat="62.58854444114671" lon="8.172949995797902" id="-4051">
		<tag k="name" v="Tongelva" />
		<tag k="ssr:stedsnr" v="887102" />
		<tag k="waterway" v="stream" />
	</node>
	<node lat="62.80774167020177" lon="7.998636114509904" id="-4068">
		<tag k="name" v="Mørkvasselva" />
		<tag k="ssr:stedsnr" v="887501" />
		<tag k="waterway" v="river" />
	</node>
	<node lat="62.78841111201012" lon="7.844722214270499" id="-4070">
		<tag k="name" v="Svarttjønnbekken" />
		<tag k="ssr:stedsnr" v="887634" />
		<tag k="waterway" v="stream" />
	</node>
	<node lat="62.74833333402249" lon="7.757047218702016" id="-4071">
		<tag k="name" v="Seterelva" />
		<tag k="ssr:stedsnr" v="887714" />
		<tag k="waterway" v="stream" />
	</node>
	<node lat="62.65392777457966" lon="7.974577780365736" id="-4074">
		<tag k="name" v="Kalvgeilåna" />
		<tag k="ssr:stedsnr" v="887912" />
		<tag k="waterway" v="stream" />
	</node>
	<node lat="62.540169445301025" lon="8.184500006848534" id="-4082">
		<tag k="name" v="Kobbesteinbukta" />
		<tag k="natural" v="bay" />
		<tag k="ssr:stedsnr" v="887862" />
	</node>
	<node lat="62.70302777407648" lon="7.494300003963039" id="-4096">
		<tag k="name" v="Vikvatnet" />
		<tag k="natural" v="water" />
		<tag k="ssr:stedsnr" v="921709" />
	</node>
	<node lat="62.48308333449112" lon="8.09820000294907" id="-4103">
		<tag k="name" v="Ytste Mardøla" />
		<tag k="ssr:stedsnr" v="922078" />
		<tag k="waterway" v="river" />
	</node>
	<node lat="62.78485000287133" lon="8.033777773926886" id="-4112">
		<tag k="name" v="Klokkarelva" />
		<tag k="ssr:stedsnr" v="922576" />
		<tag k="waterway" v="stream" />
	</node>
	<node lat="62.78109722096568" lon="8.144841675283795" id="-4113">
		<tag k="name" v="Myrsetelva" />
		<tag k="ssr:stedsnr" v="922582" />
		<tag k="waterway" v="stream" />
	</node>
	<node lat="62.82543889268734" lon="7.472066667507102" id="-4120">
		<tag k="name" v="Ol Anderså-tjørnin" />
		<tag k="natural" v="water" />
		<tag k="ssr:stedsnr" v="923723" />
	</node>
	<node lat="62.631983334122374" lon="8.00059722617918" id="-4121">
		<tag k="name" v="Visa" />
		<tag k="ssr:stedsnr" v="930219" />
		<tag k="waterway" v="river" />
	</node>
	<node lat="62.55274444204269" lon="8.222169451414098" id="-4126">
		<tag k="name" v="Ytstevatnet" />
		<tag k="natural" v="water" />
		<tag k="ssr:stedsnr" v="931744" />
		<tag k="water" v="lake" />
	</node>
	<node lat="62.692119445694814" lon="7.4638277680132425" id="-4140">
		<tag k="name" v="Vikelva" />
		<tag k="ssr:stedsnr" v="945203" />
		<tag k="waterway" v="stream" />
	</node>
	<node lat="62.76479444525725" lon="7.276894447827191" id="-4144">
		<tag k="name" v="Krokan" />
		<tag k="ssr:stedsnr" v="945300" />
		<tag k="waterway" v="river" />
	</node>
	<node lat="62.74229722625296" lon="7.0231777806708955" id="-4147">
		<tag k="name" v="Tverrelva" />
		<tag k="ssr:stedsnr" v="945442" />
		<tag k="waterway" v="stream" />
	</node>
	<node lat="62.651391664322624" lon="7.288925007472413" id="-4167">
		<tag k="name" v="Ytste Vestadelva" />
		<tag k="ssr:stedsnr" v="945895" />
		<tag k="waterway" v="stream" />
	</node>
	<node lat="62.64995278200127" lon="7.846680548141363" id="-4170">
		<tag k="name" v="Teppinga" />
		<tag k="ssr:stedsnr" v="947047" />
		<tag k="waterway" v="rapids" />
	</node>
	<node lat="62.788711111684265" lon="8.098302783871533" id="-4171">
		<tag k="name" v="Damhølan" />
		<tag k="place" v="locality" />
		<tag k="ssr:stedsnr" v="947708" />
	</node>
	<node lat="62.74760555411182" lon="7.754938894538129" id="-4175">
		<tag k="name" v="Brudesløret" />
		<tag k="natural" v="waterfall" />
		<tag k="ssr:stedsnr" v="947684" />
	</node>
	<node lat="62.73409721920688" lon="8.15179721652986" id="-4176">
		<tag k="name" v="Odden" />
		<tag k="natural" v="cape" />
		<tag k="ssr:stedsnr" v="947694" />
	</node>
	<node lat="62.593988891157444" lon="8.172272220479742" id="-4178">
		<tag k="name" v="Simegå" />
		<tag k="ssr:stedsnr" v="948114" />
		<tag k="waterway" v="stream" />
	</node>
	<node lat="62.753791666295356" lon="8.033952778727151" id="-4190">
		<tag k="name" v="Prestbekken" />
		<tag k="ssr:stedsnr" v="948427" />
		<tag k="waterway" v="stream" />
	</node>
	<node lat="62.8211305599403" lon="7.862461120307234" id="-4194">
		<tag k="name" v="Vetabekken" />
		<tag k="ssr:stedsnr" v="948583" />
		<tag k="waterway" v="stream" />
	</node>
	<node lat="62.80700277799187" lon="7.974441676117963" id="-4197">
		<tag k="name" v="Berget" />
		<tag k="natural" v="cape" />
		<tag k="ssr:stedsnr" v="948827" />
	</node>
	<node lat="62.718091668447805" lon="7.916883337159941" id="-4199">
		<tag k="name" v="Vedafonnbekken" />
		<tag k="ssr:stedsnr" v="948977" />
		<tag k="waterway" v="stream" />
	</node>
	<node lat="62.706047226554496" lon="7.9697555620016" id="-4202">
		<tag k="name" v="Geitmjølkbekken" />
		<tag k="ssr:stedsnr" v="948993" />
		<tag k="waterway" v="stream" />
	</node>
	<node lat="62.435855556292" lon="8.15950000938303" id="-4231">
		<tag k="name" v="Børtjønnin" />
		<tag k="natural" v="water" />
		<tag k="ssr:stedsnr" v="11099" />
	</node>
	<node lat="62.39983888716359" lon="8.488050008299082" id="-4233">
		<tag k="name" v="Hellevadet" />
		<tag k="place" v="locality" />
		<tag k="ssr:stedsnr" v="11307" />
	</node>
	<node lat="62.447708330817385" lon="8.452836120256773" id="-4235">
		<tag k="name" v="Midtlægervatnet" />
		<tag k="natural" v="water" />
		<tag k="ssr:stedsnr" v="11317" />
	</node>
	<node lat="62.45721110891277" lon="8.234324991112873" id="-4237">
		<tag k="name" v="Hestneset" />
		<tag k="natural" v="cape" />
		<tag k="ssr:stedsnr" v="11176" />
	</node>
	<node lat="62.663119443593516" lon="8.064077772511896" id="-4240">
		<tag k="name" v="Turhusvatnet" />
		<tag k="natural" v="water" />
		<tag k="ssr:stedsnr" v="11267" />
	</node>
	<node lat="62.63415833224064" lon="7.843483333145" id="-4242">
		<tag k="name" v="Litlevatnet" />
		<tag k="natural" v="water" />
		<tag k="ssr:stedsnr" v="11366" />
	</node>
	<node lat="62.75200000314194" lon="8.176888882507567" id="-4244">
		<tag k="name" v="Jutulvatnet" />
		<tag k="natural" v="water" />
		<tag k="ssr:stedsnr" v="11634" />
	</node>
	<node lat="62.528063886948516" lon="8.288486106631481" id="-4267">
		<tag k="name" v="Glupen" />
		<tag k="natural" v="water" />
		<tag k="ssr:stedsnr" v="12100" />
	</node>
	<node lat="62.60938055866405" lon="8.151733332542808" id="-4268">
		<tag k="name" v="Kårneset" />
		<tag k="natural" v="cape" />
		<tag k="ssr:stedsnr" v="12337" />
	</node>
	<node lat="62.8425444483644" lon="8.091016674746696" id="-4272">
		<tag k="name" v="Holåvollbekken" />
		<tag k="ssr:stedsnr" v="12527" />
		<tag k="waterway" v="stream" />
	</node>
	<node lat="62.80255833471029" lon="8.009113891127011" id="-4278">
		<tag k="name" v="Haravatnet" />
		<tag k="natural" v="water" />
		<tag k="ssr:stedsnr" v="12575" />
	</node>
	<node lat="62.79313611555204" lon="7.805825000318588" id="-4280">
		<tag k="alt_name" v="Plassabekken" />
		<tag k="name" v="Sagbekken" />
		<tag k="ssr:stedsnr" v="12594" />
		<tag k="waterway" v="stream" />
	</node>
	<node lat="62.79136110831636" lon="7.342113884201863" id="-4286">
		<tag k="alt_name" v="Løkan" />
		<tag k="name" v="Løken" />
		<tag k="natural" v="water" />
		<tag k="ssr:stedsnr" v="12753" />
	</node>
	<node lat="62.689563892963484" lon="6.614505547742884" id="-4324">
		<tag k="name" v="Kvennelva" />
		<tag k="ssr:stedsnr" v="30376" />
		<tag k="waterway" v="stream" />
	</node>
	<node lat="62.670966669168756" lon="6.644600001432979" id="-4333">
		<tag k="name" v="Junkerelva" />
		<tag k="ssr:stedsnr" v="30955" />
		<tag k="waterway" v="stream" />
	</node>
	<node lat="62.84342499663275" lon="7.786769448133295" id="-4345">
		<tag k="name" v="Årslibekken" />
		<tag k="ssr:stedsnr" v="34197" />
		<tag k="waterway" v="stream" />
	</node>
	<node lat="62.79852222536993" lon="7.5611194517127025" id="-4347">
		<tag k="name" v="Eidssetergrova" />
		<tag k="ssr:stedsnr" v="34054" />
		<tag k="waterway" v="stream" />
	</node>
	<node lat="62.79567222590841" lon="7.741177784626626" id="-4349">
		<tag k="name" v="Holmen" />
		<tag k="place" v="islet" />
		<tag k="ssr:stedsnr" v="34135" />
	</node>
	<node lat="62.772824998799344" lon="7.447536110500818" id="-4357">
		<tag k="name" v="Steffåhølen" />
		<tag k="place" v="locality" />
		<tag k="ssr:stedsnr" v="35076" />
	</node>
	<node lat="62.7811694404307" lon="7.288580550528336" id="-4359">
		<tag k="name" v="Lomtjønna" />
		<tag k="natural" v="water" />
		<tag k="ssr:stedsnr" v="35082" />
	</node>
	<node lat="62.79400555169288" lon="7.777194451729886" id="-4366">
		<tag k="name" v="Storbukta" />
		<tag k="natural" v="bay" />
		<tag k="ssr:stedsnr" v="34768" />
	</node>
	<node lat="62.73910832921234" lon="7.492275000893566" id="-4367">
		<tag k="name" v="Tverrelva" />
		<tag k="ssr:stedsnr" v="34772" />
		<tag k="waterway" v="river" />
	</node>
	<node lat="62.73923333091555" lon="7.482991673005892" id="-4368">
		<tag k="name" v="Kattarumpa" />
		<tag k="place" v="locality" />
		<tag k="ssr:stedsnr" v="34774" />
	</node>
	<node lat="62.73810277471026" lon="7.479300001014748" id="-4369">
		<tag k="name" v="Torehølen" />
		<tag k="place" v="locality" />
		<tag k="ssr:stedsnr" v="34785" />
	</node>
	<node lat="62.77058611329829" lon="7.622919446216739" id="-4378">
		<tag k="name" v="Ullalandselva" />
		<tag k="ssr:stedsnr" v="34967" />
		<tag k="waterway" v="stream" />
	</node>
	<node lat="62.799499999270196" lon="7.570955564042712" id="-4383">
		<tag k="name" v="Saghølen" />
		<tag k="place" v="locality" />
		<tag k="ssr:stedsnr" v="35407" />
	</node>
	<node lat="62.82790833550128" lon="7.429186104273756" id="-4390">
		<tag k="name" v="Langvassosen" />
		<tag k="natural" v="bay" />
		<tag k="ssr:stedsnr" v="35842" />
	</node>
	<node lat="62.72640000428237" lon="8.026550005307765" id="-4393">
		<tag k="loc_name" v="Gusjåselva" />
		<tag k="name" v="Storelva" />
		<tag k="ssr:stedsnr" v="37088" />
		<tag k="waterway" v="stream" />
	</node>
	<node lat="62.42631666321155" lon="8.313833332982092" id="-4395">
		<tag k="name" v="Fjørå" />
		<tag k="place" v="islet" />
		<tag k="ssr:stedsnr" v="37096" />
	</node>
	<node lat="62.784797220848986" lon="7.894258325639094" id="-4397">
		<tag k="name" v="Fremste Gammelseterelva" />
		<tag k="ssr:stedsnr" v="37512" />
		<tag k="waterway" v="stream" />
	</node>
	<node lat="62.67583889233258" lon="8.241055564652473" id="-4409">
		<tag k="name" v="Fossan" />
		<tag k="ssr:stedsnr" v="37138" />
		<tag k="waterway" v="rapids" />
	</node>
	<node lat="62.62949721975061" lon="8.098941665517556" id="-4417">
		<tag k="name" v="Storodden" />
		<tag k="natural" v="cape" />
		<tag k="ssr:stedsnr" v="37461" />
	</node>
	<node lat="62.76427222270944" lon="7.787119437568643" id="-4423">
		<tag k="name" v="Ytste Domvatnet" />
		<tag k="natural" v="water" />
		<tag k="ssr:stedsnr" v="37583" />
	</node>
	<node lat="62.778244448351515" lon="7.96618610850708" id="-4425">
		<tag k="name" v="Reinvassbekken" />
		<tag k="ssr:stedsnr" v="37599" />
		<tag k="waterway" v="stream" />
	</node>
	<node lat="62.61273610769584" lon="8.149505558208284" id="-4430">
		<tag k="name" v="Hansarhella" />
		<tag k="natural" v="cape" />
		<tag k="ssr:stedsnr" v="37881" />
	</node>
	<node lat="62.628452774545835" lon="8.155919453839442" id="-4445">
		<tag k="name" v="Svarthammarbekken" />
		<tag k="ssr:stedsnr" v="37833" />
		<tag k="waterway" v="stream" />
	</node>
	<node lat="62.71546111321852" lon="7.7547611024157" id="-4448">
		<tag k="name" v="Sjølaupbekken" />
		<tag k="ssr:stedsnr" v="37935" />
		<tag k="waterway" v="stream" />
	</node>
	<node lat="62.790655552146006" lon="8.19098054602325" id="-4461">
		<tag k="name" v="Oddlielva" />
		<tag k="ssr:stedsnr" v="38295" />
		<tag k="waterway" v="stream" />
	</node>
	<node lat="62.78694721950827" lon="8.212697217147522" id="-4471">
		<tag k="name" v="Svenslielva" />
		<tag k="ssr:stedsnr" v="38384" />
		<tag k="waterway" v="stream" />
	</node>
	<node lat="62.47539999601058" lon="8.309266665972038" id="-4504">
		<tag k="name" v="Trollvassosen" />
		<tag k="natural" v="bay" />
		<tag k="ssr:stedsnr" v="72155" />
	</node>
	<node lat="62.567941664794695" lon="8.112288883018484" id="-4505">
		<tag k="alt_name" v="Hoemelva" />
		<tag k="name" v="Hoemselva" />
		<tag k="ssr:stedsnr" v="72156" />
		<tag k="waterway" v="stream" />
	</node>
	<node lat="62.38523610716364" lon="8.34870277977013" id="-4513">
		<tag k="alt_name" v="Løypåna" />
		<tag k="name" v="Løypåa" />
		<tag k="ssr:stedsnr" v="72342" />
		<tag k="waterway" v="stream" />
	</node>
	<node lat="62.71275277368091" lon="7.8837027760107405" id="-4520">
		<tag k="name" v="Sandnesvatnet" />
		<tag k="natural" v="water" />
		<tag k="ssr:stedsnr" v="72433" />
	</node>
	<node lat="62.74497221823852" lon="8.106369435266432" id="-4523">
		<tag k="name" v="Boggeelva" />
		<tag k="ssr:stedsnr" v="72461" />
		<tag k="waterway" v="stream" />
	</node>
	<node lat="62.67046111484787" lon="7.9075138829444835" id="-4528">
		<tag k="name" v="Ljøsåna" />
		<tag k="ssr:stedsnr" v="72285" />
		<tag k="waterway" v="stream" />
	</node>
	<node lat="62.60365555482518" lon="8.18700000356786" id="-4531">
		<tag k="name" v="Fløtaelva" />
		<tag k="ssr:stedsnr" v="72304" />
		<tag k="waterway" v="stream" />
	</node>
	<node lat="62.39424999679526" lon="8.316630562221851" id="-4532">
		<tag k="name" v="Gjølbekken" />
		<tag k="ssr:stedsnr" v="72307" />
		<tag k="waterway" v="stream" />
	</node>
	<node lat="62.593222221983666" lon="8.145727773172432" id="-4533">
		<tag k="name" v="Elingsvika" />
		<tag k="natural" v="bay" />
		<tag k="ssr:stedsnr" v="72309" />
	</node>
	<node lat="62.7030944482809" lon="7.518302782573872" id="-4540">
		<tag k="name" v="Brekkevatnet" />
		<tag k="natural" v="water" />
		<tag k="ssr:stedsnr" v="72676" />
	</node>
	<node lat="62.7527305528567" lon="7.0478805546059835" id="-4558">
		<tag k="name" v="Kryssvatnet" />
		<tag k="natural" v="water" />
		<tag k="ssr:stedsnr" v="73881" />
	</node>
	<node lat="62.828911114309676" lon="7.767647229252388" id="-4562">
		<tag k="name" v="Haltabekken" />
		<tag k="ssr:stedsnr" v="81127" />
		<tag k="waterway" v="stream" />
	</node>
	<node lat="62.684549999932074" lon="6.7494249976632625" id="-4576">
		<tag k="name" v="Hålå" />
		<tag k="ssr:stedsnr" v="91395" />
		<tag k="waterway" v="stream" />
	</node>
	<node lat="62.709330555073265" lon="6.928263892288639" id="-4581">
		<tag k="name" v="Jensetelva" />
		<tag k="ssr:stedsnr" v="91594" />
		<tag k="waterway" v="stream" />
	</node>
	<node lat="62.71209722092324" lon="6.880169443500266" id="-4590">
		<tag k="name" v="Balliskarelva" />
		<tag k="ssr:stedsnr" v="92726" />
		<tag k="waterway" v="river" />
	</node>
	<node lat="62.725241667339354" lon="6.849233333567298" id="-4599">
		<tag k="name" v="Litlevatnet" />
		<tag k="natural" v="water" />
		<tag k="ssr:stedsnr" v="92555" />
	</node>
	<node lat="62.79569721838718" lon="7.615422217999577" id="-4602">
		<tag k="name" v="Stokkeelva" />
		<tag k="ssr:stedsnr" v="95009" />
		<tag k="waterway" v="stream" />
	</node>
	<node lat="62.79997222671327" lon="7.507550000570142" id="-4607">
		<tag k="name" v="Teppingsgrova" />
		<tag k="ssr:stedsnr" v="95034" />
		<tag k="waterway" v="stream" />
	</node>
	<node lat="62.79664166994399" lon="7.5550916641447134" id="-4609">
		<tag k="name" v="Hungnesøyna" />
		<tag k="place" v="island" />
		<tag k="ssr:stedsnr" v="95041" />
	</node>
	<node lat="62.74430000114241" lon="7.502441666290439" id="-4624">
		<tag k="name" v="Øystilla" />
		<tag k="natural" v="water" />
		<tag k="ssr:stedsnr" v="95257" />
		<tag k="water" v="lake" />
	</node>
	<node lat="62.7513972215766" lon="7.014361114946555" id="-4635">
		<tag k="name" v="Litletjønna" />
		<tag k="natural" v="water" />
		<tag k="ssr:stedsnr" v="95431" />
	</node>
	<node lat="62.746355553872306" lon="7.03034721460064" id="-4636">
		<tag k="name" v="Storheitjønna" />
		<tag k="natural" v="water" />
		<tag k="ssr:stedsnr" v="95435" />
	</node>
	<node lat="62.73381110727138" lon="7.015438888429187" id="-4639">
		<tag k="name" v="Mordalselva" />
		<tag k="ssr:stedsnr" v="95454" />
		<tag k="waterway" v="stream" />
	</node>
	<node lat="62.73797222556425" lon="7.44953055429266" id="-4653">
		<tag k="name" v="Lauvåsgrova" />
		<tag k="ssr:stedsnr" v="95795" />
		<tag k="waterway" v="stream" />
	</node>
	<node lat="62.83519167081233" lon="8.021386116738048" id="-4657">
		<tag k="name" v="Svartakselbekken" />
		<tag k="ssr:stedsnr" v="96780" />
		<tag k="waterway" v="stream" />
	</node>
	<node lat="62.76185000450639" lon="8.088097223583299" id="-4666">
		<tag k="name" v="Langsetbekken" />
		<tag k="ssr:stedsnr" v="98397" />
		<tag k="waterway" v="stream" />
	</node>
	<node lat="62.75554444375893" lon="7.778513890845432" id="-4671">
		<tag k="name" v="Nedre Strøppeltjønna" />
		<tag k="natural" v="water" />
		<tag k="ssr:stedsnr" v="98591" />
	</node>
	<node lat="62.76822222580052" lon="8.209838889638382" id="-4676">
		<tag k="name" v="Kaldbekken" />
		<tag k="ssr:stedsnr" v="98329" />
		<tag k="waterway" v="stream" />
	</node>
	<node lat="62.772652781101236" lon="8.242036104375572" id="-4677">
		<tag k="name" v="Seterbekken" />
		<tag k="ssr:stedsnr" v="98333" />
		<tag k="waterway" v="stream" />
	</node>
	<node lat="62.8045138918883" lon="7.826552775826584" id="-4684">
		<tag k="name" v="Bakkevoran" />
		<tag k="natural" v="beach" />
		<tag k="ssr:stedsnr" v="98548" />
	</node>
	<node lat="62.49540555323491" lon="8.169102771915703" id="-4698">
		<tag k="name" v="Fløsanden" />
		<tag k="natural" v="beach" />
		<tag k="ssr:stedsnr" v="98785" />
	</node>
	<node lat="62.71145277439139" lon="7.783591673126553" id="-4703">
		<tag k="name" v="Bardtjønna" />
		<tag k="natural" v="water" />
		<tag k="ssr:stedsnr" v="98901" />
	</node>
	<node lat="62.66490555590539" lon="8.13807223022855" id="-4709">
		<tag k="name" v="Korssvabekken" />
		<tag k="ssr:stedsnr" v="98834" />
		<tag k="waterway" v="stream" />
	</node>
	<node lat="62.74514722499156" lon="7.241811104323432" id="-4711">
		<tag k="name" v="Leirgrovvikbekken" />
		<tag k="ssr:stedsnr" v="98847" />
		<tag k="waterway" v="stream" />
	</node>
	<node lat="62.48686944649416" lon="8.14731666479654" id="-4712">
		<tag k="name" v="Tømmersanden" />
		<tag k="natural" v="beach" />
		<tag k="ssr:stedsnr" v="98858" />
	</node>
	<node lat="62.721652774068055" lon="7.910988880307661" id="-4716">
		<tag k="name" v="Svartfonnbekken" />
		<tag k="ssr:stedsnr" v="98954" />
		<tag k="waterway" v="stream" />
	</node>
	<node lat="62.71135277944507" lon="6.8125638946969325" id="-4731">
		<tag k="name" v="Mørkevatnet" />
		<tag k="natural" v="water" />
		<tag k="ssr:stedsnr" v="132069" />
	</node>
	<node lat="62.70347500018383" lon="6.7508833257323415" id="-4733">
		<tag k="name" v="Holsvatnet" />
		<tag k="natural" v="water" />
		<tag k="ssr:stedsnr" v="132038" />
		<tag k="water" v="lake" />
	</node>
	<node lat="62.4031694423428" lon="8.411274996322629" id="-4741">
		<tag k="name" v="Fantenilshølen" />
		<tag k="place" v="locality" />
		<tag k="ssr:stedsnr" v="132286" />
	</node>
	<node lat="62.659433334580136" lon="8.06848889436853" id="-4743">
		<tag k="name" v="Solhjellvatnet" />
		<tag k="natural" v="water" />
		<tag k="ssr:stedsnr" v="132260" />
	</node>
	<node lat="62.76446944557483" lon="8.158894443132384" id="-4747">
		<tag k="name" v="Meisalvatnet" />
		<tag k="natural" v="water" />
		<tag k="ssr:stedsnr" v="132640" />
		<tag k="water" v="lake" />
	</node>
	<node lat="62.73723888661133" lon="7.5176277683239" id="-4752">
		<tag k="name" v="Tverrelva" />
		<tag k="ssr:stedsnr" v="132799" />
		<tag k="waterway" v="stream" />
	</node>
	<node lat="62.82913055951526" lon="7.730927778567494" id="-4754">
		<tag k="name" v="Olteråa" />
		<tag k="ssr:stedsnr" v="133485" />
		<tag k="waterway" v="river" />
	</node>
	<node lat="62.83014999658774" lon="7.8116472297447235" id="-4755">
		<tag k="name" v="Dyrlielva" />
		<tag k="ssr:stedsnr" v="133486" />
		<tag k="waterway" v="stream" />
	</node>
	<node lat="62.71322222208278" lon="6.870447226317029" id="-4791">
		<tag k="name" v="Klingelva" />
		<tag k="ssr:stedsnr" v="152747" />
		<tag k="waterway" v="river" />
	</node>
	<node lat="62.80629444458225" lon="7.5165694458645795" id="-4793">
		<tag k="name" v="Lomtjønnan" />
		<tag k="natural" v="water" />
		<tag k="ssr:stedsnr" v="156031" />
	</node>
	<node lat="62.80495555459118" lon="7.580272221008413" id="-4794">
		<tag k="name" v="Stakkøyna" />
		<tag k="place" v="island" />
		<tag k="ssr:stedsnr" v="156035" />
	</node>
	<node lat="62.74580833113025" lon="7.192894454033901" id="-4835">
		<tag k="name" v="Fuglsetbekken" />
		<tag k="ssr:stedsnr" v="156707" />
		<tag k="waterway" v="stream" />
	</node>
	<node lat="62.86377500329084" lon="7.775852780495837" id="-4839">
		<tag k="name" v="Øvre Seterbekken" />
		<tag k="ssr:stedsnr" v="156746" />
		<tag k="waterway" v="stream" />
	</node>
	<node lat="62.78602221880636" lon="8.15102777942048" id="-4880">
		<tag k="name" v="Bytbekken" />
		<tag k="ssr:stedsnr" v="159389" />
		<tag k="waterway" v="stream" />
	</node>
	<node lat="62.77812500062777" lon="8.285700003709556" id="-4886">
		<tag k="name" v="Skrødalsbekken" />
		<tag k="ssr:stedsnr" v="159584" />
		<tag k="waterway" v="stream" />
	</node>
	<node lat="62.78053889013408" lon="7.87014444662344" id="-4895">
		<tag k="name" v="Tennholmen" />
		<tag k="place" v="islet" />
		<tag k="ssr:stedsnr" v="159629" />
	</node>
	<node lat="62.75563055689389" lon="7.830250000628793" id="-4899">
		<tag k="name" v="Bytingsbekken" />
		<tag k="ssr:stedsnr" v="159656" />
		<tag k="waterway" v="stream" />
	</node>
	<node lat="62.75309166230672" lon="7.800558333322955" id="-4902">
		<tag k="name" v="Hjellbekken" />
		<tag k="ssr:stedsnr" v="159675" />
		<tag k="waterway" v="stream" />
	</node>
	<node lat="62.81125833751643" lon="7.91590276939841" id="-4905">
		<tag k="name" v="Sprenå" />
		<tag k="ssr:stedsnr" v="159700" />
		<tag k="waterway" v="stream" />
	</node>
	<node lat="62.72648332986291" lon="7.677391661874928" id="-4909">
		<tag k="name" v="Storfarbekken" />
		<tag k="ssr:stedsnr" v="159748" />
		<tag k="waterway" v="stream" />
	</node>
	<node lat="62.508508337117874" lon="8.170830548013654" id="-4912">
		<tag k="name" v="Fagervika" />
		<tag k="natural" v="bay" />
		<tag k="ssr:stedsnr" v="159863" />
	</node>
	<node lat="62.59136944425925" lon="8.145822216886637" id="-4916">
		<tag k="name" v="Storodden" />
		<tag k="natural" v="cape" />
		<tag k="ssr:stedsnr" v="159893" />
	</node>
	<node lat="62.72131944202712" lon="7.779027784863423" id="-4918">
		<tag k="name" v="Plasseskjæret" />
		<tag k="natural" v="water" />
		<tag k="ssr:stedsnr" v="159897" />
		<tag k="water" v="lake" />
	</node>
	<node lat="62.74268611016586" lon="7.955777769420706" id="-4920">
		<tag k="name" v="Gauprørelva" />
		<tag k="ssr:stedsnr" v="159960" />
		<tag k="waterway" v="stream" />
	</node>
	<node lat="62.724977777950485" lon="7.908877776532822" id="-4922">
		<tag k="name" v="Fonnabekken" />
		<tag k="ssr:stedsnr" v="159970" />
		<tag k="waterway" v="stream" />
	</node>
	<node lat="62.6905000012709" lon="8.011158332278734" id="-4931">
		<tag k="name" v="Sveingrova" />
		<tag k="ssr:stedsnr" v="159843" />
		<tag k="waterway" v="stream" />
	</node>
	<node lat="62.69729167014607" lon="8.107072229104151" id="-4933">
		<tag k="name" v="Bjørndalsbekken" />
		<tag k="ssr:stedsnr" v="159845" />
		<tag k="waterway" v="stream" />
	</node>
	<node lat="62.68938888591038" lon="8.019472220207781" id="-4934">
		<tag k="name" v="Kleivbekken" />
		<tag k="ssr:stedsnr" v="159847" />
		<tag k="waterway" v="stream" />
	</node>
	<node lat="62.64665833660645" lon="7.959361103603538" id="-4938">
		<tag k="name" v="Tverrelva" />
		<tag k="ssr:stedsnr" v="159922" />
		<tag k="waterway" v="river" />
	</node>
	<node lat="62.680161108387296" lon="7.994230550994129" id="-4940">
		<tag k="name" v="Bantjønna" />
		<tag k="natural" v="water" />
		<tag k="ssr:stedsnr" v="159980" />
	</node>
	<node lat="62.68318333291007" lon="7.968361106033427" id="-4941">
		<tag k="name" v="Bjørnskarbekken" />
		<tag k="ssr:stedsnr" v="159983" />
		<tag k="waterway" v="stream" />
	</node>
	<node lat="62.73883333645749" lon="7.053966676233768" id="-4964">
		<tag k="name" v="Haukabøelva" />
		<tag k="ssr:stedsnr" v="193111" />
		<tag k="waterway" v="river" />
	</node>
	<node lat="62.442424999665384" lon="8.190525000721646" id="-4966">
		<tag k="name" v="Bruåa" />
		<tag k="ssr:stedsnr" v="193116" />
		<tag k="waterway" v="river" />
	</node>
	<node lat="62.52567777425633" lon="8.149080548178727" id="-4967">
		<tag k="alt_name" v="Lavransfløten" />
		<tag k="name" v="Lavransfløta" />
		<tag k="natural" v="cape" />
		<tag k="ssr:stedsnr" v="193135" />
	</node>
	<node lat="62.4725277788485" lon="8.318236110131329" id="-4973">
		<tag k="name" v="Trollvatnet" />
		<tag k="natural" v="water" />
		<tag k="ssr:stedsnr" v="193150" />
	</node>
	<node lat="62.48552500450713" lon="8.367802778868848" id="-4975">
		<tag k="name" v="Stordalsvatnet" />
		<tag k="natural" v="water" />
		<tag k="ssr:stedsnr" v="193160" />
	</node>
	<node lat="62.451525001413714" lon="8.30943054596412" id="-4978">
		<tag k="alt_name" v="Ramnåna" />
		<tag k="name" v="Ramnåa" />
		<tag k="ssr:stedsnr" v="193175" />
		<tag k="waterway" v="stream" />
	</node>
	<node lat="62.45648889258027" lon="8.24874167427463" id="-4979">
		<tag k="alt_name" v="Litlvatnet" />
		<tag k="name" v="Litlevatnet" />
		<tag k="natural" v="water" />
		<tag k="ssr:stedsnr" v="193181" />
		<tag k="water" v="lake" />
	</node>
	<node lat="62.38782499769936" lon="8.42210000725493" id="-4982">
		<tag k="name" v="Inste Seljefonnbekken" />
		<tag k="ssr:stedsnr" v="193324" />
		<tag k="waterway" v="stream" />
	</node>
	<node lat="62.662397220272275" lon="8.08637221575949" id="-4985">
		<tag k="name" v="Ugla" />
		<tag k="ssr:stedsnr" v="193258" />
		<tag k="waterway" v="stream" />
	</node>
	<node lat="62.38944999738328" lon="8.499699999873213" id="-4990">
		<tag k="name" v="Kløvåa" />
		<tag k="ssr:stedsnr" v="193387" />
		<tag k="waterway" v="stream" />
	</node>
	<node lat="62.77690555562741" lon="7.899422228082708" id="-4995">
		<tag k="name" v="Kvamlielva" />
		<tag k="ssr:stedsnr" v="193604" />
		<tag k="waterway" v="stream" />
	</node>
	<node lat="62.70733055491077" lon="7.520711107644886" id="-5009">
		<tag k="name" v="Langvatnet" />
		<tag k="natural" v="water" />
		<tag k="ssr:stedsnr" v="193678" />
	</node>
	<node lat="62.72909721948365" lon="7.5125388889435305" id="-5012">
		<tag k="name" v="Lomtjerna" />
		<tag k="natural" v="water" />
		<tag k="ssr:stedsnr" v="193794" />
	</node>
	<node lat="62.77902499800841" lon="7.316366659934309" id="-5016">
		<tag k="name" v="Kordalselva" />
		<tag k="ssr:stedsnr" v="193803" />
		<tag k="waterway" v="stream" />
	</node>
	<node lat="62.690058335070894" lon="7.963391661384743" id="-5023">
		<tag k="name" v="Visa" />
		<tag k="ssr:stedsnr" v="194247" />
		<tag k="waterway" v="river" />
	</node>
	<node lat="62.69913888808204" lon="8.17052221517015" id="-5026">
		<tag k="name" v="Driva" />
		<tag k="ssr:stedsnr" v="194273" />
		<tag k="waterway" v="stream" />
	</node>
	<node lat="62.61814444008998" lon="7.919008340699379" id="-5030">
		<tag k="name" v="Kjøvskardvatnet" />
		<tag k="natural" v="water" />
		<tag k="ssr:stedsnr" v="194319" />
	</node>
	<node lat="62.824857948708576" lon="8.064783136431613" id="-5035">
		<tag k="name" v="Raudsandvatnet" />
		<tag k="natural" v="water" />
		<tag k="ssr:stedsnr" v="194494" />
		<tag k="water" v="lake" />
	</node>
	<node lat="62.79275555827363" lon="7.383252776128056" id="-5042">
		<tag k="name" v="Tjørnin" />
		<tag k="natural" v="water" />
		<tag k="ssr:stedsnr" v="194738" />
	</node>
	<node lat="62.82019722107393" lon="7.468138886290265" id="-5045">
		<tag k="name" v="Litlevatnet" />
		<tag k="natural" v="water" />
		<tag k="ssr:stedsnr" v="194730" />
	</node>
	<node lat="62.765647226675284" lon="7.1479444531716965" id="-5046">
		<tag k="name" v="Bjørsettjørna" />
		<tag k="natural" v="water" />
		<tag k="ssr:stedsnr" v="194851" />
	</node>
	<node lat="62.7227749995271" lon="6.9304972150403374" id="-5081">
		<tag k="name" v="Svinnsetelva" />
		<tag k="ssr:stedsnr" v="212541" />
		<tag k="waterway" v="stream" />
	</node>
	<node lat="62.71083610807819" lon="7.590850000383316" id="-5087">
		<tag k="name" v="Seglå" />
		<tag k="ssr:stedsnr" v="213517" />
		<tag k="waterway" v="stream" />
	</node>
	<node lat="62.65717777690328" lon="7.355797223947454" id="-5100">
		<tag k="name" v="Hagaelva" />
		<tag k="ssr:stedsnr" v="216156" />
		<tag k="waterway" v="stream" />
	</node>
	<node lat="62.792333330995426" lon="7.414930550391298" id="-5106">
		<tag k="name" v="Fjellrevvatnet" />
		<tag k="natural" v="water" />
		<tag k="ssr:stedsnr" v="217116" />
	</node>
	<node lat="62.86094444717791" lon="7.747427784033723" id="-5112">
		<tag k="name" v="Trollvasstjørna" />
		<tag k="natural" v="water" />
		<tag k="ssr:stedsnr" v="217188" />
	</node>
	<node lat="62.816655558084186" lon="7.528538890032258" id="-5122">
		<tag k="name" v="Løken" />
		<tag k="ssr:stedsnr" v="217351" />
		<tag k="waterway" v="stream" />
	</node>
	<node lat="62.69981110767368" lon="7.459933327865165" id="-5131">
		<tag k="name" v="Tømmerløypet" />
		<tag k="place" v="locality" />
		<tag k="ssr:stedsnr" v="217644" />
	</node>
	<node lat="62.69804166671046" lon="7.465780558096671" id="-5142">
		<tag k="name" v="Bergsvikgrova" />
		<tag k="ssr:stedsnr" v="217855" />
		<tag k="waterway" v="stream" />
	</node>
	<node lat="62.750152780081486" lon="7.740205557115333" id="-5152">
		<tag k="name" v="Akselelva" />
		<tag k="ssr:stedsnr" v="219712" />
		<tag k="waterway" v="river" />
	</node>
	<node lat="62.80800277539287" lon="7.926874999123789" id="-5161">
		<tag k="name" v="Seterbekken" />
		<tag k="ssr:stedsnr" v="219553" />
		<tag k="waterway" v="stream" />
	</node>
	<node lat="62.70406666826312" lon="7.803988893897299" id="-5171">
		<tag k="name" v="Gammelseterbekken" />
		<tag k="ssr:stedsnr" v="219918" />
		<tag k="waterway" v="stream" />
	</node>
	<node lat="62.720258336784326" lon="8.139705554590691" id="-5172">
		<tag k="name" v="Godvikelva" />
		<tag k="ssr:stedsnr" v="220398" />
		<tag k="waterway" v="river" />
	</node>
	<node lat="62.71336666460046" lon="8.139830557959103" id="-5173">
		<tag k="name" v="Langfonna" />
		<tag k="ssr:stedsnr" v="220401" />
		<tag k="waterway" v="stream" />
	</node>
	<node lat="62.78721666680443" lon="7.897752774504331" id="-5176">
		<tag k="alt_name" v="Gammelseterelva" />
		<tag k="name" v="Attaste Gammelseterelva" />
		<tag k="ssr:stedsnr" v="220518" />
		<tag k="waterway" v="river" />
	</node>
	<node lat="62.835202779731446" lon="8.021563881535313" id="-5177">
		<tag k="name" v="Svartkollbekken" />
		<tag k="ssr:stedsnr" v="220591" />
		<tag k="waterway" v="stream" />
	</node>
	<node lat="62.77704999808478" lon="7.85941110730269" id="-5185">
		<tag k="name" v="Botnaelva" />
		<tag k="ssr:stedsnr" v="220632" />
		<tag k="waterway" v="river" />
	</node>
	<node lat="62.800766670978085" lon="7.806669453556987" id="-5189">
		<tag k="name" v="Holneset" />
		<tag k="natural" v="cape" />
		<tag k="ssr:stedsnr" v="220719" />
	</node>
	<node lat="62.57240833246966" lon="8.144961108093362" id="-5190">
		<tag k="name" v="Storåvika" />
		<tag k="natural" v="bay" />
		<tag k="ssr:stedsnr" v="220879" />
	</node>
	<node lat="62.763961109116835" lon="7.855783334367135" id="-5192">
		<tag k="name" v="Hyttebekken" />
		<tag k="ssr:stedsnr" v="220650" />
		<tag k="waterway" v="stream" />
	</node>
	<node lat="62.46005278216424" lon="8.22743610590114" id="-5195">
		<tag k="name" v="Seljevika" />
		<tag k="natural" v="bay" />
		<tag k="ssr:stedsnr" v="220831" />
	</node>
	<node lat="62.77988888668529" lon="7.486361106750063" id="-5228">
		<tag k="name" v="Hagagrova" />
		<tag k="ssr:stedsnr" v="277052" />
		<tag k="waterway" v="stream" />
	</node>
	<node lat="62.77119444614178" lon="7.439819453470826" id="-5230">
		<tag k="name" v="Kjerringgrova" />
		<tag k="ssr:stedsnr" v="277056" />
		<tag k="waterway" v="stream" />
	</node>
	<node lat="62.774147220184396" lon="7.432758338265317" id="-5231">
		<tag k="name" v="Øygardselva" />
		<tag k="ssr:stedsnr" v="277058" />
		<tag k="waterway" v="river" />
	</node>
	<node lat="62.748594442486734" lon="7.630938881487754" id="-5238">
		<tag k="name" v="Fonna" />
		<tag k="ssr:stedsnr" v="277152" />
		<tag k="waterway" v="stream" />
	</node>
	<node lat="62.80656666529946" lon="7.7809444524184395" id="-5239">
		<tag k="name" v="Aspelundrøysa" />
		<tag k="natural" v="beach" />
		<tag k="ssr:stedsnr" v="277158" />
	</node>
	<node lat="62.85610277767482" lon="7.739394441205266" id="-5241">
		<tag k="name" v="Skeistubekken" />
		<tag k="ssr:stedsnr" v="277162" />
		<tag k="waterway" v="stream" />
	</node>
	<node lat="62.77521388460857" lon="7.281691674655601" id="-5252">
		<tag k="name" v="Hausåa" />
		<tag k="ssr:stedsnr" v="277288" />
		<tag k="waterway" v="stream" />
	</node>
	<node lat="62.76903889045758" lon="7.78753610151542" id="-5257">
		<tag k="name" v="Svabekken" />
		<tag k="ssr:stedsnr" v="277655" />
		<tag k="waterway" v="stream" />
	</node>
	<node lat="62.62781666295103" lon="8.129358335509433" id="-5284">
		<tag k="name" v="Ellefsvika" />
		<tag k="natural" v="bay" />
		<tag k="ssr:stedsnr" v="280438" />
	</node>
	<node lat="62.75747499800937" lon="7.816238889895289" id="-5290">
		<tag k="name" v="Skjeringsåa" />
		<tag k="ssr:stedsnr" v="280605" />
		<tag k="waterway" v="stream" />
	</node>
	<node lat="62.663208335861434" lon="8.075063894085746" id="-5296">
		<tag k="name" v="Lomstjønna" />
		<tag k="natural" v="water" />
		<tag k="ssr:stedsnr" v="280100" />
	</node>
	<node lat="62.62686666898625" lon="8.12917221902873" id="-5312">
		<tag k="name" v="Rytingen" />
		<tag k="natural" v="cape" />
		<tag k="ssr:stedsnr" v="280528" />
	</node>
	<node lat="62.79776389203252" lon="7.899705558654681" id="-5318">
		<tag k="name" v="Blåbergtjønna" />
		<tag k="natural" v="water" />
		<tag k="ssr:stedsnr" v="280501" />
	</node>
	<node lat="62.785038887335595" lon="7.872613881667251" id="-5327">
		<tag k="name" v="Lykkjevatnet" />
		<tag k="natural" v="water" />
		<tag k="ssr:stedsnr" v="280627" />
		<tag k="water" v="lake" />
	</node>
	<node lat="62.782247221039036" lon="7.848622231653519" id="-5329">
		<tag k="name" v="Skjørlibekken" />
		<tag k="ssr:stedsnr" v="280634" />
		<tag k="waterway" v="stream" />
	</node>
	<node lat="62.757863886390986" lon="7.761608328126953" id="-5330">
		<tag k="name" v="Kjemelva" />
		<tag k="ssr:stedsnr" v="280643" />
		<tag k="waterway" v="stream" />
	</node>
	<node lat="62.74231944009274" lon="7.723774999923156" id="-5332">
		<tag k="name" v="Seterdammen" />
		<tag k="natural" v="water" />
		<tag k="ssr:stedsnr" v="280721" />
	</node>
	<node lat="62.67091666510723" lon="7.880041674765328" id="-5339">
		<tag k="name" v="Fallfossen" />
		<tag k="ssr:stedsnr" v="280884" />
		<tag k="waterway" v="rapids" />
	</node>
	<node lat="62.7259888864402" lon="7.902533324239587" id="-5348">
		<tag k="name" v="Blombekken" />
		<tag k="ssr:stedsnr" v="280961" />
		<tag k="waterway" v="stream" />
	</node>
	<node lat="62.54276944759831" lon="8.149566662194058" id="-5382">
		<tag k="name" v="Fløtelva" />
		<tag k="ssr:stedsnr" v="315123" />
		<tag k="waterway" v="stream" />
	</node>
	<node lat="62.60269444622609" lon="8.171383329414047" id="-5384">
		<tag k="name" v="Fløta" />
		<tag k="natural" v="cape" />
		<tag k="ssr:stedsnr" v="315287" />
	</node>
	<node lat="62.6438361121364" lon="7.832863883016077" id="-5396">
		<tag k="name" v="Måsvatnet" />
		<tag k="natural" v="water" />
		<tag k="ssr:stedsnr" v="315246" />
		<tag k="water" v="lake" />
	</node>
	<node lat="62.77038889024325" lon="7.731161103794389" id="-5408">
		<tag k="name" v="Sotådalen" />
		<tag k="ssr:stedsnr" v="315587" />
		<tag k="waterway" v="stream" />
	</node>
	<node lat="62.72315277756831" lon="7.528605546605024" id="-5422">
		<tag k="name" v="Skålvatna" />
		<tag k="natural" v="water" />
		<tag k="ssr:stedsnr" v="315780" />
	</node>
	<node lat="62.37389999779904" lon="8.356316675623686" id="-5445">
		<tag k="name" v="Langtjønnelva" />
		<tag k="ssr:stedsnr" v="331458" />
		<tag k="waterway" v="river" />
	</node>
	<node lat="62.799508334335265" lon="7.653180559404275" id="-5480">
		<tag k="name" v="Kleiveelva" />
		<tag k="ssr:stedsnr" v="338021" />
		<tag k="waterway" v="stream" />
	</node>
	<node lat="62.80018055674476" lon="7.684480561647299" id="-5481">
		<tag k="name" v="Istadelva" />
		<tag k="ssr:stedsnr" v="338023" />
		<tag k="waterway" v="river" />
	</node>
	<node lat="62.82931111042966" lon="7.4509611107824885" id="-5490">
		<tag k="name" v="Litlvassgrova" />
		<tag k="ssr:stedsnr" v="338082" />
		<tag k="waterway" v="river" />
	</node>
	<node lat="62.757619443198564" lon="7.487611106343855" id="-5530">
		<tag k="name" v="Strandsgrova" />
		<tag k="ssr:stedsnr" v="338863" />
		<tag k="waterway" v="stream" />
	</node>
	<node lat="62.77648055339319" lon="7.321158327114267" id="-5535">
		<tag k="name" v="Tjønnseterløken" />
		<tag k="ssr:stedsnr" v="338884" />
		<tag k="waterway" v="stream" />
	</node>
	<node lat="62.76182221886105" lon="7.627213881945066" id="-5538">
		<tag k="name" v="Skjenvassløken" />
		<tag k="ssr:stedsnr" v="338928" />
		<tag k="waterway" v="stream" />
	</node>
	<node lat="62.66908611324097" lon="7.23309444480534" id="-5539">
		<tag k="name" v="Kobbeneset" />
		<tag k="natural" v="cape" />
		<tag k="ssr:stedsnr" v="338936" />
	</node>
	<node lat="62.64174444139201" lon="8.07836944711105" id="-5543">
		<tag k="name" v="Slettlibekken" />
		<tag k="ssr:stedsnr" v="341062" />
		<tag k="waterway" v="stream" />
	</node>
	<node lat="62.690386113402695" lon="8.104302769394637" id="-5550">
		<tag k="name" v="Kvernabekken" />
		<tag k="ssr:stedsnr" v="340370" />
		<tag k="waterway" v="stream" />
	</node>
	<node lat="62.61099166425016" lon="8.123699998731384" id="-5551">
		<tag k="name" v="Svarthammarbekken" />
		<tag k="ssr:stedsnr" v="340424" />
		<tag k="waterway" v="stream" />
	</node>
	<node lat="62.812688885407724" lon="7.974388891562914" id="-5571">
		<tag k="name" v="Kjerringbekken" />
		<tag k="ssr:stedsnr" v="341526" />
		<tag k="waterway" v="stream" />
	</node>
	<node lat="62.79052500341597" lon="8.155377786522003" id="-5576">
		<tag k="name" v="Mehaugbekken" />
		<tag k="ssr:stedsnr" v="341389" />
		<tag k="waterway" v="stream" />
	</node>
	<node lat="62.799647224899545" lon="8.025016661790806" id="-5577">
		<tag k="name" v="Nedre Solbjørvatnet" />
		<tag k="natural" v="water" />
		<tag k="ssr:stedsnr" v="341471" />
	</node>
	<node lat="62.812847218958986" lon="7.874063895607465" id="-5582">
		<tag k="name" v="Høgedalsbekken" />
		<tag k="ssr:stedsnr" v="341576" />
		<tag k="waterway" v="stream" />
	</node>
	<node lat="62.42653888726821" lon="8.296150004651247" id="-5588">
		<tag k="name" v="Avlshammarbekken" />
		<tag k="ssr:stedsnr" v="341813" />
		<tag k="waterway" v="stream" />
	</node>
	<node lat="62.43356944739589" lon="8.295708328135586" id="-5589">
		<tag k="name" v="Tvettarholmen" />
		<tag k="place" v="island" />
		<tag k="ssr:stedsnr" v="341816" />
	</node>
	<node lat="62.664219445534336" lon="8.018944445574665" id="-5590">
		<tag k="name" v="Rishaugbekken" />
		<tag k="ssr:stedsnr" v="341835" />
		<tag k="waterway" v="stream" />
	</node>
	<node lat="62.67250555489938" lon="6.6150027782553185" id="-5616">
		<tag k="name" v="Stordalsvatnet" />
		<tag k="natural" v="water" />
		<tag k="ssr:stedsnr" v="375942" />
	</node>
	<node lat="62.67908888519249" lon="8.237444440448499" id="-5620">
		<tag k="name" v="Dokkelva" />
		<tag k="ssr:stedsnr" v="375035" />
		<tag k="waterway" v="stream" />
	</node>
	<node lat="62.3908194415548" lon="8.244025001399887" id="-5631">
		<tag k="name" v="Øvre Høvelvatnet" />
		<tag k="natural" v="water" />
		<tag k="ssr:stedsnr" v="375290" />
	</node>
	<node lat="62.61416388676476" lon="8.17123888968559" id="-5632">
		<tag k="name" v="Stranda" />
		<tag k="natural" v="beach" />
		<tag k="ssr:stedsnr" v="375295" />
	</node>
	<node lat="62.414850002177104" lon="8.402761109325594" id="-5638">
		<tag k="name" v="Ytste Bukkeskredbekken" />
		<tag k="ssr:stedsnr" v="375276" />
		<tag k="waterway" v="stream" />
	</node>
	<node lat="62.79009444280074" lon="7.9550750020379795" id="-5647">
		<tag k="name" v="Bekkavatnet" />
		<tag k="natural" v="water" />
		<tag k="ssr:stedsnr" v="375566" />
	</node>
	<node lat="62.8308583339015" lon="7.805197212533192" id="-5660">
		<tag k="name" v="Botterlielva" />
		<tag k="ssr:stedsnr" v="376539" />
		<tag k="waterway" v="stream" />
	</node>
	<node lat="62.819786113606405" lon="7.937794444729295" id="-5661">
		<tag k="name" v="Botnabekken" />
		<tag k="ssr:stedsnr" v="376551" />
		<tag k="waterway" v="stream" />
	</node>
	<node lat="62.79571666621105" lon="7.957933324003846" id="-5666">
		<tag k="name" v="Holmsvatnet" />
		<tag k="natural" v="water" />
		<tag k="ssr:stedsnr" v="376598" />
	</node>
	<node lat="62.69020833509865" lon="6.751783329542969" id="-5693">
		<tag k="name" v="Hestelielva" />
		<tag k="ssr:stedsnr" v="394350" />
		<tag k="waterway" v="stream" />
	</node>
	<node lat="62.70823611551818" lon="6.7045083307268545" id="-5702">
		<tag k="name" v="Våtå" />
		<tag k="ssr:stedsnr" v="394577" />
		<tag k="waterway" v="river" />
	</node>
	<node lat="62.68806667073238" lon="6.747358332929264" id="-5703">
		<tag k="name" v="Lappedalselva" />
		<tag k="ssr:stedsnr" v="394657" />
		<tag k="waterway" v="river" />
	</node>
	<node lat="62.82047222285398" lon="7.5233638822596935" id="-5717">
		<tag k="name" v="Fiskarneset" />
		<tag k="natural" v="cape" />
		<tag k="ssr:stedsnr" v="398047" />
	</node>
	<node lat="62.78921666930405" lon="7.5697750088436395" id="-5718">
		<tag k="name" v="Eidsgrova" />
		<tag k="ssr:stedsnr" v="398001" />
		<tag k="waterway" v="stream" />
	</node>
	<node lat="62.83208055601499" lon="7.479847214135069" id="-5723">
		<tag k="name" v="Middagsbekken" />
		<tag k="ssr:stedsnr" v="398098" />
		<tag k="waterway" v="stream" />
	</node>
	<node lat="62.768980552151326" lon="7.5717138864743445" id="-5727">
		<tag k="name" v="Teppinga" />
		<tag k="ssr:stedsnr" v="398182" />
		<tag k="waterway" v="dam" />
	</node>
	<node lat="62.83173889004301" lon="7.766266665042055" id="-5728">
		<tag k="name" v="Svarttjørna" />
		<tag k="natural" v="water" />
		<tag k="ssr:stedsnr" v="398184" />
	</node>
	<node lat="62.72072778214443" lon="7.417961114723945" id="-5730">
		<tag k="name" v="Osen" />
		<tag k="natural" v="bay" />
		<tag k="ssr:stedsnr" v="398142" />
	</node>
	<node lat="62.732252780929535" lon="7.459888897190965" id="-5731">
		<tag k="name" v="Fossen" />
		<tag k="natural" v="waterfall" />
		<tag k="ssr:stedsnr" v="398143" />
	</node>
	<node lat="62.74588333229895" lon="7.024891662246324" id="-5737">
		<tag k="name" v="Starratjønna" />
		<tag k="natural" v="water" />
		<tag k="ssr:stedsnr" v="398450" />
	</node>
	<node lat="62.73251666336104" lon="7.523636113186107" id="-5749">
		<tag k="name" v="Tverrelvfossen" />
		<tag k="natural" v="waterfall" />
		<tag k="ssr:stedsnr" v="398723" />
	</node>
	<node lat="62.790555555718505" lon="7.743866663799757" id="-5759">
		<tag k="name" v="Vasshaugløken" />
		<tag k="ssr:stedsnr" v="398762" />
		<tag k="waterway" v="stream" />
	</node>
	<node lat="62.77302499827909" lon="7.570888896876238" id="-5763">
		<tag k="name" v="Slettagrova" />
		<tag k="ssr:stedsnr" v="398921" />
		<tag k="waterway" v="stream" />
	</node>
	<node lat="62.724402774198644" lon="7.296405554060917" id="-5774">
		<tag k="name" v="Draghalsen" />
		<tag k="place" v="locality" />
		<tag k="ssr:stedsnr" v="399913" />
	</node>
	<node lat="62.68004166939892" lon="7.2791194424251495" id="-5776">
		<tag k="name" v="Storvikneset" />
		<tag k="natural" v="cape" />
		<tag k="ssr:stedsnr" v="399958" />
	</node>
	<node lat="62.67075000327397" lon="8.120005548716335" id="-5782">
		<tag k="name" v="Styrsøyna" />
		<tag k="natural" v="cape" />
		<tag k="ssr:stedsnr" v="401120" />
	</node>
	<node lat="62.620927777155025" lon="8.093452781184084" id="-5791">
		<tag k="name" v="Kvitnesbekken" />
		<tag k="ssr:stedsnr" v="401074" />
		<tag k="waterway" v="stream" />
	</node>
	<node lat="62.490688885175686" lon="8.14849721490133" id="-5809">
		<tag k="name" v="Mardalsneset" />
		<tag k="natural" v="cape" />
		<tag k="ssr:stedsnr" v="401818" />
	</node>
	<node lat="62.52436388938249" lon="8.172477782479012" id="-5810">
		<tag k="name" v="Skiftingsgrova" />
		<tag k="ssr:stedsnr" v="401823" />
		<tag k="waterway" v="stream" />
	</node>
	<node lat="62.77493055711372" lon="8.020900005673825" id="-5811">
		<tag k="name" v="Klokkarelva" />
		<tag k="ssr:stedsnr" v="402443" />
		<tag k="waterway" v="stream" />
	</node>
	<node lat="62.454749997244775" lon="8.244880547443552" id="-5818">
		<tag k="name" v="Ekornholmen" />
		<tag k="place" v="islet" />
		<tag k="ssr:stedsnr" v="401746" />
	</node>
	<node lat="62.57430278025948" lon="8.17926667222336" id="-5826">
		<tag k="name" v="Sandoddan" />
		<tag k="natural" v="cape" />
		<tag k="ssr:stedsnr" v="401834" />
	</node>
	<node lat="62.548363885304845" lon="8.185197227795026" id="-5827">
		<tag k="name" v="Steingjerdet" />
		<tag k="natural" v="beach" />
		<tag k="ssr:stedsnr" v="401836" />
	</node>
	<node lat="62.60645555303967" lon="8.171702782211236" id="-5828">
		<tag k="name" v="Fløtabukta" />
		<tag k="natural" v="bay" />
		<tag k="ssr:stedsnr" v="401841" />
	</node>
	<node lat="62.69451111333093" lon="7.9494694450192" id="-5839">
		<tag k="name" v="Fonnabekken" />
		<tag k="ssr:stedsnr" v="401974" />
		<tag k="waterway" v="stream" />
	</node>
	<node lat="62.7974777821533" lon="8.05782777333889" id="-5842">
		<tag k="name" v="Kleppvassholmen" />
		<tag k="place" v="islet" />
		<tag k="ssr:stedsnr" v="402459" />
	</node>
	<node lat="62.775344440858895" lon="7.9190111122713045" id="-5844">
		<tag k="name" v="Fosså" />
		<tag k="ssr:stedsnr" v="402661" />
		<tag k="waterway" v="stream" />
	</node>
	<node lat="62.774891664972884" lon="7.889738887891307" id="-5862">
		<tag k="name" v="Kvamlivatnet" />
		<tag k="natural" v="water" />
		<tag k="ssr:stedsnr" v="436580" />
	</node>
	<node lat="62.68604166811193" lon="8.011197225441753" id="-5870">
		<tag k="alt_name" v="Skarsåna" />
		<tag k="name" v="Skardselva" />
		<tag k="ssr:stedsnr" v="436283" />
		<tag k="waterway" v="stream" />
	</node>
	<node lat="62.41530833459851" lon="8.42665832409573" id="-5872">
		<tag k="name" v="Inste Bukkeskredbekken" />
		<tag k="ssr:stedsnr" v="436287" />
		<tag k="waterway" v="stream" />
	</node>
	<node lat="62.72819722401622" lon="7.9752222144447105" id="-5874">
		<tag k="name" v="Vasslivatnet" />
		<tag k="natural" v="water" />
		<tag k="ssr:stedsnr" v="436436" />
	</node>
	<node lat="62.49639166323255" lon="8.034538880353141" id="-5876">
		<tag k="name" v="Midthøtjønnin" />
		<tag k="natural" v="water" />
		<tag k="ssr:stedsnr" v="436068" />
	</node>
	<node lat="62.61950555476905" lon="7.854033333501243" id="-5885">
		<tag k="name" v="Svartevatnet" />
		<tag k="natural" v="water" />
		<tag k="ssr:stedsnr" v="436334" />
	</node>
	<node lat="62.77173888471044" lon="7.36923611984903" id="-5901">
		<tag k="name" v="Lomtjørna" />
		<tag k="natural" v="water" />
		<tag k="ssr:stedsnr" v="436783" />
	</node>
	<node lat="62.734930554903634" lon="7.664216662468646" id="-5904">
		<tag k="alt_name" v="Hoåna" />
		<tag k="name" v="Hoaelva" />
		<tag k="ssr:stedsnr" v="436793" />
		<tag k="waterway" v="stream" />
	</node>
	<node lat="62.766983334587714" lon="7.612988886620829" id="-5908">
		<tag k="name" v="Varsslivatnet" />
		<tag k="natural" v="water" />
		<tag k="ssr:stedsnr" v="436825" />
	</node>
	<node lat="62.67502777619623" lon="6.623161107525678" id="-5915">
		<tag k="name" v="Svartevatnet" />
		<tag k="natural" v="water" />
		<tag k="ssr:stedsnr" v="436952" />
	</node>
	<node lat="62.82707778162541" lon="7.7945750096392175" id="-5924">
		<tag k="name" v="Bøbekken" />
		<tag k="ssr:stedsnr" v="437545" />
		<tag k="waterway" v="stream" />
	</node>
	<node lat="62.804244446472765" lon="7.448530551370758" id="-5929">
		<tag k="name" v="Måsvatnet" />
		<tag k="natural" v="water" />
		<tag k="ssr:stedsnr" v="437720" />
	</node>
	<node lat="62.55221389143266" lon="8.19367221927171" id="-5954">
		<tag k="name" v="Ålebekken" />
		<tag k="ssr:stedsnr" v="496126" />
		<tag k="waterway" v="stream" />
	</node>
	<node lat="62.4675111154343" lon="8.28806110744914" id="-5956">
		<tag k="name" v="Trollvassåa" />
		<tag k="ssr:stedsnr" v="496186" />
		<tag k="waterway" v="stream" />
	</node>
	<node lat="62.469980555232766" lon="8.383166658446772" id="-5958">
		<tag k="name" v="Stordalsåa" />
		<tag k="ssr:stedsnr" v="496191" />
		<tag k="waterway" v="river" />
	</node>
	<node lat="62.678294444881644" lon="7.9128111080087455" id="-5960">
		<tag k="name" v="Svagrova" />
		<tag k="ssr:stedsnr" v="497273" />
		<tag k="waterway" v="stream" />
	</node>
	<node lat="62.61306666383625" lon="8.012866670027956" id="-5962">
		<tag k="name" v="Slenesvatnet" />
		<tag k="natural" v="water" />
		<tag k="ssr:stedsnr" v="497359" />
	</node>
	<node lat="62.485205554629594" lon="8.186552773991249" id="-5967">
		<tag k="name" v="Tyvikgrova" />
		<tag k="ssr:stedsnr" v="497067" />
		<tag k="waterway" v="stream" />
	</node>
	<node lat="62.46873055499398" lon="8.057230560076885" id="-5970">
		<tag k="name" v="Grønbottstjønna" />
		<tag k="natural" v="water" />
		<tag k="ssr:stedsnr" v="497082" />
	</node>
	<node lat="62.6070833345956" lon="8.075291661891303" id="-5974">
		<tag k="name" v="Røndølskardvatnet" />
		<tag k="natural" v="water" />
		<tag k="ssr:stedsnr" v="497332" />
	</node>
	<node lat="62.86913333762416" lon="7.7612611165398215" id="-5978">
		<tag k="name" v="Trollvatnet" />
		<tag k="natural" v="water" />
		<tag k="ssr:stedsnr" v="497492" />
		<tag k="water" v="lake" />
	</node>
	<node lat="62.74473055730725" lon="7.507052782941306" id="-5980">
		<tag k="name" v="Røa" />
		<tag k="ssr:stedsnr" v="497772" />
		<tag k="waterway" v="river" />
	</node>
	<node lat="62.76739722682454" lon="7.378802786396513" id="-5984">
		<tag k="name" v="Lønsetelva" />
		<tag k="ssr:stedsnr" v="497787" />
		<tag k="waterway" v="stream" />
	</node>
	<node lat="62.639111109373" lon="8.067369443252263" id="-5986">
		<tag k="name" v="Slettlibekken" />
		<tag k="ssr:stedsnr" v="497369" />
		<tag k="waterway" v="stream" />
	</node>
	<node lat="62.77046388933464" lon="8.227424993672896" id="-5987">
		<tag k="name" v="Fredsvikelva" />
		<tag k="ssr:stedsnr" v="497373" />
		<tag k="waterway" v="stream" />
	</node>
	<node lat="62.830611110977294" lon="7.654361115018786" id="-5997">
		<tag k="name" v="Trollåa" />
		<tag k="ssr:stedsnr" v="497736" />
		<tag k="waterway" v="stream" />
	</node>
	<node lat="62.81654444679782" lon="7.91550277588494" id="-6004">
		<tag k="name" v="Store Vetavatnet" />
		<tag k="natural" v="water" />
		<tag k="ssr:stedsnr" v="498615" />
		<tag k="water" v="lake" />
	</node>
	<node lat="62.794263891892825" lon="7.876461114795152" id="-6005">
		<tag k="name" v="Jutulbekken" />
		<tag k="ssr:stedsnr" v="498624" />
		<tag k="waterway" v="stream" />
	</node>
	<node lat="62.664369446531715" lon="6.614811119034505" id="-6018">
		<tag k="name" v="Åndalsvatnet" />
		<tag k="natural" v="water" />
		<tag k="ssr:stedsnr" v="515005" />
		<tag k="water" v="lake" />
	</node>
	<node lat="62.76260833604141" lon="7.518705546957888" id="-6045">
		<tag k="name" v="Finnelgrova" />
		<tag k="ssr:stedsnr" v="519985" />
		<tag k="waterway" v="stream" />
	</node>
	<node lat="62.79505555917009" lon="7.544844453389975" id="-6048">
		<tag k="name" v="Roaldsetøyna" />
		<tag k="place" v="island" />
		<tag k="ssr:stedsnr" v="520050" />
	</node>
	<node lat="62.79127222003057" lon="7.317911106269205" id="-6049">
		<tag k="name" v="Løkan" />
		<tag k="ssr:stedsnr" v="520055" />
		<tag k="waterway" v="stream" />
	</node>
	<node lat="62.76045833538152" lon="7.486913881094302" id="-6050">
		<tag k="name" v="Bytgrova" />
		<tag k="ssr:stedsnr" v="520133" />
		<tag k="waterway" v="stream" />
	</node>
	<node lat="62.75569167033398" lon="7.5409777860826965" id="-6051">
		<tag k="name" v="Orøyra" />
		<tag k="natural" v="cape" />
		<tag k="ssr:stedsnr" v="520156" />
	</node>
	<node lat="62.76817500137089" lon="7.322727778955156" id="-6053">
		<tag k="name" v="Svarthammargrova" />
		<tag k="ssr:stedsnr" v="520077" />
		<tag k="waterway" v="stream" />
	</node>
	<node lat="62.835388890375675" lon="7.751422231953084" id="-6058">
		<tag k="name" v="Årstøbekken" />
		<tag k="ssr:stedsnr" v="520192" />
		<tag k="waterway" v="stream" />
	</node>
	<node lat="62.792150002633626" lon="7.381111115046462" id="-6063">
		<tag k="name" v="Tjønnene" />
		<tag k="natural" v="water" />
		<tag k="ssr:stedsnr" v="520232" />
	</node>
	<node lat="62.80818888620255" lon="7.8090083285484235" id="-6065">
		<tag k="name" v="Øyan" />
		<tag k="place" v="island" />
		<tag k="ssr:stedsnr" v="520248" />
	</node>
	<node lat="62.82495833711115" lon="7.654086111363986" id="-6073">
		<tag k="name" v="Storelva" />
		<tag k="ssr:stedsnr" v="520335" />
		<tag k="waterway" v="river" />
	</node>
	<node lat="62.776180558623984" lon="7.642694437872425" id="-6077">
		<tag k="name" v="Ullalandselva" />
		<tag k="ssr:stedsnr" v="520952" />
		<tag k="waterway" v="stream" />
	</node>
	<node lat="62.79476110836965" lon="7.734938893156363" id="-6082">
		<tag k="name" v="Nordhaughølen" />
		<tag k="place" v="locality" />
		<tag k="ssr:stedsnr" v="520793" />
	</node>
	<node lat="62.501072224581975" lon="8.171497229007535" id="-6108">
		<tag k="name" v="Skråvika" />
		<tag k="natural" v="bay" />
		<tag k="ssr:stedsnr" v="522130" />
	</node>
	<node lat="62.45161944527267" lon="8.261544436124042" id="-6113">
		<tag k="name" v="Keila" />
		<tag k="natural" v="bay" />
		<tag k="ssr:stedsnr" v="523072" />
	</node>
	<node lat="62.80351944680536" lon="8.093177777706234" id="-6119">
		<tag k="name" v="Gjerdbekken" />
		<tag k="ssr:stedsnr" v="523473" />
		<tag k="waterway" v="stream" />
	</node>
	<node lat="62.81810277330327" lon="8.116608327141993" id="-6123">
		<tag k="name" v="Stormyrbekken" />
		<tag k="ssr:stedsnr" v="523354" />
		<tag k="waterway" v="stream" />
	</node>
	<node lat="62.783438890341635" lon="7.981936110323877" id="-6130">
		<tag k="name" v="Kamtjønna" />
		<tag k="natural" v="water" />
		<tag k="ssr:stedsnr" v="523539" />
	</node>
	<node lat="62.80288333678129" lon="8.021511114824047" id="-6133">
		<tag k="name" v="Øvre Solbjørvatnet" />
		<tag k="natural" v="water" />
		<tag k="ssr:stedsnr" v="523505" />
	</node>
	<node lat="62.68618888756396" lon="8.20823055832078" id="-6139">
		<tag k="name" v="Heimste Tverrelva" />
		<tag k="ssr:stedsnr" v="523848" />
		<tag k="waterway" v="river" />
	</node>
	<node lat="62.510938889992566" lon="8.173569450848607" id="-6140">
		<tag k="name" v="Inste Bjørkelva" />
		<tag k="ssr:stedsnr" v="523856" />
		<tag k="waterway" v="river" />
	</node>
	<node lat="62.719658336774124" lon="7.7860805588795" id="-6149">
		<tag k="name" v="Bjørgrova" />
		<tag k="ssr:stedsnr" v="523901" />
		<tag k="waterway" v="stream" />
	</node>
	<node lat="62.68816944233977" lon="7.9762861123903965" id="-6153">
		<tag k="name" v="Garsteinhølen" />
		<tag k="place" v="locality" />
		<tag k="ssr:stedsnr" v="523978" />
	</node>
	<node lat="62.77374166498859" lon="8.116508336547282" id="-6173">
		<tag k="alt_name" v="Teigsetbekken" />
		<tag k="name" v="Teigsetelva" />
		<tag k="ssr:stedsnr" v="557569" />
		<tag k="waterway" v="stream" />
	</node>
	<node lat="62.56176110855398" lon="8.15752500480514" id="-6175">
		<tag k="loc_name" v="Eikedalsvatnet" />
		<tag k="name" v="Eikesdalsvatnet" />
		<tag k="natural" v="water" />
		<tag k="ssr:stedsnr" v="557068" />
		<tag k="water" v="lake" />
	</node>
	<node lat="62.478283335666845" lon="8.198458327241475" id="-6177">
		<tag k="name" v="Almelibekken" />
		<tag k="ssr:stedsnr" v="557073" />
		<tag k="waterway" v="stream" />
	</node>
	<node lat="62.455063888457595" lon="8.108908330169529" id="-6187">
		<tag k="name" v="Fossafjelltjønna" />
		<tag k="natural" v="water" />
		<tag k="ssr:stedsnr" v="557103" />
	</node>
	<node lat="62.66813611305151" lon="7.978936115760957" id="-6194">
		<tag k="name" v="Kjøvelva" />
		<tag k="ssr:stedsnr" v="557275" />
		<tag k="waterway" v="river" />
	</node>
	<node lat="62.61760277377292" lon="7.985586114335669" id="-6202">
		<tag k="name" v="Melkallvatna" />
		<tag k="natural" v="water" />
		<tag k="ssr:stedsnr" v="557338" />
	</node>
	<node lat="62.37580278223782" lon="8.274888891500078" id="-6203">
		<tag k="name" v="Litlevatnet" />
		<tag k="natural" v="water" />
		<tag k="ssr:stedsnr" v="557342" />
	</node>
	<node lat="62.76806666810336" lon="7.5642166753695435" id="-6207">
		<tag k="name" v="Teppinga" />
		<tag k="place" v="locality" />
		<tag k="ssr:stedsnr" v="557821" />
	</node>
	<node lat="62.66479166510393" lon="6.622752771850345" id="-6209">
		<tag k="name" v="Bløvatnet" />
		<tag k="natural" v="water" />
		<tag k="ssr:stedsnr" v="557940" />
	</node>
	<node lat="62.77581388896396" lon="7.171469453736364" id="-6228">
		<tag k="name" v="Holstjørna" />
		<tag k="natural" v="water" />
		<tag k="ssr:stedsnr" v="558871" />
	</node>
	<node lat="62.829186106938565" lon="7.824974994536778" id="-6229">
		<tag k="name" v="Storelva" />
		<tag k="ssr:stedsnr" v="558877" />
		<tag k="waterway" v="river" />
	</node>
	<node lat="62.76604444052674" lon="7.160300001034618" id="-6232">
		<tag k="name" v="Audunstjørnan" />
		<tag k="natural" v="water" />
		<tag k="ssr:stedsnr" v="558899" />
	</node>
	<node lat="62.82248888481123" lon="7.926352770310412" id="-6235">
		<tag k="name" v="Djupdalsbekken" />
		<tag k="ssr:stedsnr" v="558587" />
		<tag k="waterway" v="stream" />
	</node>
	<node lat="62.78195000009977" lon="7.266013882092127" id="-6272">
		<tag k="name" v="Botnegrova" />
		<tag k="ssr:stedsnr" v="580063" />
		<tag k="waterway" v="stream" />
	</node>
	<node lat="62.81052500139007" lon="7.777516665630737" id="-6289">
		<tag k="name" v="Heimbekken" />
		<tag k="ssr:stedsnr" v="580161" />
		<tag k="waterway" v="stream" />
	</node>
	<node lat="62.824016667070126" lon="7.510886101351637" id="-6290">
		<tag k="name" v="Dalagrova" />
		<tag k="ssr:stedsnr" v="580174" />
		<tag k="waterway" v="stream" />
	</node>
	<node lat="62.69811388993613" lon="7.451986113469053" id="-6302">
		<tag k="name" v="Storløypet" />
		<tag k="place" v="locality" />
		<tag k="ssr:stedsnr" v="580562" />
	</node>
	<node lat="62.70868055689243" lon="7.494291669104849" id="-6306">
		<tag k="name" v="Horgagrova" />
		<tag k="ssr:stedsnr" v="580577" />
		<tag k="waterway" v="stream" />
	</node>
	<node lat="62.79768889337474" lon="7.763519448218331" id="-6312">
		<tag k="name" v="Vasshaugneset" />
		<tag k="natural" v="cape" />
		<tag k="ssr:stedsnr" v="580795" />
	</node>
	<node lat="62.756913892581814" lon="7.47132777101917" id="-6313">
		<tag k="name" v="Strandselva" />
		<tag k="ssr:stedsnr" v="580830" />
		<tag k="waterway" v="stream" />
	</node>
	<node lat="62.7338194474056" lon="7.456677768094275" id="-6322">
		<tag k="name" v="Lauvåsgrova" />
		<tag k="ssr:stedsnr" v="580871" />
		<tag k="waterway" v="stream" />
	</node>
	<node lat="62.647938889918215" lon="7.296675004632073" id="-6324">
		<tag k="name" v="Hatleneset" />
		<tag k="natural" v="cape" />
		<tag k="ssr:stedsnr" v="580911" />
	</node>
	<node lat="62.615166664471296" lon="8.120333326970565" id="-6326">
		<tag k="name" v="Meringdalselva" />
		<tag k="ssr:stedsnr" v="582427" />
		<tag k="waterway" v="river" />
	</node>
	<node lat="62.80683055439762" lon="8.143108337355278" id="-6337">
		<tag k="name" v="Gållatjønna" />
		<tag k="natural" v="water" />
		<tag k="ssr:stedsnr" v="583225" />
	</node>
	<node lat="62.79966111523636" lon="8.057999990673268" id="-6346">
		<tag k="name" v="Døftavatnet" />
		<tag k="natural" v="water" />
		<tag k="ssr:stedsnr" v="583436" />
	</node>
	<node lat="62.6851805582674" lon="8.11284722199885" id="-6352">
		<tag k="name" v="Løken" />
		<tag k="ssr:stedsnr" v="583516" />
		<tag k="waterway" v="stream" />
	</node>
	<node lat="62.68263889244463" lon="8.120719438470015" id="-6354">
		<tag k="name" v="Grytosholmen" />
		<tag k="place" v="islet" />
		<tag k="ssr:stedsnr" v="583376" />
	</node>
	<node lat="62.76898888703434" lon="7.890252784844724" id="-6358">
		<tag k="name" v="Tjellaelva" />
		<tag k="ssr:stedsnr" v="583474" />
		<tag k="waterway" v="stream" />
	</node>
	<node lat="62.80530278104884" lon="7.983477775634178" id="-6359">
		<tag k="name" v="Måsvasselva" />
		<tag k="ssr:stedsnr" v="583487" />
		<tag k="waterway" v="river" />
	</node>
	<node lat="62.80630277971983" lon="7.830697231117171" id="-6364">
		<tag k="name" v="Bakkesanden" />
		<tag k="natural" v="beach" />
		<tag k="ssr:stedsnr" v="583534" />
	</node>
	<node lat="62.66476388885589" lon="7.84958889768757" id="-6367">
		<tag k="name" v="Hardskarelva" />
		<tag k="ssr:stedsnr" v="583910" />
		<tag k="waterway" v="river" />
	</node>
	<node lat="62.618624997319394" lon="8.137344437003497" id="-6378">
		<tag k="name" v="Ytste Rotvika" />
		<tag k="natural" v="bay" />
		<tag k="ssr:stedsnr" v="583827" />
	</node>
	<node lat="62.61785833658392" lon="8.17040832609281" id="-6379">
		<tag k="name" v="Skråteigbukta" />
		<tag k="natural" v="bay" />
		<tag k="ssr:stedsnr" v="583830" />
	</node>
	<node lat="62.532461114829715" lon="8.151711114885572" id="-6382">
		<tag k="name" v="Rangågrunnå" />
		<tag k="natural" v="shoal" />
		<tag k="place" v="locality" />
		<tag k="ssr:stedsnr" v="583864" />
	</node>
	<node lat="62.50624166566789" lon="8.140566659481172" id="-6385">
		<tag k="name" v="Svartbekken" />
		<tag k="ssr:stedsnr" v="583870" />
		<tag k="waterway" v="stream" />
	</node>
	<node lat="62.57263055561095" lon="8.137694452006969" id="-6386">
		<tag k="name" v="Sigridfonna" />
		<tag k="ssr:stedsnr" v="583872" />
		<tag k="waterway" v="stream" />
	</node>
	<node lat="62.6902944453203" lon="7.879358339782037" id="-6389">
		<tag k="name" v="Grøvelfossen" />
		<tag k="natural" v="waterfall" />
		<tag k="ssr:stedsnr" v="583885" />
	</node>
	<node lat="62.68861944698936" lon="7.958300001624013" id="-6394">
		<tag k="name" v="Nyfonnbekken" />
		<tag k="ssr:stedsnr" v="583971" />
		<tag k="waterway" v="stream" />
	</node>
	<node lat="62.736675001443054" lon="6.913002775958326" id="-6421">
		<tag k="alt_name" v="Rongkallelva" />
		<tag k="name" v="Romkallelva" />
		<tag k="ssr:stedsnr" v="618104" />
		<tag k="waterway" v="stream" />
	</node>
	<node lat="62.554430553611624" lon="8.096413891336677" id="-6422">
		<tag k="name" v="Svartevatnet" />
		<tag k="natural" v="water" />
		<tag k="ssr:stedsnr" v="618123" />
	</node>
	<node lat="62.47596944291226" lon="8.122833325028527" id="-6432">
		<tag k="alt_name" v="Inste Mardøla;Mardølå" />
		<tag k="name" v="Mardøla" />
		<tag k="ssr:stedsnr" v="618073" />
		<tag k="waterway" v="river" />
	</node>
	<node lat="62.72555000194996" lon="8.194136111894057" id="-6438">
		<tag k="name" v="Storvatnet" />
		<tag k="natural" v="water" />
		<tag k="ssr:stedsnr" v="618448" />
	</node>
	<node lat="62.72610555962389" lon="7.875413891245879" id="-6442">
		<tag k="name" v="Sandneselva" />
		<tag k="ssr:stedsnr" v="618462" />
		<tag k="waterway" v="stream" />
	</node>
	<node lat="62.858944448623376" lon="7.762163887312992" id="-6444">
		<tag k="name" v="Trollåa" />
		<tag k="ssr:stedsnr" v="618491" />
		<tag k="waterway" v="stream" />
	</node>
	<node lat="62.746963892326924" lon="7.628336106566821" id="-6455">
		<tag k="name" v="Trollvatnet" />
		<tag k="natural" v="water" />
		<tag k="ssr:stedsnr" v="618742" />
	</node>
	<node lat="62.70885277697897" lon="7.538974997437855" id="-6460">
		<tag k="name" v="Årsetvatnet" />
		<tag k="natural" v="water" />
		<tag k="ssr:stedsnr" v="618664" />
	</node>
	<node lat="62.681305555578504" lon="6.698625006942937" id="-6462">
		<tag k="name" v="Midsundvatnet" />
		<tag k="natural" v="water" />
		<tag k="ssr:stedsnr" v="618964" />
	</node>
	<node lat="62.805255551147624" lon="7.967130555204117" id="-6464">
		<tag k="name" v="Måsvatnet" />
		<tag k="natural" v="water" />
		<tag k="ssr:stedsnr" v="619591" />
		<tag k="water" v="lake" />
	</node>
	<node lat="62.725002781487525" lon="6.830944443903887" id="-6496">
		<tag k="name" v="Ræstadelva" />
		<tag k="ssr:stedsnr" v="637644" />
		<tag k="waterway" v="river" />
	</node>
	<node lat="62.76879166980842" lon="7.590925004319612" id="-6509">
		<tag k="name" v="Bjerkalitjønna" />
		<tag k="natural" v="water" />
		<tag k="ssr:stedsnr" v="640969" />
	</node>
	<node lat="62.7766944404037" lon="7.469063888899258" id="-6510">
		<tag k="name" v="Morkagrova" />
		<tag k="ssr:stedsnr" v="641047" />
		<tag k="waterway" v="stream" />
	</node>
	<node lat="62.765258333501784" lon="7.594702786096902" id="-6522">
		<tag k="name" v="Løkan" />
		<tag k="ssr:stedsnr" v="641149" />
		<tag k="waterway" v="stream" />
	</node>
	<node lat="62.737433330500956" lon="7.036013884983097" id="-6526">
		<tag k="name" v="Mordalselva" />
		<tag k="ssr:stedsnr" v="641459" />
		<tag k="waterway" v="stream" />
	</node>
	<node lat="62.767308329977006" lon="7.172786114454561" id="-6531">
		<tag k="name" v="Amundtjønna" />
		<tag k="natural" v="water" />
		<tag k="ssr:stedsnr" v="641685" />
	</node>
	<node lat="62.76433888634051" lon="7.526558325040539" id="-6553">
		<tag k="name" v="Fransetgrova" />
		<tag k="ssr:stedsnr" v="641966" />
		<tag k="waterway" v="stream" />
	</node>
	<node lat="62.55927777603975" lon="8.13992500024505" id="-6555">
		<tag k="name" v="Bufonna" />
		<tag k="ssr:stedsnr" v="643121" />
		<tag k="waterway" v="stream" />
	</node>
	<node lat="62.799574998340816" lon="8.165063886541173" id="-6562">
		<tag k="name" v="Øraelva" />
		<tag k="ssr:stedsnr" v="643698" />
		<tag k="waterway" v="stream" />
	</node>
	<node lat="62.61585555689971" lon="8.145019451320529" id="-6567">
		<tag k="name" v="Kjerringflua" />
		<tag k="place" v="islet" />
		<tag k="ssr:stedsnr" v="644839" />
	</node>
	<node lat="62.73175833240314" lon="7.834394438112067" id="-6571">
		<tag k="name" v="Veitbekken" />
		<tag k="ssr:stedsnr" v="644940" />
		<tag k="waterway" v="stream" />
	</node>
	<node lat="62.77870555888621" lon="8.126680554138723" id="-6575">
		<tag k="name" v="Rughaugbekken" />
		<tag k="ssr:stedsnr" v="644429" />
		<tag k="waterway" v="stream" />
	</node>
	<node lat="62.81875555872524" lon="8.028819446342126" id="-6583">
		<tag k="name" v="Igletjønna" />
		<tag k="natural" v="water" />
		<tag k="ssr:stedsnr" v="644339" />
	</node>
	<node lat="62.4304750019185" lon="8.31156944605008" id="-6598">
		<tag k="name" v="Øyafonnbekken" />
		<tag k="ssr:stedsnr" v="644798" />
		<tag k="waterway" v="stream" />
	</node>
	<node lat="62.671680553117554" lon="7.869513891646795" id="-6602">
		<tag k="name" v="Fallbekken" />
		<tag k="ssr:stedsnr" v="644918" />
		<tag k="waterway" v="stream" />
	</node>
	<node lat="62.81946388797022" lon="7.869202769294743" id="-6606">
		<tag k="name" v="Brenseldalsbekken" />
		<tag k="ssr:stedsnr" v="644557" />
		<tag k="waterway" v="stream" />
	</node>
	<node lat="62.81320555825694" lon="7.895616661421373" id="-6609">
		<tag k="name" v="Blåbergtjønna" />
		<tag k="natural" v="water" />
		<tag k="ssr:stedsnr" v="644564" />
	</node>
	<node lat="62.64696388689568" lon="7.839097221411757" id="-6615">
		<tag k="name" v="Jutulbryggja" />
		<tag k="natural" v="shoal" />
		<tag k="place" v="locality" />
		<tag k="ssr:stedsnr" v="644921" />
	</node>
	<node lat="62.58636111501836" lon="8.184277778246987" id="-6651">
		<tag k="name" v="Tongelva" />
		<tag k="ssr:stedsnr" v="739163" />
		<tag k="waterway" v="stream" />
	</node>
	<node lat="62.44993611139579" lon="8.267219444890218" id="-6656">
		<tag k="name" v="Sundet" />
		<tag k="place" v="locality" />
		<tag k="ssr:stedsnr" v="739173" />
	</node>
	<node lat="62.71112500003699" lon="7.8533222296324405" id="-6661">
		<tag k="name" v="Elgenesvatnet" />
		<tag k="natural" v="water" />
		<tag k="ssr:stedsnr" v="739448" />
	</node>
	<node lat="62.730488892727884" lon="8.134213890197124" id="-6665">
		<tag k="name" v="Grytneselva" />
		<tag k="ssr:stedsnr" v="739472" />
		<tag k="waterway" v="stream" />
	</node>
	<node lat="62.76583055703694" lon="7.333105558434673" id="-6673">
		<tag k="name" v="Strandelva" />
		<tag k="ssr:stedsnr" v="739787" />
		<tag k="waterway" v="stream" />
	</node>
	<node lat="62.816144447202916" lon="7.506047216976171" id="-6678">
		<tag k="name" v="Kringla" />
		<tag k="natural" v="water" />
		<tag k="ssr:stedsnr" v="740749" />
	</node>
	<node lat="62.47127500272552" lon="8.120025002819776" id="-6691">
		<tag k="name" v="Mardalsfossen" />
		<tag k="natural" v="waterfall" />
		<tag k="ssr:stedsnr" v="740074" />
	</node>
	<node lat="62.50249444660378" lon="8.146811119532659" id="-6693">
		<tag k="alt_name" v="Jutneset" />
		<tag k="name" v="Djupneset" />
		<tag k="natural" v="cape" />
		<tag k="ssr:stedsnr" v="740216" />
	</node>
	<node lat="62.52142777520754" lon="8.171077785681621" id="-6695">
		<tag k="alt_name" v="Bjørk, ytre" />
		<tag k="name" v="Ytste Bjørk" />
		<tag k="natural" v="cape" />
		<tag k="ssr:stedsnr" v="740223" />
	</node>
	<node lat="62.853402776460186" lon="7.772358329667062" id="-6698">
		<tag k="name" v="Oltervatnet" />
		<tag k="natural" v="water" />
		<tag k="ssr:stedsnr" v="740476" />
	</node>
	<node lat="62.799991668663026" lon="7.772405550906109" id="-6705">
		<tag k="name" v="Osvatnet" />
		<tag k="natural" v="water" />
		<tag k="ssr:stedsnr" v="741648" />
		<tag k="water" v="lake" />
	</node>
	<node lat="62.81305833164069" lon="8.012566669584094" id="-6707">
		<tag k="name" v="Mørkvatnet" />
		<tag k="natural" v="water" />
		<tag k="ssr:stedsnr" v="741655" />
		<tag k="water" v="lake" />
	</node>
	<node lat="62.67714999702756" lon="6.739530546866141" id="-6733">
		<tag k="name" v="Rennelva" />
		<tag k="ssr:stedsnr" v="758389" />
		<tag k="waterway" v="stream" />
	</node>
	<node lat="62.758288892373976" lon="7.612141665412372" id="-6752">
		<tag k="name" v="Storelva" />
		<tag k="ssr:stedsnr" v="763193" />
		<tag k="waterway" v="river" />
	</node>
	<node lat="62.747719443975576" lon="7.231975003530102" id="-6756">
		<tag k="name" v="Katthola" />
		<tag k="natural" v="water" />
		<tag k="ssr:stedsnr" v="763283" />
	</node>
	<node lat="62.72956111523163" lon="7.426525002373262" id="-6765">
		<tag k="name" v="Bordvikløken" />
		<tag k="ssr:stedsnr" v="762837" />
		<tag k="waterway" v="stream" />
	</node>
	<node lat="62.7704999962472" lon="7.417447229800338" id="-6772">
		<tag k="name" v="Hatlaelva" />
		<tag k="ssr:stedsnr" v="763071" />
		<tag k="waterway" v="stream" />
	</node>
	<node lat="62.75356666637687" lon="7.262899999701268" id="-6778">
		<tag k="name" v="Årøelva" />
		<tag k="ssr:stedsnr" v="763335" />
		<tag k="waterway" v="river" />
	</node>
	<node lat="62.77798888742222" lon="7.7170194476703635" id="-6792">
		<tag k="name" v="Vadbakkløken" />
		<tag k="ssr:stedsnr" v="763925" />
		<tag k="waterway" v="stream" />
	</node>
	<node lat="62.80710000031554" lon="8.137941662875617" id="-6819">
		<tag k="name" v="Eidsmåltjønna" />
		<tag k="natural" v="water" />
		<tag k="ssr:stedsnr" v="765231" />
	</node>
	<node lat="62.82058055742851" lon="8.134197214166498" id="-6820">
		<tag k="name" v="Bersåselva" />
		<tag k="ssr:stedsnr" v="765253" />
		<tag k="waterway" v="river" />
	</node>
	<node lat="62.73475277483428" lon="7.716427782148092" id="-6823">
		<tag k="name" v="Sandvikelva" />
		<tag k="ssr:stedsnr" v="765507" />
		<tag k="waterway" v="stream" />
	</node>
	<node lat="62.7320527766531" lon="7.704536104541251" id="-6829">
		<tag k="name" v="Blombakkelva" />
		<tag k="ssr:stedsnr" v="765489" />
		<tag k="waterway" v="stream" />
	</node>
	<node lat="62.82250833409852" lon="8.03311111159218" id="-6855">
		<tag k="name" v="Hagatjønna(Gladtjønna)" />
		<tag k="natural" v="water" />
		<tag k="ssr:stedsnr" v="766332" />
	</node>
	<node lat="62.521902778318314" lon="8.173361114750852" id="-6864">
		<tag k="name" v="Ytste Bjørkelva" />
		<tag k="ssr:stedsnr" v="766866" />
		<tag k="waterway" v="river" />
	</node>
	<node lat="62.713972223984356" lon="6.861894449240751" id="-6875">
		<tag k="name" v="Heggdalsvatnet" />
		<tag k="natural" v="water" />
		<tag k="ssr:stedsnr" v="800070" />
	</node>
	<node lat="62.66362777353273" lon="8.170247228261019" id="-6885">
		<tag k="name" v="Kvidalselva" />
		<tag k="ssr:stedsnr" v="800253" />
		<tag k="waterway" v="stream" />
	</node>
	<node lat="62.67162222223916" lon="8.118247213966923" id="-6888">
		<tag k="name" v="Eira" />
		<tag k="ssr:stedsnr" v="800263" />
		<tag k="waterway" v="river" />
	</node>
	<node lat="62.47226110743109" lon="8.189119434905495" id="-6891">
		<tag k="name" v="Aura" />
		<tag k="old_name" v="Aurå" />
		<tag k="ssr:stedsnr" v="800647" />
		<tag k="waterway" v="river" />
	</node>
	<node lat="62.77212221818905" lon="7.653050003610509" id="-6897">
		<tag k="name" v="Otergrova" />
		<tag k="ssr:stedsnr" v="800761" />
		<tag k="waterway" v="stream" />
	</node>
	<node lat="62.715694443181405" lon="6.706025007970329" id="-6902">
		<tag k="name" v="Velteløken" />
		<tag k="ssr:stedsnr" v="800922" />
		<tag k="waterway" v="stream" />
	</node>
	<node lat="62.821944446954404" lon="7.979752778700306" id="-6906">
		<tag k="name" v="Kjerringtjørnin" />
		<tag k="natural" v="water" />
		<tag k="ssr:stedsnr" v="801540" />
	</node>
	<node lat="62.829986110167525" lon="8.09093055099712" id="-6907">
		<tag k="name" v="Raudsandelva" />
		<tag k="ssr:stedsnr" v="801548" />
		<tag k="waterway" v="river" />
	</node>
	<node lat="62.80352222254721" lon="7.8532999959643846" id="-6908">
		<tag k="alt_name" v="Bakkeelva" />
		<tag k="name" v="Skjørna" />
		<tag k="ssr:stedsnr" v="801558" />
		<tag k="waterway" v="river" />
	</node>
	<node lat="62.739450000779605" lon="7.167652783815109" id="-6914">
		<tag k="name" v="Moldeelva" />
		<tag k="ssr:stedsnr" v="801866" />
		<tag k="waterway" v="stream" />
	</node>
	<node lat="62.72671110972733" lon="6.721433335315282" id="-6929">
		<tag k="name" v="Svenskegrova" />
		<tag k="ssr:stedsnr" v="819057" />
		<tag k="waterway" v="stream" />
	</node>
	<node lat="62.75705555738659" lon="7.5946305640593135" id="-6957">
		<tag k="name" v="Grønliløken" />
		<tag k="ssr:stedsnr" v="823725" />
		<tag k="waterway" v="stream" />
	</node>
	<node lat="62.78373055689883" lon="7.737861102296711" id="-6960">
		<tag k="name" v="Øyratjørna" />
		<tag k="natural" v="water" />
		<tag k="ssr:stedsnr" v="824797" />
	</node>
	<node lat="62.79612499760608" lon="7.746058341149973" id="-6961">
		<tag k="name" v="Vassenden" />
		<tag k="natural" v="bay" />
		<tag k="ssr:stedsnr" v="824798" />
	</node>
	<node lat="62.82876389047963" lon="7.764883326090641" id="-6981">
		<tag k="name" v="Hatlatjørna" />
		<tag k="natural" v="water" />
		<tag k="ssr:stedsnr" v="824217" />
	</node>
	<node lat="62.745747217797174" lon="7.553733331459291" id="-6995">
		<tag k="name" v="Seilgrova" />
		<tag k="ssr:stedsnr" v="824649" />
		<tag k="waterway" v="stream" />
	</node>
	<node lat="62.74080832897717" lon="7.147661107502376" id="-6997">
		<tag k="name" v="Reknesbekken" />
		<tag k="ssr:stedsnr" v="824755" />
		<tag k="waterway" v="stream" />
	</node>
	<node lat="62.769216669980466" lon="7.69669166564139" id="-7015">
		<tag k="name" v="Bytbekken" />
		<tag k="ssr:stedsnr" v="824999" />
		<tag k="waterway" v="stream" />
	</node>
	<node lat="62.65362778200481" lon="7.23441110980491" id="-7017">
		<tag k="name" v="Svartneset" />
		<tag k="natural" v="cape" />
		<tag k="ssr:stedsnr" v="824952" />
	</node>
	<node lat="62.780986110382884" lon="8.08744444744059" id="-7030">
		<tag k="name" v="Løøya" />
		<tag k="place" v="island" />
		<tag k="ssr:stedsnr" v="826734" />
	</node>
	<node lat="62.76556666853299" lon="7.793355556384859" id="-7035">
		<tag k="name" v="Nørdre Domvatnet" />
		<tag k="natural" v="water" />
		<tag k="ssr:stedsnr" v="826555" />
		<tag k="water" v="lake" />
	</node>
	<node lat="62.702163889696216" lon="8.157569435356137" id="-7043">
		<tag k="name" v="Strandelva" />
		<tag k="ssr:stedsnr" v="826825" />
		<tag k="waterway" v="river" />
	</node>
	<node lat="62.72839722327888" lon="8.12825277973187" id="-7058">
		<tag k="name" v="Svabekken" />
		<tag k="ssr:stedsnr" v="827516" />
		<tag k="waterway" v="stream" />
	</node>
	<node lat="62.62727778016963" lon="8.110733327738911" id="-7060">
		<tag k="name" v="Åsneset" />
		<tag k="natural" v="cape" />
		<tag k="ssr:stedsnr" v="827532" />
	</node>
	<node lat="62.78418610954628" lon="7.995647223104461" id="-7069">
		<tag k="name" v="Tverrbekken" />
		<tag k="natural" v="water" />
		<tag k="ssr:stedsnr" v="827507" />
	</node>
	<node lat="62.71538888731225" lon="8.055436104204162" id="-7075">
		<tag k="name" v="Kråkesteinbekken" />
		<tag k="ssr:stedsnr" v="827850" />
		<tag k="waterway" v="stream" />
	</node>
	<node lat="62.628080558293476" lon="8.157622222162159" id="-7077">
		<tag k="name" v="Svabekken" />
		<tag k="ssr:stedsnr" v="827855" />
		<tag k="waterway" v="stream" />
	</node>
	<node lat="62.56066666584762" lon="8.138408328045767" id="-7079">
		<tag k="name" v="Olaskrebekken" />
		<tag k="ssr:stedsnr" v="827893" />
		<tag k="waterway" v="stream" />
	</node>
	<node lat="62.46269166278448" lon="8.169349997276576" id="-7093">
		<tag k="name" v="Sandgrova" />
		<tag k="ssr:stedsnr" v="861098" />
		<tag k="waterway" v="stream" />
	</node>
	<node lat="62.705213884893894" lon="6.805861119033984" id="-7098">
		<tag k="name" v="Lomtjørna" />
		<tag k="natural" v="water" />
		<tag k="ssr:stedsnr" v="861045" />
	</node>
	<node lat="62.74592222128242" lon="7.08689999888877" id="-7102">
		<tag k="name" v="Mekvatnet" />
		<tag k="natural" v="water" />
		<tag k="ssr:stedsnr" v="861112" />
	</node>
	<node lat="62.5407555574083" lon="8.194294438935088" id="-7104">
		<tag k="alt_name" v="Fløtelva" />
		<tag k="name" v="Fløtaelva" />
		<tag k="ssr:stedsnr" v="861135" />
		<tag k="waterway" v="stream" />
	</node>
	<node lat="62.53889444374522" lon="8.135311116534464" id="-7105">
		<tag k="name" v="Haudukbekken" />
		<tag k="ssr:stedsnr" v="861136" />
		<tag k="waterway" v="stream" />
	</node>
	<node lat="62.38430555223345" lon="8.442874991581844" id="-7110">
		<tag k="name" v="Tverrbergbekken" />
		<tag k="ssr:stedsnr" v="861332" />
		<tag k="waterway" v="stream" />
	</node>
	<node lat="62.63218888727201" lon="7.903305556426856" id="-7113">
		<tag k="name" v="Mørkvatnet" />
		<tag k="natural" v="water" />
		<tag k="ssr:stedsnr" v="861335" />
		<tag k="water" v="lake" />
	</node>
	<node lat="62.77974999593028" lon="8.085780556144242" id="-7118">
		<tag k="name" v="Eidsvågelva" />
		<tag k="ssr:stedsnr" v="861574" />
		<tag k="waterway" v="river" />
	</node>
	<node lat="62.820516666385366" lon="8.047758327473717" id="-7137">
		<tag k="name" v="Svartløken" />
		<tag k="natural" v="water" />
		<tag k="ssr:stedsnr" v="862526" />
	</node>
	<node lat="62.82150833632996" lon="8.064250008556103" id="-7138">
		<tag k="name" v="Neverlivatnet" />
		<tag k="natural" v="water" />
		<tag k="ssr:stedsnr" v="862528" />
	</node>
	<node lat="62.812488890713475" lon="8.119841670775163" id="-7139">
		<tag k="name" v="Bersåselva" />
		<tag k="ssr:stedsnr" v="862558" />
		<tag k="waterway" v="stream" />
	</node>
	<node lat="62.82279166296617" lon="7.522705547129815" id="-7142">
		<tag k="name" v="Lunddalsvatnet" />
		<tag k="natural" v="water" />
		<tag k="ssr:stedsnr" v="862693" />
		<tag k="water" v="lake" />
	</node>
	<node lat="62.80693888907837" lon="8.019127772021033" id="-7143">
		<tag k="alt_name" v="Paulvatnet" />
		<tag k="name" v="Paulavatnet" />
		<tag k="natural" v="water" />
		<tag k="ssr:stedsnr" v="862545" />
	</node>
	<node lat="62.80964444038782" lon="7.624988895332493" id="-7146">
		<tag k="name" v="Nesvatnet" />
		<tag k="natural" v="water" />
		<tag k="ssr:stedsnr" v="862728" />
	</node>
	<node lat="62.79645833061735" lon="7.674569449306159" id="-7149">
		<tag k="name" v="Olteråa" />
		<tag k="ssr:stedsnr" v="862783" />
		<tag k="waterway" v="stream" />
	</node>
	<node lat="62.8031166657864" lon="7.422855558116486" id="-7152">
		<tag k="name" v="Vasslivatnet" />
		<tag k="natural" v="water" />
		<tag k="ssr:stedsnr" v="862793" />
	</node>
	<node lat="62.82889444224383" lon="7.7676305542680515" id="-7156">
		<tag k="name" v="Hatlabekken" />
		<tag k="ssr:stedsnr" v="870654" />
		<tag k="waterway" v="stream" />
	</node>
	<node lat="62.84405833445224" lon="7.695955556895649" id="-7157">
		<tag k="name" v="Skallelva" />
		<tag k="ssr:stedsnr" v="870840" />
		<tag k="waterway" v="river" />
	</node>
	<node lat="62.73337778030783" lon="6.734786112572531" id="-7162">
		<tag k="name" v="Stortjønna" />
		<tag k="natural" v="water" />
		<tag k="ssr:stedsnr" v="879062" />
	</node>
	<node lat="62.72810555963314" lon="7.454955546609853" id="-7193">
		<tag k="name" v="Breineset" />
		<tag k="natural" v="cape" />
		<tag k="ssr:stedsnr" v="884841" />
	</node>
	<node lat="62.75836388588462" lon="7.5335083313901166" id="-7194">
		<tag k="name" v="Langgjerdløken" />
		<tag k="ssr:stedsnr" v="884864" />
		<tag k="waterway" v="stream" />
	</node>
	<node lat="62.76651389221616" lon="7.619419435265897" id="-7197">
		<tag k="name" v="Lars-skovatnet" />
		<tag k="natural" v="water" />
		<tag k="ssr:stedsnr" v="884961" />
	</node>
	<node lat="62.80944167056259" lon="7.734633326582647" id="-7201">
		<tag k="name" v="Øygardsbekken" />
		<tag k="ssr:stedsnr" v="884019" />
		<tag k="waterway" v="stream" />
	</node>
	<node lat="62.74254166634027" lon="7.225694447263757" id="-7207">
		<tag k="name" v="Nøisomhedbekken" />
		<tag k="ssr:stedsnr" v="884175" />
		<tag k="waterway" v="stream" />
	</node>
	<node lat="62.752794447631224" lon="7.628925004868882" id="-7233">
		<tag k="name" v="Tverrelva" />
		<tag k="ssr:stedsnr" v="884719" />
		<tag k="waterway" v="stream" />
	</node>
	<node lat="62.676255556015114" lon="7.259486117044118" id="-7239">
		<tag k="name" v="Kvernavikelva" />
		<tag k="ssr:stedsnr" v="884938" />
		<tag k="waterway" v="stream" />
	</node>
	<node lat="62.77700277364152" lon="8.270772225081265" id="-7248">
		<tag k="name" v="Hyllbekken" />
		<tag k="ssr:stedsnr" v="887542" />
		<tag k="waterway" v="stream" />
	</node>
	<node lat="62.757505554206766" lon="7.781030551271071" id="-7252">
		<tag k="name" v="Øvre Strøppeltjønna" />
		<tag k="natural" v="water" />
		<tag k="ssr:stedsnr" v="887602" />
	</node>
	<node lat="62.48506944524895" lon="8.175111113951049" id="-7262">
		<tag k="name" v="Sømnet" />
		<tag k="natural" v="beach" />
		<tag k="ssr:stedsnr" v="887129" />
	</node>
	<node lat="62.54098610918681" lon="8.157933339167727" id="-7301">
		<tag k="name" v="Fåtjønnin" />
		<tag k="natural" v="water" />
		<tag k="ssr:stedsnr" v="887872" />
	</node>
	<node lat="62.69565278094134" lon="7.878897215908525" id="-7303">
		<tag k="name" v="Heiabekken" />
		<tag k="ssr:stedsnr" v="887890" />
		<tag k="waterway" v="stream" />
	</node>
	<node lat="62.69749722496181" lon="6.819744439239599" id="-7312">
		<tag k="name" v="Opstadvatnet" />
		<tag k="natural" v="water" />
		<tag k="ssr:stedsnr" v="937720" />
	</node>
	<node lat="62.70843333111632" lon="6.88065278576564" id="-7338">
		<tag k="name" v="Seterelva" />
		<tag k="ssr:stedsnr" v="941529" />
		<tag k="waterway" v="stream" />
	</node>
	<node lat="62.76161666764681" lon="7.563391674586793" id="-7344">
		<tag k="name" v="Kregrova" />
		<tag k="ssr:stedsnr" v="944335" />
		<tag k="waterway" v="stream" />
	</node>
	<node lat="62.79944166517689" lon="7.612936103420451" id="-7353">
		<tag k="name" v="Lapptjønna" />
		<tag k="natural" v="water" />
		<tag k="ssr:stedsnr" v="945015" />
	</node>
	<node lat="62.795391665494634" lon="7.769747220844047" id="-7395">
		<tag k="name" v="Midtbukta" />
		<tag k="natural" v="bay" />
		<tag k="ssr:stedsnr" v="945779" />
	</node>
	<node lat="62.656622225801605" lon="7.315802772816462" id="-7404">
		<tag k="name" v="Inste vestadelva" />
		<tag k="ssr:stedsnr" v="945926" />
		<tag k="waterway" v="stream" />
	</node>
	<node lat="62.77124166967506" lon="7.737908331886685" id="-7414">
		<tag k="name" v="Sotådalselva" />
		<tag k="ssr:stedsnr" v="945946" />
		<tag k="waterway" v="river" />
	</node>
	<node lat="62.66859444690409" lon="8.088452771647919" id="-7424">
		<tag k="name" v="Gryta" />
		<tag k="ssr:stedsnr" v="947389" />
		<tag k="waterway" v="river" />
	</node>
	<node lat="62.620311109687044" lon="8.130708329966449" id="-7425">
		<tag k="name" v="Olagjerdneset" />
		<tag k="natural" v="cape" />
		<tag k="ssr:stedsnr" v="947418" />
	</node>
	<node lat="62.77990555810168" lon="8.078652769395406" id="-7427">
		<tag k="name" v="Geilhølan" />
		<tag k="place" v="locality" />
		<tag k="ssr:stedsnr" v="948439" />
	</node>
	<node lat="62.43749722584209" lon="8.291202779973451" id="-7431">
		<tag k="name" v="Kuøyna" />
		<tag k="place" v="island" />
		<tag k="ssr:stedsnr" v="948088" />
	</node>
	<node lat="62.80831666468721" lon="8.0693805505251" id="-7439">
		<tag k="name" v="Seterbekken" />
		<tag k="ssr:stedsnr" v="948349" />
		<tag k="waterway" v="stream" />
	</node>
	<node lat="62.72709167037455" lon="7.688805563682069" id="-7444">
		<tag k="name" v="Litleløypet" />
		<tag k="place" v="locality" />
		<tag k="ssr:stedsnr" v="948626" />
	</node>
	<node lat="62.79984722362618" lon="7.854777775936298" id="-7448">
		<tag k="name" v="Storhølen" />
		<tag k="place" v="locality" />
		<tag k="ssr:stedsnr" v="948690" />
	</node>
	<node lat="62.784480552244624" lon="7.866233333975986" id="-7449">
		<tag k="name" v="Tverrelva" />
		<tag k="ssr:stedsnr" v="948694" />
		<tag k="waterway" v="stream" />
	</node>
	<node lat="62.789980559426205" lon="8.120358342601506" id="-7457">
		<tag k="name" v="Tiltereidet" />
		<tag k="place" v="locality" />
		<tag k="ssr:stedsnr" v="948470" />
	</node>
	<node lat="62.80980278208633" lon="7.955638895697638" id="-7459">
		<tag k="name" v="Jevikløken" />
		<tag k="ssr:stedsnr" v="948543" />
		<tag k="waterway" v="stream" />
	</node>
	<node lat="62.631441670091874" lon="8.101669453112725" id="-7465">
		<tag k="name" v="Osen" />
		<tag k="natural" v="bay" />
		<tag k="ssr:stedsnr" v="948569" />
	</node>
	<node lat="62.780888885696605" lon="7.842163880009556" id="-7471">
		<tag k="name" v="Skjørlibekken" />
		<tag k="ssr:stedsnr" v="948654" />
		<tag k="waterway" v="stream" />
	</node>
	<node lat="62.46901666341967" lon="8.193444442325056" id="-7480">
		<tag k="name" v="Sløholmen" />
		<tag k="place" v="islet" />
		<tag k="ssr:stedsnr" v="948845" />
	</node>
	<node lat="62.523769443494025" lon="8.169469449567686" id="-7486">
		<tag k="name" v="Peilemnet" />
		<tag k="natural" v="bay" />
		<tag k="ssr:stedsnr" v="948908" />
	</node>
	<node lat="62.69361666629593" lon="7.880427770415598" id="-7489">
		<tag k="name" v="Elvekrokan" />
		<tag k="ssr:stedsnr" v="948916" />
		<tag k="waterway" v="stream" />
	</node>
	<node lat="62.73426666755902" lon="7.864538882679381" id="-7492">
		<tag k="name" v="Sjarmyrbekken" />
		<tag k="ssr:stedsnr" v="948946" />
		<tag k="waterway" v="stream" />
	</node>
</osm>
