<?xml version="1.0" encoding="UTF-8"?>
<osm version="0.6" generator="osmapis">
	<node lat="62.82053611051113" lon="8.078702777841645" id="-5118">
		<tag k="name" v="Snaragadden" />
		<tag k="place" v="locality" />
		<tag k="ssr:stedsnr" v="220385" />
	</node>
	<node lat="62.74106257255482" lon="7.194412765647722" id="-5253">
		<tag k="name" v="Nedre Fuglset" />
		<tag k="place" v="locality" />
		<tag k="ssr:stedsnr" v="58825" />
	</node>
	<node lat="62.660624169787965" lon="7.38208643405627" id="-5270">
		<tag k="amenity" v="place_of_worship" />
		<tag k="denomination" v="lutheran" />
		<tag k="name" v="Sekken kyrkje" />
		<tag k="old_name" v="Sekken kapell" />
		<tag k="religion" v="christian" />
		<tag k="ssr:stedsnr" v="72720" />
	</node>
	<node lat="62.70648859123122" lon="6.926899938849681" id="-5577">
		<tag k="name" v="Hammarholen" />
		<tag k="place" v="locality" />
		<tag k="ssr:stedsnr" v="172658" />
	</node>
	<node lat="62.74834444018103" lon="7.1263083296917" id="-6069">
		<tag k="name" v="Litlevarden" />
		<tag k="ssr:stedsnr" v="459728" />
		<tag k="tourism" v="viewpoint" />
	</node>
	<node lat="62.73099791390277" lon="7.3277047201352286" id="-6135">
		<tag k="name" v="Trollpila" />
		<tag k="place" v="locality" />
		<tag k="ssr:stedsnr" v="338921" />
	</node>
	<node lat="62.68176389267955" lon="6.669788881533448" id="-6441">
		<tag k="amenity" v="community_centre" />
		<tag k="name" v="Midsund skule" />
		<tag k="ssr:stedsnr" v="436972" />
	</node>
	<node lat="62.79908408176069" lon="7.655033103585576" id="-6448">
		<tag k="amenity" v="place_of_worship" />
		<tag k="denomination" v="lutheran" />
		<tag k="name" v="Kleive kirke" />
		<tag k="religion" v="christian" />
		<tag k="ssr:stedsnr" v="437771" />
	</node>
	<node lat="62.73948611065865" lon="7.150580559998406" id="-7030">
		<tag k="name" v="Romsdalsmuseet" />
		<tag k="ssr:stedsnr" v="641705" />
		<tag k="tourism" v="attraction" />
	</node>
	<node lat="62.764169558026246" lon="8.048557421436067" id="-7607">
		<tag k="name" v="Breidvik" />
		<tag k="place" v="locality" />
		<tag k="ssr:stedsnr" v="900696" />
	</node>
	<node lat="62.71671944186508" lon="7.168113891205511" id="-7690">
		<tag k="name" v="Fiskerimuseet" />
		<tag k="ssr:stedsnr" v="824489" />
		<tag k="tourism" v="attraction" />
	</node>
	<node lat="62.74646110906024" lon="7.19825000884058" id="-8052">
		<tag k="name" v="Øvre Fuglset" />
		<tag k="place" v="locality" />
		<tag k="ssr:stedsnr" v="949809" />
	</node>
	<node lat="62.69960833625573" lon="6.705566664291518" id="-8146">
		<tag k="amenity" v="place_of_worship" />
		<tag k="denomination" v="lutheran" />
		<tag k="name" v="Otrøy kyrkje" />
		<tag k="old_name" v="Sør-Aukra kyrkje" />
		<tag k="religion" v="christian" />
		<tag k="ssr:stedsnr" v="12909" />
	</node>
	<node lat="62.707913892516615" lon="7.951716666602206" id="-8293">
		<tag k="amenity" v="community_centre" />
		<tag k="name" v="Vistdal samfunnshus" />
		<tag k="ssr:stedsnr" v="37990" />
	</node>
	<node lat="62.777466670995345" lon="8.069997214977915" id="-8370">
		<tag k="alt_name" v="Nesset" />
		<tag k="amenity" v="place_of_worship" />
		<tag k="denomination" v="lutheran" />
		<tag k="name" v="Nesset kirke" />
		<tag k="religion" v="christian" />
		<tag k="ssr:stedsnr" v="72598" />
	</node>
	<node lat="62.752625855648226" lon="7.293595994380929" id="-8376">
		<tag k="alt_name" v="Bolsøy kirke" />
		<tag k="amenity" v="place_of_worship" />
		<tag k="denomination" v="lutheran" />
		<tag k="name" v="Røbekk kirke" />
		<tag k="religion" v="christian" />
		<tag k="ssr:stedsnr" v="72806" />
	</node>
	<node lat="62.685682879599796" lon="7.454102134079221" id="-9093">
		<tag k="amenity" v="place_of_worship" />
		<tag k="denomination" v="lutheran" />
		<tag k="name" v="Veøy kyrkje" />
		<tag k="religion" v="christian" />
		<tag k="ssr:stedsnr" v="315722" />
	</node>
	<node lat="62.796697222851066" lon="8.139358342777555" id="-9478">
		<tag k="name" v="Tiltereidet" />
		<tag k="place" v="locality" />
		<tag k="ssr:stedsnr" v="402276" />
	</node>
	<node lat="62.46704166799447" lon="8.189436101904978" id="-9520">
		<tag k="amenity" v="place_of_worship" />
		<tag k="denomination" v="lutheran" />
		<tag k="name" v="Eikesdal kyrkje" />
		<tag k="religion" v="christian" />
		<tag k="ssr:stedsnr" v="436091" />
	</node>
	<node lat="62.666242247382534" lon="8.113362542944731" id="-9593">
		<tag k="alt_name" v="Eresfjord kyrkje;Eresfjord" />
		<tag k="amenity" v="place_of_worship" />
		<tag k="denomination" v="lutheran" />
		<tag k="name" v="Sira kyrkje" />
		<tag k="religion" v="christian" />
		<tag k="ssr:stedsnr" v="496280" />
	</node>
	<node lat="62.72057505497496" lon="7.935611771063635" id="-10051">
		<tag k="alt_name" v="Vistdal" />
		<tag k="amenity" v="place_of_worship" />
		<tag k="denomination" v="lutheran" />
		<tag k="name" v="Vistdal kyrkje" />
		<tag k="religion" v="christian" />
		<tag k="ssr:stedsnr" v="618458" />
	</node>
	<node lat="62.7007444428942" lon="6.900975007442305" id="-10084">
		<tag k="amenity" v="place_of_worship" />
		<tag k="denomination" v="lutheran" />
		<tag k="name" v="Nord-Heggdal kapell" />
		<tag k="religion" v="christian" />
		<tag k="ssr:stedsnr" v="626381" />
	</node>
	<node lat="62.7249083374389" lon="7.875269435914757" id="-10220">
		<tag k="name" v="Øvste Kvilaren" />
		<tag k="ssr:stedsnr" v="644948" />
		<tag k="tourism" v="viewpoint" />
	</node>
	<node lat="62.73826666807946" lon="7.160347228726997" id="-10620">
		<tag k="amenity" v="place_of_worship" />
		<tag k="denomination" v="lutheran" />
		<tag k="name" v="Molde domkirke" />
		<tag k="religion" v="christian" />
		<tag k="ssr:stedsnr" v="786648" />
	</node>
	<node lat="62.448090172470884" lon="8.459164620350458" id="-10937">
		<tag k="name" v="Midtlægeret" />
		<tag k="place" v="locality" />
		<tag k="ssr:stedsnr" v="921349" />
	</node>
	<node lat="62.732376429235686" lon="7.424777605588643" id="-10952">
		<tag k="amenity" v="place_of_worship" />
		<tag k="denomination" v="lutheran" />
		<tag k="name" v="Røvik kirke" />
		<tag k="religion" v="christian" />
		<tag k="ssr:stedsnr" v="921772" />
	</node>
	<node lat="62.71698055737194" lon="8.124649997354608" id="-11103">
		<tag k="name" v="Godtemplaren" />
		<tag k="place" v="locality" />
		<tag k="ssr:stedsnr" v="948556" />
	</node>
	<node lat="62.67453701240881" lon="7.427777666095968" id="-11840">
		<tag k="amenity" v="place_of_worship" />
		<tag k="denomination" v="lutheran" />
		<tag k="name" v="Veøy gamle kyrkje" />
		<tag k="religion" v="christian" />
		<tag k="ssr:stedsnr" v="1083323" />
	</node>
</osm>
