<?xml version="1.0" encoding="UTF-8"?>
<<<<<<< HEAD
<osm version="0.6" generator="osmapis">
	<node lat="62.779316666399" lon="7.675905557389808" id="-608">
		<tag k="landuse" v="harbour" />
		<tag k="name" v="Sunnmørshamna" />
		<tag k="seamark:type" v="harbour" />
		<tag k="ssr:stedsnr" v="233484" />
	</node>
	<node lat="62.82549722167824" lon="7.705466670036449" id="-630">
		<tag k="landuse" v="industrial" />
		<tag k="name" v="Langli kraftstasjon" />
		<tag k="power" v="plant" />
		<tag k="ssr:stedsnr" v="34209" />
	</node>
	<node lat="62.83176389054812" lon="8.099450005738055" id="-670">
		<tag k="ford" v="yes" />
		<tag k="name" v="Storbuvadet" />
		<tag k="place" v="locality" />
		<tag k="ssr:stedsnr" v="37564" />
	</node>
	<node lat="62.77653888472637" lon="7.188166664071448" id="-794">
		<tag k="highway" v="path" />
		<tag k="name" v="Trongstien" />
		<tag k="ssr:stedsnr" v="95664" />
	</node>
	<node lat="62.76206944735878" lon="8.134822213212384" id="-828">
		<tag k="highway" v="path" />
		<tag k="name" v="Romsdalsvegen" />
		<tag k="ssr:stedsnr" v="98368" />
	</node>
	<node lat="62.67276667118065" lon="6.666650004236785" id="-968">
		<tag k="bridge" v="yes" />
		<tag k="layer" v="1" />
		<tag k="name" v="Midsundbrua" />
		<tag k="ssr:stedsnr" v="148321" />
	</node>
	<node lat="62.73061389297076" lon="7.355138884958315" id="-1003">
		<tag k="bridge" v="yes" />
		<tag k="layer" v="1" />
		<tag k="name" v="Bolsøybrua" />
		<tag k="ssr:stedsnr" v="156921" />
	</node>
	<node lat="62.737060439312074" lon="7.135533272278182" id="-1040">
		<tag k="aeroway" v="airstrip" />
		<tag k="name" v="Molde helikopterplass, Molde sykehus" />
		<tag k="ssr:stedsnr" v="162514" />
	</node>
	<node lat="62.678741664873435" lon="6.676347218674586" id="-1087">
		<tag k="bridge" v="yes" />
		<tag k="layer" v="1" />
		<tag k="name" v="Bakkebrua" />
		<tag k="ssr:stedsnr" v="270317" />
	</node>
	<node lat="62.7884111078889" lon="7.524372212764783" id="-1154">
		<tag k="bridge" v="yes" />
		<tag k="layer" v="1" />
		<tag k="name" v="Krokhølbrua" />
		<tag k="ssr:stedsnr" v="271391" />
	</node>
	<node lat="62.74812306608292" lon="7.260522187254393" id="-1155">
		<tag k="layer" v="-1" />
		<tag k="name" v="Årøundergangen" />
		<tag k="ssr:stedsnr" v="271318" />
		<tag k="tunnel" v="yes" />
	</node>
	<node lat="62.76073333364914" lon="7.37554722793997" id="-1158">
		<tag k="bridge" v="yes" />
		<tag k="layer" v="1" />
		<tag k="name" v="Lønsetbrua" />
		<tag k="ssr:stedsnr" v="453290" />
	</node>
	<node lat="62.75030555746018" lon="7.261027775108713" id="-1159">
		<tag k="bridge" v="yes" />
		<tag k="layer" v="1" />
		<tag k="name" v="Reitaplassbrua" />
		<tag k="ssr:stedsnr" v="453396" />
	</node>
	<node lat="62.80965833716014" lon="7.697986101305402" id="-1161">
		<tag k="bridge" v="yes" />
		<tag k="layer" v="1" />
		<tag k="name" v="Røyrgatebrua" />
		<tag k="ssr:stedsnr" v="453347" />
	</node>
	<node lat="62.73459166962583" lon="6.838755556680422" id="-1230">
		<tag k="bridge" v="yes" />
		<tag k="layer" v="1" />
		<tag k="name" v="Ræstadbrua" />
		<tag k="ssr:stedsnr" v="270321" />
	</node>
	<node lat="62.787153638078784" lon="7.520612423387466" id="-1232">
		<tag k="layer" v="-1" />
		<tag k="name" v="Oppdølsundergangen" />
		<tag k="ssr:stedsnr" v="271376" />
		<tag k="tunnel" v="yes" />
	</node>
	<node lat="62.74105176497425" lon="7.2214095877542155" id="-1233">
		<tag k="layer" v="-1" />
		<tag k="name" v="Lubbenesundergangen" />
		<tag k="ssr:stedsnr" v="271377" />
		<tag k="tunnel" v="yes" />
	</node>
	<node lat="62.78432222022895" lon="7.478947214889424" id="-1245">
		<tag k="highway" v="path" />
		<tag k="name" v="Gjervegen" />
		<tag k="ssr:stedsnr" v="459122" />
	</node>
	<node lat="62.639749997446486" lon="6.523600003172154" id="-1313">
		<tag k="amenity" v="ferry_terminal" />
		<tag k="name" v="Dryna ferjekai" />
		<tag k="ssr:stedsnr" v="277305" />
	</node>
	<node lat="62.74356388912486" lon="7.420455556528441" id="-1333">
		<tag k="highway" v="path" />
		<tag k="name" v="Midtlivegen" />
		<tag k="ssr:stedsnr" v="277889" />
	</node>
	<node lat="62.77753611311228" lon="8.245724998383782" id="-1355">
		<tag k="highway" v="path" />
		<tag k="name" v="Setervegen" />
		<tag k="ssr:stedsnr" v="280324" />
	</node>
	<node lat="62.81261388844473" lon="8.016591660503698" id="-1358">
		<tag k="fixme" v="verify maritime location" />
		<tag k="mooring" v="yes" />
		<tag k="name" v="Brekkevoran" />
		<tag k="place" v="locality" />
		<tag k="ssr:stedsnr" v="280287" />
	</node>
	<node lat="62.75961666549717" lon="7.331669442419973" id="-1362">
		<tag k="highway" v="path" />
		<tag k="name" v="Vadet" />
		<tag k="ssr:stedsnr" v="460385" />
	</node>
	<node lat="62.70220735690074" lon="7.953580228733274" id="-1447">
		<tag k="bridge" v="yes" />
		<tag k="layer" v="1" />
		<tag k="name" v="Hellebrua" />
		<tag k="ssr:stedsnr" v="462988" />
	</node>
	<node lat="62.65102222287058" lon="6.559222219236154" id="-1478">
		<tag k="bridge" v="yes" />
		<tag k="layer" v="1" />
		<tag k="name" v="Drynjasundbrua" />
		<tag k="ssr:stedsnr" v="330310" />
	</node>
	<node lat="62.73504722496366" lon="7.087899997560688" id="-1479">
		<tag k="bridge" v="yes" />
		<tag k="layer" v="1" />
		<tag k="name" v="Mekbrua" />
		<tag k="ssr:stedsnr" v="332373" />
	</node>
	<node lat="62.73633888658027" lon="7.466830559862626" id="-1525">
		<tag k="ford" v="yes" />
		<tag k="name" v="Steinvadet" />
		<tag k="place" v="locality" />
		<tag k="ssr:stedsnr" v="338856" />
	</node>
	<node lat="62.73655277723125" lon="7.158927786630323" id="-1644">
		<tag k="man_made" v="breakwater" />
		<tag k="name" v="Torgpiren" />
		<tag k="place" v="locality" />
		<tag k="ssr:stedsnr" v="482533" />
	</node>
	<node lat="62.73519548594773" lon="7.0870255745088935" id="-1646">
		<tag k="layer" v="-1" />
		<tag k="name" v="Mekundergangen" />
		<tag k="ssr:stedsnr" v="392340" />
		<tag k="tunnel" v="yes" />
	</node>
	<node lat="62.759394442886716" lon="7.265602785320657" id="-1647">
		<tag k="bridge" v="yes" />
		<tag k="layer" v="1" />
		<tag k="name" v="Hjellrørbrua" />
		<tag k="ssr:stedsnr" v="392389" />
	</node>
	<node lat="62.74824999948394" lon="7.260305549047543" id="-1648">
		<tag k="bridge" v="yes" />
		<tag k="layer" v="1" />
		<tag k="name" v="Årøgangbrua" />
		<tag k="ssr:stedsnr" v="392295" />
	</node>
	<node lat="62.749344448669696" lon="7.066116668268315" id="-1668">
		<tag k="highway" v="path" />
		<tag k="name" v="Trongstien" />
		<tag k="ssr:stedsnr" v="398422" />
	</node>
	<node lat="62.690102774554454" lon="8.119419438582097" id="-1696">
		<tag k="man_made" v="quay" />
		<tag k="name" v="Nauste kai" />
		<tag k="place" v="locality" />
		<tag k="ssr:stedsnr" v="401378" />
	</node>
	<node lat="62.68490833483334" lon="7.464747213278802" id="-1783">
		<tag k="amenity" v="ferry_terminal" />
		<tag k="name" v="Sølsnes ferjekai" />
		<tag k="ssr:stedsnr" v="450489" />
	</node>
	<node lat="62.738852779423375" lon="7.166066672595633" id="-1787">
		<tag k="bridge" v="yes" />
		<tag k="layer" v="1" />
		<tag k="name" v="Øvre bru" />
		<tag k="ssr:stedsnr" v="453382" />
	</node>
	<node lat="62.81734722025124" lon="7.730880563934013" id="-1805">
		<tag k="fixme" v="consider highway=path" />
		<tag k="highway" v="track" />
		<tag k="name" v="Åbakkvegen" />
		<tag k="ssr:stedsnr" v="459003" />
	</node>
	<node lat="62.84086388711264" lon="7.7019555565401205" id="-1811">
		<tag k="landuse" v="industrial" />
		<tag k="name" v="Grøndal kraftstasjon" />
		<tag k="power" v="plant" />
		<tag k="ssr:stedsnr" v="459207" />
	</node>
	<node lat="62.768783332059655" lon="7.529133337124382" id="-1813">
		<tag k="highway" v="path" />
		<tag k="name" v="Bustien" />
		<tag k="ssr:stedsnr" v="459178" />
	</node>
	<node lat="62.79650832973991" lon="7.854655562310823" id="-1854">
		<tag k="bridge" v="yes" />
		<tag k="layer" v="1" />
		<tag k="name" v="Stavlibrua" />
		<tag k="ssr:stedsnr" v="462609" />
	</node>
	<node lat="62.68105555481981" lon="6.761305550125752" id="-1878">
		<tag k="amenity" v="parking" />
		<tag k="name" v="Klausethjellen P-plass" />
		<tag k="ssr:stedsnr" v="464911" />
	</node>
	<node lat="62.719380555878246" lon="6.937677779319999" id="-1983">
		<tag k="amenity" v="ferry_terminal" />
		<tag k="name" v="Solholmen ferjekai" />
		<tag k="ssr:stedsnr" v="512708" />
	</node>
	<node lat="62.68979444716598" lon="7.456833340398289" id="-1984">
		<tag k="bridge" v="yes" />
		<tag k="layer" v="1" />
		<tag k="name" v="Vikelvbrua" />
		<tag k="ssr:stedsnr" v="514407" />
	</node>
	<node lat="62.71520832886302" lon="7.528508326255253" id="-2024">
=======
<osm generator="osmapis" version="0.6">
	<node id="-48638" lat="62.6753777745" lon="7.30295278475">
		<tag k="amenity" v="ferry_terminal" />
		<tag k="name" v="Sekken ferjekai" />
		<tag k="ssr:stedsnr" v="217137" />
	</node>
	<node id="-51197" lat="62.671194444" lon="7.98390278471">
>>>>>>> e1d4bc35ff8a6074a6f2e91616a996b547c36f15
		<tag k="ford" v="yes" />
		<tag k="name" v="Skålvadet" />
		<tag k="place" v="locality" />
		<tag k="ssr:stedsnr" v="520805" />
	</node>
<<<<<<< HEAD
	<node lat="62.71980555749775" lon="7.925591667641409" id="-2036">
		<tag k="bridge" v="yes" />
		<tag k="layer" v="1" />
		<tag k="name" v="Storbrua" />
		<tag k="ssr:stedsnr" v="522106" />
	</node>
	<node lat="62.74338055867762" lon="6.881930550782881" id="-2120">
		<tag k="bridge" v="yes" />
		<tag k="layer" v="1" />
		<tag k="name" v="Bendsetbrua" />
		<tag k="ssr:stedsnr" v="573295" />
	</node>
	<node lat="62.70200833723763" lon="7.557666660635549" id="-2121">
=======
	<node id="-47608" lat="62.7037388885" lon="6.90799444035">
		<tag k="bridge" v="yes" />
		<tag k="layer" v="1" />
		<tag k="name" v="Nordheggdalsbrua" />
		<tag k="ssr:stedsnr" v="577503" />
	</node>
	<node id="-48468" lat="62.6932000007" lon="7.50579999222">
		<tag k="highway" v="path" />
		<tag k="name" v="Hjellvegen" />
		<tag k="ssr:stedsnr" v="945568" />
	</node>
	<node id="-50164" lat="62.7014722253" lon="6.69656388736">
		<tag k="landuse" v="harbour" />
		<tag k="name" v="Ugelvikhamna" />
		<tag k="seamark:type" v="harbour" />
		<tag k="ssr:stedsnr" v="394564" />
	</node>
	<node id="-46590" lat="62.7503055575" lon="7.26102777511">
		<tag k="bridge" v="yes" />
		<tag k="layer" v="1" />
		<tag k="name" v="Reitaplassbrua" />
		<tag k="ssr:stedsnr" v="453396" />
	</node>
	<node id="-47597" lat="62.6962388867" lon="7.4219249963">
		<tag k="bridge" v="yes" />
		<tag k="layer" v="1" />
		<tag k="name" v="Stensåbrua" />
		<tag k="ssr:stedsnr" v="574509" />
	</node>
	<node id="-47596" lat="62.7346187623" lon="7.06932431986">
		<tag k="layer" v="-1" />
		<tag k="name" v="Kringstadundergangen" />
		<tag k="ssr:stedsnr" v="574348" />
		<tag k="tunnel" v="yes" />
	</node>
	<node id="-46571" lat="62.8096583372" lon="7.69798610131">
>>>>>>> e1d4bc35ff8a6074a6f2e91616a996b547c36f15
		<tag k="bridge" v="yes" />
		<tag k="layer" v="1" />
		<tag k="name" v="Årsetbrua" />
		<tag k="ssr:stedsnr" v="574418" />
	</node>
<<<<<<< HEAD
	<node lat="62.71152222226938" lon="6.728511113958643" id="-2122">
=======
	<node id="-47594" lat="62.7433805587" lon="6.88193055078">
>>>>>>> e1d4bc35ff8a6074a6f2e91616a996b547c36f15
		<tag k="bridge" v="yes" />
		<tag k="layer" v="1" />
		<tag k="name" v="Straumsbrua" />
		<tag k="ssr:stedsnr" v="694266" />
	</node>
<<<<<<< HEAD
	<node lat="62.73461876232323" lon="7.0693243198610585" id="-2123">
=======
	<node id="-50153" lat="62.7351954859" lon="7.08702557451">
>>>>>>> e1d4bc35ff8a6074a6f2e91616a996b547c36f15
		<tag k="layer" v="-1" />
		<tag k="name" v="Kringstadundergangen" />
		<tag k="ssr:stedsnr" v="574348" />
		<tag k="tunnel" v="yes" />
	</node>
<<<<<<< HEAD
	<node lat="62.69623888672646" lon="7.421924996304957" id="-2124">
=======
	<node id="-50152" lat="62.7593944429" lon="7.26560278532">
>>>>>>> e1d4bc35ff8a6074a6f2e91616a996b547c36f15
		<tag k="bridge" v="yes" />
		<tag k="layer" v="1" />
		<tag k="name" v="Stensåbrua" />
		<tag k="ssr:stedsnr" v="574509" />
	</node>
<<<<<<< HEAD
	<node lat="62.703738888476046" lon="6.9079944403537406" id="-2138">
=======
	<node id="-50151" lat="62.7482499995" lon="7.26030554905">
>>>>>>> e1d4bc35ff8a6074a6f2e91616a996b547c36f15
		<tag k="bridge" v="yes" />
		<tag k="layer" v="1" />
		<tag k="name" v="Nordheggdalsbrua" />
		<tag k="ssr:stedsnr" v="577503" />
	</node>
<<<<<<< HEAD
	<node lat="62.769319442624024" lon="7.438316659844001" id="-2228">
=======
	<node id="-46559" lat="62.7607333336" lon="7.37554722794">
>>>>>>> e1d4bc35ff8a6074a6f2e91616a996b547c36f15
		<tag k="bridge" v="yes" />
		<tag k="layer" v="1" />
		<tag k="name" v="Skjærsåbrua" />
		<tag k="ssr:stedsnr" v="696257" />
	</node>
<<<<<<< HEAD
	<node lat="62.74305000207268" lon="7.169113883280031" id="-2229">
=======
	<node id="-47069" lat="62.7227805551" lon="7.43038889123">
>>>>>>> e1d4bc35ff8a6074a6f2e91616a996b547c36f15
		<tag k="bridge" v="yes" />
		<tag k="layer" v="1" />
		<tag k="name" v="Kveldrobrua" />
		<tag k="ssr:stedsnr" v="696378" />
	</node>
<<<<<<< HEAD
	<node lat="62.7783083372197" lon="7.67369723010829" id="-2230">
=======
	<node id="-47068" lat="62.7166694466" lon="6.74940554974">
>>>>>>> e1d4bc35ff8a6074a6f2e91616a996b547c36f15
		<tag k="bridge" v="yes" />
		<tag k="layer" v="1" />
		<tag k="name" v="Bordalsbrua" />
		<tag k="ssr:stedsnr" v="696462" />
	</node>
<<<<<<< HEAD
	<node lat="62.71777778007842" lon="6.719161114303592" id="-2232">
		<tag k="highway" v="path" />
		<tag k="name" v="Buråsvegen" />
		<tag k="ssr:stedsnr" v="697049" />
	</node>
	<node lat="62.7370055518814" lon="7.168255564099602" id="-2334">
		<tag k="amenity" v="ferry_terminal" />
		<tag k="name" v="Molde ferjekaier" />
		<tag k="ssr:stedsnr" v="702289" />
	</node>
	<node lat="62.79429721817939" lon="7.728108328933729" id="-2363">
		<tag k="highway" v="path" />
		<tag k="name" v="Hardvegen" />
		<tag k="ssr:stedsnr" v="702751" />
	</node>
	<node lat="62.77904444063242" lon="7.488719441971865" id="-2391">
=======
	<node id="-47579" lat="62.6825972204" lon="8.23481388628">
		<tag k="ford" v="yes" />
		<tag k="name" v="Flatvadet" />
		<tag k="place" v="locality" />
		<tag k="ssr:stedsnr" v="705856" />
	</node>
	<node id="-50646" lat="62.6981277759" lon="7.42559721855">
>>>>>>> e1d4bc35ff8a6074a6f2e91616a996b547c36f15
		<tag k="bridge" v="yes" />
		<tag k="layer" v="1" />
		<tag k="name" v="Nedre Gujordbrua" />
		<tag k="ssr:stedsnr" v="635303" />
	</node>
<<<<<<< HEAD
	<node lat="62.79477777399922" lon="7.542758342996782" id="-2392">
		<tag k="bridge" v="yes" />
		<tag k="layer" v="1" />
		<tag k="name" v="Nedre Roaldsetbrua" />
		<tag k="ssr:stedsnr" v="635307" />
	</node>
	<node lat="62.77280555177475" lon="7.285977781906071" id="-2393">
		<tag k="bridge" v="yes" />
		<tag k="layer" v="1" />
		<tag k="name" v="Hausåbrua" />
		<tag k="ssr:stedsnr" v="635390" />
	</node>
	<node lat="62.77446667029193" lon="7.987133328178194" id="-2435">
		<tag k="name" v="Kyrkjeledet" />
		<tag k="place" v="locality" />
		<tag k="ssr:stedsnr" v="705650" />
	</node>
	<node lat="62.68259722041462" lon="8.23481388627961" id="-2461">
=======
	<node id="-51155" lat="62.6773666643" lon="8.11291944353">
		<tag k="bridge" v="yes" />
		<tag k="layer" v="1" />
		<tag k="name" v="Vassbrua" />
		<tag k="ssr:stedsnr" v="644545" />
	</node>
	<node id="-49613" lat="62.7567722184" lon="8.03690833256">
		<tag k="highway" v="path" />
		<tag k="name" v="Trøvegan" />
		<tag k="ssr:stedsnr" v="159796" />
	</node>
	<node id="-48579" lat="62.8269055535" lon="8.06141943504">
		<tag k="highway" v="path" />
		<tag k="name" v="Stigan" />
		<tag k="ssr:stedsnr" v="948734" />
	</node>
	<node id="-47548" lat="62.8295166655" lon="8.06604167613">
		<tag k="ford" v="yes" />
		<tag k="name" v="Storbruvadet" />
		<tag k="place" v="locality" />
		<tag k="ssr:stedsnr" v="705615" />
	</node>
	<node id="-48571" lat="62.7915916695" lon="7.91378333856">
		<tag k="fixme" v="consider highway=path" />
		<tag k="highway" v="track" />
		<tag k="name" v="Rødsetervegen" />
		<tag k="ssr:stedsnr" v="948533" />
	</node>
	<node id="-46521" lat="62.7277944405" lon="7.83350000645">
		<tag k="ford" v="yes" />
		<tag k="name" v="Buvadet" />
		<tag k="place" v="locality" />
		<tag k="ssr:stedsnr" v="219062" />
	</node>
	<node id="-50614" lat="62.7971166658" lon="8.07143610887">
		<tag k="ford" v="yes" />
		<tag k="name" v="Tverrelvvadet" />
		<tag k="place" v="locality" />
		<tag k="ssr:stedsnr" v="523487" />
	</node>
	<node id="-49588" lat="62.7813083352" lon="8.30626387975">
		<tag k="highway" v="path" />
		<tag k="name" v="Gesellstigen" />
		<tag k="ssr:stedsnr" v="159579" />
	</node>
	<node id="-48554" lat="62.78451944" lon="8.0389861102">
		<tag k="fixme" v="consider highway=path" />
		<tag k="highway" v="track" />
		<tag k="name" v="Doktorsvingen" />
		<tag k="ssr:stedsnr" v="948486" />
	</node>
	<node id="-49574" lat="62.8095222203" lon="8.07191667315">
>>>>>>> e1d4bc35ff8a6074a6f2e91616a996b547c36f15
		<tag k="ford" v="yes" />
		<tag k="name" v="Flatvadet" />
		<tag k="place" v="locality" />
<<<<<<< HEAD
		<tag k="ssr:stedsnr" v="705856" />
	</node>
	<node lat="62.72311667067718" lon="7.931358335856776" id="-2549">
		<tag k="man_made" v="quay" />
		<tag k="name" v="Vistdal kai" />
=======
		<tag k="ssr:stedsnr" v="159327" />
	</node>
	<node id="-48549" lat="62.808366668" lon="8.02134444073">
		<tag k="highway" v="path" />
		<tag k="name" v="Paulvegen" />
		<tag k="ssr:stedsnr" v="948352" />
	</node>
	<node id="-50596" lat="62.807883332" lon="8.08726666939">
		<tag k="ford" v="yes" />
		<tag k="name" v="Grønlivadet" />
>>>>>>> e1d4bc35ff8a6074a6f2e91616a996b547c36f15
		<tag k="place" v="locality" />
		<tag k="ssr:stedsnr" v="644977" />
	</node>
<<<<<<< HEAD
	<node lat="62.73070833524212" lon="7.360388883453477" id="-2606">
		<tag k="bridge" v="yes" />
		<tag k="layer" v="1" />
		<tag k="name" v="Bolsøybrua" />
		<tag k="ssr:stedsnr" v="696407" />
	</node>
	<node lat="62.741094441510675" lon="7.425849999127483" id="-2646">
=======
	<node id="-51107" lat="62.6938083352" lon="7.97298611433">
		<tag k="junction" v="yes" />
		<tag k="name" v="Dilen" />
		<tag k="place" v="locality" />
		<tag k="ssr:stedsnr" v="643044" />
	</node>
	<node id="-48030" lat="62.7410944415" lon="7.42584999913">
>>>>>>> e1d4bc35ff8a6074a6f2e91616a996b547c36f15
		<tag k="highway" v="path" />
		<tag k="name" v="Mørkedalsvegen" />
		<tag k="ssr:stedsnr" v="702812" />
	</node>
<<<<<<< HEAD
	<node lat="62.82951666552396" lon="8.066041676130064" id="-2681">
=======
	<node id="-45981" lat="62.7793166664" lon="7.67590555739">
		<tag k="landuse" v="harbour" />
		<tag k="name" v="Sunnmørshamna" />
		<tag k="seamark:type" v="harbour" />
		<tag k="ssr:stedsnr" v="233484" />
	</node>
	<node id="-49044" lat="62.7315166647" lon="7.85484443635">
		<tag k="highway" v="path" />
		<tag k="name" v="Teigvegen" />
		<tag k="ssr:stedsnr" v="37937" />
	</node>
	<node id="-50577" lat="62.7198055575" lon="7.92559166764">
		<tag k="bridge" v="yes" />
		<tag k="layer" v="1" />
		<tag k="name" v="Storbrua" />
		<tag k="ssr:stedsnr" v="522106" />
	</node>
	<node id="-49549" lat="62.7265027789" lon="7.83451944117">
>>>>>>> e1d4bc35ff8a6074a6f2e91616a996b547c36f15
		<tag k="ford" v="yes" />
		<tag k="name" v="Storbruvadet" />
		<tag k="place" v="locality" />
		<tag k="ssr:stedsnr" v="705615" />
	</node>
<<<<<<< HEAD
	<node lat="62.80650555158175" lon="7.580077781782985" id="-2743">
=======
	<node id="-49033" lat="62.6844055556" lon="7.99414444114">
>>>>>>> e1d4bc35ff8a6074a6f2e91616a996b547c36f15
		<tag k="bridge" v="yes" />
		<tag k="layer" v="1" />
		<tag k="name" v="Eidsseterbrua" />
		<tag k="ssr:stedsnr" v="756308" />
	</node>
<<<<<<< HEAD
	<node lat="62.73466666309004" lon="7.095008341603658" id="-2744">
		<tag k="layer" v="-1" />
		<tag k="name" v="Cap Claraundergangen" />
		<tag k="ssr:stedsnr" v="757309" />
		<tag k="tunnel" v="yes" />
	</node>
	<node lat="62.690063888219285" lon="7.96896944202273" id="-2836">
		<tag k="name" v="Gammelledet" />
=======
	<node id="-49032" lat="62.6885805562" lon="7.97374444972">
		<tag k="name" v="Langhjelledet" />
>>>>>>> e1d4bc35ff8a6074a6f2e91616a996b547c36f15
		<tag k="place" v="locality" />
		<tag k="ssr:stedsnr" v="765990" />
	</node>
<<<<<<< HEAD
	<node lat="62.81511388813061" lon="7.800991676474859" id="-2860">
		<tag k="bridge" v="yes" />
		<tag k="layer" v="1" />
		<tag k="name" v="Gussiåsbrua" />
		<tag k="ssr:stedsnr" v="774901" />
	</node>
	<node lat="62.834427773691154" lon="7.800441660454068" id="-2907">
		<tag k="layer" v="-1" />
		<tag k="name" v="Botterliundergangen" />
		<tag k="ssr:stedsnr" v="817318" />
		<tag k="tunnel" v="yes" />
	</node>
	<node lat="62.76151388624799" lon="7.27452776855601" id="-2908">
=======
	<node id="-49534" lat="62.730613893" lon="7.35513888496">
		<tag k="bridge" v="yes" />
		<tag k="layer" v="1" />
		<tag k="name" v="Bolsøybrua" />
		<tag k="ssr:stedsnr" v="156921" />
	</node>
	<node id="-47484" lat="62.7942972182" lon="7.72810832893">
		<tag k="highway" v="path" />
		<tag k="name" v="Hardvegen" />
		<tag k="ssr:stedsnr" v="702751" />
	</node>
	<node id="-50554" lat="62.7152083289" lon="7.52850832626">
		<tag k="ford" v="yes" />
		<tag k="name" v="Skålvadet" />
		<tag k="place" v="locality" />
		<tag k="ssr:stedsnr" v="520805" />
	</node>
	<node id="-47991" lat="62.7307083352" lon="7.36038888345">
>>>>>>> e1d4bc35ff8a6074a6f2e91616a996b547c36f15
		<tag k="bridge" v="yes" />
		<tag k="layer" v="1" />
		<tag k="name" v="Årødalsbrua" />
		<tag k="ssr:stedsnr" v="817387" />
	</node>
<<<<<<< HEAD
	<node lat="62.7465472194897" lon="7.256275008335102" id="-3270">
=======
	<node id="-47990" lat="62.7693194426" lon="7.43831665984">
>>>>>>> e1d4bc35ff8a6074a6f2e91616a996b547c36f15
		<tag k="bridge" v="yes" />
		<tag k="layer" v="1" />
		<tag k="name" v="Flyplassbrua" />
		<tag k="ssr:stedsnr" v="939340" />
	</node>
<<<<<<< HEAD
	<node lat="62.754019445015686" lon="7.528538886111024" id="-3272">
=======
	<node id="-48501" lat="62.7263777811" lon="7.44558332679">
>>>>>>> e1d4bc35ff8a6074a6f2e91616a996b547c36f15
		<tag k="ford" v="yes" />
		<tag k="name" v="Talsetvadet" />
		<tag k="place" v="locality" />
		<tag k="ssr:stedsnr" v="944780" />
	</node>
<<<<<<< HEAD
	<node lat="62.791591669529154" lon="7.913783338561005" id="-3329">
		<tag k="fixme" v="consider highway=path" />
		<tag k="highway" v="track" />
		<tag k="name" v="Rødsetervegen" />
		<tag k="ssr:stedsnr" v="948533" />
	</node>
	<node lat="62.78451944003226" lon="8.03898611019993" id="-3334">
		<tag k="fixme" v="consider highway=path" />
		<tag k="highway" v="track" />
		<tag k="name" v="Doktorsvingen" />
		<tag k="ssr:stedsnr" v="948486" />
	</node>
	<node lat="62.72299444224511" lon="6.933719436057855" id="-3441">
=======
	<node id="-51207" lat="62.7231166707" lon="7.93135833586">
		<tag k="man_made" v="quay" />
		<tag k="name" v="Vistdal kai" />
		<tag k="place" v="locality" />
		<tag k="ssr:stedsnr" v="644977" />
	</node>
	<node id="-49008" lat="62.8317638905" lon="8.09945000574">
		<tag k="ford" v="yes" />
		<tag k="name" v="Storbuvadet" />
		<tag k="place" v="locality" />
		<tag k="ssr:stedsnr" v="37564" />
	</node>
	<node id="-47463" lat="62.7370055519" lon="7.1682555641">
		<tag k="amenity" v="ferry_terminal" />
		<tag k="name" v="Molde ferjekaier" />
		<tag k="ssr:stedsnr" v="702289" />
	</node>
	<node id="-45925" lat="62.7229944422" lon="6.93371943606">
>>>>>>> e1d4bc35ff8a6074a6f2e91616a996b547c36f15
		<tag k="bridge" v="yes" />
		<tag k="layer" v="1" />
		<tag k="name" v="Svinnsetbrua" />
		<tag k="ssr:stedsnr" v="27312" />
	</node>
<<<<<<< HEAD
	<node lat="62.73760555587955" lon="7.163969450314519" id="-3442">
		<tag k="bridge" v="yes" />
		<tag k="layer" v="1" />
		<tag k="name" v="Strandgatebrua" />
		<tag k="ssr:stedsnr" v="28390" />
	</node>
	<node lat="62.78655833006129" lon="7.537050009861068" id="-3446">
=======
	<node id="-49502" lat="62.7345083326" lon="7.15584999842">
		<tag k="man_made" v="quay" />
		<tag k="name" v="Storkaia" />
		<tag k="place" v="locality" />
		<tag k="ssr:stedsnr" v="156648" />
	</node>
	<node id="-51542" lat="62.7615138862" lon="7.27452776856">
>>>>>>> e1d4bc35ff8a6074a6f2e91616a996b547c36f15
		<tag k="bridge" v="yes" />
		<tag k="layer" v="1" />
		<tag k="name" v="Skjevikåsbrua" />
		<tag k="ssr:stedsnr" v="28343" />
	</node>
<<<<<<< HEAD
	<node lat="62.795194444336026" lon="7.671977781573447" id="-3447">
		<tag k="bridge" v="yes" />
		<tag k="layer" v="1" />
		<tag k="name" v="Oltervågbrua" />
		<tag k="ssr:stedsnr" v="28458" />
	</node>
	<node lat="62.7146388928011" lon="7.627786104652855" id="-3476">
		<tag k="fixme" v="verify maritime location" />
		<tag k="mooring" v="yes" />
		<tag k="name" v="Gammelstøa" />
=======
	<node id="-46932" lat="62.7365527772" lon="7.15892778663">
		<tag k="man_made" v="breakwater" />
		<tag k="name" v="Torgpiren" />
>>>>>>> e1d4bc35ff8a6074a6f2e91616a996b547c36f15
		<tag k="place" v="locality" />
		<tag k="ssr:stedsnr" v="31371" />
	</node>
<<<<<<< HEAD
	<node lat="62.731516664658585" lon="7.854844436352844" id="-3591">
=======
	<node id="-46589" lat="62.7388527794" lon="7.1660666726">
		<tag k="bridge" v="yes" />
		<tag k="layer" v="1" />
		<tag k="name" v="Øvre bru" />
		<tag k="ssr:stedsnr" v="453382" />
	</node>
	<node id="-49487" lat="62.7935999986" lon="7.48451945397">
>>>>>>> e1d4bc35ff8a6074a6f2e91616a996b547c36f15
		<tag k="highway" v="path" />
		<tag k="name" v="Teigvegen" />
		<tag k="ssr:stedsnr" v="37937" />
	</node>
<<<<<<< HEAD
	<node lat="62.68858055622703" lon="7.973744449716996" id="-3598">
		<tag k="name" v="Langhjelledet" />
		<tag k="place" v="locality" />
		<tag k="ssr:stedsnr" v="37987" />
	</node>
	<node lat="62.684405555596385" lon="7.994144441136039" id="-3599">
		<tag k="bridge" v="yes" />
		<tag k="layer" v="1" />
		<tag k="name" v="Drivandbrua" />
		<tag k="ssr:stedsnr" v="37989" />
	</node>
	<node lat="62.79513610854361" lon="7.647902771547557" id="-3711">
		<tag k="bridge" v="yes" />
		<tag k="layer" v="1" />
		<tag k="name" v="Grovabøbrua" />
		<tag k="ssr:stedsnr" v="89463" />
	</node>
	<node lat="62.7256777814769" lon="6.790333339312982" id="-3715">
		<tag k="highway" v="path" />
		<tag k="name" v="Mjåstien" />
		<tag k="ssr:stedsnr" v="91243" />
	</node>
	<node lat="62.75202777614495" lon="7.547808334446709" id="-3787">
		<tag k="ford" v="yes" />
		<tag k="name" v="Kvernhusvadet" />
=======
	<node id="-49475" lat="62.7648111155" lon="7.51878334153">
		<tag k="highway" v="path" />
		<tag k="name" v="Sjøvegen" />
		<tag k="ssr:stedsnr" v="156141" />
	</node>
	<node id="-46912" lat="62.6510222229" lon="6.55922221924">
		<tag k="bridge" v="yes" />
		<tag k="layer" v="1" />
		<tag k="name" v="Drynjasundbrua" />
		<tag k="ssr:stedsnr" v="330310" />
	</node>
	<node id="-50986" lat="62.7077083366" lon="6.93372500894">
		<tag k="fixme" v="verify maritime location" />
		<tag k="mooring" v="yes" />
		<tag k="name" v="Båtolastøa" />
>>>>>>> e1d4bc35ff8a6074a6f2e91616a996b547c36f15
		<tag k="place" v="locality" />
		<tag k="ssr:stedsnr" v="95739" />
	</node>
<<<<<<< HEAD
	<node lat="62.742916666165655" lon="7.491719447969316" id="-3793">
=======
	<node id="-50982" lat="62.7728055518" lon="7.28597778191">
>>>>>>> e1d4bc35ff8a6074a6f2e91616a996b547c36f15
		<tag k="bridge" v="yes" />
		<tag k="layer" v="1" />
		<tag k="name" v="Gjerdbrua" />
		<tag k="ssr:stedsnr" v="95784" />
	</node>
<<<<<<< HEAD
	<node lat="62.72205277402615" lon="7.92635555308274" id="-3857">
		<tag k="bridge" v="yes" />
		<tag k="layer" v="1" />
		<tag k="name" v="Myklebostadbrua" />
		<tag k="ssr:stedsnr" v="98951" />
	</node>
	<node lat="62.73627500418591" lon="7.164580559025355" id="-3869">
		<tag k="man_made" v="breakwater" />
		<tag k="name" v="Elvemoloen" />
=======
	<node id="-48420" lat="62.754019445" lon="7.52853888611">
		<tag k="ford" v="yes" />
		<tag k="name" v="Talsetvadet" />
>>>>>>> e1d4bc35ff8a6074a6f2e91616a996b547c36f15
		<tag k="place" v="locality" />
		<tag k="ssr:stedsnr" v="118576" />
	</node>
<<<<<<< HEAD
	<node lat="62.74510277726395" lon="7.264230548350211" id="-3915">
		<tag k="aeroway" v="aerodrome" />
		<tag k="alt_name" v="Årø" />
		<tag k="name" v="Molde lufthavn, Årø" />
		<tag k="old_name" v="Molde lufthavn" />
		<tag k="ssr:stedsnr" v="146836" />
	</node>
	<node lat="62.73972222420301" lon="7.188033339586041" id="-3916">
		<tag k="bridge" v="yes" />
		<tag k="layer" v="1" />
		<tag k="name" v="Glamoxbrua" />
		<tag k="ssr:stedsnr" v="149253" />
	</node>
	<node lat="62.78270555150796" lon="7.703311110858697" id="-3917">
=======
	<node id="-48930" lat="62.8254972217" lon="7.70546667004">
		<tag k="landuse" v="industrial" />
		<tag k="name" v="Langli kraftstasjon" />
		<tag k="power" v="plant" />
		<tag k="ssr:stedsnr" v="34209" />
	</node>
	<node id="-49433" lat="62.7827055515" lon="7.70331111086">
>>>>>>> e1d4bc35ff8a6074a6f2e91616a996b547c36f15
		<tag k="bridge" v="yes" />
		<tag k="layer" v="1" />
		<tag k="name" v="Sotåbrua" />
		<tag k="ssr:stedsnr" v="149447" />
	</node>
<<<<<<< HEAD
	<node lat="62.73809166238396" lon="7.164058335807199" id="-3918">
=======
	<node id="-49432" lat="62.7380916624" lon="7.16405833581">
>>>>>>> e1d4bc35ff8a6074a6f2e91616a996b547c36f15
		<tag k="bridge" v="yes" />
		<tag k="layer" v="1" />
		<tag k="name" v="Fossbrua" />
		<tag k="ssr:stedsnr" v="149477" />
	</node>
<<<<<<< HEAD
	<node lat="62.764811115543004" lon="7.518783341531094" id="-3941">
		<tag k="highway" v="path" />
		<tag k="name" v="Sjøvegen" />
		<tag k="ssr:stedsnr" v="156141" />
	</node>
	<node lat="62.79359999863213" lon="7.4845194539713935" id="-3954">
		<tag k="highway" v="path" />
		<tag k="name" v="Myrvegen" />
		<tag k="ssr:stedsnr" v="156315" />
	</node>
	<node lat="62.734508332612556" lon="7.155849998419715" id="-3962">
		<tag k="man_made" v="quay" />
		<tag k="name" v="Storkaia" />
		<tag k="place" v="locality" />
		<tag k="ssr:stedsnr" v="156648" />
	</node>
	<node lat="62.72650277890704" lon="7.8345194411680525" id="-3997">
		<tag k="ford" v="yes" />
		<tag k="name" v="Nyvadet" />
		<tag k="place" v="locality" />
		<tag k="ssr:stedsnr" v="158083" />
	</node>
	<node lat="62.80952222027454" lon="8.071916673154488" id="-4016">
=======
	<node id="-49431" lat="62.6727666712" lon="6.66665000424">
		<tag k="bridge" v="yes" />
		<tag k="layer" v="1" />
		<tag k="name" v="Midsundbrua" />
		<tag k="ssr:stedsnr" v="148321" />
	</node>
	<node id="-49430" lat="62.7451027773" lon="7.26423054835">
		<tag k="aeroway" v="aerodrome" />
		<tag k="alt_name" v="Årø" />
		<tag k="name" v="Molde lufthavn, Årø" />
		<tag k="old_name" v="Molde lufthavn" />
		<tag k="ssr:stedsnr" v="146836" />
	</node>
	<node id="-49933" lat="62.7050805548" lon="7.43487777075">
		<tag k="fixme" v="consider highway=path" />
		<tag k="highway" v="track" />
		<tag k="name" v="Kamsetervegen" />
		<tag k="ssr:stedsnr" v="338874" />
	</node>
	<node id="-49931" lat="62.7363388866" lon="7.46683055986">
>>>>>>> e1d4bc35ff8a6074a6f2e91616a996b547c36f15
		<tag k="ford" v="yes" />
		<tag k="name" v="Setervadet" />
		<tag k="place" v="locality" />
		<tag k="ssr:stedsnr" v="159327" />
	</node>
<<<<<<< HEAD
	<node lat="62.781308335237554" lon="8.30626387974838" id="-4027">
		<tag k="highway" v="path" />
		<tag k="name" v="Gesellstigen" />
		<tag k="ssr:stedsnr" v="159579" />
	</node>
	<node lat="62.78895277689859" lon="7.8074000085513" id="-4035">
		<tag k="highway" v="path" />
		<tag k="name" v="Sandstien" />
		<tag k="ssr:stedsnr" v="159616" />
	</node>
	<node lat="62.75677221841293" lon="8.036908332558971" id="-4052">
		<tag k="highway" v="path" />
		<tag k="name" v="Trøvegan" />
		<tag k="ssr:stedsnr" v="159796" />
	</node>
	<node lat="62.67537777446535" lon="7.302952784753912" id="-4250">
		<tag k="amenity" v="ferry_terminal" />
		<tag k="name" v="Sekken ferjekai" />
		<tag k="ssr:stedsnr" v="217137" />
	</node>
	<node lat="62.72779444050489" lon="7.833500006449316" id="-4298">
		<tag k="ford" v="yes" />
		<tag k="name" v="Buvadet" />
		<tag k="place" v="locality" />
		<tag k="ssr:stedsnr" v="219062" />
	</node>
	<node lat="62.75350833326763" lon="7.565630547132621" id="-4407">
		<tag k="ford" v="yes" />
		<tag k="name" v="Ytre Skålvadet" />
		<tag k="place" v="locality" />
		<tag k="ssr:stedsnr" v="277777" />
	</node>
	<node lat="62.73881666887895" lon="7.407561101667682" id="-4411">
		<tag k="highway" v="path" />
		<tag k="name" v="Låkestien" />
		<tag k="ssr:stedsnr" v="277796" />
	</node>
	<node lat="62.72260833395296" lon="7.924400007337718" id="-4434">
=======
	<node id="-51466" lat="62.8151138881" lon="7.80099167647">
		<tag k="bridge" v="yes" />
		<tag k="layer" v="1" />
		<tag k="name" v="Gussiåsbrua" />
		<tag k="ssr:stedsnr" v="774901" />
	</node>
	<node id="-48901" lat="62.7146388928" lon="7.62778610465">
		<tag k="fixme" v="verify maritime location" />
		<tag k="mooring" v="yes" />
		<tag k="name" v="Gammelstøa" />
		<tag k="place" v="locality" />
		<tag k="ssr:stedsnr" v="31371" />
	</node>
	<node id="-46340" lat="62.722608334" lon="7.92440000734">
		<tag k="bridge" v="yes" />
		<tag k="layer" v="1" />
		<tag k="name" v="Ørabrua" />
		<tag k="ssr:stedsnr" v="280075" />
	</node>
	<node id="-46550" lat="62.6849083348" lon="7.46474721328">
		<tag k="amenity" v="ferry_terminal" />
		<tag k="name" v="Sølsnes ferjekai" />
		<tag k="ssr:stedsnr" v="450489" />
	</node>
	<node id="-46336" lat="62.7370604393" lon="7.13553327228">
		<tag k="aeroway" v="airstrip" />
		<tag k="name" v="Molde helikopterplass, Molde sykehus" />
		<tag k="ssr:stedsnr" v="162514" />
	</node>
	<node id="-48170" lat="62.7726111117" lon="8.22060555675">
		<tag k="highway" v="path" />
		<tag k="name" v="Fjellvegen" />
		<tag k="ssr:stedsnr" v="766341" />
	</node>
	<node id="-51447" lat="62.6900638882" lon="7.96896944202">
		<tag k="name" v="Gammelledet" />
		<tag k="place" v="locality" />
		<tag k="ssr:stedsnr" v="765990" />
	</node>
	<node id="-46838" lat="62.7965083297" lon="7.85465556231">
>>>>>>> e1d4bc35ff8a6074a6f2e91616a996b547c36f15
		<tag k="bridge" v="yes" />
		<tag k="layer" v="1" />
		<tag k="name" v="Ørabrua" />
		<tag k="ssr:stedsnr" v="280075" />
	</node>
<<<<<<< HEAD
	<node lat="62.73242222154737" lon="7.042783336427462" id="-4592">
		<tag k="bridge" v="yes" />
		<tag k="layer" v="1" />
		<tag k="name" v="Haukabøbrua" />
		<tag k="ssr:stedsnr" v="332375" />
	</node>
	<node lat="62.68416666278844" lon="6.772083339710501" id="-4614">
=======
	<node id="-47348" lat="62.7177777801" lon="6.7191611143">
		<tag k="highway" v="path" />
		<tag k="name" v="Buråsvegen" />
		<tag k="ssr:stedsnr" v="697049" />
	</node>
	<node id="-47742" lat="62.7790444406" lon="7.48871944197">
		<tag k="bridge" v="yes" />
		<tag k="layer" v="1" />
		<tag k="name" v="Nedre Gujordbrua" />
		<tag k="ssr:stedsnr" v="635303" />
	</node>
	<node id="-47345" lat="62.7430500021" lon="7.16911388328">
>>>>>>> e1d4bc35ff8a6074a6f2e91616a996b547c36f15
		<tag k="bridge" v="yes" />
		<tag k="layer" v="1" />
		<tag k="name" v="Sørheggdalsbrua" />
		<tag k="ssr:stedsnr" v="334476" />
	</node>
<<<<<<< HEAD
	<node lat="62.705080554795686" lon="7.434877770749588" id="-4673">
		<tag k="fixme" v="consider highway=path" />
		<tag k="highway" v="track" />
		<tag k="name" v="Kamsetervegen" />
		<tag k="ssr:stedsnr" v="338874" />
	</node>
	<node lat="62.720388886666626" lon="7.932222230619441" id="-4744">
		<tag k="junction" v="yes" />
		<tag k="name" v="Korsvegen" />
		<tag k="place" v="locality" />
		<tag k="ssr:stedsnr" v="341968" />
	</node>
	<node lat="62.71666944658414" lon="6.749405549743366" id="-4823">
=======
	<node id="-47344" lat="62.7783083372" lon="7.67369723011">
>>>>>>> e1d4bc35ff8a6074a6f2e91616a996b547c36f15
		<tag k="bridge" v="yes" />
		<tag k="layer" v="1" />
		<tag k="name" v="Torsvikbrua" />
		<tag k="ssr:stedsnr" v="391320" />
	</node>
<<<<<<< HEAD
	<node lat="62.72278055514594" lon="7.4303888912258165" id="-4824">
=======
	<node id="-47341" lat="62.7115222223" lon="6.72851111396">
>>>>>>> e1d4bc35ff8a6074a6f2e91616a996b547c36f15
		<tag k="bridge" v="yes" />
		<tag k="layer" v="1" />
		<tag k="name" v="Geitnesbrua" />
		<tag k="ssr:stedsnr" v="392419" />
	</node>
	<node lat="62.70147222527334" lon="6.6965638873641495" id="-4842">
		<tag k="landuse" v="harbour" />
		<tag k="name" v="Ugelvikhamna" />
		<tag k="seamark:type" v="harbour" />
		<tag k="ssr:stedsnr" v="394564" />
	</node>
<<<<<<< HEAD
	<node lat="62.762397220285145" lon="7.336241662926804" id="-4909">
=======
	<node id="-46315" lat="62.7889527769" lon="7.80740000855">
>>>>>>> e1d4bc35ff8a6074a6f2e91616a996b547c36f15
		<tag k="highway" v="path" />
		<tag k="name" v="Råket" />
		<tag k="ssr:stedsnr" v="399359" />
	</node>
	<node lat="62.72850000201706" lon="7.829980546008501" id="-4974">
		<tag k="highway" v="path" />
		<tag k="name" v="Brattstien" />
		<tag k="ssr:stedsnr" v="401914" />
	</node>
	<node lat="62.71023888663234" lon="7.949780561428785" id="-4978">
		<tag k="bridge" v="yes" />
		<tag k="layer" v="1" />
		<tag k="name" v="Hansetbrua" />
		<tag k="ssr:stedsnr" v="401947" />
	</node>
	<node lat="62.78431944633521" lon="8.033924995527396" id="-4985">
		<tag k="ford" v="yes" />
		<tag k="name" v="Nedre Steinvadet" />
		<tag k="place" v="locality" />
		<tag k="ssr:stedsnr" v="402466" />
	</node>
	<node lat="62.699838887695456" lon="6.703747221389603" id="-5154">
		<tag k="bridge" v="yes" />
		<tag k="layer" v="1" />
		<tag k="name" v="Kyrkjebrua" />
		<tag k="ssr:stedsnr" v="512301" />
	</node>
<<<<<<< HEAD
	<node lat="62.764322222273655" lon="7.375347224488683" id="-5156">
=======
	<node id="-48359" lat="62.7465472195" lon="7.25627500834">
>>>>>>> e1d4bc35ff8a6074a6f2e91616a996b547c36f15
		<tag k="bridge" v="yes" />
		<tag k="layer" v="1" />
		<tag k="name" v="Sigersetbrua" />
		<tag k="ssr:stedsnr" v="514292" />
	</node>
<<<<<<< HEAD
	<node lat="62.77904444063242" lon="7.488719441971865" id="-5157">
=======
	<node id="-48865" lat="62.7951944443" lon="7.67197778157">
>>>>>>> e1d4bc35ff8a6074a6f2e91616a996b547c36f15
		<tag k="bridge" v="yes" />
		<tag k="layer" v="1" />
		<tag k="name" v="Hagabrua" />
		<tag k="ssr:stedsnr" v="514337" />
	</node>
<<<<<<< HEAD
	<node lat="62.7938083353567" lon="7.72386110307942" id="-5158">
=======
	<node id="-48864" lat="62.7376055559" lon="7.16396945031">
>>>>>>> e1d4bc35ff8a6074a6f2e91616a996b547c36f15
		<tag k="bridge" v="yes" />
		<tag k="layer" v="1" />
		<tag k="name" v="Osbrua" />
		<tag k="ssr:stedsnr" v="514449" />
	</node>
<<<<<<< HEAD
	<node lat="62.777713893225744" lon="7.643408330455041" id="-5159">
=======
	<node id="-48863" lat="62.7865583301" lon="7.53705000986">
>>>>>>> e1d4bc35ff8a6074a6f2e91616a996b547c36f15
		<tag k="bridge" v="yes" />
		<tag k="layer" v="1" />
		<tag k="name" v="Ullalandsbrua" />
		<tag k="ssr:stedsnr" v="514451" />
	</node>
	<node lat="62.70337500378998" lon="6.709616662939076" id="-5171">
		<tag k="highway" v="path" />
		<tag k="name" v="Fjøsbakken" />
		<tag k="ssr:stedsnr" v="515588" />
	</node>
	<node lat="62.690977780080566" lon="7.511236109841407" id="-5177">
		<tag k="highway" v="path" />
		<tag k="name" v="Myrvegen" />
		<tag k="ssr:stedsnr" v="516441" />
	</node>
	<node lat="62.797116665811636" lon="8.071436108871131" id="-5262">
		<tag k="ford" v="yes" />
		<tag k="name" v="Tverrelvvadet" />
		<tag k="place" v="locality" />
		<tag k="ssr:stedsnr" v="523487" />
	</node>
	<node lat="62.80788333195667" lon="8.087266669388185" id="-5263">
		<tag k="ford" v="yes" />
		<tag k="name" v="Grønlivadet" />
		<tag k="place" v="locality" />
		<tag k="ssr:stedsnr" v="523342" />
	</node>
<<<<<<< HEAD
	<node lat="62.81338333390857" lon="8.008766658751762" id="-5268">
=======
	<node id="-47325" lat="62.8133833339" lon="8.00876665875">
>>>>>>> e1d4bc35ff8a6074a6f2e91616a996b547c36f15
		<tag k="fixme" v="verify maritime location" />
		<tag k="mooring" v="yes" />
		<tag k="name" v="Nilsløvoran" />
		<tag k="place" v="locality" />
		<tag k="ssr:stedsnr" v="523358" />
	</node>
<<<<<<< HEAD
	<node lat="62.80168610976769" lon="7.9415194534532825" id="-5270">
		<tag k="fixme" v="consider highway=path" />
		<tag k="highway" v="track" />
		<tag k="name" v="Måsvassvegen" />
		<tag k="ssr:stedsnr" v="523536" />
	</node>
	<node lat="62.69812777593576" lon="7.425597218553792" id="-5304">
		<tag k="bridge" v="yes" />
		<tag k="layer" v="1" />
		<tag k="name" v="Åsledbrua" />
		<tag k="ssr:stedsnr" v="528884" />
	</node>
	<node lat="62.74808333314782" lon="7.260647228823293" id="-5389">
		<tag k="bridge" v="yes" />
		<tag k="layer" v="1" />
		<tag k="name" v="Årøbrua" />
		<tag k="ssr:stedsnr" v="574293" />
	</node>
	<node lat="62.73266666251633" lon="7.151469445415048" id="-5436">
		<tag k="man_made" v="breakwater" />
		<tag k="name" v="Reknesmoloen" />
		<tag k="place" v="locality" />
		<tag k="ssr:stedsnr" v="580430" />
	</node>
	<node lat="62.74691389069183" lon="7.095222226719345" id="-5450">
=======
	<node id="-50042" lat="62.7203888867" lon="7.93222223062">
		<tag k="junction" v="yes" />
		<tag k="name" v="Korsvegen" />
		<tag k="place" v="locality" />
		<tag k="ssr:stedsnr" v="341968" />
	</node>
	<node id="-49369" lat="62.7362750042" lon="7.16458055903">
		<tag k="man_made" v="breakwater" />
		<tag k="name" v="Elvemoloen" />
		<tag k="place" v="locality" />
		<tag k="ssr:stedsnr" v="118576" />
	</node>
	<node id="-50901" lat="62.7369694425" lon="7.15933332572">
		<tag k="man_made" v="quay" />
		<tag k="name" v="Honnørbrygga" />
		<tag k="place" v="locality" />
		<tag k="ssr:stedsnr" v="603517" />
	</node>
	<node id="-49360" lat="62.722052774" lon="7.92635555308">
		<tag k="bridge" v="yes" />
		<tag k="layer" v="1" />
		<tag k="name" v="Myklebostadbrua" />
		<tag k="ssr:stedsnr" v="98951" />
	</node>
	<node id="-46287" lat="62.7388166689" lon="7.40756110167">
		<tag k="highway" v="path" />
		<tag k="name" v="Låkestien" />
		<tag k="ssr:stedsnr" v="277796" />
	</node>
	<node id="-49868" lat="62.6841666628" lon="6.77208333971">
		<tag k="bridge" v="yes" />
		<tag k="layer" v="1" />
		<tag k="name" v="Sørheggdalsbrua" />
		<tag k="ssr:stedsnr" v="334476" />
	</node>
	<node id="-50379" lat="62.7843194463" lon="8.03392499553">
		<tag k="ford" v="yes" />
		<tag k="name" v="Nedre Steinvadet" />
		<tag k="place" v="locality" />
		<tag k="ssr:stedsnr" v="402466" />
	</node>
	<node id="-51402" lat="62.6311555514" lon="8.11995554677">
		<tag k="amenity" v="ferry_terminal" />
		<tag k="name" v="Øverås ferjekai" />
		<tag k="ssr:stedsnr" v="764418" />
	</node>
	<node id="-47305" lat="62.6909777801" lon="7.51123610984">
>>>>>>> e1d4bc35ff8a6074a6f2e91616a996b547c36f15
		<tag k="highway" v="path" />
		<tag k="name" v="Pederstien" />
		<tag k="ssr:stedsnr" v="580720" />
	</node>
	<node lat="62.80555555620036" lon="7.844041670280414" id="-5504">
		<tag k="bridge" v="yes" />
		<tag k="layer" v="1" />
		<tag k="name" v="Bakkebrua" />
		<tag k="ssr:stedsnr" v="583524" />
	</node>
<<<<<<< HEAD
	<node lat="62.69755555511939" lon="7.962427769474649" id="-5539">
=======
	<node id="-50887" lat="62.6975555551" lon="7.96242776947">
>>>>>>> e1d4bc35ff8a6074a6f2e91616a996b547c36f15
		<tag k="bridge" v="yes" />
		<tag k="layer" v="1" />
		<tag k="name" v="Bersetbrua" />
		<tag k="ssr:stedsnr" v="583988" />
	</node>
<<<<<<< HEAD
	<node lat="62.73696944246807" lon="7.159333325722468" id="-5549">
		<tag k="man_made" v="quay" />
		<tag k="name" v="Honnørbrygga" />
		<tag k="place" v="locality" />
		<tag k="ssr:stedsnr" v="603517" />
	</node>
	<node lat="62.707708336563954" lon="6.933725008936439" id="-5619">
		<tag k="fixme" v="verify maritime location" />
		<tag k="mooring" v="yes" />
		<tag k="name" v="Båtolastøa" />
		<tag k="place" v="locality" />
		<tag k="ssr:stedsnr" v="636594" />
	</node>
	<node lat="62.6938083352235" lon="7.972986114332352" id="-5698">
		<tag k="junction" v="yes" />
		<tag k="name" v="Dilen" />
		<tag k="place" v="locality" />
		<tag k="ssr:stedsnr" v="643044" />
	</node>
	<node lat="62.671194443950164" lon="7.983902784712699" id="-5742">
		<tag k="ford" v="yes" />
		<tag k="name" v="Steffåbrua" />
		<tag k="place" v="locality" />
		<tag k="ssr:stedsnr" v="644909" />
	</node>
	<node lat="62.67736666427171" lon="8.112919443533272" id="-5746">
=======
	<node id="-46786" lat="62.7596166655" lon="7.33166944242">
		<tag k="highway" v="path" />
		<tag k="name" v="Vadet" />
		<tag k="ssr:stedsnr" v="460385" />
	</node>
	<node id="-46283" lat="62.7535083333" lon="7.56563054713">
		<tag k="ford" v="yes" />
		<tag k="name" v="Ytre Skålvadet" />
		<tag k="place" v="locality" />
		<tag k="ssr:stedsnr" v="277777" />
	</node>
	<node id="-51383" lat="62.7536944452" lon="7.17150833236">
		<tag k="bridge" v="yes" />
		<tag k="layer" v="1" />
		<tag k="name" v="Fjellbrua" />
		<tag k="ssr:stedsnr" v="763713" />
	</node>
	<node id="-49842" lat="62.7324222215" lon="7.04278333643">
>>>>>>> e1d4bc35ff8a6074a6f2e91616a996b547c36f15
		<tag k="bridge" v="yes" />
		<tag k="layer" v="1" />
		<tag k="name" v="Vassbrua" />
		<tag k="ssr:stedsnr" v="644545" />
	</node>
	<node lat="62.43219166716979" lon="8.34538054638958" id="-5854">
		<tag k="highway" v="path" />
		<tag k="name" v="Finnsetstian" />
		<tag k="ssr:stedsnr" v="748785" />
	</node>
<<<<<<< HEAD
	<node lat="62.77104166846491" lon="7.451236103047905" id="-5857">
=======
	<node id="-49841" lat="62.735047225" lon="7.08789999756">
>>>>>>> e1d4bc35ff8a6074a6f2e91616a996b547c36f15
		<tag k="bridge" v="yes" />
		<tag k="layer" v="1" />
		<tag k="name" v="Mjelvebrua" />
		<tag k="ssr:stedsnr" v="756258" />
	</node>
<<<<<<< HEAD
	<node lat="62.790966667578175" lon="7.605941674474309" id="-5859">
		<tag k="bridge" v="yes" />
		<tag k="layer" v="1" />
		<tag k="name" v="Stokkebrua" />
		<tag k="ssr:stedsnr" v="757324" />
	</node>
	<node lat="62.75369444520928" lon="7.17150833235709" id="-5931">
=======
	<node id="-50352" lat="62.7102388866" lon="7.94978056143">
		<tag k="bridge" v="yes" />
		<tag k="layer" v="1" />
		<tag k="name" v="Hansetbrua" />
		<tag k="ssr:stedsnr" v="401947" />
	</node>
	<node id="-50348" lat="62.728500002" lon="7.82998054601">
		<tag k="highway" v="path" />
		<tag k="name" v="Brattstien" />
		<tag k="ssr:stedsnr" v="401914" />
	</node>
	<node id="-48290" lat="62.7513611078" lon="7.28702777233">
		<tag k="layer" v="-1" />
		<tag k="name" v="Røbekkundergangen" />
		<tag k="ssr:stedsnr" v="817323" />
		<tag k="tunnel" v="yes" />
	</node>
	<node id="-48289" lat="62.8344277737" lon="7.80044166045">
		<tag k="layer" v="-1" />
		<tag k="name" v="Botterliundergangen" />
		<tag k="ssr:stedsnr" v="817318" />
		<tag k="tunnel" v="yes" />
	</node>
	<node id="-50845" lat="62.8055555562" lon="7.84404167028">
>>>>>>> e1d4bc35ff8a6074a6f2e91616a996b547c36f15
		<tag k="bridge" v="yes" />
		<tag k="layer" v="1" />
		<tag k="name" v="Fjellbrua" />
		<tag k="ssr:stedsnr" v="763713" />
	</node>
<<<<<<< HEAD
	<node lat="62.631155551402976" lon="8.119955546765766" id="-5946">
		<tag k="amenity" v="ferry_terminal" />
		<tag k="name" v="Øverås ferjekai" />
		<tag k="ssr:stedsnr" v="764418" />
	</node>
	<node lat="62.77261111170558" lon="8.220605556754156" id="-5991">
		<tag k="highway" v="path" />
		<tag k="name" v="Fjellvegen" />
		<tag k="ssr:stedsnr" v="766341" />
	</node>
	<node lat="62.7513611078097" lon="7.287027772334389" id="-6064">
		<tag k="layer" v="-1" />
		<tag k="name" v="Røbekkundergangen" />
		<tag k="ssr:stedsnr" v="817323" />
		<tag k="tunnel" v="yes" />
	</node>
	<node lat="62.733058334975674" lon="7.043994438655017" id="-6226">
=======
	<node id="-47767" lat="62.7980416649" lon="7.65031665839">
		<tag k="bridge" v="yes" />
		<tag k="layer" v="1" />
		<tag k="name" v="Kleivbrua" />
		<tag k="ssr:stedsnr" v="878385" />
	</node>
	<node id="-47766" lat="62.8120277752" lon="7.70388611638">
>>>>>>> e1d4bc35ff8a6074a6f2e91616a996b547c36f15
		<tag k="bridge" v="yes" />
		<tag k="layer" v="1" />
		<tag k="name" v="Øvre Haukabøbrua" />
		<tag k="ssr:stedsnr" v="841743" />
	</node>
<<<<<<< HEAD
	<node lat="62.72883055379851" lon="6.985908324226816" id="-6300">
=======
	<node id="-47762" lat="62.7288305538" lon="6.98590832423">
>>>>>>> e1d4bc35ff8a6074a6f2e91616a996b547c36f15
		<tag k="amenity" v="ferry_terminal" />
		<tag k="name" v="Mordalsvågen ferjekai" />
		<tag k="ssr:stedsnr" v="876690" />
	</node>
<<<<<<< HEAD
	<node lat="62.81202777523163" lon="7.70388611637681" id="-6301">
=======
	<node id="-47555" lat="62.7744666703" lon="7.98713332818">
		<tag k="name" v="Kyrkjeledet" />
		<tag k="place" v="locality" />
		<tag k="ssr:stedsnr" v="705650" />
	</node>
	<node id="-46223" lat="62.7397222242" lon="7.18803333959">
>>>>>>> e1d4bc35ff8a6074a6f2e91616a996b547c36f15
		<tag k="bridge" v="yes" />
		<tag k="layer" v="1" />
		<tag k="name" v="Istadbrua" />
		<tag k="ssr:stedsnr" v="878381" />
	</node>
<<<<<<< HEAD
	<node lat="62.79804166488027" lon="7.65031665839237" id="-6302">
=======
	<node id="-47111" lat="62.7643222223" lon="7.37534722449">
		<tag k="bridge" v="yes" />
		<tag k="layer" v="1" />
		<tag k="name" v="Sigersetbrua" />
		<tag k="ssr:stedsnr" v="514292" />
	</node>
	<node id="-46274" lat="62.7435638891" lon="7.42045555653">
		<tag k="highway" v="path" />
		<tag k="name" v="Midtlivegen" />
		<tag k="ssr:stedsnr" v="277889" />
	</node>
	<node id="-46615" lat="62.7022073569" lon="7.95358022873">
		<tag k="bridge" v="yes" />
		<tag k="layer" v="1" />
		<tag k="name" v="Hellebrua" />
		<tag k="ssr:stedsnr" v="462988" />
	</node>
	<node id="-49286" lat="62.7429166662" lon="7.49171944797">
>>>>>>> e1d4bc35ff8a6074a6f2e91616a996b547c36f15
		<tag k="bridge" v="yes" />
		<tag k="layer" v="1" />
		<tag k="name" v="Kleivbrua" />
		<tag k="ssr:stedsnr" v="878385" />
	</node>
<<<<<<< HEAD
	<node lat="62.82933610966797" lon="8.086880561802108" id="-6418">
		<tag k="ford" v="yes" />
		<tag k="name" v="Setervadet" />
=======
	<node id="-51843" lat="62.7339277795" lon="7.15253611865">
		<tag k="man_made" v="quay" />
		<tag k="name" v="Rekneskaia" />
>>>>>>> e1d4bc35ff8a6074a6f2e91616a996b547c36f15
		<tag k="place" v="locality" />
		<tag k="ssr:stedsnr" v="887554" />
	</node>
<<<<<<< HEAD
	<node lat="62.69320000066597" lon="7.505799992223117" id="-6528">
		<tag k="highway" v="path" />
		<tag k="name" v="Hjellvegen" />
		<tag k="ssr:stedsnr" v="945568" />
	</node>
	<node lat="62.726377781060506" lon="7.445583326794986" id="-6554">
		<tag k="ford" v="yes" />
		<tag k="name" v="Gammelsagvadet" />
		<tag k="place" v="locality" />
		<tag k="ssr:stedsnr" v="945872" />
	</node>
	<node lat="62.69372777874248" lon="7.8884944440140226" id="-6570">
=======
	<node id="-51840" lat="62.7592499958" lon="7.35758889326">
		<tag k="bridge" v="yes" />
		<tag k="layer" v="1" />
		<tag k="name" v="Hommelbrua" />
		<tag k="ssr:stedsnr" v="953885" />
	</node>
	<node id="-47743" lat="62.794777774" lon="7.542758343">
		<tag k="bridge" v="yes" />
		<tag k="layer" v="1" />
		<tag k="name" v="Nedre Roaldsetbrua" />
		<tag k="ssr:stedsnr" v="635307" />
	</node>
	<node id="-49278" lat="62.7520277761" lon="7.54780833445">
>>>>>>> e1d4bc35ff8a6074a6f2e91616a996b547c36f15
		<tag k="ford" v="yes" />
		<tag k="name" v="Vadet" />
		<tag k="place" v="locality" />
		<tag k="ssr:stedsnr" v="948058" />
	</node>
	<node lat="62.80836666804066" lon="8.021344440733726" id="-6582">
		<tag k="highway" v="path" />
		<tag k="name" v="Paulvegen" />
		<tag k="ssr:stedsnr" v="948352" />
	</node>
<<<<<<< HEAD
	<node lat="62.79164722020186" lon="8.03824444194432" id="-6600">
		<tag k="bridge" v="yes" />
		<tag k="layer" v="1" />
		<tag k="name" v="Øvre Steinvadet" />
		<tag k="ssr:stedsnr" v="948474" />
	</node>
	<node lat="62.82690555348544" lon="8.061419435035427" id="-6616">
		<tag k="highway" v="path" />
		<tag k="name" v="Stigan" />
		<tag k="ssr:stedsnr" v="948734" />
	</node>
	<node lat="62.70651389287872" lon="7.938036108414052" id="-6636">
=======
	<node id="-46205" lat="62.7884111079" lon="7.52437221276">
		<tag k="bridge" v="yes" />
		<tag k="layer" v="1" />
		<tag k="name" v="Krokhølbrua" />
		<tag k="ssr:stedsnr" v="271391" />
	</node>
	<node id="-46204" lat="62.741051765" lon="7.22140958775">
		<tag k="layer" v="-1" />
		<tag k="name" v="Lubbenesundergangen" />
		<tag k="ssr:stedsnr" v="271377" />
		<tag k="tunnel" v="yes" />
	</node>
	<node id="-46203" lat="62.7871536381" lon="7.52061242339">
		<tag k="layer" v="-1" />
		<tag k="name" v="Oppdølsundergangen" />
		<tag k="ssr:stedsnr" v="271376" />
		<tag k="tunnel" v="yes" />
	</node>
	<node id="-48759" lat="62.7065138929" lon="7.93803610841">
>>>>>>> e1d4bc35ff8a6074a6f2e91616a996b547c36f15
		<tag k="bridge" v="yes" />
		<tag k="layer" v="1" />
		<tag k="name" v="Tverrelvbrua" />
		<tag k="ssr:stedsnr" v="948959" />
	</node>
<<<<<<< HEAD
	<node lat="62.75924999576454" lon="7.357588893260945" id="-6643">
		<tag k="bridge" v="yes" />
		<tag k="layer" v="1" />
		<tag k="name" v="Hommelbrua" />
		<tag k="ssr:stedsnr" v="953885" />
	</node>
	<node lat="62.733927779458746" lon="7.152536118649536" id="-6648">
		<tag k="man_made" v="quay" />
		<tag k="name" v="Rekneskaia" />
		<tag k="place" v="locality" />
		<tag k="ssr:stedsnr" v="968651" />
	</node>
	<node lat="62.78299765085914" lon="7.301517448929068" id="-6678">
		<tag k="highway" v="path" />
		<tag k="name" v="Stokkevelta" />
		<tag k="ssr:stedsnr" v="1073282" />
=======
	<node id="-47219" lat="62.6810555548" lon="6.76130555013">
		<tag k="amenity" v="parking" />
		<tag k="name" v="Klausethjellen P-plass" />
		<tag k="ssr:stedsnr" v="464911" />
	</node>
	<node id="-50285" lat="62.6901027746" lon="8.11941943858">
		<tag k="man_made" v="quay" />
		<tag k="name" v="Nauste kai" />
		<tag k="place" v="locality" />
		<tag k="ssr:stedsnr" v="401378" />
	</node>
	<node id="-46696" lat="62.7843222202" lon="7.47894721489">
		<tag k="highway" v="path" />
		<tag k="name" v="Gjervegen" />
		<tag k="ssr:stedsnr" v="459122" />
	</node>
	<node id="-46206" lat="62.7481230661" lon="7.26052218725">
		<tag k="layer" v="-1" />
		<tag k="name" v="Årøundergangen" />
		<tag k="ssr:stedsnr" v="271318" />
		<tag k="tunnel" v="yes" />
	</node>
	<node id="-50785" lat="62.7326666625" lon="7.15146944542">
		<tag k="man_made" v="breakwater" />
		<tag k="name" v="Reknesmoloen" />
		<tag k="place" v="locality" />
		<tag k="ssr:stedsnr" v="580430" />
	</node>
	<node id="-48735" lat="62.7916472202" lon="8.03824444194">
		<tag k="bridge" v="yes" />
		<tag k="layer" v="1" />
		<tag k="name" v="Øvre Steinvadet" />
		<tag k="ssr:stedsnr" v="948474" />
	</node>
	<node id="-47198" lat="62.8408638871" lon="7.70195555654">
		<tag k="landuse" v="industrial" />
		<tag k="name" v="Grøndal kraftstasjon" />
		<tag k="power" v="plant" />
		<tag k="ssr:stedsnr" v="459207" />
	</node>
	<node id="-48729" lat="62.6937277787" lon="7.88849444401">
		<tag k="ford" v="yes" />
		<tag k="name" v="Vadet" />
		<tag k="place" v="locality" />
		<tag k="ssr:stedsnr" v="948058" />
	</node>
	<node id="-47190" lat="62.7687833321" lon="7.52913333712">
		<tag k="highway" v="path" />
		<tag k="name" v="Bustien" />
		<tag k="ssr:stedsnr" v="459178" />
	</node>
	<node id="-50261" lat="62.7623972203" lon="7.33624166293">
		<tag k="highway" v="path" />
		<tag k="name" v="Råket" />
		<tag k="ssr:stedsnr" v="399359" />
	</node>
	<node id="-51284" lat="62.7909666676" lon="7.60594167447">
		<tag k="bridge" v="yes" />
		<tag k="layer" v="1" />
		<tag k="name" v="Stokkebrua" />
		<tag k="ssr:stedsnr" v="757324" />
	</node>
	<node id="-51283" lat="62.7346666631" lon="7.0950083416">
		<tag k="layer" v="-1" />
		<tag k="name" v="Cap Claraundergangen" />
		<tag k="ssr:stedsnr" v="757309" />
		<tag k="tunnel" v="yes" />
	</node>
	<node id="-51281" lat="62.8065055516" lon="7.58007778178">
		<tag k="bridge" v="yes" />
		<tag k="layer" v="1" />
		<tag k="name" v="Eidsseterbrua" />
		<tag k="ssr:stedsnr" v="756308" />
	</node>
	<node id="-51280" lat="62.7710416685" lon="7.45123610305">
		<tag k="bridge" v="yes" />
		<tag k="layer" v="1" />
		<tag k="name" v="Mjelvebrua" />
		<tag k="ssr:stedsnr" v="756258" />
	</node>
	<node id="-51278" lat="62.4321916672" lon="8.34538054639">
		<tag k="highway" v="path" />
		<tag k="name" v="Finnsetstian" />
		<tag k="ssr:stedsnr" v="748785" />
	</node>
	<node id="-46349" lat="62.8126138884" lon="8.0165916605">
		<tag k="fixme" v="verify maritime location" />
		<tag k="mooring" v="yes" />
		<tag k="name" v="Brekkevoran" />
		<tag k="place" v="locality" />
		<tag k="ssr:stedsnr" v="280287" />
	</node>
	<node id="-46666" lat="62.6397499974" lon="6.52360000317">
		<tag k="amenity" v="ferry_terminal" />
		<tag k="name" v="Dryna ferjekai" />
		<tag k="ssr:stedsnr" v="277305" />
	</node>
	<node id="-46653" lat="62.8173472203" lon="7.73088056393">
		<tag k="fixme" v="consider highway=path" />
		<tag k="highway" v="track" />
		<tag k="name" v="Åbakkvegen" />
		<tag k="ssr:stedsnr" v="459003" />
	</node>
	<node id="-46642" lat="62.7345916696" lon="6.83875555668">
		<tag k="bridge" v="yes" />
		<tag k="layer" v="1" />
		<tag k="name" v="Ræstadbrua" />
		<tag k="ssr:stedsnr" v="270321" />
	</node>
	<node id="-46641" lat="62.6787416649" lon="6.67634721867">
		<tag k="bridge" v="yes" />
		<tag k="layer" v="1" />
		<tag k="name" v="Bakkebrua" />
		<tag k="ssr:stedsnr" v="270317" />
	</node>
	<node id="-46124" lat="62.7620694474" lon="8.13482221321">
		<tag k="highway" v="path" />
		<tag k="name" v="Romsdalsvegen" />
		<tag k="ssr:stedsnr" v="98368" />
	</node>
	<node id="-46770" lat="62.7775361131" lon="8.24572499838">
		<tag k="highway" v="path" />
		<tag k="name" v="Setervegen" />
		<tag k="ssr:stedsnr" v="280324" />
	</node>
	<node id="-50730" lat="62.7020083372" lon="7.55766666064">
		<tag k="bridge" v="yes" />
		<tag k="layer" v="1" />
		<tag k="name" v="Årsetbrua" />
		<tag k="ssr:stedsnr" v="574418" />
	</node>
	<node id="-50729" lat="62.7480833331" lon="7.26064722882">
		<tag k="bridge" v="yes" />
		<tag k="layer" v="1" />
		<tag k="name" v="Årøbrua" />
		<tag k="ssr:stedsnr" v="574293" />
	</node>
	<node id="-50214" lat="62.7493444487" lon="7.06611666827">
		<tag k="highway" v="path" />
		<tag k="name" v="Trongstien" />
		<tag k="ssr:stedsnr" v="398422" />
	</node>
	<node id="-51747" lat="62.733058335" lon="7.04399443866">
		<tag k="bridge" v="yes" />
		<tag k="layer" v="1" />
		<tag k="name" v="Øvre Haukabøbrua" />
		<tag k="ssr:stedsnr" v="841743" />
	</node>
	<node id="-49185" lat="62.7256777815" lon="6.79033333931">
		<tag k="highway" v="path" />
		<tag k="name" v="Mjåstien" />
		<tag k="ssr:stedsnr" v="91243" />
	</node>
	<node id="-47129" lat="62.7033750038" lon="6.70961666294">
		<tag k="highway" v="path" />
		<tag k="name" v="Fjøsbakken" />
		<tag k="ssr:stedsnr" v="515588" />
	</node>
	<node id="-47639" lat="62.7469138907" lon="7.09522222672">
		<tag k="highway" v="path" />
		<tag k="name" v="Pederstien" />
		<tag k="ssr:stedsnr" v="580720" />
	</node>
	<node id="-48660" lat="62.8293361097" lon="8.0868805618">
		<tag k="ford" v="yes" />
		<tag k="name" v="Setervadet" />
		<tag k="place" v="locality" />
		<tag k="ssr:stedsnr" v="887554" />
	</node>
	<node id="-50619" lat="62.8016861098" lon="7.94151945345">
		<tag k="fixme" v="consider highway=path" />
		<tag k="highway" v="track" />
		<tag k="name" v="Måsvassvegen" />
		<tag k="ssr:stedsnr" v="523536" />
	</node>
	<node id="-49168" lat="62.7951361085" lon="7.64790277155">
		<tag k="bridge" v="yes" />
		<tag k="layer" v="1" />
		<tag k="name" v="Grovabøbrua" />
		<tag k="ssr:stedsnr" v="89463" />
	</node>
	<node id="-47116" lat="62.7777138932" lon="7.64340833046">
		<tag k="bridge" v="yes" />
		<tag k="layer" v="1" />
		<tag k="name" v="Ullalandsbrua" />
		<tag k="ssr:stedsnr" v="514451" />
	</node>
	<node id="-47115" lat="62.7938083354" lon="7.72386110308">
		<tag k="bridge" v="yes" />
		<tag k="layer" v="1" />
		<tag k="name" v="Osbrua" />
		<tag k="ssr:stedsnr" v="514449" />
	</node>
	<node id="-47114" lat="62.6897944472" lon="7.4568333404">
		<tag k="bridge" v="yes" />
		<tag k="layer" v="1" />
		<tag k="name" v="Vikelvbrua" />
		<tag k="ssr:stedsnr" v="514407" />
	</node>
	<node id="-47113" lat="62.7790444406" lon="7.48871944197">
		<tag k="bridge" v="yes" />
		<tag k="layer" v="1" />
		<tag k="name" v="Hagabrua" />
		<tag k="ssr:stedsnr" v="514337" />
	</node>
	<node id="-46088" lat="62.7765388847" lon="7.18816666407">
		<tag k="highway" v="path" />
		<tag k="name" v="Trongstien" />
		<tag k="ssr:stedsnr" v="95664" />
	</node>
	<node id="-51884" lat="62.7829976509" lon="7.30151744893">
		<tag k="highway" v="path" />
		<tag k="name" v="Stokkevelta" />
		<tag k="ssr:stedsnr" v="1073282" />
	</node>
	<node id="-47109" lat="62.7193805559" lon="6.93767777932">
		<tag k="amenity" v="ferry_terminal" />
		<tag k="name" v="Solholmen ferjekai" />
		<tag k="ssr:stedsnr" v="512708" />
	</node>
	<node id="-47108" lat="62.6998388877" lon="6.70374722139">
		<tag k="bridge" v="yes" />
		<tag k="layer" v="1" />
		<tag k="name" v="Kyrkjebrua" />
		<tag k="ssr:stedsnr" v="512301" />
>>>>>>> e1d4bc35ff8a6074a6f2e91616a996b547c36f15
	</node>
</osm>
