<?xml version="1.0" encoding="UTF-8"?>
<osm version="0.6" generator="osmapis">
	<node lat="62.760894442651164" lon="9.703725005561907" id="-85818">
		<tag k="highway" v="path" />
		<tag k="name" v="Stiin" />
		<tag k="ssr:stedsnr" v="36614" />
	</node>
	<node lat="62.874816259557704" lon="9.830618297186525" id="-85840">
		<tag k="bridge" v="yes" />
		<tag k="layer" v="1" />
		<tag k="name" v="Kjerkbrua" />
		<tag k="ssr:stedsnr" v="40708" />
	</node>
	<node lat="62.70243700499586" lon="9.95616961990936" id="-85868">
		<tag k="bridge" v="yes" />
		<tag k="layer" v="1" />
		<tag k="name" v="Åsbrua" />
		<tag k="ssr:stedsnr" v="97562" />
	</node>
	<node lat="62.80428389729055" lon="10.033360479987337" id="-85882">
		<tag k="bridge" v="yes" />
		<tag k="layer" v="1" />
		<tag k="name" v="Stavåbrua" />
		<tag k="ssr:stedsnr" v="101710" />
	</node>
	<node lat="62.81577500117404" lon="10.034433340046602" id="-85883">
		<tag k="bridge" v="yes" />
		<tag k="layer" v="1" />
		<tag k="loc_name" v="Gamle Skaumbrua" />
		<tag k="name" v="Skaumbrua" />
		<tag k="ssr:stedsnr" v="101711" />
	</node>
	<node lat="62.756402773772365" lon="9.993722213428494" id="-85975">
		<tag k="bridge" v="yes" />
		<tag k="layer" v="1" />
		<tag k="name" v="Jønnåbrua" />
		<tag k="ssr:stedsnr" v="161662" />
	</node>
	<node lat="62.866567018142476" lon="10.06867822916758" id="-86011">
		<tag k="bridge" v="yes" />
		<tag k="layer" v="1" />
		<tag k="name" v="Ilbrua" />
		<tag k="ssr:stedsnr" v="222687" />
	</node>
	<node lat="62.80074722002897" lon="9.545049990419598" id="-86012">
		<tag k="highway" v="path" />
		<tag k="name" v="Skårgangen" />
		<tag k="ssr:stedsnr" v="237982" />
	</node>
	<node lat="62.842622933862" lon="9.901102236427521" id="-86116">
		<tag k="bridge" v="yes" />
		<tag k="layer" v="1" />
		<tag k="name" v="Gunnesbrua" />
		<tag k="ssr:stedsnr" v="461834" />
	</node>
	<node lat="62.70151071942883" lon="10.131952610027286" id="-86119">
		<tag k="bridge" v="yes" />
		<tag k="layer" v="1" />
		<tag k="name" v="Novbrua" />
		<tag k="ssr:stedsnr" v="461792" />
	</node>
	<node lat="62.695746488477454" lon="9.939971298490184" id="-86135">
		<tag k="bridge" v="yes" />
		<tag k="layer" v="1" />
		<tag k="name" v="Nedre Gisnabrua" />
		<tag k="old_name" v="Gisnabrua" />
		<tag k="ssr:stedsnr" v="465698" />
	</node>
	<node lat="62.840091666589835" lon="9.77885556080965" id="-86204">
		<tag k="fixme" v="consider highway=path" />
		<tag k="highway" v="track" />
		<tag k="name" v="Gamle Nerskogvegen" />
		<tag k="ssr:stedsnr" v="399695" />
	</node>
	<node lat="62.81097950071404" lon="9.660552302094597" id="-86238">
		<tag k="alt_name" v="Minillbrua" />
		<tag k="bridge" v="yes" />
		<tag k="layer" v="1" />
		<tag k="name" v="Minnillbrua" />
		<tag k="ssr:stedsnr" v="404683" />
	</node>
	<node lat="62.676711111935354" lon="9.946544453751759" id="-86330">
		<tag k="highway" v="path" />
		<tag k="name" v="Moavegen" />
		<tag k="ssr:stedsnr" v="521571" />
	</node>
	<node lat="62.903562669914784" lon="9.807481375732042" id="-86391">
		<tag k="alt_name" v="Merkbrua;Merkesbrua" />
		<tag k="bridge" v="yes" />
		<tag k="layer" v="1" />
		<tag k="name" v="Mærkesbrua" />
		<tag k="ssr:stedsnr" v="582640" />
	</node>
	<node lat="62.61238333119573" lon="10.021133323685007" id="-86476">
		<tag k="bridge" v="yes" />
		<tag k="layer" v="1" />
		<tag k="name" v="Klevbrua" />
		<tag k="ssr:stedsnr" v="704935" />
	</node>
	<node lat="62.72470848236905" lon="9.996830910830726" id="-86501">
		<tag k="bridge" v="yes" />
		<tag k="layer" v="1" />
		<tag k="name" v="Orklabrua" />
		<tag k="ssr:stedsnr" v="642806" />
	</node>
	<node lat="62.764590042613996" lon="10.097941079204348" id="-86517">
		<tag k="bridge" v="yes" />
		<tag k="layer" v="1" />
		<tag k="name" v="Døåbrua" />
		<tag k="ssr:stedsnr" v="642789" />
	</node>
	<node lat="62.886694442690214" lon="9.852597231765976" id="-86603">
		<tag k="fixme" v="consider highway=path" />
		<tag k="highway" v="track" />
		<tag k="name" v="Hårstadvegen" />
		<tag k="ssr:stedsnr" v="764504" />
	</node>
	<node lat="62.70466280642791" lon="9.914792127580064" id="-86641">
		<tag k="bridge" v="yes" />
		<tag k="layer" v="1" />
		<tag k="name" v="Øvre Gisnabrua" />
		<tag k="old_name" v="Gisnabrua" />
		<tag k="ssr:stedsnr" v="768706" />
	</node>
	<node lat="62.83090023101101" lon="9.965639658219619" id="-86642">
		<tag k="bridge" v="yes" />
		<tag k="layer" v="1" />
		<tag k="name" v="Skjepphaugbrua" />
		<tag k="ssr:stedsnr" v="768717" />
	</node>
	<node lat="62.74874409123002" lon="9.959320299633994" id="-86643">
		<tag k="alt_name" v="Heverbrua" />
		<tag k="bridge" v="yes" />
		<tag k="layer" v="1" />
		<tag k="name" v="Øvre Heverbrua" />
		<tag k="ssr:stedsnr" v="768700" />
	</node>
	<node lat="62.710897224767955" lon="10.064230565019848" id="-86644">
		<tag k="amenity" v="parking" />
		<tag k="name" v="Korsan rasteplass" />
		<tag k="ssr:stedsnr" v="771264" />
	</node>
	<node lat="62.724507010488566" lon="9.968821618400032" id="-86648">
		<tag k="alt_name" v="Farlighets bru" />
		<tag k="bridge" v="yes" />
		<tag k="layer" v="1" />
		<tag k="name" v="Farleghetsbrua" />
		<tag k="ssr:stedsnr" v="800310" />
	</node>
	<node lat="62.73402206794679" lon="9.977043217213941" id="-86663">
		<tag k="bridge" v="yes" />
		<tag k="layer" v="1" />
		<tag k="name" v="Kløftbrua" />
		<tag k="old_name" v="Kløft bru" />
		<tag k="ssr:stedsnr" v="921333" />
	</node>
	<node lat="62.74906819540257" lon="9.984572640933765" id="-86669">
		<tag k="alt_name" v="Ulsberg stasjon" />
		<tag k="name" v="Ulsberg" />
		<tag k="railway" v="station" />
		<tag k="ssr:stedsnr" v="921397" />
		<tag k="train" v="yes" />
	</node>
	<node lat="62.845485448598595" lon="9.843943281926064" id="-86813">
		<tag k="bridge" v="yes" />
		<tag k="layer" v="1" />
		<tag k="name" v="Stamnesbrua" />
		<tag k="ssr:stedsnr" v="946739" />
	</node>
	<node lat="62.89151667113317" lon="9.856169435341391" id="-86935">
		<tag k="fixme" v="consider highway=path" />
		<tag k="highway" v="track" />
		<tag k="name" v="Hårstadvegen" />
		<tag k="ssr:stedsnr" v="36530" />
	</node>
	<node lat="62.68281565334601" lon="10.047891028350039" id="-87065">
		<tag k="alt_name" v="Tyskseterbekken bru" />
		<tag k="bridge" v="yes" />
		<tag k="layer" v="1" />
		<tag k="name" v="Tyskseterbekkbrua" />
		<tag k="ssr:stedsnr" v="101701" />
	</node>
	<node lat="62.88753333395226" lon="9.576613885662491" id="-87067">
		<tag k="highway" v="path" />
		<tag k="name" v="Gammelvegen" />
		<tag k="ssr:stedsnr" v="102108" />
	</node>
	<node lat="62.823002302925964" lon="10.01411247020332" id="-87099">
		<tag k="alt_name" v="Berkåk" />
		<tag k="name" v="Berkåk stasjon" />
		<tag k="railway" v="station" />
		<tag k="ssr:stedsnr" v="153748" />
		<tag k="train" v="yes" />
	</node>
	<node lat="62.71048450295494" lon="10.037291907087326" id="-87207">
		<tag k="bridge" v="yes" />
		<tag k="layer" v="1" />
		<tag k="name" v="Hyttbrua" />
		<tag k="ssr:stedsnr" v="217967" />
	</node>
	<node lat="62.86923811566022" lon="9.709238048278998" id="-87219">
		<tag k="bridge" v="yes" />
		<tag k="layer" v="1" />
		<tag k="name" v="Stobrua" />
		<tag k="old_name" v="Storbrua" />
		<tag k="ssr:stedsnr" v="218656" />
	</node>
	<node lat="62.69354407106969" lon="10.139066392100988" id="-87233">
		<tag k="bridge" v="yes" />
		<tag k="layer" v="1" />
		<tag k="name" v="Nåverdalsbrua" />
		<tag k="ssr:stedsnr" v="218800" />
	</node>
	<node lat="62.74922128509501" lon="9.965258654851862" id="-87280">
		<tag k="bridge" v="yes" />
		<tag k="layer" v="1" />
		<tag k="name" v="Nedre Heverbrua" />
		<tag k="old_name" v="Heverbrua" />
		<tag k="ssr:stedsnr" v="279600" />
	</node>
	<node lat="62.95216944273265" lon="9.77462223046335" id="-87491">
		<tag k="fixme" v="consider highway=path" />
		<tag k="highway" v="track" />
		<tag k="name" v="Landøybrekka" />
		<tag k="ssr:stedsnr" v="400957" />
	</node>
	<node lat="62.6936454943603" lon="10.038351690876457" id="-87503">
		<tag k="bridge" v="yes" />
		<tag k="layer" v="1" />
		<tag k="name" v="Nybrua" />
		<tag k="ssr:stedsnr" v="404674" />
	</node>
	<node lat="62.74076666389794" lon="9.936999999133603" id="-87562">
		<tag k="highway" v="path" />
		<tag k="name" v="Randistigen" />
		<tag k="ssr:stedsnr" v="521584" />
	</node>
	<node lat="62.9043083301412" lon="9.861836120617502" id="-87661">
		<tag k="highway" v="path" />
		<tag k="name" v="Gragjelan" />
		<tag k="ssr:stedsnr" v="581571" />
	</node>
	<node lat="62.78855555645813" lon="9.5752472281949" id="-87687">
		<tag k="highway" v="path" />
		<tag k="name" v="Minilldalsvegen" />
		<tag k="ssr:stedsnr" v="582601" />
	</node>
	<node lat="62.813738886116155" lon="10.007105555859367" id="-87713">
		<tag k="bridge" v="yes" />
		<tag k="layer" v="1" />
		<tag k="name" v="Hengbrua" />
		<tag k="ssr:stedsnr" v="582783" />
	</node>
	<node lat="62.83823204740891" lon="9.911706749044152" id="-87720">
		<tag k="bridge" v="yes" />
		<tag k="layer" v="1" />
		<tag k="name" v="Grøtbrua" />
		<tag k="ssr:stedsnr" v="586683" />
	</node>
	<node lat="62.79296666478202" lon="10.08362500455245" id="-87757">
		<tag k="fixme" v="consider highway=path" />
		<tag k="highway" v="track" />
		<tag k="name" v="Holtvegen" />
		<tag k="ssr:stedsnr" v="642566" />
	</node>
	<node lat="62.69508333447103" lon="10.03714166657112" id="-87786">
		<tag k="junction" v="yes" />
		<tag k="name" v="Korsvegen" />
		<tag k="place" v="locality" />
		<tag k="ssr:stedsnr" v="642995" />
	</node>
	<node lat="62.88850000005691" lon="9.582780552496935" id="-87796">
		<tag k="fixme" v="consider highway=path" />
		<tag k="highway" v="track" />
		<tag k="name" v="Fremmer Kleva" />
		<tag k="ssr:stedsnr" v="643959" />
	</node>
	<node lat="62.92310609476611" lon="9.757120465792148" id="-87842">
		<tag k="alt_name" v="Grana bru" />
		<tag k="bridge" v="yes" />
		<tag k="layer" v="1" />
		<tag k="name" v="Granabrua" />
		<tag k="ssr:stedsnr" v="764673" />
	</node>
	<node lat="62.900986115477316" lon="9.921980560223119" id="-87930">
		<tag k="ford" v="yes" />
		<tag k="name" v="Herremsvadet" />
		<tag k="place" v="locality" />
		<tag k="ssr:stedsnr" v="825559" />
	</node>
	<node lat="62.86317777518778" lon="9.927094447916874" id="-88018">
		<tag k="highway" v="path" />
		<tag k="name" v="Kjølvegen" />
		<tag k="ssr:stedsnr" v="886623" />
	</node>
	<node lat="62.64997137302405" lon="10.014514017710047" id="-88054">
		<tag k="bridge" v="yes" />
		<tag k="layer" v="1" />
		<tag k="name" v="Sagfossbrua" />
		<tag k="ssr:stedsnr" v="886968" />
	</node>
	<node lat="62.74243963556779" lon="9.983141397833478" id="-88059">
		<tag k="bridge" v="yes" />
		<tag k="layer" v="1" />
		<tag k="name" v="Ulsbergbrua" />
		<tag k="ssr:stedsnr" v="889080" />
	</node>
	<node lat="62.857228340350545" lon="9.90008336733493" id="-88112">
		<tag k="bridge" v="yes" />
		<tag k="layer" v="1" />
		<tag k="name" v="Slyngvadkloppa" />
		<tag k="ssr:stedsnr" v="980985" />
	</node>
	<node lat="62.75133397632923" lon="9.984341928040141" id="-88242">
		<tag k="junction" v="yes" />
		<tag k="name" v="Ulsbergkrysset" />
		<tag k="place" v="locality" />
		<tag k="ssr:stedsnr" v="1074427" />
	</node>
	<node lat="62.75878264288555" lon="9.995658442103645" id="-88243">
		<tag k="layer" v="-1" />
		<tag k="name" v="Tosetbergtunnelen" />
		<tag k="ssr:stedsnr" v="1074428" />
		<tag k="tunnel" v="yes" />
	</node>
	<node lat="62.792305411773064" lon="10.01801893899505" id="-88244">
		<tag k="layer" v="-1" />
		<tag k="name" v="Klevtunnelen" />
		<tag k="ssr:stedsnr" v="1074429" />
		<tag k="tunnel" v="yes" />
	</node>
	<node lat="62.798079050958364" lon="10.037176497865952" id="-88245">
		<tag k="bridge" v="yes" />
		<tag k="layer" v="1" />
		<tag k="name" v="Skamfersæterbrua" />
		<tag k="ssr:stedsnr" v="1074430" />
	</node>
	<node lat="62.817166062291555" lon="10.042817305209883" id="-88246">
		<tag k="bridge" v="yes" />
		<tag k="layer" v="1" />
		<tag k="name" v="Skaumbrua" />
		<tag k="ssr:stedsnr" v="1074435" />
	</node>
	<node lat="62.82813524208015" lon="10.036762073356506" id="-88247">
		<tag k="layer" v="-1" />
		<tag k="name" v="Nyløkkjtunnelen" />
		<tag k="ssr:stedsnr" v="1074439" />
		<tag k="tunnel" v="yes" />
	</node>
	<node lat="62.83849115278192" lon="10.026464859389758" id="-88248">
		<tag k="bridge" v="yes" />
		<tag k="layer" v="1" />
		<tag k="name" v="Berkåksbrua" />
		<tag k="ssr:stedsnr" v="1074440" />
	</node>
	<node lat="62.83815887915538" lon="10.026206944460826" id="-88249">
		<tag k="junction" v="yes" />
		<tag k="name" v="Berkåkskrysset" />
		<tag k="place" v="locality" />
		<tag k="ssr:stedsnr" v="1074441" />
	</node>
	<node lat="62.833444967381475" lon="10.021857496787378" id="-88250">
		<tag k="bridge" v="yes" />
		<tag k="layer" v="1" />
		<tag k="name" v="Åsbakkbrua" />
		<tag k="ssr:stedsnr" v="1074442" />
	</node>
	<node lat="62.85135046509699" lon="10.033838525133717" id="-88251">
		<tag k="layer" v="-1" />
		<tag k="name" v="Tovlitunnelen" />
		<tag k="ssr:stedsnr" v="1074443" />
		<tag k="tunnel" v="yes" />
	</node>
	<node lat="62.86329848580219" lon="10.074502589747532" id="-88252">
		<tag k="bridge" v="yes" />
		<tag k="layer" v="1" />
		<tag k="name" v="Vadløkkjbrua" />
		<tag k="ssr:stedsnr" v="1074444" />
	</node>
	<node lat="62.872106342810284" lon="10.091602599050423" id="-88253">
		<tag k="bridge" v="yes" />
		<tag k="layer" v="1" />
		<tag k="name" v="Kvernåbrua" />
		<tag k="ssr:stedsnr" v="1074445" />
	</node>
	<node lat="62.87823974766937" lon="10.099852604376643" id="-88254">
		<tag k="bridge" v="yes" />
		<tag k="layer" v="1" />
		<tag k="name" v="Stenlibrua" />
		<tag k="ssr:stedsnr" v="1074447" />
	</node>
</osm>
