<?xml version="1.0" encoding="UTF-8"?>
<osm version="0.6" generator="osmapis">
	<node lat="62.973263887644066" lon="9.776600004066774" id="-33412">
		<tag k="name" v="Ramberget" />
		<tag k="natural" v="hill" />
		<tag k="place" v="locality" />
		<tag k="ssr:stedsnr" v="12807" />
	</node>
	<node lat="62.84136944586602" lon="9.611822212449837" id="-33424">
		<tag k="name" v="Knappen" />
		<tag k="place" v="locality" />
		<tag k="ssr:stedsnr" v="36566" />
	</node>
	<node lat="62.82456110728917" lon="9.876480554339098" id="-33430">
		<tag k="name" v="Granabakken" />
		<tag k="natural" v="slope" />
		<tag k="place" v="locality" />
		<tag k="ssr:stedsnr" v="36719" />
	</node>
	<node lat="62.82719166933546" lon="9.869069444087085" id="-33432">
		<tag k="name" v="Skjennstøkleiva" />
		<tag k="natural" v="ridge" />
		<tag k="place" v="locality" />
		<tag k="ssr:stedsnr" v="36725" />
	</node>
	<node lat="62.928338885613044" lon="9.822894440081267" id="-33434">
		<tag k="name" v="Kummerliin" />
		<tag k="natural" v="slope" />
		<tag k="place" v="locality" />
		<tag k="ssr:stedsnr" v="36608" />
	</node>
	<node lat="62.76089722226885" lon="9.70673888929754" id="-33436">
		<tag k="name" v="Kringsetvollen" />
		<tag k="place" v="locality" />
		<tag k="ssr:stedsnr" v="36612" />
	</node>
	<node lat="62.853161111573236" lon="9.718561120589737" id="-33441">
		<tag k="name" v="Hesjan" />
		<tag k="natural" v="slope" />
		<tag k="place" v="locality" />
		<tag k="ssr:stedsnr" v="36663" />
	</node>
	<node lat="62.74776388675242" lon="9.88059721971416" id="-33444">
		<tag k="fixme" v="consider natural=peak for the most distinct mountains in the district" />
		<tag k="name" v="Kvitfjellet" />
		<tag k="natural" v="hill" />
		<tag k="place" v="locality" />
		<tag k="ssr:stedsnr" v="36671" />
	</node>
	<node lat="62.86534999693738" lon="10.08980277398618" id="-33449">
		<tag k="name" v="Sæterliin" />
		<tag k="natural" v="slope" />
		<tag k="place" v="locality" />
		<tag k="ssr:stedsnr" v="36806" />
	</node>
	<node lat="62.954941670944805" lon="9.729963880061593" id="-33453">
		<tag k="name" v="Tullhaugen" />
		<tag k="natural" v="hill" />
		<tag k="place" v="locality" />
		<tag k="ssr:stedsnr" v="36972" />
	</node>
	<node lat="62.96266111162991" lon="9.788388893332236" id="-33455">
		<tag k="name" v="Olderøya" />
		<tag k="place" v="locality" />
		<tag k="ssr:stedsnr" v="36978" />
	</node>
	<node lat="62.9271527761201" lon="9.649177770792807" id="-33459">
		<tag k="name" v="Druggubakken" />
		<tag k="natural" v="slope" />
		<tag k="old_name" v="Druggurbakken" />
		<tag k="place" v="locality" />
		<tag k="ssr:stedsnr" v="55999" />
	</node>
	<node lat="62.93776388678485" lon="9.693680549983405" id="-33463">
		<tag k="fixme" v="consider natural=peak for the most distinct mountains in the district" />
		<tag k="name" v="Seåsen" />
		<tag k="natural" v="hill" />
		<tag k="place" v="locality" />
		<tag k="ssr:stedsnr" v="73227" />
	</node>
	<node lat="62.7675472232606" lon="9.788594451446546" id="-33466">
		<tag k="fixme" v="consider natural=peak for the most distinct mountains in the district" />
		<tag k="name" v="Digerhøa" />
		<tag k="natural" v="hill" />
		<tag k="place" v="locality" />
		<tag k="ssr:stedsnr" v="73620" />
	</node>
	<node lat="62.931500001440966" lon="10.019169438971653" id="-33467">
		<tag k="fixme" v="consider natural=peak for the most distinct mountains in the district" />
		<tag k="name" v="Brennfjellet" />
		<tag k="natural" v="hill" />
		<tag k="place" v="locality" />
		<tag k="ssr:stedsnr" v="73960" />
	</node>
	<node lat="62.878261115446705" lon="9.957877768924442" id="-33474">
		<tag k="name" v="Jønnsjøbakken" />
		<tag k="natural" v="slope" />
		<tag k="place" v="locality" />
		<tag k="ssr:stedsnr" v="97615" />
	</node>
	<node lat="62.91862500266328" lon="9.822127771297234" id="-33476">
		<tag k="name" v="Løkkjberga" />
		<tag k="natural" v="hill" />
		<tag k="place" v="locality" />
		<tag k="ssr:stedsnr" v="97663" />
	</node>
	<node lat="62.90877441305258" lon="9.8037778463783" id="-33478">
		<tag k="alt_name" v="Hammarberga" />
		<tag k="name" v="Håmmårberga" />
		<tag k="natural" v="hill" />
		<tag k="place" v="locality" />
		<tag k="ssr:stedsnr" v="97667" />
	</node>
	<node lat="62.90680000084707" lon="9.697230560407153" id="-33479">
		<tag k="name" v="Buenget" />
		<tag k="natural" v="slope" />
		<tag k="place" v="locality" />
		<tag k="ssr:stedsnr" v="97671" />
	</node>
	<node lat="62.80206389185596" lon="10.10744166755209" id="-33484">
		<tag k="name" v="Storlidalen" />
		<tag k="natural" v="valley" />
		<tag k="place" v="locality" />
		<tag k="ssr:stedsnr" v="97813" />
	</node>
	<node lat="62.81325555208658" lon="10.053319441276775" id="-33485">
		<tag k="name" v="Holtløkkjdalen" />
		<tag k="natural" v="valley" />
		<tag k="place" v="locality" />
		<tag k="ssr:stedsnr" v="97821" />
	</node>
	<node lat="62.76782777585056" lon="9.727200005419611" id="-33487">
		<tag k="name" v="Skogliin" />
		<tag k="natural" v="slope" />
		<tag k="place" v="locality" />
		<tag k="ssr:stedsnr" v="97716" />
	</node>
	<node lat="62.82113333678983" lon="9.888466669328118" id="-33488">
		<tag k="fixme" v="consider natural=peak for the most distinct mountains in the district" />
		<tag k="name" v="Litlhøluræset" />
		<tag k="natural" v="hill" />
		<tag k="place" v="locality" />
		<tag k="ssr:stedsnr" v="97717" />
	</node>
	<node lat="62.76921111276771" lon="9.726036105249788" id="-33491">
		<tag k="name" v="Ondusbetetn" />
		<tag k="natural" v="slope" />
		<tag k="place" v="locality" />
		<tag k="ssr:stedsnr" v="97723" />
	</node>
	<node lat="62.76008888870646" lon="10.003022218934767" id="-33497">
		<tag k="name" v="Småmyran" />
		<tag k="natural" v="slope" />
		<tag k="place" v="locality" />
		<tag k="ssr:stedsnr" v="97924" />
	</node>
	<node lat="62.807752782199096" lon="10.133191663341432" id="-33501">
		<tag k="name" v="Litldalen" />
		<tag k="natural" v="valley" />
		<tag k="place" v="locality" />
		<tag k="ssr:stedsnr" v="120020" />
	</node>
	<node lat="62.71603888453709" lon="10.317755546789446" id="-33505">
		<tag k="fixme" v="consider natural=peak for the most distinct mountains in the district" />
		<tag k="name" v="Rundhaugen" />
		<tag k="natural" v="hill" />
		<tag k="place" v="locality" />
		<tag k="ssr:stedsnr" v="132361" />
	</node>
	<node lat="62.653569444657" lon="10.108972226234444" id="-33506">
		<tag k="fixme" v="consider natural=peak for the most distinct mountains in the district" />
		<tag k="name" v="Langfjellet" />
		<tag k="natural" v="hill" />
		<tag k="place" v="locality" />
		<tag k="ssr:stedsnr" v="132261" />
	</node>
	<node lat="62.81940555625856" lon="9.48676665956139" id="-33511">
		<tag k="fixme" v="consider natural=peak for the most distinct mountains in the district" />
		<tag k="name" v="Skrikhøa" />
		<tag k="natural" v="hill" />
		<tag k="place" v="locality" />
		<tag k="ssr:stedsnr" v="133809" />
	</node>
	<node lat="62.81304444140403" lon="9.551574991606643" id="-33512">
		<tag k="fixme" v="consider natural=peak for the most distinct mountains in the district" />
		<tag k="name" v="Grønlifjellet" />
		<tag k="natural" v="hill" />
		<tag k="place" v="locality" />
		<tag k="ssr:stedsnr" v="133811" />
	</node>
	<node lat="62.80848611282128" lon="9.537386117390476" id="-33513">
		<tag k="fixme" v="consider natural=peak for the most distinct mountains in the district" />
		<tag k="name" v="Vardhøa" />
		<tag k="natural" v="hill" />
		<tag k="place" v="locality" />
		<tag k="ssr:stedsnr" v="133816" />
	</node>
	<node lat="62.68646666850621" lon="10.07720833672491" id="-33521">
		<tag k="fixme" v="consider natural=peak for the most distinct mountains in the district" />
		<tag k="name" v="Litlfjellet" />
		<tag k="natural" v="hill" />
		<tag k="place" v="locality" />
		<tag k="ssr:stedsnr" v="254217" />
	</node>
	<node lat="62.640658336142984" lon="10.014708327041149" id="-33522">
		<tag k="name" v="Innerdalen" />
		<tag k="natural" v="valley" />
		<tag k="place" v="locality" />
		<tag k="ssr:stedsnr" v="254339" />
	</node>
	<node lat="62.63423333455948" lon="9.969852775564272" id="-33523">
		<tag k="name" v="Lauvhaugan" />
		<tag k="natural" v="hill" />
		<tag k="place" v="locality" />
		<tag k="ssr:stedsnr" v="254435" />
	</node>
	<node lat="62.85743055441531" lon="9.49116944051444" id="-33535">
		<tag k="name" v="Vollan" />
		<tag k="place" v="locality" />
		<tag k="ssr:stedsnr" v="146390" />
	</node>
	<node lat="62.8240888846935" lon="9.56208332858881" id="-33536">
		<tag k="fixme" v="consider natural=peak for the most distinct mountains in the district" />
		<tag k="name" v="Grønlihamran" />
		<tag k="natural" v="hill" />
		<tag k="place" v="locality" />
		<tag k="ssr:stedsnr" v="255846" />
	</node>
	<node lat="62.82015555337924" lon="9.747422218145502" id="-33539">
		<tag k="name" v="Stavåhøgda" />
		<tag k="natural" v="hill" />
		<tag k="place" v="locality" />
		<tag k="ssr:stedsnr" v="255929" />
	</node>
	<node lat="62.888255558781644" lon="9.858408341142198" id="-33547">
		<tag k="name" v="Moldbakken" />
		<tag k="natural" v="slope" />
		<tag k="place" v="locality" />
		<tag k="ssr:stedsnr" v="157487" />
	</node>
	<node lat="62.89246111307571" lon="9.862455553994804" id="-33548">
		<tag k="name" v="Tømmerhaugen" />
		<tag k="natural" v="hill" />
		<tag k="place" v="locality" />
		<tag k="ssr:stedsnr" v="157490" />
	</node>
	<node lat="62.76582221782129" lon="9.62879999101281" id="-33549">
		<tag k="name" v="Dugurdsknappen" />
		<tag k="natural" v="ridge" />
		<tag k="place" v="locality" />
		<tag k="ssr:stedsnr" v="157611" />
	</node>
	<node lat="62.927338886152086" lon="9.804397221971556" id="-33550">
		<tag k="name" v="Stoen" />
		<tag k="natural" v="slope" />
		<tag k="place" v="locality" />
		<tag k="ssr:stedsnr" v="157614" />
	</node>
	<node lat="62.782574998672466" lon="9.67349445085151" id="-33552">
		<tag k="fixme" v="consider natural=peak for the most distinct mountains in the district" />
		<tag k="name" v="Stortrøa" />
		<tag k="natural" v="hill" />
		<tag k="place" v="locality" />
		<tag k="ssr:stedsnr" v="157625" />
	</node>
	<node lat="62.940863887347255" lon="9.799541661013059" id="-33555">
		<tag k="name" v="Kvitgjetsløkkja" />
		<tag k="natural" v="ridge" />
		<tag k="place" v="locality" />
		<tag k="ssr:stedsnr" v="157659" />
	</node>
	<node lat="62.913963886959365" lon="9.861527773324967" id="-33558">
		<tag k="name" v="Torvutgarden" />
		<tag k="natural" v="ridge" />
		<tag k="place" v="locality" />
		<tag k="ssr:stedsnr" v="157522" />
	</node>
	<node lat="62.860080551672965" lon="9.598738894075057" id="-33560">
		<tag k="name" v="Brannen" />
		<tag k="natural" v="ridge" />
		<tag k="place" v="locality" />
		<tag k="ssr:stedsnr" v="157555" />
	</node>
	<node lat="62.83526944189284" lon="9.94066389652664" id="-33561">
		<tag k="name" v="Snota" />
		<tag k="natural" v="slope" />
		<tag k="place" v="locality" />
		<tag k="ssr:stedsnr" v="157556" />
	</node>
	<node lat="62.78935555669286" lon="9.573333323582188" id="-33562">
		<tag k="name" v="Tjønnenget" />
		<tag k="place" v="locality" />
		<tag k="ssr:stedsnr" v="157558" />
	</node>
	<node lat="62.80916666809571" lon="9.894963895860904" id="-33565">
		<tag k="name" v="Smalhøgda" />
		<tag k="natural" v="ridge" />
		<tag k="place" v="locality" />
		<tag k="ssr:stedsnr" v="157702" />
	</node>
	<node lat="62.739830555447774" lon="9.836888896026688" id="-33566">
		<tag k="name" v="Skardet" />
		<tag k="natural" v="valley" />
		<tag k="place" v="locality" />
		<tag k="ssr:stedsnr" v="157703" />
	</node>
	<node lat="62.83967221789579" lon="10.094427777510475" id="-33571">
		<tag k="name" v="Hamran" />
		<tag k="natural" v="slope" />
		<tag k="place" v="locality" />
		<tag k="ssr:stedsnr" v="157815" />
	</node>
	<node lat="62.816241663631786" lon="10.018066657504926" id="-33575">
		<tag k="name" v="Skamfer" />
		<tag k="natural" v="slope" />
		<tag k="place" v="locality" />
		<tag k="ssr:stedsnr" v="157765" />
	</node>
	<node lat="62.81497778173174" lon="10.043455562767479" id="-33577">
		<tag k="name" v="Skaumbakkan" />
		<tag k="natural" v="slope" />
		<tag k="place" v="locality" />
		<tag k="ssr:stedsnr" v="157770" />
	</node>
	<node lat="62.825913886495606" lon="9.991111117948343" id="-33579">
		<tag k="name" v="Berkåksmoen" />
		<tag k="place" v="locality" />
		<tag k="ssr:stedsnr" v="157775" />
	</node>
	<node lat="62.75351389260342" lon="10.043008328151004" id="-33580">
		<tag k="name" v="Åslia" />
		<tag k="natural" v="slope" />
		<tag k="place" v="locality" />
		<tag k="ssr:stedsnr" v="157776" />
	</node>
	<node lat="62.84685833449086" lon="10.030916676496199" id="-33581">
		<tag k="fixme" v="consider natural=peak for the most distinct mountains in the district" />
		<tag k="name" v="Brattåsen" />
		<tag k="natural" v="hill" />
		<tag k="place" v="locality" />
		<tag k="ssr:stedsnr" v="157777" />
	</node>
	<node lat="62.619300004222026" lon="10.016911114431215" id="-33589">
		<tag k="name" v="Bustadstranda" />
		<tag k="natural" v="slope" />
		<tag k="place" v="locality" />
		<tag k="ssr:stedsnr" v="157962" />
	</node>
	<node lat="65.11002777597567" lon="13.085422216082504" id="-33593">
		<tag k="fixme" v="consider natural=peak for the most distinct mountains in the district" />
		<tag k="name" v="Kløftfjellet - Sloeptjenguevtele" />
		<tag k="name:no" v="Kløftfjellet" />
		<tag k="name:sma" v="Sloeptjenguevtele" />
		<tag k="natural" v="hill" />
		<tag k="place" v="locality" />
		<tag k="ssr:stedsnr" v="196523" />
	</node>
	<node lat="62.83404444145412" lon="9.731855550655427" id="-33594">
		<tag k="name" v="Eggjan" />
		<tag k="natural" v="slope" />
		<tag k="place" v="locality" />
		<tag k="ssr:stedsnr" v="268417" />
	</node>
	<node lat="62.8898083345136" lon="9.852505559720466" id="-33597">
		<tag k="name" v="Saumyra" />
		<tag k="natural" v="slope" />
		<tag k="place" v="locality" />
		<tag k="ssr:stedsnr" v="217512" />
	</node>
	<node lat="62.88479166576431" lon="9.8715444408133" id="-33600">
		<tag k="fixme" v="consider natural=peak for the most distinct mountains in the district" />
		<tag k="name" v="Øver Bjørnasuttu" />
		<tag k="natural" v="hill" />
		<tag k="place" v="locality" />
		<tag k="ssr:stedsnr" v="218495" />
	</node>
	<node lat="62.92443055839574" lon="9.81645833971022" id="-33602">
		<tag k="name" v="Røsløkkja" />
		<tag k="natural" v="slope" />
		<tag k="place" v="locality" />
		<tag k="ssr:stedsnr" v="218613" />
	</node>
	<node lat="62.760697221014134" lon="9.637897221219239" id="-33603">
		<tag k="name" v="Reinskinnhegninga" />
		<tag k="natural" v="ridge" />
		<tag k="place" v="locality" />
		<tag k="ssr:stedsnr" v="218615" />
	</node>
	<node lat="62.76831110788429" lon="9.596300006277472" id="-33604">
		<tag k="name" v="Høluenget" />
		<tag k="natural" v="slope" />
		<tag k="place" v="locality" />
		<tag k="ssr:stedsnr" v="218623" />
	</node>
	<node lat="62.91366666676942" lon="9.877675004498746" id="-33606">
		<tag k="name" v="Grafjellgrubba" />
		<tag k="natural" v="valley" />
		<tag k="place" v="locality" />
		<tag k="ssr:stedsnr" v="218526" />
	</node>
	<node lat="62.8948194401432" lon="10.020222228670367" id="-33610">
		<tag k="name" v="Flåslættet" />
		<tag k="place" v="locality" />
		<tag k="ssr:stedsnr" v="218823" />
	</node>
	<node lat="62.910872221818835" lon="9.987583342700695" id="-33612">
		<tag k="name" v="Badstuliin" />
		<tag k="natural" v="slope" />
		<tag k="place" v="locality" />
		<tag k="ssr:stedsnr" v="218869" />
	</node>
	<node lat="62.97133610998593" lon="9.891813881169178" id="-33615">
		<tag k="name" v="Øver-Vaulan" />
		<tag k="place" v="locality" />
		<tag k="ssr:stedsnr" v="218912" />
	</node>
	<node lat="62.7082694436392" lon="9.993747231651698" id="-33618">
		<tag k="name" v="Seierdalen" />
		<tag k="natural" v="valley" />
		<tag k="place" v="locality" />
		<tag k="ssr:stedsnr" v="218922" />
	</node>
	<node lat="62.75972499938416" lon="9.988074996260032" id="-33620">
		<tag k="name" v="Odden" />
		<tag k="natural" v="hill" />
		<tag k="place" v="locality" />
		<tag k="ssr:stedsnr" v="218927" />
	</node>
	<node lat="62.89774444462997" lon="9.618238885487033" id="-33623">
		<tag k="name" v="Ytter Vaulbakkan" />
		<tag k="natural" v="slope" />
		<tag k="place" v="locality" />
		<tag k="ssr:stedsnr" v="218976" />
	</node>
	<node lat="62.866400002575" lon="9.592983330181186" id="-33636">
		<tag k="fixme" v="consider natural=peak for the most distinct mountains in the district" />
		<tag k="name" v="Åsfjellet" />
		<tag k="natural" v="hill" />
		<tag k="place" v="locality" />
		<tag k="ssr:stedsnr" v="255209" />
	</node>
	<node lat="62.82049722339181" lon="9.854413890139387" id="-33637">
		<tag k="name" v="Vassetberga" />
		<tag k="natural" v="hill" />
		<tag k="place" v="locality" />
		<tag k="ssr:stedsnr" v="255565" />
	</node>
	<node lat="62.80979167005729" lon="9.96299722639861" id="-33639">
		<tag k="name" v="Nonhaugen" />
		<tag k="natural" v="hill" />
		<tag k="place" v="locality" />
		<tag k="ssr:stedsnr" v="255575" />
	</node>
	<node lat="62.86558420466711" lon="9.866472532794274" id="-33646">
		<tag k="fixme" v="consider natural=peak for the most distinct mountains in the district" />
		<tag k="name" v="Hovden" />
		<tag k="natural" v="hill" />
		<tag k="place" v="locality" />
		<tag k="ssr:stedsnr" v="255912" />
	</node>
	<node lat="62.84912499675582" lon="9.968330552552791" id="-33651">
		<tag k="name" v="Bredalen" />
		<tag k="natural" v="valley" />
		<tag k="place" v="locality" />
		<tag k="ssr:stedsnr" v="268090" />
	</node>
	<node lat="62.87582222574431" lon="9.863352782823547" id="-33654">
		<tag k="name" v="Svarthamran" />
		<tag k="natural" v="hill" />
		<tag k="place" v="locality" />
		<tag k="ssr:stedsnr" v="278572" />
	</node>
	<node lat="62.84343888782399" lon="9.969347221610946" id="-33656">
		<tag k="name" v="Lerdalen" />
		<tag k="natural" v="valley" />
		<tag k="place" v="locality" />
		<tag k="ssr:stedsnr" v="278802" />
	</node>
	<node lat="62.87685277986327" lon="10.080724998855713" id="-33657">
		<tag k="name" v="Urvassdalen" />
		<tag k="natural" v="valley" />
		<tag k="place" v="locality" />
		<tag k="ssr:stedsnr" v="278810" />
	</node>
	<node lat="62.85329999915071" lon="9.864797217628551" id="-33660">
		<tag k="name" v="Olderdalen" />
		<tag k="natural" v="valley" />
		<tag k="place" v="locality" />
		<tag k="ssr:stedsnr" v="279507" />
	</node>
	<node lat="62.768888891684476" lon="10.018727783178587" id="-33661">
		<tag k="name" v="Langvelldalen" />
		<tag k="natural" v="valley" />
		<tag k="place" v="locality" />
		<tag k="ssr:stedsnr" v="279602" />
	</node>
	<node lat="62.830697221949976" lon="9.914430562141966" id="-33663">
		<tag k="name" v="Stolaberga" />
		<tag k="natural" v="hill" />
		<tag k="place" v="locality" />
		<tag k="ssr:stedsnr" v="279609" />
	</node>
	<node lat="62.87541944244814" lon="9.918116663529812" id="-33666">
		<tag k="name" v="Knipdalen" />
		<tag k="natural" v="valley" />
		<tag k="place" v="locality" />
		<tag k="ssr:stedsnr" v="279624" />
	</node>
	<node lat="62.93368333453578" lon="9.754813880358338" id="-33670">
		<tag k="name" v="Kloppdalen" />
		<tag k="natural" v="valley" />
		<tag k="place" v="locality" />
		<tag k="ssr:stedsnr" v="279693" />
	</node>
	<node lat="62.84262446957159" lon="10.11597298104572" id="-33674">
		<tag k="name" v="Ysetet" />
		<tag k="natural" v="slope" />
		<tag k="place" v="locality" />
		<tag k="ssr:stedsnr" v="279820" />
	</node>
	<node lat="62.79954444578183" lon="10.091694438443819" id="-33675">
		<tag k="name" v="Holsøyan" />
		<tag k="natural" v="slope" />
		<tag k="place" v="locality" />
		<tag k="ssr:stedsnr" v="279824" />
	</node>
	<node lat="62.78052777464545" lon="9.987224997525207" id="-33676">
		<tag k="name" v="Styggdalen" />
		<tag k="natural" v="valley" />
		<tag k="place" v="locality" />
		<tag k="ssr:stedsnr" v="279829" />
	</node>
	<node lat="62.8591388879191" lon="9.731555553543084" id="-33677">
		<tag k="name" v="Stordalen" />
		<tag k="natural" v="valley" />
		<tag k="place" v="locality" />
		<tag k="ssr:stedsnr" v="279703" />
	</node>
	<node lat="62.842369446409066" lon="9.72149999476358" id="-33678">
		<tag k="name" v="Stavåøset" />
		<tag k="place" v="locality" />
		<tag k="ssr:stedsnr" v="279705" />
	</node>
	<node lat="62.85350555992012" lon="9.748613887186158" id="-33680">
		<tag k="name" v="Hiåsberga" />
		<tag k="natural" v="hill" />
		<tag k="place" v="locality" />
		<tag k="ssr:stedsnr" v="279708" />
	</node>
	<node lat="62.795222222272386" lon="9.736133340788513" id="-33681">
		<tag k="fixme" v="consider natural=peak for the most distinct mountains in the district" />
		<tag k="name" v="Takstenfjellet" />
		<tag k="natural" v="hill" />
		<tag k="place" v="locality" />
		<tag k="ssr:stedsnr" v="279712" />
	</node>
	<node lat="62.81673055682811" lon="9.7235472219896" id="-33682">
		<tag k="name" v="Skjuttukinna" />
		<tag k="natural" v="hill" />
		<tag k="place" v="locality" />
		<tag k="ssr:stedsnr" v="279713" />
	</node>
	<node lat="62.68043888521158" lon="10.00823332669025" id="-33689">
		<tag k="name" v="Hostodalen" />
		<tag k="natural" v="valley" />
		<tag k="place" v="locality" />
		<tag k="ssr:stedsnr" v="279967" />
	</node>
	<node lat="62.622941664087186" lon="10.01485833845539" id="-33691">
		<tag k="name" v="Gaddhaugan" />
		<tag k="natural" v="hill" />
		<tag k="place" v="locality" />
		<tag k="ssr:stedsnr" v="279972" />
	</node>
	<node lat="62.83183333055051" lon="9.818188887217506" id="-33694">
		<tag k="name" v="Gjerdenget" />
		<tag k="natural" v="slope" />
		<tag k="place" v="locality" />
		<tag k="ssr:stedsnr" v="460737" />
	</node>
	<node lat="62.70210000194897" lon="9.959008325704854" id="-33705">
		<tag k="name" v="Sandbakken" />
		<tag k="natural" v="slope" />
		<tag k="place" v="locality" />
		<tag k="ssr:stedsnr" v="461586" />
	</node>
	<node lat="62.87797500258679" lon="9.55867221923155" id="-33707">
		<tag k="name" v="Tømmerhaugen" />
		<tag k="natural" v="hill" />
		<tag k="place" v="locality" />
		<tag k="ssr:stedsnr" v="461612" />
	</node>
	<node lat="62.85877778065686" lon="9.609986115402727" id="-33708">
		<tag k="name" v="Åslia" />
		<tag k="natural" v="slope" />
		<tag k="place" v="locality" />
		<tag k="ssr:stedsnr" v="461619" />
	</node>
	<node lat="62.80261944243666" lon="9.634533329524597" id="-33710">
		<tag k="name" v="Teighaugen" />
		<tag k="natural" v="hill" />
		<tag k="place" v="locality" />
		<tag k="ssr:stedsnr" v="461635" />
	</node>
	<node lat="62.870872220526785" lon="9.974722218657782" id="-33722">
		<tag k="name" v="Gammelseterhaugan" />
		<tag k="natural" v="hill" />
		<tag k="place" v="locality" />
		<tag k="ssr:stedsnr" v="461780" />
	</node>
	<node lat="62.83093611521331" lon="9.883088890561693" id="-33725">
		<tag k="name" v="Landløpet" />
		<tag k="natural" v="ridge" />
		<tag k="place" v="locality" />
		<tag k="ssr:stedsnr" v="461744" />
	</node>
	<node lat="62.871424997960396" lon="9.80628334064811" id="-33727">
		<tag k="name" v="Buhaugan" />
		<tag k="natural" v="slope" />
		<tag k="place" v="locality" />
		<tag k="ssr:stedsnr" v="461755" />
	</node>
	<node lat="62.936988890048596" lon="9.824458324782361" id="-33728">
		<tag k="name" v="Kummerlia" />
		<tag k="natural" v="slope" />
		<tag k="place" v="locality" />
		<tag k="ssr:stedsnr" v="461833" />
	</node>
	<node lat="62.76525833193107" lon="9.720394451758413" id="-33729">
		<tag k="name" v="Klemmetslia" />
		<tag k="natural" v="slope" />
		<tag k="place" v="locality" />
		<tag k="ssr:stedsnr" v="461835" />
	</node>
	<node lat="62.83291666631605" lon="9.654980553060017" id="-33730">
		<tag k="name" v="Kåsen" />
		<tag k="natural" v="ridge" />
		<tag k="place" v="locality" />
		<tag k="ssr:stedsnr" v="461839" />
	</node>
	<node lat="62.82785000173346" lon="9.997358336812006" id="-33732">
		<tag k="name" v="Løkkjbakkan" />
		<tag k="natural" v="slope" />
		<tag k="place" v="locality" />
		<tag k="ssr:stedsnr" v="461795" />
	</node>
	<node lat="62.798600002395034" lon="10.012255554770105" id="-33735">
		<tag k="name" v="Svenskdalen" />
		<tag k="natural" v="valley" />
		<tag k="place" v="locality" />
		<tag k="ssr:stedsnr" v="461898" />
	</node>
	<node lat="62.66388888726325" lon="10.054777777349116" id="-33738">
		<tag k="name" v="Skjeftesegga" />
		<tag k="natural" v="ridge" />
		<tag k="place" v="locality" />
		<tag k="ssr:stedsnr" v="461996" />
	</node>
	<node lat="62.96164722587405" lon="9.794086120842879" id="-33742">
		<tag k="name" v="Bruabakken" />
		<tag k="natural" v="slope" />
		<tag k="place" v="locality" />
		<tag k="ssr:stedsnr" v="461943" />
	</node>
	<node lat="62.72950277873647" lon="10.061413884646631" id="-33743">
		<tag k="alt_name" v="Høghaugdalen nordre" />
		<tag k="name" v="Nordre Høghaugdalen" />
		<tag k="natural" v="valley" />
		<tag k="place" v="locality" />
		<tag k="ssr:stedsnr" v="461951" />
	</node>
	<node lat="62.91365000434027" lon="9.702166663277609" id="-33745">
		<tag k="name" v="Borstugguvorda" />
		<tag k="natural" v="slope" />
		<tag k="place" v="locality" />
		<tag k="ssr:stedsnr" v="298992" />
	</node>
	<node lat="62.74027499736866" lon="9.704852785062537" id="-33753">
		<tag k="name" v="Leverdalen" />
		<tag k="natural" v="valley" />
		<tag k="place" v="locality" />
		<tag k="ssr:stedsnr" v="315865" />
	</node>
	<node lat="62.76994722408419" lon="9.880144439714849" id="-33757">
		<tag k="fixme" v="consider natural=peak for the most distinct mountains in the district" />
		<tag k="name" v="Ryphøa" />
		<tag k="natural" v="hill" />
		<tag k="place" v="locality" />
		<tag k="ssr:stedsnr" v="316645" />
	</node>
	<node lat="62.7585527783165" lon="10.188172229015938" id="-33759">
		<tag k="fixme" v="consider natural=peak for the most distinct mountains in the district" />
		<tag k="name" v="Risåsen" />
		<tag k="natural" v="hill" />
		<tag k="place" v="locality" />
		<tag k="ssr:stedsnr" v="316653" />
	</node>
	<node lat="62.842213891040366" lon="9.992611106716133" id="-33764">
		<tag k="fixme" v="consider natural=peak for the most distinct mountains in the district" />
		<tag k="name" v="Mjuken" />
		<tag k="natural" v="hill" />
		<tag k="place" v="locality" />
		<tag k="ssr:stedsnr" v="316947" />
	</node>
	<node lat="62.86769444110567" lon="9.85476943631248" id="-33767">
		<tag k="name" v="Storhauglia" />
		<tag k="natural" v="slope" />
		<tag k="place" v="locality" />
		<tag k="ssr:stedsnr" v="339509" />
	</node>
	<node lat="62.766383329611315" lon="9.624647225559304" id="-33769">
		<tag k="name" v="Grønglenna" />
		<tag k="natural" v="ridge" />
		<tag k="place" v="locality" />
		<tag k="ssr:stedsnr" v="339606" />
	</node>
	<node lat="62.76852778098392" lon="9.723199993998197" id="-33770">
		<tag k="name" v="Bratthauge" />
		<tag k="natural" v="hill" />
		<tag k="place" v="locality" />
		<tag k="ssr:stedsnr" v="339692" />
	</node>
	<node lat="62.71078333096623" lon="10.082116659097732" id="-33772">
		<tag k="name" v="Innsetlia" />
		<tag k="natural" v="slope" />
		<tag k="place" v="locality" />
		<tag k="ssr:stedsnr" v="339808" />
	</node>
	<node lat="62.936966670208676" lon="9.861130557168746" id="-33776">
		<tag k="name" v="Holtet" />
		<tag k="place" v="locality" />
		<tag k="ssr:stedsnr" v="339543" />
	</node>
	<node lat="62.86043333113573" lon="9.851644445942917" id="-33782">
		<tag k="name" v="Svenskhåmmåren" />
		<tag k="natural" v="hill" />
		<tag k="place" v="locality" />
		<tag k="ssr:stedsnr" v="339729" />
	</node>
	<node lat="62.82060277602388" lon="10.043658336752888" id="-33786">
		<tag k="name" v="Røstan" />
		<tag k="natural" v="slope" />
		<tag k="place" v="locality" />
		<tag k="ssr:stedsnr" v="339760" />
	</node>
	<node lat="62.693333336857485" lon="9.978783339015886" id="-33791">
		<tag k="name" v="Djupdalsmoan" />
		<tag k="place" v="locality" />
		<tag k="ssr:stedsnr" v="339952" />
	</node>
	<node lat="62.671277774233616" lon="10.03704722227121" id="-33792">
		<tag k="name" v="Brandhaugen" />
		<tag k="natural" v="hill" />
		<tag k="place" v="locality" />
		<tag k="ssr:stedsnr" v="339994" />
	</node>
	<node lat="62.96679166939728" lon="9.908586115362217" id="-33795">
		<tag k="fixme" v="consider natural=peak for the most distinct mountains in the district" />
		<tag k="name" v="Gråhåmmåren" />
		<tag k="natural" v="hill" />
		<tag k="place" v="locality" />
		<tag k="ssr:stedsnr" v="340909" />
	</node>
	<node lat="62.66513869356282" lon="9.987951359008143" id="-33796">
		<tag k="fixme" v="consider natural=peak for the most distinct mountains in the district" />
		<tag k="name" v="Hostoa" />
		<tag k="natural" v="hill" />
		<tag k="place" v="locality" />
		<tag k="ssr:stedsnr" v="375221" />
	</node>
	<node lat="62.732475826395245" lon="9.736352001617579" id="-33797">
		<tag k="fixme" v="consider natural=peak for the most distinct mountains in the district" />
		<tag k="name" v="Trollhøtta" />
		<tag k="natural" v="hill" />
		<tag k="place" v="locality" />
		<tag k="ssr:stedsnr" v="375333" />
	</node>
	<node lat="62.74617499794051" lon="10.02704166971899" id="-33799">
		<tag k="alt_name" v="Fuggelhaugen" />
		<tag k="name" v="Fuglehaugen" />
		<tag k="natural" v="hill" />
		<tag k="place" v="locality" />
		<tag k="ssr:stedsnr" v="375340" />
	</node>
	<node lat="62.907823467748145" lon="9.660866013448935" id="-33802">
		<tag k="fixme" v="consider natural=peak for the most distinct mountains in the district" />
		<tag k="name" v="Vorafjellet" />
		<tag k="natural" v="hill" />
		<tag k="place" v="locality" />
		<tag k="ssr:stedsnr" v="376186" />
	</node>
	<node lat="62.93400994053062" lon="9.703107970731583" id="-33805">
		<tag k="name" v="Kamben" />
		<tag k="natural" v="hill" />
		<tag k="place" v="locality" />
		<tag k="ssr:stedsnr" v="376232" />
	</node>
	<node lat="62.872702781250226" lon="10.090461102258514" id="-33806">
		<tag k="name" v="Bakkjellen" />
		<tag k="place" v="locality" />
		<tag k="ssr:stedsnr" v="480987" />
	</node>
	<node lat="62.88650277470042" lon="9.80126944994504" id="-33811">
		<tag k="name" v="Bekkhåmmårliin" />
		<tag k="natural" v="slope" />
		<tag k="place" v="locality" />
		<tag k="ssr:stedsnr" v="399728" />
	</node>
	<node lat="62.83322499681278" lon="9.552449991156458" id="-33817">
		<tag k="name" v="Gråfjelldalen" />
		<tag k="natural" v="valley" />
		<tag k="place" v="locality" />
		<tag k="ssr:stedsnr" v="400604" />
	</node>
	<node lat="62.899141667013566" lon="9.913394442784396" id="-33820">
		<tag k="name" v="Askdalen" />
		<tag k="natural" v="valley" />
		<tag k="place" v="locality" />
		<tag k="ssr:stedsnr" v="400612" />
	</node>
	<node lat="62.768358334597444" lon="9.611063894962443" id="-33821">
		<tag k="fixme" v="consider natural=peak for the most distinct mountains in the district" />
		<tag k="name" v="Oppstugguhaugan" />
		<tag k="natural" v="hill" />
		<tag k="place" v="locality" />
		<tag k="ssr:stedsnr" v="400630" />
	</node>
	<node lat="62.83543333627158" lon="9.765266671243356" id="-33824">
		<tag k="name" v="Føldiket" />
		<tag k="natural" v="hill" />
		<tag k="place" v="locality" />
		<tag k="ssr:stedsnr" v="400705" />
	</node>
	<node lat="62.82522222455615" lon="9.740544437970051" id="-33825">
		<tag k="name" v="Gardhaugen" />
		<tag k="natural" v="hill" />
		<tag k="place" v="locality" />
		<tag k="ssr:stedsnr" v="400711" />
	</node>
	<node lat="62.82343611147597" lon="9.874572219741939" id="-33827">
		<tag k="name" v="Kverndalen" />
		<tag k="natural" v="valley" />
		<tag k="place" v="locality" />
		<tag k="ssr:stedsnr" v="400727" />
	</node>
	<node lat="62.97170277600666" lon="9.948858327520824" id="-33835">
		<tag k="fixme" v="consider natural=peak for the most distinct mountains in the district" />
		<tag k="name" v="Pikhåmmåren" />
		<tag k="natural" v="hill" />
		<tag k="place" v="locality" />
		<tag k="ssr:stedsnr" v="400912" />
	</node>
	<node lat="62.9433222253143" lon="9.781619438829958" id="-33841">
		<tag k="name" v="Polldalen" />
		<tag k="natural" v="valley" />
		<tag k="place" v="locality" />
		<tag k="ssr:stedsnr" v="400679" />
	</node>
	<node lat="62.701033335631465" lon="10.147166672845831" id="-33842">
		<tag k="name" v="Kvannlibotnan" />
		<tag k="natural" v="valley" />
		<tag k="place" v="locality" />
		<tag k="ssr:stedsnr" v="400806" />
	</node>
	<node lat="62.75724722473841" lon="9.731497226302702" id="-33854">
		<tag k="alt_name" v="Dugurdsknappen" />
		<tag k="fixme" v="consider natural=peak for the most distinct mountains in the district" />
		<tag k="name" v="Duggurdsknappen" />
		<tag k="natural" v="hill" />
		<tag k="place" v="locality" />
		<tag k="ssr:stedsnr" v="437608" />
	</node>
	<node lat="62.886624997460885" lon="9.855763888165969" id="-33870">
		<tag k="name" v="Knøskkjuken" />
		<tag k="natural" v="hill" />
		<tag k="place" v="locality" />
		<tag k="ssr:stedsnr" v="461534" />
	</node>
	<node lat="62.941469447605385" lon="9.87005833613701" id="-33872">
		<tag k="name" v="Vasslia" />
		<tag k="natural" v="slope" />
		<tag k="place" v="locality" />
		<tag k="ssr:stedsnr" v="461563" />
	</node>
	<node lat="62.8355583312401" lon="10.06804999365819" id="-33876">
		<tag k="name" v="Bjørklia" />
		<tag k="natural" v="slope" />
		<tag k="place" v="locality" />
		<tag k="ssr:stedsnr" v="461772" />
	</node>
	<node lat="62.893597225200246" lon="9.810683340425117" id="-33881">
		<tag k="name" v="Engbakkan" />
		<tag k="natural" v="slope" />
		<tag k="place" v="locality" />
		<tag k="ssr:stedsnr" v="461664" />
	</node>
	<node lat="62.74691666934426" lon="10.072502773712674" id="-33889">
		<tag k="fixme" v="consider natural=peak for the most distinct mountains in the district" />
		<tag k="name" v="Finnfjellet" />
		<tag k="natural" v="hill" />
		<tag k="place" v="locality" />
		<tag k="ssr:stedsnr" v="678398" />
	</node>
	<node lat="62.71543611521171" lon="10.192480556040513" id="-33891">
		<tag k="name" v="Vardhøa" />
		<tag k="natural" v="hill" />
		<tag k="place" v="locality" />
		<tag k="ssr:stedsnr" v="679249" />
	</node>
	<node lat="62.81051944492902" lon="9.72989722260726" id="-33899">
		<tag k="fixme" v="consider natural=peak for the most distinct mountains in the district" />
		<tag k="name" v="Refshuskollen" />
		<tag k="natural" v="hill" />
		<tag k="place" v="locality" />
		<tag k="ssr:stedsnr" v="679525" />
	</node>
	<node lat="62.877097223697724" lon="10.006233336927414" id="-33902">
		<tag k="fixme" v="consider natural=peak for the most distinct mountains in the district" />
		<tag k="name" v="Aunrøa" />
		<tag k="natural" v="hill" />
		<tag k="place" v="locality" />
		<tag k="ssr:stedsnr" v="679889" />
	</node>
	<node lat="62.879041669253354" lon="9.616772219284742" id="-33905">
		<tag k="fixme" v="consider natural=peak for the most distinct mountains in the district" />
		<tag k="name" v="Telfjellet" />
		<tag k="natural" v="hill" />
		<tag k="place" v="locality" />
		<tag k="ssr:stedsnr" v="680219" />
	</node>
	<node lat="62.76621111149134" lon="10.15041943708805" id="-33909">
		<tag k="alt_name" v="Svarthåmmåren" />
		<tag k="name" v="Svarthamran" />
		<tag k="natural" v="hill" />
		<tag k="place" v="locality" />
		<tag k="ssr:stedsnr" v="680658" />
	</node>
	<node lat="62.8853000016406" lon="9.571708330803109" id="-33930">
		<tag k="name" v="Ytter Kleiva" />
		<tag k="natural" v="slope" />
		<tag k="place" v="locality" />
		<tag k="ssr:stedsnr" v="521605" />
	</node>
	<node lat="62.870824998507864" lon="9.955261116952553" id="-33932">
		<tag k="fixme" v="consider natural=peak for the most distinct mountains in the district" />
		<tag k="name" v="Jønnsjøpiken" />
		<tag k="natural" v="hill" />
		<tag k="place" v="locality" />
		<tag k="ssr:stedsnr" v="521607" />
	</node>
	<node lat="62.812308336650915" lon="9.590952786393636" id="-33934">
		<tag k="fixme" v="consider natural=peak for the most distinct mountains in the district" />
		<tag k="name" v="Uvsenget" />
		<tag k="natural" v="hill" />
		<tag k="place" v="locality" />
		<tag k="ssr:stedsnr" v="521610" />
	</node>
	<node lat="62.88712221997319" lon="9.837838894275034" id="-33936">
		<tag k="fixme" v="consider natural=peak for the most distinct mountains in the district" />
		<tag k="name" v="Herremsåsen" />
		<tag k="natural" v="hill" />
		<tag k="place" v="locality" />
		<tag k="ssr:stedsnr" v="521508" />
	</node>
	<node lat="62.887219443618186" lon="9.86667778114837" id="-33937">
		<tag k="name" v="Gjetstuggu" />
		<tag k="natural" v="slope" />
		<tag k="place" v="locality" />
		<tag k="ssr:stedsnr" v="521509" />
	</node>
	<node lat="62.69818611028386" lon="9.961922228998253" id="-33938">
		<tag k="name" v="Gjelhaugen" />
		<tag k="natural" v="hill" />
		<tag k="place" v="locality" />
		<tag k="ssr:stedsnr" v="521563" />
	</node>
	<node lat="62.74858610797096" lon="9.892236113438322" id="-33941">
		<tag k="name" v="Flonberget" />
		<tag k="natural" v="hill" />
		<tag k="place" v="locality" />
		<tag k="ssr:stedsnr" v="521713" />
	</node>
	<node lat="62.79339444766846" lon="9.816663883797778" id="-33942">
		<tag k="name" v="Styggdalen" />
		<tag k="natural" v="valley" />
		<tag k="place" v="locality" />
		<tag k="ssr:stedsnr" v="521720" />
	</node>
	<node lat="62.662180554513895" lon="10.024205550532942" id="-33948">
		<tag k="name" v="Øya" />
		<tag k="place" v="locality" />
		<tag k="ssr:stedsnr" v="521825" />
	</node>
	<node lat="62.8401916664704" lon="9.636008332280278" id="-33961">
		<tag k="name" v="Storholtet" />
		<tag k="natural" v="ridge" />
		<tag k="place" v="locality" />
		<tag k="ssr:stedsnr" v="522610" />
	</node>
	<node lat="62.76999999618762" lon="9.627236118518365" id="-33964">
		<tag k="name" v="Gjetryggen" />
		<tag k="natural" v="ridge" />
		<tag k="place" v="locality" />
		<tag k="ssr:stedsnr" v="522625" />
	</node>
	<node lat="62.78750833133845" lon="9.602130554246036" id="-33965">
		<tag k="name" v="Skaugjelan" />
		<tag k="natural" v="slope" />
		<tag k="place" v="locality" />
		<tag k="ssr:stedsnr" v="522628" />
	</node>
	<node lat="62.90299999598351" lon="9.62265000141886" id="-33966">
		<tag k="name" v="Vaulan" />
		<tag k="place" v="locality" />
		<tag k="ssr:stedsnr" v="522971" />
	</node>
	<node lat="62.74410833516726" lon="9.779908342676618" id="-33973">
		<tag k="name" v="Glupen" />
		<tag k="natural" v="valley" />
		<tag k="old_name" v="Nørdre Smotta" />
		<tag k="place" v="locality" />
		<tag k="ssr:stedsnr" v="557349" />
	</node>
	<node lat="62.811311113055986" lon="9.938327778740751" id="-33976">
		<tag k="fixme" v="consider natural=peak for the most distinct mountains in the district" />
		<tag k="name" v="Høgåsen" />
		<tag k="natural" v="hill" />
		<tag k="place" v="locality" />
		<tag k="ssr:stedsnr" v="558605" />
	</node>
	<node lat="62.8114000025327" lon="10.14924167283376" id="-33980">
		<tag k="fixme" v="consider natural=peak for the most distinct mountains in the district" />
		<tag k="name" v="Skoftin" />
		<tag k="natural" v="hill" />
		<tag k="place" v="locality" />
		<tag k="ssr:stedsnr" v="558600" />
	</node>
	<node lat="62.935175001862376" lon="9.781586115456772" id="-33999">
		<tag k="name" v="Litlberget" />
		<tag k="natural" v="hill" />
		<tag k="place" v="locality" />
		<tag k="ssr:stedsnr" v="582723" />
	</node>
	<node lat="62.770125003307015" lon="9.623530548044421" id="-34003">
		<tag k="name" v="Skilleflaten" />
		<tag k="natural" v="ridge" />
		<tag k="place" v="locality" />
		<tag k="ssr:stedsnr" v="582651" />
	</node>
	<node lat="62.902077781711235" lon="9.782036120717757" id="-34007">
		<tag k="name" v="Hafelldalen" />
		<tag k="natural" v="valley" />
		<tag k="place" v="locality" />
		<tag k="ssr:stedsnr" v="582839" />
	</node>
	<node lat="62.723202776697875" lon="9.719316676252104" id="-34009">
		<tag k="name" v="Leverdalen" />
		<tag k="natural" v="valley" />
		<tag k="place" v="locality" />
		<tag k="ssr:stedsnr" v="582845" />
	</node>
	<node lat="62.600788885242245" lon="10.057438884922233" id="-34012">
		<tag k="name" v="Skora" />
		<tag k="natural" v="ridge" />
		<tag k="place" v="locality" />
		<tag k="ssr:stedsnr" v="582944" />
	</node>
	<node lat="62.956277781126765" lon="9.787199993940408" id="-34013">
		<tag k="name" v="Kløvdalen" />
		<tag k="natural" v="valley" />
		<tag k="place" v="locality" />
		<tag k="ssr:stedsnr" v="582945" />
	</node>
	<node lat="62.96121388671718" lon="9.763550006902381" id="-34014">
		<tag k="name" v="Mekveldshaugen" />
		<tag k="natural" v="hill" />
		<tag k="place" v="locality" />
		<tag k="ssr:stedsnr" v="582954" />
	</node>
	<node lat="62.69123611356614" lon="10.151788894377058" id="-34017">
		<tag k="name" v="Ulvmoen" />
		<tag k="old_name" v="Ølmoen" />
		<tag k="place" v="locality" />
		<tag k="ssr:stedsnr" v="618280" />
	</node>
	<node lat="62.86485000187741" lon="9.789750002049132" id="-34026">
		<tag k="fixme" v="consider natural=peak for the most distinct mountains in the district" />
		<tag k="name" v="Furuåsen" />
		<tag k="natural" v="hill" />
		<tag k="place" v="locality" />
		<tag k="ssr:stedsnr" v="619907" />
	</node>
	<node lat="62.88924722292292" lon="9.869222225508743" id="-34028">
		<tag k="fixme" v="consider natural=peak for the most distinct mountains in the district" />
		<tag k="name" v="Nedre Knappen" />
		<tag k="natural" v="hill" />
		<tag k="place" v="locality" />
		<tag k="ssr:stedsnr" v="619986" />
	</node>
	<node lat="62.89962499743835" lon="9.889938889746132" id="-34031">
		<tag k="name" v="Skaurøa" />
		<tag k="natural" v="hill" />
		<tag k="place" v="locality" />
		<tag k="ssr:stedsnr" v="703555" />
	</node>
	<node lat="62.89022778200321" lon="9.883519452608866" id="-34032">
		<tag k="name" v="Øver Lert" />
		<tag k="natural" v="ridge" />
		<tag k="place" v="locality" />
		<tag k="ssr:stedsnr" v="703556" />
	</node>
	<node lat="62.88211944105172" lon="9.78558333673204" id="-34046">
		<tag k="fixme" v="consider natural=peak for the most distinct mountains in the district" />
		<tag k="name" v="Haugaåsen" />
		<tag k="natural" v="hill" />
		<tag k="place" v="locality" />
		<tag k="ssr:stedsnr" v="703752" />
	</node>
	<node lat="62.88312777950761" lon="9.771516670673098" id="-34054">
		<tag k="name" v="Pikhaugan" />
		<tag k="natural" v="hill" />
		<tag k="place" v="locality" />
		<tag k="ssr:stedsnr" v="704544" />
	</node>
	<node lat="62.83516388729772" lon="9.955738896466432" id="-34056">
		<tag k="name" v="Berget" />
		<tag k="natural" v="hill" />
		<tag k="place" v="locality" />
		<tag k="ssr:stedsnr" v="704566" />
	</node>
	<node lat="62.850830553575854" lon="9.94291943525893" id="-34057">
		<tag k="name" v="Sæterdalen" />
		<tag k="natural" v="valley" />
		<tag k="place" v="locality" />
		<tag k="ssr:stedsnr" v="704580" />
	</node>
	<node lat="62.79653332950317" lon="9.622524990460732" id="-34058">
		<tag k="name" v="Rishaugenget" />
		<tag k="natural" v="slope" />
		<tag k="place" v="locality" />
		<tag k="ssr:stedsnr" v="704583" />
	</node>
	<node lat="62.9074305538894" lon="9.828472225299622" id="-34059">
		<tag k="name" v="Pikkhåmmåren" />
		<tag k="natural" v="hill" />
		<tag k="place" v="locality" />
		<tag k="ssr:stedsnr" v="704597" />
	</node>
	<node lat="62.7905722206467" lon="9.611930553781068" id="-34060">
		<tag k="name" v="Fjellkåsa" />
		<tag k="natural" v="ridge" />
		<tag k="place" v="locality" />
		<tag k="ssr:stedsnr" v="704600" />
	</node>
	<node lat="62.82228610897666" lon="9.884747229290523" id="-34069">
		<tag k="fixme" v="consider natural=peak for the most distinct mountains in the district" />
		<tag k="name" v="Skåpen" />
		<tag k="natural" v="hill" />
		<tag k="place" v="locality" />
		<tag k="ssr:stedsnr" v="704693" />
	</node>
	<node lat="62.64106944488198" lon="10.04819443611639" id="-34079">
		<tag k="name" v="Tovdalsberga" />
		<tag k="natural" v="hill" />
		<tag k="place" v="locality" />
		<tag k="ssr:stedsnr" v="704983" />
	</node>
	<node lat="62.76558888689961" lon="9.987186119460683" id="-34080">
		<tag k="name" v="Angrimbakken" />
		<tag k="natural" v="slope" />
		<tag k="place" v="locality" />
		<tag k="ssr:stedsnr" v="704919" />
	</node>
	<node lat="62.756591669939986" lon="9.994902774838373" id="-34082">
		<tag k="alt_name" v="Stakksenget Øver" />
		<tag k="name" v="Øver Stakksenget" />
		<tag k="natural" v="slope" />
		<tag k="place" v="locality" />
		<tag k="ssr:stedsnr" v="704926" />
	</node>
	<node lat="62.72812221826678" lon="10.081094447593802" id="-34086">
		<tag k="name" v="Revhidalen" />
		<tag k="natural" v="valley" />
		<tag k="place" v="locality" />
		<tag k="ssr:stedsnr" v="704938" />
	</node>
	<node lat="62.668699998097665" lon="10.018275002353365" id="-34087">
		<tag k="name" v="Grindskåren" />
		<tag k="natural" v="slope" />
		<tag k="place" v="locality" />
		<tag k="ssr:stedsnr" v="704944" />
	</node>
	<node lat="62.89575833084388" lon="9.87815000343292" id="-34094">
		<tag k="name" v="Sæterbrekka" />
		<tag k="natural" v="slope" />
		<tag k="place" v="locality" />
		<tag k="ssr:stedsnr" v="642508" />
	</node>
	<node lat="62.94986389093509" lon="9.863330560206654" id="-34095">
		<tag k="fixme" v="consider natural=peak for the most distinct mountains in the district" />
		<tag k="name" v="Litlvassåsen" />
		<tag k="natural" v="hill" />
		<tag k="place" v="locality" />
		<tag k="ssr:stedsnr" v="642528" />
	</node>
	<node lat="62.93735555108582" lon="9.869075008833276" id="-34096">
		<tag k="name" v="Gjetberget" />
		<tag k="natural" v="slope" />
		<tag k="place" v="locality" />
		<tag k="ssr:stedsnr" v="642532" />
	</node>
	<node lat="62.895869448389696" lon="9.84892221990129" id="-34097">
		<tag k="name" v="Ormstaven" />
		<tag k="natural" v="slope" />
		<tag k="place" v="locality" />
		<tag k="ssr:stedsnr" v="642534" />
	</node>
	<node lat="62.92214999688625" lon="9.840266669560553" id="-34098">
		<tag k="name" v="Fjellslættet" />
		<tag k="natural" v="hill" />
		<tag k="place" v="locality" />
		<tag k="ssr:stedsnr" v="642535" />
	</node>
	<node lat="62.887852774732956" lon="9.949861118735082" id="-34101">
		<tag k="fixme" v="consider natural=peak for the most distinct mountains in the district" />
		<tag k="name" v="Veltfjellet" />
		<tag k="natural" v="hill" />
		<tag k="place" v="locality" />
		<tag k="ssr:stedsnr" v="642604" />
	</node>
	<node lat="62.93484166652919" lon="9.785258340940302" id="-34104">
		<tag k="name" v="Småberga" />
		<tag k="natural" v="hill" />
		<tag k="place" v="locality" />
		<tag k="ssr:stedsnr" v="642674" />
	</node>
	<node lat="62.83856110918865" lon="9.774233324040301" id="-34107">
		<tag k="name" v="Styggklevgrinda" />
		<tag k="place" v="locality" />
		<tag k="ssr:stedsnr" v="642687" />
	</node>
	<node lat="62.73885555873851" lon="9.727333326911456" id="-34108">
		<tag k="name" v="Grønlia" />
		<tag k="natural" v="slope" />
		<tag k="place" v="locality" />
		<tag k="ssr:stedsnr" v="642695" />
	</node>
	<node lat="62.75158333445608" lon="9.942524995205297" id="-34110">
		<tag k="name" v="Nysæterdalen" />
		<tag k="natural" v="valley" />
		<tag k="place" v="locality" />
		<tag k="ssr:stedsnr" v="642576" />
	</node>
	<node lat="62.872044441343206" lon="9.802097227019255" id="-34118">
		<tag k="fixme" v="consider natural=peak for the most distinct mountains in the district" />
		<tag k="name" v="Tømmeråsen" />
		<tag k="natural" v="hill" />
		<tag k="place" v="locality" />
		<tag k="ssr:stedsnr" v="642728" />
	</node>
	<node lat="62.641336113131544" lon="10.046199991460858" id="-34127">
		<tag k="name" v="Tovdalen" />
		<tag k="natural" v="valley" />
		<tag k="place" v="locality" />
		<tag k="ssr:stedsnr" v="642982" />
	</node>
	<node lat="62.86413611386134" lon="9.941033335856929" id="-34139">
		<tag k="fixme" v="consider natural=peak for the most distinct mountains in the district" />
		<tag k="name" v="Finnvasspiken" />
		<tag k="natural" v="hill" />
		<tag k="place" v="locality" />
		<tag k="ssr:stedsnr" v="679867" />
	</node>
	<node lat="62.75830000387245" lon="9.852500002249498" id="-34144">
		<tag k="fixme" v="consider natural=peak for the most distinct mountains in the district" />
		<tag k="name" v="Fremre Bekkhøa" />
		<tag k="natural" v="hill" />
		<tag k="old_name" v="Hevertjønnfjellet;Hevertjørnfjellet" />
		<tag k="place" v="locality" />
		<tag k="ssr:stedsnr" v="680661" />
	</node>
	<node lat="62.91108333434919" lon="9.835202778303344" id="-34145">
		<tag k="fixme" v="consider natural=peak for the most distinct mountains in the district" />
		<tag k="name" v="Pikhåmmåren" />
		<tag k="natural" v="hill" />
		<tag k="place" v="locality" />
		<tag k="ssr:stedsnr" v="688204" />
	</node>
	<node lat="62.860591663799845" lon="10.018155550184048" id="-34147">
		<tag k="name" v="Liarabben" />
		<tag k="natural" v="slope" />
		<tag k="place" v="locality" />
		<tag k="ssr:stedsnr" v="703246" />
	</node>
	<node lat="62.8702527762933" lon="9.85946943855405" id="-34150">
		<tag k="fixme" v="consider natural=peak for the most distinct mountains in the district" />
		<tag k="name" v="Haborstolan" />
		<tag k="natural" v="hill" />
		<tag k="place" v="locality" />
		<tag k="ssr:stedsnr" v="703572" />
	</node>
	<node lat="62.870072225139516" lon="9.853383339598407" id="-34151">
		<tag k="name" v="Kjeberget" />
		<tag k="natural" v="hill" />
		<tag k="place" v="locality" />
		<tag k="ssr:stedsnr" v="703575" />
	</node>
	<node lat="62.836997219635435" lon="10.123349997667384" id="-34153">
		<tag k="fixme" v="consider natural=peak for the most distinct mountains in the district" />
		<tag k="name" v="Eggjåsen" />
		<tag k="natural" v="hill" />
		<tag k="place" v="locality" />
		<tag k="ssr:stedsnr" v="703807" />
	</node>
	<node lat="62.85480000448264" lon="9.867658337331028" id="-34160">
		<tag k="name" v="Jomannhaugen" />
		<tag k="natural" v="hill" />
		<tag k="place" v="locality" />
		<tag k="ssr:stedsnr" v="704471" />
	</node>
	<node lat="62.773763892658785" lon="9.64037500026123" id="-34162">
		<tag k="name" v="Storhaugberga" />
		<tag k="natural" v="hill" />
		<tag k="place" v="locality" />
		<tag k="ssr:stedsnr" v="704608" />
	</node>
	<node lat="62.92455000091038" lon="9.794977781879679" id="-34164">
		<tag k="name" v="Pikhaugen" />
		<tag k="natural" v="hill" />
		<tag k="place" v="locality" />
		<tag k="ssr:stedsnr" v="704614" />
	</node>
	<node lat="62.92919722088122" lon="9.780025006803102" id="-34167">
		<tag k="name" v="Verjdalen" />
		<tag k="natural" v="valley" />
		<tag k="place" v="locality" />
		<tag k="ssr:stedsnr" v="704623" />
	</node>
	<node lat="62.84860278018066" lon="9.722347224864816" id="-34169">
		<tag k="name" v="Bergslættet" />
		<tag k="natural" v="slope" />
		<tag k="place" v="locality" />
		<tag k="ssr:stedsnr" v="704666" />
	</node>
	<node lat="62.74977500088861" lon="9.88850556080486" id="-34174">
		<tag k="fixme" v="consider natural=peak for the most distinct mountains in the district" />
		<tag k="name" v="Flonan" />
		<tag k="natural" v="hill" />
		<tag k="place" v="locality" />
		<tag k="ssr:stedsnr" v="704676" />
	</node>
	<node lat="62.82544444073329" lon="9.871216672499234" id="-34177">
		<tag k="name" v="Skjennstøet" />
		<tag k="natural" v="ridge" />
		<tag k="place" v="locality" />
		<tag k="ssr:stedsnr" v="704706" />
	</node>
	<node lat="62.83218611018844" lon="9.877461120616044" id="-34179">
		<tag k="name" v="Purkstigen" />
		<tag k="natural" v="slope" />
		<tag k="place" v="locality" />
		<tag k="ssr:stedsnr" v="704711" />
	</node>
	<node lat="62.86000555984779" lon="9.879883337837192" id="-34180">
		<tag k="name" v="Ormlia" />
		<tag k="natural" v="slope" />
		<tag k="place" v="locality" />
		<tag k="ssr:stedsnr" v="704720" />
	</node>
	<node lat="62.851386108688835" lon="9.845019438054305" id="-34183">
		<tag k="name" v="Baklia" />
		<tag k="natural" v="slope" />
		<tag k="place" v="locality" />
		<tag k="ssr:stedsnr" v="704729" />
	</node>
	<node lat="62.774624995587494" lon="9.985805561524785" id="-34185">
		<tag k="fixme" v="consider natural=peak for the most distinct mountains in the district" />
		<tag k="name" v="Linningstadpynten" />
		<tag k="natural" v="hill" />
		<tag k="place" v="locality" />
		<tag k="ssr:stedsnr" v="704870" />
	</node>
	<node lat="62.89163055998309" lon="9.936824999989057" id="-34187">
		<tag k="name" v="Skardet" />
		<tag k="natural" v="valley" />
		<tag k="place" v="locality" />
		<tag k="ssr:stedsnr" v="704877" />
	</node>
	<node lat="62.95413333061288" lon="9.723041672435466" id="-34190">
		<tag k="name" v="Saufjøset" />
		<tag k="natural" v="hill" />
		<tag k="place" v="locality" />
		<tag k="ssr:stedsnr" v="704973" />
	</node>
	<node lat="62.904466670568006" lon="9.600294444015919" id="-34191">
		<tag k="fixme" v="consider natural=peak for the most distinct mountains in the district" />
		<tag k="name" v="Åsan" />
		<tag k="natural" v="hill" />
		<tag k="place" v="locality" />
		<tag k="ssr:stedsnr" v="704974" />
	</node>
	<node lat="62.83280833201534" lon="9.656577787497985" id="-34199">
		<tag k="fixme" v="consider natural=peak for the most distinct mountains in the district" />
		<tag k="name" v="Ånegga" />
		<tag k="natural" v="hill" />
		<tag k="place" v="locality" />
		<tag k="ssr:stedsnr" v="740797" />
	</node>
	<node lat="62.916102773660675" lon="9.698050006726744" id="-34207">
		<tag k="name" v="Innstugguvorda" />
		<tag k="natural" v="slope" />
		<tag k="place" v="locality" />
		<tag k="ssr:stedsnr" v="905994" />
	</node>
	<node lat="62.89265833187921" lon="9.859302779875238" id="-34208">
		<tag k="name" v="Kløftet" />
		<tag k="natural" v="valley" />
		<tag k="place" v="locality" />
		<tag k="ssr:stedsnr" v="763550" />
	</node>
	<node lat="62.805061109165514" lon="9.553899992576026" id="-34213">
		<tag k="name" v="Pessravalhøgda" />
		<tag k="natural" v="hill" />
		<tag k="place" v="locality" />
		<tag k="ssr:stedsnr" v="764591" />
	</node>
	<node lat="62.79884722161318" lon="9.792699993624453" id="-34221">
		<tag k="name" v="Vidalen" />
		<tag k="natural" v="valley" />
		<tag k="place" v="locality" />
		<tag k="ssr:stedsnr" v="764717" />
	</node>
	<node lat="62.82236944635408" lon="9.875858338023539" id="-34222">
		<tag k="fixme" v="consider natural=peak for the most distinct mountains in the district" />
		<tag k="name" v="Sjulhåmmåren" />
		<tag k="natural" v="hill" />
		<tag k="place" v="locality" />
		<tag k="ssr:stedsnr" v="764719" />
	</node>
	<node lat="62.90601388742667" lon="9.805991670438948" id="-34223">
		<tag k="name" v="Kjerkbrekka" />
		<tag k="natural" v="slope" />
		<tag k="place" v="locality" />
		<tag k="ssr:stedsnr" v="764612" />
	</node>
	<node lat="62.786513889559174" lon="9.666241666143392" id="-34226">
		<tag k="fixme" v="consider natural=peak for the most distinct mountains in the district" />
		<tag k="name" v="Brandhaugen" />
		<tag k="natural" v="hill" />
		<tag k="place" v="locality" />
		<tag k="ssr:stedsnr" v="764655" />
	</node>
	<node lat="62.91522222334966" lon="9.817549990996115" id="-34227">
		<tag k="name" v="Ner Gravora" />
		<tag k="natural" v="valley" />
		<tag k="place" v="locality" />
		<tag k="ssr:stedsnr" v="764657" />
	</node>
	<node lat="62.84748888656166" lon="9.746261108115167" id="-34228">
		<tag k="fixme" v="consider natural=peak for the most distinct mountains in the district" />
		<tag k="name" v="Fuggelåsen" />
		<tag k="natural" v="hill" />
		<tag k="place" v="locality" />
		<tag k="ssr:stedsnr" v="764690" />
	</node>
	<node lat="62.860025002008" lon="9.744213886119386" id="-34229">
		<tag k="alt_name" v="Røbekkdalen" />
		<tag k="name" v="Rødbekkdalen" />
		<tag k="natural" v="valley" />
		<tag k="place" v="locality" />
		<tag k="ssr:stedsnr" v="764694" />
	</node>
	<node lat="62.85676389246979" lon="9.846941668116356" id="-34234">
		<tag k="fixme" v="consider natural=peak for the most distinct mountains in the district" />
		<tag k="name" v="Gjetkluggu" />
		<tag k="natural" v="hill" />
		<tag k="place" v="locality" />
		<tag k="ssr:stedsnr" v="764742" />
	</node>
	<node lat="62.833819440346886" lon="9.970983337378058" id="-34235">
		<tag k="name" v="Eggjbakkan" />
		<tag k="natural" v="slope" />
		<tag k="place" v="locality" />
		<tag k="ssr:stedsnr" v="764798" />
	</node>
	<node lat="62.79331110978008" lon="10.005838883402946" id="-34237">
		<tag k="name" v="Storpynten" />
		<tag k="natural" v="hill" />
		<tag k="place" v="locality" />
		<tag k="ssr:stedsnr" v="764913" />
	</node>
	<node lat="62.75613889054891" lon="10.020263897068665" id="-34238">
		<tag k="name" v="Høghaugen" />
		<tag k="natural" v="hill" />
		<tag k="place" v="locality" />
		<tag k="ssr:stedsnr" v="764918" />
	</node>
	<node lat="62.60586666326316" lon="10.049730565125232" id="-34239">
		<tag k="fixme" v="consider natural=peak for the most distinct mountains in the district" />
		<tag k="name" v="Kjerringenget" />
		<tag k="natural" v="hill" />
		<tag k="place" v="locality" />
		<tag k="ssr:stedsnr" v="764946" />
	</node>
	<node lat="62.73025833547355" lon="10.089438897884543" id="-34240">
		<tag k="name" v="Pershøa" />
		<tag k="natural" v="hill" />
		<tag k="place" v="locality" />
		<tag k="ssr:stedsnr" v="764952" />
	</node>
	<node lat="62.72226388562731" lon="10.089355554473237" id="-34241">
		<tag k="name" v="Damtjønnlia" />
		<tag k="natural" v="slope" />
		<tag k="place" v="locality" />
		<tag k="ssr:stedsnr" v="764956" />
	</node>
	<node lat="62.94537777701112" lon="9.678594452521867" id="-34245">
		<tag k="name" v="Brandåsliin" />
		<tag k="natural" v="slope" />
		<tag k="place" v="locality" />
		<tag k="ssr:stedsnr" v="764999" />
	</node>
	<node lat="62.759127781078824" lon="9.86678055071516" id="-34248">
		<tag k="name" v="Hevertjønnfjellet" />
		<tag k="natural" v="ridge" />
		<tag k="place" v="locality" />
		<tag k="ssr:stedsnr" v="786307" />
	</node>
	<node lat="62.72184999684979" lon="10.00992500345055" id="-34250">
		<tag k="name" v="Botnan" />
		<tag k="natural" v="valley" />
		<tag k="place" v="locality" />
		<tag k="ssr:stedsnr" v="800313" />
	</node>
	<node lat="62.88961944127894" lon="9.495166662550004" id="-34254">
		<tag k="fixme" v="consider natural=peak for the most distinct mountains in the district" />
		<tag k="name" v="Grønlihåmmåren" />
		<tag k="natural" v="hill" />
		<tag k="place" v="locality" />
		<tag k="ssr:stedsnr" v="801185" />
	</node>
	<node lat="62.87369167060858" lon="9.92008887938466" id="-34259">
		<tag k="fixme" v="consider natural=peak for the most distinct mountains in the district" />
		<tag k="name" v="Røraknipen" />
		<tag k="natural" v="hill" />
		<tag k="place" v="locality" />
		<tag k="ssr:stedsnr" v="801881" />
	</node>
	<node lat="62.94760833686546" lon="9.994208341501487" id="-34260">
		<tag k="fixme" v="consider natural=peak for the most distinct mountains in the district" />
		<tag k="name" v="Hikefjella" />
		<tag k="natural" v="hill" />
		<tag k="place" v="locality" />
		<tag k="ssr:stedsnr" v="801972" />
	</node>
	<node lat="62.84415000194854" lon="10.138677786415538" id="-34261">
		<tag k="name" v="Rønningsysetet" />
		<tag k="natural" v="slope" />
		<tag k="place" v="locality" />
		<tag k="ssr:stedsnr" v="809180" />
	</node>
	<node lat="62.729016665516305" lon="9.965663886181934" id="-34266">
		<tag k="alt_name" v="Farligheta" />
		<tag k="name" v="Farlegheta" />
		<tag k="natural" v="slope" />
		<tag k="place" v="locality" />
		<tag k="ssr:stedsnr" v="921336" />
	</node>
	<node lat="62.83618333246258" lon="9.828966659140946" id="-34271">
		<tag k="name" v="Styggvadet" />
		<tag k="natural" v="ridge" />
		<tag k="place" v="locality" />
		<tag k="ssr:stedsnr" v="824711" />
	</node>
	<node lat="62.88752222240808" lon="9.831280565283775" id="-34275">
		<tag k="name" v="Småvollen" />
		<tag k="place" v="locality" />
		<tag k="ssr:stedsnr" v="824742" />
	</node>
	<node lat="62.70738055154957" lon="10.041877785138213" id="-34276">
		<tag k="name" v="Klevodden" />
		<tag k="natural" v="hill" />
		<tag k="place" v="locality" />
		<tag k="ssr:stedsnr" v="824972" />
	</node>
	<node lat="62.92155277480866" lon="9.819952785033369" id="-34282">
		<tag k="name" v="Mærkesløkkja" />
		<tag k="natural" v="slope" />
		<tag k="place" v="locality" />
		<tag k="ssr:stedsnr" v="825608" />
	</node>
	<node lat="62.89761944271213" lon="9.794372217610833" id="-34283">
		<tag k="fixme" v="consider natural=peak for the most distinct mountains in the district" />
		<tag k="name" v="Tjønnamyråsen" />
		<tag k="natural" v="hill" />
		<tag k="place" v="locality" />
		<tag k="ssr:stedsnr" v="825614" />
	</node>
	<node lat="62.9308555512257" lon="9.787808332464847" id="-34287">
		<tag k="name" v="Ormhaugen" />
		<tag k="natural" v="hill" />
		<tag k="place" v="locality" />
		<tag k="ssr:stedsnr" v="825672" />
	</node>
	<node lat="62.931902778174845" lon="9.795749992915812" id="-34288">
		<tag k="fixme" v="consider natural=peak for the most distinct mountains in the district" />
		<tag k="name" v="Ondushåmmåren" />
		<tag k="natural" v="hill" />
		<tag k="place" v="locality" />
		<tag k="ssr:stedsnr" v="825674" />
	</node>
	<node lat="62.86810555766695" lon="9.968316670090095" id="-34293">
		<tag k="name" v="Gammelseterhaugan" />
		<tag k="natural" v="hill" />
		<tag k="place" v="locality" />
		<tag k="ssr:stedsnr" v="825863" />
	</node>
	<node lat="62.850113888009886" lon="9.928919442165055" id="-34295">
		<tag k="name" v="Vardberget" />
		<tag k="natural" v="hill" />
		<tag k="place" v="locality" />
		<tag k="ssr:stedsnr" v="825572" />
	</node>
	<node lat="62.86358888996688" lon="9.93486111424525" id="-34296">
		<tag k="name" v="Litltjønnberga" />
		<tag k="natural" v="hill" />
		<tag k="place" v="locality" />
		<tag k="ssr:stedsnr" v="825574" />
	</node>
	<node lat="62.82709166237842" lon="9.891691676332291" id="-34297">
		<tag k="name" v="Elglia" />
		<tag k="natural" v="slope" />
		<tag k="place" v="locality" />
		<tag k="ssr:stedsnr" v="825716" />
	</node>
	<node lat="62.96892222426837" lon="9.904002769277218" id="-34303">
		<tag k="name" v="Svartberga" />
		<tag k="natural" v="hill" />
		<tag k="place" v="locality" />
		<tag k="ssr:stedsnr" v="825910" />
	</node>
	<node lat="62.694669441095336" lon="9.951938880281615" id="-34308">
		<tag k="name" v="Gisnafallet" />
		<tag k="natural" v="slope" />
		<tag k="place" v="locality" />
		<tag k="ssr:stedsnr" v="922273" />
	</node>
	<node lat="62.59218611156816" lon="10.011097230294961" id="-34311">
		<tag k="fixme" v="consider natural=peak for the most distinct mountains in the district" />
		<tag k="name" v="Næringtangen" />
		<tag k="natural" v="hill" />
		<tag k="place" v="locality" />
		<tag k="ssr:stedsnr" v="922402" />
	</node>
	<node lat="62.640152775365884" lon="10.056119447541041" id="-34314">
		<tag k="fixme" v="consider natural=peak for the most distinct mountains in the district" />
		<tag k="name" v="Tverrfjellet" />
		<tag k="natural" v="hill" />
		<tag k="place" v="locality" />
		<tag k="ssr:stedsnr" v="922453" />
	</node>
	<node lat="62.8041055522601" lon="9.78735833965878" id="-34317">
		<tag k="fixme" v="consider natural=peak for the most distinct mountains in the district" />
		<tag k="name" v="Nørdstfjellet" />
		<tag k="natural" v="hill" />
		<tag k="place" v="locality" />
		<tag k="ssr:stedsnr" v="922543" />
	</node>
	<node lat="62.78593889160855" lon="10.060672215558629" id="-34320">
		<tag k="fixme" v="consider natural=peak for the most distinct mountains in the district" />
		<tag k="name" v="Langvellslættkjølen" />
		<tag k="natural" v="hill" />
		<tag k="place" v="locality" />
		<tag k="ssr:stedsnr" v="922571" />
	</node>
	<node lat="62.96043333544954" lon="9.733236108378495" id="-34321">
		<tag k="name" v="Heståshaugen" />
		<tag k="natural" v="hill" />
		<tag k="place" v="locality" />
		<tag k="ssr:stedsnr" v="922743" />
	</node>
	<node lat="62.969786111327885" lon="9.93938055383419" id="-34323">
		<tag k="fixme" v="consider natural=peak for the most distinct mountains in the district" />
		<tag k="name" v="Pikhåmmåren" />
		<tag k="natural" v="hill" />
		<tag k="place" v="locality" />
		<tag k="ssr:stedsnr" v="922769" />
	</node>
	<node lat="62.94994444858922" lon="9.737763882261204" id="-34329">
		<tag k="fixme" v="consider natural=peak for the most distinct mountains in the district" />
		<tag k="name" v="Skamfjellet" />
		<tag k="natural" v="hill" />
		<tag k="place" v="locality" />
		<tag k="ssr:stedsnr" v="922957" />
	</node>
	<node lat="62.94985000295934" lon="9.906555557140585" id="-34330">
		<tag k="name" v="Slættesberget" />
		<tag k="natural" v="hill" />
		<tag k="place" v="locality" />
		<tag k="ssr:stedsnr" v="922959" />
	</node>
	<node lat="62.926536107653604" lon="9.669725002188443" id="-34340">
		<tag k="name" v="Karihaugen" />
		<tag k="natural" v="hill" />
		<tag k="place" v="locality" />
		<tag k="ssr:stedsnr" v="844881" />
	</node>
	<node lat="62.754236110487426" lon="9.869199991231623" id="-34344">
		<tag k="fixme" v="consider natural=peak for the most distinct mountains in the district" />
		<tag k="name" v="Grønhøa" />
		<tag k="natural" v="hill" />
		<tag k="place" v="locality" />
		<tag k="ssr:stedsnr" v="862598" />
	</node>
	<node lat="62.88740277746343" lon="9.937119438520456" id="-34348">
		<tag k="fixme" v="consider natural=peak for the most distinct mountains in the district" />
		<tag k="name" v="Langvassfjellet" />
		<tag k="natural" v="hill" />
		<tag k="place" v="locality" />
		<tag k="ssr:stedsnr" v="862911" />
	</node>
	<node lat="62.96474821976442" lon="9.98813616643595" id="-34350">
		<tag k="fixme" v="consider natural=peak for the most distinct mountains in the district" />
		<tag k="name" v="Råhetta" />
		<tag k="natural" v="hill" />
		<tag k="place" v="locality" />
		<tag k="ssr:stedsnr" v="862813" />
	</node>
	<node lat="62.94054722000634" lon="9.918305548680193" id="-34355">
		<tag k="fixme" v="consider natural=peak for the most distinct mountains in the district" />
		<tag k="name" v="Nordbygdhåmmåren" />
		<tag k="natural" v="hill" />
		<tag k="place" v="locality" />
		<tag k="ssr:stedsnr" v="862963" />
	</node>
	<node lat="62.945638888626235" lon="9.941386107333098" id="-34356">
		<tag k="fixme" v="consider natural=peak for the most distinct mountains in the district" />
		<tag k="name" v="Ilfjellet" />
		<tag k="natural" v="hill" />
		<tag k="place" v="locality" />
		<tag k="ssr:stedsnr" v="862964" />
	</node>
	<node lat="62.837441667498766" lon="9.834855556662355" id="-34360">
		<tag k="name" v="Middagshaugberga" />
		<tag k="natural" v="hill" />
		<tag k="place" v="locality" />
		<tag k="ssr:stedsnr" v="885697" />
	</node>
	<node lat="62.76886944446372" lon="9.870422216193981" id="-34365">
		<tag k="name" v="Henberget" />
		<tag k="natural" v="hill" />
		<tag k="place" v="locality" />
		<tag k="ssr:stedsnr" v="886717" />
	</node>
	<node lat="62.82155833736379" lon="9.7318000086069" id="-34366">
		<tag k="name" v="Stenmannen" />
		<tag k="natural" v="hill" />
		<tag k="old_name" v="Stenkjærringa" />
		<tag k="place" v="locality" />
		<tag k="ssr:stedsnr" v="886719" />
	</node>
	<node lat="62.74591111001626" lon="9.815105560121314" id="-34367">
		<tag k="name" v="Djupan" />
		<tag k="natural" v="valley" />
		<tag k="place" v="locality" />
		<tag k="ssr:stedsnr" v="886726" />
	</node>
	<node lat="62.83173333578713" lon="9.709891660230427" id="-34371">
		<tag k="name" v="Larshusmelen" />
		<tag k="natural" v="slope" />
		<tag k="place" v="locality" />
		<tag k="ssr:stedsnr" v="886659" />
	</node>
	<node lat="62.790741664536704" lon="9.658288898500114" id="-34372">
		<tag k="name" v="Stakksenget" />
		<tag k="place" v="locality" />
		<tag k="ssr:stedsnr" v="886660" />
	</node>
	<node lat="62.81289166947243" lon="10.095213897594233" id="-34376">
		<tag k="name" v="Finnskjeggøyan" />
		<tag k="natural" v="slope" />
		<tag k="place" v="locality" />
		<tag k="ssr:stedsnr" v="886813" />
	</node>
	<node lat="62.76643611345605" lon="10.043513893467432" id="-34377">
		<tag k="name" v="Fallstøet" />
		<tag k="natural" v="slope" />
		<tag k="place" v="locality" />
		<tag k="ssr:stedsnr" v="886816" />
	</node>
	<node lat="62.79897222292128" lon="10.102136117783926" id="-34378">
		<tag k="name" v="Storlihøgda" />
		<tag k="natural" v="hill" />
		<tag k="place" v="locality" />
		<tag k="ssr:stedsnr" v="886819" />
	</node>
	<node lat="62.70398333168042" lon="10.144861103702958" id="-34380">
		<tag k="name" v="Hammerberga" />
		<tag k="natural" v="hill" />
		<tag k="place" v="locality" />
		<tag k="ssr:stedsnr" v="886798" />
	</node>
	<node lat="62.77170277724665" lon="10.143988891047481" id="-34381">
		<tag k="name" v="Hamran" />
		<tag k="natural" v="slope" />
		<tag k="place" v="locality" />
		<tag k="ssr:stedsnr" v="886800" />
	</node>
	<node lat="62.60404999929432" lon="10.06778333952258" id="-34382">
		<tag k="fixme" v="consider natural=peak for the most distinct mountains in the district" />
		<tag k="name" v="Kaldenget" />
		<tag k="natural" v="hill" />
		<tag k="place" v="locality" />
		<tag k="ssr:stedsnr" v="886947" />
	</node>
	<node lat="62.619033332993" lon="10.014152783902135" id="-34383">
		<tag k="name" v="Stranda" />
		<tag k="place" v="locality" />
		<tag k="ssr:stedsnr" v="886949" />
	</node>
	<node lat="62.94111667070779" lon="9.670730552410536" id="-34384">
		<tag k="name" v="Gammelbakkan" />
		<tag k="natural" v="slope" />
		<tag k="place" v="locality" />
		<tag k="ssr:stedsnr" v="886957" />
	</node>
	<node lat="62.67967222401402" lon="9.979400008625632" id="-34385">
		<tag k="name" v="Hostolia" />
		<tag k="natural" v="slope" />
		<tag k="place" v="locality" />
		<tag k="ssr:stedsnr" v="886961" />
	</node>
	<node lat="62.84827499961924" lon="9.638655554191832" id="-34393">
		<tag k="fixme" v="consider natural=peak for the most distinct mountains in the district" />
		<tag k="name" v="Svarthammerfjellet" />
		<tag k="natural" v="hill" />
		<tag k="place" v="locality" />
		<tag k="ssr:stedsnr" v="922812" />
	</node>
	<node lat="62.89131388742329" lon="9.8963805486119" id="-34396">
		<tag k="fixme" v="consider natural=peak for the most distinct mountains in the district" />
		<tag k="name" v="Skruen" />
		<tag k="natural" v="hill" />
		<tag k="place" v="locality" />
		<tag k="ssr:stedsnr" v="923912" />
	</node>
	<node lat="62.83646111090027" lon="10.025147228856742" id="-34399">
		<tag k="name" v="Åsbakken" />
		<tag k="natural" v="slope" />
		<tag k="place" v="locality" />
		<tag k="ssr:stedsnr" v="946180" />
	</node>
	<node lat="62.86802499813307" lon="9.815919444861263" id="-34412">
		<tag k="name" v="Damhaugen" />
		<tag k="natural" v="hill" />
		<tag k="place" v="locality" />
		<tag k="ssr:stedsnr" v="946734" />
	</node>
	<node lat="62.703330557128865" lon="10.10318055768921" id="-34413">
		<tag k="name" v="Bjørnøya" />
		<tag k="place" v="locality" />
		<tag k="ssr:stedsnr" v="946781" />
	</node>
	<node lat="62.73130833576471" lon="10.109538886704055" id="-34414">
		<tag k="name" v="Glåmtjønnhaugen" />
		<tag k="natural" v="hill" />
		<tag k="place" v="locality" />
		<tag k="ssr:stedsnr" v="946792" />
	</node>
	<node lat="62.87854444859436" lon="10.070833333254976" id="-34415">
		<tag k="name" v="Stordalen" />
		<tag k="natural" v="valley" />
		<tag k="place" v="locality" />
		<tag k="ssr:stedsnr" v="946797" />
	</node>
	<node lat="62.92853055432455" lon="9.802491673902805" id="-34421">
		<tag k="name" v="Øver Kongensbakken" />
		<tag k="natural" v="slope" />
		<tag k="place" v="locality" />
		<tag k="ssr:stedsnr" v="946829" />
	</node>
	<node lat="62.77536388510249" lon="9.685911120657071" id="-34423">
		<tag k="name" v="Engelsdalen" />
		<tag k="natural" v="valley" />
		<tag k="place" v="locality" />
		<tag k="ssr:stedsnr" v="946833" />
	</node>
	<node lat="62.77338888602527" lon="9.967683336432684" id="-34427">
		<tag k="name" v="Hundbakken" />
		<tag k="natural" v="slope" />
		<tag k="place" v="locality" />
		<tag k="ssr:stedsnr" v="946879" />
	</node>
	<node lat="62.60524444278936" lon="10.063805561312913" id="-34429">
		<tag k="name" v="Kalddalen" />
		<tag k="natural" v="valley" />
		<tag k="place" v="locality" />
		<tag k="ssr:stedsnr" v="946937" />
	</node>
	<node lat="62.650127782198496" lon="10.034825000195417" id="-34432">
		<tag k="name" v="Stortjønnhaugen" />
		<tag k="natural" v="hill" />
		<tag k="place" v="locality" />
		<tag k="ssr:stedsnr" v="946987" />
	</node>
	<node lat="62.76371111074505" lon="9.71345556295766" id="-34435">
		<tag k="name" v="Skansen" />
		<tag k="natural" v="hill" />
		<tag k="place" v="locality" />
		<tag k="ssr:stedsnr" v="947628" />
	</node>
	<node lat="62.959669445232066" lon="9.831041658552873" id="-34437">
		<tag k="name" v="Storhøluslættet" />
		<tag k="place" v="locality" />
		<tag k="ssr:stedsnr" v="947986" />
	</node>
	<node lat="62.87142499765936" lon="10.094363880209404" id="-34440">
		<tag k="name" v="Litl-Håmmårslættet" />
		<tag k="natural" v="slope" />
		<tag k="place" v="locality" />
		<tag k="ssr:stedsnr" v="965988" />
	</node>
	<node lat="62.673927914998956" lon="10.004963087075472" id="-34463">
		<tag k="name" v="Stabburshaugen" />
		<tag k="natural" v="hill" />
		<tag k="place" v="locality" />
		<tag k="ssr:stedsnr" v="11265" />
	</node>
	<node lat="62.88992777817738" lon="9.649436102608902" id="-34473">
		<tag k="name" v="Telin" />
		<tag k="natural" v="hill" />
		<tag k="place" v="locality" />
		<tag k="ssr:stedsnr" v="12199" />
	</node>
	<node lat="62.798583332004405" lon="9.80231111345331" id="-34476">
		<tag k="fixme" v="multiple name tags, choose one and add the other to alt_name; consider natural=peak for the most distinct mountains in the district" />
		<tag k="name" v="Midtfjellet;Svarthåmmåren" />
		<tag k="natural" v="hill" />
		<tag k="place" v="locality" />
		<tag k="ssr:stedsnr" v="12588" />
	</node>
	<node lat="62.78102778043754" lon="9.844552768398461" id="-34477">
		<tag k="fixme" v="consider natural=peak for the most distinct mountains in the district" />
		<tag k="name" v="Ramshøpiken" />
		<tag k="natural" v="hill" />
		<tag k="place" v="locality" />
		<tag k="ssr:stedsnr" v="12600" />
	</node>
	<node lat="62.75873333319787" lon="10.187902779529333" id="-34478">
		<tag k="alt_name" v="Knappen" />
		<tag k="fixme" v="consider natural=peak for the most distinct mountains in the district" />
		<tag k="name" v="Kongsvarden" />
		<tag k="natural" v="hill" />
		<tag k="place" v="locality" />
		<tag k="ssr:stedsnr" v="12614" />
	</node>
	<node lat="62.97282221819837" lon="9.882550003222839" id="-34479">
		<tag k="name" v="Trettslætthåmmåren" />
		<tag k="natural" v="hill" />
		<tag k="place" v="locality" />
		<tag k="ssr:stedsnr" v="12796" />
	</node>
	<node lat="62.839041669792856" lon="10.121161105363738" id="-34489">
		<tag k="fixme" v="consider natural=peak for the most distinct mountains in the district" />
		<tag k="name" v="Sæteråsen" />
		<tag k="natural" v="hill" />
		<tag k="place" v="locality" />
		<tag k="ssr:stedsnr" v="20174" />
	</node>
	<node lat="62.88706666491398" lon="9.862316658252096" id="-34491">
		<tag k="name" v="Vålåbergslia" />
		<tag k="natural" v="slope" />
		<tag k="place" v="locality" />
		<tag k="ssr:stedsnr" v="35584" />
	</node>
	<node lat="62.90719166274604" lon="9.840166669842144" id="-34493">
		<tag k="alt_name" v="Gammelseterhaugen" />
		<tag k="name" v="Gammelsæterhaugen" />
		<tag k="natural" v="hill" />
		<tag k="place" v="locality" />
		<tag k="ssr:stedsnr" v="35596" />
	</node>
	<node lat="62.837088887897345" lon="9.826152777544241" id="-34494">
		<tag k="name" v="Gjetryggen" />
		<tag k="natural" v="ridge" />
		<tag k="place" v="locality" />
		<tag k="ssr:stedsnr" v="35734" />
	</node>
	<node lat="62.829586108123785" lon="9.791394445293356" id="-34495">
		<tag k="name" v="Hårslættberga" />
		<tag k="natural" v="ridge" />
		<tag k="place" v="locality" />
		<tag k="ssr:stedsnr" v="35736" />
	</node>
	<node lat="62.852005555190956" lon="9.878933330090932" id="-34502">
		<tag k="name" v="Larshusdalen" />
		<tag k="natural" v="valley" />
		<tag k="place" v="locality" />
		<tag k="ssr:stedsnr" v="36450" />
	</node>
	<node lat="62.93208333536531" lon="9.875686102216083" id="-34504">
		<tag k="name" v="Nordråket" />
		<tag k="natural" v="hill" />
		<tag k="place" v="locality" />
		<tag k="ssr:stedsnr" v="36491" />
	</node>
	<node lat="62.81718888853951" lon="9.892169448132336" id="-34506">
		<tag k="name" v="Krokstidalen" />
		<tag k="natural" v="valley" />
		<tag k="place" v="locality" />
		<tag k="ssr:stedsnr" v="36698" />
	</node>
	<node lat="62.68605000105634" lon="10.132655562461741" id="-34508">
		<tag k="name" v="Garlia" />
		<tag k="natural" v="slope" />
		<tag k="place" v="locality" />
		<tag k="ssr:stedsnr" v="36790" />
	</node>
	<node lat="62.828338888902636" lon="9.916280546290764" id="-34515">
		<tag k="name" v="Flå-Nonshaugen" />
		<tag k="natural" v="hill" />
		<tag k="place" v="locality" />
		<tag k="ssr:stedsnr" v="36537" />
	</node>
	<node lat="62.81027500443146" lon="9.585697227837887" id="-34517">
		<tag k="name" v="Nyhusenget" />
		<tag k="natural" v="ridge" />
		<tag k="place" v="locality" />
		<tag k="ssr:stedsnr" v="36541" />
	</node>
	<node lat="62.805822225608125" lon="9.582005555925951" id="-34518">
		<tag k="name" v="Joenget" />
		<tag k="natural" v="ridge" />
		<tag k="place" v="locality" />
		<tag k="ssr:stedsnr" v="36543" />
	</node>
	<node lat="62.94662499843896" lon="9.788408334662908" id="-34524">
		<tag k="name" v="Brannhaugen" />
		<tag k="natural" v="hill" />
		<tag k="place" v="locality" />
		<tag k="ssr:stedsnr" v="36640" />
	</node>
	<node lat="62.8525444471042" lon="9.846594435790196" id="-34530">
		<tag k="name" v="Brekkhåmmåren" />
		<tag k="natural" v="hill" />
		<tag k="place" v="locality" />
		<tag k="ssr:stedsnr" v="36733" />
	</node>
	<node lat="62.86756666301196" lon="9.7964999907685" id="-34532">
		<tag k="name" v="Furuberget" />
		<tag k="natural" v="hill" />
		<tag k="place" v="locality" />
		<tag k="ssr:stedsnr" v="36743" />
	</node>
	<node lat="62.68797499690769" lon="10.112916659973607" id="-34547">
		<tag k="fixme" v="consider natural=peak for the most distinct mountains in the district" />
		<tag k="name" v="Gardlikjølen" />
		<tag k="natural" v="hill" />
		<tag k="place" v="locality" />
		<tag k="ssr:stedsnr" v="72246" />
	</node>
	<node lat="62.738655552479536" lon="10.14302500638804" id="-34548">
		<tag k="name" v="Andreashøa" />
		<tag k="natural" v="hill" />
		<tag k="place" v="locality" />
		<tag k="ssr:stedsnr" v="72346" />
	</node>
	<node lat="62.73955555153715" lon="10.075638894687303" id="-34549">
		<tag k="fixme" v="consider natural=peak for the most distinct mountains in the district" />
		<tag k="name" v="Gråhøa" />
		<tag k="natural" v="hill" />
		<tag k="place" v="locality" />
		<tag k="ssr:stedsnr" v="72349" />
	</node>
	<node lat="62.90979166252444" lon="9.936513881747663" id="-34556">
		<tag k="name" v="Hestdalen" />
		<tag k="natural" v="valley" />
		<tag k="place" v="locality" />
		<tag k="ssr:stedsnr" v="73978" />
	</node>
	<node lat="62.86923611069014" lon="9.979172214584695" id="-34563">
		<tag k="fixme" v="consider natural=peak for the most distinct mountains in the district" />
		<tag k="name" v="Risknappen" />
		<tag k="natural" v="hill" />
		<tag k="place" v="locality" />
		<tag k="ssr:stedsnr" v="73871" />
	</node>
	<node lat="62.822230552761624" lon="9.579905555274758" id="-34565">
		<tag k="fixme" v="consider natural=peak for the most distinct mountains in the district" />
		<tag k="name" v="Pikfjellet" />
		<tag k="natural" v="hill" />
		<tag k="place" v="locality" />
		<tag k="ssr:stedsnr" v="73817" />
	</node>
	<node lat="62.87963889027275" lon="9.546572220105334" id="-34584">
		<tag k="alt_name" v="Fremmer Jøldalen" />
		<tag k="name" v="Jøldalen" />
		<tag k="natural" v="valley" />
		<tag k="place" v="locality" />
		<tag k="ssr:stedsnr" v="97592" />
	</node>
	<node lat="62.91320000447536" lon="9.765230551204942" id="-34587">
		<tag k="name" v="Kvernhusbakken" />
		<tag k="natural" v="slope" />
		<tag k="place" v="locality" />
		<tag k="ssr:stedsnr" v="97691" />
	</node>
	<node lat="62.932144441108925" lon="9.788613895685563" id="-34589">
		<tag k="name" v="Håkkålia" />
		<tag k="natural" v="slope" />
		<tag k="place" v="locality" />
		<tag k="ssr:stedsnr" v="97700" />
	</node>
	<node lat="62.93399722094506" lon="9.778727777272032" id="-34590">
		<tag k="name" v="Bekkdalen" />
		<tag k="natural" v="valley" />
		<tag k="place" v="locality" />
		<tag k="ssr:stedsnr" v="97704" />
	</node>
	<node lat="62.890680555425824" lon="9.863411106217033" id="-34593">
		<tag k="name" v="Liin" />
		<tag k="natural" v="slope" />
		<tag k="place" v="locality" />
		<tag k="ssr:stedsnr" v="96535" />
	</node>
	<node lat="62.85415277894708" lon="9.867580565243438" id="-34607">
		<tag k="name" v="Kleva" />
		<tag k="natural" v="slope" />
		<tag k="place" v="locality" />
		<tag k="ssr:stedsnr" v="97499" />
	</node>
	<node lat="62.84726389237989" lon="9.592552780503308" id="-34609">
		<tag k="name" v="Hølkrokan" />
		<tag k="place" v="locality" />
		<tag k="ssr:stedsnr" v="97622" />
	</node>
	<node lat="62.7737749963206" lon="9.594955548083178" id="-34618">
		<tag k="name" v="Hårstadbakken" />
		<tag k="natural" v="slope" />
		<tag k="place" v="locality" />
		<tag k="ssr:stedsnr" v="97646" />
	</node>
	<node lat="62.9246611078747" lon="9.806569437738492" id="-34620">
		<tag k="name" v="Brannliberga" />
		<tag k="natural" v="hill" />
		<tag k="place" v="locality" />
		<tag k="ssr:stedsnr" v="97653" />
	</node>
	<node lat="62.75996389269029" lon="9.71154999437055" id="-34621">
		<tag k="name" v="Fosslia" />
		<tag k="natural" v="slope" />
		<tag k="place" v="locality" />
		<tag k="ssr:stedsnr" v="97654" />
	</node>
	<node lat="62.81181667019238" lon="9.883141657094635" id="-34622">
		<tag k="name" v="Stortjønnlia" />
		<tag k="natural" v="slope" />
		<tag k="place" v="locality" />
		<tag k="ssr:stedsnr" v="97730" />
	</node>
	<node lat="62.83396110721194" lon="9.88178610194534" id="-34623">
		<tag k="name" v="Nonhaugflåtten" />
		<tag k="natural" v="hill" />
		<tag k="place" v="locality" />
		<tag k="ssr:stedsnr" v="97739" />
	</node>
	<node lat="62.83125555193251" lon="9.880563881241615" id="-34625">
		<tag k="name" v="Nonhaugen" />
		<tag k="natural" v="hill" />
		<tag k="place" v="locality" />
		<tag k="ssr:stedsnr" v="97754" />
	</node>
	<node lat="62.777666667349514" lon="10.020749995855649" id="-34628">
		<tag k="name" v="Hestlia" />
		<tag k="natural" v="slope" />
		<tag k="place" v="locality" />
		<tag k="ssr:stedsnr" v="97884" />
	</node>
	<node lat="62.771719445929484" lon="10.019600006040763" id="-34629">
		<tag k="name" v="Langvelldalsberga" />
		<tag k="natural" v="ridge" />
		<tag k="place" v="locality" />
		<tag k="ssr:stedsnr" v="97887" />
	</node>
	<node lat="62.89382222173158" lon="9.943922222012029" id="-34630">
		<tag k="name" v="Baklia" />
		<tag k="natural" v="slope" />
		<tag k="place" v="locality" />
		<tag k="ssr:stedsnr" v="97895" />
	</node>
	<node lat="62.801019442642094" lon="9.981833339404607" id="-34631">
		<tag k="name" v="Kvernakloppa" />
		<tag k="natural" v="slope" />
		<tag k="place" v="locality" />
		<tag k="ssr:stedsnr" v="97899" />
	</node>
	<node lat="62.70293889059791" lon="10.143708337904249" id="-34638">
		<tag k="name" v="Novberga" />
		<tag k="natural" v="hill" />
		<tag k="place" v="locality" />
		<tag k="ssr:stedsnr" v="97798" />
	</node>
	<node lat="62.76966111260778" lon="10.096836104586046" id="-34639">
		<tag k="name" v="Milskiftdalen" />
		<tag k="natural" v="valley" />
		<tag k="place" v="locality" />
		<tag k="ssr:stedsnr" v="97803" />
	</node>
	<node lat="62.92371389046088" lon="9.643488886272115" id="-34643">
		<tag k="name" v="Dalan" />
		<tag k="natural" v="valley" />
		<tag k="place" v="locality" />
		<tag k="ssr:stedsnr" v="102101" />
	</node>
	<node lat="62.92253888827698" lon="9.71419444600023" id="-34645">
		<tag k="name" v="Granabogen" />
		<tag k="place" v="locality" />
		<tag k="ssr:stedsnr" v="102111" />
	</node>
	<node lat="62.59532500227366" lon="10.002177787496539" id="-34647">
		<tag k="name" v="Kvolvdalen" />
		<tag k="natural" v="valley" />
		<tag k="place" v="locality" />
		<tag k="ssr:stedsnr" v="133393" />
	</node>
	<node lat="62.81029722040099" lon="9.840072213062317" id="-34654">
		<tag k="fixme" v="consider natural=peak for the most distinct mountains in the district" />
		<tag k="name" v="Sørlipynten" />
		<tag k="natural" v="hill" />
		<tag k="place" v="locality" />
		<tag k="ssr:stedsnr" v="133538" />
	</node>
	<node lat="62.852219442950805" lon="9.750377769575856" id="-34672">
		<tag k="fixme" v="consider natural=peak for the most distinct mountains in the district" />
		<tag k="name" v="Gåslia" />
		<tag k="natural" v="hill" />
		<tag k="place" v="locality" />
		<tag k="ssr:stedsnr" v="134938" />
	</node>
	<node lat="62.86162777774642" lon="9.976405552757441" id="-34674">
		<tag k="alt_name" v="Vålåberget" />
		<tag k="name" v="Vålåberga" />
		<tag k="natural" v="hill" />
		<tag k="place" v="locality" />
		<tag k="ssr:stedsnr" v="134946" />
	</node>
	<node lat="62.88112777944796" lon="9.840358341552149" id="-34680">
		<tag k="name" v="Hårstadkroa" />
		<tag k="place" v="locality" />
		<tag k="ssr:stedsnr" v="157462" />
	</node>
	<node lat="62.91577778023262" lon="9.795313886802084" id="-34682">
		<tag k="name" v="Trongstenan" />
		<tag k="natural" v="slope" />
		<tag k="place" v="locality" />
		<tag k="ssr:stedsnr" v="157640" />
	</node>
	<node lat="62.807172223285306" lon="9.6233055538909" id="-34686">
		<tag k="name" v="Koihaugen" />
		<tag k="natural" v="hill" />
		<tag k="place" v="locality" />
		<tag k="ssr:stedsnr" v="157574" />
	</node>
	<node lat="62.90609444280628" lon="9.8116138878124" id="-34689">
		<tag k="name" v="Gjerdberga" />
		<tag k="natural" v="hill" />
		<tag k="place" v="locality" />
		<tag k="ssr:stedsnr" v="157588" />
	</node>
	<node lat="62.80836111429768" lon="9.962375006824987" id="-34691">
		<tag k="fixme" v="consider natural=peak for the most distinct mountains in the district" />
		<tag k="name" v="Storslættåsen" />
		<tag k="natural" v="hill" />
		<tag k="place" v="locality" />
		<tag k="ssr:stedsnr" v="157539" />
	</node>
	<node lat="62.930913884879125" lon="9.798005554768162" id="-34694">
		<tag k="name" v="Storenkarlia" />
		<tag k="natural" v="slope" />
		<tag k="place" v="locality" />
		<tag k="ssr:stedsnr" v="157673" />
	</node>
	<node lat="62.83086944781673" lon="9.752638886545222" id="-34697">
		<tag k="name" v="Kvenndalsberga" />
		<tag k="natural" v="hill" />
		<tag k="place" v="locality" />
		<tag k="ssr:stedsnr" v="157687" />
	</node>
	<node lat="62.900227779230576" lon="9.789963890578282" id="-34699">
		<tag k="fixme" v="consider natural=peak for the most distinct mountains in the district" />
		<tag k="name" v="Pungtjønnåsen" />
		<tag k="natural" v="hill" />
		<tag k="place" v="locality" />
		<tag k="ssr:stedsnr" v="157748" />
	</node>
	<node lat="62.85771666945321" lon="9.979283336590312" id="-34702">
		<tag k="name" v="Vålåbergknappen" />
		<tag k="natural" v="hill" />
		<tag k="place" v="locality" />
		<tag k="ssr:stedsnr" v="157784" />
	</node>
	<node lat="62.71928611021877" lon="10.120302786010441" id="-34703">
		<tag k="name" v="Måssåbakkløkkja" />
		<tag k="natural" v="slope" />
		<tag k="place" v="locality" />
		<tag k="ssr:stedsnr" v="157795" />
	</node>
	<node lat="62.77071388721361" lon="9.987469451880335" id="-34706">
		<tag k="name" v="Tunnløpet" />
		<tag k="natural" v="slope" />
		<tag k="place" v="locality" />
		<tag k="ssr:stedsnr" v="157885" />
	</node>
	<node lat="62.772180554007505" lon="10.007486115390044" id="-34708">
		<tag k="fixme" v="consider natural=peak for the most distinct mountains in the district" />
		<tag k="name" v="Skjeftmyråsen" />
		<tag k="natural" v="hill" />
		<tag k="place" v="locality" />
		<tag k="ssr:stedsnr" v="157887" />
	</node>
	<node lat="62.81177499588955" lon="10.102180564618164" id="-34712">
		<tag k="name" v="Stavåbakken" />
		<tag k="natural" v="slope" />
		<tag k="place" v="locality" />
		<tag k="ssr:stedsnr" v="157820" />
	</node>
	<node lat="62.706505559702464" lon="10.084847229136857" id="-34717">
		<tag k="name" v="Svenskberga" />
		<tag k="natural" v="hill" />
		<tag k="place" v="locality" />
		<tag k="ssr:stedsnr" v="157834" />
	</node>
	<node lat="62.77115000064304" lon="9.741383330982568" id="-34719">
		<tag k="name" v="Skarven" />
		<tag k="natural" v="hill" />
		<tag k="place" v="locality" />
		<tag k="ssr:stedsnr" v="157844" />
	</node>
	<node lat="62.67909999592464" lon="10.043875003469008" id="-34724">
		<tag k="name" v="Tysksetermoen" />
		<tag k="place" v="locality" />
		<tag k="ssr:stedsnr" v="157979" />
	</node>
	<node lat="62.74404444494769" lon="9.857724999800373" id="-34737">
		<tag k="fixme" v="consider natural=peak for the most distinct mountains in the district" />
		<tag k="name" v="Stenkjerringa" />
		<tag k="natural" v="hill" />
		<tag k="place" v="locality" />
		<tag k="ssr:stedsnr" v="193384" />
	</node>
	<node lat="62.7267027764914" lon="10.317019437700115" id="-34740">
		<tag k="alt_name" v="Gruvehøgda" />
		<tag k="fixme" v="consider natural=peak for the most distinct mountains in the district" />
		<tag k="name" v="Gruvhøgda" />
		<tag k="natural" v="hill" />
		<tag k="place" v="locality" />
		<tag k="ssr:stedsnr" v="193414" />
	</node>
	<node lat="63.055522225641845" lon="9.619072221160945" id="-34742">
		<tag k="name" v="Orkdalen" />
		<tag k="natural" v="valley" />
		<tag k="place" v="locality" />
		<tag k="ssr:stedsnr" v="194263" />
	</node>
	<node lat="62.93271944892904" lon="9.675319450380604" id="-34745">
		<tag k="name" v="Blautmyrhaugan" />
		<tag k="natural" v="hill" />
		<tag k="place" v="locality" />
		<tag k="ssr:stedsnr" v="194213" />
	</node>
	<node lat="62.73365555219707" lon="9.663641659951105" id="-34760">
		<tag k="fixme" v="consider natural=peak for the most distinct mountains in the district" />
		<tag k="name" v="Rundhaugen" />
		<tag k="natural" v="hill" />
		<tag k="place" v="locality" />
		<tag k="ssr:stedsnr" v="194844" />
	</node>
	<node lat="62.875888889941926" lon="9.970811115134628" id="-34764">
		<tag k="name" v="Bjørnberget" />
		<tag k="natural" v="hill" />
		<tag k="place" v="locality" />
		<tag k="ssr:stedsnr" v="194880" />
	</node>
	<node lat="62.88419444846573" lon="9.498869436302318" id="-34766">
		<tag k="name" v="Grønlia" />
		<tag k="natural" v="slope" />
		<tag k="place" v="locality" />
		<tag k="ssr:stedsnr" v="195224" />
	</node>
	<node lat="62.84516388988016" lon="9.885180563232561" id="-34771">
		<tag k="name" v="Holsmoen" />
		<tag k="place" v="locality" />
		<tag k="ssr:stedsnr" v="195919" />
	</node>
	<node lat="62.85504721951307" lon="9.928308330361524" id="-34776">
		<tag k="name" v="Vardberghaugen" />
		<tag k="natural" v="hill" />
		<tag k="place" v="locality" />
		<tag k="ssr:stedsnr" v="195945" />
	</node>
	<node lat="62.71323611547724" lon="10.290416673081474" id="-34780">
		<tag k="name" v="Hansdalen" />
		<tag k="natural" v="valley" />
		<tag k="place" v="locality" />
		<tag k="ssr:stedsnr" v="210495" />
	</node>
	<node lat="62.801702780338" lon="10.048250007357147" id="-34783">
		<tag k="name" v="Gammelstødalen" />
		<tag k="natural" v="valley" />
		<tag k="place" v="locality" />
		<tag k="ssr:stedsnr" v="217761" />
	</node>
	<node lat="62.79155555445885" lon="9.924969451584658" id="-34785">
		<tag k="fixme" v="consider natural=peak for the most distinct mountains in the district" />
		<tag k="name" v="Våttåstuggu" />
		<tag k="natural" v="hill" />
		<tag k="place" v="locality" />
		<tag k="ssr:stedsnr" v="218551" />
	</node>
	<node lat="62.81915833021174" lon="10.047341670796355" id="-34787">
		<tag k="name" v="Berghåggån" />
		<tag k="natural" v="slope" />
		<tag k="place" v="locality" />
		<tag k="ssr:stedsnr" v="218559" />
	</node>
	<node lat="62.928216664414386" lon="9.77424721719236" id="-34791">
		<tag k="name" v="Tverdalsmoen" />
		<tag k="place" v="locality" />
		<tag k="ssr:stedsnr" v="218639" />
	</node>
	<node lat="62.909211111479195" lon="9.805705552020019" id="-34793">
		<tag k="alt_name" v="Litlløkka;Litjløkkja" />
		<tag k="name" v="Litlløkkja" />
		<tag k="place" v="locality" />
		<tag k="ssr:stedsnr" v="218652" />
	</node>
	<node lat="62.85927500415859" lon="9.846866672068858" id="-34800">
		<tag k="name" v="Bergsbruberga" />
		<tag k="natural" v="hill" />
		<tag k="place" v="locality" />
		<tag k="ssr:stedsnr" v="218738" />
	</node>
	<node lat="62.93793889187672" lon="9.789866660649523" id="-34805">
		<tag k="name" v="Høkliberga" />
		<tag k="natural" v="hill" />
		<tag k="place" v="locality" />
		<tag k="ssr:stedsnr" v="218685" />
	</node>
	<node lat="62.729569446011006" lon="10.120349998673378" id="-34809">
		<tag k="name" v="Svartholtet" />
		<tag k="natural" v="slope" />
		<tag k="place" v="locality" />
		<tag k="ssr:stedsnr" v="218805" />
	</node>
	<node lat="62.69793055678344" lon="10.141033338921666" id="-34810">
		<tag k="name" v="Skrøberga" />
		<tag k="natural" v="hill" />
		<tag k="place" v="locality" />
		<tag k="ssr:stedsnr" v="218806" />
	</node>
	<node lat="62.963530557775506" lon="9.760927782080135" id="-34818">
		<tag k="name" v="Hesthåggåbakken" />
		<tag k="natural" v="slope" />
		<tag k="place" v="locality" />
		<tag k="ssr:stedsnr" v="218938" />
	</node>
	<node lat="62.80773889195226" lon="10.015094453082861" id="-34821">
		<tag k="name" v="Ørnhåmmåren" />
		<tag k="natural" v="hill" />
		<tag k="place" v="locality" />
		<tag k="ssr:stedsnr" v="218755" />
	</node>
	<node lat="62.87583611500554" lon="10.067197219353368" id="-34826">
		<tag k="name" v="Plassberga" />
		<tag k="natural" v="hill" />
		<tag k="place" v="locality" />
		<tag k="ssr:stedsnr" v="218844" />
	</node>
	<node lat="62.857922220241015" lon="10.00534166155197" id="-34836">
		<tag k="name" v="Vasliin" />
		<tag k="natural" v="slope" />
		<tag k="place" v="locality" />
		<tag k="ssr:stedsnr" v="278800" />
	</node>
	<node lat="62.83667222134376" lon="9.816802783357417" id="-34837">
		<tag k="name" v="Rognflotten" />
		<tag k="natural" v="slope" />
		<tag k="place" v="locality" />
		<tag k="ssr:stedsnr" v="278728" />
	</node>
	<node lat="62.89334167031285" lon="9.85680555875888" id="-34840">
		<tag k="name" v="Storstenhaugan" />
		<tag k="natural" v="hill" />
		<tag k="place" v="locality" />
		<tag k="ssr:stedsnr" v="279529" />
	</node>
	<node lat="62.944947218124945" lon="9.866488887640124" id="-34841">
		<tag k="fixme" v="consider natural=peak for the most distinct mountains in the district" />
		<tag k="name" v="Storvassåsen" />
		<tag k="natural" v="hill" />
		<tag k="place" v="locality" />
		<tag k="ssr:stedsnr" v="279540" />
	</node>
	<node lat="62.75588610806079" lon="9.933622227567973" id="-34842">
		<tag k="name" v="Tortlikjølen" />
		<tag k="natural" v="ridge" />
		<tag k="place" v="locality" />
		<tag k="ssr:stedsnr" v="279558" />
	</node>
	<node lat="62.75080555706885" lon="9.928358335261997" id="-34843">
		<tag k="name" v="Heverkløftet" />
		<tag k="natural" v="slope" />
		<tag k="place" v="locality" />
		<tag k="ssr:stedsnr" v="279559" />
	</node>
	<node lat="62.751480552470184" lon="9.905266659626657" id="-34844">
		<tag k="name" v="Heverfallet" />
		<tag k="natural" v="slope" />
		<tag k="place" v="locality" />
		<tag k="ssr:stedsnr" v="279563" />
	</node>
	<node lat="62.788113891195714" lon="9.951180556628454" id="-34853">
		<tag k="name" v="Gjeldalsberga" />
		<tag k="natural" v="hill" />
		<tag k="place" v="locality" />
		<tag k="ssr:stedsnr" v="279592" />
	</node>
	<node lat="62.80044722486684" lon="9.630652786565998" id="-34854">
		<tag k="name" v="Varghaugen" />
		<tag k="natural" v="hill" />
		<tag k="place" v="locality" />
		<tag k="ssr:stedsnr" v="279626" />
	</node>
	<node lat="62.789341663254824" lon="9.591558336089024" id="-34859">
		<tag k="name" v="Herremskjølen" />
		<tag k="natural" v="ridge" />
		<tag k="place" v="locality" />
		<tag k="ssr:stedsnr" v="279647" />
	</node>
	<node lat="62.77099444884733" lon="9.638575005273418" id="-34860">
		<tag k="name" v="Viskogkvelva" />
		<tag k="natural" v="ridge" />
		<tag k="place" v="locality" />
		<tag k="ssr:stedsnr" v="279656" />
	</node>
	<node lat="62.87004167061007" lon="9.80730832524791" id="-34866">
		<tag k="name" v="Tippillbakken" />
		<tag k="natural" v="slope" />
		<tag k="place" v="locality" />
		<tag k="ssr:stedsnr" v="279751" />
	</node>
	<node lat="62.7842805539421" lon="9.584688887550946" id="-34868">
		<tag k="name" v="Langglenna" />
		<tag k="natural" v="slope" />
		<tag k="place" v="locality" />
		<tag k="ssr:stedsnr" v="279841" />
	</node>
	<node lat="62.61094166355735" lon="10.028366663141126" id="-34870">
		<tag k="name" v="Klevenga" />
		<tag k="natural" v="slope" />
		<tag k="place" v="locality" />
		<tag k="ssr:stedsnr" v="279949" />
	</node>
	<node lat="62.93069444084772" lon="9.68916944448919" id="-34872">
		<tag k="name" v="Attvendtbakken" />
		<tag k="natural" v="slope" />
		<tag k="place" v="locality" />
		<tag k="ssr:stedsnr" v="279953" />
	</node>
	<node lat="62.96941944460592" lon="9.759936117598276" id="-34873">
		<tag k="name" v="Våttahaugen" />
		<tag k="natural" v="hill" />
		<tag k="place" v="locality" />
		<tag k="ssr:stedsnr" v="279955" />
	</node>
	<node lat="62.96775000347635" lon="9.835055549962508" id="-34876">
		<tag k="name" v="Litlstorhaugen" />
		<tag k="natural" v="hill" />
		<tag k="place" v="locality" />
		<tag k="ssr:stedsnr" v="279976" />
	</node>
	<node lat="62.919108333032625" lon="9.670380552355294" id="-34879">
		<tag k="name" v="Søstugguvorda" />
		<tag k="natural" v="slope" />
		<tag k="place" v="locality" />
		<tag k="ssr:stedsnr" v="298845" />
	</node>
	<node lat="62.7282999995529" lon="10.202152782680683" id="-34882">
		<tag k="name" v="Grønlia" />
		<tag k="natural" v="slope" />
		<tag k="place" v="locality" />
		<tag k="ssr:stedsnr" v="315289" />
	</node>
	<node lat="62.73784166755366" lon="9.824724999430105" id="-34887">
		<tag k="name" v="Falkhøa" />
		<tag k="natural" v="hill" />
		<tag k="place" v="locality" />
		<tag k="ssr:stedsnr" v="315341" />
	</node>
	<node lat="62.8300555519144" lon="9.515383332618931" id="-34889">
		<tag k="fixme" v="consider natural=peak for the most distinct mountains in the district" />
		<tag k="name" v="Gråfjellet" />
		<tag k="natural" v="hill" />
		<tag k="place" v="locality" />
		<tag k="ssr:stedsnr" v="315840" />
	</node>
	<node lat="62.928836108822416" lon="9.92768888312957" id="-34892">
		<tag k="name" v="Fagerlibygda" />
		<tag k="natural" v="valley" />
		<tag k="place" v="locality" />
		<tag k="ssr:stedsnr" v="315940" />
	</node>
	<node lat="62.87769166252892" lon="9.48719999560343" id="-34895">
		<tag k="fixme" v="consider natural=peak for the most distinct mountains in the district" />
		<tag k="name" v="Litlfjellet" />
		<tag k="natural" v="hill" />
		<tag k="place" v="locality" />
		<tag k="ssr:stedsnr" v="316221" />
	</node>
	<node lat="62.87875833568586" lon="9.510438892726656" id="-34896">
		<tag k="name" v="Tullhaugan" />
		<tag k="natural" v="hill" />
		<tag k="place" v="locality" />
		<tag k="ssr:stedsnr" v="316222" />
	</node>
	<node lat="62.83766667064449" lon="9.994119451698786" id="-34906">
		<tag k="name" v="Mjukliin" />
		<tag k="natural" v="slope" />
		<tag k="place" v="locality" />
		<tag k="ssr:stedsnr" v="339214" />
	</node>
	<node lat="62.886336113962784" lon="9.870555548946417" id="-34909">
		<tag k="name" v="Kinna" />
		<tag k="natural" v="slope" />
		<tag k="place" v="locality" />
		<tag k="ssr:stedsnr" v="339489" />
	</node>
	<node lat="62.88414721919662" lon="9.873588892788892" id="-34910">
		<tag k="name" v="Kjerringspranget" />
		<tag k="natural" v="hill" />
		<tag k="place" v="locality" />
		<tag k="ssr:stedsnr" v="339490" />
	</node>
	<node lat="62.89270277745989" lon="9.802769446862658" id="-34915">
		<tag k="name" v="Slåhaugen" />
		<tag k="natural" v="hill" />
		<tag k="place" v="locality" />
		<tag k="ssr:stedsnr" v="339600" />
	</node>
	<node lat="62.75445555498547" lon="9.942488891565969" id="-34916">
		<tag k="name" v="Tortlia" />
		<tag k="natural" v="slope" />
		<tag k="place" v="locality" />
		<tag k="ssr:stedsnr" v="339556" />
	</node>
	<node lat="62.83871944804434" lon="9.612783331160642" id="-34919">
		<tag k="name" v="Kvennolberget" />
		<tag k="natural" v="ridge" />
		<tag k="place" v="locality" />
		<tag k="ssr:stedsnr" v="339573" />
	</node>
	<node lat="62.82932499913607" lon="9.600266672465995" id="-34922">
		<tag k="name" v="Klevan" />
		<tag k="natural" v="ridge" />
		<tag k="place" v="locality" />
		<tag k="ssr:stedsnr" v="339580" />
	</node>
	<node lat="62.830174995795694" lon="9.605552785719984" id="-34924">
		<tag k="name" v="Lang Jørgen" />
		<tag k="natural" v="ridge" />
		<tag k="place" v="locality" />
		<tag k="ssr:stedsnr" v="339583" />
	</node>
	<node lat="62.68448055353694" lon="10.070830554843237" id="-34936">
		<tag k="name" v="Trolldalen" />
		<tag k="natural" v="valley" />
		<tag k="place" v="locality" />
		<tag k="ssr:stedsnr" v="339991" />
	</node>
	<node lat="62.92454999740991" lon="9.801711114314594" id="-34937">
		<tag k="name" v="Tverrberget" />
		<tag k="natural" v="hill" />
		<tag k="place" v="locality" />
		<tag k="ssr:stedsnr" v="339614" />
	</node>
	<node lat="62.74931111253271" lon="9.674613885870341" id="-34939">
		<tag k="fixme" v="consider natural=peak for the most distinct mountains in the district" />
		<tag k="name" v="Litlråberga" />
		<tag k="natural" v="hill" />
		<tag k="place" v="locality" />
		<tag k="ssr:stedsnr" v="339620" />
	</node>
	<node lat="62.92033889285739" lon="9.793338891679104" id="-34940">
		<tag k="name" v="Gjerdet" />
		<tag k="natural" v="slope" />
		<tag k="place" v="locality" />
		<tag k="ssr:stedsnr" v="339622" />
	</node>
	<node lat="62.819930559510546" lon="9.665436116078004" id="-34941">
		<tag k="name" v="Hårdraget" />
		<tag k="natural" v="slope" />
		<tag k="place" v="locality" />
		<tag k="ssr:stedsnr" v="339624" />
	</node>
	<node lat="62.86421944332186" lon="9.85300554857933" id="-34944">
		<tag k="name" v="Bondslætta" />
		<tag k="natural" v="slope" />
		<tag k="place" v="locality" />
		<tag k="ssr:stedsnr" v="339735" />
	</node>
	<node lat="62.85225277460588" lon="9.845994451728039" id="-34945">
		<tag k="name" v="Kattkluggu" />
		<tag k="natural" v="hill" />
		<tag k="place" v="locality" />
		<tag k="ssr:stedsnr" v="339741" />
	</node>
	<node lat="62.843922224903075" lon="9.994458338031125" id="-34947">
		<tag k="name" v="Litl-Mjuken" />
		<tag k="natural" v="slope" />
		<tag k="place" v="locality" />
		<tag k="ssr:stedsnr" v="339777" />
	</node>
	<node lat="62.83524167007781" lon="10.128680549502258" id="-34949">
		<tag k="name" v="Berghaugen" />
		<tag k="natural" v="hill" />
		<tag k="place" v="locality" />
		<tag k="ssr:stedsnr" v="339782" />
	</node>
	<node lat="62.77451388624362" lon="9.971452785532122" id="-34952">
		<tag k="name" v="Kastbakken" />
		<tag k="natural" v="slope" />
		<tag k="place" v="locality" />
		<tag k="ssr:stedsnr" v="339862" />
	</node>
	<node lat="62.831124998019334" lon="9.728947225696741" id="-34958">
		<tag k="name" v="Brennelenget" />
		<tag k="natural" v="slope" />
		<tag k="place" v="locality" />
		<tag k="ssr:stedsnr" v="339670" />
	</node>
	<node lat="62.93416944284797" lon="9.673594438800105" id="-34964">
		<tag k="name" v="Seåshaugen" />
		<tag k="natural" v="hill" />
		<tag k="place" v="locality" />
		<tag k="ssr:stedsnr" v="339938" />
	</node>
	<node lat="62.96202499643183" lon="9.775719438105707" id="-34965">
		<tag k="name" v="Slingerhølubakkane" />
		<tag k="natural" v="slope" />
		<tag k="place" v="locality" />
		<tag k="ssr:stedsnr" v="339940" />
	</node>
	<node lat="62.91290833154309" lon="9.677838897915777" id="-34969">
		<tag k="name" v="Seåsvorda" />
		<tag k="natural" v="slope" />
		<tag k="place" v="locality" />
		<tag k="ssr:stedsnr" v="358861" />
	</node>
	<node lat="62.79060555202441" lon="9.926005545728216" id="-34981">
		<tag k="fixme" v="consider natural=peak for the most distinct mountains in the district" />
		<tag k="name" v="Våttåfjellet" />
		<tag k="natural" v="hill" />
		<tag k="place" v="locality" />
		<tag k="ssr:stedsnr" v="376599" />
	</node>
	<node lat="62.76847778176386" lon="9.658513884386151" id="-34983">
		<tag k="fixme" v="consider natural=peak for the most distinct mountains in the district" />
		<tag k="name" v="Leverkinna" />
		<tag k="natural" v="hill" />
		<tag k="place" v="locality" />
		<tag k="ssr:stedsnr" v="376798" />
	</node>
	<node lat="62.791924999921406" lon="9.680680552046859" id="-34990">
		<tag k="name" v="Leverdalen" />
		<tag k="natural" v="valley" />
		<tag k="place" v="locality" />
		<tag k="ssr:stedsnr" v="376849" />
	</node>
	<node lat="62.94178055773634" lon="9.7915361144021" id="-35006">
		<tag k="fixme" v="consider natural=peak for the most distinct mountains in the district" />
		<tag k="name" v="Kasthåmmåren" />
		<tag k="natural" v="hill" />
		<tag k="place" v="locality" />
		<tag k="ssr:stedsnr" v="400681" />
	</node>
	<node lat="62.94649722360215" lon="9.810280553116353" id="-35007">
		<tag k="name" v="Jorfjellia" />
		<tag k="natural" v="slope" />
		<tag k="place" v="locality" />
		<tag k="ssr:stedsnr" v="400685" />
	</node>
	<node lat="62.900463888284996" lon="9.871366671793425" id="-35010">
		<tag k="name" v="Fuggelmyrliin" />
		<tag k="natural" v="slope" />
		<tag k="place" v="locality" />
		<tag k="ssr:stedsnr" v="399544" />
	</node>
	<node lat="62.873230556003854" lon="9.85774999892398" id="-35011">
		<tag k="name" v="Osphaugen" />
		<tag k="natural" v="hill" />
		<tag k="place" v="locality" />
		<tag k="ssr:stedsnr" v="399558" />
	</node>
	<node lat="62.73280277617366" lon="10.11287222863169" id="-35014">
		<tag k="name" v="Kjølberga" />
		<tag k="natural" v="hill" />
		<tag k="place" v="locality" />
		<tag k="ssr:stedsnr" v="400578" />
	</node>
	<node lat="62.803305554771306" lon="9.959544444803308" id="-35015">
		<tag k="name" v="Brennslættdalen" />
		<tag k="natural" v="valley" />
		<tag k="place" v="locality" />
		<tag k="ssr:stedsnr" v="400581" />
	</node>
	<node lat="62.80916389341498" lon="10.092058331980507" id="-35016">
		<tag k="fixme" v="consider natural=peak for the most distinct mountains in the district" />
		<tag k="name" v="Brennan" />
		<tag k="natural" v="hill" />
		<tag k="place" v="locality" />
		<tag k="ssr:stedsnr" v="400582" />
	</node>
	<node lat="62.74983611287084" lon="9.955916671320333" id="-35017">
		<tag k="name" v="Brennstokkbakken" />
		<tag k="natural" v="slope" />
		<tag k="place" v="locality" />
		<tag k="ssr:stedsnr" v="400588" />
	</node>
	<node lat="62.80280000296902" lon="9.980808338402209" id="-35018">
		<tag k="fixme" v="consider natural=peak for the most distinct mountains in the district" />
		<tag k="name" v="Kamban" />
		<tag k="natural" v="hill" />
		<tag k="place" v="locality" />
		<tag k="ssr:stedsnr" v="400589" />
	</node>
	<node lat="62.882672224645404" lon="9.562458327146897" id="-35019">
		<tag k="name" v="Sladderhaugen" />
		<tag k="natural" v="hill" />
		<tag k="place" v="locality" />
		<tag k="ssr:stedsnr" v="400592" />
	</node>
	<node lat="62.77310277572968" lon="9.578313885002439" id="-35020">
		<tag k="name" v="Kråkreiret" />
		<tag k="natural" v="slope" />
		<tag k="place" v="locality" />
		<tag k="ssr:stedsnr" v="400597" />
	</node>
	<node lat="62.732361114759314" lon="9.929225004417823" id="-35025">
		<tag k="name" v="Vågåskjelet" />
		<tag k="natural" v="slope" />
		<tag k="place" v="locality" />
		<tag k="ssr:stedsnr" v="400562" />
	</node>
	<node lat="62.77053055846175" lon="9.627136102857518" id="-35027">
		<tag k="name" v="Rundhaugen" />
		<tag k="natural" v="hill" />
		<tag k="place" v="locality" />
		<tag k="ssr:stedsnr" v="400638" />
	</node>
	<node lat="62.76547500211429" lon="9.622058340059567" id="-35028">
		<tag k="name" v="Pikhaugen" />
		<tag k="natural" v="hill" />
		<tag k="place" v="locality" />
		<tag k="ssr:stedsnr" v="400647" />
	</node>
	<node lat="62.812738885977794" lon="9.70846389584676" id="-35029">
		<tag k="name" v="Gullbringan" />
		<tag k="natural" v="slope" />
		<tag k="place" v="locality" />
		<tag k="ssr:stedsnr" v="400660" />
	</node>
	<node lat="62.91666944294711" lon="9.823861120901865" id="-35030">
		<tag k="name" v="Gravora" />
		<tag k="natural" v="ridge" />
		<tag k="place" v="locality" />
		<tag k="ssr:stedsnr" v="400663" />
	</node>
	<node lat="62.83066388552735" lon="9.89310277824728" id="-35036">
		<tag k="name" v="Trollbakkan" />
		<tag k="natural" v="slope" />
		<tag k="place" v="locality" />
		<tag k="ssr:stedsnr" v="400738" />
	</node>
	<node lat="62.79112222612119" lon="10.129655556215939" id="-35041">
		<tag k="name" v="Kverndalan" />
		<tag k="natural" v="valley" />
		<tag k="place" v="locality" />
		<tag k="ssr:stedsnr" v="400818" />
	</node>
	<node lat="62.774013890464985" lon="10.004641665945073" id="-35042">
		<tag k="name" v="Skavlia" />
		<tag k="natural" v="slope" />
		<tag k="place" v="locality" />
		<tag k="ssr:stedsnr" v="400901" />
	</node>
	<node lat="62.905972224576914" lon="9.62388332726167" id="-35043">
		<tag k="name" v="Fremmer Vaulbakkan" />
		<tag k="natural" v="slope" />
		<tag k="place" v="locality" />
		<tag k="ssr:stedsnr" v="400982" />
	</node>
	<node lat="62.64515555232057" lon="10.045236111855425" id="-35045">
		<tag k="name" v="Vollaberga" />
		<tag k="natural" v="ridge" />
		<tag k="place" v="locality" />
		<tag k="ssr:stedsnr" v="400991" />
	</node>
	<node lat="62.88748889329672" lon="10.061408337412624" id="-35053">
		<tag k="fixme" v="consider natural=peak for the most distinct mountains in the district" />
		<tag k="name" v="Brannegga" />
		<tag k="natural" v="hill" />
		<tag k="place" v="locality" />
		<tag k="ssr:stedsnr" v="400842" />
	</node>
	<node lat="62.86374722620759" lon="10.105797225751795" id="-35055">
		<tag k="name" v="Lerdalen" />
		<tag k="natural" v="valley" />
		<tag k="place" v="locality" />
		<tag k="ssr:stedsnr" v="400847" />
	</node>
	<node lat="62.78757777966466" lon="9.574127783496529" id="-35056">
		<tag k="name" v="Tverrbakken" />
		<tag k="natural" v="slope" />
		<tag k="place" v="locality" />
		<tag k="ssr:stedsnr" v="400852" />
	</node>
	<node lat="62.95872777719754" lon="9.77196111727165" id="-35065">
		<tag k="name" v="Furuhaugan" />
		<tag k="natural" v="hill" />
		<tag k="place" v="locality" />
		<tag k="ssr:stedsnr" v="400959" />
	</node>
	<node lat="62.626505553517354" lon="9.98912776801494" id="-35066">
		<tag k="fixme" v="consider natural=peak for the most distinct mountains in the district" />
		<tag k="name" v="Synnersetermorka" />
		<tag k="natural" v="hill" />
		<tag k="place" v="locality" />
		<tag k="ssr:stedsnr" v="400962" />
	</node>
	<node lat="62.85530000282899" lon="9.864580553485252" id="-35069">
		<tag k="name" v="Steinliin" />
		<tag k="natural" v="slope" />
		<tag k="place" v="locality" />
		<tag k="ssr:stedsnr" v="400751" />
	</node>
	<node lat="62.82130000319971" lon="9.972516675452342" id="-35073">
		<tag k="name" v="Gjelbakken" />
		<tag k="natural" v="slope" />
		<tag k="place" v="locality" />
		<tag k="ssr:stedsnr" v="400771" />
	</node>
	<node lat="62.62223888893995" lon="10.021733341008307" id="-35074">
		<tag k="name" v="Bustadberga" />
		<tag k="natural" v="hill" />
		<tag k="place" v="locality" />
		<tag k="ssr:stedsnr" v="400971" />
	</node>
	<node lat="62.92824444266246" lon="9.680338895030893" id="-35077">
		<tag k="name" v="Grøvjan" />
		<tag k="natural" v="valley" />
		<tag k="place" v="locality" />
		<tag k="ssr:stedsnr" v="419862" />
	</node>
	<node lat="62.7360444416865" lon="10.173550008013008" id="-35083">
		<tag k="name" v="Stallia" />
		<tag k="natural" v="slope" />
		<tag k="place" v="locality" />
		<tag k="ssr:stedsnr" v="436350" />
	</node>
	<node lat="62.75885555236395" lon="9.935427773658128" id="-35085">
		<tag k="fixme" v="consider natural=peak for the most distinct mountains in the district" />
		<tag k="name" v="Tortliåsen" />
		<tag k="natural" v="hill" />
		<tag k="place" v="locality" />
		<tag k="ssr:stedsnr" v="437611" />
	</node>
	<node lat="62.75947222659913" lon="9.645430561419284" id="-35092">
		<tag k="fixme" v="consider natural=peak for the most distinct mountains in the district" />
		<tag k="name" v="Storhøa" />
		<tag k="natural" v="hill" />
		<tag k="place" v="locality" />
		<tag k="ssr:stedsnr" v="437845" />
	</node>
	<node lat="62.86030555351451" lon="9.851700009386267" id="-35093">
		<tag k="alt_name" v="Bergsbruå" />
		<tag k="fixme" v="consider natural=peak for the most distinct mountains in the district" />
		<tag k="name" v="Bergsbrua" />
		<tag k="natural" v="hill" />
		<tag k="place" v="locality" />
		<tag k="ssr:stedsnr" v="437922" />
	</node>
	<node lat="62.922952780811734" lon="9.852969444498033" id="-35094">
		<tag k="fixme" v="consider natural=peak for the most distinct mountains in the district" />
		<tag k="name" v="Litlfjellet" />
		<tag k="natural" v="hill" />
		<tag k="place" v="locality" />
		<tag k="ssr:stedsnr" v="437932" />
	</node>
	<node lat="62.697813889493716" lon="10.017977779326145" id="-35103">
		<tag k="name" v="Lyhaugen" />
		<tag k="natural" v="hill" />
		<tag k="place" v="locality" />
		<tag k="ssr:stedsnr" v="497291" />
	</node>
	<node lat="62.82843055904415" lon="9.460947224712093" id="-35104">
		<tag k="fixme" v="consider natural=peak for the most distinct mountains in the district" />
		<tag k="name" v="Litlsvarthøtta" />
		<tag k="natural" v="hill" />
		<tag k="place" v="locality" />
		<tag k="ssr:stedsnr" v="497819" />
	</node>
	<node lat="62.784438886532534" lon="10.172455552477008" id="-35113">
		<tag k="name" v="Tosetlihøgda" />
		<tag k="natural" v="hill" />
		<tag k="place" v="locality" />
		<tag k="ssr:stedsnr" v="497566" />
	</node>
	<node lat="62.852519446892046" lon="9.515558338424459" id="-35117">
		<tag k="fixme" v="consider natural=peak for the most distinct mountains in the district" />
		<tag k="name" v="Ondusfjellet" />
		<tag k="natural" v="hill" />
		<tag k="place" v="locality" />
		<tag k="ssr:stedsnr" v="498262" />
	</node>
	<node lat="62.75890000286748" lon="10.035319439609628" id="-35119">
		<tag k="alt_name" v="Vordhaugen" />
		<tag k="name" v="Vorhaugen" />
		<tag k="natural" v="hill" />
		<tag k="place" v="locality" />
		<tag k="ssr:stedsnr" v="498642" />
	</node>
	<node lat="62.892313892588774" lon="9.877102787302874" id="-35123">
		<tag k="fixme" v="consider natural=peak for the most distinct mountains in the district" />
		<tag k="name" v="Øvre Knappen" />
		<tag k="natural" v="hill" />
		<tag k="place" v="locality" />
		<tag k="ssr:stedsnr" v="498982" />
	</node>
	<node lat="62.89058889153364" lon="9.779347217822568" id="-35124">
		<tag k="fixme" v="consider natural=peak for the most distinct mountains in the district" />
		<tag k="name" v="Storlia" />
		<tag k="natural" v="hill" />
		<tag k="place" v="locality" />
		<tag k="ssr:stedsnr" v="498984" />
	</node>
	<node lat="62.899302779384726" lon="10.060316673544277" id="-35128">
		<tag k="fixme" v="consider natural=peak for the most distinct mountains in the district" />
		<tag k="name" v="Hallandsåsen" />
		<tag k="natural" v="hill" />
		<tag k="place" v="locality" />
		<tag k="ssr:stedsnr" v="505195" />
	</node>
	<node lat="62.8817444472951" lon="9.838472221014856" id="-35133">
		<tag k="fixme" v="consider natural=peak for the most distinct mountains in the district" />
		<tag k="name" v="Hårstadåsen" />
		<tag k="natural" v="hill" />
		<tag k="place" v="locality" />
		<tag k="ssr:stedsnr" v="521486" />
	</node>
	<node lat="62.83332500102823" lon="9.945894437449981" id="-35135">
		<tag k="name" v="Berget" />
		<tag k="natural" v="hill" />
		<tag k="place" v="locality" />
		<tag k="ssr:stedsnr" v="521588" />
	</node>
	<node lat="62.86554444594185" lon="9.949386113331817" id="-35136">
		<tag k="name" v="Kvitkudalen" />
		<tag k="natural" v="valley" />
		<tag k="place" v="locality" />
		<tag k="ssr:stedsnr" v="521594" />
	</node>
	<node lat="62.9295749982837" lon="9.758886115564952" id="-35138">
		<tag k="name" v="Ner Råket" />
		<tag k="natural" v="slope" />
		<tag k="place" v="locality" />
		<tag k="ssr:stedsnr" v="521683" />
	</node>
	<node lat="62.92021389309072" lon="9.879177782870324" id="-35142">
		<tag k="name" v="Rebergsråket" />
		<tag k="natural" v="valley" />
		<tag k="place" v="locality" />
		<tag k="ssr:stedsnr" v="521542" />
	</node>
	<node lat="62.9295944480616" lon="9.873808339796664" id="-35143">
		<tag k="name" v="Midtråket" />
		<tag k="natural" v="hill" />
		<tag k="place" v="locality" />
		<tag k="ssr:stedsnr" v="521544" />
	</node>
	<node lat="62.92056666813972" lon="9.84285277740636" id="-35144">
		<tag k="name" v="Hardholtet" />
		<tag k="natural" v="hill" />
		<tag k="place" v="locality" />
		<tag k="ssr:stedsnr" v="521546" />
	</node>
	<node lat="62.829152774475766" lon="9.605824994334649" id="-35150">
		<tag k="name" v="Grønholtet" />
		<tag k="natural" v="ridge" />
		<tag k="place" v="locality" />
		<tag k="ssr:stedsnr" v="521618" />
	</node>
	<node lat="62.89120277443154" lon="9.801005564530728" id="-35152">
		<tag k="name" v="Stendalen" />
		<tag k="natural" v="valley" />
		<tag k="place" v="locality" />
		<tag k="ssr:stedsnr" v="521632" />
	</node>
	<node lat="62.756061114063684" lon="9.675980549796709" id="-35153">
		<tag k="fixme" v="consider natural=peak for the most distinct mountains in the district" />
		<tag k="name" v="Lushatten" />
		<tag k="natural" v="hill" />
		<tag k="place" v="locality" />
		<tag k="ssr:stedsnr" v="521639" />
	</node>
	<node lat="62.926263893016674" lon="9.796477783088633" id="-35154">
		<tag k="name" v="Storberget" />
		<tag k="natural" v="hill" />
		<tag k="place" v="locality" />
		<tag k="ssr:stedsnr" v="521644" />
	</node>
	<node lat="62.76756388884529" lon="9.707763893267781" id="-35157">
		<tag k="name" v="Moen" />
		<tag k="place" v="locality" />
		<tag k="ssr:stedsnr" v="521653" />
	</node>
	<node lat="62.87493055398693" lon="9.781313886347712" id="-35164">
		<tag k="name" v="Stongdalen" />
		<tag k="natural" v="valley" />
		<tag k="place" v="locality" />
		<tag k="ssr:stedsnr" v="521757" />
	</node>
	<node lat="62.8080527797225" lon="10.086005548157685" id="-35169">
		<tag k="fixme" v="consider natural=peak for the most distinct mountains in the district" />
		<tag k="name" v="Brennan" />
		<tag k="natural" v="hill" />
		<tag k="place" v="locality" />
		<tag k="ssr:stedsnr" v="521781" />
	</node>
	<node lat="62.807283337326034" lon="10.083100000064054" id="-35170">
		<tag k="name" v="Vangen" />
		<tag k="place" v="locality" />
		<tag k="ssr:stedsnr" v="521782" />
	</node>
	<node lat="62.79060833572837" lon="10.087733330906012" id="-35172">
		<tag k="name" v="Skjervløkkja" />
		<tag k="natural" v="slope" />
		<tag k="place" v="locality" />
		<tag k="ssr:stedsnr" v="521787" />
	</node>
	<node lat="62.83007500146066" lon="9.997430556714509" id="-35173">
		<tag k="name" v="Røsbakkan" />
		<tag k="natural" v="slope" />
		<tag k="place" v="locality" />
		<tag k="ssr:stedsnr" v="521788" />
	</node>
	<node lat="62.71168333500377" lon="10.10498055436657" id="-35175">
		<tag k="name" v="Damtjønnkjølen" />
		<tag k="natural" v="ridge" />
		<tag k="place" v="locality" />
		<tag k="ssr:stedsnr" v="521798" />
	</node>
	<node lat="62.854724996512054" lon="10.097313881718934" id="-35176">
		<tag k="name" v="Djupdalen" />
		<tag k="natural" v="valley" />
		<tag k="place" v="locality" />
		<tag k="ssr:stedsnr" v="521805" />
	</node>
	<node lat="62.83595555620873" lon="9.77233332802884" id="-35180">
		<tag k="name" v="Kreklingbakken" />
		<tag k="natural" v="slope" />
		<tag k="place" v="locality" />
		<tag k="ssr:stedsnr" v="521698" />
	</node>
	<node lat="62.90326111368992" lon="9.974005565307268" id="-35183">
		<tag k="fixme" v="consider natural=peak for the most distinct mountains in the district" />
		<tag k="name" v="Brunåsen" />
		<tag k="natural" v="hill" />
		<tag k="place" v="locality" />
		<tag k="ssr:stedsnr" v="521833" />
	</node>
	<node lat="62.65660277575443" lon="10.010874991812239" id="-35188">
		<tag k="name" v="Stendalen" />
		<tag k="natural" v="valley" />
		<tag k="place" v="locality" />
		<tag k="ssr:stedsnr" v="521958" />
	</node>
	<node lat="62.96086944417654" lon="9.733436113798835" id="-35191">
		<tag k="name" v="Storlia" />
		<tag k="natural" v="slope" />
		<tag k="place" v="locality" />
		<tag k="ssr:stedsnr" v="522993" />
	</node>
	<node lat="62.95330000403933" lon="9.774963892028898" id="-35195">
		<tag k="name" v="Kjerringdalen" />
		<tag k="natural" v="valley" />
		<tag k="place" v="locality" />
		<tag k="ssr:stedsnr" v="522949" />
	</node>
	<node lat="62.88703333674988" lon="9.606238892818768" id="-35196">
		<tag k="name" v="Måssåhaugen" />
		<tag k="natural" v="hill" />
		<tag k="place" v="locality" />
		<tag k="ssr:stedsnr" v="522952" />
	</node>
	<node lat="62.84693055611133" lon="9.74802500795116" id="-35197">
		<tag k="name" v="Eggjan" />
		<tag k="natural" v="ridge" />
		<tag k="place" v="locality" />
		<tag k="ssr:stedsnr" v="531761" />
	</node>
	<node lat="62.70767500399592" lon="9.931444448003221" id="-35201">
		<tag k="fixme" v="consider natural=peak for the most distinct mountains in the district" />
		<tag k="name" v="Gisnåsen" />
		<tag k="natural" v="hill" />
		<tag k="place" v="locality" />
		<tag k="ssr:stedsnr" v="540876" />
	</node>
	<node lat="62.74378611317912" lon="9.846386116738339" id="-35205">
		<tag k="name" v="Gravdalen" />
		<tag k="natural" v="valley" />
		<tag k="place" v="locality" />
		<tag k="ssr:stedsnr" v="557345" />
	</node>
	<node lat="62.74031388596603" lon="9.800744452725233" id="-35206">
		<tag k="name" v="Svartbekkdalen" />
		<tag k="natural" v="valley" />
		<tag k="place" v="locality" />
		<tag k="ssr:stedsnr" v="557347" />
	</node>
	<node lat="62.85998332993654" lon="9.704086116076807" id="-35226">
		<tag k="name" v="Blautslættet" />
		<tag k="place" v="locality" />
		<tag k="ssr:stedsnr" v="571430" />
	</node>
	<node lat="62.843869448199406" lon="10.086311113962479" id="-35231">
		<tag k="name" v="Gravakselhaugen" />
		<tag k="natural" v="hill" />
		<tag k="place" v="locality" />
		<tag k="ssr:stedsnr" v="581238" />
	</node>
	<node lat="62.90133889066989" lon="9.838491674744617" id="-35234">
		<tag k="name" v="Løvsdalen" />
		<tag k="natural" v="valley" />
		<tag k="place" v="locality" />
		<tag k="ssr:stedsnr" v="581572" />
	</node>
	<node lat="62.88125277362029" lon="9.860836101819238" id="-35236">
		<tag k="name" v="Heverliin" />
		<tag k="natural" v="slope" />
		<tag k="place" v="locality" />
		<tag k="ssr:stedsnr" v="581535" />
	</node>
	<node lat="62.83228888841278" lon="9.825944440856697" id="-35237">
		<tag k="name" v="Haugan" />
		<tag k="natural" v="hill" />
		<tag k="place" v="locality" />
		<tag k="ssr:stedsnr" v="581730" />
	</node>
	<node lat="62.824905551906596" lon="10.053772213428674" id="-35250">
		<tag k="name" v="Unsdalen" />
		<tag k="natural" v="valley" />
		<tag k="place" v="locality" />
		<tag k="ssr:stedsnr" v="581821" />
	</node>
	<node lat="62.85176666699852" lon="9.877880554394821" id="-35253">
		<tag k="name" v="Refshusegga" />
		<tag k="natural" v="ridge" />
		<tag k="place" v="locality" />
		<tag k="ssr:stedsnr" v="582494" />
	</node>
	<node lat="62.93881111406517" lon="9.875352773758893" id="-35254">
		<tag k="fixme" v="consider natural=peak for the most distinct mountains in the district" />
		<tag k="name" v="Svarthåmmåren" />
		<tag k="natural" v="hill" />
		<tag k="place" v="locality" />
		<tag k="ssr:stedsnr" v="582527" />
	</node>
	<node lat="62.94951388832064" lon="9.837336113771364" id="-35257">
		<tag k="name" v="Reven" />
		<tag k="natural" v="hill" />
		<tag k="place" v="locality" />
		<tag k="ssr:stedsnr" v="582537" />
	</node>
	<node lat="62.82329444352964" lon="9.6196055602569" id="-35260">
		<tag k="name" v="Herremshaugan" />
		<tag k="natural" v="hill" />
		<tag k="place" v="locality" />
		<tag k="ssr:stedsnr" v="582610" />
	</node>
	<node lat="62.880755558951435" lon="9.78028056067728" id="-35265">
		<tag k="name" v="Pikhaugen" />
		<tag k="natural" v="hill" />
		<tag k="place" v="locality" />
		<tag k="ssr:stedsnr" v="582574" />
	</node>
	<node lat="62.77513055308279" lon="9.779088879877195" id="-35269">
		<tag k="name" v="Gråbekkdalen" />
		<tag k="natural" v="valley" />
		<tag k="place" v="locality" />
		<tag k="ssr:stedsnr" v="582735" />
	</node>
	<node lat="62.754619441379376" lon="9.675347212796224" id="-35274">
		<tag k="name" v="Litlråa" />
		<tag k="natural" v="ridge" />
		<tag k="place" v="locality" />
		<tag k="ssr:stedsnr" v="582670" />
	</node>
	<node lat="62.92874444387061" lon="9.77783332928975" id="-35275">
		<tag k="name" v="Moen" />
		<tag k="place" v="locality" />
		<tag k="ssr:stedsnr" v="582673" />
	</node>
	<node lat="62.84670555805642" lon="9.700561104894048" id="-35278">
		<tag k="name" v="Svarthammerkjølen" />
		<tag k="natural" v="ridge" />
		<tag k="place" v="locality" />
		<tag k="ssr:stedsnr" v="582687" />
	</node>
	<node lat="62.805827781014415" lon="10.011513893658504" id="-35283">
		<tag k="name" v="Landøya" />
		<tag k="place" v="locality" />
		<tag k="ssr:stedsnr" v="582771" />
	</node>
	<node lat="62.81319999608247" lon="9.977899996491727" id="-35284">
		<tag k="name" v="Løkkjbakkan" />
		<tag k="natural" v="slope" />
		<tag k="place" v="locality" />
		<tag k="ssr:stedsnr" v="582778" />
	</node>
	<node lat="62.91046666903828" lon="9.824661120900739" id="-35287">
		<tag k="name" v="Hårråstigen" />
		<tag k="natural" v="slope" />
		<tag k="place" v="locality" />
		<tag k="ssr:stedsnr" v="582832" />
	</node>
	<node lat="62.8370583309936" lon="9.74703889580514" id="-35289">
		<tag k="name" v="Eggjbronin" />
		<tag k="natural" v="ridge" />
		<tag k="place" v="locality" />
		<tag k="ssr:stedsnr" v="582836" />
	</node>
	<node lat="62.79905278050857" lon="9.981391665937867" id="-35290">
		<tag k="name" v="Småkamban" />
		<tag k="natural" v="slope" />
		<tag k="place" v="locality" />
		<tag k="ssr:stedsnr" v="582900" />
	</node>
</osm>
