<?xml version="1.0" encoding="UTF-8"?>
<osm generator="osmapis" version="0.6">
	<node id="-718842" lat="62.8430027746" lon="9.88914444527">
		<tag k="alt_name" v="Skjervholen" />
		<tag k="name" v="Skjervhølen" />
		<tag k="place" v="locality" />
		<tag k="ssr:stedsnr" v="339707" />
	</node>
	<node id="-718838" lat="62.7238361122" lon="9.8960194381">
		<tag k="name" v="Tvillingbekk-kjela" />
		<tag k="ssr:stedsnr" v="339689" />
		<tag k="waterway" v="stream" />
	</node>
	<node id="-718835" lat="62.856708332" lon="9.77201666546">
		<tag k="name" v="Furusjøbekken" />
		<tag k="ssr:stedsnr" v="339664" />
		<tag k="waterway" v="stream" />
	</node>
	<node id="-718833" lat="62.8617444412" lon="9.87513889681">
		<tag k="name" v="Bysta" />
		<tag k="ssr:stedsnr" v="339550" />
		<tag k="waterway" v="stream" />
	</node>
	<node id="-718831" lat="62.7569888902" lon="9.95294999143">
		<tag k="name" v="Søbekken" />
		<tag k="ssr:stedsnr" v="339531" />
		<tag k="waterway" v="stream" />
	</node>
	<node id="-718821" lat="62.8484413187" lon="9.78337115498">
		<tag k="loc_name" v="Torvhustjønna" />
		<tag k="name" v="Litlhauktjønna" />
		<tag k="natural" v="water" />
		<tag k="ssr:stedsnr" v="328074" />
	</node>
	<node id="-718820" lat="62.9053722241" lon="9.86261387936">
		<tag k="name" v="Gragjelbekken" />
		<tag k="ssr:stedsnr" v="316988" />
		<tag k="waterway" v="stream" />
	</node>
	<node id="-718815" lat="62.8365361073" lon="9.72724165811">
		<tag k="name" v="Stavåa" />
		<tag k="ssr:stedsnr" v="316909" />
		<tag k="waterway" v="river" />
	</node>
	<node id="-718812" lat="62.908477777" lon="9.62984999572">
		<tag k="name" v="Druggu" />
		<tag k="ssr:stedsnr" v="316271" />
		<tag k="waterway" v="river" />
	</node>
	<node id="-718807" lat="62.8702138933" lon="9.9465166653">
		<tag k="name" v="Finnvatnet" />
		<tag k="natural" v="water" />
		<tag k="ssr:stedsnr" v="315887" />
	</node>
	<node id="-718804" lat="62.8455138911" lon="9.63950000442">
		<tag k="name" v="Langvatnet" />
		<tag k="natural" v="water" />
		<tag k="ssr:stedsnr" v="315838" />
	</node>
	<node id="-718801" lat="62.7920111116" lon="9.77663055639">
		<tag k="name" v="Vidalstjønnin" />
		<tag k="natural" v="water" />
		<tag k="ssr:stedsnr" v="315560" />
	</node>
	<node id="-718800" lat="62.7946972211" lon="9.96338610467">
		<tag k="name" v="Kalsåa" />
		<tag k="ssr:stedsnr" v="315559" />
		<tag k="waterway" v="stream" />
	</node>
	<node id="-718797" lat="62.7285444484" lon="9.97613611216">
		<tag k="name" v="Byna" />
		<tag k="ssr:stedsnr" v="315291" />
		<tag k="waterway" v="river" />
	</node>
	<node id="-718792" lat="62.6652083358" lon="10.0257333327">
		<tag k="alt_name" v="Synnerseterfossen" />
		<tag k="name" v="Sørsæterfossen" />
		<tag k="natural" v="waterfall" />
		<tag k="ssr:stedsnr" v="314294" />
	</node>
	<node id="-718791" lat="62.7060472179" lon="10.2910805515">
		<tag k="name" v="Hanstjønnin" />
		<tag k="natural" v="water" />
		<tag k="ssr:stedsnr" v="210496" />
	</node>
	<node id="-718789" lat="62.7377944485" lon="10.2089638811">
		<tag k="name" v="Nørdre Langtjønna" />
		<tag k="natural" v="water" />
		<tag k="ssr:stedsnr" v="207337" />
	</node>
	<node id="-718785" lat="62.8488194438" lon="9.80876388078">
		<tag k="name" v="Hauka" />
		<tag k="ssr:stedsnr" v="195942" />
		<tag k="waterway" v="stream" />
	</node>
	<node id="-718778" lat="62.8559083355" lon="9.49204443846">
		<tag k="name" v="Gammalvangbekken" />
		<tag k="ssr:stedsnr" v="195835" />
		<tag k="waterway" v="stream" />
	</node>
	<node id="-718766" lat="62.7740833351" lon="10.1203388875">
		<tag k="name" v="Hølbekken" />
		<tag k="ssr:stedsnr" v="194553" />
		<tag k="waterway" v="stream" />
	</node>
	<node id="-718761" lat="62.6224055567" lon="10.0634611159">
		<tag k="alt_name" v="Lerbekken" />
		<tag k="name" v="Leirbekken" />
		<tag k="ssr:stedsnr" v="193501" />
		<tag k="waterway" v="stream" />
	</node>
	<node id="-718760" lat="62.7487805531" lon="10.1578861203">
		<tag k="name" v="Fjellbekktjønna" />
		<tag k="natural" v="water" />
		<tag k="ssr:stedsnr" v="193388" />
	</node>
	<node id="-718746" lat="62.9666277778" lon="9.86641666336">
		<tag k="name" v="Litl-Krokåtvatnet" />
		<tag k="natural" v="water" />
		<tag k="ssr:stedsnr" v="157970" />
		<tag k="water" v="lake" />
	</node>
	<node id="-718742" lat="62.6083611103" lon="10.042411105">
		<tag k="name" v="Svendsløbekken" />
		<tag k="ssr:stedsnr" v="157939" />
		<tag k="waterway" v="stream" />
	</node>
	<node id="-718727" lat="62.8340055599" lon="10.1145416621">
		<tag k="name" v="Manndraparbekken" />
		<tag k="ssr:stedsnr" v="157835" />
		<tag k="waterway" v="stream" />
	</node>
	<node id="-718723" lat="62.8947166634" lon="9.97693056307">
		<tag k="name" v="Krokbekken" />
		<tag k="ssr:stedsnr" v="157827" />
		<tag k="waterway" v="stream" />
	</node>
	<node id="-718717" lat="62.7350805553" lon="10.1225472289">
		<tag k="name" v="Måssåkoidaltjønna" />
		<tag k="natural" v="water" />
		<tag k="ssr:stedsnr" v="157801" />
	</node>
	<node id="-718716" lat="62.6905333292" lon="10.0982638807">
		<tag k="name" v="Fjellbekken" />
		<tag k="ssr:stedsnr" v="157799" />
		<tag k="waterway" v="stream" />
	</node>
	<node id="-718713" lat="62.8248611113" lon="10.0015250068">
		<tag k="name" v="Jaklabekken" />
		<tag k="ssr:stedsnr" v="157783" />
		<tag k="waterway" v="stream" />
	</node>
	<node id="-718702" lat="62.8993638859" lon="9.78818055339">
		<tag k="name" v="Pungtjønna" />
		<tag k="natural" v="water" />
		<tag k="ssr:stedsnr" v="157747" />
	</node>
	<node id="-718694" lat="62.7600138904" lon="9.74267221409">
		<tag k="name" v="Topptjønna" />
		<tag k="natural" v="water" />
		<tag k="ssr:stedsnr" v="157697" />
	</node>
	<node id="-718674" lat="62.8405305594" lon="9.59222222422">
		<tag k="name" v="Kjevja" />
		<tag k="natural" v="water" />
		<tag k="ssr:stedsnr" v="157579" />
	</node>
	<node id="-718672" lat="62.8000555592" lon="9.58352221353">
		<tag k="name" v="Hælufossen" />
		<tag k="natural" v="waterfall" />
		<tag k="ssr:stedsnr" v="157563" />
	</node>
	<node id="-718667" lat="62.8140749959" lon="9.94224444023">
		<tag k="name" v="Småtjønnin" />
		<tag k="natural" v="water" />
		<tag k="ssr:stedsnr" v="157541" />
	</node>
	<node id="-718663" lat="62.8733166633" lon="9.73433889288">
		<tag k="name" v="Lauvåstjønna" />
		<tag k="natural" v="water" />
		<tag k="ssr:stedsnr" v="157507" />
	</node>
	<node id="-718648" lat="62.8828416631" lon="9.78077499501">
		<tag k="alt_name" v="Nesjvatnet" />
		<tag k="name" v="Svartvatnet" />
		<tag k="natural" v="water" />
		<tag k="ssr:stedsnr" v="133969" />
	</node>
	<node id="-718646" lat="62.9347555531" lon="9.86597778341">
		<tag k="name" v="Langvatnet" />
		<tag k="natural" v="water" />
		<tag k="ssr:stedsnr" v="133949" />
	</node>
	<node id="-718644" lat="62.9658249995" lon="9.87663611561">
		<tag k="name" v="Krokåtvatna" />
		<tag k="natural" v="water" />
		<tag k="ssr:stedsnr" v="133794" />
		<tag k="water" v="lake" />
	</node>
	<node id="-718637" lat="62.753419442" lon="9.99757500585">
		<tag k="name" v="Jønnåa" />
		<tag k="ssr:stedsnr" v="133586" />
		<tag k="waterway" v="stream" />
	</node>
	<node id="-718634" lat="62.8000055585" lon="9.88953056259">
		<tag k="name" v="Damtjønna" />
		<tag k="natural" v="water" />
		<tag k="ssr:stedsnr" v="133549" />
	</node>
	<node id="-718628" lat="62.8743138884" lon="9.6749027755">
		<tag k="name" v="Hela" />
		<tag k="ssr:stedsnr" v="133184" />
		<tag k="waterway" v="river" />
	</node>
	<node id="-718623" lat="62.7116027817" lon="10.1929166719">
		<tag k="name" v="Vardtjønna" />
		<tag k="natural" v="water" />
		<tag k="ssr:stedsnr" v="132267" />
	</node>
	<node id="-718617" lat="62.8201333321" lon="9.76547499932">
		<tag k="name" v="Ettre Stavåvatnet" />
		<tag k="natural" v="water" />
		<tag k="ssr:stedsnr" v="116959" />
		<tag k="water" v="lake" />
	</node>
	<node id="-718609" lat="62.9033472179" lon="9.63429999584">
		<tag k="name" v="Åsbekken" />
		<tag k="ssr:stedsnr" v="97979" />
		<tag k="waterway" v="stream" />
	</node>
	<node id="-718602" lat="62.9524194431" lon="9.77975556161">
		<tag k="name" v="Midtøya" />
		<tag k="place" v="island" />
		<tag k="ssr:stedsnr" v="97945" />
	</node>
	<node id="-718600" lat="62.8431777744" lon="9.89300554766">
		<tag k="name" v="Røraøset" />
		<tag k="natural" v="bay" />
		<tag k="ssr:stedsnr" v="97743" />
	</node>
	<node id="-718597" lat="62.6880444435" lon="10.1352916682">
		<tag k="name" v="Storbekken" />
		<tag k="ssr:stedsnr" v="97792" />
		<tag k="waterway" v="stream" />
	</node>
	<node id="-718588" lat="62.950241663" lon="9.77791111202">
		<tag k="name" v="Gamshølen" />
		<tag k="place" v="locality" />
		<tag k="ssr:stedsnr" v="97682" />
	</node>
	<node id="-718587" lat="62.9517416675" lon="9.77949722463">
		<tag k="name" v="Killingøya" />
		<tag k="place" v="islet" />
		<tag k="ssr:stedsnr" v="97681" />
	</node>
	<node id="-718579" lat="62.7719166669" lon="9.61874166491">
		<tag k="name" v="Hølubekken" />
		<tag k="ssr:stedsnr" v="97640" />
		<tag k="waterway" v="stream" />
	</node>
	<node id="-718578" lat="62.7810555578" lon="9.60680277934">
		<tag k="name" v="Teigbekken" />
		<tag k="ssr:stedsnr" v="97637" />
		<tag k="waterway" v="stream" />
	</node>
	<node id="-718571" lat="62.9480333302" lon="9.87096945178">
		<tag k="name" v="Litltittjønna" />
		<tag k="natural" v="water" />
		<tag k="ssr:stedsnr" v="97538" />
	</node>
	<node id="-718559" lat="62.8301916703" lon="10.136394453">
		<tag k="name" v="Skranglabekken" />
		<tag k="ssr:stedsnr" v="96791" />
		<tag k="waterway" v="stream" />
	</node>
	<node id="-718558" lat="62.8248444418" lon="10.1345083429">
		<tag k="name" v="Sandvika" />
		<tag k="natural" v="bay" />
		<tag k="ssr:stedsnr" v="96790" />
	</node>
	<node id="-718557" lat="62.8415527792" lon="10.0188027786">
		<tag k="name" v="Holmen" />
		<tag k="natural" v="cape" />
		<tag k="ssr:stedsnr" v="96788" />
	</node>
	<node id="-718555" lat="62.856525003" lon="9.98357777885">
		<tag k="name" v="Eggjådalstjønna" />
		<tag k="natural" v="water" />
		<tag k="ssr:stedsnr" v="96779" />
	</node>
	<node id="-718554" lat="62.8776861121" lon="9.79360554986">
		<tag k="name" v="Nesjbekken" />
		<tag k="ssr:stedsnr" v="96733" />
		<tag k="waterway" v="stream" />
	</node>
	<node id="-718553" lat="62.8421000041" lon="9.82809999189">
		<tag k="name" v="Litl Tynnfossen" />
		<tag k="natural" v="waterfall" />
		<tag k="ssr:stedsnr" v="96713" />
	</node>
	<node id="-718544" lat="62.8400138899" lon="9.76703333369">
		<tag k="name" v="Kreklingen" />
		<tag k="natural" v="water" />
		<tag k="ssr:stedsnr" v="73923" />
		<tag k="water" v="lake" />
	</node>
	<node id="-718542" lat="62.8810833306" lon="9.99636389754">
		<tag k="name" v="Aurevatnet" />
		<tag k="natural" v="water" />
		<tag k="ssr:stedsnr" v="73899" />
	</node>
	<node id="-718538" lat="62.7930555536" lon="9.58020555536">
		<tag k="name" v="Svartdalstjønna" />
		<tag k="natural" v="water" />
		<tag k="ssr:stedsnr" v="73864" />
	</node>
	<node id="-718537" lat="62.7995999996" lon="10.0461611094">
		<tag k="name" v="Stavåa" />
		<tag k="ssr:stedsnr" v="73856" />
		<tag k="waterway" v="river" />
	</node>
	<node id="-718533" lat="62.9221194446" lon="9.9087888964">
		<tag k="name" v="Iltjønnin" />
		<tag k="natural" v="water" />
		<tag k="ssr:stedsnr" v="73996" />
	</node>
	<node id="-718532" lat="62.8058249987" lon="9.80093611921">
		<tag k="name" v="Vidalsbekken" />
		<tag k="ssr:stedsnr" v="73594" />
		<tag k="waterway" v="stream" />
	</node>
	<node id="-718530" lat="62.8317305532" lon="9.89471111455">
		<tag k="name" v="Gautvella" />
		<tag k="ssr:stedsnr" v="73584" />
		<tag k="waterway" v="river" />
	</node>
	<node id="-718529" lat="62.9119694463" lon="9.7129888921">
		<tag k="name" v="Grana" />
		<tag k="ssr:stedsnr" v="73183" />
		<tag k="waterway" v="river" />
	</node>
	<node id="-718528" lat="62.6423805578" lon="9.97673056236">
		<tag k="name" v="Kristendalsbekken" />
		<tag k="ssr:stedsnr" v="72454" />
		<tag k="waterway" v="stream" />
	</node>
	<node id="-718526" lat="62.6936138914" lon="10.0992194368">
		<tag k="name" v="Bergstjønna" />
		<tag k="natural" v="water" />
		<tag k="ssr:stedsnr" v="72293" />
	</node>
	<node id="-718518" lat="62.6895361103" lon="10.0459194505">
		<tag k="name" v="Granskogbekken" />
		<tag k="ssr:stedsnr" v="36995" />
		<tag k="waterway" v="stream" />
	</node>
	<node id="-718517" lat="62.692055553" lon="10.0383249909">
		<tag k="name" v="Øyan" />
		<tag k="place" v="islet" />
		<tag k="ssr:stedsnr" v="36991" />
	</node>
	<node id="-718515" lat="62.8642805561" lon="10.0825333413">
		<tag k="name" v="Øyabekken" />
		<tag k="ssr:stedsnr" v="36848" />
		<tag k="waterway" v="stream" />
	</node>
	<node id="-718505" lat="62.8702444462" lon="9.82082222224">
		<tag k="name" v="Liabekken" />
		<tag k="ssr:stedsnr" v="36740" />
		<tag k="waterway" v="stream" />
	</node>
	<node id="-718497" lat="62.8362638875" lon="9.87388889425">
		<tag k="name" v="Dalsbekken" />
		<tag k="ssr:stedsnr" v="36706" />
		<tag k="waterway" v="stream" />
	</node>
	<node id="-718491" lat="62.9373888879" lon="9.773105554">
		<tag k="name" v="Aunhølen" />
		<tag k="place" v="locality" />
		<tag k="ssr:stedsnr" v="36666" />
	</node>
	<node id="-718484" lat="62.9328194454" lon="9.76954999507">
		<tag k="name" v="Bondøya" />
		<tag k="place" v="islet" />
		<tag k="ssr:stedsnr" v="36637" />
	</node>
	<node id="-718478" lat="62.7894027805" lon="9.66278610962">
		<tag k="name" v="Henrikbekken" />
		<tag k="ssr:stedsnr" v="36621" />
		<tag k="waterway" v="stream" />
	</node>
	<node id="-718474" lat="62.76845556" lon="9.59286666334">
		<tag k="name" v="Stoøya" />
		<tag k="natural" v="cape" />
		<tag k="ssr:stedsnr" v="36609" />
	</node>
	<node id="-718456" lat="62.9374722225" lon="9.87375833529">
		<tag k="name" v="Storbekken" />
		<tag k="ssr:stedsnr" v="36487" />
		<tag k="waterway" v="stream" />
	</node>
	<node id="-718454" lat="62.855000003" lon="9.87128610813">
		<tag k="name" v="Gardbekken" />
		<tag k="ssr:stedsnr" v="36449" />
		<tag k="waterway" v="stream" />
	</node>
	<node id="-718453" lat="62.8307666645" lon="9.97465000748">
		<tag k="name" v="Bruahølen" />
		<tag k="place" v="locality" />
		<tag k="ssr:stedsnr" v="36178" />
	</node>
	<node id="-718447" lat="62.8988055598" lon="9.86779166659">
		<tag k="alt_name" v="Grønnhaugbekken" />
		<tag k="name" v="Grønhaugbekken" />
		<tag k="ssr:stedsnr" v="35587" />
		<tag k="waterway" v="stream" />
	</node>
	<node id="-718445" lat="62.8742916648" lon="9.83922777168">
		<tag k="name" v="Kjellarøyan" />
		<tag k="place" v="islet" />
		<tag k="ssr:stedsnr" v="35573" />
	</node>
	<node id="-718438" lat="62.6874249962" lon="10.1620916724">
		<tag k="alt_name" v="Ølvatnet;Ulvatnet" />
		<tag k="name" v="Ulvvatnet" />
		<tag k="natural" v="water" />
		<tag k="ssr:stedsnr" v="28279" />
		<tag k="water" v="lake" />
	</node>
	<node id="-718433" lat="62.9408472232" lon="9.86521388844">
		<tag k="name" v="Storvatnet" />
		<tag k="natural" v="water" />
		<tag k="ssr:stedsnr" v="12960" />
		<tag k="water" v="lake" />
	</node>
	<node id="-718431" lat="62.9367583351" lon="9.85396110294">
		<tag k="alt_name" v="Vargvatnet" />
		<tag k="name" v="Verjvatnet" />
		<tag k="natural" v="water" />
		<tag k="ssr:stedsnr" v="12958" />
	</node>
	<node id="-718429" lat="62.8714527736" lon="9.72817221424">
		<tag k="name" v="Lauvåstjønna" />
		<tag k="natural" v="water" />
		<tag k="ssr:stedsnr" v="12884" />
	</node>
	<node id="-718427" lat="62.8676250013" lon="9.48559722789">
		<tag k="name" v="Fjellbekken" />
		<tag k="ssr:stedsnr" v="12868" />
		<tag k="waterway" v="stream" />
	</node>
	<node id="-718423" lat="62.9553138887" lon="9.87179166982">
		<tag k="name" v="Mørtjønna" />
		<tag k="natural" v="water" />
		<tag k="ssr:stedsnr" v="12792" />
	</node>
	<node id="-718419" lat="62.803927778" lon="9.81520277321">
		<tag k="name" v="Krokåbekken" />
		<tag k="ssr:stedsnr" v="12583" />
		<tag k="waterway" v="stream" />
	</node>
	<node id="-718418" lat="62.8213194423" lon="10.0717777799">
		<tag k="name" v="Skauma" />
		<tag k="ssr:stedsnr" v="12578" />
		<tag k="waterway" v="river" />
	</node>
	<node id="-718412" lat="62.8975916652" lon="9.49481111992">
		<tag k="name" v="Grønlitjønna" />
		<tag k="natural" v="water" />
		<tag k="ssr:stedsnr" v="12194" />
	</node>
	<node id="-718406" lat="62.7317666646" lon="9.78351111721">
		<tag k="name" v="Svabekken" />
		<tag k="ssr:stedsnr" v="11365" />
		<tag k="waterway" v="stream" />
	</node>
	<node id="-718399" lat="62.8581596421" lon="9.90212124111">
		<tag k="name" v="Sæterbekken" />
		<tag k="ssr:stedsnr" v="981581" />
		<tag k="waterway" v="stream" />
	</node>
	<node id="-718391" lat="62.9657111111" lon="9.86029167049">
		<tag k="name" v="Tjønna" />
		<tag k="natural" v="water" />
		<tag k="ssr:stedsnr" v="947969" />
	</node>
	<node id="-718389" lat="62.8020583373" lon="10.0123222261">
		<tag k="name" v="Eaøset" />
		<tag k="natural" v="bay" />
		<tag k="ssr:stedsnr" v="947471" />
	</node>
	<node id="-718384" lat="62.8461638892" lon="9.88634444717">
		<tag k="name" v="Bysta" />
		<tag k="ssr:stedsnr" v="946718" />
		<tag k="waterway" v="stream" />
	</node>
	<node id="-718383" lat="62.8463388921" lon="9.81334445349">
		<tag k="name" v="Litl Høka" />
		<tag k="ssr:stedsnr" v="946716" />
		<tag k="waterway" v="stream" />
	</node>
	<node id="-718380" lat="62.6915472204" lon="10.1602972235">
		<tag k="name" v="Båtodden" />
		<tag k="natural" v="cape" />
		<tag k="ssr:stedsnr" v="946838" />
	</node>
	<node id="-718374" lat="62.8708833294" lon="10.094519453">
		<tag k="name" v="Kvernåa" />
		<tag k="ssr:stedsnr" v="946818" />
		<tag k="waterway" v="stream" />
	</node>
	<node id="-718373" lat="62.8967388893" lon="9.99435555321">
		<tag k="name" v="Ørrevassbekken" />
		<tag k="ssr:stedsnr" v="946807" />
		<tag k="waterway" v="stream" />
	</node>
	<node id="-718372" lat="62.7549083333" lon="10.1378388902">
		<tag k="name" v="Fjellbekkfossen" />
		<tag k="natural" v="waterfall" />
		<tag k="ssr:stedsnr" v="946805" />
	</node>
	<node id="-718356" lat="62.8813749993" lon="9.82000554928">
		<tag k="name" v="Nesjbekken" />
		<tag k="ssr:stedsnr" v="886571" />
		<tag k="waterway" v="stream" />
	</node>
	<node id="-718354" lat="62.813463886" lon="9.90580555698">
		<tag k="name" v="Snurrunaugbekken" />
		<tag k="ssr:stedsnr" v="886560" />
		<tag k="waterway" v="stream" />
	</node>
	<node id="-718353" lat="62.7482916673" lon="10.0973083391">
		<tag k="name" v="Kalvkipptjønna" />
		<tag k="natural" v="water" />
		<tag k="ssr:stedsnr" v="886804" />
	</node>
	<node id="-718344" lat="62.8558194488" lon="10.022183332">
		<tag k="name" v="Bjørbekken" />
		<tag k="ssr:stedsnr" v="886207" />
		<tag k="waterway" v="stream" />
	</node>
	<node id="-718342" lat="62.8307083334" lon="9.97753333626">
		<tag k="name" v="Oset" />
		<tag k="natural" v="bay" />
		<tag k="ssr:stedsnr" v="885767" />
	</node>
	<node id="-718337" lat="62.8322416685" lon="10.1156722235">
		<tag k="name" v="Sjøavika" />
		<tag k="natural" v="bay" />
		<tag k="ssr:stedsnr" v="885806" />
	</node>
	<node id="-718330" lat="62.6746888845" lon="10.049927776">
		<tag k="name" v="Litltjønnbekken" />
		<tag k="ssr:stedsnr" v="946995" />
		<tag k="waterway" v="stream" />
	</node>
	<node id="-718325" lat="62.6268416639" lon="10.0181361204">
		<tag k="name" v="Øster Hølbekken" />
		<tag k="ssr:stedsnr" v="946965" />
		<tag k="waterway" v="stream" />
	</node>
	<node id="-718324" lat="62.8938194417" lon="9.94034443576">
		<tag k="name" v="Skardbekken" />
		<tag k="ssr:stedsnr" v="946898" />
		<tag k="waterway" v="stream" />
	</node>
	<node id="-717395" lat="62.8893888875" lon="9.76832500332">
		<tag k="name" v="Klevtjønna" />
		<tag k="natural" v="water" />
		<tag k="ssr:stedsnr" v="218554" />
	</node>
	<node id="-718319" lat="62.7588666701" lon="9.99025000271">
		<tag k="name" v="Tosetfossen" />
		<tag k="natural" v="waterfall" />
		<tag k="ssr:stedsnr" v="946932" />
	</node>
	<node id="-718311" lat="62.9413166678" lon="9.77417776848">
		<tag k="name" v="Volløya" />
		<tag k="place" v="islet" />
		<tag k="ssr:stedsnr" v="946650" />
	</node>
	<node id="-718301" lat="62.7853444457" lon="9.62601944521">
		<tag k="name" v="Vollslettbekken" />
		<tag k="ssr:stedsnr" v="946591" />
		<tag k="waterway" v="stream" />
	</node>
	<node id="-718298" lat="62.8498888874" lon="9.90483333334">
		<tag k="name" v="Stemma" />
		<tag k="ssr:stedsnr" v="946577" />
		<tag k="waterway" v="stream" />
	</node>
	<node id="-718296" lat="62.8406472194" lon="9.91107777442">
		<tag k="name" v="Tjønnhølen" />
		<tag k="place" v="locality" />
		<tag k="ssr:stedsnr" v="946565" />
	</node>
	<node id="-718287" lat="62.755374996" lon="9.92443888553">
		<tag k="alt_name" v="Litl-Hevra" />
		<tag k="name" v="Litlhevra" />
		<tag k="ssr:stedsnr" v="946544" />
		<tag k="waterway" v="stream" />
	</node>
	<node id="-718282" lat="62.9457416656" lon="9.86888888021">
		<tag k="name" v="Tittjønna" />
		<tag k="natural" v="water" />
		<tag k="ssr:stedsnr" v="946501" />
	</node>
	<node id="-718271" lat="62.8737277777" lon="9.78640277089">
		<tag k="name" v="Rukkutjønna" />
		<tag k="natural" v="water" />
		<tag k="ssr:stedsnr" v="935067" />
	</node>
	<node id="-718264" lat="62.9193166709" lon="9.80720278626">
		<tag k="name" v="Røssbekken" />
		<tag k="ssr:stedsnr" v="930180" />
		<tag k="waterway" v="stream" />
	</node>
	<node id="-718262" lat="62.8381472252" lon="9.50696388095">
		<tag k="name" v="Vaultjønna" />
		<tag k="natural" v="water" />
		<tag k="ssr:stedsnr" v="801810" />
	</node>
	<node id="-718260" lat="62.7600749991" lon="10.1221749979">
		<tag k="name" v="Fjellbekken" />
		<tag k="ssr:stedsnr" v="801593" />
		<tag k="waterway" v="stream" />
	</node>
	<node id="-718258" lat="62.7837249991" lon="10.0382694459">
		<tag k="name" v="Ea" />
		<tag k="ssr:stedsnr" v="801577" />
		<tag k="waterway" v="river" />
	</node>
	<node id="-718255" lat="62.808977777" lon="9.88838889171">
		<tag k="name" v="Stortjønna" />
		<tag k="natural" v="water" />
		<tag k="ssr:stedsnr" v="801563" />
	</node>
	<node id="-718248" lat="62.8943472251" lon="9.75009721429">
		<tag k="name" v="Kroktjønna" />
		<tag k="natural" v="water" />
		<tag k="ssr:stedsnr" v="923988" />
	</node>
	<node id="-718247" lat="62.8942722179" lon="9.8724166672">
		<tag k="name" v="Hurunda" />
		<tag k="ssr:stedsnr" v="923987" />
		<tag k="waterway" v="river" />
	</node>
	<node id="-718241" lat="62.7603194413" lon="9.68825555432">
		<tag k="name" v="Gunnesbekken" />
		<tag k="ssr:stedsnr" v="923812" />
		<tag k="waterway" v="stream" />
	</node>
	<node id="-718239" lat="62.8619527819" lon="9.51380000553">
		<tag k="name" v="Tittjønna" />
		<tag k="natural" v="water" />
		<tag k="ssr:stedsnr" v="923246" />
	</node>
	<node id="-718237" lat="62.8367583339" lon="9.55131110262">
		<tag k="name" v="Storbekkøyan" />
		<tag k="natural" v="water" />
		<tag k="ssr:stedsnr" v="922827" />
	</node>
	<node id="-718234" lat="62.9689333329" lon="9.92613888893">
		<tag k="name" v="Fjellbekken" />
		<tag k="ssr:stedsnr" v="922770" />
		<tag k="waterway" v="stream" />
	</node>
	<node id="-718229" lat="62.7841111135" lon="10.136202782">
		<tag k="name" v="Haugatjønna" />
		<tag k="natural" v="water" />
		<tag k="ssr:stedsnr" v="922561" />
	</node>
	<node id="-718225" lat="62.6327000043" lon="9.9813861093">
		<tag k="fixme" v="multiple name tags, choose one and add the other to alt_name" />
		<tag k="name" v="Vonbekken;Vondbekken" />
		<tag k="ssr:stedsnr" v="922454" />
		<tag k="waterway" v="stream" />
	</node>
	<node id="-718223" lat="62.6171666702" lon="9.98054165872">
		<tag k="name" v="Holbekken" />
		<tag k="ssr:stedsnr" v="922441" />
		<tag k="waterway" v="stream" />
	</node>
	<node id="-718221" lat="62.6411555529" lon="10.0094527852">
		<tag k="name" v="Inna" />
		<tag k="ssr:stedsnr" v="922399" />
		<tag k="waterway" v="river" />
	</node>
	<node id="-718213" lat="62.9454944473" lon="9.72543334112">
		<tag k="name" v="Lertjønnin" />
		<tag k="natural" v="water" />
		<tag k="ssr:stedsnr" v="922940" />
	</node>
	<node id="-718211" lat="62.7111888849" lon="10.2386888824">
		<tag k="name" v="Stavilltjønna" />
		<tag k="natural" v="water" />
		<tag k="ssr:stedsnr" v="921408" />
	</node>
	<node id="-718206" lat="62.6889916624" lon="9.98385556511">
		<tag k="name" v="Krokbekken" />
		<tag k="ssr:stedsnr" v="921320" />
		<tag k="waterway" v="stream" />
	</node>
	<node id="-718205" lat="62.6573083323" lon="10.0470138974">
		<tag k="name" v="Stortjønnbekken" />
		<tag k="ssr:stedsnr" v="921282" />
		<tag k="waterway" v="stream" />
	</node>
	<node id="-718202" lat="62.8866416711" lon="9.96465832586">
		<tag k="name" v="Jønnsjøbekken" />
		<tag k="ssr:stedsnr" v="764882" />
		<tag k="waterway" v="stream" />
	</node>
	<node id="-718176" lat="62.8264055575" lon="9.71407500903">
		<tag k="name" v="Granasjøen" />
		<tag k="natural" v="water" />
		<tag k="ssr:stedsnr" v="748171" />
		<tag k="water" v="lake" />
	</node>
	<node id="-718173" lat="62.8503666664" lon="9.95200555048">
		<tag k="name" v="Slipra" />
		<tag k="ssr:stedsnr" v="741955" />
		<tag k="waterway" v="stream" />
	</node>
	<node id="-718171" lat="62.9629361084" lon="9.76587221391">
		<tag k="name" v="Stavåa" />
		<tag k="ssr:stedsnr" v="740772" />
		<tag k="waterway" v="stream" />
	</node>
	<node id="-718146" lat="62.9539527767" lon="9.79840277302">
		<tag k="name" v="Synder Egda" />
		<tag k="ssr:stedsnr" v="887000" />
		<tag k="waterway" v="stream" />
	</node>
	<node id="-718145" lat="62.6866305566" lon="10.0425499988">
		<tag k="name" v="Sagfallet" />
		<tag k="natural" v="waterfall" />
		<tag k="ssr:stedsnr" v="886997" />
	</node>
	<node id="-718143" lat="62.721886108" lon="10.0469416741">
		<tag k="name" v="Gårdsbekken" />
		<tag k="ssr:stedsnr" v="886992" />
		<tag k="waterway" v="stream" />
	</node>
	<node id="-718140" lat="62.7806999959" lon="9.98400833656">
		<tag k="name" v="Kvernhusfossen" />
		<tag k="natural" v="waterfall" />
		<tag k="ssr:stedsnr" v="886884" />
	</node>
	<node id="-718129" lat="62.6797916627" lon="10.1314722254">
		<tag k="name" v="Krokbekken" />
		<tag k="ssr:stedsnr" v="886826" />
		<tag k="waterway" v="stream" />
	</node>
	<node id="-718125" lat="62.811072226" lon="9.89257500366">
		<tag k="name" v="Stortjønnbekken" />
		<tag k="ssr:stedsnr" v="886730" />
		<tag k="waterway" v="stream" />
	</node>
	<node id="-718121" lat="62.6778083366" lon="10.1417388938">
		<tag k="name" v="Skårbekken" />
		<tag k="ssr:stedsnr" v="886791" />
		<tag k="waterway" v="stream" />
	</node>
	<node id="-718120" lat="62.8128777738" lon="10.0623694449">
		<tag k="name" v="Skaumsetertjønna" />
		<tag k="natural" v="water" />
		<tag k="ssr:stedsnr" v="886785" />
	</node>
	<node id="-718116" lat="62.9393166641" lon="9.77312221979">
		<tag k="name" v="Aunøya" />
		<tag k="place" v="islet" />
		<tag k="ssr:stedsnr" v="886695" />
	</node>
	<node id="-718113" lat="62.7873527777" lon="9.57065000406">
		<tag k="name" v="Søgardstjønna" />
		<tag k="natural" v="water" />
		<tag k="ssr:stedsnr" v="886594" />
	</node>
	<node id="-718111" lat="62.8606027737" lon="9.63888888246">
		<tag k="name" v="Fjellbekken" />
		<tag k="ssr:stedsnr" v="886588" />
		<tag k="waterway" v="stream" />
	</node>
	<node id="-718086" lat="62.7853805545" lon="9.43391388363">
		<tag k="name" v="Minnilla" />
		<tag k="ssr:stedsnr" v="679859" />
		<tag k="waterway" v="river" />
	</node>
	<node id="-718085" lat="62.8449138927" lon="9.59889166502">
		<tag k="name" v="Sæterbekken" />
		<tag k="ssr:stedsnr" v="679816" />
		<tag k="waterway" v="stream" />
	</node>
	<node id="-718084" lat="62.816377775" lon="9.6360416728">
		<tag k="name" v="Krokbekken" />
		<tag k="ssr:stedsnr" v="679803" />
		<tag k="waterway" v="stream" />
	</node>
	<node id="-718082" lat="62.8926000014" lon="9.59478332847">
		<tag k="name" v="Fjellbekken" />
		<tag k="ssr:stedsnr" v="643965" />
		<tag k="waterway" v="stream" />
	</node>
	<node id="-718080" lat="62.9634555559" lon="9.75839166271">
		<tag k="name" v="Haugabekken" />
		<tag k="ssr:stedsnr" v="643953" />
		<tag k="waterway" v="stream" />
	</node>
	<node id="-718075" lat="62.8902258218" lon="9.91111803954">
		<tag k="name" v="Hurundsjøen" />
		<tag k="natural" v="water" />
		<tag k="ssr:stedsnr" v="619921" />
	</node>
	<node id="-718072" lat="62.8793333298" lon="9.59686111625">
		<tag k="name" v="Fjellbekken" />
		<tag k="ssr:stedsnr" v="619233" />
		<tag k="waterway" v="stream" />
	</node>
	<node id="-718071" lat="62.8289666656" lon="9.81624721656">
		<tag k="name" v="Gjerda" />
		<tag k="ssr:stedsnr" v="618906" />
		<tag k="waterway" v="stream" />
	</node>
	<node id="-718068" lat="62.8370111124" lon="9.67312499995">
		<tag k="name" v="Svartbekken" />
		<tag k="ssr:stedsnr" v="618781" />
		<tag k="waterway" v="stream" />
	</node>
	<node id="-718059" lat="62.9258916622" lon="9.77538611253">
		<tag k="name" v="Frona" />
		<tag k="place" v="locality" />
		<tag k="ssr:stedsnr" v="582677" />
	</node>
	<node id="-718043" lat="62.9586972251" lon="9.78173611237">
		<tag k="name" v="Gorsetøya" />
		<tag k="place" v="island" />
		<tag k="ssr:stedsnr" v="704994" />
	</node>
	<node id="-718038" lat="62.9597500005" lon="9.88181667599">
		<tag k="name" v="Fanabekken" />
		<tag k="ssr:stedsnr" v="704968" />
		<tag k="waterway" v="stream" />
	</node>
	<node id="-718037" lat="62.6877805526" lon="9.9978833394">
		<tag k="name" v="Korsbekkdalen" />
		<tag k="ssr:stedsnr" v="704952" />
		<tag k="waterway" v="stream" />
	</node>
	<node id="-718019" lat="62.8227138859" lon="10.136141662">
		<tag k="name" v="Skoftbekken" />
		<tag k="ssr:stedsnr" v="704798" />
		<tag k="waterway" v="stream" />
	</node>
	<node id="-718016" lat="62.8004611116" lon="9.79280556487">
		<tag k="name" v="Vidalsbekken" />
		<tag k="ssr:stedsnr" v="704694" />
		<tag k="waterway" v="stream" />
	</node>
	<node id="-718013" lat="62.7513277761" lon="9.73485833668">
		<tag k="name" v="Knapptjønna" />
		<tag k="natural" v="water" />
		<tag k="ssr:stedsnr" v="704678" />
	</node>
	<node id="-718008" lat="62.8225388875" lon="9.75206943744">
		<tag k="name" v="Krokåa" />
		<tag k="ssr:stedsnr" v="704667" />
		<tag k="waterway" v="stream" />
	</node>
	<node id="-718005" lat="62.8888777808" lon="9.75798056323">
		<tag k="name" v="Koltjønna" />
		<tag k="natural" v="water" />
		<tag k="ssr:stedsnr" v="704654" />
	</node>
	<node id="-717979" lat="62.6893222189" lon="10.1600472312">
		<tag k="name" v="Båtodden" />
		<tag k="natural" v="cape" />
		<tag k="ssr:stedsnr" v="703852" />
	</node>
	<node id="-717970" lat="62.6836138925" lon="10.1461361161">
		<tag k="name" v="Murmesterøya" />
		<tag k="place" v="island" />
		<tag k="ssr:stedsnr" v="703797" />
	</node>
	<node id="-717967" lat="62.7681055533" lon="10.0854944477">
		<tag k="name" v="Døvassengbekken" />
		<tag k="ssr:stedsnr" v="703775" />
		<tag k="waterway" v="stream" />
	</node>
	<node id="-717961" lat="62.8415888861" lon="9.78155555232">
		<tag k="name" v="Litlhauktjønna" />
		<tag k="natural" v="water" />
		<tag k="ssr:stedsnr" v="703732" />
	</node>
	<node id="-717960" lat="62.8377277805" lon="9.82780000916">
		<tag k="name" v="Stor Tynnfossen" />
		<tag k="natural" v="waterfall" />
		<tag k="ssr:stedsnr" v="703730" />
	</node>
	<node id="-717959" lat="62.8561027798" lon="10.062849999">
		<tag k="name" v="Hammerbekken" />
		<tag k="ssr:stedsnr" v="703250" />
		<tag k="waterway" v="stream" />
	</node>
	<node id="-717955" lat="62.8029500025" lon="9.96341667268">
		<tag k="name" v="Damtjønna" />
		<tag k="natural" v="water" />
		<tag k="ssr:stedsnr" v="703596" />
	</node>
	<node id="-717954" lat="62.9383194401" lon="9.86681944467">
		<tag k="name" v="Odden" />
		<tag k="natural" v="cape" />
		<tag k="ssr:stedsnr" v="703578" />
	</node>
	<node id="-717950" lat="62.8726500012" lon="9.8390416615">
		<tag k="name" v="Puksnippen" />
		<tag k="natural" v="cape" />
		<tag k="ssr:stedsnr" v="703565" />
	</node>
	<node id="-717944" lat="62.8177527762" lon="9.50959722955">
		<tag k="name" v="Revtjønna" />
		<tag k="natural" v="water" />
		<tag k="ssr:stedsnr" v="558859" />
	</node>
	<node id="-717932" lat="62.8539444409" lon="9.80874999268">
		<tag k="name" v="Brattlibekken" />
		<tag k="ssr:stedsnr" v="521742" />
		<tag k="waterway" v="stream" />
	</node>
	<node id="-717928" lat="62.8119611109" lon="9.85819444862">
		<tag k="name" v="Nyengbekken" />
		<tag k="ssr:stedsnr" v="521708" />
		<tag k="waterway" v="stream" />
	</node>
	<node id="-717926" lat="62.9247944427" lon="9.78168332515">
		<tag k="name" v="Skjelsenghølen" />
		<tag k="place" v="locality" />
		<tag k="ssr:stedsnr" v="521658" />
	</node>
	<node id="-717922" lat="62.7604416649" lon="9.60949722127">
		<tag k="name" v="Eldåa" />
		<tag k="ssr:stedsnr" v="498890" />
		<tag k="waterway" v="river" />
	</node>
	<node id="-717920" lat="62.8510194487" lon="9.60648055576">
		<tag k="name" v="Helvatnet" />
		<tag k="natural" v="water" />
		<tag k="ssr:stedsnr" v="498853" />
	</node>
	<node id="-717919" lat="62.9284527809" lon="9.79471111226">
		<tag k="alt_name" v="Varja" />
		<tag k="name" v="Verja" />
		<tag k="ssr:stedsnr" v="497946" />
		<tag k="waterway" v="river" />
	</node>
	<node id="-717915" lat="62.8185691871" lon="9.7625653552">
		<tag k="name" v="Stavåvatna" />
		<tag k="natural" v="water" />
		<tag k="ssr:stedsnr" v="497542" />
		<tag k="water" v="lake" />
	</node>
	<node id="-717914" lat="62.7924305534" lon="9.74512221597">
		<tag k="name" v="Fremre Brattskarvtjønna" />
		<tag k="natural" v="water" />
		<tag k="ssr:stedsnr" v="680639" />
	</node>
	<node id="-717913" lat="62.7959277758" lon="9.93125000126">
		<tag k="name" v="Hildratjønna" />
		<tag k="natural" v="water" />
		<tag k="ssr:stedsnr" v="680634" />
	</node>
	<node id="-717912" lat="62.6159944459" lon="9.99790556268">
		<tag k="name" v="Strandbekken" />
		<tag k="ssr:stedsnr" v="497462" />
		<tag k="waterway" v="stream" />
	</node>
	<node id="-717909" lat="62.857975003" lon="9.51628611748">
		<tag k="name" v="Ondustjønna" />
		<tag k="natural" v="water" />
		<tag k="ssr:stedsnr" v="680231" />
	</node>
	<node id="-717908" lat="62.8631305565" lon="9.69111111642">
		<tag k="name" v="Raudbekken" />
		<tag k="ssr:stedsnr" v="680226" />
		<tag k="waterway" v="stream" />
	</node>
	<node id="-717906" lat="62.8041083333" lon="9.70467499473">
		<tag k="name" v="Storåa" />
		<tag k="ssr:stedsnr" v="679848" />
		<tag k="waterway" v="stream" />
	</node>
	<node id="-717905" lat="62.8359111079" lon="9.6092333269">
		<tag k="name" v="Distjønna" />
		<tag k="natural" v="water" />
		<tag k="ssr:stedsnr" v="679824" />
	</node>
	<node id="-717900" lat="62.8137222209" lon="10.1316555527">
		<tag k="name" v="Djupbekken" />
		<tag k="ssr:stedsnr" v="679530" />
		<tag k="waterway" v="stream" />
	</node>
	<node id="-717895" lat="62.7448000003" lon="10.17466112">
		<tag k="name" v="Øvre Stallitjønna" />
		<tag k="natural" v="water" />
		<tag k="ssr:stedsnr" v="679337" />
	</node>
	<node id="-717894" lat="62.7161694453" lon="9.84717778656">
		<tag k="name" v="Gisna" />
		<tag k="ssr:stedsnr" v="679285" />
		<tag k="waterway" v="river" />
	</node>
	<node id="-717892" lat="62.7000444426" lon="10.1601027722">
		<tag k="name" v="Nova" />
		<tag k="ssr:stedsnr" v="679267" />
		<tag k="waterway" v="river" />
	</node>
	<node id="-717890" lat="62.6732972212" lon="10.0491416603">
		<tag k="name" v="Litltjønna" />
		<tag k="natural" v="water" />
		<tag k="ssr:stedsnr" v="678282" />
	</node>
	<node id="-717881" lat="62.8542527757" lon="9.53950000293">
		<tag k="name" v="Storbekken" />
		<tag k="ssr:stedsnr" v="437816" />
		<tag k="waterway" v="river" />
	</node>
	<node id="-717880" lat="62.810300002" lon="9.51794167072">
		<tag k="name" v="Skriktjønnin" />
		<tag k="natural" v="water" />
		<tag k="ssr:stedsnr" v="437814" />
	</node>
	<node id="-717862" lat="62.844819447" lon="10.0197805609">
		<tag k="name" v="Buvatnet" />
		<tag k="natural" v="water" />
		<tag k="ssr:stedsnr" v="498933" />
		<tag k="water" v="lake" />
	</node>
	<node id="-717860" lat="62.7787583346" lon="10.1058777719">
		<tag k="name" v="Nertjønna" />
		<tag k="natural" v="water" />
		<tag k="ssr:stedsnr" v="376608" />
	</node>
	<node id="-717859" lat="62.9611305601" lon="9.809558324">
		<tag k="name" v="Jora" />
		<tag k="ssr:stedsnr" v="376818" />
		<tag k="waterway" v="stream" />
	</node>
	<node id="-717858" lat="62.7535472242" lon="9.65565555092">
		<tag k="name" v="Eldåtjønnin" />
		<tag k="natural" v="water" />
		<tag k="ssr:stedsnr" v="376807" />
	</node>
	<node id="-717857" lat="62.8627444462" lon="9.56938611952">
		<tag k="alt_name" v="Ondustjønna" />
		<tag k="name" v="Langtjønna" />
		<tag k="natural" v="water" />
		<tag k="ssr:stedsnr" v="498272" />
	</node>
	<node id="-717846" lat="62.8442361103" lon="9.61264721442">
		<tag k="name" v="Sætertjønna" />
		<tag k="natural" v="water" />
		<tag k="ssr:stedsnr" v="497842" />
	</node>
	<node id="-717845" lat="62.8205611073" lon="9.56847221375">
		<tag k="name" v="Skrepptjønna" />
		<tag k="natural" v="water" />
		<tag k="ssr:stedsnr" v="497831" />
	</node>
	<node id="-717842" lat="62.5737638857" lon="10.0317749914">
		<tag k="name" v="Kviknebekken" />
		<tag k="ssr:stedsnr" v="497401" />
		<tag k="waterway" v="stream" />
	</node>
	<node id="-717840" lat="62.7216722228" lon="10.0858861053">
		<tag k="name" v="Damtjønna" />
		<tag k="natural" v="water" />
		<tag k="ssr:stedsnr" v="497329" />
	</node>
	<node id="-717838" lat="62.7211027749" lon="10.1934749952">
		<tag k="name" v="Gråbergstjønna" />
		<tag k="natural" v="water" />
		<tag k="ssr:stedsnr" v="497322" />
	</node>
	<node id="-717833" lat="62.9384166639" lon="9.71010555941">
		<tag k="name" v="Sea" />
		<tag k="ssr:stedsnr" v="497211" />
		<tag k="waterway" v="stream" />
	</node>
	<node id="-717828" lat="62.7263555551" lon="9.90767777961">
		<tag k="name" v="Slættestjønna" />
		<tag k="natural" v="water" />
		<tag k="ssr:stedsnr" v="496339" />
	</node>
	<node id="-717827" lat="62.7347249998" lon="9.9553611015">
		<tag k="name" v="Merrabekken" />
		<tag k="ssr:stedsnr" v="496335" />
		<tag k="waterway" v="stream" />
	</node>
	<node id="-717826" lat="62.7341388863" lon="10.1730249975">
		<tag k="name" v="Nedre Stallitjønna" />
		<tag k="natural" v="water" />
		<tag k="ssr:stedsnr" v="496329" />
	</node>
	<node id="-717821" lat="62.7875833337" lon="9.63465555194">
		<tag k="name" v="Holsbekken" />
		<tag k="ssr:stedsnr" v="339589" />
		<tag k="waterway" v="stream" />
	</node>
	<node id="-717815" lat="62.8453944448" lon="9.60815554865">
		<tag k="name" v="Langvassgaptjønna" />
		<tag k="natural" v="water" />
		<tag k="ssr:stedsnr" v="339574" />
	</node>
	<node id="-717812" lat="62.8702055528" lon="9.64401945286">
		<tag k="name" v="Fossan" />
		<tag k="natural" v="waterfall" />
		<tag k="ssr:stedsnr" v="339562" />
	</node>
	<node id="-717798" lat="62.9323944433" lon="10.1859138867">
		<tag k="name" v="Ila" />
		<tag k="ssr:stedsnr" v="316972" />
		<tag k="waterway" v="river" />
	</node>
	<node id="-717792" lat="62.8595000031" lon="10.2256138976">
		<tag k="name" v="Storstavilla" />
		<tag k="ssr:stedsnr" v="316420" />
		<tag k="waterway" v="river" />
	</node>
	<node id="-717788" lat="62.6550805522" lon="10.0861388824">
		<tag k="name" v="Sætertjønna" />
		<tag k="natural" v="water" />
		<tag k="ssr:stedsnr" v="315265" />
	</node>
	<node id="-717787" lat="62.6613166692" lon="10.0742444383">
		<tag k="name" v="Fjellbekken" />
		<tag k="ssr:stedsnr" v="315260" />
		<tag k="waterway" v="stream" />
	</node>
	<node id="-717783" lat="62.965691666" lon="9.79118332762">
		<tag k="name" v="Jorhølen" />
		<tag k="place" v="locality" />
		<tag k="ssr:stedsnr" v="461979" />
	</node>
	<node id="-717781" lat="62.6509249989" lon="10.0147555503">
		<tag k="name" v="Sagfossen" />
		<tag k="natural" v="waterfall" />
		<tag k="ssr:stedsnr" v="461970" />
	</node>
	<node id="-717780" lat="62.623444447" lon="9.99555555109">
		<tag k="name" v="Vester Hølbekken" />
		<tag k="ssr:stedsnr" v="461966" />
		<tag k="waterway" v="stream" />
	</node>
	<node id="-717773" lat="62.7935805541" lon="10.0006194421">
		<tag k="name" v="Nylenfossen" />
		<tag k="natural" v="waterfall" />
		<tag k="ssr:stedsnr" v="461908" />
	</node>
	<node id="-717768" lat="62.8167694449" lon="10.1156861208">
		<tag k="name" v="Uvstjønna" />
		<tag k="natural" v="water" />
		<tag k="ssr:stedsnr" v="461814" />
	</node>
	<node id="-717766" lat="62.7519916666" lon="10.092063894">
		<tag k="name" v="Garslættbekken" />
		<tag k="ssr:stedsnr" v="461811" />
		<tag k="waterway" v="stream" />
	</node>
	<node id="-717755" lat="62.8574638913" lon="9.8428749915">
		<tag k="name" v="Bergshølen" />
		<tag k="place" v="locality" />
		<tag k="ssr:stedsnr" v="461750" />
	</node>
	<node id="-717752" lat="62.8191533764" lon="9.75670666939">
		<tag k="name" v="Fremre Stavåvatnet" />
		<tag k="natural" v="water" />
		<tag k="ssr:stedsnr" v="461714" />
		<tag k="water" v="lake" />
	</node>
	<node id="-717748" lat="62.9235222234" lon="9.78355277972">
		<tag k="name" v="Nystugguøya" />
		<tag k="place" v="islet" />
		<tag k="ssr:stedsnr" v="461682" />
	</node>
	<node id="-717747" lat="62.7678722267" lon="9.68991388707">
		<tag k="name" v="Sæterbekken" />
		<tag k="ssr:stedsnr" v="461679" />
		<tag k="waterway" v="stream" />
	</node>
	<node id="-717745" lat="62.7645722182" lon="9.69228332734">
		<tag k="name" v="Holubekken" />
		<tag k="ssr:stedsnr" v="461676" />
		<tag k="waterway" v="stream" />
	</node>
	<node id="-717742" lat="62.8261361146" lon="9.63762777545">
		<tag k="name" v="Vondmanntjønna" />
		<tag k="natural" v="water" />
		<tag k="ssr:stedsnr" v="461649" />
	</node>
	<node id="-717738" lat="62.8053249983" lon="9.57069166131">
		<tag k="name" v="Merkesbekken" />
		<tag k="ssr:stedsnr" v="461626" />
		<tag k="waterway" v="stream" />
	</node>
	<node id="-717737" lat="62.761847225" lon="9.94072777831">
		<tag k="name" v="Varbekken" />
		<tag k="ssr:stedsnr" v="461600" />
		<tag k="waterway" v="stream" />
	</node>
	<node id="-717736" lat="62.8099527786" lon="9.95596111466">
		<tag k="name" v="Svarttjønna" />
		<tag k="natural" v="water" />
		<tag k="ssr:stedsnr" v="461597" />
	</node>
	<node id="-717710" lat="62.8433500039" lon="9.84404166668">
		<tag k="name" v="Holmbekken" />
		<tag k="ssr:stedsnr" v="279719" />
		<tag k="waterway" v="stream" />
	</node>
	<node id="-717694" lat="62.7179999986" lon="10.0999500009">
		<tag k="name" v="Litldamtjønna" />
		<tag k="natural" v="water" />
		<tag k="ssr:stedsnr" v="271504" />
	</node>
	<node id="-717692" lat="62.8447777768" lon="9.62982222682">
		<tag k="name" v="Holmtjønna" />
		<tag k="natural" v="water" />
		<tag k="old_name" v="Halmtjørna" />
		<tag k="ssr:stedsnr" v="255858" />
	</node>
	<node id="-717689" lat="62.7528972245" lon="9.75265000473">
		<tag k="name" v="Gisnatjønna" />
		<tag k="natural" v="water" />
		<tag k="ssr:stedsnr" v="255624" />
	</node>
	<node id="-717686" lat="62.7850555564" lon="10.0798083289">
		<tag k="name" v="Døåa" />
		<tag k="ssr:stedsnr" v="255603" />
		<tag k="waterway" v="river" />
	</node>
	<node id="-717682" lat="62.8823138899" lon="9.68397500742">
		<tag k="name" v="Litlhela" />
		<tag k="ssr:stedsnr" v="255205" />
		<tag k="waterway" v="stream" />
	</node>
	<node id="-717681" lat="62.7187861117" lon="10.1644138941">
		<tag k="name" v="Vullunda" />
		<tag k="ssr:stedsnr" v="254306" />
		<tag k="waterway" v="river" />
	</node>
	<node id="-717665" lat="62.8279000009" lon="10.117744445">
		<tag k="name" v="Damåa" />
		<tag k="natural" v="bay" />
		<tag k="ssr:stedsnr" v="218808" />
	</node>
	<node id="-717662" lat="62.7227472262" lon="10.1158361058">
		<tag k="name" v="Rødbakkbekken" />
		<tag k="ssr:stedsnr" v="218802" />
		<tag k="waterway" v="stream" />
	</node>
	<node id="-717660" lat="62.8745111135" lon="9.83283332732">
		<tag k="name" v="Agnfetten" />
		<tag k="natural" v="cape" />
		<tag k="ssr:stedsnr" v="218741" />
	</node>
	<node id="-717652" lat="62.7264277737" lon="10.2205694484">
		<tag k="name" v="Nedre Grønlitjønna" />
		<tag k="natural" v="water" />
		<tag k="ssr:stedsnr" v="210505" />
	</node>
	<node id="-717651" lat="62.8086638851" lon="10.0995250012">
		<tag k="name" v="Storlibekken" />
		<tag k="ssr:stedsnr" v="202173" />
		<tag k="waterway" v="stream" />
	</node>
	<node id="-717650" lat="62.867394446" lon="9.51798332646">
		<tag k="name" v="Jølvatnet" />
		<tag k="natural" v="water" />
		<tag k="ssr:stedsnr" v="195232" />
		<tag k="water" v="lake" />
	</node>
	<node id="-717648" lat="62.8281416707" lon="10.1256916636">
		<tag k="name" v="Skaumsjøen" />
		<tag k="natural" v="water" />
		<tag k="ssr:stedsnr" v="194904" />
		<tag k="water" v="lake" />
	</node>
	<node id="-717645" lat="62.8413388851" lon="9.64488055198">
		<tag k="name" v="Storholttjønna" />
		<tag k="natural" v="water" />
		<tag k="ssr:stedsnr" v="194824" />
	</node>
	<node id="-717642" lat="62.8150472197" lon="9.81546943655">
		<tag k="name" v="Ramssjøen" />
		<tag k="natural" v="water" />
		<tag k="ssr:stedsnr" v="194515" />
		<tag k="water" v="lake" />
	</node>
	<node id="-717638" lat="62.7319749966" lon="10.2620000011">
		<tag k="name" v="Skrammelbekken" />
		<tag k="ssr:stedsnr" v="193413" />
		<tag k="waterway" v="stream" />
	</node>
	<node id="-717625" lat="62.7263444402" lon="10.071591661">
		<tag k="name" v="Damtjønnbekken" />
		<tag k="ssr:stedsnr" v="279952" />
		<tag k="waterway" v="stream" />
	</node>
	<node id="-717619" lat="62.8923277767" lon="9.91759445282">
		<tag k="name" v="Kalvtjønna" />
		<tag k="natural" v="water" />
		<tag k="ssr:stedsnr" v="279893" />
	</node>
	<node id="-717613" lat="62.7790916703" lon="10.140808332">
		<tag k="name" v="Hølbekken" />
		<tag k="ssr:stedsnr" v="279809" />
		<tag k="waterway" v="stream" />
	</node>
	<node id="-717610" lat="62.8052583302" lon="10.0855555457">
		<tag k="name" v="Vangsbekken" />
		<tag k="ssr:stedsnr" v="279780" />
		<tag k="waterway" v="stream" />
	</node>
	<node id="-719642" lat="62.8832777742" lon="9.96450000545">
		<tag k="name" v="Jønnsjøen" />
		<tag k="natural" v="water" />
		<tag k="ssr:stedsnr" v="862912" />
	</node>
	<node id="-719640" lat="62.8878833357" lon="10.0302249916">
		<tag k="name" v="Jønnåa" />
		<tag k="ssr:stedsnr" v="862907" />
		<tag k="waterway" v="stream" />
	</node>
	<node id="-719637" lat="62.876850002" lon="9.90906111087">
		<tag k="name" v="Røravatnet" />
		<tag k="natural" v="water" />
		<tag k="ssr:stedsnr" v="862898" />
	</node>
	<node id="-717584" lat="62.7729361107" lon="9.60002222033">
		<tag k="name" v="Grøna" />
		<tag k="ssr:stedsnr" v="279664" />
		<tag k="waterway" v="river" />
	</node>
	<node id="-719629" lat="62.8134333309" lon="9.52760832803">
		<tag k="name" v="Gråbekken" />
		<tag k="ssr:stedsnr" v="862839" />
		<tag k="waterway" v="stream" />
	</node>
	<node id="-717579" lat="62.9084527749" lon="9.81577221256">
		<tag k="name" v="Hammertjønna" />
		<tag k="natural" v="water" />
		<tag k="ssr:stedsnr" v="279646" />
	</node>
	<node id="-719626" lat="62.7625777782" lon="9.71085000312">
		<tag k="name" v="Fosslibekken" />
		<tag k="ssr:stedsnr" v="862797" />
		<tag k="waterway" v="stream" />
	</node>
	<node id="-719620" lat="62.7566972207" lon="9.82560833056">
		<tag k="name" v="Svartbekken" />
		<tag k="ssr:stedsnr" v="862590" />
		<tag k="waterway" v="stream" />
	</node>
	<node id="-719618" lat="62.7721972215" lon="9.75391944445">
		<tag k="name" v="Fremre Sætertjønna" />
		<tag k="natural" v="water" />
		<tag k="ssr:stedsnr" v="862582" />
	</node>
	<node id="-717568" lat="62.8694222231" lon="9.85686111412">
		<tag k="name" v="Skørva" />
		<tag k="ssr:stedsnr" v="278577" />
		<tag k="waterway" v="stream" />
	</node>
	<node id="-719614" lat="62.724724997" lon="9.68015278657">
		<tag k="name" v="Levra" />
		<tag k="ssr:stedsnr" v="861858" />
		<tag k="waterway" v="river" />
	</node>
	<node id="-719613" lat="62.6521138934" lon="10.0579499957">
		<tag k="alt_name" v="Skjeftesbekken;Skjeftleseggbekken" />
		<tag k="name" v="Skjeftliseggbekken" />
		<tag k="ssr:stedsnr" v="861252" />
		<tag k="waterway" v="stream" />
	</node>
	<node id="-717564" lat="62.7319055541" lon="10.2100333401">
		<tag k="name" v="Syndre Langtjønna" />
		<tag k="natural" v="water" />
		<tag k="ssr:stedsnr" v="149455" />
	</node>
	<node id="-717560" lat="62.8365194475" lon="9.56666111021">
		<tag k="name" v="Telvatnet" />
		<tag k="natural" v="water" />
		<tag k="ssr:stedsnr" v="133829" />
	</node>
	<node id="-719603" lat="62.9022333289" lon="9.61709444011">
		<tag k="name" v="Slaggbekken" />
		<tag k="ssr:stedsnr" v="825981" />
		<tag k="waterway" v="stream" />
	</node>
	<node id="-717549" lat="62.861413888" lon="9.89891388208">
		<tag k="name" v="Røra" />
		<tag k="ssr:stedsnr" v="255948" />
		<tag k="waterway" v="stream" />
	</node>
	<node id="-717542" lat="62.8426055535" lon="9.79327778749">
		<tag k="name" v="Storhauktjønna" />
		<tag k="natural" v="water" />
		<tag k="ssr:stedsnr" v="255939" />
	</node>
	<node id="-719588" lat="62.6986305528" lon="10.0976722234">
		<tag k="name" v="Bergstjønnbekken" />
		<tag k="ssr:stedsnr" v="825776" />
		<tag k="waterway" v="stream" />
	</node>
	<node id="-717538" lat="62.8857111084" lon="9.89972777742">
		<tag k="name" v="Skrutjønna" />
		<tag k="natural" v="water" />
		<tag k="ssr:stedsnr" v="255928" />
	</node>
	<node id="-719583" lat="62.9168583291" lon="10.0053750048">
		<tag k="name" v="Hestvatnet" />
		<tag k="natural" v="water" />
		<tag k="ssr:stedsnr" v="825746" />
		<tag k="water" v="lake" />
	</node>
	<node id="-717531" lat="62.6585944425" lon="10.0158027778">
		<tag k="name" v="Stenbekken" />
		<tag k="ssr:stedsnr" v="97965" />
		<tag k="waterway" v="stream" />
	</node>
	<node id="-719577" lat="62.7700361071" lon="9.71707778656">
		<tag k="name" v="Storbekken" />
		<tag k="ssr:stedsnr" v="825697" />
		<tag k="waterway" v="stream" />
	</node>
	<node id="-717527" lat="62.9710722223" lon="9.89256944431">
		<tag k="name" v="Øver-Svorka" />
		<tag k="ssr:stedsnr" v="97903" />
		<tag k="waterway" v="stream" />
	</node>
	<node id="-719558" lat="62.9210194441" lon="9.80274722082">
		<tag k="name" v="Løkkjbekken" />
		<tag k="ssr:stedsnr" v="825626" />
		<tag k="waterway" v="stream" />
	</node>
	<node id="-717508" lat="62.8762055513" lon="9.9499111073">
		<tag k="name" v="Finnvassbekken" />
		<tag k="ssr:stedsnr" v="97609" />
		<tag k="waterway" v="stream" />
	</node>
	<node id="-717507" lat="62.792672224" lon="9.79493333227">
		<tag k="name" v="Langvatnet" />
		<tag k="natural" v="water" />
		<tag k="ssr:stedsnr" v="255591" />
	</node>
	<node id="-717500" lat="62.6758555515" lon="9.94283889798">
		<tag k="name" v="Seljbrøstbekken" />
		<tag k="old_name" v="Selibrøstbekken" />
		<tag k="ssr:stedsnr" v="97575" />
		<tag k="waterway" v="stream" />
	</node>
	<node id="-719547" lat="62.9025416641" lon="9.81573610445">
		<tag k="name" v="Kjåttånda" />
		<tag k="ssr:stedsnr" v="825588" />
		<tag k="waterway" v="stream" />
	</node>
	<node id="-717494" lat="62.6955805591" lon="10.2164611096">
		<tag k="name" v="Storbekken" />
		<tag k="ssr:stedsnr" v="254285" />
		<tag k="waterway" v="stream" />
	</node>
	<node id="-719539" lat="62.8313055568" lon="9.93949167284">
		<tag k="name" v="Sandåa" />
		<tag k="ssr:stedsnr" v="825546" />
		<tag k="waterway" v="stream" />
	</node>
	<node id="-719535" lat="62.9192194473" lon="9.84393611642">
		<tag k="name" v="Kjåttånda" />
		<tag k="ssr:stedsnr" v="825528" />
		<tag k="waterway" v="stream" />
	</node>
	<node id="-717486" lat="62.9487777796" lon="9.8553166572">
		<tag k="alt_name" v="Litlvatnet" />
		<tag k="name" v="Jorvatnet" />
		<tag k="natural" v="water" />
		<tag k="ssr:stedsnr" v="73967" />
	</node>
	<node id="-719531" lat="62.950499997" lon="9.87956667615">
		<tag k="name" v="Fanabekken" />
		<tag k="ssr:stedsnr" v="825478" />
		<tag k="waterway" v="stream" />
	</node>
	<node id="-717481" lat="62.7883305592" lon="9.91144721654">
		<tag k="name" v="Våttåtjønna" />
		<tag k="natural" v="water" />
		<tag k="old_name" v="Ettre Våttåtjønna" />
		<tag k="ssr:stedsnr" v="73611" />
	</node>
	<node id="-717470" lat="62.6611888931" lon="10.016344454">
		<tag k="name" v="Vangbekken" />
		<tag k="ssr:stedsnr" v="36951" />
		<tag k="waterway" v="stream" />
	</node>
	<node id="-719510" lat="62.9233833311" lon="9.99533610203">
		<tag k="alt_name" v="Jøssåa" />
		<tag k="name" v="Ljosåa" />
		<tag k="ssr:stedsnr" v="801998" />
		<tag k="waterway" v="stream" />
	</node>
	<node id="-719506" lat="62.9433055545" lon="9.85383889353">
		<tag k="name" v="Jorfjelltjønna" />
		<tag k="natural" v="water" />
		<tag k="ssr:stedsnr" v="801957" />
	</node>
	<node id="-717453" lat="62.817772224" lon="9.56834166834">
		<tag k="name" v="Tverrbekktjønna" />
		<tag k="natural" v="water" />
		<tag k="ssr:stedsnr" v="12813" />
	</node>
	<node id="-717442" lat="62.7187027738" lon="10.0341111044">
		<tag k="name" v="Nyhusbekken" />
		<tag k="ssr:stedsnr" v="218990" />
		<tag k="waterway" v="stream" />
	</node>
	<node id="-717439" lat="62.9659444467" lon="9.86539167026">
		<tag k="name" v="Holmen" />
		<tag k="place" v="islet" />
		<tag k="ssr:stedsnr" v="218970" />
	</node>
	<node id="-717438" lat="62.5973388865" lon="10.0412999939">
		<tag k="name" v="Hestmobekken" />
		<tag k="ssr:stedsnr" v="218957" />
		<tag k="waterway" v="stream" />
	</node>
	<node id="-717437" lat="62.6066250022" lon="10.0139611145">
		<tag k="name" v="Kvølvdalsbekken" />
		<tag k="ssr:stedsnr" v="218939" />
		<tag k="waterway" v="stream" />
	</node>
	<node id="-719484" lat="62.9668361071" lon="9.86159722711">
		<tag k="name" v="Vika" />
		<tag k="natural" v="bay" />
		<tag k="ssr:stedsnr" v="764979" />
	</node>
	<node id="-717435" lat="62.9552333348" lon="9.78159999338">
		<tag k="name" v="Gorsethølen" />
		<tag k="place" v="locality" />
		<tag k="ssr:stedsnr" v="218937" />
	</node>
	<node id="-717434" lat="62.5981305575" lon="10.0490500039">
		<tag k="name" v="Skortjønna" />
		<tag k="natural" v="water" />
		<tag k="ssr:stedsnr" v="218935" />
	</node>
	<node id="-717428" lat="62.7120333318" lon="10.1609833384">
		<tag k="name" v="Vulunda" />
		<tag k="ssr:stedsnr" v="218863" />
		<tag k="waterway" v="stream" />
	</node>
	<node id="-717427" lat="62.6931611147" lon="10.1922777751">
		<tag k="name" v="Synner Vangbekken" />
		<tag k="ssr:stedsnr" v="218861" />
		<tag k="waterway" v="stream" />
	</node>
	<node id="-717425" lat="62.7424138905" lon="9.84651388483">
		<tag k="name" v="Gravdalsbekken" />
		<tag k="ssr:stedsnr" v="218699" />
		<tag k="waterway" v="stream" />
	</node>
	<node id="-717424" lat="62.8208833347" lon="9.75412499068">
		<tag k="name" v="Krokråbekken" />
		<tag k="ssr:stedsnr" v="218696" />
		<tag k="waterway" v="stream" />
	</node>
	<node id="-717419" lat="62.9494305561" lon="9.77712776983">
		<tag k="name" v="Pollhølen" />
		<tag k="place" v="locality" />
		<tag k="ssr:stedsnr" v="218668" />
	</node>
	<node id="-719457" lat="62.9221722181" lon="9.78414722148">
		<tag k="name" v="Håmmårsøya" />
		<tag k="place" v="islet" />
		<tag k="ssr:stedsnr" v="764648" />
	</node>
	<node id="-717408" lat="62.8081222259" lon="10.0110277874">
		<tag k="name" v="Ingridøya" />
		<tag k="place" v="island" />
		<tag k="ssr:stedsnr" v="218757" />
	</node>
	<node id="-717406" lat="62.861711114" lon="9.92632778521">
		<tag k="alt_name" v="Haugseterbekken" />
		<tag k="name" v="Haugsæterbekken" />
		<tag k="ssr:stedsnr" v="218595" />
		<tag k="waterway" v="stream" />
	</node>
	<node id="-717405" lat="62.828172221" lon="9.90592777622">
		<tag k="name" v="Hildra" />
		<tag k="ssr:stedsnr" v="218566" />
		<tag k="waterway" v="stream" />
	</node>
	<node id="-719450" lat="62.8096499965" lon="9.59950556497">
		<tag k="name" v="Minnilla" />
		<tag k="ssr:stedsnr" v="764598" />
		<tag k="waterway" v="river" />
	</node>
	<node id="-719449" lat="62.8693500039" lon="9.90659167588">
		<tag k="name" v="Knipdalsbekken" />
		<tag k="ssr:stedsnr" v="764596" />
		<tag k="waterway" v="stream" />
	</node>
	<node id="-719448" lat="62.8343444474" lon="9.940608329">
		<tag k="name" v="Bogahølen" />
		<tag k="place" v="locality" />
		<tag k="ssr:stedsnr" v="764594" />
	</node>
	<node id="-719446" lat="62.8357305579" lon="9.95435000855">
		<tag k="name" v="Berghølen" />
		<tag k="place" v="locality" />
		<tag k="ssr:stedsnr" v="764589" />
	</node>
	<node id="-719445" lat="62.8315249978" lon="9.95018055181">
		<tag k="name" v="Bergtjønna" />
		<tag k="natural" v="water" />
		<tag k="ssr:stedsnr" v="764574" />
	</node>
	<node id="-719443" lat="62.9110249985" lon="9.82784999418">
		<tag k="name" v="Tjåttånda" />
		<tag k="ssr:stedsnr" v="764564" />
		<tag k="waterway" v="stream" />
	</node>
	<node id="-719435" lat="62.7567361123" lon="9.76722777898">
		<tag k="name" v="Gråbekken" />
		<tag k="ssr:stedsnr" v="764710" />
		<tag k="waterway" v="stream" />
	</node>
	<node id="-719433" lat="62.9357111152" lon="9.81122499992">
		<tag k="name" v="Kongensbekken" />
		<tag k="ssr:stedsnr" v="764695" />
		<tag k="waterway" v="stream" />
	</node>
	<node id="-719425" lat="62.6858500043" lon="9.96055834236">
		<tag k="name" v="Tjønnan" />
		<tag k="natural" v="water" />
		<tag k="ssr:stedsnr" v="764555" />
	</node>
	<node id="-719422" lat="62.8665333352" lon="10.0273388974">
		<tag k="name" v="Bjørbekken" />
		<tag k="ssr:stedsnr" v="764178" />
		<tag k="waterway" v="stream" />
	</node>
	<node id="-719420" lat="62.8578805535" lon="10.0729972252">
		<tag k="name" v="Vadløkkjbekken" />
		<tag k="ssr:stedsnr" v="764176" />
		<tag k="waterway" v="stream" />
	</node>
	<node id="-719419" lat="62.8598583326" lon="9.98574721504">
		<tag k="name" v="Trondtjønna" />
		<tag k="natural" v="water" />
		<tag k="ssr:stedsnr" v="764168" />
	</node>
	<node id="-719410" lat="62.8818444456" lon="9.75821388647">
		<tag k="name" v="Hestvatnet" />
		<tag k="natural" v="water" />
		<tag k="ssr:stedsnr" v="748183" />
		<tag k="water" v="lake" />
	</node>
	<node id="-719408" lat="62.9264999985" lon="9.84627777644">
		<tag k="name" v="Savaltjønna" />
		<tag k="natural" v="water" />
		<tag k="ssr:stedsnr" v="740935" />
	</node>
	<node id="-719407" lat="62.8365333297" lon="9.82976944696">
		<tag k="name" v="Tynna" />
		<tag k="ssr:stedsnr" v="740912" />
		<tag k="waterway" v="stream" />
	</node>
	<node id="-719403" lat="62.7980499983" lon="9.68888055433">
		<tag k="name" v="Brattskarvbekken" />
		<tag k="ssr:stedsnr" v="740844" />
		<tag k="waterway" v="stream" />
	</node>
	<node id="-719402" lat="62.811044445" lon="9.58884721711">
		<tag k="name" v="Tverrbekken" />
		<tag k="ssr:stedsnr" v="740843" />
		<tag k="waterway" v="stream" />
	</node>
	<node id="-719401" lat="62.8340500029" lon="9.618047216">
		<tag k="name" v="Badartjønna" />
		<tag k="natural" v="water" />
		<tag k="ssr:stedsnr" v="740826" />
	</node>
	<node id="-719398" lat="62.9562916645" lon="9.80169722327">
		<tag k="name" v="Igda" />
		<tag k="ssr:stedsnr" v="740783" />
		<tag k="waterway" v="stream" />
	</node>
	<node id="-719395" lat="62.778947226" lon="9.76089723091">
		<tag k="name" v="Ettre Sætertjønna" />
		<tag k="natural" v="water" />
		<tag k="ssr:stedsnr" v="740583" />
	</node>
	<node id="-719393" lat="62.5889416665" lon="10.0548861111">
		<tag k="name" v="Storbekken" />
		<tag k="ssr:stedsnr" v="740445" />
		<tag k="waterway" v="stream" />
	</node>
	<node id="-719391" lat="62.6457972247" lon="10.0378111064">
		<tag k="name" v="Stortjønna" />
		<tag k="natural" v="water" />
		<tag k="ssr:stedsnr" v="739482" />
	</node>
	<node id="-719387" lat="62.9646000033" lon="9.79630554624">
		<tag k="name" v="Jøssåa" />
		<tag k="ssr:stedsnr" v="643786" />
		<tag k="waterway" v="stream" />
	</node>
	<node id="-719371" lat="62.6055888915" lon="10.038347227">
		<tag k="name" v="Næringøyan" />
		<tag k="natural" v="cape" />
		<tag k="ssr:stedsnr" v="642932" />
	</node>
	<node id="-719369" lat="62.8963722178" lon="9.93113055423">
		<tag k="name" v="Langvassbekken" />
		<tag k="ssr:stedsnr" v="642872" />
		<tag k="waterway" v="stream" />
	</node>
	<node id="-719365" lat="62.7272027751" lon="10.1251083355">
		<tag k="name" v="Måssåkoidalbekken" />
		<tag k="ssr:stedsnr" v="642778" />
		<tag k="waterway" v="stream" />
	</node>
	<node id="-719363" lat="62.701333332" lon="10.130866662">
		<tag k="name" v="Lemenøya" />
		<tag k="natural" v="cape" />
		<tag k="ssr:stedsnr" v="642772" />
	</node>
	<node id="-719360" lat="62.8307833358" lon="9.97036666333">
		<tag k="name" v="Øya" />
		<tag k="place" v="island" />
		<tag k="ssr:stedsnr" v="642761" />
	</node>
	<node id="-719350" lat="62.8440111144" lon="9.88033889318">
		<tag k="name" v="Mesloøyan" />
		<tag k="place" v="islet" />
		<tag k="ssr:stedsnr" v="642715" />
	</node>
	<node id="-719349" lat="62.7534416627" lon="9.81154722131">
		<tag k="name" v="Husbekken" />
		<tag k="ssr:stedsnr" v="642700" />
		<tag k="waterway" v="stream" />
	</node>
	<node id="-717565" lat="62.9221194446" lon="9.9087888964">
		<tag k="name" v="Ner Iltjønna" />
		<tag k="natural" v="water" />
		<tag k="ssr:stedsnr" v="278274" />
	</node>
	<node id="-719335" lat="62.8960194488" lon="9.80201667535">
		<tag k="name" v="Ruggu" />
		<tag k="ssr:stedsnr" v="642635" />
		<tag k="waterway" v="stream" />
	</node>
	<node id="-719326" lat="62.7910166648" lon="9.57885556406">
		<tag k="name" v="Kjølbekken" />
		<tag k="ssr:stedsnr" v="642586" />
		<tag k="waterway" v="stream" />
	</node>
	<node id="-719325" lat="62.8361611146" lon="9.95622222493">
		<tag k="name" v="Sliperhølen" />
		<tag k="place" v="locality" />
		<tag k="ssr:stedsnr" v="642585" />
	</node>
	<node id="-719322" lat="62.858472222" lon="9.94888610775">
		<tag k="name" v="Fjellslættbekken" />
		<tag k="ssr:stedsnr" v="642578" />
		<tag k="waterway" v="stream" />
	</node>
	<node id="-719310" lat="62.842616669" lon="9.63955556487">
		<tag k="name" v="Storholttjønnin" />
		<tag k="natural" v="water" />
		<tag k="ssr:stedsnr" v="642505" />
	</node>
	<node id="-719306" lat="62.7246750037" lon="10.2156055556">
		<tag k="name" v="Øvre Grønlitjønna" />
		<tag k="natural" v="water" />
		<tag k="ssr:stedsnr" v="634478" />
	</node>
	<node id="-719300" lat="62.8788777795" lon="9.74170000167">
		<tag k="name" v="Lauva" />
		<tag k="ssr:stedsnr" v="619895" />
		<tag k="waterway" v="river" />
	</node>
	<node id="-719299" lat="62.8594166668" lon="9.99319166485">
		<tag k="name" v="Jønnåa" />
		<tag k="ssr:stedsnr" v="619892" />
		<tag k="waterway" v="stream" />
	</node>
	<node id="-719294" lat="62.7685333325" lon="9.86235278404">
		<tag k="name" v="Hevertjønna" />
		<tag k="natural" v="water" />
		<tag k="ssr:stedsnr" v="619628" />
	</node>
	<node id="-719292" lat="62.7839583356" lon="9.79073888632">
		<tag k="name" v="Holmtjønna" />
		<tag k="natural" v="water" />
		<tag k="ssr:stedsnr" v="619625" />
	</node>
	<node id="-719291" lat="62.7849555576" lon="9.7668833285">
		<tag k="name" v="Ettre Brattskarvtjønna" />
		<tag k="natural" v="water" />
		<tag k="ssr:stedsnr" v="619619" />
	</node>
	<node id="-717555" lat="62.827644445" lon="9.656836114">
		<tag k="name" v="Øverlandsbekken" />
		<tag k="ssr:stedsnr" v="133807" />
		<tag k="waterway" v="stream" />
	</node>
	<node id="-719280" lat="62.6899916635" lon="10.0128277873">
		<tag k="name" v="Svarttjønna" />
		<tag k="natural" v="water" />
		<tag k="ssr:stedsnr" v="617291" />
	</node>
	<node id="-719276" lat="62.6372444482" lon="10.0063888974">
		<tag k="name" v="Langhølen" />
		<tag k="place" v="locality" />
		<tag k="ssr:stedsnr" v="582976" />
	</node>
	<node id="-719275" lat="62.6913777734" lon="9.99971111082">
		<tag k="name" v="Svarttjønnbekken" />
		<tag k="ssr:stedsnr" v="582966" />
		<tag k="waterway" v="stream" />
	</node>
	<node id="-719274" lat="62.953100003" lon="9.77879167611">
		<tag k="name" v="Krakøya" />
		<tag k="place" v="island" />
		<tag k="ssr:stedsnr" v="582963" />
	</node>
	<node id="-719267" lat="62.6976222211" lon="10.1900888946">
		<tag k="name" v="Koibekken" />
		<tag k="ssr:stedsnr" v="582844" />
		<tag k="waterway" v="stream" />
	</node>
	<node id="-719261" lat="62.7312277801" lon="10.1119444521">
		<tag k="name" v="Glåmtjønna" />
		<tag k="natural" v="water" />
		<tag k="ssr:stedsnr" v="582802" />
	</node>
	<node id="-719254" lat="62.8036999999" lon="9.62900277474">
		<tag k="name" v="Varghaugbekken" />
		<tag k="ssr:stedsnr" v="582619" />
		<tag k="waterway" v="stream" />
	</node>
	<node id="-719251" lat="62.853988889" lon="9.59991388898">
		<tag k="name" v="Merkesbekken" />
		<tag k="ssr:stedsnr" v="582599" />
		<tag k="waterway" v="stream" />
	</node>
	<node id="-719250" lat="62.8684083355" lon="9.84115277886">
		<tag k="name" v="Skørva" />
		<tag k="ssr:stedsnr" v="582579" />
		<tag k="waterway" v="stream" />
	</node>
	<node id="-719245" lat="62.7191833346" lon="9.90778055939">
		<tag k="name" v="Hølbekken" />
		<tag k="ssr:stedsnr" v="582548" />
		<tag k="waterway" v="stream" />
	</node>
	<node id="-719237" lat="62.8425388877" lon="9.86086944622">
		<tag k="name" v="Miganbekken" />
		<tag k="ssr:stedsnr" v="582734" />
		<tag k="waterway" v="stream" />
	</node>
	<node id="-719235" lat="62.9341000004" lon="9.76980555843">
		<tag k="name" v="Korsholen" />
		<tag k="place" v="locality" />
		<tag k="ssr:stedsnr" v="582694" />
	</node>
	<node id="-719223" lat="62.752061111" lon="10.0338444488">
		<tag k="name" v="Olabekken" />
		<tag k="ssr:stedsnr" v="581981" />
		<tag k="waterway" v="stream" />
	</node>
	<node id="-719220" lat="62.8247916701" lon="9.98767221575">
		<tag k="name" v="Langhølen" />
		<tag k="place" v="locality" />
		<tag k="ssr:stedsnr" v="581776" />
	</node>
	<node id="-719204" lat="62.9080868364" lon="9.51828363234">
		<tag k="alt_name" v="Fremmer Bekkdalsbekken" />
		<tag k="name" v="Fremre Bekkdalsbekken" />
		<tag k="ssr:stedsnr" v="574559" />
		<tag k="waterway" v="stream" />
	</node>
	<node id="-719198" lat="62.8923333324" lon="9.92592500133">
		<tag k="name" v="Langvatnet" />
		<tag k="natural" v="water" />
		<tag k="ssr:stedsnr" v="558977" />
	</node>
	<node id="-719195" lat="62.9634361097" lon="9.89295556525">
		<tag k="name" v="Storbekken" />
		<tag k="ssr:stedsnr" v="558846" />
		<tag k="waterway" v="stream" />
	</node>
	<node id="-719194" lat="62.8487527736" lon="9.76916666517">
		<tag k="name" v="Gåsvatnet" />
		<tag k="natural" v="water" />
		<tag k="ssr:stedsnr" v="558943" />
	</node>
	<node id="-719193" lat="62.8450944405" lon="9.98510556228">
		<tag k="alt_name" v="Egganåa" />
		<tag k="name" v="Eggjåa" />
		<tag k="ssr:stedsnr" v="558940" />
		<tag k="waterway" v="stream" />
	</node>
	<node id="-719192" lat="62.8445388875" lon="9.9674305499">
		<tag k="name" v="Brea" />
		<tag k="ssr:stedsnr" v="558939" />
		<tag k="waterway" v="stream" />
	</node>
	<node id="-719188" lat="62.9245111131" lon="9.69259721993">
		<tag k="name" v="Svartbekken" />
		<tag k="ssr:stedsnr" v="558896" />
		<tag k="waterway" v="stream" />
	</node>
	<node id="-719180" lat="63.2742861149" lon="9.80612777788">
		<tag k="name" v="Orkla" />
		<tag k="ssr:stedsnr" v="557512" />
		<tag k="waterway" v="river" />
	</node>
	<node id="-719175" lat="62.6145583373" lon="10.076608324">
		<tag k="alt_name" v="Kaldbekken" />
		<tag k="name" v="Kalddalsbekken" />
		<tag k="ssr:stedsnr" v="557427" />
		<tag k="waterway" v="stream" />
	</node>
	<node id="-719165" lat="62.9577472234" lon="9.78028611348">
		<tag k="name" v="Bruholtøya" />
		<tag k="place" v="island" />
		<tag k="ssr:stedsnr" v="522983" />
	</node>
	<node id="-719138" lat="62.7962361069" lon="10.0114888894">
		<tag k="name" v="Sæterbekken" />
		<tag k="ssr:stedsnr" v="521891" />
		<tag k="waterway" v="stream" />
	</node>
	<node id="-719137" lat="62.7710638931" lon="9.98244723066">
		<tag k="name" v="Filakkhåmmåren" />
		<tag k="natural" v="cape" />
		<tag k="ssr:stedsnr" v="521881" />
	</node>
	<node id="-719134" lat="62.893733334" lon="9.96450278419">
		<tag k="name" v="Tjønnfossen" />
		<tag k="natural" v="waterfall" />
		<tag k="ssr:stedsnr" v="521832" />
	</node>
	<node id="-719133" lat="62.8430166709" lon="9.86884444358">
		<tag k="name" v="Ærhølen" />
		<tag k="place" v="locality" />
		<tag k="ssr:stedsnr" v="521829" />
	</node>
	<node id="-719127" lat="62.7048833377" lon="10.0932027771">
		<tag k="name" v="Gruvbekken" />
		<tag k="ssr:stedsnr" v="521790" />
		<tag k="waterway" v="stream" />
	</node>
	<node id="-719124" lat="62.7547833338" lon="10.0294749918">
		<tag k="name" v="Åsbekken" />
		<tag k="ssr:stedsnr" v="521784" />
		<tag k="waterway" v="stream" />
	</node>
	<node id="-719119" lat="62.8078138868" lon="10.0675805486">
		<tag k="name" v="Skomakertjønna" />
		<tag k="natural" v="water" />
		<tag k="ssr:stedsnr" v="521769" />
	</node>
	<node id="-719111" lat="62.8897916653" lon="9.77210834143">
		<tag k="name" v="Klevtjønna" />
		<tag k="natural" v="water" />
		<tag k="ssr:stedsnr" v="521686" />
	</node>
	<node id="-719107" lat="62.9213277774" lon="9.78665555925">
		<tag k="name" v="Røsøya" />
		<tag k="place" v="islet" />
		<tag k="ssr:stedsnr" v="521651" />
	</node>
	<node id="-719106" lat="62.9276694423" lon="9.81822777624">
		<tag k="name" v="Røssbekken" />
		<tag k="ssr:stedsnr" v="521646" />
		<tag k="waterway" v="stream" />
	</node>
	<node id="-719098" lat="62.8251499962" lon="9.62748055995">
		<tag k="name" v="Fremmer Fjellbekken" />
		<tag k="ssr:stedsnr" v="521608" />
		<tag k="waterway" v="stream" />
	</node>
	<node id="-719096" lat="62.8250305587" lon="9.6176555536">
		<tag k="name" v="Borter Fjellbekken" />
		<tag k="ssr:stedsnr" v="521606" />
		<tag k="waterway" v="stream" />
	</node>
	<node id="-719086" lat="62.7236083295" lon="9.91399445367">
		<tag k="name" v="Litlslættestjønna" />
		<tag k="natural" v="water" />
		<tag k="ssr:stedsnr" v="521557" />
	</node>
	<node id="-719084" lat="62.8819861139" lon="9.90573056403">
		<tag k="name" v="Svartvatnet" />
		<tag k="natural" v="water" />
		<tag k="ssr:stedsnr" v="521554" />
	</node>
	<node id="-719083" lat="62.9468333371" lon="9.8595194398">
		<tag k="name" v="Litl-Jorda" />
		<tag k="natural" v="water" />
		<tag k="ssr:stedsnr" v="521552" />
	</node>
	<node id="-719070" lat="62.9195916647" lon="9.93456388525">
		<tag k="name" v="Småtjønnin" />
		<tag k="natural" v="water" />
		<tag k="ssr:stedsnr" v="437992" />
	</node>
	<node id="-719068" lat="62.8937777796" lon="10.0588416626">
		<tag k="name" v="Urvatnet" />
		<tag k="natural" v="water" />
		<tag k="ssr:stedsnr" v="437968" />
	</node>
	<node id="-719066" lat="62.9199944442" lon="9.86501389483">
		<tag k="name" v="Svarttjønna" />
		<tag k="natural" v="water" />
		<tag k="ssr:stedsnr" v="437933" />
	</node>
	<node id="-719061" lat="62.8680749961" lon="9.81937777048">
		<tag k="name" v="Rukku" />
		<tag k="ssr:stedsnr" v="437859" />
		<tag k="waterway" v="stream" />
	</node>
	<node id="-719056" lat="62.7555222192" lon="10.1044194393">
		<tag k="name" v="Døvatnet" />
		<tag k="natural" v="water" />
		<tag k="ssr:stedsnr" v="437616" />
		<tag k="water" v="lake" />
	</node>
	<node id="-719049" lat="62.7482277744" lon="9.95030000559">
		<tag k="name" v="Hevra" />
		<tag k="ssr:stedsnr" v="436335" />
		<tag k="waterway" v="river" />
	</node>
	<node id="-719046" lat="62.5875861087" lon="10.0260250096">
		<tag k="name" v="Næringa" />
		<tag k="ssr:stedsnr" v="436438" />
		<tag k="waterway" v="river" />
	</node>
	<node id="-719038" lat="62.9600638898" lon="9.80244721898">
		<tag k="name" v="Litl-Jora" />
		<tag k="ssr:stedsnr" v="400993" />
		<tag k="waterway" v="stream" />
	</node>
	<node id="-719036" lat="62.9615611092" lon="9.78462777626">
		<tag k="name" v="Egdhølen" />
		<tag k="place" v="locality" />
		<tag k="ssr:stedsnr" v="400988" />
	</node>
	<node id="-719032" lat="62.8956472205" lon="9.61585278024">
		<tag k="name" v="Stenraklet" />
		<tag k="ssr:stedsnr" v="400965" />
		<tag k="waterway" v="stream" />
	</node>
	<node id="-719027" lat="62.6049999994" lon="10.0265194499">
		<tag k="name" v="Nysæterbekken" />
		<tag k="ssr:stedsnr" v="400953" />
		<tag k="waterway" v="stream" />
	</node>
	<node id="-719020" lat="62.9641388857" lon="9.88158056291">
		<tag k="name" v="Stor-Krokåtvatnet" />
		<tag k="natural" v="water" />
		<tag k="ssr:stedsnr" v="400915" />
		<tag k="water" v="lake" />
	</node>
	<node id="-719019" lat="62.9676749994" lon="9.87196666632">
		<tag k="name" v="Osen" />
		<tag k="natural" v="bay" />
		<tag k="ssr:stedsnr" v="400914" />
	</node>
	<node id="-719016" lat="62.893766664" lon="9.90882499825">
		<tag k="name" v="Litl Hurrundsjøen" />
		<tag k="natural" v="water" />
		<tag k="ssr:stedsnr" v="400908" />
	</node>
	<node id="-719015" lat="62.8923111149" lon="9.94504444015">
		<tag k="name" v="Baklibekken" />
		<tag k="ssr:stedsnr" v="400905" />
		<tag k="waterway" v="stream" />
	</node>
	<node id="-719013" lat="62.7757999986" lon="9.97721666732">
		<tag k="name" v="Kastløkkjbekken" />
		<tag k="ssr:stedsnr" v="400899" />
		<tag k="waterway" v="stream" />
	</node>
	<node id="-719002" lat="62.8699250037" lon="10.0447777777">
		<tag k="name" v="Bjørbekken" />
		<tag k="ssr:stedsnr" v="400815" />
		<tag k="waterway" v="stream" />
	</node>
	<node id="-719001" lat="62.7436444429" lon="10.0990888899">
		<tag k="name" v="Kringeltjønna" />
		<tag k="natural" v="water" />
		<tag k="ssr:stedsnr" v="400813" />
	</node>
	<node id="-718998" lat="62.701844448" lon="10.1287083273">
		<tag k="name" v="Hyttøya" />
		<tag k="natural" v="cape" />
		<tag k="ssr:stedsnr" v="400796" />
	</node>
	<node id="-718993" lat="62.87283333" lon="9.78959445165">
		<tag k="name" v="Rukku" />
		<tag k="ssr:stedsnr" v="400759" />
		<tag k="waterway" v="stream" />
	</node>
	<node id="-718986" lat="62.8148444452" lon="9.87642777664">
		<tag k="name" v="Kverntjønna" />
		<tag k="natural" v="water" />
		<tag k="ssr:stedsnr" v="400725" />
	</node>
	<node id="-718967" lat="62.8959888882" lon="9.8264999986">
		<tag k="name" v="Sandåa" />
		<tag k="ssr:stedsnr" v="400637" />
		<tag k="waterway" v="stream" />
	</node>
	<node id="-718947" lat="62.9130833296" lon="9.85588887956">
		<tag k="name" v="Grafjelltjønna" />
		<tag k="natural" v="water" />
		<tag k="ssr:stedsnr" v="400550" />
	</node>
	<node id="-718946" lat="62.8878472197" lon="9.74511388784">
		<tag k="name" v="Kroktjønna" />
		<tag k="natural" v="water" />
		<tag k="ssr:stedsnr" v="400538" />
	</node>
	<node id="-717499" lat="62.8423472213" lon="9.90561111132">
		<tag k="name" v="Førreshølen" />
		<tag k="place" v="locality" />
		<tag k="ssr:stedsnr" v="97574" />
	</node>
	<node id="-718939" lat="62.865325001" lon="9.83016388748">
		<tag k="name" v="Ramsesbekken" />
		<tag k="ssr:stedsnr" v="399702" />
		<tag k="waterway" v="stream" />
	</node>
	<node id="-718935" lat="62.8756499981" lon="9.83981666564">
		<tag k="name" v="Drøkkjabekken" />
		<tag k="ssr:stedsnr" v="399532" />
		<tag k="waterway" v="stream" />
	</node>
	<node id="-718933" lat="62.9547666703" lon="9.87559999715">
		<tag k="name" v="Fanabekken" />
		<tag k="ssr:stedsnr" v="384200" />
		<tag k="waterway" v="river" />
	</node>
	<node id="-718932" lat="62.8432083354" lon="9.71966944262">
		<tag k="name" v="Grana" />
		<tag k="ssr:stedsnr" v="384186" />
		<tag k="waterway" v="river" />
	</node>
	<node id="-718930" lat="62.9166944408" lon="10.0067250082">
		<tag k="alt_name" v="Hestvatnet" />
		<tag k="name" v="Hostvatnet" />
		<tag k="natural" v="water" />
		<tag k="ssr:stedsnr" v="376990" />
	</node>
	<node id="-718922" lat="62.8232444463" lon="9.79191110705">
		<tag k="name" v="Langvatnet" />
		<tag k="natural" v="water" />
		<tag k="ssr:stedsnr" v="376918" />
	</node>
	<node id="-718919" lat="62.8631187615" lon="9.77254224265">
		<tag k="name" v="Furusjøen" />
		<tag k="natural" v="water" />
		<tag k="ssr:stedsnr" v="376886" />
		<tag k="water" v="lake" />
	</node>
	<node id="-718915" lat="62.8220861131" lon="9.45291943722">
		<tag k="name" v="Sandtjønna" />
		<tag k="natural" v="water" />
		<tag k="ssr:stedsnr" v="376839" />
	</node>
	<node id="-718911" lat="62.9237250034" lon="9.53929999709">
		<tag k="name" v="Jøla" />
		<tag k="ssr:stedsnr" v="376243" />
		<tag k="waterway" v="river" />
	</node>
	<node id="-718909" lat="62.8734777767" lon="9.55819167595">
		<tag k="name" v="Retbekken" />
		<tag k="ssr:stedsnr" v="376211" />
		<tag k="waterway" v="stream" />
	</node>
	<node id="-718905" lat="62.7439694438" lon="10.0094666699">
		<tag k="alt_name" v="Jernåa" />
		<tag k="name" v="Jønnåa" />
		<tag k="ssr:stedsnr" v="375338" />
		<tag k="waterway" v="stream" />
	</node>
	<node id="-718901" lat="62.7157277789" lon="10.1211361174">
		<tag k="name" v="Grytbekken" />
		<tag k="ssr:stedsnr" v="375293" />
		<tag k="waterway" v="stream" />
	</node>
	<node id="-718895" lat="62.7805111111" lon="10.0116027808">
		<tag k="name" v="Langvella" />
		<tag k="ssr:stedsnr" v="358588" />
		<tag k="waterway" v="stream" />
	</node>
	<node id="-718891" lat="62.637627774" lon="10.0324249972">
		<tag k="name" v="Stortjønnbekken" />
		<tag k="ssr:stedsnr" v="340000" />
		<tag k="waterway" v="stream" />
	</node>
	<node id="-718887" lat="62.6749444421" lon="10.0549000052">
		<tag k="name" v="Tyskseterbekken" />
		<tag k="ssr:stedsnr" v="339990" />
		<tag k="waterway" v="stream" />
	</node>
	<node id="-718871" lat="62.7953083362" lon="10.0156472169">
		<tag k="name" v="Setertjønna" />
		<tag k="natural" v="water" />
		<tag k="ssr:stedsnr" v="339883" />
	</node>
	<node id="-718870" lat="62.9123055571" lon="9.91846389626">
		<tag k="name" v="Storfossen" />
		<tag k="natural" v="waterfall" />
		<tag k="ssr:stedsnr" v="339879" />
	</node>
	<node id="-718868" lat="62.7728194427" lon="9.98173888848">
		<tag k="name" v="Løvhølen" />
		<tag k="place" v="locality" />
		<tag k="ssr:stedsnr" v="339864" />
	</node>
	<node id="-718863" lat="62.9033833335" lon="10.0376555463">
		<tag k="name" v="Merrabekken" />
		<tag k="ssr:stedsnr" v="339816" />
		<tag k="waterway" v="stream" />
	</node>
	<node id="-718862" lat="62.8297000004" lon="9.94302778311">
		<tag k="name" v="Bogabekken" />
		<tag k="ssr:stedsnr" v="339811" />
		<tag k="waterway" v="stream" />
	</node>
	<node id="-718859" lat="62.7065222179" lon="10.1187861187">
		<tag k="name" v="Gammelbrubekken" />
		<tag k="ssr:stedsnr" v="339785" />
		<tag k="waterway" v="stream" />
	</node>
	<node id="-718851" lat="62.8214111099" lon="10.0020361175">
		<tag k="name" v="Jaklabekken" />
		<tag k="ssr:stedsnr" v="339757" />
		<tag k="waterway" v="stream" />
	</node>
</osm>
