<?xml version="1.0" encoding="UTF-8"?>
<osm version="0.6" generator="osmapis">
	<node lat="62.879230553229995" lon="9.858477768211579" id="-46495">
		<tag k="name" v="Svarthåmmårflotten" />
		<tag k="place" v="locality" />
		<tag k="ssr:stedsnr" v="35570" />
	</node>
	<node lat="62.7197999976912" lon="9.809591657290616" id="-46500">
		<tag k="name" v="Stormyra" />
		<tag k="natural" v="wetland" />
		<tag k="ssr:stedsnr" v="36523" />
	</node>
	<node lat="62.782238892868676" lon="9.626900007624402" id="-46504">
		<tag k="historic" v="shieling" />
		<tag k="name" v="Lånkvollen" />
		<tag k="place" v="locality" />
		<tag k="ssr:stedsnr" v="36581" />
	</node>
	<node lat="62.86120277929282" lon="9.89116111965045" id="-46509">
		<tag k="name" v="Nordstuggutrøa" />
		<tag k="natural" v="wetland" />
		<tag k="ssr:stedsnr" v="36722" />
	</node>
	<node lat="62.77703611397446" lon="9.591127785391857" id="-46511">
		<tag k="name" v="Langskårgangen" />
		<tag k="place" v="locality" />
		<tag k="ssr:stedsnr" v="36607" />
	</node>
	<node lat="62.79955833135704" lon="9.692705555975952" id="-46516">
		<tag k="name" v="Storåslættet" />
		<tag k="place" v="locality" />
		<tag k="ssr:stedsnr" v="36620" />
	</node>
	<node lat="62.93543611326296" lon="9.773680548892461" id="-46520">
		<tag k="name" v="Kjela" />
		<tag k="place" v="locality" />
		<tag k="ssr:stedsnr" v="36664" />
	</node>
	<node lat="62.82064444608263" lon="9.71627500563432" id="-46523">
		<tag k="name" v="Hestkvelva" />
		<tag k="place" v="locality" />
		<tag k="ssr:stedsnr" v="36672" />
	</node>
	<node lat="62.76125833410784" lon="10.006986108812288" id="-46530">
		<tag k="name" v="Tosetløkkjan" />
		<tag k="place" v="locality" />
		<tag k="ssr:stedsnr" v="36921" />
	</node>
	<node lat="62.96500277919709" lon="9.782366669613092" id="-46532">
		<tag k="name" v="Ner-Aunet" />
		<tag k="place" v="locality" />
		<tag k="ssr:stedsnr" v="36977" />
	</node>
	<node lat="62.90858888454104" lon="9.910222213843838" id="-46551">
		<tag k="name" v="Storkålvhåggan" />
		<tag k="natural" v="wetland" />
		<tag k="ssr:stedsnr" v="97612" />
	</node>
	<node lat="62.7864944415817" lon="9.69380833750193" id="-46553">
		<tag k="name" v="Klokkarenget" />
		<tag k="place" v="locality" />
		<tag k="ssr:stedsnr" v="97661" />
	</node>
	<node lat="62.78493333451003" lon="9.712594446808403" id="-46555">
		<tag k="name" v="Stormyra" />
		<tag k="natural" v="wetland" />
		<tag k="ssr:stedsnr" v="97664" />
	</node>
	<node lat="62.888047221682584" lon="9.6705750041985" id="-46558">
		<tag k="name" v="Granslættmyran" />
		<tag k="natural" v="wetland" />
		<tag k="ssr:stedsnr" v="97677" />
	</node>
	<node lat="62.9311722208864" lon="9.774941663397005" id="-46568">
		<tag k="name" v="Granin" />
		<tag k="place" v="locality" />
		<tag k="ssr:stedsnr" v="97722" />
	</node>
	<node lat="62.89109444802622" lon="10.057447217994369" id="-46573">
		<tag k="name" v="Løkkjmyra" />
		<tag k="natural" v="wetland" />
		<tag k="ssr:stedsnr" v="97787" />
	</node>
	<node lat="62.76796666473715" lon="9.613722222493346" id="-46629">
		<tag k="name" v="Stakkenget" />
		<tag k="place" v="locality" />
		<tag k="ssr:stedsnr" v="157615" />
	</node>
	<node lat="62.78367777684731" lon="9.696336119254543" id="-46631">
		<tag k="name" v="Stakksenget" />
		<tag k="place" v="locality" />
		<tag k="ssr:stedsnr" v="157631" />
	</node>
	<node lat="62.941180554970714" lon="9.780841673247537" id="-46632">
		<tag k="name" v="Arka" />
		<tag k="place" v="locality" />
		<tag k="ssr:stedsnr" v="157653" />
	</node>
	<node lat="62.774288891270515" lon="9.60980278571097" id="-46642">
		<tag k="historic" v="shieling" />
		<tag k="name" v="Lars-Ola-vollen" />
		<tag k="place" v="locality" />
		<tag k="ssr:stedsnr" v="157598" />
	</node>
	<node lat="62.83591110973143" lon="10.129991664193996" id="-46647">
		<tag k="name" v="Fjøsmyra" />
		<tag k="natural" v="wetland" />
		<tag k="ssr:stedsnr" v="157806" />
	</node>
	<node lat="62.777561109759326" lon="10.128908323834814" id="-46648">
		<tag k="name" v="Fossen" />
		<tag k="natural" v="wetland" />
		<tag k="ssr:stedsnr" v="157813" />
	</node>
	<node lat="62.85626666784117" lon="10.03226943694499" id="-46650">
		<tag k="historic" v="shieling" />
		<tag k="name" v="Vassengsætra" />
		<tag k="place" v="locality" />
		<tag k="ssr:stedsnr" v="157849" />
	</node>
	<node lat="62.79145000229042" lon="10.023050007068031" id="-46651">
		<tag k="historic" v="shieling" />
		<tag k="name" v="Klevsætra" />
		<tag k="place" v="locality" />
		<tag k="ssr:stedsnr" v="157898" />
	</node>
	<node lat="62.89252500294272" lon="10.054236106047913" id="-46652">
		<tag k="name" v="Urvassløkkja" />
		<tag k="place" v="locality" />
		<tag k="ssr:stedsnr" v="157763" />
	</node>
	<node lat="62.819338889781726" lon="10.049983334903027" id="-46656">
		<tag k="alt_name" v="Undal verk" />
		<tag k="fixme" v="multiple name tags, choose one and add the other to alt_name" />
		<tag k="landuse" v="quarry" />
		<tag k="name" v="Gruva;Unndal verk" />
		<tag k="ssr:stedsnr" v="157771" />
	</node>
	<node lat="62.75902777796654" lon="10.007627773915603" id="-46662">
		<tag k="name" v="Søndre Toset" />
		<tag k="place" v="locality" />
		<tag k="ssr:stedsnr" v="157909" />
	</node>
	<node lat="62.76063332892245" lon="9.968124995987663" id="-46664">
		<tag k="name" v="Taterstenen" />
		<tag k="place" v="locality" />
		<tag k="ssr:stedsnr" v="157922" />
	</node>
	<node lat="62.88703055683966" lon="9.600316663040505" id="-46665">
		<tag k="name" v="Myrløkkja" />
		<tag k="place" v="locality" />
		<tag k="ssr:stedsnr" v="157954" />
	</node>
	<node lat="62.90062777843411" lon="9.864161106942294" id="-46674">
		<tag k="name" v="Fuggelmyra" />
		<tag k="natural" v="wetland" />
		<tag k="ssr:stedsnr" v="217506" />
	</node>
	<node lat="62.926119440355954" lon="9.822391669807544" id="-46679">
		<tag k="name" v="Kummerlimyra" />
		<tag k="natural" v="wetland" />
		<tag k="ssr:stedsnr" v="218611" />
	</node>
	<node lat="62.92333888664722" lon="9.792300006721874" id="-46683">
		<tag k="name" v="Kalvhåggån" />
		<tag k="place" v="locality" />
		<tag k="ssr:stedsnr" v="218631" />
	</node>
	<node lat="62.827652781359525" lon="10.000436113334262" id="-46692">
		<tag k="name" v="Grinda" />
		<tag k="place" v="locality" />
		<tag k="ssr:stedsnr" v="218784" />
	</node>
	<node lat="62.76811944501953" lon="9.967033327115356" id="-46699">
		<tag k="name" v="Ørstuggu" />
		<tag k="place" v="locality" />
		<tag k="ssr:stedsnr" v="218929" />
	</node>
	<node lat="62.9039289283379" lon="10.048274370120119" id="-46726">
		<tag k="historic" v="shieling" />
		<tag k="name" v="Rønningssætra" />
		<tag k="old_name" v="Rønningsetra" />
		<tag k="place" v="locality" />
		<tag k="ssr:stedsnr" v="255978" />
	</node>
	<node lat="62.769030552104134" lon="10.103977781762376" id="-46750">
		<tag k="name" v="Holtet" />
		<tag k="natural" v="wetland" />
		<tag k="ssr:stedsnr" v="279807" />
	</node>
	<node lat="62.933569447115765" lon="9.777677782899978" id="-46757">
		<tag k="name" v="Smiåkeren" />
		<tag k="place" v="locality" />
		<tag k="ssr:stedsnr" v="279707" />
	</node>
	<node lat="62.75482777798434" lon="10.007416670194566" id="-46765">
		<tag k="name" v="Skåren" />
		<tag k="place" v="locality" />
		<tag k="ssr:stedsnr" v="279907" />
	</node>
	<node lat="62.623922226260994" lon="10.008502771475959" id="-46768">
		<tag k="name" v="Kubrumyra" />
		<tag k="natural" v="wetland" />
		<tag k="ssr:stedsnr" v="279969" />
	</node>
	<node lat="62.88268055551143" lon="9.855055553688981" id="-46771">
		<tag k="name" v="Våggåskilet" />
		<tag k="place" v="locality" />
		<tag k="ssr:stedsnr" v="460569" />
	</node>
	<node lat="62.846063890251834" lon="9.831866657192604" id="-46774">
		<tag k="name" v="Ratflotten" />
		<tag k="place" v="locality" />
		<tag k="ssr:stedsnr" v="460755" />
	</node>
	<node lat="62.86425277879605" lon="10.074133335740468" id="-46776">
		<tag k="name" v="Vadløkkja" />
		<tag k="place" v="locality" />
		<tag k="ssr:stedsnr" v="460872" />
	</node>
	<node lat="62.84588610769211" lon="9.939772214380744" id="-46792">
		<tag k="name" v="Gammeltrøin" />
		<tag k="place" v="locality" />
		<tag k="ssr:stedsnr" v="461645" />
	</node>
	<node lat="62.82990555612573" lon="9.613647217191648" id="-46793">
		<tag k="name" v="Stormyra" />
		<tag k="natural" v="wetland" />
		<tag k="ssr:stedsnr" v="461646" />
	</node>
	<node lat="62.84438611149816" lon="9.86666666612426" id="-46798">
		<tag k="name" v="Hesthåggån" />
		<tag k="place" v="locality" />
		<tag k="ssr:stedsnr" v="461723" />
	</node>
	<node lat="62.85004444753878" lon="9.708102778963953" id="-46799">
		<tag k="name" v="Granslættet" />
		<tag k="place" v="locality" />
		<tag k="ssr:stedsnr" v="461688" />
	</node>
	<node lat="62.82433888696795" lon="9.972505556126842" id="-46802">
		<tag k="name" v="Gammelgrøva" />
		<tag k="place" v="locality" />
		<tag k="ssr:stedsnr" v="461787" />
	</node>
	<node lat="62.69226388537479" lon="10.142374994761989" id="-46809">
		<tag k="name" v="Kalvhåggån" />
		<tag k="place" v="locality" />
		<tag k="ssr:stedsnr" v="461793" />
	</node>
	<node lat="62.956508334685324" lon="9.734997223502575" id="-46815">
		<tag k="name" v="Oksdalsmyran" />
		<tag k="natural" v="wetland" />
		<tag k="ssr:stedsnr" v="461989" />
	</node>
	<node lat="62.70803611522011" lon="10.013119452719206" id="-46817">
		<tag k="name" v="Håkkåhåggån" />
		<tag k="place" v="locality" />
		<tag k="ssr:stedsnr" v="461919" />
	</node>
	<node lat="62.769802779136185" lon="10.032980562955265" id="-46861">
		<tag k="landuse" v="quarry" />
		<tag k="name" v="Gruva" />
		<tag k="ssr:stedsnr" v="339747" />
	</node>
	<node lat="62.8182416643137" lon="10.043241663028112" id="-46863">
		<tag k="name" v="Litlslættet" />
		<tag k="place" v="locality" />
		<tag k="ssr:stedsnr" v="339759" />
	</node>
	<node lat="62.847899999785554" lon="9.978122216582515" id="-46865">
		<tag k="name" v="Kåsin" />
		<tag k="place" v="locality" />
		<tag k="ssr:stedsnr" v="339761" />
	</node>
	<node lat="62.6698750039074" lon="10.040083331836792" id="-46871">
		<tag k="name" v="Ner Brandhaugmyra" />
		<tag k="natural" v="wetland" />
		<tag k="ssr:stedsnr" v="339997" />
	</node>
	<node lat="62.827622220363835" lon="9.826088880622542" id="-46890">
		<tag k="name" v="Litldammen" />
		<tag k="natural" v="wetland" />
		<tag k="ssr:stedsnr" v="399706" />
	</node>
	<node lat="62.752936114672465" lon="10.029674998191076" id="-46891">
		<tag k="landuse" v="meadow" />
		<tag k="name" v="Bakkenget" />
		<tag k="ssr:stedsnr" v="399766" />
	</node>
	<node lat="62.8074833313456" lon="9.594549998211258" id="-46896">
		<tag k="name" v="Bumyra" />
		<tag k="natural" v="wetland" />
		<tag k="ssr:stedsnr" v="400608" />
	</node>
	<node lat="62.808172225973955" lon="9.640149990741829" id="-46897">
		<tag k="name" v="Kjølbotn" />
		<tag k="natural" v="wetland" />
		<tag k="ssr:stedsnr" v="400610" />
	</node>
	<node lat="62.77394166902639" lon="9.619333342445193" id="-46901">
		<tag k="name" v="Bærmyra" />
		<tag k="natural" v="wetland" />
		<tag k="ssr:stedsnr" v="400635" />
	</node>
	<node lat="62.710472224838526" lon="9.970713882385327" id="-46918">
		<tag k="name" v="Markøya" />
		<tag k="place" v="locality" />
		<tag k="ssr:stedsnr" v="400927" />
	</node>
	<node lat="62.80174444103332" lon="10.068263886482281" id="-46940">
		<tag k="name" v="Vintermyra" />
		<tag k="natural" v="wetland" />
		<tag k="ssr:stedsnr" v="460811" />
	</node>
	<node lat="62.79216111247501" lon="10.082172231514292" id="-46941">
		<tag k="name" v="Holtet" />
		<tag k="place" v="locality" />
		<tag k="ssr:stedsnr" v="460812" />
	</node>
	<node lat="62.81937222602389" lon="10.03425278351101" id="-46942">
		<tag k="name" v="Råket" />
		<tag k="place" v="locality" />
		<tag k="ssr:stedsnr" v="460814" />
	</node>
	<node lat="62.80454721951611" lon="10.055733331796748" id="-46955">
		<tag k="name" v="Øver Langmyra" />
		<tag k="natural" v="wetland" />
		<tag k="ssr:stedsnr" v="461773" />
	</node>
	<node lat="62.631158335685306" lon="10.016416667724783" id="-46958">
		<tag k="name" v="Hølbekkteigen" />
		<tag k="place" v="locality" />
		<tag k="ssr:stedsnr" v="461972" />
	</node>
	<node lat="62.79106110740067" lon="9.673288884111761" id="-46961">
		<tag k="name" v="Gammelslåttmyran" />
		<tag k="natural" v="wetland" />
		<tag k="ssr:stedsnr" v="461677" />
	</node>
	<node lat="62.885816669096855" lon="9.842949996213978" id="-47013">
		<tag k="name" v="Ormmyra" />
		<tag k="natural" v="wetland" />
		<tag k="ssr:stedsnr" v="521507" />
	</node>
	<node lat="62.78868055287421" lon="9.957924990864292" id="-47018">
		<tag k="name" v="Havdalsløkkja" />
		<tag k="place" v="locality" />
		<tag k="ssr:stedsnr" v="521580" />
	</node>
	<node lat="62.789266662749135" lon="9.670825007631507" id="-47021">
		<tag k="name" v="Olakåsa" />
		<tag k="place" v="locality" />
		<tag k="ssr:stedsnr" v="521659" />
	</node>
	<node lat="62.94960555743801" lon="9.78338888002059" id="-47023">
		<tag k="name" v="Gorsethåggån" />
		<tag k="place" v="locality" />
		<tag k="ssr:stedsnr" v="521672" />
	</node>
	<node lat="62.8706861080903" lon="10.042330558730738" id="-47025">
		<tag k="name" v="Jønnåbakken" />
		<tag k="place" v="locality" />
		<tag k="ssr:stedsnr" v="521814" />
	</node>
	<node lat="62.79225555266552" lon="9.992399994935449" id="-47032">
		<tag k="name" v="Svelgen" />
		<tag k="place" v="locality" />
		<tag k="ssr:stedsnr" v="521903" />
	</node>
	<node lat="62.699041666209055" lon="10.010286110640147" id="-47035">
		<tag k="name" v="Løenget" />
		<tag k="place" v="locality" />
		<tag k="ssr:stedsnr" v="521920" />
	</node>
	<node lat="62.78240278010274" lon="9.603500007231494" id="-47040">
		<tag k="name" v="Bekkenget" />
		<tag k="natural" v="wetland" />
		<tag k="ssr:stedsnr" v="522616" />
	</node>
	<node lat="62.778911111366966" lon="9.622652786708697" id="-47041">
		<tag k="name" v="Bogslette" />
		<tag k="natural" v="wetland" />
		<tag k="ssr:stedsnr" v="522617" />
	</node>
	<node lat="62.8933750030792" lon="9.579541660270985" id="-47045">
		<tag k="name" v="Grosmyran" />
		<tag k="natural" v="wetland" />
		<tag k="ssr:stedsnr" v="522974" />
	</node>
	<node lat="62.754686113589585" lon="10.061144438537305" id="-47067">
		<tag k="name" v="Jønnåmyran" />
		<tag k="natural" v="wetland" />
		<tag k="ssr:stedsnr" v="581794" />
	</node>
	<node lat="62.93880833072328" lon="9.795294449103901" id="-47073">
		<tag k="name" v="Kvitgjetsmyra" />
		<tag k="natural" v="wetland" />
		<tag k="ssr:stedsnr" v="582710" />
	</node>
	<node lat="62.91531111554179" lon="9.764333323917862" id="-47074">
		<tag k="name" v="Hølumyra" />
		<tag k="place" v="locality" />
		<tag k="ssr:stedsnr" v="582711" />
	</node>
	<node lat="62.78861388569447" lon="9.639086108468097" id="-47078">
		<tag k="name" v="Tårnenget" />
		<tag k="place" v="locality" />
		<tag k="ssr:stedsnr" v="582644" />
	</node>
	<node lat="62.754469447625176" lon="10.027369452111397" id="-47088">
		<tag k="name" v="Nyhusenget" />
		<tag k="place" v="locality" />
		<tag k="ssr:stedsnr" v="582920" />
	</node>
	<node lat="62.812222222571066" lon="9.903211104759926" id="-47112">
		<tag k="name" v="Buenget" />
		<tag k="natural" v="wetland" />
		<tag k="ssr:stedsnr" v="703600" />
	</node>
	<node lat="62.816038884823804" lon="10.07455556121583" id="-47116">
		<tag k="name" v="Seljmyran" />
		<tag k="natural" v="wetland" />
		<tag k="ssr:stedsnr" v="703785" />
	</node>
	<node lat="62.85391388579755" lon="10.081311112551305" id="-47117">
		<tag k="name" v="Øyaløkkja" />
		<tag k="place" v="locality" />
		<tag k="ssr:stedsnr" v="703792" />
	</node>
	<node lat="62.68896666594893" lon="10.143533325343167" id="-47120">
		<tag k="name" v="Jakobsplassen" />
		<tag k="place" v="locality" />
		<tag k="ssr:stedsnr" v="703802" />
	</node>
	<node lat="62.87745277986246" lon="9.798919439355464" id="-47125">
		<tag k="name" v="Nesjmyran" />
		<tag k="natural" v="wetland" />
		<tag k="ssr:stedsnr" v="703754" />
	</node>
	<node lat="62.92321667015171" lon="9.717030562244325" id="-47141">
		<tag k="name" v="Sagplassen" />
		<tag k="place" v="locality" />
		<tag k="ssr:stedsnr" v="704634" />
	</node>
	<node lat="62.95132222348282" lon="9.80845555850351" id="-47144">
		<tag k="name" v="Oppstugguløkkja" />
		<tag k="place" v="locality" />
		<tag k="ssr:stedsnr" v="704648" />
	</node>
	<node lat="62.844050003687784" lon="9.858705563725751" id="-47146">
		<tag k="name" v="Kjellan" />
		<tag k="place" v="locality" />
		<tag k="ssr:stedsnr" v="704683" />
	</node>
	<node lat="62.826097223188654" lon="9.884205562263864" id="-47150">
		<tag k="name" v="Trøin" />
		<tag k="natural" v="wetland" />
		<tag k="ssr:stedsnr" v="704702" />
	</node>
	<node lat="62.739188891482634" lon="10.023755551089414" id="-47152">
		<tag k="name" v="Stormyra" />
		<tag k="natural" v="wetland" />
		<tag k="ssr:stedsnr" v="704895" />
	</node>
	<node lat="62.954966669699665" lon="9.782858337402972" id="-47163">
		<tag k="name" v="Melen" />
		<tag k="place" v="locality" />
		<tag k="ssr:stedsnr" v="704937" />
	</node>
	<node lat="62.671786111163904" lon="10.028761103862331" id="-47166">
		<tag k="name" v="Litlvangen" />
		<tag k="place" v="locality" />
		<tag k="ssr:stedsnr" v="704949" />
	</node>
	<node lat="62.96454166910066" lon="9.750419446450108" id="-47169">
		<tag k="name" v="Haugamyra" />
		<tag k="natural" v="wetland" />
		<tag k="ssr:stedsnr" v="704996" />
	</node>
	<node lat="62.95607777848172" lon="9.814416657879418" id="-47170">
		<tag k="name" v="Kringlelåsmyra" />
		<tag k="natural" v="wetland" />
		<tag k="ssr:stedsnr" v="704998" />
	</node>
	<node lat="62.949755558675484" lon="9.857502773400263" id="-47177">
		<tag k="name" v="Litlvass-slættet" />
		<tag k="natural" v="wetland" />
		<tag k="ssr:stedsnr" v="642540" />
	</node>
	<node lat="62.8017111089871" lon="9.606591671791739" id="-47180">
		<tag k="name" v="Kjølholtet" />
		<tag k="place" v="locality" />
		<tag k="ssr:stedsnr" v="642605" />
	</node>
	<node lat="62.93317778022002" lon="9.797066673552822" id="-47183">
		<tag k="name" v="Ondusmyra" />
		<tag k="natural" v="wetland" />
		<tag k="ssr:stedsnr" v="642680" />
	</node>
	<node lat="62.859122224037954" lon="9.95136111947097" id="-47190">
		<tag k="name" v="Fjellslættet" />
		<tag k="place" v="locality" />
		<tag k="ssr:stedsnr" v="642579" />
	</node>
	<node lat="62.871180557860406" lon="9.797625003833785" id="-47197">
		<tag k="name" v="Skåkvadet" />
		<tag k="natural" v="wetland" />
		<tag k="ssr:stedsnr" v="642730" />
	</node>
	<node lat="62.87124722607123" lon="9.799666672308668" id="-47198">
		<tag k="name" v="Skåkvadmyra" />
		<tag k="natural" v="wetland" />
		<tag k="ssr:stedsnr" v="642732" />
	</node>
	<node lat="62.90503610709399" lon="9.703416669640125" id="-47212">
		<tag k="landuse" v="meadow" />
		<tag k="name" v="Buenget" />
		<tag k="ssr:stedsnr" v="891129" />
	</node>
	<node lat="62.843436111379155" lon="10.013241663994757" id="-47224">
		<tag k="name" v="Berkåksløkkja" />
		<tag k="place" v="locality" />
		<tag k="ssr:stedsnr" v="703239" />
	</node>
	<node lat="62.854041665297345" lon="10.106075008045734" id="-47232">
		<tag k="name" v="Frøgdaskukåsa" />
		<tag k="natural" v="wetland" />
		<tag k="ssr:stedsnr" v="703814" />
	</node>
	<node lat="62.79710833365923" lon="10.113149994055869" id="-47235">
		<tag k="name" v="Myrslættet" />
		<tag k="place" v="locality" />
		<tag k="ssr:stedsnr" v="703826" />
	</node>
	<node lat="62.84788333475232" lon="9.89483611870532" id="-47237">
		<tag k="name" v="Trøa" />
		<tag k="place" v="locality" />
		<tag k="ssr:stedsnr" v="704464" />
	</node>
	<node lat="62.92142777731922" lon="9.790747216550738" id="-47243">
		<tag k="name" v="Trondshåggån" />
		<tag k="place" v="locality" />
		<tag k="ssr:stedsnr" v="704619" />
	</node>
	<node lat="62.92923611040566" lon="9.785675001927215" id="-47244">
		<tag k="name" v="Bruhåggån" />
		<tag k="place" v="locality" />
		<tag k="ssr:stedsnr" v="704620" />
	</node>
	<node lat="62.85727778108814" lon="9.886069437897401" id="-47256">
		<tag k="name" v="Bystkroken" />
		<tag k="place" v="locality" />
		<tag k="ssr:stedsnr" v="704707" />
	</node>
	<node lat="62.814833332382605" lon="10.098016661682367" id="-47262">
		<tag k="name" v="Stavåbogen" />
		<tag k="place" v="locality" />
		<tag k="ssr:stedsnr" v="704803" />
	</node>
	<node lat="62.82190555817003" lon="9.881108335011017" id="-47298">
		<tag k="name" v="Sjulhåmmårkleiva" />
		<tag k="place" v="locality" />
		<tag k="ssr:stedsnr" v="764716" />
	</node>
	<node lat="62.69797500068108" lon="10.172286117147706" id="-47310">
		<tag k="historic" v="shieling" />
		<tag k="name" v="Fjordingsætra" />
		<tag k="place" v="locality" />
		<tag k="ssr:stedsnr" v="764849" />
	</node>
	<node lat="62.96903611240455" lon="9.7919527714728" id="-47320">
		<tag k="name" v="Nordgjeret" />
		<tag k="place" v="locality" />
		<tag k="ssr:stedsnr" v="764990" />
	</node>
	<node lat="62.8791861098233" lon="9.811919437432783" id="-47352">
		<tag k="name" v="Nesløkkjon" />
		<tag k="place" v="locality" />
		<tag k="ssr:stedsnr" v="824736" />
	</node>
	<node lat="62.778980555396515" lon="9.592877782207092" id="-47359">
		<tag k="name" v="Kattuggelkåsa" />
		<tag k="place" v="locality" />
		<tag k="ssr:stedsnr" v="825606" />
	</node>
	<node lat="62.931088890291264" lon="9.821016664027194" id="-47364">
		<tag k="name" v="Løkkja" />
		<tag k="natural" v="wetland" />
		<tag k="ssr:stedsnr" v="825665" />
	</node>
	<node lat="62.932222221897554" lon="9.776224990772082" id="-47367">
		<tag k="name" v="Hundstykket" />
		<tag k="place" v="locality" />
		<tag k="ssr:stedsnr" v="825677" />
	</node>
	<node lat="62.93400832946539" lon="9.781780563925961" id="-47368">
		<tag k="name" v="Kalvtrøa" />
		<tag k="place" v="locality" />
		<tag k="ssr:stedsnr" v="825680" />
	</node>
	<node lat="62.79444721827156" lon="10.132802785935398" id="-47369">
		<tag k="name" v="Stavåslættet" />
		<tag k="place" v="locality" />
		<tag k="ssr:stedsnr" v="825811" />
	</node>
	<node lat="62.85140277363351" lon="9.936149990278874" id="-47372">
		<tag k="name" v="Tjønnmyra" />
		<tag k="natural" v="wetland" />
		<tag k="ssr:stedsnr" v="825563" />
	</node>
	<node lat="62.80204721858744" lon="9.979494436929794" id="-47380">
		<tag k="name" v="Smågrubbløkkja" />
		<tag k="place" v="locality" />
		<tag k="ssr:stedsnr" v="825905" />
	</node>
	<node lat="62.827938884544444" lon="10.100397230104441" id="-47439">
		<tag k="name" v="Dyrmyra" />
		<tag k="natural" v="wetland" />
		<tag k="ssr:stedsnr" v="885805" />
	</node>
	<node lat="62.936811111294176" lon="9.774088890932155" id="-47442">
		<tag k="name" v="Moen" />
		<tag k="place" v="locality" />
		<tag k="ssr:stedsnr" v="886712" />
	</node>
	<node lat="62.75804166385952" lon="9.708794437053804" id="-47447">
		<tag k="name" v="Eriksenget" />
		<tag k="place" v="locality" />
		<tag k="ssr:stedsnr" v="886651" />
	</node>
	<node lat="62.915113886331895" lon="9.824480556795072" id="-47451">
		<tag k="name" v="Gravorberga" />
		<tag k="natural" v="wetland" />
		<tag k="ssr:stedsnr" v="886665" />
	</node>
	<node lat="62.93976944601868" lon="9.778877771842602" id="-47452">
		<tag k="name" v="Kalvhåggån" />
		<tag k="place" v="locality" />
		<tag k="ssr:stedsnr" v="886697" />
	</node>
	<node lat="62.91823333709593" lon="10.034069447517991" id="-47457">
		<tag k="name" v="Ilbogen" />
		<tag k="place" v="locality" />
		<tag k="ssr:stedsnr" v="886846" />
	</node>
	<node lat="62.72475555888491" lon="9.910911120158849" id="-47479">
		<tag k="name" v="Slættesmyran" />
		<tag k="natural" v="wetland" />
		<tag k="ssr:stedsnr" v="946529" />
	</node>
	<node lat="62.89875832936315" lon="9.817761106426127" id="-47485">
		<tag k="name" v="Tangalomman" />
		<tag k="place" v="locality" />
		<tag k="ssr:stedsnr" v="946595" />
	</node>
	<node lat="62.70825277447746" lon="10.027575005891578" id="-47498">
		<tag k="name" v="Håggån" />
		<tag k="place" v="locality" />
		<tag k="ssr:stedsnr" v="946825" />
	</node>
	<node lat="62.85308055230264" lon="10.094016663105911" id="-47500">
		<tag k="name" v="Hyllbergmyra" />
		<tag k="natural" v="wetland" />
		<tag k="ssr:stedsnr" v="946831" />
	</node>
	<node lat="62.75066111553529" lon="10.033855565391438" id="-47508">
		<tag k="name" v="Åsan" />
		<tag k="natural" v="wetland" />
		<tag k="ssr:stedsnr" v="946979" />
	</node>
	<node lat="62.95980000067233" lon="9.806844448410725" id="-47516">
		<tag k="name" v="Utstugguløkkja" />
		<tag k="place" v="locality" />
		<tag k="ssr:stedsnr" v="947988" />
	</node>
	<node lat="62.96411111300116" lon="9.778555550839092" id="-47517">
		<tag k="name" v="Øver-Aunet" />
		<tag k="place" v="locality" />
		<tag k="ssr:stedsnr" v="947997" />
	</node>
	<node lat="62.884494447796264" lon="9.809963880077188" id="-47574">
		<tag k="name" v="Haugaløkkjon" />
		<tag k="place" v="locality" />
		<tag k="ssr:stedsnr" v="35747" />
	</node>
	<node lat="62.85714722002389" lon="10.127402772109406" id="-47588">
		<tag k="name" v="Ysetet" />
		<tag k="place" v="locality" />
		<tag k="ssr:stedsnr" v="36798" />
	</node>
	<node lat="62.83206944763139" lon="9.954308335445594" id="-47592">
		<tag k="name" v="Revhaugen" />
		<tag k="place" v="locality" />
		<tag k="ssr:stedsnr" v="36532" />
	</node>
	<node lat="62.94949166474345" lon="9.779588882962203" id="-47600">
		<tag k="name" v="Skreddarhåggån" />
		<tag k="place" v="locality" />
		<tag k="ssr:stedsnr" v="36636" />
	</node>
	<node lat="62.9357138870595" lon="9.790016670538293" id="-47604">
		<tag k="name" v="Brandan" />
		<tag k="place" v="locality" />
		<tag k="ssr:stedsnr" v="36651" />
	</node>
	<node lat="62.85538055786657" lon="9.841208331699429" id="-47606">
		<tag k="name" v="Stamneshåggån" />
		<tag k="place" v="locality" />
		<tag k="ssr:stedsnr" v="36730" />
	</node>
	<node lat="62.85379444237751" lon="9.852861111972224" id="-47607">
		<tag k="name" v="Stamnesmyra" />
		<tag k="natural" v="wetland" />
		<tag k="ssr:stedsnr" v="36732" />
	</node>
	<node lat="62.87068055566682" lon="9.781488891916265" id="-47611">
		<tag k="name" v="Kloppmyra" />
		<tag k="natural" v="wetland" />
		<tag k="ssr:stedsnr" v="36747" />
	</node>
	<node lat="62.80391666552008" lon="9.971430551079147" id="-47613">
		<tag k="name" v="Storslættåsmyra" />
		<tag k="natural" v="wetland" />
		<tag k="ssr:stedsnr" v="36753" />
	</node>
	<node lat="62.76025555973219" lon="10.042147220297222" id="-47614">
		<tag k="name" v="Jønnåmyran" />
		<tag k="natural" v="wetland" />
		<tag k="ssr:stedsnr" v="36813" />
	</node>
	<node lat="62.932438888785704" lon="9.764463885056271" id="-47618">
		<tag k="name" v="Gjerdet" />
		<tag k="place" v="locality" />
		<tag k="ssr:stedsnr" v="36852" />
	</node>
	<node lat="62.837891669070686" lon="10.053730554024895" id="-47619">
		<tag k="name" v="Åskjølen" />
		<tag k="natural" v="wetland" />
		<tag k="ssr:stedsnr" v="36853" />
	</node>
	<node lat="62.8891972187606" lon="10.06296666932669" id="-47620">
		<tag k="name" v="Kløvledet" />
		<tag k="place" v="locality" />
		<tag k="ssr:stedsnr" v="36857" />
	</node>
	<node lat="62.80172499985418" lon="9.984522225737821" id="-47621">
		<tag k="landuse" v="meadow" />
		<tag k="name" v="Kvernakloppmyra" />
		<tag k="ssr:stedsnr" v="36900" />
	</node>
	<node lat="62.82272222332798" lon="10.103897222038126" id="-47637">
		<tag k="alt_name" v="Vassmyra" />
		<tag k="name" v="Vassmyran" />
		<tag k="natural" v="wetland" />
		<tag k="ssr:stedsnr" v="73585" />
	</node>
	<node lat="62.80811666517705" lon="9.630899997913309" id="-47646">
		<tag k="fixme" v="multiple name tags, choose one and add the other to alt_name" />
		<tag k="loc_name" v="Bakkjølen" />
		<tag k="name" v="Varghaugkjølen;Bakk-kjølen" />
		<tag k="natural" v="wetland" />
		<tag k="old_name" v="Bakkkjølen" />
		<tag k="ssr:stedsnr" v="73849" />
	</node>
	<node lat="62.83733610783524" lon="9.936388896360828" id="-47663">
		<tag k="name" v="Olavkleiva" />
		<tag k="place" v="locality" />
		<tag k="ssr:stedsnr" v="97600" />
	</node>
	<node lat="62.947938891934875" lon="9.778416662474823" id="-47664">
		<tag k="name" v="Pollmyra" />
		<tag k="natural" v="wetland" />
		<tag k="ssr:stedsnr" v="97686" />
	</node>
	<node lat="62.75081111381123" lon="10.031427779165826" id="-47679">
		<tag k="name" v="Gjertrudenget" />
		<tag k="natural" v="wetland" />
		<tag k="ssr:stedsnr" v="96984" />
	</node>
	<node lat="62.75005555924794" lon="10.03477221440522" id="-47680">
		<tag k="name" v="Åsfloen" />
		<tag k="natural" v="wetland" />
		<tag k="ssr:stedsnr" v="96985" />
	</node>
	<node lat="62.851450003944805" lon="10.120183339593792" id="-47681">
		<tag k="name" v="Kjølen" />
		<tag k="place" v="locality" />
		<tag k="ssr:stedsnr" v="96825" />
	</node>
	<node lat="62.84687777673477" lon="9.922880560891125" id="-47689">
		<tag k="name" v="Tjønnløkkja" />
		<tag k="place" v="locality" />
		<tag k="ssr:stedsnr" v="97627" />
	</node>
	<node lat="62.84581110892342" lon="9.907341665835693" id="-47691">
		<tag k="name" v="Ringen" />
		<tag k="place" v="locality" />
		<tag k="ssr:stedsnr" v="97633" />
	</node>
	<node lat="62.77910833503049" lon="9.59745555798363" id="-47695">
		<tag k="name" v="Slobakken" />
		<tag k="place" v="locality" />
		<tag k="ssr:stedsnr" v="97642" />
	</node>
	<node lat="62.92726389239412" lon="9.81485554934067" id="-47697">
		<tag k="name" v="Fløtmyra" />
		<tag k="natural" v="wetland" />
		<tag k="ssr:stedsnr" v="97649" />
	</node>
	<node lat="62.970852775947186" lon="9.884227774142422" id="-47710">
		<tag k="landuse" v="meadow" />
		<tag k="name" v="Trettslættet" />
		<tag k="ssr:stedsnr" v="97901" />
	</node>
	<node lat="62.63822222664132" lon="10.007905547165619" id="-47712">
		<tag k="name" v="Langhølmyran" />
		<tag k="natural" v="wetland" />
		<tag k="ssr:stedsnr" v="97971" />
	</node>
	<node lat="62.94055000200773" lon="9.693847215191708" id="-47715">
		<tag k="name" v="Kambkjølen" />
		<tag k="natural" v="wetland" />
		<tag k="ssr:stedsnr" v="97992" />
	</node>
	<node lat="62.96885555376093" lon="9.780944450385558" id="-47719">
		<tag k="name" v="Grøvin" />
		<tag k="place" v="locality" />
		<tag k="ssr:stedsnr" v="97949" />
	</node>
	<node lat="62.97008888970251" lon="9.776558326313557" id="-47720">
		<tag k="name" v="Gammelgarden" />
		<tag k="place" v="locality" />
		<tag k="ssr:stedsnr" v="97954" />
	</node>
	<node lat="62.862555556679936" lon="9.855216669599997" id="-47763">
		<tag k="name" v="Hovengløkkja" />
		<tag k="place" v="locality" />
		<tag k="ssr:stedsnr" v="157735" />
	</node>
	<node lat="62.91769999598805" lon="9.725977769537085" id="-47771">
		<tag k="name" v="Ræset" />
		<tag k="place" v="locality" />
		<tag k="ssr:stedsnr" v="157666" />
	</node>
	<node lat="62.93460277773824" lon="9.778038882501223" id="-47773">
		<tag k="name" v="Bekkjaåkeren" />
		<tag k="place" v="locality" />
		<tag k="ssr:stedsnr" v="157679" />
	</node>
	<node lat="62.93514722624086" lon="9.778927783599652" id="-47774">
		<tag k="name" v="Ellevåkeren" />
		<tag k="place" v="locality" />
		<tag k="ssr:stedsnr" v="157680" />
	</node>
	<node lat="62.808791667836346" lon="10.046422213601103" id="-47778">
		<tag k="name" v="Ner Langmyra" />
		<tag k="natural" v="wetland" />
		<tag k="ssr:stedsnr" v="157759" />
	</node>
	<node lat="62.77324166477537" lon="9.994063886884364" id="-47785">
		<tag k="name" v="Tjønnmyra" />
		<tag k="natural" v="wetland" />
		<tag k="ssr:stedsnr" v="157886" />
	</node>
	<node lat="62.90230555114407" lon="9.928750007147626" id="-47787">
		<tag k="name" v="Støverkjølen" />
		<tag k="natural" v="wetland" />
		<tag k="ssr:stedsnr" v="157894" />
	</node>
	<node lat="62.872333337426184" lon="9.78890277306158" id="-47789">
		<tag k="name" v="Veltet" />
		<tag k="natural" v="wetland" />
		<tag k="ssr:stedsnr" v="157742" />
	</node>
	<node lat="62.7839805596668" lon="10.092322232151067" id="-47791">
		<tag k="name" v="Hårluggmyra" />
		<tag k="natural" v="wetland" />
		<tag k="ssr:stedsnr" v="157826" />
	</node>
	<node lat="62.79651666647605" lon="10.104930555928753" id="-47793">
		<tag k="name" v="Skjennstomyran" />
		<tag k="natural" v="wetland" />
		<tag k="ssr:stedsnr" v="157831" />
	</node>
	<node lat="62.96563332906795" lon="9.78229722458029" id="-47799">
		<tag k="name" v="Retåsmoen" />
		<tag k="place" v="locality" />
		<tag k="ssr:stedsnr" v="157928" />
	</node>
	<node lat="62.68306389291201" lon="10.050713897284904" id="-47803">
		<tag k="name" v="Sætermyra" />
		<tag k="natural" v="wetland" />
		<tag k="ssr:stedsnr" v="157982" />
	</node>
	<node lat="62.96713434763581" lon="9.851703481624394" id="-47805">
		<tag k="landuse" v="meadow" />
		<tag k="name" v="Krokåtvass-slættet" />
		<tag k="ssr:stedsnr" v="158982" />
	</node>
	<node lat="62.767677773718106" lon="10.065655563426022" id="-47832">
		<tag k="name" v="Døåkjølen" />
		<tag k="natural" v="wetland" />
		<tag k="ssr:stedsnr" v="194557" />
	</node>
	<node lat="62.757869440869605" lon="10.08620000580129" id="-47835">
		<tag k="landuse" v="meadow" />
		<tag k="name" v="Døvassenget" />
		<tag k="ssr:stedsnr" v="194569" />
	</node>
	<node lat="62.86485833442428" lon="9.95690832801625" id="-47867">
		<tag k="name" v="Høgmyra" />
		<tag k="natural" v="wetland" />
		<tag k="ssr:stedsnr" v="218563" />
	</node>
	<node lat="62.85275556005981" lon="9.83618054768209" id="-47877">
		<tag k="landuse" v="meadow" />
		<tag k="name" v="Øyan" />
		<tag k="ssr:stedsnr" v="218730" />
	</node>
	<node lat="62.940024999167406" lon="9.783713888170404" id="-47881">
		<tag k="name" v="Innlegget" />
		<tag k="place" v="locality" />
		<tag k="ssr:stedsnr" v="218682" />
	</node>
	<node lat="62.81060833272239" lon="10.146108325310351" id="-47891">
		<tag k="name" v="Gunnarslættet" />
		<tag k="place" v="locality" />
		<tag k="ssr:stedsnr" v="218816" />
	</node>
	<node lat="62.787711109283855" lon="10.10621110700817" id="-47893">
		<tag k="name" v="Eggjslættet" />
		<tag k="place" v="locality" />
		<tag k="ssr:stedsnr" v="218820" />
	</node>
	<node lat="62.87255555464202" lon="10.053083337411346" id="-47902">
		<tag k="name" v="Hardbetet" />
		<tag k="place" v="locality" />
		<tag k="ssr:stedsnr" v="218769" />
	</node>
	<node lat="62.87958333229987" lon="9.851705551965189" id="-47911">
		<tag k="name" v="Holan" />
		<tag k="place" v="locality" />
		<tag k="ssr:stedsnr" v="278551" />
	</node>
	<node lat="62.753180554173646" lon="10.035305553575418" id="-47912">
		<tag k="name" v="Botnaenget" />
		<tag k="place" v="locality" />
		<tag k="ssr:stedsnr" v="278793" />
	</node>
	<node lat="62.75721667012543" lon="10.073005546947416" id="-47913">
		<tag k="name" v="Storfloan" />
		<tag k="natural" v="wetland" />
		<tag k="ssr:stedsnr" v="278796" />
	</node>
	<node lat="62.926694441745354" lon="9.776208334470818" id="-47923">
		<tag k="name" v="Skjelsenget" />
		<tag k="place" v="locality" />
		<tag k="ssr:stedsnr" v="279676" />
	</node>
	<node lat="62.91463888503699" lon="9.830416659090199" id="-47924">
		<tag k="name" v="Hardholtet" />
		<tag k="natural" v="wetland" />
		<tag k="ssr:stedsnr" v="279680" />
	</node>
	<node lat="62.93315000069417" lon="9.840291674939236" id="-47927">
		<tag k="name" v="Vargkrokan" />
		<tag k="natural" v="wetland" />
		<tag k="ssr:stedsnr" v="279582" />
	</node>
	<node lat="62.69497500158655" lon="10.098844451159438" id="-47929">
		<tag k="landuse" v="meadow" />
		<tag k="name" v="Gruvløkkja" />
		<tag k="ssr:stedsnr" v="279586" />
	</node>
	<node lat="62.85707499714251" lon="9.93328889375506" id="-47934">
		<tag k="name" v="Vardbergsmyra" />
		<tag k="natural" v="wetland" />
		<tag k="ssr:stedsnr" v="279637" />
	</node>
	<node lat="62.865619444872046" lon="9.852983333047982" id="-47942">
		<tag k="name" v="Brandin" />
		<tag k="place" v="locality" />
		<tag k="ssr:stedsnr" v="279746" />
	</node>
	<node lat="62.888475003620954" lon="9.588519439867424" id="-47956">
		<tag k="name" v="Nordstugguløkkja" />
		<tag k="place" v="locality" />
		<tag k="ssr:stedsnr" v="279965" />
	</node>
	<node lat="62.94619999963756" lon="9.778630560426334" id="-47980">
		<tag k="name" v="Pollekra" />
		<tag k="place" v="locality" />
		<tag k="ssr:stedsnr" v="339652" />
	</node>
	<node lat="62.91821111503095" lon="9.718441668008255" id="-47981">
		<tag k="name" v="Kvernamyra" />
		<tag k="natural" v="wetland" />
		<tag k="ssr:stedsnr" v="339653" />
	</node>
	<node lat="62.83954721933445" lon="9.592811114130017" id="-47999">
		<tag k="name" v="Kjevmyran" />
		<tag k="natural" v="wetland" />
		<tag k="ssr:stedsnr" v="339576" />
	</node>
	<node lat="62.86100833551833" lon="9.93852499605582" id="-48001">
		<tag k="name" v="Småslættet" />
		<tag k="natural" v="wetland" />
		<tag k="ssr:stedsnr" v="339582" />
	</node>
	<node lat="62.786675004039424" lon="9.639155555373156" id="-48003">
		<tag k="historic" v="shieling" />
		<tag k="name" v="Holsvollen" />
		<tag k="place" v="locality" />
		<tag k="ssr:stedsnr" v="339587" />
	</node>
	<node lat="62.902183336293824" lon="10.052869454373026" id="-48005">
		<tag k="name" v="Brattstigen" />
		<tag k="place" v="locality" />
		<tag k="ssr:stedsnr" v="339825" />
	</node>
	<node lat="62.88766666523553" lon="9.619150005455861" id="-48007">
		<tag k="name" v="Ræin" />
		<tag k="place" v="locality" />
		<tag k="ssr:stedsnr" v="339955" />
	</node>
	<node lat="62.96599722573103" lon="9.83698889680986" id="-48009">
		<tag k="name" v="Jorli statsskog" />
		<tag k="place" v="locality" />
		<tag k="ssr:stedsnr" v="339971" />
	</node>
	<node lat="62.751758335278055" lon="10.036530548682762" id="-48010">
		<tag k="name" v="Åsenget" />
		<tag k="place" v="locality" />
		<tag k="ssr:stedsnr" v="339977" />
	</node>
	<node lat="62.77262221935147" lon="9.671966656957542" id="-48016">
		<tag k="landuse" v="quarry" />
		<tag k="name" v="Steinbruddet" />
		<tag k="ssr:stedsnr" v="339616" />
	</node>
	<node lat="62.928291665338826" lon="9.785311117574556" id="-48020">
		<tag k="name" v="Innlegget" />
		<tag k="place" v="locality" />
		<tag k="ssr:stedsnr" v="339625" />
	</node>
	<node lat="62.752252776796134" lon="9.902622225157545" id="-48039">
		<tag k="name" v="Heverbotnan" />
		<tag k="place" v="locality" />
		<tag k="ssr:stedsnr" v="339691" />
	</node>
	<node lat="62.88838611238553" lon="9.999147225768004" id="-48076">
		<tag k="name" v="Aurevasskjølen" />
		<tag k="natural" v="wetland" />
		<tag k="ssr:stedsnr" v="376913" />
	</node>
	<node lat="62.881855551319205" lon="9.856375002671621" id="-48086">
		<tag k="name" v="Våggåskilmyra" />
		<tag k="natural" v="wetland" />
		<tag k="ssr:stedsnr" v="399531" />
	</node>
	<node lat="62.845208333200304" lon="9.93880834194937" id="-48099">
		<tag k="name" v="Trøin" />
		<tag k="place" v="locality" />
		<tag k="ssr:stedsnr" v="400598" />
	</node>
	<node lat="62.94131111166707" lon="9.721352771060035" id="-48110">
		<tag k="name" v="Skamfjellmyran" />
		<tag k="natural" v="wetland" />
		<tag k="ssr:stedsnr" v="400670" />
	</node>
	<node lat="62.94766666398836" lon="9.78204999655686" id="-48113">
		<tag k="name" v="Hesthåggån" />
		<tag k="place" v="locality" />
		<tag k="ssr:stedsnr" v="400674" />
	</node>
	<node lat="62.8573722228744" lon="9.879211114451541" id="-48115">
		<tag k="name" v="Øver Bystvadet" />
		<tag k="place" v="locality" />
		<tag k="ssr:stedsnr" v="400748" />
	</node>
	<node lat="62.806049997120496" lon="10.146627772113275" id="-48118">
		<tag k="name" v="Bjerkåsslættet" />
		<tag k="place" v="locality" />
		<tag k="ssr:stedsnr" v="400816" />
	</node>
	<node lat="62.851855552893625" lon="9.83420554707579" id="-48132">
		<tag k="landuse" v="meadow" />
		<tag k="name" v="Hol" />
		<tag k="ssr:stedsnr" v="400846" />
	</node>
	<node lat="62.76392777772018" lon="10.009722222685669" id="-48136">
		<tag k="historic" v="shieling" />
		<tag k="name" v="Sætervangen" />
		<tag k="place" v="locality" />
		<tag k="ssr:stedsnr" v="400934" />
	</node>
	<node lat="62.616816669731705" lon="10.005302771402883" id="-48139">
		<tag k="name" v="Innerdalsmorka" />
		<tag k="place" v="locality" />
		<tag k="ssr:stedsnr" v="400950" />
	</node>
	<node lat="62.95476944058006" lon="9.778005559894638" id="-48141">
		<tag k="name" v="Landøya" />
		<tag k="place" v="locality" />
		<tag k="ssr:stedsnr" v="400955" />
	</node>
	<node lat="62.7192194410754" lon="9.987561114542107" id="-48157">
		<tag k="name" v="Granholtet" />
		<tag k="place" v="locality" />
		<tag k="ssr:stedsnr" v="436293" />
	</node>
	<node lat="62.97034444176688" lon="9.821205553180045" id="-48207">
		<tag k="name" v="Grytløkkja" />
		<tag k="place" v="locality" />
		<tag k="ssr:stedsnr" v="514025" />
	</node>
	<node lat="62.85401666778207" lon="10.069888880015894" id="-48209">
		<tag k="name" v="Gravakselløkkja" />
		<tag k="place" v="locality" />
		<tag k="ssr:stedsnr" v="521194" />
	</node>
	<node lat="62.86238611486006" lon="9.754822213397047" id="-48218">
		<tag k="historic" v="shieling" />
		<tag k="name" v="Gammelsætrin" />
		<tag k="place" v="locality" />
		<tag k="ssr:stedsnr" v="521692" />
	</node>
	<node lat="62.93821666950069" lon="9.804669435857036" id="-48219">
		<tag k="name" v="Myran" />
		<tag k="natural" v="wetland" />
		<tag k="ssr:stedsnr" v="521695" />
	</node>
	<node lat="62.84879166809084" lon="9.960802772107046" id="-48227">
		<tag k="name" v="Grønslættet" />
		<tag k="natural" v="wetland" />
		<tag k="ssr:stedsnr" v="521616" />
	</node>
	<node lat="62.83110277448194" lon="9.694411115025602" id="-48237">
		<tag k="name" v="Myrslættet" />
		<tag k="place" v="locality" />
		<tag k="ssr:stedsnr" v="521656" />
	</node>
	<node lat="62.764736108948796" lon="10.072783325484545" id="-48243">
		<tag k="name" v="Kåsen" />
		<tag k="natural" v="wetland" />
		<tag k="ssr:stedsnr" v="521768" />
	</node>
	<node lat="62.817719441266455" lon="9.975452786021025" id="-48245">
		<tag k="name" v="Trondplassen" />
		<tag k="place" v="locality" />
		<tag k="ssr:stedsnr" v="521775" />
	</node>
	<node lat="62.814899996363046" lon="10.033258338511262" id="-48246">
		<tag k="name" v="Sagløkkja" />
		<tag k="place" v="locality" />
		<tag k="ssr:stedsnr" v="521777" />
	</node>
	<node lat="62.706233334293124" lon="10.023694435174908" id="-48262">
		<tag k="name" v="Roaldsmyra" />
		<tag k="natural" v="wetland" />
		<tag k="ssr:stedsnr" v="521925" />
	</node>
	<node lat="62.96288888868186" lon="9.745402770241942" id="-48268">
		<tag k="name" v="Trångråket" />
		<tag k="place" v="locality" />
		<tag k="ssr:stedsnr" v="522988" />
	</node>
	<node lat="62.94267777908676" lon="9.684088884523527" id="-48270">
		<tag k="historic" v="shieling" />
		<tag k="name" v="Seås Ytre" />
		<tag k="place" v="locality" />
		<tag k="ssr:stedsnr" v="523000" />
	</node>
	<node lat="62.91093610673617" lon="9.706352780400678" id="-48278">
		<tag k="name" v="Våtøyan" />
		<tag k="natural" v="wetland" />
		<tag k="ssr:stedsnr" v="540868" />
	</node>
	<node lat="62.85744721863413" lon="9.693552783112494" id="-48288">
		<tag k="name" v="Svarthammermyran" />
		<tag k="natural" v="wetland" />
		<tag k="ssr:stedsnr" v="558222" />
	</node>
	<node lat="62.86330832942022" lon="9.987505560131385" id="-48306">
		<tag k="name" v="Storkjølen" />
		<tag k="natural" v="wetland" />
		<tag k="ssr:stedsnr" v="581220" />
	</node>
	<node lat="62.869752780121445" lon="9.855083340956117" id="-48310">
		<tag k="name" v="Kjebergmyra" />
		<tag k="natural" v="wetland" />
		<tag k="ssr:stedsnr" v="581566" />
	</node>
	<node lat="62.8813888856053" lon="9.845069441569692" id="-48313">
		<tag k="name" v="Moledet" />
		<tag k="place" v="locality" />
		<tag k="ssr:stedsnr" v="581532" />
	</node>
	<node lat="62.90907500083132" lon="10.009380545796606" id="-48318">
		<tag k="name" v="Skauma" />
		<tag k="place" v="locality" />
		<tag k="ssr:stedsnr" v="581770" />
	</node>
	<node lat="62.88326110851055" lon="10.06674167168803" id="-48327">
		<tag k="name" v="Tjønnmyra" />
		<tag k="natural" v="wetland" />
		<tag k="ssr:stedsnr" v="581818" />
	</node>
	<node lat="62.92349721952119" lon="9.869772230592238" id="-48334">
		<tag k="historic" v="shieling" />
		<tag k="name" v="Hammersætra" />
		<tag k="place" v="locality" />
		<tag k="ssr:stedsnr" v="582536" />
	</node>
	<node lat="62.767575004060426" lon="9.928552774673005" id="-48344">
		<tag k="name" v="Storsteinen" />
		<tag k="natural" v="wetland" />
		<tag k="ssr:stedsnr" v="582578" />
	</node>
	<node lat="62.792163885191194" lon="9.647969435154758" id="-48350">
		<tag k="name" v="Omnsråa" />
		<tag k="natural" v="wetland" />
		<tag k="ssr:stedsnr" v="582621" />
	</node>
	<node lat="62.92606666263083" lon="9.779947212349075" id="-48354">
		<tag k="name" v="Krokan" />
		<tag k="place" v="locality" />
		<tag k="ssr:stedsnr" v="582675" />
	</node>
	<node lat="62.84684444565187" lon="9.851888888375546" id="-48359">
		<tag k="name" v="Kærreshaugen" />
		<tag k="place" v="locality" />
		<tag k="ssr:stedsnr" v="582766" />
	</node>
	<node lat="62.921158336082094" lon="9.807211113531107" id="-48366">
		<tag k="name" v="Løkkjmyra" />
		<tag k="natural" v="wetland" />
		<tag k="ssr:stedsnr" v="582833" />
	</node>
</osm>
