<?xml version="1.0" encoding="UTF-8"?>
<osm version="0.6" generator="osmapis">
	<node lat="62.936730559843305" lon="9.766272220497068" id="-83333">
		<tag k="amenity" v="community_centre" />
		<tag k="name" v="Folkheim forsamlingshus" />
		<tag k="ssr:stedsnr" v="279684" />
	</node>
	<node lat="62.7856277807433" lon="9.622188886118021" id="-83478">
		<tag k="amenity" v="community_centre" />
		<tag k="name" v="Fjellheim" />
		<tag k="ssr:stedsnr" v="388805" />
	</node>
	<node lat="62.876052780671934" lon="9.83371666520692" id="-84370">
		<tag k="alt_name" v="Rennebu" />
		<tag k="amenity" v="place_of_worship" />
		<tag k="denomination" v="lutheran" />
		<tag k="name" v="Rennebu kirke" />
		<tag k="religion" v="christian" />
		<tag k="ssr:stedsnr" v="133899" />
	</node>
	<node lat="62.78813055775877" lon="9.622497228592348" id="-84377">
		<tag k="amenity" v="place_of_worship" />
		<tag k="denomination" v="lutheran" />
		<tag k="name" v="Nerskogen kapell" />
		<tag k="religion" v="christian" />
		<tag k="ssr:stedsnr" v="149784" />
	</node>
	<node lat="62.83641388833494" lon="10.138058328372345" id="-84654">
		<tag k="name" v="Jønnblæstret" />
		<tag k="place" v="locality" />
		<tag k="ssr:stedsnr" v="339781" />
	</node>
	<node lat="62.72033055982046" lon="10.042536106702844" id="-84894">
		<tag k="alt_name" v="Innset" />
		<tag k="amenity" v="place_of_worship" />
		<tag k="denomination" v="lutheran" />
		<tag k="name" v="Innset kirke" />
		<tag k="religion" v="christian" />
		<tag k="ssr:stedsnr" v="521948" />
	</node>
	<node lat="62.844139675054365" lon="9.903279111840147" id="-85397">
		<tag k="amenity" v="place_of_worship" />
		<tag k="fixme" v="specify religion=*, denomination=*, building=* etc" />
		<tag k="name" v="Holsmoen bedehus" />
		<tag k="ssr:stedsnr" v="983063" />
	</node>
	<node lat="62.83022295787939" lon="10.0027569370753" id="-85406">
		<tag k="amenity" v="place_of_worship" />
		<tag k="denomination" v="lutheran" />
		<tag k="name" v="Berkåk kirke" />
		<tag k="religion" v="christian" />
		<tag k="ssr:stedsnr" v="983361" />
	</node>
</osm>
