<?xml version="1.0" encoding="UTF-8"?>
<osm generator="osmapis" version="0.6">
	<node id="-718846" lat="62.8477694435" lon="9.82627777076">
		<tag k="name" v="Langvassmoen" />
		<tag k="place" v="farm" />
		<tag k="ssr:stedsnr" v="339726" />
	</node>
	<node id="-718845" lat="62.8404000018" lon="9.88888333638">
		<tag k="name" v="Søgard" />
		<tag k="place" v="farm" />
		<tag k="ssr:stedsnr" v="339714" />
	</node>
	<node id="-718844" lat="62.8564277783" lon="9.826269444">
		<tag k="name" v="Pellen" />
		<tag k="place" v="farm" />
		<tag k="ssr:stedsnr" v="339710" />
	</node>
	<node id="-718843" lat="62.8618027747" lon="9.83345278739">
		<tag k="name" v="Nordstuggu" />
		<tag k="place" v="farm" />
		<tag k="ssr:stedsnr" v="339709" />
	</node>
	<node id="-718841" lat="62.8385583351" lon="9.88114444631">
		<tag k="name" v="Stuggu" />
		<tag k="place" v="farm" />
		<tag k="ssr:stedsnr" v="339697" />
	</node>
	<node id="-718837" lat="62.9371166683" lon="9.77947500882">
		<tag k="name" v="Gjerdet" />
		<tag k="place" v="farm" />
		<tag k="ssr:stedsnr" v="339678" />
	</node>
	<node id="-718834" lat="62.9222388887" lon="9.75936388377">
		<tag k="name" v="Grana" />
		<tag k="place" v="farm" />
		<tag k="ssr:stedsnr" v="339659" />
	</node>
	<node id="-718830" lat="62.9388416648" lon="9.86857776904">
		<tag k="historic" v="shieling" />
		<tag k="name" v="Storvasshytta" />
		<tag k="place" v="locality" />
		<tag k="ssr:stedsnr" v="339519" />
	</node>
	<node id="-718828" lat="62.8752777802" lon="9.84466110535">
		<tag k="name" v="Torsgarden" />
		<tag k="place" v="farm" />
		<tag k="ssr:stedsnr" v="339505" />
	</node>
	<node id="-718825" lat="62.8769388897" lon="9.84221388347">
		<tag k="name" v="Nerbakken" />
		<tag k="place" v="farm" />
		<tag k="ssr:stedsnr" v="339485" />
	</node>
	<node id="-718824" lat="62.8481249989" lon="9.89033332556">
		<tag k="alt_name" v="Norigard" />
		<tag k="name" v="Nørigard" />
		<tag k="place" v="farm" />
		<tag k="ssr:stedsnr" v="339462" />
	</node>
	<node id="-718823" lat="62.8628472244" lon="10.0507749958">
		<tag k="name" v="Huset" />
		<tag k="place" v="farm" />
		<tag k="ssr:stedsnr" v="339217" />
	</node>
	<node id="-718819" lat="62.7767138878" lon="9.6073249929">
		<tag k="historic" v="shieling" />
		<tag k="name" v="Uvssætra" />
		<tag k="place" v="locality" />
		<tag k="ssr:stedsnr" v="316893" />
	</node>
	<node id="-718817" lat="62.8353375869" lon="10.0412625622">
		<tag k="name" v="Rødåsen" />
		<tag k="place" v="hamlet" />
		<tag k="ssr:stedsnr" v="316945" />
	</node>
	<node id="-718816" lat="62.8640361129" lon="9.83431945299">
		<tag k="name" v="Ramstad" />
		<tag k="place" v="farm" />
		<tag k="ssr:stedsnr" v="316921" />
	</node>
	<node id="-718814" lat="62.7568416648" lon="9.97154999202">
		<tag k="name" v="Lia" />
		<tag k="place" v="farm" />
		<tag k="ssr:stedsnr" v="316651" />
	</node>
	<node id="-717477" lat="62.7138555526" lon="9.95193611297">
		<tag k="alt_name" v="Gisnås" />
		<tag k="fixme" v="consider place=hamlet" />
		<tag k="name" v="Gisnåsen" />
		<tag k="place" v="farm" />
		<tag k="ssr:stedsnr" v="72320" />
	</node>
	<node id="-718809" lat="62.8807722191" lon="9.84260000916">
		<tag k="name" v="Moan" />
		<tag k="place" v="farm" />
		<tag k="ssr:stedsnr" v="315901" />
	</node>
	<node id="-718808" lat="62.8733694408" lon="9.73798332619">
		<tag k="alt_name" v="Åsheim" />
		<tag k="name" v="Risvangan" />
		<tag k="place" v="farm" />
		<tag k="ssr:stedsnr" v="315895" />
	</node>
	<node id="-718803" lat="62.8280388858" lon="10.0093472127">
		<tag k="name" v="Berkåk" />
		<tag k="place" v="village" />
		<tag k="ssr:stedsnr" v="315550" />
	</node>
	<node id="-718802" lat="62.7968888865" lon="9.9982027807">
		<tag k="name" v="Nylendet" />
		<tag k="place" v="farm" />
		<tag k="ssr:stedsnr" v="315562" />
	</node>
	<node id="-717475" lat="62.703069448" lon="9.93524722176">
		<tag k="alt_name" v="Gisnås" />
		<tag k="fixme" v="consider place=hamlet" />
		<tag k="name" v="Gisnåsen" />
		<tag k="place" v="farm" />
		<tag k="ssr:stedsnr" v="241999" />
	</node>
	<node id="-718799" lat="62.7230405371" lon="9.81182145803">
		<tag k="fixme" v="multiple name tags, choose one and add the other to alt_name; consider place=hamlet" />
		<tag k="name" v="Dalen;Olsmeddalen" />
		<tag k="place" v="farm" />
		<tag k="ssr:stedsnr" v="315295" />
	</node>
	<node id="-718798" lat="62.7277297268" lon="9.99854146605">
		<tag k="fixme" v="consider place=hamlet" />
		<tag k="name" v="Bakken" />
		<tag k="place" v="farm" />
		<tag k="ssr:stedsnr" v="315292" />
	</node>
	<node id="-718794" lat="62.7384027043" lon="9.98887684576">
		<tag k="fixme" v="consider place=hamlet" />
		<tag k="name" v="Gullikstad" />
		<tag k="place" v="farm" />
		<tag k="ssr:stedsnr" v="315327" />
	</node>
	<node id="-718793" lat="62.7055138982" lon="10.034685808">
		<tag k="alt_name" v="Trondshaugen" />
		<tag k="fixme" v="consider place=hamlet" />
		<tag k="name" v="Tronshaugen" />
		<tag k="place" v="farm" />
		<tag k="ssr:stedsnr" v="315275" />
	</node>
	<node id="-718788" lat="62.8961166668" lon="9.81272500082">
		<tag k="alt_name" v="Rishaug" />
		<tag k="name" v="Rishaugen" />
		<tag k="place" v="farm" />
		<tag k="ssr:stedsnr" v="195987" />
	</node>
	<node id="-718787" lat="62.8944924863" lon="9.81523104704">
		<tag k="name" v="Risan" />
		<tag k="place" v="farm" />
		<tag k="ssr:stedsnr" v="195986" />
	</node>
	<node id="-718784" lat="62.8501833322" lon="9.82288610608">
		<tag k="alt_name" v="Tyingen" />
		<tag k="name" v="Tvingen" />
		<tag k="place" v="farm" />
		<tag k="ssr:stedsnr" v="195932" />
	</node>
	<node id="-718783" lat="62.8534733554" lon="9.83220039014">
		<tag k="name" v="Hol" />
		<tag k="place" v="hamlet" />
		<tag k="ssr:stedsnr" v="195929" />
	</node>
	<node id="-718782" lat="62.8482202182" lon="9.8916376545">
		<tag k="name" v="Skjervan" />
		<tag k="place" v="hamlet" />
		<tag k="ssr:stedsnr" v="195926" />
	</node>
	<node id="-718780" lat="62.8400472191" lon="10.0142750092">
		<tag k="name" v="Bjørklia" />
		<tag k="place" v="farm" />
		<tag k="ssr:stedsnr" v="195914" />
	</node>
	<node id="-718779" lat="62.8819611134" lon="10.0920222216">
		<tag k="fixme" v="consider place=hamlet" />
		<tag k="name" v="Rønningen" />
		<tag k="place" v="farm" />
		<tag k="ssr:stedsnr" v="195892" />
	</node>
	<node id="-718776" lat="62.7895416651" lon="9.62966111083">
		<tag k="name" v="Løvli" />
		<tag k="place" v="farm" />
		<tag k="ssr:stedsnr" v="194855" />
	</node>
	<node id="-718775" lat="62.7998583327" lon="9.54705276965">
		<tag k="historic" v="shieling" />
		<tag k="name" v="Svartdalssætrin" />
		<tag k="place" v="locality" />
		<tag k="ssr:stedsnr" v="194850" />
	</node>
	<node id="-718774" lat="62.7823833302" lon="9.60667777299">
		<tag k="fixme" v="consider place=hamlet" />
		<tag k="name" v="Nerskogen" />
		<tag k="old_name" v="Norskogen" />
		<tag k="place" v="village" />
		<tag k="ssr:stedsnr" v="194756" />
	</node>
	<node id="-718772" lat="62.7558444413" lon="10.0011416599">
		<tag k="alt_name" v="Springen" />
		<tag k="name" v="Vasspring" />
		<tag k="place" v="farm" />
		<tag k="ssr:stedsnr" v="194568" />
	</node>
	<node id="-718771" lat="62.7588333315" lon="9.97304444673">
		<tag k="alt_name" v="Vasskjelhaugen" />
		<tag k="name" v="Vasskjeldhaugen" />
		<tag k="place" v="farm" />
		<tag k="ssr:stedsnr" v="194563" />
	</node>
	<node id="-718769" lat="62.6999258105" lon="9.9574764993">
		<tag k="alt_name" v="Brua" />
		<tag k="fixme" v="consider place=hamlet" />
		<tag k="name" v="Brudalen" />
		<tag k="place" v="farm" />
		<tag k="ssr:stedsnr" v="194276" />
	</node>
	<node id="-718768" lat="62.7017111081" lon="10.1710527737">
		<tag k="historic" v="shieling" />
		<tag k="name" v="Kristenbakken" />
		<tag k="place" v="locality" />
		<tag k="ssr:stedsnr" v="194266" />
	</node>
	<node id="-719227" lat="62.8476638892" lon="9.88508610689">
		<tag k="name" v="Kreppet" />
		<tag k="place" v="farm" />
		<tag k="ssr:stedsnr" v="582486" />
	</node>
	<node id="-718765" lat="62.7856944414" lon="9.99680277775">
		<tag k="alt_name" v="Torsetberga" />
		<tag k="name" v="Tosetberget" />
		<tag k="place" v="farm" />
		<tag k="ssr:stedsnr" v="194538" />
	</node>
	<node id="-718764" lat="62.7840222263" lon="9.97552222541">
		<tag k="name" v="Havdalsløkkja" />
		<tag k="place" v="farm" />
		<tag k="ssr:stedsnr" v="194537" />
	</node>
	<node id="-718763" lat="62.793652402" lon="10.0330157345">
		<tag k="alt_name" v="Skamfersetra" />
		<tag k="name" v="Skamfersætra" />
		<tag k="place" v="hamlet" />
		<tag k="ssr:stedsnr" v="194534" />
	</node>
	<node id="-717468" lat="62.7951638905" lon="9.987919439">
		<tag k="name" v="Brattsetegga" />
		<tag k="place" v="farm" />
		<tag k="ssr:stedsnr" v="36906" />
	</node>
	<node id="-718758" lat="62.7447861151" lon="9.89313334077">
		<tag k="historic" v="shieling" />
		<tag k="name" v="Gammelsætrin" />
		<tag k="place" v="locality" />
		<tag k="ssr:stedsnr" v="193381" />
	</node>
	<node id="-718757" lat="62.6782810018" lon="10.0305570437">
		<tag k="fixme" v="consider place=hamlet" />
		<tag k="name" v="Erikssætra" />
		<tag k="place" v="farm" />
		<tag k="ssr:stedsnr" v="193244" />
	</node>
	<node id="-718756" lat="62.7118872326" lon="10.0298389796">
		<tag k="fixme" v="consider place=hamlet" />
		<tag k="name" v="Myrbekken" />
		<tag k="place" v="farm" />
		<tag k="ssr:stedsnr" v="193351" />
	</node>
	<node id="-718755" lat="62.72465556" lon="10.0265083335">
		<tag k="alt_name" v="Bottenhaugen" />
		<tag k="name" v="Botnhaugen" />
		<tag k="place" v="farm" />
		<tag k="ssr:stedsnr" v="193335" />
	</node>
	<node id="-718754" lat="62.7283750001" lon="9.83799999981">
		<tag k="name" v="Kloppløkkja" />
		<tag k="place" v="isolated_dwelling" />
		<tag k="ssr:stedsnr" v="193329" />
	</node>
	<node id="-718753" lat="62.7198396491" lon="10.0208441616">
		<tag k="fixme" v="consider place=hamlet" />
		<tag k="name" v="Øya" />
		<tag k="place" v="farm" />
		<tag k="ssr:stedsnr" v="193326" />
	</node>
	<node id="-718752" lat="62.9291361076" lon="9.70143332594">
		<tag k="historic" v="shieling" />
		<tag k="name" v="Oppstugguåsen" />
		<tag k="place" v="locality" />
		<tag k="ssr:stedsnr" v="176995" />
	</node>
	<node id="-718751" lat="62.724447222" lon="9.85306944843">
		<tag k="historic" v="shieling" />
		<tag k="name" v="Heverstølsætra" />
		<tag k="place" v="locality" />
		<tag k="ssr:stedsnr" v="163834" />
	</node>
	<node id="-718749" lat="62.7164805554" lon="10.0420194531">
		<tag k="name" v="Rotbakken" />
		<tag k="place" v="farm" />
		<tag k="ssr:stedsnr" v="157986" />
	</node>
	<node id="-718740" lat="62.7531111138" lon="9.96908055528">
		<tag k="name" v="Nersletta" />
		<tag k="place" v="farm" />
		<tag k="ssr:stedsnr" v="157927" />
	</node>
	<node id="-718738" lat="62.7646750039" lon="9.97080278336">
		<tag k="name" v="Fossum" />
		<tag k="place" v="farm" />
		<tag k="ssr:stedsnr" v="157917" />
	</node>
	<node id="-718731" lat="62.7797305522" lon="9.97081111767">
		<tag k="name" v="Våttåli" />
		<tag k="place" v="farm" />
		<tag k="ssr:stedsnr" v="157880" />
	</node>
	<node id="-718730" lat="62.7952999982" lon="9.98460276937">
		<tag k="name" v="Brattsetgjerdet" />
		<tag k="place" v="farm" />
		<tag k="ssr:stedsnr" v="157877" />
	</node>
	<node id="-718725" lat="62.833619448" lon="10.1391611102">
		<tag k="name" v="Skaumsjøhøy statsskog" />
		<tag k="place" v="locality" />
		<tag k="ssr:stedsnr" v="157833" />
	</node>
	<node id="-718707" lat="62.8691666642" lon="10.0538833263">
		<tag k="name" v="Piken" />
		<tag k="place" v="farm" />
		<tag k="ssr:stedsnr" v="157768" />
	</node>
	<node id="-718700" lat="62.8488972186" lon="9.85630556263">
		<tag k="name" v="Nørigard" />
		<tag k="place" v="farm" />
		<tag k="ssr:stedsnr" v="157738" />
	</node>
	<node id="-718698" lat="62.8370833307" lon="9.88624999909">
		<tag k="name" v="Råket" />
		<tag k="place" v="isolated_dwelling" />
		<tag k="ssr:stedsnr" v="157711" />
	</node>
	<node id="-718697" lat="62.8401694445" lon="9.88457222326">
		<tag k="name" v="Nørigard" />
		<tag k="place" v="farm" />
		<tag k="ssr:stedsnr" v="157708" />
	</node>
	<node id="-717456" lat="62.8571376073" lon="9.83341601972">
		<tag k="name" v="Lånke" />
		<tag k="place" v="hamlet" />
		<tag k="ssr:stedsnr" v="13938" />
	</node>
	<node id="-718686" lat="62.9271305599" lon="9.73634722525">
		<tag k="name" v="Høgset" />
		<tag k="place" v="farm" />
		<tag k="ssr:stedsnr" v="157646" />
	</node>
	<node id="-718684" lat="62.9441055566" lon="9.77018889709">
		<tag k="name" v="Tinna" />
		<tag k="place" v="farm" />
		<tag k="ssr:stedsnr" v="157632" />
	</node>
	<node id="-718677" lat="62.9021527794" lon="9.80432223062">
		<tag k="name" v="Lundahaugen" />
		<tag k="place" v="farm" />
		<tag k="ssr:stedsnr" v="157595" />
	</node>
	<node id="-718675" lat="62.9043250007" lon="9.80710555673">
		<tag k="name" v="Solberg" />
		<tag k="place" v="farm" />
		<tag k="ssr:stedsnr" v="157585" />
	</node>
	<node id="-718668" lat="62.8814166671" lon="9.56096944527">
		<tag k="historic" v="shieling" />
		<tag k="name" v="Innstuggusætra" />
		<tag k="place" v="locality" />
		<tag k="ssr:stedsnr" v="157550" />
	</node>
	<node id="-718664" lat="62.9380388899" lon="9.86789166011">
		<tag k="historic" v="shieling" />
		<tag k="name" v="Nystuggusætra" />
		<tag k="place" v="locality" />
		<tag k="ssr:stedsnr" v="157515" />
	</node>
	<node id="-718659" lat="62.8491027753" lon="9.86772499364">
		<tag k="name" v="Garden" />
		<tag k="place" v="farm" />
		<tag k="ssr:stedsnr" v="157455" />
	</node>
	<node id="-718658" lat="62.8472000041" lon="9.88715833619">
		<tag k="name" v="Myrastuggu" />
		<tag k="place" v="isolated_dwelling" />
		<tag k="ssr:stedsnr" v="157452" />
	</node>
	<node id="-718657" lat="62.8464694455" lon="9.89110554893">
		<tag k="name" v="Nørigard" />
		<tag k="place" v="farm" />
		<tag k="ssr:stedsnr" v="157447" />
	</node>
	<node id="-718652" lat="62.8544983091" lon="10.0757714905">
		<tag k="alt_name" v="Gravakselløkkja" />
		<tag k="name" v="Gravaksellykkja" />
		<tag k="place" v="farm" />
		<tag k="ssr:stedsnr" v="134940" />
	</node>
	<node id="-717450" lat="62.9426833304" lon="9.6840416641">
		<tag k="historic" v="shieling" />
		<tag k="name" v="Seåssætrin" />
		<tag k="place" v="locality" />
		<tag k="ssr:stedsnr" v="12228" />
	</node>
	<node id="-718650" lat="62.9170511588" lon="9.75882039751">
		<tag k="fixme" v="consider place=hamlet" />
		<tag k="name" v="Hoset" />
		<tag k="place" v="farm" />
		<tag k="ssr:stedsnr" v="133998" />
	</node>
	<node id="-718649" lat="62.9100116793" lon="9.79766255843">
		<tag k="fixme" v="consider place=hamlet" />
		<tag k="name" v="Mærk" />
		<tag k="place" v="farm" />
		<tag k="ssr:stedsnr" v="133986" />
	</node>
	<node id="-718647" lat="62.9423388918" lon="9.77065555243">
		<tag k="alt_name" v="Aune" />
		<tag k="fixme" v="consider place=hamlet" />
		<tag k="name" v="Aunan" />
		<tag k="place" v="farm" />
		<tag k="ssr:stedsnr" v="133952" />
	</node>
	<node id="-717449" lat="62.8594388923" lon="9.50114167079">
		<tag k="historic" v="shieling" />
		<tag k="name" v="Oppstuggusætra" />
		<tag k="place" v="locality" />
		<tag k="ssr:stedsnr" v="12212" />
	</node>
	<node id="-718643" lat="62.9635555573" lon="9.8015222258">
		<tag k="name" v="Bjørklia" />
		<tag k="place" v="farm" />
		<tag k="ssr:stedsnr" v="133781" />
	</node>
	<node id="-718642" lat="62.9583999964" lon="9.87923889518">
		<tag k="historic" v="shieling" />
		<tag k="name" v="Gorsetsætrin" />
		<tag k="place" v="locality" />
		<tag k="ssr:stedsnr" v="133779" />
	</node>
	<node id="-718641" lat="62.7962833293" lon="9.70526943648">
		<tag k="name" v="Lånkmosætra" />
		<tag k="place" v="isolated_dwelling" />
		<tag k="ssr:stedsnr" v="133853" />
	</node>
	<node id="-718640" lat="62.779441667" lon="9.60371666924">
		<tag k="name" v="Heimly" />
		<tag k="place" v="farm" />
		<tag k="ssr:stedsnr" v="133842" />
	</node>
	<node id="-718639" lat="62.7810638885" lon="9.63518888808">
		<tag k="historic" v="shieling" />
		<tag k="name" v="Lånksætra" />
		<tag k="place" v="locality" />
		<tag k="ssr:stedsnr" v="133836" />
	</node>
	<node id="-718638" lat="62.7639972249" lon="9.60876667427">
		<tag k="fixme" v="multiple name tags, choose one and add the other to alt_name" />
		<tag k="historic" v="shieling" />
		<tag k="name" v="Eldålisætrin;Hårstadsætra" />
		<tag k="place" v="locality" />
		<tag k="ssr:stedsnr" v="133750" />
	</node>
	<node id="-718636" lat="62.7986166691" lon="10.022497225">
		<tag k="alt_name" v="Setergjerdet" />
		<tag k="name" v="Sætergjerdet" />
		<tag k="place" v="farm" />
		<tag k="ssr:stedsnr" v="133554" />
	</node>
	<node id="-718635" lat="62.7917611156" lon="9.71998332717">
		<tag k="historic" v="shieling" />
		<tag k="name" v="Ramsesløkkjsætra" />
		<tag k="place" v="locality" />
		<tag k="ssr:stedsnr" v="133552" />
	</node>
	<node id="-718633" lat="62.8026027807" lon="10.0707249987">
		<tag k="historic" v="shieling" />
		<tag k="name" v="Håggåsætra" />
		<tag k="place" v="locality" />
		<tag k="ssr:stedsnr" v="133543" />
	</node>
	<node id="-718631" lat="62.8190499966" lon="10.0111972236">
		<tag k="name" v="Skamferhåggån" />
		<tag k="place" v="farm" />
		<tag k="ssr:stedsnr" v="133526" />
	</node>
	<node id="-718630" lat="62.699883336" lon="10.1796222294">
		<tag k="fixme" v="multiple name tags, choose one and add the other to alt_name" />
		<tag k="historic" v="shieling" />
		<tag k="name" v="Nørdre Novsætra;Haugasætra" />
		<tag k="place" v="locality" />
		<tag k="ssr:stedsnr" v="133271" />
	</node>
	<node id="-718626" lat="62.7428027813" lon="10.0420972247">
		<tag k="historic" v="shieling" />
		<tag k="loc_name" v="Eggjasætrin" />
		<tag k="name" v="Eggasætra" />
		<tag k="place" v="locality" />
		<tag k="ssr:stedsnr" v="132354" />
	</node>
	<node id="-718625" lat="62.7393999997" lon="10.0344388927">
		<tag k="historic" v="shieling" />
		<tag k="name" v="Granlisætra" />
		<tag k="place" v="locality" />
		<tag k="ssr:stedsnr" v="132351" />
	</node>
	<node id="-718624" lat="62.6920250018" lon="10.0245805541">
		<tag k="alt_name" v="Missætra;Mesætra" />
		<tag k="historic" v="shieling" />
		<tag k="name" v="Midsætra" />
		<tag k="place" v="locality" />
		<tag k="ssr:stedsnr" v="132282" />
	</node>
	<node id="-718621" lat="62.7131839224" lon="10.0604348446">
		<tag k="fixme" v="consider place=hamlet" />
		<tag k="name" v="Krokhaugen" />
		<tag k="place" v="farm" />
		<tag k="ssr:stedsnr" v="132317" />
	</node>
	<node id="-718620" lat="62.7114027757" lon="10.0414750031">
		<tag k="name" v="Berg" />
		<tag k="place" v="farm" />
		<tag k="ssr:stedsnr" v="132316" />
	</node>
	<node id="-718619" lat="62.7172072213" lon="10.0451479635">
		<tag k="fixme" v="consider place=hamlet" />
		<tag k="name" v="Haugan" />
		<tag k="place" v="farm" />
		<tag k="ssr:stedsnr" v="132315" />
	</node>
	<node id="-718610" lat="62.7167222268" lon="10.038594441">
		<tag k="name" v="Høgli" />
		<tag k="place" v="farm" />
		<tag k="ssr:stedsnr" v="97989" />
	</node>
	<node id="-719149" lat="62.7163305574" lon="10.0353972256">
		<tag k="name" v="Midtgården" />
		<tag k="place" v="farm" />
		<tag k="ssr:stedsnr" v="521973" />
	</node>
	<node id="-718601" lat="62.8531111132" lon="9.84710833045">
		<tag k="name" v="Skomakerspranget" />
		<tag k="place" v="farm" />
		<tag k="ssr:stedsnr" v="97830" />
	</node>
	<node id="-718599" lat="62.7835027742" lon="9.97308610329">
		<tag k="name" v="Norhov" />
		<tag k="place" v="farm" />
		<tag k="ssr:stedsnr" v="97870" />
	</node>
	<node id="-718595" lat="62.8154166701" lon="10.0038694523">
		<tag k="name" v="Uvsøya" />
		<tag k="place" v="isolated_dwelling" />
		<tag k="ssr:stedsnr" v="97781" />
	</node>
	<node id="-718594" lat="62.8492111097" lon="9.85046388328">
		<tag k="name" v="Stamneshaugen" />
		<tag k="place" v="farm" />
		<tag k="ssr:stedsnr" v="97770" />
	</node>
	<node id="-718592" lat="62.9265138853" lon="9.7601277862">
		<tag k="name" v="Gjelan" />
		<tag k="place" v="farm" />
		<tag k="ssr:stedsnr" v="97694" />
	</node>
	<node id="-718577" lat="62.8280111141" lon="9.63626389255">
		<tag k="historic" v="shieling" />
		<tag k="name" v="Hårstadgjerdsætra" />
		<tag k="place" v="locality" />
		<tag k="ssr:stedsnr" v="97634" />
	</node>
	<node id="-718575" lat="62.8273611147" lon="9.63475555036">
		<tag k="historic" v="shieling" />
		<tag k="name" v="Herremsætra" />
		<tag k="place" v="locality" />
		<tag k="ssr:stedsnr" v="97631" />
	</node>
	<node id="-718573" lat="62.843016664" lon="9.60700833924">
		<tag k="historic" v="shieling" />
		<tag k="name" v="Rogogjerdsætra" />
		<tag k="place" v="locality" />
		<tag k="ssr:stedsnr" v="97626" />
	</node>
	<node id="-718569" lat="62.8829500027" lon="9.56283889678">
		<tag k="historic" v="shieling" />
		<tag k="name" v="Plassætra" />
		<tag k="place" v="locality" />
		<tag k="ssr:stedsnr" v="97589" />
	</node>
	<node id="-718568" lat="62.8441416711" lon="9.91023333822">
		<tag k="name" v="Stuggu" />
		<tag k="place" v="farm" />
		<tag k="ssr:stedsnr" v="97576" />
	</node>
	<node id="-718566" lat="62.8488611067" lon="9.86036943576">
		<tag k="name" v="Uvsløkkja" />
		<tag k="place" v="farm" />
		<tag k="ssr:stedsnr" v="97492" />
	</node>
	<node id="-718565" lat="62.8466722263" lon="9.8873722214">
		<tag k="name" v="Myra" />
		<tag k="place" v="farm" />
		<tag k="ssr:stedsnr" v="97481" />
	</node>
	<node id="-718564" lat="62.8533861105" lon="10.0202222182">
		<tag k="name" v="Liagrinda" />
		<tag k="place" v="farm" />
		<tag k="ssr:stedsnr" v="97194" />
	</node>
	<node id="-718560" lat="62.8633916679" lon="10.0953805459">
		<tag k="name" v="Kvernslættet" />
		<tag k="place" v="farm" />
		<tag k="ssr:stedsnr" v="96800" />
	</node>
	<node id="-718556" lat="62.8257194467" lon="9.99918332976">
		<tag k="name" v="Berkåk" />
		<tag k="place" v="hamlet" />
		<tag k="ssr:stedsnr" v="96783" />
	</node>
	<node id="-718551" lat="62.8799694457" lon="9.84173056039">
		<tag k="name" v="Hurunddalen" />
		<tag k="place" v="farm" />
		<tag k="ssr:stedsnr" v="96514" />
	</node>
	<node id="-718549" lat="62.8071722259" lon="10.0591222269">
		<tag k="alt_name" v="Segardsætra" />
		<tag k="historic" v="shieling" />
		<tag k="name" v="Sørgardssætra" />
		<tag k="place" v="locality" />
		<tag k="ssr:stedsnr" v="81182" />
	</node>
	<node id="-718548" lat="62.9223528232" lon="9.7329513243">
		<tag k="alt_name" v="Meåsen" />
		<tag k="fixme" v="consider place=hamlet" />
		<tag k="name" v="Medåsen" />
		<tag k="place" v="farm" />
		<tag k="ssr:stedsnr" v="73948" />
	</node>
	<node id="-718547" lat="62.9276625288" lon="9.72848025462">
		<tag k="fixme" v="consider place=hamlet" />
		<tag k="name" v="Selia" />
		<tag k="place" v="farm" />
		<tag k="ssr:stedsnr" v="73945" />
	</node>
	<node id="-718546" lat="62.8612132744" lon="10.0184943561">
		<tag k="fixme" v="consider place=hamlet" />
		<tag k="name" v="Buvasslia" />
		<tag k="place" v="farm" />
		<tag k="ssr:stedsnr" v="73938" />
	</node>
	<node id="-718545" lat="62.8473397339" lon="9.87696037406">
		<tag k="fixme" v="consider place=hamlet" />
		<tag k="name" v="Refshus" />
		<tag k="place" v="farm" />
		<tag k="ssr:stedsnr" v="73930" />
	</node>
	<node id="-718543" lat="62.8425482157" lon="9.91397106848">
		<tag k="name" v="Tjønnan" />
		<tag k="place" v="hamlet" />
		<tag k="ssr:stedsnr" v="73919" />
	</node>
	<node id="-718541" lat="62.878152782" lon="9.72501111186">
		<tag k="historic" v="shieling" />
		<tag k="name" v="Rokkonessætra" />
		<tag k="place" v="locality" />
		<tag k="ssr:stedsnr" v="73893" />
	</node>
	<node id="-718540" lat="62.8677305548" lon="9.84865277154">
		<tag k="name" v="Kjellan" />
		<tag k="place" v="farm" />
		<tag k="ssr:stedsnr" v="73875" />
	</node>
	<node id="-717431" lat="62.78532778" lon="9.97380278512">
		<tag k="name" v="Saglund" />
		<tag k="place" v="farm" />
		<tag k="ssr:stedsnr" v="218899" />
	</node>
	<node id="-718535" lat="62.8511749957" lon="9.71302776906">
		<tag k="name" v="Granli" />
		<tag k="place" v="isolated_dwelling" />
		<tag k="ssr:stedsnr" v="73828" />
	</node>
	<node id="-718534" lat="62.8568222267" lon="9.47999722655">
		<tag k="historic" v="shieling" />
		<tag k="name" v="Haugasætra" />
		<tag k="place" v="locality" />
		<tag k="ssr:stedsnr" v="73823" />
	</node>
	<node id="-718527" lat="62.6459694471" lon="10.0099555605">
		<tag k="historic" v="shieling" />
		<tag k="name" v="Bakksætra" />
		<tag k="place" v="locality" />
		<tag k="ssr:stedsnr" v="72452" />
	</node>
	<node id="-718525" lat="62.7056333352" lon="9.98900278557">
		<tag k="fixme" v="consider place=hamlet" />
		<tag k="name" v="Djupdalen" />
		<tag k="place" v="farm" />
		<tag k="ssr:stedsnr" v="72284" />
	</node>
	<node id="-718524" lat="62.7062980313" lon="9.93087480069">
		<tag k="alt_name" v="Gisnås" />
		<tag k="name" v="Gisnåsen" />
		<tag k="place" v="hamlet" />
		<tag k="ssr:stedsnr" v="72282" />
	</node>
	<node id="-718523" lat="62.7029983666" lon="9.96984667989">
		<tag k="alt_name" v="Trondsmyra" />
		<tag k="fixme" v="consider place=hamlet" />
		<tag k="name" v="Torshaugen" />
		<tag k="place" v="farm" />
		<tag k="ssr:stedsnr" v="72280" />
	</node>
	<node id="-718519" lat="62.809886114" lon="10.030677774">
		<tag k="name" v="Børslættet" />
		<tag k="place" v="farm" />
		<tag k="ssr:stedsnr" v="42935" />
	</node>
	<node id="-718516" lat="62.9648999962" lon="9.75489444546">
		<tag k="name" v="Haugan" />
		<tag k="place" v="isolated_dwelling" />
		<tag k="ssr:stedsnr" v="36989" />
	</node>
	<node id="-718514" lat="62.8322833352" lon="10.1073472194">
		<tag k="historic" v="shieling" />
		<tag k="name" v="Litlkosbergsætra" />
		<tag k="place" v="locality" />
		<tag k="ssr:stedsnr" v="36800" />
	</node>
	<node id="-718512" lat="62.8313249961" lon="9.99719722276">
		<tag k="name" v="Ry" />
		<tag k="place" v="farm" />
		<tag k="ssr:stedsnr" v="36791" />
	</node>
	<node id="-718510" lat="62.8348416642" lon="9.98285556396">
		<tag k="name" v="Nordgard" />
		<tag k="place" v="farm" />
		<tag k="ssr:stedsnr" v="36783" />
	</node>
	<node id="-718508" lat="62.8496861152" lon="9.84016110856">
		<tag k="name" v="Stamneshåggån" />
		<tag k="place" v="farm" />
		<tag k="ssr:stedsnr" v="36750" />
	</node>
	<node id="-718498" lat="62.8388583331" lon="9.89045832679">
		<tag k="name" v="Oppstuggu" />
		<tag k="place" v="farm" />
		<tag k="ssr:stedsnr" v="36715" />
	</node>
	<node id="-718496" lat="62.83777222" lon="9.88461944925">
		<tag k="name" v="Midtmelen" />
		<tag k="place" v="farm" />
		<tag k="ssr:stedsnr" v="36705" />
	</node>
	<node id="-718494" lat="62.7243249976" lon="9.85077776804">
		<tag k="historic" v="shieling" />
		<tag k="name" v="Åssætra" />
		<tag k="place" v="locality" />
		<tag k="ssr:stedsnr" v="36679" />
	</node>
	<node id="-718488" lat="62.9330222228" lon="9.77901665776">
		<tag k="name" v="Nordstuggu" />
		<tag k="place" v="farm" />
		<tag k="ssr:stedsnr" v="36656" />
	</node>
	<node id="-718486" lat="62.9231888928" lon="9.77234444519">
		<tag k="name" v="Hosethaug" />
		<tag k="place" v="farm" />
		<tag k="ssr:stedsnr" v="36642" />
	</node>
	<node id="-718482" lat="62.9210388889" lon="9.76115555867">
		<tag k="name" v="Flotten" />
		<tag k="place" v="farm" />
		<tag k="ssr:stedsnr" v="36633" />
	</node>
	<node id="-718481" lat="62.9191861113" lon="9.75509444066">
		<tag k="name" v="Skogtun" />
		<tag k="place" v="farm" />
		<tag k="ssr:stedsnr" v="36630" />
	</node>
	<node id="-718480" lat="62.9342194479" lon="9.76501666087">
		<tag k="name" v="Kalvhåggån" />
		<tag k="place" v="farm" />
		<tag k="ssr:stedsnr" v="36625" />
	</node>
	<node id="-718479" lat="62.9373694474" lon="9.77021111312">
		<tag k="name" v="Aunholen" />
		<tag k="place" v="farm" />
		<tag k="ssr:stedsnr" v="36624" />
	</node>
	<node id="-718471" lat="62.8916138871" lon="9.81751110506">
		<tag k="name" v="Risan" />
		<tag k="place" v="farm" />
		<tag k="ssr:stedsnr" v="36595" />
	</node>
	<node id="-718469" lat="62.7803638878" lon="9.62236388738">
		<tag k="historic" v="shieling" />
		<tag k="name" v="Gammelseterhaugen" />
		<tag k="place" v="locality" />
		<tag k="ssr:stedsnr" v="36576" />
	</node>
	<node id="-718467" lat="62.8459333344" lon="9.93174166572">
		<tag k="name" v="Kåpparmyra" />
		<tag k="place" v="farm" />
		<tag k="ssr:stedsnr" v="36565" />
	</node>
	<node id="-718464" lat="62.8403083355" lon="9.96290556136">
		<tag k="name" v="Slipershåggån" />
		<tag k="place" v="farm" />
		<tag k="ssr:stedsnr" v="36539" />
	</node>
	<node id="-718460" lat="62.7538722257" lon="9.96405000532">
		<tag k="name" v="Steinsli" />
		<tag k="place" v="farm" />
		<tag k="ssr:stedsnr" v="36529" />
	</node>
	<node id="-718458" lat="62.7072611107" lon="9.92868611206">
		<tag k="name" v="Eggåsen" />
		<tag k="place" v="isolated_dwelling" />
		<tag k="ssr:stedsnr" v="36512" />
	</node>
	<node id="-718452" lat="62.8175500036" lon="10.0356083383">
		<tag k="name" v="Olderøya" />
		<tag k="place" v="farm" />
		<tag k="ssr:stedsnr" v="35780" />
	</node>
	<node id="-718443" lat="62.7189083305" lon="10.0468138923">
		<tag k="name" v="Haugen" />
		<tag k="place" v="farm" />
		<tag k="ssr:stedsnr" v="36983" />
	</node>
	<node id="-718442" lat="62.7200888856" lon="10.036991669">
		<tag k="name" v="Nordlia" />
		<tag k="place" v="farm" />
		<tag k="ssr:stedsnr" v="36981" />
	</node>
	<node id="-717415" lat="62.9108277763" lon="9.81780278624">
		<tag k="fixme" v="consider place=hamlet" />
		<tag k="name" v="Hamran" />
		<tag k="place" v="farm" />
		<tag k="ssr:stedsnr" v="218647" />
	</node>
	<node id="-718437" lat="62.8020749957" lon="10.0123000096">
		<tag k="building" v="industrial" />
		<tag k="industrial" v="factory" />
		<tag k="name" v="Brattset kraftverk" />
		<tag k="ssr:stedsnr" v="20179" />
	</node>
	<node id="-718435" lat="62.8911805527" lon="9.72562500238">
		<tag k="historic" v="shieling" />
		<tag k="name" v="Sæterslættet" />
		<tag k="place" v="locality" />
		<tag k="ssr:stedsnr" v="12978" />
	</node>
	<node id="-718434" lat="62.9471944437" lon="9.76201389119">
		<tag k="name" v="Engset" />
		<tag k="place" v="farm" />
		<tag k="ssr:stedsnr" v="12968" />
	</node>
	<node id="-718432" lat="62.9438916669" lon="9.87084165698">
		<tag k="alt_name" v="Vollsætra" />
		<tag k="historic" v="shieling" />
		<tag k="name" v="Gardsvollsætra" />
		<tag k="place" v="locality" />
		<tag k="ssr:stedsnr" v="12959" />
	</node>
	<node id="-718430" lat="62.8822472011" lon="9.82403257286">
		<tag k="fixme" v="consider place=hamlet" />
		<tag k="name" v="Nesjan" />
		<tag k="place" v="farm" />
		<tag k="ssr:stedsnr" v="12893" />
	</node>
	<node id="-718428" lat="62.7918194434" lon="9.63574722251">
		<tag k="name" v="Oppheim" />
		<tag k="place" v="farm" />
		<tag k="ssr:stedsnr" v="12869" />
	</node>
	<node id="-718426" lat="62.7954888896" lon="9.64417778414">
		<tag k="name" v="Bakklia" />
		<tag k="place" v="farm" />
		<tag k="ssr:stedsnr" v="12859" />
	</node>
	<node id="-718425" lat="62.7950055583" lon="9.63801111289">
		<tag k="name" v="Lyngstad" />
		<tag k="place" v="farm" />
		<tag k="ssr:stedsnr" v="12858" />
	</node>
	<node id="-718422" lat="62.9318388885" lon="9.86774444205">
		<tag k="historic" v="shieling" />
		<tag k="name" v="Mærkessætrin" />
		<tag k="place" v="locality" />
		<tag k="ssr:stedsnr" v="12948" />
	</node>
	<node id="-718417" lat="62.8279965524" lon="9.98032590129">
		<tag k="fixme" v="consider place=hamlet" />
		<tag k="name" v="Vangsengan" />
		<tag k="place" v="farm" />
		<tag k="ssr:stedsnr" v="12573" />
	</node>
	<node id="-718416" lat="62.7061750024" lon="10.1260333409">
		<tag k="alt_name" v="Norholt" />
		<tag k="name" v="Nordholt" />
		<tag k="place" v="farm" />
		<tag k="ssr:stedsnr" v="12298" />
	</node>
	<node id="-718415" lat="62.703300024" lon="10.03465617">
		<tag k="alt_name" v="Skjulshus" />
		<tag k="fixme" v="consider place=hamlet" />
		<tag k="name" v="Sjulshus" />
		<tag k="place" v="farm" />
		<tag k="ssr:stedsnr" v="12293" />
	</node>
	<node id="-718414" lat="62.7066200457" lon="10.0318282941">
		<tag k="alt_name" v="Bottenflata" />
		<tag k="fixme" v="consider place=hamlet" />
		<tag k="name" v="Botnflata" />
		<tag k="place" v="farm" />
		<tag k="ssr:stedsnr" v="12291" />
	</node>
	<node id="-718411" lat="62.7095972579" lon="9.93240653971">
		<tag k="alt_name" v="Jehanåsen;Jønnåsen" />
		<tag k="name" v="Jehansåsen" />
		<tag k="place" v="farm" />
		<tag k="ssr:stedsnr" v="11277" />
	</node>
	<node id="-718409" lat="62.6775884195" lon="10.1452075019">
		<tag k="alt_name" v="Gardli;Garlia" />
		<tag k="fixme" v="consider place=hamlet" />
		<tag k="name" v="Gardlia" />
		<tag k="place" v="farm" />
		<tag k="ssr:stedsnr" v="11252" />
	</node>
	<node id="-718408" lat="62.6871169442" lon="10.0335862071">
		<tag k="alt_name" v="Frantzsetra" />
		<tag k="fixme" v="consider place=hamlet" />
		<tag k="name" v="Franssætra" />
		<tag k="place" v="farm" />
		<tag k="ssr:stedsnr" v="11244" />
	</node>
	<node id="-718407" lat="62.7417083335" lon="10.0340694531">
		<tag k="fixme" v="multiple name tags, choose one and add the other to alt_name" />
		<tag k="historic" v="shieling" />
		<tag k="name" v="Austbergsætra;Ulsbergsætra" />
		<tag k="place" v="locality" />
		<tag k="ssr:stedsnr" v="11370" />
	</node>
	<node id="-718405" lat="62.7441722211" lon="9.95792221401">
		<tag k="name" v="Heverløkkja" />
		<tag k="place" v="farm" />
		<tag k="ssr:stedsnr" v="11353" />
	</node>
	<node id="-718403" lat="62.8297188805" lon="10.0088366108">
		<tag k="amenity" v="sports_centre" />
		<tag k="name" v="Rennebuhallen" />
		<tag k="ssr:stedsnr" v="983358" />
	</node>
	<node id="-718402" lat="62.8493026885" lon="9.85714057802">
		<tag k="building" v="commercial" />
		<tag k="name" v="Meieriet" />
		<tag k="ssr:stedsnr" v="983027" />
	</node>
	<node id="-718401" lat="62.8529003146" lon="9.85661466106">
		<tag k="leisure" v="pitch" />
		<tag k="name" v="Frambanen" />
		<tag k="ssr:stedsnr" v="983025" />
	</node>
	<node id="-718400" lat="62.8493433804" lon="9.85867462288">
		<tag k="name" v="Jutulstuggu" />
		<tag k="place" v="locality" />
		<tag k="ssr:stedsnr" v="983024" />
	</node>
	<node id="-718398" lat="62.8710816647" lon="9.94823426896">
		<tag k="name" v="Finnvasstuggu" />
		<tag k="place" v="locality" />
		<tag k="ssr:stedsnr" v="981580" />
	</node>
	<node id="-718394" lat="62.8760435159" lon="9.90512691569">
		<tag k="name" v="Røravasstuggu" />
		<tag k="place" v="isolated_dwelling" />
		<tag k="ssr:stedsnr" v="980984" />
	</node>
	<node id="-718392" lat="62.8482014319" lon="9.8554408382">
		<tag k="name" v="Stamnan" />
		<tag k="place" v="hamlet" />
		<tag k="ssr:stedsnr" v="972922" />
	</node>
	<node id="-717403" lat="62.8825166702" lon="9.56080554701">
		<tag k="historic" v="shieling" />
		<tag k="name" v="Utstuggusætra" />
		<tag k="place" v="locality" />
		<tag k="ssr:stedsnr" v="218562" />
	</node>
	<node id="-718388" lat="62.7629805552" lon="9.99639444981">
		<tag k="alt_name" v="Toset S." />
		<tag k="name" v="Søndre Toset" />
		<tag k="place" v="farm" />
		<tag k="ssr:stedsnr" v="946922" />
	</node>
	<node id="-718382" lat="62.8382194457" lon="9.89202777879">
		<tag k="name" v="Gunnesøyan" />
		<tag k="place" v="farm" />
		<tag k="ssr:stedsnr" v="946712" />
	</node>
	<node id="-718381" lat="62.8380833351" lon="9.88410000741">
		<tag k="name" v="Nordmelen" />
		<tag k="place" v="farm" />
		<tag k="ssr:stedsnr" v="946703" />
	</node>
	<node id="-718379" lat="62.928344442" lon="9.72378333246">
		<tag k="name" v="Selia" />
		<tag k="place" v="farm" />
		<tag k="ssr:stedsnr" v="946836" />
	</node>
	<node id="-718371" lat="62.8336393943" lon="9.9545407421">
		<tag k="alt_name" v="Nersetra" />
		<tag k="fixme" v="consider place=hamlet" />
		<tag k="name" v="Nersætra" />
		<tag k="place" v="farm" />
		<tag k="ssr:stedsnr" v="922911" />
	</node>
	<node id="-718370" lat="62.8342472265" lon="9.98301667492">
		<tag k="name" v="Kosberg" />
		<tag k="place" v="farm" />
		<tag k="ssr:stedsnr" v="922908" />
	</node>
	<node id="-718369" lat="62.8702358482" lon="10.0291863751">
		<tag k="name" v="Aunet" />
		<tag k="place" v="hamlet" />
		<tag k="ssr:stedsnr" v="922870" />
	</node>
	<node id="-718347" lat="62.7668000041" lon="9.70774999065">
		<tag k="historic" v="shieling" />
		<tag k="name" v="Kjellasætra" />
		<tag k="place" v="locality" />
		<tag k="ssr:stedsnr" v="886654" />
	</node>
	<node id="-718343" lat="62.6972472216" lon="10.037600004">
		<tag k="name" v="Ringen" />
		<tag k="place" v="farm" />
		<tag k="ssr:stedsnr" v="885977" />
	</node>
	<node id="-718341" lat="62.8552027807" lon="9.82561943712">
		<tag k="name" v="Lånkmoen" />
		<tag k="place" v="farm" />
		<tag k="ssr:stedsnr" v="885709" />
	</node>
	<node id="-718340" lat="62.86009167" lon="9.8256888911">
		<tag k="name" v="Brattbakken" />
		<tag k="place" v="farm" />
		<tag k="ssr:stedsnr" v="885706" />
	</node>
	<node id="-718339" lat="62.8245416689" lon="10.0433611184">
		<tag k="name" v="Røstan statsskog" />
		<tag k="place" v="locality" />
		<tag k="ssr:stedsnr" v="885823" />
	</node>
	<node id="-718335" lat="62.9558861129" lon="9.77804166917">
		<tag k="name" v="Retøya" />
		<tag k="place" v="farm" />
		<tag k="ssr:stedsnr" v="947951" />
	</node>
	<node id="-718328" lat="62.7135333371" lon="10.0433583297">
		<tag k="name" v="Lageplassen" />
		<tag k="place" v="locality" />
		<tag k="ssr:stedsnr" v="946984" />
	</node>
	<node id="-718322" lat="62.7738611128" lon="9.96876667165">
		<tag k="name" v="Kastet" />
		<tag k="place" v="farm" />
		<tag k="ssr:stedsnr" v="946878" />
	</node>
	<node id="-718321" lat="62.7819555538" lon="9.97390832576">
		<tag k="name" v="Solvang" />
		<tag k="place" v="farm" />
		<tag k="ssr:stedsnr" v="946877" />
	</node>
	<node id="-718316" lat="62.8778999994" lon="9.82661945013">
		<tag k="name" v="Hoff" />
		<tag k="place" v="farm" />
		<tag k="ssr:stedsnr" v="946730" />
	</node>
	<node id="-718313" lat="62.913747219" lon="9.76944167367">
		<tag k="name" v="Myrvang" />
		<tag k="place" v="farm" />
		<tag k="ssr:stedsnr" v="946656" />
	</node>
	<node id="-718310" lat="62.9508277784" lon="9.77278888282">
		<tag k="name" v="Søstu" />
		<tag k="place" v="farm" />
		<tag k="ssr:stedsnr" v="946645" />
	</node>
	<node id="-718303" lat="62.8926666624" lon="9.81659166273">
		<tag k="name" v="Risan" />
		<tag k="place" v="hamlet" />
		<tag k="ssr:stedsnr" v="946601" />
	</node>
	<node id="-718300" lat="62.8266444401" lon="9.6313111152">
		<tag k="historic" v="shieling" />
		<tag k="name" v="Bakksætra" />
		<tag k="place" v="locality" />
		<tag k="ssr:stedsnr" v="946585" />
	</node>
	<node id="-718299" lat="62.8456928068" lon="9.90499105519">
		<tag k="name" v="Nordstuggu" />
		<tag k="place" v="farm" />
		<tag k="ssr:stedsnr" v="946583" />
	</node>
	<node id="-717391" lat="62.8763277789" lon="9.8391861184">
		<tag k="name" v="Korshaugen" />
		<tag k="place" v="farm" />
		<tag k="ssr:stedsnr" v="218492" />
	</node>
	<node id="-718292" lat="62.8835222228" lon="9.5626944494">
		<tag k="historic" v="shieling" />
		<tag k="name" v="Myrmosætra" />
		<tag k="place" v="locality" />
		<tag k="ssr:stedsnr" v="946556" />
	</node>
	<node id="-718289" lat="62.7430277745" lon="9.95137777501">
		<tag k="name" v="Heverstøl" />
		<tag k="place" v="farm" />
		<tag k="ssr:stedsnr" v="946547" />
	</node>
	<node id="-718286" lat="62.7020972201" lon="9.95019721941">
		<tag k="name" v="Bruaplassen" />
		<tag k="place" v="farm" />
		<tag k="ssr:stedsnr" v="946532" />
	</node>
	<node id="-718285" lat="62.701763891" lon="9.94645555933">
		<tag k="name" v="Negard" />
		<tag k="place" v="farm" />
		<tag k="ssr:stedsnr" v="946531" />
	</node>
	<node id="-718283" lat="62.9323555582" lon="9.86573333197">
		<tag k="historic" v="shieling" />
		<tag k="name" v="Røssætrin" />
		<tag k="place" v="locality" />
		<tag k="ssr:stedsnr" v="946511" />
	</node>
	<node id="-718281" lat="62.8767666699" lon="9.84760277999">
		<tag k="name" v="Bakkråa" />
		<tag k="place" v="farm" />
		<tag k="ssr:stedsnr" v="946470" />
	</node>
	<node id="-718278" lat="62.8273019073" lon="10.080208714">
		<tag k="fixme" v="consider place=hamlet" />
		<tag k="name" v="Storslættet" />
		<tag k="place" v="farm" />
		<tag k="ssr:stedsnr" v="946178" />
	</node>
	<node id="-718276" lat="62.7091196675" lon="10.0302603316">
		<tag k="alt_name" v="Håkenstad" />
		<tag k="fixme" v="consider place=hamlet" />
		<tag k="name" v="Håkåstad" />
		<tag k="place" v="farm" />
		<tag k="ssr:stedsnr" v="861274" />
	</node>
	<node id="-718275" lat="62.7775805554" lon="10.1530583318">
		<tag k="historic" v="shieling" />
		<tag k="name" v="Vangsengsætra" />
		<tag k="place" v="locality" />
		<tag k="ssr:stedsnr" v="946798" />
	</node>
	<node id="-718270" lat="62.8658222194" lon="10.0981666681">
		<tag k="name" v="Bjørktun" />
		<tag k="place" v="isolated_dwelling" />
		<tag k="ssr:stedsnr" v="825821" />
	</node>
	<node id="-718268" lat="62.8584055592" lon="9.82918888403">
		<tag k="fixme" v="consider place=hamlet" />
		<tag k="name" v="Rokkones" />
		<tag k="place" v="village" />
		<tag k="ssr:stedsnr" v="824717" />
	</node>
	<node id="-718261" lat="62.84463333" lon="9.61801388505">
		<tag k="name" v="Rishaugsætra" />
		<tag k="place" v="isolated_dwelling" />
		<tag k="ssr:stedsnr" v="801807" />
	</node>
	<node id="-718259" lat="62.7566111118" lon="10.0045166644">
		<tag k="name" v="Haugen" />
		<tag k="place" v="farm" />
		<tag k="ssr:stedsnr" v="801592" />
	</node>
	<node id="-718257" lat="62.7857862146" lon="9.86123062775">
		<tag k="historic" v="shieling" />
		<tag k="name" v="Gunnessætra" />
		<tag k="place" v="locality" />
		<tag k="ssr:stedsnr" v="801573" />
	</node>
	<node id="-718254" lat="62.8232500043" lon="10.0358527808">
		<tag k="name" v="Røstin" />
		<tag k="place" v="farm" />
		<tag k="ssr:stedsnr" v="801559" />
	</node>
	<node id="-718253" lat="62.8718138883" lon="9.54807778583">
		<tag k="historic" v="shieling" />
		<tag k="name" v="Bortstuggusætra" />
		<tag k="place" v="locality" />
		<tag k="ssr:stedsnr" v="801196" />
	</node>
	<node id="-718250" lat="62.6124805521" lon="10.0157749918">
		<tag k="alt_name" v="Storvollen" />
		<tag k="historic" v="shieling" />
		<tag k="name" v="Innerdalsætra" />
		<tag k="place" v="locality" />
		<tag k="ssr:stedsnr" v="800449" />
	</node>
	<node id="-718249" lat="62.9097278836" lon="9.78231937553">
		<tag k="name" v="Ås" />
		<tag k="place" v="hamlet" />
		<tag k="ssr:stedsnr" v="923998" />
	</node>
	<node id="-718246" lat="62.9007594689" lon="9.8077870642">
		<tag k="fixme" v="consider place=hamlet" />
		<tag k="name" v="Lund" />
		<tag k="place" v="farm" />
		<tag k="ssr:stedsnr" v="923986" />
	</node>
	<node id="-718245" lat="62.863058329" lon="9.84468611922">
		<tag k="name" v="Hovengan" />
		<tag k="place" v="farm" />
		<tag k="ssr:stedsnr" v="923951" />
	</node>
	<node id="-718244" lat="62.8535250014" lon="10.0200249978">
		<tag k="name" v="Sollia" />
		<tag k="place" v="farm" />
		<tag k="ssr:stedsnr" v="923935" />
	</node>
	<node id="-718242" lat="62.7797500012" lon="9.6333111018">
		<tag k="historic" v="shieling" />
		<tag k="name" v="Rissætra" />
		<tag k="place" v="locality" />
		<tag k="ssr:stedsnr" v="923867" />
	</node>
	<node id="-718240" lat="62.7536694407" lon="10.0053749902">
		<tag k="name" v="Bakkgjerdet" />
		<tag k="place" v="farm" />
		<tag k="ssr:stedsnr" v="923639" />
	</node>
	<node id="-719619" lat="62.7648083342" lon="10.0613666579">
		<tag k="name" v="Vollen" />
		<tag k="place" v="isolated_dwelling" />
		<tag k="ssr:stedsnr" v="862589" />
	</node>
	<node id="-718238" lat="62.8727972243" lon="9.55157500672">
		<tag k="historic" v="shieling" />
		<tag k="name" v="Øyasætra" />
		<tag k="place" v="locality" />
		<tag k="ssr:stedsnr" v="923237" />
	</node>
	<node id="-718235" lat="62.9669097019" lon="9.79567444546">
		<tag k="fixme" v="consider place=hamlet" />
		<tag k="name" v="Jorlia" />
		<tag k="place" v="farm" />
		<tag k="ssr:stedsnr" v="922774" />
	</node>
	<node id="-718232" lat="62.9540055523" lon="9.76926943707">
		<tag k="fixme" v="consider place=hamlet" />
		<tag k="name" v="Reitan" />
		<tag k="place" v="farm" />
		<tag k="ssr:stedsnr" v="922745" />
	</node>
	<node id="-718228" lat="62.8037805564" lon="10.0915777693">
		<tag k="historic" v="shieling" />
		<tag k="loc_name" v="Berkåksætrin" />
		<tag k="name" v="Kosbergsætra" />
		<tag k="place" v="locality" />
		<tag k="ssr:stedsnr" v="922544" />
	</node>
	<node id="-718226" lat="62.8214307472" lon="9.95866701189">
		<tag k="fixme" v="consider place=hamlet" />
		<tag k="name" v="Hammersætra" />
		<tag k="place" v="farm" />
		<tag k="ssr:stedsnr" v="922530" />
	</node>
	<node id="-718220" lat="62.7325416675" lon="9.88745832619">
		<tag k="alt_name" v="Slettet" />
		<tag k="name" v="Slættet" />
		<tag k="place" v="farm" />
		<tag k="ssr:stedsnr" v="922340" />
	</node>
	<node id="-718219" lat="62.7185833313" lon="9.93585278461">
		<tag k="name" v="Hoggåsen" />
		<tag k="place" v="farm" />
		<tag k="ssr:stedsnr" v="922319" />
	</node>
	<node id="-718218" lat="62.7201999985" lon="9.86266388102">
		<tag k="historic" v="shieling" />
		<tag k="name" v="Litlstølen" />
		<tag k="place" v="locality" />
		<tag k="ssr:stedsnr" v="922303" />
	</node>
	<node id="-718216" lat="62.7042305548" lon="10.1304833356">
		<tag k="name" v="Nåverdalsbakken" />
		<tag k="place" v="farm" />
		<tag k="ssr:stedsnr" v="922270" />
	</node>
	<node id="-718212" lat="62.6452000036" lon="10.0418249923">
		<tag k="historic" v="shieling" />
		<tag k="name" v="Stortjønnvollen" />
		<tag k="place" v="locality" />
		<tag k="ssr:stedsnr" v="921504" />
	</node>
	<node id="-718209" lat="62.7251901232" lon="9.87447464849">
		<tag k="fixme" v="consider place=hamlet" />
		<tag k="name" v="Stølen" />
		<tag k="place" v="farm" />
		<tag k="ssr:stedsnr" v="921345" />
	</node>
	<node id="-718207" lat="62.7282388859" lon="10.1122999995">
		<tag k="historic" v="shieling" />
		<tag k="name" v="Øyasætra" />
		<tag k="place" v="locality" />
		<tag k="ssr:stedsnr" v="921325" />
	</node>
	<node id="-718204" lat="62.6915444457" lon="10.1334499967">
		<tag k="alt_name" v="Litl-Innsetsætra" />
		<tag k="fixme" v="multiple name tags, choose one and add the other to alt_name" />
		<tag k="historic" v="shieling" />
		<tag k="name" v="Garlivangen;Litlinnsetsætra" />
		<tag k="place" v="locality" />
		<tag k="ssr:stedsnr" v="921256" />
	</node>
	<node id="-718199" lat="62.8769722254" lon="10.0437944373">
		<tag k="name" v="Jønnådalen" />
		<tag k="place" v="farm" />
		<tag k="ssr:stedsnr" v="764863" />
	</node>
	<node id="-718198" lat="62.7600611154" lon="9.9717611144">
		<tag k="name" v="Lunheim" />
		<tag k="place" v="farm" />
		<tag k="ssr:stedsnr" v="764861" />
	</node>
	<node id="-718196" lat="62.8165888853" lon="10.0207666761">
		<tag k="name" v="Søgard" />
		<tag k="place" v="farm" />
		<tag k="ssr:stedsnr" v="764857" />
	</node>
	<node id="-718195" lat="62.9112277756" lon="9.77920554646">
		<tag k="name" v="Langbakken" />
		<tag k="place" v="farm" />
		<tag k="ssr:stedsnr" v="764664" />
	</node>
	<node id="-718189" lat="62.7614722178" lon="9.97252777933">
		<tag k="name" v="Nymoen" />
		<tag k="place" v="farm" />
		<tag k="ssr:stedsnr" v="764937" />
	</node>
	<node id="-718185" lat="62.8022055589" lon="10.0015055523">
		<tag k="name" v="Flatlia" />
		<tag k="place" v="farm" />
		<tag k="ssr:stedsnr" v="764912" />
	</node>
	<node id="-718180" lat="62.8478805579" lon="9.88300554954">
		<tag k="name" v="Oppstuggu" />
		<tag k="place" v="farm" />
		<tag k="ssr:stedsnr" v="764479" />
	</node>
	<node id="-718179" lat="62.7502372499" lon="9.98384096762">
		<tag k="name" v="Ulsberg" />
		<tag k="place" v="hamlet" />
		<tag k="ssr:stedsnr" v="759272" />
	</node>
	<node id="-718178" lat="62.7000711952" lon="10.1338573288">
		<tag k="name" v="Vestre Nåverdalen" />
		<tag k="place" v="farm" />
		<tag k="ssr:stedsnr" v="908603" />
	</node>
	<node id="-718175" lat="62.8177027806" lon="10.0298916726">
		<tag k="name" v="Vardsegga" />
		<tag k="place" v="farm" />
		<tag k="ssr:stedsnr" v="748169" />
	</node>
	<node id="-718170" lat="62.751350004" lon="9.95960277885">
		<tag k="name" v="Sundsethaugen" />
		<tag k="place" v="farm" />
		<tag k="ssr:stedsnr" v="740603" />
	</node>
	<node id="-718169" lat="62.7389416254" lon="9.95479785949">
		<tag k="alt_name" v="Heverli" />
		<tag k="fixme" v="consider place=hamlet" />
		<tag k="name" v="Heverliin" />
		<tag k="place" v="farm" />
		<tag k="ssr:stedsnr" v="740355" />
	</node>
	<node id="-718168" lat="62.7396444425" lon="10.1082861157">
		<tag k="historic" v="shieling" />
		<tag k="name" v="Øyasætra" />
		<tag k="place" v="locality" />
		<tag k="ssr:stedsnr" v="739356" />
	</node>
	<node id="-718167" lat="62.7336999993" lon="9.90056944982">
		<tag k="name" v="Stølsvang" />
		<tag k="ssr:stedsnr" v="739297" />
		<tag k="tourism" v="hotel" />
	</node>
	<node id="-718166" lat="62.7354054513" lon="10.0126816517">
		<tag k="fixme" v="consider place=hamlet" />
		<tag k="name" v="Jamthaugen" />
		<tag k="place" v="farm" />
		<tag k="ssr:stedsnr" v="739294" />
	</node>
	<node id="-718165" lat="62.6625000019" lon="10.0205500053">
		<tag k="historic" v="shieling" />
		<tag k="name" v="Øyavangen" />
		<tag k="place" v="locality" />
		<tag k="ssr:stedsnr" v="739261" />
	</node>
	<node id="-718164" lat="62.880900003" lon="9.55695833407">
		<tag k="historic" v="shieling" />
		<tag k="name" v="Jølhaugen" />
		<tag k="place" v="locality" />
		<tag k="ssr:stedsnr" v="903697" />
	</node>
	<node id="-718163" lat="62.8365194438" lon="10.0393249903">
		<tag k="name" v="Rødåsen" />
		<tag k="place" v="farm" />
		<tag k="ssr:stedsnr" v="709332" />
	</node>
	<node id="-718162" lat="62.8344972228" lon="10.0418472208">
		<tag k="name" v="Rødåsen" />
		<tag k="place" v="farm" />
		<tag k="ssr:stedsnr" v="892313" />
	</node>
	<node id="-718161" lat="62.8196694465" lon="10.0147138868">
		<tag k="name" v="Håggån" />
		<tag k="old_name" v="Bakken;Bekken" />
		<tag k="place" v="farm" />
		<tag k="ssr:stedsnr" v="891559" />
	</node>
	<node id="-718159" lat="62.8496333292" lon="9.86078054918">
		<tag k="name" v="Oppinegard" />
		<tag k="place" v="farm" />
		<tag k="ssr:stedsnr" v="704728" />
	</node>
	<node id="-718158" lat="62.8473111138" lon="9.84649444019">
		<tag k="name" v="Håggåkroken" />
		<tag k="place" v="farm" />
		<tag k="ssr:stedsnr" v="704724" />
	</node>
	<node id="-718152" lat="62.9241500038" lon="9.78890832607">
		<tag k="name" v="Midt-Ry" />
		<tag k="place" v="farm" />
		<tag k="ssr:stedsnr" v="704613" />
	</node>
	<node id="-718149" lat="62.8777166634" lon="9.84158056499">
		<tag k="name" v="Rabben" />
		<tag k="place" v="farm" />
		<tag k="ssr:stedsnr" v="703536" />
	</node>
	<node id="-718139" lat="62.7696083378" lon="9.97036388901">
		<tag k="name" v="Sagli" />
		<tag k="place" v="farm" />
		<tag k="ssr:stedsnr" v="886883" />
	</node>
	<node id="-718138" lat="62.7563638855" lon="9.96854721968">
		<tag k="name" v="Oppstuggu" />
		<tag k="place" v="farm" />
		<tag k="ssr:stedsnr" v="886935" />
	</node>
	<node id="-718134" lat="62.7238888883" lon="10.0180777852">
		<tag k="name" v="Krokstad" />
		<tag k="place" v="farm" />
		<tag k="ssr:stedsnr" v="886915" />
	</node>
	<node id="-718133" lat="62.7135305558" lon="10.0226027854">
		<tag k="fixme" v="consider place=hamlet" />
		<tag k="name" v="Korshus" />
		<tag k="place" v="farm" />
		<tag k="ssr:stedsnr" v="886914" />
	</node>
	<node id="-718132" lat="62.7469388865" lon="9.98129167046">
		<tag k="name" v="Lundheim" />
		<tag k="place" v="farm" />
		<tag k="ssr:stedsnr" v="886910" />
	</node>
	<node id="-718119" lat="62.8167222203" lon="10.0335111173">
		<tag k="name" v="Klevan" />
		<tag k="place" v="farm" />
		<tag k="ssr:stedsnr" v="886783" />
	</node>
	<node id="-718118" lat="62.8208305587" lon="10.0062472309">
		<tag k="name" v="Håggån" />
		<tag k="place" v="farm" />
		<tag k="ssr:stedsnr" v="886782" />
	</node>
	<node id="-718110" lat="62.9104638854" lon="9.84988611511">
		<tag k="barrier" v="fence" />
		<tag k="name" v="Torvutgarden" />
		<tag k="ssr:stedsnr" v="886579" />
	</node>
	<node id="-718107" lat="62.8970638873" lon="9.82800278085">
		<tag k="alt_name" v="Husa" />
		<tag k="fixme" v="consider place=hamlet" />
		<tag k="name" v="Huset" />
		<tag k="place" v="farm" />
		<tag k="ssr:stedsnr" v="886642" />
	</node>
	<node id="-718105" lat="62.8883138921" lon="9.8315916633">
		<tag k="name" v="Søstuggu" />
		<tag k="place" v="farm" />
		<tag k="ssr:stedsnr" v="886637" />
	</node>
	<node id="-718103" lat="62.9083916676" lon="9.80062222818">
		<tag k="name" v="Høygreva" />
		<tag k="place" v="farm" />
		<tag k="ssr:stedsnr" v="886630" />
	</node>
	<node id="-718102" lat="62.7139555554" lon="9.95440277441">
		<tag k="name" v="Derned" />
		<tag k="place" v="farm" />
		<tag k="ssr:stedsnr" v="886550" />
	</node>
	<node id="-718099" lat="62.8473555532" lon="9.89976110444">
		<tag k="alt_name" v="Hoelshaugen" />
		<tag k="name" v="Holshaugen" />
		<tag k="place" v="farm" />
		<tag k="ssr:stedsnr" v="886508" />
	</node>
	<node id="-718098" lat="62.8602388894" lon="10.0816166764">
		<tag k="name" v="Bjørkås" />
		<tag k="place" v="farm" />
		<tag k="ssr:stedsnr" v="886198" />
	</node>
	<node id="-718096" lat="62.8356833294" lon="10.0375027737">
		<tag k="name" v="Rødåsen" />
		<tag k="place" v="farm" />
		<tag k="ssr:stedsnr" v="885786" />
	</node>
	<node id="-718093" lat="62.9145750039" lon="10.0206305487">
		<tag k="historic" v="shieling" />
		<tag k="name" v="Vollsætra" />
		<tag k="place" v="locality" />
		<tag k="ssr:stedsnr" v="885735" />
	</node>
	<node id="-718088" lat="62.9242333313" lon="9.71573056418">
		<tag k="historic" v="shieling" />
		<tag k="name" v="Saghaugen" />
		<tag k="place" v="locality" />
		<tag k="ssr:stedsnr" v="680269" />
	</node>
	<node id="-718087" lat="62.7913111154" lon="9.63326667018">
		<tag k="name" v="Fjellstad" />
		<tag k="place" v="farm" />
		<tag k="ssr:stedsnr" v="679862" />
	</node>
	<node id="-718083" lat="62.7075661352" lon="9.98825286119">
		<tag k="fixme" v="consider place=hamlet" />
		<tag k="name" v="Fosshaugen" />
		<tag k="place" v="farm" />
		<tag k="ssr:stedsnr" v="679257" />
	</node>
	<node id="-718078" lat="62.8615884797" lon="9.82768176646">
		<tag k="alt_name" v="Rokkonesløkka" />
		<tag k="name" v="Rokkonesløkkja" />
		<tag k="place" v="farm" />
		<tag k="ssr:stedsnr" v="642814" />
	</node>
	<node id="-718077" lat="62.9100138859" lon="9.79673332978">
		<tag k="name" v="Mærk" />
		<tag k="place" v="farm" />
		<tag k="ssr:stedsnr" v="725097" />
	</node>
	<node id="-718076" lat="62.8478082436" lon="9.88203442376">
		<tag k="name" v="Meslo" />
		<tag k="place" v="hamlet" />
		<tag k="ssr:stedsnr" v="619941" />
	</node>
	<node id="-718074" lat="62.8866972198" lon="9.83338888677">
		<tag k="fixme" v="multiple name tags, choose one and add the other to alt_name" />
		<tag k="name" v="Kroa;Krovollen" />
		<tag k="place" v="farm" />
		<tag k="ssr:stedsnr" v="619919" />
	</node>
	<node id="-718070" lat="62.8342179385" lon="9.97487278968">
		<tag k="fixme" v="consider place=hamlet" />
		<tag k="name" v="Eggjan" />
		<tag k="place" v="farm" />
		<tag k="ssr:stedsnr" v="618904" />
	</node>
	<node id="-718066" lat="62.7120805511" lon="10.2559694464">
		<tag k="historic" v="shieling" />
		<tag k="name" v="Holtsætra" />
		<tag k="place" v="locality" />
		<tag k="ssr:stedsnr" v="618358" />
	</node>
	<node id="-718065" lat="62.8791722247" lon="10.0908388858">
		<tag k="alt_name" v="Halland nedre" />
		<tag k="name" v="Nedre Halland" />
		<tag k="place" v="farm" />
		<tag k="ssr:stedsnr" v="601983" />
	</node>
	<node id="-718064" lat="62.7518083312" lon="9.98782221745">
		<tag k="alt_name" v="Ulsberg øv." />
		<tag k="name" v="Øvre Ulsberg" />
		<tag k="place" v="farm" />
		<tag k="ssr:stedsnr" v="582939" />
	</node>
	<node id="-718063" lat="62.765825001" lon="9.97069445149">
		<tag k="name" v="Lyngås" />
		<tag k="place" v="farm" />
		<tag k="ssr:stedsnr" v="582933" />
	</node>
	<node id="-718055" lat="62.9334361124" lon="9.77925832611">
		<tag k="name" v="Lia" />
		<tag k="place" v="farm" />
		<tag k="ssr:stedsnr" v="582717" />
	</node>
	<node id="-718054" lat="62.915000004" lon="9.76107777254">
		<tag k="name" v="Hosetplassen" />
		<tag k="place" v="farm" />
		<tag k="ssr:stedsnr" v="582712" />
	</node>
	<node id="-719495" lat="62.7220404067" lon="10.0427135376">
		<tag k="fixme" v="consider place=hamlet" />
		<tag k="name" v="Trøa" />
		<tag k="place" v="farm" />
		<tag k="ssr:stedsnr" v="800325" />
	</node>
	<node id="-718051" lat="62.917124996" lon="9.76462777831">
		<tag k="name" v="Myrhaug" />
		<tag k="place" v="farm" />
		<tag k="ssr:stedsnr" v="582707" />
	</node>
	<node id="-718050" lat="62.9171472222" lon="9.76384166108">
		<tag k="name" v="Haugan" />
		<tag k="place" v="farm" />
		<tag k="ssr:stedsnr" v="582705" />
	</node>
	<node id="-718049" lat="62.723136108" lon="10.022233331">
		<tag k="name" v="Midtbotnan" />
		<tag k="place" v="farm" />
		<tag k="ssr:stedsnr" v="582460" />
	</node>
	<node id="-718048" lat="62.8299633779" lon="10.0445602472">
		<tag k="alt_name" v="Nylykkja" />
		<tag k="fixme" v="multiple name tags, choose one and add the other to alt_name" />
		<tag k="name" v="Røstin;Nyløkkja" />
		<tag k="place" v="farm" />
		<tag k="ssr:stedsnr" v="581822" />
	</node>
	<node id="-718041" lat="62.9593694464" lon="9.79125554968">
		<tag k="name" v="Oppstuggu" />
		<tag k="place" v="farm" />
		<tag k="ssr:stedsnr" v="704982" />
	</node>
	<node id="-718031" lat="62.7550833302" lon="9.96908887978">
		<tag k="name" v="Bortstuggu" />
		<tag k="place" v="farm" />
		<tag k="ssr:stedsnr" v="704929" />
	</node>
	<node id="-718029" lat="62.7641055542" lon="9.96975833806">
		<tag k="amenity" v="school" />
		<tag k="name" v="Havdal skule" />
		<tag k="ssr:stedsnr" v="704924" />
	</node>
	<node id="-718027" lat="62.7655499973" lon="9.9955277858">
		<tag k="name" v="Gjelhaugen" />
		<tag k="place" v="isolated_dwelling" />
		<tag k="ssr:stedsnr" v="704911" />
	</node>
	<node id="-718026" lat="62.7129039013" lon="10.0199527043">
		<tag k="fixme" v="consider place=hamlet" />
		<tag k="name" v="Strand" />
		<tag k="place" v="farm" />
		<tag k="ssr:stedsnr" v="704899" />
	</node>
	<node id="-718024" lat="62.7455138915" lon="10.002202774">
		<tag k="name" v="Fikkan" />
		<tag k="place" v="isolated_dwelling" />
		<tag k="ssr:stedsnr" v="704893" />
	</node>
	<node id="-718022" lat="62.771902778" lon="9.98487500858">
		<tag k="name" v="Løfta" />
		<tag k="place" v="isolated_dwelling" />
		<tag k="ssr:stedsnr" v="704871" />
	</node>
	<node id="-718017" lat="62.8395444485" lon="9.88828055432">
		<tag k="name" v="Løkkja" />
		<tag k="place" v="farm" />
		<tag k="ssr:stedsnr" v="704696" />
	</node>
	<node id="-718011" lat="62.9363472222" lon="9.7810361066">
		<tag k="name" v="Kristenhaugen" />
		<tag k="place" v="farm" />
		<tag k="ssr:stedsnr" v="704673" />
	</node>
	<node id="-718010" lat="62.826516663" lon="9.73577221794">
		<tag k="historic" v="shieling" />
		<tag k="name" v="Teighåggåsætra" />
		<tag k="place" v="locality" />
		<tag k="ssr:stedsnr" v="704670" />
	</node>
	<node id="-718009" lat="62.8247749996" lon="9.73555555286">
		<tag k="historic" v="shieling" />
		<tag k="name" v="Teigsætra" />
		<tag k="place" v="locality" />
		<tag k="ssr:stedsnr" v="704669" />
	</node>
	<node id="-718006" lat="62.9154583357" lon="9.76631667237">
		<tag k="name" v="Åsmo" />
		<tag k="place" v="farm" />
		<tag k="ssr:stedsnr" v="704658" />
	</node>
	<node id="-718003" lat="62.9269722245" lon="9.76257500979">
		<tag k="name" v="Oppstuggu" />
		<tag k="place" v="farm" />
		<tag k="ssr:stedsnr" v="704643" />
	</node>
	<node id="-718002" lat="62.9211416709" lon="9.75626944953">
		<tag k="name" v="Hosethåggån" />
		<tag k="place" v="farm" />
		<tag k="ssr:stedsnr" v="704638" />
	</node>
	<node id="-718000" lat="62.9095027772" lon="9.78392222352">
		<tag k="name" v="Oppigard" />
		<tag k="place" v="farm" />
		<tag k="ssr:stedsnr" v="704631" />
	</node>
	<node id="-717999" lat="62.930855556" lon="9.7649666672">
		<tag k="name" v="Utstuggu" />
		<tag k="place" v="farm" />
		<tag k="ssr:stedsnr" v="704629" />
	</node>
	<node id="-717995" lat="62.8887583322" lon="9.8312027872">
		<tag k="name" v="Utstuggu" />
		<tag k="place" v="farm" />
		<tag k="ssr:stedsnr" v="704602" />
	</node>
	<node id="-717989" lat="62.7501250035" lon="9.96266110441">
		<tag k="name" v="Bråtheim" />
		<tag k="place" v="farm" />
		<tag k="ssr:stedsnr" v="704549" />
	</node>
	<node id="-717987" lat="62.7440833328" lon="9.95721944893">
		<tag k="name" v="Nordløkkja" />
		<tag k="place" v="farm" />
		<tag k="ssr:stedsnr" v="704543" />
	</node>
	<node id="-717986" lat="62.6975194458" lon="9.93668056208">
		<tag k="name" v="Åsbakken" />
		<tag k="place" v="farm" />
		<tag k="ssr:stedsnr" v="704518" />
	</node>
	<node id="-717985" lat="62.8485499971" lon="9.89833333319">
		<tag k="name" v="Vassmoen" />
		<tag k="place" v="farm" />
		<tag k="ssr:stedsnr" v="704481" />
	</node>
	<node id="-717982" lat="62.8465944469" lon="9.89078333733">
		<tag k="alt_name" v="Skjerve" />
		<tag k="fixme" v="consider place=hamlet" />
		<tag k="name" v="Skjervan" />
		<tag k="place" v="village" />
		<tag k="ssr:stedsnr" v="704461" />
	</node>
	<node id="-717981" lat="62.7138916708" lon="10.0449722274">
		<tag k="fixme" v="consider place=hamlet" />
		<tag k="name" v="Rønningen" />
		<tag k="place" v="farm" />
		<tag k="ssr:stedsnr" v="703988" />
	</node>
	<node id="-717980" lat="62.8339916674" lon="10.0338194515">
		<tag k="name" v="Rødåsen" />
		<tag k="place" v="farm" />
		<tag k="ssr:stedsnr" v="703855" />
	</node>
	<node id="-717978" lat="62.8668249993" lon="10.052430564">
		<tag k="name" v="Lia" />
		<tag k="place" v="farm" />
		<tag k="ssr:stedsnr" v="703851" />
	</node>
	<node id="-717976" lat="62.9186833316" lon="10.0295833335">
		<tag k="historic" v="shieling" />
		<tag k="name" v="Holsætra" />
		<tag k="place" v="locality" />
		<tag k="ssr:stedsnr" v="703824" />
	</node>
	<node id="-717975" lat="62.8724583304" lon="10.0442916735">
		<tag k="name" v="Nyheim" />
		<tag k="place" v="farm" />
		<tag k="ssr:stedsnr" v="703818" />
	</node>
	<node id="-717971" lat="62.8345444407" lon="9.98095278481">
		<tag k="name" v="Kosbergløkkja" />
		<tag k="place" v="farm" />
		<tag k="ssr:stedsnr" v="703799" />
	</node>
	<node id="-717964" lat="62.8535777769" lon="9.83104999267">
		<tag k="name" v="Øverland" />
		<tag k="place" v="farm" />
		<tag k="ssr:stedsnr" v="703748" />
	</node>
	<node id="-717963" lat="62.8547861102" lon="9.83645555305">
		<tag k="name" v="Nørigard" />
		<tag k="place" v="farm" />
		<tag k="ssr:stedsnr" v="703743" />
	</node>
	<node id="-717962" lat="62.8659550521" lon="9.83361362924">
		<tag k="fixme" v="consider place=hamlet" />
		<tag k="name" v="Rokkogjerdet" />
		<tag k="place" v="farm" />
		<tag k="ssr:stedsnr" v="703736" />
	</node>
	<node id="-717951" lat="62.8717055553" lon="9.84333332814">
		<tag k="name" v="Voll" />
		<tag k="place" v="farm" />
		<tag k="ssr:stedsnr" v="703567" />
	</node>
	<node id="-717947" lat="62.9502888931" lon="9.81227500327">
		<tag k="alt_name" v="Jorfjellia" />
		<tag k="historic" v="shieling" />
		<tag k="name" v="Gorsetsætra" />
		<tag k="place" v="locality" />
		<tag k="ssr:stedsnr" v="558965" />
	</node>
	<node id="-717946" lat="62.9499694467" lon="9.7718416603">
		<tag k="name" v="Nedre Grindal" />
		<tag k="place" v="farm" />
		<tag k="ssr:stedsnr" v="558963" />
	</node>
	<node id="-717945" lat="62.8339944455" lon="10.1268972205">
		<tag k="historic" v="shieling" />
		<tag k="name" v="Eggjsætrin" />
		<tag k="place" v="locality" />
		<tag k="ssr:stedsnr" v="558923" />
	</node>
	<node id="-717942" lat="62.8158570936" lon="10.0227311356">
		<tag k="name" v="Skamfer" />
		<tag k="place" v="hamlet" />
		<tag k="ssr:stedsnr" v="558602" />
	</node>
	<node id="-717941" lat="62.8839212566" lon="9.60401290887">
		<tag k="fixme" v="multiple name tags, choose one and add the other to alt_name" />
		<tag k="historic" v="shieling" />
		<tag k="name" v="Åssætra;Åssætrin" />
		<tag k="place" v="locality" />
		<tag k="ssr:stedsnr" v="558207" />
	</node>
	<node id="-717940" lat="62.7323583314" lon="9.86104444879">
		<tag k="fixme" v="multiple name tags, choose one and add the other to alt_name" />
		<tag k="historic" v="shieling" />
		<tag k="name" v="Brattsetsætra;Brattsætra" />
		<tag k="place" v="locality" />
		<tag k="ssr:stedsnr" v="557353" />
	</node>
	<node id="-717939" lat="62.7278500021" lon="10.0082500068">
		<tag k="alt_name" v="Langbrekka" />
		<tag k="name" v="Smedplassen" />
		<tag k="place" v="farm" />
		<tag k="ssr:stedsnr" v="557303" />
	</node>
	<node id="-717938" lat="62.8173611134" lon="9.80511666383">
		<tag k="fixme" v="consider tourism=alpine_hut or tourism=chalet" />
		<tag k="name" v="Ramssjøen" />
		<tag k="ssr:stedsnr" v="538641" />
		<tag k="tourism" v="wilderness_hut" />
	</node>
	<node id="-717937" lat="62.7663416637" lon="9.86828334018">
		<tag k="fixme" v="consider tourism=alpine_hut or tourism=chalet" />
		<tag k="name" v="Hevertjønna" />
		<tag k="ssr:stedsnr" v="538640" />
		<tag k="tourism" v="wilderness_hut" />
	</node>
	<node id="-717936" lat="62.9303749968" lon="9.78714444989">
		<tag k="name" v="Haugen" />
		<tag k="place" v="farm" />
		<tag k="ssr:stedsnr" v="534810" />
	</node>
	<node id="-717933" lat="62.8497166635" lon="9.8323249918">
		<tag k="name" v="Søgard" />
		<tag k="place" v="farm" />
		<tag k="ssr:stedsnr" v="521745" />
	</node>
	<node id="-717931" lat="62.8532361092" lon="9.83235555348">
		<tag k="name" v="Utstuggu" />
		<tag k="place" v="farm" />
		<tag k="ssr:stedsnr" v="521741" />
	</node>
	<node id="-717924" lat="62.7772611089" lon="9.65891389394">
		<tag k="name" v="Sandhaugen" />
		<tag k="place" v="isolated_dwelling" />
		<tag k="ssr:stedsnr" v="521655" />
	</node>
	<node id="-717921" lat="62.7752027757" lon="9.58243054624">
		<tag k="name" v="Øverli" />
		<tag k="place" v="farm" />
		<tag k="ssr:stedsnr" v="498876" />
	</node>
	<node id="-717918" lat="62.9325416678" lon="9.86573888684">
		<tag k="historic" v="shieling" />
		<tag k="name" v="Rysætra" />
		<tag k="place" v="locality" />
		<tag k="ssr:stedsnr" v="497943" />
	</node>
	<node id="-717917" lat="62.9288470458" lon="9.76040476039">
		<tag k="name" v="Grindal" />
		<tag k="place" v="hamlet" />
		<tag k="ssr:stedsnr" v="497942" />
	</node>
	<node id="-717916" lat="62.7772999991" lon="9.61905278643">
		<tag k="fixme" v="multiple name tags, choose one and add the other to alt_name" />
		<tag k="historic" v="shieling" />
		<tag k="name" v="Nørgardssætra;Vollsætra" />
		<tag k="place" v="locality" />
		<tag k="ssr:stedsnr" v="680892" />
	</node>
	<node id="-717911" lat="62.6559583359" lon="10.0164805625">
		<tag k="alt_name" v="Tjyvlia" />
		<tag k="historic" v="shieling" />
		<tag k="name" v="Tjuvlia" />
		<tag k="place" v="locality" />
		<tag k="ssr:stedsnr" v="496293" />
	</node>
	<node id="-717910" lat="62.6778764198" lon="10.056026057">
		<tag k="fixme" v="consider place=hamlet" />
		<tag k="name" v="Tysksætran" />
		<tag k="place" v="farm" />
		<tag k="ssr:stedsnr" v="496268" />
	</node>
	<node id="-717903" lat="62.8724270372" lon="9.84976276747">
		<tag k="alt_name" v="Vollen" />
		<tag k="fixme" v="consider place=hamlet" />
		<tag k="name" v="Voll" />
		<tag k="place" v="farm" />
		<tag k="ssr:stedsnr" v="679879" />
	</node>
	<node id="-717902" lat="62.8662638868" lon="9.82642221479">
		<tag k="name" v="Ramsesløkkja" />
		<tag k="place" v="farm" />
		<tag k="ssr:stedsnr" v="679874" />
	</node>
	<node id="-717898" lat="62.8199413986" lon="9.92825085918">
		<tag k="historic" v="shieling" />
		<tag k="name" v="Grøtsætra" />
		<tag k="place" v="locality" />
		<tag k="ssr:stedsnr" v="679523" />
	</node>
	<node id="-717896" lat="62.7436944416" lon="10.1080249909">
		<tag k="historic" v="shieling" />
		<tag k="name" v="Slipersætra" />
		<tag k="place" v="locality" />
		<tag k="ssr:stedsnr" v="679340" />
	</node>
	<node id="-717893" lat="62.722391668" lon="9.8468472187">
		<tag k="historic" v="shieling" />
		<tag k="name" v="Havdalssætra" />
		<tag k="place" v="locality" />
		<tag k="ssr:stedsnr" v="679277" />
	</node>
	<node id="-717889" lat="62.7045722228" lon="10.1143638888">
		<tag k="name" v="Nåverdalsbakken" />
		<tag k="place" v="locality" />
		<tag k="ssr:stedsnr" v="483604" />
	</node>
	<node id="-717888" lat="62.8377027743" lon="10.0394277773">
		<tag k="name" v="Rødåsen" />
		<tag k="place" v="farm" />
		<tag k="ssr:stedsnr" v="466360" />
	</node>
	<node id="-717887" lat="62.7110465184" lon="9.93287373102">
		<tag k="alt_name" v="Gisnås;Jehanåsen;Jønnåsen" />
		<tag k="fixme" v="multiple name tags, choose one and add the other to alt_name" />
		<tag k="name" v="Gisnåsen;Jehansåsen" />
		<tag k="place" v="farm" />
		<tag k="ssr:stedsnr" v="666986" />
	</node>
	<node id="-717884" lat="62.7048994527" lon="10.1139052886">
		<tag k="name" v="Vestre Nåverdalen" />
		<tag k="place" v="locality" />
		<tag k="ssr:stedsnr" v="665635" />
	</node>
	<node id="-717882" lat="62.8026083375" lon="9.89127777081">
		<tag k="fixme" v="consider tourism=alpine_hut or tourism=chalet" />
		<tag k="name" v="Damtjønna" />
		<tag k="ssr:stedsnr" v="659639" />
		<tag k="tourism" v="wilderness_hut" />
	</node>
	<node id="-717879" lat="62.8226944447" lon="9.73118055056">
		<tag k="historic" v="shieling" />
		<tag k="name" v="Stamnessætrin" />
		<tag k="place" v="locality" />
		<tag k="ssr:stedsnr" v="437812" />
	</node>
	<node id="-717878" lat="62.925824998" lon="9.69936388996">
		<tag k="historic" v="shieling" />
		<tag k="name" v="Svartbekkøyan" />
		<tag k="place" v="locality" />
		<tag k="ssr:stedsnr" v="437260" />
	</node>
	<node id="-717877" lat="62.7126972208" lon="9.93856110789">
		<tag k="name" v="Nylendåsen" />
		<tag k="place" v="farm" />
		<tag k="ssr:stedsnr" v="436311" />
	</node>
	<node id="-717876" lat="62.7199166646" lon="10.044436104">
		<tag k="alt_name" v="Kleffelgård" />
		<tag k="name" v="Kleffelgarden" />
		<tag k="place" v="farm" />
		<tag k="ssr:stedsnr" v="436303" />
	</node>
	<node id="-717875" lat="62.7001649255" lon="10.1337645055">
		<tag k="name" v="Østre Nåverdalen" />
		<tag k="place" v="farm" />
		<tag k="ssr:stedsnr" v="423618" />
	</node>
	<node id="-717874" lat="62.8156166626" lon="10.0289749923">
		<tag k="name" v="Skamferhaugen" />
		<tag k="place" v="farm" />
		<tag k="ssr:stedsnr" v="406319" />
	</node>
	<node id="-717872" lat="62.8340527788" lon="10.0004444358">
		<tag k="name" v="Mjuklia" />
		<tag k="place" v="isolated_dwelling" />
		<tag k="ssr:stedsnr" v="505189" />
	</node>
	<node id="-717871" lat="62.8355833373" lon="10.0692333389">
		<tag k="name" v="Bjørklia" />
		<tag k="place" v="locality" />
		<tag k="ssr:stedsnr" v="505188" />
	</node>
	<node id="-717870" lat="62.8771444406" lon="9.83956945131">
		<tag k="fixme" v="consider place=suburb, village or hamlet" />
		<tag k="name" v="Voll" />
		<tag k="old_name" v="Rennebu" />
		<tag k="place" v="quarter" />
		<tag k="ssr:stedsnr" v="394270" />
	</node>
	<node id="-717867" lat="62.8683888889" lon="10.1013861069">
		<tag k="name" v="Erlingstad" />
		<tag k="place" v="farm" />
		<tag k="ssr:stedsnr" v="298974" />
	</node>
	<node id="-717864" lat="62.848335038" lon="9.87369095323">
		<tag k="fixme" v="consider place=hamlet" />
		<tag k="name" v="Såggåstad" />
		<tag k="place" v="farm" />
		<tag k="ssr:stedsnr" v="498954" />
	</node>
	<node id="-717863" lat="62.8572666666" lon="9.46731389632">
		<tag k="name" v="Hosetsætra" />
		<tag k="place" v="isolated_dwelling" />
		<tag k="ssr:stedsnr" v="498850" />
	</node>
	<node id="-717855" lat="62.6051388889" lon="10.0292388962">
		<tag k="historic" v="shieling" />
		<tag k="name" v="Nysætra" />
		<tag k="place" v="locality" />
		<tag k="ssr:stedsnr" v="375402" />
	</node>
	<node id="-717854" lat="62.6929749994" lon="10.1940166611">
		<tag k="fixme" v="multiple name tags, choose one and add the other to alt_name" />
		<tag k="historic" v="shieling" />
		<tag k="name" v="Midtre Novsætra;Smedsætra" />
		<tag k="place" v="locality" />
		<tag k="ssr:stedsnr" v="375271" />
	</node>
	<node id="-717853" lat="62.6961553831" lon="9.97718611409">
		<tag k="fixme" v="consider place=hamlet" />
		<tag k="name" v="Krokbekken" />
		<tag k="place" v="farm" />
		<tag k="ssr:stedsnr" v="375268" />
	</node>
	<node id="-717852" lat="62.7080583297" lon="10.1347055556">
		<tag k="historic" v="shieling" />
		<tag k="name" v="Hamran" />
		<tag k="place" v="locality" />
		<tag k="ssr:stedsnr" v="375255" />
	</node>
	<node id="-717850" lat="62.8812749993" lon="9.71572499091">
		<tag k="name" v="Bjerklund" />
		<tag k="place" v="farm" />
		<tag k="ssr:stedsnr" v="498259" />
	</node>
	<node id="-717849" lat="62.8765866867" lon="9.84335702392">
		<tag k="name" v="Bakken" />
		<tag k="place" v="hamlet" />
		<tag k="ssr:stedsnr" v="497899" />
	</node>
	<node id="-717848" lat="62.8782379732" lon="9.83547357937">
		<tag k="alt_name" v="Horstad" />
		<tag k="name" v="Hårstad" />
		<tag k="place" v="hamlet" />
		<tag k="ssr:stedsnr" v="497894" />
	</node>
	<node id="-717847" lat="62.7874027805" lon="9.65435278557">
		<tag k="name" v="Dalasætra" />
		<tag k="place" v="farm" />
		<tag k="ssr:stedsnr" v="497850" />
	</node>
	<node id="-717843" lat="62.8695083297" lon="10.0991861153">
		<tag k="alt_name" v="Håmmårsletta;Håmmårslettet" />
		<tag k="name" v="Håmmårslættet" />
		<tag k="place" v="farm" />
		<tag k="ssr:stedsnr" v="497872" />
	</node>
	<node id="-717841" lat="62.7189737284" lon="10.0399120833">
		<tag k="alt_name" v="Litl-Innset" />
		<tag k="fixme" v="consider place=hamlet" />
		<tag k="name" v="Litlinnset" />
		<tag k="place" v="farm" />
		<tag k="ssr:stedsnr" v="497333" />
	</node>
	<node id="-717839" lat="62.7224027765" lon="10.034199994">
		<tag k="fixme" v="consider place=hamlet" />
		<tag k="name" v="Holtan" />
		<tag k="old_name" v="Holtan, midtre" />
		<tag k="place" v="farm" />
		<tag k="ssr:stedsnr" v="497327" />
	</node>
	<node id="-717837" lat="62.7767666628" lon="9.9680111109">
		<tag k="name" v="Sørlia" />
		<tag k="place" v="farm" />
		<tag k="ssr:stedsnr" v="497572" />
	</node>
	<node id="-717835" lat="62.8063222209" lon="10.0329444418">
		<tag k="name" v="Børset" />
		<tag k="place" v="farm" />
		<tag k="ssr:stedsnr" v="497555" />
	</node>
	<node id="-717834" lat="62.809886114" lon="10.030677774">
		<tag k="fixme" v="multiple name tags, choose one and add the other to alt_name" />
		<tag k="name" v="Børsletta;Smørsgarden" />
		<tag k="place" v="farm" />
		<tag k="ssr:stedsnr" v="497547" />
	</node>
	<node id="-717831" lat="62.7082379608" lon="10.0063796538">
		<tag k="name" v="Bakkenberg" />
		<tag k="place" v="hamlet" />
		<tag k="ssr:stedsnr" v="497281" />
	</node>
	<node id="-717830" lat="62.7276749988" lon="9.87960555426">
		<tag k="alt_name" v="Slettet" />
		<tag k="name" v="Slættet" />
		<tag k="place" v="farm" />
		<tag k="ssr:stedsnr" v="496349" />
	</node>
	<node id="-717829" lat="62.7274999975" lon="9.8553055632">
		<tag k="fixme" v="multiple name tags, choose one and add the other to alt_name" />
		<tag k="historic" v="shieling" />
		<tag k="name" v="Ytterhussætra;Vangbrusætra" />
		<tag k="place" v="locality" />
		<tag k="ssr:stedsnr" v="496346" />
	</node>
	<node id="-717825" lat="62.7324089203" lon="9.9928105615">
		<tag k="alt_name" v="Granli" />
		<tag k="fixme" v="consider place=hamlet" />
		<tag k="name" v="Granlia" />
		<tag k="place" v="farm" />
		<tag k="ssr:stedsnr" v="496325" />
	</node>
	<node id="-717822" lat="62.8950611147" lon="9.82873055118">
		<tag k="name" v="Moen" />
		<tag k="place" v="isolated_dwelling" />
		<tag k="ssr:stedsnr" v="339596" />
	</node>
	<node id="-717813" lat="62.8363416684" lon="9.93172500682">
		<tag k="name" v="Midtstuggu" />
		<tag k="place" v="farm" />
		<tag k="ssr:stedsnr" v="339568" />
	</node>
	<node id="-717808" lat="62.9367111133" lon="9.76725832512">
		<tag k="name" v="Liaunet" />
		<tag k="place" v="farm" />
		<tag k="ssr:stedsnr" v="339632" />
	</node>
	<node id="-717800" lat="62.8134555558" lon="10.0397083335">
		<tag k="name" v="Solheim" />
		<tag k="place" v="farm" />
		<tag k="ssr:stedsnr" v="483038" />
	</node>
	<node id="-717797" lat="62.8481556042" lon="9.87943916177">
		<tag k="fixme" v="consider place=hamlet" />
		<tag k="name" v="Larshus" />
		<tag k="place" v="farm" />
		<tag k="ssr:stedsnr" v="316955" />
	</node>
	<node id="-717796" lat="62.7640388924" lon="9.70543889155">
		<tag k="historic" v="shieling" />
		<tag k="name" v="Gunnessætra" />
		<tag k="place" v="locality" />
		<tag k="ssr:stedsnr" v="316821" />
	</node>
	<node id="-717795" lat="62.7711112501" lon="9.62104505884">
		<tag k="historic" v="shieling" />
		<tag k="name" v="Uvssætra" />
		<tag k="place" v="locality" />
		<tag k="ssr:stedsnr" v="316816" />
	</node>
	<node id="-717794" lat="62.7539166706" lon="9.90000834056">
		<tag k="alt_name" v="Heverfallet" />
		<tag k="historic" v="shieling" />
		<tag k="name" v="Heverfallsætra" />
		<tag k="place" v="locality" />
		<tag k="ssr:stedsnr" v="316658" />
	</node>
	<node id="-717790" lat="62.8309568063" lon="9.9956901147">
		<tag k="fixme" v="consider place=hamlet" />
		<tag k="name" v="Ry" />
		<tag k="place" v="farm" />
		<tag k="ssr:stedsnr" v="315913" />
	</node>
	<node id="-717789" lat="62.7155944484" lon="9.9601444435">
		<tag k="name" v="Stensvollen" />
		<tag k="place" v="farm" />
		<tag k="ssr:stedsnr" v="315310" />
	</node>
	<node id="-717777" lat="62.7613277736" lon="9.97053611999">
		<tag k="name" v="Skogset" />
		<tag k="place" v="farm" />
		<tag k="ssr:stedsnr" v="461933" />
	</node>
	<node id="-717776" lat="62.712578926" lon="10.0278518502">
		<tag k="alt_name" v="Ytre Moen" />
		<tag k="fixme" v="consider place=hamlet" />
		<tag k="name" v="Klingenberg" />
		<tag k="place" v="farm" />
		<tag k="ssr:stedsnr" v="461922" />
	</node>
	<node id="-717774" lat="62.7506999972" lon="10.0111749951">
		<tag k="name" v="Plassgjerdet" />
		<tag k="place" v="isolated_dwelling" />
		<tag k="ssr:stedsnr" v="461912" />
	</node>
	<node id="-717767" lat="62.8707339109" lon="10.0579989723">
		<tag k="fixme" v="consider place=hamlet" />
		<tag k="name" v="Buan" />
		<tag k="place" v="farm" />
		<tag k="ssr:stedsnr" v="461813" />
	</node>
	<node id="-717762" lat="62.8282861073" lon="10.0107694398">
		<tag k="name" v="Korsen" />
		<tag k="place" v="isolated_dwelling" />
		<tag k="ssr:stedsnr" v="461782" />
	</node>
	<node id="-717758" lat="62.9033111108" lon="9.79913055004">
		<tag k="name" v="Lundaløkkja" />
		<tag k="place" v="farm" />
		<tag k="ssr:stedsnr" v="461763" />
	</node>
	<node id="-717757" lat="62.8514583299" lon="9.84957222752">
		<tag k="name" v="Stamnesbrekka" />
		<tag k="place" v="farm" />
		<tag k="ssr:stedsnr" v="461759" />
	</node>
	<node id="-717751" lat="62.8687083302" lon="9.75933055799">
		<tag k="name" v="Markusbakkan" />
		<tag k="place" v="farm" />
		<tag k="ssr:stedsnr" v="461708" />
	</node>
	<node id="-717749" lat="62.927086109" lon="9.78629444926">
		<tag k="name" v="Røshåggån" />
		<tag k="place" v="farm" />
		<tag k="ssr:stedsnr" v="461687" />
	</node>
	<node id="-717743" lat="62.9025000037" lon="9.82181666381">
		<tag k="name" v="Rebergsgjelan" />
		<tag k="place" v="isolated_dwelling" />
		<tag k="ssr:stedsnr" v="461655" />
	</node>
	<node id="-717734" lat="62.7205722202" lon="9.93389999771">
		<tag k="name" v="Melåsen" />
		<tag k="place" v="isolated_dwelling" />
		<tag k="ssr:stedsnr" v="461579" />
	</node>
	<node id="-717731" lat="62.8487666697" lon="9.86594444296">
		<tag k="fixme" v="consider place=hamlet" />
		<tag k="name" v="Uv" />
		<tag k="place" v="village" />
		<tag k="ssr:stedsnr" v="461508" />
	</node>
	<node id="-717730" lat="62.8483250018" lon="9.89221388217">
		<tag k="name" v="Søgard" />
		<tag k="place" v="farm" />
		<tag k="ssr:stedsnr" v="461502" />
	</node>
	<node id="-717729" lat="62.8465722199" lon="9.89020000276">
		<tag k="name" v="Sørbo" />
		<tag k="place" v="farm" />
		<tag k="ssr:stedsnr" v="461496" />
	</node>
	<node id="-717728" lat="62.8295638861" lon="10.0065222317">
		<tag k="alt_name" v="Rennebu ungdomsskole" />
		<tag k="amenity" v="school" />
		<tag k="name" v="Rennebu barne- og ungdomsskole" />
		<tag k="ssr:stedsnr" v="283104" />
	</node>
	<node id="-717727" lat="62.8655333357" lon="10.0699111106">
		<tag k="name" v="Ilvang" />
		<tag k="place" v="farm" />
		<tag k="ssr:stedsnr" v="461209" />
	</node>
	<node id="-717726" lat="62.7011277737" lon="10.0345972291">
		<tag k="name" v="Skogheim" />
		<tag k="place" v="farm" />
		<tag k="ssr:stedsnr" v="460983" />
	</node>
	<node id="-717725" lat="62.7163388913" lon="10.0368444488">
		<tag k="name" v="Tufte" />
		<tag k="place" v="farm" />
		<tag k="ssr:stedsnr" v="460977" />
	</node>
	<node id="-717724" lat="62.7156694475" lon="10.0395972308">
		<tag k="fixme" v="consider place=hamlet" />
		<tag k="name" v="Smedbakken" />
		<tag k="place" v="farm" />
		<tag k="ssr:stedsnr" v="460973" />
	</node>
	<node id="-717723" lat="62.8530222261" lon="10.041580564">
		<tag k="historic" v="shieling" />
		<tag k="name" v="Vassengsætra" />
		<tag k="place" v="locality" />
		<tag k="ssr:stedsnr" v="460873" />
	</node>
	<node id="-717721" lat="62.8716333311" lon="10.0538249995">
		<tag k="name" v="Buhaugen" />
		<tag k="place" v="farm" />
		<tag k="ssr:stedsnr" v="460865" />
	</node>
	<node id="-717717" lat="62.849205552" lon="9.8293777804">
		<tag k="name" v="Holsøya" />
		<tag k="place" v="farm" />
		<tag k="ssr:stedsnr" v="460756" />
	</node>
	<node id="-717715" lat="62.8567500003" lon="9.82496389313">
		<tag k="name" v="Nyegga" />
		<tag k="place" v="farm" />
		<tag k="ssr:stedsnr" v="460744" />
	</node>
	<node id="-717713" lat="62.8726231574" lon="9.84426732357">
		<tag k="name" v="Voll" />
		<tag k="place" v="hamlet" />
		<tag k="ssr:stedsnr" v="460579" />
	</node>
	<node id="-717711" lat="62.8762833341" lon="9.83773334008">
		<tag k="amenity" v="school" />
		<tag k="name" v="Voll skule" />
		<tag k="ssr:stedsnr" v="460564" />
	</node>
	<node id="-717702" lat="62.8469972226" lon="9.90149721797">
		<tag k="name" v="Lia" />
		<tag k="place" v="farm" />
		<tag k="ssr:stedsnr" v="279630" />
	</node>
	<node id="-717699" lat="62.8420416657" lon="9.91052778149">
		<tag k="name" v="Uvstuggu" />
		<tag k="place" v="farm" />
		<tag k="ssr:stedsnr" v="279614" />
	</node>
	<node id="-717698" lat="62.7730416657" lon="9.58303611535">
		<tag k="name" v="Stenset" />
		<tag k="place" v="isolated_dwelling" />
		<tag k="ssr:stedsnr" v="279613" />
	</node>
	<node id="-717696" lat="62.8833305597" lon="9.56334999045">
		<tag k="historic" v="shieling" />
		<tag k="name" v="Hosetsætra" />
		<tag k="place" v="locality" />
		<tag k="ssr:stedsnr" v="279605" />
	</node>
	<node id="-717448" lat="62.8695527821" lon="9.54746667184">
		<tag k="historic" v="shieling" />
		<tag k="name" v="Retsætra" />
		<tag k="place" v="locality" />
		<tag k="ssr:stedsnr" v="12205" />
	</node>
	<node id="-717691" lat="62.8694888857" lon="10.0657499967">
		<tag k="name" v="Nedre Illøkkja" />
		<tag k="place" v="farm" />
		<tag k="ssr:stedsnr" v="255915" />
	</node>
	<node id="-717688" lat="62.7813166651" lon="10.1362527864">
		<tag k="fixme" v="multiple name tags, choose one and add the other to alt_name" />
		<tag k="historic" v="shieling" />
		<tag k="name" v="Haugasætra;Skamferhaugsætra" />
		<tag k="place" v="locality" />
		<tag k="ssr:stedsnr" v="255613" />
	</node>
	<node id="-717687" lat="62.7758138876" lon="9.9733694539">
		<tag k="name" v="Kastløkkja" />
		<tag k="place" v="farm" />
		<tag k="ssr:stedsnr" v="255608" />
	</node>
	<node id="-717685" lat="62.8265055557" lon="9.83174444928">
		<tag k="historic" v="shieling" />
		<tag k="name" v="Holssætrin" />
		<tag k="place" v="locality" />
		<tag k="ssr:stedsnr" v="255567" />
	</node>
	<node id="-717680" lat="62.7050388871" lon="10.0921333327">
		<tag k="name" v="Nyberget" />
		<tag k="place" v="locality" />
		<tag k="ssr:stedsnr" v="254275" />
	</node>
	<node id="-717679" lat="62.7056320634" lon="10.0330270794">
		<tag k="alt_name" v="Øyeplass" />
		<tag k="fixme" v="consider place=hamlet" />
		<tag k="name" v="Øyplassen" />
		<tag k="place" v="farm" />
		<tag k="ssr:stedsnr" v="254269" />
	</node>
	<node id="-717678" lat="62.7072283214" lon="9.97589324047">
		<tag k="fixme" v="consider place=hamlet" />
		<tag k="name" v="Stuthaugen" />
		<tag k="place" v="farm" />
		<tag k="ssr:stedsnr" v="254263" />
	</node>
	<node id="-717677" lat="62.7093194477" lon="9.95700554721">
		<tag k="name" v="Nyhus" />
		<tag k="place" v="farm" />
		<tag k="ssr:stedsnr" v="254260" />
	</node>
	<node id="-717675" lat="62.7987305587" lon="9.9919083365">
		<tag k="name" v="Brattsethaugen" />
		<tag k="place" v="farm" />
		<tag k="ssr:stedsnr" v="218915" />
	</node>
	<node id="-717674" lat="62.8001805521" lon="9.99310554581">
		<tag k="name" v="Ytterhusløkkja" />
		<tag k="place" v="farm" />
		<tag k="ssr:stedsnr" v="218914" />
	</node>
	<node id="-717671" lat="62.752636112" lon="9.99813333026">
		<tag k="name" v="Rosveen" />
		<tag k="place" v="farm" />
		<tag k="ssr:stedsnr" v="218841" />
	</node>
	<node id="-717668" lat="62.87222222" lon="10.0484611053">
		<tag k="fixme" v="consider place=hamlet" />
		<tag k="name" v="Buan" />
		<tag k="place" v="farm" />
		<tag k="ssr:stedsnr" v="218819" />
	</node>
	<node id="-717666" lat="62.7657888925" lon="10.1136777874">
		<tag k="name" v="Kosbergløkkja" />
		<tag k="place" v="isolated_dwelling" />
		<tag k="ssr:stedsnr" v="218809" />
	</node>
	<node id="-717661" lat="62.873411108" lon="9.82353332768">
		<tag k="name" v="Nylia" />
		<tag k="place" v="farm" />
		<tag k="ssr:stedsnr" v="218743" />
	</node>
	<node id="-717657" lat="62.849619441" lon="9.83089444191">
		<tag k="name" v="Rabban" />
		<tag k="place" v="farm" />
		<tag k="ssr:stedsnr" v="218727" />
	</node>
	<node id="-717656" lat="62.841955557" lon="9.87876943686">
		<tag k="name" v="Nørigard" />
		<tag k="place" v="farm" />
		<tag k="ssr:stedsnr" v="218712" />
	</node>
	<node id="-717655" lat="62.9324777788" lon="9.77956389717">
		<tag k="name" v="Søstuggu" />
		<tag k="place" v="farm" />
		<tag k="ssr:stedsnr" v="218707" />
	</node>
	<node id="-717646" lat="62.77849722" lon="9.59993611639">
		<tag k="name" v="Fjellset" />
		<tag k="place" v="farm" />
		<tag k="ssr:stedsnr" v="194837" />
	</node>
	<node id="-717644" lat="62.8006208557" lon="10.0018665625">
		<tag k="name" v="Ytterhus" />
		<tag k="place" v="farm" />
		<tag k="ssr:stedsnr" v="194527" />
	</node>
	<node id="-717643" lat="62.8178500038" lon="10.021850003">
		<tag k="name" v="Nygard" />
		<tag k="place" v="farm" />
		<tag k="ssr:stedsnr" v="194521" />
	</node>
	<node id="-717641" lat="62.8248333374" lon="9.99294722857">
		<tag k="name" v="Berkåksmoen" />
		<tag k="place" v="farm" />
		<tag k="ssr:stedsnr" v="194512" />
	</node>
	<node id="-717640" lat="62.7353201062" lon="9.99123137337">
		<tag k="alt_name" v="Olsbakk øv.;Olsbakken, øvre" />
		<tag k="fixme" v="consider place=hamlet" />
		<tag k="name" v="Øvre Olsbakken" />
		<tag k="place" v="farm" />
		<tag k="ssr:stedsnr" v="193314" />
	</node>
	<node id="-717637" lat="62.7052000014" lon="10.1290888965">
		<tag k="name" v="Nygårdsvollen" />
		<tag k="place" v="farm" />
		<tag k="ssr:stedsnr" v="180555" />
	</node>
	<node id="-717636" lat="62.7039500008" lon="10.1271250049">
		<tag k="name" v="Nåverdalsbakken" />
		<tag k="place" v="farm" />
		<tag k="ssr:stedsnr" v="284597" />
	</node>
	<node id="-717635" lat="62.9368583296" lon="9.77000000464">
		<tag k="fixme" v="consider tourism=alpine_hut or tourism=chalet" />
		<tag k="name" v="Aunan lodge" />
		<tag k="ssr:stedsnr" v="174522" />
		<tag k="tourism" v="wilderness_hut" />
	</node>
	<node id="-717629" lat="62.9630666696" lon="9.77706665695">
		<tag k="name" v="Stavåbakken" />
		<tag k="place" v="farm" />
		<tag k="ssr:stedsnr" v="279963" />
	</node>
	<node id="-719673" lat="62.9104512983" lon="9.79748680907">
		<tag k="alt_name" v="Oppstuggu" />
		<tag k="name" v="Mærk" />
		<tag k="place" v="farm" />
		<tag k="ssr:stedsnr" v="983644" />
	</node>
	<node id="-719672" lat="62.8428121435" lon="9.91246978752">
		<tag k="name" v="Oppstuggu" />
		<tag k="place" v="farm" />
		<tag k="ssr:stedsnr" v="983077" />
	</node>
	<node id="-719671" lat="62.8421045046" lon="9.91379839984">
		<tag k="name" v="Utstuggu" />
		<tag k="place" v="farm" />
		<tag k="ssr:stedsnr" v="983076" />
	</node>
	<node id="-719670" lat="62.8367881984" lon="9.92572825039">
		<tag k="loc_name" v="Bortstuggu" />
		<tag k="name" v="Borstuggu" />
		<tag k="place" v="farm" />
		<tag k="ssr:stedsnr" v="983075" />
	</node>
	<node id="-717620" lat="62.7995111141" lon="10.0005527709">
		<tag k="fixme" v="consider place=hamlet" />
		<tag k="name" v="Ytterhus" />
		<tag k="place" v="farm" />
		<tag k="ssr:stedsnr" v="279897" />
	</node>
	<node id="-719666" lat="62.723207315" lon="9.81175763856">
		<tag k="fixme" v="multiple name tags, choose one and add the other to alt_name" />
		<tag k="name" v="Dalen;Olsmeddalen" />
		<tag k="place" v="farm" />
		<tag k="ssr:stedsnr" v="982700" />
	</node>
	<node id="-717617" lat="62.7108166667" lon="9.96462500721">
		<tag k="name" v="Markøya" />
		<tag k="place" v="farm" />
		<tag k="ssr:stedsnr" v="279836" />
	</node>
	<node id="-719662" lat="62.8330318722" lon="9.9889445991">
		<tag k="name" v="Nordberg" />
		<tag k="place" v="farm" />
		<tag k="ssr:stedsnr" v="976097" />
	</node>
	<node id="-719661" lat="62.836864646" lon="9.92793712474">
		<tag k="name" v="Flå" />
		<tag k="place" v="hamlet" />
		<tag k="ssr:stedsnr" v="973488" />
	</node>
	<node id="-719660" lat="62.8392802305" lon="9.88599969225">
		<tag k="name" v="Gunnes" />
		<tag k="place" v="hamlet" />
		<tag k="ssr:stedsnr" v="973485" />
	</node>
	<node id="-717611" lat="62.8320333321" lon="9.98453888635">
		<tag k="name" v="Litl-Kosberg" />
		<tag k="place" v="farm" />
		<tag k="ssr:stedsnr" v="279782" />
	</node>
	<node id="-719658" lat="62.7246675961" lon="10.0232842945">
		<tag k="fixme" v="consider place=hamlet" />
		<tag k="name" v="Botnan" />
		<tag k="place" v="farm" />
		<tag k="ssr:stedsnr" v="973451" />
	</node>
	<node id="-719657" lat="62.7039360096" lon="10.0433992574">
		<tag k="fixme" v="consider place=hamlet" />
		<tag k="name" v="Kleiva" />
		<tag k="place" v="farm" />
		<tag k="ssr:stedsnr" v="973418" />
	</node>
	<node id="-719656" lat="62.9395088715" lon="9.68729751933">
		<tag k="name" v="Seåsen" />
		<tag k="place" v="hamlet" />
		<tag k="ssr:stedsnr" v="973414" />
	</node>
	<node id="-719655" lat="62.7217943179" lon="9.86230628716">
		<tag k="fixme" v="consider place=hamlet" />
		<tag k="name" v="Gisnøyan" />
		<tag k="place" v="farm" />
		<tag k="ssr:stedsnr" v="973403" />
	</node>
	<node id="-719654" lat="62.7548293201" lon="10.0032577766">
		<tag k="fixme" v="consider place=hamlet" />
		<tag k="name" v="Lia" />
		<tag k="place" v="farm" />
		<tag k="ssr:stedsnr" v="972928" />
	</node>
	<node id="-719653" lat="62.8226316625" lon="10.0090698203">
		<tag k="fixme" v="consider place=hamlet" />
		<tag k="name" v="Berkåkshåggån" />
		<tag k="place" v="farm" />
		<tag k="ssr:stedsnr" v="972926" />
	</node>
	<node id="-719652" lat="62.8478973727" lon="9.86435837966">
		<tag k="name" v="Uv" />
		<tag k="place" v="hamlet" />
		<tag k="ssr:stedsnr" v="972923" />
	</node>
	<node id="-719651" lat="62.8892525415" lon="9.82988110463">
		<tag k="name" v="Herrem" />
		<tag k="place" v="hamlet" />
		<tag k="ssr:stedsnr" v="972899" />
	</node>
	<node id="-719649" lat="62.8349916704" lon="10.0407638877">
		<tag k="name" v="Rødåsen" />
		<tag k="place" v="farm" />
		<tag k="ssr:stedsnr" v="952334" />
	</node>
	<node id="-719648" lat="62.9099388913" lon="10.0090527688">
		<tag k="historic" v="shieling" />
		<tag k="name" v="Hovsætra" />
		<tag k="place" v="locality" />
		<tag k="ssr:stedsnr" v="862989" />
	</node>
	<node id="-719646" lat="62.8874913405" lon="9.82134166553">
		<tag k="name" v="Haugen" />
		<tag k="place" v="farm" />
		<tag k="ssr:stedsnr" v="862977" />
	</node>
	<node id="-717594" lat="62.8485805582" lon="9.89145278194">
		<tag k="name" v="Oppstuggu" />
		<tag k="place" v="farm" />
		<tag k="ssr:stedsnr" v="279501" />
	</node>
	<node id="-717593" lat="62.8666249994" lon="10.0668138847">
		<tag k="fixme" v="consider place=hamlet" />
		<tag k="name" v="Ilbro" />
		<tag k="place" v="farm" />
		<tag k="ssr:stedsnr" v="279214" />
	</node>
	<node id="-717592" lat="62.8425388914" lon="9.87749722716">
		<tag k="name" v="Nordstuggu" />
		<tag k="place" v="farm" />
		<tag k="ssr:stedsnr" v="279727" />
	</node>
	<node id="-719639" lat="62.8749061124" lon="9.85039014047">
		<tag k="fixme" v="consider place=hamlet" />
		<tag k="name" v="Skauan" />
		<tag k="place" v="farm" />
		<tag k="ssr:stedsnr" v="862906" />
	</node>
	<node id="-719638" lat="62.8742331013" lon="10.0486668219">
		<tag k="fixme" v="consider place=hamlet" />
		<tag k="name" v="Buan" />
		<tag k="place" v="farm" />
		<tag k="ssr:stedsnr" v="862900" />
	</node>
	<node id="-717589" lat="62.9340277785" lon="9.76691110907">
		<tag k="name" v="Frevang" />
		<tag k="place" v="isolated_dwelling" />
		<tag k="ssr:stedsnr" v="279692" />
	</node>
	<node id="-717588" lat="62.9098055567" lon="9.78106110288">
		<tag k="name" v="Håmmåren" />
		<tag k="place" v="farm" />
		<tag k="ssr:stedsnr" v="279689" />
	</node>
	<node id="-719635" lat="62.8705833292" lon="9.82630833804">
		<tag k="fixme" v="consider place=hamlet" />
		<tag k="name" v="Lia" />
		<tag k="place" v="farm" />
		<tag k="ssr:stedsnr" v="862890" />
	</node>
	<node id="-719634" lat="62.8696666676" lon="9.84908332758">
		<tag k="name" v="Nesset" />
		<tag k="place" v="farm" />
		<tag k="ssr:stedsnr" v="862889" />
	</node>
	<node id="-719633" lat="62.8676333349" lon="10.049622214">
		<tag k="name" v="Bulia" />
		<tag k="place" v="farm" />
		<tag k="ssr:stedsnr" v="862886" />
	</node>
	<node id="-719632" lat="62.7858694486" lon="9.61737222816">
		<tag k="name" v="Svengård" />
		<tag k="place" v="farm" />
		<tag k="ssr:stedsnr" v="862877" />
	</node>
	<node id="-719631" lat="62.7747039905" lon="9.59034142147">
		<tag k="alt_name" v="Stenset" />
		<tag k="name" v="Steinset" />
		<tag k="place" v="farm" />
		<tag k="ssr:stedsnr" v="862861" />
	</node>
	<node id="-719630" lat="62.7798027762" lon="9.6759416662">
		<tag k="historic" v="shieling" />
		<tag k="name" v="Såggåstadsætra" />
		<tag k="place" v="locality" />
		<tag k="ssr:stedsnr" v="862858" />
	</node>
	<node id="-719628" lat="62.9595318506" lon="9.79141342821">
		<tag k="name" v="Gorset" />
		<tag k="place" v="hamlet" />
		<tag k="ssr:stedsnr" v="862818" />
	</node>
	<node id="-717578" lat="62.7848805569" lon="9.64478612024">
		<tag k="name" v="Holshaugen" />
		<tag k="place" v="isolated_dwelling" />
		<tag k="ssr:stedsnr" v="279645" />
	</node>
	<node id="-717577" lat="62.8747111143" lon="10.0850222279">
		<tag k="name" v="Halland sag" />
		<tag k="place" v="quarter" />
		<tag k="ssr:stedsnr" v="278812" />
	</node>
	<node id="-719624" lat="62.7714875769" lon="9.71457406507">
		<tag k="historic" v="shieling" />
		<tag k="name" v="Vollasætra" />
		<tag k="place" v="locality" />
		<tag k="ssr:stedsnr" v="862788" />
	</node>
	<node id="-719623" lat="62.7724249962" lon="9.59031110894">
		<tag k="name" v="Solbakken" />
		<tag k="place" v="farm" />
		<tag k="ssr:stedsnr" v="862784" />
	</node>
	<node id="-719621" lat="62.7629912227" lon="9.99529524287">
		<tag k="name" v="Toset" />
		<tag k="place" v="hamlet" />
		<tag k="ssr:stedsnr" v="862594" />
	</node>
	<node id="-717571" lat="62.8594249981" lon="9.83364443733">
		<tag k="name" v="Innstuggu" />
		<tag k="place" v="farm" />
		<tag k="ssr:stedsnr" v="278747" />
	</node>
	<node id="-717570" lat="62.860691665" lon="9.82953889478">
		<tag k="name" v="Søhaugen" />
		<tag k="place" v="farm" />
		<tag k="ssr:stedsnr" v="278743" />
	</node>
	<node id="-719659" lat="62.7202454313" lon="10.0204315022">
		<tag k="fixme" v="consider place=hamlet" />
		<tag k="name" v="Utøya" />
		<tag k="place" v="farm" />
		<tag k="ssr:stedsnr" v="973470" />
	</node>
	<node id="-719612" lat="62.7423583331" lon="9.88407776919">
		<tag k="historic" v="shieling" />
		<tag k="name" v="Brattsetsætra" />
		<tag k="place" v="locality" />
		<tag k="ssr:stedsnr" v="861326" />
	</node>
	<node id="-719611" lat="62.7169500023" lon="9.93445000928">
		<tag k="fixme" v="multiple name tags, choose one and add the other to alt_name" />
		<tag k="name" v="Danielåsen;Rabbåsen" />
		<tag k="place" v="farm" />
		<tag k="ssr:stedsnr" v="861301" />
	</node>
	<node id="-719610" lat="62.6969817451" lon="9.97203056484">
		<tag k="alt_name" v="Krokhaugen" />
		<tag k="fixme" v="consider place=hamlet" />
		<tag k="name" v="Krokbekkhaugen" />
		<tag k="place" v="farm" />
		<tag k="ssr:stedsnr" v="861285" />
	</node>
	<node id="-719609" lat="62.7070861092" lon="10.1250500075">
		<tag k="alt_name" v="Norset" />
		<tag k="name" v="Nordset" />
		<tag k="place" v="farm" />
		<tag k="ssr:stedsnr" v="861276" />
	</node>
	<node id="-719608" lat="62.8778194414" lon="10.1017972276">
		<tag k="name" v="Stenlia" />
		<tag k="old_name" v="Steinlia" />
		<tag k="place" v="farm" />
		<tag k="ssr:stedsnr" v="849344" />
	</node>
	<node id="-717559" lat="62.8435749988" lon="9.60736945009">
		<tag k="historic" v="shieling" />
		<tag k="name" v="Haugasætra" />
		<tag k="place" v="locality" />
		<tag k="ssr:stedsnr" v="133822" />
	</node>
	<node id="-717554" lat="62.928955559" lon="9.70162499551">
		<tag k="historic" v="shieling" />
		<tag k="name" v="Seåssætrin" />
		<tag k="place" v="locality" />
		<tag k="ssr:stedsnr" v="133216" />
	</node>
	<node id="-717553" lat="62.6167277801" lon="10.0169333428">
		<tag k="historic" v="shieling" />
		<tag k="name" v="Bustaden" />
		<tag k="place" v="locality" />
		<tag k="ssr:stedsnr" v="132430" />
	</node>
	<node id="-719600" lat="62.9661111119" lon="9.78396389661">
		<tag k="name" v="Moan" />
		<tag k="place" v="farm" />
		<tag k="ssr:stedsnr" v="825945" />
	</node>
	<node id="-717608" lat="62.872561109" lon="9.82379445378">
		<tag k="name" v="Midtlia" />
		<tag k="place" v="farm" />
		<tag k="ssr:stedsnr" v="279747" />
	</node>
	<node id="-717548" lat="62.8611125714" lon="10.080397214">
		<tag k="fixme" v="consider place=hamlet" />
		<tag k="name" v="Bjørkåsen" />
		<tag k="place" v="farm" />
		<tag k="ssr:stedsnr" v="255945" />
	</node>
	<node id="-719595" lat="62.7434361114" lon="9.9910222233">
		<tag k="fixme" v="consider place=hamlet" />
		<tag k="name" v="Ringen" />
		<tag k="place" v="farm" />
		<tag k="ssr:stedsnr" v="825919" />
	</node>
	<node id="-717546" lat="62.7809972267" lon="9.70843332639">
		<tag k="name" v="Vollasætra" />
		<tag k="place" v="isolated_dwelling" />
		<tag k="ssr:stedsnr" v="255884" />
	</node>
	<node id="-717545" lat="62.7776055576" lon="9.67327500635">
		<tag k="alt_name" v="Uvsløkkjsætra" />
		<tag k="historic" v="shieling" />
		<tag k="name" v="Bortstuggusætra" />
		<tag k="place" v="locality" />
		<tag k="ssr:stedsnr" v="255879" />
	</node>
	<node id="-717544" lat="62.777494441" lon="9.59511389479">
		<tag k="name" v="Høgheim" />
		<tag k="place" v="farm" />
		<tag k="ssr:stedsnr" v="255873" />
	</node>
	<node id="-717543" lat="62.7829972193" lon="9.60500556449">
		<tag k="name" v="Høgvoll" />
		<tag k="place" v="farm" />
		<tag k="ssr:stedsnr" v="255871" />
	</node>
	<node id="-717541" lat="62.8293885411" lon="9.97349997759">
		<tag k="fixme" v="consider place=hamlet" />
		<tag k="name" v="Grova" />
		<tag k="place" v="farm" />
		<tag k="ssr:stedsnr" v="255935" />
	</node>
	<node id="-717540" lat="62.827993778" lon="10.0807219121">
		<tag k="historic" v="shieling" />
		<tag k="name" v="Slættet" />
		<tag k="place" v="locality" />
		<tag k="ssr:stedsnr" v="255932" />
	</node>
	<node id="-719587" lat="62.80484722" lon="10.0819555533">
		<tag k="historic" v="shieling" />
		<tag k="name" v="Olderøysætra" />
		<tag k="place" v="locality" />
		<tag k="ssr:stedsnr" v="825767" />
	</node>
	<node id="-719586" lat="62.8320111132" lon="9.99085556381">
		<tag k="name" v="Kosberg" />
		<tag k="place" v="farm" />
		<tag k="ssr:stedsnr" v="825763" />
	</node>
	<node id="-719585" lat="62.8955055515" lon="9.97895833637">
		<tag k="name" v="Krokan" />
		<tag k="place" v="locality" />
		<tag k="ssr:stedsnr" v="825758" />
	</node>
	<node id="-717536" lat="62.9669916651" lon="9.77136389479">
		<tag k="fixme" v="consider place=hamlet" />
		<tag k="name" v="Reitås" />
		<tag k="place" v="farm" />
		<tag k="ssr:stedsnr" v="255838" />
	</node>
	<node id="-717535" lat="62.7855916682" lon="9.61124999329">
		<tag k="name" v="Skauli" />
		<tag k="place" v="farm" />
		<tag k="ssr:stedsnr" v="255867" />
	</node>
	<node id="-717534" lat="62.7509638867" lon="10.0035805652">
		<tag k="name" v="Brennan" />
		<tag k="place" v="farm" />
		<tag k="ssr:stedsnr" v="255628" />
	</node>
	<node id="-717605" lat="62.7179333341" lon="9.82356667053">
		<tag k="historic" v="shieling" />
		<tag k="name" v="Gisnaslættet" />
		<tag k="place" v="locality" />
		<tag k="ssr:stedsnr" v="279589" />
	</node>
	<node id="-717528" lat="62.7111527736" lon="10.0298111168">
		<tag k="name" v="Svahaugen" />
		<tag k="place" v="farm" />
		<tag k="ssr:stedsnr" v="97922" />
	</node>
	<node id="-717525" lat="62.7298277744" lon="9.87346111279">
		<tag k="name" v="Oppigard" />
		<tag k="place" v="farm" />
		<tag k="ssr:stedsnr" v="97724" />
	</node>
	<node id="-717522" lat="62.7255944453" lon="9.85320833507">
		<tag k="historic" v="shieling" />
		<tag k="name" v="Håggåsætra" />
		<tag k="place" v="locality" />
		<tag k="ssr:stedsnr" v="97720" />
	</node>
	<node id="-717603" lat="62.8447722219" lon="9.90638889187">
		<tag k="name" v="Søstuggu" />
		<tag k="place" v="farm" />
		<tag k="ssr:stedsnr" v="279585" />
	</node>
	<node id="-719568" lat="62.9241416665" lon="9.75823887957">
		<tag k="name" v="Bortstuggu" />
		<tag k="place" v="farm" />
		<tag k="ssr:stedsnr" v="825663" />
	</node>
	<node id="-717519" lat="62.7883666629" lon="9.77118056465">
		<tag k="name" v="Skarvbu" />
		<tag k="place" v="isolated_dwelling" />
		<tag k="ssr:stedsnr" v="97713" />
	</node>
	<node id="-719566" lat="62.9142638906" lon="9.76771388765">
		<tag k="name" v="Åsmo" />
		<tag k="place" v="farm" />
		<tag k="ssr:stedsnr" v="825658" />
	</node>
	<node id="-719565" lat="62.9212416689" lon="9.76449445387">
		<tag k="alt_name" v="Myran Ned" />
		<tag k="name" v="Nedre Myran" />
		<tag k="place" v="farm" />
		<tag k="ssr:stedsnr" v="825657" />
	</node>
	<node id="-719564" lat="62.9454194469" lon="9.7813944442">
		<tag k="name" v="Vollhåggån" />
		<tag k="place" v="farm" />
		<tag k="ssr:stedsnr" v="825656" />
	</node>
	<node id="-719562" lat="62.9204416693" lon="9.76292500084">
		<tag k="alt_name" v="Myran Øv." />
		<tag k="name" v="Øvre Myran" />
		<tag k="place" v="farm" />
		<tag k="ssr:stedsnr" v="825648" />
	</node>
	<node id="-717601" lat="62.7130972264" lon="9.9584694435">
		<tag k="name" v="Sletten" />
		<tag k="place" v="farm" />
		<tag k="ssr:stedsnr" v="279579" />
	</node>
	<node id="-719555" lat="62.7731138845" lon="9.58973333228">
		<tag k="name" v="Vangen" />
		<tag k="place" v="farm" />
		<tag k="ssr:stedsnr" v="825617" />
	</node>
	<node id="-717506" lat="62.795647272" lon="9.99395609894">
		<tag k="name" v="Brattset" />
		<tag k="place" v="farm" />
		<tag k="ssr:stedsnr" v="255589" />
	</node>
	<node id="-717505" lat="62.8089861124" lon="10.0310361124">
		<tag k="name" v="Barstad" />
		<tag k="place" v="farm" />
		<tag k="ssr:stedsnr" v="255584" />
	</node>
	<node id="-719550" lat="62.8907305587" lon="9.83018056427">
		<tag k="name" v="Herrem" />
		<tag k="place" v="hamlet" />
		<tag k="ssr:stedsnr" v="825597" />
	</node>
	<node id="-717498" lat="62.7106500022" lon="9.95704721909">
		<tag k="name" v="Solvang" />
		<tag k="place" v="farm" />
		<tag k="ssr:stedsnr" v="97565" />
	</node>
	<node id="-717497" lat="62.7107777772" lon="10.0303083313">
		<tag k="fixme" v="consider place=hamlet" />
		<tag k="name" v="Svahaugen" />
		<tag k="place" v="farm" />
		<tag k="ssr:stedsnr" v="96972" />
	</node>
	<node id="-717496" lat="62.9094833292" lon="9.70044999014">
		<tag k="name" v="Bjørnslettet" />
		<tag k="place" v="isolated_dwelling" />
		<tag k="ssr:stedsnr" v="255188" />
	</node>
	<node id="-717493" lat="62.7001767102" lon="10.1370894417">
		<tag k="fixme" v="consider place=hamlet" />
		<tag k="name" v="Nåverdalen" />
		<tag k="place" v="farm" />
		<tag k="ssr:stedsnr" v="254282" />
	</node>
	<node id="-717492" lat="62.7016416629" lon="9.94682777063">
		<tag k="alt_name" v="Negård" />
		<tag k="name" v="Nedgård" />
		<tag k="place" v="farm" />
		<tag k="ssr:stedsnr" v="254277" />
	</node>
	<node id="-717490" lat="62.7484805512" lon="10.0150027746">
		<tag k="name" v="Lia" />
		<tag k="place" v="farm" />
		<tag k="ssr:stedsnr" v="254335" />
	</node>
	<node id="-717489" lat="62.7368388923" lon="9.95217063434">
		<tag k="alt_name" v="Heverli" />
		<tag k="name" v="Heverliin" />
		<tag k="place" v="farm" />
		<tag k="ssr:stedsnr" v="254331" />
	</node>
	<node id="-717488" lat="62.8362962944" lon="9.92794224046">
		<tag k="name" v="Flå" />
		<tag k="place" v="hamlet" />
		<tag k="ssr:stedsnr" v="86774" />
	</node>
	<node id="-719534" lat="62.7137444447" lon="9.95034167196">
		<tag k="name" v="Deropp" />
		<tag k="place" v="isolated_dwelling" />
		<tag k="ssr:stedsnr" v="825517" />
	</node>
	<node id="-717482" lat="62.7718827832" lon="9.72119185071">
		<tag k="historic" v="shieling" />
		<tag k="name" v="Vollasætra" />
		<tag k="place" v="locality" />
		<tag k="ssr:stedsnr" v="73616" />
	</node>
	<node id="-717478" lat="62.7120482274" lon="10.0130662391">
		<tag k="fixme" v="consider place=hamlet" />
		<tag k="name" v="Flatmoen" />
		<tag k="place" v="farm" />
		<tag k="ssr:stedsnr" v="72322" />
	</node>
	<node id="-719525" lat="62.7785250045" lon="9.97675555366">
		<tag k="name" v="Havdal" />
		<tag k="place" v="farm" />
		<tag k="ssr:stedsnr" v="825881" />
	</node>
	<node id="-717476" lat="62.7155536962" lon="10.0429442482">
		<tag k="fixme" v="consider place=hamlet" />
		<tag k="name" v="Smedhaugen" />
		<tag k="place" v="farm" />
		<tag k="ssr:stedsnr" v="72317" />
	</node>
	<node id="-719523" lat="62.9350749987" lon="9.766780554">
		<tag k="name" v="Øv. Aune" />
		<tag k="place" v="farm" />
		<tag k="ssr:stedsnr" v="825838" />
	</node>
	<node id="-717474" lat="62.8478750031" lon="9.88106110336">
		<tag k="name" v="Utstuggu" />
		<tag k="place" v="farm" />
		<tag k="ssr:stedsnr" v="241300" />
	</node>
	<node id="-719521" lat="62.8475083367" lon="9.8800833394">
		<tag k="name" v="Norum" />
		<tag k="place" v="farm" />
		<tag k="ssr:stedsnr" v="825436" />
	</node>
	<node id="-717472" lat="62.8012434126" lon="9.87895862746">
		<tag k="name" v="Fjellslættstuggu" />
		<tag k="place" v="locality" />
		<tag k="ssr:stedsnr" v="39015" />
	</node>
	<node id="-719516" lat="62.8542138893" lon="9.83120833157">
		<tag k="name" v="Oppigard" />
		<tag k="place" v="farm" />
		<tag k="ssr:stedsnr" v="824728" />
	</node>
	<node id="-717467" lat="62.8603388903" lon="10.0757805602">
		<tag k="name" v="Nyrønning" />
		<tag k="place" v="farm" />
		<tag k="ssr:stedsnr" v="36861" />
	</node>
	<node id="-719514" lat="62.8462722256" lon="9.62305834096">
		<tag k="name" v="Rissætra" />
		<tag k="place" v="isolated_dwelling" />
		<tag k="ssr:stedsnr" v="817576" />
	</node>
	<node id="-719512" lat="62.8449647968" lon="9.90452290466">
		<tag k="name" v="Hol" />
		<tag k="place" v="hamlet" />
		<tag k="ssr:stedsnr" v="802938" />
	</node>
	<node id="-717463" lat="62.8604472265" lon="10.0898166618">
		<tag k="name" v="Kroksetra" />
		<tag k="place" v="farm" />
		<tag k="ssr:stedsnr" v="36832" />
	</node>
	<node id="-717462" lat="62.9140444448" lon="10.0269583336">
		<tag k="historic" v="shieling" />
		<tag k="name" v="Hårstadsætra" />
		<tag k="place" v="locality" />
		<tag k="ssr:stedsnr" v="36816" />
	</node>
	<node id="-719509" lat="62.9010026986" lon="9.8180388888">
		<tag k="fixme" v="consider place=hamlet" />
		<tag k="name" v="Reberg" />
		<tag k="place" v="farm" />
		<tag k="ssr:stedsnr" v="801985" />
	</node>
	<node id="-717460" lat="62.8594583316" lon="10.0925166742">
		<tag k="name" v="Bjørkhaugen" />
		<tag k="place" v="isolated_dwelling" />
		<tag k="ssr:stedsnr" v="36807" />
	</node>
	<node id="-717458" lat="62.8680583332" lon="10.078502782">
		<tag k="name" v="Hallandgjerdet" />
		<tag k="place" v="farm" />
		<tag k="ssr:stedsnr" v="36803" />
	</node>
	<node id="-717457" lat="62.8664515114" lon="10.0991604886">
		<tag k="alt_name" v="Kløfte" />
		<tag k="name" v="Kløftet" />
		<tag k="place" v="farm" />
		<tag k="ssr:stedsnr" v="36801" />
	</node>
	<node id="-719504" lat="62.8668764622" lon="9.83364926703">
		<tag k="fixme" v="consider place=hamlet" />
		<tag k="name" v="Ramsan" />
		<tag k="place" v="farm" />
		<tag k="ssr:stedsnr" v="801871" />
	</node>
	<node id="-717455" lat="62.836782503" lon="9.92526992446">
		<tag k="alt_name" v="Borstuggu" />
		<tag k="name" v="Flå" />
		<tag k="place" v="farm" />
		<tag k="ssr:stedsnr" v="13913" />
	</node>
	<node id="-717454" lat="62.9265861124" lon="9.74371388958">
		<tag k="name" v="Lotten" />
		<tag k="place" v="farm" />
		<tag k="ssr:stedsnr" v="12940" />
	</node>
	<node id="-719501" lat="62.7019902922" lon="10.0380551135">
		<tag k="fixme" v="consider place=hamlet" />
		<tag k="name" v="Moen" />
		<tag k="place" v="farm" />
		<tag k="ssr:stedsnr" v="801293" />
	</node>
	<node id="-719500" lat="62.7022256452" lon="10.0464314021">
		<tag k="alt_name" v="Sør-Kleva" />
		<tag k="name" v="Kleiva" />
		<tag k="place" v="farm" />
		<tag k="ssr:stedsnr" v="801283" />
	</node>
	<node id="-719498" lat="62.8625527808" lon="9.50958887999">
		<tag k="fixme" v="consider tourism=alpine_hut or tourism=chalet" />
		<tag k="name" v="Jøldalshytta" />
		<tag k="ssr:stedsnr" v="801200" />
		<tag k="tourism" v="wilderness_hut" />
	</node>
	<node id="-719497" lat="62.7175771002" lon="10.0046598604">
		<tag k="alt_name" v="Paulsmo" />
		<tag k="fixme" v="consider place=hamlet" />
		<tag k="name" v="Pålsmoen" />
		<tag k="place" v="farm" />
		<tag k="ssr:stedsnr" v="800334" />
	</node>
	<node id="-719496" lat="62.7132662527" lon="10.0349645417">
		<tag k="alt_name" v="Stor-Innset" />
		<tag k="fixme" v="consider place=hamlet" />
		<tag k="name" v="Storinnset" />
		<tag k="place" v="farm" />
		<tag k="ssr:stedsnr" v="800330" />
	</node>
	<node id="-717447" lat="62.7459375494" lon="9.98633903988">
		<tag k="fixme" v="consider place=hamlet" />
		<tag k="name" v="Egga" />
		<tag k="place" v="farm" />
		<tag k="ssr:stedsnr" v="11350" />
	</node>
	<node id="-717446" lat="62.7118703395" lon="10.0031030157">
		<tag k="fixme" v="consider place=hamlet" />
		<tag k="name" v="Karenhaugen" />
		<tag k="place" v="farm" />
		<tag k="ssr:stedsnr" v="11325" />
	</node>
	<node id="-717445" lat="62.7140540682" lon="10.0227957197">
		<tag k="fixme" v="consider place=hamlet" />
		<tag k="name" v="Sigstad" />
		<tag k="place" v="farm" />
		<tag k="ssr:stedsnr" v="11323" />
	</node>
	<node id="-717444" lat="62.7358055533" lon="9.89550554694">
		<tag k="historic" v="shieling" />
		<tag k="name" v="Koitoppen" />
		<tag k="place" v="locality" />
		<tag k="ssr:stedsnr" v="11303" />
	</node>
	<node id="-717443" lat="62.9627194453" lon="9.78229721751">
		<tag k="name" v="Stigen" />
		<tag k="place" v="farm" />
		<tag k="ssr:stedsnr" v="218997" />
	</node>
	<node id="-717440" lat="62.9521050433" lon="9.71201961902">
		<tag k="historic" v="shieling" />
		<tag k="name" v="Ramlosætra" />
		<tag k="place" v="locality" />
		<tag k="ssr:stedsnr" v="218975" />
	</node>
	<node id="-719487" lat="62.9216591063" lon="9.76600822076">
		<tag k="fixme" v="consider place=hamlet" />
		<tag k="name" v="Myran" />
		<tag k="place" v="farm" />
		<tag k="ssr:stedsnr" v="764994" />
	</node>
	<node id="-719486" lat="62.7189388877" lon="10.0309972134">
		<tag k="name" v="Løvstad" />
		<tag k="place" v="farm" />
		<tag k="ssr:stedsnr" v="764991" />
	</node>
	<node id="-719480" lat="62.9224305528" lon="10.0282666685">
		<tag k="historic" v="shieling" />
		<tag k="name" v="Nyhussætra" />
		<tag k="place" v="locality" />
		<tag k="ssr:stedsnr" v="764842" />
	</node>
	<node id="-719636" lat="62.8756879318" lon="10.1103894558">
		<tag k="fixme" v="consider place=hamlet" />
		<tag k="name" v="Tretthaug" />
		<tag k="place" v="farm" />
		<tag k="ssr:stedsnr" v="862894" />
	</node>
	<node id="-717591" lat="62.9290944409" lon="9.76346945093">
		<tag k="name" v="Løkkja" />
		<tag k="place" v="farm" />
		<tag k="ssr:stedsnr" v="279697" />
	</node>
	<node id="-717429" lat="62.9216750005" lon="10.0285888961">
		<tag k="historic" v="shieling" />
		<tag k="name" v="Granumsætra" />
		<tag k="place" v="locality" />
		<tag k="ssr:stedsnr" v="218868" />
	</node>
	<node id="-719475" lat="62.8311055516" lon="9.99957777498">
		<tag k="name" v="Moaberget" />
		<tag k="place" v="farm" />
		<tag k="ssr:stedsnr" v="764814" />
	</node>
	<node id="-717426" lat="62.9224583362" lon="9.73780277172">
		<tag k="name" v="Meåsgjerdet" />
		<tag k="place" v="farm" />
		<tag k="ssr:stedsnr" v="218860" />
	</node>
	<node id="-719473" lat="62.830394443" lon="10.0007111161">
		<tag k="name" v="Moen" />
		<tag k="place" v="farm" />
		<tag k="ssr:stedsnr" v="764804" />
	</node>
	<node id="-717422" lat="62.939141664" lon="9.78153610465">
		<tag k="name" v="Øvrevoll" />
		<tag k="place" v="farm" />
		<tag k="ssr:stedsnr" v="218683" />
	</node>
	<node id="-717420" lat="62.9235527785" lon="9.76804165718">
		<tag k="name" v="Myrmo" />
		<tag k="place" v="farm" />
		<tag k="ssr:stedsnr" v="218671" />
	</node>
	<node id="-717418" lat="62.9499361081" lon="9.76982221889">
		<tag k="name" v="Nordstu" />
		<tag k="place" v="farm" />
		<tag k="ssr:stedsnr" v="218664" />
	</node>
	<node id="-717417" lat="62.9356472248" lon="9.76632778438">
		<tag k="name" v="Bergtun" />
		<tag k="place" v="farm" />
		<tag k="ssr:stedsnr" v="218653" />
	</node>
	<node id="-719463" lat="62.8477666694" lon="9.84294723074">
		<tag k="name" v="Sandbrekka" />
		<tag k="place" v="farm" />
		<tag k="ssr:stedsnr" v="764764" />
	</node>
	<node id="-717414" lat="62.7205722236" lon="10.0274805488">
		<tag k="name" v="Gjelta" />
		<tag k="place" v="farm" />
		<tag k="ssr:stedsnr" v="218923" />
	</node>
	<node id="-719460" lat="62.9550361074" lon="9.7746694413">
		<tag k="name" v="Veistad" />
		<tag k="place" v="farm" />
		<tag k="ssr:stedsnr" v="764959" />
	</node>
	<node id="-717411" lat="62.8303277765" lon="10.0118611018">
		<tag k="name" v="Sande-saga" />
		<tag k="place" v="quarter" />
		<tag k="ssr:stedsnr" v="218776" />
	</node>
	<node id="-719458" lat="62.9265944421" lon="9.78383054589">
		<tag k="name" v="Nystuggu" />
		<tag k="place" v="farm" />
		<tag k="ssr:stedsnr" v="764650" />
	</node>
	<node id="-717409" lat="62.7807555585" lon="10.0876694367">
		<tag k="name" v="Ødegård-hytta" />
		<tag k="place" v="isolated_dwelling" />
		<tag k="ssr:stedsnr" v="218762" />
	</node>
	<node id="-719456" lat="62.9249916685" lon="9.78826944218">
		<tag k="name" v="Håggån" />
		<tag k="place" v="farm" />
		<tag k="ssr:stedsnr" v="764638" />
	</node>
	<node id="-719452" lat="62.8477500028" lon="9.90145556241">
		<tag k="name" v="Høgvoll" />
		<tag k="place" v="farm" />
		<tag k="ssr:stedsnr" v="764602" />
	</node>
	<node id="-719451" lat="62.8523055566" lon="9.91943611592">
		<tag k="historic" v="shieling" />
		<tag k="name" v="Holsætra" />
		<tag k="place" v="locality" />
		<tag k="ssr:stedsnr" v="764599" />
	</node>
	<node id="-717583" lat="62.8897277739" lon="9.82004444071">
		<tag k="name" v="Haugen" />
		<tag k="place" v="farm" />
		<tag k="ssr:stedsnr" v="279661" />
	</node>
	<node id="-717582" lat="62.8891736793" lon="9.82109652545">
		<tag k="fixme" v="consider place=hamlet" />
		<tag k="name" v="Haugen" />
		<tag k="place" v="farm" />
		<tag k="ssr:stedsnr" v="279659" />
	</node>
	<node id="-719439" lat="62.8407166658" lon="9.88793332717">
		<tag k="name" v="Nordstuggu" />
		<tag k="place" v="farm" />
		<tag k="ssr:stedsnr" v="764727" />
	</node>
	<node id="-717390" lat="62.8481861136" lon="9.86738055058">
		<tag k="name" v="Nyhusan" />
		<tag k="place" v="farm" />
		<tag k="ssr:stedsnr" v="218485" />
	</node>
	<node id="-717389" lat="62.7061861131" lon="10.0341083387">
		<tag k="fixme" v="consider place=hamlet" />
		<tag k="name" v="Svendsplassen" />
		<tag k="place" v="farm" />
		<tag k="ssr:stedsnr" v="217971" />
	</node>
	<node id="-719430" lat="62.9301777796" lon="9.75640556225">
		<tag k="name" v="Bakkhåggån" />
		<tag k="place" v="isolated_dwelling" />
		<tag k="ssr:stedsnr" v="764681" />
	</node>
	<node id="-717622" lat="62.7052972239" lon="9.97758611563">
		<tag k="name" v="Kvennhushaugen" />
		<tag k="place" v="farm" />
		<tag k="ssr:stedsnr" v="279914" />
	</node>
	<node id="-719426" lat="62.9206583341" lon="9.76850832734">
		<tag k="name" v="Myrløkkja" />
		<tag k="place" v="farm" />
		<tag k="ssr:stedsnr" v="764670" />
	</node>
	<node id="-719424" lat="62.7071555541" lon="9.9256583299">
		<tag k="name" v="Åshaug" />
		<tag k="place" v="farm" />
		<tag k="ssr:stedsnr" v="764553" />
	</node>
	<node id="-719423" lat="62.7109277812" lon="9.95868334184">
		<tag k="name" v="Rognhøy" />
		<tag k="place" v="farm" />
		<tag k="ssr:stedsnr" v="764550" />
	</node>
	<node id="-719417" lat="62.8867083329" lon="9.83181665729">
		<tag k="name" v="Teigen" />
		<tag k="place" v="farm" />
		<tag k="ssr:stedsnr" v="763738" />
	</node>
	<node id="-719413" lat="62.8501888855" lon="9.82455555761">
		<tag k="name" v="Sugaren" />
		<tag k="place" v="farm" />
		<tag k="ssr:stedsnr" v="763727" />
	</node>
	<node id="-719412" lat="62.8555555578" lon="9.82920555796">
		<tag k="name" v="Pellen" />
		<tag k="place" v="farm" />
		<tag k="ssr:stedsnr" v="763719" />
	</node>
	<node id="-719411" lat="62.87742778" lon="9.84147221656">
		<tag k="name" v="Svendsgarden" />
		<tag k="place" v="farm" />
		<tag k="ssr:stedsnr" v="763539" />
	</node>
	<node id="-719409" lat="62.8452083331" lon="10.0799555642">
		<tag k="alt_name" v="Gravakselan" />
		<tag k="fixme" v="consider place=hamlet" />
		<tag k="name" v="Gravakslan" />
		<tag k="place" v="farm" />
		<tag k="ssr:stedsnr" v="741949" />
	</node>
	<node id="-719406" lat="62.875811112" lon="9.81933888804">
		<tag k="name" v="Høglia" />
		<tag k="place" v="farm" />
		<tag k="ssr:stedsnr" v="740889" />
	</node>
	<node id="-719405" lat="62.8729305578" lon="10.0651083284">
		<tag k="name" v="Øvre Illøkkja" />
		<tag k="place" v="farm" />
		<tag k="ssr:stedsnr" v="740885" />
	</node>
	<node id="-719400" lat="62.8265416678" lon="9.63151110633">
		<tag k="historic" v="shieling" />
		<tag k="name" v="Minnillkroken" />
		<tag k="place" v="locality" />
		<tag k="ssr:stedsnr" v="740801" />
	</node>
	<node id="-719397" lat="62.7520805546" lon="9.9643055573">
		<tag k="name" v="Sundsethåggån" />
		<tag k="place" v="farm" />
		<tag k="ssr:stedsnr" v="740601" />
	</node>
	<node id="-719396" lat="62.756497225" lon="9.80919443895">
		<tag k="historic" v="shieling" />
		<tag k="name" v="Svartbekkdalssætra" />
		<tag k="place" v="locality" />
		<tag k="ssr:stedsnr" v="740599" />
	</node>
	<node id="-719390" lat="62.7158472635" lon="10.0319167844">
		<tag k="alt_name" v="Dalseggplassen" />
		<tag k="fixme" v="consider place=hamlet" />
		<tag k="name" v="Dalsegga" />
		<tag k="place" v="farm" />
		<tag k="ssr:stedsnr" v="739309" />
	</node>
	<node id="-719379" lat="62.7197083308" lon="10.045699992">
		<tag k="name" v="Hesthåggån" />
		<tag k="place" v="farm" />
		<tag k="ssr:stedsnr" v="642989" />
	</node>
	<node id="-719377" lat="62.6995666682" lon="10.0367833246">
		<tag k="name" v="Nyhaug" />
		<tag k="place" v="farm" />
		<tag k="ssr:stedsnr" v="642973" />
	</node>
	<node id="-719375" lat="62.7122638932" lon="10.0367833333">
		<tag k="name" v="Baggplassen" />
		<tag k="place" v="farm" />
		<tag k="ssr:stedsnr" v="642965" />
	</node>
	<node id="-719374" lat="62.7119305558" lon="10.0307499969">
		<tag k="name" v="Hyttbakken" />
		<tag k="place" v="hamlet" />
		<tag k="ssr:stedsnr" v="642962" />
	</node>
	<node id="-719373" lat="62.7160583293" lon="10.0328250019">
		<tag k="amenity" v="school" />
		<tag k="name" v="Innset skole" />
		<tag k="ssr:stedsnr" v="642960" />
	</node>
	<node id="-719370" lat="62.7530611143" lon="10.0132333369">
		<tag k="name" v="Brennan" />
		<tag k="place" v="isolated_dwelling" />
		<tag k="ssr:stedsnr" v="642888" />
	</node>
	<node id="-719367" lat="62.69605" lon="10.1895888942">
		<tag k="historic" v="shieling" />
		<tag k="name" v="Litlsætra" />
		<tag k="place" v="locality" />
		<tag k="ssr:stedsnr" v="642798" />
	</node>
	<node id="-719366" lat="62.7798472236" lon="10.1070805461">
		<tag k="name" v="Nertjønnløkkja" />
		<tag k="place" v="isolated_dwelling" />
		<tag k="ssr:stedsnr" v="642787" />
	</node>
	<node id="-719617" lat="62.8077555547" lon="10.0072777798">
		<tag k="alt_name" v="Ytterhuskrokan" />
		<tag k="name" v="Ytterhuskroken" />
		<tag k="place" v="farm" />
		<tag k="ssr:stedsnr" v="862561" />
	</node>
	<node id="-719361" lat="62.8598555524" lon="10.0815277689">
		<tag k="name" v="Solhaug" />
		<tag k="place" v="isolated_dwelling" />
		<tag k="ssr:stedsnr" v="642764" />
	</node>
	<node id="-719359" lat="62.8678777749" lon="10.05341667">
		<tag k="name" v="Øyen" />
		<tag k="place" v="farm" />
		<tag k="ssr:stedsnr" v="642754" />
	</node>
	<node id="-719357" lat="62.8034333316" lon="10.0711277845">
		<tag k="historic" v="shieling" />
		<tag k="name" v="Nygardsætra" />
		<tag k="place" v="locality" />
		<tag k="ssr:stedsnr" v="642749" />
	</node>
	<node id="-719356" lat="62.805319447" lon="9.99243056062">
		<tag k="name" v="Granmoen" />
		<tag k="place" v="isolated_dwelling" />
		<tag k="ssr:stedsnr" v="642744" />
	</node>
	<node id="-719355" lat="62.8477916633" lon="9.84008055915">
		<tag k="name" v="Teighåggån" />
		<tag k="place" v="farm" />
		<tag k="ssr:stedsnr" v="642736" />
	</node>
	<node id="-719346" lat="62.880913892" lon="9.73146945053">
		<tag k="name" v="Kjellsli" />
		<tag k="place" v="isolated_dwelling" />
		<tag k="ssr:stedsnr" v="642681" />
	</node>
	<node id="-719341" lat="62.9111194401" lon="9.79943610922">
		<tag k="name" v="Grindan" />
		<tag k="place" v="farm" />
		<tag k="ssr:stedsnr" v="642659" />
	</node>
	<node id="-719337" lat="62.9286083339" lon="9.78315555309">
		<tag k="name" v="Kalvhåggån" />
		<tag k="place" v="farm" />
		<tag k="ssr:stedsnr" v="642641" />
	</node>
	<node id="-719334" lat="62.9032361142" lon="9.81246944415">
		<tag k="name" v="Rebergsgjerdet" />
		<tag k="place" v="farm" />
		<tag k="ssr:stedsnr" v="642624" />
	</node>
	<node id="-719329" lat="62.8278416664" lon="9.63418889691">
		<tag k="historic" v="shieling" />
		<tag k="name" v="Hårstadhåggåsætra" />
		<tag k="place" v="locality" />
		<tag k="ssr:stedsnr" v="642595" />
	</node>
	<node id="-719328" lat="62.836163891" lon="9.93210277166">
		<tag k="name" v="Nordstuggu" />
		<tag k="place" v="farm" />
		<tag k="ssr:stedsnr" v="642592" />
	</node>
	<node id="-719327" lat="62.8369277776" lon="9.92316944775">
		<tag k="loc_name" v="Bortstuggu" />
		<tag k="name" v="Borstuggu" />
		<tag k="place" v="farm" />
		<tag k="ssr:stedsnr" v="642587" />
	</node>
	<node id="-719139" lat="62.7960861083" lon="9.98897499749">
		<tag k="name" v="Norlia" />
		<tag k="place" v="farm" />
		<tag k="ssr:stedsnr" v="521901" />
	</node>
	<node id="-719324" lat="62.8813166631" lon="9.55749444168">
		<tag k="historic" v="shieling" />
		<tag k="name" v="Løkkjsætra" />
		<tag k="place" v="locality" />
		<tag k="ssr:stedsnr" v="642580" />
	</node>
	<node id="-717561" lat="62.8841916691" lon="9.83351389737">
		<tag k="name" v="Hårstadhåggån" />
		<tag k="place" v="farm" />
		<tag k="ssr:stedsnr" v="133903" />
	</node>
	<node id="-719309" lat="62.848884256" lon="9.89499388055">
		<tag k="name" v="Kalvhåggån" />
		<tag k="place" v="farm" />
		<tag k="ssr:stedsnr" v="642497" />
	</node>
	<node id="-719308" lat="62.848174997" lon="9.86867500539">
		<tag k="name" v="Hallstøa" />
		<tag k="place" v="farm" />
		<tag k="ssr:stedsnr" v="642476" />
	</node>
	<node id="-719305" lat="62.9184944461" lon="10.0298833259">
		<tag k="historic" v="shieling" />
		<tag k="name" v="Ilbogen" />
		<tag k="place" v="locality" />
		<tag k="ssr:stedsnr" v="619997" />
	</node>
	<node id="-719302" lat="62.9216472244" lon="9.76887222645">
		<tag k="alt_name" v="Myrmel" />
		<tag k="name" v="Myran" />
		<tag k="place" v="farm" />
		<tag k="ssr:stedsnr" v="619964" />
	</node>
	<node id="-719301" lat="62.786516664" lon="9.61965833473">
		<tag k="name" v="Vollslættet" />
		<tag k="place" v="farm" />
		<tag k="ssr:stedsnr" v="619898" />
	</node>
	<node id="-719298" lat="62.784402778" lon="9.61853611472">
		<tag k="name" v="Granatun" />
		<tag k="place" v="farm" />
		<tag k="ssr:stedsnr" v="619875" />
	</node>
	<node id="-719297" lat="62.7839944439" lon="9.60735554584">
		<tag k="name" v="Mildal" />
		<tag k="place" v="farm" />
		<tag k="ssr:stedsnr" v="619873" />
	</node>
	<node id="-719296" lat="62.7859250013" lon="9.65490555178">
		<tag k="alt_name" v="Rokonessætra" />
		<tag k="fixme" v="multiple name tags, choose one and add the other to alt_name" />
		<tag k="historic" v="shieling" />
		<tag k="name" v="Rokkonessætra;Støversætra" />
		<tag k="place" v="locality" />
		<tag k="ssr:stedsnr" v="619870" />
	</node>
	<node id="-719295" lat="62.8501083318" lon="9.48469999239">
		<tag k="name" v="Øyasætra" />
		<tag k="place" v="isolated_dwelling" />
		<tag k="ssr:stedsnr" v="619859" />
	</node>
	<node id="-719293" lat="62.7779571202" lon="9.97386210566">
		<tag k="alt_name" v="Havdal" />
		<tag k="name" v="Havdølan" />
		<tag k="place" v="hamlet" />
		<tag k="ssr:stedsnr" v="619626" />
	</node>
	<node id="-719290" lat="62.7999500009" lon="10.0267000024">
		<tag k="alt_name" v="Nyseter" />
		<tag k="name" v="Nysætra" />
		<tag k="place" v="farm" />
		<tag k="ssr:stedsnr" v="619615" />
	</node>
	<node id="-719289" lat="62.8054222236" lon="10.0357972285">
		<tag k="name" v="Børslættet" />
		<tag k="place" v="farm" />
		<tag k="ssr:stedsnr" v="619604" />
	</node>
	<node id="-719288" lat="62.7725592356" lon="9.62348430212">
		<tag k="fixme" v="multiple name tags, choose one and add the other to alt_name" />
		<tag k="historic" v="shieling" />
		<tag k="name" v="Småbakksætrin;Vollasætra" />
		<tag k="place" v="locality" />
		<tag k="ssr:stedsnr" v="619813" />
	</node>
	<node id="-719287" lat="62.8614305574" lon="9.50577499623">
		<tag k="historic" v="shieling" />
		<tag k="name" v="Gjelsætra" />
		<tag k="place" v="locality" />
		<tag k="ssr:stedsnr" v="619248" />
	</node>
	<node id="-719285" lat="62.8691416663" lon="9.72093334295">
		<tag k="name" v="Lånksætra" />
		<tag k="place" v="farm" />
		<tag k="ssr:stedsnr" v="618868" />
	</node>
	<node id="-719284" lat="62.7253583301" lon="10.0210166627">
		<tag k="name" v="Nordbotnan" />
		<tag k="place" v="farm" />
		<tag k="ssr:stedsnr" v="618303" />
	</node>
	<node id="-719283" lat="62.721797511" lon="10.0248087076">
		<tag k="name" v="Sørbotnan" />
		<tag k="place" v="farm" />
		<tag k="ssr:stedsnr" v="618300" />
	</node>
	<node id="-719281" lat="62.701480555" lon="10.0174388832">
		<tag k="historic" v="shieling" />
		<tag k="name" v="Vangen" />
		<tag k="place" v="locality" />
		<tag k="ssr:stedsnr" v="618270" />
	</node>
	<node id="-719279" lat="62.7093138902" lon="10.1640249923">
		<tag k="name" v="Novenget" />
		<tag k="place" v="locality" />
		<tag k="ssr:stedsnr" v="604592" />
	</node>
	<node id="-719278" lat="62.9634361106" lon="9.80156111468">
		<tag k="name" v="Bjerkli" />
		<tag k="place" v="farm" />
		<tag k="ssr:stedsnr" v="582990" />
	</node>
	<node id="-719277" lat="62.7193333367" lon="10.0295222264">
		<tag k="name" v="Stokkan" />
		<tag k="place" v="farm" />
		<tag k="ssr:stedsnr" v="582987" />
	</node>
	<node id="-719269" lat="62.7950333318" lon="9.98327778641">
		<tag k="name" v="Østerbrøt" />
		<tag k="place" v="farm" />
		<tag k="ssr:stedsnr" v="582873" />
	</node>
	<node id="-717552" lat="62.9157277739" lon="9.77129445187">
		<tag k="alt_name" v="Åskjellan" />
		<tag k="name" v="Kjellan" />
		<tag k="place" v="farm" />
		<tag k="ssr:stedsnr" v="255997" />
	</node>
	<node id="-719262" lat="62.7979972207" lon="10.0240694503">
		<tag k="historic" v="shieling" />
		<tag k="name" v="Slipersætra" />
		<tag k="place" v="locality" />
		<tag k="ssr:stedsnr" v="582829" />
	</node>
	<node id="-719259" lat="62.8917055594" lon="9.82908888034">
		<tag k="alt_name" v="Herremsløkkja" />
		<tag k="name" v="Løkkja" />
		<tag k="place" v="farm" />
		<tag k="ssr:stedsnr" v="582649" />
	</node>
	<node id="-719258" lat="62.9025583337" lon="9.80733888933">
		<tag k="name" v="Høgheim" />
		<tag k="place" v="farm" />
		<tag k="ssr:stedsnr" v="582647" />
	</node>
	<node id="-717551" lat="62.8983337981" lon="9.81209666063">
		<tag k="fixme" v="consider place=hamlet" />
		<tag k="name" v="Roggogjerdet" />
		<tag k="place" v="farm" />
		<tag k="ssr:stedsnr" v="255983" />
	</node>
	<node id="-719256" lat="62.7931222201" lon="9.64187777684">
		<tag k="name" v="Underli" />
		<tag k="place" v="isolated_dwelling" />
		<tag k="ssr:stedsnr" v="582622" />
	</node>
	<node id="-719247" lat="62.7040833302" lon="9.95227499548">
		<tag k="name" v="Åshuset" />
		<tag k="place" v="farm" />
		<tag k="ssr:stedsnr" v="582556" />
	</node>
	<node id="-719246" lat="62.7007666643" lon="9.94634445278">
		<tag k="name" v="Vang" />
		<tag k="place" v="farm" />
		<tag k="ssr:stedsnr" v="582553" />
	</node>
	<node id="-719241" lat="62.8990666641" lon="9.77977222866">
		<tag k="historic" v="shieling" />
		<tag k="name" v="Lundahaugsætra" />
		<tag k="place" v="locality" />
		<tag k="ssr:stedsnr" v="582770" />
	</node>
	<node id="-719239" lat="62.8361666699" lon="9.88764999458">
		<tag k="name" v="Moen" />
		<tag k="place" v="farm" />
		<tag k="ssr:stedsnr" v="582747" />
	</node>
	<node id="-719234" lat="62.909183331" lon="9.78458334153">
		<tag k="name" v="Nordstuggu" />
		<tag k="place" v="farm" />
		<tag k="ssr:stedsnr" v="582691" />
	</node>
	<node id="-717547" lat="62.8627465364" lon="9.83299483575">
		<tag k="name" v="Rokkones" />
		<tag k="place" v="hamlet" />
		<tag k="ssr:stedsnr" v="255899" />
	</node>
	<node id="-719231" lat="62.9355750029" lon="9.86715556001">
		<tag k="historic" v="shieling" />
		<tag k="name" v="Nordstuggusætra" />
		<tag k="place" v="locality" />
		<tag k="ssr:stedsnr" v="582529" />
	</node>
	<node id="-719228" lat="62.8485638882" lon="9.86467777444">
		<tag k="name" v="Oppstuggu" />
		<tag k="place" v="farm" />
		<tag k="ssr:stedsnr" v="582491" />
	</node>
	<node id="-719594" lat="62.751377778" lon="10.0085166577">
		<tag k="name" v="Ringagjerdet" />
		<tag k="place" v="isolated_dwelling" />
		<tag k="ssr:stedsnr" v="825917" />
	</node>
	<node id="-719226" lat="62.8479499959" lon="9.87726389573">
		<tag k="alt_name" v="Skule" />
		<tag k="name" v="Refshus skule" />
		<tag k="place" v="isolated_dwelling" />
		<tag k="ssr:stedsnr" v="582482" />
	</node>
	<node id="-719225" lat="62.8471972189" lon="9.89444444817">
		<tag k="name" v="Søgard" />
		<tag k="place" v="farm" />
		<tag k="ssr:stedsnr" v="582479" />
	</node>
	<node id="-719224" lat="62.704827774" lon="10.0424833346">
		<tag k="name" v="Nord-Kleva" />
		<tag k="place" v="farm" />
		<tag k="ssr:stedsnr" v="581988" />
	</node>
	<node id="-719221" lat="62.8338000011" lon="9.9871888864">
		<tag k="name" v="Kåsen" />
		<tag k="place" v="farm" />
		<tag k="ssr:stedsnr" v="581793" />
	</node>
	<node id="-719219" lat="62.9169612784" lon="10.0372167159">
		<tag k="historic" v="shieling" />
		<tag k="name" v="Herremsætra" />
		<tag k="place" v="locality" />
		<tag k="ssr:stedsnr" v="581771" />
	</node>
	<node id="-719217" lat="62.911819445" lon="10.0196111085">
		<tag k="historic" v="shieling" />
		<tag k="name" v="Vollsætra" />
		<tag k="place" v="locality" />
		<tag k="ssr:stedsnr" v="581763" />
	</node>
	<node id="-719216" lat="62.9128611104" lon="10.0207111116">
		<tag k="historic" v="shieling" />
		<tag k="name" v="Holsætra" />
		<tag k="place" v="locality" />
		<tag k="ssr:stedsnr" v="581762" />
	</node>
	<node id="-719215" lat="62.8763749956" lon="9.7798111148">
		<tag k="historic" v="shieling" />
		<tag k="name" v="Gamle Nesjsætra" />
		<tag k="place" v="locality" />
		<tag k="ssr:stedsnr" v="581746" />
	</node>
	<node id="-719530" lat="62.894138886" lon="9.84930832908">
		<tag k="historic" v="shieling" />
		<tag k="name" v="Herremsætra" />
		<tag k="place" v="locality" />
		<tag k="ssr:stedsnr" v="825469" />
	</node>
	<node id="-719207" lat="62.8576416681" lon="10.0816750097">
		<tag k="name" v="Haugen" />
		<tag k="place" v="isolated_dwelling" />
		<tag k="ssr:stedsnr" v="581232" />
	</node>
	<node id="-719206" lat="62.8623944448" lon="10.0771194402">
		<tag k="name" v="Bjørkås" />
		<tag k="place" v="farm" />
		<tag k="ssr:stedsnr" v="581228" />
	</node>
	<node id="-719203" lat="62.8401226907" lon="9.88799002723">
		<tag k="name" v="Gunnes" />
		<tag k="place" v="hamlet" />
		<tag k="ssr:stedsnr" v="571752" />
	</node>
	<node id="-719200" lat="62.7988805548" lon="10.0993166632">
		<tag k="historic" v="shieling" />
		<tag k="name" v="Berkåkssætra" />
		<tag k="place" v="locality" />
		<tag k="ssr:stedsnr" v="566183" />
	</node>
	<node id="-719199" lat="62.9229105624" lon="9.7905075731">
		<tag k="fixme" v="consider place=hamlet" />
		<tag k="name" v="Ry" />
		<tag k="place" v="farm" />
		<tag k="ssr:stedsnr" v="558950" />
	</node>
	<node id="-719589" lat="62.7087305515" lon="10.1173527812">
		<tag k="historic" v="shieling" />
		<tag k="name" v="Bakksætra" />
		<tag k="place" v="locality" />
		<tag k="ssr:stedsnr" v="825786" />
	</node>
	<node id="-719196" lat="62.967511111" lon="9.78271945178">
		<tag k="fixme" v="consider place=hamlet" />
		<tag k="name" v="Ramloen" />
		<tag k="place" v="farm" />
		<tag k="ssr:stedsnr" v="558849" />
	</node>
	<node id="-719191" lat="62.8535351948" lon="10.0285102631">
		<tag k="name" v="Tovlia" />
		<tag k="place" v="farm" />
		<tag k="ssr:stedsnr" v="558935" />
	</node>
	<node id="-719190" lat="62.8351583352" lon="9.8512694425">
		<tag k="historic" v="shieling" />
		<tag k="name" v="Holssætra" />
		<tag k="place" v="locality" />
		<tag k="ssr:stedsnr" v="558927" />
	</node>
	<node id="-719189" lat="62.8787331095" lon="10.0863160829">
		<tag k="fixme" v="consider place=hamlet" />
		<tag k="name" v="Halland" />
		<tag k="place" v="farm" />
		<tag k="ssr:stedsnr" v="558901" />
	</node>
	<node id="-719187" lat="62.8106722194" lon="9.71196945378">
		<tag k="alt_name" v="Kulia" />
		<tag k="name" v="Kulisætra" />
		<tag k="place" v="isolated_dwelling" />
		<tag k="ssr:stedsnr" v="558882" />
	</node>
	<node id="-719186" lat="62.7903305568" lon="9.63559722451">
		<tag k="name" v="Mårud" />
		<tag k="place" v="farm" />
		<tag k="ssr:stedsnr" v="558872" />
	</node>
	<node id="-719185" lat="62.7558665382" lon="9.96846443689">
		<tag k="name" v="Sundset" />
		<tag k="place" v="hamlet" />
		<tag k="ssr:stedsnr" v="558642" />
	</node>
	<node id="-719184" lat="62.7660583311" lon="9.99996110257">
		<tag k="alt_name" v="Løkkja" />
		<tag k="name" v="Småset" />
		<tag k="place" v="farm" />
		<tag k="ssr:stedsnr" v="558634" />
	</node>
	<node id="-719183" lat="62.7739027782" lon="9.72481944402">
		<tag k="historic" v="shieling" />
		<tag k="name" v="Rokonessætra" />
		<tag k="place" v="locality" />
		<tag k="ssr:stedsnr" v="558631" />
	</node>
	<node id="-719176" lat="62.7479777783" lon="9.97360833434">
		<tag k="name" v="Buddenget" />
		<tag k="old_name" v="Buenget" />
		<tag k="place" v="farm" />
		<tag k="ssr:stedsnr" v="557330" />
	</node>
	<node id="-719174" lat="62.7352098737" lon="9.88309391449">
		<tag k="alt_name" v="Øver Slættet;Slettet" />
		<tag k="fixme" v="consider place=hamlet" />
		<tag k="name" v="Slættet" />
		<tag k="place" v="farm" />
		<tag k="ssr:stedsnr" v="557295" />
	</node>
	<node id="-719173" lat="62.7814472246" lon="9.60285833148">
		<tag k="amenity" v="school" />
		<tag k="name" v="Nerskogen skole" />
		<tag k="ssr:stedsnr" v="544853" />
	</node>
	<node id="-719172" lat="62.7025138905" lon="10.1665916622">
		<tag k="name" v="Novenget" />
		<tag k="place" v="locality" />
		<tag k="ssr:stedsnr" v="544574" />
	</node>
	<node id="-719169" lat="62.8476361072" lon="9.88488333781">
		<tag k="name" v="Søstuggu" />
		<tag k="place" v="farm" />
		<tag k="ssr:stedsnr" v="527088" />
	</node>
	<node id="-719160" lat="62.9385527774" lon="9.68806943608">
		<tag k="historic" v="shieling" />
		<tag k="name" v="Seås Fremre" />
		<tag k="place" v="locality" />
		<tag k="ssr:stedsnr" v="522942" />
	</node>
	<node id="-719159" lat="62.9656972259" lon="9.76029722161">
		<tag k="name" v="Reitåshåggån" />
		<tag k="place" v="isolated_dwelling" />
		<tag k="ssr:stedsnr" v="522939" />
	</node>
	<node id="-719153" lat="62.7244249962" lon="10.0302638979">
		<tag k="fixme" v="consider place=hamlet" />
		<tag k="name" v="Småholtan" />
		<tag k="place" v="farm" />
		<tag k="ssr:stedsnr" v="521993" />
	</node>
	<node id="-719152" lat="62.7183305581" lon="10.0313055545">
		<tag k="name" v="Nyhus" />
		<tag k="place" v="farm" />
		<tag k="ssr:stedsnr" v="521985" />
	</node>
	<node id="-719151" lat="62.716" lon="10.0524500083">
		<tag k="fixme" v="consider place=hamlet" />
		<tag k="name" v="Flaten" />
		<tag k="place" v="farm" />
		<tag k="ssr:stedsnr" v="521982" />
	</node>
	<node id="-719150" lat="62.7137722199" lon="10.0388388941">
		<tag k="fixme" v="consider place=hamlet" />
		<tag k="name" v="Flotten" />
		<tag k="place" v="farm" />
		<tag k="ssr:stedsnr" v="521974" />
	</node>
	<node id="-717533" lat="62.7503274519" lon="9.98700468236">
		<tag k="fixme" v="consider place=hamlet" />
		<tag k="name" v="Ulsberg" />
		<tag k="place" v="farm" />
		<tag k="ssr:stedsnr" v="255625" />
	</node>
	<node id="-719146" lat="62.755580554" lon="9.99164167277">
		<tag k="name" v="Jønnåa" />
		<tag k="place" v="farm" />
		<tag k="ssr:stedsnr" v="521936" />
	</node>
	<node id="-719145" lat="62.7663305583" lon="9.99041666968">
		<tag k="alt_name" v="Tosetbakken N." />
		<tag k="name" v="Nordre Tosetbakken" />
		<tag k="place" v="farm" />
		<tag k="ssr:stedsnr" v="521930" />
	</node>
	<node id="-719142" lat="62.7094500016" lon="10.0139833392">
		<tag k="fixme" v="consider place=hamlet" />
		<tag k="name" v="Steffenplassen" />
		<tag k="place" v="farm" />
		<tag k="ssr:stedsnr" v="521919" />
	</node>
	<node id="-719141" lat="62.7559166691" lon="10.0120888972">
		<tag k="historic" v="shieling" />
		<tag k="name" v="Rønningsætra" />
		<tag k="place" v="locality" />
		<tag k="ssr:stedsnr" v="521907" />
	</node>
	<node id="-719625" lat="62.7693722194" lon="9.69988888745">
		<tag k="historic" v="shieling" />
		<tag k="name" v="Ramsessætra" />
		<tag k="place" v="locality" />
		<tag k="ssr:stedsnr" v="862792" />
	</node>
	<node id="-719136" lat="62.7780777751" lon="9.97189167492">
		<tag k="amenity" v="school" />
		<tag k="name" v="Havdal gml. skule" />
		<tag k="ssr:stedsnr" v="521877" />
	</node>
	<node id="-719130" lat="62.7581583315" lon="10.1002527688">
		<tag k="name" v="Nygardshytta" />
		<tag k="place" v="isolated_dwelling" />
		<tag k="ssr:stedsnr" v="521809" />
	</node>
	<node id="-719117" lat="62.8037805543" lon="10.0130138925">
		<tag k="name" v="Stavåøset" />
		<tag k="place" v="isolated_dwelling" />
		<tag k="ssr:stedsnr" v="521763" />
	</node>
	<node id="-719116" lat="62.9138666637" lon="10.0208972245">
		<tag k="historic" v="shieling" />
		<tag k="name" v="Ilbogen" />
		<tag k="place" v="locality" />
		<tag k="ssr:stedsnr" v="521761" />
	</node>
	<node id="-719108" lat="62.9126666653" lon="9.79729999531">
		<tag k="name" v="Brekkstuggu" />
		<tag k="place" v="isolated_dwelling" />
		<tag k="ssr:stedsnr" v="521662" />
	</node>
	<node id="-719102" lat="62.7759277791" lon="9.60938610364">
		<tag k="historic" v="shieling" />
		<tag k="name" v="Oppstugguvollen" />
		<tag k="place" v="locality" />
		<tag k="ssr:stedsnr" v="521629" />
	</node>
	<node id="-719094" lat="62.8362093288" lon="9.930507598">
		<tag k="name" v="Søstuggu" />
		<tag k="place" v="farm" />
		<tag k="ssr:stedsnr" v="521603" />
	</node>
	<node id="-719093" lat="62.8347833343" lon="9.96175277858">
		<tag k="name" v="Flåmoen" />
		<tag k="place" v="farm" />
		<tag k="ssr:stedsnr" v="521597" />
	</node>
	<node id="-719085" lat="62.7937638885" lon="9.98256388431">
		<tag k="name" v="Brattset" />
		<tag k="place" v="hamlet" />
		<tag k="ssr:stedsnr" v="521555" />
	</node>
	<node id="-719075" lat="62.8487583328" lon="9.86718610929">
		<tag k="name" v="Utstuggu" />
		<tag k="place" v="farm" />
		<tag k="ssr:stedsnr" v="521479" />
	</node>
	<node id="-719074" lat="62.8393638922" lon="10.0383666702">
		<tag k="name" v="Tuftåsen" />
		<tag k="place" v="isolated_dwelling" />
		<tag k="ssr:stedsnr" v="521204" />
	</node>
	<node id="-719073" lat="62.8602000025" lon="10.0864166671">
		<tag k="name" v="Dverghaugen" />
		<tag k="place" v="isolated_dwelling" />
		<tag k="ssr:stedsnr" v="521197" />
	</node>
	<node id="-719071" lat="62.8679027797" lon="10.0634194475">
		<tag k="name" v="Kalvhåggån" />
		<tag k="place" v="farm" />
		<tag k="ssr:stedsnr" v="521193" />
	</node>
	<node id="-719069" lat="62.8961083362" lon="9.9446916611">
		<tag k="historic" v="shieling" />
		<tag k="name" v="Meslosætrin" />
		<tag k="place" v="locality" />
		<tag k="ssr:stedsnr" v="437970" />
	</node>
	<node id="-719067" lat="62.9410808986" lon="9.77815799324">
		<tag k="fixme" v="consider place=hamlet" />
		<tag k="name" v="Gardsvollan" />
		<tag k="place" v="farm" />
		<tag k="ssr:stedsnr" v="437951" />
	</node>
	<node id="-719063" lat="62.8490444437" lon="9.85607221517">
		<tag k="fixme" v="consider place=hamlet" />
		<tag k="name" v="Stamnan" />
		<tag k="place" v="village" />
		<tag k="ssr:stedsnr" v="437903" />
	</node>
	<node id="-719062" lat="62.8393333588" lon="9.89507244599">
		<tag k="alt_name" v="Gunnesbakken" />
		<tag k="name" v="Gunnes" />
		<tag k="place" v="farm" />
		<tag k="ssr:stedsnr" v="437891" />
	</node>
	<node id="-719059" lat="62.8086972185" lon="9.71032777489">
		<tag k="historic" v="shieling" />
		<tag k="name" v="Refshussætra" />
		<tag k="place" v="locality" />
		<tag k="ssr:stedsnr" v="437837" />
	</node>
	<node id="-719058" lat="62.8427000001" lon="9.61057222211">
		<tag k="historic" v="shieling" />
		<tag k="name" v="Heldalssætrin" />
		<tag k="place" v="locality" />
		<tag k="ssr:stedsnr" v="437817" />
	</node>
	<node id="-719057" lat="62.9616363141" lon="9.7754631648">
		<tag k="fixme" v="consider place=hamlet" />
		<tag k="name" v="Bruholtan" />
		<tag k="place" v="farm" />
		<tag k="ssr:stedsnr" v="437780" />
	</node>
	<node id="-719053" lat="62.7867583371" lon="9.97461388247">
		<tag k="name" v="Kalså" />
		<tag k="place" v="farm" />
		<tag k="ssr:stedsnr" v="437592" />
	</node>
	<node id="-719052" lat="62.8158416627" lon="9.82881389622">
		<tag k="historic" v="shieling" />
		<tag k="name" v="Holssætra" />
		<tag k="place" v="locality" />
		<tag k="ssr:stedsnr" v="437583" />
	</node>
	<node id="-719050" lat="62.7433362285" lon="9.99275079855">
		<tag k="fixme" v="consider place=hamlet" />
		<tag k="name" v="Tørset" />
		<tag k="place" v="farm" />
		<tag k="ssr:stedsnr" v="436341" />
	</node>
	<node id="-719047" lat="62.7086361071" lon="9.95389721826">
		<tag k="name" v="Frostløkkja" />
		<tag k="place" v="farm" />
		<tag k="ssr:stedsnr" v="436265" />
	</node>
	<node id="-719045" lat="62.7097916709" lon="9.93272499527">
		<tag k="alt_name" v="Gisnås" />
		<tag k="name" v="Gisnåsen" />
		<tag k="place" v="farm" />
		<tag k="ssr:stedsnr" v="424986" />
	</node>
	<node id="-719607" lat="62.8783166658" lon="10.086322218">
		<tag k="alt_name" v="Halland øvre" />
		<tag k="name" v="Øvre Halland" />
		<tag k="place" v="farm" />
		<tag k="ssr:stedsnr" v="844977" />
	</node>
	<node id="-719043" lat="62.9344888909" lon="9.77961111266">
		<tag k="name" v="Tverdalsgjerdet" />
		<tag k="place" v="farm" />
		<tag k="ssr:stedsnr" v="414749" />
	</node>
	<node id="-719042" lat="62.7225750016" lon="9.85379722329">
		<tag k="historic" v="shieling" />
		<tag k="name" v="Stenersenget" />
		<tag k="place" v="locality" />
		<tag k="ssr:stedsnr" v="406844" />
	</node>
	<node id="-719041" lat="62.8780083348" lon="9.55680555993">
		<tag k="historic" v="shieling" />
		<tag k="name" v="Bortstuggusætra" />
		<tag k="place" v="locality" />
		<tag k="ssr:stedsnr" v="404051" />
	</node>
	<node id="-719040" lat="62.9540027758" lon="9.76138333427">
		<tag k="fixme" v="consider place=hamlet" />
		<tag k="name" v="Reitmoen" />
		<tag k="place" v="farm" />
		<tag k="ssr:stedsnr" v="401000" />
	</node>
	<node id="-719033" lat="62.8940356766" lon="9.61321918778">
		<tag k="historic" v="shieling" />
		<tag k="name" v="Meåsvollen" />
		<tag k="place" v="locality" />
		<tag k="ssr:stedsnr" v="400967" />
	</node>
	<node id="-719025" lat="62.7540638882" lon="9.98993889806">
		<tag k="name" v="Rønningen" />
		<tag k="place" v="farm" />
		<tag k="ssr:stedsnr" v="400940" />
	</node>
	<node id="-719024" lat="62.7597305518" lon="9.96873610829">
		<tag k="name" v="Slettbakken" />
		<tag k="place" v="farm" />
		<tag k="ssr:stedsnr" v="400937" />
	</node>
	<node id="-719021" lat="62.7471000003" lon="10.0088749953">
		<tag k="name" v="Kvernhushaugen" />
		<tag k="place" v="farm" />
		<tag k="ssr:stedsnr" v="400925" />
	</node>
	<node id="-719197" lat="62.895309159" lon="10.0438330396">
		<tag k="fixme" v="consider place=hamlet" />
		<tag k="name" v="Storvollan" />
		<tag k="place" v="farm" />
		<tag k="ssr:stedsnr" v="558975" />
	</node>
	<node id="-719018" lat="62.9637861154" lon="9.87026389675">
		<tag k="historic" v="shieling" />
		<tag k="name" v="Jorlisætra" />
		<tag k="place" v="locality" />
		<tag k="ssr:stedsnr" v="400913" />
	</node>
	<node id="-719012" lat="62.7636027744" lon="9.99594166193">
		<tag k="alt_name" v="Toset N." />
		<tag k="name" v="Nordre Toset" />
		<tag k="place" v="farm" />
		<tag k="ssr:stedsnr" v="400897" />
	</node>
	<node id="-719011" lat="62.7829888878" lon="9.97227499876">
		<tag k="name" v="Skogtun" />
		<tag k="place" v="isolated_dwelling" />
		<tag k="ssr:stedsnr" v="400893" />
	</node>
	<node id="-719010" lat="62.7897833323" lon="9.98144999263">
		<tag k="name" v="Kollen" />
		<tag k="place" v="isolated_dwelling" />
		<tag k="ssr:stedsnr" v="400891" />
	</node>
	<node id="-719009" lat="62.8631805587" lon="10.0846166678">
		<tag k="name" v="Skugglia" />
		<tag k="place" v="farm" />
		<tag k="ssr:stedsnr" v="400853" />
	</node>
	<node id="-719665" lat="62.7267172395" lon="9.93584036512">
		<tag k="name" v="Langklopp" />
		<tag k="place" v="farm" />
		<tag k="ssr:stedsnr" v="982697" />
	</node>
	<node id="-718999" lat="62.8322966938" lon="9.98778879667">
		<tag k="name" v="Kosberg" />
		<tag k="place" v="hamlet" />
		<tag k="ssr:stedsnr" v="400799" />
	</node>
	<node id="-718997" lat="62.8308444419" lon="9.99319721723">
		<tag k="name" v="Ry" />
		<tag k="place" v="farm" />
		<tag k="ssr:stedsnr" v="400787" />
	</node>
	<node id="-718996" lat="62.8277999958" lon="10.0068888859">
		<tag k="name" v="Bakkan" />
		<tag k="place" v="farm" />
		<tag k="ssr:stedsnr" v="400781" />
	</node>
	<node id="-718995" lat="62.815172222" lon="10.0358222285">
		<tag k="name" v="Haugaløkkja" />
		<tag k="place" v="farm" />
		<tag k="ssr:stedsnr" v="400779" />
	</node>
	<node id="-718992" lat="62.8497361091" lon="9.8555333274">
		<tag k="name" v="Teigan" />
		<tag k="place" v="farm" />
		<tag k="ssr:stedsnr" v="400757" />
	</node>
	<node id="-718991" lat="62.8466194473" lon="9.84333611">
		<tag k="name" v="Grubba" />
		<tag k="place" v="farm" />
		<tag k="ssr:stedsnr" v="400753" />
	</node>
	<node id="-718985" lat="62.7318472248" lon="9.85736666293">
		<tag k="historic" v="shieling" />
		<tag k="name" v="Nylendsætra" />
		<tag k="place" v="locality" />
		<tag k="ssr:stedsnr" v="400719" />
	</node>
	<node id="-718984" lat="62.7503611079" lon="9.88590556035">
		<tag k="name" v="Heverbu" />
		<tag k="place" v="isolated_dwelling" />
		<tag k="ssr:stedsnr" v="400714" />
	</node>
	<node id="-718983" lat="62.8281222233" lon="9.74078054653">
		<tag k="historic" v="shieling" />
		<tag k="name" v="Larshussætra" />
		<tag k="place" v="locality" />
		<tag k="ssr:stedsnr" v="400712" />
	</node>
	<node id="-718980" lat="62.9256388854" lon="9.75907499047">
		<tag k="name" v="Innstuggu" />
		<tag k="place" v="farm" />
		<tag k="ssr:stedsnr" v="400687" />
	</node>
	<node id="-718975" lat="62.928030552" lon="9.73145277683">
		<tag k="name" v="Solli" />
		<tag k="place" v="farm" />
		<tag k="ssr:stedsnr" v="400672" />
	</node>
	<node id="-718974" lat="62.9097499961" lon="9.79564166733">
		<tag k="fixme" v="multiple name tags, choose one and add the other to alt_name" />
		<tag k="name" v="Mærk;Utstuggu" />
		<tag k="place" v="farm" />
		<tag k="ssr:stedsnr" v="400671" />
	</node>
	<node id="-718972" lat="62.9418666698" lon="9.76702222971">
		<tag k="name" v="Trobakken" />
		<tag k="place" v="farm" />
		<tag k="ssr:stedsnr" v="400664" />
	</node>
	<node id="-718965" lat="62.8922388914" lon="9.82810832454">
		<tag k="name" v="Utstuggu" />
		<tag k="place" v="farm" />
		<tag k="ssr:stedsnr" v="400634" />
	</node>
	<node id="-718963" lat="62.9057805577" lon="9.79494167524">
		<tag k="name" v="Innlegget" />
		<tag k="place" v="isolated_dwelling" />
		<tag k="ssr:stedsnr" v="400625" />
	</node>
	<node id="-718962" lat="62.8608583368" lon="9.92134166084">
		<tag k="historic" v="shieling" />
		<tag k="name" v="Haugsætra" />
		<tag k="place" v="locality" />
		<tag k="ssr:stedsnr" v="400620" />
	</node>
	<node id="-718957" lat="62.836347226" lon="9.92824999917">
		<tag k="name" v="Innstuggu" />
		<tag k="place" v="farm" />
		<tag k="ssr:stedsnr" v="400603" />
	</node>
	<node id="-718945" lat="62.8487972221" lon="9.86200277418">
		<tag k="name" v="Bortstuggu" />
		<tag k="place" v="farm" />
		<tag k="ssr:stedsnr" v="400496" />
	</node>
	<node id="-718944" lat="62.7098361129" lon="10.032305549">
		<tag k="fixme" v="consider place=hamlet" />
		<tag k="name" v="Dolpa" />
		<tag k="place" v="farm" />
		<tag k="ssr:stedsnr" v="399973" />
	</node>
	<node id="-718941" lat="62.8611861141" lon="9.83406111397">
		<tag k="name" v="Søgard" />
		<tag k="place" v="farm" />
		<tag k="ssr:stedsnr" v="399708" />
	</node>
	<node id="-718931" lat="62.9139333291" lon="10.0202916724">
		<tag k="historic" v="shieling" />
		<tag k="name" v="Hovengsætra" />
		<tag k="place" v="locality" />
		<tag k="ssr:stedsnr" v="376992" />
	</node>
	<node id="-718929" lat="62.9330902482" lon="9.77937658115">
		<tag k="fixme" v="consider place=hamlet" />
		<tag k="name" v="Tverdal" />
		<tag k="place" v="farm" />
		<tag k="ssr:stedsnr" v="376958" />
	</node>
	<node id="-718928" lat="62.85818056" lon="9.9004083362">
		<tag k="historic" v="shieling" />
		<tag k="name" v="Skjervsætrin" />
		<tag k="place" v="locality" />
		<tag k="ssr:stedsnr" v="376952" />
	</node>
	<node id="-718927" lat="62.8404323904" lon="9.95787577155">
		<tag k="alt_name" v="Sliper" />
		<tag k="fixme" v="consider place=hamlet" />
		<tag k="name" v="Slipran" />
		<tag k="place" v="farm" />
		<tag k="ssr:stedsnr" v="376937" />
	</node>
	<node id="-718926" lat="62.8457388888" lon="9.93647777889">
		<tag k="fixme" v="multiple name tags, choose one and add the other to alt_name" />
		<tag k="historic" v="shieling" />
		<tag k="name" v="Flåsætra;Flåsætrin" />
		<tag k="place" v="locality" />
		<tag k="ssr:stedsnr" v="376936" />
	</node>
	<node id="-718925" lat="62.8355129493" lon="9.91723477501">
		<tag k="fixme" v="consider place=hamlet" />
		<tag k="name" v="Grøtan" />
		<tag k="place" v="farm" />
		<tag k="ssr:stedsnr" v="376932" />
	</node>
	<node id="-718924" lat="62.8322228109" lon="9.9652046162">
		<tag k="name" v="Skjepphaugen" />
		<tag k="place" v="farm" />
		<tag k="ssr:stedsnr" v="376928" />
	</node>
	<node id="-718923" lat="62.8233027822" lon="9.7317416706">
		<tag k="historic" v="shieling" />
		<tag k="name" v="Stamnessætra" />
		<tag k="place" v="locality" />
		<tag k="ssr:stedsnr" v="376919" />
	</node>
	<node id="-718921" lat="62.8901668596" lon="9.82955640506">
		<tag k="alt_name" v="Oppstuggu" />
		<tag k="fixme" v="consider place=hamlet" />
		<tag k="name" v="Herrem" />
		<tag k="place" v="farm" />
		<tag k="ssr:stedsnr" v="376915" />
	</node>
	<node id="-718918" lat="62.7812138872" lon="9.60049999054">
		<tag k="name" v="Haga" />
		<tag k="place" v="farm" />
		<tag k="ssr:stedsnr" v="376851" />
	</node>
	<node id="-718916" lat="62.8512222217" lon="9.67659165713">
		<tag k="name" v="Svarthamran" />
		<tag k="place" v="isolated_dwelling" />
		<tag k="ssr:stedsnr" v="376845" />
	</node>
	<node id="-718914" lat="62.7762388878" lon="9.59894999777">
		<tag k="name" v="Vollen" />
		<tag k="place" v="farm" />
		<tag k="ssr:stedsnr" v="376800" />
	</node>
	<node id="-718908" lat="62.8818916688" lon="9.70583056423">
		<tag k="name" v="Granaslættet" />
		<tag k="place" v="isolated_dwelling" />
		<tag k="ssr:stedsnr" v="376208" />
	</node>
	<node id="-718903" lat="62.6074833348" lon="10.034075">
		<tag k="alt_name" v="Nyvoll" />
		<tag k="historic" v="shieling" />
		<tag k="name" v="Nyvollen" />
		<tag k="place" v="locality" />
		<tag k="ssr:stedsnr" v="375400" />
	</node>
	<node id="-718902" lat="62.7208250015" lon="10.042594445">
		<tag k="fixme" v="consider place=hamlet" />
		<tag k="name" v="Innset" />
		<tag k="place" v="village" />
		<tag k="ssr:stedsnr" v="375297" />
	</node>
	<node id="-718900" lat="62.7265289314" lon="9.93458965556">
		<tag k="fixme" v="consider place=hamlet" />
		<tag k="name" v="Langklopp" />
		<tag k="place" v="farm" />
		<tag k="ssr:stedsnr" v="375283" />
	</node>
	<node id="-718899" lat="62.7333166708" lon="9.87100834087">
		<tag k="historic" v="shieling" />
		<tag k="name" v="Sundsetsætra" />
		<tag k="place" v="locality" />
		<tag k="ssr:stedsnr" v="375280" />
	</node>
	<node id="-718898" lat="62.7320018266" lon="9.99764248095">
		<tag k="fixme" v="consider place=hamlet" />
		<tag k="name" v="Langbrekka" />
		<tag k="place" v="farm" />
		<tag k="ssr:stedsnr" v="375279" />
	</node>
	<node id="-718897" lat="62.7338685381" lon="9.9890449342">
		<tag k="alt_name" v="Olsbakken, nedre;Olsbakk ned." />
		<tag k="fixme" v="consider place=hamlet" />
		<tag k="name" v="Nedre Olsbakken" />
		<tag k="place" v="farm" />
		<tag k="ssr:stedsnr" v="375277" />
	</node>
	<node id="-718896" lat="62.6998527771" lon="10.1348611199">
		<tag k="name" v="Søndre Nåverdalen" />
		<tag k="place" v="farm" />
		<tag k="ssr:stedsnr" v="362589" />
	</node>
	<node id="-718893" lat="62.7809166694" lon="9.89191667508">
		<tag k="historic" v="shieling" />
		<tag k="name" v="Måssåbakksætra" />
		<tag k="place" v="locality" />
		<tag k="ssr:stedsnr" v="343025" />
	</node>
	<node id="-718886" lat="62.7039305563" lon="10.0336527757">
		<tag k="fixme" v="consider place=hamlet" />
		<tag k="name" v="Sylplassen" />
		<tag k="place" v="farm" />
		<tag k="ssr:stedsnr" v="339984" />
	</node>
	<node id="-718885" lat="62.9599333306" lon="9.79150000953">
		<tag k="name" v="Utstuggu" />
		<tag k="place" v="farm" />
		<tag k="ssr:stedsnr" v="339983" />
	</node>
	<node id="-718882" lat="62.679274998" lon="10.0245249914">
		<tag k="historic" v="shieling" />
		<tag k="name" v="Håkkåsætra" />
		<tag k="place" v="locality" />
		<tag k="ssr:stedsnr" v="339957" />
	</node>
	<node id="-718879" lat="62.6794638848" lon="10.0299666608">
		<tag k="historic" v="shieling" />
		<tag k="name" v="Bakksætra" />
		<tag k="place" v="locality" />
		<tag k="ssr:stedsnr" v="339951" />
	</node>
	<node id="-718876" lat="62.7575333313" lon="9.96928056013">
		<tag k="name" v="Øverlia" />
		<tag k="place" v="farm" />
		<tag k="ssr:stedsnr" v="339921" />
	</node>
	<node id="-718875" lat="62.760819448" lon="9.991591668">
		<tag k="alt_name" v="Tosetbakken S." />
		<tag k="name" v="Søndre Tosetbakken" />
		<tag k="place" v="locality" />
		<tag k="ssr:stedsnr" v="339910" />
	</node>
	<node id="-718874" lat="62.7141488264" lon="10.027624673">
		<tag k="fixme" v="consider place=hamlet" />
		<tag k="name" v="Kroken" />
		<tag k="place" v="farm" />
		<tag k="ssr:stedsnr" v="339907" />
	</node>
	<node id="-718873" lat="62.798438888" lon="9.99458056438">
		<tag k="name" v="Stølan" />
		<tag k="place" v="farm" />
		<tag k="ssr:stedsnr" v="339888" />
	</node>
	<node id="-718872" lat="62.8023527738" lon="9.99330833083">
		<tag k="name" v="Skoglund" />
		<tag k="place" v="farm" />
		<tag k="ssr:stedsnr" v="339886" />
	</node>
	<node id="-718869" lat="62.7696666631" lon="9.97972221596">
		<tag k="name" v="Havdalsbakkan" />
		<tag k="place" v="isolated_dwelling" />
		<tag k="ssr:stedsnr" v="339866" />
	</node>
	<node id="-718866" lat="62.7928222226" lon="9.97904166741">
		<tag k="name" v="Brattset" />
		<tag k="place" v="farm" />
		<tag k="ssr:stedsnr" v="339858" />
	</node>
	<node id="-718865" lat="62.9162305546" lon="10.0362138916">
		<tag k="historic" v="shieling" />
		<tag k="name" v="Krovollsætra" />
		<tag k="place" v="locality" />
		<tag k="ssr:stedsnr" v="339828" />
	</node>
	<node id="-718861" lat="62.7768305519" lon="10.090730562">
		<tag k="name" v="Nordang hytta" />
		<tag k="place" v="isolated_dwelling" />
		<tag k="ssr:stedsnr" v="339809" />
	</node>
	<node id="-718855" lat="62.7972638883" lon="10.0816694522">
		<tag k="historic" v="shieling" />
		<tag k="name" v="Berkåksætra" />
		<tag k="place" v="locality" />
		<tag k="ssr:stedsnr" v="339764" />
	</node>
	<node id="-717623" lat="62.7621166623" lon="9.97215832357">
		<tag k="name" v="Norvang" />
		<tag k="place" v="farm" />
		<tag k="ssr:stedsnr" v="279939" />
	</node>
</osm>
