<?xml version="1.0" encoding="UTF-8"?>
<osm generator="osmapis" version="0.6">
	<node id="-852736" lat="64.3363388912" lon="10.3481416652">
		<tag k="name" v="Kvalhausen" />
		<tag k="ssr:date" v="2018-01-09" />
		<tag k="ssr:gruppe" v="navigasjon" />
		<tag k="ssr:hovedgruppe" v="infrastruktur" />
		<tag k="ssr:stedsnr" v="620724" />
		<tag k="ssr:type" v="fyrlykt" />
	</node>
	<node id="-854268" lat="64.3101009752" lon="10.4575567911">
		<tag k="name" v="Sundet" />
		<tag k="ssr:date" v="2019-05-30" />
		<tag k="ssr:gruppe" v="veg" />
		<tag k="ssr:hovedgruppe" v="infrastruktur" />
		<tag k="ssr:stedsnr" v="1022756" />
		<tag k="ssr:type" v="adressenavn" />
	</node>
	<node id="-854267" lat="64.3517531898" lon="10.4720345169">
		<tag k="name" v="Vingsandaunet" />
		<tag k="ssr:date" v="2019-05-30" />
		<tag k="ssr:gruppe" v="veg" />
		<tag k="ssr:hovedgruppe" v="infrastruktur" />
		<tag k="ssr:stedsnr" v="1022753" />
		<tag k="ssr:type" v="adressenavn" />
	</node>
	<node id="-854266" lat="64.2931945815" lon="10.4951158209">
		<tag k="name" v="Sørmelan" />
		<tag k="ssr:date" v="2019-05-30" />
		<tag k="ssr:gruppe" v="veg" />
		<tag k="ssr:hovedgruppe" v="infrastruktur" />
		<tag k="ssr:stedsnr" v="1022751" />
		<tag k="ssr:type" v="adressenavn" />
	</node>
	<node id="-854265" lat="64.2981362513" lon="10.4954326496">
		<tag k="name" v="Osen" />
		<tag k="ssr:date" v="2019-05-30" />
		<tag k="ssr:gruppe" v="veg" />
		<tag k="ssr:hovedgruppe" v="infrastruktur" />
		<tag k="ssr:stedsnr" v="1022749" />
		<tag k="ssr:type" v="adressenavn" />
	</node>
	<node id="-854264" lat="64.2666185269" lon="10.4387111182">
		<tag k="name" v="Brattgjerd" />
		<tag k="ssr:date" v="2019-05-30" />
		<tag k="ssr:gruppe" v="veg" />
		<tag k="ssr:hovedgruppe" v="infrastruktur" />
		<tag k="ssr:stedsnr" v="1022747" />
		<tag k="ssr:type" v="adressenavn" />
	</node>
	<node id="-854263" lat="64.2747631511" lon="10.5034626107">
		<tag k="name" v="Lindset" />
		<tag k="ssr:date" v="2019-05-30" />
		<tag k="ssr:gruppe" v="veg" />
		<tag k="ssr:hovedgruppe" v="infrastruktur" />
		<tag k="ssr:stedsnr" v="1022745" />
		<tag k="ssr:type" v="adressenavn" />
	</node>
	<node id="-854262" lat="64.2877371093" lon="10.5950108276">
		<tag k="name" v="Skautjønna" />
		<tag k="ssr:date" v="2019-05-30" />
		<tag k="ssr:gruppe" v="veg" />
		<tag k="ssr:hovedgruppe" v="infrastruktur" />
		<tag k="ssr:stedsnr" v="1022742" />
		<tag k="ssr:type" v="adressenavn" />
	</node>
	<node id="-854261" lat="64.2349003603" lon="10.4768926094">
		<tag k="name" v="Sørgjerd" />
		<tag k="ssr:date" v="2019-05-30" />
		<tag k="ssr:gruppe" v="veg" />
		<tag k="ssr:hovedgruppe" v="infrastruktur" />
		<tag k="ssr:stedsnr" v="1022739" />
		<tag k="ssr:type" v="adressenavn" />
	</node>
	<node id="-854260" lat="64.2571276181" lon="10.5495549381">
		<tag k="name" v="Melhus" />
		<tag k="ssr:date" v="2019-05-30" />
		<tag k="ssr:gruppe" v="veg" />
		<tag k="ssr:hovedgruppe" v="infrastruktur" />
		<tag k="ssr:stedsnr" v="1022736" />
		<tag k="ssr:type" v="adressenavn" />
	</node>
	<node id="-854259" lat="64.3062324803" lon="10.6843934206">
		<tag k="name" v="Nordmelan" />
		<tag k="ssr:date" v="2019-05-30" />
		<tag k="ssr:gruppe" v="veg" />
		<tag k="ssr:hovedgruppe" v="infrastruktur" />
		<tag k="ssr:stedsnr" v="1022733" />
		<tag k="ssr:type" v="adressenavn" />
	</node>
	<node id="-854258" lat="64.2319240192" lon="10.7414138558">
		<tag k="name" v="Øvre Åsegg" />
		<tag k="ssr:date" v="2019-05-30" />
		<tag k="ssr:gruppe" v="veg" />
		<tag k="ssr:hovedgruppe" v="infrastruktur" />
		<tag k="ssr:stedsnr" v="1022730" />
		<tag k="ssr:type" v="adressenavn" />
	</node>
	<node id="-854257" lat="64.2542060042" lon="10.7007394039">
		<tag k="name" v="Fjøsvatna" />
		<tag k="ssr:date" v="2019-05-30" />
		<tag k="ssr:gruppe" v="veg" />
		<tag k="ssr:hovedgruppe" v="infrastruktur" />
		<tag k="ssr:stedsnr" v="1022728" />
		<tag k="ssr:type" v="adressenavn" />
	</node>
	<node id="-854256" lat="64.2586301099" lon="10.6912343531">
		<tag k="name" v="Åsegg" />
		<tag k="ssr:date" v="2019-05-30" />
		<tag k="ssr:gruppe" v="veg" />
		<tag k="ssr:hovedgruppe" v="infrastruktur" />
		<tag k="ssr:stedsnr" v="1022726" />
		<tag k="ssr:type" v="adressenavn" />
	</node>
	<node id="-854255" lat="64.2853048849" lon="10.7293676022">
		<tag k="name" v="Haugavatnet" />
		<tag k="ssr:date" v="2019-05-30" />
		<tag k="ssr:gruppe" v="veg" />
		<tag k="ssr:hovedgruppe" v="infrastruktur" />
		<tag k="ssr:stedsnr" v="1022724" />
		<tag k="ssr:type" v="adressenavn" />
	</node>
	<node id="-854254" lat="64.1955215312" lon="10.6663670384">
		<tag k="name" v="Kvernland" />
		<tag k="ssr:date" v="2019-05-30" />
		<tag k="ssr:gruppe" v="veg" />
		<tag k="ssr:hovedgruppe" v="infrastruktur" />
		<tag k="ssr:stedsnr" v="1022723" />
		<tag k="ssr:type" v="adressenavn" />
	</node>
	<node id="-854253" lat="64.2772392721" lon="10.6782367269">
		<tag k="name" v="Nordre Stein" />
		<tag k="ssr:date" v="2019-05-30" />
		<tag k="ssr:gruppe" v="veg" />
		<tag k="ssr:hovedgruppe" v="infrastruktur" />
		<tag k="ssr:stedsnr" v="1022720" />
		<tag k="ssr:type" v="adressenavn" />
	</node>
	<node id="-854252" lat="64.2304748255" lon="10.8544181451">
		<tag k="name" v="Bjørnør Sør" />
		<tag k="ssr:date" v="2019-05-30" />
		<tag k="ssr:gruppe" v="veg" />
		<tag k="ssr:hovedgruppe" v="infrastruktur" />
		<tag k="ssr:stedsnr" v="1022717" />
		<tag k="ssr:type" v="adressenavn" />
	</node>
	<node id="-854251" lat="64.2523915851" lon="10.8139495891">
		<tag k="name" v="Bjørnør Nord" />
		<tag k="ssr:date" v="2019-05-30" />
		<tag k="ssr:gruppe" v="veg" />
		<tag k="ssr:hovedgruppe" v="infrastruktur" />
		<tag k="ssr:stedsnr" v="1022715" />
		<tag k="ssr:type" v="adressenavn" />
	</node>
	<node id="-854250" lat="64.3605264876" lon="10.3966896159">
		<tag k="name" v="Raudøyan" />
		<tag k="ssr:date" v="2019-05-30" />
		<tag k="ssr:gruppe" v="veg" />
		<tag k="ssr:hovedgruppe" v="infrastruktur" />
		<tag k="ssr:stedsnr" v="1022713" />
		<tag k="ssr:type" v="adressenavn" />
	</node>
	<node id="-854249" lat="64.3425889162" lon="10.4237004125">
		<tag k="name" v="Skokkeløyan" />
		<tag k="ssr:date" v="2019-05-30" />
		<tag k="ssr:gruppe" v="veg" />
		<tag k="ssr:hovedgruppe" v="infrastruktur" />
		<tag k="ssr:stedsnr" v="1022709" />
		<tag k="ssr:type" v="adressenavn" />
	</node>
	<node id="-854248" lat="64.334378467" lon="10.3185373114">
		<tag k="name" v="Kalværet" />
		<tag k="ssr:date" v="2019-05-30" />
		<tag k="ssr:gruppe" v="veg" />
		<tag k="ssr:hovedgruppe" v="infrastruktur" />
		<tag k="ssr:stedsnr" v="1022708" />
		<tag k="ssr:type" v="adressenavn" />
	</node>
	<node id="-854247" lat="64.3623193998" lon="10.5219921736">
		<tag k="name" v="Hellvik" />
		<tag k="ssr:date" v="2019-05-30" />
		<tag k="ssr:gruppe" v="veg" />
		<tag k="ssr:hovedgruppe" v="infrastruktur" />
		<tag k="ssr:stedsnr" v="1022704" />
		<tag k="ssr:type" v="adressenavn" />
	</node>
	<node id="-854246" lat="64.3253420878" lon="10.2841956933">
		<tag k="name" v="Buarøya" />
		<tag k="ssr:date" v="2019-05-30" />
		<tag k="ssr:gruppe" v="veg" />
		<tag k="ssr:hovedgruppe" v="infrastruktur" />
		<tag k="ssr:stedsnr" v="1022703" />
		<tag k="ssr:type" v="adressenavn" />
	</node>
	<node id="-854245" lat="64.3437922488" lon="10.6084841092">
		<tag k="name" v="Svee" />
		<tag k="ssr:date" v="2019-05-30" />
		<tag k="ssr:gruppe" v="veg" />
		<tag k="ssr:hovedgruppe" v="infrastruktur" />
		<tag k="ssr:stedsnr" v="1022701" />
		<tag k="ssr:type" v="adressenavn" />
	</node>
	<node id="-854244" lat="64.4178860644" lon="10.4950128511">
		<tag k="name" v="Angen" />
		<tag k="ssr:date" v="2019-05-30" />
		<tag k="ssr:gruppe" v="veg" />
		<tag k="ssr:hovedgruppe" v="infrastruktur" />
		<tag k="ssr:stedsnr" v="1022699" />
		<tag k="ssr:type" v="adressenavn" />
	</node>
	<node id="-854243" lat="64.3646311018" lon="10.6325607937">
		<tag k="name" v="Drageid" />
		<tag k="ssr:date" v="2019-05-30" />
		<tag k="ssr:gruppe" v="veg" />
		<tag k="ssr:hovedgruppe" v="infrastruktur" />
		<tag k="ssr:stedsnr" v="1022697" />
		<tag k="ssr:type" v="adressenavn" />
	</node>
	<node id="-854242" lat="64.4014529159" lon="10.4544260119">
		<tag k="name" v="Seter" />
		<tag k="ssr:date" v="2019-05-30" />
		<tag k="ssr:gruppe" v="veg" />
		<tag k="ssr:hovedgruppe" v="infrastruktur" />
		<tag k="ssr:stedsnr" v="1022695" />
		<tag k="ssr:type" v="adressenavn" />
	</node>
	<node id="-854241" lat="64.3989736938" lon="10.5080046404">
		<tag k="name" v="Kleiva" />
		<tag k="ssr:date" v="2019-05-30" />
		<tag k="ssr:gruppe" v="veg" />
		<tag k="ssr:hovedgruppe" v="infrastruktur" />
		<tag k="ssr:stedsnr" v="1022694" />
		<tag k="ssr:type" v="adressenavn" />
	</node>
	<node id="-854238" lat="64.0144468016" lon="11.4818866293">
		<tag k="fixme" v="multiple name tags, choose one and add the other to alt_name" />
		<tag k="name" v="Trøndelag fylke - Trööndelage;Trööndelagen fylhke" />
		<tag k="name:no" v="Trøndelag fylke" />
		<tag k="name:sma" v="Trööndelage;Trööndelagen fylhke" />
		<tag k="ssr:date" v="2019-11-14" />
		<tag k="ssr:gruppe" v="administrativeIndelinger" />
		<tag k="ssr:hovedgruppe" v="offentligAdministrasjon" />
		<tag k="ssr:stedsnr" v="980645" />
		<tag k="ssr:type" v="fylke" />
	</node>
	<node id="-853114" lat="64.4640555585" lon="10.212000001">
		<tag k="name" v="Kya fyr" />
		<tag k="ssr:date" v="2018-01-09" />
		<tag k="ssr:gruppe" v="navigasjon" />
		<tag k="ssr:hovedgruppe" v="infrastruktur" />
		<tag k="ssr:stedsnr" v="681825" />
		<tag k="ssr:type" v="fyrstasjon" />
	</node>
	<node id="-854105" lat="64.4003999966" lon="10.427936103">
		<tag k="name" v="Saksa" />
		<tag k="ssr:date" v="2018-01-09" />
		<tag k="ssr:gruppe" v="navigasjon" />
		<tag k="ssr:hovedgruppe" v="infrastruktur" />
		<tag k="ssr:stedsnr" v="681699" />
		<tag k="ssr:type" v="fyrlykt" />
	</node>
	<node id="-852951" lat="64.2987444418" lon="10.5128388804">
		<tag k="name" v="Osen kommune" />
		<tag k="ssr:date" v="2018-01-09" />
		<tag k="ssr:gruppe" v="administrativeIndelinger" />
		<tag k="ssr:hovedgruppe" v="offentligAdministrasjon" />
		<tag k="ssr:stedsnr" v="631469" />
		<tag k="ssr:type" v="kommune" />
	</node>
	<node id="-852923" lat="64.2939361139" lon="10.2431361085">
		<tag k="name" v="Ytterøyværet" />
		<tag k="ssr:date" v="2018-01-09" />
		<tag k="ssr:gruppe" v="navigasjon" />
		<tag k="ssr:hovedgruppe" v="infrastruktur" />
		<tag k="ssr:stedsnr" v="14504" />
		<tag k="ssr:type" v="fyrlykt" />
	</node>
	<node id="-853690" lat="64.3664555578" lon="10.4059333311">
		<tag k="name" v="Søre Raudøya, Nedre" />
		<tag k="ssr:date" v="2018-01-09" />
		<tag k="ssr:gruppe" v="navigasjon" />
		<tag k="ssr:hovedgruppe" v="infrastruktur" />
		<tag k="ssr:stedsnr" v="438709" />
		<tag k="ssr:type" v="fyrlykt" />
	</node>
	<node id="-854197" lat="64.3523138899" lon="10.4438361145">
		<tag k="name" v="Bjørsneset" />
		<tag k="ssr:date" v="2018-01-09" />
		<tag k="ssr:gruppe" v="navigasjon" />
		<tag k="ssr:hovedgruppe" v="infrastruktur" />
		<tag k="ssr:stedsnr" v="438734" />
		<tag k="ssr:type" v="fyrlykt" />
	</node>
	<node id="-853086" lat="64.2873972253" lon="10.5247194433">
		<tag k="name" v="Sørmelan" />
		<tag k="ssr:date" v="2018-01-09" />
		<tag k="ssr:gruppe" v="administrativeIndelinger" />
		<tag k="ssr:hovedgruppe" v="offentligAdministrasjon" />
		<tag k="ssr:stedsnr" v="282580" />
		<tag k="ssr:type" v="annenAdministrativInndeling" />
	</node>
	<node id="-853419" lat="64.4016832418" lon="10.4529818267">
		<tag k="name" v="Buholmråsa fyr" />
		<tag k="ssr:date" v="2019-01-03" />
		<tag k="ssr:gruppe" v="navigasjon" />
		<tag k="ssr:hovedgruppe" v="infrastruktur" />
		<tag k="ssr:stedsnr" v="75741" />
		<tag k="ssr:type" v="fyrstasjon" />
	</node>
	<node id="-853274" lat="64.2909333354" lon="10.5478527812">
		<tag k="name" v="Nordmelan" />
		<tag k="ssr:date" v="2018-01-09" />
		<tag k="ssr:gruppe" v="administrativeIndelinger" />
		<tag k="ssr:hovedgruppe" v="offentligAdministrasjon" />
		<tag k="ssr:stedsnr" v="343622" />
		<tag k="ssr:type" v="annenAdministrativInndeling" />
	</node>
	<node id="-853649" lat="64.2414373877" lon="10.7131313297">
		<tag k="name" v="Kangsvassveien" />
		<tag k="ssr:date" v="2019-05-30" />
		<tag k="ssr:gruppe" v="veg" />
		<tag k="ssr:hovedgruppe" v="infrastruktur" />
		<tag k="ssr:stedsnr" v="845384" />
		<tag k="ssr:type" v="adressenavn" />
	</node>
	<node id="-853371" lat="64.3954583365" lon="10.4782499952">
		<tag k="name" v="Setervågen" />
		<tag k="ssr:date" v="2018-01-09" />
		<tag k="ssr:gruppe" v="navigasjon" />
		<tag k="ssr:hovedgruppe" v="infrastruktur" />
		<tag k="ssr:stedsnr" v="196669" />
		<tag k="ssr:type" v="fyrlykt" />
	</node>
	<node id="-854031" lat="64.3258777776" lon="10.3491611027">
		<tag k="name" v="Hepsøya" />
		<tag k="ssr:date" v="2018-01-09" />
		<tag k="ssr:gruppe" v="navigasjon" />
		<tag k="ssr:hovedgruppe" v="infrastruktur" />
		<tag k="ssr:stedsnr" v="75526" />
		<tag k="ssr:type" v="fyrlykt" />
	</node>
	<node id="-854022" lat="64.3303921029" lon="10.4486982327">
		<tag k="name" v="Ramsøysundet" />
		<tag k="ssr:date" v="2019-02-28" />
		<tag k="ssr:gruppe" v="navigasjon" />
		<tag k="ssr:hovedgruppe" v="infrastruktur" />
		<tag k="ssr:stedsnr" v="439499" />
		<tag k="ssr:type" v="fyrlykt" />
	</node>
</osm>
