<?xml version="1.0" encoding="UTF-8"?>
<osm generator="osmapis" version="0.6">
	<node id="-542719" lat="61.925999998" lon="5.51750278099">
		<tag k="name" v="Midgjeldsneset" />
		<tag k="natural" v="cape" />
		<tag k="ssr:stedsnr" v="10432" />
	</node>
	<node id="-544240" lat="61.9171805515" lon="5.83305277762">
		<tag k="name" v="Naustdalstranda" />
		<tag k="natural" v="beach" />
		<tag k="place" v="locality" />
		<tag k="ssr:stedsnr" v="833092" />
	</node>
	<node id="-544236" lat="61.8762944468" lon="5.87863611395">
		<tag k="name" v="Djupevika" />
		<tag k="natural" v="bay" />
		<tag k="ssr:stedsnr" v="828440" />
	</node>
	<node id="-544235" lat="61.8616972229" lon="5.80760834158">
		<tag k="name" v="Krokvik" />
		<tag k="natural" v="bay" />
		<tag k="ssr:stedsnr" v="828439" />
	</node>
	<node id="-542695" lat="61.8772972206" lon="5.88761110559">
		<tag k="name" v="Hjellvika" />
		<tag k="natural" v="bay" />
		<tag k="ssr:stedsnr" v="897822" />
	</node>
	<node id="-543206" lat="61.9134333307" lon="5.96782778021">
		<tag k="name" v="Prestevika" />
		<tag k="natural" v="bay" />
		<tag k="ssr:stedsnr" v="221912" />
	</node>
	<node id="-543717" lat="61.900563885" lon="5.94843888901">
		<tag k="name" v="Takloneset" />
		<tag k="natural" v="cape" />
		<tag k="ssr:stedsnr" v="593766" />
	</node>
	<node id="-542692" lat="61.9151055543" lon="5.87503888142">
		<tag k="name" v="Løkastranda" />
		<tag k="natural" v="beach" />
		<tag k="place" v="locality" />
		<tag k="ssr:stedsnr" v="897781" />
	</node>
	<node id="-543709" lat="61.8677361094" lon="6.07405278105">
		<tag k="name" v="Reinene" />
		<tag k="natural" v="cape" />
		<tag k="ssr:stedsnr" v="593653" />
	</node>
	<node id="-544218" lat="61.8765000035" lon="5.94617221716">
		<tag k="name" v="Hamnen" />
		<tag k="natural" v="bay" />
		<tag k="ssr:stedsnr" v="799659" />
	</node>
	<node id="-543704" lat="61.9173361136" lon="5.77093056352">
		<tag k="name" v="Stårheimsneset" />
		<tag k="natural" v="cape" />
		<tag k="ssr:stedsnr" v="593499" />
	</node>
	<node id="-544212" lat="61.9013194442" lon="5.92213333919">
		<tag k="name" v="Karvenesvika" />
		<tag k="natural" v="bay" />
		<tag k="ssr:stedsnr" v="799593" />
	</node>
	<node id="-542671" lat="61.8466055543" lon="6.13961943526">
		<tag k="name" v="Åseskjeret" />
		<tag k="natural" v="cape" />
		<tag k="ssr:stedsnr" v="897333" />
	</node>
	<node id="-542540" lat="61.8999583318" lon="5.81828334078">
		<tag k="name" v="Fjøsvika" />
		<tag k="natural" v="bay" />
		<tag k="ssr:stedsnr" v="408117" />
	</node>
	<node id="-543685" lat="61.9229" lon="5.59838333251">
		<tag k="name" v="Ervika" />
		<tag k="natural" v="bay" />
		<tag k="ssr:stedsnr" v="593204" />
	</node>
	<node id="-542658" lat="61.9208166662" lon="5.60961389751">
		<tag k="name" v="Juvika" />
		<tag k="natural" v="bay" />
		<tag k="ssr:stedsnr" v="897213" />
	</node>
	<node id="-543164" lat="61.8937749391" lon="5.73587675752">
		<tag k="name" v="Hamnneset" />
		<tag k="natural" v="cape" />
		<tag k="ssr:stedsnr" v="192463" />
	</node>
	<node id="-542651" lat="61.8557027807" lon="6.21074444849">
		<tag k="name" v="Saltemannen" />
		<tag k="natural" v="cape" />
		<tag k="ssr:stedsnr" v="897201" />
	</node>
	<node id="-542650" lat="61.8607472237" lon="6.26467499099">
		<tag k="name" v="Kvalsvika" />
		<tag k="natural" v="bay" />
		<tag k="ssr:stedsnr" v="897197" />
	</node>
	<node id="-543667" lat="61.9281527808" lon="5.52938888129">
		<tag k="name" v="Midthjellstranda" />
		<tag k="natural" v="beach" />
		<tag k="place" v="locality" />
		<tag k="ssr:stedsnr" v="591364" />
	</node>
	<node id="-543659" lat="61.9165333314" lon="5.84436388661">
		<tag k="name" v="Naustdalvika" />
		<tag k="natural" v="bay" />
		<tag k="ssr:stedsnr" v="590093" />
	</node>
	<node id="-543657" lat="61.9003194444" lon="5.93995000797">
		<tag k="name" v="Taklostranda" />
		<tag k="natural" v="beach" />
		<tag k="place" v="locality" />
		<tag k="ssr:stedsnr" v="585806" />
	</node>
	<node id="-543650" lat="61.9046166673" lon="5.85624167132">
		<tag k="bay" v="fjord" />
		<tag k="name" v="Eidsfjorden" />
		<tag k="natural" v="bay" />
		<tag k="ssr:stedsnr" v="556840" />
	</node>
	<node id="-543135" lat="61.9141666714" lon="5.65446945244">
		<tag k="name" v="Årdalsvika" />
		<tag k="natural" v="bay" />
		<tag k="ssr:stedsnr" v="168861" />
	</node>
	<node id="-543132" lat="61.8741694488" lon="5.971999997">
		<tag k="name" v="Hamnen" />
		<tag k="natural" v="bay" />
		<tag k="ssr:stedsnr" v="168820" />
	</node>
	<node id="-542618" lat="61.9118027781" lon="5.68858889019">
		<tag k="name" v="Lundastranda" />
		<tag k="natural" v="beach" />
		<tag k="place" v="locality" />
		<tag k="ssr:stedsnr" v="411942" />
	</node>
	<node id="-543129" lat="61.9011611126" lon="5.91807777255">
		<tag k="name" v="Karvineset" />
		<tag k="natural" v="cape" />
		<tag k="ssr:stedsnr" v="168795" />
	</node>
	<node id="-543639" lat="61.9318500041" lon="5.4989111142">
		<tag k="name" v="Lefdalsvika" />
		<tag k="natural" v="bay" />
		<tag k="ssr:stedsnr" v="556526" />
	</node>
	<node id="-542611" lat="61.9154638878" lon="5.63763333009">
		<tag k="name" v="Kjølsdalsstranda" />
		<tag k="natural" v="beach" />
		<tag k="place" v="locality" />
		<tag k="ssr:stedsnr" v="411862" />
	</node>
	<node id="-542609" lat="61.9630027785" lon="5.78459443957">
		<tag k="name" v="Suffineset" />
		<tag k="natural" v="cape" />
		<tag k="ssr:stedsnr" v="411807" />
	</node>
	<node id="-542606" lat="61.8802555596" lon="5.90249999983">
		<tag k="name" v="Geilehamna" />
		<tag k="natural" v="bay" />
		<tag k="ssr:stedsnr" v="411781" />
	</node>
	<node id="-542605" lat="61.8786138894" lon="5.89901111315">
		<tag k="name" v="Rotvika" />
		<tag k="natural" v="bay" />
		<tag k="ssr:stedsnr" v="411782" />
	</node>
	<node id="-543114" lat="61.8697194441" lon="5.79284443586">
		<tag k="name" v="Torheimsvika" />
		<tag k="natural" v="bay" />
		<tag k="ssr:stedsnr" v="168665" />
	</node>
	<node id="-544111" lat="61.8618750033" lon="6.23838610221">
		<tag k="name" v="Saueberget" />
		<tag k="natural" v="cape" />
		<tag k="ssr:stedsnr" v="775186" />
	</node>
	<node id="-543085" lat="61.8619055558" lon="5.82816944873">
		<tag k="name" v="Torvnesflua" />
		<tag k="natural" v="shoal" />
		<tag k="place" v="locality" />
		<tag k="ssr:stedsnr" v="168201" />
	</node>
	<node id="-544097" lat="61.9297083312" lon="5.50892500118">
		<tag k="name" v="Korsstranda" />
		<tag k="natural" v="beach" />
		<tag k="place" v="locality" />
		<tag k="ssr:stedsnr" v="773422" />
	</node>
	<node id="-544090" lat="61.897374997" lon="5.85828054707">
		<tag k="name" v="Vikane" />
		<tag k="natural" v="bay" />
		<tag k="ssr:stedsnr" v="773189" />
	</node>
	<node id="-543575" lat="61.8766222208" lon="6.01474443931">
		<tag k="name" v="Lotestranda" />
		<tag k="natural" v="beach" />
		<tag k="place" v="locality" />
		<tag k="ssr:stedsnr" v="532565" />
	</node>
	<node id="-543057" lat="61.8787888925" lon="5.92356389351">
		<tag k="name" v="Hundvikneset" />
		<tag k="natural" v="cape" />
		<tag k="ssr:stedsnr" v="160967" />
	</node>
	<node id="-544080" lat="61.861170094" lon="6.2348497621">
		<tag k="name" v="Indre Hennevika" />
		<tag k="natural" v="bay" />
		<tag k="ssr:stedsnr" v="767904" />
	</node>
	<node id="-543052" lat="61.8728916692" lon="6.07160832726">
		<tag k="name" v="Årskogvika" />
		<tag k="natural" v="bay" />
		<tag k="ssr:stedsnr" v="141711" />
	</node>
	<node id="-542538" lat="61.9029611128" lon="5.98998887989">
		<tag k="name" v="Osnes" />
		<tag k="natural" v="cape" />
		<tag k="ssr:stedsnr" v="403940" />
	</node>
	<node id="-543552" lat="61.8640722234" lon="5.83450833082">
		<tag k="name" v="Uførhamnneset" />
		<tag k="natural" v="cape" />
		<tag k="ssr:stedsnr" v="532180" />
	</node>
	<node id="-543551" lat="61.8608555517" lon="6.25295000052">
		<tag k="name" v="Litleneset" />
		<tag k="natural" v="cape" />
		<tag k="ssr:stedsnr" v="532179" />
	</node>
	<node id="-543549" lat="61.8986277743" lon="5.8373166751">
		<tag k="name" v="Gjølhammaren" />
		<tag k="natural" v="cape" />
		<tag k="ssr:stedsnr" v="532169" />
	</node>
	<node id="-543035" lat="61.900658333" lon="5.93395000547">
		<tag k="name" v="Juvika" />
		<tag k="natural" v="bay" />
		<tag k="ssr:stedsnr" v="131568" />
	</node>
	<node id="-542517" lat="61.8760222254" lon="6.0013666606">
		<tag k="name" v="Breivika" />
		<tag k="natural" v="bay" />
		<tag k="ssr:stedsnr" v="374853" />
	</node>
	<node id="-542515" lat="61.8753138856" lon="5.98044722343">
		<tag k="name" v="Lotsstrandebøskjeret" />
		<tag k="natural" v="cape" />
		<tag k="ssr:stedsnr" v="374629" />
	</node>
	<node id="-542511" lat="61.8760999973" lon="5.88135277158">
		<tag k="alt_name" v="Djupedalsneset" />
		<tag k="name" v="Djupdalsneset" />
		<tag k="natural" v="cape" />
		<tag k="ssr:stedsnr" v="374603" />
	</node>
	<node id="-543014" lat="61.8623749979" lon="5.82804166715">
		<tag k="name" v="Torvneset" />
		<tag k="natural" v="cape" />
		<tag k="ssr:stedsnr" v="131335" />
	</node>
	<node id="-543002" lat="61.8737527745" lon="5.97061388795">
		<tag k="name" v="Hamnaneset" />
		<tag k="natural" v="cape" />
		<tag k="ssr:stedsnr" v="108803" />
	</node>
	<node id="-543000" lat="61.9010750002" lon="5.88831666233">
		<tag k="name" v="Skjeleneset" />
		<tag k="natural" v="cape" />
		<tag k="ssr:stedsnr" v="108794" />
	</node>
	<node id="-542996" lat="61.8979916636" lon="5.77590278165">
		<tag k="name" v="Hella" />
		<tag k="natural" v="beach" />
		<tag k="place" v="locality" />
		<tag k="ssr:stedsnr" v="108724" />
	</node>
	<node id="-542993" lat="61.8594361073" lon="6.10034722514">
		<tag k="name" v="Vikaneset" />
		<tag k="natural" v="cape" />
		<tag k="ssr:stedsnr" v="108711" />
	</node>
	<node id="-544016" lat="61.9002888865" lon="5.98116665995">
		<tag k="name" v="Naustteigen" />
		<tag k="natural" v="cape" />
		<tag k="ssr:stedsnr" v="715818" />
	</node>
	<node id="-543494" lat="61.8737777773" lon="5.77412777072">
		<tag k="name" v="Torheimsneset" />
		<tag k="natural" v="cape" />
		<tag k="ssr:stedsnr" v="495386" />
	</node>
	<node id="-542978" lat="61.9170972198" lon="5.80533333131">
		<tag k="name" v="Hafsåsneset" />
		<tag k="natural" v="cape" />
		<tag k="ssr:stedsnr" v="108522" />
	</node>
	<node id="-543487" lat="61.926825" lon="5.53125554896">
		<tag k="name" v="Midgjellsvika" />
		<tag k="natural" v="bay" />
		<tag k="old_name" v="Medgjellsvika" />
		<tag k="ssr:stedsnr" v="482637" />
	</node>
	<node id="-542457" lat="61.8988895987" lon="5.86956610527">
		<tag k="name" v="Hundeidvika" />
		<tag k="natural" v="bay" />
		<tag k="ssr:stedsnr" v="350854" />
	</node>
	<node id="-542456" lat="61.9139151835" lon="5.64752806516">
		<tag k="alt_name" v="Hundsauneset" />
		<tag k="name" v="Hundshaugneset" />
		<tag k="natural" v="cape" />
		<tag k="ssr:stedsnr" v="350845" />
	</node>
	<node id="-542454" lat="61.8734722233" lon="5.96004167468">
		<tag k="name" v="Hamarodden" />
		<tag k="natural" v="cape" />
		<tag k="ssr:stedsnr" v="350831" />
	</node>
	<node id="-543985" lat="61.8969250008" lon="5.76794167259">
		<tag k="name" v="Vellevik" />
		<tag k="natural" v="bay" />
		<tag k="ssr:stedsnr" v="714712" />
	</node>
	<node id="-542960" lat="61.9217555556" lon="5.58516945063">
		<tag k="name" v="Skjerven" />
		<tag k="natural" v="cape" />
		<tag k="ssr:stedsnr" v="108249" />
	</node>
	<node id="-543470" lat="61.8808500019" lon="5.90896667208">
		<tag k="name" v="Hundvika" />
		<tag k="natural" v="bay" />
		<tag k="ssr:stedsnr" v="472775" />
	</node>
	<node id="-543981" lat="61.8866861152" lon="5.75438054994">
		<tag k="name" v="Levra" />
		<tag k="natural" v="cape" />
		<tag k="ssr:stedsnr" v="714692" />
	</node>
	<node id="-543465" lat="61.8963694463" lon="5.75611667145">
		<tag k="name" v="Vollsetvika" />
		<tag k="natural" v="bay" />
		<tag k="ssr:stedsnr" v="472639" />
	</node>
	<node id="-543958" lat="61.9284444488" lon="5.48149722315">
		<tag k="name" v="Nesstranda" />
		<tag k="natural" v="beach" />
		<tag k="place" v="locality" />
		<tag k="ssr:stedsnr" v="712478" />
	</node>
	<node id="-542933" lat="61.9268000035" lon="5.52885554786">
		<tag k="name" v="Midthjellsvika" />
		<tag k="natural" v="bay" />
		<tag k="ssr:stedsnr" v="106376" />
	</node>
	<node id="-542926" lat="61.9126583378" lon="5.86343611175">
		<tag k="name" v="Løkasanden" />
		<tag k="natural" v="bay" />
		<tag k="ssr:stedsnr" v="105091" />
	</node>
	<node id="-543949" lat="61.9122527797" lon="5.85831388633">
		<tag k="name" v="Løkaneset" />
		<tag k="natural" v="cape" />
		<tag k="ssr:stedsnr" v="712086" />
	</node>
	<node id="-542412" lat="61.8501277763" lon="6.12634444666">
		<tag k="name" v="Løypeneset" />
		<tag k="natural" v="cape" />
		<tag k="ssr:stedsnr" v="350238" />
	</node>
	<node id="-544457" lat="61.854983332" lon="6.20320278671">
		<tag k="name" v="Naustneset" />
		<tag k="natural" v="cape" />
		<tag k="ssr:stedsnr" v="957202" />
	</node>
	<node id="-543937" lat="61.8998505145" lon="5.97844119826">
		<tag k="name" v="Osvika" />
		<tag k="natural" v="bay" />
		<tag k="ssr:stedsnr" v="687747" />
	</node>
	<node id="-543416" lat="61.8486583348" lon="6.13391389228">
		<tag k="name" v="Åsevika" />
		<tag k="natural" v="bay" />
		<tag k="ssr:stedsnr" v="471263" />
	</node>
	<node id="-544431" lat="61.8972416685" lon="5.85132222253">
		<tag k="name" v="Kobben" />
		<tag k="natural" v="cape" />
		<tag k="ssr:stedsnr" v="955173" />
	</node>
	<node id="-543404" lat="61.9001694437" lon="5.81734722699">
		<tag k="name" v="Haslevikneset" />
		<tag k="natural" v="cape" />
		<tag k="ssr:stedsnr" v="469108" />
	</node>
	<node id="-544426" lat="61.9085194467" lon="5.70106110669">
		<tag k="name" v="Høynesflua" />
		<tag k="natural" v="shoal" />
		<tag k="place" v="locality" />
		<tag k="ssr:stedsnr" v="949880" />
	</node>
	<node id="-544425" lat="61.8542944404" lon="6.20109722671">
		<tag k="name" v="Ytre Hennevika" />
		<tag k="natural" v="bay" />
		<tag k="ssr:stedsnr" v="949879" />
	</node>
	<node id="-542375" lat="61.9061111071" lon="5.98373610284">
		<tag k="name" v="Bogen" />
		<tag k="natural" v="bay" />
		<tag k="ssr:stedsnr" v="342902" />
	</node>
	<node id="-544411" lat="61.8509666692" lon="6.17879165854">
		<tag k="name" v="Almen" />
		<tag k="natural" v="cape" />
		<tag k="ssr:stedsnr" v="920665" />
	</node>
	<node id="-544410" lat="61.8468388878" lon="6.13554444106">
		<tag k="name" v="Åseneset" />
		<tag k="natural" v="cape" />
		<tag k="ssr:stedsnr" v="920664" />
	</node>
	<node id="-542318" lat="61.8991638915" lon="5.96596666642">
		<tag k="name" v="Åshammarvika" />
		<tag k="natural" v="bay" />
		<tag k="ssr:stedsnr" v="290838" />
	</node>
	<node id="-542353" lat="61.9064636726" lon="6.13594074458">
		<tag k="name" v="Nes" />
		<tag k="natural" v="cape" />
		<tag k="ssr:stedsnr" v="313606" />
	</node>
	<node id="-543882" lat="61.9135111111" lon="5.96562777557">
		<tag k="name" v="Skårhaugneset" />
		<tag k="natural" v="cape" />
		<tag k="ssr:stedsnr" v="654836" />
	</node>
	<node id="-543881" lat="61.9018861078" lon="5.90669166433">
		<tag k="name" v="Slåtteneset" />
		<tag k="natural" v="cape" />
		<tag k="ssr:stedsnr" v="654817" />
	</node>
	<node id="-543368" lat="61.9006261093" lon="5.81174102528">
		<tag k="fixme" v="multiple name tags, choose one and add the other to alt_name" />
		<tag k="name" v="Mørkesetneset;Verpeneset" />
		<tag k="natural" v="cape" />
		<tag k="ssr:stedsnr" v="435478" />
	</node>
	<node id="-542335" lat="61.8617527755" lon="6.24176110938">
		<tag k="name" v="Skjæret" />
		<tag k="natural" v="cape" />
		<tag k="ssr:stedsnr" v="313057" />
	</node>
	<node id="-543864" lat="61.8533138897" lon="6.19185277422">
		<tag k="name" v="Kukkeluren" />
		<tag k="natural" v="cape" />
		<tag k="ssr:stedsnr" v="654214" />
	</node>
	<node id="-542324" lat="61.9168138886" lon="5.74601943844">
		<tag k="name" v="Orheimsvika" />
		<tag k="natural" v="bay" />
		<tag k="ssr:stedsnr" v="290957" />
	</node>
	<node id="-542830" lat="61.8941972245" lon="5.73313334249">
		<tag k="name" v="Grytevika" />
		<tag k="natural" v="bay" />
		<tag k="ssr:stedsnr" v="47657" />
	</node>
	<node id="-543338" lat="61.8751249957" lon="5.8590166611">
		<tag k="name" v="Breivika" />
		<tag k="natural" v="bay" />
		<tag k="ssr:stedsnr" v="253644" />
	</node>
	<node id="-542825" lat="61.8759694404" lon="5.99633055034">
		<tag k="alt_name" v="Snøkollneset" />
		<tag k="name" v="Snøkolla" />
		<tag k="natural" v="cape" />
		<tag k="ssr:stedsnr" v="47573" />
	</node>
	<node id="-542312" lat="61.8821138871" lon="5.91713888717">
		<tag k="name" v="Sanden" />
		<tag k="natural" v="beach" />
		<tag k="place" v="locality" />
		<tag k="ssr:stedsnr" v="290779" />
	</node>
	<node id="-543844" lat="61.9142805552" lon="5.66316666986">
		<tag k="name" v="Reksnesvika" />
		<tag k="natural" v="bay" />
		<tag k="ssr:stedsnr" v="653871" />
	</node>
	<node id="-542305" lat="61.8603000014" lon="6.09788888492">
		<tag k="name" v="Vikasanden" />
		<tag k="natural" v="bay" />
		<tag k="ssr:stedsnr" v="290664" />
	</node>
	<node id="-542298" lat="61.8608972203" lon="5.80636111107">
		<tag k="name" v="Heimsteneset" />
		<tag k="natural" v="cape" />
		<tag k="ssr:stedsnr" v="290590" />
	</node>
	<node id="-543831" lat="61.8611166697" lon="5.80690832669">
		<tag k="name" v="Kroksteinen" />
		<tag k="natural" v="cape" />
		<tag k="ssr:stedsnr" v="653684" />
	</node>
	<node id="-542286" lat="61.8736444455" lon="6.06211111422">
		<tag k="name" v="Gjelvikneset" />
		<tag k="natural" v="cape" />
		<tag k="ssr:stedsnr" v="290309" />
	</node>
	<node id="-544328" lat="61.8579027816" lon="5.81033888557">
		<tag k="name" v="Krokeneset" />
		<tag k="natural" v="cape" />
		<tag k="ssr:stedsnr" v="859326" />
	</node>
	<node id="-543813" lat="61.9171361135" lon="5.88664445192">
		<tag k="name" v="Vikane" />
		<tag k="natural" v="bay" />
		<tag k="ssr:stedsnr" v="653216" />
	</node>
	<node id="-543810" lat="61.8972027742" lon="5.84726944938">
		<tag k="name" v="Merkesvika" />
		<tag k="natural" v="bay" />
		<tag k="ssr:stedsnr" v="653144" />
	</node>
	<node id="-544320" lat="61.9121305548" lon="5.70219721468">
		<tag k="name" v="Høynesvika" />
		<tag k="natural" v="bay" />
		<tag k="ssr:stedsnr" v="836941" />
	</node>
	<node id="-543289" lat="61.9022361128" lon="5.90151389151">
		<tag k="name" v="Leirvikberget" />
		<tag k="natural" v="cape" />
		<tag k="ssr:stedsnr" v="229820" />
	</node>
	<node id="-543287" lat="61.8806555551" lon="5.91901665973">
		<tag k="name" v="Fremsteneset" />
		<tag k="natural" v="cape" />
		<tag k="ssr:stedsnr" v="229816" />
	</node>
	<node id="-543277" lat="61.8638277754" lon="6.08249166546">
		<tag k="name" v="Hauvika" />
		<tag k="natural" v="bay" />
		<tag k="ssr:stedsnr" v="229711" />
	</node>
	<node id="-543786" lat="61.8758111132" lon="6.03547221588">
		<tag k="name" v="Gjølvikane" />
		<tag k="natural" v="bay" />
		<tag k="ssr:stedsnr" v="645958" />
	</node>
	<node id="-544289" lat="61.8925250001" lon="5.73384443852">
		<tag k="name" v="Hamnesvika" />
		<tag k="natural" v="bay" />
		<tag k="ssr:stedsnr" v="836646" />
	</node>
	<node id="-544286" lat="61.9168861067" lon="5.75182499354">
		<tag k="name" v="Ålundsneset" />
		<tag k="natural" v="cape" />
		<tag k="ssr:stedsnr" v="836505" />
	</node>
	<node id="-543257" lat="61.9822611094" lon="6.17202778015">
		<tag k="name" v="Krokneset" />
		<tag k="natural" v="cape" />
		<tag k="ssr:stedsnr" v="229321" />
	</node>
	<node id="-543766" lat="61.922119446" lon="5.55163056233">
		<tag k="name" v="Vindfylleneset" />
		<tag k="natural" v="cape" />
		<tag k="ssr:stedsnr" v="617482" />
	</node>
	<node id="-544275" lat="61.8487249996" lon="6.14951667518">
		<tag k="name" v="Lassehuset" />
		<tag k="natural" v="beach" />
		<tag k="place" v="locality" />
		<tag k="ssr:stedsnr" v="836295" />
	</node>
	<node id="-543248" lat="61.8590777748" lon="5.81748611461">
		<tag k="fixme" v="consider seamark:type=rock or natural=shoal" />
		<tag k="name" v="Veteskjeret" />
		<tag k="place" v="islet" />
		<tag k="ssr:stedsnr" v="229233" />
	</node>
	<node id="-544270" lat="61.9223694433" lon="5.57515000542">
		<tag k="name" v="Hamnen" />
		<tag k="natural" v="bay" />
		<tag k="ssr:stedsnr" v="836199" />
	</node>
	<node id="-544002" lat="61.9454888931" lon="6.34696945178">
		<tag k="name" v="Styrhammaren" />
		<tag k="natural" v="cape" />
		<tag k="ssr:stedsnr" v="715233" />
	</node>
	<node id="-544259" lat="61.9276166632" lon="5.48103888251">
		<tag k="name" v="Storevika" />
		<tag k="natural" v="bay" />
		<tag k="ssr:stedsnr" v="834496" />
	</node>
</osm>
