<?xml version="1.0" encoding="UTF-8"?>
<osm generator="osmapis" version="0.6">
	<node id="-543928" lat="61.9350387537" lon="6.266907446">
		<tag k="alt_name" v="Heggjabygda" />
		<tag k="amenity" v="place_of_worship" />
		<tag k="denomination" v="lutheran" />
		<tag k="name" v="Heggjabygda kyrkje" />
		<tag k="religion" v="christian" />
		<tag k="ssr:stedsnr" v="677951" />
	</node>
	<node id="-543638" lat="61.9496027805" lon="5.52454722559">
		<tag k="name" v="Gamlesætra" />
		<tag k="place" v="locality" />
		<tag k="ssr:stedsnr" v="556516" />
	</node>
	<node id="-542712" lat="61.9181001021" lon="5.62497789698">
		<tag k="amenity" v="place_of_worship" />
		<tag k="denomination" v="lutheran" />
		<tag k="name" v="Kjølsdalen kyrkje" />
		<tag k="religion" v="christian" />
		<tag k="ssr:stedsnr" v="991247" />
	</node>
	<node id="-544334" lat="61.9113361089" lon="5.98514444882">
		<tag k="alt_name" v="Eide;Eid" />
		<tag k="amenity" v="place_of_worship" />
		<tag k="denomination" v="lutheran" />
		<tag k="name" v="Nordfjordeid kyrkje" />
		<tag k="religion" v="christian" />
		<tag k="ssr:stedsnr" v="859531" />
	</node>
	<node id="-543942" lat="61.8751166689" lon="5.98117222005">
		<tag k="name" v="Lotsstrandebøen" />
		<tag k="place" v="locality" />
		<tag k="ssr:stedsnr" v="694450" />
	</node>
	<node id="-543105" lat="61.9185722198" lon="5.76580556472">
		<tag k="amenity" v="place_of_worship" />
		<tag k="denomination" v="lutheran" />
		<tag k="name" v="Stårheim kyrkje" />
		<tag k="religion" v="christian" />
		<tag k="ssr:stedsnr" v="168530" />
	</node>
</osm>
