<?xml version="1.0" encoding="UTF-8"?>
<osm generator="osmapis" version="0.6">
	<node id="-542720" lat="61.9332834088" lon="5.82130082308">
		<tag k="name" v="Remme" />
		<tag k="place" v="hamlet" />
		<tag k="ssr:stedsnr" v="10434" />
	</node>
	<node id="-542717" lat="61.9154632463" lon="5.71586592357">
		<tag k="alt_name" v="Botn" />
		<tag k="fixme" v="consider place=hamlet" />
		<tag k="name" v="Botnen" />
		<tag k="place" v="farm" />
		<tag k="ssr:stedsnr" v="10417" />
	</node>
	<node id="-542714" lat="61.9708555515" lon="6.16328889665">
		<tag k="historic" v="shieling" />
		<tag k="name" v="Leivdalssætra" />
		<tag k="place" v="locality" />
		<tag k="ssr:stedsnr" v="10259" />
	</node>
	<node id="-542709" lat="61.9142325026" lon="5.70815050757">
		<tag k="fixme" v="consider place=hamlet" />
		<tag k="name" v="Øvre Høynes" />
		<tag k="place" v="farm" />
		<tag k="ssr:stedsnr" v="987301" />
	</node>
	<node id="-542683" lat="61.8940082674" lon="5.73877210236">
		<tag k="fixme" v="consider place=hamlet" />
		<tag k="name" v="Hamnes" />
		<tag k="place" v="farm" />
		<tag k="ssr:stedsnr" v="897620" />
	</node>
	<node id="-542678" lat="61.9175222205" lon="5.99240555864">
		<tag k="name" v="Repolen" />
		<tag k="place" v="quarter" />
		<tag k="ssr:stedsnr" v="897489" />
	</node>
	<node id="-542367" lat="61.9323722218" lon="5.61023055885">
		<tag k="name" v="Løkane" />
		<tag k="place" v="locality" />
		<tag k="ssr:stedsnr" v="323539" />
	</node>
	<node id="-542613" lat="61.8896083326" lon="5.88380832826">
		<tag k="name" v="Gamlesetra" />
		<tag k="place" v="locality" />
		<tag k="ssr:stedsnr" v="411874" />
	</node>
	<node id="-542603" lat="61.9243916691" lon="6.381766657">
		<tag k="name" v="Gamleseltuftene" />
		<tag k="place" v="locality" />
		<tag k="ssr:stedsnr" v="411769" />
	</node>
	<node id="-542599" lat="61.9463444467" lon="5.75355832725">
		<tag k="name" v="Hjellen" />
		<tag k="place" v="isolated_dwelling" />
		<tag k="ssr:stedsnr" v="411754" />
	</node>
	<node id="-542585" lat="61.8933361099" lon="5.7563055464">
		<tag k="historic" v="shieling" />
		<tag k="name" v="Vollsetsetra" />
		<tag k="place" v="locality" />
		<tag k="ssr:stedsnr" v="411646" />
	</node>
	<node id="-542355" lat="61.9027027774" lon="6.15153333913">
		<tag k="name" v="Skoglid" />
		<tag k="place" v="farm" />
		<tag k="ssr:stedsnr" v="313622" />
	</node>
	<node id="-542573" lat="61.947961108" lon="6.1383916681">
		<tag k="name" v="Reset" />
		<tag k="place" v="isolated_dwelling" />
		<tag k="ssr:stedsnr" v="411293" />
	</node>
	<node id="-542559" lat="61.9062305591" lon="6.27493332738">
		<tag k="name" v="Antonsetra" />
		<tag k="place" v="locality" />
		<tag k="ssr:stedsnr" v="411074" />
	</node>
	<node id="-542351" lat="61.9040252456" lon="6.01345408143">
		<tag k="alt_name" v="Rotihaug" />
		<tag k="fixme" v="consider place=hamlet" />
		<tag k="name" v="Rotihaugen" />
		<tag k="place" v="farm" />
		<tag k="ssr:stedsnr" v="313592" />
	</node>
	<node id="-542349" lat="61.9098347095" lon="6.01114328426">
		<tag k="fixme" v="consider place=hamlet" />
		<tag k="name" v="Stokkenes" />
		<tag k="place" v="farm" />
		<tag k="ssr:stedsnr" v="313588" />
	</node>
	<node id="-542537" lat="61.8719080228" lon="5.79646466319">
		<tag k="fixme" v="consider place=hamlet" />
		<tag k="name" v="Ytre Torheim" />
		<tag k="place" v="farm" />
		<tag k="ssr:stedsnr" v="398300" />
	</node>
	<node id="-542533" lat="61.8972047036" lon="5.8682927781">
		<tag k="name" v="Hundeidet" />
		<tag k="place" v="hamlet" />
		<tag k="ssr:stedsnr" v="388666" />
	</node>
	<node id="-542531" lat="61.9209777765" lon="5.73348332789">
		<tag k="historic" v="shieling" />
		<tag k="name" v="Rødsætra" />
		<tag k="place" v="locality" />
		<tag k="ssr:stedsnr" v="384513" />
	</node>
	<node id="-542529" lat="61.9176748416" lon="5.87908190603">
		<tag k="fixme" v="consider place=hamlet" />
		<tag k="name" v="Åsen" />
		<tag k="place" v="farm" />
		<tag k="ssr:stedsnr" v="384748" />
	</node>
	<node id="-542346" lat="61.9200027746" lon="5.91830833887">
		<tag k="name" v="Austlid" />
		<tag k="place" v="farm" />
		<tag k="ssr:stedsnr" v="313541" />
	</node>
	<node id="-542521" lat="61.9137691722" lon="6.2971817533">
		<tag k="name" v="Skrede" />
		<tag k="place" v="farm" />
		<tag k="ssr:stedsnr" v="374971" />
	</node>
	<node id="-542520" lat="61.9286460547" lon="6.38056906785">
		<tag k="name" v="Årøy" />
		<tag k="place" v="farm" />
		<tag k="ssr:stedsnr" v="374925" />
	</node>
	<node id="-542518" lat="61.9367999967" lon="6.47497222465">
		<tag k="name" v="Sandvik" />
		<tag k="place" v="farm" />
		<tag k="ssr:stedsnr" v="374916" />
	</node>
	<node id="-542345" lat="61.9234083335" lon="5.96107777405">
		<tag k="historic" v="shieling" />
		<tag k="name" v="Indre Skårhaugsætra" />
		<tag k="place" v="locality" />
		<tag k="ssr:stedsnr" v="313540" />
	</node>
	<node id="-542516" lat="61.8662527764" lon="6.10856388797">
		<tag k="historic" v="shieling" />
		<tag k="name" v="Lotsbergstøylen" />
		<tag k="place" v="locality" />
		<tag k="ssr:stedsnr" v="374655" />
	</node>
	<node id="-542514" lat="61.8712856562" lon="6.07306358414">
		<tag k="fixme" v="consider place=hamlet" />
		<tag k="name" v="Årskogen" />
		<tag k="place" v="farm" />
		<tag k="ssr:stedsnr" v="374617" />
	</node>
	<node id="-542506" lat="61.9057222181" lon="6.0776777825">
		<tag k="historic" v="shieling" />
		<tag k="name" v="Kviasætra" />
		<tag k="place" v="locality" />
		<tag k="ssr:stedsnr" v="374566" />
	</node>
	<node id="-542503" lat="61.9170510484" lon="5.84975968">
		<tag k="fixme" v="consider place=hamlet" />
		<tag k="name" v="Naustdal" />
		<tag k="place" v="farm" />
		<tag k="ssr:stedsnr" v="374532" />
	</node>
	<node id="-542502" lat="61.9366111071" lon="6.00619443755">
		<tag k="historic" v="shieling" />
		<tag k="name" v="Stigane" />
		<tag k="place" v="locality" />
		<tag k="ssr:stedsnr" v="374523" />
	</node>
	<node id="-542499" lat="61.9284649751" lon="5.87893470836">
		<tag k="fixme" v="consider place=hamlet" />
		<tag k="name" v="Bjørhovde" />
		<tag k="place" v="farm" />
		<tag k="ssr:stedsnr" v="374516" />
	</node>
	<node id="-542495" lat="61.9422277744" lon="5.88443611257">
		<tag k="name" v="Årøyane" />
		<tag k="place" v="farm" />
		<tag k="ssr:stedsnr" v="374507" />
	</node>
	<node id="-542494" lat="61.9388699669" lon="5.88786572408">
		<tag k="fixme" v="consider place=hamlet" />
		<tag k="name" v="Sevland" />
		<tag k="place" v="farm" />
		<tag k="ssr:stedsnr" v="374500" />
	</node>
	<node id="-542483" lat="61.8667903406" lon="6.22787318589">
		<tag k="fixme" v="consider place=hamlet" />
		<tag k="name" v="Lahaugen" />
		<tag k="place" v="farm" />
		<tag k="ssr:stedsnr" v="374061" />
	</node>
	<node id="-542481" lat="61.9154827952" lon="6.02566215797">
		<tag k="fixme" v="consider place=hamlet" />
		<tag k="name" v="Alsåker" />
		<tag k="place" v="farm" />
		<tag k="ssr:stedsnr" v="373582" />
	</node>
	<node id="-542480" lat="61.9149530034" lon="5.96693211859">
		<tag k="fixme" v="consider place=hamlet" />
		<tag k="name" v="Indre Skårhaug" />
		<tag k="place" v="farm" />
		<tag k="ssr:stedsnr" v="373578" />
	</node>
	<node id="-542479" lat="61.9233734375" lon="5.64244271585">
		<tag k="fixme" v="consider place=hamlet" />
		<tag k="name" v="Homborstad" />
		<tag k="place" v="farm" />
		<tag k="ssr:stedsnr" v="373467" />
	</node>
	<node id="-542478" lat="61.9240303583" lon="5.60371819805">
		<tag k="fixme" v="consider place=hamlet" />
		<tag k="name" v="Ervika" />
		<tag k="place" v="farm" />
		<tag k="ssr:stedsnr" v="373465" />
	</node>
	<node id="-542477" lat="61.9201531011" lon="5.77316163264">
		<tag k="fixme" v="consider place=hamlet" />
		<tag k="name" v="Stårheim" />
		<tag k="place" v="farm" />
		<tag k="ssr:stedsnr" v="373419" />
	</node>
	<node id="-542474" lat="61.9320000022" lon="5.88715278293">
		<tag k="name" v="Solbu" />
		<tag k="place" v="isolated_dwelling" />
		<tag k="ssr:stedsnr" v="360047" />
	</node>
	<node id="-542473" lat="61.9562999956" lon="5.73045554868">
		<tag k="alt_name" v="Fannstøylen, ytre;Fannstølen" />
		<tag k="historic" v="shieling" />
		<tag k="name" v="Ytre Fannstøylen" />
		<tag k="place" v="locality" />
		<tag k="ssr:stedsnr" v="355429" />
	</node>
	<node id="-542465" lat="61.9403361067" lon="5.80588055467">
		<tag k="name" v="Langemyra" />
		<tag k="place" v="locality" />
		<tag k="ssr:stedsnr" v="350913" />
	</node>
	<node id="-544506" lat="61.9217912237" lon="5.9083963784">
		<tag k="name" v="Ytrelid" />
		<tag k="place" v="farm" />
		<tag k="ssr:stedsnr" v="980647" />
	</node>
	<node id="-544505" lat="61.8676586535" lon="6.07966973715">
		<tag k="fixme" v="consider place=hamlet" />
		<tag k="name" v="Lote" />
		<tag k="place" v="farm" />
		<tag k="ssr:stedsnr" v="978419" />
	</node>
	<node id="-544504" lat="61.9227149409" lon="5.7578591703">
		<tag k="name" v="Rafshol" />
		<tag k="place" v="hamlet" />
		<tag k="ssr:stedsnr" v="978312" />
	</node>
	<node id="-542452" lat="61.9199027759" lon="5.94384167078">
		<tag k="name" v="Nipa" />
		<tag k="place" v="isolated_dwelling" />
		<tag k="ssr:stedsnr" v="350819" />
	</node>
	<node id="-544488" lat="61.9307638864" lon="6.41053611576">
		<tag k="name" v="Nersetra" />
		<tag k="place" v="locality" />
		<tag k="ssr:stedsnr" v="957802" />
	</node>
	<node id="-542421" lat="61.9467972257" lon="6.23897221798">
		<tag k="name" v="Hjellane" />
		<tag k="place" v="farm" />
		<tag k="ssr:stedsnr" v="350375" />
	</node>
	<node id="-542414" lat="61.9789027794" lon="6.18224721975">
		<tag k="name" v="Hammaren" />
		<tag k="place" v="isolated_dwelling" />
		<tag k="ssr:stedsnr" v="350260" />
	</node>
	<node id="-542401" lat="61.9010666639" lon="6.1936222278">
		<tag k="historic" v="shieling" />
		<tag k="name" v="Nersetra" />
		<tag k="place" v="locality" />
		<tag k="ssr:stedsnr" v="350105" />
	</node>
	<node id="-542396" lat="61.9706722201" lon="6.38302777017">
		<tag k="name" v="Setra" />
		<tag k="place" v="locality" />
		<tag k="ssr:stedsnr" v="350056" />
	</node>
	<node id="-542385" lat="61.9465222248" lon="5.91205277688">
		<tag k="historic" v="shieling" />
		<tag k="name" v="Mørsetra" />
		<tag k="place" v="locality" />
		<tag k="ssr:stedsnr" v="348278" />
	</node>
	<node id="-544423" lat="61.918047218" lon="6.08253333496">
		<tag k="name" v="Mogrenda" />
		<tag k="place" v="quarter" />
		<tag k="ssr:stedsnr" v="936320" />
	</node>
	<node id="-544419" lat="61.8984986694" lon="5.79955055641">
		<tag k="fixme" v="multiple name tags, choose one and add the other to alt_name; consider place=hamlet" />
		<tag k="name" v="Haugstad;Mørkesæterhaugen;Mørkesethaug" />
		<tag k="place" v="farm" />
		<tag k="ssr:stedsnr" v="930558" />
	</node>
	<node id="-544418" lat="61.9203916683" lon="6.45249166426">
		<tag k="name" v="Randasaga" />
		<tag k="place" v="locality" />
		<tag k="ssr:stedsnr" v="920973" />
	</node>
	<node id="-542369" lat="61.8793666663" lon="6.08050556231">
		<tag k="historic" v="shieling" />
		<tag k="name" v="Navestøylen" />
		<tag k="place" v="locality" />
		<tag k="ssr:stedsnr" v="323742" />
	</node>
	<node id="-542368" lat="61.935195619" lon="5.82097683328">
		<tag k="fixme" v="consider place=hamlet" />
		<tag k="name" v="Indre Remme" />
		<tag k="place" v="farm" />
		<tag k="ssr:stedsnr" v="323540" />
	</node>
	<node id="-544415" lat="61.919522361" lon="6.31528797273">
		<tag k="fixme" v="consider place=hamlet" />
		<tag k="name" v="Skrede" />
		<tag k="place" v="farm" />
		<tag k="ssr:stedsnr" v="920912" />
	</node>
	<node id="-544413" lat="61.9612546786" lon="6.2208217689">
		<tag k="historic" v="shieling" />
		<tag k="name" v="Høystakkesætra" />
		<tag k="place" v="locality" />
		<tag k="ssr:stedsnr" v="920872" />
	</node>
	<node id="-544409" lat="61.8614509204" lon="6.10640706744">
		<tag k="alt_name" v="Lotsbergskår;Tørne" />
		<tag k="fixme" v="consider place=hamlet" />
		<tag k="name" v="Lotsbergskåra" />
		<tag k="place" v="farm" />
		<tag k="ssr:stedsnr" v="920655" />
	</node>
	<node id="-544404" lat="61.9164864741" lon="5.86062702117">
		<tag k="name" v="Løken" />
		<tag k="place" v="farm" />
		<tag k="ssr:stedsnr" v="920554" />
	</node>
	<node id="-544403" lat="61.9280720626" lon="6.07946753894">
		<tag k="fixme" v="consider place=hamlet" />
		<tag k="name" v="Rindane" />
		<tag k="place" v="farm" />
		<tag k="ssr:stedsnr" v="920545" />
	</node>
	<node id="-544402" lat="61.9173888888" lon="5.87923889552">
		<tag k="name" v="Semsberg" />
		<tag k="place" v="farm" />
		<tag k="ssr:stedsnr" v="920534" />
	</node>
	<node id="-544401" lat="61.920188891" lon="5.91301111753">
		<tag k="alt_name" v="Li" />
		<tag k="name" v="Lid" />
		<tag k="place" v="farm" />
		<tag k="ssr:stedsnr" v="920531" />
	</node>
	<node id="-542352" lat="61.9061138909" lon="6.11950277449">
		<tag k="name" v="Nesheim" />
		<tag k="place" v="farm" />
		<tag k="ssr:stedsnr" v="313605" />
	</node>
	<node id="-544399" lat="61.9274305533" lon="5.91988610608">
		<tag k="alt_name" v="Lidasetra" />
		<tag k="historic" v="shieling" />
		<tag k="name" v="Liasætra" />
		<tag k="place" v="locality" />
		<tag k="ssr:stedsnr" v="920511" />
	</node>
	<node id="-542350" lat="61.9040413361" lon="6.00619712814">
		<tag k="fixme" v="consider place=hamlet" />
		<tag k="name" v="Skipenes" />
		<tag k="place" v="farm" />
		<tag k="ssr:stedsnr" v="313590" />
	</node>
	<node id="-544397" lat="61.9428001986" lon="5.8739359201">
		<tag k="fixme" v="consider place=hamlet" />
		<tag k="name" v="Hjelmeland" />
		<tag k="place" v="farm" />
		<tag k="ssr:stedsnr" v="920502" />
	</node>
	<node id="-542348" lat="61.9205972464" lon="6.20494572966">
		<tag k="fixme" v="consider place=hamlet" />
		<tag k="name" v="Åsstøda" />
		<tag k="old_name" v="Åsebøstølen" />
		<tag k="place" v="farm" />
		<tag k="ssr:stedsnr" v="313577" />
	</node>
	<node id="-542347" lat="61.9257916676" lon="6.09180833768">
		<tag k="name" v="Jaren" />
		<tag k="place" v="farm" />
		<tag k="ssr:stedsnr" v="313549" />
	</node>
	<node id="-544394" lat="61.9404795472" lon="5.76131300977">
		<tag k="fixme" v="consider place=hamlet" />
		<tag k="name" v="Stårheimssætra" />
		<tag k="place" v="farm" />
		<tag k="ssr:stedsnr" v="920468" />
	</node>
	<node id="-544393" lat="61.9506444464" lon="5.53604444247">
		<tag k="historic" v="shieling" />
		<tag k="name" v="Lefdalssætra" />
		<tag k="place" v="locality" />
		<tag k="ssr:stedsnr" v="920465" />
	</node>
	<node id="-544392" lat="61.9523027805" lon="5.52085833604">
		<tag k="historic" v="shieling" />
		<tag k="name" v="Tverrlida" />
		<tag k="place" v="locality" />
		<tag k="ssr:stedsnr" v="920456" />
	</node>
	<node id="-542343" lat="61.937816671" lon="5.99545554966">
		<tag k="historic" v="shieling" />
		<tag k="name" v="Fossane" />
		<tag k="place" v="locality" />
		<tag k="ssr:stedsnr" v="313513" />
	</node>
	<node id="-544390" lat="61.9244395428" lon="5.63025556178">
		<tag k="fixme" v="consider place=hamlet" />
		<tag k="name" v="Kjølsdalen" />
		<tag k="place" v="farm" />
		<tag k="ssr:stedsnr" v="920443" />
	</node>
	<node id="-542341" lat="61.9310722246" lon="5.48622778126">
		<tag k="historic" v="shieling" />
		<tag k="name" v="Nessætra" />
		<tag k="place" v="locality" />
		<tag k="ssr:stedsnr" v="313478" />
	</node>
	<node id="-542340" lat="61.9483555567" lon="5.69885277734">
		<tag k="historic" v="shieling" />
		<tag k="name" v="Storevassætra" />
		<tag k="place" v="locality" />
		<tag k="ssr:stedsnr" v="313458" />
	</node>
	<node id="-542339" lat="61.9575249993" lon="5.76140833309">
		<tag k="name" v="Sætrebotnen" />
		<tag k="place" v="isolated_dwelling" />
		<tag k="ssr:stedsnr" v="313456" />
	</node>
	<node id="-542338" lat="61.9532555592" lon="5.85321388829">
		<tag k="historic" v="shieling" />
		<tag k="name" v="Sloka" />
		<tag k="place" v="locality" />
		<tag k="ssr:stedsnr" v="313278" />
	</node>
	<node id="-544385" lat="61.8723222231" lon="6.21982777571">
		<tag k="historic" v="shieling" />
		<tag k="name" v="Dalesætra" />
		<tag k="place" v="locality" />
		<tag k="ssr:stedsnr" v="920039" />
	</node>
	<node id="-544382" lat="61.914177778" lon="5.86569167589">
		<tag k="name" v="Løkjastranda" />
		<tag k="place" v="quarter" />
		<tag k="ssr:stedsnr" v="876331" />
	</node>
	<node id="-542333" lat="61.9389126111" lon="6.44260305549">
		<tag k="fixme" v="consider place=hamlet" />
		<tag k="name" v="Holmøyvika" />
		<tag k="place" v="farm" />
		<tag k="ssr:stedsnr" v="313945" />
	</node>
	<node id="-544378" lat="61.9270458829" lon="5.76377128734">
		<tag k="fixme" v="consider place=hamlet" />
		<tag k="name" v="Hola" />
		<tag k="place" v="farm" />
		<tag k="ssr:stedsnr" v="870538" />
	</node>
	<node id="-542329" lat="61.9364472248" lon="6.44404167015">
		<tag k="name" v="Åsli" />
		<tag k="place" v="farm" />
		<tag k="ssr:stedsnr" v="313926" />
	</node>
	<node id="-544376" lat="61.9535972222" lon="5.93700555882">
		<tag k="historic" v="shieling" />
		<tag k="name" v="Mørsætra" />
		<tag k="place" v="locality" />
		<tag k="ssr:stedsnr" v="870455" />
	</node>
	<node id="-544375" lat="61.9254527741" lon="6.00939722145">
		<tag k="historic" v="shieling" />
		<tag k="name" v="Myroldhaugsætra" />
		<tag k="place" v="locality" />
		<tag k="ssr:stedsnr" v="869774" />
	</node>
	<node id="-544374" lat="61.917011114" lon="5.99307222579">
		<tag k="name" v="Myklebuståsen" />
		<tag k="place" v="quarter" />
		<tag k="ssr:stedsnr" v="869761" />
	</node>
	<node id="-544368" lat="61.8681472187" lon="6.07521111408">
		<tag k="fixme" v="consider place=hamlet" />
		<tag k="name" v="Lote" />
		<tag k="place" v="village" />
		<tag k="ssr:stedsnr" v="860701" />
	</node>
	<node id="-544367" lat="61.86504368" lon="6.09925439322">
		<tag k="alt_name" v="Lotsberg" />
		<tag k="fixme" v="consider place=hamlet" />
		<tag k="name" v="Ytre Lotsberg" />
		<tag k="place" v="farm" />
		<tag k="ssr:stedsnr" v="860700" />
	</node>
	<node id="-544365" lat="61.8625416655" lon="6.19608054885">
		<tag k="historic" v="shieling" />
		<tag k="name" v="Ytre Hennestøylen" />
		<tag k="place" v="locality" />
		<tag k="ssr:stedsnr" v="860694" />
	</node>
	<node id="-544361" lat="61.8795166671" lon="5.89851389785">
		<tag k="name" v="Rotvika" />
		<tag k="place" v="farm" />
		<tag k="ssr:stedsnr" v="860673" />
	</node>
	<node id="-544359" lat="61.8884277823" lon="5.90852500818">
		<tag k="historic" v="shieling" />
		<tag k="name" v="Øygarden" />
		<tag k="place" v="locality" />
		<tag k="ssr:stedsnr" v="860649" />
	</node>
	<node id="-544355" lat="61.9369060334" lon="5.85034799994">
		<tag k="fixme" v="consider place=hamlet" />
		<tag k="name" v="Mannset" />
		<tag k="place" v="farm" />
		<tag k="ssr:stedsnr" v="860560" />
	</node>
	<node id="-544351" lat="61.9433611086" lon="5.71139166908">
		<tag k="name" v="Flathaugen" />
		<tag k="place" v="isolated_dwelling" />
		<tag k="ssr:stedsnr" v="860521" />
	</node>
	<node id="-544349" lat="61.9358182187" lon="5.64317944961">
		<tag k="fixme" v="consider place=hamlet" />
		<tag k="name" v="Berstad" />
		<tag k="place" v="farm" />
		<tag k="ssr:stedsnr" v="860498" />
	</node>
	<node id="-544347" lat="61.8810888849" lon="5.79665556314">
		<tag k="name" v="Brekka" />
		<tag k="place" v="locality" />
		<tag k="ssr:stedsnr" v="860460" />
	</node>
	<node id="-544342" lat="61.9540388871" lon="5.94641111506">
		<tag k="historic" v="shieling" />
		<tag k="name" v="Nakken" />
		<tag k="place" v="locality" />
		<tag k="ssr:stedsnr" v="860322" />
	</node>
	<node id="-544341" lat="61.9618361108" lon="5.99131666334">
		<tag k="historic" v="shieling" />
		<tag k="name" v="Sevlandssætra" />
		<tag k="place" v="locality" />
		<tag k="ssr:stedsnr" v="860318" />
	</node>
	<node id="-544338" lat="61.9049410874" lon="6.15776208109">
		<tag k="fixme" v="consider place=hamlet" />
		<tag k="name" v="Skauset" />
		<tag k="place" v="farm" />
		<tag k="ssr:stedsnr" v="859562" />
	</node>
	<node id="-544336" lat="61.9167638876" lon="6.09173333676">
		<tag k="name" v="Fosslund" />
		<tag k="place" v="farm" />
		<tag k="ssr:stedsnr" v="859539" />
	</node>
	<node id="-544335" lat="61.9134494504" lon="6.07063501048">
		<tag k="alt_name" v="Nordheim" />
		<tag k="name" v="Norheim" />
		<tag k="place" v="farm" />
		<tag k="ssr:stedsnr" v="859537" />
	</node>
	<node id="-544333" lat="61.9185999959" lon="5.69148889789">
		<tag k="alt_name" v="Lundasetra" />
		<tag k="historic" v="shieling" />
		<tag k="name" v="Lundasætra" />
		<tag k="place" v="locality" />
		<tag k="ssr:stedsnr" v="859427" />
	</node>
	<node id="-544331" lat="61.8905345519" lon="5.76018997183">
		<tag k="historic" v="shieling" />
		<tag k="name" v="Hamnnessætra" />
		<tag k="place" v="locality" />
		<tag k="ssr:stedsnr" v="859391" />
	</node>
	<node id="-544330" lat="61.9196555594" lon="5.72815832791">
		<tag k="alt_name" v="Botnasetra" />
		<tag k="historic" v="shieling" />
		<tag k="name" v="Botnesætra" />
		<tag k="place" v="locality" />
		<tag k="ssr:stedsnr" v="859389" />
	</node>
	<node id="-544329" lat="61.918278254" lon="5.73955965715">
		<tag k="fixme" v="consider place=hamlet" />
		<tag k="name" v="Bakken" />
		<tag k="place" v="farm" />
		<tag k="ssr:stedsnr" v="859387" />
	</node>
	<node id="-544326" lat="61.9270527579" lon="6.10113671388">
		<tag k="fixme" v="consider place=hamlet" />
		<tag k="name" v="Leivdalen" />
		<tag k="place" v="farm" />
		<tag k="ssr:stedsnr" v="859522" />
	</node>
	<node id="-542272" lat="61.9012166662" lon="6.23607499117">
		<tag k="name" v="Hallebjørkteigane" />
		<tag k="place" v="locality" />
		<tag k="ssr:stedsnr" v="290088" />
	</node>
	<node id="-544319" lat="61.911939336" lon="5.71100493681">
		<tag k="alt_name" v="Høynes nedre" />
		<tag k="fixme" v="consider place=hamlet" />
		<tag k="name" v="Nedre Høynes" />
		<tag k="place" v="farm" />
		<tag k="ssr:stedsnr" v="836937" />
	</node>
	<node id="-542263" lat="61.9344888902" lon="6.19793333067">
		<tag k="name" v="Åsebøsetra" />
		<tag k="place" v="locality" />
		<tag k="ssr:stedsnr" v="290027" />
	</node>
	<node id="-542261" lat="61.8608638845" lon="6.19644721434">
		<tag k="name" v="Rongfloten" />
		<tag k="place" v="isolated_dwelling" />
		<tag k="ssr:stedsnr" v="289870" />
	</node>
	<node id="-542252" lat="61.9577833353" lon="5.9183166634">
		<tag k="historic" v="shieling" />
		<tag k="name" v="Kjørstadsetra" />
		<tag k="place" v="locality" />
		<tag k="ssr:stedsnr" v="287312" />
	</node>
	<node id="-544247" lat="61.9316777808" lon="5.91400833692">
		<tag k="name" v="Gamlesetra" />
		<tag k="place" v="locality" />
		<tag k="ssr:stedsnr" v="834155" />
	</node>
	<node id="-544233" lat="61.9041416711" lon="5.99958610659">
		<tag k="name" v="Øyane" />
		<tag k="place" v="quarter" />
		<tag k="ssr:stedsnr" v="815330" />
	</node>
	<node id="-544232" lat="61.8931805523" lon="6.01254999888">
		<tag k="historic" v="shieling" />
		<tag k="name" v="Skipenessætra" />
		<tag k="place" v="locality" />
		<tag k="ssr:stedsnr" v="809748" />
	</node>
	<node id="-544227" lat="61.9288102435" lon="6.38059359818">
		<tag k="name" v="Rosenlid" />
		<tag k="place" v="farm" />
		<tag k="ssr:stedsnr" v="799931" />
	</node>
	<node id="-544226" lat="61.9571900604" lon="6.21879846147">
		<tag k="historic" v="shieling" />
		<tag k="name" v="Frislidsætra" />
		<tag k="place" v="locality" />
		<tag k="ssr:stedsnr" v="799916" />
	</node>
	<node id="-544221" lat="61.8631473525" lon="6.10245803774">
		<tag k="alt_name" v="Lotsberg" />
		<tag k="fixme" v="consider place=hamlet" />
		<tag k="name" v="Indre Lotsberg" />
		<tag k="place" v="farm" />
		<tag k="ssr:stedsnr" v="799685" />
	</node>
	<node id="-544213" lat="61.9099666672" lon="6.05303888027">
		<tag k="name" v="Bjørlobrekka" />
		<tag k="place" v="isolated_dwelling" />
		<tag k="ssr:stedsnr" v="799596" />
	</node>
	<node id="-544211" lat="61.9003361123" lon="5.90043333489">
		<tag k="name" v="Sætrebakken" />
		<tag k="place" v="isolated_dwelling" />
		<tag k="ssr:stedsnr" v="799592" />
	</node>
	<node id="-544210" lat="61.9011743574" lon="5.89172115333">
		<tag k="fixme" v="consider place=hamlet" />
		<tag k="name" v="Sætre" />
		<tag k="place" v="farm" />
		<tag k="ssr:stedsnr" v="799591" />
	</node>
	<node id="-544209" lat="61.9321944425" lon="6.04532777516">
		<tag k="historic" v="shieling" />
		<tag k="name" v="Alsåkersætra" />
		<tag k="place" v="locality" />
		<tag k="ssr:stedsnr" v="799563" />
	</node>
	<node id="-544205" lat="61.9397833298" lon="6.09472499172">
		<tag k="alt_name" v="Hjellesetra" />
		<tag k="historic" v="shieling" />
		<tag k="name" v="Hjellesætra" />
		<tag k="place" v="locality" />
		<tag k="ssr:stedsnr" v="799535" />
	</node>
	<node id="-544198" lat="61.9525388851" lon="5.65694166165">
		<tag k="historic" v="shieling" />
		<tag k="name" v="Mystøylen" />
		<tag k="place" v="locality" />
		<tag k="ssr:stedsnr" v="799475" />
	</node>
	<node id="-544197" lat="61.9297681308" lon="5.60197080506">
		<tag k="alt_name" v="Ervikseter" />
		<tag k="fixme" v="consider place=hamlet" />
		<tag k="name" v="Erviksætra" />
		<tag k="place" v="farm" />
		<tag k="ssr:stedsnr" v="799460" />
	</node>
	<node id="-544196" lat="61.9272983509" lon="5.56599440502">
		<tag k="fixme" v="consider place=hamlet" />
		<tag k="name" v="Etterdal" />
		<tag k="place" v="farm" />
		<tag k="ssr:stedsnr" v="799458" />
	</node>
	<node id="-544194" lat="61.9317320354" lon="5.77057747163">
		<tag k="fixme" v="consider place=hamlet" />
		<tag k="name" v="Åre" />
		<tag k="place" v="farm" />
		<tag k="ssr:stedsnr" v="799454" />
	</node>
	<node id="-544193" lat="61.9384666664" lon="5.69233055309">
		<tag k="historic" v="shieling" />
		<tag k="name" v="Langelidhola" />
		<tag k="place" v="locality" />
		<tag k="ssr:stedsnr" v="799451" />
	</node>
	<node id="-544192" lat="61.8954136774" lon="5.75375273851">
		<tag k="fixme" v="consider place=hamlet" />
		<tag k="name" v="Vollset" />
		<tag k="place" v="farm" />
		<tag k="ssr:stedsnr" v="799446" />
	</node>
	<node id="-544186" lat="61.8715472264" lon="6.23656388206">
		<tag k="historic" v="shieling" />
		<tag k="name" v="Indre Hennestøylen" />
		<tag k="place" v="locality" />
		<tag k="ssr:stedsnr" v="799031" />
	</node>
	<node id="-544182" lat="61.8526333352" lon="6.13897499539">
		<tag k="historic" v="shieling" />
		<tag k="name" v="Øvre Åsane" />
		<tag k="place" v="locality" />
		<tag k="ssr:stedsnr" v="798605" />
	</node>
	<node id="-544181" lat="61.8493854211" lon="6.14211268485">
		<tag k="fixme" v="consider place=hamlet" />
		<tag k="name" v="Indre Åsane" />
		<tag k="place" v="farm" />
		<tag k="ssr:stedsnr" v="798606" />
	</node>
	<node id="-544180" lat="61.9159121173" lon="6.03965591318">
		<tag k="fixme" v="consider place=hamlet" />
		<tag k="name" v="Hildenes" />
		<tag k="place" v="farm" />
		<tag k="ssr:stedsnr" v="798536" />
	</node>
	<node id="-544179" lat="61.9265305597" lon="6.21301389266">
		<tag k="name" v="Rusta" />
		<tag k="place" v="farm" />
		<tag k="ssr:stedsnr" v="798530" />
	</node>
	<node id="-544177" lat="61.9236000039" lon="6.08841110285">
		<tag k="name" v="Lyngstad" />
		<tag k="place" v="farm" />
		<tag k="ssr:stedsnr" v="798522" />
	</node>
	<node id="-544171" lat="61.9380361072" lon="6.24908611806">
		<tag k="name" v="Stølen" />
		<tag k="place" v="locality" />
		<tag k="ssr:stedsnr" v="775974" />
	</node>
	<node id="-544169" lat="61.9348083294" lon="5.77653889772">
		<tag k="historic" v="shieling" />
		<tag k="name" v="Ospesetra" />
		<tag k="place" v="locality" />
		<tag k="ssr:stedsnr" v="775932" />
	</node>
	<node id="-544166" lat="61.9338611137" lon="5.79902500469">
		<tag k="name" v="Gamlesetra" />
		<tag k="place" v="locality" />
		<tag k="ssr:stedsnr" v="775917" />
	</node>
	<node id="-544077" lat="61.9570138855" lon="5.92965277215">
		<tag k="name" v="Harpefossen" />
		<tag k="ssr:stedsnr" v="754481" />
		<tag k="tourism" v="hotel" />
	</node>
	<node id="-544074" lat="61.9404651103" lon="6.13959542332">
		<tag k="fixme" v="consider tourism=alpine_hut or tourism=chalet" />
		<tag k="name" v="Stigedalshytta" />
		<tag k="ssr:stedsnr" v="748759" />
		<tag k="tourism" v="wilderness_hut" />
	</node>
	<node id="-544069" lat="61.9382642145" lon="6.23223449844">
		<tag k="fixme" v="consider place=hamlet" />
		<tag k="name" v="Frislid" />
		<tag k="place" v="farm" />
		<tag k="ssr:stedsnr" v="738944" />
	</node>
	<node id="-544067" lat="61.9288083298" lon="6.4111944486">
		<tag k="historic" v="shieling" />
		<tag k="name" v="Utigardssætra" />
		<tag k="place" v="locality" />
		<tag k="ssr:stedsnr" v="738932" />
	</node>
	<node id="-544056" lat="61.8859361138" lon="5.96725277997">
		<tag k="historic" v="shieling" />
		<tag k="name" v="Dalssætra" />
		<tag k="place" v="locality" />
		<tag k="ssr:stedsnr" v="738618" />
	</node>
	<node id="-544054" lat="61.9028778739" lon="6.15384357418">
		<tag k="name" v="Skogstad" />
		<tag k="place" v="farm" />
		<tag k="ssr:stedsnr" v="738606" />
	</node>
	<node id="-544052" lat="61.8931805549" lon="5.94745556032">
		<tag k="alt_name" v="Taklosetra" />
		<tag k="historic" v="shieling" />
		<tag k="name" v="Taklosætra" />
		<tag k="place" v="locality" />
		<tag k="ssr:stedsnr" v="738583" />
	</node>
	<node id="-544051" lat="61.9006929937" lon="5.92766447646">
		<tag k="fixme" v="consider place=hamlet" />
		<tag k="name" v="Stranda" />
		<tag k="place" v="farm" />
		<tag k="ssr:stedsnr" v="738572" />
	</node>
	<node id="-544050" lat="61.9207460413" lon="6.16462816359">
		<tag k="fixme" v="consider place=hamlet" />
		<tag k="name" v="Lindvika" />
		<tag k="place" v="farm" />
		<tag k="ssr:stedsnr" v="738567" />
	</node>
	<node id="-544049" lat="61.914191701" lon="5.9806399174">
		<tag k="alt_name" v="Mehl" />
		<tag k="fixme" v="consider place=hamlet" />
		<tag k="name" v="Mel" />
		<tag k="place" v="farm" />
		<tag k="ssr:stedsnr" v="738559" />
	</node>
	<node id="-544048" lat="61.921005554" lon="6.06948611457">
		<tag k="name" v="Flotane" />
		<tag k="place" v="farm" />
		<tag k="ssr:stedsnr" v="738551" />
	</node>
	<node id="-544045" lat="61.926566707" lon="5.90119031451">
		<tag k="fixme" v="consider place=hamlet" />
		<tag k="name" v="Lidene" />
		<tag k="place" v="farm" />
		<tag k="ssr:stedsnr" v="738519" />
	</node>
	<node id="-544038" lat="61.9477277814" lon="5.58802500838">
		<tag k="alt_name" v="Skjeringdalen" />
		<tag k="historic" v="shieling" />
		<tag k="name" v="Skjerdingedalen" />
		<tag k="place" v="locality" />
		<tag k="ssr:stedsnr" v="738461" />
	</node>
	<node id="-544037" lat="61.9458083331" lon="5.58095000606">
		<tag k="historic" v="shieling" />
		<tag k="name" v="Vassdalen" />
		<tag k="place" v="locality" />
		<tag k="ssr:stedsnr" v="738460" />
	</node>
	<node id="-544033" lat="61.8712111083" lon="5.79634165811">
		<tag k="fixme" v="consider place=hamlet" />
		<tag k="name" v="Torheim" />
		<tag k="place" v="village" />
		<tag k="ssr:stedsnr" v="738396" />
	</node>
	<node id="-544032" lat="61.8945575179" lon="5.78109301307">
		<tag k="fixme" v="multiple name tags, choose one and add the other to alt_name; consider place=hamlet" />
		<tag k="name" v="Skaret;Skareide" />
		<tag k="place" v="farm" />
		<tag k="ssr:stedsnr" v="738387" />
	</node>
	<node id="-544031" lat="61.8953027785" lon="5.80941389309">
		<tag k="historic" v="shieling" />
		<tag k="name" v="Sørlandssætra" />
		<tag k="place" v="locality" />
		<tag k="ssr:stedsnr" v="738386" />
	</node>
	<node id="-544029" lat="61.8618222242" lon="6.22914722129">
		<tag k="name" v="Sæ" />
		<tag k="place" v="farm" />
		<tag k="ssr:stedsnr" v="738062" />
	</node>
	<node id="-544028" lat="61.8612526478" lon="6.22649264074">
		<tag k="alt_name" v="Henden indre" />
		<tag k="fixme" v="consider place=hamlet" />
		<tag k="name" v="Indre Henne" />
		<tag k="place" v="farm" />
		<tag k="ssr:stedsnr" v="738060" />
	</node>
	<node id="-544024" lat="61.939832722" lon="5.82541562598">
		<tag k="fixme" v="consider place=hamlet" />
		<tag k="name" v="Myrstad" />
		<tag k="place" v="farm" />
		<tag k="ssr:stedsnr" v="738434" />
	</node>
	<node id="-544023" lat="61.9312488617" lon="5.68051475364">
		<tag k="alt_name" v="Beinsetra" />
		<tag k="historic" v="shieling" />
		<tag k="name" v="Beinsætra" />
		<tag k="place" v="locality" />
		<tag k="ssr:stedsnr" v="738432" />
	</node>
	<node id="-544022" lat="61.9206583324" lon="5.70950555841">
		<tag k="alt_name" v="Høynessetra" />
		<tag k="historic" v="shieling" />
		<tag k="name" v="Høynessætra" />
		<tag k="place" v="locality" />
		<tag k="ssr:stedsnr" v="738418" />
	</node>
	<node id="-544021" lat="61.9589083333" lon="5.73539999167">
		<tag k="alt_name" v="Fannstøylen, in;Fannstølen" />
		<tag k="name" v="Indre Fannstøylen" />
		<tag k="place" v="isolated_dwelling" />
		<tag k="ssr:stedsnr" v="720010" />
	</node>
	<node id="-543992" lat="61.9689638917" lon="6.37824999176">
		<tag k="name" v="Ytresetra" />
		<tag k="place" v="locality" />
		<tag k="ssr:stedsnr" v="715054" />
	</node>
	<node id="-543976" lat="61.9095361115" lon="5.99368334105">
		<tag k="name" v="Lunden" />
		<tag k="place" v="quarter" />
		<tag k="ssr:stedsnr" v="714486" />
	</node>
	<node id="-543963" lat="61.9446222235" lon="5.59745277592">
		<tag k="name" v="Fjellstølen" />
		<tag k="place" v="locality" />
		<tag k="ssr:stedsnr" v="714157" />
	</node>
	<node id="-543941" lat="61.916333334" lon="6.08650832734">
		<tag k="name" v="Fossebakken" />
		<tag k="place" v="quarter" />
		<tag k="ssr:stedsnr" v="694318" />
	</node>
	<node id="-543940" lat="61.9326331976" lon="5.81673465492">
		<tag k="fixme" v="consider place=hamlet" />
		<tag k="name" v="Ytre Remme" />
		<tag k="place" v="farm" />
		<tag k="ssr:stedsnr" v="688535" />
	</node>
	<node id="-543939" lat="61.9202472257" lon="5.81742222985">
		<tag k="name" v="Hjellen" />
		<tag k="place" v="locality" />
		<tag k="ssr:stedsnr" v="688530" />
	</node>
	<node id="-543931" lat="61.9522851132" lon="5.8923079178">
		<tag k="fixme" v="consider place=hamlet" />
		<tag k="name" v="Nesbakken" />
		<tag k="place" v="farm" />
		<tag k="ssr:stedsnr" v="678517" />
	</node>
	<node id="-543920" lat="61.9156075885" lon="6.07762710903">
		<tag k="fixme" v="consider place=hamlet" />
		<tag k="name" v="Kviene" />
		<tag k="place" v="farm" />
		<tag k="ssr:stedsnr" v="677569" />
	</node>
	<node id="-543919" lat="61.9151629626" lon="5.95645095834">
		<tag k="fixme" v="consider place=hamlet" />
		<tag k="name" v="Ytre Skårhaug" />
		<tag k="place" v="farm" />
		<tag k="ssr:stedsnr" v="677560" />
	</node>
	<node id="-543918" lat="61.9351249965" lon="6.21737499295">
		<tag k="name" v="Åsebøøyane" />
		<tag k="place" v="farm" />
		<tag k="ssr:stedsnr" v="677538" />
	</node>
	<node id="-543917" lat="61.919409268" lon="5.89492531892">
		<tag k="fixme" v="consider place=hamlet" />
		<tag k="loc_name" v="Tippa" />
		<tag k="name" v="Haugland" />
		<tag k="place" v="farm" />
		<tag k="ssr:stedsnr" v="677536" />
	</node>
	<node id="-543906" lat="61.926786108" lon="5.68854445304">
		<tag k="alt_name" v="Reksnessetrane" />
		<tag k="historic" v="shieling" />
		<tag k="name" v="Reksnessætra" />
		<tag k="place" v="locality" />
		<tag k="ssr:stedsnr" v="677459" />
	</node>
	<node id="-543905" lat="61.9230905085" lon="5.67207419998">
		<tag k="fixme" v="consider place=hamlet" />
		<tag k="name" v="Årdalen" />
		<tag k="place" v="farm" />
		<tag k="ssr:stedsnr" v="677454" />
	</node>
	<node id="-543904" lat="61.924594111" lon="5.5825555225">
		<tag k="fixme" v="consider place=hamlet" />
		<tag k="name" v="Haus" />
		<tag k="place" v="farm" />
		<tag k="ssr:stedsnr" v="677447" />
	</node>
	<node id="-543903" lat="61.9226025191" lon="5.76062469156">
		<tag k="alt_name" v="Rafshol Nedre;Rafshol" />
		<tag k="fixme" v="consider place=hamlet" />
		<tag k="name" v="Nedre Rafshol" />
		<tag k="place" v="farm" />
		<tag k="ssr:stedsnr" v="677433" />
	</node>
	<node id="-543901" lat="61.9199777794" lon="5.78852778033">
		<tag k="name" v="Torvika" />
		<tag k="place" v="hamlet" />
		<tag k="ssr:stedsnr" v="677391" />
	</node>
	<node id="-543900" lat="61.921267453" lon="5.80204231">
		<tag k="fixme" v="consider place=hamlet" />
		<tag k="name" v="Ytre Hafsås" />
		<tag k="place" v="farm" />
		<tag k="ssr:stedsnr" v="677390" />
	</node>
	<node id="-543899" lat="61.8728500006" lon="5.77658611224">
		<tag k="name" v="Torneset" />
		<tag k="place" v="farm" />
		<tag k="ssr:stedsnr" v="677373" />
	</node>
	<node id="-543888" lat="61.8838825592" lon="5.90527631608">
		<tag k="fixme" v="consider place=hamlet" />
		<tag k="name" v="Hundvika" />
		<tag k="place" v="farm" />
		<tag k="ssr:stedsnr" v="677612" />
	</node>
	<node id="-543884" lat="61.9177186744" lon="5.81958412266">
		<tag k="alt_name" v="Rød, indre" />
		<tag k="fixme" v="consider place=hamlet" />
		<tag k="name" v="Indre Rød" />
		<tag k="place" v="farm" />
		<tag k="ssr:stedsnr" v="659428" />
	</node>
	<node id="-543839" lat="61.9279666655" lon="6.3870083427">
		<tag k="name" v="Jakoblada" />
		<tag k="place" v="locality" />
		<tag k="ssr:stedsnr" v="653790" />
	</node>
	<node id="-543791" lat="61.9324833363" lon="5.808208333">
		<tag k="alt_name" v="Nygårdsetra" />
		<tag k="historic" v="shieling" />
		<tag k="name" v="Nygardssetra" />
		<tag k="place" v="locality" />
		<tag k="ssr:stedsnr" v="651084" />
	</node>
	<node id="-543785" lat="61.9206485184" lon="5.87295314887">
		<tag k="fixme" v="consider place=hamlet" />
		<tag k="name" v="Løken" />
		<tag k="place" v="farm" />
		<tag k="ssr:stedsnr" v="640192" />
	</node>
	<node id="-543782" lat="61.9333305579" lon="6.25664445151">
		<tag k="fixme" v="consider place=hamlet" />
		<tag k="name" v="Heggjabygda" />
		<tag k="place" v="village" />
		<tag k="ssr:stedsnr" v="631011" />
	</node>
	<node id="-543776" lat="61.9197915125" lon="5.80796627741">
		<tag k="fixme" v="consider place=hamlet" />
		<tag k="name" v="Indre Hafsås" />
		<tag k="place" v="farm" />
		<tag k="ssr:stedsnr" v="626563" />
	</node>
	<node id="-543771" lat="61.928323541" lon="5.8632946248">
		<tag k="fixme" v="consider place=hamlet" />
		<tag k="name" v="Grøthaugen" />
		<tag k="place" v="farm" />
		<tag k="ssr:stedsnr" v="617551" />
	</node>
	<node id="-543770" lat="61.9331653722" lon="5.88885109215">
		<tag k="fixme" v="consider place=hamlet" />
		<tag k="name" v="Balsnes" />
		<tag k="place" v="farm" />
		<tag k="ssr:stedsnr" v="617549" />
	</node>
	<node id="-543765" lat="61.9330645907" lon="5.65477093088">
		<tag k="fixme" v="consider place=hamlet" />
		<tag k="name" v="Sunndalen" />
		<tag k="place" v="farm" />
		<tag k="ssr:stedsnr" v="617472" />
	</node>
	<node id="-543762" lat="61.9594249993" lon="5.94685000471">
		<tag k="historic" v="shieling" />
		<tag k="name" v="Naustdalssætra" />
		<tag k="place" v="locality" />
		<tag k="ssr:stedsnr" v="617310" />
	</node>
	<node id="-543760" lat="61.9655111125" lon="5.9793888902">
		<tag k="historic" v="shieling" />
		<tag k="name" v="Bjørhovdesætra" />
		<tag k="place" v="locality" />
		<tag k="ssr:stedsnr" v="617299" />
	</node>
	<node id="-543759" lat="61.9289999986" lon="6.22060276903">
		<tag k="name" v="Åsebøen" />
		<tag k="place" v="farm" />
		<tag k="ssr:stedsnr" v="617266" />
	</node>
	<node id="-543758" lat="61.9253111081" lon="6.38101943834">
		<tag k="historic" v="shieling" />
		<tag k="name" v="Rognnessætra" />
		<tag k="place" v="locality" />
		<tag k="ssr:stedsnr" v="616975" />
	</node>
	<node id="-543756" lat="61.9413766794" lon="6.28922888636">
		<tag k="fixme" v="consider place=hamlet" />
		<tag k="name" v="Hatlelid" />
		<tag k="place" v="farm" />
		<tag k="ssr:stedsnr" v="616954" />
	</node>
	<node id="-543755" lat="61.9344794926" lon="6.25289832587">
		<tag k="fixme" v="consider place=hamlet" />
		<tag k="name" v="Heggja" />
		<tag k="place" v="farm" />
		<tag k="ssr:stedsnr" v="616953" />
	</node>
	<node id="-543753" lat="61.9281671113" lon="6.35847704626">
		<tag k="fixme" v="consider place=hamlet" />
		<tag k="name" v="Rognnes" />
		<tag k="place" v="farm" />
		<tag k="ssr:stedsnr" v="616944" />
	</node>
	<node id="-543752" lat="61.9339425388" lon="6.26112060329">
		<tag k="fixme" v="consider place=hamlet" />
		<tag k="name" v="Melheim" />
		<tag k="place" v="farm" />
		<tag k="ssr:stedsnr" v="616943" />
	</node>
	<node id="-543751" lat="61.9366166691" lon="6.45375000699">
		<tag k="name" v="Øyane" />
		<tag k="place" v="farm" />
		<tag k="ssr:stedsnr" v="616936" />
	</node>
	<node id="-543748" lat="61.87800278" lon="5.88998888462">
		<tag k="name" v="Hjellvika" />
		<tag k="place" v="locality" />
		<tag k="ssr:stedsnr" v="616628" />
	</node>
	<node id="-543746" lat="61.886816669" lon="5.87654999302">
		<tag k="name" v="Hanshjellen" />
		<tag k="place" v="isolated_dwelling" />
		<tag k="ssr:stedsnr" v="616609" />
	</node>
	<node id="-543744" lat="61.9110055526" lon="6.09145833223">
		<tag k="name" v="Norbøen" />
		<tag k="place" v="farm" />
		<tag k="ssr:stedsnr" v="616587" />
	</node>
	<node id="-543742" lat="61.9121972268" lon="5.98557223004">
		<tag k="name" v="Nordfjordeid" />
		<tag k="place" v="village" />
		<tag k="ssr:stedsnr" v="616580" />
	</node>
	<node id="-543741" lat="61.9105998005" lon="6.01956674545">
		<tag k="fixme" v="consider place=hamlet" />
		<tag k="name" v="Langeland" />
		<tag k="place" v="farm" />
		<tag k="ssr:stedsnr" v="616561" />
	</node>
	<node id="-543740" lat="61.9400386323" lon="5.64166898587">
		<tag k="fixme" v="consider place=hamlet" />
		<tag k="name" v="Hatlegjerde" />
		<tag k="place" v="farm" />
		<tag k="ssr:stedsnr" v="616483" />
	</node>
	<node id="-543739" lat="61.9398554625" lon="5.51156688568">
		<tag k="fixme" v="consider place=hamlet" />
		<tag k="name" v="Lefdalshjellen" />
		<tag k="place" v="farm" />
		<tag k="ssr:stedsnr" v="616480" />
	</node>
	<node id="-543738" lat="61.9490083322" lon="5.64486666542">
		<tag k="historic" v="shieling" />
		<tag k="name" v="Dalssætra" />
		<tag k="place" v="locality" />
		<tag k="ssr:stedsnr" v="616455" />
	</node>
	<node id="-543737" lat="61.9198963512" lon="5.62239998392">
		<tag k="fixme" v="consider place=hamlet" />
		<tag k="name" v="Gjellhammaren" />
		<tag k="place" v="farm" />
		<tag k="ssr:stedsnr" v="616446" />
	</node>
	<node id="-543736" lat="61.9166527783" lon="5.62923056488">
		<tag k="fixme" v="consider place=hamlet" />
		<tag k="name" v="Kjølsdalen" />
		<tag k="place" v="village" />
		<tag k="ssr:stedsnr" v="616441" />
	</node>
	<node id="-543733" lat="61.880405555" lon="5.77013611174">
		<tag k="name" v="Teigen" />
		<tag k="place" v="locality" />
		<tag k="ssr:stedsnr" v="616365" />
	</node>
	<node id="-543729" lat="61.9158962823" lon="5.733745148">
		<tag k="alt_name" v="Rød, ytre;Rød" />
		<tag k="fixme" v="consider place=hamlet" />
		<tag k="name" v="Ytre Rød" />
		<tag k="place" v="farm" />
		<tag k="ssr:stedsnr" v="598402" />
	</node>
	<node id="-543721" lat="61.8755277791" lon="5.95498610271">
		<tag k="name" v="Bergeteigane" />
		<tag k="place" v="locality" />
		<tag k="ssr:stedsnr" v="593796" />
	</node>
	<node id="-543705" lat="61.8995361071" lon="6.04916943615">
		<tag k="name" v="Høgesetra" />
		<tag k="place" v="locality" />
		<tag k="ssr:stedsnr" v="593527" />
	</node>
	<node id="-543648" lat="61.9019000042" lon="6.08896944854">
		<tag k="historic" v="shieling" />
		<tag k="name" v="Norsætra" />
		<tag k="place" v="locality" />
		<tag k="ssr:stedsnr" v="556630" />
	</node>
	<node id="-543647" lat="61.9290757392" lon="5.7717869939">
		<tag k="fixme" v="consider place=hamlet" />
		<tag k="name" v="Rygg" />
		<tag k="place" v="farm" />
		<tag k="ssr:stedsnr" v="556629" />
	</node>
	<node id="-543640" lat="61.9377138922" lon="5.54098332976">
		<tag k="historic" v="shieling" />
		<tag k="name" v="Fosseberget" />
		<tag k="place" v="locality" />
		<tag k="ssr:stedsnr" v="556528" />
	</node>
	<node id="-543634" lat="61.9368141903" lon="5.65247274564">
		<tag k="alt_name" v="Bugjerde" />
		<tag k="fixme" v="consider place=hamlet" />
		<tag k="name" v="Buagjerdet" />
		<tag k="place" v="farm" />
		<tag k="ssr:stedsnr" v="556497" />
	</node>
	<node id="-543632" lat="61.9382005072" lon="5.83462115798">
		<tag k="fixme" v="consider place=hamlet" />
		<tag k="name" v="Hanebrekke" />
		<tag k="place" v="farm" />
		<tag k="ssr:stedsnr" v="556486" />
	</node>
	<node id="-543631" lat="61.8796083294" lon="5.79372778761">
		<tag k="name" v="Øykjesto" />
		<tag k="place" v="locality" />
		<tag k="ssr:stedsnr" v="556447" />
	</node>
	<node id="-543630" lat="61.8757416702" lon="5.82290833329">
		<tag k="alt_name" v="Vårsetra" />
		<tag k="name" v="Vårsætra" />
		<tag k="place" v="locality" />
		<tag k="ssr:stedsnr" v="556443" />
	</node>
	<node id="-543620" lat="61.9085117282" lon="6.11554419411">
		<tag k="fixme" v="consider place=hamlet" />
		<tag k="name" v="Nesbakken" />
		<tag k="place" v="farm" />
		<tag k="ssr:stedsnr" v="555544" />
	</node>
	<node id="-543619" lat="61.9109415057" lon="6.03824882101">
		<tag k="fixme" v="consider place=hamlet" />
		<tag k="name" v="Bjørlo" />
		<tag k="place" v="farm" />
		<tag k="ssr:stedsnr" v="555520" />
	</node>
	<node id="-543618" lat="61.9282216286" lon="6.21772660122">
		<tag k="fixme" v="consider place=hamlet" />
		<tag k="name" v="Åsebøen" />
		<tag k="place" v="farm" />
		<tag k="ssr:stedsnr" v="555512" />
	</node>
	<node id="-543616" lat="61.9239361089" lon="6.03328889745">
		<tag k="name" v="Vårstøylen" />
		<tag k="place" v="locality" />
		<tag k="ssr:stedsnr" v="555506" />
	</node>
	<node id="-543615" lat="61.9233008107" lon="5.68198636482">
		<tag k="fixme" v="consider place=hamlet" />
		<tag k="name" v="Tømmerstøylen" />
		<tag k="place" v="farm" />
		<tag k="ssr:stedsnr" v="555419" />
	</node>
	<node id="-543613" lat="61.9148827063" lon="5.66766361407">
		<tag k="fixme" v="consider place=hamlet" />
		<tag k="name" v="Ytre Reksneset" />
		<tag k="place" v="farm" />
		<tag k="ssr:stedsnr" v="555405" />
	</node>
	<node id="-543612" lat="61.9279457972" lon="5.76268860795">
		<tag k="name" v="Brattheim" />
		<tag k="place" v="farm" />
		<tag k="ssr:stedsnr" v="555399" />
	</node>
	<node id="-543610" lat="61.8690694475" lon="6.22021666455">
		<tag k="historic" v="shieling" />
		<tag k="name" v="Bakkestøylen" />
		<tag k="place" v="locality" />
		<tag k="ssr:stedsnr" v="555047" />
	</node>
	<node id="-543583" lat="61.8961722261" lon="5.76539167469">
		<tag k="name" v="Vellene" />
		<tag k="place" v="isolated_dwelling" />
		<tag k="ssr:stedsnr" v="532729" />
	</node>
	<node id="-543546" lat="61.8926722191" lon="5.85150834115">
		<tag k="historic" v="shieling" />
		<tag k="name" v="Utigardsetra" />
		<tag k="place" v="locality" />
		<tag k="ssr:stedsnr" v="532133" />
	</node>
	<node id="-543519" lat="61.9381861129" lon="6.44444999992">
		<tag k="name" v="Almvika" />
		<tag k="place" v="farm" />
		<tag k="ssr:stedsnr" v="495940" />
	</node>
	<node id="-543515" lat="61.8578101035" lon="6.2129849157">
		<tag k="alt_name" v="Henden Ytre" />
		<tag k="fixme" v="consider place=hamlet" />
		<tag k="name" v="Ytre Henne" />
		<tag k="place" v="farm" />
		<tag k="ssr:stedsnr" v="495679" />
	</node>
	<node id="-543514" lat="61.8562250008" lon="6.1857805549">
		<tag k="alt_name" v="Loggstølen" />
		<tag k="historic" v="shieling" />
		<tag k="name" v="Logg" />
		<tag k="place" v="locality" />
		<tag k="ssr:stedsnr" v="495646" />
	</node>
	<node id="-543511" lat="61.91208923" lon="6.09580046459">
		<tag k="fixme" v="consider place=hamlet" />
		<tag k="name" v="Nor" />
		<tag k="place" v="farm" />
		<tag k="ssr:stedsnr" v="495590" />
	</node>
	<node id="-543509" lat="61.9193370724" lon="6.04900450365">
		<tag k="fixme" v="consider place=hamlet" />
		<tag k="name" v="Hjelle" />
		<tag k="place" v="farm" />
		<tag k="ssr:stedsnr" v="495549" />
	</node>
	<node id="-543508" lat="61.9240111127" lon="6.08500000828">
		<tag k="name" v="Lyngvoll" />
		<tag k="place" v="farm" />
		<tag k="ssr:stedsnr" v="495547" />
	</node>
	<node id="-543507" lat="61.9278166637" lon="6.11473333074">
		<tag k="name" v="Kviebakk" />
		<tag k="place" v="farm" />
		<tag k="ssr:stedsnr" v="495545" />
	</node>
	<node id="-543505" lat="61.9326160883" lon="5.89590970309">
		<tag k="fixme" v="consider place=hamlet" />
		<tag k="name" v="Halsteinslida" />
		<tag k="place" v="farm" />
		<tag k="ssr:stedsnr" v="495515" />
	</node>
	<node id="-543502" lat="61.9430749979" lon="5.61855000943">
		<tag k="historic" v="shieling" />
		<tag k="name" v="Stigen" />
		<tag k="place" v="locality" />
		<tag k="ssr:stedsnr" v="495487" />
	</node>
	<node id="-543500" lat="61.9281898802" lon="5.51756856497">
		<tag k="fixme" v="consider place=hamlet" />
		<tag k="name" v="Midgjeld" />
		<tag k="place" v="farm" />
		<tag k="ssr:stedsnr" v="495478" />
	</node>
	<node id="-543499" lat="61.9486138874" lon="5.68667777492">
		<tag k="historic" v="shieling" />
		<tag k="name" v="Myrane" />
		<tag k="place" v="locality" />
		<tag k="ssr:stedsnr" v="495469" />
	</node>
	<node id="-543498" lat="61.9531194409" lon="5.65208610894">
		<tag k="alt_name" v="Holstølen" />
		<tag k="historic" v="shieling" />
		<tag k="name" v="Holstøylen" />
		<tag k="place" v="locality" />
		<tag k="ssr:stedsnr" v="495463" />
	</node>
	<node id="-543497" lat="61.9258540716" lon="5.64866278915">
		<tag k="fixme" v="consider place=hamlet" />
		<tag k="name" v="Hornet" />
		<tag k="place" v="farm" />
		<tag k="ssr:stedsnr" v="495458" />
	</node>
	<node id="-543496" lat="61.9188416697" lon="5.76118332888">
		<tag k="name" v="Stårheim" />
		<tag k="place" v="village" />
		<tag k="ssr:stedsnr" v="495406" />
	</node>
	<node id="-543495" lat="61.8793249994" lon="5.80757499427">
		<tag k="historic" v="shieling" />
		<tag k="name" v="Sommarssætra" />
		<tag k="place" v="locality" />
		<tag k="ssr:stedsnr" v="495393" />
	</node>
	<node id="-543493" lat="61.8687554299" lon="5.8083022966">
		<tag k="fixme" v="consider place=hamlet" />
		<tag k="name" v="Indre Torheim" />
		<tag k="place" v="farm" />
		<tag k="ssr:stedsnr" v="495349" />
	</node>
	<node id="-543491" lat="61.9619027761" lon="5.86455555321">
		<tag k="historic" v="shieling" />
		<tag k="name" v="Skadhaugen" />
		<tag k="place" v="locality" />
		<tag k="ssr:stedsnr" v="495271" />
	</node>
	<node id="-543486" lat="61.9360194413" lon="5.50862221986">
		<tag k="fixme" v="consider place=hamlet" />
		<tag k="name" v="Lefdalsbygda" />
		<tag k="old_name" v="Levdalsbygda" />
		<tag k="place" v="village" />
		<tag k="ssr:stedsnr" v="482617" />
	</node>
	<node id="-543479" lat="61.9282444402" lon="5.79164443927">
		<tag k="name" v="Samegna" />
		<tag k="place" v="locality" />
		<tag k="ssr:stedsnr" v="472927" />
	</node>
	<node id="-543466" lat="61.9007388901" lon="6.01126944515">
		<tag k="name" v="Gardstølen" />
		<tag k="place" v="locality" />
		<tag k="ssr:stedsnr" v="472641" />
	</node>
	<node id="-543443" lat="61.9746027818" lon="6.38807222484">
		<tag k="historic" v="shieling" />
		<tag k="name" v="Høgesetra" />
		<tag k="place" v="locality" />
		<tag k="ssr:stedsnr" v="472045" />
	</node>
	<node id="-543442" lat="61.9258333292" lon="6.44216944925">
		<tag k="name" v="Gamlesetra" />
		<tag k="place" v="locality" />
		<tag k="ssr:stedsnr" v="472036" />
	</node>
	<node id="-543428" lat="61.9415888917" lon="6.13565278322">
		<tag k="historic" v="shieling" />
		<tag k="name" v="Liasetra" />
		<tag k="place" v="locality" />
		<tag k="ssr:stedsnr" v="471419" />
	</node>
	<node id="-543402" lat="61.9037861145" lon="6.14618055101">
		<tag k="alt_name" v="Geilane" />
		<tag k="name" v="Geilen" />
		<tag k="place" v="farm" />
		<tag k="ssr:stedsnr" v="452259" />
	</node>
	<node id="-543396" lat="61.9396472231" lon="6.42635">
		<tag k="name" v="Storvik" />
		<tag k="place" v="farm" />
		<tag k="ssr:stedsnr" v="435950" />
	</node>
	<node id="-543395" lat="61.9662684112" lon="6.39049715308">
		<tag k="fixme" v="consider place=hamlet" />
		<tag k="name" v="Navelsaker" />
		<tag k="place" v="farm" />
		<tag k="ssr:stedsnr" v="435913" />
	</node>
	<node id="-543391" lat="61.8734457657" lon="6.10789378356">
		<tag k="historic" v="shieling" />
		<tag k="name" v="Lotsstøylen" />
		<tag k="place" v="locality" />
		<tag k="ssr:stedsnr" v="435660" />
	</node>
	<node id="-543387" lat="61.8969777811" lon="5.87291959146">
		<tag k="fixme" v="consider place=hamlet" />
		<tag k="name" v="Indre Hundeidet" />
		<tag k="place" v="farm" />
		<tag k="ssr:stedsnr" v="435601" />
	</node>
	<node id="-543386" lat="61.9217162719" lon="5.91524780819">
		<tag k="fixme" v="consider place=hamlet" />
		<tag k="name" v="Øvrelid" />
		<tag k="place" v="farm" />
		<tag k="ssr:stedsnr" v="435579" />
	</node>
	<node id="-543385" lat="61.9224331035" lon="5.90353255573">
		<tag k="fixme" v="consider place=hamlet" />
		<tag k="name" v="Seljebakken" />
		<tag k="place" v="farm" />
		<tag k="ssr:stedsnr" v="435578" />
	</node>
	<node id="-543382" lat="61.9358138898" lon="5.84555554922">
		<tag k="name" v="Teige" />
		<tag k="place" v="farm" />
		<tag k="ssr:stedsnr" v="435549" />
	</node>
	<node id="-543380" lat="61.9528000036" lon="5.93546943485">
		<tag k="alt_name" v="Tippasetra" />
		<tag k="historic" v="shieling" />
		<tag k="name" v="Tippasætra" />
		<tag k="place" v="locality" />
		<tag k="ssr:stedsnr" v="435536" />
	</node>
	<node id="-543376" lat="61.9342343058" lon="5.50211425514">
		<tag k="fixme" v="consider place=hamlet" />
		<tag k="name" v="Lefdal" />
		<tag k="place" v="farm" />
		<tag k="ssr:stedsnr" v="435515" />
	</node>
	<node id="-543375" lat="61.942738889" lon="5.74712777118">
		<tag k="alt_name" v="Storesetra" />
		<tag k="name" v="Storesætra" />
		<tag k="place" v="locality" />
		<tag k="ssr:stedsnr" v="435514" />
	</node>
	<node id="-543373" lat="61.9497333327" lon="5.60005000435">
		<tag k="historic" v="shieling" />
		<tag k="name" v="Mosehaugane" />
		<tag k="place" v="locality" />
		<tag k="ssr:stedsnr" v="435507" />
	</node>
	<node id="-543372" lat="61.9537111133" lon="5.83200833741">
		<tag k="name" v="Heida" />
		<tag k="place" v="isolated_dwelling" />
		<tag k="ssr:stedsnr" v="435502" />
	</node>
	<node id="-543371" lat="61.9314364526" lon="5.58323331903">
		<tag k="fixme" v="consider place=hamlet" />
		<tag k="name" v="Ramnefjellet" />
		<tag k="place" v="farm" />
		<tag k="ssr:stedsnr" v="435488" />
	</node>
	<node id="-543370" lat="61.9344218906" lon="5.83956443709">
		<tag k="fixme" v="consider place=hamlet" />
		<tag k="name" v="Veråsen" />
		<tag k="place" v="farm" />
		<tag k="ssr:stedsnr" v="435487" />
	</node>
	<node id="-543369" lat="61.8986221348" lon="5.79126116105">
		<tag k="alt_name" v="Mørkesæter;Mørkeset" />
		<tag k="fixme" v="consider place=hamlet" />
		<tag k="name" v="Sørland" />
		<tag k="place" v="farm" />
		<tag k="ssr:stedsnr" v="435480" />
	</node>
	<node id="-543362" lat="61.9615805524" lon="5.60748889825">
		<tag k="historic" v="shieling" />
		<tag k="name" v="Fossane" />
		<tag k="place" v="locality" />
		<tag k="ssr:stedsnr" v="435016" />
	</node>
	<node id="-543359" lat="61.8964182579" lon="5.86646888044">
		<tag k="fixme" v="consider place=hamlet" />
		<tag k="name" v="Ytre Hundeidet" />
		<tag k="place" v="farm" />
		<tag k="ssr:stedsnr" v="434559" />
	</node>
	<node id="-543358" lat="61.9236716095" lon="6.01086096709">
		<tag k="historic" v="shieling" />
		<tag k="name" v="Langelandssætra" />
		<tag k="place" v="locality" />
		<tag k="ssr:stedsnr" v="434530" />
	</node>
	<node id="-543357" lat="61.9232835237" lon="6.07676922759">
		<tag k="alt_name" v="Reinene" />
		<tag k="fixme" v="consider place=hamlet" />
		<tag k="name" v="Reinane" />
		<tag k="place" v="farm" />
		<tag k="ssr:stedsnr" v="434526" />
	</node>
	<node id="-543356" lat="61.9272527814" lon="6.1233805478">
		<tag k="alt_name" v="Vedviksetra" />
		<tag k="historic" v="shieling" />
		<tag k="name" v="Vedviksætra" />
		<tag k="place" v="locality" />
		<tag k="ssr:stedsnr" v="434521" />
	</node>
	<node id="-543355" lat="61.926325003" lon="5.76271667066">
		<tag k="name" v="Heimdal" />
		<tag k="place" v="farm" />
		<tag k="ssr:stedsnr" v="434411" />
	</node>
	<node id="-543341" lat="61.9584500041" lon="6.24274445027">
		<tag k="historic" v="shieling" />
		<tag k="name" v="Nedre Heggjadalssætra" />
		<tag k="place" v="locality" />
		<tag k="ssr:stedsnr" v="253875" />
	</node>
	<node id="-543332" lat="61.9535999978" lon="6.15531388747">
		<tag k="alt_name" v="Sagesetra" />
		<tag k="name" v="Sagesætra" />
		<tag k="place" v="isolated_dwelling" />
		<tag k="ssr:stedsnr" v="253547" />
	</node>
	<node id="-543328" lat="61.9320447435" lon="5.76057849996">
		<tag k="fixme" v="consider place=hamlet" />
		<tag k="name" v="Berget" />
		<tag k="place" v="farm" />
		<tag k="ssr:stedsnr" v="253486" />
	</node>
	<node id="-543325" lat="61.955208335" lon="5.85845556242">
		<tag k="historic" v="shieling" />
		<tag k="name" v="Hjelmelandssætra" />
		<tag k="place" v="locality" />
		<tag k="ssr:stedsnr" v="253322" />
	</node>
	<node id="-543318" lat="61.9500730207" lon="6.35830118156">
		<tag k="alt_name" v="Furefjerding, indre" />
		<tag k="fixme" v="consider place=hamlet" />
		<tag k="name" v="Indre Furefjerdingen" />
		<tag k="place" v="farm" />
		<tag k="ssr:stedsnr" v="252859" />
	</node>
	<node id="-543317" lat="61.8601361154" lon="6.21722500492">
		<tag k="fixme" v="consider place=hamlet" />
		<tag k="name" v="Hennebygda" />
		<tag k="place" v="village" />
		<tag k="ssr:stedsnr" v="252625" />
	</node>
	<node id="-543315" lat="61.892594446" lon="5.97542777885">
		<tag k="alt_name" v="Ossetra" />
		<tag k="historic" v="shieling" />
		<tag k="name" v="Ossætra" />
		<tag k="place" v="locality" />
		<tag k="ssr:stedsnr" v="252558" />
	</node>
	<node id="-543314" lat="61.900151784" lon="5.98629013609">
		<tag k="fixme" v="consider place=hamlet" />
		<tag k="name" v="Os" />
		<tag k="place" v="farm" />
		<tag k="ssr:stedsnr" v="252553" />
	</node>
	<node id="-543312" lat="61.9061722245" lon="6.03289167037">
		<tag k="name" v="Rotifloten" />
		<tag k="place" v="farm" />
		<tag k="ssr:stedsnr" v="252538" />
	</node>
	<node id="-543311" lat="61.9200583365" lon="6.19881388447">
		<tag k="name" v="Flatene" />
		<tag k="place" v="farm" />
		<tag k="ssr:stedsnr" v="252533" />
	</node>
	<node id="-543310" lat="61.9169277767" lon="6.10524165846">
		<tag k="name" v="Trollestøa" />
		<tag k="place" v="farm" />
		<tag k="ssr:stedsnr" v="252526" />
	</node>
	<node id="-543309" lat="61.922982635" lon="5.74149389602">
		<tag k="historic" v="shieling" />
		<tag k="name" v="Bakkesætra" />
		<tag k="place" v="locality" />
		<tag k="ssr:stedsnr" v="252419" />
	</node>
	<node id="-543307" lat="61.9231971847" lon="5.81151375772">
		<tag k="fixme" v="consider place=hamlet" />
		<tag k="name" v="Føllesdal" />
		<tag k="place" v="farm" />
		<tag k="ssr:stedsnr" v="252380" />
	</node>
	<node id="-543303" lat="61.9623027761" lon="5.65132777528">
		<tag k="alt_name" v="Navestølen" />
		<tag k="historic" v="shieling" />
		<tag k="name" v="Navestøylen" />
		<tag k="place" v="locality" />
		<tag k="ssr:stedsnr" v="252012" />
	</node>
	<node id="-544521" lat="61.8615596868" lon="6.22025153845">
		<tag k="name" v="Henden" />
		<tag k="place" v="hamlet" />
		<tag k="ssr:stedsnr" v="980928" />
	</node>
	<node id="-543267" lat="61.9228022823" lon="5.75584961917">
		<tag k="alt_name" v="Rafshol Øvre" />
		<tag k="fixme" v="consider place=hamlet" />
		<tag k="name" v="Øvre Rafshol" />
		<tag k="place" v="farm" />
		<tag k="ssr:stedsnr" v="229517" />
	</node>
	<node id="-543213" lat="61.9585601316" lon="5.90746295363">
		<tag k="historic" v="shieling" />
		<tag k="name" v="Halvarsetra" />
		<tag k="place" v="locality" />
		<tag k="ssr:stedsnr" v="226364" />
	</node>
	<node id="-543212" lat="61.9511166681" lon="5.90864999754">
		<tag k="name" v="Hjørangstølen" />
		<tag k="place" v="isolated_dwelling" />
		<tag k="ssr:stedsnr" v="226328" />
	</node>
	<node id="-543205" lat="61.9354509613" lon="6.41325143612">
		<tag k="fixme" v="consider place=hamlet" />
		<tag k="name" v="Holmøyane" />
		<tag k="place" v="farm" />
		<tag k="ssr:stedsnr" v="210548" />
	</node>
	<node id="-543197" lat="61.9397040452" lon="6.28428797836">
		<tag k="fixme" v="consider place=hamlet" />
		<tag k="name" v="Sandnes" />
		<tag k="place" v="farm" />
		<tag k="ssr:stedsnr" v="192943" />
	</node>
	<node id="-543196" lat="61.9341166644" lon="6.24356667584">
		<tag k="alt_name" v="Heggen" />
		<tag k="name" v="Heggja" />
		<tag k="place" v="farm" />
		<tag k="ssr:stedsnr" v="192940" />
	</node>
	<node id="-543195" lat="61.9360638851" lon="6.22203888427">
		<tag k="name" v="Frislid" />
		<tag k="place" v="farm" />
		<tag k="ssr:stedsnr" v="192936" />
	</node>
	<node id="-543193" lat="61.9501638869" lon="6.31709444167">
		<tag k="historic" v="shieling" />
		<tag k="name" v="Strandasætra" />
		<tag k="place" v="locality" />
		<tag k="ssr:stedsnr" v="192904" />
	</node>
	<node id="-543182" lat="61.9038361074" lon="6.05600834172">
		<tag k="alt_name" v="Bjørlosetra" />
		<tag k="historic" v="shieling" />
		<tag k="name" v="Bjørlosætra" />
		<tag k="place" v="locality" />
		<tag k="ssr:stedsnr" v="192611" />
	</node>
	<node id="-543181" lat="61.9068964249" lon="6.02408044599">
		<tag k="fixme" v="consider place=hamlet" />
		<tag k="name" v="Roti" />
		<tag k="place" v="farm" />
		<tag k="ssr:stedsnr" v="192608" />
	</node>
	<node id="-543180" lat="61.9150831701" lon="6.07190613319">
		<tag k="fixme" v="consider place=hamlet" />
		<tag k="name" v="Nornes" />
		<tag k="place" v="farm" />
		<tag k="ssr:stedsnr" v="192594" />
	</node>
	<node id="-543178" lat="61.9192527808" lon="5.8544861138">
		<tag k="name" v="Ytrebøen" />
		<tag k="place" v="farm" />
		<tag k="ssr:stedsnr" v="192576" />
	</node>
	<node id="-543177" lat="61.9218416671" lon="5.95569166049">
		<tag k="historic" v="shieling" />
		<tag k="name" v="Ytre Skårhaugsætra" />
		<tag k="place" v="locality" />
		<tag k="ssr:stedsnr" v="192568" />
	</node>
	<node id="-543172" lat="61.9464234463" lon="5.82319799801">
		<tag k="historic" v="shieling" />
		<tag k="name" v="Sjøasætrane" />
		<tag k="place" v="locality" />
		<tag k="ssr:stedsnr" v="192513" />
	</node>
	<node id="-543171" lat="61.9461520541" lon="5.80390481186">
		<tag k="historic" v="shieling" />
		<tag k="name" v="Remmesætra" />
		<tag k="place" v="locality" />
		<tag k="ssr:stedsnr" v="192507" />
	</node>
	<node id="-543167" lat="61.9222861128" lon="5.72471389166">
		<tag k="historic" v="shieling" />
		<tag k="name" v="Legene" />
		<tag k="place" v="locality" />
		<tag k="ssr:stedsnr" v="192490" />
	</node>
	<node id="-543166" lat="61.9296694433" lon="5.64508332471">
		<tag k="name" v="Haugane" />
		<tag k="place" v="farm" />
		<tag k="ssr:stedsnr" v="192477" />
	</node>
	<node id="-543161" lat="61.9542071282" lon="5.90753075058">
		<tag k="fixme" v="consider place=hamlet" />
		<tag k="name" v="Dalset" />
		<tag k="place" v="farm" />
		<tag k="ssr:stedsnr" v="192308" />
	</node>
	<node id="-543156" lat="61.8637124681" lon="6.22285563157">
		<tag k="alt_name" v="Henden øvre" />
		<tag k="fixme" v="consider place=hamlet" />
		<tag k="name" v="Øvre Henne" />
		<tag k="place" v="farm" />
		<tag k="ssr:stedsnr" v="192063" />
	</node>
	<node id="-543106" lat="61.9202001276" lon="5.76518151813">
		<tag k="fixme" v="consider place=hamlet" />
		<tag k="name" v="Stårheimsvik" />
		<tag k="place" v="farm" />
		<tag k="ssr:stedsnr" v="168536" />
	</node>
	<node id="-543069" lat="61.9465035006" lon="5.87262135015">
		<tag k="fixme" v="consider place=hamlet" />
		<tag k="name" v="Hjelmelandsbakke" />
		<tag k="place" v="farm" />
		<tag k="ssr:stedsnr" v="166383" />
	</node>
	<node id="-543055" lat="61.9055185565" lon="6.13410624382">
		<tag k="fixme" v="consider place=hamlet" />
		<tag k="name" v="Nes" />
		<tag k="place" v="farm" />
		<tag k="ssr:stedsnr" v="146007" />
	</node>
	<node id="-543053" lat="61.8975166682" lon="6.12475276944">
		<tag k="historic" v="shieling" />
		<tag k="name" v="Nessætra" />
		<tag k="place" v="locality" />
		<tag k="ssr:stedsnr" v="141713" />
	</node>
	<node id="-543051" lat="61.9321805597" lon="5.7513527846">
		<tag k="historic" v="shieling" />
		<tag k="name" v="Orheimssætra" />
		<tag k="place" v="locality" />
		<tag k="ssr:stedsnr" v="141537" />
	</node>
	<node id="-543049" lat="61.9259111142" lon="6.44890555603">
		<tag k="historic" v="shieling" />
		<tag k="name" v="Vikasætra" />
		<tag k="place" v="locality" />
		<tag k="ssr:stedsnr" v="131981" />
	</node>
	<node id="-543036" lat="61.8992548935" lon="5.94963674795">
		<tag k="fixme" v="consider place=hamlet" />
		<tag k="name" v="Taklo" />
		<tag k="place" v="farm" />
		<tag k="ssr:stedsnr" v="131588" />
	</node>
	<node id="-543034" lat="61.9185749045" lon="6.07427762588">
		<tag k="name" v="Nyland" />
		<tag k="place" v="farm" />
		<tag k="ssr:stedsnr" v="131557" />
	</node>
	<node id="-543033" lat="61.9206704271" lon="5.99806564975">
		<tag k="alt_name" v="Myklebustsetra" />
		<tag k="historic" v="shieling" />
		<tag k="name" v="Myklebustsætra" />
		<tag k="place" v="locality" />
		<tag k="ssr:stedsnr" v="131540" />
	</node>
	<node id="-543031" lat="61.9417805528" lon="6.14329443694">
		<tag k="historic" v="shieling" />
		<tag k="name" v="Storesætra" />
		<tag k="place" v="locality" />
		<tag k="ssr:stedsnr" v="131504" />
	</node>
	<node id="-543030" lat="61.9514499957" lon="6.15030833164">
		<tag k="alt_name" v="Bakkesetra" />
		<tag k="historic" v="shieling" />
		<tag k="name" v="Bakkesætra" />
		<tag k="place" v="locality" />
		<tag k="ssr:stedsnr" v="131497" />
	</node>
	<node id="-543028" lat="61.9492510708" lon="5.89761887626">
		<tag k="fixme" v="consider place=hamlet" />
		<tag k="name" v="Espe" />
		<tag k="place" v="farm" />
		<tag k="ssr:stedsnr" v="131485" />
	</node>
	<node id="-543021" lat="61.91219145" lon="5.67987543745">
		<tag k="fixme" v="consider place=hamlet" />
		<tag k="name" v="Lund" />
		<tag k="place" v="farm" />
		<tag k="ssr:stedsnr" v="131432" />
	</node>
	<node id="-543019" lat="61.9291027772" lon="5.78903333717">
		<tag k="historic" v="shieling" />
		<tag k="name" v="Myroldstøylen" />
		<tag k="place" v="locality" />
		<tag k="ssr:stedsnr" v="131428" />
	</node>
	<node id="-543018" lat="61.9380138934" lon="5.73203056319">
		<tag k="historic" v="shieling" />
		<tag k="name" v="Orheimsbotnen" />
		<tag k="place" v="locality" />
		<tag k="ssr:stedsnr" v="131419" />
	</node>
	<node id="-543016" lat="61.9131700264" lon="5.7083282864">
		<tag k="name" v="Høynes" />
		<tag k="place" v="hamlet" />
		<tag k="ssr:stedsnr" v="131392" />
	</node>
	<node id="-543015" lat="61.920326041" lon="5.74715880578">
		<tag k="fixme" v="consider place=hamlet" />
		<tag k="name" v="Orheim" />
		<tag k="place" v="farm" />
		<tag k="ssr:stedsnr" v="131390" />
	</node>
	<node id="-542963" lat="61.9100416679" lon="6.11504167433">
		<tag k="name" v="Fagerheim" />
		<tag k="place" v="farm" />
		<tag k="ssr:stedsnr" v="108274" />
	</node>
	<node id="-542924" lat="61.9358499972" lon="5.81088610821">
		<tag k="historic" v="shieling" />
		<tag k="name" v="Remmesetra" />
		<tag k="place" v="locality" />
		<tag k="ssr:stedsnr" v="105051" />
	</node>
	<node id="-542916" lat="61.9345583341" lon="5.7380472247">
		<tag k="barrier" v="fence" />
		<tag k="name" v="Heiagarden" />
		<tag k="ssr:stedsnr" v="86960" />
	</node>
	<node id="-542915" lat="61.9235816392" lon="5.76948498743">
		<tag k="fixme" v="consider place=hamlet" />
		<tag k="name" v="Vollen" />
		<tag k="place" v="farm" />
		<tag k="ssr:stedsnr" v="81544" />
	</node>
	<node id="-542903" lat="61.9605305559" lon="6.25114166277">
		<tag k="historic" v="shieling" />
		<tag k="name" v="Øvre Heggjadalssætra" />
		<tag k="place" v="locality" />
		<tag k="ssr:stedsnr" v="71877" />
	</node>
	<node id="-542899" lat="61.9068444482" lon="6.11789167573">
		<tag k="name" v="Årøyane" />
		<tag k="place" v="farm" />
		<tag k="ssr:stedsnr" v="71643" />
	</node>
	<node id="-542898" lat="61.9073166668" lon="6.03773055539">
		<tag k="name" v="Bjørlofloten" />
		<tag k="place" v="farm" />
		<tag k="ssr:stedsnr" v="71635" />
	</node>
	<node id="-542893" lat="61.8980305588" lon="6.194677775">
		<tag k="fixme" v="multiple name tags, choose one and add the other to alt_name" />
		<tag k="historic" v="shieling" />
		<tag k="name" v="Maragjølsætra;Rotiseter" />
		<tag k="place" v="locality" />
		<tag k="ssr:stedsnr" v="71663" />
	</node>
	<node id="-542890" lat="61.9356916628" lon="6.16382500246">
		<tag k="alt_name" v="Lindviksetra" />
		<tag k="historic" v="shieling" />
		<tag k="name" v="Lindviksætra" />
		<tag k="place" v="locality" />
		<tag k="ssr:stedsnr" v="71578" />
	</node>
	<node id="-542887" lat="61.9571583309" lon="6.21695278508">
		<tag k="name" v="Frislidsætra" />
		<tag k="place" v="locality" />
		<tag k="ssr:stedsnr" v="71560" />
	</node>
	<node id="-542884" lat="61.9420929575" lon="5.65551792123">
		<tag k="fixme" v="consider place=hamlet" />
		<tag k="name" v="Eikåsen" />
		<tag k="place" v="farm" />
		<tag k="ssr:stedsnr" v="71525" />
	</node>
	<node id="-542883" lat="61.9300087523" lon="5.48952755677">
		<tag k="fixme" v="consider place=hamlet" />
		<tag k="name" v="Lefdalsneset" />
		<tag k="place" v="farm" />
		<tag k="ssr:stedsnr" v="71519" />
	</node>
	<node id="-542882" lat="61.9484749968" lon="5.75881944904">
		<tag k="historic" v="shieling" />
		<tag k="name" v="Sigrona" />
		<tag k="place" v="locality" />
		<tag k="ssr:stedsnr" v="71516" />
	</node>
	<node id="-542880" lat="61.9528750024" lon="5.62734999874">
		<tag k="historic" v="shieling" />
		<tag k="name" v="Gjeddalen" />
		<tag k="place" v="locality" />
		<tag k="ssr:stedsnr" v="71495" />
	</node>
	<node id="-542877" lat="61.9559095" lon="5.91218777863">
		<tag k="fixme" v="consider place=hamlet" />
		<tag k="name" v="Smørdalen" />
		<tag k="place" v="farm" />
		<tag k="ssr:stedsnr" v="71309" />
	</node>
	<node id="-542870" lat="61.9436578128" lon="6.3009502007">
		<tag k="fixme" v="consider place=hamlet" />
		<tag k="name" v="Grimslid" />
		<tag k="place" v="farm" />
		<tag k="ssr:stedsnr" v="70869" />
	</node>
	<node id="-542868" lat="61.8521797951" lon="6.12861328432">
		<tag k="fixme" v="consider place=hamlet" />
		<tag k="name" v="Ytre Åsane" />
		<tag k="place" v="farm" />
		<tag k="ssr:stedsnr" v="70638" />
	</node>
	<node id="-542867" lat="61.9191163639" lon="6.1137857776">
		<tag k="fixme" v="consider place=hamlet" />
		<tag k="name" v="Vedvika" />
		<tag k="place" v="farm" />
		<tag k="ssr:stedsnr" v="70554" />
	</node>
	<node id="-542865" lat="61.9105486465" lon="5.98730874981">
		<tag k="fixme" v="consider place=hamlet" />
		<tag k="name" v="Myklebust" />
		<tag k="place" v="farm" />
		<tag k="ssr:stedsnr" v="70548" />
	</node>
	<node id="-542864" lat="61.9286750004" lon="6.2160000025">
		<tag k="name" v="Teigen" />
		<tag k="place" v="farm" />
		<tag k="ssr:stedsnr" v="70538" />
	</node>
	<node id="-542863" lat="61.922717038" lon="5.78954536358">
		<tag k="fixme" v="consider place=hamlet" />
		<tag k="name" v="Myrold" />
		<tag k="place" v="farm" />
		<tag k="ssr:stedsnr" v="70439" />
	</node>
	<node id="-542853" lat="61.9574999982" lon="5.93294167003">
		<tag k="name" v="Gamlelø" />
		<tag k="place" v="locality" />
		<tag k="ssr:stedsnr" v="47906" />
	</node>
	<node id="-542838" lat="61.9625222195" lon="5.74049999089">
		<tag k="name" v="Legda" />
		<tag k="place" v="locality" />
		<tag k="ssr:stedsnr" v="47765" />
	</node>
	<node id="-542815" lat="61.929250001" lon="6.12504723118">
		<tag k="name" v="Gamlesetra" />
		<tag k="place" v="locality" />
		<tag k="ssr:stedsnr" v="47397" />
	</node>
	<node id="-542805" lat="61.8808000025" lon="5.85986666288">
		<tag k="name" v="Reilimunnen" />
		<tag k="place" v="locality" />
		<tag k="ssr:stedsnr" v="47185" />
	</node>
	<node id="-542779" lat="61.9314277761" lon="5.9075916631">
		<tag k="name" v="Slåttane" />
		<tag k="place" v="locality" />
		<tag k="ssr:stedsnr" v="45143" />
	</node>
	<node id="-542773" lat="61.9448944447" lon="5.83330833667">
		<tag k="name" v="Hammarenden" />
		<tag k="place" v="locality" />
		<tag k="ssr:stedsnr" v="44309" />
	</node>
	<node id="-542770" lat="61.9477805538" lon="5.82791667094">
		<tag k="historic" v="shieling" />
		<tag k="name" v="Holesetra" />
		<tag k="place" v="locality" />
		<tag k="ssr:stedsnr" v="44302" />
	</node>
	<node id="-542768" lat="61.9425111085" lon="5.8441027831">
		<tag k="name" v="Nesesetra" />
		<tag k="place" v="locality" />
		<tag k="ssr:stedsnr" v="44009" />
	</node>
	<node id="-542767" lat="61.9095861081" lon="5.98604167553">
		<tag k="name" v="Nordøyrane" />
		<tag k="place" v="isolated_dwelling" />
		<tag k="ssr:stedsnr" v="39921" />
	</node>
	<node id="-542764" lat="61.9276388865" lon="6.42849999641">
		<tag k="historic" v="shieling" />
		<tag k="name" v="Innigardssætra" />
		<tag k="place" v="locality" />
		<tag k="ssr:stedsnr" v="28559" />
	</node>
	<node id="-542760" lat="61.917491666" lon="5.97396944551">
		<tag k="name" v="Prestemarka" />
		<tag k="place" v="quarter" />
		<tag k="ssr:stedsnr" v="20766" />
	</node>
	<node id="-542759" lat="61.9141089685" lon="6.00105140843">
		<tag k="fixme" v="consider place=hamlet" />
		<tag k="name" v="Myroldhaugen" />
		<tag k="place" v="farm" />
		<tag k="ssr:stedsnr" v="20765" />
	</node>
	<node id="-542758" lat="61.9215396638" lon="5.79517916402">
		<tag k="fixme" v="consider place=hamlet" />
		<tag k="name" v="Turrvika" />
		<tag k="place" v="farm" />
		<tag k="ssr:stedsnr" v="20562" />
	</node>
	<node id="-542757" lat="61.9141744388" lon="5.67179235516">
		<tag k="fixme" v="consider place=hamlet" />
		<tag k="name" v="Indre Reksneset" />
		<tag k="place" v="farm" />
		<tag k="ssr:stedsnr" v="20553" />
	</node>
	<node id="-542756" lat="61.9244551946" lon="5.5913314926">
		<tag k="fixme" v="consider place=hamlet" />
		<tag k="name" v="Gillesdalen" />
		<tag k="place" v="farm" />
		<tag k="ssr:stedsnr" v="20549" />
	</node>
	<node id="-542755" lat="61.9357467581" lon="5.49506165156">
		<tag k="fixme" v="consider place=hamlet" />
		<tag k="name" v="Lefdalsbakken" />
		<tag k="place" v="farm" />
		<tag k="ssr:stedsnr" v="20537" />
	</node>
	<node id="-542750" lat="61.9245249965" lon="6.42552500451">
		<tag k="name" v="Innigardshytta" />
		<tag k="place" v="isolated_dwelling" />
		<tag k="ssr:stedsnr" v="10970" />
	</node>
	<node id="-542743" lat="61.9465337659" lon="6.32832911173">
		<tag k="alt_name" v="Furefjerding ytre" />
		<tag k="fixme" v="consider place=hamlet" />
		<tag k="name" v="Ytre Furefjerdingen" />
		<tag k="place" v="farm" />
		<tag k="ssr:stedsnr" v="10896" />
	</node>
	<node id="-542740" lat="61.8982773743" lon="5.96270369551">
		<tag k="fixme" v="consider place=hamlet" />
		<tag k="name" v="Åshammaren" />
		<tag k="place" v="farm" />
		<tag k="ssr:stedsnr" v="10608" />
	</node>
	<node id="-542739" lat="61.9119500028" lon="6.11192500776">
		<tag k="name" v="Gangstøda" />
		<tag k="place" v="farm" />
		<tag k="ssr:stedsnr" v="10606" />
	</node>
	<node id="-542736" lat="61.917741179" lon="6.07842513695">
		<tag k="fixme" v="consider place=hamlet" />
		<tag k="name" v="Mona" />
		<tag k="place" v="farm" />
		<tag k="ssr:stedsnr" v="10581" />
	</node>
	<node id="-542733" lat="61.921644404" lon="5.88625927969">
		<tag k="fixme" v="consider place=hamlet" />
		<tag k="name" v="Haugen" />
		<tag k="place" v="farm" />
		<tag k="ssr:stedsnr" v="10547" />
	</node>
	<node id="-542730" lat="61.9247196911" lon="5.86625741725">
		<tag k="fixme" v="consider place=hamlet" />
		<tag k="name" v="Rysta" />
		<tag k="place" v="farm" />
		<tag k="ssr:stedsnr" v="10523" />
	</node>
	<node id="-542729" lat="61.9427340656" lon="5.89216267203">
		<tag k="fixme" v="consider place=hamlet" />
		<tag k="name" v="Engjeland" />
		<tag k="place" v="farm" />
		<tag k="ssr:stedsnr" v="10498" />
	</node>
	<node id="-542728" lat="61.9463934064" lon="5.88740701883">
		<tag k="fixme" v="consider place=hamlet" />
		<tag k="name" v="Tjørstad" />
		<tag k="place" v="farm" />
		<tag k="ssr:stedsnr" v="10494" />
	</node>
	<node id="-542725" lat="61.9475638873" lon="5.87247500121">
		<tag k="name" v="Bakke" />
		<tag k="place" v="farm" />
		<tag k="ssr:stedsnr" v="10485" />
	</node>
	<node id="-542721" lat="61.9306788539" lon="5.8128153998">
		<tag k="fixme" v="consider place=hamlet" />
		<tag k="name" v="Nygard" />
		<tag k="place" v="farm" />
		<tag k="ssr:stedsnr" v="10446" />
	</node>
</osm>
