<?xml version="1.0" encoding="UTF-8"?>
<osm generator="osmapis" version="0.6">
	<node id="-543870" lat="61.9190277767" lon="5.61693055135">
		<tag k="alt_name" v="Ervik" />
		<tag k="layer" v="-1" />
		<tag k="name" v="Erviktunnelen" />
		<tag k="ssr:stedsnr" v="165403" />
		<tag k="tunnel" v="yes" />
	</node>
	<node id="-543957" lat="61.9346833307" lon="6.26392222021">
		<tag k="bridge" v="yes" />
		<tag k="layer" v="1" />
		<tag k="name" v="Melheim" />
		<tag k="ssr:stedsnr" v="169679" />
	</node>
	<node id="-545275" lat="61.8575527799" lon="6.11585277593">
		<tag k="highway" v="path" />
		<tag k="name" v="Åsevegen" />
		<tag k="ssr:stedsnr" v="957324" />
	</node>
	<node id="-543110" lat="61.9166416668" lon="5.62879721492">
		<tag k="bridge" v="yes" />
		<tag k="layer" v="1" />
		<tag k="name" v="Kjølsdal" />
		<tag k="ssr:stedsnr" v="290638" />
	</node>
	<node id="-543096" lat="61.9569750032" lon="6.15813333729">
		<tag k="highway" v="path" />
		<tag k="name" v="Gamlestokken" />
		<tag k="ssr:stedsnr" v="290317" />
	</node>
	<node id="-544502" lat="61.9179250019" lon="6.04409999896">
		<tag k="bridge" v="yes" />
		<tag k="layer" v="1" />
		<tag k="name" v="Bakke" />
		<tag k="ssr:stedsnr" v="593628" />
	</node>
	<node id="-543730" lat="61.8926694474" lon="6.03207499225">
		<tag k="layer" v="-1" />
		<tag k="name" v="Lotetunnelen" />
		<tag k="ssr:stedsnr" v="89952" />
		<tag k="tunnel" v="yes" />
	</node>
	<node id="-545238" lat="61.8780083361" lon="6.03994443468">
		<tag k="layer" v="-1" />
		<tag k="name" v="Lote" />
		<tag k="ssr:stedsnr" v="954321" />
		<tag k="tunnel" v="yes" />
	</node>
	<node id="-543800" lat="61.9052333336" lon="6.15377222503">
		<tag k="bridge" v="yes" />
		<tag k="layer" v="1" />
		<tag k="name" v="Skaugset" />
		<tag k="ssr:stedsnr" v="108698" />
	</node>
	<node id="-544363" lat="61.8552555532" lon="6.19890000663">
		<tag k="man_made" v="quay" />
		<tag k="name" v="Bryggjerusta" />
		<tag k="place" v="locality" />
		<tag k="ssr:stedsnr" v="532181" />
	</node>
	<node id="-543395" lat="61.9452444444" lon="5.87318611579">
		<tag k="bridge" v="yes" />
		<tag k="layer" v="1" />
		<tag k="name" v="Bakke" />
		<tag k="ssr:stedsnr" v="411662" />
	</node>
	<node id="-544820" lat="61.9304500023" lon="6.09896110563">
		<tag k="alt_name" v="Leivdøla" />
		<tag k="bridge" v="yes" />
		<tag k="layer" v="1" />
		<tag k="name" v="Leivdøla bru" />
		<tag k="ssr:stedsnr" v="715685" />
	</node>
	<node id="-543548" lat="61.9156055562" lon="6.08307500663">
		<tag k="landuse" v="industrial" />
		<tag k="name" v="Kviafossen" />
		<tag k="power" v="plant" />
		<tag k="ssr:stedsnr" v="10586" />
	</node>
	<node id="-545253" lat="61.919072224" lon="6.06356667026">
		<tag k="bridge" v="yes" />
		<tag k="layer" v="1" />
		<tag k="name" v="Hjelle" />
		<tag k="ssr:stedsnr" v="957694" />
	</node>
	<node id="-545252" lat="61.9470888844" lon="5.89136665942">
		<tag k="bridge" v="yes" />
		<tag k="layer" v="1" />
		<tag k="name" v="Kjørstad" />
		<tag k="ssr:stedsnr" v="957691" />
	</node>
	<node id="-543109" lat="61.8516888862" lon="6.12426389254">
		<tag k="bridge" v="yes" />
		<tag k="layer" v="1" />
		<tag k="name" v="Kjeåna" />
		<tag k="ssr:stedsnr" v="290636" />
	</node>
	<node id="-544603" lat="61.9167916671" lon="5.83795278241">
		<tag k="man_made" v="quay" />
		<tag k="name" v="Jarbryggja" />
		<tag k="place" v="locality" />
		<tag k="ssr:stedsnr" v="651110" />
	</node>
	<node id="-544218" lat="61.9597861093" lon="5.90903054768">
		<tag k="bridge" v="yes" />
		<tag k="layer" v="1" />
		<tag k="name" v="Smalebrua" />
		<tag k="ssr:stedsnr" v="469318" />
	</node>
	<node id="-543183" lat="61.9068722189" lon="6.42262500421">
		<tag k="highway" v="path" />
		<tag k="name" v="Randavegen" />
		<tag k="ssr:stedsnr" v="331516" />
	</node>
	<node id="-545112" lat="61.9152472255" lon="6.10542500625">
		<tag k="man_made" v="quay" />
		<tag k="name" v="Norsbryggja" />
		<tag k="place" v="locality" />
		<tag k="ssr:stedsnr" v="836725" />
	</node>
	<node id="-543959" lat="61.96588611" lon="6.39386388398">
		<tag k="bridge" v="yes" />
		<tag k="layer" v="1" />
		<tag k="name" v="Navelsaker" />
		<tag k="ssr:stedsnr" v="169696" />
	</node>
	<node id="-544086" lat="61.9019694443" lon="5.98855277977">
		<tag k="bridge" v="yes" />
		<tag k="layer" v="1" />
		<tag k="name" v="Os" />
		<tag k="ssr:stedsnr" v="229702" />
	</node>
	<node id="-544085" lat="61.8776527757" lon="5.77049444053">
		<tag k="bridge" v="yes" />
		<tag k="layer" v="1" />
		<tag k="name" v="Maragjølet" />
		<tag k="ssr:stedsnr" v="229691" />
	</node>
	<node id="-545106" lat="61.9027777792" lon="6.02031665812">
		<tag k="bridge" v="yes" />
		<tag k="layer" v="1" />
		<tag k="name" v="Steinhellar" />
		<tag k="ssr:stedsnr" v="836683" />
	</node>
	<node id="-545105" lat="61.9235666689" lon="5.60136667455">
		<tag k="bridge" v="yes" />
		<tag k="layer" v="1" />
		<tag k="name" v="Ervik" />
		<tag k="ssr:stedsnr" v="836668" />
	</node>
	<node id="-544336" lat="61.9026527765" lon="6.21265277859">
		<tag k="layer" v="-1" />
		<tag k="loc_name" v="Litlegjøltunnelen" />
		<tag k="name" v="Lisjejøl" />
		<tag k="ssr:stedsnr" v="529284" />
		<tag k="tunnel" v="yes" />
	</node>
	<node id="-543055" lat="61.9251888911" lon="5.54772222701">
		<tag k="alt_name" v="Vindfylle" />
		<tag k="layer" v="-1" />
		<tag k="name" v="Vindfylletunnelen" />
		<tag k="ssr:stedsnr" v="271461" />
		<tag k="tunnel" v="yes" />
	</node>
	<node id="-543181" lat="61.8248527795" lon="5.99838889308">
		<tag k="layer" v="-1" />
		<tag k="name" v="Eikenestunnelen" />
		<tag k="ssr:stedsnr" v="329435" />
		<tag k="tunnel" v="yes" />
	</node>
	<node id="-543573" lat="61.9013250001" lon="6.2218222147">
		<tag k="alt_name" v="Marajøl" />
		<tag k="layer" v="-1" />
		<tag k="loc_name" v="Maragjøltunnelen" />
		<tag k="name" v="Marajøltunnelen" />
		<tag k="ssr:stedsnr" v="24063" />
		<tag k="tunnel" v="yes" />
	</node>
	<node id="-543799" lat="61.918463889" lon="5.76357221956">
		<tag k="bridge" v="yes" />
		<tag k="layer" v="1" />
		<tag k="name" v="Stårheim" />
		<tag k="ssr:stedsnr" v="108696" />
	</node>
	<node id="-543813" lat="61.8979944427" lon="5.9802305545">
		<tag k="highway" v="path" />
		<tag k="name" v="Stien" />
		<tag k="ssr:stedsnr" v="108836" />
	</node>
	<node id="-543798" lat="61.93579722" lon="6.41086943966">
		<tag k="bridge" v="yes" />
		<tag k="layer" v="1" />
		<tag k="name" v="Holmøy" />
		<tag k="ssr:stedsnr" v="108692" />
	</node>
	<node id="-544958" lat="61.9138888848" lon="5.72424444491">
		<tag k="amenity" v="ferry_terminal" />
		<tag k="name" v="Stårheim ferjekai" />
		<tag k="ssr:stedsnr" v="775701" />
	</node>
	<node id="-544821" lat="61.9291805578" lon="5.76637499796">
		<tag k="bridge" v="yes" />
		<tag k="layer" v="1" />
		<tag k="name" v="Solheim" />
		<tag k="ssr:stedsnr" v="715690" />
	</node>
	<node id="-544956" lat="61.9136944469" lon="5.96120555094">
		<tag k="bridge" v="yes" />
		<tag k="layer" v="1" />
		<tag k="name" v="Skårhaug" />
		<tag k="ssr:stedsnr" v="775684" />
	</node>
	<node id="-544955" lat="61.9025638896" lon="6.2129638819">
		<tag k="bridge" v="yes" />
		<tag k="layer" v="1" />
		<tag k="name" v="Maragjølet" />
		<tag k="ssr:stedsnr" v="775674" />
	</node>
	<node id="-544825" lat="61.9197694443" lon="5.79776111108">
		<tag k="bridge" v="yes" />
		<tag k="layer" v="1" />
		<tag k="name" v="Torvik" />
		<tag k="ssr:stedsnr" v="715711" />
	</node>
	<node id="-543928" lat="61.9123749975" lon="5.98376111359">
		<tag k="bridge" v="yes" />
		<tag k="layer" v="1" />
		<tag k="name" v="Fargar" />
		<tag k="ssr:stedsnr" v="168684" />
	</node>
	<node id="-544823" lat="61.9047166646" lon="6.14037777538">
		<tag k="bridge" v="yes" />
		<tag k="layer" v="1" />
		<tag k="name" v="Nes" />
		<tag k="ssr:stedsnr" v="715697" />
	</node>
	<node id="-544822" lat="61.9310361108" lon="5.81548888173">
		<tag k="bridge" v="yes" />
		<tag k="layer" v="1" />
		<tag k="name" v="Nygård" />
		<tag k="ssr:stedsnr" v="715695" />
	</node>
	<node id="-544693" lat="61.9607583333" lon="5.96740277345">
		<tag k="bridge" v="yes" />
		<tag k="layer" v="1" />
		<tag k="name" v="Ljøsurbrua" />
		<tag k="ssr:stedsnr" v="654930" />
	</node>
	<node id="-543796" lat="61.8531388893" lon="6.12030277749">
		<tag k="bridge" v="yes" />
		<tag k="layer" v="1" />
		<tag k="name" v="Bjørnestigen" />
		<tag k="ssr:stedsnr" v="108684" />
	</node>
	<node id="-544819" lat="61.9472305553" lon="5.89809999497">
		<tag k="alt_name" v="Espe bru" />
		<tag k="bridge" v="yes" />
		<tag k="layer" v="1" />
		<tag k="name" v="Espe" />
		<tag k="ssr:stedsnr" v="715681" />
	</node>
	<node id="-543795" lat="61.9335638924" lon="6.24545278367">
		<tag k="bridge" v="yes" />
		<tag k="layer" v="1" />
		<tag k="name" v="Andersbakken" />
		<tag k="ssr:stedsnr" v="108682" />
	</node>
	<node id="-544687" lat="61.8687694484" lon="6.07384444936">
		<tag k="bridge" v="yes" />
		<tag k="layer" v="1" />
		<tag k="name" v="Sag" />
		<tag k="ssr:stedsnr" v="654701" />
	</node>
	<node id="-544686" lat="61.9263888878" lon="5.51636944716">
		<tag k="bridge" v="yes" />
		<tag k="layer" v="1" />
		<tag k="name" v="Midthjell kulvert" />
		<tag k="ssr:stedsnr" v="654689" />
	</node>
	<node id="-543398" lat="61.9650166672" lon="6.27173054599">
		<tag k="bridge" v="yes" />
		<tag k="layer" v="1" />
		<tag k="name" v="Raudgrøtselva" />
		<tag k="ssr:stedsnr" v="411681" />
	</node>
	<node id="-543397" lat="61.9153916648" lon="5.67113610517">
		<tag k="bridge" v="yes" />
		<tag k="layer" v="1" />
		<tag k="name" v="Reksnes" />
		<tag k="ssr:stedsnr" v="411678" />
	</node>
	<node id="-543396" lat="61.9026611146" lon="6.22981387963">
		<tag k="bridge" v="yes" />
		<tag k="layer" v="1" />
		<tag k="name" v="Furerinden" />
		<tag k="ssr:stedsnr" v="411667" />
	</node>
	<node id="-543267" lat="61.8843361133" lon="5.87992777567">
		<tag k="highway" v="path" />
		<tag k="name" v="Geitevegen" />
		<tag k="ssr:stedsnr" v="350855" />
	</node>
	<node id="-544417" lat="61.8711888916" lon="5.79635832827">
		<tag k="bridge" v="yes" />
		<tag k="layer" v="1" />
		<tag k="name" v="Torheim" />
		<tag k="ssr:stedsnr" v="533726" />
	</node>
	<node id="-544416" lat="61.9428666698" lon="6.31337500428">
		<tag k="bridge" v="yes" />
		<tag k="layer" v="1" />
		<tag k="name" v="Grimsjølet" />
		<tag k="ssr:stedsnr" v="533704" />
	</node>
	<node id="-545054" lat="61.9207166641" lon="5.85323333587">
		<tag k="highway" v="path" />
		<tag k="name" v="Stien" />
		<tag k="ssr:stedsnr" v="834090" />
	</node>
	<node id="-544517" lat="61.9139166698" lon="5.72435555693">
		<tag k="man_made" v="quay" />
		<tag k="name" v="Jarbryggja" />
		<tag k="place" v="locality" />
		<tag k="ssr:stedsnr" v="593944" />
	</node>
	<node id="-543643" lat="61.9138777752" lon="6.0893444386">
		<tag k="alt_name" v="Nor bru" />
		<tag k="bridge" v="yes" />
		<tag k="layer" v="1" />
		<tag k="name" v="Nor" />
		<tag k="ssr:stedsnr" v="47704" />
	</node>
	<node id="-544794" lat="61.9117722179" lon="6.10807777116">
		<tag k="junction" v="yes" />
		<tag k="name" v="Velte" />
		<tag k="place" v="locality" />
		<tag k="ssr:stedsnr" v="714707" />
	</node>
	<node id="-543494" lat="61.9362555515" lon="5.82697499512">
		<tag k="bridge" v="yes" />
		<tag k="layer" v="1" />
		<tag k="name" v="Slettebø" />
		<tag k="ssr:stedsnr" v="897671" />
	</node>
	<node id="-543960" lat="61.9136166645" lon="6.0944611057">
		<tag k="bridge" v="yes" />
		<tag k="layer" v="1" />
		<tag k="name" v="Nor" />
		<tag k="ssr:stedsnr" v="169697" />
	</node>
	<node id="-544279" lat="61.9301694433" lon="6.3821722281">
		<tag k="bridge" v="yes" />
		<tag k="layer" v="1" />
		<tag k="name" v="Såta" />
		<tag k="ssr:stedsnr" v="472690" />
	</node>
	<node id="-544278" lat="61.9252333334" lon="5.88369443694">
		<tag k="bridge" v="yes" />
		<tag k="layer" v="1" />
		<tag k="name" v="Bjørhovde" />
		<tag k="ssr:stedsnr" v="472661" />
	</node>
	<node id="-543253" lat="61.9395472227" lon="6.41038332647">
		<tag k="man_made" v="cairn" />
		<tag k="name" v="Holmøyane varde" />
		<tag k="place" v="locality" />
		<tag k="ssr:stedsnr" v="350764" />
	</node>
	<node id="-545044" lat="61.9014749976" lon="6.24715556495">
		<tag k="alt_name" v="Breisvor" />
		<tag k="layer" v="-1" />
		<tag k="name" v="Breisvortunnelen" />
		<tag k="ssr:stedsnr" v="822299" />
		<tag k="tunnel" v="yes" />
	</node>
	<node id="-545299" lat="61.8575250028" lon="6.19441387951">
		<tag k="highway" v="path" />
		<tag k="name" v="Loggveien" />
		<tag k="ssr:stedsnr" v="957831" />
	</node>
	<node id="-543797" lat="61.919597225" lon="5.85378054742">
		<tag k="bridge" v="yes" />
		<tag k="layer" v="1" />
		<tag k="name" v="Naustdal" />
		<tag k="ssr:stedsnr" v="108685" />
	</node>
	<node id="-544824" lat="61.9364722259" lon="6.45224444425">
		<tag k="bridge" v="yes" />
		<tag k="layer" v="1" />
		<tag k="name" v="Vikselva" />
		<tag k="ssr:stedsnr" v="715709" />
	</node>
	<node id="-543576" lat="61.922833336" lon="6.34123611864">
		<tag k="alt_name" v="Kongeneset" />
		<tag k="layer" v="-1" />
		<tag k="name" v="Kongeneset tunnel" />
		<tag k="ssr:stedsnr" v="33279" />
		<tag k="tunnel" v="yes" />
	</node>
	<node id="-543929" lat="61.8729972194" lon="6.0710527768">
		<tag k="bridge" v="yes" />
		<tag k="layer" v="1" />
		<tag k="name" v="Årskog" />
		<tag k="ssr:stedsnr" v="168714" />
	</node>
	<node id="-543245" lat="61.8615027805" lon="6.09639445185">
		<tag k="bridge" v="yes" />
		<tag k="layer" v="1" />
		<tag k="name" v="Lotsberg" />
		<tag k="ssr:stedsnr" v="350676" />
	</node>
	<node id="-544524" lat="61.9277916668" lon="6.36220834026">
		<tag k="highway" v="path" />
		<tag k="name" v="Setrevegen" />
		<tag k="ssr:stedsnr" v="593712" />
	</node>
	<node id="-543112" lat="61.9031888881" lon="6.00429167033">
		<tag k="bridge" v="yes" />
		<tag k="layer" v="1" />
		<tag k="name" v="Skipenes" />
		<tag k="ssr:stedsnr" v="290643" />
	</node>
	<node id="-543111" lat="61.9226861118" lon="5.58254723047">
		<tag k="bridge" v="yes" />
		<tag k="layer" v="1" />
		<tag k="name" v="Haus" />
		<tag k="ssr:stedsnr" v="290640" />
	</node>
	<node id="-544518" lat="61.8979944422" lon="5.86773889841">
		<tag k="bridge" v="yes" />
		<tag k="layer" v="1" />
		<tag k="name" v="Hundeide" />
		<tag k="ssr:stedsnr" v="593639" />
	</node>
	<node id="-543493" lat="61.9037805575" lon="6.26008611728">
		<tag k="bridge" v="yes" />
		<tag k="layer" v="1" />
		<tag k="name" v="Henneelva" />
		<tag k="ssr:stedsnr" v="897667" />
	</node>
	<node id="-543958" lat="61.8639666645" lon="6.07971945282">
		<tag k="amenity" v="ferry_terminal" />
		<tag k="name" v="Lote ferjekai" />
		<tag k="ssr:stedsnr" v="169684" />
	</node>
	<node id="-543361" lat="61.9341166661" lon="6.43753055164">
		<tag k="fixme" v="consider highway=path" />
		<tag k="highway" v="track" />
		<tag k="name" v="Pestigen" />
		<tag k="ssr:stedsnr" v="411045" />
	</node>
</osm>
