<?xml version="1.0" encoding="UTF-8"?>
<osm generator="osmapis" version="0.6">
	<node id="-543232" lat="61.9552694453" lon="5.6398527801">
		<tag k="name" v="Gjeddalsmyrane" />
		<tag k="natural" v="wetland" />
		<tag k="ssr:stedsnr" v="228104" />
	</node>
	<node id="-543230" lat="61.8816972178" lon="5.79789165876">
		<tag k="name" v="Kuskormyra" />
		<tag k="natural" v="wetland" />
		<tag k="ssr:stedsnr" v="227533" />
	</node>
	<node id="-544253" lat="61.9238416696" lon="5.85901111163">
		<tag k="name" v="Vårset" />
		<tag k="place" v="locality" />
		<tag k="ssr:stedsnr" v="834370" />
	</node>
	<node id="-543228" lat="61.9345250011" lon="5.51630833336">
		<tag k="name" v="Høgemyra" />
		<tag k="natural" v="wetland" />
		<tag k="ssr:stedsnr" v="227435" />
	</node>
	<node id="-544251" lat="61.9543777781" lon="5.82417776979">
		<tag k="name" v="Øyane" />
		<tag k="natural" v="wetland" />
		<tag k="ssr:stedsnr" v="834280" />
	</node>
	<node id="-542693" lat="61.9001055532" lon="5.98889722966">
		<tag k="name" v="Myrateigen" />
		<tag k="place" v="locality" />
		<tag k="ssr:stedsnr" v="897788" />
	</node>
	<node id="-543716" lat="61.918494444" lon="5.88591667117">
		<tag k="name" v="Espene" />
		<tag k="place" v="locality" />
		<tag k="ssr:stedsnr" v="593754" />
	</node>
	<node id="-542691" lat="61.9265833308" lon="6.3577583418">
		<tag k="name" v="Svaet" />
		<tag k="place" v="locality" />
		<tag k="ssr:stedsnr" v="897743" />
	</node>
	<node id="-543227" lat="61.9335666669" lon="5.52957500911">
		<tag k="name" v="Furemyra" />
		<tag k="natural" v="wetland" />
		<tag k="ssr:stedsnr" v="227386" />
	</node>
	<node id="-543712" lat="61.9619888905" lon="5.76668333022">
		<tag k="name" v="Bauvassmyrane" />
		<tag k="natural" v="wetland" />
		<tag k="ssr:stedsnr" v="593699" />
	</node>
	<node id="-542679" lat="61.8975527752" lon="6.0492666661">
		<tag k="name" v="Rotigarden" />
		<tag k="place" v="locality" />
		<tag k="ssr:stedsnr" v="897535" />
	</node>
	<node id="-543702" lat="61.922266664" lon="5.99491110766">
		<tag k="name" v="Myrkviene" />
		<tag k="place" v="locality" />
		<tag k="ssr:stedsnr" v="593479" />
	</node>
	<node id="-542677" lat="61.8905500043" lon="5.78571389045">
		<tag k="name" v="Bjørnasteinen" />
		<tag k="natural" v="stone" />
		<tag k="ssr:stedsnr" v="897471" />
	</node>
	<node id="-542672" lat="61.8565888908" lon="6.15281666521">
		<tag k="name" v="Åsemyrane" />
		<tag k="natural" v="wetland" />
		<tag k="ssr:stedsnr" v="897340" />
	</node>
	<node id="-543691" lat="61.8724972242" lon="5.78024167395">
		<tag k="name" v="Bulegene" />
		<tag k="place" v="locality" />
		<tag k="ssr:stedsnr" v="593623" />
	</node>
	<node id="-543687" lat="61.9461444444" lon="5.84231666648">
		<tag k="name" v="Skaremyra" />
		<tag k="natural" v="wetland" />
		<tag k="ssr:stedsnr" v="593242" />
	</node>
	<node id="-542662" lat="61.9468500021" lon="5.84689722142">
		<tag k="name" v="Skinstø" />
		<tag k="natural" v="wetland" />
		<tag k="ssr:stedsnr" v="897252" />
	</node>
	<node id="-543680" lat="61.9180833367" lon="6.22485278439">
		<tag k="name" v="Teleura" />
		<tag k="natural" v="scree" />
		<tag k="ssr:stedsnr" v="593094" />
	</node>
	<node id="-543673" lat="61.9451777754" lon="5.63098610655">
		<tag k="name" v="Tårnmyrane" />
		<tag k="natural" v="wetland" />
		<tag k="ssr:stedsnr" v="592088" />
	</node>
	<node id="-544176" lat="61.9134972229" lon="6.04717499971">
		<tag k="name" v="Bakkane" />
		<tag k="place" v="locality" />
		<tag k="ssr:stedsnr" v="776000" />
	</node>
	<node id="-543146" lat="61.9084777751" lon="6.04268889416">
		<tag k="name" v="Moldbakken" />
		<tag k="place" v="locality" />
		<tag k="ssr:stedsnr" v="168995" />
	</node>
	<node id="-542633" lat="61.9230000015" lon="6.40414166753">
		<tag k="name" v="Øvste Heiavadet" />
		<tag k="place" v="locality" />
		<tag k="ssr:stedsnr" v="896838" />
	</node>
	<node id="-542628" lat="61.9217472178" lon="5.85621388656">
		<tag k="name" v="Nymarka" />
		<tag k="place" v="locality" />
		<tag k="ssr:stedsnr" v="895346" />
	</node>
	<node id="-544163" lat="61.8885555591" lon="5.8707027792">
		<tag k="name" v="Kyrkjemyrane" />
		<tag k="natural" v="wetland" />
		<tag k="ssr:stedsnr" v="775864" />
	</node>
	<node id="-542626" lat="61.9535083347" lon="5.53358611001">
		<tag k="name" v="Slettebakkskogen" />
		<tag k="place" v="locality" />
		<tag k="ssr:stedsnr" v="894524" />
	</node>
	<node id="-544156" lat="61.8812249961" lon="5.89008611306">
		<tag k="name" v="Dalsmyra" />
		<tag k="natural" v="wetland" />
		<tag k="ssr:stedsnr" v="775775" />
	</node>
	<node id="-542619" lat="61.9329833301" lon="6.23860000154">
		<tag k="name" v="Videmyra" />
		<tag k="natural" v="wetland" />
		<tag k="ssr:stedsnr" v="411948" />
	</node>
	<node id="-543130" lat="61.9164527803" lon="6.3164527829">
		<tag k="name" v="Klovningen" />
		<tag k="place" v="locality" />
		<tag k="ssr:stedsnr" v="168803" />
	</node>
	<node id="-544152" lat="61.9493583336" lon="5.75222500792">
		<tag k="name" v="Trollsteinen" />
		<tag k="natural" v="stone" />
		<tag k="ssr:stedsnr" v="775755" />
	</node>
	<node id="-544151" lat="61.9121055513" lon="6.06699167253">
		<tag k="name" v="Stokkemyra" />
		<tag k="natural" v="wetland" />
		<tag k="ssr:stedsnr" v="775732" />
	</node>
	<node id="-542579" lat="61.9588888885" lon="6.22431387981">
		<tag k="name" v="Bjørnalogen" />
		<tag k="natural" v="wetland" />
		<tag k="ssr:stedsnr" v="411407" />
	</node>
	<node id="-543600" lat="61.9370694438" lon="6.25552221813">
		<tag k="name" v="Teigane" />
		<tag k="place" v="locality" />
		<tag k="ssr:stedsnr" v="532971" />
	</node>
	<node id="-542354" lat="61.8902416659" lon="5.90561666055">
		<tag k="historic" v="shieling" />
		<tag k="name" v="Stølen" />
		<tag k="place" v="locality" />
		<tag k="ssr:stedsnr" v="313614" />
	</node>
	<node id="-543081" lat="61.9519222187" lon="6.31558888662">
		<tag k="name" v="Botnamyra" />
		<tag k="natural" v="wetland" />
		<tag k="ssr:stedsnr" v="168135" />
	</node>
	<node id="-544104" lat="61.9397750021" lon="6.43032500527">
		<tag k="name" v="Nesjane" />
		<tag k="place" v="locality" />
		<tag k="ssr:stedsnr" v="775050" />
	</node>
	<node id="-544316" lat="61.8755944415" lon="5.96217221335">
		<tag k="name" v="Klipemyra" />
		<tag k="natural" v="wetland" />
		<tag k="ssr:stedsnr" v="836851" />
	</node>
	<node id="-542566" lat="61.8770305545" lon="5.8094166596">
		<tag k="name" v="Stølskleivmyra" />
		<tag k="natural" v="wetland" />
		<tag k="ssr:stedsnr" v="411236" />
	</node>
	<node id="-544098" lat="61.9575805591" lon="5.66173611897">
		<tag k="name" v="Navestølsmyrane" />
		<tag k="natural" v="wetland" />
		<tag k="ssr:stedsnr" v="774070" />
	</node>
	<node id="-543585" lat="61.9590444438" lon="5.72342777535">
		<tag k="name" v="Frobergsmyrane" />
		<tag k="natural" v="wetland" />
		<tag k="ssr:stedsnr" v="532759" />
	</node>
	<node id="-543070" lat="61.9402444467" lon="5.86367500705">
		<tag k="name" v="Bentstølen" />
		<tag k="place" v="locality" />
		<tag k="ssr:stedsnr" v="166387" />
	</node>
	<node id="-544093" lat="61.9550111156" lon="5.89770556051">
		<tag k="name" v="Skjøljingane" />
		<tag k="place" v="locality" />
		<tag k="ssr:stedsnr" v="773339" />
	</node>
	<node id="-542556" lat="61.9692972196" lon="6.4158000004">
		<tag k="name" v="Lindesteinen" />
		<tag k="natural" v="stone" />
		<tag k="ssr:stedsnr" v="411056" />
	</node>
	<node id="-543061" lat="61.9467972222" lon="5.52799723081">
		<tag k="name" v="Slåttene" />
		<tag k="place" v="locality" />
		<tag k="ssr:stedsnr" v="165480" />
	</node>
	<node id="-544082" lat="61.9250166686" lon="5.84644165934">
		<tag k="name" v="Skamyra" />
		<tag k="natural" v="wetland" />
		<tag k="ssr:stedsnr" v="772029" />
	</node>
	<node id="-544078" lat="61.8765083318" lon="6.24632777285">
		<tag k="name" v="Smørklemyrane" />
		<tag k="natural" v="wetland" />
		<tag k="ssr:stedsnr" v="756498" />
	</node>
	<node id="-543558" lat="61.9166805561" lon="5.88427222121">
		<tag k="name" v="Hyljarsteinen" />
		<tag k="natural" v="stone" />
		<tag k="ssr:stedsnr" v="532215" />
	</node>
	<node id="-543543" lat="61.9440805528" lon="5.64016667254">
		<tag k="name" v="Gamlesetra" />
		<tag k="place" v="locality" />
		<tag k="ssr:stedsnr" v="532087" />
	</node>
	<node id="-543541" lat="61.9684333325" lon="6.40514722464">
		<tag k="name" v="Langesteinen" />
		<tag k="place" v="locality" />
		<tag k="ssr:stedsnr" v="532047" />
	</node>
	<node id="-542268" lat="61.9296222242" lon="6.44116388432">
		<tag k="name" v="Karimyra" />
		<tag k="natural" v="wetland" />
		<tag k="ssr:stedsnr" v="290052" />
	</node>
	<node id="-542259" lat="61.9252916686" lon="6.40505277129">
		<tag k="name" v="Nedste Heiavadet" />
		<tag k="place" v="locality" />
		<tag k="ssr:stedsnr" v="289845" />
	</node>
	<node id="-543534" lat="61.9321666644" lon="5.54359722781">
		<tag k="name" v="Svarteskogen" />
		<tag k="place" v="locality" />
		<tag k="ssr:stedsnr" v="530512" />
	</node>
	<node id="-543529" lat="61.940183337" lon="5.89150555074">
		<tag k="name" v="Skitnemyra" />
		<tag k="natural" v="wetland" />
		<tag k="ssr:stedsnr" v="530158" />
	</node>
	<node id="-543703" lat="61.9189777767" lon="6.00102776895">
		<tag k="name" v="Urene" />
		<tag k="natural" v="scree" />
		<tag k="ssr:stedsnr" v="593485" />
	</node>
	<node id="-542983" lat="61.8916611146" lon="5.75581387954">
		<tag k="name" v="Brattestisteinen" />
		<tag k="natural" v="stone" />
		<tag k="ssr:stedsnr" v="108657" />
	</node>
	<node id="-542763" lat="61.9250166708" lon="5.73662500276">
		<tag k="name" v="Skjenstømyra" />
		<tag k="natural" v="wetland" />
		<tag k="ssr:stedsnr" v="25947" />
	</node>
	<node id="-543463" lat="61.9351666625" lon="6.1035194506">
		<tag k="name" v="Sollimyra" />
		<tag k="natural" v="wetland" />
		<tag k="ssr:stedsnr" v="472607" />
	</node>
	<node id="-542438" lat="61.8976861081" lon="6.05302499138">
		<tag k="name" v="Gråsteinen" />
		<tag k="natural" v="stone" />
		<tag k="ssr:stedsnr" v="350703" />
	</node>
	<node id="-543461" lat="61.9350416659" lon="5.74709166225">
		<tag k="name" v="Buska" />
		<tag k="place" v="locality" />
		<tag k="ssr:stedsnr" v="472554" />
	</node>
	<node id="-543970" lat="61.8719833333" lon="6.13974444953">
		<tag k="name" v="Steinkyrkjevollen" />
		<tag k="place" v="locality" />
		<tag k="ssr:stedsnr" v="714303" />
	</node>
	<node id="-542432" lat="61.9588194416" lon="5.86474445407">
		<tag k="name" v="Grønemyra" />
		<tag k="natural" v="wetland" />
		<tag k="ssr:stedsnr" v="350616" />
	</node>
	<node id="-543967" lat="61.930105552" lon="5.57584723158">
		<tag k="name" v="Sikane" />
		<tag k="place" v="locality" />
		<tag k="ssr:stedsnr" v="714204" />
	</node>
	<node id="-542429" lat="61.9339472204" lon="5.74793333163">
		<tag k="name" v="Rendemyra" />
		<tag k="natural" v="wetland" />
		<tag k="ssr:stedsnr" v="350546" />
	</node>
	<node id="-542427" lat="61.9719999989" lon="5.9970194371">
		<tag k="name" v="Storemyra" />
		<tag k="natural" v="wetland" />
		<tag k="ssr:stedsnr" v="350527" />
	</node>
	<node id="-542936" lat="61.9338805561" lon="6.40665000612">
		<tag k="name" v="Haugaledet" />
		<tag k="place" v="locality" />
		<tag k="ssr:stedsnr" v="107811" />
	</node>
	<node id="-542934" lat="61.9436194461" lon="5.66509165822">
		<tag k="name" v="Furemyrane" />
		<tag k="natural" v="wetland" />
		<tag k="ssr:stedsnr" v="107060" />
	</node>
	<node id="-542927" lat="61.9517055554" lon="5.82394167436">
		<tag k="name" v="Klovsteinen" />
		<tag k="natural" v="stone" />
		<tag k="ssr:stedsnr" v="105315" />
	</node>
	<node id="-543435" lat="61.9596166623" lon="5.77968332777">
		<tag k="name" v="Skitnemyrløkane" />
		<tag k="natural" v="wetland" />
		<tag k="ssr:stedsnr" v="471819" />
	</node>
	<node id="-542667" lat="61.9204638862" lon="6.17141667032">
		<tag k="name" v="Hjellkvila" />
		<tag k="place" v="locality" />
		<tag k="ssr:stedsnr" v="897297" />
	</node>
	<node id="-544448" lat="61.9733805597" lon="6.38086944747">
		<tag k="name" v="Slokemyra" />
		<tag k="natural" v="wetland" />
		<tag k="ssr:stedsnr" v="957060" />
	</node>
	<node id="-542398" lat="61.9029861147" lon="6.21380555235">
		<tag k="name" v="Håmannesteinen" />
		<tag k="natural" v="stone" />
		<tag k="ssr:stedsnr" v="350093" />
	</node>
	<node id="-542392" lat="61.9275444419" lon="6.20632777332">
		<tag k="name" v="Langemyra" />
		<tag k="natural" v="wetland" />
		<tag k="ssr:stedsnr" v="350023" />
	</node>
	<node id="-543413" lat="61.9499361113" lon="5.65364167157">
		<tag k="name" v="Samvadløkane" />
		<tag k="natural" v="wetland" />
		<tag k="ssr:stedsnr" v="471093" />
	</node>
	<node id="-544105" lat="61.9347888911" lon="6.42628333967">
		<tag k="name" v="Dalen" />
		<tag k="place" v="locality" />
		<tag k="ssr:stedsnr" v="775052" />
	</node>
	<node id="-542384" lat="61.8930027788" lon="5.86240277706">
		<tag k="name" v="Toppmyra" />
		<tag k="natural" v="wetland" />
		<tag k="ssr:stedsnr" v="348184" />
	</node>
	<node id="-542377" lat="61.9023777782" lon="5.98185555142">
		<tag k="name" v="Osøyrane" />
		<tag k="place" v="locality" />
		<tag k="ssr:stedsnr" v="342917" />
	</node>
	<node id="-543400" lat="61.9847638875" lon="5.96920833664">
		<tag k="name" v="Ljosura" />
		<tag k="natural" v="scree" />
		<tag k="ssr:stedsnr" v="445749" />
	</node>
	<node id="-542373" lat="61.9258833306" lon="5.7009416655">
		<tag k="name" v="Myrane" />
		<tag k="natural" v="wetland" />
		<tag k="ssr:stedsnr" v="329929" />
	</node>
	<node id="-543392" lat="61.8794500027" lon="5.96837222396">
		<tag k="name" v="Tispeskarsteinen" />
		<tag k="natural" v="stone" />
		<tag k="ssr:stedsnr" v="435669" />
	</node>
	<node id="-543384" lat="61.9349388871" lon="6.04420832583">
		<tag k="name" v="Løken" />
		<tag k="natural" v="wetland" />
		<tag k="ssr:stedsnr" v="435570" />
	</node>
	<node id="-542866" lat="61.9185388889" lon="6.03847499841">
		<tag k="name" v="Bøen" />
		<tag k="place" v="locality" />
		<tag k="ssr:stedsnr" v="70550" />
	</node>
	<node id="-542852" lat="61.9274694413" lon="5.98065556315">
		<tag k="historic" v="shieling" />
		<tag k="name" v="Storesletta" />
		<tag k="place" v="locality" />
		<tag k="ssr:stedsnr" v="47899" />
	</node>
	<node id="-542842" lat="61.8893749976" lon="5.89213333029">
		<tag k="name" v="Søre Vetestein" />
		<tag k="natural" v="stone" />
		<tag k="ssr:stedsnr" v="47787" />
	</node>
	<node id="-542837" lat="61.9628305577" lon="5.73002499748">
		<tag k="name" v="Tårnsteinane" />
		<tag k="natural" v="stone" />
		<tag k="ssr:stedsnr" v="47758" />
	</node>
	<node id="-542310" lat="61.9284472192" lon="6.37875278629">
		<tag k="name" v="Fletene" />
		<tag k="place" v="locality" />
		<tag k="ssr:stedsnr" v="290742" />
	</node>
	<node id="-542816" lat="61.9532083362" lon="6.22591667249">
		<tag k="name" v="Trebytemyra" />
		<tag k="natural" v="wetland" />
		<tag k="ssr:stedsnr" v="47433" />
	</node>
	<node id="-543838" lat="61.8892361114" lon="5.77562500569">
		<tag k="name" v="Gummimyra" />
		<tag k="natural" v="wetland" />
		<tag k="ssr:stedsnr" v="653764" />
	</node>
	<node id="-544185" lat="61.9660277755" lon="5.79360555415">
		<tag k="name" v="Kvitesanden" />
		<tag k="natural" v="beach" />
		<tag k="ssr:stedsnr" v="799005" />
		<tag k="surface" v="sand" />
	</node>
	<node id="-542804" lat="61.8797972263" lon="5.86562222502">
		<tag k="name" v="Bortremyra" />
		<tag k="natural" v="wetland" />
		<tag k="ssr:stedsnr" v="47184" />
	</node>
	<node id="-542803" lat="61.8796055524" lon="5.8135083301">
		<tag k="name" v="Hjellhyllemyra" />
		<tag k="natural" v="wetland" />
		<tag k="ssr:stedsnr" v="47181" />
	</node>
	<node id="-542800" lat="61.9054333337" lon="6.28548056492">
		<tag k="name" v="Gildremyra" />
		<tag k="natural" v="wetland" />
		<tag k="ssr:stedsnr" v="47072" />
	</node>
	<node id="-543308" lat="61.8889749975" lon="5.74780555064">
		<tag k="name" v="Urdene" />
		<tag k="natural" v="scree" />
		<tag k="ssr:stedsnr" v="252382" />
	</node>
	<node id="-543573" lat="61.9649027736" lon="6.23924444697">
		<tag k="name" v="Storemyra" />
		<tag k="natural" v="wetland" />
		<tag k="ssr:stedsnr" v="532473" />
	</node>
	<node id="-544327" lat="61.9281888909" lon="6.21152778683">
		<tag k="name" v="Langemyr" />
		<tag k="natural" v="wetland" />
		<tag k="ssr:stedsnr" v="859530" />
	</node>
	<node id="-543814" lat="61.9186194478" lon="5.89223054626">
		<tag k="name" v="Sefrutufta" />
		<tag k="place" v="locality" />
		<tag k="ssr:stedsnr" v="653220" />
	</node>
	<node id="-543299" lat="61.9188277762" lon="5.71441665962">
		<tag k="name" v="Neset" />
		<tag k="place" v="locality" />
		<tag k="ssr:stedsnr" v="229935" />
	</node>
	<node id="-543298" lat="61.9359111136" lon="5.7845277707">
		<tag k="name" v="Hushamremyrane" />
		<tag k="natural" v="wetland" />
		<tag k="ssr:stedsnr" v="229927" />
	</node>
	<node id="-543296" lat="61.9367305567" lon="5.80116665741">
		<tag k="name" v="Breimyra" />
		<tag k="natural" v="wetland" />
		<tag k="ssr:stedsnr" v="229919" />
	</node>
	<node id="-543807" lat="61.9516500004" lon="5.66688610512">
		<tag k="name" v="Furhovdemyra" />
		<tag k="natural" v="wetland" />
		<tag k="ssr:stedsnr" v="653053" />
	</node>
	<node id="-543806" lat="61.893019446" lon="5.78371944393">
		<tag k="name" v="Nakkesteinen" />
		<tag k="natural" v="stone" />
		<tag k="ssr:stedsnr" v="651541" />
	</node>
	<node id="-543805" lat="61.8957777777" lon="5.80112223131">
		<tag k="name" v="Tingvollen" />
		<tag k="place" v="locality" />
		<tag k="ssr:stedsnr" v="651539" />
	</node>
	<node id="-542780" lat="61.9226833375" lon="5.89158888637">
		<tag k="name" v="Tippamyrane" />
		<tag k="natural" v="wetland" />
		<tag k="ssr:stedsnr" v="45148" />
	</node>
	<node id="-542388" lat="61.9596666663" lon="5.8996749949">
		<tag k="name" v="Aksla" />
		<tag k="place" v="locality" />
		<tag k="ssr:stedsnr" v="348351" />
	</node>
	<node id="-544309" lat="61.8922611137" lon="5.89069722244">
		<tag k="name" v="Nordre Vetestein" />
		<tag k="natural" v="stone" />
		<tag k="ssr:stedsnr" v="836786" />
	</node>
	<node id="-543283" lat="61.8879500002" lon="5.89629444431">
		<tag k="name" v="Dalshaugmyra" />
		<tag k="natural" v="wetland" />
		<tag k="ssr:stedsnr" v="229779" />
	</node>
	<node id="-542557" lat="61.9749777804" lon="6.38183888106">
		<tag k="name" v="Storeura" />
		<tag k="natural" v="scree" />
		<tag k="ssr:stedsnr" v="411063" />
	</node>
	<node id="-543787" lat="61.9186972235" lon="5.82471944092">
		<tag k="name" v="Vårstølane" />
		<tag k="place" v="locality" />
		<tag k="ssr:stedsnr" v="650098" />
	</node>
	<node id="-542250" lat="61.9194111075" lon="5.83122222368">
		<tag k="name" v="Lappura" />
		<tag k="natural" v="scree" />
		<tag k="ssr:stedsnr" v="287111" />
	</node>
	<node id="-542247" lat="61.9323833355" lon="5.83776945357">
		<tag k="name" v="Lokane" />
		<tag k="natural" v="wetland" />
		<tag k="ssr:stedsnr" v="287009" />
	</node>
	<node id="-543270" lat="61.8929694448" lon="6.01634999978">
		<tag k="name" v="Gamletuftene" />
		<tag k="place" v="locality" />
		<tag k="ssr:stedsnr" v="229588" />
	</node>
	<node id="-542634" lat="61.9130666674" lon="6.29863333715">
		<tag k="name" v="Myreteigen" />
		<tag k="place" v="locality" />
		<tag k="ssr:stedsnr" v="896860" />
	</node>
	<node id="-544276" lat="61.9623416634" lon="6.25712499564">
		<tag k="name" v="Løkamyrane" />
		<tag k="natural" v="wetland" />
		<tag k="ssr:stedsnr" v="836320" />
	</node>
	<node id="-544269" lat="61.9511027756" lon="6.33631667235">
		<tag k="name" v="Skjellingesteinen" />
		<tag k="natural" v="stone" />
		<tag k="ssr:stedsnr" v="836183" />
	</node>
	<node id="-544265" lat="61.949458335" lon="6.36001389573">
		<tag k="name" v="Fjellbøen" />
		<tag k="place" v="locality" />
		<tag k="ssr:stedsnr" v="836150" />
	</node>
	<node id="-544264" lat="61.9049750019" lon="6.19536110401">
		<tag k="name" v="Storemyra" />
		<tag k="natural" v="wetland" />
		<tag k="ssr:stedsnr" v="836084" />
	</node>
	<node id="-543235" lat="61.9255472202" lon="6.17712222386">
		<tag k="name" v="Storura" />
		<tag k="natural" v="scree" />
		<tag k="ssr:stedsnr" v="229042" />
	</node>
</osm>
