<?xml version="1.0" encoding="UTF-8"?>
<osm generator="osmapis" version="0.6">
	<node id="-542715" lat="61.9186666661" lon="5.85904721895">
		<tag k="alt_name" v="Naustdalselva" />
		<tag k="name" v="Hjalma" />
		<tag k="ssr:stedsnr" v="10266" />
		<tag k="waterway" v="river" />
	</node>
	<node id="-542713" lat="61.9643916684" lon="5.87201111182">
		<tag k="name" v="Nesbakkelva" />
		<tag k="ssr:stedsnr" v="10255" />
		<tag k="waterway" v="stream" />
	</node>
	<node id="-544201" lat="61.9452250023" lon="5.69720833088">
		<tag k="name" v="Svartevatnet" />
		<tag k="natural" v="water" />
		<tag k="ssr:stedsnr" v="799491" />
	</node>
	<node id="-542710" lat="61.9792582027" lon="6.28903560428">
		<tag k="alt_name" v="Grønedalsvatnet" />
		<tag k="name" v="Grøndalsvatnet" />
		<tag k="natural" v="water" />
		<tag k="ssr:stedsnr" v="616870" />
		<tag k="water" v="lake" />
	</node>
	<node id="-543221" lat="61.9569305573" lon="5.82492500283">
		<tag k="name" v="Botnaelva" />
		<tag k="ssr:stedsnr" v="227309" />
		<tag k="waterway" v="river" />
	</node>
	<node id="-542708" lat="61.9479249967" lon="5.6916166762">
		<tag k="name" v="Svartevasselva" />
		<tag k="ssr:stedsnr" v="897991" />
		<tag k="waterway" v="stream" />
	</node>
	<node id="-543731" lat="61.9613527799" lon="5.69796388572">
		<tag k="name" v="Langevatnet" />
		<tag k="natural" v="water" />
		<tag k="ssr:stedsnr" v="616008" />
	</node>
	<node id="-543728" lat="61.9136277804" lon="6.04114165979">
		<tag k="name" v="Hildeneset" />
		<tag k="natural" v="cape" />
		<tag k="ssr:stedsnr" v="593988" />
	</node>
	<node id="-542888" lat="61.9467888863" lon="6.03683888582">
		<tag k="name" v="Iglevatnet" />
		<tag k="natural" v="water" />
		<tag k="ssr:stedsnr" v="71568" />
	</node>
	<node id="-544238" lat="61.9334416703" lon="5.82290277503">
		<tag k="name" v="Storelva" />
		<tag k="ssr:stedsnr" v="833047" />
		<tag k="waterway" v="river" />
	</node>
	<node id="-542370" lat="61.9467777817" lon="5.95221666023">
		<tag k="name" v="Kvanndalselva" />
		<tag k="ssr:stedsnr" v="323750" />
		<tag k="waterway" v="stream" />
	</node>
	<node id="-543724" lat="61.9574999974" lon="5.96826110347">
		<tag k="name" v="Tangane" />
		<tag k="natural" v="cape" />
		<tag k="ssr:stedsnr" v="593892" />
	</node>
	<node id="-543718" lat="61.8778388889" lon="5.98937221457">
		<tag k="name" v="Rumpeelva" />
		<tag k="ssr:stedsnr" v="593770" />
		<tag k="waterway" v="stream" />
	</node>
	<node id="-543715" lat="61.9312638865" lon="6.38565834209">
		<tag k="name" v="Litleneset" />
		<tag k="natural" v="cape" />
		<tag k="ssr:stedsnr" v="593744" />
	</node>
	<node id="-544225" lat="61.9587638919" lon="6.33396666097">
		<tag k="name" v="Holmevatnet" />
		<tag k="natural" v="water" />
		<tag k="ssr:stedsnr" v="799914" />
		<tag k="water" v="lake" />
	</node>
	<node id="-542745" lat="61.9534888866" lon="6.36044721514">
		<tag k="name" v="Blekgrova" />
		<tag k="ssr:stedsnr" v="10902" />
		<tag k="waterway" v="stream" />
	</node>
	<node id="-543397" lat="61.9411083342" lon="6.46836389679">
		<tag k="name" v="Bjørnaholmen" />
		<tag k="place" v="islet" />
		<tag k="ssr:stedsnr" v="435952" />
	</node>
	<node id="-544220" lat="61.8620555522" lon="6.17703334137">
		<tag k="name" v="Skveta" />
		<tag k="ssr:stedsnr" v="799677" />
		<tag k="waterway" v="stream" />
	</node>
	<node id="-544219" lat="61.8809749973" lon="6.0812750007">
		<tag k="name" v="Navestøylelva" />
		<tag k="ssr:stedsnr" v="799662" />
		<tag k="waterway" v="stream" />
	</node>
	<node id="-544217" lat="61.8800361133" lon="6.11370000882">
		<tag k="fixme" v="multiple name tags, choose one and add the other to alt_name" />
		<tag k="name" v="Fessene;Sletteiene" />
		<tag k="natural" v="waterfall" />
		<tag k="ssr:stedsnr" v="799654" />
	</node>
	<node id="-543191" lat="61.972222222" lon="6.40003334052">
		<tag k="name" v="Fonna" />
		<tag k="ssr:stedsnr" v="192870" />
		<tag k="waterway" v="stream" />
	</node>
	<node id="-544214" lat="61.8974000002" lon="5.98487500739">
		<tag k="name" v="Gjølelva" />
		<tag k="ssr:stedsnr" v="799615" />
		<tag k="waterway" v="stream" />
	</node>
	<node id="-543189" lat="61.8672222261" lon="6.18022777992">
		<tag k="name" v="Svinåa" />
		<tag k="ssr:stedsnr" v="192690" />
		<tag k="waterway" v="stream" />
	</node>
	<node id="-542486" lat="61.9981083299" lon="6.20358332815">
		<tag k="name" v="Saudvatnet" />
		<tag k="natural" v="water" />
		<tag k="ssr:stedsnr" v="374324" />
	</node>
	<node id="-543183" lat="61.9273166684" lon="6.28519444514">
		<tag k="alt_name" v="Horninsdalsvatnet" />
		<tag k="name" v="Hornindalsvatnet" />
		<tag k="natural" v="water" />
		<tag k="ssr:stedsnr" v="192617" />
		<tag k="water" v="lake" />
	</node>
	<node id="-544206" lat="61.9409388903" lon="6.00186111891">
		<tag k="name" v="Fossevatnet" />
		<tag k="natural" v="water" />
		<tag k="ssr:stedsnr" v="799544" />
	</node>
	<node id="-544204" lat="61.9467416696" lon="5.99532499308">
		<tag k="name" v="Kringlevatnet" />
		<tag k="natural" v="water" />
		<tag k="ssr:stedsnr" v="799529" />
	</node>
	<node id="-544203" lat="61.9610333336" lon="6.16563333094">
		<tag k="name" v="Skåtahølen" />
		<tag k="place" v="locality" />
		<tag k="ssr:stedsnr" v="799516" />
	</node>
	<node id="-542666" lat="61.9167250009" lon="6.12573055089">
		<tag k="name" v="Løken" />
		<tag k="natural" v="water" />
		<tag k="ssr:stedsnr" v="897291" />
		<tag k="water" v="lake" />
	</node>
	<node id="-543689" lat="61.9446277789" lon="6.13794167532">
		<tag k="name" v="Lianeset" />
		<tag k="natural" v="cape" />
		<tag k="ssr:stedsnr" v="593287" />
	</node>
	<node id="-544200" lat="61.9494027809" lon="5.6077749994">
		<tag k="name" v="Kråktjønna" />
		<tag k="natural" v="water" />
		<tag k="ssr:stedsnr" v="799485" />
	</node>
	<node id="-544199" lat="61.9510638903" lon="5.80034999932">
		<tag k="name" v="Holevatnet" />
		<tag k="natural" v="water" />
		<tag k="ssr:stedsnr" v="799480" />
	</node>
	<node id="-543173" lat="61.9361083339" lon="5.54433055728">
		<tag k="name" v="Djupevatnet" />
		<tag k="natural" v="water" />
		<tag k="ssr:stedsnr" v="192516" />
	</node>
	<node id="-542660" lat="61.9194666629" lon="5.88513055326">
		<tag k="name" v="Åsetjørna" />
		<tag k="natural" v="water" />
		<tag k="ssr:stedsnr" v="897225" />
	</node>
	<node id="-543683" lat="61.8895250007" lon="5.82945834123">
		<tag k="name" v="Tverrelva" />
		<tag k="ssr:stedsnr" v="593197" />
		<tag k="waterway" v="stream" />
	</node>
	<node id="-543170" lat="61.9493166628" lon="5.58416667657">
		<tag k="fixme" v="multiple name tags, choose one and add the other to alt_name" />
		<tag k="name" v="Hausvatnet;Storevatnet" />
		<tag k="natural" v="water" />
		<tag k="ssr:stedsnr" v="192505" />
		<tag k="water" v="lake" />
	</node>
	<node id="-543681" lat="61.9055055568" lon="6.20203610397">
		<tag k="name" v="Kviagrova" />
		<tag k="ssr:stedsnr" v="593119" />
		<tag k="waterway" v="stream" />
	</node>
	<node id="-542656" lat="61.9234944472" lon="6.3466666589">
		<tag k="name" v="Mellomgropa" />
		<tag k="ssr:stedsnr" v="897207" />
		<tag k="waterway" v="stream" />
	</node>
	<node id="-544189" lat="61.9572694424" lon="5.87629444275">
		<tag k="name" v="Tjørstadelva" />
		<tag k="ssr:stedsnr" v="799296" />
		<tag k="waterway" v="stream" />
	</node>
	<node id="-543162" lat="61.8692416638" lon="5.82550278202">
		<tag k="name" v="Sørevatnet" />
		<tag k="natural" v="water" />
		<tag k="ssr:stedsnr" v="192379" />
	</node>
	<node id="-542742" lat="61.9636416652" lon="6.25939167433">
		<tag k="name" v="Sætreelva" />
		<tag k="ssr:stedsnr" v="10866" />
		<tag k="waterway" v="stream" />
	</node>
	<node id="-543160" lat="61.9563694462" lon="5.93998055448">
		<tag k="name" v="Harpefossen" />
		<tag k="natural" v="waterfall" />
		<tag k="ssr:stedsnr" v="192306" />
	</node>
	<node id="-543671" lat="61.9498166651" lon="5.68404723075">
		<tag k="name" v="Myrafossen" />
		<tag k="natural" v="waterfall" />
		<tag k="ssr:stedsnr" v="592068" />
	</node>
	<node id="-543668" lat="61.9289055518" lon="5.54255555986">
		<tag k="name" v="Svagrova" />
		<tag k="ssr:stedsnr" v="591383" />
		<tag k="waterway" v="stream" />
	</node>
	<node id="-543154" lat="61.9600027819" lon="5.63480278061">
		<tag k="name" v="Dueelva" />
		<tag k="ssr:stedsnr" v="192013" />
		<tag k="waterway" v="stream" />
	</node>
	<node id="-542641" lat="61.9213583363" lon="6.1809000057">
		<tag k="name" v="Inste Lindvikstranda" />
		<tag k="natural" v="beach" />
		<tag k="ssr:stedsnr" v="897097" />
	</node>
	<node id="-542640" lat="61.9093722258" lon="6.28255833668">
		<tag k="name" v="Skredestranda" />
		<tag k="natural" v="beach" />
		<tag k="ssr:stedsnr" v="897068" />
	</node>
	<node id="-544175" lat="61.9126000022" lon="6.02552500544">
		<tag k="name" v="Åreina" />
		<tag k="natural" v="cape" />
		<tag k="ssr:stedsnr" v="775991" />
	</node>
	<node id="-543237" lat="61.9082944436" lon="6.28299722226">
		<tag k="name" v="Kolefonna" />
		<tag k="ssr:stedsnr" v="229067" />
		<tag k="waterway" v="stream" />
	</node>
	<node id="-543658" lat="61.9316333321" lon="5.81455000712">
		<tag k="alt_name" v="Nygårdselva" />
		<tag k="name" v="Nygardselva" />
		<tag k="ssr:stedsnr" v="590046" />
		<tag k="waterway" v="river" />
	</node>
	<node id="-543145" lat="61.9127805574" lon="6.0297749931">
		<tag k="name" v="Fåhølsfoss" />
		<tag k="natural" v="waterfall" />
		<tag k="ssr:stedsnr" v="168992" />
	</node>
	<node id="-543655" lat="61.9254444403" lon="5.90966388252">
		<tag k="name" v="Sjurslielva" />
		<tag k="ssr:stedsnr" v="572476" />
		<tag k="waterway" v="stream" />
	</node>
	<node id="-543654" lat="61.8921805522" lon="5.84699721352">
		<tag k="name" v="Sæterelva" />
		<tag k="ssr:stedsnr" v="566748" />
		<tag k="waterway" v="stream" />
	</node>
	<node id="-543653" lat="61.9555166635" lon="5.98737221409">
		<tag k="name" v="Svartegrova" />
		<tag k="ssr:stedsnr" v="565728" />
		<tag k="waterway" v="stream" />
	</node>
	<node id="-544379" lat="61.9122944438" lon="6.0240194379">
		<tag k="name" v="Rotineset" />
		<tag k="natural" v="cape" />
		<tag k="ssr:stedsnr" v="870740" />
	</node>
	<node id="-543137" lat="61.8951277757" lon="5.87010832888">
		<tag k="name" v="Storelva" />
		<tag k="ssr:stedsnr" v="168871" />
		<tag k="waterway" v="stream" />
	</node>
	<node id="-542624" lat="61.932836115" lon="5.84696944472">
		<tag k="name" v="Tjørne" />
		<tag k="natural" v="water" />
		<tag k="ssr:stedsnr" v="894393" />
	</node>
	<node id="-543646" lat="61.9438444445" lon="6.16583333883">
		<tag k="name" v="Villevatnet" />
		<tag k="natural" v="water" />
		<tag k="ssr:stedsnr" v="556576" />
	</node>
	<node id="-543045" lat="61.9732944428" lon="6.2933416683">
		<tag k="name" v="Instetjønna" />
		<tag k="natural" v="water" />
		<tag k="ssr:stedsnr" v="131914" />
	</node>
	<node id="-542620" lat="61.9615583321" lon="5.71691665948">
		<tag k="name" v="Frobergselva" />
		<tag k="ssr:stedsnr" v="411971" />
		<tag k="waterway" v="stream" />
	</node>
	<node id="-543643" lat="61.9553777738" lon="6.02275000131">
		<tag k="name" v="Grimeskarvatnet" />
		<tag k="natural" v="water" />
		<tag k="ssr:stedsnr" v="556548" />
	</node>
	<node id="-543128" lat="61.9291388851" lon="6.35751666046">
		<tag k="name" v="Rognesneset" />
		<tag k="natural" v="cape" />
		<tag k="ssr:stedsnr" v="168775" />
	</node>
	<node id="-542885" lat="61.9628555548" lon="6.13479999643">
		<tag k="name" v="Alflotvatnet" />
		<tag k="natural" v="water" />
		<tag k="ssr:stedsnr" v="71538" />
	</node>
	<node id="-543637" lat="61.9569500037" lon="5.75301667364">
		<tag k="name" v="Botnavatnet" />
		<tag k="natural" v="water" />
		<tag k="ssr:stedsnr" v="556515" />
	</node>
	<node id="-543636" lat="61.9526333339" lon="5.63390278023">
		<tag k="name" v="Gjeddalsvatnet" />
		<tag k="natural" v="water" />
		<tag k="ssr:stedsnr" v="556511" />
	</node>
	<node id="-542872" lat="61.9579305532" lon="6.37093888384">
		<tag k="name" v="Svagrova" />
		<tag k="ssr:stedsnr" v="70886" />
		<tag k="waterway" v="stream" />
	</node>
	<node id="-543629" lat="61.9797416639" lon="5.88970555639">
		<tag k="name" v="Klovevatnet" />
		<tag k="natural" v="water" />
		<tag k="ssr:stedsnr" v="556360" />
	</node>
	<node id="-543626" lat="61.9624277773" lon="6.00933055424">
		<tag k="name" v="Langevatnet" />
		<tag k="natural" v="water" />
		<tag k="ssr:stedsnr" v="556338" />
	</node>
	<node id="-543623" lat="61.8859722208" lon="6.25319166321">
		<tag k="name" v="Svartevatnet" />
		<tag k="natural" v="water" />
		<tag k="ssr:stedsnr" v="555974" />
	</node>
	<node id="-543622" lat="61.8955250025" lon="5.97138610315">
		<tag k="alt_name" v="Kvernaelva" />
		<tag k="name" v="Kvernhuselva" />
		<tag k="ssr:stedsnr" v="555564" />
		<tag k="waterway" v="stream" />
	</node>
	<node id="-543621" lat="61.8948444429" lon="5.92946667119">
		<tag k="alt_name" v="Strandaelva" />
		<tag k="name" v="Strandelva" />
		<tag k="ssr:stedsnr" v="555553" />
		<tag k="waterway" v="stream" />
	</node>
	<node id="-542596" lat="61.9163111078" lon="6.05397223018">
		<tag k="name" v="Pineneset" />
		<tag k="natural" v="cape" />
		<tag k="ssr:stedsnr" v="411728" />
	</node>
	<node id="-543894" lat="61.972227778" lon="6.14313889594">
		<tag k="name" v="Svarttjønna" />
		<tag k="natural" v="water" />
		<tag k="ssr:stedsnr" v="677246" />
	</node>
	<node id="-544129" lat="61.9486999984" lon="6.23662500054">
		<tag k="name" v="Langeneset" />
		<tag k="natural" v="cape" />
		<tag k="ssr:stedsnr" v="775389" />
	</node>
	<node id="-543104" lat="61.9013777765" lon="5.99277221566">
		<tag k="name" v="Storøya" />
		<tag k="place" v="island" />
		<tag k="ssr:stedsnr" v="168527" />
	</node>
	<node id="-542357" lat="61.8827944421" lon="6.20068333325">
		<tag k="name" v="Svartevatnet" />
		<tag k="natural" v="water" />
		<tag k="ssr:stedsnr" v="313639" />
	</node>
	<node id="-544122" lat="61.9162749956" lon="6.11414999573">
		<tag k="name" v="Årvikneset" />
		<tag k="natural" v="cape" />
		<tag k="ssr:stedsnr" v="775270" />
	</node>
	<node id="-543608" lat="61.9703444411" lon="5.75984166098">
		<tag k="name" v="Langevatnet" />
		<tag k="natural" v="water" />
		<tag k="ssr:stedsnr" v="555006" />
	</node>
	<node id="-543603" lat="61.915727781" lon="6.05111389218">
		<tag k="name" v="Storeneset" />
		<tag k="natural" v="cape" />
		<tag k="ssr:stedsnr" v="532996" />
	</node>
	<node id="-543379" lat="61.9514361126" lon="6.07080834032">
		<tag k="name" v="Holmen" />
		<tag k="place" v="islet" />
		<tag k="ssr:stedsnr" v="435533" />
	</node>
	<node id="-544300" lat="61.8745777759" lon="6.10351943888">
		<tag k="name" v="Fesseelva" />
		<tag k="ssr:stedsnr" v="836707" />
		<tag k="waterway" v="stream" />
	</node>
	<node id="-543597" lat="61.9620527743" lon="5.93817221891">
		<tag k="name" v="Fosseholtgrova" />
		<tag k="ssr:stedsnr" v="532902" />
		<tag k="waterway" v="stream" />
	</node>
	<node id="-544107" lat="61.9180861142" lon="6.21380277394">
		<tag k="name" v="Hamnen" />
		<tag k="natural" v="bay" />
		<tag k="ssr:stedsnr" v="775092" />
	</node>
	<node id="-543082" lat="61.8959972207" lon="5.84362499718">
		<tag k="name" v="Fosselva" />
		<tag k="ssr:stedsnr" v="168154" />
		<tag k="waterway" v="stream" />
	</node>
	<node id="-543980" lat="61.8756527771" lon="6.0881583264">
		<tag k="name" v="Flåtegrova" />
		<tag k="ssr:stedsnr" v="714689" />
		<tag k="waterway" v="stream" />
	</node>
	<node id="-544101" lat="61.9329305515" lon="6.19632222292">
		<tag k="name" v="Knutesvaelva" />
		<tag k="ssr:stedsnr" v="775027" />
		<tag k="waterway" v="river" />
	</node>
	<node id="-544099" lat="61.906355559" lon="6.18123333254">
		<tag k="name" v="Skaugsetstranda" />
		<tag k="natural" v="beach" />
		<tag k="ssr:stedsnr" v="775001" />
	</node>
	<node id="-542555" lat="61.9398805549" lon="6.4244249921">
		<tag k="name" v="Storevika" />
		<tag k="natural" v="bay" />
		<tag k="ssr:stedsnr" v="411051" />
	</node>
	<node id="-543066" lat="61.9459972236" lon="5.89194445145">
		<tag k="name" v="Tangane" />
		<tag k="natural" v="cape" />
		<tag k="ssr:stedsnr" v="166328" />
	</node>
	<node id="-543401" lat="61.9173750013" lon="5.92824721892">
		<tag k="name" v="Lidastranda" />
		<tag k="natural" v="beach" />
		<tag k="ssr:stedsnr" v="445758" />
	</node>
	<node id="-544084" lat="61.9497749959" lon="5.53278889396">
		<tag k="name" v="Seterelva" />
		<tag k="ssr:stedsnr" v="772482" />
		<tag k="waterway" v="river" />
	</node>
	<node id="-543571" lat="61.9444694432" lon="6.24562778543">
		<tag k="name" v="Gamlesagløken" />
		<tag k="natural" v="water" />
		<tag k="ssr:stedsnr" v="532405" />
	</node>
	<node id="-543569" lat="61.9578416678" lon="5.67626666457">
		<tag k="name" v="Holeelva" />
		<tag k="ssr:stedsnr" v="532390" />
		<tag k="waterway" v="stream" />
	</node>
	<node id="-543056" lat="61.9157777781" lon="5.67199722005">
		<tag k="name" v="Reksneselva" />
		<tag k="ssr:stedsnr" v="160897" />
		<tag k="waterway" v="river" />
	</node>
	<node id="-544079" lat="61.941674996" lon="6.31673055856">
		<tag k="name" v="Grimsneset" />
		<tag k="natural" v="cape" />
		<tag k="ssr:stedsnr" v="756555" />
	</node>
	<node id="-543561" lat="61.9107805565" lon="6.11516111997">
		<tag k="name" v="Bakkeneset" />
		<tag k="natural" v="cape" />
		<tag k="ssr:stedsnr" v="532249" />
	</node>
	<node id="-542536" lat="61.9420944462" lon="6.43300277096">
		<tag k="name" v="Leirvika" />
		<tag k="natural" v="bay" />
		<tag k="ssr:stedsnr" v="392611" />
	</node>
	<node id="-542535" lat="61.9517277748" lon="5.8347361133">
		<tag k="name" v="Litleelva" />
		<tag k="ssr:stedsnr" v="391533" />
		<tag k="waterway" v="stream" />
	</node>
	<node id="-543201" lat="61.9711416639" lon="5.84265833496">
		<tag k="name" v="Vardevatnet" />
		<tag k="natural" v="water" />
		<tag k="ssr:stedsnr" v="202534" />
	</node>
	<node id="-544068" lat="61.9394888908" lon="6.41074999461">
		<tag k="name" v="Langholmen" />
		<tag k="place" v="islet" />
		<tag k="ssr:stedsnr" v="738938" />
	</node>
	<node id="-543043" lat="61.8675111112" lon="6.16037777746">
		<tag k="name" v="Rundevatnet" />
		<tag k="natural" v="water" />
		<tag k="ssr:stedsnr" v="131659" />
	</node>
	<node id="-543854" lat="61.9070194412" lon="6.28067222722">
		<tag k="name" v="Skafjellgjølet" />
		<tag k="ssr:stedsnr" v="654051" />
		<tag k="waterway" v="stream" />
	</node>
	<node id="-544065" lat="61.9533750043" lon="6.23370277268">
		<tag k="fixme" v="multiple name tags, choose one and add the other to alt_name" />
		<tag k="name" v="Heggjadalsvatnet;Sætrevatnet" />
		<tag k="natural" v="water" />
		<tag k="ssr:stedsnr" v="738917" />
		<tag k="water" v="lake" />
	</node>
	<node id="-543039" lat="61.886375002" lon="5.9384444413">
		<tag k="name" v="Langevatnet" />
		<tag k="natural" v="water" />
		<tag k="ssr:stedsnr" v="131609" />
	</node>
	<node id="-544061" lat="61.970680558" lon="6.38775832597">
		<tag k="name" v="Storeelva" />
		<tag k="ssr:stedsnr" v="738870" />
		<tag k="waterway" v="stream" />
	</node>
	<node id="-543027" lat="61.9599583378" lon="6.11648611362">
		<tag k="name" v="Bjørnavatnet" />
		<tag k="natural" v="water" />
		<tag k="ssr:stedsnr" v="131478" />
	</node>
	<node id="-543025" lat="61.962450004" lon="6.21427777172">
		<tag k="name" v="Løkane" />
		<tag k="natural" v="water" />
		<tag k="ssr:stedsnr" v="131475" />
	</node>
	<node id="-543024" lat="61.9414305549" lon="5.58990834089">
		<tag k="name" v="Fjellstøylgrova" />
		<tag k="ssr:stedsnr" v="131469" />
		<tag k="waterway" v="stream" />
	</node>
	<node id="-543535" lat="61.8969805569" lon="5.79252223099">
		<tag k="name" v="Storelva" />
		<tag k="ssr:stedsnr" v="530532" />
		<tag k="waterway" v="stream" />
	</node>
	<node id="-542336" lat="61.9571750008" lon="5.91124167494">
		<tag k="name" v="Daleelva" />
		<tag k="ssr:stedsnr" v="313257" />
		<tag k="waterway" v="stream" />
	</node>
	<node id="-542508" lat="61.8990833321" lon="6.05214166493">
		<tag k="name" v="Bjørlovatnet" />
		<tag k="natural" v="water" />
		<tag k="ssr:stedsnr" v="374579" />
	</node>
	<node id="-543531" lat="61.959255556" lon="5.84212499929">
		<tag k="name" v="Hovdegrova" />
		<tag k="ssr:stedsnr" v="530332" />
		<tag k="waterway" v="stream" />
	</node>
	<node id="-542505" lat="61.9231166681" lon="5.9851416632">
		<tag k="name" v="Kiselva" />
		<tag k="ssr:stedsnr" v="374541" />
		<tag k="waterway" v="stream" />
	</node>
	<node id="-543528" lat="61.9132555584" lon="5.85306667074">
		<tag k="name" v="Årosen" />
		<tag k="natural" v="bay" />
		<tag k="ssr:stedsnr" v="530109" />
	</node>
	<node id="-542513" lat="61.880916669" lon="6.20650277649">
		<tag k="name" v="Kyrkjesteinvatnet" />
		<tag k="natural" v="water" />
		<tag k="ssr:stedsnr" v="374614" />
	</node>
	<node id="-543524" lat="61.9160694416" lon="5.96305000281">
		<tag k="name" v="Fargarelva" />
		<tag k="ssr:stedsnr" v="505761" />
		<tag k="waterway" v="stream" />
	</node>
	<node id="-543448" lat="61.9266111079" lon="6.3545166579">
		<tag k="name" v="Indre Fossaelva" />
		<tag k="ssr:stedsnr" v="472206" />
		<tag k="waterway" v="stream" />
	</node>
	<node id="-543522" lat="61.9669805523" lon="6.37853054647">
		<tag k="fixme" v="multiple name tags, choose one and add the other to alt_name" />
		<tag k="name" v="Instesvora;Heimstesvora" />
		<tag k="ssr:stedsnr" v="496244" />
		<tag k="waterway" v="stream" />
	</node>
	<node id="-543009" lat="61.9703833296" lon="5.95449721678">
		<tag k="name" v="Kjendalselva" />
		<tag k="ssr:stedsnr" v="108935" />
		<tag k="waterway" v="river" />
	</node>
	<node id="-542512" lat="61.8860305573" lon="6.18239999709">
		<tag k="name" v="Maragjølvatna" />
		<tag k="natural" v="water" />
		<tag k="ssr:stedsnr" v="374612" />
	</node>
	<node id="-544030" lat="61.9788388902" lon="5.93654165718">
		<tag k="name" v="Tjønndalsvatnet" />
		<tag k="natural" v="water" />
		<tag k="ssr:stedsnr" v="738263" />
	</node>
	<node id="-543365" lat="61.9739750002" lon="5.87733055803">
		<tag k="name" v="Kloveelva" />
		<tag k="ssr:stedsnr" v="435346" />
		<tag k="waterway" v="stream" />
	</node>
	<node id="-543516" lat="61.9724611131" lon="6.41163611037">
		<tag k="alt_name" v="Heimste Svora" />
		<tag k="name" v="Heimstesvora" />
		<tag k="ssr:stedsnr" v="495858" />
		<tag k="waterway" v="stream" />
	</node>
	<node id="-544027" lat="61.8751861092" lon="6.23975555533">
		<tag k="name" v="Stølselva" />
		<tag k="ssr:stedsnr" v="738040" />
		<tag k="waterway" v="stream" />
	</node>
	<node id="-542488" lat="61.9850361135" lon="6.18186666507">
		<tag k="alt_name" v="Movatn" />
		<tag k="name" v="Movatnet" />
		<tag k="natural" v="water" />
		<tag k="ssr:stedsnr" v="374334" />
		<tag k="water" v="lake" />
	</node>
	<node id="-542245" lat="61.9365555599" lon="6.47350277642">
		<tag k="name" v="Skåpavika" />
		<tag k="natural" v="bay" />
		<tag k="ssr:stedsnr" v="270545" />
	</node>
	<node id="-542998" lat="61.8922888896" lon="5.90986944356">
		<tag k="name" v="Vetlevatnet" />
		<tag k="natural" v="water" />
		<tag k="ssr:stedsnr" v="108768" />
	</node>
	<node id="-544020" lat="61.9122194429" lon="6.0328972147">
		<tag k="name" v="Lamøya" />
		<tag k="natural" v="cape" />
		<tag k="ssr:stedsnr" v="715995" />
	</node>
	<node id="-544019" lat="61.9134388879" lon="6.03813333775">
		<tag k="name" v="Øyrane" />
		<tag k="natural" v="cape" />
		<tag k="ssr:stedsnr" v="715988" />
	</node>
	<node id="-544018" lat="61.8964638914" lon="5.95038889123">
		<tag k="name" v="Takloelva" />
		<tag k="ssr:stedsnr" v="715834" />
		<tag k="waterway" v="stream" />
	</node>
	<node id="-543503" lat="61.9476666698" lon="6.02925832395">
		<tag k="name" v="Storevatnet" />
		<tag k="natural" v="water" />
		<tag k="ssr:stedsnr" v="495499" />
	</node>
	<node id="-543501" lat="61.9411138868" lon="5.56918888868">
		<tag k="name" v="Liagrøvene" />
		<tag k="ssr:stedsnr" v="495482" />
		<tag k="waterway" v="stream" />
	</node>
	<node id="-543874" lat="61.9640305535" lon="6.28387777853">
		<tag k="name" v="Raudgrøtselva" />
		<tag k="ssr:stedsnr" v="654481" />
		<tag k="waterway" v="river" />
	</node>
	<node id="-542471" lat="61.9172499999" lon="6.0474805581">
		<tag k="name" v="Storegjølet" />
		<tag k="natural" v="cape" />
		<tag k="ssr:stedsnr" v="350996" />
	</node>
	<node id="-542337" lat="61.9709388892" lon="6.17210000421">
		<tag k="name" v="Langevatnet" />
		<tag k="natural" v="water" />
		<tag k="ssr:stedsnr" v="313266" />
	</node>
	<node id="-542975" lat="61.9670583319" lon="6.25004166163">
		<tag k="name" v="Fagredalselva" />
		<tag k="ssr:stedsnr" v="108492" />
		<tag k="waterway" v="stream" />
	</node>
	<node id="-543510" lat="61.9187888877" lon="6.15120277396">
		<tag k="name" v="Svinevika" />
		<tag k="natural" v="bay" />
		<tag k="ssr:stedsnr" v="495576" />
	</node>
	<node id="-543991" lat="61.9222611107" lon="6.44669721597">
		<tag k="name" v="Lidaelva" />
		<tag k="ssr:stedsnr" v="715044" />
		<tag k="waterway" v="river" />
	</node>
	<node id="-542965" lat="61.9159194467" lon="6.13580833175">
		<tag k="name" v="Skjeret" />
		<tag k="natural" v="cape" />
		<tag k="ssr:stedsnr" v="108299" />
	</node>
	<node id="-543988" lat="61.9415749994" lon="5.78240556108">
		<tag k="name" v="Skarevatnet" />
		<tag k="natural" v="water" />
		<tag k="ssr:stedsnr" v="714948" />
		<tag k="water" v="lake" />
	</node>
	<node id="-543987" lat="61.8762916697" lon="5.98109444036">
		<tag k="name" v="Ystemarkgrova" />
		<tag k="ssr:stedsnr" v="714820" />
		<tag k="waterway" v="stream" />
	</node>
	<node id="-544498" lat="61.9270472243" lon="6.24942777491">
		<tag k="name" v="Vikane" />
		<tag k="natural" v="beach" />
		<tag k="ssr:stedsnr" v="957955" />
	</node>
	<node id="-543983" lat="61.9120722214" lon="6.1065805519">
		<tag k="name" v="Nykkjevatnet" />
		<tag k="natural" v="water" />
		<tag k="ssr:stedsnr" v="714705" />
	</node>
	<node id="-544499" lat="61.9330887662" lon="6.24949689914">
		<tag k="name" v="Melheimselva" />
		<tag k="ssr:stedsnr" v="957963" />
		<tag k="waterway" v="river" />
	</node>
	<node id="-542707" lat="61.9112055586" lon="6.03335556272">
		<tag k="name" v="Sanden" />
		<tag k="natural" v="cape" />
		<tag k="ssr:stedsnr" v="897988" />
	</node>
	<node id="-543464" lat="61.9537444406" lon="6.06491944447">
		<tag k="name" v="Fagredalselva" />
		<tag k="ssr:stedsnr" v="472637" />
		<tag k="waterway" v="river" />
	</node>
	<node id="-543169" lat="61.9461249967" lon="5.53356110665">
		<tag k="name" v="Turtnedalsvatnet" />
		<tag k="natural" v="water" />
		<tag k="ssr:stedsnr" v="192499" />
	</node>
	<node id="-542947" lat="61.9069194466" lon="6.27651110732">
		<tag k="name" v="Setregjølet" />
		<tag k="ssr:stedsnr" v="108069" />
		<tag k="waterway" v="stream" />
	</node>
	<node id="-542946" lat="61.9372694452" lon="6.42399721465">
		<tag k="name" v="Geilvika" />
		<tag k="natural" v="bay" />
		<tag k="ssr:stedsnr" v="108050" />
	</node>
	<node id="-543457" lat="61.9682638926" lon="6.24340555666">
		<tag k="name" v="Budaleelva" />
		<tag k="ssr:stedsnr" v="472460" />
		<tag k="waterway" v="stream" />
	</node>
	<node id="-544480" lat="61.8984444444" lon="6.06197777877">
		<tag k="name" v="Lotsskarelva" />
		<tag k="ssr:stedsnr" v="957730" />
		<tag k="waterway" v="stream" />
	</node>
	<node id="-543454" lat="61.9404444428" lon="6.16192222405">
		<tag k="name" v="Lomtjørna" />
		<tag k="natural" v="water" />
		<tag k="ssr:stedsnr" v="472399" />
	</node>
	<node id="-544477" lat="61.9202138891" lon="5.76759444725">
		<tag k="name" v="Stårheimselva" />
		<tag k="ssr:stedsnr" v="957528" />
		<tag k="waterway" v="river" />
	</node>
	<node id="-542939" lat="61.8648555583" lon="6.22938889093">
		<tag k="name" v="Katlafossen" />
		<tag k="natural" v="waterfall" />
		<tag k="ssr:stedsnr" v="107865" />
	</node>
	<node id="-543449" lat="61.943427777" lon="6.33275278507">
		<tag k="name" v="Skavika" />
		<tag k="natural" v="bay" />
		<tag k="ssr:stedsnr" v="472211" />
	</node>
	<node id="-542424" lat="61.9517611078" lon="6.23121667327">
		<tag k="name" v="Langeneset" />
		<tag k="natural" v="cape" />
		<tag k="ssr:stedsnr" v="350458" />
	</node>
	<node id="-543012" lat="61.9639777742" lon="5.60338611911">
		<tag k="name" v="Ledvatnet" />
		<tag k="natural" v="water" />
		<tag k="ssr:stedsnr" v="131037" />
	</node>
	<node id="-543445" lat="61.9010694431" lon="6.22338888114">
		<tag k="name" v="Hundsvaelva" />
		<tag k="ssr:stedsnr" v="472101" />
		<tag k="waterway" v="river" />
	</node>
	<node id="-542932" lat="61.9316861139" lon="5.89202778265">
		<tag k="name" v="Tverrelva" />
		<tag k="ssr:stedsnr" v="106151" />
		<tag k="waterway" v="stream" />
	</node>
	<node id="-543091" lat="61.8745694435" lon="5.82761945322">
		<tag k="name" v="Daleelva" />
		<tag k="ssr:stedsnr" v="168220" />
		<tag k="waterway" v="stream" />
	</node>
	<node id="-544481" lat="61.9161250043" lon="6.10524721837">
		<tag k="name" v="Trollestøa" />
		<tag k="natural" v="bay" />
		<tag k="ssr:stedsnr" v="957739" />
	</node>
	<node id="-542415" lat="61.9839638864" lon="6.19037221445">
		<tag k="name" v="Skorevika" />
		<tag k="natural" v="bay" />
		<tag k="ssr:stedsnr" v="350264" />
	</node>
	<node id="-543438" lat="61.9355305516" lon="6.20367223145">
		<tag k="name" v="Litlevasselva" />
		<tag k="ssr:stedsnr" v="472023" />
		<tag k="waterway" v="stream" />
	</node>
	<node id="-542925" lat="61.9325416679" lon="5.82394999217">
		<tag k="name" v="Vasselva" />
		<tag k="ssr:stedsnr" v="105061" />
		<tag k="waterway" v="river" />
	</node>
	<node id="-542411" lat="61.8993444435" lon="6.11306110962">
		<tag k="name" v="Ytste Nymarkelva" />
		<tag k="ssr:stedsnr" v="350236" />
		<tag k="waterway" v="stream" />
	</node>
	<node id="-543432" lat="61.9167027822" lon="6.06388333163">
		<tag k="name" v="Notahusneset" />
		<tag k="natural" v="cape" />
		<tag k="ssr:stedsnr" v="471748" />
	</node>
	<node id="-542407" lat="61.9260611106" lon="6.35303889555">
		<tag k="name" v="Ytre Fossaelva" />
		<tag k="ssr:stedsnr" v="350196" />
		<tag k="waterway" v="stream" />
	</node>
	<node id="-543560" lat="61.9115777816" lon="6.11341110818">
		<tag k="name" v="Gangstøa" />
		<tag k="natural" v="bay" />
		<tag k="ssr:stedsnr" v="532246" />
	</node>
	<node id="-542404" lat="61.8959444457" lon="5.83235555125">
		<tag k="name" v="Gjølelva" />
		<tag k="ssr:stedsnr" v="350177" />
		<tag k="waterway" v="stream" />
	</node>
	<node id="-542403" lat="61.9466222212" lon="6.3568638941">
		<tag k="name" v="Bjørnabykset" />
		<tag k="natural" v="cape" />
		<tag k="ssr:stedsnr" v="350175" />
	</node>
	<node id="-542895" lat="61.885825001" lon="6.06514444606">
		<tag k="name" v="Uksegjølelva" />
		<tag k="ssr:stedsnr" v="71674" />
		<tag k="waterway" v="stream" />
	</node>
	<node id="-542912" lat="61.9443777819" lon="6.13913611334">
		<tag k="name" v="Storesætervatnet" />
		<tag k="natural" v="water" />
		<tag k="ssr:stedsnr" v="80562" />
	</node>
	<node id="-542911" lat="62.0051555514" lon="6.18652778364">
		<tag k="name" v="Byrjevatnet" />
		<tag k="natural" v="water" />
		<tag k="ssr:stedsnr" v="71979" />
	</node>
	<node id="-542910" lat="61.9108527763" lon="6.30494166715">
		<tag k="name" v="Skredeelva" />
		<tag k="ssr:stedsnr" v="71978" />
		<tag k="waterway" v="stream" />
	</node>
	<node id="-544373" lat="61.9048972262" lon="6.42645277551">
		<tag k="name" v="Svartvatnet" />
		<tag k="natural" v="water" />
		<tag k="ssr:stedsnr" v="860992" />
	</node>
	<node id="-544444" lat="61.9061444483" lon="6.17790277057">
		<tag k="name" v="Vikane" />
		<tag k="natural" v="bay" />
		<tag k="ssr:stedsnr" v="957001" />
	</node>
	<node id="-543419" lat="61.9484277778" lon="6.13491666611">
		<tag k="name" v="Osen" />
		<tag k="natural" v="bay" />
		<tag k="ssr:stedsnr" v="471296" />
	</node>
	<node id="-542394" lat="61.940097225" lon="6.4176944388">
		<tag k="name" v="Litlefurholmen" />
		<tag k="place" v="islet" />
		<tag k="ssr:stedsnr" v="350046" />
	</node>
	<node id="-543417" lat="61.9187388885" lon="6.11820278556">
		<tag k="name" v="Vedvikvågen" />
		<tag k="natural" v="bay" />
		<tag k="ssr:stedsnr" v="471284" />
	</node>
	<node id="-543336" lat="61.887419442" lon="6.11897500573">
		<tag k="name" v="Trollevatnet" />
		<tag k="natural" v="water" />
		<tag k="ssr:stedsnr" v="253639" />
	</node>
	<node id="-543927" lat="61.9268694452" lon="6.38418333215">
		<tag k="name" v="Såta" />
		<tag k="ssr:stedsnr" v="677929" />
		<tag k="waterway" v="stream" />
	</node>
	<node id="-543926" lat="61.9709055553" lon="6.28095554921">
		<tag k="name" v="Fremstetjønna" />
		<tag k="natural" v="water" />
		<tag k="ssr:stedsnr" v="677886" />
	</node>
	<node id="-542901" lat="61.9869861094" lon="6.25074444652">
		<tag k="name" v="Litlevatnet" />
		<tag k="natural" v="water" />
		<tag k="ssr:stedsnr" v="71857" />
	</node>
	<node id="-542900" lat="61.9963111149" lon="6.22165000716">
		<tag k="name" v="Rokkevatnet" />
		<tag k="natural" v="water" />
		<tag k="ssr:stedsnr" v="71854" />
	</node>
	<node id="-543923" lat="61.8559133505" lon="6.1552799426">
		<tag k="name" v="Eitreåa" />
		<tag k="ssr:stedsnr" v="677644" />
		<tag k="waterway" v="stream" />
	</node>
	<node id="-543922" lat="61.892249998" lon="5.87321389306">
		<tag k="name" v="Hund" />
		<tag k="ssr:stedsnr" v="677580" />
		<tag k="waterway" v="stream" />
	</node>
	<node id="-544433" lat="61.9584916634" lon="5.87285000453">
		<tag k="name" v="Styggefossen" />
		<tag k="natural" v="waterfall" />
		<tag k="ssr:stedsnr" v="955363" />
	</node>
	<node id="-542896" lat="61.8809999967" lon="6.14884999191">
		<tag k="name" v="Kinna" />
		<tag k="natural" v="water" />
		<tag k="ssr:stedsnr" v="71684" />
	</node>
	<node id="-543688" lat="61.946838889" lon="6.16674445121">
		<tag k="name" v="Sendegrøtet" />
		<tag k="natural" v="cape" />
		<tag k="ssr:stedsnr" v="593281" />
	</node>
	<node id="-542749" lat="61.9193861092" lon="6.39168333681">
		<tag k="name" v="Heidegardsvatnet" />
		<tag k="natural" v="water" />
		<tag k="ssr:stedsnr" v="10967" />
	</node>
	<node id="-542892" lat="61.8907000038" lon="5.96249999351">
		<tag k="name" v="Svartevatnet" />
		<tag k="natural" v="water" />
		<tag k="ssr:stedsnr" v="71652" />
	</node>
	<node id="-543914" lat="61.9382138901" lon="6.04201943829">
		<tag k="name" v="Stampelva" />
		<tag k="ssr:stedsnr" v="677513" />
		<tag k="waterway" v="stream" />
	</node>
	<node id="-543175" lat="61.9457944455" lon="6.14313333674">
		<tag k="name" v="Bakkesæterfossen" />
		<tag k="natural" v="waterfall" />
		<tag k="ssr:stedsnr" v="192555" />
	</node>
	<node id="-542376" lat="61.9144388878" lon="5.98377222467">
		<tag k="name" v="Presteelva" />
		<tag k="ssr:stedsnr" v="342906" />
		<tag k="waterway" v="river" />
	</node>
	<node id="-543398" lat="61.8989111146" lon="6.2291416596">
		<tag k="name" v="Furerindelva" />
		<tag k="ssr:stedsnr" v="435958" />
		<tag k="waterway" v="stream" />
	</node>
	<node id="-544421" lat="61.8982972264" lon="6.12630555103">
		<tag k="name" v="Storelva" />
		<tag k="ssr:stedsnr" v="930772" />
		<tag k="waterway" v="stream" />
	</node>
	<node id="-543908" lat="61.9497416671" lon="5.86628333922">
		<tag k="name" v="Bakkeelva" />
		<tag k="ssr:stedsnr" v="677492" />
		<tag k="waterway" v="stream" />
	</node>
	<node id="-543907" lat="61.9392277738" lon="5.63327777792">
		<tag k="name" v="Bera" />
		<tag k="ssr:stedsnr" v="677489" />
		<tag k="waterway" v="stream" />
	</node>
	<node id="-543394" lat="61.9818000017" lon="5.90778888413">
		<tag k="name" v="Blåfjellvatnet" />
		<tag k="natural" v="water" />
		<tag k="ssr:stedsnr" v="435856" />
	</node>
	<node id="-543393" lat="61.8660944453" lon="6.15786389262">
		<tag k="name" v="Sjutjønna" />
		<tag k="natural" v="water" />
		<tag k="ssr:stedsnr" v="435680" />
	</node>
	<node id="-544416" lat="61.922247224" lon="6.32640278195">
		<tag k="name" v="Kongeneset" />
		<tag k="natural" v="cape" />
		<tag k="ssr:stedsnr" v="920913" />
	</node>
	<node id="-542878" lat="61.9755944436" lon="5.85986666951">
		<tag k="loc_name" v="Holmevatnet" />
		<tag k="name" v="Vardevatnet" />
		<tag k="natural" v="water" />
		<tag k="ssr:stedsnr" v="71334" />
	</node>
	<node id="-542661" lat="61.9267944434" lon="5.58102223074">
		<tag k="name" v="Hauselva" />
		<tag k="ssr:stedsnr" v="897236" />
		<tag k="waterway" v="river" />
	</node>
	<node id="-543388" lat="61.9080916634" lon="6.20184999651">
		<tag k="name" v="Fureneset" />
		<tag k="natural" v="cape" />
		<tag k="ssr:stedsnr" v="435610" />
	</node>
	<node id="-542363" lat="61.9243972216" lon="6.36381387989">
		<tag k="alt_name" v="Kvernhuselva" />
		<tag k="name" v="Rogneselva" />
		<tag k="ssr:stedsnr" v="313975" />
		<tag k="waterway" v="stream" />
	</node>
	<node id="-543898" lat="61.9828249966" lon="5.87910000726">
		<tag k="name" v="Støvelsvatnet" />
		<tag k="natural" v="water" />
		<tag k="ssr:stedsnr" v="677275" />
	</node>
	<node id="-542361" lat="61.997969449" lon="6.24301111953">
		<tag k="name" v="Hattevatnet" />
		<tag k="natural" v="water" />
		<tag k="ssr:stedsnr" v="313859" />
	</node>
	<node id="-544408" lat="61.8894694427" lon="6.18499166133">
		<tag k="name" v="Gammeleirikaugo" />
		<tag k="place" v="locality" />
		<tag k="ssr:stedsnr" v="920628" />
	</node>
	<node id="-542359" lat="61.8628194485" lon="6.13772500251">
		<tag k="name" v="Kjeavatnet" />
		<tag k="natural" v="water" />
		<tag k="ssr:stedsnr" v="313656" />
	</node>
	<node id="-544406" lat="61.8858699536" lon="5.94862208527">
		<tag k="alt_name" v="Måsevatnet" />
		<tag k="name" v="Mosevatnet" />
		<tag k="natural" v="water" />
		<tag k="ssr:stedsnr" v="920610" />
	</node>
	<node id="-543893" lat="61.968625003" lon="5.95946111476">
		<tag k="name" v="Ljosurelva" />
		<tag k="ssr:stedsnr" v="677240" />
		<tag k="waterway" v="stream" />
	</node>
	<node id="-543891" lat="61.885877774" lon="5.95405000803">
		<tag k="name" v="Kringlevatnet" />
		<tag k="natural" v="water" />
		<tag k="ssr:stedsnr" v="677620" />
	</node>
	<node id="-543456" lat="61.9544750022" lon="6.22099444333">
		<tag k="name" v="Stegelva" />
		<tag k="ssr:stedsnr" v="472417" />
		<tag k="waterway" v="stream" />
	</node>
	<node id="-544400" lat="61.9455361095" lon="6.1658722138">
		<tag k="name" v="Langeholmen" />
		<tag k="natural" v="cape" />
		<tag k="ssr:stedsnr" v="920520" />
	</node>
	<node id="-543887" lat="61.8993361097" lon="6.01140278544">
		<tag k="name" v="Svædelva" />
		<tag k="ssr:stedsnr" v="677604" />
		<tag k="waterway" v="stream" />
	</node>
	<node id="-544398" lat="61.9432194476" lon="6.13993888048">
		<tag k="name" v="Storesætervatnet" />
		<tag k="natural" v="water" />
		<tag k="ssr:stedsnr" v="920507" />
	</node>
	<node id="-543885" lat="61.9634333294" lon="5.78401110456">
		<tag k="name" v="Bauvatnet" />
		<tag k="natural" v="water" />
		<tag k="ssr:stedsnr" v="677011" />
	</node>
	<node id="-542858" lat="61.9420222252" lon="6.26205556427">
		<tag k="name" v="Heielva" />
		<tag k="ssr:stedsnr" v="47966" />
		<tag k="waterway" v="stream" />
	</node>
	<node id="-542344" lat="61.9493972185" lon="6.14706944795">
		<tag k="name" v="Bakkesætervatnet" />
		<tag k="natural" v="water" />
		<tag k="ssr:stedsnr" v="313520" />
	</node>
	<node id="-543367" lat="61.8857861075" lon="5.83186110262">
		<tag k="name" v="Nonsvatnet" />
		<tag k="natural" v="water" />
		<tag k="ssr:stedsnr" v="435458" />
	</node>
	<node id="-542854" lat="61.9557888873" lon="5.95551388242">
		<tag k="name" v="Krokane" />
		<tag k="natural" v="cape" />
		<tag k="ssr:stedsnr" v="47910" />
	</node>
	<node id="-544389" lat="61.9886583325" lon="5.90356111016">
		<tag k="name" v="Tjuvavatnet" />
		<tag k="natural" v="water" />
		<tag k="ssr:stedsnr" v="920291" />
	</node>
	<node id="-543363" lat="61.8644777801" lon="6.22905833465">
		<tag k="name" v="Sæelva" />
		<tag k="ssr:stedsnr" v="435075" />
		<tag k="waterway" v="stream" />
	</node>
	<node id="-544386" lat="61.9784277746" lon="5.9232749993">
		<tag k="name" v="Storeggvatnet" />
		<tag k="natural" v="water" />
		<tag k="ssr:stedsnr" v="920245" />
	</node>
	<node id="-542849" lat="61.8842277777" lon="5.94230000406">
		<tag k="name" v="Lomvatnet" />
		<tag k="natural" v="water" />
		<tag k="ssr:stedsnr" v="47835" />
	</node>
	<node id="-543360" lat="61.8859722231" lon="6.23744999287">
		<tag k="name" v="Henneskarsvatna" />
		<tag k="natural" v="water" />
		<tag k="ssr:stedsnr" v="434977" />
	</node>
	<node id="-542400" lat="61.9050222242" lon="6.20741110347">
		<tag k="name" v="Litlegjølstranda" />
		<tag k="natural" v="beach" />
		<tag k="ssr:stedsnr" v="350103" />
	</node>
	<node id="-542334" lat="61.959405553" lon="5.55001388714">
		<tag k="name" v="Småvatna" />
		<tag k="natural" v="water" />
		<tag k="ssr:stedsnr" v="313020" />
	</node>
	<node id="-542845" lat="61.8607138848" lon="6.22536944672">
		<tag k="name" v="Gjølåna" />
		<tag k="ssr:stedsnr" v="47807" />
		<tag k="waterway" v="river" />
	</node>
	<node id="-542331" lat="61.9268805576" lon="6.40661388385">
		<tag k="name" v="Holmøyelva" />
		<tag k="ssr:stedsnr" v="313933" />
		<tag k="waterway" v="stream" />
	</node>
	<node id="-542330" lat="61.9177888918" lon="6.45076111564">
		<tag k="name" v="Vikaelva" />
		<tag k="ssr:stedsnr" v="313929" />
		<tag k="waterway" v="stream" />
	</node>
	<node id="-542484" lat="61.9712055598" lon="5.98959167006">
		<tag k="name" v="Grovelva" />
		<tag k="ssr:stedsnr" v="374280" />
		<tag k="waterway" v="stream" />
	</node>
	<node id="-542325" lat="61.9089499994" lon="6.03624166964">
		<tag k="name" v="Litleelva" />
		<tag k="ssr:stedsnr" v="290997" />
		<tag k="waterway" v="stream" />
	</node>
	<node id="-544371" lat="61.9721444449" lon="6.26235000082">
		<tag k="name" v="Åsetjønna" />
		<tag k="natural" v="water" />
		<tag k="ssr:stedsnr" v="860890" />
	</node>
	<node id="-543344" lat="61.9614777764" lon="6.37044166109">
		<tag k="alt_name" v="Ytste Svora" />
		<tag k="name" v="Ystesvora" />
		<tag k="ssr:stedsnr" v="253905" />
		<tag k="waterway" v="stream" />
	</node>
	<node id="-543855" lat="61.9067194484" lon="6.27051110449">
		<tag k="name" v="Hoplandstøa" />
		<tag k="natural" v="beach" />
		<tag k="ssr:stedsnr" v="654055" />
	</node>
	<node id="-544366" lat="61.8673999977" lon="6.19805277932">
		<tag k="name" v="Matelva" />
		<tag k="ssr:stedsnr" v="860697" />
		<tag k="waterway" v="river" />
	</node>
	<node id="-542909" lat="61.9019444444" lon="6.3234722191">
		<tag k="name" v="Geilavatnet" />
		<tag k="natural" v="water" />
		<tag k="ssr:stedsnr" v="71960" />
	</node>
	<node id="-542497" lat="61.9269249999" lon="5.94151388823">
		<tag k="alt_name" v="Gautevatn" />
		<tag k="name" v="Gautevatnet" />
		<tag k="natural" v="water" />
		<tag k="ssr:stedsnr" v="374514" />
	</node>
	<node id="-543850" lat="61.9544999972" lon="5.73786388594">
		<tag k="name" v="Stille" />
		<tag k="ssr:stedsnr" v="653991" />
		<tag k="waterway" v="river" />
	</node>
	<node id="-543849" lat="61.9521249982" lon="5.73283333218">
		<tag k="name" v="Løken" />
		<tag k="ssr:stedsnr" v="653988" />
		<tag k="waterway" v="stream" />
	</node>
	<node id="-544360" lat="61.8855500043" lon="5.95777499219">
		<tag k="name" v="Blomvatnet" />
		<tag k="natural" v="water" />
		<tag k="ssr:stedsnr" v="860664" />
	</node>
	<node id="-543335" lat="61.8921361104" lon="5.97832777825">
		<tag k="name" v="Osvatnet" />
		<tag k="natural" v="water" />
		<tag k="ssr:stedsnr" v="253636" />
	</node>
	<node id="-543334" lat="62.0054583336" lon="6.21541112">
		<tag k="name" v="Ferlevatnet" />
		<tag k="natural" v="water" />
		<tag k="ssr:stedsnr" v="253578" />
	</node>
	<node id="-542821" lat="61.9060472221" lon="6.0049999972">
		<tag k="name" v="Øya" />
		<tag k="natural" v="cape" />
		<tag k="ssr:stedsnr" v="47522" />
	</node>
	<node id="-542307" lat="61.915025001" lon="6.08601111328">
		<tag k="name" v="Kviafossen" />
		<tag k="natural" v="waterfall" />
		<tag k="ssr:stedsnr" v="290703" />
	</node>
	<node id="-543841" lat="61.9149833377" lon="6.32309721428">
		<tag k="name" v="Skakkegrova" />
		<tag k="ssr:stedsnr" v="653824" />
		<tag k="waterway" v="stream" />
	</node>
	<node id="-544352" lat="61.965952778" lon="6.19923611456">
		<tag k="name" v="Brattebakktjønna" />
		<tag k="natural" v="water" />
		<tag k="ssr:stedsnr" v="860530" />
	</node>
	<node id="-543326" lat="61.98621667" lon="5.92565833101">
		<tag k="name" v="Kringlevatnet" />
		<tag k="natural" v="water" />
		<tag k="ssr:stedsnr" v="253347" />
	</node>
	<node id="-543845" lat="61.9344083315" lon="5.80444167534">
		<tag k="name" v="Krokagrova" />
		<tag k="ssr:stedsnr" v="653925" />
		<tag k="waterway" v="stream" />
	</node>
	<node id="-542811" lat="61.9037472237" lon="6.13883333363">
		<tag k="name" v="Kvernhuselva" />
		<tag k="ssr:stedsnr" v="47286" />
		<tag k="waterway" v="stream" />
	</node>
	<node id="-542810" lat="61.8986388896" lon="6.11527776939">
		<tag k="name" v="Midtre Nymarkelva" />
		<tag k="ssr:stedsnr" v="47274" />
		<tag k="waterway" v="stream" />
	</node>
	<node id="-542735" lat="61.92873056" lon="6.15980555823">
		<tag k="name" v="Skarvatnet" />
		<tag k="natural" v="water" />
		<tag k="ssr:stedsnr" v="10565" />
	</node>
	<node id="-544343" lat="61.9949249977" lon="6.19491666762">
		<tag k="name" v="Tuvatnet" />
		<tag k="natural" v="water" />
		<tag k="ssr:stedsnr" v="860366" />
	</node>
	<node id="-543829" lat="61.9629972234" lon="5.86740833203">
		<tag k="name" v="Tverrelva" />
		<tag k="ssr:stedsnr" v="653670" />
		<tag k="waterway" v="river" />
	</node>
	<node id="-544340" lat="61.9352527798" lon="6.39988055761">
		<tag k="fixme" v="multiple name tags, choose one and add the other to alt_name" />
		<tag k="name" v="Holmøyneset;Neset" />
		<tag k="natural" v="cape" />
		<tag k="ssr:stedsnr" v="859904" />
	</node>
	<node id="-542563" lat="61.963738888" lon="6.37219166068">
		<tag k="name" v="Inste Svora" />
		<tag k="ssr:stedsnr" v="411201" />
		<tag k="waterway" v="stream" />
	</node>
	<node id="-544332" lat="61.9332944407" lon="5.83223611214">
		<tag k="name" v="Slettebøvatnet" />
		<tag k="natural" v="water" />
		<tag k="ssr:stedsnr" v="859423" />
	</node>
	<node id="-542283" lat="61.9781916647" lon="6.16551389684">
		<tag k="name" v="Småfossedalselva" />
		<tag k="ssr:stedsnr" v="290306" />
		<tag k="waterway" v="river" />
	</node>
	<node id="-543818" lat="61.9600888914" lon="6.13635833884">
		<tag k="name" v="Øyra" />
		<tag k="natural" v="cape" />
		<tag k="ssr:stedsnr" v="653286" />
	</node>
	<node id="-543159" lat="61.9584250009" lon="6.00901666208">
		<tag k="name" v="Svartevatnet" />
		<tag k="natural" v="water" />
		<tag k="ssr:stedsnr" v="192299" />
	</node>
	<node id="-543304" lat="61.9645194464" lon="5.62978611673">
		<tag k="name" v="Duevatnet" />
		<tag k="natural" v="water" />
		<tag k="ssr:stedsnr" v="252021" />
	</node>
	<node id="-543302" lat="61.9660027808" lon="5.67613888921">
		<tag k="name" v="Ljådalsvatnet" />
		<tag k="natural" v="water" />
		<tag k="ssr:stedsnr" v="252005" />
	</node>
	<node id="-544325" lat="61.8813083307" lon="6.24380278262">
		<tag k="alt_name" v="Fagredalstjønna" />
		<tag k="name" v="Fagredalstjørna" />
		<tag k="place" v="locality" />
		<tag k="ssr:stedsnr" v="859027" />
	</node>
	<node id="-542788" lat="61.9527444482" lon="5.67795000672">
		<tag k="name" v="Svarteelva" />
		<tag k="ssr:stedsnr" v="46068" />
		<tag k="waterway" v="stream" />
	</node>
	<node id="-543048" lat="61.9435972189" lon="6.46459166935">
		<tag k="alt_name" v="Abbelholmen" />
		<tag k="name" v="Abelholmen" />
		<tag k="place" v="islet" />
		<tag k="ssr:stedsnr" v="131945" />
	</node>
	<node id="-543925" lat="61.9825638916" lon="6.254255556">
		<tag k="name" v="Møreelva" />
		<tag k="ssr:stedsnr" v="677836" />
		<tag k="waterway" v="stream" />
	</node>
	<node id="-543802" lat="61.9359333321" lon="5.53228056104">
		<tag k="name" v="Midthjellelva" />
		<tag k="ssr:stedsnr" v="651397" />
		<tag k="waterway" v="river" />
	</node>
	<node id="-542265" lat="61.9342333291" lon="6.21860278084">
		<tag k="name" v="Botnaelva" />
		<tag k="ssr:stedsnr" v="290036" />
		<tag k="waterway" v="stream" />
	</node>
	<node id="-542644" lat="61.948244445" lon="6.31945833313">
		<tag k="name" v="Grimselva" />
		<tag k="ssr:stedsnr" v="897133" />
		<tag k="waterway" v="stream" />
	</node>
	<node id="-542257" lat="61.9267972207" lon="5.88592777034">
		<tag k="name" v="Krokane" />
		<tag k="natural" v="cape" />
		<tag k="ssr:stedsnr" v="288153" />
	</node>
	<node id="-542498" lat="61.9383361066" lon="6.08788332473">
		<tag k="name" v="Løken" />
		<tag k="place" v="locality" />
		<tag k="ssr:stedsnr" v="374513" />
	</node>
	<node id="-542766" lat="61.8660500007" lon="6.22450555984">
		<tag k="name" v="Bakkegrova" />
		<tag k="ssr:stedsnr" v="39883" />
		<tag k="waterway" v="stream" />
	</node>
	<node id="-543837" lat="61.9252805559" lon="6.08501388324">
		<tag k="name" v="Leivdøla" />
		<tag k="ssr:stedsnr" v="653753" />
		<tag k="waterway" v="river" />
	</node>
	<node id="-543589" lat="61.9697944478" lon="5.97587778594">
		<tag k="name" v="Setreelva" />
		<tag k="ssr:stedsnr" v="532826" />
		<tag k="waterway" v="stream" />
	</node>
	<node id="-544299" lat="61.8668250005" lon="6.10309166973">
		<tag k="name" v="Lotsbergelva" />
		<tag k="ssr:stedsnr" v="836705" />
		<tag k="waterway" v="river" />
	</node>
	<node id="-543274" lat="61.876227777" lon="5.79576110356">
		<tag k="name" v="Ytreelva" />
		<tag k="ssr:stedsnr" v="229671" />
		<tag k="waterway" v="stream" />
	</node>
	<node id="-543271" lat="61.9623805568" lon="5.99462777759">
		<tag k="name" v="Fossane" />
		<tag k="natural" v="waterfall" />
		<tag k="ssr:stedsnr" v="229620" />
	</node>
	<node id="-544294" lat="61.9352527737" lon="6.10074722434">
		<tag k="name" v="Tungefossen" />
		<tag k="natural" v="waterfall" />
		<tag k="ssr:stedsnr" v="836663" />
	</node>
	<node id="-543781" lat="61.9327833306" lon="6.1001861178">
		<tag k="name" v="Høgefossen" />
		<tag k="natural" v="waterfall" />
		<tag k="ssr:stedsnr" v="626769" />
	</node>
	<node id="-543780" lat="61.9560138894" lon="6.09416666833">
		<tag k="name" v="Svartevatnet" />
		<tag k="natural" v="water" />
		<tag k="ssr:stedsnr" v="626766" />
	</node>
	<node id="-543424" lat="61.8760749975" lon="6.1192861039">
		<tag k="name" v="Stølselva" />
		<tag k="ssr:stedsnr" v="471340" />
		<tag k="waterway" v="stream" />
	</node>
	<node id="-543777" lat="61.9092083335" lon="6.01703333708">
		<tag k="name" v="Eidselva" />
		<tag k="ssr:stedsnr" v="626758" />
		<tag k="waterway" v="river" />
	</node>
	<node id="-542752" lat="61.8914888868" lon="6.25960278658">
		<tag k="name" v="Kvanndalsvatnet" />
		<tag k="natural" v="water" />
		<tag k="ssr:stedsnr" v="10999" />
	</node>
	<node id="-543262" lat="61.9566888928" lon="6.22336944601">
		<tag k="name" v="Strupen" />
		<tag k="ssr:stedsnr" v="229431" />
		<tag k="waterway" v="river" />
	</node>
	<node id="-543773" lat="61.873361113" lon="6.09468888116">
		<tag k="alt_name" v="Saelva" />
		<tag k="name" v="Sagelva" />
		<tag k="ssr:stedsnr" v="617644" />
		<tag k="waterway" v="stream" />
	</node>
	<node id="-542747" lat="61.9010722205" lon="6.26170000403">
		<tag k="name" v="Henneelva" />
		<tag k="ssr:stedsnr" v="10944" />
		<tag k="waterway" v="stream" />
	</node>
	<node id="-544282" lat="61.9745194441" lon="6.26920278326">
		<tag k="name" v="Vassenden" />
		<tag k="natural" v="bay" />
		<tag k="ssr:stedsnr" v="836444" />
	</node>
	<node id="-543663" lat="61.931805558" lon="5.51535833341">
		<tag k="name" v="Tjørna" />
		<tag k="natural" v="water" />
		<tag k="ssr:stedsnr" v="590445" />
	</node>
	<node id="-543767" lat="61.9659472214" lon="6.19893888052">
		<tag k="name" v="Ingriddalstjønna" />
		<tag k="natural" v="water" />
		<tag k="ssr:stedsnr" v="617525" />
	</node>
	<node id="-543254" lat="61.9470055518" lon="6.13611666279">
		<tag k="name" v="Oshammeren" />
		<tag k="natural" v="cape" />
		<tag k="ssr:stedsnr" v="229304" />
	</node>
	<node id="-543253" lat="61.9846749961" lon="6.19133888757">
		<tag k="name" v="Movass-stranda" />
		<tag k="natural" v="beach" />
		<tag k="ssr:stedsnr" v="229299" />
	</node>
	<node id="-543816" lat="61.8979249958" lon="6.11688888744">
		<tag k="name" v="Inste Nymarkelva" />
		<tag k="ssr:stedsnr" v="653243" />
		<tag k="waterway" v="stream" />
	</node>
	<node id="-542738" lat="61.912066665" lon="6.12656111427">
		<tag k="name" v="Kjellvorneset" />
		<tag k="natural" v="cape" />
		<tag k="ssr:stedsnr" v="10588" />
	</node>
	<node id="-543249" lat="61.8978722225" lon="6.19995277213">
		<tag k="name" v="Maragjølelva" />
		<tag k="ssr:stedsnr" v="229236" />
		<tag k="waterway" v="river" />
	</node>
	<node id="-543912" lat="61.946280556" lon="6.02832499843">
		<tag k="name" v="Litlevatnet" />
		<tag k="natural" v="water" />
		<tag k="ssr:stedsnr" v="677510" />
	</node>
	<node id="-543247" lat="61.8675833322" lon="6.25164444526">
		<tag k="name" v="Alvåna" />
		<tag k="ssr:stedsnr" v="229234" />
		<tag k="waterway" v="stream" />
	</node>
	<node id="-543246" lat="61.9280166636" lon="5.60944444268">
		<tag k="name" v="Ervikelva" />
		<tag k="ssr:stedsnr" v="229231" />
		<tag k="waterway" v="stream" />
	</node>
	<node id="-543757" lat="61.9154416687" lon="6.3986472241">
		<tag k="name" v="Kvanndalsvatnet" />
		<tag k="natural" v="water" />
		<tag k="ssr:stedsnr" v="616965" />
	</node>
	<node id="-543244" lat="61.924561107" lon="6.34737499511">
		<tag k="name" v="Fyrstegropa" />
		<tag k="ssr:stedsnr" v="229227" />
		<tag k="waterway" v="stream" />
	</node>
	<node id="-542731" lat="61.9363555586" lon="6.08847500597">
		<tag k="name" v="Lometjønna" />
		<tag k="natural" v="water" />
		<tag k="ssr:stedsnr" v="10530" />
	</node>
	<node id="-543754" lat="61.9385750013" lon="6.4213694424">
		<tag k="name" v="Landholmen" />
		<tag k="natural" v="cape" />
		<tag k="ssr:stedsnr" v="616951" />
	</node>
	<node id="-542807" lat="61.8672083312" lon="6.25856389374">
		<tag k="name" v="Andalgrova" />
		<tag k="ssr:stedsnr" v="47210" />
		<tag k="waterway" v="stream" />
	</node>
	<node id="-543316" lat="61.8565611089" lon="6.13305833075">
		<tag k="name" v="Kjeåa" />
		<tag k="ssr:stedsnr" v="252592" />
		<tag k="waterway" v="stream" />
	</node>
	<node id="-543749" lat="61.9410166644" lon="5.73893610357">
		<tag k="name" v="Tverrelva" />
		<tag k="ssr:stedsnr" v="616850" />
		<tag k="waterway" v="stream" />
	</node>
	<node id="-543349" lat="61.8969805589" lon="6.14927777008">
		<tag k="name" v="Sagelva" />
		<tag k="ssr:stedsnr" v="262772" />
		<tag k="waterway" v="stream" />
	</node>
	<node id="-542723" lat="61.9510527806" lon="5.5685111112">
		<tag k="name" v="Midgjeldsvatnet" />
		<tag k="natural" v="water" />
		<tag k="ssr:stedsnr" v="10469" />
	</node>
</osm>
