<?xml version="1.0" encoding="UTF-8"?>
<osm version="0.6" generator="osmapis">
	<node lat="60.54295000204582" lon="10.220850008301172" id="-24232">
		<tag k="alt_name" v="Sandtjennbekken" />
		<tag k="name" v="Sandtjernbekken" />
		<tag k="ssr:stedsnr" v="7546" />
		<tag k="waterway" v="stream" />
	</node>
	<node lat="60.67910278065162" lon="10.120555549193185" id="-24234">
		<tag k="name" v="Hotellbekken" />
		<tag k="ssr:stedsnr" v="7716" />
		<tag k="waterway" v="stream" />
	</node>
	<node lat="60.71112500083392" lon="10.243441662984313" id="-24235">
		<tag k="name" v="Flatlibekken" />
		<tag k="ssr:stedsnr" v="7797" />
		<tag k="waterway" v="stream" />
	</node>
	<node lat="60.76922499852778" lon="10.25211667348365" id="-24239">
		<tag k="name" v="Steinsrudelva" />
		<tag k="ssr:stedsnr" v="9631" />
		<tag k="waterway" v="stream" />
	</node>
	<node lat="60.663719440541676" lon="10.066158328729196" id="-24244">
		<tag k="name" v="Skjekjetjenn" />
		<tag k="natural" v="water" />
		<tag k="ssr:stedsnr" v="40989" />
	</node>
	<node lat="60.65997777404542" lon="10.0789249935685" id="-24245">
		<tag k="name" v="Putta" />
		<tag k="natural" v="water" />
		<tag k="ssr:stedsnr" v="40990" />
	</node>
	<node lat="60.63039721789633" lon="10.086877769040585" id="-24248">
		<tag k="name" v="Rokoa" />
		<tag k="place" v="islet" />
		<tag k="ssr:stedsnr" v="41769" />
	</node>
	<node lat="60.641311111549456" lon="10.03599999561076" id="-24249">
		<tag k="name" v="Vesle Dytthøltjenn" />
		<tag k="natural" v="water" />
		<tag k="ssr:stedsnr" v="41773" />
	</node>
	<node lat="60.63458333588843" lon="10.070841664057152" id="-24252">
		<tag k="name" v="Svartvassvika" />
		<tag k="natural" v="bay" />
		<tag k="ssr:stedsnr" v="41808" />
	</node>
	<node lat="60.58232777937884" lon="10.440622224100627" id="-24255">
		<tag k="alt_name" v="Lustjenn" />
		<tag k="name" v="Lustjern" />
		<tag k="natural" v="water" />
		<tag k="ssr:stedsnr" v="238154" />
	</node>
	<node lat="60.66656677764464" lon="10.415074852848395" id="-24261">
		<tag k="name" v="Nordre Trevatn" />
		<tag k="natural" v="water" />
		<tag k="ssr:stedsnr" v="238275" />
		<tag k="water" v="lake" />
	</node>
	<node lat="60.79391110832073" lon="10.345977784573627" id="-24266">
		<tag k="name" v="Sæterbekken" />
		<tag k="ssr:stedsnr" v="238878" />
		<tag k="waterway" v="stream" />
	</node>
	<node lat="60.82889999836341" lon="10.288705555958645" id="-24271">
		<tag k="name" v="Landåsdammen" />
		<tag k="ssr:stedsnr" v="56114" />
		<tag k="waterway" v="dam" />
	</node>
	<node lat="60.578219449017205" lon="10.492788880655871" id="-24276">
		<tag k="alt_name" v="Tretjenna" />
		<tag k="name" v="Tretjerna" />
		<tag k="natural" v="water" />
		<tag k="ssr:stedsnr" v="56402" />
		<tag k="water" v="lake" />
	</node>
	<node lat="60.601805557692806" lon="10.503083340979533" id="-24278">
		<tag k="alt_name" v="Tretjenna" />
		<tag k="name" v="Tretjerna" />
		<tag k="natural" v="water" />
		<tag k="ssr:stedsnr" v="56408" />
		<tag k="water" v="lake" />
	</node>
	<node lat="60.60442777346232" lon="10.104966661265518" id="-24283">
		<tag k="alt_name" v="Stjernetjenn" />
		<tag k="name" v="Stjernetjern" />
		<tag k="natural" v="water" />
		<tag k="ssr:stedsnr" v="56804" />
	</node>
	<node lat="60.60533332959095" lon="10.350127774406921" id="-24285">
		<tag k="name" v="Sjellbekken" />
		<tag k="ssr:stedsnr" v="56570" />
		<tag k="waterway" v="stream" />
	</node>
	<node lat="60.64108888707131" lon="10.281280555150634" id="-24291">
		<tag k="name" v="Langtjernet" />
		<tag k="natural" v="water" />
		<tag k="ssr:stedsnr" v="67639" />
	</node>
	<node lat="60.64114999822498" lon="10.230980557135767" id="-24293">
		<tag k="name" v="Skutbekken" />
		<tag k="ssr:stedsnr" v="67649" />
		<tag k="waterway" v="stream" />
	</node>
	<node lat="60.64665555279883" lon="10.107358335020026" id="-24295">
		<tag k="name" v="Selsjøbekken" />
		<tag k="ssr:stedsnr" v="67655" />
		<tag k="waterway" v="stream" />
	</node>
	<node lat="60.672400000004174" lon="10.308863886824971" id="-24296">
		<tag k="name" v="Brakarlibekken" />
		<tag k="ssr:stedsnr" v="67733" />
		<tag k="waterway" v="stream" />
	</node>
	<node lat="60.68896111449941" lon="10.129158339952033" id="-24298">
		<tag k="alt_name" v="Hemtjenn" />
		<tag k="name" v="Heimtjernet" />
		<tag k="natural" v="water" />
		<tag k="ssr:stedsnr" v="67749" />
	</node>
	<node lat="60.56140679108147" lon="10.155323197242195" id="-24302">
		<tag k="alt_name" v="Aurtjernet, nordre;Nordre Auretjenn" />
		<tag k="name" v="Nordre Auretjern" />
		<tag k="natural" v="water" />
		<tag k="ssr:stedsnr" v="68538" />
	</node>
	<node lat="60.5703608580865" lon="10.149067666400658" id="-24303">
		<tag k="alt_name" v="Spettmyrbergetjenn;Spettmyrbergetjern" />
		<tag k="name" v="Spettmyrbergetjernet" />
		<tag k="natural" v="water" />
		<tag k="old_name" v="Sperttmyrbergtjernet" />
		<tag k="ssr:stedsnr" v="68609" />
	</node>
	<node lat="60.70649999829887" lon="10.122847214069234" id="-24309">
		<tag k="name" v="Åpenbekken" />
		<tag k="ssr:stedsnr" v="68803" />
		<tag k="waterway" v="stream" />
	</node>
	<node lat="60.71041111033662" lon="10.181786112604302" id="-24310">
		<tag k="alt_name" v="Væltvatnet" />
		<tag k="name" v="Veslevatnet" />
		<tag k="natural" v="water" />
		<tag k="ssr:stedsnr" v="68804" />
	</node>
	<node lat="60.76112500446174" lon="10.36987499639488" id="-24311">
		<tag k="alt_name" v="Breskebekken" />
		<tag k="name" v="Briskebekken" />
		<tag k="ssr:stedsnr" v="70077" />
		<tag k="waterway" v="stream" />
	</node>
	<node lat="60.77131666771131" lon="10.15359445191314" id="-24314">
		<tag k="name" v="Rønningsbekken" />
		<tag k="ssr:stedsnr" v="70634" />
		<tag k="waterway" v="stream" />
	</node>
	<node lat="60.245433336755056" lon="10.395469440791546" id="-24320">
		<tag k="name" v="Randsfjorden" />
		<tag k="natural" v="water" />
		<tag k="ssr:stedsnr" v="248364" />
		<tag k="water" v="lake" />
	</node>
	<node lat="60.64195000213566" lon="10.149480562885273" id="-24330">
		<tag k="alt_name" v="Stortjennbekken" />
		<tag k="name" v="Stortjernbekken" />
		<tag k="ssr:stedsnr" v="249624" />
		<tag k="waterway" v="stream" />
	</node>
	<node lat="60.67917486630877" lon="10.274432618966907" id="-24336">
		<tag k="alt_name" v="Gunhildtjenn" />
		<tag k="name" v="Gunhildtjernet" />
		<tag k="natural" v="water" />
		<tag k="ssr:stedsnr" v="249716" />
	</node>
	<node lat="60.74046388525053" lon="10.244300005790397" id="-24340">
		<tag k="name" v="Tjuvholmen" />
		<tag k="place" v="islet" />
		<tag k="ssr:stedsnr" v="249750" />
	</node>
	<node lat="60.720152776422054" lon="10.054355553973323" id="-24342">
		<tag k="name" v="Langvatnet" />
		<tag k="natural" v="water" />
		<tag k="ssr:stedsnr" v="249774" />
		<tag k="water" v="lake" />
	</node>
	<node lat="60.626420333474925" lon="10.310570105201991" id="-24343">
		<tag k="alt_name" v="Kroktjenn" />
		<tag k="name" v="Kroktjernet" />
		<tag k="natural" v="water" />
		<tag k="ssr:stedsnr" v="249895" />
	</node>
	<node lat="60.70845789531544" lon="10.151289390291648" id="-24344">
		<tag k="alt_name" v="Kumyrtjenn" />
		<tag k="name" v="Kumyrtjernet" />
		<tag k="natural" v="water" />
		<tag k="ssr:stedsnr" v="250790" />
	</node>
	<node lat="60.59443158365004" lon="10.503096807092493" id="-24345">
		<tag k="alt_name" v="Langtjenn" />
		<tag k="name" v="Langtjern" />
		<tag k="natural" v="water" />
		<tag k="ssr:stedsnr" v="250180" />
	</node>
	<node lat="60.737347225396206" lon="10.355199991073665" id="-24354">
		<tag k="name" v="Lauselva" />
		<tag k="ssr:stedsnr" v="250449" />
		<tag k="waterway" v="river" />
	</node>
	<node lat="60.65158371230698" lon="10.462211078710578" id="-24367">
		<tag k="alt_name" v="Nordre Tretjenn" />
		<tag k="name" v="Nordre Tretjern" />
		<tag k="natural" v="water" />
		<tag k="ssr:stedsnr" v="116272" />
	</node>
	<node lat="60.600891669154784" lon="10.197358339542925" id="-24368">
		<tag k="name" v="Brennbekken" />
		<tag k="ssr:stedsnr" v="250571" />
		<tag k="waterway" v="stream" />
	</node>
	<node lat="60.59241239373" lon="10.150483249753506" id="-24369">
		<tag k="alt_name" v="Skutsætertjenn" />
		<tag k="name" v="Skutsætertjernet" />
		<tag k="natural" v="water" />
		<tag k="ssr:stedsnr" v="250581" />
	</node>
	<node lat="60.571224996573314" lon="10.213138884291302" id="-24371">
		<tag k="name" v="Kjerringmigen" />
		<tag k="natural" v="water" />
		<tag k="ssr:stedsnr" v="250589" />
	</node>
	<node lat="60.56287818648665" lon="10.245497891974498" id="-24372">
		<tag k="alt_name" v="Bjørnlitjenn" />
		<tag k="name" v="Bjørnlitjern" />
		<tag k="natural" v="water" />
		<tag k="ssr:stedsnr" v="116476" />
	</node>
	<node lat="60.600738890477224" lon="10.116574996039299" id="-24378">
		<tag k="name" v="Styggedalsbekken" />
		<tag k="ssr:stedsnr" v="116789" />
		<tag k="waterway" v="stream" />
	</node>
	<node lat="60.58804722355938" lon="10.100863891065595" id="-24379">
		<tag k="alt_name" v="Oksetjernsbekken" />
		<tag k="name" v="Oksetjennsbekken" />
		<tag k="ssr:stedsnr" v="116791" />
		<tag k="waterway" v="stream" />
	</node>
	<node lat="60.60989617311865" lon="10.16256564043407" id="-24380">
		<tag k="alt_name" v="Bergetjenn" />
		<tag k="name" v="Bergetjernet" />
		<tag k="natural" v="water" />
		<tag k="ssr:stedsnr" v="250662" />
	</node>
	<node lat="60.58222499711005" lon="10.37443888279118" id="-24381">
		<tag k="alt_name" v="Store Sandtjenn" />
		<tag k="name" v="Store Sandtjern" />
		<tag k="natural" v="water" />
		<tag k="ssr:stedsnr" v="117173" />
	</node>
	<node lat="60.703399999810706" lon="10.264286117213405" id="-24382">
		<tag k="name" v="Patterudbekken" />
		<tag k="ssr:stedsnr" v="250705" />
		<tag k="waterway" v="stream" />
	</node>
	<node lat="60.70061111208461" lon="10.337494443146129" id="-24388">
		<tag k="name" v="Kråkvika" />
		<tag k="natural" v="bay" />
		<tag k="ssr:stedsnr" v="117633" />
	</node>
	<node lat="60.567238886847605" lon="10.407213893630697" id="-24392">
		<tag k="name" v="Halvnyttebekken" />
		<tag k="ssr:stedsnr" v="128102" />
		<tag k="waterway" v="stream" />
	</node>
	<node lat="60.62278610832292" lon="10.417838883127821" id="-24394">
		<tag k="name" v="Kimbekken" />
		<tag k="ssr:stedsnr" v="128194" />
		<tag k="waterway" v="stream" />
	</node>
	<node lat="60.71743611084406" lon="10.432713884049019" id="-24401">
		<tag k="name" v="Grytbekken" />
		<tag k="ssr:stedsnr" v="128406" />
		<tag k="waterway" v="stream" />
	</node>
	<node lat="60.55693464691472" lon="10.213320380659292" id="-24403">
		<tag k="alt_name" v="Sandtjernet, nordre;Store Sandtjern" />
		<tag k="loc_name" v="Store Sandtjenn" />
		<tag k="name" v="Nordre Sandtjernet" />
		<tag k="natural" v="water" />
		<tag k="ssr:stedsnr" v="128507" />
	</node>
	<node lat="60.54636702267725" lon="10.2359221102869" id="-24405">
		<tag k="alt_name" v="Tretjernet, nordre;Nordre Tretjenn" />
		<tag k="name" v="Nordre Tretjern" />
		<tag k="natural" v="water" />
		<tag k="ssr:stedsnr" v="128542" />
	</node>
	<node lat="60.57798888585349" lon="10.220783337105667" id="-24407">
		<tag k="alt_name" v="Totjenna" />
		<tag k="name" v="Totjerna" />
		<tag k="natural" v="water" />
		<tag k="ssr:stedsnr" v="128593" />
		<tag k="water" v="lake" />
	</node>
	<node lat="60.63353356043845" lon="10.144014301820642" id="-24416">
		<tag k="alt_name" v="Stortjenn;Stortjern" />
		<tag k="name" v="Stortjernet" />
		<tag k="natural" v="water" />
		<tag k="ssr:stedsnr" v="128659" />
	</node>
	<node lat="60.721099997309075" lon="10.33838332768474" id="-24419">
		<tag k="name" v="Lauselva" />
		<tag k="ssr:stedsnr" v="128802" />
		<tag k="waterway" v="stream" />
	</node>
	<node lat="60.8337839720425" lon="9.748522268945935" id="-24427">
		<tag k="name" v="Etna" />
		<tag k="ssr:stedsnr" v="130312" />
		<tag k="waterway" v="river" />
	</node>
	<node lat="60.77796389309419" lon="10.21648333305766" id="-24431">
		<tag k="name" v="Rostadvika" />
		<tag k="natural" v="bay" />
		<tag k="ssr:stedsnr" v="252599" />
	</node>
	<node lat="60.60683333629425" lon="10.266130549648198" id="-24441">
		<tag k="name" v="Fløyta" />
		<tag k="natural" v="water" />
		<tag k="ssr:stedsnr" v="162605" />
	</node>
	<node lat="60.71178333027744" lon="10.021786115546597" id="-24447">
		<tag k="name" v="Elgputten" />
		<tag k="natural" v="water" />
		<tag k="ssr:stedsnr" v="162973" />
	</node>
	<node lat="60.691527776097956" lon="10.15275833824875" id="-24448">
		<tag k="name" v="Furukalltjenn" />
		<tag k="natural" v="water" />
		<tag k="ssr:stedsnr" v="177110" />
	</node>
	<node lat="60.70286667105826" lon="10.16642221498807" id="-24449">
		<tag k="name" v="Kumyrbekken" />
		<tag k="ssr:stedsnr" v="177113" />
		<tag k="waterway" v="stream" />
	</node>
	<node lat="60.63620555359336" lon="10.416069452352135" id="-24452">
		<tag k="name" v="Lønnfiske" />
		<tag k="natural" v="water" />
		<tag k="ssr:stedsnr" v="177262" />
	</node>
	<node lat="60.770961107763384" lon="10.280352784046132" id="-24465">
		<tag k="name" v="Vesleelva" />
		<tag k="ssr:stedsnr" v="177857" />
		<tag k="waterway" v="stream" />
	</node>
	<node lat="60.76023888860237" lon="10.301099995478273" id="-24466">
		<tag k="name" v="Kløvstadputten" />
		<tag k="natural" v="water" />
		<tag k="ssr:stedsnr" v="177864" />
	</node>
	<node lat="60.68680000230365" lon="10.222611119856197" id="-24468">
		<tag k="alt_name" v="Masputta" />
		<tag k="name" v="Masputtane" />
		<tag k="natural" v="water" />
		<tag k="ssr:stedsnr" v="188770" />
		<tag k="water" v="lake" />
	</node>
	<node lat="60.68195137680434" lon="10.203582508282695" id="-24469">
		<tag k="alt_name" v="Eiltjenn" />
		<tag k="name" v="Eiltjernet" />
		<tag k="natural" v="water" />
		<tag k="ssr:stedsnr" v="188771" />
	</node>
	<node lat="60.605463892217756" lon="10.49995277686199" id="-24470">
		<tag k="alt_name" v="Geittjenn" />
		<tag k="name" v="Geittjernet" />
		<tag k="natural" v="water" />
		<tag k="ssr:stedsnr" v="189170" />
	</node>
	<node lat="60.56549730811292" lon="10.476436421687561" id="-24471">
		<tag k="alt_name" v="Nordsetertjenn;Nordsetertjern" />
		<tag k="name" v="Nordsætertjernet" />
		<tag k="natural" v="water" />
		<tag k="ssr:stedsnr" v="189121" />
	</node>
	<node lat="60.573500000120106" lon="10.417486116421461" id="-24472">
		<tag k="alt_name" v="Holmetjenn" />
		<tag k="loc_name" v="Holmetjernet" />
		<tag k="name" v="Homletjernet" />
		<tag k="natural" v="water" />
		<tag k="ssr:stedsnr" v="189138" />
	</node>
	<node lat="60.57303055710719" lon="10.375552781168233" id="-24473">
		<tag k="name" v="Demma" />
		<tag k="place" v="locality" />
		<tag k="ssr:stedsnr" v="189140" />
	</node>
	<node lat="60.588620376277504" lon="10.38481845600263" id="-24474">
		<tag k="alt_name" v="Svarttjenn" />
		<tag k="name" v="Svarttjernet" />
		<tag k="natural" v="water" />
		<tag k="ssr:stedsnr" v="189148" />
	</node>
	<node lat="60.588441666088414" lon="10.125522218051543" id="-24475">
		<tag k="name" v="Bergevatnet" />
		<tag k="natural" v="water" />
		<tag k="ssr:stedsnr" v="189526" />
	</node>
	<node lat="60.65306110964194" lon="10.236263892327829" id="-24477">
		<tag k="alt_name" v="Primtjenn" />
		<tag k="name" v="Primtjernet" />
		<tag k="natural" v="water" />
		<tag k="ssr:stedsnr" v="189606" />
	</node>
	<node lat="60.67976110939082" lon="10.219350002317151" id="-24480">
		<tag k="alt_name" v="Røyrtjernet, fremre" />
		<tag k="name" v="Fremre Røyrtjernet" />
		<tag k="natural" v="water" />
		<tag k="ssr:stedsnr" v="189708" />
	</node>
	<node lat="60.79050833584732" lon="10.326811115726706" id="-24481">
		<tag k="name" v="Bergebekken" />
		<tag k="ssr:stedsnr" v="191615" />
		<tag k="waterway" v="stream" />
	</node>
	<node lat="60.62840278177176" lon="10.080686112746385" id="-24496">
		<tag k="name" v="Gråmerra" />
		<tag k="place" v="islet" />
		<tag k="ssr:stedsnr" v="223804" />
	</node>
	<node lat="60.726927780627925" lon="10.105091665456733" id="-24497">
		<tag k="name" v="Storholmen" />
		<tag k="natural" v="cape" />
		<tag k="ssr:stedsnr" v="223908" />
	</node>
	<node lat="60.580069447279236" lon="10.209430558838372" id="-24514">
		<tag k="name" v="Grønnmalen" />
		<tag k="natural" v="water" />
		<tag k="ssr:stedsnr" v="238903" />
	</node>
	<node lat="60.76022222181281" lon="10.346866665562557" id="-24516">
		<tag k="name" v="Svinningen" />
		<tag k="natural" v="water" />
		<tag k="ssr:stedsnr" v="238932" />
		<tag k="water" v="lake" />
	</node>
	<node lat="60.824505552991184" lon="10.228811118068263" id="-24517">
		<tag k="name" v="Skrankeholmen" />
		<tag k="place" v="island" />
		<tag k="ssr:stedsnr" v="238981" />
	</node>
	<node lat="60.558358333558466" lon="10.454358339484195" id="-24519">
		<tag k="alt_name" v="Tretjenna" />
		<tag k="name" v="Tretjerna" />
		<tag k="natural" v="water" />
		<tag k="ssr:stedsnr" v="456445" />
	</node>
	<node lat="60.54094166628561" lon="10.119958327106735" id="-24521">
		<tag k="name" v="Aurtjernselva" />
		<tag k="ssr:stedsnr" v="268197" />
		<tag k="waterway" v="river" />
	</node>
	<node lat="60.72243333679626" lon="10.189188890983745" id="-24525">
		<tag k="name" v="Lønnfiskevann" />
		<tag k="natural" v="water" />
		<tag k="ssr:stedsnr" v="284277" />
	</node>
	<node lat="60.62262222574702" lon="10.148075005224015" id="-24529">
		<tag k="name" v="Lekkerbekken" />
		<tag k="ssr:stedsnr" v="298085" />
		<tag k="waterway" v="stream" />
	</node>
	<node lat="60.76505000383865" lon="10.306466668422619" id="-24531">
		<tag k="name" v="Putten" />
		<tag k="natural" v="water" />
		<tag k="ssr:stedsnr" v="298804" />
	</node>
	<node lat="60.58901111168341" lon="10.266783327221711" id="-24535">
		<tag k="name" v="Engemyrbekken" />
		<tag k="ssr:stedsnr" v="299580" />
		<tag k="waterway" v="stream" />
	</node>
	<node lat="60.77205555484131" lon="10.372033337397703" id="-24544">
		<tag k="name" v="Lifossen" />
		<tag k="natural" v="waterfall" />
		<tag k="ssr:stedsnr" v="465377" />
	</node>
	<node lat="60.76078333035006" lon="10.342016658504596" id="-24546">
		<tag k="name" v="Marenputten" />
		<tag k="natural" v="water" />
		<tag k="ssr:stedsnr" v="465932" />
		<tag k="water" v="pond" />
	</node>
	<node lat="60.65276667086831" lon="10.12088055315418" id="-24549">
		<tag k="name" v="Storholmen" />
		<tag k="place" v="islet" />
		<tag k="ssr:stedsnr" v="465950" />
	</node>
	<node lat="60.613800001145414" lon="10.398188894236135" id="-24552">
		<tag k="alt_name" v="Gåstjenn" />
		<tag k="name" v="Gåstjerna" />
		<tag k="natural" v="water" />
		<tag k="ssr:stedsnr" v="310192" />
		<tag k="water" v="lake" />
	</node>
	<node lat="60.60927221899762" lon="10.473311110683936" id="-24553">
		<tag k="name" v="Svartbekken" />
		<tag k="ssr:stedsnr" v="310194" />
		<tag k="waterway" v="stream" />
	</node>
	<node lat="60.60787499552126" lon="10.517455560984208" id="-24554">
		<tag k="alt_name" v="Svarttjenn" />
		<tag k="name" v="Svarttjern" />
		<tag k="natural" v="water" />
		<tag k="ssr:stedsnr" v="310197" />
	</node>
	<node lat="60.56393235477155" lon="10.19449311158632" id="-24555">
		<tag k="alt_name" v="Flåtjernet, store;Store Flåtjenn" />
		<tag k="name" v="Store Flåtjern" />
		<tag k="natural" v="water" />
		<tag k="ssr:stedsnr" v="310602" />
	</node>
	<node lat="60.5665166657062" lon="10.265969451677028" id="-24556">
		<tag k="alt_name" v="Purketjenn" />
		<tag k="name" v="Purketjernet" />
		<tag k="natural" v="water" />
		<tag k="ssr:stedsnr" v="310613" />
	</node>
	<node lat="60.58155278086508" lon="10.186952786560163" id="-24557">
		<tag k="name" v="Lauvlivassbekken" />
		<tag k="ssr:stedsnr" v="310616" />
		<tag k="waterway" v="stream" />
	</node>
	<node lat="60.717588888410134" lon="10.130055553157765" id="-24565">
		<tag k="alt_name" v="Fjøltjenn" />
		<tag k="name" v="Fjøltjernet" />
		<tag k="natural" v="water" />
		<tag k="ssr:stedsnr" v="310802" />
	</node>
	<node lat="60.75417499577927" lon="10.159499994792462" id="-24568">
		<tag k="name" v="Brattlielva" />
		<tag k="ssr:stedsnr" v="466285" />
		<tag k="waterway" v="stream" />
	</node>
	<node lat="60.63269722601786" lon="10.262969442332704" id="-24571">
		<tag k="name" v="Osphaugbekken" />
		<tag k="ssr:stedsnr" v="466546" />
		<tag k="waterway" v="stream" />
	</node>
	<node lat="60.63076944760034" lon="10.093391671987673" id="-24574">
		<tag k="name" v="Elgeodden" />
		<tag k="natural" v="cape" />
		<tag k="ssr:stedsnr" v="466787" />
	</node>
	<node lat="60.646286110887544" lon="10.122538881472806" id="-24575">
		<tag k="name" v="Aquabulu" />
		<tag k="natural" v="bay" />
		<tag k="ssr:stedsnr" v="466790" />
	</node>
	<node lat="60.63634166259716" lon="10.08206389424864" id="-24576">
		<tag k="name" v="Likallen" />
		<tag k="place" v="islet" />
		<tag k="ssr:stedsnr" v="466791" />
	</node>
	<node lat="60.637697223803976" lon="10.0856361165033" id="-24577">
		<tag k="name" v="Båtbordodden" />
		<tag k="natural" v="cape" />
		<tag k="ssr:stedsnr" v="466792" />
	</node>
	<node lat="60.63305000090706" lon="10.08768334137794" id="-24578">
		<tag k="name" v="Granholmen" />
		<tag k="place" v="islet" />
		<tag k="ssr:stedsnr" v="466796" />
	</node>
	<node lat="60.85430000425581" lon="10.354602776466466" id="-24579">
		<tag k="name" v="Svartbekken" />
		<tag k="ssr:stedsnr" v="313917" />
		<tag k="waterway" v="stream" />
	</node>
	<node lat="60.71901740267062" lon="10.161151064299082" id="-24583">
		<tag k="alt_name" v="Beintvika" />
		<tag k="name" v="Bentvika" />
		<tag k="natural" v="bay" />
		<tag k="ssr:stedsnr" v="344258" />
	</node>
	<node lat="60.56912499882847" lon="10.257397217233413" id="-24585">
		<tag k="alt_name" v="Røyrtjenn" />
		<tag k="name" v="Røyrtjern" />
		<tag k="natural" v="water" />
		<tag k="ssr:stedsnr" v="344454" />
	</node>
	<node lat="60.56516389041762" lon="10.269616673876317" id="-24586">
		<tag k="alt_name" v="Karustjenn;Karusstjenn" />
		<tag k="name" v="Karustjern" />
		<tag k="natural" v="water" />
		<tag k="ssr:stedsnr" v="344455" />
	</node>
	<node lat="60.68126388441194" lon="10.049311114446207" id="-24593">
		<tag k="alt_name" v="Kvitbergstjennbekken" />
		<tag k="name" v="Kvitbergstjernbekken" />
		<tag k="ssr:stedsnr" v="344961" />
		<tag k="waterway" v="stream" />
	</node>
	<node lat="60.676058333517766" lon="10.051122227434435" id="-24595">
		<tag k="name" v="Lortpullen" />
		<tag k="natural" v="water" />
		<tag k="ssr:stedsnr" v="344963" />
	</node>
	<node lat="60.79801388795414" lon="10.14066389172776" id="-24596">
		<tag k="name" v="Hengslet" />
		<tag k="place" v="locality" />
		<tag k="ssr:stedsnr" v="348259" />
	</node>
	<node lat="60.693913887588685" lon="10.345499994008806" id="-24608">
		<tag k="name" v="Søgardslandet" />
		<tag k="natural" v="beach" />
		<tag k="ssr:stedsnr" v="359649" />
	</node>
	<node lat="60.61928333681757" lon="10.084594449776338" id="-24611">
		<tag k="name" v="Storsøvassbekken" />
		<tag k="ssr:stedsnr" v="359806" />
		<tag k="waterway" v="stream" />
	</node>
	<node lat="60.62305278109119" lon="10.084611106546927" id="-24612">
		<tag k="alt_name" v="Selsjøtjennet" />
		<tag k="name" v="Selsjøtjernet" />
		<tag k="natural" v="water" />
		<tag k="ssr:stedsnr" v="359808" />
	</node>
	<node lat="60.557624458785654" lon="10.382134054553031" id="-24618">
		<tag k="alt_name" v="Hollingdalstjenna" />
		<tag k="name" v="Hallingdalstjerna" />
		<tag k="natural" v="water" />
		<tag k="ssr:stedsnr" v="371122" />
		<tag k="water" v="lake" />
	</node>
	<node lat="60.65584097786576" lon="10.385712603807416" id="-24621">
		<tag k="alt_name" v="Vardtjenna" />
		<tag k="name" v="Vardtjerna" />
		<tag k="natural" v="water" />
		<tag k="ssr:stedsnr" v="371243" />
		<tag k="water" v="lake" />
	</node>
	<node lat="60.63392499734755" lon="10.11187778445981" id="-24625">
		<tag k="alt_name" v="Lønnfisket" />
		<tag k="name" v="Løynfisket" />
		<tag k="natural" v="water" />
		<tag k="ssr:stedsnr" v="371624" />
	</node>
	<node lat="60.642083329281974" lon="10.416616666839676" id="-24638">
		<tag k="name" v="Marsteinvika" />
		<tag k="natural" v="bay" />
		<tag k="ssr:stedsnr" v="480231" />
	</node>
	<node lat="60.66873888946512" lon="10.407966670778038" id="-24640">
		<tag k="name" v="Trevassdammen" />
		<tag k="ssr:stedsnr" v="480239" />
		<tag k="waterway" v="dam" />
	</node>
	<node lat="60.709730559520246" lon="10.413958328685988" id="-24653">
		<tag k="alt_name" v="Føltjenn" />
		<tag k="name" v="Føltjern" />
		<tag k="natural" v="water" />
		<tag k="ssr:stedsnr" v="480346" />
	</node>
	<node lat="60.62661388626557" lon="10.084047215853472" id="-24655">
		<tag k="name" v="Drittodden" />
		<tag k="natural" v="cape" />
		<tag k="ssr:stedsnr" v="480815" />
	</node>
	<node lat="60.67055555563804" lon="10.063455553505914" id="-24665">
		<tag k="name" v="Krokvassauget" />
		<tag k="natural" v="bay" />
		<tag k="ssr:stedsnr" v="404982" />
	</node>
	<node lat="60.628586110670405" lon="10.48790278254466" id="-24668">
		<tag k="name" v="Elveoset" />
		<tag k="natural" v="bay" />
		<tag k="ssr:stedsnr" v="405322" />
	</node>
	<node lat="60.6359333291651" lon="10.075291658353773" id="-24676">
		<tag k="name" v="Sandodden" />
		<tag k="natural" v="cape" />
		<tag k="ssr:stedsnr" v="405800" />
	</node>
	<node lat="60.62891667032551" lon="10.07733334024884" id="-24679">
		<tag k="name" v="Bjønnsund" />
		<tag k="natural" v="strait" />
		<tag k="ssr:stedsnr" v="405803" />
	</node>
	<node lat="60.64449444268008" lon="10.084169453195782" id="-24680">
		<tag k="alt_name" v="Laddøyrtjenn" />
		<tag k="name" v="Laddøyrtjern" />
		<tag k="natural" v="water" />
		<tag k="ssr:stedsnr" v="405809" />
	</node>
	<node lat="60.589763888665466" lon="10.356841658113689" id="-24686">
		<tag k="name" v="Ballerudbekken" />
		<tag k="ssr:stedsnr" v="420599" />
		<tag k="waterway" v="stream" />
	</node>
	<node lat="60.57452500164253" lon="10.24628610936322" id="-24694">
		<tag k="name" v="Sæterputten" />
		<tag k="natural" v="water" />
		<tag k="ssr:stedsnr" v="420907" />
	</node>
	<node lat="60.68696141703667" lon="10.064021475910065" id="-24699">
		<tag k="alt_name" v="Eintjenn;Eintjern" />
		<tag k="name" v="Eintjernet" />
		<tag k="natural" v="water" />
		<tag k="ssr:stedsnr" v="431708" />
	</node>
	<node lat="60.68241565632171" lon="10.043777386827799" id="-24700">
		<tag k="alt_name" v="Kvitbergtjenn;Kvitbergtjern" />
		<tag k="name" v="Kvitbergstjernet" />
		<tag k="natural" v="water" />
		<tag k="ssr:stedsnr" v="431709" />
	</node>
	<node lat="60.55821269485698" lon="10.105829291699003" id="-24707">
		<tag k="alt_name" v="Øytjenn;Øytjern" />
		<tag k="name" v="Øytjernet" />
		<tag k="natural" v="water" />
		<tag k="ssr:stedsnr" v="432491" />
	</node>
	<node lat="60.62914444736913" lon="10.037527783783153" id="-24708">
		<tag k="alt_name" v="Gråhattjernet" />
		<tag k="name" v="Gråhattjern" />
		<tag k="natural" v="water" />
		<tag k="ssr:stedsnr" v="432611" />
	</node>
	<node lat="60.56922316496973" lon="10.238867459481488" id="-24716">
		<tag k="alt_name" v="Maurtjernet, s;Store Maurtjenn" />
		<tag k="name" v="Store Maurtjern" />
		<tag k="natural" v="water" />
		<tag k="ssr:stedsnr" v="432582" />
	</node>
	<node lat="60.66688610731111" lon="10.01448889597773" id="-24717">
		<tag k="alt_name" v="Bjønndalsbekken" />
		<tag k="name" v="Bjørndalsbekken" />
		<tag k="ssr:stedsnr" v="432706" />
		<tag k="waterway" v="stream" />
	</node>
	<node lat="60.71335000231274" lon="10.060227772709517" id="-24719">
		<tag k="alt_name" v="Øktmyrtjenn;Øktmyrtjern" />
		<tag k="name" v="Øktmyrtjernet" />
		<tag k="natural" v="water" />
		<tag k="ssr:stedsnr" v="432796" />
	</node>
	<node lat="60.55177316475043" lon="10.36740322807681" id="-24720">
		<tag k="alt_name" v="Dagertjernet;Dagertjenn;Dragertjenn" />
		<tag k="name" v="Dagertjern" />
		<tag k="natural" v="water" />
		<tag k="ssr:stedsnr" v="492091" />
	</node>
	<node lat="60.77642970434509" lon="10.380696908062433" id="-24721">
		<tag k="alt_name" v="Gåstjenn;Gåstjern" />
		<tag k="name" v="Gåstjernet" />
		<tag k="natural" v="water" />
		<tag k="ssr:stedsnr" v="434043" />
	</node>
	<node lat="60.76345833463949" lon="10.18548888148622" id="-24728">
		<tag k="alt_name" v="Rosttjernet, store;Store Rosttjenn;Store Rosttjern" />
		<tag k="name" v="Store Rosttjernet" />
		<tag k="natural" v="water" />
		<tag k="ssr:stedsnr" v="434706" />
	</node>
	<node lat="60.63582222506007" lon="10.396527771246008" id="-24734">
		<tag k="name" v="Vesleelva" />
		<tag k="ssr:stedsnr" v="492195" />
		<tag k="waterway" v="stream" />
	</node>
	<node lat="60.69050277394758" lon="10.394777778498035" id="-24738">
		<tag k="alt_name" v="Sedøla" />
		<tag k="name" v="Sedølsbekken" />
		<tag k="ssr:stedsnr" v="492354" />
		<tag k="waterway" v="stream" />
	</node>
	<node lat="60.557174999084154" lon="10.116047220579373" id="-24739">
		<tag k="name" v="Dalavasselva" />
		<tag k="ssr:stedsnr" v="492467" />
		<tag k="waterway" v="river" />
	</node>
	<node lat="60.55390381033429" lon="10.206748875452861" id="-24740">
		<tag k="alt_name" v="Sandtjernet, s;Søndre Sandtjernet;Vesle Sandtjenn;Vesle Sandtjern" />
		<tag k="name" v="Søre Sandtjernet" />
		<tag k="natural" v="water" />
		<tag k="ssr:stedsnr" v="492490" />
	</node>
	<node lat="60.56185629192058" lon="10.234430609278398" id="-24741">
		<tag k="alt_name" v="Gravdalstjernet, nordre;Nordre Gravdalstjenn" />
		<tag k="name" v="Nordre Gravdalstjern" />
		<tag k="natural" v="water" />
		<tag k="ssr:stedsnr" v="492494" />
	</node>
	<node lat="60.53646111168173" lon="10.12457222548001" id="-24742">
		<tag k="name" v="Brennodden" />
		<tag k="natural" v="cape" />
		<tag k="ssr:stedsnr" v="492500" />
	</node>
	<node lat="60.64113625509908" lon="10.292520305358991" id="-24743">
		<tag k="alt_name" v="Orrfugltjenn;Orrfugltjern" />
		<tag k="name" v="Orrfugltjernet" />
		<tag k="natural" v="water" />
		<tag k="ssr:stedsnr" v="492594" />
	</node>
	<node lat="60.631874996372304" lon="10.08053055191423" id="-24744">
		<tag k="name" v="Storholmen" />
		<tag k="place" v="islet" />
		<tag k="ssr:stedsnr" v="492597" />
	</node>
	<node lat="60.61605278008478" lon="10.246930557350453" id="-24746">
		<tag k="name" v="Tørrvassbekken" />
		<tag k="ssr:stedsnr" v="492628" />
		<tag k="waterway" v="stream" />
	</node>
	<node lat="60.62080040093781" lon="10.314371834160445" id="-24747">
		<tag k="alt_name" v="Veslesætertjenna" />
		<tag k="name" v="Veslsætertjerna" />
		<tag k="natural" v="water" />
		<tag k="ssr:stedsnr" v="492654" />
		<tag k="water" v="lake" />
	</node>
	<node lat="60.685891665611834" lon="10.157472221378491" id="-24750">
		<tag k="alt_name" v="Tobakktjennsbekken" />
		<tag k="name" v="Tobakktjernsbekken" />
		<tag k="ssr:stedsnr" v="492733" />
		<tag k="waterway" v="stream" />
	</node>
	<node lat="60.74641110681645" lon="10.24350832947147" id="-24752">
		<tag k="name" v="Husodden" />
		<tag k="natural" v="cape" />
		<tag k="ssr:stedsnr" v="492747" />
	</node>
	<node lat="60.78260986413532" lon="10.32186207244505" id="-24759">
		<tag k="alt_name" v="Gjøtjenn;Gjøtjern" />
		<tag k="name" v="Gjøtjernet" />
		<tag k="natural" v="water" />
		<tag k="ssr:stedsnr" v="494619" />
	</node>
	<node lat="60.80480596120688" lon="10.306767579532734" id="-24763">
		<tag k="alt_name" v="Svarttjenn;Svarttjern" />
		<tag k="name" v="Svarttjernet" />
		<tag k="natural" v="water" />
		<tag k="ssr:stedsnr" v="494648" />
	</node>
	<node lat="60.56521666572088" lon="10.42018889282697" id="-24766">
		<tag k="alt_name" v="Kimtjenn" />
		<tag k="name" v="Kimtjernet" />
		<tag k="natural" v="water" />
		<tag k="ssr:stedsnr" v="674142" />
	</node>
	<node lat="60.600624997261505" lon="10.425619442995256" id="-24770">
		<tag k="alt_name" v="Bjørvatnet, nordre" />
		<tag k="name" v="Nordre Bjørvatn" />
		<tag k="natural" v="water" />
		<tag k="ssr:stedsnr" v="674195" />
		<tag k="water" v="lake" />
	</node>
	<node lat="60.604000003272944" lon="10.120655564759634" id="-24779">
		<tag k="name" v="Trollhalvorsputten" />
		<tag k="natural" v="water" />
		<tag k="ssr:stedsnr" v="674579" />
	</node>
	<node lat="60.59351389057322" lon="10.153155560351308" id="-24780">
		<tag k="alt_name" v="Medalsgrandalstjenn" />
		<tag k="name" v="Medalsgrandalstjernet" />
		<tag k="natural" v="water" />
		<tag k="ssr:stedsnr" v="674585" />
	</node>
	<node lat="60.56597500290572" lon="10.22277500337852" id="-24782">
		<tag k="alt_name" v="Bergetjenn" />
		<tag k="name" v="Bergtjernet" />
		<tag k="natural" v="water" />
		<tag k="ssr:stedsnr" v="674587" />
	</node>
	<node lat="60.57097778063298" lon="10.227674992970945" id="-24783">
		<tag k="name" v="Nora" />
		<tag k="natural" v="water" />
		<tag k="ssr:stedsnr" v="674591" />
	</node>
	<node lat="60.66719444176219" lon="10.163102781829982" id="-24784">
		<tag k="name" v="Hofsfoss" />
		<tag k="natural" v="waterfall" />
		<tag k="ssr:stedsnr" v="465064" />
	</node>
	<node lat="60.61871389137" lon="10.152666673006737" id="-24787">
		<tag k="name" v="Lekkerbekken" />
		<tag k="ssr:stedsnr" v="674681" />
		<tag k="waterway" v="stream" />
	</node>
	<node lat="60.72919999560825" lon="10.147222216614708" id="-24793">
		<tag k="alt_name" v="Andtjenn" />
		<tag k="name" v="Andtjernet" />
		<tag k="natural" v="water" />
		<tag k="ssr:stedsnr" v="674780" />
	</node>
	<node lat="60.60604999575986" lon="10.366041659685884" id="-24821">
		<tag k="name" v="Øksneelva" />
		<tag k="ssr:stedsnr" v="480559" />
		<tag k="waterway" v="stream" />
	</node>
	<node lat="60.566647224196416" lon="10.244233326711091" id="-24824">
		<tag k="alt_name" v="Killingtjenn" />
		<tag k="name" v="Killingtjern" />
		<tag k="natural" v="water" />
		<tag k="ssr:stedsnr" v="480906" />
	</node>
	<node lat="60.675458330832875" lon="10.093655560525297" id="-24825">
		<tag k="name" v="Skålvassbekken" />
		<tag k="ssr:stedsnr" v="480977" />
		<tag k="waterway" v="stream" />
	</node>
	<node lat="60.555397217838774" lon="10.158216659309652" id="-24827">
		<tag k="alt_name" v="Gråskalltjennet" />
		<tag k="name" v="Gråskalltjernet" />
		<tag k="natural" v="water" />
		<tag k="ssr:stedsnr" v="480874" />
	</node>
	<node lat="60.568750000184664" lon="10.397997225056518" id="-24829">
		<tag k="alt_name" v="Grimsetertjenn" />
		<tag k="name" v="Grimsætertjernet" />
		<tag k="natural" v="water" />
		<tag k="ssr:stedsnr" v="492105" />
	</node>
	<node lat="60.57582777481967" lon="10.347749998217001" id="-24830">
		<tag k="name" v="Engerbekken" />
		<tag k="ssr:stedsnr" v="492116" />
		<tag k="waterway" v="stream" />
	</node>
	<node lat="60.54451520473636" lon="10.361779509778586" id="-24832">
		<tag k="alt_name" v="Teintjenn;Teintjern" />
		<tag k="name" v="Teintjernet" />
		<tag k="natural" v="water" />
		<tag k="ssr:stedsnr" v="492072" />
	</node>
	<node lat="60.65103549753268" lon="10.414488465891827" id="-24833">
		<tag k="name" v="Trevatna" />
		<tag k="natural" v="water" />
		<tag k="ssr:stedsnr" v="492280" />
		<tag k="water" v="lake" />
	</node>
	<node lat="60.5339348543329" lon="10.343340533662094" id="-24838">
		<tag k="alt_name" v="Heimtjenn;Heimtjern" />
		<tag k="name" v="Heimtjernet" />
		<tag k="natural" v="water" />
		<tag k="ssr:stedsnr" v="492502" />
	</node>
	<node lat="60.69225277474691" lon="10.075616657725451" id="-24841">
		<tag k="alt_name" v="Aurli, store" />
		<tag k="name" v="Store Aurli" />
		<tag k="natural" v="water" />
		<tag k="ssr:stedsnr" v="492681" />
	</node>
	<node lat="60.706886109672524" lon="10.026413891094938" id="-24843">
		<tag k="name" v="Myrsjøen" />
		<tag k="natural" v="water" />
		<tag k="ssr:stedsnr" v="492703" />
	</node>
	<node lat="60.639788890201196" lon="10.089433325327587" id="-24853">
		<tag k="name" v="Ølsund" />
		<tag k="natural" v="strait" />
		<tag k="ssr:stedsnr" v="526791" />
	</node>
	<node lat="60.63874166852112" lon="10.097513892552184" id="-24854">
		<tag k="name" v="Buskjæra" />
		<tag k="natural" v="bay" />
		<tag k="ssr:stedsnr" v="526792" />
	</node>
	<node lat="60.57598193198763" lon="10.14338545614728" id="-24855">
		<tag k="alt_name" v="Tolvtjennputta" />
		<tag k="name" v="Tolvtjernsputta" />
		<tag k="natural" v="water" />
		<tag k="ssr:stedsnr" v="526914" />
		<tag k="water" v="lake" />
	</node>
	<node lat="60.59761388849072" lon="10.244777777183877" id="-24857">
		<tag k="name" v="Gulmosemyrbekken" />
		<tag k="ssr:stedsnr" v="541072" />
		<tag k="waterway" v="stream" />
	</node>
	<node lat="60.68056944675779" lon="10.421155563426586" id="-24867">
		<tag k="name" v="Lortvika" />
		<tag k="natural" v="bay" />
		<tag k="ssr:stedsnr" v="541387" />
	</node>
	<node lat="60.600130557275925" lon="10.503175002972142" id="-24879">
		<tag k="alt_name" v="Tretjennsmyrene;Tretjernsmyrene" />
		<tag k="name" v="Tretjernmyrene" />
		<tag k="natural" v="water" />
		<tag k="ssr:stedsnr" v="552203" />
	</node>
	<node lat="60.73072054409959" lon="10.104767919600397" id="-24881">
		<tag k="alt_name" v="Store Grevsjøen" />
		<tag k="name" v="Grevssjøen" />
		<tag k="natural" v="water" />
		<tag k="ssr:stedsnr" v="552802" />
		<tag k="water" v="lake" />
	</node>
	<node lat="60.5702416679303" lon="10.224561113636899" id="-24886">
		<tag k="name" v="Kalvsjøen" />
		<tag k="natural" v="water" />
		<tag k="ssr:stedsnr" v="553597" />
	</node>
	<node lat="60.704475002321715" lon="10.007191665312474" id="-24889">
		<tag k="name" v="Skjellbreida" />
		<tag k="natural" v="water" />
		<tag k="ssr:stedsnr" v="553733" />
	</node>
	<node lat="60.55436836245156" lon="10.240627385441089" id="-24890">
		<tag k="alt_name" v="Gravdalstjernet, s;Søndre Gravdalstjenn;Søre Gravdalstjenn" />
		<tag k="name" v="Søre Gravdalstjern" />
		<tag k="natural" v="water" />
		<tag k="ssr:stedsnr" v="553498" />
	</node>
	<node lat="60.63415747117954" lon="10.282831298759836" id="-24895">
		<tag k="alt_name" v="Stokktjenn;Stokktjern" />
		<tag k="name" v="Stokktjernet" />
		<tag k="natural" v="water" />
		<tag k="ssr:stedsnr" v="553701" />
	</node>
	<node lat="60.71393055484999" lon="10.180433335067308" id="-24896">
		<tag k="alt_name" v="Åbbårn;Abbortjern" />
		<tag k="loc_name" v="Abbortjenn" />
		<tag k="name" v="Åboren" />
		<tag k="natural" v="water" />
		<tag k="ssr:stedsnr" v="553811" />
	</node>
	<node lat="60.71017499689328" lon="10.1962361032048" id="-24897">
		<tag k="alt_name" v="Totjenna;Totjerna" />
		<tag k="name" v="Totjernet" />
		<tag k="natural" v="water" />
		<tag k="ssr:stedsnr" v="553812" />
	</node>
	<node lat="60.772172221887594" lon="10.38631111963155" id="-24908">
		<tag k="name" v="Løkoset" />
		<tag k="natural" v="bay" />
		<tag k="ssr:stedsnr" v="585425" />
	</node>
	<node lat="60.649175001457294" lon="10.19005000193081" id="-24913">
		<tag k="name" v="Askvikfløytdammen" />
		<tag k="ssr:stedsnr" v="587104" />
		<tag k="waterway" v="dam" />
	</node>
	<node lat="60.58961111208717" lon="10.14554166569993" id="-24919">
		<tag k="name" v="Skutsæterbekken" />
		<tag k="ssr:stedsnr" v="587911" />
		<tag k="waterway" v="stream" />
	</node>
	<node lat="60.62125833149981" lon="10.480850005643623" id="-24920">
		<tag k="name" v="Svartbekkvika" />
		<tag k="natural" v="bay" />
		<tag k="ssr:stedsnr" v="601048" />
	</node>
	<node lat="60.73339722075253" lon="10.00883334180064" id="-24936">
		<tag k="name" v="Hovdevatn" />
		<tag k="natural" v="water" />
		<tag k="ssr:stedsnr" v="603064" />
	</node>
	<node lat="60.58026598870208" lon="10.375087664794112" id="-24937">
		<tag k="name" v="Sandstjerna" />
		<tag k="natural" v="water" />
		<tag k="ssr:stedsnr" v="613160" />
		<tag k="water" v="lake" />
	</node>
	<node lat="60.551116665826484" lon="10.169538887043327" id="-24944">
		<tag k="alt_name" v="Dragbekken, austre" />
		<tag k="name" v="Østre Dragbekken" />
		<tag k="ssr:stedsnr" v="613512" />
		<tag k="waterway" v="stream" />
	</node>
	<node lat="60.560836115387076" lon="10.205161104445132" id="-24945">
		<tag k="alt_name" v="Plomtjenn" />
		<tag k="name" v="Plomtjernet" />
		<tag k="natural" v="water" />
		<tag k="ssr:stedsnr" v="613529" />
	</node>
	<node lat="60.55700278138695" lon="10.107202774435889" id="-24949">
		<tag k="name" v="Øyvasselva" />
		<tag k="ssr:stedsnr" v="613601" />
		<tag k="waterway" v="river" />
	</node>
	<node lat="60.718062681278624" lon="10.040051144193114" id="-24953">
		<tag k="alt_name" v="Spellhustjenn;Spellhustjern" />
		<tag k="name" v="Spellhustjernet" />
		<tag k="natural" v="water" />
		<tag k="ssr:stedsnr" v="613798" />
	</node>
	<node lat="60.69310774441208" lon="10.20473160004036" id="-24954">
		<tag k="alt_name" v="Ormetjernet;Ormetjenn" />
		<tag k="name" v="Ormetjern" />
		<tag k="natural" v="water" />
		<tag k="ssr:stedsnr" v="614718" />
	</node>
	<node lat="60.82520190408222" lon="10.315783349643993" id="-24958">
		<tag k="name" v="Landåsvatnet" />
		<tag k="natural" v="water" />
		<tag k="ssr:stedsnr" v="616598" />
		<tag k="water" v="lake" />
	</node>
	<node lat="60.55653610938044" lon="10.390372230504342" id="-24962">
		<tag k="name" v="Rasmusputten" />
		<tag k="natural" v="water" />
		<tag k="ssr:stedsnr" v="638180" />
		<tag k="water" v="pond" />
	</node>
	<node lat="60.721316663802554" lon="10.10648332635368" id="-24967">
		<tag k="name" v="Veltgrevsjøvika" />
		<tag k="natural" v="bay" />
		<tag k="ssr:stedsnr" v="647897" />
	</node>
	<node lat="60.8105499996455" lon="10.25178610630037" id="-24971">
		<tag k="name" v="Hølsæterbekken" />
		<tag k="ssr:stedsnr" v="708037" />
		<tag k="waterway" v="stream" />
	</node>
	<node lat="60.57420833005362" lon="10.260444439587264" id="-24983">
		<tag k="alt_name" v="Vesle Steffatjenn" />
		<tag k="name" v="Vesle Steffatjern" />
		<tag k="natural" v="water" />
		<tag k="ssr:stedsnr" v="708444" />
	</node>
	<node lat="60.72926111270743" lon="10.100777782826249" id="-24990">
		<tag k="name" v="Oterbækholmen" />
		<tag k="place" v="islet" />
		<tag k="ssr:stedsnr" v="708870" />
	</node>
	<node lat="60.726298441727145" lon="10.107945838496613" id="-24991">
		<tag k="name" v="Lille Grevsjøen" />
		<tag k="natural" v="water" />
		<tag k="ssr:stedsnr" v="708871" />
		<tag k="water" v="lake" />
	</node>
	<node lat="60.662016666019845" lon="10.111694438005774" id="-24992">
		<tag k="name" v="Storsandungselva" />
		<tag k="ssr:stedsnr" v="708944" />
		<tag k="waterway" v="river" />
	</node>
	<node lat="60.70442221950754" lon="10.039141659330426" id="-24993">
		<tag k="name" v="Kvitingsløken" />
		<tag k="natural" v="water" />
		<tag k="ssr:stedsnr" v="708959" />
		<tag k="water" v="lake" />
	</node>
	<node lat="60.74801944647712" lon="10.124583339243832" id="-24994">
		<tag k="name" v="Telemarken" />
		<tag k="place" v="islet" />
		<tag k="ssr:stedsnr" v="708865" />
	</node>
	<node lat="60.6897722243521" lon="10.036816674881203" id="-24995">
		<tag k="name" v="Bjønndalsputta" />
		<tag k="natural" v="water" />
		<tag k="ssr:stedsnr" v="708963" />
		<tag k="water" v="pond" />
	</node>
	<node lat="60.67043611059936" lon="10.068436115711838" id="-24996">
		<tag k="name" v="Veslevatnet" />
		<tag k="natural" v="water" />
		<tag k="ssr:stedsnr" v="708983" />
	</node>
	<node lat="60.602997217772504" lon="10.513205562741529" id="-25005">
		<tag k="alt_name" v="Langtjennsbekken" />
		<tag k="name" v="Langtjernsbekken" />
		<tag k="ssr:stedsnr" v="662388" />
		<tag k="waterway" v="stream" />
	</node>
	<node lat="60.55666388770051" lon="10.361177783427275" id="-25013">
		<tag k="alt_name" v="Grimtjenn" />
		<tag k="name" v="Grimtjernet" />
		<tag k="natural" v="water" />
		<tag k="ssr:stedsnr" v="674127" />
	</node>
	<node lat="60.631922223891024" lon="10.231408328602097" id="-25014">
		<tag k="alt_name" v="Bustiviltjenn" />
		<tag k="name" v="Bustiviltjern" />
		<tag k="natural" v="water" />
		<tag k="ssr:stedsnr" v="891117" />
	</node>
	<node lat="60.549511109763635" lon="10.22127778465372" id="-25020">
		<tag k="alt_name" v="Gamle Sandtjenn" />
		<tag k="name" v="Gamlesandtjernet" />
		<tag k="natural" v="water" />
		<tag k="ssr:stedsnr" v="674507" />
	</node>
	<node lat="60.55476388560028" lon="10.14975555037098" id="-25023">
		<tag k="alt_name" v="Dragbekken, vestre" />
		<tag k="name" v="Vestre Dragbekken" />
		<tag k="ssr:stedsnr" v="674502" />
		<tag k="waterway" v="stream" />
	</node>
	<node lat="60.5696021942014" lon="10.27267868994539" id="-25024">
		<tag k="alt_name" v="Steffatjennsbekken" />
		<tag k="fixme" v="multiple name tags, choose one and add the other to alt_name" />
		<tag k="name" v="Bjørnerudbekken;Steffatjernsbekken" />
		<tag k="ssr:stedsnr" v="674605" />
		<tag k="waterway" v="stream" />
	</node>
	<node lat="60.58636666567524" lon="10.158436113437704" id="-25027">
		<tag k="alt_name" v="Grågåstjernet, nordre;Grågåstjenn" />
		<tag k="name" v="Nordre Grågåstjernet" />
		<tag k="natural" v="water" />
		<tag k="ssr:stedsnr" v="674561" />
	</node>
	<node lat="60.69377500380619" lon="10.065938890014651" id="-25029">
		<tag k="alt_name" v="Kvitingsauget" />
		<tag k="name" v="Kvitingsauga" />
		<tag k="natural" v="water" />
		<tag k="ssr:stedsnr" v="674707" />
	</node>
	<node lat="60.71673055941805" lon="10.192525008303456" id="-25036">
		<tag k="name" v="Lønfiske" />
		<tag k="natural" v="water" />
		<tag k="ssr:stedsnr" v="891290" />
	</node>
	<node lat="60.79381111214362" lon="10.368388881495838" id="-25040">
		<tag k="name" v="Sevalstjernet" />
		<tag k="natural" v="water" />
		<tag k="ssr:stedsnr" v="677041" />
	</node>
	<node lat="60.86581111113446" lon="10.307361120006263" id="-25041">
		<tag k="alt_name" v="Evjebekken" />
		<tag k="name" v="Evjeelva" />
		<tag k="ssr:stedsnr" v="677539" />
		<tag k="waterway" v="river" />
	</node>
	<node lat="60.612849998915095" lon="10.283483336888157" id="-25043">
		<tag k="name" v="Grællerudbekken" />
		<tag k="ssr:stedsnr" v="891552" />
		<tag k="waterway" v="stream" />
	</node>
	<node lat="60.739558331377914" lon="10.361958324353484" id="-25045">
		<tag k="name" v="Veltabekken" />
		<tag k="ssr:stedsnr" v="891736" />
		<tag k="waterway" v="stream" />
	</node>
	<node lat="60.62661388626557" lon="10.084047215853472" id="-25048">
		<tag k="name" v="Drittodden" />
		<tag k="natural" v="cape" />
		<tag k="ssr:stedsnr" v="891787" />
	</node>
	<node lat="60.68668610900181" lon="10.067555562970504" id="-25051">
		<tag k="alt_name" v="Eintjennsbekken" />
		<tag k="name" v="Eintjernsbekken" />
		<tag k="ssr:stedsnr" v="891965" />
		<tag k="waterway" v="stream" />
	</node>
	<node lat="60.82212777689279" lon="10.333644446144184" id="-25057">
		<tag k="name" v="Revodden" />
		<tag k="natural" v="cape" />
		<tag k="ssr:stedsnr" v="708113" />
	</node>
	<node lat="60.707466670158134" lon="10.197072218325243" id="-25059">
		<tag k="alt_name" v="Totjennsbekken" />
		<tag k="name" v="Totjernsbekken" />
		<tag k="ssr:stedsnr" v="708258" />
		<tag k="waterway" v="stream" />
	</node>
	<node lat="60.689322219310625" lon="10.136983337114604" id="-25064">
		<tag k="name" v="Firekantputten" />
		<tag k="natural" v="water" />
		<tag k="ssr:stedsnr" v="723116" />
		<tag k="water" v="pond" />
	</node>
	<node lat="60.563230173915514" lon="10.201088925568506" id="-25071">
		<tag k="alt_name" v="Bursintjenn" />
		<tag k="name" v="Bursintjern" />
		<tag k="natural" v="water" />
		<tag k="ssr:stedsnr" v="723842" />
	</node>
	<node lat="60.675819444718655" lon="10.117469449904732" id="-25072">
		<tag k="name" v="Jensveberga" />
		<tag k="ssr:stedsnr" v="723948" />
		<tag k="waterway" v="stream" />
	</node>
	<node lat="60.554872221052584" lon="10.392797220012373" id="-25074">
		<tag k="alt_name" v="Rasmusputten" />
		<tag k="name" v="Rasmusputtane" />
		<tag k="natural" v="water" />
		<tag k="ssr:stedsnr" v="735103" />
	</node>
	<node lat="60.57048180838323" lon="10.41087902890046" id="-25075">
		<tag k="alt_name" v="Holotjenn;Holotjern" />
		<tag k="name" v="Holotjernet" />
		<tag k="natural" v="water" />
		<tag k="ssr:stedsnr" v="735130" />
	</node>
	<node lat="60.57534133222397" lon="10.126756918945567" id="-25081">
		<tag k="alt_name" v="Langspæltjennet" />
		<tag k="name" v="Langspæltjernet" />
		<tag k="natural" v="water" />
		<tag k="ssr:stedsnr" v="735603" />
	</node>
	<node lat="60.638274999541295" lon="10.30479166449963" id="-25082">
		<tag k="name" v="Kvernbekken" />
		<tag k="ssr:stedsnr" v="735614" />
		<tag k="waterway" v="stream" />
	</node>
	<node lat="60.72105555529121" lon="10.085502786926824" id="-25087">
		<tag k="name" v="Øktmyrbekken" />
		<tag k="ssr:stedsnr" v="735786" />
		<tag k="waterway" v="stream" />
	</node>
	<node lat="60.86930833039448" lon="10.234227776501758" id="-25089">
		<tag k="alt_name" v="Komperudelva" />
		<tag k="name" v="Kumperudelva" />
		<tag k="ssr:stedsnr" v="736409" />
		<tag k="waterway" v="river" />
	</node>
	<node lat="60.636249998487656" lon="10.502774998401122" id="-25099">
		<tag k="alt_name" v="Bågårudtjenn" />
		<tag k="name" v="Bågårudtjennet" />
		<tag k="natural" v="water" />
		<tag k="ssr:stedsnr" v="905231" />
	</node>
	<node lat="60.715366665164815" lon="10.377361111591023" id="-25103">
		<tag k="name" v="Tjernsrudtjernet" />
		<tag k="natural" v="water" />
		<tag k="ssr:stedsnr" v="905366" />
	</node>
	<node lat="60.721894443505896" lon="10.002508337092895" id="-25113">
		<tag k="name" v="Sikholmen" />
		<tag k="place" v="islet" />
		<tag k="ssr:stedsnr" v="907080" />
	</node>
	<node lat="60.58937500239907" lon="10.478405563790481" id="-25128">
		<tag k="name" v="Gillemyrbekken" />
		<tag k="ssr:stedsnr" v="784247" />
		<tag k="waterway" v="stream" />
	</node>
	<node lat="60.65934999899039" lon="10.430627783979043" id="-25140">
		<tag k="alt_name" v="Lønnfiske" />
		<tag k="name" v="Lønfisket" />
		<tag k="natural" v="water" />
		<tag k="ssr:stedsnr" v="795294" />
	</node>
	<node lat="60.644800002987566" lon="10.41860556057254" id="-25142">
		<tag k="name" v="Nora" />
		<tag k="natural" v="strait" />
		<tag k="ssr:stedsnr" v="796267" />
	</node>
	<node lat="60.72469444301059" lon="10.46310555122478" id="-25144">
		<tag k="alt_name" v="Blekktjernet, s;Søndre Blekktjernet;Blekjetjern søndre" />
		<tag k="name" v="Søre Blekktjernet" />
		<tag k="natural" v="water" />
		<tag k="ssr:stedsnr" v="796411" />
	</node>
	<node lat="60.72077500225465" lon="10.403677773069482" id="-25146">
		<tag k="name" v="Løkbekken" />
		<tag k="ssr:stedsnr" v="796423" />
		<tag k="waterway" v="stream" />
	</node>
	<node lat="60.55176110687971" lon="10.187194442460804" id="-25149">
		<tag k="alt_name" v="Øytjernet, vestre;Vestre Øytjenn" />
		<tag k="name" v="Vestre Øytjernet" />
		<tag k="natural" v="water" />
		<tag k="ssr:stedsnr" v="796509" />
	</node>
	<node lat="60.577966667526056" lon="10.099172213779138" id="-25150">
		<tag k="alt_name" v="Flåtjenn" />
		<tag k="name" v="Flåtjernet" />
		<tag k="natural" v="water" />
		<tag k="ssr:stedsnr" v="796610" />
	</node>
	<node lat="60.56987778213624" lon="10.092652778065618" id="-25151">
		<tag k="name" v="Stormyrbekken" />
		<tag k="ssr:stedsnr" v="796611" />
		<tag k="waterway" v="stream" />
	</node>
	<node lat="60.618777773796786" lon="10.129630562779607" id="-25153">
		<tag k="alt_name" v="Dalavatnet, nordre" />
		<tag k="name" v="Nordre Dalavatnet" />
		<tag k="natural" v="water" />
		<tag k="ssr:stedsnr" v="796661" />
	</node>
	<node lat="60.61808610780995" lon="10.10153889618906" id="-25154">
		<tag k="alt_name" v="Tyrihjelltjenn" />
		<tag k="name" v="Tyrihjelltjernet" />
		<tag k="natural" v="water" />
		<tag k="ssr:stedsnr" v="796662" />
	</node>
	<node lat="60.54197460015267" lon="10.23145955847051" id="-25158">
		<tag k="alt_name" v="Tretjernet, s;Søndre Tretjenn;Søre Tretjenn" />
		<tag k="name" v="Søre Tretjern" />
		<tag k="natural" v="water" />
		<tag k="ssr:stedsnr" v="796553" />
	</node>
	<node lat="60.70412500182199" lon="10.254805563042652" id="-25161">
		<tag k="name" v="Kumpelibekken" />
		<tag k="ssr:stedsnr" v="796725" />
		<tag k="waterway" v="stream" />
	</node>
	<node lat="60.583613890745035" lon="10.401797226147252" id="-25169">
		<tag k="alt_name" v="Sandsætertjenn" />
		<tag k="name" v="Sætertjernet" />
		<tag k="natural" v="water" />
		<tag k="ssr:stedsnr" v="917131" />
	</node>
	<node lat="60.6178055568087" lon="10.226583330204159" id="-25173">
		<tag k="name" v="Lomsdalselva" />
		<tag k="ssr:stedsnr" v="917642" />
		<tag k="waterway" v="river" />
	</node>
	<node lat="60.610900004242524" lon="10.196505557718998" id="-25174">
		<tag k="alt_name" v="Rundtjenn" />
		<tag k="name" v="Rundtjernet" />
		<tag k="natural" v="water" />
		<tag k="ssr:stedsnr" v="917643" />
	</node>
	<node lat="60.66741666523306" lon="10.282686114990431" id="-25180">
		<tag k="alt_name" v="Damtjenn" />
		<tag k="name" v="Damtjernet" />
		<tag k="natural" v="water" />
		<tag k="ssr:stedsnr" v="917695" />
	</node>
	<node lat="60.66420000339047" lon="10.287927769027414" id="-25181">
		<tag k="alt_name" v="Velttjenn" />
		<tag k="name" v="Vesletjernet" />
		<tag k="natural" v="water" />
		<tag k="ssr:stedsnr" v="917698" />
	</node>
	<node lat="60.6690027781662" lon="10.254241663774796" id="-25182">
		<tag k="name" v="Arnsveputten" />
		<tag k="natural" v="water" />
		<tag k="ssr:stedsnr" v="917699" />
	</node>
	<node lat="60.685913887041934" lon="10.267394438843061" id="-25185">
		<tag k="name" v="Lidammen" />
		<tag k="natural" v="water" />
		<tag k="ssr:stedsnr" v="917731" />
	</node>
	<node lat="60.5497944403683" lon="10.192155552194238" id="-25190">
		<tag k="alt_name" v="Øytjernet, austre;Østre Øytjenn" />
		<tag k="name" v="Østre Øytjernet" />
		<tag k="natural" v="water" />
		<tag k="ssr:stedsnr" v="917486" />
	</node>
	<node lat="60.54720278222257" lon="10.196449995851193" id="-25191">
		<tag k="alt_name" v="Øytjennsbekken" />
		<tag k="name" v="Øytjernbekken" />
		<tag k="ssr:stedsnr" v="917487" />
		<tag k="waterway" v="stream" />
	</node>
	<node lat="60.58132499642127" lon="10.133083338372822" id="-25196">
		<tag k="alt_name" v="Maurtjenn" />
		<tag k="name" v="Maurtjernet" />
		<tag k="natural" v="water" />
		<tag k="ssr:stedsnr" v="917591" />
	</node>
	<node lat="60.7387777799896" lon="10.217458338028035" id="-25199">
		<tag k="name" v="Nordråkselva" />
		<tag k="ssr:stedsnr" v="917753" />
		<tag k="waterway" v="stream" />
	</node>
	<node lat="60.54104167062749" lon="10.352216673186522" id="-25201">
		<tag k="alt_name" v="Øytjenn" />
		<tag k="name" v="Øytjernet" />
		<tag k="natural" v="water" />
		<tag k="ssr:stedsnr" v="917890" />
	</node>
	<node lat="60.754849997216105" lon="10.112983324257275" id="-25209">
		<tag k="name" v="Haramyrbekken" />
		<tag k="ssr:stedsnr" v="920733" />
		<tag k="waterway" v="stream" />
	</node>
	<node lat="60.67633888889129" lon="10.489711108994186" id="-25215">
		<tag k="name" v="Skjerra" />
		<tag k="ssr:stedsnr" v="830479" />
		<tag k="waterway" v="river" />
	</node>
	<node lat="60.75697777325776" lon="10.399786117941785" id="-25216">
		<tag k="name" v="Sjellmyrbekken" />
		<tag k="ssr:stedsnr" v="830374" />
		<tag k="waterway" v="stream" />
	</node>
	<node lat="60.63929928313168" lon="10.071295650491946" id="-25220">
		<tag k="name" v="Bredviktjenn" />
		<tag k="natural" v="water" />
		<tag k="ssr:stedsnr" v="830784" />
	</node>
	<node lat="60.633541663370025" lon="10.08962778021124" id="-25221">
		<tag k="name" v="Store Rosund" />
		<tag k="natural" v="strait" />
		<tag k="ssr:stedsnr" v="830786" />
	</node>
	<node lat="60.58815833522958" lon="10.399408334435321" id="-25226">
		<tag k="name" v="Bikkjeputten" />
		<tag k="natural" v="water" />
		<tag k="ssr:stedsnr" v="845203" />
		<tag k="water" v="pond" />
	</node>
	<node lat="60.59957777812296" lon="10.42021111566271" id="-25227">
		<tag k="alt_name" v="Lille Kaldtjenn" />
		<tag k="name" v="Lille Kaldtjern" />
		<tag k="natural" v="water" />
		<tag k="ssr:stedsnr" v="845206" />
	</node>
	<node lat="60.602416670952714" lon="10.527958335839362" id="-25232">
		<tag k="name" v="Skvalabekken" />
		<tag k="ssr:stedsnr" v="845429" />
		<tag k="waterway" v="stream" />
	</node>
	<node lat="60.68138055965081" lon="10.374191662628045" id="-25234">
		<tag k="name" v="Fløyta" />
		<tag k="natural" v="water" />
		<tag k="ssr:stedsnr" v="845377" />
		<tag k="water" v="lake" />
	</node>
	<node lat="60.60090833200376" lon="10.174819442956386" id="-25240">
		<tag k="alt_name" v="Bergetjernsbekken" />
		<tag k="name" v="Bergetjennsbekken" />
		<tag k="ssr:stedsnr" v="845911" />
		<tag k="waterway" v="stream" />
	</node>
	<node lat="60.56553333186981" lon="10.137672223713205" id="-25241">
		<tag k="name" v="Togmyrputten" />
		<tag k="natural" v="water" />
		<tag k="ssr:stedsnr" v="845916" />
		<tag k="water" v="pond" />
	</node>
	<node lat="60.567844448114556" lon="10.201963886047777" id="-25244">
		<tag k="alt_name" v="Tolvtjernsputta" />
		<tag k="name" v="Tolvtjennsputta" />
		<tag k="natural" v="water" />
		<tag k="ssr:stedsnr" v="845896" />
		<tag k="water" v="lake" />
	</node>
	<node lat="60.55369722258883" lon="10.191874995219921" id="-25245">
		<tag k="alt_name" v="Hjerterostjenn" />
		<tag k="name" v="Hjerterostjern" />
		<tag k="natural" v="water" />
		<tag k="ssr:stedsnr" v="845897" />
	</node>
	<node lat="60.566353217146755" lon="10.456746051352617" id="-25246">
		<tag k="alt_name" v="Nordre Tretjenn;Nordre Tretjern" />
		<tag k="name" v="Tretjerna" />
		<tag k="natural" v="water" />
		<tag k="ssr:stedsnr" v="856138" />
	</node>
	<node lat="60.58539510687616" lon="10.431250060306349" id="-25247">
		<tag k="alt_name" v="Bjørvatnet, s;Søndre Bjørvatnet" />
		<tag k="name" v="Søre Bjørvatnet" />
		<tag k="natural" v="water" />
		<tag k="ssr:stedsnr" v="856197" />
		<tag k="water" v="lake" />
	</node>
	<node lat="60.66510277612385" lon="10.203461104180889" id="-25250">
		<tag k="name" v="Dritmyrbekken" />
		<tag k="ssr:stedsnr" v="856730" />
		<tag k="waterway" v="stream" />
	</node>
	<node lat="60.67266111012903" lon="10.18287499870561" id="-25251">
		<tag k="name" v="Lygna" />
		<tag k="ssr:stedsnr" v="856919" />
		<tag k="waterway" v="river" />
	</node>
	<node lat="60.5577500040143" lon="10.370072215142663" id="-25252">
		<tag k="alt_name" v="Øytjenn;Øytjern" />
		<tag k="name" v="Øytjernet" />
		<tag k="natural" v="water" />
		<tag k="ssr:stedsnr" v="857134" />
	</node>
	<node lat="60.62874244299078" lon="10.405739012888748" id="-25255">
		<tag k="alt_name" v="Abbortjenn" />
		<tag k="name" v="Abbortjern" />
		<tag k="natural" v="water" />
		<tag k="ssr:stedsnr" v="857276" />
	</node>
	<node lat="60.69021111359735" lon="10.193352780443108" id="-25258">
		<tag k="alt_name" v="Ormetjennsbekken;Ormtjernsbekken" />
		<tag k="name" v="Ormetjernsbekken" />
		<tag k="ssr:stedsnr" v="857703" />
		<tag k="waterway" v="stream" />
	</node>
	<node lat="60.693538165803965" lon="10.019212683587414" id="-25260">
		<tag k="alt_name" v="Stolpetjenn;Stolpetjern" />
		<tag k="name" v="Stolpetjernet" />
		<tag k="natural" v="water" />
		<tag k="ssr:stedsnr" v="857716" />
	</node>
	<node lat="60.574638891340584" lon="10.206133335832666" id="-25263">
		<tag k="name" v="Kringlevatnet" />
		<tag k="natural" v="water" />
		<tag k="ssr:stedsnr" v="857613" />
	</node>
	<node lat="60.57844166986689" lon="10.190541674410436" id="-25264">
		<tag k="name" v="Kringlevassbekken" />
		<tag k="ssr:stedsnr" v="857615" />
		<tag k="waterway" v="stream" />
	</node>
	<node lat="60.630400264334156" lon="10.292264812599456" id="-25265">
		<tag k="alt_name" v="Gravtjenn;Gravtjern" />
		<tag k="name" v="Gravtjernet" />
		<tag k="natural" v="water" />
		<tag k="ssr:stedsnr" v="857684" />
	</node>
	<node lat="60.758452780064125" lon="10.289555560184446" id="-25272">
		<tag k="alt_name" v="Attjenn" />
		<tag k="name" v="Attjernet" />
		<tag k="natural" v="water" />
		<tag k="ssr:stedsnr" v="859712" />
	</node>
	<node lat="60.62479722249577" lon="10.30617500899179" id="-25281">
		<tag k="name" v="Smaltjennet" />
		<tag k="natural" v="water" />
		<tag k="ssr:stedsnr" v="891568" />
	</node>
	<node lat="60.69446944151936" lon="10.187050002459948" id="-25284">
		<tag k="name" v="Kompelifløyta" />
		<tag k="natural" v="water" />
		<tag k="ssr:stedsnr" v="905118" />
		<tag k="water" v="lake" />
	</node>
	<node lat="60.591450000699574" lon="10.175180560842206" id="-25289">
		<tag k="alt_name" v="Breitjennsbekken" />
		<tag k="name" v="Breitjernsbekken" />
		<tag k="ssr:stedsnr" v="905506" />
		<tag k="waterway" v="stream" />
	</node>
	<node lat="60.55334444414752" lon="10.384955549661246" id="-25296">
		<tag k="alt_name" v="Store Holmetjenn" />
		<tag k="name" v="Holmetjernet" />
		<tag k="natural" v="water" />
		<tag k="ssr:stedsnr" v="917105" />
	</node>
	<node lat="60.65156854998101" lon="10.116946048078933" id="-25298">
		<tag k="alt_name" v="Store Sandungen" />
		<tag k="name" v="Storsandungen" />
		<tag k="natural" v="water" />
		<tag k="ssr:stedsnr" v="917614" />
		<tag k="water" v="lake" />
	</node>
	<node lat="60.564811107267566" lon="10.207463896837385" id="-25300">
		<tag k="alt_name" v="Kabustjenn" />
		<tag k="name" v="Kabustjernet" />
		<tag k="natural" v="water" />
		<tag k="ssr:stedsnr" v="917507" />
	</node>
	<node lat="60.5836766468612" lon="10.16362249118209" id="-25303">
		<tag k="alt_name" v="Grågåstjernet, s;Søndre Grågåstjenn" />
		<tag k="name" v="Søre Grågåstjenn" />
		<tag k="natural" v="water" />
		<tag k="ssr:stedsnr" v="917543" />
	</node>
	<node lat="60.56430277874055" lon="10.188602775588159" id="-25305">
		<tag k="alt_name" v="Flåtjernet, vesle;Vesle Flåtjenn" />
		<tag k="name" v="Vesle Flåtjernet" />
		<tag k="natural" v="water" />
		<tag k="ssr:stedsnr" v="917576" />
	</node>
	<node lat="60.726311111978916" lon="10.068086104915581" id="-25308">
		<tag k="alt_name" v="Purkvassbekken" />
		<tag k="name" v="Purkvadbekken" />
		<tag k="ssr:stedsnr" v="917765" />
		<tag k="waterway" v="stream" />
	</node>
	<node lat="60.76631111041725" lon="10.18493334221864" id="-25315">
		<tag k="alt_name" v="Rosttjernet, l;Vesle Rosttjenn" />
		<tag k="name" v="Lille Rosttjernet" />
		<tag k="natural" v="water" />
		<tag k="ssr:stedsnr" v="920736" />
	</node>
	<node lat="60.6959833303737" lon="10.010905559772864" id="-25317">
		<tag k="alt_name" v="Stolpetjennsbekken" />
		<tag k="name" v="Stolpetjernsbekken" />
		<tag k="ssr:stedsnr" v="949103" />
		<tag k="waterway" v="stream" />
	</node>
	<node lat="60.624822222388815" lon="10.507674996476737" id="-25320">
		<tag k="name" v="Korsbekken" />
		<tag k="ssr:stedsnr" v="951315" />
		<tag k="waterway" v="stream" />
	</node>
	<node lat="60.76831389329401" lon="10.393413891709312" id="-25322">
		<tag k="name" v="Rudsseterløken" />
		<tag k="ssr:stedsnr" v="951396" />
		<tag k="waterway" v="stream" />
	</node>
	<node lat="60.67221111143766" lon="10.286391673159871" id="-25330">
		<tag k="name" v="Atalfløyta" />
		<tag k="natural" v="water" />
		<tag k="ssr:stedsnr" v="966714" />
		<tag k="water" v="lake" />
	</node>
	<node lat="60.59971007953575" lon="10.536847498799444" id="-25346">
		<tag k="alt_name" v="Hågårtjenn" />
		<tag k="name" v="Hågårtjernet" />
		<tag k="natural" v="water" />
		<tag k="ssr:stedsnr" v="7188" />
	</node>
	<node lat="60.57224405049005" lon="10.260357785398373" id="-25352">
		<tag k="alt_name" v="Steffatjenn" />
		<tag k="name" v="Steffetjerna" />
		<tag k="natural" v="water" />
		<tag k="ssr:stedsnr" v="7595" />
	</node>
	<node lat="60.547945978309144" lon="10.36433647992321" id="-25354">
		<tag k="alt_name" v="Langtjenn" />
		<tag k="name" v="Langtjernet" />
		<tag k="natural" v="water" />
		<tag k="ssr:stedsnr" v="7132" />
	</node>
	<node lat="60.59791730377683" lon="10.232810039433755" id="-25358">
		<tag k="alt_name" v="Tretjennsbekken" />
		<tag k="name" v="Tretjernbekken" />
		<tag k="ssr:stedsnr" v="7575" />
		<tag k="waterway" v="stream" />
	</node>
	<node lat="60.59410325639847" lon="10.193035672833854" id="-25359">
		<tag k="alt_name" v="Lomsdalsætertjenn" />
		<tag k="name" v="Sætertjernet" />
		<tag k="natural" v="water" />
		<tag k="ssr:stedsnr" v="7580" />
	</node>
	<node lat="60.69632199139684" lon="10.147132208354055" id="-25362">
		<tag k="alt_name" v="Knapptjenn" />
		<tag k="name" v="Knapptjernet" />
		<tag k="natural" v="water" />
		<tag k="ssr:stedsnr" v="7675" />
	</node>
	<node lat="60.69149910270992" lon="10.141471813880237" id="-25363">
		<tag k="alt_name" v="Tobakkstjenn" />
		<tag k="name" v="Tobakktjernet" />
		<tag k="natural" v="water" />
		<tag k="ssr:stedsnr" v="7676" />
	</node>
	<node lat="60.70469722489569" lon="10.178813887139716" id="-25364">
		<tag k="name" v="Hønefoss" />
		<tag k="natural" v="waterfall" />
		<tag k="ssr:stedsnr" v="7683" />
	</node>
</osm>
