<?xml version="1.0" encoding="UTF-8"?>
<osm version="0.6" generator="osmapis">
	<node lat="60.62726111361858" lon="10.515686106473261" id="-24221">
		<tag k="fixme" v="consider place=hamlet" />
		<tag k="name" v="Søre Austbygda" />
		<tag k="place" v="village" />
		<tag k="ssr:stedsnr" v="7254" />
	</node>
	<node lat="60.63847296293054" lon="10.519910954204741" id="-24222">
		<tag k="fixme" v="consider place=hamlet" />
		<tag k="name" v="Volla" />
		<tag k="place" v="farm" />
		<tag k="ssr:stedsnr" v="7256" />
	</node>
	<node lat="60.68853611199003" lon="10.386030555405485" id="-24225">
		<tag k="fixme" v="multiple name tags, choose one and add the other to alt_name" />
		<tag k="name" v="Beritsvea;Skogheim" />
		<tag k="place" v="farm" />
		<tag k="ssr:stedsnr" v="7363" />
	</node>
	<node lat="60.69131145336198" lon="10.439787523758431" id="-24226">
		<tag k="fixme" v="consider place=hamlet" />
		<tag k="name" v="Amsrud" />
		<tag k="place" v="farm" />
		<tag k="ssr:stedsnr" v="7368" />
	</node>
	<node lat="60.66809025554521" lon="10.321896276084933" id="-24230">
		<tag k="fixme" v="consider place=hamlet" />
		<tag k="name" v="Brakar" />
		<tag k="place" v="farm" />
		<tag k="ssr:stedsnr" v="7623" />
	</node>
	<node lat="60.6898916632715" lon="10.306672226558112" id="-24231">
		<tag k="alt_name" v="Bjørklund" />
		<tag k="name" v="Birkelund" />
		<tag k="place" v="farm" />
		<tag k="ssr:stedsnr" v="7668" />
	</node>
	<node lat="60.67561944417546" lon="10.31722777099367" id="-24233">
		<tag k="alt_name" v="Brakarlien" />
		<tag k="name" v="Brakarlia" />
		<tag k="place" v="farm" />
		<tag k="ssr:stedsnr" v="7706" />
	</node>
	<node lat="60.835575003032815" lon="10.325150003857699" id="-24236">
		<tag k="name" v="Nersvea" />
		<tag k="place" v="isolated_dwelling" />
		<tag k="ssr:stedsnr" v="9610" />
	</node>
	<node lat="60.77350557347808" lon="10.334562796405178" id="-24237">
		<tag k="alt_name" v="Lien" />
		<tag k="fixme" v="consider place=hamlet" />
		<tag k="name" v="Lia" />
		<tag k="place" v="farm" />
		<tag k="ssr:stedsnr" v="9625" />
	</node>
	<node lat="60.767924996895765" lon="10.214011119143874" id="-24247">
		<tag k="name" v="Hågåen" />
		<tag k="place" v="isolated_dwelling" />
		<tag k="ssr:stedsnr" v="41369" />
	</node>
	<node lat="60.73766110688305" lon="10.299380556310556" id="-24250">
		<tag k="name" v="Nordre Grindvoll" />
		<tag k="place" v="farm" />
		<tag k="ssr:stedsnr" v="41781" />
	</node>
	<node lat="60.77475555695506" lon="10.323061117502872" id="-24251">
		<tag k="name" v="Rud" />
		<tag k="place" v="farm" />
		<tag k="ssr:stedsnr" v="41912" />
	</node>
	<node lat="60.670316670563224" lon="10.19641666538578" id="-24253">
		<tag k="name" v="Rognebu" />
		<tag k="place" v="isolated_dwelling" />
		<tag k="ssr:stedsnr" v="238075" />
	</node>
	<node lat="60.83738055548262" lon="10.258324991595856" id="-24256">
		<tag k="name" v="Østsinnislette" />
		<tag k="place" v="isolated_dwelling" />
		<tag k="ssr:stedsnr" v="238161" />
	</node>
	<node lat="60.60009444846321" lon="10.347269439965196" id="-24262">
		<tag k="name" v="Solbakken" />
		<tag k="place" v="isolated_dwelling" />
		<tag k="ssr:stedsnr" v="238585" />
	</node>
	<node lat="60.705174997526264" lon="10.351247219331515" id="-24264">
		<tag k="name" v="Vasenden" />
		<tag k="place" v="farm" />
		<tag k="ssr:stedsnr" v="238643" />
	</node>
	<node lat="60.69443888816873" lon="10.363652783449107" id="-24265">
		<tag k="name" v="Klinkenberg" />
		<tag k="place" v="isolated_dwelling" />
		<tag k="ssr:stedsnr" v="238671" />
	</node>
	<node lat="60.78134166278431" lon="10.305024995202434" id="-24267">
		<tag k="name" v="Spikebakke" />
		<tag k="place" v="farm" />
		<tag k="ssr:stedsnr" v="238886" />
	</node>
	<node lat="60.60239444355429" lon="10.137883340453472" id="-24268">
		<tag k="name" v="Tjærehjelshytta" />
		<tag k="place" v="isolated_dwelling" />
		<tag k="ssr:stedsnr" v="238892" />
	</node>
	<node lat="60.79340833363053" lon="10.254555552548663" id="-24269">
		<tag k="name" v="Lybekk" />
		<tag k="place" v="isolated_dwelling" />
		<tag k="ssr:stedsnr" v="238893" />
	</node>
	<node lat="60.61586111097527" lon="10.37261667475982" id="-24272">
		<tag k="name" v="Nyland" />
		<tag k="place" v="isolated_dwelling" />
		<tag k="ssr:stedsnr" v="56208" />
	</node>
	<node lat="60.635924998872966" lon="10.371466669949847" id="-24274">
		<tag k="name" v="Midteng" />
		<tag k="place" v="isolated_dwelling" />
		<tag k="ssr:stedsnr" v="56276" />
	</node>
	<node lat="60.634522222379296" lon="10.370824992771796" id="-24275">
		<tag k="name" v="Øverby" />
		<tag k="place" v="farm" />
		<tag k="ssr:stedsnr" v="56279" />
	</node>
	<node lat="60.67461666376427" lon="10.36160555278427" id="-24280">
		<tag k="name" v="Ingvaldsen" />
		<tag k="place" v="farm" />
		<tag k="ssr:stedsnr" v="56683" />
	</node>
	<node lat="60.68068333333261" lon="10.311730557071265" id="-24281">
		<tag k="name" v="Myrvoll" />
		<tag k="place" v="isolated_dwelling" />
		<tag k="ssr:stedsnr" v="56684" />
	</node>
	<node lat="60.67332222103983" lon="10.317127782378163" id="-24282">
		<tag k="name" v="Lund" />
		<tag k="place" v="isolated_dwelling" />
		<tag k="ssr:stedsnr" v="56688" />
	</node>
	<node lat="60.58856388984188" lon="10.342366674624985" id="-24286">
		<tag k="name" v="Sandsengen" />
		<tag k="place" v="isolated_dwelling" />
		<tag k="ssr:stedsnr" v="56574" />
	</node>
	<node lat="60.698827781027205" lon="10.360877780349927" id="-24289">
		<tag k="alt_name" v="Søndre Langvegg" />
		<tag k="name" v="Søre Langvegg" />
		<tag k="place" v="farm" />
		<tag k="ssr:stedsnr" v="60983" />
	</node>
	<node lat="60.64425656276099" lon="10.33797610742908" id="-24292">
		<tag k="alt_name" v="Ringelien" />
		<tag k="fixme" v="consider place=hamlet" />
		<tag k="name" v="Ringelia" />
		<tag k="place" v="farm" />
		<tag k="ssr:stedsnr" v="67645" />
	</node>
	<node lat="60.638227778628085" lon="10.195586112526165" id="-24294">
		<tag k="alt_name" v="Lomsjøkula" />
		<tag k="name" v="Kula" />
		<tag k="place" v="isolated_dwelling" />
		<tag k="ssr:stedsnr" v="67650" />
	</node>
	<node lat="60.68547222335649" lon="10.279347231368643" id="-24297">
		<tag k="alt_name" v="Storsveen" />
		<tag k="name" v="Storsvea" />
		<tag k="place" v="farm" />
		<tag k="ssr:stedsnr" v="67741" />
	</node>
	<node lat="60.61608611342315" lon="10.483097223911999" id="-24299">
		<tag k="alt_name" v="Svartholsætra" />
		<tag k="historic" v="shieling" />
		<tag k="loc_name" v="Svartholseteren" />
		<tag k="name" v="Nordre Svarthullet" />
		<tag k="place" v="isolated_dwelling" />
		<tag k="ssr:stedsnr" v="68218" />
	</node>
	<node lat="60.67443611014182" lon="10.444447218172378" id="-24300">
		<tag k="alt_name" v="Mossæter, n;Nordre Moseter" />
		<tag k="name" v="Nordre Mossæter" />
		<tag k="place" v="farm" />
		<tag k="ssr:stedsnr" v="68356" />
	</node>
	<node lat="60.68726028669835" lon="10.448891628471161" id="-24301">
		<tag k="fixme" v="consider place=hamlet" />
		<tag k="name" v="Fuglerud" />
		<tag k="place" v="farm" />
		<tag k="ssr:stedsnr" v="68389" />
	</node>
	<node lat="60.63194722630847" lon="10.305241671569327" id="-24304">
		<tag k="name" v="Karihytta" />
		<tag k="place" v="isolated_dwelling" />
		<tag k="ssr:stedsnr" v="68701" />
	</node>
	<node lat="60.68965453047893" lon="10.291417723007601" id="-24305">
		<tag k="alt_name" v="Hovslien" />
		<tag k="fixme" v="consider place=hamlet" />
		<tag k="name" v="Hovslia" />
		<tag k="place" v="farm" />
		<tag k="ssr:stedsnr" v="68710" />
	</node>
	<node lat="60.72512500205118" lon="10.248383333094797" id="-24306">
		<tag k="alt_name" v="Madsstuen" />
		<tag k="name" v="Masstugua" />
		<tag k="place" v="farm" />
		<tag k="ssr:stedsnr" v="68785" />
	</node>
	<node lat="60.77726666496339" lon="10.325258332400539" id="-24312">
		<tag k="alt_name" v="Mikkelborg" />
		<tag k="name" v="Mekkelborg" />
		<tag k="place" v="isolated_dwelling" />
		<tag k="ssr:stedsnr" v="70625" />
	</node>
	<node lat="60.7719277776224" lon="10.223416673478678" id="-24313">
		<tag k="alt_name" v="Nessveen" />
		<tag k="name" v="Nessvea" />
		<tag k="place" v="farm" />
		<tag k="ssr:stedsnr" v="70629" />
	</node>
	<node lat="60.78288472762716" lon="10.295057050890398" id="-24316">
		<tag k="fixme" v="consider place=hamlet" />
		<tag k="name" v="Øverby" />
		<tag k="place" v="farm" />
		<tag k="ssr:stedsnr" v="70642" />
	</node>
	<node lat="60.82972499555321" lon="10.285588896403796" id="-24317">
		<tag k="name" v="Kvernhushaugen" />
		<tag k="place" v="farm" />
		<tag k="ssr:stedsnr" v="70578" />
	</node>
	<node lat="60.58286944052797" lon="10.340883329166216" id="-24318">
		<tag k="alt_name" v="Søndre Sand" />
		<tag k="name" v="Søre Sand" />
		<tag k="place" v="farm" />
		<tag k="ssr:stedsnr" v="242990" />
	</node>
	<node lat="60.685530556868635" lon="10.23652222325468" id="-24321">
		<tag k="name" v="Skaugum" />
		<tag k="place" v="isolated_dwelling" />
		<tag k="ssr:stedsnr" v="101106" />
	</node>
	<node lat="60.733055551677175" lon="10.242805548285256" id="-24324">
		<tag k="name" v="Nordre Odden" />
		<tag k="place" v="isolated_dwelling" />
		<tag k="ssr:stedsnr" v="102307" />
	</node>
	<node lat="60.60976944811047" lon="10.367077774288635" id="-24325">
		<tag k="name" v="Jensestuen" />
		<tag k="place" v="isolated_dwelling" />
		<tag k="ssr:stedsnr" v="102602" />
	</node>
	<node lat="60.69911537944501" lon="10.36066477852471" id="-24327">
		<tag k="name" v="Langvegg" />
		<tag k="place" v="locality" />
		<tag k="ssr:stedsnr" v="249399" />
	</node>
	<node lat="60.70907500368981" lon="10.371400002616197" id="-24328">
		<tag k="name" v="Helvetet" />
		<tag k="place" v="farm" />
		<tag k="ssr:stedsnr" v="249377" />
	</node>
	<node lat="60.7120777773666" lon="10.40073056127483" id="-24329">
		<tag k="name" v="Haraldsrud" />
		<tag k="place" v="farm" />
		<tag k="ssr:stedsnr" v="249382" />
	</node>
	<node lat="60.66173610707133" lon="10.328511117434905" id="-24331">
		<tag k="alt_name" v="Askvik, nordre;Askvik" />
		<tag k="name" v="Nordre Askvik" />
		<tag k="place" v="farm" />
		<tag k="ssr:stedsnr" v="249631" />
	</node>
	<node lat="60.65507499946896" lon="10.323008339203296" id="-24332">
		<tag k="name" v="Torsteinhaugen" />
		<tag k="place" v="farm" />
		<tag k="ssr:stedsnr" v="249633" />
	</node>
	<node lat="60.65570885648266" lon="10.211923023880253" id="-24333">
		<tag k="historic" v="shieling" />
		<tag k="name" v="Askviksætra" />
		<tag k="place" v="isolated_dwelling" />
		<tag k="ssr:stedsnr" v="249648" />
	</node>
	<node lat="60.67891666987464" lon="10.312172218777267" id="-24335">
		<tag k="name" v="Vollheim" />
		<tag k="place" v="farm" />
		<tag k="ssr:stedsnr" v="249712" />
	</node>
	<node lat="60.676147225161564" lon="10.103283335036538" id="-24337">
		<tag k="name" v="Fisimot" />
		<tag k="place" v="isolated_dwelling" />
		<tag k="ssr:stedsnr" v="249721" />
	</node>
	<node lat="60.687361114895666" lon="10.27560556282887" id="-24338">
		<tag k="alt_name" v="Odnessvea" />
		<tag k="name" v="Øvre Odnessveen" />
		<tag k="place" v="farm" />
		<tag k="ssr:stedsnr" v="249731" />
	</node>
	<node lat="60.74912777759343" lon="10.303611110739743" id="-24339">
		<tag k="alt_name" v="Larssveen" />
		<tag k="name" v="Larssvea" />
		<tag k="place" v="farm" />
		<tag k="ssr:stedsnr" v="249743" />
	</node>
	<node lat="60.7361472206875" lon="10.311827770775064" id="-24341">
		<tag k="name" v="Skogstad" />
		<tag k="place" v="farm" />
		<tag k="ssr:stedsnr" v="249762" />
	</node>
	<node lat="60.592226071378526" lon="10.439296410505404" id="-24346">
		<tag k="name" v="Knuslerud" />
		<tag k="place" v="isolated_dwelling" />
		<tag k="ssr:stedsnr" v="250185" />
	</node>
	<node lat="60.639788889904324" lon="10.454722220547836" id="-24347">
		<tag k="name" v="Svarverhaugen" />
		<tag k="place" v="farm" />
		<tag k="ssr:stedsnr" v="250247" />
	</node>
	<node lat="60.624249999458144" lon="10.503474999821881" id="-24348">
		<tag k="name" v="Solhaug" />
		<tag k="place" v="farm" />
		<tag k="ssr:stedsnr" v="250223" />
	</node>
	<node lat="60.61512777796388" lon="10.542874998738517" id="-24349">
		<tag k="name" v="Åsen" />
		<tag k="place" v="isolated_dwelling" />
		<tag k="ssr:stedsnr" v="250227" />
	</node>
	<node lat="60.64031944595414" lon="10.4992944435919" id="-24350">
		<tag k="name" v="Bågårud" />
		<tag k="place" v="farm" />
		<tag k="ssr:stedsnr" v="250253" />
	</node>
	<node lat="60.67976110772111" lon="10.399949999736458" id="-24351">
		<tag k="name" v="Svensrud" />
		<tag k="place" v="farm" />
		<tag k="ssr:stedsnr" v="250325" />
	</node>
	<node lat="60.68323333568096" lon="10.389580560985682" id="-24352">
		<tag k="name" v="Brenna" />
		<tag k="place" v="farm" />
		<tag k="ssr:stedsnr" v="250327" />
	</node>
	<node lat="60.68428108213444" lon="10.435588248720718" id="-24353">
		<tag k="alt_name" v="Kinnslien" />
		<tag k="fixme" v="consider place=hamlet" />
		<tag k="name" v="Kinnslia" />
		<tag k="place" v="farm" />
		<tag k="ssr:stedsnr" v="250328" />
	</node>
	<node lat="60.54575000019422" lon="10.293686115076772" id="-24355">
		<tag k="alt_name" v="Struksnesengen" />
		<tag k="name" v="Struksnesenga" />
		<tag k="place" v="farm" />
		<tag k="ssr:stedsnr" v="250507" />
	</node>
	<node lat="60.826766670728325" lon="10.339194438697797" id="-24358">
		<tag k="name" v="Landåsødegården" />
		<tag k="place" v="farm" />
		<tag k="ssr:stedsnr" v="116101" />
	</node>
	<node lat="60.62189167087175" lon="10.369300007676733" id="-24359">
		<tag k="name" v="Randsbo" />
		<tag k="place" v="isolated_dwelling" />
		<tag k="ssr:stedsnr" v="116209" />
	</node>
	<node lat="60.63584444104892" lon="10.452416662851082" id="-24361">
		<tag k="name" v="Skråtengen" />
		<tag k="place" v="farm" />
		<tag k="ssr:stedsnr" v="116239" />
	</node>
	<node lat="60.63040555222863" lon="10.435252784990437" id="-24365">
		<tag k="name" v="Geitmyrstykket" />
		<tag k="place" v="locality" />
		<tag k="ssr:stedsnr" v="116249" />
	</node>
	<node lat="60.6609555550036" lon="10.368361109797178" id="-24366">
		<tag k="name" v="Fredrikstad" />
		<tag k="place" v="farm" />
		<tag k="ssr:stedsnr" v="116268" />
	</node>
	<node lat="60.59046111135818" lon="10.286963891061102" id="-24370">
		<tag k="name" v="Kottet" />
		<tag k="place" v="farm" />
		<tag k="ssr:stedsnr" v="250586" />
	</node>
	<node lat="60.55655833260189" lon="10.335597224154645" id="-24374">
		<tag k="name" v="Bakken" />
		<tag k="place" v="isolated_dwelling" />
		<tag k="ssr:stedsnr" v="116394" />
	</node>
	<node lat="60.703655557274935" lon="10.274483340774829" id="-24383">
		<tag k="alt_name" v="Lindal" />
		<tag k="name" v="Linddal" />
		<tag k="place" v="farm" />
		<tag k="ssr:stedsnr" v="250708" />
	</node>
	<node lat="60.69064444052896" lon="10.367594448302702" id="-24386">
		<tag k="name" v="Øverhagen" />
		<tag k="place" v="isolated_dwelling" />
		<tag k="ssr:stedsnr" v="117406" />
	</node>
	<node lat="60.597092099981204" lon="10.301107950489722" id="-24390">
		<tag k="name" v="Lomsdalen" />
		<tag k="place" v="hamlet" />
		<tag k="ssr:stedsnr" v="121988" />
	</node>
	<node lat="60.85527777586585" lon="10.308219444731767" id="-24391">
		<tag k="alt_name" v="Ødegårdslette" />
		<tag k="name" v="Øgardssletta" />
		<tag k="place" v="isolated_dwelling" />
		<tag k="ssr:stedsnr" v="251551" />
	</node>
	<node lat="60.61679279023113" lon="10.370075276182636" id="-24393">
		<tag k="alt_name" v="Øksne, nordre" />
		<tag k="fixme" v="consider place=hamlet" />
		<tag k="name" v="Nordre Øksne" />
		<tag k="place" v="farm" />
		<tag k="ssr:stedsnr" v="128193" />
	</node>
	<node lat="60.63613611284058" lon="10.533619451778925" id="-24395">
		<tag k="name" v="Sørås" />
		<tag k="place" v="farm" />
		<tag k="ssr:stedsnr" v="128199" />
	</node>
	<node lat="60.69214444715936" lon="10.382094450789639" id="-24396">
		<tag k="name" v="Haukås" />
		<tag k="place" v="farm" />
		<tag k="ssr:stedsnr" v="128338" />
	</node>
	<node lat="60.69526692442006" lon="10.351344949081412" id="-24397">
		<tag k="alt_name" v="Hov, s;Søndre Hov" />
		<tag k="fixme" v="consider place=hamlet" />
		<tag k="name" v="Søre Hov" />
		<tag k="place" v="farm" />
		<tag k="ssr:stedsnr" v="128340" />
	</node>
	<node lat="60.688627781323305" lon="10.432263889194738" id="-24398">
		<tag k="name" v="Kolstad" />
		<tag k="place" v="farm" />
		<tag k="ssr:stedsnr" v="128346" />
	</node>
	<node lat="60.63348333289633" lon="10.495869446339794" id="-24399">
		<tag k="alt_name" v="Vestre Engen" />
		<tag k="name" v="Kleivenga" />
		<tag k="place" v="farm" />
		<tag k="ssr:stedsnr" v="128212" />
	</node>
	<node lat="60.742722218588725" lon="10.38791944395177" id="-24402">
		<tag k="name" v="Hovde" />
		<tag k="place" v="isolated_dwelling" />
		<tag k="ssr:stedsnr" v="128419" />
	</node>
	<node lat="60.55632221898572" lon="10.253133336760753" id="-24404">
		<tag k="alt_name" v="Søfferudsætra, fremre" />
		<tag k="name" v="Fremre Søfferudsætra" />
		<tag k="place" v="isolated_dwelling" />
		<tag k="ssr:stedsnr" v="128509" />
	</node>
	<node lat="60.54407221905705" lon="10.331316664469266" id="-24406">
		<tag k="alt_name" v="Øvre Ødegården" />
		<tag k="name" v="Øygarden" />
		<tag k="place" v="farm" />
		<tag k="ssr:stedsnr" v="128548" />
	</node>
	<node lat="60.682513892295155" lon="10.311688886187953" id="-24410">
		<tag k="alt_name" v="Bjørlidalen" />
		<tag k="name" v="Dalen" />
		<tag k="place" v="farm" />
		<tag k="ssr:stedsnr" v="128733" />
	</node>
	<node lat="60.6802027782985" lon="10.315649993719385" id="-24411">
		<tag k="alt_name" v="Bjørliodden" />
		<tag k="name" v="Odden" />
		<tag k="place" v="isolated_dwelling" />
		<tag k="ssr:stedsnr" v="128737" />
	</node>
	<node lat="60.68251991136585" lon="10.300693462074848" id="-24412">
		<tag k="fixme" v="multiple name tags, choose one and add the other to alt_name" />
		<tag k="name" v="Hågån;Nordby" />
		<tag k="place" v="farm" />
		<tag k="ssr:stedsnr" v="128740" />
	</node>
	<node lat="60.734349999709565" lon="10.398200007771004" id="-24413">
		<tag k="alt_name" v="Midtbergseter" />
		<tag k="historic" v="shieling" />
		<tag k="name" v="Midtbergsætra" />
		<tag k="place" v="isolated_dwelling" />
		<tag k="ssr:stedsnr" v="128433" />
	</node>
	<node lat="60.64905555147983" lon="10.323850007366907" id="-24414">
		<tag k="name" v="Svea" />
		<tag k="place" v="farm" />
		<tag k="ssr:stedsnr" v="128614" />
	</node>
	<node lat="60.62845833440009" lon="10.18931388158669" id="-24417">
		<tag k="alt_name" v="Breidvika" />
		<tag k="name" v="Breivika" />
		<tag k="place" v="farm" />
		<tag k="ssr:stedsnr" v="128662" />
	</node>
	<node lat="60.706493170773115" lon="10.338607706464687" id="-24418">
		<tag k="alt_name" v="Moe" />
		<tag k="fixme" v="consider place=hamlet" />
		<tag k="name" v="Mo" />
		<tag k="place" v="farm" />
		<tag k="ssr:stedsnr" v="128692" />
	</node>
	<node lat="60.72708889300598" lon="10.243097226291491" id="-24420">
		<tag k="name" v="Skålerud" />
		<tag k="place" v="farm" />
		<tag k="ssr:stedsnr" v="128786" />
	</node>
	<node lat="60.7313711052556" lon="10.307747100975611" id="-24421">
		<tag k="alt_name" v="Nårum" />
		<tag k="name" v="Nordre Narum" />
		<tag k="place" v="farm" />
		<tag k="ssr:stedsnr" v="128791" />
	</node>
	<node lat="60.727063885825196" lon="10.331788891971595" id="-24422">
		<tag k="name" v="Østby" />
		<tag k="place" v="farm" />
		<tag k="ssr:stedsnr" v="128793" />
	</node>
	<node lat="60.723822224334405" lon="10.243144450186998" id="-24423">
		<tag k="alt_name" v="Haugerud" />
		<tag k="name" v="Øvre Haugerud" />
		<tag k="place" v="farm" />
		<tag k="ssr:stedsnr" v="128796" />
	</node>
	<node lat="60.84420555725852" lon="10.324272223198456" id="-24425">
		<tag k="name" v="Rognhaugen" />
		<tag k="place" v="farm" />
		<tag k="ssr:stedsnr" v="252476" />
	</node>
	<node lat="60.806391663032386" lon="10.280433327034975" id="-24426">
		<tag k="name" v="Mjølsrud" />
		<tag k="place" v="farm" />
		<tag k="ssr:stedsnr" v="252516" />
	</node>
	<node lat="60.83314444048775" lon="10.29479443795773" id="-24429">
		<tag k="fixme" v="consider place=hamlet" />
		<tag k="name" v="Landåsbygda" />
		<tag k="place" v="village" />
		<tag k="ssr:stedsnr" v="130596" />
	</node>
	<node lat="60.762941665198674" lon="10.110583341846375" id="-24430">
		<tag k="historic" v="shieling" />
		<tag k="name" v="Vikersætra" />
		<tag k="place" v="isolated_dwelling" />
		<tag k="ssr:stedsnr" v="252585" />
	</node>
	<node lat="60.7940166707273" lon="10.294522219066383" id="-24433">
		<tag k="name" v="Skjellerud" />
		<tag k="place" v="farm" />
		<tag k="ssr:stedsnr" v="252614" />
	</node>
	<node lat="60.805372226505995" lon="10.218944441955472" id="-24434">
		<tag k="alt_name" v="Brufladt" />
		<tag k="name" v="Nybakke" />
		<tag k="place" v="isolated_dwelling" />
		<tag k="ssr:stedsnr" v="252652" />
	</node>
	<node lat="60.76189722165562" lon="10.267250002457143" id="-24436">
		<tag k="name" v="Leirbekk" />
		<tag k="place" v="farm" />
		<tag k="ssr:stedsnr" v="252723" />
	</node>
	<node lat="60.68207034575495" lon="10.360964038305537" id="-24437">
		<tag k="alt_name" v="Fall, øvre" />
		<tag k="name" v="Øvre Fall" />
		<tag k="place" v="farm" />
		<tag k="ssr:stedsnr" v="144758" />
	</node>
	<node lat="60.65583333514195" lon="10.098205548812912" id="-24446">
		<tag k="historic" v="shieling" />
		<tag k="name" v="Hasvalsæterhytta" />
		<tag k="place" v="isolated_dwelling" />
		<tag k="ssr:stedsnr" v="162965" />
	</node>
	<node lat="60.61477222300577" lon="10.368099991472533" id="-24450">
		<tag k="name" v="Brein" />
		<tag k="place" v="farm" />
		<tag k="ssr:stedsnr" v="177211" />
	</node>
	<node lat="60.631291669465334" lon="10.38110833940855" id="-24453">
		<tag k="name" v="Kvikne" />
		<tag k="place" v="locality" />
		<tag k="ssr:stedsnr" v="177264" />
	</node>
	<node lat="60.66603611154852" lon="10.368377774827643" id="-24454">
		<tag k="alt_name" v="Søndre Brurud" />
		<tag k="name" v="Søre Brurud" />
		<tag k="place" v="isolated_dwelling" />
		<tag k="ssr:stedsnr" v="177273" />
	</node>
	<node lat="60.65459444143077" lon="10.368247225263636" id="-24455">
		<tag k="name" v="Granumssletta" />
		<tag k="place" v="isolated_dwelling" />
		<tag k="ssr:stedsnr" v="177276" />
	</node>
	<node lat="60.65164444188173" lon="10.402011118145563" id="-24456">
		<tag k="name" v="Kullbotn" />
		<tag k="place" v="isolated_dwelling" />
		<tag k="ssr:stedsnr" v="177277" />
	</node>
	<node lat="60.80126944707468" lon="10.24023332961296" id="-24459">
		<tag k="name" v="Ødegården" />
		<tag k="place" v="farm" />
		<tag k="ssr:stedsnr" v="177466" />
	</node>
	<node lat="60.67510833158289" lon="10.461766667863879" id="-24460">
		<tag k="name" v="Østlien" />
		<tag k="place" v="isolated_dwelling" />
		<tag k="ssr:stedsnr" v="177468" />
	</node>
	<node lat="60.693988892145306" lon="10.285144448713238" id="-24461">
		<tag k="name" v="Borgen" />
		<tag k="place" v="isolated_dwelling" />
		<tag k="ssr:stedsnr" v="177672" />
	</node>
	<node lat="60.62048055392172" lon="10.315452777324126" id="-24462">
		<tag k="name" v="Veltsæterhytta" />
		<tag k="place" v="isolated_dwelling" />
		<tag k="ssr:stedsnr" v="177568" />
	</node>
	<node lat="60.66344166852706" lon="10.319905554820746" id="-24463">
		<tag k="name" v="Akervoll" />
		<tag k="place" v="isolated_dwelling" />
		<tag k="ssr:stedsnr" v="177723" />
	</node>
	<node lat="60.65483333757587" lon="10.363655561357211" id="-24467">
		<tag k="alt_name" v="Søndre Granum" />
		<tag k="name" v="Søre Granum" />
		<tag k="place" v="farm" />
		<tag k="ssr:stedsnr" v="182507" />
	</node>
	<node lat="60.6323098887332" lon="10.50260301179367" id="-24476">
		<tag k="alt_name" v="Kleven" />
		<tag k="fixme" v="consider place=hamlet" />
		<tag k="name" v="Kleiva" />
		<tag k="place" v="farm" />
		<tag k="ssr:stedsnr" v="189218" />
	</node>
	<node lat="60.610580555270445" lon="10.25705276985479" id="-24478">
		<tag k="name" v="Nysætra" />
		<tag k="place" v="isolated_dwelling" />
		<tag k="ssr:stedsnr" v="189611" />
	</node>
	<node lat="60.7912444432597" lon="10.233858326240943" id="-24482">
		<tag k="name" v="Nyhus" />
		<tag k="place" v="isolated_dwelling" />
		<tag k="ssr:stedsnr" v="191617" />
	</node>
	<node lat="60.82715833147544" lon="10.33181945233709" id="-24484">
		<tag k="name" v="Vattum" />
		<tag k="place" v="farm" />
		<tag k="ssr:stedsnr" v="191560" />
	</node>
	<node lat="60.69870000381543" lon="10.351930553246245" id="-24486">
		<tag k="name" v="Hov" />
		<tag k="place" v="village" />
		<tag k="ssr:stedsnr" v="205792" />
	</node>
	<node lat="60.57247499755259" lon="10.290577786324251" id="-24487">
		<tag k="name" v="Bjørnerud" />
		<tag k="place" v="farm" />
		<tag k="ssr:stedsnr" v="208093" />
	</node>
	<node lat="60.53358889034495" lon="10.33771110843914" id="-24488">
		<tag k="name" v="Kjergårdshaugen" />
		<tag k="place" v="farm" />
		<tag k="ssr:stedsnr" v="213733" />
	</node>
	<node lat="60.68292221857373" lon="10.177269445134028" id="-24489">
		<tag k="historic" v="shieling" />
		<tag k="name" v="Skjeslisætra" />
		<tag k="place" v="isolated_dwelling" />
		<tag k="ssr:stedsnr" v="222113" />
	</node>
	<node lat="60.80509166471247" lon="10.214633335992872" id="-24493">
		<tag k="name" v="Olagjerdet" />
		<tag k="place" v="isolated_dwelling" />
		<tag k="ssr:stedsnr" v="223389" />
	</node>
	<node lat="60.79283055402881" lon="10.238330564501982" id="-24494">
		<tag k="name" v="Fagerli" />
		<tag k="place" v="isolated_dwelling" />
		<tag k="ssr:stedsnr" v="223394" />
	</node>
	<node lat="60.59568055720204" lon="10.291894448291963" id="-24495">
		<tag k="name" v="Spellhaugen" />
		<tag k="place" v="isolated_dwelling" />
		<tag k="ssr:stedsnr" v="223605" />
	</node>
	<node lat="60.62680277686454" lon="10.512447226013169" id="-24498">
		<tag k="name" v="Trevatn" />
		<tag k="place" v="hamlet" />
		<tag k="ssr:stedsnr" v="271775" />
	</node>
	<node lat="60.835325003315866" lon="10.284941675981841" id="-24499">
		<tag k="name" v="Rossing" />
		<tag k="place" v="farm" />
		<tag k="ssr:stedsnr" v="238168" />
	</node>
	<node lat="60.83419444019778" lon="10.282805559053166" id="-24500">
		<tag k="name" v="Ringstad" />
		<tag k="place" v="farm" />
		<tag k="ssr:stedsnr" v="238170" />
	</node>
	<node lat="60.681208337527124" lon="10.417800003105773" id="-24503">
		<tag k="name" v="Odden" />
		<tag k="place" v="isolated_dwelling" />
		<tag k="ssr:stedsnr" v="238406" />
	</node>
	<node lat="60.69713332925292" lon="10.37466388069388" id="-24504">
		<tag k="name" v="Nedre Nyland" />
		<tag k="place" v="farm" />
		<tag k="ssr:stedsnr" v="238400" />
	</node>
	<node lat="60.676547223173074" lon="10.362113880042791" id="-24512">
		<tag k="name" v="Lied" />
		<tag k="place" v="farm" />
		<tag k="ssr:stedsnr" v="238679" />
	</node>
	<node lat="60.65226944718054" lon="10.32095833391615" id="-24513">
		<tag k="name" v="Eriksveen" />
		<tag k="place" v="isolated_dwelling" />
		<tag k="ssr:stedsnr" v="238691" />
	</node>
	<node lat="60.643100000890286" lon="10.38040000754425" id="-24518">
		<tag k="name" v="Engehaugen" />
		<tag k="place" v="farm" />
		<tag k="ssr:stedsnr" v="249254" />
	</node>
	<node lat="60.553677780513915" lon="10.410744435736165" id="-24520">
		<tag k="name" v="Hornshytta" />
		<tag k="place" v="isolated_dwelling" />
		<tag k="ssr:stedsnr" v="457181" />
	</node>
	<node lat="60.65317222372961" lon="10.197863889185745" id="-24524">
		<tag k="name" v="Askvikhytta" />
		<tag k="place" v="isolated_dwelling" />
		<tag k="ssr:stedsnr" v="284078" />
	</node>
	<node lat="60.72922222231468" lon="10.342869439509434" id="-24527">
		<tag k="name" v="Oladalen" />
		<tag k="place" v="farm" />
		<tag k="ssr:stedsnr" v="284782" />
	</node>
	<node lat="60.63444722333007" lon="10.366130553928615" id="-24530">
		<tag k="name" v="Monsestuen" />
		<tag k="place" v="locality" />
		<tag k="ssr:stedsnr" v="298512" />
	</node>
	<node lat="60.769150002729674" lon="10.349147213781105" id="-24533">
		<tag k="name" v="Jensesætra" />
		<tag k="place" v="isolated_dwelling" />
		<tag k="ssr:stedsnr" v="298909" />
	</node>
	<node lat="60.7689527773362" lon="10.355372213049666" id="-24534">
		<tag k="name" v="Bakke" />
		<tag k="place" v="farm" />
		<tag k="ssr:stedsnr" v="298910" />
	</node>
	<node lat="60.69258055252707" lon="10.353386109400697" id="-24536">
		<tag k="building" v="industrial" />
		<tag k="industrial" v="factory" />
		<tag k="name" v="Hov Møbelindustri" />
		<tag k="ssr:stedsnr" v="299688" />
	</node>
	<node lat="60.71189166388358" lon="10.003574991418118" id="-24537">
		<tag k="name" v="Buvasshaugen" />
		<tag k="place" v="locality" />
		<tag k="ssr:stedsnr" v="464125" />
	</node>
	<node lat="60.62086388734802" lon="10.48530833097075" id="-24542">
		<tag k="name" v="Bikkjebettstykket" />
		<tag k="place" v="locality" />
		<tag k="ssr:stedsnr" v="465298" />
	</node>
	<node lat="60.63847668383802" lon="10.524526081018857" id="-24547">
		<tag k="fixme" v="consider place=hamlet" />
		<tag k="name" v="Røste" />
		<tag k="place" v="farm" />
		<tag k="ssr:stedsnr" v="310210" />
	</node>
	<node lat="60.62809444244937" lon="10.505241674323345" id="-24548">
		<tag k="alt_name" v="Øvre Eid" />
		<tag k="name" v="Eid" />
		<tag k="place" v="farm" />
		<tag k="ssr:stedsnr" v="310227" />
	</node>
	<node lat="60.57635833233134" lon="10.426391658269937" id="-24550">
		<tag k="name" v="Sandsvadhytta" />
		<tag k="place" v="isolated_dwelling" />
		<tag k="ssr:stedsnr" v="310139" />
	</node>
	<node lat="60.57222499577254" lon="10.401263884126159" id="-24551">
		<tag k="historic" v="shieling" />
		<tag k="name" v="Engersætra" />
		<tag k="place" v="isolated_dwelling" />
		<tag k="ssr:stedsnr" v="310140" />
	</node>
	<node lat="60.551047225293985" lon="10.288786111833478" id="-24560">
		<tag k="alt_name" v="Barbrostuen" />
		<tag k="name" v="Barbrostugua" />
		<tag k="place" v="farm" />
		<tag k="ssr:stedsnr" v="310518" />
	</node>
	<node lat="60.728100000700515" lon="10.321436103589734" id="-24561">
		<tag k="fixme" v="consider place=hamlet" />
		<tag k="name" v="Lausgarda" />
		<tag k="place" v="village" />
		<tag k="ssr:stedsnr" v="310785" />
	</node>
	<node lat="60.727642068510065" lon="10.323294913441503" id="-24562">
		<tag k="alt_name" v="Løken" />
		<tag k="name" v="Øvre Løken" />
		<tag k="place" v="farm" />
		<tag k="ssr:stedsnr" v="310789" />
	</node>
	<node lat="60.720700002542124" lon="10.251124996873948" id="-24563">
		<tag k="name" v="Rundtom" />
		<tag k="place" v="farm" />
		<tag k="ssr:stedsnr" v="310794" />
	</node>
	<node lat="60.71483888491528" lon="10.340949994794132" id="-24564">
		<tag k="name" v="Fremstad" />
		<tag k="place" v="farm" />
		<tag k="ssr:stedsnr" v="310798" />
	</node>
	<node lat="60.71174999934472" lon="10.22286389268577" id="-24567">
		<tag k="name" v="Nyvelta" />
		<tag k="place" v="isolated_dwelling" />
		<tag k="ssr:stedsnr" v="310805" />
	</node>
	<node lat="60.77419999946112" lon="10.207341667306348" id="-24569">
		<tag k="name" v="Tomtum" />
		<tag k="place" v="isolated_dwelling" />
		<tag k="ssr:stedsnr" v="466390" />
	</node>
	<node lat="60.64202222016354" lon="10.333677776456467" id="-24570">
		<tag k="amenity" v="school" />
		<tag k="name" v="Vestsida barneskole" />
		<tag k="ssr:stedsnr" v="466537" />
	</node>
	<node lat="60.608605553287134" lon="10.357813883385223" id="-24572">
		<tag k="name" v="Stenseng" />
		<tag k="place" v="farm" />
		<tag k="ssr:stedsnr" v="466555" />
	</node>
	<node lat="60.60591667045722" lon="10.260722216172235" id="-24573">
		<tag k="name" v="Fløythytta" />
		<tag k="place" v="isolated_dwelling" />
		<tag k="ssr:stedsnr" v="466589" />
	</node>
	<node lat="60.72978611376262" lon="10.108080561563405" id="-24580">
		<tag k="name" v="Jensehytta" />
		<tag k="place" v="isolated_dwelling" />
		<tag k="ssr:stedsnr" v="466896" />
	</node>
	<node lat="60.68663264154763" lon="10.356340545360053" id="-24581">
		<tag k="alt_name" v="Søndre Hvalby;Kvalby, søndre" />
		<tag k="name" v="Søre Kvalby" />
		<tag k="place" v="farm" />
		<tag k="ssr:stedsnr" v="326767" />
	</node>
	<node lat="60.534767901639235" lon="10.328906886618874" id="-24582">
		<tag k="name" v="Øvre Horn" />
		<tag k="place" v="farm" />
		<tag k="ssr:stedsnr" v="334707" />
	</node>
	<node lat="60.584511107600925" lon="10.343380552843007" id="-24587">
		<tag k="name" v="Stenberg" />
		<tag k="place" v="isolated_dwelling" />
		<tag k="ssr:stedsnr" v="344465" />
	</node>
	<node lat="60.59826388654096" lon="10.30233610601411" id="-24588">
		<tag k="name" v="Moen" />
		<tag k="place" v="locality" />
		<tag k="ssr:stedsnr" v="344592" />
	</node>
	<node lat="60.74004444290522" lon="10.30055833041215" id="-24590">
		<tag k="name" v="Mossevollen" />
		<tag k="place" v="farm" />
		<tag k="ssr:stedsnr" v="344803" />
	</node>
	<node lat="60.72745277594095" lon="10.333452785176766" id="-24591">
		<tag k="name" v="Haugsrud" />
		<tag k="place" v="farm" />
		<tag k="ssr:stedsnr" v="344766" />
	</node>
	<node lat="60.61825555889136" lon="10.372863896518194" id="-24598">
		<tag k="name" v="Engebakken" />
		<tag k="place" v="farm" />
		<tag k="ssr:stedsnr" v="359202" />
	</node>
	<node lat="60.697402778475485" lon="10.184438881919453" id="-24601">
		<tag k="name" v="Kompelisætra" />
		<tag k="place" v="locality" />
		<tag k="ssr:stedsnr" v="359104" />
	</node>
	<node lat="60.584361114921485" lon="10.50573610345796" id="-24602">
		<tag k="name" v="Glåmhaugstykket" />
		<tag k="place" v="locality" />
		<tag k="ssr:stedsnr" v="359405" />
	</node>
	<node lat="60.575447224456674" lon="10.2874944437978" id="-24604">
		<tag k="name" v="Ristebo" />
		<tag k="place" v="isolated_dwelling" />
		<tag k="ssr:stedsnr" v="359456" />
	</node>
	<node lat="60.5756277776197" lon="10.337738895020955" id="-24605">
		<tag k="name" v="Beretsveen" />
		<tag k="place" v="isolated_dwelling" />
		<tag k="ssr:stedsnr" v="359458" />
	</node>
	<node lat="60.54062222416223" lon="10.29020277817735" id="-24606">
		<tag k="name" v="Øvre Struksnes" />
		<tag k="place" v="farm" />
		<tag k="ssr:stedsnr" v="359503" />
	</node>
	<node lat="60.663633331087134" lon="10.318183331189747" id="-24607">
		<tag k="name" v="Engelund" />
		<tag k="place" v="isolated_dwelling" />
		<tag k="ssr:stedsnr" v="359702" />
	</node>
	<node lat="60.663191667865355" lon="10.321005550708929" id="-24610">
		<tag k="name" v="Myrvang" />
		<tag k="place" v="isolated_dwelling" />
		<tag k="ssr:stedsnr" v="359700" />
	</node>
	<node lat="60.683824996953106" lon="10.054441660918188" id="-24616">
		<tag k="historic" v="shieling" />
		<tag k="name" v="Svesætra" />
		<tag k="place" v="isolated_dwelling" />
		<tag k="ssr:stedsnr" v="370691" />
	</node>
	<node lat="60.56034999905907" lon="10.408911105555237" id="-24617">
		<tag k="historic" v="shieling" />
		<tag k="name" v="Brennsætra" />
		<tag k="place" v="isolated_dwelling" />
		<tag k="ssr:stedsnr" v="371105" />
	</node>
	<node lat="60.629133330764546" lon="10.533480560313373" id="-24620">
		<tag k="name" v="Nymoen" />
		<tag k="place" v="farm" />
		<tag k="ssr:stedsnr" v="371214" />
	</node>
	<node lat="60.67131043800963" lon="10.361493649922895" id="-24622">
		<tag k="fixme" v="consider place=hamlet" />
		<tag k="name" v="Ringstad" />
		<tag k="place" v="farm" />
		<tag k="ssr:stedsnr" v="371324" />
	</node>
	<node lat="60.70260948971615" lon="10.359651475459144" id="-24623">
		<tag k="fixme" v="consider place=hamlet" />
		<tag k="name" v="Sørberg" />
		<tag k="place" v="farm" />
		<tag k="ssr:stedsnr" v="371374" />
	</node>
	<node lat="60.6402361127347" lon="10.342655552080354" id="-24624">
		<tag k="alt_name" v="Sarastugua" />
		<tag k="name" v="Sarastuen" />
		<tag k="place" v="farm" />
		<tag k="ssr:stedsnr" v="371622" />
	</node>
	<node lat="60.65183055446707" lon="10.245855547119502" id="-24627">
		<tag k="name" v="Solhaug" />
		<tag k="place" v="isolated_dwelling" />
		<tag k="ssr:stedsnr" v="371635" />
	</node>
	<node lat="60.77442499843106" lon="10.357877786598726" id="-24628">
		<tag k="name" v="Landheim" />
		<tag k="place" v="farm" />
		<tag k="ssr:stedsnr" v="373027" />
	</node>
	<node lat="60.80017500212799" lon="10.262244453536054" id="-24630">
		<tag k="name" v="Rønningen" />
		<tag k="place" v="farm" />
		<tag k="ssr:stedsnr" v="373699" />
	</node>
	<node lat="60.77201666264556" lon="10.213669441936633" id="-24631">
		<tag k="name" v="Rostad" />
		<tag k="place" v="farm" />
		<tag k="ssr:stedsnr" v="373657" />
	</node>
	<node lat="60.5676472183489" lon="10.477749999848987" id="-24635">
		<tag k="name" v="Eidsiva" />
		<tag k="place" v="isolated_dwelling" />
		<tag k="ssr:stedsnr" v="480142" />
	</node>
	<node lat="60.63514444619288" lon="10.372113896595957" id="-24639">
		<tag k="name" v="Lyseng" />
		<tag k="place" v="isolated_dwelling" />
		<tag k="ssr:stedsnr" v="480233" />
	</node>
	<node lat="60.66323055859939" lon="10.366013885410622" id="-24642">
		<tag k="name" v="Sørum" />
		<tag k="place" v="farm" />
		<tag k="ssr:stedsnr" v="480689" />
	</node>
	<node lat="60.65285000320552" lon="10.32861111837406" id="-24643">
		<tag k="name" v="Solheim" />
		<tag k="place" v="isolated_dwelling" />
		<tag k="ssr:stedsnr" v="480694" />
	</node>
	<node lat="60.6659416703308" lon="10.271019437685144" id="-24644">
		<tag k="historic" v="shieling" />
		<tag k="name" v="Brakarhemsætra" />
		<tag k="place" v="isolated_dwelling" />
		<tag k="ssr:stedsnr" v="480699" />
	</node>
	<node lat="60.615194441334744" lon="10.481952772920813" id="-24645">
		<tag k="alt_name" v="Søndre Svarthullet" />
		<tag k="name" v="Søre Svarthullet" />
		<tag k="place" v="isolated_dwelling" />
		<tag k="ssr:stedsnr" v="480199" />
	</node>
	<node lat="60.54764999809101" lon="10.220766660907183" id="-24650">
		<tag k="alt_name" v="Sandtjennshytta" />
		<tag k="name" v="Sandtjernhytta" />
		<tag k="place" v="isolated_dwelling" />
		<tag k="ssr:stedsnr" v="480489" />
	</node>
	<node lat="60.67483611194391" lon="10.437308337956075" id="-24654">
		<tag k="name" v="Myrhaug" />
		<tag k="place" v="isolated_dwelling" />
		<tag k="ssr:stedsnr" v="480441" />
	</node>
	<node lat="60.60926666687483" lon="10.101297213869595" id="-24656">
		<tag k="name" v="Søvasshytta" />
		<tag k="place" v="isolated_dwelling" />
		<tag k="ssr:stedsnr" v="480817" />
	</node>
	<node lat="60.77930278151715" lon="10.2794666698164" id="-24658">
		<tag k="name" v="Hannvoll" />
		<tag k="place" v="locality" />
		<tag k="ssr:stedsnr" v="480850" />
	</node>
	<node lat="60.69820277757972" lon="10.349211103814103" id="-24661">
		<tag k="alt_name" v="Hov, m" />
		<tag k="name" v="Midtre Hov" />
		<tag k="place" v="farm" />
		<tag k="ssr:stedsnr" v="387741" />
	</node>
	<node lat="60.71754999671411" lon="10.3577722254774" id="-24662">
		<tag k="name" v="Granås" />
		<tag k="place" v="isolated_dwelling" />
		<tag k="ssr:stedsnr" v="392789" />
	</node>
	<node lat="60.56992778014555" lon="10.288058334801631" id="-24664">
		<tag k="name" v="Skogtun" />
		<tag k="place" v="isolated_dwelling" />
		<tag k="ssr:stedsnr" v="404409" />
	</node>
	<node lat="60.61694444407483" lon="10.51899444199454" id="-24667">
		<tag k="name" v="Bjørerudstykket" />
		<tag k="place" v="locality" />
		<tag k="ssr:stedsnr" v="405316" />
	</node>
	<node lat="60.62383333379257" lon="10.490383342013041" id="-24669">
		<tag k="name" v="Saghytta" />
		<tag k="place" v="isolated_dwelling" />
		<tag k="ssr:stedsnr" v="405325" />
	</node>
	<node lat="60.62741389292357" lon="10.510397223216929" id="-24670">
		<tag k="name" v="Øvre Svendsrud" />
		<tag k="place" v="isolated_dwelling" />
		<tag k="ssr:stedsnr" v="405327" />
	</node>
	<node lat="60.64284721976086" lon="10.36558055293937" id="-24671">
		<tag k="name" v="Bjerkvoll" />
		<tag k="place" v="isolated_dwelling" />
		<tag k="ssr:stedsnr" v="405545" />
	</node>
	<node lat="60.72356944535736" lon="10.325108341064311" id="-24673">
		<tag k="name" v="Ekeren" />
		<tag k="place" v="farm" />
		<tag k="ssr:stedsnr" v="405741" />
	</node>
	<node lat="60.748011107799506" lon="10.329133341765361" id="-24674">
		<tag k="name" v="Tranholtsveen" />
		<tag k="place" v="farm" />
		<tag k="ssr:stedsnr" v="405749" />
	</node>
	<node lat="60.75734444904484" lon="10.34143610293429" id="-24675">
		<tag k="name" v="Voldsvinningen" />
		<tag k="place" v="isolated_dwelling" />
		<tag k="ssr:stedsnr" v="405752" />
	</node>
	<node lat="60.6290555534194" lon="10.473447222320114" id="-24682">
		<tag k="name" v="Fjordheim" />
		<tag k="place" v="isolated_dwelling" />
		<tag k="ssr:stedsnr" v="420243" />
	</node>
	<node lat="60.63307221793382" lon="10.496766669057596" id="-24683">
		<tag k="name" v="Østre Engen" />
		<tag k="place" v="farm" />
		<tag k="ssr:stedsnr" v="420246" />
	</node>
	<node lat="60.633802778343096" lon="10.383622213486339" id="-24684">
		<tag k="name" v="Olberg" />
		<tag k="place" v="isolated_dwelling" />
		<tag k="ssr:stedsnr" v="420249" />
	</node>
	<node lat="60.58659444189927" lon="10.2875611153178" id="-24685">
		<tag k="name" v="Haugsbråten" />
		<tag k="place" v="locality" />
		<tag k="ssr:stedsnr" v="420602" />
	</node>
	<node lat="60.69143055787576" lon="10.366361104667677" id="-24687">
		<tag k="name" v="Skogtun" />
		<tag k="place" v="isolated_dwelling" />
		<tag k="ssr:stedsnr" v="420706" />
	</node>
	<node lat="60.797066670292594" lon="10.344708339070163" id="-24689">
		<tag k="name" v="Sola" />
		<tag k="place" v="locality" />
		<tag k="ssr:stedsnr" v="420894" />
	</node>
	<node lat="60.782844447625536" lon="10.253958328551954" id="-24691">
		<tag k="name" v="Granholt" />
		<tag k="place" v="farm" />
		<tag k="ssr:stedsnr" v="420896" />
	</node>
	<node lat="60.78379999593339" lon="10.252658330897807" id="-24692">
		<tag k="name" v="Svarverhaugen" />
		<tag k="place" v="isolated_dwelling" />
		<tag k="ssr:stedsnr" v="420901" />
	</node>
	<node lat="60.71199689976675" lon="10.3245354502602" id="-24697">
		<tag k="alt_name" v="Nærløs" />
		<tag k="fixme" v="consider place=hamlet" />
		<tag k="name" v="Nerlaus" />
		<tag k="place" v="farm" />
		<tag k="ssr:stedsnr" v="492700" />
	</node>
	<node lat="60.66302500026919" lon="10.359833334770887" id="-24698">
		<tag k="name" v="Strandvik" />
		<tag k="place" v="farm" />
		<tag k="ssr:stedsnr" v="431322" />
	</node>
	<node lat="60.6232222254438" lon="10.384719441049661" id="-24701">
		<tag k="name" v="Kaldsveen" />
		<tag k="place" v="farm" />
		<tag k="ssr:stedsnr" v="432202" />
	</node>
	<node lat="60.62528610999512" lon="10.387913890337668" id="-24702">
		<tag k="name" v="Øvstås" />
		<tag k="place" v="farm" />
		<tag k="ssr:stedsnr" v="432235" />
	</node>
	<node lat="60.715166664756524" lon="10.372049998004899" id="-24703">
		<tag k="alt_name" v="Tjernsrud" />
		<tag k="name" v="Kjennsrud" />
		<tag k="place" v="farm" />
		<tag k="ssr:stedsnr" v="432410" />
	</node>
	<node lat="60.68454722205164" lon="10.443855560210105" id="-24704">
		<tag k="alt_name" v="Østbygda" />
		<tag k="fixme" v="consider place=hamlet" />
		<tag k="name" v="Nørdre Austbygda" />
		<tag k="place" v="village" />
		<tag k="ssr:stedsnr" v="432306" />
	</node>
	<node lat="60.53483476615788" lon="10.321834036585486" id="-24705">
		<tag k="alt_name" v="Horn Midtre" />
		<tag k="name" v="Midtre Horn" />
		<tag k="place" v="farm" />
		<tag k="ssr:stedsnr" v="432513" />
	</node>
	<node lat="60.54147682536305" lon="10.125430675283688" id="-24706">
		<tag k="fixme" v="consider place=hamlet" />
		<tag k="name" v="Vassenden" />
		<tag k="place" v="farm" />
		<tag k="ssr:stedsnr" v="432525" />
	</node>
	<node lat="60.61094444320591" lon="10.327988889504752" id="-24709">
		<tag k="name" v="Skogen" />
		<tag k="place" v="farm" />
		<tag k="ssr:stedsnr" v="432631" />
	</node>
	<node lat="60.70292499895419" lon="10.34222777513609" id="-24711">
		<tag k="name" v="Fagerlund" />
		<tag k="place" v="quarter" />
		<tag k="ssr:stedsnr" v="432683" />
	</node>
	<node lat="60.70130555345219" lon="10.266752769877385" id="-24712">
		<tag k="name" v="Skjellerud" />
		<tag k="place" v="farm" />
		<tag k="ssr:stedsnr" v="432686" />
	</node>
	<node lat="60.704883799589716" lon="10.281623524760068" id="-24713">
		<tag k="fixme" v="multiple name tags, choose one and add the other to alt_name" />
		<tag k="name" v="Dalen;Slette" />
		<tag k="place" v="farm" />
		<tag k="ssr:stedsnr" v="432687" />
	</node>
	<node lat="60.56645555722202" lon="10.287705557757869" id="-24715">
		<tag k="alt_name" v="Søfferudengen" />
		<tag k="name" v="Søfferudenga" />
		<tag k="place" v="isolated_dwelling" />
		<tag k="ssr:stedsnr" v="432581" />
	</node>
	<node lat="60.721386110440704" lon="10.075352768899453" id="-24718">
		<tag k="name" v="Vestheim" />
		<tag k="place" v="isolated_dwelling" />
		<tag k="ssr:stedsnr" v="432783" />
	</node>
	<node lat="60.84307500201321" lon="10.327411110451322" id="-24722">
		<tag k="name" v="Rognstad" />
		<tag k="place" v="farm" />
		<tag k="ssr:stedsnr" v="434484" />
	</node>
	<node lat="60.83657500152289" lon="10.297391666677116" id="-24723">
		<tag k="alt_name" v="Persveen" />
		<tag k="name" v="Perssvea" />
		<tag k="place" v="farm" />
		<tag k="ssr:stedsnr" v="434606" />
	</node>
	<node lat="60.837080559204885" lon="10.28116666355668" id="-24724">
		<tag k="alt_name" v="Baklien" />
		<tag k="name" v="Baklia" />
		<tag k="place" v="farm" />
		<tag k="ssr:stedsnr" v="434607" />
	</node>
	<node lat="60.58871534375834" lon="10.442176968886276" id="-24725">
		<tag k="fixme" v="multiple name tags, choose one and add the other to alt_name" />
		<tag k="historic" v="shieling" />
		<tag k="name" v="Fallssætra;Ringstadsetra" />
		<tag k="place" v="isolated_dwelling" />
		<tag k="ssr:stedsnr" v="492137" />
	</node>
	<node lat="60.814736111340984" lon="10.130025000153474" id="-24726">
		<tag k="name" v="Lårud" />
		<tag k="place" v="isolated_dwelling" />
		<tag k="ssr:stedsnr" v="434573" />
	</node>
	<node lat="60.8301000024563" lon="10.27909445123715" id="-24727">
		<tag k="alt_name" v="Haugengen" />
		<tag k="name" v="Haugenga" />
		<tag k="place" v="farm" />
		<tag k="ssr:stedsnr" v="434582" />
	</node>
	<node lat="60.64244999677572" lon="10.399963883175147" id="-24730">
		<tag k="alt_name" v="Skrukklia;Skruklia" />
		<tag k="name" v="Skrukkli" />
		<tag k="place" v="farm" />
		<tag k="ssr:stedsnr" v="492232" />
	</node>
	<node lat="60.64624444045499" lon="10.523069450553503" id="-24731">
		<tag k="name" v="Myrvoll" />
		<tag k="place" v="farm" />
		<tag k="ssr:stedsnr" v="492235" />
	</node>
	<node lat="60.64479999922646" lon="10.523461107803753" id="-24732">
		<tag k="name" v="Haugli" />
		<tag k="place" v="farm" />
		<tag k="ssr:stedsnr" v="492236" />
	</node>
	<node lat="60.64357777737628" lon="10.398452776041774" id="-24733">
		<tag k="alt_name" v="Grønnlien" />
		<tag k="name" v="Grønlia" />
		<tag k="place" v="farm" />
		<tag k="ssr:stedsnr" v="492194" />
	</node>
	<node lat="60.63414722439403" lon="10.46606110281586" id="-24735">
		<tag k="alt_name" v="Nedre Vasslien" />
		<tag k="name" v="Nervasslia" />
		<tag k="place" v="farm" />
		<tag k="ssr:stedsnr" v="492198" />
	</node>
	<node lat="60.56540581802962" lon="10.332005070818102" id="-24745">
		<tag k="fixme" v="consider place=hamlet" />
		<tag k="name" v="Grime" />
		<tag k="place" v="farm" />
		<tag k="ssr:stedsnr" v="492565" />
	</node>
	<node lat="60.63319166843922" lon="10.327972230149882" id="-24748">
		<tag k="alt_name" v="Skutsveen" />
		<tag k="name" v="Skutsvea" />
		<tag k="place" v="isolated_dwelling" />
		<tag k="ssr:stedsnr" v="492662" />
	</node>
	<node lat="60.628841966340616" lon="10.344608983037151" id="-24749">
		<tag k="alt_name" v="Skute, s;Skute;Søndre Skute" />
		<tag k="name" v="Søre Skute" />
		<tag k="place" v="farm" />
		<tag k="ssr:stedsnr" v="492663" />
	</node>
	<node lat="60.748319448405226" lon="10.224919451542899" id="-24751">
		<tag k="alt_name" v="Bentestuen" />
		<tag k="name" v="Bent" />
		<tag k="place" v="farm" />
		<tag k="ssr:stedsnr" v="492739" />
	</node>
	<node lat="60.7107138921806" lon="10.251802778965333" id="-24754">
		<tag k="alt_name" v="Bakkom" />
		<tag k="name" v="Bakken" />
		<tag k="place" v="isolated_dwelling" />
		<tag k="ssr:stedsnr" v="492798" />
	</node>
	<node lat="60.575811112087706" lon="10.244588884106248" id="-24755">
		<tag k="historic" v="shieling" />
		<tag k="name" v="Haugssætra" />
		<tag k="place" v="isolated_dwelling" />
		<tag k="ssr:stedsnr" v="445512" />
	</node>
	<node lat="60.83207222562275" lon="10.306883339841052" id="-24756">
		<tag k="alt_name" v="Haugen" />
		<tag k="name" v="Landåshaugen" />
		<tag k="place" v="farm" />
		<tag k="ssr:stedsnr" v="494558" />
	</node>
	<node lat="60.83920000268741" lon="10.295683340731706" id="-24757">
		<tag k="alt_name" v="Nyset" />
		<tag k="name" v="Neset" />
		<tag k="place" v="farm" />
		<tag k="ssr:stedsnr" v="494581" />
	</node>
	<node lat="60.78426944433446" lon="10.30876944259459" id="-24758">
		<tag k="alt_name" v="Sløteslette" />
		<tag k="name" v="Slette" />
		<tag k="place" v="farm" />
		<tag k="ssr:stedsnr" v="494617" />
	</node>
	<node lat="60.795908332072464" lon="10.251158335736378" id="-24760">
		<tag k="name" v="Bekk" />
		<tag k="place" v="farm" />
		<tag k="ssr:stedsnr" v="494631" />
	</node>
	<node lat="60.795850001657186" lon="10.233225002202651" id="-24761">
		<tag k="alt_name" v="Sedalsengen" />
		<tag k="name" v="Sedalsenga" />
		<tag k="place" v="farm" />
		<tag k="ssr:stedsnr" v="494633" />
	</node>
	<node lat="60.78986111361787" lon="10.243633324396821" id="-24762">
		<tag k="alt_name" v="Sedal;Søndre Sedal" />
		<tag k="name" v="Søre Sedal" />
		<tag k="place" v="farm" />
		<tag k="ssr:stedsnr" v="494634" />
	</node>
	<node lat="60.80041024254892" lon="10.243863214079523" id="-24764">
		<tag k="alt_name" v="Østrydningen" />
		<tag k="fixme" v="consider place=hamlet" />
		<tag k="name" v="Østrønningen" />
		<tag k="place" v="farm" />
		<tag k="ssr:stedsnr" v="494651" />
	</node>
	<node lat="60.80172777411581" lon="10.211116666145932" id="-24765">
		<tag k="name" v="Ornes" />
		<tag k="place" v="isolated_dwelling" />
		<tag k="ssr:stedsnr" v="494652" />
	</node>
	<node lat="60.63428333335065" lon="10.52608610424193" id="-24767">
		<tag k="alt_name" v="Røste, nedre" />
		<tag k="name" v="Nedre Røste" />
		<tag k="place" v="farm" />
		<tag k="ssr:stedsnr" v="674222" />
	</node>
	<node lat="60.64225555189745" lon="10.44108611725111" id="-24768">
		<tag k="name" v="Landheim" />
		<tag k="place" v="farm" />
		<tag k="ssr:stedsnr" v="674226" />
	</node>
	<node lat="60.63484444236045" lon="10.464266663129731" id="-24769">
		<tag k="alt_name" v="Øvre Vasslien" />
		<tag k="name" v="Øvervasslia" />
		<tag k="place" v="farm" />
		<tag k="ssr:stedsnr" v="674228" />
	</node>
	<node lat="60.70218055223698" lon="10.432891667241792" id="-24772">
		<tag k="alt_name" v="Steinslien" />
		<tag k="name" v="Steinslia" />
		<tag k="place" v="farm" />
		<tag k="ssr:stedsnr" v="674325" />
	</node>
	<node lat="60.555116669811014" lon="10.159502775381815" id="-24776">
		<tag k="alt_name" v="Gråskallen" />
		<tag k="name" v="Gråskallhytta" />
		<tag k="place" v="isolated_dwelling" />
		<tag k="ssr:stedsnr" v="674522" />
	</node>
	<node lat="60.553727361538854" lon="10.328955556843562" id="-24777">
		<tag k="alt_name" v="Hollingdal" />
		<tag k="fixme" v="consider place=hamlet" />
		<tag k="name" v="Hollingdalen" />
		<tag k="place" v="farm" />
		<tag k="ssr:stedsnr" v="674497" />
	</node>
	<node lat="60.59451368728512" lon="10.301858507977338" id="-24781">
		<tag k="alt_name" v="Søndre Lomsdalen;Lomsdalen, s" />
		<tag k="fixme" v="consider place=hamlet" />
		<tag k="name" v="Søre Lomsdalen" />
		<tag k="place" v="farm" />
		<tag k="ssr:stedsnr" v="674586" />
	</node>
	<node lat="60.54601110998702" lon="10.340933337405538" id="-24785">
		<tag k="alt_name" v="Brennenga" />
		<tag k="name" v="Øvre Brennengen" />
		<tag k="place" v="farm" />
		<tag k="ssr:stedsnr" v="674546" />
	</node>
	<node lat="60.58439166239571" lon="10.345863890749797" id="-24789">
		<tag k="name" v="Larsstuen" />
		<tag k="place" v="isolated_dwelling" />
		<tag k="ssr:stedsnr" v="465421" />
	</node>
	<node lat="60.654577780069225" lon="10.330058325796049" id="-24790">
		<tag k="alt_name" v="Askvik, s;Søndre Askvik" />
		<tag k="name" v="Søre Askvik" />
		<tag k="place" v="farm" />
		<tag k="ssr:stedsnr" v="674644" />
	</node>
	<node lat="60.67145000175455" lon="10.309283327159582" id="-24791">
		<tag k="name" v="Amundsstugua" />
		<tag k="place" v="farm" />
		<tag k="ssr:stedsnr" v="674737" />
	</node>
	<node lat="60.667294441159186" lon="10.096411105429054" id="-24794">
		<tag k="name" v="Dumpidalshytta" />
		<tag k="place" v="isolated_dwelling" />
		<tag k="ssr:stedsnr" v="465993" />
	</node>
	<node lat="60.687092645546365" lon="10.301188625564123" id="-24796">
		<tag k="alt_name" v="Bjørlien" />
		<tag k="fixme" v="consider place=hamlet" />
		<tag k="name" v="Bjørlia" />
		<tag k="place" v="farm" />
		<tag k="ssr:stedsnr" v="674748" />
	</node>
	<node lat="60.73370555939368" lon="10.277619439425065" id="-24798">
		<tag k="alt_name" v="Sørengen" />
		<tag k="name" v="Sørenga" />
		<tag k="place" v="isolated_dwelling" />
		<tag k="ssr:stedsnr" v="674782" />
	</node>
	<node lat="60.72321944779946" lon="10.240569437740012" id="-24799">
		<tag k="name" v="Endrerud" />
		<tag k="place" v="farm" />
		<tag k="ssr:stedsnr" v="674792" />
	</node>
	<node lat="60.72321111560081" lon="10.322124996069821" id="-24800">
		<tag k="name" v="Kluke" />
		<tag k="place" v="farm" />
		<tag k="ssr:stedsnr" v="674794" />
	</node>
	<node lat="60.598827779504454" lon="10.2931666667182" id="-24801">
		<tag k="name" v="Sagmesterstua" />
		<tag k="place" v="locality" />
		<tag k="ssr:stedsnr" v="466583" />
	</node>
	<node lat="60.72805555694252" lon="10.337072229585903" id="-24803">
		<tag k="name" v="Solbakken" />
		<tag k="place" v="farm" />
		<tag k="ssr:stedsnr" v="466762" />
	</node>
	<node lat="60.723794442935066" lon="10.346927773864005" id="-24804">
		<tag k="name" v="Bjørnsveen" />
		<tag k="place" v="farm" />
		<tag k="ssr:stedsnr" v="466764" />
	</node>
	<node lat="60.736561115311574" lon="10.286563883065254" id="-24805">
		<tag k="name" v="Engesveen" />
		<tag k="place" v="isolated_dwelling" />
		<tag k="ssr:stedsnr" v="466802" />
	</node>
	<node lat="60.835111110284274" lon="10.261374991638794" id="-24808">
		<tag k="name" v="Solstad" />
		<tag k="place" v="farm" />
		<tag k="ssr:stedsnr" v="676612" />
	</node>
	<node lat="60.802546054378226" lon="10.155522831954285" id="-24809">
		<tag k="fixme" v="consider place=hamlet" />
		<tag k="name" v="Tingvoll" />
		<tag k="place" v="farm" />
		<tag k="ssr:stedsnr" v="676577" />
	</node>
	<node lat="60.79955579348462" lon="10.223683783955094" id="-24810">
		<tag k="alt_name" v="Kronborg" />
		<tag k="fixme" v="consider place=hamlet" />
		<tag k="name" v="Kronviken" />
		<tag k="place" v="farm" />
		<tag k="ssr:stedsnr" v="676668" />
	</node>
	<node lat="60.80182777888859" lon="10.219563890739574" id="-24811">
		<tag k="alt_name" v="Kvernstuen" />
		<tag k="name" v="Kvernstugua" />
		<tag k="place" v="isolated_dwelling" />
		<tag k="ssr:stedsnr" v="676673" />
	</node>
	<node lat="60.83211666396615" lon="10.295502777078518" id="-24812">
		<tag k="name" v="Lysen" />
		<tag k="place" v="farm" />
		<tag k="ssr:stedsnr" v="677603" />
	</node>
	<node lat="60.76444444104793" lon="10.212249995963852" id="-24813">
		<tag k="name" v="Slettbakken" />
		<tag k="place" v="farm" />
		<tag k="ssr:stedsnr" v="677747" />
	</node>
	<node lat="60.623030552208554" lon="10.368850001060023" id="-24815">
		<tag k="name" v="Nerenga" />
		<tag k="place" v="isolated_dwelling" />
		<tag k="ssr:stedsnr" v="480171" />
	</node>
	<node lat="60.676158336465626" lon="10.377980556641289" id="-24816">
		<tag k="leisure" v="pitch" />
		<tag k="name" v="Holmen idrettsplass" />
		<tag k="ssr:stedsnr" v="480318" />
	</node>
	<node lat="60.56332222007294" lon="10.333930555507449" id="-24819">
		<tag k="building" v="commercial" />
		<tag k="name" v="Grime Samvirkelag" />
		<tag k="ssr:stedsnr" v="480402" />
	</node>
	<node lat="60.545758330813136" lon="10.337930554455756" id="-24820">
		<tag k="name" v="Nedre Brennengen" />
		<tag k="place" v="isolated_dwelling" />
		<tag k="ssr:stedsnr" v="480403" />
	</node>
	<node lat="60.699858334920386" lon="10.350063895656039" id="-24822">
		<tag k="name" v="Nordre Hov" />
		<tag k="place" v="locality" />
		<tag k="ssr:stedsnr" v="480676" />
	</node>
	<node lat="60.74899999755684" lon="10.259438880881131" id="-24826">
		<tag k="name" v="Sten" />
		<tag k="place" v="locality" />
		<tag k="ssr:stedsnr" v="480858" />
	</node>
	<node lat="60.56495856741155" lon="10.3333355038355" id="-24828">
		<tag k="alt_name" v="Søndre Grime" />
		<tag k="name" v="Søre Grime" />
		<tag k="place" v="farm" />
		<tag k="ssr:stedsnr" v="485470" />
	</node>
	<node lat="60.720497220570955" lon="10.362080548514983" id="-24835">
		<tag k="name" v="Smeberg" />
		<tag k="place" v="farm" />
		<tag k="ssr:stedsnr" v="492403" />
	</node>
	<node lat="60.70444937650157" lon="10.357942269397274" id="-24837">
		<tag k="fixme" v="consider place=hamlet" />
		<tag k="name" v="Midtberg" />
		<tag k="place" v="farm" />
		<tag k="ssr:stedsnr" v="492377" />
	</node>
	<node lat="60.6657500002266" lon="10.320461105357783" id="-24839">
		<tag k="alt_name" v="Gudmundsstugua" />
		<tag k="name" v="Nordre Gudmundstuen" />
		<tag k="place" v="farm" />
		<tag k="ssr:stedsnr" v="492614" />
	</node>
	<node lat="60.60783610793988" lon="10.293005556488112" id="-24840">
		<tag k="name" v="Pedersborg" />
		<tag k="place" v="isolated_dwelling" />
		<tag k="ssr:stedsnr" v="492627" />
	</node>
	<node lat="60.58031666839572" lon="10.338961102147584" id="-24842">
		<tag k="alt_name" v="Enger, øvre" />
		<tag k="name" v="Øvre Enger" />
		<tag k="place" v="farm" />
		<tag k="ssr:stedsnr" v="492571" />
	</node>
	<node lat="60.66411388745944" lon="10.214513891152828" id="-24844">
		<tag k="name" v="Bragernes" />
		<tag k="place" v="isolated_dwelling" />
		<tag k="ssr:stedsnr" v="492707" />
	</node>
	<node lat="60.67505000384497" lon="10.137730553050767" id="-24845">
		<tag k="historic" v="shieling" />
		<tag k="name" v="Bjørlisætra" />
		<tag k="place" v="isolated_dwelling" />
		<tag k="ssr:stedsnr" v="492720" />
	</node>
	<node lat="60.72101111340143" lon="10.295788893998653" id="-24847">
		<tag k="name" v="Bjørnstad" />
		<tag k="place" v="farm" />
		<tag k="ssr:stedsnr" v="492788" />
	</node>
	<node lat="60.76881944666453" lon="10.353463885243624" id="-24848">
		<tag k="name" v="Vollheim" />
		<tag k="place" v="farm" />
		<tag k="ssr:stedsnr" v="494086" />
	</node>
	<node lat="60.8093861102001" lon="10.216947214572585" id="-24849">
		<tag k="name" v="Fagerlund" />
		<tag k="place" v="farm" />
		<tag k="ssr:stedsnr" v="495560" />
	</node>
	<node lat="60.61921388571948" lon="10.368488894966188" id="-24859">
		<tag k="name" v="Fjordheim" />
		<tag k="place" v="isolated_dwelling" />
		<tag k="ssr:stedsnr" v="541215" />
	</node>
	<node lat="60.55359444347528" lon="10.334902777285834" id="-24861">
		<tag k="name" v="Ringen" />
		<tag k="place" v="isolated_dwelling" />
		<tag k="ssr:stedsnr" v="541426" />
	</node>
	<node lat="60.7568305514941" lon="10.247713892027253" id="-24862">
		<tag k="name" v="Granvoll" />
		<tag k="place" v="isolated_dwelling" />
		<tag k="ssr:stedsnr" v="541364" />
	</node>
	<node lat="60.755944444563255" lon="10.246186107834797" id="-24863">
		<tag k="name" v="Lund" />
		<tag k="place" v="isolated_dwelling" />
		<tag k="ssr:stedsnr" v="541365" />
	</node>
	<node lat="60.75616944864761" lon="10.224099992545023" id="-24864">
		<tag k="alt_name" v="Minnitun;Minitun" />
		<tag k="name" v="Minnietun" />
		<tag k="place" v="isolated_dwelling" />
		<tag k="ssr:stedsnr" v="541366" />
	</node>
	<node lat="60.68274444523641" lon="10.367022223670121" id="-24865">
		<tag k="name" v="Falland" />
		<tag k="place" v="farm" />
		<tag k="ssr:stedsnr" v="541374" />
	</node>
	<node lat="60.68417221844197" lon="10.367591664353572" id="-24866">
		<tag k="name" v="Sole" />
		<tag k="place" v="isolated_dwelling" />
		<tag k="ssr:stedsnr" v="541377" />
	</node>
	<node lat="60.696741664015576" lon="10.297830549564583" id="-24870">
		<tag k="name" v="Bekkelund" />
		<tag k="place" v="farm" />
		<tag k="ssr:stedsnr" v="541667" />
	</node>
	<node lat="60.59930833330864" lon="10.345727769086228" id="-24872">
		<tag k="name" v="Øygarden" />
		<tag k="place" v="locality" />
		<tag k="ssr:stedsnr" v="541574" />
	</node>
	<node lat="60.69246944414765" lon="10.295341671655105" id="-24875">
		<tag k="name" v="Vestli" />
		<tag k="place" v="isolated_dwelling" />
		<tag k="ssr:stedsnr" v="541708" />
	</node>
	<node lat="60.61388333095924" lon="10.332775007476057" id="-24877">
		<tag k="alt_name" v="Søndre Hågån" />
		<tag k="name" v="Søre Hågån" />
		<tag k="place" v="farm" />
		<tag k="ssr:stedsnr" v="545981" />
	</node>
	<node lat="60.60900555293235" lon="10.450783329509841" id="-24880">
		<tag k="name" v="Risbrennhytta" />
		<tag k="old_name" v="Storstigkoia" />
		<tag k="place" v="isolated_dwelling" />
		<tag k="ssr:stedsnr" v="552228" />
	</node>
	<node lat="60.7423361152682" lon="10.132408331613233" id="-24882">
		<tag k="name" v="Kikut" />
		<tag k="place" v="isolated_dwelling" />
		<tag k="ssr:stedsnr" v="552790" />
	</node>
	<node lat="60.68754918402176" lon="10.354356694861623" id="-24883">
		<tag k="fixme" v="consider place=hamlet" />
		<tag k="name" v="Kvalby" />
		<tag k="place" v="farm" />
		<tag k="ssr:stedsnr" v="553303" />
	</node>
	<node lat="60.68131404566905" lon="10.359681629508808" id="-24884">
		<tag k="fixme" v="consider place=hamlet" />
		<tag k="name" v="Fall" />
		<tag k="place" v="farm" />
		<tag k="ssr:stedsnr" v="553306" />
	</node>
	<node lat="60.554641666673376" lon="10.292694437069496" id="-24885">
		<tag k="alt_name" v="Bergestuen" />
		<tag k="name" v="Bergestugua" />
		<tag k="place" v="farm" />
		<tag k="ssr:stedsnr" v="553503" />
	</node>
	<node lat="60.69140555952758" lon="10.305405546720333" id="-24888">
		<tag k="name" v="Nyborg" />
		<tag k="place" v="isolated_dwelling" />
		<tag k="ssr:stedsnr" v="553705" />
	</node>
	<node lat="60.565255555142286" lon="10.231872220362902" id="-24891">
		<tag k="alt_name" v="Nøkkeldalshytta" />
		<tag k="name" v="Nøkledalshytta" />
		<tag k="place" v="isolated_dwelling" />
		<tag k="ssr:stedsnr" v="553605" />
	</node>
	<node lat="60.64240000399951" lon="10.331802781099753" id="-24892">
		<tag k="name" v="Ringelia" />
		<tag k="place" v="hamlet" />
		<tag k="ssr:stedsnr" v="553633" />
	</node>
	<node lat="60.628674998709926" lon="10.247352768929977" id="-24893">
		<tag k="name" v="Tørrvasshytta" />
		<tag k="place" v="isolated_dwelling" />
		<tag k="ssr:stedsnr" v="553695" />
	</node>
	<node lat="60.80527222556745" lon="10.142466673769635" id="-24898">
		<tag k="name" v="Lovisenlund" />
		<tag k="place" v="farm" />
		<tag k="ssr:stedsnr" v="555523" />
	</node>
	<node lat="60.80373888674435" lon="10.156819444347658" id="-24899">
		<tag k="name" v="Solbakken" />
		<tag k="place" v="farm" />
		<tag k="ssr:stedsnr" v="555526" />
	</node>
	<node lat="60.78522858407791" lon="10.276197468545437" id="-24900">
		<tag k="fixme" v="consider place=hamlet" />
		<tag k="name" v="Råum" />
		<tag k="place" v="farm" />
		<tag k="ssr:stedsnr" v="555620" />
	</node>
	<node lat="60.7801638859816" lon="10.164786105578859" id="-24901">
		<tag k="name" v="Storsvea" />
		<tag k="place" v="locality" />
		<tag k="ssr:stedsnr" v="555621" />
	</node>
	<node lat="60.78296944375094" lon="10.184538884233318" id="-24902">
		<tag k="name" v="Hanserud" />
		<tag k="place" v="farm" />
		<tag k="ssr:stedsnr" v="555624" />
	</node>
	<node lat="60.756611109864444" lon="10.320313892728311" id="-24903">
		<tag k="name" v="Langset" />
		<tag k="place" v="farm" />
		<tag k="ssr:stedsnr" v="555703" />
	</node>
	<node lat="60.75984166933294" lon="10.21674166431168" id="-24904">
		<tag k="name" v="Hagenborg" />
		<tag k="place" v="farm" />
		<tag k="ssr:stedsnr" v="555699" />
	</node>
	<node lat="60.75635555633512" lon="10.202102769107903" id="-24905">
		<tag k="name" v="Nyssbegynt" />
		<tag k="place" v="locality" />
		<tag k="ssr:stedsnr" v="555701" />
	</node>
	<node lat="60.71911388469483" lon="10.342036113240367" id="-24907">
		<tag k="name" v="Grandgard" />
		<tag k="place" v="farm" />
		<tag k="ssr:stedsnr" v="567703" />
	</node>
	<node lat="60.66161389237484" lon="10.183536117586737" id="-24909">
		<tag k="name" v="Brakarhytta" />
		<tag k="place" v="isolated_dwelling" />
		<tag k="ssr:stedsnr" v="586052" />
	</node>
	<node lat="60.668752780271795" lon="10.054566661742331" id="-24911">
		<tag k="name" v="Krokvasshytta" />
		<tag k="place" v="isolated_dwelling" />
		<tag k="ssr:stedsnr" v="586998" />
	</node>
	<node lat="60.70367777572822" lon="10.270399992460817" id="-24915">
		<tag k="name" v="Solvang" />
		<tag k="place" v="farm" />
		<tag k="ssr:stedsnr" v="587668" />
	</node>
	<node lat="60.728177778577454" lon="10.329852773414649" id="-24917">
		<tag k="name" v="Stensby" />
		<tag k="place" v="farm" />
		<tag k="ssr:stedsnr" v="587757" />
	</node>
	<node lat="60.83493611470039" lon="10.298352786146275" id="-24921">
		<tag k="name" v="Nordre Kjerringsveen" />
		<tag k="place" v="farm" />
		<tag k="ssr:stedsnr" v="601153" />
	</node>
	<node lat="60.834316670528644" lon="10.2927333386076" id="-24922">
		<tag k="name" v="Snekkerhaugen" />
		<tag k="place" v="farm" />
		<tag k="ssr:stedsnr" v="601155" />
	</node>
	<node lat="60.66794721975001" lon="10.439766669083497" id="-24925">
		<tag k="name" v="Honerud" />
		<tag k="place" v="locality" />
		<tag k="ssr:stedsnr" v="601254" />
	</node>
	<node lat="60.7078944419699" lon="10.370994440620898" id="-24928">
		<tag k="name" v="Granly" />
		<tag k="place" v="isolated_dwelling" />
		<tag k="ssr:stedsnr" v="601350" />
	</node>
	<node lat="60.617838884824074" lon="10.338186115179157" id="-24930">
		<tag k="name" v="Nedre Trøsvika" />
		<tag k="place" v="farm" />
		<tag k="ssr:stedsnr" v="601517" />
	</node>
	<node lat="60.60265833394728" lon="10.122727780457236" id="-24932">
		<tag k="name" v="Meita" />
		<tag k="place" v="isolated_dwelling" />
		<tag k="ssr:stedsnr" v="601797" />
	</node>
	<node lat="60.63551388993052" lon="10.372566666397338" id="-24934">
		<tag k="name" v="Lundli" />
		<tag k="place" v="isolated_dwelling" />
		<tag k="ssr:stedsnr" v="602298" />
	</node>
	<node lat="60.56122222354896" lon="10.425000008376548" id="-24935">
		<tag k="name" v="Piggerud" />
		<tag k="place" v="isolated_dwelling" />
		<tag k="ssr:stedsnr" v="699175" />
	</node>
	<node lat="60.58843889323982" lon="10.481441659843895" id="-24939">
		<tag k="name" v="Hognerhytta" />
		<tag k="place" v="isolated_dwelling" />
		<tag k="ssr:stedsnr" v="613170" />
	</node>
	<node lat="60.66070332266619" lon="10.47177557072628" id="-24940">
		<tag k="alt_name" v="Sollien" />
		<tag k="fixme" v="consider place=hamlet" />
		<tag k="name" v="Sollia" />
		<tag k="place" v="farm" />
		<tag k="ssr:stedsnr" v="613305" />
	</node>
	<node lat="60.6458805520901" lon="10.369402775910595" id="-24942">
		<tag k="name" v="Moen" />
		<tag k="place" v="farm" />
		<tag k="ssr:stedsnr" v="613272" />
	</node>
	<node lat="60.726450000996884" lon="10.361066658956185" id="-24943">
		<tag k="name" v="Diket" />
		<tag k="place" v="farm" />
		<tag k="ssr:stedsnr" v="613424" />
	</node>
	<node lat="60.57019166514174" lon="10.107952775293226" id="-24946">
		<tag k="name" v="Bjørlihytta" />
		<tag k="place" v="isolated_dwelling" />
		<tag k="ssr:stedsnr" v="613587" />
	</node>
	<node lat="60.56909166475733" lon="10.334116670875648" id="-24947">
		<tag k="amenity" v="nursing_home" />
		<tag k="name" v="Grimebakken" />
		<tag k="ssr:stedsnr" v="613593" />
	</node>
	<node lat="60.72246803964707" lon="10.288848639063978" id="-24951">
		<tag k="fixme" v="consider place=hamlet" />
		<tag k="name" v="Bjørnerud" />
		<tag k="place" v="farm" />
		<tag k="ssr:stedsnr" v="613791" />
	</node>
	<node lat="60.72313055686245" lon="10.299205549170214" id="-24952">
		<tag k="alt_name" v="Gabrielsstuen" />
		<tag k="name" v="Gabrielsstugua" />
		<tag k="place" v="farm" />
		<tag k="ssr:stedsnr" v="613792" />
	</node>
	<node lat="60.82734722112683" lon="10.347883337013466" id="-24955">
		<tag k="alt_name" v="Sørberg" />
		<tag k="name" v="Søberg" />
		<tag k="place" v="farm" />
		<tag k="ssr:stedsnr" v="615998" />
	</node>
	<node lat="60.80561111392554" lon="10.222336109754458" id="-24956">
		<tag k="name" v="Brua" />
		<tag k="place" v="hamlet" />
		<tag k="ssr:stedsnr" v="616551" />
	</node>
	<node lat="60.77558888451048" lon="10.25279721651765" id="-24957">
		<tag k="alt_name" v="Øvre Torgrimstuen" />
		<tag k="name" v="Torgrimsstugua" />
		<tag k="place" v="farm" />
		<tag k="ssr:stedsnr" v="616641" />
	</node>
	<node lat="60.762427086412394" lon="10.300158851177265" id="-24959">
		<tag k="alt_name" v="Kløvstad" />
		<tag k="fixme" v="consider place=hamlet" />
		<tag k="name" v="Klauvstad" />
		<tag k="place" v="farm" />
		<tag k="ssr:stedsnr" v="616737" />
	</node>
	<node lat="60.53810688117569" lon="10.319972244935803" id="-24961">
		<tag k="alt_name" v="Sørby;Sørli" />
		<tag k="name" v="Vesteng" />
		<tag k="place" v="farm" />
		<tag k="ssr:stedsnr" v="637731" />
	</node>
	<node lat="60.61900833680115" lon="10.525155549821449" id="-24964">
		<tag k="name" v="Rudsenghytta" />
		<tag k="place" v="isolated_dwelling" />
		<tag k="ssr:stedsnr" v="647333" />
	</node>
	<node lat="60.77549444695353" lon="10.376163895748121" id="-24966">
		<tag k="name" v="Lilljordethytta" />
		<tag k="place" v="isolated_dwelling" />
		<tag k="ssr:stedsnr" v="647493" />
	</node>
	<node lat="60.742225001272764" lon="10.29488334155312" id="-24968">
		<tag k="alt_name" v="Søndre Valdreslappen" />
		<tag k="name" v="Søre Valdreslappen" />
		<tag k="place" v="farm" />
		<tag k="ssr:stedsnr" v="647798" />
	</node>
	<node lat="60.64735000434189" lon="10.1235972149627" id="-24969">
		<tag k="name" v="Lomdalshytta" />
		<tag k="place" v="isolated_dwelling" />
		<tag k="ssr:stedsnr" v="647802" />
	</node>
	<node lat="60.8052083370452" lon="10.251736115044034" id="-24975">
		<tag k="name" v="Steinsveen" />
		<tag k="place" v="isolated_dwelling" />
		<tag k="ssr:stedsnr" v="708054" />
	</node>
	<node lat="60.676861109428344" lon="10.201083333440575" id="-24976">
		<tag k="name" v="Vegaskelhytta" />
		<tag k="place" v="isolated_dwelling" />
		<tag k="ssr:stedsnr" v="708135" />
	</node>
	<node lat="60.76798889267134" lon="10.367344450612235" id="-24980">
		<tag k="name" v="Glarudalen" />
		<tag k="place" v="isolated_dwelling" />
		<tag k="ssr:stedsnr" v="708394" />
	</node>
	<node lat="60.729619444283166" lon="10.343761117873036" id="-24986">
		<tag k="name" v="Jørndalen" />
		<tag k="place" v="farm" />
		<tag k="ssr:stedsnr" v="708745" />
	</node>
	<node lat="60.706263885545084" lon="10.270730550314182" id="-24988">
		<tag k="name" v="Kompelienga" />
		<tag k="place" v="farm" />
		<tag k="ssr:stedsnr" v="708756" />
	</node>
	<node lat="60.64847777895616" lon="10.053030556178957" id="-24989">
		<tag k="name" v="Øyvasshytta" />
		<tag k="place" v="isolated_dwelling" />
		<tag k="ssr:stedsnr" v="708766" />
	</node>
	<node lat="60.59683055255976" lon="10.428105555884542" id="-24998">
		<tag k="name" v="Villaen" />
		<tag k="place" v="isolated_dwelling" />
		<tag k="ssr:stedsnr" v="662213" />
	</node>
	<node lat="60.80281666715348" lon="10.183388882182209" id="-25001">
		<tag k="name" v="Grannes" />
		<tag k="place" v="isolated_dwelling" />
		<tag k="ssr:stedsnr" v="662344" />
	</node>
	<node lat="60.54086667044041" lon="10.287591667337354" id="-25002">
		<tag k="name" v="Tåje" />
		<tag k="place" v="farm" />
		<tag k="ssr:stedsnr" v="662482" />
	</node>
	<node lat="60.53891920314472" lon="10.294553368239347" id="-25003">
		<tag k="fixme" v="consider place=hamlet" />
		<tag k="name" v="Struksnes" />
		<tag k="place" v="farm" />
		<tag k="ssr:stedsnr" v="662484" />
	</node>
	<node lat="60.619911111928886" lon="10.124980558096615" id="-25006">
		<tag k="historic" v="shieling" />
		<tag k="name" v="Finnerudsætra" />
		<tag k="place" v="isolated_dwelling" />
		<tag k="ssr:stedsnr" v="662804" />
	</node>
	<node lat="60.77190555423957" lon="10.286780554885244" id="-25007">
		<tag k="leisure" v="pitch" />
		<tag k="name" v="Bergegarda idrettsplass" />
		<tag k="ssr:stedsnr" v="662832" />
	</node>
	<node lat="60.80807222122847" lon="10.267052781784065" id="-25011">
		<tag k="alt_name" v="Søndre Vestrum" />
		<tag k="name" v="Søre Vestrum" />
		<tag k="place" v="farm" />
		<tag k="ssr:stedsnr" v="891044" />
	</node>
	<node lat="60.687441669153756" lon="10.38212499674929" id="-25015">
		<tag k="name" v="Svea" />
		<tag k="place" v="farm" />
		<tag k="ssr:stedsnr" v="674301" />
	</node>
	<node lat="60.71918888651407" lon="10.356213883325186" id="-25016">
		<tag k="alt_name" v="Rudsengen" />
		<tag k="name" v="Rudsenga" />
		<tag k="place" v="farm" />
		<tag k="ssr:stedsnr" v="674410" />
	</node>
	<node lat="60.6965323383503" lon="10.356263022039865" id="-25019">
		<tag k="fixme" v="consider place=hamlet" />
		<tag k="name" v="Grette" />
		<tag k="place" v="farm" />
		<tag k="ssr:stedsnr" v="674357" />
	</node>
	<node lat="60.54526111377164" lon="10.324324995715081" id="-25021">
		<tag k="alt_name" v="Sveen" />
		<tag k="name" v="Svea" />
		<tag k="place" v="farm" />
		<tag k="ssr:stedsnr" v="674511" />
	</node>
	<node lat="60.5515555551274" lon="10.327963892492233" id="-25022">
		<tag k="name" v="Støa" />
		<tag k="place" v="farm" />
		<tag k="ssr:stedsnr" v="674513" />
	</node>
	<node lat="60.61360155092684" lon="10.331631472569102" id="-25026">
		<tag k="name" v="Hågån" />
		<tag k="place" v="locality" />
		<tag k="ssr:stedsnr" v="674663" />
	</node>
	<node lat="60.69781944212675" lon="10.295216672264441" id="-25030">
		<tag k="alt_name" v="Evenstuen" />
		<tag k="name" v="Evenstugua" />
		<tag k="place" v="farm" />
		<tag k="ssr:stedsnr" v="674714" />
	</node>
	<node lat="60.70747382193016" lon="10.033183658875242" id="-25031">
		<tag k="name" v="Myrvang" />
		<tag k="place" v="locality" />
		<tag k="ssr:stedsnr" v="674725" />
	</node>
	<node lat="60.746169442377735" lon="10.2906499939331" id="-25033">
		<tag k="name" v="Skogsbakken" />
		<tag k="place" v="farm" />
		<tag k="ssr:stedsnr" v="674762" />
	</node>
	<node lat="60.73951944417563" lon="10.296183325278925" id="-25034">
		<tag k="name" v="Vestvang" />
		<tag k="place" v="farm" />
		<tag k="ssr:stedsnr" v="674770" />
	</node>
	<node lat="60.69385278202549" lon="10.222502782859705" id="-25035">
		<tag k="name" v="Kompelihytta" />
		<tag k="place" v="isolated_dwelling" />
		<tag k="ssr:stedsnr" v="891234" />
	</node>
	<node lat="60.698933331125026" lon="10.281316670412544" id="-25037">
		<tag k="fixme" v="consider place=hamlet" />
		<tag k="name" v="Ligarda" />
		<tag k="place" v="village" />
		<tag k="ssr:stedsnr" v="675714" />
	</node>
	<node lat="60.80151666948" lon="10.245802772266279" id="-25038">
		<tag k="name" v="Lunden" />
		<tag k="place" v="isolated_dwelling" />
		<tag k="ssr:stedsnr" v="891402" />
	</node>
	<node lat="60.84170278031435" lon="10.249472221373297" id="-25039">
		<tag k="name" v="Damli" />
		<tag k="place" v="farm" />
		<tag k="ssr:stedsnr" v="676515" />
	</node>
	<node lat="60.73377222307901" lon="10.330425000493404" id="-25046">
		<tag k="name" v="Jørgenstuen" />
		<tag k="place" v="farm" />
		<tag k="ssr:stedsnr" v="891741" />
	</node>
	<node lat="60.750063889778346" lon="10.32529444111089" id="-25047">
		<tag k="name" v="Sørengen" />
		<tag k="place" v="farm" />
		<tag k="ssr:stedsnr" v="891750" />
	</node>
	<node lat="60.72258333739477" lon="10.331130556031487" id="-25052">
		<tag k="name" v="Lund" />
		<tag k="place" v="isolated_dwelling" />
		<tag k="ssr:stedsnr" v="689677" />
	</node>
	<node lat="60.80589999804628" lon="10.267083328573273" id="-25058">
		<tag k="alt_name" v="Anderstuen" />
		<tag k="name" v="Andersstuen" />
		<tag k="place" v="locality" />
		<tag k="ssr:stedsnr" v="708057" />
	</node>
	<node lat="60.72992778076177" lon="10.31161389138624" id="-25060">
		<tag k="alt_name" v="Søndre Narum" />
		<tag k="name" v="Søre Narum" />
		<tag k="place" v="farm" />
		<tag k="ssr:stedsnr" v="708719" />
	</node>
	<node lat="60.77744444660239" lon="10.337561109837498" id="-25061">
		<tag k="name" v="Øverengen" />
		<tag k="place" v="locality" />
		<tag k="ssr:stedsnr" v="708922" />
	</node>
	<node lat="60.84131944850011" lon="10.316822219663782" id="-25063">
		<tag k="name" v="Iverslette" />
		<tag k="place" v="isolated_dwelling" />
		<tag k="ssr:stedsnr" v="723083" />
	</node>
	<node lat="60.70056110863169" lon="10.189294440761003" id="-25065">
		<tag k="name" v="Flatlihytta" />
		<tag k="place" v="isolated_dwelling" />
		<tag k="ssr:stedsnr" v="723117" />
	</node>
	<node lat="60.748411110854434" lon="10.197172219918988" id="-25067">
		<tag k="name" v="Vammen sæter" />
		<tag k="place" v="farm" />
		<tag k="ssr:stedsnr" v="723346" />
	</node>
	<node lat="60.698427776834215" lon="10.342113880497187" id="-25068">
		<tag k="name" v="Blidensol" />
		<tag k="place" v="farm" />
		<tag k="ssr:stedsnr" v="723611" />
	</node>
	<node lat="60.7109777748964" lon="10.33780833188244" id="-25069">
		<tag k="name" v="Minde" />
		<tag k="place" v="farm" />
		<tag k="ssr:stedsnr" v="723627" />
	</node>
	<node lat="60.7517972206616" lon="10.263433334291944" id="-25070">
		<tag k="alt_name" v="Søndre Skjellerudsveen" />
		<tag k="name" v="Søre Skjellerudsveen" />
		<tag k="place" v="farm" />
		<tag k="ssr:stedsnr" v="723823" />
	</node>
	<node lat="60.73560833370975" lon="10.30228333953556" id="-25073">
		<tag k="alt_name" v="Søndre Grindvoll" />
		<tag k="name" v="Søre Grindvoll" />
		<tag k="place" v="farm" />
		<tag k="ssr:stedsnr" v="728510" />
	</node>
	<node lat="60.61275743470045" lon="10.363250383291364" id="-25076">
		<tag k="alt_name" v="Øksne" />
		<tag k="fixme" v="consider place=hamlet" />
		<tag k="name" v="Midtre Øksne" />
		<tag k="place" v="farm" />
		<tag k="ssr:stedsnr" v="735208" />
	</node>
	<node lat="60.66149167037916" lon="10.45995554799846" id="-25077">
		<tag k="name" v="Bekk" />
		<tag k="place" v="farm" />
		<tag k="ssr:stedsnr" v="735296" />
	</node>
	<node lat="60.675702781351966" lon="10.367544444651191" id="-25078">
		<tag k="alt_name" v="Perstugua" />
		<tag k="name" v="Perstuen" />
		<tag k="place" v="farm" />
		<tag k="ssr:stedsnr" v="735342" />
	</node>
	<node lat="60.56240833517216" lon="10.337877781360563" id="-25080">
		<tag k="name" v="Gauksrud" />
		<tag k="place" v="isolated_dwelling" />
		<tag k="ssr:stedsnr" v="735484" />
	</node>
	<node lat="60.682486106788126" lon="10.12961943875975" id="-25083">
		<tag k="alt_name" v="Klokkersætra" />
		<tag k="historic" v="shieling" />
		<tag k="name" v="Klukkersætra" />
		<tag k="place" v="isolated_dwelling" />
		<tag k="ssr:stedsnr" v="735679" />
	</node>
	<node lat="60.57621388566615" lon="10.179675001296166" id="-25084">
		<tag k="historic" v="shieling" />
		<tag k="name" v="Søfferudsætra" />
		<tag k="place" v="isolated_dwelling" />
		<tag k="ssr:stedsnr" v="735601" />
	</node>
	<node lat="60.728450003080766" lon="10.229569437241619" id="-25085">
		<tag k="alt_name" v="Torpesveen" />
		<tag k="name" v="Svea" />
		<tag k="place" v="farm" />
		<tag k="ssr:stedsnr" v="735777" />
	</node>
	<node lat="60.731402775043364" lon="10.27369443957611" id="-25086">
		<tag k="alt_name" v="Kverum" />
		<tag k="name" v="Kverom" />
		<tag k="place" v="farm" />
		<tag k="ssr:stedsnr" v="735778" />
	</node>
	<node lat="60.71051111490685" lon="10.013866666101553" id="-25088">
		<tag k="name" v="Buheim" />
		<tag k="place" v="isolated_dwelling" />
		<tag k="ssr:stedsnr" v="735795" />
	</node>
	<node lat="60.75633055713751" lon="10.374774991714332" id="-25090">
		<tag k="alt_name" v="Sjesetra" />
		<tag k="historic" v="shieling" />
		<tag k="name" v="Skjesætra" />
		<tag k="place" v="isolated_dwelling" />
		<tag k="ssr:stedsnr" v="737062" />
	</node>
	<node lat="60.809466669146744" lon="10.220755556458592" id="-25091">
		<tag k="alt_name" v="Sagsveen" />
		<tag k="name" v="Sagsvea" />
		<tag k="place" v="farm" />
		<tag k="ssr:stedsnr" v="737558" />
	</node>
	<node lat="60.80802777942942" lon="10.272547218012946" id="-25092">
		<tag k="name" v="Steinberg" />
		<tag k="place" v="farm" />
		<tag k="ssr:stedsnr" v="737561" />
	</node>
	<node lat="60.822575000988174" lon="10.28643888200433" id="-25093">
		<tag k="name" v="Haugstad" />
		<tag k="place" v="farm" />
		<tag k="ssr:stedsnr" v="737578" />
	</node>
	<node lat="60.83529444300721" lon="10.309950006715438" id="-25094">
		<tag k="alt_name" v="Amundstuen" />
		<tag k="name" v="Amundsstugua" />
		<tag k="place" v="isolated_dwelling" />
		<tag k="ssr:stedsnr" v="737609" />
	</node>
	<node lat="60.82419166883367" lon="10.281252772050124" id="-25095">
		<tag k="name" v="Øvre Haugstadsveen" />
		<tag k="place" v="farm" />
		<tag k="ssr:stedsnr" v="905131" />
	</node>
	<node lat="60.83443611020435" lon="10.302422229174486" id="-25097">
		<tag k="name" v="Midtre Kjerringsveen" />
		<tag k="place" v="isolated_dwelling" />
		<tag k="ssr:stedsnr" v="905170" />
	</node>
	<node lat="60.832488892763315" lon="10.287683339449487" id="-25098">
		<tag k="name" v="Lille Brenden" />
		<tag k="place" v="farm" />
		<tag k="ssr:stedsnr" v="905173" />
	</node>
	<node lat="60.80264358601988" lon="10.155971497447233" id="-25102">
		<tag k="alt_name" v="Søndre Tingvoll" />
		<tag k="name" v="Søre Tingvoll" />
		<tag k="place" v="farm" />
		<tag k="ssr:stedsnr" v="905343" />
	</node>
	<node lat="60.715822224662" lon="10.390049992162226" id="-25104">
		<tag k="name" v="Vollheim" />
		<tag k="place" v="locality" />
		<tag k="ssr:stedsnr" v="905368" />
	</node>
	<node lat="60.58760000204148" lon="10.343819450390447" id="-25105">
		<tag k="name" v="Heimdal" />
		<tag k="place" v="isolated_dwelling" />
		<tag k="ssr:stedsnr" v="905566" />
	</node>
	<node lat="60.595394440368494" lon="10.194311107116988" id="-25109">
		<tag k="alt_name" v="Sætertjennshytta" />
		<tag k="name" v="Sætertjernshytta" />
		<tag k="place" v="isolated_dwelling" />
		<tag k="ssr:stedsnr" v="905890" />
	</node>
	<node lat="60.554344440444844" lon="10.412122213284645" id="-25110">
		<tag k="name" v="Hammerhagen" />
		<tag k="place" v="isolated_dwelling" />
		<tag k="ssr:stedsnr" v="760207" />
	</node>
	<node lat="60.633680559939954" lon="10.370761103047032" id="-25111">
		<tag k="name" v="Lundgård" />
		<tag k="place" v="farm" />
		<tag k="ssr:stedsnr" v="906294" />
	</node>
	<node lat="60.67654722057247" lon="10.365061110637392" id="-25112">
		<tag k="name" v="Bergerud" />
		<tag k="place" v="farm" />
		<tag k="ssr:stedsnr" v="906692" />
	</node>
	<node lat="60.62733611469287" lon="10.5240444433821" id="-25114">
		<tag k="name" v="Tjuvsveen" />
		<tag k="place" v="locality" />
		<tag k="ssr:stedsnr" v="769314" />
	</node>
	<node lat="60.64282777453411" lon="10.333411106502528" id="-25116">
		<tag k="leisure" v="pitch" />
		<tag k="name" v="Ringelia idrettsplass" />
		<tag k="ssr:stedsnr" v="769535" />
	</node>
	<node lat="60.7331749979481" lon="10.360544443884914" id="-25117">
		<tag k="name" v="Gønnersveen" />
		<tag k="place" v="farm" />
		<tag k="ssr:stedsnr" v="769726" />
	</node>
	<node lat="60.637263890187036" lon="10.086705546503728" id="-25118">
		<tag k="name" v="Selbu" />
		<tag k="place" v="isolated_dwelling" />
		<tag k="ssr:stedsnr" v="769767" />
	</node>
	<node lat="60.772375000147555" lon="10.31910833923405" id="-25119">
		<tag k="name" v="Fagerheim" />
		<tag k="place" v="farm" />
		<tag k="ssr:stedsnr" v="769918" />
	</node>
	<node lat="60.77312500079598" lon="10.312436116791824" id="-25120">
		<tag k="name" v="Haug" />
		<tag k="place" v="farm" />
		<tag k="ssr:stedsnr" v="769923" />
	</node>
	<node lat="60.774702779163306" lon="10.308233334059784" id="-25121">
		<tag k="name" v="Engen" />
		<tag k="place" v="farm" />
		<tag k="ssr:stedsnr" v="769925" />
	</node>
	<node lat="60.664850002071965" lon="10.367458328914068" id="-25124">
		<tag k="name" v="Skånkesveen" />
		<tag k="place" v="farm" />
		<tag k="ssr:stedsnr" v="784315" />
	</node>
	<node lat="60.669352777975504" lon="10.367188892984986" id="-25125">
		<tag k="name" v="Granumsgjerdet" />
		<tag k="place" v="farm" />
		<tag k="ssr:stedsnr" v="784316" />
	</node>
	<node lat="60.626902774454656" lon="10.384261118332867" id="-25127">
		<tag k="name" v="Nybakke" />
		<tag k="place" v="isolated_dwelling" />
		<tag k="ssr:stedsnr" v="784221" />
	</node>
	<node lat="60.664458328794304" lon="10.365358341819308" id="-25130">
		<tag k="name" v="Lyshaug" />
		<tag k="place" v="farm" />
		<tag k="ssr:stedsnr" v="784706" />
	</node>
	<node lat="60.70411110987916" lon="10.343658327353996" id="-25131">
		<tag k="name" v="Briskebakke" />
		<tag k="place" v="isolated_dwelling" />
		<tag k="ssr:stedsnr" v="784654" />
	</node>
	<node lat="60.69959999791329" lon="10.276883324535348" id="-25132">
		<tag k="name" v="Hagen" />
		<tag k="place" v="farm" />
		<tag k="ssr:stedsnr" v="784660" />
	</node>
	<node lat="60.69437777638436" lon="10.288800002982887" id="-25133">
		<tag k="name" v="Enga" />
		<tag k="place" v="farm" />
		<tag k="ssr:stedsnr" v="784662" />
	</node>
	<node lat="60.795544444702315" lon="10.29800834061126" id="-25138">
		<tag k="name" v="Perstuen" />
		<tag k="place" v="locality" />
		<tag k="ssr:stedsnr" v="784910" />
	</node>
	<node lat="60.78840000348171" lon="10.291733327886766" id="-25139">
		<tag k="name" v="Nordengen" />
		<tag k="place" v="farm" />
		<tag k="ssr:stedsnr" v="784914" />
	</node>
	<node lat="60.682672225055995" lon="10.177091669264959" id="-25141">
		<tag k="alt_name" v="Hofslisætra" />
		<tag k="historic" v="shieling" />
		<tag k="name" v="Hovslia" />
		<tag k="place" v="isolated_dwelling" />
		<tag k="ssr:stedsnr" v="795756" />
	</node>
	<node lat="60.639031509982" lon="10.365810711146812" id="-25143">
		<tag k="alt_name" v="Halmrast, nordre" />
		<tag k="fixme" v="consider place=hamlet" />
		<tag k="name" v="Nordre Halmrast" />
		<tag k="place" v="farm" />
		<tag k="ssr:stedsnr" v="796269" />
	</node>
	<node lat="60.72467778116268" lon="10.365294443406603" id="-25145">
		<tag k="name" v="Leirbekk" />
		<tag k="place" v="farm" />
		<tag k="ssr:stedsnr" v="796413" />
	</node>
	<node lat="60.68330277931935" lon="10.355136113909033" id="-25147">
		<tag k="alt_name" v="Fryal skole" />
		<tag k="amenity" v="school" />
		<tag k="name" v="Fryal" />
		<tag k="ssr:stedsnr" v="796318" />
	</node>
	<node lat="60.54700278085526" lon="10.159402775317076" id="-25148">
		<tag k="alt_name" v="Elevhytta" />
		<tag k="name" v="Ellevshytta" />
		<tag k="place" v="isolated_dwelling" />
		<tag k="ssr:stedsnr" v="796508" />
	</node>
	<node lat="60.578077775160224" lon="10.334919436352108" id="-25152">
		<tag k="alt_name" v="Enger, nedre" />
		<tag k="name" v="Nedre Enger" />
		<tag k="place" v="farm" />
		<tag k="ssr:stedsnr" v="796625" />
	</node>
	<node lat="60.73096320606528" lon="10.317817429755612" id="-25155">
		<tag k="fixme" v="consider place=hamlet" />
		<tag k="name" v="Hasval" />
		<tag k="place" v="farm" />
		<tag k="ssr:stedsnr" v="796803" />
	</node>
	<node lat="60.72458888540612" lon="10.280897216624641" id="-25156">
		<tag k="alt_name" v="Sagen" />
		<tag k="name" v="Saga" />
		<tag k="place" v="isolated_dwelling" />
		<tag k="ssr:stedsnr" v="796810" />
	</node>
	<node lat="60.539686111946104" lon="10.32971388777617" id="-25159">
		<tag k="name" v="Grimsgarden" />
		<tag k="place" v="farm" />
		<tag k="ssr:stedsnr" v="796555" />
	</node>
	<node lat="60.59025000307607" lon="10.1885222255022" id="-25160">
		<tag k="alt_name" v="Lomsdalsætra" />
		<tag k="historic" v="shieling" />
		<tag k="name" v="Nordre Lomsdalsætra" />
		<tag k="old_name" v="Nordre Lomsdalssætra" />
		<tag k="place" v="isolated_dwelling" />
		<tag k="ssr:stedsnr" v="796562" />
	</node>
	<node lat="60.84318610775927" lon="10.247100000121439" id="-25163">
		<tag k="name" v="Østvoll" />
		<tag k="place" v="farm" />
		<tag k="ssr:stedsnr" v="798492" />
	</node>
	<node lat="60.78383333637788" lon="10.26020277524153" id="-25165">
		<tag k="name" v="Stubberud" />
		<tag k="place" v="farm" />
		<tag k="ssr:stedsnr" v="798622" />
	</node>
	<node lat="60.776466664839376" lon="10.302363885243588" id="-25166">
		<tag k="name" v="Bergegarda" />
		<tag k="place" v="hamlet" />
		<tag k="ssr:stedsnr" v="798593" />
	</node>
	<node lat="60.77872759992029" lon="10.290113310831241" id="-25167">
		<tag k="name" v="Nerby" />
		<tag k="place" v="hamlet" />
		<tag k="ssr:stedsnr" v="798596" />
	</node>
	<node lat="60.591133537095345" lon="10.342686189801091" id="-25170">
		<tag k="alt_name" v="Sand, nordre" />
		<tag k="fixme" v="consider place=hamlet" />
		<tag k="name" v="Nordre Sand" />
		<tag k="place" v="farm" />
		<tag k="ssr:stedsnr" v="917145" />
	</node>
	<node lat="60.59802500376463" lon="10.371694453717136" id="-25171">
		<tag k="name" v="Skaugerud" />
		<tag k="place" v="isolated_dwelling" />
		<tag k="ssr:stedsnr" v="917146" />
	</node>
	<node lat="60.6197500033971" lon="10.201494444891983" id="-25175">
		<tag k="name" v="Klemma" />
		<tag k="place" v="isolated_dwelling" />
		<tag k="ssr:stedsnr" v="917649" />
	</node>
	<node lat="60.69710572591137" lon="10.282845807173745" id="-25177">
		<tag k="fixme" v="consider place=hamlet" />
		<tag k="name" v="Engelia" />
		<tag k="place" v="farm" />
		<tag k="ssr:stedsnr" v="917677" />
	</node>
	<node lat="60.699211111409184" lon="10.340733326010135" id="-25178">
		<tag k="alt_name" v="Neråker" />
		<tag k="name" v="Neraker" />
		<tag k="place" v="farm" />
		<tag k="ssr:stedsnr" v="917683" />
	</node>
	<node lat="60.684927782073" lon="10.444283333048446" id="-25187">
		<tag k="name" v="Presterud" />
		<tag k="place" v="farm" />
		<tag k="ssr:stedsnr" v="917295" />
	</node>
	<node lat="60.707182884383116" lon="10.347147070417181" id="-25188">
		<tag k="alt_name" v="Ske" />
		<tag k="fixme" v="consider place=hamlet" />
		<tag k="name" v="Skje" />
		<tag k="place" v="farm" />
		<tag k="ssr:stedsnr" v="917358" />
	</node>
	<node lat="60.72239166814896" lon="10.362791659725845" id="-25189">
		<tag k="alt_name" v="Øvre Skaugerud" />
		<tag k="name" v="Skaugerud" />
		<tag k="place" v="farm" />
		<tag k="ssr:stedsnr" v="917387" />
	</node>
	<node lat="60.55090200032531" lon="10.334571463625181" id="-25192">
		<tag k="alt_name" v="Brenden" />
		<tag k="fixme" v="consider place=hamlet" />
		<tag k="name" v="Brenna" />
		<tag k="place" v="farm" />
		<tag k="ssr:stedsnr" v="917493" />
	</node>
	<node lat="60.677430555658354" lon="10.409786120167835" id="-25193">
		<tag k="name" v="Vassenden" />
		<tag k="place" v="farm" />
		<tag k="ssr:stedsnr" v="917315" />
	</node>
	<node lat="60.67527222535538" lon="10.454155555677426" id="-25194">
		<tag k="name" v="Sørum" />
		<tag k="place" v="farm" />
		<tag k="ssr:stedsnr" v="917316" />
	</node>
	<node lat="60.69705555783624" lon="10.449230561702214" id="-25195">
		<tag k="alt_name" v="Hagen" />
		<tag k="name" v="Hågån" />
		<tag k="place" v="farm" />
		<tag k="ssr:stedsnr" v="917319" />
	</node>
	<node lat="60.64954444457429" lon="10.331247228243154" id="-25198">
		<tag k="alt_name" v="Engen" />
		<tag k="name" v="Enga" />
		<tag k="place" v="farm" />
		<tag k="ssr:stedsnr" v="917604" />
	</node>
	<node lat="60.71136873800137" lon="10.263514013781394" id="-25200">
		<tag k="alt_name" v="Kompelien" />
		<tag k="fixme" v="consider place=hamlet" />
		<tag k="name" v="Kumpelia" />
		<tag k="place" v="farm" />
		<tag k="ssr:stedsnr" v="917800" />
	</node>
	<node lat="60.72468055688457" lon="10.349244445730776" id="-25203">
		<tag k="name" v="Bakken" />
		<tag k="place" v="farm" />
		<tag k="ssr:stedsnr" v="810743" />
	</node>
	<node lat="60.77110833737028" lon="10.34974999130122" id="-25205">
		<tag k="alt_name" v="Narumsæter" />
		<tag k="name" v="Nårumsæter" />
		<tag k="place" v="farm" />
		<tag k="ssr:stedsnr" v="919039" />
	</node>
	<node lat="60.84000833578357" lon="10.290633331151707" id="-25206">
		<tag k="alt_name" v="Martestuen" />
		<tag k="name" v="Martestugua" />
		<tag k="place" v="farm" />
		<tag k="ssr:stedsnr" v="919590" />
	</node>
	<node lat="60.78129444016255" lon="10.242858331519821" id="-25207">
		<tag k="alt_name" v="Kristensstugua" />
		<tag k="name" v="Nordre Kristenstuen" />
		<tag k="place" v="farm" />
		<tag k="ssr:stedsnr" v="919626" />
	</node>
	<node lat="60.80613610917559" lon="10.259897220905946" id="-25208">
		<tag k="alt_name" v="Nordre Vestrum" />
		<tag k="name" v="Vestrum" />
		<tag k="place" v="farm" />
		<tag k="ssr:stedsnr" v="920552" />
	</node>
	<node lat="60.68585277661849" lon="10.229069440256588" id="-25210">
		<tag k="name" v="Røstvang" />
		<tag k="place" v="isolated_dwelling" />
		<tag k="ssr:stedsnr" v="830105" />
	</node>
	<node lat="60.711575001935145" lon="10.194002770927979" id="-25214">
		<tag k="alt_name" v="Totjennhytta" />
		<tag k="name" v="Totjernhytta" />
		<tag k="place" v="isolated_dwelling" />
		<tag k="ssr:stedsnr" v="830226" />
	</node>
	<node lat="60.717350003064674" lon="10.295636119499601" id="-25219">
		<tag k="name" v="Lyngstrand camping" />
		<tag k="ssr:stedsnr" v="830773" />
		<tag k="tourism" v="camp_site" />
	</node>
	<node lat="60.63184722522849" lon="10.517602776113657" id="-25223">
		<tag k="name" v="Storsvea" />
		<tag k="place" v="isolated_dwelling" />
		<tag k="ssr:stedsnr" v="844229" />
	</node>
	<node lat="60.859141669157516" lon="10.26531387989538" id="-25225">
		<tag k="name" v="Snarstad" />
		<tag k="place" v="locality" />
		<tag k="ssr:stedsnr" v="845187" />
	</node>
	<node lat="60.6398527802705" lon="10.421936117417975" id="-25228">
		<tag k="name" v="Båthuset" />
		<tag k="place" v="isolated_dwelling" />
		<tag k="ssr:stedsnr" v="845277" />
	</node>
	<node lat="60.64296388938045" lon="10.419916671059589" id="-25229">
		<tag k="name" v="Sørjordshytta" />
		<tag k="place" v="isolated_dwelling" />
		<tag k="ssr:stedsnr" v="845278" />
	</node>
	<node lat="60.687097219341865" lon="10.366683327238173" id="-25231">
		<tag k="name" v="Gullikhagen" />
		<tag k="place" v="isolated_dwelling" />
		<tag k="ssr:stedsnr" v="845406" />
	</node>
	<node lat="60.80837499970517" lon="10.141222224641602" id="-25235">
		<tag k="name" v="Skogstad" />
		<tag k="place" v="isolated_dwelling" />
		<tag k="ssr:stedsnr" v="845381" />
	</node>
	<node lat="60.78064722392614" lon="10.259880553175313" id="-25237">
		<tag k="name" v="Minaberg" />
		<tag k="place" v="isolated_dwelling" />
		<tag k="ssr:stedsnr" v="845907" />
	</node>
	<node lat="60.777213886367456" lon="10.263308339388093" id="-25242">
		<tag k="amenity" v="nursing_home" />
		<tag k="name" v="Engen arbeidshjem" />
		<tag k="ssr:stedsnr" v="845875" />
	</node>
	<node lat="60.7663138883629" lon="10.281113893371822" id="-25243">
		<tag k="name" v="Granumstykket" />
		<tag k="place" v="locality" />
		<tag k="ssr:stedsnr" v="845877" />
	</node>
	<node lat="60.66847777467379" lon="10.423791673518753" id="-25248">
		<tag k="name" v="Brattvoll" />
		<tag k="place" v="farm" />
		<tag k="ssr:stedsnr" v="856331" />
	</node>
	<node lat="60.66134166895415" lon="10.374427786308953" id="-25249">
		<tag k="alt_name" v="Madsestuen" />
		<tag k="name" v="Madsstugua" />
		<tag k="place" v="farm" />
		<tag k="ssr:stedsnr" v="856332" />
	</node>
	<node lat="60.683713888379216" lon="10.395377786736146" id="-25253">
		<tag k="alt_name" v="Varpstuen" />
		<tag k="name" v="Varpstugua" />
		<tag k="place" v="farm" />
		<tag k="ssr:stedsnr" v="857340" />
	</node>
	<node lat="60.625116666830564" lon="10.417855546768937" id="-25254">
		<tag k="name" v="Kimbekkhytta" />
		<tag k="place" v="isolated_dwelling" />
		<tag k="ssr:stedsnr" v="857275" />
	</node>
	<node lat="60.54913889095353" lon="10.289997224383796" id="-25256">
		<tag k="name" v="Bøle" />
		<tag k="place" v="farm" />
		<tag k="ssr:stedsnr" v="857518" />
	</node>
	<node lat="60.59233333311114" lon="10.286427769946297" id="-25262">
		<tag k="name" v="Gjerdet" />
		<tag k="place" v="farm" />
		<tag k="ssr:stedsnr" v="857605" />
	</node>
	<node lat="60.71016666240281" lon="10.254777768847978" id="-25266">
		<tag k="name" v="Sleperud" />
		<tag k="place" v="isolated_dwelling" />
		<tag k="ssr:stedsnr" v="857806" />
	</node>
	<node lat="60.823400003825284" lon="10.345152783196358" id="-25267">
		<tag k="name" v="Vassenden" />
		<tag k="place" v="farm" />
		<tag k="ssr:stedsnr" v="858984" />
	</node>
	<node lat="60.777283332279296" lon="10.275933336807233" id="-25268">
		<tag k="alt_name" v="Nedre Hannvoll" />
		<tag k="name" v="Hannval" />
		<tag k="place" v="farm" />
		<tag k="ssr:stedsnr" v="859606" />
	</node>
	<node lat="60.77802005346823" lon="10.22744608866301" id="-25270">
		<tag k="fixme" v="consider place=hamlet" />
		<tag k="name" v="Nes" />
		<tag k="place" v="farm" />
		<tag k="ssr:stedsnr" v="859625" />
	</node>
	<node lat="60.7550305549014" lon="10.317274991996463" id="-25271">
		<tag k="fixme" v="multiple name tags, choose one and add the other to alt_name" />
		<tag k="name" v="Bjørklund;Østre Tranholt" />
		<tag k="place" v="farm" />
		<tag k="ssr:stedsnr" v="859711" />
	</node>
	<node lat="60.76117566697377" lon="10.248050636917345" id="-25273">
		<tag k="fixme" v="consider place=hamlet" />
		<tag k="name" v="Rødnes" />
		<tag k="place" v="farm" />
		<tag k="ssr:stedsnr" v="859719" />
	</node>
	<node lat="60.7188694443261" lon="10.311461106983725" id="-25275">
		<tag k="name" v="Hansestuen" />
		<tag k="place" v="locality" />
		<tag k="ssr:stedsnr" v="932683" />
	</node>
	<node lat="60.56800555652649" lon="10.28970833161305" id="-25278">
		<tag k="name" v="Bjørnstad" />
		<tag k="place" v="isolated_dwelling" />
		<tag k="ssr:stedsnr" v="890450" />
	</node>
	<node lat="60.723786111396905" lon="10.353688886087049" id="-25282">
		<tag k="name" v="Sveumshagen" />
		<tag k="place" v="farm" />
		<tag k="ssr:stedsnr" v="891766" />
	</node>
	<node lat="60.73361111149322" lon="10.417430557400646" id="-25287">
		<tag k="name" v="Skihytta" />
		<tag k="place" v="isolated_dwelling" />
		<tag k="ssr:stedsnr" v="905376" />
	</node>
	<node lat="60.555597221269515" lon="10.32871665873805" id="-25288">
		<tag k="name" v="Nordre Hollingdal" />
		<tag k="place" v="isolated_dwelling" />
		<tag k="ssr:stedsnr" v="905400" />
	</node>
	<node lat="60.55668888675398" lon="10.330875000552377" id="-25290">
		<tag k="name" v="Granholt" />
		<tag k="place" v="isolated_dwelling" />
		<tag k="ssr:stedsnr" v="905409" />
	</node>
	<node lat="60.66567500390155" lon="10.364413892281478" id="-25291">
		<tag k="name" v="Smeby" />
		<tag k="place" v="isolated_dwelling" />
		<tag k="ssr:stedsnr" v="905700" />
	</node>
	<node lat="60.61642778167461" lon="10.129155556696372" id="-25292">
		<tag k="name" v="Dalavasshytta" />
		<tag k="place" v="isolated_dwelling" />
		<tag k="ssr:stedsnr" v="905810" />
	</node>
	<node lat="60.679197220215215" lon="10.36933056021325" id="-25294">
		<tag k="name" v="Løken" />
		<tag k="place" v="isolated_dwelling" />
		<tag k="ssr:stedsnr" v="906372" />
	</node>
	<node lat="60.64863611280974" lon="10.15689723115137" id="-25299">
		<tag k="name" v="Frysihel" />
		<tag k="place" v="isolated_dwelling" />
		<tag k="ssr:stedsnr" v="917618" />
	</node>
	<node lat="60.5388444424832" lon="10.21800555089168" id="-25301">
		<tag k="alt_name" v="Myrsætra, nordre" />
		<tag k="historic" v="shieling" />
		<tag k="name" v="Nordre Myrsætra" />
		<tag k="place" v="isolated_dwelling" />
		<tag k="ssr:stedsnr" v="917530" />
	</node>
	<node lat="60.60498333239601" lon="10.237913886437385" id="-25304">
		<tag k="alt_name" v="Lomsdalsætra, søre;Søndre Lomsdalsæter" />
		<tag k="historic" v="shieling" />
		<tag k="name" v="Søre Lomsdalsætra" />
		<tag k="place" v="isolated_dwelling" />
		<tag k="ssr:stedsnr" v="917568" />
	</node>
	<node lat="60.74226389229625" lon="10.124666671226308" id="-25306">
		<tag k="name" v="Telamarka" />
		<tag k="place" v="locality" />
		<tag k="ssr:stedsnr" v="917756" />
	</node>
	<node lat="60.735786107585916" lon="10.3045361196304" id="-25307">
		<tag k="alt_name" v="Olabakken" />
		<tag k="name" v="Bakken" />
		<tag k="place" v="farm" />
		<tag k="ssr:stedsnr" v="917762" />
	</node>
	<node lat="60.802969447877295" lon="10.210563887340344" id="-25309">
		<tag k="name" v="Sørmoen" />
		<tag k="place" v="isolated_dwelling" />
		<tag k="ssr:stedsnr" v="919558" />
	</node>
	<node lat="60.83514166452617" lon="10.25479165982228" id="-25310">
		<tag k="name" v="Svalheim" />
		<tag k="place" v="farm" />
		<tag k="ssr:stedsnr" v="919592" />
	</node>
	<node lat="60.83747222343718" lon="10.32387777721503" id="-25311">
		<tag k="name" v="Øveråsen" />
		<tag k="place" v="farm" />
		<tag k="ssr:stedsnr" v="919595" />
	</node>
	<node lat="60.83101944747592" lon="10.288916671696775" id="-25313">
		<tag k="name" v="Brenna" />
		<tag k="place" v="farm" />
		<tag k="ssr:stedsnr" v="920595" />
	</node>
	<node lat="60.768219440661376" lon="10.24773334068681" id="-25316">
		<tag k="fixme" v="consider place=hamlet" />
		<tag k="name" v="Fluberg" />
		<tag k="place" v="village" />
		<tag k="ssr:stedsnr" v="934303" />
	</node>
	<node lat="60.740974998241434" lon="10.31136388748635" id="-25323">
		<tag k="name" v="Midtre Løvlien" />
		<tag k="place" v="farm" />
		<tag k="ssr:stedsnr" v="951744" />
	</node>
	<node lat="60.73755277861642" lon="10.284880556337027" id="-25324">
		<tag k="name" v="Nedre Bergum" />
		<tag k="place" v="isolated_dwelling" />
		<tag k="ssr:stedsnr" v="951801" />
	</node>
	<node lat="60.62244444524249" lon="10.371102784737069" id="-25327">
		<tag k="name" v="Jullum" />
		<tag k="place" v="isolated_dwelling" />
		<tag k="ssr:stedsnr" v="966209" />
	</node>
	<node lat="60.62227222079927" lon="10.370499992981577" id="-25328">
		<tag k="name" v="Fårum" />
		<tag k="place" v="isolated_dwelling" />
		<tag k="ssr:stedsnr" v="966213" />
	</node>
	<node lat="60.651772223592346" lon="10.335097226128664" id="-25329">
		<tag k="name" v="Aker" />
		<tag k="place" v="isolated_dwelling" />
		<tag k="ssr:stedsnr" v="966710" />
	</node>
	<node lat="60.78313888925244" lon="10.25857777464289" id="-25333">
		<tag k="name" v="Minde" />
		<tag k="place" v="locality" />
		<tag k="ssr:stedsnr" v="966891" />
	</node>
	<node lat="60.78177500047766" lon="10.261663886296532" id="-25334">
		<tag k="name" v="Granumsengen" />
		<tag k="place" v="farm" />
		<tag k="ssr:stedsnr" v="966894" />
	</node>
	<node lat="60.78225555888004" lon="10.298736105384496" id="-25335">
		<tag k="name" v="Solvang" />
		<tag k="place" v="farm" />
		<tag k="ssr:stedsnr" v="966898" />
	</node>
	<node lat="60.726487952982175" lon="10.3233199242684" id="-25337">
		<tag k="fixme" v="consider place=hamlet" />
		<tag k="name" v="Løken" />
		<tag k="place" v="farm" />
		<tag k="ssr:stedsnr" v="987423" />
	</node>
	<node lat="60.72992407020149" lon="10.307470772800954" id="-25338">
		<tag k="fixme" v="consider place=hamlet" />
		<tag k="name" v="Nårum" />
		<tag k="place" v="farm" />
		<tag k="ssr:stedsnr" v="987425" />
	</node>
	<node lat="60.629593811418275" lon="10.511487551710779" id="-25339">
		<tag k="fixme" v="consider place=hamlet" />
		<tag k="name" v="Eid" />
		<tag k="place" v="farm" />
		<tag k="ssr:stedsnr" v="987428" />
	</node>
	<node lat="60.77048654420046" lon="10.24555501269935" id="-25340">
		<tag k="alt_name" v="Prestegården" />
		<tag k="fixme" v="consider place=hamlet" />
		<tag k="name" v="Fluberg" />
		<tag k="place" v="farm" />
		<tag k="ssr:stedsnr" v="987386" />
	</node>
	<node lat="60.534859866431745" lon="10.32207514817197" id="-25341">
		<tag k="fixme" v="consider place=hamlet" />
		<tag k="name" v="Horn" />
		<tag k="place" v="farm" />
		<tag k="ssr:stedsnr" v="987568" />
	</node>
	<node lat="60.65830181229375" lon="10.330381727906987" id="-25342">
		<tag k="fixme" v="consider place=hamlet" />
		<tag k="name" v="Askvik" />
		<tag k="place" v="farm" />
		<tag k="ssr:stedsnr" v="987570" />
	</node>
	<node lat="60.693244455865205" lon="10.292552185492033" id="-25343">
		<tag k="fixme" v="consider place=hamlet" />
		<tag k="name" v="Skjeslia" />
		<tag k="place" v="farm" />
		<tag k="ssr:stedsnr" v="987571" />
	</node>
	<node lat="60.7455000030075" lon="10.228736103231208" id="-25345">
		<tag k="fixme" v="multiple name tags, choose one and add the other to alt_name" />
		<tag k="name" v="Kvent;Kvernsletten" />
		<tag k="place" v="farm" />
		<tag k="ssr:stedsnr" v="6761" />
	</node>
	<node lat="60.679508333466316" lon="10.454936116597356" id="-25347">
		<tag k="fixme" v="multiple name tags, choose one and add the other to alt_name" />
		<tag k="name" v="Ingridhaugen;Øverby" />
		<tag k="place" v="farm" />
		<tag k="ssr:stedsnr" v="7329" />
	</node>
	<node lat="60.677858337668496" lon="10.432944443244285" id="-25348">
		<tag k="name" v="Åslund" />
		<tag k="place" v="isolated_dwelling" />
		<tag k="ssr:stedsnr" v="7340" />
	</node>
	<node lat="60.669600003881285" lon="10.443452786597604" id="-25349">
		<tag k="alt_name" v="Søndre Mosetra" />
		<tag k="name" v="Mosenga" />
		<tag k="place" v="farm" />
		<tag k="ssr:stedsnr" v="7342" />
	</node>
	<node lat="60.69718610852961" lon="10.4439750084133" id="-25350">
		<tag k="alt_name" v="Pedersveen" />
		<tag k="name" v="Persvea" />
		<tag k="place" v="farm" />
		<tag k="ssr:stedsnr" v="7344" />
	</node>
	<node lat="60.73963055147555" lon="10.423633324060017" id="-25351">
		<tag k="historic" v="shieling" />
		<tag k="name" v="Innersætra" />
		<tag k="place" v="isolated_dwelling" />
		<tag k="ssr:stedsnr" v="7445" />
	</node>
	<node lat="60.70261389242075" lon="10.367033324466863" id="-25355">
		<tag k="name" v="Skjellerud" />
		<tag k="place" v="farm" />
		<tag k="ssr:stedsnr" v="7390" />
	</node>
	<node lat="60.60010555514603" lon="10.320838892847373" id="-25357">
		<tag k="alt_name" v="Kleven" />
		<tag k="name" v="Kleiva" />
		<tag k="place" v="farm" />
		<tag k="ssr:stedsnr" v="7572" />
	</node>
	<node lat="60.56513888487465" lon="10.176025001056997" id="-25360">
		<tag k="name" v="Jønneshytta" />
		<tag k="place" v="isolated_dwelling" />
		<tag k="ssr:stedsnr" v="7587" />
	</node>
	<node lat="60.746366667390106" lon="10.331611118996351" id="-25365">
		<tag k="name" v="Sørum" />
		<tag k="place" v="farm" />
		<tag k="ssr:stedsnr" v="7750" />
	</node>
	<node lat="60.7411961488924" lon="10.235516063430618" id="-25366">
		<tag k="fixme" v="consider place=hamlet" />
		<tag k="name" v="Nordråk" />
		<tag k="place" v="farm" />
		<tag k="ssr:stedsnr" v="7752" />
	</node>
	<node lat="60.73623891622721" lon="10.17656112781455" id="-25367">
		<tag k="name" v="Lusihus" />
		<tag k="place" v="locality" />
		<tag k="ssr:stedsnr" v="7755" />
	</node>
</osm>
