<?xml version="1.0" encoding="UTF-8"?>
<osm version="0.6" generator="osmapis">
	<node lat="60.82062499650168" lon="10.36757778435019" id="-24240">
		<tag k="name" v="Spiterudmyra" />
		<tag k="natural" v="wetland" />
		<tag k="ssr:stedsnr" v="9946" />
	</node>
	<node lat="60.749111112881494" lon="10.402247228899137" id="-24241">
		<tag k="name" v="Rundmyra" />
		<tag k="natural" v="wetland" />
		<tag k="ssr:stedsnr" v="40376" />
	</node>
	<node lat="60.578500001291374" lon="10.450541673787967" id="-24254">
		<tag k="name" v="Salstutten" />
		<tag k="natural" v="wetland" />
		<tag k="ssr:stedsnr" v="238149" />
	</node>
	<node lat="60.58899999779708" lon="10.398305556775925" id="-24260">
		<tag k="name" v="Hølbekkmyra" />
		<tag k="natural" v="wetland" />
		<tag k="ssr:stedsnr" v="238187" />
	</node>
	<node lat="60.73270833098826" lon="10.374150007855622" id="-24277">
		<tag k="name" v="Låvemyra" />
		<tag k="natural" v="wetland" />
		<tag k="ssr:stedsnr" v="56404" />
	</node>
	<node lat="60.60623889323359" lon="10.52619999937016" id="-24279">
		<tag k="name" v="Vestre Åsmyra" />
		<tag k="natural" v="wetland" />
		<tag k="ssr:stedsnr" v="56415" />
	</node>
	<node lat="60.73707500075305" lon="10.424363885351378" id="-24323">
		<tag k="name" v="Ormyra" />
		<tag k="natural" v="wetland" />
		<tag k="ssr:stedsnr" v="101364" />
	</node>
	<node lat="60.55802500411247" lon="10.185433329058906" id="-24356">
		<tag k="name" v="Endelausmyra" />
		<tag k="natural" v="wetland" />
		<tag k="ssr:stedsnr" v="250514" />
	</node>
	<node lat="60.65003611433498" lon="10.472388891599696" id="-24362">
		<tag k="name" v="Sollimarka" />
		<tag k="place" v="locality" />
		<tag k="ssr:stedsnr" v="116242" />
	</node>
	<node lat="60.54805000133783" lon="10.261583325964752" id="-24377">
		<tag k="name" v="Nybrenna" />
		<tag k="place" v="locality" />
		<tag k="ssr:stedsnr" v="116512" />
	</node>
	<node lat="60.722549998333335" lon="10.180072228025663" id="-24389">
		<tag k="name" v="Langmyra" />
		<tag k="natural" v="wetland" />
		<tag k="ssr:stedsnr" v="250781" />
	</node>
	<node lat="60.718749996205" lon="10.472108328480525" id="-24400">
		<tag k="name" v="Tverrmyra" />
		<tag k="natural" v="wetland" />
		<tag k="ssr:stedsnr" v="128405" />
	</node>
	<node lat="60.574988889337654" lon="10.139558332207828" id="-24408">
		<tag k="name" v="Tolvtjernmyrene" />
		<tag k="natural" v="wetland" />
		<tag k="ssr:stedsnr" v="128596" />
	</node>
	<node lat="60.57323611415266" lon="10.089325001727019" id="-24409">
		<tag k="alt_name" v="Stormyrene" />
		<tag k="name" v="Stormyra" />
		<tag k="natural" v="wetland" />
		<tag k="ssr:stedsnr" v="128598" />
	</node>
	<node lat="60.6717111149792" lon="10.24678888037396" id="-24424">
		<tag k="name" v="Stormyra" />
		<tag k="natural" v="wetland" />
		<tag k="ssr:stedsnr" v="128890" />
	</node>
	<node lat="60.792562047452655" lon="10.302509612594262" id="-24432">
		<tag k="alt_name" v="Føltjennsmyra" />
		<tag k="name" v="Føltjernmyra" />
		<tag k="natural" v="wetland" />
		<tag k="ssr:stedsnr" v="252613" />
	</node>
	<node lat="60.73962221825967" lon="10.404852784705014" id="-24439">
		<tag k="name" v="Stormyra" />
		<tag k="natural" v="wetland" />
		<tag k="ssr:stedsnr" v="162402" />
	</node>
	<node lat="60.59593889321415" lon="10.269113888458858" id="-24443">
		<tag k="name" v="Storsvehaugmyra" />
		<tag k="natural" v="wetland" />
		<tag k="ssr:stedsnr" v="162607" />
	</node>
	<node lat="60.76110555826971" lon="10.314591664703878" id="-24445">
		<tag k="name" v="Hansemyra" />
		<tag k="natural" v="wetland" />
		<tag k="ssr:stedsnr" v="162926" />
	</node>
	<node lat="60.75058888867434" lon="10.404966669490046" id="-24492">
		<tag k="historic" v="shieling" />
		<tag k="name" v="Vestre Kulbotn" />
		<tag k="place" v="locality" />
		<tag k="ssr:stedsnr" v="223411" />
	</node>
	<node lat="60.55424166933037" lon="10.253730549596659" id="-24507">
		<tag k="name" v="Sætermyrene" />
		<tag k="natural" v="wetland" />
		<tag k="ssr:stedsnr" v="238531" />
	</node>
	<node lat="60.702850000087885" lon="10.475566659660979" id="-24510">
		<tag k="name" v="Fuglerudmarka" />
		<tag k="place" v="locality" />
		<tag k="ssr:stedsnr" v="238538" />
	</node>
	<node lat="60.55032499661282" lon="10.252583334764271" id="-24511">
		<tag k="historic" v="shieling" />
		<tag k="name" v="Flåmyrsætra" />
		<tag k="place" v="locality" />
		<tag k="ssr:stedsnr" v="238539" />
	</node>
	<node lat="60.750430556356655" lon="10.298186104571112" id="-24532">
		<tag k="name" v="Blækjemyra" />
		<tag k="natural" v="wetland" />
		<tag k="ssr:stedsnr" v="298809" />
	</node>
	<node lat="60.830641665977666" lon="10.329772228553537" id="-24539">
		<tag k="name" v="Skårslettmyra" />
		<tag k="natural" v="wetland" />
		<tag k="ssr:stedsnr" v="465081" />
	</node>
	<node lat="60.81073055328466" lon="10.324836115561874" id="-24540">
		<tag k="name" v="Landåsmarka" />
		<tag k="place" v="locality" />
		<tag k="ssr:stedsnr" v="465086" />
	</node>
	<node lat="60.8240416646301" lon="10.242508325549704" id="-24541">
		<tag k="historic" v="shieling" />
		<tag k="name" v="Ødegårdsæter" />
		<tag k="place" v="locality" />
		<tag k="ssr:stedsnr" v="465277" />
	</node>
	<node lat="60.763725000075276" lon="10.385113893194777" id="-24545">
		<tag k="name" v="Langmyra" />
		<tag k="natural" v="wetland" />
		<tag k="ssr:stedsnr" v="465381" />
	</node>
	<node lat="60.642674995918064" lon="10.238955557243862" id="-24558">
		<tag k="historic" v="shieling" />
		<tag k="name" v="Ringelisætra" />
		<tag k="place" v="locality" />
		<tag k="ssr:stedsnr" v="310631" />
	</node>
	<node lat="60.70901111002508" lon="10.072755557917203" id="-24566">
		<tag k="name" v="Øktmyrene" />
		<tag k="natural" v="wetland" />
		<tag k="ssr:stedsnr" v="310803" />
	</node>
	<node lat="60.61640555321184" lon="10.508388882699908" id="-24584">
		<tag k="name" v="Eidsmarka" />
		<tag k="place" v="locality" />
		<tag k="ssr:stedsnr" v="344303" />
	</node>
	<node lat="60.7671416651036" lon="10.310330553236312" id="-24592">
		<tag k="name" v="Tossemyra" />
		<tag k="natural" v="wetland" />
		<tag k="ssr:stedsnr" v="344919" />
	</node>
	<node lat="60.67444166431192" lon="10.036630548148382" id="-24594">
		<tag k="historic" v="shieling" />
		<tag k="name" v="Damli" />
		<tag k="place" v="locality" />
		<tag k="ssr:stedsnr" v="344962" />
	</node>
	<node lat="60.598997226378934" lon="10.390958329829791" id="-24599">
		<tag k="name" v="Forsveen" />
		<tag k="place" v="locality" />
		<tag k="ssr:stedsnr" v="359223" />
	</node>
	<node lat="60.600902781660984" lon="10.3816305605646" id="-24600">
		<tag k="name" v="Stubbhosomyra" />
		<tag k="natural" v="wetland" />
		<tag k="ssr:stedsnr" v="359228" />
	</node>
	<node lat="60.71416666781819" lon="10.344602769887551" id="-24609">
		<tag k="name" v="Slåtsveen" />
		<tag k="place" v="locality" />
		<tag k="ssr:stedsnr" v="359651" />
	</node>
	<node lat="60.75925555806989" lon="10.347208334309553" id="-24614">
		<tag k="name" v="Svinningsmyra" />
		<tag k="natural" v="wetland" />
		<tag k="ssr:stedsnr" v="359918" />
	</node>
	<node lat="60.6403861101375" lon="10.138449993434602" id="-24626">
		<tag k="alt_name" v="Bragerfløyta" />
		<tag k="name" v="Brakarfløyta" />
		<tag k="natural" v="wetland" />
		<tag k="ssr:stedsnr" v="371631" />
	</node>
	<node lat="60.81742777913799" lon="10.272625007633003" id="-24629">
		<tag k="name" v="Langkloppmyra" />
		<tag k="natural" v="wetland" />
		<tag k="ssr:stedsnr" v="373599" />
	</node>
	<node lat="60.81501111012538" lon="10.354911115219245" id="-24632">
		<tag k="name" v="Geitryggmyra" />
		<tag k="natural" v="wetland" />
		<tag k="ssr:stedsnr" v="373959" />
	</node>
	<node lat="60.56852221859883" lon="10.443788881321632" id="-24634">
		<tag k="name" v="Øvre Hornslisetermyra" />
		<tag k="natural" v="wetland" />
		<tag k="ssr:stedsnr" v="480141" />
	</node>
	<node lat="60.56889166668472" lon="10.47566111382689" id="-24636">
		<tag k="historic" v="shieling" />
		<tag k="name" v="Sandseter" />
		<tag k="place" v="locality" />
		<tag k="ssr:stedsnr" v="480143" />
	</node>
	<node lat="60.59175833300821" lon="10.221561116138124" id="-24641">
		<tag k="historic" v="shieling" />
		<tag k="name" v="Lorthølsætra" />
		<tag k="place" v="locality" />
		<tag k="ssr:stedsnr" v="480077" />
	</node>
	<node lat="60.736019444698066" lon="10.422924996818772" id="-24648">
		<tag k="historic" v="shieling" />
		<tag k="name" v="Innersetra" />
		<tag k="place" v="locality" />
		<tag k="ssr:stedsnr" v="480369" />
	</node>
	<node lat="60.70879166296995" lon="10.443874999440279" id="-24651">
		<tag k="name" v="Amsrudmarka" />
		<tag k="place" v="locality" />
		<tag k="ssr:stedsnr" v="480338" />
	</node>
	<node lat="60.70996111341708" lon="10.46388332701733" id="-24652">
		<tag k="name" v="Ålterudmarka" />
		<tag k="place" v="locality" />
		<tag k="ssr:stedsnr" v="480343" />
	</node>
	<node lat="60.86857221895349" lon="10.259805547944536" id="-24663">
		<tag k="name" v="Furuholen" />
		<tag k="place" v="locality" />
		<tag k="ssr:stedsnr" v="403703" />
	</node>
	<node lat="60.62772500146366" lon="10.30407221337462" id="-24672">
		<tag k="name" v="Bakved" />
		<tag k="natural" v="wetland" />
		<tag k="ssr:stedsnr" v="405552" />
	</node>
	<node lat="60.76574166407513" lon="10.336877780788344" id="-24677">
		<tag k="landuse" v="meadow" />
		<tag k="name" v="Purkesvehølet" />
		<tag k="ssr:stedsnr" v="405941" />
	</node>
	<node lat="60.7936361119593" lon="10.353913890514841" id="-24690">
		<tag k="name" v="Sætermyra" />
		<tag k="natural" v="wetland" />
		<tag k="ssr:stedsnr" v="420895" />
	</node>
	<node lat="60.721945447334974" lon="10.382184304245246" id="-24736">
		<tag k="name" v="Pliggemyra" />
		<tag k="natural" v="wetland" />
		<tag k="ssr:stedsnr" v="492401" />
	</node>
	<node lat="60.67466666878005" lon="10.48697222358524" id="-24737">
		<tag k="name" v="Fløytmyrane" />
		<tag k="natural" v="wetland" />
		<tag k="ssr:stedsnr" v="492261" />
	</node>
	<node lat="60.60801666889967" lon="10.534688889982256" id="-24771">
		<tag k="name" v="Åsmyrene" />
		<tag k="natural" v="wetland" />
		<tag k="ssr:stedsnr" v="674201" />
	</node>
	<node lat="60.727933333863" lon="10.392500000827498" id="-24774">
		<tag k="name" v="Engelsåsmyra" />
		<tag k="natural" v="wetland" />
		<tag k="ssr:stedsnr" v="674386" />
	</node>
	<node lat="60.61648055771918" lon="10.534008329235807" id="-24786">
		<tag k="name" v="Skjelbreimarka" />
		<tag k="place" v="locality" />
		<tag k="ssr:stedsnr" v="465307" />
	</node>
	<node lat="60.70089721805665" lon="10.237352782266756" id="-24797">
		<tag k="name" v="Stormyra" />
		<tag k="natural" v="wetland" />
		<tag k="ssr:stedsnr" v="466214" />
	</node>
	<node lat="60.85564999653026" lon="10.328122229863597" id="-24802">
		<tag k="name" v="Ellingmyra" />
		<tag k="natural" v="wetland" />
		<tag k="ssr:stedsnr" v="466704" />
	</node>
	<node lat="60.644861106920914" lon="10.460000002233729" id="-24817">
		<tag k="name" v="Vasslimarka" />
		<tag k="place" v="locality" />
		<tag k="ssr:stedsnr" v="480222" />
	</node>
	<node lat="60.69768610822466" lon="10.485749993791307" id="-24836">
		<tag k="name" v="Kustormyra" />
		<tag k="natural" v="wetland" />
		<tag k="ssr:stedsnr" v="492324" />
	</node>
	<node lat="60.864163886002274" lon="10.30880277516067" id="-24851">
		<tag k="name" v="Bakkemyrene" />
		<tag k="natural" v="wetland" />
		<tag k="ssr:stedsnr" v="526682" />
	</node>
	<node lat="60.85236111343395" lon="10.31789721598314" id="-24852">
		<tag k="name" v="Olamyrene" />
		<tag k="natural" v="wetland" />
		<tag k="ssr:stedsnr" v="526691" />
	</node>
	<node lat="60.613225002794636" lon="10.510674998210016" id="-24910">
		<tag k="name" v="Vestre Lundemyra" />
		<tag k="natural" v="wetland" />
		<tag k="ssr:stedsnr" v="586303" />
	</node>
	<node lat="60.631794440669324" lon="10.204716669676886" id="-24912">
		<tag k="name" v="Brenden" />
		<tag k="place" v="locality" />
		<tag k="ssr:stedsnr" v="587103" />
	</node>
	<node lat="60.65760000434865" lon="10.472055548052289" id="-24926">
		<tag k="name" v="Sollisveen" />
		<tag k="place" v="locality" />
		<tag k="ssr:stedsnr" v="601255" />
	</node>
	<node lat="60.76228888586701" lon="10.34480833752313" id="-24933">
		<tag k="name" v="Kullbotten" />
		<tag k="place" v="locality" />
		<tag k="ssr:stedsnr" v="601915" />
	</node>
	<node lat="60.59105833439493" lon="10.444858331530964" id="-24938">
		<tag k="alt_name" v="Granumstormyra" />
		<tag k="name" v="Granumssæterstormyra" />
		<tag k="natural" v="wetland" />
		<tag k="ssr:stedsnr" v="613169" />
	</node>
	<node lat="60.566124996132274" lon="10.246624993997257" id="-24948">
		<tag k="name" v="Elgelortmyra" />
		<tag k="natural" v="wetland" />
		<tag k="ssr:stedsnr" v="613595" />
	</node>
	<node lat="60.64288055218253" lon="10.08336667130568" id="-24960">
		<tag k="name" v="Laddøyra" />
		<tag k="natural" v="wetland" />
		<tag k="ssr:stedsnr" v="627507" />
	</node>
	<node lat="60.57331666544652" lon="10.252305558087373" id="-24965">
		<tag k="name" v="Bjønnmyra" />
		<tag k="natural" v="wetland" />
		<tag k="ssr:stedsnr" v="647439" />
	</node>
	<node lat="60.81846944732389" lon="10.310275001354203" id="-24973">
		<tag k="name" v="Granumsmyra" />
		<tag k="natural" v="wetland" />
		<tag k="ssr:stedsnr" v="708043" />
	</node>
	<node lat="60.816347220466845" lon="10.317783329639225" id="-24974">
		<tag k="name" v="Måsåmyra" />
		<tag k="natural" v="wetland" />
		<tag k="ssr:stedsnr" v="708044" />
	</node>
	<node lat="60.61368888741469" lon="10.515327782854468" id="-24978">
		<tag k="name" v="Østre Lundemyra" />
		<tag k="natural" v="wetland" />
		<tag k="ssr:stedsnr" v="708295" />
	</node>
	<node lat="60.75755277951855" lon="10.37485277250021" id="-24982">
		<tag k="historic" v="shieling" />
		<tag k="name" v="Nordvollen" />
		<tag k="place" v="locality" />
		<tag k="ssr:stedsnr" v="708398" />
	</node>
	<node lat="60.733991670168244" lon="10.29895277287381" id="-24987">
		<tag k="name" v="Hagen" />
		<tag k="place" v="locality" />
		<tag k="ssr:stedsnr" v="708754" />
	</node>
	<node lat="60.58815833623564" lon="10.395722228162914" id="-25000">
		<tag k="name" v="Setermyra" />
		<tag k="natural" v="wetland" />
		<tag k="ssr:stedsnr" v="662179" />
	</node>
	<node lat="60.55161666737653" lon="10.213269452022523" id="-25004">
		<tag k="name" v="Stormyra" />
		<tag k="natural" v="wetland" />
		<tag k="ssr:stedsnr" v="662489" />
	</node>
	<node lat="60.81459444241531" lon="10.253969446705957" id="-25008">
		<tag k="historic" v="shieling" />
		<tag k="name" v="Hellerud sæter" />
		<tag k="place" v="locality" />
		<tag k="ssr:stedsnr" v="890037" />
	</node>
	<node lat="60.77505278227177" lon="10.368074996070963" id="-25009">
		<tag k="name" v="Kvernmyra" />
		<tag k="natural" v="wetland" />
		<tag k="ssr:stedsnr" v="890385" />
	</node>
	<node lat="60.80370555129258" lon="10.29051667508035" id="-25012">
		<tag k="historic" v="shieling" />
		<tag k="name" v="Brokslien" />
		<tag k="place" v="locality" />
		<tag k="ssr:stedsnr" v="891046" />
	</node>
	<node lat="60.85848888820697" lon="10.319641662367482" id="-25018">
		<tag k="name" v="Råummyrene" />
		<tag k="natural" v="wetland" />
		<tag k="ssr:stedsnr" v="891695" />
	</node>
	<node lat="60.83663611051959" lon="10.344658341417395" id="-25044">
		<tag k="name" v="Monsemyra" />
		<tag k="natural" v="wetland" />
		<tag k="ssr:stedsnr" v="677982" />
	</node>
	<node lat="60.56280555574132" lon="10.392605557136175" id="-25056">
		<tag k="name" v="Grottenborg" />
		<tag k="place" v="locality" />
		<tag k="ssr:stedsnr" v="699163" />
	</node>
	<node lat="60.84267222642306" lon="10.263066666774435" id="-25096">
		<tag k="name" v="Bjørnrudmyra" />
		<tag k="natural" v="wetland" />
		<tag k="ssr:stedsnr" v="905168" />
	</node>
	<node lat="60.67080000430911" lon="10.435405550950515" id="-25101">
		<tag k="name" v="Kloppmyra" />
		<tag k="natural" v="wetland" />
		<tag k="ssr:stedsnr" v="905273" />
	</node>
	<node lat="60.59497777910562" lon="10.359938893842829" id="-25106">
		<tag k="name" v="Grønnvoll" />
		<tag k="place" v="locality" />
		<tag k="ssr:stedsnr" v="905571" />
	</node>
	<node lat="60.772286112456236" lon="10.268736117925078" id="-25107">
		<tag k="name" v="Brattjordet" />
		<tag k="place" v="locality" />
		<tag k="ssr:stedsnr" v="905834" />
	</node>
	<node lat="60.785144442493355" lon="10.313219448957623" id="-25108">
		<tag k="name" v="Kjerstimyra" />
		<tag k="natural" v="wetland" />
		<tag k="ssr:stedsnr" v="905879" />
	</node>
	<node lat="60.62511666441507" lon="10.536352772940496" id="-25115">
		<tag k="name" v="Suklemyra" />
		<tag k="natural" v="wetland" />
		<tag k="ssr:stedsnr" v="769316" />
	</node>
	<node lat="60.589822220300974" lon="10.379319446505122" id="-25122">
		<tag k="name" v="Mekalsvea" />
		<tag k="place" v="locality" />
		<tag k="ssr:stedsnr" v="784202" />
	</node>
	<node lat="60.596508331624776" lon="10.419419453195726" id="-25126">
		<tag k="name" v="Snøplogmyra" />
		<tag k="natural" v="wetland" />
		<tag k="ssr:stedsnr" v="784207" />
	</node>
	<node lat="60.791227781470965" lon="10.283983340535116" id="-25134">
		<tag k="name" v="Gilremyra" />
		<tag k="natural" v="wetland" />
		<tag k="ssr:stedsnr" v="784897" />
	</node>
	<node lat="60.78963055931943" lon="10.289661114733205" id="-25136">
		<tag k="name" v="Bringmyra" />
		<tag k="natural" v="wetland" />
		<tag k="ssr:stedsnr" v="784899" />
	</node>
	<node lat="60.56369166408226" lon="10.13526388759013" id="-25137">
		<tag k="name" v="Togmyra" />
		<tag k="natural" v="wetland" />
		<tag k="ssr:stedsnr" v="784909" />
	</node>
	<node lat="60.67784166741817" lon="10.134827770277404" id="-25162">
		<tag k="name" v="Eftasmyra" />
		<tag k="natural" v="wetland" />
		<tag k="ssr:stedsnr" v="796760" />
	</node>
	<node lat="60.858930557159006" lon="10.275452770455813" id="-25164">
		<tag k="alt_name" v="Øytjennsmyra" />
		<tag k="name" v="Øytjernsmyra" />
		<tag k="natural" v="wetland" />
		<tag k="ssr:stedsnr" v="798498" />
	</node>
	<node lat="60.602138886126404" lon="10.461336108063879" id="-25172">
		<tag k="alt_name" v="Indre Puttmyra" />
		<tag k="name" v="Puttmyra" />
		<tag k="natural" v="wetland" />
		<tag k="ssr:stedsnr" v="917150" />
	</node>
	<node lat="60.676924999576165" lon="10.246497227807996" id="-25183">
		<tag k="name" v="Rognholsmyra" />
		<tag k="natural" v="wetland" />
		<tag k="ssr:stedsnr" v="917717" />
	</node>
	<node lat="60.620941669682644" lon="10.438130556342658" id="-25186">
		<tag k="alt_name" v="Leikmyrene;Leikemyrene" />
		<tag k="name" v="Leikermyrene" />
		<tag k="natural" v="wetland" />
		<tag k="ssr:stedsnr" v="917183" />
	</node>
	<node lat="60.71641666931658" lon="10.34677499925357" id="-25202">
		<tag k="name" v="Slåttsveen" />
		<tag k="place" v="locality" />
		<tag k="ssr:stedsnr" v="810725" />
	</node>
	<node lat="60.80406389209021" lon="10.345736104506349" id="-25204">
		<tag k="name" v="Småmyrene" />
		<tag k="natural" v="wetland" />
		<tag k="ssr:stedsnr" v="919030" />
	</node>
	<node lat="60.81325555862764" lon="10.263616658848322" id="-25212">
		<tag k="historic" v="shieling" />
		<tag k="name" v="Hølsæter" />
		<tag k="place" v="locality" />
		<tag k="ssr:stedsnr" v="830029" />
	</node>
	<node lat="60.683894447682505" lon="10.374238895426272" id="-25236">
		<tag k="name" v="Løkmyra" />
		<tag k="natural" v="wetland" />
		<tag k="ssr:stedsnr" v="845383" />
	</node>
	<node lat="60.78456111491117" lon="10.337736109252244" id="-25269">
		<tag k="name" v="Kjerrmyra" />
		<tag k="natural" v="wetland" />
		<tag k="ssr:stedsnr" v="859613" />
	</node>
	<node lat="60.61840833683737" lon="10.300833326711732" id="-25280">
		<tag k="name" v="Bjønnmyra" />
		<tag k="natural" v="wetland" />
		<tag k="ssr:stedsnr" v="891567" />
	</node>
	<node lat="60.72735277958642" lon="10.416355561622389" id="-25285">
		<tag k="historic" v="shieling" />
		<tag k="name" v="Sørgardsseter" />
		<tag k="place" v="locality" />
		<tag k="ssr:stedsnr" v="905374" />
	</node>
	<node lat="60.86892500279336" lon="10.276133341320262" id="-25295">
		<tag k="alt_name" v="Lemyra søndre" />
		<tag k="name" v="Søre Lemyra" />
		<tag k="natural" v="wetland" />
		<tag k="ssr:stedsnr" v="910510" />
	</node>
	<node lat="60.543525000574654" lon="10.227541659176662" id="-25302">
		<tag k="name" v="Langmyra" />
		<tag k="natural" v="wetland" />
		<tag k="ssr:stedsnr" v="917531" />
	</node>
	<node lat="60.81234166709675" lon="10.345808325957695" id="-25312">
		<tag k="name" v="Tjernshaugmyra" />
		<tag k="natural" v="wetland" />
		<tag k="ssr:stedsnr" v="919954" />
	</node>
	<node lat="60.750441669121344" lon="10.422077780687074" id="-25321">
		<tag k="historic" v="shieling" />
		<tag k="name" v="Østre Kulbotn" />
		<tag k="place" v="locality" />
		<tag k="ssr:stedsnr" v="951390" />
	</node>
	<node lat="60.58760833239079" lon="10.40904723107956" id="-25326">
		<tag k="name" v="Bjørvassvolla" />
		<tag k="place" v="locality" />
		<tag k="ssr:stedsnr" v="966187" />
	</node>
	<node lat="60.68531111337746" lon="10.237811119335145" id="-25344">
		<tag k="name" v="Puttmyra" />
		<tag k="natural" v="wetland" />
		<tag k="ssr:stedsnr" v="6749" />
	</node>
	<node lat="60.695225002868966" lon="10.202075006978248" id="-25361">
		<tag k="name" v="Kumpelifløyta" />
		<tag k="natural" v="wetland" />
		<tag k="ssr:stedsnr" v="7670" />
	</node>
</osm>
