<?xml version="1.0" encoding="UTF-8"?>
<osm version="0.6" generator="osmapis">
	<node lat="60.72963610981883" lon="10.45212500045612" id="-17247">
		<tag k="fixme" v="consider natural=peak for the most distinct mountains in the district" />
		<tag k="name" v="Høgbrenna" />
		<tag k="natural" v="hill" />
		<tag k="place" v="locality" />
		<tag k="ssr:stedsnr" v="7409" />
	</node>
	<node lat="60.5611704289816" lon="10.220481857346737" id="-17251">
		<tag k="alt_name" v="Luddetjennshøgda" />
		<tag k="name" v="Luddetjernhaugen" />
		<tag k="natural" v="hill" />
		<tag k="place" v="locality" />
		<tag k="ssr:stedsnr" v="7507" />
	</node>
	<node lat="60.63068055555363" lon="10.228650000869152" id="-17252">
		<tag k="alt_name" v="Svarttjenndalen" />
		<tag k="name" v="Svarttjerndalen" />
		<tag k="natural" v="valley" />
		<tag k="place" v="locality" />
		<tag k="ssr:stedsnr" v="7614" />
	</node>
	<node lat="60.65185555177025" lon="10.153761109596788" id="-17253">
		<tag k="name" v="Skrankelia" />
		<tag k="natural" v="slope" />
		<tag k="place" v="locality" />
		<tag k="ssr:stedsnr" v="7616" />
	</node>
	<node lat="60.748750002980806" lon="10.386133335330815" id="-17266">
		<tag k="name" v="Nyveghaugen" />
		<tag k="natural" v="hill" />
		<tag k="place" v="locality" />
		<tag k="ssr:stedsnr" v="40377" />
	</node>
	<node lat="60.64416666280512" lon="10.150908331319936" id="-17270">
		<tag k="name" v="Frysihelbakka" />
		<tag k="natural" v="slope" />
		<tag k="place" v="locality" />
		<tag k="ssr:stedsnr" v="41102" />
	</node>
	<node lat="60.61941944077072" lon="10.39562777556091" id="-17283">
		<tag k="fixme" v="consider natural=peak for the most distinct mountains in the district" />
		<tag k="name" v="Øvståsberget" />
		<tag k="natural" v="hill" />
		<tag k="place" v="locality" />
		<tag k="ssr:stedsnr" v="238242" />
	</node>
	<node lat="60.7552472228399" lon="10.191908325476984" id="-17287">
		<tag k="name" v="Elasseilen" />
		<tag k="natural" v="valley" />
		<tag k="place" v="locality" />
		<tag k="ssr:stedsnr" v="238371" />
	</node>
	<node lat="60.760883334657436" lon="10.28109722816124" id="-17294">
		<tag k="name" v="Frøkenbenna" />
		<tag k="natural" v="hill" />
		<tag k="place" v="locality" />
		<tag k="ssr:stedsnr" v="238851" />
	</node>
	<node lat="60.53775832986301" lon="10.270508324850885" id="-17297">
		<tag k="name" v="Eliasdalen" />
		<tag k="natural" v="valley" />
		<tag k="place" v="locality" />
		<tag k="ssr:stedsnr" v="56507" />
	</node>
	<node lat="60.56294444443655" lon="10.276849996686254" id="-17308">
		<tag k="name" v="Surebodalen" />
		<tag k="natural" v="valley" />
		<tag k="place" v="locality" />
		<tag k="ssr:stedsnr" v="56519" />
	</node>
	<node lat="60.59281388662544" lon="10.162200001269486" id="-17312">
		<tag k="alt_name" v="Breitjennshøgda" />
		<tag k="name" v="Breitjernshøgda" />
		<tag k="natural" v="hill" />
		<tag k="place" v="locality" />
		<tag k="ssr:stedsnr" v="56901" />
	</node>
	<node lat="60.61625833033593" lon="10.444541665361438" id="-17314">
		<tag k="fixme" v="consider natural=peak for the most distinct mountains in the district" />
		<tag k="name" v="Trevassåsen" />
		<tag k="natural" v="hill" />
		<tag k="place" v="locality" />
		<tag k="ssr:stedsnr" v="67242" />
	</node>
	<node lat="60.624666664328245" lon="10.156827776016106" id="-17331">
		<tag k="fixme" v="consider natural=peak for the most distinct mountains in the district" />
		<tag k="name" v="Gråskallen" />
		<tag k="natural" v="hill" />
		<tag k="place" v="locality" />
		<tag k="ssr:stedsnr" v="68686" />
	</node>
	<node lat="60.627852780161504" lon="10.230513890289068" id="-17332">
		<tag k="name" v="Mana" />
		<tag k="natural" v="hill" />
		<tag k="place" v="locality" />
		<tag k="ssr:stedsnr" v="68696" />
	</node>
	<node lat="60.782561109944865" lon="10.33635000886948" id="-17339">
		<tag k="name" v="Hågåhaugen" />
		<tag k="natural" v="hill" />
		<tag k="place" v="locality" />
		<tag k="ssr:stedsnr" v="70637" />
	</node>
	<node lat="60.722655556219564" lon="10.31089999168603" id="-17343">
		<tag k="name" v="Fransehullet" />
		<tag k="place" v="locality" />
		<tag k="ssr:stedsnr" v="82709" />
	</node>
	<node lat="60.75466111058851" lon="10.407494449384293" id="-17346">
		<tag k="name" v="Puttmyrlia" />
		<tag k="natural" v="slope" />
		<tag k="place" v="locality" />
		<tag k="ssr:stedsnr" v="101361" />
	</node>
	<node lat="60.682275002018386" lon="10.081413892068165" id="-17358">
		<tag k="name" v="Storhaugen" />
		<tag k="natural" v="hill" />
		<tag k="place" v="locality" />
		<tag k="ssr:stedsnr" v="249671" />
	</node>
	<node lat="60.57029444139337" lon="10.142538891428837" id="-17381">
		<tag k="alt_name" v="Spetmyrhøgda" />
		<tag k="name" v="Spettmyrhøgda" />
		<tag k="natural" v="hill" />
		<tag k="place" v="locality" />
		<tag k="ssr:stedsnr" v="250595" />
	</node>
	<node lat="60.62069721789381" lon="10.41285555539658" id="-17384">
		<tag k="name" v="Kongen" />
		<tag k="natural" v="hill" />
		<tag k="place" v="locality" />
		<tag k="ssr:stedsnr" v="116228" />
	</node>
	<node lat="60.60148055750061" lon="10.531138885710698" id="-17397">
		<tag k="name" v="Skvalaberga" />
		<tag k="natural" v="hill" />
		<tag k="place" v="locality" />
		<tag k="ssr:stedsnr" v="116374" />
	</node>
	<node lat="60.56091666500458" lon="10.26103332914005" id="-17399">
		<tag k="alt_name" v="Abbortjernslia" />
		<tag k="name" v="Åbbortjennslia" />
		<tag k="natural" v="slope" />
		<tag k="place" v="locality" />
		<tag k="ssr:stedsnr" v="116504" />
	</node>
	<node lat="60.546480553084976" lon="10.283216662206412" id="-17400">
		<tag k="name" v="Langnesberget" />
		<tag k="natural" v="hill" />
		<tag k="place" v="locality" />
		<tag k="ssr:stedsnr" v="116510" />
	</node>
	<node lat="60.86466666984318" lon="10.28045556197011" id="-17408">
		<tag k="name" v="Mosemyrhøgda" />
		<tag k="natural" v="hill" />
		<tag k="place" v="locality" />
		<tag k="ssr:stedsnr" v="117205" />
	</node>
	<node lat="60.84635277947756" lon="10.301694449597417" id="-17409">
		<tag k="name" v="Misundt" />
		<tag k="place" v="locality" />
		<tag k="ssr:stedsnr" v="117212" />
	</node>
	<node lat="60.68074722524377" lon="10.393761112541872" id="-17411">
		<tag k="name" v="Brennabakka" />
		<tag k="natural" v="slope" />
		<tag k="place" v="locality" />
		<tag k="ssr:stedsnr" v="117410" />
	</node>
	<node lat="60.62161388514281" lon="10.231158332105707" id="-17439">
		<tag k="alt_name" v="Gilderskansen" />
		<tag k="name" v="Gildreskansen" />
		<tag k="natural" v="hill" />
		<tag k="place" v="locality" />
		<tag k="ssr:stedsnr" v="128650" />
	</node>
	<node lat="60.776374996925796" lon="10.194480562608048" id="-17452">
		<tag k="fixme" v="consider natural=peak for the most distinct mountains in the district" />
		<tag k="name" v="Vikerkampen" />
		<tag k="natural" v="hill" />
		<tag k="place" v="locality" />
		<tag k="ssr:stedsnr" v="130612" />
	</node>
	<node lat="60.76271666307619" lon="10.157538889414283" id="-17459">
		<tag k="name" v="Langhaugane" />
		<tag k="natural" v="hill" />
		<tag k="place" v="locality" />
		<tag k="ssr:stedsnr" v="252720" />
	</node>
	<node lat="60.84857500325898" lon="10.371858327298494" id="-17462">
		<tag k="name" v="Knivbakkhaugen" />
		<tag k="natural" v="hill" />
		<tag k="place" v="locality" />
		<tag k="ssr:stedsnr" v="162069" />
	</node>
	<node lat="60.71651388698322" lon="10.42898888921062" id="-17464">
		<tag k="name" v="Grytbekklia" />
		<tag k="natural" v="slope" />
		<tag k="place" v="locality" />
		<tag k="ssr:stedsnr" v="162415" />
	</node>
	<node lat="60.59945833106741" lon="10.269136104356406" id="-17466">
		<tag k="name" v="Kneet" />
		<tag k="natural" v="ridge" />
		<tag k="place" v="locality" />
		<tag k="ssr:stedsnr" v="162606" />
	</node>
	<node lat="60.85106389181177" lon="10.309838895294051" id="-17468">
		<tag k="name" v="Ladeslette" />
		<tag k="place" v="locality" />
		<tag k="ssr:stedsnr" v="162703" />
	</node>
	<node lat="60.632113885857684" lon="10.416983331011593" id="-17475">
		<tag k="name" v="Tunnelbrenna" />
		<tag k="place" v="locality" />
		<tag k="ssr:stedsnr" v="177260" />
	</node>
	<node lat="60.57464444188552" lon="10.452836104912125" id="-17481">
		<tag k="name" v="Ringstadstormyrhalsen" />
		<tag k="natural" v="valley" />
		<tag k="place" v="locality" />
		<tag k="ssr:stedsnr" v="177156" />
	</node>
	<node lat="60.549672222039774" lon="10.197936117507524" id="-17482">
		<tag k="name" v="Åtedalen" />
		<tag k="natural" v="valley" />
		<tag k="place" v="locality" />
		<tag k="ssr:stedsnr" v="177514" />
	</node>
	<node lat="60.67438333232558" lon="10.294777769155079" id="-17488">
		<tag k="name" v="Torbrennhaugen" />
		<tag k="natural" v="hill" />
		<tag k="place" v="locality" />
		<tag k="ssr:stedsnr" v="177726" />
	</node>
	<node lat="60.702800004410314" lon="10.089138881147926" id="-17503">
		<tag k="alt_name" v="Eftashøgda" />
		<tag k="name" v="Eftashaugen" />
		<tag k="natural" v="hill" />
		<tag k="place" v="locality" />
		<tag k="ssr:stedsnr" v="189674" />
	</node>
	<node lat="60.8133861152285" lon="10.159669437266318" id="-17507">
		<tag k="alt_name" v="Bergvasshøgda" />
		<tag k="name" v="Bergevasshøgda" />
		<tag k="natural" v="hill" />
		<tag k="place" v="locality" />
		<tag k="ssr:stedsnr" v="191554" />
	</node>
	<node lat="60.72525000313829" lon="10.176152769209535" id="-17509">
		<tag k="name" v="Nysæterhaugen" />
		<tag k="natural" v="hill" />
		<tag k="place" v="locality" />
		<tag k="ssr:stedsnr" v="263513" />
	</node>
	<node lat="60.6626138914948" lon="10.17543611891151" id="-17514">
		<tag k="name" v="Røyrpip" />
		<tag k="place" v="locality" />
		<tag k="ssr:stedsnr" v="223076" />
	</node>
	<node lat="60.646572221543" lon="10.168213885689896" id="-17515">
		<tag k="name" v="Spelhusbakken" />
		<tag k="natural" v="slope" />
		<tag k="place" v="locality" />
		<tag k="ssr:stedsnr" v="223088" />
	</node>
	<node lat="60.63190833659125" lon="10.190591661392935" id="-17525">
		<tag k="name" v="Jugerbakken" />
		<tag k="natural" v="slope" />
		<tag k="place" v="locality" />
		<tag k="ssr:stedsnr" v="238089" />
	</node>
	<node lat="60.66875555555705" lon="10.457463892979144" id="-17526">
		<tag k="name" v="Sollihøgda" />
		<tag k="natural" v="hill" />
		<tag k="place" v="locality" />
		<tag k="ssr:stedsnr" v="238299" />
	</node>
	<node lat="60.54766111481712" lon="10.24358333954791" id="-17529">
		<tag k="name" v="Gravåbrøttet" />
		<tag k="natural" v="slope" />
		<tag k="place" v="locality" />
		<tag k="ssr:stedsnr" v="238510" />
	</node>
	<node lat="60.55346666529665" lon="10.24754445244188" id="-17530">
		<tag k="name" v="Staksmyrlia" />
		<tag k="natural" v="slope" />
		<tag k="place" v="locality" />
		<tag k="ssr:stedsnr" v="238513" />
	</node>
	<node lat="60.55876666369198" lon="10.272277777974265" id="-17532">
		<tag k="name" v="Lauvlia" />
		<tag k="natural" v="slope" />
		<tag k="place" v="locality" />
		<tag k="ssr:stedsnr" v="238534" />
	</node>
	<node lat="60.57058888981297" lon="10.239597221977002" id="-17539">
		<tag k="alt_name" v="Maurtjennshaugen" />
		<tag k="name" v="Maurstjernshaugen" />
		<tag k="natural" v="hill" />
		<tag k="place" v="locality" />
		<tag k="ssr:stedsnr" v="238907" />
	</node>
	<node lat="60.86683333697141" lon="10.273855546597034" id="-17546">
		<tag k="name" v="Myrhaugen" />
		<tag k="natural" v="hill" />
		<tag k="place" v="locality" />
		<tag k="ssr:stedsnr" v="282695" />
	</node>
	<node lat="60.56456388826832" lon="10.28023611596929" id="-17547">
		<tag k="name" v="Surebobrenna" />
		<tag k="natural" v="slope" />
		<tag k="place" v="locality" />
		<tag k="ssr:stedsnr" v="283371" />
	</node>
	<node lat="60.639583337073596" lon="10.06710555239039" id="-17550">
		<tag k="name" v="Svartvasshaugen" />
		<tag k="natural" v="hill" />
		<tag k="place" v="locality" />
		<tag k="ssr:stedsnr" v="284814" />
	</node>
	<node lat="60.83094444185614" lon="10.34771110363788" id="-17552">
		<tag k="name" v="Sæterhaugen" />
		<tag k="natural" v="hill" />
		<tag k="place" v="locality" />
		<tag k="ssr:stedsnr" v="298106" />
	</node>
	<node lat="60.8088055564796" lon="10.29368333041557" id="-17562">
		<tag k="name" v="Tjernsvehaugen" />
		<tag k="natural" v="hill" />
		<tag k="place" v="locality" />
		<tag k="ssr:stedsnr" v="465028" />
	</node>
	<node lat="60.54708889236222" lon="10.23185278562001" id="-17583">
		<tag k="alt_name" v="Tretjennshøgda" />
		<tag k="name" v="Totjernkollen" />
		<tag k="natural" v="hill" />
		<tag k="place" v="locality" />
		<tag k="ssr:stedsnr" v="310516" />
	</node>
	<node lat="60.60637222352124" lon="10.49684443653537" id="-17627">
		<tag k="alt_name" v="Geittjennstoppen" />
		<tag k="name" v="Geittjernstoppen" />
		<tag k="natural" v="hill" />
		<tag k="place" v="locality" />
		<tag k="ssr:stedsnr" v="359414" />
	</node>
	<node lat="60.567786107304734" lon="10.233894452362387" id="-17637">
		<tag k="name" v="Nøkkeldalen" />
		<tag k="natural" v="valley" />
		<tag k="place" v="locality" />
		<tag k="ssr:stedsnr" v="359903" />
	</node>
	<node lat="60.70599722033022" lon="10.382438884641392" id="-17639">
		<tag k="fixme" v="consider natural=peak for the most distinct mountains in the district" />
		<tag k="name" v="Helvetesberget" />
		<tag k="natural" v="hill" />
		<tag k="place" v="locality" />
		<tag k="ssr:stedsnr" v="370424" />
	</node>
	<node lat="60.60614999806414" lon="10.45425277493653" id="-17657">
		<tag k="name" v="Puttmyrlia" />
		<tag k="natural" v="slope" />
		<tag k="place" v="locality" />
		<tag k="ssr:stedsnr" v="480191" />
	</node>
	<node lat="60.844908331026204" lon="10.30458333758816" id="-17661">
		<tag k="name" v="Slåttslette" />
		<tag k="place" v="locality" />
		<tag k="ssr:stedsnr" v="480144" />
	</node>
	<node lat="60.734213892081044" lon="10.417316671412483" id="-17671">
		<tag k="fixme" v="consider natural=peak for the most distinct mountains in the district" />
		<tag k="name" v="Sjåheimen" />
		<tag k="natural" v="hill" />
		<tag k="place" v="locality" />
		<tag k="ssr:stedsnr" v="480366" />
	</node>
	<node lat="60.7824361088264" lon="10.325588879855404" id="-17681">
		<tag k="alt_name" v="Gjøtjennsberget" />
		<tag k="name" v="Gjøtjernberget" />
		<tag k="natural" v="hill" />
		<tag k="place" v="locality" />
		<tag k="ssr:stedsnr" v="480883" />
	</node>
	<node lat="60.75849166241533" lon="10.328141667707767" id="-17683">
		<tag k="name" v="Flisbanehaugen" />
		<tag k="natural" v="hill" />
		<tag k="place" v="locality" />
		<tag k="ssr:stedsnr" v="480928" />
	</node>
	<node lat="60.654724998633135" lon="10.093766657619033" id="-17690">
		<tag k="name" v="Hasvalsæterdalen" />
		<tag k="natural" v="valley" />
		<tag k="place" v="locality" />
		<tag k="ssr:stedsnr" v="404988" />
	</node>
	<node lat="60.84466388922984" lon="10.321322219165836" id="-17702">
		<tag k="name" v="Rognhaugen" />
		<tag k="natural" v="hill" />
		<tag k="place" v="locality" />
		<tag k="ssr:stedsnr" v="405699" />
	</node>
	<node lat="60.79962221883731" lon="10.316633326007969" id="-17712">
		<tag k="alt_name" v="Øvre Gåstjennshøgda" />
		<tag k="name" v="Øvre Gåstjernshøgda" />
		<tag k="natural" v="hill" />
		<tag k="place" v="locality" />
		<tag k="ssr:stedsnr" v="420890" />
	</node>
	<node lat="60.57027777504237" lon="10.162005561726877" id="-17717">
		<tag k="name" v="Styggdalen" />
		<tag k="natural" v="valley" />
		<tag k="place" v="locality" />
		<tag k="ssr:stedsnr" v="420903" />
	</node>
	<node lat="60.70179999833471" lon="10.189300008075696" id="-17720">
		<tag k="name" v="Drammen" />
		<tag k="place" v="locality" />
		<tag k="ssr:stedsnr" v="492696" />
	</node>
	<node lat="60.613441662331674" lon="10.11802222505806" id="-17734">
		<tag k="name" v="Dalavasslia" />
		<tag k="natural" v="slope" />
		<tag k="place" v="locality" />
		<tag k="ssr:stedsnr" v="432639" />
	</node>
	<node lat="60.66332499978246" lon="10.249355550881303" id="-17738">
		<tag k="fixme" v="consider natural=peak for the most distinct mountains in the district" />
		<tag k="name" v="Persvehaugen" />
		<tag k="natural" v="hill" />
		<tag k="place" v="locality" />
		<tag k="ssr:stedsnr" v="432695" />
	</node>
	<node lat="60.58998055873507" lon="10.416291672438549" id="-17753">
		<tag k="fixme" v="consider natural=peak for the most distinct mountains in the district" />
		<tag k="name" v="Kleivene" />
		<tag k="natural" v="hill" />
		<tag k="place" v="locality" />
		<tag k="ssr:stedsnr" v="492145" />
	</node>
	<node lat="60.741100000121925" lon="10.075836116617081" id="-17777">
		<tag k="name" v="Vestlihaugen" />
		<tag k="natural" v="hill" />
		<tag k="place" v="locality" />
		<tag k="ssr:stedsnr" v="492750" />
	</node>
	<node lat="60.55971111215647" lon="10.139038881736338" id="-17799">
		<tag k="alt_name" v="Ellingsandhøgda" />
		<tag k="name" v="Ellingsandkollen" />
		<tag k="natural" v="hill" />
		<tag k="place" v="locality" />
		<tag k="ssr:stedsnr" v="674521" />
	</node>
	<node lat="60.63039999685956" lon="10.246147228146198" id="-17812">
		<tag k="name" v="Tørrvassdalen" />
		<tag k="natural" v="valley" />
		<tag k="place" v="locality" />
		<tag k="ssr:stedsnr" v="674688" />
	</node>
	<node lat="60.732919446465395" lon="10.014391663567746" id="-17816">
		<tag k="alt_name" v="Skjellingshovde, store" />
		<tag k="fixme" v="consider natural=peak for the most distinct mountains in the district" />
		<tag k="name" v="Store Skjellingshovde" />
		<tag k="natural" v="hill" />
		<tag k="place" v="locality" />
		<tag k="ssr:stedsnr" v="674776" />
	</node>
	<node lat="60.67504444437391" lon="10.13491945227305" id="-17819">
		<tag k="name" v="Bjørlihovde" />
		<tag k="natural" v="hill" />
		<tag k="place" v="locality" />
		<tag k="ssr:stedsnr" v="674742" />
	</node>
	<node lat="60.58981388544125" lon="10.532327785738495" id="-17830">
		<tag k="name" v="Granlia" />
		<tag k="natural" v="slope" />
		<tag k="place" v="locality" />
		<tag k="ssr:stedsnr" v="675209" />
	</node>
	<node lat="60.59068610733521" lon="10.405313889657828" id="-17838">
		<tag k="name" v="Trollstigen" />
		<tag k="natural" v="slope" />
		<tag k="place" v="locality" />
		<tag k="ssr:stedsnr" v="480156" />
	</node>
	<node lat="60.603049998258925" lon="10.083305548702073" id="-17847">
		<tag k="name" v="Dalhaugen" />
		<tag k="natural" v="hill" />
		<tag k="place" v="locality" />
		<tag k="ssr:stedsnr" v="480802" />
	</node>
	<node lat="60.57883888466928" lon="10.38868332475219" id="-17855">
		<tag k="fixme" v="consider natural=peak for the most distinct mountains in the district" />
		<tag k="name" v="Gullbåra" />
		<tag k="natural" v="hill" />
		<tag k="place" v="locality" />
		<tag k="ssr:stedsnr" v="492117" />
	</node>
	<node lat="60.73112777829896" lon="10.116499999354852" id="-17870">
		<tag k="name" v="Saghaugen" />
		<tag k="natural" v="hill" />
		<tag k="place" v="locality" />
		<tag k="ssr:stedsnr" v="492769" />
	</node>
	<node lat="60.61482777638801" lon="10.194725003226747" id="-17880">
		<tag k="name" v="Lomsjølia" />
		<tag k="natural" v="slope" />
		<tag k="place" v="locality" />
		<tag k="ssr:stedsnr" v="541069" />
	</node>
	<node lat="60.68710000197398" lon="10.14211389687796" id="-17882">
		<tag k="name" v="Sauhaugen" />
		<tag k="natural" v="hill" />
		<tag k="place" v="locality" />
		<tag k="ssr:stedsnr" v="541114" />
	</node>
	<node lat="60.58210000143977" lon="10.51784722979815" id="-17884">
		<tag k="name" v="Midtre Glåmhaugen" />
		<tag k="natural" v="hill" />
		<tag k="place" v="locality" />
		<tag k="ssr:stedsnr" v="541409" />
	</node>
	<node lat="60.70675278112673" lon="10.430213884855764" id="-17892">
		<tag k="name" v="Storsvelia" />
		<tag k="natural" v="slope" />
		<tag k="place" v="locality" />
		<tag k="ssr:stedsnr" v="541389" />
	</node>
	<node lat="60.540791666351915" lon="10.273091674270086" id="-17893">
		<tag k="name" v="Vardehaugen" />
		<tag k="natural" v="hill" />
		<tag k="place" v="locality" />
		<tag k="ssr:stedsnr" v="541503" />
	</node>
	<node lat="60.61118888477983" lon="10.107358325734316" id="-17895">
		<tag k="name" v="Bjønndalen" />
		<tag k="natural" v="valley" />
		<tag k="place" v="locality" />
		<tag k="ssr:stedsnr" v="541825" />
	</node>
	<node lat="60.68021666279648" lon="10.280902773190157" id="-17897">
		<tag k="name" v="Bjørlihøgda" />
		<tag k="natural" v="hill" />
		<tag k="place" v="locality" />
		<tag k="ssr:stedsnr" v="541706" />
	</node>
	<node lat="60.68005555744932" lon="10.294702781070972" id="-17898">
		<tag k="name" v="Sisselrotdalen" />
		<tag k="natural" v="valley" />
		<tag k="place" v="locality" />
		<tag k="ssr:stedsnr" v="541707" />
	</node>
	<node lat="60.799547221415125" lon="10.346444449215273" id="-17900">
		<tag k="name" v="Djupdalslia" />
		<tag k="natural" v="slope" />
		<tag k="place" v="locality" />
		<tag k="ssr:stedsnr" v="541904" />
	</node>
	<node lat="60.56873610832126" lon="10.115402785794494" id="-17911">
		<tag k="name" v="Halvvegeskollen" />
		<tag k="natural" v="hill" />
		<tag k="place" v="locality" />
		<tag k="ssr:stedsnr" v="553600" />
	</node>
	<node lat="60.63012500196076" lon="10.263280561604239" id="-17918">
		<tag k="name" v="Osphaugdalen" />
		<tag k="natural" v="valley" />
		<tag k="place" v="locality" />
		<tag k="ssr:stedsnr" v="553696" />
	</node>
	<node lat="60.57277221839015" lon="10.268891664538316" id="-17938">
		<tag k="name" v="Bjørnrudsæterhaugen" />
		<tag k="natural" v="hill" />
		<tag k="place" v="locality" />
		<tag k="ssr:stedsnr" v="587447" />
	</node>
	<node lat="60.849074997236734" lon="10.34847500693415" id="-17940">
		<tag k="name" v="Svartbekklia" />
		<tag k="natural" v="slope" />
		<tag k="place" v="locality" />
		<tag k="ssr:stedsnr" v="587704" />
	</node>
	<node lat="60.73532778215178" lon="10.293049993242516" id="-17942">
		<tag k="name" v="Kiselberget" />
		<tag k="natural" v="hill" />
		<tag k="place" v="locality" />
		<tag k="ssr:stedsnr" v="587768" />
	</node>
	<node lat="60.606702773575584" lon="10.38522222028021" id="-17947">
		<tag k="name" v="Furuhaugen" />
		<tag k="natural" v="hill" />
		<tag k="place" v="locality" />
		<tag k="ssr:stedsnr" v="601209" />
	</node>
	<node lat="60.671472223961544" lon="10.409972226955214" id="-17948">
		<tag k="name" v="Vassendmoen" />
		<tag k="place" v="locality" />
		<tag k="ssr:stedsnr" v="601248" />
	</node>
	<node lat="60.73296111067397" lon="10.39320833081493" id="-17953">
		<tag k="fixme" v="consider natural=peak for the most distinct mountains in the district" />
		<tag k="name" v="Engelsåsen" />
		<tag k="natural" v="hill" />
		<tag k="place" v="locality" />
		<tag k="ssr:stedsnr" v="601366" />
	</node>
	<node lat="60.66435000084103" lon="10.392291667793792" id="-17965">
		<tag k="alt_name" v="Skranken" />
		<tag k="fixme" v="consider natural=peak for the most distinct mountains in the district" />
		<tag k="name" v="Skrankehøgda" />
		<tag k="natural" v="hill" />
		<tag k="place" v="locality" />
		<tag k="ssr:stedsnr" v="613308" />
	</node>
	<node lat="60.71833888646606" lon="10.215913896501092" id="-17974">
		<tag k="name" v="Sæterhaugen" />
		<tag k="natural" v="hill" />
		<tag k="place" v="locality" />
		<tag k="ssr:stedsnr" v="613788" />
	</node>
	<node lat="60.869216669264425" lon="10.283299995697458" id="-17987">
		<tag k="name" v="Mjetali" />
		<tag k="natural" v="slope" />
		<tag k="place" v="locality" />
		<tag k="ssr:stedsnr" v="645703" />
	</node>
	<node lat="60.77455277748141" lon="10.379861115339644" id="-17994">
		<tag k="name" v="Bergsholen" />
		<tag k="place" v="locality" />
		<tag k="ssr:stedsnr" v="707481" />
	</node>
	<node lat="60.82126944839015" lon="10.322241661185878" id="-17996">
		<tag k="name" v="Rundhaugen" />
		<tag k="natural" v="hill" />
		<tag k="place" v="locality" />
		<tag k="ssr:stedsnr" v="708042" />
	</node>
	<node lat="60.667311112465576" lon="10.182911117294172" id="-18001">
		<tag k="name" v="Styggdalen" />
		<tag k="natural" v="valley" />
		<tag k="place" v="locality" />
		<tag k="ssr:stedsnr" v="708086" />
	</node>
	<node lat="60.73782222165478" lon="10.370116666399404" id="-18005">
		<tag k="name" v="Tonvaldsberget" />
		<tag k="natural" v="hill" />
		<tag k="place" v="locality" />
		<tag k="ssr:stedsnr" v="708396" />
	</node>
	<node lat="60.57109444554901" lon="10.279216661193724" id="-18008">
		<tag k="name" v="Kampen" />
		<tag k="natural" v="hill" />
		<tag k="place" v="locality" />
		<tag k="ssr:stedsnr" v="708449" />
	</node>
	<node lat="60.704594442443884" lon="10.278188882819405" id="-18009">
		<tag k="name" v="Kumpelidalen" />
		<tag k="natural" v="valley" />
		<tag k="place" v="locality" />
		<tag k="ssr:stedsnr" v="708655" />
	</node>
	<node lat="60.6665444415019" lon="10.097613894322388" id="-18021">
		<tag k="name" v="Dumpidal" />
		<tag k="natural" v="valley" />
		<tag k="place" v="locality" />
		<tag k="ssr:stedsnr" v="708992" />
	</node>
	<node lat="60.85820555897842" lon="10.30967221459492" id="-18041">
		<tag k="name" v="Fårengslette" />
		<tag k="place" v="locality" />
		<tag k="ssr:stedsnr" v="891689" />
	</node>
	<node lat="60.65797499921723" lon="10.135336110026067" id="-18049">
		<tag k="name" v="Lisæterhøgda" />
		<tag k="natural" v="hill" />
		<tag k="place" v="locality" />
		<tag k="ssr:stedsnr" v="674657" />
	</node>
	<node lat="60.58255278022179" lon="10.263027780063112" id="-18052">
		<tag k="alt_name" v="Tornebrennlia" />
		<tag k="name" v="Tornebrannlia" />
		<tag k="natural" v="hill" />
		<tag k="place" v="locality" />
		<tag k="ssr:stedsnr" v="674567" />
	</node>
	<node lat="60.74643333063521" lon="10.09163056334128" id="-18056">
		<tag k="fixme" v="consider natural=peak for the most distinct mountains in the district" />
		<tag k="name" v="Gullfoten" />
		<tag k="natural" v="hill" />
		<tag k="place" v="locality" />
		<tag k="ssr:stedsnr" v="674758" />
	</node>
	<node lat="60.76229999841454" lon="10.153211117465547" id="-18066">
		<tag k="name" v="Brattlia" />
		<tag k="natural" v="slope" />
		<tag k="place" v="locality" />
		<tag k="ssr:stedsnr" v="677628" />
	</node>
	<node lat="60.714450003305515" lon="10.106594442844651" id="-18074">
		<tag k="name" v="Grevsjølia" />
		<tag k="natural" v="slope" />
		<tag k="place" v="locality" />
		<tag k="ssr:stedsnr" v="891895" />
	</node>
	<node lat="60.718283334051186" lon="10.322425005560177" id="-18077">
		<tag k="name" v="Nærløskluke" />
		<tag k="place" v="locality" />
		<tag k="ssr:stedsnr" v="689681" />
	</node>
	<node lat="60.715141664135544" lon="10.324972230214176" id="-18078">
		<tag k="name" v="Grønvold" />
		<tag k="place" v="locality" />
		<tag k="ssr:stedsnr" v="689683" />
	</node>
	<node lat="60.745208331836515" lon="10.199297221808871" id="-18090">
		<tag k="name" v="Tømmerrullhaugen" />
		<tag k="natural" v="hill" />
		<tag k="place" v="locality" />
		<tag k="ssr:stedsnr" v="723333" />
	</node>
	<node lat="60.55860000344869" lon="10.165099998143404" id="-18103">
		<tag k="alt_name" v="Gråskallhøgda" />
		<tag k="name" v="Gråskallen" />
		<tag k="natural" v="hill" />
		<tag k="place" v="locality" />
		<tag k="ssr:stedsnr" v="735509" />
	</node>
	<node lat="60.66886388917944" lon="10.389602773617826" id="-18124">
		<tag k="name" v="Damskalet" />
		<tag k="natural" v="valley" />
		<tag k="place" v="locality" />
		<tag k="ssr:stedsnr" v="905267" />
	</node>
	<node lat="60.58980555185106" lon="10.366275002107521" id="-18153">
		<tag k="fixme" v="consider natural=peak for the most distinct mountains in the district" />
		<tag k="name" v="Øståsen" />
		<tag k="natural" v="hill" />
		<tag k="place" v="locality" />
		<tag k="ssr:stedsnr" v="784580" />
	</node>
	<node lat="60.60247221969866" lon="10.149711111550802" id="-18159">
		<tag k="alt_name" v="Haratjennsdalen" />
		<tag k="name" v="Haratjernsdalen" />
		<tag k="natural" v="valley" />
		<tag k="place" v="locality" />
		<tag k="ssr:stedsnr" v="784898" />
	</node>
	<node lat="60.70997499977767" lon="9.999175008789454" id="-18181">
		<tag k="name" v="Buvasshøgda" />
		<tag k="natural" v="hill" />
		<tag k="place" v="locality" />
		<tag k="ssr:stedsnr" v="796817" />
	</node>
	<node lat="60.75433611065672" lon="10.09395000321065" id="-18192">
		<tag k="name" v="Vikersæterskardet" />
		<tag k="natural" v="valley" />
		<tag k="place" v="locality" />
		<tag k="ssr:stedsnr" v="798699" />
	</node>
	<node lat="60.619191667379226" lon="10.280758336186423" id="-18200">
		<tag k="alt_name" v="Takkeberget" />
		<tag k="name" v="Takkeberga" />
		<tag k="natural" v="hill" />
		<tag k="place" v="locality" />
		<tag k="ssr:stedsnr" v="917657" />
	</node>
	<node lat="60.69138055745068" lon="10.030572222256016" id="-18203">
		<tag k="alt_name" v="Stolpetjennshøgda" />
		<tag k="name" v="Stolpetjernshøgda" />
		<tag k="natural" v="hill" />
		<tag k="place" v="locality" />
		<tag k="ssr:stedsnr" v="917687" />
	</node>
	<node lat="60.68135000076209" lon="10.248461103216357" id="-18208">
		<tag k="fixme" v="consider natural=peak for the most distinct mountains in the district" />
		<tag k="name" v="Rognholen" />
		<tag k="natural" v="hill" />
		<tag k="place" v="locality" />
		<tag k="ssr:stedsnr" v="917730" />
	</node>
	<node lat="60.64110277384417" lon="10.264622216351285" id="-18221">
		<tag k="name" v="Osphaugen" />
		<tag k="natural" v="hill" />
		<tag k="place" v="locality" />
		<tag k="ssr:stedsnr" v="917599" />
	</node>
	<node lat="60.6770055516446" lon="10.23198333189678" id="-18235">
		<tag k="name" v="Snertinn" />
		<tag k="place" v="locality" />
		<tag k="ssr:stedsnr" v="830107" />
	</node>
	<node lat="60.70441110917902" lon="10.19997777729289" id="-18237">
		<tag k="name" v="Flatlibrein" />
		<tag k="natural" v="hill" />
		<tag k="place" v="locality" />
		<tag k="ssr:stedsnr" v="830224" />
	</node>
	<node lat="60.764408333130994" lon="10.389033332378942" id="-18241">
		<tag k="name" v="Stormyrholen" />
		<tag k="natural" v="hill" />
		<tag k="place" v="locality" />
		<tag k="ssr:stedsnr" v="830380" />
	</node>
	<node lat="60.59673610708969" lon="10.265980551837679" id="-18242">
		<tag k="name" v="Storsvehaugen" />
		<tag k="natural" v="hill" />
		<tag k="place" v="locality" />
		<tag k="ssr:stedsnr" v="830574" />
	</node>
	<node lat="60.64235833496289" lon="10.518633328402919" id="-18246">
		<tag k="fixme" v="consider natural=peak for the most distinct mountains in the district" />
		<tag k="name" v="Vollahaugen" />
		<tag k="natural" v="hill" />
		<tag k="place" v="locality" />
		<tag k="ssr:stedsnr" v="844224" />
	</node>
	<node lat="60.56868055852443" lon="10.464211109731526" id="-18248">
		<tag k="name" v="Sandseterhøgda" />
		<tag k="natural" v="hill" />
		<tag k="place" v="locality" />
		<tag k="ssr:stedsnr" v="845183" />
	</node>
	<node lat="60.66688888632506" lon="10.38965832926069" id="-18254">
		<tag k="name" v="Granumsåsen" />
		<tag k="natural" v="hill" />
		<tag k="place" v="locality" />
		<tag k="ssr:stedsnr" v="845291" />
	</node>
	<node lat="60.59890555313653" lon="10.2109388859624" id="-18262">
		<tag k="name" v="Bågåmyrdalen" />
		<tag k="natural" v="valley" />
		<tag k="place" v="locality" />
		<tag k="ssr:stedsnr" v="845909" />
	</node>
	<node lat="60.78574444865524" lon="10.286977773806514" id="-18263">
		<tag k="name" v="Slotthaugen" />
		<tag k="natural" v="hill" />
		<tag k="place" v="locality" />
		<tag k="ssr:stedsnr" v="845910" />
	</node>
	<node lat="60.56180833756084" lon="10.09608054715249" id="-18281">
		<tag k="name" v="Gråflein" />
		<tag k="natural" v="hill" />
		<tag k="place" v="locality" />
		<tag k="ssr:stedsnr" v="857530" />
	</node>
	<node lat="60.692430559122855" lon="10.15303611332462" id="-18283">
		<tag k="name" v="Sjåframhøgda" />
		<tag k="natural" v="hill" />
		<tag k="place" v="locality" />
		<tag k="ssr:stedsnr" v="857704" />
	</node>
	<node lat="60.6980277754648" lon="10.114674994050644" id="-18285">
		<tag k="name" v="Klukkerholen" />
		<tag k="natural" v="hill" />
		<tag k="place" v="locality" />
		<tag k="ssr:stedsnr" v="857723" />
	</node>
	<node lat="60.64164999594771" lon="10.113313882170306" id="-18298">
		<tag k="alt_name" v="Gråballhøgda" />
		<tag k="name" v="Gråballhaugen" />
		<tag k="natural" v="hill" />
		<tag k="place" v="locality" />
		<tag k="ssr:stedsnr" v="931509" />
	</node>
	<node lat="60.75900277995438" lon="10.395124999325247" id="-18300">
		<tag k="name" v="Fremstadstykket" />
		<tag k="place" v="locality" />
		<tag k="ssr:stedsnr" v="890395" />
	</node>
	<node lat="60.77435833292776" lon="10.376891674213871" id="-18301">
		<tag k="name" v="Damslette" />
		<tag k="place" v="locality" />
		<tag k="ssr:stedsnr" v="890509" />
	</node>
	<node lat="60.568622218863005" lon="10.128116662091587" id="-18303">
		<tag k="name" v="Hornsbråten" />
		<tag k="natural" v="hill" />
		<tag k="place" v="locality" />
		<tag k="ssr:stedsnr" v="890855" />
	</node>
	<node lat="60.729741664773464" lon="10.420913884516853" id="-18310">
		<tag k="name" v="Sørgardseterdalen" />
		<tag k="natural" v="valley" />
		<tag k="place" v="locality" />
		<tag k="ssr:stedsnr" v="905375" />
	</node>
	<node lat="60.6320552472261" lon="10.035317250569499" id="-18321">
		<tag k="fixme" v="consider natural=peak for the most distinct mountains in the district" />
		<tag k="name" v="Øyvasskollen" />
		<tag k="natural" v="hill" />
		<tag k="place" v="locality" />
		<tag k="ssr:stedsnr" v="917607" />
	</node>
	<node lat="60.76344722644898" lon="10.192997230433894" id="-18338">
		<tag k="alt_name" v="Rustberget" />
		<tag k="fixme" v="consider natural=peak for the most distinct mountains in the district" />
		<tag k="name" v="Rostberget" />
		<tag k="natural" v="hill" />
		<tag k="place" v="locality" />
		<tag k="ssr:stedsnr" v="920735" />
	</node>
	<node lat="60.85094999607107" lon="10.328419451203159" id="-18349">
		<tag k="name" v="Hovslette" />
		<tag k="place" v="locality" />
		<tag k="ssr:stedsnr" v="951697" />
	</node>
	<node lat="60.796944445730695" lon="10.318175004502734" id="-18355">
		<tag k="alt_name" v="Ytre Gåstjennshøgda" />
		<tag k="name" v="Ytre Gåstjernshøgda" />
		<tag k="natural" v="hill" />
		<tag k="place" v="locality" />
		<tag k="ssr:stedsnr" v="966886" />
	</node>
	<node lat="60.7822194449866" lon="10.301508334544227" id="-18356">
		<tag k="name" v="Grushaugen" />
		<tag k="natural" v="hill" />
		<tag k="place" v="locality" />
		<tag k="ssr:stedsnr" v="966887" />
	</node>
	<node lat="60.60032636252626" lon="10.076092543079646" id="-18377">
		<tag k="alt_name" v="Brisketjennshøgda" />
		<tag k="name" v="Brisketjernhøgda" />
		<tag k="natural" v="hill" />
		<tag k="place" v="locality" />
		<tag k="ssr:stedsnr" v="7637" />
	</node>
	<node lat="60.5487250028551" lon="10.148869437752165" id="-18380">
		<tag k="alt_name" v="Skjellrøyskollen" />
		<tag k="fixme" v="consider natural=peak for the most distinct mountains in the district" />
		<tag k="name" v="Skillerøyskollen" />
		<tag k="natural" v="hill" />
		<tag k="place" v="locality" />
		<tag k="ssr:stedsnr" v="7491" />
	</node>
</osm>
