<?xml version="1.0" encoding="UTF-8"?>
<<<<<<< HEAD
<osm version="0.6" generator="osmapis">
	<node lat="60.7760833359297" lon="10.246147229692925" id="-17262">
=======
<osm generator="osmapis" version="0.6">
	<node id="-388095" lat="60.7760833359" lon="10.2461472297">
>>>>>>> e1d4bc35ff8a6074a6f2e91616a996b547c36f15
		<tag k="amenity" v="place_of_worship" />
		<tag k="denomination" v="lutheran" />
		<tag k="name" v="Fluberg kirke" />
		<tag k="religion" v="christian" />
		<tag k="ssr:stedsnr" v="9629" />
	</node>
<<<<<<< HEAD
	<node lat="60.69760278179104" lon="10.350963884300471" id="-17350">
=======
	<node id="-388943" lat="60.5803972242" lon="10.3332916586">
		<tag k="amenity" v="place_of_worship" />
		<tag k="denomination" v="lutheran" />
		<tag k="name" v="Enger kirke" />
		<tag k="religion" v="christian" />
		<tag k="ssr:stedsnr" v="674575" />
	</node>
	<node id="-389593" lat="60.657233337" lon="10.3830666629">
		<tag k="name" v="Vardhytta" />
		<tag k="place" v="locality" />
		<tag k="ssr:stedsnr" v="359294" />
	</node>
	<node id="-388751" lat="60.8334388915" lon="10.296022222">
>>>>>>> e1d4bc35ff8a6074a6f2e91616a996b547c36f15
		<tag k="amenity" v="place_of_worship" />
		<tag k="denomination" v="lutheran" />
		<tag k="name" v="Hov kirke" />
		<tag k="old_name" v="SÃ¸ndre Land" />
		<tag k="religion" v="christian" />
		<tag k="ssr:stedsnr" v="249398" />
	</node>
<<<<<<< HEAD
	<node lat="60.54614166767409" lon="10.292625006335847" id="-17533">
		<tag k="amenity" v="community_centre" />
		<tag k="name" v="Solberg" />
		<tag k="ssr:stedsnr" v="238535" />
	</node>
	<node lat="60.843427776812796" lon="10.244149995060184" id="-17684">
		<tag k="name" v="Puffen" />
		<tag k="place" v="locality" />
		<tag k="ssr:stedsnr" v="481991" />
	</node>
	<node lat="60.5803972242163" lon="10.333291658626461" id="-17802">
=======
	<node id="-389003" lat="60.6381499978" lon="10.3346333242">
		<tag k="amenity" v="place_of_worship" />
		<tag k="denomination" v="lutheran" />
		<tag k="name" v="Skute kirke" />
		<tag k="religion" v="christian" />
		<tag k="ssr:stedsnr" v="735620" />
	</node>
	<node id="-388202" lat="60.6976027818" lon="10.3509638843">
>>>>>>> e1d4bc35ff8a6074a6f2e91616a996b547c36f15
		<tag k="amenity" v="place_of_worship" />
		<tag k="denomination" v="lutheran" />
		<tag k="name" v="Enger kirke" />
		<tag k="religion" v="christian" />
		<tag k="ssr:stedsnr" v="674575" />
	</node>
	<node id="-389861" lat="60.7281111073" lon="10.313541673">
		<tag k="amenity" v="community_centre" />
		<tag k="name" v="Johannes Minde" />
		<tag k="ssr:stedsnr" v="553789" />
	</node>
	<node id="-388484" lat="60.8434277768" lon="10.2441499951">
		<tag k="name" v="Puffen" />
		<tag k="place" v="locality" />
		<tag k="ssr:stedsnr" v="481991" />
	</node>
	<node id="-388163" lat="60.5461416677" lon="10.2926250063">
		<tag k="amenity" v="community_centre" />
		<tag k="name" v="Solberg" />
		<tag k="ssr:stedsnr" v="238535" />
	</node>
	<node id="-388834" lat="60.5484361141" lon="10.3260166649">
		<tag k="amenity" v="community_centre" />
		<tag k="name" v="Enger forsamlingslokale" />
		<tag k="ssr:stedsnr" v="601384" />
	</node>
</osm>
