<?xml version="1.0" encoding="UTF-8"?>
<osm generator="osmapis" version="0.6">
	<node id="-731136" lat="68.9998916709" lon="16.5650055572">
		<tag k="name" v="Nergårdshamn" />
		<tag k="place" v="hamlet" />
		<tag k="ssr:stedsnr" v="177031" />
	</node>
	<node id="-731135" lat="68.9918666655" lon="16.5266916682">
		<tag k="name" v="Vollen" />
		<tag k="place" v="hamlet" />
		<tag k="ssr:stedsnr" v="177029" />
	</node>
	<node id="-733179" lat="68.7615555574" lon="16.5196222235">
		<tag k="fixme" v="consider tourism=alpine_hut or tourism=chalet" />
		<tag k="name" v="Maistua" />
		<tag k="ssr:stedsnr" v="867458" />
		<tag k="tourism" v="wilderness_hut" />
	</node>
	<node id="-731122" lat="68.7549777774" lon="16.3711249879">
		<tag k="name" v="Sommerro" />
		<tag k="place" v="isolated_dwelling" />
		<tag k="ssr:stedsnr" v="173927" />
	</node>
	<node id="-731114" lat="68.8900416679" lon="16.2527750021">
		<tag k="name" v="Inner-Elgsnes" />
		<tag k="place" v="farm" />
		<tag k="ssr:stedsnr" v="161711" />
	</node>
	<node id="-731113" lat="68.918108334" lon="16.2601722133">
		<tag k="name" v="Ytter-Elgsnes" />
		<tag k="place" v="farm" />
		<tag k="ssr:stedsnr" v="161690" />
	</node>
	<node id="-731112" lat="68.9580583334" lon="16.6868111153">
		<tag k="name" v="Sommarro" />
		<tag k="place" v="isolated_dwelling" />
		<tag k="ssr:stedsnr" v="158793" />
	</node>
	<node id="-733158" lat="68.7255888922" lon="16.6370916626">
		<tag k="name" v="Rogla" />
		<tag k="place" v="farm" />
		<tag k="ssr:stedsnr" v="848898" />
	</node>
	<node id="-733157" lat="68.7264305527" lon="16.639005545">
		<tag k="name" v="Rogla" />
		<tag k="place" v="farm" />
		<tag k="ssr:stedsnr" v="848889" />
	</node>
	<node id="-731106" lat="68.565363892" lon="16.5031583386">
		<tag k="name" v="Sandtorg" />
		<tag k="place" v="farm" />
		<tag k="ssr:stedsnr" v="152705" />
	</node>
	<node id="-733145" lat="68.8825333358" lon="16.4890722241">
		<tag k="name" v="Bjørnrå Ytre" />
		<tag k="place" v="farm" />
		<tag k="ssr:stedsnr" v="847403" />
	</node>
	<node id="-733142" lat="68.8039027779" lon="16.5358138928">
		<tag k="leisure" v="pitch" />
		<tag k="name" v="Harstad stadion" />
		<tag k="ssr:stedsnr" v="847275" />
	</node>
	<node id="-733141" lat="68.5800861105" lon="16.499069437">
		<tag k="name" v="Rundholm plass" />
		<tag k="place" v="square" />
		<tag k="ssr:stedsnr" v="847238" />
	</node>
	<node id="-731083" lat="68.6053694468" lon="16.494613882">
		<tag k="name" v="Brattli" />
		<tag k="place" v="farm" />
		<tag k="ssr:stedsnr" v="141225" />
	</node>
	<node id="-731081" lat="68.5953166653" lon="16.5009499954">
		<tag k="name" v="Skoglund" />
		<tag k="place" v="isolated_dwelling" />
		<tag k="ssr:stedsnr" v="141191" />
	</node>
	<node id="-731075" lat="68.6308944448" lon="16.5656055591">
		<tag k="alt_name" v="Hamn" />
		<tag k="name" v="Hamna" />
		<tag k="place" v="farm" />
		<tag k="ssr:stedsnr" v="141027" />
	</node>
	<node id="-733122" lat="68.7996166623" lon="16.5443666652">
		<tag k="name" v="Torvet" />
		<tag k="place" v="square" />
		<tag k="ssr:stedsnr" v="845821" />
	</node>
	<node id="-731073" lat="68.6711527762" lon="16.5067916705">
		<tag k="alt_name" v="Elven" />
		<tag k="name" v="Elva" />
		<tag k="place" v="farm" />
		<tag k="ssr:stedsnr" v="141087" />
	</node>
	<node id="-731071" lat="68.6583194426" lon="16.3896944479">
		<tag k="fixme" v="consider tourism=alpine_hut or tourism=chalet" />
		<tag k="name" v="Bjørnhaugen" />
		<tag k="ssr:stedsnr" v="141065" />
		<tag k="tourism" v="wilderness_hut" />
	</node>
	<node id="-731066" lat="68.7467027787" lon="16.5558583276">
		<tag k="alt_name" v="Breidvika" />
		<tag k="fixme" v="consider place=suburb, village or hamlet" />
		<tag k="name" v="Breivika" />
		<tag k="place" v="quarter" />
		<tag k="ssr:stedsnr" v="139937" />
	</node>
	<node id="-731057" lat="68.884744447" lon="16.3200694468">
		<tag k="name" v="Med-Aun" />
		<tag k="place" v="farm" />
		<tag k="ssr:stedsnr" v="139591" />
	</node>
	<node id="-731054" lat="68.7915888851" lon="16.3421444524">
		<tag k="name" v="Helgevallan" />
		<tag k="place" v="isolated_dwelling" />
		<tag k="ssr:stedsnr" v="139519" />
	</node>
	<node id="-731053" lat="68.8011166668" lon="16.5441444402">
		<tag k="name" v="Harstad - Hárstták" />
		<tag k="name:no" v="Harstad" />
		<tag k="name:se" v="Hárstták" />
		<tag k="place" v="town" />
		<tag k="ssr:stedsnr" v="139510" />
	</node>
	<node id="-731040" lat="68.9134972175" lon="16.612780563">
		<tag k="name" v="Skjellesvika" />
		<tag k="place" v="hamlet" />
		<tag k="ssr:stedsnr" v="138574" />
	</node>
	<node id="-731036" lat="68.9402694408" lon="16.3459194335">
		<tag k="name" v="Dale" />
		<tag k="place" v="hamlet" />
		<tag k="ssr:stedsnr" v="138545" />
	</node>
	<node id="-733076" lat="69.0091250014" lon="16.5299888953">
		<tag k="fixme" v="consider place=hamlet" />
		<tag k="name" v="Viken" />
		<tag k="place" v="farm" />
		<tag k="ssr:stedsnr" v="845281" />
	</node>
	<node id="-731023" lat="68.8103888899" lon="16.5157055442">
		<tag k="alt_name" v="Kullseng" />
		<tag k="name" v="Kulseng" />
		<tag k="place" v="farm" />
		<tag k="ssr:stedsnr" v="138399" />
	</node>
	<node id="-733060" lat="69.0161138923" lon="16.3812083401">
		<tag k="name" v="Lyngøy" />
		<tag k="place" v="farm" />
		<tag k="ssr:stedsnr" v="843732" />
	</node>
	<node id="-731010" lat="68.8246638891" lon="16.3848111096">
		<tag k="name" v="Høgda" />
		<tag k="place" v="hamlet" />
		<tag k="ssr:stedsnr" v="119989" />
	</node>
	<node id="-733054" lat="68.7519527817" lon="16.3838722223">
		<tag k="name" v="Lyngmoen" />
		<tag k="place" v="farm" />
		<tag k="ssr:stedsnr" v="841928" />
	</node>
	<node id="-733047" lat="68.8895363962" lon="16.2511447539">
		<tag k="name" v="Inner-Elgsnes" />
		<tag k="place" v="farm" />
		<tag k="ssr:stedsnr" v="829724" />
	</node>
	<node id="-733044" lat="69.0338027781" lon="16.5339138793">
		<tag k="name" v="Sjølund" />
		<tag k="place" v="isolated_dwelling" />
		<tag k="ssr:stedsnr" v="826732" />
	</node>
	<node id="-733041" lat="68.8235194419" lon="16.4480722303">
		<tag k="name" v="Sørvoll" />
		<tag k="place" v="farm" />
		<tag k="ssr:stedsnr" v="826688" />
	</node>
	<node id="-733037" lat="68.7789972257" lon="16.5877555602">
		<tag k="name" v="Sør Stangnes" />
		<tag k="place" v="quarter" />
		<tag k="ssr:stedsnr" v="819784" />
	</node>
	<node id="-733033" lat="68.8845750015" lon="16.5820861199">
		<tag k="name" v="Lunde" />
		<tag k="place" v="farm" />
		<tag k="ssr:stedsnr" v="818529" />
	</node>
	<node id="-733031" lat="68.8784388184" lon="16.5300170041">
		<tag k="name" v="For" />
		<tag k="place" v="hamlet" />
		<tag k="ssr:stedsnr" v="815462" />
	</node>
	<node id="-730976" lat="68.7799916678" lon="16.5617138859">
		<tag k="name" v="Oldran" />
		<tag k="place" v="quarter" />
		<tag k="ssr:stedsnr" v="118062" />
	</node>
	<node id="-731109" lat="69.0605194423" lon="16.5397194312">
		<tag k="name" v="Haugen" />
		<tag k="place" v="farm" />
		<tag k="ssr:stedsnr" v="158717" />
	</node>
	<node id="-730965" lat="68.836777775" lon="16.2889416755">
		<tag k="name" v="Mikkelgamman" />
		<tag k="place" v="locality" />
		<tag k="ssr:stedsnr" v="117900" />
	</node>
	<node id="-730960" lat="68.7921027741" lon="16.510172224">
		<tag k="name" v="Heggen" />
		<tag k="place" v="farm" />
		<tag k="ssr:stedsnr" v="117837" />
	</node>
	<node id="-733001" lat="69.0075277823" lon="16.4779666666">
		<tag k="alt_name" v="Leirvåg søndre" />
		<tag k="loc_name" v="Sør-Leirvåg" />
		<tag k="name" v="Søndre Leirvåg" />
		<tag k="old_name" v="Leirvåg" />
		<tag k="place" v="farm" />
		<tag k="ssr:stedsnr" v="807165" />
	</node>
	<node id="-732992" lat="68.7179861077" lon="16.5354277637">
		<tag k="name" v="Kilbotn" />
		<tag k="place" v="village" />
		<tag k="ssr:stedsnr" v="806899" />
	</node>
	<node id="-732985" lat="68.9644305574" lon="16.2620638834">
		<tag k="fixme" v="consider place=hamlet" />
		<tag k="name" v="Grøtavær" />
		<tag k="place" v="village" />
		<tag k="ssr:stedsnr" v="806494" />
	</node>
	<node id="-732975" lat="68.807366669" lon="16.5357805624">
		<tag k="name" v="Sama" />
		<tag k="place" v="hamlet" />
		<tag k="ssr:stedsnr" v="788886" />
	</node>
	<node id="-732974" lat="68.7290472214" lon="16.6383333233">
		<tag k="name" v="Rogla" />
		<tag k="place" v="farm" />
		<tag k="ssr:stedsnr" v="787886" />
	</node>
	<node id="-732972" lat="68.8153499965" lon="16.3612583274">
		<tag k="name" v="Fjellheimen" />
		<tag k="place" v="locality" />
		<tag k="ssr:stedsnr" v="786977" />
	</node>
	<node id="-732962" lat="68.8187444488" lon="16.5560138897">
		<tag k="amenity" v="school" />
		<tag k="name" v="Trondenes Folkehøgskole" />
		<tag k="ssr:stedsnr" v="786518" />
	</node>
	<node id="-732955" lat="68.8778138913" lon="16.5486972259">
		<tag k="name" v="Aspen" />
		<tag k="place" v="farm" />
		<tag k="ssr:stedsnr" v="786390" />
	</node>
	<node id="-732954" lat="68.8775444478" lon="16.5623083412">
		<tag k="name" v="Smihågen" />
		<tag k="place" v="farm" />
		<tag k="ssr:stedsnr" v="786385" />
	</node>
	<node id="-730897" lat="68.9896694426" lon="16.5368638923">
		<tag k="name" v="Skogneset" />
		<tag k="place" v="locality" />
		<tag k="ssr:stedsnr" v="115446" />
	</node>
	<node id="-730886" lat="68.8468333337" lon="16.4899555435">
		<tag k="name" v="Årnes" />
		<tag k="place" v="farm" />
		<tag k="ssr:stedsnr" v="99733" />
	</node>
	<node id="-730883" lat="68.6436305581" lon="16.5821750062">
		<tag k="name" v="Rysletta" />
		<tag k="place" v="isolated_dwelling" />
		<tag k="ssr:stedsnr" v="91828" />
	</node>
	<node id="-732930" lat="68.7631638897" lon="16.5538388942">
		<tag k="name" v="Heggen" />
		<tag k="place" v="isolated_dwelling" />
		<tag k="ssr:stedsnr" v="784997" />
	</node>
	<node id="-730875" lat="68.9166555582" lon="16.2626805541">
		<tag k="name" v="Elgsnes" />
		<tag k="place" v="hamlet" />
		<tag k="ssr:stedsnr" v="89931" />
	</node>
	<node id="-730873" lat="68.8383666654" lon="16.285555565">
		<tag k="name" v="Skjærstad" />
		<tag k="place" v="farm" />
		<tag k="ssr:stedsnr" v="85401" />
	</node>
	<node id="-730871" lat="68.8794055519" lon="16.3456138807">
		<tag k="name" v="Inner-Aun" />
		<tag k="place" v="farm" />
		<tag k="ssr:stedsnr" v="82326" />
	</node>
	<node id="-730860" lat="68.6729555575" lon="16.6247888878">
		<tag k="fixme" v="consider place=hamlet" />
		<tag k="name" v="Grasholmen - Rássesuolu" />
		<tag k="name:no" v="Grasholmen" />
		<tag k="name:se" v="Rássesuolu" />
		<tag k="place" v="farm" />
		<tag k="ssr:stedsnr" v="80097" />
	</node>
	<node id="-730847" lat="68.8737527803" lon="16.6960972338">
		<tag k="fixme" v="consider place=hamlet" />
		<tag k="name" v="Kjøtta" />
		<tag k="place" v="village" />
		<tag k="ssr:stedsnr" v="79582" />
	</node>
	<node id="-730840" lat="68.8037805589" lon="16.4903583267">
		<tag k="name" v="Tofta" />
		<tag k="place" v="farm" />
		<tag k="ssr:stedsnr" v="79360" />
	</node>
	<node id="-730837" lat="69.0321083297" lon="16.5307638901">
		<tag k="alt_name" v="Helløy" />
		<tag k="name" v="Helløya" />
		<tag k="place" v="isolated_dwelling" />
		<tag k="ssr:stedsnr" v="79086" />
	</node>
	<node id="-732865" lat="68.8669111128" lon="16.3142833356">
		<tag k="name" v="Inner-Elgsnes" />
		<tag k="place" v="farm" />
		<tag k="ssr:stedsnr" v="784005" />
	</node>
	<node id="-730813" lat="68.772469443" lon="16.5522666694">
		<tag k="name" v="Kanebogen" />
		<tag k="place" v="suburb" />
		<tag k="ssr:stedsnr" v="78462" />
	</node>
	<node id="-730811" lat="68.8356333379" lon="16.3451527729">
		<tag k="loc_name:se" v="Gásvierda" />
		<tag k="name" v="Kasfjord" />
		<tag k="name:no" v="Kasfjord" />
		<tag k="place" v="village" />
		<tag k="ssr:stedsnr" v="78408" />
	</node>
	<node id="-730739" lat="68.6733027788" lon="16.5594777772">
		<tag k="name" v="Anders-Persaheimen" />
		<tag k="place" v="locality" />
		<tag k="ssr:stedsnr" v="56753" />
	</node>
	<node id="-732840" lat="68.8633777767" lon="16.3198916752">
		<tag k="name" v="Inner-Elgsnes" />
		<tag k="place" v="farm" />
		<tag k="ssr:stedsnr" v="768766" />
	</node>
	<node id="-732839" lat="68.9168388894" lon="16.2645333291">
		<tag k="name" v="Ytter-Elgsnes" />
		<tag k="place" v="farm" />
		<tag k="ssr:stedsnr" v="768756" />
	</node>
	<node id="-730737" lat="68.6509277803" lon="16.4299972185">
		<tag k="name" v="Gammelheimen" />
		<tag k="place" v="farm" />
		<tag k="ssr:stedsnr" v="56743" />
	</node>
	<node id="-730788" lat="68.8190666643" lon="16.3961388805">
		<tag k="name" v="Halvorsmo" />
		<tag k="place" v="farm" />
		<tag k="ssr:stedsnr" v="58966" />
	</node>
	<node id="-732824" lat="68.8380472257" lon="16.2840250113">
		<tag k="name" v="Skjærstad" />
		<tag k="place" v="farm" />
		<tag k="ssr:stedsnr" v="752461" />
	</node>
	<node id="-732823" lat="68.8357111138" lon="16.290366671">
		<tag k="name" v="Skjærstad" />
		<tag k="place" v="farm" />
		<tag k="ssr:stedsnr" v="752442" />
	</node>
	<node id="-732822" lat="68.8803972257" lon="16.3416111158">
		<tag k="fixme" v="consider place=hamlet" />
		<tag k="name" v="Aun" />
		<tag k="place" v="village" />
		<tag k="ssr:stedsnr" v="751567" />
	</node>
	<node id="-732820" lat="68.6823944482" lon="16.519872234">
		<tag k="name" v="Olsrud" />
		<tag k="place" v="farm" />
		<tag k="ssr:stedsnr" v="749154" />
	</node>
	<node id="-732813" lat="68.5701888899" lon="16.5124611134">
		<tag k="name" v="Reistad" />
		<tag k="place" v="farm" />
		<tag k="ssr:stedsnr" v="748150" />
	</node>
	<node id="-732811" lat="68.6696833302" lon="16.5916916691">
		<tag k="name" v="Fjellstad" />
		<tag k="place" v="farm" />
		<tag k="ssr:stedsnr" v="748089" />
	</node>
	<node id="-732809" lat="68.6412972246" lon="16.5756361126">
		<tag k="name" v="Solhaug" />
		<tag k="place" v="farm" />
		<tag k="ssr:stedsnr" v="748041" />
	</node>
	<node id="-732806" lat="68.6223333364" lon="16.5551000092">
		<tag k="name" v="Storenga" />
		<tag k="place" v="isolated_dwelling" />
		<tag k="ssr:stedsnr" v="748014" />
	</node>
	<node id="-732803" lat="68.6716499978" lon="16.5866444486">
		<tag k="alt_name" v="Brokvik" />
		<tag k="name" v="Brokvika" />
		<tag k="place" v="farm" />
		<tag k="ssr:stedsnr" v="747074" />
	</node>
	<node id="-732800" lat="68.7038162425" lon="16.583086308">
		<tag k="name" v="Litlefor" />
		<tag k="place" v="farm" />
		<tag k="ssr:stedsnr" v="746878" />
	</node>
	<node id="-732792" lat="68.905836107" lon="16.6079444413">
		<tag k="name" v="Stormyra" />
		<tag k="place" v="farm" />
		<tag k="ssr:stedsnr" v="746575" />
	</node>
	<node id="-732787" lat="68.7882305554" lon="16.5609638804">
		<tag k="alt_name" v="Gangsås" />
		<tag k="name" v="Gansås" />
		<tag k="place" v="suburb" />
		<tag k="ssr:stedsnr" v="746487" />
	</node>
	<node id="-732785" lat="68.8183194415" lon="16.5317750082">
		<tag k="name" v="Hagan" />
		<tag k="place" v="suburb" />
		<tag k="ssr:stedsnr" v="746378" />
	</node>
	<node id="-730721" lat="68.8859111094" lon="16.6968638933">
		<tag k="name" v="Åkerøya" />
		<tag k="place" v="farm" />
		<tag k="ssr:stedsnr" v="56544" />
	</node>
	<node id="-732762" lat="69.0738055603" lon="16.5059055477">
		<tag k="fixme" v="consider place=hamlet" />
		<tag k="name" v="Meløyvær" />
		<tag k="place" v="village" />
		<tag k="ssr:stedsnr" v="745113" />
	</node>
	<node id="-733191" lat="68.8887388905" lon="16.6031638847">
		<tag k="name" v="Bessebostad" />
		<tag k="place" v="hamlet" />
		<tag k="ssr:stedsnr" v="867592" />
	</node>
	<node id="-732746" lat="68.7264694419" lon="16.6478777688">
		<tag k="fixme" v="consider place=hamlet" />
		<tag k="name" v="Rogla" />
		<tag k="place" v="farm" />
		<tag k="ssr:stedsnr" v="726907" />
	</node>
	<node id="-732742" lat="68.9542388864" lon="16.3862944305">
		<tag k="name" v="Finngammen" />
		<tag k="place" v="locality" />
		<tag k="ssr:stedsnr" v="726218" />
	</node>
	<node id="-732729" lat="68.7265277792" lon="16.4451138824">
		<tag k="name" v="Finnjonsgamma" />
		<tag k="place" v="locality" />
		<tag k="ssr:stedsnr" v="725927" />
	</node>
	<node id="-732725" lat="68.6648666641" lon="16.5866805537">
		<tag k="name" v="Fauskevåg Store" />
		<tag k="place" v="farm" />
		<tag k="ssr:stedsnr" v="725626" />
	</node>
	<node id="-732724" lat="68.8137305597" lon="16.5432138784">
		<tag k="amenity" v="school" />
		<tag k="name" v="Hagebyen skole" />
		<tag k="ssr:stedsnr" v="725439" />
	</node>
	<node id="-730673" lat="68.7588722232" lon="16.3837277779">
		<tag k="name" v="Einehaugen" />
		<tag k="place" v="isolated_dwelling" />
		<tag k="ssr:stedsnr" v="52943" />
	</node>
	<node id="-730672" lat="68.7590666687" lon="16.3921666698">
		<tag k="name" v="Lykkja" />
		<tag k="place" v="isolated_dwelling" />
		<tag k="ssr:stedsnr" v="52938" />
	</node>
	<node id="-730663" lat="68.8900888911" lon="16.2563361149">
		<tag k="name" v="Inner-Elgsnes" />
		<tag k="place" v="farm" />
		<tag k="ssr:stedsnr" v="40783" />
	</node>
	<node id="-730661" lat="68.8300888936" lon="16.5544277666">
		<tag k="name" v="Ringberg" />
		<tag k="place" v="farm" />
		<tag k="ssr:stedsnr" v="37827" />
	</node>
	<node id="-730659" lat="69.0187361129" lon="16.5356388967">
		<tag k="name" v="Grønnvoll" />
		<tag k="place" v="isolated_dwelling" />
		<tag k="ssr:stedsnr" v="37737" />
	</node>
	<node id="-730649" lat="68.8743527822" lon="16.3611472258">
		<tag k="name" v="Inner-Aun" />
		<tag k="place" v="farm" />
		<tag k="ssr:stedsnr" v="22307" />
	</node>
	<node id="-730648" lat="68.6076416701" lon="16.4933638788">
		<tag k="name" v="Elvelund" />
		<tag k="place" v="farm" />
		<tag k="ssr:stedsnr" v="20220" />
	</node>
	<node id="-730646" lat="68.5818805528" lon="16.498091674">
		<tag k="name" v="Elvevoll" />
		<tag k="place" v="farm" />
		<tag k="ssr:stedsnr" v="20172" />
	</node>
	<node id="-730644" lat="68.6796555519" lon="16.512824999">
		<tag k="name" v="Nyheim" />
		<tag k="place" v="farm" />
		<tag k="ssr:stedsnr" v="20122" />
	</node>
	<node id="-730643" lat="68.6656722238" lon="16.5752333449">
		<tag k="alt_name:no" v="Fauskevåg, store" />
		<tag k="fixme" v="multiple name tags, choose one and add the other to alt_name; consider place=hamlet" />
		<tag k="loc_name:se" v="Hosváhki" />
		<tag k="name" v="Fauskevåg;Store Fauskevåg" />
		<tag k="name:no" v="Fauskevåg;Store Fauskevåg" />
		<tag k="place" v="village" />
		<tag k="ssr:stedsnr" v="20084" />
	</node>
	<node id="-730640" lat="68.644680559" lon="16.5810222316">
		<tag k="name" v="Brattland" />
		<tag k="place" v="farm" />
		<tag k="ssr:stedsnr" v="20042" />
	</node>
	<node id="-731177" lat="68.80126389" lon="16.5447777661">
		<tag k="name" v="Ottar Håløygs plass" />
		<tag k="place" v="square" />
		<tag k="ssr:stedsnr" v="177786" />
	</node>
	<node id="-730623" lat="68.8853250042" lon="16.5387166621">
		<tag k="name" v="Litleheia" />
		<tag k="place" v="locality" />
		<tag k="ssr:stedsnr" v="18554" />
	</node>
	<node id="-730622" lat="68.8894777791" lon="16.3064666716">
		<tag k="name" v="Ytter-Aun" />
		<tag k="place" v="farm" />
		<tag k="ssr:stedsnr" v="18546" />
	</node>
	<node id="-732657" lat="68.8372750007" lon="16.3675416575">
		<tag k="name" v="Nyvoll" />
		<tag k="place" v="farm" />
		<tag k="ssr:stedsnr" v="723986" />
	</node>
	<node id="-730596" lat="68.8376805545" lon="16.381094447">
		<tag k="name" v="Olderteigen" />
		<tag k="place" v="farm" />
		<tag k="ssr:stedsnr" v="17442" />
	</node>
	<node id="-730578" lat="68.838449999" lon="16.2863972218">
		<tag k="name" v="Skjærstad" />
		<tag k="place" v="farm" />
		<tag k="ssr:stedsnr" v="267437" />
	</node>
	<node id="-730577" lat="68.8355722185" lon="16.2917583276">
		<tag k="name" v="Skjærstad" />
		<tag k="place" v="farm" />
		<tag k="ssr:stedsnr" v="267417" />
	</node>
	<node id="-732623" lat="68.8914305526" lon="16.2529777703">
		<tag k="fixme" v="consider place=hamlet" />
		<tag k="name" v="Inner-Elgsnes" />
		<tag k="place" v="farm" />
		<tag k="ssr:stedsnr" v="707736" />
	</node>
	<node id="-732618" lat="68.5793027788" lon="16.5013972238">
		<tag k="name" v="Sandtorgholmen" />
		<tag k="place" v="farm" />
		<tag k="ssr:stedsnr" v="698565" />
	</node>
	<node id="-730561" lat="68.7282034928" lon="16.5583929727">
		<tag k="fixme" v="consider place=hamlet" />
		<tag k="loc_name:se" v="Leaibi" />
		<tag k="name" v="Oldra" />
		<tag k="name:no" v="Oldra" />
		<tag k="place" v="village" />
		<tag k="ssr:stedsnr" v="991031" />
	</node>
	<node id="-730560" lat="68.6593562404" lon="16.4918587958">
		<tag k="loc_name:se" v="Vuovdesiida" />
		<tag k="name" v="Dalen" />
		<tag k="name:no" v="Dalen" />
		<tag k="place" v="hamlet" />
		<tag k="ssr:stedsnr" v="991030" />
	</node>
	<node id="-732607" lat="68.8381749965" lon="16.287222224">
		<tag k="name" v="Skjærstad" />
		<tag k="place" v="farm" />
		<tag k="ssr:stedsnr" v="692463" />
	</node>
	<node id="-730557" lat="68.6391860937" lon="16.5732125613">
		<tag k="alt_name" v="Leikvik" />
		<tag k="fixme" v="consider place=hamlet" />
		<tag k="name" v="Leikvika" />
		<tag k="place" v="farm" />
		<tag k="ssr:stedsnr" v="930021" />
	</node>
	<node id="-730556" lat="68.6134015139" lon="16.5121579152">
		<tag k="fixme" v="consider place=hamlet" />
		<tag k="name" v="Gausvika" />
		<tag k="place" v="farm" />
		<tag k="ssr:stedsnr" v="1073189" />
	</node>
	<node id="-730555" lat="68.6003667378" lon="16.504023769">
		<tag k="name" v="Haukebø" />
		<tag k="place" v="farm" />
		<tag k="ssr:stedsnr" v="1073187" />
	</node>
	<node id="-732602" lat="68.6168838032" lon="16.5441947671">
		<tag k="alt_name" v="Lilleeng" />
		<tag k="name" v="Litlenga" />
		<tag k="place" v="farm" />
		<tag k="ssr:stedsnr" v="687237" />
	</node>
	<node id="-732598" lat="68.6723583324" lon="16.4983444426">
		<tag k="name" v="Østgård" />
		<tag k="place" v="farm" />
		<tag k="ssr:stedsnr" v="687110" />
	</node>
	<node id="-730548" lat="68.8891131618" lon="16.4461516863">
		<tag k="name" v="Vaskinn" />
		<tag k="place" v="hamlet" />
		<tag k="ssr:stedsnr" v="392939" />
	</node>
	<node id="-730547" lat="69.0197653184" lon="16.5201391164">
		<tag k="alt_name" v="Sundsvollen, yt" />
		<tag k="fixme" v="multiple name tags, choose one and add the other to alt_name" />
		<tag k="name" v="Sundsvoll;Ytre Sundsvollen" />
		<tag k="old_name" v="Sundsvollen" />
		<tag k="place" v="farm" />
		<tag k="ssr:stedsnr" v="807103" />
	</node>
	<node id="-730544" lat="68.7246402731" lon="16.6385330957">
		<tag k="name" v="Nygård" />
		<tag k="place" v="farm" />
		<tag k="ssr:stedsnr" v="381993" />
	</node>
	<node id="-732591" lat="68.6507416631" lon="16.4431805572">
		<tag k="name" v="Nordli" />
		<tag k="place" v="farm" />
		<tag k="ssr:stedsnr" v="687060" />
	</node>
	<node id="-732590" lat="68.6493138851" lon="16.4395833345">
		<tag k="name" v="Åkertun" />
		<tag k="place" v="farm" />
		<tag k="ssr:stedsnr" v="687059" />
	</node>
	<node id="-732587" lat="68.734652779" lon="16.48618333">
		<tag k="name" v="Reingjerdan" />
		<tag k="place" v="locality" />
		<tag k="ssr:stedsnr" v="685968" />
	</node>
	<node id="-732585" lat="68.7310277811" lon="16.4014583309">
		<tag k="name" v="Sørli" />
		<tag k="place" v="farm" />
		<tag k="ssr:stedsnr" v="685963" />
	</node>
	<node id="-730536" lat="68.8323472213" lon="16.4855333397">
		<tag k="name" v="Røykenes" />
		<tag k="place" v="farm" />
		<tag k="ssr:stedsnr" v="888667" />
	</node>
	<node id="-732583" lat="68.7422166698" lon="16.557511101">
		<tag k="name" v="Ruggevika" />
		<tag k="place" v="village" />
		<tag k="ssr:stedsnr" v="685948" />
	</node>
	<node id="-732571" lat="68.8777444429" lon="16.5644805591">
		<tag k="name" v="Lundenes" />
		<tag k="place" v="hamlet" />
		<tag k="ssr:stedsnr" v="685596" />
	</node>
	<node id="-732569" lat="68.8800472265" lon="16.5249000022">
		<tag k="alt_name" v="For-Nedre;For, nedre" />
		<tag k="name" v="Nedre For" />
		<tag k="old_name" v="For" />
		<tag k="place" v="farm" />
		<tag k="ssr:stedsnr" v="685587" />
	</node>
	<node id="-730520" lat="69.032749998" lon="16.5333388907">
		<tag k="name" v="Olsborg" />
		<tag k="place" v="isolated_dwelling" />
		<tag k="ssr:stedsnr" v="401725" />
	</node>
	<node id="-730518" lat="68.823974999" lon="16.4475083337">
		<tag k="name" v="Nymo" />
		<tag k="place" v="farm" />
		<tag k="ssr:stedsnr" v="401697" />
	</node>
	<node id="-732557" lat="68.9274000012" lon="16.5113916737">
		<tag k="name" v="Jorda" />
		<tag k="place" v="locality" />
		<tag k="ssr:stedsnr" v="685536" />
	</node>
	<node id="-730508" lat="68.7166388906" lon="16.5442055663">
		<tag k="name" v="Litleholtet" />
		<tag k="place" v="locality" />
		<tag k="ssr:stedsnr" v="394565" />
	</node>
	<node id="-732552" lat="68.9528388888" lon="16.6583083433">
		<tag k="name" v="Nordsand" />
		<tag k="place" v="farm" />
		<tag k="ssr:stedsnr" v="685505" />
	</node>
	<node id="-732550" lat="68.9503722202" lon="16.5794916684">
		<tag k="name" v="Dypingen" />
		<tag k="place" v="isolated_dwelling" />
		<tag k="ssr:stedsnr" v="685500" />
	</node>
	<node id="-732547" lat="68.801269444" lon="16.4809277857">
		<tag k="alt_name" v="By øvre" />
		<tag k="name" v="By" />
		<tag k="place" v="farm" />
		<tag k="ssr:stedsnr" v="685469" />
	</node>
	<node id="-732546" lat="68.8058666632" lon="16.5147527813">
		<tag k="name" v="Sama" />
		<tag k="place" v="suburb" />
		<tag k="ssr:stedsnr" v="685467" />
	</node>
	<node id="-730347" lat="68.8849555558" lon="16.4642305567">
		<tag k="name" v="Øvre-Leite" />
		<tag k="place" v="farm" />
		<tag k="ssr:stedsnr" v="359424" />
	</node>
	<node id="-730496" lat="68.6986166653" lon="16.5750611065">
		<tag k="alt_name" v="Nordvik" />
		<tag k="fixme" v="consider place=hamlet" />
		<tag k="name" v="Nordvika" />
		<tag k="place" v="farm" />
		<tag k="ssr:stedsnr" v="385164" />
	</node>
	<node id="-730494" lat="68.5899138874" lon="16.5007110993">
		<tag k="name" v="Nordheim" />
		<tag k="place" v="farm" />
		<tag k="ssr:stedsnr" v="384201" />
	</node>
	<node id="-730483" lat="68.6684222265" lon="16.4898777716">
		<tag k="alt_name" v="Aspeli" />
		<tag k="name" v="Asplia" />
		<tag k="place" v="farm" />
		<tag k="ssr:stedsnr" v="383109" />
	</node>
	<node id="-732530" lat="68.8309194466" lon="16.3364499917">
		<tag k="name" v="Auna" />
		<tag k="place" v="hamlet" />
		<tag k="ssr:stedsnr" v="685386" />
	</node>
	<node id="-732527" lat="68.8215638914" lon="16.4826027777">
		<tag k="alt_name" v="Ervik" />
		<tag k="name" v="Ervika" />
		<tag k="place" v="farm" />
		<tag k="ssr:stedsnr" v="685364" />
	</node>
	<node id="-732524" lat="68.8058499982" lon="16.4957194504">
		<tag k="name" v="Bergseng" />
		<tag k="place" v="farm" />
		<tag k="ssr:stedsnr" v="685351" />
	</node>
	<node id="-732523" lat="68.7503000013" lon="16.5418027659">
		<tag k="name" v="Hamran" />
		<tag k="place" v="locality" />
		<tag k="ssr:stedsnr" v="685295" />
	</node>
	<node id="-732521" lat="69.0151333355" lon="16.4926166651">
		<tag k="alt_name" v="Leirvåg, nordre;Leirvåg nordre" />
		<tag k="loc_name" v="Nord-Leirvåg" />
		<tag k="name" v="Nordre Leirvåg" />
		<tag k="place" v="farm" />
		<tag k="ssr:stedsnr" v="685167" />
	</node>
	<node id="-732520" lat="69.0074055552" lon="16.5317777808">
		<tag k="name" v="Vika" />
		<tag k="place" v="isolated_dwelling" />
		<tag k="ssr:stedsnr" v="685166" />
	</node>
	<node id="-730469" lat="68.8897444454" lon="16.2518638822">
		<tag k="name" v="Inner-Elgsnes" />
		<tag k="old_name" v="Indre Elgsnes" />
		<tag k="place" v="farm" />
		<tag k="ssr:stedsnr" v="382576" />
	</node>
	<node id="-730465" lat="68.7973777741" lon="16.4650055431">
		<tag k="alt_name" v="Kjelhus, in;Kjelhus indre" />
		<tag k="name" v="Indre Kjelhus" />
		<tag k="place" v="farm" />
		<tag k="ssr:stedsnr" v="382478" />
	</node>
	<node id="-732503" lat="68.6810722242" lon="16.559305553">
		<tag k="name" v="Halsebø" />
		<tag k="place" v="farm" />
		<tag k="ssr:stedsnr" v="665552" />
	</node>
	<node id="-730439" lat="68.7638222257" lon="16.558241661">
		<tag k="alt_name" v="Mekile;Midkila" />
		<tag k="fixme" v="consider place=suburb, village or hamlet" />
		<tag k="name" v="Medkila" />
		<tag k="place" v="quarter" />
		<tag k="ssr:stedsnr" v="381445" />
	</node>
	<node id="-730336" lat="68.7843472257" lon="16.4738833248">
		<tag k="name" v="Kjelen" />
		<tag k="place" v="locality" />
		<tag k="ssr:stedsnr" v="359120" />
	</node>
	<node id="-732477" lat="68.8363861127" lon="16.4904694458">
		<tag k="name" v="Røykenes" />
		<tag k="place" v="farm" />
		<tag k="ssr:stedsnr" v="664009" />
	</node>
	<node id="-730423" lat="68.8177722261" lon="16.5504888851">
		<tag k="name" v="Trondenes" />
		<tag k="place" v="suburb" />
		<tag k="ssr:stedsnr" v="363468" />
	</node>
	<node id="-730420" lat="68.8271027801" lon="16.3763194522">
		<tag k="name" v="Fagerhaug" />
		<tag k="place" v="farm" />
		<tag k="ssr:stedsnr" v="361991" />
	</node>
	<node id="-730418" lat="68.73687778" lon="16.5714111007">
		<tag k="name" v="Kila" />
		<tag k="place" v="farm" />
		<tag k="ssr:stedsnr" v="361657" />
	</node>
	<node id="-730409" lat="68.5649000043" lon="16.5068861103">
		<tag k="name" v="Sandtorv" />
		<tag k="place" v="farm" />
		<tag k="ssr:stedsnr" v="361253" />
	</node>
	<node id="-730392" lat="68.8407722244" lon="16.495605555">
		<tag k="name" v="Nervollen" />
		<tag k="place" v="farm" />
		<tag k="ssr:stedsnr" v="361015" />
	</node>
	<node id="-730385" lat="68.891783331" lon="16.5902666568">
		<tag k="historic" v="shieling" />
		<tag k="name" v="Snekkarstølen" />
		<tag k="place" v="locality" />
		<tag k="ssr:stedsnr" v="360506" />
	</node>
	<node id="-730362" lat="68.7924194492" lon="16.5942388832">
		<tag k="name" v="Stangnes Nordre" />
		<tag k="place" v="farm" />
		<tag k="ssr:stedsnr" v="359711" />
	</node>
	<node id="-732408" lat="68.7595111123" lon="16.3890249988">
		<tag k="name" v="Tømmeråsen" />
		<tag k="place" v="isolated_dwelling" />
		<tag k="ssr:stedsnr" v="658926" />
	</node>
	<node id="-732405" lat="68.8271194406" lon="16.5613194325">
		<tag k="name" v="Altevåg" />
		<tag k="place" v="isolated_dwelling" />
		<tag k="ssr:stedsnr" v="652856" />
	</node>
	<node id="-732395" lat="68.8234861109" lon="16.4375027774">
		<tag k="name" v="Hansvoll" />
		<tag k="place" v="farm" />
		<tag k="ssr:stedsnr" v="643692" />
	</node>
	<node id="-732393" lat="68.5690083329" lon="16.5179777761">
		<tag k="name" v="Sandtorgholmen" />
		<tag k="place" v="farm" />
		<tag k="ssr:stedsnr" v="637640" />
	</node>
	<node id="-732384" lat="69.019633336" lon="16.5201499896">
		<tag k="fixme" v="consider place=hamlet" />
		<tag k="name" v="Sundsvoll" />
		<tag k="place" v="village" />
		<tag k="ssr:stedsnr" v="635974" />
	</node>
	<node id="-732382" lat="68.8451305524" lon="16.2764111028">
		<tag k="name" v="Skjærstad" />
		<tag k="place" v="farm" />
		<tag k="ssr:stedsnr" v="631466" />
	</node>
	<node id="-732378" lat="68.6903805543" lon="16.5471777694">
		<tag k="alt_name" v="Melvik" />
		<tag k="name" v="Melvika" />
		<tag k="place" v="farm" />
		<tag k="ssr:stedsnr" v="627162" />
	</node>
	<node id="-732373" lat="68.6805916691" lon="16.5358555569">
		<tag k="name" v="Halsebø" />
		<tag k="place" v="farm" />
		<tag k="ssr:stedsnr" v="626154" />
	</node>
	<node id="-732371" lat="68.6701250004" lon="16.4895472098">
		<tag k="name" v="Klatran" />
		<tag k="place" v="farm" />
		<tag k="ssr:stedsnr" v="626137" />
	</node>
	<node id="-732369" lat="68.6756472231" lon="16.5731416603">
		<tag k="name" v="Rydningen" />
		<tag k="place" v="farm" />
		<tag k="ssr:stedsnr" v="626119" />
	</node>
	<node id="-732368" lat="68.6774722245" lon="16.5625055469">
		<tag k="name" v="Nyberg" />
		<tag k="place" v="farm" />
		<tag k="ssr:stedsnr" v="626120" />
	</node>
	<node id="-732365" lat="68.6504333313" lon="16.4338888851">
		<tag k="name" v="Hola" />
		<tag k="place" v="farm" />
		<tag k="ssr:stedsnr" v="626066" />
	</node>
	<node id="-730316" lat="68.5759222228" lon="16.5187944516">
		<tag k="name" v="Sandtorg" />
		<tag k="place" v="farm" />
		<tag k="ssr:stedsnr" v="334665" />
	</node>
	<node id="-732361" lat="68.7253527755" lon="16.4702333351">
		<tag k="historic" v="shieling" />
		<tag k="name" v="Slettlia" />
		<tag k="place" v="locality" />
		<tag k="ssr:stedsnr" v="624971" />
	</node>
	<node id="-732360" lat="68.7291083323" lon="16.5555805547">
		<tag k="loc_name:se" v="Leaibi" />
		<tag k="name" v="Oldra" />
		<tag k="name:no" v="Oldra" />
		<tag k="place" v="farm" />
		<tag k="ssr:stedsnr" v="624957" />
	</node>
	<node id="-732357" lat="68.7118416655" lon="16.5923361208">
		<tag k="name" v="Solstad" />
		<tag k="place" v="farm" />
		<tag k="ssr:stedsnr" v="624875" />
	</node>
	<node id="-730308" lat="68.8445750003" lon="16.280436106">
		<tag k="name" v="Skjærstad" />
		<tag k="place" v="hamlet" />
		<tag k="ssr:stedsnr" v="328499" />
	</node>
	<node id="-732343" lat="68.8896944429" lon="16.446180553">
		<tag k="alt_name" v="Vadskinn" />
		<tag k="name" v="Vaskinn" />
		<tag k="place" v="farm" />
		<tag k="ssr:stedsnr" v="624576" />
	</node>
	<node id="-730291" lat="68.7177722205" lon="16.5241000095">
		<tag k="name" v="Øverslett" />
		<tag k="place" v="farm" />
		<tag k="ssr:stedsnr" v="321871" />
	</node>
	<node id="-732338" lat="68.938049997" lon="16.678922218">
		<tag k="name" v="Kolsland" />
		<tag k="place" v="farm" />
		<tag k="ssr:stedsnr" v="624536" />
	</node>
	<node id="-732337" lat="68.9339083333" lon="16.6266888916">
		<tag k="alt_name" v="Fenes nedre;Fenes, nedre" />
		<tag k="fixme" v="multiple name tags, choose one and add the other to alt_name" />
		<tag k="name" v="Fenes;Nedre Fenes" />
		<tag k="place" v="farm" />
		<tag k="ssr:stedsnr" v="624534" />
	</node>
	<node id="-730284" lat="68.8833749987" lon="16.5001499889">
		<tag k="alt_name" v="Bjørnerå" />
		<tag k="name" v="Bjørnå" />
		<tag k="place" v="farm" />
		<tag k="ssr:stedsnr" v="321567" />
	</node>
	<node id="-730281" lat="68.9197249971" lon="16.2695583209">
		<tag k="name" v="Ytter-Elgsnes" />
		<tag k="old_name" v="Ytre Elgsnes" />
		<tag k="place" v="farm" />
		<tag k="ssr:stedsnr" v="321522" />
	</node>
	<node id="-732328" lat="68.8475555593" lon="16.3951722123">
		<tag k="name" v="Djupingan" />
		<tag k="place" v="locality" />
		<tag k="ssr:stedsnr" v="624449" />
	</node>
	<node id="-730279" lat="68.9571388877" lon="16.7381166751">
		<tag k="name" v="Slakstad" />
		<tag k="place" v="hamlet" />
		<tag k="ssr:stedsnr" v="321484" />
	</node>
	<node id="-732322" lat="68.8276916704" lon="16.5656055481">
		<tag k="landuse" v="military" />
		<tag k="name" v="Trondenes" />
		<tag k="ssr:stedsnr" v="624414" />
	</node>
	<node id="-732320" lat="68.8256499983" lon="16.3877833211">
		<tag k="name" v="Høgda" />
		<tag k="place" v="farm" />
		<tag k="ssr:stedsnr" v="624408" />
	</node>
	<node id="-732318" lat="68.807294443" lon="16.4457500045">
		<tag k="name" v="Vågen" />
		<tag k="place" v="locality" />
		<tag k="ssr:stedsnr" v="624390" />
	</node>
	<node id="-730262" lat="68.7526138876" lon="16.3771194495">
		<tag k="alt_name" v="Munkhola" />
		<tag k="name" v="Munkholla" />
		<tag k="place" v="isolated_dwelling" />
		<tag k="ssr:stedsnr" v="321290" />
	</node>
	<node id="-730260" lat="69.0120277777" lon="16.5281888792">
		<tag k="alt_name" v="Breidvika" />
		<tag k="name" v="Breivik" />
		<tag k="place" v="isolated_dwelling" />
		<tag k="ssr:stedsnr" v="321152" />
	</node>
	<node id="-732696" lat="68.7290944416" lon="16.6391277657">
		<tag k="name" v="Flotta" />
		<tag k="place" v="isolated_dwelling" />
		<tag k="ssr:stedsnr" v="724700" />
	</node>
	<node id="-730248" lat="69.04106111" lon="16.4943027698">
		<tag k="alt_name" v="Flatøy" />
		<tag k="name" v="Flatøya" />
		<tag k="place" v="isolated_dwelling" />
		<tag k="ssr:stedsnr" v="321054" />
	</node>
	<node id="-732295" lat="68.7144888859" lon="16.529983333">
		<tag k="name" v="Engnes" />
		<tag k="place" v="farm" />
		<tag k="ssr:stedsnr" v="604613" />
	</node>
	<node id="-733376" lat="68.8294416692" lon="16.3800388894">
		<tag k="name" v="Fageråsen" />
		<tag k="place" v="farm" />
		<tag k="ssr:stedsnr" v="928371" />
	</node>
	<node id="-730238" lat="68.7288583356" lon="16.655886118">
		<tag k="name" v="Rogla" />
		<tag k="place" v="farm" />
		<tag k="ssr:stedsnr" v="301916" />
	</node>
	<node id="-732278" lat="68.8974222184" lon="16.7118388893">
		<tag k="fixme" v="consider place=hamlet" />
		<tag k="name" v="Åkerøya" />
		<tag k="place" v="farm" />
		<tag k="ssr:stedsnr" v="603585" />
	</node>
	<node id="-730226" lat="68.9185222257" lon="16.2589750116">
		<tag k="name" v="Jonsborg" />
		<tag k="place" v="farm" />
		<tag k="ssr:stedsnr" v="301034" />
	</node>
	<node id="-732266" lat="68.8326583323" lon="16.4165000036">
		<tag k="name" v="Skoglund" />
		<tag k="place" v="farm" />
		<tag k="ssr:stedsnr" v="603015" />
	</node>
	<node id="-730217" lat="68.6584583306" lon="16.5822111189">
		<tag k="name" v="Jonsgård" />
		<tag k="place" v="farm" />
		<tag k="ssr:stedsnr" v="300663" />
	</node>
	<node id="-730215" lat="68.6419333304" lon="16.5793472106">
		<tag k="name" v="Skogly" />
		<tag k="place" v="farm" />
		<tag k="ssr:stedsnr" v="300660" />
	</node>
	<node id="-730191" lat="68.8487638872" lon="16.2802000092">
		<tag k="name" v="Skoglund" />
		<tag k="place" v="farm" />
		<tag k="ssr:stedsnr" v="299887" />
	</node>
	<node id="-731094" lat="68.9233777759" lon="16.6246194332">
		<tag k="name" v="Olsvik" />
		<tag k="place" v="farm" />
		<tag k="ssr:stedsnr" v="150391" />
	</node>
	<node id="-730186" lat="68.7962555557" lon="16.5251750067">
		<tag k="amenity" v="hospital" />
		<tag k="name" v="Harstad sykehus" />
		<tag k="ssr:stedsnr" v="299830" />
	</node>
	<node id="-730295" lat="68.7355777769" lon="16.5614638888">
		<tag k="name" v="Øverland" />
		<tag k="place" v="farm" />
		<tag k="ssr:stedsnr" v="321937" />
	</node>
	<node id="-732202" lat="68.786661112" lon="16.5418305635">
		<tag k="amenity" v="school" />
		<tag k="name" v="Harstadbotn videregående skole" />
		<tag k="ssr:stedsnr" v="602166" />
	</node>
	<node id="-732198" lat="68.7859694438" lon="16.5208527835">
		<tag k="leisure" v="pitch" />
		<tag k="name" v="Landsåsbanen" />
		<tag k="ssr:stedsnr" v="602125" />
	</node>
	<node id="-732185" lat="68.9512444438" lon="16.6614833446">
		<tag k="name" v="Kobbevollen" />
		<tag k="place" v="farm" />
		<tag k="ssr:stedsnr" v="600914" />
	</node>
	<node id="-732175" lat="68.7575861139" lon="16.3899916695">
		<tag k="name" v="Nygård" />
		<tag k="place" v="farm" />
		<tag k="ssr:stedsnr" v="597954" />
	</node>
	<node id="-732173" lat="68.7075833352" lon="16.3784638937">
		<tag k="name" v="Vilhelmsætran" />
		<tag k="place" v="locality" />
		<tag k="ssr:stedsnr" v="597582" />
	</node>
	<node id="-730120" lat="68.8902972222" lon="16.2546805464">
		<tag k="name" v="Inner-Elgsnes" />
		<tag k="place" v="farm" />
		<tag k="ssr:stedsnr" v="283740" />
	</node>
	<node id="-732167" lat="68.9178999968" lon="16.2618277663">
		<tag k="name" v="Ytter-Elgsnes" />
		<tag k="place" v="farm" />
		<tag k="ssr:stedsnr" v="586741" />
	</node>
	<node id="-730117" lat="68.5659722236" lon="16.4989555471">
		<tag k="name" v="Sandtorg" />
		<tag k="place" v="farm" />
		<tag k="ssr:stedsnr" v="273715" />
	</node>
	<node id="-732161" lat="68.6111527762" lon="16.5129388988">
		<tag k="name" v="Sandtorgholmen" />
		<tag k="place" v="farm" />
		<tag k="ssr:stedsnr" v="576599" />
	</node>
	<node id="-732148" lat="68.9450000032" lon="16.6702111087">
		<tag k="name" v="Altevik" />
		<tag k="place" v="farm" />
		<tag k="ssr:stedsnr" v="571369" />
	</node>
	<node id="-732146" lat="68.8895750018" lon="16.300749997">
		<tag k="barrier" v="fence" />
		<tag k="name" v="Ytter-Aungjerdet" />
		<tag k="ssr:stedsnr" v="567316" />
	</node>
	<node id="-732142" lat="68.6453027822" lon="16.5812333279">
		<tag k="name" v="Steinheim" />
		<tag k="place" v="farm" />
		<tag k="ssr:stedsnr" v="566046" />
	</node>
	<node id="-732136" lat="68.6027222186" lon="16.5035749934">
		<tag k="name" v="Holand" />
		<tag k="place" v="farm" />
		<tag k="ssr:stedsnr" v="565211" />
	</node>
	<node id="-732133" lat="68.6759638916" lon="16.5155944321">
		<tag k="name" v="Halsebø" />
		<tag k="place" v="farm" />
		<tag k="ssr:stedsnr" v="565110" />
	</node>
	<node id="-732118" lat="68.7019416628" lon="16.5793166673">
		<tag k="name" v="Furuly" />
		<tag k="place" v="farm" />
		<tag k="ssr:stedsnr" v="563928" />
	</node>
	<node id="-732116" lat="68.7137666694" lon="16.5364527855">
		<tag k="name" v="Haugan" />
		<tag k="place" v="farm" />
		<tag k="ssr:stedsnr" v="563911" />
	</node>
	<node id="-732110" lat="68.8556166701" lon="16.4847333337">
		<tag k="name" v="Vika" />
		<tag k="place" v="hamlet" />
		<tag k="ssr:stedsnr" v="563611" />
	</node>
	<node id="-730274" lat="68.7745916678" lon="16.3769888798">
		<tag k="name" v="Tennvassåsen" />
		<tag k="place" v="hamlet" />
		<tag k="ssr:stedsnr" v="321430" />
	</node>
	<node id="-732098" lat="68.9537638852" lon="16.6838861188">
		<tag k="name" v="Fjellbu" />
		<tag k="place" v="farm" />
		<tag k="ssr:stedsnr" v="563492" />
	</node>
	<node id="-732097" lat="68.7921305591" lon="16.4079249909">
		<tag k="name" v="Sollia" />
		<tag k="place" v="farm" />
		<tag k="ssr:stedsnr" v="563469" />
	</node>
	<node id="-732090" lat="68.8393291177" lon="16.3422204884">
		<tag k="alt_name" v="Erikstad, nedre" />
		<tag k="name" v="Nedre Erikstad" />
		<tag k="place" v="hamlet" />
		<tag k="ssr:stedsnr" v="563408" />
	</node>
	<node id="-732086" lat="68.8189999964" lon="16.5073194495">
		<tag k="name" v="Berg" />
		<tag k="place" v="farm" />
		<tag k="ssr:stedsnr" v="563376" />
	</node>
	<node id="-732059" lat="68.7215111118" lon="16.5770472225">
		<tag k="name" v="Knatten" />
		<tag k="place" v="isolated_dwelling" />
		<tag k="ssr:stedsnr" v="543622" />
	</node>
	<node id="-732055" lat="68.8824916703" lon="16.5010861238">
		<tag k="name" v="Bjørnrå Indre" />
		<tag k="place" v="farm" />
		<tag k="ssr:stedsnr" v="543385" />
	</node>
	<node id="-732043" lat="68.7812194428" lon="16.5588388985">
		<tag k="leisure" v="pitch" />
		<tag k="name" v="Åsmyra" />
		<tag k="ssr:stedsnr" v="543093" />
	</node>
	<node id="-732027" lat="68.653177777" lon="16.4279000025">
		<tag k="name" v="Nergamsgården" />
		<tag k="place" v="farm" />
		<tag k="ssr:stedsnr" v="542704" />
	</node>
	<node id="-732009" lat="68.8083083352" lon="16.5000250117">
		<tag k="name" v="Bergseng" />
		<tag k="place" v="suburb" />
		<tag k="ssr:stedsnr" v="541876" />
	</node>
	<node id="-731976" lat="68.7723583364" lon="16.452716658">
		<tag k="fixme" v="consider tourism=alpine_hut or tourism=chalet" />
		<tag k="name" v="Røde Kors hytta" />
		<tag k="ssr:stedsnr" v="541116" />
		<tag k="tourism" v="wilderness_hut" />
	</node>
	<node id="-731950" lat="68.8246027748" lon="16.4632055555">
		<tag k="name" v="Kilen" />
		<tag k="place" v="farm" />
		<tag k="ssr:stedsnr" v="522685" />
	</node>
	<node id="-731940" lat="68.8469972208" lon="16.2814388795">
		<tag k="name" v="Skjærstad" />
		<tag k="place" v="farm" />
		<tag k="ssr:stedsnr" v="514379" />
	</node>
	<node id="-731939" lat="68.943288888" lon="16.6744805521">
		<tag k="alt_name" v="Altvika" />
		<tag k="fixme" v="consider place=hamlet" />
		<tag k="name" v="Altevik" />
		<tag k="place" v="village" />
		<tag k="ssr:stedsnr" v="511121" />
	</node>
	<node id="-731938" lat="68.8737333318" lon="16.3636472138">
		<tag k="name" v="Inner-Aun" />
		<tag k="place" v="farm" />
		<tag k="ssr:stedsnr" v="507313" />
	</node>
	<node id="-731937" lat="68.878255557" lon="16.34812777">
		<tag k="name" v="Inner-Aun" />
		<tag k="place" v="farm" />
		<tag k="ssr:stedsnr" v="507310" />
	</node>
	<node id="-731933" lat="68.6841333317" lon="16.535744438">
		<tag k="fixme" v="consider place=suburb, village or hamlet" />
		<tag k="name" v="Sørvika" />
		<tag k="place" v="quarter" />
		<tag k="ssr:stedsnr" v="506154" />
	</node>
	<node id="-731932" lat="68.6132166678" lon="16.5128333408">
		<tag k="alt_name" v="Gausvik" />
		<tag k="name" v="Gausvika" />
		<tag k="place" v="hamlet" />
		<tag k="ssr:stedsnr" v="505251" />
	</node>
	<node id="-731931" lat="68.6134249984" lon="16.5030166671">
		<tag k="name" v="Sandbakkan" />
		<tag k="place" v="farm" />
		<tag k="ssr:stedsnr" v="505252" />
	</node>
	<node id="-731921" lat="68.6737222221" lon="16.5723222334">
		<tag k="name" v="Soltun" />
		<tag k="place" v="farm" />
		<tag k="ssr:stedsnr" v="505077" />
	</node>
	<node id="-731918" lat="68.6518694436" lon="16.4288249892">
		<tag k="loc_name:se" v="Jávreluokta" />
		<tag k="name" v="Storvatnet" />
		<tag k="name:no" v="Storvatnet" />
		<tag k="place" v="farm" />
		<tag k="ssr:stedsnr" v="505051" />
	</node>
	<node id="-731914" lat="68.62796667" lon="16.4976138966">
		<tag k="name" v="Lauklia" />
		<tag k="place" v="isolated_dwelling" />
		<tag k="ssr:stedsnr" v="505011" />
	</node>
	<node id="-731913" lat="68.7212805526" lon="16.5433027669">
		<tag k="name" v="Frydenlund" />
		<tag k="place" v="farm" />
		<tag k="ssr:stedsnr" v="503965" />
	</node>
	<node id="-731909" lat="68.7337222211" lon="16.5655583244">
		<tag k="name" v="Myrland" />
		<tag k="place" v="farm" />
		<tag k="ssr:stedsnr" v="503942" />
	</node>
	<node id="-731906" lat="68.7379472226" lon="16.5573250105">
		<tag k="fixme" v="multiple name tags, choose one and add the other to alt_name" />
		<tag k="name" v="Hamnskog;Øverland" />
		<tag k="place" v="farm" />
		<tag k="ssr:stedsnr" v="503934" />
	</node>
	<node id="-731903" lat="68.7021166711" lon="16.5401472228">
		<tag k="name" v="Brustad" />
		<tag k="place" v="farm" />
		<tag k="ssr:stedsnr" v="503862" />
	</node>
	<node id="-731902" lat="68.7132000025" lon="16.5268250056">
		<tag k="name" v="Myrland" />
		<tag k="place" v="farm" />
		<tag k="ssr:stedsnr" v="503844" />
	</node>
	<node id="-731901" lat="68.7474555544" lon="16.5439472207">
		<tag k="name" v="Bakkan" />
		<tag k="place" v="farm" />
		<tag k="ssr:stedsnr" v="503771" />
	</node>
	<node id="-731899" lat="68.9801861139" lon="16.5575416785">
		<tag k="fixme" v="consider place=hamlet" />
		<tag k="name" v="Austnes" />
		<tag k="place" v="farm" />
		<tag k="ssr:stedsnr" v="503671" />
	</node>
	<node id="-730239" lat="68.7295472189" lon="16.6433861121">
		<tag k="name" v="Rogla" />
		<tag k="place" v="farm" />
		<tag k="ssr:stedsnr" v="301919" />
	</node>
	<node id="-731890" lat="68.9533166659" lon="16.2853916572">
		<tag k="name" v="Alvestad" />
		<tag k="place" v="hamlet" />
		<tag k="ssr:stedsnr" v="503476" />
	</node>
	<node id="-731885" lat="68.831669445" lon="16.305111121">
		<tag k="name" v="Lavollen" />
		<tag k="place" v="farm" />
		<tag k="ssr:stedsnr" v="503392" />
	</node>
	<node id="-731884" lat="68.8332555569" lon="16.4083250059">
		<tag k="name" v="Grunnvassbotn" />
		<tag k="place" v="farm" />
		<tag k="ssr:stedsnr" v="503390" />
	</node>
	<node id="-731880" lat="68.823683332" lon="16.4258611083">
		<tag k="name" v="Møkkeland" />
		<tag k="place" v="hamlet" />
		<tag k="ssr:stedsnr" v="503376" />
	</node>
	<node id="-731879" lat="68.8194083374" lon="16.3930333312">
		<tag k="name" v="Moen" />
		<tag k="place" v="farm" />
		<tag k="ssr:stedsnr" v="503375" />
	</node>
	<node id="-731872" lat="68.9975999973" lon="16.5356666651">
		<tag k="alt_name" v="Nergård" />
		<tag k="name" v="Nergården" />
		<tag k="place" v="farm" />
		<tag k="ssr:stedsnr" v="503121" />
	</node>
	<node id="-731856" lat="68.9489416623" lon="16.657516667">
		<tag k="name" v="Sørsand" />
		<tag k="place" v="farm" />
		<tag k="ssr:stedsnr" v="502520" />
	</node>
	<node id="-731819" lat="68.7736222206" lon="16.5552277759">
		<tag k="name" v="Øverlandet" />
		<tag k="place" v="suburb" />
		<tag k="ssr:stedsnr" v="482105" />
	</node>
	<node id="-731809" lat="68.9563916666" lon="16.7410194346">
		<tag k="fixme" v="consider place=hamlet" />
		<tag k="name" v="Slagstad" />
		<tag k="place" v="farm" />
		<tag k="ssr:stedsnr" v="481957" />
	</node>
	<node id="-731771" lat="69.0127805574" lon="16.4732638856">
		<tag k="name" v="Stranda" />
		<tag k="place" v="hamlet" />
		<tag k="ssr:stedsnr" v="481391" />
	</node>
	<node id="-730559" lat="68.6715780125" lon="16.6253979685">
		<tag k="name" v="Grasholmen" />
		<tag k="place" v="farm" />
		<tag k="ssr:stedsnr" v="990971" />
	</node>
	<node id="-731762" lat="69.0181055541" lon="16.5064361128">
		<tag k="name" v="Yttersundsvoll" />
		<tag k="place" v="hamlet" />
		<tag k="ssr:stedsnr" v="481263" />
	</node>
	<node id="-731759" lat="68.7870805573" lon="16.5321000079">
		<tag k="amenity" v="school" />
		<tag k="name" v="Seljestad skole" />
		<tag k="ssr:stedsnr" v="481182" />
	</node>
	<node id="-731751" lat="68.9152583319" lon="16.2635472089">
		<tag k="fixme" v="consider place=hamlet" />
		<tag k="name" v="Ytter-Elgsnes" />
		<tag k="place" v="farm" />
		<tag k="ssr:stedsnr" v="465742" />
	</node>
	<node id="-731750" lat="68.5688194406" lon="16.5121027738">
		<tag k="name" v="Sandtorg" />
		<tag k="place" v="farm" />
		<tag k="ssr:stedsnr" v="464971" />
	</node>
	<node id="-731748" lat="68.8224416693" lon="16.4702333418">
		<tag k="name" v="Myreng" />
		<tag k="place" v="farm" />
		<tag k="ssr:stedsnr" v="462696" />
	</node>
	<node id="-730554" lat="68.5825001957" lon="16.4999857341">
		<tag k="name" v="Årbogen" />
		<tag k="place" v="farm" />
		<tag k="ssr:stedsnr" v="1073180" />
	</node>
	<node id="-731736" lat="68.9636194469" lon="16.5075055578">
		<tag k="name" v="Akkarnes" />
		<tag k="place" v="farm" />
		<tag k="ssr:stedsnr" v="450010" />
	</node>
	<node id="-731731" lat="68.6863472267" lon="16.5198722212">
		<tag k="alt_name" v="Opdal" />
		<tag k="name" v="Oppdal" />
		<tag k="place" v="farm" />
		<tag k="ssr:stedsnr" v="446171" />
	</node>
	<node id="-731729" lat="68.6000053815" lon="16.5021843145">
		<tag k="fixme" v="consider place=hamlet" />
		<tag k="name" v="Haukebø" />
		<tag k="place" v="farm" />
		<tag k="ssr:stedsnr" v="445199" />
	</node>
	<node id="-731727" lat="68.5650500037" lon="16.5092500086">
		<tag k="loc_name:se" v="Hoalbma" />
		<tag k="name" v="Sandtorg" />
		<tag k="name:no" v="Sandtorg" />
		<tag k="place" v="farm" />
		<tag k="ssr:stedsnr" v="445143" />
	</node>
	<node id="-731725" lat="68.6647833349" lon="16.5027416562">
		<tag k="name" v="Myrlund" />
		<tag k="place" v="farm" />
		<tag k="ssr:stedsnr" v="445085" />
	</node>
	<node id="-731724" lat="68.6640083362" lon="16.4975777663">
		<tag k="name" v="Storhaugen" />
		<tag k="place" v="farm" />
		<tag k="ssr:stedsnr" v="445078" />
	</node>
	<node id="-730429" lat="69.0594055529" lon="16.5309888968">
		<tag k="alt_name" v="Krøttøy" />
		<tag k="name" v="Krøttøya" />
		<tag k="place" v="farm" />
		<tag k="ssr:stedsnr" v="381141" />
	</node>
	<node id="-731701" lat="68.7201111126" lon="16.5222194564">
		<tag k="alt_name" v="Andsletta" />
		<tag k="name" v="Ansletta" />
		<tag k="place" v="farm" />
		<tag k="ssr:stedsnr" v="442974" />
	</node>
	<node id="-731691" lat="68.9650388869" lon="16.5942027767">
		<tag k="alt_name" v="Horsevik" />
		<tag k="name" v="Horsevika" />
		<tag k="place" v="isolated_dwelling" />
		<tag k="ssr:stedsnr" v="442785" />
	</node>
	<node id="-731684" lat="68.9305972263" lon="16.623080559">
		<tag k="alt_name" v="Fenes" />
		<tag k="name" v="Øvre Fenes" />
		<tag k="place" v="farm" />
		<tag k="ssr:stedsnr" v="442541" />
	</node>
	<node id="-731677" lat="68.7998916668" lon="16.4752111223">
		<tag k="name" v="Øverby" />
		<tag k="place" v="farm" />
		<tag k="ssr:stedsnr" v="442501" />
	</node>
	<node id="-731667" lat="68.8333861124" lon="16.2996666545">
		<tag k="name" v="Jessevollen" />
		<tag k="place" v="farm" />
		<tag k="ssr:stedsnr" v="442413" />
	</node>
	<node id="-731665" lat="68.8194638927" lon="16.5054833347">
		<tag k="name" v="Vika" />
		<tag k="place" v="farm" />
		<tag k="ssr:stedsnr" v="442393" />
	</node>
	<node id="-731662" lat="69.0040416708" lon="16.5296861192">
		<tag k="alt_name" v="Ytre Sandvika" />
		<tag k="name" v="Sandvika" />
		<tag k="place" v="isolated_dwelling" />
		<tag k="ssr:stedsnr" v="442201" />
	</node>
	<node id="-731652" lat="68.8042833339" lon="16.5342777774">
		<tag k="amenity" v="sports_centre" />
		<tag k="name" v="Hålogalandshallen" />
		<tag k="ssr:stedsnr" v="424274" />
	</node>
	<node id="-731614" lat="68.678547226" lon="16.5580194423">
		<tag k="name" v="Perhaugen" />
		<tag k="place" v="farm" />
		<tag k="ssr:stedsnr" v="421731" />
	</node>
	<node id="-731604" lat="68.8348333289" lon="16.3632944465">
		<tag k="name" v="Harebakken" />
		<tag k="place" v="farm" />
		<tag k="ssr:stedsnr" v="420994" />
	</node>
	<node id="-731599" lat="68.8027722177" lon="16.4925055572">
		<tag k="name" v="Høgfors" />
		<tag k="place" v="isolated_dwelling" />
		<tag k="ssr:stedsnr" v="420840" />
	</node>
	<node id="-731591" lat="68.6033638916" lon="16.5022916578">
		<tag k="name" v="Beian" />
		<tag k="place" v="farm" />
		<tag k="ssr:stedsnr" v="420515" />
	</node>
	<node id="-731536" lat="68.589016664" lon="16.5018972085">
		<tag k="alt_name" v="Breidnesvika" />
		<tag k="name" v="Breinesvika" />
		<tag k="place" v="farm" />
		<tag k="ssr:stedsnr" v="263206" />
	</node>
	<node id="-731535" lat="68.582303718" lon="16.4990056727">
		<tag k="fixme" v="consider place=hamlet" />
		<tag k="name" v="Årbogen - Orbohki" />
		<tag k="name:no" v="Årbogen" />
		<tag k="name:se" v="Orbohki" />
		<tag k="place" v="farm" />
		<tag k="ssr:stedsnr" v="263184" />
	</node>
	<node id="-731532" lat="68.6587583347" lon="16.4931500107">
		<tag k="loc_name:se" v="Vuovdesiida" />
		<tag k="name" v="Dalen" />
		<tag k="name:no" v="Dalen" />
		<tag k="place" v="farm" />
		<tag k="ssr:stedsnr" v="263092" />
	</node>
	<node id="-731526" lat="68.6287722227" lon="16.5582999996">
		<tag k="name" v="Fjellet" />
		<tag k="place" v="farm" />
		<tag k="ssr:stedsnr" v="263012" />
	</node>
	<node id="-731524" lat="68.6039972255" lon="16.4987666612">
		<tag k="name" v="Steinset" />
		<tag k="place" v="farm" />
		<tag k="ssr:stedsnr" v="262224" />
	</node>
	<node id="-733559" lat="68.7569006849" lon="16.3972085735">
		<tag k="name" v="Sjurnesset" />
		<tag k="place" v="farm" />
		<tag k="ssr:stedsnr" v="975622" />
	</node>
	<node id="-733557" lat="68.7869988967" lon="16.5589518547">
		<tag k="fixme" v="consider place=hamlet" />
		<tag k="name" v="Gansås" />
		<tag k="place" v="farm" />
		<tag k="ssr:stedsnr" v="973314" />
	</node>
	<node id="-733556" lat="68.7845888867" lon="16.5376999904">
		<tag k="loc_name" v="Nerbotn" />
		<tag k="name" v="Nerbotten" />
		<tag k="place" v="farm" />
		<tag k="ssr:stedsnr" v="970658" />
	</node>
	<node id="-733522" lat="68.8393083367" lon="16.3443305635">
		<tag k="name" v="Erikstad" />
		<tag k="place" v="farm" />
		<tag k="ssr:stedsnr" v="966991" />
	</node>
	<node id="-733519" lat="68.9827055601" lon="16.5696138819">
		<tag k="name" v="Vollen" />
		<tag k="place" v="farm" />
		<tag k="ssr:stedsnr" v="966942" />
	</node>
	<node id="-733513" lat="68.7935861113" lon="16.5258833343">
		<tag k="amenity" v="school" />
		<tag k="name" v="Heggen videregående skole" />
		<tag k="ssr:stedsnr" v="966839" />
	</node>
	<node id="-733508" lat="68.7578972217" lon="16.5693305488">
		<tag k="name" v="Hals" />
		<tag k="place" v="farm" />
		<tag k="ssr:stedsnr" v="966753" />
	</node>
	<node id="-733503" lat="68.6710250037" lon="16.5028889009">
		<tag k="name" v="Elvegård" />
		<tag k="place" v="farm" />
		<tag k="ssr:stedsnr" v="966730" />
	</node>
	<node id="-731454" lat="68.7720194443" lon="16.4376694485">
		<tag k="fixme" v="consider tourism=alpine_hut or tourism=chalet" />
		<tag k="name" v="Grønnkollen" />
		<tag k="ssr:stedsnr" v="248742" />
		<tag k="tourism" v="wilderness_hut" />
	</node>
	<node id="-731451" lat="68.9899277804" lon="16.5118805504">
		<tag k="name" v="Stranda" />
		<tag k="place" v="hamlet" />
		<tag k="ssr:stedsnr" v="479426" />
	</node>
	<node id="-731447" lat="68.7254896104" lon="16.6414306381">
		<tag k="name" v="Rogla" />
		<tag k="place" v="farm" />
		<tag k="ssr:stedsnr" v="241907" />
	</node>
	<node id="-731444" lat="68.8212777782" lon="16.3857083398">
		<tag k="name" v="Knutheimen" />
		<tag k="place" v="locality" />
		<tag k="ssr:stedsnr" v="240988" />
	</node>
	<node id="-733485" lat="68.6119500013" lon="16.5172444449">
		<tag k="amenity" v="school" />
		<tag k="name" v="Gausvik skole" />
		<tag k="ssr:stedsnr" v="966502" />
	</node>
	<node id="-733479" lat="68.6281083317" lon="16.5582055625">
		<tag k="name" v="Elvehøy" />
		<tag k="place" v="farm" />
		<tag k="ssr:stedsnr" v="966405" />
	</node>
	<node id="-731420" lat="68.7799277736" lon="16.5590222323">
		<tag k="amenity" v="school" />
		<tag k="name" v="Kanebogen skole" />
		<tag k="ssr:stedsnr" v="240084" />
	</node>
	<node id="-731418" lat="68.8188333304" lon="16.4798666559">
		<tag k="name" v="Gamnes" />
		<tag k="place" v="farm" />
		<tag k="ssr:stedsnr" v="240050" />
	</node>
	<node id="-733447" lat="68.8179277807" lon="16.5295138777">
		<tag k="name" v="Nygård" />
		<tag k="place" v="isolated_dwelling" />
		<tag k="ssr:stedsnr" v="947778" />
	</node>
	<node id="-733446" lat="68.8246805551" lon="16.4392416772">
		<tag k="name" v="Solbakken" />
		<tag k="place" v="farm" />
		<tag k="ssr:stedsnr" v="947676" />
	</node>
	<node id="-733434" lat="68.9850277747" lon="16.4780555512">
		<tag k="name" v="Vestnes" />
		<tag k="place" v="farm" />
		<tag k="ssr:stedsnr" v="936023" />
	</node>
	<node id="-733433" lat="68.8375305589" lon="16.2899194365">
		<tag k="name" v="Skjærstad" />
		<tag k="place" v="farm" />
		<tag k="ssr:stedsnr" v="935501" />
	</node>
	<node id="-733432" lat="68.6703111074" lon="16.4964083341">
		<tag k="name" v="Sørvikmarken" />
		<tag k="place" v="farm" />
		<tag k="ssr:stedsnr" v="935470" />
	</node>
	<node id="-733429" lat="68.6842722242" lon="16.5449000034">
		<tag k="name" v="Nordeng" />
		<tag k="place" v="farm" />
		<tag k="ssr:stedsnr" v="931162" />
	</node>
	<node id="-732542" lat="68.7899416659" lon="16.5235333416">
		<tag k="name" v="Seljestad" />
		<tag k="place" v="suburb" />
		<tag k="ssr:stedsnr" v="685458" />
	</node>
	<node id="-733422" lat="68.6620416621" lon="16.576897224">
		<tag k="alt_name" v="Fauskevåg, litle" />
		<tag k="fixme" v="consider place=hamlet" />
		<tag k="name" v="Litle Fauskevåg" />
		<tag k="place" v="village" />
		<tag k="ssr:stedsnr" v="930088" />
	</node>
	<node id="-733420" lat="68.6670611144" lon="16.4908722293">
		<tag k="name" v="Jørnstad" />
		<tag k="place" v="farm" />
		<tag k="ssr:stedsnr" v="930084" />
	</node>
	<node id="-733418" lat="68.6557249982" lon="16.589577768">
		<tag k="name" v="Nordheim" />
		<tag k="place" v="farm" />
		<tag k="ssr:stedsnr" v="930078" />
	</node>
	<node id="-733414" lat="68.6558833337" lon="16.4317416639">
		<tag k="name" v="Nygård" />
		<tag k="place" v="farm" />
		<tag k="ssr:stedsnr" v="930051" />
	</node>
	<node id="-733413" lat="68.6471047373" lon="16.4320298391">
		<tag k="alt_name:no" v="Kommelhaugen" />
		<tag k="fixme" v="consider place=hamlet" />
		<tag k="loc_name:se" v="Suguluokta" />
		<tag k="name" v="Kummelhaugen" />
		<tag k="name:no" v="Kummelhaugen" />
		<tag k="place" v="farm" />
		<tag k="ssr:stedsnr" v="930044" />
	</node>
	<node id="-733408" lat="68.7132416639" lon="16.545922219">
		<tag k="alt_name" v="Asplia" />
		<tag k="name" v="Aspeli" />
		<tag k="place" v="farm" />
		<tag k="ssr:stedsnr" v="928886" />
	</node>
	<node id="-731356" lat="69.018497223" lon="16.5332083372">
		<tag k="name" v="Innersundsvoll" />
		<tag k="place" v="hamlet" />
		<tag k="ssr:stedsnr" v="238061" />
	</node>
	<node id="-731355" lat="69.0008861091" lon="16.5293166728">
		<tag k="name" v="Vollan" />
		<tag k="place" v="hamlet" />
		<tag k="ssr:stedsnr" v="238033" />
	</node>
	<node id="-733395" lat="68.8830083313" lon="16.6852583385">
		<tag k="name" v="Åkerøya" />
		<tag k="place" v="farm" />
		<tag k="ssr:stedsnr" v="928572" />
	</node>
	<node id="-733394" lat="68.8764000035" lon="16.3524499989">
		<tag k="name" v="Inner-Aun" />
		<tag k="place" v="farm" />
		<tag k="ssr:stedsnr" v="928567" />
	</node>
	<node id="-731339" lat="68.7917722179" lon="16.3421749967">
		<tag k="historic" v="shieling" />
		<tag k="name" v="Asbjørnsætra" />
		<tag k="place" v="locality" />
		<tag k="ssr:stedsnr" v="234959" />
	</node>
	<node id="-733382" lat="68.7951527736" lon="16.4346805493">
		<tag k="landuse" v="military" />
		<tag k="name" v="Åsegarden" />
		<tag k="ssr:stedsnr" v="928446" />
	</node>
	<node id="-733380" lat="68.8444027814" lon="16.2755777716">
		<tag k="name" v="Skjærstad" />
		<tag k="place" v="farm" />
		<tag k="ssr:stedsnr" v="928404" />
	</node>
	<node id="-733378" lat="68.8345991091" lon="16.3530792848">
		<tag k="alt_name" v="Erikstad, øvre" />
		<tag k="name" v="Øvre Erikstad" />
		<tag k="place" v="hamlet" />
		<tag k="ssr:stedsnr" v="928391" />
	</node>
	<node id="-731328" lat="68.8520805592" lon="16.4878472269">
		<tag k="name" v="Stornes" />
		<tag k="place" v="farm" />
		<tag k="ssr:stedsnr" v="220767" />
	</node>
	<node id="-733373" lat="69.0004249995" lon="16.5286000069">
		<tag k="name" v="Vollan" />
		<tag k="place" v="isolated_dwelling" />
		<tag k="ssr:stedsnr" v="928148" />
	</node>
	<node id="-733368" lat="69.0188472231" lon="16.5373083278">
		<tag k="alt_name" v="Sundsvollen, in" />
		<tag k="name" v="Indre Sundsvollen" />
		<tag k="place" v="isolated_dwelling" />
		<tag k="ssr:stedsnr" v="928083" />
	</node>
	<node id="-731318" lat="68.8885805572" lon="16.6025805439">
		<tag k="name" v="Skjæret" />
		<tag k="place" v="farm" />
		<tag k="ssr:stedsnr" v="212379" />
	</node>
	<node id="-731314" lat="68.8405027777" lon="16.3017999873">
		<tag k="name" v="Skjærstad" />
		<tag k="place" v="farm" />
		<tag k="ssr:stedsnr" v="206461" />
	</node>
	<node id="-731312" lat="68.874883333" lon="16.3586499904">
		<tag k="name" v="Inner-Aun" />
		<tag k="place" v="farm" />
		<tag k="ssr:stedsnr" v="204289" />
	</node>
	<node id="-733359" lat="68.7329499984" lon="16.5614416709">
		<tag k="name" v="Vollen" />
		<tag k="place" v="farm" />
		<tag k="ssr:stedsnr" v="927969" />
	</node>
	<node id="-731310" lat="68.6969527763" lon="16.5774611091">
		<tag k="name" v="Berglund" />
		<tag k="place" v="farm" />
		<tag k="ssr:stedsnr" v="203192" />
	</node>
	<node id="-731305" lat="68.6752250025" lon="16.5018750038">
		<tag k="name" v="Søreng" />
		<tag k="place" v="farm" />
		<tag k="ssr:stedsnr" v="202124" />
	</node>
	<node id="-733351" lat="68.803605554" lon="16.5339333336">
		<tag k="amenity" v="sports_centre" />
		<tag k="name" v="Harstadhallen" />
		<tag k="ssr:stedsnr" v="909314" />
	</node>
	<node id="-733350" lat="68.8237416647" lon="16.3991361128">
		<tag k="name" v="Kaltdalen" />
		<tag k="place" v="farm" />
		<tag k="ssr:stedsnr" v="908992" />
	</node>
	<node id="-731301" lat="68.6523472237" lon="16.5864083343">
		<tag k="alt_name" v="Voldstad" />
		<tag k="name" v="Vollstad" />
		<tag k="place" v="farm" />
		<tag k="ssr:stedsnr" v="202054" />
	</node>
	<node id="-731294" lat="68.9929805588" lon="16.5235416731">
		<tag k="alt_name" v="Øvergård" />
		<tag k="name" v="Øvergården" />
		<tag k="place" v="farm" />
		<tag k="ssr:stedsnr" v="200700" />
	</node>
	<node id="-733338" lat="68.9182138894" lon="16.2677777671">
		<tag k="name" v="Ebergplassen" />
		<tag k="place" v="farm" />
		<tag k="ssr:stedsnr" v="908036" />
	</node>
	<node id="-731279" lat="68.8868638869" lon="16.4625916734">
		<tag k="name" v="Varmedal" />
		<tag k="place" v="farm" />
		<tag k="ssr:stedsnr" v="200610" />
	</node>
	<node id="-731278" lat="68.8783916692" lon="16.5442111098">
		<tag k="alt_name" v="For-Øvre;For, øvre" />
		<tag k="name" v="Øvre For" />
		<tag k="place" v="farm" />
		<tag k="ssr:stedsnr" v="200606" />
	</node>
	<node id="-731274" lat="68.7990166688" lon="16.4777777682">
		<tag k="alt_name" v="Kjelhus, yt;Kjelhus ytre" />
		<tag k="name" v="Ytre Kjelhus" />
		<tag k="place" v="farm" />
		<tag k="ssr:stedsnr" v="200508" />
	</node>
	<node id="-731262" lat="68.728266668" lon="16.5886916543">
		<tag k="name" v="Forhamn" />
		<tag k="place" v="farm" />
		<tag k="ssr:stedsnr" v="199959" />
	</node>
	<node id="-733302" lat="68.9138472215" lon="16.6107138762">
		<tag k="name" v="Skjellesvik" />
		<tag k="place" v="farm" />
		<tag k="ssr:stedsnr" v="906799" />
	</node>
	<node id="-731249" lat="68.8428000045" lon="16.2836555531">
		<tag k="name" v="Myra" />
		<tag k="place" v="farm" />
		<tag k="ssr:stedsnr" v="199421" />
	</node>
	<node id="-732861" lat="68.9506000009" lon="16.6605861158">
		<tag k="name" v="Sand" />
		<tag k="place" v="hamlet" />
		<tag k="ssr:stedsnr" v="782890" />
	</node>
	<node id="-730127" lat="68.8018694458" lon="16.4045166785">
		<tag k="leisure" v="pitch" />
		<tag k="name" v="Sollifjellet alpinsenter" />
		<tag k="ssr:stedsnr" v="294956" />
	</node>
	<node id="-731220" lat="68.661505556" lon="16.5786833258">
		<tag k="name" v="Fauskevåg Lille" />
		<tag k="place" v="farm" />
		<tag k="ssr:stedsnr" v="179660" />
	</node>
	<node id="-731219" lat="68.6517416678" lon="16.5915861153">
		<tag k="name" v="Bergvoll" />
		<tag k="place" v="farm" />
		<tag k="ssr:stedsnr" v="179654" />
	</node>
	<node id="-733260" lat="69.0267583348" lon="16.4927055666">
		<tag k="name" v="Bornøy" />
		<tag k="place" v="farm" />
		<tag k="ssr:stedsnr" v="906096" />
	</node>
	<node id="-731206" lat="68.7747666699" lon="16.5630166724">
		<tag k="name" v="Kleiva" />
		<tag k="place" v="quarter" />
		<tag k="ssr:stedsnr" v="179076" />
	</node>
	<node id="-731202" lat="68.828033331" lon="16.4885444395">
		<tag k="name" v="Undlandet" />
		<tag k="place" v="farm" />
		<tag k="ssr:stedsnr" v="179048" />
	</node>
	<node id="-733248" lat="68.7593027777" lon="16.3988611151">
		<tag k="name" v="Steinneset" />
		<tag k="place" v="farm" />
		<tag k="ssr:stedsnr" v="901961" />
	</node>
	<node id="-731194" lat="68.6697333342" lon="16.5070416634">
		<tag k="name" v="Buvoll" />
		<tag k="place" v="farm" />
		<tag k="ssr:stedsnr" v="178688" />
	</node>
	<node id="-733236" lat="68.8442775089" lon="16.2806594909">
		<tag k="fixme" v="consider place=hamlet" />
		<tag k="name" v="Skjærstad" />
		<tag k="place" v="village" />
		<tag k="ssr:stedsnr" v="878416" />
	</node>
	<node id="-733235" lat="68.8462527745" lon="16.2744944386">
		<tag k="name" v="Skjærstad" />
		<tag k="place" v="farm" />
		<tag k="ssr:stedsnr" v="874512" />
	</node>
	<node id="-733233" lat="68.8746638916" lon="16.3603944352">
		<tag k="name" v="Inner-Aun" />
		<tag k="place" v="farm" />
		<tag k="ssr:stedsnr" v="871320" />
	</node>
	<node id="-733232" lat="68.8833055565" lon="16.3308555546">
		<tag k="name" v="Med-Aun" />
		<tag k="place" v="farm" />
		<tag k="ssr:stedsnr" v="871318" />
	</node>
	<node id="-733231" lat="68.8763083306" lon="16.3556333426">
		<tag k="name" v="Inner-Aun" />
		<tag k="place" v="farm" />
		<tag k="ssr:stedsnr" v="871315" />
	</node>
	<node id="-731179" lat="68.7949833325" lon="16.5049166554">
		<tag k="leisure" v="park" />
		<tag k="name" v="Folkeparken" />
		<tag k="ssr:stedsnr" v="177833" />
	</node>
	<node id="-733225" lat="68.6107333352" lon="16.5001361041">
		<tag k="name" v="Smedbakken" />
		<tag k="place" v="farm" />
		<tag k="ssr:stedsnr" v="869246" />
	</node>
	<node id="-733223" lat="68.6771916626" lon="16.5073249982">
		<tag k="name" v="Brønnlund" />
		<tag k="place" v="farm" />
		<tag k="ssr:stedsnr" v="869129" />
	</node>
	<node id="-733221" lat="68.6687805564" lon="16.5103638848">
		<tag k="name" v="Vikevatnet" />
		<tag k="place" v="farm" />
		<tag k="ssr:stedsnr" v="869089" />
	</node>
	<node id="-733204" lat="68.7235166647" lon="16.5467750072">
		<tag k="name" v="Vindheim" />
		<tag k="place" v="farm" />
		<tag k="ssr:stedsnr" v="867975" />
	</node>
	<node id="-733203" lat="68.7203722215" lon="16.5392639001">
		<tag k="name" v="Brannhaugen" />
		<tag k="place" v="farm" />
		<tag k="ssr:stedsnr" v="867969" />
	</node>
	<node id="-733199" lat="68.9612138916" lon="16.7028138806">
		<tag k="name" v="Hallevika" />
		<tag k="place" v="locality" />
		<tag k="ssr:stedsnr" v="867762" />
	</node>
	<node id="-733197" lat="68.991072218" lon="16.5292361052">
		<tag k="name" v="Vollen" />
		<tag k="place" v="farm" />
		<tag k="ssr:stedsnr" v="867734" />
	</node>
	<node id="-731143" lat="69.0748666708" lon="16.5101833346">
		<tag k="amenity" v="school" />
		<tag k="name" v="Meløyvær skole" />
		<tag k="ssr:stedsnr" v="177168" />
	</node>
	<node id="-733187" lat="68.9439611107" lon="16.6734555633">
		<tag k="alt_name" v="Altevik" />
		<tag k="name" v="Altvika" />
		<tag k="place" v="farm" />
		<tag k="ssr:stedsnr" v="867544" />
	</node>
</osm>
