<?xml version="1.0" encoding="UTF-8"?>
<osm generator="osmapis" version="0.6">
	<node id="-355319" lat="58.0150165286" lon="7.80977234408">
		<tag k="alt_name" v="Songvår Fyr;Songvår fyr" />
		<tag k="name" v="Songvår" />
		<tag k="ssr:date" v="2018-04-09" />
		<tag k="ssr:gruppe" v="navigasjon" />
		<tag k="ssr:hovedgruppe" v="infrastruktur" />
		<tag k="ssr:stedsnr" v="728325" />
		<tag k="ssr:type" v="fyrstasjon" />
	</node>
	<node id="-354227" lat="58.0507750042" lon="7.83231666972">
		<tag k="name" v="Ny-Hellesund" />
		<tag k="old_name" v="Ny Hellesund" />
		<tag k="ssr:date" v="2016-05-10" />
		<tag k="ssr:gruppe" v="navigasjon" />
		<tag k="ssr:hovedgruppe" v="infrastruktur" />
		<tag k="ssr:stedsnr" v="303321" />
		<tag k="ssr:type" v="fyrlykt" />
	</node>
	<node id="-355248" lat="58.1196749987" lon="7.63979445087">
		<tag k="name" v="Sløngane" />
		<tag k="ssr:date" v="2016-05-11" />
		<tag k="ssr:gruppe" v="veg" />
		<tag k="ssr:hovedgruppe" v="infrastruktur" />
		<tag k="ssr:stedsnr" v="688077" />
		<tag k="ssr:type" v="vegstrekning" />
	</node>
	<node id="-355228" lat="58.0632166657" lon="7.86626666458">
		<tag k="name" v="Herøya" />
		<tag k="old_name" v="Herøy;Herøya lykt" />
		<tag k="ssr:date" v="2016-05-10" />
		<tag k="ssr:gruppe" v="navigasjon" />
		<tag k="ssr:hovedgruppe" v="infrastruktur" />
		<tag k="ssr:stedsnr" v="667335" />
		<tag k="ssr:type" v="fyrlykt" />
	</node>
	<node id="-354664" lat="58.0739472207" lon="7.80397499274">
		<tag k="name" v="Nodeholmen" />
		<tag k="ssr:date" v="2016-05-10" />
		<tag k="ssr:gruppe" v="navigasjon" />
		<tag k="ssr:hovedgruppe" v="infrastruktur" />
		<tag k="ssr:stedsnr" v="105228" />
		<tag k="ssr:type" v="lanterne" />
	</node>
	<node id="-355148" lat="58.0406805557" lon="7.78738611237">
		<tag k="name" v="Varholmen" />
		<tag k="ssr:date" v="2016-05-10" />
		<tag k="ssr:gruppe" v="navigasjon" />
		<tag k="ssr:hovedgruppe" v="infrastruktur" />
		<tag k="ssr:stedsnr" v="606346" />
		<tag k="ssr:type" v="fyrlykt" />
	</node>
	<node id="-354602" lat="58.0295169401" lon="7.7002798855">
		<tag k="name" v="Nordre Vassøy" />
		<tag k="ssr:date" v="2018-04-06" />
		<tag k="ssr:gruppe" v="navigasjon" />
		<tag k="ssr:hovedgruppe" v="infrastruktur" />
		<tag k="ssr:stedsnr" v="61933" />
		<tag k="ssr:type" v="fyrlykt" />
	</node>
	<node id="-355583" lat="58.0967361151" lon="7.81479999437">
		<tag k="alt_name" v="Søgne" />
		<tag k="name" v="Søgne kommune" />
		<tag k="ssr:date" v="2016-05-11" />
		<tag k="ssr:gruppe" v="administrativeIndelinger" />
		<tag k="ssr:hovedgruppe" v="offentligAdministrasjon" />
		<tag k="ssr:stedsnr" v="934122" />
		<tag k="ssr:type" v="kommune" />
	</node>
	<node id="-354507" lat="58.0785441023" lon="7.80848488839">
		<tag k="name" v="Hølleverven" />
		<tag k="ssr:date" v="2019-05-30" />
		<tag k="ssr:gruppe" v="veg" />
		<tag k="ssr:hovedgruppe" v="infrastruktur" />
		<tag k="ssr:stedsnr" v="1009028" />
		<tag k="ssr:type" v="adressenavn" />
	</node>
	<node id="-354506" lat="58.109311067" lon="7.76220296862">
		<tag k="name" v="Vedderlia" />
		<tag k="ssr:date" v="2019-05-30" />
		<tag k="ssr:gruppe" v="veg" />
		<tag k="ssr:hovedgruppe" v="infrastruktur" />
		<tag k="ssr:stedsnr" v="1009026" />
		<tag k="ssr:type" v="adressenavn" />
	</node>
	<node id="-354505" lat="58.0673554397" lon="7.86700025626">
		<tag k="name" v="Langenes-Herøya" />
		<tag k="ssr:date" v="2019-05-30" />
		<tag k="ssr:gruppe" v="veg" />
		<tag k="ssr:hovedgruppe" v="infrastruktur" />
		<tag k="ssr:stedsnr" v="1009019" />
		<tag k="ssr:type" v="adressenavn" />
	</node>
	<node id="-354504" lat="58.069344885" lon="7.8634451107">
		<tag k="name" v="Maskorsholmen" />
		<tag k="ssr:date" v="2019-05-30" />
		<tag k="ssr:gruppe" v="veg" />
		<tag k="ssr:hovedgruppe" v="infrastruktur" />
		<tag k="ssr:stedsnr" v="1008593" />
		<tag k="ssr:type" v="adressenavn" />
	</node>
	<node id="-354503" lat="58.0512876063" lon="7.71135545891">
		<tag k="name" v="Lille Lamholmen" />
		<tag k="ssr:date" v="2019-05-30" />
		<tag k="ssr:gruppe" v="veg" />
		<tag k="ssr:hovedgruppe" v="infrastruktur" />
		<tag k="ssr:stedsnr" v="1008591" />
		<tag k="ssr:type" v="adressenavn" />
	</node>
	<node id="-354502" lat="58.0704942486" lon="7.69031981313">
		<tag k="name" v="Marisundholmen" />
		<tag k="ssr:date" v="2019-05-30" />
		<tag k="ssr:gruppe" v="veg" />
		<tag k="ssr:hovedgruppe" v="infrastruktur" />
		<tag k="ssr:stedsnr" v="1008590" />
		<tag k="ssr:type" v="adressenavn" />
	</node>
	<node id="-354501" lat="58.0535464383" lon="7.70998630573">
		<tag k="name" v="Lamholmen" />
		<tag k="ssr:date" v="2019-05-30" />
		<tag k="ssr:gruppe" v="veg" />
		<tag k="ssr:hovedgruppe" v="infrastruktur" />
		<tag k="ssr:stedsnr" v="1008589" />
		<tag k="ssr:type" v="adressenavn" />
	</node>
	<node id="-354500" lat="58.0570668894" lon="7.76610520329">
		<tag k="name" v="Langholmen" />
		<tag k="ssr:date" v="2019-05-30" />
		<tag k="ssr:gruppe" v="veg" />
		<tag k="ssr:hovedgruppe" v="infrastruktur" />
		<tag k="ssr:stedsnr" v="1008588" />
		<tag k="ssr:type" v="adressenavn" />
	</node>
	<node id="-354499" lat="58.0613848746" lon="7.83251299999">
		<tag k="name" v="Kvidbjørnsholmen" />
		<tag k="ssr:date" v="2019-05-30" />
		<tag k="ssr:gruppe" v="veg" />
		<tag k="ssr:hovedgruppe" v="infrastruktur" />
		<tag k="ssr:stedsnr" v="1008587" />
		<tag k="ssr:type" v="adressenavn" />
	</node>
	<node id="-354498" lat="58.0686128315" lon="7.79645779274">
		<tag k="name" v="Labberholmen" />
		<tag k="ssr:date" v="2019-05-30" />
		<tag k="ssr:gruppe" v="veg" />
		<tag k="ssr:hovedgruppe" v="infrastruktur" />
		<tag k="ssr:stedsnr" v="1008586" />
		<tag k="ssr:type" v="adressenavn" />
	</node>
	<node id="-354497" lat="58.0566406866" lon="7.76847543837">
		<tag k="name" v="Kuholmen" />
		<tag k="ssr:date" v="2019-05-30" />
		<tag k="ssr:gruppe" v="veg" />
		<tag k="ssr:hovedgruppe" v="infrastruktur" />
		<tag k="ssr:stedsnr" v="1008582" />
		<tag k="ssr:type" v="adressenavn" />
	</node>
	<node id="-354496" lat="58.0526607678" lon="7.72884026677">
		<tag k="name" v="Kompassholmen" />
		<tag k="ssr:date" v="2019-05-30" />
		<tag k="ssr:gruppe" v="veg" />
		<tag k="ssr:hovedgruppe" v="infrastruktur" />
		<tag k="ssr:stedsnr" v="1008581" />
		<tag k="ssr:type" v="adressenavn" />
	</node>
	<node id="-354495" lat="58.0600792687" lon="7.73981666909">
		<tag k="name" v="Massesholmen" />
		<tag k="ssr:date" v="2019-05-30" />
		<tag k="ssr:gruppe" v="veg" />
		<tag k="ssr:hovedgruppe" v="infrastruktur" />
		<tag k="ssr:stedsnr" v="988474" />
		<tag k="ssr:type" v="adressenavn" />
	</node>
	<node id="-354494" lat="58.0486662978" lon="7.78650555965">
		<tag k="name" v="Østre Brendøya" />
		<tag k="ssr:date" v="2019-05-30" />
		<tag k="ssr:gruppe" v="veg" />
		<tag k="ssr:hovedgruppe" v="infrastruktur" />
		<tag k="ssr:stedsnr" v="988473" />
		<tag k="ssr:type" v="adressenavn" />
	</node>
	<node id="-354493" lat="58.0576742573" lon="7.86623915931">
		<tag k="name" v="Indre Hellersøya" />
		<tag k="ssr:date" v="2019-05-30" />
		<tag k="ssr:gruppe" v="veg" />
		<tag k="ssr:hovedgruppe" v="infrastruktur" />
		<tag k="ssr:stedsnr" v="988472" />
		<tag k="ssr:type" v="adressenavn" />
	</node>
	<node id="-354492" lat="58.0705518585" lon="7.86381362117">
		<tag k="name" v="Dybingholmen" />
		<tag k="ssr:date" v="2019-05-30" />
		<tag k="ssr:gruppe" v="veg" />
		<tag k="ssr:hovedgruppe" v="infrastruktur" />
		<tag k="ssr:stedsnr" v="988471" />
		<tag k="ssr:type" v="adressenavn" />
	</node>
	<node id="-354491" lat="58.0515748952" lon="7.83832276779">
		<tag k="name" v="Kapelløya" />
		<tag k="ssr:date" v="2019-05-30" />
		<tag k="ssr:gruppe" v="veg" />
		<tag k="ssr:hovedgruppe" v="infrastruktur" />
		<tag k="ssr:stedsnr" v="988425" />
		<tag k="ssr:type" v="adressenavn" />
	</node>
	<node id="-354490" lat="58.0517172332" lon="7.76467995091">
		<tag k="name" v="Joseholmen" />
		<tag k="ssr:date" v="2019-05-30" />
		<tag k="ssr:gruppe" v="veg" />
		<tag k="ssr:hovedgruppe" v="infrastruktur" />
		<tag k="ssr:stedsnr" v="987005" />
		<tag k="ssr:type" v="adressenavn" />
	</node>
	<node id="-354489" lat="58.08324459" lon="7.78402618083">
		<tag k="name" v="Bårågeren" />
		<tag k="ssr:date" v="2019-05-30" />
		<tag k="ssr:gruppe" v="veg" />
		<tag k="ssr:hovedgruppe" v="infrastruktur" />
		<tag k="ssr:stedsnr" v="987004" />
		<tag k="ssr:type" v="adressenavn" />
	</node>
	<node id="-354488" lat="58.0294548131" lon="7.69683292224">
		<tag k="name" v="Nordre Vassøy" />
		<tag k="ssr:date" v="2019-05-30" />
		<tag k="ssr:gruppe" v="veg" />
		<tag k="ssr:hovedgruppe" v="infrastruktur" />
		<tag k="ssr:stedsnr" v="987003" />
		<tag k="ssr:type" v="adressenavn" />
	</node>
	<node id="-354487" lat="58.0634408735" lon="7.76200392726">
		<tag k="name" v="Ydre Ballerholmen" />
		<tag k="ssr:date" v="2019-05-30" />
		<tag k="ssr:gruppe" v="veg" />
		<tag k="ssr:hovedgruppe" v="infrastruktur" />
		<tag k="ssr:stedsnr" v="987000" />
		<tag k="ssr:type" v="adressenavn" />
	</node>
	<node id="-354486" lat="58.0623439356" lon="7.82349880746">
		<tag k="name" v="Østre Brattholmen" />
		<tag k="ssr:date" v="2019-05-30" />
		<tag k="ssr:gruppe" v="veg" />
		<tag k="ssr:hovedgruppe" v="infrastruktur" />
		<tag k="ssr:stedsnr" v="986999" />
		<tag k="ssr:type" v="adressenavn" />
	</node>
	<node id="-354485" lat="58.0406109318" lon="7.68800827109">
		<tag k="name" v="Ålo-Nettholmen" />
		<tag k="ssr:date" v="2019-05-30" />
		<tag k="ssr:gruppe" v="veg" />
		<tag k="ssr:hovedgruppe" v="infrastruktur" />
		<tag k="ssr:stedsnr" v="986997" />
		<tag k="ssr:type" v="adressenavn" />
	</node>
	<node id="-354484" lat="58.0411167759" lon="7.69527359096">
		<tag k="name" v="Åløya" />
		<tag k="ssr:date" v="2019-05-30" />
		<tag k="ssr:gruppe" v="veg" />
		<tag k="ssr:hovedgruppe" v="infrastruktur" />
		<tag k="ssr:stedsnr" v="986998" />
		<tag k="ssr:type" v="adressenavn" />
	</node>
	<node id="-354483" lat="58.0523631618" lon="7.78419441387">
		<tag k="name" v="Østre Bastholmen" />
		<tag k="ssr:date" v="2019-05-30" />
		<tag k="ssr:gruppe" v="veg" />
		<tag k="ssr:hovedgruppe" v="infrastruktur" />
		<tag k="ssr:stedsnr" v="986996" />
		<tag k="ssr:type" v="adressenavn" />
	</node>
	<node id="-354482" lat="58.0665760332" lon="7.84522622074">
		<tag k="name" v="Åros Ende" />
		<tag k="ssr:date" v="2019-05-30" />
		<tag k="ssr:gruppe" v="veg" />
		<tag k="ssr:hovedgruppe" v="infrastruktur" />
		<tag k="ssr:stedsnr" v="986995" />
		<tag k="ssr:type" v="adressenavn" />
	</node>
	<node id="-354481" lat="58.0521127086" lon="7.72910034047">
		<tag k="name" v="Ydre Tydille" />
		<tag k="ssr:date" v="2019-05-30" />
		<tag k="ssr:gruppe" v="veg" />
		<tag k="ssr:hovedgruppe" v="infrastruktur" />
		<tag k="ssr:stedsnr" v="986994" />
		<tag k="ssr:type" v="adressenavn" />
	</node>
	<node id="-354480" lat="58.057834125" lon="7.80129429533">
		<tag k="name" v="Ydre Kjeøya" />
		<tag k="ssr:date" v="2019-05-30" />
		<tag k="ssr:gruppe" v="veg" />
		<tag k="ssr:hovedgruppe" v="infrastruktur" />
		<tag k="ssr:stedsnr" v="986971" />
		<tag k="ssr:type" v="adressenavn" />
	</node>
	<node id="-354479" lat="58.0460630891" lon="7.77824174977">
		<tag k="name" v="Vestre Brendøya" />
		<tag k="ssr:date" v="2019-05-30" />
		<tag k="ssr:gruppe" v="veg" />
		<tag k="ssr:hovedgruppe" v="infrastruktur" />
		<tag k="ssr:stedsnr" v="986969" />
		<tag k="ssr:type" v="adressenavn" />
	</node>
	<node id="-354478" lat="58.0581459301" lon="7.73961360269">
		<tag k="name" v="Vestre Kuholmen" />
		<tag k="ssr:date" v="2019-05-30" />
		<tag k="ssr:gruppe" v="veg" />
		<tag k="ssr:hovedgruppe" v="infrastruktur" />
		<tag k="ssr:stedsnr" v="986970" />
		<tag k="ssr:type" v="adressenavn" />
	</node>
	<node id="-354477" lat="58.0129794704" lon="7.72876165238">
		<tag k="name" v="Uvår" />
		<tag k="ssr:date" v="2019-05-30" />
		<tag k="ssr:gruppe" v="veg" />
		<tag k="ssr:hovedgruppe" v="infrastruktur" />
		<tag k="ssr:stedsnr" v="986968" />
		<tag k="ssr:type" v="adressenavn" />
	</node>
	<node id="-354476" lat="58.0542337916" lon="7.7657453615">
		<tag k="name" v="Urholmen" />
		<tag k="ssr:date" v="2019-05-30" />
		<tag k="ssr:gruppe" v="veg" />
		<tag k="ssr:hovedgruppe" v="infrastruktur" />
		<tag k="ssr:stedsnr" v="986967" />
		<tag k="ssr:type" v="adressenavn" />
	</node>
	<node id="-354475" lat="58.0576882965" lon="7.79916389204">
		<tag k="name" v="Tyddeberholmen" />
		<tag k="ssr:date" v="2019-05-30" />
		<tag k="ssr:gruppe" v="veg" />
		<tag k="ssr:hovedgruppe" v="infrastruktur" />
		<tag k="ssr:stedsnr" v="986966" />
		<tag k="ssr:type" v="adressenavn" />
	</node>
	<node id="-354474" lat="58.0507051479" lon="7.71327412033">
		<tag k="name" v="Trysnes-Kjerkeholmen" />
		<tag k="ssr:date" v="2019-05-30" />
		<tag k="ssr:gruppe" v="veg" />
		<tag k="ssr:hovedgruppe" v="infrastruktur" />
		<tag k="ssr:stedsnr" v="986965" />
		<tag k="ssr:type" v="adressenavn" />
	</node>
	<node id="-354473" lat="58.0525933048" lon="7.76702193176">
		<tag k="name" v="Torvskjerholmen" />
		<tag k="ssr:date" v="2019-05-30" />
		<tag k="ssr:gruppe" v="veg" />
		<tag k="ssr:hovedgruppe" v="infrastruktur" />
		<tag k="ssr:stedsnr" v="986964" />
		<tag k="ssr:type" v="adressenavn" />
	</node>
	<node id="-354472" lat="58.0511372861" lon="7.76786844289">
		<tag k="name" v="Torkelsholmen" />
		<tag k="ssr:date" v="2019-05-30" />
		<tag k="ssr:gruppe" v="veg" />
		<tag k="ssr:hovedgruppe" v="infrastruktur" />
		<tag k="ssr:stedsnr" v="986963" />
		<tag k="ssr:type" v="adressenavn" />
	</node>
	<node id="-354471" lat="58.0568369286" lon="7.78893992183">
		<tag k="name" v="Sådøya" />
		<tag k="ssr:date" v="2019-05-30" />
		<tag k="ssr:gruppe" v="veg" />
		<tag k="ssr:hovedgruppe" v="infrastruktur" />
		<tag k="ssr:stedsnr" v="986962" />
		<tag k="ssr:type" v="adressenavn" />
	</node>
	<node id="-354470" lat="58.0254336563" lon="7.68753125234">
		<tag k="name" v="Søndre Vassøy" />
		<tag k="ssr:date" v="2019-05-30" />
		<tag k="ssr:gruppe" v="veg" />
		<tag k="ssr:hovedgruppe" v="infrastruktur" />
		<tag k="ssr:stedsnr" v="986961" />
		<tag k="ssr:type" v="adressenavn" />
	</node>
	<node id="-354469" lat="58.0706458684" lon="7.75378663957">
		<tag k="name" v="Søndre Bastholmen" />
		<tag k="ssr:date" v="2019-05-30" />
		<tag k="ssr:gruppe" v="veg" />
		<tag k="ssr:hovedgruppe" v="infrastruktur" />
		<tag k="ssr:stedsnr" v="986960" />
		<tag k="ssr:type" v="adressenavn" />
	</node>
	<node id="-354468" lat="58.0706458684" lon="7.75378663957">
		<tag k="name" v="Støleholmen" />
		<tag k="ssr:date" v="2019-05-30" />
		<tag k="ssr:gruppe" v="veg" />
		<tag k="ssr:hovedgruppe" v="infrastruktur" />
		<tag k="ssr:stedsnr" v="986959" />
		<tag k="ssr:type" v="adressenavn" />
	</node>
	<node id="-354467" lat="58.0500494574" lon="7.71328074772">
		<tag k="name" v="Stompesteinen" />
		<tag k="ssr:date" v="2019-05-30" />
		<tag k="ssr:gruppe" v="veg" />
		<tag k="ssr:hovedgruppe" v="infrastruktur" />
		<tag k="ssr:stedsnr" v="986958" />
		<tag k="ssr:type" v="adressenavn" />
	</node>
	<node id="-354466" lat="58.0715717174" lon="7.68939876783">
		<tag k="name" v="Storholmen" />
		<tag k="ssr:date" v="2019-05-30" />
		<tag k="ssr:gruppe" v="veg" />
		<tag k="ssr:hovedgruppe" v="infrastruktur" />
		<tag k="ssr:stedsnr" v="986957" />
		<tag k="ssr:type" v="adressenavn" />
	</node>
	<node id="-354465" lat="58.0650303739" lon="7.82064758583">
		<tag k="name" v="Stolkilen" />
		<tag k="ssr:date" v="2019-05-30" />
		<tag k="ssr:gruppe" v="veg" />
		<tag k="ssr:hovedgruppe" v="infrastruktur" />
		<tag k="ssr:stedsnr" v="986956" />
		<tag k="ssr:type" v="adressenavn" />
	</node>
	<node id="-354464" lat="58.0633061001" lon="7.84124699044">
		<tag k="name" v="Slåttholmen" />
		<tag k="ssr:date" v="2019-05-30" />
		<tag k="ssr:gruppe" v="veg" />
		<tag k="ssr:hovedgruppe" v="infrastruktur" />
		<tag k="ssr:stedsnr" v="986955" />
		<tag k="ssr:type" v="adressenavn" />
	</node>
	<node id="-354463" lat="58.0544626783" lon="7.81442112121">
		<tag k="name" v="Skarpøya" />
		<tag k="ssr:date" v="2019-05-30" />
		<tag k="ssr:gruppe" v="veg" />
		<tag k="ssr:hovedgruppe" v="infrastruktur" />
		<tag k="ssr:stedsnr" v="986954" />
		<tag k="ssr:type" v="adressenavn" />
	</node>
	<node id="-354462" lat="58.0638818176" lon="7.79202359061">
		<tag k="name" v="Simonsholmen" />
		<tag k="ssr:date" v="2019-05-30" />
		<tag k="ssr:gruppe" v="veg" />
		<tag k="ssr:hovedgruppe" v="infrastruktur" />
		<tag k="ssr:stedsnr" v="986953" />
		<tag k="ssr:type" v="adressenavn" />
	</node>
	<node id="-354461" lat="58.0620240655" lon="7.79789975284">
		<tag k="name" v="Sanketeinholmen" />
		<tag k="ssr:date" v="2019-05-30" />
		<tag k="ssr:gruppe" v="veg" />
		<tag k="ssr:hovedgruppe" v="infrastruktur" />
		<tag k="ssr:stedsnr" v="986952" />
		<tag k="ssr:type" v="adressenavn" />
	</node>
	<node id="-354460" lat="58.050003607" lon="7.71585778286">
		<tag k="name" v="Salvesholmen" />
		<tag k="ssr:date" v="2019-05-30" />
		<tag k="ssr:gruppe" v="veg" />
		<tag k="ssr:hovedgruppe" v="infrastruktur" />
		<tag k="ssr:stedsnr" v="986951" />
		<tag k="ssr:type" v="adressenavn" />
	</node>
	<node id="-354459" lat="58.0703803767" lon="7.69147679088">
		<tag k="name" v="Røsstad-Urholmen" />
		<tag k="ssr:date" v="2019-05-30" />
		<tag k="ssr:gruppe" v="veg" />
		<tag k="ssr:hovedgruppe" v="infrastruktur" />
		<tag k="ssr:stedsnr" v="986947" />
		<tag k="ssr:type" v="adressenavn" />
	</node>
	<node id="-354458" lat="58.0725748171" lon="7.68910769562">
		<tag k="name" v="Røsstad-Nodholmen" />
		<tag k="ssr:date" v="2019-05-30" />
		<tag k="ssr:gruppe" v="veg" />
		<tag k="ssr:hovedgruppe" v="infrastruktur" />
		<tag k="ssr:stedsnr" v="986946" />
		<tag k="ssr:type" v="adressenavn" />
	</node>
	<node id="-354457" lat="58.056876865" lon="7.84547143482">
		<tag k="name" v="Renneholmen" />
		<tag k="ssr:date" v="2019-05-30" />
		<tag k="ssr:gruppe" v="veg" />
		<tag k="ssr:hovedgruppe" v="infrastruktur" />
		<tag k="ssr:stedsnr" v="986944" />
		<tag k="ssr:type" v="adressenavn" />
	</node>
	<node id="-354456" lat="58.0600729267" lon="7.7778820479">
		<tag k="name" v="Risøya" />
		<tag k="ssr:date" v="2019-05-30" />
		<tag k="ssr:gruppe" v="veg" />
		<tag k="ssr:hovedgruppe" v="infrastruktur" />
		<tag k="ssr:stedsnr" v="986945" />
		<tag k="ssr:type" v="adressenavn" />
	</node>
	<node id="-354455" lat="58.0555902281" lon="7.76946055379">
		<tag k="name" v="Rauna" />
		<tag k="ssr:date" v="2019-05-30" />
		<tag k="ssr:gruppe" v="veg" />
		<tag k="ssr:hovedgruppe" v="infrastruktur" />
		<tag k="ssr:stedsnr" v="986942" />
		<tag k="ssr:type" v="adressenavn" />
	</node>
	<node id="-354454" lat="58.0548018676" lon="7.7668950065">
		<tag k="name" v="Reinerts holme" />
		<tag k="ssr:date" v="2019-05-30" />
		<tag k="ssr:gruppe" v="veg" />
		<tag k="ssr:hovedgruppe" v="infrastruktur" />
		<tag k="ssr:stedsnr" v="986943" />
		<tag k="ssr:type" v="adressenavn" />
	</node>
	<node id="-354453" lat="58.0588863056" lon="7.76475446235">
		<tag k="name" v="Okse" />
		<tag k="ssr:date" v="2019-05-30" />
		<tag k="ssr:gruppe" v="veg" />
		<tag k="ssr:hovedgruppe" v="infrastruktur" />
		<tag k="ssr:stedsnr" v="986941" />
		<tag k="ssr:type" v="adressenavn" />
	</node>
	<node id="-354452" lat="58.054350937" lon="7.78070395617">
		<tag k="name" v="Nordre Bastholmen" />
		<tag k="ssr:date" v="2019-05-30" />
		<tag k="ssr:gruppe" v="veg" />
		<tag k="ssr:hovedgruppe" v="infrastruktur" />
		<tag k="ssr:stedsnr" v="986940" />
		<tag k="ssr:type" v="adressenavn" />
	</node>
	<node id="-354451" lat="58.0490503518" lon="7.74184841486">
		<tag k="name" v="Midtre Lauholmen" />
		<tag k="ssr:date" v="2019-05-30" />
		<tag k="ssr:gruppe" v="veg" />
		<tag k="ssr:hovedgruppe" v="infrastruktur" />
		<tag k="ssr:stedsnr" v="986938" />
		<tag k="ssr:type" v="adressenavn" />
	</node>
	<node id="-354450" lat="58.0563719337" lon="7.84031919634">
		<tag k="name" v="Monsøya" />
		<tag k="ssr:date" v="2019-05-30" />
		<tag k="ssr:gruppe" v="veg" />
		<tag k="ssr:hovedgruppe" v="infrastruktur" />
		<tag k="ssr:stedsnr" v="986939" />
		<tag k="ssr:type" v="adressenavn" />
	</node>
	<node id="-354449" lat="58.0600858216" lon="7.80193067213">
		<tag k="name" v="Mellomkjeøya" />
		<tag k="ssr:date" v="2019-05-30" />
		<tag k="ssr:gruppe" v="veg" />
		<tag k="ssr:hovedgruppe" v="infrastruktur" />
		<tag k="ssr:stedsnr" v="986937" />
		<tag k="ssr:type" v="adressenavn" />
	</node>
	<node id="-354448" lat="58.0625158261" lon="7.7427647508">
		<tag k="name" v="Kjerkeholmen" />
		<tag k="ssr:date" v="2019-05-30" />
		<tag k="ssr:gruppe" v="veg" />
		<tag k="ssr:hovedgruppe" v="infrastruktur" />
		<tag k="ssr:stedsnr" v="986920" />
		<tag k="ssr:type" v="adressenavn" />
	</node>
	<node id="-354447" lat="58.0735210718" lon="7.83649100312">
		<tag k="name" v="Kjølpeviga" />
		<tag k="ssr:date" v="2019-05-30" />
		<tag k="ssr:gruppe" v="veg" />
		<tag k="ssr:hovedgruppe" v="infrastruktur" />
		<tag k="ssr:stedsnr" v="986921" />
		<tag k="ssr:type" v="adressenavn" />
	</node>
	<node id="-354446" lat="58.0501803227" lon="7.71824046406">
		<tag k="name" v="Kjeholmen" />
		<tag k="ssr:date" v="2019-05-30" />
		<tag k="ssr:gruppe" v="veg" />
		<tag k="ssr:hovedgruppe" v="infrastruktur" />
		<tag k="ssr:stedsnr" v="986919" />
		<tag k="ssr:type" v="adressenavn" />
	</node>
	<node id="-354445" lat="58.0781922588" lon="7.8765423941">
		<tag k="name" v="Kilholmen" />
		<tag k="ssr:date" v="2019-05-30" />
		<tag k="ssr:gruppe" v="veg" />
		<tag k="ssr:hovedgruppe" v="infrastruktur" />
		<tag k="ssr:stedsnr" v="986918" />
		<tag k="ssr:type" v="adressenavn" />
	</node>
	<node id="-354444" lat="58.0630166606" lon="7.7983748798">
		<tag k="name" v="Indre Sanketeinholmen" />
		<tag k="ssr:date" v="2019-05-30" />
		<tag k="ssr:gruppe" v="veg" />
		<tag k="ssr:hovedgruppe" v="infrastruktur" />
		<tag k="ssr:stedsnr" v="986917" />
		<tag k="ssr:type" v="adressenavn" />
	</node>
	<node id="-354443" lat="58.0524361811" lon="7.72551357545">
		<tag k="name" v="Indre Tydille" />
		<tag k="ssr:date" v="2019-05-30" />
		<tag k="ssr:gruppe" v="veg" />
		<tag k="ssr:hovedgruppe" v="infrastruktur" />
		<tag k="ssr:stedsnr" v="986916" />
		<tag k="ssr:type" v="adressenavn" />
	</node>
	<node id="-354442" lat="58.0638434872" lon="7.68737670655">
		<tag k="name" v="Hummervigholmen" />
		<tag k="ssr:date" v="2019-05-30" />
		<tag k="ssr:gruppe" v="veg" />
		<tag k="ssr:hovedgruppe" v="infrastruktur" />
		<tag k="ssr:stedsnr" v="986913" />
		<tag k="ssr:type" v="adressenavn" />
	</node>
	<node id="-354441" lat="58.091491628" lon="7.68636131959">
		<tag k="name" v="Holmen-Salbustø" />
		<tag k="ssr:date" v="2019-05-30" />
		<tag k="ssr:gruppe" v="veg" />
		<tag k="ssr:hovedgruppe" v="infrastruktur" />
		<tag k="ssr:stedsnr" v="986912" />
		<tag k="ssr:type" v="adressenavn" />
	</node>
	<node id="-354440" lat="58.0599629634" lon="7.84503290665">
		<tag k="name" v="Hellesunds-Urholmen" />
		<tag k="ssr:date" v="2019-05-30" />
		<tag k="ssr:gruppe" v="veg" />
		<tag k="ssr:hovedgruppe" v="infrastruktur" />
		<tag k="ssr:stedsnr" v="986911" />
		<tag k="ssr:type" v="adressenavn" />
	</node>
	<node id="-354439" lat="58.0576669645" lon="7.84542899725">
		<tag k="name" v="Hellesunds-Nettholmen" />
		<tag k="ssr:date" v="2019-05-30" />
		<tag k="ssr:gruppe" v="veg" />
		<tag k="ssr:hovedgruppe" v="infrastruktur" />
		<tag k="ssr:stedsnr" v="986910" />
		<tag k="ssr:type" v="adressenavn" />
	</node>
	<node id="-354438" lat="58.0539345188" lon="7.84690499351">
		<tag k="name" v="Helgøya" />
		<tag k="ssr:date" v="2019-05-30" />
		<tag k="ssr:gruppe" v="veg" />
		<tag k="ssr:hovedgruppe" v="infrastruktur" />
		<tag k="ssr:stedsnr" v="986909" />
		<tag k="ssr:type" v="adressenavn" />
	</node>
	<node id="-354437" lat="58.1064924201" lon="7.75061850223">
		<tag k="name" v="Grønnvoll" />
		<tag k="ssr:date" v="2019-05-30" />
		<tag k="ssr:gruppe" v="veg" />
		<tag k="ssr:hovedgruppe" v="infrastruktur" />
		<tag k="ssr:stedsnr" v="986908" />
		<tag k="ssr:type" v="adressenavn" />
	</node>
	<node id="-354436" lat="58.060876702" lon="7.74324605777">
		<tag k="name" v="Greleholmen" />
		<tag k="ssr:date" v="2019-05-30" />
		<tag k="ssr:gruppe" v="veg" />
		<tag k="ssr:hovedgruppe" v="infrastruktur" />
		<tag k="ssr:stedsnr" v="986907" />
		<tag k="ssr:type" v="adressenavn" />
	</node>
	<node id="-354435" lat="58.0677685205" lon="7.75717550385">
		<tag k="name" v="Hallandvik-Fladholmen " />
		<tag k="ssr:date" v="2019-05-30" />
		<tag k="ssr:gruppe" v="veg" />
		<tag k="ssr:hovedgruppe" v="infrastruktur" />
		<tag k="ssr:stedsnr" v="986906" />
		<tag k="ssr:type" v="adressenavn" />
	</node>
	<node id="-354434" lat="58.0485154656" lon="7.71348837203">
		<tag k="name" v="Einerholmen" />
		<tag k="ssr:date" v="2019-05-30" />
		<tag k="ssr:gruppe" v="veg" />
		<tag k="ssr:hovedgruppe" v="infrastruktur" />
		<tag k="ssr:stedsnr" v="986905" />
		<tag k="ssr:type" v="adressenavn" />
	</node>
	<node id="-354433" lat="58.0523289359" lon="7.71306324401">
		<tag k="name" v="Bringeberholmen" />
		<tag k="ssr:date" v="2019-05-30" />
		<tag k="ssr:gruppe" v="veg" />
		<tag k="ssr:hovedgruppe" v="infrastruktur" />
		<tag k="ssr:stedsnr" v="986904" />
		<tag k="ssr:type" v="adressenavn" />
	</node>
	<node id="-354432" lat="58.0556398976" lon="7.77181431818">
		<tag k="name" v="Borøya" />
		<tag k="ssr:date" v="2019-05-30" />
		<tag k="ssr:gruppe" v="veg" />
		<tag k="ssr:hovedgruppe" v="infrastruktur" />
		<tag k="ssr:stedsnr" v="986873" />
		<tag k="ssr:type" v="adressenavn" />
	</node>
	<node id="-354431" lat="58.0438999918" lon="7.76261191853">
		<tag k="name" v="Boda" />
		<tag k="ssr:date" v="2019-05-30" />
		<tag k="ssr:gruppe" v="veg" />
		<tag k="ssr:hovedgruppe" v="infrastruktur" />
		<tag k="ssr:stedsnr" v="986872" />
		<tag k="ssr:type" v="adressenavn" />
	</node>
	<node id="-354430" lat="58.0525195229" lon="7.72396865852">
		<tag k="name" v="Blåseholmen" />
		<tag k="ssr:date" v="2019-05-30" />
		<tag k="ssr:gruppe" v="veg" />
		<tag k="ssr:hovedgruppe" v="infrastruktur" />
		<tag k="ssr:stedsnr" v="986871" />
		<tag k="ssr:type" v="adressenavn" />
	</node>
	<node id="-354429" lat="58.0644807608" lon="7.79266441559">
		<tag k="name" v="Amfenes - Lauholmen" />
		<tag k="ssr:date" v="2019-05-30" />
		<tag k="ssr:gruppe" v="veg" />
		<tag k="ssr:hovedgruppe" v="infrastruktur" />
		<tag k="ssr:stedsnr" v="986870" />
		<tag k="ssr:type" v="adressenavn" />
	</node>
	<node id="-354428" lat="58.0645824395" lon="7.79391528538">
		<tag k="name" v="Amfenes-Høgholmen" />
		<tag k="ssr:date" v="2019-05-30" />
		<tag k="ssr:gruppe" v="veg" />
		<tag k="ssr:hovedgruppe" v="infrastruktur" />
		<tag k="ssr:stedsnr" v="986869" />
		<tag k="ssr:type" v="adressenavn" />
	</node>
	<node id="-354427" lat="58.0785776442" lon="7.80822942147">
		<tag k="name" v="Verven" />
		<tag k="ssr:date" v="2019-05-30" />
		<tag k="ssr:gruppe" v="veg" />
		<tag k="ssr:hovedgruppe" v="infrastruktur" />
		<tag k="ssr:stedsnr" v="986846" />
		<tag k="ssr:type" v="adressenavn" />
	</node>
	<node id="-354426" lat="58.0770646446" lon="7.6933178009">
		<tag k="name" v="Trollneset" />
		<tag k="ssr:date" v="2019-05-30" />
		<tag k="ssr:gruppe" v="veg" />
		<tag k="ssr:hovedgruppe" v="infrastruktur" />
		<tag k="ssr:stedsnr" v="986836" />
		<tag k="ssr:type" v="adressenavn" />
	</node>
	<node id="-354425" lat="58.0761819777" lon="7.85156253415">
		<tag k="name" v="Kvernhustangen" />
		<tag k="ssr:date" v="2019-05-30" />
		<tag k="ssr:gruppe" v="veg" />
		<tag k="ssr:hovedgruppe" v="infrastruktur" />
		<tag k="ssr:stedsnr" v="986670" />
		<tag k="ssr:type" v="adressenavn" />
	</node>
	<node id="-354424" lat="58.0533516128" lon="7.76926640678">
		<tag k="name" v="Grasholmen" />
		<tag k="ssr:date" v="2019-05-30" />
		<tag k="ssr:gruppe" v="veg" />
		<tag k="ssr:hovedgruppe" v="infrastruktur" />
		<tag k="ssr:stedsnr" v="986621" />
		<tag k="ssr:type" v="adressenavn" />
	</node>
	<node id="-354410" lat="58.0543018546" lon="7.84303067918">
		<tag k="name" v="Signalskjærgrunnen lanterne" />
		<tag k="ssr:date" v="2018-05-07" />
		<tag k="ssr:gruppe" v="navigasjon" />
		<tag k="ssr:hovedgruppe" v="infrastruktur" />
		<tag k="ssr:stedsnr" v="984174" />
		<tag k="ssr:type" v="lanterne" />
	</node>
	<node id="-354392" lat="58.0955651912" lon="7.77952198631">
		<tag k="name" v="Kjursveien" />
		<tag k="ssr:date" v="2019-12-12" />
		<tag k="ssr:gruppe" v="veg" />
		<tag k="ssr:hovedgruppe" v="infrastruktur" />
		<tag k="ssr:stedsnr" v="1074102" />
		<tag k="ssr:type" v="adressenavn" />
	</node>
	<node id="-354391" lat="58.0778237431" lon="7.76697890576">
		<tag k="name" v="Kjellandsheia" />
		<tag k="ssr:date" v="2019-12-12" />
		<tag k="ssr:gruppe" v="veg" />
		<tag k="ssr:hovedgruppe" v="infrastruktur" />
		<tag k="ssr:stedsnr" v="1074101" />
		<tag k="ssr:type" v="adressenavn" />
	</node>
	<node id="-354390" lat="58.0800419503" lon="7.77321159795">
		<tag k="name" v="Lilleheia" />
		<tag k="ssr:date" v="2019-12-12" />
		<tag k="ssr:gruppe" v="veg" />
		<tag k="ssr:hovedgruppe" v="infrastruktur" />
		<tag k="ssr:stedsnr" v="1074100" />
		<tag k="ssr:type" v="adressenavn" />
	</node>
	<node id="-354389" lat="58.1434169805" lon="7.67340750353">
		<tag k="name" v="Solåsveien" />
		<tag k="ssr:date" v="2019-12-12" />
		<tag k="ssr:gruppe" v="veg" />
		<tag k="ssr:hovedgruppe" v="infrastruktur" />
		<tag k="ssr:stedsnr" v="1074099" />
		<tag k="ssr:type" v="adressenavn" />
	</node>
</osm>
