<?xml version="1.0" encoding="UTF-8"?>
<<<<<<< HEAD
<osm version="0.6" generator="osmapis">
	<node lat="60.83369166817908" lon="9.830055560348049" id="-18884">
		<tag k="name" v="Sameievegen" />
=======
<osm generator="osmapis" version="0.6">
	<node id="-392192" lat="60.7604472249" lon="9.81647222967">
		<tag k="name" v="Tverrvassvegen" />
		<tag k="ssr:date" v="2019-12-27" />
		<tag k="ssr:gruppe" v="veg" />
		<tag k="ssr:hovedgruppe" v="infrastruktur" />
		<tag k="ssr:stedsnr" v="603283" />
		<tag k="ssr:type" v="vegstrekning" />
	</node>
	<node id="-390656" lat="60.8247749963" lon="10.0161250049">
		<tag k="name" v="Sverdslivegen" />
		<tag k="ssr:date" v="2019-12-27" />
		<tag k="ssr:gruppe" v="veg" />
		<tag k="ssr:hovedgruppe" v="infrastruktur" />
		<tag k="ssr:stedsnr" v="481525" />
		<tag k="ssr:type" v="vegstrekning" />
	</node>
	<node id="-391678" lat="60.8677638851" lon="10.0256305517">
		<tag k="name" v="Gladbakkevegen" />
		<tag k="ssr:date" v="2019-12-27" />
		<tag k="ssr:gruppe" v="veg" />
		<tag k="ssr:hovedgruppe" v="infrastruktur" />
		<tag k="ssr:stedsnr" v="300447" />
		<tag k="ssr:type" v="vegstrekning" />
	</node>
	<node id="-392189" lat="60.9327861073" lon="9.92815556069">
		<tag k="name" v="Laenvegen" />
		<tag k="ssr:date" v="2019-12-27" />
		<tag k="ssr:gruppe" v="veg" />
		<tag k="ssr:hovedgruppe" v="infrastruktur" />
		<tag k="ssr:stedsnr" v="602949" />
		<tag k="ssr:type" v="vegstrekning" />
	</node>
	<node id="-390652" lat="60.8979777788" lon="10.1554944522">
		<tag k="name" v="Djupåvegen" />
		<tag k="ssr:date" v="2019-12-27" />
		<tag k="ssr:gruppe" v="veg" />
		<tag k="ssr:hovedgruppe" v="infrastruktur" />
		<tag k="ssr:stedsnr" v="481146" />
		<tag k="ssr:type" v="vegstrekning" />
	</node>
	<node id="-392187" lat="60.8253944434" lon="10.1725361081">
		<tag k="name" v="Hundtjernsvegen" />
		<tag k="ssr:date" v="2019-12-27" />
		<tag k="ssr:gruppe" v="veg" />
		<tag k="ssr:hovedgruppe" v="infrastruktur" />
		<tag k="ssr:stedsnr" v="602941" />
		<tag k="ssr:type" v="vegstrekning" />
	</node>
	<node id="-391672" lat="61.0211611067" lon="9.86916111587">
		<tag k="name" v="Bjørnrudvegen" />
		<tag k="ssr:date" v="2019-12-27" />
		<tag k="ssr:gruppe" v="veg" />
		<tag k="ssr:hovedgruppe" v="infrastruktur" />
		<tag k="ssr:stedsnr" v="160924" />
		<tag k="ssr:type" v="vegstrekning" />
	</node>
	<node id="-390647" lat="61.002888885" lon="10.1911861023">
		<tag k="name" v="Drameidalsvegen" />
		<tag k="ssr:date" v="2019-12-27" />
		<tag k="ssr:gruppe" v="veg" />
		<tag k="ssr:hovedgruppe" v="infrastruktur" />
		<tag k="ssr:stedsnr" v="479598" />
		<tag k="ssr:type" v="vegstrekning" />
	</node>
	<node id="-390313" lat="61.1016944412" lon="9.70420277322">
		<tag k="name" v="Søre Lenningsvegen" />
		<tag k="ssr:date" v="2019-12-27" />
		<tag k="ssr:gruppe" v="veg" />
		<tag k="ssr:hovedgruppe" v="infrastruktur" />
		<tag k="ssr:stedsnr" v="236699" />
		<tag k="ssr:type" v="vegstrekning" />
	</node>
	<node id="-391668" lat="60.7738972217" lon="9.88450832698">
		<tag k="name" v="Smørvikvegen" />
		<tag k="ssr:date" v="2019-12-27" />
		<tag k="ssr:gruppe" v="veg" />
		<tag k="ssr:hovedgruppe" v="infrastruktur" />
		<tag k="ssr:stedsnr" v="300272" />
		<tag k="ssr:type" v="vegstrekning" />
	</node>
	<node id="-392179" lat="61.0098416708" lon="10.1032166658">
		<tag k="name" v="Fjellsvegen" />
		<tag k="ssr:date" v="2019-12-27" />
		<tag k="ssr:gruppe" v="veg" />
		<tag k="ssr:hovedgruppe" v="infrastruktur" />
		<tag k="ssr:stedsnr" v="602457" />
		<tag k="ssr:type" v="vegstrekning" />
	</node>
	<node id="-391666" lat="60.9270916628" lon="10.0723111196">
		<tag k="name" v="Gårdersvevegen" />
		<tag k="ssr:date" v="2019-12-27" />
		<tag k="ssr:gruppe" v="veg" />
		<tag k="ssr:hovedgruppe" v="infrastruktur" />
		<tag k="ssr:stedsnr" v="300185" />
		<tag k="ssr:type" v="vegstrekning" />
	</node>
	<node id="-391677" lat="60.8760277791" lon="10.0158583365">
		<tag k="name" v="Jensvollsætervegen" />
		<tag k="ssr:date" v="2019-12-27" />
		<tag k="ssr:gruppe" v="veg" />
		<tag k="ssr:hovedgruppe" v="infrastruktur" />
		<tag k="ssr:stedsnr" v="300443" />
		<tag k="ssr:type" v="vegstrekning" />
	</node>
	<node id="-392170" lat="60.9912916643" lon="10.1970361044">
		<tag k="name" v="Finndalsvegen" />
		<tag k="ssr:date" v="2019-12-27" />
		<tag k="ssr:gruppe" v="veg" />
		<tag k="ssr:hovedgruppe" v="infrastruktur" />
		<tag k="ssr:stedsnr" v="600122" />
		<tag k="ssr:type" v="vegstrekning" />
	</node>
	<node id="-392165" lat="60.8347083377" lon="10.0754361155">
		<tag k="name" v="Nordre Land kommune" />
		<tag k="ssr:date" v="2019-12-27" />
		<tag k="ssr:gruppe" v="administrativeIndelinger" />
		<tag k="ssr:hovedgruppe" v="offentligAdministrasjon" />
		<tag k="ssr:stedsnr" v="569765" />
		<tag k="ssr:type" v="kommune" />
	</node>
	<node id="-390339" lat="60.9168805516" lon="10.0277611046">
		<tag k="name" v="Erstad skogsbilveg" />
		<tag k="ssr:date" v="2019-12-27" />
		<tag k="ssr:gruppe" v="veg" />
		<tag k="ssr:hovedgruppe" v="infrastruktur" />
		<tag k="ssr:stedsnr" v="58916" />
		<tag k="ssr:type" v="vegstrekning" />
	</node>
	<node id="-392163" lat="61.1308527754" lon="9.69092499806">
		<tag k="name" v="Sæbuhaugvegen" />
		<tag k="ssr:date" v="2019-12-27" />
		<tag k="ssr:gruppe" v="veg" />
		<tag k="ssr:hovedgruppe" v="infrastruktur" />
		<tag k="ssr:stedsnr" v="559876" />
		<tag k="ssr:type" v="vegstrekning" />
	</node>
	<node id="-391163" lat="61.0108638923" lon="9.94758055924">
		<tag k="name" v="Heimsætervegen" />
		<tag k="ssr:date" v="2019-12-27" />
		<tag k="ssr:gruppe" v="veg" />
		<tag k="ssr:hovedgruppe" v="infrastruktur" />
		<tag k="ssr:stedsnr" v="724209" />
		<tag k="ssr:type" v="vegstrekning" />
	</node>
	<node id="-390623" lat="61.0698749987" lon="9.92875555355">
		<tag k="name" v="Åssætervegen" />
		<tag k="ssr:date" v="2019-12-27" />
		<tag k="ssr:gruppe" v="veg" />
		<tag k="ssr:hovedgruppe" v="infrastruktur" />
		<tag k="ssr:stedsnr" v="301224" />
		<tag k="ssr:type" v="vegstrekning" />
	</node>
	<node id="-390614" lat="60.8720305553" lon="9.84171389192">
		<tag k="name" v="Brannvegen" />
		<tag k="ssr:date" v="2019-12-27" />
		<tag k="ssr:gruppe" v="veg" />
		<tag k="ssr:hovedgruppe" v="infrastruktur" />
		<tag k="ssr:stedsnr" v="464978" />
		<tag k="ssr:type" v="vegstrekning" />
	</node>
	<node id="-390478" lat="60.9265027766" lon="9.81282222482">
		<tag k="name" v="Livassvegen" />
		<tag k="ssr:date" v="2019-12-27" />
		<tag k="ssr:gruppe" v="veg" />
		<tag k="ssr:hovedgruppe" v="infrastruktur" />
		<tag k="ssr:stedsnr" v="115822" />
		<tag k="ssr:type" v="vegstrekning" />
	</node>
	<node id="-390555" lat="60.9378527789" lon="10.0718055594">
		<tag k="name" v="Gamlevegen" />
		<tag k="ssr:date" v="2019-12-27" />
		<tag k="ssr:gruppe" v="veg" />
		<tag k="ssr:hovedgruppe" v="infrastruktur" />
		<tag k="ssr:stedsnr" v="179952" />
		<tag k="ssr:type" v="vegstrekning" />
	</node>
	<node id="-390673" lat="60.9768999974" lon="9.86732221969">
		<tag k="name" v="Slåttsætervegen" />
		<tag k="ssr:date" v="2019-12-27" />
		<tag k="ssr:gruppe" v="veg" />
		<tag k="ssr:hovedgruppe" v="infrastruktur" />
		<tag k="ssr:stedsnr" v="483601" />
		<tag k="ssr:type" v="vegstrekning" />
	</node>
	<node id="-391112" lat="60.9893916636" lon="9.98821665783">
		<tag k="name" v="Jentehaugvegen" />
		<tag k="ssr:date" v="2019-12-27" />
		<tag k="ssr:gruppe" v="veg" />
		<tag k="ssr:hovedgruppe" v="infrastruktur" />
		<tag k="ssr:stedsnr" v="906766" />
		<tag k="ssr:type" v="vegstrekning" />
	</node>
	<node id="-390332" lat="60.7794194429" lon="9.99228611908">
		<tag k="name" v="Akksjøvegen" />
		<tag k="ssr:date" v="2019-12-27" />
		<tag k="ssr:gruppe" v="veg" />
		<tag k="ssr:hovedgruppe" v="infrastruktur" />
		<tag k="ssr:stedsnr" v="238517" />
		<tag k="ssr:type" v="vegstrekning" />
	</node>
	<node id="-391107" lat="60.7720527799" lon="9.89317778157">
		<tag k="name" v="Akksjølivegen" />
		<tag k="ssr:date" v="2019-12-27" />
		<tag k="ssr:gruppe" v="veg" />
		<tag k="ssr:hovedgruppe" v="infrastruktur" />
		<tag k="ssr:stedsnr" v="664228" />
		<tag k="ssr:type" v="vegstrekning" />
	</node>
	<node id="-392639" lat="60.9327363724" lon="9.79145733202">
		<tag k="name" v="Gjerdlivegen" />
		<tag k="ssr:date" v="2020-06-08" />
		<tag k="ssr:gruppe" v="veg" />
		<tag k="ssr:hovedgruppe" v="infrastruktur" />
		<tag k="ssr:stedsnr" v="904947" />
		<tag k="ssr:type" v="vegstrekning" />
	</node>
	<node id="-392638" lat="69.6388889725" lon="30.5666644427">
		<tag k="fixme" v="multiple name tags, choose one and add the other to alt_name" />
		<tag k="loc_name:se" v="Norgga gonagasriika" />
		<tag k="loc_name:sma" v="Nöörjen gånkarïjhke" />
		<tag k="loc_name:smj" v="Vuona gånågisrijkka" />
		<tag k="name" v="Noreg;Norge" />
		<tag k="name:en" v="Norway" />
		<tag k="name:no" v="Noreg;Norge" />
		<tag k="ssr:date" v="2020-06-04" />
		<tag k="ssr:gruppe" v="administrativeIndelinger" />
		<tag k="ssr:hovedgruppe" v="offentligAdministrasjon" />
		<tag k="ssr:stedsnr" v="26330" />
		<tag k="ssr:type" v="nasjon" />
	</node>
	<node id="-392635" lat="61.0792560907" lon="9.9368494503">
		<tag k="name" v="Bakkegrenda" />
		<tag k="ssr:date" v="2020-02-20" />
		<tag k="ssr:gruppe" v="veg" />
		<tag k="ssr:hovedgruppe" v="infrastruktur" />
		<tag k="ssr:stedsnr" v="1075431" />
		<tag k="ssr:type" v="adressenavn" />
	</node>
	<node id="-392634" lat="61.0198911538" lon="9.86048670251">
		<tag k="name" v="Røstelia" />
		<tag k="ssr:date" v="2020-02-20" />
		<tag k="ssr:gruppe" v="veg" />
		<tag k="ssr:hovedgruppe" v="infrastruktur" />
		<tag k="ssr:stedsnr" v="1075429" />
		<tag k="ssr:type" v="adressenavn" />
	</node>
	<node id="-392633" lat="61.0821906285" lon="9.93669035856">
		<tag k="name" v="Nordrumsæterstubben" />
		<tag k="ssr:date" v="2020-02-20" />
		<tag k="ssr:gruppe" v="veg" />
		<tag k="ssr:hovedgruppe" v="infrastruktur" />
		<tag k="ssr:stedsnr" v="1075428" />
		<tag k="ssr:type" v="adressenavn" />
	</node>
	<node id="-392632" lat="61.0220327946" lon="9.868836285">
		<tag k="name" v="Røstelivegen" />
		<tag k="ssr:date" v="2020-02-20" />
		<tag k="ssr:gruppe" v="veg" />
		<tag k="ssr:hovedgruppe" v="infrastruktur" />
		<tag k="ssr:stedsnr" v="1075430" />
		<tag k="ssr:type" v="adressenavn" />
	</node>
	<node id="-392630" lat="60.7952487072" lon="11.0825912243">
		<tag k="name" v="Innlandet fylke" />
		<tag k="ssr:date" v="2020-01-13" />
		<tag k="ssr:gruppe" v="administrativeIndelinger" />
		<tag k="ssr:hovedgruppe" v="offentligAdministrasjon" />
		<tag k="ssr:stedsnr" v="1074406" />
		<tag k="ssr:type" v="fylke" />
	</node>
	<node id="-392628" lat="60.9708620045" lon="9.89377640949">
		<tag k="name" v="Trollvegen" />
		<tag k="ssr:date" v="2019-12-27" />
		<tag k="ssr:gruppe" v="veg" />
		<tag k="ssr:hovedgruppe" v="infrastruktur" />
		<tag k="ssr:stedsnr" v="1018860" />
		<tag k="ssr:type" v="adressenavn" />
	</node>
	<node id="-392627" lat="60.7907102707" lon="10.1345171775">
		<tag k="name" v="Tranlivegen" />
		<tag k="ssr:date" v="2019-12-27" />
		<tag k="ssr:gruppe" v="veg" />
		<tag k="ssr:hovedgruppe" v="infrastruktur" />
		<tag k="ssr:stedsnr" v="1018751" />
		<tag k="ssr:type" v="adressenavn" />
	</node>
	<node id="-392626" lat="61.0376658788" lon="9.81311222855">
		<tag k="name" v="Dølsvelia" />
		<tag k="ssr:date" v="2019-12-27" />
		<tag k="ssr:gruppe" v="veg" />
		<tag k="ssr:hovedgruppe" v="infrastruktur" />
		<tag k="ssr:stedsnr" v="1018442" />
		<tag k="ssr:type" v="adressenavn" />
	</node>
	<node id="-392625" lat="61.033363274" lon="9.83924337475">
		<tag k="name" v="Postvegen" />
		<tag k="ssr:date" v="2019-12-27" />
		<tag k="ssr:gruppe" v="veg" />
		<tag k="ssr:hovedgruppe" v="infrastruktur" />
		<tag k="ssr:stedsnr" v="1018435" />
		<tag k="ssr:type" v="adressenavn" />
	</node>
	<node id="-392624" lat="61.1113785769" lon="9.69900992317">
		<tag k="name" v="Lenningstunet" />
		<tag k="ssr:date" v="2019-12-27" />
		<tag k="ssr:gruppe" v="veg" />
		<tag k="ssr:hovedgruppe" v="infrastruktur" />
		<tag k="ssr:stedsnr" v="1018373" />
		<tag k="ssr:type" v="adressenavn" />
	</node>
	<node id="-392623" lat="61.1097718986" lon="9.89540455319">
		<tag k="name" v="Midtre Gråberga" />
		<tag k="ssr:date" v="2019-12-27" />
		<tag k="ssr:gruppe" v="veg" />
		<tag k="ssr:hovedgruppe" v="infrastruktur" />
		<tag k="ssr:stedsnr" v="1018338" />
		<tag k="ssr:type" v="adressenavn" />
	</node>
	<node id="-392622" lat="60.9979378717" lon="10.0864962219">
		<tag k="name" v="Bjørkebakkvegen" />
		<tag k="ssr:date" v="2019-12-27" />
		<tag k="ssr:gruppe" v="veg" />
		<tag k="ssr:hovedgruppe" v="infrastruktur" />
		<tag k="ssr:stedsnr" v="1017578" />
		<tag k="ssr:type" v="adressenavn" />
	</node>
	<node id="-392621" lat="60.8366693509" lon="10.0718400342">
		<tag k="name" v="Skredder Engs gate" />
		<tag k="ssr:date" v="2019-12-27" />
		<tag k="ssr:gruppe" v="veg" />
		<tag k="ssr:hovedgruppe" v="infrastruktur" />
		<tag k="ssr:stedsnr" v="1017577" />
		<tag k="ssr:type" v="adressenavn" />
	</node>
	<node id="-392620" lat="60.8300914591" lon="10.0925691878">
		<tag k="name" v="Sollisvingen" />
		<tag k="ssr:date" v="2019-12-27" />
		<tag k="ssr:gruppe" v="veg" />
		<tag k="ssr:hovedgruppe" v="infrastruktur" />
		<tag k="ssr:stedsnr" v="1017576" />
		<tag k="ssr:type" v="adressenavn" />
	</node>
	<node id="-392619" lat="60.83923133" lon="10.023061133">
		<tag k="name" v="Lengeropp" />
		<tag k="ssr:date" v="2019-12-27" />
		<tag k="ssr:gruppe" v="veg" />
		<tag k="ssr:hovedgruppe" v="infrastruktur" />
		<tag k="ssr:stedsnr" v="1017573" />
		<tag k="ssr:type" v="adressenavn" />
	</node>
	<node id="-392618" lat="60.8328865142" lon="9.77255595048">
		<tag k="name" v="Øymovegen" />
		<tag k="ssr:date" v="2019-12-27" />
		<tag k="ssr:gruppe" v="veg" />
		<tag k="ssr:hovedgruppe" v="infrastruktur" />
		<tag k="ssr:stedsnr" v="1017572" />
		<tag k="ssr:type" v="adressenavn" />
	</node>
	<node id="-392617" lat="60.9932941306" lon="10.0833612269">
		<tag k="name" v="Vinlandvegen" />
		<tag k="ssr:date" v="2019-12-27" />
		<tag k="ssr:gruppe" v="veg" />
		<tag k="ssr:hovedgruppe" v="infrastruktur" />
		<tag k="ssr:stedsnr" v="1017360" />
		<tag k="ssr:type" v="adressenavn" />
	</node>
	<node id="-392616" lat="60.9219121683" lon="10.0345317433">
		<tag k="name" v="Liabygda" />
		<tag k="ssr:date" v="2019-12-27" />
		<tag k="ssr:gruppe" v="veg" />
		<tag k="ssr:hovedgruppe" v="infrastruktur" />
		<tag k="ssr:stedsnr" v="1017358" />
		<tag k="ssr:type" v="adressenavn" />
	</node>
	<node id="-390897" lat="60.811488891" lon="9.96182777309">
		<tag k="name" v="Sjurshaugvegen" />
		<tag k="ssr:date" v="2019-12-27" />
		<tag k="ssr:gruppe" v="veg" />
		<tag k="ssr:hovedgruppe" v="infrastruktur" />
		<tag k="ssr:stedsnr" v="483375" />
		<tag k="ssr:type" v="vegstrekning" />
	</node>
	<node id="-391585" lat="60.9370249978" lon="9.96524444137">
		<tag k="name" v="Laenvegen" />
		<tag k="ssr:date" v="2019-12-27" />
		<tag k="ssr:gruppe" v="veg" />
		<tag k="ssr:hovedgruppe" v="infrastruktur" />
		<tag k="ssr:stedsnr" v="117789" />
		<tag k="ssr:type" v="vegstrekning" />
	</node>
	<node id="-391583" lat="60.9903500042" lon="9.96493888484">
		<tag k="name" v="Gjerdlivegen" />
		<tag k="ssr:date" v="2019-12-27" />
		<tag k="ssr:gruppe" v="veg" />
		<tag k="ssr:hovedgruppe" v="infrastruktur" />
		<tag k="ssr:stedsnr" v="117742" />
		<tag k="ssr:type" v="vegstrekning" />
	</node>
	<node id="-391581" lat="60.7968111088" lon="9.96273056259">
		<tag k="name" v="Skjeldnetjernsvegen" />
		<tag k="ssr:date" v="2019-12-27" />
		<tag k="ssr:gruppe" v="veg" />
		<tag k="ssr:hovedgruppe" v="infrastruktur" />
		<tag k="ssr:stedsnr" v="117493" />
		<tag k="ssr:type" v="vegstrekning" />
	</node>
	<node id="-391067" lat="61.0694472261" lon="9.93891666069">
		<tag k="name" v="Synnfjellvegen" />
		<tag k="ssr:date" v="2019-12-27" />
		<tag k="ssr:gruppe" v="veg" />
		<tag k="ssr:hovedgruppe" v="infrastruktur" />
		<tag k="ssr:stedsnr" v="726265" />
		<tag k="ssr:type" v="vegstrekning" />
	</node>
	<node id="-391065" lat="60.9287777795" lon="10.0488277775">
		<tag k="name" v="Lundebakkene" />
		<tag k="ssr:date" v="2019-12-27" />
		<tag k="ssr:gruppe" v="veg" />
		<tag k="ssr:hovedgruppe" v="infrastruktur" />
		<tag k="ssr:stedsnr" v="725885" />
		<tag k="ssr:type" v="vegstrekning" />
	</node>
	<node id="-391063" lat="60.9332916677" lon="10.0606000022">
		<tag k="name" v="Gardsvevegen" />
		<tag k="ssr:date" v="2019-12-27" />
		<tag k="ssr:gruppe" v="veg" />
		<tag k="ssr:hovedgruppe" v="infrastruktur" />
		<tag k="ssr:stedsnr" v="725545" />
		<tag k="ssr:type" v="vegstrekning" />
	</node>
	<node id="-391061" lat="60.7512277763" lon="9.81911945113">
		<tag k="name" v="Tverrvassvegen" />
		<tag k="ssr:date" v="2019-12-27" />
		<tag k="ssr:gruppe" v="veg" />
		<tag k="ssr:hovedgruppe" v="infrastruktur" />
		<tag k="ssr:stedsnr" v="725671" />
		<tag k="ssr:type" v="vegstrekning" />
	</node>
	<node id="-392084" lat="60.8162888897" lon="9.8732305601">
		<tag k="name" v="Vasslivegen" />
		<tag k="ssr:date" v="2019-12-27" />
		<tag k="ssr:gruppe" v="veg" />
		<tag k="ssr:hovedgruppe" v="infrastruktur" />
		<tag k="ssr:stedsnr" v="543172" />
		<tag k="ssr:type" v="vegstrekning" />
	</node>
	<node id="-391571" lat="61.0031444415" lon="9.85720277571">
		<tag k="name" v="Livassvegen" />
		<tag k="ssr:date" v="2019-12-27" />
		<tag k="ssr:gruppe" v="veg" />
		<tag k="ssr:hovedgruppe" v="infrastruktur" />
		<tag k="ssr:stedsnr" v="100874" />
		<tag k="ssr:type" v="vegstrekning" />
	</node>
	<node id="-391570" lat="60.7914861151" lon="10.0189472286">
		<tag k="name" v="Mælumslivegen" />
		<tag k="ssr:date" v="2019-12-27" />
		<tag k="ssr:gruppe" v="veg" />
		<tag k="ssr:hovedgruppe" v="infrastruktur" />
		<tag k="ssr:stedsnr" v="100640" />
		<tag k="ssr:type" v="vegstrekning" />
	</node>
	<node id="-390545" lat="60.9895444428" lon="10.1170805553">
		<tag k="fixme" v="multiple name tags, choose one and add the other to alt_name" />
		<tag k="name" v="Erikvegen;Halvfarelivegen" />
		<tag k="ssr:date" v="2019-12-27" />
		<tag k="ssr:gruppe" v="veg" />
		<tag k="ssr:hovedgruppe" v="infrastruktur" />
		<tag k="ssr:stedsnr" v="179003" />
		<tag k="ssr:type" v="vegstrekning" />
	</node>
	<node id="-391567" lat="60.9985333342" lon="10.0240944377">
		<tag k="name" v="Torpa" />
		<tag k="ssr:date" v="2019-12-27" />
		<tag k="ssr:gruppe" v="terrengområder" />
		<tag k="ssr:hovedgruppe" v="terreng" />
		<tag k="ssr:stedsnr" v="89787" />
		<tag k="ssr:type" v="landskapsområde" />
	</node>
	<node id="-391054" lat="60.7728482713" lon="9.98118662796">
		<tag k="name" v="Akksjølivegen" />
		<tag k="ssr:date" v="2019-12-27" />
		<tag k="ssr:gruppe" v="veg" />
		<tag k="ssr:hovedgruppe" v="infrastruktur" />
		<tag k="ssr:stedsnr" v="724594" />
		<tag k="ssr:type" v="vegstrekning" />
	</node>
	<node id="-391053" lat="60.7811083357" lon="10.0079666705">
		<tag k="name" v="Mælumslivegen" />
		<tag k="ssr:date" v="2019-12-27" />
		<tag k="ssr:gruppe" v="veg" />
		<tag k="ssr:hovedgruppe" v="infrastruktur" />
		<tag k="ssr:stedsnr" v="724460" />
		<tag k="ssr:type" v="vegstrekning" />
	</node>
	<node id="-392076" lat="61.0767055522" lon="10.0446527806">
		<tag k="name" v="Bakkesætervegen" />
		<tag k="ssr:date" v="2019-12-27" />
		<tag k="ssr:gruppe" v="veg" />
		<tag k="ssr:hovedgruppe" v="infrastruktur" />
		<tag k="ssr:stedsnr" v="541852" />
		<tag k="ssr:type" v="vegstrekning" />
	</node>
	<node id="-391030" lat="60.8861527786" lon="9.87278055384">
		<tag k="name" v="Øverliervegen" />
		<tag k="ssr:date" v="2019-12-27" />
		<tag k="ssr:gruppe" v="veg" />
		<tag k="ssr:hovedgruppe" v="infrastruktur" />
		<tag k="ssr:stedsnr" v="604007" />
		<tag k="ssr:type" v="vegstrekning" />
	</node>
	<node id="-392073" lat="61.0291222213" lon="10.047844442">
		<tag k="name" v="Oddelivegen" />
		<tag k="ssr:date" v="2019-12-27" />
		<tag k="ssr:gruppe" v="veg" />
		<tag k="ssr:hovedgruppe" v="infrastruktur" />
		<tag k="ssr:stedsnr" v="541056" />
		<tag k="ssr:type" v="vegstrekning" />
	</node>
	<node id="-392072" lat="61.0269388914" lon="10.0208277773">
		<tag k="name" v="Heimsætervegen" />
		<tag k="ssr:date" v="2019-12-27" />
		<tag k="ssr:gruppe" v="veg" />
		<tag k="ssr:hovedgruppe" v="infrastruktur" />
		<tag k="ssr:stedsnr" v="541055" />
		<tag k="ssr:type" v="vegstrekning" />
	</node>
	<node id="-392067" lat="60.9681444461" lon="10.1442972189">
		<tag k="name" v="Bjørnmyrlivegen" />
		<tag k="ssr:date" v="2019-12-27" />
		<tag k="ssr:gruppe" v="veg" />
		<tag k="ssr:hovedgruppe" v="infrastruktur" />
		<tag k="ssr:stedsnr" v="540041" />
		<tag k="ssr:type" v="vegstrekning" />
	</node>
	<node id="-392066" lat="61.1155805571" lon="9.70323056081">
		<tag k="name" v="Gausdalsvegen" />
		<tag k="ssr:date" v="2019-12-27" />
		<tag k="ssr:gruppe" v="veg" />
		<tag k="ssr:hovedgruppe" v="infrastruktur" />
		<tag k="ssr:stedsnr" v="539723" />
		<tag k="ssr:type" v="vegstrekning" />
	</node>
	<node id="-392065" lat="60.8187888857" lon="10.2195805499">
		<tag k="name" v="Homslivegen" />
		<tag k="ssr:date" v="2019-12-27" />
		<tag k="ssr:gruppe" v="veg" />
		<tag k="ssr:hovedgruppe" v="infrastruktur" />
		<tag k="ssr:stedsnr" v="526350" />
		<tag k="ssr:type" v="vegstrekning" />
	</node>
	<node id="-392574" lat="61.0618888892" lon="10.0723277832">
		<tag k="name" v="Torgedalsvegen" />
		<tag k="ssr:date" v="2019-12-27" />
		<tag k="ssr:gruppe" v="veg" />
		<tag k="ssr:hovedgruppe" v="infrastruktur" />
		<tag k="ssr:stedsnr" v="966831" />
		<tag k="ssr:type" v="vegstrekning" />
	</node>
	<node id="-391033" lat="61.0979500038" lon="9.92781667394">
		<tag k="name" v="Klevmosætervegen" />
		<tag k="ssr:date" v="2019-12-27" />
		<tag k="ssr:gruppe" v="veg" />
		<tag k="ssr:hovedgruppe" v="infrastruktur" />
		<tag k="ssr:stedsnr" v="604223" />
		<tag k="ssr:type" v="vegstrekning" />
	</node>
	<node id="-391572" lat="60.8730638907" lon="9.85295832945">
		<tag k="name" v="Leppdalsvegen" />
		<tag k="ssr:date" v="2019-12-27" />
		<tag k="ssr:gruppe" v="veg" />
		<tag k="ssr:hovedgruppe" v="infrastruktur" />
		<tag k="ssr:stedsnr" v="100989" />
		<tag k="ssr:type" v="vegstrekning" />
	</node>
	<node id="-392566" lat="60.8880527805" lon="10.1345722177">
		<tag k="name" v="Koievegen" />
		<tag k="ssr:date" v="2019-12-27" />
		<tag k="ssr:gruppe" v="veg" />
		<tag k="ssr:hovedgruppe" v="infrastruktur" />
		<tag k="ssr:stedsnr" v="966142" />
		<tag k="ssr:type" v="vegstrekning" />
	</node>
	<node id="-392563" lat="61.1114138898" lon="9.90811666618">
		<tag k="name" v="Synnfjellvegen" />
		<tag k="ssr:date" v="2019-12-27" />
		<tag k="ssr:gruppe" v="veg" />
		<tag k="ssr:hovedgruppe" v="infrastruktur" />
		<tag k="ssr:stedsnr" v="966077" />
		<tag k="ssr:type" v="vegstrekning" />
	</node>
	<node id="-392560" lat="60.9694583338" lon="9.92133611121">
		<tag k="name" v="Hovdevegen" />
		<tag k="ssr:date" v="2019-12-27" />
		<tag k="ssr:gruppe" v="veg" />
		<tag k="ssr:hovedgruppe" v="infrastruktur" />
		<tag k="ssr:stedsnr" v="965288" />
		<tag k="ssr:type" v="vegstrekning" />
	</node>
	<node id="-390654" lat="60.9880555571" lon="10.0578055579">
		<tag k="name" v="Haukedalslivegen" />
		<tag k="ssr:date" v="2019-12-27" />
		<tag k="ssr:gruppe" v="veg" />
		<tag k="ssr:hovedgruppe" v="infrastruktur" />
		<tag k="ssr:stedsnr" v="481504" />
		<tag k="ssr:type" v="vegstrekning" />
	</node>
	<node id="-391013" lat="60.8072611092" lon="9.83280833586">
		<tag k="name" v="Krokvassvegen" />
		<tag k="ssr:date" v="2019-12-27" />
		<tag k="ssr:gruppe" v="veg" />
		<tag k="ssr:hovedgruppe" v="infrastruktur" />
		<tag k="ssr:stedsnr" v="585472" />
		<tag k="ssr:type" v="vegstrekning" />
	</node>
	<node id="-391007" lat="60.7846944439" lon="10.066925005">
		<tag k="name" v="Svartvatnvegen" />
		<tag k="ssr:date" v="2019-12-27" />
		<tag k="ssr:gruppe" v="veg" />
		<tag k="ssr:hovedgruppe" v="infrastruktur" />
		<tag k="ssr:stedsnr" v="706624" />
		<tag k="ssr:type" v="vegstrekning" />
	</node>
	<node id="-391516" lat="60.9410138854" lon="10.1138833325">
		<tag k="name" v="Hågåvegen" />
		<tag k="ssr:date" v="2019-12-27" />
		<tag k="ssr:gruppe" v="veg" />
		<tag k="ssr:hovedgruppe" v="infrastruktur" />
		<tag k="ssr:stedsnr" v="58944" />
		<tag k="ssr:type" v="vegstrekning" />
	</node>
	<node id="-390491" lat="60.8061888917" lon="10.0861111193">
		<tag k="name" v="Mælumslivegen" />
		<tag k="ssr:date" v="2019-12-27" />
		<tag k="ssr:gruppe" v="veg" />
		<tag k="ssr:hovedgruppe" v="infrastruktur" />
		<tag k="ssr:stedsnr" v="119832" />
		<tag k="ssr:type" v="vegstrekning" />
	</node>
	<node id="-391514" lat="60.8467388893" lon="9.8544444375">
		<tag k="name" v="Solvegen" />
		<tag k="ssr:date" v="2019-12-27" />
		<tag k="ssr:gruppe" v="veg" />
		<tag k="ssr:hovedgruppe" v="infrastruktur" />
		<tag k="ssr:stedsnr" v="58819" />
		<tag k="ssr:type" v="vegstrekning" />
	</node>
	<node id="-390489" lat="60.7652138847" lon="10.0617805589">
		<tag k="name" v="Vesteråsvegen" />
		<tag k="ssr:date" v="2019-12-27" />
		<tag k="ssr:gruppe" v="veg" />
		<tag k="ssr:hovedgruppe" v="infrastruktur" />
		<tag k="ssr:stedsnr" v="119362" />
		<tag k="ssr:type" v="vegstrekning" />
	</node>
	<node id="-391511" lat="60.8264388851" lon="9.96185278049">
		<tag k="name" v="Veståslivegen" />
		<tag k="ssr:date" v="2019-12-27" />
		<tag k="ssr:gruppe" v="veg" />
		<tag k="ssr:hovedgruppe" v="infrastruktur" />
		<tag k="ssr:stedsnr" v="58667" />
		<tag k="ssr:type" v="vegstrekning" />
	</node>
	<node id="-390486" lat="60.8166305548" lon="9.84073611337">
		<tag k="name" v="Tintonvegen" />
		<tag k="ssr:date" v="2019-12-27" />
		<tag k="ssr:gruppe" v="veg" />
		<tag k="ssr:hovedgruppe" v="infrastruktur" />
		<tag k="ssr:stedsnr" v="118209" />
		<tag k="ssr:type" v="vegstrekning" />
	</node>
	<node id="-391504" lat="60.8720388886" lon="10.0874833296">
		<tag k="name" v="Lerretsdalsvegen" />
		<tag k="ssr:date" v="2019-12-27" />
		<tag k="ssr:gruppe" v="veg" />
		<tag k="ssr:hovedgruppe" v="infrastruktur" />
		<tag k="ssr:stedsnr" v="58325" />
		<tag k="ssr:type" v="vegstrekning" />
	</node>
	<node id="-391502" lat="60.903891669" lon="9.83829444864">
		<tag k="name" v="Baggerudsætervegen" />
		<tag k="ssr:date" v="2019-12-27" />
		<tag k="ssr:gruppe" v="veg" />
		<tag k="ssr:hovedgruppe" v="infrastruktur" />
		<tag k="ssr:stedsnr" v="58288" />
		<tag k="ssr:type" v="vegstrekning" />
	</node>
	<node id="-390477" lat="60.829308329" lon="9.81892778199">
		<tag k="name" v="Kasenborgvegen" />
		<tag k="ssr:date" v="2019-12-27" />
		<tag k="ssr:gruppe" v="veg" />
		<tag k="ssr:hovedgruppe" v="infrastruktur" />
		<tag k="ssr:stedsnr" v="115536" />
		<tag k="ssr:type" v="vegstrekning" />
	</node>
	<node id="-391499" lat="60.8726361086" lon="9.89959444363">
		<tag k="name" v="Lisetvegen" />
		<tag k="ssr:date" v="2019-12-27" />
		<tag k="ssr:gruppe" v="veg" />
		<tag k="ssr:hovedgruppe" v="infrastruktur" />
		<tag k="ssr:stedsnr" v="57905" />
		<tag k="ssr:type" v="vegstrekning" />
	</node>
	<node id="-390985" lat="60.9159722264" lon="10.1168833426">
		<tag k="name" v="Grønlivegen" />
		<tag k="ssr:date" v="2019-12-27" />
		<tag k="ssr:gruppe" v="veg" />
		<tag k="ssr:hovedgruppe" v="infrastruktur" />
		<tag k="ssr:stedsnr" v="543159" />
		<tag k="ssr:type" v="vegstrekning" />
	</node>
	<node id="-391052" lat="60.891547219" lon="10.1805083246">
		<tag k="name" v="Bergsætervegen" />
		<tag k="ssr:date" v="2019-12-27" />
		<tag k="ssr:gruppe" v="veg" />
		<tag k="ssr:hovedgruppe" v="infrastruktur" />
		<tag k="ssr:stedsnr" v="724125" />
		<tag k="ssr:type" v="vegstrekning" />
	</node>
	<node id="-390977" lat="60.9310833333" lon="10.1698305483">
		<tag k="name" v="Slettsvevegen" />
		<tag k="ssr:date" v="2019-12-27" />
		<tag k="ssr:gruppe" v="veg" />
		<tag k="ssr:hovedgruppe" v="infrastruktur" />
		<tag k="ssr:stedsnr" v="542553" />
		<tag k="ssr:type" v="vegstrekning" />
	</node>
	<node id="-391487" lat="61.0322027772" lon="10.1771805553">
		<tag k="name" v="Grønnhølvegen" />
		<tag k="ssr:date" v="2019-12-27" />
		<tag k="ssr:gruppe" v="veg" />
		<tag k="ssr:hovedgruppe" v="infrastruktur" />
		<tag k="ssr:stedsnr" v="55977" />
		<tag k="ssr:type" v="vegstrekning" />
	</node>
	<node id="-390974" lat="61.0253611148" lon="9.91002221653">
		<tag k="name" v="Slåttensætervegen" />
		<tag k="ssr:date" v="2019-12-27" />
		<tag k="ssr:gruppe" v="veg" />
		<tag k="ssr:hovedgruppe" v="infrastruktur" />
		<tag k="ssr:stedsnr" v="541641" />
		<tag k="ssr:type" v="vegstrekning" />
	</node>
	<node id="-391484" lat="60.8310555527" lon="9.81641388979">
		<tag k="name" v="Brusvevegen" />
		<tag k="ssr:date" v="2019-12-27" />
		<tag k="ssr:gruppe" v="veg" />
		<tag k="ssr:hovedgruppe" v="infrastruktur" />
		<tag k="ssr:stedsnr" v="55531" />
		<tag k="ssr:type" v="vegstrekning" />
	</node>
	<node id="-391483" lat="60.9299861148" lon="9.8173027789">
		<tag k="name" v="Livassvegen" />
		<tag k="ssr:date" v="2019-12-27" />
		<tag k="ssr:gruppe" v="veg" />
		<tag k="ssr:hovedgruppe" v="infrastruktur" />
		<tag k="ssr:stedsnr" v="54942" />
		<tag k="ssr:type" v="vegstrekning" />
	</node>
	<node id="-390969" lat="60.9070499994" lon="9.80473332499">
		<tag k="name" v="Baggerudsætervegen" />
		<tag k="ssr:date" v="2019-12-27" />
		<tag k="ssr:gruppe" v="veg" />
		<tag k="ssr:hovedgruppe" v="infrastruktur" />
		<tag k="ssr:stedsnr" v="539825" />
		<tag k="ssr:type" v="vegstrekning" />
	</node>
	<node id="-391990" lat="61.0976333313" lon="9.90421666416">
		<tag k="name" v="Svinningsætervegen" />
		<tag k="ssr:date" v="2019-12-27" />
		<tag k="ssr:gruppe" v="veg" />
		<tag k="ssr:hovedgruppe" v="infrastruktur" />
		<tag k="ssr:stedsnr" v="423161" />
		<tag k="ssr:type" v="vegstrekning" />
	</node>
	<node id="-391477" lat="60.9703194456" lon="9.87272221778">
		<tag k="name" v="Rognhaugvegen" />
		<tag k="ssr:date" v="2019-12-27" />
		<tag k="ssr:gruppe" v="veg" />
		<tag k="ssr:hovedgruppe" v="infrastruktur" />
		<tag k="ssr:stedsnr" v="39646" />
		<tag k="ssr:type" v="vegstrekning" />
	</node>
	<node id="-391987" lat="60.9129638866" lon="10.0292777843">
		<tag k="name" v="Vesterslåttvegen" />
		<tag k="ssr:date" v="2019-12-27" />
		<tag k="ssr:gruppe" v="veg" />
		<tag k="ssr:hovedgruppe" v="infrastruktur" />
		<tag k="ssr:stedsnr" v="422918" />
		<tag k="ssr:type" v="vegstrekning" />
	</node>
	<node id="-392493" lat="60.9125444446" lon="10.1157861058">
		<tag k="name" v="Demmingsvegen" />
		<tag k="ssr:date" v="2019-12-27" />
		<tag k="ssr:gruppe" v="veg" />
		<tag k="ssr:hovedgruppe" v="infrastruktur" />
		<tag k="ssr:stedsnr" v="847148" />
		<tag k="ssr:type" v="vegstrekning" />
	</node>
	<node id="-391980" lat="60.8066777741" lon="9.86695833337">
		<tag k="name" v="Sameivegen" />
		<tag k="ssr:date" v="2019-12-27" />
		<tag k="ssr:gruppe" v="veg" />
		<tag k="ssr:hovedgruppe" v="infrastruktur" />
		<tag k="ssr:stedsnr" v="422219" />
		<tag k="ssr:type" v="vegstrekning" />
	</node>
	<node id="-392490" lat="61.0045805555" lon="10.0561527788">
		<tag k="name" v="Åslettvegen" />
		<tag k="ssr:date" v="2019-12-27" />
		<tag k="ssr:gruppe" v="veg" />
		<tag k="ssr:hovedgruppe" v="infrastruktur" />
		<tag k="ssr:stedsnr" v="847010" />
		<tag k="ssr:type" v="vegstrekning" />
	</node>
	<node id="-392489" lat="60.9815222206" lon="10.1208444434">
		<tag k="name" v="Framsvegen" />
		<tag k="ssr:date" v="2019-12-27" />
		<tag k="ssr:gruppe" v="veg" />
		<tag k="ssr:hovedgruppe" v="infrastruktur" />
		<tag k="ssr:stedsnr" v="847008" />
		<tag k="ssr:type" v="vegstrekning" />
	</node>
	<node id="-392488" lat="60.8824111125" lon="10.0052111118">
		<tag k="name" v="Jensvollsætervegen" />
		<tag k="ssr:date" v="2019-12-27" />
		<tag k="ssr:gruppe" v="veg" />
		<tag k="ssr:hovedgruppe" v="infrastruktur" />
		<tag k="ssr:stedsnr" v="846885" />
		<tag k="ssr:type" v="vegstrekning" />
	</node>
	<node id="-392486" lat="60.7702499994" lon="9.92989722586">
		<tag k="name" v="Aksjølivegen" />
		<tag k="ssr:date" v="2019-12-27" />
		<tag k="ssr:gruppe" v="veg" />
		<tag k="ssr:hovedgruppe" v="infrastruktur" />
		<tag k="ssr:stedsnr" v="846527" />
		<tag k="ssr:type" v="vegstrekning" />
	</node>
	<node id="-392477" lat="61.0221805557" lon="9.90645277947">
		<tag k="name" v="Karusstjernvegen" />
		<tag k="ssr:date" v="2019-12-27" />
		<tag k="ssr:gruppe" v="veg" />
		<tag k="ssr:hovedgruppe" v="infrastruktur" />
		<tag k="ssr:stedsnr" v="845668" />
		<tag k="ssr:type" v="vegstrekning" />
	</node>
	<node id="-391964" lat="60.8939138872" lon="10.1003722212">
		<tag k="name" v="Djupåvegen" />
		<tag k="ssr:date" v="2019-12-27" />
		<tag k="ssr:gruppe" v="veg" />
		<tag k="ssr:hovedgruppe" v="infrastruktur" />
		<tag k="ssr:stedsnr" v="421094" />
		<tag k="ssr:type" v="vegstrekning" />
	</node>
	<node id="-391961" lat="61.0710305592" lon="10.0342916724">
		<tag k="name" v="Gravskarvegen" />
		<tag k="ssr:date" v="2019-12-27" />
		<tag k="ssr:gruppe" v="veg" />
		<tag k="ssr:hovedgruppe" v="infrastruktur" />
		<tag k="ssr:stedsnr" v="420864" />
		<tag k="ssr:type" v="vegstrekning" />
	</node>
	<node id="-391960" lat="61.0652027751" lon="10.0343249915">
		<tag k="name" v="Oddelivegen" />
		<tag k="ssr:date" v="2019-12-27" />
		<tag k="ssr:gruppe" v="veg" />
		<tag k="ssr:hovedgruppe" v="infrastruktur" />
		<tag k="ssr:stedsnr" v="420850" />
		<tag k="ssr:type" v="vegstrekning" />
	</node>
	<node id="-392469" lat="60.8836888846" lon="9.8149777716">
		<tag k="name" v="Holovegen" />
		<tag k="ssr:date" v="2019-12-27" />
		<tag k="ssr:gruppe" v="veg" />
		<tag k="ssr:hovedgruppe" v="infrastruktur" />
		<tag k="ssr:stedsnr" v="844661" />
		<tag k="ssr:type" v="vegstrekning" />
	</node>
	<node id="-390310" lat="60.8336916682" lon="9.83005556035">
		<tag k="name" v="Sameievegen" />
		<tag k="ssr:date" v="2019-12-27" />
		<tag k="ssr:gruppe" v="veg" />
		<tag k="ssr:hovedgruppe" v="infrastruktur" />
		<tag k="ssr:stedsnr" v="236533" />
		<tag k="ssr:type" v="vegstrekning" />
	</node>
	<node id="-391940" lat="60.8991472186" lon="9.79725277506">
		<tag k="name" v="Vestsidevegen" />
		<tag k="ssr:date" v="2019-12-27" />
		<tag k="ssr:gruppe" v="veg" />
		<tag k="ssr:hovedgruppe" v="infrastruktur" />
		<tag k="ssr:stedsnr" v="403132" />
		<tag k="ssr:type" v="vegstrekning" />
	</node>
	<node id="-391978" lat="60.805274999" lon="10.0497277831">
		<tag k="name" v="Skjellungstjernvegen" />
		<tag k="ssr:date" v="2019-12-27" />
		<tag k="ssr:gruppe" v="veg" />
		<tag k="ssr:hovedgruppe" v="infrastruktur" />
		<tag k="ssr:stedsnr" v="422175" />
		<tag k="ssr:type" v="vegstrekning" />
	</node>
	<node id="-391977" lat="60.8067305534" lon="10.0142666673">
		<tag k="name" v="Sverdslitjernsvegen" />
		<tag k="ssr:date" v="2019-12-27" />
		<tag k="ssr:gruppe" v="veg" />
		<tag k="ssr:hovedgruppe" v="infrastruktur" />
		<tag k="ssr:stedsnr" v="422171" />
		<tag k="ssr:type" v="vegstrekning" />
	</node>
	<node id="-392062" lat="60.8793333342" lon="9.8499555598">
		<tag k="name" v="Øverliervegen" />
		<tag k="ssr:date" v="2019-12-27" />
		<tag k="ssr:gruppe" v="veg" />
		<tag k="ssr:hovedgruppe" v="infrastruktur" />
		<tag k="ssr:stedsnr" v="524982" />
		<tag k="ssr:type" v="vegstrekning" />
	</node>
	<node id="-390898" lat="61.0397166702" lon="9.97469445113">
		<tag k="name" v="Langholvegen" />
		<tag k="ssr:date" v="2019-12-27" />
		<tag k="ssr:gruppe" v="veg" />
		<tag k="ssr:hovedgruppe" v="infrastruktur" />
		<tag k="ssr:stedsnr" v="483773" />
		<tag k="ssr:type" v="vegstrekning" />
	</node>
	<node id="-391409" lat="60.8320565593" lon="10.0949354582">
		<tag k="name" v="Elgtråkket" />
		<tag k="ssr:date" v="2019-12-27" />
		<tag k="ssr:gruppe" v="veg" />
		<tag k="ssr:hovedgruppe" v="infrastruktur" />
		<tag k="ssr:stedsnr" v="1017521" />
		<tag k="ssr:type" v="adressenavn" />
	</node>
	<node id="-390894" lat="61.1297000025" lon="9.70233610607">
		<tag k="name" v="Trondhusvegen" />
		<tag k="ssr:date" v="2019-12-27" />
		<tag k="ssr:gruppe" v="veg" />
		<tag k="ssr:hovedgruppe" v="infrastruktur" />
		<tag k="ssr:stedsnr" v="482876" />
		<tag k="ssr:type" v="vegstrekning" />
	</node>
	<node id="-390893" lat="60.8775583371" lon="10.0570944496">
		<tag k="name" v="Gamlevegen" />
		<tag k="ssr:date" v="2019-12-27" />
		<tag k="ssr:gruppe" v="veg" />
		<tag k="ssr:hovedgruppe" v="infrastruktur" />
		<tag k="ssr:stedsnr" v="482423" />
		<tag k="ssr:type" v="vegstrekning" />
	</node>
	<node id="-390354" lat="60.8319916644" lon="9.85245276965">
		<tag k="name" v="Sameivegen" />
		<tag k="ssr:date" v="2019-12-27" />
		<tag k="ssr:gruppe" v="veg" />
		<tag k="ssr:hovedgruppe" v="infrastruktur" />
		<tag k="ssr:stedsnr" v="240206" />
		<tag k="ssr:type" v="vegstrekning" />
	</node>
	<node id="-390885" lat="60.90421389" lon="10.0645027787">
		<tag k="name" v="Åbakkvegen" />
		<tag k="ssr:date" v="2019-12-27" />
		<tag k="ssr:gruppe" v="veg" />
		<tag k="ssr:hovedgruppe" v="infrastruktur" />
		<tag k="ssr:stedsnr" v="481005" />
		<tag k="ssr:type" v="vegstrekning" />
	</node>
	<node id="-391396" lat="60.8804861147" lon="9.82182222431">
		<tag k="name" v="Leppdalsvegen" />
		<tag k="ssr:date" v="2019-12-27" />
		<tag k="ssr:gruppe" v="veg" />
		<tag k="ssr:hovedgruppe" v="infrastruktur" />
		<tag k="ssr:stedsnr" v="965653" />
		<tag k="ssr:type" v="vegstrekning" />
	</node>
	<node id="-391393" lat="61.009186115" lon="10.1778444423">
		<tag k="name" v="Finndalsvegen" />
		<tag k="ssr:date" v="2019-12-27" />
		<tag k="ssr:gruppe" v="veg" />
		<tag k="ssr:hovedgruppe" v="infrastruktur" />
		<tag k="ssr:stedsnr" v="964556" />
		<tag k="ssr:type" v="vegstrekning" />
	</node>
	<node id="-391894" lat="60.978180555" lon="9.85667777679">
		<tag k="name" v="Oalsvegen" />
		<tag k="ssr:date" v="2019-12-27" />
		<tag k="ssr:gruppe" v="veg" />
		<tag k="ssr:hovedgruppe" v="infrastruktur" />
		<tag k="ssr:stedsnr" v="361585" />
		<tag k="ssr:type" v="vegstrekning" />
	</node>
	<node id="-391893" lat="60.9601805554" lon="10.0977861098">
		<tag k="name" v="Fellelivegen" />
		<tag k="ssr:date" v="2019-12-27" />
		<tag k="ssr:gruppe" v="veg" />
		<tag k="ssr:hovedgruppe" v="infrastruktur" />
		<tag k="ssr:stedsnr" v="361578" />
		<tag k="ssr:type" v="vegstrekning" />
	</node>
	<node id="-390355" lat="60.8036583301" lon="10.0323638912">
		<tag k="name" v="Mælumslivegen" />
		<tag k="ssr:date" v="2019-12-27" />
		<tag k="ssr:gruppe" v="veg" />
		<tag k="ssr:hovedgruppe" v="infrastruktur" />
		<tag k="ssr:stedsnr" v="240209" />
		<tag k="ssr:type" v="vegstrekning" />
	</node>
	<node id="-391890" lat="60.7943055555" lon="9.86686388462">
		<tag k="name" v="Sameivegen" />
		<tag k="ssr:date" v="2019-12-27" />
		<tag k="ssr:gruppe" v="veg" />
		<tag k="ssr:hovedgruppe" v="infrastruktur" />
		<tag k="ssr:stedsnr" v="361329" />
		<tag k="ssr:type" v="vegstrekning" />
	</node>
	<node id="-392401" lat="60.8515888931" lon="10.157722228">
		<tag k="name" v="Furusetvegen" />
		<tag k="ssr:date" v="2019-12-27" />
		<tag k="ssr:gruppe" v="veg" />
		<tag k="ssr:hovedgruppe" v="infrastruktur" />
		<tag k="ssr:stedsnr" v="795100" />
		<tag k="ssr:type" v="vegstrekning" />
	</node>
	<node id="-391882" lat="60.8954166664" lon="9.9776777712">
		<tag k="name" v="Jensvollsætervegen" />
		<tag k="ssr:date" v="2019-12-27" />
		<tag k="ssr:gruppe" v="veg" />
		<tag k="ssr:hovedgruppe" v="infrastruktur" />
		<tag k="ssr:stedsnr" v="360284" />
		<tag k="ssr:type" v="vegstrekning" />
	</node>
	<node id="-390345" lat="60.7638805543" lon="9.91607778242">
		<tag k="name" v="Smørvikvegen" />
		<tag k="ssr:date" v="2019-12-27" />
		<tag k="ssr:gruppe" v="veg" />
		<tag k="ssr:hovedgruppe" v="infrastruktur" />
		<tag k="ssr:stedsnr" v="239509" />
		<tag k="ssr:type" v="vegstrekning" />
	</node>
	<node id="-391880" lat="61.0480416649" lon="10.0532277709">
		<tag k="name" v="Oddelivegen" />
		<tag k="ssr:date" v="2019-12-27" />
		<tag k="ssr:gruppe" v="veg" />
		<tag k="ssr:hovedgruppe" v="infrastruktur" />
		<tag k="ssr:stedsnr" v="359791" />
		<tag k="ssr:type" v="vegstrekning" />
	</node>
	<node id="-390855" lat="60.831777776" lon="10.23181389">
		<tag k="name" v="Saglivegen" />
		<tag k="ssr:date" v="2019-12-27" />
		<tag k="ssr:gruppe" v="veg" />
		<tag k="ssr:hovedgruppe" v="infrastruktur" />
		<tag k="ssr:stedsnr" v="663985" />
		<tag k="ssr:type" v="vegstrekning" />
	</node>
	<node id="-392390" lat="60.8308472204" lon="9.98045278223">
		<tag k="name" v="Haugnermolivegen" />
		<tag k="ssr:date" v="2019-12-27" />
		<tag k="ssr:gruppe" v="veg" />
		<tag k="ssr:hovedgruppe" v="infrastruktur" />
		<tag k="ssr:stedsnr" v="786660" />
		<tag k="ssr:type" v="vegstrekning" />
	</node>
	<node id="-391876" lat="61.0303305552" lon="9.9411833372">
		<tag k="name" v="Langhaugvegen" />
		<tag k="ssr:date" v="2019-12-27" />
		<tag k="ssr:gruppe" v="veg" />
		<tag k="ssr:hovedgruppe" v="infrastruktur" />
		<tag k="ssr:stedsnr" v="359637" />
		<tag k="ssr:type" v="vegstrekning" />
	</node>
	<node id="-391875" lat="61.0095749984" lon="10.0752972226">
		<tag k="name" v="Liavegen" />
		<tag k="ssr:date" v="2019-12-27" />
		<tag k="ssr:gruppe" v="veg" />
		<tag k="ssr:hovedgruppe" v="infrastruktur" />
		<tag k="ssr:stedsnr" v="359430" />
		<tag k="ssr:type" v="vegstrekning" />
	</node>
	<node id="-392385" lat="60.7671416638" lon="10.0368249929">
		<tag k="name" v="Øyvassvegen" />
		<tag k="ssr:date" v="2019-12-27" />
		<tag k="ssr:gruppe" v="veg" />
		<tag k="ssr:hovedgruppe" v="infrastruktur" />
		<tag k="ssr:stedsnr" v="786338" />
		<tag k="ssr:type" v="vegstrekning" />
	</node>
	<node id="-390848" lat="60.7660277739" lon="10.001563881">
		<tag k="name" v="Smørvikvegen" />
>>>>>>> e1d4bc35ff8a6074a6f2e91616a996b547c36f15
		<tag k="ssr:date" v="2019-12-27" />
		<tag k="ssr:gruppe" v="veg" />
		<tag k="ssr:hovedgruppe" v="infrastruktur" />
		<tag k="ssr:stedsnr" v="236533" />
		<tag k="ssr:type" v="vegstrekning" />
	</node>
<<<<<<< HEAD
	<node lat="60.85484444106833" lon="9.81262222809633" id="-18885">
		<tag k="name" v="Stuveåsvegen" />
		<tag k="ssr:date" v="2019-12-27" />
		<tag k="ssr:gruppe" v="veg" />
		<tag k="ssr:hovedgruppe" v="infrastruktur" />
		<tag k="ssr:stedsnr" v="236557" />
		<tag k="ssr:type" v="vegstrekning" />
	</node>
	<node lat="60.84438888548367" lon="9.828163883411909" id="-18886">
		<tag k="name" v="Solvegen" />
=======
	<node id="-390334" lat="60.9266305594" lon="10.1781361109">
		<tag k="name" v="Slettsvevegen" />
>>>>>>> e1d4bc35ff8a6074a6f2e91616a996b547c36f15
		<tag k="ssr:date" v="2019-12-27" />
		<tag k="ssr:gruppe" v="veg" />
		<tag k="ssr:hovedgruppe" v="infrastruktur" />
		<tag k="ssr:stedsnr" v="236559" />
		<tag k="ssr:type" v="vegstrekning" />
	</node>
<<<<<<< HEAD
	<node lat="61.10169444119615" lon="9.704202773217588" id="-18887">
		<tag k="name" v="Søre Lenningsvegen" />
=======
	<node id="-392381" lat="61.1505250015" lon="9.84845000215">
		<tag k="name" v="Synnfjellvegen" />
>>>>>>> e1d4bc35ff8a6074a6f2e91616a996b547c36f15
		<tag k="ssr:date" v="2019-12-27" />
		<tag k="ssr:gruppe" v="veg" />
		<tag k="ssr:hovedgruppe" v="infrastruktur" />
		<tag k="ssr:stedsnr" v="236699" />
		<tag k="ssr:type" v="vegstrekning" />
	</node>
<<<<<<< HEAD
	<node lat="61.05275555619853" lon="10.150161105333254" id="-18907">
		<tag k="name" v="Goåsvegen" />
=======
	<node id="-390844" lat="60.867133331" lon="10.178227769">
		<tag k="name" v="Ellingsvevegen" />
>>>>>>> e1d4bc35ff8a6074a6f2e91616a996b547c36f15
		<tag k="ssr:date" v="2019-12-27" />
		<tag k="ssr:gruppe" v="veg" />
		<tag k="ssr:hovedgruppe" v="infrastruktur" />
		<tag k="ssr:stedsnr" v="54108" />
		<tag k="ssr:type" v="vegstrekning" />
	</node>
<<<<<<< HEAD
	<node lat="61.039455555762" lon="10.156641665478123" id="-18908">
		<tag k="name" v="Grønhølvegen" />
=======
	<node id="-391867" lat="60.9157722215" lon="9.81730833723">
		<tag k="name" v="Stormyrvegen" />
>>>>>>> e1d4bc35ff8a6074a6f2e91616a996b547c36f15
		<tag k="ssr:date" v="2019-12-27" />
		<tag k="ssr:gruppe" v="veg" />
		<tag k="ssr:hovedgruppe" v="infrastruktur" />
		<tag k="ssr:stedsnr" v="54110" />
		<tag k="ssr:type" v="vegstrekning" />
	</node>
<<<<<<< HEAD
	<node lat="60.919872225266694" lon="9.81953332918514" id="-18910">
		<tag k="name" v="Godhamnlivegen" />
=======
	<node id="-391866" lat="60.9071444408" lon="9.79306389672">
		<tag k="name" v="Leppdalsvegen" />
>>>>>>> e1d4bc35ff8a6074a6f2e91616a996b547c36f15
		<tag k="ssr:date" v="2019-12-27" />
		<tag k="ssr:gruppe" v="veg" />
		<tag k="ssr:hovedgruppe" v="infrastruktur" />
		<tag k="ssr:stedsnr" v="54866" />
		<tag k="ssr:type" v="vegstrekning" />
	</node>
<<<<<<< HEAD
	<node lat="60.83105555267755" lon="9.816413889789773" id="-18911">
		<tag k="name" v="Brusvevegen" />
=======
	<node id="-392377" lat="60.9801027749" lon="10.0757805492">
		<tag k="name" v="Haukedalslivegen" />
>>>>>>> e1d4bc35ff8a6074a6f2e91616a996b547c36f15
		<tag k="ssr:date" v="2019-12-27" />
		<tag k="ssr:gruppe" v="veg" />
		<tag k="ssr:hovedgruppe" v="infrastruktur" />
		<tag k="ssr:stedsnr" v="55531" />
		<tag k="ssr:type" v="vegstrekning" />
	</node>
<<<<<<< HEAD
	<node lat="60.87263610862366" lon="9.899594443634397" id="-18923">
		<tag k="name" v="Lisetvegen" />
=======
	<node id="-392374" lat="61.0000805541" lon="9.91787777823">
		<tag k="name" v="Livassvegen" />
>>>>>>> e1d4bc35ff8a6074a6f2e91616a996b547c36f15
		<tag k="ssr:date" v="2019-12-27" />
		<tag k="ssr:gruppe" v="veg" />
		<tag k="ssr:hovedgruppe" v="infrastruktur" />
		<tag k="ssr:stedsnr" v="57905" />
		<tag k="ssr:type" v="vegstrekning" />
	</node>
<<<<<<< HEAD
	<node lat="60.87203888859501" lon="10.08748332964822" id="-18928">
		<tag k="name" v="Lerretsdalsvegen" />
=======
	<node id="-391347" lat="60.9570944484" lon="9.85164166454">
		<tag k="name" v="Tomledalsvegen" />
>>>>>>> e1d4bc35ff8a6074a6f2e91616a996b547c36f15
		<tag k="ssr:date" v="2019-12-27" />
		<tag k="ssr:gruppe" v="veg" />
		<tag k="ssr:hovedgruppe" v="infrastruktur" />
		<tag k="ssr:stedsnr" v="58325" />
		<tag k="ssr:type" v="vegstrekning" />
	</node>
<<<<<<< HEAD
	<node lat="60.9168805515746" lon="10.027761104568171" id="-18935">
		<tag k="name" v="Erstad skogsbilveg" />
=======
	<node id="-391858" lat="60.9225666703" lon="9.84107500062">
		<tag k="name" v="Råkvegen" />
>>>>>>> e1d4bc35ff8a6074a6f2e91616a996b547c36f15
		<tag k="ssr:date" v="2019-12-27" />
		<tag k="ssr:gruppe" v="veg" />
		<tag k="ssr:hovedgruppe" v="infrastruktur" />
		<tag k="ssr:stedsnr" v="58916" />
		<tag k="ssr:type" v="vegstrekning" />
	</node>
<<<<<<< HEAD
	<node lat="61.00314444147232" lon="9.85720277570825" id="-18983">
		<tag k="name" v="Livassvegen" />
		<tag k="ssr:date" v="2019-12-27" />
		<tag k="ssr:gruppe" v="veg" />
		<tag k="ssr:hovedgruppe" v="infrastruktur" />
		<tag k="ssr:stedsnr" v="100874" />
		<tag k="ssr:type" v="vegstrekning" />
	</node>
	<node lat="60.9265027765732" lon="9.812822224815239" id="-18998">
		<tag k="name" v="Livassvegen" />
=======
	<node id="-392369" lat="61.072211107" lon="10.017244444">
		<tag k="name" v="Kjeglehaugvegen" />
		<tag k="ssr:date" v="2019-12-27" />
		<tag k="ssr:gruppe" v="veg" />
		<tag k="ssr:hovedgruppe" v="infrastruktur" />
		<tag k="ssr:stedsnr" v="784856" />
		<tag k="ssr:type" v="vegstrekning" />
	</node>
	<node id="-390319" lat="61.0394555558" lon="10.1566416655">
		<tag k="name" v="Grønhølvegen" />
>>>>>>> e1d4bc35ff8a6074a6f2e91616a996b547c36f15
		<tag k="ssr:date" v="2019-12-27" />
		<tag k="ssr:gruppe" v="veg" />
		<tag k="ssr:hovedgruppe" v="infrastruktur" />
		<tag k="ssr:stedsnr" v="54110" />
		<tag k="ssr:type" v="vegstrekning" />
	</node>
<<<<<<< HEAD
	<node lat="60.81663055475736" lon="9.840736113373588" id="-19011">
		<tag k="name" v="Tintonvegen" />
=======
	<node id="-391342" lat="60.9048861088" lon="9.81798888777">
		<tag k="name" v="Baggerudsætervegen" />
>>>>>>> e1d4bc35ff8a6074a6f2e91616a996b547c36f15
		<tag k="ssr:date" v="2019-12-27" />
		<tag k="ssr:gruppe" v="veg" />
		<tag k="ssr:hovedgruppe" v="infrastruktur" />
		<tag k="ssr:stedsnr" v="118209" />
		<tag k="ssr:type" v="vegstrekning" />
	</node>
<<<<<<< HEAD
	<node lat="60.87680555337086" lon="9.815797223538741" id="-19131">
		<tag k="name" v="Brannvegen" />
=======
	<node id="-392364" lat="60.9370305586" lon="9.96548333057">
		<tag k="name" v="Åsødegård bru" />
>>>>>>> e1d4bc35ff8a6074a6f2e91616a996b547c36f15
		<tag k="ssr:date" v="2019-12-27" />
		<tag k="ssr:gruppe" v="veg" />
		<tag k="ssr:hovedgruppe" v="infrastruktur" />
		<tag k="ssr:stedsnr" v="176607" />
		<tag k="ssr:type" v="vegstrekning" />
	</node>
<<<<<<< HEAD
	<node lat="60.83618610991928" lon="9.800872214699789" id="-19133">
		<tag k="name" v="Solvegen" />
		<tag k="ssr:date" v="2019-12-27" />
		<tag k="ssr:gruppe" v="veg" />
		<tag k="ssr:hovedgruppe" v="infrastruktur" />
		<tag k="ssr:stedsnr" v="176516" />
		<tag k="ssr:type" v="vegstrekning" />
	</node>
	<node lat="60.98954444280662" lon="10.117080555308252" id="-19143">
		<tag k="fixme" v="multiple name tags, choose one and add the other to alt_name" />
		<tag k="name" v="Erikvegen;Halvfarelivegen" />
		<tag k="ssr:date" v="2021-06-08" />
=======
	<node id="-392361" lat="61.0773222207" lon="10.0011888869">
		<tag k="name" v="Saltstutlivegen" />
		<tag k="ssr:date" v="2019-12-27" />
		<tag k="ssr:gruppe" v="veg" />
		<tag k="ssr:hovedgruppe" v="infrastruktur" />
		<tag k="ssr:stedsnr" v="784761" />
		<tag k="ssr:type" v="vegstrekning" />
	</node>
	<node id="-390312" lat="60.8443888855" lon="9.82816388341">
		<tag k="name" v="Solvegen" />
		<tag k="ssr:date" v="2019-12-27" />
>>>>>>> e1d4bc35ff8a6074a6f2e91616a996b547c36f15
		<tag k="ssr:gruppe" v="veg" />
		<tag k="ssr:hovedgruppe" v="infrastruktur" />
		<tag k="ssr:stedsnr" v="179003" />
		<tag k="ssr:type" v="vegstrekning" />
	</node>
<<<<<<< HEAD
	<node lat="60.776674997115144" lon="10.113300000457993" id="-19179">
		<tag k="name" v="Vikersætervegen" />
=======
	<node id="-390311" lat="60.8548444411" lon="9.8126222281">
		<tag k="name" v="Stuveåsvegen" />
>>>>>>> e1d4bc35ff8a6074a6f2e91616a996b547c36f15
		<tag k="ssr:date" v="2019-12-27" />
		<tag k="ssr:gruppe" v="veg" />
		<tag k="ssr:hovedgruppe" v="infrastruktur" />
		<tag k="ssr:stedsnr" v="195346" />
		<tag k="ssr:type" v="vegstrekning" />
	</node>
<<<<<<< HEAD
	<node lat="60.8921416678334" lon="9.817275005407849" id="-19180">
		<tag k="name" v="Riddervegen" />
		<tag k="ssr:date" v="2019-12-27" />
		<tag k="ssr:gruppe" v="veg" />
		<tag k="ssr:hovedgruppe" v="infrastruktur" />
		<tag k="ssr:stedsnr" v="221118" />
		<tag k="ssr:type" v="vegstrekning" />
	</node>
	<node lat="60.78185833474882" lon="10.043599993342937" id="-19181">
		<tag k="name" v="Akksjøvegen" />
		<tag k="ssr:date" v="2019-12-27" />
		<tag k="ssr:gruppe" v="veg" />
		<tag k="ssr:hovedgruppe" v="infrastruktur" />
		<tag k="ssr:stedsnr" v="221610" />
		<tag k="ssr:type" v="vegstrekning" />
	</node>
	<node lat="61.02349167084526" lon="9.8397833272995" id="-19185">
		<tag k="name" v="Ørkavegen" />
		<tag k="ssr:date" v="2019-12-27" />
		<tag k="ssr:gruppe" v="veg" />
		<tag k="ssr:hovedgruppe" v="infrastruktur" />
		<tag k="ssr:stedsnr" v="221894" />
		<tag k="ssr:type" v="vegstrekning" />
	</node>
	<node lat="60.77941944290279" lon="9.992286119077729" id="-19193">
		<tag k="name" v="Akksjøvegen" />
=======
	<node id="-392358" lat="60.8880916629" lon="9.89772778662">
		<tag k="name" v="Lisetvegen" />
		<tag k="ssr:date" v="2019-12-27" />
		<tag k="ssr:gruppe" v="veg" />
		<tag k="ssr:hovedgruppe" v="infrastruktur" />
		<tag k="ssr:stedsnr" v="784545" />
		<tag k="ssr:type" v="vegstrekning" />
	</node>
	<node id="-391878" lat="61.076761115" lon="10.029122227">
		<tag k="name" v="Saltstutlivegen" />
		<tag k="ssr:date" v="2019-12-27" />
		<tag k="ssr:gruppe" v="veg" />
		<tag k="ssr:hovedgruppe" v="infrastruktur" />
		<tag k="ssr:stedsnr" v="359850" />
		<tag k="ssr:type" v="vegstrekning" />
	</node>
	<node id="-390811" lat="60.7501888886" lon="10.0531583394">
		<tag k="name" v="Øyvassvegen" />
>>>>>>> e1d4bc35ff8a6074a6f2e91616a996b547c36f15
		<tag k="ssr:date" v="2019-12-27" />
		<tag k="ssr:gruppe" v="veg" />
		<tag k="ssr:hovedgruppe" v="infrastruktur" />
		<tag k="ssr:stedsnr" v="238517" />
		<tag k="ssr:type" v="vegstrekning" />
	</node>
<<<<<<< HEAD
	<node lat="60.926630559447375" lon="10.17813611094449" id="-19194">
		<tag k="name" v="Slettsvevegen" />
=======
	<node id="-392343" lat="60.8885916692" lon="9.80271944419">
		<tag k="name" v="Bikkjepullvegen" />
>>>>>>> e1d4bc35ff8a6074a6f2e91616a996b547c36f15
		<tag k="ssr:date" v="2019-12-27" />
		<tag k="ssr:gruppe" v="veg" />
		<tag k="ssr:hovedgruppe" v="infrastruktur" />
		<tag k="ssr:stedsnr" v="238627" />
		<tag k="ssr:type" v="vegstrekning" />
	</node>
<<<<<<< HEAD
	<node lat="60.763880554295504" lon="9.91607778241506" id="-19198">
		<tag k="name" v="Smørvikvegen" />
=======
	<node id="-390806" lat="61.0326027772" lon="10.2111083333">
		<tag k="name" v="Goåsvegen" />
>>>>>>> e1d4bc35ff8a6074a6f2e91616a996b547c36f15
		<tag k="ssr:date" v="2019-12-27" />
		<tag k="ssr:gruppe" v="veg" />
		<tag k="ssr:hovedgruppe" v="infrastruktur" />
		<tag k="ssr:stedsnr" v="239509" />
		<tag k="ssr:type" v="vegstrekning" />
	</node>
<<<<<<< HEAD
	<node lat="60.83199166444934" lon="9.852452769645549" id="-19202">
		<tag k="name" v="Sameivegen" />
=======
	<node id="-390804" lat="61.0523277756" lon="10.0845611018">
		<tag k="name" v="Røstesætervegen" />
>>>>>>> e1d4bc35ff8a6074a6f2e91616a996b547c36f15
		<tag k="ssr:date" v="2019-12-27" />
		<tag k="ssr:gruppe" v="veg" />
		<tag k="ssr:hovedgruppe" v="infrastruktur" />
		<tag k="ssr:stedsnr" v="240206" />
		<tag k="ssr:type" v="vegstrekning" />
	</node>
<<<<<<< HEAD
	<node lat="60.80365833009819" lon="10.032363891191949" id="-19203">
		<tag k="name" v="Mælumslivegen" />
=======
	<node id="-390801" lat="61.1080083335" lon="9.91529167456">
		<tag k="name" v="Wilhelmsens veg" />
>>>>>>> e1d4bc35ff8a6074a6f2e91616a996b547c36f15
		<tag k="ssr:date" v="2019-12-27" />
		<tag k="ssr:gruppe" v="veg" />
		<tag k="ssr:hovedgruppe" v="infrastruktur" />
		<tag k="ssr:stedsnr" v="240209" />
		<tag k="ssr:type" v="vegstrekning" />
	</node>
<<<<<<< HEAD
	<node lat="60.96104444771456" lon="9.818322215376545" id="-19219">
		<tag k="name" v="Midtlivegen" />
		<tag k="ssr:date" v="2019-12-27" />
		<tag k="ssr:gruppe" v="veg" />
		<tag k="ssr:hovedgruppe" v="infrastruktur" />
		<tag k="ssr:stedsnr" v="297897" />
		<tag k="ssr:type" v="vegstrekning" />
	</node>
	<node lat="60.77389722173555" lon="9.884508326977663" id="-19226">
		<tag k="name" v="Smørvikvegen" />
=======
	<node id="-390284" lat="60.8763916644" lon="9.88433889453">
		<tag k="name" v="Lisetvegen" />
>>>>>>> e1d4bc35ff8a6074a6f2e91616a996b547c36f15
		<tag k="ssr:date" v="2019-12-27" />
		<tag k="ssr:gruppe" v="veg" />
		<tag k="ssr:hovedgruppe" v="infrastruktur" />
		<tag k="ssr:stedsnr" v="300272" />
		<tag k="ssr:type" v="vegstrekning" />
	</node>
<<<<<<< HEAD
	<node lat="60.86776388511808" lon="10.025630551671306" id="-19227">
		<tag k="name" v="Gladbakkevegen" />
=======
	<node id="-390283" lat="61.0234916708" lon="9.8397833273">
		<tag k="name" v="Ørkavegen" />
>>>>>>> e1d4bc35ff8a6074a6f2e91616a996b547c36f15
		<tag k="ssr:date" v="2019-12-27" />
		<tag k="ssr:gruppe" v="veg" />
		<tag k="ssr:hovedgruppe" v="infrastruktur" />
		<tag k="ssr:stedsnr" v="300447" />
		<tag k="ssr:type" v="vegstrekning" />
	</node>
<<<<<<< HEAD
	<node lat="61.069874998714106" lon="9.928755553553316" id="-19228">
		<tag k="name" v="Åssætervegen" />
=======
	<node id="-390281" lat="61.0098861094" lon="9.85486944756">
		<tag k="name" v="Bjørnerudvegen" />
>>>>>>> e1d4bc35ff8a6074a6f2e91616a996b547c36f15
		<tag k="ssr:date" v="2019-12-27" />
		<tag k="ssr:gruppe" v="veg" />
		<tag k="ssr:hovedgruppe" v="infrastruktur" />
		<tag k="ssr:stedsnr" v="301224" />
		<tag k="ssr:type" v="vegstrekning" />
	</node>
<<<<<<< HEAD
	<node lat="61.04818610904516" lon="9.964436119933783" id="-19231">
		<tag k="name" v="Synnfjellvegen" />
=======
	<node id="-390280" lat="60.7818583347" lon="10.0435999933">
		<tag k="name" v="Akksjøvegen" />
>>>>>>> e1d4bc35ff8a6074a6f2e91616a996b547c36f15
		<tag k="ssr:date" v="2019-12-27" />
		<tag k="ssr:gruppe" v="veg" />
		<tag k="ssr:hovedgruppe" v="infrastruktur" />
		<tag k="ssr:stedsnr" v="301729" />
		<tag k="ssr:type" v="vegstrekning" />
	</node>
<<<<<<< HEAD
	<node lat="60.87203055528168" lon="9.841713891921595" id="-19235">
		<tag k="name" v="Brannvegen" />
=======
	<node id="-390279" lat="60.9763583311" lon="9.80683611699">
		<tag k="name" v="Øyangsvegen" />
>>>>>>> e1d4bc35ff8a6074a6f2e91616a996b547c36f15
		<tag k="ssr:date" v="2019-12-27" />
		<tag k="ssr:gruppe" v="veg" />
		<tag k="ssr:hovedgruppe" v="infrastruktur" />
		<tag k="ssr:stedsnr" v="464978" />
		<tag k="ssr:type" v="vegstrekning" />
	</node>
<<<<<<< HEAD
	<node lat="60.92256667033713" lon="9.841075000619611" id="-19271">
		<tag k="name" v="Råkvegen" />
		<tag k="ssr:date" v="2019-12-27" />
		<tag k="ssr:gruppe" v="veg" />
		<tag k="ssr:hovedgruppe" v="infrastruktur" />
		<tag k="ssr:stedsnr" v="342116" />
		<tag k="ssr:type" v="vegstrekning" />
	</node>
	<node lat="60.907144440761215" lon="9.793063896721756" id="-19276">
		<tag k="name" v="Leppdalsvegen" />
		<tag k="ssr:date" v="2019-12-27" />
		<tag k="ssr:gruppe" v="veg" />
		<tag k="ssr:hovedgruppe" v="infrastruktur" />
		<tag k="ssr:stedsnr" v="357801" />
		<tag k="ssr:type" v="vegstrekning" />
	</node>
	<node lat="61.038958332035506" lon="10.196427779877064" id="-19278">
		<tag k="name" v="Fjellolivegen" />
		<tag k="ssr:date" v="2019-12-27" />
		<tag k="ssr:gruppe" v="veg" />
		<tag k="ssr:hovedgruppe" v="infrastruktur" />
		<tag k="ssr:stedsnr" v="358967" />
		<tag k="ssr:type" v="vegstrekning" />
	</node>
	<node lat="61.07676111499808" lon="10.029122226968846" id="-19279">
		<tag k="name" v="Saltstutlivegen" />
=======
	<node id="-390849" lat="60.8584694428" lon="9.90862221543">
		<tag k="name" v="Lisetvegen" />
		<tag k="ssr:date" v="2019-12-27" />
		<tag k="ssr:gruppe" v="veg" />
		<tag k="ssr:hovedgruppe" v="infrastruktur" />
		<tag k="ssr:stedsnr" v="663637" />
		<tag k="ssr:type" v="vegstrekning" />
	</node>
	<node id="-390275" lat="60.8921416678" lon="9.81727500541">
		<tag k="name" v="Riddervegen" />
		<tag k="ssr:date" v="2019-12-27" />
		<tag k="ssr:gruppe" v="veg" />
		<tag k="ssr:hovedgruppe" v="infrastruktur" />
		<tag k="ssr:stedsnr" v="221118" />
		<tag k="ssr:type" v="vegstrekning" />
	</node>
	<node id="-391345" lat="60.8115055558" lon="9.82585276912">
		<tag k="name" v="Tintonvegen" />
		<tag k="ssr:date" v="2019-12-27" />
		<tag k="ssr:gruppe" v="veg" />
		<tag k="ssr:hovedgruppe" v="infrastruktur" />
		<tag k="ssr:stedsnr" v="949452" />
		<tag k="ssr:type" v="vegstrekning" />
	</node>
	<node id="-391292" lat="60.7729944461" lon="10.0815749998">
		<tag k="name" v="Vesteråsvegen" />
>>>>>>> e1d4bc35ff8a6074a6f2e91616a996b547c36f15
		<tag k="ssr:date" v="2019-12-27" />
		<tag k="ssr:gruppe" v="veg" />
		<tag k="ssr:hovedgruppe" v="infrastruktur" />
		<tag k="ssr:stedsnr" v="359850" />
		<tag k="ssr:type" v="vegstrekning" />
	</node>
<<<<<<< HEAD
	<node lat="61.002888884978546" lon="10.19118610226518" id="-19289">
		<tag k="name" v="Drameidalsvegen" />
=======
	<node id="-391291" lat="61.1311861154" lon="9.79212221394">
		<tag k="name" v="Gardsætervegen" />
>>>>>>> e1d4bc35ff8a6074a6f2e91616a996b547c36f15
		<tag k="ssr:date" v="2019-12-27" />
		<tag k="ssr:gruppe" v="veg" />
		<tag k="ssr:hovedgruppe" v="infrastruktur" />
		<tag k="ssr:stedsnr" v="479598" />
		<tag k="ssr:type" v="vegstrekning" />
	</node>
<<<<<<< HEAD
	<node lat="60.82477499634812" lon="10.01612500489896" id="-19313">
		<tag k="name" v="Sverdslivegen" />
=======
	<node id="-391785" lat="61.048186109" lon="9.96443611993">
		<tag k="name" v="Synnfjellvegen" />
>>>>>>> e1d4bc35ff8a6074a6f2e91616a996b547c36f15
		<tag k="ssr:date" v="2019-12-27" />
		<tag k="ssr:gruppe" v="veg" />
		<tag k="ssr:hovedgruppe" v="infrastruktur" />
		<tag k="ssr:stedsnr" v="481525" />
		<tag k="ssr:type" v="vegstrekning" />
	</node>
<<<<<<< HEAD
	<node lat="60.897977778769416" lon="10.155494452248988" id="-19317">
		<tag k="name" v="Djupåvegen" />
=======
	<node id="-391783" lat="60.8072388921" lon="9.96353888931">
		<tag k="name" v="Skjeldnetjernsvegen" />
>>>>>>> e1d4bc35ff8a6074a6f2e91616a996b547c36f15
		<tag k="ssr:date" v="2019-12-27" />
		<tag k="ssr:gruppe" v="veg" />
		<tag k="ssr:hovedgruppe" v="infrastruktur" />
		<tag k="ssr:stedsnr" v="481146" />
		<tag k="ssr:type" v="vegstrekning" />
	</node>
<<<<<<< HEAD
	<node lat="61.06948333245526" lon="9.960394439648322" id="-19319">
		<tag k="name" v="Øytjernsætervegen" />
=======
	<node id="-391270" lat="60.7556833358" lon="9.95035833405">
		<tag k="name" v="Smørvikvegen" />
>>>>>>> e1d4bc35ff8a6074a6f2e91616a996b547c36f15
		<tag k="ssr:date" v="2019-12-27" />
		<tag k="ssr:gruppe" v="veg" />
		<tag k="ssr:hovedgruppe" v="infrastruktur" />
		<tag k="ssr:stedsnr" v="481740" />
		<tag k="ssr:type" v="vegstrekning" />
	</node>
<<<<<<< HEAD
	<node lat="61.1297000025028" lon="9.702336106069762" id="-19328">
		<tag k="name" v="Trondhusvegen" />
=======
	<node id="-391697" lat="60.9272250018" lon="10.129674998">
		<tag k="name" v="Lybækvegen" />
		<tag k="ssr:date" v="2019-12-27" />
		<tag k="ssr:gruppe" v="veg" />
		<tag k="ssr:hovedgruppe" v="infrastruktur" />
		<tag k="ssr:stedsnr" v="178592" />
		<tag k="ssr:type" v="vegstrekning" />
	</node>
	<node id="-391778" lat="60.7766749971" lon="10.1133000005">
		<tag k="name" v="Vikersætervegen" />
>>>>>>> e1d4bc35ff8a6074a6f2e91616a996b547c36f15
		<tag k="ssr:date" v="2019-12-27" />
		<tag k="ssr:gruppe" v="veg" />
		<tag k="ssr:hovedgruppe" v="infrastruktur" />
		<tag k="ssr:stedsnr" v="482876" />
		<tag k="ssr:type" v="vegstrekning" />
	</node>
<<<<<<< HEAD
	<node lat="60.97689999737064" lon="9.867322219692166" id="-19333">
		<tag k="name" v="Slåttsætervegen" />
=======
	<node id="-390321" lat="60.9198722253" lon="9.81953332919">
		<tag k="name" v="Godhamnlivegen" />
>>>>>>> e1d4bc35ff8a6074a6f2e91616a996b547c36f15
		<tag k="ssr:date" v="2019-12-27" />
		<tag k="ssr:gruppe" v="veg" />
		<tag k="ssr:hovedgruppe" v="infrastruktur" />
		<tag k="ssr:stedsnr" v="54866" />
		<tag k="ssr:type" v="vegstrekning" />
	</node>
	<node id="-390586" lat="60.9610444477" lon="9.81832221538">
		<tag k="name" v="Midtlivegen" />
		<tag k="ssr:date" v="2019-12-27" />
		<tag k="ssr:gruppe" v="veg" />
		<tag k="ssr:hovedgruppe" v="infrastruktur" />
		<tag k="ssr:stedsnr" v="297897" />
		<tag k="ssr:type" v="vegstrekning" />
	</node>
<<<<<<< HEAD
	<node lat="60.89914721864764" lon="9.797252775063312" id="-19339">
		<tag k="name" v="Vestsidevegen" />
=======
	<node id="-392282" lat="60.8673027809" lon="9.86654166997">
		<tag k="name" v="Flisveltvegen" />
		<tag k="ssr:date" v="2019-12-27" />
		<tag k="ssr:gruppe" v="veg" />
		<tag k="ssr:hovedgruppe" v="infrastruktur" />
		<tag k="ssr:stedsnr" v="645988" />
		<tag k="ssr:type" v="vegstrekning" />
	</node>
	<node id="-392281" lat="60.97906667" lon="9.80281945124">
		<tag k="name" v="Fellesætervegen" />
		<tag k="ssr:date" v="2019-12-27" />
		<tag k="ssr:gruppe" v="veg" />
		<tag k="ssr:hovedgruppe" v="infrastruktur" />
		<tag k="ssr:stedsnr" v="645558" />
		<tag k="ssr:type" v="vegstrekning" />
	</node>
	<node id="-392279" lat="61.0463916646" lon="9.79126389361">
		<tag k="name" v="Berglund" />
>>>>>>> e1d4bc35ff8a6074a6f2e91616a996b547c36f15
		<tag k="ssr:date" v="2019-12-27" />
		<tag k="ssr:gruppe" v="veg" />
		<tag k="ssr:hovedgruppe" v="infrastruktur" />
		<tag k="ssr:stedsnr" v="403132" />
		<tag k="ssr:type" v="vegstrekning" />
	</node>
<<<<<<< HEAD
	<node lat="60.80667777414394" lon="9.866958333367876" id="-19347">
		<tag k="name" v="Sameivegen" />
		<tag k="ssr:date" v="2019-12-27" />
		<tag k="ssr:gruppe" v="veg" />
		<tag k="ssr:hovedgruppe" v="infrastruktur" />
		<tag k="ssr:stedsnr" v="422219" />
		<tag k="ssr:type" v="vegstrekning" />
	</node>
	<node lat="60.750188888643635" lon="10.053158339435518" id="-19350">
		<tag k="name" v="Øyvassvegen" />
		<tag k="ssr:date" v="2019-12-27" />
		<tag k="ssr:gruppe" v="veg" />
		<tag k="ssr:hovedgruppe" v="infrastruktur" />
		<tag k="ssr:stedsnr" v="422318" />
		<tag k="ssr:type" v="vegstrekning" />
	</node>
	<node lat="60.91296388661384" lon="10.029277784288709" id="-19353">
		<tag k="name" v="Vesterslåttvegen" />
		<tag k="ssr:date" v="2019-12-27" />
		<tag k="ssr:gruppe" v="veg" />
		<tag k="ssr:hovedgruppe" v="infrastruktur" />
		<tag k="ssr:stedsnr" v="422918" />
		<tag k="ssr:type" v="vegstrekning" />
	</node>
	<node lat="60.904213889992526" lon="10.064502778667572" id="-19503">
		<tag k="name" v="Åbakkvegen" />
=======
	<node id="-391667" lat="60.9201138875" lon="10.1122500037">
		<tag k="name" v="Svarthaugvegen" />
		<tag k="ssr:date" v="2019-12-27" />
		<tag k="ssr:gruppe" v="veg" />
		<tag k="ssr:hovedgruppe" v="infrastruktur" />
		<tag k="ssr:stedsnr" v="300195" />
		<tag k="ssr:type" v="vegstrekning" />
	</node>
	<node id="-391690" lat="61.0494166666" lon="10.0747944481">
		<tag k="name" v="Saltstutlivegen" />
		<tag k="ssr:date" v="2019-12-27" />
		<tag k="ssr:gruppe" v="veg" />
		<tag k="ssr:hovedgruppe" v="infrastruktur" />
		<tag k="ssr:stedsnr" v="177038" />
		<tag k="ssr:type" v="vegstrekning" />
	</node>
	<node id="-391004" lat="60.8940388885" lon="9.81240278532">
		<tag k="name" v="Leppdalsvegen" />
		<tag k="ssr:date" v="2019-12-27" />
		<tag k="ssr:gruppe" v="veg" />
		<tag k="ssr:hovedgruppe" v="infrastruktur" />
		<tag k="ssr:stedsnr" v="706123" />
		<tag k="ssr:type" v="vegstrekning" />
	</node>
	<node id="-391857" lat="61.0413972216" lon="9.79506388281">
		<tag k="name" v="Fjellsætervegen" />
		<tag k="ssr:date" v="2019-12-27" />
		<tag k="ssr:gruppe" v="veg" />
		<tag k="ssr:hovedgruppe" v="infrastruktur" />
		<tag k="ssr:stedsnr" v="342069" />
		<tag k="ssr:type" v="vegstrekning" />
	</node>
	<node id="-390692" lat="61.038958332" lon="10.1964277799">
		<tag k="name" v="Fjellolivegen" />
		<tag k="ssr:date" v="2019-12-27" />
		<tag k="ssr:gruppe" v="veg" />
		<tag k="ssr:hovedgruppe" v="infrastruktur" />
		<tag k="ssr:stedsnr" v="358967" />
		<tag k="ssr:type" v="vegstrekning" />
	</node>
	<node id="-391202" lat="61.0926555549" lon="9.91935277934">
		<tag k="name" v="Synnfjellvegen" />
>>>>>>> e1d4bc35ff8a6074a6f2e91616a996b547c36f15
		<tag k="ssr:date" v="2019-12-27" />
		<tag k="ssr:gruppe" v="veg" />
		<tag k="ssr:hovedgruppe" v="infrastruktur" />
		<tag k="ssr:stedsnr" v="481005" />
		<tag k="ssr:type" v="vegstrekning" />
	</node>
<<<<<<< HEAD
	<node lat="60.988055557126394" lon="10.057805557895643" id="-19505">
		<tag k="name" v="Haukedalslivegen" />
=======
	<node id="-391713" lat="60.9120277807" lon="10.0787777812">
		<tag k="name" v="Furubrennvegen" />
>>>>>>> e1d4bc35ff8a6074a6f2e91616a996b547c36f15
		<tag k="ssr:date" v="2019-12-27" />
		<tag k="ssr:gruppe" v="veg" />
		<tag k="ssr:hovedgruppe" v="infrastruktur" />
		<tag k="ssr:stedsnr" v="481504" />
		<tag k="ssr:type" v="vegstrekning" />
	</node>
<<<<<<< HEAD
	<node lat="60.87755833712607" lon="10.057094449605966" id="-19512">
		<tag k="name" v="Gamlevegen" />
=======
	<node id="-391710" lat="60.8292666624" lon="9.85565277293">
		<tag k="name" v="Jernbanevegen" />
>>>>>>> e1d4bc35ff8a6074a6f2e91616a996b547c36f15
		<tag k="ssr:date" v="2019-12-27" />
		<tag k="ssr:gruppe" v="veg" />
		<tag k="ssr:hovedgruppe" v="infrastruktur" />
		<tag k="ssr:stedsnr" v="482423" />
		<tag k="ssr:type" v="vegstrekning" />
	</node>
<<<<<<< HEAD
	<node lat="60.81148889102889" lon="9.961827773090352" id="-19516">
		<tag k="name" v="Sjurshaugvegen" />
=======
	<node id="-391195" lat="61.1397222218" lon="9.86469166217">
		<tag k="name" v="Synnfjellvegen" />
>>>>>>> e1d4bc35ff8a6074a6f2e91616a996b547c36f15
		<tag k="ssr:date" v="2019-12-27" />
		<tag k="ssr:gruppe" v="veg" />
		<tag k="ssr:hovedgruppe" v="infrastruktur" />
		<tag k="ssr:stedsnr" v="483375" />
		<tag k="ssr:type" v="vegstrekning" />
	</node>
<<<<<<< HEAD
	<node lat="61.039716670236714" lon="9.974694451130224" id="-19517">
		<tag k="name" v="Langholvegen" />
=======
	<node id="-391706" lat="60.8570749985" lon="10.2276527832">
		<tag k="name" v="Flyplassvegen" />
>>>>>>> e1d4bc35ff8a6074a6f2e91616a996b547c36f15
		<tag k="ssr:date" v="2019-12-27" />
		<tag k="ssr:gruppe" v="veg" />
		<tag k="ssr:hovedgruppe" v="infrastruktur" />
		<tag k="ssr:stedsnr" v="483773" />
		<tag k="ssr:type" v="vegstrekning" />
	</node>
<<<<<<< HEAD
	<node lat="61.00855833708664" lon="10.051402785209243" id="-19518">
=======
	<node id="-390680" lat="61.0085583371" lon="10.0514027852">
>>>>>>> e1d4bc35ff8a6074a6f2e91616a996b547c36f15
		<tag k="name" v="Oddelivegen" />
		<tag k="ssr:date" v="2019-12-27" />
		<tag k="ssr:gruppe" v="veg" />
		<tag k="ssr:hovedgruppe" v="infrastruktur" />
		<tag k="ssr:stedsnr" v="483980" />
		<tag k="ssr:type" v="vegstrekning" />
	</node>
<<<<<<< HEAD
	<node lat="60.87933333424906" lon="9.849955559799872" id="-19551">
		<tag k="name" v="Øverliervegen" />
=======
	<node id="-391191" lat="60.9227138895" lon="10.1597111109">
		<tag k="name" v="Abborvassvegen" />
		<tag k="ssr:date" v="2019-12-27" />
		<tag k="ssr:gruppe" v="veg" />
		<tag k="ssr:hovedgruppe" v="infrastruktur" />
		<tag k="ssr:stedsnr" v="906652" />
		<tag k="ssr:type" v="vegstrekning" />
	</node>
	<node id="-391190" lat="60.9172944449" lon="10.1529305643">
		<tag k="name" v="Hovdelivegen" />
		<tag k="ssr:date" v="2019-12-27" />
		<tag k="ssr:gruppe" v="veg" />
		<tag k="ssr:hovedgruppe" v="infrastruktur" />
		<tag k="ssr:stedsnr" v="906651" />
		<tag k="ssr:type" v="vegstrekning" />
	</node>
	<node id="-390318" lat="61.0527555562" lon="10.1501611053">
		<tag k="name" v="Goåsvegen" />
		<tag k="ssr:date" v="2019-12-27" />
		<tag k="ssr:gruppe" v="veg" />
		<tag k="ssr:hovedgruppe" v="infrastruktur" />
		<tag k="ssr:stedsnr" v="54108" />
		<tag k="ssr:type" v="vegstrekning" />
	</node>
	<node id="-392209" lat="60.789749996" lon="10.1056138949">
		<tag k="name" v="Svartvatnvegen" />
		<tag k="ssr:date" v="2019-12-27" />
		<tag k="ssr:gruppe" v="veg" />
		<tag k="ssr:hovedgruppe" v="infrastruktur" />
		<tag k="ssr:stedsnr" v="604737" />
		<tag k="ssr:type" v="vegstrekning" />
	</node>
	<node id="-392202" lat="60.7741277787" lon="10.0295972131">
		<tag k="name" v="Akksjøvegen" />
		<tag k="ssr:date" v="2019-12-27" />
		<tag k="ssr:gruppe" v="veg" />
		<tag k="ssr:hovedgruppe" v="infrastruktur" />
		<tag k="ssr:stedsnr" v="604346" />
		<tag k="ssr:type" v="vegstrekning" />
	</node>
	<node id="-391687" lat="60.8768055534" lon="9.81579722354">
		<tag k="name" v="Brannvegen" />
>>>>>>> e1d4bc35ff8a6074a6f2e91616a996b547c36f15
		<tag k="ssr:date" v="2019-12-27" />
		<tag k="ssr:gruppe" v="veg" />
		<tag k="ssr:hovedgruppe" v="infrastruktur" />
		<tag k="ssr:stedsnr" v="524982" />
		<tag k="ssr:type" v="vegstrekning" />
	</node>
<<<<<<< HEAD
	<node lat="60.90704999937728" lon="9.80473332499111" id="-19552">
		<tag k="name" v="Baggerudsætervegen" />
=======
	<node id="-391173" lat="60.8250666689" lon="9.9285111071">
		<tag k="name" v="Ulivegen" />
>>>>>>> e1d4bc35ff8a6074a6f2e91616a996b547c36f15
		<tag k="ssr:date" v="2019-12-27" />
		<tag k="ssr:gruppe" v="veg" />
		<tag k="ssr:hovedgruppe" v="infrastruktur" />
		<tag k="ssr:stedsnr" v="539825" />
		<tag k="ssr:type" v="vegstrekning" />
	</node>
<<<<<<< HEAD
	<node lat="60.81628888965922" lon="9.87323056009583" id="-19564">
		<tag k="name" v="Vasslivegen" />
=======
	<node id="-390660" lat="61.0694833325" lon="9.96039443965">
		<tag k="name" v="Øytjernsætervegen" />
>>>>>>> e1d4bc35ff8a6074a6f2e91616a996b547c36f15
		<tag k="ssr:date" v="2019-12-27" />
		<tag k="ssr:gruppe" v="veg" />
		<tag k="ssr:hovedgruppe" v="infrastruktur" />
		<tag k="ssr:stedsnr" v="543172" />
		<tag k="ssr:type" v="vegstrekning" />
	</node>
<<<<<<< HEAD
	<node lat="60.99129166433077" lon="10.197036104444617" id="-19616">
		<tag k="name" v="Finndalsvegen" />
=======
	<node id="-391683" lat="60.8361861099" lon="9.8008722147">
		<tag k="name" v="Solvegen" />
>>>>>>> e1d4bc35ff8a6074a6f2e91616a996b547c36f15
		<tag k="ssr:date" v="2019-12-27" />
		<tag k="ssr:gruppe" v="veg" />
		<tag k="ssr:hovedgruppe" v="infrastruktur" />
		<tag k="ssr:stedsnr" v="600122" />
		<tag k="ssr:type" v="vegstrekning" />
	</node>
<<<<<<< HEAD
	<node lat="61.00984167083101" lon="10.103216665780783" id="-19623">
		<tag k="name" v="Fjellsvegen" />
=======
	<node id="-392193" lat="60.7466861098" lon="10.0657361193">
		<tag k="name" v="Vesteråsvegen" />
>>>>>>> e1d4bc35ff8a6074a6f2e91616a996b547c36f15
		<tag k="ssr:date" v="2019-12-27" />
		<tag k="ssr:gruppe" v="veg" />
		<tag k="ssr:hovedgruppe" v="infrastruktur" />
		<tag k="ssr:stedsnr" v="602457" />
		<tag k="ssr:type" v="vegstrekning" />
	</node>
<<<<<<< HEAD
	<node lat="60.93278610727937" lon="9.928155560694524" id="-19629">
		<tag k="name" v="Laenvegen" />
		<tag k="ssr:date" v="2019-12-27" />
		<tag k="ssr:gruppe" v="veg" />
		<tag k="ssr:hovedgruppe" v="infrastruktur" />
		<tag k="ssr:stedsnr" v="602949" />
		<tag k="ssr:type" v="vegstrekning" />
	</node>
	<node lat="60.88615277860204" lon="9.87278055384058" id="-19636">
		<tag k="name" v="Øverliervegen" />
		<tag k="ssr:date" v="2019-12-27" />
		<tag k="ssr:gruppe" v="veg" />
		<tag k="ssr:hovedgruppe" v="infrastruktur" />
		<tag k="ssr:stedsnr" v="604007" />
		<tag k="ssr:type" v="vegstrekning" />
	</node>
	<node lat="61.097950003761234" lon="9.927816673942411" id="-19639">
		<tag k="name" v="Klevmosætervegen" />
		<tag k="ssr:date" v="2019-12-27" />
		<tag k="ssr:gruppe" v="veg" />
		<tag k="ssr:hovedgruppe" v="infrastruktur" />
		<tag k="ssr:stedsnr" v="604223" />
		<tag k="ssr:type" v="vegstrekning" />
	</node>
	<node lat="60.894038888524044" lon="9.812402785321517" id="-19678">
		<tag k="name" v="Leppdalsvegen" />
		<tag k="ssr:date" v="2019-12-27" />
		<tag k="ssr:gruppe" v="veg" />
		<tag k="ssr:hovedgruppe" v="infrastruktur" />
		<tag k="ssr:stedsnr" v="706123" />
		<tag k="ssr:type" v="vegstrekning" />
	</node>
	<node lat="61.046391664647444" lon="9.791263893608653" id="-19681">
		<tag k="name" v="Berglund" />
		<tag k="ssr:date" v="2019-12-27" />
		<tag k="ssr:gruppe" v="veg" />
		<tag k="ssr:hovedgruppe" v="infrastruktur" />
		<tag k="ssr:stedsnr" v="645072" />
		<tag k="ssr:type" v="vegstrekning" />
	</node>
	<node lat="60.784694443877505" lon="10.066925005023675" id="-19685">
		<tag k="name" v="Svartvatnvegen" />
		<tag k="ssr:date" v="2019-12-27" />
		<tag k="ssr:gruppe" v="veg" />
		<tag k="ssr:hovedgruppe" v="infrastruktur" />
		<tag k="ssr:stedsnr" v="706624" />
		<tag k="ssr:type" v="vegstrekning" />
	</node>
	<node lat="60.867302780937024" lon="9.866541669971046" id="-19686">
		<tag k="name" v="Flisveltvegen" />
		<tag k="ssr:date" v="2019-12-27" />
		<tag k="ssr:gruppe" v="veg" />
		<tag k="ssr:hovedgruppe" v="infrastruktur" />
		<tag k="ssr:stedsnr" v="645988" />
		<tag k="ssr:type" v="vegstrekning" />
	</node>
	<node lat="60.766027773908036" lon="10.001563881048714" id="-19692">
		<tag k="name" v="Smørvikvegen" />
		<tag k="ssr:date" v="2019-12-27" />
		<tag k="ssr:gruppe" v="veg" />
		<tag k="ssr:hovedgruppe" v="infrastruktur" />
		<tag k="ssr:stedsnr" v="663612" />
		<tag k="ssr:type" v="vegstrekning" />
	</node>
	<node lat="60.8317777760185" lon="10.231813889991336" id="-19695">
		<tag k="name" v="Saglivegen" />
		<tag k="ssr:date" v="2019-12-27" />
		<tag k="ssr:gruppe" v="veg" />
		<tag k="ssr:hovedgruppe" v="infrastruktur" />
		<tag k="ssr:stedsnr" v="663985" />
		<tag k="ssr:type" v="vegstrekning" />
	</node>
	<node lat="61.010863892275175" lon="9.947580559242844" id="-19746">
		<tag k="name" v="Heimsætervegen" />
		<tag k="ssr:date" v="2019-12-27" />
		<tag k="ssr:gruppe" v="veg" />
		<tag k="ssr:hovedgruppe" v="infrastruktur" />
		<tag k="ssr:stedsnr" v="724209" />
		<tag k="ssr:type" v="vegstrekning" />
	</node>
	<node lat="60.772848271314444" lon="9.981186627962897" id="-19748">
		<tag k="name" v="Akksjølivegen" />
		<tag k="ssr:date" v="2019-12-27" />
		<tag k="ssr:gruppe" v="veg" />
		<tag k="ssr:hovedgruppe" v="infrastruktur" />
		<tag k="ssr:stedsnr" v="724594" />
		<tag k="ssr:type" v="vegstrekning" />
	</node>
	<node lat="60.93329166771089" lon="10.060600002230766" id="-19750">
		<tag k="name" v="Gardsvevegen" />
		<tag k="ssr:date" v="2019-12-27" />
		<tag k="ssr:gruppe" v="veg" />
		<tag k="ssr:hovedgruppe" v="infrastruktur" />
		<tag k="ssr:stedsnr" v="725545" />
		<tag k="ssr:type" v="vegstrekning" />
	</node>
	<node lat="60.75122777632955" lon="9.819119451131744" id="-19751">
		<tag k="name" v="Tverrvassvegen" />
		<tag k="ssr:date" v="2019-12-27" />
		<tag k="ssr:gruppe" v="veg" />
		<tag k="ssr:hovedgruppe" v="infrastruktur" />
		<tag k="ssr:stedsnr" v="725671" />
		<tag k="ssr:type" v="vegstrekning" />
	</node>
=======
>>>>>>> e1d4bc35ff8a6074a6f2e91616a996b547c36f15
</osm>
