<?xml version="1.0" encoding="UTF-8"?>
<osm version="0.6" generator="osmapis">
	<node lat="60.8264388850584" lon="9.961852780489416" id="-45291">
		<tag k="old_name" v="Veståslivegen" />
		<tag k="ssr:date" v="2019-12-27" />
		<tag k="ssr:gruppe" v="veg" />
		<tag k="ssr:hovedgruppe" v="infrastruktur" />
		<tag k="ssr:stedsnr" v="58667" />
		<tag k="ssr:type" v="vegstrekning" />
	</node>
	<node lat="60.88805278049434" lon="10.13457221772122" id="-46320">
		<tag k="old_name" v="Kojevegen;Koievegen;Kåjevegen" />
		<tag k="ssr:date" v="2019-12-27" />
		<tag k="ssr:gruppe" v="veg" />
		<tag k="ssr:hovedgruppe" v="infrastruktur" />
		<tag k="ssr:stedsnr" v="966142" />
		<tag k="ssr:type" v="vegstrekning" />
	</node>
	<node lat="60.902802779829976" lon="10.015733328746506" id="-46752">
		<tag k="old_name" v="Domlivegen;Dumlivegen;Domlivegenvegen" />
		<tag k="ssr:date" v="2019-12-27" />
		<tag k="ssr:gruppe" v="veg" />
		<tag k="ssr:hovedgruppe" v="infrastruktur" />
		<tag k="ssr:stedsnr" v="178034" />
		<tag k="ssr:type" v="vegstrekning" />
	</node>
	<node lat="60.937030558637204" lon="9.96548333056666" id="-47419">
		<tag k="ssr:date" v="2019-12-27" />
		<tag k="ssr:gruppe" v="veg" />
		<tag k="ssr:hovedgruppe" v="infrastruktur" />
		<tag k="ssr:stedsnr" v="784795" />
		<tag k="ssr:type" v="vegstrekning" />
	</node>
</osm>
