<?xml version="1.0" encoding="UTF-8"?>
<osm version="0.6" generator="osmapis">
	<node lat="60.96681111514718" lon="9.783080562552737" id="-18058">
		<tag k="name" v="Øyangshalla" />
		<tag k="natural" v="slope" />
		<tag k="place" v="locality" />
		<tag k="ssr:date" v="2019-12-27" />
		<tag k="ssr:gruppe" v="skråninger" />
		<tag k="ssr:hovedgruppe" v="terreng" />
		<tag k="ssr:stedsnr" v="6910" />
		<tag k="ssr:type" v="li" />
	</node>
	<node lat="61.00261110990772" lon="9.974205549177043" id="-18059">
		<tag k="alt_name" v="Linnbær" />
		<tag k="name" v="Enger" />
		<tag k="place" v="farm" />
		<tag k="ssr:date" v="2019-12-27" />
		<tag k="ssr:gruppe" v="gardsbebyggelse" />
		<tag k="ssr:hovedgruppe" v="bebyggelse" />
		<tag k="ssr:stedsnr" v="7251" />
		<tag k="ssr:type" v="bruk" />
	</node>
	<node lat="61.026836108429514" lon="9.877402780084296" id="-18060">
		<tag k="alt_name" v="Smeddokken" />
		<tag k="name" v="Smeddokka" />
		<tag k="place" v="farm" />
		<tag k="ssr:date" v="2019-12-27" />
		<tag k="ssr:gruppe" v="gardsbebyggelse" />
		<tag k="ssr:hovedgruppe" v="bebyggelse" />
		<tag k="ssr:stedsnr" v="7320" />
		<tag k="ssr:type" v="bruk" />
	</node>
	<node lat="61.02911110749116" lon="9.859919437453321" id="-18061">
		<tag k="name" v="Bergli" />
		<tag k="place" v="farm" />
		<tag k="ssr:date" v="2019-12-27" />
		<tag k="ssr:gruppe" v="gardsbebyggelse" />
		<tag k="ssr:hovedgruppe" v="bebyggelse" />
		<tag k="ssr:stedsnr" v="7325" />
		<tag k="ssr:type" v="bruk" />
	</node>
	<node lat="61.00166993832259" lon="9.941859900491467" id="-18062">
		<tag k="fixme" v="consider place=hamlet" />
		<tag k="name" v="Fossum" />
		<tag k="place" v="farm" />
		<tag k="ssr:date" v="2019-12-27" />
		<tag k="ssr:gruppe" v="gardsbebyggelse" />
		<tag k="ssr:hovedgruppe" v="bebyggelse" />
		<tag k="ssr:stedsnr" v="7348" />
		<tag k="ssr:type" v="gard" />
	</node>
	<node lat="61.00861666737934" lon="9.78884444480009" id="-18063">
		<tag k="name" v="Kyrtjernet" />
		<tag k="natural" v="water" />
		<tag k="ssr:date" v="2019-12-27" />
		<tag k="ssr:gruppe" v="stilleståendeVann" />
		<tag k="ssr:hovedgruppe" v="ferskvann" />
		<tag k="ssr:stedsnr" v="7361" />
		<tag k="ssr:type" v="tjern" />
	</node>
	<node lat="61.022883337209144" lon="9.951808337834061" id="-18064">
		<tag k="name" v="Sørli" />
		<tag k="place" v="farm" />
		<tag k="ssr:date" v="2019-12-27" />
		<tag k="ssr:gruppe" v="gardsbebyggelse" />
		<tag k="ssr:hovedgruppe" v="bebyggelse" />
		<tag k="ssr:stedsnr" v="7364" />
		<tag k="ssr:type" v="bruk" />
	</node>
	<node lat="61.09950000257136" lon="9.876477782394119" id="-18065">
		<tag k="fixme" v="consider natural=peak for the most distinct mountains in the district" />
		<tag k="name" v="Svartkampen" />
		<tag k="natural" v="hill" />
		<tag k="place" v="locality" />
		<tag k="ssr:date" v="2019-12-27" />
		<tag k="ssr:gruppe" v="høyder" />
		<tag k="ssr:hovedgruppe" v="terreng" />
		<tag k="ssr:stedsnr" v="7647" />
		<tag k="ssr:type" v="ås" />
	</node>
	<node lat="61.092266670622635" lon="9.825305559388221" id="-18066">
		<tag k="name" v="Bjerttjernet" />
		<tag k="natural" v="water" />
		<tag k="ssr:date" v="2019-12-27" />
		<tag k="ssr:gruppe" v="stilleståendeVann" />
		<tag k="ssr:hovedgruppe" v="ferskvann" />
		<tag k="ssr:stedsnr" v="7654" />
		<tag k="ssr:type" v="tjern" />
	</node>
	<node lat="60.83849999649216" lon="9.776824991294067" id="-18067">
		<tag k="name" v="Øysætra" />
		<tag k="place" v="farm" />
		<tag k="ssr:date" v="2019-12-27" />
		<tag k="ssr:gruppe" v="gardsbebyggelse" />
		<tag k="ssr:hovedgruppe" v="bebyggelse" />
		<tag k="ssr:stedsnr" v="8044" />
		<tag k="ssr:type" v="bruk" />
	</node>
	<node lat="60.84640833671042" lon="9.924694444910461" id="-18068">
		<tag k="alt_name" v="Rusten" />
		<tag k="name" v="Rusta" />
		<tag k="place" v="farm" />
		<tag k="ssr:date" v="2019-12-27" />
		<tag k="ssr:gruppe" v="gardsbebyggelse" />
		<tag k="ssr:hovedgruppe" v="bebyggelse" />
		<tag k="ssr:stedsnr" v="8060" />
		<tag k="ssr:type" v="bruk" />
	</node>
	<node lat="60.84828889117734" lon="9.889397222832764" id="-18069">
		<tag k="name" v="Sirirud" />
		<tag k="place" v="farm" />
		<tag k="ssr:date" v="2019-12-27" />
		<tag k="ssr:gruppe" v="gardsbebyggelse" />
		<tag k="ssr:hovedgruppe" v="bebyggelse" />
		<tag k="ssr:stedsnr" v="8061" />
		<tag k="ssr:type" v="bruk" />
	</node>
	<node lat="60.91287222630873" lon="9.960105561916926" id="-18070">
		<tag k="alt_name" v="Nyvatnet, l;Nyvatn" />
		<tag k="name" v="Vesle Nyvatnet" />
		<tag k="natural" v="water" />
		<tag k="ssr:date" v="2019-12-27" />
		<tag k="ssr:gruppe" v="stilleståendeVann" />
		<tag k="ssr:hovedgruppe" v="ferskvann" />
		<tag k="ssr:stedsnr" v="8095" />
		<tag k="ssr:type" v="tjern" />
	</node>
	<node lat="60.887047222634116" lon="9.81030832918413" id="-18071">
		<tag k="fixme" v="multiple name tags, choose one and add the other to alt_name" />
		<tag k="historic" v="shieling" />
		<tag k="name" v="Holoa;Lortholoa;Holosætra" />
		<tag k="place" v="isolated_dwelling" />
		<tag k="ssr:date" v="2021-06-08" />
		<tag k="ssr:gruppe" v="gardsbebyggelse" />
		<tag k="ssr:hovedgruppe" v="bebyggelse" />
		<tag k="ssr:stedsnr" v="8123" />
		<tag k="ssr:type" v="seterStøl" />
	</node>
	<node lat="61.03644166402271" lon="9.851005546772713" id="-18072">
		<tag k="name" v="Svartbekken" />
		<tag k="ssr:date" v="2019-12-27" />
		<tag k="ssr:gruppe" v="rennendeVann" />
		<tag k="ssr:hovedgruppe" v="ferskvann" />
		<tag k="ssr:stedsnr" v="8355" />
		<tag k="ssr:type" v="bekk" />
		<tag k="waterway" v="stream" />
	</node>
	<node lat="61.039363892403856" lon="9.884986117055066" id="-18073">
		<tag k="historic" v="shieling" />
		<tag k="name" v="Nørdstelisætra" />
		<tag k="place" v="isolated_dwelling" />
		<tag k="ssr:date" v="2019-12-27" />
		<tag k="ssr:gruppe" v="gardsbebyggelse" />
		<tag k="ssr:hovedgruppe" v="bebyggelse" />
		<tag k="ssr:stedsnr" v="8358" />
		<tag k="ssr:type" v="seterStøl" />
	</node>
	<node lat="61.14451944233831" lon="9.750638884745706" id="-18074">
		<tag k="alt_name" v="Tobekktjern" />
		<tag k="name" v="Tobekktjernet" />
		<tag k="natural" v="water" />
		<tag k="ssr:date" v="2019-12-27" />
		<tag k="ssr:gruppe" v="stilleståendeVann" />
		<tag k="ssr:hovedgruppe" v="ferskvann" />
		<tag k="ssr:stedsnr" v="8779" />
		<tag k="ssr:type" v="tjern" />
	</node>
	<node lat="60.81360278143779" lon="9.881594444482111" id="-18075">
		<tag k="alt_name" v="Olalykkjhøgda" />
		<tag k="fixme" v="consider natural=peak for the most distinct mountains in the district" />
		<tag k="name" v="Olalykkja" />
		<tag k="natural" v="hill" />
		<tag k="place" v="locality" />
		<tag k="ssr:date" v="2019-12-27" />
		<tag k="ssr:gruppe" v="høyder" />
		<tag k="ssr:hovedgruppe" v="terreng" />
		<tag k="ssr:stedsnr" v="9202" />
		<tag k="ssr:type" v="ås" />
	</node>
	<node lat="60.811902778177824" lon="9.909816660145907" id="-18076">
		<tag k="alt_name" v="Gørrtjern" />
		<tag k="name" v="Gorrtjernet" />
		<tag k="natural" v="water" />
		<tag k="ssr:date" v="2019-12-27" />
		<tag k="ssr:gruppe" v="stilleståendeVann" />
		<tag k="ssr:hovedgruppe" v="ferskvann" />
		<tag k="ssr:stedsnr" v="9205" />
		<tag k="ssr:type" v="tjern" />
	</node>
	<node lat="60.807583331449614" lon="9.923127783224068" id="-18077">
		<tag k="alt_name" v="Nøss-stormyra" />
		<tag k="name" v="Nøsstormyra" />
		<tag k="natural" v="wetland" />
		<tag k="ssr:date" v="2019-12-27" />
		<tag k="ssr:gruppe" v="våtmark" />
		<tag k="ssr:hovedgruppe" v="markslag" />
		<tag k="ssr:stedsnr" v="9208" />
		<tag k="ssr:type" v="myr" />
	</node>
	<node lat="60.76750833583265" lon="9.906836109946696" id="-18078">
		<tag k="fixme" v="consider natural=peak for the most distinct mountains in the district" />
		<tag k="name" v="Ormhøgda" />
		<tag k="natural" v="hill" />
		<tag k="place" v="locality" />
		<tag k="ssr:date" v="2019-12-27" />
		<tag k="ssr:gruppe" v="høyder" />
		<tag k="ssr:hovedgruppe" v="terreng" />
		<tag k="ssr:stedsnr" v="9140" />
		<tag k="ssr:type" v="ås" />
	</node>
	<node lat="60.772574998603076" lon="9.847311110495706" id="-18079">
		<tag k="alt_name" v="Bjørkelivatnet, øvre" />
		<tag k="name" v="Øvre Bjørkelivatnet" />
		<tag k="natural" v="water" />
		<tag k="ssr:date" v="2019-12-27" />
		<tag k="ssr:gruppe" v="stilleståendeVann" />
		<tag k="ssr:hovedgruppe" v="ferskvann" />
		<tag k="ssr:stedsnr" v="9145" />
		<tag k="ssr:type" v="tjern" />
	</node>
	<node lat="60.96414721823667" lon="10.065449997368388" id="-18080">
		<tag k="name" v="Sæter" />
		<tag k="place" v="farm" />
		<tag k="ssr:date" v="2019-12-27" />
		<tag k="ssr:gruppe" v="gardsbebyggelse" />
		<tag k="ssr:hovedgruppe" v="bebyggelse" />
		<tag k="ssr:stedsnr" v="9326" />
		<tag k="ssr:type" v="bruk" />
	</node>
	<node lat="60.964971464677305" lon="10.016844782134774" id="-18081">
		<tag k="fixme" v="consider place=hamlet" />
		<tag k="name" v="Ullsak" />
		<tag k="old_name" v="Ullensakeer" />
		<tag k="place" v="farm" />
		<tag k="ssr:date" v="2019-12-27" />
		<tag k="ssr:gruppe" v="gardsbebyggelse" />
		<tag k="ssr:hovedgruppe" v="bebyggelse" />
		<tag k="ssr:stedsnr" v="9330" />
		<tag k="ssr:type" v="gard" />
	</node>
	<node lat="60.97007500193423" lon="10.185874999429494" id="-18082">
		<tag k="name" v="Bjørnmyrpullen" />
		<tag k="natural" v="water" />
		<tag k="ssr:date" v="2019-12-27" />
		<tag k="ssr:gruppe" v="stilleståendeVann" />
		<tag k="ssr:hovedgruppe" v="ferskvann" />
		<tag k="ssr:stedsnr" v="9336" />
		<tag k="ssr:type" v="tjern" />
	</node>
	<node lat="60.81780832881684" lon="10.058800008259453" id="-18083">
		<tag k="name" v="Sjåheim" />
		<tag k="place" v="farm" />
		<tag k="ssr:date" v="2019-12-27" />
		<tag k="ssr:gruppe" v="gardsbebyggelse" />
		<tag k="ssr:hovedgruppe" v="bebyggelse" />
		<tag k="ssr:stedsnr" v="9604" />
		<tag k="ssr:type" v="bruk" />
	</node>
	<node lat="60.81603055428398" lon="10.090324994893551" id="-18084">
		<tag k="alt_name" v="Sagstuen" />
		<tag k="name" v="Sagstugua" />
		<tag k="place" v="farm" />
		<tag k="ssr:date" v="2019-12-27" />
		<tag k="ssr:gruppe" v="gardsbebyggelse" />
		<tag k="ssr:hovedgruppe" v="bebyggelse" />
		<tag k="ssr:stedsnr" v="9605" />
		<tag k="ssr:type" v="bruk" />
	</node>
	<node lat="60.826491668527495" lon="10.057816670157576" id="-18085">
		<tag k="alt_name" v="Åmotstuen" />
		<tag k="name" v="Åmotsstugua" />
		<tag k="place" v="farm" />
		<tag k="ssr:date" v="2019-12-27" />
		<tag k="ssr:gruppe" v="gardsbebyggelse" />
		<tag k="ssr:hovedgruppe" v="bebyggelse" />
		<tag k="ssr:stedsnr" v="9613" />
		<tag k="ssr:type" v="bruk" />
	</node>
	<node lat="60.82805833058678" lon="10.03864999188869" id="-18086">
		<tag k="alt_name" v="Nordre Tomte" />
		<tag k="name" v="Tomte" />
		<tag k="place" v="farm" />
		<tag k="ssr:date" v="2019-12-27" />
		<tag k="ssr:gruppe" v="gardsbebyggelse" />
		<tag k="ssr:hovedgruppe" v="bebyggelse" />
		<tag k="ssr:stedsnr" v="9614" />
		<tag k="ssr:type" v="bruk" />
	</node>
	<node lat="60.88134999918506" lon="10.151683339587454" id="-18087">
		<tag k="alt_name" v="Mårsjøhøgda" />
		<tag k="fixme" v="consider natural=peak for the most distinct mountains in the district" />
		<tag k="name" v="Mårsjøåsen" />
		<tag k="natural" v="hill" />
		<tag k="place" v="locality" />
		<tag k="ssr:date" v="2019-12-27" />
		<tag k="ssr:gruppe" v="høyder" />
		<tag k="ssr:hovedgruppe" v="terreng" />
		<tag k="ssr:stedsnr" v="9387" />
		<tag k="ssr:type" v="ås" />
	</node>
	<node lat="60.838391663489006" lon="10.12784445052329" id="-18088">
		<tag k="alt_name" v="Engetjern" />
		<tag k="name" v="Engetjernet" />
		<tag k="natural" v="water" />
		<tag k="ssr:date" v="2019-12-27" />
		<tag k="ssr:gruppe" v="stilleståendeVann" />
		<tag k="ssr:hovedgruppe" v="ferskvann" />
		<tag k="ssr:stedsnr" v="9508" />
		<tag k="ssr:type" v="tjern" />
	</node>
	<node lat="60.83435000321796" lon="10.190744443887743" id="-18089">
		<tag k="alt_name" v="Oksetjern" />
		<tag k="name" v="Uksetjernet" />
		<tag k="natural" v="water" />
		<tag k="ssr:date" v="2019-12-27" />
		<tag k="ssr:gruppe" v="stilleståendeVann" />
		<tag k="ssr:hovedgruppe" v="ferskvann" />
		<tag k="ssr:stedsnr" v="9511" />
		<tag k="ssr:type" v="tjern" />
	</node>
	<node lat="60.84608055484699" lon="10.105680552410481" id="-18090">
		<tag k="alt_name" v="Hagen" />
		<tag k="name" v="Rødbergshågån" />
		<tag k="place" v="farm" />
		<tag k="ssr:date" v="2019-12-27" />
		<tag k="ssr:gruppe" v="gardsbebyggelse" />
		<tag k="ssr:hovedgruppe" v="bebyggelse" />
		<tag k="ssr:stedsnr" v="9519" />
		<tag k="ssr:type" v="bruk" />
	</node>
	<node lat="60.82349953123254" lon="10.014112271536511" id="-18091">
		<tag k="alt_name" v="Sverdslien" />
		<tag k="fixme" v="consider place=hamlet" />
		<tag k="name" v="Sverslia" />
		<tag k="place" v="farm" />
		<tag k="ssr:date" v="2019-12-27" />
		<tag k="ssr:gruppe" v="gardsbebyggelse" />
		<tag k="ssr:hovedgruppe" v="bebyggelse" />
		<tag k="ssr:stedsnr" v="9600" />
		<tag k="ssr:type" v="gard" />
	</node>
	<node lat="60.92248610701972" lon="9.91935278575563" id="-18092">
		<tag k="name" v="Hognsætermyra" />
		<tag k="natural" v="wetland" />
		<tag k="ssr:date" v="2019-12-27" />
		<tag k="ssr:gruppe" v="våtmark" />
		<tag k="ssr:hovedgruppe" v="markslag" />
		<tag k="ssr:stedsnr" v="9886" />
		<tag k="ssr:type" v="myr" />
	</node>
	<node lat="60.95878888749108" lon="9.850744436099447" id="-18093">
		<tag k="alt_name" v="Skjefta" />
		<tag k="name" v="Skofta" />
		<tag k="natural" v="water" />
		<tag k="ssr:date" v="2019-12-27" />
		<tag k="ssr:gruppe" v="stilleståendeVann" />
		<tag k="ssr:hovedgruppe" v="ferskvann" />
		<tag k="ssr:stedsnr" v="9893" />
		<tag k="ssr:type" v="tjern" />
	</node>
	<node lat="60.959058332304366" lon="9.892963883732364" id="-18094">
		<tag k="alt_name" v="Venhaug" />
		<tag k="fixme" v="consider natural=peak for the most distinct mountains in the district" />
		<tag k="name" v="Nordre Venhaugen" />
		<tag k="natural" v="hill" />
		<tag k="place" v="locality" />
		<tag k="ssr:date" v="2019-12-27" />
		<tag k="ssr:gruppe" v="høyder" />
		<tag k="ssr:hovedgruppe" v="terreng" />
		<tag k="ssr:stedsnr" v="9894" />
		<tag k="ssr:type" v="ås" />
	</node>
	<node lat="60.9521250003751" lon="9.919397218488188" id="-18095">
		<tag k="fixme" v="consider natural=peak for the most distinct mountains in the district" />
		<tag k="name" v="Kvasshaugen" />
		<tag k="natural" v="hill" />
		<tag k="place" v="locality" />
		<tag k="ssr:date" v="2019-12-27" />
		<tag k="ssr:gruppe" v="høyder" />
		<tag k="ssr:hovedgruppe" v="terreng" />
		<tag k="ssr:stedsnr" v="9896" />
		<tag k="ssr:type" v="ås" />
	</node>
	<node lat="60.955147222017295" lon="9.957022226504531" id="-18096">
		<tag k="historic" v="shieling" />
		<tag k="name" v="Fjellsrud" />
		<tag k="place" v="isolated_dwelling" />
		<tag k="ssr:date" v="2019-12-27" />
		<tag k="ssr:gruppe" v="gardsbebyggelse" />
		<tag k="ssr:hovedgruppe" v="bebyggelse" />
		<tag k="ssr:stedsnr" v="9900" />
		<tag k="ssr:type" v="seterStøl" />
	</node>
	<node lat="60.975480556333494" lon="9.95389999837979" id="-18097">
		<tag k="alt_name" v="Nørstvatn" />
		<tag k="name" v="Nørdstvatn" />
		<tag k="natural" v="water" />
		<tag k="ssr:date" v="2019-12-27" />
		<tag k="ssr:gruppe" v="stilleståendeVann" />
		<tag k="ssr:hovedgruppe" v="ferskvann" />
		<tag k="ssr:stedsnr" v="9936" />
		<tag k="ssr:type" v="tjern" />
	</node>
	<node lat="60.98863610917096" lon="9.912022226962181" id="-18098">
		<tag k="name" v="Solvang" />
		<tag k="place" v="farm" />
		<tag k="ssr:date" v="2019-12-27" />
		<tag k="ssr:gruppe" v="gardsbebyggelse" />
		<tag k="ssr:hovedgruppe" v="bebyggelse" />
		<tag k="ssr:stedsnr" v="9986" />
		<tag k="ssr:type" v="bruk" />
	</node>
	<node lat="60.96920277760899" lon="9.892636110037072" id="-18099">
		<tag k="historic" v="shieling" />
		<tag k="name" v="Gjerddalssætra" />
		<tag k="place" v="isolated_dwelling" />
		<tag k="ssr:date" v="2019-12-27" />
		<tag k="ssr:gruppe" v="gardsbebyggelse" />
		<tag k="ssr:hovedgruppe" v="bebyggelse" />
		<tag k="ssr:stedsnr" v="9994" />
		<tag k="ssr:type" v="seterStøl" />
	</node>
	<node lat="60.970905556679234" lon="9.89373889305099" id="-18100">
		<tag k="alt_name" v="Hodsætra" />
		<tag k="historic" v="shieling" />
		<tag k="name" v="Vestli" />
		<tag k="place" v="isolated_dwelling" />
		<tag k="ssr:date" v="2020-03-03" />
		<tag k="ssr:gruppe" v="gardsbebyggelse" />
		<tag k="ssr:hovedgruppe" v="bebyggelse" />
		<tag k="ssr:stedsnr" v="9995" />
		<tag k="ssr:type" v="seterStøl" />
	</node>
	<node lat="60.961588892561245" lon="9.923158325538175" id="-18101">
		<tag k="fixme" v="consider natural=peak for the most distinct mountains in the district" />
		<tag k="name" v="Søre Venhaugen" />
		<tag k="natural" v="hill" />
		<tag k="place" v="locality" />
		<tag k="ssr:date" v="2019-12-27" />
		<tag k="ssr:gruppe" v="høyder" />
		<tag k="ssr:hovedgruppe" v="terreng" />
		<tag k="ssr:stedsnr" v="236273" />
		<tag k="ssr:type" v="ås" />
	</node>
	<node lat="60.96824722658451" lon="9.922244438493658" id="-18102">
		<tag k="name" v="Myrdal" />
		<tag k="place" v="locality" />
		<tag k="ssr:date" v="2019-12-27" />
		<tag k="ssr:gruppe" v="gardsbebyggelse" />
		<tag k="ssr:hovedgruppe" v="bebyggelse" />
		<tag k="ssr:stedsnr" v="236275" />
		<tag k="ssr:type" v="byggForJordbrukFiskeOgFangst" />
	</node>
	<node lat="60.95787500142623" lon="9.791372230878048" id="-18107">
		<tag k="name" v="Svartevassdammen" />
		<tag k="ssr:date" v="2019-12-27" />
		<tag k="ssr:gruppe" v="stilleståendeVann" />
		<tag k="ssr:hovedgruppe" v="ferskvann" />
		<tag k="ssr:stedsnr" v="236918" />
		<tag k="ssr:type" v="dam" />
		<tag k="waterway" v="dam" />
	</node>
	<node lat="60.984613892266275" lon="9.838461115466796" id="-18108">
		<tag k="name" v="Breibekken" />
		<tag k="ssr:date" v="2019-12-27" />
		<tag k="ssr:gruppe" v="rennendeVann" />
		<tag k="ssr:hovedgruppe" v="ferskvann" />
		<tag k="ssr:stedsnr" v="39515" />
		<tag k="ssr:type" v="bekk" />
		<tag k="waterway" v="stream" />
	</node>
	<node lat="60.81046944518673" lon="10.09610832445422" id="-18109">
		<tag k="name" v="Bergli" />
		<tag k="place" v="farm" />
		<tag k="ssr:date" v="2019-12-27" />
		<tag k="ssr:gruppe" v="gardsbebyggelse" />
		<tag k="ssr:hovedgruppe" v="bebyggelse" />
		<tag k="ssr:stedsnr" v="39520" />
		<tag k="ssr:type" v="bruk" />
	</node>
	<node lat="60.796133332343686" lon="10.066938888964492" id="-18110">
		<tag k="name" v="Vintermyrene" />
		<tag k="natural" v="wetland" />
		<tag k="ssr:date" v="2019-12-27" />
		<tag k="ssr:gruppe" v="våtmark" />
		<tag k="ssr:hovedgruppe" v="markslag" />
		<tag k="ssr:stedsnr" v="39604" />
		<tag k="ssr:type" v="myr" />
	</node>
	<node lat="60.9379555568015" lon="9.805641666983592" id="-18111">
		<tag k="name" v="Dala" />
		<tag k="natural" v="valley" />
		<tag k="place" v="locality" />
		<tag k="ssr:date" v="2019-12-27" />
		<tag k="ssr:gruppe" v="senkninger" />
		<tag k="ssr:hovedgruppe" v="terreng" />
		<tag k="ssr:stedsnr" v="236934" />
		<tag k="ssr:type" v="dal" />
	</node>
	<node lat="60.885338886452715" lon="10.163383329932426" id="-18112">
		<tag k="name" v="Ytterlia" />
		<tag k="natural" v="slope" />
		<tag k="place" v="locality" />
		<tag k="ssr:date" v="2019-12-27" />
		<tag k="ssr:gruppe" v="skråninger" />
		<tag k="ssr:hovedgruppe" v="terreng" />
		<tag k="ssr:stedsnr" v="237217" />
		<tag k="ssr:type" v="li" />
	</node>
	<node lat="60.89780278060645" lon="10.013122218116576" id="-18113">
		<tag k="name" v="Dumsethøgda" />
		<tag k="natural" v="hill" />
		<tag k="place" v="locality" />
		<tag k="ssr:date" v="2019-12-27" />
		<tag k="ssr:gruppe" v="høyder" />
		<tag k="ssr:hovedgruppe" v="terreng" />
		<tag k="ssr:stedsnr" v="238023" />
		<tag k="ssr:type" v="høyde" />
	</node>
	<node lat="61.024816662407346" lon="10.043852774946593" id="-18114">
		<tag k="name" v="Djupbekken" />
		<tag k="ssr:date" v="2019-12-27" />
		<tag k="ssr:gruppe" v="rennendeVann" />
		<tag k="ssr:hovedgruppe" v="ferskvann" />
		<tag k="ssr:stedsnr" v="238060" />
		<tag k="ssr:type" v="bekk" />
		<tag k="waterway" v="stream" />
	</node>
	<node lat="60.95799444481923" lon="10.0133555514162" id="-18115">
		<tag k="name" v="Løken" />
		<tag k="ssr:date" v="2019-12-27" />
		<tag k="ssr:gruppe" v="rennendeVann" />
		<tag k="ssr:hovedgruppe" v="ferskvann" />
		<tag k="ssr:stedsnr" v="238247" />
		<tag k="ssr:type" v="bekk" />
		<tag k="waterway" v="stream" />
	</node>
	<node lat="60.790130560054436" lon="10.168691662785205" id="-18116">
		<tag k="name" v="Høytomt" />
		<tag k="old_name" v="Høitomt" />
		<tag k="place" v="farm" />
		<tag k="ssr:date" v="2019-12-27" />
		<tag k="ssr:gruppe" v="gardsbebyggelse" />
		<tag k="ssr:hovedgruppe" v="bebyggelse" />
		<tag k="ssr:stedsnr" v="238268" />
		<tag k="ssr:type" v="bruk" />
	</node>
	<node lat="60.9352944416164" lon="10.146919442996879" id="-18117">
		<tag k="name" v="Parthaugen" />
		<tag k="place" v="farm" />
		<tag k="ssr:date" v="2019-12-27" />
		<tag k="ssr:gruppe" v="gardsbebyggelse" />
		<tag k="ssr:hovedgruppe" v="bebyggelse" />
		<tag k="ssr:stedsnr" v="238546" />
		<tag k="ssr:type" v="bruk" />
	</node>
	<node lat="60.99208055258617" lon="9.95145834223893" id="-18118">
		<tag k="name" v="Gjerdåmot" />
		<tag k="natural" v="cape" />
		<tag k="ssr:date" v="2019-12-27" />
		<tag k="ssr:gruppe" v="rennendeVann" />
		<tag k="ssr:hovedgruppe" v="ferskvann" />
		<tag k="ssr:stedsnr" v="238741" />
		<tag k="ssr:type" v="nesVedElver" />
	</node>
	<node lat="61.06088888856576" lon="9.960616668288246" id="-18119">
		<tag k="name" v="Kristenhaugen" />
		<tag k="place" v="locality" />
		<tag k="ssr:date" v="2019-12-27" />
		<tag k="ssr:gruppe" v="vegetasjon" />
		<tag k="ssr:hovedgruppe" v="markslag" />
		<tag k="ssr:stedsnr" v="238756" />
		<tag k="ssr:type" v="skog" />
	</node>
	<node lat="60.850854225063756" lon="9.939817454877955" id="-18120">
		<tag k="fixme" v="consider place=hamlet" />
		<tag k="name" v="Dårud" />
		<tag k="place" v="farm" />
		<tag k="ssr:date" v="2019-12-27" />
		<tag k="ssr:gruppe" v="gardsbebyggelse" />
		<tag k="ssr:hovedgruppe" v="bebyggelse" />
		<tag k="ssr:stedsnr" v="238861" />
		<tag k="ssr:type" v="gard" />
	</node>
	<node lat="60.836699995677726" lon="10.214894446345141" id="-18121">
		<tag k="name" v="Skinnerudelva" />
		<tag k="ssr:date" v="2019-12-27" />
		<tag k="ssr:gruppe" v="rennendeVann" />
		<tag k="ssr:hovedgruppe" v="ferskvann" />
		<tag k="ssr:stedsnr" v="239000" />
		<tag k="ssr:type" v="elv" />
		<tag k="waterway" v="river" />
	</node>
	<node lat="60.96282777656327" lon="9.951674999302378" id="-18122">
		<tag k="name" v="Sollibakkene" />
		<tag k="natural" v="slope" />
		<tag k="place" v="locality" />
		<tag k="ssr:date" v="2019-12-27" />
		<tag k="ssr:gruppe" v="skråninger" />
		<tag k="ssr:hovedgruppe" v="terreng" />
		<tag k="ssr:stedsnr" v="238957" />
		<tag k="ssr:type" v="li" />
	</node>
	<node lat="60.849630557769096" lon="9.99659721413539" id="-18123">
		<tag k="name" v="Nedre Sogn" />
		<tag k="place" v="farm" />
		<tag k="ssr:date" v="2019-12-27" />
		<tag k="ssr:gruppe" v="gardsbebyggelse" />
		<tag k="ssr:hovedgruppe" v="bebyggelse" />
		<tag k="ssr:stedsnr" v="239048" />
		<tag k="ssr:type" v="bruk" />
	</node>
	<node lat="61.112180972264" lon="9.748052311533316" id="-18124">
		<tag k="name" v="Nedre Lenningsvatnet" />
		<tag k="natural" v="water" />
		<tag k="old_name" v="Lenningsv, ned" />
		<tag k="ssr:date" v="2019-12-27" />
		<tag k="ssr:gruppe" v="stilleståendeVann" />
		<tag k="ssr:hovedgruppe" v="ferskvann" />
		<tag k="ssr:stedsnr" v="239215" />
		<tag k="ssr:type" v="vann" />
		<tag k="water" v="lake" />
	</node>
	<node lat="61.10908888472273" lon="9.728763883844845" id="-18125">
		<tag k="name" v="Øvre Lenningsvatnet" />
		<tag k="natural" v="water" />
		<tag k="old_name" v="Lenningsv, øv" />
		<tag k="ssr:date" v="2019-12-27" />
		<tag k="ssr:gruppe" v="stilleståendeVann" />
		<tag k="ssr:hovedgruppe" v="ferskvann" />
		<tag k="ssr:stedsnr" v="239216" />
		<tag k="ssr:type" v="vann" />
		<tag k="water" v="lake" />
	</node>
	<node lat="61.00399999754282" lon="9.963261102506701" id="-18128">
		<tag k="amenity" v="school" />
		<tag k="name" v="Granvang" />
		<tag k="ssr:date" v="2019-12-27" />
		<tag k="ssr:gruppe" v="institusjoner" />
		<tag k="ssr:hovedgruppe" v="bebyggelse" />
		<tag k="ssr:stedsnr" v="54121" />
		<tag k="ssr:type" v="skole" />
	</node>
	<node lat="61.00047500421369" lon="10.175822218349152" id="-18131">
		<tag k="name" v="Steinpullen" />
		<tag k="natural" v="water" />
		<tag k="ssr:date" v="2019-12-27" />
		<tag k="ssr:gruppe" v="stilleståendeVann" />
		<tag k="ssr:hovedgruppe" v="ferskvann" />
		<tag k="ssr:stedsnr" v="55588" />
		<tag k="ssr:type" v="tjern" />
	</node>
	<node lat="60.792936113352596" lon="9.958497228667529" id="-18132">
		<tag k="name" v="Nordre Skjelnetjern" />
		<tag k="natural" v="water" />
		<tag k="ssr:date" v="2019-12-27" />
		<tag k="ssr:gruppe" v="stilleståendeVann" />
		<tag k="ssr:hovedgruppe" v="ferskvann" />
		<tag k="ssr:stedsnr" v="56503" />
		<tag k="ssr:type" v="tjern" />
	</node>
	<node lat="60.87160583707187" lon="10.214267891136936" id="-18133">
		<tag k="historic" v="shieling" />
		<tag k="name" v="Nedre Skjaksætra" />
		<tag k="place" v="isolated_dwelling" />
		<tag k="ssr:date" v="2019-12-27" />
		<tag k="ssr:gruppe" v="gardsbebyggelse" />
		<tag k="ssr:hovedgruppe" v="bebyggelse" />
		<tag k="ssr:stedsnr" v="56508" />
		<tag k="ssr:type" v="seterStøl" />
	</node>
	<node lat="60.789933330934026" lon="9.971449991996405" id="-18134">
		<tag k="name" v="Akksjøbrenna" />
		<tag k="place" v="locality" />
		<tag k="ssr:date" v="2019-12-27" />
		<tag k="ssr:gruppe" v="terrengdetaljer" />
		<tag k="ssr:hovedgruppe" v="terreng" />
		<tag k="ssr:stedsnr" v="56413" />
		<tag k="ssr:type" v="annenTerrengdetalj" />
	</node>
	<node lat="60.997444447793086" lon="10.0886805507643" id="-18135">
		<tag k="name" v="Snurubakk" />
		<tag k="place" v="hamlet" />
		<tag k="ssr:date" v="2019-12-27" />
		<tag k="ssr:gruppe" v="bebyggelsesområder" />
		<tag k="ssr:hovedgruppe" v="bebyggelse" />
		<tag k="ssr:stedsnr" v="56424" />
		<tag k="ssr:type" v="grend" />
	</node>
	<node lat="60.837486113789666" lon="10.026869447763689" id="-18136">
		<tag k="alt_name" v="Søndre Kolterud" />
		<tag k="name" v="Søre Kolterud" />
		<tag k="place" v="farm" />
		<tag k="ssr:date" v="2019-12-27" />
		<tag k="ssr:gruppe" v="gardsbebyggelse" />
		<tag k="ssr:hovedgruppe" v="bebyggelse" />
		<tag k="ssr:stedsnr" v="240054" />
		<tag k="ssr:type" v="bruk" />
	</node>
	<node lat="60.95122500047396" lon="10.1602694466119" id="-18137">
		<tag k="name" v="Båtberget" />
		<tag k="natural" v="hill" />
		<tag k="place" v="locality" />
		<tag k="ssr:date" v="2019-12-27" />
		<tag k="ssr:gruppe" v="høyder" />
		<tag k="ssr:hovedgruppe" v="terreng" />
		<tag k="ssr:stedsnr" v="56582" />
		<tag k="ssr:type" v="haug" />
	</node>
	<node lat="60.936919446182884" lon="10.161519444874283" id="-18138">
		<tag k="name" v="Myra" />
		<tag k="place" v="farm" />
		<tag k="ssr:date" v="2019-12-27" />
		<tag k="ssr:gruppe" v="gardsbebyggelse" />
		<tag k="ssr:hovedgruppe" v="bebyggelse" />
		<tag k="ssr:stedsnr" v="56585" />
		<tag k="ssr:type" v="bruk" />
	</node>
	<node lat="60.76077500312348" lon="9.91987778138773" id="-18139">
		<tag k="name" v="Rennelshaugen" />
		<tag k="natural" v="hill" />
		<tag k="place" v="locality" />
		<tag k="ssr:date" v="2019-12-27" />
		<tag k="ssr:gruppe" v="høyder" />
		<tag k="ssr:hovedgruppe" v="terreng" />
		<tag k="ssr:stedsnr" v="57481" />
		<tag k="ssr:type" v="haug" />
	</node>
	<node lat="60.90916389031968" lon="10.11601665931273" id="-18140">
		<tag k="name" v="Etarbekken" />
		<tag k="ssr:date" v="2019-12-27" />
		<tag k="ssr:gruppe" v="rennendeVann" />
		<tag k="ssr:hovedgruppe" v="ferskvann" />
		<tag k="ssr:stedsnr" v="240140" />
		<tag k="ssr:type" v="bekk" />
		<tag k="waterway" v="stream" />
	</node>
	<node lat="60.82447777973422" lon="10.098244451770581" id="-18141">
		<tag k="name" v="Vestheim" />
		<tag k="place" v="isolated_dwelling" />
		<tag k="ssr:date" v="2019-12-27" />
		<tag k="ssr:gruppe" v="bolighus" />
		<tag k="ssr:hovedgruppe" v="bebyggelse" />
		<tag k="ssr:stedsnr" v="240149" />
		<tag k="ssr:type" v="eneboligMindreBoligbygg" />
	</node>
	<node lat="60.81955555391985" lon="9.889666670460027" id="-18143">
		<tag k="name" v="Nysvelia" />
		<tag k="natural" v="slope" />
		<tag k="place" v="locality" />
		<tag k="ssr:date" v="2019-12-27" />
		<tag k="ssr:gruppe" v="skråninger" />
		<tag k="ssr:hovedgruppe" v="terreng" />
		<tag k="ssr:stedsnr" v="240152" />
		<tag k="ssr:type" v="li" />
	</node>
	<node lat="60.80650000319839" lon="10.023616657646986" id="-18144">
		<tag k="name" v="Smaltjernsbekken" />
		<tag k="ssr:date" v="2019-12-27" />
		<tag k="ssr:gruppe" v="rennendeVann" />
		<tag k="ssr:hovedgruppe" v="ferskvann" />
		<tag k="ssr:stedsnr" v="58212" />
		<tag k="ssr:type" v="bekk" />
		<tag k="waterway" v="stream" />
	</node>
	<node lat="60.84693610707701" lon="10.081605556177399" id="-18145">
		<tag k="alt_name" v="Søndre Gårder" />
		<tag k="name" v="Søre Gårder" />
		<tag k="place" v="farm" />
		<tag k="ssr:date" v="2019-12-27" />
		<tag k="ssr:gruppe" v="gardsbebyggelse" />
		<tag k="ssr:hovedgruppe" v="bebyggelse" />
		<tag k="ssr:stedsnr" v="240017" />
		<tag k="ssr:type" v="bruk" />
	</node>
	<node lat="60.7914333345962" lon="9.860761110422835" id="-18146">
		<tag k="name" v="Ekornlia" />
		<tag k="natural" v="slope" />
		<tag k="place" v="locality" />
		<tag k="ssr:date" v="2019-12-27" />
		<tag k="ssr:gruppe" v="skråninger" />
		<tag k="ssr:hovedgruppe" v="terreng" />
		<tag k="ssr:stedsnr" v="58323" />
		<tag k="ssr:type" v="li" />
	</node>
	<node lat="61.1396194474287" lon="9.82782222245546" id="-18148">
		<tag k="name" v="Maribekken" />
		<tag k="ssr:date" v="2019-12-27" />
		<tag k="ssr:gruppe" v="rennendeVann" />
		<tag k="ssr:hovedgruppe" v="ferskvann" />
		<tag k="ssr:stedsnr" v="58645" />
		<tag k="ssr:type" v="bekk" />
		<tag k="waterway" v="stream" />
	</node>
	<node lat="60.965327775657464" lon="10.087525006882862" id="-18149">
		<tag k="name" v="Røstebekken" />
		<tag k="ssr:date" v="2019-12-27" />
		<tag k="ssr:gruppe" v="rennendeVann" />
		<tag k="ssr:hovedgruppe" v="ferskvann" />
		<tag k="ssr:stedsnr" v="58572" />
		<tag k="ssr:type" v="bekk" />
		<tag k="waterway" v="stream" />
	</node>
	<node lat="61.133580557787305" lon="9.956824998012053" id="-18150">
		<tag k="name" v="Storlia" />
		<tag k="natural" v="slope" />
		<tag k="place" v="locality" />
		<tag k="ssr:date" v="2019-12-27" />
		<tag k="ssr:gruppe" v="skråninger" />
		<tag k="ssr:hovedgruppe" v="terreng" />
		<tag k="ssr:stedsnr" v="58702" />
		<tag k="ssr:type" v="li" />
	</node>
	<node lat="60.86170555521992" lon="10.049886106436063" id="-18151">
		<tag k="name" v="Eng" />
		<tag k="place" v="farm" />
		<tag k="ssr:date" v="2019-12-27" />
		<tag k="ssr:gruppe" v="gardsbebyggelse" />
		<tag k="ssr:hovedgruppe" v="bebyggelse" />
		<tag k="ssr:stedsnr" v="240342" />
		<tag k="ssr:type" v="bruk" />
	</node>
	<node lat="60.85247499712368" lon="9.872783341928475" id="-18152">
		<tag k="name" v="Leppa" />
		<tag k="ssr:date" v="2019-12-27" />
		<tag k="ssr:gruppe" v="rennendeVann" />
		<tag k="ssr:hovedgruppe" v="ferskvann" />
		<tag k="ssr:stedsnr" v="58820" />
		<tag k="ssr:type" v="elv" />
		<tag k="waterway" v="river" />
	</node>
	<node lat="60.761697221189756" lon="10.053461107099785" id="-18153">
		<tag k="name" v="Furumyra" />
		<tag k="natural" v="wetland" />
		<tag k="ssr:date" v="2019-12-27" />
		<tag k="ssr:gruppe" v="våtmark" />
		<tag k="ssr:hovedgruppe" v="markslag" />
		<tag k="ssr:stedsnr" v="240359" />
		<tag k="ssr:type" v="myr" />
	</node>
	<node lat="60.885225003596304" lon="10.03910555473286" id="-18155">
		<tag k="name" v="Skomdalen" />
		<tag k="place" v="isolated_dwelling" />
		<tag k="ssr:date" v="2019-12-27" />
		<tag k="ssr:gruppe" v="bolighus" />
		<tag k="ssr:hovedgruppe" v="bebyggelse" />
		<tag k="ssr:stedsnr" v="240453" />
		<tag k="ssr:type" v="fritidsbolig" />
	</node>
	<node lat="60.87137221899953" lon="10.058233331964416" id="-18156">
		<tag k="name" v="Fjerdingsbekken" />
		<tag k="ssr:date" v="2019-12-27" />
		<tag k="ssr:gruppe" v="rennendeVann" />
		<tag k="ssr:hovedgruppe" v="ferskvann" />
		<tag k="ssr:stedsnr" v="240464" />
		<tag k="ssr:type" v="bekk" />
		<tag k="waterway" v="stream" />
	</node>
	<node lat="61.03040833096468" lon="10.059047221381567" id="-18157">
		<tag k="fixme" v="consider boundary=protected_area and relevant protect_class if not nature reserve" />
		<tag k="leisure" v="nature_reserve" />
		<tag k="name" v="Oddelia naturreservat" />
		<tag k="ssr:date" v="2021-06-08" />
		<tag k="ssr:gruppe" v="verne-OgBruksområder" />
		<tag k="ssr:hovedgruppe" v="offentligAdministrasjon" />
		<tag k="ssr:stedsnr" v="59490" />
		<tag k="ssr:type" v="verneområde" />
	</node>
	<node lat="60.936413889898034" lon="10.035366674788197" id="-18158">
		<tag k="amenity" v="place_of_worship" />
		<tag k="fixme" v="specify religion=*, denomination=*, building=* etc" />
		<tag k="name" v="Vest-Torpa bedehus" />
		<tag k="ssr:date" v="2019-12-27" />
		<tag k="ssr:gruppe" v="kulturinstitusjoner" />
		<tag k="ssr:hovedgruppe" v="kultur" />
		<tag k="ssr:stedsnr" v="240626" />
		<tag k="ssr:type" v="annenBygningForReligionsutøvelse" />
	</node>
	<node lat="60.8282138926799" lon="9.923799994916937" id="-18159">
		<tag k="name" v="Nordbysvea" />
		<tag k="place" v="locality" />
		<tag k="ssr:date" v="2019-12-27" />
		<tag k="ssr:gruppe" v="gardsbebyggelse" />
		<tag k="ssr:hovedgruppe" v="bebyggelse" />
		<tag k="ssr:stedsnr" v="240687" />
		<tag k="ssr:type" v="eiendom" />
	</node>
	<node lat="61.11429166926252" lon="9.892777781035601" id="-18160">
		<tag k="name" v="Prestpullen" />
		<tag k="natural" v="water" />
		<tag k="ssr:date" v="2019-12-27" />
		<tag k="ssr:gruppe" v="stilleståendeVann" />
		<tag k="ssr:hovedgruppe" v="ferskvann" />
		<tag k="ssr:stedsnr" v="240694" />
		<tag k="ssr:type" v="tjern" />
	</node>
	<node lat="61.121572220608485" lon="9.921177784061996" id="-18161">
		<tag k="name" v="Fiskeskaret" />
		<tag k="natural" v="valley" />
		<tag k="place" v="locality" />
		<tag k="ssr:date" v="2019-12-27" />
		<tag k="ssr:gruppe" v="senkninger" />
		<tag k="ssr:hovedgruppe" v="terreng" />
		<tag k="ssr:stedsnr" v="240697" />
		<tag k="ssr:type" v="skar" />
	</node>
	<node lat="60.829708334984325" lon="9.945288896747218" id="-18162">
		<tag k="name" v="Bergli" />
		<tag k="place" v="locality" />
		<tag k="ssr:date" v="2019-12-27" />
		<tag k="ssr:gruppe" v="gardsbebyggelse" />
		<tag k="ssr:hovedgruppe" v="bebyggelse" />
		<tag k="ssr:stedsnr" v="240754" />
		<tag k="ssr:type" v="eiendom" />
	</node>
	<node lat="60.96704999571493" lon="9.868827782826738" id="-18163">
		<tag k="name" v="Rognhaugen" />
		<tag k="natural" v="hill" />
		<tag k="place" v="locality" />
		<tag k="ssr:date" v="2019-12-27" />
		<tag k="ssr:gruppe" v="høyder" />
		<tag k="ssr:hovedgruppe" v="terreng" />
		<tag k="ssr:stedsnr" v="240551" />
		<tag k="ssr:type" v="haug" />
	</node>
	<node lat="60.96111944697174" lon="10.116933334767278" id="-18164">
		<tag k="name" v="Nordheim" />
		<tag k="place" v="farm" />
		<tag k="ssr:date" v="2019-12-27" />
		<tag k="ssr:gruppe" v="gardsbebyggelse" />
		<tag k="ssr:hovedgruppe" v="bebyggelse" />
		<tag k="ssr:stedsnr" v="240570" />
		<tag k="ssr:type" v="bruk" />
	</node>
	<node lat="60.862180553510775" lon="9.843150007292172" id="-18165">
		<tag k="name" v="Bergesvea" />
		<tag k="place" v="farm" />
		<tag k="ssr:date" v="2019-12-27" />
		<tag k="ssr:gruppe" v="gardsbebyggelse" />
		<tag k="ssr:hovedgruppe" v="bebyggelse" />
		<tag k="ssr:stedsnr" v="240801" />
		<tag k="ssr:type" v="bruk" />
	</node>
	<node lat="60.909522224399524" lon="10.023469452053778" id="-18166">
		<tag k="landuse" v="meadow" />
		<tag k="name" v="Vesterslåttene" />
		<tag k="ssr:date" v="2019-12-27" />
		<tag k="ssr:gruppe" v="dyrkamark" />
		<tag k="ssr:hovedgruppe" v="markslag" />
		<tag k="ssr:stedsnr" v="240923" />
		<tag k="ssr:type" v="eng" />
	</node>
	<node lat="60.99923611199978" lon="10.039130555898232" id="-18167">
		<tag k="name" v="Rognstadhaugen" />
		<tag k="natural" v="hill" />
		<tag k="place" v="locality" />
		<tag k="ssr:date" v="2019-12-27" />
		<tag k="ssr:gruppe" v="høyder" />
		<tag k="ssr:hovedgruppe" v="terreng" />
		<tag k="ssr:stedsnr" v="240973" />
		<tag k="ssr:type" v="haug" />
	</node>
	<node lat="60.95754722593393" lon="9.788983325100133" id="-18168">
		<tag k="name" v="Nedre Svartevatnet" />
		<tag k="natural" v="water" />
		<tag k="ssr:date" v="2019-12-27" />
		<tag k="ssr:gruppe" v="stilleståendeVann" />
		<tag k="ssr:hovedgruppe" v="ferskvann" />
		<tag k="ssr:stedsnr" v="66901" />
		<tag k="ssr:type" v="tjern" />
	</node>
	<node lat="61.02144722195205" lon="9.979388894566656" id="-18169">
		<tag k="name" v="Strand" />
		<tag k="place" v="locality" />
		<tag k="ssr:date" v="2019-12-27" />
		<tag k="ssr:gruppe" v="gardsbebyggelse" />
		<tag k="ssr:hovedgruppe" v="bebyggelse" />
		<tag k="ssr:stedsnr" v="67244" />
		<tag k="ssr:type" v="eiendom" />
	</node>
	<node lat="61.032713887265736" lon="9.826880559561852" id="-18170">
		<tag k="name" v="Hugulisveom" />
		<tag k="place" v="locality" />
		<tag k="ssr:date" v="2019-12-27" />
		<tag k="ssr:gruppe" v="gardsbebyggelse" />
		<tag k="ssr:hovedgruppe" v="bebyggelse" />
		<tag k="ssr:stedsnr" v="68344" />
		<tag k="ssr:type" v="eiendom" />
	</node>
	<node lat="61.01137500093968" lon="10.049216669491033" id="-18171">
		<tag k="name" v="Røste" />
		<tag k="place" v="farm" />
		<tag k="ssr:date" v="2019-12-27" />
		<tag k="ssr:gruppe" v="gardsbebyggelse" />
		<tag k="ssr:hovedgruppe" v="bebyggelse" />
		<tag k="ssr:stedsnr" v="68235" />
		<tag k="ssr:type" v="bruk" />
	</node>
	<node lat="60.84785277758403" lon="9.915552774472252" id="-18172">
		<tag k="alt_name" v="Evenstuen" />
		<tag k="name" v="Evenstugu" />
		<tag k="place" v="farm" />
		<tag k="ssr:date" v="2019-12-27" />
		<tag k="ssr:gruppe" v="gardsbebyggelse" />
		<tag k="ssr:hovedgruppe" v="bebyggelse" />
		<tag k="ssr:stedsnr" v="69044" />
		<tag k="ssr:type" v="bruk" />
	</node>
	<node lat="60.8521821861602" lon="9.845824016866459" id="-18173">
		<tag k="name" v="Sørebøen" />
		<tag k="place" v="farm" />
		<tag k="ssr:date" v="2020-04-16" />
		<tag k="ssr:gruppe" v="gardsbebyggelse" />
		<tag k="ssr:hovedgruppe" v="bebyggelse" />
		<tag k="ssr:stedsnr" v="69051" />
		<tag k="ssr:type" v="bruk" />
	</node>
	<node lat="60.784477780637225" lon="9.95090000347287" id="-18174">
		<tag k="name" v="Meåa" />
		<tag k="natural" v="strait" />
		<tag k="ssr:date" v="2019-12-27" />
		<tag k="ssr:gruppe" v="ferskvannskontur" />
		<tag k="ssr:hovedgruppe" v="ferskvann" />
		<tag k="ssr:stedsnr" v="69138" />
		<tag k="ssr:type" v="sund" />
	</node>
	<node lat="60.88244444748094" lon="10.10390277117292" id="-18175">
		<tag k="name" v="Trysilmyra" />
		<tag k="natural" v="wetland" />
		<tag k="ssr:date" v="2019-12-27" />
		<tag k="ssr:gruppe" v="våtmark" />
		<tag k="ssr:hovedgruppe" v="markslag" />
		<tag k="ssr:stedsnr" v="69431" />
		<tag k="ssr:type" v="myr" />
	</node>
	<node lat="60.874802778940996" lon="10.162613883930653" id="-18176">
		<tag k="name" v="Springbekken" />
		<tag k="ssr:date" v="2019-12-27" />
		<tag k="ssr:gruppe" v="rennendeVann" />
		<tag k="ssr:hovedgruppe" v="ferskvann" />
		<tag k="ssr:stedsnr" v="69443" />
		<tag k="ssr:type" v="bekk" />
		<tag k="waterway" v="stream" />
	</node>
	<node lat="60.92378333048464" lon="9.980852775357716" id="-18177">
		<tag k="name" v="Meinset" />
		<tag k="place" v="locality" />
		<tag k="ssr:date" v="2019-12-27" />
		<tag k="ssr:gruppe" v="bolighus" />
		<tag k="ssr:hovedgruppe" v="bebyggelse" />
		<tag k="ssr:stedsnr" v="69484" />
		<tag k="ssr:type" v="gammelBosettingsplass" />
	</node>
	<node lat="60.92411389068216" lon="10.0854583249681" id="-18178">
		<tag k="name" v="Smedhaugen" />
		<tag k="place" v="farm" />
		<tag k="ssr:date" v="2019-12-27" />
		<tag k="ssr:gruppe" v="gardsbebyggelse" />
		<tag k="ssr:hovedgruppe" v="bebyggelse" />
		<tag k="ssr:stedsnr" v="69487" />
		<tag k="ssr:type" v="bruk" />
	</node>
	<node lat="60.89048611009292" lon="9.972361105917303" id="-18179">
		<tag k="name" v="Måsåputten" />
		<tag k="place" v="locality" />
		<tag k="ssr:date" v="2019-12-27" />
		<tag k="ssr:gruppe" v="rennendeVann" />
		<tag k="ssr:hovedgruppe" v="ferskvann" />
		<tag k="ssr:stedsnr" v="69393" />
		<tag k="ssr:type" v="høl" />
	</node>
	<node lat="60.92095555722836" lon="10.064727777735579" id="-18180">
		<tag k="name" v="Søndre Erstad" />
		<tag k="place" v="farm" />
		<tag k="ssr:date" v="2019-12-27" />
		<tag k="ssr:gruppe" v="gardsbebyggelse" />
		<tag k="ssr:hovedgruppe" v="bebyggelse" />
		<tag k="ssr:stedsnr" v="69508" />
		<tag k="ssr:type" v="bruk" />
	</node>
	<node lat="60.90886666378588" lon="10.157694444317125" id="-18181">
		<tag k="historic" v="shieling" />
		<tag k="name" v="Hovdelia" />
		<tag k="place" v="isolated_dwelling" />
		<tag k="ssr:date" v="2019-12-27" />
		<tag k="ssr:gruppe" v="gardsbebyggelse" />
		<tag k="ssr:hovedgruppe" v="bebyggelse" />
		<tag k="ssr:stedsnr" v="69521" />
		<tag k="ssr:type" v="seterStøl" />
	</node>
	<node lat="60.89726666919896" lon="10.039066658125023" id="-18182">
		<tag k="name" v="Voll" />
		<tag k="place" v="isolated_dwelling" />
		<tag k="ssr:date" v="2019-12-27" />
		<tag k="ssr:gruppe" v="bolighus" />
		<tag k="ssr:hovedgruppe" v="bebyggelse" />
		<tag k="ssr:stedsnr" v="69527" />
		<tag k="ssr:type" v="fritidsbolig" />
	</node>
	<node lat="60.90137777978704" lon="10.121700001099143" id="-18183">
		<tag k="alt_name" v="Djupskaret" />
		<tag k="name" v="Djupskardet" />
		<tag k="natural" v="valley" />
		<tag k="place" v="locality" />
		<tag k="ssr:date" v="2019-12-27" />
		<tag k="ssr:gruppe" v="senkninger" />
		<tag k="ssr:hovedgruppe" v="terreng" />
		<tag k="ssr:stedsnr" v="69533" />
		<tag k="ssr:type" v="skar" />
	</node>
	<node lat="60.83584444087765" lon="9.92933611307024" id="-18184">
		<tag k="name" v="Fagertun" />
		<tag k="place" v="farm" />
		<tag k="ssr:date" v="2019-12-27" />
		<tag k="ssr:gruppe" v="gardsbebyggelse" />
		<tag k="ssr:hovedgruppe" v="bebyggelse" />
		<tag k="ssr:stedsnr" v="70189" />
		<tag k="ssr:type" v="bruk" />
	</node>
	<node lat="60.985747224944575" lon="10.08853887989477" id="-18185">
		<tag k="name" v="Sørum" />
		<tag k="place" v="farm" />
		<tag k="ssr:date" v="2019-12-27" />
		<tag k="ssr:gruppe" v="gardsbebyggelse" />
		<tag k="ssr:hovedgruppe" v="bebyggelse" />
		<tag k="ssr:stedsnr" v="70308" />
		<tag k="ssr:type" v="bruk" />
	</node>
	<node lat="60.98203610884333" lon="10.134775004210885" id="-18186">
		<tag k="name" v="Elgebakkmyra" />
		<tag k="natural" v="wetland" />
		<tag k="ssr:date" v="2019-12-27" />
		<tag k="ssr:gruppe" v="våtmark" />
		<tag k="ssr:hovedgruppe" v="markslag" />
		<tag k="ssr:stedsnr" v="70310" />
		<tag k="ssr:type" v="myr" />
	</node>
	<node lat="60.83716667006399" lon="9.858177781301691" id="-18187">
		<tag k="name" v="Jemtland" />
		<tag k="place" v="farm" />
		<tag k="ssr:date" v="2019-12-27" />
		<tag k="ssr:gruppe" v="gardsbebyggelse" />
		<tag k="ssr:hovedgruppe" v="bebyggelse" />
		<tag k="ssr:stedsnr" v="70034" />
		<tag k="ssr:type" v="bruk" />
	</node>
	<node lat="60.8361222231604" lon="10.04200277219194" id="-18188">
		<tag k="name" v="Mosvea" />
		<tag k="place" v="farm" />
		<tag k="ssr:date" v="2019-12-27" />
		<tag k="ssr:gruppe" v="gardsbebyggelse" />
		<tag k="ssr:hovedgruppe" v="bebyggelse" />
		<tag k="ssr:stedsnr" v="70484" />
		<tag k="ssr:type" v="bruk" />
	</node>
	<node lat="60.84271666514552" lon="10.155688880561085" id="-18189">
		<tag k="name" v="Bjeglerud" />
		<tag k="place" v="farm" />
		<tag k="ssr:date" v="2019-12-27" />
		<tag k="ssr:gruppe" v="gardsbebyggelse" />
		<tag k="ssr:hovedgruppe" v="bebyggelse" />
		<tag k="ssr:stedsnr" v="70490" />
		<tag k="ssr:type" v="bruk" />
	</node>
	<node lat="60.83851110900278" lon="10.162511108685425" id="-18190">
		<tag k="alt_name" v="Hovelsrud" />
		<tag k="name" v="Håvålsrud" />
		<tag k="place" v="farm" />
		<tag k="ssr:date" v="2019-12-27" />
		<tag k="ssr:gruppe" v="gardsbebyggelse" />
		<tag k="ssr:hovedgruppe" v="bebyggelse" />
		<tag k="ssr:stedsnr" v="70491" />
		<tag k="ssr:type" v="bruk" />
	</node>
	<node lat="60.84916389019074" lon="10.188000007956072" id="-18191">
		<tag k="name" v="Røbergsætra" />
		<tag k="place" v="farm" />
		<tag k="ssr:date" v="2019-12-27" />
		<tag k="ssr:gruppe" v="gardsbebyggelse" />
		<tag k="ssr:hovedgruppe" v="bebyggelse" />
		<tag k="ssr:stedsnr" v="70495" />
		<tag k="ssr:type" v="bruk" />
	</node>
	<node lat="60.80897777462232" lon="9.982486109568697" id="-18192">
		<tag k="name" v="Svartputten" />
		<tag k="natural" v="water" />
		<tag k="ssr:date" v="2019-12-27" />
		<tag k="ssr:gruppe" v="stilleståendeVann" />
		<tag k="ssr:hovedgruppe" v="ferskvann" />
		<tag k="ssr:stedsnr" v="70622" />
		<tag k="ssr:type" v="tjern" />
	</node>
	<node lat="60.84644728075108" lon="10.077989368196256" id="-18193">
		<tag k="alt_name" v="Grangård" />
		<tag k="fixme" v="consider place=hamlet" />
		<tag k="name" v="Granngard" />
		<tag k="place" v="farm" />
		<tag k="ssr:date" v="2019-12-27" />
		<tag k="ssr:gruppe" v="gardsbebyggelse" />
		<tag k="ssr:hovedgruppe" v="bebyggelse" />
		<tag k="ssr:stedsnr" v="70513" />
		<tag k="ssr:type" v="gard" />
	</node>
	<node lat="60.85870833123661" lon="9.974586104391483" id="-18194">
		<tag k="name" v="Nordhaug" />
		<tag k="place" v="farm" />
		<tag k="ssr:date" v="2019-12-27" />
		<tag k="ssr:gruppe" v="gardsbebyggelse" />
		<tag k="ssr:hovedgruppe" v="bebyggelse" />
		<tag k="ssr:stedsnr" v="70530" />
		<tag k="ssr:type" v="bruk" />
	</node>
	<node lat="60.81117777694983" lon="10.108247216865282" id="-18195">
		<tag k="name" v="Elveflata" />
		<tag k="place" v="farm" />
		<tag k="ssr:date" v="2019-12-27" />
		<tag k="ssr:gruppe" v="gardsbebyggelse" />
		<tag k="ssr:hovedgruppe" v="bebyggelse" />
		<tag k="ssr:stedsnr" v="70576" />
		<tag k="ssr:type" v="bruk" />
	</node>
	<node lat="60.95245555362479" lon="9.93247778188671" id="-18196">
		<tag k="name" v="Brandsrudelva" />
		<tag k="ssr:date" v="2019-12-27" />
		<tag k="ssr:gruppe" v="rennendeVann" />
		<tag k="ssr:hovedgruppe" v="ferskvann" />
		<tag k="ssr:stedsnr" v="70914" />
		<tag k="ssr:type" v="bekk" />
		<tag k="waterway" v="stream" />
	</node>
	<node lat="60.94696666604517" lon="9.89506111909131" id="-18197">
		<tag k="fixme" v="consider natural=peak for the most distinct mountains in the district" />
		<tag k="name" v="Rådalshøgda" />
		<tag k="natural" v="hill" />
		<tag k="place" v="locality" />
		<tag k="ssr:date" v="2019-12-27" />
		<tag k="ssr:gruppe" v="høyder" />
		<tag k="ssr:hovedgruppe" v="terreng" />
		<tag k="ssr:stedsnr" v="70924" />
		<tag k="ssr:type" v="ås" />
	</node>
	<node lat="60.97515833166673" lon="9.855819442808652" id="-18198">
		<tag k="alt_name" v="Vesterås" />
		<tag k="name" v="Slottsætra" />
		<tag k="place" v="farm" />
		<tag k="ssr:date" v="2019-12-27" />
		<tag k="ssr:gruppe" v="gardsbebyggelse" />
		<tag k="ssr:hovedgruppe" v="bebyggelse" />
		<tag k="ssr:stedsnr" v="70995" />
		<tag k="ssr:type" v="bruk" />
	</node>
	<node lat="60.974733335266926" lon="9.864861117132422" id="-18199">
		<tag k="name" v="Gjerda" />
		<tag k="ssr:date" v="2019-12-27" />
		<tag k="ssr:gruppe" v="rennendeVann" />
		<tag k="ssr:hovedgruppe" v="ferskvann" />
		<tag k="ssr:stedsnr" v="70996" />
		<tag k="ssr:type" v="elv" />
		<tag k="waterway" v="river" />
	</node>
	<node lat="60.94651389186528" lon="9.824777776744016" id="-18200">
		<tag k="highway" v="path" />
		<tag k="name" v="Øyangsvegen" />
		<tag k="ssr:date" v="2019-12-27" />
		<tag k="ssr:gruppe" v="veg" />
		<tag k="ssr:hovedgruppe" v="infrastruktur" />
		<tag k="ssr:stedsnr" v="100681" />
		<tag k="ssr:type" v="sti" />
	</node>
	<node lat="60.245433336755056" lon="10.395469440791546" id="-18201">
		<tag k="name" v="Randsfjorden" />
		<tag k="natural" v="water" />
		<tag k="ssr:date" v="2019-12-27" />
		<tag k="ssr:gruppe" v="stilleståendeVann" />
		<tag k="ssr:hovedgruppe" v="ferskvann" />
		<tag k="ssr:stedsnr" v="248364" />
		<tag k="ssr:type" v="innsjø" />
		<tag k="water" v="lake" />
	</node>
	<node lat="60.93811389288698" lon="10.1479249910142" id="-18203">
		<tag k="name" v="Enger" />
		<tag k="old_name" v="Fredstad" />
		<tag k="place" v="farm" />
		<tag k="ssr:date" v="2019-12-27" />
		<tag k="ssr:gruppe" v="gardsbebyggelse" />
		<tag k="ssr:hovedgruppe" v="bebyggelse" />
		<tag k="ssr:stedsnr" v="103316" />
		<tag k="ssr:type" v="bruk" />
	</node>
	<node lat="61.02331944891607" lon="10.09761666845497" id="-18204">
		<tag k="name" v="Bjørkeli" />
		<tag k="place" v="farm" />
		<tag k="ssr:date" v="2019-12-27" />
		<tag k="ssr:gruppe" v="gardsbebyggelse" />
		<tag k="ssr:hovedgruppe" v="bebyggelse" />
		<tag k="ssr:stedsnr" v="249183" />
		<tag k="ssr:type" v="bruk" />
	</node>
	<node lat="61.02766388532072" lon="10.076852768510527" id="-18205">
		<tag k="alt_name" v="Skartlia, s;Søndre Skartlia" />
		<tag k="name" v="Søre Skartlia" />
		<tag k="place" v="farm" />
		<tag k="ssr:date" v="2019-12-27" />
		<tag k="ssr:gruppe" v="gardsbebyggelse" />
		<tag k="ssr:hovedgruppe" v="bebyggelse" />
		<tag k="ssr:stedsnr" v="249188" />
		<tag k="ssr:type" v="bruk" />
	</node>
	<node lat="61.02748333470139" lon="10.079011118156636" id="-18206">
		<tag k="fixme" v="consider place=hamlet" />
		<tag k="name" v="Skartlibygda" />
		<tag k="place" v="village" />
		<tag k="ssr:date" v="2019-12-27" />
		<tag k="ssr:gruppe" v="bebyggelsesområder" />
		<tag k="ssr:hovedgruppe" v="bebyggelse" />
		<tag k="ssr:stedsnr" v="249189" />
		<tag k="ssr:type" v="bygdelagBygd" />
	</node>
	<node lat="61.0173027756542" lon="9.985013883722658" id="-18207">
		<tag k="name" v="Skogly" />
		<tag k="place" v="farm" />
		<tag k="ssr:date" v="2019-12-27" />
		<tag k="ssr:gruppe" v="gardsbebyggelse" />
		<tag k="ssr:hovedgruppe" v="bebyggelse" />
		<tag k="ssr:stedsnr" v="249191" />
		<tag k="ssr:type" v="bruk" />
	</node>
	<node lat="61.04956388687927" lon="10.032347221970943" id="-18208">
		<tag k="name" v="Geitryggmyra" />
		<tag k="natural" v="wetland" />
		<tag k="ssr:date" v="2019-12-27" />
		<tag k="ssr:gruppe" v="våtmark" />
		<tag k="ssr:hovedgruppe" v="markslag" />
		<tag k="ssr:stedsnr" v="250049" />
		<tag k="ssr:type" v="myr" />
	</node>
	<node lat="61.035900993378256" lon="10.055955582623216" id="-18209">
		<tag k="fixme" v="consider place=hamlet" />
		<tag k="name" v="Odde" />
		<tag k="place" v="farm" />
		<tag k="ssr:date" v="2019-12-27" />
		<tag k="ssr:gruppe" v="gardsbebyggelse" />
		<tag k="ssr:hovedgruppe" v="bebyggelse" />
		<tag k="ssr:stedsnr" v="250191" />
		<tag k="ssr:type" v="gard" />
	</node>
	<node lat="61.009644447546165" lon="9.99213889297114" id="-18210">
		<tag k="alt_name" v="Granheim, nedre" />
		<tag k="name" v="Nedre Granheim" />
		<tag k="place" v="farm" />
		<tag k="ssr:date" v="2019-12-27" />
		<tag k="ssr:gruppe" v="gardsbebyggelse" />
		<tag k="ssr:hovedgruppe" v="bebyggelse" />
		<tag k="ssr:stedsnr" v="250242" />
		<tag k="ssr:type" v="bruk" />
	</node>
	<node lat="61.00771389227257" lon="10.191052769349858" id="-18211">
		<tag k="alt_name" v="Kråkhuggukampen" />
		<tag k="fixme" v="consider natural=peak for the most distinct mountains in the district" />
		<tag k="name" v="Kråkhugukampen" />
		<tag k="natural" v="hill" />
		<tag k="place" v="locality" />
		<tag k="ssr:date" v="2019-12-27" />
		<tag k="ssr:gruppe" v="høyder" />
		<tag k="ssr:hovedgruppe" v="terreng" />
		<tag k="ssr:stedsnr" v="250250" />
		<tag k="ssr:type" v="ås" />
	</node>
	<node lat="61.02452777593801" lon="9.88165000889882" id="-18212">
		<tag k="alt_name" v="Kampelien" />
		<tag k="name" v="Kampelia" />
		<tag k="place" v="farm" />
		<tag k="ssr:date" v="2019-12-27" />
		<tag k="ssr:gruppe" v="gardsbebyggelse" />
		<tag k="ssr:hovedgruppe" v="bebyggelse" />
		<tag k="ssr:stedsnr" v="250322" />
		<tag k="ssr:type" v="bruk" />
	</node>
	<node lat="61.02603610949241" lon="9.842163891693202" id="-18213">
		<tag k="alt_name" v="Undlien" />
		<tag k="name" v="Undelia" />
		<tag k="place" v="farm" />
		<tag k="ssr:date" v="2019-12-27" />
		<tag k="ssr:gruppe" v="gardsbebyggelse" />
		<tag k="ssr:hovedgruppe" v="bebyggelse" />
		<tag k="ssr:stedsnr" v="250330" />
		<tag k="ssr:type" v="bruk" />
	</node>
	<node lat="61.00984166712227" lon="9.78049444055272" id="-18214">
		<tag k="alt_name" v="Vesle Rakaslyngen" />
		<tag k="name" v="Veslrakaslynga" />
		<tag k="natural" v="water" />
		<tag k="ssr:date" v="2019-12-27" />
		<tag k="ssr:gruppe" v="stilleståendeVann" />
		<tag k="ssr:hovedgruppe" v="ferskvann" />
		<tag k="ssr:stedsnr" v="250363" />
		<tag k="ssr:type" v="tjern" />
	</node>
	<node lat="60.98692222000406" lon="10.190680546667918" id="-18215">
		<tag k="name" v="Sengeklærmyra" />
		<tag k="natural" v="wetland" />
		<tag k="ssr:date" v="2019-12-27" />
		<tag k="ssr:gruppe" v="våtmark" />
		<tag k="ssr:hovedgruppe" v="markslag" />
		<tag k="ssr:stedsnr" v="115130" />
		<tag k="ssr:type" v="myr" />
	</node>
	<node lat="61.041580556090615" lon="10.17273332921809" id="-18216">
		<tag k="name" v="Fjellolia" />
		<tag k="natural" v="slope" />
		<tag k="place" v="locality" />
		<tag k="ssr:date" v="2019-12-27" />
		<tag k="ssr:gruppe" v="skråninger" />
		<tag k="ssr:hovedgruppe" v="terreng" />
		<tag k="ssr:stedsnr" v="115132" />
		<tag k="ssr:type" v="li" />
	</node>
	<node lat="61.07083333476062" lon="9.92383611936199" id="-18218">
		<tag k="historic" v="shieling" />
		<tag k="name" v="Åssætra" />
		<tag k="place" v="isolated_dwelling" />
		<tag k="ssr:date" v="2019-12-27" />
		<tag k="ssr:gruppe" v="gardsbebyggelse" />
		<tag k="ssr:hovedgruppe" v="bebyggelse" />
		<tag k="ssr:stedsnr" v="250632" />
		<tag k="ssr:type" v="seterStøl" />
	</node>
	<node lat="61.055516668947035" lon="9.903741668916773" id="-18219">
		<tag k="ford" v="yes" />
		<tag k="name" v="Tverråvadet" />
		<tag k="place" v="locality" />
		<tag k="ssr:date" v="2019-12-27" />
		<tag k="ssr:gruppe" v="veg" />
		<tag k="ssr:hovedgruppe" v="infrastruktur" />
		<tag k="ssr:stedsnr" v="250639" />
		<tag k="ssr:type" v="vad" />
	</node>
	<node lat="61.045380551392135" lon="9.786202784599473" id="-18220">
		<tag k="alt_name" v="Gammelsætra" />
		<tag k="historic" v="shieling" />
		<tag k="name" v="Gammalsætra" />
		<tag k="place" v="isolated_dwelling" />
		<tag k="ssr:date" v="2019-12-27" />
		<tag k="ssr:gruppe" v="gardsbebyggelse" />
		<tag k="ssr:hovedgruppe" v="bebyggelse" />
		<tag k="ssr:stedsnr" v="250643" />
		<tag k="ssr:type" v="seterStøl" />
	</node>
	<node lat="61.04536388691378" lon="9.947086107897762" id="-18221">
		<tag k="name" v="Tverråsletta" />
		<tag k="place" v="isolated_dwelling" />
		<tag k="ssr:date" v="2019-12-27" />
		<tag k="ssr:gruppe" v="bolighus" />
		<tag k="ssr:hovedgruppe" v="bebyggelse" />
		<tag k="ssr:stedsnr" v="250645" />
		<tag k="ssr:type" v="fritidsbolig" />
	</node>
	<node lat="61.09089166435187" lon="9.91869167406833" id="-18222">
		<tag k="name" v="Krokhølen" />
		<tag k="place" v="locality" />
		<tag k="ssr:date" v="2019-12-27" />
		<tag k="ssr:gruppe" v="rennendeVann" />
		<tag k="ssr:hovedgruppe" v="ferskvann" />
		<tag k="ssr:stedsnr" v="250669" />
		<tag k="ssr:type" v="høl" />
	</node>
	<node lat="60.84495277823567" lon="9.956872229357879" id="-18223">
		<tag k="name" v="Hansejordet" />
		<tag k="place" v="farm" />
		<tag k="ssr:date" v="2019-12-27" />
		<tag k="ssr:gruppe" v="gardsbebyggelse" />
		<tag k="ssr:hovedgruppe" v="bebyggelse" />
		<tag k="ssr:stedsnr" v="117008" />
		<tag k="ssr:type" v="bruk" />
	</node>
	<node lat="60.897469443448436" lon="10.039119443481212" id="-18224">
		<tag k="name" v="Dumsetrønningen" />
		<tag k="place" v="locality" />
		<tag k="ssr:date" v="2019-12-27" />
		<tag k="ssr:gruppe" v="bolighus" />
		<tag k="ssr:hovedgruppe" v="bebyggelse" />
		<tag k="ssr:stedsnr" v="117024" />
		<tag k="ssr:type" v="gammelBosettingsplass" />
	</node>
	<node lat="61.08481944537725" lon="9.805699997093715" id="-18225">
		<tag k="name" v="Bjerttjerna" />
		<tag k="natural" v="water" />
		<tag k="ssr:date" v="2020-05-12" />
		<tag k="ssr:gruppe" v="stilleståendeVann" />
		<tag k="ssr:hovedgruppe" v="ferskvann" />
		<tag k="ssr:stedsnr" v="250685" />
		<tag k="ssr:type" v="gruppeAvTjern" />
		<tag k="water" v="lake" />
	</node>
	<node lat="60.84497221867682" lon="10.158697221177917" id="-18226">
		<tag k="name" v="Skinnerudselva" />
		<tag k="ssr:date" v="2019-12-27" />
		<tag k="ssr:gruppe" v="rennendeVann" />
		<tag k="ssr:hovedgruppe" v="ferskvann" />
		<tag k="ssr:stedsnr" v="117104" />
		<tag k="ssr:type" v="bekk" />
		<tag k="waterway" v="stream" />
	</node>
	<node lat="61.149224996105744" lon="9.914330556031292" id="-18227">
		<tag k="fixme" v="consider natural=peak for the most distinct mountains in the district" />
		<tag k="name" v="Middagstippen" />
		<tag k="natural" v="hill" />
		<tag k="place" v="locality" />
		<tag k="ssr:date" v="2019-12-27" />
		<tag k="ssr:gruppe" v="høyder" />
		<tag k="ssr:hovedgruppe" v="terreng" />
		<tag k="ssr:stedsnr" v="250739" />
		<tag k="ssr:type" v="ås" />
	</node>
	<node lat="60.84558611147439" lon="10.24185833672235" id="-18228">
		<tag k="name" v="Puffen" />
		<tag k="place" v="locality" />
		<tag k="ssr:date" v="2019-12-27" />
		<tag k="ssr:gruppe" v="gardsbebyggelse" />
		<tag k="ssr:hovedgruppe" v="bebyggelse" />
		<tag k="ssr:stedsnr" v="117940" />
		<tag k="ssr:type" v="byggForJordbrukFiskeOgFangst" />
	</node>
	<node lat="60.74733611554216" lon="9.850186114744233" id="-18229">
		<tag k="name" v="Bardalshytta" />
		<tag k="place" v="isolated_dwelling" />
		<tag k="ssr:date" v="2019-12-27" />
		<tag k="ssr:gruppe" v="bolighus" />
		<tag k="ssr:hovedgruppe" v="bebyggelse" />
		<tag k="ssr:stedsnr" v="250785" />
		<tag k="ssr:type" v="fritidsbolig" />
	</node>
	<node lat="60.93367992544548" lon="10.150317688517699" id="-18231">
		<tag k="fixme" v="consider place=hamlet" />
		<tag k="name" v="Frøysåk" />
		<tag k="place" v="farm" />
		<tag k="ssr:date" v="2019-12-27" />
		<tag k="ssr:gruppe" v="gardsbebyggelse" />
		<tag k="ssr:hovedgruppe" v="bebyggelse" />
		<tag k="ssr:stedsnr" v="118177" />
		<tag k="ssr:type" v="gard" />
	</node>
	<node lat="60.78078889252808" lon="9.8659305613498" id="-18232">
		<tag k="name" v="Kullsvelia" />
		<tag k="natural" v="slope" />
		<tag k="place" v="locality" />
		<tag k="ssr:date" v="2019-12-27" />
		<tag k="ssr:gruppe" v="skråninger" />
		<tag k="ssr:hovedgruppe" v="terreng" />
		<tag k="ssr:stedsnr" v="118282" />
		<tag k="ssr:type" v="li" />
	</node>
	<node lat="60.91819722449525" lon="10.04460554965566" id="-18233">
		<tag k="name" v="Sveen" />
		<tag k="place" v="hamlet" />
		<tag k="ssr:date" v="2019-12-27" />
		<tag k="ssr:gruppe" v="bebyggelsesområder" />
		<tag k="ssr:hovedgruppe" v="bebyggelse" />
		<tag k="ssr:stedsnr" v="118873" />
		<tag k="ssr:type" v="grend" />
	</node>
	<node lat="61.125769445391725" lon="9.699855552776109" id="-18234">
		<tag k="name" v="Røssjørompa" />
		<tag k="natural" v="water" />
		<tag k="ssr:date" v="2019-12-27" />
		<tag k="ssr:gruppe" v="stilleståendeVann" />
		<tag k="ssr:hovedgruppe" v="ferskvann" />
		<tag k="ssr:stedsnr" v="118877" />
		<tag k="ssr:type" v="delAvInnsjø" />
	</node>
	<node lat="61.0665222231043" lon="9.900197230962018" id="-18235">
		<tag k="name" v="Flæene" />
		<tag k="natural" v="wetland" />
		<tag k="ssr:date" v="2019-12-27" />
		<tag k="ssr:gruppe" v="våtmark" />
		<tag k="ssr:hovedgruppe" v="markslag" />
		<tag k="ssr:stedsnr" v="119229" />
		<tag k="ssr:type" v="myr" />
	</node>
	<node lat="60.829436113591456" lon="10.089124991877311" id="-18236">
		<tag k="name" v="Nordre Tonvoll" />
		<tag k="place" v="farm" />
		<tag k="ssr:date" v="2019-12-27" />
		<tag k="ssr:gruppe" v="gardsbebyggelse" />
		<tag k="ssr:hovedgruppe" v="bebyggelse" />
		<tag k="ssr:stedsnr" v="119111" />
		<tag k="ssr:type" v="bruk" />
	</node>
	<node lat="60.833202777726136" lon="10.07527500658784" id="-18237">
		<tag k="name" v="Dokka stasjon" />
		<tag k="railway" v="station" />
		<tag k="ssr:date" v="2019-12-27" />
		<tag k="ssr:gruppe" v="bane" />
		<tag k="ssr:hovedgruppe" v="infrastruktur" />
		<tag k="ssr:stedsnr" v="119144" />
		<tag k="ssr:type" v="stasjon" />
		<tag k="train" v="yes" />
	</node>
	<node lat="60.74442499723409" lon="10.0238583307868" id="-18238">
		<tag k="name" v="Hovdedammen" />
		<tag k="place" v="locality" />
		<tag k="ssr:date" v="2019-12-27" />
		<tag k="ssr:gruppe" v="detaljerIFerskvann" />
		<tag k="ssr:hovedgruppe" v="ferskvann" />
		<tag k="ssr:stedsnr" v="119324" />
		<tag k="ssr:type" v="annenVanndetalj" />
	</node>
	<node lat="60.75221389164507" lon="9.994675000330053" id="-18239">
		<tag k="name" v="Flesmyrene" />
		<tag k="natural" v="wetland" />
		<tag k="ssr:date" v="2019-12-27" />
		<tag k="ssr:gruppe" v="våtmark" />
		<tag k="ssr:hovedgruppe" v="markslag" />
		<tag k="ssr:stedsnr" v="119616" />
		<tag k="ssr:type" v="myr" />
	</node>
	<node lat="60.85546944450697" lon="9.84100277021491" id="-18240">
		<tag k="alt_name" v="Lillehaug;Haug" />
		<tag k="name" v="Veslehaug" />
		<tag k="place" v="farm" />
		<tag k="ssr:date" v="2019-12-27" />
		<tag k="ssr:gruppe" v="gardsbebyggelse" />
		<tag k="ssr:hovedgruppe" v="bebyggelse" />
		<tag k="ssr:stedsnr" v="251006" />
		<tag k="ssr:type" v="bruk" />
	</node>
	<node lat="60.8571472234685" lon="9.814908334255692" id="-18241">
		<tag k="fixme" v="consider natural=peak for the most distinct mountains in the district" />
		<tag k="name" v="Dronningknatten" />
		<tag k="natural" v="hill" />
		<tag k="place" v="locality" />
		<tag k="ssr:date" v="2019-12-27" />
		<tag k="ssr:gruppe" v="høyder" />
		<tag k="ssr:hovedgruppe" v="terreng" />
		<tag k="ssr:stedsnr" v="251007" />
		<tag k="ssr:type" v="fjell" />
	</node>
	<node lat="60.86016075586414" lon="9.834907342613764" id="-18242">
		<tag k="alt_name" v="Stuvkampen" />
		<tag k="fixme" v="consider natural=peak for the most distinct mountains in the district" />
		<tag k="name" v="Stuvengkampen" />
		<tag k="natural" v="hill" />
		<tag k="place" v="locality" />
		<tag k="ssr:date" v="2019-12-27" />
		<tag k="ssr:gruppe" v="høyder" />
		<tag k="ssr:hovedgruppe" v="terreng" />
		<tag k="ssr:stedsnr" v="251009" />
		<tag k="ssr:type" v="ås" />
	</node>
	<node lat="60.91094072046382" lon="9.942230359819865" id="-18243">
		<tag k="alt_name" v="Åbortjernet, store;Søndre Abborvatn" />
		<tag k="name" v="Store Åbortjernet" />
		<tag k="natural" v="water" />
		<tag k="ssr:date" v="2019-12-27" />
		<tag k="ssr:gruppe" v="stilleståendeVann" />
		<tag k="ssr:hovedgruppe" v="ferskvann" />
		<tag k="ssr:stedsnr" v="251089" />
		<tag k="ssr:type" v="tjern" />
	</node>
	<node lat="60.84516388557305" lon="9.950105564530217" id="-18244">
		<tag k="alt_name" v="Esbjug, øvre" />
		<tag k="name" v="Øvre Esbjug" />
		<tag k="place" v="farm" />
		<tag k="ssr:date" v="2019-12-27" />
		<tag k="ssr:gruppe" v="gardsbebyggelse" />
		<tag k="ssr:hovedgruppe" v="bebyggelse" />
		<tag k="ssr:stedsnr" v="251057" />
		<tag k="ssr:type" v="bruk" />
	</node>
	<node lat="60.851352855260465" lon="9.899988730271081" id="-18245">
		<tag k="fixme" v="consider place=hamlet" />
		<tag k="name" v="Tomle" />
		<tag k="place" v="farm" />
		<tag k="ssr:date" v="2019-12-27" />
		<tag k="ssr:gruppe" v="gardsbebyggelse" />
		<tag k="ssr:hovedgruppe" v="bebyggelse" />
		<tag k="ssr:stedsnr" v="251061" />
		<tag k="ssr:type" v="gard" />
	</node>
	<node lat="60.85815929018394" lon="9.960771333650136" id="-18246">
		<tag k="fixme" v="multiple name tags, choose one and add the other to alt_name" />
		<tag k="name" v="Brundammen;Rønningsdammen" />
		<tag k="natural" v="water" />
		<tag k="ssr:date" v="2019-12-27" />
		<tag k="ssr:gruppe" v="stilleståendeVann" />
		<tag k="ssr:hovedgruppe" v="ferskvann" />
		<tag k="ssr:stedsnr" v="251065" />
		<tag k="ssr:type" v="tjern" />
	</node>
	<node lat="60.9019361087394" lon="9.797116661004257" id="-18247">
		<tag k="alt_name" v="Leppsjøen, nedre" />
		<tag k="name" v="Nedre Leppsjøen" />
		<tag k="natural" v="water" />
		<tag k="ssr:date" v="2019-12-27" />
		<tag k="ssr:gruppe" v="stilleståendeVann" />
		<tag k="ssr:hovedgruppe" v="ferskvann" />
		<tag k="ssr:stedsnr" v="251081" />
		<tag k="ssr:type" v="tjern" />
	</node>
	<node lat="60.87837222216231" lon="9.845419436966855" id="-18248">
		<tag k="alt_name" v="Søndre Lier" />
		<tag k="name" v="Lierjordet" />
		<tag k="place" v="farm" />
		<tag k="ssr:date" v="2019-12-27" />
		<tag k="ssr:gruppe" v="gardsbebyggelse" />
		<tag k="ssr:hovedgruppe" v="bebyggelse" />
		<tag k="ssr:stedsnr" v="251111" />
		<tag k="ssr:type" v="bruk" />
	</node>
	<node lat="60.88655277621881" lon="9.882480550530296" id="-18249">
		<tag k="name" v="Flisa" />
		<tag k="ssr:date" v="2019-12-27" />
		<tag k="ssr:gruppe" v="rennendeVann" />
		<tag k="ssr:hovedgruppe" v="ferskvann" />
		<tag k="ssr:stedsnr" v="251127" />
		<tag k="ssr:type" v="bekk" />
		<tag k="waterway" v="stream" />
	</node>
	<node lat="60.897988890546834" lon="9.853472223706207" id="-18250">
		<tag k="name" v="Flågamyrtjernet" />
		<tag k="natural" v="water" />
		<tag k="ssr:date" v="2019-12-27" />
		<tag k="ssr:gruppe" v="stilleståendeVann" />
		<tag k="ssr:hovedgruppe" v="ferskvann" />
		<tag k="ssr:stedsnr" v="251132" />
		<tag k="ssr:type" v="tjern" />
	</node>
	<node lat="60.77679721970799" lon="9.852583327924668" id="-18251">
		<tag k="alt_name" v="Langvatn" />
		<tag k="name" v="Langvatnet" />
		<tag k="natural" v="water" />
		<tag k="ssr:date" v="2019-12-27" />
		<tag k="ssr:gruppe" v="stilleståendeVann" />
		<tag k="ssr:hovedgruppe" v="ferskvann" />
		<tag k="ssr:stedsnr" v="251150" />
		<tag k="ssr:type" v="tjern" />
	</node>
	<node lat="60.94604167064327" lon="9.985933334529095" id="-18252">
		<tag k="alt_name" v="Lundsæteren" />
		<tag k="name" v="Lundsætra" />
		<tag k="place" v="farm" />
		<tag k="ssr:date" v="2019-12-27" />
		<tag k="ssr:gruppe" v="gardsbebyggelse" />
		<tag k="ssr:hovedgruppe" v="bebyggelse" />
		<tag k="ssr:stedsnr" v="251269" />
		<tag k="ssr:type" v="bruk" />
	</node>
	<node lat="60.94451111460689" lon="9.97528888313161" id="-18253">
		<tag k="alt_name" v="Brendengen" />
		<tag k="name" v="Brennenga" />
		<tag k="place" v="farm" />
		<tag k="ssr:date" v="2019-12-27" />
		<tag k="ssr:gruppe" v="gardsbebyggelse" />
		<tag k="ssr:hovedgruppe" v="bebyggelse" />
		<tag k="ssr:stedsnr" v="251276" />
		<tag k="ssr:type" v="bruk" />
	</node>
	<node lat="60.95807221878429" lon="10.1660749947394" id="-18254">
		<tag k="alt_name" v="Flåmyrene" />
		<tag k="name" v="Flåmyra" />
		<tag k="natural" v="wetland" />
		<tag k="ssr:date" v="2019-12-27" />
		<tag k="ssr:gruppe" v="våtmark" />
		<tag k="ssr:hovedgruppe" v="markslag" />
		<tag k="ssr:stedsnr" v="251283" />
		<tag k="ssr:type" v="myr" />
	</node>
	<node lat="60.936473394840874" lon="10.155092752976756" id="-18255">
		<tag k="fixme" v="consider place=hamlet" />
		<tag k="name" v="Kjennsjord" />
		<tag k="place" v="farm" />
		<tag k="ssr:date" v="2019-12-27" />
		<tag k="ssr:gruppe" v="gardsbebyggelse" />
		<tag k="ssr:hovedgruppe" v="bebyggelse" />
		<tag k="ssr:stedsnr" v="251343" />
		<tag k="ssr:type" v="gard" />
	</node>
	<node lat="61.001509290147204" lon="10.02201850040073" id="-18256">
		<tag k="fixme" v="consider place=hamlet" />
		<tag k="name" v="Klemoen" />
		<tag k="place" v="farm" />
		<tag k="ssr:date" v="2019-12-27" />
		<tag k="ssr:gruppe" v="gardsbebyggelse" />
		<tag k="ssr:hovedgruppe" v="bebyggelse" />
		<tag k="ssr:stedsnr" v="121520" />
		<tag k="ssr:type" v="gard" />
	</node>
	<node lat="60.94420833173899" lon="10.122744445485802" id="-18257">
		<tag k="alt_name" v="Opsal" />
		<tag k="name" v="Haugland" />
		<tag k="place" v="farm" />
		<tag k="ssr:date" v="2019-12-27" />
		<tag k="ssr:gruppe" v="gardsbebyggelse" />
		<tag k="ssr:hovedgruppe" v="bebyggelse" />
		<tag k="ssr:stedsnr" v="251299" />
		<tag k="ssr:type" v="bruk" />
	</node>
	<node lat="60.92183055214801" lon="10.071269439175143" id="-18258">
		<tag k="fixme" v="consider place=hamlet" />
		<tag k="name" v="Vest-Torpa" />
		<tag k="place" v="village" />
		<tag k="ssr:date" v="2019-12-27" />
		<tag k="ssr:gruppe" v="bebyggelsesområder" />
		<tag k="ssr:hovedgruppe" v="bebyggelse" />
		<tag k="ssr:stedsnr" v="251304" />
		<tag k="ssr:type" v="bygdelagBygd" />
	</node>
	<node lat="60.93630262728839" lon="10.02741666640077" id="-18259">
		<tag k="fixme" v="consider place=hamlet" />
		<tag k="name" v="Grøtåsen" />
		<tag k="place" v="farm" />
		<tag k="ssr:date" v="2019-12-27" />
		<tag k="ssr:gruppe" v="gardsbebyggelse" />
		<tag k="ssr:hovedgruppe" v="bebyggelse" />
		<tag k="ssr:stedsnr" v="251318" />
		<tag k="ssr:type" v="gard" />
	</node>
	<node lat="60.93359444619382" lon="10.133572229911513" id="-18260">
		<tag k="name" v="Søre Kinn" />
		<tag k="place" v="farm" />
		<tag k="ssr:date" v="2019-12-27" />
		<tag k="ssr:gruppe" v="gardsbebyggelse" />
		<tag k="ssr:hovedgruppe" v="bebyggelse" />
		<tag k="ssr:stedsnr" v="251344" />
		<tag k="ssr:type" v="bruk" />
	</node>
	<node lat="60.96423332891433" lon="10.105072224457853" id="-18261">
		<tag k="name" v="Steinsvoll" />
		<tag k="place" v="locality" />
		<tag k="ssr:date" v="2019-12-27" />
		<tag k="ssr:gruppe" v="gardsbebyggelse" />
		<tag k="ssr:hovedgruppe" v="bebyggelse" />
		<tag k="ssr:stedsnr" v="251374" />
		<tag k="ssr:type" v="eiendom" />
	</node>
	<node lat="60.95050277652389" lon="10.138944441739923" id="-18262">
		<tag k="fixme" v="consider place=hamlet" />
		<tag k="name" v="Aust-Torpa" />
		<tag k="place" v="village" />
		<tag k="ssr:date" v="2019-12-27" />
		<tag k="ssr:gruppe" v="bebyggelsesområder" />
		<tag k="ssr:hovedgruppe" v="bebyggelse" />
		<tag k="ssr:stedsnr" v="251383" />
		<tag k="ssr:type" v="bygdelagBygd" />
	</node>
	<node lat="60.87082778162431" lon="10.181013880913675" id="-18263">
		<tag k="alt_name" v="Bergum" />
		<tag k="name" v="Bergom" />
		<tag k="place" v="farm" />
		<tag k="ssr:date" v="2019-12-27" />
		<tag k="ssr:gruppe" v="gardsbebyggelse" />
		<tag k="ssr:hovedgruppe" v="bebyggelse" />
		<tag k="ssr:stedsnr" v="251436" />
		<tag k="ssr:type" v="bruk" />
	</node>
	<node lat="60.87314999976778" lon="10.09089166906923" id="-18264">
		<tag k="historic" v="shieling" />
		<tag k="name" v="Lerretsdalen" />
		<tag k="place" v="isolated_dwelling" />
		<tag k="ssr:date" v="2019-12-27" />
		<tag k="ssr:gruppe" v="gardsbebyggelse" />
		<tag k="ssr:hovedgruppe" v="bebyggelse" />
		<tag k="ssr:stedsnr" v="251424" />
		<tag k="ssr:type" v="seterStøl" />
	</node>
	<node lat="60.923630559777244" lon="9.989647223115291" id="-18265">
		<tag k="name" v="Småmyrreset" />
		<tag k="natural" v="hill" />
		<tag k="place" v="locality" />
		<tag k="ssr:date" v="2019-12-27" />
		<tag k="ssr:gruppe" v="høyder" />
		<tag k="ssr:hovedgruppe" v="terreng" />
		<tag k="ssr:stedsnr" v="251484" />
		<tag k="ssr:type" v="haug" />
	</node>
	<node lat="60.922535301254165" lon="10.061776723288245" id="-18266">
		<tag k="fixme" v="consider place=hamlet" />
		<tag k="name" v="Erstad" />
		<tag k="place" v="farm" />
		<tag k="ssr:date" v="2019-12-27" />
		<tag k="ssr:gruppe" v="gardsbebyggelse" />
		<tag k="ssr:hovedgruppe" v="bebyggelse" />
		<tag k="ssr:stedsnr" v="251491" />
		<tag k="ssr:type" v="gard" />
	</node>
	<node lat="60.913288885207386" lon="9.97345000456992" id="-18267">
		<tag k="name" v="Femputtmyra" />
		<tag k="natural" v="wetland" />
		<tag k="ssr:date" v="2019-12-27" />
		<tag k="ssr:gruppe" v="våtmark" />
		<tag k="ssr:hovedgruppe" v="markslag" />
		<tag k="ssr:stedsnr" v="251498" />
		<tag k="ssr:type" v="myr" />
	</node>
	<node lat="60.902563890548045" lon="10.200752785173714" id="-18268">
		<tag k="name" v="Svartbekken" />
		<tag k="ssr:date" v="2019-12-27" />
		<tag k="ssr:gruppe" v="rennendeVann" />
		<tag k="ssr:hovedgruppe" v="ferskvann" />
		<tag k="ssr:stedsnr" v="251521" />
		<tag k="ssr:type" v="bekk" />
		<tag k="waterway" v="stream" />
	</node>
	<node lat="60.86522777478172" lon="10.048419439159385" id="-18269">
		<tag k="alt_name" v="Brateng" />
		<tag k="name" v="Bratteng" />
		<tag k="place" v="farm" />
		<tag k="ssr:date" v="2019-12-27" />
		<tag k="ssr:gruppe" v="gardsbebyggelse" />
		<tag k="ssr:hovedgruppe" v="bebyggelse" />
		<tag k="ssr:stedsnr" v="251443" />
		<tag k="ssr:type" v="bruk" />
	</node>
	<node lat="60.93162222056788" lon="10.043144451988242" id="-18270">
		<tag k="amenity" v="place_of_worship" />
		<tag k="denomination" v="lutheran" />
		<tag k="name" v="Lunde kirke" />
		<tag k="religion" v="christian" />
		<tag k="ssr:date" v="2019-12-27" />
		<tag k="ssr:gruppe" v="kulturinstitusjoner" />
		<tag k="ssr:hovedgruppe" v="kultur" />
		<tag k="ssr:stedsnr" v="251460" />
		<tag k="ssr:type" v="kirke" />
	</node>
	<node lat="60.93278610790457" lon="10.087966667731035" id="-18271">
		<tag k="name" v="Nyland" />
		<tag k="place" v="farm" />
		<tag k="ssr:date" v="2019-12-27" />
		<tag k="ssr:gruppe" v="gardsbebyggelse" />
		<tag k="ssr:hovedgruppe" v="bebyggelse" />
		<tag k="ssr:stedsnr" v="251464" />
		<tag k="ssr:type" v="bruk" />
	</node>
	<node lat="60.80472499684731" lon="10.003744441519926" id="-18272">
		<tag k="alt_name" v="Sjuputtmyrene" />
		<tag k="name" v="Sjuputtmyra" />
		<tag k="natural" v="wetland" />
		<tag k="ssr:date" v="2019-12-27" />
		<tag k="ssr:gruppe" v="våtmark" />
		<tag k="ssr:hovedgruppe" v="markslag" />
		<tag k="ssr:stedsnr" v="251590" />
		<tag k="ssr:type" v="myr" />
	</node>
	<node lat="60.927458334214684" lon="9.96080278203491" id="-18273">
		<tag k="alt_name" v="Lundmyra" />
		<tag k="name" v="Lunnmyra" />
		<tag k="natural" v="wetland" />
		<tag k="ssr:date" v="2019-12-27" />
		<tag k="ssr:gruppe" v="våtmark" />
		<tag k="ssr:hovedgruppe" v="markslag" />
		<tag k="ssr:stedsnr" v="251914" />
		<tag k="ssr:type" v="myr" />
	</node>
	<node lat="60.83966944232378" lon="9.867577785512756" id="-18274">
		<tag k="name" v="Støa" />
		<tag k="place" v="farm" />
		<tag k="ssr:date" v="2019-12-27" />
		<tag k="ssr:gruppe" v="gardsbebyggelse" />
		<tag k="ssr:hovedgruppe" v="bebyggelse" />
		<tag k="ssr:stedsnr" v="252024" />
		<tag k="ssr:type" v="bruk" />
	</node>
	<node lat="60.836097223088295" lon="9.863544452636562" id="-18275">
		<tag k="name" v="Flata" />
		<tag k="place" v="farm" />
		<tag k="ssr:date" v="2019-12-27" />
		<tag k="ssr:gruppe" v="gardsbebyggelse" />
		<tag k="ssr:hovedgruppe" v="bebyggelse" />
		<tag k="ssr:stedsnr" v="252025" />
		<tag k="ssr:type" v="bruk" />
	</node>
	<node lat="60.75765633803867" lon="9.86524715256105" id="-18276">
		<tag k="alt_name" v="Nordre Tverrvatn" />
		<tag k="name" v="Tverrvatnet" />
		<tag k="natural" v="water" />
		<tag k="ssr:date" v="2019-12-27" />
		<tag k="ssr:gruppe" v="stilleståendeVann" />
		<tag k="ssr:hovedgruppe" v="ferskvann" />
		<tag k="ssr:stedsnr" v="252144" />
		<tag k="ssr:type" v="vann" />
		<tag k="water" v="lake" />
	</node>
	<node lat="60.758999999390376" lon="9.93626944334175" id="-18277">
		<tag k="alt_name" v="Skøiensætra" />
		<tag k="historic" v="shieling" />
		<tag k="name" v="Bjørkesætra" />
		<tag k="place" v="isolated_dwelling" />
		<tag k="ssr:date" v="2019-12-27" />
		<tag k="ssr:gruppe" v="gardsbebyggelse" />
		<tag k="ssr:hovedgruppe" v="bebyggelse" />
		<tag k="ssr:stedsnr" v="252145" />
		<tag k="ssr:type" v="seterStøl" />
	</node>
	<node lat="60.753280559335835" lon="9.884727771149372" id="-18278">
		<tag k="alt_name" v="Nyvatn" />
		<tag k="name" v="Nyvatnet" />
		<tag k="natural" v="water" />
		<tag k="ssr:date" v="2019-12-27" />
		<tag k="ssr:gruppe" v="stilleståendeVann" />
		<tag k="ssr:hovedgruppe" v="ferskvann" />
		<tag k="ssr:stedsnr" v="252125" />
		<tag k="ssr:type" v="tjern" />
	</node>
	<node lat="60.76115833426842" lon="9.933536106287887" id="-18279">
		<tag k="historic" v="shieling" />
		<tag k="name" v="Haugsætra" />
		<tag k="place" v="isolated_dwelling" />
		<tag k="ssr:date" v="2019-12-27" />
		<tag k="ssr:gruppe" v="gardsbebyggelse" />
		<tag k="ssr:hovedgruppe" v="bebyggelse" />
		<tag k="ssr:stedsnr" v="252128" />
		<tag k="ssr:type" v="seterStøl" />
	</node>
	<node lat="60.813158469631965" lon="9.922008075712524" id="-18280">
		<tag k="fixme" v="consider place=hamlet" />
		<tag k="name" v="Nøss" />
		<tag k="place" v="farm" />
		<tag k="ssr:date" v="2019-12-27" />
		<tag k="ssr:gruppe" v="gardsbebyggelse" />
		<tag k="ssr:hovedgruppe" v="bebyggelse" />
		<tag k="ssr:stedsnr" v="252218" />
		<tag k="ssr:type" v="gard" />
	</node>
	<node lat="61.053638885091516" lon="10.125980553957737" id="-18281">
		<tag k="name" v="Kinnsdokka" />
		<tag k="place" v="locality" />
		<tag k="ssr:date" v="2019-12-27" />
		<tag k="ssr:gruppe" v="bolighus" />
		<tag k="ssr:hovedgruppe" v="bebyggelse" />
		<tag k="ssr:stedsnr" v="128043" />
		<tag k="ssr:type" v="gammelBosettingsplass" />
	</node>
	<node lat="60.99373610936943" lon="10.177402781716815" id="-18282">
		<tag k="alt_name" v="Julkrudshøgda" />
		<tag k="name" v="Julkerudshøgda" />
		<tag k="natural" v="hill" />
		<tag k="place" v="locality" />
		<tag k="ssr:date" v="2019-12-27" />
		<tag k="ssr:gruppe" v="høyder" />
		<tag k="ssr:hovedgruppe" v="terreng" />
		<tag k="ssr:stedsnr" v="252289" />
		<tag k="ssr:type" v="haug" />
	</node>
	<node lat="60.99343610957624" lon="10.15089999286764" id="-18283">
		<tag k="historic" v="shieling" />
		<tag k="name" v="Vinjarsætra" />
		<tag k="place" v="isolated_dwelling" />
		<tag k="ssr:date" v="2019-12-27" />
		<tag k="ssr:gruppe" v="gardsbebyggelse" />
		<tag k="ssr:hovedgruppe" v="bebyggelse" />
		<tag k="ssr:stedsnr" v="252290" />
		<tag k="ssr:type" v="seterStøl" />
	</node>
	<node lat="60.987138885549975" lon="10.132224997309825" id="-18284">
		<tag k="name" v="Vinjarelva" />
		<tag k="ssr:date" v="2019-12-27" />
		<tag k="ssr:gruppe" v="rennendeVann" />
		<tag k="ssr:hovedgruppe" v="ferskvann" />
		<tag k="ssr:stedsnr" v="252296" />
		<tag k="ssr:type" v="bekk" />
		<tag k="waterway" v="stream" />
	</node>
	<node lat="60.99129722490749" lon="10.122150009008571" id="-18285">
		<tag k="name" v="Halvfaremyra" />
		<tag k="natural" v="wetland" />
		<tag k="ssr:date" v="2019-12-27" />
		<tag k="ssr:gruppe" v="våtmark" />
		<tag k="ssr:hovedgruppe" v="markslag" />
		<tag k="ssr:stedsnr" v="252297" />
		<tag k="ssr:type" v="myr" />
	</node>
	<node lat="60.970605559750865" lon="10.089977782853396" id="-18286">
		<tag k="alt_name" v="Grønvoll Bruk" />
		<tag k="building" v="industrial" />
		<tag k="industrial" v="factory" />
		<tag k="name" v="Grønvoll" />
		<tag k="ssr:date" v="2019-12-27" />
		<tag k="ssr:gruppe" v="næring" />
		<tag k="ssr:hovedgruppe" v="bebyggelse" />
		<tag k="ssr:stedsnr" v="252306" />
		<tag k="ssr:type" v="fabrikk" />
	</node>
	<node lat="61.02095000001613" lon="10.098680559208185" id="-18287">
		<tag k="alt_name" v="Lystne" />
		<tag k="name" v="Lysne" />
		<tag k="place" v="farm" />
		<tag k="ssr:date" v="2019-12-27" />
		<tag k="ssr:gruppe" v="gardsbebyggelse" />
		<tag k="ssr:hovedgruppe" v="bebyggelse" />
		<tag k="ssr:stedsnr" v="128192" />
		<tag k="ssr:type" v="bruk" />
	</node>
	<node lat="61.00986666358691" lon="10.174763890769887" id="-18288">
		<tag k="name" v="Finnsjøen" />
		<tag k="natural" v="water" />
		<tag k="ssr:date" v="2019-12-27" />
		<tag k="ssr:gruppe" v="stilleståendeVann" />
		<tag k="ssr:hovedgruppe" v="ferskvann" />
		<tag k="ssr:stedsnr" v="128195" />
		<tag k="ssr:type" v="tjern" />
	</node>
	<node lat="61.012661111877264" lon="10.160975004362653" id="-18289">
		<tag k="name" v="Medvatnet" />
		<tag k="natural" v="water" />
		<tag k="ssr:date" v="2019-12-27" />
		<tag k="ssr:gruppe" v="stilleståendeVann" />
		<tag k="ssr:hovedgruppe" v="ferskvann" />
		<tag k="ssr:stedsnr" v="128196" />
		<tag k="ssr:type" v="tjern" />
	</node>
	<node lat="61.00370555347138" lon="9.969283329998335" id="-18290">
		<tag k="name" v="Dal" />
		<tag k="place" v="farm" />
		<tag k="ssr:date" v="2019-12-27" />
		<tag k="ssr:gruppe" v="gardsbebyggelse" />
		<tag k="ssr:hovedgruppe" v="bebyggelse" />
		<tag k="ssr:stedsnr" v="128206" />
		<tag k="ssr:type" v="bruk" />
	</node>
	<node lat="61.030275001192784" lon="9.897352781119183" id="-18291">
		<tag k="alt_name" v="Karustjernet" />
		<tag k="name" v="Nedre Karusstjernet" />
		<tag k="natural" v="water" />
		<tag k="ssr:date" v="2019-12-27" />
		<tag k="ssr:gruppe" v="stilleståendeVann" />
		<tag k="ssr:hovedgruppe" v="ferskvann" />
		<tag k="ssr:stedsnr" v="128291" />
		<tag k="ssr:type" v="tjern" />
	</node>
	<node lat="61.094763888854764" lon="9.71611944063675" id="-18292">
		<tag k="name" v="Regla" />
		<tag k="natural" v="water" />
		<tag k="ssr:date" v="2019-12-27" />
		<tag k="ssr:gruppe" v="stilleståendeVann" />
		<tag k="ssr:hovedgruppe" v="ferskvann" />
		<tag k="ssr:stedsnr" v="128655" />
		<tag k="ssr:type" v="tjern" />
	</node>
	<node lat="60.87489162588659" lon="9.797153858982984" id="-18293">
		<tag k="fixme" v="multiple name tags, choose one and add the other to alt_name" />
		<tag k="name" v="Øvre Skilnadputten;Øvre Skjelnetjern" />
		<tag k="natural" v="water" />
		<tag k="ssr:date" v="2021-06-08" />
		<tag k="ssr:gruppe" v="stilleståendeVann" />
		<tag k="ssr:hovedgruppe" v="ferskvann" />
		<tag k="ssr:stedsnr" v="129115" />
		<tag k="ssr:type" v="tjern" />
	</node>
	<node lat="60.887152782113795" lon="9.830019442776305" id="-18294">
		<tag k="fixme" v="consider natural=peak for the most distinct mountains in the district" />
		<tag k="name" v="Lierberget" />
		<tag k="natural" v="hill" />
		<tag k="place" v="locality" />
		<tag k="ssr:date" v="2019-12-27" />
		<tag k="ssr:gruppe" v="høyder" />
		<tag k="ssr:hovedgruppe" v="terreng" />
		<tag k="ssr:stedsnr" v="129134" />
		<tag k="ssr:type" v="ås" />
	</node>
	<node lat="60.90329722462993" lon="9.831016674349998" id="-18295">
		<tag k="historic" v="shieling" />
		<tag k="name" v="Tyndrumssætra" />
		<tag k="place" v="isolated_dwelling" />
		<tag k="ssr:date" v="2019-12-27" />
		<tag k="ssr:gruppe" v="gardsbebyggelse" />
		<tag k="ssr:hovedgruppe" v="bebyggelse" />
		<tag k="ssr:stedsnr" v="129093" />
		<tag k="ssr:type" v="seterStøl" />
	</node>
	<node lat="60.87451666804625" lon="10.01285555247344" id="-18296">
		<tag k="name" v="Vangsjøbekken" />
		<tag k="ssr:date" v="2019-12-27" />
		<tag k="ssr:gruppe" v="rennendeVann" />
		<tag k="ssr:hovedgruppe" v="ferskvann" />
		<tag k="ssr:stedsnr" v="129406" />
		<tag k="ssr:type" v="bekk" />
		<tag k="waterway" v="stream" />
	</node>
	<node lat="60.87035833592448" lon="10.215324998134685" id="-18297">
		<tag k="name" v="Båssum" />
		<tag k="old_name" v="Bossum" />
		<tag k="place" v="farm" />
		<tag k="ssr:date" v="2019-12-27" />
		<tag k="ssr:gruppe" v="gardsbebyggelse" />
		<tag k="ssr:hovedgruppe" v="bebyggelse" />
		<tag k="ssr:stedsnr" v="129418" />
		<tag k="ssr:type" v="bruk" />
	</node>
	<node lat="60.863412798299336" lon="10.01529389529106" id="-18298">
		<tag k="name" v="Loeng" />
		<tag k="place" v="farm" />
		<tag k="ssr:date" v="2019-12-27" />
		<tag k="ssr:gruppe" v="gardsbebyggelse" />
		<tag k="ssr:hovedgruppe" v="bebyggelse" />
		<tag k="ssr:stedsnr" v="129426" />
		<tag k="ssr:type" v="bruk" />
	</node>
	<node lat="61.03604999894144" lon="9.80503610239453" id="-18299">
		<tag k="historic" v="shieling" />
		<tag k="name" v="Nersætra" />
		<tag k="place" v="isolated_dwelling" />
		<tag k="ssr:date" v="2019-12-27" />
		<tag k="ssr:gruppe" v="gardsbebyggelse" />
		<tag k="ssr:hovedgruppe" v="bebyggelse" />
		<tag k="ssr:stedsnr" v="129345" />
		<tag k="ssr:type" v="seterStøl" />
	</node>
	<node lat="60.83504721955892" lon="10.09582778645438" id="-18300">
		<tag k="name" v="Braskerud" />
		<tag k="place" v="farm" />
		<tag k="ssr:date" v="2019-12-27" />
		<tag k="ssr:gruppe" v="gardsbebyggelse" />
		<tag k="ssr:hovedgruppe" v="bebyggelse" />
		<tag k="ssr:stedsnr" v="252452" />
		<tag k="ssr:type" v="bruk" />
	</node>
	<node lat="60.8373777766311" lon="10.016341664467356" id="-18301">
		<tag k="alt_name" v="Nøss" />
		<tag k="name" v="Nøssgård" />
		<tag k="place" v="locality" />
		<tag k="ssr:date" v="2019-12-27" />
		<tag k="ssr:gruppe" v="gardsbebyggelse" />
		<tag k="ssr:hovedgruppe" v="bebyggelse" />
		<tag k="ssr:stedsnr" v="252455" />
		<tag k="ssr:type" v="eiendom" />
	</node>
	<node lat="60.83906389056262" lon="9.971125005759294" id="-18302">
		<tag k="name" v="Øyom" />
		<tag k="place" v="farm" />
		<tag k="ssr:date" v="2019-12-27" />
		<tag k="ssr:gruppe" v="gardsbebyggelse" />
		<tag k="ssr:hovedgruppe" v="bebyggelse" />
		<tag k="ssr:stedsnr" v="252469" />
		<tag k="ssr:type" v="bruk" />
	</node>
	<node lat="60.84781111265162" lon="10.203463891581956" id="-18303">
		<tag k="name" v="Myre" />
		<tag k="place" v="farm" />
		<tag k="ssr:date" v="2019-12-27" />
		<tag k="ssr:gruppe" v="gardsbebyggelse" />
		<tag k="ssr:hovedgruppe" v="bebyggelse" />
		<tag k="ssr:stedsnr" v="252475" />
		<tag k="ssr:type" v="bruk" />
	</node>
	<node lat="61.120063885706244" lon="9.787238897780707" id="-18304">
		<tag k="name" v="Lenna" />
		<tag k="old_name" v="Leina;Lænna" />
		<tag k="ssr:date" v="2019-12-27" />
		<tag k="ssr:gruppe" v="rennendeVann" />
		<tag k="ssr:hovedgruppe" v="ferskvann" />
		<tag k="ssr:stedsnr" v="129711" />
		<tag k="ssr:type" v="elv" />
		<tag k="waterway" v="river" />
	</node>
	<node lat="61.13352500071454" lon="9.766777779415786" id="-18305">
		<tag k="alt_name" v="Lundesætrene" />
		<tag k="historic" v="shieling" />
		<tag k="name" v="Lundsætra" />
		<tag k="old_name" v="Lunde Sr;Lundesæteren" />
		<tag k="place" v="isolated_dwelling" />
		<tag k="ssr:date" v="2019-12-27" />
		<tag k="ssr:gruppe" v="gardsbebyggelse" />
		<tag k="ssr:hovedgruppe" v="bebyggelse" />
		<tag k="ssr:stedsnr" v="129712" />
		<tag k="ssr:type" v="seterStøl" />
	</node>
	<node lat="61.12484999726127" lon="9.801224990876358" id="-18306">
		<tag k="historic" v="shieling" />
		<tag k="name" v="Gardsætra" />
		<tag k="place" v="isolated_dwelling" />
		<tag k="ssr:date" v="2019-12-27" />
		<tag k="ssr:gruppe" v="gardsbebyggelse" />
		<tag k="ssr:hovedgruppe" v="bebyggelse" />
		<tag k="ssr:stedsnr" v="129719" />
		<tag k="ssr:type" v="seterStøl" />
	</node>
	<node lat="61.129669442564655" lon="9.830602768486244" id="-18307">
		<tag k="alt_name" v="Sluguasætrene" />
		<tag k="historic" v="shieling" />
		<tag k="name" v="Slugua" />
		<tag k="place" v="isolated_dwelling" />
		<tag k="ssr:date" v="2019-12-27" />
		<tag k="ssr:gruppe" v="gardsbebyggelse" />
		<tag k="ssr:hovedgruppe" v="bebyggelse" />
		<tag k="ssr:stedsnr" v="129721" />
		<tag k="ssr:type" v="seterStøl" />
	</node>
	<node lat="61.11592355146559" lon="9.867822370909023" id="-18308">
		<tag k="alt_name" v="Heggenhaugensætra" />
		<tag k="historic" v="shieling" />
		<tag k="name" v="Heggenhaugen" />
		<tag k="place" v="isolated_dwelling" />
		<tag k="ssr:date" v="2020-02-26" />
		<tag k="ssr:gruppe" v="gardsbebyggelse" />
		<tag k="ssr:hovedgruppe" v="bebyggelse" />
		<tag k="ssr:stedsnr" v="129733" />
		<tag k="ssr:type" v="seterStøl" />
	</node>
	<node lat="60.86086944148603" lon="9.986105556497172" id="-18309">
		<tag k="alt_name" v="Husaker" />
		<tag k="name" v="Husåker" />
		<tag k="place" v="farm" />
		<tag k="ssr:date" v="2019-12-27" />
		<tag k="ssr:gruppe" v="gardsbebyggelse" />
		<tag k="ssr:hovedgruppe" v="bebyggelse" />
		<tag k="ssr:stedsnr" v="252500" />
		<tag k="ssr:type" v="bruk" />
	</node>
	<node lat="60.856932035654985" lon="10.084819147345696" id="-18310">
		<tag k="fixme" v="consider place=hamlet" />
		<tag k="name" v="Kolsrud" />
		<tag k="place" v="farm" />
		<tag k="ssr:date" v="2019-12-27" />
		<tag k="ssr:gruppe" v="gardsbebyggelse" />
		<tag k="ssr:hovedgruppe" v="bebyggelse" />
		<tag k="ssr:stedsnr" v="252507" />
		<tag k="ssr:type" v="gard" />
	</node>
	<node lat="60.78923055398968" lon="9.818363892961084" id="-18311">
		<tag k="name" v="Karidalen" />
		<tag k="natural" v="valley" />
		<tag k="place" v="locality" />
		<tag k="ssr:date" v="2019-12-27" />
		<tag k="ssr:gruppe" v="senkninger" />
		<tag k="ssr:hovedgruppe" v="terreng" />
		<tag k="ssr:stedsnr" v="130118" />
		<tag k="ssr:type" v="dal" />
	</node>
	<node lat="60.78760000308025" lon="9.832444451216393" id="-18312">
		<tag k="alt_name" v="Styggøyvatn" />
		<tag k="name" v="Styggøyvatnet" />
		<tag k="natural" v="water" />
		<tag k="ssr:date" v="2019-12-27" />
		<tag k="ssr:gruppe" v="stilleståendeVann" />
		<tag k="ssr:hovedgruppe" v="ferskvann" />
		<tag k="ssr:stedsnr" v="130128" />
		<tag k="ssr:type" v="tjern" />
	</node>
	<node lat="60.996230559069915" lon="10.03656667054601" id="-18313">
		<tag k="name" v="Skredderstugua" />
		<tag k="place" v="farm" />
		<tag k="ssr:date" v="2019-12-27" />
		<tag k="ssr:gruppe" v="gardsbebyggelse" />
		<tag k="ssr:hovedgruppe" v="bebyggelse" />
		<tag k="ssr:stedsnr" v="130132" />
		<tag k="ssr:type" v="bruk" />
	</node>
	<node lat="60.99884155872151" lon="9.986847453840976" id="-18314">
		<tag k="fixme" v="consider place=hamlet" />
		<tag k="name" v="Koll" />
		<tag k="place" v="farm" />
		<tag k="ssr:date" v="2019-12-27" />
		<tag k="ssr:gruppe" v="gardsbebyggelse" />
		<tag k="ssr:hovedgruppe" v="bebyggelse" />
		<tag k="ssr:stedsnr" v="130133" />
		<tag k="ssr:type" v="gard" />
	</node>
	<node lat="60.855455412157625" lon="9.858728728569261" id="-18315">
		<tag k="fixme" v="consider place=hamlet" />
		<tag k="name" v="Kapperud" />
		<tag k="place" v="farm" />
		<tag k="ssr:date" v="2019-12-27" />
		<tag k="ssr:gruppe" v="gardsbebyggelse" />
		<tag k="ssr:hovedgruppe" v="bebyggelse" />
		<tag k="ssr:stedsnr" v="130002" />
		<tag k="ssr:type" v="gard" />
	</node>
	<node lat="60.868897222338795" lon="9.912372214826286" id="-18316">
		<tag k="name" v="Lisettjernet" />
		<tag k="natural" v="water" />
		<tag k="ssr:date" v="2019-12-27" />
		<tag k="ssr:gruppe" v="stilleståendeVann" />
		<tag k="ssr:hovedgruppe" v="ferskvann" />
		<tag k="ssr:stedsnr" v="130015" />
		<tag k="ssr:type" v="tjern" />
	</node>
	<node lat="60.81750000245781" lon="10.162463886768661" id="-18317">
		<tag k="alt_name" v="Bergevatn" />
		<tag k="name" v="Bergevatnet" />
		<tag k="natural" v="water" />
		<tag k="ssr:date" v="2019-12-27" />
		<tag k="ssr:gruppe" v="stilleståendeVann" />
		<tag k="ssr:hovedgruppe" v="ferskvann" />
		<tag k="ssr:stedsnr" v="252536" />
		<tag k="ssr:type" v="tjern" />
	</node>
	<node lat="60.8337839720425" lon="9.748522268945935" id="-18318">
		<tag k="name" v="Etna" />
		<tag k="ssr:date" v="2021-05-05" />
		<tag k="ssr:gruppe" v="rennendeVann" />
		<tag k="ssr:hovedgruppe" v="ferskvann" />
		<tag k="ssr:stedsnr" v="130312" />
		<tag k="ssr:type" v="elv" />
		<tag k="waterway" v="river" />
	</node>
	<node lat="60.92536388707277" lon="10.117174991792192" id="-18319">
		<tag k="alt_name" v="Finstad" />
		<tag k="name" v="Finnstad" />
		<tag k="place" v="farm" />
		<tag k="ssr:date" v="2019-12-27" />
		<tag k="ssr:gruppe" v="gardsbebyggelse" />
		<tag k="ssr:hovedgruppe" v="bebyggelse" />
		<tag k="ssr:stedsnr" v="130393" />
		<tag k="ssr:type" v="bruk" />
	</node>
	<node lat="60.85287777547799" lon="10.026755554177287" id="-18320">
		<tag k="alt_name" v="Løvli" />
		<tag k="name" v="Lauvli" />
		<tag k="place" v="farm" />
		<tag k="ssr:date" v="2019-12-27" />
		<tag k="ssr:gruppe" v="gardsbebyggelse" />
		<tag k="ssr:hovedgruppe" v="bebyggelse" />
		<tag k="ssr:stedsnr" v="130518" />
		<tag k="ssr:type" v="bruk" />
	</node>
	<node lat="60.82278888952475" lon="10.063633329998167" id="-18321">
		<tag k="alt_name" v="Bjørke" />
		<tag k="name" v="Søndre Bjørke" />
		<tag k="place" v="farm" />
		<tag k="ssr:date" v="2019-12-27" />
		<tag k="ssr:gruppe" v="gardsbebyggelse" />
		<tag k="ssr:hovedgruppe" v="bebyggelse" />
		<tag k="ssr:stedsnr" v="252559" />
		<tag k="ssr:type" v="bruk" />
	</node>
	<node lat="60.98442500128534" lon="10.010808337780228" id="-18322">
		<tag k="name" v="Stormyra" />
		<tag k="natural" v="wetland" />
		<tag k="ssr:date" v="2019-12-27" />
		<tag k="ssr:gruppe" v="våtmark" />
		<tag k="ssr:hovedgruppe" v="markslag" />
		<tag k="ssr:stedsnr" v="130284" />
		<tag k="ssr:type" v="myr" />
	</node>
	<node lat="60.92162499977921" lon="10.0483166664581" id="-18323">
		<tag k="name" v="Flata" />
		<tag k="place" v="farm" />
		<tag k="ssr:date" v="2019-12-27" />
		<tag k="ssr:gruppe" v="gardsbebyggelse" />
		<tag k="ssr:hovedgruppe" v="bebyggelse" />
		<tag k="ssr:stedsnr" v="130416" />
		<tag k="ssr:type" v="bruk" />
	</node>
	<node lat="60.91428055258203" lon="10.138211107433806" id="-18324">
		<tag k="name" v="Tollbarberget" />
		<tag k="natural" v="hill" />
		<tag k="place" v="locality" />
		<tag k="ssr:date" v="2019-12-27" />
		<tag k="ssr:gruppe" v="høyder" />
		<tag k="ssr:hovedgruppe" v="terreng" />
		<tag k="ssr:stedsnr" v="130424" />
		<tag k="ssr:type" v="berg" />
	</node>
	<node lat="60.920813903386545" lon="10.074517530481746" id="-18325">
		<tag k="fixme" v="consider place=hamlet" />
		<tag k="name" v="Ommelstad" />
		<tag k="place" v="farm" />
		<tag k="ssr:date" v="2019-12-27" />
		<tag k="ssr:gruppe" v="gardsbebyggelse" />
		<tag k="ssr:hovedgruppe" v="bebyggelse" />
		<tag k="ssr:stedsnr" v="130428" />
		<tag k="ssr:type" v="gard" />
	</node>
	<node lat="60.84956666438046" lon="10.204130551006763" id="-18326">
		<tag k="name" v="Rudssætra" />
		<tag k="place" v="locality" />
		<tag k="ssr:date" v="2019-12-27" />
		<tag k="ssr:gruppe" v="gardsbebyggelse" />
		<tag k="ssr:hovedgruppe" v="bebyggelse" />
		<tag k="ssr:stedsnr" v="130483" />
		<tag k="ssr:type" v="eiendom" />
	</node>
	<node lat="60.84573889223248" lon="10.18419166768744" id="-18327">
		<tag k="amenity" v="place_of_worship" />
		<tag k="denomination" v="lutheran" />
		<tag k="name" v="Vølstad kirke" />
		<tag k="old_name" v="Vølstad kapell" />
		<tag k="religion" v="christian" />
		<tag k="ssr:date" v="2019-12-27" />
		<tag k="ssr:gruppe" v="kulturinstitusjoner" />
		<tag k="ssr:hovedgruppe" v="kultur" />
		<tag k="ssr:stedsnr" v="130486" />
		<tag k="ssr:type" v="kirke" />
	</node>
	<node lat="60.84778332984135" lon="10.122961114439764" id="-18328">
		<tag k="name" v="Tvillingputtane" />
		<tag k="natural" v="water" />
		<tag k="ssr:date" v="2019-12-27" />
		<tag k="ssr:gruppe" v="stilleståendeVann" />
		<tag k="ssr:hovedgruppe" v="ferskvann" />
		<tag k="ssr:stedsnr" v="130490" />
		<tag k="ssr:type" v="tjern" />
	</node>
	<node lat="60.787652316139464" lon="10.200027929386449" id="-18329">
		<tag k="alt_name" v="Røen, store;Store Røen" />
		<tag k="fixme" v="consider place=hamlet" />
		<tag k="name" v="Røen" />
		<tag k="place" v="farm" />
		<tag k="ssr:date" v="2021-03-23" />
		<tag k="ssr:gruppe" v="gardsbebyggelse" />
		<tag k="ssr:hovedgruppe" v="bebyggelse" />
		<tag k="ssr:stedsnr" v="130623" />
		<tag k="ssr:type" v="gard" />
	</node>
	<node lat="60.78507499631813" lon="10.039938884805066" id="-18330">
		<tag k="alt_name" v="Svartvatnet, nedre;Nedre Svartvatn" />
		<tag k="name" v="Nedre Svartvatnet" />
		<tag k="natural" v="water" />
		<tag k="ssr:date" v="2019-12-27" />
		<tag k="ssr:gruppe" v="stilleståendeVann" />
		<tag k="ssr:hovedgruppe" v="ferskvann" />
		<tag k="ssr:stedsnr" v="130626" />
		<tag k="ssr:type" v="vann" />
		<tag k="water" v="lake" />
	</node>
	<node lat="60.827777777969395" lon="10.046936120208107" id="-18331">
		<tag k="alt_name" v="Barsok" />
		<tag k="name" v="Barsåk" />
		<tag k="place" v="farm" />
		<tag k="ssr:date" v="2019-12-27" />
		<tag k="ssr:gruppe" v="gardsbebyggelse" />
		<tag k="ssr:hovedgruppe" v="bebyggelse" />
		<tag k="ssr:stedsnr" v="252575" />
		<tag k="ssr:type" v="bruk" />
	</node>
	<node lat="60.82921110976385" lon="10.018216659882528" id="-18332">
		<tag k="name" v="Stubberud" />
		<tag k="place" v="farm" />
		<tag k="ssr:date" v="2019-12-27" />
		<tag k="ssr:gruppe" v="gardsbebyggelse" />
		<tag k="ssr:hovedgruppe" v="bebyggelse" />
		<tag k="ssr:stedsnr" v="252577" />
		<tag k="ssr:type" v="bruk" />
	</node>
	<node lat="60.92452777441206" lon="9.882722223348496" id="-18333">
		<tag k="alt_name" v="Buvatn" />
		<tag k="name" v="Buvatnet" />
		<tag k="natural" v="water" />
		<tag k="ssr:date" v="2019-12-27" />
		<tag k="ssr:gruppe" v="stilleståendeVann" />
		<tag k="ssr:hovedgruppe" v="ferskvann" />
		<tag k="ssr:stedsnr" v="130883" />
		<tag k="ssr:type" v="tjern" />
	</node>
	<node lat="60.78944722518845" lon="10.190491663739431" id="-18334">
		<tag k="alt_name" v="Fredrikstuen" />
		<tag k="name" v="Fredriksstugua" />
		<tag k="place" v="farm" />
		<tag k="ssr:date" v="2019-12-27" />
		<tag k="ssr:gruppe" v="gardsbebyggelse" />
		<tag k="ssr:hovedgruppe" v="bebyggelse" />
		<tag k="ssr:stedsnr" v="252621" />
		<tag k="ssr:type" v="bruk" />
	</node>
	<node lat="60.79438610998303" lon="9.986319442279326" id="-18335">
		<tag k="alt_name" v="Rundtjern" />
		<tag k="name" v="Rundtjernet" />
		<tag k="natural" v="water" />
		<tag k="ssr:date" v="2019-12-27" />
		<tag k="ssr:gruppe" v="stilleståendeVann" />
		<tag k="ssr:hovedgruppe" v="ferskvann" />
		<tag k="ssr:stedsnr" v="252644" />
		<tag k="ssr:type" v="tjern" />
	</node>
	<node lat="60.809036106632" lon="10.015719447275673" id="-18336">
		<tag k="alt_name" v="Sverdslitjern" />
		<tag k="name" v="Sverslitjernet" />
		<tag k="natural" v="water" />
		<tag k="ssr:date" v="2019-12-27" />
		<tag k="ssr:gruppe" v="stilleståendeVann" />
		<tag k="ssr:hovedgruppe" v="ferskvann" />
		<tag k="ssr:stedsnr" v="131577" />
		<tag k="ssr:type" v="tjern" />
	</node>
	<node lat="60.81288055887387" lon="10.124980552701505" id="-18337">
		<tag k="name" v="Fremstad" />
		<tag k="place" v="farm" />
		<tag k="ssr:date" v="2019-12-27" />
		<tag k="ssr:gruppe" v="gardsbebyggelse" />
		<tag k="ssr:hovedgruppe" v="bebyggelse" />
		<tag k="ssr:stedsnr" v="131582" />
		<tag k="ssr:type" v="bruk" />
	</node>
	<node lat="60.75401111297476" lon="10.018402770577826" id="-18338">
		<tag k="alt_name" v="Halvorsmyrbergene" />
		<tag k="name" v="Hallvordsmyrberga" />
		<tag k="natural" v="hill" />
		<tag k="old_name" v="Halvordsmyrberga" />
		<tag k="place" v="locality" />
		<tag k="ssr:date" v="2019-12-27" />
		<tag k="ssr:gruppe" v="høyder" />
		<tag k="ssr:hovedgruppe" v="terreng" />
		<tag k="ssr:stedsnr" v="252709" />
		<tag k="ssr:type" v="berg" />
	</node>
	<node lat="60.76143055746532" lon="10.022802778262236" id="-18339">
		<tag k="alt_name" v="Nordre Høghaugpullen" />
		<tag k="name" v="Høghaugpullen" />
		<tag k="natural" v="water" />
		<tag k="ssr:date" v="2019-12-27" />
		<tag k="ssr:gruppe" v="stilleståendeVann" />
		<tag k="ssr:hovedgruppe" v="ferskvann" />
		<tag k="ssr:stedsnr" v="252711" />
		<tag k="ssr:type" v="tjern" />
	</node>
	<node lat="60.99786111406567" lon="9.82643611055561" id="-18340">
		<tag k="name" v="Bjørnhaugen" />
		<tag k="natural" v="hill" />
		<tag k="place" v="locality" />
		<tag k="ssr:date" v="2019-12-27" />
		<tag k="ssr:gruppe" v="høyder" />
		<tag k="ssr:hovedgruppe" v="terreng" />
		<tag k="ssr:stedsnr" v="252744" />
		<tag k="ssr:type" v="haug" />
	</node>
	<node lat="60.996947221037175" lon="9.937180562211523" id="-18341">
		<tag k="name" v="Livasselva" />
		<tag k="ssr:date" v="2019-12-27" />
		<tag k="ssr:gruppe" v="rennendeVann" />
		<tag k="ssr:hovedgruppe" v="ferskvann" />
		<tag k="ssr:stedsnr" v="252749" />
		<tag k="ssr:type" v="elv" />
		<tag k="waterway" v="river" />
	</node>
	<node lat="60.965036113825796" lon="9.945491669183044" id="-18342">
		<tag k="fixme" v="consider natural=peak for the most distinct mountains in the district" />
		<tag k="name" v="Veslhovde" />
		<tag k="natural" v="hill" />
		<tag k="place" v="locality" />
		<tag k="ssr:date" v="2019-12-27" />
		<tag k="ssr:gruppe" v="høyder" />
		<tag k="ssr:hovedgruppe" v="terreng" />
		<tag k="ssr:stedsnr" v="252939" />
		<tag k="ssr:type" v="ås" />
	</node>
	<node lat="60.96084721808001" lon="9.9086333379488" id="-18343">
		<tag k="name" v="Venhaugpullen" />
		<tag k="natural" v="water" />
		<tag k="ssr:date" v="2019-12-27" />
		<tag k="ssr:gruppe" v="stilleståendeVann" />
		<tag k="ssr:hovedgruppe" v="ferskvann" />
		<tag k="ssr:stedsnr" v="252893" />
		<tag k="ssr:type" v="tjern" />
	</node>
	<node lat="60.95566944104459" lon="9.891433330901936" id="-18344">
		<tag k="name" v="Holovatnet" />
		<tag k="natural" v="water" />
		<tag k="ssr:date" v="2019-12-27" />
		<tag k="ssr:gruppe" v="stilleståendeVann" />
		<tag k="ssr:hovedgruppe" v="ferskvann" />
		<tag k="ssr:stedsnr" v="252894" />
		<tag k="ssr:type" v="tjern" />
	</node>
	<node lat="60.95599722613291" lon="9.909555563652756" id="-18345">
		<tag k="fixme" v="multiple name tags, choose one and add the other to alt_name" />
		<tag k="historic" v="shieling" />
		<tag k="name" v="Holoa;Holosætra" />
		<tag k="place" v="isolated_dwelling" />
		<tag k="ssr:date" v="2021-06-08" />
		<tag k="ssr:gruppe" v="gardsbebyggelse" />
		<tag k="ssr:hovedgruppe" v="bebyggelse" />
		<tag k="ssr:stedsnr" v="252896" />
		<tag k="ssr:type" v="seterStøl" />
	</node>
	<node lat="60.98010555764322" lon="9.89521666367634" id="-18346">
		<tag k="name" v="Gjerddalstjernet" />
		<tag k="natural" v="water" />
		<tag k="ssr:date" v="2019-12-27" />
		<tag k="ssr:gruppe" v="stilleståendeVann" />
		<tag k="ssr:hovedgruppe" v="ferskvann" />
		<tag k="ssr:stedsnr" v="252987" />
		<tag k="ssr:type" v="tjern" />
	</node>
	<node lat="60.99597159961767" lon="9.962815254597226" id="-18347">
		<tag k="fixme" v="consider place=hamlet" />
		<tag k="name" v="Bjørke" />
		<tag k="place" v="farm" />
		<tag k="ssr:date" v="2019-12-27" />
		<tag k="ssr:gruppe" v="gardsbebyggelse" />
		<tag k="ssr:hovedgruppe" v="bebyggelse" />
		<tag k="ssr:stedsnr" v="252958" />
		<tag k="ssr:type" v="gard" />
	</node>
	<node lat="60.9286750003304" lon="10.0493083263254" id="-18348">
		<tag k="bridge" v="yes" />
		<tag k="layer" v="1" />
		<tag k="name" v="Lunde" />
		<tag k="ssr:date" v="2019-12-27" />
		<tag k="ssr:gruppe" v="samferdselsanlegg" />
		<tag k="ssr:hovedgruppe" v="infrastruktur" />
		<tag k="ssr:stedsnr" v="168175" />
		<tag k="ssr:type" v="bru" />
	</node>
	<node lat="60.87800000374702" lon="10.176969437083779" id="-18349">
		<tag k="name" v="Mårsjøbekken" />
		<tag k="ssr:date" v="2019-12-27" />
		<tag k="ssr:gruppe" v="rennendeVann" />
		<tag k="ssr:hovedgruppe" v="ferskvann" />
		<tag k="ssr:stedsnr" v="176212" />
		<tag k="ssr:type" v="bekk" />
		<tag k="waterway" v="stream" />
	</node>
	<node lat="60.828641663381475" lon="9.786025001308662" id="-18351">
		<tag k="name" v="Valdresstykkje" />
		<tag k="place" v="locality" />
		<tag k="ssr:date" v="2019-12-27" />
		<tag k="ssr:gruppe" v="dyrkamark" />
		<tag k="ssr:hovedgruppe" v="markslag" />
		<tag k="ssr:stedsnr" v="176512" />
		<tag k="ssr:type" v="jorde" />
	</node>
	<node lat="60.84611388832908" lon="9.820680551869142" id="-18353">
		<tag k="name" v="Nørstebøenbakkene" />
		<tag k="natural" v="slope" />
		<tag k="place" v="locality" />
		<tag k="ssr:date" v="2019-12-27" />
		<tag k="ssr:gruppe" v="skråninger" />
		<tag k="ssr:hovedgruppe" v="terreng" />
		<tag k="ssr:stedsnr" v="176569" />
		<tag k="ssr:type" v="bakke" />
	</node>
	<node lat="60.84647222004586" lon="9.77998610490878" id="-18354">
		<tag k="loc_name" v="Bjørnaskardvasshytta" />
		<tag k="name" v="Bjødnaskarvasshytta" />
		<tag k="place" v="locality" />
		<tag k="ssr:date" v="2021-05-31" />
		<tag k="ssr:gruppe" v="kulturminner" />
		<tag k="ssr:hovedgruppe" v="kultur" />
		<tag k="ssr:stedsnr" v="176573" />
		<tag k="ssr:type" v="annenKulturdetalj" />
	</node>
	<node lat="61.02879722196171" lon="10.174408330575098" id="-18355">
		<tag k="fixme" v="consider natural=peak for the most distinct mountains in the district" />
		<tag k="name" v="Møssmørbakken" />
		<tag k="natural" v="hill" />
		<tag k="place" v="locality" />
		<tag k="ssr:date" v="2019-12-27" />
		<tag k="ssr:gruppe" v="høyder" />
		<tag k="ssr:hovedgruppe" v="terreng" />
		<tag k="ssr:stedsnr" v="176968" />
		<tag k="ssr:type" v="ås" />
	</node>
	<node lat="60.88801944779538" lon="10.024788882104502" id="-18356">
		<tag k="name" v="Skolmåa" />
		<tag k="ssr:date" v="2019-12-27" />
		<tag k="ssr:gruppe" v="rennendeVann" />
		<tag k="ssr:hovedgruppe" v="ferskvann" />
		<tag k="ssr:stedsnr" v="178002" />
		<tag k="ssr:type" v="bekk" />
		<tag k="waterway" v="stream" />
	</node>
	<node lat="60.84927778139768" lon="10.18804166961194" id="-18357">
		<tag k="name" v="Røbergsæter" />
		<tag k="place" v="farm" />
		<tag k="ssr:date" v="2019-12-27" />
		<tag k="ssr:gruppe" v="gardsbebyggelse" />
		<tag k="ssr:hovedgruppe" v="bebyggelse" />
		<tag k="ssr:stedsnr" v="178077" />
		<tag k="ssr:type" v="bruk" />
	</node>
	<node lat="60.79496666333231" lon="10.002561106858847" id="-18358">
		<tag k="name" v="Langmyra" />
		<tag k="natural" v="wetland" />
		<tag k="ssr:date" v="2019-12-27" />
		<tag k="ssr:gruppe" v="våtmark" />
		<tag k="ssr:hovedgruppe" v="markslag" />
		<tag k="ssr:stedsnr" v="178406" />
		<tag k="ssr:type" v="myr" />
	</node>
	<node lat="60.916244440693326" lon="9.911427772588596" id="-18359">
		<tag k="name" v="Bjørnholtmyrene" />
		<tag k="natural" v="wetland" />
		<tag k="ssr:date" v="2019-12-27" />
		<tag k="ssr:gruppe" v="våtmark" />
		<tag k="ssr:hovedgruppe" v="markslag" />
		<tag k="ssr:stedsnr" v="178668" />
		<tag k="ssr:type" v="myr" />
	</node>
	<node lat="60.948027779078366" lon="9.956919447860884" id="-18360">
		<tag k="name" v="Dokken" />
		<tag k="place" v="farm" />
		<tag k="ssr:date" v="2019-12-27" />
		<tag k="ssr:gruppe" v="gardsbebyggelse" />
		<tag k="ssr:hovedgruppe" v="bebyggelse" />
		<tag k="ssr:stedsnr" v="178775" />
		<tag k="ssr:type" v="bruk" />
	</node>
	<node lat="60.93607777748969" lon="9.983244441839892" id="-18361">
		<tag k="name" v="Åsødegårdene" />
		<tag k="place" v="hamlet" />
		<tag k="ssr:date" v="2019-12-27" />
		<tag k="ssr:gruppe" v="bebyggelsesområder" />
		<tag k="ssr:hovedgruppe" v="bebyggelse" />
		<tag k="ssr:stedsnr" v="178777" />
		<tag k="ssr:type" v="grend" />
	</node>
	<node lat="60.85590555560374" lon="10.106925001205767" id="-18363">
		<tag k="name" v="Midtsvea" />
		<tag k="place" v="locality" />
		<tag k="ssr:date" v="2019-12-27" />
		<tag k="ssr:gruppe" v="bolighus" />
		<tag k="ssr:hovedgruppe" v="bebyggelse" />
		<tag k="ssr:stedsnr" v="179004" />
		<tag k="ssr:type" v="gammelBosettingsplass" />
	</node>
	<node lat="60.79907500360344" lon="9.86791110528888" id="-18364">
		<tag k="name" v="Ingebjørgheimen" />
		<tag k="place" v="locality" />
		<tag k="ssr:date" v="2019-12-27" />
		<tag k="ssr:gruppe" v="gardsbebyggelse" />
		<tag k="ssr:hovedgruppe" v="bebyggelse" />
		<tag k="ssr:stedsnr" v="179242" />
		<tag k="ssr:type" v="byggForJordbrukFiskeOgFangst" />
	</node>
	<node lat="60.79163611189966" lon="9.920927780714338" id="-18365">
		<tag k="name" v="Svartberget" />
		<tag k="natural" v="cliff" />
		<tag k="ssr:date" v="2019-12-27" />
		<tag k="ssr:gruppe" v="terrengdetaljer" />
		<tag k="ssr:hovedgruppe" v="terreng" />
		<tag k="ssr:stedsnr" v="179304" />
		<tag k="ssr:type" v="stup" />
	</node>
	<node lat="60.73640833273484" lon="10.029691674211595" id="-18366">
		<tag k="alt_name" v="Søndre Hovdevatn" />
		<tag k="loc_name" v="Søre Hovdevatnet" />
		<tag k="name" v="Søre Hovdevatn" />
		<tag k="natural" v="water" />
		<tag k="ssr:date" v="2019-12-27" />
		<tag k="ssr:gruppe" v="stilleståendeVann" />
		<tag k="ssr:hovedgruppe" v="ferskvann" />
		<tag k="ssr:stedsnr" v="179316" />
		<tag k="ssr:type" v="tjern" />
	</node>
	<node lat="61.103536109602224" lon="9.90876110601355" id="-18367">
		<tag k="name" v="Synndammen" />
		<tag k="place" v="locality" />
		<tag k="ssr:date" v="2019-12-27" />
		<tag k="ssr:gruppe" v="detaljerIFerskvann" />
		<tag k="ssr:hovedgruppe" v="ferskvann" />
		<tag k="ssr:stedsnr" v="179655" />
		<tag k="ssr:type" v="annenVanndetalj" />
	</node>
	<node lat="60.998305551864235" lon="10.06182499566595" id="-18368">
		<tag k="name" v="Åsletta" />
		<tag k="place" v="locality" />
		<tag k="ssr:date" v="2019-12-27" />
		<tag k="ssr:gruppe" v="terrengdetaljer" />
		<tag k="ssr:hovedgruppe" v="terreng" />
		<tag k="ssr:stedsnr" v="180003" />
		<tag k="ssr:type" v="annenTerrengdetalj" />
	</node>
	<node lat="60.909611108810964" lon="10.061897225235287" id="-18369">
		<tag k="fixme" v="consider highway=path" />
		<tag k="highway" v="track" />
		<tag k="name" v="Åbakkvegen" />
		<tag k="ssr:date" v="2019-12-27" />
		<tag k="ssr:gruppe" v="veg" />
		<tag k="ssr:hovedgruppe" v="infrastruktur" />
		<tag k="ssr:stedsnr" v="179922" />
		<tag k="ssr:type" v="traktorveg" />
	</node>
	<node lat="61.016888884937835" lon="9.928094446129005" id="-18370">
		<tag k="name" v="Sandbakken" />
		<tag k="place" v="farm" />
		<tag k="ssr:date" v="2019-12-27" />
		<tag k="ssr:gruppe" v="gardsbebyggelse" />
		<tag k="ssr:hovedgruppe" v="bebyggelse" />
		<tag k="ssr:stedsnr" v="188406" />
		<tag k="ssr:type" v="bruk" />
	</node>
	<node lat="61.10238611173874" lon="9.942952770259572" id="-18371">
		<tag k="fixme" v="consider natural=peak for the most distinct mountains in the district" />
		<tag k="name" v="Klemosæterhøgda" />
		<tag k="natural" v="hill" />
		<tag k="place" v="locality" />
		<tag k="ssr:date" v="2019-12-27" />
		<tag k="ssr:gruppe" v="høyder" />
		<tag k="ssr:hovedgruppe" v="terreng" />
		<tag k="ssr:stedsnr" v="189610" />
		<tag k="ssr:type" v="ås" />
	</node>
	<node lat="60.90106389119348" lon="9.942516664587616" id="-18372">
		<tag k="alt_name" v="Gjeitberget" />
		<tag k="fixme" v="consider natural=peak for the most distinct mountains in the district" />
		<tag k="name" v="Geitberget" />
		<tag k="natural" v="hill" />
		<tag k="place" v="locality" />
		<tag k="ssr:date" v="2019-12-27" />
		<tag k="ssr:gruppe" v="høyder" />
		<tag k="ssr:hovedgruppe" v="terreng" />
		<tag k="ssr:stedsnr" v="190086" />
		<tag k="ssr:type" v="ås" />
	</node>
	<node lat="60.940763891973816" lon="10.0063472199796" id="-18373">
		<tag k="name" v="Smedby" />
		<tag k="place" v="farm" />
		<tag k="ssr:date" v="2019-12-27" />
		<tag k="ssr:gruppe" v="gardsbebyggelse" />
		<tag k="ssr:hovedgruppe" v="bebyggelse" />
		<tag k="ssr:stedsnr" v="190304" />
		<tag k="ssr:type" v="bruk" />
	</node>
	<node lat="60.94102797834434" lon="10.123520166547092" id="-18374">
		<tag k="fixme" v="consider place=hamlet" />
		<tag k="name" v="Oppsal" />
		<tag k="place" v="farm" />
		<tag k="ssr:date" v="2019-12-27" />
		<tag k="ssr:gruppe" v="gardsbebyggelse" />
		<tag k="ssr:hovedgruppe" v="bebyggelse" />
		<tag k="ssr:stedsnr" v="190318" />
		<tag k="ssr:type" v="gard" />
	</node>
	<node lat="60.85791944447464" lon="9.886019437013116" id="-18375">
		<tag k="alt_name" v="Trolltjern" />
		<tag k="name" v="Trolltjernet" />
		<tag k="natural" v="water" />
		<tag k="ssr:date" v="2019-12-27" />
		<tag k="ssr:gruppe" v="stilleståendeVann" />
		<tag k="ssr:hovedgruppe" v="ferskvann" />
		<tag k="ssr:stedsnr" v="191003" />
		<tag k="ssr:type" v="tjern" />
	</node>
	<node lat="60.85994444678221" lon="9.846311116313053" id="-18376">
		<tag k="name" v="Gurihus" />
		<tag k="place" v="farm" />
		<tag k="ssr:date" v="2019-12-27" />
		<tag k="ssr:gruppe" v="gardsbebyggelse" />
		<tag k="ssr:hovedgruppe" v="bebyggelse" />
		<tag k="ssr:stedsnr" v="191005" />
		<tag k="ssr:type" v="bruk" />
	</node>
	<node lat="60.85852499560694" lon="9.790105555900944" id="-18377">
		<tag k="alt_name" v="Kjøotjednet" />
		<tag k="name" v="Kjøetjernet" />
		<tag k="natural" v="water" />
		<tag k="ssr:date" v="2019-12-27" />
		<tag k="ssr:gruppe" v="stilleståendeVann" />
		<tag k="ssr:hovedgruppe" v="ferskvann" />
		<tag k="ssr:stedsnr" v="191007" />
		<tag k="ssr:type" v="tjern" />
	</node>
	<node lat="60.865302219956796" lon="9.956377355717597" id="-18378">
		<tag k="alt_name" v="Bratterud" />
		<tag k="name" v="Brattrud" />
		<tag k="place" v="locality" />
		<tag k="ssr:date" v="2019-12-27" />
		<tag k="ssr:gruppe" v="gardsbebyggelse" />
		<tag k="ssr:hovedgruppe" v="bebyggelse" />
		<tag k="ssr:stedsnr" v="191011" />
		<tag k="ssr:type" v="eiendom" />
	</node>
	<node lat="60.8258027741374" lon="9.915602781680937" id="-18379">
		<tag k="alt_name" v="Løndalen" />
		<tag k="name" v="Lønndalen" />
		<tag k="place" v="farm" />
		<tag k="ssr:date" v="2019-12-27" />
		<tag k="ssr:gruppe" v="gardsbebyggelse" />
		<tag k="ssr:hovedgruppe" v="bebyggelse" />
		<tag k="ssr:stedsnr" v="191163" />
		<tag k="ssr:type" v="bruk" />
	</node>
	<node lat="60.829819441776415" lon="9.78747221786855" id="-18380">
		<tag k="name" v="Haugtun" />
		<tag k="place" v="isolated_dwelling" />
		<tag k="ssr:date" v="2019-12-27" />
		<tag k="ssr:gruppe" v="bolighus" />
		<tag k="ssr:hovedgruppe" v="bebyggelse" />
		<tag k="ssr:stedsnr" v="191179" />
		<tag k="ssr:type" v="eneboligMindreBoligbygg" />
	</node>
	<node lat="60.971605559242306" lon="10.179116674334225" id="-18381">
		<tag k="name" v="Bjørnmyra" />
		<tag k="natural" v="wetland" />
		<tag k="ssr:date" v="2019-12-27" />
		<tag k="ssr:gruppe" v="våtmark" />
		<tag k="ssr:hovedgruppe" v="markslag" />
		<tag k="ssr:stedsnr" v="191303" />
		<tag k="ssr:type" v="myr" />
	</node>
	<node lat="60.96477074147529" lon="10.131000600826424" id="-18382">
		<tag k="name" v="Berget" />
		<tag k="place" v="locality" />
		<tag k="ssr:date" v="2021-03-11" />
		<tag k="ssr:gruppe" v="gardsbebyggelse" />
		<tag k="ssr:hovedgruppe" v="bebyggelse" />
		<tag k="ssr:stedsnr" v="191313" />
		<tag k="ssr:type" v="byggForJordbrukFiskeOgFangst" />
	</node>
	<node lat="60.88517777463779" lon="10.00363889222992" id="-18383">
		<tag k="historic" v="shieling" />
		<tag k="name" v="Gladheim" />
		<tag k="place" v="isolated_dwelling" />
		<tag k="ssr:date" v="2019-12-27" />
		<tag k="ssr:gruppe" v="gardsbebyggelse" />
		<tag k="ssr:hovedgruppe" v="bebyggelse" />
		<tag k="ssr:stedsnr" v="191359" />
		<tag k="ssr:type" v="seterStøl" />
	</node>
	<node lat="60.81235277558898" lon="9.918197225315305" id="-18384">
		<tag k="fixme" v="consider place=hamlet" />
		<tag k="name" v="Åslibygda" />
		<tag k="place" v="village" />
		<tag k="ssr:date" v="2019-12-27" />
		<tag k="ssr:gruppe" v="bebyggelsesområder" />
		<tag k="ssr:hovedgruppe" v="bebyggelse" />
		<tag k="ssr:stedsnr" v="191210" />
		<tag k="ssr:type" v="bygdelagBygd" />
	</node>
	<node lat="60.816149303019536" lon="9.939623057970037" id="-18385">
		<tag k="alt_name" v="Kjenset" />
		<tag k="name" v="Øvre Kjendset" />
		<tag k="place" v="farm" />
		<tag k="ssr:date" v="2019-12-27" />
		<tag k="ssr:gruppe" v="gardsbebyggelse" />
		<tag k="ssr:hovedgruppe" v="bebyggelse" />
		<tag k="ssr:stedsnr" v="191212" />
		<tag k="ssr:type" v="bruk" />
	</node>
	<node lat="60.912777774583006" lon="10.198736118410931" id="-18386">
		<tag k="name" v="Hovdeputten" />
		<tag k="natural" v="water" />
		<tag k="ssr:date" v="2019-12-27" />
		<tag k="ssr:gruppe" v="stilleståendeVann" />
		<tag k="ssr:hovedgruppe" v="ferskvann" />
		<tag k="ssr:stedsnr" v="191459" />
		<tag k="ssr:type" v="tjern" />
	</node>
	<node lat="60.906561110517345" lon="10.007758333479355" id="-18387">
		<tag k="name" v="Dumberga" />
		<tag k="natural" v="hill" />
		<tag k="place" v="locality" />
		<tag k="ssr:date" v="2019-12-27" />
		<tag k="ssr:gruppe" v="høyder" />
		<tag k="ssr:hovedgruppe" v="terreng" />
		<tag k="ssr:stedsnr" v="191461" />
		<tag k="ssr:type" v="berg" />
	</node>
	<node lat="60.899224995673016" lon="10.098491675453293" id="-18388">
		<tag k="name" v="Skogpullen" />
		<tag k="natural" v="water" />
		<tag k="ssr:date" v="2019-12-27" />
		<tag k="ssr:gruppe" v="stilleståendeVann" />
		<tag k="ssr:hovedgruppe" v="ferskvann" />
		<tag k="ssr:stedsnr" v="191468" />
		<tag k="ssr:type" v="tjern" />
	</node>
	<node lat="60.78994166665571" lon="10.176108326827661" id="-18389">
		<tag k="alt_name" v="Mikkelstuen" />
		<tag k="name" v="Mikjelsstugua" />
		<tag k="place" v="farm" />
		<tag k="ssr:date" v="2019-12-27" />
		<tag k="ssr:gruppe" v="gardsbebyggelse" />
		<tag k="ssr:hovedgruppe" v="bebyggelse" />
		<tag k="ssr:stedsnr" v="191618" />
		<tag k="ssr:type" v="bruk" />
	</node>
	<node lat="60.750296063674654" lon="10.076665527616637" id="-18390">
		<tag k="name" v="Larsheimen" />
		<tag k="place" v="locality" />
		<tag k="ssr:date" v="2021-03-11" />
		<tag k="ssr:gruppe" v="bolighus" />
		<tag k="ssr:hovedgruppe" v="bebyggelse" />
		<tag k="ssr:stedsnr" v="191666" />
		<tag k="ssr:type" v="gammelBosettingsplass" />
	</node>
	<node lat="60.850900000032574" lon="10.103108328403138" id="-18391">
		<tag k="name" v="Haugerud" />
		<tag k="place" v="farm" />
		<tag k="ssr:date" v="2019-12-27" />
		<tag k="ssr:gruppe" v="gardsbebyggelse" />
		<tag k="ssr:hovedgruppe" v="bebyggelse" />
		<tag k="ssr:stedsnr" v="191506" />
		<tag k="ssr:type" v="bruk" />
	</node>
	<node lat="60.84939999758269" lon="10.002399996058223" id="-18392">
		<tag k="fixme" v="consider place=hamlet" />
		<tag k="name" v="Dælibygda" />
		<tag k="place" v="village" />
		<tag k="ssr:date" v="2019-12-27" />
		<tag k="ssr:gruppe" v="bebyggelsesområder" />
		<tag k="ssr:hovedgruppe" v="bebyggelse" />
		<tag k="ssr:stedsnr" v="191513" />
		<tag k="ssr:type" v="bygdelagBygd" />
	</node>
	<node lat="60.81099167059912" lon="9.971205560664519" id="-18393">
		<tag k="historic" v="shieling" />
		<tag k="name" v="Sjurshaugen" />
		<tag k="place" v="isolated_dwelling" />
		<tag k="ssr:date" v="2019-12-27" />
		<tag k="ssr:gruppe" v="gardsbebyggelse" />
		<tag k="ssr:hovedgruppe" v="bebyggelse" />
		<tag k="ssr:stedsnr" v="191549" />
		<tag k="ssr:type" v="seterStøl" />
	</node>
	<node lat="60.777002775241186" lon="10.076891670148427" id="-18394">
		<tag k="name" v="Flåmyrene" />
		<tag k="natural" v="wetland" />
		<tag k="ssr:date" v="2019-12-27" />
		<tag k="ssr:gruppe" v="våtmark" />
		<tag k="ssr:hovedgruppe" v="markslag" />
		<tag k="ssr:stedsnr" v="191601" />
		<tag k="ssr:type" v="myr" />
	</node>
	<node lat="60.997176187881145" lon="9.830979709888817" id="-18395">
		<tag k="alt_name" v="Jøranlisætrene" />
		<tag k="historic" v="shieling" />
		<tag k="name" v="Jøronlisætra" />
		<tag k="place" v="isolated_dwelling" />
		<tag k="ssr:date" v="2019-12-27" />
		<tag k="ssr:gruppe" v="gardsbebyggelse" />
		<tag k="ssr:hovedgruppe" v="bebyggelse" />
		<tag k="ssr:stedsnr" v="191722" />
		<tag k="ssr:type" v="seterStøl" />
	</node>
	<node lat="60.9903555573072" lon="9.779574994585769" id="-18396">
		<tag k="name" v="Kløvsteinbekken" />
		<tag k="ssr:date" v="2019-12-27" />
		<tag k="ssr:gruppe" v="rennendeVann" />
		<tag k="ssr:hovedgruppe" v="ferskvann" />
		<tag k="ssr:stedsnr" v="191725" />
		<tag k="ssr:type" v="bekk" />
		<tag k="waterway" v="stream" />
	</node>
	<node lat="60.950572226234826" lon="9.962755559923725" id="-18397">
		<tag k="alt_name" v="Skredderstuen" />
		<tag k="name" v="Skreddarstugu" />
		<tag k="place" v="farm" />
		<tag k="ssr:date" v="2019-12-27" />
		<tag k="ssr:gruppe" v="gardsbebyggelse" />
		<tag k="ssr:hovedgruppe" v="bebyggelse" />
		<tag k="ssr:stedsnr" v="191905" />
		<tag k="ssr:type" v="bruk" />
	</node>
	<node lat="60.73871388925201" lon="9.84018334076959" id="-18401">
		<tag k="name" v="Austmanli" />
		<tag k="place" v="isolated_dwelling" />
		<tag k="ssr:date" v="2019-12-27" />
		<tag k="ssr:gruppe" v="bolighus" />
		<tag k="ssr:hovedgruppe" v="bebyggelse" />
		<tag k="ssr:stedsnr" v="221520" />
		<tag k="ssr:type" v="fritidsbolig" />
	</node>
	<node lat="60.73858333199371" lon="9.835741663221773" id="-18402">
		<tag k="name" v="Korsika" />
		<tag k="place" v="islet" />
		<tag k="ssr:date" v="2019-12-27" />
		<tag k="ssr:gruppe" v="ferskvannskontur" />
		<tag k="ssr:hovedgruppe" v="ferskvann" />
		<tag k="ssr:stedsnr" v="221523" />
		<tag k="ssr:type" v="holme" />
	</node>
	<node lat="60.853769445752704" lon="9.890174991533964" id="-18403">
		<tag k="name" v="Nysvea" />
		<tag k="place" v="farm" />
		<tag k="ssr:date" v="2019-12-27" />
		<tag k="ssr:gruppe" v="gardsbebyggelse" />
		<tag k="ssr:hovedgruppe" v="bebyggelse" />
		<tag k="ssr:stedsnr" v="221915" />
		<tag k="ssr:type" v="bruk" />
	</node>
	<node lat="60.84961388834998" lon="9.928719436945197" id="-18405">
		<tag k="bridge" v="yes" />
		<tag k="layer" v="1" />
		<tag k="name" v="Kvernbekken" />
		<tag k="ssr:date" v="2019-12-27" />
		<tag k="ssr:gruppe" v="samferdselsanlegg" />
		<tag k="ssr:hovedgruppe" v="infrastruktur" />
		<tag k="ssr:stedsnr" v="228181" />
		<tag k="ssr:type" v="bru" />
	</node>
	<node lat="60.979813887815276" lon="10.16358332873252" id="-18406">
		<tag k="name" v="Raumyrpullen" />
		<tag k="natural" v="water" />
		<tag k="ssr:date" v="2019-12-27" />
		<tag k="ssr:gruppe" v="stilleståendeVann" />
		<tag k="ssr:hovedgruppe" v="ferskvann" />
		<tag k="ssr:stedsnr" v="236108" />
		<tag k="ssr:type" v="tjern" />
	</node>
	<node lat="61.04340833342308" lon="9.765341658499539" id="-18407">
		<tag k="name" v="Lundbekken" />
		<tag k="ssr:date" v="2019-12-27" />
		<tag k="ssr:gruppe" v="rennendeVann" />
		<tag k="ssr:hovedgruppe" v="ferskvann" />
		<tag k="ssr:stedsnr" v="236880" />
		<tag k="ssr:type" v="bekk" />
		<tag k="waterway" v="stream" />
	</node>
	<node lat="60.95291944062214" lon="9.82132500012375" id="-18408">
		<tag k="fixme" v="consider highway=path" />
		<tag k="highway" v="track" />
		<tag k="name" v="Øyangsvegen" />
		<tag k="ssr:date" v="2019-12-27" />
		<tag k="ssr:gruppe" v="veg" />
		<tag k="ssr:hovedgruppe" v="infrastruktur" />
		<tag k="ssr:stedsnr" v="236908" />
		<tag k="ssr:type" v="traktorveg" />
	</node>
	<node lat="61.105205555133885" lon="9.90780832926561" id="-18409">
		<tag k="name" v="Synna" />
		<tag k="ssr:date" v="2019-12-27" />
		<tag k="ssr:gruppe" v="rennendeVann" />
		<tag k="ssr:hovedgruppe" v="ferskvann" />
		<tag k="ssr:stedsnr" v="238081" />
		<tag k="ssr:type" v="elv" />
		<tag k="waterway" v="river" />
	</node>
	<node lat="60.79625277700864" lon="9.992824997736609" id="-18410">
		<tag k="name" v="Lustjern" />
		<tag k="natural" v="water" />
		<tag k="ssr:date" v="2019-12-27" />
		<tag k="ssr:gruppe" v="stilleståendeVann" />
		<tag k="ssr:hovedgruppe" v="ferskvann" />
		<tag k="ssr:stedsnr" v="238436" />
		<tag k="ssr:type" v="tjern" />
	</node>
	<node lat="60.983499996033515" lon="10.0399111053002" id="-18411">
		<tag k="name" v="Uksebekken" />
		<tag k="ssr:date" v="2019-12-27" />
		<tag k="ssr:gruppe" v="rennendeVann" />
		<tag k="ssr:hovedgruppe" v="ferskvann" />
		<tag k="ssr:stedsnr" v="238502" />
		<tag k="ssr:type" v="bekk" />
		<tag k="waterway" v="stream" />
	</node>
	<node lat="61.01748889173784" lon="9.925875005042068" id="-18414">
		<tag k="name" v="Liabygda" />
		<tag k="place" v="hamlet" />
		<tag k="ssr:date" v="2019-12-27" />
		<tag k="ssr:gruppe" v="bebyggelsesområder" />
		<tag k="ssr:hovedgruppe" v="bebyggelse" />
		<tag k="ssr:stedsnr" v="238631" />
		<tag k="ssr:type" v="grend" />
	</node>
	<node lat="60.94070555173412" lon="10.004499994643169" id="-18415">
		<tag k="name" v="Nordby" />
		<tag k="place" v="farm" />
		<tag k="ssr:date" v="2019-12-27" />
		<tag k="ssr:gruppe" v="gardsbebyggelse" />
		<tag k="ssr:hovedgruppe" v="bebyggelse" />
		<tag k="ssr:stedsnr" v="238780" />
		<tag k="ssr:type" v="bruk" />
	</node>
	<node lat="60.84738611097967" lon="10.179672224084328" id="-18416">
		<tag k="name" v="Holt" />
		<tag k="place" v="locality" />
		<tag k="ssr:date" v="2019-12-27" />
		<tag k="ssr:gruppe" v="gardsbebyggelse" />
		<tag k="ssr:hovedgruppe" v="bebyggelse" />
		<tag k="ssr:stedsnr" v="239088" />
		<tag k="ssr:type" v="eiendom" />
	</node>
	<node lat="60.7588249958364" lon="10.001505551104959" id="-18418">
		<tag k="name" v="Fleshytta" />
		<tag k="place" v="locality" />
		<tag k="ssr:date" v="2019-12-27" />
		<tag k="ssr:gruppe" v="gardsbebyggelse" />
		<tag k="ssr:hovedgruppe" v="bebyggelse" />
		<tag k="ssr:stedsnr" v="239600" />
		<tag k="ssr:type" v="byggForJordbrukFiskeOgFangst" />
	</node>
	<node lat="60.90327500311819" lon="9.882486110979025" id="-18419">
		<tag k="name" v="Rotvasslia" />
		<tag k="natural" v="slope" />
		<tag k="place" v="locality" />
		<tag k="ssr:date" v="2019-12-27" />
		<tag k="ssr:gruppe" v="skråninger" />
		<tag k="ssr:hovedgruppe" v="terreng" />
		<tag k="ssr:stedsnr" v="240011" />
		<tag k="ssr:type" v="li" />
	</node>
	<node lat="60.81534721781122" lon="9.946005550987573" id="-18420">
		<tag k="cemetery" v="grave" />
		<tag k="name" v="Åsli" />
		<tag k="place" v="locality" />
		<tag k="ssr:date" v="2019-12-27" />
		<tag k="ssr:gruppe" v="kulturinstitusjoner" />
		<tag k="ssr:hovedgruppe" v="kultur" />
		<tag k="ssr:stedsnr" v="240203" />
		<tag k="ssr:type" v="gravplass" />
	</node>
	<node lat="60.81705277427827" lon="10.045224990829963" id="-18423">
		<tag k="name" v="Bjørkelia" />
		<tag k="natural" v="slope" />
		<tag k="place" v="locality" />
		<tag k="ssr:date" v="2019-12-27" />
		<tag k="ssr:gruppe" v="skråninger" />
		<tag k="ssr:hovedgruppe" v="terreng" />
		<tag k="ssr:stedsnr" v="240216" />
		<tag k="ssr:type" v="li" />
	</node>
	<node lat="61.10855555317062" lon="9.771627783455745" id="-18424">
		<tag k="name" v="Hasabekken" />
		<tag k="ssr:date" v="2019-12-27" />
		<tag k="ssr:gruppe" v="rennendeVann" />
		<tag k="ssr:hovedgruppe" v="ferskvann" />
		<tag k="ssr:stedsnr" v="240280" />
		<tag k="ssr:type" v="bekk" />
		<tag k="waterway" v="stream" />
	</node>
	<node lat="60.86871111232845" lon="10.083447231192752" id="-18425">
		<tag k="name" v="Lusfjell" />
		<tag k="natural" v="hill" />
		<tag k="place" v="locality" />
		<tag k="ssr:date" v="2019-12-27" />
		<tag k="ssr:gruppe" v="høyder" />
		<tag k="ssr:hovedgruppe" v="terreng" />
		<tag k="ssr:stedsnr" v="240311" />
		<tag k="ssr:type" v="høyde" />
	</node>
	<node lat="61.02605555146907" lon="10.081425004334362" id="-18426">
		<tag k="name" v="Framnes" />
		<tag k="place" v="farm" />
		<tag k="ssr:date" v="2019-12-27" />
		<tag k="ssr:gruppe" v="gardsbebyggelse" />
		<tag k="ssr:hovedgruppe" v="bebyggelse" />
		<tag k="ssr:stedsnr" v="240329" />
		<tag k="ssr:type" v="bruk" />
	</node>
	<node lat="60.746627782227755" lon="10.041061113754706" id="-18427">
		<tag k="name" v="Øyvasslia" />
		<tag k="natural" v="slope" />
		<tag k="place" v="locality" />
		<tag k="ssr:date" v="2019-12-27" />
		<tag k="ssr:gruppe" v="skråninger" />
		<tag k="ssr:hovedgruppe" v="terreng" />
		<tag k="ssr:stedsnr" v="240332" />
		<tag k="ssr:type" v="li" />
	</node>
	<node lat="60.73841388623364" lon="10.030194453280698" id="-18428">
		<tag k="loc_name" v="Nordre Hovdevatnet" />
		<tag k="name" v="Nordre Hovdevatn" />
		<tag k="natural" v="water" />
		<tag k="ssr:date" v="2019-12-27" />
		<tag k="ssr:gruppe" v="stilleståendeVann" />
		<tag k="ssr:hovedgruppe" v="ferskvann" />
		<tag k="ssr:stedsnr" v="240337" />
		<tag k="ssr:type" v="tjern" />
	</node>
	<node lat="61.018580552233566" lon="10.087591658503655" id="-18429">
		<tag k="name" v="Tangen" />
		<tag k="place" v="farm" />
		<tag k="ssr:date" v="2019-12-27" />
		<tag k="ssr:gruppe" v="gardsbebyggelse" />
		<tag k="ssr:hovedgruppe" v="bebyggelse" />
		<tag k="ssr:stedsnr" v="249201" />
		<tag k="ssr:type" v="bruk" />
	</node>
	<node lat="60.94381944381419" lon="9.916125000116114" id="-18430">
		<tag k="alt_name" v="Dugurdshaugen" />
		<tag k="fixme" v="consider natural=peak for the most distinct mountains in the district" />
		<tag k="name" v="Dugurdshøgda" />
		<tag k="natural" v="hill" />
		<tag k="place" v="locality" />
		<tag k="ssr:date" v="2019-12-27" />
		<tag k="ssr:gruppe" v="høyder" />
		<tag k="ssr:hovedgruppe" v="terreng" />
		<tag k="ssr:stedsnr" v="252906" />
		<tag k="ssr:type" v="ås" />
	</node>
	<node lat="60.97306944461469" lon="9.95933332945751" id="-18431">
		<tag k="name" v="Medvatnet" />
		<tag k="natural" v="water" />
		<tag k="ssr:date" v="2019-12-27" />
		<tag k="ssr:gruppe" v="stilleståendeVann" />
		<tag k="ssr:hovedgruppe" v="ferskvann" />
		<tag k="ssr:stedsnr" v="252923" />
		<tag k="ssr:type" v="tjern" />
	</node>
	<node lat="60.76190555377893" lon="10.078152780352921" id="-18432">
		<tag k="name" v="Hølbekklia" />
		<tag k="natural" v="slope" />
		<tag k="place" v="locality" />
		<tag k="ssr:date" v="2019-12-27" />
		<tag k="ssr:gruppe" v="skråninger" />
		<tag k="ssr:hovedgruppe" v="terreng" />
		<tag k="ssr:stedsnr" v="255315" />
		<tag k="ssr:type" v="li" />
	</node>
	<node lat="61.11857949450442" lon="9.741772302030096" id="-18433">
		<tag k="name" v="Ongletjerna" />
		<tag k="natural" v="water" />
		<tag k="ssr:date" v="2019-12-27" />
		<tag k="ssr:gruppe" v="stilleståendeVann" />
		<tag k="ssr:hovedgruppe" v="ferskvann" />
		<tag k="ssr:stedsnr" v="267825" />
		<tag k="ssr:type" v="vann" />
		<tag k="water" v="lake" />
	</node>
	<node lat="60.79011110707853" lon="10.070908332256938" id="-18434">
		<tag k="name" v="Hansketjern" />
		<tag k="natural" v="water" />
		<tag k="ssr:date" v="2019-12-27" />
		<tag k="ssr:gruppe" v="stilleståendeVann" />
		<tag k="ssr:hovedgruppe" v="ferskvann" />
		<tag k="ssr:stedsnr" v="282625" />
		<tag k="ssr:type" v="tjern" />
	</node>
	<node lat="60.96194722395279" lon="9.833711104658617" id="-18435">
		<tag k="name" v="Røyskatthovde" />
		<tag k="natural" v="hill" />
		<tag k="place" v="locality" />
		<tag k="ssr:date" v="2019-12-27" />
		<tag k="ssr:gruppe" v="høyder" />
		<tag k="ssr:hovedgruppe" v="terreng" />
		<tag k="ssr:stedsnr" v="282691" />
		<tag k="ssr:type" v="høyde" />
	</node>
	<node lat="61.03339999586135" lon="9.835955556480314" id="-18436">
		<tag k="name" v="Hugulia" />
		<tag k="ssr:date" v="2019-12-27" />
		<tag k="ssr:gruppe" v="næring" />
		<tag k="ssr:hovedgruppe" v="bebyggelse" />
		<tag k="ssr:stedsnr" v="282918" />
		<tag k="ssr:type" v="pensjonat" />
		<tag k="tourism" v="guest_house" />
	</node>
	<node lat="61.00030555210644" lon="10.00317778367404" id="-18437">
		<tag k="bridge" v="yes" />
		<tag k="layer" v="1" />
		<tag k="name" v="Synna" />
		<tag k="ssr:date" v="2019-12-27" />
		<tag k="ssr:gruppe" v="samferdselsanlegg" />
		<tag k="ssr:hovedgruppe" v="infrastruktur" />
		<tag k="ssr:stedsnr" v="289109" />
		<tag k="ssr:type" v="bru" />
	</node>
	<node lat="60.962602781185396" lon="10.01182222629226" id="-18439">
		<tag k="name" v="Nordre Ullsak" />
		<tag k="place" v="farm" />
		<tag k="ssr:date" v="2019-12-27" />
		<tag k="ssr:gruppe" v="gardsbebyggelse" />
		<tag k="ssr:hovedgruppe" v="bebyggelse" />
		<tag k="ssr:stedsnr" v="299278" />
		<tag k="ssr:type" v="bruk" />
	</node>
	<node lat="61.033680558229065" lon="9.894452770426492" id="-18440">
		<tag k="name" v="Øvre Karusstjern" />
		<tag k="natural" v="water" />
		<tag k="ssr:date" v="2019-12-27" />
		<tag k="ssr:gruppe" v="stilleståendeVann" />
		<tag k="ssr:hovedgruppe" v="ferskvann" />
		<tag k="ssr:stedsnr" v="299632" />
		<tag k="ssr:type" v="tjern" />
	</node>
	<node lat="60.87868055110713" lon="9.948672228128396" id="-18441">
		<tag k="alt_name" v="Søndre Øyvatn" />
		<tag k="name" v="Søre Øyvatn" />
		<tag k="natural" v="water" />
		<tag k="ssr:date" v="2019-12-27" />
		<tag k="ssr:gruppe" v="stilleståendeVann" />
		<tag k="ssr:hovedgruppe" v="ferskvann" />
		<tag k="ssr:stedsnr" v="299904" />
		<tag k="ssr:type" v="tjern" />
	</node>
	<node lat="60.841261113323654" lon="10.151736114905425" id="-18442">
		<tag k="name" v="Ødegården" />
		<tag k="place" v="farm" />
		<tag k="ssr:date" v="2019-12-27" />
		<tag k="ssr:gruppe" v="gardsbebyggelse" />
		<tag k="ssr:hovedgruppe" v="bebyggelse" />
		<tag k="ssr:stedsnr" v="299993" />
		<tag k="ssr:type" v="bruk" />
	</node>
	<node lat="60.916991671117266" lon="10.110850006903151" id="-18443">
		<tag k="name" v="Bordbakken" />
		<tag k="place" v="locality" />
		<tag k="ssr:date" v="2019-12-27" />
		<tag k="ssr:gruppe" v="bolighus" />
		<tag k="ssr:hovedgruppe" v="bebyggelse" />
		<tag k="ssr:stedsnr" v="300137" />
		<tag k="ssr:type" v="gammelBosettingsplass" />
	</node>
	<node lat="60.97504166385002" lon="10.115202773950314" id="-18444">
		<tag k="fixme" v="multiple name tags, choose one and add the other to alt_name" />
		<tag k="name" v="Parthaugen;Skogli" />
		<tag k="place" v="isolated_dwelling" />
		<tag k="ssr:date" v="2019-12-27" />
		<tag k="ssr:gruppe" v="bolighus" />
		<tag k="ssr:hovedgruppe" v="bebyggelse" />
		<tag k="ssr:stedsnr" v="300012" />
		<tag k="ssr:type" v="eneboligMindreBoligbygg" />
	</node>
	<node lat="60.95605833245699" lon="9.85636110277404" id="-18448">
		<tag k="name" v="Katthugu" />
		<tag k="natural" v="hill" />
		<tag k="place" v="locality" />
		<tag k="ssr:date" v="2019-12-27" />
		<tag k="ssr:gruppe" v="høyder" />
		<tag k="ssr:hovedgruppe" v="terreng" />
		<tag k="ssr:stedsnr" v="463713" />
		<tag k="ssr:type" v="haug" />
	</node>
	<node lat="60.83051666505532" lon="10.010716663915185" id="-18449">
		<tag k="alt_name" v="Søndre Bardalen" />
		<tag k="name" v="Søre Bardalen" />
		<tag k="place" v="farm" />
		<tag k="ssr:date" v="2019-12-27" />
		<tag k="ssr:gruppe" v="gardsbebyggelse" />
		<tag k="ssr:hovedgruppe" v="bebyggelse" />
		<tag k="ssr:stedsnr" v="301656" />
		<tag k="ssr:type" v="bruk" />
	</node>
	<node lat="60.86013714176839" lon="9.998806496399208" id="-18451">
		<tag k="fixme" v="consider place=hamlet" />
		<tag k="name" v="Øvre Tyndrum" />
		<tag k="place" v="farm" />
		<tag k="ssr:date" v="2019-12-27" />
		<tag k="ssr:gruppe" v="gardsbebyggelse" />
		<tag k="ssr:hovedgruppe" v="bebyggelse" />
		<tag k="ssr:stedsnr" v="303535" />
		<tag k="ssr:type" v="gard" />
	</node>
	<node lat="60.77068611522529" lon="9.837827777047327" id="-18452">
		<tag k="name" v="Blautmyrputten" />
		<tag k="natural" v="water" />
		<tag k="ssr:date" v="2019-12-27" />
		<tag k="ssr:gruppe" v="stilleståendeVann" />
		<tag k="ssr:hovedgruppe" v="ferskvann" />
		<tag k="ssr:stedsnr" v="464495" />
		<tag k="ssr:type" v="tjern" />
	</node>
	<node lat="61.026583337571566" lon="9.875969451009421" id="-18453">
		<tag k="amenity" v="community_centre" />
		<tag k="name" v="Dal" />
		<tag k="ssr:date" v="2019-12-27" />
		<tag k="ssr:gruppe" v="kulturinstitusjoner" />
		<tag k="ssr:hovedgruppe" v="kultur" />
		<tag k="ssr:stedsnr" v="464929" />
		<tag k="ssr:type" v="forsamlingshusKulturhus" />
	</node>
	<node lat="60.940466670757814" lon="10.118072230192828" id="-18455">
		<tag k="name" v="Nordre Finni" />
		<tag k="place" v="farm" />
		<tag k="ssr:date" v="2019-12-27" />
		<tag k="ssr:gruppe" v="gardsbebyggelse" />
		<tag k="ssr:hovedgruppe" v="bebyggelse" />
		<tag k="ssr:stedsnr" v="465139" />
		<tag k="ssr:type" v="bruk" />
	</node>
	<node lat="60.85159722593887" lon="10.134697224720393" id="-18456">
		<tag k="name" v="Kvernhusmyra" />
		<tag k="natural" v="wetland" />
		<tag k="ssr:date" v="2019-12-27" />
		<tag k="ssr:gruppe" v="våtmark" />
		<tag k="ssr:hovedgruppe" v="markslag" />
		<tag k="ssr:stedsnr" v="308057" />
		<tag k="ssr:type" v="myr" />
	</node>
	<node lat="61.06849444180593" lon="9.977988880653447" id="-18457">
		<tag k="historic" v="shieling" />
		<tag k="name" v="Øytjernssætra" />
		<tag k="place" v="isolated_dwelling" />
		<tag k="ssr:date" v="2019-12-27" />
		<tag k="ssr:gruppe" v="gardsbebyggelse" />
		<tag k="ssr:hovedgruppe" v="bebyggelse" />
		<tag k="ssr:stedsnr" v="310031" />
		<tag k="ssr:type" v="seterStøl" />
	</node>
	<node lat="61.07621111037205" lon="10.081355553536332" id="-18458">
		<tag k="alt_name" v="Skartlidekken" />
		<tag k="historic" v="shieling" />
		<tag k="name" v="Dekken" />
		<tag k="place" v="isolated_dwelling" />
		<tag k="ssr:date" v="2019-12-27" />
		<tag k="ssr:gruppe" v="gardsbebyggelse" />
		<tag k="ssr:hovedgruppe" v="bebyggelse" />
		<tag k="ssr:stedsnr" v="310035" />
		<tag k="ssr:type" v="seterStøl" />
	</node>
	<node lat="61.02054444873605" lon="10.087786113332722" id="-18459">
		<tag k="alt_name" v="Tangvold" />
		<tag k="name" v="Tangvoll" />
		<tag k="place" v="farm" />
		<tag k="ssr:date" v="2019-12-27" />
		<tag k="ssr:gruppe" v="gardsbebyggelse" />
		<tag k="ssr:hovedgruppe" v="bebyggelse" />
		<tag k="ssr:stedsnr" v="310209" />
		<tag k="ssr:type" v="bruk" />
	</node>
	<node lat="61.0317250006756" lon="10.0408055643637" id="-18460">
		<tag k="name" v="Bjørnerud" />
		<tag k="place" v="farm" />
		<tag k="ssr:date" v="2019-12-27" />
		<tag k="ssr:gruppe" v="gardsbebyggelse" />
		<tag k="ssr:hovedgruppe" v="bebyggelse" />
		<tag k="ssr:stedsnr" v="310199" />
		<tag k="ssr:type" v="bruk" />
	</node>
	<node lat="61.0166361110021" lon="10.007305550326317" id="-18461">
		<tag k="name" v="Haug" />
		<tag k="place" v="farm" />
		<tag k="ssr:date" v="2019-12-27" />
		<tag k="ssr:gruppe" v="gardsbebyggelse" />
		<tag k="ssr:hovedgruppe" v="bebyggelse" />
		<tag k="ssr:stedsnr" v="310200" />
		<tag k="ssr:type" v="bruk" />
	</node>
	<node lat="61.029622225421754" lon="9.84151943544921" id="-18462">
		<tag k="name" v="Lyseng" />
		<tag k="place" v="farm" />
		<tag k="ssr:date" v="2019-12-27" />
		<tag k="ssr:gruppe" v="gardsbebyggelse" />
		<tag k="ssr:hovedgruppe" v="bebyggelse" />
		<tag k="ssr:stedsnr" v="310328" />
		<tag k="ssr:type" v="bruk" />
	</node>
	<node lat="61.0227999995309" lon="9.891797223310283" id="-18463">
		<tag k="name" v="Lysbakken" />
		<tag k="place" v="farm" />
		<tag k="ssr:date" v="2019-12-27" />
		<tag k="ssr:gruppe" v="gardsbebyggelse" />
		<tag k="ssr:hovedgruppe" v="bebyggelse" />
		<tag k="ssr:stedsnr" v="310381" />
		<tag k="ssr:type" v="bruk" />
	</node>
	<node lat="60.88715277877696" lon="9.930202775358534" id="-18464">
		<tag k="name" v="Rokotoa" />
		<tag k="natural" v="water" />
		<tag k="ssr:date" v="2019-12-27" />
		<tag k="ssr:gruppe" v="stilleståendeVann" />
		<tag k="ssr:hovedgruppe" v="ferskvann" />
		<tag k="ssr:stedsnr" v="311129" />
		<tag k="ssr:type" v="tjern" />
	</node>
	<node lat="61.00304999783221" lon="10.021724996213905" id="-18465">
		<tag k="name" v="Nordre Klemoen" />
		<tag k="place" v="farm" />
		<tag k="ssr:date" v="2019-12-27" />
		<tag k="ssr:gruppe" v="gardsbebyggelse" />
		<tag k="ssr:hovedgruppe" v="bebyggelse" />
		<tag k="ssr:stedsnr" v="311313" />
		<tag k="ssr:type" v="bruk" />
	</node>
	<node lat="61.0016166650187" lon="10.036619443915795" id="-18466">
		<tag k="name" v="Gladbakken" />
		<tag k="place" v="farm" />
		<tag k="ssr:date" v="2019-12-27" />
		<tag k="ssr:gruppe" v="gardsbebyggelse" />
		<tag k="ssr:hovedgruppe" v="bebyggelse" />
		<tag k="ssr:stedsnr" v="311315" />
		<tag k="ssr:type" v="bruk" />
	</node>
	<node lat="61.00048333679934" lon="10.041502781739142" id="-18467">
		<tag k="name" v="Rognstad" />
		<tag k="place" v="farm" />
		<tag k="ssr:date" v="2019-12-27" />
		<tag k="ssr:gruppe" v="gardsbebyggelse" />
		<tag k="ssr:hovedgruppe" v="bebyggelse" />
		<tag k="ssr:stedsnr" v="311317" />
		<tag k="ssr:type" v="bruk" />
	</node>
	<node lat="61.012652775990546" lon="9.996261117087725" id="-18468">
		<tag k="alt_name" v="Brattlia, s;Søndre Brattlia" />
		<tag k="name" v="Søre Brattlia" />
		<tag k="place" v="farm" />
		<tag k="ssr:date" v="2019-12-27" />
		<tag k="ssr:gruppe" v="gardsbebyggelse" />
		<tag k="ssr:hovedgruppe" v="bebyggelse" />
		<tag k="ssr:stedsnr" v="311275" />
		<tag k="ssr:type" v="bruk" />
	</node>
	<node lat="61.016341668717814" lon="10.206100007035758" id="-18469">
		<tag k="name" v="Svarthaugen" />
		<tag k="natural" v="hill" />
		<tag k="place" v="locality" />
		<tag k="ssr:date" v="2019-12-27" />
		<tag k="ssr:gruppe" v="høyder" />
		<tag k="ssr:hovedgruppe" v="terreng" />
		<tag k="ssr:stedsnr" v="311277" />
		<tag k="ssr:type" v="haug" />
	</node>
	<node lat="61.10447777582154" lon="9.816219435157553" id="-18470">
		<tag k="name" v="Lønvatnet" />
		<tag k="natural" v="water" />
		<tag k="ssr:date" v="2019-12-27" />
		<tag k="ssr:gruppe" v="stilleståendeVann" />
		<tag k="ssr:hovedgruppe" v="ferskvann" />
		<tag k="ssr:stedsnr" v="311706" />
		<tag k="ssr:type" v="tjern" />
	</node>
	<node lat="61.09282221803614" lon="9.764236111732801" id="-18471">
		<tag k="name" v="Hasabekken" />
		<tag k="ssr:date" v="2019-12-27" />
		<tag k="ssr:gruppe" v="rennendeVann" />
		<tag k="ssr:hovedgruppe" v="ferskvann" />
		<tag k="ssr:stedsnr" v="311716" />
		<tag k="ssr:type" v="bekk" />
		<tag k="waterway" v="stream" />
	</node>
	<node lat="60.86540000278184" lon="9.988800001714791" id="-18472">
		<tag k="alt_name" v="Stensrudtjern" />
		<tag k="name" v="Steinsrudtjernet" />
		<tag k="natural" v="water" />
		<tag k="ssr:date" v="2019-12-27" />
		<tag k="ssr:gruppe" v="stilleståendeVann" />
		<tag k="ssr:hovedgruppe" v="ferskvann" />
		<tag k="ssr:stedsnr" v="311477" />
		<tag k="ssr:type" v="tjern" />
	</node>
	<node lat="61.066644445949876" lon="9.818933333709534" id="-18473">
		<tag k="name" v="Høgkampvatnet" />
		<tag k="natural" v="water" />
		<tag k="ssr:date" v="2019-12-27" />
		<tag k="ssr:gruppe" v="stilleståendeVann" />
		<tag k="ssr:hovedgruppe" v="ferskvann" />
		<tag k="ssr:stedsnr" v="311675" />
		<tag k="ssr:type" v="tjern" />
	</node>
	<node lat="60.860327779083306" lon="9.80252500745416" id="-18474">
		<tag k="historic" v="shieling" />
		<tag k="name" v="Stuvesætra" />
		<tag k="place" v="isolated_dwelling" />
		<tag k="ssr:date" v="2019-12-27" />
		<tag k="ssr:gruppe" v="gardsbebyggelse" />
		<tag k="ssr:hovedgruppe" v="bebyggelse" />
		<tag k="ssr:stedsnr" v="312011" />
		<tag k="ssr:type" v="seterStøl" />
	</node>
	<node lat="60.82822777409027" lon="9.810383339690999" id="-18475">
		<tag k="name" v="Brusvea" />
		<tag k="place" v="farm" />
		<tag k="ssr:date" v="2019-12-27" />
		<tag k="ssr:gruppe" v="gardsbebyggelse" />
		<tag k="ssr:hovedgruppe" v="bebyggelse" />
		<tag k="ssr:stedsnr" v="312204" />
		<tag k="ssr:type" v="bruk" />
	</node>
	<node lat="60.829052781821964" lon="9.942694437980187" id="-18476">
		<tag k="alt_name" v="Håjordet" />
		<tag k="name" v="Nedre Ulvshusli" />
		<tag k="place" v="farm" />
		<tag k="ssr:date" v="2019-12-27" />
		<tag k="ssr:gruppe" v="gardsbebyggelse" />
		<tag k="ssr:hovedgruppe" v="bebyggelse" />
		<tag k="ssr:stedsnr" v="312208" />
		<tag k="ssr:type" v="bruk" />
	</node>
	<node lat="60.947800003818706" lon="10.074152778752925" id="-18477">
		<tag k="alt_name" v="Fjellvinn" />
		<tag k="name" v="Fjellvin" />
		<tag k="place" v="farm" />
		<tag k="ssr:date" v="2019-12-27" />
		<tag k="ssr:gruppe" v="gardsbebyggelse" />
		<tag k="ssr:hovedgruppe" v="bebyggelse" />
		<tag k="ssr:stedsnr" v="312266" />
		<tag k="ssr:type" v="bruk" />
	</node>
	<node lat="60.943405555784686" lon="10.086058325339335" id="-18478">
		<tag k="alt_name" v="Kjelbergsengen" />
		<tag k="name" v="Kjeldbergsenga" />
		<tag k="place" v="farm" />
		<tag k="ssr:date" v="2019-12-27" />
		<tag k="ssr:gruppe" v="gardsbebyggelse" />
		<tag k="ssr:hovedgruppe" v="bebyggelse" />
		<tag k="ssr:stedsnr" v="312268" />
		<tag k="ssr:type" v="bruk" />
	</node>
	<node lat="60.98966944674394" lon="10.040944444617677" id="-18479">
		<tag k="alt_name" v="Vestum" />
		<tag k="name" v="Vestom" />
		<tag k="place" v="farm" />
		<tag k="ssr:date" v="2019-12-27" />
		<tag k="ssr:gruppe" v="gardsbebyggelse" />
		<tag k="ssr:hovedgruppe" v="bebyggelse" />
		<tag k="ssr:stedsnr" v="312310" />
		<tag k="ssr:type" v="bruk" />
	</node>
	<node lat="60.98685555673797" lon="10.073347216286036" id="-18480">
		<tag k="name" v="Berget" />
		<tag k="place" v="farm" />
		<tag k="ssr:date" v="2019-12-27" />
		<tag k="ssr:gruppe" v="gardsbebyggelse" />
		<tag k="ssr:hovedgruppe" v="bebyggelse" />
		<tag k="ssr:stedsnr" v="312313" />
		<tag k="ssr:type" v="bruk" />
	</node>
	<node lat="60.99359167074043" lon="10.109230547746044" id="-18481">
		<tag k="name" v="Flågån" />
		<tag k="natural" v="wetland" />
		<tag k="ssr:date" v="2019-12-27" />
		<tag k="ssr:gruppe" v="våtmark" />
		<tag k="ssr:hovedgruppe" v="markslag" />
		<tag k="ssr:stedsnr" v="312318" />
		<tag k="ssr:type" v="myr" />
	</node>
	<node lat="60.879275000747405" lon="9.987352786152453" id="-18482">
		<tag k="alt_name" v="Vangsjøhøgda" />
		<tag k="fixme" v="consider natural=peak for the most distinct mountains in the district" />
		<tag k="name" v="Vangsjøknatten" />
		<tag k="natural" v="hill" />
		<tag k="place" v="locality" />
		<tag k="ssr:date" v="2019-12-27" />
		<tag k="ssr:gruppe" v="høyder" />
		<tag k="ssr:hovedgruppe" v="terreng" />
		<tag k="ssr:stedsnr" v="312371" />
		<tag k="ssr:type" v="ås" />
	</node>
	<node lat="60.87966388935892" lon="10.119997216284684" id="-18483">
		<tag k="name" v="Skålmyra" />
		<tag k="natural" v="wetland" />
		<tag k="ssr:date" v="2019-12-27" />
		<tag k="ssr:gruppe" v="våtmark" />
		<tag k="ssr:hovedgruppe" v="markslag" />
		<tag k="ssr:stedsnr" v="312385" />
		<tag k="ssr:type" v="myr" />
	</node>
	<node lat="60.837052776546145" lon="10.021280559877841" id="-18484">
		<tag k="alt_name" v="Kolterud" />
		<tag k="name" v="Nordre Kolterud" />
		<tag k="place" v="farm" />
		<tag k="ssr:date" v="2019-12-27" />
		<tag k="ssr:gruppe" v="gardsbebyggelse" />
		<tag k="ssr:hovedgruppe" v="bebyggelse" />
		<tag k="ssr:stedsnr" v="312504" />
		<tag k="ssr:type" v="bruk" />
	</node>
	<node lat="60.929441665926475" lon="9.818741668601938" id="-18485">
		<tag k="alt_name" v="Livatnet, vesle;Vesle Livatn" />
		<tag k="name" v="Vesle Livatnet" />
		<tag k="natural" v="water" />
		<tag k="ssr:date" v="2019-12-27" />
		<tag k="ssr:gruppe" v="stilleståendeVann" />
		<tag k="ssr:hovedgruppe" v="ferskvann" />
		<tag k="ssr:stedsnr" v="312870" />
		<tag k="ssr:type" v="tjern" />
	</node>
	<node lat="60.98142222073563" lon="10.078966661430435" id="-18486">
		<tag k="name" v="Mo" />
		<tag k="place" v="farm" />
		<tag k="ssr:date" v="2019-12-27" />
		<tag k="ssr:gruppe" v="gardsbebyggelse" />
		<tag k="ssr:hovedgruppe" v="bebyggelse" />
		<tag k="ssr:stedsnr" v="313313" />
		<tag k="ssr:type" v="bruk" />
	</node>
	<node lat="60.85828611373518" lon="10.226016658320546" id="-18487">
		<tag k="name" v="Brattelva" />
		<tag k="ssr:date" v="2019-12-27" />
		<tag k="ssr:gruppe" v="rennendeVann" />
		<tag k="ssr:hovedgruppe" v="ferskvann" />
		<tag k="ssr:stedsnr" v="313524" />
		<tag k="ssr:type" v="bekk" />
		<tag k="waterway" v="stream" />
	</node>
	<node lat="60.86943611337213" lon="10.21319167260851" id="-18488">
		<tag k="name" v="Sørberg" />
		<tag k="place" v="farm" />
		<tag k="ssr:date" v="2019-12-27" />
		<tag k="ssr:gruppe" v="gardsbebyggelse" />
		<tag k="ssr:hovedgruppe" v="bebyggelse" />
		<tag k="ssr:stedsnr" v="313416" />
		<tag k="ssr:type" v="bruk" />
	</node>
	<node lat="60.94811667086409" lon="9.878738894499506" id="-18489">
		<tag k="alt_name" v="Killingtjern" />
		<tag k="name" v="Killingvatnet" />
		<tag k="natural" v="water" />
		<tag k="ssr:date" v="2019-12-27" />
		<tag k="ssr:gruppe" v="stilleståendeVann" />
		<tag k="ssr:hovedgruppe" v="ferskvann" />
		<tag k="ssr:stedsnr" v="313941" />
		<tag k="ssr:type" v="tjern" />
	</node>
	<node lat="60.927300004219845" lon="9.802697214444121" id="-18491">
		<tag k="name" v="Bjørntjernhalle" />
		<tag k="natural" v="slope" />
		<tag k="place" v="locality" />
		<tag k="ssr:date" v="2019-12-27" />
		<tag k="ssr:gruppe" v="skråninger" />
		<tag k="ssr:hovedgruppe" v="terreng" />
		<tag k="ssr:stedsnr" v="342345" />
		<tag k="ssr:type" v="li" />
	</node>
	<node lat="60.740083335292915" lon="9.842494451756433" id="-18492">
		<tag k="name" v="Øya" />
		<tag k="place" v="islet" />
		<tag k="ssr:date" v="2019-12-27" />
		<tag k="ssr:gruppe" v="ferskvannskontur" />
		<tag k="ssr:hovedgruppe" v="ferskvann" />
		<tag k="ssr:stedsnr" v="342492" />
		<tag k="ssr:type" v="holme" />
	</node>
	<node lat="60.79192777730631" lon="10.036322214110088" id="-18493">
		<tag k="alt_name" v="Søndre Hesttjern" />
		<tag k="name" v="Søre Hesttjern" />
		<tag k="natural" v="water" />
		<tag k="ssr:date" v="2019-12-27" />
		<tag k="ssr:gruppe" v="stilleståendeVann" />
		<tag k="ssr:hovedgruppe" v="ferskvann" />
		<tag k="ssr:stedsnr" v="342613" />
		<tag k="ssr:type" v="tjern" />
	</node>
	<node lat="60.92254681604035" lon="9.804216203511892" id="-18494">
		<tag k="name" v="Bjørntjernshytta" />
		<tag k="place" v="isolated_dwelling" />
		<tag k="ssr:date" v="2021-05-04" />
		<tag k="ssr:gruppe" v="bolighus" />
		<tag k="ssr:hovedgruppe" v="bebyggelse" />
		<tag k="ssr:stedsnr" v="357865" />
		<tag k="ssr:type" v="fritidsbolig" />
	</node>
	<node lat="60.932411110057366" lon="9.803730556728365" id="-18496">
		<tag k="name" v="Kjørogjeldsdalsberget" />
		<tag k="natural" v="cliff" />
		<tag k="ssr:date" v="2019-12-27" />
		<tag k="ssr:gruppe" v="terrengdetaljer" />
		<tag k="ssr:hovedgruppe" v="terreng" />
		<tag k="ssr:stedsnr" v="357913" />
		<tag k="ssr:type" v="stup" />
	</node>
	<node lat="60.84618889263695" lon="10.180877779175589" id="-18499">
		<tag k="amenity" v="kindergarten" />
		<tag k="name" v="Gry" />
		<tag k="ssr:date" v="2019-12-27" />
		<tag k="ssr:gruppe" v="institusjoner" />
		<tag k="ssr:hovedgruppe" v="bebyggelse" />
		<tag k="ssr:stedsnr" v="360049" />
		<tag k="ssr:type" v="barnehage" />
	</node>
	<node lat="61.08592777880838" lon="9.978544446559638" id="-18500">
		<tag k="name" v="Dokkfløydammen" />
		<tag k="ssr:date" v="2019-12-27" />
		<tag k="ssr:gruppe" v="stilleståendeVann" />
		<tag k="ssr:hovedgruppe" v="ferskvann" />
		<tag k="ssr:stedsnr" v="370051" />
		<tag k="ssr:type" v="dam" />
		<tag k="waterway" v="dam" />
	</node>
	<node lat="61.01875833347761" lon="10.103416661434224" id="-18501">
		<tag k="alt_name" v="Sagvolden" />
		<tag k="name" v="Sagvollen" />
		<tag k="place" v="locality" />
		<tag k="ssr:date" v="2019-12-27" />
		<tag k="ssr:gruppe" v="gardsbebyggelse" />
		<tag k="ssr:hovedgruppe" v="bebyggelse" />
		<tag k="ssr:stedsnr" v="370261" />
		<tag k="ssr:type" v="eiendom" />
	</node>
	<node lat="61.00998910422336" lon="10.00582592501232" id="-18502">
		<tag k="fixme" v="consider place=hamlet" />
		<tag k="name" v="Sæter" />
		<tag k="place" v="farm" />
		<tag k="ssr:date" v="2019-12-27" />
		<tag k="ssr:gruppe" v="gardsbebyggelse" />
		<tag k="ssr:hovedgruppe" v="bebyggelse" />
		<tag k="ssr:stedsnr" v="371218" />
		<tag k="ssr:type" v="gard" />
	</node>
	<node lat="61.02129166641471" lon="9.892938883982037" id="-18503">
		<tag k="name" v="Rud" />
		<tag k="place" v="farm" />
		<tag k="ssr:date" v="2019-12-27" />
		<tag k="ssr:gruppe" v="gardsbebyggelse" />
		<tag k="ssr:hovedgruppe" v="bebyggelse" />
		<tag k="ssr:stedsnr" v="371358" />
		<tag k="ssr:type" v="bruk" />
	</node>
	<node lat="61.01967777844841" lon="9.862383342491741" id="-18504">
		<tag k="name" v="Røste" />
		<tag k="place" v="farm" />
		<tag k="ssr:date" v="2019-12-27" />
		<tag k="ssr:gruppe" v="gardsbebyggelse" />
		<tag k="ssr:hovedgruppe" v="bebyggelse" />
		<tag k="ssr:stedsnr" v="371360" />
		<tag k="ssr:type" v="bruk" />
	</node>
	<node lat="60.882849998826096" lon="9.883780556833422" id="-18505">
		<tag k="alt_name" v="Åmbusetsætra" />
		<tag k="historic" v="shieling" />
		<tag k="name" v="Åmbuset" />
		<tag k="place" v="isolated_dwelling" />
		<tag k="ssr:date" v="2019-12-27" />
		<tag k="ssr:gruppe" v="gardsbebyggelse" />
		<tag k="ssr:hovedgruppe" v="bebyggelse" />
		<tag k="ssr:stedsnr" v="372112" />
		<tag k="ssr:type" v="seterStøl" />
	</node>
	<node lat="60.87885277471027" lon="9.867369441159175" id="-18506">
		<tag k="name" v="Flisdalen" />
		<tag k="natural" v="valley" />
		<tag k="place" v="locality" />
		<tag k="ssr:date" v="2019-12-27" />
		<tag k="ssr:gruppe" v="senkninger" />
		<tag k="ssr:hovedgruppe" v="terreng" />
		<tag k="ssr:stedsnr" v="372113" />
		<tag k="ssr:type" v="dal" />
	</node>
	<node lat="60.84444167102117" lon="9.779036109762126" id="-18507">
		<tag k="loc_name" v="Bjørnaskardrenna" />
		<tag k="name" v="Bjødnaskarrenna" />
		<tag k="place" v="locality" />
		<tag k="ssr:date" v="2019-12-27" />
		<tag k="ssr:gruppe" v="terrengdetaljer" />
		<tag k="ssr:hovedgruppe" v="terreng" />
		<tag k="ssr:stedsnr" v="479593" />
		<tag k="ssr:type" v="annenTerrengdetalj" />
	</node>
	<node lat="60.8436078742715" lon="9.965033469156616" id="-18509">
		<tag k="fixme" v="consider place=hamlet" />
		<tag k="name" v="Ulvshus" />
		<tag k="place" v="farm" />
		<tag k="ssr:date" v="2019-12-27" />
		<tag k="ssr:gruppe" v="gardsbebyggelse" />
		<tag k="ssr:hovedgruppe" v="bebyggelse" />
		<tag k="ssr:stedsnr" v="372052" />
		<tag k="ssr:type" v="gard" />
	</node>
	<node lat="60.848061112113314" lon="9.893955552944579" id="-18510">
		<tag k="name" v="Rønningen" />
		<tag k="place" v="farm" />
		<tag k="ssr:date" v="2019-12-27" />
		<tag k="ssr:gruppe" v="gardsbebyggelse" />
		<tag k="ssr:hovedgruppe" v="bebyggelse" />
		<tag k="ssr:stedsnr" v="372054" />
		<tag k="ssr:type" v="bruk" />
	</node>
	<node lat="60.948713892379374" lon="9.999805554801533" id="-18511">
		<tag k="name" v="Høgås" />
		<tag k="place" v="farm" />
		<tag k="ssr:date" v="2019-12-27" />
		<tag k="ssr:gruppe" v="gardsbebyggelse" />
		<tag k="ssr:hovedgruppe" v="bebyggelse" />
		<tag k="ssr:stedsnr" v="372265" />
		<tag k="ssr:type" v="bruk" />
	</node>
	<node lat="60.94448333136206" lon="10.00847778066691" id="-18512">
		<tag k="name" v="Fredstad" />
		<tag k="place" v="farm" />
		<tag k="ssr:date" v="2019-12-27" />
		<tag k="ssr:gruppe" v="gardsbebyggelse" />
		<tag k="ssr:hovedgruppe" v="bebyggelse" />
		<tag k="ssr:stedsnr" v="372270" />
		<tag k="ssr:type" v="bruk" />
	</node>
	<node lat="60.83503055804651" lon="9.79008332905233" id="-18513">
		<tag k="name" v="Øybakkmyre" />
		<tag k="natural" v="wetland" />
		<tag k="ssr:date" v="2019-12-27" />
		<tag k="ssr:gruppe" v="våtmark" />
		<tag k="ssr:hovedgruppe" v="markslag" />
		<tag k="ssr:stedsnr" v="479553" />
		<tag k="ssr:type" v="myr" />
	</node>
	<node lat="60.99768333763656" lon="10.315538896253827" id="-18514">
		<tag k="name" v="Vismunda" />
		<tag k="ssr:date" v="2019-12-27" />
		<tag k="ssr:gruppe" v="rennendeVann" />
		<tag k="ssr:hovedgruppe" v="ferskvann" />
		<tag k="ssr:stedsnr" v="373149" />
		<tag k="ssr:type" v="elv" />
		<tag k="waterway" v="river" />
	</node>
	<node lat="60.76905700003484" lon="9.821447449564802" id="-18515">
		<tag k="alt_name" v="Vålåsætra" />
		<tag k="historic" v="shieling" />
		<tag k="name" v="Våvålsætra" />
		<tag k="place" v="isolated_dwelling" />
		<tag k="ssr:date" v="2019-12-27" />
		<tag k="ssr:gruppe" v="gardsbebyggelse" />
		<tag k="ssr:hovedgruppe" v="bebyggelse" />
		<tag k="ssr:stedsnr" v="373160" />
		<tag k="ssr:type" v="seterStøl" />
	</node>
	<node lat="60.99342015962993" lon="10.072406661317881" id="-18516">
		<tag k="fixme" v="consider place=hamlet" />
		<tag k="name" v="Frøysland" />
		<tag k="old_name" v="Frøisland" />
		<tag k="place" v="farm" />
		<tag k="ssr:date" v="2019-12-27" />
		<tag k="ssr:gruppe" v="gardsbebyggelse" />
		<tag k="ssr:hovedgruppe" v="bebyggelse" />
		<tag k="ssr:stedsnr" v="373306" />
		<tag k="ssr:type" v="gard" />
	</node>
	<node lat="60.9861666671101" lon="10.08633332504766" id="-18517">
		<tag k="name" v="Brurud" />
		<tag k="place" v="farm" />
		<tag k="ssr:date" v="2019-12-27" />
		<tag k="ssr:gruppe" v="gardsbebyggelse" />
		<tag k="ssr:hovedgruppe" v="bebyggelse" />
		<tag k="ssr:stedsnr" v="373315" />
		<tag k="ssr:type" v="bruk" />
	</node>
	<node lat="60.83198888902944" lon="9.904800007851156" id="-18518">
		<tag k="name" v="Sandmoen" />
		<tag k="place" v="farm" />
		<tag k="ssr:date" v="2019-12-27" />
		<tag k="ssr:gruppe" v="gardsbebyggelse" />
		<tag k="ssr:hovedgruppe" v="bebyggelse" />
		<tag k="ssr:stedsnr" v="373205" />
		<tag k="ssr:type" v="bruk" />
	</node>
	<node lat="60.79686110744996" lon="9.82866110505009" id="-18519">
		<tag k="alt_name" v="Krokvatn" />
		<tag k="name" v="Krokvatna" />
		<tag k="natural" v="water" />
		<tag k="ssr:date" v="2019-12-27" />
		<tag k="ssr:gruppe" v="stilleståendeVann" />
		<tag k="ssr:hovedgruppe" v="ferskvann" />
		<tag k="ssr:stedsnr" v="373207" />
		<tag k="ssr:type" v="vann" />
		<tag k="water" v="lake" />
	</node>
	<node lat="60.80037500091323" lon="9.846261107934243" id="-18520">
		<tag k="name" v="Kroksjøen" />
		<tag k="natural" v="water" />
		<tag k="ssr:date" v="2019-12-27" />
		<tag k="ssr:gruppe" v="stilleståendeVann" />
		<tag k="ssr:hovedgruppe" v="ferskvann" />
		<tag k="ssr:stedsnr" v="373210" />
		<tag k="ssr:type" v="tjern" />
	</node>
	<node lat="60.88461110824432" lon="10.140105553322536" id="-18521">
		<tag k="historic" v="shieling" />
		<tag k="name" v="Bergsætra" />
		<tag k="place" v="isolated_dwelling" />
		<tag k="ssr:date" v="2019-12-27" />
		<tag k="ssr:gruppe" v="gardsbebyggelse" />
		<tag k="ssr:hovedgruppe" v="bebyggelse" />
		<tag k="ssr:stedsnr" v="373396" />
		<tag k="ssr:type" v="seterStøl" />
	</node>
	<node lat="60.88853818727709" lon="10.145537849820407" id="-18522">
		<tag k="fixme" v="multiple name tags, choose one and add the other to alt_name" />
		<tag k="name" v="Aursjøen;Bergsætervatnet" />
		<tag k="natural" v="water" />
		<tag k="ssr:date" v="2021-06-08" />
		<tag k="ssr:gruppe" v="stilleståendeVann" />
		<tag k="ssr:hovedgruppe" v="ferskvann" />
		<tag k="ssr:stedsnr" v="373401" />
		<tag k="ssr:type" v="vann" />
		<tag k="water" v="lake" />
	</node>
	<node lat="60.83366944579504" lon="10.133308342365757" id="-18523">
		<tag k="alt_name" v="Damtjern" />
		<tag k="name" v="Damtjernet" />
		<tag k="natural" v="water" />
		<tag k="ssr:date" v="2019-12-27" />
		<tag k="ssr:gruppe" v="stilleståendeVann" />
		<tag k="ssr:hovedgruppe" v="ferskvann" />
		<tag k="ssr:stedsnr" v="373511" />
		<tag k="ssr:type" v="tjern" />
	</node>
	<node lat="60.861019443819906" lon="9.970841673044395" id="-18524">
		<tag k="alt_name" v="Fyritjern" />
		<tag k="name" v="Fyritjernet" />
		<tag k="natural" v="water" />
		<tag k="ssr:date" v="2019-12-27" />
		<tag k="ssr:gruppe" v="stilleståendeVann" />
		<tag k="ssr:hovedgruppe" v="ferskvann" />
		<tag k="ssr:stedsnr" v="373563" />
		<tag k="ssr:type" v="tjern" />
	</node>
	<node lat="60.80696389215005" lon="10.04064167014792" id="-18525">
		<tag k="name" v="Torderudsmyra" />
		<tag k="natural" v="wetland" />
		<tag k="ssr:date" v="2019-12-27" />
		<tag k="ssr:gruppe" v="våtmark" />
		<tag k="ssr:hovedgruppe" v="markslag" />
		<tag k="ssr:stedsnr" v="373610" />
		<tag k="ssr:type" v="myr" />
	</node>
	<node lat="60.77033889059522" lon="10.03086944102883" id="-18526">
		<tag k="alt_name" v="Aurlundsætra" />
		<tag k="historic" v="shieling" />
		<tag k="name" v="Aurlundssætra" />
		<tag k="place" v="isolated_dwelling" />
		<tag k="ssr:date" v="2019-12-27" />
		<tag k="ssr:gruppe" v="gardsbebyggelse" />
		<tag k="ssr:hovedgruppe" v="bebyggelse" />
		<tag k="ssr:stedsnr" v="373648" />
		<tag k="ssr:type" v="seterStøl" />
	</node>
	<node lat="60.95948888786834" lon="9.842011102053357" id="-18527">
		<tag k="name" v="Røstepullen" />
		<tag k="natural" v="water" />
		<tag k="ssr:date" v="2019-12-27" />
		<tag k="ssr:gruppe" v="stilleståendeVann" />
		<tag k="ssr:hovedgruppe" v="ferskvann" />
		<tag k="ssr:stedsnr" v="373909" />
		<tag k="ssr:type" v="tjern" />
	</node>
	<node lat="60.941675004302546" lon="9.837716672130414" id="-18528">
		<tag k="alt_name" v="Øyvatnet, nordre;Nordre Øyvatn" />
		<tag k="name" v="Nordre Øyvatnet" />
		<tag k="natural" v="water" />
		<tag k="ssr:date" v="2019-12-27" />
		<tag k="ssr:gruppe" v="stilleståendeVann" />
		<tag k="ssr:hovedgruppe" v="ferskvann" />
		<tag k="ssr:stedsnr" v="373942" />
		<tag k="ssr:type" v="tjern" />
	</node>
	<node lat="60.91040833622054" lon="9.807619437042774" id="-18529">
		<tag k="name" v="Fellingshalle" />
		<tag k="natural" v="slope" />
		<tag k="place" v="locality" />
		<tag k="ssr:date" v="2019-12-27" />
		<tag k="ssr:gruppe" v="skråninger" />
		<tag k="ssr:hovedgruppe" v="terreng" />
		<tag k="ssr:stedsnr" v="479845" />
		<tag k="ssr:type" v="li" />
	</node>
	<node lat="60.91678888681564" lon="9.797547216704254" id="-18530">
		<tag k="name" v="Hagamyre" />
		<tag k="natural" v="wetland" />
		<tag k="ssr:date" v="2019-12-27" />
		<tag k="ssr:gruppe" v="våtmark" />
		<tag k="ssr:hovedgruppe" v="markslag" />
		<tag k="ssr:stedsnr" v="479850" />
		<tag k="ssr:type" v="myr" />
	</node>
	<node lat="61.02053888870768" lon="10.17739721828538" id="-18531">
		<tag k="name" v="Gråsteinmyra" />
		<tag k="natural" v="wetland" />
		<tag k="ssr:date" v="2019-12-27" />
		<tag k="ssr:gruppe" v="våtmark" />
		<tag k="ssr:hovedgruppe" v="markslag" />
		<tag k="ssr:stedsnr" v="479994" />
		<tag k="ssr:type" v="myr" />
	</node>
	<node lat="60.77389722595023" lon="9.910138884657067" id="-18533">
		<tag k="name" v="Aksjølia" />
		<tag k="natural" v="slope" />
		<tag k="place" v="locality" />
		<tag k="ssr:date" v="2019-12-27" />
		<tag k="ssr:gruppe" v="skråninger" />
		<tag k="ssr:hovedgruppe" v="terreng" />
		<tag k="ssr:stedsnr" v="481545" />
		<tag k="ssr:type" v="li" />
	</node>
	<node lat="60.86106944064562" lon="9.898569447972786" id="-18534">
		<tag k="name" v="Breibekk" />
		<tag k="place" v="locality" />
		<tag k="ssr:date" v="2019-12-27" />
		<tag k="ssr:gruppe" v="gardsbebyggelse" />
		<tag k="ssr:hovedgruppe" v="bebyggelse" />
		<tag k="ssr:stedsnr" v="481634" />
		<tag k="ssr:type" v="byggForJordbrukFiskeOgFangst" />
	</node>
	<node lat="60.84759999740665" lon="10.00413334124491" id="-18535">
		<tag k="name" v="Utkiksberget" />
		<tag k="natural" v="hill" />
		<tag k="place" v="locality" />
		<tag k="ssr:date" v="2019-12-27" />
		<tag k="ssr:gruppe" v="høyder" />
		<tag k="ssr:hovedgruppe" v="terreng" />
		<tag k="ssr:stedsnr" v="481039" />
		<tag k="ssr:type" v="høyde" />
	</node>
	<node lat="60.99249444540396" lon="9.964097230437982" id="-18537">
		<tag k="name" v="Livasselva" />
		<tag k="ssr:date" v="2019-12-27" />
		<tag k="ssr:gruppe" v="rennendeVann" />
		<tag k="ssr:hovedgruppe" v="ferskvann" />
		<tag k="ssr:stedsnr" v="481734" />
		<tag k="ssr:type" v="elv" />
		<tag k="waterway" v="river" />
	</node>
	<node lat="60.9416472228427" lon="9.993936106323995" id="-18539">
		<tag k="name" v="Myre" />
		<tag k="place" v="farm" />
		<tag k="ssr:date" v="2019-12-27" />
		<tag k="ssr:gruppe" v="gardsbebyggelse" />
		<tag k="ssr:hovedgruppe" v="bebyggelse" />
		<tag k="ssr:stedsnr" v="481756" />
		<tag k="ssr:type" v="bruk" />
	</node>
	<node lat="60.93025278122353" lon="9.930850007742231" id="-18540">
		<tag k="name" v="Fløyten" />
		<tag k="place" v="locality" />
		<tag k="ssr:date" v="2019-12-27" />
		<tag k="ssr:gruppe" v="dyrkamark" />
		<tag k="ssr:hovedgruppe" v="markslag" />
		<tag k="ssr:stedsnr" v="481951" />
		<tag k="ssr:type" v="utmark" />
	</node>
	<node lat="60.91241111547007" lon="10.08483889030107" id="-18541">
		<tag k="name" v="Damma" />
		<tag k="place" v="locality" />
		<tag k="ssr:date" v="2019-12-27" />
		<tag k="ssr:gruppe" v="bolighus" />
		<tag k="ssr:hovedgruppe" v="bebyggelse" />
		<tag k="ssr:stedsnr" v="482174" />
		<tag k="ssr:type" v="gammelBosettingsplass" />
	</node>
	<node lat="60.76918611032844" lon="9.846544437220867" id="-18542">
		<tag k="name" v="Kringsjøen" />
		<tag k="natural" v="water" />
		<tag k="ssr:date" v="2019-12-27" />
		<tag k="ssr:gruppe" v="stilleståendeVann" />
		<tag k="ssr:hovedgruppe" v="ferskvann" />
		<tag k="ssr:stedsnr" v="482266" />
		<tag k="ssr:type" v="tjern" />
	</node>
	<node lat="60.78373055605707" lon="9.888194450386209" id="-18543">
		<tag k="name" v="Lomholmen" />
		<tag k="place" v="islet" />
		<tag k="ssr:date" v="2019-12-27" />
		<tag k="ssr:gruppe" v="ferskvannskontur" />
		<tag k="ssr:hovedgruppe" v="ferskvann" />
		<tag k="ssr:stedsnr" v="482286" />
		<tag k="ssr:type" v="holme" />
	</node>
	<node lat="60.8786111145806" lon="10.110419446715" id="-18544">
		<tag k="name" v="Hytteplassdalen" />
		<tag k="place" v="locality" />
		<tag k="ssr:date" v="2019-12-27" />
		<tag k="ssr:gruppe" v="bolighus" />
		<tag k="ssr:hovedgruppe" v="bebyggelse" />
		<tag k="ssr:stedsnr" v="482287" />
		<tag k="ssr:type" v="gammelBosettingsplass" />
	</node>
	<node lat="60.962244446820144" lon="10.091208339904421" id="-18545">
		<tag k="name" v="Fellelia" />
		<tag k="natural" v="slope" />
		<tag k="place" v="locality" />
		<tag k="ssr:date" v="2019-12-27" />
		<tag k="ssr:gruppe" v="skråninger" />
		<tag k="ssr:hovedgruppe" v="terreng" />
		<tag k="ssr:stedsnr" v="482551" />
		<tag k="ssr:type" v="li" />
	</node>
	<node lat="60.96020062719743" lon="9.984153885690718" id="-18546">
		<tag k="name" v="Nedre Klette" />
		<tag k="place" v="farm" />
		<tag k="ssr:date" v="2019-12-27" />
		<tag k="ssr:gruppe" v="gardsbebyggelse" />
		<tag k="ssr:hovedgruppe" v="bebyggelse" />
		<tag k="ssr:stedsnr" v="482649" />
		<tag k="ssr:type" v="bruk" />
	</node>
	<node lat="60.8521250043216" lon="10.08923610495927" id="-18548">
		<tag k="name" v="Nordgarden Skjak" />
		<tag k="place" v="farm" />
		<tag k="ssr:date" v="2019-12-27" />
		<tag k="ssr:gruppe" v="gardsbebyggelse" />
		<tag k="ssr:hovedgruppe" v="bebyggelse" />
		<tag k="ssr:stedsnr" v="483021" />
		<tag k="ssr:type" v="bruk" />
	</node>
	<node lat="60.82763055917727" lon="10.023133339603072" id="-18549">
		<tag k="name" v="Nøland" />
		<tag k="place" v="isolated_dwelling" />
		<tag k="ssr:date" v="2019-12-27" />
		<tag k="ssr:gruppe" v="bolighus" />
		<tag k="ssr:hovedgruppe" v="bebyggelse" />
		<tag k="ssr:stedsnr" v="483043" />
		<tag k="ssr:type" v="eneboligMindreBoligbygg" />
	</node>
	<node lat="60.819752780585404" lon="9.953913889949346" id="-18550">
		<tag k="name" v="Damhaugen" />
		<tag k="natural" v="hill" />
		<tag k="place" v="locality" />
		<tag k="ssr:date" v="2019-12-27" />
		<tag k="ssr:gruppe" v="høyder" />
		<tag k="ssr:hovedgruppe" v="terreng" />
		<tag k="ssr:stedsnr" v="483376" />
		<tag k="ssr:type" v="haug" />
	</node>
	<node lat="60.80650000182698" lon="9.999741671052421" id="-18551">
		<tag k="name" v="Vatntjern" />
		<tag k="natural" v="water" />
		<tag k="ssr:date" v="2019-12-27" />
		<tag k="ssr:gruppe" v="stilleståendeVann" />
		<tag k="ssr:hovedgruppe" v="ferskvann" />
		<tag k="ssr:stedsnr" v="483382" />
		<tag k="ssr:type" v="tjern" />
	</node>
	<node lat="60.840833337110695" lon="9.998661106383649" id="-18553">
		<tag k="name" v="Nermoen" />
		<tag k="place" v="farm" />
		<tag k="ssr:date" v="2019-12-27" />
		<tag k="ssr:gruppe" v="gardsbebyggelse" />
		<tag k="ssr:hovedgruppe" v="bebyggelse" />
		<tag k="ssr:stedsnr" v="483692" />
		<tag k="ssr:type" v="bruk" />
	</node>
	<node lat="60.7971249960525" lon="10.116030546569439" id="-18554">
		<tag k="name" v="Nordby" />
		<tag k="place" v="farm" />
		<tag k="ssr:date" v="2019-12-27" />
		<tag k="ssr:gruppe" v="gardsbebyggelse" />
		<tag k="ssr:hovedgruppe" v="bebyggelse" />
		<tag k="ssr:stedsnr" v="483743" />
		<tag k="ssr:type" v="bruk" />
	</node>
	<node lat="61.04308055611293" lon="9.990036117987747" id="-18555">
		<tag k="name" v="Liabakkene" />
		<tag k="natural" v="slope" />
		<tag k="place" v="locality" />
		<tag k="ssr:date" v="2019-12-27" />
		<tag k="ssr:gruppe" v="skråninger" />
		<tag k="ssr:hovedgruppe" v="terreng" />
		<tag k="ssr:stedsnr" v="483745" />
		<tag k="ssr:type" v="li" />
	</node>
	<node lat="60.844372225540745" lon="9.860969444996682" id="-18556">
		<tag k="name" v="Kapperudsvea" />
		<tag k="place" v="isolated_dwelling" />
		<tag k="ssr:date" v="2019-12-27" />
		<tag k="ssr:gruppe" v="bolighus" />
		<tag k="ssr:hovedgruppe" v="bebyggelse" />
		<tag k="ssr:stedsnr" v="483848" />
		<tag k="ssr:type" v="eneboligMindreBoligbygg" />
	</node>
	<node lat="60.84285832949675" lon="9.877027783609797" id="-18557">
		<tag k="name" v="Granaker" />
		<tag k="place" v="isolated_dwelling" />
		<tag k="ssr:date" v="2019-12-27" />
		<tag k="ssr:gruppe" v="bolighus" />
		<tag k="ssr:hovedgruppe" v="bebyggelse" />
		<tag k="ssr:stedsnr" v="483849" />
		<tag k="ssr:type" v="eneboligMindreBoligbygg" />
	</node>
	<node lat="61.00863055496755" lon="9.79559444078724" id="-18559">
		<tag k="name" v="Kyrtjernputten" />
		<tag k="natural" v="water" />
		<tag k="ssr:date" v="2019-12-27" />
		<tag k="ssr:gruppe" v="stilleståendeVann" />
		<tag k="ssr:hovedgruppe" v="ferskvann" />
		<tag k="ssr:stedsnr" v="403146" />
		<tag k="ssr:type" v="tjern" />
	</node>
	<node lat="60.73269722158415" lon="9.834263897563217" id="-18560">
		<tag k="name" v="Snakavika" />
		<tag k="natural" v="bay" />
		<tag k="ssr:date" v="2019-12-27" />
		<tag k="ssr:gruppe" v="ferskvannskontur" />
		<tag k="ssr:hovedgruppe" v="ferskvann" />
		<tag k="ssr:stedsnr" v="403527" />
		<tag k="ssr:type" v="vik" />
	</node>
	<node lat="60.7800222212308" lon="10.028058331651005" id="-18561">
		<tag k="name" v="Svartvatnmarka" />
		<tag k="place" v="locality" />
		<tag k="ssr:date" v="2019-12-27" />
		<tag k="ssr:gruppe" v="vegetasjon" />
		<tag k="ssr:hovedgruppe" v="markslag" />
		<tag k="ssr:stedsnr" v="403628" />
		<tag k="ssr:type" v="skog" />
	</node>
	<node lat="61.031955554847464" lon="10.21522778699274" id="-18562">
		<tag k="name" v="Storlon" />
		<tag k="natural" v="water" />
		<tag k="ssr:date" v="2019-12-27" />
		<tag k="ssr:gruppe" v="stilleståendeVann" />
		<tag k="ssr:hovedgruppe" v="ferskvann" />
		<tag k="ssr:stedsnr" v="404986" />
		<tag k="ssr:type" v="tjern" />
	</node>
	<node lat="60.823236115589175" lon="10.043383325715691" id="-18563">
		<tag k="name" v="Bjørkelia" />
		<tag k="natural" v="slope" />
		<tag k="place" v="locality" />
		<tag k="ssr:date" v="2019-12-27" />
		<tag k="ssr:gruppe" v="skråninger" />
		<tag k="ssr:hovedgruppe" v="terreng" />
		<tag k="ssr:stedsnr" v="420547" />
		<tag k="ssr:type" v="li" />
	</node>
	<node lat="60.89745833749356" lon="10.069308339088728" id="-18564">
		<tag k="name" v="Djupåa" />
		<tag k="ssr:date" v="2019-12-27" />
		<tag k="ssr:gruppe" v="rennendeVann" />
		<tag k="ssr:hovedgruppe" v="ferskvann" />
		<tag k="ssr:stedsnr" v="421001" />
		<tag k="ssr:type" v="bekk" />
		<tag k="waterway" v="stream" />
	</node>
	<node lat="60.82805555516849" lon="10.03094444586496" id="-18565">
		<tag k="name" v="Mortenstuen" />
		<tag k="place" v="farm" />
		<tag k="ssr:date" v="2019-12-27" />
		<tag k="ssr:gruppe" v="gardsbebyggelse" />
		<tag k="ssr:hovedgruppe" v="bebyggelse" />
		<tag k="ssr:stedsnr" v="422047" />
		<tag k="ssr:type" v="bruk" />
	</node>
	<node lat="60.833422220899614" lon="10.092591673240804" id="-18567">
		<tag k="name" v="Tonlia" />
		<tag k="place" v="quarter" />
		<tag k="ssr:date" v="2019-12-27" />
		<tag k="ssr:gruppe" v="bebyggelsesområder" />
		<tag k="ssr:hovedgruppe" v="bebyggelse" />
		<tag k="ssr:stedsnr" v="422118" />
		<tag k="ssr:type" v="boligfelt" />
	</node>
	<node lat="60.74608888745169" lon="10.06832221543946" id="-18568">
		<tag k="name" v="Vesteråsmyra" />
		<tag k="natural" v="wetland" />
		<tag k="ssr:date" v="2019-12-27" />
		<tag k="ssr:gruppe" v="våtmark" />
		<tag k="ssr:hovedgruppe" v="markslag" />
		<tag k="ssr:stedsnr" v="422306" />
		<tag k="ssr:type" v="myr" />
	</node>
	<node lat="60.815605557358694" lon="10.12009444389682" id="-18570">
		<tag k="alt_name" v="Søndre Aurlund" />
		<tag k="name" v="Søre Aurlund" />
		<tag k="place" v="farm" />
		<tag k="ssr:date" v="2019-12-27" />
		<tag k="ssr:gruppe" v="gardsbebyggelse" />
		<tag k="ssr:hovedgruppe" v="bebyggelse" />
		<tag k="ssr:stedsnr" v="422808" />
		<tag k="ssr:type" v="bruk" />
	</node>
	<node lat="60.912741667881896" lon="10.061355552527" id="-18571">
		<tag k="name" v="Hestbekken" />
		<tag k="ssr:date" v="2019-12-27" />
		<tag k="ssr:gruppe" v="rennendeVann" />
		<tag k="ssr:hovedgruppe" v="ferskvann" />
		<tag k="ssr:stedsnr" v="422915" />
		<tag k="ssr:type" v="bekk" />
		<tag k="waterway" v="stream" />
	</node>
	<node lat="60.94834722489716" lon="10.104263893438294" id="-18573">
		<tag k="name" v="Fellefossen" />
		<tag k="natural" v="waterfall" />
		<tag k="ssr:date" v="2019-12-27" />
		<tag k="ssr:gruppe" v="rennendeVann" />
		<tag k="ssr:hovedgruppe" v="ferskvann" />
		<tag k="ssr:stedsnr" v="422948" />
		<tag k="ssr:type" v="foss" />
	</node>
	<node lat="60.86412570398491" lon="9.974785356971516" id="-18574">
		<tag k="name" v="Sveom" />
		<tag k="place" v="locality" />
		<tag k="ssr:date" v="2020-03-10" />
		<tag k="ssr:gruppe" v="gardsbebyggelse" />
		<tag k="ssr:hovedgruppe" v="bebyggelse" />
		<tag k="ssr:stedsnr" v="424506" />
		<tag k="ssr:type" v="eiendom" />
	</node>
	<node lat="61.08182222048252" lon="10.014308341913097" id="-18575">
		<tag k="historic" v="shieling" />
		<tag k="name" v="Nordsætra" />
		<tag k="place" v="isolated_dwelling" />
		<tag k="ssr:date" v="2019-12-27" />
		<tag k="ssr:gruppe" v="gardsbebyggelse" />
		<tag k="ssr:hovedgruppe" v="bebyggelse" />
		<tag k="ssr:stedsnr" v="431048" />
		<tag k="ssr:type" v="seterStøl" />
	</node>
	<node lat="61.06136111184308" lon="10.068808325581859" id="-18576">
		<tag k="name" v="Torget" />
		<tag k="place" v="isolated_dwelling" />
		<tag k="ssr:date" v="2019-12-27" />
		<tag k="ssr:gruppe" v="bolighus" />
		<tag k="ssr:hovedgruppe" v="bebyggelse" />
		<tag k="ssr:stedsnr" v="431066" />
		<tag k="ssr:type" v="fritidsbolig" />
	</node>
	<node lat="61.077072226150534" lon="9.789433329015223" id="-18577">
		<tag k="fixme" v="consider natural=peak for the most distinct mountains in the district" />
		<tag k="name" v="Spåtind" />
		<tag k="natural" v="hill" />
		<tag k="place" v="locality" />
		<tag k="ssr:date" v="2019-12-27" />
		<tag k="ssr:gruppe" v="høyder" />
		<tag k="ssr:hovedgruppe" v="terreng" />
		<tag k="ssr:stedsnr" v="432609" />
		<tag k="ssr:type" v="fjell" />
	</node>
	<node lat="61.105391668767886" lon="9.8930083289568" id="-18578">
		<tag k="name" v="Gråberga" />
		<tag k="natural" v="hill" />
		<tag k="place" v="locality" />
		<tag k="ssr:date" v="2019-12-27" />
		<tag k="ssr:gruppe" v="høyder" />
		<tag k="ssr:hovedgruppe" v="terreng" />
		<tag k="ssr:stedsnr" v="432633" />
		<tag k="ssr:type" v="berg" />
	</node>
	<node lat="60.85818333786778" lon="9.843502770664605" id="-18579">
		<tag k="name" v="Enga" />
		<tag k="place" v="farm" />
		<tag k="ssr:date" v="2019-12-27" />
		<tag k="ssr:gruppe" v="gardsbebyggelse" />
		<tag k="ssr:hovedgruppe" v="bebyggelse" />
		<tag k="ssr:stedsnr" v="433008" />
		<tag k="ssr:type" v="bruk" />
	</node>
	<node lat="60.90480277674129" lon="9.792933327708207" id="-18580">
		<tag k="name" v="Leppa" />
		<tag k="ssr:date" v="2019-12-27" />
		<tag k="ssr:gruppe" v="rennendeVann" />
		<tag k="ssr:hovedgruppe" v="ferskvann" />
		<tag k="ssr:stedsnr" v="433126" />
		<tag k="ssr:type" v="elv" />
		<tag k="waterway" v="river" />
	</node>
	<node lat="60.94111944629838" lon="10.157777771359356" id="-18581">
		<tag k="alt_name" v="Bakken, nordre;Søndre Bakken" />
		<tag k="name" v="Nordre Bakken" />
		<tag k="place" v="farm" />
		<tag k="ssr:date" v="2019-12-27" />
		<tag k="ssr:gruppe" v="gardsbebyggelse" />
		<tag k="ssr:hovedgruppe" v="bebyggelse" />
		<tag k="ssr:stedsnr" v="433302" />
		<tag k="ssr:type" v="bruk" />
	</node>
	<node lat="60.93988551922705" lon="10.115783059620847" id="-18582">
		<tag k="fixme" v="consider place=hamlet" />
		<tag k="name" v="Finni" />
		<tag k="place" v="farm" />
		<tag k="ssr:date" v="2019-12-27" />
		<tag k="ssr:gruppe" v="gardsbebyggelse" />
		<tag k="ssr:hovedgruppe" v="bebyggelse" />
		<tag k="ssr:stedsnr" v="433307" />
		<tag k="ssr:type" v="gard" />
	</node>
	<node lat="61.03470555476054" lon="9.819349999868775" id="-18583">
		<tag k="alt_name" v="Svendstad" />
		<tag k="name" v="Svenstad" />
		<tag k="place" v="farm" />
		<tag k="ssr:date" v="2019-12-27" />
		<tag k="ssr:gruppe" v="gardsbebyggelse" />
		<tag k="ssr:hovedgruppe" v="bebyggelse" />
		<tag k="ssr:stedsnr" v="433326" />
		<tag k="ssr:type" v="bruk" />
	</node>
	<node lat="60.93184721813326" lon="10.120205550956495" id="-18584">
		<tag k="alt_name" v="Finsrud" />
		<tag k="name" v="Finnsrud" />
		<tag k="place" v="farm" />
		<tag k="ssr:date" v="2019-12-27" />
		<tag k="ssr:gruppe" v="gardsbebyggelse" />
		<tag k="ssr:hovedgruppe" v="bebyggelse" />
		<tag k="ssr:stedsnr" v="433278" />
		<tag k="ssr:type" v="bruk" />
	</node>
	<node lat="60.93875833425796" lon="10.022286116738044" id="-18585">
		<tag k="name" v="Grønnerud" />
		<tag k="old_name" v="Brønnerud" />
		<tag k="place" v="farm" />
		<tag k="ssr:date" v="2019-12-27" />
		<tag k="ssr:gruppe" v="gardsbebyggelse" />
		<tag k="ssr:hovedgruppe" v="bebyggelse" />
		<tag k="ssr:stedsnr" v="433284" />
		<tag k="ssr:type" v="bruk" />
	</node>
	<node lat="60.9431388873886" lon="9.980027783682853" id="-18586">
		<tag k="name" v="Sterud" />
		<tag k="place" v="farm" />
		<tag k="ssr:date" v="2019-12-27" />
		<tag k="ssr:gruppe" v="gardsbebyggelse" />
		<tag k="ssr:hovedgruppe" v="bebyggelse" />
		<tag k="ssr:stedsnr" v="433290" />
		<tag k="ssr:type" v="bruk" />
	</node>
</osm>
