<?xml version="1.0" encoding="UTF-8"?>
<osm generator="osmapis" version="0.6">
	<node id="-881664" lat="63.279174999" lon="10.4665166739">
		<tag k="name" v="Moøya" />
		<tag k="natural" v="cape" />
		<tag k="ssr:stedsnr" v="286454" />
	</node>
	<node id="-881148" lat="63.2209805515" lon="10.6543833286">
		<tag k="name" v="Tangvollelva" />
		<tag k="ssr:stedsnr" v="801689" />
		<tag k="waterway" v="river" />
	</node>
	<node id="-881659" lat="63.2665055544" lon="10.6369583304">
		<tag k="name" v="Øver Tangvollodden" />
		<tag k="natural" v="cape" />
		<tag k="ssr:stedsnr" v="771336" />
	</node>
	<node id="-881656" lat="63.2617805518" lon="10.406866676">
		<tag k="name" v="Tjuvdalsbekken" />
		<tag k="ssr:stedsnr" v="528308" />
		<tag k="waterway" v="stream" />
	</node>
	<node id="-881141" lat="63.2943000034" lon="10.5514027793">
		<tag k="name" v="Merkesbekken" />
		<tag k="ssr:stedsnr" v="43429" />
		<tag k="waterway" v="stream" />
	</node>
	<node id="-881138" lat="63.2444166674" lon="10.4365583332">
		<tag k="name" v="Målsjøen" />
		<tag k="natural" v="water" />
		<tag k="ssr:stedsnr" v="315741" />
	</node>
	<node id="-881136" lat="63.285063889" lon="10.4611194516">
		<tag k="name" v="Storvollbekken" />
		<tag k="ssr:stedsnr" v="649534" />
		<tag k="waterway" v="stream" />
	</node>
	<node id="-881134" lat="63.2654388868" lon="10.416144452">
		<tag k="name" v="Vulubekken" />
		<tag k="ssr:stedsnr" v="316805" />
		<tag k="waterway" v="stream" />
	</node>
	<node id="-881133" lat="63.2544055595" lon="10.6424222158">
		<tag k="name" v="Storfossen" />
		<tag k="natural" v="waterfall" />
		<tag k="ssr:stedsnr" v="953394" />
	</node>
	<node id="-881131" lat="63.314005558" lon="10.5831083277">
		<tag k="name" v="Auntjønna" />
		<tag k="natural" v="water" />
		<tag k="ssr:stedsnr" v="802883" />
	</node>
	<node id="-880807" lat="63.1934416679" lon="10.6142500088">
		<tag k="name" v="Langsjøen" />
		<tag k="natural" v="water" />
		<tag k="ssr:stedsnr" v="73812" />
		<tag k="water" v="lake" />
	</node>
	<node id="-881128" lat="63.2597638863" lon="10.6399694437">
		<tag k="name" v="Grytfossen" />
		<tag k="natural" v="waterfall" />
		<tag k="ssr:stedsnr" v="341099" />
	</node>
	<node id="-881127" lat="63.2251750041" lon="10.5720361062">
		<tag k="alt_name" v="Damtjønna" />
		<tag k="name" v="Fisklaustjønna" />
		<tag k="natural" v="water" />
		<tag k="ssr:stedsnr" v="133688" />
	</node>
	<node id="-881126" lat="63.2748972229" lon="10.5657111094">
		<tag k="name" v="Ytre Sagbukta" />
		<tag k="natural" v="bay" />
		<tag k="ssr:stedsnr" v="467324" />
	</node>
	<node id="-881635" lat="63.2717666642" lon="10.4944611045">
		<tag k="name" v="Svarttjønna" />
		<tag k="natural" v="water" />
		<tag k="ssr:stedsnr" v="346292" />
	</node>
	<node id="-881121" lat="63.2528555529" lon="10.55625277">
		<tag k="name" v="Vikabekken" />
		<tag k="ssr:stedsnr" v="498269" />
		<tag k="waterway" v="stream" />
	</node>
	<node id="-881632" lat="63.2295999971" lon="10.5965000081">
		<tag k="name" v="Lomtjønna" />
		<tag k="natural" v="water" />
		<tag k="ssr:stedsnr" v="255740" />
	</node>
	<node id="-880976" lat="63.2311666659" lon="10.6562722224">
		<tag k="name" v="Slagdammen" />
		<tag k="ssr:stedsnr" v="619765" />
		<tag k="waterway" v="dam" />
	</node>
	<node id="-881118" lat="63.274413891" lon="10.5701666683">
		<tag k="name" v="Øv.Sagbukta" />
		<tag k="natural" v="bay" />
		<tag k="ssr:stedsnr" v="710329" />
	</node>
	<node id="-881116" lat="63.2922194407" lon="10.5659722316">
		<tag k="name" v="Dyrbekken" />
		<tag k="ssr:stedsnr" v="43428" />
		<tag k="waterway" v="stream" />
	</node>
	<node id="-881627" lat="63.2527555525" lon="10.5172472217">
		<tag k="name" v="Trongsundet" />
		<tag k="natural" v="strait" />
		<tag k="ssr:stedsnr" v="438184" />
	</node>
	<node id="-881625" lat="63.2964888887" lon="10.5858583415">
		<tag k="name" v="Høgskjølbekken" />
		<tag k="ssr:stedsnr" v="498849" />
		<tag k="waterway" v="stream" />
	</node>
	<node id="-881622" lat="63.2250527738" lon="10.5820388972">
		<tag k="name" v="Olavatnet" />
		<tag k="natural" v="water" />
		<tag k="ssr:stedsnr" v="254677" />
	</node>
	<node id="-881618" lat="63.2813638903" lon="10.5555972144">
		<tag k="name" v="Aunbekken" />
		<tag k="ssr:stedsnr" v="953488" />
		<tag k="waterway" v="stream" />
	</node>
	<node id="-881103" lat="63.2170388894" lon="10.6382805457">
		<tag k="name" v="Skjeftestjønna" />
		<tag k="natural" v="water" />
		<tag k="ssr:stedsnr" v="801688" />
	</node>
	<node id="-881101" lat="63.316309645" lon="10.525949824">
		<tag k="name" v="Medamtjønna" />
		<tag k="natural" v="water" />
		<tag k="ssr:stedsnr" v="265240" />
	</node>
	<node id="-881100" lat="63.2301083289" lon="10.5445500043">
		<tag k="name" v="Storavassbekken" />
		<tag k="ssr:stedsnr" v="923741" />
		<tag k="waterway" v="stream" />
	</node>
	<node id="-881611" lat="63.2268277745" lon="10.5517277763">
		<tag k="name" v="Storavassdammen" />
		<tag k="ssr:stedsnr" v="649416" />
		<tag k="waterway" v="dam" />
	</node>
	<node id="-881608" lat="63.2058583364" lon="10.6172250089">
		<tag k="name" v="Kjerringbekken" />
		<tag k="ssr:stedsnr" v="437790" />
		<tag k="waterway" v="stream" />
	</node>
	<node id="-881607" lat="63.2558916623" lon="10.5973166721">
		<tag k="name" v="Dånnøya" />
		<tag k="old_name" v="Dånnøyelva" />
		<tag k="ssr:stedsnr" v="438187" />
		<tag k="waterway" v="stream" />
	</node>
	<node id="-881094" lat="63.2210249964" lon="10.5884444501">
		<tag k="alt_name" v="Sandåvatnet" />
		<tag k="name" v="Sandavatnet" />
		<tag k="natural" v="water" />
		<tag k="ssr:stedsnr" v="922692" />
	</node>
	<node id="-881364" lat="63.2958694488" lon="10.4180972287">
		<tag k="name" v="Grasmyrbekken" />
		<tag k="ssr:stedsnr" v="680853" />
		<tag k="waterway" v="stream" />
	</node>
	<node id="-881602" lat="63.2644027809" lon="10.5636166571">
		<tag k="name" v="Båtsteinan" />
		<tag k="natural" v="cape" />
		<tag k="ssr:stedsnr" v="346301" />
	</node>
	<node id="-881599" lat="63.1994250004" lon="10.6069638857">
		<tag k="name" v="Langsjøbekken" />
		<tag k="ssr:stedsnr" v="619838" />
		<tag k="waterway" v="stream" />
	</node>
	<node id="-881593" lat="63.2826749966" lon="10.4666666571">
		<tag k="name" v="Moodden" />
		<tag k="natural" v="cape" />
		<tag k="ssr:stedsnr" v="164516" />
	</node>
	<node id="-881591" lat="63.2994166658" lon="10.6086333266">
		<tag k="name" v="Husbytjønna" />
		<tag k="natural" v="water" />
		<tag k="ssr:stedsnr" v="407479" />
	</node>
	<node id="-881077" lat="63.2671277807" lon="10.6263527859">
		<tag k="name" v="Ytter Tangvollodden" />
		<tag k="natural" v="cape" />
		<tag k="ssr:stedsnr" v="588291" />
	</node>
	<node id="-881076" lat="63.3267749965" lon="10.5220805514">
		<tag k="name" v="Bostadtjønna" />
		<tag k="natural" v="water" />
		<tag k="ssr:stedsnr" v="38618" />
	</node>
	<node id="-881583" lat="63.2912722179" lon="10.6237722294">
		<tag k="name" v="Knausbekken" />
		<tag k="ssr:stedsnr" v="164508" />
		<tag k="waterway" v="stream" />
	</node>
	<node id="-881582" lat="63.3066805591" lon="10.5452249957">
		<tag k="name" v="Gullsitjønna" />
		<tag k="natural" v="water" />
		<tag k="ssr:stedsnr" v="893392" />
	</node>
	<node id="-881053" lat="63.2793277812" lon="10.5952027714">
		<tag k="name" v="Skurrubekken" />
		<tag k="ssr:stedsnr" v="862786" />
		<tag k="waterway" v="stream" />
	</node>
	<node id="-881060" lat="63.2359917726" lon="10.5532661752">
		<tag k="name" v="Turtjønna" />
		<tag k="natural" v="water" />
		<tag k="ssr:stedsnr" v="315739" />
	</node>
	<node id="-881059" lat="63.3041666631" lon="10.5414666595">
		<tag k="name" v="Bjørntjønna" />
		<tag k="natural" v="water" />
		<tag k="ssr:stedsnr" v="771417" />
	</node>
	<node id="-881057" lat="63.2411583369" lon="10.4773833431">
		<tag k="name" v="Løken" />
		<tag k="natural" v="strait" />
		<tag k="ssr:stedsnr" v="286320" />
	</node>
	<node id="-881565" lat="63.3223638905" lon="10.4371888793">
		<tag k="name" v="Fjæremsfossen" />
		<tag k="natural" v="waterfall" />
		<tag k="ssr:stedsnr" v="559881" />
	</node>
	<node id="-881562" lat="63.2715249961" lon="10.5851249932">
		<tag k="name" v="Nesnodden" />
		<tag k="natural" v="cape" />
		<tag k="ssr:stedsnr" v="559748" />
	</node>
	<node id="-880964" lat="63.2726333315" lon="10.5980444359">
		<tag k="name" v="Skurrubekkodden" />
		<tag k="natural" v="cape" />
		<tag k="ssr:stedsnr" v="164371" />
	</node>
	<node id="-881555" lat="63.2263944431" lon="10.4845527714">
		<tag k="name" v="Pengtjønna" />
		<tag k="natural" v="water" />
		<tag k="ssr:stedsnr" v="285378" />
	</node>
	<node id="-881041" lat="63.2643888855" lon="10.3870222214">
		<tag k="name" v="Seterbekken" />
		<tag k="ssr:stedsnr" v="832542" />
		<tag k="waterway" v="stream" />
	</node>
	<node id="-881038" lat="63.2453777811" lon="10.4135555569">
		<tag k="name" v="Langmyrbekken" />
		<tag k="ssr:stedsnr" v="953360" />
		<tag k="waterway" v="stream" />
	</node>
	<node id="-881546" lat="63.2850305512" lon="10.5014361185">
		<tag k="name" v="Lomtjønna" />
		<tag k="natural" v="water" />
		<tag k="ssr:stedsnr" v="953506" />
	</node>
	<node id="-881543" lat="63.3167249976" lon="10.6202194407">
		<tag k="name" v="Hestsjøen" />
		<tag k="natural" v="water" />
		<tag k="ssr:stedsnr" v="286427" />
		<tag k="water" v="lake" />
	</node>
	<node id="-881541" lat="63.3096388897" lon="10.5373833359">
		<tag k="name" v="Gullsibekken" />
		<tag k="ssr:stedsnr" v="893391" />
		<tag k="waterway" v="stream" />
	</node>
	<node id="-881537" lat="63.2776027753" lon="10.6100472261">
		<tag k="name" v="Litjskurrubekken" />
		<tag k="ssr:stedsnr" v="43309" />
		<tag k="waterway" v="stream" />
	</node>
	<node id="-881535" lat="63.2223611127" lon="10.5971749959">
		<tag k="name" v="Østringen" />
		<tag k="natural" v="water" />
		<tag k="ssr:stedsnr" v="862699" />
	</node>
	<node id="-881532" lat="63.2347138898" lon="10.5619472259">
		<tag k="name" v="Fisklaustjønna" />
		<tag k="natural" v="water" />
		<tag k="ssr:stedsnr" v="116627" />
	</node>
	<node id="-881015" lat="63.3071444434" lon="10.5988166613">
		<tag k="name" v="Ostjønna" />
		<tag k="natural" v="water" />
		<tag k="ssr:stedsnr" v="863830" />
	</node>
	<node id="-881014" lat="63.2606527752" lon="10.4807027869">
		<tag k="name" v="Stabbtjønna" />
		<tag k="natural" v="water" />
		<tag k="ssr:stedsnr" v="498249" />
	</node>
	<node id="-881521" lat="63.256836109" lon="10.5410888941">
		<tag k="name" v="Vika" />
		<tag k="natural" v="bay" />
		<tag k="ssr:stedsnr" v="74185" />
	</node>
	<node id="-881185" lat="63.284741663" lon="10.3951166569">
		<tag k="name" v="Storfagerlibekken" />
		<tag k="ssr:stedsnr" v="680843" />
		<tag k="waterway" v="stream" />
	</node>
	<node id="-881001" lat="63.2439638917" lon="10.4385055562">
		<tag k="name" v="Holbekken" />
		<tag k="ssr:stedsnr" v="953354" />
		<tag k="waterway" v="stream" />
	</node>
	<node id="-881512" lat="63.2260527785" lon="10.6074666622">
		<tag k="name" v="Daltjønna" />
		<tag k="natural" v="water" />
		<tag k="ssr:stedsnr" v="194680" />
	</node>
	<node id="-881231" lat="63.2459722193" lon="10.5100111093">
		<tag k="name" v="Brungøran" />
		<tag k="natural" v="beach" />
		<tag k="ssr:stedsnr" v="588337" />
	</node>
	<node id="-880994" lat="63.2663361155" lon="10.4583555488">
		<tag k="name" v="Kulpan" />
		<tag k="place" v="locality" />
		<tag k="ssr:stedsnr" v="523823" />
	</node>
	<node id="-881504" lat="63.1987499997" lon="10.6645249909">
		<tag k="name" v="Reinsbekken" />
		<tag k="ssr:stedsnr" v="12786" />
		<tag k="waterway" v="stream" />
	</node>
	<node id="-881503" lat="63.3287611139" lon="10.4876111198">
		<tag k="name" v="Solemsbekken" />
		<tag k="ssr:stedsnr" v="827655" />
		<tag k="waterway" v="stream" />
	</node>
	<node id="-880869" lat="63.2564055528" lon="10.5210666622">
		<tag k="loc_name" v="Grendstadsaga" />
		<tag k="name" v="Sagodden" />
		<tag k="natural" v="cape" />
		<tag k="ssr:stedsnr" v="234613" />
	</node>
	<node id="-881499" lat="63.3157611116" lon="10.6287055608">
		<tag k="name" v="Hestsjøbekken" />
		<tag k="ssr:stedsnr" v="164496" />
		<tag k="waterway" v="stream" />
	</node>
	<node id="-881498" lat="63.2829694469" lon="10.6019250028">
		<tag k="name" v="Kvernbekken" />
		<tag k="ssr:stedsnr" v="528475" />
		<tag k="waterway" v="stream" />
	</node>
	<node id="-880981" lat="63.2967194466" lon="10.4481944349">
		<tag k="name" v="Bukkholmen" />
		<tag k="place" v="islet" />
		<tag k="ssr:stedsnr" v="710522" />
	</node>
	<node id="-881490" lat="63.3337833331" lon="10.5499666677">
		<tag k="name" v="Gulltjønnbekken" />
		<tag k="ssr:stedsnr" v="888547" />
		<tag k="waterway" v="stream" />
	</node>
	<node id="-881488" lat="63.3310611077" lon="10.5459250043">
		<tag k="name" v="Brattkneppbekken" />
		<tag k="ssr:stedsnr" v="888548" />
		<tag k="waterway" v="stream" />
	</node>
	<node id="-880952" lat="63.2489222237" lon="10.4946361119">
		<tag k="name" v="Litjneset" />
		<tag k="natural" v="cape" />
		<tag k="ssr:stedsnr" v="346362" />
	</node>
	<node id="-880970" lat="63.2450194435" lon="10.4959138836">
		<tag k="name" v="Andvika" />
		<tag k="natural" v="bay" />
		<tag k="ssr:stedsnr" v="346365" />
	</node>
	<node id="-880967" lat="63.3070500015" lon="10.4207444379">
		<tag k="name" v="Løkkdalsbekken" />
		<tag k="ssr:stedsnr" v="99601" />
		<tag k="waterway" v="stream" />
	</node>
	<node id="-881476" lat="63.2750749961" lon="10.394425">
		<tag k="name" v="Svartåsbekken" />
		<tag k="ssr:stedsnr" v="346272" />
		<tag k="waterway" v="stream" />
	</node>
	<node id="-881472" lat="63.3130611143" lon="10.5465305614">
		<tag k="name" v="Sautjønna" />
		<tag k="natural" v="water" />
		<tag k="ssr:stedsnr" v="467417" />
	</node>
	<node id="-881120" lat="63.3151249973" lon="10.558402772">
		<tag k="name" v="Bostadtjønna" />
		<tag k="natural" v="water" />
		<tag k="old_name" v="Bostadsetertjønna" />
		<tag k="ssr:stedsnr" v="38629" />
	</node>
	<node id="-880953" lat="63.3079444422" lon="10.6575555608">
		<tag k="name" v="Svarttjønna" />
		<tag k="natural" v="water" />
		<tag k="ssr:stedsnr" v="863838" />
	</node>
	<node id="-881464" lat="63.3236305599" lon="10.4152999913">
		<tag k="name" v="Mjølkhusbekken" />
		<tag k="ssr:stedsnr" v="888569" />
		<tag k="waterway" v="stream" />
	</node>
	<node id="-881462" lat="63.2166722262" lon="10.5878250031">
		<tag k="name" v="Sandåa" />
		<tag k="ssr:stedsnr" v="649410" />
		<tag k="waterway" v="stream" />
	</node>
	<node id="-881459" lat="63.313744442" lon="10.5382000058">
		<tag k="name" v="Syrsjøen" />
		<tag k="natural" v="water" />
		<tag k="ssr:stedsnr" v="74840" />
	</node>
	<node id="-880944" lat="63.2501361095" lon="10.5370416749">
		<tag k="name" v="Skurubekken" />
		<tag k="ssr:stedsnr" v="771393" />
		<tag k="waterway" v="stream" />
	</node>
	<node id="-880938" lat="63.2427944468" lon="10.5153499993">
		<tag k="name" v="Brunga" />
		<tag k="ssr:stedsnr" v="103337" />
		<tag k="waterway" v="river" />
	</node>
	<node id="-880937" lat="63.2027861107" lon="10.5738861166">
		<tag k="name" v="Langdalstjønnin" />
		<tag k="natural" v="water" />
		<tag k="ssr:stedsnr" v="159817" />
	</node>
	<node id="-880936" lat="63.2725055593" lon="10.4804333298">
		<tag k="name" v="Damtjønna" />
		<tag k="natural" v="water" />
		<tag k="ssr:stedsnr" v="13782" />
	</node>
	<node id="-881447" lat="63.2447194451" lon="10.4886944467">
		<tag k="name" v="Seterodden" />
		<tag k="natural" v="cape" />
		<tag k="ssr:stedsnr" v="285344" />
	</node>
	<node id="-880928" lat="63.3282606865" lon="10.5592331968">
		<tag k="name" v="Gulltjønna" />
		<tag k="natural" v="water" />
		<tag k="ssr:stedsnr" v="438886" />
	</node>
	<node id="-880924" lat="63.2624944419" lon="10.3766388978">
		<tag k="name" v="Skjenstadbekken" />
		<tag k="ssr:stedsnr" v="286508" />
		<tag k="waterway" v="stream" />
	</node>
	<node id="-880922" lat="63.2566333312" lon="10.538777787">
		<tag k="name" v="Karlstein" />
		<tag k="natural" v="shoal" />
		<tag k="place" v="locality" />
		<tag k="ssr:stedsnr" v="286298" />
	</node>
	<node id="-880921" lat="63.2380277771" lon="10.4694027847">
		<tag k="name" v="Løksbekken" />
		<tag k="ssr:stedsnr" v="103327" />
		<tag k="waterway" v="stream" />
	</node>
	<node id="-881343" lat="63.2233027776" lon="10.5632361059">
		<tag k="name" v="Kløftbekken" />
		<tag k="ssr:stedsnr" v="467390" />
		<tag k="waterway" v="stream" />
	</node>
	<node id="-881429" lat="63.2996638884" lon="10.5369722126">
		<tag k="name" v="Torbergtjønna" />
		<tag k="natural" v="water" />
		<tag k="ssr:stedsnr" v="438825" />
	</node>
	<node id="-880910" lat="63.275930556" lon="10.5352499967">
		<tag k="name" v="Ytterbekken" />
		<tag k="ssr:stedsnr" v="13776" />
		<tag k="waterway" v="stream" />
	</node>
	<node id="-880900" lat="63.2594555565" lon="10.5979666613">
		<tag k="name" v="Skavdalsbekken" />
		<tag k="ssr:stedsnr" v="164356" />
		<tag k="waterway" v="stream" />
	</node>
	<node id="-881411" lat="63.2956083329" lon="10.4869222208">
		<tag k="name" v="Håggåbekken" />
		<tag k="ssr:stedsnr" v="771496" />
		<tag k="waterway" v="stream" />
	</node>
	<node id="-881410" lat="63.2355583353" lon="10.5842500006">
		<tag k="name" v="Værtjønna" />
		<tag k="natural" v="water" />
		<tag k="ssr:stedsnr" v="133721" />
	</node>
	<node id="-881409" lat="63.2643833328" lon="10.3586666692">
		<tag k="name" v="Vardlitjønna" />
		<tag k="natural" v="water" />
		<tag k="ssr:stedsnr" v="43488" />
	</node>
	<node id="-880896" lat="63.3094555518" lon="10.628383336">
		<tag k="name" v="Hestsjøbekken" />
		<tag k="ssr:stedsnr" v="499826" />
		<tag k="waterway" v="stream" />
	</node>
	<node id="-881406" lat="63.2935277801" lon="10.6049444389">
		<tag k="name" v="Jennvolla" />
		<tag k="ssr:stedsnr" v="363790" />
		<tag k="waterway" v="stream" />
	</node>
	<node id="-880893" lat="63.2282972183" lon="10.6123916713">
		<tag k="name" v="Grønlia" />
		<tag k="old_name" v="Grønlielva" />
		<tag k="ssr:stedsnr" v="42359" />
		<tag k="waterway" v="stream" />
	</node>
	<node id="-880890" lat="63.2637388869" lon="10.5772861024">
		<tag k="name" v="Leirvika" />
		<tag k="natural" v="bay" />
		<tag k="ssr:stedsnr" v="438749" />
	</node>
	<node id="-881401" lat="63.3130750034" lon="10.6416027811">
		<tag k="name" v="Svarttjønnbekken" />
		<tag k="ssr:stedsnr" v="559855" />
		<tag k="waterway" v="stream" />
	</node>
	<node id="-881113" lat="63.2683694406" lon="10.649394441">
		<tag k="name" v="Gaddodden" />
		<tag k="natural" v="cape" />
		<tag k="ssr:stedsnr" v="286333" />
	</node>
	<node id="-880885" lat="63.2648138868" lon="10.5806527769">
		<tag k="name" v="Kvernodden" />
		<tag k="natural" v="cape" />
		<tag k="ssr:stedsnr" v="438748" />
	</node>
	<node id="-880883" lat="63.2605250021" lon="10.5259833363">
		<tag k="name" v="Østerlandet" />
		<tag k="natural" v="cape" />
		<tag k="ssr:stedsnr" v="498232" />
	</node>
	<node id="-881392" lat="63.2786333374" lon="10.4610583415">
		<tag k="name" v="Bringbærloken" />
		<tag k="natural" v="water" />
		<tag k="ssr:stedsnr" v="43485" />
		<tag k="water" v="lake" />
	</node>
	<node id="-881020" lat="63.2606777748" lon="10.5281111189">
		<tag k="name" v="Grendstadodden" />
		<tag k="natural" v="cape" />
		<tag k="ssr:stedsnr" v="588279" />
	</node>
	<node id="-881382" lat="63.2292055584" lon="10.6364833384">
		<tag k="name" v="Bupelbekken" />
		<tag k="ssr:stedsnr" v="133718" />
		<tag k="waterway" v="stream" />
	</node>
	<node id="-881381" lat="63.266569446" lon="10.4694277847">
		<tag k="name" v="Stabbekken" />
		<tag k="ssr:stedsnr" v="923777" />
		<tag k="waterway" v="stream" />
	</node>
	<node id="-880866" lat="63.2637472264" lon="10.6015750006">
		<tag k="name" v="Storvika" />
		<tag k="natural" v="bay" />
		<tag k="ssr:stedsnr" v="528344" />
	</node>
	<node id="-881375" lat="63.3000277749" lon="10.5464166742">
		<tag k="name" v="Gørtjønna" />
		<tag k="natural" v="water" />
		<tag k="ssr:stedsnr" v="164467" />
	</node>
	<node id="-880852" lat="63.2253305581" lon="10.5157305595">
		<tag k="name" v="Blæstertjønnin" />
		<tag k="natural" v="water" />
		<tag k="ssr:stedsnr" v="315712" />
	</node>
	<node id="-881361" lat="63.2482333338" lon="10.4961749925">
		<tag k="name" v="Bjørsjøen" />
		<tag k="natural" v="water" />
		<tag k="ssr:stedsnr" v="437631" />
		<tag k="water" v="lake" />
	</node>
	<node id="-881359" lat="63.2670444411" lon="10.4002944424">
		<tag k="name" v="Kåsbekken" />
		<tag k="ssr:stedsnr" v="892268" />
		<tag k="waterway" v="stream" />
	</node>
	<node id="-880844" lat="63.3087361096" lon="10.4552527707">
		<tag k="name" v="Øyabekken" />
		<tag k="ssr:stedsnr" v="153145" />
		<tag k="waterway" v="stream" />
	</node>
	<node id="-880843" lat="63.1991083297" lon="10.6140833277">
		<tag k="name" v="Kjerringtjønna" />
		<tag k="natural" v="water" />
		<tag k="ssr:stedsnr" v="133775" />
	</node>
	<node id="-881354" lat="63.3057249979" lon="10.6724166584">
		<tag k="name" v="Sniptjønna" />
		<tag k="natural" v="water" />
		<tag k="ssr:stedsnr" v="741864" />
	</node>
	<node id="-880839" lat="63.2324944449" lon="10.6125833304">
		<tag k="name" v="Dånnøyvatnet" />
		<tag k="natural" v="water" />
		<tag k="ssr:stedsnr" v="376742" />
	</node>
	<node id="-881349" lat="63.2219833346" lon="10.538705563">
		<tag k="fixme" v="multiple name tags, choose one and add the other to alt_name" />
		<tag k="name" v="Brøttemssmåvatna;Småvatna" />
		<tag k="natural" v="water" />
		<tag k="ssr:stedsnr" v="588360" />
	</node>
	<node id="-881099" lat="63.2993472215" lon="10.6031166656">
		<tag k="name" v="Ostjønna" />
		<tag k="natural" v="water" />
		<tag k="ssr:stedsnr" v="43423" />
	</node>
	<node id="-880831" lat="63.254863886" lon="10.4636444373">
		<tag k="name" v="Båthølen" />
		<tag k="place" v="locality" />
		<tag k="ssr:stedsnr" v="953348" />
	</node>
	<node id="-880830" lat="63.2763138857" lon="10.5453166628">
		<tag k="name" v="Kvernbekken" />
		<tag k="ssr:stedsnr" v="741806" />
		<tag k="waterway" v="stream" />
	</node>
	<node id="-880828" lat="63.3105333298" lon="10.5624972156">
		<tag k="name" v="Jamtholet" />
		<tag k="natural" v="water" />
		<tag k="ssr:stedsnr" v="892398" />
	</node>
	<node id="-880826" lat="63.2624472186" lon="10.4288277778">
		<tag k="name" v="Rassveitbekken" />
		<tag k="ssr:stedsnr" v="832285" />
		<tag k="waterway" v="stream" />
	</node>
	<node id="-881333" lat="63.2437194482" lon="10.6563638885">
		<tag k="name" v="Brennfossen" />
		<tag k="natural" v="waterfall" />
		<tag k="ssr:stedsnr" v="719096" />
	</node>
	<node id="-881332" lat="63.3325777818" lon="10.5372694466">
		<tag k="name" v="Fiskdalsbekken" />
		<tag k="ssr:stedsnr" v="863880" />
		<tag k="waterway" v="stream" />
	</node>
	<node id="-881330" lat="63.2319527754" lon="10.4714361127">
		<tag k="name" v="Skifersteinsbekken" />
		<tag k="ssr:stedsnr" v="225383" />
		<tag k="waterway" v="stream" />
	</node>
	<node id="-881320" lat="63.2463416658" lon="10.5452111151">
		<tag k="name" v="Froskåstjønna" />
		<tag k="natural" v="water" />
		<tag k="ssr:stedsnr" v="597390" />
	</node>
	<node id="-881319" lat="63.2304194415" lon="10.5005138855">
		<tag k="name" v="Oksholet" />
		<tag k="natural" v="water" />
		<tag k="ssr:stedsnr" v="588342" />
	</node>
	<node id="-881317" lat="63.2742083358" lon="10.5655777814">
		<tag k="name" v="Sagbukta" />
		<tag k="natural" v="bay" />
		<tag k="ssr:stedsnr" v="619815" />
	</node>
	<node id="-881383" lat="63.3136222259" lon="10.5002055541">
		<tag k="name" v="Isdammen" />
		<tag k="natural" v="water" />
		<tag k="ssr:stedsnr" v="407415" />
		<tag k="water" v="pond" />
	</node>
	<node id="-880803" lat="63.2935277801" lon="10.6049444389">
		<tag k="name" v="Nesnelva" />
		<tag k="ssr:stedsnr" v="749832" />
		<tag k="waterway" v="stream" />
	</node>
	<node id="-881110" lat="63.3094555578" lon="10.5529222235">
		<tag k="name" v="Devltjønna" />
		<tag k="natural" v="water" />
		<tag k="ssr:stedsnr" v="719412" />
	</node>
	<node id="-880794" lat="63.2971333327" lon="10.5268472163">
		<tag k="name" v="Hesttjønna" />
		<tag k="natural" v="water" />
		<tag k="ssr:stedsnr" v="649485" />
	</node>
	<node id="-881305" lat="63.2139555532" lon="10.6694472271">
		<tag k="name" v="Korsbekken" />
		<tag k="ssr:stedsnr" v="710396" />
		<tag k="waterway" v="stream" />
	</node>
	<node id="-880790" lat="63.2304749977" lon="10.5668500068">
		<tag k="name" v="Storavatnet" />
		<tag k="natural" v="water" />
		<tag k="ssr:stedsnr" v="498747" />
		<tag k="water" v="lake" />
	</node>
	<node id="-881177" lat="63.2928416662" lon="10.5218083336">
		<tag k="name" v="Hallsetdammen" />
		<tag k="natural" v="water" />
		<tag k="ssr:stedsnr" v="741852" />
	</node>
	<node id="-881296" lat="63.2162861079" lon="10.5761277799">
		<tag k="name" v="Søringen" />
		<tag k="natural" v="water" />
		<tag k="ssr:stedsnr" v="862686" />
	</node>
	<node id="-880781" lat="63.2395944438" lon="10.540688882">
		<tag k="name" v="Sikatjønna" />
		<tag k="natural" v="water" />
		<tag k="ssr:stedsnr" v="194717" />
	</node>
	<node id="-880776" lat="63.2624666697" lon="10.5859444522">
		<tag k="name" v="Dånnøybukta" />
		<tag k="natural" v="bay" />
		<tag k="old_name" v="Øvre Leirvika;Leirvikbukta, øvre;Øver Leirvika" />
		<tag k="ssr:stedsnr" v="13762" />
	</node>
	<node id="-881280" lat="63.2802000002" lon="10.6229444512">
		<tag k="name" v="Merkesbekken" />
		<tag k="ssr:stedsnr" v="316832" />
		<tag k="waterway" v="stream" />
	</node>
	<node id="-881279" lat="63.2676500031" lon="10.3837583421">
		<tag k="name" v="Merkesbekken" />
		<tag k="ssr:stedsnr" v="892491" />
		<tag k="waterway" v="stream" />
	</node>
	<node id="-881278" lat="63.2340722244" lon="10.4890500034">
		<tag k="name" v="Rangåfossen" />
		<tag k="natural" v="waterfall" />
		<tag k="ssr:stedsnr" v="225381" />
	</node>
	<node id="-881277" lat="63.2577222223" lon="10.6424222233">
		<tag k="name" v="Tangvolla" />
		<tag k="ssr:stedsnr" v="559191" />
		<tag k="waterway" v="river" />
	</node>
	<node id="-881273" lat="63.2545333301" lon="10.48562222">
		<tag k="name" v="Stamphusbekken" />
		<tag k="ssr:stedsnr" v="588327" />
		<tag k="waterway" v="stream" />
	</node>
	<node id="-881265" lat="63.2809277762" lon="10.5012138947">
		<tag k="name" v="Svarttjønna" />
		<tag k="natural" v="water" />
		<tag k="ssr:stedsnr" v="892459" />
	</node>
	<node id="-881257" lat="63.3172083327" lon="10.4734333289">
		<tag k="name" v="Vangsmobekken" />
		<tag k="ssr:stedsnr" v="589380" />
		<tag k="waterway" v="stream" />
	</node>
	<node id="-881255" lat="63.2389722178" lon="10.6616916753">
		<tag k="name" v="Småvassbekken" />
		<tag k="ssr:stedsnr" v="463605" />
		<tag k="waterway" v="stream" />
	</node>
	<node id="-881252" lat="63.2572999958" lon="10.4888972137">
		<tag k="name" v="Litjstabbtjønna" />
		<tag k="natural" v="water" />
		<tag k="ssr:stedsnr" v="559182" />
	</node>
	<node id="-881247" lat="63.2866500023" lon="10.4223444494">
		<tag k="name" v="Litjfagerlibekken" />
		<tag k="ssr:stedsnr" v="43453" />
		<tag k="waterway" v="stream" />
	</node>
	<node id="-881755" lat="63.3205111111" lon="10.5343555553">
		<tag k="name" v="Fiskdalsbekken" />
		<tag k="ssr:stedsnr" v="832449" />
		<tag k="waterway" v="stream" />
	</node>
	<node id="-881242" lat="63.3323444429" lon="10.5089555541">
		<tag k="name" v="Stavlundsbekken" />
		<tag k="ssr:stedsnr" v="159657" />
		<tag k="waterway" v="stream" />
	</node>
	<node id="-881753" lat="63.2311249959" lon="10.6273166575">
		<tag k="name" v="Øvre Slumptjønna" />
		<tag k="natural" v="water" />
		<tag k="ssr:stedsnr" v="680782" />
	</node>
	<node id="-881236" lat="63.292194446" lon="10.4291249903">
		<tag k="fixme" v="multiple name tags, choose one and add the other to alt_name" />
		<tag k="name" v="Tullbekken;Tullen" />
		<tag k="ssr:stedsnr" v="741844" />
		<tag k="waterway" v="stream" />
	</node>
	<node id="-881747" lat="63.252808335" lon="10.5752638795">
		<tag k="name" v="Kjelkbekken" />
		<tag k="ssr:stedsnr" v="42335" />
		<tag k="waterway" v="stream" />
	</node>
	<node id="-881743" lat="63.2815388877" lon="10.4672805524">
		<tag k="name" v="Moodden" />
		<tag k="natural" v="cape" />
		<tag k="ssr:stedsnr" v="385209" />
	</node>
	<node id="-881741" lat="63.2591083337" lon="10.5541722129">
		<tag k="name" v="Rundhaugbekken" />
		<tag k="ssr:stedsnr" v="103300" />
		<tag k="waterway" v="stream" />
	</node>
	<node id="-881227" lat="63.2867722265" lon="10.5437833385">
		<tag k="name" v="Vargslættbekken" />
		<tag k="ssr:stedsnr" v="256752" />
		<tag k="waterway" v="stream" />
	</node>
	<node id="-881225" lat="63.3313194423" lon="10.4332527843">
		<tag k="name" v="Nordsetfossen" />
		<tag k="natural" v="waterfall" />
		<tag k="ssr:stedsnr" v="463591" />
	</node>
	<node id="-881222" lat="63.2531364297" lon="10.464135598">
		<tag k="name" v="Trongfossen" />
		<tag k="natural" v="waterfall" />
		<tag k="ssr:stedsnr" v="467337" />
	</node>
	<node id="-881220" lat="63.3347916702" lon="10.4652750032">
		<tag k="name" v="Svartdalsbekken" />
		<tag k="ssr:stedsnr" v="766627" />
		<tag k="waterway" v="stream" />
	</node>
	<node id="-881218" lat="63.2321250022" lon="10.4929166664">
		<tag k="name" v="Rangåa" />
		<tag k="ssr:stedsnr" v="801711" />
		<tag k="waterway" v="river" />
	</node>
	<node id="-881723" lat="63.304577782" lon="10.5653388912">
		<tag k="name" v="Dyrbekken" />
		<tag k="ssr:stedsnr" v="649443" />
		<tag k="waterway" v="stream" />
	</node>
	<node id="-881718" lat="63.2337499972" lon="10.6068666678">
		<tag k="name" v="Dånnøydammen" />
		<tag k="ssr:stedsnr" v="892351" />
		<tag k="waterway" v="dam" />
	</node>
	<node id="-881204" lat="63.2572388871" lon="10.4301249966">
		<tag k="name" v="Rassveita" />
		<tag k="natural" v="water" />
		<tag k="ssr:stedsnr" v="559169" />
	</node>
	<node id="-881712" lat="63.2911722221" lon="10.5201250097">
		<tag k="name" v="Byatjønna" />
		<tag k="natural" v="water" />
		<tag k="ssr:stedsnr" v="377795" />
	</node>
	<node id="-881199" lat="63.3266972198" lon="10.5662416587">
		<tag k="name" v="Auntjønnbekken" />
		<tag k="ssr:stedsnr" v="159649" />
		<tag k="waterway" v="stream" />
	</node>
	<node id="-881196" lat="63.26777222" lon="10.3820972149">
		<tag k="name" v="Merkesbekken" />
		<tag k="ssr:stedsnr" v="619800" />
		<tag k="waterway" v="stream" />
	</node>
	<node id="-880818" lat="63.268205552" lon="10.5432027684">
		<tag k="name" v="Storsanden" />
		<tag k="natural" v="cape" />
		<tag k="ssr:stedsnr" v="528329" />
	</node>
	<node id="-881706" lat="63.257250004" lon="10.5310722307">
		<tag k="name" v="Kjerringodden" />
		<tag k="natural" v="cape" />
		<tag k="ssr:stedsnr" v="953317" />
	</node>
	<node id="-881705" lat="63.234250002" lon="10.6051944523">
		<tag k="name" v="Dånnøyfossen" />
		<tag k="natural" v="waterfall" />
		<tag k="ssr:stedsnr" v="892352" />
	</node>
	<node id="-881704" lat="63.2289361118" lon="10.6253416607">
		<tag k="name" v="Nedre Slumptjønna" />
		<tag k="natural" v="water" />
		<tag k="ssr:stedsnr" v="255745" />
	</node>
	<node id="-881187" lat="63.3194527779" lon="10.5996888964">
		<tag k="name" v="Jovatnet" />
		<tag k="natural" v="water" />
		<tag k="ssr:stedsnr" v="771445" />
		<tag k="water" v="lake" />
	</node>
	<node id="-881698" lat="63.3398194445" lon="10.4869805492">
		<tag k="name" v="Nordbekken" />
		<tag k="ssr:stedsnr" v="948672" />
		<tag k="waterway" v="stream" />
	</node>
	<node id="-881243" lat="63.2605777811" lon="10.395044444">
		<tag k="name" v="Svallbekken" />
		<tag k="ssr:stedsnr" v="134223" />
		<tag k="waterway" v="stream" />
	</node>
	<node id="-881694" lat="63.3121638871" lon="10.4578750046">
		<tag k="name" v="Osbekken" />
		<tag k="ssr:stedsnr" v="341687" />
		<tag k="waterway" v="stream" />
	</node>
	<node id="-881690" lat="63.3123333294" lon="10.5208000091">
		<tag k="name" v="Damtjønna" />
		<tag k="natural" v="water" />
		<tag k="ssr:stedsnr" v="681861" />
	</node>
	<node id="-881689" lat="63.2717333323" lon="10.3919000099">
		<tag k="name" v="Hestkosbekken" />
		<tag k="ssr:stedsnr" v="528301" />
		<tag k="waterway" v="stream" />
	</node>
	<node id="-881176" lat="63.3116805549" lon="10.4122472144">
		<tag k="name" v="Hallbekken" />
		<tag k="ssr:stedsnr" v="377853" />
		<tag k="waterway" v="stream" />
	</node>
	<node id="-881241" lat="63.248588886" lon="10.5055555617">
		<tag k="name" v="Brøttemsneset" />
		<tag k="natural" v="cape" />
		<tag k="ssr:stedsnr" v="467362" />
	</node>
	<node id="-881169" lat="63.1763611127" lon="10.668486113">
		<tag k="name" v="Tangvollsjøen" />
		<tag k="natural" v="water" />
		<tag k="ssr:stedsnr" v="255811" />
	</node>
	<node id="-881679" lat="63.2967083299" lon="10.5319972144">
		<tag k="name" v="Småtjønnin" />
		<tag k="natural" v="water" />
		<tag k="ssr:stedsnr" v="407484" />
	</node>
	<node id="-881678" lat="63.2663333316" lon="10.6320722294">
		<tag k="name" v="Tangvollbukta" />
		<tag k="natural" v="bay" />
		<tag k="ssr:stedsnr" v="741794" />
	</node>
	<node id="-881164" lat="63.2646277774" lon="10.5688638818">
		<tag k="name" v="Rørkastodden" />
		<tag k="natural" v="cape" />
		<tag k="ssr:stedsnr" v="377724" />
	</node>
	<node id="-881160" lat="63.2716805567" lon="10.5504916599">
		<tag k="name" v="Bjørklibukta" />
		<tag k="natural" v="bay" />
		<tag k="ssr:stedsnr" v="264192" />
	</node>
	<node id="-881156" lat="63.2443111118" lon="10.4823333245">
		<tag k="name" v="Svebakktangen" />
		<tag k="natural" v="cape" />
		<tag k="ssr:stedsnr" v="225340" />
	</node>
	<node id="-881667" lat="63.3366749975" lon="10.4784388885">
		<tag k="name" v="Amundsbekken" />
		<tag k="ssr:stedsnr" v="377920" />
		<tag k="waterway" v="stream" />
	</node>
	<node id="-881666" lat="63.2695611151" lon="10.4316861193">
		<tag k="name" v="Litjelva" />
		<tag k="ssr:stedsnr" v="164312" />
		<tag k="waterway" v="river" />
	</node>
</osm>
