<?xml version="1.0" encoding="UTF-8"?>
<osm generator="osmapis" version="0.6">
	<node id="-868351" lat="63.2664750027" lon="10.4703555554">
		<tag k="name" v="Stabbdalen" />
		<tag k="natural" v="valley" />
		<tag k="place" v="locality" />
		<tag k="ssr:stedsnr" v="225310" />
	</node>
	<node id="-868517" lat="63.3089944469" lon="10.6624499917">
		<tag k="fixme" v="consider natural=peak for the most distinct mountains in the district" />
		<tag k="name" v="Merraåsen" />
		<tag k="natural" v="hill" />
		<tag k="place" v="locality" />
		<tag k="ssr:stedsnr" v="892430" />
	</node>
	<node id="-868349" lat="63.2635944459" lon="10.4663694391">
		<tag k="fixme" v="consider natural=peak for the most distinct mountains in the district" />
		<tag k="name" v="Stabbåsen" />
		<tag k="natural" v="hill" />
		<tag k="place" v="locality" />
		<tag k="ssr:stedsnr" v="567139" />
	</node>
	<node id="-868347" lat="63.2079222241" lon="10.6194333423">
		<tag k="name" v="Kjerringdalen" />
		<tag k="natural" v="valley" />
		<tag k="place" v="locality" />
		<tag k="ssr:stedsnr" v="523825" />
	</node>
	<node id="-868346" lat="63.311352781" lon="10.4254416627">
		<tag k="name" v="Litjmyrberget" />
		<tag k="natural" v="hill" />
		<tag k="place" v="locality" />
		<tag k="ssr:stedsnr" v="99613" />
	</node>
	<node id="-868857" lat="63.237183334" lon="10.5979111187">
		<tag k="name" v="Tjærebuholet" />
		<tag k="natural" v="valley" />
		<tag k="place" v="locality" />
		<tag k="ssr:stedsnr" v="285354" />
	</node>
	<node id="-868855" lat="63.3207111118" lon="10.5532055509">
		<tag k="fixme" v="consider natural=peak for the most distinct mountains in the district" />
		<tag k="name" v="Sagåsen" />
		<tag k="natural" v="hill" />
		<tag k="place" v="locality" />
		<tag k="ssr:stedsnr" v="407442" />
	</node>
	<node id="-868342" lat="63.1802638854" lon="10.6545083254">
		<tag k="name" v="Tangvolldalen" />
		<tag k="natural" v="valley" />
		<tag k="place" v="locality" />
		<tag k="ssr:stedsnr" v="740764" />
	</node>
	<node id="-868341" lat="63.2985472258" lon="10.5184027747">
		<tag k="name" v="Grautbakkan" />
		<tag k="natural" v="slope" />
		<tag k="place" v="locality" />
		<tag k="ssr:stedsnr" v="832501" />
	</node>
	<node id="-868338" lat="63.2873388927" lon="10.4928861106">
		<tag k="name" v="Stormyrberga" />
		<tag k="natural" v="hill" />
		<tag k="place" v="locality" />
		<tag k="ssr:stedsnr" v="649497" />
	</node>
	<node id="-868336" lat="63.2512305518" lon="10.448733341">
		<tag k="fixme" v="consider natural=peak for the most distinct mountains in the district" />
		<tag k="name" v="Målsjøåsan" />
		<tag k="natural" v="hill" />
		<tag k="place" v="locality" />
		<tag k="ssr:stedsnr" v="164379" />
	</node>
	<node id="-868335" lat="63.2624527782" lon="10.5713083364">
		<tag k="fixme" v="consider natural=peak for the most distinct mountains in the district" />
		<tag k="name" v="Styggdalskammen" />
		<tag k="natural" v="hill" />
		<tag k="place" v="locality" />
		<tag k="ssr:stedsnr" v="467304" />
	</node>
	<node id="-868333" lat="63.2776722179" lon="10.4834916697">
		<tag k="name" v="Rogndalslia" />
		<tag k="natural" v="slope" />
		<tag k="place" v="locality" />
		<tag k="ssr:stedsnr" v="710295" />
	</node>
	<node id="-868844" lat="63.323641667" lon="10.5371638856">
		<tag k="name" v="Fiskdalsberga" />
		<tag k="natural" v="hill" />
		<tag k="place" v="locality" />
		<tag k="ssr:stedsnr" v="281627" />
	</node>
	<node id="-868330" lat="63.2605805523" lon="10.5779861147">
		<tag k="name" v="Oddløfta" />
		<tag k="natural" v="slope" />
		<tag k="place" v="locality" />
		<tag k="ssr:stedsnr" v="649302" />
	</node>
	<node id="-868841" lat="63.2788583304" lon="10.4832916737">
		<tag k="fixme" v="consider natural=peak for the most distinct mountains in the district" />
		<tag k="name" v="Eggåsen" />
		<tag k="natural" v="hill" />
		<tag k="place" v="locality" />
		<tag k="ssr:stedsnr" v="558818" />
	</node>
	<node id="-868328" lat="63.2573416631" lon="10.4807500062">
		<tag k="fixme" v="consider natural=peak for the most distinct mountains in the district" />
		<tag k="name" v="Litjkringlåsen" />
		<tag k="natural" v="hill" />
		<tag k="place" v="locality" />
		<tag k="ssr:stedsnr" v="588262" />
	</node>
	<node id="-868327" lat="63.2992972235" lon="10.4412250017">
		<tag k="name" v="Kvernbakkan" />
		<tag k="natural" v="slope" />
		<tag k="place" v="locality" />
		<tag k="ssr:stedsnr" v="407542" />
	</node>
	<node id="-868838" lat="63.3358694477" lon="10.518347215">
		<tag k="name" v="Svartdalen" />
		<tag k="natural" v="valley" />
		<tag k="place" v="locality" />
		<tag k="ssr:stedsnr" v="498963" />
	</node>
	<node id="-868325" lat="63.2974472183" lon="10.4809805555">
		<tag k="name" v="Hesttrø" />
		<tag k="place" v="locality" />
		<tag k="ssr:stedsnr" v="467500" />
	</node>
	<node id="-868836" lat="63.2692861139" lon="10.3941972295">
		<tag k="name" v="Hestkosin" />
		<tag k="natural" v="slope" />
		<tag k="place" v="locality" />
		<tag k="ssr:stedsnr" v="346274" />
	</node>
	<node id="-868835" lat="63.2968833342" lon="10.3972583433">
		<tag k="fixme" v="consider natural=peak for the most distinct mountains in the district" />
		<tag k="name" v="Higeråsen" />
		<tag k="natural" v="hill" />
		<tag k="place" v="locality" />
		<tag k="ssr:stedsnr" v="680869" />
	</node>
	<node id="-868321" lat="63.2050638849" lon="10.6243027823">
		<tag k="name" v="Kamferhaugan" />
		<tag k="natural" v="hill" />
		<tag k="place" v="locality" />
		<tag k="ssr:stedsnr" v="766799" />
	</node>
	<node id="-868832" lat="63.2568944481" lon="10.5413916692">
		<tag k="name" v="Vikakleiva" />
		<tag k="natural" v="hill" />
		<tag k="place" v="locality" />
		<tag k="ssr:stedsnr" v="892297" />
	</node>
	<node id="-868319" lat="63.2984055536" lon="10.4119527807">
		<tag k="name" v="Svartdalen" />
		<tag k="natural" v="valley" />
		<tag k="place" v="locality" />
		<tag k="ssr:stedsnr" v="832516" />
	</node>
	<node id="-868830" lat="63.3391250012" lon="10.4702194377">
		<tag k="name" v="Amundsbakken" />
		<tag k="natural" v="slope" />
		<tag k="place" v="locality" />
		<tag k="ssr:stedsnr" v="827648" />
	</node>
	<node id="-868829" lat="63.2297416673" lon="10.471491661">
		<tag k="name" v="Skifersteinsdalen" />
		<tag k="natural" v="valley" />
		<tag k="place" v="locality" />
		<tag k="ssr:stedsnr" v="649387" />
	</node>
	<node id="-868316" lat="63.2855194457" lon="10.4087250014">
		<tag k="name" v="Solmerkflata" />
		<tag k="place" v="locality" />
		<tag k="ssr:stedsnr" v="649523" />
	</node>
	<node id="-868315" lat="63.2414555592" lon="10.519527782">
		<tag k="name" v="Brungbjørga" />
		<tag k="natural" v="hill" />
		<tag k="place" v="locality" />
		<tag k="ssr:stedsnr" v="953377" />
	</node>
	<node id="-868314" lat="63.2549499975" lon="10.5614250098">
		<tag k="name" v="Rundhaugdalen" />
		<tag k="natural" v="valley" />
		<tag k="place" v="locality" />
		<tag k="ssr:stedsnr" v="771397" />
	</node>
	<node id="-868825" lat="63.2305444483" lon="10.5186861075">
		<tag k="fixme" v="consider natural=peak for the most distinct mountains in the district" />
		<tag k="name" v="Liaåsen" />
		<tag k="natural" v="hill" />
		<tag k="place" v="locality" />
		<tag k="ssr:stedsnr" v="649386" />
	</node>
	<node id="-868312" lat="63.2981583358" lon="10.4073277869">
		<tag k="name" v="Bjørndalen" />
		<tag k="natural" v="valley" />
		<tag k="place" v="locality" />
		<tag k="ssr:stedsnr" v="832522" />
	</node>
	<node id="-868311" lat="63.2706222205" lon="10.5275527702">
		<tag k="name" v="Blåberget" />
		<tag k="natural" v="hill" />
		<tag k="place" v="locality" />
		<tag k="ssr:stedsnr" v="286289" />
	</node>
	<node id="-868310" lat="63.277349998" lon="10.602108339">
		<tag k="name" v="Sandløfta" />
		<tag k="place" v="locality" />
		<tag k="ssr:stedsnr" v="528354" />
	</node>
	<node id="-868401" lat="63.2938527809" lon="10.3936861186">
		<tag k="fixme" v="consider natural=peak for the most distinct mountains in the district" />
		<tag k="name" v="Reinslættåsen" />
		<tag k="natural" v="hill" />
		<tag k="place" v="locality" />
		<tag k="ssr:stedsnr" v="649542" />
	</node>
	<node id="-868307" lat="63.2511750032" lon="10.4806555599">
		<tag k="fixme" v="consider natural=peak for the most distinct mountains in the district" />
		<tag k="name" v="Svebakkåsen" />
		<tag k="natural" v="hill" />
		<tag k="place" v="locality" />
		<tag k="ssr:stedsnr" v="558212" />
	</node>
	<node id="-868306" lat="63.2718833338" lon="10.5049499992">
		<tag k="fixme" v="consider natural=peak for the most distinct mountains in the district" />
		<tag k="name" v="Vinnsåsen" />
		<tag k="natural" v="hill" />
		<tag k="place" v="locality" />
		<tag k="ssr:stedsnr" v="588264" />
	</node>
	<node id="-868600" lat="63.2987666709" lon="10.4488638816">
		<tag k="name" v="Forsetkjela" />
		<tag k="natural" v="valley" />
		<tag k="place" v="locality" />
		<tag k="ssr:stedsnr" v="942125" />
	</node>
	<node id="-868302" lat="63.2904083359" lon="10.4176250079">
		<tag k="name" v="Bromstadtrøberga" />
		<tag k="natural" v="hill" />
		<tag k="place" v="locality" />
		<tag k="ssr:stedsnr" v="832523" />
	</node>
	<node id="-868813" lat="63.2612138859" lon="10.4149611047">
		<tag k="fixme" v="consider natural=peak for the most distinct mountains in the district" />
		<tag k="name" v="Sagåsen" />
		<tag k="natural" v="hill" />
		<tag k="place" v="locality" />
		<tag k="ssr:stedsnr" v="74176" />
	</node>
	<node id="-868299" lat="63.2611666623" lon="10.5968111196">
		<tag k="name" v="Skavdalshøgda" />
		<tag k="natural" v="hill" />
		<tag k="place" v="locality" />
		<tag k="ssr:stedsnr" v="498241" />
	</node>
	<node id="-868298" lat="63.2760249992" lon="10.4874222316">
		<tag k="name" v="Skuggdalen" />
		<tag k="natural" v="valley" />
		<tag k="place" v="locality" />
		<tag k="ssr:stedsnr" v="225306" />
	</node>
	<node id="-868296" lat="63.3270388886" lon="10.4125027731">
		<tag k="name" v="Nidengskardet" />
		<tag k="natural" v="valley" />
		<tag k="place" v="locality" />
		<tag k="ssr:stedsnr" v="159827" />
	</node>
	<node id="-868295" lat="63.2529611121" lon="10.658208337">
		<tag k="name" v="Stordalen" />
		<tag k="natural" v="valley" />
		<tag k="place" v="locality" />
		<tag k="ssr:stedsnr" v="558213" />
	</node>
	<node id="-868804" lat="63.263880553" lon="10.3823972222">
		<tag k="name" v="Vollbrottet" />
		<tag k="natural" v="slope" />
		<tag k="place" v="locality" />
		<tag k="ssr:stedsnr" v="104499" />
	</node>
	<node id="-868803" lat="63.3011305582" lon="10.5209944535">
		<tag k="name" v="Storkleiva" />
		<tag k="natural" v="hill" />
		<tag k="place" v="locality" />
		<tag k="ssr:stedsnr" v="467396" />
	</node>
	<node id="-868290" lat="63.2518249976" lon="10.5590444367">
		<tag k="name" v="Liadalen" />
		<tag k="natural" v="valley" />
		<tag k="place" v="locality" />
		<tag k="ssr:stedsnr" v="953367" />
	</node>
	<node id="-868289" lat="63.2735861141" lon="10.479247226">
		<tag k="name" v="Damtjønnlia" />
		<tag k="natural" v="slope" />
		<tag k="place" v="locality" />
		<tag k="ssr:stedsnr" v="588267" />
	</node>
	<node id="-868287" lat="63.2777833322" lon="10.5581361051">
		<tag k="name" v="Aundalen" />
		<tag k="natural" v="valley" />
		<tag k="place" v="locality" />
		<tag k="ssr:stedsnr" v="628184" />
	</node>
	<node id="-868285" lat="63.3090666653" lon="10.6645055601">
		<tag k="fixme" v="consider natural=peak for the most distinct mountains in the district" />
		<tag k="name" v="Svarttjønnåsen" />
		<tag k="natural" v="hill" />
		<tag k="place" v="locality" />
		<tag k="ssr:stedsnr" v="437836" />
	</node>
	<node id="-868795" lat="63.2571527755" lon="10.5851138825">
		<tag k="name" v="Korsdalen" />
		<tag k="natural" v="valley" />
		<tag k="place" v="locality" />
		<tag k="ssr:stedsnr" v="402647" />
	</node>
	<node id="-868794" lat="63.2548527812" lon="10.4001083393">
		<tag k="name" v="Tjuvdalen" />
		<tag k="natural" v="valley" />
		<tag k="place" v="locality" />
		<tag k="ssr:stedsnr" v="74174" />
	</node>
	<node id="-868793" lat="63.2917722197" lon="10.58519723">
		<tag k="name" v="Hårrådalen" />
		<tag k="natural" v="valley" />
		<tag k="place" v="locality" />
		<tag k="ssr:stedsnr" v="953487" />
	</node>
	<node id="-868279" lat="63.229524996" lon="10.5085611025">
		<tag k="name" v="Stongslættdalen" />
		<tag k="natural" v="valley" />
		<tag k="place" v="locality" />
		<tag k="ssr:stedsnr" v="346370" />
	</node>
	<node id="-868786" lat="63.2702138861" lon="10.5361333322">
		<tag k="fixme" v="consider natural=peak for the most distinct mountains in the district" />
		<tag k="name" v="Bjørkliåsen" />
		<tag k="natural" v="hill" />
		<tag k="place" v="locality" />
		<tag k="ssr:stedsnr" v="43283" />
	</node>
	<node id="-868273" lat="63.2813388922" lon="10.5833111104">
		<tag k="name" v="Storåsen" />
		<tag k="natural" v="hill" />
		<tag k="place" v="locality" />
		<tag k="ssr:stedsnr" v="174290" />
	</node>
	<node id="-868861" lat="63.2260583361" lon="10.5392805571">
		<tag k="fixme" v="consider natural=peak for the most distinct mountains in the district" />
		<tag k="name" v="Vollåsen" />
		<tag k="natural" v="hill" />
		<tag k="place" v="locality" />
		<tag k="ssr:stedsnr" v="710414" />
	</node>
	<node id="-868268" lat="63.2947361096" lon="10.3990305484">
		<tag k="name" v="Anderskolbotn" />
		<tag k="natural" v="valley" />
		<tag k="place" v="locality" />
		<tag k="ssr:stedsnr" v="225517" />
	</node>
	<node id="-868778" lat="63.3097833361" lon="10.5296055462">
		<tag k="fixme" v="consider natural=peak for the most distinct mountains in the district" />
		<tag k="name" v="Damtjønnåsen" />
		<tag k="natural" v="hill" />
		<tag k="place" v="locality" />
		<tag k="ssr:stedsnr" v="286404" />
	</node>
	<node id="-868265" lat="63.2575722237" lon="10.5653166747">
		<tag k="name" v="Kolbudalen" />
		<tag k="natural" v="valley" />
		<tag k="place" v="locality" />
		<tag k="ssr:stedsnr" v="407331" />
	</node>
	<node id="-868264" lat="63.2466472234" lon="10.5271666613">
		<tag k="fixme" v="consider natural=peak for the most distinct mountains in the district" />
		<tag k="name" v="Stikammen" />
		<tag k="natural" v="hill" />
		<tag k="place" v="locality" />
		<tag k="ssr:stedsnr" v="953372" />
	</node>
	<node id="-868263" lat="63.2351472207" lon="10.5020277794">
		<tag k="fixme" v="consider natural=peak for the most distinct mountains in the district" />
		<tag k="name" v="Karivollåsen" />
		<tag k="natural" v="hill" />
		<tag k="place" v="locality" />
		<tag k="ssr:stedsnr" v="346366" />
	</node>
	<node id="-868261" lat="63.2163666636" lon="10.6245527794">
		<tag k="name" v="Vintervegholet" />
		<tag k="natural" v="valley" />
		<tag k="place" v="locality" />
		<tag k="ssr:stedsnr" v="42361" />
	</node>
	<node id="-868772" lat="63.2923305521" lon="10.4599777794">
		<tag k="name" v="Gunnarrommet" />
		<tag k="natural" v="slope" />
		<tag k="place" v="locality" />
		<tag k="ssr:stedsnr" v="104493" />
	</node>
	<node id="-868353" lat="63.2364166647" lon="10.4700444453">
		<tag k="name" v="Løksåsen" />
		<tag k="natural" v="hill" />
		<tag k="place" v="locality" />
		<tag k="ssr:stedsnr" v="164376" />
	</node>
	<node id="-868258" lat="63.2641944411" lon="10.4887666741">
		<tag k="fixme" v="consider natural=peak for the most distinct mountains in the district" />
		<tag k="name" v="Ytter Synnåsen" />
		<tag k="natural" v="hill" />
		<tag k="place" v="locality" />
		<tag k="ssr:stedsnr" v="225300" />
	</node>
	<node id="-868257" lat="63.166388888" lon="10.6801694422">
		<tag k="name" v="Oksdalen" />
		<tag k="natural" v="valley" />
		<tag k="place" v="locality" />
		<tag k="ssr:stedsnr" v="537758" />
	</node>
	<node id="-868848" lat="63.2523999979" lon="10.6509722152">
		<tag k="name" v="Stordalen" />
		<tag k="natural" v="valley" />
		<tag k="place" v="locality" />
		<tag k="ssr:stedsnr" v="649389" />
	</node>
	<node id="-868254" lat="63.2905472261" lon="10.4027861088">
		<tag k="fixme" v="consider natural=peak for the most distinct mountains in the district" />
		<tag k="name" v="Langdalsåsen" />
		<tag k="natural" v="hill" />
		<tag k="place" v="locality" />
		<tag k="ssr:stedsnr" v="832513" />
	</node>
	<node id="-868701" lat="63.2765083376" lon="10.3950833341">
		<tag k="fixme" v="consider natural=peak for the most distinct mountains in the district" />
		<tag k="name" v="Svartåsen" />
		<tag k="natural" v="hill" />
		<tag k="place" v="locality" />
		<tag k="ssr:stedsnr" v="104271" />
	</node>
	<node id="-868530" lat="63.3309916683" lon="10.434566667">
		<tag k="name" v="Bomberget" />
		<tag k="natural" v="hill" />
		<tag k="place" v="locality" />
		<tag k="ssr:stedsnr" v="584625" />
	</node>
	<node id="-868251" lat="63.2657777818" lon="10.4252694491">
		<tag k="fixme" v="consider natural=peak for the most distinct mountains in the district" />
		<tag k="name" v="Litjsagåsen" />
		<tag k="natural" v="hill" />
		<tag k="place" v="locality" />
		<tag k="ssr:stedsnr" v="467272" />
	</node>
	<node id="-868248" lat="63.3221805566" lon="10.5474361201">
		<tag k="name" v="Rundhaugen" />
		<tag k="natural" v="hill" />
		<tag k="place" v="locality" />
		<tag k="ssr:stedsnr" v="195882" />
	</node>
	<node id="-868247" lat="63.3197833321" lon="10.4882055532">
		<tag k="fixme" v="consider natural=peak for the most distinct mountains in the district" />
		<tag k="name" v="Lauvåsen" />
		<tag k="natural" v="hill" />
		<tag k="place" v="locality" />
		<tag k="ssr:stedsnr" v="104377" />
	</node>
	<node id="-869017" lat="63.2783194454" lon="10.4005361105">
		<tag k="name" v="Seterhaugan" />
		<tag k="natural" v="hill" />
		<tag k="place" v="locality" />
		<tag k="ssr:stedsnr" v="953531" />
	</node>
	<node id="-868243" lat="63.2963083297" lon="10.4526416631">
		<tag k="name" v="Merkesdalen" />
		<tag k="natural" v="valley" />
		<tag k="place" v="locality" />
		<tag k="ssr:stedsnr" v="953549" />
	</node>
	<node id="-868519" lat="63.3262166658" lon="10.5319638943">
		<tag k="name" v="Bostadliin" />
		<tag k="natural" v="slope" />
		<tag k="place" v="locality" />
		<tag k="ssr:stedsnr" v="766616" />
	</node>
	<node id="-868753" lat="63.2843444458" lon="10.6153055604">
		<tag k="fixme" v="consider natural=peak for the most distinct mountains in the district" />
		<tag k="name" v="Høybuslåttåsen" />
		<tag k="natural" v="hill" />
		<tag k="place" v="locality" />
		<tag k="ssr:stedsnr" v="346461" />
	</node>
	<node id="-868752" lat="63.3092777737" lon="10.4670222191">
		<tag k="name" v="Sunndalan" />
		<tag k="natural" v="valley" />
		<tag k="place" v="locality" />
		<tag k="ssr:stedsnr" v="588563" />
	</node>
	<node id="-868760" lat="63.2643388918" lon="10.4670805581">
		<tag k="fixme" v="consider natural=peak for the most distinct mountains in the district" />
		<tag k="name" v="Stabbåsen" />
		<tag k="natural" v="hill" />
		<tag k="place" v="locality" />
		<tag k="ssr:stedsnr" v="43277" />
	</node>
	<node id="-868749" lat="63.2804277748" lon="10.5591944503">
		<tag k="fixme" v="consider natural=peak for the most distinct mountains in the district" />
		<tag k="name" v="Kåsåsen" />
		<tag k="natural" v="hill" />
		<tag k="place" v="locality" />
		<tag k="ssr:stedsnr" v="316838" />
	</node>
	<node id="-868747" lat="63.2835638883" lon="10.4407833355">
		<tag k="name" v="Malenahaugen" />
		<tag k="natural" v="hill" />
		<tag k="place" v="locality" />
		<tag k="ssr:stedsnr" v="892482" />
	</node>
	<node id="-868233" lat="63.2491083344" lon="10.4079527731">
		<tag k="fixme" v="consider natural=peak for the most distinct mountains in the district" />
		<tag k="name" v="Rotmyråsen" />
		<tag k="natural" v="hill" />
		<tag k="place" v="locality" />
		<tag k="ssr:stedsnr" v="862614" />
	</node>
	<node id="-868232" lat="63.2088250016" lon="10.6597138821">
		<tag k="alt_name" v="Østre Brungmarka;Østre-Tangvoll" />
		<tag k="name" v="Østre Tangvoll" />
		<tag k="natural" v="wood" />
		<tag k="ssr:stedsnr" v="437689" />
	</node>
	<node id="-868231" lat="63.3068055579" lon="10.4642305564">
		<tag k="name" v="Badstudalen" />
		<tag k="natural" v="valley" />
		<tag k="place" v="locality" />
		<tag k="ssr:stedsnr" v="705687" />
	</node>
	<node id="-868230" lat="63.2465555534" lon="10.4682583315">
		<tag k="fixme" v="consider natural=peak for the most distinct mountains in the district" />
		<tag k="name" v="Elvåsen" />
		<tag k="natural" v="hill" />
		<tag k="place" v="locality" />
		<tag k="ssr:stedsnr" v="103324" />
	</node>
	<node id="-868741" lat="63.3072055527" lon="10.5025111157">
		<tag k="fixme" v="consider natural=peak for the most distinct mountains in the district" />
		<tag k="name" v="Gjellan" />
		<tag k="natural" v="hill" />
		<tag k="place" v="locality" />
		<tag k="ssr:stedsnr" v="507117" />
	</node>
	<node id="-868228" lat="63.2761499975" lon="10.3961777836">
		<tag k="fixme" v="consider natural=peak for the most distinct mountains in the district" />
		<tag k="name" v="Svartåsen" />
		<tag k="natural" v="hill" />
		<tag k="place" v="locality" />
		<tag k="ssr:stedsnr" v="923189" />
	</node>
	<node id="-868570" lat="63.2404916691" lon="10.4823222278">
		<tag k="name" v="Rangåmoen" />
		<tag k="place" v="locality" />
		<tag k="ssr:stedsnr" v="467335" />
	</node>
	<node id="-868736" lat="63.299338889" lon="10.4505277745">
		<tag k="name" v="Nonsberget" />
		<tag k="natural" v="hill" />
		<tag k="place" v="locality" />
		<tag k="ssr:stedsnr" v="43480" />
	</node>
	<node id="-868735" lat="63.2197611074" lon="10.6281750014">
		<tag k="fixme" v="consider natural=peak for the most distinct mountains in the district" />
		<tag k="name" v="Skjeftesåsen" />
		<tag k="natural" v="hill" />
		<tag k="place" v="locality" />
		<tag k="ssr:stedsnr" v="225400" />
	</node>
	<node id="-868734" lat="63.3119888885" lon="10.6175944445">
		<tag k="name" v="Middagspynten" />
		<tag k="natural" v="hill" />
		<tag k="place" v="locality" />
		<tag k="ssr:stedsnr" v="346460" />
	</node>
	<node id="-868221" lat="63.2675194442" lon="10.5294722181">
		<tag k="fixme" v="consider natural=peak for the most distinct mountains in the district" />
		<tag k="name" v="Beåsen" />
		<tag k="natural" v="hill" />
		<tag k="place" v="locality" />
		<tag k="ssr:stedsnr" v="164350" />
	</node>
	<node id="-868220" lat="63.2621694488" lon="10.5813138979">
		<tag k="name" v="Loken" />
		<tag k="place" v="locality" />
		<tag k="ssr:stedsnr" v="286285" />
	</node>
	<node id="-868218" lat="63.2553611109" lon="10.5733027701">
		<tag k="fixme" v="consider natural=peak for the most distinct mountains in the district" />
		<tag k="name" v="Kolbudalsåsen" />
		<tag k="natural" v="hill" />
		<tag k="place" v="locality" />
		<tag k="ssr:stedsnr" v="681192" />
	</node>
	<node id="-868956" lat="63.2373305566" lon="10.4977416598">
		<tag k="fixme" v="consider natural=peak for the most distinct mountains in the district" />
		<tag k="name" v="Andvikkammen" />
		<tag k="natural" v="hill" />
		<tag k="place" v="locality" />
		<tag k="ssr:stedsnr" v="740719" />
	</node>
	<node id="-868216" lat="63.267749999" lon="10.4758083423">
		<tag k="fixme" v="consider natural=peak for the most distinct mountains in the district" />
		<tag k="name" v="Stabbseteråsen" />
		<tag k="natural" v="hill" />
		<tag k="place" v="locality" />
		<tag k="ssr:stedsnr" v="407320" />
	</node>
	<node id="-868215" lat="63.307272224" lon="10.5472555576">
		<tag k="name" v="Gullsiberget" />
		<tag k="natural" v="hill" />
		<tag k="place" v="locality" />
		<tag k="ssr:stedsnr" v="681865" />
	</node>
	<node id="-868726" lat="63.2663361069" lon="10.5028749989">
		<tag k="fixme" v="consider natural=peak for the most distinct mountains in the district" />
		<tag k="name" v="Storbrenna" />
		<tag k="natural" v="hill" />
		<tag k="place" v="locality" />
		<tag k="ssr:stedsnr" v="923779" />
	</node>
	<node id="-868213" lat="63.2753666644" lon="10.433797229">
		<tag k="name" v="Gurihaugen" />
		<tag k="natural" v="hill" />
		<tag k="place" v="locality" />
		<tag k="ssr:stedsnr" v="225281" />
	</node>
	<node id="-868212" lat="63.2417611072" lon="10.4534333406">
		<tag k="fixme" v="consider natural=peak for the most distinct mountains in the district" />
		<tag k="name" v="Stordugurdsåsen" />
		<tag k="natural" v="hill" />
		<tag k="place" v="locality" />
		<tag k="ssr:stedsnr" v="194722" />
	</node>
	<node id="-868755" lat="63.3177472194" lon="10.4279777762">
		<tag k="name" v="Fosshauegga" />
		<tag k="natural" v="ridge" />
		<tag k="place" v="locality" />
		<tag k="ssr:stedsnr" v="467166" />
	</node>
	<node id="-868840" lat="63.2985361088" lon="10.6421972245">
		<tag k="name" v="Helligdagshaugen" />
		<tag k="natural" v="hill" />
		<tag k="place" v="locality" />
		<tag k="ssr:stedsnr" v="528478" />
	</node>
	<node id="-868718" lat="63.3164833294" lon="10.4339416709">
		<tag k="fixme" v="consider natural=peak for the most distinct mountains in the district" />
		<tag k="name" v="Tanemsåsen" />
		<tag k="natural" v="hill" />
		<tag k="place" v="locality" />
		<tag k="ssr:stedsnr" v="134889" />
	</node>
	<node id="-868204" lat="63.2983444455" lon="10.4171694347">
		<tag k="name" v="Steindalen" />
		<tag k="natural" v="valley" />
		<tag k="place" v="locality" />
		<tag k="ssr:stedsnr" v="407531" />
	</node>
	<node id="-868203" lat="63.2740361126" lon="10.4051138878">
		<tag k="fixme" v="consider natural=peak for the most distinct mountains in the district" />
		<tag k="name" v="Svartåsen" />
		<tag k="natural" v="hill" />
		<tag k="place" v="locality" />
		<tag k="ssr:stedsnr" v="467280" />
	</node>
	<node id="-868714" lat="63.26087778" lon="10.4727805589">
		<tag k="fixme" v="consider natural=peak for the most distinct mountains in the district" />
		<tag k="name" v="Storkringelåsen" />
		<tag k="natural" v="hill" />
		<tag k="place" v="locality" />
		<tag k="ssr:stedsnr" v="892270" />
	</node>
	<node id="-868201" lat="63.2645500034" lon="10.4902277781">
		<tag k="fixme" v="consider natural=peak for the most distinct mountains in the district" />
		<tag k="name" v="Stabbmarka" />
		<tag k="natural" v="hill" />
		<tag k="place" v="locality" />
		<tag k="ssr:stedsnr" v="195764" />
	</node>
	<node id="-868198" lat="63.3315638903" lon="10.4550999924">
		<tag k="fixme" v="consider natural=peak for the most distinct mountains in the district" />
		<tag k="name" v="Nordsetåsen" />
		<tag k="natural" v="hill" />
		<tag k="place" v="locality" />
		<tag k="ssr:stedsnr" v="948686" />
	</node>
	<node id="-868197" lat="63.2334611118" lon="10.4805944434">
		<tag k="fixme" v="consider natural=peak for the most distinct mountains in the district" />
		<tag k="name" v="Løksåsen" />
		<tag k="natural" v="hill" />
		<tag k="place" v="locality" />
		<tag k="ssr:stedsnr" v="42346" />
	</node>
	<node id="-868707" lat="63.247411113" lon="10.56113611">
		<tag k="name" v="Vikalia" />
		<tag k="natural" v="slope" />
		<tag k="place" v="locality" />
		<tag k="ssr:stedsnr" v="285338" />
	</node>
	<node id="-868194" lat="63.2957916692" lon="10.4032333355">
		<tag k="name" v="Øver Kåsstien" />
		<tag k="natural" v="slope" />
		<tag k="place" v="locality" />
		<tag k="ssr:stedsnr" v="220679" />
	</node>
	<node id="-868411" lat="63.3244583325" lon="10.5562972304">
		<tag k="fixme" v="consider natural=peak for the most distinct mountains in the district" />
		<tag k="name" v="Sagåsen" />
		<tag k="natural" v="hill" />
		<tag k="place" v="locality" />
		<tag k="ssr:stedsnr" v="38617" />
	</node>
	<node id="-868191" lat="63.2269888915" lon="10.5806527795">
		<tag k="fixme" v="consider natural=peak for the most distinct mountains in the district" />
		<tag k="name" v="Kløftåsen" />
		<tag k="natural" v="hill" />
		<tag k="place" v="locality" />
		<tag k="ssr:stedsnr" v="316762" />
	</node>
	<node id="-868702" lat="63.3244305533" lon="10.4485361206">
		<tag k="fixme" v="consider natural=peak for the most distinct mountains in the district" />
		<tag k="name" v="Fjæremsåsen" />
		<tag k="natural" v="hill" />
		<tag k="place" v="locality" />
		<tag k="ssr:stedsnr" v="802911" />
	</node>
	<node id="-868189" lat="63.263688885" lon="10.5707472278">
		<tag k="name" v="Styggdalen" />
		<tag k="natural" v="valley" />
		<tag k="place" v="locality" />
		<tag k="ssr:stedsnr" v="164340" />
	</node>
	<node id="-868700" lat="63.2705805523" lon="10.4100972194">
		<tag k="name" v="Furuhaugen" />
		<tag k="natural" v="hill" />
		<tag k="place" v="locality" />
		<tag k="ssr:stedsnr" v="104270" />
	</node>
	<node id="-868666" lat="63.3090222212" lon="10.4928111052">
		<tag k="name" v="Snarholta" />
		<tag k="natural" v="valley" />
		<tag k="place" v="locality" />
		<tag k="ssr:stedsnr" v="528437" />
	</node>
	<node id="-868185" lat="63.2827583338" lon="10.5847444527">
		<tag k="name" v="Hestskohøgda" />
		<tag k="natural" v="hill" />
		<tag k="place" v="locality" />
		<tag k="ssr:stedsnr" v="559781" />
	</node>
	<node id="-868694" lat="63.3087999967" lon="10.5110722205">
		<tag k="fixme" v="consider natural=peak for the most distinct mountains in the district" />
		<tag k="name" v="Middagsåsen" />
		<tag k="natural" v="hill" />
		<tag k="place" v="locality" />
		<tag k="ssr:stedsnr" v="134891" />
	</node>
	<node id="-868181" lat="63.2957499969" lon="10.518430564">
		<tag k="name" v="Nyvollberga" />
		<tag k="natural" v="hill" />
		<tag k="place" v="locality" />
		<tag k="ssr:stedsnr" v="225496" />
	</node>
	<node id="-868692" lat="63.2981222221" lon="10.6436444464">
		<tag k="fixme" v="consider natural=peak for the most distinct mountains in the district" />
		<tag k="name" v="Langåsen" />
		<tag k="natural" v="hill" />
		<tag k="place" v="locality" />
		<tag k="ssr:stedsnr" v="680850" />
	</node>
	<node id="-868178" lat="63.2767944464" lon="10.5267527727">
		<tag k="fixme" v="consider natural=peak for the most distinct mountains in the district" />
		<tag k="name" v="Byavollåsen" />
		<tag k="natural" v="hill" />
		<tag k="place" v="locality" />
		<tag k="ssr:stedsnr" v="164344" />
	</node>
	<node id="-868177" lat="63.2132333309" lon="10.6023249935">
		<tag k="name" v="Bjørndalen" />
		<tag k="natural" v="valley" />
		<tag k="place" v="locality" />
		<tag k="ssr:stedsnr" v="315697" />
	</node>
	<node id="-868687" lat="63.2340444435" lon="10.6016000018">
		<tag k="fixme" v="consider natural=peak for the most distinct mountains in the district" />
		<tag k="name" v="Dånnøyåsen" />
		<tag k="natural" v="hill" />
		<tag k="place" v="locality" />
		<tag k="ssr:stedsnr" v="133707" />
	</node>
	<node id="-868392" lat="63.2986500024" lon="10.4668555457">
		<tag k="fixme" v="consider natural=peak for the most distinct mountains in the district" />
		<tag k="name" v="Lauvåsen" />
		<tag k="natural" v="hill" />
		<tag k="place" v="locality" />
		<tag k="ssr:stedsnr" v="649509" />
	</node>
	<node id="-868168" lat="63.2347749972" lon="10.642211119">
		<tag k="name" v="Bergsvenvolldalen" />
		<tag k="natural" v="valley" />
		<tag k="place" v="locality" />
		<tag k="ssr:stedsnr" v="194713" />
	</node>
	<node id="-868167" lat="63.2839999968" lon="10.4711666692">
		<tag k="name" v="Mæla" />
		<tag k="natural" v="valley" />
		<tag k="place" v="locality" />
		<tag k="ssr:stedsnr" v="649486" />
	</node>
	<node id="-868166" lat="63.2502750002" lon="10.4141083274">
		<tag k="fixme" v="consider natural=peak for the most distinct mountains in the district" />
		<tag k="name" v="Haukåsen" />
		<tag k="natural" v="hill" />
		<tag k="place" v="locality" />
		<tag k="ssr:stedsnr" v="346346" />
	</node>
	<node id="-868165" lat="63.2571611087" lon="10.382844443">
		<tag k="fixme" v="consider natural=peak for the most distinct mountains in the district" />
		<tag k="name" v="Brattslættåsen" />
		<tag k="natural" v="hill" />
		<tag k="place" v="locality" />
		<tag k="ssr:stedsnr" v="953556" />
	</node>
	<node id="-868674" lat="63.2944527789" lon="10.4500833273">
		<tag k="name" v="Olderliberget" />
		<tag k="natural" v="hill" />
		<tag k="place" v="locality" />
		<tag k="ssr:stedsnr" v="275131" />
	</node>
	<node id="-868161" lat="63.2528388912" lon="10.5246611059">
		<tag k="name" v="Moan" />
		<tag k="place" v="locality" />
		<tag k="ssr:stedsnr" v="13231" />
	</node>
	<node id="-868160" lat="63.2652111084" lon="10.3787027765">
		<tag k="name" v="Stortullusvollen" />
		<tag k="natural" v="slope" />
		<tag k="place" v="locality" />
		<tag k="ssr:stedsnr" v="528545" />
	</node>
	<node id="-868670" lat="63.2377305535" lon="10.486633342">
		<tag k="fixme" v="consider natural=peak for the most distinct mountains in the district" />
		<tag k="name" v="Rangåkammen" />
		<tag k="natural" v="hill" />
		<tag k="place" v="locality" />
		<tag k="ssr:stedsnr" v="285318" />
	</node>
	<node id="-868157" lat="63.2758916645" lon="10.6061083335">
		<tag k="name" v="Bringløfta" />
		<tag k="natural" v="slope" />
		<tag k="place" v="locality" />
		<tag k="ssr:stedsnr" v="953339" />
	</node>
	<node id="-868667" lat="63.3106805599" lon="10.6890694384">
		<tag k="fixme" v="consider natural=peak for the most distinct mountains in the district" />
		<tag k="name" v="Brenna" />
		<tag k="natural" v="hill" />
		<tag k="place" v="locality" />
		<tag k="ssr:stedsnr" v="134885" />
	</node>
	<node id="-868154" lat="63.2566277788" lon="10.4198472133">
		<tag k="fixme" v="consider natural=peak for the most distinct mountains in the district" />
		<tag k="name" v="Bjørnholkammen" />
		<tag k="natural" v="hill" />
		<tag k="place" v="locality" />
		<tag k="ssr:stedsnr" v="710286" />
	</node>
	<node id="-868153" lat="63.1997055594" lon="10.5938777759">
		<tag k="fixme" v="consider natural=peak for the most distinct mountains in the district" />
		<tag k="name" v="Sandafjellet" />
		<tag k="natural" v="hill" />
		<tag k="place" v="locality" />
		<tag k="ssr:stedsnr" v="73813" />
	</node>
	<node id="-868152" lat="63.2626833346" lon="10.6550944496">
		<tag k="name" v="Kuvikhøgda" />
		<tag k="natural" v="hill" />
		<tag k="place" v="locality" />
		<tag k="ssr:stedsnr" v="705701" />
	</node>
	<node id="-868149" lat="63.2631361104" lon="10.5595111097">
		<tag k="fixme" v="consider natural=peak for the most distinct mountains in the district" />
		<tag k="name" v="Båtsteinbjørga" />
		<tag k="natural" v="hill" />
		<tag k="place" v="locality" />
		<tag k="ssr:stedsnr" v="528335" />
	</node>
	<node id="-868209" lat="63.2761805522" lon="10.5617166596">
		<tag k="name" v="Kåsin" />
		<tag k="natural" v="slope" />
		<tag k="place" v="locality" />
		<tag k="ssr:stedsnr" v="103315" />
	</node>
	<node id="-868147" lat="63.2790083342" lon="10.5121722176">
		<tag k="name" v="Ratbuslettet" />
		<tag k="place" v="locality" />
		<tag k="ssr:stedsnr" v="225489" />
	</node>
	<node id="-868915" lat="63.2695388933" lon="10.4843277726">
		<tag k="fixme" v="consider natural=peak for the most distinct mountains in the district" />
		<tag k="name" v="Hesjåsen" />
		<tag k="natural" v="hill" />
		<tag k="place" v="locality" />
		<tag k="ssr:stedsnr" v="771308" />
	</node>
	<node id="-868144" lat="63.2568805541" lon="10.3922888901">
		<tag k="fixme" v="consider natural=peak for the most distinct mountains in the district" />
		<tag k="name" v="Svallåsen" />
		<tag k="natural" v="hill" />
		<tag k="place" v="locality" />
		<tag k="ssr:stedsnr" v="953559" />
	</node>
	<node id="-868655" lat="63.3193944415" lon="10.5287999923">
		<tag k="name" v="Tortlia" />
		<tag k="natural" v="slope" />
		<tag k="place" v="locality" />
		<tag k="ssr:stedsnr" v="173090" />
	</node>
	<node id="-868142" lat="63.2757666635" lon="10.5862861059">
		<tag k="name" v="Nesnbakkan" />
		<tag k="natural" v="slope" />
		<tag k="place" v="locality" />
		<tag k="ssr:stedsnr" v="953342" />
	</node>
	<node id="-868141" lat="63.2529583303" lon="10.4739666599">
		<tag k="name" v="Liadalen" />
		<tag k="natural" v="valley" />
		<tag k="place" v="locality" />
		<tag k="ssr:stedsnr" v="771356" />
	</node>
	<node id="-868651" lat="63.3118388869" lon="10.4163166717">
		<tag k="fixme" v="consider natural=peak for the most distinct mountains in the district" />
		<tag k="name" v="Kloppåsen" />
		<tag k="natural" v="hill" />
		<tag k="place" v="locality" />
		<tag k="ssr:stedsnr" v="402632" />
	</node>
	<node id="-868136" lat="63.3085083302" lon="10.6067555526">
		<tag k="fixme" v="consider natural=peak for the most distinct mountains in the district" />
		<tag k="name" v="Krokåsen" />
		<tag k="natural" v="hill" />
		<tag k="place" v="locality" />
		<tag k="ssr:stedsnr" v="499822" />
	</node>
	<node id="-868134" lat="63.2497138845" lon="10.4383138925">
		<tag k="name" v="Kamberget" />
		<tag k="natural" v="hill" />
		<tag k="place" v="locality" />
		<tag k="ssr:stedsnr" v="771357" />
	</node>
	<node id="-868645" lat="63.3029916623" lon="10.6461777694">
		<tag k="name" v="Langdalen" />
		<tag k="natural" v="valley" />
		<tag k="place" v="locality" />
		<tag k="ssr:stedsnr" v="346456" />
	</node>
	<node id="-868131" lat="63.2567944429" lon="10.5543333301">
		<tag k="name" v="Rundhaugen" />
		<tag k="natural" v="hill" />
		<tag k="place" v="locality" />
		<tag k="ssr:stedsnr" v="953344" />
	</node>
	<node id="-868430" lat="63.2791111078" lon="10.3936333242">
		<tag k="fixme" v="consider natural=peak for the most distinct mountains in the district" />
		<tag k="name" v="Pungtjønnåsen" />
		<tag k="natural" v="hill" />
		<tag k="place" v="locality" />
		<tag k="ssr:stedsnr" v="832549" />
	</node>
	<node id="-868128" lat="63.2739333356" lon="10.5952638821">
		<tag k="name" v="Nesnbjørga" />
		<tag k="natural" v="hill" />
		<tag k="place" v="locality" />
		<tag k="ssr:stedsnr" v="280776" />
	</node>
	<node id="-868664" lat="63.2776722179" lon="10.4834916697">
		<tag k="name" v="Rogndalskleiva" />
		<tag k="natural" v="slope" />
		<tag k="place" v="locality" />
		<tag k="ssr:stedsnr" v="766419" />
	</node>
	<node id="-868826" lat="63.2540000017" lon="10.6062694397">
		<tag k="name" v="Sagbrenna" />
		<tag k="place" v="locality" />
		<tag k="ssr:stedsnr" v="285361" />
	</node>
	<node id="-868740" lat="63.2933750015" lon="10.4180249953">
		<tag k="name" v="Rotmyrhaugan" />
		<tag k="natural" v="hill" />
		<tag k="place" v="locality" />
		<tag k="ssr:stedsnr" v="104487" />
	</node>
	<node id="-868654" lat="63.2802972249" lon="10.475666661">
		<tag k="name" v="Sveberga" />
		<tag k="natural" v="hill" />
		<tag k="place" v="locality" />
		<tag k="ssr:stedsnr" v="771472" />
	</node>
	<node id="-868625" lat="63.2742027807" lon="10.4942527723">
		<tag k="fixme" v="consider natural=peak for the most distinct mountains in the district" />
		<tag k="name" v="Ståggååsen" />
		<tag k="natural" v="hill" />
		<tag k="place" v="locality" />
		<tag k="ssr:stedsnr" v="862796" />
	</node>
	<node id="-868624" lat="63.2220527785" lon="10.6101222142">
		<tag k="name" v="Bjørndalen" />
		<tag k="natural" v="valley" />
		<tag k="place" v="locality" />
		<tag k="ssr:stedsnr" v="528419" />
	</node>
	<node id="-868623" lat="63.2669749981" lon="10.6200833432">
		<tag k="fixme" v="consider natural=peak for the most distinct mountains in the district" />
		<tag k="name" v="Tangvoll gruve" />
		<tag k="natural" v="hill" />
		<tag k="place" v="locality" />
		<tag k="ssr:stedsnr" v="832346" />
	</node>
	<node id="-868619" lat="63.2188305586" lon="10.6027750022">
		<tag k="fixme" v="consider natural=peak for the most distinct mountains in the district" />
		<tag k="name" v="Sandåsfjellet" />
		<tag k="natural" v="hill" />
		<tag k="place" v="locality" />
		<tag k="ssr:stedsnr" v="528421" />
	</node>
	<node id="-868481" lat="63.2359083322" lon="10.4687361059">
		<tag k="name" v="Ytter Rangåmoen" />
		<tag k="place" v="locality" />
		<tag k="ssr:stedsnr" v="588309" />
	</node>
	<node id="-868822" lat="63.2627333306" lon="10.3688166671">
		<tag k="fixme" v="consider natural=peak for the most distinct mountains in the district" />
		<tag k="name" v="Svarthåmmåren" />
		<tag k="natural" v="hill" />
		<tag k="place" v="locality" />
		<tag k="ssr:stedsnr" v="104503" />
	</node>
	<node id="-868610" lat="63.2000499983" lon="10.6496500029">
		<tag k="fixme" v="consider natural=peak for the most distinct mountains in the district" />
		<tag k="name" v="Reinsbekkryan" />
		<tag k="natural" v="hill" />
		<tag k="old_name" v="Reinsbekkrya" />
		<tag k="place" v="locality" />
		<tag k="ssr:stedsnr" v="194774" />
	</node>
	<node id="-868395" lat="63.3176027797" lon="10.5671944365">
		<tag k="name" v="Brannestrøin" />
		<tag k="natural" v="mountain_range" />
		<tag k="ssr:stedsnr" v="104403" />
	</node>
	<node id="-868607" lat="63.2307416629" lon="10.546558334">
		<tag k="fixme" v="consider natural=peak for the most distinct mountains in the district" />
		<tag k="name" v="Farkkoiåsen" />
		<tag k="natural" v="hill" />
		<tag k="place" v="locality" />
		<tag k="ssr:stedsnr" v="953411" />
	</node>
	<node id="-868606" lat="63.2332777744" lon="10.6095888984">
		<tag k="name" v="Jarnblåster" />
		<tag k="natural" v="slope" />
		<tag k="place" v="locality" />
		<tag k="ssr:stedsnr" v="164432" />
	</node>
	<node id="-869112" lat="63.3279361144" lon="10.5490944529">
		<tag k="name" v="Brattkneppet" />
		<tag k="natural" v="hill" />
		<tag k="place" v="locality" />
		<tag k="ssr:stedsnr" v="705663" />
	</node>
	<node id="-868564" lat="63.3327777771" lon="10.526952784">
		<tag k="fixme" v="consider natural=peak for the most distinct mountains in the district" />
		<tag k="name" v="Høgåsen" />
		<tag k="natural" v="hill" />
		<tag k="place" v="locality" />
		<tag k="ssr:stedsnr" v="74140" />
	</node>
	<node id="-868596" lat="63.2431416659" lon="10.542127771">
		<tag k="fixme" v="consider natural=peak for the most distinct mountains in the district" />
		<tag k="name" v="Froskåsen" />
		<tag k="natural" v="hill" />
		<tag k="place" v="locality" />
		<tag k="ssr:stedsnr" v="225363" />
	</node>
	<node id="-868593" lat="63.2893027737" lon="10.4889972235">
		<tag k="name" v="Åstrøberga" />
		<tag k="natural" v="hill" />
		<tag k="place" v="locality" />
		<tag k="ssr:stedsnr" v="892454" />
	</node>
	<node id="-868591" lat="63.2525722231" lon="10.4167138956">
		<tag k="fixme" v="consider natural=peak for the most distinct mountains in the district" />
		<tag k="name" v="Litjvollåsen" />
		<tag k="natural" v="hill" />
		<tag k="place" v="locality" />
		<tag k="ssr:stedsnr" v="710350" />
	</node>
	<node id="-868589" lat="63.2651083324" lon="10.6396166663">
		<tag k="name" v="Tangvollbakkan" />
		<tag k="natural" v="slope" />
		<tag k="place" v="locality" />
		<tag k="ssr:stedsnr" v="285311" />
	</node>
	<node id="-869100" lat="63.287488246" lon="10.3845655836">
		<tag k="fixme" v="consider natural=peak for the most distinct mountains in the district" />
		<tag k="name" v="Reinslættdalsåsen" />
		<tag k="natural" v="hill" />
		<tag k="place" v="locality" />
		<tag k="ssr:stedsnr" v="923828" />
	</node>
	<node id="-869074" lat="63.2387527743" lon="10.5649083241">
		<tag k="fixme" v="consider natural=peak for the most distinct mountains in the district" />
		<tag k="name" v="Storavassåsen" />
		<tag k="natural" v="hill" />
		<tag k="place" v="locality" />
		<tag k="ssr:stedsnr" v="862733" />
	</node>
	<node id="-868586" lat="63.2659027813" lon="10.6178027832">
		<tag k="name" v="Kårberga" />
		<tag k="natural" v="hill" />
		<tag k="place" v="locality" />
		<tag k="ssr:stedsnr" v="285310" />
	</node>
	<node id="-868585" lat="63.3017666664" lon="10.4944694525">
		<tag k="fixme" v="consider natural=peak for the most distinct mountains in the district" />
		<tag k="name" v="Trøåsen" />
		<tag k="natural" v="hill" />
		<tag k="place" v="locality" />
		<tag k="ssr:stedsnr" v="953416" />
	</node>
	<node id="-868584" lat="63.2937999972" lon="10.5060333377">
		<tag k="fixme" v="consider natural=peak for the most distinct mountains in the district" />
		<tag k="name" v="Førdugurdsåsen" />
		<tag k="natural" v="hill" />
		<tag k="place" v="locality" />
		<tag k="ssr:stedsnr" v="43444" />
	</node>
	<node id="-868732" lat="63.2927222256" lon="10.3930694486">
		<tag k="fixme" v="consider natural=peak for the most distinct mountains in the district" />
		<tag k="name" v="Reinslettåsen" />
		<tag k="natural" v="hill" />
		<tag k="place" v="locality" />
		<tag k="ssr:stedsnr" v="680854" />
	</node>
	<node id="-868672" lat="63.2380416707" lon="10.5107666738">
		<tag k="fixme" v="consider natural=peak for the most distinct mountains in the district" />
		<tag k="name" v="Lekåsen" />
		<tag k="natural" v="hill" />
		<tag k="place" v="locality" />
		<tag k="ssr:stedsnr" v="832384" />
	</node>
	<node id="-868462" lat="63.2620499978" lon="10.4636666662">
		<tag k="name" v="Hyttfossberga" />
		<tag k="natural" v="hill" />
		<tag k="place" v="locality" />
		<tag k="ssr:stedsnr" v="99641" />
	</node>
	<node id="-868577" lat="63.2695083368" lon="10.4237055465">
		<tag k="name" v="Svemoen" />
		<tag k="place" v="locality" />
		<tag k="ssr:stedsnr" v="43239" />
	</node>
	<node id="-869088" lat="63.2596944473" lon="10.5555388908">
		<tag k="fixme" v="consider natural=peak for the most distinct mountains in the district" />
		<tag k="name" v="Vikaåsen" />
		<tag k="natural" v="hill" />
		<tag k="place" v="locality" />
		<tag k="ssr:stedsnr" v="103297" />
	</node>
	<node id="-869087" lat="63.2801388898" lon="10.4978722192">
		<tag k="name" v="Hørhaugen" />
		<tag k="natural" v="hill" />
		<tag k="place" v="locality" />
		<tag k="ssr:stedsnr" v="407500" />
	</node>
	<node id="-868573" lat="63.2936722244" lon="10.494269439">
		<tag k="name" v="Børjadalen" />
		<tag k="natural" v="valley" />
		<tag k="place" v="locality" />
		<tag k="ssr:stedsnr" v="43447" />
	</node>
	<node id="-869084" lat="63.3000083308" lon="10.4036444371">
		<tag k="fixme" v="consider natural=peak for the most distinct mountains in the district" />
		<tag k="name" v="Anderskolbotnan" />
		<tag k="natural" v="hill" />
		<tag k="place" v="locality" />
		<tag k="ssr:stedsnr" v="644630" />
	</node>
	<node id="-869083" lat="63.2639055526" lon="10.3995638983">
		<tag k="fixme" v="consider natural=peak for the most distinct mountains in the district" />
		<tag k="name" v="Litjvollåsen" />
		<tag k="natural" v="hill" />
		<tag k="place" v="locality" />
		<tag k="ssr:stedsnr" v="164323" />
	</node>
	<node id="-869082" lat="63.2897638908" lon="10.5308944347">
		<tag k="name" v="Bjørndalen" />
		<tag k="natural" v="valley" />
		<tag k="place" v="locality" />
		<tag k="ssr:stedsnr" v="467467" />
	</node>
	<node id="-868388" lat="63.3094472196" lon="10.566691676">
		<tag k="fixme" v="consider natural=peak for the most distinct mountains in the district" />
		<tag k="name" v="Brannestrøin" />
		<tag k="natural" v="hill" />
		<tag k="place" v="locality" />
		<tag k="ssr:stedsnr" v="863827" />
	</node>
	<node id="-868565" lat="63.2447888911" lon="10.5196805464">
		<tag k="name" v="Stiberga" />
		<tag k="natural" v="hill" />
		<tag k="place" v="locality" />
		<tag k="ssr:stedsnr" v="710371" />
	</node>
	<node id="-869076" lat="63.3104749982" lon="10.6813944456">
		<tag k="name" v="Drakstsjødalen" />
		<tag k="natural" v="valley" />
		<tag k="place" v="locality" />
		<tag k="ssr:stedsnr" v="255883" />
	</node>
	<node id="-868562" lat="63.2921750018" lon="10.4874888859">
		<tag k="name" v="Haugen" />
		<tag k="natural" v="hill" />
		<tag k="place" v="locality" />
		<tag k="ssr:stedsnr" v="104446" />
	</node>
	<node id="-869071" lat="63.2594666653" lon="10.5996472236">
		<tag k="name" v="Skavdalen" />
		<tag k="natural" v="valley" />
		<tag k="place" v="locality" />
		<tag k="ssr:stedsnr" v="385210" />
	</node>
	<node id="-869070" lat="63.3017861135" lon="10.4184444363">
		<tag k="fixme" v="consider natural=peak for the most distinct mountains in the district" />
		<tag k="name" v="Tjønnmyråsen" />
		<tag k="natural" v="hill" />
		<tag k="place" v="locality" />
		<tag k="ssr:stedsnr" v="705654" />
	</node>
	<node id="-868557" lat="63.3009861106" lon="10.4529666674">
		<tag k="name" v="Finnsvean" />
		<tag k="natural" v="slope" />
		<tag k="place" v="locality" />
		<tag k="ssr:stedsnr" v="214117" />
	</node>
	<node id="-868556" lat="63.2536277806" lon="10.5449722298">
		<tag k="name" v="Mebjørgbakkan" />
		<tag k="natural" v="slope" />
		<tag k="place" v="locality" />
		<tag k="ssr:stedsnr" v="528412" />
	</node>
	<node id="-869066" lat="63.2710944447" lon="10.4861111178">
		<tag k="name" v="Djupdalen" />
		<tag k="natural" v="valley" />
		<tag k="place" v="locality" />
		<tag k="ssr:stedsnr" v="953303" />
	</node>
	<node id="-868751" lat="63.2526111144" lon="10.5372722238">
		<tag k="fixme" v="consider natural=peak for the most distinct mountains in the district" />
		<tag k="name" v="Skurrubekkhammeren" />
		<tag k="natural" v="hill" />
		<tag k="place" v="locality" />
		<tag k="ssr:stedsnr" v="710390" />
	</node>
	<node id="-868549" lat="63.3016833368" lon="10.4497472258">
		<tag k="name" v="Jarleskjela" />
		<tag k="natural" v="valley" />
		<tag k="place" v="locality" />
		<tag k="ssr:stedsnr" v="92146" />
	</node>
	<node id="-868811" lat="63.2300611108" lon="10.5586250056">
		<tag k="fixme" v="consider natural=peak for the most distinct mountains in the district" />
		<tag k="name" v="Storavassåsen" />
		<tag k="natural" v="hill" />
		<tag k="place" v="locality" />
		<tag k="ssr:stedsnr" v="467392" />
	</node>
	<node id="-869056" lat="63.3115916674" lon="10.6414194456">
		<tag k="name" v="Furuhaugen" />
		<tag k="natural" v="hill" />
		<tag k="place" v="locality" />
		<tag k="ssr:stedsnr" v="467445" />
	</node>
	<node id="-869055" lat="63.2594722266" lon="10.5701638957">
		<tag k="fixme" v="consider natural=peak for the most distinct mountains in the district" />
		<tag k="name" v="Kolbyåsen" />
		<tag k="natural" v="hill" />
		<tag k="place" v="locality" />
		<tag k="ssr:stedsnr" v="346310" />
	</node>
	<node id="-869054" lat="63.3211416668" lon="10.4094722213">
		<tag k="fixme" v="consider natural=peak for the most distinct mountains in the district" />
		<tag k="name" v="Litjåsen" />
		<tag k="natural" v="hill" />
		<tag k="place" v="locality" />
		<tag k="ssr:stedsnr" v="644650" />
	</node>
	<node id="-868725" lat="63.2703583321" lon="10.5065722126">
		<tag k="fixme" v="consider natural=peak for the most distinct mountains in the district" />
		<tag k="name" v="Vinnsåsen" />
		<tag k="natural" v="hill" />
		<tag k="place" v="locality" />
		<tag k="ssr:stedsnr" v="567200" />
	</node>
	<node id="-869051" lat="63.2858472227" lon="10.473861115">
		<tag k="name" v="Mælbudalen" />
		<tag k="natural" v="valley" />
		<tag k="place" v="locality" />
		<tag k="ssr:stedsnr" v="407487" />
	</node>
	<node id="-868724" lat="63.3105416683" lon="10.6827138794">
		<tag k="name" v="Drakstsjøberga" />
		<tag k="natural" v="hill" />
		<tag k="place" v="locality" />
		<tag k="ssr:stedsnr" v="346459" />
	</node>
	<node id="-869046" lat="63.2914249998" lon="10.6092527699">
		<tag k="name" v="Hårrådalen" />
		<tag k="natural" v="valley" />
		<tag k="place" v="locality" />
		<tag k="ssr:stedsnr" v="588417" />
	</node>
	<node id="-868553" lat="63.2556111108" lon="10.4475166616">
		<tag k="fixme" v="consider natural=peak for the most distinct mountains in the district" />
		<tag k="name" v="Trumpetuten" />
		<tag k="natural" v="hill" />
		<tag k="place" v="locality" />
		<tag k="ssr:stedsnr" v="467345" />
	</node>
	<node id="-869043" lat="63.3085555599" lon="10.6487194536">
		<tag k="name" v="Molia" />
		<tag k="natural" v="slope" />
		<tag k="place" v="locality" />
		<tag k="ssr:stedsnr" v="832462" />
	</node>
	<node id="-869042" lat="63.2760333306" lon="10.4351055554">
		<tag k="name" v="Trodalen" />
		<tag k="natural" v="valley" />
		<tag k="place" v="locality" />
		<tag k="ssr:stedsnr" v="83218" />
	</node>
	<node id="-868527" lat="63.2500888923" lon="10.4092777849">
		<tag k="name" v="Styggdalen" />
		<tag k="natural" v="valley" />
		<tag k="place" v="locality" />
		<tag k="ssr:stedsnr" v="225352" />
	</node>
	<node id="-869038" lat="63.3017999957" lon="10.407899994">
		<tag k="name" v="Langdalen" />
		<tag k="natural" v="valley" />
		<tag k="place" v="locality" />
		<tag k="ssr:stedsnr" v="262322" />
	</node>
	<node id="-868524" lat="63.2974194427" lon="10.5352555474">
		<tag k="name" v="Torberga" />
		<tag k="natural" v="hill" />
		<tag k="place" v="locality" />
		<tag k="ssr:stedsnr" v="13814" />
	</node>
	<node id="-868522" lat="63.2650750044" lon="10.5155138859">
		<tag k="name" v="Grendstadbakkan" />
		<tag k="natural" v="slope" />
		<tag k="place" v="locality" />
		<tag k="ssr:stedsnr" v="285297" />
	</node>
	<node id="-868767" lat="63.2646333351" lon="10.4944388887">
		<tag k="fixme" v="consider natural=peak for the most distinct mountains in the district" />
		<tag k="name" v="Øver Synnåsen" />
		<tag k="natural" v="hill" />
		<tag k="place" v="locality" />
		<tag k="ssr:stedsnr" v="104281" />
	</node>
	<node id="-868759" lat="63.3160166679" lon="10.4987972156">
		<tag k="name" v="Kudalen" />
		<tag k="natural" v="valley" />
		<tag k="place" v="locality" />
		<tag k="ssr:stedsnr" v="407417" />
	</node>
	<node id="-869029" lat="63.2578055537" lon="10.5876000016">
		<tag k="name" v="Korsdalen" />
		<tag k="natural" v="valley" />
		<tag k="place" v="locality" />
		<tag k="ssr:stedsnr" v="507181" />
	</node>
	<node id="-869028" lat="63.2888111069" lon="10.6163916608">
		<tag k="fixme" v="consider natural=peak for the most distinct mountains in the district" />
		<tag k="name" v="Nesnvollåsen" />
		<tag k="natural" v="hill" />
		<tag k="place" v="locality" />
		<tag k="ssr:stedsnr" v="588420" />
	</node>
	<node id="-868514" lat="63.2536083319" lon="10.4097472205">
		<tag k="fixme" v="consider natural=peak for the most distinct mountains in the district" />
		<tag k="name" v="Selsmyråsen" />
		<tag k="natural" v="hill" />
		<tag k="place" v="locality" />
		<tag k="ssr:stedsnr" v="619240" />
	</node>
	<node id="-868513" lat="63.2180138874" lon="10.5474750093">
		<tag k="name" v="Brungfjellet" />
		<tag k="natural" v="hill" />
		<tag k="place" v="locality" />
		<tag k="ssr:stedsnr" v="346409" />
	</node>
	<node id="-868464" lat="63.3245777745" lon="10.4740638953">
		<tag k="name" v="Furuhaugen" />
		<tag k="natural" v="hill" />
		<tag k="place" v="locality" />
		<tag k="ssr:stedsnr" v="463587" />
	</node>
	<node id="-868510" lat="63.286694441" lon="10.4073805591">
		<tag k="name" v="Fagerliin" />
		<tag k="natural" v="slope" />
		<tag k="place" v="locality" />
		<tag k="ssr:stedsnr" v="99644" />
	</node>
	<node id="-868508" lat="63.2202333363" lon="10.5394944444">
		<tag k="fixme" v="consider natural=peak for the most distinct mountains in the district" />
		<tag k="name" v="Brungkjerka" />
		<tag k="natural" v="hill" />
		<tag k="place" v="locality" />
		<tag k="ssr:stedsnr" v="922693" />
	</node>
	<node id="-869018" lat="63.2137527779" lon="10.5805388988">
		<tag k="alt_name" v="Søringslien" />
		<tag k="name" v="Søringslia" />
		<tag k="natural" v="slope" />
		<tag k="place" v="locality" />
		<tag k="ssr:stedsnr" v="892363" />
	</node>
	<node id="-868505" lat="63.2747277817" lon="10.4723499996">
		<tag k="fixme" v="consider natural=peak for the most distinct mountains in the district" />
		<tag k="name" v="Josveåsen" />
		<tag k="natural" v="hill" />
		<tag k="place" v="locality" />
		<tag k="ssr:stedsnr" v="285282" />
	</node>
	<node id="-868272" lat="63.256427775" lon="10.4007111151">
		<tag k="fixme" v="consider natural=peak for the most distinct mountains in the district" />
		<tag k="name" v="Rognåsen" />
		<tag k="natural" v="hill" />
		<tag k="place" v="locality" />
		<tag k="ssr:stedsnr" v="225297" />
	</node>
	<node id="-868368" lat="63.2630611127" lon="10.6245055492">
		<tag k="name" v="Tangvollbakkan" />
		<tag k="natural" v="slope" />
		<tag k="place" v="locality" />
		<tag k="ssr:stedsnr" v="407338" />
	</node>
	<node id="-868502" lat="63.2651194434" lon="10.6492166727">
		<tag k="name" v="Kuvikhøgda" />
		<tag k="natural" v="hill" />
		<tag k="place" v="locality" />
		<tag k="ssr:stedsnr" v="467320" />
	</node>
	<node id="-868500" lat="63.2797888848" lon="10.3754222291">
		<tag k="fixme" v="consider natural=peak for the most distinct mountains in the district" />
		<tag k="name" v="Klimpan" />
		<tag k="natural" v="hill" />
		<tag k="place" v="locality" />
		<tag k="ssr:stedsnr" v="99642" />
	</node>
	<node id="-868499" lat="63.2662222182" lon="10.5100444448">
		<tag k="name" v="Pikhaugen" />
		<tag k="natural" v="hill" />
		<tag k="place" v="locality" />
		<tag k="ssr:stedsnr" v="285280" />
	</node>
	<node id="-869010" lat="63.3251444411" lon="10.5761833367">
		<tag k="name" v="Merkesdalen" />
		<tag k="natural" v="valley" />
		<tag k="place" v="locality" />
		<tag k="ssr:stedsnr" v="705666" />
	</node>
	<node id="-868496" lat="63.2765944466" lon="10.5563333402">
		<tag k="fixme" v="consider natural=peak for the most distinct mountains in the district" />
		<tag k="name" v="Aunåsen" />
		<tag k="natural" v="hill" />
		<tag k="place" v="locality" />
		<tag k="ssr:stedsnr" v="467327" />
	</node>
	<node id="-869006" lat="63.269813888" lon="10.5406583252">
		<tag k="name" v="Kåshaugan" />
		<tag k="natural" v="hill" />
		<tag k="place" v="locality" />
		<tag k="ssr:stedsnr" v="953315" />
	</node>
	<node id="-869003" lat="63.307183335" lon="10.6928722221">
		<tag k="fixme" v="consider natural=peak for the most distinct mountains in the district" />
		<tag k="name" v="Heviltjønnåsen" />
		<tag k="natural" v="hill" />
		<tag k="place" v="locality" />
		<tag k="ssr:stedsnr" v="467454" />
	</node>
	<node id="-868837" lat="63.3253888896" lon="10.5158083403">
		<tag k="name" v="Kleivdalen" />
		<tag k="natural" v="valley" />
		<tag k="place" v="locality" />
		<tag k="ssr:stedsnr" v="281625" />
	</node>
	<node id="-869001" lat="63.3138499983" lon="10.6263583342">
		<tag k="name" v="Fiskberget" />
		<tag k="natural" v="hill" />
		<tag k="place" v="locality" />
		<tag k="ssr:stedsnr" v="588402" />
	</node>
	<node id="-868486" lat="63.2681305513" lon="10.4018277795">
		<tag k="fixme" v="consider natural=peak for the most distinct mountains in the district" />
		<tag k="name" v="Sjurdsmyråsen" />
		<tag k="natural" v="hill" />
		<tag k="place" v="locality" />
		<tag k="ssr:stedsnr" v="316804" />
	</node>
	<node id="-868545" lat="63.3330583363" lon="10.53289723">
		<tag k="name" v="Stavlundsliin" />
		<tag k="natural" v="slope" />
		<tag k="place" v="locality" />
		<tag k="ssr:stedsnr" v="766618" />
	</node>
	<node id="-868996" lat="63.2996444455" lon="10.5060055597">
		<tag k="fixme" v="consider natural=peak for the most distinct mountains in the district" />
		<tag k="name" v="Brattåsen" />
		<tag k="natural" v="hill" />
		<tag k="place" v="locality" />
		<tag k="ssr:stedsnr" v="862845" />
	</node>
	<node id="-868995" lat="63.29152778" lon="10.489494453">
		<tag k="name" v="Storberga" />
		<tag k="natural" v="hill" />
		<tag k="place" v="locality" />
		<tag k="ssr:stedsnr" v="953497" />
	</node>
	<node id="-868993" lat="63.2290333359" lon="10.4850527756">
		<tag k="fixme" v="consider natural=peak for the most distinct mountains in the district" />
		<tag k="name" v="Storåsen" />
		<tag k="natural" v="hill" />
		<tag k="place" v="locality" />
		<tag k="ssr:stedsnr" v="862720" />
	</node>
	<node id="-868480" lat="63.2595805518" lon="10.5809111146">
		<tag k="name" v="Sagstubakkan" />
		<tag k="natural" v="slope" />
		<tag k="place" v="locality" />
		<tag k="ssr:stedsnr" v="832321" />
	</node>
	<node id="-868991" lat="63.2828277767" lon="10.3758638855">
		<tag k="name" v="Havdølskardet" />
		<tag k="natural" v="valley" />
		<tag k="place" v="locality" />
		<tag k="ssr:stedsnr" v="176599" />
	</node>
	<node id="-868478" lat="63.2624333331" lon="10.5094333305">
		<tag k="fixme" v="consider natural=peak for the most distinct mountains in the district" />
		<tag k="name" v="Brøttemsåsen" />
		<tag k="natural" v="hill" />
		<tag k="place" v="locality" />
		<tag k="ssr:stedsnr" v="649309" />
	</node>
	<node id="-868989" lat="63.3036888933" lon="10.4091138907">
		<tag k="name" v="Bjørndalen" />
		<tag k="natural" v="valley" />
		<tag k="place" v="locality" />
		<tag k="ssr:stedsnr" v="220638" />
	</node>
	<node id="-868988" lat="63.302008334" lon="10.3996583403">
		<tag k="fixme" v="consider natural=peak for the most distinct mountains in the district" />
		<tag k="name" v="Damåsen" />
		<tag k="natural" v="hill" />
		<tag k="place" v="locality" />
		<tag k="ssr:stedsnr" v="220639" />
	</node>
	<node id="-868475" lat="63.1712833321" lon="10.6488666663">
		<tag k="name" v="Storsteinskardet" />
		<tag k="natural" v="valley" />
		<tag k="place" v="locality" />
		<tag k="ssr:stedsnr" v="376785" />
	</node>
	<node id="-868473" lat="63.2202083311" lon="10.6055194458">
		<tag k="fixme" v="consider natural=peak for the most distinct mountains in the district" />
		<tag k="name" v="Bjørndalskammen" />
		<tag k="natural" v="hill" />
		<tag k="place" v="locality" />
		<tag k="ssr:stedsnr" v="771403" />
	</node>
	<node id="-868470" lat="63.2765805548" lon="10.5946138834">
		<tag k="name" v="Kongsliin" />
		<tag k="natural" v="slope" />
		<tag k="place" v="locality" />
		<tag k="ssr:stedsnr" v="264196" />
	</node>
	<node id="-868713" lat="63.2476055569" lon="10.6082583336">
		<tag k="name" v="Haugdalen" />
		<tag k="natural" v="valley" />
		<tag k="place" v="locality" />
		<tag k="ssr:stedsnr" v="225390" />
	</node>
	<node id="-868978" lat="63.2869472251" lon="10.5098972216">
		<tag k="name" v="Svarthåmmårdalen" />
		<tag k="natural" v="valley" />
		<tag k="place" v="locality" />
		<tag k="ssr:stedsnr" v="953501" />
	</node>
	<node id="-868976" lat="63.3086749997" lon="10.4167000064">
		<tag k="fixme" v="consider natural=peak for the most distinct mountains in the district" />
		<tag k="name" v="Brattbakkåsen" />
		<tag k="natural" v="hill" />
		<tag k="place" v="locality" />
		<tag k="ssr:stedsnr" v="341668" />
	</node>
	<node id="-868463" lat="63.2713444437" lon="10.5325638981">
		<tag k="name" v="Åsaberga" />
		<tag k="natural" v="hill" />
		<tag k="place" v="locality" />
		<tag k="ssr:stedsnr" v="649307" />
	</node>
	<node id="-868974" lat="63.2830861097" lon="10.4912861143">
		<tag k="alt_name" v="Blåtårnberget" />
		<tag k="name" v="Blåtårnberga" />
		<tag k="natural" v="hill" />
		<tag k="place" v="locality" />
		<tag k="ssr:stedsnr" v="863775" />
	</node>
	<node id="-868461" lat="63.2969444424" lon="10.4504083375">
		<tag k="name" v="Tommåskjela" />
		<tag k="natural" v="valley" />
		<tag k="place" v="locality" />
		<tag k="ssr:stedsnr" v="92137" />
	</node>
	<node id="-868970" lat="63.2590611097" lon="10.649333326">
		<tag k="fixme" v="consider natural=peak for the most distinct mountains in the district" />
		<tag k="name" v="Bjørnfollkammen" />
		<tag k="natural" v="hill" />
		<tag k="place" v="locality" />
		<tag k="ssr:stedsnr" v="74196" />
	</node>
	<node id="-868575" lat="63.2393750035" lon="10.5991749941">
		<tag k="fixme" v="consider natural=peak for the most distinct mountains in the district" />
		<tag k="name" v="Blomåsen" />
		<tag k="natural" v="hill" />
		<tag k="place" v="locality" />
		<tag k="ssr:stedsnr" v="528406" />
	</node>
	<node id="-868833" lat="63.3047416679" lon="10.6464972216">
		<tag k="name" v="Rundhaugen" />
		<tag k="natural" v="hill" />
		<tag k="place" v="locality" />
		<tag k="ssr:stedsnr" v="255851" />
	</node>
	<node id="-868453" lat="63.3387361116" lon="10.4731722225">
		<tag k="name" v="Amundsdalen" />
		<tag k="natural" v="valley" />
		<tag k="place" v="locality" />
		<tag k="ssr:stedsnr" v="584614" />
	</node>
	<node id="-868526" lat="63.1694027748" lon="10.6361861172">
		<tag k="name" v="Øverdalen" />
		<tag k="natural" v="valley" />
		<tag k="place" v="locality" />
		<tag k="ssr:stedsnr" v="619796" />
	</node>
	<node id="-868451" lat="63.2634944447" lon="10.6068138835">
		<tag k="fixme" v="consider natural=peak for the most distinct mountains in the district" />
		<tag k="name" v="Storvikbjørga" />
		<tag k="natural" v="hill" />
		<tag k="place" v="locality" />
		<tag k="ssr:stedsnr" v="710324" />
	</node>
	<node id="-868447" lat="63.2833416623" lon="10.5520972224">
		<tag k="fixme" v="consider natural=peak for the most distinct mountains in the district" />
		<tag k="name" v="Vargslættkjølen" />
		<tag k="natural" v="hill" />
		<tag k="place" v="locality" />
		<tag k="ssr:stedsnr" v="43424" />
	</node>
	<node id="-868709" lat="63.2365027816" lon="10.5153694445">
		<tag k="fixme" v="consider natural=peak for the most distinct mountains in the district" />
		<tag k="name" v="Liaåsen" />
		<tag k="natural" v="hill" />
		<tag k="place" v="locality" />
		<tag k="ssr:stedsnr" v="285339" />
	</node>
	<node id="-868444" lat="63.2766277758" lon="10.574616664">
		<tag k="name" v="Saghaugan" />
		<tag k="natural" v="hill" />
		<tag k="place" v="locality" />
		<tag k="ssr:stedsnr" v="225328" />
	</node>
	<node id="-868955" lat="63.289827774" lon="10.4010027851">
		<tag k="name" v="Langdalen" />
		<tag k="natural" v="valley" />
		<tag k="place" v="locality" />
		<tag k="ssr:stedsnr" v="771507" />
	</node>
	<node id="-868952" lat="63.2740166669" lon="10.4758916762">
		<tag k="name" v="Kolbotnan" />
		<tag k="natural" v="valley" />
		<tag k="place" v="locality" />
		<tag k="ssr:stedsnr" v="346297" />
	</node>
	<node id="-868679" lat="63.2950972244" lon="10.426458331">
		<tag k="name" v="Forsetmoan" />
		<tag k="place" v="locality" />
		<tag k="ssr:stedsnr" v="43473" />
	</node>
	<node id="-868950" lat="63.2380749977" lon="10.4424361063">
		<tag k="fixme" v="consider natural=peak for the most distinct mountains in the district" />
		<tag k="name" v="Litjdugurdsåsen" />
		<tag k="natural" v="hill" />
		<tag k="place" v="locality" />
		<tag k="ssr:stedsnr" v="679722" />
	</node>
	<node id="-868437" lat="63.2765638923" lon="10.5521444418">
		<tag k="name" v="Høybudalen" />
		<tag k="natural" v="valley" />
		<tag k="place" v="locality" />
		<tag k="ssr:stedsnr" v="225330" />
	</node>
	<node id="-868947" lat="63.2668750015" lon="10.4337333303">
		<tag k="name" v="Dunderbakken" />
		<tag k="natural" v="slope" />
		<tag k="place" v="locality" />
		<tag k="ssr:stedsnr" v="953278" />
	</node>
	<node id="-868945" lat="63.2818277753" lon="10.4485138833">
		<tag k="name" v="Finnhaugen" />
		<tag k="natural" v="hill" />
		<tag k="place" v="locality" />
		<tag k="ssr:stedsnr" v="346515" />
	</node>
	<node id="-868943" lat="63.2879972226" lon="10.5028666723">
		<tag k="fixme" v="consider natural=peak for the most distinct mountains in the district" />
		<tag k="name" v="Duvåsen" />
		<tag k="natural" v="hill" />
		<tag k="place" v="locality" />
		<tag k="ssr:stedsnr" v="802816" />
	</node>
	<node id="-868942" lat="63.2536166631" lon="10.528805548">
		<tag k="name" v="Moan" />
		<tag k="place" v="locality" />
		<tag k="ssr:stedsnr" v="892341" />
	</node>
	<node id="-868429" lat="63.3366277774" lon="10.4467249973">
		<tag k="name" v="Nordsetkamman" />
		<tag k="natural" v="ridge" />
		<tag k="place" v="locality" />
		<tag k="ssr:stedsnr" v="99632" />
	</node>
	<node id="-868428" lat="63.3302388904" lon="10.5353666747">
		<tag k="name" v="Fiskbekkdalen" />
		<tag k="natural" v="valley" />
		<tag k="place" v="locality" />
		<tag k="ssr:stedsnr" v="38620" />
	</node>
	<node id="-869047" lat="63.2771777737" lon="10.4758583402">
		<tag k="name" v="Sveberga" />
		<tag k="natural" v="hill" />
		<tag k="place" v="locality" />
		<tag k="ssr:stedsnr" v="103280" />
	</node>
	<node id="-868424" lat="63.2823888914" lon="10.5180666709">
		<tag k="fixme" v="consider natural=peak for the most distinct mountains in the district" />
		<tag k="name" v="Klossåsen" />
		<tag k="natural" v="hill" />
		<tag k="place" v="locality" />
		<tag k="ssr:stedsnr" v="438779" />
	</node>
	<node id="-868934" lat="63.2558611122" lon="10.4229750019">
		<tag k="fixme" v="consider natural=peak for the most distinct mountains in the district" />
		<tag k="name" v="Bjørnholkammen" />
		<tag k="natural" v="hill" />
		<tag k="place" v="locality" />
		<tag k="ssr:stedsnr" v="281634" />
	</node>
	<node id="-868588" lat="63.2553277802" lon="10.6296361051">
		<tag k="name" v="Nonshaugen" />
		<tag k="natural" v="hill" />
		<tag k="place" v="locality" />
		<tag k="ssr:stedsnr" v="620192" />
	</node>
	<node id="-868418" lat="63.2400305587" lon="10.4939833281">
		<tag k="fixme" v="consider natural=peak for the most distinct mountains in the district" />
		<tag k="name" v="Bjørsjøåsen" />
		<tag k="natural" v="hill" />
		<tag k="place" v="locality" />
		<tag k="ssr:stedsnr" v="710340" />
	</node>
	<node id="-868929" lat="63.2784111079" lon="10.5537305565">
		<tag k="fixme" v="consider natural=peak for the most distinct mountains in the district" />
		<tag k="name" v="Storåsen" />
		<tag k="natural" v="hill" />
		<tag k="place" v="locality" />
		<tag k="ssr:stedsnr" v="164511" />
	</node>
	<node id="-868928" lat="63.2556055557" lon="10.5444583392">
		<tag k="fixme" v="consider natural=peak for the most distinct mountains in the district" />
		<tag k="name" v="Vikaåsen" />
		<tag k="natural" v="hill" />
		<tag k="place" v="locality" />
		<tag k="ssr:stedsnr" v="892344" />
	</node>
	<node id="-868927" lat="63.2563083333" lon="10.551188894">
		<tag k="name" v="Vika" />
		<tag k="natural" v="slope" />
		<tag k="place" v="locality" />
		<tag k="ssr:stedsnr" v="892346" />
	</node>
	<node id="-868414" lat="63.252494441" lon="10.4583638789">
		<tag k="fixme" v="consider natural=peak for the most distinct mountains in the district" />
		<tag k="name" v="Elvåsan" />
		<tag k="natural" v="hill" />
		<tag k="place" v="locality" />
		<tag k="ssr:stedsnr" v="164388" />
	</node>
	<node id="-869002" lat="63.2584194445" lon="10.6063416704">
		<tag k="fixme" v="consider natural=peak for the most distinct mountains in the district" />
		<tag k="name" v="Sagbrenna" />
		<tag k="natural" v="hill" />
		<tag k="place" v="locality" />
		<tag k="ssr:stedsnr" v="771332" />
	</node>
	<node id="-868410" lat="63.2871694478" lon="10.5753944395">
		<tag k="fixme" v="consider natural=peak for the most distinct mountains in the district" />
		<tag k="name" v="Jennvollåsen" />
		<tag k="natural" v="hill" />
		<tag k="place" v="locality" />
		<tag k="ssr:stedsnr" v="438777" />
	</node>
	<node id="-868919" lat="63.1967611079" lon="10.6687861058">
		<tag k="name" v="Kråkhaugen" />
		<tag k="natural" v="hill" />
		<tag k="place" v="locality" />
		<tag k="ssr:stedsnr" v="376836" />
	</node>
	<node id="-868406" lat="63.2550777768" lon="10.5533555649">
		<tag k="name" v="Vikabjørga" />
		<tag k="natural" v="slope" />
		<tag k="place" v="locality" />
		<tag k="ssr:stedsnr" v="953401" />
	</node>
	<node id="-868404" lat="63.2561138902" lon="10.4705888951">
		<tag k="fixme" v="consider natural=peak for the most distinct mountains in the district" />
		<tag k="name" v="Liaåsen" />
		<tag k="natural" v="hill" />
		<tag k="place" v="locality" />
		<tag k="ssr:stedsnr" v="407358" />
	</node>
	<node id="-868403" lat="63.3122138899" lon="10.5983166689">
		<tag k="name" v="Rønningshøgda" />
		<tag k="natural" v="hill" />
		<tag k="place" v="locality" />
		<tag k="ssr:stedsnr" v="43410" />
	</node>
	<node id="-868914" lat="63.2815777771" lon="10.3934694399">
		<tag k="fixme" v="consider natural=peak for the most distinct mountains in the district" />
		<tag k="name" v="Pungtjønnåsen" />
		<tag k="natural" v="hill" />
		<tag k="place" v="locality" />
		<tag k="ssr:stedsnr" v="923815" />
	</node>
	<node id="-868913" lat="63.2611888903" lon="10.3860583256">
		<tag k="name" v="Storslættet" />
		<tag k="place" v="locality" />
		<tag k="ssr:stedsnr" v="771526" />
	</node>
	<node id="-868398" lat="63.2895805547" lon="10.5272194379">
		<tag k="name" v="Sauberget" />
		<tag k="natural" v="hill" />
		<tag k="place" v="locality" />
		<tag k="ssr:stedsnr" v="13793" />
	</node>
	<node id="-868909" lat="63.2846361143" lon="10.5112833321">
		<tag k="fixme" v="consider natural=peak for the most distinct mountains in the district" />
		<tag k="name" v="Møsmøråsen" />
		<tag k="natural" v="hill" />
		<tag k="place" v="locality" />
		<tag k="ssr:stedsnr" v="953504" />
	</node>
	<node id="-868907" lat="63.2464694402" lon="10.6289916607">
		<tag k="name" v="Tørrgaddhaugen" />
		<tag k="natural" v="hill" />
		<tag k="place" v="locality" />
		<tag k="ssr:stedsnr" v="892334" />
	</node>
	<node id="-868393" lat="63.2731888916" lon="10.5206499928">
		<tag k="name" v="Blåberga" />
		<tag k="natural" v="hill" />
		<tag k="place" v="locality" />
		<tag k="ssr:stedsnr" v="649288" />
	</node>
	<node id="-868904" lat="63.2567722221" lon="10.4694277841">
		<tag k="name" v="Liadalen" />
		<tag k="natural" v="valley" />
		<tag k="place" v="locality" />
		<tag k="ssr:stedsnr" v="346285" />
	</node>
	<node id="-868903" lat="63.3319527801" lon="10.545566666">
		<tag k="name" v="Fossberga" />
		<tag k="natural" v="hill" />
		<tag k="place" v="locality" />
		<tag k="ssr:stedsnr" v="341661" />
	</node>
	<node id="-868902" lat="63.2991944435" lon="10.4961083389">
		<tag k="fixme" v="consider natural=peak for the most distinct mountains in the district" />
		<tag k="name" v="Trøåsen" />
		<tag k="natural" v="hill" />
		<tag k="place" v="locality" />
		<tag k="ssr:stedsnr" v="810155" />
	</node>
	<node id="-868389" lat="63.2430277806" lon="10.5012277849">
		<tag k="name" v="Nonshaugen" />
		<tag k="natural" v="hill" />
		<tag k="place" v="locality" />
		<tag k="ssr:stedsnr" v="103348" />
	</node>
	<node id="-868900" lat="63.2739027741" lon="10.510744437">
		<tag k="fixme" v="multiple name tags, choose one and add the other to alt_name; consider natural=peak for the most distinct mountains in the district" />
		<tag k="name" v="Litjståggåberga;Haugumkoia" />
		<tag k="natural" v="hill" />
		<tag k="place" v="locality" />
		<tag k="ssr:stedsnr" v="142223" />
	</node>
	<node id="-868387" lat="63.2544333323" lon="10.4527361173">
		<tag k="fixme" v="consider natural=peak for the most distinct mountains in the district" />
		<tag k="name" v="Klauvsjøåsen" />
		<tag k="natural" v="hill" />
		<tag k="place" v="locality" />
		<tag k="ssr:stedsnr" v="498246" />
	</node>
	<node id="-868386" lat="63.3128305557" lon="10.6534861047">
		<tag k="fixme" v="consider natural=peak for the most distinct mountains in the district" />
		<tag k="name" v="Merraåsen" />
		<tag k="natural" v="hill" />
		<tag k="place" v="locality" />
		<tag k="ssr:stedsnr" v="558878" />
	</node>
	<node id="-868384" lat="63.2992277814" lon="10.4086305621">
		<tag k="name" v="Slåtthaugen" />
		<tag k="natural" v="hill" />
		<tag k="place" v="locality" />
		<tag k="ssr:stedsnr" v="467510" />
	</node>
	<node id="-868895" lat="63.250461108" lon="10.605722224">
		<tag k="name" v="Storøydalen" />
		<tag k="natural" v="valley" />
		<tag k="place" v="locality" />
		<tag k="ssr:stedsnr" v="892339" />
	</node>
	<node id="-868382" lat="63.2594277799" lon="10.3715055492">
		<tag k="name" v="Skjenstadbakkan" />
		<tag k="natural" v="slope" />
		<tag k="place" v="locality" />
		<tag k="ssr:stedsnr" v="225537" />
	</node>
	<node id="-868377" lat="63.2503305535" lon="10.6263638927">
		<tag k="name" v="Karistrupen" />
		<tag k="natural" v="valley" />
		<tag k="place" v="locality" />
		<tag k="ssr:stedsnr" v="346376" />
	</node>
	<node id="-869069" lat="63.2725000014" lon="10.4864416576">
		<tag k="name" v="Damtjønnberga" />
		<tag k="natural" v="hill" />
		<tag k="place" v="locality" />
		<tag k="ssr:stedsnr" v="528321" />
	</node>
	<node id="-868885" lat="63.324744444" lon="10.4068361036">
		<tag k="fixme" v="consider natural=peak for the most distinct mountains in the district" />
		<tag k="name" v="Einstiåsen" />
		<tag k="natural" v="hill" />
		<tag k="place" v="locality" />
		<tag k="ssr:stedsnr" v="827651" />
	</node>
	<node id="-868884" lat="63.276977774" lon="10.3709805484">
		<tag k="name" v="Tortberga" />
		<tag k="natural" v="hill" />
		<tag k="place" v="locality" />
		<tag k="ssr:stedsnr" v="802804" />
	</node>
	<node id="-868883" lat="63.2879295579" lon="10.5126901664">
		<tag k="name" v="Svarthåmmåren" />
		<tag k="natural" v="hill" />
		<tag k="place" v="locality" />
		<tag k="ssr:stedsnr" v="385157" />
	</node>
	<node id="-868881" lat="63.2724500042" lon="10.4553305587">
		<tag k="name" v="Dansvollen" />
		<tag k="place" v="locality" />
		<tag k="ssr:stedsnr" v="346269" />
	</node>
	<node id="-868880" lat="63.2779749983" lon="10.6157499902">
		<tag k="name" v="Gauphaugen" />
		<tag k="natural" v="hill" />
		<tag k="place" v="locality" />
		<tag k="ssr:stedsnr" v="892300" />
	</node>
	<node id="-868879" lat="63.3155034584" lon="10.5592396941">
		<tag k="fixme" v="consider natural=peak for the most distinct mountains in the district" />
		<tag k="name" v="Bjørnskallen" />
		<tag k="natural" v="hill" />
		<tag k="place" v="locality" />
		<tag k="ssr:stedsnr" v="407445" />
	</node>
	<node id="-868878" lat="63.2639083301" lon="10.4426305612">
		<tag k="fixme" v="consider natural=peak for the most distinct mountains in the district" />
		<tag k="name" v="Klasåsen" />
		<tag k="natural" v="hill" />
		<tag k="place" v="locality" />
		<tag k="ssr:stedsnr" v="316208" />
	</node>
	<node id="-868665" lat="63.2355250025" lon="10.633613895">
		<tag k="name" v="Liahaugen" />
		<tag k="natural" v="hill" />
		<tag k="place" v="locality" />
		<tag k="ssr:stedsnr" v="557712" />
	</node>
	<node id="-868874" lat="63.3314666648" lon="10.5381833407">
		<tag k="name" v="Bjørnhaugen" />
		<tag k="natural" v="hill" />
		<tag k="place" v="locality" />
		<tag k="ssr:stedsnr" v="827650" />
	</node>
	<node id="-868951" lat="63.2802315334" lon="10.5091324226">
		<tag k="fixme" v="consider natural=peak for the most distinct mountains in the district" />
		<tag k="name" v="Ratbuåsen" />
		<tag k="natural" v="hill" />
		<tag k="place" v="locality" />
		<tag k="ssr:stedsnr" v="507176" />
	</node>
	<node id="-868359" lat="63.2434833356" lon="10.4912388952">
		<tag k="name" v="Andvikmoen" />
		<tag k="place" v="locality" />
		<tag k="ssr:stedsnr" v="771375" />
	</node>
	<node id="-868869" lat="63.2435527764" lon="10.482936111">
		<tag k="name" v="Østermoan" />
		<tag k="place" v="locality" />
		<tag k="ssr:stedsnr" v="832394" />
	</node>
	<node id="-868949" lat="63.2383111099" lon="10.532016663">
		<tag k="fixme" v="consider natural=peak for the most distinct mountains in the district" />
		<tag k="name" v="Gilderkammen" />
		<tag k="natural" v="hill" />
		<tag k="place" v="locality" />
		<tag k="ssr:stedsnr" v="679721" />
	</node>
	<node id="-868866" lat="63.3124583374" lon="10.4123999958">
		<tag k="name" v="Lysbethdalen" />
		<tag k="natural" v="valley" />
		<tag k="place" v="locality" />
		<tag k="ssr:stedsnr" v="281617" />
	</node>
	<node id="-868865" lat="63.2758111106" lon="10.3819666683">
		<tag k="fixme" v="consider natural=peak for the most distinct mountains in the district" />
		<tag k="name" v="Steinslættåsen" />
		<tag k="natural" v="hill" />
		<tag k="place" v="locality" />
		<tag k="ssr:stedsnr" v="619824" />
	</node>
</osm>
