<?xml version="1.0" encoding="UTF-8"?>
<osm generator="osmapis" version="0.6">
	<node id="-881151" lat="63.240627782" lon="10.4338805564">
		<tag k="name" v="Tangen" />
		<tag k="place" v="farm" />
		<tag k="ssr:stedsnr" v="315743" />
	</node>
	<node id="-881658" lat="63.3181055584" lon="10.4098277705">
		<tag k="name" v="Skjølbakken" />
		<tag k="place" v="farm" />
		<tag k="ssr:stedsnr" v="74865" />
	</node>
	<node id="-881657" lat="63.259688887" lon="10.4561277732">
		<tag k="name" v="Hyttfossen" />
		<tag k="place" v="hamlet" />
		<tag k="ssr:stedsnr" v="148080" />
	</node>
	<node id="-881653" lat="63.2318222266" lon="10.5860083289">
		<tag k="name" v="Eidstuvollen" />
		<tag k="place" v="isolated_dwelling" />
		<tag k="ssr:stedsnr" v="206862" />
	</node>
	<node id="-881652" lat="63.2908057628" lon="10.4399314264">
		<tag k="fixme" v="consider place=hamlet" />
		<tag k="name" v="Tulluan" />
		<tag k="place" v="farm" />
		<tag k="ssr:stedsnr" v="108092" />
	</node>
	<node id="-881649" lat="63.2892027744" lon="10.4615666758">
		<tag k="name" v="Storvollen" />
		<tag k="place" v="farm" />
		<tag k="ssr:stedsnr" v="346529" />
	</node>
	<node id="-881643" lat="63.3091351642" lon="10.4466880516">
		<tag k="name" v="Jørgenstrøa" />
		<tag k="place" v="farm" />
		<tag k="ssr:stedsnr" v="741901" />
	</node>
	<node id="-881129" lat="63.3013750014" lon="10.4587499986">
		<tag k="name" v="Haugamyra" />
		<tag k="place" v="quarter" />
		<tag k="ssr:stedsnr" v="780741" />
	</node>
	<node id="-881155" lat="63.2680333375" lon="10.5336222171">
		<tag k="name" v="Solhaug" />
		<tag k="place" v="farm" />
		<tag k="ssr:stedsnr" v="681767" />
	</node>
	<node id="-881123" lat="63.2566805577" lon="10.5172638795">
		<tag k="building" v="commercial" />
		<tag k="name" v="Grendstad poståpneri" />
		<tag k="ssr:stedsnr" v="463585" />
	</node>
	<node id="-881061" lat="63.2797138867" lon="10.4572166582">
		<tag k="leisure" v="pitch" />
		<tag k="name" v="Leirduebanen" />
		<tag k="ssr:stedsnr" v="38614" />
	</node>
	<node id="-881112" lat="63.3163694408" lon="10.4658611164">
		<tag k="name" v="Furuly" />
		<tag k="place" v="farm" />
		<tag k="ssr:stedsnr" v="103163" />
	</node>
	<node id="-881111" lat="63.2960636679" lon="10.4723067141">
		<tag k="fixme" v="consider place=hamlet" />
		<tag k="name" v="Torva" />
		<tag k="place" v="farm" />
		<tag k="ssr:stedsnr" v="74797" />
	</node>
	<node id="-881109" lat="63.3054285291" lon="10.4611833122">
		<tag k="amenity" v="school" />
		<tag k="name" v="Sørborgen skole" />
		<tag k="old_name" v="Sørborgan" />
		<tag k="ssr:stedsnr" v="802875" />
	</node>
	<node id="-881617" lat="63.3330166645" lon="10.4703611032">
		<tag k="alt_name" v="Rønningen søre;Rønningen" />
		<tag k="name" v="Søre Rønningen" />
		<tag k="place" v="farm" />
		<tag k="ssr:stedsnr" v="134924" />
	</node>
	<node id="-881616" lat="63.2878055569" lon="10.4619333325">
		<tag k="name" v="Storvollen" />
		<tag k="place" v="farm" />
		<tag k="ssr:stedsnr" v="134800" />
	</node>
	<node id="-881102" lat="63.2898528857" lon="10.483735537">
		<tag k="fixme" v="consider place=hamlet" />
		<tag k="name" v="Husby" />
		<tag k="place" v="farm" />
		<tag k="ssr:stedsnr" v="741826" />
	</node>
	<node id="-881610" lat="63.3132621138" lon="10.4843149852">
		<tag k="alt_name" v="Lysklett søre;Lysklett, søre" />
		<tag k="fixme" v="consider place=hamlet" />
		<tag k="name" v="Søre Lysklett" />
		<tag k="place" v="farm" />
		<tag k="ssr:stedsnr" v="741899" />
	</node>
	<node id="-880779" lat="63.2831222257" lon="10.4298166674">
		<tag k="building" v="industrial" />
		<tag k="industrial" v="factory" />
		<tag k="name" v="Trønderhus" />
		<tag k="ssr:stedsnr" v="164558" />
	</node>
	<node id="-881096" lat="63.3183500044" lon="10.4675972129">
		<tag k="name" v="Granly" />
		<tag k="place" v="farm" />
		<tag k="ssr:stedsnr" v="103166" />
	</node>
	<node id="-881606" lat="63.2351166678" lon="10.5130388826">
		<tag k="alt_name" v="Lekås" />
		<tag k="historic" v="shieling" />
		<tag k="name" v="Lekåsen" />
		<tag k="place" v="locality" />
		<tag k="ssr:stedsnr" v="255736" />
	</node>
	<node id="-881604" lat="63.2769999454" lon="10.5268615013">
		<tag k="historic" v="shieling" />
		<tag k="name" v="Byavollen" />
		<tag k="place" v="locality" />
		<tag k="ssr:stedsnr" v="923806" />
	</node>
	<node id="-881090" lat="63.3035833299" lon="10.4772000025">
		<tag k="name" v="Finnmyra" />
		<tag k="place" v="quarter" />
		<tag k="ssr:stedsnr" v="528595" />
	</node>
	<node id="-881089" lat="63.2876033075" lon="10.3830729636">
		<tag k="name" v="Reinslættbua" />
		<tag k="place" v="locality" />
		<tag k="ssr:stedsnr" v="20349" />
	</node>
	<node id="-881087" lat="63.3372888853" lon="10.4838222285">
		<tag k="alt_name" v="Storugla nedre" />
		<tag k="name" v="Nedre Storugla" />
		<tag k="place" v="farm" />
		<tag k="ssr:stedsnr" v="103159" />
	</node>
	<node id="-881086" lat="63.2769277787" lon="10.4336722148">
		<tag k="alt_name" v="Burås" />
		<tag k="name" v="Buråsen" />
		<tag k="place" v="farm" />
		<tag k="ssr:stedsnr" v="195793" />
	</node>
	<node id="-881084" lat="63.2781388904" lon="10.4374416636">
		<tag k="name" v="Lappen" />
		<tag k="place" v="farm" />
		<tag k="ssr:stedsnr" v="710138" />
	</node>
	<node id="-881083" lat="63.3234910707" lon="10.4586388116">
		<tag k="name" v="Søråsen" />
		<tag k="place" v="farm" />
		<tag k="ssr:stedsnr" v="103157" />
	</node>
	<node id="-881078" lat="63.3092638932" lon="10.4288138946">
		<tag k="name" v="Tanemsmoen" />
		<tag k="place" v="farm" />
		<tag k="ssr:stedsnr" v="802892" />
	</node>
	<node id="-881589" lat="63.2280166629" lon="10.5310916599">
		<tag k="historic" v="shieling" />
		<tag k="name" v="Brøttemsvollen" />
		<tag k="place" v="locality" />
		<tag k="ssr:stedsnr" v="862715" />
	</node>
	<node id="-881585" lat="63.3136027758" lon="10.4401222263">
		<tag k="alt_name" v="Tanem nedre;Gjardet" />
		<tag k="name" v="Nedre Tanem" />
		<tag k="place" v="farm" />
		<tag k="ssr:stedsnr" v="220175" />
	</node>
	<node id="-881581" lat="63.3344749959" lon="10.4898499965">
		<tag k="name" v="Storugla" />
		<tag k="old_name" v="Auglen" />
		<tag k="place" v="hamlet" />
		<tag k="ssr:stedsnr" v="41729" />
	</node>
	<node id="-881066" lat="63.2707111089" lon="10.4654055608">
		<tag k="name" v="Eidstumo" />
		<tag k="place" v="farm" />
		<tag k="ssr:stedsnr" v="523140" />
	</node>
	<node id="-881065" lat="63.2476947355" lon="10.4389510265">
		<tag k="fixme" v="consider place=hamlet" />
		<tag k="name" v="Målsjøen" />
		<tag k="place" v="farm" />
		<tag k="ssr:stedsnr" v="315602" />
	</node>
	<node id="-881137" lat="63.3218138869" lon="10.4703666737">
		<tag k="leisure" v="pitch" />
		<tag k="name" v="Klæbu travbane" />
		<tag k="ssr:stedsnr" v="463582" />
	</node>
	<node id="-881570" lat="63.2732742774" lon="10.5467183672">
		<tag k="alt_name" v="Bjørklia vestre" />
		<tag k="name" v="Vestre Bjørklia" />
		<tag k="place" v="farm" />
		<tag k="ssr:stedsnr" v="827466" />
	</node>
	<node id="-880795" lat="63.2474611073" lon="10.4818750083">
		<tag k="name" v="Svebakken" />
		<tag k="place" v="farm" />
		<tag k="ssr:stedsnr" v="194583" />
	</node>
	<node id="-881568" lat="63.3262333315" lon="10.4797305561">
		<tag k="name" v="Ulsetsanden" />
		<tag k="place" v="farm" />
		<tag k="ssr:stedsnr" v="285165" />
	</node>
	<node id="-881567" lat="63.3278777735" lon="10.4853055601">
		<tag k="alt_name" v="Ulset nordre" />
		<tag k="name" v="Nordre Ulset" />
		<tag k="place" v="farm" />
		<tag k="ssr:stedsnr" v="285166" />
	</node>
	<node id="-881566" lat="63.3206638922" lon="10.5032111152">
		<tag k="name" v="Devle" />
		<tag k="place" v="farm" />
		<tag k="ssr:stedsnr" v="689147" />
	</node>
	<node id="-881052" lat="63.2797138867" lon="10.4572166582">
		<tag k="name" v="Nidelven camping" />
		<tag k="ssr:stedsnr" v="99626" />
		<tag k="tourism" v="camp_site" />
	</node>
	<node id="-881046" lat="63.3228887328" lon="10.4432946175">
		<tag k="fixme" v="consider place=hamlet" />
		<tag k="name" v="Fjærem" />
		<tag k="place" v="farm" />
		<tag k="ssr:stedsnr" v="316925" />
	</node>
	<node id="-881044" lat="63.2995722251" lon="10.4856722252">
		<tag k="amenity" v="school" />
		<tag k="name" v="Sletten skole" />
		<tag k="ssr:stedsnr" v="43206" />
	</node>
	<node id="-881040" lat="63.3065638849" lon="10.4250500022">
		<tag k="amenity" v="sports_centre" />
		<tag k="name" v="Tanemshallen" />
		<tag k="ssr:stedsnr" v="968291" />
	</node>
	<node id="-881034" lat="63.299302777" lon="10.4751250041">
		<tag k="name" v="Nordre Norddal" />
		<tag k="place" v="farm" />
		<tag k="ssr:stedsnr" v="596178" />
	</node>
	<node id="-881544" lat="63.1920777757" lon="10.6019499967">
		<tag k="historic" v="shieling" />
		<tag k="name" v="Litjuglvollen" />
		<tag k="place" v="locality" />
		<tag k="ssr:stedsnr" v="901391" />
	</node>
	<node id="-881542" lat="63.2969277781" lon="10.4982055518">
		<tag k="name" v="Brandhaugen" />
		<tag k="place" v="locality" />
		<tag k="ssr:stedsnr" v="953507" />
	</node>
	<node id="-881029" lat="63.3038161533" lon="10.4887025211">
		<tag k="alt_name" v="Hallset, nordre;Hallset" />
		<tag k="name" v="Nordre Hallset" />
		<tag k="place" v="farm" />
		<tag k="ssr:stedsnr" v="923863" />
	</node>
	<node id="-881539" lat="63.3176181248" lon="10.4822289356">
		<tag k="alt_name" v="Lysklett, nordre" />
		<tag k="fixme" v="consider place=hamlet" />
		<tag k="name" v="Nordre Lysklett" />
		<tag k="place" v="farm" />
		<tag k="ssr:stedsnr" v="74851" />
	</node>
	<node id="-881538" lat="63.2665916686" lon="10.5237722276">
		<tag k="name" v="Korsmo" />
		<tag k="place" v="farm" />
		<tag k="ssr:stedsnr" v="559751" />
	</node>
	<node id="-881023" lat="63.3354361088" lon="10.4593777695">
		<tag k="name" v="Nordsetrønningen" />
		<tag k="place" v="farm" />
		<tag k="ssr:stedsnr" v="13927" />
	</node>
	<node id="-881534" lat="63.2982555592" lon="10.4826916708">
		<tag k="amenity" v="cafe" />
		<tag k="name" v="Strøket" />
		<tag k="ssr:stedsnr" v="605729" />
	</node>
	<node id="-881019" lat="63.271205552" lon="10.4425972208">
		<tag k="name" v="Nygården" />
		<tag k="place" v="farm" />
		<tag k="ssr:stedsnr" v="256730" />
	</node>
	<node id="-881017" lat="63.3036388863" lon="10.4778416681">
		<tag k="name" v="Rydland" />
		<tag k="place" v="quarter" />
		<tag k="ssr:stedsnr" v="719762" />
	</node>
	<node id="-881013" lat="63.2724000034" lon="10.379827776">
		<tag k="historic" v="shieling" />
		<tag k="loc_name" v="Gjardesvollen" />
		<tag k="name" v="Tanemsvollen" />
		<tag k="place" v="locality" />
		<tag k="ssr:stedsnr" v="103149" />
	</node>
	<node id="-881011" lat="63.3098138849" lon="10.4385222283">
		<tag k="name" v="Daltunet" />
		<tag k="place" v="quarter" />
		<tag k="ssr:stedsnr" v="38602" />
	</node>
	<node id="-881010" lat="63.2675694484" lon="10.538113884">
		<tag k="alt_name" v="Bjørklimark" />
		<tag k="name" v="Bjørklimarka" />
		<tag k="place" v="farm" />
		<tag k="ssr:stedsnr" v="316793" />
	</node>
	<node id="-881520" lat="63.2756694463" lon="10.5484166735">
		<tag k="name" v="Bjørklitrøa" />
		<tag k="place" v="isolated_dwelling" />
		<tag k="ssr:stedsnr" v="948144" />
	</node>
	<node id="-881007" lat="63.3071749978" lon="10.4287500001">
		<tag k="name" v="Garberg" />
		<tag k="place" v="farm" />
		<tag k="ssr:stedsnr" v="923857" />
	</node>
	<node id="-881006" lat="63.3234382738" lon="10.5080884138">
		<tag k="fixme" v="consider place=hamlet" />
		<tag k="name" v="Solem" />
		<tag k="place" v="farm" />
		<tag k="ssr:stedsnr" v="498898" />
	</node>
	<node id="-881005" lat="63.3029464981" lon="10.4701879697">
		<tag k="name" v="Granmo" />
		<tag k="place" v="farm" />
		<tag k="ssr:stedsnr" v="923858" />
	</node>
	<node id="-881515" lat="63.2515277788" lon="10.433211119">
		<tag k="name" v="Bjørnstad" />
		<tag k="place" v="farm" />
		<tag k="ssr:stedsnr" v="437229" />
	</node>
	<node id="-881002" lat="63.3006194471" lon="10.4687083359">
		<tag k="name" v="Gunnartrøa" />
		<tag k="place" v="quarter" />
		<tag k="ssr:stedsnr" v="771594" />
	</node>
	<node id="-881513" lat="63.1937999997" lon="10.6106722287">
		<tag k="name" v="Langsjøstuggu" />
		<tag k="place" v="locality" />
		<tag k="ssr:stedsnr" v="294776" />
	</node>
	<node id="-880999" lat="63.3072500016" lon="10.4337638795">
		<tag k="leisure" v="pitch" />
		<tag k="name" v="Tanem kunstgressbane" />
		<tag k="ssr:stedsnr" v="38604" />
	</node>
	<node id="-881508" lat="63.2738594668" lon="10.5495652268">
		<tag k="fixme" v="consider place=hamlet" />
		<tag k="name" v="Bjørklia" />
		<tag k="place" v="farm" />
		<tag k="ssr:stedsnr" v="437772" />
	</node>
	<node id="-881505" lat="63.3004666698" lon="10.4908472183">
		<tag k="alt_name" v="Hallset, søre" />
		<tag k="name" v="Søre Hallset" />
		<tag k="place" v="farm" />
		<tag k="ssr:stedsnr" v="741882" />
	</node>
	<node id="-881501" lat="63.2949888934" lon="10.4808694451">
		<tag k="name" v="Østby" />
		<tag k="place" v="quarter" />
		<tag k="ssr:stedsnr" v="771488" />
	</node>
	<node id="-881210" lat="63.3345111154" lon="10.490080561">
		<tag k="alt_name" v="Storugla øvre" />
		<tag k="fixme" v="consider place=hamlet" />
		<tag k="name" v="Øvre Storugla" />
		<tag k="place" v="farm" />
		<tag k="ssr:stedsnr" v="649142" />
	</node>
	<node id="-881497" lat="63.3140527734" lon="10.4376833379">
		<tag k="alt_name" v="Tanem nedre;Nestu" />
		<tag k="loc_name" v="Nerstu" />
		<tag k="name" v="Nedre Tanem" />
		<tag k="place" v="farm" />
		<tag k="ssr:stedsnr" v="220170" />
	</node>
	<node id="-881496" lat="63.3017749985" lon="10.4635194379">
		<tag k="amenity" v="kindergarten" />
		<tag k="name" v="Lauvåsen barnehage" />
		<tag k="ssr:stedsnr" v="666671" />
	</node>
	<node id="-881495" lat="63.3034250015" lon="10.4390805609">
		<tag k="alt_name" v="Forset øvre" />
		<tag k="name" v="Øvre Forset" />
		<tag k="place" v="farm" />
		<tag k="ssr:stedsnr" v="195844" />
	</node>
	<node id="-881491" lat="63.326441671" lon="10.435450009">
		<tag k="name" v="Fjæremsplassen" />
		<tag k="place" v="farm" />
		<tag k="ssr:stedsnr" v="285366" />
	</node>
	<node id="-880978" lat="63.2316333354" lon="10.5852388891">
		<tag k="historic" v="shieling" />
		<tag k="name" v="Eidstusvevollen" />
		<tag k="place" v="locality" />
		<tag k="ssr:stedsnr" v="159140" />
	</node>
	<node id="-880975" lat="63.2985611123" lon="10.4802138857">
		<tag k="name" v="Nordal" />
		<tag k="old_name" v="Norddal" />
		<tag k="place" v="farm" />
		<tag k="ssr:stedsnr" v="467501" />
	</node>
	<node id="-880973" lat="63.3208222233" lon="10.4167444504">
		<tag k="name" v="Nideng" />
		<tag k="place" v="farm" />
		<tag k="ssr:stedsnr" v="42171" />
	</node>
	<node id="-881484" lat="63.2502361106" lon="10.5079138969">
		<tag k="fixme" v="consider natural=beach + surface=sand" />
		<tag k="leisure" v="swimming_area" />
		<tag k="name" v="Bjørsjøen badeplass" />
		<tag k="place" v="locality" />
		<tag k="ssr:stedsnr" v="545717" />
	</node>
	<node id="-880968" lat="63.2898777798" lon="10.4417749909">
		<tag k="fixme" v="multiple name tags, choose one and add the other to alt_name" />
		<tag k="name" v="Midtre Tulluan;Midtigården" />
		<tag k="place" v="farm" />
		<tag k="ssr:stedsnr" v="446176" />
	</node>
	<node id="-880966" lat="63.2907166645" lon="10.4370138862">
		<tag k="amenity" v="school" />
		<tag k="name" v="Tulluan skole" />
		<tag k="ssr:stedsnr" v="225521" />
	</node>
	<node id="-880962" lat="63.2883416632" lon="10.4241694431">
		<tag k="name" v="Bromstadtrøa" />
		<tag k="place" v="farm" />
		<tag k="ssr:stedsnr" v="74776" />
	</node>
	<node id="-881473" lat="63.3352194479" lon="10.4408500095">
		<tag k="name" v="Nidelven camping" />
		<tag k="ssr:stedsnr" v="120676" />
		<tag k="tourism" v="camp_site" />
	</node>
	<node id="-880957" lat="63.298336113" lon="10.4593944508">
		<tag k="name" v="Stormyra" />
		<tag k="place" v="quarter" />
		<tag k="ssr:stedsnr" v="225524" />
	</node>
	<node id="-881466" lat="63.2470527784" lon="10.6077361143">
		<tag k="name" v="Haugkoia" />
		<tag k="place" v="isolated_dwelling" />
		<tag k="ssr:stedsnr" v="220150" />
	</node>
	<node id="-880948" lat="63.2380277817" lon="10.6093361212">
		<tag k="historic" v="shieling" />
		<tag k="name" v="Teigvollen" />
		<tag k="place" v="locality" />
		<tag k="ssr:stedsnr" v="38128" />
	</node>
	<node id="-881460" lat="63.3138842178" lon="10.4378224425">
		<tag k="fixme" v="consider place=hamlet" />
		<tag k="name" v="Nedre Tanem" />
		<tag k="place" v="farm" />
		<tag k="ssr:stedsnr" v="970897" />
	</node>
	<node id="-880947" lat="63.2881583319" lon="10.4396166599">
		<tag k="fixme" v="multiple name tags, choose one and add the other to alt_name" />
		<tag k="name" v="Søndre Tulluan;Framigården;Tulluan Framigården" />
		<tag k="place" v="farm" />
		<tag k="ssr:stedsnr" v="74775" />
	</node>
	<node id="-880945" lat="63.2502923452" lon="10.4401039081">
		<tag k="name" v="Målsjøåsen" />
		<tag k="place" v="farm" />
		<tag k="ssr:stedsnr" v="558211" />
	</node>
	<node id="-881455" lat="63.3126083324" lon="10.4226916675">
		<tag k="name" v="Kleiva" />
		<tag k="place" v="isolated_dwelling" />
		<tag k="ssr:stedsnr" v="741894" />
	</node>
	<node id="-881454" lat="63.3144777762" lon="10.4179333335">
		<tag k="name" v="Hallan" />
		<tag k="place" v="isolated_dwelling" />
		<tag k="ssr:stedsnr" v="13855" />
	</node>
	<node id="-881453" lat="63.3059777816" lon="10.466866659">
		<tag k="amenity" v="sports_centre" />
		<tag k="name" v="Klæbuhallen" />
		<tag k="ssr:stedsnr" v="281606" />
	</node>
	<node id="-881452" lat="63.3271333325" lon="10.4308138822">
		<tag k="name" v="Moan" />
		<tag k="place" v="farm" />
		<tag k="ssr:stedsnr" v="832413" />
	</node>
	<node id="-881451" lat="63.2471472192" lon="10.435791675">
		<tag k="name" v="Målsjøstua" />
		<tag k="place" v="farm" />
		<tag k="ssr:stedsnr" v="220151" />
	</node>
	<node id="-881450" lat="63.2656749959" lon="10.4011888811">
		<tag k="landuse" v="winter_sports" />
		<tag k="name" v="Vassfjellet skisenter" />
		<tag k="piste:type" v="downhill" />
		<tag k="ssr:stedsnr" v="749156" />
	</node>
	<node id="-881446" lat="63.3073694461" lon="10.4271444455">
		<tag k="name" v="Granheim" />
		<tag k="place" v="quarter" />
		<tag k="ssr:stedsnr" v="281604" />
	</node>
	<node id="-881445" lat="63.251936115" lon="10.6497749994">
		<tag k="name" v="Stordalskoia" />
		<tag k="place" v="isolated_dwelling" />
		<tag k="ssr:stedsnr" v="644125" />
	</node>
	<node id="-881444" lat="63.2899999963" lon="10.428855562">
		<tag k="name" v="Egga" />
		<tag k="place" v="farm" />
		<tag k="ssr:stedsnr" v="316845" />
	</node>
	<node id="-881443" lat="63.2586499994" lon="10.5108638931">
		<tag k="name" v="Brøttemsåsen" />
		<tag k="place" v="quarter" />
		<tag k="ssr:stedsnr" v="100879" />
	</node>
	<node id="-880930" lat="63.3297361071" lon="10.4942222194">
		<tag k="name" v="Svehaugen" />
		<tag k="place" v="isolated_dwelling" />
		<tag k="ssr:stedsnr" v="164162" />
	</node>
	<node id="-880927" lat="63.2042749992" lon="10.6052500044">
		<tag k="name" v="Kota" />
		<tag k="place" v="locality" />
		<tag k="ssr:stedsnr" v="537756" />
	</node>
	<node id="-880925" lat="63.255572976" lon="10.4382757431">
		<tag k="name" v="Tovåsen" />
		<tag k="place" v="farm" />
		<tag k="ssr:stedsnr" v="498243" />
	</node>
	<node id="-881433" lat="63.2441555584" lon="10.4307305541">
		<tag k="name" v="Midtli" />
		<tag k="place" v="farm" />
		<tag k="ssr:stedsnr" v="948149" />
	</node>
	<node id="-881432" lat="63.2908000033" lon="10.4376527756">
		<tag k="name" v="Tulluan" />
		<tag k="place" v="hamlet" />
		<tag k="ssr:stedsnr" v="39889" />
	</node>
	<node id="-881430" lat="63.2857750033" lon="10.4347916748">
		<tag k="name" v="Sagmoen" />
		<tag k="place" v="quarter" />
		<tag k="ssr:stedsnr" v="43491" />
	</node>
	<node id="-881427" lat="63.3327833322" lon="10.4379666738">
		<tag k="name" v="Nordset" />
		<tag k="place" v="farm" />
		<tag k="ssr:stedsnr" v="385151" />
	</node>
	<node id="-880914" lat="63.3199782854" lon="10.4730561873">
		<tag k="alt_name" v="Øver-Vangsmoen" />
		<tag k="name" v="Vangsmo" />
		<tag k="place" v="farm" />
		<tag k="ssr:stedsnr" v="498893" />
	</node>
	<node id="-881027" lat="63.2826833352" lon="10.4725694405">
		<tag k="name" v="Eidstusve" />
		<tag k="place" v="isolated_dwelling" />
		<tag k="ssr:stedsnr" v="103146" />
	</node>
	<node id="-880911" lat="63.3329361076" lon="10.4377250057">
		<tag k="fixme" v="consider place=hamlet" />
		<tag k="name" v="Nordset" />
		<tag k="place" v="farm" />
		<tag k="ssr:stedsnr" v="680941" />
	</node>
	<node id="-881421" lat="63.2122249981" lon="10.6127500096">
		<tag k="name" v="Gjellivollen" />
		<tag k="place" v="isolated_dwelling" />
		<tag k="ssr:stedsnr" v="497669" />
	</node>
	<node id="-881420" lat="63.3074527776" lon="10.4260500026">
		<tag k="amenity" v="kindergarten" />
		<tag k="name" v="Tanem barnehage" />
		<tag k="ssr:stedsnr" v="402659" />
	</node>
	<node id="-881418" lat="63.2591666703" lon="10.4561416668">
		<tag k="name" v="Hyttmyra" />
		<tag k="place" v="farm" />
		<tag k="ssr:stedsnr" v="220145" />
	</node>
	<node id="-881416" lat="63.2732500034" lon="10.4301444411">
		<tag k="alt_name" v="Storsve nordre" />
		<tag k="name" v="Nordre Storsve" />
		<tag k="place" v="farm" />
		<tag k="ssr:stedsnr" v="827661" />
	</node>
	<node id="-881415" lat="63.3026666627" lon="10.44213611">
		<tag k="alt_name" v="Forset nedre" />
		<tag k="name" v="Nedre Forset" />
		<tag k="place" v="farm" />
		<tag k="ssr:stedsnr" v="21183" />
	</node>
	<node id="-881414" lat="63.2471861069" lon="10.6069722186">
		<tag k="name" v="Teigvollen" />
		<tag k="place" v="isolated_dwelling" />
		<tag k="ssr:stedsnr" v="557595" />
	</node>
	<node id="-881676" lat="63.3131071726" lon="10.4623401012">
		<tag k="fixme" v="consider place=hamlet" />
		<tag k="name" v="Øver-Osen" />
		<tag k="place" v="farm" />
		<tag k="ssr:stedsnr" v="163529" />
	</node>
	<node id="-881407" lat="63.3202916631" lon="10.5033916568">
		<tag k="name" v="Devle" />
		<tag k="place" v="farm" />
		<tag k="ssr:stedsnr" v="710176" />
	</node>
	<node id="-880894" lat="63.281647222" lon="10.4647333284">
		<tag k="name" v="Motun" />
		<tag k="place" v="farm" />
		<tag k="ssr:stedsnr" v="559787" />
	</node>
	<node id="-881405" lat="63.2636638896" lon="10.459597213">
		<tag k="fixme" v="multiple name tags, choose one and add the other to alt_name; consider natural=beach + surface=sand" />
		<tag k="leisure" v="swimming_area" />
		<tag k="name" v="Hengebrua badeplass;Kulpan badeplass" />
		<tag k="place" v="locality" />
		<tag k="ssr:stedsnr" v="727749" />
	</node>
	<node id="-880889" lat="63.2876277736" lon="10.4700611114">
		<tag k="fixme" v="consider place=hamlet" />
		<tag k="name" v="Ner-Eidstu" />
		<tag k="place" v="farm" />
		<tag k="ssr:stedsnr" v="705694" />
	</node>
	<node id="-881400" lat="63.3383861123" lon="10.4817666745">
		<tag k="name" v="Ytterugla" />
		<tag k="place" v="farm" />
		<tag k="ssr:stedsnr" v="832166" />
	</node>
	<node id="-880886" lat="63.29761667" lon="10.4826027806">
		<tag k="name" v="Klæbu" />
		<tag k="place" v="village" />
		<tag k="ssr:stedsnr" v="152503" />
	</node>
	<node id="-881022" lat="63.2644888932" lon="10.6318083417">
		<tag k="name" v="Tangvoll" />
		<tag k="place" v="locality" />
		<tag k="ssr:stedsnr" v="810214" />
	</node>
	<node id="-881394" lat="63.2933388917" lon="10.5441333287">
		<tag k="name" v="Hallsetvollen" />
		<tag k="place" v="isolated_dwelling" />
		<tag k="ssr:stedsnr" v="438810" />
	</node>
	<node id="-880880" lat="63.3361055578" lon="10.4714361076">
		<tag k="alt_name" v="Rønningen nordre" />
		<tag k="name" v="Nordre Rønningen" />
		<tag k="place" v="farm" />
		<tag k="ssr:stedsnr" v="644661" />
	</node>
	<node id="-880879" lat="63.3003444483" lon="10.4889138794">
		<tag k="amenity" v="kindergarten" />
		<tag k="name" v="Sletten barnehage" />
		<tag k="ssr:stedsnr" v="955627" />
	</node>
	<node id="-881388" lat="63.2737694435" lon="10.4369861023">
		<tag k="name" v="Lillesve" />
		<tag k="place" v="farm" />
		<tag k="ssr:stedsnr" v="21177" />
	</node>
	<node id="-881386" lat="63.2621499995" lon="10.453322232">
		<tag k="name" v="Hyttmyra" />
		<tag k="place" v="quarter" />
		<tag k="ssr:stedsnr" v="892278" />
	</node>
	<node id="-881191" lat="63.3184916643" lon="10.4739472175">
		<tag k="name" v="Ner-Vangsmoen" />
		<tag k="place" v="farm" />
		<tag k="ssr:stedsnr" v="407179" />
	</node>
	<node id="-880870" lat="63.2029888877" lon="10.6697805622">
		<tag k="name" v="Grendstadvollen" />
		<tag k="place" v="isolated_dwelling" />
		<tag k="ssr:stedsnr" v="133774" />
	</node>
	<node id="-880867" lat="63.307585823" lon="10.4343394901">
		<tag k="amenity" v="kindergarten" />
		<tag k="name" v="Brannåsen barnehage" />
		<tag k="ssr:stedsnr" v="423296" />
	</node>
	<node id="-881377" lat="63.2992361155" lon="10.4835416706">
		<tag k="name" v="Klæbutorget" />
		<tag k="place" v="square" />
		<tag k="ssr:stedsnr" v="788736" />
	</node>
	<node id="-881104" lat="63.2869083335" lon="10.5134388929">
		<tag k="name" v="Svarthåmmårvollen" />
		<tag k="place" v="isolated_dwelling" />
		<tag k="ssr:stedsnr" v="20350" />
	</node>
	<node id="-881374" lat="63.3224388921" lon="10.4167861209">
		<tag k="name" v="Nideng" />
		<tag k="place" v="farm" />
		<tag k="ssr:stedsnr" v="467381" />
	</node>
	<node id="-881373" lat="63.3193196547" lon="10.4478616059">
		<tag k="fixme" v="consider place=hamlet" />
		<tag k="name" v="Krokan" />
		<tag k="place" v="farm" />
		<tag k="ssr:stedsnr" v="377875" />
	</node>
	<node id="-881372" lat="63.3232722257" lon="10.4432480303">
		<tag k="name" v="Fjærem" />
		<tag k="place" v="farm" />
		<tag k="ssr:stedsnr" v="978587" />
	</node>
	<node id="-880858" lat="63.3100611141" lon="10.4860583289">
		<tag k="name" v="Fjæremsaunet" />
		<tag k="place" v="farm" />
		<tag k="ssr:stedsnr" v="892165" />
	</node>
	<node id="-880932" lat="63.3138999989" lon="10.4356000098">
		<tag k="alt_name" v="Tanem øvre" />
		<tag k="fixme" v="consider place=hamlet" />
		<tag k="name" v="Øvre Tanem" />
		<tag k="place" v="farm" />
		<tag k="ssr:stedsnr" v="953155" />
	</node>
	<node id="-881363" lat="63.2877893879" lon="10.4751772325">
		<tag k="name" v="Eidstu" />
		<tag k="place" v="hamlet" />
		<tag k="ssr:stedsnr" v="316843" />
	</node>
	<node id="-880850" lat="63.3214333318" lon="10.4576305539">
		<tag k="name" v="Krokbakken" />
		<tag k="place" v="farm" />
		<tag k="ssr:stedsnr" v="256841" />
	</node>
	<node id="-881360" lat="63.3353890434" lon="10.4691570296">
		<tag k="fixme" v="consider place=hamlet" />
		<tag k="name" v="Rønningen" />
		<tag k="place" v="farm" />
		<tag k="ssr:stedsnr" v="970870" />
	</node>
	<node id="-880846" lat="63.3291604997" lon="10.500023866">
		<tag k="name" v="Nyhus" />
		<tag k="place" v="farm" />
		<tag k="ssr:stedsnr" v="438880" />
	</node>
	<node id="-881356" lat="63.3124750004" lon="10.4944666629">
		<tag k="name" v="Dalholt" />
		<tag k="place" v="farm" />
		<tag k="ssr:stedsnr" v="649150" />
	</node>
	<node id="-881352" lat="63.3398138925" lon="10.4719666699">
		<tag k="alt_name" v="Ytterugla" />
		<tag k="name" v="Ugla" />
		<tag k="place" v="farm" />
		<tag k="ssr:stedsnr" v="498948" />
	</node>
	<node id="-881350" lat="63.294597222" lon="10.44206945">
		<tag k="fixme" v="multiple name tags, choose one and add the other to alt_name" />
		<tag k="name" v="Nordre Tulluan;Tulluan Utpågården;Utpågården" />
		<tag k="place" v="farm" />
		<tag k="ssr:stedsnr" v="256776" />
	</node>
	<node id="-881348" lat="63.2860749976" lon="10.4817694369">
		<tag k="name" v="Eggan" />
		<tag k="place" v="farm" />
		<tag k="ssr:stedsnr" v="498822" />
	</node>
	<node id="-881347" lat="63.3139011271" lon="10.4644792492">
		<tag k="name" v="Osen" />
		<tag k="place" v="hamlet" />
		<tag k="ssr:stedsnr" v="970868" />
	</node>
	<node id="-880834" lat="63.3074388879" lon="10.4546250055">
		<tag k="name" v="Villmoen" />
		<tag k="place" v="farm" />
		<tag k="ssr:stedsnr" v="923854" />
	</node>
	<node id="-881341" lat="63.3327960322" lon="10.5117100951">
		<tag k="fixme" v="consider place=hamlet" />
		<tag k="name" v="Stavlund" />
		<tag k="place" v="farm" />
		<tag k="ssr:stedsnr" v="923906" />
	</node>
	<node id="-880827" lat="63.3074277744" lon="10.4266083364">
		<tag k="amenity" v="school" />
		<tag k="name" v="Tanem skole" />
		<tag k="ssr:stedsnr" v="892822" />
	</node>
	<node id="-880823" lat="63.3356833345" lon="10.4860249975">
		<tag k="alt_name" v="Storugla nedre" />
		<tag k="fixme" v="multiple name tags, choose one and add the other to alt_name; consider place=hamlet" />
		<tag k="name" v="Storugla;Nedre Storugla" />
		<tag k="old_name" v="Auglen" />
		<tag k="place" v="farm" />
		<tag k="ssr:stedsnr" v="377930" />
	</node>
	<node id="-881334" lat="63.3167333307" lon="10.4887138845">
		<tag k="name" v="Granli" />
		<tag k="place" v="farm" />
		<tag k="ssr:stedsnr" v="225184" />
	</node>
	<node id="-880820" lat="63.2949444473" lon="10.4928138961">
		<tag k="name" v="Borga" />
		<tag k="place" v="farm" />
		<tag k="ssr:stedsnr" v="134833" />
	</node>
	<node id="-880817" lat="63.3032276476" lon="10.4401429258">
		<tag k="fixme" v="consider place=hamlet" />
		<tag k="name" v="Forset" />
		<tag k="place" v="farm" />
		<tag k="ssr:stedsnr" v="595949" />
	</node>
	<node id="-881328" lat="63.3071286177" lon="10.4621415069">
		<tag k="fixme" v="consider place=hamlet" />
		<tag k="loc_name" v="Litjugla" />
		<tag k="name" v="Litlugla" />
		<tag k="old_name" v="Auglen lille" />
		<tag k="place" v="farm" />
		<tag k="ssr:stedsnr" v="741877" />
	</node>
	<node id="-881327" lat="63.2659749984" lon="10.6285500088">
		<tag k="name" v="Ytter Tangvolla" />
		<tag k="place" v="isolated_dwelling" />
		<tag k="ssr:stedsnr" v="888098" />
	</node>
	<node id="-880814" lat="63.2522942643" lon="10.5038264153">
		<tag k="fixme" v="consider place=hamlet" />
		<tag k="name" v="Brøttem" />
		<tag k="place" v="farm" />
		<tag k="ssr:stedsnr" v="13232" />
	</node>
	<node id="-881324" lat="63.2972722193" lon="10.4668416579">
		<tag k="name" v="Gammelsaga" />
		<tag k="place" v="quarter" />
		<tag k="ssr:stedsnr" v="416751" />
	</node>
	<node id="-881321" lat="63.3389228049" lon="10.4779820586">
		<tag k="fixme" v="consider place=hamlet" />
		<tag k="name" v="Ytterugla" />
		<tag k="place" v="farm" />
		<tag k="ssr:stedsnr" v="970874" />
	</node>
	<node id="-881315" lat="63.2651638913" lon="10.5253527811">
		<tag k="name" v="Teigtrøa" />
		<tag k="place" v="farm" />
		<tag k="ssr:stedsnr" v="134767" />
	</node>
	<node id="-880799" lat="63.2858777754" lon="10.3979305509">
		<tag k="name" v="Tanemsvollen" />
		<tag k="place" v="isolated_dwelling" />
		<tag k="ssr:stedsnr" v="771155" />
	</node>
	<node id="-881307" lat="63.2776435013" lon="10.4464296458">
		<tag k="fixme" v="consider place=hamlet" />
		<tag k="name" v="Moen" />
		<tag k="place" v="farm" />
		<tag k="ssr:stedsnr" v="376810" />
	</node>
	<node id="-880836" lat="63.3136131997" lon="10.4376130154">
		<tag k="name" v="Tanem" />
		<tag k="place" v="hamlet" />
		<tag k="ssr:stedsnr" v="317829" />
	</node>
	<node id="-881297" lat="63.3215895502" lon="10.4165008276">
		<tag k="fixme" v="consider place=hamlet" />
		<tag k="name" v="Nideng" />
		<tag k="place" v="farm" />
		<tag k="ssr:stedsnr" v="377872" />
	</node>
	<node id="-880784" lat="63.2547277778" lon="10.5078611134">
		<tag k="fixme" v="consider place=hamlet" />
		<tag k="name" v="Brøttemsmoen" />
		<tag k="place" v="village" />
		<tag k="ssr:stedsnr" v="42337" />
	</node>
	<node id="-881294" lat="63.3110805577" lon="10.4313222229">
		<tag k="name" v="Flatheim" />
		<tag k="place" v="farm" />
		<tag k="ssr:stedsnr" v="467159" />
	</node>
	<node id="-881293" lat="63.3217972222" lon="10.4356861038">
		<tag k="fixme" v="consider place=hamlet" />
		<tag k="name" v="Fosshauet" />
		<tag k="place" v="farm" />
		<tag k="ssr:stedsnr" v="588153" />
	</node>
	<node id="-881292" lat="63.2652388879" lon="10.5351805635">
		<tag k="name" v="Teigen" />
		<tag k="place" v="isolated_dwelling" />
		<tag k="ssr:stedsnr" v="802788" />
	</node>
	<node id="-881291" lat="63.3152194484" lon="10.5603194429">
		<tag k="historic" v="shieling" />
		<tag k="name" v="Bostadvollen" />
		<tag k="place" v="locality" />
		<tag k="ssr:stedsnr" v="134881" />
	</node>
	<node id="-881290" lat="63.3074694489" lon="10.5946638846">
		<tag k="historic" v="shieling" />
		<tag k="name" v="Stavsvollen" />
		<tag k="place" v="locality" />
		<tag k="ssr:stedsnr" v="705814" />
	</node>
	<node id="-880777" lat="63.2493472254" lon="10.4214111178">
		<tag k="name" v="Granåsen" />
		<tag k="place" v="farm" />
		<tag k="ssr:stedsnr" v="862617" />
	</node>
	<node id="-881288" lat="63.3328944472" lon="10.4930888939">
		<tag k="name" v="Nybø" />
		<tag k="place" v="farm" />
		<tag k="ssr:stedsnr" v="225170" />
	</node>
	<node id="-881286" lat="63.3181722218" lon="10.4705611113">
		<tag k="name" v="Oshaugen" />
		<tag k="place" v="farm" />
		<tag k="ssr:stedsnr" v="832177" />
	</node>
	<node id="-880918" lat="63.2990916646" lon="10.472361104">
		<tag k="name" v="Bjørklund" />
		<tag k="place" v="quarter" />
		<tag k="ssr:stedsnr" v="467503" />
	</node>
	<node id="-881282" lat="63.2999972263" lon="10.4697944464">
		<tag k="fixme" v="consider place=suburb, village or hamlet" />
		<tag k="name" v="Strøket" />
		<tag k="place" v="quarter" />
		<tag k="ssr:stedsnr" v="416753" />
	</node>
	<node id="-881281" lat="63.3265777823" lon="10.4843277741">
		<tag k="alt_name" v="Ulset søre" />
		<tag k="name" v="Søre Ulset" />
		<tag k="place" v="farm" />
		<tag k="ssr:stedsnr" v="887433" />
	</node>
	<node id="-881274" lat="63.2710361124" lon="10.4275222298">
		<tag k="name" v="Storsve" />
		<tag k="place" v="farm" />
		<tag k="ssr:stedsnr" v="923784" />
	</node>
	<node id="-881271" lat="63.2876555552" lon="10.4758055488">
		<tag k="fixme" v="consider place=hamlet" />
		<tag k="name" v="Øver-Eidstu" />
		<tag k="place" v="farm" />
		<tag k="ssr:stedsnr" v="951661" />
	</node>
	<node id="-881270" lat="63.2935445648" lon="10.4677087375">
		<tag k="fixme" v="consider place=hamlet" />
		<tag k="name" v="Gjellia" />
		<tag k="place" v="farm" />
		<tag k="ssr:stedsnr" v="741850" />
	</node>
	<node id="-881266" lat="63.3051138857" lon="10.464627782">
		<tag k="amenity" v="school" />
		<tag k="name" v="Klæbu ungdomsskole" />
		<tag k="ssr:stedsnr" v="163833" />
	</node>
	<node id="-881264" lat="63.2443305546" lon="10.4309888957">
		<tag k="fixme" v="multiple name tags, choose one and add the other to alt_name" />
		<tag k="name" v="Midtli;Målsjøen" />
		<tag k="place" v="farm" />
		<tag k="ssr:stedsnr" v="437736" />
	</node>
	<node id="-881262" lat="63.2598638874" lon="10.4552305522">
		<tag k="alt_name" v="Voldmo" />
		<tag k="name" v="Vollmo" />
		<tag k="place" v="farm" />
		<tag k="ssr:stedsnr" v="923233" />
	</node>
	<node id="-881260" lat="63.3287472231" lon="10.4935472144">
		<tag k="name" v="Uglsve" />
		<tag k="place" v="farm" />
		<tag k="ssr:stedsnr" v="225165" />
	</node>
	<node id="-881259" lat="63.2997083326" lon="10.6321444537">
		<tag k="name" v="Langåsvollen" />
		<tag k="place" v="locality" />
		<tag k="ssr:stedsnr" v="13826" />
	</node>
	<node id="-881256" lat="63.3281499958" lon="10.4650777823">
		<tag k="name" v="Sellesbakken" />
		<tag k="place" v="farm" />
		<tag k="ssr:stedsnr" v="498930" />
	</node>
	<node id="-881249" lat="63.2593156676" lon="10.5229395733">
		<tag k="fixme" v="consider place=hamlet" />
		<tag k="name" v="Grendstad" />
		<tag k="place" v="farm" />
		<tag k="ssr:stedsnr" v="923228" />
	</node>
	<node id="-881245" lat="63.3228361083" lon="10.4640277799">
		<tag k="name" v="Svån" />
		<tag k="place" v="farm" />
		<tag k="ssr:stedsnr" v="923888" />
	</node>
	<node id="-881239" lat="63.3283916632" lon="10.4954499961">
		<tag k="name" v="Sørli" />
		<tag k="place" v="farm" />
		<tag k="ssr:stedsnr" v="467152" />
	</node>
	<node id="-881238" lat="63.306133334" lon="10.6080805612">
		<tag k="name" v="Krokvollen" />
		<tag k="place" v="isolated_dwelling" />
		<tag k="ssr:stedsnr" v="710140" />
	</node>
	<node id="-881742" lat="63.2744861138" lon="10.5523416732">
		<tag k="alt_name" v="Bjørklia søre" />
		<tag k="name" v="Søre Bjørklia" />
		<tag k="place" v="farm" />
		<tag k="ssr:stedsnr" v="220669" />
	</node>
	<node id="-881739" lat="63.2962055529" lon="10.4401555621">
		<tag k="name" v="Kårstad" />
		<tag k="place" v="farm" />
		<tag k="ssr:stedsnr" v="134826" />
	</node>
	<node id="-881226" lat="63.2550361131" lon="10.5139527825">
		<tag k="alt_name" v="Bergsli" />
		<tag k="name" v="Brøttemsbakken" />
		<tag k="place" v="farm" />
		<tag k="ssr:stedsnr" v="341118" />
	</node>
	<node id="-881224" lat="63.318922225" lon="10.5011444426">
		<tag k="name" v="Holten" />
		<tag k="place" v="farm" />
		<tag k="ssr:stedsnr" v="802907" />
	</node>
	<node id="-881223" lat="63.3194194435" lon="10.4706222242">
		<tag k="name" v="Korsmo" />
		<tag k="place" v="farm" />
		<tag k="ssr:stedsnr" v="649146" />
	</node>
	<node id="-881215" lat="63.2571500016" lon="10.434783333">
		<tag k="alt_name" v="Storvoll" />
		<tag k="name" v="Storvollen" />
		<tag k="place" v="farm" />
		<tag k="ssr:stedsnr" v="863208" />
	</node>
	<node id="-881725" lat="63.3189527772" lon="10.5982250007">
		<tag k="name" v="Jovassteigen" />
		<tag k="place" v="isolated_dwelling" />
		<tag k="ssr:stedsnr" v="892137" />
	</node>
	<node id="-881212" lat="63.3048673682" lon="10.4885858257">
		<tag k="fixme" v="consider place=hamlet" />
		<tag k="name" v="Hallset" />
		<tag k="place" v="farm" />
		<tag k="ssr:stedsnr" v="284712" />
	</node>
	<node id="-880906" lat="63.2824999972" lon="10.4665305556">
		<tag k="fixme" v="consider natural=beach + surface=sand" />
		<tag k="leisure" v="swimming_area" />
		<tag k="name" v="Svean Moodden friluftsområde" />
		<tag k="place" v="locality" />
		<tag k="ssr:stedsnr" v="586448" />
	</node>
	<node id="-881722" lat="63.2564472201" lon="10.5166694475">
		<tag k="name" v="Nyheim" />
		<tag k="place" v="farm" />
		<tag k="ssr:stedsnr" v="195227" />
	</node>
	<node id="-881720" lat="63.309327001" lon="10.484945354">
		<tag k="fixme" v="consider place=hamlet" />
		<tag k="name" v="Aunet" />
		<tag k="place" v="farm" />
		<tag k="ssr:stedsnr" v="195868" />
	</node>
	<node id="-881207" lat="63.265383336" lon="10.4482305553">
		<tag k="name" v="Bomberget" />
		<tag k="place" v="farm" />
		<tag k="ssr:stedsnr" v="341115" />
	</node>
	<node id="-881717" lat="63.2154555528" lon="10.6608111066">
		<tag k="alt_name" v="Movollen" />
		<tag k="name" v="Moavollen" />
		<tag k="place" v="isolated_dwelling" />
		<tag k="ssr:stedsnr" v="315693" />
	</node>
	<node id="-881203" lat="63.331747218" lon="10.4441916729">
		<tag k="name" v="Nordset" />
		<tag k="place" v="farm" />
		<tag k="ssr:stedsnr" v="657249" />
	</node>
	<node id="-881202" lat="63.2697333372" lon="10.4472666679">
		<tag k="name" v="Nymo" />
		<tag k="place" v="farm" />
		<tag k="ssr:stedsnr" v="620741" />
	</node>
	<node id="-880904" lat="63.2730111123" lon="10.5877194356">
		<tag k="name" v="Sjølia" />
		<tag k="place" v="farm" />
		<tag k="ssr:stedsnr" v="13778" />
	</node>
	<node id="-881710" lat="63.3148965354" lon="10.4657616959">
		<tag k="alt_name" v="Osen, nedre;Nedre Osen" />
		<tag k="fixme" v="consider place=hamlet" />
		<tag k="name" v="Ner-Osen" />
		<tag k="place" v="farm" />
		<tag k="ssr:stedsnr" v="195871" />
	</node>
	<node id="-880989" lat="63.3369499973" lon="10.4724583308">
		<tag k="name" v="Skogly" />
		<tag k="place" v="farm" />
		<tag k="ssr:stedsnr" v="528168" />
	</node>
	<node id="-881194" lat="63.2729500031" lon="10.582158328">
		<tag k="name" v="Nesheim" />
		<tag k="place" v="farm" />
		<tag k="ssr:stedsnr" v="255808" />
	</node>
	<node id="-880903" lat="63.1960250028" lon="10.5773555462">
		<tag k="name" v="Sæterheim" />
		<tag k="place" v="isolated_dwelling" />
		<tag k="ssr:stedsnr" v="523814" />
	</node>
	<node id="-881192" lat="63.2664361149" lon="10.4501694458">
		<tag k="name" v="Lettingvollen" />
		<tag k="place" v="farm" />
		<tag k="ssr:stedsnr" v="377726" />
	</node>
	<node id="-881703" lat="63.2816361152" lon="10.473705564">
		<tag k="fixme" v="consider natural=beach + surface=sand" />
		<tag k="leisure" v="swimming_area" />
		<tag k="name" v="Svean bad" />
		<tag k="place" v="locality" />
		<tag k="ssr:stedsnr" v="829623" />
	</node>
	<node id="-881205" lat="63.3152378947" lon="10.481368932">
		<tag k="name" v="Lysklett" />
		<tag k="place" v="hamlet" />
		<tag k="ssr:stedsnr" v="220101" />
	</node>
	<node id="-880987" lat="63.2849249995" lon="10.4815416696">
		<tag k="name" v="Eggan" />
		<tag k="place" v="isolated_dwelling" />
		<tag k="ssr:stedsnr" v="103144" />
	</node>
	<node id="-881211" lat="63.3259188635" lon="10.5110999534">
		<tag k="fixme" v="consider place=hamlet" />
		<tag k="name" v="Bostad" />
		<tag k="place" v="farm" />
		<tag k="ssr:stedsnr" v="863877" />
	</node>
	<node id="-881179" lat="63.2729250005" lon="10.4642694486">
		<tag k="name" v="Løkkaunet" />
		<tag k="place" v="farm" />
		<tag k="ssr:stedsnr" v="255810" />
	</node>
	<node id="-881175" lat="63.3273744915" lon="10.4845335887">
		<tag k="fixme" v="consider place=hamlet" />
		<tag k="name" v="Ulset" />
		<tag k="place" v="farm" />
		<tag k="ssr:stedsnr" v="619930" />
	</node>
	<node id="-881685" lat="63.298680552" lon="10.4555416646">
		<tag k="name" v="Torvmarka" />
		<tag k="place" v="locality" />
		<tag k="ssr:stedsnr" v="619867" />
	</node>
	<node id="-881172" lat="63.3133027744" lon="10.4252611165">
		<tag k="name" v="Tanemsflata" />
		<tag k="place" v="quarter" />
		<tag k="ssr:stedsnr" v="159643" />
	</node>
	<node id="-881681" lat="63.2793472246" lon="10.436663891">
		<tag k="name" v="Lappen" />
		<tag k="place" v="hamlet" />
		<tag k="ssr:stedsnr" v="403907" />
	</node>
	<node id="-881680" lat="63.2585472201" lon="10.4596361101">
		<tag k="name" v="Hyttsaga" />
		<tag k="place" v="farm" />
		<tag k="ssr:stedsnr" v="13219" />
	</node>
	<node id="-880984" lat="63.3052305582" lon="10.4894750048">
		<tag k="name" v="Hallsetmoen" />
		<tag k="place" v="farm" />
		<tag k="ssr:stedsnr" v="923861" />
	</node>
	<node id="-881677" lat="63.2145916645" lon="10.5918749991">
		<tag k="name" v="Sandavollen" />
		<tag k="place" v="isolated_dwelling" />
		<tag k="ssr:stedsnr" v="206865" />
	</node>
	<node id="-881198" lat="63.3225989887" lon="10.4444230038">
		<tag k="name" v="Søndre Fjærem" />
		<tag k="place" v="farm" />
		<tag k="ssr:stedsnr" v="978586" />
	</node>
	<node id="-881675" lat="63.3340069205" lon="10.4996918172">
		<tag k="fixme" v="consider place=hamlet" />
		<tag k="name" v="Sneegga" />
		<tag k="place" v="farm" />
		<tag k="ssr:stedsnr" v="559896" />
	</node>
	<node id="-880983" lat="63.3280499998" lon="10.4700750031">
		<tag k="name" v="Gullhaugen" />
		<tag k="place" v="farm" />
		<tag k="ssr:stedsnr" v="771165" />
	</node>
	<node id="-881672" lat="63.3058972181" lon="10.4643277814">
		<tag k="leisure" v="pitch" />
		<tag k="name" v="Sørborgen kunstgressbane" />
		<tag k="ssr:stedsnr" v="341681" />
	</node>
	<node id="-881159" lat="63.2767861087" lon="10.4526027798">
		<tag k="name" v="Mosve" />
		<tag k="place" v="farm" />
		<tag k="ssr:stedsnr" v="255812" />
	</node>
	<node id="-881670" lat="63.2962077069" lon="10.4748545213">
		<tag k="fixme" v="consider place=hamlet" />
		<tag k="name" v="Nyhus prestegård" />
		<tag k="place" v="farm" />
		<tag k="ssr:stedsnr" v="377790" />
	</node>
	<node id="-881750" lat="63.2930117888" lon="10.4783267031">
		<tag k="fixme" v="consider place=hamlet" />
		<tag k="name" v="Haugan" />
		<tag k="place" v="farm" />
		<tag k="ssr:stedsnr" v="377793" />
	</node>
	<node id="-881665" lat="63.3127916697" lon="10.4229722271">
		<tag k="name" v="Berg" />
		<tag k="place" v="farm" />
		<tag k="ssr:stedsnr" v="892152" />
	</node>
</osm>
