<?xml version="1.0" encoding="UTF-8"?>
<osm generator="osmapis" version="0.6">
	<node id="-868352" lat="63.2477222187" lon="10.5805249899">
		<tag k="name" v="Langmyra" />
		<tag k="natural" v="wetland" />
		<tag k="ssr:stedsnr" v="346382" />
	</node>
	<node id="-868862" lat="63.3139333354" lon="10.6168666655">
		<tag k="name" v="Stendalstykket" />
		<tag k="place" v="locality" />
		<tag k="ssr:stedsnr" v="164498" />
	</node>
	<node id="-868348" lat="63.3201444455" lon="10.5815472263">
		<tag k="historic" v="shieling" />
		<tag k="name" v="Sneeggvollen" />
		<tag k="place" v="locality" />
		<tag k="ssr:stedsnr" v="43395" />
	</node>
	<node id="-868344" lat="63.2657972253" lon="10.4083472233">
		<tag k="name" v="Litjvollmyra" />
		<tag k="natural" v="wetland" />
		<tag k="ssr:stedsnr" v="649279" />
	</node>
	<node id="-868521" lat="63.2241583363" lon="10.6184138962">
		<tag k="name" v="Langmyran" />
		<tag k="natural" v="wetland" />
		<tag k="ssr:stedsnr" v="103384" />
	</node>
	<node id="-868849" lat="63.2593500038" lon="10.4777944524">
		<tag k="name" v="Postmyra" />
		<tag k="natural" v="wetland" />
		<tag k="ssr:stedsnr" v="892293" />
	</node>
	<node id="-868847" lat="63.3053805533" lon="10.5955277715">
		<tag k="name" v="Lysklettstykket" />
		<tag k="place" v="locality" />
		<tag k="ssr:stedsnr" v="164487" />
	</node>
	<node id="-868842" lat="63.3122944488" lon="10.5841611201">
		<tag k="name" v="Osstykket" />
		<tag k="place" v="locality" />
		<tag k="ssr:stedsnr" v="286415" />
	</node>
	<node id="-868834" lat="63.2736638859" lon="10.5060472311">
		<tag k="name" v="Vinnsmyra" />
		<tag k="natural" v="wetland" />
		<tag k="ssr:stedsnr" v="619820" />
	</node>
	<node id="-868317" lat="63.3190111145" lon="10.5775138857">
		<tag k="name" v="Guttestenstykket" />
		<tag k="place" v="locality" />
		<tag k="ssr:stedsnr" v="43394" />
	</node>
	<node id="-868823" lat="63.3077555528" lon="10.5929861099">
		<tag k="name" v="Ulsetstykket" />
		<tag k="place" v="locality" />
		<tag k="ssr:stedsnr" v="164489" />
	</node>
	<node id="-868820" lat="63.2361861118" lon="10.4975805634">
		<tag k="name" v="Øver Høyvegkjølen" />
		<tag k="natural" v="wetland" />
		<tag k="ssr:stedsnr" v="649385" />
	</node>
	<node id="-868818" lat="63.2831944414" lon="10.6081388814">
		<tag k="name" v="Tjønnmyra" />
		<tag k="natural" v="wetland" />
		<tag k="ssr:stedsnr" v="827664" />
	</node>
	<node id="-868305" lat="63.3103888934" lon="10.4440361025">
		<tag k="name" v="Jørgensrommet" />
		<tag k="place" v="locality" />
		<tag k="ssr:stedsnr" v="38591" />
	</node>
	<node id="-868816" lat="63.3000833335" lon="10.5508055585">
		<tag k="name" v="Hollan" />
		<tag k="place" v="locality" />
		<tag k="ssr:stedsnr" v="710430" />
	</node>
	<node id="-868812" lat="63.2910027763" lon="10.4554833325">
		<tag k="name" v="Postmyra" />
		<tag k="natural" v="wetland" />
		<tag k="ssr:stedsnr" v="104495" />
	</node>
	<node id="-868291" lat="63.2599194414" lon="10.5935583293">
		<tag k="name" v="Ol Hansarommet" />
		<tag k="place" v="locality" />
		<tag k="ssr:stedsnr" v="407333" />
	</node>
	<node id="-868796" lat="63.2847444479" lon="10.5317583435">
		<tag k="name" v="Klæbu prestegårdskog" />
		<tag k="place" v="locality" />
		<tag k="ssr:stedsnr" v="953486" />
	</node>
	<node id="-868283" lat="63.2042749992" lon="10.6052500044">
		<tag k="name" v="Kota" />
		<tag k="place" v="locality" />
		<tag k="ssr:stedsnr" v="537756" />
	</node>
	<node id="-868282" lat="63.3057000036" lon="10.4754527748">
		<tag k="name" v="Rydland" />
		<tag k="place" v="locality" />
		<tag k="ssr:stedsnr" v="346588" />
	</node>
	<node id="-868792" lat="63.3063444442" lon="10.6090694371">
		<tag k="fixme" v="multiple name tags, choose one and add the other to alt_name" />
		<tag k="historic" v="shieling" />
		<tag k="name" v="Krokvollen;Rønningsvollen" />
		<tag k="place" v="locality" />
		<tag k="ssr:stedsnr" v="438823" />
	</node>
	<node id="-868789" lat="63.2365111069" lon="10.4540805529">
		<tag k="name" v="Løksmyra" />
		<tag k="natural" v="wetland" />
		<tag k="ssr:stedsnr" v="892317" />
	</node>
	<node id="-868275" lat="63.3111805541" lon="10.4490972319">
		<tag k="name" v="Elveplassen" />
		<tag k="place" v="locality" />
		<tag k="ssr:stedsnr" v="38588" />
	</node>
	<node id="-868271" lat="63.3082472223" lon="10.5570666705">
		<tag k="name" v="Devlstykket" />
		<tag k="natural" v="wetland" />
		<tag k="ssr:stedsnr" v="104388" />
	</node>
	<node id="-868781" lat="63.2659944461" lon="10.4349499928">
		<tag k="name" v="Skjennholet" />
		<tag k="natural" v="wetland" />
		<tag k="ssr:stedsnr" v="346262" />
	</node>
	<node id="-868780" lat="63.3132250046" lon="10.572213884">
		<tag k="name" v="Storuglstykket" />
		<tag k="place" v="locality" />
		<tag k="ssr:stedsnr" v="407438" />
	</node>
	<node id="-868779" lat="63.3272361069" lon="10.5342250057">
		<tag k="name" v="Fiskdalsmyra" />
		<tag k="natural" v="wetland" />
		<tag k="ssr:stedsnr" v="888564" />
	</node>
	<node id="-868777" lat="63.3104611128" lon="10.5760249953">
		<tag k="name" v="Ulsetstykket" />
		<tag k="place" v="locality" />
		<tag k="ssr:stedsnr" v="407439" />
	</node>
	<node id="-868774" lat="63.2751722267" lon="10.4224222283">
		<tag k="name" v="Fuglmyra" />
		<tag k="natural" v="wetland" />
		<tag k="ssr:stedsnr" v="619828" />
	</node>
	<node id="-868768" lat="63.2400166685" lon="10.6093777726">
		<tag k="historic" v="shieling" />
		<tag k="name" v="Bjørklivollen" />
		<tag k="place" v="locality" />
		<tag k="ssr:stedsnr" v="832405" />
	</node>
	<node id="-868255" lat="63.2793583289" lon="10.425850006">
		<tag k="name" v="Gaddmyra" />
		<tag k="natural" v="wetland" />
		<tag k="ssr:stedsnr" v="225506" />
	</node>
	<node id="-868253" lat="63.2646999968" lon="10.6391833396">
		<tag k="name" v="Øver Tangvolla" />
		<tag k="place" v="locality" />
		<tag k="ssr:stedsnr" v="953331" />
	</node>
	<node id="-868763" lat="63.2843638848" lon="10.5531055544">
		<tag k="name" v="Aunkjølen" />
		<tag k="natural" v="wetland" />
		<tag k="ssr:stedsnr" v="620770" />
	</node>
	<node id="-868420" lat="63.302986109" lon="10.6425861012">
		<tag k="name" v="Torvstykket" />
		<tag k="place" v="locality" />
		<tag k="ssr:stedsnr" v="43413" />
	</node>
	<node id="-868758" lat="63.2492166631" lon="10.5850638848">
		<tag k="name" v="Sagkjølen" />
		<tag k="natural" v="wetland" />
		<tag k="ssr:stedsnr" v="710389" />
	</node>
	<node id="-868244" lat="63.2614222218" lon="10.6050277768">
		<tag k="name" v="Skavdalsmyra" />
		<tag k="natural" v="wetland" />
		<tag k="ssr:stedsnr" v="164354" />
	</node>
	<node id="-868754" lat="63.2398331004" lon="10.5881259383">
		<tag k="name" v="Høgkjølen" />
		<tag k="natural" v="wetland" />
		<tag k="ssr:stedsnr" v="801721" />
	</node>
	<node id="-868419" lat="63.3087472202" lon="10.6088777703">
		<tag k="name" v="Rønningsstykket" />
		<tag k="place" v="locality" />
		<tag k="ssr:stedsnr" v="104409" />
	</node>
	<node id="-868240" lat="63.3148388919" lon="10.4998722247">
		<tag k="name" v="Isdammyra" />
		<tag k="natural" v="wetland" />
		<tag k="ssr:stedsnr" v="104376" />
	</node>
	<node id="-868237" lat="63.2940499965" lon="10.5710833407">
		<tag k="name" v="Høgskjøla" />
		<tag k="natural" v="wetland" />
		<tag k="ssr:stedsnr" v="446168" />
	</node>
	<node id="-868234" lat="63.2627944472" lon="10.397291676">
		<tag k="name" v="Kringlemyra" />
		<tag k="natural" v="wetland" />
		<tag k="ssr:stedsnr" v="588252" />
	</node>
	<node id="-868745" lat="63.2961000044" lon="10.4057833262">
		<tag k="name" v="Bjørnmyra" />
		<tag k="natural" v="wetland" />
		<tag k="ssr:stedsnr" v="892484" />
	</node>
	<node id="-868743" lat="63.3001583378" lon="10.5716583259">
		<tag k="name" v="Fjæremsstykket" />
		<tag k="natural" v="wetland" />
		<tag k="ssr:stedsnr" v="528450" />
	</node>
	<node id="-868229" lat="63.3023055523" lon="10.6218333333">
		<tag k="name" v="Langåskjølen" />
		<tag k="natural" v="wetland" />
		<tag k="ssr:stedsnr" v="73825" />
	</node>
	<node id="-868227" lat="63.2772583291" lon="10.5941277857">
		<tag k="name" v="Bermyra" />
		<tag k="natural" v="wetland" />
		<tag k="ssr:stedsnr" v="771346" />
	</node>
	<node id="-868365" lat="63.2801611082" lon="10.5021861115">
		<tag k="historic" v="shieling" />
		<tag k="name" v="Ratbuvollen" />
		<tag k="place" v="locality" />
		<tag k="ssr:stedsnr" v="649502" />
	</node>
	<node id="-868224" lat="63.2866777815" lon="10.4325222172">
		<tag k="alt_name" v="Tullusmyran" />
		<tag k="name" v="Tullusmyra" />
		<tag k="natural" v="wetland" />
		<tag k="ssr:stedsnr" v="559792" />
	</node>
	<node id="-868219" lat="63.2971388877" lon="10.6221666757">
		<tag k="name" v="Langåsmyra" />
		<tag k="natural" v="wetland" />
		<tag k="ssr:stedsnr" v="832470" />
	</node>
	<node id="-868727" lat="63.3113305539" lon="10.5502277725">
		<tag k="name" v="Møsmørkjølen" />
		<tag k="natural" v="wetland" />
		<tag k="ssr:stedsnr" v="164468" />
	</node>
	<node id="-868211" lat="63.3002888868" lon="10.5622444405">
		<tag k="historic" v="shieling" />
		<tag k="name" v="Lysklettvollen" />
		<tag k="place" v="locality" />
		<tag k="ssr:stedsnr" v="262350" />
	</node>
	<node id="-868210" lat="63.3017194429" lon="10.4127972181">
		<tag k="name" v="Slåttmyra" />
		<tag k="natural" v="wetland" />
		<tag k="ssr:stedsnr" v="558867" />
	</node>
	<node id="-868721" lat="63.309313887" lon="10.6188138806">
		<tag k="name" v="Aunstykket" />
		<tag k="place" v="locality" />
		<tag k="ssr:stedsnr" v="589408" />
	</node>
	<node id="-868207" lat="63.1924000026" lon="10.6468499903">
		<tag k="historic" v="shieling" />
		<tag k="name" v="Drakstvollen" />
		<tag k="place" v="locality" />
		<tag k="ssr:stedsnr" v="801776" />
	</node>
	<node id="-868205" lat="63.2797412543" lon="10.4022405526">
		<tag k="historic" v="shieling" />
		<tag k="name" v="Forsetvollen" />
		<tag k="place" v="locality" />
		<tag k="ssr:stedsnr" v="447167" />
	</node>
	<node id="-868711" lat="63.279597218" lon="10.4092249937">
		<tag k="name" v="Brandåsmyra" />
		<tag k="natural" v="wetland" />
		<tag k="ssr:stedsnr" v="104475" />
	</node>
	<node id="-868196" lat="63.3052666693" lon="10.5981944413">
		<tag k="historic" v="shieling" />
		<tag k="name" v="Osvollen" />
		<tag k="place" v="locality" />
		<tag k="ssr:stedsnr" v="204188" />
	</node>
	<node id="-868193" lat="63.2694499986" lon="10.4903916578">
		<tag k="alt_name" v="Djupdalsmyra ne." />
		<tag k="name" v="Nedre Djupdalsmyra" />
		<tag k="natural" v="wetland" />
		<tag k="ssr:stedsnr" v="710290" />
	</node>
	<node id="-868188" lat="63.2612944403" lon="10.4683861049">
		<tag k="name" v="Stabbåsmyra" />
		<tag k="natural" v="wetland" />
		<tag k="ssr:stedsnr" v="528325" />
	</node>
	<node id="-868698" lat="63.3095277778" lon="10.453122217">
		<tag k="name" v="Litjugløya" />
		<tag k="place" v="locality" />
		<tag k="ssr:stedsnr" v="225612" />
	</node>
	<node id="-868696" lat="63.3132249957" lon="10.5584777863">
		<tag k="name" v="Bostadstykket" />
		<tag k="place" v="locality" />
		<tag k="ssr:stedsnr" v="528457" />
	</node>
	<node id="-868693" lat="63.2933666689" lon="10.4084833305">
		<tag k="name" v="Langdalsmyra" />
		<tag k="natural" v="wetland" />
		<tag k="ssr:stedsnr" v="892479" />
	</node>
	<node id="-868180" lat="63.2843666654" lon="10.5093361208">
		<tag k="name" v="Møssmørmyra" />
		<tag k="natural" v="wetland" />
		<tag k="ssr:stedsnr" v="286472" />
	</node>
	<node id="-868691" lat="63.2696055555" lon="10.4070361051">
		<tag k="name" v="Stor-Sjurdsmyra" />
		<tag k="natural" v="wetland" />
		<tag k="ssr:stedsnr" v="104269" />
	</node>
	<node id="-868175" lat="63.2483555597" lon="10.4867638798">
		<tag k="name" v="Bjørsjømyra" />
		<tag k="natural" v="wetland" />
		<tag k="ssr:stedsnr" v="346334" />
	</node>
	<node id="-868685" lat="63.2595027789" lon="10.5771166633">
		<tag k="name" v="Oddløftmyra" />
		<tag k="natural" v="wetland" />
		<tag k="ssr:stedsnr" v="892286" />
	</node>
	<node id="-868172" lat="63.2488083305" lon="10.5167527765">
		<tag k="name" v="Brøttemsmoan" />
		<tag k="place" v="locality" />
		<tag k="ssr:stedsnr" v="771365" />
	</node>
	<node id="-868171" lat="63.2813861124" lon="10.4567111198">
		<tag k="name" v="Oddmyra" />
		<tag k="natural" v="wetland" />
		<tag k="ssr:stedsnr" v="953555" />
	</node>
	<node id="-868169" lat="63.2695194487" lon="10.4964861201">
		<tag k="name" v="Svarttjønnmyra" />
		<tag k="natural" v="wetland" />
		<tag k="ssr:stedsnr" v="286273" />
	</node>
	<node id="-868678" lat="63.3067027742" lon="10.6506638817">
		<tag k="name" v="Jervanstykket" />
		<tag k="place" v="locality" />
		<tag k="ssr:stedsnr" v="953457" />
	</node>
	<node id="-868164" lat="63.2669777752" lon="10.4908777818">
		<tag k="alt_name" v="Djupdalsmyra øv." />
		<tag k="name" v="Øvre Djupdalsmyra" />
		<tag k="natural" v="wetland" />
		<tag k="ssr:stedsnr" v="407307" />
	</node>
	<node id="-868162" lat="63.2464527738" lon="10.4228472272">
		<tag k="name" v="Merkesmyra" />
		<tag k="natural" v="wetland" />
		<tag k="ssr:stedsnr" v="346347" />
	</node>
	<node id="-868158" lat="63.2932305591" lon="10.57868889">
		<tag k="name" v="Andersmyra" />
		<tag k="natural" v="wetland" />
		<tag k="ssr:stedsnr" v="832482" />
	</node>
	<node id="-868669" lat="63.3278222241" lon="10.5619416611">
		<tag k="name" v="Gulltjønnmyra" />
		<tag k="natural" v="wetland" />
		<tag k="ssr:stedsnr" v="827641" />
	</node>
	<node id="-868156" lat="63.2994882202" lon="10.5736105788">
		<tag k="historic" v="shieling" />
		<tag k="name" v="Fjæremsvollen" />
		<tag k="place" v="locality" />
		<tag k="ssr:stedsnr" v="204183" />
	</node>
	<node id="-868746" lat="63.2862944469" lon="10.603244451">
		<tag k="name" v="Stormyra" />
		<tag k="natural" v="wetland" />
		<tag k="ssr:stedsnr" v="498817" />
	</node>
	<node id="-868662" lat="63.2718694455" lon="10.4108944545">
		<tag k="name" v="Litjsjurdsmyra" />
		<tag k="natural" v="wetland" />
		<tag k="ssr:stedsnr" v="43258" />
	</node>
	<node id="-868148" lat="63.2958222211" lon="10.4968611117">
		<tag k="name" v="Litjmarka" />
		<tag k="place" v="locality" />
		<tag k="ssr:stedsnr" v="467485" />
	</node>
	<node id="-868659" lat="63.29133611" lon="10.4135472188">
		<tag k="name" v="Fuglmyra" />
		<tag k="natural" v="wetland" />
		<tag k="ssr:stedsnr" v="43464" />
	</node>
	<node id="-868145" lat="63.2872166668" lon="10.4923222165">
		<tag k="name" v="Stormyra" />
		<tag k="natural" v="wetland" />
		<tag k="ssr:stedsnr" v="832487" />
	</node>
	<node id="-868143" lat="63.2780916676" lon="10.4227999962">
		<tag k="name" v="Postmyra" />
		<tag k="natural" v="wetland" />
		<tag k="ssr:stedsnr" v="710506" />
	</node>
	<node id="-868139" lat="63.2900138858" lon="10.4137722295">
		<tag k="name" v="Fuglmyrryin" />
		<tag k="natural" v="wetland" />
		<tag k="ssr:stedsnr" v="710508" />
	</node>
	<node id="-868138" lat="63.2594611085" lon="10.486299992">
		<tag k="name" v="Litjtjønnmyra" />
		<tag k="natural" v="wetland" />
		<tag k="ssr:stedsnr" v="286270" />
	</node>
	<node id="-868657" lat="63.2786611111" lon="10.4804833291">
		<tag k="name" v="Gudmundsmyra" />
		<tag k="natural" v="wetland" />
		<tag k="ssr:stedsnr" v="771471" />
	</node>
	<node id="-868643" lat="63.2317333377" lon="10.5550250056">
		<tag k="name" v="Endlausslættet" />
		<tag k="natural" v="wetland" />
		<tag k="ssr:stedsnr" v="164449" />
	</node>
	<node id="-868130" lat="63.3309361149" lon="10.5496861185">
		<tag k="historic" v="shieling" />
		<tag k="name" v="Stavlundsvollen" />
		<tag k="place" v="locality" />
		<tag k="ssr:stedsnr" v="22216" />
	</node>
	<node id="-868129" lat="63.2849277751" lon="10.4865444422">
		<tag k="name" v="Husbytrøa" />
		<tag k="place" v="locality" />
		<tag k="ssr:stedsnr" v="832486" />
	</node>
	<node id="-868640" lat="63.3181416652" lon="10.5992527814">
		<tag k="name" v="Jovasstykket" />
		<tag k="place" v="locality" />
		<tag k="ssr:stedsnr" v="346451" />
	</node>
	<node id="-868639" lat="63.2830416696" lon="10.6081111092">
		<tag k="name" v="Raudkjølen" />
		<tag k="natural" v="wetland" />
		<tag k="ssr:stedsnr" v="316831" />
	</node>
	<node id="-868632" lat="63.2499138887" lon="10.424702778">
		<tag k="name" v="Høybuvolla" />
		<tag k="place" v="locality" />
		<tag k="ssr:stedsnr" v="832376" />
	</node>
	<node id="-868631" lat="63.2562916695" lon="10.5727555549">
		<tag k="name" v="Åsmarka" />
		<tag k="place" v="locality" />
		<tag k="ssr:stedsnr" v="588326" />
	</node>
	<node id="-868569" lat="63.285833337" lon="10.5059083421">
		<tag k="name" v="Hundmyra" />
		<tag k="natural" v="wetland" />
		<tag k="ssr:stedsnr" v="892471" />
	</node>
	<node id="-868628" lat="63.2831027759" lon="10.4081027803">
		<tag k="name" v="Fagerlimyra" />
		<tag k="natural" v="wetland" />
		<tag k="ssr:stedsnr" v="43458" />
	</node>
	<node id="-868668" lat="63.3024111113" lon="10.6137055517">
		<tag k="name" v="Osstykket" />
		<tag k="place" v="locality" />
		<tag k="ssr:stedsnr" v="346443" />
	</node>
	<node id="-868617" lat="63.2484861146" lon="10.5741500056">
		<tag k="name" v="Kjelkbekkmyra" />
		<tag k="natural" v="wetland" />
		<tag k="ssr:stedsnr" v="710356" />
	</node>
	<node id="-868615" lat="63.2997083326" lon="10.6321444537">
		<tag k="landuse" v="meadow" />
		<tag k="name" v="Langåsvollen" />
		<tag k="ssr:stedsnr" v="13826" />
	</node>
	<node id="-868614" lat="63.2423194463" lon="10.5536305533">
		<tag k="name" v="Vikarya" />
		<tag k="natural" v="wetland" />
		<tag k="ssr:stedsnr" v="467355" />
	</node>
	<node id="-868412" lat="63.2604388846" lon="10.5638416714">
		<tag k="name" v="Åsmarka" />
		<tag k="place" v="locality" />
		<tag k="ssr:stedsnr" v="225321" />
	</node>
	<node id="-868609" lat="63.2524416631" lon="10.5659694358">
		<tag k="name" v="Anderskneppet" />
		<tag k="place" v="locality" />
		<tag k="ssr:stedsnr" v="710358" />
	</node>
	<node id="-868604" lat="63.3040611075" lon="10.6202638977">
		<tag k="name" v="Krokstykket" />
		<tag k="place" v="locality" />
		<tag k="ssr:stedsnr" v="346442" />
	</node>
	<node id="-868488" lat="63.229480556" lon="10.5823611147">
		<tag k="name" v="Eidstusetermyran" />
		<tag k="natural" v="wetland" />
		<tag k="ssr:stedsnr" v="346406" />
	</node>
	<node id="-868602" lat="63.3059166633" lon="10.4447972176">
		<tag k="name" v="Fosshåggån" />
		<tag k="place" v="locality" />
		<tag k="ssr:stedsnr" v="402616" />
	</node>
	<node id="-869111" lat="63.2842250034" lon="10.5387249961">
		<tag k="name" v="Vargslættrya" />
		<tag k="natural" v="wetland" />
		<tag k="ssr:stedsnr" v="588429" />
	</node>
	<node id="-869109" lat="63.2600916668" lon="10.4943250054">
		<tag k="name" v="Korsmyra" />
		<tag k="natural" v="wetland" />
		<tag k="ssr:stedsnr" v="164328" />
	</node>
	<node id="-869107" lat="63.3112611067" lon="10.5920944461">
		<tag k="name" v="Osstykket" />
		<tag k="place" v="locality" />
		<tag k="ssr:stedsnr" v="893406" />
	</node>
	<node id="-869104" lat="63.2937166677" lon="10.6122277808">
		<tag k="name" v="Grytslåtten" />
		<tag k="natural" v="wetland" />
		<tag k="ssr:stedsnr" v="467458" />
	</node>
	<node id="-869103" lat="63.3139888851" lon="10.6206361026">
		<tag k="historic" v="shieling" />
		<tag k="name" v="Ulsetvollen" />
		<tag k="place" v="locality" />
		<tag k="ssr:stedsnr" v="386227" />
	</node>
	<node id="-868590" lat="63.3301805571" lon="10.5030500097">
		<tag k="name" v="Sneeggmyra" />
		<tag k="natural" v="wetland" />
		<tag k="ssr:stedsnr" v="159658" />
	</node>
	<node id="-869101" lat="63.2830750027" lon="10.5037055484">
		<tag k="name" v="Ratbumyra" />
		<tag k="natural" v="wetland" />
		<tag k="ssr:stedsnr" v="407503" />
	</node>
	<node id="-869099" lat="63.2851444446" lon="10.6094000048">
		<tag k="name" v="Bekkrokan" />
		<tag k="natural" v="wetland" />
		<tag k="ssr:stedsnr" v="588432" />
	</node>
	<node id="-869095" lat="63.2143472263" lon="10.6204555603">
		<tag k="name" v="Høgmyra" />
		<tag k="natural" v="wetland" />
		<tag k="ssr:stedsnr" v="892358" />
	</node>
	<node id="-869093" lat="63.3132277813" lon="10.4303388872">
		<tag k="name" v="Tanemsmyra" />
		<tag k="natural" v="wetland" />
		<tag k="ssr:stedsnr" v="705658" />
	</node>
	<node id="-869092" lat="63.3006055521" lon="10.598016673">
		<tag k="name" v="Litjuglstykket" />
		<tag k="place" v="locality" />
		<tag k="ssr:stedsnr" v="832454" />
	</node>
	<node id="-869091" lat="63.2434138927" lon="10.57659722">
		<tag k="name" v="Holmyra" />
		<tag k="natural" v="wetland" />
		<tag k="ssr:stedsnr" v="42332" />
	</node>
	<node id="-869090" lat="63.3071666686" lon="10.5759499911">
		<tag k="historic" v="shieling" />
		<tag k="name" v="Litjuglvollen" />
		<tag k="place" v="locality" />
		<tag k="ssr:stedsnr" v="22208" />
	</node>
	<node id="-869089" lat="63.3197638924" lon="10.5746194382">
		<tag k="name" v="Uglmyra" />
		<tag k="natural" v="wetland" />
		<tag k="ssr:stedsnr" v="680904" />
	</node>
	<node id="-869086" lat="63.2158972231" lon="10.5882611103">
		<tag k="historic" v="shieling" />
		<tag k="name" v="Sandåvollen" />
		<tag k="place" v="locality" />
		<tag k="ssr:stedsnr" v="892360" />
	</node>
	<node id="-869085" lat="63.2966000023" lon="10.6032416614">
		<tag k="name" v="Høgskjøla" />
		<tag k="natural" v="wetland" />
		<tag k="ssr:stedsnr" v="710467" />
	</node>
	<node id="-868572" lat="63.2236972263" lon="10.6062444409">
		<tag k="historic" v="shieling" />
		<tag k="name" v="Daltjønnvollen" />
		<tag k="old_name" v="Svebakkvollen" />
		<tag k="place" v="locality" />
		<tag k="ssr:stedsnr" v="103387" />
	</node>
	<node id="-868423" lat="63.3006138908" lon="10.5782027764">
		<tag k="name" v="Svåstykket" />
		<tag k="place" v="locality" />
		<tag k="ssr:stedsnr" v="771421" />
	</node>
	<node id="-869081" lat="63.2964277762" lon="10.4302777851">
		<tag k="name" v="Geiltrøa" />
		<tag k="place" v="locality" />
		<tag k="ssr:stedsnr" v="528531" />
	</node>
	<node id="-869079" lat="63.2916277761" lon="10.5870861086">
		<tag k="name" v="Grønkjølen" />
		<tag k="natural" v="wetland" />
		<tag k="ssr:stedsnr" v="377797" />
	</node>
	<node id="-868723" lat="63.2472888921" lon="10.4483111177">
		<tag k="name" v="Målsjøtrøa" />
		<tag k="place" v="locality" />
		<tag k="ssr:stedsnr" v="832370" />
	</node>
	<node id="-869068" lat="63.3014361085" lon="10.424847232">
		<tag k="name" v="Tjønnmyra" />
		<tag k="natural" v="wetland" />
		<tag k="ssr:stedsnr" v="705655" />
	</node>
	<node id="-868471" lat="63.2834999995" lon="10.3878583267">
		<tag k="name" v="Folltjønnmyra" />
		<tag k="natural" v="wetland" />
		<tag k="ssr:stedsnr" v="438787" />
	</node>
	<node id="-869064" lat="63.3121222197" lon="10.6022611204">
		<tag k="name" v="Guttestenstykket" />
		<tag k="place" v="locality" />
		<tag k="ssr:stedsnr" v="893405" />
	</node>
	<node id="-868551" lat="63.2785777779" lon="10.5155583414">
		<tag k="landuse" v="meadow" />
		<tag k="name" v="Tjønnbuslættet" />
		<tag k="ssr:stedsnr" v="43438" />
	</node>
	<node id="-869062" lat="63.2888416652" lon="10.5060333258">
		<tag k="name" v="Vedfallholet" />
		<tag k="natural" v="wetland" />
		<tag k="ssr:stedsnr" v="164544" />
	</node>
	<node id="-868641" lat="63.2383655249" lon="10.5815975054">
		<tag k="name" v="Vågmyra" />
		<tag k="natural" v="wetland" />
		<tag k="ssr:stedsnr" v="832378" />
	</node>
	<node id="-869057" lat="63.3164138908" lon="10.6143722193">
		<tag k="name" v="Hestsjøteigen" />
		<tag k="place" v="locality" />
		<tag k="ssr:stedsnr" v="649465" />
	</node>
	<node id="-869052" lat="63.2928083291" lon="10.5463916653">
		<tag k="name" v="Sofbuin" />
		<tag k="place" v="locality" />
		<tag k="ssr:stedsnr" v="286449" />
	</node>
	<node id="-868539" lat="63.308436112" lon="10.5662444388">
		<tag k="name" v="Lysklettstykket" />
		<tag k="place" v="locality" />
		<tag k="ssr:stedsnr" v="346427" />
	</node>
	<node id="-869050" lat="63.3186055565" lon="10.5925499993">
		<tag k="name" v="Sneeggstykket" />
		<tag k="place" v="locality" />
		<tag k="ssr:stedsnr" v="832461" />
	</node>
	<node id="-868537" lat="63.315388893" lon="10.6041861082">
		<tag k="name" v="Ulsetstykket" />
		<tag k="place" v="locality" />
		<tag k="ssr:stedsnr" v="771446" />
	</node>
	<node id="-868536" lat="63.3174888919" lon="10.5847777751">
		<tag k="historic" v="shieling" />
		<tag k="name" v="Aunvollen" />
		<tag k="place" v="locality" />
		<tag k="ssr:stedsnr" v="872233" />
	</node>
	<node id="-868534" lat="63.3093555563" lon="10.4192194362">
		<tag k="name" v="Grasmyra" />
		<tag k="natural" v="wetland" />
		<tag k="ssr:stedsnr" v="766613" />
	</node>
	<node id="-868529" lat="63.328583329" lon="10.5152083357">
		<tag k="name" v="Kleivmyra" />
		<tag k="natural" v="wetland" />
		<tag k="ssr:stedsnr" v="766614" />
	</node>
	<node id="-869039" lat="63.2957222206" lon="10.6193972304">
		<tag k="name" v="Langmyran" />
		<tag k="natural" v="wetland" />
		<tag k="ssr:stedsnr" v="286447" />
	</node>
	<node id="-869037" lat="63.3093277785" lon="10.6013333399">
		<tag k="name" v="Ytteruglstykket" />
		<tag k="place" v="locality" />
		<tag k="ssr:stedsnr" v="649460" />
	</node>
	<node id="-869063" lat="63.3047277779" lon="10.5784611192">
		<tag k="name" v="Solemsstykket" />
		<tag k="place" v="locality" />
		<tag k="ssr:stedsnr" v="649441" />
	</node>
	<node id="-868518" lat="63.3072500014" lon="10.6285055496">
		<tag k="name" v="Storuglstykket" />
		<tag k="place" v="locality" />
		<tag k="ssr:stedsnr" v="771442" />
	</node>
	<node id="-869026" lat="63.2816305595" lon="10.4112694476">
		<tag k="name" v="Grindsledmyra" />
		<tag k="natural" v="wetland" />
		<tag k="ssr:stedsnr" v="528515" />
	</node>
	<node id="-869024" lat="63.2873277782" lon="10.6196083323">
		<tag k="name" v="Høybuslåtten" />
		<tag k="natural" v="wetland" />
		<tag k="ssr:stedsnr" v="588422" />
	</node>
	<node id="-869023" lat="63.2786861076" lon="10.4883527807">
		<tag k="name" v="Rogndalsmyra" />
		<tag k="natural" v="wetland" />
		<tag k="ssr:stedsnr" v="164529" />
	</node>
	<node id="-868509" lat="63.2964833304" lon="10.4106999909">
		<tag k="name" v="Høgmyra" />
		<tag k="natural" v="wetland" />
		<tag k="ssr:stedsnr" v="285497" />
	</node>
	<node id="-868506" lat="63.3030138862" lon="10.4824166609">
		<tag k="name" v="Finnmyra" />
		<tag k="natural" v="wetland" />
		<tag k="ssr:stedsnr" v="134863" />
	</node>
	<node id="-869015" lat="63.3132333312" lon="10.6332027862">
		<tag k="name" v="Blekkanteigen" />
		<tag k="place" v="locality" />
		<tag k="ssr:stedsnr" v="225460" />
	</node>
	<node id="-868501" lat="63.2706749963" lon="10.4678555551">
		<tag k="name" v="Stabben" />
		<tag k="place" v="locality" />
		<tag k="ssr:stedsnr" v="285281" />
	</node>
	<node id="-868681" lat="63.2388333303" lon="10.5056166681">
		<tag k="name" v="Ner Høyvegkjølen" />
		<tag k="natural" v="wetland" />
		<tag k="ssr:stedsnr" v="467364" />
	</node>
	<node id="-868498" lat="63.2814944448" lon="10.4370361091">
		<tag k="name" v="Grismyra" />
		<tag k="natural" v="wetland" />
		<tag k="ssr:stedsnr" v="285495" />
	</node>
	<node id="-869009" lat="63.2647055597" lon="10.4053500095">
		<tag k="historic" v="shieling" />
		<tag k="name" v="Litjvollen" />
		<tag k="place" v="locality" />
		<tag k="ssr:stedsnr" v="82199" />
	</node>
	<node id="-868495" lat="63.2807638851" lon="10.5984722176">
		<tag k="name" v="Kvernkåsa" />
		<tag k="place" v="locality" />
		<tag k="ssr:stedsnr" v="892434" />
	</node>
	<node id="-869005" lat="63.2814222239" lon="10.6152805643">
		<tag k="name" v="Raumyra" />
		<tag k="natural" v="wetland" />
		<tag k="ssr:stedsnr" v="225463" />
	</node>
	<node id="-868491" lat="63.3139805549" lon="10.4489972299">
		<tag k="name" v="Åsen" />
		<tag k="place" v="locality" />
		<tag k="ssr:stedsnr" v="159636" />
	</node>
	<node id="-869000" lat="63.2581277797" lon="10.6176666693">
		<tag k="name" v="Nonshaugmyra" />
		<tag k="natural" v="wetland" />
		<tag k="ssr:stedsnr" v="771333" />
	</node>
	<node id="-868999" lat="63.2781638903" lon="10.5753500059">
		<tag k="alt_name" v="Gråsteinmyra" />
		<tag k="name" v="Gråsteinsmyra" />
		<tag k="natural" v="wetland" />
		<tag k="ssr:stedsnr" v="164522" />
	</node>
	<node id="-868997" lat="63.3058111145" lon="10.6511861123">
		<tag k="name" v="Nordsetstykket" />
		<tag k="place" v="locality" />
		<tag k="ssr:stedsnr" v="225452" />
	</node>
	<node id="-868374" lat="63.3309027742" lon="10.4936194514">
		<tag k="name" v="Uglmyra" />
		<tag k="natural" v="wetland" />
		<tag k="ssr:stedsnr" v="99618" />
	</node>
	<node id="-868994" lat="63.2593666656" lon="10.4268277833">
		<tag k="name" v="Tjuvstakken" />
		<tag k="natural" v="wetland" />
		<tag k="ssr:stedsnr" v="528288" />
	</node>
	<node id="-868992" lat="63.2725861075" lon="10.3751361065">
		<tag k="historic" v="shieling" />
		<tag k="name" v="Nestugguvollen" />
		<tag k="place" v="locality" />
		<tag k="ssr:stedsnr" v="204148" />
	</node>
	<node id="-868986" lat="63.3030083317" lon="10.6254805626">
		<tag k="name" v="Langåsmyran" />
		<tag k="natural" v="wetland" />
		<tag k="ssr:stedsnr" v="225455" />
	</node>
	<node id="-868985" lat="63.3105749962" lon="10.6499972256">
		<tag k="name" v="Styggmyra" />
		<tag k="natural" v="wetland" />
		<tag k="ssr:stedsnr" v="286432" />
	</node>
	<node id="-868983" lat="63.2838361154" lon="10.5975805592">
		<tag k="name" v="Skjeftesmyra" />
		<tag k="natural" v="wetland" />
		<tag k="ssr:stedsnr" v="588407" />
	</node>
	<node id="-868979" lat="63.3085305529" lon="10.4070222311">
		<tag k="name" v="Raumyra" />
		<tag k="natural" v="wetland" />
		<tag k="ssr:stedsnr" v="341667" />
	</node>
	<node id="-868975" lat="63.2863333334" lon="10.439683324">
		<tag k="name" v="Skjærmyra" />
		<tag k="natural" v="wetland" />
		<tag k="ssr:stedsnr" v="771516" />
	</node>
	<node id="-868969" lat="63.2755444429" lon="10.4291166703">
		<tag k="name" v="Svemyra" />
		<tag k="natural" v="wetland" />
		<tag k="ssr:stedsnr" v="953273" />
	</node>
	<node id="-868968" lat="63.3058027807" lon="10.6199833355">
		<tag k="name" v="Rønningsstykket" />
		<tag k="place" v="locality" />
		<tag k="ssr:stedsnr" v="225446" />
	</node>
	<node id="-868540" lat="63.2442833341" lon="10.4398166618">
		<tag k="name" v="Holmyra" />
		<tag k="natural" v="wetland" />
		<tag k="ssr:stedsnr" v="467343" />
	</node>
	<node id="-868454" lat="63.3272694489" lon="10.5217277714">
		<tag k="name" v="Tjønnmyra" />
		<tag k="natural" v="wetland" />
		<tag k="ssr:stedsnr" v="256870" />
	</node>
	<node id="-868964" lat="63.2704138884" lon="10.4239638916">
		<tag k="name" v="Ingebrigtrommet" />
		<tag k="place" v="locality" />
		<tag k="ssr:stedsnr" v="103260" />
	</node>
	<node id="-868449" lat="63.3077750037" lon="10.5564222257">
		<tag k="historic" v="shieling" />
		<tag k="name" v="Devlvollen" />
		<tag k="old_name" v="Solemsvollen" />
		<tag k="place" v="locality" />
		<tag k="ssr:stedsnr" v="445371" />
	</node>
	<node id="-868960" lat="63.2837111147" lon="10.484908325">
		<tag k="name" v="Eidstutrøa" />
		<tag k="place" v="locality" />
		<tag k="ssr:stedsnr" v="953491" />
	</node>
	<node id="-868958" lat="63.2494138866" lon="10.4328333248">
		<tag k="name" v="Lykkja" />
		<tag k="place" v="locality" />
		<tag k="ssr:stedsnr" v="892321" />
	</node>
	<node id="-868538" lat="63.245299996" lon="10.4515944521">
		<tag k="name" v="Målsjømyran" />
		<tag k="natural" v="wetland" />
		<tag k="ssr:stedsnr" v="467342" />
	</node>
	<node id="-868953" lat="63.2873000036" lon="10.5925249935">
		<tag k="name" v="Damkjølen" />
		<tag k="natural" v="wetland" />
		<tag k="ssr:stedsnr" v="286439" />
	</node>
	<node id="-868438" lat="63.3054694452" lon="10.5733305552">
		<tag k="historic" v="shieling" />
		<tag k="name" v="Nordsetervollen" />
		<tag k="place" v="locality" />
		<tag k="ssr:stedsnr" v="771423" />
	</node>
	<node id="-868436" lat="63.3203111148" lon="10.4928916688">
		<tag k="name" v="Lysklettmyrin" />
		<tag k="natural" v="wetland" />
		<tag k="ssr:stedsnr" v="863855" />
	</node>
	<node id="-868435" lat="63.3147027756" lon="10.575727772">
		<tag k="name" v="Rønningsstykket" />
		<tag k="place" v="locality" />
		<tag k="ssr:stedsnr" v="771424" />
	</node>
	<node id="-868431" lat="63.284372222" lon="10.6199694395">
		<tag k="historic" v="shieling" />
		<tag k="name" v="Nesnvollen" />
		<tag k="place" v="locality" />
		<tag k="ssr:stedsnr" v="447200" />
	</node>
	<node id="-868941" lat="63.3228000033" lon="10.51340833">
		<tag k="name" v="Badstumyra" />
		<tag k="natural" v="wetland" />
		<tag k="ssr:stedsnr" v="901394" />
	</node>
	<node id="-868939" lat="63.3024833338" lon="10.5580999952">
		<tag k="name" v="Lysklettstykket" />
		<tag k="place" v="locality" />
		<tag k="ssr:stedsnr" v="649439" />
	</node>
	<node id="-868426" lat="63.2304361079" lon="10.5970305615">
		<tag k="name" v="Vargslættet" />
		<tag k="natural" v="wetland" />
		<tag k="ssr:stedsnr" v="953410" />
	</node>
	<node id="-868425" lat="63.3045555565" lon="10.5814944508">
		<tag k="historic" v="shieling" />
		<tag k="name" v="Nordsetvollen" />
		<tag k="place" v="locality" />
		<tag k="ssr:stedsnr" v="20347" />
	</node>
	<node id="-868935" lat="63.3019805573" lon="10.6036611208">
		<tag k="name" v="Storuglstykket" />
		<tag k="place" v="locality" />
		<tag k="ssr:stedsnr" v="286422" />
	</node>
	<node id="-868933" lat="63.3022944457" lon="10.4172055575">
		<tag k="name" v="Lyngdalsflata" />
		<tag k="place" v="locality" />
		<tag k="ssr:stedsnr" v="341655" />
	</node>
	<node id="-868932" lat="63.3188472229" lon="10.560277773">
		<tag k="name" v="Vangsmostykket" />
		<tag k="place" v="locality" />
		<tag k="ssr:stedsnr" v="225439" />
	</node>
	<node id="-868931" lat="63.2254500027" lon="10.6285583348">
		<tag k="name" v="Høgslåttan" />
		<tag k="natural" v="wetland" />
		<tag k="ssr:stedsnr" v="285371" />
	</node>
	<node id="-868930" lat="63.2884416623" lon="10.4058055618">
		<tag k="historic" v="shieling" />
		<tag k="name" v="Tanemsvollen" />
		<tag k="place" v="locality" />
		<tag k="ssr:stedsnr" v="22172" />
	</node>
	<node id="-868448" lat="63.3224333328" lon="10.4740111027">
		<tag k="name" v="Furuhaugmyra" />
		<tag k="natural" v="wetland" />
		<tag k="ssr:stedsnr" v="38627" />
	</node>
	<node id="-868926" lat="63.3110083378" lon="10.6446444405">
		<tag k="name" v="Langåstrøa" />
		<tag k="place" v="locality" />
		<tag k="ssr:stedsnr" v="710455" />
	</node>
	<node id="-868924" lat="63.2870083367" lon="10.5834833423">
		<tag k="name" v="Damkjølen" />
		<tag k="natural" v="wetland" />
		<tag k="ssr:stedsnr" v="923821" />
	</node>
	<node id="-868407" lat="63.3106027772" lon="10.4365305562">
		<tag k="name" v="Sagtunet" />
		<tag k="place" v="locality" />
		<tag k="ssr:stedsnr" v="584595" />
	</node>
	<node id="-868918" lat="63.2905944425" lon="10.603061114">
		<tag k="name" v="Andersmyran" />
		<tag k="natural" v="wetland" />
		<tag k="ssr:stedsnr" v="710457" />
	</node>
	<node id="-868405" lat="63.2592333363" lon="10.3823083381">
		<tag k="name" v="Permyra" />
		<tag k="natural" v="wetland" />
		<tag k="ssr:stedsnr" v="832543" />
	</node>
	<node id="-868916" lat="63.2714444441" lon="10.4650083373">
		<tag k="name" v="Stabbmoen" />
		<tag k="place" v="locality" />
		<tag k="ssr:stedsnr" v="953297" />
	</node>
	<node id="-868912" lat="63.3163333336" lon="10.5990833293">
		<tag k="name" v="Nybøskogen" />
		<tag k="place" v="locality" />
		<tag k="ssr:stedsnr" v="286429" />
	</node>
	<node id="-868911" lat="63.3289249981" lon="10.5500944375">
		<tag k="name" v="Stavlundsmyra" />
		<tag k="natural" v="wetland" />
		<tag k="ssr:stedsnr" v="341663" />
	</node>
	<node id="-868908" lat="63.3141111096" lon="10.6225638814">
		<tag k="name" v="Lykstadstykket" />
		<tag k="place" v="locality" />
		<tag k="ssr:stedsnr" v="710453" />
	</node>
	<node id="-868906" lat="63.2663222251" lon="10.3728472175">
		<tag k="historic" v="shieling" />
		<tag k="name" v="Tullusvollen" />
		<tag k="place" v="locality" />
		<tag k="ssr:stedsnr" v="386192" />
	</node>
	<node id="-868905" lat="63.3142472227" lon="10.5135305558">
		<tag k="name" v="Devlskogen" />
		<tag k="place" v="locality" />
		<tag k="ssr:stedsnr" v="832434" />
	</node>
	<node id="-868391" lat="63.3197999985" lon="10.5830277798">
		<tag k="historic" v="shieling" />
		<tag k="name" v="Sneeggvollen" />
		<tag k="place" v="locality" />
		<tag k="ssr:stedsnr" v="811211" />
	</node>
	<node id="-869041" lat="63.2936749968" lon="10.4532555527">
		<tag k="name" v="Gjellifitja" />
		<tag k="place" v="locality" />
		<tag k="ssr:stedsnr" v="346526" />
	</node>
	<node id="-868381" lat="63.3182083355" lon="10.5692916752">
		<tag k="name" v="Estenstykket" />
		<tag k="place" v="locality" />
		<tag k="ssr:stedsnr" v="104400" />
	</node>
	<node id="-868380" lat="63.2493861151" lon="10.6253777857">
		<tag k="historic" v="shieling" />
		<tag k="name" v="Fagermovollen" />
		<tag k="place" v="locality" />
		<tag k="ssr:stedsnr" v="346378" />
	</node>
	<node id="-868891" lat="63.3167777771" lon="10.5598027716">
		<tag k="name" v="Bostadstykket" />
		<tag k="place" v="locality" />
		<tag k="ssr:stedsnr" v="467427" />
	</node>
	<node id="-868888" lat="63.3009916675" lon="10.5540111128">
		<tag k="name" v="Krokstykket" />
		<tag k="place" v="locality" />
		<tag k="ssr:stedsnr" v="588376" />
	</node>
	<node id="-868886" lat="63.3068305592" lon="10.6359805578">
		<tag k="name" v="Lokan" />
		<tag k="natural" v="wetland" />
		<tag k="ssr:stedsnr" v="164494" />
	</node>
	<node id="-868441" lat="63.2758638858" lon="10.5560000075">
		<tag k="name" v="Aunet" />
		<tag k="place" v="locality" />
		<tag k="ssr:stedsnr" v="649327" />
	</node>
	<node id="-868372" lat="63.2810055546" lon="10.3904083234">
		<tag k="name" v="Folltjønnmyra" />
		<tag k="natural" v="wetland" />
		<tag k="ssr:stedsnr" v="286511" />
	</node>
	<node id="-868882" lat="63.301061114" lon="10.5655166668">
		<tag k="name" v="Ytteruglstykket" />
		<tag k="place" v="locality" />
		<tag k="ssr:stedsnr" v="588377" />
	</node>
	<node id="-868877" lat="63.306666668" lon="10.414477786">
		<tag k="name" v="Brattbakkmyra" />
		<tag k="natural" v="wetland" />
		<tag k="ssr:stedsnr" v="888556" />
	</node>
	<node id="-868364" lat="63.3085861154" lon="10.4347027844">
		<tag k="name" v="Sagmyra" />
		<tag k="natural" v="wetland" />
		<tag k="ssr:stedsnr" v="99610" />
	</node>
	<node id="-868873" lat="63.2478861094" lon="10.6002277725">
		<tag k="historic" v="shieling" />
		<tag k="name" v="Vikavollen" />
		<tag k="place" v="locality" />
		<tag k="ssr:stedsnr" v="649395" />
	</node>
	<node id="-868360" lat="63.2539749978" lon="10.5320194532">
		<tag k="historic" v="shieling" />
		<tag k="name" v="Trøvollen" />
		<tag k="place" v="locality" />
		<tag k="ssr:stedsnr" v="346384" />
	</node>
	<node id="-868871" lat="63.3151583314" lon="10.4910583369">
		<tag k="name" v="Lysklettmyra" />
		<tag k="natural" v="wetland" />
		<tag k="ssr:stedsnr" v="710419" />
	</node>
	<node id="-868356" lat="63.2709277775" lon="10.4294333345">
		<tag k="name" v="Jakobrommet" />
		<tag k="place" v="locality" />
		<tag k="ssr:stedsnr" v="832288" />
	</node>
	<node id="-868354" lat="63.304108333" lon="10.5694416633">
		<tag k="name" v="Litjuglstykket" />
		<tag k="natural" v="wetland" />
		<tag k="ssr:stedsnr" v="104394" />
	</node>
</osm>
