<?xml version="1.0" encoding="UTF-8"?>
<osm generator="osmapis" version="0.6">
	<node id="-882954" lat="63.3286944439" lon="10.4984000055">
		<tag k="junction" v="yes" />
		<tag k="name" v="Kassan" />
		<tag k="place" v="locality" />
		<tag k="ssr:stedsnr" v="644801" />
	</node>
	<node id="-882873" lat="63.3220333306" lon="10.4081555505">
		<tag k="highway" v="path" />
		<tag k="name" v="Einstian" />
		<tag k="ssr:stedsnr" v="523692" />
	</node>
	<node id="-882328" lat="63.2791416676" lon="10.4726999988">
		<tag k="landuse" v="industrial" />
		<tag k="name" v="Svean kraftstasjon" />
		<tag k="power" v="plant" />
		<tag k="ssr:stedsnr" v="385829" />
	</node>
	<node id="-882359" lat="63.2650083329" lon="10.4978472242">
		<tag k="highway" v="path" />
		<tag k="name" v="Synne" />
		<tag k="ssr:stedsnr" v="832304" />
	</node>
	<node id="-882387" lat="63.240211114" lon="10.5127722314">
		<tag k="highway" v="path" />
		<tag k="name" v="Lekåsbakken" />
		<tag k="ssr:stedsnr" v="346361" />
	</node>
	<node id="-882634" lat="63.3173222208" lon="10.4039222293">
		<tag k="amenity" v="parking" />
		<tag k="name" v="Skjøla parkeringsplass" />
		<tag k="ssr:stedsnr" v="584622" />
	</node>
	<node id="-882632" lat="63.2744861072" lon="10.5741555535">
		<tag k="highway" v="path" />
		<tag k="name" v="Geitstigen" />
		<tag k="ssr:stedsnr" v="832349" />
	</node>
	<node id="-882887" lat="63.285027775" lon="10.4202777787">
		<tag k="highway" v="path" />
		<tag k="name" v="Stian" />
		<tag k="ssr:stedsnr" v="771501" />
	</node>
	<node id="-883204" lat="63.3142491854" lon="10.4166325233">
		<tag k="bridge" v="yes" />
		<tag k="layer" v="1" />
		<tag k="name" v="Hallbrua" />
		<tag k="ssr:stedsnr" v="987890" />
	</node>
	<node id="-882307" lat="63.3071833344" lon="10.4321555637">
		<tag k="layer" v="-1" />
		<tag k="name" v="Brannåsundergangen" />
		<tag k="ssr:stedsnr" v="715923" />
		<tag k="tunnel" v="yes" />
	</node>
	<node id="-883138" lat="63.2785972236" lon="10.4384361127">
		<tag k="junction" v="yes" />
		<tag k="name" v="Moenkrysset" />
		<tag k="place" v="locality" />
		<tag k="ssr:stedsnr" v="953537" />
	</node>
	<node id="-882593" lat="63.3039944437" lon="10.4619611027">
		<tag k="layer" v="-1" />
		<tag k="name" v="Sørborgundergangen" />
		<tag k="ssr:stedsnr" v="776925" />
		<tag k="tunnel" v="yes" />
	</node>
</osm>
