<?xml version="1.0" encoding="UTF-8"?>
<osm generator="osmapis" version="0.6">
	<node id="-881661" lat="63.2995361126" lon="10.4855111167">
		<tag k="amenity" v="community_centre" />
		<tag k="name" v="Klæbu kulturhus" />
		<tag k="ssr:stedsnr" v="220645" />
	</node>
	<node id="-881339" lat="63.3334833375" lon="10.4368277686">
		<tag k="name" v="Nordsetsaga" />
		<tag k="place" v="locality" />
		<tag k="ssr:stedsnr" v="159685" />
	</node>
	<node id="-881071" lat="63.2546638915" lon="10.5049583268">
		<tag k="amenity" v="community_centre" />
		<tag k="name" v="Gamle Sjøen skole" />
		<tag k="ssr:stedsnr" v="970288" />
	</node>
	<node id="-881304" lat="63.2959972195" lon="10.4841722257">
		<tag k="amenity" v="community_centre" />
		<tag k="name" v="Gamle festsal" />
		<tag k="ssr:stedsnr" v="727753" />
	</node>
	<node id="-881751" lat="63.2953111152" lon="10.4766583349">
		<tag k="alt_name" v="Klæbu" />
		<tag k="amenity" v="place_of_worship" />
		<tag k="denomination" v="lutheran" />
		<tag k="name" v="Klæbu kirke" />
		<tag k="religion" v="christian" />
		<tag k="ssr:stedsnr" v="863794" />
	</node>
	<node id="-881366" lat="63.2742589395" lon="10.4384025164">
		<tag k="amenity" v="community_centre" />
		<tag k="name" v="Folkets hus" />
		<tag k="ssr:stedsnr" v="523674" />
	</node>
	<node id="-881300" lat="63.2658333309" lon="10.5350944346">
		<tag k="name" v="Klæbu museum Teigen" />
		<tag k="ssr:stedsnr" v="159666" />
		<tag k="tourism" v="museum" />
	</node>
	<node id="-880920" lat="63.309994446" lon="10.4048583411">
		<tag k="amenity" v="place_of_worship" />
		<tag k="denomination" v="lutheran" />
		<tag k="name" v="Vassfjellkapellet" />
		<tag k="religion" v="christian" />
		<tag k="ssr:stedsnr" v="446180" />
	</node>
	<node id="-881167" lat="63.2883499989" lon="10.5718499941">
		<tag k="amenity" v="community_centre" />
		<tag k="name" v="Gjenvollhytta" />
		<tag k="old_name" v="Jennvollhytta;Gjenvoldhytta" />
		<tag k="ssr:stedsnr" v="588131" />
	</node>
	<node id="-881326" lat="63.3169638914" lon="10.4792638866">
		<tag k="amenity" v="community_centre" />
		<tag k="name" v="Moadalen forsamlingshus" />
		<tag k="ssr:stedsnr" v="181701" />
	</node>
	<node id="-881612" lat="63.3069288387" lon="10.4340832515">
		<tag k="amenity" v="community_centre" />
		<tag k="name" v="Tanem forsamlingshus" />
		<tag k="ssr:stedsnr" v="341680" />
	</node>
	<node id="-881190" lat="63.3169638914" lon="10.4792638866">
		<tag k="amenity" v="community_centre" />
		<tag k="name" v="Gamle Lysklett skole" />
		<tag k="ssr:stedsnr" v="849723" />
	</node>
</osm>
