<?xml version="1.0" encoding="UTF-8"?>
<osm generator="osmapis" version="0.6">
	<node id="-482931" lat="60.4680055596" lon="5.50072221366">
		<tag k="name" v="Varden" />
		<tag k="natural" v="hill" />
		<tag k="place" v="locality" />
		<tag k="ssr:stedsnr" v="955873" />
	</node>
	<node id="-482929" lat="60.4597833308" lon="5.47538333262">
		<tag k="name" v="Mannablodet" />
		<tag k="place" v="locality" />
		<tag k="ssr:stedsnr" v="955859" />
	</node>
	<node id="-482928" lat="60.5392722249" lon="5.41886388227">
		<tag k="name" v="Djupedalen" />
		<tag k="natural" v="valley" />
		<tag k="place" v="locality" />
		<tag k="ssr:stedsnr" v="955848" />
	</node>
	<node id="-482924" lat="60.5234027768" lon="5.3962666659">
		<tag k="name" v="Vardane" />
		<tag k="natural" v="hill" />
		<tag k="place" v="locality" />
		<tag k="ssr:stedsnr" v="955828" />
	</node>
	<node id="-482923" lat="60.525544443" lon="5.39045000213">
		<tag k="name" v="Senabrekkene" />
		<tag k="natural" v="slope" />
		<tag k="place" v="locality" />
		<tag k="ssr:stedsnr" v="955823" />
	</node>
	<node id="-482921" lat="60.5477194474" lon="5.43823334132">
		<tag k="name" v="Blaudalen" />
		<tag k="natural" v="valley" />
		<tag k="place" v="locality" />
		<tag k="ssr:stedsnr" v="955797" />
	</node>
	<node id="-482920" lat="60.4855138902" lon="5.45435000729">
		<tag k="name" v="Revskaret" />
		<tag k="natural" v="hill" />
		<tag k="place" v="locality" />
		<tag k="ssr:stedsnr" v="955765" />
	</node>
	<node id="-482917" lat="60.5405611123" lon="5.3419138959">
		<tag k="name" v="Kleiva" />
		<tag k="place" v="locality" />
		<tag k="ssr:stedsnr" v="955761" />
	</node>
	<node id="-482916" lat="60.519349999" lon="5.54943888306">
		<tag k="name" v="Håliane" />
		<tag k="natural" v="slope" />
		<tag k="place" v="locality" />
		<tag k="ssr:stedsnr" v="955748" />
	</node>
	<node id="-482915" lat="60.5137833305" lon="5.40232223041">
		<tag k="name" v="Geilane" />
		<tag k="natural" v="hill" />
		<tag k="place" v="locality" />
		<tag k="ssr:stedsnr" v="955749" />
	</node>
	<node id="-482912" lat="60.5043472254" lon="5.4712166685">
		<tag k="name" v="Årinden" />
		<tag k="place" v="locality" />
		<tag k="ssr:stedsnr" v="955733" />
	</node>
	<node id="-482911" lat="60.5261861084" lon="5.4716250001">
		<tag k="name" v="Bjorkleften" />
		<tag k="natural" v="hill" />
		<tag k="place" v="locality" />
		<tag k="ssr:stedsnr" v="955687" />
	</node>
	<node id="-482910" lat="60.5326500033" lon="5.54241667447">
		<tag k="fixme" v="consider natural=peak for the most distinct mountains in the district" />
		<tag k="name" v="Nordgaardsfjellet" />
		<tag k="natural" v="hill" />
		<tag k="place" v="locality" />
		<tag k="ssr:stedsnr" v="955684" />
	</node>
	<node id="-482909" lat="60.4732611119" lon="5.57839443603">
		<tag k="name" v="Rinden" />
		<tag k="natural" v="ridge" />
		<tag k="place" v="locality" />
		<tag k="ssr:stedsnr" v="955664" />
	</node>
	<node id="-482908" lat="60.4844416702" lon="5.53012222046">
		<tag k="name" v="Krakhaugen" />
		<tag k="natural" v="hill" />
		<tag k="place" v="locality" />
		<tag k="ssr:stedsnr" v="955659" />
	</node>
	<node id="-482907" lat="60.4623138907" lon="5.56910555423">
		<tag k="name" v="Ruken" />
		<tag k="place" v="locality" />
		<tag k="ssr:stedsnr" v="955648" />
	</node>
	<node id="-482906" lat="60.4888000015" lon="5.53569166945">
		<tag k="name" v="Søraheii" />
		<tag k="place" v="locality" />
		<tag k="ssr:stedsnr" v="955634" />
	</node>
	<node id="-482904" lat="60.5006916652" lon="5.60774165999">
		<tag k="name" v="Meleberget" />
		<tag k="natural" v="hill" />
		<tag k="place" v="locality" />
		<tag k="ssr:stedsnr" v="955628" />
	</node>
	<node id="-482902" lat="60.5179972227" lon="5.63874444774">
		<tag k="name" v="Kvernhushaug" />
		<tag k="natural" v="hill" />
		<tag k="place" v="locality" />
		<tag k="ssr:stedsnr" v="955625" />
	</node>
	<node id="-482899" lat="60.4666250034" lon="5.62753610393">
		<tag k="fixme" v="consider natural=peak for the most distinct mountains in the district" />
		<tag k="name" v="Nåvæ" />
		<tag k="natural" v="hill" />
		<tag k="place" v="locality" />
		<tag k="ssr:stedsnr" v="955602" />
	</node>
	<node id="-482896" lat="60.4655305602" lon="5.5957055608">
		<tag k="name" v="Tindane" />
		<tag k="natural" v="hill" />
		<tag k="place" v="locality" />
		<tag k="ssr:stedsnr" v="955591" />
	</node>
	<node id="-482895" lat="60.4749249998" lon="5.61595278222">
		<tag k="name" v="Raundalen" />
		<tag k="natural" v="valley" />
		<tag k="place" v="locality" />
		<tag k="ssr:stedsnr" v="955589" />
	</node>
	<node id="-482894" lat="60.4865611117" lon="5.6727444472">
		<tag k="alt_name" v="Bjøndalen" />
		<tag k="name" v="Bjørndalen" />
		<tag k="natural" v="valley" />
		<tag k="place" v="locality" />
		<tag k="ssr:stedsnr" v="955583" />
	</node>
	<node id="-482892" lat="60.4838777774" lon="5.61503055803">
		<tag k="name" v="Varden" />
		<tag k="natural" v="hill" />
		<tag k="place" v="locality" />
		<tag k="ssr:stedsnr" v="955574" />
	</node>
	<node id="-482891" lat="60.4890194483" lon="5.59054444592">
		<tag k="fixme" v="consider natural=peak for the most distinct mountains in the district" />
		<tag k="name" v="Ljomakleiva" />
		<tag k="natural" v="hill" />
		<tag k="place" v="locality" />
		<tag k="ssr:stedsnr" v="955573" />
	</node>
	<node id="-482890" lat="60.4885666692" lon="5.59495832893">
		<tag k="name" v="Hermannsrinden" />
		<tag k="place" v="locality" />
		<tag k="ssr:stedsnr" v="955569" />
	</node>
	<node id="-482889" lat="60.4973972194" lon="5.6319305513">
		<tag k="name" v="Aurtua" />
		<tag k="place" v="locality" />
		<tag k="ssr:stedsnr" v="955565" />
	</node>
	<node id="-482887" lat="60.4540805561" lon="5.60713333108">
		<tag k="name" v="Kåpelia" />
		<tag k="natural" v="slope" />
		<tag k="place" v="locality" />
		<tag k="ssr:stedsnr" v="955552" />
	</node>
	<node id="-482886" lat="60.5862111097" lon="5.56076388402">
		<tag k="name" v="Høghaugen" />
		<tag k="natural" v="hill" />
		<tag k="place" v="locality" />
		<tag k="ssr:stedsnr" v="955547" />
	</node>
	<node id="-482884" lat="60.4456722263" lon="5.50615555978">
		<tag k="name" v="Vindberget" />
		<tag k="natural" v="hill" />
		<tag k="place" v="locality" />
		<tag k="ssr:stedsnr" v="955501" />
	</node>
	<node id="-482881" lat="60.4405027758" lon="5.58156667358">
		<tag k="name" v="Novena" />
		<tag k="natural" v="hill" />
		<tag k="place" v="locality" />
		<tag k="ssr:stedsnr" v="955491" />
	</node>
	<node id="-482880" lat="60.543637528" lon="5.61487516175">
		<tag k="fixme" v="consider natural=peak for the most distinct mountains in the district" />
		<tag k="name" v="Ormanipa" />
		<tag k="natural" v="hill" />
		<tag k="place" v="locality" />
		<tag k="ssr:stedsnr" v="955437" />
	</node>
	<node id="-482878" lat="60.6493333338" lon="5.6096861071">
		<tag k="name" v="Høghaugen" />
		<tag k="natural" v="hill" />
		<tag k="place" v="locality" />
		<tag k="ssr:stedsnr" v="955407" />
	</node>
	<node id="-482877" lat="60.6441194412" lon="5.60965000455">
		<tag k="fixme" v="consider natural=peak for the most distinct mountains in the district" />
		<tag k="name" v="Åsen" />
		<tag k="natural" v="hill" />
		<tag k="place" v="locality" />
		<tag k="ssr:stedsnr" v="955404" />
	</node>
	<node id="-482872" lat="60.526161113" lon="5.53980555012">
		<tag k="name" v="Geithaugen" />
		<tag k="natural" v="hill" />
		<tag k="place" v="locality" />
		<tag k="ssr:stedsnr" v="954719" />
	</node>
	<node id="-482869" lat="60.4936527798" lon="5.52402499384">
		<tag k="name" v="Kyråsbotnen" />
		<tag k="natural" v="valley" />
		<tag k="place" v="locality" />
		<tag k="ssr:stedsnr" v="954454" />
	</node>
	<node id="-482868" lat="60.4882472228" lon="5.4699416614">
		<tag k="name" v="Trolldalane" />
		<tag k="natural" v="valley" />
		<tag k="place" v="locality" />
		<tag k="ssr:stedsnr" v="954449" />
	</node>
	<node id="-482867" lat="60.493097223" lon="5.50615000728">
		<tag k="name" v="Svarteberget" />
		<tag k="natural" v="hill" />
		<tag k="place" v="locality" />
		<tag k="ssr:stedsnr" v="954448" />
	</node>
	<node id="-482866" lat="60.4919361087" lon="5.51628332502">
		<tag k="fixme" v="consider natural=peak for the most distinct mountains in the district" />
		<tag k="name" v="Hovdane" />
		<tag k="natural" v="hill" />
		<tag k="place" v="locality" />
		<tag k="ssr:stedsnr" v="954445" />
	</node>
	<node id="-482865" lat="60.4944777752" lon="5.51018332749">
		<tag k="name" v="Stemmehaugane" />
		<tag k="natural" v="hill" />
		<tag k="place" v="locality" />
		<tag k="ssr:stedsnr" v="954446" />
	</node>
	<node id="-482860" lat="60.4997222259" lon="5.6143388815">
		<tag k="name" v="Bjørndalen" />
		<tag k="natural" v="valley" />
		<tag k="place" v="locality" />
		<tag k="ssr:stedsnr" v="916994" />
	</node>
	<node id="-482858" lat="60.5236555539" lon="5.6803638963">
		<tag k="fixme" v="consider natural=peak for the most distinct mountains in the district" />
		<tag k="name" v="Raudskredbruna" />
		<tag k="natural" v="hill" />
		<tag k="place" v="locality" />
		<tag k="ssr:stedsnr" v="916962" />
	</node>
	<node id="-482855" lat="60.4616055581" lon="5.53194444026">
		<tag k="name" v="Norddalen" />
		<tag k="natural" v="valley" />
		<tag k="place" v="locality" />
		<tag k="ssr:stedsnr" v="916950" />
	</node>
	<node id="-482854" lat="60.5121388921" lon="5.66848888851">
		<tag k="name" v="Geitabotnen" />
		<tag k="natural" v="valley" />
		<tag k="place" v="locality" />
		<tag k="ssr:stedsnr" v="916951" />
	</node>
	<node id="-482853" lat="60.4624972188" lon="5.61283055843">
		<tag k="name" v="Djupedalen" />
		<tag k="natural" v="valley" />
		<tag k="place" v="locality" />
		<tag k="ssr:stedsnr" v="916948" />
	</node>
	<node id="-482851" lat="60.5290222263" lon="5.59767777463">
		<tag k="name" v="Sakslia" />
		<tag k="natural" v="slope" />
		<tag k="place" v="locality" />
		<tag k="ssr:stedsnr" v="916925" />
	</node>
	<node id="-482844" lat="60.5891000036" lon="5.50432499644">
		<tag k="fixme" v="consider natural=peak for the most distinct mountains in the district" />
		<tag k="name" v="Raudkletten" />
		<tag k="natural" v="hill" />
		<tag k="place" v="locality" />
		<tag k="ssr:stedsnr" v="916544" />
	</node>
	<node id="-482843" lat="60.5282777795" lon="5.41507500473">
		<tag k="name" v="Røskelandsdalen" />
		<tag k="natural" v="valley" />
		<tag k="place" v="locality" />
		<tag k="ssr:stedsnr" v="916520" />
	</node>
	<node id="-482835" lat="60.4859138868" lon="5.56201388989">
		<tag k="name" v="Steinshovden" />
		<tag k="natural" v="hill" />
		<tag k="place" v="locality" />
		<tag k="ssr:stedsnr" v="915978" />
	</node>
	<node id="-482834" lat="60.4865916663" lon="5.58268889354">
		<tag k="name" v="Vedaflærne" />
		<tag k="natural" v="hill" />
		<tag k="place" v="locality" />
		<tag k="ssr:stedsnr" v="915976" />
	</node>
	<node id="-482833" lat="60.4861555531" lon="5.61828888048">
		<tag k="fixme" v="consider natural=peak for the most distinct mountains in the district" />
		<tag k="name" v="Vindegga" />
		<tag k="natural" v="hill" />
		<tag k="place" v="locality" />
		<tag k="ssr:stedsnr" v="915969" />
	</node>
	<node id="-482831" lat="60.5072555586" lon="5.67917777062">
		<tag k="fixme" v="consider natural=peak for the most distinct mountains in the district" />
		<tag k="name" v="Flærne" />
		<tag k="natural" v="hill" />
		<tag k="place" v="locality" />
		<tag k="ssr:stedsnr" v="856997" />
	</node>
	<node id="-482826" lat="60.6473250016" lon="5.62586667111">
		<tag k="fixme" v="consider natural=peak for the most distinct mountains in the district" />
		<tag k="name" v="Kvernhusfjellet" />
		<tag k="natural" v="hill" />
		<tag k="place" v="locality" />
		<tag k="ssr:stedsnr" v="856692" />
	</node>
	<node id="-482824" lat="60.5709833355" lon="5.52295554682">
		<tag k="fixme" v="consider natural=peak for the most distinct mountains in the district" />
		<tag k="name" v="Tveitafjellet" />
		<tag k="natural" v="hill" />
		<tag k="place" v="locality" />
		<tag k="ssr:stedsnr" v="856594" />
	</node>
	<node id="-482820" lat="60.5466888919" lon="5.40874723037">
		<tag k="name" v="Heiane" />
		<tag k="natural" v="slope" />
		<tag k="place" v="locality" />
		<tag k="ssr:stedsnr" v="856447" />
	</node>
	<node id="-482815" lat="60.4911083298" lon="5.64594722544">
		<tag k="name" v="Brøkbotnen" />
		<tag k="natural" v="valley" />
		<tag k="place" v="locality" />
		<tag k="ssr:stedsnr" v="855986" />
	</node>
	<node id="-482813" lat="60.4833416633" lon="5.59306389115">
		<tag k="fixme" v="consider natural=peak for the most distinct mountains in the district" />
		<tag k="name" v="Setevarden" />
		<tag k="natural" v="hill" />
		<tag k="place" v="locality" />
		<tag k="ssr:stedsnr" v="855979" />
	</node>
	<node id="-482812" lat="60.4706527736" lon="5.62343055027">
		<tag k="name" v="Skaftådalen" />
		<tag k="natural" v="valley" />
		<tag k="place" v="locality" />
		<tag k="ssr:stedsnr" v="855963" />
	</node>
	<node id="-482811" lat="60.6377805589" lon="5.60710277316">
		<tag k="fixme" v="consider natural=peak for the most distinct mountains in the district" />
		<tag k="name" v="Myrbærstøfjellet" />
		<tag k="natural" v="hill" />
		<tag k="place" v="locality" />
		<tag k="ssr:stedsnr" v="855720" />
	</node>
	<node id="-482810" lat="60.560005552" lon="5.48744444869">
		<tag k="fixme" v="consider natural=peak for the most distinct mountains in the district" />
		<tag k="name" v="Røsslandsåsen" />
		<tag k="natural" v="hill" />
		<tag k="place" v="locality" />
		<tag k="ssr:stedsnr" v="855588" />
	</node>
	<node id="-482809" lat="60.5870888927" lon="5.61748611567">
		<tag k="name" v="Fagerdalen" />
		<tag k="natural" v="valley" />
		<tag k="place" v="locality" />
		<tag k="ssr:stedsnr" v="855521" />
	</node>
	<node id="-482807" lat="60.5229500044" lon="5.41800000638">
		<tag k="name" v="Revskaret" />
		<tag k="natural" v="valley" />
		<tag k="place" v="locality" />
		<tag k="ssr:stedsnr" v="855479" />
	</node>
	<node id="-482796" lat="60.4695888894" lon="5.52551110278">
		<tag k="name" v="Middagshaugen" />
		<tag k="natural" v="hill" />
		<tag k="place" v="locality" />
		<tag k="ssr:stedsnr" v="834860" />
	</node>
	<node id="-482795" lat="60.4671972266" lon="5.52029722233">
		<tag k="fixme" v="consider natural=peak for the most distinct mountains in the district" />
		<tag k="name" v="Åsrinden" />
		<tag k="natural" v="hill" />
		<tag k="place" v="locality" />
		<tag k="ssr:stedsnr" v="834859" />
	</node>
	<node id="-482794" lat="60.4952694422" lon="5.576141664">
		<tag k="name" v="Bukkshovden" />
		<tag k="place" v="locality" />
		<tag k="ssr:stedsnr" v="834857" />
	</node>
	<node id="-482793" lat="60.4686861123" lon="5.47096944336">
		<tag k="name" v="Hovdane" />
		<tag k="natural" v="hill" />
		<tag k="place" v="locality" />
		<tag k="ssr:stedsnr" v="834848" />
	</node>
	<node id="-482791" lat="60.5165444414" lon="5.3962055623">
		<tag k="name" v="Utlehaugen" />
		<tag k="natural" v="hill" />
		<tag k="place" v="locality" />
		<tag k="ssr:stedsnr" v="834838" />
	</node>
	<node id="-482790" lat="60.5448444489" lon="5.36419445227">
		<tag k="name" v="Jordarinden" />
		<tag k="place" v="locality" />
		<tag k="ssr:stedsnr" v="834829" />
	</node>
	<node id="-482787" lat="60.4931777765" lon="5.43239443896">
		<tag k="name" v="Ropeleitet" />
		<tag k="natural" v="hill" />
		<tag k="place" v="locality" />
		<tag k="ssr:stedsnr" v="834816" />
	</node>
	<node id="-482785" lat="60.4939944408" lon="5.45795833075">
		<tag k="name" v="Austlirinden" />
		<tag k="natural" v="slope" />
		<tag k="place" v="locality" />
		<tag k="ssr:stedsnr" v="834767" />
	</node>
	<node id="-482784" lat="60.5296222243" lon="5.6394499988">
		<tag k="name" v="Blaudalen" />
		<tag k="natural" v="valley" />
		<tag k="place" v="locality" />
		<tag k="ssr:stedsnr" v="834757" />
	</node>
	<node id="-482783" lat="60.5175611124" lon="5.55376110303">
		<tag k="name" v="Hådyret" />
		<tag k="place" v="locality" />
		<tag k="ssr:stedsnr" v="834752" />
	</node>
	<node id="-482782" lat="60.5709694468" lon="5.49643888784">
		<tag k="name" v="Erkletten" />
		<tag k="natural" v="hill" />
		<tag k="place" v="locality" />
		<tag k="ssr:stedsnr" v="834748" />
	</node>
	<node id="-482781" lat="60.510044444" lon="5.51754722963">
		<tag k="name" v="Timberkleiv" />
		<tag k="place" v="locality" />
		<tag k="ssr:stedsnr" v="834741" />
	</node>
	<node id="-482780" lat="60.5023388909" lon="5.55372499923">
		<tag k="name" v="Vellene" />
		<tag k="natural" v="hill" />
		<tag k="place" v="locality" />
		<tag k="ssr:stedsnr" v="834733" />
	</node>
	<node id="-482779" lat="60.5143361156" lon="5.56506389365">
		<tag k="name" v="Steindalen" />
		<tag k="natural" v="valley" />
		<tag k="place" v="locality" />
		<tag k="ssr:stedsnr" v="834730" />
	</node>
	<node id="-482777" lat="60.5198888851" lon="5.57107777727">
		<tag k="name" v="Skolmhjellen" />
		<tag k="natural" v="gorge" />
		<tag k="ssr:stedsnr" v="834729" />
	</node>
	<node id="-482775" lat="60.5142805567" lon="5.47109166901">
		<tag k="name" v="Haugadalen" />
		<tag k="natural" v="valley" />
		<tag k="place" v="locality" />
		<tag k="ssr:stedsnr" v="834709" />
	</node>
	<node id="-482774" lat="60.4721777739" lon="5.5384305476">
		<tag k="name" v="Krossen" />
		<tag k="place" v="locality" />
		<tag k="ssr:stedsnr" v="834680" />
	</node>
	<node id="-482773" lat="60.4580416642" lon="5.54083889513">
		<tag k="name" v="Halsbotnen" />
		<tag k="natural" v="valley" />
		<tag k="place" v="locality" />
		<tag k="ssr:stedsnr" v="834675" />
	</node>
	<node id="-482772" lat="60.4646250012" lon="5.53537500656">
		<tag k="name" v="Brotalia" />
		<tag k="natural" v="slope" />
		<tag k="place" v="locality" />
		<tag k="ssr:stedsnr" v="834673" />
	</node>
	<node id="-482771" lat="60.4763972219" lon="5.54778332616">
		<tag k="name" v="Håhaugen" />
		<tag k="natural" v="hill" />
		<tag k="place" v="locality" />
		<tag k="ssr:stedsnr" v="834672" />
	</node>
	<node id="-482770" lat="60.4748111119" lon="5.54637222831">
		<tag k="name" v="Erhaugen" />
		<tag k="natural" v="hill" />
		<tag k="place" v="locality" />
		<tag k="ssr:stedsnr" v="834670" />
	</node>
	<node id="-482769" lat="60.4630805582" lon="5.57258333894">
		<tag k="name" v="Tungen" />
		<tag k="place" v="locality" />
		<tag k="ssr:stedsnr" v="834660" />
	</node>
	<node id="-482768" lat="60.4837527755" lon="5.54974165915">
		<tag k="name" v="Litunlia" />
		<tag k="natural" v="slope" />
		<tag k="place" v="locality" />
		<tag k="ssr:stedsnr" v="834652" />
	</node>
	<node id="-482766" lat="60.4876361146" lon="5.54604166116">
		<tag k="fixme" v="consider natural=peak for the most distinct mountains in the district" />
		<tag k="name" v="Hartveitåsen" />
		<tag k="natural" v="hill" />
		<tag k="place" v="locality" />
		<tag k="ssr:stedsnr" v="834648" />
	</node>
	<node id="-482765" lat="60.48083611" lon="5.53743888268">
		<tag k="name" v="Gjeljabrekkena" />
		<tag k="natural" v="slope" />
		<tag k="place" v="locality" />
		<tag k="ssr:stedsnr" v="834647" />
	</node>
	<node id="-482764" lat="60.4929722201" lon="5.53828055416">
		<tag k="name" v="Gardshaugane" />
		<tag k="natural" v="hill" />
		<tag k="place" v="locality" />
		<tag k="ssr:stedsnr" v="834639" />
	</node>
	<node id="-482763" lat="60.5355416675" lon="5.64977777134">
		<tag k="name" v="Botnabrekkena" />
		<tag k="natural" v="slope" />
		<tag k="place" v="locality" />
		<tag k="ssr:stedsnr" v="834618" />
	</node>
	<node id="-482762" lat="60.5267444427" lon="5.62082222347">
		<tag k="name" v="Andersgjelen" />
		<tag k="natural" v="gorge" />
		<tag k="ssr:stedsnr" v="834613" />
	</node>
	<node id="-482761" lat="60.536886113" lon="5.5890805474">
		<tag k="name" v="Ullbotnen" />
		<tag k="natural" v="valley" />
		<tag k="place" v="locality" />
		<tag k="ssr:stedsnr" v="834608" />
	</node>
	<node id="-482760" lat="60.4649361096" lon="5.62710555217">
		<tag k="name" v="Hauane" />
		<tag k="natural" v="hill" />
		<tag k="place" v="locality" />
		<tag k="ssr:stedsnr" v="834603" />
	</node>
	<node id="-482759" lat="60.4672805548" lon="5.62278332972">
		<tag k="name" v="Hallgjenge" />
		<tag k="natural" v="hill" />
		<tag k="place" v="locality" />
		<tag k="ssr:stedsnr" v="834602" />
	</node>
	<node id="-482758" lat="60.4902999959" lon="5.68743610443">
		<tag k="fixme" v="consider natural=peak for the most distinct mountains in the district" />
		<tag k="name" v="Varen" />
		<tag k="natural" v="hill" />
		<tag k="place" v="locality" />
		<tag k="ssr:stedsnr" v="834595" />
	</node>
	<node id="-482757" lat="60.4859805571" lon="5.59404999215">
		<tag k="name" v="Vesetlidane" />
		<tag k="natural" v="slope" />
		<tag k="place" v="locality" />
		<tag k="ssr:stedsnr" v="834570" />
	</node>
	<node id="-482756" lat="60.4482305526" lon="5.60970277538">
		<tag k="name" v="Norhaug" />
		<tag k="natural" v="hill" />
		<tag k="place" v="locality" />
		<tag k="ssr:stedsnr" v="834561" />
	</node>
	<node id="-482755" lat="60.4513999994" lon="5.59446945051">
		<tag k="name" v="Slettebrekka" />
		<tag k="natural" v="slope" />
		<tag k="place" v="locality" />
		<tag k="ssr:stedsnr" v="834556" />
	</node>
	<node id="-482751" lat="60.5957000026" lon="5.5216166621">
		<tag k="name" v="Heia" />
		<tag k="natural" v="hill" />
		<tag k="place" v="locality" />
		<tag k="ssr:stedsnr" v="834536" />
	</node>
	<node id="-482750" lat="60.613594447" lon="5.53741111525">
		<tag k="name" v="Drangskollen" />
		<tag k="natural" v="hill" />
		<tag k="place" v="locality" />
		<tag k="ssr:stedsnr" v="834534" />
	</node>
	<node id="-482749" lat="60.5521183728" lon="5.51248386952">
		<tag k="name" v="Søranipa" />
		<tag k="natural" v="hill" />
		<tag k="place" v="locality" />
		<tag k="ssr:stedsnr" v="834502" />
	</node>
	<node id="-482748" lat="60.5037958638" lon="5.43251840142">
		<tag k="alt_name" v="Fossaasen" />
		<tag k="fixme" v="consider natural=peak for the most distinct mountains in the district" />
		<tag k="name" v="Fossåsen" />
		<tag k="natural" v="hill" />
		<tag k="place" v="locality" />
		<tag k="ssr:stedsnr" v="834493" />
	</node>
	<node id="-482747" lat="60.5006833354" lon="5.46050833994">
		<tag k="name" v="Ranenkammen" />
		<tag k="natural" v="hill" />
		<tag k="place" v="locality" />
		<tag k="ssr:stedsnr" v="834491" />
	</node>
	<node id="-482746" lat="60.5053083361" lon="5.45350832672">
		<tag k="name" v="Malmskaret" />
		<tag k="natural" v="hill" />
		<tag k="place" v="locality" />
		<tag k="ssr:stedsnr" v="834489" />
	</node>
	<node id="-482744" lat="60.4521416707" lon="5.5465999941">
		<tag k="name" v="Skarpebrekkena" />
		<tag k="natural" v="slope" />
		<tag k="place" v="locality" />
		<tag k="ssr:stedsnr" v="834466" />
	</node>
	<node id="-482743" lat="60.445249998" lon="5.57591944492">
		<tag k="name" v="Såta" />
		<tag k="natural" v="hill" />
		<tag k="place" v="locality" />
		<tag k="ssr:stedsnr" v="834459" />
	</node>
	<node id="-482742" lat="60.5115611081" lon="5.64405277492">
		<tag k="name" v="Storseilhaugen" />
		<tag k="natural" v="hill" />
		<tag k="place" v="locality" />
		<tag k="ssr:stedsnr" v="834430" />
	</node>
	<node id="-482741" lat="60.5482916646" lon="5.6069388834">
		<tag k="fixme" v="consider natural=peak for the most distinct mountains in the district" />
		<tag k="name" v="Ospevikåsen" />
		<tag k="natural" v="hill" />
		<tag k="place" v="locality" />
		<tag k="ssr:stedsnr" v="834421" />
	</node>
	<node id="-482740" lat="60.6400333336" lon="5.62558610322">
		<tag k="name" v="Svartavassbotn" />
		<tag k="natural" v="valley" />
		<tag k="place" v="locality" />
		<tag k="ssr:stedsnr" v="834406" />
	</node>
	<node id="-482734" lat="60.4310833319" lon="5.53692777221">
		<tag k="name" v="Trældalen" />
		<tag k="natural" v="valley" />
		<tag k="place" v="locality" />
		<tag k="ssr:stedsnr" v="833480" />
	</node>
	<node id="-482733" lat="60.4956861079" lon="5.50484999558">
		<tag k="fixme" v="consider natural=peak for the most distinct mountains in the district" />
		<tag k="name" v="Dalaplasset" />
		<tag k="natural" v="hill" />
		<tag k="place" v="locality" />
		<tag k="ssr:stedsnr" v="833456" />
	</node>
	<node id="-482727" lat="60.5183444447" lon="5.49535556112">
		<tag k="name" v="Kløvbotnen" />
		<tag k="natural" v="valley" />
		<tag k="place" v="locality" />
		<tag k="ssr:stedsnr" v="795982" />
	</node>
	<node id="-482726" lat="60.5171999963" lon="5.50103888644">
		<tag k="fixme" v="consider natural=peak for the most distinct mountains in the district" />
		<tag k="name" v="Trekarnenipa" />
		<tag k="natural" v="hill" />
		<tag k="place" v="locality" />
		<tag k="ssr:stedsnr" v="795981" />
	</node>
	<node id="-482724" lat="60.5231499985" lon="5.47340833487">
		<tag k="fixme" v="consider natural=peak for the most distinct mountains in the district" />
		<tag k="name" v="Torkletten" />
		<tag k="natural" v="hill" />
		<tag k="place" v="locality" />
		<tag k="ssr:stedsnr" v="795929" />
	</node>
	<node id="-482723" lat="60.6320916646" lon="5.59471111322">
		<tag k="fixme" v="consider natural=peak for the most distinct mountains in the district" />
		<tag k="name" v="Løtane" />
		<tag k="natural" v="hill" />
		<tag k="place" v="locality" />
		<tag k="ssr:stedsnr" v="795718" />
	</node>
	<node id="-482720" lat="60.5816055551" lon="5.51034722497">
		<tag k="name" v="Vetaskaret" />
		<tag k="natural" v="valley" />
		<tag k="place" v="locality" />
		<tag k="ssr:stedsnr" v="795587" />
	</node>
	<node id="-482719" lat="60.5929138876" lon="5.611905553">
		<tag k="fixme" v="consider natural=peak for the most distinct mountains in the district" />
		<tag k="name" v="Olgrøda" />
		<tag k="natural" v="hill" />
		<tag k="place" v="locality" />
		<tag k="ssr:stedsnr" v="795582" />
	</node>
	<node id="-482717" lat="60.5019611099" lon="5.43536943717">
		<tag k="name" v="Reigstadåsen" />
		<tag k="natural" v="hill" />
		<tag k="place" v="locality" />
		<tag k="ssr:stedsnr" v="795524" />
	</node>
	<node id="-482708" lat="60.5266416674" lon="5.39437499382">
		<tag k="fixme" v="consider natural=peak for the most distinct mountains in the district" />
		<tag k="name" v="Iseggene" />
		<tag k="natural" v="hill" />
		<tag k="place" v="locality" />
		<tag k="ssr:stedsnr" v="795432" />
	</node>
	<node id="-482707" lat="60.6951333375" lon="5.63524167327">
		<tag k="fixme" v="consider natural=peak for the most distinct mountains in the district" />
		<tag k="name" v="Bjørnakanten" />
		<tag k="natural" v="hill" />
		<tag k="place" v="locality" />
		<tag k="ssr:stedsnr" v="795422" />
	</node>
	<node id="-482705" lat="60.4953555585" lon="5.59859999532">
		<tag k="name" v="Innsetberget" />
		<tag k="natural" v="hill" />
		<tag k="place" v="locality" />
		<tag k="ssr:stedsnr" v="794991" />
	</node>
	<node id="-482703" lat="60.4729722211" lon="5.60359999455">
		<tag k="fixme" v="consider natural=peak for the most distinct mountains in the district" />
		<tag k="name" v="Grønfjellet" />
		<tag k="natural" v="hill" />
		<tag k="place" v="locality" />
		<tag k="ssr:stedsnr" v="794971" />
	</node>
	<node id="-482699" lat="60.4587527786" lon="5.59617222921">
		<tag k="fixme" v="consider natural=peak for the most distinct mountains in the district" />
		<tag k="name" v="Såtefjellet" />
		<tag k="natural" v="hill" />
		<tag k="place" v="locality" />
		<tag k="ssr:stedsnr" v="794013" />
	</node>
	<node id="-482696" lat="60.4751416636" lon="5.49032500364">
		<tag k="name" v="Turtendalen" />
		<tag k="natural" v="valley" />
		<tag k="place" v="locality" />
		<tag k="ssr:stedsnr" v="773849" />
	</node>
	<node id="-482695" lat="60.4713000008" lon="5.50094444748">
		<tag k="name" v="Blomdalsegga" />
		<tag k="natural" v="hill" />
		<tag k="place" v="locality" />
		<tag k="ssr:stedsnr" v="773847" />
	</node>
	<node id="-482694" lat="60.4584611131" lon="5.51508056284">
		<tag k="name" v="Stolen" />
		<tag k="place" v="locality" />
		<tag k="ssr:stedsnr" v="773836" />
	</node>
	<node id="-482693" lat="60.4709916634" lon="5.47935000845">
		<tag k="name" v="Årsegga" />
		<tag k="natural" v="hill" />
		<tag k="place" v="locality" />
		<tag k="ssr:stedsnr" v="773825" />
	</node>
	<node id="-482691" lat="60.5322500002" lon="5.44107777785">
		<tag k="fixme" v="consider natural=peak for the most distinct mountains in the district" />
		<tag k="name" v="Stølsåsen" />
		<tag k="natural" v="hill" />
		<tag k="place" v="locality" />
		<tag k="ssr:stedsnr" v="773817" />
	</node>
	<node id="-482689" lat="60.533886114" lon="5.38734445094">
		<tag k="name" v="Klompane" />
		<tag k="place" v="locality" />
		<tag k="ssr:stedsnr" v="773793" />
	</node>
	<node id="-482688" lat="60.4908361079" lon="5.42310556467">
		<tag k="name" v="Skiphammaren" />
		<tag k="natural" v="hill" />
		<tag k="place" v="locality" />
		<tag k="ssr:stedsnr" v="773785" />
	</node>
	<node id="-482687" lat="60.5242694472" lon="5.372500006">
		<tag k="fixme" v="consider natural=peak for the most distinct mountains in the district" />
		<tag k="name" v="Såta" />
		<tag k="natural" v="hill" />
		<tag k="place" v="locality" />
		<tag k="ssr:stedsnr" v="773777" />
	</node>
	<node id="-482686" lat="60.5356833374" lon="5.40771111411">
		<tag k="name" v="Storlia" />
		<tag k="natural" v="slope" />
		<tag k="place" v="locality" />
		<tag k="ssr:stedsnr" v="773769" />
	</node>
	<node id="-482685" lat="60.5350277805" lon="5.35114166225">
		<tag k="name" v="Ranen" />
		<tag k="place" v="locality" />
		<tag k="ssr:stedsnr" v="773748" />
	</node>
	<node id="-482684" lat="60.5163611147" lon="5.55436388883">
		<tag k="name" v="Vallfosshaugen" />
		<tag k="natural" v="hill" />
		<tag k="place" v="locality" />
		<tag k="ssr:stedsnr" v="773739" />
	</node>
	<node id="-482683" lat="60.5140805536" lon="5.54686111458">
		<tag k="name" v="Grønli" />
		<tag k="natural" v="slope" />
		<tag k="place" v="locality" />
		<tag k="ssr:stedsnr" v="773737" />
	</node>
	<node id="-482681" lat="60.5742999987" lon="5.46949722606">
		<tag k="fixme" v="consider natural=peak for the most distinct mountains in the district" />
		<tag k="name" v="Hoshovdåsen" />
		<tag k="natural" v="hill" />
		<tag k="place" v="locality" />
		<tag k="ssr:stedsnr" v="773723" />
	</node>
	<node id="-482680" lat="60.5682777749" lon="5.47363611937">
		<tag k="alt_name" v="Heldalsåsen" />
		<tag k="fixme" v="consider natural=peak for the most distinct mountains in the district" />
		<tag k="name" v="Helldalsåsen" />
		<tag k="natural" v="hill" />
		<tag k="place" v="locality" />
		<tag k="ssr:stedsnr" v="773720" />
	</node>
	<node id="-482679" lat="60.5042499966" lon="5.56818332674">
		<tag k="fixme" v="consider natural=peak for the most distinct mountains in the district" />
		<tag k="name" v="Bergsfjellet" />
		<tag k="natural" v="hill" />
		<tag k="place" v="locality" />
		<tag k="ssr:stedsnr" v="773702" />
	</node>
	<node id="-482678" lat="60.5204110381" lon="5.49021651486">
		<tag k="name" v="Særskarhaugen" />
		<tag k="natural" v="hill" />
		<tag k="place" v="locality" />
		<tag k="ssr:stedsnr" v="773666" />
	</node>
	<node id="-482677" lat="60.5308694426" lon="5.52068056368">
		<tag k="fixme" v="consider natural=peak for the most distinct mountains in the district" />
		<tag k="name" v="Fjellbruåsen" />
		<tag k="natural" v="hill" />
		<tag k="place" v="locality" />
		<tag k="ssr:stedsnr" v="773650" />
	</node>
	<node id="-482676" lat="60.4737888908" lon="5.53357499413">
		<tag k="name" v="Lonlia" />
		<tag k="natural" v="slope" />
		<tag k="place" v="locality" />
		<tag k="ssr:stedsnr" v="773648" />
	</node>
	<node id="-482675" lat="60.5368972182" lon="5.49598610855">
		<tag k="name" v="Litle Varden" />
		<tag k="natural" v="hill" />
		<tag k="place" v="locality" />
		<tag k="ssr:stedsnr" v="773643" />
	</node>
	<node id="-482674" lat="60.534466669" lon="5.49420834176">
		<tag k="fixme" v="consider natural=peak for the most distinct mountains in the district" />
		<tag k="name" v="Nonasfjellet" />
		<tag k="natural" v="hill" />
		<tag k="place" v="locality" />
		<tag k="ssr:stedsnr" v="773642" />
	</node>
	<node id="-482673" lat="60.5235354119" lon="5.51369425698">
		<tag k="name" v="Kjørrgrova" />
		<tag k="natural" v="hill" />
		<tag k="place" v="locality" />
		<tag k="ssr:stedsnr" v="773635" />
	</node>
	<node id="-482671" lat="60.4923611097" lon="5.53330555064">
		<tag k="name" v="Skredaberget" />
		<tag k="natural" v="hill" />
		<tag k="place" v="locality" />
		<tag k="ssr:stedsnr" v="773626" />
	</node>
	<node id="-482670" lat="60.4986694416" lon="5.55876944291">
		<tag k="name" v="Gråberget" />
		<tag k="natural" v="hill" />
		<tag k="place" v="locality" />
		<tag k="ssr:stedsnr" v="773614" />
	</node>
	<node id="-482669" lat="60.4909833311" lon="5.5530472186">
		<tag k="name" v="Kyrkjehaugen" />
		<tag k="natural" v="hill" />
		<tag k="place" v="locality" />
		<tag k="ssr:stedsnr" v="773612" />
	</node>
	<node id="-482667" lat="60.5193888881" lon="5.5895666658">
		<tag k="name" v="Langedalen" />
		<tag k="natural" v="valley" />
		<tag k="place" v="locality" />
		<tag k="ssr:stedsnr" v="773603" />
	</node>
	<node id="-482665" lat="60.503375" lon="5.62712221674">
		<tag k="name" v="Fredriksberg" />
		<tag k="natural" v="hill" />
		<tag k="place" v="locality" />
		<tag k="ssr:stedsnr" v="773588" />
	</node>
	<node id="-482664" lat="60.5220611153" lon="5.6493638907">
		<tag k="name" v="Heggebotnen" />
		<tag k="natural" v="valley" />
		<tag k="place" v="locality" />
		<tag k="ssr:stedsnr" v="773583" />
	</node>
	<node id="-482661" lat="60.4464722247" lon="5.60751110305">
		<tag k="name" v="Lebakken" />
		<tag k="natural" v="slope" />
		<tag k="place" v="locality" />
		<tag k="ssr:stedsnr" v="773521" />
	</node>
	<node id="-482658" lat="60.5450583337" lon="5.53837499338">
		<tag k="name" v="Ramberget" />
		<tag k="natural" v="hill" />
		<tag k="place" v="locality" />
		<tag k="ssr:stedsnr" v="773495" />
	</node>
	<node id="-482657" lat="60.5491777798" lon="5.50721943794">
		<tag k="name" v="Svenheimsnipa" />
		<tag k="natural" v="hill" />
		<tag k="place" v="locality" />
		<tag k="ssr:stedsnr" v="773493" />
	</node>
	<node id="-482656" lat="60.502327779" lon="5.44135277351">
		<tag k="name" v="Nedsterinden" />
		<tag k="natural" v="ridge" />
		<tag k="place" v="locality" />
		<tag k="ssr:stedsnr" v="773487" />
	</node>
	<node id="-482655" lat="60.4517111139" lon="5.50685833361">
		<tag k="name" v="Råka" />
		<tag k="place" v="locality" />
		<tag k="ssr:stedsnr" v="773472" />
	</node>
	<node id="-482654" lat="60.4542965737" lon="5.54198978329">
		<tag k="name" v="Kvanndalshaugen" />
		<tag k="natural" v="hill" />
		<tag k="place" v="locality" />
		<tag k="ssr:stedsnr" v="773469" />
	</node>
	<node id="-482653" lat="60.441519445" lon="5.52986945048">
		<tag k="name" v="Geila" />
		<tag k="natural" v="gorge" />
		<tag k="ssr:stedsnr" v="773468" />
	</node>
	<node id="-482652" lat="60.4549611098" lon="5.54477500362">
		<tag k="name" v="Sandbrekkena" />
		<tag k="natural" v="slope" />
		<tag k="place" v="locality" />
		<tag k="ssr:stedsnr" v="773456" />
	</node>
	<node id="-482650" lat="60.6559666651" lon="5.61517222769">
		<tag k="name" v="Furneshaugane" />
		<tag k="natural" v="hill" />
		<tag k="place" v="locality" />
		<tag k="ssr:stedsnr" v="773418" />
	</node>
	<node id="-482646" lat="60.5183166651" lon="5.4973833268">
		<tag k="name" v="Byrkjehjellen" />
		<tag k="natural" v="gorge" />
		<tag k="ssr:stedsnr" v="772739" />
	</node>
	<node id="-482642" lat="60.4971555524" lon="5.47931667307">
		<tag k="name" v="Sveigane" />
		<tag k="natural" v="valley" />
		<tag k="place" v="locality" />
		<tag k="ssr:stedsnr" v="772469" />
	</node>
	<node id="-482641" lat="60.4895111083" lon="5.51184999614">
		<tag k="name" v="Bjørnhei" />
		<tag k="place" v="locality" />
		<tag k="ssr:stedsnr" v="772456" />
	</node>
	<node id="-482637" lat="60.4816277776" lon="5.60125555965">
		<tag k="fixme" v="consider natural=peak for the most distinct mountains in the district" />
		<tag k="name" v="Vedafjellet" />
		<tag k="natural" v="hill" />
		<tag k="place" v="locality" />
		<tag k="ssr:stedsnr" v="734967" />
	</node>
	<node id="-482633" lat="60.4664833365" lon="5.50411944506">
		<tag k="fixme" v="consider natural=peak for the most distinct mountains in the district" />
		<tag k="name" v="Stemmesegga" />
		<tag k="natural" v="hill" />
		<tag k="place" v="locality" />
		<tag k="ssr:stedsnr" v="734947" />
	</node>
	<node id="-482632" lat="60.5145583301" lon="5.68730556147">
		<tag k="fixme" v="consider natural=peak for the most distinct mountains in the district" />
		<tag k="name" v="Skarvenipa" />
		<tag k="natural" v="hill" />
		<tag k="place" v="locality" />
		<tag k="ssr:stedsnr" v="734945" />
	</node>
	<node id="-482630" lat="60.5233777743" lon="5.5016638898">
		<tag k="name" v="Fugledalen" />
		<tag k="natural" v="valley" />
		<tag k="place" v="locality" />
		<tag k="ssr:stedsnr" v="734925" />
	</node>
	<node id="-482627" lat="60.6080944424" lon="5.56090277971">
		<tag k="name" v="Vassenden" />
		<tag k="place" v="locality" />
		<tag k="ssr:stedsnr" v="734747" />
	</node>
	<node id="-482626" lat="60.6078499981" lon="5.61500000228">
		<tag k="name" v="Botnabrekka" />
		<tag k="natural" v="slope" />
		<tag k="place" v="locality" />
		<tag k="ssr:stedsnr" v="734744" />
	</node>
	<node id="-482625" lat="60.5986000025" lon="5.59519166062">
		<tag k="name" v="Tyssedalen" />
		<tag k="natural" v="valley" />
		<tag k="place" v="locality" />
		<tag k="ssr:stedsnr" v="734742" />
	</node>
	<node id="-482624" lat="60.6292777792" lon="5.62584999205">
		<tag k="name" v="Stange" />
		<tag k="place" v="locality" />
		<tag k="ssr:stedsnr" v="734723" />
	</node>
	<node id="-482623" lat="60.6300555596" lon="5.58859722832">
		<tag k="name" v="Eike" />
		<tag k="natural" v="slope" />
		<tag k="place" v="locality" />
		<tag k="ssr:stedsnr" v="734720" />
	</node>
	<node id="-482620" lat="60.5841277738" lon="5.55756666079">
		<tag k="fixme" v="consider natural=peak for the most distinct mountains in the district" />
		<tag k="name" v="Løtveitfjellet" />
		<tag k="natural" v="hill" />
		<tag k="place" v="locality" />
		<tag k="ssr:stedsnr" v="734588" />
	</node>
	<node id="-482615" lat="60.5056694439" lon="5.45141943556">
		<tag k="name" v="Hestdalen" />
		<tag k="natural" v="valley" />
		<tag k="place" v="locality" />
		<tag k="ssr:stedsnr" v="734508" />
	</node>
	<node id="-482611" lat="60.7019611105" lon="5.6591555535">
		<tag k="alt_name" v="Vossalia" />
		<tag k="name" v="Vasslia" />
		<tag k="natural" v="slope" />
		<tag k="place" v="locality" />
		<tag k="ssr:stedsnr" v="734305" />
	</node>
	<node id="-482608" lat="60.4927000021" lon="5.63128332502">
		<tag k="fixme" v="consider natural=peak for the most distinct mountains in the district" />
		<tag k="name" v="Flatafjellet" />
		<tag k="natural" v="hill" />
		<tag k="place" v="locality" />
		<tag k="ssr:stedsnr" v="733973" />
	</node>
	<node id="-482607" lat="60.4876972198" lon="5.66072500208">
		<tag k="fixme" v="consider natural=peak for the most distinct mountains in the district" />
		<tag k="name" v="Hæddena" />
		<tag k="natural" v="hill" />
		<tag k="place" v="locality" />
		<tag k="ssr:stedsnr" v="733965" />
	</node>
	<node id="-482606" lat="60.4856222186" lon="5.63638889416">
		<tag k="fixme" v="consider natural=peak for the most distinct mountains in the district" />
		<tag k="name" v="Ørnatuva" />
		<tag k="natural" v="hill" />
		<tag k="place" v="locality" />
		<tag k="ssr:stedsnr" v="733959" />
	</node>
	<node id="-482605" lat="60.4849694431" lon="5.44466389757">
		<tag k="fixme" v="consider natural=peak for the most distinct mountains in the district" />
		<tag k="name" v="Hånipa" />
		<tag k="natural" v="hill" />
		<tag k="place" v="locality" />
		<tag k="ssr:stedsnr" v="733383" />
	</node>
	<node id="-482603" lat="60.4436888897" lon="5.54723888908">
		<tag k="alt_name" v="Hædna" />
		<tag k="fixme" v="consider natural=peak for the most distinct mountains in the district" />
		<tag k="name" v="Hæddena" />
		<tag k="natural" v="hill" />
		<tag k="place" v="locality" />
		<tag k="ssr:stedsnr" v="733030" />
	</node>
	<node id="-482602" lat="60.4517388847" lon="5.58933611812">
		<tag k="name" v="Vindstallane" />
		<tag k="natural" v="hill" />
		<tag k="place" v="locality" />
		<tag k="ssr:stedsnr" v="733024" />
	</node>
	<node id="-482591" lat="60.5398611129" lon="5.42158334187">
		<tag k="name" v="Kletten" />
		<tag k="natural" v="hill" />
		<tag k="place" v="locality" />
		<tag k="ssr:stedsnr" v="712822" />
	</node>
	<node id="-482587" lat="60.5398666624" lon="5.39516667474">
		<tag k="name" v="Mandalen" />
		<tag k="natural" v="valley" />
		<tag k="place" v="locality" />
		<tag k="ssr:stedsnr" v="712809" />
	</node>
	<node id="-482586" lat="60.4769472217" lon="5.46732777894">
		<tag k="name" v="Teigen" />
		<tag k="place" v="locality" />
		<tag k="ssr:stedsnr" v="712805" />
	</node>
	<node id="-482585" lat="60.4899944489" lon="5.43922222458">
		<tag k="fixme" v="consider natural=peak for the most distinct mountains in the district" />
		<tag k="name" v="Reigstadfjellet" />
		<tag k="natural" v="hill" />
		<tag k="place" v="locality" />
		<tag k="ssr:stedsnr" v="712802" />
	</node>
	<node id="-482584" lat="60.5391305548" lon="5.35478889722">
		<tag k="name" v="Skjenet" />
		<tag k="natural" v="hill" />
		<tag k="place" v="locality" />
		<tag k="ssr:stedsnr" v="712800" />
	</node>
	<node id="-482583" lat="60.527405553" lon="5.41090000082">
		<tag k="name" v="Stallane" />
		<tag k="place" v="locality" />
		<tag k="ssr:stedsnr" v="712798" />
	</node>
	<node id="-482582" lat="60.536291668" lon="5.4002666657">
		<tag k="name" v="Heiane" />
		<tag k="place" v="locality" />
		<tag k="ssr:stedsnr" v="712787" />
	</node>
	<node id="-482580" lat="60.5050194469" lon="5.47708333441">
		<tag k="name" v="Skarphaugen" />
		<tag k="natural" v="hill" />
		<tag k="place" v="locality" />
		<tag k="ssr:stedsnr" v="712728" />
	</node>
	<node id="-482577" lat="60.5089111071" lon="5.4705138877">
		<tag k="name" v="Krossen" />
		<tag k="place" v="locality" />
		<tag k="ssr:stedsnr" v="712689" />
	</node>
	<node id="-482575" lat="60.4951444442" lon="5.53556944167">
		<tag k="name" v="Torshaugen" />
		<tag k="natural" v="hill" />
		<tag k="place" v="locality" />
		<tag k="ssr:stedsnr" v="712636" />
	</node>
	<node id="-482574" lat="60.469238891" lon="5.57530833833">
		<tag k="name" v="Slåttena" />
		<tag k="place" v="locality" />
		<tag k="ssr:stedsnr" v="712633" />
	</node>
	<node id="-482573" lat="60.4880555585" lon="5.55698611749">
		<tag k="name" v="Ormahaugen" />
		<tag k="natural" v="hill" />
		<tag k="place" v="locality" />
		<tag k="ssr:stedsnr" v="712613" />
	</node>
	<node id="-482572" lat="60.4898555549" lon="5.534119448">
		<tag k="name" v="Nordaheia" />
		<tag k="place" v="locality" />
		<tag k="ssr:stedsnr" v="712611" />
	</node>
	<node id="-482570" lat="60.4858972237" lon="5.53289999112">
		<tag k="name" v="Gjelsetet" />
		<tag k="natural" v="gorge" />
		<tag k="ssr:stedsnr" v="712607" />
	</node>
	<node id="-482569" lat="60.4905333376" lon="5.53629999345">
		<tag k="name" v="Skyggehaugen" />
		<tag k="natural" v="hill" />
		<tag k="place" v="locality" />
		<tag k="ssr:stedsnr" v="712603" />
	</node>
	<node id="-482568" lat="60.5194111122" lon="5.66427223088">
		<tag k="name" v="Sætre" />
		<tag k="natural" v="hill" />
		<tag k="place" v="locality" />
		<tag k="ssr:stedsnr" v="712598" />
	</node>
	<node id="-482564" lat="60.5286527811" lon="5.59799167402">
		<tag k="name" v="Klalheldrane" />
		<tag k="place" v="locality" />
		<tag k="ssr:stedsnr" v="712574" />
	</node>
	<node id="-482563" lat="60.4914416694" lon="5.67508888027">
		<tag k="name" v="Tjønhaugen" />
		<tag k="natural" v="hill" />
		<tag k="place" v="locality" />
		<tag k="ssr:stedsnr" v="712558" />
	</node>
	<node id="-482562" lat="60.4962861102" lon="5.67748888222">
		<tag k="name" v="Botnabrekkena" />
		<tag k="natural" v="slope" />
		<tag k="place" v="locality" />
		<tag k="ssr:stedsnr" v="712556" />
	</node>
	<node id="-482561" lat="60.5369416655" lon="5.58432221728">
		<tag k="name" v="Espevold" />
		<tag k="natural" v="hill" />
		<tag k="place" v="locality" />
		<tag k="ssr:stedsnr" v="712535" />
	</node>
	<node id="-482559" lat="60.587044442" lon="5.57492777544">
		<tag k="name" v="Budalsskaret" />
		<tag k="natural" v="hill" />
		<tag k="place" v="locality" />
		<tag k="ssr:stedsnr" v="712514" />
	</node>
	<node id="-482558" lat="60.6076138863" lon="5.53142500077">
		<tag k="name" v="Rothaugen" />
		<tag k="natural" v="hill" />
		<tag k="place" v="locality" />
		<tag k="ssr:stedsnr" v="712502" />
	</node>
	<node id="-482557" lat="60.6090972232" lon="5.52294721839">
		<tag k="fixme" v="consider natural=peak for the most distinct mountains in the district" />
		<tag k="name" v="Heståsen" />
		<tag k="natural" v="hill" />
		<tag k="place" v="locality" />
		<tag k="ssr:stedsnr" v="712492" />
	</node>
	<node id="-482554" lat="60.4552805576" lon="5.5253638945">
		<tag k="name" v="Grjothaugen" />
		<tag k="natural" v="hill" />
		<tag k="place" v="locality" />
		<tag k="ssr:stedsnr" v="712476" />
	</node>
	<node id="-482553" lat="60.4500416651" lon="5.51678333202">
		<tag k="name" v="Kyrkjerinden" />
		<tag k="place" v="locality" />
		<tag k="ssr:stedsnr" v="712474" />
	</node>
	<node id="-482552" lat="60.4492138925" lon="5.52586110649">
		<tag k="fixme" v="consider natural=peak for the most distinct mountains in the district" />
		<tag k="name" v="Lyngåsen" />
		<tag k="natural" v="hill" />
		<tag k="place" v="locality" />
		<tag k="ssr:stedsnr" v="712472" />
	</node>
	<node id="-482551" lat="60.4434000031" lon="5.52379723091">
		<tag k="name" v="Tveitadalen" />
		<tag k="natural" v="valley" />
		<tag k="place" v="locality" />
		<tag k="ssr:stedsnr" v="712471" />
	</node>
	<node id="-482550" lat="60.4472777772" lon="5.56106666918">
		<tag k="name" v="Hoklahaugen" />
		<tag k="natural" v="hill" />
		<tag k="place" v="locality" />
		<tag k="ssr:stedsnr" v="712457" />
	</node>
	<node id="-482549" lat="60.4528277783" lon="5.567230564">
		<tag k="name" v="Varde" />
		<tag k="natural" v="hill" />
		<tag k="place" v="locality" />
		<tag k="ssr:stedsnr" v="712458" />
	</node>
	<node id="-482547" lat="60.666291669" lon="5.61945833957">
		<tag k="name" v="Kurova" />
		<tag k="natural" v="hill" />
		<tag k="place" v="locality" />
		<tag k="ssr:stedsnr" v="712404" />
	</node>
	<node id="-482545" lat="60.6954166639" lon="5.66067499791">
		<tag k="name" v="Vassliskaret" />
		<tag k="natural" v="hill" />
		<tag k="place" v="locality" />
		<tag k="ssr:stedsnr" v="712384" />
	</node>
	<node id="-482544" lat="60.5524555537" lon="5.46557222025">
		<tag k="name" v="Ran" />
		<tag k="place" v="locality" />
		<tag k="ssr:stedsnr" v="712366" />
	</node>
	<node id="-482542" lat="60.5162583335" lon="5.50085833203">
		<tag k="name" v="Frausdalen" />
		<tag k="natural" v="valley" />
		<tag k="place" v="locality" />
		<tag k="ssr:stedsnr" v="711742" />
	</node>
	<node id="-482540" lat="60.4991694442" lon="5.47553055202">
		<tag k="name" v="Gloppeskaret" />
		<tag k="natural" v="hill" />
		<tag k="place" v="locality" />
		<tag k="ssr:stedsnr" v="711734" />
	</node>
	<node id="-482539" lat="60.5254861118" lon="5.53295277391">
		<tag k="name" v="Svelia" />
		<tag k="natural" v="hill" />
		<tag k="place" v="locality" />
		<tag k="ssr:stedsnr" v="711720" />
	</node>
	<node id="-482537" lat="60.5304222256" lon="5.54900833502">
		<tag k="name" v="Marihjellane" />
		<tag k="natural" v="gorge" />
		<tag k="ssr:stedsnr" v="711695" />
	</node>
	<node id="-482534" lat="60.4776222244" lon="5.49319165828">
		<tag k="name" v="Setleitet" />
		<tag k="place" v="locality" />
		<tag k="ssr:stedsnr" v="711466" />
	</node>
	<node id="-482533" lat="60.4316083304" lon="5.52892778561">
		<tag k="name" v="Kalvehagen" />
		<tag k="place" v="locality" />
		<tag k="ssr:stedsnr" v="711464" />
	</node>
	<node id="-482528" lat="60.4924277776" lon="5.50925278145">
		<tag k="fixme" v="consider natural=peak for the most distinct mountains in the district" />
		<tag k="name" v="Kolgarinden" />
		<tag k="natural" v="hill" />
		<tag k="place" v="locality" />
		<tag k="ssr:stedsnr" v="711445" />
	</node>
	<node id="-482527" lat="60.4903277798" lon="5.51398333307">
		<tag k="name" v="Storhjellane" />
		<tag k="natural" v="gorge" />
		<tag k="ssr:stedsnr" v="711441" />
	</node>
	<node id="-482525" lat="60.4904055585" lon="5.45269443619">
		<tag k="name" v="Larsdalsrinden" />
		<tag k="natural" v="valley" />
		<tag k="place" v="locality" />
		<tag k="ssr:stedsnr" v="711325" />
	</node>
	<node id="-482524" lat="60.5199138877" lon="5.46609166747">
		<tag k="name" v="Kollhaugane" />
		<tag k="natural" v="hill" />
		<tag k="place" v="locality" />
		<tag k="ssr:stedsnr" v="711302" />
	</node>
	<node id="-482521" lat="60.5563388912" lon="5.46318611215">
		<tag k="name" v="Krosshaugen" />
		<tag k="natural" v="hill" />
		<tag k="place" v="locality" />
		<tag k="ssr:stedsnr" v="674390" />
	</node>
	<node id="-482518" lat="60.4900261205" lon="5.67370672117">
		<tag k="name" v="Trollskaret" />
		<tag k="natural" v="valley" />
		<tag k="place" v="locality" />
		<tag k="ssr:stedsnr" v="673970" />
	</node>
	<node id="-482513" lat="60.5114500022" lon="5.54003056115">
		<tag k="name" v="Skaret" />
		<tag k="natural" v="valley" />
		<tag k="place" v="locality" />
		<tag k="ssr:stedsnr" v="673952" />
	</node>
	<node id="-482510" lat="60.5317750036" lon="5.64868888729">
		<tag k="alt_name" v="Rispingadalen" />
		<tag k="name" v="Rispingdalen" />
		<tag k="natural" v="valley" />
		<tag k="place" v="locality" />
		<tag k="ssr:stedsnr" v="673932" />
	</node>
	<node id="-482509" lat="60.6078500011" lon="5.59176667447">
		<tag k="fixme" v="consider natural=peak for the most distinct mountains in the district" />
		<tag k="name" v="Sørkletten" />
		<tag k="natural" v="hill" />
		<tag k="place" v="locality" />
		<tag k="ssr:stedsnr" v="673731" />
	</node>
	<node id="-482508" lat="60.6649888866" lon="5.64267777425">
		<tag k="alt_name" v="Barlindbotten" />
		<tag k="name" v="Barlindbotnen" />
		<tag k="natural" v="valley" />
		<tag k="place" v="locality" />
		<tag k="ssr:stedsnr" v="673656" />
	</node>
	<node id="-482503" lat="60.5750111131" lon="5.48820833875">
		<tag k="name" v="Fløyen" />
		<tag k="natural" v="slope" />
		<tag k="place" v="locality" />
		<tag k="ssr:stedsnr" v="673567" />
	</node>
	<node id="-482499" lat="60.5260722206" lon="5.45113611624">
		<tag k="name" v="Høgheia" />
		<tag k="natural" v="hill" />
		<tag k="place" v="locality" />
		<tag k="ssr:stedsnr" v="673508" />
	</node>
	<node id="-482491" lat="60.4470749998" lon="5.51173889617">
		<tag k="alt_name" v="Åseimfjellet" />
		<tag k="fixme" v="consider natural=peak for the most distinct mountains in the district" />
		<tag k="name" v="Åsheimfjellet" />
		<tag k="natural" v="hill" />
		<tag k="place" v="locality" />
		<tag k="ssr:stedsnr" v="672025" />
	</node>
	<node id="-482489" lat="60.5436722227" lon="5.39175278089">
		<tag k="fixme" v="consider natural=peak for the most distinct mountains in the district" />
		<tag k="name" v="Snaufjellet" />
		<tag k="natural" v="hill" />
		<tag k="place" v="locality" />
		<tag k="ssr:stedsnr" v="651873" />
	</node>
	<node id="-482488" lat="60.4626194428" lon="5.51368332586">
		<tag k="name" v="Skitnaskaret" />
		<tag k="natural" v="hill" />
		<tag k="place" v="locality" />
		<tag k="ssr:stedsnr" v="651871" />
	</node>
	<node id="-482486" lat="60.5283999969" lon="5.42758055707">
		<tag k="name" v="Horsåsnyta" />
		<tag k="place" v="locality" />
		<tag k="ssr:stedsnr" v="651845" />
	</node>
	<node id="-482485" lat="60.524705558" lon="5.4246666633">
		<tag k="name" v="Røskelandsberget" />
		<tag k="natural" v="hill" />
		<tag k="place" v="locality" />
		<tag k="ssr:stedsnr" v="651842" />
	</node>
	<node id="-482484" lat="60.540508337" lon="5.42793055814">
		<tag k="name" v="Hålandsdalen" />
		<tag k="natural" v="valley" />
		<tag k="place" v="locality" />
		<tag k="ssr:stedsnr" v="651838" />
	</node>
	<node id="-482479" lat="60.5641777813" lon="5.46318888189">
		<tag k="fixme" v="consider natural=peak for the most distinct mountains in the district" />
		<tag k="name" v="Fjellet" />
		<tag k="natural" v="hill" />
		<tag k="place" v="locality" />
		<tag k="ssr:stedsnr" v="651818" />
	</node>
	<node id="-482478" lat="60.4737416651" lon="5.4554777836">
		<tag k="name" v="Grønbrekkena" />
		<tag k="natural" v="slope" />
		<tag k="place" v="locality" />
		<tag k="ssr:stedsnr" v="651814" />
	</node>
	<node id="-482476" lat="60.4908861137" lon="5.43389166286">
		<tag k="fixme" v="consider natural=peak for the most distinct mountains in the district" />
		<tag k="name" v="Nedre Fjellet" />
		<tag k="natural" v="hill" />
		<tag k="place" v="locality" />
		<tag k="ssr:stedsnr" v="651809" />
	</node>
	<node id="-482473" lat="60.5335305527" lon="5.4064055543">
		<tag k="name" v="Høgehjellane" />
		<tag k="natural" v="hill" />
		<tag k="place" v="locality" />
		<tag k="ssr:stedsnr" v="651793" />
	</node>
	<node id="-482470" lat="60.5799999987" lon="5.51009167249">
		<tag k="name" v="Fitjadalen" />
		<tag k="natural" v="valley" />
		<tag k="place" v="locality" />
		<tag k="ssr:stedsnr" v="651748" />
	</node>
	<node id="-482469" lat="60.4997499969" lon="5.54277500384">
		<tag k="name" v="Skohaugen" />
		<tag k="natural" v="hill" />
		<tag k="place" v="locality" />
		<tag k="ssr:stedsnr" v="651733" />
	</node>
	<node id="-482468" lat="60.5166388852" lon="5.47931666493">
		<tag k="name" v="Gjela" />
		<tag k="natural" v="gorge" />
		<tag k="ssr:stedsnr" v="651707" />
	</node>
	<node id="-482467" lat="60.5301222254" lon="5.57018889167">
		<tag k="name" v="Kyrhovden" />
		<tag k="natural" v="hill" />
		<tag k="old_name" v="Kjyrhovden" />
		<tag k="place" v="locality" />
		<tag k="ssr:stedsnr" v="651675" />
	</node>
	<node id="-482466" lat="60.5319805568" lon="5.50689165895">
		<tag k="fixme" v="consider natural=peak for the most distinct mountains in the district" />
		<tag k="name" v="Åsdalskant" />
		<tag k="natural" v="hill" />
		<tag k="place" v="locality" />
		<tag k="ssr:stedsnr" v="651662" />
	</node>
	<node id="-482465" lat="60.476658329" lon="5.55503333637">
		<tag k="fixme" v="consider natural=peak for the most distinct mountains in the district" />
		<tag k="name" v="Litunåsen" />
		<tag k="natural" v="hill" />
		<tag k="place" v="locality" />
		<tag k="ssr:stedsnr" v="651657" />
	</node>
	<node id="-482464" lat="60.4742472181" lon="5.56552500874">
		<tag k="name" v="Rishaugen" />
		<tag k="natural" v="hill" />
		<tag k="place" v="locality" />
		<tag k="ssr:stedsnr" v="651649" />
	</node>
	<node id="-482463" lat="60.4752666663" lon="5.56881388245">
		<tag k="fixme" v="consider natural=peak for the most distinct mountains in the district" />
		<tag k="name" v="Garlia" />
		<tag k="natural" v="hill" />
		<tag k="place" v="locality" />
		<tag k="ssr:stedsnr" v="651648" />
	</node>
	<node id="-482462" lat="60.4939249997" lon="5.53107778054">
		<tag k="fixme" v="consider natural=peak for the most distinct mountains in the district" />
		<tag k="name" v="Åsen" />
		<tag k="natural" v="hill" />
		<tag k="place" v="locality" />
		<tag k="ssr:stedsnr" v="651641" />
	</node>
	<node id="-482461" lat="60.5203416664" lon="5.60626666286">
		<tag k="fixme" v="consider natural=peak for the most distinct mountains in the district" />
		<tag k="name" v="Geitnipa" />
		<tag k="natural" v="hill" />
		<tag k="place" v="locality" />
		<tag k="ssr:stedsnr" v="651634" />
	</node>
	<node id="-482460" lat="60.5204611117" lon="5.64020556368">
		<tag k="fixme" v="consider natural=peak for the most distinct mountains in the district" />
		<tag k="name" v="Høgåsen" />
		<tag k="natural" v="hill" />
		<tag k="place" v="locality" />
		<tag k="ssr:stedsnr" v="651624" />
	</node>
	<node id="-482459" lat="60.5150611081" lon="5.61826388195">
		<tag k="name" v="Revurstallane" />
		<tag k="natural" v="hill" />
		<tag k="place" v="locality" />
		<tag k="ssr:stedsnr" v="651620" />
	</node>
	<node id="-482457" lat="60.4967611127" lon="5.66800277824">
		<tag k="name" v="Båtaleitshaugen" />
		<tag k="natural" v="hill" />
		<tag k="place" v="locality" />
		<tag k="ssr:stedsnr" v="651603" />
	</node>
	<node id="-482451" lat="60.445205554" lon="5.51760833561">
		<tag k="name" v="Middagshaugen" />
		<tag k="natural" v="hill" />
		<tag k="place" v="locality" />
		<tag k="ssr:stedsnr" v="651506" />
	</node>
	<node id="-482450" lat="60.5037138899" lon="5.65223054653">
		<tag k="fixme" v="consider natural=peak for the most distinct mountains in the district" />
		<tag k="name" v="Kupena" />
		<tag k="natural" v="hill" />
		<tag k="place" v="locality" />
		<tag k="ssr:stedsnr" v="651453" />
	</node>
	<node id="-482448" lat="60.5802194423" lon="5.57616111235">
		<tag k="fixme" v="consider natural=peak for the most distinct mountains in the district" />
		<tag k="name" v="Skarfjelllet" />
		<tag k="natural" v="hill" />
		<tag k="place" v="locality" />
		<tag k="ssr:stedsnr" v="651404" />
	</node>
	<node id="-482446" lat="60.5128583374" lon="5.41683333794">
		<tag k="name" v="Eikhaugen" />
		<tag k="natural" v="hill" />
		<tag k="place" v="locality" />
		<tag k="ssr:stedsnr" v="651393" />
	</node>
	<node id="-482444" lat="60.5180500021" lon="5.5021027747">
		<tag k="name" v="Hestahjellen" />
		<tag k="place" v="locality" />
		<tag k="ssr:stedsnr" v="650721" />
	</node>
	<node id="-482443" lat="60.5142027765" lon="5.5029499932">
		<tag k="name" v="Fatnaplasset" />
		<tag k="natural" v="hill" />
		<tag k="place" v="locality" />
		<tag k="ssr:stedsnr" v="650714" />
	</node>
	<node id="-482442" lat="60.5224333345" lon="5.54343610853">
		<tag k="name" v="Jonsdalen" />
		<tag k="natural" v="valley" />
		<tag k="place" v="locality" />
		<tag k="ssr:stedsnr" v="650699" />
	</node>
	<node id="-482441" lat="60.5243055599" lon="5.53124166855">
		<tag k="name" v="Vassbotnane" />
		<tag k="natural" v="valley" />
		<tag k="place" v="locality" />
		<tag k="ssr:stedsnr" v="650692" />
	</node>
	<node id="-482440" lat="60.5012472208" lon="5.50630277921">
		<tag k="name" v="Storhammaren" />
		<tag k="natural" v="hill" />
		<tag k="place" v="locality" />
		<tag k="ssr:stedsnr" v="650684" />
	</node>
	<node id="-482439" lat="60.5175027797" lon="5.51327222917">
		<tag k="name" v="Støldalen" />
		<tag k="natural" v="valley" />
		<tag k="place" v="locality" />
		<tag k="ssr:stedsnr" v="650676" />
	</node>
	<node id="-482437" lat="60.4316916682" lon="5.5337027701">
		<tag k="name" v="Einhaugen" />
		<tag k="natural" v="hill" />
		<tag k="place" v="locality" />
		<tag k="ssr:stedsnr" v="650433" />
	</node>
	<node id="-482436" lat="60.4944972235" lon="5.49992221449">
		<tag k="name" v="Geitstigen" />
		<tag k="place" v="locality" />
		<tag k="ssr:stedsnr" v="650424" />
	</node>
	<node id="-482435" lat="60.4968361138" lon="5.505394445">
		<tag k="name" v="Kletten" />
		<tag k="natural" v="hill" />
		<tag k="place" v="locality" />
		<tag k="ssr:stedsnr" v="650423" />
	</node>
	<node id="-482434" lat="60.5171109447" lon="5.4085117179">
		<tag k="name" v="Sædalen" />
		<tag k="natural" v="valley" />
		<tag k="place" v="locality" />
		<tag k="ssr:stedsnr" v="650284" />
	</node>
	<node id="-482433" lat="60.524286112" lon="5.63216389262">
		<tag k="name" v="Kalltrehaugen" />
		<tag k="natural" v="hill" />
		<tag k="place" v="locality" />
		<tag k="ssr:stedsnr" v="650271" />
	</node>
	<node id="-482432" lat="60.4451111068" lon="5.60302500235">
		<tag k="name" v="Erdalen" />
		<tag k="natural" v="valley" />
		<tag k="place" v="locality" />
		<tag k="ssr:stedsnr" v="650255" />
	</node>
	<node id="-482428" lat="60.5320083314" lon="5.47140278534">
		<tag k="name" v="Randberget" />
		<tag k="natural" v="hill" />
		<tag k="place" v="locality" />
		<tag k="ssr:stedsnr" v="613888" />
	</node>
	<node id="-482425" lat="60.5419638898" lon="5.43445000778">
		<tag k="fixme" v="consider natural=peak for the most distinct mountains in the district" />
		<tag k="name" v="Orratuva" />
		<tag k="natural" v="hill" />
		<tag k="place" v="locality" />
		<tag k="ssr:stedsnr" v="613411" />
	</node>
	<node id="-482423" lat="60.5347000036" lon="5.36012776883">
		<tag k="name" v="Sveivane" />
		<tag k="natural" v="hill" />
		<tag k="place" v="locality" />
		<tag k="ssr:stedsnr" v="613395" />
	</node>
	<node id="-482422" lat="60.689588891" lon="5.65682499416">
		<tag k="fixme" v="consider natural=peak for the most distinct mountains in the district" />
		<tag k="name" v="Fløyfjellet" />
		<tag k="natural" v="hill" />
		<tag k="place" v="locality" />
		<tag k="ssr:stedsnr" v="613380" />
	</node>
	<node id="-482419" lat="60.496013891" lon="5.54003055301">
		<tag k="name" v="Presttunåsen" />
		<tag k="natural" v="hill" />
		<tag k="place" v="locality" />
		<tag k="ssr:stedsnr" v="612980" />
	</node>
	<node id="-482404" lat="60.5941111137" lon="5.65587499499">
		<tag k="fixme" v="consider natural=peak for the most distinct mountains in the district" />
		<tag k="name" v="Litlafjellet" />
		<tag k="natural" v="hill" />
		<tag k="place" v="locality" />
		<tag k="ssr:stedsnr" v="612556" />
	</node>
	<node id="-482392" lat="60.4696999972" lon="5.49561945342">
		<tag k="name" v="Tjørnaleitet" />
		<tag k="place" v="locality" />
		<tag k="ssr:stedsnr" v="591868" />
	</node>
	<node id="-482391" lat="60.4632166655" lon="5.52559721337">
		<tag k="name" v="Setstølen" />
		<tag k="natural" v="hill" />
		<tag k="place" v="locality" />
		<tag k="ssr:stedsnr" v="591861" />
	</node>
	<node id="-482389" lat="60.4922833375" lon="5.56710834005">
		<tag k="name" v="Klypet" />
		<tag k="natural" v="hill" />
		<tag k="place" v="locality" />
		<tag k="ssr:stedsnr" v="591852" />
	</node>
	<node id="-482387" lat="60.4618888922" lon="5.47661666816">
		<tag k="name" v="Nausthaugen" />
		<tag k="natural" v="hill" />
		<tag k="place" v="locality" />
		<tag k="ssr:stedsnr" v="591845" />
	</node>
	<node id="-482385" lat="60.5312805536" lon="5.43484722957">
		<tag k="name" v="Hasane" />
		<tag k="place" v="locality" />
		<tag k="ssr:stedsnr" v="591823" />
	</node>
	<node id="-482384" lat="60.566100004" lon="5.45983611544">
		<tag k="fixme" v="consider natural=peak for the most distinct mountains in the district" />
		<tag k="name" v="Litleåsen" />
		<tag k="natural" v="hill" />
		<tag k="place" v="locality" />
		<tag k="ssr:stedsnr" v="591807" />
	</node>
	<node id="-482383" lat="60.5321500029" lon="5.39208054781">
		<tag k="name" v="Varden" />
		<tag k="natural" v="hill" />
		<tag k="place" v="locality" />
		<tag k="ssr:stedsnr" v="591803" />
	</node>
	<node id="-482380" lat="60.535866671" lon="5.3553888845">
		<tag k="fixme" v="consider natural=peak for the most distinct mountains in the district" />
		<tag k="name" v="Aasen" />
		<tag k="natural" v="hill" />
		<tag k="place" v="locality" />
		<tag k="ssr:stedsnr" v="591785" />
	</node>
	<node id="-482379" lat="60.5383277774" lon="5.37624999214">
		<tag k="name" v="Sandalsrinden" />
		<tag k="natural" v="hill" />
		<tag k="place" v="locality" />
		<tag k="ssr:stedsnr" v="591776" />
	</node>
	<node id="-482378" lat="60.5653944426" lon="5.48732500048">
		<tag k="name" v="Trolshovden" />
		<tag k="place" v="locality" />
		<tag k="ssr:stedsnr" v="591721" />
	</node>
	<node id="-482377" lat="60.5058166698" lon="5.47457500302">
		<tag k="name" v="Kollhaugen" />
		<tag k="natural" v="hill" />
		<tag k="place" v="locality" />
		<tag k="ssr:stedsnr" v="591718" />
	</node>
	<node id="-482376" lat="60.5024361094" lon="5.4735805486">
		<tag k="name" v="Skytjebakken" />
		<tag k="natural" v="slope" />
		<tag k="place" v="locality" />
		<tag k="ssr:stedsnr" v="591715" />
	</node>
	<node id="-482375" lat="60.5094694426" lon="5.54500555088">
		<tag k="name" v="Nonskaret" />
		<tag k="natural" v="hill" />
		<tag k="place" v="locality" />
		<tag k="ssr:stedsnr" v="591708" />
	</node>
	<node id="-482374" lat="60.5111722242" lon="5.54241110556">
		<tag k="name" v="Varuskaret" />
		<tag k="natural" v="hill" />
		<tag k="place" v="locality" />
		<tag k="ssr:stedsnr" v="591706" />
	</node>
	<node id="-482373" lat="60.508675003" lon="5.54609166322">
		<tag k="fixme" v="consider natural=peak for the most distinct mountains in the district" />
		<tag k="name" v="Furuåsen" />
		<tag k="natural" v="hill" />
		<tag k="place" v="locality" />
		<tag k="ssr:stedsnr" v="591702" />
	</node>
	<node id="-482372" lat="60.507550002" lon="5.54316110391">
		<tag k="name" v="Sessane" />
		<tag k="natural" v="hill" />
		<tag k="place" v="locality" />
		<tag k="ssr:stedsnr" v="591703" />
	</node>
	<node id="-482371" lat="60.5149750013" lon="5.47987222683">
		<tag k="fixme" v="consider natural=peak for the most distinct mountains in the district" />
		<tag k="name" v="Stuttåsen" />
		<tag k="natural" v="hill" />
		<tag k="place" v="locality" />
		<tag k="ssr:stedsnr" v="591690" />
	</node>
	<node id="-482370" lat="60.4950722215" lon="5.55216389555">
		<tag k="name" v="Varland" />
		<tag k="place" v="locality" />
		<tag k="ssr:stedsnr" v="591615" />
	</node>
	<node id="-482367" lat="60.5059000033" lon="5.638808333">
		<tag k="fixme" v="consider natural=peak for the most distinct mountains in the district" />
		<tag k="name" v="Lunnekleiva" />
		<tag k="natural" v="hill" />
		<tag k="place" v="locality" />
		<tag k="ssr:stedsnr" v="591581" />
	</node>
	<node id="-482366" lat="60.5007194419" lon="5.63543610455">
		<tag k="name" v="Kollhaugane" />
		<tag k="natural" v="hill" />
		<tag k="place" v="locality" />
		<tag k="ssr:stedsnr" v="591579" />
	</node>
	<node id="-482365" lat="60.5235027752" lon="5.67571389087">
		<tag k="name" v="Kvernhushaug" />
		<tag k="natural" v="hill" />
		<tag k="place" v="locality" />
		<tag k="ssr:stedsnr" v="591578" />
	</node>
	<node id="-482364" lat="60.5349611129" lon="5.65404722796">
		<tag k="fixme" v="consider natural=peak for the most distinct mountains in the district" />
		<tag k="name" v="Stolfjellet" />
		<tag k="natural" v="hill" />
		<tag k="place" v="locality" />
		<tag k="ssr:stedsnr" v="591572" />
	</node>
	<node id="-482363" lat="60.5281638907" lon="5.60488333035">
		<tag k="fixme" v="consider natural=peak for the most distinct mountains in the district" />
		<tag k="name" v="Sakslikleiva" />
		<tag k="natural" v="hill" />
		<tag k="place" v="locality" />
		<tag k="ssr:stedsnr" v="591569" />
	</node>
	<node id="-482362" lat="60.4608000018" lon="5.62812222059">
		<tag k="name" v="Merkjesura" />
		<tag k="natural" v="hill" />
		<tag k="place" v="locality" />
		<tag k="ssr:stedsnr" v="591565" />
	</node>
	<node id="-482361" lat="60.4894861139" lon="5.68216944945">
		<tag k="name" v="Langedalen" />
		<tag k="natural" v="valley" />
		<tag k="place" v="locality" />
		<tag k="ssr:stedsnr" v="591556" />
	</node>
	<node id="-482360" lat="60.4638666706" lon="5.58954722946">
		<tag k="name" v="Såtabrekkena" />
		<tag k="natural" v="slope" />
		<tag k="place" v="locality" />
		<tag k="ssr:stedsnr" v="591555" />
	</node>
	<node id="-482359" lat="60.4864277747" lon="5.65761389047">
		<tag k="name" v="Middagshaugen" />
		<tag k="natural" v="hill" />
		<tag k="place" v="locality" />
		<tag k="ssr:stedsnr" v="591548" />
	</node>
	<node id="-482357" lat="60.4836555516" lon="5.59715555285">
		<tag k="name" v="Skoddberget" />
		<tag k="natural" v="hill" />
		<tag k="place" v="locality" />
		<tag k="ssr:stedsnr" v="591544" />
	</node>
	<node id="-482355" lat="60.4482111111" lon="5.60172777774">
		<tag k="name" v="Stokkura" />
		<tag k="natural" v="hill" />
		<tag k="place" v="locality" />
		<tag k="ssr:stedsnr" v="591533" />
	</node>
	<node id="-482353" lat="60.5874333375" lon="5.49319999641">
		<tag k="name" v="Svarteberget" />
		<tag k="natural" v="hill" />
		<tag k="place" v="locality" />
		<tag k="ssr:stedsnr" v="591515" />
	</node>
	<node id="-482351" lat="60.6118388854" lon="5.56139445006">
		<tag k="name" v="Høgehaugen" />
		<tag k="natural" v="hill" />
		<tag k="place" v="locality" />
		<tag k="ssr:stedsnr" v="591508" />
	</node>
	<node id="-482349" lat="60.5615027762" lon="5.50121388558">
		<tag k="name" v="Tåna" />
		<tag k="place" v="locality" />
		<tag k="ssr:stedsnr" v="591497" />
	</node>
	<node id="-482347" lat="60.5062944413" lon="5.64484721548">
		<tag k="name" v="Sjunarhaugen" />
		<tag k="natural" v="hill" />
		<tag k="place" v="locality" />
		<tag k="ssr:stedsnr" v="591419" />
	</node>
	<node id="-482346" lat="60.6528250013" lon="5.62898055388">
		<tag k="name" v="Grasdalen" />
		<tag k="natural" v="valley" />
		<tag k="place" v="locality" />
		<tag k="ssr:stedsnr" v="591394" />
	</node>
	<node id="-482345" lat="60.6540944421" lon="5.65361111699">
		<tag k="name" v="Høgenipo" />
		<tag k="natural" v="hill" />
		<tag k="place" v="locality" />
		<tag k="ssr:stedsnr" v="591392" />
	</node>
	<node id="-482342" lat="60.5234555555" lon="5.47266667397">
		<tag k="name" v="Fløya Svena" />
		<tag k="place" v="locality" />
		<tag k="ssr:stedsnr" v="590694" />
	</node>
	<node id="-482341" lat="60.5310027751" lon="5.54089444831">
		<tag k="name" v="Botnen" />
		<tag k="natural" v="valley" />
		<tag k="place" v="locality" />
		<tag k="ssr:stedsnr" v="590687" />
	</node>
	<node id="-482340" lat="60.5218166681" lon="5.49328056087">
		<tag k="name" v="Nauststallen" />
		<tag k="natural" v="hill" />
		<tag k="place" v="locality" />
		<tag k="ssr:stedsnr" v="590681" />
	</node>
	<node id="-482337" lat="60.4636027734" lon="5.55581666839">
		<tag k="name" v="Viddalen" />
		<tag k="natural" v="valley" />
		<tag k="place" v="locality" />
		<tag k="ssr:stedsnr" v="590654" />
	</node>
	<node id="-482336" lat="60.458144449" lon="5.54597778544">
		<tag k="name" v="Kvernhushola" />
		<tag k="place" v="locality" />
		<tag k="ssr:stedsnr" v="590653" />
	</node>
	<node id="-482332" lat="60.516483337" lon="5.48177500006">
		<tag k="name" v="Lindhamrane" />
		<tag k="natural" v="hill" />
		<tag k="place" v="locality" />
		<tag k="ssr:stedsnr" v="589716" />
	</node>
	<node id="-482331" lat="60.5280694425" lon="5.54401944804">
		<tag k="name" v="Kletten" />
		<tag k="natural" v="hill" />
		<tag k="place" v="locality" />
		<tag k="ssr:stedsnr" v="589682" />
	</node>
	<node id="-482326" lat="60.4918833339" lon="5.45966944186">
		<tag k="name" v="Kleivelandsrinden" />
		<tag k="natural" v="hill" />
		<tag k="place" v="locality" />
		<tag k="ssr:stedsnr" v="589310" />
	</node>
	<node id="-482325" lat="60.513944442" lon="5.41326110839">
		<tag k="name" v="Molsteindalen" />
		<tag k="natural" v="valley" />
		<tag k="place" v="locality" />
		<tag k="ssr:stedsnr" v="589309" />
	</node>
	<node id="-482321" lat="60.5206499966" lon="5.60575554931">
		<tag k="fixme" v="consider natural=peak for the most distinct mountains in the district" />
		<tag k="name" v="Geitnipa" />
		<tag k="natural" v="hill" />
		<tag k="place" v="locality" />
		<tag k="ssr:stedsnr" v="552982" />
	</node>
	<node id="-482319" lat="60.5111249961" lon="5.58914444321">
		<tag k="name" v="Londalen" />
		<tag k="natural" v="valley" />
		<tag k="place" v="locality" />
		<tag k="ssr:stedsnr" v="552969" />
	</node>
	<node id="-482318" lat="60.5337750028" lon="5.67180832964">
		<tag k="fixme" v="consider natural=peak for the most distinct mountains in the district" />
		<tag k="name" v="Rispingen" />
		<tag k="natural" v="hill" />
		<tag k="place" v="locality" />
		<tag k="ssr:stedsnr" v="552937" />
	</node>
	<node id="-482317" lat="60.5419749989" lon="5.58870555078">
		<tag k="name" v="Raudberget" />
		<tag k="natural" v="hill" />
		<tag k="place" v="locality" />
		<tag k="ssr:stedsnr" v="552909" />
	</node>
	<node id="-482316" lat="60.5325250004" lon="5.51052500109">
		<tag k="fixme" v="consider natural=peak for the most distinct mountains in the district" />
		<tag k="name" v="Åsen" />
		<tag k="natural" v="hill" />
		<tag k="place" v="locality" />
		<tag k="ssr:stedsnr" v="552903" />
	</node>
	<node id="-482310" lat="60.6000999963" lon="5.62769445112">
		<tag k="fixme" v="consider natural=peak for the most distinct mountains in the district" />
		<tag k="name" v="Helldalsfjellet" />
		<tag k="natural" v="hill" />
		<tag k="place" v="locality" />
		<tag k="ssr:stedsnr" v="552584" />
	</node>
	<node id="-482307" lat="60.5537472222" lon="5.40155832772">
		<tag k="name" v="Hjellvikknappen" />
		<tag k="natural" v="hill" />
		<tag k="place" v="locality" />
		<tag k="ssr:stedsnr" v="552470" />
	</node>
	<node id="-482302" lat="60.4966555574" lon="5.52391110429">
		<tag k="name" v="Kyrhovden" />
		<tag k="natural" v="hill" />
		<tag k="place" v="locality" />
		<tag k="ssr:stedsnr" v="551991" />
	</node>
	<node id="-482300" lat="60.5280194487" lon="5.47853056345">
		<tag k="fixme" v="consider natural=peak for the most distinct mountains in the district" />
		<tag k="name" v="Geitaryggen" />
		<tag k="natural" v="hill" />
		<tag k="place" v="locality" />
		<tag k="ssr:stedsnr" v="551927" />
	</node>
	<node id="-482297" lat="60.5803416642" lon="5.50178332633">
		<tag k="fixme" v="consider natural=peak for the most distinct mountains in the district" />
		<tag k="name" v="Åsheimveten" />
		<tag k="natural" v="hill" />
		<tag k="place" v="locality" />
		<tag k="ssr:stedsnr" v="551521" />
	</node>
	<node id="-482296" lat="60.5908416633" lon="5.5810083263">
		<tag k="fixme" v="consider natural=peak for the most distinct mountains in the district" />
		<tag k="name" v="Klubben" />
		<tag k="natural" v="hill" />
		<tag k="place" v="locality" />
		<tag k="ssr:stedsnr" v="551514" />
	</node>
	<node id="-482295" lat="60.5258694473" lon="5.37188056397">
		<tag k="fixme" v="consider natural=peak for the most distinct mountains in the district" />
		<tag k="name" v="Fårikken" />
		<tag k="natural" v="hill" />
		<tag k="place" v="locality" />
		<tag k="ssr:stedsnr" v="551362" />
	</node>
	<node id="-482293" lat="60.4528222226" lon="5.56853610272">
		<tag k="name" v="Haverdalen" />
		<tag k="natural" v="valley" />
		<tag k="place" v="locality" />
		<tag k="ssr:stedsnr" v="551012" />
	</node>
	<node id="-482290" lat="60.5119138893" lon="5.59818056409">
		<tag k="fixme" v="consider natural=peak for the most distinct mountains in the district" />
		<tag k="name" v="Låstadkletten" />
		<tag k="natural" v="hill" />
		<tag k="old_name" v="Litlandskollen" />
		<tag k="place" v="locality" />
		<tag k="ssr:stedsnr" v="533637" />
	</node>
	<node id="-482286" lat="60.4607055579" lon="5.51276943779">
		<tag k="name" v="Kleivadalane" />
		<tag k="natural" v="valley" />
		<tag k="place" v="locality" />
		<tag k="ssr:stedsnr" v="530861" />
	</node>
	<node id="-482285" lat="60.5423750007" lon="5.37086388505">
		<tag k="name" v="Rinden" />
		<tag k="place" v="locality" />
		<tag k="ssr:stedsnr" v="530826" />
	</node>
	<node id="-482284" lat="60.5195555583" lon="5.38441666317">
		<tag k="name" v="Hylgjane" />
		<tag k="place" v="locality" />
		<tag k="ssr:stedsnr" v="530821" />
	</node>
	<node id="-482283" lat="60.5206194413" lon="5.40003611536">
		<tag k="fixme" v="consider natural=peak for the most distinct mountains in the district" />
		<tag k="name" v="Brattfjellet" />
		<tag k="natural" v="hill" />
		<tag k="place" v="locality" />
		<tag k="ssr:stedsnr" v="530807" />
	</node>
	<node id="-482281" lat="60.5381944487" lon="5.36614165784">
		<tag k="name" v="Longedalen" />
		<tag k="natural" v="valley" />
		<tag k="place" v="locality" />
		<tag k="ssr:stedsnr" v="530801" />
	</node>
	<node id="-482280" lat="60.5257750041" lon="5.3752916725">
		<tag k="fixme" v="consider natural=peak for the most distinct mountains in the district" />
		<tag k="name" v="Eikelandsfjell" />
		<tag k="natural" v="hill" />
		<tag k="place" v="locality" />
		<tag k="ssr:stedsnr" v="530794" />
	</node>
	<node id="-482279" lat="60.5364138852" lon="5.40463611028">
		<tag k="name" v="Trodalen" />
		<tag k="natural" v="valley" />
		<tag k="place" v="locality" />
		<tag k="ssr:stedsnr" v="530784" />
	</node>
	<node id="-482278" lat="60.4912972221" lon="5.44743888825">
		<tag k="name" v="Bjørnskaret" />
		<tag k="natural" v="hill" />
		<tag k="place" v="locality" />
		<tag k="ssr:stedsnr" v="530768" />
	</node>
	<node id="-482276" lat="60.4853500028" lon="5.47206944773">
		<tag k="name" v="Jædbærdalen" />
		<tag k="natural" v="valley" />
		<tag k="place" v="locality" />
		<tag k="ssr:stedsnr" v="530754" />
	</node>
	<node id="-482275" lat="60.5128666623" lon="5.50641110424">
		<tag k="name" v="Egga" />
		<tag k="place" v="locality" />
		<tag k="ssr:stedsnr" v="530728" />
	</node>
	<node id="-482274" lat="60.4762611149" lon="5.54459999346">
		<tag k="name" v="Stemmelia" />
		<tag k="natural" v="slope" />
		<tag k="place" v="locality" />
		<tag k="ssr:stedsnr" v="530675" />
	</node>
	<node id="-482273" lat="60.4909527735" lon="5.54753611765">
		<tag k="name" v="Likskarvet" />
		<tag k="natural" v="hill" />
		<tag k="place" v="locality" />
		<tag k="ssr:stedsnr" v="530665" />
	</node>
	<node id="-482272" lat="60.4626583293" lon="5.54854444965">
		<tag k="name" v="Tingtunteigen" />
		<tag k="place" v="locality" />
		<tag k="ssr:stedsnr" v="530656" />
	</node>
	<node id="-482271" lat="60.4563361118" lon="5.56692499754">
		<tag k="name" v="Havrådalen" />
		<tag k="natural" v="valley" />
		<tag k="place" v="locality" />
		<tag k="ssr:stedsnr" v="530655" />
	</node>
	<node id="-482270" lat="60.4852138933" lon="5.54636944157">
		<tag k="name" v="Grønskaret" />
		<tag k="natural" v="hill" />
		<tag k="place" v="locality" />
		<tag k="ssr:stedsnr" v="530651" />
	</node>
	<node id="-482269" lat="60.4932472201" lon="5.52788888412">
		<tag k="name" v="Storhovden" />
		<tag k="natural" v="hill" />
		<tag k="place" v="locality" />
		<tag k="ssr:stedsnr" v="530643" />
	</node>
	<node id="-482268" lat="60.487738893" lon="5.53339722258">
		<tag k="name" v="Træena" />
		<tag k="place" v="locality" />
		<tag k="ssr:stedsnr" v="530637" />
	</node>
	<node id="-482266" lat="60.5130305546" lon="5.61829166821">
		<tag k="name" v="Kjeipen" />
		<tag k="natural" v="hill" />
		<tag k="place" v="locality" />
		<tag k="ssr:stedsnr" v="530628" />
	</node>
	<node id="-482265" lat="60.5219638905" lon="5.6976194417">
		<tag k="name" v="Blekastallen" />
		<tag k="natural" v="hill" />
		<tag k="place" v="locality" />
		<tag k="ssr:stedsnr" v="530625" />
	</node>
	<node id="-482264" lat="60.5261138873" lon="5.63942222389">
		<tag k="name" v="Mitlihauane" />
		<tag k="natural" v="hill" />
		<tag k="place" v="locality" />
		<tag k="ssr:stedsnr" v="530621" />
	</node>
	<node id="-482263" lat="60.5290555555" lon="5.62464999805">
		<tag k="name" v="Dragebotnane" />
		<tag k="natural" v="valley" />
		<tag k="place" v="locality" />
		<tag k="ssr:stedsnr" v="530617" />
	</node>
	<node id="-482261" lat="60.4766638924" lon="5.69001111527">
		<tag k="name" v="Håhaugen" />
		<tag k="natural" v="hill" />
		<tag k="place" v="locality" />
		<tag k="ssr:stedsnr" v="530605" />
	</node>
	<node id="-482260" lat="60.4857527783" lon="5.68268611188">
		<tag k="name" v="Utløhaugen" />
		<tag k="natural" v="hill" />
		<tag k="place" v="locality" />
		<tag k="ssr:stedsnr" v="530599" />
	</node>
	<node id="-482258" lat="60.4908250015" lon="5.60403889215">
		<tag k="name" v="Vokhaugane" />
		<tag k="natural" v="hill" />
		<tag k="place" v="locality" />
		<tag k="ssr:stedsnr" v="530589" />
	</node>
	<node id="-482256" lat="60.4552777804" lon="5.6025194359">
		<tag k="name" v="Rivenes" />
		<tag k="place" v="locality" />
		<tag k="ssr:stedsnr" v="530568" />
	</node>
	<node id="-482255" lat="60.5919777783" lon="5.56202500199">
		<tag k="name" v="Budalsbråta" />
		<tag k="natural" v="hill" />
		<tag k="place" v="locality" />
		<tag k="ssr:stedsnr" v="530555" />
	</node>
	<node id="-482251" lat="60.5027555559" lon="5.42514721692">
		<tag k="name" v="Tingstadbakken" />
		<tag k="natural" v="slope" />
		<tag k="place" v="locality" />
		<tag k="ssr:stedsnr" v="530521" />
	</node>
	<node id="-482250" lat="60.5059777745" lon="5.41385555509">
		<tag k="name" v="Heiæ" />
		<tag k="place" v="locality" />
		<tag k="ssr:stedsnr" v="530517" />
	</node>
	<node id="-482249" lat="60.4505750006" lon="5.54346388999">
		<tag k="name" v="Årbitshaugen" />
		<tag k="natural" v="hill" />
		<tag k="place" v="locality" />
		<tag k="ssr:stedsnr" v="530501" />
	</node>
	<node id="-482248" lat="60.441433335" lon="5.57348888266">
		<tag k="name" v="Smørdalen" />
		<tag k="natural" v="valley" />
		<tag k="place" v="locality" />
		<tag k="ssr:stedsnr" v="530496" />
	</node>
	<node id="-482243" lat="60.5038833287" lon="5.50865554796">
		<tag k="name" v="Kvitkleiva" />
		<tag k="place" v="locality" />
		<tag k="ssr:stedsnr" v="529712" />
	</node>
	<node id="-482242" lat="60.4956888862" lon="5.4738277771">
		<tag k="name" v="Slåttedalen" />
		<tag k="natural" v="valley" />
		<tag k="place" v="locality" />
		<tag k="ssr:stedsnr" v="529454" />
	</node>
	<node id="-482241" lat="60.4960305513" lon="5.48062777744">
		<tag k="name" v="Dyrbotsskaret" />
		<tag k="natural" v="hill" />
		<tag k="place" v="locality" />
		<tag k="ssr:stedsnr" v="529440" />
	</node>
	<node id="-482239" lat="60.4918055571" lon="5.45636111688">
		<tag k="name" v="Stemedalen" />
		<tag k="natural" v="valley" />
		<tag k="place" v="locality" />
		<tag k="ssr:stedsnr" v="529279" />
	</node>
	<node id="-482237" lat="60.5401194457" lon="5.55331110948">
		<tag k="name" v="Rudalen" />
		<tag k="natural" v="valley" />
		<tag k="place" v="locality" />
		<tag k="ssr:stedsnr" v="492878" />
	</node>
	<node id="-482235" lat="60.5130250016" lon="5.67432222641">
		<tag k="name" v="Djupedalen" />
		<tag k="natural" v="valley" />
		<tag k="place" v="locality" />
		<tag k="ssr:stedsnr" v="492023" />
	</node>
	<node id="-482232" lat="60.4904388901" lon="5.69643332704">
		<tag k="fixme" v="consider natural=peak for the most distinct mountains in the district" />
		<tag k="name" v="Olsnesnipa" />
		<tag k="natural" v="hill" />
		<tag k="place" v="locality" />
		<tag k="ssr:stedsnr" v="491967" />
	</node>
	<node id="-482231" lat="60.519025004" lon="5.5682250076">
		<tag k="fixme" v="consider natural=peak for the most distinct mountains in the district" />
		<tag k="name" v="Bjørnsfjellet" />
		<tag k="natural" v="hill" />
		<tag k="place" v="locality" />
		<tag k="ssr:stedsnr" v="491965" />
	</node>
	<node id="-482229" lat="60.4700333299" lon="5.51287222361">
		<tag k="fixme" v="consider natural=peak for the most distinct mountains in the district" />
		<tag k="name" v="Rødlandsfjellet" />
		<tag k="natural" v="hill" />
		<tag k="place" v="locality" />
		<tag k="ssr:stedsnr" v="491961" />
	</node>
	<node id="-482226" lat="60.5135777802" lon="5.50561944665">
		<tag k="fixme" v="consider natural=peak for the most distinct mountains in the district" />
		<tag k="name" v="Heiane" />
		<tag k="natural" v="hill" />
		<tag k="place" v="locality" />
		<tag k="ssr:stedsnr" v="491952" />
	</node>
	<node id="-482225" lat="60.5072861124" lon="5.5316166724">
		<tag k="fixme" v="consider natural=peak for the most distinct mountains in the district" />
		<tag k="name" v="Heggelia" />
		<tag k="natural" v="hill" />
		<tag k="place" v="locality" />
		<tag k="ssr:stedsnr" v="491947" />
	</node>
	<node id="-482212" lat="60.5322361092" lon="5.41708333479">
		<tag k="name" v="Tveitaskaret" />
		<tag k="natural" v="valley" />
		<tag k="place" v="locality" />
		<tag k="ssr:stedsnr" v="491403" />
	</node>
	<node id="-482208" lat="60.4822555513" lon="5.51691111267">
		<tag k="fixme" v="consider natural=peak for the most distinct mountains in the district" />
		<tag k="name" v="Hjertåsen" />
		<tag k="natural" v="hill" />
		<tag k="place" v="locality" />
		<tag k="ssr:stedsnr" v="490976" />
	</node>
	<node id="-482207" lat="60.4842418909" lon="5.65159358734">
		<tag k="fixme" v="consider natural=peak for the most distinct mountains in the district" />
		<tag k="name" v="Brøknipa" />
		<tag k="natural" v="hill" />
		<tag k="ssr:stedsnr" v="490974" />
	</node>
	<node id="-482206" lat="60.4501611092" lon="5.55875833183">
		<tag k="alt_name" v="Haklene" />
		<tag k="fixme" v="consider natural=peak for the most distinct mountains in the district" />
		<tag k="name" v="Hoklane" />
		<tag k="natural" v="hill" />
		<tag k="place" v="locality" />
		<tag k="ssr:stedsnr" v="490024" />
	</node>
	<node id="-482205" lat="60.5158527796" lon="5.52402777261">
		<tag k="name" v="Rymla" />
		<tag k="place" v="locality" />
		<tag k="ssr:stedsnr" v="485014" />
	</node>
	<node id="-482202" lat="60.5346305565" lon="5.42019166027">
		<tag k="name" v="Burhaugen" />
		<tag k="natural" v="hill" />
		<tag k="place" v="locality" />
		<tag k="ssr:stedsnr" v="470838" />
	</node>
	<node id="-482200" lat="60.4838250022" lon="5.54684721397">
		<tag k="name" v="Mjådalen" />
		<tag k="natural" v="valley" />
		<tag k="place" v="locality" />
		<tag k="ssr:stedsnr" v="470759" />
	</node>
	<node id="-482197" lat="60.5257472212" lon="5.63434721436">
		<tag k="fixme" v="consider natural=peak for the most distinct mountains in the district" />
		<tag k="name" v="Åsane" />
		<tag k="natural" v="hill" />
		<tag k="place" v="locality" />
		<tag k="ssr:stedsnr" v="470589" />
	</node>
	<node id="-482196" lat="60.4588888934" lon="5.61735277889">
		<tag k="name" v="Trollskaret" />
		<tag k="natural" v="hill" />
		<tag k="place" v="locality" />
		<tag k="ssr:stedsnr" v="470586" />
	</node>
	<node id="-482194" lat="60.4714027765" lon="5.62910832752">
		<tag k="name" v="Skrubbedalen" />
		<tag k="natural" v="valley" />
		<tag k="place" v="locality" />
		<tag k="ssr:stedsnr" v="470576" />
	</node>
	<node id="-482193" lat="60.4723277786" lon="5.62595278457">
		<tag k="fixme" v="consider natural=peak for the most distinct mountains in the district" />
		<tag k="name" v="Hovden" />
		<tag k="natural" v="hill" />
		<tag k="place" v="locality" />
		<tag k="ssr:stedsnr" v="470575" />
	</node>
	<node id="-482190" lat="60.6108500043" lon="5.5373805463">
		<tag k="name" v="Drangeberget" />
		<tag k="natural" v="hill" />
		<tag k="place" v="locality" />
		<tag k="ssr:stedsnr" v="470523" />
	</node>
	<node id="-482188" lat="60.4746305517" lon="5.49734722186">
		<tag k="name" v="Setlia" />
		<tag k="natural" v="slope" />
		<tag k="place" v="locality" />
		<tag k="ssr:stedsnr" v="469877" />
	</node>
	<node id="-482186" lat="60.5262527767" lon="5.45040554949">
		<tag k="name" v="Svena" />
		<tag k="natural" v="hill" />
		<tag k="place" v="locality" />
		<tag k="ssr:stedsnr" v="469839" />
	</node>
	<node id="-482183" lat="60.5236222188" lon="5.37551944283">
		<tag k="name" v="Sædalen" />
		<tag k="natural" v="valley" />
		<tag k="place" v="locality" />
		<tag k="ssr:stedsnr" v="469804" />
	</node>
	<node id="-482182" lat="60.5276888872" lon="5.36294445216">
		<tag k="name" v="Nobba" />
		<tag k="natural" v="hill" />
		<tag k="place" v="locality" />
		<tag k="ssr:stedsnr" v="469801" />
	</node>
	<node id="-482180" lat="60.5258972188" lon="5.55567222537">
		<tag k="name" v="Stemmeleitet" />
		<tag k="place" v="locality" />
		<tag k="ssr:stedsnr" v="469694" />
	</node>
	<node id="-482179" lat="60.482622225" lon="5.53735555936">
		<tag k="fixme" v="consider natural=peak for the most distinct mountains in the district" />
		<tag k="name" v="Troppsåsen" />
		<tag k="natural" v="hill" />
		<tag k="place" v="locality" />
		<tag k="ssr:stedsnr" v="469649" />
	</node>
	<node id="-482177" lat="60.5015805553" lon="5.44658888338">
		<tag k="name" v="Trossdalen" />
		<tag k="natural" v="valley" />
		<tag k="place" v="locality" />
		<tag k="ssr:stedsnr" v="469535" />
	</node>
	<node id="-482176" lat="60.4488749991" lon="5.55415554704">
		<tag k="fixme" v="consider natural=peak for the most distinct mountains in the district" />
		<tag k="name" v="Stegane" />
		<tag k="natural" v="hill" />
		<tag k="place" v="locality" />
		<tag k="ssr:stedsnr" v="469519" />
	</node>
	<node id="-482175" lat="60.4453527814" lon="5.53678888497">
		<tag k="name" v="Setleitet" />
		<tag k="place" v="locality" />
		<tag k="ssr:stedsnr" v="469514" />
	</node>
	<node id="-482174" lat="60.5017555541" lon="5.64514167522">
		<tag k="name" v="Settleite" />
		<tag k="place" v="locality" />
		<tag k="ssr:stedsnr" v="469485" />
	</node>
	<node id="-482168" lat="60.6419444437" lon="5.61161666619">
		<tag k="name" v="Kleivelandsdalen" />
		<tag k="natural" v="valley" />
		<tag k="place" v="locality" />
		<tag k="ssr:stedsnr" v="469434" />
	</node>
	<node id="-482167" lat="60.6358166687" lon="5.60102777277">
		<tag k="name" v="Halsane" />
		<tag k="place" v="locality" />
		<tag k="ssr:stedsnr" v="469432" />
	</node>
	<node id="-482161" lat="60.5194305534" lon="5.49563332841">
		<tag k="name" v="Leitet" />
		<tag k="place" v="locality" />
		<tag k="ssr:stedsnr" v="468721" />
	</node>
	<node id="-482160" lat="60.5188833323" lon="5.48908888728">
		<tag k="name" v="Klyvet" />
		<tag k="natural" v="hill" />
		<tag k="place" v="locality" />
		<tag k="ssr:stedsnr" v="468716" />
	</node>
	<node id="-482159" lat="60.5060305554" lon="5.52187222648">
		<tag k="name" v="Nepegardstangen" />
		<tag k="natural" v="hill" />
		<tag k="place" v="locality" />
		<tag k="ssr:stedsnr" v="468696" />
	</node>
	<node id="-482158" lat="60.5234694482" lon="5.54973889172">
		<tag k="name" v="Skreppa" />
		<tag k="place" v="locality" />
		<tag k="ssr:stedsnr" v="468680" />
	</node>
	<node id="-482157" lat="60.4935611094" lon="5.70765278061">
		<tag k="name" v="Lasken" />
		<tag k="place" v="locality" />
		<tag k="ssr:stedsnr" v="468666" />
	</node>
	<node id="-482155" lat="60.482872225" lon="5.47585833978">
		<tag k="fixme" v="consider natural=peak for the most distinct mountains in the district" />
		<tag k="name" v="Erstad" />
		<tag k="natural" v="hill" />
		<tag k="place" v="locality" />
		<tag k="ssr:stedsnr" v="468425" />
	</node>
	<node id="-482154" lat="60.4950638912" lon="5.49787499873">
		<tag k="name" v="Einliskaret" />
		<tag k="natural" v="hill" />
		<tag k="place" v="locality" />
		<tag k="ssr:stedsnr" v="468414" />
	</node>
	<node id="-482153" lat="60.4934749989" lon="5.50013888745">
		<tag k="fixme" v="consider natural=peak for the most distinct mountains in the district" />
		<tag k="name" v="Rindakletten" />
		<tag k="natural" v="hill" />
		<tag k="place" v="locality" />
		<tag k="ssr:stedsnr" v="468410" />
	</node>
	<node id="-482150" lat="60.5190305525" lon="5.59443889731">
		<tag k="fixme" v="consider natural=peak for the most distinct mountains in the district" />
		<tag k="name" v="Nuken" />
		<tag k="natural" v="hill" />
		<tag k="place" v="locality" />
		<tag k="ssr:stedsnr" v="431970" />
	</node>
	<node id="-482143" lat="60.5348002508" lon="5.56456467542">
		<tag k="fixme" v="consider natural=peak for the most distinct mountains in the district" />
		<tag k="name" v="Rotten" />
		<tag k="natural" v="hill" />
		<tag k="place" v="locality" />
		<tag k="ssr:stedsnr" v="431896" />
	</node>
	<node id="-482142" lat="60.5337249984" lon="5.54985277653">
		<tag k="fixme" v="consider natural=peak for the most distinct mountains in the district" />
		<tag k="name" v="Fitjabruna" />
		<tag k="natural" v="hill" />
		<tag k="place" v="locality" />
		<tag k="ssr:stedsnr" v="431895" />
	</node>
	<node id="-482141" lat="60.6090249963" lon="5.603891673">
		<tag k="name" v="Austerlii" />
		<tag k="natural" v="slope" />
		<tag k="place" v="locality" />
		<tag k="ssr:stedsnr" v="431757" />
	</node>
	<node id="-482135" lat="60.5896333351" lon="5.49329166786">
		<tag k="name" v="Nordlia" />
		<tag k="natural" v="slope" />
		<tag k="place" v="locality" />
		<tag k="ssr:stedsnr" v="431566" />
	</node>
	<node id="-482132" lat="60.5268444425" lon="5.42913054738">
		<tag k="fixme" v="consider natural=peak for the most distinct mountains in the district" />
		<tag k="name" v="Horsåsfjellet" />
		<tag k="natural" v="hill" />
		<tag k="place" v="locality" />
		<tag k="ssr:stedsnr" v="431536" />
	</node>
	<node id="-482119" lat="60.551119441" lon="5.40018611169">
		<tag k="name" v="Langheia" />
		<tag k="natural" v="slope" />
		<tag k="place" v="locality" />
		<tag k="ssr:stedsnr" v="415452" />
	</node>
	<node id="-482118" lat="60.5201250022" lon="5.57640277176">
		<tag k="fixme" v="consider natural=peak for the most distinct mountains in the district" />
		<tag k="name" v="Skolmen" />
		<tag k="natural" v="hill" />
		<tag k="place" v="locality" />
		<tag k="ssr:stedsnr" v="249973" />
	</node>
	<node id="-482117" lat="60.5248777767" lon="5.6271555574">
		<tag k="name" v="Storhaugen" />
		<tag k="natural" v="hill" />
		<tag k="place" v="locality" />
		<tag k="ssr:stedsnr" v="249968" />
	</node>
	<node id="-482113" lat="60.5344333306" lon="5.49483333737">
		<tag k="fixme" v="consider natural=peak for the most distinct mountains in the district" />
		<tag k="name" v="Nunnåsfjellet" />
		<tag k="natural" v="hill" />
		<tag k="place" v="locality" />
		<tag k="ssr:stedsnr" v="249879" />
	</node>
	<node id="-482112" lat="60.531483329" lon="5.57086389308">
		<tag k="name" v="Njåstadleitet" />
		<tag k="natural" v="hill" />
		<tag k="place" v="locality" />
		<tag k="ssr:stedsnr" v="249869" />
	</node>
	<node id="-482102" lat="60.5446250016" lon="5.39293334153">
		<tag k="name" v="Teppstadnuken" />
		<tag k="natural" v="hill" />
		<tag k="place" v="locality" />
		<tag k="ssr:stedsnr" v="249402" />
	</node>
	<node id="-482099" lat="60.4764361108" lon="5.48767500336">
		<tag k="name" v="Askelandsdalen" />
		<tag k="natural" v="valley" />
		<tag k="place" v="locality" />
		<tag k="ssr:stedsnr" v="248968" />
	</node>
	<node id="-482098" lat="60.4609805579" lon="5.54104999273">
		<tag k="fixme" v="consider natural=peak for the most distinct mountains in the district" />
		<tag k="name" v="Vindåsen" />
		<tag k="natural" v="hill" />
		<tag k="place" v="locality" />
		<tag k="ssr:stedsnr" v="248958" />
	</node>
	<node id="-482096" lat="60.5262361149" lon="5.59331667058">
		<tag k="alt_name" v="Olshovden, austre" />
		<tag k="name" v="Austre Olshovden" />
		<tag k="natural" v="hill" />
		<tag k="place" v="locality" />
		<tag k="ssr:stedsnr" v="248935" />
	</node>
	<node id="-482094" lat="60.582116671" lon="5.48549999913">
		<tag k="name" v="Åsheimdalen" />
		<tag k="natural" v="valley" />
		<tag k="place" v="locality" />
		<tag k="ssr:stedsnr" v="248541" />
	</node>
	<node id="-482093" lat="60.5939805565" lon="5.56676944187">
		<tag k="name" v="Budalen" />
		<tag k="natural" v="valley" />
		<tag k="place" v="locality" />
		<tag k="ssr:stedsnr" v="248534" />
	</node>
	<node id="-482089" lat="60.4456916664" lon="5.59073610798">
		<tag k="fixme" v="consider natural=peak for the most distinct mountains in the district" />
		<tag k="name" v="Kjeringhaugen" />
		<tag k="natural" v="hill" />
		<tag k="place" v="locality" />
		<tag k="ssr:stedsnr" v="248016" />
	</node>
	<node id="-482088" lat="60.4604583342" lon="5.57115278635">
		<tag k="fixme" v="consider natural=peak for the most distinct mountains in the district" />
		<tag k="name" v="Heståsen" />
		<tag k="natural" v="hill" />
		<tag k="place" v="locality" />
		<tag k="ssr:stedsnr" v="248014" />
	</node>
	<node id="-482084" lat="60.4880222213" lon="5.56271666953">
		<tag k="name" v="Tjuvaholet" />
		<tag k="place" v="locality" />
		<tag k="ssr:stedsnr" v="227848" />
	</node>
	<node id="-482081" lat="60.4846694482" lon="5.44023333403">
		<tag k="name" v="Yksnaberget" />
		<tag k="natural" v="hill" />
		<tag k="place" v="locality" />
		<tag k="ssr:stedsnr" v="227809" />
	</node>
	<node id="-482080" lat="60.4915055537" lon="5.43595555036">
		<tag k="name" v="Varden" />
		<tag k="natural" v="hill" />
		<tag k="place" v="locality" />
		<tag k="ssr:stedsnr" v="227806" />
	</node>
	<node id="-482078" lat="60.5376277796" lon="5.36066945004">
		<tag k="name" v="Hammarskaret" />
		<tag k="natural" v="hill" />
		<tag k="place" v="locality" />
		<tag k="ssr:stedsnr" v="227801" />
	</node>
	<node id="-482077" lat="60.5361638924" lon="5.38159722888">
		<tag k="name" v="Storskaret" />
		<tag k="natural" v="hill" />
		<tag k="place" v="locality" />
		<tag k="ssr:stedsnr" v="227788" />
	</node>
	<node id="-482076" lat="60.4916333319" lon="5.44641389457">
		<tag k="name" v="Reigstaddalen" />
		<tag k="natural" v="valley" />
		<tag k="place" v="locality" />
		<tag k="ssr:stedsnr" v="227763" />
	</node>
	<node id="-482075" lat="60.4769222228" lon="5.70269721454">
		<tag k="fixme" v="consider natural=peak for the most distinct mountains in the district" />
		<tag k="name" v="Nipa" />
		<tag k="natural" v="hill" />
		<tag k="place" v="locality" />
		<tag k="ssr:stedsnr" v="227748" />
	</node>
	<node id="-482074" lat="60.5083472234" lon="5.53100834043">
		<tag k="name" v="Hesthaugane" />
		<tag k="natural" v="hill" />
		<tag k="place" v="locality" />
		<tag k="ssr:stedsnr" v="227740" />
	</node>
	<node id="-482073" lat="60.514577778" lon="5.56012500045">
		<tag k="name" v="Antunkvilet" />
		<tag k="place" v="locality" />
		<tag k="ssr:stedsnr" v="227719" />
	</node>
	<node id="-482072" lat="60.4685194429" lon="5.53892499466">
		<tag k="name" v="Gongerinden" />
		<tag k="natural" v="hill" />
		<tag k="place" v="locality" />
		<tag k="ssr:stedsnr" v="227655" />
	</node>
	<node id="-482070" lat="60.4900555578" lon="5.55720833806">
		<tag k="name" v="Krossen" />
		<tag k="natural" v="hill" />
		<tag k="place" v="locality" />
		<tag k="ssr:stedsnr" v="227617" />
	</node>
	<node id="-482069" lat="60.5020999974" lon="5.58659999202">
		<tag k="name" v="Storlia" />
		<tag k="natural" v="slope" />
		<tag k="place" v="locality" />
		<tag k="ssr:stedsnr" v="227610" />
	</node>
	<node id="-482068" lat="60.5246194446" lon="5.66805277474">
		<tag k="name" v="Kvernhusdalen" />
		<tag k="natural" v="valley" />
		<tag k="place" v="locality" />
		<tag k="ssr:stedsnr" v="227603" />
	</node>
	<node id="-482067" lat="60.5370861103" lon="5.64119722317">
		<tag k="fixme" v="consider natural=peak for the most distinct mountains in the district" />
		<tag k="name" v="Olshovden" />
		<tag k="natural" v="hill" />
		<tag k="place" v="locality" />
		<tag k="ssr:stedsnr" v="227597" />
	</node>
	<node id="-482064" lat="60.491691671" lon="5.68803888758">
		<tag k="name" v="Statsberget" />
		<tag k="natural" v="hill" />
		<tag k="place" v="locality" />
		<tag k="ssr:stedsnr" v="227576" />
	</node>
	<node id="-482063" lat="60.4876861124" lon="5.69341389303">
		<tag k="name" v="Litlasåta" />
		<tag k="natural" v="hill" />
		<tag k="place" v="locality" />
		<tag k="ssr:stedsnr" v="227570" />
	</node>
	<node id="-482062" lat="60.4856499996" lon="5.60366666405">
		<tag k="name" v="Storelia" />
		<tag k="natural" v="slope" />
		<tag k="place" v="locality" />
		<tag k="ssr:stedsnr" v="227565" />
	</node>
	<node id="-482061" lat="60.4943972235" lon="5.6119583316">
		<tag k="name" v="Svartaberget" />
		<tag k="natural" v="hill" />
		<tag k="place" v="locality" />
		<tag k="ssr:stedsnr" v="227559" />
	</node>
	<node id="-482060" lat="60.4773777746" lon="5.58495276933">
		<tag k="name" v="Urane" />
		<tag k="natural" v="hill" />
		<tag k="place" v="locality" />
		<tag k="ssr:stedsnr" v="227556" />
	</node>
	<node id="-482059" lat="60.4408638903" lon="5.60537222672">
		<tag k="name" v="Kjindalen" />
		<tag k="natural" v="valley" />
		<tag k="place" v="locality" />
		<tag k="ssr:stedsnr" v="227548" />
	</node>
	<node id="-482057" lat="60.4471833316" lon="5.53873889252">
		<tag k="fixme" v="consider natural=peak for the most distinct mountains in the district" />
		<tag k="name" v="Tiråsen" />
		<tag k="natural" v="hill" />
		<tag k="place" v="locality" />
		<tag k="ssr:stedsnr" v="227492" />
	</node>
	<node id="-482056" lat="60.4403277739" lon="5.54212777273">
		<tag k="fixme" v="consider natural=peak for the most distinct mountains in the district" />
		<tag k="name" v="Egga" />
		<tag k="natural" v="hill" />
		<tag k="place" v="locality" />
		<tag k="ssr:stedsnr" v="227486" />
	</node>
	<node id="-482053" lat="60.5437416672" lon="5.59834722091">
		<tag k="name" v="Bukkaberget" />
		<tag k="natural" v="hill" />
		<tag k="place" v="locality" />
		<tag k="ssr:stedsnr" v="227437" />
	</node>
	<node id="-482052" lat="60.6580388923" lon="5.62915000029">
		<tag k="name" v="Klendalen" />
		<tag k="natural" v="valley" />
		<tag k="place" v="locality" />
		<tag k="ssr:stedsnr" v="227427" />
	</node>
	<node id="-482048" lat="60.5618416704" lon="5.46120832498">
		<tag k="fixme" v="consider natural=peak for the most distinct mountains in the district" />
		<tag k="name" v="Fjellskafjellet" />
		<tag k="natural" v="hill" />
		<tag k="place" v="locality" />
		<tag k="ssr:stedsnr" v="227379" />
	</node>
	<node id="-482047" lat="60.5134833291" lon="5.4218805483">
		<tag k="name" v="Gråberget" />
		<tag k="natural" v="hill" />
		<tag k="place" v="locality" />
		<tag k="ssr:stedsnr" v="227375" />
	</node>
	<node id="-482046" lat="60.5148666709" lon="5.49864444643">
		<tag k="name" v="Floten" />
		<tag k="place" v="locality" />
		<tag k="ssr:stedsnr" v="226772" />
	</node>
	<node id="-482045" lat="60.5192972205" lon="5.49120555836">
		<tag k="name" v="Eikelia" />
		<tag k="natural" v="slope" />
		<tag k="place" v="locality" />
		<tag k="ssr:stedsnr" v="226769" />
	</node>
	<node id="-482042" lat="60.4850888904" lon="5.49049722753">
		<tag k="name" v="Midtskaret" />
		<tag k="natural" v="hill" />
		<tag k="place" v="locality" />
		<tag k="ssr:stedsnr" v="226505" />
	</node>
	<node id="-482041" lat="60.4842166694" lon="5.50728334102">
		<tag k="name" v="Kyrkjeledet" />
		<tag k="natural" v="valley" />
		<tag k="place" v="locality" />
		<tag k="ssr:stedsnr" v="226501" />
	</node>
	<node id="-482038" lat="60.4686999968" lon="5.50812778256">
		<tag k="name" v="Kåperinden" />
		<tag k="place" v="locality" />
		<tag k="ssr:stedsnr" v="226329" />
	</node>
	<node id="-482036" lat="60.515269443" lon="5.54820834056">
		<tag k="name" v="Neverhjellane" />
		<tag k="natural" v="gorge" />
		<tag k="ssr:stedsnr" v="226319" />
	</node>
	<node id="-482031" lat="60.5518000011" lon="5.60942499973">
		<tag k="fixme" v="consider natural=peak for the most distinct mountains in the district" />
		<tag k="name" v="Høgåsen" />
		<tag k="natural" v="hill" />
		<tag k="place" v="locality" />
		<tag k="ssr:stedsnr" v="189009" />
	</node>
	<node id="-482027" lat="60.5123611098" lon="5.53542500539">
		<tag k="alt_name" v="Lofoten" />
		<tag k="fixme" v="consider natural=peak for the most distinct mountains in the district" />
		<tag k="name" v="Kletten" />
		<tag k="natural" v="hill" />
		<tag k="place" v="locality" />
		<tag k="ssr:stedsnr" v="188965" />
	</node>
	<node id="-482026" lat="60.5074527783" lon="5.59558611196">
		<tag k="alt_name" v="Kollhaugen" />
		<tag k="name" v="Lonkollen" />
		<tag k="natural" v="hill" />
		<tag k="place" v="locality" />
		<tag k="ssr:stedsnr" v="188963" />
	</node>
	<node id="-482022" lat="60.4681555591" lon="5.58998055118">
		<tag k="name" v="Flonsdalen" />
		<tag k="natural" v="valley" />
		<tag k="place" v="locality" />
		<tag k="ssr:stedsnr" v="188954" />
	</node>
	<node id="-482021" lat="60.4632666707" lon="5.62772778321">
		<tag k="name" v="Haugane" />
		<tag k="natural" v="hill" />
		<tag k="place" v="locality" />
		<tag k="ssr:stedsnr" v="188952" />
	</node>
	<node id="-482015" lat="60.593805556" lon="5.5918583398">
		<tag k="fixme" v="consider natural=peak for the most distinct mountains in the district" />
		<tag k="name" v="Anorkletten" />
		<tag k="natural" v="hill" />
		<tag k="place" v="locality" />
		<tag k="ssr:stedsnr" v="188578" />
	</node>
	<node id="-482010" lat="60.5741194427" lon="5.53711943699">
		<tag k="fixme" v="consider natural=peak for the most distinct mountains in the district" />
		<tag k="name" v="Storfjellet" />
		<tag k="natural" v="hill" />
		<tag k="place" v="locality" />
		<tag k="ssr:stedsnr" v="188609" />
	</node>
	<node id="-482009" lat="60.5259888902" lon="5.4384722177">
		<tag k="fixme" v="consider natural=peak for the most distinct mountains in the district" />
		<tag k="name" v="Burkelandsfjellet" />
		<tag k="natural" v="hill" />
		<tag k="old_name" v="Byrkjelandsfjellet" />
		<tag k="place" v="locality" />
		<tag k="ssr:stedsnr" v="188553" />
	</node>
	<node id="-482005" lat="60.6738694414" lon="5.63951665973">
		<tag k="fixme" v="consider natural=peak for the most distinct mountains in the district" />
		<tag k="name" v="Raunelifjellet" />
		<tag k="natural" v="hill" />
		<tag k="place" v="locality" />
		<tag k="ssr:stedsnr" v="188339" />
	</node>
	<node id="-482004" lat="60.6996138898" lon="5.65451943743">
		<tag k="fixme" v="consider natural=peak for the most distinct mountains in the district" />
		<tag k="name" v="Rossfjellet" />
		<tag k="natural" v="hill" />
		<tag k="place" v="locality" />
		<tag k="ssr:stedsnr" v="188288" />
	</node>
	<node id="-482003" lat="60.4971472227" lon="5.49424999588">
		<tag k="fixme" v="consider natural=peak for the most distinct mountains in the district" />
		<tag k="name" v="Kleivelandsåsen" />
		<tag k="natural" v="hill" />
		<tag k="place" v="locality" />
		<tag k="ssr:stedsnr" v="187988" />
	</node>
	<node id="-482001" lat="60.481280557" lon="5.47946667529">
		<tag k="fixme" v="consider natural=peak for the most distinct mountains in the district" />
		<tag k="name" v="Erstadfjellet" />
		<tag k="natural" v="hill" />
		<tag k="place" v="locality" />
		<tag k="ssr:stedsnr" v="187974" />
	</node>
	<node id="-482000" lat="60.4838166645" lon="5.60605276992">
		<tag k="name" v="Fanndalen" />
		<tag k="natural" v="valley" />
		<tag k="place" v="locality" />
		<tag k="ssr:stedsnr" v="187964" />
	</node>
	<node id="-481998" lat="60.4796805599" lon="5.55275000501">
		<tag k="name" v="Nonhaugen" />
		<tag k="natural" v="hill" />
		<tag k="place" v="locality" />
		<tag k="ssr:stedsnr" v="187947" />
	</node>
	<node id="-481994" lat="60.4449972182" lon="5.53147499309">
		<tag k="name" v="Orrkleivhaugen" />
		<tag k="natural" v="hill" />
		<tag k="place" v="locality" />
		<tag k="ssr:stedsnr" v="187011" />
	</node>
	<node id="-481992" lat="60.4614361144" lon="5.49881667348">
		<tag k="fixme" v="consider natural=peak for the most distinct mountains in the district" />
		<tag k="name" v="Hausbergfjellet" />
		<tag k="natural" v="hill" />
		<tag k="place" v="locality" />
		<tag k="ssr:stedsnr" v="166870" />
	</node>
	<node id="-481991" lat="60.4570472181" lon="5.50754165803">
		<tag k="name" v="Grasdalane" />
		<tag k="natural" v="valley" />
		<tag k="place" v="locality" />
		<tag k="ssr:stedsnr" v="166859" />
	</node>
	<node id="-481988" lat="60.4663250031" lon="5.47647222643">
		<tag k="name" v="Gloppa" />
		<tag k="place" v="locality" />
		<tag k="ssr:stedsnr" v="166847" />
	</node>
	<node id="-481987" lat="60.5320472228" lon="5.44741945093">
		<tag k="name" v="Krakkedalen" />
		<tag k="natural" v="valley" />
		<tag k="place" v="locality" />
		<tag k="ssr:stedsnr" v="166839" />
	</node>
	<node id="-481985" lat="60.5370472201" lon="5.42845278473">
		<tag k="name" v="Storhaugen" />
		<tag k="natural" v="hill" />
		<tag k="place" v="locality" />
		<tag k="ssr:stedsnr" v="166832" />
	</node>
	<node id="-481983" lat="60.5294222237" lon="5.41586943684">
		<tag k="name" v="Ormhaugen" />
		<tag k="natural" v="hill" />
		<tag k="place" v="locality" />
		<tag k="ssr:stedsnr" v="166830" />
	</node>
	<node id="-481982" lat="60.5535305527" lon="5.39968056164">
		<tag k="name" v="Bergsdalen" />
		<tag k="natural" v="valley" />
		<tag k="place" v="locality" />
		<tag k="ssr:stedsnr" v="166820" />
	</node>
	<node id="-481981" lat="60.5707138934" lon="5.46376388879">
		<tag k="name" v="Vindegga" />
		<tag k="natural" v="hill" />
		<tag k="place" v="locality" />
		<tag k="ssr:stedsnr" v="166818" />
	</node>
	<node id="-481980" lat="60.4748055553" lon="5.45856666472">
		<tag k="name" v="Jonsokhaugen" />
		<tag k="natural" v="hill" />
		<tag k="place" v="locality" />
		<tag k="ssr:stedsnr" v="166805" />
	</node>
	<node id="-481979" lat="60.5340944416" lon="5.36992499511">
		<tag k="fixme" v="consider natural=peak for the most distinct mountains in the district" />
		<tag k="name" v="Storafjellet" />
		<tag k="natural" v="hill" />
		<tag k="place" v="locality" />
		<tag k="ssr:stedsnr" v="166794" />
	</node>
	<node id="-481978" lat="60.5284694483" lon="5.58422500105">
		<tag k="name" v="Espevold" />
		<tag k="natural" v="hill" />
		<tag k="place" v="locality" />
		<tag k="ssr:stedsnr" v="166782" />
	</node>
	<node id="-481977" lat="60.5385638924" lon="5.39118332779">
		<tag k="name" v="Bleiklidalen" />
		<tag k="natural" v="valley" />
		<tag k="place" v="locality" />
		<tag k="ssr:stedsnr" v="166780" />
	</node>
	<node id="-481976" lat="60.4951388901" lon="5.45897500198">
		<tag k="name" v="Austliane" />
		<tag k="natural" v="slope" />
		<tag k="place" v="locality" />
		<tag k="ssr:stedsnr" v="166758" />
	</node>
	<node id="-481972" lat="60.568300003" lon="5.5016083404">
		<tag k="fixme" v="consider natural=peak for the most distinct mountains in the district" />
		<tag k="name" v="Nedre Tveitafjell" />
		<tag k="natural" v="hill" />
		<tag k="place" v="locality" />
		<tag k="ssr:stedsnr" v="166734" />
	</node>
	<node id="-481970" lat="60.5213444481" lon="5.48358333646">
		<tag k="name" v="Støldalen" />
		<tag k="natural" v="hill" />
		<tag k="place" v="locality" />
		<tag k="ssr:stedsnr" v="166678" />
	</node>
	<node id="-481968" lat="60.5368027775" lon="5.51846943674">
		<tag k="name" v="Rosshaugen" />
		<tag k="natural" v="hill" />
		<tag k="place" v="locality" />
		<tag k="ssr:stedsnr" v="166659" />
	</node>
	<node id="-481966" lat="60.4760249962" lon="5.5421694506">
		<tag k="name" v="Halvardshaugen" />
		<tag k="natural" v="hill" />
		<tag k="place" v="locality" />
		<tag k="ssr:stedsnr" v="166650" />
	</node>
	<node id="-481964" lat="60.4649305556" lon="5.57539167308">
		<tag k="name" v="Geitursrinden" />
		<tag k="place" v="locality" />
		<tag k="ssr:stedsnr" v="166643" />
	</node>
	<node id="-481963" lat="60.4870555577" lon="5.54195833875">
		<tag k="fixme" v="consider natural=peak for the most distinct mountains in the district" />
		<tag k="name" v="Krossåsen" />
		<tag k="natural" v="hill" />
		<tag k="place" v="locality" />
		<tag k="ssr:stedsnr" v="166638" />
	</node>
	<node id="-481962" lat="60.4655000043" lon="5.56658611822">
		<tag k="name" v="Snedgotena" />
		<tag k="natural" v="hill" />
		<tag k="place" v="locality" />
		<tag k="ssr:stedsnr" v="166631" />
	</node>
	<node id="-481961" lat="60.4683666651" lon="5.56301388506">
		<tag k="name" v="Bjørnskaret" />
		<tag k="natural" v="hill" />
		<tag k="place" v="locality" />
		<tag k="ssr:stedsnr" v="166626" />
	</node>
	<node id="-481960" lat="60.469025003" lon="5.56113332846">
		<tag k="name" v="Ørnanipa" />
		<tag k="natural" v="hill" />
		<tag k="place" v="locality" />
		<tag k="ssr:stedsnr" v="166625" />
	</node>
	<node id="-481959" lat="60.4916055583" lon="5.534936104">
		<tag k="name" v="Storhaugen" />
		<tag k="natural" v="hill" />
		<tag k="place" v="locality" />
		<tag k="ssr:stedsnr" v="166616" />
	</node>
	<node id="-481955" lat="60.5092888897" lon="5.66150000902">
		<tag k="name" v="Stadsberget" />
		<tag k="natural" v="hill" />
		<tag k="place" v="locality" />
		<tag k="ssr:stedsnr" v="166604" />
	</node>
	<node id="-481954" lat="60.5260111069" lon="5.69675555964">
		<tag k="name" v="Slåttestallen" />
		<tag k="natural" v="hill" />
		<tag k="place" v="locality" />
		<tag k="ssr:stedsnr" v="166595" />
	</node>
	<node id="-481953" lat="60.474744447" lon="5.58902777365">
		<tag k="name" v="Kjerringahaugen" />
		<tag k="natural" v="hill" />
		<tag k="place" v="locality" />
		<tag k="ssr:stedsnr" v="166572" />
	</node>
	<node id="-481952" lat="60.4959861106" lon="5.68271388258">
		<tag k="name" v="Tausahaugen" />
		<tag k="natural" v="hill" />
		<tag k="place" v="locality" />
		<tag k="ssr:stedsnr" v="166561" />
	</node>
	<node id="-481951" lat="60.4914722258" lon="5.58864166982">
		<tag k="name" v="Klumpen" />
		<tag k="place" v="locality" />
		<tag k="ssr:stedsnr" v="166559" />
	</node>
	<node id="-481950" lat="60.4932555598" lon="5.5954916721">
		<tag k="name" v="Skistadslåttena" />
		<tag k="natural" v="hill" />
		<tag k="place" v="locality" />
		<tag k="ssr:stedsnr" v="166556" />
	</node>
	<node id="-481944" lat="60.5468222255" lon="5.53517776893">
		<tag k="name" v="Øykhaugen" />
		<tag k="natural" v="hill" />
		<tag k="place" v="locality" />
		<tag k="ssr:stedsnr" v="166516" />
	</node>
	<node id="-481941" lat="60.4378472194" lon="5.54996666279">
		<tag k="name" v="Hamrane" />
		<tag k="natural" v="hill" />
		<tag k="place" v="locality" />
		<tag k="ssr:stedsnr" v="166492" />
	</node>
	<node id="-481940" lat="60.4457916679" lon="5.55509443872">
		<tag k="fixme" v="consider natural=peak for the most distinct mountains in the district" />
		<tag k="name" v="Stallane" />
		<tag k="natural" v="hill" />
		<tag k="place" v="locality" />
		<tag k="ssr:stedsnr" v="166486" />
	</node>
	<node id="-481939" lat="60.443438891" lon="5.57184166914">
		<tag k="name" v="Utgjerdet" />
		<tag k="place" v="locality" />
		<tag k="ssr:stedsnr" v="166483" />
	</node>
	<node id="-481938" lat="60.455813887" lon="5.57361943747">
		<tag k="name" v="Repdalsskaret" />
		<tag k="natural" v="hill" />
		<tag k="place" v="locality" />
		<tag k="ssr:stedsnr" v="166476" />
	</node>
	<node id="-481937" lat="60.5162222213" lon="5.66050556292">
		<tag k="name" v="Hovden" />
		<tag k="natural" v="hill" />
		<tag k="place" v="locality" />
		<tag k="ssr:stedsnr" v="166443" />
	</node>
	<node id="-481933" lat="60.6315222236" lon="5.61353054643">
		<tag k="name" v="Ilkjerhaugane" />
		<tag k="natural" v="hill" />
		<tag k="place" v="locality" />
		<tag k="ssr:stedsnr" v="166416" />
	</node>
	<node id="-481927" lat="60.52965" lon="5.53243333096">
		<tag k="name" v="Hårbrua" />
		<tag k="place" v="locality" />
		<tag k="ssr:stedsnr" v="165725" />
	</node>
	<node id="-481926" lat="60.5043722203" lon="5.51771389638">
		<tag k="name" v="Bruleitet" />
		<tag k="place" v="locality" />
		<tag k="ssr:stedsnr" v="165718" />
	</node>
	<node id="-481923" lat="60.4851694473" lon="5.48411111683">
		<tag k="name" v="Dalen" />
		<tag k="natural" v="valley" />
		<tag k="place" v="locality" />
		<tag k="ssr:stedsnr" v="165468" />
	</node>
	<node id="-481922" lat="60.4862555567" lon="5.4844749972">
		<tag k="name" v="Såta" />
		<tag k="natural" v="hill" />
		<tag k="place" v="locality" />
		<tag k="ssr:stedsnr" v="165465" />
	</node>
	<node id="-481921" lat="60.4909583359" lon="5.47171388692">
		<tag k="fixme" v="consider natural=peak for the most distinct mountains in the district" />
		<tag k="name" v="Åsen" />
		<tag k="natural" v="hill" />
		<tag k="place" v="locality" />
		<tag k="ssr:stedsnr" v="165460" />
	</node>
	<node id="-481918" lat="60.6627194416" lon="5.63084444147">
		<tag k="name" v="Gullbergdalen" />
		<tag k="natural" v="valley" />
		<tag k="place" v="locality" />
		<tag k="ssr:stedsnr" v="165307" />
	</node>
	<node id="-481914" lat="60.5496305599" lon="5.48931944739">
		<tag k="fixme" v="consider natural=peak for the most distinct mountains in the district" />
		<tag k="name" v="Åsen" />
		<tag k="natural" v="hill" />
		<tag k="place" v="locality" />
		<tag k="ssr:stedsnr" v="128012" />
	</node>
	<node id="-481913" lat="60.5285527777" lon="5.57673332503">
		<tag k="name" v="Fagerdalen" />
		<tag k="natural" v="valley" />
		<tag k="place" v="locality" />
		<tag k="ssr:stedsnr" v="128011" />
	</node>
	<node id="-481908" lat="60.5164138873" lon="5.4695638847">
		<tag k="name" v="Haugadalen" />
		<tag k="natural" v="valley" />
		<tag k="place" v="locality" />
		<tag k="ssr:stedsnr" v="127923" />
	</node>
	<node id="-481906" lat="60.5210514423" lon="5.4907489114">
		<tag k="name" v="Bjørnkletten" />
		<tag k="natural" v="hill" />
		<tag k="place" v="locality" />
		<tag k="ssr:stedsnr" v="127971" />
	</node>
	<node id="-481902" lat="60.5412777771" lon="5.58157499135">
		<tag k="fixme" v="consider natural=peak for the most distinct mountains in the district" />
		<tag k="name" v="Kammen" />
		<tag k="natural" v="hill" />
		<tag k="place" v="locality" />
		<tag k="ssr:stedsnr" v="127894" />
	</node>
	<node id="-481899" lat="60.5633361092" lon="5.50479166473">
		<tag k="fixme" v="consider natural=peak for the most distinct mountains in the district" />
		<tag k="name" v="Nerafjellet" />
		<tag k="natural" v="hill" />
		<tag k="place" v="locality" />
		<tag k="ssr:stedsnr" v="127624" />
	</node>
	<node id="-481896" lat="60.5203027808" lon="5.42525555207">
		<tag k="name" v="Ranen" />
		<tag k="natural" v="slope" />
		<tag k="place" v="locality" />
		<tag k="ssr:stedsnr" v="127529" />
	</node>
	<node id="-481895" lat="60.5134305594" lon="5.41535000298">
		<tag k="name" v="Sædalen" />
		<tag k="natural" v="valley" />
		<tag k="place" v="locality" />
		<tag k="ssr:stedsnr" v="127526" />
	</node>
	<node id="-481892" lat="60.5846499981" lon="5.57382499442">
		<tag k="name" v="Bjørnshovdane" />
		<tag k="natural" v="hill" />
		<tag k="place" v="locality" />
		<tag k="ssr:stedsnr" v="127588" />
	</node>
	<node id="-481882" lat="60.4551388913" lon="5.51414167221">
		<tag k="name" v="Mjelddalen" />
		<tag k="natural" v="valley" />
		<tag k="place" v="locality" />
		<tag k="ssr:stedsnr" v="127002" />
	</node>
	<node id="-481880" lat="60.4429500014" lon="5.54191388989">
		<tag k="fixme" v="consider natural=peak for the most distinct mountains in the district" />
		<tag k="name" v="Snøya" />
		<tag k="natural" v="hill" />
		<tag k="place" v="locality" />
		<tag k="ssr:stedsnr" v="126029" />
	</node>
	<node id="-481879" lat="60.4466416705" lon="5.5555333303">
		<tag k="name" v="Blomaskaret" />
		<tag k="natural" v="valley" />
		<tag k="place" v="locality" />
		<tag k="ssr:stedsnr" v="126017" />
	</node>
	<node id="-481875" lat="60.4562333353" lon="5.49738055495">
		<tag k="name" v="Gladsteinen" />
		<tag k="natural" v="hill" />
		<tag k="place" v="locality" />
		<tag k="ssr:stedsnr" v="106883" />
	</node>
	<node id="-481874" lat="60.4728194485" lon="5.4867111063">
		<tag k="name" v="Storbotnen" />
		<tag k="natural" v="hill" />
		<tag k="place" v="locality" />
		<tag k="ssr:stedsnr" v="106878" />
	</node>
	<node id="-481872" lat="60.4783249985" lon="5.55471666213">
		<tag k="name" v="Kvitsteinleitet" />
		<tag k="natural" v="hill" />
		<tag k="place" v="locality" />
		<tag k="ssr:stedsnr" v="106864" />
	</node>
	<node id="-481871" lat="60.5341527752" lon="5.46497778246">
		<tag k="name" v="Dalsnjuken" />
		<tag k="natural" v="valley" />
		<tag k="place" v="locality" />
		<tag k="ssr:stedsnr" v="106851" />
	</node>
	<node id="-481870" lat="60.5279611079" lon="5.4429972202">
		<tag k="name" v="Høgheia" />
		<tag k="natural" v="hill" />
		<tag k="place" v="locality" />
		<tag k="ssr:stedsnr" v="106845" />
	</node>
	<node id="-481869" lat="60.5091555592" lon="5.40840554924">
		<tag k="name" v="Vikedalen" />
		<tag k="natural" v="valley" />
		<tag k="place" v="locality" />
		<tag k="ssr:stedsnr" v="106829" />
	</node>
	<node id="-481867" lat="60.5366500033" lon="5.37296944195">
		<tag k="name" v="Svearinden" />
		<tag k="place" v="locality" />
		<tag k="ssr:stedsnr" v="106812" />
	</node>
	<node id="-481864" lat="60.4974194409" lon="5.45723888817">
		<tag k="name" v="Rosshaugen" />
		<tag k="natural" v="hill" />
		<tag k="place" v="locality" />
		<tag k="ssr:stedsnr" v="106778" />
	</node>
	<node id="-481863" lat="60.5128638882" lon="5.54354443704">
		<tag k="name" v="Skarlia" />
		<tag k="natural" v="slope" />
		<tag k="place" v="locality" />
		<tag k="ssr:stedsnr" v="106763" />
	</node>
	<node id="-481862" lat="60.512969442" lon="5.53812499126">
		<tag k="name" v="Kyrkjeskaret" />
		<tag k="natural" v="hill" />
		<tag k="place" v="locality" />
		<tag k="ssr:stedsnr" v="106757" />
	</node>
	<node id="-481860" lat="60.5044611135" lon="5.57418611592">
		<tag k="name" v="Grasdalen" />
		<tag k="natural" v="valley" />
		<tag k="place" v="locality" />
		<tag k="ssr:stedsnr" v="106740" />
	</node>
	<node id="-481859" lat="60.4992944432" lon="5.57229721742">
		<tag k="name" v="Hovdabotn" />
		<tag k="natural" v="valley" />
		<tag k="place" v="locality" />
		<tag k="ssr:stedsnr" v="106737" />
	</node>
	<node id="-481858" lat="60.5108416642" lon="5.57882222933">
		<tag k="fixme" v="consider natural=peak for the most distinct mountains in the district" />
		<tag k="name" v="Bysheimåsen" />
		<tag k="natural" v="hill" />
		<tag k="place" v="locality" />
		<tag k="ssr:stedsnr" v="106730" />
	</node>
	<node id="-481857" lat="60.5036361074" lon="5.54522500501">
		<tag k="name" v="Losthaugen" />
		<tag k="natural" v="hill" />
		<tag k="place" v="locality" />
		<tag k="ssr:stedsnr" v="106723" />
	</node>
	<node id="-481856" lat="60.5176055587" lon="5.47406944752">
		<tag k="name" v="Ålskaret" />
		<tag k="natural" v="hill" />
		<tag k="place" v="locality" />
		<tag k="ssr:stedsnr" v="106705" />
	</node>
	<node id="-481855" lat="60.5196194483" lon="5.65527499541">
		<tag k="name" v="Storlia" />
		<tag k="natural" v="slope" />
		<tag k="place" v="locality" />
		<tag k="ssr:stedsnr" v="106610" />
	</node>
	<node id="-481854" lat="60.5156055519" lon="5.61468888845">
		<tag k="name" v="Løtveitbruna" />
		<tag k="place" v="locality" />
		<tag k="ssr:stedsnr" v="106602" />
	</node>
	<node id="-481853" lat="60.526763892" lon="5.6866194477">
		<tag k="name" v="Steindalsnakken" />
		<tag k="natural" v="hill" />
		<tag k="place" v="locality" />
		<tag k="ssr:stedsnr" v="106601" />
	</node>
	<node id="-481852" lat="60.5323388904" lon="5.62475277643">
		<tag k="fixme" v="consider natural=peak for the most distinct mountains in the district" />
		<tag k="name" v="Kluråsen" />
		<tag k="natural" v="hill" />
		<tag k="place" v="locality" />
		<tag k="ssr:stedsnr" v="106595" />
	</node>
	<node id="-481851" lat="60.5334805539" lon="5.64209722313">
		<tag k="name" v="Bashaugen" />
		<tag k="natural" v="hill" />
		<tag k="place" v="locality" />
		<tag k="ssr:stedsnr" v="106593" />
	</node>
	<node id="-481850" lat="60.5284000003" lon="5.65024999244">
		<tag k="fixme" v="consider natural=peak for the most distinct mountains in the district" />
		<tag k="name" v="Kammen" />
		<tag k="natural" v="hill" />
		<tag k="place" v="locality" />
		<tag k="ssr:stedsnr" v="106586" />
	</node>
	<node id="-481849" lat="60.4925861149" lon="5.67045554636">
		<tag k="fixme" v="consider natural=peak for the most distinct mountains in the district" />
		<tag k="name" v="Skitnakleiv" />
		<tag k="natural" v="hill" />
		<tag k="place" v="locality" />
		<tag k="ssr:stedsnr" v="106576" />
	</node>
	<node id="-481848" lat="60.4905277791" lon="5.64593888248">
		<tag k="name" v="Nonjela" />
		<tag k="natural" v="gorge" />
		<tag k="ssr:stedsnr" v="106574" />
	</node>
	<node id="-481847" lat="60.4751611102" lon="5.59795000307">
		<tag k="name" v="Turtnaliane" />
		<tag k="natural" v="slope" />
		<tag k="place" v="locality" />
		<tag k="ssr:stedsnr" v="106572" />
	</node>
	<node id="-481846" lat="60.4832861108" lon="5.67933055123">
		<tag k="name" v="Kolhaugen" />
		<tag k="natural" v="hill" />
		<tag k="place" v="locality" />
		<tag k="ssr:stedsnr" v="106567" />
	</node>
	<node id="-481845" lat="60.4809083356" lon="5.6930166656">
		<tag k="name" v="Glettashaugen" />
		<tag k="natural" v="hill" />
		<tag k="place" v="locality" />
		<tag k="ssr:stedsnr" v="106556" />
	</node>
	<node id="-481843" lat="60.4912333366" lon="5.62757499531">
		<tag k="name" v="Espevold" />
		<tag k="place" v="locality" />
		<tag k="ssr:stedsnr" v="106546" />
	</node>
	<node id="-481842" lat="60.4865555586" lon="5.60783332776">
		<tag k="name" v="Heggelia" />
		<tag k="natural" v="slope" />
		<tag k="place" v="locality" />
		<tag k="ssr:stedsnr" v="106542" />
	</node>
	<node id="-481841" lat="60.4536833358" lon="5.59587222618">
		<tag k="name" v="Nipelia" />
		<tag k="natural" v="slope" />
		<tag k="place" v="locality" />
		<tag k="ssr:stedsnr" v="106531" />
	</node>
	<node id="-481839" lat="60.6156416694" lon="5.56002777196">
		<tag k="alt_name" v="Høgaberget" />
		<tag k="name" v="Høgaraudberget" />
		<tag k="natural" v="hill" />
		<tag k="place" v="locality" />
		<tag k="ssr:stedsnr" v="106521" />
	</node>
	<node id="-481838" lat="60.6187416684" lon="5.57423889631">
		<tag k="name" v="Vetlebotnen" />
		<tag k="natural" v="valley" />
		<tag k="place" v="locality" />
		<tag k="ssr:stedsnr" v="106515" />
	</node>
	<node id="-481835" lat="60.5564111136" lon="5.51101666966">
		<tag k="name" v="Ernipa" />
		<tag k="natural" v="hill" />
		<tag k="place" v="locality" />
		<tag k="ssr:stedsnr" v="106503" />
	</node>
	<node id="-481832" lat="60.6184194481" lon="5.59771111842">
		<tag k="fixme" v="consider natural=peak for the most distinct mountains in the district" />
		<tag k="name" v="Vassurkletten" />
		<tag k="natural" v="hill" />
		<tag k="place" v="locality" />
		<tag k="ssr:stedsnr" v="106414" />
	</node>
	<node id="-481831" lat="60.605002776" lon="5.60337777486">
		<tag k="name" v="Sæterbotn" />
		<tag k="natural" v="valley" />
		<tag k="place" v="locality" />
		<tag k="ssr:stedsnr" v="106411" />
	</node>
	<node id="-481830" lat="60.5929083345" lon="5.59626665806">
		<tag k="fixme" v="consider natural=peak for the most distinct mountains in the district" />
		<tag k="name" v="Haldorkletten" />
		<tag k="natural" v="hill" />
		<tag k="place" v="locality" />
		<tag k="ssr:stedsnr" v="106408" />
	</node>
	<node id="-481829" lat="60.6658083361" lon="5.63365832639">
		<tag k="fixme" v="consider natural=peak for the most distinct mountains in the district" />
		<tag k="name" v="Stavelifjellet" />
		<tag k="natural" v="hill" />
		<tag k="place" v="locality" />
		<tag k="ssr:stedsnr" v="106402" />
	</node>
	<node id="-481828" lat="60.6370499966" lon="5.61619722648">
		<tag k="fixme" v="consider natural=peak for the most distinct mountains in the district" />
		<tag k="name" v="Litlafjellet" />
		<tag k="natural" v="hill" />
		<tag k="place" v="locality" />
		<tag k="ssr:stedsnr" v="106390" />
	</node>
	<node id="-481827" lat="60.6780277772" lon="5.64698333955">
		<tag k="name" v="Kjempeskaret" />
		<tag k="natural" v="ridge" />
		<tag k="place" v="locality" />
		<tag k="ssr:stedsnr" v="106384" />
	</node>
	<node id="-481826" lat="60.5234833294" lon="5.48185277383">
		<tag k="name" v="Stoaliane" />
		<tag k="natural" v="slope" />
		<tag k="place" v="locality" />
		<tag k="ssr:stedsnr" v="105703" />
	</node>
	<node id="-481825" lat="60.5225416685" lon="5.55372222314">
		<tag k="name" v="Fugledalen" />
		<tag k="natural" v="valley" />
		<tag k="place" v="locality" />
		<tag k="ssr:stedsnr" v="105685" />
	</node>
	<node id="-481824" lat="60.4568888911" lon="5.53262500566">
		<tag k="name" v="Turrhaugane" />
		<tag k="natural" v="hill" />
		<tag k="place" v="locality" />
		<tag k="ssr:stedsnr" v="105676" />
	</node>
	<node id="-481823" lat="60.5290944442" lon="5.49471944576">
		<tag k="name" v="Apalbakken" />
		<tag k="natural" v="slope" />
		<tag k="place" v="locality" />
		<tag k="ssr:stedsnr" v="105672" />
	</node>
	<node id="-481822" lat="60.5311722236" lon="5.5024611086">
		<tag k="name" v="Kleivi" />
		<tag k="place" v="locality" />
		<tag k="ssr:stedsnr" v="105671" />
	</node>
	<node id="-481820" lat="60.5256500021" lon="5.51962222848">
		<tag k="name" v="Ikornskaret" />
		<tag k="natural" v="hill" />
		<tag k="place" v="locality" />
		<tag k="ssr:stedsnr" v="105669" />
	</node>
	<node id="-481819" lat="60.4743138897" lon="5.55496110888">
		<tag k="fixme" v="consider natural=peak for the most distinct mountains in the district" />
		<tag k="name" v="Melåsen" />
		<tag k="natural" v="hill" />
		<tag k="place" v="locality" />
		<tag k="ssr:stedsnr" v="105659" />
	</node>
	<node id="-481818" lat="60.4472055527" lon="5.52576667146">
		<tag k="name" v="Lyngåsdalen" />
		<tag k="natural" v="valley" />
		<tag k="place" v="locality" />
		<tag k="ssr:stedsnr" v="105505" />
	</node>
	<node id="-481817" lat="60.4473805575" lon="5.54329721757">
		<tag k="fixme" v="consider natural=peak for the most distinct mountains in the district" />
		<tag k="name" v="Vegliåsen" />
		<tag k="natural" v="hill" />
		<tag k="place" v="locality" />
		<tag k="ssr:stedsnr" v="105495" />
	</node>
	<node id="-481814" lat="60.514841671" lon="5.41712222268">
		<tag k="name" v="Tverdalane" />
		<tag k="natural" v="valley" />
		<tag k="place" v="locality" />
		<tag k="ssr:stedsnr" v="105409" />
	</node>
	<node id="-481812" lat="60.5189999991" lon="5.51541389112">
		<tag k="name" v="Rymledalen" />
		<tag k="natural" v="valley" />
		<tag k="place" v="locality" />
		<tag k="ssr:stedsnr" v="104700" />
	</node>
	<node id="-481809" lat="60.4816388895" lon="5.50476110886">
		<tag k="name" v="Setlii" />
		<tag k="natural" v="slope" />
		<tag k="place" v="locality" />
		<tag k="ssr:stedsnr" v="104441" />
	</node>
	<node id="-481805" lat="60.5038527801" lon="5.52997500398">
		<tag k="fixme" v="consider natural=peak for the most distinct mountains in the district" />
		<tag k="name" v="Møsåsen" />
		<tag k="natural" v="hill" />
		<tag k="place" v="locality" />
		<tag k="ssr:stedsnr" v="67998" />
	</node>
	<node id="-481804" lat="60.5040611143" lon="5.68333056349">
		<tag k="name" v="Øvstebotnen" />
		<tag k="natural" v="valley" />
		<tag k="place" v="locality" />
		<tag k="ssr:stedsnr" v="67992" />
	</node>
	<node id="-481800" lat="60.6107055595" lon="5.5811166734">
		<tag k="fixme" v="consider natural=peak for the most distinct mountains in the district" />
		<tag k="name" v="Nonkletten" />
		<tag k="natural" v="hill" />
		<tag k="place" v="locality" />
		<tag k="ssr:stedsnr" v="67737" />
	</node>
	<node id="-481799" lat="60.6168333368" lon="5.57403055069">
		<tag k="name" v="Raudberget" />
		<tag k="natural" v="hill" />
		<tag k="place" v="locality" />
		<tag k="ssr:stedsnr" v="67728" />
	</node>
	<node id="-481793" lat="60.5306194454" lon="5.59220000468">
		<tag k="name" v="Melkebakkane" />
		<tag k="natural" v="slope" />
		<tag k="place" v="locality" />
		<tag k="ssr:stedsnr" v="67921" />
	</node>
	<node id="-481792" lat="60.5281361131" lon="5.58215833307">
		<tag k="name" v="Langedalen" />
		<tag k="natural" v="valley" />
		<tag k="place" v="locality" />
		<tag k="ssr:stedsnr" v="67919" />
	</node>
	<node id="-481785" lat="60.5611694426" lon="5.52701110924">
		<tag k="name" v="Bukkaskaret" />
		<tag k="natural" v="valley" />
		<tag k="place" v="locality" />
		<tag k="ssr:stedsnr" v="67595" />
	</node>
	<node id="-481781" lat="60.5622527738" lon="5.4497194486">
		<tag k="name" v="Langtørna" />
		<tag k="natural" v="hill" />
		<tag k="place" v="locality" />
		<tag k="ssr:stedsnr" v="67446" />
	</node>
	<node id="-481775" lat="60.5232638896" lon="5.45641667012">
		<tag k="name" v="Austlidalen" />
		<tag k="natural" v="valley" />
		<tag k="place" v="locality" />
		<tag k="ssr:stedsnr" v="66460" />
	</node>
	<node id="-481771" lat="60.4536250017" lon="5.60358611607">
		<tag k="fixme" v="consider natural=peak for the most distinct mountains in the district" />
		<tag k="name" v="Nipene" />
		<tag k="natural" v="hill" />
		<tag k="place" v="locality" />
		<tag k="ssr:stedsnr" v="66017" />
	</node>
	<node id="-481764" lat="60.4581111084" lon="5.52411667273">
		<tag k="name" v="Joarsrinden" />
		<tag k="place" v="locality" />
		<tag k="ssr:stedsnr" v="45860" />
	</node>
	<node id="-481763" lat="60.468400001" lon="5.51384166114">
		<tag k="name" v="Smaleggena" />
		<tag k="place" v="locality" />
		<tag k="ssr:stedsnr" v="45861" />
	</node>
	<node id="-481762" lat="60.4579472216" lon="5.51192500103">
		<tag k="name" v="Ranen" />
		<tag k="place" v="locality" />
		<tag k="ssr:stedsnr" v="45850" />
	</node>
	<node id="-481758" lat="60.5311944475" lon="5.42650833114">
		<tag k="name" v="Geithaugen" />
		<tag k="natural" v="hill" />
		<tag k="place" v="locality" />
		<tag k="ssr:stedsnr" v="45828" />
	</node>
	<node id="-481753" lat="60.4928166684" lon="5.4461000033">
		<tag k="name" v="Skofarhaugen" />
		<tag k="natural" v="hill" />
		<tag k="place" v="locality" />
		<tag k="ssr:stedsnr" v="45762" />
	</node>
	<node id="-481752" lat="60.5140138907" lon="5.57280554759">
		<tag k="name" v="Svabotn" />
		<tag k="natural" v="valley" />
		<tag k="place" v="locality" />
		<tag k="ssr:stedsnr" v="45743" />
	</node>
	<node id="-481751" lat="60.5649249994" lon="5.46833610516">
		<tag k="name" v="Nonhøyen" />
		<tag k="natural" v="hill" />
		<tag k="place" v="locality" />
		<tag k="ssr:stedsnr" v="45741" />
	</node>
	<node id="-481750" lat="60.5005888872" lon="5.47201110803">
		<tag k="name" v="Sætret" />
		<tag k="place" v="locality" />
		<tag k="ssr:stedsnr" v="45735" />
	</node>
	<node id="-481748" lat="60.5067805519" lon="5.56523333477">
		<tag k="name" v="Bjørnaskaret" />
		<tag k="natural" v="hill" />
		<tag k="place" v="locality" />
		<tag k="ssr:stedsnr" v="45730" />
	</node>
	<node id="-481747" lat="60.5213055521" lon="5.47646389083">
		<tag k="name" v="Turrkletten" />
		<tag k="place" v="locality" />
		<tag k="ssr:stedsnr" v="45678" />
	</node>
	<node id="-481744" lat="60.5283194434" lon="5.50090833905">
		<tag k="name" v="Ramberget" />
		<tag k="natural" v="hill" />
		<tag k="place" v="locality" />
		<tag k="ssr:stedsnr" v="45638" />
	</node>
	<node id="-481743" lat="60.4707111096" lon="5.57101389366">
		<tag k="name" v="Rinden" />
		<tag k="place" v="locality" />
		<tag k="ssr:stedsnr" v="45631" />
	</node>
	<node id="-481742" lat="60.4964027787" lon="5.54983333589">
		<tag k="name" v="Fitjane" />
		<tag k="natural" v="hill" />
		<tag k="place" v="locality" />
		<tag k="ssr:stedsnr" v="45620" />
	</node>
	<node id="-481741" lat="60.4668638888" lon="5.54296945244">
		<tag k="name" v="Haugen" />
		<tag k="natural" v="hill" />
		<tag k="place" v="locality" />
		<tag k="ssr:stedsnr" v="45618" />
	</node>
	<node id="-481740" lat="60.4672333355" lon="5.56459445274">
		<tag k="name" v="Osphovden" />
		<tag k="natural" v="hill" />
		<tag k="place" v="locality" />
		<tag k="ssr:stedsnr" v="45614" />
	</node>
	<node id="-481739" lat="60.4900500009" lon="5.54054722372">
		<tag k="name" v="Mykelia" />
		<tag k="natural" v="hill" />
		<tag k="place" v="locality" />
		<tag k="ssr:stedsnr" v="45594" />
	</node>
	<node id="-481738" lat="60.5143500014" lon="5.64024722707">
		<tag k="fixme" v="consider natural=peak for the most distinct mountains in the district" />
		<tag k="name" v="Høgåsen" />
		<tag k="natural" v="hill" />
		<tag k="place" v="locality" />
		<tag k="ssr:stedsnr" v="45586" />
	</node>
	<node id="-481737" lat="60.5221666666" lon="5.69322777825">
		<tag k="name" v="Kjerringstallane" />
		<tag k="natural" v="hill" />
		<tag k="place" v="locality" />
		<tag k="ssr:stedsnr" v="45583" />
	</node>
	<node id="-481735" lat="60.5280805512" lon="5.63985277266">
		<tag k="name" v="Storhaugen" />
		<tag k="natural" v="hill" />
		<tag k="place" v="locality" />
		<tag k="ssr:stedsnr" v="45579" />
	</node>
	<node id="-481734" lat="60.4771666685" lon="5.64621666465">
		<tag k="name" v="Årtunga" />
		<tag k="place" v="locality" />
		<tag k="ssr:stedsnr" v="45564" />
	</node>
	<node id="-481733" lat="60.4842611091" lon="5.66942499542">
		<tag k="fixme" v="consider natural=peak for the most distinct mountains in the district" />
		<tag k="name" v="Kletten" />
		<tag k="natural" v="hill" />
		<tag k="place" v="locality" />
		<tag k="ssr:stedsnr" v="45554" />
	</node>
	<node id="-481732" lat="60.4797722254" lon="5.65911388597">
		<tag k="name" v="Navena" />
		<tag k="natural" v="hill" />
		<tag k="place" v="locality" />
		<tag k="ssr:stedsnr" v="45552" />
	</node>
	<node id="-481731" lat="60.4914000017" lon="5.6126166646">
		<tag k="name" v="Kråbotnane" />
		<tag k="natural" v="valley" />
		<tag k="place" v="locality" />
		<tag k="ssr:stedsnr" v="45535" />
	</node>
	<node id="-481729" lat="60.5987333366" lon="5.55363611255">
		<tag k="fixme" v="consider natural=peak for the most distinct mountains in the district" />
		<tag k="name" v="Kletten" />
		<tag k="natural" v="hill" />
		<tag k="place" v="locality" />
		<tag k="ssr:stedsnr" v="45524" />
	</node>
	<node id="-481726" lat="60.5057194481" lon="5.43521110383">
		<tag k="name" v="Furubakken" />
		<tag k="natural" v="slope" />
		<tag k="place" v="locality" />
		<tag k="ssr:stedsnr" v="45494" />
	</node>
	<node id="-481725" lat="60.4469500024" lon="5.55315000406">
		<tag k="name" v="Vondhaugen" />
		<tag k="natural" v="hill" />
		<tag k="place" v="locality" />
		<tag k="ssr:stedsnr" v="45485" />
	</node>
	<node id="-481723" lat="60.5065888891" lon="5.6471916686">
		<tag k="name" v="Lida" />
		<tag k="place" v="locality" />
		<tag k="ssr:stedsnr" v="45446" />
	</node>
	<node id="-481717" lat="60.5713444413" lon="5.53830555314">
		<tag k="fixme" v="consider natural=peak for the most distinct mountains in the district" />
		<tag k="name" v="Storfjell" />
		<tag k="natural" v="hill" />
		<tag k="place" v="locality" />
		<tag k="ssr:stedsnr" v="45398" />
	</node>
	<node id="-481713" lat="60.5394111137" lon="5.56340277511">
		<tag k="name" v="Døsa" />
		<tag k="natural" v="hill" />
		<tag k="place" v="locality" />
		<tag k="ssr:stedsnr" v="44715" />
	</node>
	<node id="-481712" lat="60.5370166663" lon="5.56508334057">
		<tag k="name" v="Leitet" />
		<tag k="natural" v="hill" />
		<tag k="place" v="locality" />
		<tag k="ssr:stedsnr" v="44714" />
	</node>
	<node id="-481709" lat="60.5036750022" lon="5.52103888324">
		<tag k="name" v="Kolabakkane" />
		<tag k="natural" v="slope" />
		<tag k="place" v="locality" />
		<tag k="ssr:stedsnr" v="44702" />
	</node>
	<node id="-481708" lat="60.5061527773" lon="5.49664721396">
		<tag k="name" v="Apalabakkane" />
		<tag k="natural" v="slope" />
		<tag k="place" v="locality" />
		<tag k="ssr:stedsnr" v="44695" />
	</node>
	<node id="-481699" lat="60.5017749983" lon="5.47859722141">
		<tag k="name" v="Klubbelia" />
		<tag k="natural" v="slope" />
		<tag k="place" v="locality" />
		<tag k="ssr:stedsnr" v="43721" />
	</node>
	<node id="-481690" lat="60.5214472247" lon="5.47975834041">
		<tag k="name" v="Torvhusdalen" />
		<tag k="natural" v="valley" />
		<tag k="place" v="locality" />
		<tag k="ssr:stedsnr" v="6937" />
	</node>
	<node id="-481687" lat="60.5451694432" lon="5.47455000351">
		<tag k="fixme" v="consider natural=peak for the most distinct mountains in the district" />
		<tag k="name" v="Vetrehovden" />
		<tag k="natural" v="hill" />
		<tag k="place" v="locality" />
		<tag k="ssr:stedsnr" v="6911" />
	</node>
	<node id="-481683" lat="60.6158305573" lon="5.62010556325">
		<tag k="name" v="Kupene" />
		<tag k="natural" v="valley" />
		<tag k="place" v="locality" />
		<tag k="ssr:stedsnr" v="6726" />
	</node>
	<node id="-481682" lat="60.6198750018" lon="5.61888054651">
		<tag k="fixme" v="consider natural=peak for the most distinct mountains in the district" />
		<tag k="name" v="Preikestolen" />
		<tag k="natural" v="hill" />
		<tag k="place" v="locality" />
		<tag k="ssr:stedsnr" v="6725" />
	</node>
	<node id="-481681" lat="60.6285944423" lon="5.63519999263">
		<tag k="name" v="Merkesbotnen" />
		<tag k="natural" v="valley" />
		<tag k="place" v="locality" />
		<tag k="ssr:stedsnr" v="6711" />
	</node>
	<node id="-481679" lat="60.6690388921" lon="5.62818889174">
		<tag k="fixme" v="consider natural=peak for the most distinct mountains in the district" />
		<tag k="name" v="Gullberget" />
		<tag k="natural" v="hill" />
		<tag k="place" v="locality" />
		<tag k="ssr:stedsnr" v="6657" />
	</node>
	<node id="-481678" lat="60.5613888852" lon="5.48390277135">
		<tag k="name" v="Buskaret" />
		<tag k="natural" v="valley" />
		<tag k="place" v="locality" />
		<tag k="ssr:stedsnr" v="6607" />
	</node>
	<node id="-481675" lat="60.5693000029" lon="5.52388611967">
		<tag k="fixme" v="consider natural=peak for the most distinct mountains in the district" />
		<tag k="name" v="Settnipa" />
		<tag k="natural" v="hill" />
		<tag k="place" v="locality" />
		<tag k="ssr:stedsnr" v="6587" />
	</node>
	<node id="-481674" lat="60.5117666646" lon="5.41493333833">
		<tag k="fixme" v="consider natural=peak for the most distinct mountains in the district" />
		<tag k="name" v="Kjeringfjellet" />
		<tag k="natural" v="hill" />
		<tag k="place" v="locality" />
		<tag k="ssr:stedsnr" v="6524" />
	</node>
	<node id="-481672" lat="60.5056333301" lon="5.40882777205">
		<tag k="name" v="Nappen" />
		<tag k="natural" v="hill" />
		<tag k="place" v="locality" />
		<tag k="ssr:stedsnr" v="6504" />
	</node>
	<node id="-481670" lat="60.5392083289" lon="5.35066666428">
		<tag k="name" v="Høgebrota" />
		<tag k="natural" v="slope" />
		<tag k="place" v="locality" />
		<tag k="ssr:stedsnr" v="6438" />
	</node>
	<node id="-481669" lat="60.5329361144" lon="5.34980276942">
		<tag k="name" v="Tenndalshaugen" />
		<tag k="natural" v="hill" />
		<tag k="place" v="locality" />
		<tag k="ssr:stedsnr" v="6422" />
	</node>
	<node id="-481666" lat="60.4941472263" lon="5.50113332498">
		<tag k="name" v="Rindakletten" />
		<tag k="natural" v="hill" />
		<tag k="place" v="locality" />
		<tag k="ssr:stedsnr" v="5989" />
	</node>
	<node id="-481665" lat="60.4814861102" lon="5.64135000728">
		<tag k="fixme" v="consider natural=peak for the most distinct mountains in the district" />
		<tag k="name" v="Utegardsnipa" />
		<tag k="natural" v="hill" />
		<tag k="place" v="locality" />
		<tag k="ssr:stedsnr" v="5943" />
	</node>
	<node id="-481661" lat="60.4734027823" lon="5.4665444455">
		<tag k="alt_name" v="Hakstein" />
		<tag k="name" v="Hakkstein" />
		<tag k="natural" v="cliff" />
		<tag k="ssr:stedsnr" v="408551" />
	</node>
	<node id="-481644" lat="60.4653916632" lon="5.5086000083">
		<tag k="name" v="Midtrinden" />
		<tag k="place" v="locality" />
		<tag k="ssr:stedsnr" v="895877" />
	</node>
	<node id="-481643" lat="60.4710583376" lon="5.51628611568">
		<tag k="name" v="Kristianshaugen" />
		<tag k="natural" v="hill" />
		<tag k="place" v="locality" />
		<tag k="ssr:stedsnr" v="895862" />
	</node>
	<node id="-481642" lat="60.4680083313" lon="5.51869999561">
		<tag k="name" v="Revskaret" />
		<tag k="natural" v="hill" />
		<tag k="place" v="locality" />
		<tag k="ssr:stedsnr" v="895859" />
	</node>
	<node id="-481641" lat="60.4785555553" lon="5.56385833918">
		<tag k="name" v="Gjela" />
		<tag k="natural" v="gorge" />
		<tag k="ssr:stedsnr" v="895851" />
	</node>
	<node id="-481640" lat="60.470363889" lon="5.48301110248">
		<tag k="name" v="Rindane" />
		<tag k="place" v="locality" />
		<tag k="ssr:stedsnr" v="895846" />
	</node>
	<node id="-481639" lat="60.4959944411" lon="5.57811388207">
		<tag k="name" v="Turdalen" />
		<tag k="natural" v="valley" />
		<tag k="place" v="locality" />
		<tag k="ssr:stedsnr" v="895840" />
	</node>
	<node id="-481638" lat="60.5273138892" lon="5.40306943628">
		<tag k="name" v="Hovda" />
		<tag k="place" v="locality" />
		<tag k="ssr:stedsnr" v="895803" />
	</node>
	<node id="-481637" lat="60.4906111139" lon="5.42696666628">
		<tag k="name" v="Rosshagen" />
		<tag k="natural" v="hill" />
		<tag k="place" v="locality" />
		<tag k="ssr:stedsnr" v="895795" />
	</node>
	<node id="-481635" lat="60.5347111078" lon="5.37472222653">
		<tag k="name" v="Skogarinden" />
		<tag k="place" v="locality" />
		<tag k="ssr:stedsnr" v="895778" />
	</node>
	<node id="-481633" lat="60.518086108" lon="5.54508889034">
		<tag k="name" v="Meskadalen" />
		<tag k="natural" v="valley" />
		<tag k="place" v="locality" />
		<tag k="ssr:stedsnr" v="895738" />
	</node>
	<node id="-481632" lat="60.5163333333" lon="5.54258611546">
		<tag k="name" v="Hamrane" />
		<tag k="natural" v="hill" />
		<tag k="place" v="locality" />
		<tag k="ssr:stedsnr" v="895739" />
	</node>
	<node id="-481630" lat="60.5186055543" lon="5.47026667402">
		<tag k="name" v="Heidi" />
		<tag k="place" v="locality" />
		<tag k="ssr:stedsnr" v="895695" />
	</node>
	<node id="-481629" lat="60.4816527749" lon="5.54486389604">
		<tag k="name" v="Skipskaret" />
		<tag k="natural" v="hill" />
		<tag k="place" v="locality" />
		<tag k="ssr:stedsnr" v="895608" />
	</node>
	<node id="-481627" lat="60.5290194471" lon="5.63612499387">
		<tag k="name" v="Vasslia" />
		<tag k="natural" v="slope" />
		<tag k="place" v="locality" />
		<tag k="ssr:stedsnr" v="895564" />
	</node>
	<node id="-481625" lat="60.4812972198" lon="5.61084722953">
		<tag k="name" v="Gallnanipa" />
		<tag k="natural" v="hill" />
		<tag k="place" v="locality" />
		<tag k="ssr:stedsnr" v="895527" />
	</node>
	<node id="-481623" lat="60.5948305556" lon="5.55661667508">
		<tag k="name" v="Kleppsskaret" />
		<tag k="natural" v="hill" />
		<tag k="place" v="locality" />
		<tag k="ssr:stedsnr" v="895512" />
	</node>
	<node id="-481619" lat="60.6001694453" lon="5.61012499835">
		<tag k="name" v="Dyrehjellen" />
		<tag k="natural" v="hill" />
		<tag k="place" v="locality" />
		<tag k="ssr:stedsnr" v="895403" />
	</node>
	<node id="-481612" lat="60.4520361095" lon="5.57888888343">
		<tag k="name" v="Eggene" />
		<tag k="natural" v="hill" />
		<tag k="place" v="locality" />
		<tag k="ssr:stedsnr" v="894532" />
	</node>
	<node id="-481606" lat="60.5032555596" lon="5.50285555679">
		<tag k="name" v="Vevleheia" />
		<tag k="natural" v="hill" />
		<tag k="place" v="locality" />
		<tag k="ssr:stedsnr" v="893688" />
	</node>
	<node id="-481604" lat="60.523225001" lon="5.54407777537">
		<tag k="name" v="Brotna" />
		<tag k="place" v="locality" />
		<tag k="ssr:stedsnr" v="893670" />
	</node>
	<node id="-481603" lat="60.5111666671" lon="5.70254721936">
		<tag k="name" v="Kringlene" />
		<tag k="place" v="locality" />
		<tag k="ssr:stedsnr" v="893663" />
	</node>
	<node id="-481601" lat="60.477369441" lon="5.50543612031">
		<tag k="name" v="Skorvenden" />
		<tag k="natural" v="valley" />
		<tag k="place" v="locality" />
		<tag k="ssr:stedsnr" v="893450" />
	</node>
	<node id="-481598" lat="60.4876416695" lon="5.52203056079">
		<tag k="fixme" v="consider natural=peak for the most distinct mountains in the district" />
		<tag k="name" v="Midtrinden" />
		<tag k="natural" v="hill" />
		<tag k="place" v="locality" />
		<tag k="ssr:stedsnr" v="893433" />
	</node>
	<node id="-481595" lat="60.4676611113" lon="5.49129444638">
		<tag k="name" v="Fossadalane" />
		<tag k="natural" v="valley" />
		<tag k="place" v="locality" />
		<tag k="ssr:stedsnr" v="409849" />
	</node>
	<node id="-481594" lat="60.5482083309" lon="5.37977778498">
		<tag k="name" v="Kolhovden" />
		<tag k="natural" v="hill" />
		<tag k="place" v="locality" />
		<tag k="ssr:stedsnr" v="409848" />
	</node>
	<node id="-481593" lat="60.5463055554" lon="5.37963611089">
		<tag k="fixme" v="consider natural=peak for the most distinct mountains in the district" />
		<tag k="name" v="Rundåsen" />
		<tag k="natural" v="hill" />
		<tag k="place" v="locality" />
		<tag k="ssr:stedsnr" v="409846" />
	</node>
	<node id="-481592" lat="60.4851472244" lon="5.55741111644">
		<tag k="name" v="Kollhaugen" />
		<tag k="natural" v="hill" />
		<tag k="place" v="locality" />
		<tag k="ssr:stedsnr" v="409842" />
	</node>
	<node id="-481591" lat="60.5170388869" lon="5.39435555318">
		<tag k="name" v="Nerdalen" />
		<tag k="natural" v="valley" />
		<tag k="place" v="locality" />
		<tag k="ssr:stedsnr" v="409830" />
	</node>
	<node id="-481590" lat="60.5411305585" lon="5.43394999457">
		<tag k="fixme" v="consider natural=peak for the most distinct mountains in the district" />
		<tag k="name" v="Tirevollsfjellet" />
		<tag k="natural" v="hill" />
		<tag k="place" v="locality" />
		<tag k="ssr:stedsnr" v="409824" />
	</node>
	<node id="-481589" lat="60.5431444426" lon="5.39032500545">
		<tag k="name" v="Skokhamrane" />
		<tag k="natural" v="hill" />
		<tag k="place" v="locality" />
		<tag k="ssr:stedsnr" v="409819" />
	</node>
	<node id="-481588" lat="60.5283444484" lon="5.39926111863">
		<tag k="name" v="Nonhaugen" />
		<tag k="natural" v="hill" />
		<tag k="place" v="locality" />
		<tag k="ssr:stedsnr" v="409810" />
	</node>
	<node id="-481587" lat="60.4768638853" lon="5.46471111841">
		<tag k="name" v="Votladalen" />
		<tag k="natural" v="valley" />
		<tag k="place" v="locality" />
		<tag k="ssr:stedsnr" v="409807" />
	</node>
	<node id="-481584" lat="60.5286472185" lon="5.36495832895">
		<tag k="name" v="Treshaugen" />
		<tag k="natural" v="hill" />
		<tag k="place" v="locality" />
		<tag k="ssr:stedsnr" v="409787" />
	</node>
	<node id="-481583" lat="60.5402555534" lon="5.36897500772">
		<tag k="name" v="Jovikleiv" />
		<tag k="natural" v="gorge" />
		<tag k="ssr:stedsnr" v="409784" />
	</node>
	<node id="-481581" lat="60.4852944441" lon="5.45529999363">
		<tag k="name" v="Geitryggen" />
		<tag k="natural" v="ridge" />
		<tag k="place" v="locality" />
		<tag k="ssr:stedsnr" v="409757" />
	</node>
	<node id="-481580" lat="60.514619443" lon="5.57605555003">
		<tag k="name" v="Svaena" />
		<tag k="natural" v="hill" />
		<tag k="place" v="locality" />
		<tag k="ssr:stedsnr" v="409738" />
	</node>
	<node id="-481579" lat="60.5085944411" lon="5.56291111517">
		<tag k="name" v="Oksli" />
		<tag k="natural" v="slope" />
		<tag k="place" v="locality" />
		<tag k="ssr:stedsnr" v="409737" />
	</node>
	<node id="-481575" lat="60.4587416649" lon="5.53153888313">
		<tag k="name" v="Sverinden" />
		<tag k="natural" v="hill" />
		<tag k="place" v="locality" />
		<tag k="ssr:stedsnr" v="409659" />
	</node>
	<node id="-481572" lat="60.5334722238" lon="5.64473889764">
		<tag k="name" v="Haugen" />
		<tag k="natural" v="hill" />
		<tag k="place" v="locality" />
		<tag k="ssr:stedsnr" v="409597" />
	</node>
	<node id="-481571" lat="60.5373472181" lon="5.65030278656">
		<tag k="name" v="Skommabotnen" />
		<tag k="natural" v="valley" />
		<tag k="place" v="locality" />
		<tag k="ssr:stedsnr" v="409595" />
	</node>
	<node id="-481570" lat="60.5405611149" lon="5.58993889394">
		<tag k="alt_name" v="Kalleklauberget" />
		<tag k="name" v="Kalleklauvberget" />
		<tag k="natural" v="hill" />
		<tag k="place" v="locality" />
		<tag k="ssr:stedsnr" v="409590" />
	</node>
	<node id="-481568" lat="60.4710916691" lon="5.59222499263">
		<tag k="name" v="Blomskaret" />
		<tag k="natural" v="hill" />
		<tag k="place" v="locality" />
		<tag k="ssr:stedsnr" v="409577" />
	</node>
	<node id="-481566" lat="60.4824166633" lon="5.65788054921">
		<tag k="name" v="Herdalshaugen" />
		<tag k="natural" v="hill" />
		<tag k="place" v="locality" />
		<tag k="ssr:stedsnr" v="409563" />
	</node>
	<node id="-481565" lat="60.4901805581" lon="5.69362222823">
		<tag k="name" v="Olsnessåta" />
		<tag k="natural" v="hill" />
		<tag k="place" v="locality" />
		<tag k="ssr:stedsnr" v="409556" />
	</node>
	<node id="-481564" lat="60.4924750042" lon="5.69217778471">
		<tag k="name" v="Såtebotnen" />
		<tag k="natural" v="valley" />
		<tag k="place" v="locality" />
		<tag k="ssr:stedsnr" v="409555" />
	</node>
	<node id="-481562" lat="60.4511388916" lon="5.61564166955">
		<tag k="name" v="Skarphaugen" />
		<tag k="natural" v="hill" />
		<tag k="place" v="locality" />
		<tag k="ssr:stedsnr" v="409538" />
	</node>
	<node id="-481559" lat="60.589811113" lon="5.53749721843">
		<tag k="name" v="Støldalen" />
		<tag k="natural" v="valley" />
		<tag k="place" v="locality" />
		<tag k="ssr:stedsnr" v="409521" />
	</node>
	<node id="-481555" lat="60.4461833327" lon="5.53306945176">
		<tag k="name" v="Breidalen" />
		<tag k="natural" v="valley" />
		<tag k="place" v="locality" />
		<tag k="ssr:stedsnr" v="409479" />
	</node>
	<node id="-481554" lat="60.4545156553" lon="5.52040244203">
		<tag k="name" v="Teigen" />
		<tag k="place" v="locality" />
		<tag k="ssr:stedsnr" v="409480" />
	</node>
	<node id="-481553" lat="60.4483416699" lon="5.52987222514">
		<tag k="fixme" v="consider natural=peak for the most distinct mountains in the district" />
		<tag k="name" v="Hovåsen" />
		<tag k="natural" v="hill" />
		<tag k="place" v="locality" />
		<tag k="ssr:stedsnr" v="409478" />
	</node>
	<node id="-481552" lat="60.5834361133" lon="5.59570555829">
		<tag k="name" v="Ålgroå" />
		<tag k="natural" v="hill" />
		<tag k="place" v="locality" />
		<tag k="ssr:stedsnr" v="409433" />
	</node>
	<node id="-481551" lat="60.55133889" lon="5.58985556296">
		<tag k="name" v="Nesjane" />
		<tag k="place" v="locality" />
		<tag k="ssr:stedsnr" v="409422" />
	</node>
	<node id="-481548" lat="60.6540083356" lon="5.61735555391">
		<tag k="name" v="Brunane" />
		<tag k="natural" v="hill" />
		<tag k="place" v="locality" />
		<tag k="ssr:stedsnr" v="409413" />
	</node>
	<node id="-481545" lat="60.5836638928" lon="5.55598610436">
		<tag k="name" v="Kleppsfjellet" />
		<tag k="natural" v="hill" />
		<tag k="place" v="locality" />
		<tag k="ssr:stedsnr" v="409386" />
	</node>
	<node id="-481542" lat="60.5096000039" lon="5.41853610926">
		<tag k="fixme" v="consider natural=peak for the most distinct mountains in the district" />
		<tag k="name" v="Eidefjell" />
		<tag k="natural" v="hill" />
		<tag k="place" v="locality" />
		<tag k="ssr:stedsnr" v="409373" />
	</node>
	<node id="-481538" lat="60.502099998" lon="5.51280278336">
		<tag k="fixme" v="consider natural=peak for the most distinct mountains in the district" />
		<tag k="name" v="Øykåsen" />
		<tag k="natural" v="hill" />
		<tag k="place" v="locality" />
		<tag k="ssr:stedsnr" v="408714" />
	</node>
	<node id="-481537" lat="60.4322611148" lon="5.54001389476">
		<tag k="name" v="Kolabakken" />
		<tag k="natural" v="slope" />
		<tag k="place" v="locality" />
		<tag k="ssr:stedsnr" v="408504" />
	</node>
	<node id="-481536" lat="60.4966888904" lon="5.55956388872">
		<tag k="name" v="Bukkedalen" />
		<tag k="natural" v="valley" />
		<tag k="place" v="locality" />
		<tag k="ssr:stedsnr" v="408310" />
	</node>
	<node id="-481535" lat="60.6694361133" lon="5.64716666573">
		<tag k="fixme" v="consider natural=peak for the most distinct mountains in the district" />
		<tag k="name" v="Mosafjellet" />
		<tag k="natural" v="hill" />
		<tag k="place" v="locality" />
		<tag k="ssr:stedsnr" v="408288" />
	</node>
	<node id="-481532" lat="60.5061083308" lon="5.58602777512">
		<tag k="fixme" v="consider natural=peak for the most distinct mountains in the district" />
		<tag k="name" v="Stangfjellet" />
		<tag k="natural" v="hill" />
		<tag k="place" v="locality" />
		<tag k="ssr:stedsnr" v="370998" />
	</node>
	<node id="-481530" lat="60.5158500005" lon="5.61705000511">
		<tag k="name" v="Brunene" />
		<tag k="natural" v="hill" />
		<tag k="place" v="locality" />
		<tag k="ssr:stedsnr" v="370973" />
	</node>
	<node id="-481529" lat="60.5228499989" lon="5.66120833786">
		<tag k="fixme" v="consider natural=peak for the most distinct mountains in the district" />
		<tag k="name" v="Husfjellet" />
		<tag k="natural" v="hill" />
		<tag k="place" v="locality" />
		<tag k="ssr:stedsnr" v="370971" />
	</node>
	<node id="-481523" lat="60.6241249994" lon="5.62075556404">
		<tag k="name" v="Utløgjelet" />
		<tag k="natural" v="valley" />
		<tag k="place" v="locality" />
		<tag k="ssr:stedsnr" v="370720" />
	</node>
	<node id="-481508" lat="60.6895416685" lon="5.62019444872">
		<tag k="fixme" v="consider natural=peak for the most distinct mountains in the district" />
		<tag k="name" v="Verafjellet" />
		<tag k="natural" v="hill" />
		<tag k="place" v="locality" />
		<tag k="ssr:stedsnr" v="370419" />
	</node>
	<node id="-481504" lat="60.475238886" lon="5.45933056149">
		<tag k="name" v="Rosshaugen" />
		<tag k="natural" v="hill" />
		<tag k="place" v="locality" />
		<tag k="ssr:stedsnr" v="369362" />
	</node>
	<node id="-481502" lat="60.4501861109" lon="5.59568610855">
		<tag k="fixme" v="consider natural=peak for the most distinct mountains in the district" />
		<tag k="name" v="Stokkhella" />
		<tag k="natural" v="hill" />
		<tag k="place" v="locality" />
		<tag k="ssr:stedsnr" v="369009" />
	</node>
	<node id="-481498" lat="60.4777722205" lon="5.64796110348">
		<tag k="fixme" v="consider natural=peak for the most distinct mountains in the district" />
		<tag k="name" v="Svartaberget" />
		<tag k="natural" v="hill" />
		<tag k="place" v="locality" />
		<tag k="ssr:stedsnr" v="369944" />
	</node>
	<node id="-481494" lat="60.4907277809" lon="5.5642555481">
		<tag k="name" v="Honkane" />
		<tag k="place" v="locality" />
		<tag k="ssr:stedsnr" v="348836" />
	</node>
	<node id="-481493" lat="60.4906083338" lon="5.57315278406">
		<tag k="name" v="Vatnaleitet" />
		<tag k="natural" v="hill" />
		<tag k="place" v="locality" />
		<tag k="ssr:stedsnr" v="348835" />
	</node>
	<node id="-481490" lat="60.5818250029" lon="5.46224721297">
		<tag k="name" v="Heia" />
		<tag k="natural" v="hill" />
		<tag k="place" v="locality" />
		<tag k="ssr:stedsnr" v="348798" />
	</node>
	<node id="-481488" lat="60.5301777759" lon="5.35350554782">
		<tag k="name" v="Rinden" />
		<tag k="place" v="locality" />
		<tag k="ssr:stedsnr" v="348782" />
	</node>
	<node id="-481487" lat="60.5217027745" lon="5.36696388836">
		<tag k="name" v="Ramberget" />
		<tag k="natural" v="hill" />
		<tag k="place" v="locality" />
		<tag k="ssr:stedsnr" v="348780" />
	</node>
	<node id="-481486" lat="60.5410138886" lon="5.39483333603">
		<tag k="name" v="Tyttebærrinden" />
		<tag k="place" v="locality" />
		<tag k="ssr:stedsnr" v="348775" />
	</node>
	<node id="-481485" lat="60.5363555583" lon="5.52113610484">
		<tag k="name" v="Svenheimsdalen" />
		<tag k="natural" v="valley" />
		<tag k="place" v="locality" />
		<tag k="ssr:stedsnr" v="348772" />
	</node>
	<node id="-481484" lat="60.4930833288" lon="5.45309999744">
		<tag k="fixme" v="consider natural=peak for the most distinct mountains in the district" />
		<tag k="name" v="Høgaasen" />
		<tag k="natural" v="hill" />
		<tag k="place" v="locality" />
		<tag k="ssr:stedsnr" v="348757" />
	</node>
	<node id="-481482" lat="60.5147194403" lon="5.47499722604">
		<tag k="name" v="Kolabakkane" />
		<tag k="natural" v="slope" />
		<tag k="place" v="locality" />
		<tag k="ssr:stedsnr" v="348689" />
	</node>
	<node id="-481481" lat="60.5353888924" lon="5.49767222488">
		<tag k="name" v="Store Varden" />
		<tag k="natural" v="hill" />
		<tag k="place" v="locality" />
		<tag k="ssr:stedsnr" v="348644" />
	</node>
	<node id="-481479" lat="60.4825555521" lon="5.56023333528">
		<tag k="name" v="Gotena" />
		<tag k="natural" v="hill" />
		<tag k="place" v="locality" />
		<tag k="ssr:stedsnr" v="348619" />
	</node>
	<node id="-481478" lat="60.4982055536" lon="5.55731944221">
		<tag k="name" v="Rishaugen" />
		<tag k="natural" v="hill" />
		<tag k="place" v="locality" />
		<tag k="ssr:stedsnr" v="348614" />
	</node>
	<node id="-481477" lat="60.4980333375" lon="5.55162778009">
		<tag k="name" v="Varhaugen" />
		<tag k="natural" v="hill" />
		<tag k="place" v="locality" />
		<tag k="ssr:stedsnr" v="348613" />
	</node>
	<node id="-481475" lat="60.5176638904" lon="5.6212166632">
		<tag k="name" v="Slåttna" />
		<tag k="natural" v="hill" />
		<tag k="place" v="locality" />
		<tag k="ssr:stedsnr" v="348596" />
	</node>
	<node id="-481474" lat="60.5182111098" lon="5.62991110593">
		<tag k="name" v="Setleite" />
		<tag k="place" v="locality" />
		<tag k="ssr:stedsnr" v="348595" />
	</node>
	<node id="-481473" lat="60.528997218" lon="5.66089722614">
		<tag k="name" v="Kammarbrunæ" />
		<tag k="place" v="locality" />
		<tag k="ssr:stedsnr" v="348593" />
	</node>
	<node id="-481472" lat="60.5215222184" lon="5.66461110801">
		<tag k="name" v="Knåttråghaugane" />
		<tag k="natural" v="hill" />
		<tag k="place" v="locality" />
		<tag k="ssr:stedsnr" v="348591" />
	</node>
	<node id="-481471" lat="60.5249833321" lon="5.61168332601">
		<tag k="name" v="Svartahammaren" />
		<tag k="natural" v="hill" />
		<tag k="place" v="locality" />
		<tag k="ssr:stedsnr" v="348577" />
	</node>
	<node id="-481470" lat="60.4974527788" lon="5.67172499691">
		<tag k="name" v="Sethaugen" />
		<tag k="natural" v="hill" />
		<tag k="place" v="locality" />
		<tag k="ssr:stedsnr" v="348557" />
	</node>
	<node id="-481468" lat="60.495880556" lon="5.68688056327">
		<tag k="name" v="Storebotnen" />
		<tag k="natural" v="valley" />
		<tag k="place" v="locality" />
		<tag k="ssr:stedsnr" v="348551" />
	</node>
	<node id="-481466" lat="60.4927138876" lon="5.61043610946">
		<tag k="name" v="Bjørkerinden" />
		<tag k="place" v="locality" />
		<tag k="ssr:stedsnr" v="348534" />
	</node>
	<node id="-481465" lat="60.5542833336" lon="5.53815833043">
		<tag k="name" v="Heia" />
		<tag k="natural" v="hill" />
		<tag k="place" v="locality" />
		<tag k="ssr:stedsnr" v="348496" />
	</node>
	<node id="-481463" lat="60.5524305571" lon="5.51438333039">
		<tag k="name" v="Olderhaugen" />
		<tag k="natural" v="hill" />
		<tag k="place" v="locality" />
		<tag k="ssr:stedsnr" v="348479" />
	</node>
	<node id="-481461" lat="60.4508861146" lon="5.51031943768">
		<tag k="name" v="Raunevollen" />
		<tag k="place" v="locality" />
		<tag k="ssr:stedsnr" v="348469" />
	</node>
	<node id="-481460" lat="60.4478999966" lon="5.53625834273">
		<tag k="fixme" v="consider natural=peak for the most distinct mountains in the district" />
		<tag k="name" v="Seteråsen" />
		<tag k="natural" v="hill" />
		<tag k="place" v="locality" />
		<tag k="ssr:stedsnr" v="348459" />
	</node>
	<node id="-481459" lat="60.5170277766" lon="5.64427500392">
		<tag k="name" v="Tangane" />
		<tag k="place" v="locality" />
		<tag k="ssr:stedsnr" v="348428" />
	</node>
	<node id="-481456" lat="60.6270527771" lon="5.58951389698">
		<tag k="name" v="Lutane" />
		<tag k="natural" v="hill" />
		<tag k="place" v="locality" />
		<tag k="ssr:stedsnr" v="348412" />
	</node>
	<node id="-481452" lat="60.546583334" lon="5.43734444938">
		<tag k="fixme" v="consider natural=peak for the most distinct mountains in the district" />
		<tag k="name" v="Vasskletten" />
		<tag k="natural" v="hill" />
		<tag k="place" v="locality" />
		<tag k="ssr:stedsnr" v="348375" />
	</node>
	<node id="-481450" lat="60.5160555583" lon="5.41178056419">
		<tag k="fixme" v="consider natural=peak for the most distinct mountains in the district" />
		<tag k="name" v="Austrefjell" />
		<tag k="natural" v="hill" />
		<tag k="place" v="locality" />
		<tag k="ssr:stedsnr" v="348364" />
	</node>
	<node id="-481448" lat="60.5182499973" lon="5.49219445166">
		<tag k="name" v="Klyvebotnen" />
		<tag k="natural" v="valley" />
		<tag k="place" v="locality" />
		<tag k="ssr:stedsnr" v="347738" />
	</node>
	<node id="-481446" lat="60.5034722249" lon="5.5152555589">
		<tag k="name" v="Geilane" />
		<tag k="natural" v="hill" />
		<tag k="place" v="locality" />
		<tag k="ssr:stedsnr" v="347709" />
	</node>
	<node id="-481445" lat="60.5058805601" lon="5.51175834187">
		<tag k="name" v="Vassheia" />
		<tag k="place" v="locality" />
		<tag k="ssr:stedsnr" v="347705" />
	</node>
	<node id="-481443" lat="60.4807166628" lon="5.50097778028">
		<tag k="name" v="Slettebrekkena" />
		<tag k="natural" v="slope" />
		<tag k="place" v="locality" />
		<tag k="ssr:stedsnr" v="347462" />
	</node>
	<node id="-481441" lat="60.6472083353" lon="5.63218056031">
		<tag k="name" v="Kalvedalen" />
		<tag k="natural" v="valley" />
		<tag k="place" v="locality" />
		<tag k="ssr:stedsnr" v="347309" />
	</node>
	<node id="-481437" lat="60.5403055584" lon="5.36521110807">
		<tag k="name" v="Jordarinden" />
		<tag k="natural" v="slope" />
		<tag k="place" v="locality" />
		<tag k="ssr:stedsnr" v="310405" />
	</node>
	<node id="-481434" lat="60.5052750024" lon="5.6777777782">
		<tag k="fixme" v="consider natural=peak for the most distinct mountains in the district" />
		<tag k="name" v="Olsnesnipa" />
		<tag k="natural" v="hill" />
		<tag k="place" v="locality" />
		<tag k="ssr:stedsnr" v="310026" />
	</node>
	<node id="-481433" lat="60.5031250022" lon="5.51015833078">
		<tag k="name" v="Torvelia" />
		<tag k="natural" v="slope" />
		<tag k="place" v="locality" />
		<tag k="ssr:stedsnr" v="309999" />
	</node>
	<node id="-481431" lat="60.5152277761" lon="5.52285556066">
		<tag k="fixme" v="consider natural=peak for the most distinct mountains in the district" />
		<tag k="name" v="Flatevad" />
		<tag k="natural" v="hill" />
		<tag k="place" v="locality" />
		<tag k="ssr:stedsnr" v="309968" />
	</node>
	<node id="-481427" lat="60.525763893" lon="5.58993889327">
		<tag k="alt_name" v="Olshovden, vestre" />
		<tag k="name" v="Vestre Olshovden" />
		<tag k="natural" v="hill" />
		<tag k="place" v="locality" />
		<tag k="ssr:stedsnr" v="309920" />
	</node>
	<node id="-481425" lat="60.5556277809" lon="5.5274583263">
		<tag k="name" v="Drevheia" />
		<tag k="natural" v="hill" />
		<tag k="place" v="locality" />
		<tag k="ssr:stedsnr" v="309631" />
	</node>
	<node id="-481424" lat="60.5628555543" lon="5.4922999914">
		<tag k="name" v="Kossdalen" />
		<tag k="natural" v="valley" />
		<tag k="place" v="locality" />
		<tag k="ssr:stedsnr" v="309619" />
	</node>
	<node id="-481422" lat="60.6332749967" lon="5.62444445051">
		<tag k="fixme" v="consider natural=peak for the most distinct mountains in the district" />
		<tag k="name" v="Flærne" />
		<tag k="natural" v="hill" />
		<tag k="place" v="locality" />
		<tag k="ssr:stedsnr" v="309715" />
	</node>
	<node id="-481419" lat="60.6867444486" lon="5.66001944998">
		<tag k="name" v="Storaskaret" />
		<tag k="natural" v="valley" />
		<tag k="place" v="locality" />
		<tag k="ssr:stedsnr" v="309394" />
	</node>
	<node id="-481407" lat="60.5788638881" lon="5.5226194526">
		<tag k="name" v="Brattlia" />
		<tag k="natural" v="slope" />
		<tag k="place" v="locality" />
		<tag k="ssr:stedsnr" v="294552" />
	</node>
	<node id="-481401" lat="60.4688555563" lon="5.5194138858">
		<tag k="name" v="Ålmenningi" />
		<tag k="place" v="locality" />
		<tag k="ssr:stedsnr" v="288868" />
	</node>
	<node id="-481399" lat="60.4640888848" lon="5.50658888976">
		<tag k="name" v="Presten og Klokkaren" />
		<tag k="natural" v="hill" />
		<tag k="place" v="locality" />
		<tag k="ssr:stedsnr" v="288843" />
	</node>
	<node id="-481398" lat="60.4715749996" lon="5.51100555219">
		<tag k="name" v="Seilane" />
		<tag k="place" v="locality" />
		<tag k="ssr:stedsnr" v="288841" />
	</node>
	<node id="-481397" lat="60.532800001" lon="5.45119443635">
		<tag k="name" v="Snauhaugen" />
		<tag k="natural" v="hill" />
		<tag k="place" v="locality" />
		<tag k="ssr:stedsnr" v="288836" />
	</node>
	<node id="-481395" lat="60.5188722186" lon="5.38780000016">
		<tag k="name" v="Haugen" />
		<tag k="natural" v="hill" />
		<tag k="place" v="locality" />
		<tag k="ssr:stedsnr" v="288813" />
	</node>
	<node id="-481393" lat="60.5311138856" lon="5.37663610513">
		<tag k="name" v="Seljerinden" />
		<tag k="place" v="locality" />
		<tag k="ssr:stedsnr" v="288774" />
	</node>
	<node id="-481392" lat="60.4898916646" lon="5.44973888002">
		<tag k="name" v="Dalsrinden" />
		<tag k="natural" v="valley" />
		<tag k="place" v="locality" />
		<tag k="ssr:stedsnr" v="288742" />
	</node>
	<node id="-481387" lat="60.5655638931" lon="5.47877222676">
		<tag k="fixme" v="consider natural=peak for the most distinct mountains in the district" />
		<tag k="name" v="Holaåsen" />
		<tag k="natural" v="hill" />
		<tag k="place" v="locality" />
		<tag k="ssr:stedsnr" v="288706" />
	</node>
	<node id="-481386" lat="60.5098472197" lon="5.56942777319">
		<tag k="name" v="Nipena" />
		<tag k="natural" v="hill" />
		<tag k="place" v="locality" />
		<tag k="ssr:stedsnr" v="288698" />
	</node>
	<node id="-481385" lat="60.5129111078" lon="5.46989722229">
		<tag k="fixme" v="consider natural=peak for the most distinct mountains in the district" />
		<tag k="name" v="Fjellet" />
		<tag k="natural" v="hill" />
		<tag k="place" v="locality" />
		<tag k="ssr:stedsnr" v="288679" />
	</node>
	<node id="-481384" lat="60.5096583336" lon="5.47274166287">
		<tag k="name" v="Kledberget" />
		<tag k="natural" v="hill" />
		<tag k="place" v="locality" />
		<tag k="ssr:stedsnr" v="288674" />
	</node>
	<node id="-481383" lat="60.4859444406" lon="5.55192500874">
		<tag k="name" v="Ballhaugen" />
		<tag k="natural" v="hill" />
		<tag k="place" v="locality" />
		<tag k="ssr:stedsnr" v="288595" />
	</node>
	<node id="-481381" lat="60.5175277742" lon="5.59636667177">
		<tag k="name" v="Hakenesstemma" />
		<tag k="place" v="locality" />
		<tag k="ssr:stedsnr" v="288577" />
	</node>
	<node id="-481379" lat="60.4886344237" lon="5.67369732608">
		<tag k="name" v="Trollhaugen" />
		<tag k="natural" v="hill" />
		<tag k="place" v="locality" />
		<tag k="ssr:stedsnr" v="288534" />
	</node>
	<node id="-481378" lat="60.4961166705" lon="5.69086388507">
		<tag k="fixme" v="consider natural=peak for the most distinct mountains in the district" />
		<tag k="name" v="Galnanipa" />
		<tag k="natural" v="hill" />
		<tag k="place" v="locality" />
		<tag k="ssr:stedsnr" v="288527" />
	</node>
	<node id="-481376" lat="60.5906277803" lon="5.48821666503">
		<tag k="name" v="Sæterskaret" />
		<tag k="natural" v="hill" />
		<tag k="place" v="locality" />
		<tag k="ssr:stedsnr" v="288491" />
	</node>
	<node id="-481374" lat="60.4423083322" lon="5.57901666635">
		<tag k="name" v="Slåttena" />
		<tag k="natural" v="hill" />
		<tag k="place" v="locality" />
		<tag k="ssr:stedsnr" v="288451" />
	</node>
	<node id="-481373" lat="60.4382444481" lon="5.57974721763">
		<tag k="name" v="Grjothaugen" />
		<tag k="natural" v="hill" />
		<tag k="place" v="locality" />
		<tag k="ssr:stedsnr" v="288438" />
	</node>
	<node id="-481367" lat="60.5191416641" lon="5.41874722922">
		<tag k="name" v="Unndal" />
		<tag k="natural" v="valley" />
		<tag k="place" v="locality" />
		<tag k="ssr:stedsnr" v="288355" />
	</node>
	<node id="-481359" lat="60.5214361142" lon="5.48614999148">
		<tag k="name" v="Borgaskaret" />
		<tag k="natural" v="hill" />
		<tag k="place" v="locality" />
		<tag k="ssr:stedsnr" v="287719" />
	</node>
	<node id="-481358" lat="60.5293388886" lon="5.47885278156">
		<tag k="name" v="Salbustallen" />
		<tag k="natural" v="hill" />
		<tag k="place" v="locality" />
		<tag k="ssr:stedsnr" v="287717" />
	</node>
	<node id="-481357" lat="60.5333444407" lon="5.47091111173">
		<tag k="fixme" v="consider natural=peak for the most distinct mountains in the district" />
		<tag k="name" v="Dalslia" />
		<tag k="natural" v="hill" />
		<tag k="place" v="locality" />
		<tag k="ssr:stedsnr" v="287716" />
	</node>
	<node id="-481356" lat="60.5309222209" lon="5.55539444506">
		<tag k="alt_name" v="Klepsfjellet" />
		<tag k="fixme" v="consider natural=peak for the most distinct mountains in the district" />
		<tag k="name" v="Kleppsfjellet" />
		<tag k="natural" v="hill" />
		<tag k="place" v="locality" />
		<tag k="ssr:stedsnr" v="287710" />
	</node>
	<node id="-481354" lat="60.4919250016" lon="5.54551943639">
		<tag k="name" v="Seljerinden" />
		<tag k="place" v="locality" />
		<tag k="ssr:stedsnr" v="287693" />
	</node>
	<node id="-481353" lat="60.4866666637" lon="5.53212500914">
		<tag k="fixme" v="consider natural=peak for the most distinct mountains in the district" />
		<tag k="name" v="Troppsåsen" />
		<tag k="natural" v="hill" />
		<tag k="place" v="locality" />
		<tag k="ssr:stedsnr" v="287690" />
	</node>
	<node id="-481351" lat="60.4930611125" lon="5.53049166995">
		<tag k="name" v="Mælerinden" />
		<tag k="natural" v="hill" />
		<tag k="place" v="locality" />
		<tag k="ssr:stedsnr" v="287672" />
	</node>
	<node id="-481350" lat="60.4498999994" lon="5.5088083417">
		<tag k="name" v="Skulebotn" />
		<tag k="natural" v="valley" />
		<tag k="place" v="locality" />
		<tag k="ssr:stedsnr" v="287531" />
	</node>
	<node id="-481349" lat="60.480813891" lon="5.51070000325">
		<tag k="name" v="Midtlia" />
		<tag k="natural" v="slope" />
		<tag k="place" v="locality" />
		<tag k="ssr:stedsnr" v="287498" />
	</node>
	<node id="-481348" lat="60.4897194462" lon="5.52567221385">
		<tag k="name" v="Ormhaugen" />
		<tag k="natural" v="hill" />
		<tag k="place" v="locality" />
		<tag k="ssr:stedsnr" v="287493" />
	</node>
	<node id="-481347" lat="60.4924972243" lon="5.50425000469">
		<tag k="name" v="Tjoberget" />
		<tag k="natural" v="hill" />
		<tag k="place" v="locality" />
		<tag k="ssr:stedsnr" v="287492" />
	</node>
	<node id="-481345" lat="60.5059111071" lon="5.48401944643">
		<tag k="name" v="Kletten" />
		<tag k="place" v="locality" />
		<tag k="ssr:stedsnr" v="286743" />
	</node>
	<node id="-481344" lat="60.5380583298" lon="5.53888889058">
		<tag k="name" v="Fifjaliane" />
		<tag k="natural" v="slope" />
		<tag k="place" v="locality" />
		<tag k="ssr:stedsnr" v="286732" />
	</node>
	<node id="-481341" lat="60.4916277736" lon="5.50925000692">
		<tag k="name" v="Rytet" />
		<tag k="natural" v="hill" />
		<tag k="place" v="locality" />
		<tag k="ssr:stedsnr" v="286459" />
	</node>
	<node id="-481339" lat="60.4576305587" lon="5.5204722173">
		<tag k="name" v="Skifterinden" />
		<tag k="place" v="locality" />
		<tag k="ssr:stedsnr" v="286292" />
	</node>
	<node id="-481338" lat="60.4615722244" lon="5.51860833164">
		<tag k="name" v="Hermannsdalen" />
		<tag k="natural" v="valley" />
		<tag k="place" v="locality" />
		<tag k="ssr:stedsnr" v="286293" />
	</node>
	<node id="-481337" lat="60.5102611081" lon="5.53141388572">
		<tag k="name" v="Solbjørgdalen" />
		<tag k="natural" v="valley" />
		<tag k="place" v="locality" />
		<tag k="ssr:stedsnr" v="286288" />
	</node>
</osm>
