<?xml version="1.0" encoding="UTF-8"?>
<osm generator="osmapis" version="0.6">
	<node id="-482110" lat="60.5510944466" lon="5.54521110608">
		<tag k="bridge" v="yes" />
		<tag k="layer" v="1" />
		<tag k="name" v="Myking" />
		<tag k="ssr:stedsnr" v="350043" />
	</node>
	<node id="-483181" lat="60.5243694446" lon="5.61604445181">
		<tag k="highway" v="path" />
		<tag k="name" v="Bustistallen" />
		<tag k="ssr:stedsnr" v="712575" />
	</node>
	<node id="-482019" lat="60.6023777761" lon="5.51689443937">
		<tag k="bridge" v="yes" />
		<tag k="layer" v="1" />
		<tag k="name" v="Bernes" />
		<tag k="ssr:stedsnr" v="290058" />
	</node>
	<node id="-482018" lat="60.5150305539" lon="5.5248388825">
		<tag k="bridge" v="yes" />
		<tag k="layer" v="1" />
		<tag k="name" v="Flatevad" />
		<tag k="ssr:stedsnr" v="290053" />
	</node>
	<node id="-482017" lat="60.4789055574" lon="5.53863888156">
		<tag k="bridge" v="yes" />
		<tag k="layer" v="1" />
		<tag k="name" v="Mæle" />
		<tag k="ssr:stedsnr" v="290016" />
	</node>
	<node id="-482016" lat="60.6184777803" lon="5.5863583312">
		<tag k="bridge" v="yes" />
		<tag k="layer" v="1" />
		<tag k="name" v="Tyssebotn" />
		<tag k="ssr:stedsnr" v="290013" />
	</node>
	<node id="-482015" lat="60.4696055535" lon="5.53614999697">
		<tag k="bridge" v="yes" />
		<tag k="layer" v="1" />
		<tag k="name" v="Veset" />
		<tag k="ssr:stedsnr" v="290005" />
	</node>
	<node id="-483548" lat="60.5899722254" lon="5.52450000451">
		<tag k="bridge" v="yes" />
		<tag k="layer" v="1" />
		<tag k="name" v="Fotlandsvåg" />
		<tag k="ssr:stedsnr" v="957052" />
	</node>
	<node id="-483547" lat="60.5091083292" lon="5.50189721516">
		<tag k="bridge" v="yes" />
		<tag k="layer" v="1" />
		<tag k="name" v="Revheim" />
		<tag k="ssr:stedsnr" v="957011" />
	</node>
	<node id="-482905" lat="60.509708336" lon="5.44068056415">
		<tag k="bridge" v="yes" />
		<tag k="layer" v="1" />
		<tag k="name" v="Kringastemma" />
		<tag k="ssr:stedsnr" v="533049" />
	</node>
	<node id="-482904" lat="60.4729611108" lon="5.65563332455">
		<tag k="bridge" v="yes" />
		<tag k="layer" v="1" />
		<tag k="name" v="Botnen" />
		<tag k="ssr:stedsnr" v="533050" />
	</node>
	<node id="-482903" lat="60.5149305562" lon="5.44562222819">
		<tag k="bridge" v="yes" />
		<tag k="layer" v="1" />
		<tag k="name" v="Småland" />
		<tag k="ssr:stedsnr" v="533017" />
	</node>
	<node id="-483414" lat="60.5180000044" lon="5.64649166786">
		<tag k="bridge" v="yes" />
		<tag k="layer" v="1" />
		<tag k="name" v="Vassdal" />
		<tag k="ssr:stedsnr" v="836006" />
	</node>
	<node id="-483413" lat="60.4478833327" lon="5.61141945226">
		<tag k="bridge" v="yes" />
		<tag k="layer" v="1" />
		<tag k="name" v="Stokko" />
		<tag k="ssr:stedsnr" v="836004" />
	</node>
	<node id="-482260" lat="60.5332972266" lon="5.5392361076">
		<tag k="bridge" v="yes" />
		<tag k="layer" v="1" />
		<tag k="name" v="Fitje" />
		<tag k="ssr:stedsnr" v="897045" />
	</node>
	<node id="-482259" lat="60.4905888904" lon="5.54951945027">
		<tag k="bridge" v="yes" />
		<tag k="layer" v="1" />
		<tag k="name" v="Hartveit Nordre" />
		<tag k="ssr:stedsnr" v="897043" />
	</node>
	<node id="-482258" lat="60.5107722261" lon="5.43616388596">
		<tag k="bridge" v="yes" />
		<tag k="layer" v="1" />
		<tag k="name" v="Bullbrekka" />
		<tag k="ssr:stedsnr" v="897044" />
	</node>
	<node id="-482383" lat="60.5078361113" lon="5.49880833894">
		<tag k="bridge" v="yes" />
		<tag k="layer" v="1" />
		<tag k="name" v="Vevleelv" />
		<tag k="ssr:stedsnr" v="47008" />
	</node>
	<node id="-483010" lat="60.4726805578" lon="5.52872499657">
		<tag k="bridge" v="yes" />
		<tag k="layer" v="1" />
		<tag k="name" v="Rolland" />
		<tag k="ssr:stedsnr" v="593017" />
	</node>
	<node id="-483009" lat="60.5051694431" lon="5.42959443975">
		<tag k="bridge" v="yes" />
		<tag k="layer" v="1" />
		<tag k="name" v="Valestrandsfossen" />
		<tag k="ssr:stedsnr" v="593013" />
	</node>
	<node id="-482495" lat="60.5206333335" lon="5.47840555372">
		<tag k="layer" v="-1" />
		<tag k="name" v="Borgatunnelen" />
		<tag k="ssr:stedsnr" v="120260" />
		<tag k="tunnel" v="yes" />
	</node>
	<node id="-482494" lat="60.5019888922" lon="5.47561388147">
		<tag k="bridge" v="yes" />
		<tag k="layer" v="1" />
		<tag k="name" v="Hauge Sør" />
		<tag k="ssr:stedsnr" v="108045" />
	</node>
	<node id="-482109" lat="60.4535083296" lon="5.51182222347">
		<tag k="bridge" v="yes" />
		<tag k="layer" v="1" />
		<tag k="name" v="Stokke" />
		<tag k="ssr:stedsnr" v="350006" />
	</node>
	<node id="-483516" lat="60.5360277809" lon="5.66538332884">
		<tag k="highway" v="path" />
		<tag k="name" v="Rypestien" />
		<tag k="ssr:stedsnr" v="955622" />
	</node>
	<node id="-483215" lat="60.5286861072" lon="5.53066667224">
		<tag k="bridge" v="yes" />
		<tag k="layer" v="1" />
		<tag k="name" v="Fitjestokken" />
		<tag k="ssr:stedsnr" v="715046" />
	</node>
	<node id="-482610" lat="60.5276277752" lon="5.49257222199">
		<tag k="bridge" v="yes" />
		<tag k="layer" v="1" />
		<tag k="name" v="Lonevåg" />
		<tag k="ssr:stedsnr" v="168053" />
	</node>
	<node id="-482096" lat="60.5138333334" lon="5.55964445096">
		<tag k="highway" v="path" />
		<tag k="name" v="Kleivane" />
		<tag k="ssr:stedsnr" v="348717" />
	</node>
	<node id="-482222" lat="60.5509430215" lon="5.45878301523">
		<tag k="man_made" v="quay" />
		<tag k="name" v="Bysheim kai" />
		<tag k="place" v="locality" />
		<tag k="ssr:stedsnr" v="894432" />
	</node>
	<node id="-482831" lat="60.5505393257" lon="5.50875400943">
		<tag k="name" v="Kossdalssvingane" />
		<tag k="place" v="locality" />
		<tag k="ssr:stedsnr" v="491618" />
	</node>
	<node id="-482984" lat="60.5123138924" lon="5.64129445207">
		<tag k="highway" v="path" />
		<tag k="name" v="Nebbå" />
		<tag k="ssr:stedsnr" v="591596" />
	</node>
	<node id="-481959" lat="60.5319972197" lon="5.49447223083">
		<tag k="layer" v="-1" />
		<tag k="name" v="Lonevåg" />
		<tag k="ssr:stedsnr" v="287332" />
		<tag k="tunnel" v="yes" />
	</node>
	<node id="-483106" lat="60.4878194416" lon="5.55300833701">
		<tag k="bridge" v="yes" />
		<tag k="layer" v="1" />
		<tag k="name" v="Hartveit Sør" />
		<tag k="ssr:stedsnr" v="654039" />
	</node>
	<node id="-482209" lat="60.4565861092" lon="5.62114999529">
		<tag k="bridge" v="yes" />
		<tag k="layer" v="1" />
		<tag k="name" v="Skaftå" />
		<tag k="ssr:stedsnr" v="411012" />
	</node>
	<node id="-482180" lat="60.4702027736" lon="5.64132500853">
		<tag k="highway" v="path" />
		<tag k="name" v="Bjørnstien" />
		<tag k="ssr:stedsnr" v="409573" />
	</node>
	<node id="-483093" lat="60.4687805097" lon="5.46303593639">
		<tag k="man_made" v="quay" />
		<tag k="name" v="Votlakaien" />
		<tag k="place" v="locality" />
		<tag k="ssr:stedsnr" v="651812" />
	</node>
	<node id="-482324" lat="60.4319722251" lon="5.53683611376">
		<tag k="layer" v="-1" />
		<tag k="name" v="Tirås" />
		<tag k="ssr:stedsnr" v="44691" />
		<tag k="tunnel" v="yes" />
	</node>
	<node id="-482704" lat="60.5050694454" lon="5.42720555571">
		<tag k="alt_name" v="Ferjekai" />
		<tag k="amenity" v="ferry_terminal" />
		<tag k="name" v="Valestrand ferjekai" />
		<tag k="ssr:stedsnr" v="229012" />
	</node>
	<node id="-483087" lat="60.5018638922" lon="5.53508055701">
		<tag k="highway" v="path" />
		<tag k="name" v="Kleivane" />
		<tag k="ssr:stedsnr" v="651756" />
	</node>
	<node id="-483214" lat="60.5148416682" lon="5.44341110905">
		<tag k="bridge" v="yes" />
		<tag k="layer" v="1" />
		<tag k="name" v="Loftås" />
		<tag k="ssr:stedsnr" v="715042" />
	</node>
	<node id="-483213" lat="60.4540388883" lon="5.53032221958">
		<tag k="bridge" v="yes" />
		<tag k="layer" v="1" />
		<tag k="name" v="Smed" />
		<tag k="ssr:stedsnr" v="715015" />
	</node>
	<node id="-483212" lat="60.490622224" lon="5.66903333444">
		<tag k="bridge" v="yes" />
		<tag k="layer" v="1" />
		<tag k="name" v="Olsnes" />
		<tag k="ssr:stedsnr" v="715013" />
	</node>
	<node id="-483211" lat="60.5102472218" lon="5.65718054932">
		<tag k="bridge" v="yes" />
		<tag k="layer" v="1" />
		<tag k="name" v="Søyla" />
		<tag k="ssr:stedsnr" v="715011" />
	</node>
	<node id="-483210" lat="60.5540444453" lon="5.42382500747">
		<tag k="bridge" v="yes" />
		<tag k="layer" v="1" />
		<tag k="name" v="Raknes" />
		<tag k="ssr:stedsnr" v="715012" />
	</node>
	<node id="-483415" lat="60.4540611132" lon="5.52974722687">
		<tag k="bridge" v="yes" />
		<tag k="layer" v="1" />
		<tag k="name" v="Jørn" />
		<tag k="ssr:stedsnr" v="836034" />
	</node>
	<node id="-482493" lat="60.5037611152" lon="5.53831666029">
		<tag k="bridge" v="yes" />
		<tag k="layer" v="1" />
		<tag k="name" v="Solbjørg" />
		<tag k="ssr:stedsnr" v="108013" />
	</node>
	<node id="-482820" lat="60.5073777791" lon="5.48916666382">
		<tag k="bridge" v="yes" />
		<tag k="layer" v="1" />
		<tag k="name" v="Haugvik" />
		<tag k="ssr:stedsnr" v="472041" />
	</node>
	<node id="-482819" lat="60.5113611077" lon="5.51983055037">
		<tag k="bridge" v="yes" />
		<tag k="layer" v="1" />
		<tag k="name" v="Lone" />
		<tag k="ssr:stedsnr" v="472035" />
	</node>
</osm>
