<?xml version="1.0" encoding="UTF-8"?>
<<<<<<< HEAD
<osm version="0.6" generator="osmapis">
	<node lat="61.11195277688698" lon="7.427866658361988" id="-45029">
=======
<osm generator="osmapis" version="0.6">
	<node id="-677100" lat="61.1468749978" lon="7.37394443784">
		<tag k="alt_name" v="Fodnes" />
		<tag k="name" v="Fodnes lykt" />
		<tag k="ssr:date" v="2019-12-27" />
		<tag k="ssr:gruppe" v="navigasjon" />
		<tag k="ssr:hovedgruppe" v="infrastruktur" />
		<tag k="ssr:stedsnr" v="479816" />
		<tag k="ssr:type" v="fyrlykt" />
	</node>
	<node id="-677099" lat="61.1119527769" lon="7.42786665836">
>>>>>>> e1d4bc35ff8a6074a6f2e91616a996b547c36f15
		<tag k="name" v="Tronenes" />
		<tag k="ssr:date" v="2019-12-27" />
		<tag k="ssr:gruppe" v="navigasjon" />
		<tag k="ssr:hovedgruppe" v="infrastruktur" />
		<tag k="ssr:stedsnr" v="479814" />
		<tag k="ssr:type" v="lanterne" />
	</node>
<<<<<<< HEAD
	<node lat="61.146874997772095" lon="7.373944437838183" id="-45030">
		<tag k="alt_name" v="Fodnes" />
		<tag k="name" v="Fodnes lykt" />
		<tag k="ssr:date" v="2019-12-27" />
		<tag k="ssr:gruppe" v="navigasjon" />
		<tag k="ssr:hovedgruppe" v="infrastruktur" />
		<tag k="ssr:stedsnr" v="479816" />
		<tag k="ssr:type" v="fyrlykt" />
	</node>
	<node lat="61.11743888613916" lon="7.1681916670697605" id="-45762">
		<tag k="name" v="Frønningen" />
		<tag k="ssr:date" v="2021-06-08" />
		<tag k="ssr:gruppe" v="administrativeIndelinger" />
		<tag k="ssr:hovedgruppe" v="offentligAdministrasjon" />
		<tag k="ssr:stedsnr" v="209570" />
		<tag k="ssr:type" v="poststed" />
	</node>
	<node lat="61.09842222664242" lon="7.4810000052757655" id="-45927">
		<tag k="alt_name" v="Lærdal" />
		<tag k="name" v="Lærdal kommune" />
		<tag k="ssr:date" v="2019-12-27" />
		<tag k="ssr:gruppe" v="administrativeIndelinger" />
		<tag k="ssr:hovedgruppe" v="offentligAdministrasjon" />
		<tag k="ssr:stedsnr" v="388034" />
		<tag k="ssr:type" v="kommune" />
	</node>
	<node lat="61.17257631126466" lon="8.05911534253754" id="-46463">
		<tag k="name" v="Fillestølsgrendi" />
		<tag k="ssr:date" v="2019-12-27" />
		<tag k="ssr:gruppe" v="veg" />
		<tag k="ssr:hovedgruppe" v="infrastruktur" />
		<tag k="ssr:stedsnr" v="1052388" />
		<tag k="ssr:type" v="adressenavn" />
	</node>
	<node lat="61.17705131263596" lon="8.070064039792383" id="-46464">
		<tag k="name" v="Grønestølslii" />
		<tag k="ssr:date" v="2019-12-27" />
		<tag k="ssr:gruppe" v="veg" />
		<tag k="ssr:hovedgruppe" v="infrastruktur" />
		<tag k="ssr:stedsnr" v="1052390" />
		<tag k="ssr:type" v="adressenavn" />
	</node>
	<node lat="61.15968525630876" lon="8.029863530594179" id="-46465">
		<tag k="name" v="Buhaugane" />
		<tag k="ssr:date" v="2019-12-27" />
		<tag k="ssr:gruppe" v="veg" />
		<tag k="ssr:hovedgruppe" v="infrastruktur" />
		<tag k="ssr:stedsnr" v="1052391" />
		<tag k="ssr:type" v="adressenavn" />
	</node>
	<node lat="61.1651776132062" lon="8.017328828512403" id="-46466">
=======
	<node id="-678607" lat="69.6388889725" lon="30.5666644427">
		<tag k="fixme" v="multiple name tags, choose one and add the other to alt_name" />
		<tag k="loc_name:se" v="Norgga gonagasriika" />
		<tag k="loc_name:sma" v="Nöörjen gånkarïjhke" />
		<tag k="loc_name:smj" v="Vuona gånågisrijkka" />
		<tag k="name" v="Noreg;Norge" />
		<tag k="name:en" v="Norway" />
		<tag k="name:no" v="Noreg;Norge" />
		<tag k="ssr:date" v="2020-06-04" />
		<tag k="ssr:gruppe" v="administrativeIndelinger" />
		<tag k="ssr:hovedgruppe" v="offentligAdministrasjon" />
		<tag k="ssr:stedsnr" v="26330" />
		<tag k="ssr:type" v="nasjon" />
	</node>
	<node id="-678606" lat="61.1727529095" lon="8.05675286258">
		<tag k="name" v="Øvre Smeddalsvatnet" />
		<tag k="ssr:date" v="2020-06-02" />
		<tag k="ssr:gruppe" v="veg" />
		<tag k="ssr:hovedgruppe" v="infrastruktur" />
		<tag k="ssr:stedsnr" v="1077164" />
		<tag k="ssr:type" v="adressenavn" />
	</node>
	<node id="-677962" lat="61.0984222266" lon="7.48100000528">
		<tag k="alt_name" v="Lærdal" />
		<tag k="name" v="Lærdal kommune" />
		<tag k="ssr:date" v="2019-12-27" />
		<tag k="ssr:gruppe" v="administrativeIndelinger" />
		<tag k="ssr:hovedgruppe" v="offentligAdministrasjon" />
		<tag k="ssr:stedsnr" v="388034" />
		<tag k="ssr:type" v="kommune" />
	</node>
	<node id="-678600" lat="60.3866658713" lon="5.33255753121">
		<tag k="name" v="Vestland fylke" />
		<tag k="ssr:date" v="2020-01-13" />
		<tag k="ssr:gruppe" v="administrativeIndelinger" />
		<tag k="ssr:hovedgruppe" v="offentligAdministrasjon" />
		<tag k="ssr:stedsnr" v="1074408" />
		<tag k="ssr:type" v="fylke" />
	</node>
	<node id="-678599" lat="61.1100518786" lon="8.03503438026">
		<tag k="name" v="Maristova" />
		<tag k="ssr:date" v="2019-12-27" />
		<tag k="ssr:gruppe" v="veg" />
		<tag k="ssr:hovedgruppe" v="infrastruktur" />
		<tag k="ssr:stedsnr" v="1074052" />
		<tag k="ssr:type" v="adressenavn" />
	</node>
	<node id="-678598" lat="61.1625716951" lon="8.07694152355">
		<tag k="name" v="Gamle kongevegen" />
		<tag k="ssr:date" v="2019-12-27" />
		<tag k="ssr:gruppe" v="veg" />
		<tag k="ssr:hovedgruppe" v="infrastruktur" />
		<tag k="ssr:stedsnr" v="1073333" />
		<tag k="ssr:type" v="vegstrekning" />
	</node>
	<node id="-678597" lat="61.1651776132" lon="8.01732882851">
>>>>>>> e1d4bc35ff8a6074a6f2e91616a996b547c36f15
		<tag k="name" v="Sluten" />
		<tag k="ssr:date" v="2019-12-27" />
		<tag k="ssr:gruppe" v="veg" />
		<tag k="ssr:hovedgruppe" v="infrastruktur" />
		<tag k="ssr:stedsnr" v="1052392" />
		<tag k="ssr:type" v="adressenavn" />
	</node>
<<<<<<< HEAD
	<node lat="61.009045242519825" lon="8.115154336548477" id="-46467">
		<tag k="name" v="Osen" />
		<tag k="ssr:date" v="2019-12-27" />
		<tag k="ssr:gruppe" v="veg" />
		<tag k="ssr:hovedgruppe" v="infrastruktur" />
		<tag k="ssr:stedsnr" v="1052367" />
		<tag k="ssr:type" v="adressenavn" />
	</node>
	<node lat="61.02246718633456" lon="8.045207605359817" id="-46468">
		<tag k="name" v="Breistølen" />
		<tag k="ssr:date" v="2019-12-27" />
		<tag k="ssr:gruppe" v="veg" />
		<tag k="ssr:hovedgruppe" v="infrastruktur" />
		<tag k="ssr:stedsnr" v="1052369" />
		<tag k="ssr:type" v="adressenavn" />
	</node>
	<node lat="61.01104440748834" lon="8.10923523434979" id="-46469">
		<tag k="name" v="Glitreøyni" />
		<tag k="ssr:date" v="2019-12-27" />
		<tag k="ssr:gruppe" v="veg" />
		<tag k="ssr:hovedgruppe" v="infrastruktur" />
		<tag k="ssr:stedsnr" v="1052371" />
		<tag k="ssr:type" v="adressenavn" />
	</node>
	<node lat="61.10752830360566" lon="8.039990792636148" id="-46470">
		<tag k="name" v="Oddestubben" />
=======
	<node id="-678596" lat="61.1596852563" lon="8.02986353059">
		<tag k="name" v="Buhaugane" />
		<tag k="ssr:date" v="2019-12-27" />
		<tag k="ssr:gruppe" v="veg" />
		<tag k="ssr:hovedgruppe" v="infrastruktur" />
		<tag k="ssr:stedsnr" v="1052391" />
		<tag k="ssr:type" v="adressenavn" />
	</node>
	<node id="-678595" lat="61.1770513126" lon="8.07006403979">
		<tag k="name" v="Grønestølslii" />
		<tag k="ssr:date" v="2019-12-27" />
		<tag k="ssr:gruppe" v="veg" />
		<tag k="ssr:hovedgruppe" v="infrastruktur" />
		<tag k="ssr:stedsnr" v="1052390" />
		<tag k="ssr:type" v="adressenavn" />
	</node>
	<node id="-677824" lat="61.1174388861" lon="7.16819166707">
		<tag k="name" v="Frønningen" />
		<tag k="ssr:date" v="2019-12-27" />
		<tag k="ssr:gruppe" v="administrativeIndelinger" />
		<tag k="ssr:hovedgruppe" v="offentligAdministrasjon" />
		<tag k="ssr:stedsnr" v="209570" />
		<tag k="ssr:type" v="poststed" />
	</node>
	<node id="-677522" lat="61.1725763113" lon="8.05911534254">
		<tag k="name" v="Fillestølsgrendi" />
		<tag k="ssr:date" v="2019-12-27" />
		<tag k="ssr:gruppe" v="veg" />
		<tag k="ssr:hovedgruppe" v="infrastruktur" />
		<tag k="ssr:stedsnr" v="1052388" />
		<tag k="ssr:type" v="adressenavn" />
	</node>
	<node id="-677521" lat="61.024605972" lon="8.0327377035">
		<tag k="name" v="Stardalen" />
>>>>>>> e1d4bc35ff8a6074a6f2e91616a996b547c36f15
		<tag k="ssr:date" v="2019-12-27" />
		<tag k="ssr:gruppe" v="veg" />
		<tag k="ssr:hovedgruppe" v="infrastruktur" />
		<tag k="ssr:stedsnr" v="1052385" />
		<tag k="ssr:type" v="adressenavn" />
	</node>
<<<<<<< HEAD
	<node lat="61.108513914453034" lon="8.04198513454965" id="-46471">
		<tag k="name" v="Orrehaugen" />
		<tag k="ssr:date" v="2019-12-27" />
		<tag k="ssr:gruppe" v="veg" />
		<tag k="ssr:hovedgruppe" v="infrastruktur" />
		<tag k="ssr:stedsnr" v="1052373" />
		<tag k="ssr:type" v="adressenavn" />
	</node>
	<node lat="61.109644253302726" lon="8.035788983672353" id="-46472">
		<tag k="name" v="Smeddalsvegen" />
		<tag k="ssr:date" v="2019-12-27" />
		<tag k="ssr:gruppe" v="veg" />
		<tag k="ssr:hovedgruppe" v="infrastruktur" />
		<tag k="ssr:stedsnr" v="1052374" />
		<tag k="ssr:type" v="adressenavn" />
	</node>
	<node lat="61.10845844516244" lon="8.038218534706562" id="-46473">
		<tag k="name" v="Gramstølen" />
		<tag k="ssr:date" v="2019-12-27" />
		<tag k="ssr:gruppe" v="veg" />
		<tag k="ssr:hovedgruppe" v="infrastruktur" />
		<tag k="ssr:stedsnr" v="1052375" />
		<tag k="ssr:type" v="adressenavn" />
	</node>
	<node lat="61.16544330072564" lon="8.051562057973475" id="-46474">
		<tag k="name" v="Fillestølen" />
		<tag k="ssr:date" v="2019-12-27" />
		<tag k="ssr:gruppe" v="veg" />
		<tag k="ssr:hovedgruppe" v="infrastruktur" />
		<tag k="ssr:stedsnr" v="1052384" />
		<tag k="ssr:type" v="adressenavn" />
	</node>
	<node lat="61.02460597199975" lon="8.032737703499194" id="-46475">
		<tag k="name" v="Stardalen" />
		<tag k="ssr:date" v="2019-12-27" />
		<tag k="ssr:gruppe" v="veg" />
		<tag k="ssr:hovedgruppe" v="infrastruktur" />
		<tag k="ssr:stedsnr" v="1052385" />
		<tag k="ssr:type" v="adressenavn" />
	</node>
	<node lat="61.16257169513108" lon="8.076941523551858" id="-46476">
		<tag k="name" v="Gamle kongevegen" />
		<tag k="ssr:date" v="2019-12-27" />
		<tag k="ssr:gruppe" v="veg" />
		<tag k="ssr:hovedgruppe" v="infrastruktur" />
		<tag k="ssr:stedsnr" v="1073333" />
		<tag k="ssr:type" v="vegstrekning" />
	</node>
	<node lat="61.11005187864257" lon="8.035034380264506" id="-46477">
		<tag k="name" v="Maristova" />
		<tag k="ssr:date" v="2019-12-27" />
		<tag k="ssr:gruppe" v="veg" />
		<tag k="ssr:hovedgruppe" v="infrastruktur" />
		<tag k="ssr:stedsnr" v="1074052" />
		<tag k="ssr:type" v="adressenavn" />
	</node>
	<node lat="60.38666587132831" lon="5.332557531214444" id="-46478">
		<tag k="name" v="Vestland fylke" />
		<tag k="ssr:date" v="2021-06-08" />
		<tag k="ssr:gruppe" v="administrativeIndelinger" />
		<tag k="ssr:hovedgruppe" v="offentligAdministrasjon" />
		<tag k="ssr:stedsnr" v="1074408" />
		<tag k="ssr:type" v="fylke" />
	</node>
	<node lat="61.17275290948272" lon="8.0567528625765" id="-46484">
		<tag k="name" v="Øvre Smeddalsvatnet" />
		<tag k="ssr:date" v="2020-06-02" />
		<tag k="ssr:gruppe" v="veg" />
		<tag k="ssr:hovedgruppe" v="infrastruktur" />
		<tag k="ssr:stedsnr" v="1077164" />
=======
	<node id="-677520" lat="61.1654433007" lon="8.05156205797">
		<tag k="name" v="Fillestølen" />
		<tag k="ssr:date" v="2019-12-27" />
		<tag k="ssr:gruppe" v="veg" />
		<tag k="ssr:hovedgruppe" v="infrastruktur" />
		<tag k="ssr:stedsnr" v="1052384" />
		<tag k="ssr:type" v="adressenavn" />
	</node>
	<node id="-677519" lat="61.1084584452" lon="8.03821853471">
		<tag k="name" v="Gramstølen" />
		<tag k="ssr:date" v="2019-12-27" />
		<tag k="ssr:gruppe" v="veg" />
		<tag k="ssr:hovedgruppe" v="infrastruktur" />
		<tag k="ssr:stedsnr" v="1052375" />
		<tag k="ssr:type" v="adressenavn" />
	</node>
	<node id="-677518" lat="61.1096442533" lon="8.03578898367">
		<tag k="name" v="Smeddalsvegen" />
		<tag k="ssr:date" v="2019-12-27" />
		<tag k="ssr:gruppe" v="veg" />
		<tag k="ssr:hovedgruppe" v="infrastruktur" />
		<tag k="ssr:stedsnr" v="1052374" />
		<tag k="ssr:type" v="adressenavn" />
	</node>
	<node id="-677517" lat="61.1085139145" lon="8.04198513455">
		<tag k="name" v="Orrehaugen" />
		<tag k="ssr:date" v="2019-12-27" />
		<tag k="ssr:gruppe" v="veg" />
		<tag k="ssr:hovedgruppe" v="infrastruktur" />
		<tag k="ssr:stedsnr" v="1052373" />
		<tag k="ssr:type" v="adressenavn" />
	</node>
	<node id="-677516" lat="61.1075283036" lon="8.03999079264">
		<tag k="name" v="Oddestubben" />
		<tag k="ssr:date" v="2019-12-27" />
		<tag k="ssr:gruppe" v="veg" />
		<tag k="ssr:hovedgruppe" v="infrastruktur" />
		<tag k="ssr:stedsnr" v="1052372" />
		<tag k="ssr:type" v="adressenavn" />
	</node>
	<node id="-677515" lat="61.0110444075" lon="8.10923523435">
		<tag k="name" v="Glitreøyni" />
		<tag k="ssr:date" v="2019-12-27" />
		<tag k="ssr:gruppe" v="veg" />
		<tag k="ssr:hovedgruppe" v="infrastruktur" />
		<tag k="ssr:stedsnr" v="1052371" />
		<tag k="ssr:type" v="adressenavn" />
	</node>
	<node id="-677514" lat="61.0224671863" lon="8.04520760536">
		<tag k="name" v="Breistølen" />
		<tag k="ssr:date" v="2019-12-27" />
		<tag k="ssr:gruppe" v="veg" />
		<tag k="ssr:hovedgruppe" v="infrastruktur" />
		<tag k="ssr:stedsnr" v="1052369" />
		<tag k="ssr:type" v="adressenavn" />
	</node>
	<node id="-677513" lat="61.0090452425" lon="8.11515433655">
		<tag k="name" v="Osen" />
		<tag k="ssr:date" v="2019-12-27" />
		<tag k="ssr:gruppe" v="veg" />
		<tag k="ssr:hovedgruppe" v="infrastruktur" />
		<tag k="ssr:stedsnr" v="1052367" />
>>>>>>> e1d4bc35ff8a6074a6f2e91616a996b547c36f15
		<tag k="ssr:type" v="adressenavn" />
	</node>
</osm>
