<?xml version="1.0" encoding="UTF-8"?>
<osm version="0.6" generator="osmapis">
	<node lat="64.31881944063917" lon="12.387794447383492" id="-49459">
		<tag k="name" v="Pemyra" />
		<tag k="name:no" v="Pemyra" />
		<tag k="natural" v="wetland" />
		<tag k="ssr:date" v="2018-01-09" />
		<tag k="ssr:gruppe" v="våtmark" />
		<tag k="ssr:hovedgruppe" v="markslag" />
		<tag k="ssr:stedsnr" v="230619" />
		<tag k="ssr:type" v="myr" />
	</node>
	<node lat="64.34659999904791" lon="12.328594450047763" id="-49460">
		<tag k="name" v="Flatslettet" />
		<tag k="name:no" v="Flatslettet" />
		<tag k="natural" v="wetland" />
		<tag k="ssr:date" v="2018-01-09" />
		<tag k="ssr:gruppe" v="våtmark" />
		<tag k="ssr:hovedgruppe" v="markslag" />
		<tag k="ssr:stedsnr" v="230016" />
		<tag k="ssr:type" v="myr" />
	</node>
	<node lat="64.33038888761287" lon="12.304961100632397" id="-49461">
		<tag k="name" v="Litlmyra" />
		<tag k="name:no" v="Litlmyra" />
		<tag k="natural" v="wetland" />
		<tag k="ssr:date" v="2018-01-09" />
		<tag k="ssr:gruppe" v="våtmark" />
		<tag k="ssr:hovedgruppe" v="markslag" />
		<tag k="ssr:stedsnr" v="230022" />
		<tag k="ssr:type" v="myr" />
	</node>
	<node lat="64.33421944352764" lon="12.331352787151587" id="-49462">
		<tag k="name" v="Koltjønnåsen" />
		<tag k="name:no" v="Koltjønnåsen" />
		<tag k="natural" v="hill" />
		<tag k="place" v="locality" />
		<tag k="ssr:date" v="2018-01-09" />
		<tag k="ssr:gruppe" v="høyder" />
		<tag k="ssr:hovedgruppe" v="terreng" />
		<tag k="ssr:stedsnr" v="230026" />
		<tag k="ssr:type" v="haug" />
	</node>
	<node lat="64.36668333257154" lon="12.406558335720632" id="-49463">
		<tag k="name" v="Haugslettjønna" />
		<tag k="name:no" v="Haugslettjønna" />
		<tag k="natural" v="water" />
		<tag k="ssr:date" v="2018-01-09" />
		<tag k="ssr:gruppe" v="stilleståendeVann" />
		<tag k="ssr:hovedgruppe" v="ferskvann" />
		<tag k="ssr:stedsnr" v="230047" />
		<tag k="ssr:type" v="tjern" />
	</node>
	<node lat="64.35605832992391" lon="12.3694000031348" id="-49464">
		<tag k="name" v="Postmyra" />
		<tag k="name:no" v="Postmyra" />
		<tag k="natural" v="wetland" />
		<tag k="ssr:date" v="2018-01-09" />
		<tag k="ssr:gruppe" v="våtmark" />
		<tag k="ssr:hovedgruppe" v="markslag" />
		<tag k="ssr:stedsnr" v="230048" />
		<tag k="ssr:type" v="myr" />
	</node>
	<node lat="64.21846944611846" lon="12.484169445101413" id="-49465">
		<tag k="name" v="Smørkannhaugen" />
		<tag k="name:no" v="Smørkannhaugen" />
		<tag k="natural" v="hill" />
		<tag k="place" v="locality" />
		<tag k="ssr:date" v="2018-01-09" />
		<tag k="ssr:gruppe" v="høyder" />
		<tag k="ssr:hovedgruppe" v="terreng" />
		<tag k="ssr:stedsnr" v="230050" />
		<tag k="ssr:type" v="haug" />
	</node>
	<node lat="64.37541666454106" lon="12.402527773196141" id="-49466">
		<tag k="name" v="Raumaberget" />
		<tag k="name:no" v="Raumaberget" />
		<tag k="natural" v="hill" />
		<tag k="place" v="locality" />
		<tag k="ssr:date" v="2018-01-09" />
		<tag k="ssr:gruppe" v="høyder" />
		<tag k="ssr:hovedgruppe" v="terreng" />
		<tag k="ssr:stedsnr" v="230051" />
		<tag k="ssr:type" v="berg" />
	</node>
	<node lat="64.2005277820666" lon="12.389275002839552" id="-49467">
		<tag k="name" v="Fjellbandet" />
		<tag k="name:no" v="Fjellbandet" />
		<tag k="natural" v="slope" />
		<tag k="place" v="locality" />
		<tag k="ssr:date" v="2018-01-09" />
		<tag k="ssr:gruppe" v="skråninger" />
		<tag k="ssr:hovedgruppe" v="terreng" />
		<tag k="ssr:stedsnr" v="230057" />
		<tag k="ssr:type" v="li" />
	</node>
	<node lat="64.18640555839318" lon="12.407844449442095" id="-49468">
		<tag k="name" v="Finnhusslettet" />
		<tag k="name:no" v="Finnhusslettet" />
		<tag k="natural" v="wetland" />
		<tag k="ssr:date" v="2018-01-09" />
		<tag k="ssr:gruppe" v="våtmark" />
		<tag k="ssr:hovedgruppe" v="markslag" />
		<tag k="ssr:stedsnr" v="230067" />
		<tag k="ssr:type" v="myr" />
	</node>
	<node lat="64.21833333716427" lon="12.44755000766021" id="-49469">
		<tag k="name" v="Stor-Raudmyrrabben" />
		<tag k="name:no" v="Stor-Raudmyrrabben" />
		<tag k="natural" v="hill" />
		<tag k="place" v="locality" />
		<tag k="ssr:date" v="2018-01-09" />
		<tag k="ssr:gruppe" v="høyder" />
		<tag k="ssr:hovedgruppe" v="terreng" />
		<tag k="ssr:stedsnr" v="230068" />
		<tag k="ssr:type" v="haug" />
	</node>
	<node lat="64.31351944122558" lon="12.520055556035006" id="-49470">
		<tag k="name" v="Krokhaugan" />
		<tag k="name:no" v="Krokhaugan" />
		<tag k="natural" v="hill" />
		<tag k="place" v="locality" />
		<tag k="ssr:date" v="2018-01-09" />
		<tag k="ssr:gruppe" v="høyder" />
		<tag k="ssr:hovedgruppe" v="terreng" />
		<tag k="ssr:stedsnr" v="230071" />
		<tag k="ssr:type" v="haug" />
	</node>
	<node lat="64.31154166706419" lon="12.502558327342308" id="-49471">
		<tag k="name" v="Brugjøta" />
		<tag k="name:no" v="Brugjøta" />
		<tag k="natural" v="wetland" />
		<tag k="ssr:date" v="2018-01-09" />
		<tag k="ssr:gruppe" v="våtmark" />
		<tag k="ssr:hovedgruppe" v="markslag" />
		<tag k="ssr:stedsnr" v="230073" />
		<tag k="ssr:type" v="myr" />
	</node>
	<node lat="64.25505555763047" lon="12.998213881957133" id="-49472">
		<tag k="name" v="Finnlian" />
		<tag k="name:no" v="Finnlian" />
		<tag k="natural" v="slope" />
		<tag k="place" v="locality" />
		<tag k="ssr:date" v="2018-01-09" />
		<tag k="ssr:gruppe" v="skråninger" />
		<tag k="ssr:hovedgruppe" v="terreng" />
		<tag k="ssr:stedsnr" v="230076" />
		<tag k="ssr:type" v="li" />
	</node>
	<node lat="64.26885555511936" lon="12.972658332868326" id="-49473">
		<tag k="name" v="Gauptjønnåsen" />
		<tag k="name:no" v="Gauptjønnåsen" />
		<tag k="natural" v="hill" />
		<tag k="place" v="locality" />
		<tag k="ssr:date" v="2018-01-09" />
		<tag k="ssr:gruppe" v="høyder" />
		<tag k="ssr:hovedgruppe" v="terreng" />
		<tag k="ssr:stedsnr" v="230078" />
		<tag k="ssr:type" v="høyde" />
	</node>
	<node lat="64.33658055802954" lon="12.1528222271153" id="-49474">
		<tag k="historic" v="shieling" />
		<tag k="name" v="Øyeseter" />
		<tag k="name:no" v="Øyeseter" />
		<tag k="place" v="isolated_dwelling" />
		<tag k="ssr:date" v="2018-01-09" />
		<tag k="ssr:gruppe" v="gardsbebyggelse" />
		<tag k="ssr:hovedgruppe" v="bebyggelse" />
		<tag k="ssr:stedsnr" v="230177" />
		<tag k="ssr:type" v="seterStøl" />
	</node>
	<node lat="64.24426111281049" lon="12.036961109345219" id="-49475">
		<tag k="name" v="Vestre Merkesbekken" />
		<tag k="name:no" v="Vestre Merkesbekken" />
		<tag k="ssr:date" v="2018-01-09" />
		<tag k="ssr:gruppe" v="rennendeVann" />
		<tag k="ssr:hovedgruppe" v="ferskvann" />
		<tag k="ssr:stedsnr" v="230200" />
		<tag k="ssr:type" v="bekk" />
		<tag k="waterway" v="stream" />
	</node>
	<node lat="64.2487888902573" lon="12.153988890634253" id="-49476">
		<tag k="name" v="Kaurholet" />
		<tag k="name:no" v="Kaurholet" />
		<tag k="natural" v="valley" />
		<tag k="place" v="locality" />
		<tag k="ssr:date" v="2018-01-09" />
		<tag k="ssr:gruppe" v="senkninger" />
		<tag k="ssr:hovedgruppe" v="terreng" />
		<tag k="ssr:stedsnr" v="230292" />
		<tag k="ssr:type" v="dal" />
	</node>
	<node lat="64.24129444837621" lon="12.101044443186618" id="-49477">
		<tag k="name" v="Holmtjønnlia" />
		<tag k="name:no" v="Holmtjønnlia" />
		<tag k="natural" v="slope" />
		<tag k="place" v="locality" />
		<tag k="ssr:date" v="2018-01-09" />
		<tag k="ssr:gruppe" v="skråninger" />
		<tag k="ssr:hovedgruppe" v="terreng" />
		<tag k="ssr:stedsnr" v="230355" />
		<tag k="ssr:type" v="li" />
	</node>
	<node lat="64.2332694426637" lon="12.037638895900736" id="-49478">
		<tag k="name" v="Austermyra" />
		<tag k="name:no" v="Austermyra" />
		<tag k="natural" v="wetland" />
		<tag k="ssr:date" v="2018-01-09" />
		<tag k="ssr:gruppe" v="våtmark" />
		<tag k="ssr:hovedgruppe" v="markslag" />
		<tag k="ssr:stedsnr" v="230367" />
		<tag k="ssr:type" v="myr" />
	</node>
	<node lat="64.27555277832545" lon="12.184311107952764" id="-49479">
		<tag k="name" v="Fjellbekken" />
		<tag k="name:no" v="Fjellbekken" />
		<tag k="ssr:date" v="2018-01-09" />
		<tag k="ssr:gruppe" v="rennendeVann" />
		<tag k="ssr:hovedgruppe" v="ferskvann" />
		<tag k="ssr:stedsnr" v="230461" />
		<tag k="ssr:type" v="bekk" />
		<tag k="waterway" v="stream" />
	</node>
	<node lat="64.28948888829089" lon="12.324844437012352" id="-49480">
		<tag k="name" v="Seterhaugen" />
		<tag k="name:no" v="Seterhaugen" />
		<tag k="natural" v="hill" />
		<tag k="place" v="locality" />
		<tag k="ssr:date" v="2018-01-09" />
		<tag k="ssr:gruppe" v="høyder" />
		<tag k="ssr:hovedgruppe" v="terreng" />
		<tag k="ssr:stedsnr" v="230654" />
		<tag k="ssr:type" v="haug" />
	</node>
	<node lat="64.30708611247304" lon="12.380111113363776" id="-49481">
		<tag k="name" v="Seterelva" />
		<tag k="name:no" v="Seterelva" />
		<tag k="ssr:date" v="2018-01-09" />
		<tag k="ssr:gruppe" v="rennendeVann" />
		<tag k="ssr:hovedgruppe" v="ferskvann" />
		<tag k="ssr:stedsnr" v="230665" />
		<tag k="ssr:type" v="bekk" />
		<tag k="waterway" v="stream" />
	</node>
	<node lat="64.33625277737812" lon="12.376013884102067" id="-49482">
		<tag k="name" v="Tomasmyra" />
		<tag k="name:no" v="Tomasmyra" />
		<tag k="natural" v="wetland" />
		<tag k="ssr:date" v="2018-01-09" />
		<tag k="ssr:gruppe" v="våtmark" />
		<tag k="ssr:hovedgruppe" v="markslag" />
		<tag k="ssr:stedsnr" v="230822" />
		<tag k="ssr:type" v="myr" />
	</node>
	<node lat="64.36936944595894" lon="12.483236121613436" id="-49483">
		<tag k="name" v="Fjelldalen" />
		<tag k="name:no" v="Fjelldalen" />
		<tag k="natural" v="valley" />
		<tag k="place" v="locality" />
		<tag k="ssr:date" v="2018-01-09" />
		<tag k="ssr:gruppe" v="senkninger" />
		<tag k="ssr:hovedgruppe" v="terreng" />
		<tag k="ssr:stedsnr" v="230752" />
		<tag k="ssr:type" v="dal" />
	</node>
	<node lat="64.2068694445565" lon="12.545177784734818" id="-49484">
		<tag k="name" v="Ljøstjønnbekken" />
		<tag k="name:no" v="Ljøstjønnbekken" />
		<tag k="ssr:date" v="2018-01-09" />
		<tag k="ssr:gruppe" v="rennendeVann" />
		<tag k="ssr:hovedgruppe" v="ferskvann" />
		<tag k="ssr:stedsnr" v="231010" />
		<tag k="ssr:type" v="bekk" />
		<tag k="waterway" v="stream" />
	</node>
	<node lat="64.2101305521392" lon="12.575966657263129" id="-49485">
		<tag k="name" v="Merkestjønna" />
		<tag k="name:no" v="Merkestjønna" />
		<tag k="natural" v="water" />
		<tag k="ssr:date" v="2018-01-09" />
		<tag k="ssr:gruppe" v="stilleståendeVann" />
		<tag k="ssr:hovedgruppe" v="ferskvann" />
		<tag k="ssr:stedsnr" v="230975" />
		<tag k="ssr:type" v="tjern" />
	</node>
	<node lat="64.16901389072714" lon="12.547436111610745" id="-49486">
		<tag k="name" v="Vassaunet" />
		<tag k="name:no" v="Vassaunet" />
		<tag k="place" v="locality" />
		<tag k="ssr:date" v="2018-01-09" />
		<tag k="ssr:gruppe" v="dyrkamark" />
		<tag k="ssr:hovedgruppe" v="markslag" />
		<tag k="ssr:stedsnr" v="231198" />
		<tag k="ssr:type" v="utmark" />
	</node>
	<node lat="64.17209444784017" lon="12.52106110297671" id="-49487">
		<tag k="name" v="Storbuenget" />
		<tag k="name:no" v="Storbuenget" />
		<tag k="place" v="locality" />
		<tag k="ssr:date" v="2018-01-09" />
		<tag k="ssr:gruppe" v="dyrkamark" />
		<tag k="ssr:hovedgruppe" v="markslag" />
		<tag k="ssr:stedsnr" v="231201" />
		<tag k="ssr:type" v="utmark" />
	</node>
	<node lat="63.99114999648804" lon="12.722713897744532" id="-49488">
		<tag k="name" v="Seterneset" />
		<tag k="name:no" v="Seterneset" />
		<tag k="natural" v="cape" />
		<tag k="ssr:date" v="2018-01-09" />
		<tag k="ssr:gruppe" v="ferskvannskontur" />
		<tag k="ssr:hovedgruppe" v="ferskvann" />
		<tag k="ssr:stedsnr" v="231230" />
		<tag k="ssr:type" v="nes" />
	</node>
	<node lat="64.00389722294636" lon="12.735688882274426" id="-49489">
		<tag k="name" v="Bustadbakken" />
		<tag k="name:no" v="Bustadbakken" />
		<tag k="natural" v="hill" />
		<tag k="place" v="locality" />
		<tag k="ssr:date" v="2018-01-09" />
		<tag k="ssr:gruppe" v="høyder" />
		<tag k="ssr:hovedgruppe" v="terreng" />
		<tag k="ssr:stedsnr" v="231234" />
		<tag k="ssr:type" v="haug" />
	</node>
	<node lat="63.97269166533785" lon="12.61266389354975" id="-49490">
		<tag k="name" v="Kjenstadmyran" />
		<tag k="name:no" v="Kjenstadmyran" />
		<tag k="natural" v="wetland" />
		<tag k="ssr:date" v="2018-01-09" />
		<tag k="ssr:gruppe" v="våtmark" />
		<tag k="ssr:hovedgruppe" v="markslag" />
		<tag k="ssr:stedsnr" v="231214" />
		<tag k="ssr:type" v="myr" />
	</node>
	<node lat="64.15118888986558" lon="12.463227772192127" id="-49491">
		<tag k="name" v="Storholmen" />
		<tag k="name:no" v="Storholmen" />
		<tag k="natural" v="cape" />
		<tag k="ssr:date" v="2018-01-09" />
		<tag k="ssr:gruppe" v="ferskvannskontur" />
		<tag k="ssr:hovedgruppe" v="ferskvann" />
		<tag k="ssr:stedsnr" v="231294" />
		<tag k="ssr:type" v="nes" />
	</node>
	<node lat="64.16729444648648" lon="12.372463881260554" id="-49492">
		<tag k="name" v="Roktdalfossen" />
		<tag k="name:no" v="Roktdalfossen" />
		<tag k="natural" v="waterfall" />
		<tag k="ssr:date" v="2018-01-09" />
		<tag k="ssr:gruppe" v="rennendeVann" />
		<tag k="ssr:hovedgruppe" v="ferskvann" />
		<tag k="ssr:stedsnr" v="231265" />
		<tag k="ssr:type" v="foss" />
	</node>
	<node lat="64.17960278239104" lon="12.335061105802566" id="-49493">
		<tag k="name" v="Revåsen" />
		<tag k="name:no" v="Revåsen" />
		<tag k="natural" v="hill" />
		<tag k="place" v="locality" />
		<tag k="ssr:date" v="2018-01-09" />
		<tag k="ssr:gruppe" v="høyder" />
		<tag k="ssr:hovedgruppe" v="terreng" />
		<tag k="ssr:stedsnr" v="231277" />
		<tag k="ssr:type" v="haug" />
	</node>
	<node lat="64.14523888751788" lon="12.444244447318143" id="-49494">
		<tag k="name" v="Goffarønningshaugen" />
		<tag k="name:no" v="Goffarønningshaugen" />
		<tag k="natural" v="hill" />
		<tag k="place" v="locality" />
		<tag k="ssr:date" v="2018-01-09" />
		<tag k="ssr:gruppe" v="høyder" />
		<tag k="ssr:hovedgruppe" v="terreng" />
		<tag k="ssr:stedsnr" v="231374" />
		<tag k="ssr:type" v="haug" />
	</node>
	<node lat="64.22502777596371" lon="12.061522219542933" id="-49495">
		<tag k="name" v="Kruberget" />
		<tag k="name:no" v="Kruberget" />
		<tag k="natural" v="hill" />
		<tag k="place" v="locality" />
		<tag k="ssr:date" v="2018-01-09" />
		<tag k="ssr:gruppe" v="høyder" />
		<tag k="ssr:hovedgruppe" v="terreng" />
		<tag k="ssr:stedsnr" v="231437" />
		<tag k="ssr:type" v="berg" />
	</node>
	<node lat="64.31920555397011" lon="12.663366659387673" id="-49496">
		<tag k="name" v="Hustjønnbekken" />
		<tag k="name:no" v="Hustjønnbekken" />
		<tag k="ssr:date" v="2018-01-09" />
		<tag k="ssr:gruppe" v="rennendeVann" />
		<tag k="ssr:hovedgruppe" v="ferskvann" />
		<tag k="ssr:stedsnr" v="231398" />
		<tag k="ssr:type" v="bekk" />
		<tag k="waterway" v="stream" />
	</node>
	<node lat="64.22913055960909" lon="12.055394435126107" id="-49497">
		<tag k="name" v="Langmyra" />
		<tag k="name:no" v="Langmyra" />
		<tag k="natural" v="wetland" />
		<tag k="ssr:date" v="2018-01-09" />
		<tag k="ssr:gruppe" v="våtmark" />
		<tag k="ssr:hovedgruppe" v="markslag" />
		<tag k="ssr:stedsnr" v="231460" />
		<tag k="ssr:type" v="myr" />
	</node>
	<node lat="64.20835833601839" lon="12.054805553898944" id="-49498">
		<tag k="name" v="Sørtangen" />
		<tag k="name:no" v="Sørtangen" />
		<tag k="natural" v="cape" />
		<tag k="ssr:date" v="2018-01-09" />
		<tag k="ssr:gruppe" v="ferskvannskontur" />
		<tag k="ssr:hovedgruppe" v="ferskvann" />
		<tag k="ssr:stedsnr" v="231471" />
		<tag k="ssr:type" v="nes" />
	</node>
	<node lat="64.36096388797137" lon="12.67384444891085" id="-49499">
		<tag k="name" v="Lurukroken" />
		<tag k="name:no" v="Lurukroken" />
		<tag k="natural" v="cape" />
		<tag k="ssr:date" v="2018-01-09" />
		<tag k="ssr:gruppe" v="ferskvannskontur" />
		<tag k="ssr:hovedgruppe" v="ferskvann" />
		<tag k="ssr:stedsnr" v="231539" />
		<tag k="ssr:type" v="nes" />
	</node>
	<node lat="64.37227777381156" lon="12.63664444649699" id="-49500">
		<tag k="name" v="Storembrigtdalen" />
		<tag k="name:no" v="Storembrigtdalen" />
		<tag k="natural" v="valley" />
		<tag k="place" v="locality" />
		<tag k="ssr:date" v="2018-01-09" />
		<tag k="ssr:gruppe" v="senkninger" />
		<tag k="ssr:hovedgruppe" v="terreng" />
		<tag k="ssr:stedsnr" v="231540" />
		<tag k="ssr:type" v="dal" />
	</node>
	<node lat="64.35792777465348" lon="12.662622227854266" id="-49501">
		<tag k="name" v="Mikjelbekken" />
		<tag k="name:no" v="Mikjelbekken" />
		<tag k="ssr:date" v="2018-01-09" />
		<tag k="ssr:gruppe" v="rennendeVann" />
		<tag k="ssr:hovedgruppe" v="ferskvann" />
		<tag k="ssr:stedsnr" v="231545" />
		<tag k="ssr:type" v="bekk" />
		<tag k="waterway" v="stream" />
	</node>
	<node lat="64.06433611257688" lon="12.852624996499062" id="-49502">
		<tag k="name" v="Rognbakken" />
		<tag k="name:no" v="Rognbakken" />
		<tag k="natural" v="slope" />
		<tag k="place" v="locality" />
		<tag k="ssr:date" v="2018-01-09" />
		<tag k="ssr:gruppe" v="skråninger" />
		<tag k="ssr:hovedgruppe" v="terreng" />
		<tag k="ssr:stedsnr" v="231559" />
		<tag k="ssr:type" v="li" />
	</node>
	<node lat="64.26481388879463" lon="12.197072214919576" id="-49503">
		<tag k="name" v="Gamvollhaugan" />
		<tag k="name:no" v="Gamvollhaugan" />
		<tag k="natural" v="hill" />
		<tag k="place" v="locality" />
		<tag k="ssr:date" v="2018-01-09" />
		<tag k="ssr:gruppe" v="høyder" />
		<tag k="ssr:hovedgruppe" v="terreng" />
		<tag k="ssr:stedsnr" v="231573" />
		<tag k="ssr:type" v="haug" />
	</node>
	<node lat="64.26320555497266" lon="12.189230545754713" id="-49504">
		<tag k="landuse" v="meadow" />
		<tag k="name" v="Gamvollen" />
		<tag k="name:no" v="Gamvollen" />
		<tag k="ssr:date" v="2018-01-09" />
		<tag k="ssr:gruppe" v="dyrkamark" />
		<tag k="ssr:hovedgruppe" v="markslag" />
		<tag k="ssr:stedsnr" v="231574" />
		<tag k="ssr:type" v="eng" />
	</node>
	<node lat="64.28505833713753" lon="12.716647230043893" id="-49505">
		<tag k="name" v="Ragnaklumpen" />
		<tag k="name:no" v="Ragnaklumpen" />
		<tag k="natural" v="hill" />
		<tag k="place" v="locality" />
		<tag k="ssr:date" v="2018-01-09" />
		<tag k="ssr:gruppe" v="høyder" />
		<tag k="ssr:hovedgruppe" v="terreng" />
		<tag k="ssr:stedsnr" v="231595" />
		<tag k="ssr:type" v="haug" />
	</node>
	<node lat="64.34704999565572" lon="12.750836113391777" id="-49506">
		<tag k="name" v="Finnelberga" />
		<tag k="name:no" v="Finnelberga" />
		<tag k="natural" v="hill" />
		<tag k="place" v="locality" />
		<tag k="ssr:date" v="2018-01-09" />
		<tag k="ssr:gruppe" v="høyder" />
		<tag k="ssr:hovedgruppe" v="terreng" />
		<tag k="ssr:stedsnr" v="231657" />
		<tag k="ssr:type" v="haug" />
	</node>
	<node lat="64.30351666592102" lon="12.616202780636954" id="-49507">
		<tag k="name" v="Frebergtjønna" />
		<tag k="name:no" v="Frebergtjønna" />
		<tag k="natural" v="water" />
		<tag k="ssr:date" v="2018-01-09" />
		<tag k="ssr:gruppe" v="stilleståendeVann" />
		<tag k="ssr:hovedgruppe" v="ferskvann" />
		<tag k="ssr:stedsnr" v="231666" />
		<tag k="ssr:type" v="tjern" />
	</node>
	<node lat="64.2612611127441" lon="12.771769452440225" id="-49508">
		<tag k="name" v="Nyseterevja" />
		<tag k="name:no" v="Nyseterevja" />
		<tag k="natural" v="bay" />
		<tag k="ssr:date" v="2018-01-09" />
		<tag k="ssr:gruppe" v="ferskvannskontur" />
		<tag k="ssr:hovedgruppe" v="ferskvann" />
		<tag k="ssr:stedsnr" v="231605" />
		<tag k="ssr:type" v="vik" />
	</node>
	<node lat="64.26655555515376" lon="12.665666671335098" id="-49509">
		<tag k="name" v="Storlitjønnin" />
		<tag k="name:no" v="Storlitjønnin" />
		<tag k="natural" v="water" />
		<tag k="ssr:date" v="2018-01-09" />
		<tag k="ssr:gruppe" v="stilleståendeVann" />
		<tag k="ssr:hovedgruppe" v="ferskvann" />
		<tag k="ssr:stedsnr" v="231616" />
		<tag k="ssr:type" v="tjern" />
	</node>
	<node lat="64.17895833459244" lon="12.596355550911266" id="-49510">
		<tag k="landuse" v="meadow" />
		<tag k="name" v="Storgrubba" />
		<tag k="name:no" v="Storgrubba" />
		<tag k="ssr:date" v="2018-01-09" />
		<tag k="ssr:gruppe" v="dyrkamark" />
		<tag k="ssr:hovedgruppe" v="markslag" />
		<tag k="ssr:stedsnr" v="231958" />
		<tag k="ssr:type" v="eng" />
	</node>
	<node lat="64.18825555821948" lon="12.560652784843638" id="-49511">
		<tag k="name" v="Rennsjøhaugen" />
		<tag k="name:no" v="Rennsjøhaugen" />
		<tag k="natural" v="hill" />
		<tag k="place" v="locality" />
		<tag k="ssr:date" v="2018-01-09" />
		<tag k="ssr:gruppe" v="høyder" />
		<tag k="ssr:hovedgruppe" v="terreng" />
		<tag k="ssr:stedsnr" v="231962" />
		<tag k="ssr:type" v="haug" />
	</node>
	<node lat="64.13436944679088" lon="12.03544166221396" id="-49512">
		<tag k="name" v="Lauvhaugen" />
		<tag k="natural" v="hill" />
		<tag k="place" v="locality" />
		<tag k="ssr:date" v="2019-12-27" />
		<tag k="ssr:gruppe" v="høyder" />
		<tag k="ssr:hovedgruppe" v="terreng" />
		<tag k="ssr:stedsnr" v="13314" />
		<tag k="ssr:type" v="haug" />
	</node>
	<node lat="64.21129444580978" lon="12.190516671577054" id="-49513">
		<tag k="name" v="Nordvika" />
		<tag k="name:no" v="Nordvika" />
		<tag k="natural" v="bay" />
		<tag k="ssr:date" v="2018-01-09" />
		<tag k="ssr:gruppe" v="ferskvannskontur" />
		<tag k="ssr:hovedgruppe" v="ferskvann" />
		<tag k="ssr:stedsnr" v="13514" />
		<tag k="ssr:type" v="vik" />
	</node>
	<node lat="64.20638332995328" lon="12.01475832929825" id="-49514">
		<tag k="name" v="Aunbukta" />
		<tag k="name:no" v="Aunbukta" />
		<tag k="natural" v="bay" />
		<tag k="ssr:date" v="2018-01-09" />
		<tag k="ssr:gruppe" v="ferskvannskontur" />
		<tag k="ssr:hovedgruppe" v="ferskvann" />
		<tag k="ssr:stedsnr" v="13518" />
		<tag k="ssr:type" v="vik" />
	</node>
	<node lat="64.17133611435207" lon="12.538411118000889" id="-49515">
		<tag k="alt_name:no" v="Hyllmoseteren" />
		<tag k="historic" v="shieling" />
		<tag k="name" v="Hyllmoen" />
		<tag k="name:no" v="Hyllmoen" />
		<tag k="place" v="isolated_dwelling" />
		<tag k="ssr:date" v="2018-01-09" />
		<tag k="ssr:gruppe" v="gardsbebyggelse" />
		<tag k="ssr:hovedgruppe" v="bebyggelse" />
		<tag k="ssr:stedsnr" v="13563" />
		<tag k="ssr:type" v="seterStøl" />
	</node>
	<node lat="64.24311944627428" lon="12.634258342332062" id="-49516">
		<tag k="name" v="Storslåttelva" />
		<tag k="name:no" v="Storslåttelva" />
		<tag k="ssr:date" v="2018-01-09" />
		<tag k="ssr:gruppe" v="rennendeVann" />
		<tag k="ssr:hovedgruppe" v="ferskvann" />
		<tag k="ssr:stedsnr" v="13720" />
		<tag k="ssr:type" v="bekk" />
		<tag k="waterway" v="stream" />
	</node>
	<node lat="64.11443055188379" lon="13.061263887768147" id="-49517">
		<tag k="name" v="Gauplimyra" />
		<tag k="name:no" v="Gauplimyra" />
		<tag k="natural" v="wetland" />
		<tag k="ssr:date" v="2018-01-09" />
		<tag k="ssr:gruppe" v="våtmark" />
		<tag k="ssr:hovedgruppe" v="markslag" />
		<tag k="ssr:stedsnr" v="13989" />
		<tag k="ssr:type" v="myr" />
	</node>
	<node lat="64.11796944334455" lon="13.138444448014644" id="-49518">
		<tag k="alt_name:no" v="Bjørnholet" />
		<tag k="name" v="Bjønnholet" />
		<tag k="name:no" v="Bjønnholet" />
		<tag k="natural" v="valley" />
		<tag k="place" v="locality" />
		<tag k="ssr:date" v="2018-01-09" />
		<tag k="ssr:gruppe" v="senkninger" />
		<tag k="ssr:hovedgruppe" v="terreng" />
		<tag k="ssr:stedsnr" v="13991" />
		<tag k="ssr:type" v="botn" />
	</node>
	<node lat="64.29167499816455" lon="12.917199993286541" id="-49519">
		<tag k="name" v="Svartholet" />
		<tag k="name:no" v="Svartholet" />
		<tag k="natural" v="bay" />
		<tag k="ssr:date" v="2018-01-09" />
		<tag k="ssr:gruppe" v="ferskvannskontur" />
		<tag k="ssr:hovedgruppe" v="ferskvann" />
		<tag k="ssr:stedsnr" v="14215" />
		<tag k="ssr:type" v="vik" />
	</node>
	<node lat="64.30449999599762" lon="13.03936110895756" id="-49520">
		<tag k="name" v="Leikan" />
		<tag k="name:no" v="Leikan" />
		<tag k="natural" v="hill" />
		<tag k="place" v="locality" />
		<tag k="ssr:date" v="2018-01-09" />
		<tag k="ssr:gruppe" v="høyder" />
		<tag k="ssr:hovedgruppe" v="terreng" />
		<tag k="ssr:stedsnr" v="14217" />
		<tag k="ssr:type" v="haug" />
	</node>
	<node lat="64.29744166490988" lon="12.79667222998663" id="-49521">
		<tag k="fixme" v="consider natural=peak for the most distinct mountains in the district" />
		<tag k="name" v="Statsklumpen" />
		<tag k="name:no" v="Statsklumpen" />
		<tag k="natural" v="hill" />
		<tag k="place" v="locality" />
		<tag k="ssr:date" v="2018-01-09" />
		<tag k="ssr:gruppe" v="høyder" />
		<tag k="ssr:hovedgruppe" v="terreng" />
		<tag k="ssr:stedsnr" v="14218" />
		<tag k="ssr:type" v="fjell" />
	</node>
	<node lat="64.32513055931283" lon="12.965277778814913" id="-49522">
		<tag k="name" v="Storneset" />
		<tag k="name:no" v="Storneset" />
		<tag k="natural" v="cape" />
		<tag k="ssr:date" v="2018-01-09" />
		<tag k="ssr:gruppe" v="ferskvannskontur" />
		<tag k="ssr:hovedgruppe" v="ferskvann" />
		<tag k="ssr:stedsnr" v="14219" />
		<tag k="ssr:type" v="nes" />
	</node>
	<node lat="64.34142222577616" lon="12.993102775112918" id="-49523">
		<tag k="name" v="Litlfinnbursvatnet" />
		<tag k="name:no" v="Litlfinnbursvatnet" />
		<tag k="natural" v="water" />
		<tag k="ssr:date" v="2021-06-08" />
		<tag k="ssr:gruppe" v="stilleståendeVann" />
		<tag k="ssr:hovedgruppe" v="ferskvann" />
		<tag k="ssr:stedsnr" v="14220" />
		<tag k="ssr:type" v="tjern" />
	</node>
	<node lat="64.34095555376923" lon="12.9165888784373" id="-49524">
		<tag k="name" v="Limanneset" />
		<tag k="name:no" v="Limanneset" />
		<tag k="natural" v="cape" />
		<tag k="ssr:date" v="2018-01-09" />
		<tag k="ssr:gruppe" v="ferskvannskontur" />
		<tag k="ssr:hovedgruppe" v="ferskvann" />
		<tag k="ssr:stedsnr" v="14222" />
		<tag k="ssr:type" v="nes" />
	</node>
	<node lat="64.34456944134114" lon="12.731141661062914" id="-49525">
		<tag k="fixme" v="consider natural=peak for the most distinct mountains in the district" />
		<tag k="name" v="Tortlifjellet" />
		<tag k="name:no" v="Tortlifjellet" />
		<tag k="natural" v="hill" />
		<tag k="place" v="locality" />
		<tag k="ssr:date" v="2021-06-08" />
		<tag k="ssr:gruppe" v="høyder" />
		<tag k="ssr:hovedgruppe" v="terreng" />
		<tag k="ssr:stedsnr" v="14225" />
		<tag k="ssr:type" v="fjell" />
	</node>
	<node lat="64.2947111071275" lon="12.48735000168969" id="-49526">
		<tag k="name" v="Bergsettjønna" />
		<tag k="name:no" v="Bergsettjønna" />
		<tag k="natural" v="water" />
		<tag k="ssr:date" v="2021-06-08" />
		<tag k="ssr:gruppe" v="stilleståendeVann" />
		<tag k="ssr:hovedgruppe" v="ferskvann" />
		<tag k="ssr:stedsnr" v="14323" />
		<tag k="ssr:type" v="tjern" />
	</node>
	<node lat="64.3149999974814" lon="12.377333333625648" id="-49527">
		<tag k="historic" v="shieling" />
		<tag k="name" v="Sandnes-Omlia" />
		<tag k="name:no" v="Sandnes-Omlia" />
		<tag k="place" v="isolated_dwelling" />
		<tag k="ssr:date" v="2021-06-08" />
		<tag k="ssr:gruppe" v="gardsbebyggelse" />
		<tag k="ssr:hovedgruppe" v="bebyggelse" />
		<tag k="ssr:stedsnr" v="14331" />
		<tag k="ssr:type" v="seterStøl" />
	</node>
	<node lat="64.31280555897963" lon="12.554383330764244" id="-49528">
		<tag k="name" v="Myrset" />
		<tag k="name:no" v="Myrset" />
		<tag k="place" v="isolated_dwelling" />
		<tag k="ssr:date" v="2018-01-09" />
		<tag k="ssr:gruppe" v="bolighus" />
		<tag k="ssr:hovedgruppe" v="bebyggelse" />
		<tag k="ssr:stedsnr" v="14334" />
		<tag k="ssr:type" v="eneboligMindreBoligbygg" />
	</node>
	<node lat="64.32342628141869" lon="12.66114700053934" id="-49529">
		<tag k="name" v="Aglseteren" />
		<tag k="name:no" v="Aglseteren" />
		<tag k="place" v="locality" />
		<tag k="ssr:date" v="2021-06-08" />
		<tag k="ssr:gruppe" v="gardsbebyggelse" />
		<tag k="ssr:hovedgruppe" v="bebyggelse" />
		<tag k="ssr:stedsnr" v="14335" />
		<tag k="ssr:type" v="byggForJordbrukFiskeOgFangst" />
	</node>
	<node lat="64.1592194432371" lon="12.166172228279192" id="-49530">
		<tag k="name" v="Korsmæra" />
		<tag k="name:no" v="Korsmæra" />
		<tag k="natural" v="hill" />
		<tag k="place" v="locality" />
		<tag k="ssr:date" v="2021-06-08" />
		<tag k="ssr:gruppe" v="høyder" />
		<tag k="ssr:hovedgruppe" v="terreng" />
		<tag k="ssr:stedsnr" v="14368" />
		<tag k="ssr:type" v="haug" />
	</node>
	<node lat="64.3642750020145" lon="12.415050009036937" id="-49531">
		<tag k="name" v="Tjønnslættjønna" />
		<tag k="name:no" v="Tjønnslættjønna" />
		<tag k="natural" v="water" />
		<tag k="ssr:date" v="2021-06-08" />
		<tag k="ssr:gruppe" v="stilleståendeVann" />
		<tag k="ssr:hovedgruppe" v="ferskvann" />
		<tag k="ssr:stedsnr" v="14374" />
		<tag k="ssr:type" v="tjern" />
	</node>
	<node lat="64.36158611039207" lon="12.377061113752841" id="-49532">
		<tag k="name" v="Tjennaråsseteren" />
		<tag k="name:no" v="Tjennaråsseteren" />
		<tag k="place" v="locality" />
		<tag k="ssr:date" v="2021-06-08" />
		<tag k="ssr:gruppe" v="gardsbebyggelse" />
		<tag k="ssr:hovedgruppe" v="bebyggelse" />
		<tag k="ssr:stedsnr" v="14379" />
		<tag k="ssr:type" v="eiendom" />
	</node>
	<node lat="64.2783583300818" lon="12.03830277239547" id="-49533">
		<tag k="name" v="Nordre Dettfosstjønna" />
		<tag k="name:no" v="Nordre Dettfosstjønna" />
		<tag k="natural" v="water" />
		<tag k="ssr:date" v="2021-06-08" />
		<tag k="ssr:gruppe" v="stilleståendeVann" />
		<tag k="ssr:hovedgruppe" v="ferskvann" />
		<tag k="ssr:stedsnr" v="14564" />
		<tag k="ssr:type" v="tjern" />
	</node>
	<node lat="64.0562444451979" lon="12.260488885577464" id="-49534">
		<tag k="name" v="Verdalstjønna" />
		<tag k="name:no" v="Verdalstjønna" />
		<tag k="natural" v="water" />
		<tag k="ssr:date" v="2021-06-08" />
		<tag k="ssr:gruppe" v="stilleståendeVann" />
		<tag k="ssr:hovedgruppe" v="ferskvann" />
		<tag k="ssr:stedsnr" v="14571" />
		<tag k="ssr:type" v="tjern" />
	</node>
	<node lat="64.05584166334316" lon="12.90119166545" id="-49535">
		<tag k="name" v="Smititangen" />
		<tag k="name:no" v="Smititangen" />
		<tag k="natural" v="cape" />
		<tag k="ssr:date" v="2018-01-09" />
		<tag k="ssr:gruppe" v="ferskvannskontur" />
		<tag k="ssr:hovedgruppe" v="ferskvann" />
		<tag k="ssr:stedsnr" v="14717" />
		<tag k="ssr:type" v="nes" />
	</node>
	<node lat="64.04590000321394" lon="12.797838886872027" id="-49536">
		<tag k="fixme" v="consider natural=peak for the most distinct mountains in the district" />
		<tag k="name" v="Nordskardklumpen" />
		<tag k="name:no" v="Nordskardklumpen" />
		<tag k="natural" v="hill" />
		<tag k="place" v="locality" />
		<tag k="ssr:date" v="2018-01-09" />
		<tag k="ssr:gruppe" v="høyder" />
		<tag k="ssr:hovedgruppe" v="terreng" />
		<tag k="ssr:stedsnr" v="14719" />
		<tag k="ssr:type" v="fjell" />
	</node>
	<node lat="64.01042221893643" lon="12.5973194529567" id="-49537">
		<tag k="name" v="Speallehkenjaevrie - Grønlivatnet" />
		<tag k="name:no" v="Grønlivatnet" />
		<tag k="name:sma" v="Speallehkenjaevrie" />
		<tag k="natural" v="water" />
		<tag k="ssr:date" v="2021-06-08" />
		<tag k="ssr:gruppe" v="stilleståendeVann" />
		<tag k="ssr:hovedgruppe" v="ferskvann" />
		<tag k="ssr:stedsnr" v="14858" />
		<tag k="ssr:type" v="vann" />
		<tag k="water" v="lake" />
	</node>
	<node lat="64.23476666866233" lon="12.908269446919215" id="-49538">
		<tag k="name" v="Storåsseteren" />
		<tag k="name:no" v="Storåsseteren" />
		<tag k="place" v="locality" />
		<tag k="ssr:date" v="2021-06-08" />
		<tag k="ssr:gruppe" v="gardsbebyggelse" />
		<tag k="ssr:hovedgruppe" v="bebyggelse" />
		<tag k="ssr:stedsnr" v="14860" />
		<tag k="ssr:type" v="eiendom" />
	</node>
	<node lat="64.24662437085803" lon="12.993742818549261" id="-49539">
		<tag k="name" v="Tverrelva" />
		<tag k="name:no" v="Tverrelva" />
		<tag k="ssr:date" v="2019-12-17" />
		<tag k="ssr:gruppe" v="rennendeVann" />
		<tag k="ssr:hovedgruppe" v="ferskvann" />
		<tag k="ssr:stedsnr" v="14861" />
		<tag k="ssr:type" v="elv" />
		<tag k="waterway" v="river" />
	</node>
	<node lat="64.16243333383355" lon="12.765291664020882" id="-49540">
		<tag k="name" v="Fjelltjønna" />
		<tag k="name:no" v="Fjelltjønna" />
		<tag k="natural" v="water" />
		<tag k="ssr:date" v="2021-06-08" />
		<tag k="ssr:gruppe" v="stilleståendeVann" />
		<tag k="ssr:hovedgruppe" v="ferskvann" />
		<tag k="ssr:stedsnr" v="14901" />
		<tag k="ssr:type" v="tjern" />
	</node>
	<node lat="64.23055833117749" lon="12.879763883497189" id="-49541">
		<tag k="name" v="Storåselva" />
		<tag k="name:no" v="Storåselva" />
		<tag k="ssr:date" v="2018-01-09" />
		<tag k="ssr:gruppe" v="rennendeVann" />
		<tag k="ssr:hovedgruppe" v="ferskvann" />
		<tag k="ssr:stedsnr" v="14903" />
		<tag k="ssr:type" v="elv" />
		<tag k="waterway" v="river" />
	</node>
	<node lat="64.22082499718893" lon="12.737247229694777" id="-49542">
		<tag k="name" v="Svarthaugen" />
		<tag k="name:no" v="Svarthaugen" />
		<tag k="natural" v="hill" />
		<tag k="place" v="locality" />
		<tag k="ssr:date" v="2018-01-09" />
		<tag k="ssr:gruppe" v="høyder" />
		<tag k="ssr:hovedgruppe" v="terreng" />
		<tag k="ssr:stedsnr" v="14906" />
		<tag k="ssr:type" v="haug" />
	</node>
	<node lat="64.13735836881368" lon="12.877058487142465" id="-49543">
		<tag k="name" v="Kaurinhytta" />
		<tag k="name:no" v="Kaurinhytta" />
		<tag k="place" v="isolated_dwelling" />
		<tag k="ssr:date" v="2018-01-09" />
		<tag k="ssr:gruppe" v="bolighus" />
		<tag k="ssr:hovedgruppe" v="bebyggelse" />
		<tag k="ssr:stedsnr" v="14956" />
		<tag k="ssr:type" v="fritidsbolig" />
	</node>
	<node lat="64.09185277586292" lon="12.848866661084388" id="-49544">
		<tag k="name" v="Storliseteren" />
		<tag k="name:no" v="Storliseteren" />
		<tag k="place" v="locality" />
		<tag k="ssr:date" v="2021-06-08" />
		<tag k="ssr:gruppe" v="gardsbebyggelse" />
		<tag k="ssr:hovedgruppe" v="bebyggelse" />
		<tag k="ssr:stedsnr" v="14969" />
		<tag k="ssr:type" v="eiendom" />
	</node>
	<node lat="64.09811666394643" lon="12.977080557479342" id="-49545">
		<tag k="name" v="Svarttjønna" />
		<tag k="name:no" v="Svarttjønna" />
		<tag k="natural" v="water" />
		<tag k="ssr:date" v="2021-06-08" />
		<tag k="ssr:gruppe" v="stilleståendeVann" />
		<tag k="ssr:hovedgruppe" v="ferskvann" />
		<tag k="ssr:stedsnr" v="14973" />
		<tag k="ssr:type" v="tjern" />
	</node>
	<node lat="64.09329166729871" lon="12.937438894744561" id="-49546">
		<tag k="name" v="Øya" />
		<tag k="name:no" v="Øya" />
		<tag k="place" v="islet" />
		<tag k="ssr:date" v="2018-01-09" />
		<tag k="ssr:gruppe" v="ferskvannskontur" />
		<tag k="ssr:hovedgruppe" v="ferskvann" />
		<tag k="ssr:stedsnr" v="14974" />
		<tag k="ssr:type" v="holme" />
	</node>
	<node lat="64.33643611237628" lon="12.441525006810247" id="-49547">
		<tag k="name" v="Gaupliklumpen" />
		<tag k="name:no" v="Gaupliklumpen" />
		<tag k="natural" v="hill" />
		<tag k="place" v="locality" />
		<tag k="ssr:date" v="2021-06-08" />
		<tag k="ssr:gruppe" v="høyder" />
		<tag k="ssr:hovedgruppe" v="terreng" />
		<tag k="ssr:stedsnr" v="20290" />
		<tag k="ssr:type" v="haug" />
	</node>
	<node lat="64.32143888529208" lon="12.10397222362786" id="-49548">
		<tag k="name" v="Gomolitjønna" />
		<tag k="name:no" v="Gomolitjønna" />
		<tag k="natural" v="water" />
		<tag k="ssr:date" v="2021-06-08" />
		<tag k="ssr:gruppe" v="stilleståendeVann" />
		<tag k="ssr:hovedgruppe" v="ferskvann" />
		<tag k="ssr:stedsnr" v="26206" />
		<tag k="ssr:type" v="tjern" />
	</node>
	<node lat="64.19052222127785" lon="12.234638880096101" id="-49549">
		<tag k="name" v="Grossmyra" />
		<tag k="name:no" v="Grossmyra" />
		<tag k="natural" v="wetland" />
		<tag k="ssr:date" v="2018-01-09" />
		<tag k="ssr:gruppe" v="våtmark" />
		<tag k="ssr:hovedgruppe" v="markslag" />
		<tag k="ssr:stedsnr" v="29314" />
		<tag k="ssr:type" v="myr" />
	</node>
	<node lat="64.22191389137443" lon="12.234941677045107" id="-49550">
		<tag k="name" v="Tørrtangen" />
		<tag k="name:no" v="Tørrtangen" />
		<tag k="natural" v="cape" />
		<tag k="ssr:date" v="2018-01-09" />
		<tag k="ssr:gruppe" v="ferskvannskontur" />
		<tag k="ssr:hovedgruppe" v="ferskvann" />
		<tag k="ssr:stedsnr" v="29335" />
		<tag k="ssr:type" v="nes" />
	</node>
	<node lat="64.26516388517238" lon="12.284033340437624" id="-49551">
		<tag k="name" v="Vegsetmoen" />
		<tag k="name:no" v="Vegsetmoen" />
		<tag k="place" v="farm" />
		<tag k="ssr:date" v="2018-01-09" />
		<tag k="ssr:gruppe" v="gardsbebyggelse" />
		<tag k="ssr:hovedgruppe" v="bebyggelse" />
		<tag k="ssr:stedsnr" v="29366" />
		<tag k="ssr:type" v="bruk" />
	</node>
	<node lat="64.19354722371459" lon="12.301974995089152" id="-49552">
		<tag k="name" v="Gifstadberg" />
		<tag k="name:no" v="Gifstadberg" />
		<tag k="place" v="farm" />
		<tag k="ssr:date" v="2018-01-09" />
		<tag k="ssr:gruppe" v="gardsbebyggelse" />
		<tag k="ssr:hovedgruppe" v="bebyggelse" />
		<tag k="ssr:stedsnr" v="29368" />
		<tag k="ssr:type" v="bruk" />
	</node>
	<node lat="64.19647222602045" lon="12.325238885360205" id="-49553">
		<tag k="name" v="Storlorntsrommet" />
		<tag k="name:no" v="Storlorntsrommet" />
		<tag k="place" v="locality" />
		<tag k="ssr:date" v="2018-01-09" />
		<tag k="ssr:gruppe" v="bolighus" />
		<tag k="ssr:hovedgruppe" v="bebyggelse" />
		<tag k="ssr:stedsnr" v="29369" />
		<tag k="ssr:type" v="gammelBosettingsplass" />
	</node>
	<node lat="64.18145555928794" lon="12.338622216897477" id="-49554">
		<tag k="name" v="Einamoen" />
		<tag k="name:no" v="Einamoen" />
		<tag k="place" v="locality" />
		<tag k="ssr:date" v="2018-01-09" />
		<tag k="ssr:gruppe" v="flater" />
		<tag k="ssr:hovedgruppe" v="terreng" />
		<tag k="ssr:stedsnr" v="29377" />
		<tag k="ssr:type" v="mo" />
	</node>
	<node lat="64.24067222304521" lon="12.293852780996993" id="-49555">
		<tag k="name" v="Tangen" />
		<tag k="name:no" v="Tangen" />
		<tag k="natural" v="cape" />
		<tag k="ssr:date" v="2018-01-09" />
		<tag k="ssr:gruppe" v="rennendeVann" />
		<tag k="ssr:hovedgruppe" v="ferskvann" />
		<tag k="ssr:stedsnr" v="29381" />
		<tag k="ssr:type" v="nesVedElver" />
	</node>
	<node lat="64.24288333486614" lon="12.355608340983672" id="-49556">
		<tag k="name" v="Vinjeberga" />
		<tag k="name:no" v="Vinjeberga" />
		<tag k="place" v="quarter" />
		<tag k="ssr:date" v="2018-01-09" />
		<tag k="ssr:gruppe" v="bebyggelsesområder" />
		<tag k="ssr:hovedgruppe" v="bebyggelse" />
		<tag k="ssr:stedsnr" v="29384" />
		<tag k="ssr:type" v="boligfelt" />
	</node>
	<node lat="64.23969166487394" lon="12.317633326169256" id="-49557">
		<tag k="name" v="Litlenget" />
		<tag k="name:no" v="Litlenget" />
		<tag k="place" v="locality" />
		<tag k="ssr:date" v="2018-01-09" />
		<tag k="ssr:gruppe" v="dyrkamark" />
		<tag k="ssr:hovedgruppe" v="markslag" />
		<tag k="ssr:stedsnr" v="29386" />
		<tag k="ssr:type" v="utmark" />
	</node>
	<node lat="64.24879722441982" lon="12.399947216960813" id="-49558">
		<tag k="name" v="Reitvolllen" />
		<tag k="name:no" v="Reitvolllen" />
		<tag k="place" v="locality" />
		<tag k="ssr:date" v="2018-01-09" />
		<tag k="ssr:gruppe" v="bolighus" />
		<tag k="ssr:hovedgruppe" v="bebyggelse" />
		<tag k="ssr:stedsnr" v="29501" />
		<tag k="ssr:type" v="gammelBosettingsplass" />
	</node>
	<node lat="64.24761944545946" lon="12.388166672270213" id="-49559">
		<tag k="name" v="Kvernhusbekken" />
		<tag k="name:no" v="Kvernhusbekken" />
		<tag k="ssr:date" v="2018-01-09" />
		<tag k="ssr:gruppe" v="rennendeVann" />
		<tag k="ssr:hovedgruppe" v="ferskvann" />
		<tag k="ssr:stedsnr" v="29505" />
		<tag k="ssr:type" v="bekk" />
		<tag k="waterway" v="stream" />
	</node>
	<node lat="64.24194999898742" lon="12.48873889779878" id="-49560">
		<tag k="name" v="Aunet" />
		<tag k="name:no" v="Aunet" />
		<tag k="place" v="farm" />
		<tag k="ssr:date" v="2018-01-09" />
		<tag k="ssr:gruppe" v="gardsbebyggelse" />
		<tag k="ssr:hovedgruppe" v="bebyggelse" />
		<tag k="ssr:stedsnr" v="29507" />
		<tag k="ssr:type" v="bruk" />
	</node>
	<node lat="64.23455000355099" lon="12.460883340211199" id="-49561">
		<tag k="name" v="Eggenmoen" />
		<tag k="name:no" v="Eggenmoen" />
		<tag k="place" v="locality" />
		<tag k="ssr:date" v="2018-01-09" />
		<tag k="ssr:gruppe" v="bolighus" />
		<tag k="ssr:hovedgruppe" v="bebyggelse" />
		<tag k="ssr:stedsnr" v="29508" />
		<tag k="ssr:type" v="gammelBosettingsplass" />
	</node>
	<node lat="64.23021944576927" lon="12.538900008387055" id="-49562">
		<tag k="name" v="Bjørkmyra" />
		<tag k="name:no" v="Bjørkmyra" />
		<tag k="natural" v="wetland" />
		<tag k="ssr:date" v="2018-01-09" />
		<tag k="ssr:gruppe" v="våtmark" />
		<tag k="ssr:hovedgruppe" v="markslag" />
		<tag k="ssr:stedsnr" v="29512" />
		<tag k="ssr:type" v="myr" />
	</node>
	<node lat="64.2076833312735" lon="12.298930555838501" id="-49563">
		<tag k="name" v="Brorplassen" />
		<tag k="name:no" v="Brorplassen" />
		<tag k="place" v="locality" />
		<tag k="ssr:date" v="2018-01-09" />
		<tag k="ssr:gruppe" v="bolighus" />
		<tag k="ssr:hovedgruppe" v="bebyggelse" />
		<tag k="ssr:stedsnr" v="29417" />
		<tag k="ssr:type" v="gammelBosettingsplass" />
	</node>
	<node lat="64.21025277548586" lon="12.352100003473412" id="-49564">
		<tag k="name" v="Revtjønnmyra" />
		<tag k="name:no" v="Revtjønnmyra" />
		<tag k="natural" v="wetland" />
		<tag k="ssr:date" v="2018-01-09" />
		<tag k="ssr:gruppe" v="våtmark" />
		<tag k="ssr:hovedgruppe" v="markslag" />
		<tag k="ssr:stedsnr" v="29421" />
		<tag k="ssr:type" v="myr" />
	</node>
	<node lat="64.2738250006191" lon="12.385147224200269" id="-49565">
		<tag k="name" v="Sveddlia" />
		<tag k="name:no" v="Sveddlia" />
		<tag k="natural" v="slope" />
		<tag k="place" v="locality" />
		<tag k="ssr:date" v="2018-01-09" />
		<tag k="ssr:gruppe" v="skråninger" />
		<tag k="ssr:hovedgruppe" v="terreng" />
		<tag k="ssr:stedsnr" v="29473" />
		<tag k="ssr:type" v="li" />
	</node>
	<node lat="64.28460277953964" lon="12.454736118674825" id="-49566">
		<tag k="name" v="Lauvbergmyra" />
		<tag k="name:no" v="Lauvbergmyra" />
		<tag k="natural" v="wetland" />
		<tag k="ssr:date" v="2018-01-09" />
		<tag k="ssr:gruppe" v="våtmark" />
		<tag k="ssr:hovedgruppe" v="markslag" />
		<tag k="ssr:stedsnr" v="29565" />
		<tag k="ssr:type" v="myr" />
	</node>
	<node lat="64.27272222673105" lon="12.434116666536323" id="-49567">
		<tag k="name" v="Jerpholet" />
		<tag k="name:no" v="Jerpholet" />
		<tag k="natural" v="valley" />
		<tag k="place" v="locality" />
		<tag k="ssr:date" v="2018-01-09" />
		<tag k="ssr:gruppe" v="senkninger" />
		<tag k="ssr:hovedgruppe" v="terreng" />
		<tag k="ssr:stedsnr" v="29567" />
		<tag k="ssr:type" v="botn" />
	</node>
	<node lat="64.27458333135608" lon="12.436541672616084" id="-49568">
		<tag k="name" v="Stormoen" />
		<tag k="name:no" v="Stormoen" />
		<tag k="place" v="locality" />
		<tag k="ssr:date" v="2018-01-09" />
		<tag k="ssr:gruppe" v="flater" />
		<tag k="ssr:hovedgruppe" v="terreng" />
		<tag k="ssr:stedsnr" v="29569" />
		<tag k="ssr:type" v="mo" />
	</node>
	<node lat="64.27960555167306" lon="12.46009722350255" id="-49569">
		<tag k="fixme" v="consider natural=peak for the most distinct mountains in the district" />
		<tag k="name" v="Sagåsen" />
		<tag k="name:no" v="Sagåsen" />
		<tag k="natural" v="hill" />
		<tag k="place" v="locality" />
		<tag k="ssr:date" v="2018-01-09" />
		<tag k="ssr:gruppe" v="høyder" />
		<tag k="ssr:hovedgruppe" v="terreng" />
		<tag k="ssr:stedsnr" v="29574" />
		<tag k="ssr:type" v="ås" />
	</node>
	<node lat="64.06161110773841" lon="12.188769454086541" id="-49570">
		<tag k="name" v="Roktdalen" />
		<tag k="name:no" v="Roktdalen" />
		<tag k="natural" v="valley" />
		<tag k="place" v="locality" />
		<tag k="ssr:date" v="2018-01-09" />
		<tag k="ssr:gruppe" v="senkninger" />
		<tag k="ssr:hovedgruppe" v="terreng" />
		<tag k="ssr:stedsnr" v="237250" />
		<tag k="ssr:type" v="dal" />
	</node>
	<node lat="64.35079999756717" lon="12.316825000355255" id="-49571">
		<tag k="name" v="Raudsjøslettet" />
		<tag k="name:no" v="Raudsjøslettet" />
		<tag k="natural" v="wetland" />
		<tag k="ssr:date" v="2018-01-09" />
		<tag k="ssr:gruppe" v="våtmark" />
		<tag k="ssr:hovedgruppe" v="markslag" />
		<tag k="ssr:stedsnr" v="48014" />
		<tag k="ssr:type" v="myr" />
	</node>
	<node lat="64.29023888592637" lon="12.458938883091035" id="-49572">
		<tag k="name" v="Auster Bjønnsjøen" />
		<tag k="name:no" v="Auster Bjønnsjøen" />
		<tag k="natural" v="water" />
		<tag k="ssr:date" v="2018-01-09" />
		<tag k="ssr:gruppe" v="stilleståendeVann" />
		<tag k="ssr:hovedgruppe" v="ferskvann" />
		<tag k="ssr:stedsnr" v="48019" />
		<tag k="ssr:type" v="tjern" />
	</node>
	<node lat="64.29670000212057" lon="12.476338895860225" id="-49573">
		<tag k="historic" v="shieling" />
		<tag k="name" v="Langvassmoseteren" />
		<tag k="name:no" v="Langvassmoseteren" />
		<tag k="place" v="locality" />
		<tag k="ssr:date" v="2018-01-09" />
		<tag k="ssr:gruppe" v="dyrkamark" />
		<tag k="ssr:hovedgruppe" v="markslag" />
		<tag k="ssr:stedsnr" v="48025" />
		<tag k="ssr:type" v="setervoll" />
	</node>
	<node lat="64.29510833201523" lon="12.506641675079832" id="-49574">
		<tag k="name" v="Holåberga" />
		<tag k="name:no" v="Holåberga" />
		<tag k="natural" v="hill" />
		<tag k="place" v="locality" />
		<tag k="ssr:date" v="2018-01-09" />
		<tag k="ssr:gruppe" v="høyder" />
		<tag k="ssr:hovedgruppe" v="terreng" />
		<tag k="ssr:stedsnr" v="48101" />
		<tag k="ssr:type" v="berg" />
	</node>
	<node lat="64.30030833465659" lon="12.527869439165727" id="-49575">
		<tag k="name" v="Holåmyra" />
		<tag k="name:no" v="Holåmyra" />
		<tag k="natural" v="wetland" />
		<tag k="ssr:date" v="2018-01-09" />
		<tag k="ssr:gruppe" v="våtmark" />
		<tag k="ssr:hovedgruppe" v="markslag" />
		<tag k="ssr:stedsnr" v="48103" />
		<tag k="ssr:type" v="myr" />
	</node>
	<node lat="63.99853610932106" lon="12.324066658128958" id="-49576">
		<tag k="name" v="Skjelbreia" />
		<tag k="name:no" v="Skjelbreia" />
		<tag k="ssr:date" v="2018-01-09" />
		<tag k="ssr:gruppe" v="rennendeVann" />
		<tag k="ssr:hovedgruppe" v="ferskvann" />
		<tag k="ssr:stedsnr" v="48318" />
		<tag k="ssr:type" v="elv" />
		<tag k="waterway" v="river" />
	</node>
	<node lat="64.24126944600516" lon="12.16141110597553" id="-49577">
		<tag k="name" v="Rennsetmoen" />
		<tag k="name:no" v="Rennsetmoen" />
		<tag k="place" v="locality" />
		<tag k="ssr:date" v="2018-01-09" />
		<tag k="ssr:gruppe" v="flater" />
		<tag k="ssr:hovedgruppe" v="terreng" />
		<tag k="ssr:stedsnr" v="48328" />
		<tag k="ssr:type" v="slette" />
	</node>
	<node lat="64.25884166666484" lon="12.158655548666855" id="-49578">
		<tag k="name" v="Tjukklia" />
		<tag k="name:no" v="Tjukklia" />
		<tag k="natural" v="slope" />
		<tag k="place" v="locality" />
		<tag k="ssr:date" v="2018-01-09" />
		<tag k="ssr:gruppe" v="skråninger" />
		<tag k="ssr:hovedgruppe" v="terreng" />
		<tag k="ssr:stedsnr" v="48270" />
		<tag k="ssr:type" v="li" />
	</node>
	<node lat="64.22722500282262" lon="12.019536104098632" id="-49579">
		<tag k="name" v="Setertjønnhaugen" />
		<tag k="name:no" v="Setertjønnhaugen" />
		<tag k="natural" v="hill" />
		<tag k="place" v="locality" />
		<tag k="ssr:date" v="2018-01-09" />
		<tag k="ssr:gruppe" v="høyder" />
		<tag k="ssr:hovedgruppe" v="terreng" />
		<tag k="ssr:stedsnr" v="48401" />
		<tag k="ssr:type" v="haug" />
	</node>
	<node lat="64.22129999583895" lon="11.979391664739529" id="-49580">
		<tag k="fixme" v="consider natural=peak for the most distinct mountains in the district" />
		<tag k="name" v="Hammeråsen" />
		<tag k="name:no" v="Hammeråsen" />
		<tag k="natural" v="hill" />
		<tag k="place" v="locality" />
		<tag k="ssr:date" v="2018-01-09" />
		<tag k="ssr:gruppe" v="høyder" />
		<tag k="ssr:hovedgruppe" v="terreng" />
		<tag k="ssr:stedsnr" v="48405" />
		<tag k="ssr:type" v="ås" />
	</node>
	<node lat="64.28333055932042" lon="12.213855565866554" id="-49581">
		<tag k="landuse" v="meadow" />
		<tag k="name" v="Storslåtta" />
		<tag k="name:no" v="Storslåtta" />
		<tag k="ssr:date" v="2018-01-09" />
		<tag k="ssr:gruppe" v="dyrkamark" />
		<tag k="ssr:hovedgruppe" v="markslag" />
		<tag k="ssr:stedsnr" v="48570" />
		<tag k="ssr:type" v="eng" />
	</node>
	<node lat="64.27653055661263" lon="12.202294434265845" id="-49582">
		<tag k="landuse" v="meadow" />
		<tag k="name" v="Gamvollen" />
		<tag k="name:no" v="Gamvollen" />
		<tag k="ssr:date" v="2018-01-09" />
		<tag k="ssr:gruppe" v="dyrkamark" />
		<tag k="ssr:hovedgruppe" v="markslag" />
		<tag k="ssr:stedsnr" v="48571" />
		<tag k="ssr:type" v="eng" />
	</node>
	<node lat="64.31570000198109" lon="12.369552778903492" id="-49583">
		<tag k="landuse" v="meadow" />
		<tag k="name" v="Stordalsvollen" />
		<tag k="name:no" v="Stordalsvollen" />
		<tag k="ssr:date" v="2018-01-09" />
		<tag k="ssr:gruppe" v="dyrkamark" />
		<tag k="ssr:hovedgruppe" v="markslag" />
		<tag k="ssr:stedsnr" v="48611" />
		<tag k="ssr:type" v="eng" />
	</node>
	<node lat="64.31707778083052" lon="12.362936114796145" id="-49584">
		<tag k="name" v="Kaukarberget" />
		<tag k="name:no" v="Kaukarberget" />
		<tag k="natural" v="hill" />
		<tag k="place" v="locality" />
		<tag k="ssr:date" v="2018-01-09" />
		<tag k="ssr:gruppe" v="høyder" />
		<tag k="ssr:hovedgruppe" v="terreng" />
		<tag k="ssr:stedsnr" v="48613" />
		<tag k="ssr:type" v="haug" />
	</node>
	<node lat="64.31495000255211" lon="12.35959167622557" id="-49585">
		<tag k="historic" v="shieling" />
		<tag k="name" v="Rønningseteren" />
		<tag k="name:no" v="Rønningseteren" />
		<tag k="place" v="isolated_dwelling" />
		<tag k="ssr:date" v="2018-01-09" />
		<tag k="ssr:gruppe" v="gardsbebyggelse" />
		<tag k="ssr:hovedgruppe" v="bebyggelse" />
		<tag k="ssr:stedsnr" v="48614" />
		<tag k="ssr:type" v="seterStøl" />
	</node>
	<node lat="64.32539999576167" lon="12.307836113835258" id="-49586">
		<tag k="name" v="Blokkmyra" />
		<tag k="name:no" v="Blokkmyra" />
		<tag k="natural" v="wetland" />
		<tag k="ssr:date" v="2018-01-09" />
		<tag k="ssr:gruppe" v="våtmark" />
		<tag k="ssr:hovedgruppe" v="markslag" />
		<tag k="ssr:stedsnr" v="48697" />
		<tag k="ssr:type" v="myr" />
	</node>
	<node lat="64.33616388541378" lon="12.387249989630826" id="-49587">
		<tag k="landuse" v="meadow" />
		<tag k="name" v="Småslettet" />
		<tag k="name:no" v="Småslettet" />
		<tag k="ssr:date" v="2018-01-09" />
		<tag k="ssr:gruppe" v="dyrkamark" />
		<tag k="ssr:hovedgruppe" v="markslag" />
		<tag k="ssr:stedsnr" v="48801" />
		<tag k="ssr:type" v="eng" />
	</node>
	<node lat="64.34460555582658" lon="12.398561108493691" id="-49588">
		<tag k="name" v="Høgberget" />
		<tag k="name:no" v="Høgberget" />
		<tag k="natural" v="hill" />
		<tag k="place" v="locality" />
		<tag k="ssr:date" v="2018-01-09" />
		<tag k="ssr:gruppe" v="høyder" />
		<tag k="ssr:hovedgruppe" v="terreng" />
		<tag k="ssr:stedsnr" v="48803" />
		<tag k="ssr:type" v="haug" />
	</node>
	<node lat="64.32665000186203" lon="12.48665555148761" id="-49589">
		<tag k="name" v="Fugliåsen" />
		<tag k="name:no" v="Fugliåsen" />
		<tag k="natural" v="hill" />
		<tag k="place" v="locality" />
		<tag k="ssr:date" v="2018-01-09" />
		<tag k="ssr:gruppe" v="høyder" />
		<tag k="ssr:hovedgruppe" v="terreng" />
		<tag k="ssr:stedsnr" v="48917" />
		<tag k="ssr:type" v="haug" />
	</node>
	<node lat="64.20375278111275" lon="12.598288880034914" id="-49590">
		<tag k="name" v="Korptjønndalen" />
		<tag k="name:no" v="Korptjønndalen" />
		<tag k="natural" v="valley" />
		<tag k="place" v="locality" />
		<tag k="ssr:date" v="2018-01-09" />
		<tag k="ssr:gruppe" v="senkninger" />
		<tag k="ssr:hovedgruppe" v="terreng" />
		<tag k="ssr:stedsnr" v="48974" />
		<tag k="ssr:type" v="dal" />
	</node>
	<node lat="64.32441388806329" lon="12.691691673262936" id="-49591">
		<tag k="name" v="Svartkutjønna" />
		<tag k="name:no" v="Svartkutjønna" />
		<tag k="natural" v="water" />
		<tag k="ssr:date" v="2018-01-09" />
		<tag k="ssr:gruppe" v="stilleståendeVann" />
		<tag k="ssr:hovedgruppe" v="ferskvann" />
		<tag k="ssr:stedsnr" v="49604" />
		<tag k="ssr:type" v="tjern" />
	</node>
	<node lat="64.14999444664626" lon="12.505425004614603" id="-49592">
		<tag k="name" v="Lauvåsrønningen" />
		<tag k="name:no" v="Lauvåsrønningen" />
		<tag k="place" v="locality" />
		<tag k="ssr:date" v="2018-01-09" />
		<tag k="ssr:gruppe" v="dyrkamark" />
		<tag k="ssr:hovedgruppe" v="markslag" />
		<tag k="ssr:stedsnr" v="49821" />
		<tag k="ssr:type" v="utmark" />
	</node>
	<node lat="64.26730277590637" lon="12.747633335304279" id="-49593">
		<tag k="name" v="Trettjønnåsan" />
		<tag k="name:no" v="Trettjønnåsan" />
		<tag k="natural" v="hill" />
		<tag k="place" v="locality" />
		<tag k="ssr:date" v="2018-01-09" />
		<tag k="ssr:gruppe" v="høyder" />
		<tag k="ssr:hovedgruppe" v="terreng" />
		<tag k="ssr:stedsnr" v="50486" />
		<tag k="ssr:type" v="høyde" />
	</node>
	<node lat="64.26091111129278" lon="12.70662777137355" id="-49594">
		<tag k="name" v="Råslåtta" />
		<tag k="name:no" v="Råslåtta" />
		<tag k="place" v="locality" />
		<tag k="ssr:date" v="2018-01-09" />
		<tag k="ssr:gruppe" v="dyrkamark" />
		<tag k="ssr:hovedgruppe" v="markslag" />
		<tag k="ssr:stedsnr" v="50489" />
		<tag k="ssr:type" v="utmark" />
	</node>
	<node lat="64.19953333256366" lon="12.25961666576513" id="-49595">
		<tag k="alt_name:no" v="Breide søre" />
		<tag k="name" v="Søre Breide" />
		<tag k="name:no" v="Søre Breide" />
		<tag k="place" v="farm" />
		<tag k="ssr:date" v="2018-01-09" />
		<tag k="ssr:gruppe" v="gardsbebyggelse" />
		<tag k="ssr:hovedgruppe" v="bebyggelse" />
		<tag k="ssr:stedsnr" v="239736" />
		<tag k="ssr:type" v="bruk" />
	</node>
	<node lat="64.20681111106947" lon="12.28265832614324" id="-49596">
		<tag k="name" v="Sveberg" />
		<tag k="name:no" v="Sveberg" />
		<tag k="place" v="farm" />
		<tag k="ssr:date" v="2018-01-09" />
		<tag k="ssr:gruppe" v="gardsbebyggelse" />
		<tag k="ssr:hovedgruppe" v="bebyggelse" />
		<tag k="ssr:stedsnr" v="55607" />
		<tag k="ssr:type" v="bruk" />
	</node>
	<node lat="64.20343888650628" lon="12.251616666436362" id="-49597">
		<tag k="alt_name:no" v="Breide nordre" />
		<tag k="name" v="Nordre Breide" />
		<tag k="name:no" v="Nordre Breide" />
		<tag k="place" v="farm" />
		<tag k="ssr:date" v="2018-01-09" />
		<tag k="ssr:gruppe" v="gardsbebyggelse" />
		<tag k="ssr:hovedgruppe" v="bebyggelse" />
		<tag k="ssr:stedsnr" v="57708" />
		<tag k="ssr:type" v="bruk" />
	</node>
	<node lat="64.21050833404284" lon="12.229791668385541" id="-49598">
		<tag k="fixme" v="consider place=hamlet" />
		<tag k="name" v="Finnsås" />
		<tag k="name:no" v="Finnsås" />
		<tag k="place" v="farm" />
		<tag k="ssr:date" v="2021-06-08" />
		<tag k="ssr:gruppe" v="gardsbebyggelse" />
		<tag k="ssr:hovedgruppe" v="bebyggelse" />
		<tag k="ssr:stedsnr" v="60616" />
		<tag k="ssr:type" v="gard" />
	</node>
	<node lat="64.24005832937924" lon="12.471783322702292" id="-49599">
		<tag k="fixme" v="consider place=hamlet" />
		<tag k="name" v="Aun" />
		<tag k="name:no" v="Aun" />
		<tag k="place" v="farm" />
		<tag k="ssr:date" v="2018-01-09" />
		<tag k="ssr:gruppe" v="gardsbebyggelse" />
		<tag k="ssr:hovedgruppe" v="bebyggelse" />
		<tag k="ssr:stedsnr" v="60673" />
		<tag k="ssr:type" v="gard" />
	</node>
	<node lat="64.24214722380573" lon="12.507352770623339" id="-49600">
		<tag k="fixme" v="consider place=hamlet" />
		<tag k="name" v="Enga" />
		<tag k="name:no" v="Enga" />
		<tag k="place" v="farm" />
		<tag k="ssr:date" v="2018-01-09" />
		<tag k="ssr:gruppe" v="gardsbebyggelse" />
		<tag k="ssr:hovedgruppe" v="bebyggelse" />
		<tag k="ssr:stedsnr" v="60675" />
		<tag k="ssr:type" v="gard" />
	</node>
	<node lat="64.16382500279893" lon="12.482952776337699" id="-49601">
		<tag k="fixme" v="consider place=hamlet" />
		<tag k="name" v="Steinkjer" />
		<tag k="name:no" v="Steinkjer" />
		<tag k="place" v="farm" />
		<tag k="ssr:date" v="2019-01-09" />
		<tag k="ssr:gruppe" v="gardsbebyggelse" />
		<tag k="ssr:hovedgruppe" v="bebyggelse" />
		<tag k="ssr:stedsnr" v="242601" />
		<tag k="ssr:type" v="gard" />
	</node>
	<node lat="64.23996944122455" lon="12.478255547137866" id="-49602">
		<tag k="fixme" v="consider place=hamlet" />
		<tag k="name" v="Kolven" />
		<tag k="name:no" v="Kolven" />
		<tag k="place" v="farm" />
		<tag k="ssr:date" v="2018-01-09" />
		<tag k="ssr:gruppe" v="gardsbebyggelse" />
		<tag k="ssr:hovedgruppe" v="bebyggelse" />
		<tag k="ssr:stedsnr" v="242650" />
		<tag k="ssr:type" v="gard" />
	</node>
	<node lat="64.27429166959651" lon="12.518430548014962" id="-49603">
		<tag k="alt_name:no" v="Agle vestre" />
		<tag k="name" v="Vestre Agle" />
		<tag k="name:no" v="Vestre Agle" />
		<tag k="place" v="farm" />
		<tag k="ssr:date" v="2019-01-14" />
		<tag k="ssr:gruppe" v="gardsbebyggelse" />
		<tag k="ssr:hovedgruppe" v="bebyggelse" />
		<tag k="ssr:stedsnr" v="242709" />
		<tag k="ssr:type" v="bruk" />
	</node>
	<node lat="64.25290000145083" lon="13.247844451814021" id="-49604">
		<tag k="fixme" v="consider natural=peak for the most distinct mountains in the district" />
		<tag k="name" v="Lurusneisa - Tjohkele" />
		<tag k="name:no" v="Lurusneisa" />
		<tag k="name:sma" v="Tjohkele" />
		<tag k="natural" v="hill" />
		<tag k="place" v="locality" />
		<tag k="ssr:date" v="2018-01-09" />
		<tag k="ssr:gruppe" v="høyder" />
		<tag k="ssr:hovedgruppe" v="terreng" />
		<tag k="ssr:stedsnr" v="74014" />
		<tag k="ssr:type" v="fjell" />
	</node>
	<node lat="64.27286944811001" lon="12.836377769896236" id="-49605">
		<tag k="alt_name:no" v="Andorelva" />
		<tag k="name" v="Andra" />
		<tag k="name:no" v="Andra" />
		<tag k="ssr:date" v="2018-01-09" />
		<tag k="ssr:gruppe" v="rennendeVann" />
		<tag k="ssr:hovedgruppe" v="ferskvann" />
		<tag k="ssr:stedsnr" v="74262" />
		<tag k="ssr:type" v="elv" />
		<tag k="waterway" v="river" />
	</node>
	<node lat="64.28461666737635" lon="13.04172222572096" id="-49606">
		<tag k="historic" v="shieling" />
		<tag k="name" v="Gressåmoseteren" />
		<tag k="name:no" v="Gressåmoseteren" />
		<tag k="place" v="locality" />
		<tag k="ssr:date" v="2021-06-08" />
		<tag k="ssr:gruppe" v="dyrkamark" />
		<tag k="ssr:hovedgruppe" v="markslag" />
		<tag k="ssr:stedsnr" v="74269" />
		<tag k="ssr:type" v="setervoll" />
	</node>
	<node lat="64.33276666594801" lon="12.346755554365043" id="-49607">
		<tag k="fixme" v="consider place=hamlet" />
		<tag k="name" v="Tjennaråsen" />
		<tag k="name:no" v="Tjennaråsen" />
		<tag k="place" v="farm" />
		<tag k="ssr:date" v="2021-06-08" />
		<tag k="ssr:gruppe" v="gardsbebyggelse" />
		<tag k="ssr:hovedgruppe" v="bebyggelse" />
		<tag k="ssr:stedsnr" v="74406" />
		<tag k="ssr:type" v="gard" />
	</node>
	<node lat="64.35877778016233" lon="12.461124998614038" id="-49608">
		<tag k="name" v="Finnkøylitjønna" />
		<tag k="name:no" v="Finnkøylitjønna" />
		<tag k="natural" v="water" />
		<tag k="ssr:date" v="2021-06-08" />
		<tag k="ssr:gruppe" v="stilleståendeVann" />
		<tag k="ssr:hovedgruppe" v="ferskvann" />
		<tag k="ssr:stedsnr" v="74420" />
		<tag k="ssr:type" v="tjern" />
	</node>
	<node lat="64.2664277814089" lon="12.553433331693578" id="-49609">
		<tag k="name" v="Almo fellesbeite" />
		<tag k="name:no" v="Almo fellesbeite" />
		<tag k="place" v="isolated_dwelling" />
		<tag k="ssr:date" v="2021-06-08" />
		<tag k="ssr:gruppe" v="bolighus" />
		<tag k="ssr:hovedgruppe" v="bebyggelse" />
		<tag k="ssr:stedsnr" v="74360" />
		<tag k="ssr:type" v="eneboligMindreBoligbygg" />
	</node>
	<node lat="64.20994166772347" lon="12.029825004113329" id="-49610">
		<tag k="name" v="Brunes" />
		<tag k="name:no" v="Brunes" />
		<tag k="place" v="farm" />
		<tag k="ssr:date" v="2021-06-08" />
		<tag k="ssr:gruppe" v="gardsbebyggelse" />
		<tag k="ssr:hovedgruppe" v="bebyggelse" />
		<tag k="ssr:stedsnr" v="74371" />
		<tag k="ssr:type" v="bruk" />
	</node>
	<node lat="64.25425555234759" lon="12.136000005147555" id="-49611">
		<tag k="name" v="Hammerelva" />
		<tag k="name:no" v="Hammerelva" />
		<tag k="ssr:date" v="2018-01-09" />
		<tag k="ssr:gruppe" v="rennendeVann" />
		<tag k="ssr:hovedgruppe" v="ferskvann" />
		<tag k="ssr:stedsnr" v="74504" />
		<tag k="ssr:type" v="bekk" />
		<tag k="waterway" v="stream" />
	</node>
	<node lat="64.25290555351441" lon="12.041866666729746" id="-49612">
		<tag k="fixme" v="consider natural=peak for the most distinct mountains in the district" />
		<tag k="name" v="Hammerheia" />
		<tag k="name:no" v="Hammerheia" />
		<tag k="natural" v="hill" />
		<tag k="place" v="locality" />
		<tag k="ssr:date" v="2018-01-09" />
		<tag k="ssr:gruppe" v="høyder" />
		<tag k="ssr:hovedgruppe" v="terreng" />
		<tag k="ssr:stedsnr" v="74511" />
		<tag k="ssr:type" v="ås" />
	</node>
	<node lat="64.26989166585571" lon="12.18492777449096" id="-49613">
		<tag k="name" v="Langnesseteren" />
		<tag k="name:no" v="Langnesseteren" />
		<tag k="place" v="isolated_dwelling" />
		<tag k="ssr:date" v="2021-06-08" />
		<tag k="ssr:gruppe" v="bolighus" />
		<tag k="ssr:hovedgruppe" v="bebyggelse" />
		<tag k="ssr:stedsnr" v="74515" />
		<tag k="ssr:type" v="fritidsbolig" />
	</node>
	<node lat="64.1627194486901" lon="12.603936112937877" id="-49614">
		<tag k="name" v="Ellenlia" />
		<tag k="name:no" v="Ellenlia" />
		<tag k="natural" v="slope" />
		<tag k="place" v="locality" />
		<tag k="ssr:date" v="2018-01-09" />
		<tag k="ssr:gruppe" v="skråninger" />
		<tag k="ssr:hovedgruppe" v="terreng" />
		<tag k="ssr:stedsnr" v="74567" />
		<tag k="ssr:type" v="li" />
	</node>
	<node lat="64.16188888527695" lon="12.54659166989448" id="-49615">
		<tag k="name" v="Imsdalen" />
		<tag k="name:no" v="Imsdalen" />
		<tag k="natural" v="valley" />
		<tag k="place" v="locality" />
		<tag k="ssr:date" v="2018-01-09" />
		<tag k="ssr:gruppe" v="senkninger" />
		<tag k="ssr:hovedgruppe" v="terreng" />
		<tag k="ssr:stedsnr" v="74571" />
		<tag k="ssr:type" v="dal" />
	</node>
	<node lat="63.98526944771369" lon="12.587638898537087" id="-49616">
		<tag k="name" v="Stigåtjønna" />
		<tag k="name:no" v="Stigåtjønna" />
		<tag k="natural" v="water" />
		<tag k="ssr:date" v="2021-06-08" />
		<tag k="ssr:gruppe" v="stilleståendeVann" />
		<tag k="ssr:hovedgruppe" v="ferskvann" />
		<tag k="ssr:stedsnr" v="74666" />
		<tag k="ssr:type" v="tjern" />
	</node>
	<node lat="63.980024995871474" lon="12.61758610661202" id="-49617">
		<tag k="name" v="Flishaugen" />
		<tag k="name:no" v="Flishaugen" />
		<tag k="natural" v="hill" />
		<tag k="place" v="locality" />
		<tag k="ssr:date" v="2018-01-09" />
		<tag k="ssr:gruppe" v="høyder" />
		<tag k="ssr:hovedgruppe" v="terreng" />
		<tag k="ssr:stedsnr" v="74667" />
		<tag k="ssr:type" v="haug" />
	</node>
	<node lat="63.99547777804014" lon="12.533794435207131" id="-49618">
		<tag k="name" v="Hattjønnin" />
		<tag k="name:no" v="Hattjønnin" />
		<tag k="natural" v="water" />
		<tag k="ssr:date" v="2021-06-08" />
		<tag k="ssr:gruppe" v="stilleståendeVann" />
		<tag k="ssr:hovedgruppe" v="ferskvann" />
		<tag k="ssr:stedsnr" v="74673" />
		<tag k="ssr:type" v="tjern" />
	</node>
	<node lat="64.23107222011029" lon="12.620541674461123" id="-49619">
		<tag k="name" v="Gravslåttseteren" />
		<tag k="name:no" v="Gravslåttseteren" />
		<tag k="place" v="isolated_dwelling" />
		<tag k="ssr:date" v="2021-06-08" />
		<tag k="ssr:gruppe" v="bolighus" />
		<tag k="ssr:hovedgruppe" v="bebyggelse" />
		<tag k="ssr:stedsnr" v="74706" />
		<tag k="ssr:type" v="fritidsbolig" />
	</node>
	<node lat="64.21901111419454" lon="12.922427787833826" id="-49620">
		<tag k="name" v="Seterbekken" />
		<tag k="name:no" v="Seterbekken" />
		<tag k="ssr:date" v="2021-06-08" />
		<tag k="ssr:gruppe" v="rennendeVann" />
		<tag k="ssr:hovedgruppe" v="ferskvann" />
		<tag k="ssr:stedsnr" v="74920" />
		<tag k="ssr:type" v="bekk" />
		<tag k="waterway" v="stream" />
	</node>
	<node lat="64.11011388709987" lon="12.863419447336614" id="-49621">
		<tag k="name" v="Breivikbukta" />
		<tag k="name:no" v="Breivikbukta" />
		<tag k="natural" v="bay" />
		<tag k="ssr:date" v="2021-06-08" />
		<tag k="ssr:gruppe" v="ferskvannskontur" />
		<tag k="ssr:hovedgruppe" v="ferskvann" />
		<tag k="ssr:stedsnr" v="74953" />
		<tag k="ssr:type" v="vik" />
	</node>
	<node lat="64.33082500156122" lon="12.425649998867277" id="-49622">
		<tag k="name" v="Goddalen" />
		<tag k="name:no" v="Goddalen" />
		<tag k="natural" v="valley" />
		<tag k="place" v="locality" />
		<tag k="ssr:date" v="2021-06-08" />
		<tag k="ssr:gruppe" v="senkninger" />
		<tag k="ssr:hovedgruppe" v="terreng" />
		<tag k="ssr:stedsnr" v="75302" />
		<tag k="ssr:type" v="dal" />
	</node>
	<node lat="64.30985000183546" lon="12.357274991140631" id="-49623">
		<tag k="name" v="Fokra" />
		<tag k="name:no" v="Fokra" />
		<tag k="place" v="farm" />
		<tag k="ssr:date" v="2021-06-08" />
		<tag k="ssr:gruppe" v="gardsbebyggelse" />
		<tag k="ssr:hovedgruppe" v="bebyggelse" />
		<tag k="ssr:stedsnr" v="75303" />
		<tag k="ssr:type" v="bruk" />
	</node>
	<node lat="64.41508888628071" lon="12.929916663068122" id="-49624">
		<tag k="name" v="Stuggunestjønna" />
		<tag k="name:no" v="Stuggunestjønna" />
		<tag k="natural" v="water" />
		<tag k="ssr:date" v="2021-06-08" />
		<tag k="ssr:gruppe" v="stilleståendeVann" />
		<tag k="ssr:hovedgruppe" v="ferskvann" />
		<tag k="ssr:stedsnr" v="75313" />
		<tag k="ssr:type" v="tjern" />
	</node>
	<node lat="64.32994721919012" lon="12.844411102967003" id="-49625">
		<tag k="name" v="Bjørkliklumpen" />
		<tag k="name:no" v="Bjørkliklumpen" />
		<tag k="natural" v="hill" />
		<tag k="place" v="locality" />
		<tag k="ssr:date" v="2018-01-09" />
		<tag k="ssr:gruppe" v="høyder" />
		<tag k="ssr:hovedgruppe" v="terreng" />
		<tag k="ssr:stedsnr" v="75300" />
		<tag k="ssr:type" v="haug" />
	</node>
	<node lat="64.30187499592661" lon="12.53005000632107" id="-49626">
		<tag k="name" v="Holåbekken" />
		<tag k="name:no" v="Holåbekken" />
		<tag k="ssr:date" v="2018-01-09" />
		<tag k="ssr:gruppe" v="rennendeVann" />
		<tag k="ssr:hovedgruppe" v="ferskvann" />
		<tag k="ssr:stedsnr" v="75411" />
		<tag k="ssr:type" v="bekk" />
		<tag k="waterway" v="stream" />
	</node>
	<node lat="64.30629999848867" lon="12.352552778101257" id="-49627">
		<tag k="name" v="Korsvollelva" />
		<tag k="name:no" v="Korsvollelva" />
		<tag k="ssr:date" v="2021-06-08" />
		<tag k="ssr:gruppe" v="rennendeVann" />
		<tag k="ssr:hovedgruppe" v="ferskvann" />
		<tag k="ssr:stedsnr" v="75412" />
		<tag k="ssr:type" v="bekk" />
		<tag k="waterway" v="stream" />
	</node>
	<node lat="64.30751944864438" lon="12.3144222295817" id="-49628">
		<tag k="name" v="Gauslitjønna" />
		<tag k="name:no" v="Gauslitjønna" />
		<tag k="natural" v="water" />
		<tag k="ssr:date" v="2021-06-08" />
		<tag k="ssr:gruppe" v="stilleståendeVann" />
		<tag k="ssr:hovedgruppe" v="ferskvann" />
		<tag k="ssr:stedsnr" v="75413" />
		<tag k="ssr:type" v="tjern" />
	</node>
	<node lat="64.29409999606905" lon="12.592400004647478" id="-49629">
		<tag k="name" v="Skjermoen" />
		<tag k="name:no" v="Skjermoen" />
		<tag k="place" v="farm" />
		<tag k="ssr:date" v="2018-01-09" />
		<tag k="ssr:gruppe" v="gardsbebyggelse" />
		<tag k="ssr:hovedgruppe" v="bebyggelse" />
		<tag k="ssr:stedsnr" v="75418" />
		<tag k="ssr:type" v="bruk" />
	</node>
	<node lat="64.39460000293444" lon="12.676258327792594" id="-49630">
		<tag k="fixme" v="consider natural=peak for the most distinct mountains in the district" />
		<tag k="name" v="Rangstjønnfjella" />
		<tag k="name:no" v="Rangstjønnfjella" />
		<tag k="natural" v="hill" />
		<tag k="place" v="locality" />
		<tag k="ssr:date" v="2021-06-08" />
		<tag k="ssr:gruppe" v="høyder" />
		<tag k="ssr:hovedgruppe" v="terreng" />
		<tag k="ssr:stedsnr" v="75461" />
		<tag k="ssr:type" v="fjell" />
	</node>
	<node lat="64.1764999988283" lon="12.435624990904984" id="-49631">
		<tag k="name" v="Åsatjønna" />
		<tag k="name:no" v="Åsatjønna" />
		<tag k="natural" v="water" />
		<tag k="ssr:date" v="2021-06-08" />
		<tag k="ssr:gruppe" v="stilleståendeVann" />
		<tag k="ssr:hovedgruppe" v="ferskvann" />
		<tag k="ssr:stedsnr" v="75552" />
		<tag k="ssr:type" v="tjern" />
	</node>
	<node lat="64.18663055780294" lon="12.58522499784226" id="-49632">
		<tag k="name" v="Reinsjømyran" />
		<tag k="name:no" v="Reinsjømyran" />
		<tag k="natural" v="wetland" />
		<tag k="ssr:date" v="2018-01-09" />
		<tag k="ssr:gruppe" v="våtmark" />
		<tag k="ssr:hovedgruppe" v="markslag" />
		<tag k="ssr:stedsnr" v="75562" />
		<tag k="ssr:type" v="myr" />
	</node>
	<node lat="64.17513611316419" lon="12.304444439418038" id="-49633">
		<tag k="alt_name:no" v="Merkesbekken, vestre;Merkesbekken" />
		<tag k="name" v="Vestre Merkesbekken" />
		<tag k="name:no" v="Vestre Merkesbekken" />
		<tag k="ssr:date" v="2018-01-09" />
		<tag k="ssr:gruppe" v="rennendeVann" />
		<tag k="ssr:hovedgruppe" v="ferskvann" />
		<tag k="ssr:stedsnr" v="75564" />
		<tag k="ssr:type" v="bekk" />
		<tag k="waterway" v="stream" />
	</node>
	<node lat="64.0718416679751" lon="12.593527771987834" id="-49634">
		<tag k="name" v="Ekornlundan" />
		<tag k="name:no" v="Ekornlundan" />
		<tag k="place" v="locality" />
		<tag k="ssr:date" v="2018-01-09" />
		<tag k="ssr:gruppe" v="vegetasjon" />
		<tag k="ssr:hovedgruppe" v="markslag" />
		<tag k="ssr:stedsnr" v="75661" />
		<tag k="ssr:type" v="skog" />
	</node>
	<node lat="64.05489999588895" lon="12.87525554686636" id="-49635">
		<tag k="name" v="Gamvollmyran" />
		<tag k="name:no" v="Gamvollmyran" />
		<tag k="natural" v="wetland" />
		<tag k="ssr:date" v="2021-06-08" />
		<tag k="ssr:gruppe" v="våtmark" />
		<tag k="ssr:hovedgruppe" v="markslag" />
		<tag k="ssr:stedsnr" v="75810" />
		<tag k="ssr:type" v="myr" />
	</node>
	<node lat="64.05984166635432" lon="12.896416668102873" id="-49636">
		<tag k="name" v="Gardholmen" />
		<tag k="name:no" v="Gardholmen" />
		<tag k="place" v="islet" />
		<tag k="ssr:date" v="2018-01-09" />
		<tag k="ssr:gruppe" v="ferskvannskontur" />
		<tag k="ssr:hovedgruppe" v="ferskvann" />
		<tag k="ssr:stedsnr" v="75814" />
		<tag k="ssr:type" v="holme" />
	</node>
	<node lat="64.07019722133846" lon="12.959852777613536" id="-49637">
		<tag k="name" v="Linbekken" />
		<tag k="name:no" v="Linbekken" />
		<tag k="ssr:date" v="2018-01-09" />
		<tag k="ssr:gruppe" v="rennendeVann" />
		<tag k="ssr:hovedgruppe" v="ferskvann" />
		<tag k="ssr:stedsnr" v="75818" />
		<tag k="ssr:type" v="bekk" />
		<tag k="waterway" v="stream" />
	</node>
	<node lat="64.24979444809614" lon="12.440788891037382" id="-49638">
		<tag k="name" v="Navlus" />
		<tag k="name:no" v="Navlus" />
		<tag k="place" v="farm" />
		<tag k="ssr:date" v="2018-01-09" />
		<tag k="ssr:gruppe" v="gardsbebyggelse" />
		<tag k="ssr:hovedgruppe" v="bebyggelse" />
		<tag k="ssr:stedsnr" v="75903" />
		<tag k="ssr:type" v="bruk" />
	</node>
	<node lat="64.20458333734013" lon="12.835097227990644" id="-49639">
		<tag k="name" v="Storkjerrlia" />
		<tag k="name:no" v="Storkjerrlia" />
		<tag k="natural" v="slope" />
		<tag k="place" v="locality" />
		<tag k="ssr:date" v="2018-01-09" />
		<tag k="ssr:gruppe" v="skråninger" />
		<tag k="ssr:hovedgruppe" v="terreng" />
		<tag k="ssr:stedsnr" v="75950" />
		<tag k="ssr:type" v="li" />
	</node>
	<node lat="64.15635833777472" lon="12.848094435927264" id="-49640">
		<tag k="name" v="Skardtjønna" />
		<tag k="name:no" v="Skardtjønna" />
		<tag k="natural" v="water" />
		<tag k="ssr:date" v="2021-06-08" />
		<tag k="ssr:gruppe" v="stilleståendeVann" />
		<tag k="ssr:hovedgruppe" v="ferskvann" />
		<tag k="ssr:stedsnr" v="75966" />
		<tag k="ssr:type" v="tjern" />
	</node>
	<node lat="64.15315277988546" lon="12.914125001456613" id="-49641">
		<tag k="name" v="Plukkutjønna" />
		<tag k="name:no" v="Plukkutjønna" />
		<tag k="natural" v="water" />
		<tag k="ssr:date" v="2021-06-08" />
		<tag k="ssr:gruppe" v="stilleståendeVann" />
		<tag k="ssr:hovedgruppe" v="ferskvann" />
		<tag k="ssr:stedsnr" v="75968" />
		<tag k="ssr:type" v="tjern" />
	</node>
	<node lat="64.21868889021204" lon="12.400944438328773" id="-49642">
		<tag k="name" v="Plassen" />
		<tag k="name:no" v="Plassen" />
		<tag k="place" v="locality" />
		<tag k="ssr:date" v="2018-01-09" />
		<tag k="ssr:gruppe" v="bolighus" />
		<tag k="ssr:hovedgruppe" v="bebyggelse" />
		<tag k="ssr:stedsnr" v="90415" />
		<tag k="ssr:type" v="gammelBosettingsplass" />
	</node>
	<node lat="64.26914444635084" lon="12.366880545503067" id="-49643">
		<tag k="name" v="Kvernbekken" />
		<tag k="name:no" v="Kvernbekken" />
		<tag k="ssr:date" v="2018-01-09" />
		<tag k="ssr:gruppe" v="rennendeVann" />
		<tag k="ssr:hovedgruppe" v="ferskvann" />
		<tag k="ssr:stedsnr" v="90442" />
		<tag k="ssr:type" v="bekk" />
		<tag k="waterway" v="stream" />
	</node>
	<node lat="64.26884722528389" lon="12.359255558849329" id="-49644">
		<tag k="name" v="Bursvedda" />
		<tag k="name:no" v="Bursvedda" />
		<tag k="place" v="locality" />
		<tag k="ssr:date" v="2018-01-09" />
		<tag k="ssr:gruppe" v="terrengdetaljer" />
		<tag k="ssr:hovedgruppe" v="terreng" />
		<tag k="ssr:stedsnr" v="90443" />
		<tag k="ssr:type" v="annenTerrengdetalj" />
	</node>
	<node lat="64.2654249971412" lon="12.343536114206508" id="-49645">
		<tag k="name" v="Flåtta" />
		<tag k="name:no" v="Flåtta" />
		<tag k="place" v="locality" />
		<tag k="ssr:date" v="2018-01-09" />
		<tag k="ssr:gruppe" v="dyrkamark" />
		<tag k="ssr:hovedgruppe" v="markslag" />
		<tag k="ssr:stedsnr" v="90446" />
		<tag k="ssr:type" v="jorde" />
	</node>
	<node lat="64.24217778123803" lon="12.310502769054224" id="-49646">
		<tag k="name" v="Midtimoen" />
		<tag k="name:no" v="Midtimoen" />
		<tag k="place" v="locality" />
		<tag k="ssr:date" v="2018-01-09" />
		<tag k="ssr:gruppe" v="flater" />
		<tag k="ssr:hovedgruppe" v="terreng" />
		<tag k="ssr:stedsnr" v="90372" />
		<tag k="ssr:type" v="mo" />
	</node>
	<node lat="64.22754166426915" lon="12.384897214701775" id="-49647">
		<tag k="name" v="Raudmyra" />
		<tag k="name:no" v="Raudmyra" />
		<tag k="natural" v="wetland" />
		<tag k="ssr:date" v="2018-01-09" />
		<tag k="ssr:gruppe" v="våtmark" />
		<tag k="ssr:hovedgruppe" v="markslag" />
		<tag k="ssr:stedsnr" v="90376" />
		<tag k="ssr:type" v="myr" />
	</node>
	<node lat="64.22922499885878" lon="12.391955564093328" id="-49648">
		<tag k="name" v="Lauvdalen" />
		<tag k="name:no" v="Lauvdalen" />
		<tag k="natural" v="valley" />
		<tag k="place" v="locality" />
		<tag k="ssr:date" v="2018-01-09" />
		<tag k="ssr:gruppe" v="senkninger" />
		<tag k="ssr:hovedgruppe" v="terreng" />
		<tag k="ssr:stedsnr" v="90379" />
		<tag k="ssr:type" v="dal" />
	</node>
	<node lat="64.2122944429794" lon="12.32785833917222" id="-49649">
		<tag k="name" v="Nord-Svartåsmyra" />
		<tag k="name:no" v="Nord-Svartåsmyra" />
		<tag k="natural" v="wetland" />
		<tag k="ssr:date" v="2018-01-09" />
		<tag k="ssr:gruppe" v="våtmark" />
		<tag k="ssr:hovedgruppe" v="markslag" />
		<tag k="ssr:stedsnr" v="90398" />
		<tag k="ssr:type" v="myr" />
	</node>
	<node lat="64.220244447383" lon="12.340022218113207" id="-49650">
		<tag k="name" v="Styggdalen" />
		<tag k="name:no" v="Styggdalen" />
		<tag k="natural" v="valley" />
		<tag k="place" v="locality" />
		<tag k="ssr:date" v="2018-01-09" />
		<tag k="ssr:gruppe" v="senkninger" />
		<tag k="ssr:hovedgruppe" v="terreng" />
		<tag k="ssr:stedsnr" v="90401" />
		<tag k="ssr:type" v="dal" />
	</node>
	<node lat="64.26802777808733" lon="12.534519443174586" id="-49651">
		<tag k="name" v="Ålmomyra" />
		<tag k="name:no" v="Ålmomyra" />
		<tag k="natural" v="wetland" />
		<tag k="ssr:date" v="2018-01-09" />
		<tag k="ssr:gruppe" v="våtmark" />
		<tag k="ssr:hovedgruppe" v="markslag" />
		<tag k="ssr:stedsnr" v="90516" />
		<tag k="ssr:type" v="myr" />
	</node>
	<node lat="64.24673888962693" lon="12.52106944837046" id="-49652">
		<tag k="fixme" v="consider natural=peak for the most distinct mountains in the district" />
		<tag k="name" v="Stamåsen" />
		<tag k="name:no" v="Stamåsen" />
		<tag k="natural" v="hill" />
		<tag k="place" v="locality" />
		<tag k="ssr:date" v="2018-01-09" />
		<tag k="ssr:gruppe" v="høyder" />
		<tag k="ssr:hovedgruppe" v="terreng" />
		<tag k="ssr:stedsnr" v="90605" />
		<tag k="ssr:type" v="ås" />
	</node>
	<node lat="64.33778610720256" lon="12.326333326520183" id="-49653">
		<tag k="name" v="Koltjønnlia" />
		<tag k="name:no" v="Koltjønnlia" />
		<tag k="natural" v="slope" />
		<tag k="place" v="locality" />
		<tag k="ssr:date" v="2018-01-09" />
		<tag k="ssr:gruppe" v="skråninger" />
		<tag k="ssr:hovedgruppe" v="terreng" />
		<tag k="ssr:stedsnr" v="109023" />
		<tag k="ssr:type" v="li" />
	</node>
	<node lat="64.33241388735436" lon="12.335280565475264" id="-49654">
		<tag k="name" v="Styggdalen" />
		<tag k="name:no" v="Styggdalen" />
		<tag k="natural" v="valley" />
		<tag k="place" v="locality" />
		<tag k="ssr:date" v="2018-01-09" />
		<tag k="ssr:gruppe" v="senkninger" />
		<tag k="ssr:hovedgruppe" v="terreng" />
		<tag k="ssr:stedsnr" v="109025" />
		<tag k="ssr:type" v="dal" />
	</node>
	<node lat="64.27682499618496" lon="12.86621943919872" id="-49655">
		<tag k="name" v="Litle Svarthollet" />
		<tag k="name:no" v="Litle Svarthollet" />
		<tag k="natural" v="bay" />
		<tag k="ssr:date" v="2018-01-09" />
		<tag k="ssr:gruppe" v="ferskvannskontur" />
		<tag k="ssr:hovedgruppe" v="ferskvann" />
		<tag k="ssr:stedsnr" v="109071" />
		<tag k="ssr:type" v="vik" />
	</node>
	<node lat="64.3252722248969" lon="12.537147223520398" id="-49656">
		<tag k="name" v="Klokkarmoen" />
		<tag k="name:no" v="Klokkarmoen" />
		<tag k="place" v="locality" />
		<tag k="ssr:date" v="2018-01-09" />
		<tag k="ssr:gruppe" v="flater" />
		<tag k="ssr:hovedgruppe" v="terreng" />
		<tag k="ssr:stedsnr" v="109073" />
		<tag k="ssr:type" v="mo" />
	</node>
	<node lat="64.32519722651034" lon="12.531213881240532" id="-49657">
		<tag k="name" v="Våtmyrin" />
		<tag k="name:no" v="Våtmyrin" />
		<tag k="natural" v="wetland" />
		<tag k="ssr:date" v="2018-01-09" />
		<tag k="ssr:gruppe" v="våtmark" />
		<tag k="ssr:hovedgruppe" v="markslag" />
		<tag k="ssr:stedsnr" v="109082" />
		<tag k="ssr:type" v="myr" />
	</node>
	<node lat="64.31368332902521" lon="12.468294449732914" id="-49658">
		<tag k="name" v="Smågjøtin" />
		<tag k="name:no" v="Smågjøtin" />
		<tag k="natural" v="wetland" />
		<tag k="ssr:date" v="2018-01-09" />
		<tag k="ssr:gruppe" v="våtmark" />
		<tag k="ssr:hovedgruppe" v="markslag" />
		<tag k="ssr:stedsnr" v="109085" />
		<tag k="ssr:type" v="myr" />
	</node>
	<node lat="64.31432500414805" lon="12.433611119628944" id="-49659">
		<tag k="name" v="Fiskbekken" />
		<tag k="name:no" v="Fiskbekken" />
		<tag k="ssr:date" v="2018-01-09" />
		<tag k="ssr:gruppe" v="rennendeVann" />
		<tag k="ssr:hovedgruppe" v="ferskvann" />
		<tag k="ssr:stedsnr" v="109089" />
		<tag k="ssr:type" v="bekk" />
		<tag k="waterway" v="stream" />
	</node>
	<node lat="64.24682222280468" lon="12.109358325763953" id="-49660">
		<tag k="name" v="Finnbudammen" />
		<tag k="name:no" v="Finnbudammen" />
		<tag k="place" v="locality" />
		<tag k="ssr:date" v="2018-01-09" />
		<tag k="ssr:gruppe" v="rennendeVann" />
		<tag k="ssr:hovedgruppe" v="ferskvann" />
		<tag k="ssr:stedsnr" v="109274" />
		<tag k="ssr:type" v="høl" />
	</node>
	<node lat="64.25869166331377" lon="12.096544440335657" id="-49661">
		<tag k="name" v="Holemsknatten" />
		<tag k="name:no" v="Holemsknatten" />
		<tag k="natural" v="hill" />
		<tag k="place" v="locality" />
		<tag k="ssr:date" v="2018-01-09" />
		<tag k="ssr:gruppe" v="høyder" />
		<tag k="ssr:hovedgruppe" v="terreng" />
		<tag k="ssr:stedsnr" v="109279" />
		<tag k="ssr:type" v="hei" />
	</node>
	<node lat="64.2994472215334" lon="12.535947220704939" id="-49662">
		<tag k="name" v="Lomtjønna" />
		<tag k="name:no" v="Lomtjønna" />
		<tag k="natural" v="water" />
		<tag k="ssr:date" v="2018-01-09" />
		<tag k="ssr:gruppe" v="stilleståendeVann" />
		<tag k="ssr:hovedgruppe" v="ferskvann" />
		<tag k="ssr:stedsnr" v="109120" />
		<tag k="ssr:type" v="tjern" />
	</node>
	<node lat="64.29974166515981" lon="12.539555558289267" id="-49663">
		<tag k="name" v="Lomtjønnmyra" />
		<tag k="name:no" v="Lomtjønnmyra" />
		<tag k="natural" v="wetland" />
		<tag k="ssr:date" v="2018-01-09" />
		<tag k="ssr:gruppe" v="våtmark" />
		<tag k="ssr:hovedgruppe" v="markslag" />
		<tag k="ssr:stedsnr" v="109121" />
		<tag k="ssr:type" v="myr" />
	</node>
	<node lat="64.30805277956603" lon="12.986666663393573" id="-49664">
		<tag k="name" v="Grubbslåtthaugen" />
		<tag k="name:no" v="Grubbslåtthaugen" />
		<tag k="natural" v="hill" />
		<tag k="place" v="locality" />
		<tag k="ssr:date" v="2018-01-09" />
		<tag k="ssr:gruppe" v="høyder" />
		<tag k="ssr:hovedgruppe" v="terreng" />
		<tag k="ssr:stedsnr" v="109182" />
		<tag k="ssr:type" v="haug" />
	</node>
	<node lat="64.24521389154769" lon="12.053933336439206" id="-49665">
		<tag k="name" v="Seterbekken" />
		<tag k="name:no" v="Seterbekken" />
		<tag k="ssr:date" v="2018-01-09" />
		<tag k="ssr:gruppe" v="rennendeVann" />
		<tag k="ssr:hovedgruppe" v="ferskvann" />
		<tag k="ssr:stedsnr" v="109185" />
		<tag k="ssr:type" v="bekk" />
		<tag k="waterway" v="stream" />
	</node>
	<node lat="64.23468333742895" lon="12.12346944506736" id="-49666">
		<tag k="name" v="Torvmyra" />
		<tag k="name:no" v="Torvmyra" />
		<tag k="natural" v="wetland" />
		<tag k="ssr:date" v="2018-01-09" />
		<tag k="ssr:gruppe" v="våtmark" />
		<tag k="ssr:hovedgruppe" v="markslag" />
		<tag k="ssr:stedsnr" v="109372" />
		<tag k="ssr:type" v="myr" />
	</node>
	<node lat="64.22639722205301" lon="12.114341663356912" id="-49667">
		<tag k="name" v="Rønningslåtta" />
		<tag k="name:no" v="Rønningslåtta" />
		<tag k="place" v="locality" />
		<tag k="ssr:date" v="2018-01-09" />
		<tag k="ssr:gruppe" v="dyrkamark" />
		<tag k="ssr:hovedgruppe" v="markslag" />
		<tag k="ssr:stedsnr" v="109373" />
		<tag k="ssr:type" v="utmark" />
	</node>
	<node lat="64.2910222253833" lon="12.270683334205566" id="-49668">
		<tag k="landuse" v="meadow" />
		<tag k="name" v="Trekvislslettet" />
		<tag k="name:no" v="Trekvislslettet" />
		<tag k="ssr:date" v="2018-01-09" />
		<tag k="ssr:gruppe" v="dyrkamark" />
		<tag k="ssr:hovedgruppe" v="markslag" />
		<tag k="ssr:stedsnr" v="109514" />
		<tag k="ssr:type" v="eng" />
	</node>
	<node lat="64.06233333686346" lon="12.173030563996715" id="-49669">
		<tag k="name" v="Holsingsela" />
		<tag k="name:no" v="Holsingsela" />
		<tag k="natural" v="water" />
		<tag k="ssr:date" v="2018-01-09" />
		<tag k="ssr:gruppe" v="rennendeVann" />
		<tag k="ssr:hovedgruppe" v="ferskvann" />
		<tag k="ssr:stedsnr" v="109420" />
		<tag k="ssr:type" v="lon" />
		<tag k="water" v="lake" />
	</node>
	<node lat="64.2221500017851" lon="12.020808326034167" id="-49670">
		<tag k="name" v="Stormyra" />
		<tag k="name:no" v="Stormyra" />
		<tag k="natural" v="wetland" />
		<tag k="ssr:date" v="2018-01-09" />
		<tag k="ssr:gruppe" v="våtmark" />
		<tag k="ssr:hovedgruppe" v="markslag" />
		<tag k="ssr:stedsnr" v="109423" />
		<tag k="ssr:type" v="myr" />
	</node>
	<node lat="64.34674166229263" lon="12.413066667452249" id="-49671">
		<tag k="name" v="Grønranda" />
		<tag k="name:no" v="Grønranda" />
		<tag k="natural" v="wetland" />
		<tag k="ssr:date" v="2018-01-09" />
		<tag k="ssr:gruppe" v="våtmark" />
		<tag k="ssr:hovedgruppe" v="markslag" />
		<tag k="ssr:stedsnr" v="109772" />
		<tag k="ssr:type" v="myr" />
	</node>
	<node lat="64.34296944454616" lon="12.35881944032446" id="-49672">
		<tag k="name" v="Skreddarmyra" />
		<tag k="name:no" v="Skreddarmyra" />
		<tag k="natural" v="wetland" />
		<tag k="ssr:date" v="2018-01-09" />
		<tag k="ssr:gruppe" v="våtmark" />
		<tag k="ssr:hovedgruppe" v="markslag" />
		<tag k="ssr:stedsnr" v="109779" />
		<tag k="ssr:type" v="myr" />
	</node>
	<node lat="64.22162222019772" lon="12.536494454247885" id="-49673">
		<tag k="name" v="Djupbekkåsen" />
		<tag k="name:no" v="Djupbekkåsen" />
		<tag k="natural" v="hill" />
		<tag k="place" v="locality" />
		<tag k="ssr:date" v="2018-01-09" />
		<tag k="ssr:gruppe" v="høyder" />
		<tag k="ssr:hovedgruppe" v="terreng" />
		<tag k="ssr:stedsnr" v="110014" />
		<tag k="ssr:type" v="høyde" />
	</node>
	<node lat="64.18330555324607" lon="12.937527768729232" id="-49674">
		<tag k="fixme" v="consider natural=peak for the most distinct mountains in the district" />
		<tag k="name" v="Vivassfjellet" />
		<tag k="name:no" v="Vivassfjellet" />
		<tag k="natural" v="hill" />
		<tag k="place" v="locality" />
		<tag k="ssr:date" v="2018-01-09" />
		<tag k="ssr:gruppe" v="høyder" />
		<tag k="ssr:hovedgruppe" v="terreng" />
		<tag k="ssr:stedsnr" v="110020" />
		<tag k="ssr:type" v="ås" />
	</node>
	<node lat="64.16215277637193" lon="12.713166675517158" id="-49675">
		<tag k="name" v="Fjelltjønnin" />
		<tag k="name:no" v="Fjelltjønnin" />
		<tag k="natural" v="water" />
		<tag k="ssr:date" v="2018-01-09" />
		<tag k="ssr:gruppe" v="stilleståendeVann" />
		<tag k="ssr:hovedgruppe" v="ferskvann" />
		<tag k="ssr:stedsnr" v="110025" />
		<tag k="ssr:type" v="tjern" />
	</node>
	<node lat="64.35284722605539" lon="12.459066671301043" id="-49676">
		<tag k="name" v="Fjellsletttjønna" />
		<tag k="name:no" v="Fjellsletttjønna" />
		<tag k="natural" v="water" />
		<tag k="ssr:date" v="2018-01-09" />
		<tag k="ssr:gruppe" v="stilleståendeVann" />
		<tag k="ssr:hovedgruppe" v="ferskvann" />
		<tag k="ssr:stedsnr" v="109969" />
		<tag k="ssr:type" v="tjern" />
	</node>
	<node lat="64.14540833412775" lon="12.418866670827798" id="-49677">
		<tag k="name" v="Aundalen" />
		<tag k="name:no" v="Aundalen" />
		<tag k="natural" v="valley" />
		<tag k="place" v="locality" />
		<tag k="ssr:date" v="2018-01-09" />
		<tag k="ssr:gruppe" v="senkninger" />
		<tag k="ssr:hovedgruppe" v="terreng" />
		<tag k="ssr:stedsnr" v="110205" />
		<tag k="ssr:type" v="dal" />
	</node>
	<node lat="64.20107500406093" lon="12.548941670025783" id="-49678">
		<tag k="landuse" v="meadow" />
		<tag k="name" v="Gåstjønnslettet" />
		<tag k="name:no" v="Gåstjønnslettet" />
		<tag k="ssr:date" v="2018-01-09" />
		<tag k="ssr:gruppe" v="dyrkamark" />
		<tag k="ssr:hovedgruppe" v="markslag" />
		<tag k="ssr:stedsnr" v="110211" />
		<tag k="ssr:type" v="eng" />
	</node>
	<node lat="64.16581666899125" lon="12.441961109611032" id="-49679">
		<tag k="name" v="Ølhusberget" />
		<tag k="name:no" v="Ølhusberget" />
		<tag k="natural" v="hill" />
		<tag k="place" v="locality" />
		<tag k="ssr:date" v="2018-01-09" />
		<tag k="ssr:gruppe" v="høyder" />
		<tag k="ssr:hovedgruppe" v="terreng" />
		<tag k="ssr:stedsnr" v="110220" />
		<tag k="ssr:type" v="berg" />
	</node>
	<node lat="64.32251944519795" lon="12.5812555614407" id="-49680">
		<tag k="name" v="Grubbslåtthaugen" />
		<tag k="name:no" v="Grubbslåtthaugen" />
		<tag k="natural" v="hill" />
		<tag k="place" v="locality" />
		<tag k="ssr:date" v="2018-01-09" />
		<tag k="ssr:gruppe" v="høyder" />
		<tag k="ssr:hovedgruppe" v="terreng" />
		<tag k="ssr:stedsnr" v="110283" />
		<tag k="ssr:type" v="haug" />
	</node>
	<node lat="64.32195278178993" lon="12.558752776696235" id="-49681">
		<tag k="landuse" v="meadow" />
		<tag k="name" v="Bonsenget" />
		<tag k="name:no" v="Bonsenget" />
		<tag k="ssr:date" v="2018-01-09" />
		<tag k="ssr:gruppe" v="dyrkamark" />
		<tag k="ssr:hovedgruppe" v="markslag" />
		<tag k="ssr:stedsnr" v="110285" />
		<tag k="ssr:type" v="eng" />
	</node>
	<node lat="64.15100000164485" lon="12.44624166971686" id="-49682">
		<tag k="name" v="Brennmolanda" />
		<tag k="name:no" v="Brennmolanda" />
		<tag k="natural" v="cape" />
		<tag k="ssr:date" v="2018-01-09" />
		<tag k="ssr:gruppe" v="ferskvannskontur" />
		<tag k="ssr:hovedgruppe" v="ferskvann" />
		<tag k="ssr:stedsnr" v="110369" />
		<tag k="ssr:type" v="nes" />
	</node>
	<node lat="64.15011666540622" lon="12.440408331227529" id="-49683">
		<tag k="name" v="Hamptjønnmyra" />
		<tag k="name:no" v="Hamptjønnmyra" />
		<tag k="natural" v="wetland" />
		<tag k="ssr:date" v="2018-01-12" />
		<tag k="ssr:gruppe" v="våtmark" />
		<tag k="ssr:hovedgruppe" v="markslag" />
		<tag k="ssr:stedsnr" v="110374" />
		<tag k="ssr:type" v="myr" />
	</node>
	<node lat="64.32177499841139" lon="12.655311118971895" id="-49684">
		<tag k="name" v="Tjønnmyra" />
		<tag k="name:no" v="Tjønnmyra" />
		<tag k="natural" v="wetland" />
		<tag k="ssr:date" v="2018-01-09" />
		<tag k="ssr:gruppe" v="våtmark" />
		<tag k="ssr:hovedgruppe" v="markslag" />
		<tag k="ssr:stedsnr" v="110375" />
		<tag k="ssr:type" v="myr" />
	</node>
	<node lat="64.24859721819908" lon="12.653491664989618" id="-49685">
		<tag k="name" v="Hallarslettet" />
		<tag k="name:no" v="Hallarslettet" />
		<tag k="place" v="locality" />
		<tag k="ssr:date" v="2018-01-09" />
		<tag k="ssr:gruppe" v="dyrkamark" />
		<tag k="ssr:hovedgruppe" v="markslag" />
		<tag k="ssr:stedsnr" v="110589" />
		<tag k="ssr:type" v="utmark" />
	</node>
	<node lat="64.35970278085162" lon="12.814861117637594" id="-49686">
		<tag k="name" v="Grisbakken" />
		<tag k="name:no" v="Grisbakken" />
		<tag k="natural" v="hill" />
		<tag k="place" v="locality" />
		<tag k="ssr:date" v="2018-01-09" />
		<tag k="ssr:gruppe" v="høyder" />
		<tag k="ssr:hovedgruppe" v="terreng" />
		<tag k="ssr:stedsnr" v="110619" />
		<tag k="ssr:type" v="høyde" />
	</node>
	<node lat="64.29419722457753" lon="12.620786118774612" id="-49687">
		<tag k="historic" v="shieling" />
		<tag k="name" v="Aunsand" />
		<tag k="name:no" v="Aunsand" />
		<tag k="place" v="isolated_dwelling" />
		<tag k="ssr:date" v="2018-01-09" />
		<tag k="ssr:gruppe" v="gardsbebyggelse" />
		<tag k="ssr:hovedgruppe" v="bebyggelse" />
		<tag k="ssr:stedsnr" v="110625" />
		<tag k="ssr:type" v="seterStøl" />
	</node>
	<node lat="64.05116944286176" lon="12.688369439214997" id="-49688">
		<tag k="name" v="Seterklumpen" />
		<tag k="name:no" v="Seterklumpen" />
		<tag k="natural" v="hill" />
		<tag k="place" v="locality" />
		<tag k="ssr:date" v="2018-01-09" />
		<tag k="ssr:gruppe" v="høyder" />
		<tag k="ssr:hovedgruppe" v="terreng" />
		<tag k="ssr:stedsnr" v="110772" />
		<tag k="ssr:type" v="haug" />
	</node>
	<node lat="64.03809444634246" lon="12.629147219762615" id="-49689">
		<tag k="name" v="Steinkjerholmen" />
		<tag k="name:no" v="Steinkjerholmen" />
		<tag k="place" v="islet" />
		<tag k="ssr:date" v="2018-01-09" />
		<tag k="ssr:gruppe" v="ferskvannskontur" />
		<tag k="ssr:hovedgruppe" v="ferskvann" />
		<tag k="ssr:stedsnr" v="110775" />
		<tag k="ssr:type" v="holme" />
	</node>
	<node lat="64.01478333723817" lon="12.664627782561446" id="-49690">
		<tag k="name" v="Storholmen" />
		<tag k="name:no" v="Storholmen" />
		<tag k="place" v="islet" />
		<tag k="ssr:date" v="2018-01-09" />
		<tag k="ssr:gruppe" v="ferskvannskontur" />
		<tag k="ssr:hovedgruppe" v="ferskvann" />
		<tag k="ssr:stedsnr" v="110778" />
		<tag k="ssr:type" v="holme" />
	</node>
	<node lat="64.1983694456801" lon="12.567761117525158" id="-49691">
		<tag k="name" v="Svenskdalan" />
		<tag k="name:no" v="Svenskdalan" />
		<tag k="natural" v="valley" />
		<tag k="place" v="locality" />
		<tag k="ssr:date" v="2018-01-09" />
		<tag k="ssr:gruppe" v="senkninger" />
		<tag k="ssr:hovedgruppe" v="terreng" />
		<tag k="ssr:stedsnr" v="110969" />
		<tag k="ssr:type" v="dal" />
	</node>
	<node lat="64.25576666675633" lon="12.86274443472035" id="-49692">
		<tag k="name" v="Kamtjønnin" />
		<tag k="name:no" v="Kamtjønnin" />
		<tag k="natural" v="water" />
		<tag k="ssr:date" v="2021-06-08" />
		<tag k="ssr:gruppe" v="stilleståendeVann" />
		<tag k="ssr:hovedgruppe" v="ferskvann" />
		<tag k="ssr:stedsnr" v="134259" />
		<tag k="ssr:type" v="tjern" />
	</node>
	<node lat="64.27414201802796" lon="12.63967320298229" id="-49693">
		<tag k="fixme" v="multiple name tags, choose one and add the other to alt_name" />
		<tag k="historic" v="shieling" />
		<tag k="name" v="Framgardsseteren;Ålmoseteren" />
		<tag k="name:no" v="Framgardsseteren;Ålmoseteren" />
		<tag k="old_name:no" v="Ålmosætra" />
		<tag k="place" v="isolated_dwelling" />
		<tag k="ssr:date" v="2021-04-26" />
		<tag k="ssr:gruppe" v="gardsbebyggelse" />
		<tag k="ssr:hovedgruppe" v="bebyggelse" />
		<tag k="ssr:stedsnr" v="134412" />
		<tag k="ssr:type" v="seterStøl" />
	</node>
	<node lat="64.15116944071708" lon="12.389683326069488" id="-49694">
		<tag k="name" v="Snøåshøgdin" />
		<tag k="name:no" v="Snøåshøgdin" />
		<tag k="natural" v="hill" />
		<tag k="place" v="locality" />
		<tag k="ssr:date" v="2018-01-09" />
		<tag k="ssr:gruppe" v="høyder" />
		<tag k="ssr:hovedgruppe" v="terreng" />
		<tag k="ssr:stedsnr" v="134614" />
		<tag k="ssr:type" v="haug" />
	</node>
	<node lat="64.1490333322238" lon="12.286255553672088" id="-49695">
		<tag k="name" v="Viemtjønnin" />
		<tag k="name:no" v="Viemtjønnin" />
		<tag k="natural" v="water" />
		<tag k="ssr:date" v="2021-06-08" />
		<tag k="ssr:gruppe" v="stilleståendeVann" />
		<tag k="ssr:hovedgruppe" v="ferskvann" />
		<tag k="ssr:stedsnr" v="134616" />
		<tag k="ssr:type" v="tjern" />
	</node>
</osm>
