<?xml version="1.0" encoding="UTF-8"?>
<osm version="0.6" generator="osmapis">
	<node lat="64.25346021754746" lon="12.376383983958416" id="-88184">
		<tag k="name" v="Leirådalsvegen" />
		<tag k="ssr:date" v="2019-05-30" />
		<tag k="ssr:gruppe" v="veg" />
		<tag k="ssr:hovedgruppe" v="infrastruktur" />
		<tag k="ssr:stedsnr" v="972041" />
		<tag k="ssr:type" v="adressenavn" />
	</node>
	<node lat="64.24896579435251" lon="12.382068548122493" id="-88185">
		<tag k="name" v="Bakkegrenda" />
		<tag k="ssr:date" v="2019-05-30" />
		<tag k="ssr:gruppe" v="veg" />
		<tag k="ssr:hovedgruppe" v="infrastruktur" />
		<tag k="ssr:stedsnr" v="972043" />
		<tag k="ssr:type" v="adressenavn" />
	</node>
	<node lat="64.24496044256486" lon="12.378941710641737" id="-88186">
		<tag k="name" v="Vestre Rishaugen" />
		<tag k="ssr:date" v="2019-05-30" />
		<tag k="ssr:gruppe" v="veg" />
		<tag k="ssr:hovedgruppe" v="infrastruktur" />
		<tag k="ssr:stedsnr" v="972044" />
		<tag k="ssr:type" v="adressenavn" />
	</node>
	<node lat="64.24561053141583" lon="12.392490785122144" id="-88187">
		<tag k="name" v="Østre Rishaugen" />
		<tag k="ssr:date" v="2019-05-30" />
		<tag k="ssr:gruppe" v="veg" />
		<tag k="ssr:hovedgruppe" v="infrastruktur" />
		<tag k="ssr:stedsnr" v="972064" />
		<tag k="ssr:type" v="adressenavn" />
	</node>
	<node lat="64.25175838934952" lon="12.445559620436834" id="-88188">
		<tag k="name" v="Litlbergvegen" />
		<tag k="ssr:date" v="2019-05-30" />
		<tag k="ssr:gruppe" v="veg" />
		<tag k="ssr:hovedgruppe" v="infrastruktur" />
		<tag k="ssr:stedsnr" v="972077" />
		<tag k="ssr:type" v="adressenavn" />
	</node>
	<node lat="64.25817517578437" lon="12.460541751980038" id="-88189">
		<tag k="name" v="Bomovegen" />
		<tag k="ssr:date" v="2019-05-30" />
		<tag k="ssr:gruppe" v="veg" />
		<tag k="ssr:hovedgruppe" v="infrastruktur" />
		<tag k="ssr:stedsnr" v="972081" />
		<tag k="ssr:type" v="adressenavn" />
	</node>
	<node lat="64.27369119686418" lon="12.512548723383292" id="-88190">
		<tag k="name" v="Barstadvegen" />
		<tag k="ssr:date" v="2019-05-30" />
		<tag k="ssr:gruppe" v="veg" />
		<tag k="ssr:hovedgruppe" v="infrastruktur" />
		<tag k="ssr:stedsnr" v="972083" />
		<tag k="ssr:type" v="adressenavn" />
	</node>
	<node lat="64.25414832823931" lon="12.504007489950018" id="-88191">
		<tag k="name" v="Hauganvegen" />
		<tag k="ssr:date" v="2019-05-30" />
		<tag k="ssr:gruppe" v="veg" />
		<tag k="ssr:hovedgruppe" v="infrastruktur" />
		<tag k="ssr:stedsnr" v="972085" />
		<tag k="ssr:type" v="adressenavn" />
	</node>
	<node lat="64.2299851835523" lon="12.306682647147547" id="-88192">
		<tag k="name" v="Granamovegen" />
		<tag k="ssr:date" v="2019-05-30" />
		<tag k="ssr:gruppe" v="veg" />
		<tag k="ssr:hovedgruppe" v="infrastruktur" />
		<tag k="ssr:stedsnr" v="972087" />
		<tag k="ssr:type" v="adressenavn" />
	</node>
	<node lat="64.22733620036195" lon="12.296394409448379" id="-88193">
		<tag k="name" v="Sveddavegen" />
		<tag k="ssr:date" v="2019-05-30" />
		<tag k="ssr:gruppe" v="veg" />
		<tag k="ssr:hovedgruppe" v="infrastruktur" />
		<tag k="ssr:stedsnr" v="972090" />
		<tag k="ssr:type" v="adressenavn" />
	</node>
	<node lat="64.19361352068512" lon="12.325373897626198" id="-88194">
		<tag k="name" v="Kjenstadbergvegen" />
		<tag k="ssr:date" v="2019-05-30" />
		<tag k="ssr:gruppe" v="veg" />
		<tag k="ssr:hovedgruppe" v="infrastruktur" />
		<tag k="ssr:stedsnr" v="972091" />
		<tag k="ssr:type" v="adressenavn" />
	</node>
	<node lat="64.15697292848427" lon="12.449415101414822" id="-88195">
		<tag k="name" v="Imsdalsvegen" />
		<tag k="ssr:date" v="2019-05-30" />
		<tag k="ssr:gruppe" v="veg" />
		<tag k="ssr:hovedgruppe" v="infrastruktur" />
		<tag k="ssr:stedsnr" v="972094" />
		<tag k="ssr:type" v="adressenavn" />
	</node>
	<node lat="64.24651781781454" lon="12.382350627791979" id="-88196">
		<tag k="name" v="Snåsavegen" />
		<tag k="ssr:date" v="2019-05-30" />
		<tag k="ssr:gruppe" v="veg" />
		<tag k="ssr:hovedgruppe" v="infrastruktur" />
		<tag k="ssr:stedsnr" v="971920" />
		<tag k="ssr:type" v="adressenavn" />
	</node>
	<node lat="64.29763239766739" lon="12.565056009209375" id="-88197">
		<tag k="name" v="Sjysjøvegen" />
		<tag k="ssr:date" v="2019-05-30" />
		<tag k="ssr:gruppe" v="veg" />
		<tag k="ssr:hovedgruppe" v="infrastruktur" />
		<tag k="ssr:stedsnr" v="971962" />
		<tag k="ssr:type" v="adressenavn" />
	</node>
	<node lat="64.29235714744146" lon="12.565412846498068" id="-88198">
		<tag k="name" v="Skjørsjøvegen" />
		<tag k="ssr:date" v="2019-05-30" />
		<tag k="ssr:gruppe" v="veg" />
		<tag k="ssr:hovedgruppe" v="infrastruktur" />
		<tag k="ssr:stedsnr" v="971963" />
		<tag k="ssr:type" v="adressenavn" />
	</node>
	<node lat="64.26091638690207" lon="12.56554062421118" id="-88199">
		<tag k="name" v="Mollanvegen" />
		<tag k="ssr:date" v="2019-05-30" />
		<tag k="ssr:gruppe" v="veg" />
		<tag k="ssr:hovedgruppe" v="infrastruktur" />
		<tag k="ssr:stedsnr" v="971964" />
		<tag k="ssr:type" v="adressenavn" />
	</node>
	<node lat="64.26433038644498" lon="12.785057382428356" id="-88200">
		<tag k="name" v="Storåsvegen" />
		<tag k="ssr:date" v="2019-05-30" />
		<tag k="ssr:gruppe" v="veg" />
		<tag k="ssr:hovedgruppe" v="infrastruktur" />
		<tag k="ssr:stedsnr" v="971965" />
		<tag k="ssr:type" v="adressenavn" />
	</node>
	<node lat="64.34310866759097" lon="12.337281012884457" id="-88201">
		<tag k="name" v="Fjellstad" />
		<tag k="ssr:date" v="2019-05-30" />
		<tag k="ssr:gruppe" v="veg" />
		<tag k="ssr:hovedgruppe" v="infrastruktur" />
		<tag k="ssr:stedsnr" v="971966" />
		<tag k="ssr:type" v="adressenavn" />
	</node>
	<node lat="64.35037261914532" lon="12.52829060098122" id="-88202">
		<tag k="name" v="Leirsjøvegen" />
		<tag k="ssr:date" v="2019-05-30" />
		<tag k="ssr:gruppe" v="veg" />
		<tag k="ssr:hovedgruppe" v="infrastruktur" />
		<tag k="ssr:stedsnr" v="971967" />
		<tag k="ssr:type" v="adressenavn" />
	</node>
	<node lat="64.26738997642704" lon="12.370897169076486" id="-88203">
		<tag k="name" v="Åsmulvegen" />
		<tag k="ssr:date" v="2019-05-30" />
		<tag k="ssr:gruppe" v="veg" />
		<tag k="ssr:hovedgruppe" v="infrastruktur" />
		<tag k="ssr:stedsnr" v="971968" />
		<tag k="ssr:type" v="adressenavn" />
	</node>
	<node lat="64.26996353024145" lon="12.315587377119082" id="-88204">
		<tag k="name" v="Moumsvegen" />
		<tag k="ssr:date" v="2019-05-30" />
		<tag k="ssr:gruppe" v="veg" />
		<tag k="ssr:hovedgruppe" v="infrastruktur" />
		<tag k="ssr:stedsnr" v="971969" />
		<tag k="ssr:type" v="adressenavn" />
	</node>
	<node lat="64.2690797708015" lon="12.372001816868048" id="-88205">
		<tag k="name" v="Dravlanvegen" />
		<tag k="ssr:date" v="2019-05-30" />
		<tag k="ssr:gruppe" v="veg" />
		<tag k="ssr:hovedgruppe" v="infrastruktur" />
		<tag k="ssr:stedsnr" v="971974" />
		<tag k="ssr:type" v="adressenavn" />
	</node>
	<node lat="64.1788846888596" lon="12.335034386983079" id="-88206">
		<tag k="name" v="Sandstadvegen" />
		<tag k="ssr:date" v="2019-05-30" />
		<tag k="ssr:gruppe" v="veg" />
		<tag k="ssr:hovedgruppe" v="infrastruktur" />
		<tag k="ssr:stedsnr" v="972169" />
		<tag k="ssr:type" v="adressenavn" />
	</node>
	<node lat="64.18887466877459" lon="12.243405158479733" id="-88207">
		<tag k="name" v="Jørstadelvvegen" />
		<tag k="ssr:date" v="2019-05-30" />
		<tag k="ssr:gruppe" v="veg" />
		<tag k="ssr:hovedgruppe" v="infrastruktur" />
		<tag k="ssr:stedsnr" v="972171" />
		<tag k="ssr:type" v="adressenavn" />
	</node>
	<node lat="64.19694801828196" lon="12.26996254662616" id="-88208">
		<tag k="name" v="Kleivgrenda" />
		<tag k="ssr:date" v="2019-05-30" />
		<tag k="ssr:gruppe" v="veg" />
		<tag k="ssr:hovedgruppe" v="infrastruktur" />
		<tag k="ssr:stedsnr" v="972173" />
		<tag k="ssr:type" v="adressenavn" />
	</node>
	<node lat="64.20574060954836" lon="12.251985090674193" id="-88209">
		<tag k="name" v="Brønsetvegen" />
		<tag k="ssr:date" v="2019-05-30" />
		<tag k="ssr:gruppe" v="veg" />
		<tag k="ssr:hovedgruppe" v="infrastruktur" />
		<tag k="ssr:stedsnr" v="972175" />
		<tag k="ssr:type" v="adressenavn" />
	</node>
	<node lat="64.24765976652111" lon="12.383224218171222" id="-88219">
		<tag k="name" v="Støvravegen" />
		<tag k="ssr:date" v="2019-05-30" />
		<tag k="ssr:gruppe" v="veg" />
		<tag k="ssr:hovedgruppe" v="infrastruktur" />
		<tag k="ssr:stedsnr" v="972199" />
		<tag k="ssr:type" v="adressenavn" />
	</node>
	<node lat="64.22441166632656" lon="12.420510050054663" id="-88220">
		<tag k="name" v="Heimveg" />
		<tag k="ssr:date" v="2019-05-30" />
		<tag k="ssr:gruppe" v="veg" />
		<tag k="ssr:hovedgruppe" v="infrastruktur" />
		<tag k="ssr:stedsnr" v="972202" />
		<tag k="ssr:type" v="adressenavn" />
	</node>
	<node lat="64.2493585264202" lon="12.437426789275579" id="-88221">
		<tag k="name" v="Navlusvegen" />
		<tag k="ssr:date" v="2019-05-30" />
		<tag k="ssr:gruppe" v="veg" />
		<tag k="ssr:hovedgruppe" v="infrastruktur" />
		<tag k="ssr:stedsnr" v="972204" />
		<tag k="ssr:type" v="adressenavn" />
	</node>
	<node lat="64.24367794328731" lon="12.373434418050817" id="-88222">
		<tag k="name" v="Gullbringen" />
		<tag k="ssr:date" v="2019-05-30" />
		<tag k="ssr:gruppe" v="veg" />
		<tag k="ssr:hovedgruppe" v="infrastruktur" />
		<tag k="ssr:stedsnr" v="972206" />
		<tag k="ssr:type" v="adressenavn" />
	</node>
	<node lat="64.04165136485254" lon="12.494790953476853" id="-88223">
		<tag k="name" v="Fjellskjækra" />
		<tag k="ssr:date" v="2019-05-30" />
		<tag k="ssr:gruppe" v="veg" />
		<tag k="ssr:hovedgruppe" v="infrastruktur" />
		<tag k="ssr:stedsnr" v="972378" />
		<tag k="ssr:type" v="adressenavn" />
	</node>
	<node lat="63.98941478718478" lon="12.727398449774427" id="-88224">
		<tag k="name" v="Gaundalen" />
		<tag k="ssr:date" v="2019-05-30" />
		<tag k="ssr:gruppe" v="veg" />
		<tag k="ssr:hovedgruppe" v="infrastruktur" />
		<tag k="ssr:stedsnr" v="972388" />
		<tag k="ssr:type" v="adressenavn" />
	</node>
	<node lat="64.05935695275944" lon="12.621306947922166" id="-88226">
		<tag k="name" v="Ryplia" />
		<tag k="ssr:date" v="2019-05-30" />
		<tag k="ssr:gruppe" v="veg" />
		<tag k="ssr:hovedgruppe" v="infrastruktur" />
		<tag k="ssr:stedsnr" v="972390" />
		<tag k="ssr:type" v="adressenavn" />
	</node>
	<node lat="64.09228989667562" lon="12.576528040675566" id="-88227">
		<tag k="name" v="Finnvollan" />
		<tag k="ssr:date" v="2019-05-30" />
		<tag k="ssr:gruppe" v="veg" />
		<tag k="ssr:hovedgruppe" v="infrastruktur" />
		<tag k="ssr:stedsnr" v="972391" />
		<tag k="ssr:type" v="adressenavn" />
	</node>
	<node lat="64.11768793905354" lon="12.680055109458914" id="-88228">
		<tag k="name" v="Imsdalsfjellet" />
		<tag k="ssr:date" v="2019-05-30" />
		<tag k="ssr:gruppe" v="veg" />
		<tag k="ssr:hovedgruppe" v="infrastruktur" />
		<tag k="ssr:stedsnr" v="972392" />
		<tag k="ssr:type" v="adressenavn" />
	</node>
	<node lat="64.05896357035148" lon="12.763800772566311" id="-88229">
		<tag k="name" v="Laedteke" />
		<tag k="name:sma" v="Laedteke" />
		<tag k="ssr:date" v="2019-05-30" />
		<tag k="ssr:gruppe" v="veg" />
		<tag k="ssr:hovedgruppe" v="infrastruktur" />
		<tag k="ssr:stedsnr" v="972393" />
		<tag k="ssr:type" v="adressenavn" />
	</node>
	<node lat="64.20675091711509" lon="13.195977923904126" id="-88231">
		<tag k="name" v="Skaalnje" />
		<tag k="name:sma" v="Skaalnje" />
		<tag k="ssr:date" v="2019-05-30" />
		<tag k="ssr:gruppe" v="veg" />
		<tag k="ssr:hovedgruppe" v="infrastruktur" />
		<tag k="ssr:stedsnr" v="973100" />
		<tag k="ssr:type" v="adressenavn" />
	</node>
	<node lat="64.30632950495979" lon="13.008265813079449" id="-88232">
		<tag k="name" v="Gressåmoen" />
		<tag k="ssr:date" v="2019-05-30" />
		<tag k="ssr:gruppe" v="veg" />
		<tag k="ssr:hovedgruppe" v="infrastruktur" />
		<tag k="ssr:stedsnr" v="973107" />
		<tag k="ssr:type" v="adressenavn" />
	</node>
	<node lat="64.34649174937726" lon="12.76228315577824" id="-88233">
		<tag k="name" v="Mossetran" />
		<tag k="ssr:date" v="2019-05-30" />
		<tag k="ssr:gruppe" v="veg" />
		<tag k="ssr:hovedgruppe" v="infrastruktur" />
		<tag k="ssr:stedsnr" v="973108" />
		<tag k="ssr:type" v="adressenavn" />
	</node>
	<node lat="64.3274460809222" lon="12.21751338576861" id="-88235">
		<tag k="name" v="Kvennsjøen" />
		<tag k="ssr:date" v="2019-05-30" />
		<tag k="ssr:gruppe" v="veg" />
		<tag k="ssr:hovedgruppe" v="infrastruktur" />
		<tag k="ssr:stedsnr" v="973114" />
		<tag k="ssr:type" v="adressenavn" />
	</node>
	<node lat="64.2942138279025" lon="12.311080197861948" id="-88240">
		<tag k="name" v="Trekvisla" />
		<tag k="ssr:date" v="2019-05-30" />
		<tag k="ssr:gruppe" v="veg" />
		<tag k="ssr:hovedgruppe" v="infrastruktur" />
		<tag k="ssr:stedsnr" v="973561" />
		<tag k="ssr:type" v="adressenavn" />
	</node>
	<node lat="64.30800448966373" lon="12.578754798829406" id="-88242">
		<tag k="name" v="Sjysjøen" />
		<tag k="ssr:date" v="2019-05-30" />
		<tag k="ssr:gruppe" v="veg" />
		<tag k="ssr:hovedgruppe" v="infrastruktur" />
		<tag k="ssr:stedsnr" v="973564" />
		<tag k="ssr:type" v="adressenavn" />
	</node>
	<node lat="64.14389633051758" lon="12.799660152222183" id="-88244">
		<tag k="name" v="Grubba" />
		<tag k="ssr:date" v="2019-05-30" />
		<tag k="ssr:gruppe" v="veg" />
		<tag k="ssr:hovedgruppe" v="infrastruktur" />
		<tag k="ssr:stedsnr" v="973566" />
		<tag k="ssr:type" v="adressenavn" />
	</node>
	<node lat="64.13231274888386" lon="12.78188419252157" id="-88245">
		<tag k="name" v="Finnbekken" />
		<tag k="ssr:date" v="2019-05-30" />
		<tag k="ssr:gruppe" v="veg" />
		<tag k="ssr:hovedgruppe" v="infrastruktur" />
		<tag k="ssr:stedsnr" v="973567" />
		<tag k="ssr:type" v="adressenavn" />
	</node>
	<node lat="64.20040503842516" lon="12.34519490495283" id="-88247">
		<tag k="name" v="Stormuren" />
		<tag k="ssr:date" v="2019-05-30" />
		<tag k="ssr:gruppe" v="veg" />
		<tag k="ssr:hovedgruppe" v="infrastruktur" />
		<tag k="ssr:stedsnr" v="973569" />
		<tag k="ssr:type" v="adressenavn" />
	</node>
	<node lat="64.1907849737866" lon="12.576739985319643" id="-88249">
		<tag k="name" v="Reinsjøen" />
		<tag k="ssr:date" v="2019-05-30" />
		<tag k="ssr:gruppe" v="veg" />
		<tag k="ssr:hovedgruppe" v="infrastruktur" />
		<tag k="ssr:stedsnr" v="973571" />
		<tag k="ssr:type" v="adressenavn" />
	</node>
	<node lat="64.22585825602083" lon="12.532974910687619" id="-88250">
		<tag k="name" v="Vakthaugen" />
		<tag k="ssr:date" v="2019-05-30" />
		<tag k="ssr:gruppe" v="veg" />
		<tag k="ssr:hovedgruppe" v="infrastruktur" />
		<tag k="ssr:stedsnr" v="973572" />
		<tag k="ssr:type" v="adressenavn" />
	</node>
	<node lat="64.2425204050169" lon="12.509532212019296" id="-88251">
		<tag k="name" v="Movatnet" />
		<tag k="ssr:date" v="2019-05-30" />
		<tag k="ssr:gruppe" v="veg" />
		<tag k="ssr:hovedgruppe" v="infrastruktur" />
		<tag k="ssr:stedsnr" v="973573" />
		<tag k="ssr:type" v="adressenavn" />
	</node>
	<node lat="64.24605833243777" lon="12.382977779804907" id="-89364">
		<tag k="name" v="Snåsa kommune" />
		<tag k="name:no" v="Snåsa kommune" />
		<tag k="name:sma" v="Snåasen tjïelte" />
		<tag k="ssr:date" v="2021-06-08" />
		<tag k="ssr:gruppe" v="administrativeIndelinger" />
		<tag k="ssr:hovedgruppe" v="offentligAdministrasjon" />
		<tag k="ssr:stedsnr" v="561264" />
		<tag k="ssr:type" v="kommune" />
	</node>
	<node lat="64.27243671670489" lon="12.388824496720785" id="-90141">
		<tag k="name" v="Bjørnsjøvegen" />
		<tag k="ssr:date" v="2019-05-30" />
		<tag k="ssr:gruppe" v="veg" />
		<tag k="ssr:hovedgruppe" v="infrastruktur" />
		<tag k="ssr:stedsnr" v="971989" />
		<tag k="ssr:type" v="adressenavn" />
	</node>
	<node lat="64.21863226075979" lon="12.043597192172298" id="-90142">
		<tag k="name" v="Ådalsvegen" />
		<tag k="ssr:date" v="2019-05-30" />
		<tag k="ssr:gruppe" v="veg" />
		<tag k="ssr:hovedgruppe" v="infrastruktur" />
		<tag k="ssr:stedsnr" v="971949" />
		<tag k="ssr:type" v="adressenavn" />
	</node>
	<node lat="64.23198498998485" lon="12.15139344187468" id="-90143">
		<tag k="name" v="Holemsvegen" />
		<tag k="ssr:date" v="2019-05-30" />
		<tag k="ssr:gruppe" v="veg" />
		<tag k="ssr:hovedgruppe" v="infrastruktur" />
		<tag k="ssr:stedsnr" v="971950" />
		<tag k="ssr:type" v="adressenavn" />
	</node>
	<node lat="64.31527318027155" lon="12.55229190475192" id="-90144">
		<tag k="name" v="Bolåsvegen" />
		<tag k="ssr:date" v="2019-05-30" />
		<tag k="ssr:gruppe" v="veg" />
		<tag k="ssr:hovedgruppe" v="infrastruktur" />
		<tag k="ssr:stedsnr" v="971954" />
		<tag k="ssr:type" v="adressenavn" />
	</node>
	<node lat="64.27793882814724" lon="12.528477977744064" id="-90145">
		<tag k="name" v="Lurudalsvegen" />
		<tag k="ssr:date" v="2019-05-30" />
		<tag k="ssr:gruppe" v="veg" />
		<tag k="ssr:hovedgruppe" v="infrastruktur" />
		<tag k="ssr:stedsnr" v="971955" />
		<tag k="ssr:type" v="adressenavn" />
	</node>
	<node lat="64.32673900871472" lon="12.609130988806069" id="-90146">
		<tag k="name" v="Litlelvvegen" />
		<tag k="ssr:date" v="2019-05-30" />
		<tag k="ssr:gruppe" v="veg" />
		<tag k="ssr:hovedgruppe" v="infrastruktur" />
		<tag k="ssr:stedsnr" v="971958" />
		<tag k="ssr:type" v="adressenavn" />
	</node>
	<node lat="64.32088727426245" lon="12.546564435130712" id="-90147">
		<tag k="name" v="Kolåsvegen" />
		<tag k="ssr:date" v="2019-05-30" />
		<tag k="ssr:gruppe" v="veg" />
		<tag k="ssr:hovedgruppe" v="infrastruktur" />
		<tag k="ssr:stedsnr" v="971960" />
		<tag k="ssr:type" v="adressenavn" />
	</node>
	<node lat="64.2450300060756" lon="12.394680602683836" id="-90148">
		<tag k="name" v="Forbergsmarka" />
		<tag k="ssr:date" v="2019-05-30" />
		<tag k="ssr:gruppe" v="veg" />
		<tag k="ssr:hovedgruppe" v="infrastruktur" />
		<tag k="ssr:stedsnr" v="972066" />
		<tag k="ssr:type" v="adressenavn" />
	</node>
	<node lat="64.2445900630179" lon="12.407369519844883" id="-90149">
		<tag k="name" v="Bergsgrenda" />
		<tag k="ssr:date" v="2019-05-30" />
		<tag k="ssr:gruppe" v="veg" />
		<tag k="ssr:hovedgruppe" v="infrastruktur" />
		<tag k="ssr:stedsnr" v="972070" />
		<tag k="ssr:type" v="adressenavn" />
	</node>
	<node lat="64.19269160609247" lon="12.1669653587383" id="-90150">
		<tag k="name" v="Ålnesvegen" />
		<tag k="ssr:date" v="2019-05-30" />
		<tag k="ssr:gruppe" v="veg" />
		<tag k="ssr:hovedgruppe" v="infrastruktur" />
		<tag k="ssr:stedsnr" v="972178" />
		<tag k="ssr:type" v="adressenavn" />
	</node>
	<node lat="64.38192318900602" lon="12.404312845119515" id="-90151">
		<tag k="name" v="Blikskjølvegen" />
		<tag k="ssr:date" v="2019-05-30" />
		<tag k="ssr:gruppe" v="veg" />
		<tag k="ssr:hovedgruppe" v="infrastruktur" />
		<tag k="ssr:stedsnr" v="972181" />
		<tag k="ssr:type" v="adressenavn" />
	</node>
	<node lat="64.23854266735923" lon="12.348895104344754" id="-90152">
		<tag k="name" v="Svarvavegen" />
		<tag k="ssr:date" v="2019-05-30" />
		<tag k="ssr:gruppe" v="veg" />
		<tag k="ssr:hovedgruppe" v="infrastruktur" />
		<tag k="ssr:stedsnr" v="972183" />
		<tag k="ssr:type" v="adressenavn" />
	</node>
	<node lat="64.24112654537826" lon="12.353509635636902" id="-90153">
		<tag k="name" v="Vinjevegen" />
		<tag k="ssr:date" v="2019-05-30" />
		<tag k="ssr:gruppe" v="veg" />
		<tag k="ssr:hovedgruppe" v="infrastruktur" />
		<tag k="ssr:stedsnr" v="972184" />
		<tag k="ssr:type" v="adressenavn" />
	</node>
	<node lat="64.24291356929646" lon="12.359101120548797" id="-90154">
		<tag k="name" v="Vinjeberga" />
		<tag k="ssr:date" v="2019-05-30" />
		<tag k="ssr:gruppe" v="veg" />
		<tag k="ssr:hovedgruppe" v="infrastruktur" />
		<tag k="ssr:stedsnr" v="972187" />
		<tag k="ssr:type" v="adressenavn" />
	</node>
	<node lat="64.16957331369649" lon="12.53666824615998" id="-90155">
		<tag k="name" v="Reinsjølivegen" />
		<tag k="ssr:date" v="2019-05-30" />
		<tag k="ssr:gruppe" v="veg" />
		<tag k="ssr:hovedgruppe" v="infrastruktur" />
		<tag k="ssr:stedsnr" v="972189" />
		<tag k="ssr:type" v="adressenavn" />
	</node>
	<node lat="64.23617079036252" lon="12.48539344682243" id="-90156">
		<tag k="name" v="Belbuvegen" />
		<tag k="ssr:date" v="2019-05-30" />
		<tag k="ssr:gruppe" v="veg" />
		<tag k="ssr:hovedgruppe" v="infrastruktur" />
		<tag k="ssr:stedsnr" v="972193" />
		<tag k="ssr:type" v="adressenavn" />
	</node>
	<node lat="64.23152691745561" lon="12.36308244920531" id="-90157">
		<tag k="name" v="Vågsvegen" />
		<tag k="ssr:date" v="2019-05-30" />
		<tag k="ssr:gruppe" v="veg" />
		<tag k="ssr:hovedgruppe" v="infrastruktur" />
		<tag k="ssr:stedsnr" v="971990" />
		<tag k="ssr:type" v="adressenavn" />
	</node>
	<node lat="64.22190573996465" lon="12.341766145124696" id="-90158">
		<tag k="name" v="Brennavegen" />
		<tag k="ssr:date" v="2019-05-30" />
		<tag k="ssr:gruppe" v="veg" />
		<tag k="ssr:hovedgruppe" v="infrastruktur" />
		<tag k="ssr:stedsnr" v="971991" />
		<tag k="ssr:type" v="adressenavn" />
	</node>
	<node lat="64.22402961298265" lon="12.404269932608171" id="-90159">
		<tag k="name" v="Dælivegen" />
		<tag k="ssr:date" v="2019-05-30" />
		<tag k="ssr:gruppe" v="veg" />
		<tag k="ssr:hovedgruppe" v="infrastruktur" />
		<tag k="ssr:stedsnr" v="971992" />
		<tag k="ssr:type" v="adressenavn" />
	</node>
	<node lat="64.23990338290803" lon="12.345938666807905" id="-90160">
		<tag k="name" v="Sandnesvegen" />
		<tag k="ssr:date" v="2019-05-30" />
		<tag k="ssr:gruppe" v="veg" />
		<tag k="ssr:hovedgruppe" v="infrastruktur" />
		<tag k="ssr:stedsnr" v="971993" />
		<tag k="ssr:type" v="adressenavn" />
	</node>
	<node lat="64.24488073429902" lon="12.365631744158422" id="-90161">
		<tag k="name" v="Bostadlia" />
		<tag k="ssr:date" v="2019-05-30" />
		<tag k="ssr:gruppe" v="veg" />
		<tag k="ssr:hovedgruppe" v="infrastruktur" />
		<tag k="ssr:stedsnr" v="971994" />
		<tag k="ssr:type" v="adressenavn" />
	</node>
	<node lat="64.24987654253981" lon="12.365790976180023" id="-90162">
		<tag k="name" v="Bostadlandet" />
		<tag k="ssr:date" v="2019-05-30" />
		<tag k="ssr:gruppe" v="veg" />
		<tag k="ssr:hovedgruppe" v="infrastruktur" />
		<tag k="ssr:stedsnr" v="971996" />
		<tag k="ssr:type" v="adressenavn" />
	</node>
	<node lat="64.24517871637526" lon="12.364657657290858" id="-90163">
		<tag k="name" v="Bugjelet" />
		<tag k="ssr:date" v="2019-05-30" />
		<tag k="ssr:gruppe" v="veg" />
		<tag k="ssr:hovedgruppe" v="infrastruktur" />
		<tag k="ssr:stedsnr" v="971997" />
		<tag k="ssr:type" v="adressenavn" />
	</node>
	<node lat="64.2258516017014" lon="12.533027486879009" id="-90164">
		<tag k="name" v="Elgsbåsvegen" />
		<tag k="ssr:date" v="2019-05-30" />
		<tag k="ssr:gruppe" v="veg" />
		<tag k="ssr:hovedgruppe" v="infrastruktur" />
		<tag k="ssr:stedsnr" v="972095" />
		<tag k="ssr:type" v="adressenavn" />
	</node>
	<node lat="64.16838552265679" lon="12.762435937784986" id="-90165">
		<tag k="name" v="Raudberglia" />
		<tag k="ssr:date" v="2019-05-30" />
		<tag k="ssr:gruppe" v="veg" />
		<tag k="ssr:hovedgruppe" v="infrastruktur" />
		<tag k="ssr:stedsnr" v="972115" />
		<tag k="ssr:type" v="adressenavn" />
	</node>
	<node lat="64.08564786808489" lon="12.303717748094359" id="-90177">
		<tag k="name" v="Skjækervatnet" />
		<tag k="ssr:date" v="2019-05-30" />
		<tag k="ssr:gruppe" v="veg" />
		<tag k="ssr:hovedgruppe" v="infrastruktur" />
		<tag k="ssr:stedsnr" v="972350" />
		<tag k="ssr:type" v="adressenavn" />
	</node>
	<node lat="64.0856719936066" lon="12.303788663335455" id="-90181">
		<tag k="name" v="Åsvatnet" />
		<tag k="ssr:date" v="2019-05-30" />
		<tag k="ssr:gruppe" v="veg" />
		<tag k="ssr:hovedgruppe" v="infrastruktur" />
		<tag k="ssr:stedsnr" v="972355" />
		<tag k="ssr:type" v="adressenavn" />
	</node>
	<node lat="64.06870502842197" lon="12.241556365508462" id="-90182">
		<tag k="name" v="Mediåsseteren" />
		<tag k="ssr:date" v="2019-05-30" />
		<tag k="ssr:gruppe" v="veg" />
		<tag k="ssr:hovedgruppe" v="infrastruktur" />
		<tag k="ssr:stedsnr" v="972364" />
		<tag k="ssr:type" v="adressenavn" />
	</node>
	<node lat="64.10839341067548" lon="12.367368623350503" id="-90184">
		<tag k="name" v="Brønstadsetran" />
		<tag k="ssr:date" v="2019-05-30" />
		<tag k="ssr:gruppe" v="veg" />
		<tag k="ssr:hovedgruppe" v="infrastruktur" />
		<tag k="ssr:stedsnr" v="972366" />
		<tag k="ssr:type" v="adressenavn" />
	</node>
	<node lat="64.13858839993203" lon="12.477298522420618" id="-90186">
		<tag k="name" v="Kjevlifjellet" />
		<tag k="ssr:date" v="2019-05-30" />
		<tag k="ssr:gruppe" v="veg" />
		<tag k="ssr:hovedgruppe" v="infrastruktur" />
		<tag k="ssr:stedsnr" v="972373" />
		<tag k="ssr:type" v="adressenavn" />
	</node>
	<node lat="64.26095688868179" lon="12.784798502362618" id="-90190">
		<tag k="name" v="Seisjøen" />
		<tag k="ssr:date" v="2019-05-30" />
		<tag k="ssr:gruppe" v="veg" />
		<tag k="ssr:hovedgruppe" v="infrastruktur" />
		<tag k="ssr:stedsnr" v="973099" />
		<tag k="ssr:type" v="adressenavn" />
	</node>
	<node lat="64.32668465673898" lon="12.608881531465123" id="-90193">
		<tag k="name" v="Litlelva" />
		<tag k="ssr:date" v="2019-05-30" />
		<tag k="ssr:gruppe" v="veg" />
		<tag k="ssr:hovedgruppe" v="infrastruktur" />
		<tag k="ssr:stedsnr" v="973577" />
		<tag k="ssr:type" v="adressenavn" />
	</node>
	<node lat="64.17735587987826" lon="12.170291439442114" id="-90194">
		<tag k="name" v="Grønøra" />
		<tag k="ssr:date" v="2019-05-30" />
		<tag k="ssr:gruppe" v="veg" />
		<tag k="ssr:hovedgruppe" v="infrastruktur" />
		<tag k="ssr:stedsnr" v="973578" />
		<tag k="ssr:type" v="adressenavn" />
	</node>
	<node lat="64.1781408143496" lon="12.144938637269446" id="-90195">
		<tag k="name" v="Grønørtangen" />
		<tag k="ssr:date" v="2019-05-30" />
		<tag k="ssr:gruppe" v="veg" />
		<tag k="ssr:hovedgruppe" v="infrastruktur" />
		<tag k="ssr:stedsnr" v="973579" />
		<tag k="ssr:type" v="adressenavn" />
	</node>
	<node lat="64.26375363342159" lon="12.167830238151765" id="-90196">
		<tag k="name" v="Ådalen" />
		<tag k="ssr:date" v="2019-05-30" />
		<tag k="ssr:gruppe" v="veg" />
		<tag k="ssr:hovedgruppe" v="infrastruktur" />
		<tag k="ssr:stedsnr" v="973580" />
		<tag k="ssr:type" v="adressenavn" />
	</node>
	<node lat="64.17157894979988" lon="12.688990779500998" id="-90198">
		<tag k="name" v="Svartbakken" />
		<tag k="ssr:date" v="2019-05-30" />
		<tag k="ssr:gruppe" v="veg" />
		<tag k="ssr:hovedgruppe" v="infrastruktur" />
		<tag k="ssr:stedsnr" v="973582" />
		<tag k="ssr:type" v="adressenavn" />
	</node>
	<node lat="64.32329356860231" lon="12.671778970878703" id="-90199">
		<tag k="name" v="Skjørsjøen" />
		<tag k="ssr:date" v="2019-05-30" />
		<tag k="ssr:gruppe" v="veg" />
		<tag k="ssr:hovedgruppe" v="infrastruktur" />
		<tag k="ssr:stedsnr" v="973583" />
		<tag k="ssr:type" v="adressenavn" />
	</node>
	<node lat="64.33878802969805" lon="12.557485979955437" id="-90200">
		<tag k="name" v="Krulhaugen" />
		<tag k="ssr:date" v="2019-05-30" />
		<tag k="ssr:gruppe" v="veg" />
		<tag k="ssr:hovedgruppe" v="infrastruktur" />
		<tag k="ssr:stedsnr" v="973584" />
		<tag k="ssr:type" v="adressenavn" />
	</node>
	<node lat="64.3672270940995" lon="12.768934100309883" id="-90201">
		<tag k="name" v="Dalvatnet" />
		<tag k="ssr:date" v="2019-05-30" />
		<tag k="ssr:gruppe" v="veg" />
		<tag k="ssr:hovedgruppe" v="infrastruktur" />
		<tag k="ssr:stedsnr" v="973585" />
		<tag k="ssr:type" v="adressenavn" />
	</node>
	<node lat="64.28933005403202" lon="12.708712176926033" id="-90203">
		<tag k="name" v="Andorfjellet" />
		<tag k="ssr:date" v="2019-05-30" />
		<tag k="ssr:gruppe" v="veg" />
		<tag k="ssr:hovedgruppe" v="infrastruktur" />
		<tag k="ssr:stedsnr" v="973587" />
		<tag k="ssr:type" v="adressenavn" />
	</node>
	<node lat="64.29336767568141" lon="12.62655442000488" id="-90204">
		<tag k="name" v="Blomlia" />
		<tag k="ssr:date" v="2019-05-30" />
		<tag k="ssr:gruppe" v="veg" />
		<tag k="ssr:hovedgruppe" v="infrastruktur" />
		<tag k="ssr:stedsnr" v="973588" />
		<tag k="ssr:type" v="adressenavn" />
	</node>
	<node lat="64.23882113619202" lon="12.185098888321937" id="-90225">
		<tag k="name" v="Holemsøya" />
		<tag k="ssr:date" v="2019-05-30" />
		<tag k="ssr:gruppe" v="veg" />
		<tag k="ssr:hovedgruppe" v="infrastruktur" />
		<tag k="ssr:stedsnr" v="973536" />
		<tag k="ssr:type" v="adressenavn" />
	</node>
	<node lat="64.15494298955343" lon="12.031383811320124" id="-90226">
		<tag k="name" v="Djupdalshytta" />
		<tag k="ssr:date" v="2019-05-30" />
		<tag k="ssr:gruppe" v="veg" />
		<tag k="ssr:hovedgruppe" v="infrastruktur" />
		<tag k="ssr:stedsnr" v="973537" />
		<tag k="ssr:type" v="adressenavn" />
	</node>
	<node lat="64.13771438949158" lon="12.165102853903866" id="-90228">
		<tag k="name" v="Tjønndalen" />
		<tag k="ssr:date" v="2019-05-30" />
		<tag k="ssr:gruppe" v="veg" />
		<tag k="ssr:hovedgruppe" v="infrastruktur" />
		<tag k="ssr:stedsnr" v="973539" />
		<tag k="ssr:type" v="adressenavn" />
	</node>
	<node lat="64.16551185843313" lon="12.249716432562067" id="-90229">
		<tag k="name" v="Rathaugen" />
		<tag k="ssr:date" v="2019-05-30" />
		<tag k="ssr:gruppe" v="veg" />
		<tag k="ssr:hovedgruppe" v="infrastruktur" />
		<tag k="ssr:stedsnr" v="973540" />
		<tag k="ssr:type" v="adressenavn" />
	</node>
	<node lat="64.17019216018002" lon="12.354207452052004" id="-90230">
		<tag k="name" v="Skarpberget" />
		<tag k="ssr:date" v="2019-05-30" />
		<tag k="ssr:gruppe" v="veg" />
		<tag k="ssr:hovedgruppe" v="infrastruktur" />
		<tag k="ssr:stedsnr" v="973542" />
		<tag k="ssr:type" v="adressenavn" />
	</node>
	<node lat="64.11317608957926" lon="12.22568349638846" id="-90231">
		<tag k="name" v="Merralia" />
		<tag k="ssr:date" v="2019-05-30" />
		<tag k="ssr:gruppe" v="veg" />
		<tag k="ssr:hovedgruppe" v="infrastruktur" />
		<tag k="ssr:stedsnr" v="973543" />
		<tag k="ssr:type" v="adressenavn" />
	</node>
	<node lat="64.11489901451574" lon="12.403035526642967" id="-90232">
		<tag k="name" v="Hevdesåsen" />
		<tag k="ssr:date" v="2019-05-30" />
		<tag k="ssr:gruppe" v="veg" />
		<tag k="ssr:hovedgruppe" v="infrastruktur" />
		<tag k="ssr:stedsnr" v="973544" />
		<tag k="ssr:type" v="adressenavn" />
	</node>
	<node lat="64.26208235557424" lon="12.555524594861772" id="-90234">
		<tag k="name" v="Almo søndre" />
		<tag k="ssr:date" v="2018-01-09" />
		<tag k="ssr:gruppe" v="veg" />
		<tag k="ssr:hovedgruppe" v="infrastruktur" />
		<tag k="ssr:stedsnr" v="976819" />
		<tag k="ssr:type" v="adressetilleggsnavn" />
	</node>
	<node lat="64.263342558712" lon="12.553586384238303" id="-90236">
		<tag k="name" v="Almo nordre" />
		<tag k="ssr:date" v="2018-01-09" />
		<tag k="ssr:gruppe" v="veg" />
		<tag k="ssr:hovedgruppe" v="infrastruktur" />
		<tag k="ssr:stedsnr" v="977343" />
		<tag k="ssr:type" v="adressetilleggsnavn" />
	</node>
</osm>
