<?xml version="1.0" encoding="UTF-8"?>
<osm generator="osmapis" version="0.6">
	<node id="-147456" lat="60.8390277771" lon="9.7598444514">
		<tag k="name" v="Ørmeberget" />
		<tag k="natural" v="scree" />
		<tag k="ssr:stedsnr" v="539602" />
	</node>
	<node id="-146944" lat="60.8737888908" lon="9.68028056131">
		<tag k="name" v="Rovemyre" />
		<tag k="natural" v="wetland" />
		<tag k="ssr:stedsnr" v="175472" />
	</node>
	<node id="-147454" lat="61.0820805553" lon="9.47757222508">
		<tag k="alt_name" v="Nørre Tangen" />
		<tag k="landuse" v="meadow" />
		<tag k="name" v="Nørdre Tangen" />
		<tag k="ssr:stedsnr" v="539512" />
	</node>
	<node id="-147450" lat="61.0002444481" lon="9.69871943937">
		<tag k="name" v="Østenmyre" />
		<tag k="natural" v="wetland" />
		<tag k="ssr:stedsnr" v="539323" />
	</node>
	<node id="-146937" lat="60.8512138923" lon="9.7288111198">
		<tag k="name" v="Røstenge" />
		<tag k="place" v="locality" />
		<tag k="ssr:stedsnr" v="175766" />
	</node>
	<node id="-147448" lat="61.0281583374" lon="9.61513054857">
		<tag k="landuse" v="meadow" />
		<tag k="name" v="Dalalifeten" />
		<tag k="ssr:stedsnr" v="539235" />
	</node>
	<node id="-148468" lat="60.9007499962" lon="9.58710833184">
		<tag k="name" v="Berteåta" />
		<tag k="place" v="locality" />
		<tag k="ssr:stedsnr" v="963267" />
	</node>
	<node id="-147955" lat="61.0406055534" lon="9.51589999674">
		<tag k="name" v="Kjerringsmyre" />
		<tag k="natural" v="wetland" />
		<tag k="ssr:stedsnr" v="722165" />
	</node>
	<node id="-146930" lat="61.0275555532" lon="9.67185554914">
		<tag k="name" v="Hølmyre" />
		<tag k="natural" v="wetland" />
		<tag k="ssr:stedsnr" v="175293" />
	</node>
	<node id="-148463" lat="60.8592583317" lon="9.60978055432">
		<tag k="name" v="Sagmyre" />
		<tag k="natural" v="wetland" />
		<tag k="ssr:stedsnr" v="963098" />
	</node>
	<node id="-146923" lat="60.9039111128" lon="9.74293611886">
		<tag k="name" v="Bjødnamyratn" />
		<tag k="natural" v="wetland" />
		<tag k="ssr:stedsnr" v="175132" />
	</node>
	<node id="-148458" lat="60.9978138893" lon="9.56334722208">
		<tag k="landuse" v="meadow" />
		<tag k="name" v="Lundemoenge" />
		<tag k="ssr:stedsnr" v="962292" />
	</node>
	<node id="-147945" lat="61.0974694456" lon="9.69652222774">
		<tag k="name" v="Hyttebekkmyre" />
		<tag k="natural" v="wetland" />
		<tag k="ssr:stedsnr" v="721701" />
	</node>
	<node id="-147944" lat="60.9655583375" lon="9.73430555355">
		<tag k="name" v="Botenbergmyre" />
		<tag k="natural" v="wetland" />
		<tag k="ssr:stedsnr" v="721624" />
	</node>
	<node id="-146918" lat="60.9786861142" lon="9.73932223095">
		<tag k="name" v="Brennitn" />
		<tag k="natural" v="wetland" />
		<tag k="ssr:stedsnr" v="175154" />
	</node>
	<node id="-147425" lat="60.935927782" lon="9.5680111021">
		<tag k="name" v="Flæmyre" />
		<tag k="natural" v="wetland" />
		<tag k="ssr:stedsnr" v="538424" />
	</node>
	<node id="-146912" lat="60.8522777759" lon="9.59672776916">
		<tag k="name" v="Grånstølmyre" />
		<tag k="natural" v="wetland" />
		<tag k="ssr:stedsnr" v="174913" />
	</node>
	<node id="-147935" lat="60.9979500017" lon="9.66563055941">
		<tag k="landuse" v="meadow" />
		<tag k="name" v="Fossøye" />
		<tag k="ssr:stedsnr" v="721405" />
	</node>
	<node id="-146909" lat="61.0501166645" lon="9.59564722784">
		<tag k="name" v="Kveateigen" />
		<tag k="place" v="locality" />
		<tag k="ssr:stedsnr" v="174895" />
	</node>
	<node id="-147420" lat="61.0609944433" lon="9.63023333484">
		<tag k="name" v="Liastølmyratn" />
		<tag k="natural" v="wetland" />
		<tag k="ssr:stedsnr" v="538268" />
	</node>
	<node id="-146906" lat="60.9586166633" lon="9.55222222529">
		<tag k="name" v="Veslevollen" />
		<tag k="place" v="locality" />
		<tag k="ssr:stedsnr" v="174614" />
	</node>
	<node id="-146340" lat="61.0070250037" lon="9.66643055049">
		<tag k="name" v="Åfetstølen" />
		<tag k="place" v="locality" />
		<tag k="ssr:stedsnr" v="357364" />
	</node>
	<node id="-146390" lat="61.0304194433" lon="9.53133610478">
		<tag k="name" v="Langemyre" />
		<tag k="natural" v="wetland" />
		<tag k="ssr:stedsnr" v="360588" />
	</node>
	<node id="-146386" lat="60.8755222263" lon="9.76837499713">
		<tag k="name" v="Bergsmyre" />
		<tag k="natural" v="wetland" />
		<tag k="ssr:stedsnr" v="358761" />
	</node>
	<node id="-147409" lat="60.8904861082" lon="9.60536389361">
		<tag k="name" v="Myratn" />
		<tag k="natural" v="wetland" />
		<tag k="ssr:stedsnr" v="539462" />
	</node>
	<node id="-146384" lat="60.8306361145" lon="9.68421945284">
		<tag k="name" v="Puttemyre" />
		<tag k="natural" v="wetland" />
		<tag k="ssr:stedsnr" v="358687" />
	</node>
	<node id="-147407" lat="60.8893222214" lon="9.6127500057">
		<tag k="name" v="Kleive" />
		<tag k="place" v="locality" />
		<tag k="ssr:stedsnr" v="539428" />
	</node>
	<node id="-147918" lat="60.8931694436" lon="9.75175277609">
		<tag k="name" v="Karlsmyre" />
		<tag k="natural" v="wetland" />
		<tag k="ssr:stedsnr" v="721148" />
	</node>
	<node id="-146379" lat="61.0661888852" lon="9.45224445021">
		<tag k="landuse" v="meadow" />
		<tag k="name" v="Øvreløostølen" />
		<tag k="ssr:stedsnr" v="358502" />
	</node>
	<node id="-147400" lat="60.9491055588" lon="9.58074444399">
		<tag k="alt_name" v="Langemyre" />
		<tag k="name" v="Langemyri" />
		<tag k="natural" v="wetland" />
		<tag k="ssr:stedsnr" v="495578" />
	</node>
	<node id="-146887" lat="60.898700002" lon="9.57328333238">
		<tag k="name" v="Handebakkmyre" />
		<tag k="natural" v="wetland" />
		<tag k="ssr:stedsnr" v="174265" />
	</node>
	<node id="-147909" lat="60.9043555554" lon="9.70696110262">
		<tag k="name" v="Flæten" />
		<tag k="natural" v="wetland" />
		<tag k="ssr:stedsnr" v="721021" />
	</node>
	<node id="-146372" lat="61.0368972218" lon="9.53257221824">
		<tag k="name" v="Slettalie" />
		<tag k="place" v="locality" />
		<tag k="ssr:stedsnr" v="358141" />
	</node>
	<node id="-147904" lat="60.8461222227" lon="9.58783610325">
		<tag k="name" v="Gjestgiverhaugen" />
		<tag k="place" v="locality" />
		<tag k="ssr:stedsnr" v="720910" />
	</node>
	<node id="-148384" lat="61.0243944401" lon="9.68505832527">
		<tag k="alt_name" v="Langtjednmyratn" />
		<tag k="name" v="Langtjernmyratn" />
		<tag k="natural" v="wetland" />
		<tag k="ssr:stedsnr" v="904255" />
	</node>
	<node id="-146677" lat="60.8742166626" lon="9.7661694506">
		<tag k="name" v="Stormyre" />
		<tag k="natural" v="wetland" />
		<tag k="ssr:stedsnr" v="54759" />
	</node>
	<node id="-146364" lat="60.9492444481" lon="9.66208332696">
		<tag k="name" v="Nyhusmyre" />
		<tag k="natural" v="wetland" />
		<tag k="ssr:stedsnr" v="357822" />
	</node>
	<node id="-147385" lat="60.8216388914" lon="9.70621666884">
		<tag k="alt_name" v="Hyttemyre" />
		<tag k="name" v="Hyttemyri" />
		<tag k="natural" v="wetland" />
		<tag k="ssr:stedsnr" v="494169" />
	</node>
	<node id="-146175" lat="60.9992222198" lon="9.67199721426">
		<tag k="landuse" v="meadow" />
		<tag k="name" v="Akkordløo" />
		<tag k="ssr:stedsnr" v="296387" />
	</node>
	<node id="-146354" lat="61.0031000001" lon="9.54027221693">
		<tag k="landuse" v="meadow" />
		<tag k="name" v="Borgerlykkja" />
		<tag k="ssr:stedsnr" v="357618" />
	</node>
	<node id="-148399" lat="60.8779222222" lon="9.74544445259">
		<tag k="name" v="Gurimyre" />
		<tag k="natural" v="wetland" />
		<tag k="ssr:stedsnr" v="904733" />
	</node>
	<node id="-146347" lat="61.0049472197" lon="9.7308527721">
		<tag k="name" v="Tanterhaugmarke" />
		<tag k="place" v="locality" />
		<tag k="ssr:stedsnr" v="357449" />
	</node>
	<node id="-148390" lat="61.0619388867" lon="9.54557222027">
		<tag k="name" v="Åsli" />
		<tag k="place" v="locality" />
		<tag k="ssr:stedsnr" v="904379" />
	</node>
	<node id="-146341" lat="61.0035055541" lon="9.66230555664">
		<tag k="name" v="Flæslette" />
		<tag k="place" v="locality" />
		<tag k="ssr:stedsnr" v="357368" />
	</node>
	<node id="-147364" lat="60.8085055591" lon="9.81476666984">
		<tag k="historic" v="shieling" />
		<tag k="name" v="Tintonsætera" />
		<tag k="place" v="locality" />
		<tag k="ssr:stedsnr" v="464523" />
	</node>
	<node id="-148387" lat="60.9554472208" lon="9.52314167469">
		<tag k="name" v="Vøllmyre" />
		<tag k="natural" v="wetland" />
		<tag k="ssr:stedsnr" v="904361" />
	</node>
	<node id="-146338" lat="60.9539972253" lon="9.51296388625">
		<tag k="landuse" v="meadow" />
		<tag k="name" v="Småsletatn" />
		<tag k="ssr:stedsnr" v="357336" />
	</node>
	<node id="-147361" lat="60.9535666634" lon="9.64828889052">
		<tag k="alt_name" v="Heimstølen" />
		<tag k="historic" v="shieling" />
		<tag k="name" v="Heimstølvollen" />
		<tag k="place" v="locality" />
		<tag k="ssr:stedsnr" v="434951" />
	</node>
	<node id="-147360" lat="60.9677638909" lon="9.67488056292">
		<tag k="alt_name" v="Kuvmyre" />
		<tag k="name" v="Stormyri" />
		<tag k="natural" v="wetland" />
		<tag k="ssr:stedsnr" v="434935" />
	</node>
	<node id="-147359" lat="60.9514333299" lon="9.75640556368">
		<tag k="historic" v="shieling" />
		<tag k="name" v="Meinset" />
		<tag k="place" v="locality" />
		<tag k="ssr:stedsnr" v="434911" />
	</node>
	<node id="-146334" lat="61.0287138909" lon="9.64447221897">
		<tag k="name" v="Hølbekkmyre" />
		<tag k="natural" v="wetland" />
		<tag k="ssr:stedsnr" v="357262" />
	</node>
	<node id="-146332" lat="61.0222138852" lon="9.64276944676">
		<tag k="name" v="Signevøllen" />
		<tag k="place" v="locality" />
		<tag k="ssr:stedsnr" v="357251" />
	</node>
	<node id="-147355" lat="60.946202774" lon="9.73643888808">
		<tag k="historic" v="shieling" />
		<tag k="name" v="Småtjernstølen" />
		<tag k="place" v="locality" />
		<tag k="ssr:stedsnr" v="434909" />
	</node>
	<node id="-146841" lat="60.8590666651" lon="9.72453334206">
		<tag k="name" v="Nylåveenge" />
		<tag k="place" v="locality" />
		<tag k="ssr:stedsnr" v="115737" />
	</node>
	<node id="-148376" lat="61.0478166705" lon="9.52910833617">
		<tag k="name" v="Flatlandslie" />
		<tag k="place" v="locality" />
		<tag k="ssr:stedsnr" v="904148" />
	</node>
	<node id="-148375" lat="61.0393833314" lon="9.53050278424">
		<tag k="name" v="Perstølmyre" />
		<tag k="natural" v="wetland" />
		<tag k="ssr:stedsnr" v="904143" />
	</node>
	<node id="-148374" lat="61.0213805564" lon="9.4754000056">
		<tag k="name" v="Nedre Vøllen" />
		<tag k="place" v="locality" />
		<tag k="ssr:stedsnr" v="904129" />
	</node>
	<node id="-146325" lat="60.9863333306" lon="9.74774166497">
		<tag k="name" v="Blesamyre" />
		<tag k="natural" v="wetland" />
		<tag k="ssr:stedsnr" v="357168" />
	</node>
	<node id="-148372" lat="61.0157805526" lon="9.50426666556">
		<tag k="name" v="Brøtaskogen" />
		<tag k="place" v="locality" />
		<tag k="ssr:stedsnr" v="904011" />
	</node>
	<node id="-146322" lat="60.885058337" lon="9.73958610858">
		<tag k="name" v="Sætermyre" />
		<tag k="natural" v="wetland" />
		<tag k="ssr:stedsnr" v="357083" />
	</node>
	<node id="-148035" lat="60.918636113" lon="9.688724999">
		<tag k="name" v="Øvrigardsmyre" />
		<tag k="natural" v="wetland" />
		<tag k="ssr:stedsnr" v="781542" />
	</node>
	<node id="-146830" lat="60.9089222179" lon="9.54773056113">
		<tag k="name" v="Øvre Stølsmyre" />
		<tag k="natural" v="wetland" />
		<tag k="ssr:stedsnr" v="115415" />
	</node>
	<node id="-148205" lat="61.0160527786" lon="9.61828056369">
		<tag k="name" v="Bergsmyratn" />
		<tag k="natural" v="wetland" />
		<tag k="ssr:stedsnr" v="843258" />
	</node>
	<node id="-148364" lat="60.8670777813" lon="9.55839165864">
		<tag k="alt_name" v="Brenntjednmyre" />
		<tag k="name" v="Brenntjernmyre" />
		<tag k="natural" v="wetland" />
		<tag k="ssr:stedsnr" v="903800" />
	</node>
	<node id="-146825" lat="60.8536027784" lon="9.77357223046">
		<tag k="name" v="Duggurdsmyratn" />
		<tag k="natural" v="wetland" />
		<tag k="ssr:stedsnr" v="115300" />
	</node>
	<node id="-146312" lat="60.9124833297" lon="9.57863889343">
		<tag k="name" v="Brølløpsmyre" />
		<tag k="natural" v="wetland" />
		<tag k="ssr:stedsnr" v="356804" />
	</node>
	<node id="-146817" lat="60.9759194416" lon="9.76671110846">
		<tag k="name" v="Stormyratn" />
		<tag k="natural" v="wetland" />
		<tag k="ssr:stedsnr" v="115190" />
	</node>
	<node id="-146304" lat="60.9065472178" lon="9.67203611089">
		<tag k="name" v="Hesjastøe" />
		<tag k="place" v="locality" />
		<tag k="ssr:stedsnr" v="356543" />
	</node>
	<node id="-146303" lat="60.9747388905" lon="9.70153888737">
		<tag k="name" v="Heimre Beinstimyre" />
		<tag k="natural" v="wetland" />
		<tag k="ssr:stedsnr" v="356540" />
	</node>
	<node id="-146302" lat="60.911427776" lon="9.70968055802">
		<tag k="name" v="Liavøllen" />
		<tag k="place" v="locality" />
		<tag k="ssr:stedsnr" v="356505" />
	</node>
	<node id="-148373" lat="61.0322083302" lon="9.50721111629">
		<tag k="name" v="Leirholomyre" />
		<tag k="natural" v="wetland" />
		<tag k="ssr:stedsnr" v="904089" />
	</node>
	<node id="-147324" lat="61.0233388875" lon="9.51199166526">
		<tag k="name" v="Hestehagin" />
		<tag k="place" v="locality" />
		<tag k="ssr:stedsnr" v="421649" />
	</node>
	<node id="-147775" lat="60.8501694418" lon="9.75988888895">
		<tag k="alt_name" v="Røirpipemyre" />
		<tag k="name" v="Røyrpipemyre" />
		<tag k="natural" v="wetland" />
		<tag k="ssr:stedsnr" v="661276" />
	</node>
	<node id="-146808" lat="61.0268111127" lon="9.50727499685">
		<tag k="name" v="Seta" />
		<tag k="place" v="locality" />
		<tag k="ssr:stedsnr" v="115098" />
	</node>
	<node id="-146294" lat="60.8975499962" lon="9.56701667045">
		<tag k="name" v="Hølbekkmyre" />
		<tag k="natural" v="wetland" />
		<tag k="ssr:stedsnr" v="356233" />
	</node>
	<node id="-146292" lat="60.9002555528" lon="9.57657499899">
		<tag k="name" v="Heggeruste" />
		<tag k="place" v="locality" />
		<tag k="ssr:stedsnr" v="356136" />
	</node>
	<node id="-147315" lat="60.8827916686" lon="9.79349166785">
		<tag k="name" v="Duggurdsbeitmyratn" />
		<tag k="natural" v="wetland" />
		<tag k="ssr:stedsnr" v="419633" />
	</node>
	<node id="-146664" lat="60.9999277776" lon="9.6847888865">
		<tag k="name" v="Røvsholmyratn" />
		<tag k="natural" v="wetland" />
		<tag k="ssr:stedsnr" v="54434" />
	</node>
	<node id="-147309" lat="60.977683335" lon="9.51942500867">
		<tag k="name" v="Dammyre" />
		<tag k="natural" v="wetland" />
		<tag k="ssr:stedsnr" v="419327" />
	</node>
	<node id="-146834" lat="60.8731000025" lon="9.78511110605">
		<tag k="alt_name" v="Sørresætermyratn" />
		<tag k="name" v="Søresætermyratn" />
		<tag k="natural" v="wetland" />
		<tag k="ssr:stedsnr" v="115596" />
	</node>
	<node id="-146280" lat="61.0285083334" lon="9.53770554844">
		<tag k="name" v="Skilnamyre" />
		<tag k="natural" v="wetland" />
		<tag k="ssr:stedsnr" v="314607" />
	</node>
	<node id="-146788" lat="60.8905138856" lon="9.61142777512">
		<tag k="landuse" v="meadow" />
		<tag k="name" v="Temmerbakkin" />
		<tag k="ssr:stedsnr" v="114523" />
	</node>
	<node id="-147942" lat="60.9186416643" lon="9.67361944931">
		<tag k="alt_name" v="Damtjednmyre" />
		<tag k="name" v="Damtjernmyre" />
		<tag k="natural" v="wetland" />
		<tag k="ssr:stedsnr" v="721520" />
	</node>
	<node id="-148321" lat="60.8988722198" lon="9.61333888683">
		<tag k="name" v="Hallatn" />
		<tag k="place" v="locality" />
		<tag k="ssr:stedsnr" v="902469" />
	</node>
	<node id="-148319" lat="60.9422638881" lon="9.56386110894">
		<tag k="name" v="Fjellhallmyre" />
		<tag k="natural" v="wetland" />
		<tag k="ssr:stedsnr" v="902446" />
	</node>
	<node id="-148318" lat="61.0911749983" lon="9.57869167051">
		<tag k="name" v="Storemyret" />
		<tag k="natural" v="wetland" />
		<tag k="ssr:stedsnr" v="902434" />
	</node>
	<node id="-148317" lat="61.0104777744" lon="9.58554444086">
		<tag k="name" v="Gråbeinmyre" />
		<tag k="natural" v="wetland" />
		<tag k="ssr:stedsnr" v="902399" />
	</node>
	<node id="-146265" lat="60.854350003" lon="9.64842778394">
		<tag k="alt_name" v="Beitemyratn" />
		<tag k="name" v="Beitesmyran" />
		<tag k="natural" v="wetland" />
		<tag k="ssr:stedsnr" v="312016" />
	</node>
	<node id="-148311" lat="60.8985472182" lon="9.59394166344">
		<tag k="name" v="Brennmelinge" />
		<tag k="place" v="locality" />
		<tag k="ssr:stedsnr" v="902255" />
	</node>
	<node id="-147795" lat="60.8639805587" lon="9.68949999107">
		<tag k="name" v="Øspelundsvee" />
		<tag k="place" v="locality" />
		<tag k="ssr:stedsnr" v="661837" />
	</node>
	<node id="-146768" lat="61.0304916649" lon="9.63094444745">
		<tag k="name" v="Rullbakk" />
		<tag k="place" v="locality" />
		<tag k="ssr:stedsnr" v="114279" />
	</node>
	<node id="-147278" lat="60.8763750017" lon="9.6798583339">
		<tag k="name" v="Hovdesvekleive" />
		<tag k="place" v="locality" />
		<tag k="ssr:stedsnr" v="418477" />
	</node>
	<node id="-147277" lat="60.8755361153" lon="9.68256387987">
		<tag k="name" v="Bjødnamyre" />
		<tag k="natural" v="wetland" />
		<tag k="ssr:stedsnr" v="418456" />
	</node>
	<node id="-147041" lat="60.9138055546" lon="9.70300277404">
		<tag k="name" v="Roveskålin" />
		<tag k="place" v="locality" />
		<tag k="ssr:stedsnr" v="235565" />
	</node>
	<node id="-147787" lat="61.0020638909" lon="9.53886666344">
		<tag k="name" v="Haugamyratn" />
		<tag k="natural" v="wetland" />
		<tag k="ssr:stedsnr" v="661610" />
	</node>
	<node id="-146249" lat="61.0885055591" lon="9.47084443891">
		<tag k="alt_name" v="Tangaflætn" />
		<tag k="name" v="Tangeflæin" />
		<tag k="natural" v="wetland" />
		<tag k="ssr:stedsnr" v="310887" />
	</node>
	<node id="-148296" lat="60.9783805587" lon="9.64312222077">
		<tag k="alt_name" v="Skrompen" />
		<tag k="landuse" v="meadow" />
		<tag k="name" v="Skrumpen" />
		<tag k="ssr:stedsnr" v="859952" />
	</node>
	<node id="-147783" lat="60.8340472247" lon="9.73380833836">
		<tag k="name" v="Nedre Hyttemyre" />
		<tag k="natural" v="wetland" />
		<tag k="ssr:stedsnr" v="661471" />
	</node>
	<node id="-146758" lat="60.9642305593" lon="9.56923610443">
		<tag k="name" v="Stallmyre" />
		<tag k="natural" v="wetland" />
		<tag k="ssr:stedsnr" v="113512" />
	</node>
	<node id="-147501" lat="60.937183336" lon="9.79202222611">
		<tag k="landuse" v="meadow" />
		<tag k="name" v="Steindavollan" />
		<tag k="ssr:stedsnr" v="552945" />
	</node>
	<node id="-148287" lat="60.8865083377" lon="9.5453861023">
		<tag k="name" v="Langemyri" />
		<tag k="natural" v="wetland" />
		<tag k="ssr:stedsnr" v="859697" />
	</node>
	<node id="-147262" lat="61.0180694443" lon="9.64170277097">
		<tag k="name" v="Geithølet" />
		<tag k="place" v="locality" />
		<tag k="ssr:stedsnr" v="418239" />
	</node>
	<node id="-147773" lat="61.0476777766" lon="9.4724416704">
		<tag k="name" v="Trandin" />
		<tag k="place" v="locality" />
		<tag k="ssr:stedsnr" v="661210" />
	</node>
	<node id="-148284" lat="60.9800083369" lon="9.6504472257">
		<tag k="name" v="Stormyri" />
		<tag k="natural" v="wetland" />
		<tag k="ssr:stedsnr" v="859626" />
	</node>
	<node id="-146747" lat="61.0103638867" lon="9.6096444452">
		<tag k="landuse" v="meadow" />
		<tag k="name" v="Øygarden" />
		<tag k="ssr:stedsnr" v="113155" />
	</node>
	<node id="-146746" lat="61.0039111105" lon="9.62237222214">
		<tag k="name" v="Stormyre" />
		<tag k="natural" v="wetland" />
		<tag k="ssr:stedsnr" v="113086" />
	</node>
	<node id="-147257" lat="61.055091666" lon="9.75030554934">
		<tag k="name" v="Øvre Bergsætermyre" />
		<tag k="natural" v="wetland" />
		<tag k="ssr:stedsnr" v="418138" />
	</node>
	<node id="-148029" lat="60.9421916698" lon="9.59520000227">
		<tag k="landuse" v="meadow" />
		<tag k="name" v="Øyatn" />
		<tag k="ssr:stedsnr" v="781408" />
	</node>
	<node id="-147759" lat="60.9246444448" lon="9.78837221592">
		<tag k="name" v="Skilnadmyre" />
		<tag k="natural" v="wetland" />
		<tag k="ssr:stedsnr" v="660781" />
	</node>
	<node id="-147758" lat="60.9132833367" lon="9.77035278297">
		<tag k="name" v="Stutlimyratn" />
		<tag k="natural" v="wetland" />
		<tag k="ssr:stedsnr" v="660732" />
	</node>
	<node id="-148266" lat="61.0607527795" lon="9.60012500925">
		<tag k="alt_name" v="Grøvmyratn" />
		<tag k="name" v="Grøvamyri" />
		<tag k="natural" v="wetland" />
		<tag k="ssr:stedsnr" v="857637" />
	</node>
	<node id="-148098" lat="60.8300222202" lon="9.7123083287">
		<tag k="name" v="Jenseskålmyre" />
		<tag k="natural" v="wetland" />
		<tag k="ssr:stedsnr" v="783664" />
	</node>
	<node id="-147750" lat="60.9964722228" lon="9.67750554794">
		<tag k="landuse" v="meadow" />
		<tag k="name" v="Vesleløo" />
		<tag k="ssr:stedsnr" v="660428" />
	</node>
	<node id="-146723" lat="61.0268666655" lon="9.53044166458">
		<tag k="name" v="Hieisåsen" />
		<tag k="place" v="locality" />
		<tag k="ssr:stedsnr" v="70566" />
	</node>
	<node id="-147233" lat="60.9101250007" lon="9.69565832939">
		<tag k="name" v="Bjørkeskålin" />
		<tag k="place" v="locality" />
		<tag k="ssr:stedsnr" v="417567" />
	</node>
	<node id="-148388" lat="60.9509694443" lon="9.53870556129">
		<tag k="name" v="Veslevøllen" />
		<tag k="place" v="locality" />
		<tag k="ssr:stedsnr" v="904364" />
	</node>
	<node id="-148252" lat="60.8349250013" lon="9.74887500037">
		<tag k="name" v="Rødningsenge" />
		<tag k="place" v="locality" />
		<tag k="ssr:stedsnr" v="844501" />
	</node>
	<node id="-147739" lat="60.8978944413" lon="9.71839167039">
		<tag k="name" v="Gåsebergmyratn" />
		<tag k="natural" v="wetland" />
		<tag k="ssr:stedsnr" v="660145" />
	</node>
	<node id="-147261" lat="61.0268472243" lon="9.58312777233">
		<tag k="alt_name" v="Nerre Dalstølen" />
		<tag k="name" v="Nedre Dalstølen" />
		<tag k="place" v="locality" />
		<tag k="ssr:stedsnr" v="418217" />
	</node>
	<node id="-147225" lat="60.9854027757" lon="9.5685611158">
		<tag k="landuse" v="meadow" />
		<tag k="name" v="Damslette" />
		<tag k="ssr:stedsnr" v="417422" />
	</node>
	<node id="-146238" lat="61.0430666629" lon="9.77812777734">
		<tag k="name" v="Skivevollene" />
		<tag k="natural" v="wetland" />
		<tag k="ssr:stedsnr" v="297864" />
	</node>
	<node id="-146198" lat="61.0480000036" lon="9.74547222997">
		<tag k="name" v="Budeimyre" />
		<tag k="natural" v="wetland" />
		<tag k="ssr:stedsnr" v="296892" />
	</node>
	<node id="-146197" lat="61.0413777754" lon="9.7446694507">
		<tag k="name" v="Havdenlykkjemyre" />
		<tag k="natural" v="wetland" />
		<tag k="ssr:stedsnr" v="296880" />
	</node>
	<node id="-147219" lat="61.027713892" lon="9.72136389206">
		<tag k="name" v="Lortelivøllatn" />
		<tag k="place" v="locality" />
		<tag k="ssr:stedsnr" v="417294" />
	</node>
	<node id="-147218" lat="61.0173444417" lon="9.7590166751">
		<tag k="alt_name" v="Sørre Vøllatn" />
		<tag k="landuse" v="meadow" />
		<tag k="name" v="Søre Vøllatn" />
		<tag k="ssr:stedsnr" v="417258" />
	</node>
	<node id="-146704" lat="61.0189055513" lon="9.67287500547">
		<tag k="alt_name" v="Glennemyre" />
		<tag k="name" v="Glennemyrane" />
		<tag k="natural" v="wetland" />
		<tag k="ssr:stedsnr" v="68333" />
	</node>
	<node id="-147727" lat="60.8964611079" lon="9.63774721577">
		<tag k="landuse" v="meadow" />
		<tag k="name" v="Tyttebærslette" />
		<tag k="ssr:stedsnr" v="659439" />
	</node>
	<node id="-148238" lat="60.913583329" lon="9.77596388431">
		<tag k="name" v="Stutlimyratn" />
		<tag k="natural" v="wetland" />
		<tag k="ssr:stedsnr" v="843833" />
	</node>
	<node id="-148013" lat="60.8962333292" lon="9.56598056105">
		<tag k="name" v="Langmyre" />
		<tag k="natural" v="wetland" />
		<tag k="ssr:stedsnr" v="781003" />
	</node>
	<node id="-146700" lat="61.0650222187" lon="9.48003889098">
		<tag k="name" v="Uråmyre" />
		<tag k="natural" v="wetland" />
		<tag k="ssr:stedsnr" v="55759" />
	</node>
	<node id="-147723" lat="61.0339111146" lon="9.55403055697">
		<tag k="landuse" v="meadow" />
		<tag k="name" v="Brattengflåe" />
		<tag k="ssr:stedsnr" v="659364" />
	</node>
	<node id="-146186" lat="60.964344447" lon="9.76855833048">
		<tag k="name" v="Veslejuvmyre" />
		<tag k="natural" v="wetland" />
		<tag k="ssr:stedsnr" v="296624" />
	</node>
	<node id="-147209" lat="60.9980750015" lon="9.62436388815">
		<tag k="name" v="Bergamyre" />
		<tag k="natural" v="wetland" />
		<tag k="ssr:stedsnr" v="416204" />
	</node>
	<node id="-147720" lat="61.0543611095" lon="9.57765000011">
		<tag k="landuse" v="meadow" />
		<tag k="name" v="Hestevøllatn" />
		<tag k="ssr:stedsnr" v="659341" />
	</node>
	<node id="-148231" lat="60.8488222265" lon="9.72102777012">
		<tag k="name" v="Dølstogmoen" />
		<tag k="place" v="locality" />
		<tag k="ssr:stedsnr" v="843768" />
	</node>
	<node id="-147841" lat="60.9674583336" lon="9.77089721391">
		<tag k="alt_name" v="Gjuvamyri, vesle" />
		<tag k="name" v="Vesle Gjuvamyri" />
		<tag k="natural" v="wetland" />
		<tag k="ssr:stedsnr" v="676949" />
	</node>
	<node id="-147926" lat="61.0262055522" lon="9.59201666403">
		<tag k="name" v="Gomyre" />
		<tag k="natural" v="wetland" />
		<tag k="ssr:stedsnr" v="721225" />
	</node>
	<node id="-147199" lat="60.8771194415" lon="9.75104444087">
		<tag k="name" v="Harabåsmyratn" />
		<tag k="natural" v="wetland" />
		<tag k="ssr:stedsnr" v="479758" />
	</node>
	<node id="-147198" lat="61.007652777" lon="9.51889721562">
		<tag k="name" v="Lundmohølet" />
		<tag k="place" v="locality" />
		<tag k="ssr:stedsnr" v="479632" />
	</node>
	<node id="-146685" lat="60.8709138868" lon="9.7544694502">
		<tag k="name" v="Snoromyre" />
		<tag k="natural" v="wetland" />
		<tag k="ssr:stedsnr" v="54884" />
	</node>
	<node id="-146170" lat="61.0015" lon="9.69371667503">
		<tag k="name" v="Beinstimyre" />
		<tag k="natural" v="wetland" />
		<tag k="ssr:stedsnr" v="296336" />
	</node>
	<node id="-146681" lat="60.9134222262" lon="9.79152499209">
		<tag k="landuse" v="meadow" />
		<tag k="name" v="Teigatn" />
		<tag k="ssr:stedsnr" v="54815" />
	</node>
	<node id="-147192" lat="60.8389361096" lon="9.74582500396">
		<tag k="name" v="Langøye" />
		<tag k="place" v="locality" />
		<tag k="ssr:stedsnr" v="479485" />
	</node>
	<node id="-147189" lat="60.9894138862" lon="9.6008999958">
		<tag k="name" v="Stormyri" />
		<tag k="natural" v="wetland" />
		<tag k="ssr:stedsnr" v="252962" />
	</node>
	<node id="-148212" lat="60.9464916649" lon="9.52917776868">
		<tag k="name" v="Stormyre" />
		<tag k="natural" v="wetland" />
		<tag k="ssr:stedsnr" v="843382" />
	</node>
	<node id="-146163" lat="60.9617749962" lon="9.65868610239">
		<tag k="name" v="Langemyre" />
		<tag k="natural" v="wetland" />
		<tag k="ssr:stedsnr" v="296142" />
	</node>
	<node id="-146680" lat="60.8678694442" lon="9.723647227">
		<tag k="name" v="Kjølskåldokke" />
		<tag k="place" v="locality" />
		<tag k="ssr:stedsnr" v="54853" />
	</node>
	<node id="-148179" lat="61.028219445" lon="9.56009443541">
		<tag k="name" v="Rennhaugløo" />
		<tag k="place" v="locality" />
		<tag k="ssr:stedsnr" v="842588" />
	</node>
	<node id="-146671" lat="61.0330138883" lon="9.61781389572">
		<tag k="name" v="Kølhusbrøtalie" />
		<tag k="place" v="locality" />
		<tag k="ssr:stedsnr" v="54282" />
	</node>
	<node id="-148206" lat="61.0321805595" lon="9.60347221354">
		<tag k="name" v="Køllsetmarke" />
		<tag k="place" v="locality" />
		<tag k="ssr:stedsnr" v="843269" />
	</node>
	<node id="-146157" lat="60.8890416645" lon="9.72326110894">
		<tag k="name" v="Puttemyre" />
		<tag k="natural" v="wetland" />
		<tag k="ssr:stedsnr" v="296049" />
	</node>
	<node id="-148203" lat="61.0183083343" lon="9.613588887">
		<tag k="name" v="Buksetrømyre" />
		<tag k="natural" v="wetland" />
		<tag k="ssr:stedsnr" v="843252" />
	</node>
	<node id="-148202" lat="61.0330777817" lon="9.55525555945">
		<tag k="name" v="Brattengflåe" />
		<tag k="place" v="locality" />
		<tag k="ssr:stedsnr" v="843246" />
	</node>
	<node id="-147176" lat="60.885558337" lon="9.56829444533">
		<tag k="alt_name" v="Stormyre" />
		<tag k="name" v="Storemyri" />
		<tag k="natural" v="wetland" />
		<tag k="ssr:stedsnr" v="251744" />
	</node>
	<node id="-146663" lat="60.922249996" lon="9.54482222938">
		<tag k="name" v="Stiklingsmyratn" />
		<tag k="natural" v="wetland" />
		<tag k="ssr:stedsnr" v="54429" />
	</node>
	<node id="-147873" lat="61.0728527746" lon="9.58886389083">
		<tag k="name" v="Nystølmyratn" />
		<tag k="natural" v="wetland" />
		<tag k="ssr:stedsnr" v="720258" />
	</node>
	<node id="-146661" lat="60.935327775" lon="9.73121110514">
		<tag k="name" v="Puttemyre" />
		<tag k="natural" v="wetland" />
		<tag k="ssr:stedsnr" v="54422" />
	</node>
	<node id="-146148" lat="60.9410638897" lon="9.59859166318">
		<tag k="landuse" v="meadow" />
		<tag k="name" v="Øyatn" />
		<tag k="ssr:stedsnr" v="295538" />
	</node>
	<node id="-147549" lat="60.9575611088" lon="9.58994722915">
		<tag k="name" v="Tomasskålin" />
		<tag k="place" v="locality" />
		<tag k="ssr:stedsnr" v="598498" />
	</node>
	<node id="-146146" lat="60.96371389" lon="9.57478610964">
		<tag k="name" v="Størrmyre" />
		<tag k="natural" v="wetland" />
		<tag k="ssr:stedsnr" v="295526" />
	</node>
	<node id="-148191" lat="61.0252694454" lon="9.50667499671">
		<tag k="name" v="Gofarjorde" />
		<tag k="place" v="locality" />
		<tag k="ssr:stedsnr" v="843090" />
	</node>
	<node id="-148188" lat="60.8853888918" lon="9.75269167469">
		<tag k="name" v="Fjellmyre" />
		<tag k="natural" v="wetland" />
		<tag k="ssr:stedsnr" v="843076" />
	</node>
	<node id="-146134" lat="60.9020027773" lon="9.55616388867">
		<tag k="name" v="Fjellkinn" />
		<tag k="natural" v="wetland" />
		<tag k="ssr:stedsnr" v="295146" />
	</node>
	<node id="-146643" lat="61.0503194431" lon="9.62459723003">
		<tag k="alt_name" v="Sørre Vøllen" />
		<tag k="name" v="Søre Vøllen" />
		<tag k="place" v="locality" />
		<tag k="ssr:stedsnr" v="53906" />
	</node>
	<node id="-147235" lat="60.917819447" lon="9.69571388683">
		<tag k="name" v="Smørslette" />
		<tag k="place" v="locality" />
		<tag k="ssr:stedsnr" v="417582" />
	</node>
	<node id="-148176" lat="60.9105777761" lon="9.70398333031">
		<tag k="name" v="Tørvmyre" />
		<tag k="natural" v="wetland" />
		<tag k="ssr:stedsnr" v="842499" />
	</node>
	<node id="-148175" lat="61.0003999968" lon="9.74026944797">
		<tag k="name" v="Holovøllatn" />
		<tag k="natural" v="wetland" />
		<tag k="ssr:stedsnr" v="842479" />
	</node>
	<node id="-146636" lat="60.9113638918" lon="9.77301667133">
		<tag k="name" v="Romyre" />
		<tag k="natural" v="wetland" />
		<tag k="ssr:stedsnr" v="53770" />
	</node>
	<node id="-148171" lat="60.8868805536" lon="9.6241250036">
		<tag k="name" v="Harabakkin" />
		<tag k="place" v="locality" />
		<tag k="ssr:stedsnr" v="842454" />
	</node>
	<node id="-147146" lat="60.9068111148" lon="9.54365555337">
		<tag k="name" v="Bessfarmyre" />
		<tag k="natural" v="wetland" />
		<tag k="ssr:stedsnr" v="479407" />
	</node>
	<node id="-146633" lat="61.0311194419" lon="9.47343611425">
		<tag k="name" v="Baklivøllen" />
		<tag k="place" v="locality" />
		<tag k="ssr:stedsnr" v="54102" />
	</node>
	<node id="-147656" lat="60.847386113" lon="9.72933055649">
		<tag k="landuse" v="meadow" />
		<tag k="name" v="Groin" />
		<tag k="ssr:stedsnr" v="600740" />
	</node>
	<node id="-148172" lat="60.8899972192" lon="9.6200972193">
		<tag k="name" v="Brøtamyre" />
		<tag k="natural" v="wetland" />
		<tag k="ssr:stedsnr" v="842472" />
	</node>
	<node id="-146209" lat="60.9876777781" lon="9.71681389434">
		<tag k="landuse" v="meadow" />
		<tag k="name" v="Holosetvøllen" />
		<tag k="ssr:stedsnr" v="297204" />
	</node>
	<node id="-146628" lat="60.9785666705" lon="9.66583333021">
		<tag k="name" v="Stormyre" />
		<tag k="natural" v="wetland" />
		<tag k="ssr:stedsnr" v="53634" />
	</node>
	<node id="-146626" lat="60.905536108" lon="9.66973055953">
		<tag k="name" v="Dammyre" />
		<tag k="natural" v="wetland" />
		<tag k="ssr:stedsnr" v="53548" />
	</node>
	<node id="-147137" lat="61.000688888" lon="9.5369944469">
		<tag k="name" v="Fuglebrenne" />
		<tag k="place" v="locality" />
		<tag k="ssr:stedsnr" v="237653" />
	</node>
	<node id="-147648" lat="60.8310611114" lon="9.76370277057">
		<tag k="name" v="Sørenghaugen" />
		<tag k="place" v="locality" />
		<tag k="ssr:stedsnr" v="600532" />
	</node>
	<node id="-148256" lat="60.8233055557" lon="9.71232500772">
		<tag k="name" v="Syvermyre" />
		<tag k="natural" v="wetland" />
		<tag k="ssr:stedsnr" v="844659" />
	</node>
	<node id="-147646" lat="60.831366663" lon="9.76847222419">
		<tag k="name" v="Haugsenge" />
		<tag k="place" v="locality" />
		<tag k="ssr:stedsnr" v="600529" />
	</node>
	<node id="-147132" lat="60.8608472218" lon="9.74528610459">
		<tag k="name" v="Nybrennmyre" />
		<tag k="natural" v="wetland" />
		<tag k="ssr:stedsnr" v="237285" />
	</node>
	<node id="-147131" lat="61.0493805585" lon="9.46815278679">
		<tag k="name" v="Trandemyre" />
		<tag k="natural" v="wetland" />
		<tag k="ssr:stedsnr" v="237211" />
	</node>
	<node id="-148210" lat="60.9324444461" lon="9.74457777322">
		<tag k="name" v="Lortholmyre" />
		<tag k="natural" v="wetland" />
		<tag k="ssr:stedsnr" v="843358" />
	</node>
	<node id="-148164" lat="61.0696333373" lon="9.5537277738">
		<tag k="name" v="Smiugardsmarke" />
		<tag k="place" v="locality" />
		<tag k="ssr:stedsnr" v="842227" />
	</node>
	<node id="-147635" lat="60.934283332" lon="9.7642722173">
		<tag k="name" v="Steindavøllatn" />
		<tag k="place" v="locality" />
		<tag k="ssr:stedsnr" v="600371" />
	</node>
	<node id="-147122" lat="61.0455666667" lon="9.76296944803">
		<tag k="alt_name" v="Nerre Bergsætermyre" />
		<tag k="name" v="Nedre Bergsætermyre" />
		<tag k="natural" v="wetland" />
		<tag k="ssr:stedsnr" v="236884" />
	</node>
	<node id="-146609" lat="60.8979083359" lon="9.57937221843">
		<tag k="name" v="Husbakkin" />
		<tag k="place" v="locality" />
		<tag k="ssr:stedsnr" v="53229" />
	</node>
	<node id="-147462" lat="61.112244445" lon="9.67408055875">
		<tag k="name" v="Blautmyre" />
		<tag k="natural" v="wetland" />
		<tag k="ssr:stedsnr" v="539721" />
	</node>
	<node id="-147630" lat="60.9877805516" lon="9.73768332926">
		<tag k="name" v="Blesamyratn" />
		<tag k="natural" v="wetland" />
		<tag k="ssr:stedsnr" v="600183" />
	</node>
	<node id="-146603" lat="60.8848555531" lon="9.58110555155">
		<tag k="landuse" v="meadow" />
		<tag k="name" v="Brunsmyre" />
		<tag k="ssr:stedsnr" v="53009" />
	</node>
	<node id="-147911" lat="60.8955888856" lon="9.69775555125">
		<tag k="name" v="Åborvassmyrane" />
		<tag k="natural" v="wetland" />
		<tag k="old_name" v="Øbbervassmyratn" />
		<tag k="ssr:stedsnr" v="721022" />
	</node>
	<node id="-147112" lat="60.8803333303" lon="9.74004721628">
		<tag k="name" v="Urdmyre" />
		<tag k="natural" v="wetland" />
		<tag k="ssr:stedsnr" v="236720" />
	</node>
	<node id="-148527" lat="60.8835055533" lon="9.76165832473">
		<tag k="name" v="Slåttemyre" />
		<tag k="natural" v="wetland" />
		<tag k="ssr:stedsnr" v="964722" />
	</node>
	<node id="-146598" lat="61.0043749978" lon="9.56832778078">
		<tag k="name" v="Personjordet" />
		<tag k="place" v="locality" />
		<tag k="ssr:stedsnr" v="52319" />
	</node>
	<node id="-147483" lat="60.8230472205" lon="9.73081666513">
		<tag k="name" v="Stormyre" />
		<tag k="natural" v="wetland" />
		<tag k="ssr:stedsnr" v="540512" />
	</node>
	<node id="-146655" lat="60.8453833325" lon="9.69182221408">
		<tag k="name" v="Slettavøllen" />
		<tag k="place" v="locality" />
		<tag k="ssr:stedsnr" v="54138" />
	</node>
	<node id="-147101" lat="60.9510500001" lon="9.54531666582">
		<tag k="landuse" v="meadow" />
		<tag k="name" v="Hansevøllen" />
		<tag k="ssr:stedsnr" v="236347" />
	</node>
	<node id="-147099" lat="61.040774998" lon="9.54813332906">
		<tag k="landuse" v="meadow" />
		<tag k="name" v="Midtslette" />
		<tag k="ssr:stedsnr" v="236257" />
	</node>
	<node id="-147140" lat="61.0780749963" lon="9.53348610311">
		<tag k="historic" v="shieling" />
		<tag k="name" v="Nyset" />
		<tag k="place" v="locality" />
		<tag k="ssr:stedsnr" v="237790" />
	</node>
	<node id="-147606" lat="60.995563889" lon="9.69063056427">
		<tag k="name" v="Trehølningen" />
		<tag k="place" v="locality" />
		<tag k="ssr:stedsnr" v="599410" />
	</node>
	<node id="-147566" lat="60.8935750015" lon="9.61508054903">
		<tag k="name" v="Vatningsmyre" />
		<tag k="natural" v="wetland" />
		<tag k="ssr:stedsnr" v="598367" />
	</node>
	<node id="-147090" lat="60.8933000023" lon="9.72287776969">
		<tag k="name" v="Gåsebergmyre" />
		<tag k="natural" v="wetland" />
		<tag k="ssr:stedsnr" v="236158" />
	</node>
	<node id="-147089" lat="60.8538527805" lon="9.66111943848">
		<tag k="name" v="Slåttmyre" />
		<tag k="natural" v="wetland" />
		<tag k="ssr:stedsnr" v="236153" />
	</node>
	<node id="-147598" lat="61.0296111068" lon="9.66336944567">
		<tag k="name" v="Slettamyre" />
		<tag k="natural" v="wetland" />
		<tag k="ssr:stedsnr" v="599258" />
	</node>
	<node id="-146797" lat="60.9080944429" lon="9.71676111912">
		<tag k="name" v="Lundsæterstrypen" />
		<tag k="natural" v="wetland" />
		<tag k="ssr:stedsnr" v="114755" />
	</node>
	<node id="-148105" lat="61.089875" lon="9.52128055198">
		<tag k="name" v="Rusland" />
		<tag k="place" v="locality" />
		<tag k="ssr:stedsnr" v="783813" />
	</node>
	<node id="-146165" lat="61.0227944476" lon="9.64305832749">
		<tag k="alt_name" v="Nørre Langedalstølen" />
		<tag k="landuse" v="meadow" />
		<tag k="name" v="Nørdre Langedalstølen" />
		<tag k="ssr:stedsnr" v="296218" />
	</node>
	<node id="-148103" lat="61.0617083369" lon="9.47070555494">
		<tag k="name" v="Høgehaugmyre" />
		<tag k="natural" v="wetland" />
		<tag k="ssr:stedsnr" v="783787" />
	</node>
	<node id="-147588" lat="60.8968166663" lon="9.76709721745">
		<tag k="name" v="Dygdedalsmyratn" />
		<tag k="natural" v="wetland" />
		<tag k="ssr:stedsnr" v="599143" />
	</node>
	<node id="-148099" lat="60.8635027799" lon="9.78049445225">
		<tag k="name" v="Tomlesætermyre" />
		<tag k="natural" v="wetland" />
		<tag k="ssr:stedsnr" v="783665" />
	</node>
	<node id="-148196" lat="60.8561555554" lon="9.70946666947">
		<tag k="name" v="Kyndesmesstein" />
		<tag k="natural" v="stone" />
		<tag k="ssr:stedsnr" v="843170" />
	</node>
	<node id="-147141" lat="61.0915083361" lon="9.54220555048">
		<tag k="name" v="Stuvelimyratn" />
		<tag k="natural" v="wetland" />
		<tag k="ssr:stedsnr" v="237798" />
	</node>
	<node id="-146965" lat="61.0620194419" lon="9.45338888375">
		<tag k="landuse" v="meadow" />
		<tag k="name" v="Skromset" />
		<tag k="ssr:stedsnr" v="176452" />
	</node>
	<node id="-147579" lat="60.8988694465" lon="9.69539445082">
		<tag k="name" v="Stamparmyratn" />
		<tag k="natural" v="wetland" />
		<tag k="ssr:stedsnr" v="599017" />
	</node>
	<node id="-147578" lat="60.9035777822" lon="9.66799445201">
		<tag k="name" v="Kloppmyratn" />
		<tag k="natural" v="wetland" />
		<tag k="ssr:stedsnr" v="599014" />
	</node>
	<node id="-148089" lat="60.8811611129" lon="9.72978889019">
		<tag k="name" v="Tomlemyratn" />
		<tag k="natural" v="wetland" />
		<tag k="ssr:stedsnr" v="782743" />
	</node>
	<node id="-147576" lat="60.9558027738" lon="9.56818056047">
		<tag k="name" v="Kjærringmyre" />
		<tag k="natural" v="wetland" />
		<tag k="ssr:stedsnr" v="598978" />
	</node>
	<node id="-148082" lat="60.9005138929" lon="9.54714443668">
		<tag k="name" v="Fjellstølmyre" />
		<tag k="natural" v="wetland" />
		<tag k="ssr:stedsnr" v="782475" />
	</node>
	<node id="-147057" lat="61.041708335" lon="9.57629166973">
		<tag k="name" v="Dalsmyre" />
		<tag k="natural" v="wetland" />
		<tag k="ssr:stedsnr" v="235364" />
	</node>
	<node id="-147852" lat="60.9606583301" lon="9.74861666709">
		<tag k="alt_name" v="Langmyre" />
		<tag k="name" v="Langmyri" />
		<tag k="natural" v="wetland" />
		<tag k="ssr:stedsnr" v="677975" />
	</node>
	<node id="-146812" lat="60.8434861153" lon="9.66018889647">
		<tag k="name" v="Ringstølmyre" />
		<tag k="natural" v="wetland" />
		<tag k="ssr:stedsnr" v="115159" />
	</node>
	<node id="-148242" lat="61.0441999985" lon="9.74580833059">
		<tag k="alt_name" v="Sørre Vøllen" />
		<tag k="name" v="Søre Vøllen" />
		<tag k="place" v="locality" />
		<tag k="ssr:stedsnr" v="843893" />
	</node>
	<node id="-148072" lat="61.0241222229" lon="9.64704445177">
		<tag k="name" v="Puttmyre" />
		<tag k="natural" v="wetland" />
		<tag k="ssr:stedsnr" v="782240" />
	</node>
	<node id="-147954" lat="61.0421444477" lon="9.51953333438">
		<tag k="landuse" v="meadow" />
		<tag k="name" v="Heimrevøllen" />
		<tag k="ssr:stedsnr" v="722160" />
	</node>
	<node id="-147045" lat="60.8846666692" lon="9.57736111432">
		<tag k="landuse" v="meadow" />
		<tag k="name" v="Tetrud" />
		<tag k="ssr:stedsnr" v="235022" />
	</node>
	<node id="-148070" lat="61.0239611115" lon="9.70101665933">
		<tag k="alt_name" v="Langtjednstrypen" />
		<tag k="name" v="Langtjernstrypen" />
		<tag k="natural" v="wetland" />
		<tag k="ssr:stedsnr" v="782224" />
	</node>
	<node id="-147647" lat="60.8282888914" lon="9.76966667449">
		<tag k="name" v="Sagbakkenge" />
		<tag k="place" v="locality" />
		<tag k="ssr:stedsnr" v="600528" />
	</node>
	<node id="-147643" lat="60.9628527773" lon="9.53739167457">
		<tag k="name" v="Lybergmyre" />
		<tag k="natural" v="wetland" />
		<tag k="ssr:stedsnr" v="600516" />
	</node>
	<node id="-148064" lat="60.8925749982" lon="9.74230278222">
		<tag k="name" v="Fetedalsmyre" />
		<tag k="natural" v="wetland" />
		<tag k="ssr:stedsnr" v="782149" />
	</node>
	<node id="-146448" lat="61.0157944444" lon="9.76175278333">
		<tag k="name" v="Stormyre" />
		<tag k="natural" v="wetland" />
		<tag k="ssr:stedsnr" v="477262" />
	</node>
	<node id="-147038" lat="60.997052774" lon="9.62425277204">
		<tag k="name" v="Graneimyre" />
		<tag k="natural" v="wetland" />
		<tag k="ssr:stedsnr" v="234212" />
	</node>
	<node id="-148061" lat="61.0415861072" lon="9.51539722795">
		<tag k="name" v="Tjednmyre" />
		<tag k="natural" v="wetland" />
		<tag k="ssr:stedsnr" v="782127" />
	</node>
	<node id="-147215" lat="61.0859555585" lon="9.62403888279">
		<tag k="landuse" v="quarry" />
		<tag k="name" v="Skiferbrudd" />
		<tag k="ssr:stedsnr" v="417072" />
	</node>
	<node id="-146519" lat="60.9062749976" lon="9.61416388278">
		<tag k="name" v="Kvithovdmyratn" />
		<tag k="natural" v="wetland" />
		<tag k="ssr:stedsnr" v="478848" />
	</node>
	<node id="-146873" lat="60.9939611076" lon="9.62540556422">
		<tag k="name" v="Brennmyri" />
		<tag k="natural" v="wetland" />
		<tag k="ssr:stedsnr" v="130733" />
	</node>
	<node id="-146513" lat="60.929172223" lon="9.66485833528">
		<tag k="name" v="Bjødnasteinen" />
		<tag k="natural" v="stone" />
		<tag k="ssr:stedsnr" v="478767" />
	</node>
	<node id="-148048" lat="60.9633611117" lon="9.65746388881">
		<tag k="name" v="Endeløyse" />
		<tag k="natural" v="wetland" />
		<tag k="ssr:stedsnr" v="781865" />
	</node>
	<node id="-146143" lat="61.0044833347" lon="9.51926945319">
		<tag k="name" v="Kallebrøtin" />
		<tag k="place" v="locality" />
		<tag k="ssr:stedsnr" v="297623" />
	</node>
	<node id="-146168" lat="61.0016777809" lon="9.67778055325">
		<tag k="name" v="Brusvemyrhaugen" />
		<tag k="place" v="locality" />
		<tag k="ssr:stedsnr" v="296330" />
	</node>
	<node id="-147042" lat="60.9150277822" lon="9.69421666421">
		<tag k="name" v="Olaskålin" />
		<tag k="place" v="locality" />
		<tag k="ssr:stedsnr" v="235575" />
	</node>
	<node id="-148042" lat="60.9251222235" lon="9.69526667043">
		<tag k="alt_name" v="Staklimyre" />
		<tag k="name" v="Stakklimyre" />
		<tag k="natural" v="wetland" />
		<tag k="ssr:stedsnr" v="781728" />
	</node>
	<node id="-146501" lat="61.0048055531" lon="9.7055138803">
		<tag k="name" v="Blekkemyratn" />
		<tag k="natural" v="wetland" />
		<tag k="ssr:stedsnr" v="478385" />
	</node>
	<node id="-146500" lat="61.0080527734" lon="9.70258888509">
		<tag k="name" v="Liavøllatn" />
		<tag k="place" v="locality" />
		<tag k="ssr:stedsnr" v="478383" />
	</node>
	<node id="-148547" lat="61.0103388897" lon="9.51666667384">
		<tag k="name" v="Dekkatn" />
		<tag k="place" v="locality" />
		<tag k="ssr:stedsnr" v="965651" />
	</node>
	<node id="-148034" lat="60.9749888909" lon="9.71032221745">
		<tag k="name" v="Austre Beinstimyre" />
		<tag k="natural" v="wetland" />
		<tag k="ssr:stedsnr" v="781535" />
	</node>
	<node id="-146495" lat="61.0637055546" lon="9.55868334078">
		<tag k="landuse" v="meadow" />
		<tag k="name" v="Eivindrudningen" />
		<tag k="ssr:stedsnr" v="478345" />
	</node>
	<node id="-146494" lat="61.0208916692" lon="9.73434445245">
		<tag k="alt_name" v="Nørre Vøllatn" />
		<tag k="landuse" v="meadow" />
		<tag k="name" v="Nørdre Vøllatn" />
		<tag k="ssr:stedsnr" v="478255" />
	</node>
	<node id="-148541" lat="61.0540583306" lon="9.48863333985">
		<tag k="name" v="Staksløomyre" />
		<tag k="natural" v="wetland" />
		<tag k="ssr:stedsnr" v="965215" />
	</node>
	<node id="-148539" lat="61.0522777751" lon="9.5253305613">
		<tag k="alt_name" v="Sørre Hukalie" />
		<tag k="name" v="Søre Hukalie" />
		<tag k="place" v="locality" />
		<tag k="ssr:stedsnr" v="965132" />
	</node>
	<node id="-147782" lat="60.8919611153" lon="9.54368055189">
		<tag k="alt_name" v="Flåtjednmyratn" />
		<tag k="name" v="Flåtjernmyratn" />
		<tag k="natural" v="wetland" />
		<tag k="ssr:stedsnr" v="661396" />
	</node>
	<node id="-146487" lat="60.9053111079" lon="9.72998888021">
		<tag k="name" v="Lundsætermyre" />
		<tag k="natural" v="wetland" />
		<tag k="ssr:stedsnr" v="478121" />
	</node>
	<node id="-146486" lat="60.8424500007" lon="9.68086666311">
		<tag k="name" v="Gildremyre" />
		<tag k="natural" v="wetland" />
		<tag k="ssr:stedsnr" v="478118" />
	</node>
	<node id="-146435" lat="60.9613638927" lon="9.62442222773">
		<tag k="name" v="Tangen" />
		<tag k="place" v="locality" />
		<tag k="ssr:stedsnr" v="373964" />
	</node>
	<node id="-146526" lat="61.052080557" lon="9.47167499614">
		<tag k="name" v="Slettingsdalmyre" />
		<tag k="natural" v="wetland" />
		<tag k="ssr:stedsnr" v="479219" />
	</node>
	<node id="-146481" lat="60.9204749964" lon="9.63088888124">
		<tag k="name" v="Gjeitsvee" />
		<tag k="place" v="locality" />
		<tag k="ssr:stedsnr" v="478072" />
	</node>
	<node id="-147504" lat="60.9652166663" lon="9.52974722795">
		<tag k="name" v="Sigurdmyre" />
		<tag k="natural" v="wetland" />
		<tag k="ssr:stedsnr" v="553542" />
	</node>
	<node id="-146184" lat="60.8327027791" lon="9.7604861121">
		<tag k="name" v="Nørstebøenge" />
		<tag k="place" v="locality" />
		<tag k="ssr:stedsnr" v="296573" />
	</node>
	<node id="-146477" lat="60.8857583304" lon="9.69588332597">
		<tag k="name" v="Kyrdokke" />
		<tag k="place" v="locality" />
		<tag k="ssr:stedsnr" v="478005" />
	</node>
	<node id="-148523" lat="60.8362388853" lon="9.68255556064">
		<tag k="name" v="Langmyre" />
		<tag k="natural" v="wetland" />
		<tag k="ssr:stedsnr" v="964644" />
	</node>
	<node id="-148395" lat="61.006727775" lon="9.50970834231">
		<tag k="name" v="Brennahaugen" />
		<tag k="place" v="locality" />
		<tag k="ssr:stedsnr" v="904605" />
	</node>
	<node id="-146469" lat="60.8739777749" lon="9.5967277778">
		<tag k="alt_name" v="Gørrtjednmyratn" />
		<tag k="name" v="Gørrtjernmyratn" />
		<tag k="natural" v="wetland" />
		<tag k="ssr:stedsnr" v="477874" />
	</node>
	<node id="-147492" lat="60.8818416644" lon="9.75745556029">
		<tag k="name" v="Åmyre" />
		<tag k="natural" v="wetland" />
		<tag k="ssr:stedsnr" v="540734" />
	</node>
	<node id="-148515" lat="61.0685055572" lon="9.54659166417">
		<tag k="name" v="Smiugardsmarka" />
		<tag k="place" v="locality" />
		<tag k="ssr:stedsnr" v="964478" />
	</node>
	<node id="-146466" lat="61.012663891" lon="9.58246111525">
		<tag k="name" v="Kloppemyre" />
		<tag k="natural" v="wetland" />
		<tag k="ssr:stedsnr" v="477607" />
	</node>
	<node id="-147489" lat="61.0095944446" lon="9.53943888704">
		<tag k="name" v="Brøtatn" />
		<tag k="place" v="locality" />
		<tag k="ssr:stedsnr" v="540636" />
	</node>
	<node id="-146976" lat="60.8633055556" lon="9.72231111422">
		<tag k="name" v="Sandmælingen" />
		<tag k="place" v="locality" />
		<tag k="ssr:stedsnr" v="176813" />
	</node>
	<node id="-146462" lat="60.9077666701" lon="9.70880554924">
		<tag k="name" v="Flæten" />
		<tag k="natural" v="wetland" />
		<tag k="ssr:stedsnr" v="477539" />
	</node>
	<node id="-147717" lat="60.8868472265" lon="9.58198889027">
		<tag k="name" v="Stølsjordmyre" />
		<tag k="natural" v="wetland" />
		<tag k="ssr:stedsnr" v="659016" />
	</node>
	<node id="-148507" lat="60.8943833332" lon="9.75782499741">
		<tag k="name" v="Grasmyre" />
		<tag k="natural" v="wetland" />
		<tag k="ssr:stedsnr" v="964186" />
	</node>
	<node id="-147545" lat="60.897258332" lon="9.59883888293">
		<tag k="name" v="Liavollatn" />
		<tag k="place" v="locality" />
		<tag k="ssr:stedsnr" v="598412" />
	</node>
	<node id="-146452" lat="61.0120916694" lon="9.62014444737">
		<tag k="name" v="Stormyre" />
		<tag k="natural" v="wetland" />
		<tag k="ssr:stedsnr" v="477172" />
	</node>
	<node id="-147475" lat="61.0425999992" lon="9.52268889139">
		<tag k="landuse" v="meadow" />
		<tag k="name" v="Skutløovøllen" />
		<tag k="ssr:stedsnr" v="540154" />
	</node>
	<node id="-146962" lat="60.8615388851" lon="9.75496667048">
		<tag k="name" v="Gråbeinmyre" />
		<tag k="natural" v="wetland" />
		<tag k="ssr:stedsnr" v="176267" />
	</node>
	<node id="-147473" lat="61.0352138855" lon="9.54898055686">
		<tag k="name" v="Sletten" />
		<tag k="place" v="locality" />
		<tag k="ssr:stedsnr" v="540144" />
	</node>
	<node id="-147203" lat="60.8690916637" lon="9.73157500891">
		<tag k="name" v="Midtstein" />
		<tag k="natural" v="stone" />
		<tag k="ssr:stedsnr" v="479839" />
	</node>
	<node id="-146956" lat="61.0490805598" lon="9.66603332432">
		<tag k="name" v="Steinfotmyratn" />
		<tag k="natural" v="wetland" />
		<tag k="ssr:stedsnr" v="175928" />
	</node>
	<node id="-148491" lat="60.9512583299" lon="9.67916388533">
		<tag k="name" v="Langemyre" />
		<tag k="natural" v="wetland" />
		<tag k="ssr:stedsnr" v="963867" />
	</node>
	<node id="-147466" lat="61.04355278" lon="9.73781388186">
		<tag k="name" v="Madslangrudvøllen" />
		<tag k="place" v="locality" />
		<tag k="ssr:stedsnr" v="539921" />
	</node>
	<node id="-147799" lat="61.0290833374" lon="9.53088611197">
		<tag k="name" v="Puttemyre" />
		<tag k="natural" v="wetland" />
		<tag k="ssr:stedsnr" v="663620" />
	</node>
	<node id="-148486" lat="60.9184333365" lon="9.75835833677">
		<tag k="name" v="Telefonmyre" />
		<tag k="natural" v="wetland" />
		<tag k="ssr:stedsnr" v="963730" />
	</node>
	<node id="-148483" lat="60.9637805582" lon="9.55240276916">
		<tag k="name" v="Elgmyratn" />
		<tag k="natural" v="wetland" />
		<tag k="ssr:stedsnr" v="963618" />
	</node>
	<node id="-146434" lat="60.9705361093" lon="9.72608334059">
		<tag k="name" v="Myrstølmyran" />
		<tag k="natural" v="wetland" />
		<tag k="ssr:stedsnr" v="373961" />
	</node>
	<node id="-148481" lat="60.9365027796" lon="9.59878332489">
		<tag k="name" v="Åsskogen" />
		<tag k="place" v="locality" />
		<tag k="ssr:stedsnr" v="963601" />
	</node>
</osm>
