<?xml version="1.0" encoding="UTF-8"?>
<osm generator="osmapis" version="0.6">
	<node id="-147444" lat="60.8593166647" lon="9.69565834041">
		<tag k="name" v="Karussdalen" />
		<tag k="natural" v="valley" />
		<tag k="place" v="locality" />
		<tag k="ssr:stedsnr" v="539124" />
	</node>
	<node id="-147443" lat="60.8567416664" lon="9.69705555146">
		<tag k="name" v="Maradalen" />
		<tag k="natural" v="valley" />
		<tag k="place" v="locality" />
		<tag k="ssr:stedsnr" v="539117" />
	</node>
	<node id="-147441" lat="60.84256111" lon="9.71129999369">
		<tag k="name" v="Liaberget" />
		<tag k="natural" v="cliff" />
		<tag k="ssr:stedsnr" v="539094" />
	</node>
	<node id="-147440" lat="60.8885416684" lon="9.68544165818">
		<tag k="name" v="Fløgeisberget" />
		<tag k="natural" v="cliff" />
		<tag k="ssr:stedsnr" v="539092" />
	</node>
	<node id="-147438" lat="60.896869445" lon="9.66086666615">
		<tag k="name" v="Kleivaberget" />
		<tag k="natural" v="cliff" />
		<tag k="ssr:stedsnr" v="539016" />
	</node>
	<node id="-147435" lat="60.8820277751" lon="9.56010833092">
		<tag k="name" v="Samelstadknatten" />
		<tag k="natural" v="hill" />
		<tag k="place" v="locality" />
		<tag k="ssr:stedsnr" v="538843" />
	</node>
	<node id="-147433" lat="60.9055611124" lon="9.55783056315">
		<tag k="name" v="Klavadalen" />
		<tag k="natural" v="valley" />
		<tag k="place" v="locality" />
		<tag k="ssr:stedsnr" v="538824" />
	</node>
	<node id="-147431" lat="61.0226472184" lon="9.58904444998">
		<tag k="name" v="Huggustup" />
		<tag k="natural" v="cliff" />
		<tag k="ssr:stedsnr" v="538609" />
	</node>
	<node id="-147430" lat="61.0210138906" lon="9.55669166058">
		<tag k="name" v="Hovdalie" />
		<tag k="natural" v="slope" />
		<tag k="place" v="locality" />
		<tag k="ssr:stedsnr" v="538606" />
	</node>
	<node id="-147421" lat="60.8927555564" lon="9.64436388267">
		<tag k="name" v="Slettaknatten" />
		<tag k="natural" v="hill" />
		<tag k="place" v="locality" />
		<tag k="ssr:stedsnr" v="538338" />
	</node>
	<node id="-147416" lat="60.8874805533" lon="9.5745027812">
		<tag k="alt_name" v="Gravatjednhaugen" />
		<tag k="name" v="Gravatjernhaugen" />
		<tag k="natural" v="hill" />
		<tag k="place" v="locality" />
		<tag k="ssr:stedsnr" v="538017" />
	</node>
	<node id="-147414" lat="60.9967527769" lon="9.59546110849">
		<tag k="fixme" v="consider natural=peak for the most distinct mountains in the district" />
		<tag k="name" v="Solbjørgåsen" />
		<tag k="natural" v="hill" />
		<tag k="place" v="locality" />
		<tag k="ssr:stedsnr" v="537201" />
	</node>
	<node id="-147405" lat="60.9898750025" lon="9.69920555579">
		<tag k="fixme" v="consider natural=peak for the most distinct mountains in the district" />
		<tag k="name" v="Granstølhøgdi" />
		<tag k="natural" v="hill" />
		<tag k="place" v="locality" />
		<tag k="ssr:stedsnr" v="495973" />
	</node>
	<node id="-147401" lat="60.9032000038" lon="9.58685832434">
		<tag k="alt_name" v="Fjellsvardin" />
		<tag k="fixme" v="consider natural=peak for the most distinct mountains in the district" />
		<tag k="name" v="Fjellsvarden" />
		<tag k="natural" v="hill" />
		<tag k="place" v="locality" />
		<tag k="ssr:stedsnr" v="495721" />
	</node>
	<node id="-147398" lat="60.9532861107" lon="9.67791666572">
		<tag k="alt_name" v="Storhøgdehaugen;Storehøgahaugen" />
		<tag k="fixme" v="consider natural=peak for the most distinct mountains in the district" />
		<tag k="name" v="Storehøghaugen" />
		<tag k="natural" v="hill" />
		<tag k="place" v="locality" />
		<tag k="ssr:stedsnr" v="494959" />
	</node>
	<node id="-147396" lat="60.9225416662" lon="9.72561944913">
		<tag k="alt_name" v="Bjødnahaugen" />
		<tag k="fixme" v="consider natural=peak for the most distinct mountains in the district" />
		<tag k="name" v="Langvassåsen" />
		<tag k="natural" v="hill" />
		<tag k="place" v="locality" />
		<tag k="ssr:stedsnr" v="494893" />
	</node>
	<node id="-147394" lat="60.8723916647" lon="9.56723333953">
		<tag k="alt_name" v="Øyangslii" />
		<tag k="name" v="Øyangslie" />
		<tag k="natural" v="slope" />
		<tag k="old_name" v="Øygangslii" />
		<tag k="place" v="locality" />
		<tag k="ssr:stedsnr" v="494636" />
	</node>
	<node id="-147392" lat="60.9618444441" lon="9.50924443642">
		<tag k="fixme" v="consider natural=peak for the most distinct mountains in the district" />
		<tag k="name" v="Kyrkjeknatten" />
		<tag k="natural" v="hill" />
		<tag k="place" v="locality" />
		<tag k="ssr:stedsnr" v="494562" />
	</node>
	<node id="-147391" lat="60.9604638933" lon="9.53279166177">
		<tag k="fixme" v="consider natural=peak for the most distinct mountains in the district" />
		<tag k="name" v="Svarteberget" />
		<tag k="natural" v="hill" />
		<tag k="place" v="locality" />
		<tag k="ssr:stedsnr" v="494560" />
	</node>
	<node id="-147389" lat="60.9334861068" lon="9.57831945191">
		<tag k="fixme" v="consider natural=peak for the most distinct mountains in the district" />
		<tag k="name" v="Espelifjellet" />
		<tag k="natural" v="hill" />
		<tag k="place" v="locality" />
		<tag k="ssr:stedsnr" v="494508" />
	</node>
	<node id="-147388" lat="60.9690722225" lon="9.57916943658">
		<tag k="fixme" v="consider natural=peak for the most distinct mountains in the district" />
		<tag k="name" v="Svarteberget" />
		<tag k="natural" v="hill" />
		<tag k="place" v="locality" />
		<tag k="ssr:stedsnr" v="494319" />
	</node>
	<node id="-147380" lat="60.8701999981" lon="9.66929721827">
		<tag k="alt_name" v="Hovdetoppen" />
		<tag k="fixme" v="consider natural=peak for the most distinct mountains in the district" />
		<tag k="name" v="Hovdeberget" />
		<tag k="natural" v="hill" />
		<tag k="place" v="locality" />
		<tag k="ssr:stedsnr" v="494035" />
	</node>
	<node id="-147379" lat="60.8560749991" lon="9.70765554651">
		<tag k="fixme" v="consider natural=peak for the most distinct mountains in the district" />
		<tag k="name" v="Storstein" />
		<tag k="natural" v="hill" />
		<tag k="place" v="locality" />
		<tag k="ssr:stedsnr" v="494019" />
	</node>
	<node id="-147376" lat="61.0159777773" lon="9.53917778605">
		<tag k="name" v="Hovdahaugen" />
		<tag k="natural" v="hill" />
		<tag k="place" v="locality" />
		<tag k="ssr:stedsnr" v="493530" />
	</node>
	<node id="-147368" lat="61.0819888848" lon="9.71462777567">
		<tag k="fixme" v="consider natural=peak for the most distinct mountains in the district" />
		<tag k="name" v="Nordre Lenningen" />
		<tag k="natural" v="hill" />
		<tag k="place" v="locality" />
		<tag k="ssr:stedsnr" v="482817" />
	</node>
	<node id="-147367" lat="61.0176777794" lon="9.52442499688">
		<tag k="name" v="Bjødnabakkatn" />
		<tag k="natural" v="slope" />
		<tag k="place" v="locality" />
		<tag k="ssr:stedsnr" v="481685" />
	</node>
	<node id="-147366" lat="61.0313055532" lon="9.53203332536">
		<tag k="fixme" v="consider natural=peak for the most distinct mountains in the district" />
		<tag k="name" v="Langeberget" />
		<tag k="natural" v="hill" />
		<tag k="place" v="locality" />
		<tag k="ssr:stedsnr" v="481614" />
	</node>
	<node id="-147363" lat="60.986894446" lon="9.66619167026">
		<tag k="name" v="Djupedalslie" />
		<tag k="natural" v="slope" />
		<tag k="place" v="locality" />
		<tag k="ssr:stedsnr" v="451635" />
	</node>
	<node id="-147362" lat="60.9797333336" lon="9.64275556151">
		<tag k="fixme" v="consider natural=peak for the most distinct mountains in the district" />
		<tag k="name" v="Nystølåsen" />
		<tag k="natural" v="hill" />
		<tag k="place" v="locality" />
		<tag k="ssr:stedsnr" v="434971" />
	</node>
	<node id="-147357" lat="60.9924861105" lon="9.61996110683">
		<tag k="fixme" v="consider natural=peak for the most distinct mountains in the district" />
		<tag k="name" v="Holbakkan" />
		<tag k="natural" v="hill" />
		<tag k="place" v="locality" />
		<tag k="ssr:stedsnr" v="434732" />
	</node>
	<node id="-147352" lat="60.9341694476" lon="9.67789722019">
		<tag k="name" v="Kristofferdalen" />
		<tag k="natural" v="valley" />
		<tag k="place" v="locality" />
		<tag k="ssr:stedsnr" v="434854" />
	</node>
	<node id="-147913" lat="60.8492305542" lon="9.70690277474">
		<tag k="name" v="Heskinhyttegruva" />
		<tag k="place" v="locality" />
		<tag k="ssr:stedsnr" v="721098" />
	</node>
	<node id="-147350" lat="61.0266333313" lon="9.54370833693">
		<tag k="name" v="Liaberget" />
		<tag k="natural" v="cliff" />
		<tag k="ssr:stedsnr" v="433570" />
	</node>
	<node id="-147334" lat="61.0610083299" lon="9.4792499998">
		<tag k="alt_name" v="Høgehaugatn" />
		<tag k="name" v="Høgehøgdi" />
		<tag k="natural" v="hill" />
		<tag k="place" v="locality" />
		<tag k="ssr:stedsnr" v="432570" />
	</node>
	<node id="-147330" lat="61.0234277766" lon="9.7255777699">
		<tag k="alt_name" v="Blåskreohøgde" />
		<tag k="name" v="Blåskriuhøgdi" />
		<tag k="natural" v="hill" />
		<tag k="place" v="locality" />
		<tag k="ssr:stedsnr" v="432298" />
	</node>
	<node id="-147328" lat="61.0686194428" lon="9.69229444484">
		<tag k="fixme" v="consider natural=peak for the most distinct mountains in the district" />
		<tag k="name" v="Ryggetrøfjellet" />
		<tag k="natural" v="hill" />
		<tag k="place" v="locality" />
		<tag k="ssr:stedsnr" v="432616" />
	</node>
	<node id="-147327" lat="61.0603611153" lon="9.43860277623">
		<tag k="name" v="Bergsbakkhaugen" />
		<tag k="natural" v="hill" />
		<tag k="place" v="locality" />
		<tag k="ssr:stedsnr" v="421910" />
	</node>
	<node id="-147321" lat="60.8716611105" lon="9.742941666">
		<tag k="name" v="Kongshølet" />
		<tag k="natural" v="valley" />
		<tag k="place" v="locality" />
		<tag k="ssr:stedsnr" v="419811" />
	</node>
	<node id="-147320" lat="61.0781861073" lon="9.55033610396">
		<tag k="name" v="Hovda" />
		<tag k="natural" v="hill" />
		<tag k="place" v="locality" />
		<tag k="ssr:stedsnr" v="419792" />
	</node>
	<node id="-147319" lat="60.8746249956" lon="9.74923611705">
		<tag k="name" v="Råseberget" />
		<tag k="natural" v="slope" />
		<tag k="place" v="locality" />
		<tag k="ssr:stedsnr" v="419759" />
	</node>
	<node id="-147318" lat="60.8834555564" lon="9.74192500452">
		<tag k="name" v="Sandbakkin" />
		<tag k="natural" v="hill" />
		<tag k="place" v="locality" />
		<tag k="ssr:stedsnr" v="419754" />
	</node>
	<node id="-147317" lat="60.8383472191" lon="9.70719722678">
		<tag k="name" v="Sjåheimberget" />
		<tag k="natural" v="cliff" />
		<tag k="ssr:stedsnr" v="419689" />
	</node>
	<node id="-147316" lat="60.8392666708" lon="9.68383332489">
		<tag k="alt_name" v="Sørre Midtsæterhøgde" />
		<tag k="name" v="Søre Midtsæterhøgde" />
		<tag k="natural" v="hill" />
		<tag k="place" v="locality" />
		<tag k="ssr:stedsnr" v="419669" />
	</node>
	<node id="-147312" lat="60.9635333318" lon="9.50999722128">
		<tag k="name" v="Austre Kinndalen" />
		<tag k="natural" v="valley" />
		<tag k="place" v="locality" />
		<tag k="ssr:stedsnr" v="419530" />
	</node>
	<node id="-147311" lat="60.8266138903" lon="9.73691111563">
		<tag k="name" v="Leikhøgde" />
		<tag k="natural" v="hill" />
		<tag k="place" v="locality" />
		<tag k="ssr:stedsnr" v="419509" />
	</node>
	<node id="-147308" lat="60.85580833" lon="9.74903332611">
		<tag k="name" v="Meberget" />
		<tag k="natural" v="slope" />
		<tag k="place" v="locality" />
		<tag k="ssr:stedsnr" v="419294" />
	</node>
	<node id="-147307" lat="61.0371916664" lon="9.45716388865">
		<tag k="name" v="Hukaslette" />
		<tag k="place" v="locality" />
		<tag k="ssr:stedsnr" v="419291" />
	</node>
	<node id="-147301" lat="60.8696472229" lon="9.61548610513">
		<tag k="name" v="Marsteinhøgde" />
		<tag k="natural" v="hill" />
		<tag k="place" v="locality" />
		<tag k="ssr:stedsnr" v="418972" />
	</node>
	<node id="-147299" lat="60.9537749999" lon="9.66825000844">
		<tag k="name" v="Heimstølkleive" />
		<tag k="place" v="locality" />
		<tag k="ssr:stedsnr" v="418822" />
	</node>
	<node id="-147298" lat="60.91798333" lon="9.78224999976">
		<tag k="name" v="Ørmebakkin" />
		<tag k="natural" v="slope" />
		<tag k="place" v="locality" />
		<tag k="ssr:stedsnr" v="418815" />
	</node>
	<node id="-147296" lat="60.9205805512" lon="9.78306944359">
		<tag k="alt_name" v="Pillartjednhalle" />
		<tag k="name" v="Pillartjernhalle" />
		<tag k="natural" v="slope" />
		<tag k="place" v="locality" />
		<tag k="ssr:stedsnr" v="418791" />
	</node>
	<node id="-147292" lat="60.8550083322" lon="9.7196388837">
		<tag k="name" v="Geiteryggen" />
		<tag k="place" v="locality" />
		<tag k="ssr:stedsnr" v="418732" />
	</node>
	<node id="-147286" lat="60.9685527755" lon="9.71547777541">
		<tag k="name" v="Turrhaugen" />
		<tag k="natural" v="hill" />
		<tag k="place" v="locality" />
		<tag k="ssr:stedsnr" v="418642" />
	</node>
	<node id="-147284" lat="60.8407444475" lon="9.75476944187">
		<tag k="name" v="Gullstein" />
		<tag k="place" v="locality" />
		<tag k="ssr:stedsnr" v="418577" />
	</node>
	<node id="-147283" lat="60.8397499986" lon="9.75772777139">
		<tag k="name" v="Liadalen" />
		<tag k="natural" v="valley" />
		<tag k="place" v="locality" />
		<tag k="ssr:stedsnr" v="418571" />
	</node>
	<node id="-147282" lat="60.9227111075" lon="9.71157221477">
		<tag k="name" v="Følongberget" />
		<tag k="natural" v="slope" />
		<tag k="place" v="locality" />
		<tag k="ssr:stedsnr" v="418535" />
	</node>
	<node id="-147276" lat="60.99906111" lon="9.71180278476">
		<tag k="name" v="Høghalle" />
		<tag k="natural" v="hill" />
		<tag k="place" v="locality" />
		<tag k="ssr:stedsnr" v="418408" />
	</node>
	<node id="-147274" lat="60.9372833289" lon="9.71815555523">
		<tag k="name" v="Flein" />
		<tag k="natural" v="hill" />
		<tag k="place" v="locality" />
		<tag k="ssr:stedsnr" v="418395" />
	</node>
	<node id="-147269" lat="61.0076499964" lon="9.66868056461">
		<tag k="name" v="Åfetstøllie" />
		<tag k="natural" v="slope" />
		<tag k="place" v="locality" />
		<tag k="ssr:stedsnr" v="418370" />
	</node>
	<node id="-147267" lat="60.9336444442" lon="9.74700554878">
		<tag k="name" v="Flatehøgde" />
		<tag k="natural" v="hill" />
		<tag k="place" v="locality" />
		<tag k="ssr:stedsnr" v="418351" />
	</node>
	<node id="-147265" lat="61.0333750039" lon="9.66470556481">
		<tag k="name" v="Slettahaugen" />
		<tag k="natural" v="hill" />
		<tag k="place" v="locality" />
		<tag k="ssr:stedsnr" v="418289" />
	</node>
	<node id="-147258" lat="61.0501555535" lon="9.71709444185">
		<tag k="name" v="Hafsenndalen" />
		<tag k="natural" v="valley" />
		<tag k="place" v="locality" />
		<tag k="ssr:stedsnr" v="418144" />
	</node>
	<node id="-147255" lat="61.0697944454" lon="9.7132416655">
		<tag k="name" v="Harahytthaugatn" />
		<tag k="natural" v="hill" />
		<tag k="place" v="locality" />
		<tag k="ssr:stedsnr" v="418130" />
	</node>
	<node id="-147252" lat="60.8507944482" lon="9.66766388073">
		<tag k="name" v="Hersjadalen" />
		<tag k="natural" v="valley" />
		<tag k="place" v="locality" />
		<tag k="ssr:stedsnr" v="418122" />
	</node>
	<node id="-147251" lat="60.8448222239" lon="9.70658333656">
		<tag k="name" v="Heimhølet" />
		<tag k="natural" v="valley" />
		<tag k="place" v="locality" />
		<tag k="ssr:stedsnr" v="418107" />
	</node>
	<node id="-147249" lat="60.8909944472" lon="9.76310833119">
		<tag k="name" v="Bergevassdalen" />
		<tag k="natural" v="valley" />
		<tag k="place" v="locality" />
		<tag k="ssr:stedsnr" v="418063" />
	</node>
	<node id="-147248" lat="60.8937472232" lon="9.69766111206">
		<tag k="name" v="Åborvasshøgde" />
		<tag k="natural" v="hill" />
		<tag k="old_name" v="Øbbervasshøgde" />
		<tag k="place" v="locality" />
		<tag k="ssr:stedsnr" v="418026" />
	</node>
	<node id="-147247" lat="60.8962472261" lon="9.69190832614">
		<tag k="fixme" v="consider natural=peak for the most distinct mountains in the district" />
		<tag k="name" v="Åborvassberget" />
		<tag k="natural" v="hill" />
		<tag k="old_name" v="Øbbervassberget" />
		<tag k="place" v="locality" />
		<tag k="ssr:stedsnr" v="418018" />
	</node>
	<node id="-147243" lat="60.8527138861" lon="9.573049997">
		<tag k="name" v="Tyrihaugen" />
		<tag k="natural" v="hill" />
		<tag k="place" v="locality" />
		<tag k="ssr:stedsnr" v="417906" />
	</node>
	<node id="-147242" lat="60.9187694462" lon="9.6492972184">
		<tag k="name" v="Kleivaberget" />
		<tag k="natural" v="cliff" />
		<tag k="ssr:stedsnr" v="417893" />
	</node>
	<node id="-147239" lat="60.8679694466" lon="9.59939721766">
		<tag k="name" v="Gåsehushøgde" />
		<tag k="natural" v="hill" />
		<tag k="place" v="locality" />
		<tag k="ssr:stedsnr" v="417849" />
	</node>
	<node id="-147238" lat="60.9054444457" lon="9.55355277258">
		<tag k="name" v="Fjellkinnkøllin" />
		<tag k="natural" v="hill" />
		<tag k="place" v="locality" />
		<tag k="ssr:stedsnr" v="417836" />
	</node>
	<node id="-147229" lat="61.0907805589" lon="9.58504444204">
		<tag k="name" v="Smørhalle" />
		<tag k="place" v="locality" />
		<tag k="ssr:stedsnr" v="417440" />
	</node>
	<node id="-147226" lat="60.9854027782" lon="9.55562499722">
		<tag k="name" v="Solbrekklie" />
		<tag k="natural" v="slope" />
		<tag k="place" v="locality" />
		<tag k="ssr:stedsnr" v="417423" />
	</node>
	<node id="-147224" lat="60.9870277792" lon="9.58559444401">
		<tag k="fixme" v="consider natural=peak for the most distinct mountains in the district" />
		<tag k="name" v="Solbjørgåsen" />
		<tag k="natural" v="hill" />
		<tag k="place" v="locality" />
		<tag k="ssr:stedsnr" v="417417" />
	</node>
	<node id="-147223" lat="60.9893888881" lon="9.58750555503">
		<tag k="fixme" v="consider natural=peak for the most distinct mountains in the district" />
		<tag k="name" v="Høgbrenne" />
		<tag k="natural" v="hill" />
		<tag k="place" v="locality" />
		<tag k="ssr:stedsnr" v="417418" />
	</node>
	<node id="-147204" lat="60.8652055544" lon="9.68729721833">
		<tag k="name" v="Øspelundsvegrettin" />
		<tag k="natural" v="hill" />
		<tag k="place" v="locality" />
		<tag k="ssr:stedsnr" v="479847" />
	</node>
	<node id="-147197" lat="60.8559388853" lon="9.78402777135">
		<tag k="alt_name" v="Kjøotjednsknatten" />
		<tag k="name" v="Kjøetjernsknatten" />
		<tag k="natural" v="hill" />
		<tag k="place" v="locality" />
		<tag k="ssr:stedsnr" v="479580" />
	</node>
	<node id="-147194" lat="61.0666666659" lon="9.42953610996">
		<tag k="name" v="Hyllebakkatn" />
		<tag k="natural" v="slope" />
		<tag k="place" v="locality" />
		<tag k="ssr:stedsnr" v="268896" />
	</node>
	<node id="-147184" lat="60.9213861076" lon="9.70486389283">
		<tag k="alt_name" v="Byfelifjellet" />
		<tag k="fixme" v="consider natural=peak for the most distinct mountains in the district" />
		<tag k="name" v="Byfellifjellet" />
		<tag k="natural" v="hill" />
		<tag k="place" v="locality" />
		<tag k="ssr:stedsnr" v="252881" />
	</node>
	<node id="-147181" lat="60.9880611128" lon="9.73212778122">
		<tag k="name" v="Navarskaftdalen" />
		<tag k="natural" v="valley" />
		<tag k="place" v="locality" />
		<tag k="ssr:stedsnr" v="252763" />
	</node>
	<node id="-147163" lat="60.8661710486" lon="9.79008110313">
		<tag k="fixme" v="multiple name tags, choose one and add the other to alt_name; consider natural=peak for the most distinct mountains in the district" />
		<tag k="name" v="Brendahøgde;Stuveåsen" />
		<tag k="natural" v="hill" />
		<tag k="place" v="locality" />
		<tag k="ssr:stedsnr" v="251021" />
	</node>
	<node id="-147144" lat="61.0602277814" lon="9.44680554831">
		<tag k="name" v="Bergsbakknatten" />
		<tag k="natural" v="hill" />
		<tag k="place" v="locality" />
		<tag k="ssr:stedsnr" v="238900" />
	</node>
	<node id="-147139" lat="61.0831611097" lon="9.52990277803">
		<tag k="name" v="Nysethøgde" />
		<tag k="natural" v="hill" />
		<tag k="place" v="locality" />
		<tag k="ssr:stedsnr" v="237789" />
	</node>
	<node id="-147136" lat="60.8429083302" lon="9.77381111686">
		<tag k="name" v="Skardokke" />
		<tag k="place" v="locality" />
		<tag k="ssr:stedsnr" v="237298" />
	</node>
	<node id="-147134" lat="60.846322225" lon="9.75602499128">
		<tag k="name" v="Sjururenna" />
		<tag k="place" v="locality" />
		<tag k="ssr:stedsnr" v="237295" />
	</node>
	<node id="-147130" lat="61.0469166635" lon="9.50639166335">
		<tag k="name" v="Grånstølhøgde" />
		<tag k="natural" v="hill" />
		<tag k="place" v="locality" />
		<tag k="ssr:stedsnr" v="237206" />
	</node>
	<node id="-147126" lat="61.0515055582" lon="9.67669721942">
		<tag k="name" v="Steinfoten" />
		<tag k="natural" v="hill" />
		<tag k="place" v="locality" />
		<tag k="ssr:stedsnr" v="236949" />
	</node>
	<node id="-147125" lat="61.0431666636" lon="9.73115833402">
		<tag k="name" v="Knarthalle" />
		<tag k="natural" v="slope" />
		<tag k="place" v="locality" />
		<tag k="ssr:stedsnr" v="236942" />
	</node>
	<node id="-147123" lat="61.0440166697" lon="9.75467221762">
		<tag k="name" v="Duggurdshaugen" />
		<tag k="natural" v="hill" />
		<tag k="place" v="locality" />
		<tag k="ssr:stedsnr" v="236900" />
	</node>
	<node id="-147120" lat="60.871536111" lon="9.77465000832">
		<tag k="fixme" v="consider natural=peak for the most distinct mountains in the district" />
		<tag k="name" v="Sollihøgde" />
		<tag k="natural" v="hill" />
		<tag k="place" v="locality" />
		<tag k="ssr:stedsnr" v="236873" />
	</node>
	<node id="-147119" lat="60.8714944407" lon="9.7501916641">
		<tag k="name" v="Brennhaugen" />
		<tag k="natural" v="hill" />
		<tag k="place" v="locality" />
		<tag k="ssr:stedsnr" v="236869" />
	</node>
	<node id="-147118" lat="60.8708750013" lon="9.66114166138">
		<tag k="name" v="Bergeishøgde" />
		<tag k="natural" v="hill" />
		<tag k="place" v="locality" />
		<tag k="ssr:stedsnr" v="236858" />
	</node>
	<node id="-147117" lat="60.9273861139" lon="9.78342221525">
		<tag k="name" v="Stutlisæterhaugen" />
		<tag k="natural" v="hill" />
		<tag k="place" v="locality" />
		<tag k="ssr:stedsnr" v="236791" />
	</node>
	<node id="-147115" lat="60.8616027805" lon="9.72877221445">
		<tag k="name" v="Rekverksbakkin" />
		<tag k="natural" v="slope" />
		<tag k="place" v="locality" />
		<tag k="ssr:stedsnr" v="236744" />
	</node>
	<node id="-147110" lat="60.8220499987" lon="9.71720555364">
		<tag k="name" v="Lierberget" />
		<tag k="natural" v="slope" />
		<tag k="place" v="locality" />
		<tag k="ssr:stedsnr" v="236601" />
	</node>
	<node id="-147109" lat="60.877808335" lon="9.78751111916">
		<tag k="alt_name" v="Sørre Øbbervasslie" />
		<tag k="name" v="Søre Åborvasslie" />
		<tag k="natural" v="slope" />
		<tag k="place" v="locality" />
		<tag k="ssr:stedsnr" v="236600" />
	</node>
	<node id="-147973" lat="60.865686113" lon="9.68119444119">
		<tag k="name" v="Vedahogsthøgde" />
		<tag k="natural" v="hill" />
		<tag k="place" v="locality" />
		<tag k="ssr:stedsnr" v="722860" />
	</node>
	<node id="-147102" lat="61.0630750024" lon="9.5303999983">
		<tag k="name" v="Storstøllie" />
		<tag k="natural" v="slope" />
		<tag k="place" v="locality" />
		<tag k="ssr:stedsnr" v="236364" />
	</node>
	<node id="-147094" lat="60.9860277771" lon="9.75599722421">
		<tag k="name" v="Listøllie" />
		<tag k="natural" v="slope" />
		<tag k="place" v="locality" />
		<tag k="ssr:stedsnr" v="236183" />
	</node>
	<node id="-147086" lat="60.9700222225" lon="9.71408888633">
		<tag k="name" v="Øvre Kinnhaugen" />
		<tag k="natural" v="hill" />
		<tag k="place" v="locality" />
		<tag k="ssr:stedsnr" v="236638" />
	</node>
	<node id="-147083" lat="60.8532888886" lon="9.77847778039">
		<tag k="name" v="Kølplassen" />
		<tag k="place" v="locality" />
		<tag k="ssr:stedsnr" v="236607" />
	</node>
	<node id="-147078" lat="60.8739444465" lon="9.55624722563">
		<tag k="name" v="Pernillehaugen" />
		<tag k="natural" v="hill" />
		<tag k="place" v="locality" />
		<tag k="ssr:stedsnr" v="235835" />
	</node>
	<node id="-147074" lat="60.9096111088" lon="9.72994166743">
		<tag k="name" v="Kamben" />
		<tag k="natural" v="ridge" />
		<tag k="place" v="locality" />
		<tag k="ssr:stedsnr" v="235763" />
	</node>
	<node id="-147071" lat="61.0289361075" lon="9.57361666424">
		<tag k="name" v="Tørget" />
		<tag k="place" v="locality" />
		<tag k="ssr:stedsnr" v="235619" />
	</node>
	<node id="-147070" lat="61.0374305596" lon="9.62556388372">
		<tag k="alt_name" v="Tjednsetbakkatn" />
		<tag k="name" v="Tjernsetbakkatn" />
		<tag k="natural" v="slope" />
		<tag k="place" v="locality" />
		<tag k="ssr:stedsnr" v="235927" />
	</node>
	<node id="-147066" lat="60.8973416677" lon="9.63363888304">
		<tag k="name" v="Sletta" />
		<tag k="place" v="locality" />
		<tag k="ssr:stedsnr" v="235449" />
	</node>
	<node id="-147063" lat="61.0076694422" lon="9.65543889248">
		<tag k="name" v="Monsebakkin" />
		<tag k="natural" v="slope" />
		<tag k="place" v="locality" />
		<tag k="ssr:stedsnr" v="235408" />
	</node>
	<node id="-147052" lat="61.0859805567" lon="9.70466943537">
		<tag k="alt_name" v="Lortetjednhaugen" />
		<tag k="name" v="Lortetjernhaugen" />
		<tag k="natural" v="hill" />
		<tag k="place" v="locality" />
		<tag k="ssr:stedsnr" v="235255" />
	</node>
	<node id="-147051" lat="60.8970861078" lon="9.5684999955">
		<tag k="name" v="Rundehaugen" />
		<tag k="natural" v="hill" />
		<tag k="place" v="locality" />
		<tag k="ssr:stedsnr" v="235247" />
	</node>
	<node id="-147049" lat="60.9001083366" lon="9.57955832548">
		<tag k="name" v="Nedre Skøre" />
		<tag k="place" v="locality" />
		<tag k="ssr:stedsnr" v="235145" />
	</node>
	<node id="-147046" lat="60.8430527779" lon="9.62500000181">
		<tag k="name" v="Stasjonshøgde" />
		<tag k="natural" v="hill" />
		<tag k="place" v="locality" />
		<tag k="ssr:stedsnr" v="235038" />
	</node>
	<node id="-147043" lat="60.9180916636" lon="9.70929443637">
		<tag k="name" v="Hullarhaugen" />
		<tag k="natural" v="hill" />
		<tag k="place" v="locality" />
		<tag k="ssr:stedsnr" v="235574" />
	</node>
	<node id="-147039" lat="60.998794442" lon="9.65261111935">
		<tag k="name" v="Midthaugen" />
		<tag k="natural" v="hill" />
		<tag k="place" v="locality" />
		<tag k="ssr:stedsnr" v="234211" />
	</node>
	<node id="-147034" lat="61.0148527803" lon="9.61423333717">
		<tag k="alt_name" v="Høghalli" />
		<tag k="name" v="Signalhøgde" />
		<tag k="natural" v="hill" />
		<tag k="place" v="locality" />
		<tag k="ssr:stedsnr" v="229897" />
	</node>
	<node id="-148068" lat="61.061347221" lon="9.71118056421">
		<tag k="name" v="Jomfruslettfjellet" />
		<tag k="natural" v="hill" />
		<tag k="place" v="locality" />
		<tag k="ssr:stedsnr" v="782157" />
	</node>
	<node id="-147027" lat="60.9410793288" lon="9.73275176262">
		<tag k="alt_name" v="Bergstølshøgdi" />
		<tag k="fixme" v="consider natural=peak for the most distinct mountains in the district" />
		<tag k="name" v="Bergstølhøgde" />
		<tag k="natural" v="hill" />
		<tag k="place" v="locality" />
		<tag k="ssr:stedsnr" v="191910" />
	</node>
	<node id="-147026" lat="60.9451555534" lon="9.69455833532">
		<tag k="fixme" v="consider natural=peak for the most distinct mountains in the district" />
		<tag k="name" v="Gråurdknatten" />
		<tag k="natural" v="hill" />
		<tag k="place" v="locality" />
		<tag k="ssr:stedsnr" v="191889" />
	</node>
	<node id="-147018" lat="60.927030556" lon="9.54584721927">
		<tag k="alt_name" v="Stiklingsfjell" />
		<tag k="fixme" v="consider natural=peak for the most distinct mountains in the district" />
		<tag k="name" v="Stiklingfjellet" />
		<tag k="natural" v="hill" />
		<tag k="place" v="locality" />
		<tag k="ssr:stedsnr" v="191502" />
	</node>
	<node id="-147016" lat="60.9890250029" lon="9.59276666196">
		<tag k="alt_name" v="Solbjørgåsen" />
		<tag k="fixme" v="consider natural=peak for the most distinct mountains in the district" />
		<tag k="name" v="Solbjøråsen" />
		<tag k="natural" v="hill" />
		<tag k="old_name" v="Solbergåsen" />
		<tag k="place" v="locality" />
		<tag k="ssr:stedsnr" v="191333" />
	</node>
	<node id="-147009" lat="61.0599416625" lon="9.70048889408">
		<tag k="fixme" v="consider natural=peak for the most distinct mountains in the district" />
		<tag k="name" v="Bjørnehalli" />
		<tag k="natural" v="hill" />
		<tag k="place" v="locality" />
		<tag k="ssr:stedsnr" v="190633" />
	</node>
	<node id="-146993" lat="61.0741277797" lon="9.63049444178">
		<tag k="alt_name" v="Storsteinhaugatn" />
		<tag k="name" v="Storsteinhaugane" />
		<tag k="natural" v="hill" />
		<tag k="place" v="locality" />
		<tag k="ssr:stedsnr" v="189645" />
	</node>
	<node id="-146991" lat="61.0869444401" lon="9.63250833387">
		<tag k="alt_name" v="Signalet" />
		<tag k="name" v="Signalhøgdi" />
		<tag k="natural" v="hill" />
		<tag k="place" v="locality" />
		<tag k="ssr:stedsnr" v="189620" />
	</node>
	<node id="-146986" lat="61.0245416698" lon="9.60561666788">
		<tag k="name" v="Bjørnehalli" />
		<tag k="natural" v="hill" />
		<tag k="place" v="locality" />
		<tag k="ssr:stedsnr" v="189296" />
	</node>
	<node id="-146984" lat="60.9338249966" lon="9.7814944426">
		<tag k="fixme" v="consider natural=peak for the most distinct mountains in the district" />
		<tag k="name" v="Steindahøgde" />
		<tag k="natural" v="hill" />
		<tag k="place" v="locality" />
		<tag k="ssr:stedsnr" v="188947" />
	</node>
	<node id="-146983" lat="61.0226722258" lon="9.54863610795">
		<tag k="name" v="Kveaberget" />
		<tag k="natural" v="cliff" />
		<tag k="ssr:stedsnr" v="178565" />
	</node>
	<node id="-146981" lat="60.8126388929" lon="9.71914721705">
		<tag k="name" v="Haugrudknatten" />
		<tag k="natural" v="hill" />
		<tag k="place" v="locality" />
		<tag k="ssr:stedsnr" v="176988" />
	</node>
	<node id="-146980" lat="61.0689416711" lon="9.45017223148">
		<tag k="name" v="Goaren" />
		<tag k="natural" v="hill" />
		<tag k="place" v="locality" />
		<tag k="ssr:stedsnr" v="176982" />
	</node>
	<node id="-146977" lat="60.8656527785" lon="9.72328333114">
		<tag k="name" v="Sagbakkin" />
		<tag k="natural" v="slope" />
		<tag k="place" v="locality" />
		<tag k="ssr:stedsnr" v="176818" />
	</node>
	<node id="-146352" lat="60.8409861152" lon="9.75804999666">
		<tag k="name" v="Liaknatten" />
		<tag k="natural" v="slope" />
		<tag k="place" v="locality" />
		<tag k="ssr:stedsnr" v="357590" />
	</node>
	<node id="-146963" lat="61.05701944" lon="9.51977778567">
		<tag k="alt_name" v="Nørre Haukalie" />
		<tag k="name" v="Nørdre Hukalie" />
		<tag k="natural" v="slope" />
		<tag k="place" v="locality" />
		<tag k="ssr:stedsnr" v="176366" />
	</node>
	<node id="-146951" lat="60.9267083342" lon="9.7281722207">
		<tag k="name" v="Høgdagsknatten" />
		<tag k="natural" v="hill" />
		<tag k="place" v="locality" />
		<tag k="ssr:stedsnr" v="175697" />
	</node>
	<node id="-146948" lat="60.966552775" lon="9.76388332985">
		<tag k="name" v="Juvahøgde" />
		<tag k="natural" v="hill" />
		<tag k="place" v="locality" />
		<tag k="ssr:stedsnr" v="175631" />
	</node>
	<node id="-146943" lat="60.9402083298" lon="9.72700554693">
		<tag k="name" v="Garavikhøgde" />
		<tag k="natural" v="hill" />
		<tag k="place" v="locality" />
		<tag k="ssr:stedsnr" v="175470" />
	</node>
	<node id="-146941" lat="60.9927333301" lon="9.71175277963">
		<tag k="name" v="Navarskaftdalen" />
		<tag k="natural" v="valley" />
		<tag k="place" v="locality" />
		<tag k="ssr:stedsnr" v="175424" />
	</node>
	<node id="-148394" lat="61.0570194479" lon="9.45585555033">
		<tag k="name" v="Kvitebergknatten" />
		<tag k="natural" v="hill" />
		<tag k="place" v="locality" />
		<tag k="ssr:stedsnr" v="904481" />
	</node>
	<node id="-146935" lat="60.8494083303" lon="9.73861388338">
		<tag k="name" v="Haugabakkin" />
		<tag k="place" v="locality" />
		<tag k="ssr:stedsnr" v="175757" />
	</node>
	<node id="-146926" lat="60.9352388864" lon="9.70748055289">
		<tag k="alt_name" v="Veslehødnet" />
		<tag k="name" v="Veslehornet" />
		<tag k="natural" v="hill" />
		<tag k="place" v="locality" />
		<tag k="ssr:stedsnr" v="175183" />
	</node>
	<node id="-146924" lat="60.9472166691" lon="9.70069443847">
		<tag k="name" v="Gråura" />
		<tag k="place" v="locality" />
		<tag k="ssr:stedsnr" v="175202" />
	</node>
	<node id="-148391" lat="60.9210861102" lon="9.53938055602">
		<tag k="name" v="Øverlie" />
		<tag k="natural" v="slope" />
		<tag k="place" v="locality" />
		<tag k="ssr:stedsnr" v="904406" />
	</node>
	<node id="-146919" lat="60.8913888929" lon="9.72919167124">
		<tag k="alt_name" v="Svartetjednhaugen" />
		<tag k="name" v="Svartetjernhaugen" />
		<tag k="natural" v="hill" />
		<tag k="place" v="locality" />
		<tag k="ssr:stedsnr" v="175155" />
	</node>
	<node id="-146917" lat="60.9185583325" lon="9.60438610249">
		<tag k="name" v="Brøtaberget" />
		<tag k="natural" v="hill" />
		<tag k="place" v="locality" />
		<tag k="ssr:stedsnr" v="175069" />
	</node>
	<node id="-146916" lat="60.8921583368" lon="9.7573861092">
		<tag k="name" v="Bergevasshøgde" />
		<tag k="natural" v="ridge" />
		<tag k="place" v="locality" />
		<tag k="ssr:stedsnr" v="175056" />
	</node>
	<node id="-146915" lat="60.9259388923" lon="9.587755564">
		<tag k="name" v="Haugatn" />
		<tag k="natural" v="hill" />
		<tag k="place" v="locality" />
		<tag k="ssr:stedsnr" v="174972" />
	</node>
	<node id="-146913" lat="60.8974999992" lon="9.55942222823">
		<tag k="name" v="Berteberget" />
		<tag k="natural" v="hill" />
		<tag k="place" v="locality" />
		<tag k="ssr:stedsnr" v="175003" />
	</node>
	<node id="-146904" lat="60.9433805552" lon="9.604799995">
		<tag k="name" v="Røstehovde" />
		<tag k="natural" v="hill" />
		<tag k="place" v="locality" />
		<tag k="ssr:stedsnr" v="174565" />
	</node>
	<node id="-146902" lat="60.9545277743" lon="9.58736111062">
		<tag k="name" v="Kringlelie" />
		<tag k="natural" v="slope" />
		<tag k="place" v="locality" />
		<tag k="ssr:stedsnr" v="174553" />
	</node>
	<node id="-146901" lat="61.0838138926" lon="9.59724443713">
		<tag k="alt_name" v="Svartetjednhøgde" />
		<tag k="name" v="Svartetjernhøgde" />
		<tag k="natural" v="hill" />
		<tag k="place" v="locality" />
		<tag k="ssr:stedsnr" v="174463" />
	</node>
	<node id="-146891" lat="61.0751388885" lon="9.60169444601">
		<tag k="name" v="Nystølhøgde" />
		<tag k="natural" v="hill" />
		<tag k="place" v="locality" />
		<tag k="ssr:stedsnr" v="174323" />
	</node>
	<node id="-146889" lat="60.9012388925" lon="9.59391944465">
		<tag k="name" v="Liafjellet" />
		<tag k="natural" v="hill" />
		<tag k="place" v="locality" />
		<tag k="ssr:stedsnr" v="174275" />
	</node>
	<node id="-146888" lat="61.0075277814" lon="9.61116110439">
		<tag k="name" v="Langedalslie" />
		<tag k="natural" v="slope" />
		<tag k="place" v="locality" />
		<tag k="ssr:stedsnr" v="174266" />
	</node>
	<node id="-146886" lat="60.9035805552" lon="9.5542194535">
		<tag k="name" v="Fjellkinnberget" />
		<tag k="natural" v="cliff" />
		<tag k="ssr:stedsnr" v="174152" />
	</node>
	<node id="-146883" lat="60.9758694405" lon="9.55320555282">
		<tag k="name" v="Flatigardslie" />
		<tag k="natural" v="slope" />
		<tag k="place" v="locality" />
		<tag k="ssr:stedsnr" v="174085" />
	</node>
	<node id="-146877" lat="60.9662361114" lon="9.73040556169">
		<tag k="alt_name" v="Botenberga" />
		<tag k="fixme" v="consider natural=peak for the most distinct mountains in the district" />
		<tag k="name" v="Barneberg" />
		<tag k="natural" v="hill" />
		<tag k="place" v="locality" />
		<tag k="ssr:stedsnr" v="130952" />
	</node>
	<node id="-146876" lat="60.9686611108" lon="9.60306110426">
		<tag k="alt_name" v="Flatøygardslii;Flatigardslie" />
		<tag k="name" v="Flatøydegardslii" />
		<tag k="natural" v="slope" />
		<tag k="place" v="locality" />
		<tag k="ssr:stedsnr" v="130939" />
	</node>
	<node id="-146874" lat="60.9508388877" lon="9.71705555928">
		<tag k="alt_name" v="Svartkinnhaugatn" />
		<tag k="fixme" v="consider natural=peak for the most distinct mountains in the district" />
		<tag k="name" v="Svartsinnhaugen" />
		<tag k="natural" v="hill" />
		<tag k="place" v="locality" />
		<tag k="ssr:stedsnr" v="130911" />
	</node>
	<node id="-146866" lat="61.0217999994" lon="9.57000555745">
		<tag k="alt_name" v="Hovdahøgdi" />
		<tag k="name" v="Hovdahaugen" />
		<tag k="natural" v="hill" />
		<tag k="place" v="locality" />
		<tag k="ssr:stedsnr" v="129535" />
	</node>
	<node id="-146847" lat="61.0128666643" lon="9.51248888192">
		<tag k="name" v="Rennedokke" />
		<tag k="place" v="locality" />
		<tag k="ssr:stedsnr" v="117696" />
	</node>
	<node id="-146843" lat="61.0690888848" lon="9.44674721775">
		<tag k="name" v="Varpet" />
		<tag k="place" v="locality" />
		<tag k="ssr:stedsnr" v="115982" />
	</node>
	<node id="-146837" lat="61.0935249961" lon="9.49352500523">
		<tag k="name" v="Kelvabakkatn" />
		<tag k="natural" v="slope" />
		<tag k="place" v="locality" />
		<tag k="ssr:stedsnr" v="115661" />
	</node>
	<node id="-146836" lat="60.8846249965" lon="9.79956110249">
		<tag k="fixme" v="consider natural=peak for the most distinct mountains in the district" />
		<tag k="name" v="Kråkehuggu" />
		<tag k="natural" v="hill" />
		<tag k="place" v="locality" />
		<tag k="ssr:stedsnr" v="115600" />
	</node>
	<node id="-146835" lat="61.0039972202" lon="9.53788332842">
		<tag k="name" v="Lundmohaugen" />
		<tag k="natural" v="hill" />
		<tag k="place" v="locality" />
		<tag k="ssr:stedsnr" v="115597" />
	</node>
	<node id="-146826" lat="60.8694138901" lon="9.69447776928">
		<tag k="name" v="Molandsveslette" />
		<tag k="place" v="locality" />
		<tag k="ssr:stedsnr" v="115831" />
	</node>
	<node id="-146822" lat="61.0751388887" lon="9.71576943745">
		<tag k="name" v="Styggedalen" />
		<tag k="natural" v="valley" />
		<tag k="place" v="locality" />
		<tag k="ssr:stedsnr" v="115213" />
	</node>
	<node id="-146818" lat="60.8537833358" lon="9.71525000357">
		<tag k="name" v="Rustebakkberget" />
		<tag k="natural" v="cliff" />
		<tag k="ssr:stedsnr" v="115193" />
	</node>
	<node id="-146814" lat="61.0651694414" lon="9.71506388866">
		<tag k="name" v="Klufteflata" />
		<tag k="place" v="locality" />
		<tag k="ssr:stedsnr" v="115166" />
	</node>
	<node id="-146809" lat="60.8469972196" lon="9.71283332912">
		<tag k="name" v="Dølstogodalen" />
		<tag k="natural" v="valley" />
		<tag k="place" v="locality" />
		<tag k="ssr:stedsnr" v="115146" />
	</node>
	<node id="-146803" lat="60.9512305517" lon="9.66876944632">
		<tag k="name" v="Raunestølberget" />
		<tag k="natural" v="slope" />
		<tag k="place" v="locality" />
		<tag k="ssr:stedsnr" v="114839" />
	</node>
	<node id="-146802" lat="60.8506722245" lon="9.77403333525">
		<tag k="name" v="Øvre hyttebakkin" />
		<tag k="natural" v="slope" />
		<tag k="place" v="locality" />
		<tag k="ssr:stedsnr" v="115302" />
	</node>
	<node id="-146800" lat="60.8652944471" lon="9.60510832772">
		<tag k="alt_name" v="Elgtjednskardet" />
		<tag k="name" v="Elgstjernskardet" />
		<tag k="natural" v="valley" />
		<tag k="place" v="locality" />
		<tag k="ssr:stedsnr" v="114788" />
	</node>
	<node id="-146799" lat="60.8622333363" lon="9.6492722249">
		<tag k="name" v="Bjødnaskardet" />
		<tag k="natural" v="valley" />
		<tag k="place" v="locality" />
		<tag k="ssr:stedsnr" v="114785" />
	</node>
	<node id="-146798" lat="60.9074944462" lon="9.72806666202">
		<tag k="name" v="Bjødnahaugen" />
		<tag k="natural" v="hill" />
		<tag k="place" v="locality" />
		<tag k="ssr:stedsnr" v="114757" />
	</node>
	<node id="-146792" lat="61.0259000015" lon="9.55840556176">
		<tag k="name" v="Slettalie" />
		<tag k="natural" v="slope" />
		<tag k="place" v="locality" />
		<tag k="ssr:stedsnr" v="114598" />
	</node>
	<node id="-146787" lat="60.900875004" lon="9.62093333">
		<tag k="name" v="Øvrelie" />
		<tag k="natural" v="slope" />
		<tag k="place" v="locality" />
		<tag k="ssr:stedsnr" v="114457" />
	</node>
	<node id="-147485" lat="60.8098777777" lon="9.80714444016">
		<tag k="name" v="Øvre Tinton" />
		<tag k="natural" v="slope" />
		<tag k="place" v="locality" />
		<tag k="ssr:stedsnr" v="540536" />
	</node>
	<node id="-146783" lat="60.8883750004" lon="9.64421944408">
		<tag k="fixme" v="consider natural=peak for the most distinct mountains in the district" />
		<tag k="name" v="Kallehauge" />
		<tag k="natural" v="hill" />
		<tag k="place" v="locality" />
		<tag k="ssr:stedsnr" v="114416" />
	</node>
	<node id="-146776" lat="60.9201111087" lon="9.72280277046">
		<tag k="name" v="Langvassliberget" />
		<tag k="natural" v="hill" />
		<tag k="place" v="locality" />
		<tag k="ssr:stedsnr" v="114716" />
	</node>
	<node id="-146775" lat="60.9184000024" lon="9.72556666863">
		<tag k="name" v="Langvasslie" />
		<tag k="natural" v="slope" />
		<tag k="place" v="locality" />
		<tag k="ssr:stedsnr" v="114715" />
	</node>
	<node id="-146774" lat="60.9253472265" lon="9.74852499671">
		<tag k="name" v="Nabben" />
		<tag k="place" v="locality" />
		<tag k="ssr:stedsnr" v="114708" />
	</node>
	<node id="-146773" lat="60.9267166654" lon="9.74632499962">
		<tag k="name" v="Lunningsløutn" />
		<tag k="place" v="locality" />
		<tag k="ssr:stedsnr" v="114709" />
	</node>
	<node id="-146771" lat="60.9636555539" lon="9.67457221439">
		<tag k="name" v="Hellingshaugen" />
		<tag k="natural" v="hill" />
		<tag k="place" v="locality" />
		<tag k="ssr:stedsnr" v="114168" />
	</node>
	<node id="-146769" lat="60.897188886" lon="9.72924999649">
		<tag k="alt_name" v="Kroktjednlie" />
		<tag k="name" v="Kroktjernlie" />
		<tag k="natural" v="slope" />
		<tag k="place" v="locality" />
		<tag k="ssr:stedsnr" v="114128" />
	</node>
	<node id="-146767" lat="61.023025004" lon="9.65118611606">
		<tag k="name" v="Slåttestølhøgde" />
		<tag k="natural" v="hill" />
		<tag k="place" v="locality" />
		<tag k="ssr:stedsnr" v="114252" />
	</node>
	<node id="-146765" lat="61.0304833293" lon="9.57710555135">
		<tag k="name" v="Jehanehaugen" />
		<tag k="natural" v="hill" />
		<tag k="place" v="locality" />
		<tag k="ssr:stedsnr" v="114214" />
	</node>
	<node id="-146764" lat="60.8576944408" lon="9.65026667266">
		<tag k="name" v="Bjødnaskardal" />
		<tag k="natural" v="valley" />
		<tag k="place" v="locality" />
		<tag k="ssr:stedsnr" v="114083" />
	</node>
	<node id="-146761" lat="60.8857666638" lon="9.662038898">
		<tag k="name" v="Kølbrennarplassen" />
		<tag k="place" v="locality" />
		<tag k="ssr:stedsnr" v="114106" />
	</node>
	<node id="-146754" lat="60.8939638871" lon="9.62076389653">
		<tag k="name" v="Rudsvedalen" />
		<tag k="natural" v="valley" />
		<tag k="place" v="locality" />
		<tag k="ssr:stedsnr" v="113367" />
	</node>
	<node id="-148363" lat="60.9110055552" lon="9.56718055214">
		<tag k="alt_name" v="Totjednberget" />
		<tag k="name" v="Totjernberget" />
		<tag k="natural" v="cliff" />
		<tag k="ssr:stedsnr" v="903778" />
	</node>
	<node id="-146751" lat="60.8980222255" lon="9.56521944899">
		<tag k="name" v="Røyliberget" />
		<tag k="natural" v="hill" />
		<tag k="place" v="locality" />
		<tag k="ssr:stedsnr" v="113234" />
	</node>
	<node id="-146750" lat="61.0807305592" lon="9.68525554785">
		<tag k="alt_name" v="Røgletjednhalle" />
		<tag k="name" v="Røgletjernhalle" />
		<tag k="natural" v="slope" />
		<tag k="place" v="locality" />
		<tag k="ssr:stedsnr" v="113225" />
	</node>
	<node id="-148362" lat="60.9076944477" lon="9.5736305587">
		<tag k="fixme" v="consider natural=peak for the most distinct mountains in the district" />
		<tag k="name" v="Sæterfjellet" />
		<tag k="natural" v="hill" />
		<tag k="ssr:stedsnr" v="903777" />
	</node>
	<node id="-146738" lat="61.0196500033" lon="9.52334722125">
		<tag k="name" v="Fossvang" />
		<tag k="natural" v="slope" />
		<tag k="place" v="locality" />
		<tag k="ssr:stedsnr" v="73685" />
	</node>
	<node id="-146714" lat="61.0163805572" lon="9.49383888423">
		<tag k="name" v="Stasvollklypa" />
		<tag k="natural" v="hill" />
		<tag k="place" v="locality" />
		<tag k="ssr:stedsnr" v="69571" />
	</node>
	<node id="-146710" lat="61.0710027755" lon="9.45533055577">
		<tag k="fixme" v="consider natural=peak for the most distinct mountains in the district" />
		<tag k="name" v="Goaren" />
		<tag k="natural" v="hill" />
		<tag k="place" v="locality" />
		<tag k="ssr:stedsnr" v="68875" />
	</node>
	<node id="-146709" lat="61.1026194442" lon="9.61197499323">
		<tag k="alt_name" v="Tjuvesteinberget" />
		<tag k="fixme" v="consider natural=peak for the most distinct mountains in the district" />
		<tag k="name" v="Tjuvsteinåsen" />
		<tag k="natural" v="hill" />
		<tag k="place" v="locality" />
		<tag k="ssr:stedsnr" v="68662" />
	</node>
	<node id="-146698" lat="60.8286916655" lon="9.71428333389">
		<tag k="name" v="Høgeføsshalle" />
		<tag k="natural" v="slope" />
		<tag k="place" v="locality" />
		<tag k="ssr:stedsnr" v="55644" />
	</node>
	<node id="-146697" lat="60.8344222223" lon="9.69160278458">
		<tag k="name" v="Hestedalshufset" />
		<tag k="place" v="locality" />
		<tag k="ssr:stedsnr" v="55626" />
	</node>
	<node id="-146695" lat="60.8557416632" lon="9.77929166493">
		<tag k="name" v="Prostsæterskaret" />
		<tag k="natural" v="valley" />
		<tag k="place" v="locality" />
		<tag k="ssr:stedsnr" v="55611" />
	</node>
	<node id="-146693" lat="60.8451722186" lon="9.77025832751">
		<tag k="name" v="Liasæterberget" />
		<tag k="natural" v="hill" />
		<tag k="place" v="locality" />
		<tag k="ssr:stedsnr" v="55291" />
	</node>
	<node id="-146691" lat="60.8442027737" lon="9.74957222575">
		<tag k="name" v="Kappersrudokke" />
		<tag k="place" v="locality" />
		<tag k="ssr:stedsnr" v="55211" />
	</node>
	<node id="-146687" lat="61.0542750031" lon="9.69875834009">
		<tag k="name" v="Bjødnahalle" />
		<tag k="natural" v="slope" />
		<tag k="place" v="locality" />
		<tag k="ssr:stedsnr" v="54943" />
	</node>
	<node id="-146682" lat="60.9631444485" lon="9.69541110818">
		<tag k="name" v="Gjørmehøgde" />
		<tag k="natural" v="hill" />
		<tag k="place" v="locality" />
		<tag k="ssr:stedsnr" v="54821" />
	</node>
	<node id="-146679" lat="60.9294111115" lon="9.68004721827">
		<tag k="name" v="Trøaberget" />
		<tag k="natural" v="cliff" />
		<tag k="ssr:stedsnr" v="54765" />
	</node>
	<node id="-146678" lat="60.9319583356" lon="9.66801667197">
		<tag k="name" v="Skreodalen" />
		<tag k="natural" v="valley" />
		<tag k="place" v="locality" />
		<tag k="ssr:stedsnr" v="54760" />
	</node>
	<node id="-146676" lat="60.9321944413" lon="9.66193056278">
		<tag k="name" v="Skreodalsberget" />
		<tag k="natural" v="cliff" />
		<tag k="ssr:stedsnr" v="54756" />
	</node>
	<node id="-146673" lat="60.903683335" lon="9.54448889761">
		<tag k="name" v="Fjellkinnlia" />
		<tag k="natural" v="slope" />
		<tag k="place" v="locality" />
		<tag k="ssr:stedsnr" v="54521" />
	</node>
	<node id="-146670" lat="61.0149027822" lon="9.62980000047">
		<tag k="name" v="Harabrennhalle" />
		<tag k="natural" v="slope" />
		<tag k="place" v="locality" />
		<tag k="ssr:stedsnr" v="54265" />
	</node>
	<node id="-146666" lat="60.9296555577" lon="9.68993888354">
		<tag k="name" v="Haugen" />
		<tag k="natural" v="hill" />
		<tag k="place" v="locality" />
		<tag k="ssr:stedsnr" v="54204" />
	</node>
	<node id="-146662" lat="60.9124388855" lon="9.54847223047">
		<tag k="name" v="Øvre Stølslie" />
		<tag k="natural" v="slope" />
		<tag k="place" v="locality" />
		<tag k="ssr:stedsnr" v="54423" />
	</node>
	<node id="-146660" lat="60.9353277799" lon="9.5185694365">
		<tag k="name" v="Veslestiklingshaugatn" />
		<tag k="natural" v="hill" />
		<tag k="place" v="locality" />
		<tag k="ssr:stedsnr" v="54399" />
	</node>
	<node id="-146659" lat="60.9429555531" lon="9.75344166854">
		<tag k="name" v="Navarskafthøgde" />
		<tag k="natural" v="hill" />
		<tag k="place" v="locality" />
		<tag k="ssr:stedsnr" v="54389" />
	</node>
	<node id="-146656" lat="60.9015388857" lon="9.74175554993">
		<tag k="alt_name" v="Sørresæterhøgde" />
		<tag k="name" v="Søresæterhøgde" />
		<tag k="natural" v="ridge" />
		<tag k="place" v="locality" />
		<tag k="ssr:stedsnr" v="54145" />
	</node>
	<node id="-146653" lat="60.9631138916" lon="9.67118054879">
		<tag k="name" v="Støytemyrskålin" />
		<tag k="place" v="locality" />
		<tag k="ssr:stedsnr" v="54193" />
	</node>
	<node id="-146650" lat="60.8520972224" lon="9.71467778241">
		<tag k="name" v="Røsterenna" />
		<tag k="place" v="locality" />
		<tag k="ssr:stedsnr" v="54170" />
	</node>
	<node id="-146647" lat="60.9026222212" lon="9.68091388362">
		<tag k="name" v="Svartedalen" />
		<tag k="natural" v="valley" />
		<tag k="place" v="locality" />
		<tag k="ssr:stedsnr" v="54032" />
	</node>
	<node id="-146646" lat="60.9036638849" lon="9.65770834085">
		<tag k="name" v="Turkelihalle" />
		<tag k="natural" v="slope" />
		<tag k="place" v="locality" />
		<tag k="ssr:stedsnr" v="54031" />
	</node>
	<node id="-146644" lat="60.9529361153" lon="9.63335832797">
		<tag k="name" v="Espesetbakkatn" />
		<tag k="natural" v="slope" />
		<tag k="place" v="locality" />
		<tag k="ssr:stedsnr" v="53924" />
	</node>
	<node id="-146639" lat="60.9553916647" lon="9.60294165857">
		<tag k="name" v="Espesetlie" />
		<tag k="natural" v="slope" />
		<tag k="place" v="locality" />
		<tag k="ssr:stedsnr" v="53873" />
	</node>
	<node id="-146638" lat="60.9598166664" lon="9.67517221901">
		<tag k="name" v="Kvilingstein" />
		<tag k="place" v="locality" />
		<tag k="ssr:stedsnr" v="53858" />
	</node>
	<node id="-146637" lat="60.9141138905" lon="9.56471110782">
		<tag k="name" v="Tobakkhusknatten" />
		<tag k="natural" v="hill" />
		<tag k="place" v="locality" />
		<tag k="ssr:stedsnr" v="53820" />
	</node>
	<node id="-146634" lat="61.0223333305" lon="9.46756944019">
		<tag k="name" v="Lauvberget" />
		<tag k="natural" v="hill" />
		<tag k="place" v="locality" />
		<tag k="ssr:stedsnr" v="54115" />
	</node>
	<node id="-146631" lat="60.9807666679" lon="9.62225277634">
		<tag k="name" v="Vendesvingen" />
		<tag k="place" v="locality" />
		<tag k="ssr:stedsnr" v="53691" />
	</node>
	<node id="-146630" lat="60.9849833348" lon="9.60132222692">
		<tag k="fixme" v="consider natural=peak for the most distinct mountains in the district" />
		<tag k="name" v="Solbjørgåsen" />
		<tag k="natural" v="hill" />
		<tag k="place" v="locality" />
		<tag k="ssr:stedsnr" v="53684" />
	</node>
	<node id="-146627" lat="60.9214361091" lon="9.70485000202">
		<tag k="name" v="Vardin" />
		<tag k="natural" v="hill" />
		<tag k="place" v="locality" />
		<tag k="ssr:stedsnr" v="53549" />
	</node>
	<node id="-146625" lat="60.9658944478" lon="9.57713610539">
		<tag k="name" v="Flatigardslie" />
		<tag k="natural" v="slope" />
		<tag k="place" v="locality" />
		<tag k="ssr:stedsnr" v="53535" />
	</node>
	<node id="-148341" lat="60.8931749986" lon="9.66536110784">
		<tag k="name" v="Tverrhaugrenna" />
		<tag k="natural" v="valley" />
		<tag k="place" v="locality" />
		<tag k="ssr:stedsnr" v="903109" />
	</node>
	<node id="-146975" lat="60.8739083361" lon="9.73404166469">
		<tag k="name" v="Utsikte" />
		<tag k="natural" v="cliff" />
		<tag k="ssr:stedsnr" v="176769" />
	</node>
	<node id="-146616" lat="61.0545999974" lon="9.56804167569">
		<tag k="name" v="Kvannedalen" />
		<tag k="natural" v="valley" />
		<tag k="place" v="locality" />
		<tag k="ssr:stedsnr" v="53347" />
	</node>
	<node id="-148338" lat="60.852036109" lon="9.61453888147">
		<tag k="name" v="Utsikte" />
		<tag k="natural" v="hill" />
		<tag k="place" v="locality" />
		<tag k="ssr:stedsnr" v="903092" />
	</node>
	<node id="-146601" lat="60.8995500008" lon="9.5567666662">
		<tag k="name" v="Kippesjøknatten" />
		<tag k="natural" v="hill" />
		<tag k="place" v="locality" />
		<tag k="ssr:stedsnr" v="53002" />
	</node>
	<node id="-148335" lat="60.8511638851" lon="9.65447777053">
		<tag k="name" v="Trondsæterknatten" />
		<tag k="natural" v="hill" />
		<tag k="place" v="locality" />
		<tag k="ssr:stedsnr" v="903035" />
	</node>
	<node id="-146584" lat="60.8220527774" lon="9.69836111831">
		<tag k="fixme" v="consider natural=peak for the most distinct mountains in the district" />
		<tag k="name" v="Hyttemyrhaugen" />
		<tag k="natural" v="hill" />
		<tag k="place" v="locality" />
		<tag k="ssr:stedsnr" v="9162" />
	</node>
	<node id="-146580" lat="61.0454555582" lon="9.72993334078">
		<tag k="alt_name" v="Knarten" />
		<tag k="name" v="Fjellsæterknatten" />
		<tag k="natural" v="hill" />
		<tag k="place" v="locality" />
		<tag k="ssr:stedsnr" v="8665" />
	</node>
	<node id="-148333" lat="60.9022472216" lon="9.66614166405">
		<tag k="name" v="Brattbakkhøgde" />
		<tag k="natural" v="hill" />
		<tag k="place" v="locality" />
		<tag k="ssr:stedsnr" v="903027" />
	</node>
	<node id="-146570" lat="61.0655749966" lon="9.71284999198">
		<tag k="name" v="Kinndalen" />
		<tag k="natural" v="valley" />
		<tag k="place" v="locality" />
		<tag k="ssr:stedsnr" v="7612" />
	</node>
	<node id="-146567" lat="60.9672944403" lon="9.51498888861">
		<tag k="name" v="Svartberget" />
		<tag k="natural" v="cliff" />
		<tag k="ssr:stedsnr" v="7534" />
	</node>
	<node id="-148327" lat="61.0132527757" lon="9.58123054779">
		<tag k="name" v="Gurihesberget" />
		<tag k="natural" v="cliff" />
		<tag k="ssr:stedsnr" v="902616" />
	</node>
	<node id="-146531" lat="61.045579623" lon="9.69508744584">
		<tag k="alt_name" v="Nerre Langetjednhøgde" />
		<tag k="name" v="Nedre Langtjernhøgde" />
		<tag k="natural" v="hill" />
		<tag k="place" v="locality" />
		<tag k="ssr:stedsnr" v="1072151" />
	</node>
	<node id="-146524" lat="61.0387916635" lon="9.51812778586">
		<tag k="name" v="Sandbakkin" />
		<tag k="place" v="locality" />
		<tag k="ssr:stedsnr" v="479154" />
	</node>
	<node id="-146520" lat="61.0370805524" lon="9.67253888579">
		<tag k="name" v="Ølbøgekroken" />
		<tag k="place" v="locality" />
		<tag k="ssr:stedsnr" v="478945" />
	</node>
	<node id="-146516" lat="60.9601916634" lon="9.66483889218">
		<tag k="fixme" v="consider natural=peak for the most distinct mountains in the district" />
		<tag k="name" v="Steinåsen" />
		<tag k="natural" v="hill" />
		<tag k="place" v="locality" />
		<tag k="ssr:stedsnr" v="478823" />
	</node>
	<node id="-146514" lat="60.9111805578" lon="9.57072500275">
		<tag k="name" v="Matlie" />
		<tag k="natural" v="slope" />
		<tag k="place" v="locality" />
		<tag k="ssr:stedsnr" v="478787" />
	</node>
	<node id="-146512" lat="60.9292499972" lon="9.67251665898">
		<tag k="name" v="Svarteputtberget" />
		<tag k="natural" v="cliff" />
		<tag k="ssr:stedsnr" v="478766" />
	</node>
	<node id="-146511" lat="60.9246055557" lon="9.76424166089">
		<tag k="name" v="Storsvehøgde" />
		<tag k="natural" v="hill" />
		<tag k="place" v="locality" />
		<tag k="ssr:stedsnr" v="478712" />
	</node>
	<node id="-146510" lat="60.9225722203" lon="9.76485833244">
		<tag k="name" v="Storsvehalle" />
		<tag k="natural" v="slope" />
		<tag k="place" v="locality" />
		<tag k="ssr:stedsnr" v="478713" />
	</node>
	<node id="-148553" lat="61.0546861071" lon="9.46860276852">
		<tag k="name" v="Slettingsdalen" />
		<tag k="natural" v="valley" />
		<tag k="place" v="locality" />
		<tag k="ssr:stedsnr" v="966212" />
	</node>
	<node id="-148551" lat="61.074219446" lon="9.46147778035">
		<tag k="name" v="Brimgråbakkin" />
		<tag k="natural" v="slope" />
		<tag k="place" v="locality" />
		<tag k="ssr:stedsnr" v="965771" />
	</node>
	<node id="-148544" lat="60.8526666631" lon="9.76162223106">
		<tag k="name" v="Nordfjellshalle" />
		<tag k="natural" v="slope" />
		<tag k="place" v="locality" />
		<tag k="ssr:stedsnr" v="965313" />
	</node>
	<node id="-148543" lat="61.0279694426" lon="9.65191665871">
		<tag k="name" v="Roleghaugshøgde" />
		<tag k="natural" v="hill" />
		<tag k="place" v="locality" />
		<tag k="ssr:stedsnr" v="965258" />
	</node>
	<node id="-148538" lat="61.0674805512" lon="9.43592221799">
		<tag k="name" v="Tøfstølhøvda" />
		<tag k="natural" v="hill" />
		<tag k="place" v="locality" />
		<tag k="ssr:stedsnr" v="964982" />
	</node>
	<node id="-148536" lat="61.0423611105" lon="9.69320277111">
		<tag k="name" v="Robølshalle" />
		<tag k="natural" v="slope" />
		<tag k="place" v="locality" />
		<tag k="ssr:stedsnr" v="964931" />
	</node>
	<node id="-146485" lat="60.8407055528" lon="9.66719722576">
		<tag k="fixme" v="consider natural=peak for the most distinct mountains in the district" />
		<tag k="name" v="Midtsæterhøgde" />
		<tag k="natural" v="hill" />
		<tag k="place" v="locality" />
		<tag k="ssr:stedsnr" v="478113" />
	</node>
	<node id="-148530" lat="60.8789444476" lon="9.73454445156">
		<tag k="name" v="Tomlehøgde" />
		<tag k="natural" v="hill" />
		<tag k="place" v="locality" />
		<tag k="ssr:stedsnr" v="964753" />
	</node>
	<node id="-146479" lat="60.8555444403" lon="9.65462221679">
		<tag k="name" v="Leikhøgde" />
		<tag k="natural" v="hill" />
		<tag k="place" v="locality" />
		<tag k="ssr:stedsnr" v="478017" />
	</node>
	<node id="-148526" lat="60.8799666683" lon="9.74939721711">
		<tag k="name" v="Håvaldsdalen" />
		<tag k="natural" v="valley" />
		<tag k="place" v="locality" />
		<tag k="ssr:stedsnr" v="964723" />
	</node>
	<node id="-146475" lat="60.9310527805" lon="9.75932222016">
		<tag k="name" v="Vestre Steindavøllhøgde" />
		<tag k="natural" v="hill" />
		<tag k="place" v="locality" />
		<tag k="ssr:stedsnr" v="479359" />
	</node>
	<node id="-146473" lat="60.9744944421" lon="9.52426943792">
		<tag k="name" v="Saghaugen" />
		<tag k="natural" v="hill" />
		<tag k="place" v="locality" />
		<tag k="ssr:stedsnr" v="479327" />
	</node>
	<node id="-148520" lat="60.8366777763" lon="9.7708083288">
		<tag k="name" v="Fosseflata" />
		<tag k="place" v="locality" />
		<tag k="ssr:stedsnr" v="964597" />
	</node>
	<node id="-148517" lat="60.8764916702" lon="9.68356111623">
		<tag k="name" v="Kleivagrettin" />
		<tag k="natural" v="hill" />
		<tag k="place" v="locality" />
		<tag k="ssr:stedsnr" v="964491" />
	</node>
	<node id="-146468" lat="61.1057694414" lon="9.61843611746">
		<tag k="name" v="Grisedauin" />
		<tag k="place" v="locality" />
		<tag k="ssr:stedsnr" v="477684" />
	</node>
	<node id="-148513" lat="61.0734333313" lon="9.52204722686">
		<tag k="name" v="Nyseterlie" />
		<tag k="natural" v="slope" />
		<tag k="place" v="locality" />
		<tag k="ssr:stedsnr" v="964405" />
	</node>
	<node id="-146464" lat="60.9173500024" lon="9.68744166399">
		<tag k="name" v="Øvrigardshaugen" />
		<tag k="natural" v="hill" />
		<tag k="place" v="locality" />
		<tag k="ssr:stedsnr" v="477567" />
	</node>
	<node id="-146461" lat="60.9274027761" lon="9.55839722058">
		<tag k="name" v="Øyvasshølet" />
		<tag k="natural" v="valley" />
		<tag k="place" v="locality" />
		<tag k="ssr:stedsnr" v="477400" />
	</node>
	<node id="-146457" lat="61.0978388887" lon="9.5645611131">
		<tag k="fixme" v="consider natural=peak for the most distinct mountains in the district" />
		<tag k="name" v="Katurdberget" />
		<tag k="natural" v="hill" />
		<tag k="place" v="locality" />
		<tag k="ssr:stedsnr" v="477321" />
	</node>
	<node id="-148504" lat="60.8460472258" lon="9.69728332542">
		<tag k="name" v="Smørhølkleive" />
		<tag k="natural" v="slope" />
		<tag k="place" v="locality" />
		<tag k="ssr:stedsnr" v="964149" />
	</node>
	<node id="-146454" lat="60.8978999992" lon="9.58777499643">
		<tag k="name" v="Hestehagaberget" />
		<tag k="natural" v="cliff" />
		<tag k="ssr:stedsnr" v="477248" />
	</node>
	<node id="-148500" lat="60.8853527781" lon="9.73166944354">
		<tag k="name" v="Selbrennshalle" />
		<tag k="natural" v="slope" />
		<tag k="place" v="locality" />
		<tag k="ssr:stedsnr" v="964080" />
	</node>
	<node id="-146450" lat="60.8837222239" lon="9.64281945327">
		<tag k="name" v="Hovdatn" />
		<tag k="natural" v="ridge" />
		<tag k="place" v="locality" />
		<tag k="ssr:stedsnr" v="477294" />
	</node>
	<node id="-146447" lat="61.0891611151" lon="9.69053611294">
		<tag k="alt_name" v="Lortetjednhaugatn" />
		<tag k="name" v="Lortetjernhaugatn" />
		<tag k="natural" v="hill" />
		<tag k="place" v="locality" />
		<tag k="ssr:stedsnr" v="477259" />
	</node>
	<node id="-146444" lat="60.8629111155" lon="9.69844166362">
		<tag k="name" v="Fleinskallrenna" />
		<tag k="natural" v="slope" />
		<tag k="place" v="locality" />
		<tag k="ssr:stedsnr" v="236826" />
	</node>
	<node id="-146441" lat="60.9832694403" lon="9.68049445226">
		<tag k="alt_name" v="Kjærringdalen" />
		<tag k="name" v="Kjerringdalen" />
		<tag k="natural" v="valley" />
		<tag k="place" v="locality" />
		<tag k="ssr:stedsnr" v="373993" />
	</node>
	<node id="-148488" lat="60.915847226" lon="9.56046388709">
		<tag k="name" v="Tobakkhusskaret" />
		<tag k="natural" v="valley" />
		<tag k="place" v="locality" />
		<tag k="ssr:stedsnr" v="963821" />
	</node>
	<node id="-148485" lat="60.9140972252" lon="9.72240833725">
		<tag k="name" v="Kneet" />
		<tag k="place" v="locality" />
		<tag k="ssr:stedsnr" v="963727" />
	</node>
	<node id="-148484" lat="60.9741361136" lon="9.68417778371">
		<tag k="name" v="Steinsrudhallhaugen" />
		<tag k="natural" v="hill" />
		<tag k="place" v="locality" />
		<tag k="ssr:stedsnr" v="963656" />
	</node>
	<node id="-148482" lat="60.9625972216" lon="9.55358332715">
		<tag k="name" v="Bjødnaskaret" />
		<tag k="natural" v="valley" />
		<tag k="place" v="locality" />
		<tag k="ssr:stedsnr" v="963616" />
	</node>
	<node id="-148479" lat="60.914183329" lon="9.68169445105">
		<tag k="name" v="Limhusdalen" />
		<tag k="natural" v="valley" />
		<tag k="place" v="locality" />
		<tag k="ssr:stedsnr" v="963594" />
	</node>
	<node id="-148478" lat="60.9661805573" lon="9.56884721348">
		<tag k="name" v="Stallhøgde" />
		<tag k="natural" v="hill" />
		<tag k="place" v="locality" />
		<tag k="ssr:stedsnr" v="963593" />
	</node>
	<node id="-148476" lat="60.9704138931" lon="9.71323055957">
		<tag k="name" v="Øvre Kinnhaugen" />
		<tag k="natural" v="hill" />
		<tag k="place" v="locality" />
		<tag k="ssr:stedsnr" v="963585" />
	</node>
	<node id="-148475" lat="60.9462583304" lon="9.59734167103">
		<tag k="name" v="Langemoen" />
		<tag k="place" v="locality" />
		<tag k="ssr:stedsnr" v="963575" />
	</node>
	<node id="-148474" lat="60.897047219" lon="9.62166944133">
		<tag k="name" v="Rødningsberget" />
		<tag k="natural" v="cliff" />
		<tag k="ssr:stedsnr" v="963465" />
	</node>
	<node id="-148473" lat="60.9945861081" lon="9.65572499545">
		<tag k="name" v="Vierdalen" />
		<tag k="natural" v="valley" />
		<tag k="place" v="locality" />
		<tag k="ssr:stedsnr" v="963462" />
	</node>
	<node id="-146421" lat="60.9973250028" lon="9.5917861057">
		<tag k="fixme" v="consider natural=peak for the most distinct mountains in the district" />
		<tag k="name" v="Hestekinnåsen" />
		<tag k="natural" v="hill" />
		<tag k="place" v="locality" />
		<tag k="ssr:stedsnr" v="373290" />
	</node>
	<node id="-148466" lat="60.9039888902" lon="9.58357222776">
		<tag k="name" v="Elgeskaret" />
		<tag k="natural" v="valley" />
		<tag k="place" v="locality" />
		<tag k="ssr:stedsnr" v="963135" />
	</node>
	<node id="-148462" lat="60.8545805575" lon="9.6444611021">
		<tag k="name" v="Bråttgjort" />
		<tag k="natural" v="hill" />
		<tag k="place" v="locality" />
		<tag k="ssr:stedsnr" v="963092" />
	</node>
	<node id="-146412" lat="60.9935611127" lon="9.53772499123">
		<tag k="alt_name" v="Kvannebekkslette" />
		<tag k="name" v="Kvannebekksletta" />
		<tag k="place" v="locality" />
		<tag k="ssr:stedsnr" v="372341" />
	</node>
	<node id="-148453" lat="61.091830556" lon="9.60553611308">
		<tag k="fixme" v="consider natural=peak for the most distinct mountains in the district" />
		<tag k="name" v="Tjuvesteinåsen" />
		<tag k="natural" v="hill" />
		<tag k="place" v="locality" />
		<tag k="ssr:stedsnr" v="963333" />
	</node>
	<node id="-148450" lat="60.9844277747" lon="9.67046111738">
		<tag k="alt_name" v="Nystølknattatn" />
		<tag k="name" v="Nystølknatten" />
		<tag k="natural" v="hill" />
		<tag k="place" v="locality" />
		<tag k="ssr:stedsnr" v="920976" />
	</node>
	<node id="-148442" lat="60.9497138925" lon="9.67019721343">
		<tag k="alt_name" v="Veslehøgdhaugen;Veslehøgahaugen" />
		<tag k="fixme" v="consider natural=peak for the most distinct mountains in the district" />
		<tag k="name" v="Veslehøghaugen" />
		<tag k="natural" v="hill" />
		<tag k="place" v="locality" />
		<tag k="ssr:stedsnr" v="919956" />
	</node>
	<node id="-148303" lat="60.9008750045" lon="9.57024445167">
		<tag k="name" v="Storesteinatn" />
		<tag k="natural" v="hill" />
		<tag k="place" v="locality" />
		<tag k="ssr:stedsnr" v="902141" />
	</node>
	<node id="-148440" lat="60.9698777799" lon="9.68378610753">
		<tag k="fixme" v="consider natural=peak for the most distinct mountains in the district" />
		<tag k="name" v="Kjerringstølhøgdi" />
		<tag k="natural" v="hill" />
		<tag k="place" v="locality" />
		<tag k="ssr:stedsnr" v="919937" />
	</node>
	<node id="-148438" lat="60.8128369724" lon="9.81122452919">
		<tag k="fixme" v="consider natural=peak for the most distinct mountains in the district" />
		<tag k="name" v="Tintoen" />
		<tag k="natural" v="hill" />
		<tag k="place" v="locality" />
		<tag k="ssr:stedsnr" v="919228" />
	</node>
	<node id="-146387" lat="61.0662305523" lon="9.48618889194">
		<tag k="name" v="Heimstøllie" />
		<tag k="natural" v="slope" />
		<tag k="place" v="locality" />
		<tag k="ssr:stedsnr" v="358777" />
	</node>
	<node id="-146385" lat="60.8827305577" lon="9.7493694485">
		<tag k="name" v="Beinstigdalen" />
		<tag k="natural" v="valley" />
		<tag k="place" v="locality" />
		<tag k="ssr:stedsnr" v="358756" />
	</node>
	<node id="-146382" lat="60.9599500008" lon="9.51494444527">
		<tag k="name" v="Vestre Kinndalen" />
		<tag k="natural" v="valley" />
		<tag k="place" v="locality" />
		<tag k="ssr:stedsnr" v="358550" />
	</node>
	<node id="-146380" lat="61.0620805596" lon="9.45866944377">
		<tag k="name" v="Teimyrberget" />
		<tag k="natural" v="slope" />
		<tag k="place" v="locality" />
		<tag k="ssr:stedsnr" v="358506" />
	</node>
	<node id="-146378" lat="61.0705138924" lon="9.54064166741">
		<tag k="name" v="Sinderslette" />
		<tag k="place" v="locality" />
		<tag k="ssr:stedsnr" v="358496" />
	</node>
	<node id="-148424" lat="61.0213416696" lon="9.58245000531">
		<tag k="name" v="Langedalen" />
		<tag k="natural" v="valley" />
		<tag k="place" v="locality" />
		<tag k="ssr:stedsnr" v="918599" />
	</node>
	<node id="-146375" lat="60.8434472214" lon="9.76773332973">
		<tag k="name" v="Romsdokke" />
		<tag k="place" v="locality" />
		<tag k="ssr:stedsnr" v="358288" />
	</node>
	<node id="-146373" lat="61.0521722238" lon="9.47863889581">
		<tag k="name" v="Nyløohøgde" />
		<tag k="natural" v="hill" />
		<tag k="place" v="locality" />
		<tag k="ssr:stedsnr" v="358195" />
	</node>
	<node id="-146369" lat="61.0474707918" lon="9.6560317519">
		<tag k="name" v="Astriddalen" />
		<tag k="natural" v="valley" />
		<tag k="place" v="locality" />
		<tag k="ssr:stedsnr" v="357926" />
	</node>
	<node id="-146368" lat="60.9470083294" lon="9.78567500288">
		<tag k="name" v="Gjerdlihøgde" />
		<tag k="natural" v="hill" />
		<tag k="place" v="locality" />
		<tag k="ssr:stedsnr" v="357912" />
	</node>
	<node id="-148414" lat="61.0093361155" lon="9.62231111815">
		<tag k="name" v="Geiteberget" />
		<tag k="natural" v="hill" />
		<tag k="place" v="locality" />
		<tag k="ssr:stedsnr" v="917349" />
	</node>
	<node id="-146365" lat="60.952583332" lon="9.68157499513">
		<tag k="name" v="Langemyrberget" />
		<tag k="natural" v="slope" />
		<tag k="place" v="locality" />
		<tag k="ssr:stedsnr" v="357827" />
	</node>
	<node id="-148409" lat="60.9635083314" lon="9.77969167409">
		<tag k="name" v="Veslejuvhaugen" />
		<tag k="natural" v="hill" />
		<tag k="place" v="locality" />
		<tag k="ssr:stedsnr" v="916913" />
	</node>
	<node id="-146360" lat="60.8435611132" lon="9.71906943682">
		<tag k="name" v="Dølstogodalen" />
		<tag k="natural" v="valley" />
		<tag k="place" v="locality" />
		<tag k="ssr:stedsnr" v="357734" />
	</node>
	<node id="-148405" lat="60.8675083321" lon="9.66867499784">
		<tag k="name" v="Gråbeinhaugen" />
		<tag k="natural" v="hill" />
		<tag k="place" v="locality" />
		<tag k="ssr:stedsnr" v="904850" />
	</node>
	<node id="-146356" lat="60.9251499958" lon="9.72086944668">
		<tag k="name" v="Skarhøgde" />
		<tag k="natural" v="hill" />
		<tag k="place" v="locality" />
		<tag k="ssr:stedsnr" v="357678" />
	</node>
	<node id="-148402" lat="60.8621972188" lon="9.74643888834">
		<tag k="name" v="Haugaslette" />
		<tag k="place" v="locality" />
		<tag k="ssr:stedsnr" v="904750" />
	</node>
	<node id="-146353" lat="60.9704277808" lon="9.73872222188">
		<tag k="name" v="Heggeslette" />
		<tag k="place" v="locality" />
		<tag k="ssr:stedsnr" v="357615" />
	</node>
	<node id="-148400" lat="60.8535027775" lon="9.71866667434">
		<tag k="name" v="Røsterenna" />
		<tag k="place" v="locality" />
		<tag k="ssr:stedsnr" v="904739" />
	</node>
	<node id="-148398" lat="60.8499777765" lon="9.73476387989">
		<tag k="name" v="Lundbyhaugen" />
		<tag k="natural" v="hill" />
		<tag k="place" v="locality" />
		<tag k="ssr:stedsnr" v="904731" />
	</node>
	<node id="-148397" lat="60.8282444464" lon="9.69034722784">
		<tag k="name" v="Midthaugatn" />
		<tag k="natural" v="hill" />
		<tag k="place" v="locality" />
		<tag k="ssr:stedsnr" v="904645" />
	</node>
	<node id="-146348" lat="60.9387416681" lon="9.71940555577">
		<tag k="name" v="Gruvedalen" />
		<tag k="natural" v="valley" />
		<tag k="place" v="locality" />
		<tag k="ssr:stedsnr" v="357457" />
	</node>
	<node id="-146346" lat="60.9964055543" lon="9.66006944375">
		<tag k="name" v="Åkrokhaugen" />
		<tag k="natural" v="hill" />
		<tag k="place" v="locality" />
		<tag k="ssr:stedsnr" v="357391" />
	</node>
	<node id="-146345" lat="60.9119333298" lon="9.54088611461">
		<tag k="name" v="Vardelie" />
		<tag k="natural" v="slope" />
		<tag k="place" v="locality" />
		<tag k="ssr:stedsnr" v="357390" />
	</node>
	<node id="-146343" lat="61.0112833366" lon="9.75772499973">
		<tag k="name" v="Bakhalle" />
		<tag k="natural" v="slope" />
		<tag k="place" v="locality" />
		<tag k="ssr:stedsnr" v="357380" />
	</node>
	<node id="-146342" lat="61.0122111152" lon="9.74085832694">
		<tag k="name" v="Tanterhaugknatten" />
		<tag k="natural" v="hill" />
		<tag k="place" v="locality" />
		<tag k="ssr:stedsnr" v="357378" />
	</node>
	<node id="-148389" lat="60.9446611134" lon="9.74705832543">
		<tag k="name" v="Navarskaftberget" />
		<tag k="natural" v="hill" />
		<tag k="place" v="locality" />
		<tag k="ssr:stedsnr" v="904372" />
	</node>
	<node id="-146339" lat="60.9425166674" lon="9.76277222129">
		<tag k="name" v="Ellingsæterhøgde" />
		<tag k="natural" v="hill" />
		<tag k="place" v="locality" />
		<tag k="ssr:stedsnr" v="357360" />
	</node>
	<node id="-148386" lat="60.9521083319" lon="9.50892776993">
		<tag k="name" v="Stølslidalen" />
		<tag k="natural" v="valley" />
		<tag k="place" v="locality" />
		<tag k="ssr:stedsnr" v="904342" />
	</node>
	<node id="-148383" lat="61.0448111143" lon="9.49321110376">
		<tag k="name" v="Grånstøllie" />
		<tag k="natural" v="slope" />
		<tag k="place" v="locality" />
		<tag k="ssr:stedsnr" v="904231" />
	</node>
	<node id="-148379" lat="61.0466749994" lon="9.73683055957">
		<tag k="name" v="Skaret" />
		<tag k="natural" v="valley" />
		<tag k="place" v="locality" />
		<tag k="ssr:stedsnr" v="904153" />
	</node>
	<node id="-146330" lat="61.0302611089" lon="9.7084833397">
		<tag k="name" v="Tobrennhøgde" />
		<tag k="natural" v="hill" />
		<tag k="place" v="locality" />
		<tag k="ssr:stedsnr" v="357231" />
	</node>
	<node id="-146328" lat="60.939244445" lon="9.70406110208">
		<tag k="name" v="Flein" />
		<tag k="natural" v="hill" />
		<tag k="place" v="locality" />
		<tag k="ssr:stedsnr" v="357211" />
	</node>
	<node id="-146323" lat="60.9000361138" lon="9.77093610877">
		<tag k="name" v="Snorobakkdalen" />
		<tag k="natural" v="valley" />
		<tag k="place" v="locality" />
		<tag k="ssr:stedsnr" v="357153" />
	</node>
	<node id="-146320" lat="60.8958027797" lon="9.70149999621">
		<tag k="fixme" v="consider natural=peak for the most distinct mountains in the district" />
		<tag k="name" v="Furuhøgde" />
		<tag k="natural" v="hill" />
		<tag k="place" v="locality" />
		<tag k="ssr:stedsnr" v="357026" />
	</node>
	<node id="-146319" lat="60.8859805519" lon="9.70471389123">
		<tag k="name" v="Øygardsberget" />
		<tag k="natural" v="cliff" />
		<tag k="ssr:stedsnr" v="357008" />
	</node>
	<node id="-146315" lat="60.9485527814" lon="9.65090000638">
		<tag k="name" v="Nyhusdalen" />
		<tag k="natural" v="valley" />
		<tag k="place" v="locality" />
		<tag k="ssr:stedsnr" v="356896" />
	</node>
	<node id="-146314" lat="61.0493055564" lon="9.62068611617">
		<tag k="name" v="Bjødnahaugen" />
		<tag k="natural" v="hill" />
		<tag k="place" v="locality" />
		<tag k="ssr:stedsnr" v="356876" />
	</node>
	<node id="-148361" lat="60.9647805589" lon="9.71914445047">
		<tag k="name" v="Garastøldalen" />
		<tag k="natural" v="valley" />
		<tag k="place" v="locality" />
		<tag k="ssr:stedsnr" v="903627" />
	</node>
	<node id="-148353" lat="60.932733334" lon="9.62803055235">
		<tag k="name" v="Kalbuhaugen" />
		<tag k="natural" v="hill" />
		<tag k="place" v="locality" />
		<tag k="ssr:stedsnr" v="903459" />
	</node>
	<node id="-148343" lat="60.8932555514" lon="9.73929722785">
		<tag k="alt_name" v="Tubbetjednhaugen" />
		<tag k="name" v="Tubbetjernhaugen" />
		<tag k="natural" v="hill" />
		<tag k="place" v="locality" />
		<tag k="ssr:stedsnr" v="903148" />
	</node>
	<node id="-148342" lat="60.8929638888" lon="9.67000000488">
		<tag k="name" v="Skålerudberget" />
		<tag k="natural" v="cliff" />
		<tag k="ssr:stedsnr" v="903111" />
	</node>
	<node id="-146293" lat="60.8378777781" lon="9.64285555283">
		<tag k="name" v="Meinsethalle" />
		<tag k="natural" v="slope" />
		<tag k="place" v="locality" />
		<tag k="ssr:stedsnr" v="356147" />
	</node>
	<node id="-146290" lat="60.9171361093" lon="9.65142222745">
		<tag k="name" v="Ørmura" />
		<tag k="natural" v="cliff" />
		<tag k="ssr:stedsnr" v="356104" />
	</node>
	<node id="-146287" lat="61.007602781" lon="9.58811945077">
		<tag k="name" v="Skarberget" />
		<tag k="place" v="locality" />
		<tag k="ssr:stedsnr" v="355335" />
	</node>
	<node id="-146285" lat="60.9987500041" lon="9.63948333259">
		<tag k="name" v="Turvabakkin" />
		<tag k="natural" v="hill" />
		<tag k="place" v="locality" />
		<tag k="ssr:stedsnr" v="355224" />
	</node>
	<node id="-148332" lat="60.8455972203" lon="9.65493334184">
		<tag k="alt_name" v="Flåtjednhaugen" />
		<tag k="name" v="Flåtjernhaugen" />
		<tag k="natural" v="hill" />
		<tag k="place" v="locality" />
		<tag k="ssr:stedsnr" v="903024" />
	</node>
	<node id="-148329" lat="61.0351583335" lon="9.64649166492">
		<tag k="alt_name" v="Skotjednhalle" />
		<tag k="name" v="Skotjernhalle" />
		<tag k="natural" v="slope" />
		<tag k="place" v="locality" />
		<tag k="ssr:stedsnr" v="902941" />
	</node>
	<node id="-146279" lat="60.9543972254" lon="9.75105556125">
		<tag k="alt_name" v="Meinsethaugatn" />
		<tag k="fixme" v="consider natural=peak for the most distinct mountains in the district" />
		<tag k="name" v="Meinsethaugen" />
		<tag k="natural" v="hill" />
		<tag k="place" v="locality" />
		<tag k="ssr:stedsnr" v="313973" />
	</node>
	<node id="-148323" lat="60.9641444443" lon="9.58925555487">
		<tag k="name" v="Karrusputthøgde" />
		<tag k="natural" v="hill" />
		<tag k="place" v="locality" />
		<tag k="ssr:stedsnr" v="902561" />
	</node>
	<node id="-148316" lat="61.0490000015" lon="9.58446110724">
		<tag k="name" v="Frugesetlie" />
		<tag k="natural" v="slope" />
		<tag k="place" v="locality" />
		<tag k="ssr:stedsnr" v="902356" />
	</node>
	<node id="-148313" lat="60.9015777793" lon="9.59235832647">
		<tag k="name" v="Trettedalen" />
		<tag k="natural" v="valley" />
		<tag k="place" v="locality" />
		<tag k="ssr:stedsnr" v="902263" />
	</node>
	<node id="-148310" lat="61.0840861091" lon="9.69428056261">
		<tag k="name" v="Feplassen" />
		<tag k="place" v="locality" />
		<tag k="ssr:stedsnr" v="902253" />
	</node>
	<node id="-148308" lat="61.0968666653" lon="9.70550277786">
		<tag k="name" v="Bjødnslette" />
		<tag k="place" v="locality" />
		<tag k="ssr:stedsnr" v="902247" />
	</node>
	<node id="-148307" lat="61.0984333358" lon="9.70298055226">
		<tag k="name" v="Lenningshøgdhalle" />
		<tag k="natural" v="slope" />
		<tag k="place" v="locality" />
		<tag k="ssr:stedsnr" v="902243" />
	</node>
	<node id="-148306" lat="61.0017906191" lon="9.65277934261">
		<tag k="name" v="Glennebakkin" />
		<tag k="natural" v="slope" />
		<tag k="place" v="locality" />
		<tag k="ssr:stedsnr" v="902224" />
	</node>
	<node id="-146255" lat="60.9860583304" lon="9.53835555948">
		<tag k="alt_name" v="Solbrekklii" />
		<tag k="name" v="Solbrekklie" />
		<tag k="natural" v="slope" />
		<tag k="place" v="locality" />
		<tag k="ssr:stedsnr" v="311384" />
	</node>
	<node id="-148302" lat="60.9009861082" lon="9.57985000027">
		<tag k="name" v="Øvre Skøre" />
		<tag k="place" v="locality" />
		<tag k="ssr:stedsnr" v="902131" />
	</node>
	<node id="-146253" lat="60.8943416626" lon="9.72984167354">
		<tag k="fixme" v="consider natural=peak for the most distinct mountains in the district" />
		<tag k="name" v="Kroktjernfjellet" />
		<tag k="natural" v="hill" />
		<tag k="place" v="locality" />
		<tag k="ssr:stedsnr" v="311078" />
	</node>
	<node id="-148081" lat="61.0655388902" lon="9.45329166593">
		<tag k="name" v="Øvreløohaugen" />
		<tag k="natural" v="hill" />
		<tag k="place" v="locality" />
		<tag k="ssr:stedsnr" v="782462" />
	</node>
	<node id="-148297" lat="60.9867888927" lon="9.61158888284">
		<tag k="name" v="Langdalen" />
		<tag k="natural" v="valley" />
		<tag k="place" v="locality" />
		<tag k="ssr:stedsnr" v="859961" />
	</node>
	<node id="-146234" lat="61.0807138896" lon="9.54263334041">
		<tag k="name" v="Høgehøgde" />
		<tag k="natural" v="hill" />
		<tag k="place" v="locality" />
		<tag k="ssr:stedsnr" v="297793" />
	</node>
	<node id="-148280" lat="60.8370916652" lon="9.69613055669">
		<tag k="fixme" v="consider natural=peak for the most distinct mountains in the district" />
		<tag k="name" v="Haustsæterfjellet" />
		<tag k="natural" v="hill" />
		<tag k="place" v="locality" />
		<tag k="ssr:stedsnr" v="859183" />
	</node>
	<node id="-146230" lat="60.8520000033" lon="9.73620834088">
		<tag k="name" v="Krutibakkin" />
		<tag k="place" v="locality" />
		<tag k="ssr:stedsnr" v="297755" />
	</node>
	<node id="-146228" lat="60.8815305567" lon="9.74753611071">
		<tag k="name" v="Beinstigdalhøgde" />
		<tag k="natural" v="hill" />
		<tag k="place" v="locality" />
		<tag k="ssr:stedsnr" v="297749" />
	</node>
	<node id="-146227" lat="60.8399583361" lon="9.71460832431">
		<tag k="name" v="Liaberget" />
		<tag k="natural" v="cliff" />
		<tag k="ssr:stedsnr" v="297672" />
	</node>
	<node id="-148274" lat="60.8884388852" lon="9.75338332779">
		<tag k="fixme" v="consider natural=peak for the most distinct mountains in the district" />
		<tag k="name" v="Haustsæterfjellet" />
		<tag k="natural" v="hill" />
		<tag k="place" v="locality" />
		<tag k="ssr:stedsnr" v="858115" />
	</node>
	<node id="-146225" lat="60.833852782" lon="9.6940916642">
		<tag k="name" v="Hestedalen" />
		<tag k="natural" v="valley" />
		<tag k="place" v="locality" />
		<tag k="ssr:stedsnr" v="297642" />
	</node>
	<node id="-146224" lat="60.9912472205" lon="9.53811110579">
		<tag k="name" v="Solbrekklie" />
		<tag k="natural" v="slope" />
		<tag k="place" v="locality" />
		<tag k="ssr:stedsnr" v="297634" />
	</node>
	<node id="-146223" lat="60.953991665" lon="9.73662500175">
		<tag k="name" v="Skoputthøgde" />
		<tag k="natural" v="hill" />
		<tag k="place" v="locality" />
		<tag k="ssr:stedsnr" v="297635" />
	</node>
	<node id="-146222" lat="60.8188777804" lon="9.72634721444">
		<tag k="name" v="Lierhaugen" />
		<tag k="natural" v="hill" />
		<tag k="place" v="locality" />
		<tag k="ssr:stedsnr" v="297986" />
	</node>
	<node id="-146221" lat="60.8213999997" lon="9.79162221955">
		<tag k="name" v="Krokbenddalen" />
		<tag k="natural" v="valley" />
		<tag k="place" v="locality" />
		<tag k="ssr:stedsnr" v="297532" />
	</node>
	<node id="-148268" lat="61.0893055559" lon="9.55603611604">
		<tag k="alt_name" v="Skardshøgde" />
		<tag k="name" v="Skardshøgdi" />
		<tag k="natural" v="hill" />
		<tag k="place" v="locality" />
		<tag k="ssr:stedsnr" v="857900" />
	</node>
	<node id="-146216" lat="60.9362583304" lon="9.76448610399">
		<tag k="name" v="Austre Steindavøllhøgde" />
		<tag k="natural" v="hill" />
		<tag k="place" v="locality" />
		<tag k="ssr:stedsnr" v="297388" />
	</node>
	<node id="-146214" lat="60.8459277774" lon="9.75763333673">
		<tag k="alt_name" v="Sørre Sjurukastet" />
		<tag k="name" v="Søre Sjurukastet" />
		<tag k="natural" v="hill" />
		<tag k="place" v="locality" />
		<tag k="ssr:stedsnr" v="297307" />
	</node>
	<node id="-146213" lat="60.8506583292" lon="9.76876943889">
		<tag k="name" v="Nedre Hyttebakkin" />
		<tag k="natural" v="slope" />
		<tag k="place" v="locality" />
		<tag k="ssr:stedsnr" v="297303" />
	</node>
	<node id="-148260" lat="61.0281416647" lon="9.50986667143">
		<tag k="name" v="Holoknatten" />
		<tag k="natural" v="hill" />
		<tag k="place" v="locality" />
		<tag k="ssr:stedsnr" v="854599" />
	</node>
	<node id="-146211" lat="61.0155250008" lon="9.66309167449">
		<tag k="name" v="Robølshaugen" />
		<tag k="natural" v="hill" />
		<tag k="place" v="locality" />
		<tag k="ssr:stedsnr" v="297239" />
	</node>
	<node id="-146208" lat="60.8563027797" lon="9.66308610309">
		<tag k="name" v="Lysengskålin" />
		<tag k="place" v="locality" />
		<tag k="ssr:stedsnr" v="297181" />
	</node>
	<node id="-148255" lat="60.8204361091" lon="9.77073056302">
		<tag k="name" v="Sveabakkin" />
		<tag k="natural" v="slope" />
		<tag k="place" v="locality" />
		<tag k="ssr:stedsnr" v="844586" />
	</node>
	<node id="-148253" lat="60.8145027746" lon="9.79639722939">
		<tag k="name" v="Finnstogolie" />
		<tag k="natural" v="slope" />
		<tag k="place" v="locality" />
		<tag k="ssr:stedsnr" v="844549" />
	</node>
	<node id="-146204" lat="61.0306527814" lon="9.50776111901">
		<tag k="name" v="Kølskålin" />
		<tag k="place" v="locality" />
		<tag k="ssr:stedsnr" v="297109" />
	</node>
	<node id="-146203" lat="60.9246361132" lon="9.5857416718">
		<tag k="name" v="Heimstøldalen" />
		<tag k="natural" v="valley" />
		<tag k="place" v="locality" />
		<tag k="ssr:stedsnr" v="296957" />
	</node>
	<node id="-146202" lat="60.9254888931" lon="9.57740000199">
		<tag k="alt_name" v="Urdtjednhallitn" />
		<tag k="name" v="Urdtjernhallitn" />
		<tag k="place" v="locality" />
		<tag k="ssr:stedsnr" v="296955" />
	</node>
	<node id="-146201" lat="61.041411113" lon="9.68799721924">
		<tag k="alt_name" v="Øvre Bakketjednhøgde" />
		<tag k="name" v="Øvre Bakketjernhøgde" />
		<tag k="natural" v="hill" />
		<tag k="place" v="locality" />
		<tag k="ssr:stedsnr" v="296946" />
	</node>
	<node id="-148247" lat="61.0507777756" lon="9.47456388496">
		<tag k="name" v="Trandeberget" />
		<tag k="natural" v="slope" />
		<tag k="place" v="locality" />
		<tag k="ssr:stedsnr" v="844201" />
	</node>
	<node id="-148243" lat="61.048625004" lon="9.68663610851">
		<tag k="alt_name" v="Øvre Langtjednhøgde" />
		<tag k="name" v="Øvre Langtjernhøgde" />
		<tag k="natural" v="hill" />
		<tag k="place" v="locality" />
		<tag k="ssr:stedsnr" v="843926" />
	</node>
	<node id="-146191" lat="60.9224250035" lon="9.6658249936">
		<tag k="alt_name" v="Damtjednberget" />
		<tag k="name" v="Damtjernberget" />
		<tag k="natural" v="cliff" />
		<tag k="ssr:stedsnr" v="296695" />
	</node>
	<node id="-146189" lat="60.9609472216" lon="9.72705277709">
		<tag k="name" v="Garastølberget" />
		<tag k="natural" v="hill" />
		<tag k="place" v="locality" />
		<tag k="ssr:stedsnr" v="296630" />
	</node>
	<node id="-148236" lat="60.9219111106" lon="9.78448611723">
		<tag k="alt_name" v="Pillartjednhøgde" />
		<tag k="name" v="Pillartjernhøgde" />
		<tag k="natural" v="hill" />
		<tag k="place" v="locality" />
		<tag k="ssr:stedsnr" v="843828" />
	</node>
	<node id="-146182" lat="60.9190472235" lon="9.67888332981">
		<tag k="name" v="Haraslette" />
		<tag k="place" v="locality" />
		<tag k="ssr:stedsnr" v="296506" />
	</node>
	<node id="-146181" lat="60.9186083303" lon="9.71151944966">
		<tag k="name" v="Jonstølhøgde" />
		<tag k="natural" v="hill" />
		<tag k="place" v="locality" />
		<tag k="ssr:stedsnr" v="296502" />
	</node>
	<node id="-146180" lat="60.9714361111" lon="9.6786888851">
		<tag k="name" v="Nedre Hallaberget" />
		<tag k="natural" v="cliff" />
		<tag k="ssr:stedsnr" v="296497" />
	</node>
	<node id="-148227" lat="60.9530944456" lon="9.73313332872">
		<tag k="name" v="Åkerhaugen" />
		<tag k="natural" v="hill" />
		<tag k="place" v="locality" />
		<tag k="ssr:stedsnr" v="843664" />
	</node>
	<node id="-148225" lat="60.9597138849" lon="9.76200000552">
		<tag k="name" v="Nissehaugen" />
		<tag k="natural" v="hill" />
		<tag k="place" v="locality" />
		<tag k="ssr:stedsnr" v="843636" />
	</node>
	<node id="-146176" lat="60.9045777803" lon="9.61658054852">
		<tag k="name" v="Surtebakkin" />
		<tag k="natural" v="slope" />
		<tag k="place" v="locality" />
		<tag k="ssr:stedsnr" v="296388" />
	</node>
	<node id="-148222" lat="60.9231694451" lon="9.70975833859">
		<tag k="name" v="Bergstølknatten" />
		<tag k="natural" v="hill" />
		<tag k="place" v="locality" />
		<tag k="ssr:stedsnr" v="843569" />
	</node>
	<node id="-146173" lat="61.0107916684" lon="9.75421667557">
		<tag k="alt_name" v="Gravatjednhaugen" />
		<tag k="name" v="Gravatjernhaugen" />
		<tag k="natural" v="hill" />
		<tag k="place" v="locality" />
		<tag k="ssr:stedsnr" v="296368" />
	</node>
	<node id="-148219" lat="60.9052611139" lon="9.54517777109">
		<tag k="name" v="Fjellkinna" />
		<tag k="natural" v="hill" />
		<tag k="place" v="locality" />
		<tag k="ssr:stedsnr" v="843428" />
	</node>
	<node id="-148218" lat="60.8983027759" lon="9.53848054662">
		<tag k="name" v="Nonneknatten" />
		<tag k="natural" v="hill" />
		<tag k="place" v="locality" />
		<tag k="ssr:stedsnr" v="843426" />
	</node>
	<node id="-148216" lat="60.935561108" lon="9.52549166715">
		<tag k="name" v="Veslestiklingshøgde" />
		<tag k="natural" v="hill" />
		<tag k="place" v="locality" />
		<tag k="ssr:stedsnr" v="843391" />
	</node>
	<node id="-148215" lat="61.0644277821" lon="9.51532221525">
		<tag k="name" v="Kvitberglie" />
		<tag k="natural" v="slope" />
		<tag k="place" v="locality" />
		<tag k="ssr:stedsnr" v="843387" />
	</node>
	<node id="-146166" lat="61.0177472186" lon="9.65124445064">
		<tag k="name" v="Skålelihøgde" />
		<tag k="natural" v="hill" />
		<tag k="place" v="locality" />
		<tag k="ssr:stedsnr" v="296220" />
	</node>
	<node id="-148211" lat="60.9348527805" lon="9.73428332935">
		<tag k="name" v="Puttemyrhøgde" />
		<tag k="natural" v="hill" />
		<tag k="place" v="locality" />
		<tag k="ssr:stedsnr" v="843363" />
	</node>
	<node id="-148209" lat="60.9487416624" lon="9.51101389372">
		<tag k="name" v="Åsletthøgde" />
		<tag k="natural" v="hill" />
		<tag k="place" v="locality" />
		<tag k="ssr:stedsnr" v="843351" />
	</node>
	<node id="-146160" lat="60.8532250041" lon="9.63661110551">
		<tag k="alt_name" v="Nøkkeltjednbrenne" />
		<tag k="name" v="Nøkletjernbrenne" />
		<tag k="natural" v="hill" />
		<tag k="place" v="locality" />
		<tag k="ssr:stedsnr" v="296070" />
	</node>
	<node id="-146159" lat="60.9204694473" lon="9.604494447">
		<tag k="name" v="Rennehøgde" />
		<tag k="natural" v="ridge" />
		<tag k="place" v="locality" />
		<tag k="ssr:stedsnr" v="296066" />
	</node>
	<node id="-146156" lat="60.9046055579" lon="9.70217500333">
		<tag k="name" v="Flætangin" />
		<tag k="natural" v="hill" />
		<tag k="place" v="locality" />
		<tag k="ssr:stedsnr" v="296015" />
	</node>
	<node id="-146152" lat="61.0456138933" lon="9.59500833605">
		<tag k="name" v="Nyhuslie" />
		<tag k="natural" v="slope" />
		<tag k="place" v="locality" />
		<tag k="ssr:stedsnr" v="295892" />
	</node>
	<node id="-148199" lat="61.0765611106" lon="9.67358055632">
		<tag k="name" v="Hafsennhalle" />
		<tag k="natural" v="slope" />
		<tag k="place" v="locality" />
		<tag k="ssr:stedsnr" v="843177" />
	</node>
	<node id="-146150" lat="61.0137333319" lon="9.57604167028">
		<tag k="name" v="Pinshaugberget" />
		<tag k="natural" v="hill" />
		<tag k="place" v="locality" />
		<tag k="ssr:stedsnr" v="295605" />
	</node>
	<node id="-148195" lat="60.8521694441" lon="9.66539165886">
		<tag k="fixme" v="consider natural=peak for the most distinct mountains in the district" />
		<tag k="name" v="Hesjahøgde" />
		<tag k="natural" v="hill" />
		<tag k="place" v="locality" />
		<tag k="ssr:stedsnr" v="843157" />
	</node>
	<node id="-146145" lat="60.9158277801" lon="9.67284167557">
		<tag k="name" v="Hovdahaugen" />
		<tag k="natural" v="hill" />
		<tag k="place" v="locality" />
		<tag k="ssr:stedsnr" v="295524" />
	</node>
	<node id="-148192" lat="60.8491361102" lon="9.69355833213">
		<tag k="name" v="Duggurdshølet" />
		<tag k="natural" v="valley" />
		<tag k="place" v="locality" />
		<tag k="ssr:stedsnr" v="843120" />
	</node>
	<node id="-146142" lat="61.0049777819" lon="9.53958333662">
		<tag k="name" v="Skardberget" />
		<tag k="natural" v="cliff" />
		<tag k="ssr:stedsnr" v="297618" />
	</node>
	<node id="-146140" lat="60.8959694469" lon="9.63147222296">
		<tag k="name" v="Rødningslie" />
		<tag k="natural" v="slope" />
		<tag k="place" v="locality" />
		<tag k="ssr:stedsnr" v="295380" />
	</node>
	<node id="-146139" lat="61.0378111117" lon="9.58680833306">
		<tag k="name" v="Gohauglie" />
		<tag k="natural" v="slope" />
		<tag k="place" v="locality" />
		<tag k="ssr:stedsnr" v="295371" />
	</node>
	<node id="-148185" lat="60.9127250022" lon="9.55961388802">
		<tag k="alt_name" v="Damtjednlie" />
		<tag k="name" v="Damtjernlie" />
		<tag k="natural" v="slope" />
		<tag k="place" v="locality" />
		<tag k="ssr:stedsnr" v="842789" />
	</node>
	<node id="-146136" lat="61.0791222188" lon="9.67635834133">
		<tag k="name" v="Rundehaugen" />
		<tag k="natural" v="hill" />
		<tag k="place" v="locality" />
		<tag k="ssr:stedsnr" v="295255" />
	</node>
	<node id="-148180" lat="60.9240500024" lon="9.58272223047">
		<tag k="name" v="Heimstølknatten" />
		<tag k="natural" v="hill" />
		<tag k="place" v="locality" />
		<tag k="ssr:stedsnr" v="842628" />
	</node>
	<node id="-146130" lat="60.8953583322" lon="9.56471111228">
		<tag k="name" v="Raunehallhøgde" />
		<tag k="natural" v="hill" />
		<tag k="place" v="locality" />
		<tag k="ssr:stedsnr" v="295003" />
	</node>
	<node id="-148173" lat="60.9942055551" lon="9.75761389549">
		<tag k="name" v="Breistøldalen" />
		<tag k="natural" v="valley" />
		<tag k="place" v="locality" />
		<tag k="ssr:stedsnr" v="842477" />
	</node>
	<node id="-148170" lat="60.9478277741" lon="9.56479166959">
		<tag k="name" v="Lauvhaugen" />
		<tag k="natural" v="hill" />
		<tag k="place" v="locality" />
		<tag k="ssr:stedsnr" v="842409" />
	</node>
	<node id="-148162" lat="60.8975333346" lon="9.59359167416">
		<tag k="name" v="Sjaksknatten" />
		<tag k="natural" v="hill" />
		<tag k="place" v="locality" />
		<tag k="ssr:stedsnr" v="842216" />
	</node>
	<node id="-148161" lat="61.0089972198" lon="9.64063333797">
		<tag k="name" v="Rustelie" />
		<tag k="natural" v="slope" />
		<tag k="place" v="locality" />
		<tag k="ssr:stedsnr" v="842212" />
	</node>
	<node id="-148159" lat="60.903808329" lon="9.56902500118">
		<tag k="alt_name" v="Lustjednlie" />
		<tag k="name" v="Lustjernlie" />
		<tag k="natural" v="slope" />
		<tag k="place" v="locality" />
		<tag k="ssr:stedsnr" v="842133" />
	</node>
	<node id="-148157" lat="61.0877500017" lon="9.62616944573">
		<tag k="name" v="Gråurdshøgde" />
		<tag k="natural" v="hill" />
		<tag k="place" v="locality" />
		<tag k="ssr:stedsnr" v="842071" />
	</node>
	<node id="-148155" lat="61.104669442" lon="9.55315277226">
		<tag k="fixme" v="consider natural=peak for the most distinct mountains in the district" />
		<tag k="name" v="Stuvelihøgde" />
		<tag k="natural" v="hill" />
		<tag k="place" v="locality" />
		<tag k="ssr:stedsnr" v="842035" />
	</node>
	<node id="-148149" lat="60.8704388927" lon="9.59332777838">
		<tag k="name" v="Rabben" />
		<tag k="natural" v="hill" />
		<tag k="place" v="locality" />
		<tag k="ssr:stedsnr" v="842828" />
	</node>
	<node id="-148146" lat="61.0224833315" lon="9.52857500267">
		<tag k="name" v="Hieisberget" />
		<tag k="natural" v="cliff" />
		<tag k="ssr:stedsnr" v="802732" />
	</node>
	<node id="-148145" lat="61.0254694438" lon="9.53454722027">
		<tag k="name" v="Kløvberget" />
		<tag k="natural" v="hill" />
		<tag k="place" v="locality" />
		<tag k="ssr:stedsnr" v="799599" />
	</node>
	<node id="-148143" lat="60.9762000041" lon="9.66148056423">
		<tag k="alt_name" v="Nystølåsen" />
		<tag k="fixme" v="consider natural=peak for the most distinct mountains in the district" />
		<tag k="name" v="Nystølhaugen" />
		<tag k="natural" v="hill" />
		<tag k="place" v="locality" />
		<tag k="ssr:stedsnr" v="798987" />
	</node>
	<node id="-148138" lat="60.933344446" lon="9.68573612015">
		<tag k="alt_name" v="Vardafjellet" />
		<tag k="fixme" v="consider natural=peak for the most distinct mountains in the district" />
		<tag k="name" v="Vardafjell" />
		<tag k="natural" v="hill" />
		<tag k="place" v="locality" />
		<tag k="ssr:stedsnr" v="798859" />
	</node>
	<node id="-148132" lat="60.8499888907" lon="9.7158638806">
		<tag k="alt_name" v="Bakkeberget" />
		<tag k="name" v="Rustbakkberget" />
		<tag k="natural" v="cliff" />
		<tag k="ssr:stedsnr" v="798056" />
	</node>
	<node id="-148131" lat="60.8796472221" lon="9.57135832697">
		<tag k="name" v="Rabben" />
		<tag k="natural" v="ridge" />
		<tag k="place" v="locality" />
		<tag k="ssr:stedsnr" v="797690" />
	</node>
	<node id="-148251" lat="60.8473055561" lon="9.75687500561">
		<tag k="name" v="Norre Sjurukastet" />
		<tag k="natural" v="hill" />
		<tag k="place" v="locality" />
		<tag k="ssr:stedsnr" v="844280" />
	</node>
	<node id="-148119" lat="61.0465773674" lon="9.69872223038">
		<tag k="name" v="Langtjernhøgdi" />
		<tag k="natural" v="hill" />
		<tag k="place" v="locality" />
		<tag k="ssr:stedsnr" v="796641" />
	</node>
	<node id="-148118" lat="61.0447388869" lon="9.60410000278">
		<tag k="alt_name" v="Gohaugen" />
		<tag k="name" v="Bjørnestølhøgdi" />
		<tag k="natural" v="hill" />
		<tag k="place" v="locality" />
		<tag k="ssr:stedsnr" v="796640" />
	</node>
	<node id="-148106" lat="60.9656222231" lon="9.54499167115">
		<tag k="fixme" v="consider natural=peak for the most distinct mountains in the district" />
		<tag k="name" v="Gravåsen" />
		<tag k="natural" v="hill" />
		<tag k="place" v="locality" />
		<tag k="ssr:stedsnr" v="798577" />
	</node>
	<node id="-148102" lat="61.0638388848" lon="9.49241388678">
		<tag k="name" v="Kvitberglie" />
		<tag k="natural" v="slope" />
		<tag k="place" v="locality" />
		<tag k="ssr:stedsnr" v="783786" />
	</node>
	<node id="-148101" lat="61.0697694483" lon="9.47341945339">
		<tag k="name" v="Peissteinberget" />
		<tag k="natural" v="hill" />
		<tag k="place" v="locality" />
		<tag k="ssr:stedsnr" v="783784" />
	</node>
	<node id="-148100" lat="60.9495166684" lon="9.53136945132">
		<tag k="name" v="Lushattdalen" />
		<tag k="natural" v="valley" />
		<tag k="place" v="locality" />
		<tag k="ssr:stedsnr" v="783733" />
	</node>
	<node id="-148097" lat="60.9996805529" lon="9.53041388358">
		<tag k="name" v="Lundmolie" />
		<tag k="natural" v="slope" />
		<tag k="place" v="locality" />
		<tag k="ssr:stedsnr" v="783636" />
	</node>
	<node id="-148094" lat="61.0371361082" lon="9.66445000131">
		<tag k="alt_name" v="Kalvetjednhalle" />
		<tag k="name" v="Kalvetjernhalle" />
		<tag k="natural" v="slope" />
		<tag k="place" v="locality" />
		<tag k="ssr:stedsnr" v="782941" />
	</node>
	<node id="-148086" lat="60.8770194423" lon="9.76247777908">
		<tag k="name" v="Gråbeindalen" />
		<tag k="natural" v="valley" />
		<tag k="place" v="locality" />
		<tag k="ssr:stedsnr" v="782716" />
	</node>
	<node id="-146195" lat="60.9514305597" lon="9.70495832818">
		<tag k="name" v="Svartkinnhaugen" />
		<tag k="natural" v="hill" />
		<tag k="place" v="locality" />
		<tag k="ssr:stedsnr" v="296803" />
	</node>
	<node id="-148079" lat="60.9258083345" lon="9.53997777278">
		<tag k="name" v="Grauteberget" />
		<tag k="natural" v="hill" />
		<tag k="place" v="locality" />
		<tag k="ssr:stedsnr" v="782383" />
	</node>
	<node id="-148078" lat="60.9969583328" lon="9.66834444774">
		<tag k="name" v="Dansarfeten" />
		<tag k="place" v="locality" />
		<tag k="ssr:stedsnr" v="782378" />
	</node>
	<node id="-148073" lat="61.0263722235" lon="9.64009443888">
		<tag k="name" v="Skildnahaugen" />
		<tag k="natural" v="hill" />
		<tag k="place" v="locality" />
		<tag k="ssr:stedsnr" v="782263" />
	</node>
	<node id="-146232" lat="60.8763777804" lon="9.72759722493">
		<tag k="name" v="Klovoberget" />
		<tag k="natural" v="cliff" />
		<tag k="ssr:stedsnr" v="297777" />
	</node>
	<node id="-148067" lat="60.9799444431" lon="9.76640277912">
		<tag k="name" v="Sviloshalle" />
		<tag k="natural" v="slope" />
		<tag k="place" v="locality" />
		<tag k="ssr:stedsnr" v="782156" />
	</node>
	<node id="-148062" lat="60.8515777742" lon="9.68534721349">
		<tag k="name" v="Grønedalen" />
		<tag k="natural" v="valley" />
		<tag k="place" v="locality" />
		<tag k="ssr:stedsnr" v="782135" />
	</node>
	<node id="-148239" lat="60.9505861146" lon="9.68989445241">
		<tag k="name" v="Matvikdalen" />
		<tag k="natural" v="valley" />
		<tag k="place" v="locality" />
		<tag k="ssr:stedsnr" v="843849" />
	</node>
	<node id="-148055" lat="60.8846833328" lon="9.71218333285">
		<tag k="name" v="Flishøvelen" />
		<tag k="place" v="locality" />
		<tag k="ssr:stedsnr" v="782009" />
	</node>
	<node id="-148052" lat="61.040436114" lon="9.59655832534">
		<tag k="name" v="Gohauglie" />
		<tag k="natural" v="slope" />
		<tag k="place" v="locality" />
		<tag k="ssr:stedsnr" v="781902" />
	</node>
	<node id="-148051" lat="61.0536583372" lon="9.63458888203">
		<tag k="name" v="Styggdalen" />
		<tag k="natural" v="valley" />
		<tag k="place" v="locality" />
		<tag k="ssr:stedsnr" v="781899" />
	</node>
	<node id="-148047" lat="60.878591668" lon="9.55730556197">
		<tag k="name" v="Samelstadhallitn" />
		<tag k="natural" v="slope" />
		<tag k="place" v="locality" />
		<tag k="ssr:stedsnr" v="781840" />
	</node>
	<node id="-148044" lat="60.9097999986" lon="9.75437500076">
		<tag k="name" v="Bamserudslette" />
		<tag k="place" v="locality" />
		<tag k="ssr:stedsnr" v="781762" />
	</node>
	<node id="-148043" lat="60.9303833321" lon="9.60804166344">
		<tag k="name" v="Skogstadberget" />
		<tag k="natural" v="hill" />
		<tag k="place" v="locality" />
		<tag k="ssr:stedsnr" v="781737" />
	</node>
	<node id="-148041" lat="60.9320194476" lon="9.65351388309">
		<tag k="name" v="Skreodalen" />
		<tag k="natural" v="valley" />
		<tag k="place" v="locality" />
		<tag k="ssr:stedsnr" v="781721" />
	</node>
	<node id="-148033" lat="60.9624861122" lon="9.58021389429">
		<tag k="name" v="Leikhøgde" />
		<tag k="natural" v="hill" />
		<tag k="place" v="locality" />
		<tag k="ssr:stedsnr" v="781530" />
	</node>
	<node id="-148032" lat="60.9495138902" lon="9.59253054648">
		<tag k="name" v="Ragnhildhuslie" />
		<tag k="natural" v="slope" />
		<tag k="place" v="locality" />
		<tag k="ssr:stedsnr" v="781509" />
	</node>
	<node id="-148030" lat="60.9985138852" lon="9.75656943921">
		<tag k="name" v="Duggurdshaugdalen" />
		<tag k="natural" v="valley" />
		<tag k="place" v="locality" />
		<tag k="ssr:stedsnr" v="781476" />
	</node>
	<node id="-148024" lat="61.0421277817" lon="9.56220833824">
		<tag k="name" v="Spelmannshaugen" />
		<tag k="natural" v="hill" />
		<tag k="place" v="locality" />
		<tag k="ssr:stedsnr" v="781332" />
	</node>
	<node id="-148020" lat="60.8965222187" lon="9.57825832544">
		<tag k="name" v="Høgehaugen" />
		<tag k="natural" v="hill" />
		<tag k="place" v="locality" />
		<tag k="ssr:stedsnr" v="781236" />
	</node>
	<node id="-148017" lat="60.8585972211" lon="9.64190832441">
		<tag k="fixme" v="consider natural=peak for the most distinct mountains in the district" />
		<tag k="name" v="Haugsåsen" />
		<tag k="natural" v="hill" />
		<tag k="place" v="locality" />
		<tag k="ssr:stedsnr" v="781115" />
	</node>
	<node id="-148010" lat="60.9593694487" lon="9.68075555416">
		<tag k="alt_name" v="Totjeddenhøgde" />
		<tag k="fixme" v="consider natural=peak for the most distinct mountains in the district" />
		<tag k="name" v="Totjernhøgde" />
		<tag k="natural" v="hill" />
		<tag k="place" v="locality" />
		<tag k="ssr:stedsnr" v="778066" />
	</node>
	<node id="-148230" lat="61.1120111075" lon="9.67064165774">
		<tag k="name" v="Tubba" />
		<tag k="natural" v="hill" />
		<tag k="place" v="locality" />
		<tag k="ssr:stedsnr" v="843749" />
	</node>
	<node id="-147996" lat="60.8588027749" lon="9.70582500657">
		<tag k="alt_name" v="Lybekkskaret" />
		<tag k="name" v="Lybekkskardet" />
		<tag k="natural" v="valley" />
		<tag k="place" v="locality" />
		<tag k="ssr:stedsnr" v="737006" />
	</node>
	<node id="-148228" lat="60.9250416644" lon="9.71922500709">
		<tag k="name" v="Skaret" />
		<tag k="natural" v="valley" />
		<tag k="place" v="locality" />
		<tag k="ssr:stedsnr" v="843709" />
	</node>
	<node id="-147977" lat="61.0519583356" lon="9.66139167415">
		<tag k="fixme" v="consider natural=peak for the most distinct mountains in the district" />
		<tag k="name" v="Jomfruslettfjellet" />
		<tag k="natural" v="hill" />
		<tag k="place" v="locality" />
		<tag k="ssr:stedsnr" v="736626" />
	</node>
	<node id="-147976" lat="61.0662777735" lon="9.60646667213">
		<tag k="name" v="Grøvabergi" />
		<tag k="natural" v="hill" />
		<tag k="place" v="locality" />
		<tag k="ssr:stedsnr" v="736611" />
	</node>
	<node id="-147975" lat="61.0202694448" lon="9.545875003">
		<tag k="name" v="Kvednahusdalen" />
		<tag k="natural" v="valley" />
		<tag k="place" v="locality" />
		<tag k="ssr:stedsnr" v="724565" />
	</node>
	<node id="-146177" lat="60.8891694424" lon="9.62227222852">
		<tag k="name" v="Brøtaberget" />
		<tag k="natural" v="cliff" />
		<tag k="ssr:stedsnr" v="296443" />
	</node>
	<node id="-147961" lat="61.0760972238" lon="9.54991111859">
		<tag k="name" v="Hovda" />
		<tag k="natural" v="hill" />
		<tag k="place" v="locality" />
		<tag k="ssr:stedsnr" v="722492" />
	</node>
	<node id="-147957" lat="60.8479750029" lon="9.77314166855">
		<tag k="name" v="Gråndalen" />
		<tag k="natural" v="valley" />
		<tag k="place" v="locality" />
		<tag k="ssr:stedsnr" v="722299" />
	</node>
	<node id="-147941" lat="60.9147972187" lon="9.71217222711">
		<tag k="name" v="Gråbeindalen" />
		<tag k="natural" v="valley" />
		<tag k="place" v="locality" />
		<tag k="ssr:stedsnr" v="721516" />
	</node>
	<node id="-147940" lat="60.8877249958" lon="9.61865277607">
		<tag k="name" v="Plassaberget" />
		<tag k="natural" v="cliff" />
		<tag k="ssr:stedsnr" v="721481" />
	</node>
	<node id="-147938" lat="60.9478138885" lon="9.74011943737">
		<tag k="alt_name" v="Småtjednberget" />
		<tag k="name" v="Småtjernberget" />
		<tag k="natural" v="slope" />
		<tag k="place" v="locality" />
		<tag k="ssr:stedsnr" v="721458" />
	</node>
	<node id="-147936" lat="60.9925499965" lon="9.70524167309">
		<tag k="name" v="Grånstølhøgde" />
		<tag k="natural" v="hill" />
		<tag k="place" v="locality" />
		<tag k="ssr:stedsnr" v="721411" />
	</node>
	<node id="-147931" lat="60.9094055593" lon="9.72012777962">
		<tag k="name" v="Austre Lundsæterhaugen" />
		<tag k="natural" v="hill" />
		<tag k="place" v="locality" />
		<tag k="ssr:stedsnr" v="721716" />
	</node>
	<node id="-147930" lat="60.9062888865" lon="9.72197499678">
		<tag k="name" v="Vestre Lundsæterhaugen" />
		<tag k="natural" v="hill" />
		<tag k="place" v="locality" />
		<tag k="ssr:stedsnr" v="721714" />
	</node>
	<node id="-147927" lat="61.0213416686" lon="9.63903055951">
		<tag k="name" v="Skibakkin" />
		<tag k="natural" v="slope" />
		<tag k="place" v="locality" />
		<tag k="ssr:stedsnr" v="721233" />
	</node>
	<node id="-147925" lat="60.9404861095" lon="9.69476943991">
		<tag k="name" v="Heggedal" />
		<tag k="natural" v="valley" />
		<tag k="place" v="locality" />
		<tag k="ssr:stedsnr" v="721194" />
	</node>
	<node id="-147921" lat="61.0601027751" lon="9.69670278094">
		<tag k="name" v="Jomfruslettfjellet" />
		<tag k="natural" v="hill" />
		<tag k="place" v="locality" />
		<tag k="ssr:stedsnr" v="721161" />
	</node>
	<node id="-147917" lat="60.9724916644" lon="9.71726666758">
		<tag k="alt_name" v="Uksetjednlie" />
		<tag k="name" v="Uksetjernlie" />
		<tag k="natural" v="slope" />
		<tag k="place" v="locality" />
		<tag k="ssr:stedsnr" v="721142" />
	</node>
	<node id="-147916" lat="60.894808332" lon="9.72123611465">
		<tag k="name" v="Gåseberghøgde" />
		<tag k="natural" v="ridge" />
		<tag k="place" v="locality" />
		<tag k="ssr:stedsnr" v="721139" />
	</node>
	<node id="-146167" lat="60.9947888922" lon="9.56987499214">
		<tag k="name" v="Kvite Kompen" />
		<tag k="place" v="locality" />
		<tag k="ssr:stedsnr" v="296277" />
	</node>
	<node id="-147912" lat="60.8867916696" lon="9.73256943924">
		<tag k="name" v="Selbrennshøgde" />
		<tag k="natural" v="hill" />
		<tag k="place" v="locality" />
		<tag k="ssr:stedsnr" v="721050" />
	</node>
	<node id="-147907" lat="60.9483277737" lon="9.60277222937">
		<tag k="name" v="Kringlelie" />
		<tag k="natural" v="slope" />
		<tag k="place" v="locality" />
		<tag k="ssr:stedsnr" v="720929" />
	</node>
	<node id="-147906" lat="60.9551361072" lon="9.63535833545">
		<tag k="name" v="Dokkaberget" />
		<tag k="natural" v="cliff" />
		<tag k="ssr:stedsnr" v="720923" />
	</node>
	<node id="-147902" lat="61.0444277796" lon="9.61105555879">
		<tag k="name" v="Bjødnastøllie" />
		<tag k="natural" v="slope" />
		<tag k="place" v="locality" />
		<tag k="ssr:stedsnr" v="720905" />
	</node>
	<node id="-147900" lat="60.881494441" lon="9.58852221362">
		<tag k="name" v="Breieshaugen" />
		<tag k="natural" v="hill" />
		<tag k="place" v="locality" />
		<tag k="ssr:stedsnr" v="720857" />
	</node>
	<node id="-147899" lat="60.8786944467" lon="9.58771666618">
		<tag k="name" v="Bakke" />
		<tag k="natural" v="slope" />
		<tag k="place" v="locality" />
		<tag k="ssr:stedsnr" v="720855" />
	</node>
	<node id="-147898" lat="60.9309388904" lon="9.61827221314">
		<tag k="name" v="Heimskoglie" />
		<tag k="natural" v="slope" />
		<tag k="place" v="locality" />
		<tag k="ssr:stedsnr" v="720739" />
	</node>
	<node id="-147895" lat="60.9764749975" lon="9.64531944725">
		<tag k="name" v="Lauvhallhøgde" />
		<tag k="natural" v="hill" />
		<tag k="place" v="locality" />
		<tag k="ssr:stedsnr" v="720677" />
	</node>
	<node id="-147886" lat="60.9395305566" lon="9.57961110264">
		<tag k="name" v="Rotdikje" />
		<tag k="place" v="locality" />
		<tag k="ssr:stedsnr" v="720411" />
	</node>
	<node id="-147884" lat="60.9308388865" lon="9.57589167318">
		<tag k="name" v="Storhusskaret" />
		<tag k="natural" v="valley" />
		<tag k="place" v="locality" />
		<tag k="ssr:stedsnr" v="720402" />
	</node>
	<node id="-147881" lat="60.8959444452" lon="9.60729167274">
		<tag k="name" v="Løppelihaugen" />
		<tag k="natural" v="hill" />
		<tag k="place" v="locality" />
		<tag k="ssr:stedsnr" v="720382" />
	</node>
	<node id="-147875" lat="61.0697249957" lon="9.65025278263">
		<tag k="name" v="Hafsennstølhøgde" />
		<tag k="natural" v="hill" />
		<tag k="place" v="locality" />
		<tag k="ssr:stedsnr" v="720284" />
	</node>
	<node id="-147872" lat="61.0655527804" lon="9.56816388251">
		<tag k="name" v="Huldranabben" />
		<tag k="natural" v="hill" />
		<tag k="place" v="locality" />
		<tag k="ssr:stedsnr" v="720256" />
	</node>
	<node id="-147870" lat="60.9523166698" lon="9.58613888752">
		<tag k="name" v="Langemoen" />
		<tag k="place" v="locality" />
		<tag k="ssr:stedsnr" v="720524" />
	</node>
	<node id="-147866" lat="60.8942694447" lon="9.59038056094">
		<tag k="name" v="Usledalen" />
		<tag k="natural" v="valley" />
		<tag k="place" v="locality" />
		<tag k="ssr:stedsnr" v="720004" />
	</node>
	<node id="-147862" lat="61.0061500042" lon="9.57309444363">
		<tag k="name" v="Brøtatn" />
		<tag k="place" v="locality" />
		<tag k="ssr:stedsnr" v="719341" />
	</node>
	<node id="-147857" lat="61.1028027818" lon="9.66668055199">
		<tag k="name" v="Hølbekknabben" />
		<tag k="natural" v="ridge" />
		<tag k="place" v="locality" />
		<tag k="ssr:stedsnr" v="693727" />
	</node>
	<node id="-147856" lat="60.9902749977" lon="9.6903472163">
		<tag k="name" v="Grånstøllie" />
		<tag k="natural" v="slope" />
		<tag k="place" v="locality" />
		<tag k="ssr:stedsnr" v="693627" />
	</node>
	<node id="-147847" lat="60.9780861077" lon="9.68093889631">
		<tag k="alt_name" v="Utsikta" />
		<tag k="fixme" v="consider natural=peak for the most distinct mountains in the district" />
		<tag k="name" v="Utsikte" />
		<tag k="natural" v="hill" />
		<tag k="place" v="locality" />
		<tag k="ssr:stedsnr" v="676986" />
	</node>
	<node id="-147843" lat="60.9652499965" lon="9.7077555599">
		<tag k="alt_name" v="Nedre Kinnhaugen" />
		<tag k="fixme" v="consider natural=peak for the most distinct mountains in the district" />
		<tag k="name" v="Kinnhaugen" />
		<tag k="natural" v="hill" />
		<tag k="place" v="locality" />
		<tag k="ssr:stedsnr" v="676956" />
	</node>
	<node id="-147842" lat="60.9627499966" lon="9.73865277119">
		<tag k="fixme" v="consider natural=peak for the most distinct mountains in the district" />
		<tag k="name" v="Garastølhaugen" />
		<tag k="natural" v="hill" />
		<tag k="place" v="locality" />
		<tag k="ssr:stedsnr" v="676954" />
	</node>
	<node id="-147839" lat="60.9091361115" lon="9.60913055228">
		<tag k="alt_name" v="Kvithovdan" />
		<tag k="fixme" v="consider natural=peak for the most distinct mountains in the district" />
		<tag k="name" v="Kvithovda" />
		<tag k="natural" v="hill" />
		<tag k="place" v="locality" />
		<tag k="ssr:stedsnr" v="676893" />
	</node>
	<node id="-147826" lat="60.8743222208" lon="9.70686667444">
		<tag k="name" v="Etnedalen" />
		<tag k="natural" v="valley" />
		<tag k="place" v="locality" />
		<tag k="ssr:stedsnr" v="676023" />
	</node>
	<node id="-147823" lat="61.093088893" lon="9.63908055801">
		<tag k="name" v="Slaverihøgdi" />
		<tag k="natural" v="hill" />
		<tag k="place" v="locality" />
		<tag k="ssr:stedsnr" v="675684" />
	</node>
	<node id="-147820" lat="61.0642111139" lon="9.71018333649">
		<tag k="name" v="Klufteflata" />
		<tag k="place" v="locality" />
		<tag k="ssr:stedsnr" v="675656" />
	</node>
	<node id="-147815" lat="61.0310527752" lon="9.52432777688">
		<tag k="fixme" v="consider natural=peak for the most distinct mountains in the district" />
		<tag k="name" v="Toåsen" />
		<tag k="natural" v="hill" />
		<tag k="place" v="locality" />
		<tag k="ssr:stedsnr" v="675607" />
	</node>
	<node id="-148198" lat="60.8912472198" lon="9.72389999637">
		<tag k="name" v="Veslesæterhøgde" />
		<tag k="natural" v="hill" />
		<tag k="place" v="locality" />
		<tag k="ssr:stedsnr" v="843175" />
	</node>
	<node id="-146490" lat="60.8607388859" lon="9.70730554645">
		<tag k="name" v="Lybekkberget" />
		<tag k="natural" v="cliff" />
		<tag k="ssr:stedsnr" v="478151" />
	</node>
	<node id="-147797" lat="60.9217111139" lon="9.79245000095">
		<tag k="name" v="Anderssvehøgde" />
		<tag k="natural" v="hill" />
		<tag k="place" v="locality" />
		<tag k="ssr:stedsnr" v="661870" />
	</node>
	<node id="-147796" lat="60.863658335" lon="9.74181667223">
		<tag k="name" v="Storfurubakkin" />
		<tag k="natural" v="slope" />
		<tag k="place" v="locality" />
		<tag k="ssr:stedsnr" v="661845" />
	</node>
	<node id="-147791" lat="60.8430138927" lon="9.72240555466">
		<tag k="name" v="Hasselslette" />
		<tag k="place" v="locality" />
		<tag k="ssr:stedsnr" v="661726" />
	</node>
	<node id="-148193" lat="60.8593082514" lon="9.68386974089">
		<tag k="name" v="Høgberglie" />
		<tag k="natural" v="slope" />
		<tag k="place" v="locality" />
		<tag k="ssr:stedsnr" v="843152" />
	</node>
	<node id="-147778" lat="61.0577444445" lon="9.54094445315">
		<tag k="name" v="Smiugardslie" />
		<tag k="natural" v="slope" />
		<tag k="place" v="locality" />
		<tag k="ssr:stedsnr" v="661356" />
	</node>
	<node id="-147777" lat="60.9548388897" lon="9.50863888829">
		<tag k="name" v="Vesterdalen" />
		<tag k="natural" v="valley" />
		<tag k="place" v="locality" />
		<tag k="ssr:stedsnr" v="661328" />
	</node>
	<node id="-147776" lat="60.9706111144" lon="9.53911110677">
		<tag k="name" v="Storslettlie" />
		<tag k="natural" v="slope" />
		<tag k="place" v="locality" />
		<tag k="ssr:stedsnr" v="661325" />
	</node>
	<node id="-147772" lat="61.0357277779" lon="9.51400555259">
		<tag k="name" v="Øykjehoppet" />
		<tag k="place" v="locality" />
		<tag k="ssr:stedsnr" v="661135" />
	</node>
	<node id="-147770" lat="61.014219446" lon="9.48970276865">
		<tag k="name" v="Stadsvøllporten" />
		<tag k="place" v="locality" />
		<tag k="ssr:stedsnr" v="661010" />
	</node>
	<node id="-147769" lat="60.9225305521" lon="9.58918889341">
		<tag k="name" v="Heimstøllie" />
		<tag k="natural" v="slope" />
		<tag k="place" v="locality" />
		<tag k="ssr:stedsnr" v="660946" />
	</node>
	<node id="-147768" lat="61.0376305573" lon="9.72871665774">
		<tag k="name" v="Melihalle" />
		<tag k="natural" v="slope" />
		<tag k="place" v="locality" />
		<tag k="ssr:stedsnr" v="660916" />
	</node>
	<node id="-147766" lat="60.9176472257" lon="9.79043055827">
		<tag k="name" v="Nysvehaugen" />
		<tag k="natural" v="hill" />
		<tag k="place" v="locality" />
		<tag k="ssr:stedsnr" v="660805" />
	</node>
	<node id="-147749" lat="60.9041527786" lon="9.59922777139">
		<tag k="name" v="Nybrenna" />
		<tag k="place" v="locality" />
		<tag k="ssr:stedsnr" v="660425" />
	</node>
	<node id="-147745" lat="61.0756722186" lon="9.60329999082">
		<tag k="name" v="Skilnaddalen" />
		<tag k="natural" v="valley" />
		<tag k="place" v="locality" />
		<tag k="ssr:stedsnr" v="660277" />
	</node>
	<node id="-147744" lat="61.0168111155" lon="9.62675000433">
		<tag k="name" v="Kyrhaughøgde" />
		<tag k="natural" v="hill" />
		<tag k="place" v="locality" />
		<tag k="ssr:stedsnr" v="660250" />
	</node>
	<node id="-147737" lat="60.8611805534" lon="9.6929555528">
		<tag k="name" v="Øspelundsveberget" />
		<tag k="natural" v="cliff" />
		<tag k="ssr:stedsnr" v="660135" />
	</node>
	<node id="-147733" lat="60.8855138846" lon="9.69456945046">
		<tag k="name" v="Bringebærdalen" />
		<tag k="natural" v="valley" />
		<tag k="place" v="locality" />
		<tag k="ssr:stedsnr" v="660009" />
	</node>
	<node id="-146478" lat="60.8951472253" lon="9.67341944138">
		<tag k="name" v="Storhalle" />
		<tag k="natural" v="slope" />
		<tag k="place" v="locality" />
		<tag k="ssr:stedsnr" v="478014" />
	</node>
	<node id="-147728" lat="60.9995777748" lon="9.7522694406">
		<tag k="name" v="Duggurdshaugberget" />
		<tag k="natural" v="hill" />
		<tag k="place" v="locality" />
		<tag k="ssr:stedsnr" v="659484" />
	</node>
	<node id="-147724" lat="61.0327305586" lon="9.567836111">
		<tag k="name" v="Ryggeberget" />
		<tag k="natural" v="hill" />
		<tag k="place" v="locality" />
		<tag k="ssr:stedsnr" v="659368" />
	</node>
	<node id="-147722" lat="61.0108944469" lon="9.58055833166">
		<tag k="name" v="Rundehaugen" />
		<tag k="natural" v="hill" />
		<tag k="place" v="locality" />
		<tag k="ssr:stedsnr" v="659363" />
	</node>
	<node id="-147716" lat="60.8833222205" lon="9.59131944319">
		<tag k="name" v="Bakhalle" />
		<tag k="natural" v="slope" />
		<tag k="place" v="locality" />
		<tag k="ssr:stedsnr" v="659015" />
	</node>
	<node id="-147715" lat="60.8886277741" lon="9.58933610832">
		<tag k="name" v="Lie" />
		<tag k="natural" v="slope" />
		<tag k="place" v="locality" />
		<tag k="ssr:stedsnr" v="659012" />
	</node>
	<node id="-147706" lat="60.9282305511" lon="9.71193610722">
		<tag k="alt_name" v="Stakklihødnet" />
		<tag k="fixme" v="consider natural=peak for the most distinct mountains in the district" />
		<tag k="name" v="Stakklihornet" />
		<tag k="natural" v="hill" />
		<tag k="place" v="locality" />
		<tag k="ssr:stedsnr" v="616906" />
	</node>
	<node id="-147703" lat="60.9934583373" lon="9.65172499662">
		<tag k="name" v="Svabergsknatten" />
		<tag k="natural" v="hill" />
		<tag k="place" v="locality" />
		<tag k="ssr:stedsnr" v="616795" />
	</node>
	<node id="-147700" lat="60.9623222264" lon="9.55516666152">
		<tag k="name" v="Ørneberget" />
		<tag k="natural" v="hill" />
		<tag k="place" v="locality" />
		<tag k="ssr:stedsnr" v="616595" />
	</node>
	<node id="-147698" lat="60.9660750039" lon="9.59563889357">
		<tag k="fixme" v="consider natural=peak for the most distinct mountains in the district" />
		<tag k="name" v="Omshovdan" />
		<tag k="natural" v="hill" />
		<tag k="place" v="locality" />
		<tag k="ssr:stedsnr" v="615942" />
	</node>
	<node id="-147696" lat="60.9179500001" lon="9.66856945363">
		<tag k="alt_name" v="Dalahøgde" />
		<tag k="fixme" v="consider natural=peak for the most distinct mountains in the district" />
		<tag k="name" v="Byfelliberget" />
		<tag k="natural" v="hill" />
		<tag k="place" v="locality" />
		<tag k="ssr:stedsnr" v="615891" />
	</node>
	<node id="-147689" lat="60.8316861151" lon="9.73936110837">
		<tag k="alt_name" v="Madslangrudberget" />
		<tag k="fixme" v="consider natural=peak for the most distinct mountains in the district" />
		<tag k="name" v="Maslangrudberget" />
		<tag k="natural" v="hill" />
		<tag k="place" v="locality" />
		<tag k="ssr:stedsnr" v="615189" />
	</node>
	<node id="-147678" lat="61.0388999966" lon="9.65808332855">
		<tag k="name" v="Svarteknatten" />
		<tag k="natural" v="hill" />
		<tag k="place" v="locality" />
		<tag k="ssr:stedsnr" v="614671" />
	</node>
	<node id="-147677" lat="61.0573583339" lon="9.7447111064">
		<tag k="name" v="Bergsæterklufta" />
		<tag k="natural" v="valley" />
		<tag k="place" v="locality" />
		<tag k="ssr:stedsnr" v="614660" />
	</node>
	<node id="-147670" lat="60.8431" lon="9.64150278364">
		<tag k="alt_name" v="Haugstølknatten" />
		<tag k="fixme" v="consider natural=peak for the most distinct mountains in the district" />
		<tag k="name" v="Himalaya" />
		<tag k="natural" v="hill" />
		<tag k="place" v="locality" />
		<tag k="ssr:stedsnr" v="614058" />
	</node>
	<node id="-148469" lat="61.0222833309" lon="9.73791110891">
		<tag k="name" v="Blåskreo" />
		<tag k="place" v="locality" />
		<tag k="ssr:stedsnr" v="963277" />
	</node>
	<node id="-147661" lat="60.8677305533" lon="9.75211110261">
		<tag k="name" v="Bamserudhøgde" />
		<tag k="natural" v="hill" />
		<tag k="place" v="locality" />
		<tag k="ssr:stedsnr" v="600859" />
	</node>
	<node id="-147652" lat="60.8740972261" lon="9.79279722239">
		<tag k="name" v="Åborvasslitoppen" />
		<tag k="natural" v="hill" />
		<tag k="old_name" v="Øbbervasslitoppen" />
		<tag k="place" v="locality" />
		<tag k="ssr:stedsnr" v="600652" />
	</node>
	<node id="-147644" lat="60.8204277813" lon="9.7842444363">
		<tag k="name" v="Rusthovdin" />
		<tag k="natural" v="hill" />
		<tag k="place" v="locality" />
		<tag k="ssr:stedsnr" v="600518" />
	</node>
	<node id="-147640" lat="60.837205559" lon="9.74078055926">
		<tag k="name" v="Plassaberget" />
		<tag k="natural" v="hill" />
		<tag k="place" v="locality" />
		<tag k="ssr:stedsnr" v="600489" />
	</node>
	<node id="-147629" lat="61.0564888891" lon="9.73651943905">
		<tag k="name" v="Storhøgde" />
		<tag k="natural" v="hill" />
		<tag k="place" v="locality" />
		<tag k="ssr:stedsnr" v="600163" />
	</node>
	<node id="-147624" lat="61.0394388861" lon="9.66359166849">
		<tag k="alt_name" v="Kalvetjednhøgde" />
		<tag k="name" v="Kalvetjernhøgde" />
		<tag k="natural" v="hill" />
		<tag k="place" v="locality" />
		<tag k="ssr:stedsnr" v="599954" />
	</node>
	<node id="-147621" lat="60.9664527774" lon="9.63050554838">
		<tag k="name" v="Flatigardsbakkatn" />
		<tag k="natural" v="slope" />
		<tag k="place" v="locality" />
		<tag k="ssr:stedsnr" v="599859" />
	</node>
	<node id="-147618" lat="60.863336107" lon="9.60711666639">
		<tag k="name" v="Høgebrenn" />
		<tag k="natural" v="hill" />
		<tag k="place" v="locality" />
		<tag k="ssr:stedsnr" v="599787" />
	</node>
	<node id="-147616" lat="60.8407722183" lon="9.7658111188">
		<tag k="name" v="Romsrenna" />
		<tag k="place" v="locality" />
		<tag k="ssr:stedsnr" v="599632" />
	</node>
	<node id="-147613" lat="60.9168777785" lon="9.71090832966">
		<tag k="name" v="Jonstølberget" />
		<tag k="natural" v="hill" />
		<tag k="place" v="locality" />
		<tag k="ssr:stedsnr" v="599531" />
	</node>
	<node id="-147607" lat="60.8742277778" lon="9.68373333398">
		<tag k="name" v="Rovemyrgrettin" />
		<tag k="natural" v="hill" />
		<tag k="place" v="locality" />
		<tag k="ssr:stedsnr" v="599466" />
	</node>
	<node id="-147605" lat="60.993502778" lon="9.65751388965">
		<tag k="name" v="Steinløohøgde" />
		<tag k="natural" v="hill" />
		<tag k="place" v="locality" />
		<tag k="ssr:stedsnr" v="599401" />
	</node>
	<node id="-147604" lat="60.9308694417" lon="9.55545000567">
		<tag k="name" v="Matlie" />
		<tag k="natural" v="slope" />
		<tag k="place" v="locality" />
		<tag k="ssr:stedsnr" v="599375" />
	</node>
	<node id="-147601" lat="61.096425" lon="9.63162500892">
		<tag k="name" v="Slaverilie" />
		<tag k="natural" v="slope" />
		<tag k="place" v="locality" />
		<tag k="ssr:stedsnr" v="599295" />
	</node>
	<node id="-147600" lat="61.088775001" lon="9.603975002">
		<tag k="name" v="Gråbeinfeten" />
		<tag k="place" v="locality" />
		<tag k="ssr:stedsnr" v="599293" />
	</node>
	<node id="-147599" lat="61.0903972243" lon="9.60697222055">
		<tag k="name" v="Gråbeindalen" />
		<tag k="natural" v="valley" />
		<tag k="place" v="locality" />
		<tag k="ssr:stedsnr" v="599289" />
	</node>
	<node id="-147590" lat="60.8932138852" lon="9.75834999149">
		<tag k="name" v="Karlshaugatn" />
		<tag k="natural" v="ridge" />
		<tag k="place" v="locality" />
		<tag k="ssr:stedsnr" v="599155" />
	</node>
	<node id="-147587" lat="60.9055555519" lon="9.76192499575">
		<tag k="name" v="Utsikte" />
		<tag k="place" v="locality" />
		<tag k="ssr:stedsnr" v="599132" />
	</node>
	<node id="-147586" lat="60.8535722235" lon="9.69518333781">
		<tag k="name" v="Høgberglie" />
		<tag k="natural" v="slope" />
		<tag k="place" v="locality" />
		<tag k="ssr:stedsnr" v="599128" />
	</node>
	<node id="-147584" lat="60.8441527745" lon="9.69908054856">
		<tag k="name" v="Sjåheimberget" />
		<tag k="natural" v="cliff" />
		<tag k="ssr:stedsnr" v="599109" />
	</node>
	<node id="-147583" lat="60.8925222255" lon="9.67183333383">
		<tag k="name" v="Raurenna" />
		<tag k="natural" v="valley" />
		<tag k="place" v="locality" />
		<tag k="ssr:stedsnr" v="599102" />
	</node>
	<node id="-147582" lat="60.8920527777" lon="9.66555833061">
		<tag k="name" v="Tverrhaugskålin" />
		<tag k="place" v="locality" />
		<tag k="ssr:stedsnr" v="599098" />
	</node>
	<node id="-147575" lat="60.9528972187" lon="9.62805833241">
		<tag k="name" v="Hagahaugen" />
		<tag k="natural" v="hill" />
		<tag k="place" v="locality" />
		<tag k="ssr:stedsnr" v="598893" />
	</node>
	<node id="-147574" lat="60.9887777768" lon="9.60220555578">
		<tag k="name" v="Høgbrenne" />
		<tag k="natural" v="hill" />
		<tag k="place" v="locality" />
		<tag k="ssr:stedsnr" v="598642" />
	</node>
	<node id="-147571" lat="60.962288885" lon="9.56135277961">
		<tag k="name" v="Storslettlia" />
		<tag k="natural" v="slope" />
		<tag k="place" v="locality" />
		<tag k="ssr:stedsnr" v="598534" />
	</node>
	<node id="-147569" lat="60.9466361081" lon="9.60526666834">
		<tag k="name" v="Kringlelie" />
		<tag k="natural" v="slope" />
		<tag k="place" v="locality" />
		<tag k="ssr:stedsnr" v="598513" />
	</node>
	<node id="-146488" lat="60.8986888845" lon="9.75378054637">
		<tag k="name" v="Dalsvassdalen" />
		<tag k="natural" v="valley" />
		<tag k="place" v="locality" />
		<tag k="ssr:stedsnr" v="478134" />
	</node>
	<node id="-147563" lat="61.0034138903" lon="9.58953888644">
		<tag k="alt_name" v="Rødningshøgde" />
		<tag k="name" v="Rudningshøgde" />
		<tag k="natural" v="hill" />
		<tag k="place" v="locality" />
		<tag k="ssr:stedsnr" v="598314" />
	</node>
	<node id="-147562" lat="61.0241694431" lon="9.7493361176">
		<tag k="name" v="Maradalen" />
		<tag k="natural" v="valley" />
		<tag k="place" v="locality" />
		<tag k="ssr:stedsnr" v="598273" />
	</node>
	<node id="-147561" lat="61.014541671" lon="9.75269722522">
		<tag k="name" v="Bakhalle" />
		<tag k="natural" v="slope" />
		<tag k="place" v="locality" />
		<tag k="ssr:stedsnr" v="598248" />
	</node>
	<node id="-147555" lat="60.9007611071" lon="9.56508333823">
		<tag k="alt_name" v="Nørre Kleive" />
		<tag k="name" v="Nørdre Kleive" />
		<tag k="natural" v="slope" />
		<tag k="place" v="locality" />
		<tag k="ssr:stedsnr" v="598141" />
	</node>
	<node id="-147552" lat="60.9839083369" lon="9.5741527738">
		<tag k="name" v="Søndenbergbakkin" />
		<tag k="natural" v="slope" />
		<tag k="place" v="locality" />
		<tag k="ssr:stedsnr" v="598080" />
	</node>
	<node id="-147551" lat="60.8946749981" lon="9.57601389557">
		<tag k="name" v="Nordfjellshaugen" />
		<tag k="natural" v="hill" />
		<tag k="place" v="locality" />
		<tag k="ssr:stedsnr" v="598004" />
	</node>
	<node id="-147550" lat="60.9139694421" lon="9.66542499708">
		<tag k="name" v="Byfeliberget" />
		<tag k="natural" v="cliff" />
		<tag k="ssr:stedsnr" v="598505" />
	</node>
	<node id="-147548" lat="60.9570833336" lon="9.59208055226">
		<tag k="name" v="Kleivhalle" />
		<tag k="place" v="locality" />
		<tag k="ssr:stedsnr" v="598496" />
	</node>
	<node id="-147529" lat="60.9078111088" lon="9.58822778332">
		<tag k="name" v="Tiuhaugen" />
		<tag k="natural" v="hill" />
		<tag k="place" v="locality" />
		<tag k="ssr:stedsnr" v="555706" />
	</node>
	<node id="-147527" lat="61.0253972264" lon="9.54771945034">
		<tag k="name" v="Møsebakkatn" />
		<tag k="natural" v="slope" />
		<tag k="place" v="locality" />
		<tag k="ssr:stedsnr" v="555519" />
	</node>
	<node id="-147519" lat="60.85821389" lon="9.77513333092">
		<tag k="alt_name" v="Kvithovda" />
		<tag k="fixme" v="consider natural=peak for the most distinct mountains in the district" />
		<tag k="name" v="Kjøetjernhøgdi" />
		<tag k="natural" v="hill" />
		<tag k="place" v="locality" />
		<tag k="ssr:stedsnr" v="554007" />
	</node>
	<node id="-147515" lat="61.0435388914" lon="9.63677499475">
		<tag k="name" v="Astriddalen" />
		<tag k="natural" v="valley" />
		<tag k="place" v="locality" />
		<tag k="ssr:stedsnr" v="553661" />
	</node>
	<node id="-147514" lat="61.0346694451" lon="9.61092499735">
		<tag k="alt_name" v="Køllhaugen" />
		<tag k="name" v="Kollhaugen" />
		<tag k="natural" v="hill" />
		<tag k="place" v="locality" />
		<tag k="ssr:stedsnr" v="553658" />
	</node>
	<node id="-147513" lat="61.0548722224" lon="9.63574444051">
		<tag k="alt_name" v="Rundehaugen" />
		<tag k="name" v="Liastølbergi" />
		<tag k="natural" v="hill" />
		<tag k="place" v="locality" />
		<tag k="ssr:stedsnr" v="553634" />
	</node>
	<node id="-147507" lat="61.0289249982" lon="9.47155278426">
		<tag k="name" v="Baklii" />
		<tag k="natural" v="slope" />
		<tag k="place" v="locality" />
		<tag k="ssr:stedsnr" v="553584" />
	</node>
	<node id="-147496" lat="61.0819694484" lon="9.51753610895">
		<tag k="name" v="Nysetlie" />
		<tag k="natural" v="slope" />
		<tag k="place" v="locality" />
		<tag k="ssr:stedsnr" v="540790" />
	</node>
	<node id="-147494" lat="60.8763277744" lon="9.73175834007">
		<tag k="name" v="Stubberud" />
		<tag k="natural" v="slope" />
		<tag k="place" v="locality" />
		<tag k="ssr:stedsnr" v="540763" />
	</node>
	<node id="-147493" lat="60.8763388892" lon="9.75907222589">
		<tag k="name" v="Gråbeindalshøgde" />
		<tag k="natural" v="hill" />
		<tag k="place" v="locality" />
		<tag k="ssr:stedsnr" v="540740" />
	</node>
	<node id="-147491" lat="60.8296944473" lon="9.70661944889">
		<tag k="name" v="Tømtedalen" />
		<tag k="natural" v="valley" />
		<tag k="place" v="locality" />
		<tag k="ssr:stedsnr" v="540674" />
	</node>
	<node id="-147490" lat="60.8242694477" lon="9.71517777084">
		<tag k="name" v="Tiriltoppen" />
		<tag k="natural" v="hill" />
		<tag k="place" v="locality" />
		<tag k="ssr:stedsnr" v="540668" />
	</node>
	<node id="-147486" lat="60.9618249965" lon="9.53635833564">
		<tag k="name" v="Lyberget" />
		<tag k="natural" v="cliff" />
		<tag k="ssr:stedsnr" v="540551" />
	</node>
	<node id="-146437" lat="60.9838777746" lon="9.70772499376">
		<tag k="alt_name" v="Gamlestølhøgde" />
		<tag k="fixme" v="consider natural=peak for the most distinct mountains in the district" />
		<tag k="name" v="Gammalstøltoppen" />
		<tag k="natural" v="hill" />
		<tag k="place" v="locality" />
		<tag k="ssr:stedsnr" v="373982" />
	</node>
	<node id="-147481" lat="60.9570694461" lon="9.50727221679">
		<tag k="name" v="Rundehaugen" />
		<tag k="natural" v="hill" />
		<tag k="place" v="locality" />
		<tag k="ssr:stedsnr" v="540343" />
	</node>
	<node id="-147478" lat="61.051313887" lon="9.48514445215">
		<tag k="name" v="Stølaberget" />
		<tag k="place" v="locality" />
		<tag k="ssr:stedsnr" v="540212" />
	</node>
	<node id="-147476" lat="61.0455972254" lon="9.52279444904">
		<tag k="name" v="Myrløodalen" />
		<tag k="natural" v="valley" />
		<tag k="place" v="locality" />
		<tag k="ssr:stedsnr" v="540156" />
	</node>
	<node id="-147468" lat="61.0378666628" lon="9.65500556038">
		<tag k="name" v="Jorkompen" />
		<tag k="natural" v="hill" />
		<tag k="place" v="locality" />
		<tag k="ssr:stedsnr" v="539938" />
	</node>
	<node id="-147460" lat="60.9120944442" lon="9.72938889283">
		<tag k="name" v="Båthusdalen" />
		<tag k="natural" v="valley" />
		<tag k="place" v="locality" />
		<tag k="ssr:stedsnr" v="539711" />
	</node>
	<node id="-147458" lat="60.9163888898" lon="9.71713055293">
		<tag k="name" v="Knatten" />
		<tag k="natural" v="hill" />
		<tag k="place" v="locality" />
		<tag k="ssr:stedsnr" v="539680" />
	</node>
</osm>
