<?xml version="1.0" encoding="UTF-8"?>
<osm version="0.6" generator="osmapis">
	<node lat="70.23802499604686" lon="19.502794441603957" id="-40315">
		<tag k="name" v="Skarvbarden" />
		<tag k="ssr:date" v="2021-06-08" />
		<tag k="ssr:gruppe" v="navigasjon" />
		<tag k="ssr:hovedgruppe" v="infrastruktur" />
		<tag k="ssr:stedsnr" v="19604" />
		<tag k="ssr:type" v="fyrlykt" />
	</node>
	<node lat="70.1092662862334" lon="19.371136725711136" id="-40328">
		<tag k="name" v="Helgøya" />
		<tag k="ssr:date" v="2021-06-08" />
		<tag k="ssr:gruppe" v="navigasjon" />
		<tag k="ssr:hovedgruppe" v="infrastruktur" />
		<tag k="ssr:stedsnr" v="19799" />
		<tag k="ssr:type" v="fyrlykt" />
	</node>
	<node lat="69.91844999919796" lon="19.802366650359204" id="-40347">
		<tag k="name" v="Rødbergbreget" />
		<tag k="ssr:date" v="2019-12-27" />
		<tag k="ssr:gruppe" v="sjøbunn" />
		<tag k="ssr:hovedgruppe" v="sjø" />
		<tag k="ssr:stedsnr" v="24537" />
		<tag k="ssr:type" v="bakkeISjø" />
	</node>
	<node lat="70.26244824684292" lon="19.763577815028263" id="-40484">
		<tag k="name" v="Burøynakken" />
		<tag k="ssr:date" v="2021-01-05" />
		<tag k="ssr:gruppe" v="navigasjon" />
		<tag k="ssr:hovedgruppe" v="infrastruktur" />
		<tag k="ssr:stedsnr" v="140384" />
		<tag k="ssr:type" v="fyrlykt" />
	</node>
	<node lat="69.90435277874425" lon="19.477047212014497" id="-40669">
		<tag k="name" v="Gamneset" />
		<tag k="ssr:date" v="2021-06-08" />
		<tag k="ssr:gruppe" v="navigasjon" />
		<tag k="ssr:hovedgruppe" v="infrastruktur" />
		<tag k="ssr:stedsnr" v="201499" />
		<tag k="ssr:type" v="fyrlykt" />
	</node>
	<node lat="69.97586693307424" lon="19.67171139205197" id="-40686">
		<tag k="name" v="Langsundet" />
		<tag k="old_name" v="Skattøra" />
		<tag k="ssr:date" v="2019-12-27" />
		<tag k="ssr:gruppe" v="navigasjon" />
		<tag k="ssr:hovedgruppe" v="infrastruktur" />
		<tag k="ssr:stedsnr" v="268274" />
		<tag k="ssr:type" v="fyrlykt" />
	</node>
	<node lat="69.9056111128988" lon="19.82243331847335" id="-40697">
		<tag k="name" v="Vorstø" />
		<tag k="ssr:date" v="2019-12-27" />
		<tag k="ssr:gruppe" v="sjøbunn" />
		<tag k="ssr:hovedgruppe" v="sjø" />
		<tag k="ssr:stedsnr" v="269547" />
		<tag k="ssr:type" v="søkkISjø" />
	</node>
	<node lat="70.43333333638262" lon="18.9166666683595" id="-40756">
		<tag k="name" v="Havgrunnen" />
		<tag k="ssr:date" v="2019-12-27" />
		<tag k="ssr:gruppe" v="sjøbunn" />
		<tag k="ssr:hovedgruppe" v="sjø" />
		<tag k="ssr:stedsnr" v="242104" />
		<tag k="ssr:type" v="bankeISjø" />
	</node>
	<node lat="69.9618444463494" lon="19.61810831551302" id="-40757">
		<tag k="name" v="Karlsøy kommune" />
		<tag k="ssr:date" v="2019-12-27" />
		<tag k="ssr:gruppe" v="administrativeIndelinger" />
		<tag k="ssr:hovedgruppe" v="offentligAdministrasjon" />
		<tag k="ssr:stedsnr" v="451543" />
		<tag k="ssr:type" v="kommune" />
	</node>
	<node lat="70.09999999908608" lon="20.184722205494957" id="-40808">
		<tag k="name" v="Djupet" />
		<tag k="ssr:date" v="2021-06-08" />
		<tag k="ssr:gruppe" v="sjøbunn" />
		<tag k="ssr:hovedgruppe" v="sjø" />
		<tag k="ssr:stedsnr" v="274515" />
		<tag k="ssr:type" v="søkkISjø" />
	</node>
	<node lat="70.14438227342768" lon="20.042092249659785" id="-40876">
		<tag k="name" v="Store Skorøya" />
		<tag k="ssr:date" v="2021-06-08" />
		<tag k="ssr:gruppe" v="navigasjon" />
		<tag k="ssr:hovedgruppe" v="infrastruktur" />
		<tag k="ssr:stedsnr" v="322881" />
		<tag k="ssr:type" v="fyrlykt" />
	</node>
	<node lat="70.31676212962884" lon="20.153489025724202" id="-41251">
		<tag k="name" v="Fugløykalven" />
		<tag k="old_name" v="Fugløykalven fyr" />
		<tag k="ssr:date" v="2021-01-05" />
		<tag k="ssr:gruppe" v="navigasjon" />
		<tag k="ssr:hovedgruppe" v="infrastruktur" />
		<tag k="ssr:stedsnr" v="686343" />
		<tag k="ssr:type" v="fyrlykt" />
	</node>
	<node lat="70.07851944203792" lon="19.04666943263287" id="-41260">
		<tag k="name" v="Dyrsnes" />
		<tag k="ssr:date" v="2019-12-27" />
		<tag k="ssr:gruppe" v="navigasjon" />
		<tag k="ssr:hovedgruppe" v="infrastruktur" />
		<tag k="ssr:stedsnr" v="686514" />
		<tag k="ssr:type" v="fyrlykt" />
	</node>
	<node lat="70.16111111127866" lon="17.866666675224778" id="-41324">
		<tag k="name" v="Fugløydjupet" />
		<tag k="ssr:date" v="2019-12-27" />
		<tag k="ssr:gruppe" v="sjøbunn" />
		<tag k="ssr:hovedgruppe" v="sjø" />
		<tag k="ssr:stedsnr" v="545419" />
		<tag k="ssr:type" v="havdyp" />
	</node>
	<node lat="70.03091343024197" lon="19.30895571067015" id="-41380">
		<tag k="name" v="Dåfjorden" />
		<tag k="ssr:date" v="2021-06-08" />
		<tag k="ssr:gruppe" v="navigasjon" />
		<tag k="ssr:hovedgruppe" v="infrastruktur" />
		<tag k="ssr:stedsnr" v="565995" />
		<tag k="ssr:type" v="fyrlykt" />
	</node>
	<node lat="69.84901111175253" lon="19.711866654343982" id="-41389">
		<tag k="name" v="Oddebakken" />
		<tag k="ssr:date" v="2019-12-27" />
		<tag k="ssr:gruppe" v="sjøbunn" />
		<tag k="ssr:hovedgruppe" v="sjø" />
		<tag k="ssr:stedsnr" v="693553" />
		<tag k="ssr:type" v="bakkeISjø" />
	</node>
	<node lat="70.13246903058065" lon="18.647782053373508" id="-41532">
		<tag k="name" v="Eggeløysa" />
		<tag k="old_name" v="Eggløysa" />
		<tag k="ssr:date" v="2021-01-05" />
		<tag k="ssr:gruppe" v="navigasjon" />
		<tag k="ssr:hovedgruppe" v="infrastruktur" />
		<tag k="ssr:stedsnr" v="687593" />
		<tag k="ssr:type" v="fyrlykt" />
	</node>
	<node lat="69.86617777539895" lon="19.870802769672256" id="-41538">
		<tag k="name" v="Seibakken" />
		<tag k="ssr:date" v="2019-12-27" />
		<tag k="ssr:gruppe" v="sjøbunn" />
		<tag k="ssr:hovedgruppe" v="sjø" />
		<tag k="ssr:stedsnr" v="693516" />
		<tag k="ssr:type" v="ryggISjø" />
	</node>
</osm>
