<?xml version="1.0" encoding="UTF-8"?>
<osm generator="osmapis" version="0.6">
	<node id="-25054" lat="59.0357250031" lon="5.5812527708">
		<tag k="name" v="Tungenes fyr" />
		<tag k="ssr:date" v="2016-05-10" />
		<tag k="ssr:gruppe" v="navigasjon" />
		<tag k="ssr:hovedgruppe" v="infrastruktur" />
		<tag k="ssr:stedsnr" v="486796" />
		<tag k="ssr:type" v="fyrstasjon" />
	</node>
	<node id="-25111" lat="59.0410638895" lon="5.57185554985">
		<tag k="alt_name" v="Bragen" />
		<tag k="name" v="Bragen lykt" />
		<tag k="old_name" v="Braken" />
		<tag k="ssr:date" v="2016-05-10" />
		<tag k="ssr:gruppe" v="navigasjon" />
		<tag k="ssr:hovedgruppe" v="infrastruktur" />
		<tag k="ssr:stedsnr" v="1788" />
		<tag k="ssr:type" v="fyrlykt" />
	</node>
	<node id="-25065" lat="58.9810366035" lon="5.5656903006">
		<tag k="alt_name" v="Vistnestangen" />
		<tag k="name" v="Vistnestangen lykt" />
		<tag k="ssr:date" v="2016-09-29" />
		<tag k="ssr:gruppe" v="navigasjon" />
		<tag k="ssr:hovedgruppe" v="infrastruktur" />
		<tag k="ssr:stedsnr" v="668101" />
		<tag k="ssr:type" v="fyrlykt" />
	</node>
	<node id="-25063" lat="58.9987604642" lon="5.62059159045">
		<tag k="alt_name" v="Randaberg" />
		<tag k="name" v="Randaberg kommune" />
		<tag k="ssr:date" v="2019-11-14" />
		<tag k="ssr:gruppe" v="administrativeIndelinger" />
		<tag k="ssr:hovedgruppe" v="offentligAdministrasjon" />
		<tag k="ssr:stedsnr" v="449823" />
		<tag k="ssr:type" v="kommune" />
	</node>
	<node id="-25220" lat="69.6388889725" lon="30.5666644427">
		<tag k="fixme" v="multiple name tags, choose one and add the other to alt_name" />
		<tag k="loc_name:se" v="Norgga gonagasriika" />
		<tag k="loc_name:sma" v="Nöörjen gånkarïjhke" />
		<tag k="loc_name:smj" v="Vuona gånågisrijkka" />
		<tag k="name" v="Noreg;Norge" />
		<tag k="name:en" v="Norway" />
		<tag k="name:no" v="Noreg;Norge" />
		<tag k="ssr:date" v="2020-06-04" />
		<tag k="ssr:gruppe" v="administrativeIndelinger" />
		<tag k="ssr:hovedgruppe" v="offentligAdministrasjon" />
		<tag k="ssr:stedsnr" v="26330" />
		<tag k="ssr:type" v="nasjon" />
	</node>
	<node id="-25219" lat="59.0018988733" lon="5.65671665023">
		<tag k="name" v="Ryggstranden" />
		<tag k="ssr:date" v="2019-05-30" />
		<tag k="ssr:gruppe" v="veg" />
		<tag k="ssr:hovedgruppe" v="infrastruktur" />
		<tag k="ssr:stedsnr" v="1029587" />
		<tag k="ssr:type" v="adressenavn" />
	</node>
	<node id="-25218" lat="58.9863973622" lon="5.65323335656">
		<tag k="name" v="Høyehaugen" />
		<tag k="ssr:date" v="2019-05-30" />
		<tag k="ssr:gruppe" v="veg" />
		<tag k="ssr:hovedgruppe" v="infrastruktur" />
		<tag k="ssr:stedsnr" v="1028848" />
		<tag k="ssr:type" v="adressenavn" />
	</node>
</osm>
