<?xml version="1.0" encoding="UTF-8"?>
<osm generator="osmapis" version="0.6">
	<node id="-2385" lat="59.8279125227" lon="9.70560369472">
		<tag k="name" v="Grølla" />
		<tag k="natural" v="water" />
		<tag k="ssr:date" v="2020-06-12" />
		<tag k="ssr:gruppe" v="stilleståendeVann" />
		<tag k="ssr:hovedgruppe" v="ferskvann" />
		<tag k="ssr:stedsnr" v="489738" />
		<tag k="ssr:type" v="vann" />
		<tag k="water" v="lake" />
	</node>
	<node id="-2384" lat="58.9754983468" lon="5.6279936708">
		<tag k="name" v="Hålandsvatnet" />
		<tag k="natural" v="water" />
		<tag k="ssr:date" v="2020-06-08" />
		<tag k="ssr:gruppe" v="stilleståendeVann" />
		<tag k="ssr:hovedgruppe" v="ferskvann" />
		<tag k="ssr:stedsnr" v="61052" />
		<tag k="ssr:type" v="vann" />
		<tag k="water" v="lake" />
	</node>
	<node id="-2381" lat="59.0089292141" lon="5.65018800025">
		<tag k="amenity" v="place_of_worship" />
		<tag k="denomination" v="lutheran" />
		<tag k="name" v="Grødem kirke" />
		<tag k="religion" v="christian" />
		<tag k="ssr:date" v="2019-05-08" />
		<tag k="ssr:gruppe" v="kulturinstitusjoner" />
		<tag k="ssr:hovedgruppe" v="kultur" />
		<tag k="ssr:stedsnr" v="991189" />
		<tag k="ssr:type" v="kirke" />
	</node>
	<node id="-2380" lat="59.0305861125" lon="5.57403332683">
		<tag k="name" v="Breiviga" />
		<tag k="natural" v="cape" />
		<tag k="ssr:date" v="2016-05-11" />
		<tag k="ssr:gruppe" v="kystkontur" />
		<tag k="ssr:hovedgruppe" v="sjø" />
		<tag k="ssr:stedsnr" v="951684" />
		<tag k="ssr:type" v="nesISjø" />
	</node>
	<node id="-2379" lat="59.0315277791" lon="5.57568332916">
		<tag k="name" v="Skoholmen" />
		<tag k="place" v="locality" />
		<tag k="ssr:date" v="2016-05-11" />
		<tag k="ssr:gruppe" v="dyrkamark" />
		<tag k="ssr:hovedgruppe" v="markslag" />
		<tag k="ssr:stedsnr" v="874598" />
		<tag k="ssr:type" v="utmark" />
	</node>
	<node id="-2378" lat="58.9904666641" lon="5.56376389174">
		<tag k="name" v="Gardsenden" />
		<tag k="natural" v="cape" />
		<tag k="ssr:date" v="2016-05-11" />
		<tag k="ssr:gruppe" v="kystkontur" />
		<tag k="ssr:hovedgruppe" v="sjø" />
		<tag k="ssr:stedsnr" v="873382" />
		<tag k="ssr:type" v="nesISjø" />
	</node>
	<node id="-2377" lat="58.9822194454" lon="5.57842777758">
		<tag k="name" v="Breiviga" />
		<tag k="natural" v="bay" />
		<tag k="ssr:date" v="2016-05-11" />
		<tag k="ssr:gruppe" v="kystkontur" />
		<tag k="ssr:hovedgruppe" v="sjø" />
		<tag k="ssr:stedsnr" v="873380" />
		<tag k="ssr:type" v="vikISjø" />
	</node>
	<node id="-2376" lat="59.0089821715" lon="5.62919085039">
		<tag k="fixme" v="consider place=hamlet" />
		<tag k="name" v="Harestad" />
		<tag k="place" v="farm" />
		<tag k="ssr:date" v="2019-06-13" />
		<tag k="ssr:gruppe" v="gardsbebyggelse" />
		<tag k="ssr:hovedgruppe" v="bebyggelse" />
		<tag k="ssr:stedsnr" v="873334" />
		<tag k="ssr:type" v="gard" />
	</node>
	<node id="-2375" lat="58.9876916628" lon="5.4888444446">
		<tag k="alt_name" v="Langafluskjera;Longafluskjera" />
		<tag k="fixme" v="consider seamark:type=rock or natural=shoal" />
		<tag k="name" v="Langefluskjera" />
		<tag k="place" v="islet" />
		<tag k="ssr:date" v="2016-05-11" />
		<tag k="ssr:gruppe" v="grunnerISjø" />
		<tag k="ssr:hovedgruppe" v="sjø" />
		<tag k="ssr:stedsnr" v="850103" />
		<tag k="ssr:type" v="skjærISjø" />
	</node>
	<node id="-2374" lat="58.9901166649" lon="5.5099444434">
		<tag k="name" v="Svartaskjera" />
		<tag k="place" v="islet" />
		<tag k="ssr:date" v="2016-05-11" />
		<tag k="ssr:gruppe" v="kystkontur" />
		<tag k="ssr:hovedgruppe" v="sjø" />
		<tag k="ssr:stedsnr" v="847212" />
		<tag k="ssr:type" v="holmeISjø" />
	</node>
	<node id="-2373" lat="59.0345250033" lon="5.58791389701">
		<tag k="alt_name" v="Tungevågen" />
		<tag k="name" v="Tungevika" />
		<tag k="natural" v="bay" />
		<tag k="ssr:date" v="2016-05-11" />
		<tag k="ssr:gruppe" v="kystkontur" />
		<tag k="ssr:hovedgruppe" v="sjø" />
		<tag k="ssr:stedsnr" v="851794" />
		<tag k="ssr:type" v="vikISjø" />
	</node>
	<node id="-2372" lat="59.0068555593" lon="5.64119444872">
		<tag k="bridge" v="yes" />
		<tag k="layer" v="1" />
		<tag k="name" v="Grødem" />
		<tag k="ssr:date" v="2016-05-11" />
		<tag k="ssr:gruppe" v="samferdselsanlegg" />
		<tag k="ssr:hovedgruppe" v="infrastruktur" />
		<tag k="ssr:stedsnr" v="836628" />
		<tag k="ssr:type" v="bru" />
	</node>
	<node id="-2371" lat="59.0026416638" lon="5.57671665924">
		<tag k="alt_name" v="Bø ytre" />
		<tag k="name" v="Ytre Bø" />
		<tag k="place" v="farm" />
		<tag k="ssr:date" v="2016-05-11" />
		<tag k="ssr:gruppe" v="gardsbebyggelse" />
		<tag k="ssr:hovedgruppe" v="bebyggelse" />
		<tag k="ssr:stedsnr" v="820763" />
		<tag k="ssr:type" v="bruk" />
	</node>
	<node id="-2370" lat="58.9747250012" lon="5.5351944462">
		<tag k="name" v="Taraldsflua" />
		<tag k="place" v="locality" />
		<tag k="seamark:type" v="rock" />
		<tag k="ssr:date" v="2016-05-11" />
		<tag k="ssr:gruppe" v="grunnerISjø" />
		<tag k="ssr:hovedgruppe" v="sjø" />
		<tag k="ssr:stedsnr" v="817606" />
		<tag k="ssr:type" v="båeISjø" />
	</node>
	<node id="-2369" lat="58.9889500031" lon="5.62258888427">
		<tag k="name" v="Trønå" />
		<tag k="place" v="farm" />
		<tag k="ssr:date" v="2016-05-11" />
		<tag k="ssr:gruppe" v="gardsbebyggelse" />
		<tag k="ssr:hovedgruppe" v="bebyggelse" />
		<tag k="ssr:stedsnr" v="813259" />
		<tag k="ssr:type" v="bruk" />
	</node>
	<node id="-2368" lat="58.9804277757" lon="5.59250000533">
		<tag k="name" v="Visteviga" />
		<tag k="natural" v="bay" />
		<tag k="ssr:date" v="2019-12-27" />
		<tag k="ssr:gruppe" v="kystkontur" />
		<tag k="ssr:hovedgruppe" v="sjø" />
		<tag k="ssr:stedsnr" v="789106" />
		<tag k="ssr:type" v="vikISjø" />
	</node>
	<node id="-2367" lat="58.9797499967" lon="5.63116388061">
		<tag k="name" v="Båtvik" />
		<tag k="place" v="farm" />
		<tag k="ssr:date" v="2016-05-11" />
		<tag k="ssr:gruppe" v="gardsbebyggelse" />
		<tag k="ssr:hovedgruppe" v="bebyggelse" />
		<tag k="ssr:stedsnr" v="789056" />
		<tag k="ssr:type" v="bruk" />
	</node>
	<node id="-2366" lat="58.987716663" lon="5.45609721844">
		<tag k="name" v="Monsagrunnen" />
		<tag k="natural" v="shoal" />
		<tag k="place" v="locality" />
		<tag k="ssr:date" v="2016-05-11" />
		<tag k="ssr:gruppe" v="grunnerISjø" />
		<tag k="ssr:hovedgruppe" v="sjø" />
		<tag k="ssr:stedsnr" v="783602" />
		<tag k="ssr:type" v="grunneISjø" />
	</node>
	<node id="-2365" lat="59.0175333315" lon="5.57390277171">
		<tag k="name" v="Børaunen" />
		<tag k="natural" v="cape" />
		<tag k="ssr:date" v="2016-05-11" />
		<tag k="ssr:gruppe" v="kystkontur" />
		<tag k="ssr:hovedgruppe" v="sjø" />
		<tag k="ssr:stedsnr" v="780310" />
		<tag k="ssr:type" v="nesISjø" />
	</node>
	<node id="-2364" lat="59.0440638855" lon="5.56440555608">
		<tag k="name" v="Nordre Tungeflua" />
		<tag k="natural" v="shoal" />
		<tag k="place" v="locality" />
		<tag k="ssr:date" v="2016-05-11" />
		<tag k="ssr:gruppe" v="grunnerISjø" />
		<tag k="ssr:hovedgruppe" v="sjø" />
		<tag k="ssr:stedsnr" v="770576" />
		<tag k="ssr:type" v="grunneISjø" />
	</node>
	<node id="-2363" lat="58.9841222185" lon="5.45084166712">
		<tag k="name" v="Villeboane" />
		<tag k="place" v="locality" />
		<tag k="seamark:type" v="rock" />
		<tag k="ssr:date" v="2016-05-11" />
		<tag k="ssr:gruppe" v="grunnerISjø" />
		<tag k="ssr:hovedgruppe" v="sjø" />
		<tag k="ssr:stedsnr" v="756289" />
		<tag k="ssr:type" v="båeISjø" />
	</node>
	<node id="-2362" lat="59.0068666668" lon="5.6596250024">
		<tag k="name" v="Svartufs" />
		<tag k="natural" v="hill" />
		<tag k="place" v="locality" />
		<tag k="ssr:date" v="2016-05-11" />
		<tag k="ssr:gruppe" v="høyder" />
		<tag k="ssr:hovedgruppe" v="terreng" />
		<tag k="ssr:stedsnr" v="752603" />
		<tag k="ssr:type" v="berg" />
	</node>
	<node id="-2361" lat="58.982922224" lon="5.49780555627">
		<tag k="name" v="Store Grynningen" />
		<tag k="place" v="islet" />
		<tag k="ssr:date" v="2016-05-11" />
		<tag k="ssr:gruppe" v="kystkontur" />
		<tag k="ssr:hovedgruppe" v="sjø" />
		<tag k="ssr:stedsnr" v="752575" />
		<tag k="ssr:type" v="holmeISjø" />
	</node>
	<node id="-2360" lat="59.0185222226" lon="5.60050555724">
		<tag k="fixme" v="consider natural=peak for the most distinct mountains in the district" />
		<tag k="name" v="Randabergfjellet" />
		<tag k="natural" v="hill" />
		<tag k="place" v="locality" />
		<tag k="ssr:date" v="2016-05-11" />
		<tag k="ssr:gruppe" v="høyder" />
		<tag k="ssr:hovedgruppe" v="terreng" />
		<tag k="ssr:stedsnr" v="752572" />
		<tag k="ssr:type" v="fjell" />
	</node>
	<node id="-2359" lat="58.9789861145" lon="5.64183333419">
		<tag k="name" v="Nylende" />
		<tag k="place" v="farm" />
		<tag k="ssr:date" v="2016-05-11" />
		<tag k="ssr:gruppe" v="gardsbebyggelse" />
		<tag k="ssr:hovedgruppe" v="bebyggelse" />
		<tag k="ssr:stedsnr" v="752264" />
		<tag k="ssr:type" v="bruk" />
	</node>
	<node id="-2358" lat="59.0516555589" lon="5.50476388607">
		<tag k="name" v="Litla Kråga" />
		<tag k="place" v="islet" />
		<tag k="ssr:date" v="2016-05-10" />
		<tag k="ssr:gruppe" v="kystkontur" />
		<tag k="ssr:hovedgruppe" v="sjø" />
		<tag k="ssr:stedsnr" v="631612" />
		<tag k="ssr:type" v="holmeISjø" />
	</node>
	<node id="-2357" lat="58.9973916633" lon="5.50243055444">
		<tag k="name" v="Steinboane" />
		<tag k="place" v="locality" />
		<tag k="seamark:type" v="rock" />
		<tag k="ssr:date" v="2016-05-10" />
		<tag k="ssr:gruppe" v="grunnerISjø" />
		<tag k="ssr:hovedgruppe" v="sjø" />
		<tag k="ssr:stedsnr" v="631595" />
		<tag k="ssr:type" v="båeISjø" />
	</node>
	<node id="-2356" lat="59.0084952644" lon="5.65423640956">
		<tag k="fixme" v="consider natural=peak for the most distinct mountains in the district" />
		<tag k="name" v="Hagafjellet" />
		<tag k="natural" v="hill" />
		<tag k="place" v="locality" />
		<tag k="ssr:date" v="2018-07-12" />
		<tag k="ssr:gruppe" v="høyder" />
		<tag k="ssr:hovedgruppe" v="terreng" />
		<tag k="ssr:stedsnr" v="630580" />
		<tag k="ssr:type" v="fjell" />
	</node>
	<node id="-2355" lat="59.0104277759" lon="5.61776111881">
		<tag k="name" v="Oddahaugen" />
		<tag k="natural" v="hill" />
		<tag k="place" v="locality" />
		<tag k="ssr:date" v="2016-05-10" />
		<tag k="ssr:gruppe" v="høyder" />
		<tag k="ssr:hovedgruppe" v="terreng" />
		<tag k="ssr:stedsnr" v="630300" />
		<tag k="ssr:type" v="haug" />
	</node>
	<node id="-2354" lat="58.9995492942" lon="5.61874496976">
		<tag k="name" v="Randaberg" />
		<tag k="place" v="village" />
		<tag k="ssr:date" v="2018-07-12" />
		<tag k="ssr:gruppe" v="bebyggelsesområder" />
		<tag k="ssr:hovedgruppe" v="bebyggelse" />
		<tag k="ssr:stedsnr" v="608788" />
		<tag k="ssr:type" v="tettsted" />
	</node>
	<node id="-2353" lat="58.9903611092" lon="5.50914165833">
		<tag k="fixme" v="consider seamark:type=rock or natural=shoal" />
		<tag k="name" v="Søra Svartaskjeret" />
		<tag k="place" v="islet" />
		<tag k="ssr:date" v="2016-05-10" />
		<tag k="ssr:gruppe" v="grunnerISjø" />
		<tag k="ssr:hovedgruppe" v="sjø" />
		<tag k="ssr:stedsnr" v="607098" />
		<tag k="ssr:type" v="skjærISjø" />
	</node>
	<node id="-2352" lat="58.9788082429" lon="5.65197363166">
		<tag k="fixme" v="consider place=hamlet" />
		<tag k="name" v="Leikvoll" />
		<tag k="place" v="farm" />
		<tag k="ssr:date" v="2019-06-13" />
		<tag k="ssr:gruppe" v="gardsbebyggelse" />
		<tag k="ssr:hovedgruppe" v="bebyggelse" />
		<tag k="ssr:stedsnr" v="607064" />
		<tag k="ssr:type" v="gard" />
	</node>
	<node id="-2351" lat="58.9775749976" lon="5.54100278457">
		<tag k="name" v="Dalhaugflua" />
		<tag k="place" v="locality" />
		<tag k="seamark:type" v="rock" />
		<tag k="ssr:date" v="2016-05-10" />
		<tag k="ssr:gruppe" v="grunnerISjø" />
		<tag k="ssr:hovedgruppe" v="sjø" />
		<tag k="ssr:stedsnr" v="574649" />
		<tag k="ssr:type" v="båeISjø" />
	</node>
	<node id="-2350" lat="59.0041027825" lon="5.66116389522">
		<tag k="name" v="Nodberget" />
		<tag k="natural" v="cape" />
		<tag k="ssr:date" v="2016-05-10" />
		<tag k="ssr:gruppe" v="kystkontur" />
		<tag k="ssr:hovedgruppe" v="sjø" />
		<tag k="ssr:stedsnr" v="570549" />
		<tag k="ssr:type" v="nesISjø" />
	</node>
	<node id="-2349" lat="59.0107444452" lon="5.65698333327">
		<tag k="name" v="Beinholet" />
		<tag k="natural" v="bay" />
		<tag k="ssr:date" v="2016-05-10" />
		<tag k="ssr:gruppe" v="kystkontur" />
		<tag k="ssr:hovedgruppe" v="sjø" />
		<tag k="ssr:stedsnr" v="569643" />
		<tag k="ssr:type" v="vikISjø" />
	</node>
	<node id="-2348" lat="58.9852343941" lon="5.58515556145">
		<tag k="fixme" v="consider place=hamlet" />
		<tag k="name" v="Raustein" />
		<tag k="place" v="farm" />
		<tag k="ssr:date" v="2019-06-13" />
		<tag k="ssr:gruppe" v="gardsbebyggelse" />
		<tag k="ssr:hovedgruppe" v="bebyggelse" />
		<tag k="ssr:stedsnr" v="569373" />
		<tag k="ssr:type" v="gard" />
	</node>
	<node id="-2347" lat="58.9819555595" lon="5.60797778381">
		<tag k="name" v="Goavika" />
		<tag k="natural" v="bay" />
		<tag k="ssr:date" v="2016-05-10" />
		<tag k="ssr:gruppe" v="kystkontur" />
		<tag k="ssr:hovedgruppe" v="sjø" />
		<tag k="ssr:stedsnr" v="569321" />
		<tag k="ssr:type" v="vikISjø" />
	</node>
	<node id="-2346" lat="58.9834444408" lon="5.6254166601">
		<tag k="name" v="Kuvomma" />
		<tag k="natural" v="bay" />
		<tag k="ssr:date" v="2016-05-10" />
		<tag k="ssr:gruppe" v="ferskvannskontur" />
		<tag k="ssr:hovedgruppe" v="ferskvann" />
		<tag k="ssr:stedsnr" v="569313" />
		<tag k="ssr:type" v="vik" />
	</node>
	<node id="-2345" lat="58.9860111124" lon="5.62822223049">
		<tag k="name" v="Dalen" />
		<tag k="place" v="farm" />
		<tag k="ssr:date" v="2016-05-10" />
		<tag k="ssr:gruppe" v="gardsbebyggelse" />
		<tag k="ssr:hovedgruppe" v="bebyggelse" />
		<tag k="ssr:stedsnr" v="569306" />
		<tag k="ssr:type" v="bruk" />
	</node>
	<node id="-2344" lat="59.0347666247" lon="5.58573759133">
		<tag k="fixme" v="consider place=hamlet" />
		<tag k="name" v="Tunge" />
		<tag k="place" v="farm" />
		<tag k="ssr:date" v="2019-06-13" />
		<tag k="ssr:gruppe" v="gardsbebyggelse" />
		<tag k="ssr:hovedgruppe" v="bebyggelse" />
		<tag k="ssr:stedsnr" v="547831" />
		<tag k="ssr:type" v="gard" />
	</node>
	<node id="-2343" lat="59.0220749989" lon="5.49502777033">
		<tag k="name" v="Alsteinfluene" />
		<tag k="place" v="locality" />
		<tag k="seamark:type" v="rock" />
		<tag k="ssr:date" v="2016-05-10" />
		<tag k="ssr:gruppe" v="grunnerISjø" />
		<tag k="ssr:hovedgruppe" v="sjø" />
		<tag k="ssr:stedsnr" v="547826" />
		<tag k="ssr:type" v="båeISjø" />
	</node>
	<node id="-2342" lat="59.0256416627" lon="5.57676666759">
		<tag k="fixme" v="consider seamark:type=rock or natural=shoal" />
		<tag k="name" v="Gunnarsskjera" />
		<tag k="place" v="islet" />
		<tag k="ssr:date" v="2016-05-10" />
		<tag k="ssr:gruppe" v="grunnerISjø" />
		<tag k="ssr:hovedgruppe" v="sjø" />
		<tag k="ssr:stedsnr" v="547821" />
		<tag k="ssr:type" v="skjærISjø" />
	</node>
	<node id="-2341" lat="58.9827861087" lon="5.49291389343">
		<tag k="name" v="Litle Grynningen" />
		<tag k="place" v="islet" />
		<tag k="ssr:date" v="2016-05-10" />
		<tag k="ssr:gruppe" v="kystkontur" />
		<tag k="ssr:hovedgruppe" v="sjø" />
		<tag k="ssr:stedsnr" v="546124" />
		<tag k="ssr:type" v="holmeISjø" />
	</node>
	<node id="-2340" lat="58.9963861092" lon="5.69309443781">
		<tag k="bay" v="fjord" />
		<tag k="name" v="Byfjorden" />
		<tag k="natural" v="bay" />
		<tag k="ssr:date" v="2019-12-27" />
		<tag k="ssr:gruppe" v="farvann" />
		<tag k="ssr:hovedgruppe" v="sjø" />
		<tag k="ssr:stedsnr" v="546122" />
		<tag k="ssr:type" v="fjord" />
	</node>
	<node id="-2339" lat="58.9856861152" lon="5.62951388146">
		<tag k="bridge" v="yes" />
		<tag k="layer" v="1" />
		<tag k="name" v="Goa" />
		<tag k="ssr:date" v="2016-05-10" />
		<tag k="ssr:gruppe" v="samferdselsanlegg" />
		<tag k="ssr:hovedgruppe" v="infrastruktur" />
		<tag k="ssr:stedsnr" v="532636" />
		<tag k="ssr:type" v="bru" />
	</node>
	<node id="-2338" lat="59.0707416641" lon="5.56304722812">
		<tag k="bay" v="fjord" />
		<tag k="name" v="Kvitsøyfjorden" />
		<tag k="natural" v="bay" />
		<tag k="ssr:date" v="2019-12-27" />
		<tag k="ssr:gruppe" v="farvann" />
		<tag k="ssr:hovedgruppe" v="sjø" />
		<tag k="ssr:stedsnr" v="427782" />
		<tag k="ssr:type" v="fjord" />
	</node>
	<node id="-2337" lat="59.0085416688" lon="5.60822500246">
		<tag k="alt_name" v="Steines" />
		<tag k="name" v="Steinnes" />
		<tag k="place" v="farm" />
		<tag k="ssr:date" v="2016-05-10" />
		<tag k="ssr:gruppe" v="gardsbebyggelse" />
		<tag k="ssr:hovedgruppe" v="bebyggelse" />
		<tag k="ssr:stedsnr" v="426774" />
		<tag k="ssr:type" v="bruk" />
	</node>
	<node id="-2336" lat="58.9680888869" lon="5.41416666308">
		<tag k="bay" v="fjord" />
		<tag k="name" v="Håsteinsfjorden" />
		<tag k="natural" v="bay" />
		<tag k="ssr:date" v="2019-12-27" />
		<tag k="ssr:gruppe" v="farvann" />
		<tag k="ssr:hovedgruppe" v="sjø" />
		<tag k="ssr:stedsnr" v="425114" />
		<tag k="ssr:type" v="fjord" />
	</node>
	<node id="-2335" lat="58.9913527746" lon="5.64046388595">
		<tag k="name" v="Foren" />
		<tag k="place" v="farm" />
		<tag k="ssr:date" v="2016-05-10" />
		<tag k="ssr:gruppe" v="gardsbebyggelse" />
		<tag k="ssr:hovedgruppe" v="bebyggelse" />
		<tag k="ssr:stedsnr" v="425089" />
		<tag k="ssr:type" v="bruk" />
	</node>
	<node id="-2334" lat="58.9985361119" lon="5.62452222691">
		<tag k="bridge" v="yes" />
		<tag k="layer" v="1" />
		<tag k="name" v="Randaberg" />
		<tag k="ssr:date" v="2016-05-10" />
		<tag k="ssr:gruppe" v="samferdselsanlegg" />
		<tag k="ssr:hovedgruppe" v="infrastruktur" />
		<tag k="ssr:stedsnr" v="411623" />
		<tag k="ssr:type" v="bru" />
	</node>
	<node id="-2333" lat="59.0236722225" lon="5.61353611698">
		<tag k="amenity" v="ferry_terminal" />
		<tag k="name" v="Randaberg ferjekai" />
		<tag k="ssr:date" v="2016-05-10" />
		<tag k="ssr:gruppe" v="sjøfart" />
		<tag k="ssr:hovedgruppe" v="infrastruktur" />
		<tag k="ssr:stedsnr" v="411622" />
		<tag k="ssr:type" v="ferjekai" />
	</node>
	<node id="-2332" lat="58.9900333368" lon="5.53626944872">
		<tag k="name" v="Bjørnaflua" />
		<tag k="place" v="locality" />
		<tag k="seamark:type" v="rock" />
		<tag k="ssr:date" v="2016-05-10" />
		<tag k="ssr:gruppe" v="grunnerISjø" />
		<tag k="ssr:hovedgruppe" v="sjø" />
		<tag k="ssr:stedsnr" v="388577" />
		<tag k="ssr:type" v="båeISjø" />
	</node>
	<node id="-2331" lat="58.9983333369" lon="5.64425277311">
		<tag k="name" v="Klampen" />
		<tag k="place" v="locality" />
		<tag k="ssr:date" v="2016-05-10" />
		<tag k="ssr:gruppe" v="dyrkamark" />
		<tag k="ssr:hovedgruppe" v="markslag" />
		<tag k="ssr:stedsnr" v="387641" />
		<tag k="ssr:type" v="jorde" />
	</node>
	<node id="-2330" lat="58.9929638897" lon="5.59427778102">
		<tag k="name" v="Grøvjå" />
		<tag k="place" v="farm" />
		<tag k="ssr:date" v="2016-05-10" />
		<tag k="ssr:gruppe" v="gardsbebyggelse" />
		<tag k="ssr:hovedgruppe" v="bebyggelse" />
		<tag k="ssr:stedsnr" v="387500" />
		<tag k="ssr:type" v="bruk" />
	</node>
	<node id="-2329" lat="59.0007888904" lon="5.56977499685">
		<tag k="name" v="Rissberg" />
		<tag k="place" v="locality" />
		<tag k="ssr:date" v="2016-05-10" />
		<tag k="ssr:gruppe" v="dyrkamark" />
		<tag k="ssr:hovedgruppe" v="markslag" />
		<tag k="ssr:stedsnr" v="387499" />
		<tag k="ssr:type" v="jorde" />
	</node>
	<node id="-2328" lat="59.0090972243" lon="5.64196110449">
		<tag k="alt_name" v="Grødeim" />
		<tag k="name" v="Grødem" />
		<tag k="place" v="farm" />
		<tag k="ssr:date" v="2016-05-10" />
		<tag k="ssr:gruppe" v="gardsbebyggelse" />
		<tag k="ssr:hovedgruppe" v="bebyggelse" />
		<tag k="ssr:stedsnr" v="365799" />
		<tag k="ssr:type" v="bruk" />
	</node>
	<node id="-2327" lat="59.0088166625" lon="5.56135832793">
		<tag k="name" v="Sandeskjeret" />
		<tag k="natural" v="shoal" />
		<tag k="place" v="locality" />
		<tag k="ssr:date" v="2016-05-10" />
		<tag k="ssr:gruppe" v="grunnerISjø" />
		<tag k="ssr:hovedgruppe" v="sjø" />
		<tag k="ssr:stedsnr" v="365782" />
		<tag k="ssr:type" v="grunneISjø" />
	</node>
	<node id="-2326" lat="58.9861410167" lon="5.56891995217">
		<tag k="fixme" v="consider place=hamlet" />
		<tag k="name" v="Vistnes" />
		<tag k="place" v="farm" />
		<tag k="ssr:date" v="2019-06-13" />
		<tag k="ssr:gruppe" v="gardsbebyggelse" />
		<tag k="ssr:hovedgruppe" v="bebyggelse" />
		<tag k="ssr:stedsnr" v="364124" />
		<tag k="ssr:type" v="gard" />
	</node>
	<node id="-2325" lat="58.9886388871" lon="5.59781666849">
		<tag k="name" v="Vistehola" />
		<tag k="place" v="farm" />
		<tag k="ssr:date" v="2016-05-10" />
		<tag k="ssr:gruppe" v="gardsbebyggelse" />
		<tag k="ssr:hovedgruppe" v="bebyggelse" />
		<tag k="ssr:stedsnr" v="364122" />
		<tag k="ssr:type" v="bruk" />
	</node>
	<node id="-2324" lat="58.9898898802" lon="5.58575760192">
		<tag k="fixme" v="consider place=hamlet" />
		<tag k="name" v="Viste" />
		<tag k="place" v="farm" />
		<tag k="ssr:date" v="2019-06-13" />
		<tag k="ssr:gruppe" v="gardsbebyggelse" />
		<tag k="ssr:hovedgruppe" v="bebyggelse" />
		<tag k="ssr:stedsnr" v="364106" />
		<tag k="ssr:type" v="gard" />
	</node>
	<node id="-2323" lat="59.0357749979" lon="5.55956667089">
		<tag k="name" v="Tungefluene" />
		<tag k="place" v="locality" />
		<tag k="seamark:type" v="rock" />
		<tag k="ssr:date" v="2016-05-10" />
		<tag k="ssr:gruppe" v="grunnerISjø" />
		<tag k="ssr:hovedgruppe" v="sjø" />
		<tag k="ssr:stedsnr" v="328601" />
		<tag k="ssr:type" v="båeISjø" />
	</node>
	<node id="-2322" lat="58.9916805545" lon="5.48071666852">
		<tag k="name" v="Langeflua" />
		<tag k="place" v="locality" />
		<tag k="seamark:type" v="rock" />
		<tag k="ssr:date" v="2016-05-10" />
		<tag k="ssr:gruppe" v="grunnerISjø" />
		<tag k="ssr:hovedgruppe" v="sjø" />
		<tag k="ssr:stedsnr" v="328588" />
		<tag k="ssr:type" v="båeISjø" />
	</node>
	<node id="-2321" lat="59.0010749997" lon="5.63008334133">
		<tag k="name" v="Harestadmyra" />
		<tag k="natural" v="wetland" />
		<tag k="ssr:date" v="2016-05-10" />
		<tag k="ssr:gruppe" v="våtmark" />
		<tag k="ssr:hovedgruppe" v="markslag" />
		<tag k="ssr:stedsnr" v="327601" />
		<tag k="ssr:type" v="myr" />
	</node>
	<node id="-2320" lat="59.0037805514" lon="5.65361388679">
		<tag k="name" v="Stemmen" />
		<tag k="place" v="farm" />
		<tag k="ssr:date" v="2016-05-10" />
		<tag k="ssr:gruppe" v="gardsbebyggelse" />
		<tag k="ssr:hovedgruppe" v="bebyggelse" />
		<tag k="ssr:stedsnr" v="327598" />
		<tag k="ssr:type" v="bruk" />
	</node>
	<node id="-2319" lat="59.0197029194" lon="5.60928732174">
		<tag k="fixme" v="consider place=hamlet" />
		<tag k="name" v="Randaberg" />
		<tag k="place" v="farm" />
		<tag k="ssr:date" v="2019-06-13" />
		<tag k="ssr:gruppe" v="gardsbebyggelse" />
		<tag k="ssr:hovedgruppe" v="bebyggelse" />
		<tag k="ssr:stedsnr" v="327661" />
		<tag k="ssr:type" v="gard" />
	</node>
	<node id="-2318" lat="58.9839472204" lon="5.60985555963">
		<tag k="name" v="Klubben" />
		<tag k="natural" v="hill" />
		<tag k="place" v="locality" />
		<tag k="ssr:date" v="2016-05-10" />
		<tag k="ssr:gruppe" v="høyder" />
		<tag k="ssr:hovedgruppe" v="terreng" />
		<tag k="ssr:stedsnr" v="327301" />
		<tag k="ssr:type" v="haug" />
	</node>
	<node id="-2317" lat="58.9891277736" lon="5.61907777105">
		<tag k="fixme" v="consider natural=peak for the most distinct mountains in the district" />
		<tag k="name" v="Ringaberg" />
		<tag k="natural" v="hill" />
		<tag k="place" v="locality" />
		<tag k="ssr:date" v="2016-05-10" />
		<tag k="ssr:gruppe" v="høyder" />
		<tag k="ssr:hovedgruppe" v="terreng" />
		<tag k="ssr:stedsnr" v="327290" />
		<tag k="ssr:type" v="ås" />
	</node>
	<node id="-2316" lat="59.0004888856" lon="5.5660861162">
		<tag k="name" v="Einarsviga" />
		<tag k="natural" v="bay" />
		<tag k="ssr:date" v="2016-05-10" />
		<tag k="ssr:gruppe" v="kystkontur" />
		<tag k="ssr:hovedgruppe" v="sjø" />
		<tag k="ssr:stedsnr" v="305766" />
		<tag k="ssr:type" v="vikISjø" />
	</node>
	<node id="-2315" lat="59.0236718181" lon="5.61353577327">
		<tag k="amenity" v="ferry_terminal" />
		<tag k="name" v="Mekjarvik ferjekai" />
		<tag k="old_name" v="Randaberg ferjekai" />
		<tag k="ssr:date" v="2016-11-14" />
		<tag k="ssr:gruppe" v="sjøfart" />
		<tag k="ssr:hovedgruppe" v="infrastruktur" />
		<tag k="ssr:stedsnr" v="305751" />
		<tag k="ssr:type" v="ferjekai" />
	</node>
	<node id="-2314" lat="58.9935722234" lon="5.50879999867">
		<tag k="fixme" v="consider seamark:type=rock or natural=shoal" />
		<tag k="name" v="Nordra Svartaskjeret" />
		<tag k="place" v="islet" />
		<tag k="ssr:date" v="2016-05-10" />
		<tag k="ssr:gruppe" v="grunnerISjø" />
		<tag k="ssr:hovedgruppe" v="sjø" />
		<tag k="ssr:stedsnr" v="304093" />
		<tag k="ssr:type" v="skjærISjø" />
	</node>
	<node id="-2313" lat="59.0305861125" lon="5.57403332683">
		<tag k="name" v="Holmanebbet" />
		<tag k="natural" v="cape" />
		<tag k="ssr:date" v="2016-05-10" />
		<tag k="ssr:gruppe" v="kystkontur" />
		<tag k="ssr:hovedgruppe" v="sjø" />
		<tag k="ssr:stedsnr" v="207575" />
		<tag k="ssr:type" v="nesISjø" />
	</node>
	<node id="-2312" lat="59.0060277734" lon="5.62676110859">
		<tag k="name" v="Odnaberg" />
		<tag k="natural" v="hill" />
		<tag k="place" v="locality" />
		<tag k="ssr:date" v="2016-05-10" />
		<tag k="ssr:gruppe" v="høyder" />
		<tag k="ssr:hovedgruppe" v="terreng" />
		<tag k="ssr:stedsnr" v="206613" />
		<tag k="ssr:type" v="berg" />
	</node>
	<node id="-2311" lat="58.9979555511" lon="5.61825554911">
		<tag k="name" v="Heia" />
		<tag k="place" v="farm" />
		<tag k="ssr:date" v="2016-05-10" />
		<tag k="ssr:gruppe" v="gardsbebyggelse" />
		<tag k="ssr:hovedgruppe" v="bebyggelse" />
		<tag k="ssr:stedsnr" v="206611" />
		<tag k="ssr:type" v="bruk" />
	</node>
	<node id="-2310" lat="58.9944972208" lon="5.51840277162">
		<tag k="name" v="Sprettet" />
		<tag k="place" v="locality" />
		<tag k="seamark:type" v="rock" />
		<tag k="ssr:date" v="2016-05-10" />
		<tag k="ssr:gruppe" v="grunnerISjø" />
		<tag k="ssr:hovedgruppe" v="sjø" />
		<tag k="ssr:stedsnr" v="206571" />
		<tag k="ssr:type" v="båeISjø" />
	</node>
	<node id="-2309" lat="59.0372638932" lon="5.58046667065">
		<tag k="name" v="Taraboen" />
		<tag k="place" v="locality" />
		<tag k="seamark:type" v="rock" />
		<tag k="ssr:date" v="2016-05-10" />
		<tag k="ssr:gruppe" v="grunnerISjø" />
		<tag k="ssr:hovedgruppe" v="sjø" />
		<tag k="ssr:stedsnr" v="206564" />
		<tag k="ssr:type" v="båeISjø" />
	</node>
	<node id="-2308" lat="59.0079833304" lon="5.59859167301">
		<tag k="name" v="Vassbotnen" />
		<tag k="place" v="locality" />
		<tag k="ssr:date" v="2016-05-10" />
		<tag k="ssr:gruppe" v="dyrkamark" />
		<tag k="ssr:hovedgruppe" v="markslag" />
		<tag k="ssr:stedsnr" v="206414" />
		<tag k="ssr:type" v="jorde" />
	</node>
	<node id="-2307" lat="58.9907722184" lon="5.60317499959">
		<tag k="name" v="Kulebergmyra" />
		<tag k="natural" v="wetland" />
		<tag k="ssr:date" v="2016-05-10" />
		<tag k="ssr:gruppe" v="våtmark" />
		<tag k="ssr:hovedgruppe" v="markslag" />
		<tag k="ssr:stedsnr" v="206355" />
		<tag k="ssr:type" v="myr" />
	</node>
	<node id="-2306" lat="58.9849972222" lon="5.60176111095">
		<tag k="name" v="Hammaren" />
		<tag k="natural" v="cape" />
		<tag k="ssr:date" v="2016-05-10" />
		<tag k="ssr:gruppe" v="kystkontur" />
		<tag k="ssr:hovedgruppe" v="sjø" />
		<tag k="ssr:stedsnr" v="206353" />
		<tag k="ssr:type" v="nesISjø" />
	</node>
	<node id="-2305" lat="59.0028777774" lon="5.61154721817">
		<tag k="name" v="Berghaug" />
		<tag k="natural" v="hill" />
		<tag k="place" v="locality" />
		<tag k="ssr:date" v="2016-05-10" />
		<tag k="ssr:gruppe" v="høyder" />
		<tag k="ssr:hovedgruppe" v="terreng" />
		<tag k="ssr:stedsnr" v="206300" />
		<tag k="ssr:type" v="haug" />
	</node>
	<node id="-2304" lat="59.0396999987" lon="5.49148888631">
		<tag k="name" v="Djupaflua" />
		<tag k="natural" v="shoal" />
		<tag k="place" v="locality" />
		<tag k="ssr:date" v="2016-05-10" />
		<tag k="ssr:gruppe" v="grunnerISjø" />
		<tag k="ssr:hovedgruppe" v="sjø" />
		<tag k="ssr:stedsnr" v="183800" />
		<tag k="ssr:type" v="grunneISjø" />
	</node>
	<node id="-2303" lat="59.0138305588" lon="5.56868333689">
		<tag k="name" v="Sundet" />
		<tag k="natural" v="bay" />
		<tag k="ssr:date" v="2016-05-10" />
		<tag k="ssr:gruppe" v="kystkontur" />
		<tag k="ssr:hovedgruppe" v="sjø" />
		<tag k="ssr:stedsnr" v="183772" />
		<tag k="ssr:type" v="vikISjø" />
	</node>
	<node id="-2302" lat="59.0409555568" lon="5.57218055075">
		<tag k="name" v="Bragen" />
		<tag k="place" v="islet" />
		<tag k="ssr:date" v="2016-05-10" />
		<tag k="ssr:gruppe" v="kystkontur" />
		<tag k="ssr:hovedgruppe" v="sjø" />
		<tag k="ssr:stedsnr" v="162696" />
		<tag k="ssr:type" v="holmeISjø" />
	</node>
	<node id="-2301" lat="59.0273027822" lon="5.57903334153">
		<tag k="name" v="Breiviga" />
		<tag k="natural" v="bay" />
		<tag k="ssr:date" v="2016-05-10" />
		<tag k="ssr:gruppe" v="kystkontur" />
		<tag k="ssr:hovedgruppe" v="sjø" />
		<tag k="ssr:stedsnr" v="162691" />
		<tag k="ssr:type" v="vikISjø" />
	</node>
	<node id="-2300" lat="59.0105472267" lon="5.56753889641">
		<tag k="name" v="Løndshaug" />
		<tag k="natural" v="hill" />
		<tag k="place" v="locality" />
		<tag k="ssr:date" v="2016-05-10" />
		<tag k="ssr:gruppe" v="høyder" />
		<tag k="ssr:hovedgruppe" v="terreng" />
		<tag k="ssr:stedsnr" v="145438" />
		<tag k="ssr:type" v="haug" />
	</node>
	<node id="-2299" lat="58.9841916682" lon="5.5636027849">
		<tag k="name" v="Dønneviga" />
		<tag k="natural" v="bay" />
		<tag k="ssr:date" v="2016-05-10" />
		<tag k="ssr:gruppe" v="kystkontur" />
		<tag k="ssr:hovedgruppe" v="sjø" />
		<tag k="ssr:stedsnr" v="145352" />
		<tag k="ssr:type" v="vikISjø" />
	</node>
	<node id="-2298" lat="58.9853861109" lon="5.58134166222">
		<tag k="name" v="Stemmen" />
		<tag k="place" v="farm" />
		<tag k="ssr:date" v="2016-05-10" />
		<tag k="ssr:gruppe" v="gardsbebyggelse" />
		<tag k="ssr:hovedgruppe" v="bebyggelse" />
		<tag k="ssr:stedsnr" v="145349" />
		<tag k="ssr:type" v="bruk" />
	</node>
	<node id="-2297" lat="58.982638888" lon="5.6121083353">
		<tag k="name" v="Varhei" />
		<tag k="natural" v="hill" />
		<tag k="place" v="locality" />
		<tag k="ssr:date" v="2016-05-10" />
		<tag k="ssr:gruppe" v="høyder" />
		<tag k="ssr:hovedgruppe" v="terreng" />
		<tag k="ssr:stedsnr" v="145298" />
		<tag k="ssr:type" v="haug" />
	</node>
	<node id="-2296" lat="58.9860222182" lon="5.65241666754">
		<tag k="name" v="Molkeholen" />
		<tag k="place" v="farm" />
		<tag k="ssr:date" v="2016-05-10" />
		<tag k="ssr:gruppe" v="gardsbebyggelse" />
		<tag k="ssr:hovedgruppe" v="bebyggelse" />
		<tag k="ssr:stedsnr" v="145285" />
		<tag k="ssr:type" v="bruk" />
	</node>
	<node id="-2295" lat="59.02487233" lon="5.59435686759">
		<tag k="fixme" v="consider place=hamlet" />
		<tag k="name" v="Sande" />
		<tag k="place" v="farm" />
		<tag k="ssr:date" v="2019-06-13" />
		<tag k="ssr:gruppe" v="gardsbebyggelse" />
		<tag k="ssr:hovedgruppe" v="bebyggelse" />
		<tag k="ssr:stedsnr" v="122805" />
		<tag k="ssr:type" v="gard" />
	</node>
	<node id="-2294" lat="59.0335222216" lon="5.57258889587">
		<tag k="name" v="Skoholmgrunnen" />
		<tag k="natural" v="shoal" />
		<tag k="place" v="locality" />
		<tag k="ssr:date" v="2016-05-10" />
		<tag k="ssr:gruppe" v="grunnerISjø" />
		<tag k="ssr:hovedgruppe" v="sjø" />
		<tag k="ssr:stedsnr" v="122781" />
		<tag k="ssr:type" v="grunneISjø" />
	</node>
	<node id="-2293" lat="59.0116861091" lon="5.61425833096">
		<tag k="name" v="Oddaheia" />
		<tag k="place" v="farm" />
		<tag k="ssr:date" v="2016-05-10" />
		<tag k="ssr:gruppe" v="gardsbebyggelse" />
		<tag k="ssr:hovedgruppe" v="bebyggelse" />
		<tag k="ssr:stedsnr" v="122759" />
		<tag k="ssr:type" v="bruk" />
	</node>
	<node id="-2292" lat="59.0173305592" lon="5.61907222446">
		<tag k="name" v="Signalhaugen" />
		<tag k="natural" v="hill" />
		<tag k="old_name" v="Varden" />
		<tag k="place" v="locality" />
		<tag k="ssr:date" v="2016-05-10" />
		<tag k="ssr:gruppe" v="høyder" />
		<tag k="ssr:hovedgruppe" v="terreng" />
		<tag k="ssr:stedsnr" v="122753" />
		<tag k="ssr:type" v="haug" />
	</node>
	<node id="-2291" lat="58.9864517557" lon="5.6188404624">
		<tag k="alt_name" v="vestre Goa" />
		<tag k="name" v="Goa" />
		<tag k="place" v="hamlet" />
		<tag k="ssr:date" v="2019-06-13" />
		<tag k="ssr:gruppe" v="gardsbebyggelse" />
		<tag k="ssr:hovedgruppe" v="bebyggelse" />
		<tag k="ssr:stedsnr" v="122108" />
		<tag k="ssr:type" v="navnegard" />
	</node>
	<node id="-2290" lat="58.9937194415" lon="5.50628888872">
		<tag k="name" v="Høvringen" />
		<tag k="place" v="locality" />
		<tag k="seamark:type" v="rock" />
		<tag k="ssr:date" v="2016-05-10" />
		<tag k="ssr:gruppe" v="grunnerISjø" />
		<tag k="ssr:hovedgruppe" v="sjø" />
		<tag k="ssr:stedsnr" v="85523" />
		<tag k="ssr:type" v="båeISjø" />
	</node>
	<node id="-2289" lat="58.9841888912" lon="5.5194416658">
		<tag k="fixme" v="consider seamark:type=rock or natural=shoal" />
		<tag k="name" v="Klaven" />
		<tag k="place" v="islet" />
		<tag k="ssr:date" v="2016-05-10" />
		<tag k="ssr:gruppe" v="grunnerISjø" />
		<tag k="ssr:hovedgruppe" v="sjø" />
		<tag k="ssr:stedsnr" v="85522" />
		<tag k="ssr:type" v="skjærISjø" />
	</node>
	<node id="-2288" lat="58.9774625659" lon="5.62797520822">
		<tag k="name" v="Båtvika" />
		<tag k="natural" v="bay" />
		<tag k="ssr:date" v="2019-04-16" />
		<tag k="ssr:gruppe" v="ferskvannskontur" />
		<tag k="ssr:hovedgruppe" v="ferskvann" />
		<tag k="ssr:stedsnr" v="85249" />
		<tag k="ssr:type" v="vik" />
	</node>
	<node id="-2287" lat="59.0030638903" lon="5.59032777262">
		<tag k="name" v="Reverinda" />
		<tag k="place" v="farm" />
		<tag k="ssr:date" v="2016-05-10" />
		<tag k="ssr:gruppe" v="gardsbebyggelse" />
		<tag k="ssr:hovedgruppe" v="bebyggelse" />
		<tag k="ssr:stedsnr" v="84491" />
		<tag k="ssr:type" v="bruk" />
	</node>
	<node id="-2286" lat="59.0307361117" lon="5.57552499468">
		<tag k="name" v="Holmodden" />
		<tag k="natural" v="cape" />
		<tag k="ssr:date" v="2016-05-10" />
		<tag k="ssr:gruppe" v="kystkontur" />
		<tag k="ssr:hovedgruppe" v="sjø" />
		<tag k="ssr:stedsnr" v="62801" />
		<tag k="ssr:type" v="nesISjø" />
	</node>
	<node id="-2285" lat="58.993919444" lon="5.59820278168">
		<tag k="name" v="Viste" />
		<tag k="place" v="farm" />
		<tag k="ssr:date" v="2016-05-10" />
		<tag k="ssr:gruppe" v="gardsbebyggelse" />
		<tag k="ssr:hovedgruppe" v="bebyggelse" />
		<tag k="ssr:stedsnr" v="62770" />
		<tag k="ssr:type" v="bruk" />
	</node>
	<node id="-2284" lat="59.0000861109" lon="5.6413555495">
		<tag k="name" v="Rygg" />
		<tag k="place" v="farm" />
		<tag k="ssr:date" v="2016-05-10" />
		<tag k="ssr:gruppe" v="gardsbebyggelse" />
		<tag k="ssr:hovedgruppe" v="bebyggelse" />
		<tag k="ssr:stedsnr" v="62359" />
		<tag k="ssr:type" v="bruk" />
	</node>
	<node id="-2283" lat="58.9881666694" lon="5.63291388512">
		<tag k="alt_name" v="austre Goa" />
		<tag k="name" v="Goa" />
		<tag k="place" v="farm" />
		<tag k="ssr:date" v="2016-05-10" />
		<tag k="ssr:gruppe" v="gardsbebyggelse" />
		<tag k="ssr:hovedgruppe" v="bebyggelse" />
		<tag k="ssr:stedsnr" v="61091" />
		<tag k="ssr:type" v="bruk" />
	</node>
	<node id="-2282" lat="58.9986781482" lon="5.63731070434">
		<tag k="fixme" v="consider place=hamlet" />
		<tag k="name" v="Rygg" />
		<tag k="place" v="farm" />
		<tag k="ssr:date" v="2019-06-13" />
		<tag k="ssr:gruppe" v="gardsbebyggelse" />
		<tag k="ssr:hovedgruppe" v="bebyggelse" />
		<tag k="ssr:stedsnr" v="61089" />
		<tag k="ssr:type" v="gard" />
	</node>
	<node id="-2281" lat="58.994560929" lon="5.57782402415">
		<tag k="fixme" v="consider place=hamlet" />
		<tag k="name" v="Vistvik" />
		<tag k="place" v="farm" />
		<tag k="ssr:date" v="2019-06-13" />
		<tag k="ssr:gruppe" v="gardsbebyggelse" />
		<tag k="ssr:hovedgruppe" v="bebyggelse" />
		<tag k="ssr:stedsnr" v="61087" />
		<tag k="ssr:type" v="gard" />
	</node>
	<node id="-2280" lat="59.0187277736" lon="5.62737500648">
		<tag k="bridge" v="yes" />
		<tag k="layer" v="1" />
		<tag k="name" v="Todnem" />
		<tag k="ssr:date" v="2016-05-10" />
		<tag k="ssr:gruppe" v="samferdselsanlegg" />
		<tag k="ssr:hovedgruppe" v="infrastruktur" />
		<tag k="ssr:stedsnr" v="46721" />
		<tag k="ssr:type" v="bru" />
	</node>
	<node id="-2279" lat="59.0030220599" lon="5.57548449475">
		<tag k="alt_name" v="Bø, ytre" />
		<tag k="fixme" v="consider place=hamlet" />
		<tag k="name" v="Ytre Bø" />
		<tag k="place" v="farm" />
		<tag k="ssr:date" v="2019-06-13" />
		<tag k="ssr:gruppe" v="gardsbebyggelse" />
		<tag k="ssr:hovedgruppe" v="bebyggelse" />
		<tag k="ssr:stedsnr" v="31771" />
		<tag k="ssr:type" v="gard" />
	</node>
	<node id="-2278" lat="59.0028666661" lon="5.59897223046">
		<tag k="name" v="Langerind" />
		<tag k="place" v="farm" />
		<tag k="ssr:date" v="2016-05-10" />
		<tag k="ssr:gruppe" v="gardsbebyggelse" />
		<tag k="ssr:hovedgruppe" v="bebyggelse" />
		<tag k="ssr:stedsnr" v="24441" />
		<tag k="ssr:type" v="bruk" />
	</node>
	<node id="-2277" lat="58.9861388916" lon="5.56652776969">
		<tag k="name" v="Vedabakken" />
		<tag k="natural" v="hill" />
		<tag k="place" v="locality" />
		<tag k="ssr:date" v="2016-05-10" />
		<tag k="ssr:gruppe" v="høyder" />
		<tag k="ssr:hovedgruppe" v="terreng" />
		<tag k="ssr:stedsnr" v="24356" />
		<tag k="ssr:type" v="haug" />
	</node>
	<node id="-2276" lat="58.9812416685" lon="5.57409722617">
		<tag k="name" v="Neset" />
		<tag k="natural" v="cape" />
		<tag k="ssr:date" v="2016-05-10" />
		<tag k="ssr:gruppe" v="kystkontur" />
		<tag k="ssr:hovedgruppe" v="sjø" />
		<tag k="ssr:stedsnr" v="24355" />
		<tag k="ssr:type" v="nesISjø" />
	</node>
	<node id="-2274" lat="59.0362388891" lon="5.58256667333">
		<tag k="name" v="Tungeneset" />
		<tag k="natural" v="cape" />
		<tag k="ssr:date" v="2016-05-10" />
		<tag k="ssr:gruppe" v="kystkontur" />
		<tag k="ssr:hovedgruppe" v="sjø" />
		<tag k="ssr:stedsnr" v="1786" />
		<tag k="ssr:type" v="nesISjø" />
	</node>
	<node id="-2273" lat="59.0355999966" lon="5.52551111953">
		<tag k="name" v="Alstein" />
		<tag k="place" v="island" />
		<tag k="ssr:date" v="2016-05-10" />
		<tag k="ssr:gruppe" v="kystkontur" />
		<tag k="ssr:hovedgruppe" v="sjø" />
		<tag k="ssr:stedsnr" v="1777" />
		<tag k="ssr:type" v="øyISjø" />
	</node>
	<node id="-2272" lat="59.0205647369" lon="5.58238954356">
		<tag k="name" v="Sandeviga" />
		<tag k="natural" v="bay" />
		<tag k="ssr:date" v="2019-04-16" />
		<tag k="ssr:gruppe" v="kystkontur" />
		<tag k="ssr:hovedgruppe" v="sjø" />
		<tag k="ssr:stedsnr" v="1754" />
		<tag k="ssr:type" v="vikISjø" />
	</node>
	<node id="-2271" lat="58.9804372825" lon="5.63593100048">
		<tag k="fixme" v="consider place=hamlet" />
		<tag k="name" v="Håland" />
		<tag k="place" v="farm" />
		<tag k="ssr:date" v="2019-06-13" />
		<tag k="ssr:gruppe" v="gardsbebyggelse" />
		<tag k="ssr:hovedgruppe" v="bebyggelse" />
		<tag k="ssr:stedsnr" v="127" />
		<tag k="ssr:type" v="gard" />
	</node>
	<node id="-2270" lat="58.9874777743" lon="5.63898055885">
		<tag k="alt_name" v="Kålhaug" />
		<tag k="name" v="Kålhaugen" />
		<tag k="place" v="farm" />
		<tag k="ssr:date" v="2016-05-10" />
		<tag k="ssr:gruppe" v="gardsbebyggelse" />
		<tag k="ssr:hovedgruppe" v="bebyggelse" />
		<tag k="ssr:stedsnr" v="124" />
		<tag k="ssr:type" v="bruk" />
	</node>
	<node id="-2269" lat="58.9837194417" lon="5.51380278438">
		<tag k="name" v="Eigarholmen" />
		<tag k="place" v="islet" />
		<tag k="ssr:date" v="2016-05-10" />
		<tag k="ssr:gruppe" v="kystkontur" />
		<tag k="ssr:hovedgruppe" v="sjø" />
		<tag k="ssr:stedsnr" v="116" />
		<tag k="ssr:type" v="holmeISjø" />
	</node>
	<node id="-2268" lat="59.0013767994" lon="5.66726294356">
		<tag k="loc_name" v="Dusavig" />
		<tag k="name" v="Dusaviga" />
		<tag k="natural" v="bay" />
		<tag k="ssr:date" v="2019-12-27" />
		<tag k="ssr:gruppe" v="kystkontur" />
		<tag k="ssr:hovedgruppe" v="sjø" />
		<tag k="ssr:stedsnr" v="112" />
		<tag k="ssr:type" v="vikISjø" />
	</node>
	<node id="-2267" lat="58.9948250034" lon="5.56710555108">
		<tag k="name" v="Vistevågen" />
		<tag k="natural" v="bay" />
		<tag k="ssr:date" v="2016-05-10" />
		<tag k="ssr:gruppe" v="kystkontur" />
		<tag k="ssr:hovedgruppe" v="sjø" />
		<tag k="ssr:stedsnr" v="100" />
		<tag k="ssr:type" v="vikISjø" />
	</node>
	<node id="-2266" lat="59.0105361097" lon="5.63400277736">
		<tag k="name" v="Kjelvå" />
		<tag k="place" v="farm" />
		<tag k="ssr:date" v="2016-05-11" />
		<tag k="ssr:gruppe" v="gardsbebyggelse" />
		<tag k="ssr:hovedgruppe" v="bebyggelse" />
		<tag k="ssr:stedsnr" v="934603" />
		<tag k="ssr:type" v="bruk" />
	</node>
	<node id="-2265" lat="59.0119138929" lon="5.6357972232">
		<tag k="bridge" v="yes" />
		<tag k="layer" v="1" />
		<tag k="name" v="Harestad" />
		<tag k="ssr:date" v="2016-05-11" />
		<tag k="ssr:gruppe" v="samferdselsanlegg" />
		<tag k="ssr:hovedgruppe" v="infrastruktur" />
		<tag k="ssr:stedsnr" v="896710" />
		<tag k="ssr:type" v="bru" />
	</node>
	<node id="-2264" lat="59.0009194473" lon="5.64481667246">
		<tag k="bridge" v="yes" />
		<tag k="layer" v="1" />
		<tag k="name" v="Rygg" />
		<tag k="ssr:date" v="2016-05-11" />
		<tag k="ssr:gruppe" v="samferdselsanlegg" />
		<tag k="ssr:hovedgruppe" v="infrastruktur" />
		<tag k="ssr:stedsnr" v="896709" />
		<tag k="ssr:type" v="bru" />
	</node>
	<node id="-2263" lat="58.9810250034" lon="5.61980833134">
		<tag k="fixme" v="consider natural=peak for the most distinct mountains in the district" />
		<tag k="name" v="Ørnaberget" />
		<tag k="natural" v="hill" />
		<tag k="place" v="locality" />
		<tag k="ssr:date" v="2016-05-11" />
		<tag k="ssr:gruppe" v="høyder" />
		<tag k="ssr:hovedgruppe" v="terreng" />
		<tag k="ssr:stedsnr" v="873321" />
		<tag k="ssr:type" v="fjell" />
	</node>
	<node id="-2262" lat="58.9997805578" lon="5.6192916739">
		<tag k="alt_name" v="Randaberg" />
		<tag k="amenity" v="place_of_worship" />
		<tag k="denomination" v="lutheran" />
		<tag k="name" v="Randaberg kirke" />
		<tag k="religion" v="christian" />
		<tag k="ssr:date" v="2016-05-11" />
		<tag k="ssr:gruppe" v="kulturinstitusjoner" />
		<tag k="ssr:hovedgruppe" v="kultur" />
		<tag k="ssr:stedsnr" v="851769" />
		<tag k="ssr:type" v="kirke" />
	</node>
	<node id="-2261" lat="59.0125027813" lon="5.64945278582">
		<tag k="alt_name" v="Skiftesberget" />
		<tag k="name" v="Strandaberg" />
		<tag k="natural" v="cape" />
		<tag k="ssr:date" v="2016-05-11" />
		<tag k="ssr:gruppe" v="kystkontur" />
		<tag k="ssr:hovedgruppe" v="sjø" />
		<tag k="ssr:stedsnr" v="851761" />
		<tag k="ssr:type" v="nesISjø" />
	</node>
	<node id="-2260" lat="59.0027444422" lon="5.5647111075">
		<tag k="name" v="Einarsvarden" />
		<tag k="natural" v="cape" />
		<tag k="ssr:date" v="2016-05-11" />
		<tag k="ssr:gruppe" v="kystkontur" />
		<tag k="ssr:hovedgruppe" v="sjø" />
		<tag k="ssr:stedsnr" v="851760" />
		<tag k="ssr:type" v="nesISjø" />
	</node>
	<node id="-2259" lat="58.9737583351" lon="5.6434305542">
		<tag k="name" v="Lyngnes" />
		<tag k="natural" v="cape" />
		<tag k="ssr:date" v="2016-05-11" />
		<tag k="ssr:gruppe" v="ferskvannskontur" />
		<tag k="ssr:hovedgruppe" v="ferskvann" />
		<tag k="ssr:stedsnr" v="934281" />
		<tag k="ssr:type" v="nes" />
	</node>
	<node id="-2258" lat="58.9809444401" lon="5.62976943963">
		<tag k="name" v="Dalen" />
		<tag k="place" v="farm" />
		<tag k="ssr:date" v="2016-05-11" />
		<tag k="ssr:gruppe" v="gardsbebyggelse" />
		<tag k="ssr:hovedgruppe" v="bebyggelse" />
		<tag k="ssr:stedsnr" v="934276" />
		<tag k="ssr:type" v="bruk" />
	</node>
	<node id="-2257" lat="58.9825527779" lon="5.60263610438">
		<tag k="name" v="Visteholmen" />
		<tag k="place" v="islet" />
		<tag k="ssr:date" v="2016-05-11" />
		<tag k="ssr:gruppe" v="kystkontur" />
		<tag k="ssr:hovedgruppe" v="sjø" />
		<tag k="ssr:stedsnr" v="813329" />
		<tag k="ssr:type" v="holmeISjø" />
	</node>
	<node id="-2256" lat="59.0104805531" lon="5.59707499181">
		<tag k="name" v="Bøkanalen" />
		<tag k="ssr:date" v="2016-05-11" />
		<tag k="ssr:gruppe" v="rennendeVann" />
		<tag k="ssr:hovedgruppe" v="ferskvann" />
		<tag k="ssr:stedsnr" v="790779" />
		<tag k="ssr:type" v="bekk" />
		<tag k="waterway" v="stream" />
	</node>
	<node id="-2255" lat="59.0521750013" lon="5.50734444138">
		<tag k="name" v="Stora Kråga" />
		<tag k="place" v="islet" />
		<tag k="ssr:date" v="2016-05-11" />
		<tag k="ssr:gruppe" v="kystkontur" />
		<tag k="ssr:hovedgruppe" v="sjø" />
		<tag k="ssr:stedsnr" v="912844" />
		<tag k="ssr:type" v="holmeISjø" />
	</node>
	<node id="-2254" lat="59.0264632791" lon="5.60691178484">
		<tag k="name" v="Randabergbukta" />
		<tag k="natural" v="bay" />
		<tag k="ssr:date" v="2019-04-16" />
		<tag k="ssr:gruppe" v="kystkontur" />
		<tag k="ssr:hovedgruppe" v="sjø" />
		<tag k="ssr:stedsnr" v="912817" />
		<tag k="ssr:type" v="vågISjø" />
	</node>
	<node id="-2253" lat="59.0299972206" lon="5.60226110778">
		<tag k="name" v="Galtasteinen" />
		<tag k="natural" v="cape" />
		<tag k="old_name" v="Galtehaugen;Galten" />
		<tag k="ssr:date" v="2016-05-11" />
		<tag k="ssr:gruppe" v="kystkontur" />
		<tag k="ssr:hovedgruppe" v="sjø" />
		<tag k="ssr:stedsnr" v="912815" />
		<tag k="ssr:type" v="nesISjø" />
	</node>
	<node id="-2252" lat="59.0013749974" lon="5.61412222589">
		<tag k="name" v="Valen" />
		<tag k="place" v="farm" />
		<tag k="ssr:date" v="2016-05-11" />
		<tag k="ssr:gruppe" v="gardsbebyggelse" />
		<tag k="ssr:hovedgruppe" v="bebyggelse" />
		<tag k="ssr:stedsnr" v="912777" />
		<tag k="ssr:type" v="bruk" />
	</node>
	<node id="-2251" lat="59.0162928357" lon="5.62478898558">
		<tag k="fixme" v="consider place=hamlet" />
		<tag k="name" v="Todneim" />
		<tag k="place" v="farm" />
		<tag k="ssr:date" v="2019-06-13" />
		<tag k="ssr:gruppe" v="gardsbebyggelse" />
		<tag k="ssr:hovedgruppe" v="bebyggelse" />
		<tag k="ssr:stedsnr" v="912765" />
		<tag k="ssr:type" v="gard" />
	</node>
	<node id="-2250" lat="59.0080442761" lon="5.58611092711">
		<tag k="alt_name" v="Bø, indre;Bø indre" />
		<tag k="fixme" v="consider place=hamlet" />
		<tag k="name" v="Indre Bø" />
		<tag k="place" v="farm" />
		<tag k="ssr:date" v="2019-06-13" />
		<tag k="ssr:gruppe" v="gardsbebyggelse" />
		<tag k="ssr:hovedgruppe" v="bebyggelse" />
		<tag k="ssr:stedsnr" v="912762" />
		<tag k="ssr:type" v="gard" />
	</node>
	<node id="-2249" lat="59.0156666673" lon="5.56543333645">
		<tag k="name" v="Børaunen" />
		<tag k="natural" v="cape" />
		<tag k="ssr:date" v="2016-05-11" />
		<tag k="ssr:gruppe" v="kystkontur" />
		<tag k="ssr:hovedgruppe" v="sjø" />
		<tag k="ssr:stedsnr" v="912759" />
		<tag k="ssr:type" v="halvøyISjø" />
	</node>
	<node id="-2248" lat="59.0164717855" lon="5.57928725829">
		<tag k="name" v="Bøvika" />
		<tag k="natural" v="bay" />
		<tag k="ssr:date" v="2019-04-16" />
		<tag k="ssr:gruppe" v="kystkontur" />
		<tag k="ssr:hovedgruppe" v="sjø" />
		<tag k="ssr:stedsnr" v="912756" />
		<tag k="ssr:type" v="vikISjø" />
	</node>
	<node id="-2247" lat="59.0218800602" lon="5.62147527947">
		<tag k="name" v="Ladbergvika" />
		<tag k="natural" v="bay" />
		<tag k="ssr:date" v="2016-11-14" />
		<tag k="ssr:gruppe" v="kystkontur" />
		<tag k="ssr:hovedgruppe" v="sjø" />
		<tag k="ssr:stedsnr" v="912753" />
		<tag k="ssr:type" v="vikISjø" />
	</node>
	<node id="-2246" lat="58.9932749993" lon="5.60634999621">
		<tag k="name" v="Viste" />
		<tag k="place" v="farm" />
		<tag k="ssr:date" v="2016-05-11" />
		<tag k="ssr:gruppe" v="gardsbebyggelse" />
		<tag k="ssr:hovedgruppe" v="bebyggelse" />
		<tag k="ssr:stedsnr" v="911105" />
		<tag k="ssr:type" v="bruk" />
	</node>
	<node id="-2245" lat="58.9949805537" lon="5.64988611488">
		<tag k="alt_name" v="Grødheim" />
		<tag k="name" v="Grødem" />
		<tag k="place" v="farm" />
		<tag k="ssr:date" v="2016-05-11" />
		<tag k="ssr:gruppe" v="gardsbebyggelse" />
		<tag k="ssr:hovedgruppe" v="bebyggelse" />
		<tag k="ssr:stedsnr" v="911104" />
		<tag k="ssr:type" v="bruk" />
	</node>
	<node id="-2244" lat="58.9903444438" lon="5.61305278035">
		<tag k="name" v="Sørli" />
		<tag k="place" v="farm" />
		<tag k="ssr:date" v="2016-05-11" />
		<tag k="ssr:gruppe" v="gardsbebyggelse" />
		<tag k="ssr:hovedgruppe" v="bebyggelse" />
		<tag k="ssr:stedsnr" v="729108" />
		<tag k="ssr:type" v="bruk" />
	</node>
	<node id="-2243" lat="59.0004194444" lon="5.65375555389">
		<tag k="name" v="Duså" />
		<tag k="place" v="locality" />
		<tag k="ssr:date" v="2016-05-10" />
		<tag k="ssr:gruppe" v="dyrkamark" />
		<tag k="ssr:hovedgruppe" v="markslag" />
		<tag k="ssr:stedsnr" v="630576" />
		<tag k="ssr:type" v="jorde" />
	</node>
	<node id="-2242" lat="58.9959555529" lon="5.58693610586">
		<tag k="name" v="Svinaberg" />
		<tag k="natural" v="hill" />
		<tag k="place" v="locality" />
		<tag k="ssr:date" v="2016-05-10" />
		<tag k="ssr:gruppe" v="høyder" />
		<tag k="ssr:hovedgruppe" v="terreng" />
		<tag k="ssr:stedsnr" v="630420" />
		<tag k="ssr:type" v="berg" />
	</node>
	<node id="-2241" lat="59.0114805518" lon="5.57310278646">
		<tag k="name" v="Grøde" />
		<tag k="place" v="farm" />
		<tag k="ssr:date" v="2016-05-10" />
		<tag k="ssr:gruppe" v="gardsbebyggelse" />
		<tag k="ssr:hovedgruppe" v="bebyggelse" />
		<tag k="ssr:stedsnr" v="630418" />
		<tag k="ssr:type" v="bruk" />
	</node>
	<node id="-2240" lat="59.0104805567" lon="5.57229444974">
		<tag k="name" v="Ægrå" />
		<tag k="place" v="farm" />
		<tag k="ssr:date" v="2016-05-10" />
		<tag k="ssr:gruppe" v="gardsbebyggelse" />
		<tag k="ssr:hovedgruppe" v="bebyggelse" />
		<tag k="ssr:stedsnr" v="630416" />
		<tag k="ssr:type" v="bruk" />
	</node>
	<node id="-2239" lat="59.0312250008" lon="5.5931500015">
		<tag k="name" v="Håbakken" />
		<tag k="natural" v="hill" />
		<tag k="place" v="locality" />
		<tag k="ssr:date" v="2016-05-11" />
		<tag k="ssr:gruppe" v="høyder" />
		<tag k="ssr:hovedgruppe" v="terreng" />
		<tag k="ssr:stedsnr" v="720074" />
		<tag k="ssr:type" v="høyde" />
	</node>
	<node id="-2238" lat="59.0083644339" lon="5.65478877407">
		<tag k="alt_name" v="Grødeimshammaren" />
		<tag k="name" v="Grødemhammaren" />
		<tag k="natural" v="hill" />
		<tag k="place" v="locality" />
		<tag k="ssr:date" v="2018-07-12" />
		<tag k="ssr:gruppe" v="høyder" />
		<tag k="ssr:hovedgruppe" v="terreng" />
		<tag k="ssr:stedsnr" v="608809" />
		<tag k="ssr:type" v="haug" />
	</node>
	<node id="-2237" lat="59.0128555544" lon="5.64195834006">
		<tag k="name" v="Harastadvika" />
		<tag k="natural" v="bay" />
		<tag k="ssr:date" v="2016-05-10" />
		<tag k="ssr:gruppe" v="kystkontur" />
		<tag k="ssr:hovedgruppe" v="sjø" />
		<tag k="ssr:stedsnr" v="608807" />
		<tag k="ssr:type" v="vikISjø" />
	</node>
	<node id="-2236" lat="59.0231499982" lon="5.61117222608">
		<tag k="alt_name" v="Megjersvika" />
		<tag k="name" v="Mekjarvik" />
		<tag k="natural" v="bay" />
		<tag k="old_name" v="Megjervika" />
		<tag k="ssr:date" v="2016-05-10" />
		<tag k="ssr:gruppe" v="kystkontur" />
		<tag k="ssr:hovedgruppe" v="sjø" />
		<tag k="ssr:stedsnr" v="570317" />
		<tag k="ssr:type" v="vikISjø" />
	</node>
	<node id="-2235" lat="59.0115638882" lon="5.58695554966">
		<tag k="name" v="Bakkane" />
		<tag k="place" v="farm" />
		<tag k="ssr:date" v="2016-05-11" />
		<tag k="ssr:gruppe" v="gardsbebyggelse" />
		<tag k="ssr:hovedgruppe" v="bebyggelse" />
		<tag k="ssr:stedsnr" v="691450" />
		<tag k="ssr:type" v="bruk" />
	</node>
	<node id="-2234" lat="59.0333138885" lon="5.59939445188">
		<tag k="name" v="Galten" />
		<tag k="natural" v="shoal" />
		<tag k="place" v="locality" />
		<tag k="ssr:date" v="2016-05-10" />
		<tag k="ssr:gruppe" v="grunnerISjø" />
		<tag k="ssr:hovedgruppe" v="sjø" />
		<tag k="ssr:stedsnr" v="527826" />
		<tag k="ssr:type" v="grunneISjø" />
	</node>
	<node id="-2233" lat="61.2177777797" lon="6.59979722139">
		<tag k="alt_name" v="Alskori" />
		<tag k="name" v="Almskori" />
		<tag k="place" v="locality" />
		<tag k="ssr:date" v="2020-02-12" />
		<tag k="ssr:gruppe" v="terrengdetaljer" />
		<tag k="ssr:hovedgruppe" v="terreng" />
		<tag k="ssr:stedsnr" v="677966" />
		<tag k="ssr:type" v="hylle" />
	</node>
	<node id="-2232" lat="59.0323611137" lon="5.58633054883">
		<tag k="name" v="Håbakken" />
		<tag k="place" v="farm" />
		<tag k="ssr:date" v="2016-05-10" />
		<tag k="ssr:gruppe" v="gardsbebyggelse" />
		<tag k="ssr:hovedgruppe" v="bebyggelse" />
		<tag k="ssr:stedsnr" v="668805" />
		<tag k="ssr:type" v="bruk" />
	</node>
	<node id="-2231" lat="59.0303416636" lon="5.58051944812">
		<tag k="name" v="Holmaviga" />
		<tag k="natural" v="bay" />
		<tag k="ssr:date" v="2016-05-10" />
		<tag k="ssr:gruppe" v="kystkontur" />
		<tag k="ssr:hovedgruppe" v="sjø" />
		<tag k="ssr:stedsnr" v="668804" />
		<tag k="ssr:type" v="vikISjø" />
	</node>
	<node id="-2230" lat="58.9847805534" lon="5.62900277097">
		<tag k="name" v="Holen" />
		<tag k="place" v="farm" />
		<tag k="ssr:date" v="2016-05-10" />
		<tag k="ssr:gruppe" v="gardsbebyggelse" />
		<tag k="ssr:hovedgruppe" v="bebyggelse" />
		<tag k="ssr:stedsnr" v="668107" />
		<tag k="ssr:type" v="bruk" />
	</node>
	<node id="-2228" lat="58.9813722247" lon="5.5824083397">
		<tag k="name" v="Rausteingrunnen" />
		<tag k="place" v="locality" />
		<tag k="seamark:type" v="rock" />
		<tag k="ssr:date" v="2016-05-10" />
		<tag k="ssr:gruppe" v="grunnerISjø" />
		<tag k="ssr:hovedgruppe" v="sjø" />
		<tag k="ssr:stedsnr" v="453632" />
		<tag k="ssr:type" v="båeISjø" />
	</node>
	<node id="-2226" lat="58.9963583336" lon="5.61951943973">
		<tag k="name" v="Torset" />
		<tag k="place" v="locality" />
		<tag k="ssr:date" v="2016-05-10" />
		<tag k="ssr:gruppe" v="dyrkamark" />
		<tag k="ssr:hovedgruppe" v="markslag" />
		<tag k="ssr:stedsnr" v="449618" />
		<tag k="ssr:type" v="jorde" />
	</node>
	<node id="-2224" lat="59.0111611113" lon="5.58321110339">
		<tag k="name" v="Groen" />
		<tag k="place" v="farm" />
		<tag k="ssr:date" v="2016-05-10" />
		<tag k="ssr:gruppe" v="gardsbebyggelse" />
		<tag k="ssr:hovedgruppe" v="bebyggelse" />
		<tag k="ssr:stedsnr" v="449414" />
		<tag k="ssr:type" v="bruk" />
	</node>
	<node id="-2223" lat="58.9805249974" lon="5.56596945096">
		<tag k="name" v="Vistnestangen" />
		<tag k="natural" v="cape" />
		<tag k="ssr:date" v="2016-05-10" />
		<tag k="ssr:gruppe" v="kystkontur" />
		<tag k="ssr:hovedgruppe" v="sjø" />
		<tag k="ssr:stedsnr" v="513647" />
		<tag k="ssr:type" v="nesISjø" />
	</node>
	<node id="-2222" lat="58.9977944423" lon="5.62647499455">
		<tag k="name" v="Stølen" />
		<tag k="place" v="farm" />
		<tag k="ssr:date" v="2016-05-10" />
		<tag k="ssr:gruppe" v="gardsbebyggelse" />
		<tag k="ssr:hovedgruppe" v="bebyggelse" />
		<tag k="ssr:stedsnr" v="509602" />
		<tag k="ssr:type" v="bruk" />
	</node>
	<node id="-2221" lat="59.0094138874" lon="5.58279167397">
		<tag k="name" v="Gravet" />
		<tag k="place" v="locality" />
		<tag k="ssr:date" v="2016-05-10" />
		<tag k="ssr:gruppe" v="dyrkamark" />
		<tag k="ssr:hovedgruppe" v="markslag" />
		<tag k="ssr:stedsnr" v="509418" />
		<tag k="ssr:type" v="jorde" />
	</node>
	<node id="-2220" lat="58.9832555599" lon="5.56970278391">
		<tag k="name" v="Vistnesvågen" />
		<tag k="natural" v="bay" />
		<tag k="ssr:date" v="2016-05-10" />
		<tag k="ssr:gruppe" v="kystkontur" />
		<tag k="ssr:hovedgruppe" v="sjø" />
		<tag k="ssr:stedsnr" v="387405" />
		<tag k="ssr:type" v="vikISjø" />
	</node>
	<node id="-2219" lat="59.006951761" lon="5.65051619151">
		<tag k="alt_name" v="Grødeim" />
		<tag k="fixme" v="consider place=hamlet" />
		<tag k="name" v="Grødem" />
		<tag k="place" v="farm" />
		<tag k="ssr:date" v="2019-06-13" />
		<tag k="ssr:gruppe" v="gardsbebyggelse" />
		<tag k="ssr:hovedgruppe" v="bebyggelse" />
		<tag k="ssr:stedsnr" v="487791" />
		<tag k="ssr:type" v="gard" />
	</node>
	<node id="-2217" lat="58.9968972244" lon="5.60557500059">
		<tag k="name" v="Dalheim" />
		<tag k="place" v="farm" />
		<tag k="ssr:date" v="2016-05-10" />
		<tag k="ssr:gruppe" v="gardsbebyggelse" />
		<tag k="ssr:hovedgruppe" v="bebyggelse" />
		<tag k="ssr:stedsnr" v="485093" />
		<tag k="ssr:type" v="bruk" />
	</node>
	<node id="-2216" lat="58.9907777813" lon="5.56668888307">
		<tag k="name" v="Molviga" />
		<tag k="natural" v="bay" />
		<tag k="ssr:date" v="2016-05-10" />
		<tag k="ssr:gruppe" v="kystkontur" />
		<tag k="ssr:hovedgruppe" v="sjø" />
		<tag k="ssr:stedsnr" v="485087" />
		<tag k="ssr:type" v="vikISjø" />
	</node>
	<node id="-2215" lat="58.9954222198" lon="5.56787777727">
		<tag k="name" v="Klubben" />
		<tag k="natural" v="hill" />
		<tag k="place" v="locality" />
		<tag k="ssr:date" v="2016-05-10" />
		<tag k="ssr:gruppe" v="høyder" />
		<tag k="ssr:hovedgruppe" v="terreng" />
		<tag k="ssr:stedsnr" v="327434" />
		<tag k="ssr:type" v="haug" />
	</node>
	<node id="-2214" lat="58.9788472248" lon="5.64526943624">
		<tag k="bridge" v="yes" />
		<tag k="layer" v="1" />
		<tag k="name" v="Leikvoll" />
		<tag k="ssr:date" v="2016-05-10" />
		<tag k="ssr:gruppe" v="samferdselsanlegg" />
		<tag k="ssr:hovedgruppe" v="infrastruktur" />
		<tag k="ssr:stedsnr" v="471648" />
		<tag k="ssr:type" v="bru" />
	</node>
	<node id="-2213" lat="58.9755722203" lon="5.64287222589">
		<tag k="name" v="Lyngnes" />
		<tag k="place" v="farm" />
		<tag k="ssr:date" v="2016-05-10" />
		<tag k="ssr:gruppe" v="gardsbebyggelse" />
		<tag k="ssr:hovedgruppe" v="bebyggelse" />
		<tag k="ssr:stedsnr" v="304061" />
		<tag k="ssr:type" v="bruk" />
	</node>
	<node id="-2212" lat="58.9960750018" lon="5.52695277307">
		<tag k="name" v="Monsagrunnen" />
		<tag k="place" v="locality" />
		<tag k="seamark:type" v="rock" />
		<tag k="ssr:date" v="2016-05-10" />
		<tag k="ssr:gruppe" v="grunnerISjø" />
		<tag k="ssr:hovedgruppe" v="sjø" />
		<tag k="ssr:stedsnr" v="267560" />
		<tag k="ssr:type" v="båeISjø" />
	</node>
	<node id="-2211" lat="58.9791527811" lon="5.60898888785">
		<tag k="name" v="Endrestø" />
		<tag k="natural" v="bay" />
		<tag k="ssr:date" v="2016-05-10" />
		<tag k="ssr:gruppe" v="kystkontur" />
		<tag k="ssr:hovedgruppe" v="sjø" />
		<tag k="ssr:stedsnr" v="449297" />
		<tag k="ssr:type" v="vikISjø" />
	</node>
	<node id="-2210" lat="58.9857222238" lon="5.64330833721">
		<tag k="name" v="Svartholen" />
		<tag k="place" v="farm" />
		<tag k="ssr:date" v="2016-05-10" />
		<tag k="ssr:gruppe" v="gardsbebyggelse" />
		<tag k="ssr:hovedgruppe" v="bebyggelse" />
		<tag k="ssr:stedsnr" v="449291" />
		<tag k="ssr:type" v="bruk" />
	</node>
	<node id="-2209" lat="59.0188027748" lon="5.5748305625">
		<tag k="name" v="Todden" />
		<tag k="natural" v="cape" />
		<tag k="ssr:date" v="2016-05-10" />
		<tag k="ssr:gruppe" v="kystkontur" />
		<tag k="ssr:hovedgruppe" v="sjø" />
		<tag k="ssr:stedsnr" v="244773" />
		<tag k="ssr:type" v="nesISjø" />
	</node>
	<node id="-2208" lat="59.0383555573" lon="5.56433055886">
		<tag k="alt_name" v="Søndre Tungeflua" />
		<tag k="name" v="Søre Tungeflua" />
		<tag k="natural" v="shoal" />
		<tag k="place" v="locality" />
		<tag k="ssr:date" v="2016-05-10" />
		<tag k="ssr:gruppe" v="grunnerISjø" />
		<tag k="ssr:hovedgruppe" v="sjø" />
		<tag k="ssr:stedsnr" v="284866" />
		<tag k="ssr:type" v="grunneISjø" />
	</node>
	<node id="-2207" lat="59.0003555559" lon="5.64721943641">
		<tag k="name" v="Stølsbrotet" />
		<tag k="place" v="farm" />
		<tag k="ssr:date" v="2016-05-10" />
		<tag k="ssr:gruppe" v="gardsbebyggelse" />
		<tag k="ssr:hovedgruppe" v="bebyggelse" />
		<tag k="ssr:stedsnr" v="266632" />
		<tag k="ssr:type" v="bruk" />
	</node>
	<node id="-2206" lat="59.000127776" lon="5.64093334079">
		<tag k="name" v="Hagen" />
		<tag k="place" v="farm" />
		<tag k="ssr:date" v="2016-05-10" />
		<tag k="ssr:gruppe" v="gardsbebyggelse" />
		<tag k="ssr:hovedgruppe" v="bebyggelse" />
		<tag k="ssr:stedsnr" v="85563" />
		<tag k="ssr:type" v="bruk" />
	</node>
	<node id="-2205" lat="59.004672226" lon="5.60824444904">
		<tag k="name" v="Prestkonsrinda" />
		<tag k="place" v="locality" />
		<tag k="ssr:date" v="2016-05-10" />
		<tag k="ssr:gruppe" v="flater" />
		<tag k="ssr:hovedgruppe" v="terreng" />
		<tag k="ssr:stedsnr" v="85253" />
		<tag k="ssr:type" v="slette" />
	</node>
	<node id="-2204" lat="59.001577775" lon="5.62354166082">
		<tag k="name" v="Bergsagelvarden" />
		<tag k="natural" v="hill" />
		<tag k="place" v="locality" />
		<tag k="ssr:date" v="2016-05-10" />
		<tag k="ssr:gruppe" v="høyder" />
		<tag k="ssr:hovedgruppe" v="terreng" />
		<tag k="ssr:stedsnr" v="84663" />
		<tag k="ssr:type" v="haug" />
	</node>
	<node id="-2203" lat="58.9822833304" lon="5.64414721972">
		<tag k="name" v="Heiå" />
		<tag k="place" v="farm" />
		<tag k="ssr:date" v="2016-05-10" />
		<tag k="ssr:gruppe" v="gardsbebyggelse" />
		<tag k="ssr:hovedgruppe" v="bebyggelse" />
		<tag k="ssr:stedsnr" v="84322" />
		<tag k="ssr:type" v="bruk" />
	</node>
	<node id="-2202" lat="59.0038249994" lon="5.66270555747">
		<tag k="alt_name" v="Haukhammar" />
		<tag k="name" v="Haukhammaren" />
		<tag k="natural" v="hill" />
		<tag k="place" v="locality" />
		<tag k="ssr:date" v="2016-05-10" />
		<tag k="ssr:gruppe" v="høyder" />
		<tag k="ssr:hovedgruppe" v="terreng" />
		<tag k="ssr:stedsnr" v="244796" />
		<tag k="ssr:type" v="haug" />
	</node>
	<node id="-2201" lat="59.0065027779" lon="5.5570611044">
		<tag k="name" v="Bøskjenane" />
		<tag k="place" v="locality" />
		<tag k="seamark:type" v="rock" />
		<tag k="ssr:date" v="2016-05-10" />
		<tag k="ssr:gruppe" v="grunnerISjø" />
		<tag k="ssr:hovedgruppe" v="sjø" />
		<tag k="ssr:stedsnr" v="244778" />
		<tag k="ssr:type" v="båeISjø" />
	</node>
	<node id="-2200" lat="58.9930722193" lon="5.64404167357">
		<tag k="bridge" v="yes" />
		<tag k="layer" v="1" />
		<tag k="name" v="Goaale" />
		<tag k="ssr:date" v="2016-05-10" />
		<tag k="ssr:gruppe" v="samferdselsanlegg" />
		<tag k="ssr:hovedgruppe" v="infrastruktur" />
		<tag k="ssr:stedsnr" v="229649" />
		<tag k="ssr:type" v="bru" />
	</node>
	<node id="-2199" lat="59.0023250009" lon="5.63995833448">
		<tag k="name" v="Holen" />
		<tag k="place" v="farm" />
		<tag k="ssr:date" v="2016-05-10" />
		<tag k="ssr:gruppe" v="gardsbebyggelse" />
		<tag k="ssr:hovedgruppe" v="bebyggelse" />
		<tag k="ssr:stedsnr" v="24632" />
		<tag k="ssr:type" v="bruk" />
	</node>
</osm>
