<?xml version="1.0" encoding="UTF-8"?>
<osm version="0.6" generator="osmapis">
	<node lat="64.21679722440282" lon="13.109286103080581" id="-37919">
		<tag k="fixme" v="consider boundary=protected_area and relevant protect_class if not nature reserve" />
		<tag k="leisure" v="nature_reserve" />
		<tag k="name" v="Låarte - Skæhkere vaarjelimmiedajve - Blåfjella - Skjækerfjella nasjonalpark" />
		<tag k="name:no" v="Blåfjella - Skjækerfjella nasjonalpark" />
		<tag k="name:sma" v="Låarte - Skæhkere vaarjelimmiedajve" />
		<tag k="ssr:stedsnr" v="464233" />
	</node>
	<node lat="64.08667749560739" lon="13.145113507707563" id="-38003">
		<tag k="historic" v="boundary_stone" />
		<tag k="man_made" v="cairn" />
		<tag k="name" v="Stygghaugrøysa" />
		<tag k="name:no" v="Stygghaugrøysa" />
		<tag k="place" v="locality" />
		<tag k="ssr:stedsnr" v="474193" />
	</node>
	<node lat="64.16110833294516" lon="12.615894454675672" id="-38040">
		<tag k="name" v="Ismenningen statsallmenning" />
		<tag k="name:no" v="Ismenningen statsallmenning" />
		<tag k="place" v="locality" />
		<tag k="ssr:stedsnr" v="474951" />
	</node>
	<node lat="64.34750555266332" lon="12.171211114467608" id="-38399">
		<tag k="name" v="Bognsjø statsallmenning" />
		<tag k="place" v="locality" />
		<tag k="ssr:stedsnr" v="594169" />
	</node>
	<node lat="64.17115833022231" lon="12.09176388102306" id="-38563">
		<tag k="name" v="Strinda og Tjønndal statsallmenning" />
		<tag k="name:no" v="Strinda og Tjønndal statsallmenning" />
		<tag k="place" v="locality" />
		<tag k="ssr:stedsnr" v="898442" />
	</node>
	<node lat="64.02628318656227" lon="12.834225748028556" id="-38610">
		<tag k="historic" v="boundary_stone" />
		<tag k="loc_name:no" v="Gaundalrøysa" />
		<tag k="man_made" v="cairn" />
		<tag k="name" v="Gaundalsrøysa" />
		<tag k="name:no" v="Gaundalsrøysa" />
		<tag k="old_name:no" v="Goundals Røset" />
		<tag k="place" v="locality" />
		<tag k="ssr:stedsnr" v="717188" />
	</node>
	<node lat="64.08879722417203" lon="12.419513893326721" id="-38611">
		<tag k="name" v="Gaundal, Holden og Gefsjø statsallmenning" />
		<tag k="name:no" v="Gaundal, Holden og Gefsjø statsallmenning" />
		<tag k="place" v="locality" />
		<tag k="ssr:stedsnr" v="899181" />
	</node>
	<node lat="64.32059900893266" lon="12.452388940638079" id="-39003">
		<tag k="fixme" v="consider boundary=protected_area and relevant protect_class if not nature reserve" />
		<tag k="leisure" v="nature_reserve" />
		<tag k="name" v="Kolåsen naturreservat" />
		<tag k="ssr:stedsnr" v="981200" />
	</node>
	<node lat="64.2077765958022" lon="12.19888403572933" id="-39007">
		<tag k="fixme" v="consider boundary=protected_area and relevant protect_class if not nature reserve" />
		<tag k="leisure" v="nature_reserve" />
		<tag k="name" v="Finnsåsmarka naturreservat" />
		<tag k="ssr:stedsnr" v="985306" />
	</node>
	<node lat="64.15986944133296" lon="12.807924996040388" id="-39075">
		<tag k="name" v="Ismenningen statsallmenning" />
		<tag k="name:no" v="Ismenningen statsallmenning" />
		<tag k="place" v="locality" />
		<tag k="ssr:stedsnr" v="29614" />
	</node>
	<node lat="64.37907499963146" lon="12.476199994876207" id="-39369">
		<tag k="name" v="Luru statsallmenning" />
		<tag k="name:no" v="Luru statsallmenning" />
		<tag k="place" v="locality" />
		<tag k="ssr:stedsnr" v="169386" />
	</node>
	<node lat="64.26505555229576" lon="12.385825005656955" id="-39505">
		<tag k="fixme" v="consider boundary=protected_area and relevant protect_class if not nature reserve" />
		<tag k="leisure" v="nature_reserve" />
		<tag k="name" v="Stormyra naturreservat" />
		<tag k="name:no" v="Stormyra naturreservat" />
		<tag k="ssr:stedsnr" v="211490" />
	</node>
</osm>
