<?xml version="1.0" encoding="UTF-8"?>
<osm version="0.6" generator="osmapis">
	<node lat="64.33421944352764" lon="12.331352787151587" id="-37365">
		<tag k="name" v="Koltjønnåsen" />
		<tag k="name:no" v="Koltjønnåsen" />
		<tag k="natural" v="hill" />
		<tag k="place" v="locality" />
		<tag k="ssr:stedsnr" v="230026" />
	</node>
	<node lat="64.21846944611846" lon="12.484169445101413" id="-37368">
		<tag k="name" v="Smørkannhaugen" />
		<tag k="name:no" v="Smørkannhaugen" />
		<tag k="natural" v="hill" />
		<tag k="place" v="locality" />
		<tag k="ssr:stedsnr" v="230050" />
	</node>
	<node lat="64.37541666454106" lon="12.402527773196141" id="-37369">
		<tag k="name" v="Raumaberget" />
		<tag k="name:no" v="Raumaberget" />
		<tag k="natural" v="hill" />
		<tag k="place" v="locality" />
		<tag k="ssr:stedsnr" v="230051" />
	</node>
	<node lat="64.2005277820666" lon="12.389275002839552" id="-37370">
		<tag k="name" v="Fjellbandet" />
		<tag k="name:no" v="Fjellbandet" />
		<tag k="natural" v="slope" />
		<tag k="place" v="locality" />
		<tag k="ssr:stedsnr" v="230057" />
	</node>
	<node lat="64.21833333716427" lon="12.44755000766021" id="-37372">
		<tag k="name" v="Stor-Raudmyrrabben" />
		<tag k="name:no" v="Stor-Raudmyrrabben" />
		<tag k="natural" v="hill" />
		<tag k="place" v="locality" />
		<tag k="ssr:stedsnr" v="230068" />
	</node>
	<node lat="64.31351944122558" lon="12.520055556035006" id="-37373">
		<tag k="name" v="Krokhaugan" />
		<tag k="name:no" v="Krokhaugan" />
		<tag k="natural" v="hill" />
		<tag k="place" v="locality" />
		<tag k="ssr:stedsnr" v="230071" />
	</node>
	<node lat="64.25505555763047" lon="12.998213881957133" id="-37375">
		<tag k="name" v="Finnlian" />
		<tag k="name:no" v="Finnlian" />
		<tag k="natural" v="slope" />
		<tag k="place" v="locality" />
		<tag k="ssr:stedsnr" v="230076" />
	</node>
	<node lat="64.26885555511936" lon="12.972658332868326" id="-37376">
		<tag k="name" v="Gauptjønnåsen" />
		<tag k="name:no" v="Gauptjønnåsen" />
		<tag k="natural" v="hill" />
		<tag k="place" v="locality" />
		<tag k="ssr:stedsnr" v="230078" />
	</node>
	<node lat="64.2487888902573" lon="12.153988890634253" id="-37379">
		<tag k="name" v="Kaurholet" />
		<tag k="name:no" v="Kaurholet" />
		<tag k="natural" v="valley" />
		<tag k="place" v="locality" />
		<tag k="ssr:stedsnr" v="230292" />
	</node>
	<node lat="64.24129444837621" lon="12.101044443186618" id="-37380">
		<tag k="name" v="Holmtjønnlia" />
		<tag k="name:no" v="Holmtjønnlia" />
		<tag k="natural" v="slope" />
		<tag k="place" v="locality" />
		<tag k="ssr:stedsnr" v="230355" />
	</node>
	<node lat="64.28948888829089" lon="12.324844437012352" id="-37383">
		<tag k="name" v="Seterhaugen" />
		<tag k="name:no" v="Seterhaugen" />
		<tag k="natural" v="hill" />
		<tag k="place" v="locality" />
		<tag k="ssr:stedsnr" v="230654" />
	</node>
	<node lat="64.36936944595894" lon="12.483236121613436" id="-37386">
		<tag k="name" v="Fjelldalen" />
		<tag k="name:no" v="Fjelldalen" />
		<tag k="natural" v="valley" />
		<tag k="place" v="locality" />
		<tag k="ssr:stedsnr" v="230752" />
	</node>
	<node lat="64.00389722294636" lon="12.735688882274426" id="-37392">
		<tag k="name" v="Bustadbakken" />
		<tag k="name:no" v="Bustadbakken" />
		<tag k="natural" v="hill" />
		<tag k="place" v="locality" />
		<tag k="ssr:stedsnr" v="231234" />
	</node>
	<node lat="64.17960278239104" lon="12.335061105802566" id="-37396">
		<tag k="name" v="Revåsen" />
		<tag k="name:no" v="Revåsen" />
		<tag k="natural" v="hill" />
		<tag k="place" v="locality" />
		<tag k="ssr:stedsnr" v="231277" />
	</node>
	<node lat="64.14523888751788" lon="12.444244447318143" id="-37397">
		<tag k="name" v="Goffarønningshaugen" />
		<tag k="name:no" v="Goffarønningshaugen" />
		<tag k="natural" v="hill" />
		<tag k="place" v="locality" />
		<tag k="ssr:stedsnr" v="231374" />
	</node>
	<node lat="64.22502777596371" lon="12.061522219542933" id="-37398">
		<tag k="name" v="Kruberget" />
		<tag k="name:no" v="Kruberget" />
		<tag k="natural" v="hill" />
		<tag k="place" v="locality" />
		<tag k="ssr:stedsnr" v="231437" />
	</node>
	<node lat="64.37227777381156" lon="12.63664444649699" id="-37403">
		<tag k="name" v="Storembrigtdalen" />
		<tag k="name:no" v="Storembrigtdalen" />
		<tag k="natural" v="valley" />
		<tag k="place" v="locality" />
		<tag k="ssr:stedsnr" v="231540" />
	</node>
	<node lat="64.06433611257688" lon="12.852624996499062" id="-37405">
		<tag k="name" v="Rognbakken" />
		<tag k="name:no" v="Rognbakken" />
		<tag k="natural" v="slope" />
		<tag k="place" v="locality" />
		<tag k="ssr:stedsnr" v="231559" />
	</node>
	<node lat="64.26481388879463" lon="12.197072214919576" id="-37406">
		<tag k="name" v="Gamvollhaugan" />
		<tag k="name:no" v="Gamvollhaugan" />
		<tag k="natural" v="hill" />
		<tag k="place" v="locality" />
		<tag k="ssr:stedsnr" v="231573" />
	</node>
	<node lat="64.28505833713753" lon="12.716647230043893" id="-37408">
		<tag k="name" v="Ragnaklumpen" />
		<tag k="name:no" v="Ragnaklumpen" />
		<tag k="natural" v="hill" />
		<tag k="place" v="locality" />
		<tag k="ssr:stedsnr" v="231595" />
	</node>
	<node lat="64.34704999565572" lon="12.750836113391777" id="-37409">
		<tag k="name" v="Finnelberga" />
		<tag k="name:no" v="Finnelberga" />
		<tag k="natural" v="hill" />
		<tag k="place" v="locality" />
		<tag k="ssr:stedsnr" v="231657" />
	</node>
	<node lat="64.18825555821948" lon="12.560652784843638" id="-37414">
		<tag k="name" v="Rennsjøhaugen" />
		<tag k="name:no" v="Rennsjøhaugen" />
		<tag k="natural" v="hill" />
		<tag k="place" v="locality" />
		<tag k="ssr:stedsnr" v="231962" />
	</node>
	<node lat="64.13436944679088" lon="12.03544166221396" id="-37415">
		<tag k="name" v="Lauvhaugen" />
		<tag k="natural" v="hill" />
		<tag k="place" v="locality" />
		<tag k="ssr:stedsnr" v="13314" />
	</node>
	<node lat="64.11796944334455" lon="13.138444448014644" id="-37421">
		<tag k="alt_name:no" v="Bjørnholet" />
		<tag k="name" v="Bjønnholet" />
		<tag k="name:no" v="Bjønnholet" />
		<tag k="natural" v="valley" />
		<tag k="place" v="locality" />
		<tag k="ssr:stedsnr" v="13991" />
	</node>
	<node lat="64.30449999599762" lon="13.03936110895756" id="-37423">
		<tag k="name" v="Leikan" />
		<tag k="name:no" v="Leikan" />
		<tag k="natural" v="hill" />
		<tag k="place" v="locality" />
		<tag k="ssr:stedsnr" v="14217" />
	</node>
	<node lat="64.29744166490988" lon="12.79667222998663" id="-37424">
		<tag k="fixme" v="consider natural=peak for the most distinct mountains in the district" />
		<tag k="name" v="Statsklumpen" />
		<tag k="name:no" v="Statsklumpen" />
		<tag k="natural" v="hill" />
		<tag k="place" v="locality" />
		<tag k="ssr:stedsnr" v="14218" />
	</node>
	<node lat="64.34456944134114" lon="12.731141661062914" id="-37428">
		<tag k="fixme" v="consider natural=peak for the most distinct mountains in the district" />
		<tag k="name" v="Tortlifjellet" />
		<tag k="name:no" v="Tortlifjellet" />
		<tag k="natural" v="hill" />
		<tag k="place" v="locality" />
		<tag k="ssr:stedsnr" v="14225" />
	</node>
	<node lat="64.1592194432371" lon="12.166172228279192" id="-37433">
		<tag k="name" v="Korsmæra" />
		<tag k="name:no" v="Korsmæra" />
		<tag k="natural" v="hill" />
		<tag k="place" v="locality" />
		<tag k="ssr:stedsnr" v="14368" />
	</node>
	<node lat="64.04590000321394" lon="12.797838886872027" id="-37439">
		<tag k="fixme" v="consider natural=peak for the most distinct mountains in the district" />
		<tag k="name" v="Nordskardklumpen" />
		<tag k="name:no" v="Nordskardklumpen" />
		<tag k="natural" v="hill" />
		<tag k="place" v="locality" />
		<tag k="ssr:stedsnr" v="14719" />
	</node>
	<node lat="64.22082499718893" lon="12.737247229694777" id="-37445">
		<tag k="name" v="Svarthaugen" />
		<tag k="name:no" v="Svarthaugen" />
		<tag k="natural" v="hill" />
		<tag k="place" v="locality" />
		<tag k="ssr:stedsnr" v="14906" />
	</node>
	<node lat="64.33643611237628" lon="12.441525006810247" id="-37450">
		<tag k="name" v="Gaupliklumpen" />
		<tag k="name:no" v="Gaupliklumpen" />
		<tag k="natural" v="hill" />
		<tag k="place" v="locality" />
		<tag k="ssr:stedsnr" v="20290" />
	</node>
	<node lat="64.18145555928794" lon="12.338622216897477" id="-37457">
		<tag k="name" v="Einamoen" />
		<tag k="name:no" v="Einamoen" />
		<tag k="place" v="locality" />
		<tag k="ssr:stedsnr" v="29377" />
	</node>
	<node lat="64.2738250006191" lon="12.385147224200269" id="-37468">
		<tag k="name" v="Sveddlia" />
		<tag k="name:no" v="Sveddlia" />
		<tag k="natural" v="slope" />
		<tag k="place" v="locality" />
		<tag k="ssr:stedsnr" v="29473" />
	</node>
	<node lat="64.27272222673105" lon="12.434116666536323" id="-37470">
		<tag k="name" v="Jerpholet" />
		<tag k="name:no" v="Jerpholet" />
		<tag k="natural" v="valley" />
		<tag k="place" v="locality" />
		<tag k="ssr:stedsnr" v="29567" />
	</node>
	<node lat="64.27458333135608" lon="12.436541672616084" id="-37471">
		<tag k="name" v="Stormoen" />
		<tag k="name:no" v="Stormoen" />
		<tag k="place" v="locality" />
		<tag k="ssr:stedsnr" v="29569" />
	</node>
	<node lat="64.27960555167306" lon="12.46009722350255" id="-37472">
		<tag k="fixme" v="consider natural=peak for the most distinct mountains in the district" />
		<tag k="name" v="Sagåsen" />
		<tag k="name:no" v="Sagåsen" />
		<tag k="natural" v="hill" />
		<tag k="place" v="locality" />
		<tag k="ssr:stedsnr" v="29574" />
	</node>
	<node lat="64.06161110773841" lon="12.188769454086541" id="-37473">
		<tag k="name" v="Roktdalen" />
		<tag k="name:no" v="Roktdalen" />
		<tag k="natural" v="valley" />
		<tag k="place" v="locality" />
		<tag k="ssr:stedsnr" v="237250" />
	</node>
	<node lat="64.29510833201523" lon="12.506641675079832" id="-37477">
		<tag k="name" v="Holåberga" />
		<tag k="name:no" v="Holåberga" />
		<tag k="natural" v="hill" />
		<tag k="place" v="locality" />
		<tag k="ssr:stedsnr" v="48101" />
	</node>
	<node lat="64.24126944600516" lon="12.16141110597553" id="-37480">
		<tag k="name" v="Rennsetmoen" />
		<tag k="name:no" v="Rennsetmoen" />
		<tag k="place" v="locality" />
		<tag k="ssr:stedsnr" v="48328" />
	</node>
	<node lat="64.25884166666484" lon="12.158655548666855" id="-37481">
		<tag k="name" v="Tjukklia" />
		<tag k="name:no" v="Tjukklia" />
		<tag k="natural" v="slope" />
		<tag k="place" v="locality" />
		<tag k="ssr:stedsnr" v="48270" />
	</node>
	<node lat="64.22722500282262" lon="12.019536104098632" id="-37482">
		<tag k="name" v="Setertjønnhaugen" />
		<tag k="name:no" v="Setertjønnhaugen" />
		<tag k="natural" v="hill" />
		<tag k="place" v="locality" />
		<tag k="ssr:stedsnr" v="48401" />
	</node>
	<node lat="64.22129999583895" lon="11.979391664739529" id="-37483">
		<tag k="fixme" v="consider natural=peak for the most distinct mountains in the district" />
		<tag k="name" v="Hammeråsen" />
		<tag k="name:no" v="Hammeråsen" />
		<tag k="natural" v="hill" />
		<tag k="place" v="locality" />
		<tag k="ssr:stedsnr" v="48405" />
	</node>
	<node lat="64.31707778083052" lon="12.362936114796145" id="-37487">
		<tag k="name" v="Kaukarberget" />
		<tag k="name:no" v="Kaukarberget" />
		<tag k="natural" v="hill" />
		<tag k="place" v="locality" />
		<tag k="ssr:stedsnr" v="48613" />
	</node>
	<node lat="64.34460555582658" lon="12.398561108493691" id="-37491">
		<tag k="name" v="Høgberget" />
		<tag k="name:no" v="Høgberget" />
		<tag k="natural" v="hill" />
		<tag k="place" v="locality" />
		<tag k="ssr:stedsnr" v="48803" />
	</node>
	<node lat="64.32665000186203" lon="12.48665555148761" id="-37492">
		<tag k="name" v="Fugliåsen" />
		<tag k="name:no" v="Fugliåsen" />
		<tag k="natural" v="hill" />
		<tag k="place" v="locality" />
		<tag k="ssr:stedsnr" v="48917" />
	</node>
	<node lat="64.20375278111275" lon="12.598288880034914" id="-37493">
		<tag k="name" v="Korptjønndalen" />
		<tag k="name:no" v="Korptjønndalen" />
		<tag k="natural" v="valley" />
		<tag k="place" v="locality" />
		<tag k="ssr:stedsnr" v="48974" />
	</node>
	<node lat="64.26730277590637" lon="12.747633335304279" id="-37496">
		<tag k="name" v="Trettjønnåsan" />
		<tag k="name:no" v="Trettjønnåsan" />
		<tag k="natural" v="hill" />
		<tag k="place" v="locality" />
		<tag k="ssr:stedsnr" v="50486" />
	</node>
	<node lat="64.25290000145083" lon="13.247844451814021" id="-37507">
		<tag k="fixme" v="consider natural=peak for the most distinct mountains in the district" />
		<tag k="name" v="Lurusneisa - Tjohkele" />
		<tag k="name:no" v="Lurusneisa" />
		<tag k="name:sma" v="Tjohkele" />
		<tag k="natural" v="hill" />
		<tag k="place" v="locality" />
		<tag k="ssr:stedsnr" v="74014" />
	</node>
	<node lat="64.25290555351441" lon="12.041866666729746" id="-37515">
		<tag k="fixme" v="consider natural=peak for the most distinct mountains in the district" />
		<tag k="name" v="Hammerheia" />
		<tag k="name:no" v="Hammerheia" />
		<tag k="natural" v="hill" />
		<tag k="place" v="locality" />
		<tag k="ssr:stedsnr" v="74511" />
	</node>
	<node lat="64.1627194486901" lon="12.603936112937877" id="-37517">
		<tag k="name" v="Ellenlia" />
		<tag k="name:no" v="Ellenlia" />
		<tag k="natural" v="slope" />
		<tag k="place" v="locality" />
		<tag k="ssr:stedsnr" v="74567" />
	</node>
	<node lat="64.16188888527695" lon="12.54659166989448" id="-37518">
		<tag k="name" v="Imsdalen" />
		<tag k="name:no" v="Imsdalen" />
		<tag k="natural" v="valley" />
		<tag k="place" v="locality" />
		<tag k="ssr:stedsnr" v="74571" />
	</node>
	<node lat="63.980024995871474" lon="12.61758610661202" id="-37520">
		<tag k="name" v="Flishaugen" />
		<tag k="name:no" v="Flishaugen" />
		<tag k="natural" v="hill" />
		<tag k="place" v="locality" />
		<tag k="ssr:stedsnr" v="74667" />
	</node>
	<node lat="64.33082500156122" lon="12.425649998867277" id="-37525">
		<tag k="name" v="Goddalen" />
		<tag k="name:no" v="Goddalen" />
		<tag k="natural" v="valley" />
		<tag k="place" v="locality" />
		<tag k="ssr:stedsnr" v="75302" />
	</node>
	<node lat="64.32994721919012" lon="12.844411102967003" id="-37528">
		<tag k="name" v="Bjørkliklumpen" />
		<tag k="name:no" v="Bjørkliklumpen" />
		<tag k="natural" v="hill" />
		<tag k="place" v="locality" />
		<tag k="ssr:stedsnr" v="75300" />
	</node>
	<node lat="64.39460000293444" lon="12.676258327792594" id="-37533">
		<tag k="fixme" v="consider natural=peak for the most distinct mountains in the district" />
		<tag k="name" v="Rangstjønnfjella" />
		<tag k="name:no" v="Rangstjønnfjella" />
		<tag k="natural" v="hill" />
		<tag k="place" v="locality" />
		<tag k="ssr:stedsnr" v="75461" />
	</node>
	<node lat="64.20458333734013" lon="12.835097227990644" id="-37542">
		<tag k="name" v="Storkjerrlia" />
		<tag k="name:no" v="Storkjerrlia" />
		<tag k="natural" v="slope" />
		<tag k="place" v="locality" />
		<tag k="ssr:stedsnr" v="75950" />
	</node>
	<node lat="64.26884722528389" lon="12.359255558849329" id="-37547">
		<tag k="name" v="Bursvedda" />
		<tag k="name:no" v="Bursvedda" />
		<tag k="place" v="locality" />
		<tag k="ssr:stedsnr" v="90443" />
	</node>
	<node lat="64.24217778123803" lon="12.310502769054224" id="-37549">
		<tag k="name" v="Midtimoen" />
		<tag k="name:no" v="Midtimoen" />
		<tag k="place" v="locality" />
		<tag k="ssr:stedsnr" v="90372" />
	</node>
	<node lat="64.22922499885878" lon="12.391955564093328" id="-37551">
		<tag k="name" v="Lauvdalen" />
		<tag k="name:no" v="Lauvdalen" />
		<tag k="natural" v="valley" />
		<tag k="place" v="locality" />
		<tag k="ssr:stedsnr" v="90379" />
	</node>
	<node lat="64.220244447383" lon="12.340022218113207" id="-37553">
		<tag k="name" v="Styggdalen" />
		<tag k="name:no" v="Styggdalen" />
		<tag k="natural" v="valley" />
		<tag k="place" v="locality" />
		<tag k="ssr:stedsnr" v="90401" />
	</node>
	<node lat="64.24673888962693" lon="12.52106944837046" id="-37555">
		<tag k="fixme" v="consider natural=peak for the most distinct mountains in the district" />
		<tag k="name" v="Stamåsen" />
		<tag k="name:no" v="Stamåsen" />
		<tag k="natural" v="hill" />
		<tag k="place" v="locality" />
		<tag k="ssr:stedsnr" v="90605" />
	</node>
	<node lat="64.33778610720256" lon="12.326333326520183" id="-37556">
		<tag k="name" v="Koltjønnlia" />
		<tag k="name:no" v="Koltjønnlia" />
		<tag k="natural" v="slope" />
		<tag k="place" v="locality" />
		<tag k="ssr:stedsnr" v="109023" />
	</node>
	<node lat="64.33241388735436" lon="12.335280565475264" id="-37557">
		<tag k="name" v="Styggdalen" />
		<tag k="name:no" v="Styggdalen" />
		<tag k="natural" v="valley" />
		<tag k="place" v="locality" />
		<tag k="ssr:stedsnr" v="109025" />
	</node>
	<node lat="64.3252722248969" lon="12.537147223520398" id="-37559">
		<tag k="name" v="Klokkarmoen" />
		<tag k="name:no" v="Klokkarmoen" />
		<tag k="place" v="locality" />
		<tag k="ssr:stedsnr" v="109073" />
	</node>
	<node lat="64.25869166331377" lon="12.096544440335657" id="-37564">
		<tag k="name" v="Holemsknatten" />
		<tag k="name:no" v="Holemsknatten" />
		<tag k="natural" v="hill" />
		<tag k="place" v="locality" />
		<tag k="ssr:stedsnr" v="109279" />
	</node>
	<node lat="64.30805277956603" lon="12.986666663393573" id="-37567">
		<tag k="name" v="Grubbslåtthaugen" />
		<tag k="name:no" v="Grubbslåtthaugen" />
		<tag k="natural" v="hill" />
		<tag k="place" v="locality" />
		<tag k="ssr:stedsnr" v="109182" />
	</node>
	<node lat="64.22162222019772" lon="12.536494454247885" id="-37576">
		<tag k="name" v="Djupbekkåsen" />
		<tag k="name:no" v="Djupbekkåsen" />
		<tag k="natural" v="hill" />
		<tag k="place" v="locality" />
		<tag k="ssr:stedsnr" v="110014" />
	</node>
	<node lat="64.18330555324607" lon="12.937527768729232" id="-37577">
		<tag k="fixme" v="consider natural=peak for the most distinct mountains in the district" />
		<tag k="name" v="Vivassfjellet" />
		<tag k="name:no" v="Vivassfjellet" />
		<tag k="natural" v="hill" />
		<tag k="place" v="locality" />
		<tag k="ssr:stedsnr" v="110020" />
	</node>
	<node lat="64.14540833412775" lon="12.418866670827798" id="-37580">
		<tag k="name" v="Aundalen" />
		<tag k="name:no" v="Aundalen" />
		<tag k="natural" v="valley" />
		<tag k="place" v="locality" />
		<tag k="ssr:stedsnr" v="110205" />
	</node>
	<node lat="64.16581666899125" lon="12.441961109611032" id="-37582">
		<tag k="name" v="Ølhusberget" />
		<tag k="name:no" v="Ølhusberget" />
		<tag k="natural" v="hill" />
		<tag k="place" v="locality" />
		<tag k="ssr:stedsnr" v="110220" />
	</node>
	<node lat="64.32251944519795" lon="12.5812555614407" id="-37583">
		<tag k="name" v="Grubbslåtthaugen" />
		<tag k="name:no" v="Grubbslåtthaugen" />
		<tag k="natural" v="hill" />
		<tag k="place" v="locality" />
		<tag k="ssr:stedsnr" v="110283" />
	</node>
	<node lat="64.35970278085162" lon="12.814861117637594" id="-37589">
		<tag k="name" v="Grisbakken" />
		<tag k="name:no" v="Grisbakken" />
		<tag k="natural" v="hill" />
		<tag k="place" v="locality" />
		<tag k="ssr:stedsnr" v="110619" />
	</node>
	<node lat="64.05116944286176" lon="12.688369439214997" id="-37591">
		<tag k="name" v="Seterklumpen" />
		<tag k="name:no" v="Seterklumpen" />
		<tag k="natural" v="hill" />
		<tag k="place" v="locality" />
		<tag k="ssr:stedsnr" v="110772" />
	</node>
	<node lat="64.1983694456801" lon="12.567761117525158" id="-37594">
		<tag k="name" v="Svenskdalan" />
		<tag k="name:no" v="Svenskdalan" />
		<tag k="natural" v="valley" />
		<tag k="place" v="locality" />
		<tag k="ssr:stedsnr" v="110969" />
	</node>
	<node lat="64.15116944071708" lon="12.389683326069488" id="-37597">
		<tag k="name" v="Snøåshøgdin" />
		<tag k="name:no" v="Snøåshøgdin" />
		<tag k="natural" v="hill" />
		<tag k="place" v="locality" />
		<tag k="ssr:stedsnr" v="134614" />
	</node>
	<node lat="64.12302499738246" lon="13.009686109933664" id="-37600">
		<tag k="name" v="Flåtjønnlia" />
		<tag k="name:no" v="Flåtjønnlia" />
		<tag k="natural" v="slope" />
		<tag k="place" v="locality" />
		<tag k="ssr:stedsnr" v="134957" />
	</node>
	<node lat="64.06990555588412" lon="12.163816663127125" id="-37602">
		<tag k="name" v="Holsinglia" />
		<tag k="name:no" v="Holsinglia" />
		<tag k="natural" v="slope" />
		<tag k="place" v="locality" />
		<tag k="ssr:stedsnr" v="135305" />
	</node>
	<node lat="64.12436944296763" lon="12.100474990456698" id="-37603">
		<tag k="name" v="Høvlan" />
		<tag k="name:no" v="Høvlan" />
		<tag k="natural" v="hill" />
		<tag k="place" v="locality" />
		<tag k="ssr:stedsnr" v="135261" />
	</node>
	<node lat="64.3036083360331" lon="13.115827777757708" id="-37604">
		<tag k="name" v="Gamstugguhaugan" />
		<tag k="name:no" v="Gamstugguhaugan" />
		<tag k="natural" v="hill" />
		<tag k="place" v="locality" />
		<tag k="ssr:stedsnr" v="135264" />
	</node>
	<node lat="64.3122833297908" lon="13.059119436767093" id="-37606">
		<tag k="name" v="Steinklumpen" />
		<tag k="name:no" v="Steinklumpen" />
		<tag k="natural" v="hill" />
		<tag k="place" v="locality" />
		<tag k="ssr:stedsnr" v="135270" />
	</node>
	<node lat="64.22403055942573" lon="12.67564444508686" id="-37609">
		<tag k="name" v="Bergslåtthaugen" />
		<tag k="name:no" v="Bergslåtthaugen" />
		<tag k="natural" v="hill" />
		<tag k="place" v="locality" />
		<tag k="ssr:stedsnr" v="135724" />
	</node>
	<node lat="64.08561944377384" lon="12.854205553036023" id="-37614">
		<tag k="name" v="Holdersmoen" />
		<tag k="name:no" v="Holdersmoen" />
		<tag k="place" v="locality" />
		<tag k="ssr:stedsnr" v="135975" />
	</node>
	<node lat="64.10000832937784" lon="12.867975005307718" id="-37615">
		<tag k="name" v="Kløvslættet" />
		<tag k="name:no" v="Kløvslættet" />
		<tag k="place" v="locality" />
		<tag k="ssr:stedsnr" v="135990" />
	</node>
	<node lat="64.36682500015652" lon="12.482399999425272" id="-37616">
		<tag k="name" v="Åsvollhøgda" />
		<tag k="name:no" v="Åsvollhøgda" />
		<tag k="natural" v="hill" />
		<tag k="place" v="locality" />
		<tag k="ssr:stedsnr" v="142284" />
	</node>
	<node lat="64.32016388701014" lon="12.175397217609051" id="-37618">
		<tag k="name" v="Kvennsjøfloget" />
		<tag k="name:no" v="Kvennsjøfloget" />
		<tag k="natural" v="hill" />
		<tag k="place" v="locality" />
		<tag k="ssr:stedsnr" v="148175" />
	</node>
	<node lat="64.25739721829945" lon="12.725050007089264" id="-37620">
		<tag k="name" v="Lauvhaugen" />
		<tag k="name:no" v="Lauvhaugen" />
		<tag k="natural" v="hill" />
		<tag k="place" v="locality" />
		<tag k="ssr:stedsnr" v="256251" />
	</node>
	<node lat="64.30502500410995" lon="12.235986112615109" id="-37626">
		<tag k="fixme" v="consider natural=peak for the most distinct mountains in the district" />
		<tag k="name" v="Murbrekkfjellet" />
		<tag k="name:no" v="Murbrekkfjellet" />
		<tag k="natural" v="hill" />
		<tag k="place" v="locality" />
		<tag k="ssr:stedsnr" v="256387" />
	</node>
	<node lat="64.33719444771215" lon="12.451583336409692" id="-37627">
		<tag k="fixme" v="consider natural=peak for the most distinct mountains in the district" />
		<tag k="name" v="Snorronfjellet" />
		<tag k="name:no" v="Snorronfjellet" />
		<tag k="natural" v="hill" />
		<tag k="place" v="locality" />
		<tag k="ssr:stedsnr" v="256393" />
	</node>
	<node lat="64.23224167128699" lon="12.502661104921742" id="-37639">
		<tag k="name" v="Dugurdshaugen" />
		<tag k="name:no" v="Dugurdshaugen" />
		<tag k="natural" v="hill" />
		<tag k="place" v="locality" />
		<tag k="ssr:stedsnr" v="150514" />
	</node>
	<node lat="64.24214444117791" lon="12.524586102945701" id="-37640">
		<tag k="fixme" v="consider natural=peak for the most distinct mountains in the district" />
		<tag k="name" v="Engesåsen" />
		<tag k="name:no" v="Engesåsen" />
		<tag k="natural" v="hill" />
		<tag k="place" v="locality" />
		<tag k="ssr:stedsnr" v="150517" />
	</node>
	<node lat="64.28349999986212" lon="12.428277776798435" id="-37641">
		<tag k="name" v="Moadalen" />
		<tag k="name:no" v="Moadalen" />
		<tag k="natural" v="valley" />
		<tag k="place" v="locality" />
		<tag k="ssr:stedsnr" v="150557" />
	</node>
	<node lat="64.13736666428197" lon="12.24390555054165" id="-37648">
		<tag k="fixme" v="consider natural=peak for the most distinct mountains in the district" />
		<tag k="name" v="Raastemasten - Rasmusfjellet" />
		<tag k="name:no" v="Rasmusfjellet" />
		<tag k="name:sma" v="Raastemasten" />
		<tag k="natural" v="hill" />
		<tag k="place" v="locality" />
		<tag k="ssr:stedsnr" v="256535" />
	</node>
	<node lat="63.97688055865165" lon="12.435894450943573" id="-37651">
		<tag k="name" v="Sneiskardet" />
		<tag k="name:no" v="Sneiskardet" />
		<tag k="natural" v="valley" />
		<tag k="place" v="locality" />
		<tag k="ssr:stedsnr" v="256636" />
	</node>
	<node lat="64.2355805559083" lon="12.60021945255955" id="-37657">
		<tag k="name" v="Tjønnhaugen" />
		<tag k="name:no" v="Tjønnhaugen" />
		<tag k="natural" v="hill" />
		<tag k="place" v="locality" />
		<tag k="ssr:stedsnr" v="256693" />
	</node>
	<node lat="64.0970361108266" lon="13.049149991496982" id="-37669">
		<tag k="name" v="Olamyrberget" />
		<tag k="name:no" v="Olamyrberget" />
		<tag k="natural" v="hill" />
		<tag k="place" v="locality" />
		<tag k="ssr:stedsnr" v="256977" />
	</node>
	<node lat="64.09467499689525" lon="13.19074444781757" id="-37670">
		<tag k="name" v="Brattlia" />
		<tag k="name:no" v="Brattlia" />
		<tag k="natural" v="slope" />
		<tag k="place" v="locality" />
		<tag k="ssr:stedsnr" v="256982" />
	</node>
	<node lat="64.098897218765" lon="12.960363896878224" id="-37673">
		<tag k="fixme" v="consider natural=peak for the most distinct mountains in the district" />
		<tag k="name" v="Rørtjønnvalen" />
		<tag k="name:no" v="Rørtjønnvalen" />
		<tag k="natural" v="hill" />
		<tag k="place" v="locality" />
		<tag k="ssr:stedsnr" v="256992" />
	</node>
	<node lat="64.29695555621872" lon="12.967330545618205" id="-37674">
		<tag k="name" v="Hongslætthaugen" />
		<tag k="name:no" v="Hongslætthaugen" />
		<tag k="natural" v="hill" />
		<tag k="place" v="locality" />
		<tag k="ssr:stedsnr" v="257300" />
	</node>
	<node lat="64.20405278203886" lon="12.69250000718655" id="-37684">
		<tag k="name" v="Moslia" />
		<tag k="name:no" v="Moslia" />
		<tag k="natural" v="slope" />
		<tag k="place" v="locality" />
		<tag k="ssr:stedsnr" v="257571" />
	</node>
	<node lat="64.18426944710514" lon="12.422266668957164" id="-37685">
		<tag k="fixme" v="consider natural=peak for the most distinct mountains in the district" />
		<tag k="name" v="Dælifjellet" />
		<tag k="name:no" v="Dælifjellet" />
		<tag k="natural" v="hill" />
		<tag k="place" v="locality" />
		<tag k="ssr:stedsnr" v="257587" />
	</node>
	<node lat="64.1863750028055" lon="12.426769453819633" id="-37686">
		<tag k="fixme" v="consider natural=peak for the most distinct mountains in the district" />
		<tag k="name" v="Stormuren" />
		<tag k="name:no" v="Stormuren" />
		<tag k="natural" v="hill" />
		<tag k="place" v="locality" />
		<tag k="ssr:stedsnr" v="257590" />
	</node>
	<node lat="64.05607777850312" lon="12.861733327809857" id="-37689">
		<tag k="fixme" v="consider natural=peak for the most distinct mountains in the district" />
		<tag k="name" v="Seteråsen" />
		<tag k="name:no" v="Seteråsen" />
		<tag k="natural" v="hill" />
		<tag k="place" v="locality" />
		<tag k="ssr:stedsnr" v="257807" />
	</node>
	<node lat="64.30554166584925" lon="12.481491659235457" id="-37695">
		<tag k="name" v="Svartdalen" />
		<tag k="name:no" v="Svartdalen" />
		<tag k="natural" v="valley" />
		<tag k="place" v="locality" />
		<tag k="ssr:stedsnr" v="169010" />
	</node>
	<node lat="64.30606111033106" lon="12.4568666711599" id="-37696">
		<tag k="name" v="Flauget" />
		<tag k="name:no" v="Flauget" />
		<tag k="natural" v="hill" />
		<tag k="place" v="locality" />
		<tag k="ssr:stedsnr" v="169012" />
	</node>
	<node lat="64.30366944104718" lon="12.462491657470016" id="-37697">
		<tag k="name" v="Buenget" />
		<tag k="name:no" v="Buenget" />
		<tag k="place" v="locality" />
		<tag k="ssr:stedsnr" v="169013" />
	</node>
	<node lat="64.31876388672549" lon="12.519530565094017" id="-37699">
		<tag k="name" v="Kolåsdalen" />
		<tag k="name:no" v="Kolåsdalen" />
		<tag k="natural" v="valley" />
		<tag k="place" v="locality" />
		<tag k="ssr:stedsnr" v="169055" />
	</node>
	<node lat="64.317333329655" lon="12.490852778213245" id="-37700">
		<tag k="name" v="Kleiva" />
		<tag k="name:no" v="Kleiva" />
		<tag k="natural" v="slope" />
		<tag k="place" v="locality" />
		<tag k="ssr:stedsnr" v="169056" />
	</node>
	<node lat="64.27153889257531" lon="12.210919440624512" id="-37702">
		<tag k="name" v="Rørdalen" />
		<tag k="name:no" v="Rørdalen" />
		<tag k="natural" v="valley" />
		<tag k="place" v="locality" />
		<tag k="ssr:stedsnr" v="169602" />
	</node>
	<node lat="64.22043333632818" lon="12.503586110413492" id="-37703">
		<tag k="name" v="Langmyråsen" />
		<tag k="name:no" v="Langmyråsen" />
		<tag k="natural" v="hill" />
		<tag k="place" v="locality" />
		<tag k="ssr:stedsnr" v="170006" />
	</node>
	<node lat="64.16906944271439" lon="12.518833323993665" id="-37706">
		<tag k="name" v="Kleiva" />
		<tag k="name:no" v="Kleiva" />
		<tag k="natural" v="slope" />
		<tag k="place" v="locality" />
		<tag k="ssr:stedsnr" v="170204" />
	</node>
	<node lat="64.16721111253806" lon="12.107222213341952" id="-37714">
		<tag k="name" v="Bjønndalen" />
		<tag k="name:no" v="Bjønndalen" />
		<tag k="natural" v="valley" />
		<tag k="place" v="locality" />
		<tag k="ssr:stedsnr" v="170474" />
	</node>
	<node lat="64.29153333617919" lon="12.420816671563736" id="-37717">
		<tag k="name" v="Perledalen" />
		<tag k="name:no" v="Perledalen" />
		<tag k="natural" v="valley" />
		<tag k="place" v="locality" />
		<tag k="ssr:stedsnr" v="170715" />
	</node>
	<node lat="64.3048499980167" lon="12.322733327562839" id="-37718">
		<tag k="name" v="Sør-Seterhaugen" />
		<tag k="name:no" v="Sør-Seterhaugen" />
		<tag k="natural" v="hill" />
		<tag k="place" v="locality" />
		<tag k="ssr:stedsnr" v="170721" />
	</node>
	<node lat="64.02698610687641" lon="12.72806944862255" id="-37725">
		<tag k="name" v="Bierneloebpelh" />
		<tag k="name:sma" v="Bierneloebpelh" />
		<tag k="natural" v="mountain_range" />
		<tag k="ssr:stedsnr" v="263738" />
	</node>
	<node lat="64.16639166805606" lon="12.198691673510577" id="-37729">
		<tag k="name" v="Mefjellet" />
		<tag k="name:no" v="Mefjellet" />
		<tag k="natural" v="hill" />
		<tag k="place" v="locality" />
		<tag k="ssr:stedsnr" v="196278" />
	</node>
	<node lat="64.15909444169458" lon="12.191224997457292" id="-37731">
		<tag k="name" v="Hårrådrolet" />
		<tag k="name:no" v="Hårrådrolet" />
		<tag k="natural" v="hill" />
		<tag k="place" v="locality" />
		<tag k="ssr:stedsnr" v="196405" />
	</node>
	<node lat="64.16095833026134" lon="12.077063894929084" id="-37732">
		<tag k="name" v="Bjørtjønnhøgda" />
		<tag k="name:no" v="Bjørtjønnhøgda" />
		<tag k="natural" v="hill" />
		<tag k="place" v="locality" />
		<tag k="ssr:stedsnr" v="196406" />
	</node>
	<node lat="65.11002777597567" lon="13.085422216082504" id="-37736">
		<tag k="fixme" v="consider natural=peak for the most distinct mountains in the district" />
		<tag k="name" v="Kløftfjellet - Sloeptjenguevtele" />
		<tag k="name:no" v="Kløftfjellet" />
		<tag k="name:sma" v="Sloeptjenguevtele" />
		<tag k="natural" v="hill" />
		<tag k="place" v="locality" />
		<tag k="ssr:stedsnr" v="196523" />
	</node>
	<node lat="64.07242500182828" lon="12.860713885808497" id="-37745">
		<tag k="name" v="Blomlia" />
		<tag k="name:no" v="Blomlia" />
		<tag k="natural" v="slope" />
		<tag k="place" v="locality" />
		<tag k="ssr:stedsnr" v="196757" />
	</node>
	<node lat="64.08733333294907" lon="12.911108338664759" id="-37747">
		<tag k="name" v="Raudfjellslættet" />
		<tag k="name:no" v="Raudfjellslættet" />
		<tag k="place" v="locality" />
		<tag k="ssr:stedsnr" v="196766" />
	</node>
	<node lat="64.25368610719117" lon="13.078725003768712" id="-37751">
		<tag k="fixme" v="multiple name tags, choose one and add the other to alt_name; consider natural=peak for the most distinct mountains in the district" />
		<tag k="name" v="Noerhtegaejsie;Raavnejegaejsie - Nordre Gauptjønnaksla" />
		<tag k="name:no" v="Nordre Gauptjønnaksla" />
		<tag k="name:sma" v="Noerhtegaejsie;Raavnejegaejsie" />
		<tag k="natural" v="hill" />
		<tag k="place" v="locality" />
		<tag k="ssr:stedsnr" v="203888" />
	</node>
	<node lat="64.23624444405097" lon="12.400836114383592" id="-37756">
		<tag k="name" v="Stordalen" />
		<tag k="name:no" v="Stordalen" />
		<tag k="natural" v="valley" />
		<tag k="place" v="locality" />
		<tag k="ssr:stedsnr" v="211410" />
	</node>
	<node lat="64.21634722649013" lon="12.357119452761046" id="-37757">
		<tag k="name" v="Saglia" />
		<tag k="name:no" v="Saglia" />
		<tag k="natural" v="slope" />
		<tag k="place" v="locality" />
		<tag k="ssr:stedsnr" v="211426" />
	</node>
	<node lat="64.23211110700072" lon="12.288986119067548" id="-37760">
		<tag k="name" v="Tallaugmoen" />
		<tag k="name:no" v="Tallaugmoen" />
		<tag k="place" v="locality" />
		<tag k="ssr:stedsnr" v="211321" />
	</node>
	<node lat="64.25157222027748" lon="12.446144435616347" id="-37766">
		<tag k="name" v="Litlberget" />
		<tag k="name:no" v="Litlberget" />
		<tag k="natural" v="hill" />
		<tag k="place" v="locality" />
		<tag k="ssr:stedsnr" v="211543" />
	</node>
	<node lat="64.05958610905083" lon="12.847794442194942" id="-37768">
		<tag k="name" v="Haukberget" />
		<tag k="name:no" v="Haukberget" />
		<tag k="natural" v="hill" />
		<tag k="place" v="locality" />
		<tag k="ssr:stedsnr" v="269958" />
	</node>
	<node lat="64.33851111488877" lon="12.351344454807299" id="-37772">
		<tag k="name" v="Brennan" />
		<tag k="name:no" v="Brennan" />
		<tag k="natural" v="slope" />
		<tag k="place" v="locality" />
		<tag k="ssr:stedsnr" v="230034" />
	</node>
	<node lat="64.33033889142587" lon="12.531500002477385" id="-37775">
		<tag k="name" v="Våtmyrhøgda" />
		<tag k="name:no" v="Våtmyrhøgda" />
		<tag k="natural" v="hill" />
		<tag k="place" v="locality" />
		<tag k="ssr:stedsnr" v="230090" />
	</node>
	<node lat="64.3498305594268" lon="12.364708336107665" id="-37783">
		<tag k="name" v="Steindalen" />
		<tag k="name:no" v="Steindalen" />
		<tag k="natural" v="valley" />
		<tag k="place" v="locality" />
		<tag k="ssr:stedsnr" v="230782" />
	</node>
	<node lat="64.32186666318168" lon="12.429530556773768" id="-37784">
		<tag k="name" v="Holman" />
		<tag k="name:no" v="Holman" />
		<tag k="place" v="locality" />
		<tag k="ssr:stedsnr" v="230905" />
	</node>
	<node lat="64.21996389313951" lon="12.529347215440582" id="-37787">
		<tag k="name" v="Toråsen" />
		<tag k="name:no" v="Toråsen" />
		<tag k="natural" v="hill" />
		<tag k="place" v="locality" />
		<tag k="ssr:stedsnr" v="231006" />
	</node>
	<node lat="64.12032499748597" lon="13.089319439312895" id="-37788">
		<tag k="name" v="Kariholet" />
		<tag k="name:no" v="Kariholet" />
		<tag k="natural" v="valley" />
		<tag k="place" v="locality" />
		<tag k="ssr:stedsnr" v="231032" />
	</node>
	<node lat="64.23234721943167" lon="12.657183337245808" id="-37792">
		<tag k="name" v="Gråhaugen" />
		<tag k="name:no" v="Gråhaugen" />
		<tag k="natural" v="hill" />
		<tag k="place" v="locality" />
		<tag k="ssr:stedsnr" v="230993" />
	</node>
	<node lat="64.34115277571462" lon="12.515566670220327" id="-37793">
		<tag k="name" v="Nysetermoen" />
		<tag k="name:no" v="Nysetermoen" />
		<tag k="place" v="locality" />
		<tag k="ssr:stedsnr" v="230999" />
	</node>
	<node lat="64.0882194420319" lon="12.240641666623125" id="-37794">
		<tag k="name" v="Bjørkliåsen" />
		<tag k="name:no" v="Bjørkliåsen" />
		<tag k="natural" v="hill" />
		<tag k="place" v="locality" />
		<tag k="ssr:stedsnr" v="231179" />
	</node>
	<node lat="64.20238611094526" lon="12.247102775446072" id="-37811">
		<tag k="name" v="Brudalen" />
		<tag k="name:no" v="Brudalen" />
		<tag k="natural" v="valley" />
		<tag k="place" v="locality" />
		<tag k="ssr:stedsnr" v="454327" />
	</node>
	<node lat="64.28188055592439" lon="12.27762499795796" id="-37813">
		<tag k="name" v="Bårddalen" />
		<tag k="name:no" v="Bårddalen" />
		<tag k="natural" v="valley" />
		<tag k="place" v="locality" />
		<tag k="ssr:stedsnr" v="454333" />
	</node>
	<node lat="64.20609999889297" lon="12.306891671288852" id="-37814">
		<tag k="name" v="Litlrønningen" />
		<tag k="name:no" v="Litlrønningen" />
		<tag k="place" v="locality" />
		<tag k="ssr:stedsnr" v="454412" />
	</node>
	<node lat="64.20908611174411" lon="12.355327781189915" id="-37815">
		<tag k="name" v="Stormyrlia" />
		<tag k="name:no" v="Stormyrlia" />
		<tag k="natural" v="slope" />
		<tag k="place" v="locality" />
		<tag k="ssr:stedsnr" v="454417" />
	</node>
	<node lat="64.22975832902942" lon="12.484919449728972" id="-37824">
		<tag k="name" v="Ovjehaugen" />
		<tag k="name:no" v="Ovjehaugen" />
		<tag k="natural" v="hill" />
		<tag k="place" v="locality" />
		<tag k="ssr:stedsnr" v="454494" />
	</node>
	<node lat="64.25985000232521" lon="12.552669434833728" id="-37828">
		<tag k="name" v="Rønningshaugen" />
		<tag k="name:no" v="Rønningshaugen" />
		<tag k="natural" v="hill" />
		<tag k="place" v="locality" />
		<tag k="ssr:stedsnr" v="454523" />
	</node>
	<node lat="64.26029444309546" lon="12.540200005607343" id="-37830">
		<tag k="name" v="Beinstidalen" />
		<tag k="name:no" v="Beinstidalen" />
		<tag k="natural" v="valley" />
		<tag k="place" v="locality" />
		<tag k="ssr:stedsnr" v="454527" />
	</node>
	<node lat="64.27365555754591" lon="12.34403611121598" id="-37831">
		<tag k="name" v="Rabbhaugen" />
		<tag k="name:no" v="Rabbhaugen" />
		<tag k="natural" v="hill" />
		<tag k="place" v="locality" />
		<tag k="ssr:stedsnr" v="454450" />
	</node>
	<node lat="64.26686944485202" lon="12.32743611709286" id="-37832">
		<tag k="name" v="Sveddet" />
		<tag k="name:no" v="Sveddet" />
		<tag k="place" v="locality" />
		<tag k="ssr:stedsnr" v="454452" />
	</node>
	<node lat="64.284761110059" lon="12.597244451134689" id="-37837">
		<tag k="fixme" v="consider natural=peak for the most distinct mountains in the district" />
		<tag k="name" v="Vinåsen" />
		<tag k="name:no" v="Vinåsen" />
		<tag k="natural" v="hill" />
		<tag k="place" v="locality" />
		<tag k="ssr:stedsnr" v="454634" />
	</node>
	<node lat="64.37902499746299" lon="12.542275008881155" id="-37843">
		<tag k="name" v="Leirsjøhøgda" />
		<tag k="name:no" v="Leirsjøhøgda" />
		<tag k="natural" v="hill" />
		<tag k="place" v="locality" />
		<tag k="ssr:stedsnr" v="256406" />
	</node>
	<node lat="64.26548055540295" lon="12.157788894738886" id="-37848">
		<tag k="name" v="Ådalen" />
		<tag k="name:no" v="Ådalen" />
		<tag k="natural" v="valley" />
		<tag k="place" v="locality" />
		<tag k="ssr:stedsnr" v="256575" />
	</node>
	<node lat="64.01833333786162" lon="12.631336105582497" id="-37850">
		<tag k="name" v="Køyslætthøgda" />
		<tag k="name:no" v="Køyslætthøgda" />
		<tag k="natural" v="hill" />
		<tag k="place" v="locality" />
		<tag k="ssr:stedsnr" v="256874" />
	</node>
	<node lat="64.30568333219038" lon="12.855352770263137" id="-37855">
		<tag k="name" v="Smørbekknesa" />
		<tag k="name:no" v="Smørbekknesa" />
		<tag k="natural" v="valley" />
		<tag k="place" v="locality" />
		<tag k="ssr:stedsnr" v="257311" />
	</node>
	<node lat="64.35840000030643" lon="12.462449998456707" id="-37859">
		<tag k="name" v="Finnkøylia" />
		<tag k="name:no" v="Finnkøylia" />
		<tag k="natural" v="slope" />
		<tag k="place" v="locality" />
		<tag k="ssr:stedsnr" v="263313" />
	</node>
	<node lat="64.27847500049354" lon="12.313827776070141" id="-37864">
		<tag k="name" v="Djupdalen" />
		<tag k="name:no" v="Djupdalen" />
		<tag k="natural" v="valley" />
		<tag k="place" v="locality" />
		<tag k="ssr:stedsnr" v="272409" />
	</node>
	<node lat="64.26934166758008" lon="12.322380562231107" id="-37869">
		<tag k="name" v="Leningdalen" />
		<tag k="name:no" v="Leningdalen" />
		<tag k="natural" v="valley" />
		<tag k="place" v="locality" />
		<tag k="ssr:stedsnr" v="272427" />
	</node>
	<node lat="64.20936666714582" lon="12.24597222512184" id="-37870">
		<tag k="name" v="Bergåsen" />
		<tag k="name:no" v="Bergåsen" />
		<tag k="natural" v="hill" />
		<tag k="place" v="locality" />
		<tag k="ssr:stedsnr" v="272306" />
	</node>
	<node lat="64.24598611184413" lon="12.547830562623886" id="-37876">
		<tag k="name" v="Øverliin" />
		<tag k="name:no" v="Øverliin" />
		<tag k="natural" v="slope" />
		<tag k="place" v="locality" />
		<tag k="ssr:stedsnr" v="272576" />
	</node>
	<node lat="64.25303889289853" lon="12.525508342555383" id="-37879">
		<tag k="name" v="Pemoen" />
		<tag k="name:no" v="Pemoen" />
		<tag k="place" v="locality" />
		<tag k="ssr:stedsnr" v="272581" />
	</node>
	<node lat="64.29167499621101" lon="12.514227771981396" id="-37881">
		<tag k="name" v="Drevsjødalen" />
		<tag k="name:no" v="Drevsjødalen" />
		<tag k="natural" v="valley" />
		<tag k="place" v="locality" />
		<tag k="ssr:stedsnr" v="291105" />
	</node>
	<node lat="64.20361388458208" lon="12.45127499395494" id="-37883">
		<tag k="name" v="Styggholet" />
		<tag k="name:no" v="Styggholet" />
		<tag k="natural" v="valley" />
		<tag k="place" v="locality" />
		<tag k="ssr:stedsnr" v="291035" />
	</node>
	<node lat="64.32749444846914" lon="12.537072222071098" id="-37885">
		<tag k="name" v="Våtmyrsundet" />
		<tag k="name:no" v="Våtmyrsundet" />
		<tag k="place" v="locality" />
		<tag k="ssr:stedsnr" v="291083" />
	</node>
	<node lat="64.24806944675268" lon="12.118938886069179" id="-37886">
		<tag k="name" v="Soleidalen" />
		<tag k="name:no" v="Soleidalen" />
		<tag k="natural" v="valley" />
		<tag k="place" v="locality" />
		<tag k="ssr:stedsnr" v="291305" />
	</node>
	<node lat="64.24202500370244" lon="12.165216665279894" id="-37890">
		<tag k="name" v="Kråttåholet" />
		<tag k="name:no" v="Kråttåholet" />
		<tag k="natural" v="slope" />
		<tag k="place" v="locality" />
		<tag k="ssr:stedsnr" v="291478" />
	</node>
	<node lat="64.31379166776752" lon="12.368680558852052" id="-37892">
		<tag k="name" v="Lellihaugen" />
		<tag k="name:no" v="Lellihaugen" />
		<tag k="natural" v="hill" />
		<tag k="place" v="locality" />
		<tag k="ssr:stedsnr" v="291628" />
	</node>
	<node lat="64.32859166426614" lon="12.336497213125526" id="-37900">
		<tag k="name" v="Åsan" />
		<tag k="name:no" v="Åsan" />
		<tag k="natural" v="hill" />
		<tag k="place" v="locality" />
		<tag k="ssr:stedsnr" v="291730" />
	</node>
	<node lat="64.2305222235498" lon="12.600736108767157" id="-37902">
		<tag k="name" v="Seterlia" />
		<tag k="name:no" v="Seterlia" />
		<tag k="natural" v="slope" />
		<tag k="place" v="locality" />
		<tag k="ssr:stedsnr" v="291978" />
	</node>
	<node lat="64.16883055182204" lon="12.445352776364961" id="-37906">
		<tag k="name" v="Skogslåttlia" />
		<tag k="name:no" v="Skogslåttlia" />
		<tag k="natural" v="slope" />
		<tag k="place" v="locality" />
		<tag k="ssr:stedsnr" v="292194" />
	</node>
	<node lat="64.12327777799585" lon="12.481500000861102" id="-37907">
		<tag k="name" v="Stigålia" />
		<tag k="name:no" v="Stigålia" />
		<tag k="natural" v="slope" />
		<tag k="place" v="locality" />
		<tag k="ssr:stedsnr" v="292312" />
	</node>
	<node lat="64.21547778042283" lon="12.072613891250338" id="-37908">
		<tag k="name" v="Sandvikåsen" />
		<tag k="name:no" v="Sandvikåsen" />
		<tag k="natural" v="hill" />
		<tag k="place" v="locality" />
		<tag k="ssr:stedsnr" v="292433" />
	</node>
	<node lat="64.25664999606087" lon="12.714030557797367" id="-37910">
		<tag k="fixme" v="consider natural=peak for the most distinct mountains in the district" />
		<tag k="name" v="Koltjønnåsen" />
		<tag k="name:no" v="Koltjønnåsen" />
		<tag k="natural" v="hill" />
		<tag k="place" v="locality" />
		<tag k="ssr:stedsnr" v="292490" />
	</node>
	<node lat="64.26593055483633" lon="12.71557222536369" id="-37911">
		<tag k="name" v="Smålian" />
		<tag k="name:no" v="Smålian" />
		<tag k="natural" v="slope" />
		<tag k="place" v="locality" />
		<tag k="ssr:stedsnr" v="292492" />
	</node>
	<node lat="64.26617777724925" lon="12.730383328615568" id="-37912">
		<tag k="name" v="Litlåsen" />
		<tag k="name:no" v="Litlåsen" />
		<tag k="natural" v="hill" />
		<tag k="place" v="locality" />
		<tag k="ssr:stedsnr" v="292493" />
	</node>
	<node lat="64.28048055115292" lon="12.659050001119711" id="-37915">
		<tag k="name" v="Bulia" />
		<tag k="name:no" v="Bulia" />
		<tag k="natural" v="slope" />
		<tag k="place" v="locality" />
		<tag k="ssr:stedsnr" v="292591" />
	</node>
	<node lat="64.30708333520656" lon="12.615358334188427" id="-37916">
		<tag k="name" v="Brettmyrhaugan" />
		<tag k="name:no" v="Brettmyrhaugan" />
		<tag k="natural" v="hill" />
		<tag k="place" v="locality" />
		<tag k="ssr:stedsnr" v="292597" />
	</node>
	<node lat="64.17142222137454" lon="12.633233333418229" id="-37917">
		<tag k="name" v="Vinåsen" />
		<tag k="name:no" v="Vinåsen" />
		<tag k="natural" v="slope" />
		<tag k="place" v="locality" />
		<tag k="ssr:stedsnr" v="292946" />
	</node>
	<node lat="64.39748333712573" lon="12.60685000227873" id="-37920">
		<tag k="name" v="Rangstjønnhøgda" />
		<tag k="name:no" v="Rangstjønnhøgda" />
		<tag k="natural" v="hill" />
		<tag k="place" v="locality" />
		<tag k="ssr:stedsnr" v="317392" />
	</node>
	<node lat="64.37098055139526" lon="12.425530545147604" id="-37923">
		<tag k="fixme" v="consider natural=peak for the most distinct mountains in the district" />
		<tag k="name" v="Blikskjølen" />
		<tag k="name:no" v="Blikskjølen" />
		<tag k="natural" v="hill" />
		<tag k="place" v="locality" />
		<tag k="ssr:stedsnr" v="317399" />
	</node>
	<node lat="64.27993888617951" lon="12.53601944369081" id="-37953">
		<tag k="fixme" v="consider natural=peak for the most distinct mountains in the district" />
		<tag k="name" v="Sveddihøgda" />
		<tag k="name:no" v="Sveddihøgda" />
		<tag k="natural" v="hill" />
		<tag k="place" v="locality" />
		<tag k="ssr:stedsnr" v="332553" />
	</node>
	<node lat="64.2519222268021" lon="12.581158326623283" id="-37956">
		<tag k="name" v="Åslia" />
		<tag k="name:no" v="Åslia" />
		<tag k="natural" v="slope" />
		<tag k="place" v="locality" />
		<tag k="ssr:stedsnr" v="332615" />
	</node>
	<node lat="64.22103888850769" lon="12.445352768739093" id="-37957">
		<tag k="name" v="Husaberga" />
		<tag k="name:no" v="Husaberga" />
		<tag k="natural" v="hill" />
		<tag k="place" v="locality" />
		<tag k="ssr:stedsnr" v="473071" />
	</node>
	<node lat="64.38000833595204" lon="12.413705554165539" id="-37962">
		<tag k="name" v="Korsdalen" />
		<tag k="name:no" v="Korsdalen" />
		<tag k="natural" v="valley" />
		<tag k="place" v="locality" />
		<tag k="ssr:stedsnr" v="473054" />
	</node>
	<node lat="64.18973333173174" lon="12.36978056007773" id="-37963">
		<tag k="name" v="Søyringen" />
		<tag k="name:no" v="Søyringen" />
		<tag k="place" v="locality" />
		<tag k="ssr:stedsnr" v="473055" />
	</node>
	<node lat="64.29726110758556" lon="12.4500888789712" id="-37966">
		<tag k="name" v="Svartdalen" />
		<tag k="name:no" v="Svartdalen" />
		<tag k="natural" v="valley" />
		<tag k="place" v="locality" />
		<tag k="ssr:stedsnr" v="473003" />
	</node>
	<node lat="64.1534027776771" lon="12.550797215038893" id="-37971">
		<tag k="name" v="Svartdalsrabban" />
		<tag k="name:no" v="Svartdalsrabban" />
		<tag k="natural" v="slope" />
		<tag k="place" v="locality" />
		<tag k="ssr:stedsnr" v="473151" />
	</node>
	<node lat="64.14251944249973" lon="12.371433336146548" id="-37972">
		<tag k="name" v="Skarberget" />
		<tag k="name:no" v="Skarberget" />
		<tag k="natural" v="hill" />
		<tag k="place" v="locality" />
		<tag k="ssr:stedsnr" v="473241" />
	</node>
	<node lat="64.27093888945267" lon="12.004899990543656" id="-37975">
		<tag k="name" v="Storlia" />
		<tag k="name:no" v="Storlia" />
		<tag k="natural" v="slope" />
		<tag k="place" v="locality" />
		<tag k="ssr:stedsnr" v="473182" />
	</node>
	<node lat="64.27108055568699" lon="11.97577222140046" id="-37978">
		<tag k="name" v="Digerhaugen" />
		<tag k="name:no" v="Digerhaugen" />
		<tag k="natural" v="hill" />
		<tag k="place" v="locality" />
		<tag k="ssr:stedsnr" v="473192" />
	</node>
	<node lat="64.13951666256193" lon="12.464552774712088" id="-37980">
		<tag k="name" v="Brenthaugen" />
		<tag k="name:no" v="Brenthaugen" />
		<tag k="natural" v="hill" />
		<tag k="place" v="locality" />
		<tag k="ssr:stedsnr" v="473382" />
	</node>
	<node lat="64.23879166717849" lon="12.132005565790827" id="-37981">
		<tag k="name" v="Hevlan" />
		<tag k="name:no" v="Hevlan" />
		<tag k="natural" v="hill" />
		<tag k="place" v="locality" />
		<tag k="ssr:stedsnr" v="473393" />
	</node>
	<node lat="64.25836111011651" lon="12.205791671603965" id="-37983">
		<tag k="name" v="Styggdalen" />
		<tag k="name:no" v="Styggdalen" />
		<tag k="natural" v="valley" />
		<tag k="place" v="locality" />
		<tag k="ssr:stedsnr" v="473481" />
	</node>
	<node lat="64.26245277455291" lon="12.623413879411657" id="-37984">
		<tag k="name" v="Jamtussbakken" />
		<tag k="name:no" v="Jamtussbakken" />
		<tag k="natural" v="slope" />
		<tag k="place" v="locality" />
		<tag k="ssr:stedsnr" v="473536" />
	</node>
	<node lat="64.26450000326152" lon="12.662488896170423" id="-37985">
		<tag k="name" v="Storlifjellet" />
		<tag k="name:no" v="Storlifjellet" />
		<tag k="natural" v="hill" />
		<tag k="place" v="locality" />
		<tag k="ssr:stedsnr" v="473542" />
	</node>
	<node lat="64.36831944478332" lon="12.643461120696005" id="-37986">
		<tag k="name" v="Styggdalen" />
		<tag k="name:no" v="Styggdalen" />
		<tag k="natural" v="valley" />
		<tag k="place" v="locality" />
		<tag k="ssr:stedsnr" v="473493" />
	</node>
	<node lat="64.27125555481318" lon="12.18073610465507" id="-37988">
		<tag k="name" v="Småliin" />
		<tag k="name:no" v="Småliin" />
		<tag k="natural" v="slope" />
		<tag k="place" v="locality" />
		<tag k="ssr:stedsnr" v="473498" />
	</node>
	<node lat="64.31126666806483" lon="12.299788891734403" id="-37989">
		<tag k="name" v="Vårtjønnhaugan" />
		<tag k="name:no" v="Vårtjønnhaugan" />
		<tag k="natural" v="hill" />
		<tag k="place" v="locality" />
		<tag k="ssr:stedsnr" v="473725" />
	</node>
	<node lat="64.3552694425877" lon="12.5376638914696" id="-37994">
		<tag k="name" v="Langlia" />
		<tag k="name:no" v="Langlia" />
		<tag k="natural" v="slope" />
		<tag k="place" v="locality" />
		<tag k="ssr:stedsnr" v="473976" />
	</node>
	<node lat="64.2303194425127" lon="12.62773611770723" id="-37996">
		<tag k="name" v="Tortbakkberget" />
		<tag k="name:no" v="Tortbakkberget" />
		<tag k="natural" v="hill" />
		<tag k="place" v="locality" />
		<tag k="ssr:stedsnr" v="473982" />
	</node>
	<node lat="64.24017222147273" lon="12.623875006835615" id="-37998">
		<tag k="name" v="Nord-Seterlia" />
		<tag k="name:no" v="Nord-Seterlia" />
		<tag k="natural" v="slope" />
		<tag k="place" v="locality" />
		<tag k="ssr:stedsnr" v="473996" />
	</node>
	<node lat="64.17749722538063" lon="12.52730000480447" id="-38001">
		<tag k="fixme" v="consider natural=peak for the most distinct mountains in the district" />
		<tag k="name" v="Brattslåtthøgda" />
		<tag k="name:no" v="Brattslåtthøgda" />
		<tag k="natural" v="hill" />
		<tag k="place" v="locality" />
		<tag k="ssr:stedsnr" v="474183" />
	</node>
	<node lat="64.17161110980263" lon="12.529236113225009" id="-38002">
		<tag k="name" v="Muuslykka" />
		<tag k="name:no" v="Muuslykka" />
		<tag k="natural" v="slope" />
		<tag k="place" v="locality" />
		<tag k="ssr:stedsnr" v="474190" />
	</node>
	<node lat="64.21920277534386" lon="12.498280555303428" id="-38006">
		<tag k="name" v="Brennan" />
		<tag k="name:no" v="Brennan" />
		<tag k="natural" v="slope" />
		<tag k="place" v="locality" />
		<tag k="ssr:stedsnr" v="352005" />
	</node>
	<node lat="64.22141944632303" lon="12.459288897389573" id="-38009">
		<tag k="name" v="Johansletta" />
		<tag k="name:no" v="Johansletta" />
		<tag k="place" v="locality" />
		<tag k="ssr:stedsnr" v="352058" />
	</node>
	<node lat="64.16648888481842" lon="12.455369439718227" id="-38010">
		<tag k="name" v="Brattkleiva" />
		<tag k="name:no" v="Brattkleiva" />
		<tag k="natural" v="slope" />
		<tag k="place" v="locality" />
		<tag k="ssr:stedsnr" v="474242" />
	</node>
	<node lat="64.22464444875035" lon="12.095372229862994" id="-38016">
		<tag k="name" v="Stamndalen" />
		<tag k="name:no" v="Stamndalen" />
		<tag k="natural" v="valley" />
		<tag k="place" v="locality" />
		<tag k="ssr:stedsnr" v="352414" />
	</node>
	<node lat="64.21209444594359" lon="12.031891673436679" id="-38017">
		<tag k="name" v="Åsberga" />
		<tag k="name:no" v="Åsberga" />
		<tag k="natural" v="hill" />
		<tag k="place" v="locality" />
		<tag k="ssr:stedsnr" v="352415" />
	</node>
	<node lat="64.31816666807447" lon="12.652286107827042" id="-38021">
		<tag k="name" v="Snillåsen" />
		<tag k="name:no" v="Snillåsen" />
		<tag k="natural" v="hill" />
		<tag k="place" v="locality" />
		<tag k="ssr:stedsnr" v="474362" />
	</node>
	<node lat="64.21741388819206" lon="12.047422219899413" id="-38025">
		<tag k="name" v="Høgberget" />
		<tag k="name:no" v="Høgberget" />
		<tag k="natural" v="hill" />
		<tag k="place" v="locality" />
		<tag k="ssr:stedsnr" v="474442" />
	</node>
	<node lat="64.21939722166442" lon="12.045216675779608" id="-38026">
		<tag k="name" v="Moan" />
		<tag k="name:no" v="Moan" />
		<tag k="place" v="locality" />
		<tag k="ssr:stedsnr" v="474444" />
	</node>
	<node lat="64.2615777795344" lon="12.741769438861347" id="-38027">
		<tag k="name" v="Svartholet" />
		<tag k="name:no" v="Svartholet" />
		<tag k="natural" v="valley" />
		<tag k="place" v="locality" />
		<tag k="ssr:stedsnr" v="353522" />
	</node>
	<node lat="64.2788305530615" lon="12.742480550109953" id="-38031">
		<tag k="name" v="Seterdalen" />
		<tag k="name:no" v="Seterdalen" />
		<tag k="natural" v="valley" />
		<tag k="place" v="locality" />
		<tag k="ssr:stedsnr" v="474534" />
	</node>
	<node lat="64.29815833030074" lon="12.573866671514978" id="-38036">
		<tag k="name" v="Kotenget" />
		<tag k="name:no" v="Kotenget" />
		<tag k="natural" v="slope" />
		<tag k="place" v="locality" />
		<tag k="ssr:stedsnr" v="474641" />
	</node>
	<node lat="64.1663111082285" lon="12.686938884508187" id="-38039">
		<tag k="name" v="Fagerlia" />
		<tag k="name:no" v="Fagerlia" />
		<tag k="natural" v="slope" />
		<tag k="place" v="locality" />
		<tag k="ssr:stedsnr" v="474947" />
	</node>
	<node lat="64.171558336355" lon="12.649000010293793" id="-38041">
		<tag k="name" v="Nordbrenna" />
		<tag k="name:no" v="Nordbrenna" />
		<tag k="natural" v="slope" />
		<tag k="place" v="locality" />
		<tag k="ssr:stedsnr" v="474953" />
	</node>
	<node lat="64.26765000053084" lon="12.323683332975785" id="-38044">
		<tag k="name" v="Roaldsteinen" />
		<tag k="name:no" v="Roaldsteinen" />
		<tag k="natural" v="hill" />
		<tag k="place" v="locality" />
		<tag k="ssr:stedsnr" v="378383" />
	</node>
	<node lat="64.37808332968473" lon="12.447525002419765" id="-38046">
		<tag k="fixme" v="consider natural=peak for the most distinct mountains in the district" />
		<tag k="name" v="Blikskjølklumpen" />
		<tag k="name:no" v="Blikskjølklumpen" />
		<tag k="natural" v="hill" />
		<tag k="place" v="locality" />
		<tag k="ssr:stedsnr" v="378463" />
	</node>
	<node lat="64.06058889157207" lon="12.910883327785928" id="-38049">
		<tag k="name" v="Småberga" />
		<tag k="name:no" v="Småberga" />
		<tag k="natural" v="hill" />
		<tag k="place" v="locality" />
		<tag k="ssr:stedsnr" v="378776" />
	</node>
	<node lat="64.26454444109604" lon="12.611194446016867" id="-38066">
		<tag k="name" v="Svarttjønnhaugen" />
		<tag k="name:no" v="Svarttjønnhaugen" />
		<tag k="natural" v="hill" />
		<tag k="place" v="locality" />
		<tag k="ssr:stedsnr" v="393607" />
	</node>
	<node lat="64.31249722354278" lon="12.412188895991083" id="-38069">
		<tag k="name" v="Saglia" />
		<tag k="name:no" v="Saglia" />
		<tag k="natural" v="slope" />
		<tag k="place" v="locality" />
		<tag k="ssr:stedsnr" v="412591" />
	</node>
	<node lat="64.26787500132669" lon="12.1746916741483" id="-38071">
		<tag k="name" v="Nesa" />
		<tag k="name:no" v="Nesa" />
		<tag k="place" v="locality" />
		<tag k="ssr:stedsnr" v="412443" />
	</node>
	<node lat="64.33273333466065" lon="12.364847220268645" id="-38072">
		<tag k="name" v="Storberget" />
		<tag k="name:no" v="Storberget" />
		<tag k="natural" v="hill" />
		<tag k="place" v="locality" />
		<tag k="ssr:stedsnr" v="412807" />
	</node>
	<node lat="64.35660833202354" lon="12.395366676234167" id="-38075">
		<tag k="name" v="Lokkhaugen" />
		<tag k="name:no" v="Lokkhaugen" />
		<tag k="natural" v="hill" />
		<tag k="place" v="locality" />
		<tag k="ssr:stedsnr" v="413047" />
	</node>
	<node lat="64.31669721924943" lon="12.437347223851333" id="-38077">
		<tag k="name" v="Fiskbekkseteren" />
		<tag k="name:no" v="Fiskbekkseteren" />
		<tag k="place" v="locality" />
		<tag k="ssr:stedsnr" v="413099" />
	</node>
	<node lat="64.32405833588678" lon="12.108744451848084" id="-38083">
		<tag k="name" v="Hevlan" />
		<tag k="name:no" v="Hevlan" />
		<tag k="natural" v="hill" />
		<tag k="place" v="locality" />
		<tag k="ssr:stedsnr" v="413286" />
	</node>
	<node lat="64.31922222186648" lon="12.107411101311973" id="-38084">
		<tag k="name" v="Gomolia" />
		<tag k="name:no" v="Gomolia" />
		<tag k="natural" v="slope" />
		<tag k="place" v="locality" />
		<tag k="ssr:stedsnr" v="413288" />
	</node>
	<node lat="64.36535555476638" lon="12.665349992100827" id="-38087">
		<tag k="name" v="Grønmyrhaugan" />
		<tag k="name:no" v="Grønmyrhaugan" />
		<tag k="natural" v="hill" />
		<tag k="place" v="locality" />
		<tag k="ssr:stedsnr" v="413501" />
	</node>
	<node lat="64.2883027808537" lon="12.298674992877249" id="-38091">
		<tag k="name" v="Bruvollkjølen" />
		<tag k="name:no" v="Bruvollkjølen" />
		<tag k="natural" v="hill" />
		<tag k="place" v="locality" />
		<tag k="ssr:stedsnr" v="413706" />
	</node>
	<node lat="64.30031111054555" lon="12.353747230328263" id="-38092">
		<tag k="fixme" v="consider natural=peak for the most distinct mountains in the district" />
		<tag k="name" v="Korsvollhøgda" />
		<tag k="name:no" v="Korsvollhøgda" />
		<tag k="natural" v="hill" />
		<tag k="place" v="locality" />
		<tag k="ssr:stedsnr" v="413711" />
	</node>
	<node lat="64.32573611174733" lon="12.330074991298835" id="-38094">
		<tag k="name" v="Raudmyrhaugen" />
		<tag k="name:no" v="Raudmyrhaugen" />
		<tag k="natural" v="hill" />
		<tag k="place" v="locality" />
		<tag k="ssr:stedsnr" v="413747" />
	</node>
	<node lat="64.30916944792445" lon="12.31302499016684" id="-38096">
		<tag k="name" v="Storbakken" />
		<tag k="name:no" v="Storbakken" />
		<tag k="natural" v="hill" />
		<tag k="place" v="locality" />
		<tag k="ssr:stedsnr" v="413749" />
	</node>
	<node lat="64.1973861114055" lon="12.58060555413553" id="-38097">
		<tag k="name" v="Pessbekken" />
		<tag k="name:no" v="Pessbekken" />
		<tag k="natural" v="slope" />
		<tag k="place" v="locality" />
		<tag k="ssr:stedsnr" v="413966" />
	</node>
	<node lat="64.18874722289392" lon="12.61187778202322" id="-38098">
		<tag k="name" v="Svøddumyråsen" />
		<tag k="name:no" v="Svøddumyråsen" />
		<tag k="natural" v="hill" />
		<tag k="place" v="locality" />
		<tag k="ssr:stedsnr" v="413968" />
	</node>
	<node lat="64.27107499584238" lon="12.414625007292848" id="-38105">
		<tag k="name" v="Dravlanhaugen" />
		<tag k="name:no" v="Dravlanhaugen" />
		<tag k="natural" v="hill" />
		<tag k="place" v="locality" />
		<tag k="ssr:stedsnr" v="438357" />
	</node>
	<node lat="64.2226777788313" lon="12.082561104383357" id="-38109">
		<tag k="name" v="Høgdin" />
		<tag k="name:no" v="Høgdin" />
		<tag k="natural" v="hill" />
		<tag k="place" v="locality" />
		<tag k="ssr:stedsnr" v="438372" />
	</node>
	<node lat="64.10004166815645" lon="12.447458342367945" id="-38112">
		<tag k="fixme" v="consider natural=peak for the most distinct mountains in the district" />
		<tag k="name" v="Hevdesåsheia" />
		<tag k="name:no" v="Hevdesåsheia" />
		<tag k="natural" v="hill" />
		<tag k="place" v="locality" />
		<tag k="ssr:stedsnr" v="438602" />
	</node>
	<node lat="64.13631111390872" lon="12.290244454045878" id="-38117">
		<tag k="alt_name:no" v="Bjørnhifjellet" />
		<tag k="fixme" v="consider natural=peak for the most distinct mountains in the district" />
		<tag k="name" v="Bjønnhifjellet" />
		<tag k="name:no" v="Bjønnhifjellet" />
		<tag k="natural" v="hill" />
		<tag k="place" v="locality" />
		<tag k="ssr:stedsnr" v="438559" />
	</node>
	<node lat="64.13745833606663" lon="12.581177778096043" id="-38119">
		<tag k="fixme" v="consider natural=peak for the most distinct mountains in the district" />
		<tag k="name" v="Steinkjerfjellet" />
		<tag k="name:no" v="Steinkjerfjellet" />
		<tag k="natural" v="hill" />
		<tag k="place" v="locality" />
		<tag k="ssr:stedsnr" v="438567" />
	</node>
	<node lat="64.29710833732922" lon="12.95501667292243" id="-38125">
		<tag k="fixme" v="multiple name tags, choose one and add the other to alt_name" />
		<tag k="name" v="Andorsjøhaugen;Storhaugen" />
		<tag k="name:no" v="Andorsjøhaugen;Storhaugen" />
		<tag k="natural" v="hill" />
		<tag k="place" v="locality" />
		<tag k="ssr:stedsnr" v="439258" />
	</node>
	<node lat="64.25111388824685" lon="12.471586109082953" id="-38133">
		<tag k="name" v="Bjørnmyrdalen" />
		<tag k="name:no" v="Bjørnmyrdalen" />
		<tag k="natural" v="valley" />
		<tag k="place" v="locality" />
		<tag k="ssr:stedsnr" v="272498" />
	</node>
	<node lat="64.24286388488558" lon="12.363094444659785" id="-38136">
		<tag k="name" v="Lysthusberga" />
		<tag k="name:no" v="Lysthusberga" />
		<tag k="natural" v="hill" />
		<tag k="place" v="locality" />
		<tag k="ssr:stedsnr" v="454406" />
	</node>
	<node lat="64.27097777434213" lon="12.374005561752377" id="-38138">
		<tag k="name" v="Heggvollhaugen" />
		<tag k="name:no" v="Heggvollhaugen" />
		<tag k="natural" v="hill" />
		<tag k="place" v="locality" />
		<tag k="ssr:stedsnr" v="454470" />
	</node>
	<node lat="64.24044167014627" lon="12.540419454888468" id="-38144">
		<tag k="name" v="Storsveet" />
		<tag k="name:no" v="Storsveet" />
		<tag k="place" v="locality" />
		<tag k="ssr:stedsnr" v="454516" />
	</node>
	<node lat="64.38317500266393" lon="12.497702786312082" id="-38148">
		<tag k="name" v="Merkesberget" />
		<tag k="name:no" v="Merkesberget" />
		<tag k="natural" v="hill" />
		<tag k="place" v="locality" />
		<tag k="ssr:stedsnr" v="472359" />
	</node>
	<node lat="64.32209444176958" lon="12.503441657123345" id="-38149">
		<tag k="name" v="Kvennhushaugen" />
		<tag k="name:no" v="Kvennhushaugen" />
		<tag k="natural" v="hill" />
		<tag k="place" v="locality" />
		<tag k="ssr:stedsnr" v="473108" />
	</node>
	<node lat="64.19004166865703" lon="12.40504167109756" id="-38150">
		<tag k="fixme" v="consider natural=peak for the most distinct mountains in the district" />
		<tag k="name" v="Holsingfjellet" />
		<tag k="name:no" v="Holsingfjellet" />
		<tag k="natural" v="hill" />
		<tag k="place" v="locality" />
		<tag k="ssr:stedsnr" v="473064" />
	</node>
	<node lat="64.16853055132205" lon="12.381719450272385" id="-38151">
		<tag k="name" v="Langmarkhaugen" />
		<tag k="name:no" v="Langmarkhaugen" />
		<tag k="natural" v="hill" />
		<tag k="place" v="locality" />
		<tag k="ssr:stedsnr" v="473207" />
	</node>
	<node lat="64.2500694465777" lon="12.12133332368949" id="-38156">
		<tag k="name" v="Ådalsneset" />
		<tag k="name:no" v="Ådalsneset" />
		<tag k="place" v="locality" />
		<tag k="ssr:stedsnr" v="473308" />
	</node>
	<node lat="64.21699167083216" lon="12.621697231315819" id="-38168">
		<tag k="name" v="Litl-Raudkollhaugen" />
		<tag k="name:no" v="Litl-Raudkollhaugen" />
		<tag k="natural" v="hill" />
		<tag k="place" v="locality" />
		<tag k="ssr:stedsnr" v="473967" />
	</node>
	<node lat="64.23064999666079" lon="12.085213880680861" id="-38172">
		<tag k="name" v="Heimsjølia" />
		<tag k="name:no" v="Heimsjølia" />
		<tag k="natural" v="slope" />
		<tag k="place" v="locality" />
		<tag k="ssr:stedsnr" v="474432" />
	</node>
	<node lat="64.20936666513327" lon="12.0442416639307" id="-38173">
		<tag k="name" v="Kalvtrøberga" />
		<tag k="name:no" v="Kalvtrøberga" />
		<tag k="natural" v="hill" />
		<tag k="place" v="locality" />
		<tag k="ssr:stedsnr" v="474434" />
	</node>
	<node lat="64.2496444461482" lon="12.724386108761811" id="-38175">
		<tag k="name" v="Elglia" />
		<tag k="name:no" v="Elglia" />
		<tag k="natural" v="slope" />
		<tag k="place" v="locality" />
		<tag k="ssr:stedsnr" v="474517" />
	</node>
	<node lat="64.27653888755636" lon="12.674630564190142" id="-38176">
		<tag k="name" v="Heslåttbakkan" />
		<tag k="name:no" v="Heslåttbakkan" />
		<tag k="natural" v="slope" />
		<tag k="place" v="locality" />
		<tag k="ssr:stedsnr" v="474606" />
	</node>
	<node lat="64.04533610833649" lon="12.627683328643368" id="-38177">
		<tag k="name" v="Heinberget" />
		<tag k="name:no" v="Heinberget" />
		<tag k="natural" v="hill" />
		<tag k="place" v="locality" />
		<tag k="ssr:stedsnr" v="474758" />
	</node>
	<node lat="64.16670555100498" lon="12.607138895512756" id="-38178">
		<tag k="name" v="Gavlsmoen" />
		<tag k="name:no" v="Gavlsmoen" />
		<tag k="place" v="locality" />
		<tag k="ssr:stedsnr" v="474959" />
	</node>
	<node lat="64.27006388798276" lon="13.01835833594731" id="-38184">
		<tag k="name" v="Gressålia" />
		<tag k="name:no" v="Gressålia" />
		<tag k="natural" v="slope" />
		<tag k="place" v="locality" />
		<tag k="ssr:stedsnr" v="681243" />
	</node>
	<node lat="64.37007222151328" lon="12.910861103482208" id="-38190">
		<tag k="fixme" v="consider natural=peak for the most distinct mountains in the district" />
		<tag k="name" v="Grisbakfjella" />
		<tag k="name:no" v="Grisbakfjella" />
		<tag k="natural" v="hill" />
		<tag k="place" v="locality" />
		<tag k="ssr:stedsnr" v="681282" />
	</node>
	<node lat="64.15643333547925" lon="12.054130549251077" id="-38191">
		<tag k="name" v="Djupdalen" />
		<tag k="name:no" v="Djupdalen" />
		<tag k="natural" v="valley" />
		<tag k="place" v="locality" />
		<tag k="ssr:stedsnr" v="681283" />
	</node>
	<node lat="64.38751388876439" lon="13.060663886970774" id="-38192">
		<tag k="fixme" v="consider natural=peak for the most distinct mountains in the district" />
		<tag k="name" v="Vestre Bukvassfjellet" />
		<tag k="name:no" v="Vestre Bukvassfjellet" />
		<tag k="natural" v="hill" />
		<tag k="place" v="locality" />
		<tag k="ssr:stedsnr" v="681285" />
	</node>
	<node lat="64.43393611135743" lon="13.069394445229145" id="-38193">
		<tag k="fixme" v="consider natural=peak for the most distinct mountains in the district" />
		<tag k="name" v="Vestre Brandsfjellet - Gilmetje" />
		<tag k="name:no" v="Vestre Brandsfjellet" />
		<tag k="name:sma" v="Gilmetje" />
		<tag k="natural" v="hill" />
		<tag k="place" v="locality" />
		<tag k="ssr:stedsnr" v="681290" />
	</node>
	<node lat="64.04924721911212" lon="12.103744448655148" id="-38194">
		<tag k="name" v="Roktdalen" />
		<tag k="natural" v="valley" />
		<tag k="place" v="locality" />
		<tag k="ssr:stedsnr" v="681297" />
	</node>
	<node lat="64.09724999821837" lon="12.171769449494743" id="-38201">
		<tag k="alt_name" v="Raudbeinklompen" />
		<tag k="fixme" v="consider natural=peak for the most distinct mountains in the district" />
		<tag k="name" v="Raudbeinklumpan" />
		<tag k="natural" v="hill" />
		<tag k="place" v="locality" />
		<tag k="ssr:stedsnr" v="499285" />
	</node>
	<node lat="64.32511944644551" lon="12.273224996528526" id="-38209">
		<tag k="alt_name:no" v="Skardslifjellet" />
		<tag k="fixme" v="consider natural=peak for the most distinct mountains in the district" />
		<tag k="name" v="Skarslifjellet" />
		<tag k="name:no" v="Skarslifjellet" />
		<tag k="natural" v="hill" />
		<tag k="place" v="locality" />
		<tag k="ssr:stedsnr" v="499348" />
	</node>
	<node lat="64.04279999604277" lon="12.191113896841452" id="-38222">
		<tag k="fixme" v="consider natural=peak for the most distinct mountains in the district" />
		<tag k="name" v="Grønberget" />
		<tag k="natural" v="hill" />
		<tag k="place" v="locality" />
		<tag k="ssr:stedsnr" v="499587" />
	</node>
	<node lat="64.08744444524781" lon="13.146858342813813" id="-38224">
		<tag k="name" v="Stygghaugen" />
		<tag k="name:no" v="Stygghaugen" />
		<tag k="natural" v="hill" />
		<tag k="place" v="locality" />
		<tag k="ssr:stedsnr" v="499733" />
	</node>
	<node lat="64.07400833750302" lon="12.810191663784087" id="-38225">
		<tag k="name" v="Rypsnargrubba" />
		<tag k="name:no" v="Rypsnargrubba" />
		<tag k="natural" v="valley" />
		<tag k="place" v="locality" />
		<tag k="ssr:stedsnr" v="499737" />
	</node>
	<node lat="64.16355277680852" lon="12.822161100964449" id="-38227">
		<tag k="fixme" v="consider natural=peak for the most distinct mountains in the district" />
		<tag k="name" v="Moliklumpen" />
		<tag k="name:no" v="Moliklumpen" />
		<tag k="natural" v="hill" />
		<tag k="place" v="locality" />
		<tag k="ssr:stedsnr" v="499904" />
	</node>
	<node lat="64.09852777528909" lon="12.839763885548573" id="-38231">
		<tag k="name" v="Storlislættet" />
		<tag k="name:no" v="Storlislættet" />
		<tag k="place" v="locality" />
		<tag k="ssr:stedsnr" v="499990" />
	</node>
	<node lat="64.20091110867703" lon="12.493358334438012" id="-38233">
		<tag k="fixme" v="consider natural=peak for the most distinct mountains in the district" />
		<tag k="name" v="Liseterklumpen" />
		<tag k="name:no" v="Liseterklumpen" />
		<tag k="natural" v="hill" />
		<tag k="place" v="locality" />
		<tag k="ssr:stedsnr" v="681530" />
	</node>
	<node lat="64.18727221869061" lon="12.670875008079433" id="-38237">
		<tag k="fixme" v="consider natural=peak for the most distinct mountains in the district" />
		<tag k="name" v="Finnkjerringfjellet" />
		<tag k="name:no" v="Finnkjerringfjellet" />
		<tag k="natural" v="hill" />
		<tag k="place" v="locality" />
		<tag k="ssr:stedsnr" v="681560" />
	</node>
	<node lat="64.15212500234324" lon="12.561191677231598" id="-38239">
		<tag k="name" v="Kjenstadlia" />
		<tag k="name:no" v="Kjenstadlia" />
		<tag k="natural" v="slope" />
		<tag k="place" v="locality" />
		<tag k="ssr:stedsnr" v="681564" />
	</node>
	<node lat="64.08511110941548" lon="12.60556943576642" id="-38242">
		<tag k="name" v="Haukberget" />
		<tag k="name:no" v="Haukberget" />
		<tag k="natural" v="hill" />
		<tag k="place" v="locality" />
		<tag k="ssr:stedsnr" v="681601" />
	</node>
	<node lat="64.08277222144676" lon="12.89149444804437" id="-38245">
		<tag k="name" v="Brenna" />
		<tag k="name:no" v="Brenna" />
		<tag k="place" v="locality" />
		<tag k="ssr:stedsnr" v="681780" />
	</node>
	<node lat="64.00035833737293" lon="12.419691663883004" id="-38247">
		<tag k="name" v="Grønhaugen" />
		<tag k="name:no" v="Grønhaugen" />
		<tag k="natural" v="hill" />
		<tag k="place" v="locality" />
		<tag k="ssr:stedsnr" v="681847" />
	</node>
	<node lat="63.974395700379695" lon="12.683818499677324" id="-38251">
		<tag k="fixme" v="consider natural=peak for the most distinct mountains in the district" />
		<tag k="name" v="Jalkedsåejjie - Høgsetet" />
		<tag k="name:no" v="Høgsetet" />
		<tag k="name:sma" v="Jalkedsåejjie" />
		<tag k="natural" v="hill" />
		<tag k="place" v="locality" />
		<tag k="ssr:stedsnr" v="681719" />
	</node>
	<node lat="64.24199444318918" lon="12.642019445654869" id="-38252">
		<tag k="name" v="Svartberget" />
		<tag k="name:no" v="Svartberget" />
		<tag k="natural" v="hill" />
		<tag k="place" v="locality" />
		<tag k="ssr:stedsnr" v="681720" />
	</node>
	<node lat="64.23612221914023" lon="12.54114444908014" id="-38256">
		<tag k="name" v="Brennan" />
		<tag k="name:no" v="Brennan" />
		<tag k="natural" v="hill" />
		<tag k="place" v="locality" />
		<tag k="ssr:stedsnr" v="681739" />
	</node>
	<node lat="64.23134166439881" lon="12.610213884768413" id="-38258">
		<tag k="name" v="Hovslåtthaugen" />
		<tag k="name:no" v="Hovslåtthaugen" />
		<tag k="natural" v="hill" />
		<tag k="place" v="locality" />
		<tag k="ssr:stedsnr" v="681741" />
	</node>
	<node lat="64.02819699493963" lon="12.610088887716397" id="-38260">
		<tag k="alt_name:no" v="Gråhaugen, l" />
		<tag k="name" v="Litl-Gråhaugen" />
		<tag k="name:no" v="Litl-Gråhaugen" />
		<tag k="natural" v="hill" />
		<tag k="place" v="locality" />
		<tag k="ssr:stedsnr" v="681897" />
	</node>
	<node lat="64.28503333390026" lon="12.328519453068413" id="-38279">
		<tag k="name" v="Suldalen" />
		<tag k="name:no" v="Suldalen" />
		<tag k="natural" v="valley" />
		<tag k="place" v="locality" />
		<tag k="ssr:stedsnr" v="514470" />
	</node>
	<node lat="64.27950833190751" lon="12.491749990402578" id="-38281">
		<tag k="fixme" v="consider natural=peak for the most distinct mountains in the district" />
		<tag k="name" v="Nordåsen" />
		<tag k="name:no" v="Nordåsen" />
		<tag k="natural" v="hill" />
		<tag k="place" v="locality" />
		<tag k="ssr:stedsnr" v="514587" />
	</node>
	<node lat="64.22123610804024" lon="12.50628332658427" id="-38285">
		<tag k="name" v="Styggdalen" />
		<tag k="name:no" v="Styggdalen" />
		<tag k="natural" v="valley" />
		<tag k="place" v="locality" />
		<tag k="ssr:stedsnr" v="534004" />
	</node>
	<node lat="64.22999444863393" lon="12.05797499445587" id="-38291">
		<tag k="name" v="Hestdalen" />
		<tag k="name:no" v="Hestdalen" />
		<tag k="natural" v="valley" />
		<tag k="place" v="locality" />
		<tag k="ssr:stedsnr" v="534418" />
	</node>
	<node lat="64.17448889078477" lon="12.082825003242124" id="-38293">
		<tag k="name" v="Oveplassen" />
		<tag k="name:no" v="Oveplassen" />
		<tag k="place" v="locality" />
		<tag k="ssr:stedsnr" v="534442" />
	</node>
	<node lat="64.37077777771094" lon="12.705380547570321" id="-38297">
		<tag k="name" v="Larvtjønnlia" />
		<tag k="name:no" v="Larvtjønnlia" />
		<tag k="natural" v="slope" />
		<tag k="place" v="locality" />
		<tag k="ssr:stedsnr" v="534581" />
	</node>
	<node lat="64.28246111280599" lon="12.656222214775449" id="-38298">
		<tag k="name" v="Buslåtthaugen" />
		<tag k="name:no" v="Buslåtthaugen" />
		<tag k="natural" v="hill" />
		<tag k="place" v="locality" />
		<tag k="ssr:stedsnr" v="534585" />
	</node>
	<node lat="64.3016638847665" lon="12.563124998176148" id="-38306">
		<tag k="name" v="Landsemmoan" />
		<tag k="name:no" v="Landsemmoan" />
		<tag k="place" v="locality" />
		<tag k="ssr:stedsnr" v="534621" />
	</node>
	<node lat="64.35488055905572" lon="12.462136116738458" id="-38308">
		<tag k="name" v="Årengslettet" />
		<tag k="name:no" v="Årengslettet" />
		<tag k="place" v="locality" />
		<tag k="ssr:stedsnr" v="534972" />
	</node>
	<node lat="64.28000555190286" lon="12.360538881534325" id="-38315">
		<tag k="name" v="Gressdalen" />
		<tag k="name:no" v="Gressdalen" />
		<tag k="natural" v="valley" />
		<tag k="place" v="locality" />
		<tag k="ssr:stedsnr" v="272437" />
	</node>
	<node lat="64.33910555669107" lon="12.437300003163266" id="-38317">
		<tag k="name" v="Gauplian" />
		<tag k="name:no" v="Gauplian" />
		<tag k="natural" v="slope" />
		<tag k="place" v="locality" />
		<tag k="ssr:stedsnr" v="688299" />
	</node>
	<node lat="64.35005000449024" lon="12.446649996665492" id="-38318">
		<tag k="name" v="Rømen" />
		<tag k="name:no" v="Rømen" />
		<tag k="natural" v="slope" />
		<tag k="place" v="locality" />
		<tag k="ssr:stedsnr" v="688309" />
	</node>
	<node lat="64.25244167105663" lon="13.033916665745576" id="-38319">
		<tag k="name" v="Gressåklumpen" />
		<tag k="name:no" v="Gressåklumpen" />
		<tag k="natural" v="hill" />
		<tag k="place" v="locality" />
		<tag k="ssr:stedsnr" v="559208" />
	</node>
	<node lat="64.11401667036118" lon="12.12268332682203" id="-38320">
		<tag k="fixme" v="consider natural=peak for the most distinct mountains in the district" />
		<tag k="name" v="Tjønndalsklumpan" />
		<tag k="name:no" v="Tjønndalsklumpan" />
		<tag k="natural" v="hill" />
		<tag k="place" v="locality" />
		<tag k="ssr:stedsnr" v="559244" />
	</node>
	<node lat="64.12421667035781" lon="12.20656110128343" id="-38321">
		<tag k="name" v="Storhallan" />
		<tag k="name:no" v="Storhallan" />
		<tag k="natural" v="hill" />
		<tag k="place" v="locality" />
		<tag k="ssr:stedsnr" v="559249" />
	</node>
	<node lat="64.39075833439189" lon="12.87578611188306" id="-38326">
		<tag k="fixme" v="consider natural=peak for the most distinct mountains in the district" />
		<tag k="name" v="Almknuken" />
		<tag k="name:no" v="Almknuken" />
		<tag k="natural" v="hill" />
		<tag k="place" v="locality" />
		<tag k="ssr:stedsnr" v="559291" />
	</node>
	<node lat="64.07896944639923" lon="12.59602778534557" id="-38328">
		<tag k="name" v="Haukbergskoro" />
		<tag k="name:no" v="Haukbergskoro" />
		<tag k="natural" v="valley" />
		<tag k="place" v="locality" />
		<tag k="ssr:stedsnr" v="559603" />
	</node>
	<node lat="63.95236667007509" lon="12.562844451563215" id="-38331">
		<tag k="name" v="Stigådalen" />
		<tag k="natural" v="valley" />
		<tag k="place" v="locality" />
		<tag k="ssr:stedsnr" v="559702" />
	</node>
	<node lat="64.21370833280146" lon="12.337133335789247" id="-38334">
		<tag k="fixme" v="consider natural=peak for the most distinct mountains in the district" />
		<tag k="name" v="Svartåsen" />
		<tag k="name:no" v="Svartåsen" />
		<tag k="natural" v="hill" />
		<tag k="place" v="locality" />
		<tag k="ssr:stedsnr" v="559736" />
	</node>
	<node lat="64.22099166570665" lon="12.621986108522412" id="-38336">
		<tag k="name" v="Tortbakkgrubban" />
		<tag k="name:no" v="Tortbakkgrubban" />
		<tag k="natural" v="slope" />
		<tag k="place" v="locality" />
		<tag k="ssr:stedsnr" v="559743" />
	</node>
	<node lat="64.23643889136838" lon="12.948297219626108" id="-38339">
		<tag k="name" v="Grøntjønnlia" />
		<tag k="name:no" v="Grøntjønnlia" />
		<tag k="natural" v="slope" />
		<tag k="place" v="locality" />
		<tag k="ssr:stedsnr" v="559891" />
	</node>
	<node lat="64.03776111573961" lon="12.652638880581005" id="-38340">
		<tag k="name" v="Heinålia" />
		<tag k="name:no" v="Heinålia" />
		<tag k="natural" v="slope" />
		<tag k="place" v="locality" />
		<tag k="ssr:stedsnr" v="559898" />
	</node>
	<node lat="64.07726111460701" lon="12.923327771820574" id="-38346">
		<tag k="name" v="Rørtjønnlia" />
		<tag k="name:no" v="Rørtjønnlia" />
		<tag k="natural" v="slope" />
		<tag k="place" v="locality" />
		<tag k="ssr:stedsnr" v="560776" />
	</node>
	<node lat="64.27769166630708" lon="12.558411121042658" id="-38357">
		<tag k="name" v="Innerdalen" />
		<tag k="name:no" v="Innerdalen" />
		<tag k="natural" v="valley" />
		<tag k="place" v="locality" />
		<tag k="ssr:stedsnr" v="575602" />
	</node>
	<node lat="64.25213888730627" lon="12.511919442827567" id="-38358">
		<tag k="name" v="Merkesdalen" />
		<tag k="name:no" v="Merkesdalen" />
		<tag k="natural" v="valley" />
		<tag k="place" v="locality" />
		<tag k="ssr:stedsnr" v="575604" />
	</node>
	<node lat="64.26510833014687" lon="12.577447213391867" id="-38359">
		<tag k="name" v="Teledalen" />
		<tag k="name:no" v="Teledalen" />
		<tag k="natural" v="valley" />
		<tag k="place" v="locality" />
		<tag k="ssr:stedsnr" v="575610" />
	</node>
	<node lat="64.22590277444864" lon="12.319177782875993" id="-38361">
		<tag k="name" v="Revhimoen" />
		<tag k="name:no" v="Revhimoen" />
		<tag k="place" v="locality" />
		<tag k="ssr:stedsnr" v="575354" />
	</node>
	<node lat="64.2083333331851" lon="12.386158341247375" id="-38362">
		<tag k="name" v="Djupdalen" />
		<tag k="name:no" v="Djupdalen" />
		<tag k="natural" v="valley" />
		<tag k="place" v="locality" />
		<tag k="ssr:stedsnr" v="575395" />
	</node>
	<node lat="64.211655553196" lon="12.391144451489478" id="-38363">
		<tag k="fixme" v="consider natural=peak for the most distinct mountains in the district" />
		<tag k="name" v="Dæliåsen" />
		<tag k="name:no" v="Dæliåsen" />
		<tag k="natural" v="hill" />
		<tag k="place" v="locality" />
		<tag k="ssr:stedsnr" v="575400" />
	</node>
	<node lat="64.27817500207173" lon="12.452127781693157" id="-38367">
		<tag k="name" v="Heimen" />
		<tag k="name:no" v="Heimen" />
		<tag k="place" v="locality" />
		<tag k="ssr:stedsnr" v="575546" />
	</node>
	<node lat="64.18724722013195" lon="12.175266657229736" id="-38369">
		<tag k="name" v="Råhaugen" />
		<tag k="name:no" v="Råhaugen" />
		<tag k="natural" v="hill" />
		<tag k="place" v="locality" />
		<tag k="ssr:stedsnr" v="696290" />
	</node>
	<node lat="64.271233335817" lon="12.275263883618495" id="-38374">
		<tag k="name" v="Barvassgjøta" />
		<tag k="name:no" v="Barvassgjøta" />
		<tag k="natural" v="valley" />
		<tag k="place" v="locality" />
		<tag k="ssr:stedsnr" v="696350" />
	</node>
	<node lat="64.18016388459975" lon="12.305113888359703" id="-38377">
		<tag k="name" v="Geitryggen" />
		<tag k="name:no" v="Geitryggen" />
		<tag k="place" v="locality" />
		<tag k="ssr:stedsnr" v="696381" />
	</node>
	<node lat="64.20160555438031" lon="12.329994452932057" id="-38381">
		<tag k="fixme" v="consider natural=peak for the most distinct mountains in the district" />
		<tag k="name" v="Kjerstiåsen" />
		<tag k="name:no" v="Kjerstiåsen" />
		<tag k="natural" v="hill" />
		<tag k="place" v="locality" />
		<tag k="ssr:stedsnr" v="696430" />
	</node>
	<node lat="64.20595277595301" lon="12.356413881450987" id="-38382">
		<tag k="name" v="Røsslynghaugen" />
		<tag k="name:no" v="Røsslynghaugen" />
		<tag k="natural" v="hill" />
		<tag k="place" v="locality" />
		<tag k="ssr:stedsnr" v="696432" />
	</node>
	<node lat="64.23465555706684" lon="12.538027777557524" id="-38386">
		<tag k="name" v="Erikkneppa" />
		<tag k="name:no" v="Erikkneppa" />
		<tag k="natural" v="valley" />
		<tag k="place" v="locality" />
		<tag k="ssr:stedsnr" v="696526" />
	</node>
	<node lat="64.25017499719627" lon="12.43001667197281" id="-38389">
		<tag k="name" v="Navlusskuta" />
		<tag k="name:no" v="Navlusskuta" />
		<tag k="natural" v="hill" />
		<tag k="place" v="locality" />
		<tag k="ssr:stedsnr" v="696556" />
	</node>
	<node lat="64.26823333320958" lon="12.594708328345163" id="-38391">
		<tag k="name" v="Storbjørnhaugen" />
		<tag k="name:no" v="Storbjørnhaugen" />
		<tag k="natural" v="hill" />
		<tag k="place" v="locality" />
		<tag k="ssr:stedsnr" v="696639" />
	</node>
	<node lat="64.30696944281476" lon="12.441758323750825" id="-38393">
		<tag k="name" v="Sør-Brandthaugen" />
		<tag k="name:no" v="Sør-Brandthaugen" />
		<tag k="natural" v="hill" />
		<tag k="place" v="locality" />
		<tag k="ssr:stedsnr" v="594015" />
	</node>
	<node lat="64.29903888717831" lon="12.458777774439568" id="-38394">
		<tag k="name" v="Langvasslia" />
		<tag k="name:no" v="Langvasslia" />
		<tag k="natural" v="slope" />
		<tag k="place" v="locality" />
		<tag k="ssr:stedsnr" v="594018" />
	</node>
	<node lat="64.30897777965693" lon="12.48675277369412" id="-38396">
		<tag k="name" v="Aunlia" />
		<tag k="name:no" v="Aunlia" />
		<tag k="natural" v="slope" />
		<tag k="place" v="locality" />
		<tag k="ssr:stedsnr" v="594020" />
	</node>
	<node lat="64.34435000325922" lon="12.310952787005593" id="-38397">
		<tag k="name" v="Kristofferbuan" />
		<tag k="name:no" v="Kristofferbuan" />
		<tag k="natural" v="hill" />
		<tag k="place" v="locality" />
		<tag k="ssr:stedsnr" v="594021" />
	</node>
	<node lat="64.30966944592244" lon="12.50298055944343" id="-38398">
		<tag k="name" v="Hestmyrhaugan" />
		<tag k="name:no" v="Hestmyrhaugan" />
		<tag k="natural" v="hill" />
		<tag k="place" v="locality" />
		<tag k="ssr:stedsnr" v="594116" />
	</node>
	<node lat="64.34758333739474" lon="12.655152776265302" id="-38401">
		<tag k="name" v="Tortligrubba" />
		<tag k="name:no" v="Tortligrubba" />
		<tag k="place" v="locality" />
		<tag k="ssr:stedsnr" v="594264" />
	</node>
	<node lat="64.38878055232952" lon="12.423477785870189" id="-38402">
		<tag k="name" v="Vestre Kvithevlan" />
		<tag k="name:no" v="Vestre Kvithevlan" />
		<tag k="natural" v="hill" />
		<tag k="place" v="locality" />
		<tag k="ssr:stedsnr" v="594402" />
	</node>
	<node lat="64.31753333116637" lon="12.329722220984028" id="-38405">
		<tag k="name" v="Sagtømmerlia" />
		<tag k="name:no" v="Sagtømmerlia" />
		<tag k="natural" v="slope" />
		<tag k="place" v="locality" />
		<tag k="ssr:stedsnr" v="594710" />
	</node>
	<node lat="64.16543055810479" lon="12.76347500326223" id="-38406">
		<tag k="name" v="Kleiva" />
		<tag k="name:no" v="Kleiva" />
		<tag k="natural" v="hill" />
		<tag k="place" v="locality" />
		<tag k="ssr:stedsnr" v="595015" />
	</node>
	<node lat="64.16946388633859" lon="12.551519445004931" id="-38409">
		<tag k="name" v="Kvennhusgrubba" />
		<tag k="name:no" v="Kvennhusgrubba" />
		<tag k="place" v="locality" />
		<tag k="ssr:stedsnr" v="595159" />
	</node>
	<node lat="64.2766833291676" lon="12.72526110152255" id="-38415">
		<tag k="name" v="Hevlan" />
		<tag k="name:no" v="Hevlan" />
		<tag k="natural" v="hill" />
		<tag k="place" v="locality" />
		<tag k="ssr:stedsnr" v="595510" />
	</node>
	<node lat="64.27275000030862" lon="12.731855557518708" id="-38417">
		<tag k="name" v="Seterdalen" />
		<tag k="name:no" v="Seterdalen" />
		<tag k="natural" v="valley" />
		<tag k="place" v="locality" />
		<tag k="ssr:stedsnr" v="595517" />
	</node>
	<node lat="64.14567499569877" lon="12.513652775419416" id="-38420">
		<tag k="name" v="Stor-Landskoro" />
		<tag k="name:no" v="Stor-Landskoro" />
		<tag k="natural" v="gorge" />
		<tag k="ssr:stedsnr" v="595806" />
	</node>
	<node lat="64.25545278142204" lon="12.399400007601358" id="-38425">
		<tag k="fixme" v="consider natural=peak for the most distinct mountains in the district" />
		<tag k="name" v="Litlåsen" />
		<tag k="name:no" v="Litlåsen" />
		<tag k="natural" v="hill" />
		<tag k="place" v="locality" />
		<tag k="ssr:stedsnr" v="272453" />
	</node>
	<node lat="64.13086666274764" lon="12.096961105166272" id="-38427">
		<tag k="fixme" v="consider natural=peak for the most distinct mountains in the district" />
		<tag k="name" v="Strindfjella" />
		<tag k="name:no" v="Strindfjella" />
		<tag k="natural" v="hill" />
		<tag k="place" v="locality" />
		<tag k="ssr:stedsnr" v="620270" />
	</node>
	<node lat="64.33711667085325" lon="12.823219441612084" id="-38429">
		<tag k="name" v="Finnslættdalen" />
		<tag k="name:no" v="Finnslættdalen" />
		<tag k="natural" v="valley" />
		<tag k="place" v="locality" />
		<tag k="ssr:stedsnr" v="620273" />
	</node>
	<node lat="64.4006888890793" lon="12.940752781342393" id="-38430">
		<tag k="name" v="Almdalen" />
		<tag k="name:no" v="Almdalen" />
		<tag k="natural" v="valley" />
		<tag k="place" v="locality" />
		<tag k="ssr:stedsnr" v="620282" />
	</node>
	<node lat="64.36365277798394" lon="12.46855000074921" id="-38433">
		<tag k="fixme" v="consider natural=peak for the most distinct mountains in the district" />
		<tag k="name" v="Lonhattan" />
		<tag k="name:no" v="Lonhattan" />
		<tag k="natural" v="hill" />
		<tag k="place" v="locality" />
		<tag k="ssr:stedsnr" v="620421" />
	</node>
	<node lat="64.29484999752587" lon="12.019994441949423" id="-38443">
		<tag k="alt_name:no" v="Småvasslikollen" />
		<tag k="fixme" v="consider natural=peak for the most distinct mountains in the district" />
		<tag k="name" v="Småvasslikollan" />
		<tag k="name:no" v="Småvasslikollan" />
		<tag k="natural" v="hill" />
		<tag k="place" v="locality" />
		<tag k="ssr:stedsnr" v="620574" />
	</node>
	<node lat="64.35635555831246" lon="12.448127771005339" id="-38450">
		<tag k="name" v="Tverrdalen" />
		<tag k="name:no" v="Tverrdalen" />
		<tag k="natural" v="valley" />
		<tag k="place" v="locality" />
		<tag k="ssr:stedsnr" v="627321" />
	</node>
	<node lat="64.18531944689083" lon="12.244205563313436" id="-38452">
		<tag k="name" v="Kattungberget" />
		<tag k="name:no" v="Kattungberget" />
		<tag k="natural" v="hill" />
		<tag k="place" v="locality" />
		<tag k="ssr:stedsnr" v="635289" />
	</node>
	<node lat="64.19793055887958" lon="12.269305561019317" id="-38453">
		<tag k="name" v="Åsen" />
		<tag k="name:no" v="Åsen" />
		<tag k="natural" v="hill" />
		<tag k="place" v="locality" />
		<tag k="ssr:stedsnr" v="635295" />
	</node>
	<node lat="64.24163888554745" lon="12.37756388670164" id="-38456">
		<tag k="name" v="Rossdalen" />
		<tag k="name:no" v="Rossdalen" />
		<tag k="natural" v="valley" />
		<tag k="place" v="locality" />
		<tag k="ssr:stedsnr" v="635409" />
	</node>
	<node lat="64.20106944323625" lon="12.270494450267346" id="-38458">
		<tag k="fixme" v="consider natural=peak for the most distinct mountains in the district" />
		<tag k="name" v="Mulen" />
		<tag k="name:no" v="Mulen" />
		<tag k="natural" v="hill" />
		<tag k="place" v="locality" />
		<tag k="ssr:stedsnr" v="635331" />
	</node>
	<node lat="64.22738332923325" lon="12.455869434399993" id="-38460">
		<tag k="name" v="Stormoen" />
		<tag k="name:no" v="Stormoen" />
		<tag k="place" v="locality" />
		<tag k="ssr:stedsnr" v="635483" />
	</node>
	<node lat="64.21631111501183" lon="12.45170554755989" id="-38465">
		<tag k="name" v="Sagstillingslia" />
		<tag k="name:no" v="Sagstillingslia" />
		<tag k="natural" v="slope" />
		<tag k="place" v="locality" />
		<tag k="ssr:stedsnr" v="655039" />
	</node>
	<node lat="64.32223333014917" lon="12.551283340178966" id="-38466">
		<tag k="name" v="Pemyråsen" />
		<tag k="name:no" v="Pemyråsen" />
		<tag k="natural" v="hill" />
		<tag k="place" v="locality" />
		<tag k="ssr:stedsnr" v="655084" />
	</node>
	<node lat="64.3140666656958" lon="12.531286110088692" id="-38467">
		<tag k="name" v="Olsneshaugen" />
		<tag k="name:no" v="Olsneshaugen" />
		<tag k="natural" v="hill" />
		<tag k="place" v="locality" />
		<tag k="ssr:stedsnr" v="655088" />
	</node>
	<node lat="64.13888333365769" lon="12.390977787627179" id="-38468">
		<tag k="name" v="Smalmoen" />
		<tag k="name:no" v="Smalmoen" />
		<tag k="place" v="locality" />
		<tag k="ssr:stedsnr" v="655235" />
	</node>
	<node lat="64.16266666629342" lon="12.548269443144621" id="-38473">
		<tag k="name" v="Karilia" />
		<tag k="name:no" v="Karilia" />
		<tag k="natural" v="slope" />
		<tag k="place" v="locality" />
		<tag k="ssr:stedsnr" v="655191" />
	</node>
	<node lat="64.31110832948967" lon="12.614877785233412" id="-38474">
		<tag k="name" v="Sjysjølian" />
		<tag k="name:no" v="Sjysjølian" />
		<tag k="natural" v="slope" />
		<tag k="place" v="locality" />
		<tag k="ssr:stedsnr" v="655292" />
	</node>
	<node lat="64.22415277965355" lon="12.117891670605331" id="-38478">
		<tag k="name" v="Midtskorogropa" />
		<tag k="name:no" v="Midtskorogropa" />
		<tag k="natural" v="valley" />
		<tag k="place" v="locality" />
		<tag k="ssr:stedsnr" v="655382" />
	</node>
	<node lat="64.22500555880033" lon="12.048872213754594" id="-38479">
		<tag k="name" v="Seterdalen" />
		<tag k="name:no" v="Seterdalen" />
		<tag k="natural" v="valley" />
		<tag k="place" v="locality" />
		<tag k="ssr:stedsnr" v="655386" />
	</node>
	<node lat="64.227461108902" lon="12.037186119612251" id="-38480">
		<tag k="name" v="Austerhøgda" />
		<tag k="name:no" v="Austerhøgda" />
		<tag k="natural" v="hill" />
		<tag k="place" v="locality" />
		<tag k="ssr:stedsnr" v="655392" />
	</node>
	<node lat="64.259461107045" lon="12.21841666486241" id="-38481">
		<tag k="name" v="Rognlunddalen" />
		<tag k="name:no" v="Rognlunddalen" />
		<tag k="natural" v="valley" />
		<tag k="place" v="locality" />
		<tag k="ssr:stedsnr" v="655511" />
	</node>
	<node lat="64.26619166682325" lon="12.63872778324078" id="-38482">
		<tag k="name" v="Bjørkliklumpen" />
		<tag k="name:no" v="Bjørkliklumpen" />
		<tag k="natural" v="hill" />
		<tag k="place" v="locality" />
		<tag k="ssr:stedsnr" v="655533" />
	</node>
	<node lat="64.29964166385473" lon="12.273338888737037" id="-38483">
		<tag k="name" v="Seterhaugen" />
		<tag k="name:no" v="Seterhaugen" />
		<tag k="natural" v="hill" />
		<tag k="place" v="locality" />
		<tag k="ssr:stedsnr" v="655587" />
	</node>
	<node lat="64.27578889289494" lon="12.647563898533548" id="-38484">
		<tag k="name" v="Gamvollhaugen" />
		<tag k="name:no" v="Gamvollhaugen" />
		<tag k="natural" v="hill" />
		<tag k="place" v="locality" />
		<tag k="ssr:stedsnr" v="655597" />
	</node>
	<node lat="64.35962778185274" lon="12.550888884232275" id="-38491">
		<tag k="name" v="Nordhaugen" />
		<tag k="name:no" v="Nordhaugen" />
		<tag k="natural" v="hill" />
		<tag k="place" v="locality" />
		<tag k="ssr:stedsnr" v="655983" />
	</node>
	<node lat="64.24389722238183" lon="12.656144451303888" id="-38494">
		<tag k="name" v="Storslåttlia" />
		<tag k="name:no" v="Storslåttlia" />
		<tag k="natural" v="slope" />
		<tag k="place" v="locality" />
		<tag k="ssr:stedsnr" v="655995" />
	</node>
	<node lat="64.00243333439283" lon="12.686805547009131" id="-38495">
		<tag k="name" v="Langmoen" />
		<tag k="name:no" v="Langmoen" />
		<tag k="place" v="locality" />
		<tag k="ssr:stedsnr" v="656185" />
	</node>
	<node lat="64.28775833302201" lon="12.691341671379655" id="-38497">
		<tag k="name" v="Bjønnhaugen" />
		<tag k="name:no" v="Bjønnhaugen" />
		<tag k="natural" v="hill" />
		<tag k="place" v="locality" />
		<tag k="ssr:stedsnr" v="656537" />
	</node>
	<node lat="64.14038889077138" lon="12.576744454086057" id="-38501">
		<tag k="name" v="Salen" />
		<tag k="name:no" v="Salen" />
		<tag k="natural" v="hill" />
		<tag k="place" v="locality" />
		<tag k="ssr:stedsnr" v="656941" />
	</node>
	<node lat="64.2717944444794" lon="12.506749997544713" id="-38504">
		<tag k="fixme" v="consider natural=peak for the most distinct mountains in the district" />
		<tag k="name" v="Aglåsen" />
		<tag k="name:no" v="Aglåsen" />
		<tag k="natural" v="hill" />
		<tag k="place" v="locality" />
		<tag k="ssr:stedsnr" v="681358" />
	</node>
	<node lat="63.980133333167004" lon="12.649797214695344" id="-38516">
		<tag k="name" v="Litlhøgsetet" />
		<tag k="name:no" v="Litlhøgsetet" />
		<tag k="natural" v="hill" />
		<tag k="place" v="locality" />
		<tag k="ssr:stedsnr" v="681664" />
	</node>
	<node lat="64.22387777373358" lon="12.489725006141576" id="-38519">
		<tag k="name" v="Middagshaugen" />
		<tag k="name:no" v="Middagshaugen" />
		<tag k="natural" v="hill" />
		<tag k="place" v="locality" />
		<tag k="ssr:stedsnr" v="681760" />
	</node>
	<node lat="64.18416944205924" lon="12.827761105646422" id="-38522">
		<tag k="fixme" v="consider natural=peak for the most distinct mountains in the district" />
		<tag k="loc_name:sma" v="Jillie Vaalta" />
		<tag k="name" v="Jillie-Vaalta" />
		<tag k="name:sma" v="Jillie-Vaalta" />
		<tag k="natural" v="hill" />
		<tag k="place" v="locality" />
		<tag k="ssr:stedsnr" v="681914" />
	</node>
	<node lat="64.30129722118959" lon="12.70268611535476" id="-38525">
		<tag k="fixme" v="consider natural=peak for the most distinct mountains in the district" />
		<tag k="name" v="Aantesvaerie - Andorfjellet" />
		<tag k="name:no" v="Andorfjellet" />
		<tag k="name:sma" v="Aantesvaerie" />
		<tag k="natural" v="hill" />
		<tag k="place" v="locality" />
		<tag k="ssr:stedsnr" v="691386" />
	</node>
	<node lat="64.05892778171291" lon="12.763794441377723" id="-38526">
		<tag k="fixme" v="multiple name tags, choose one and add the other to alt_name; consider natural=peak for the most distinct mountains in the district" />
		<tag k="name" v="Heggsjøfjellet;Laedteke" />
		<tag k="name:no" v="Heggsjøfjellet;Laedteke" />
		<tag k="natural" v="hill" />
		<tag k="place" v="locality" />
		<tag k="ssr:stedsnr" v="693824" />
	</node>
	<node lat="64.25814166577419" lon="12.11979444051792" id="-38527">
		<tag k="name" v="Vakkerdalen" />
		<tag k="name:no" v="Vakkerdalen" />
		<tag k="natural" v="valley" />
		<tag k="place" v="locality" />
		<tag k="ssr:stedsnr" v="694172" />
	</node>
	<node lat="64.23039999739146" lon="12.398227771215069" id="-38531">
		<tag k="name" v="Karendalen" />
		<tag k="name:no" v="Karendalen" />
		<tag k="natural" v="valley" />
		<tag k="place" v="locality" />
		<tag k="ssr:stedsnr" v="696412" />
	</node>
	<node lat="64.28056944198524" lon="12.298644449610968" id="-38533">
		<tag k="name" v="Austerkleivsletta" />
		<tag k="name:no" v="Austerkleivsletta" />
		<tag k="place" v="locality" />
		<tag k="ssr:stedsnr" v="696472" />
	</node>
	<node lat="64.20531111164112" lon="12.458227786739744" id="-38542">
		<tag k="name" v="Gauplia" />
		<tag k="name:no" v="Gauplia" />
		<tag k="natural" v="slope" />
		<tag k="place" v="locality" />
		<tag k="ssr:stedsnr" v="898033" />
	</node>
	<node lat="64.31426389332287" lon="12.497961113119763" id="-38544">
		<tag k="name" v="Fjellet" />
		<tag k="name:no" v="Fjellet" />
		<tag k="natural" v="hill" />
		<tag k="place" v="locality" />
		<tag k="ssr:stedsnr" v="898064" />
	</node>
	<node lat="64.31060000172786" lon="12.465483334735564" id="-38546">
		<tag k="name" v="Langvassåsen" />
		<tag k="name:no" v="Langvassåsen" />
		<tag k="natural" v="hill" />
		<tag k="place" v="locality" />
		<tag k="ssr:stedsnr" v="898088" />
	</node>
	<node lat="64.37913610775598" lon="12.418433338492322" id="-38548">
		<tag k="name" v="Rundhaugen" />
		<tag k="name:no" v="Rundhaugen" />
		<tag k="natural" v="hill" />
		<tag k="place" v="locality" />
		<tag k="ssr:stedsnr" v="898036" />
	</node>
	<node lat="64.34841667043919" lon="12.678958337379932" id="-38553">
		<tag k="name" v="Styggdalen" />
		<tag k="name:no" v="Styggdalen" />
		<tag k="natural" v="valley" />
		<tag k="place" v="locality" />
		<tag k="ssr:stedsnr" v="898253" />
	</node>
	<node lat="64.0065583345599" lon="12.364713890571997" id="-38554">
		<tag k="name" v="Hesthaugen" />
		<tag k="name:no" v="Hesthaugen" />
		<tag k="natural" v="hill" />
		<tag k="place" v="locality" />
		<tag k="ssr:stedsnr" v="898324" />
	</node>
	<node lat="64.38148888810188" lon="12.48869165646352" id="-38559">
		<tag k="name" v="Styggdalen" />
		<tag k="name:no" v="Styggdalen" />
		<tag k="natural" v="valley" />
		<tag k="place" v="locality" />
		<tag k="ssr:stedsnr" v="898383" />
	</node>
	<node lat="64.28960278183311" lon="12.215444436675021" id="-38566">
		<tag k="name" v="Lybergskaret" />
		<tag k="name:no" v="Lybergskaret" />
		<tag k="natural" v="valley" />
		<tag k="place" v="locality" />
		<tag k="ssr:stedsnr" v="898599" />
	</node>
	<node lat="64.34615555156587" lon="12.469869437687302" id="-38571">
		<tag k="name" v="Pluttjønnhøgda" />
		<tag k="name:no" v="Pluttjønnhøgda" />
		<tag k="natural" v="hill" />
		<tag k="place" v="locality" />
		<tag k="ssr:stedsnr" v="898894" />
	</node>
	<node lat="64.20745277476269" lon="12.60195277910168" id="-38573">
		<tag k="name" v="Storbakken" />
		<tag k="name:no" v="Storbakken" />
		<tag k="natural" v="slope" />
		<tag k="place" v="locality" />
		<tag k="ssr:stedsnr" v="898979" />
	</node>
	<node lat="64.23187777572664" lon="12.998172228841597" id="-38574">
		<tag k="fixme" v="consider natural=peak for the most distinct mountains in the district" />
		<tag k="name" v="Tverrelvklumpen" />
		<tag k="name:no" v="Tverrelvklumpen" />
		<tag k="natural" v="hill" />
		<tag k="place" v="locality" />
		<tag k="ssr:stedsnr" v="716003" />
	</node>
	<node lat="64.29164166541737" lon="12.429177770312668" id="-38575">
		<tag k="name" v="Seterlia" />
		<tag k="name:no" v="Seterlia" />
		<tag k="natural" v="slope" />
		<tag k="place" v="locality" />
		<tag k="ssr:stedsnr" v="716007" />
	</node>
	<node lat="64.20980277422989" lon="12.489363883359017" id="-38577">
		<tag k="name" v="Talgberget" />
		<tag k="name:no" v="Talgberget" />
		<tag k="natural" v="hill" />
		<tag k="place" v="locality" />
		<tag k="ssr:stedsnr" v="716030" />
	</node>
	<node lat="64.17020555814233" lon="12.53938888457929" id="-38579">
		<tag k="name" v="Slettomhalla" />
		<tag k="name:no" v="Slettomhalla" />
		<tag k="natural" v="hill" />
		<tag k="place" v="locality" />
		<tag k="ssr:stedsnr" v="716207" />
	</node>
	<node lat="64.25347221840177" lon="12.151622223777062" id="-38583">
		<tag k="name" v="Geilholet" />
		<tag k="name:no" v="Geilholet" />
		<tag k="natural" v="valley" />
		<tag k="place" v="locality" />
		<tag k="ssr:stedsnr" v="716314" />
	</node>
	<node lat="64.31180555554081" lon="12.622902768983515" id="-38584">
		<tag k="name" v="Storlia" />
		<tag k="name:no" v="Storlia" />
		<tag k="natural" v="slope" />
		<tag k="place" v="locality" />
		<tag k="ssr:stedsnr" v="716328" />
	</node>
	<node lat="64.06998333682995" lon="12.943252787564356" id="-38589">
		<tag k="name" v="Nordskaret" />
		<tag k="name:no" v="Nordskaret" />
		<tag k="natural" v="valley" />
		<tag k="place" v="locality" />
		<tag k="ssr:stedsnr" v="716496" />
	</node>
	<node lat="64.24785000001435" lon="12.163222224394493" id="-38591">
		<tag k="name" v="Kaupardalen" />
		<tag k="name:no" v="Kaupardalen" />
		<tag k="natural" v="valley" />
		<tag k="place" v="locality" />
		<tag k="ssr:stedsnr" v="716499" />
	</node>
	<node lat="64.32092222178957" lon="12.718799998498934" id="-38595">
		<tag k="name" v="Johannesfjellet" />
		<tag k="name:no" v="Johannesfjellet" />
		<tag k="natural" v="hill" />
		<tag k="place" v="locality" />
		<tag k="ssr:stedsnr" v="716584" />
	</node>
	<node lat="64.34213611430084" lon="12.770719441697352" id="-38596">
		<tag k="name" v="Kleivslettlian" />
		<tag k="name:no" v="Kleivslettlian" />
		<tag k="natural" v="slope" />
		<tag k="place" v="locality" />
		<tag k="ssr:stedsnr" v="716595" />
	</node>
	<node lat="64.30404444689151" lon="12.405722214983006" id="-38598">
		<tag k="name" v="Langvasshalla" />
		<tag k="name:no" v="Langvasshalla" />
		<tag k="natural" v="slope" />
		<tag k="place" v="locality" />
		<tag k="ssr:stedsnr" v="716717" />
	</node>
	<node lat="64.19171110742879" lon="12.533797227537393" id="-38602">
		<tag k="name" v="Hevelslettet" />
		<tag k="name:no" v="Hevelslettet" />
		<tag k="place" v="locality" />
		<tag k="ssr:stedsnr" v="899015" />
	</node>
	<node lat="64.23081666815536" lon="12.628775003006774" id="-38605">
		<tag k="fixme" v="consider natural=peak for the most distinct mountains in the district" />
		<tag k="name" v="Tortbakkåsen" />
		<tag k="name:no" v="Tortbakkåsen" />
		<tag k="natural" v="hill" />
		<tag k="place" v="locality" />
		<tag k="ssr:stedsnr" v="898991" />
	</node>
	<node lat="64.23586389031266" lon="12.559372222807706" id="-38609">
		<tag k="name" v="Nilskrua" />
		<tag k="name:no" v="Nilskrua" />
		<tag k="place" v="locality" />
		<tag k="ssr:stedsnr" v="716975" />
	</node>
	<node lat="64.1607666683422" lon="12.387197221834883" id="-38616">
		<tag k="name" v="Styggdalen" />
		<tag k="name:no" v="Styggdalen" />
		<tag k="natural" v="valley" />
		<tag k="place" v="locality" />
		<tag k="ssr:stedsnr" v="899240" />
	</node>
	<node lat="64.18149999826053" lon="12.535408337961115" id="-38617">
		<tag k="name" v="Seteråsen" />
		<tag k="name:no" v="Seteråsen" />
		<tag k="natural" v="slope" />
		<tag k="place" v="locality" />
		<tag k="ssr:stedsnr" v="899242" />
	</node>
	<node lat="64.3155999975634" lon="12.629725009857355" id="-38618">
		<tag k="name" v="Tjønndalen" />
		<tag k="name:no" v="Tjønndalen" />
		<tag k="natural" v="valley" />
		<tag k="place" v="locality" />
		<tag k="ssr:stedsnr" v="899314" />
	</node>
	<node lat="64.11917777492457" lon="12.440250005822142" id="-38621">
		<tag k="name" v="Storsteinlia" />
		<tag k="name:no" v="Storsteinlia" />
		<tag k="natural" v="slope" />
		<tag k="place" v="locality" />
		<tag k="ssr:stedsnr" v="899339" />
	</node>
	<node lat="64.21870000340425" lon="12.049922229819376" id="-38624">
		<tag k="name" v="Kolhusmoen" />
		<tag k="name:no" v="Kolhusmoen" />
		<tag k="place" v="locality" />
		<tag k="ssr:stedsnr" v="899439" />
	</node>
	<node lat="64.28288055132023" lon="12.691930562851761" id="-38626">
		<tag k="name" v="Seterlia" />
		<tag k="name:no" v="Seterlia" />
		<tag k="natural" v="slope" />
		<tag k="place" v="locality" />
		<tag k="ssr:stedsnr" v="899533" />
	</node>
	<node lat="64.27656944825165" lon="12.747949995331672" id="-38627">
		<tag k="name" v="Bjønngjøtlia" />
		<tag k="name:no" v="Bjønngjøtlia" />
		<tag k="natural" v="slope" />
		<tag k="place" v="locality" />
		<tag k="ssr:stedsnr" v="899541" />
	</node>
	<node lat="64.2483055566527" lon="12.636444441445049" id="-38629">
		<tag k="name" v="Skurslåttdalen" />
		<tag k="name:no" v="Skurslåttdalen" />
		<tag k="natural" v="valley" />
		<tag k="place" v="locality" />
		<tag k="ssr:stedsnr" v="899566" />
	</node>
	<node lat="64.17496944455358" lon="12.572919450138016" id="-38633">
		<tag k="name" v="Steinrønningen" />
		<tag k="name:no" v="Steinrønningen" />
		<tag k="natural" v="slope" />
		<tag k="place" v="locality" />
		<tag k="ssr:stedsnr" v="899962" />
	</node>
	<node lat="64.1791194422743" lon="12.613200004484522" id="-38634">
		<tag k="name" v="Rolegromet" />
		<tag k="name:no" v="Rolegromet" />
		<tag k="natural" v="slope" />
		<tag k="place" v="locality" />
		<tag k="ssr:stedsnr" v="899966" />
	</node>
	<node lat="64.1883194465115" lon="12.656541657875636" id="-38642">
		<tag k="name" v="Finnkjerringklumpen" />
		<tag k="name:no" v="Finnkjerringklumpen" />
		<tag k="natural" v="hill" />
		<tag k="place" v="locality" />
		<tag k="ssr:stedsnr" v="742500" />
	</node>
	<node lat="64.30073333014471" lon="12.206049992372941" id="-38643">
		<tag k="alt_name:no" v="Lybergskaret" />
		<tag k="name" v="Lybergskardet" />
		<tag k="name:no" v="Lybergskardet" />
		<tag k="natural" v="valley" />
		<tag k="place" v="locality" />
		<tag k="ssr:stedsnr" v="742603" />
	</node>
	<node lat="63.98424722456641" lon="12.698433332806394" id="-38644">
		<tag k="name" v="Høgsetlian" />
		<tag k="name:no" v="Høgsetlian" />
		<tag k="natural" v="slope" />
		<tag k="place" v="locality" />
		<tag k="ssr:stedsnr" v="742633" />
	</node>
	<node lat="64.15162500023371" lon="12.654033329204493" id="-38646">
		<tag k="name" v="Grønliklumpen" />
		<tag k="name:no" v="Grønliklumpen" />
		<tag k="natural" v="hill" />
		<tag k="place" v="locality" />
		<tag k="ssr:stedsnr" v="742540" />
	</node>
	<node lat="64.062538890513" lon="12.283991658996218" id="-38649">
		<tag k="fixme" v="consider natural=peak for the most distinct mountains in the district" />
		<tag k="name" v="Stordalsklumpen" />
		<tag k="name:no" v="Stordalsklumpen" />
		<tag k="natural" v="hill" />
		<tag k="place" v="locality" />
		<tag k="ssr:stedsnr" v="742596" />
	</node>
	<node lat="64.24319721881712" lon="12.899133336275339" id="-38655">
		<tag k="fixme" v="consider natural=peak for the most distinct mountains in the district" />
		<tag k="name" v="Storåsen" />
		<tag k="name:no" v="Storåsen" />
		<tag k="natural" v="hill" />
		<tag k="place" v="locality" />
		<tag k="ssr:stedsnr" v="742884" />
	</node>
	<node lat="64.01907777991434" lon="12.592733327694914" id="-38657">
		<tag k="name" v="Heinberget" />
		<tag k="name:no" v="Heinberget" />
		<tag k="natural" v="hill" />
		<tag k="place" v="locality" />
		<tag k="ssr:stedsnr" v="742889" />
	</node>
	<node lat="64.1019138911296" lon="12.8397805483631" id="-38661">
		<tag k="name" v="Dælislættet" />
		<tag k="name:no" v="Dælislættet" />
		<tag k="place" v="locality" />
		<tag k="ssr:stedsnr" v="742993" />
	</node>
	<node lat="64.09273055210829" lon="12.89689166296322" id="-38662">
		<tag k="fixme" v="consider natural=peak for the most distinct mountains in the district" />
		<tag k="name" v="Raudfjellet" />
		<tag k="name:no" v="Raudfjellet" />
		<tag k="natural" v="hill" />
		<tag k="place" v="locality" />
		<tag k="ssr:stedsnr" v="742995" />
	</node>
	<node lat="64.10314444768883" lon="13.114841660502167" id="-38663">
		<tag k="name" v="Stormoen" />
		<tag k="name:no" v="Stormoen" />
		<tag k="place" v="locality" />
		<tag k="ssr:stedsnr" v="742999" />
	</node>
	<node lat="63.97459722676205" lon="12.491161101969494" id="-38664">
		<tag k="name" v="Tjaerhvie" />
		<tag k="name:sma" v="Tjaerhvie" />
		<tag k="natural" v="mountain_range" />
		<tag k="ssr:stedsnr" v="748769" />
	</node>
	<node lat="64.1851694483096" lon="12.257975005697899" id="-38667">
		<tag k="name" v="Stigmyrdalen" />
		<tag k="name:no" v="Stigmyrdalen" />
		<tag k="natural" v="valley" />
		<tag k="place" v="locality" />
		<tag k="ssr:stedsnr" v="757303" />
	</node>
	<node lat="64.25133611016228" lon="12.529324991840198" id="-38678">
		<tag k="name" v="Djupdalen" />
		<tag k="name:no" v="Djupdalen" />
		<tag k="natural" v="valley" />
		<tag k="place" v="locality" />
		<tag k="ssr:stedsnr" v="757599" />
	</node>
	<node lat="64.28226944205097" lon="12.297866662730472" id="-38679">
		<tag k="name" v="Austerkleivan" />
		<tag k="name:no" v="Austerkleivan" />
		<tag k="natural" v="slope" />
		<tag k="place" v="locality" />
		<tag k="ssr:stedsnr" v="757447" />
	</node>
	<node lat="64.28053611202158" lon="12.37951389371708" id="-38680">
		<tag k="name" v="Bjørnslåtthaugen" />
		<tag k="name:no" v="Bjørnslåtthaugen" />
		<tag k="natural" v="hill" />
		<tag k="place" v="locality" />
		<tag k="ssr:stedsnr" v="757451" />
	</node>
	<node lat="64.28243333073888" lon="12.372333330052761" id="-38682">
		<tag k="name" v="Storbakken" />
		<tag k="name:no" v="Storbakken" />
		<tag k="natural" v="slope" />
		<tag k="place" v="locality" />
		<tag k="ssr:stedsnr" v="757457" />
	</node>
	<node lat="64.28282500419795" lon="12.387374996288663" id="-38683">
		<tag k="name" v="Bjørnslåttdalen" />
		<tag k="name:no" v="Bjørnslåttdalen" />
		<tag k="natural" v="valley" />
		<tag k="place" v="locality" />
		<tag k="ssr:stedsnr" v="757459" />
	</node>
	<node lat="64.23151388953525" lon="12.528047222375884" id="-38685">
		<tag k="name" v="Ølløvdalan" />
		<tag k="name:no" v="Ølløvdalan" />
		<tag k="natural" v="valley" />
		<tag k="place" v="locality" />
		<tag k="ssr:stedsnr" v="757496" />
	</node>
	<node lat="64.26436111004868" lon="12.601522223852303" id="-38686">
		<tag k="name" v="Svarttjønndalen" />
		<tag k="name:no" v="Svarttjønndalen" />
		<tag k="natural" v="valley" />
		<tag k="place" v="locality" />
		<tag k="ssr:stedsnr" v="757606" />
	</node>
	<node lat="64.29886944782515" lon="12.505077768180826" id="-38689">
		<tag k="name" v="Bjønnholet" />
		<tag k="name:no" v="Bjønnholet" />
		<tag k="natural" v="valley" />
		<tag k="place" v="locality" />
		<tag k="ssr:stedsnr" v="776112" />
	</node>
	<node lat="64.30939722226913" lon="12.44263888240134" id="-38690">
		<tag k="name" v="Nord-Brandthaugen" />
		<tag k="name:no" v="Nord-Brandthaugen" />
		<tag k="natural" v="hill" />
		<tag k="place" v="locality" />
		<tag k="ssr:stedsnr" v="776010" />
	</node>
	<node lat="64.35239166316724" lon="12.320686118101602" id="-38694">
		<tag k="name" v="Svartholet" />
		<tag k="name:no" v="Svartholet" />
		<tag k="natural" v="valley" />
		<tag k="place" v="locality" />
		<tag k="ssr:stedsnr" v="776062" />
	</node>
	<node lat="64.32677777812249" lon="12.481688884419805" id="-38698">
		<tag k="name" v="Styggdalen" />
		<tag k="name:no" v="Styggdalen" />
		<tag k="natural" v="valley" />
		<tag k="place" v="locality" />
		<tag k="ssr:stedsnr" v="776913" />
	</node>
	<node lat="64.22311944558244" lon="12.502916675985738" id="-38699">
		<tag k="name" v="Smølhaugen" />
		<tag k="name:no" v="Smølhaugen" />
		<tag k="natural" v="hill" />
		<tag k="place" v="locality" />
		<tag k="ssr:stedsnr" v="777004" />
	</node>
	<node lat="64.35368610792469" lon="12.362830554689282" id="-38702">
		<tag k="name" v="Blakkmyrhaugan" />
		<tag k="name:no" v="Blakkmyrhaugan" />
		<tag k="natural" v="hill" />
		<tag k="place" v="locality" />
		<tag k="ssr:stedsnr" v="777054" />
	</node>
	<node lat="64.2185916695971" lon="12.074872225271536" id="-38708">
		<tag k="name" v="Sandvikdalen" />
		<tag k="name:no" v="Sandvikdalen" />
		<tag k="natural" v="valley" />
		<tag k="place" v="locality" />
		<tag k="ssr:stedsnr" v="777460" />
	</node>
	<node lat="64.31546666512813" lon="12.678675004042214" id="-38711">
		<tag k="name" v="Hoberget" />
		<tag k="name:no" v="Hoberget" />
		<tag k="natural" v="hill" />
		<tag k="place" v="locality" />
		<tag k="ssr:stedsnr" v="777356" />
	</node>
	<node lat="64.14121944158845" lon="12.180886120144269" id="-38718">
		<tag k="fixme" v="consider natural=peak for the most distinct mountains in the district" />
		<tag k="name" v="Kammen" />
		<tag k="name:no" v="Kammen" />
		<tag k="natural" v="hill" />
		<tag k="place" v="locality" />
		<tag k="ssr:stedsnr" v="802323" />
	</node>
	<node lat="64.15999444905421" lon="12.326352773982" id="-38720">
		<tag k="name" v="Skarpbergflata" />
		<tag k="name:no" v="Skarpbergflata" />
		<tag k="place" v="locality" />
		<tag k="ssr:stedsnr" v="802605" />
	</node>
	<node lat="64.11115000104641" lon="12.200863887610925" id="-38723">
		<tag k="name" v="Merralia" />
		<tag k="name:no" v="Merralia" />
		<tag k="natural" v="slope" />
		<tag k="place" v="locality" />
		<tag k="ssr:stedsnr" v="803369" />
	</node>
	<node lat="64.2714333345837" lon="12.115113882082417" id="-38728">
		<tag k="fixme" v="consider natural=peak for the most distinct mountains in the district" />
		<tag k="name" v="Holemsfjellet" />
		<tag k="name:no" v="Holemsfjellet" />
		<tag k="natural" v="hill" />
		<tag k="place" v="locality" />
		<tag k="ssr:stedsnr" v="803619" />
	</node>
	<node lat="64.22282777405104" lon="12.271355559169345" id="-38736">
		<tag k="name" v="Bekkdalen" />
		<tag k="name:no" v="Bekkdalen" />
		<tag k="natural" v="valley" />
		<tag k="place" v="locality" />
		<tag k="ssr:stedsnr" v="818313" />
	</node>
	<node lat="64.22815277473488" lon="12.273602768976144" id="-38737">
		<tag k="name" v="Sveddiberga" />
		<tag k="name:no" v="Sveddiberga" />
		<tag k="natural" v="hill" />
		<tag k="place" v="locality" />
		<tag k="ssr:stedsnr" v="818318" />
	</node>
	<node lat="64.16275277929027" lon="12.711425005534283" id="-38743">
		<tag k="name" v="Rypklumpen" />
		<tag k="name:no" v="Rypklumpen" />
		<tag k="natural" v="hill" />
		<tag k="place" v="locality" />
		<tag k="ssr:stedsnr" v="924555" />
	</node>
	<node lat="64.28396111070619" lon="12.997275001385109" id="-38745">
		<tag k="name" v="Engalia" />
		<tag k="name:no" v="Engalia" />
		<tag k="natural" v="slope" />
		<tag k="place" v="locality" />
		<tag k="ssr:stedsnr" v="924238" />
	</node>
	<node lat="64.30559722430932" lon="12.727336121257023" id="-38747">
		<tag k="name" v="Grav" />
		<tag k="name:no" v="Grav" />
		<tag k="natural" v="valley" />
		<tag k="place" v="locality" />
		<tag k="ssr:stedsnr" v="924249" />
	</node>
	<node lat="64.352891669613" lon="13.125919440493728" id="-38750">
		<tag k="fixme" v="consider natural=peak for the most distinct mountains in the district" />
		<tag k="name" v="Bukvassfjellet" />
		<tag k="name:no" v="Bukvassfjellet" />
		<tag k="natural" v="hill" />
		<tag k="place" v="locality" />
		<tag k="ssr:stedsnr" v="924256" />
	</node>
	<node lat="64.3121305559415" lon="12.383955549630569" id="-38752">
		<tag k="name" v="Styggdalen" />
		<tag k="name:no" v="Styggdalen" />
		<tag k="natural" v="valley" />
		<tag k="place" v="locality" />
		<tag k="ssr:stedsnr" v="924263" />
	</node>
	<node lat="64.39366667019789" lon="12.768649990778309" id="-38755">
		<tag k="fixme" v="consider natural=peak for the most distinct mountains in the district" />
		<tag k="name" v="Dalvassklumpen" />
		<tag k="name:no" v="Dalvassklumpen" />
		<tag k="natural" v="hill" />
		<tag k="place" v="locality" />
		<tag k="ssr:stedsnr" v="924272" />
	</node>
	<node lat="64.34041111472061" lon="12.300902769802422" id="-38757">
		<tag k="name" v="Midtihatten" />
		<tag k="name:no" v="Midtihatten" />
		<tag k="natural" v="hill" />
		<tag k="place" v="locality" />
		<tag k="ssr:stedsnr" v="837013" />
	</node>
	<node lat="64.39725832897793" lon="12.68323889109155" id="-38758">
		<tag k="name" v="Larvtjønnfjellet" />
		<tag k="name:no" v="Larvtjønnfjellet" />
		<tag k="natural" v="hill" />
		<tag k="place" v="locality" />
		<tag k="ssr:stedsnr" v="837078" />
	</node>
	<node lat="64.30388333454498" lon="12.493913884808917" id="-38759">
		<tag k="name" v="Slåttdalen" />
		<tag k="name:no" v="Slåttdalen" />
		<tag k="natural" v="valley" />
		<tag k="place" v="locality" />
		<tag k="ssr:stedsnr" v="837092" />
	</node>
	<node lat="64.28394999584775" lon="12.28992500584594" id="-38761">
		<tag k="alt_name:no" v="Bruvollkjølen" />
		<tag k="fixme" v="consider natural=peak for the most distinct mountains in the district" />
		<tag k="name" v="Kjølen" />
		<tag k="name:no" v="Kjølen" />
		<tag k="natural" v="hill" />
		<tag k="place" v="locality" />
		<tag k="ssr:stedsnr" v="924347" />
	</node>
	<node lat="64.21393611319293" lon="12.488822229826113" id="-38766">
		<tag k="name" v="Veiemslia" />
		<tag k="name:no" v="Veiemslia" />
		<tag k="natural" v="slope" />
		<tag k="place" v="locality" />
		<tag k="ssr:stedsnr" v="838035" />
	</node>
	<node lat="64.29302222395503" lon="12.943813886840774" id="-38767">
		<tag k="name" v="Navluslia" />
		<tag k="name:no" v="Navluslia" />
		<tag k="natural" v="slope" />
		<tag k="place" v="locality" />
		<tag k="ssr:stedsnr" v="838082" />
	</node>
	<node lat="64.23918611229709" lon="12.667680563305833" id="-38773">
		<tag k="name" v="Auster-Seterlia" />
		<tag k="name:no" v="Auster-Seterlia" />
		<tag k="natural" v="slope" />
		<tag k="place" v="locality" />
		<tag k="ssr:stedsnr" v="837996" />
	</node>
	<node lat="64.36744167039046" lon="12.605808335653098" id="-38780">
		<tag k="name" v="Leirsjøåsen" />
		<tag k="name:no" v="Leirsjøåsen" />
		<tag k="natural" v="hill" />
		<tag k="place" v="locality" />
		<tag k="ssr:stedsnr" v="838505" />
	</node>
	<node lat="64.35600555366015" lon="12.628213882682584" id="-38781">
		<tag k="name" v="Lauvberget" />
		<tag k="name:no" v="Lauvberget" />
		<tag k="natural" v="hill" />
		<tag k="place" v="locality" />
		<tag k="ssr:stedsnr" v="838507" />
	</node>
	<node lat="64.25604721887817" lon="12.166413893479874" id="-38782">
		<tag k="name" v="Bjønnhidalen" />
		<tag k="name:no" v="Bjønnhidalen" />
		<tag k="natural" v="valley" />
		<tag k="place" v="locality" />
		<tag k="ssr:stedsnr" v="838527" />
	</node>
	<node lat="64.2612527779052" lon="12.165494453458427" id="-38783">
		<tag k="name" v="Ådalslia" />
		<tag k="name:no" v="Ådalslia" />
		<tag k="natural" v="slope" />
		<tag k="place" v="locality" />
		<tag k="ssr:stedsnr" v="838530" />
	</node>
	<node lat="64.2793305594417" lon="12.35419999898219" id="-38785">
		<tag k="fixme" v="consider natural=peak for the most distinct mountains in the district" />
		<tag k="name" v="Åsmulen" />
		<tag k="name:no" v="Åsmulen" />
		<tag k="natural" v="hill" />
		<tag k="place" v="locality" />
		<tag k="ssr:stedsnr" v="924356" />
	</node>
	<node lat="64.22572778217004" lon="12.037055557391481" id="-38789">
		<tag k="name" v="Heimdalen" />
		<tag k="name:no" v="Heimdalen" />
		<tag k="natural" v="valley" />
		<tag k="place" v="locality" />
		<tag k="ssr:stedsnr" v="838427" />
	</node>
	<node lat="64.22138333224014" lon="12.000836119689527" id="-38790">
		<tag k="fixme" v="consider natural=peak for the most distinct mountains in the district" />
		<tag k="name" v="Austerfjellet" />
		<tag k="name:no" v="Austerfjellet" />
		<tag k="natural" v="hill" />
		<tag k="place" v="locality" />
		<tag k="ssr:stedsnr" v="838478" />
	</node>
	<node lat="64.3013777806166" lon="12.312266674527542" id="-38794">
		<tag k="name" v="Arveliklumpen" />
		<tag k="name:no" v="Arveliklumpen" />
		<tag k="natural" v="hill" />
		<tag k="place" v="locality" />
		<tag k="ssr:stedsnr" v="838729" />
	</node>
	<node lat="64.05719999574221" lon="12.622000004596673" id="-38801">
		<tag k="name" v="Ryplia" />
		<tag k="name:no" v="Ryplia" />
		<tag k="natural" v="slope" />
		<tag k="place" v="locality" />
		<tag k="ssr:stedsnr" v="924594" />
	</node>
	<node lat="64.2647527821479" lon="12.672822218790667" id="-38804">
		<tag k="fixme" v="consider natural=peak for the most distinct mountains in the district" />
		<tag k="name" v="Middagsfjellet" />
		<tag k="name:no" v="Middagsfjellet" />
		<tag k="natural" v="hill" />
		<tag k="place" v="locality" />
		<tag k="ssr:stedsnr" v="839586" />
	</node>
	<node lat="64.25326667048975" lon="12.685608326528916" id="-38805">
		<tag k="name" v="Smålian" />
		<tag k="name:no" v="Smålian" />
		<tag k="natural" v="slope" />
		<tag k="place" v="locality" />
		<tag k="ssr:stedsnr" v="839588" />
	</node>
	<node lat="63.98352221833773" lon="12.582077770223755" id="-38808">
		<tag k="alt_name:no" v="Reinsgardbakken" />
		<tag k="name" v="Reinsgardbakkan" />
		<tag k="name:no" v="Reinsgardbakkan" />
		<tag k="natural" v="slope" />
		<tag k="place" v="locality" />
		<tag k="ssr:stedsnr" v="924638" />
	</node>
	<node lat="63.99334444594615" lon="12.402805555730358" id="-38810">
		<tag k="name" v="Grønhaugen" />
		<tag k="name:no" v="Grønhaugen" />
		<tag k="natural" v="hill" />
		<tag k="place" v="locality" />
		<tag k="ssr:stedsnr" v="924657" />
	</node>
	<node lat="64.05123888657984" lon="12.83271665624493" id="-38814">
		<tag k="name" v="Vakkerlia" />
		<tag k="name:no" v="Vakkerlia" />
		<tag k="natural" v="slope" />
		<tag k="place" v="locality" />
		<tag k="ssr:stedsnr" v="924737" />
	</node>
	<node lat="64.06716944486452" lon="12.983416663028567" id="-38817">
		<tag k="name" v="Linbakkan" />
		<tag k="name:no" v="Linbakkan" />
		<tag k="natural" v="slope" />
		<tag k="place" v="locality" />
		<tag k="ssr:stedsnr" v="924752" />
	</node>
	<node lat="64.12081388855543" lon="13.186516665751999" id="-38821">
		<tag k="fixme" v="multiple name tags, choose one and add the other to alt_name; consider natural=peak for the most distinct mountains in the district" />
		<tag k="name" v="Voenjelåelkie - Nordre Gjevsjøhatten;Gjevsjøhatten" />
		<tag k="name:no" v="Nordre Gjevsjøhatten;Gjevsjøhatten" />
		<tag k="name:sma" v="Voenjelåelkie" />
		<tag k="natural" v="hill" />
		<tag k="place" v="locality" />
		<tag k="ssr:stedsnr" v="924937" />
	</node>
	<node lat="64.10824166562794" lon="12.880424996842267" id="-38823">
		<tag k="name" v="Hurrhattslættet" />
		<tag k="name:no" v="Hurrhattslættet" />
		<tag k="place" v="locality" />
		<tag k="ssr:stedsnr" v="924941" />
	</node>
	<node lat="64.11231944254718" lon="13.127569452866748" id="-38825">
		<tag k="name" v="Fjellslættet" />
		<tag k="name:no" v="Fjellslættet" />
		<tag k="place" v="locality" />
		<tag k="ssr:stedsnr" v="924979" />
	</node>
	<node lat="64.11951667110289" lon="13.072227773292386" id="-38827">
		<tag k="name" v="Bjørkhaugen" />
		<tag k="name:no" v="Bjørkhaugen" />
		<tag k="natural" v="hill" />
		<tag k="place" v="locality" />
		<tag k="ssr:stedsnr" v="924984" />
	</node>
	<node lat="64.29717500190995" lon="12.481836106117779" id="-38839">
		<tag k="name" v="Langvasslia" />
		<tag k="name:no" v="Langvasslia" />
		<tag k="natural" v="slope" />
		<tag k="place" v="locality" />
		<tag k="ssr:stedsnr" v="863403" />
	</node>
	<node lat="64.33627777675453" lon="12.287974990728681" id="-38841">
		<tag k="fixme" v="consider natural=peak for the most distinct mountains in the district" />
		<tag k="name" v="Raudsjøhatten" />
		<tag k="name:no" v="Raudsjøhatten" />
		<tag k="natural" v="hill" />
		<tag k="place" v="locality" />
		<tag k="ssr:stedsnr" v="863445" />
	</node>
	<node lat="63.93480555630415" lon="12.427572228718399" id="-38848">
		<tag k="name" v="Skjækerfjella - Skæhkere" />
		<tag k="name:no" v="Skjækerfjella" />
		<tag k="name:sma" v="Skæhkere" />
		<tag k="natural" v="mountain_range" />
		<tag k="ssr:stedsnr" v="863705" />
	</node>
	<node lat="64.12330555513212" lon="13.027494436658028" id="-38850">
		<tag k="fixme" v="consider natural=peak for the most distinct mountains in the district" />
		<tag k="name" v="Litlfjellet" />
		<tag k="name:no" v="Litlfjellet" />
		<tag k="natural" v="hill" />
		<tag k="place" v="locality" />
		<tag k="ssr:stedsnr" v="863943" />
	</node>
	<node lat="63.99569444288112" lon="12.62425834172735" id="-38859">
		<tag k="name" v="Speallehkenbåvne" />
		<tag k="name:sma" v="Speallehkenbåvne" />
		<tag k="natural" v="slope" />
		<tag k="place" v="locality" />
		<tag k="ssr:stedsnr" v="931753" />
	</node>
	<node lat="64.27421666556046" lon="12.17831389823665" id="-38860">
		<tag k="name" v="Gråklumpan" />
		<tag k="name:no" v="Gråklumpan" />
		<tag k="natural" v="hill" />
		<tag k="place" v="locality" />
		<tag k="ssr:stedsnr" v="876201" />
	</node>
	<node lat="64.20940833475821" lon="12.210036121101748" id="-38864">
		<tag k="name" v="Bjørnkleivdalen" />
		<tag k="name:no" v="Bjørnkleivdalen" />
		<tag k="natural" v="valley" />
		<tag k="place" v="locality" />
		<tag k="ssr:stedsnr" v="879309" />
	</node>
	<node lat="64.20692500193599" lon="12.253966663765684" id="-38865">
		<tag k="name" v="Svartmyrhaugen" />
		<tag k="name:no" v="Svartmyrhaugen" />
		<tag k="natural" v="hill" />
		<tag k="place" v="locality" />
		<tag k="ssr:stedsnr" v="879312" />
	</node>
	<node lat="64.18095278154246" lon="12.32993610612774" id="-38869">
		<tag k="name" v="Melan" />
		<tag k="name:no" v="Melan" />
		<tag k="place" v="locality" />
		<tag k="ssr:stedsnr" v="879355" />
	</node>
	<node lat="64.20605277674112" lon="12.199719439317123" id="-38872">
		<tag k="name" v="Svartflekken" />
		<tag k="name:no" v="Svartflekken" />
		<tag k="place" v="locality" />
		<tag k="ssr:stedsnr" v="879302" />
	</node>
	<node lat="64.21104166835175" lon="12.404713891484379" id="-38874">
		<tag k="name" v="Kleiva" />
		<tag k="name:no" v="Kleiva" />
		<tag k="natural" v="hill" />
		<tag k="place" v="locality" />
		<tag k="ssr:stedsnr" v="879414" />
	</node>
	<node lat="64.22448333041773" lon="12.436869441109994" id="-38878">
		<tag k="name" v="Styggdalen" />
		<tag k="name:no" v="Styggdalen" />
		<tag k="natural" v="valley" />
		<tag k="place" v="locality" />
		<tag k="ssr:stedsnr" v="879460" />
	</node>
	<node lat="64.20441944697343" lon="12.354775008505575" id="-38880">
		<tag k="name" v="Hoberget" />
		<tag k="name:no" v="Hoberget" />
		<tag k="natural" v="hill" />
		<tag k="place" v="locality" />
		<tag k="ssr:stedsnr" v="879401" />
	</node>
	<node lat="64.28017222095413" lon="12.573627773156016" id="-38881">
		<tag k="name" v="Stormoen" />
		<tag k="name:no" v="Stormoen" />
		<tag k="place" v="locality" />
		<tag k="ssr:stedsnr" v="879601" />
	</node>
	<node lat="64.30259444559364" lon="12.445600002223737" id="-38886">
		<tag k="name" v="Slåttdalen" />
		<tag k="name:no" v="Slåttdalen" />
		<tag k="natural" v="valley" />
		<tag k="place" v="locality" />
		<tag k="ssr:stedsnr" v="898007" />
	</node>
	<node lat="64.17408889026845" lon="12.274052774545684" id="-38892">
		<tag k="name" v="Brattlia" />
		<tag k="name:no" v="Brattlia" />
		<tag k="natural" v="slope" />
		<tag k="place" v="locality" />
		<tag k="ssr:stedsnr" v="898457" />
	</node>
	<node lat="64.30429166819395" lon="12.275327787265276" id="-38894">
		<tag k="name" v="Damhaugen" />
		<tag k="name:no" v="Damhaugen" />
		<tag k="natural" v="hill" />
		<tag k="place" v="locality" />
		<tag k="ssr:stedsnr" v="898562" />
	</node>
	<node lat="63.977774996447444" lon="12.361000003142431" id="-38900">
		<tag k="name" v="Svarthaugen" />
		<tag k="name:no" v="Svarthaugen" />
		<tag k="natural" v="hill" />
		<tag k="place" v="locality" />
		<tag k="ssr:stedsnr" v="898657" />
	</node>
	<node lat="64.10824444326084" lon="13.093191663888476" id="-38903">
		<tag k="name" v="Livsjøhaugan" />
		<tag k="name:no" v="Livsjøhaugan" />
		<tag k="natural" v="hill" />
		<tag k="place" v="locality" />
		<tag k="ssr:stedsnr" v="899054" />
	</node>
	<node lat="63.99756388544059" lon="12.706597221718804" id="-38904">
		<tag k="name" v="Midtimoen" />
		<tag k="name:no" v="Midtimoen" />
		<tag k="place" v="locality" />
		<tag k="ssr:stedsnr" v="899213" />
	</node>
	<node lat="64.270766665015" lon="12.664055548066509" id="-38908">
		<tag k="name" v="Svartberget" />
		<tag k="name:no" v="Svartberget" />
		<tag k="natural" v="hill" />
		<tag k="place" v="locality" />
		<tag k="ssr:stedsnr" v="899605" />
	</node>
	<node lat="64.2797944417592" lon="12.667216675210403" id="-38909">
		<tag k="name" v="Haldorhaugen" />
		<tag k="name:no" v="Haldorhaugen" />
		<tag k="natural" v="hill" />
		<tag k="place" v="locality" />
		<tag k="ssr:stedsnr" v="899608" />
	</node>
	<node lat="64.26142222095457" lon="12.678808342241163" id="-38915">
		<tag k="fixme" v="consider natural=peak for the most distinct mountains in the district" />
		<tag k="name" v="Tjurrudalsfjella" />
		<tag k="name:no" v="Tjurrudalsfjella" />
		<tag k="natural" v="hill" />
		<tag k="place" v="locality" />
		<tag k="ssr:stedsnr" v="924325" />
	</node>
	<node lat="64.22945278043244" lon="12.13768334313228" id="-38916">
		<tag k="fixme" v="consider natural=peak for the most distinct mountains in the district" />
		<tag k="name" v="Skuta" />
		<tag k="name:no" v="Skuta" />
		<tag k="natural" v="hill" />
		<tag k="place" v="locality" />
		<tag k="ssr:stedsnr" v="924342" />
	</node>
	<node lat="64.39657778027829" lon="12.464352774094014" id="-38918">
		<tag k="fixme" v="consider natural=peak for the most distinct mountains in the district" />
		<tag k="name" v="Kvithevlan" />
		<tag k="natural" v="hill" />
		<tag k="place" v="locality" />
		<tag k="ssr:stedsnr" v="924414" />
	</node>
	<node lat="64.24658333693729" lon="12.737736115824607" id="-38930">
		<tag k="alt_name:no" v="Øyingsfjellet, nordre;Øyingsfjellet" />
		<tag k="fixme" v="consider natural=peak for the most distinct mountains in the district" />
		<tag k="name" v="Nord-Øyingsfjellet" />
		<tag k="name:no" v="Nord-Øyingsfjellet" />
		<tag k="natural" v="hill" />
		<tag k="place" v="locality" />
		<tag k="ssr:stedsnr" v="924864" />
	</node>
	<node lat="64.20933055522414" lon="12.235369436830462" id="-38937">
		<tag k="name" v="Finnsåsberga" />
		<tag k="name:no" v="Finnsåsberga" />
		<tag k="natural" v="hill" />
		<tag k="place" v="locality" />
		<tag k="ssr:stedsnr" v="939330" />
	</node>
	<node lat="64.20510277610455" lon="12.26745278457938" id="-38938">
		<tag k="name" v="Blokkaberget" />
		<tag k="name:no" v="Blokkaberget" />
		<tag k="natural" v="hill" />
		<tag k="place" v="locality" />
		<tag k="ssr:stedsnr" v="939331" />
	</node>
	<node lat="64.2352361083907" lon="12.299622218445968" id="-38943">
		<tag k="name" v="Svartmoen" />
		<tag k="name:no" v="Svartmoen" />
		<tag k="place" v="locality" />
		<tag k="ssr:stedsnr" v="939391" />
	</node>
	<node lat="64.2199388861856" lon="12.311997218121043" id="-38944">
		<tag k="name" v="Småskogan" />
		<tag k="name:no" v="Småskogan" />
		<tag k="place" v="locality" />
		<tag k="ssr:stedsnr" v="939437" />
	</node>
	<node lat="64.3036250022846" lon="12.512433337770242" id="-38956">
		<tag k="name" v="Haukberget" />
		<tag k="name:no" v="Haukberget" />
		<tag k="natural" v="hill" />
		<tag k="place" v="locality" />
		<tag k="ssr:stedsnr" v="958114" />
	</node>
	<node lat="64.23869166305879" lon="12.590141668068876" id="-38963">
		<tag k="name" v="Raudberget" />
		<tag k="name:no" v="Raudberget" />
		<tag k="natural" v="hill" />
		<tag k="place" v="locality" />
		<tag k="ssr:stedsnr" v="958987" />
	</node>
	<node lat="64.16438055700092" lon="12.418933331978245" id="-38965">
		<tag k="name" v="Langbekkdalen" />
		<tag k="name:no" v="Langbekkdalen" />
		<tag k="natural" v="valley" />
		<tag k="place" v="locality" />
		<tag k="ssr:stedsnr" v="959193" />
	</node>
	<node lat="64.01773610821813" lon="12.355291675084421" id="-38969">
		<tag k="name" v="Preikstolen" />
		<tag k="name:no" v="Preikstolen" />
		<tag k="natural" v="hill" />
		<tag k="place" v="locality" />
		<tag k="ssr:stedsnr" v="959307" />
	</node>
	<node lat="64.33073611509923" lon="12.567269447315597" id="-38971">
		<tag k="name" v="Torkollåsan" />
		<tag k="name:no" v="Torkollåsan" />
		<tag k="natural" v="slope" />
		<tag k="place" v="locality" />
		<tag k="ssr:stedsnr" v="959225" />
	</node>
	<node lat="64.21847222478179" lon="12.036294452638463" id="-38972">
		<tag k="name" v="Stien" />
		<tag k="name:no" v="Stien" />
		<tag k="natural" v="hill" />
		<tag k="place" v="locality" />
		<tag k="ssr:stedsnr" v="959386" />
	</node>
	<node lat="64.40457775989665" lon="12.78632475638304" id="-39002">
		<tag k="name" v="Dalvassfjellet" />
		<tag k="natural" v="mountain_range" />
		<tag k="ssr:stedsnr" v="974749" />
	</node>
	<node lat="64.25966666287827" lon="12.98154443908612" id="-39011">
		<tag k="name" v="Jakobinegrubba" />
		<tag k="name:no" v="Jakobinegrubba" />
		<tag k="natural" v="valley" />
		<tag k="place" v="locality" />
		<tag k="ssr:stedsnr" v="13236" />
	</node>
	<node lat="64.28667777365277" lon="11.98757499061404" id="-39020">
		<tag k="alt_name:no" v="Bognsjøheia" />
		<tag k="fixme" v="consider natural=peak for the most distinct mountains in the district" />
		<tag k="name" v="Bangsjøheia" />
		<tag k="name:no" v="Bangsjøheia" />
		<tag k="natural" v="hill" />
		<tag k="place" v="locality" />
		<tag k="ssr:stedsnr" v="13633" />
	</node>
	<node lat="64.31922500259309" lon="12.37913611800118" id="-39024">
		<tag k="name" v="Brenna" />
		<tag k="name:no" v="Brenna" />
		<tag k="natural" v="plateau" />
		<tag k="ssr:stedsnr" v="14226" />
	</node>
	<node lat="64.1575388848736" lon="12.202819445846348" id="-39025">
		<tag k="fixme" v="consider natural=peak for the most distinct mountains in the district" />
		<tag k="name" v="Jørstadfjellet" />
		<tag k="name:no" v="Jørstadfjellet" />
		<tag k="natural" v="hill" />
		<tag k="place" v="locality" />
		<tag k="ssr:stedsnr" v="14229" />
	</node>
	<node lat="64.13420555845583" lon="13.120308336465659" id="-39031">
		<tag k="name" v="Gåstjønnhevlan" />
		<tag k="name:no" v="Gåstjønnhevlan" />
		<tag k="natural" v="hill" />
		<tag k="place" v="locality" />
		<tag k="ssr:stedsnr" v="13940" />
	</node>
	<node lat="64.20305000085472" lon="12.641394438803824" id="-39040">
		<tag k="name" v="Kvilalia" />
		<tag k="name:no" v="Kvilalia" />
		<tag k="natural" v="slope" />
		<tag k="place" v="locality" />
		<tag k="ssr:stedsnr" v="14452" />
	</node>
	<node lat="64.33422221921101" lon="12.213141661870926" id="-39043">
		<tag k="fixme" v="consider natural=peak for the most distinct mountains in the district" />
		<tag k="name" v="Nonsfjellet" />
		<tag k="name:no" v="Nonsfjellet" />
		<tag k="natural" v="hill" />
		<tag k="place" v="locality" />
		<tag k="ssr:stedsnr" v="14526" />
	</node>
	<node lat="64.13557499771719" lon="12.502752767828385" id="-39044">
		<tag k="name" v="Kjevlia" />
		<tag k="name:no" v="Kjevlia" />
		<tag k="natural" v="slope" />
		<tag k="place" v="locality" />
		<tag k="ssr:stedsnr" v="14530" />
	</node>
	<node lat="64.07819444425688" lon="12.559575001598251" id="-39047">
		<tag k="fixme" v="consider natural=peak for the most distinct mountains in the district" />
		<tag k="name" v="Tjåalhte - Mefjellet" />
		<tag k="name:no" v="Mefjellet" />
		<tag k="name:sma" v="Tjåalhte" />
		<tag k="natural" v="hill" />
		<tag k="place" v="locality" />
		<tag k="ssr:stedsnr" v="14544" />
	</node>
	<node lat="64.10873055531056" lon="12.451986110605063" id="-39048">
		<tag k="fixme" v="consider natural=peak for the most distinct mountains in the district" />
		<tag k="name" v="Vollsfjellet" />
		<tag k="name:no" v="Vollsfjellet" />
		<tag k="natural" v="hill" />
		<tag k="place" v="locality" />
		<tag k="ssr:stedsnr" v="14555" />
	</node>
	<node lat="64.23300277957938" lon="12.56921389153867" id="-39055">
		<tag k="name" v="Hesthaugen" />
		<tag k="name:no" v="Hesthaugen" />
		<tag k="natural" v="hill" />
		<tag k="place" v="locality" />
		<tag k="ssr:stedsnr" v="14686" />
	</node>
	<node lat="64.01354999889813" lon="12.481869451000248" id="-39057">
		<tag k="fixme" v="consider natural=peak for the most distinct mountains in the district" />
		<tag k="name" v="Huvhpie - Skjækerhatten" />
		<tag k="name:no" v="Skjækerhatten" />
		<tag k="name:sma" v="Huvhpie" />
		<tag k="natural" v="hill" />
		<tag k="place" v="locality" />
		<tag k="ssr:stedsnr" v="14884" />
	</node>
	<node lat="64.18403889044174" lon="12.807319444152666" id="-39062">
		<tag k="fixme" v="consider natural=peak for the most distinct mountains in the district" />
		<tag k="name" v="Kolvklumpen" />
		<tag k="name:no" v="Kolvklumpen" />
		<tag k="natural" v="hill" />
		<tag k="place" v="locality" />
		<tag k="ssr:stedsnr" v="14892" />
	</node>
	<node lat="64.09594245466192" lon="13.212414398852179" id="-39063">
		<tag k="fixme" v="consider natural=peak for the most distinct mountains in the district" />
		<tag k="name" v="Søre Gjevsjøhatten - Luspie" />
		<tag k="name:no" v="Søre Gjevsjøhatten" />
		<tag k="name:sma" v="Luspie" />
		<tag k="natural" v="hill" />
		<tag k="place" v="locality" />
		<tag k="ssr:stedsnr" v="14987" />
	</node>
	<node lat="64.23741388725631" lon="12.428999989536228" id="-39073">
		<tag k="name" v="Hustruhaugen" />
		<tag k="name:no" v="Hustruhaugen" />
		<tag k="natural" v="hill" />
		<tag k="place" v="locality" />
		<tag k="ssr:stedsnr" v="29498" />
	</node>
	<node lat="64.12946944142524" lon="12.781458340532835" id="-39074">
		<tag k="name" v="Finnlia" />
		<tag k="name:no" v="Finnlia" />
		<tag k="natural" v="slope" />
		<tag k="place" v="locality" />
		<tag k="ssr:stedsnr" v="29597" />
	</node>
	<node lat="64.27562222584915" lon="12.229224997479704" id="-39076">
		<tag k="name" v="Fiskløysdalen" />
		<tag k="name:no" v="Fiskløysdalen" />
		<tag k="natural" v="valley" />
		<tag k="place" v="locality" />
		<tag k="ssr:stedsnr" v="29348" />
	</node>
	<node lat="64.28064167120435" lon="12.276222217249343" id="-39077">
		<tag k="name" v="Geitkløyvdalen" />
		<tag k="name:no" v="Geitkløyvdalen" />
		<tag k="natural" v="valley" />
		<tag k="place" v="locality" />
		<tag k="ssr:stedsnr" v="29350" />
	</node>
	<node lat="64.28386666494261" lon="12.524544447918844" id="-39080">
		<tag k="name" v="Berga" />
		<tag k="name:no" v="Berga" />
		<tag k="natural" v="hill" />
		<tag k="place" v="locality" />
		<tag k="ssr:stedsnr" v="29551" />
	</node>
	<node lat="64.2620444444457" lon="12.0000916577686" id="-39081">
		<tag k="name" v="Skårheia" />
		<tag k="name:no" v="Skårheia" />
		<tag k="natural" v="hill" />
		<tag k="place" v="locality" />
		<tag k="ssr:stedsnr" v="49205" />
	</node>
	<node lat="64.17640833241755" lon="12.500527768711944" id="-39082">
		<tag k="name" v="Fagerlia" />
		<tag k="name:no" v="Fagerlia" />
		<tag k="natural" v="slope" />
		<tag k="place" v="locality" />
		<tag k="ssr:stedsnr" v="49216" />
	</node>
	<node lat="64.23239444295201" lon="12.008677772790294" id="-39083">
		<tag k="name" v="Grandalen" />
		<tag k="name:no" v="Grandalen" />
		<tag k="natural" v="valley" />
		<tag k="place" v="locality" />
		<tag k="ssr:stedsnr" v="48398" />
	</node>
	<node lat="64.35272499760757" lon="12.416263897321343" id="-39086">
		<tag k="name" v="Prestsletthaugan" />
		<tag k="name:no" v="Prestsletthaugan" />
		<tag k="natural" v="hill" />
		<tag k="place" v="locality" />
		<tag k="ssr:stedsnr" v="48042" />
	</node>
	<node lat="64.3105444488057" lon="12.536086116359012" id="-39089">
		<tag k="name" v="Neshaugen" />
		<tag k="name:no" v="Neshaugen" />
		<tag k="natural" v="hill" />
		<tag k="place" v="locality" />
		<tag k="ssr:stedsnr" v="48066" />
	</node>
	<node lat="64.31473333555878" lon="12.430769436801928" id="-39093">
		<tag k="name" v="Grønlia" />
		<tag k="name:no" v="Grønlia" />
		<tag k="natural" v="slope" />
		<tag k="place" v="locality" />
		<tag k="ssr:stedsnr" v="48087" />
	</node>
	<node lat="64.24733888719219" lon="12.151075009686418" id="-39097">
		<tag k="name" v="Storhaugen" />
		<tag k="name:no" v="Storhaugen" />
		<tag k="natural" v="hill" />
		<tag k="place" v="locality" />
		<tag k="ssr:stedsnr" v="48278" />
	</node>
	<node lat="64.26646111511656" lon="12.21738055952392" id="-39102">
		<tag k="name" v="Pemperdalen" />
		<tag k="name:no" v="Pemperdalen" />
		<tag k="natural" v="valley" />
		<tag k="place" v="locality" />
		<tag k="ssr:stedsnr" v="48567" />
	</node>
	<node lat="64.34181666889118" lon="12.376319446629228" id="-39104">
		<tag k="name" v="Hesjedrolhaugen" />
		<tag k="name:no" v="Hesjedrolhaugen" />
		<tag k="natural" v="hill" />
		<tag k="place" v="locality" />
		<tag k="ssr:stedsnr" v="48800" />
	</node>
	<node lat="64.23291944885796" lon="12.627513884400672" id="-39105">
		<tag k="name" v="Grubba" />
		<tag k="name:no" v="Grubba" />
		<tag k="natural" v="valley" />
		<tag k="place" v="locality" />
		<tag k="ssr:stedsnr" v="48981" />
	</node>
	<node lat="64.33738888543357" lon="12.51630278450048" id="-39106">
		<tag k="name" v="Stammyrhaugen" />
		<tag k="name:no" v="Stammyrhaugen" />
		<tag k="natural" v="hill" />
		<tag k="place" v="locality" />
		<tag k="ssr:stedsnr" v="48984" />
	</node>
	<node lat="64.23527777667165" lon="12.642758333884444" id="-39107">
		<tag k="name" v="Vester-Seterlia" />
		<tag k="name:no" v="Vester-Seterlia" />
		<tag k="natural" v="slope" />
		<tag k="place" v="locality" />
		<tag k="ssr:stedsnr" v="48987" />
	</node>
	<node lat="64.2363611130232" lon="12.6633250001251" id="-39108">
		<tag k="name" v="Høgmåssåhaugen" />
		<tag k="name:no" v="Høgmåssåhaugen" />
		<tag k="natural" v="hill" />
		<tag k="place" v="locality" />
		<tag k="ssr:stedsnr" v="48994" />
	</node>
	<node lat="64.21171388809788" lon="12.44433610627637" id="-39109">
		<tag k="name" v="Hollenderholet" />
		<tag k="name:no" v="Hollenderholet" />
		<tag k="place" v="locality" />
		<tag k="ssr:stedsnr" v="49041" />
	</node>
	<node lat="64.1319638901454" lon="12.485519441506764" id="-39110">
		<tag k="name" v="Karilia" />
		<tag k="name:no" v="Karilia" />
		<tag k="natural" v="slope" />
		<tag k="place" v="locality" />
		<tag k="ssr:stedsnr" v="49385" />
	</node>
	<node lat="64.3147166685645" lon="12.664944452741285" id="-39112">
		<tag k="name" v="Storhaugen" />
		<tag k="name:no" v="Storhaugen" />
		<tag k="natural" v="hill" />
		<tag k="place" v="locality" />
		<tag k="ssr:stedsnr" v="49411" />
	</node>
	<node lat="64.17976944683737" lon="12.358341672681034" id="-39116">
		<tag k="name" v="Leikarbakken" />
		<tag k="name:no" v="Leikarbakken" />
		<tag k="natural" v="slope" />
		<tag k="place" v="locality" />
		<tag k="ssr:stedsnr" v="49282" />
	</node>
	<node lat="64.21287222181047" lon="12.053752785744484" id="-39122">
		<tag k="name" v="Åsen" />
		<tag k="name:no" v="Åsen" />
		<tag k="natural" v="hill" />
		<tag k="place" v="locality" />
		<tag k="ssr:stedsnr" v="49469" />
	</node>
	<node lat="64.16257777645967" lon="12.16793332611072" id="-39126">
		<tag k="name" v="Korsmærknulen" />
		<tag k="name:no" v="Korsmærknulen" />
		<tag k="natural" v="hill" />
		<tag k="place" v="locality" />
		<tag k="ssr:stedsnr" v="49493" />
	</node>
	<node lat="64.26041111065395" lon="12.221869447931775" id="-39128">
		<tag k="fixme" v="consider natural=peak for the most distinct mountains in the district" />
		<tag k="name" v="Lautin" />
		<tag k="name:no" v="Lautin" />
		<tag k="natural" v="hill" />
		<tag k="place" v="locality" />
		<tag k="ssr:stedsnr" v="49528" />
	</node>
	<node lat="64.3246694470629" lon="12.73926667485156" id="-39132">
		<tag k="name" v="Bjørkliklumpen" />
		<tag k="name:no" v="Bjørkliklumpen" />
		<tag k="natural" v="hill" />
		<tag k="place" v="locality" />
		<tag k="ssr:stedsnr" v="49614" />
	</node>
	<node lat="64.2699833288446" lon="12.642216676157094" id="-39133">
		<tag k="name" v="Storhaugen" />
		<tag k="name:no" v="Storhaugen" />
		<tag k="natural" v="hill" />
		<tag k="place" v="locality" />
		<tag k="ssr:stedsnr" v="49633" />
	</node>
	<node lat="64.25122752187457" lon="12.59412356105671" id="-39146">
		<tag k="fixme" v="consider natural=peak for the most distinct mountains in the district" />
		<tag k="name" v="Mollanåsen" />
		<tag k="name:no" v="Mollanåsen" />
		<tag k="natural" v="hill" />
		<tag k="place" v="locality" />
		<tag k="ssr:stedsnr" v="74347" />
	</node>
	<node lat="64.37350000445599" lon="12.713583330498468" id="-39147">
		<tag k="fixme" v="consider natural=peak for the most distinct mountains in the district" />
		<tag k="name" v="Stugguåsen" />
		<tag k="name:no" v="Stugguåsen" />
		<tag k="natural" v="hill" />
		<tag k="place" v="locality" />
		<tag k="ssr:stedsnr" v="74422" />
	</node>
	<node lat="64.16149444424236" lon="12.146361108476954" id="-39148">
		<tag k="name" v="Permyrlia" />
		<tag k="name:no" v="Permyrlia" />
		<tag k="natural" v="slope" />
		<tag k="place" v="locality" />
		<tag k="ssr:stedsnr" v="74441" />
	</node>
	<node lat="64.05496111258657" lon="12.528983325800018" id="-39159">
		<tag k="fixme" v="consider natural=peak for the most distinct mountains in the district" />
		<tag k="name" v="Rihkedetjahke - Skjækerskaftet" />
		<tag k="name:no" v="Skjækerskaftet" />
		<tag k="name:sma" v="Rihkedetjahke" />
		<tag k="natural" v="hill" />
		<tag k="place" v="locality" />
		<tag k="ssr:stedsnr" v="74621" />
	</node>
	<node lat="64.28022499589791" lon="12.053616656489675" id="-39160">
		<tag k="name" v="Dettfosshøgda" />
		<tag k="name:no" v="Dettfosshøgda" />
		<tag k="natural" v="hill" />
		<tag k="place" v="locality" />
		<tag k="ssr:stedsnr" v="74627" />
	</node>
	<node lat="64.22128332958839" lon="12.365675006974358" id="-39163">
		<tag k="name" v="Lian" />
		<tag k="name:no" v="Lian" />
		<tag k="natural" v="slope" />
		<tag k="place" v="locality" />
		<tag k="ssr:stedsnr" v="74713" />
	</node>
	<node lat="64.03815000264512" lon="12.636413888991838" id="-39168">
		<tag k="name" v="Stormoen" />
		<tag k="name:no" v="Stormoen" />
		<tag k="place" v="locality" />
		<tag k="ssr:stedsnr" v="74885" />
	</node>
	<node lat="64.31457777895868" lon="13.016772224076664" id="-39173">
		<tag k="name" v="Mårberget" />
		<tag k="name:no" v="Mårberget" />
		<tag k="natural" v="hill" />
		<tag k="place" v="locality" />
		<tag k="ssr:stedsnr" v="75281" />
	</node>
	<node lat="64.21616944263658" lon="12.583561110435936" id="-39174">
		<tag k="name" v="Vakthaugen" />
		<tag k="name:no" v="Vakthaugen" />
		<tag k="natural" v="hill" />
		<tag k="place" v="locality" />
		<tag k="ssr:stedsnr" v="75524" />
	</node>
	<node lat="64.08547222631493" lon="12.348324993213364" id="-39178">
		<tag k="fixme" v="consider natural=peak for the most distinct mountains in the district" />
		<tag k="name" v="Kleivseterfjellet" />
		<tag k="name:no" v="Kleivseterfjellet" />
		<tag k="natural" v="hill" />
		<tag k="place" v="locality" />
		<tag k="ssr:stedsnr" v="75634" />
	</node>
	<node lat="64.2802333362379" lon="12.266258326527518" id="-39181">
		<tag k="alt_name:no" v="Flåkkåkleiva" />
		<tag k="name" v="Flokåkløyva" />
		<tag k="name:no" v="Flokåkløyva" />
		<tag k="natural" v="valley" />
		<tag k="place" v="locality" />
		<tag k="ssr:stedsnr" v="75393" />
	</node>
	<node lat="64.0890027815994" lon="12.897438895431781" id="-39185">
		<tag k="name" v="Snøhallaren" />
		<tag k="name:no" v="Snøhallaren" />
		<tag k="natural" v="slope" />
		<tag k="place" v="locality" />
		<tag k="ssr:stedsnr" v="75833" />
	</node>
	<node lat="64.18006388992282" lon="12.830058324450896" id="-39186">
		<tag k="fixme" v="consider natural=peak for the most distinct mountains in the district" />
		<tag k="name" v="Kolvfjellet" />
		<tag k="name:no" v="Kolvfjellet" />
		<tag k="natural" v="hill" />
		<tag k="place" v="locality" />
		<tag k="ssr:stedsnr" v="75934" />
	</node>
	<node lat="64.0898444477802" lon="12.872683324253437" id="-39190">
		<tag k="name" v="Hallarhaugen" />
		<tag k="name:no" v="Hallarhaugen" />
		<tag k="natural" v="hill" />
		<tag k="place" v="locality" />
		<tag k="ssr:stedsnr" v="75991" />
	</node>
	<node lat="64.34770555535003" lon="12.415783327906666" id="-39194">
		<tag k="name" v="Grønhalsen" />
		<tag k="name:no" v="Grønhalsen" />
		<tag k="natural" v="valley" />
		<tag k="place" v="locality" />
		<tag k="ssr:stedsnr" v="82272" />
	</node>
	<node lat="64.21012777700457" lon="12.67159444436527" id="-39195">
		<tag k="alt_name:no" v="Store Øyingsfjellet;Skavlanfjellet" />
		<tag k="fixme" v="consider natural=peak for the most distinct mountains in the district" />
		<tag k="name" v="Stor-Øyingsfjellet" />
		<tag k="name:no" v="Stor-Øyingsfjellet" />
		<tag k="natural" v="hill" />
		<tag k="place" v="locality" />
		<tag k="ssr:stedsnr" v="84545" />
	</node>
	<node lat="64.14826388630233" lon="12.731050005483846" id="-39196">
		<tag k="fixme" v="consider natural=peak for the most distinct mountains in the district" />
		<tag k="name" v="Reinhornfjellet" />
		<tag k="name:no" v="Reinhornfjellet" />
		<tag k="natural" v="hill" />
		<tag k="place" v="locality" />
		<tag k="ssr:stedsnr" v="84751" />
	</node>
	<node lat="64.20183610807223" lon="12.188058322912209" id="-39200">
		<tag k="name" v="Gørdalen" />
		<tag k="name:no" v="Gørdalen" />
		<tag k="natural" v="valley" />
		<tag k="place" v="locality" />
		<tag k="ssr:stedsnr" v="90286" />
	</node>
	<node lat="64.20882777999448" lon="12.20243888039793" id="-39201">
		<tag k="name" v="Ospdalen" />
		<tag k="name:no" v="Ospdalen" />
		<tag k="natural" v="valley" />
		<tag k="place" v="locality" />
		<tag k="ssr:stedsnr" v="90292" />
	</node>
	<node lat="64.21677222306278" lon="12.015647230559342" id="-39202">
		<tag k="name" v="Bjønnsjøli" />
		<tag k="name:no" v="Bjønnsjøli" />
		<tag k="natural" v="slope" />
		<tag k="place" v="locality" />
		<tag k="ssr:stedsnr" v="89985" />
	</node>
	<node lat="64.2411027754403" lon="12.533766667663002" id="-39205">
		<tag k="name" v="Djupdalen" />
		<tag k="name:no" v="Djupdalen" />
		<tag k="natural" v="valley" />
		<tag k="place" v="locality" />
		<tag k="ssr:stedsnr" v="90486" />
	</node>
	<node lat="64.24283055870517" lon="12.556544438130814" id="-39206">
		<tag k="name" v="Kolhushaugen" />
		<tag k="name:no" v="Kolhushaugen" />
		<tag k="natural" v="hill" />
		<tag k="place" v="locality" />
		<tag k="ssr:stedsnr" v="90487" />
	</node>
	<node lat="64.25234999881364" lon="12.474997218095778" id="-39216">
		<tag k="name" v="Stormoen" />
		<tag k="name:no" v="Stormoen" />
		<tag k="place" v="locality" />
		<tag k="ssr:stedsnr" v="90526" />
	</node>
	<node lat="64.2873666709438" lon="12.499244454034153" id="-39217">
		<tag k="name" v="Drevsjølia" />
		<tag k="name:no" v="Drevsjølia" />
		<tag k="natural" v="slope" />
		<tag k="place" v="locality" />
		<tag k="ssr:stedsnr" v="90527" />
	</node>
	<node lat="64.28748333722419" lon="12.524661114802774" id="-39218">
		<tag k="name" v="Langgjøta" />
		<tag k="name:no" v="Langgjøta" />
		<tag k="natural" v="valley" />
		<tag k="place" v="locality" />
		<tag k="ssr:stedsnr" v="90529" />
	</node>
	<node lat="64.27736110775389" lon="12.55325833018035" id="-39220">
		<tag k="name" v="Gravbrøtmelen" />
		<tag k="name:no" v="Gravbrøtmelen" />
		<tag k="natural" v="slope" />
		<tag k="place" v="locality" />
		<tag k="ssr:stedsnr" v="90538" />
	</node>
	<node lat="64.27869721831024" lon="12.537413890733976" id="-39221">
		<tag k="name" v="Svartberget" />
		<tag k="name:no" v="Svartberget" />
		<tag k="natural" v="hill" />
		<tag k="place" v="locality" />
		<tag k="ssr:stedsnr" v="90540" />
	</node>
	<node lat="64.2460166669856" lon="12.599088889164456" id="-39224">
		<tag k="name" v="Sørlia" />
		<tag k="name:no" v="Sørlia" />
		<tag k="natural" v="slope" />
		<tag k="place" v="locality" />
		<tag k="ssr:stedsnr" v="90597" />
	</node>
	<node lat="64.18347499670745" lon="12.406655547415387" id="-39233">
		<tag k="name" v="Klubben" />
		<tag k="name:no" v="Klubben" />
		<tag k="natural" v="hill" />
		<tag k="place" v="locality" />
		<tag k="ssr:stedsnr" v="109056" />
	</node>
	<node lat="64.24770833197098" lon="12.143863884318025" id="-39234">
		<tag k="name" v="Langmelshaugen" />
		<tag k="name:no" v="Langmelshaugen" />
		<tag k="natural" v="hill" />
		<tag k="place" v="locality" />
		<tag k="ssr:stedsnr" v="109282" />
	</node>
	<node lat="64.29018888530915" lon="12.529961115425055" id="-39235">
		<tag k="name" v="Johannesdalen" />
		<tag k="name:no" v="Johannesdalen" />
		<tag k="natural" v="valley" />
		<tag k="place" v="locality" />
		<tag k="ssr:stedsnr" v="109095" />
	</node>
	<node lat="64.21490277648428" lon="12.563991676588174" id="-39236">
		<tag k="name" v="Dalan" />
		<tag k="name:no" v="Dalan" />
		<tag k="natural" v="valley" />
		<tag k="place" v="locality" />
		<tag k="ssr:stedsnr" v="109974" />
	</node>
	<node lat="64.34846944814575" lon="12.489113895767343" id="-39237">
		<tag k="name" v="Bustadhaugen" />
		<tag k="name:no" v="Bustadhaugen" />
		<tag k="natural" v="hill" />
		<tag k="place" v="locality" />
		<tag k="ssr:stedsnr" v="109980" />
	</node>
	<node lat="64.32099166587363" lon="12.374311116879724" id="-39240">
		<tag k="name" v="Nordhaugan" />
		<tag k="name:no" v="Nordhaugan" />
		<tag k="natural" v="hill" />
		<tag k="place" v="locality" />
		<tag k="ssr:stedsnr" v="109594" />
	</node>
	<node lat="64.29519999801771" lon="12.41881110744897" id="-39244">
		<tag k="name" v="Dravlankjølen" />
		<tag k="name:no" v="Dravlankjølen" />
		<tag k="natural" v="hill" />
		<tag k="place" v="locality" />
		<tag k="ssr:stedsnr" v="109659" />
	</node>
	<node lat="64.3042166643642" lon="12.386788884910898" id="-39245">
		<tag k="name" v="Halla" />
		<tag k="name:no" v="Halla" />
		<tag k="natural" v="slope" />
		<tag k="place" v="locality" />
		<tag k="ssr:stedsnr" v="109664" />
	</node>
	<node lat="64.36908611145198" lon="12.456008335272385" id="-39248">
		<tag k="name" v="Hesthaugen" />
		<tag k="name:no" v="Hesthaugen" />
		<tag k="natural" v="hill" />
		<tag k="place" v="locality" />
		<tag k="ssr:stedsnr" v="109747" />
	</node>
	<node lat="64.20626666662818" lon="12.570333336188583" id="-39252">
		<tag k="name" v="Løstjønnhevlan" />
		<tag k="name:no" v="Løstjønnhevlan" />
		<tag k="natural" v="hill" />
		<tag k="place" v="locality" />
		<tag k="ssr:stedsnr" v="109968" />
	</node>
	<node lat="64.10244166371501" lon="12.336144441690006" id="-39257">
		<tag k="name" v="Roktsjøberga" />
		<tag k="name:no" v="Roktsjøberga" />
		<tag k="natural" v="hill" />
		<tag k="place" v="locality" />
		<tag k="ssr:stedsnr" v="110163" />
	</node>
	<node lat="64.21569167006541" lon="12.538413881547477" id="-39259">
		<tag k="name" v="Buslettet" />
		<tag k="name:no" v="Buslettet" />
		<tag k="place" v="locality" />
		<tag k="ssr:stedsnr" v="110016" />
	</node>
	<node lat="64.37476110808284" lon="12.65710000740013" id="-39263">
		<tag k="name" v="Gråklumpen" />
		<tag k="name:no" v="Gråklumpen" />
		<tag k="natural" v="hill" />
		<tag k="place" v="locality" />
		<tag k="ssr:stedsnr" v="110503" />
	</node>
	<node lat="64.31944721845824" lon="12.652113895426675" id="-39266">
		<tag k="name" v="Hårråhaugen" />
		<tag k="name:no" v="Hårråhaugen" />
		<tag k="natural" v="hill" />
		<tag k="place" v="locality" />
		<tag k="ssr:stedsnr" v="110364" />
	</node>
	<node lat="64.20950277989691" lon="12.036594439791989" id="-39267">
		<tag k="name" v="Lyngåsen" />
		<tag k="name:no" v="Lyngåsen" />
		<tag k="natural" v="hill" />
		<tag k="place" v="locality" />
		<tag k="ssr:stedsnr" v="110445" />
	</node>
	<node lat="64.2615416669076" lon="12.712349995220883" id="-39269">
		<tag k="name" v="Småliåsen" />
		<tag k="name:no" v="Småliåsen" />
		<tag k="natural" v="hill" />
		<tag k="place" v="locality" />
		<tag k="ssr:stedsnr" v="110539" />
	</node>
	<node lat="64.33474167069592" lon="12.712880554450175" id="-39274">
		<tag k="name" v="Johandalen" />
		<tag k="name:no" v="Johandalen" />
		<tag k="natural" v="valley" />
		<tag k="place" v="locality" />
		<tag k="ssr:stedsnr" v="110613" />
	</node>
	<node lat="64.19981667103384" lon="12.592572216612773" id="-39277">
		<tag k="name" v="Hopdalshaugen" />
		<tag k="name:no" v="Hopdalshaugen" />
		<tag k="natural" v="hill" />
		<tag k="place" v="locality" />
		<tag k="ssr:stedsnr" v="110964" />
	</node>
	<node lat="64.3129722208637" lon="12.957647221377405" id="-39281">
		<tag k="name" v="Kongslia" />
		<tag k="name:no" v="Kongslia" />
		<tag k="natural" v="slope" />
		<tag k="place" v="locality" />
		<tag k="ssr:stedsnr" v="135272" />
	</node>
	<node lat="64.32822222463926" lon="12.961247226401737" id="-39282">
		<tag k="alt_name:no" v="Konnmoen" />
		<tag k="name" v="Kornmoen" />
		<tag k="name:no" v="Kornmoen" />
		<tag k="place" v="locality" />
		<tag k="ssr:stedsnr" v="135277" />
	</node>
	<node lat="64.02975833069414" lon="12.27140833434197" id="-39292">
		<tag k="fixme" v="consider natural=peak for the most distinct mountains in the district" />
		<tag k="name" v="Grønlihøen" />
		<tag k="name:no" v="Grønlihøen" />
		<tag k="natural" v="hill" />
		<tag k="place" v="locality" />
		<tag k="ssr:stedsnr" v="134651" />
	</node>
	<node lat="64.12216944811718" lon="12.805913897051816" id="-39297">
		<tag k="name" v="Seterhaugen" />
		<tag k="name:no" v="Seterhaugen" />
		<tag k="natural" v="hill" />
		<tag k="place" v="locality" />
		<tag k="ssr:stedsnr" v="134950" />
	</node>
	<node lat="64.34951110767778" lon="12.412411112719168" id="-39306">
		<tag k="name" v="Seksklumpen" />
		<tag k="name:no" v="Seksklumpen" />
		<tag k="natural" v="hill" />
		<tag k="place" v="locality" />
		<tag k="ssr:stedsnr" v="135416" />
	</node>
	<node lat="64.16900000268988" lon="12.25695277421654" id="-39312">
		<tag k="name" v="Raate - Rathaugen" />
		<tag k="name:no" v="Rathaugen" />
		<tag k="name:sma" v="Raate" />
		<tag k="natural" v="hill" />
		<tag k="place" v="locality" />
		<tag k="ssr:stedsnr" v="135522" />
	</node>
	<node lat="64.07350555156113" lon="12.946249992595249" id="-39314">
		<tag k="name" v="Rørtjønnhøgda" />
		<tag k="name:no" v="Rørtjønnhøgda" />
		<tag k="natural" v="hill" />
		<tag k="place" v="locality" />
		<tag k="ssr:stedsnr" v="135753" />
	</node>
	<node lat="64.11749999669735" lon="12.681819436039103" id="-39318">
		<tag k="fixme" v="consider natural=peak for the most distinct mountains in the district" />
		<tag k="name" v="Imsdalsklumpen" />
		<tag k="name:no" v="Imsdalsklumpen" />
		<tag k="natural" v="hill" />
		<tag k="place" v="locality" />
		<tag k="ssr:stedsnr" v="135591" />
	</node>
	<node lat="64.10500832945966" lon="12.260800004494923" id="-39319">
		<tag k="fixme" v="multiple name tags, choose one and add the other to alt_name; consider natural=peak for the most distinct mountains in the district" />
		<tag k="name" v="Bjørklikamman;Bjørkliklumpen" />
		<tag k="name:no" v="Bjørklikamman;Bjørkliklumpen" />
		<tag k="natural" v="hill" />
		<tag k="place" v="locality" />
		<tag k="ssr:stedsnr" v="135595" />
	</node>
	<node lat="64.25512221857753" lon="12.527786105400947" id="-39333">
		<tag k="name" v="Flåtta" />
		<tag k="name:no" v="Flåtta" />
		<tag k="place" v="locality" />
		<tag k="ssr:stedsnr" v="150530" />
	</node>
	<node lat="64.15630555785626" lon="12.026652768467377" id="-39334">
		<tag k="fixme" v="consider natural=peak for the most distinct mountains in the district" />
		<tag k="name" v="Stamnesåsan" />
		<tag k="name:no" v="Stamnesåsan" />
		<tag k="natural" v="hill" />
		<tag k="place" v="locality" />
		<tag k="ssr:stedsnr" v="149992" />
	</node>
	<node lat="64.22488055753459" lon="12.254677777179177" id="-39335">
		<tag k="fixme" v="consider natural=peak for the most distinct mountains in the district" />
		<tag k="name" v="Hevlan" />
		<tag k="name:no" v="Hevlan" />
		<tag k="natural" v="hill" />
		<tag k="place" v="locality" />
		<tag k="ssr:stedsnr" v="150315" />
	</node>
	<node lat="64.18879444835896" lon="12.182102782780301" id="-39338">
		<tag k="name" v="Flekkhaugen" />
		<tag k="name:no" v="Flekkhaugen" />
		<tag k="natural" v="hill" />
		<tag k="place" v="locality" />
		<tag k="ssr:stedsnr" v="150299" />
	</node>
	<node lat="64.23610278193875" lon="12.329274998177201" id="-39342">
		<tag k="name" v="Kjerringgrubba" />
		<tag k="name:no" v="Kjerringgrubba" />
		<tag k="place" v="locality" />
		<tag k="ssr:stedsnr" v="150387" />
	</node>
	<node lat="64.21096110934946" lon="12.371724991299109" id="-39350">
		<tag k="name" v="Abrahamsliin" />
		<tag k="name:no" v="Abrahamsliin" />
		<tag k="natural" v="slope" />
		<tag k="place" v="locality" />
		<tag k="ssr:stedsnr" v="150422" />
	</node>
	<node lat="64.23267777416277" lon="12.449311108939963" id="-39356">
		<tag k="name" v="Stinamoen" />
		<tag k="name:no" v="Stinamoen" />
		<tag k="place" v="locality" />
		<tag k="ssr:stedsnr" v="150486" />
	</node>
	<node lat="64.22392500269396" lon="12.4529138877691" id="-39357">
		<tag k="name" v="Kolhusmoen" />
		<tag k="name:no" v="Kolhusmoen" />
		<tag k="place" v="locality" />
		<tag k="ssr:stedsnr" v="150490" />
	</node>
	<node lat="64.23283333308751" lon="12.471897214568726" id="-39359">
		<tag k="name" v="Fredrikmoen" />
		<tag k="name:no" v="Fredrikmoen" />
		<tag k="place" v="locality" />
		<tag k="ssr:stedsnr" v="150500" />
	</node>
	<node lat="64.09319722526459" lon="12.840124999812618" id="-39360">
		<tag k="name" v="Storliklumpen" />
		<tag k="name:no" v="Storliklumpen" />
		<tag k="natural" v="hill" />
		<tag k="place" v="locality" />
		<tag k="ssr:stedsnr" v="150580" />
	</node>
	<node lat="64.25191389134513" lon="12.604750008954708" id="-39361">
		<tag k="name" v="Hohaugen" />
		<tag k="name:no" v="Hohaugen" />
		<tag k="natural" v="hill" />
		<tag k="place" v="locality" />
		<tag k="ssr:stedsnr" v="150600" />
	</node>
	<node lat="64.18866666311456" lon="12.407674990332747" id="-39367">
		<tag k="name" v="Finnhuset" />
		<tag k="name:no" v="Finnhuset" />
		<tag k="natural" v="slope" />
		<tag k="place" v="locality" />
		<tag k="ssr:stedsnr" v="169042" />
	</node>
	<node lat="64.24198888804541" lon="12.145755559139523" id="-39372">
		<tag k="name" v="Langmarkdalen" />
		<tag k="name:no" v="Langmarkdalen" />
		<tag k="natural" v="valley" />
		<tag k="place" v="locality" />
		<tag k="ssr:stedsnr" v="169346" />
	</node>
	<node lat="64.33095555183561" lon="12.509972228917329" id="-39374">
		<tag k="name" v="Kvennbergdalen" />
		<tag k="name:no" v="Kvennbergdalen" />
		<tag k="natural" v="valley" />
		<tag k="place" v="locality" />
		<tag k="ssr:stedsnr" v="170079" />
	</node>
	<node lat="64.33104444771172" lon="12.517602773177785" id="-39376">
		<tag k="name" v="Djupdalshøgda" />
		<tag k="name:no" v="Djupdalshøgda" />
		<tag k="natural" v="hill" />
		<tag k="place" v="locality" />
		<tag k="ssr:stedsnr" v="170083" />
	</node>
	<node lat="64.40324444041896" lon="12.623586117317352" id="-39377">
		<tag k="name" v="Stordomma" />
		<tag k="name:no" v="Stordomma" />
		<tag k="natural" v="slope" />
		<tag k="place" v="locality" />
		<tag k="ssr:stedsnr" v="170097" />
	</node>
	<node lat="64.24161111145266" lon="12.568511112808881" id="-39379">
		<tag k="name" v="Middagsgjøtlia" />
		<tag k="name:no" v="Middagsgjøtlia" />
		<tag k="natural" v="slope" />
		<tag k="place" v="locality" />
		<tag k="ssr:stedsnr" v="169979" />
	</node>
	<node lat="64.24310833568241" lon="12.682405561527014" id="-39381">
		<tag k="name" v="Ovitjønnlia" />
		<tag k="name:no" v="Ovitjønnlia" />
		<tag k="natural" v="slope" />
		<tag k="place" v="locality" />
		<tag k="ssr:stedsnr" v="169996" />
	</node>
	<node lat="64.33450833374553" lon="12.341913892946897" id="-39382">
		<tag k="name" v="Revhidalen" />
		<tag k="name:no" v="Revhidalen" />
		<tag k="natural" v="valley" />
		<tag k="place" v="locality" />
		<tag k="ssr:stedsnr" v="170029" />
	</node>
	<node lat="64.20759722022213" lon="12.45274999307502" id="-39385">
		<tag k="name" v="Bustadlia" />
		<tag k="name:no" v="Bustadlia" />
		<tag k="natural" v="slope" />
		<tag k="place" v="locality" />
		<tag k="ssr:stedsnr" v="170041" />
	</node>
	<node lat="64.222186108655" lon="12.436336114387943" id="-39386">
		<tag k="name" v="Stormoen" />
		<tag k="name:no" v="Stormoen" />
		<tag k="place" v="locality" />
		<tag k="ssr:stedsnr" v="170049" />
	</node>
	<node lat="64.10615277542459" lon="12.39849721191452" id="-39388">
		<tag k="name" v="Vollsheia" />
		<tag k="name:no" v="Vollsheia" />
		<tag k="natural" v="hill" />
		<tag k="place" v="locality" />
		<tag k="ssr:stedsnr" v="170191" />
	</node>
	<node lat="64.11635277603973" lon="12.35483054557903" id="-39390">
		<tag k="name" v="Rossbakkan" />
		<tag k="name:no" v="Rossbakkan" />
		<tag k="natural" v="slope" />
		<tag k="place" v="locality" />
		<tag k="ssr:stedsnr" v="170195" />
	</node>
	<node lat="64.2316833325398" lon="12.080844437023877" id="-39396">
		<tag k="name" v="Slåttadalen" />
		<tag k="name:no" v="Slåttadalen" />
		<tag k="natural" v="valley" />
		<tag k="place" v="locality" />
		<tag k="ssr:stedsnr" v="170437" />
	</node>
	<node lat="64.266511108396" lon="12.631208336971934" id="-39399">
		<tag k="name" v="Bjørklia" />
		<tag k="name:no" v="Bjørklia" />
		<tag k="natural" v="slope" />
		<tag k="place" v="locality" />
		<tag k="ssr:stedsnr" v="170551" />
	</node>
	<node lat="64.16452499843135" lon="12.050419448214978" id="-39400">
		<tag k="name" v="Sørmyrberget" />
		<tag k="name:no" v="Sørmyrberget" />
		<tag k="natural" v="hill" />
		<tag k="place" v="locality" />
		<tag k="ssr:stedsnr" v="170477" />
	</node>
	<node lat="64.32535278106474" lon="12.41427222225298" id="-39406">
		<tag k="name" v="Posthaugen" />
		<tag k="name:no" v="Posthaugen" />
		<tag k="natural" v="hill" />
		<tag k="place" v="locality" />
		<tag k="ssr:stedsnr" v="170682" />
	</node>
	<node lat="64.31542500208552" lon="12.338430558085555" id="-39410">
		<tag k="name" v="Abrahamhaugan" />
		<tag k="name:no" v="Abrahamhaugan" />
		<tag k="natural" v="hill" />
		<tag k="place" v="locality" />
		<tag k="ssr:stedsnr" v="170726" />
	</node>
	<node lat="64.36601110998328" lon="12.42801110184312" id="-39418">
		<tag k="name" v="Klokkarliin" />
		<tag k="name:no" v="Klokkarliin" />
		<tag k="natural" v="slope" />
		<tag k="place" v="locality" />
		<tag k="ssr:stedsnr" v="170796" />
	</node>
	<node lat="64.34133610789688" lon="12.508980551286003" id="-39422">
		<tag k="name" v="Nyseterlia" />
		<tag k="name:no" v="Nyseterlia" />
		<tag k="natural" v="slope" />
		<tag k="place" v="locality" />
		<tag k="ssr:stedsnr" v="171000" />
	</node>
	<node lat="64.334077776074" lon="12.439750003226507" id="-39423">
		<tag k="name" v="Stormuren" />
		<tag k="name:no" v="Stormuren" />
		<tag k="natural" v="hill" />
		<tag k="place" v="locality" />
		<tag k="ssr:stedsnr" v="170913" />
	</node>
	<node lat="64.25747499780881" lon="12.683794443112532" id="-39427">
		<tag k="name" v="Nordlia" />
		<tag k="name:no" v="Nordlia" />
		<tag k="natural" v="slope" />
		<tag k="place" v="locality" />
		<tag k="ssr:stedsnr" v="171589" />
	</node>
	<node lat="64.18696388889715" lon="12.599569451663474" id="-39429">
		<tag k="name" v="Skansen" />
		<tag k="name:no" v="Skansen" />
		<tag k="place" v="locality" />
		<tag k="ssr:stedsnr" v="171965" />
	</node>
	<node lat="64.275305559873" lon="12.976541661803568" id="-39438">
		<tag k="name" v="Andorsjølia" />
		<tag k="name:no" v="Andorsjølia" />
		<tag k="natural" v="slope" />
		<tag k="place" v="locality" />
		<tag k="ssr:stedsnr" v="195290" />
	</node>
	<node lat="63.99024166461084" lon="12.655088886289716" id="-39444">
		<tag k="name" v="Høgsethaugen" />
		<tag k="name:no" v="Høgsethaugen" />
		<tag k="natural" v="hill" />
		<tag k="place" v="locality" />
		<tag k="ssr:stedsnr" v="195675" />
	</node>
	<node lat="64.11459722408908" lon="13.074919444508126" id="-39450">
		<tag k="name" v="Hestmyrhaugen" />
		<tag k="name:no" v="Hestmyrhaugen" />
		<tag k="natural" v="hill" />
		<tag k="place" v="locality" />
		<tag k="ssr:stedsnr" v="196984" />
	</node>
	<node lat="64.26194166746559" lon="12.15793612099959" id="-39460">
		<tag k="name" v="Kjerkporten" />
		<tag k="name:no" v="Kjerkporten" />
		<tag k="natural" v="valley" />
		<tag k="place" v="locality" />
		<tag k="ssr:stedsnr" v="196473" />
	</node>
	<node lat="64.17944166639847" lon="12.521316663591284" id="-39464">
		<tag k="fixme" v="consider natural=peak for the most distinct mountains in the district" />
		<tag k="name" v="Hyllfjellet" />
		<tag k="name:no" v="Hyllfjellet" />
		<tag k="natural" v="hill" />
		<tag k="place" v="locality" />
		<tag k="ssr:stedsnr" v="196493" />
	</node>
	<node lat="64.15162499806878" lon="12.37166945382659" id="-39469">
		<tag k="name" v="Myrskardet" />
		<tag k="name:no" v="Myrskardet" />
		<tag k="natural" v="valley" />
		<tag k="place" v="locality" />
		<tag k="ssr:stedsnr" v="196535" />
	</node>
	<node lat="64.29172500241359" lon="12.144886119093103" id="-39473">
		<tag k="name" v="Gåstjønnfloget" />
		<tag k="name:no" v="Gåstjønnfloget" />
		<tag k="natural" v="valley" />
		<tag k="place" v="locality" />
		<tag k="ssr:stedsnr" v="196577" />
	</node>
	<node lat="64.06556944676896" lon="12.896302769394524" id="-39479">
		<tag k="name" v="Bergåsen" />
		<tag k="name:no" v="Bergåsen" />
		<tag k="natural" v="hill" />
		<tag k="place" v="locality" />
		<tag k="ssr:stedsnr" v="196740" />
	</node>
	<node lat="64.1635749999181" lon="12.946880554048484" id="-39480">
		<tag k="fixme" v="consider natural=peak for the most distinct mountains in the district" />
		<tag k="name" v="Vaalta - Plukkutjønnfjellet" />
		<tag k="name:no" v="Plukkutjønnfjellet" />
		<tag k="name:sma" v="Vaalta" />
		<tag k="natural" v="hill" />
		<tag k="place" v="locality" />
		<tag k="ssr:stedsnr" v="196910" />
	</node>
	<node lat="64.21026389289813" lon="12.821674993890312" id="-39482">
		<tag k="fixme" v="consider natural=peak for the most distinct mountains in the district" />
		<tag k="name" v="Seisjøfjellet" />
		<tag k="name:no" v="Seisjøfjellet" />
		<tag k="natural" v="hill" />
		<tag k="place" v="locality" />
		<tag k="ssr:stedsnr" v="196930" />
	</node>
	<node lat="64.06566389096996" lon="12.73878611648199" id="-39484">
		<tag k="fixme" v="consider natural=peak for the most distinct mountains in the district" />
		<tag k="name" v="Heinåklumpen" />
		<tag k="name:no" v="Heinåklumpen" />
		<tag k="natural" v="hill" />
		<tag k="place" v="locality" />
		<tag k="ssr:stedsnr" v="196748" />
	</node>
	<node lat="64.20296388653699" lon="13.110669438202553" id="-39490">
		<tag k="fixme" v="consider natural=peak for the most distinct mountains in the district" />
		<tag k="name" v="Åarjelgaejsie - Søre Gauptjønnaksla" />
		<tag k="name:no" v="Søre Gauptjønnaksla" />
		<tag k="name:sma" v="Åarjelgaejsie" />
		<tag k="natural" v="hill" />
		<tag k="place" v="locality" />
		<tag k="ssr:stedsnr" v="203945" />
	</node>
	<node lat="64.3185972215467" lon="12.067180553592172" id="-39493">
		<tag k="name" v="Storhaugen" />
		<tag k="name:no" v="Storhaugen" />
		<tag k="natural" v="hill" />
		<tag k="place" v="locality" />
		<tag k="ssr:stedsnr" v="208168" />
	</node>
	<node lat="64.26720833532885" lon="12.427836118754172" id="-39499">
		<tag k="name" v="Brennmoen" />
		<tag k="name:no" v="Brennmoen" />
		<tag k="place" v="locality" />
		<tag k="ssr:stedsnr" v="211564" />
	</node>
	<node lat="64.26890833070503" lon="12.457483340386364" id="-39500">
		<tag k="name" v="Håggåsdalen" />
		<tag k="name:no" v="Håggåsdalen" />
		<tag k="natural" v="valley" />
		<tag k="place" v="locality" />
		<tag k="ssr:stedsnr" v="211565" />
	</node>
	<node lat="64.28020555802422" lon="12.439499990694948" id="-39501">
		<tag k="name" v="Sauhevlan" />
		<tag k="name:no" v="Sauhevlan" />
		<tag k="natural" v="hill" />
		<tag k="place" v="locality" />
		<tag k="ssr:stedsnr" v="211570" />
	</node>
	<node lat="64.25601111370808" lon="12.39676388112046" id="-39504">
		<tag k="name" v="Leirdalen" />
		<tag k="name:no" v="Leirdalen" />
		<tag k="natural" v="valley" />
		<tag k="place" v="locality" />
		<tag k="ssr:stedsnr" v="211480" />
	</node>
	<node lat="64.23501388761811" lon="12.465405555179542" id="-39506">
		<tag k="name" v="Håkonmoen" />
		<tag k="name:no" v="Håkonmoen" />
		<tag k="place" v="locality" />
		<tag k="ssr:stedsnr" v="211493" />
	</node>
	<node lat="64.25486388838057" lon="12.581502770825441" id="-39509">
		<tag k="name" v="Bokktjønnhaugen" />
		<tag k="name:no" v="Bokktjønnhaugen" />
		<tag k="natural" v="hill" />
		<tag k="place" v="locality" />
		<tag k="ssr:stedsnr" v="211603" />
	</node>
	<node lat="64.26238611210127" lon="12.590572221577162" id="-39510">
		<tag k="name" v="Litlbjørnhaugen" />
		<tag k="name:no" v="Litlbjørnhaugen" />
		<tag k="natural" v="hill" />
		<tag k="place" v="locality" />
		<tag k="ssr:stedsnr" v="211608" />
	</node>
	<node lat="64.33454444062012" lon="12.313822223048923" id="-39512">
		<tag k="name" v="Djupdalen" />
		<tag k="name:no" v="Djupdalen" />
		<tag k="natural" v="valley" />
		<tag k="place" v="locality" />
		<tag k="ssr:stedsnr" v="291020" />
	</node>
	<node lat="64.33218611147404" lon="12.305624997884049" id="-39513">
		<tag k="name" v="Godløyftin" />
		<tag k="name:no" v="Godløyftin" />
		<tag k="natural" v="valley" />
		<tag k="place" v="locality" />
		<tag k="ssr:stedsnr" v="291021" />
	</node>
	<node lat="64.30176666244327" lon="12.51248333873064" id="-39515">
		<tag k="name" v="Storhøgdin" />
		<tag k="name:no" v="Storhøgdin" />
		<tag k="natural" v="hill" />
		<tag k="place" v="locality" />
		<tag k="ssr:stedsnr" v="291101" />
	</node>
	<node lat="64.15710833116175" lon="12.529597231717082" id="-39516">
		<tag k="name" v="Fagerlia" />
		<tag k="name:no" v="Fagerlia" />
		<tag k="natural" v="slope" />
		<tag k="place" v="locality" />
		<tag k="ssr:stedsnr" v="291122" />
	</node>
	<node lat="64.35932222373376" lon="12.366277777636267" id="-39521">
		<tag k="name" v="Kjenneråshaugan" />
		<tag k="name:no" v="Kjenneråshaugan" />
		<tag k="natural" v="hill" />
		<tag k="place" v="locality" />
		<tag k="ssr:stedsnr" v="291043" />
	</node>
	<node lat="64.35181111496551" lon="12.354980554169325" id="-39524">
		<tag k="name" v="Steindalshøgda" />
		<tag k="name:no" v="Steindalshøgda" />
		<tag k="natural" v="hill" />
		<tag k="place" v="locality" />
		<tag k="ssr:stedsnr" v="291055" />
	</node>
	<node lat="64.32406666268578" lon="12.523302776113928" id="-39526">
		<tag k="name" v="Stormoen" />
		<tag k="name:no" v="Stormoen" />
		<tag k="place" v="locality" />
		<tag k="ssr:stedsnr" v="291071" />
	</node>
	<node lat="64.2619694439283" lon="12.00956666046878" id="-39528">
		<tag k="name" v="Svaheifjellet" />
		<tag k="name:no" v="Svaheifjellet" />
		<tag k="natural" v="hill" />
		<tag k="place" v="locality" />
		<tag k="ssr:stedsnr" v="291174" />
	</node>
	<node lat="64.33248888495974" lon="12.66111111038018" id="-39530">
		<tag k="name" v="Nordlian" />
		<tag k="name:no" v="Nordlian" />
		<tag k="natural" v="slope" />
		<tag k="place" v="locality" />
		<tag k="ssr:stedsnr" v="291274" />
	</node>
	<node lat="64.16948611395735" lon="12.07517499340664" id="-39532">
		<tag k="name" v="Tømmeråsen" />
		<tag k="name:no" v="Tømmeråsen" />
		<tag k="natural" v="hill" />
		<tag k="place" v="locality" />
		<tag k="ssr:stedsnr" v="291450" />
	</node>
	<node lat="64.22897221907303" lon="12.0247555466469" id="-39533">
		<tag k="name" v="Seterdalen" />
		<tag k="name:no" v="Seterdalen" />
		<tag k="natural" v="valley" />
		<tag k="place" v="locality" />
		<tag k="ssr:stedsnr" v="291451" />
	</node>
	<node lat="64.22438055715673" lon="11.997777783569497" id="-39534">
		<tag k="name" v="Norddalen" />
		<tag k="name:no" v="Norddalen" />
		<tag k="natural" v="valley" />
		<tag k="place" v="locality" />
		<tag k="ssr:stedsnr" v="291452" />
	</node>
	<node lat="64.16060833508955" lon="12.2941444547439" id="-39536">
		<tag k="name" v="Berglia" />
		<tag k="name:no" v="Berglia" />
		<tag k="natural" v="slope" />
		<tag k="place" v="locality" />
		<tag k="ssr:stedsnr" v="291542" />
	</node>
	<node lat="64.27230277357259" lon="12.180283329092118" id="-39538">
		<tag k="name" v="Litlfjellet" />
		<tag k="name:no" v="Litlfjellet" />
		<tag k="natural" v="hill" />
		<tag k="place" v="locality" />
		<tag k="ssr:stedsnr" v="291496" />
	</node>
	<node lat="64.27957777640111" lon="12.201872228659129" id="-39541">
		<tag k="fixme" v="consider natural=peak for the most distinct mountains in the district" />
		<tag k="name" v="Ol-Jensafjellet" />
		<tag k="name:no" v="Ol-Jensafjellet" />
		<tag k="natural" v="hill" />
		<tag k="place" v="locality" />
		<tag k="ssr:stedsnr" v="291621" />
	</node>
	<node lat="64.37313610785324" lon="12.464119441695178" id="-39546">
		<tag k="name" v="Rundihaugen" />
		<tag k="name:no" v="Rundihaugen" />
		<tag k="natural" v="hill" />
		<tag k="place" v="locality" />
		<tag k="ssr:stedsnr" v="291770" />
	</node>
	<node lat="64.34249167046433" lon="12.499247218796976" id="-39547">
		<tag k="name" v="Skjulberklumpen" />
		<tag k="name:no" v="Skjulberklumpen" />
		<tag k="natural" v="hill" />
		<tag k="place" v="locality" />
		<tag k="ssr:stedsnr" v="291999" />
	</node>
	<node lat="64.22355555535329" lon="12.558966661746004" id="-39549">
		<tag k="name" v="Elgsbåsen" />
		<tag k="name:no" v="Elgsbåsen" />
		<tag k="natural" v="hill" />
		<tag k="place" v="locality" />
		<tag k="ssr:stedsnr" v="291969" />
	</node>
	<node lat="63.97838888894973" lon="12.583499997555403" id="-39556">
		<tag k="name" v="Oksbakken" />
		<tag k="name:no" v="Oksbakken" />
		<tag k="natural" v="hill" />
		<tag k="place" v="locality" />
		<tag k="ssr:stedsnr" v="292169" />
	</node>
	<node lat="64.13082499827655" lon="12.515036101217845" id="-39558">
		<tag k="name" v="Skaret" />
		<tag k="name:no" v="Skaret" />
		<tag k="natural" v="valley" />
		<tag k="place" v="locality" />
		<tag k="ssr:stedsnr" v="292317" />
	</node>
	<node lat="64.26446666237511" lon="12.689352783318713" id="-39561">
		<tag k="name" v="Smedola-Beret-klumpen" />
		<tag k="name:no" v="Smedola-Beret-klumpen" />
		<tag k="natural" v="hill" />
		<tag k="place" v="locality" />
		<tag k="ssr:stedsnr" v="292496" />
	</node>
	<node lat="64.27820555628159" lon="12.817011111643037" id="-39563">
		<tag k="name" v="Uværsdalen" />
		<tag k="name:no" v="Uværsdalen" />
		<tag k="natural" v="valley" />
		<tag k="place" v="locality" />
		<tag k="ssr:stedsnr" v="292519" />
	</node>
	<node lat="64.24654999670342" lon="12.648644446965044" id="-39565">
		<tag k="name" v="Gullhaugen" />
		<tag k="name:no" v="Gullhaugen" />
		<tag k="natural" v="hill" />
		<tag k="place" v="locality" />
		<tag k="ssr:stedsnr" v="292544" />
	</node>
	<node lat="64.2574222212647" lon="12.635466664266403" id="-39566">
		<tag k="name" v="Krumyrhaugen" />
		<tag k="name:no" v="Krumyrhaugen" />
		<tag k="natural" v="hill" />
		<tag k="place" v="locality" />
		<tag k="ssr:stedsnr" v="292546" />
	</node>
	<node lat="64.1494111082204" lon="12.236036120918788" id="-39573">
		<tag k="name" v="Tjønndalsklumpen" />
		<tag k="name:no" v="Tjønndalsklumpen" />
		<tag k="natural" v="hill" />
		<tag k="place" v="locality" />
		<tag k="ssr:stedsnr" v="317533" />
	</node>
	<node lat="64.11649166930998" lon="12.179963880288563" id="-39574">
		<tag k="name" v="Finnvollskardet" />
		<tag k="name:no" v="Finnvollskardet" />
		<tag k="natural" v="valley" />
		<tag k="place" v="locality" />
		<tag k="ssr:stedsnr" v="317237" />
	</node>
	<node lat="64.26890278172469" lon="12.841697230403737" id="-39575">
		<tag k="name" v="Rypkleiva" />
		<tag k="name:no" v="Rypkleiva" />
		<tag k="natural" v="valley" />
		<tag k="place" v="locality" />
		<tag k="ssr:stedsnr" v="317238" />
	</node>
	<node lat="64.28497222536079" lon="13.014158330518443" id="-39576">
		<tag k="name" v="Tristakkhaugen" />
		<tag k="name:no" v="Tristakkhaugen" />
		<tag k="natural" v="hill" />
		<tag k="place" v="locality" />
		<tag k="ssr:stedsnr" v="317246" />
	</node>
	<node lat="64.07630555326267" lon="12.61643611998109" id="-39600">
		<tag k="fixme" v="consider natural=peak for the most distinct mountains in the district" />
		<tag k="name" v="Gaunselklumpen" />
		<tag k="name:no" v="Gaunselklumpen" />
		<tag k="natural" v="hill" />
		<tag k="place" v="locality" />
		<tag k="ssr:stedsnr" v="317573" />
	</node>
	<node lat="64.05196944071282" lon="12.328777771998915" id="-39603">
		<tag k="name" v="Rypkleppan" />
		<tag k="name:no" v="Rypkleppan" />
		<tag k="natural" v="hill" />
		<tag k="place" v="locality" />
		<tag k="ssr:stedsnr" v="317582" />
	</node>
	<node lat="64.078505554983" lon="12.909519445069764" id="-39608">
		<tag k="name" v="Salskardberget" />
		<tag k="name:no" v="Salskardberget" />
		<tag k="natural" v="hill" />
		<tag k="place" v="locality" />
		<tag k="ssr:stedsnr" v="317717" />
	</node>
	<node lat="64.11006666407278" lon="12.761672230023754" id="-39610">
		<tag k="name" v="Rodalen" />
		<tag k="name:no" v="Rodalen" />
		<tag k="natural" v="valley" />
		<tag k="place" v="locality" />
		<tag k="ssr:stedsnr" v="317929" />
	</node>
</osm>
