<?xml version="1.0" encoding="UTF-8"?>
<osm version="0.6" generator="osmapis">
	<node lat="64.36668333257154" lon="12.406558335720632" id="-49463">
		<tag k="name" v="Haugslettjønna" />
		<tag k="name:no" v="Haugslettjønna" />
		<tag k="natural" v="water" />
		<tag k="ssr:stedsnr" v="230047" />
	</node>
	<node lat="64.24426111281049" lon="12.036961109345219" id="-49475">
		<tag k="name" v="Vestre Merkesbekken" />
		<tag k="name:no" v="Vestre Merkesbekken" />
		<tag k="ssr:stedsnr" v="230200" />
		<tag k="waterway" v="stream" />
	</node>
	<node lat="64.27555277832545" lon="12.184311107952764" id="-49479">
		<tag k="name" v="Fjellbekken" />
		<tag k="name:no" v="Fjellbekken" />
		<tag k="ssr:stedsnr" v="230461" />
		<tag k="waterway" v="stream" />
	</node>
	<node lat="64.30708611247304" lon="12.380111113363776" id="-49481">
		<tag k="name" v="Seterelva" />
		<tag k="name:no" v="Seterelva" />
		<tag k="ssr:stedsnr" v="230665" />
		<tag k="waterway" v="stream" />
	</node>
	<node lat="64.2068694445565" lon="12.545177784734818" id="-49484">
		<tag k="name" v="Ljøstjønnbekken" />
		<tag k="name:no" v="Ljøstjønnbekken" />
		<tag k="ssr:stedsnr" v="231010" />
		<tag k="waterway" v="stream" />
	</node>
	<node lat="64.2101305521392" lon="12.575966657263129" id="-49485">
		<tag k="name" v="Merkestjønna" />
		<tag k="name:no" v="Merkestjønna" />
		<tag k="natural" v="water" />
		<tag k="ssr:stedsnr" v="230975" />
	</node>
	<node lat="63.99114999648804" lon="12.722713897744532" id="-49488">
		<tag k="name" v="Seterneset" />
		<tag k="name:no" v="Seterneset" />
		<tag k="natural" v="cape" />
		<tag k="ssr:stedsnr" v="231230" />
	</node>
	<node lat="64.15118888986558" lon="12.463227772192127" id="-49491">
		<tag k="name" v="Storholmen" />
		<tag k="name:no" v="Storholmen" />
		<tag k="natural" v="cape" />
		<tag k="ssr:stedsnr" v="231294" />
	</node>
	<node lat="64.16729444648648" lon="12.372463881260554" id="-49492">
		<tag k="name" v="Roktdalfossen" />
		<tag k="name:no" v="Roktdalfossen" />
		<tag k="natural" v="waterfall" />
		<tag k="ssr:stedsnr" v="231265" />
	</node>
	<node lat="64.31920555397011" lon="12.663366659387673" id="-49496">
		<tag k="name" v="Hustjønnbekken" />
		<tag k="name:no" v="Hustjønnbekken" />
		<tag k="ssr:stedsnr" v="231398" />
		<tag k="waterway" v="stream" />
	</node>
	<node lat="64.20835833601839" lon="12.054805553898944" id="-49498">
		<tag k="name" v="Sørtangen" />
		<tag k="name:no" v="Sørtangen" />
		<tag k="natural" v="cape" />
		<tag k="ssr:stedsnr" v="231471" />
	</node>
	<node lat="64.36096388797137" lon="12.67384444891085" id="-49499">
		<tag k="name" v="Lurukroken" />
		<tag k="name:no" v="Lurukroken" />
		<tag k="natural" v="cape" />
		<tag k="ssr:stedsnr" v="231539" />
	</node>
	<node lat="64.35792777465348" lon="12.662622227854266" id="-49501">
		<tag k="name" v="Mikjelbekken" />
		<tag k="name:no" v="Mikjelbekken" />
		<tag k="ssr:stedsnr" v="231545" />
		<tag k="waterway" v="stream" />
	</node>
	<node lat="64.30351666592102" lon="12.616202780636954" id="-49507">
		<tag k="name" v="Frebergtjønna" />
		<tag k="name:no" v="Frebergtjønna" />
		<tag k="natural" v="water" />
		<tag k="ssr:stedsnr" v="231666" />
	</node>
	<node lat="64.2612611127441" lon="12.771769452440225" id="-49508">
		<tag k="name" v="Nyseterevja" />
		<tag k="name:no" v="Nyseterevja" />
		<tag k="natural" v="bay" />
		<tag k="ssr:stedsnr" v="231605" />
	</node>
	<node lat="64.26655555515376" lon="12.665666671335098" id="-49509">
		<tag k="name" v="Storlitjønnin" />
		<tag k="name:no" v="Storlitjønnin" />
		<tag k="natural" v="water" />
		<tag k="ssr:stedsnr" v="231616" />
	</node>
	<node lat="64.21129444580978" lon="12.190516671577054" id="-49513">
		<tag k="name" v="Nordvika" />
		<tag k="name:no" v="Nordvika" />
		<tag k="natural" v="bay" />
		<tag k="ssr:stedsnr" v="13514" />
	</node>
	<node lat="64.20638332995328" lon="12.01475832929825" id="-49514">
		<tag k="name" v="Aunbukta" />
		<tag k="name:no" v="Aunbukta" />
		<tag k="natural" v="bay" />
		<tag k="ssr:stedsnr" v="13518" />
	</node>
	<node lat="64.24311944627428" lon="12.634258342332062" id="-49516">
		<tag k="name" v="Storslåttelva" />
		<tag k="name:no" v="Storslåttelva" />
		<tag k="ssr:stedsnr" v="13720" />
		<tag k="waterway" v="stream" />
	</node>
	<node lat="64.29167499816455" lon="12.917199993286541" id="-49519">
		<tag k="name" v="Svartholet" />
		<tag k="name:no" v="Svartholet" />
		<tag k="natural" v="bay" />
		<tag k="ssr:stedsnr" v="14215" />
	</node>
	<node lat="64.32513055931283" lon="12.965277778814913" id="-49522">
		<tag k="name" v="Storneset" />
		<tag k="name:no" v="Storneset" />
		<tag k="natural" v="cape" />
		<tag k="ssr:stedsnr" v="14219" />
	</node>
	<node lat="64.34142222577616" lon="12.993102775112918" id="-49523">
		<tag k="name" v="Litlfinnbursvatnet" />
		<tag k="name:no" v="Litlfinnbursvatnet" />
		<tag k="natural" v="water" />
		<tag k="ssr:stedsnr" v="14220" />
	</node>
	<node lat="64.34095555376923" lon="12.9165888784373" id="-49524">
		<tag k="name" v="Limanneset" />
		<tag k="name:no" v="Limanneset" />
		<tag k="natural" v="cape" />
		<tag k="ssr:stedsnr" v="14222" />
	</node>
	<node lat="64.2947111071275" lon="12.48735000168969" id="-49526">
		<tag k="name" v="Bergsettjønna" />
		<tag k="name:no" v="Bergsettjønna" />
		<tag k="natural" v="water" />
		<tag k="ssr:stedsnr" v="14323" />
	</node>
	<node lat="64.3642750020145" lon="12.415050009036937" id="-49531">
		<tag k="name" v="Tjønnslættjønna" />
		<tag k="name:no" v="Tjønnslættjønna" />
		<tag k="natural" v="water" />
		<tag k="ssr:stedsnr" v="14374" />
	</node>
	<node lat="64.2783583300818" lon="12.03830277239547" id="-49533">
		<tag k="name" v="Nordre Dettfosstjønna" />
		<tag k="name:no" v="Nordre Dettfosstjønna" />
		<tag k="natural" v="water" />
		<tag k="ssr:stedsnr" v="14564" />
	</node>
	<node lat="64.0562444451979" lon="12.260488885577464" id="-49534">
		<tag k="name" v="Verdalstjønna" />
		<tag k="name:no" v="Verdalstjønna" />
		<tag k="natural" v="water" />
		<tag k="ssr:stedsnr" v="14571" />
	</node>
	<node lat="64.05584166334316" lon="12.90119166545" id="-49535">
		<tag k="name" v="Smititangen" />
		<tag k="name:no" v="Smititangen" />
		<tag k="natural" v="cape" />
		<tag k="ssr:stedsnr" v="14717" />
	</node>
	<node lat="64.01042221893643" lon="12.5973194529567" id="-49537">
		<tag k="name" v="Speallehkenjaevrie - Grønlivatnet" />
		<tag k="name:no" v="Grønlivatnet" />
		<tag k="name:sma" v="Speallehkenjaevrie" />
		<tag k="natural" v="water" />
		<tag k="ssr:stedsnr" v="14858" />
		<tag k="water" v="lake" />
	</node>
	<node lat="64.24662437085803" lon="12.993742818549261" id="-49539">
		<tag k="name" v="Tverrelva" />
		<tag k="name:no" v="Tverrelva" />
		<tag k="ssr:stedsnr" v="14861" />
		<tag k="waterway" v="river" />
	</node>
	<node lat="64.16243333383355" lon="12.765291664020882" id="-49540">
		<tag k="name" v="Fjelltjønna" />
		<tag k="name:no" v="Fjelltjønna" />
		<tag k="natural" v="water" />
		<tag k="ssr:stedsnr" v="14901" />
	</node>
	<node lat="64.23055833117749" lon="12.879763883497189" id="-49541">
		<tag k="name" v="Storåselva" />
		<tag k="name:no" v="Storåselva" />
		<tag k="ssr:stedsnr" v="14903" />
		<tag k="waterway" v="river" />
	</node>
	<node lat="64.09811666394643" lon="12.977080557479342" id="-49545">
		<tag k="name" v="Svarttjønna" />
		<tag k="name:no" v="Svarttjønna" />
		<tag k="natural" v="water" />
		<tag k="ssr:stedsnr" v="14973" />
	</node>
	<node lat="64.09329166729871" lon="12.937438894744561" id="-49546">
		<tag k="name" v="Øya" />
		<tag k="name:no" v="Øya" />
		<tag k="place" v="islet" />
		<tag k="ssr:stedsnr" v="14974" />
	</node>
	<node lat="64.32143888529208" lon="12.10397222362786" id="-49548">
		<tag k="name" v="Gomolitjønna" />
		<tag k="name:no" v="Gomolitjønna" />
		<tag k="natural" v="water" />
		<tag k="ssr:stedsnr" v="26206" />
	</node>
	<node lat="64.22191389137443" lon="12.234941677045107" id="-49550">
		<tag k="name" v="Tørrtangen" />
		<tag k="name:no" v="Tørrtangen" />
		<tag k="natural" v="cape" />
		<tag k="ssr:stedsnr" v="29335" />
	</node>
	<node lat="64.24067222304521" lon="12.293852780996993" id="-49555">
		<tag k="name" v="Tangen" />
		<tag k="name:no" v="Tangen" />
		<tag k="natural" v="cape" />
		<tag k="ssr:stedsnr" v="29381" />
	</node>
	<node lat="64.24761944545946" lon="12.388166672270213" id="-49559">
		<tag k="name" v="Kvernhusbekken" />
		<tag k="name:no" v="Kvernhusbekken" />
		<tag k="ssr:stedsnr" v="29505" />
		<tag k="waterway" v="stream" />
	</node>
	<node lat="64.29023888592637" lon="12.458938883091035" id="-49572">
		<tag k="name" v="Auster Bjønnsjøen" />
		<tag k="name:no" v="Auster Bjønnsjøen" />
		<tag k="natural" v="water" />
		<tag k="ssr:stedsnr" v="48019" />
	</node>
	<node lat="63.99853610932106" lon="12.324066658128958" id="-49576">
		<tag k="name" v="Skjelbreia" />
		<tag k="name:no" v="Skjelbreia" />
		<tag k="ssr:stedsnr" v="48318" />
		<tag k="waterway" v="river" />
	</node>
	<node lat="64.32441388806329" lon="12.691691673262936" id="-49591">
		<tag k="name" v="Svartkutjønna" />
		<tag k="name:no" v="Svartkutjønna" />
		<tag k="natural" v="water" />
		<tag k="ssr:stedsnr" v="49604" />
	</node>
	<node lat="64.27286944811001" lon="12.836377769896236" id="-49605">
		<tag k="alt_name:no" v="Andorelva" />
		<tag k="name" v="Andra" />
		<tag k="name:no" v="Andra" />
		<tag k="ssr:stedsnr" v="74262" />
		<tag k="waterway" v="river" />
	</node>
	<node lat="64.35877778016233" lon="12.461124998614038" id="-49608">
		<tag k="name" v="Finnkøylitjønna" />
		<tag k="name:no" v="Finnkøylitjønna" />
		<tag k="natural" v="water" />
		<tag k="ssr:stedsnr" v="74420" />
	</node>
	<node lat="64.25425555234759" lon="12.136000005147555" id="-49611">
		<tag k="name" v="Hammerelva" />
		<tag k="name:no" v="Hammerelva" />
		<tag k="ssr:stedsnr" v="74504" />
		<tag k="waterway" v="stream" />
	</node>
	<node lat="63.98526944771369" lon="12.587638898537087" id="-49616">
		<tag k="name" v="Stigåtjønna" />
		<tag k="name:no" v="Stigåtjønna" />
		<tag k="natural" v="water" />
		<tag k="ssr:stedsnr" v="74666" />
	</node>
	<node lat="63.99547777804014" lon="12.533794435207131" id="-49618">
		<tag k="name" v="Hattjønnin" />
		<tag k="name:no" v="Hattjønnin" />
		<tag k="natural" v="water" />
		<tag k="ssr:stedsnr" v="74673" />
	</node>
	<node lat="64.21901111419454" lon="12.922427787833826" id="-49620">
		<tag k="name" v="Seterbekken" />
		<tag k="name:no" v="Seterbekken" />
		<tag k="ssr:stedsnr" v="74920" />
		<tag k="waterway" v="stream" />
	</node>
	<node lat="64.11011388709987" lon="12.863419447336614" id="-49621">
		<tag k="name" v="Breivikbukta" />
		<tag k="name:no" v="Breivikbukta" />
		<tag k="natural" v="bay" />
		<tag k="ssr:stedsnr" v="74953" />
	</node>
	<node lat="64.41508888628071" lon="12.929916663068122" id="-49624">
		<tag k="name" v="Stuggunestjønna" />
		<tag k="name:no" v="Stuggunestjønna" />
		<tag k="natural" v="water" />
		<tag k="ssr:stedsnr" v="75313" />
	</node>
	<node lat="64.30187499592661" lon="12.53005000632107" id="-49626">
		<tag k="name" v="Holåbekken" />
		<tag k="name:no" v="Holåbekken" />
		<tag k="ssr:stedsnr" v="75411" />
		<tag k="waterway" v="stream" />
	</node>
	<node lat="64.30629999848867" lon="12.352552778101257" id="-49627">
		<tag k="name" v="Korsvollelva" />
		<tag k="name:no" v="Korsvollelva" />
		<tag k="ssr:stedsnr" v="75412" />
		<tag k="waterway" v="stream" />
	</node>
	<node lat="64.30751944864438" lon="12.3144222295817" id="-49628">
		<tag k="name" v="Gauslitjønna" />
		<tag k="name:no" v="Gauslitjønna" />
		<tag k="natural" v="water" />
		<tag k="ssr:stedsnr" v="75413" />
	</node>
	<node lat="64.1764999988283" lon="12.435624990904984" id="-49631">
		<tag k="name" v="Åsatjønna" />
		<tag k="name:no" v="Åsatjønna" />
		<tag k="natural" v="water" />
		<tag k="ssr:stedsnr" v="75552" />
	</node>
	<node lat="64.17513611316419" lon="12.304444439418038" id="-49633">
		<tag k="alt_name:no" v="Merkesbekken, vestre;Merkesbekken" />
		<tag k="name" v="Vestre Merkesbekken" />
		<tag k="name:no" v="Vestre Merkesbekken" />
		<tag k="ssr:stedsnr" v="75564" />
		<tag k="waterway" v="stream" />
	</node>
	<node lat="64.05984166635432" lon="12.896416668102873" id="-49636">
		<tag k="name" v="Gardholmen" />
		<tag k="name:no" v="Gardholmen" />
		<tag k="place" v="islet" />
		<tag k="ssr:stedsnr" v="75814" />
	</node>
	<node lat="64.07019722133846" lon="12.959852777613536" id="-49637">
		<tag k="name" v="Linbekken" />
		<tag k="name:no" v="Linbekken" />
		<tag k="ssr:stedsnr" v="75818" />
		<tag k="waterway" v="stream" />
	</node>
	<node lat="64.15635833777472" lon="12.848094435927264" id="-49640">
		<tag k="name" v="Skardtjønna" />
		<tag k="name:no" v="Skardtjønna" />
		<tag k="natural" v="water" />
		<tag k="ssr:stedsnr" v="75966" />
	</node>
	<node lat="64.15315277988546" lon="12.914125001456613" id="-49641">
		<tag k="name" v="Plukkutjønna" />
		<tag k="name:no" v="Plukkutjønna" />
		<tag k="natural" v="water" />
		<tag k="ssr:stedsnr" v="75968" />
	</node>
	<node lat="64.26914444635084" lon="12.366880545503067" id="-49643">
		<tag k="name" v="Kvernbekken" />
		<tag k="name:no" v="Kvernbekken" />
		<tag k="ssr:stedsnr" v="90442" />
		<tag k="waterway" v="stream" />
	</node>
	<node lat="64.27682499618496" lon="12.86621943919872" id="-49655">
		<tag k="name" v="Litle Svarthollet" />
		<tag k="name:no" v="Litle Svarthollet" />
		<tag k="natural" v="bay" />
		<tag k="ssr:stedsnr" v="109071" />
	</node>
	<node lat="64.31432500414805" lon="12.433611119628944" id="-49659">
		<tag k="name" v="Fiskbekken" />
		<tag k="name:no" v="Fiskbekken" />
		<tag k="ssr:stedsnr" v="109089" />
		<tag k="waterway" v="stream" />
	</node>
	<node lat="64.24682222280468" lon="12.109358325763953" id="-49660">
		<tag k="name" v="Finnbudammen" />
		<tag k="name:no" v="Finnbudammen" />
		<tag k="place" v="locality" />
		<tag k="ssr:stedsnr" v="109274" />
	</node>
	<node lat="64.2994472215334" lon="12.535947220704939" id="-49662">
		<tag k="name" v="Lomtjønna" />
		<tag k="name:no" v="Lomtjønna" />
		<tag k="natural" v="water" />
		<tag k="ssr:stedsnr" v="109120" />
	</node>
	<node lat="64.24521389154769" lon="12.053933336439206" id="-49665">
		<tag k="name" v="Seterbekken" />
		<tag k="name:no" v="Seterbekken" />
		<tag k="ssr:stedsnr" v="109185" />
		<tag k="waterway" v="stream" />
	</node>
	<node lat="64.06233333686346" lon="12.173030563996715" id="-49669">
		<tag k="name" v="Holsingsela" />
		<tag k="name:no" v="Holsingsela" />
		<tag k="natural" v="water" />
		<tag k="ssr:stedsnr" v="109420" />
		<tag k="water" v="lake" />
	</node>
	<node lat="64.16215277637193" lon="12.713166675517158" id="-49675">
		<tag k="name" v="Fjelltjønnin" />
		<tag k="name:no" v="Fjelltjønnin" />
		<tag k="natural" v="water" />
		<tag k="ssr:stedsnr" v="110025" />
	</node>
	<node lat="64.35284722605539" lon="12.459066671301043" id="-49676">
		<tag k="name" v="Fjellsletttjønna" />
		<tag k="name:no" v="Fjellsletttjønna" />
		<tag k="natural" v="water" />
		<tag k="ssr:stedsnr" v="109969" />
	</node>
	<node lat="64.15100000164485" lon="12.44624166971686" id="-49682">
		<tag k="name" v="Brennmolanda" />
		<tag k="name:no" v="Brennmolanda" />
		<tag k="natural" v="cape" />
		<tag k="ssr:stedsnr" v="110369" />
	</node>
	<node lat="64.03809444634246" lon="12.629147219762615" id="-49689">
		<tag k="name" v="Steinkjerholmen" />
		<tag k="name:no" v="Steinkjerholmen" />
		<tag k="place" v="islet" />
		<tag k="ssr:stedsnr" v="110775" />
	</node>
	<node lat="64.01478333723817" lon="12.664627782561446" id="-49690">
		<tag k="name" v="Storholmen" />
		<tag k="name:no" v="Storholmen" />
		<tag k="place" v="islet" />
		<tag k="ssr:stedsnr" v="110778" />
	</node>
	<node lat="64.25576666675633" lon="12.86274443472035" id="-49692">
		<tag k="name" v="Kamtjønnin" />
		<tag k="name:no" v="Kamtjønnin" />
		<tag k="natural" v="water" />
		<tag k="ssr:stedsnr" v="134259" />
	</node>
	<node lat="64.1490333322238" lon="12.286255553672088" id="-49695">
		<tag k="name" v="Viemtjønnin" />
		<tag k="name:no" v="Viemtjønnin" />
		<tag k="natural" v="water" />
		<tag k="ssr:stedsnr" v="134616" />
	</node>
</osm>
