<?xml version="1.0" encoding="UTF-8"?>
<osm version="0.6" generator="osmapis">
	<node lat="64.31881944063917" lon="12.387794447383492" id="-35259">
		<tag k="name" v="Pemyra" />
		<tag k="name:no" v="Pemyra" />
		<tag k="natural" v="wetland" />
		<tag k="ssr:stedsnr" v="230619" />
	</node>
	<node lat="64.34659999904791" lon="12.328594450047763" id="-35260">
		<tag k="name" v="Flatslettet" />
		<tag k="name:no" v="Flatslettet" />
		<tag k="natural" v="wetland" />
		<tag k="ssr:stedsnr" v="230016" />
	</node>
	<node lat="64.33038888761287" lon="12.304961100632397" id="-35261">
		<tag k="name" v="Litlmyra" />
		<tag k="name:no" v="Litlmyra" />
		<tag k="natural" v="wetland" />
		<tag k="ssr:stedsnr" v="230022" />
	</node>
	<node lat="64.35605832992391" lon="12.3694000031348" id="-35264">
		<tag k="name" v="Postmyra" />
		<tag k="name:no" v="Postmyra" />
		<tag k="natural" v="wetland" />
		<tag k="ssr:stedsnr" v="230048" />
	</node>
	<node lat="64.18640555839318" lon="12.407844449442095" id="-35268">
		<tag k="name" v="Finnhusslettet" />
		<tag k="name:no" v="Finnhusslettet" />
		<tag k="natural" v="wetland" />
		<tag k="ssr:stedsnr" v="230067" />
	</node>
	<node lat="64.31154166706419" lon="12.502558327342308" id="-35271">
		<tag k="name" v="Brugjøta" />
		<tag k="name:no" v="Brugjøta" />
		<tag k="natural" v="wetland" />
		<tag k="ssr:stedsnr" v="230073" />
	</node>
	<node lat="64.2332694426637" lon="12.037638895900736" id="-35278">
		<tag k="name" v="Austermyra" />
		<tag k="name:no" v="Austermyra" />
		<tag k="natural" v="wetland" />
		<tag k="ssr:stedsnr" v="230367" />
	</node>
	<node lat="64.33625277737812" lon="12.376013884102067" id="-35282">
		<tag k="name" v="Tomasmyra" />
		<tag k="name:no" v="Tomasmyra" />
		<tag k="natural" v="wetland" />
		<tag k="ssr:stedsnr" v="230822" />
	</node>
	<node lat="64.16901389072714" lon="12.547436111610745" id="-35286">
		<tag k="name" v="Vassaunet" />
		<tag k="name:no" v="Vassaunet" />
		<tag k="place" v="locality" />
		<tag k="ssr:stedsnr" v="231198" />
	</node>
	<node lat="64.17209444784017" lon="12.52106110297671" id="-35287">
		<tag k="name" v="Storbuenget" />
		<tag k="name:no" v="Storbuenget" />
		<tag k="place" v="locality" />
		<tag k="ssr:stedsnr" v="231201" />
	</node>
	<node lat="63.97269166533785" lon="12.61266389354975" id="-35290">
		<tag k="name" v="Kjenstadmyran" />
		<tag k="name:no" v="Kjenstadmyran" />
		<tag k="natural" v="wetland" />
		<tag k="ssr:stedsnr" v="231214" />
	</node>
	<node lat="64.22913055960909" lon="12.055394435126107" id="-35297">
		<tag k="name" v="Langmyra" />
		<tag k="name:no" v="Langmyra" />
		<tag k="natural" v="wetland" />
		<tag k="ssr:stedsnr" v="231460" />
	</node>
	<node lat="64.26320555497266" lon="12.189230545754713" id="-35304">
		<tag k="landuse" v="meadow" />
		<tag k="name" v="Gamvollen" />
		<tag k="name:no" v="Gamvollen" />
		<tag k="ssr:stedsnr" v="231574" />
	</node>
	<node lat="64.17895833459244" lon="12.596355550911266" id="-35310">
		<tag k="landuse" v="meadow" />
		<tag k="name" v="Storgrubba" />
		<tag k="name:no" v="Storgrubba" />
		<tag k="ssr:stedsnr" v="231958" />
	</node>
	<node lat="64.11443055188379" lon="13.061263887768147" id="-35317">
		<tag k="name" v="Gauplimyra" />
		<tag k="name:no" v="Gauplimyra" />
		<tag k="natural" v="wetland" />
		<tag k="ssr:stedsnr" v="13989" />
	</node>
	<node lat="64.19052222127785" lon="12.234638880096101" id="-35349">
		<tag k="name" v="Grossmyra" />
		<tag k="name:no" v="Grossmyra" />
		<tag k="natural" v="wetland" />
		<tag k="ssr:stedsnr" v="29314" />
	</node>
	<node lat="64.23969166487394" lon="12.317633326169256" id="-35357">
		<tag k="name" v="Litlenget" />
		<tag k="name:no" v="Litlenget" />
		<tag k="place" v="locality" />
		<tag k="ssr:stedsnr" v="29386" />
	</node>
	<node lat="64.23021944576927" lon="12.538900008387055" id="-35362">
		<tag k="name" v="Bjørkmyra" />
		<tag k="name:no" v="Bjørkmyra" />
		<tag k="natural" v="wetland" />
		<tag k="ssr:stedsnr" v="29512" />
	</node>
	<node lat="64.21025277548586" lon="12.352100003473412" id="-35364">
		<tag k="name" v="Revtjønnmyra" />
		<tag k="name:no" v="Revtjønnmyra" />
		<tag k="natural" v="wetland" />
		<tag k="ssr:stedsnr" v="29421" />
	</node>
	<node lat="64.28460277953964" lon="12.454736118674825" id="-35366">
		<tag k="name" v="Lauvbergmyra" />
		<tag k="name:no" v="Lauvbergmyra" />
		<tag k="natural" v="wetland" />
		<tag k="ssr:stedsnr" v="29565" />
	</node>
	<node lat="64.35079999756717" lon="12.316825000355255" id="-35371">
		<tag k="name" v="Raudsjøslettet" />
		<tag k="name:no" v="Raudsjøslettet" />
		<tag k="natural" v="wetland" />
		<tag k="ssr:stedsnr" v="48014" />
	</node>
	<node lat="64.29670000212057" lon="12.476338895860225" id="-35373">
		<tag k="historic" v="shieling" />
		<tag k="name" v="Langvassmoseteren" />
		<tag k="name:no" v="Langvassmoseteren" />
		<tag k="place" v="locality" />
		<tag k="ssr:stedsnr" v="48025" />
	</node>
	<node lat="64.30030833465659" lon="12.527869439165727" id="-35375">
		<tag k="name" v="Holåmyra" />
		<tag k="name:no" v="Holåmyra" />
		<tag k="natural" v="wetland" />
		<tag k="ssr:stedsnr" v="48103" />
	</node>
	<node lat="64.28333055932042" lon="12.213855565866554" id="-35381">
		<tag k="landuse" v="meadow" />
		<tag k="name" v="Storslåtta" />
		<tag k="name:no" v="Storslåtta" />
		<tag k="ssr:stedsnr" v="48570" />
	</node>
	<node lat="64.27653055661263" lon="12.202294434265845" id="-35382">
		<tag k="landuse" v="meadow" />
		<tag k="name" v="Gamvollen" />
		<tag k="name:no" v="Gamvollen" />
		<tag k="ssr:stedsnr" v="48571" />
	</node>
	<node lat="64.31570000198109" lon="12.369552778903492" id="-35383">
		<tag k="landuse" v="meadow" />
		<tag k="name" v="Stordalsvollen" />
		<tag k="name:no" v="Stordalsvollen" />
		<tag k="ssr:stedsnr" v="48611" />
	</node>
	<node lat="64.32539999576167" lon="12.307836113835258" id="-35386">
		<tag k="name" v="Blokkmyra" />
		<tag k="name:no" v="Blokkmyra" />
		<tag k="natural" v="wetland" />
		<tag k="ssr:stedsnr" v="48697" />
	</node>
	<node lat="64.33616388541378" lon="12.387249989630826" id="-35387">
		<tag k="landuse" v="meadow" />
		<tag k="name" v="Småslettet" />
		<tag k="name:no" v="Småslettet" />
		<tag k="ssr:stedsnr" v="48801" />
	</node>
	<node lat="64.14999444664626" lon="12.505425004614603" id="-35392">
		<tag k="name" v="Lauvåsrønningen" />
		<tag k="name:no" v="Lauvåsrønningen" />
		<tag k="place" v="locality" />
		<tag k="ssr:stedsnr" v="49821" />
	</node>
	<node lat="64.26091111129278" lon="12.70662777137355" id="-35394">
		<tag k="name" v="Råslåtta" />
		<tag k="name:no" v="Råslåtta" />
		<tag k="place" v="locality" />
		<tag k="ssr:stedsnr" v="50489" />
	</node>
	<node lat="64.28461666737635" lon="13.04172222572096" id="-35406">
		<tag k="historic" v="shieling" />
		<tag k="name" v="Gressåmoseteren" />
		<tag k="name:no" v="Gressåmoseteren" />
		<tag k="place" v="locality" />
		<tag k="ssr:stedsnr" v="74269" />
	</node>
	<node lat="64.18663055780294" lon="12.58522499784226" id="-35432">
		<tag k="name" v="Reinsjømyran" />
		<tag k="name:no" v="Reinsjømyran" />
		<tag k="natural" v="wetland" />
		<tag k="ssr:stedsnr" v="75562" />
	</node>
	<node lat="64.0718416679751" lon="12.593527771987834" id="-35434">
		<tag k="name" v="Ekornlundan" />
		<tag k="name:no" v="Ekornlundan" />
		<tag k="place" v="locality" />
		<tag k="ssr:stedsnr" v="75661" />
	</node>
	<node lat="64.05489999588895" lon="12.87525554686636" id="-35435">
		<tag k="name" v="Gamvollmyran" />
		<tag k="name:no" v="Gamvollmyran" />
		<tag k="natural" v="wetland" />
		<tag k="ssr:stedsnr" v="75810" />
	</node>
	<node lat="64.2654249971412" lon="12.343536114206508" id="-35445">
		<tag k="name" v="Flåtta" />
		<tag k="name:no" v="Flåtta" />
		<tag k="place" v="locality" />
		<tag k="ssr:stedsnr" v="90446" />
	</node>
	<node lat="64.22754166426915" lon="12.384897214701775" id="-35447">
		<tag k="name" v="Raudmyra" />
		<tag k="name:no" v="Raudmyra" />
		<tag k="natural" v="wetland" />
		<tag k="ssr:stedsnr" v="90376" />
	</node>
	<node lat="64.2122944429794" lon="12.32785833917222" id="-35449">
		<tag k="name" v="Nord-Svartåsmyra" />
		<tag k="name:no" v="Nord-Svartåsmyra" />
		<tag k="natural" v="wetland" />
		<tag k="ssr:stedsnr" v="90398" />
	</node>
	<node lat="64.26802777808733" lon="12.534519443174586" id="-35451">
		<tag k="name" v="Ålmomyra" />
		<tag k="name:no" v="Ålmomyra" />
		<tag k="natural" v="wetland" />
		<tag k="ssr:stedsnr" v="90516" />
	</node>
	<node lat="64.32519722651034" lon="12.531213881240532" id="-35457">
		<tag k="name" v="Våtmyrin" />
		<tag k="name:no" v="Våtmyrin" />
		<tag k="natural" v="wetland" />
		<tag k="ssr:stedsnr" v="109082" />
	</node>
	<node lat="64.31368332902521" lon="12.468294449732914" id="-35458">
		<tag k="name" v="Smågjøtin" />
		<tag k="name:no" v="Smågjøtin" />
		<tag k="natural" v="wetland" />
		<tag k="ssr:stedsnr" v="109085" />
	</node>
	<node lat="64.29974166515981" lon="12.539555558289267" id="-35463">
		<tag k="name" v="Lomtjønnmyra" />
		<tag k="name:no" v="Lomtjønnmyra" />
		<tag k="natural" v="wetland" />
		<tag k="ssr:stedsnr" v="109121" />
	</node>
	<node lat="64.23468333742895" lon="12.12346944506736" id="-35466">
		<tag k="name" v="Torvmyra" />
		<tag k="name:no" v="Torvmyra" />
		<tag k="natural" v="wetland" />
		<tag k="ssr:stedsnr" v="109372" />
	</node>
	<node lat="64.22639722205301" lon="12.114341663356912" id="-35467">
		<tag k="name" v="Rønningslåtta" />
		<tag k="name:no" v="Rønningslåtta" />
		<tag k="place" v="locality" />
		<tag k="ssr:stedsnr" v="109373" />
	</node>
	<node lat="64.2910222253833" lon="12.270683334205566" id="-35468">
		<tag k="landuse" v="meadow" />
		<tag k="name" v="Trekvislslettet" />
		<tag k="name:no" v="Trekvislslettet" />
		<tag k="ssr:stedsnr" v="109514" />
	</node>
	<node lat="64.2221500017851" lon="12.020808326034167" id="-35470">
		<tag k="name" v="Stormyra" />
		<tag k="name:no" v="Stormyra" />
		<tag k="natural" v="wetland" />
		<tag k="ssr:stedsnr" v="109423" />
	</node>
	<node lat="64.34674166229263" lon="12.413066667452249" id="-35471">
		<tag k="name" v="Grønranda" />
		<tag k="name:no" v="Grønranda" />
		<tag k="natural" v="wetland" />
		<tag k="ssr:stedsnr" v="109772" />
	</node>
	<node lat="64.34296944454616" lon="12.35881944032446" id="-35472">
		<tag k="name" v="Skreddarmyra" />
		<tag k="name:no" v="Skreddarmyra" />
		<tag k="natural" v="wetland" />
		<tag k="ssr:stedsnr" v="109779" />
	</node>
	<node lat="64.20107500406093" lon="12.548941670025783" id="-35478">
		<tag k="landuse" v="meadow" />
		<tag k="name" v="Gåstjønnslettet" />
		<tag k="name:no" v="Gåstjønnslettet" />
		<tag k="ssr:stedsnr" v="110211" />
	</node>
	<node lat="64.32195278178993" lon="12.558752776696235" id="-35481">
		<tag k="landuse" v="meadow" />
		<tag k="name" v="Bonsenget" />
		<tag k="name:no" v="Bonsenget" />
		<tag k="ssr:stedsnr" v="110285" />
	</node>
	<node lat="64.15011666540622" lon="12.440408331227529" id="-35483">
		<tag k="name" v="Hamptjønnmyra" />
		<tag k="name:no" v="Hamptjønnmyra" />
		<tag k="natural" v="wetland" />
		<tag k="ssr:stedsnr" v="110374" />
	</node>
	<node lat="64.32177499841139" lon="12.655311118971895" id="-35484">
		<tag k="name" v="Tjønnmyra" />
		<tag k="name:no" v="Tjønnmyra" />
		<tag k="natural" v="wetland" />
		<tag k="ssr:stedsnr" v="110375" />
	</node>
	<node lat="64.24859721819908" lon="12.653491664989618" id="-35485">
		<tag k="name" v="Hallarslettet" />
		<tag k="name:no" v="Hallarslettet" />
		<tag k="place" v="locality" />
		<tag k="ssr:stedsnr" v="110589" />
	</node>
	<node lat="64.10000833742058" lon="13.05180278703735" id="-35509">
		<tag k="name" v="Olamyra" />
		<tag k="name:no" v="Olamyra" />
		<tag k="natural" v="wetland" />
		<tag k="ssr:stedsnr" v="135964" />
	</node>
	<node lat="64.26227499647092" lon="12.77922221555359" id="-35518">
		<tag k="name" v="Andorøran" />
		<tag k="name:no" v="Andorøran" />
		<tag k="place" v="locality" />
		<tag k="ssr:stedsnr" v="256252" />
	</node>
	<node lat="64.1801055547102" lon="12.112330551013283" id="-35526">
		<tag k="name" v="Frankrike" />
		<tag k="name:no" v="Frankrike" />
		<tag k="place" v="locality" />
		<tag k="ssr:stedsnr" v="256415" />
	</node>
	<node lat="64.23383055465096" lon="12.495611106080446" id="-35534">
		<tag k="name" v="Hamntjønnmyra" />
		<tag k="name:no" v="Hamntjønnmyra" />
		<tag k="natural" v="wetland" />
		<tag k="ssr:stedsnr" v="150506" />
	</node>
	<node lat="64.22766666989959" lon="12.502511105501673" id="-35535">
		<tag k="name" v="Surdalsmyra" />
		<tag k="name:no" v="Surdalsmyra" />
		<tag k="natural" v="wetland" />
		<tag k="ssr:stedsnr" v="150507" />
	</node>
	<node lat="64.27791111463385" lon="12.461900009311682" id="-35539">
		<tag k="name" v="Kalslættet" />
		<tag k="name:no" v="Kalslættet" />
		<tag k="natural" v="wetland" />
		<tag k="ssr:stedsnr" v="150559" />
	</node>
	<node lat="64.15631389034158" lon="12.49065276891488" id="-35544">
		<tag k="alt_name:no" v="Steinkjermyrin" />
		<tag k="name" v="Steinkjermyran" />
		<tag k="name:no" v="Steinkjermyran" />
		<tag k="natural" v="wetland" />
		<tag k="ssr:stedsnr" v="256531" />
	</node>
	<node lat="64.01326388491489" lon="12.666391659080565" id="-35557">
		<tag k="name" v="Finnskallneset" />
		<tag k="name:no" v="Finnskallneset" />
		<tag k="place" v="locality" />
		<tag k="ssr:stedsnr" v="256851" />
	</node>
	<node lat="64.21919444868624" lon="12.440325010667415" id="-35560">
		<tag k="name" v="Raudmyra" />
		<tag k="name:no" v="Raudmyra" />
		<tag k="natural" v="wetland" />
		<tag k="ssr:stedsnr" v="256708" />
	</node>
	<node lat="64.09819166421374" lon="13.08747777860658" id="-35565">
		<tag k="name" v="Svennstormyra" />
		<tag k="name:no" v="Svennstormyra" />
		<tag k="natural" v="wetland" />
		<tag k="ssr:stedsnr" v="256976" />
	</node>
	<node lat="64.27717499622993" lon="12.567527768614811" id="-35573">
		<tag k="name" v="Omlimyran" />
		<tag k="name:no" v="Omlimyran" />
		<tag k="natural" v="wetland" />
		<tag k="ssr:stedsnr" v="257416" />
	</node>
	<node lat="64.18831389309875" lon="12.396305562624798" id="-35584">
		<tag k="fixme" v="multiple name tags, choose one and add the other to alt_name" />
		<tag k="name" v="Imsdalsmyra;Berntslettet" />
		<tag k="name:no" v="Imsdalsmyra;Berntslettet" />
		<tag k="natural" v="wetland" />
		<tag k="ssr:stedsnr" v="257596" />
	</node>
	<node lat="64.29568611399016" lon="12.480311106950644" id="-35595">
		<tag k="name" v="Langvassmyra" />
		<tag k="name:no" v="Langvassmyra" />
		<tag k="natural" v="wetland" />
		<tag k="ssr:stedsnr" v="169016" />
	</node>
	<node lat="64.31763611137715" lon="12.501386101887189" id="-35598">
		<tag k="name" v="Kråsmarka" />
		<tag k="name:no" v="Kråsmarka" />
		<tag k="place" v="locality" />
		<tag k="ssr:stedsnr" v="169057" />
	</node>
	<node lat="64.21362777991877" lon="12.530536119899045" id="-35601">
		<tag k="name" v="Kolvstormyra" />
		<tag k="name:no" v="Kolvstormyra" />
		<tag k="natural" v="wetland" />
		<tag k="ssr:stedsnr" v="170018" />
	</node>
	<node lat="64.17726944777729" lon="12.32298056452245" id="-35607">
		<tag k="landuse" v="meadow" />
		<tag k="name" v="Rennan" />
		<tag k="name:no" v="Rennan" />
		<tag k="ssr:stedsnr" v="170270" />
	</node>
	<node lat="64.24928055966905" lon="12.135613885038435" id="-35608">
		<tag k="landuse" v="meadow" />
		<tag k="name" v="Storenget" />
		<tag k="name:no" v="Storenget" />
		<tag k="ssr:stedsnr" v="170313" />
	</node>
	<node lat="64.24931666958062" lon="12.14419165908322" id="-35609">
		<tag k="landuse" v="meadow" />
		<tag k="name" v="Litlbuenget" />
		<tag k="name:no" v="Litlbuenget" />
		<tag k="ssr:stedsnr" v="170314" />
	</node>
	<node lat="64.22871110834767" lon="12.001769434342117" id="-35610">
		<tag k="name" v="Johanslettet" />
		<tag k="name:no" v="Johanslettet" />
		<tag k="natural" v="wetland" />
		<tag k="ssr:stedsnr" v="170464" />
	</node>
	<node lat="64.33403333238547" lon="12.36608888823528" id="-35616">
		<tag k="name" v="Brennmyrbekken" />
		<tag k="name:no" v="Brennmyrbekken" />
		<tag k="natural" v="wetland" />
		<tag k="ssr:stedsnr" v="170867" />
	</node>
	<node lat="64.36188055141555" lon="12.531752767619347" id="-35630">
		<tag k="name" v="Lonmyran" />
		<tag k="name:no" v="Lonmyran" />
		<tag k="natural" v="wetland" />
		<tag k="ssr:stedsnr" v="196411" />
	</node>
	<node lat="64.22367778083249" lon="12.305411110810322" id="-35641">
		<tag k="name" v="Brennmyra" />
		<tag k="name:no" v="Brennmyra" />
		<tag k="natural" v="wetland" />
		<tag k="ssr:stedsnr" v="196720" />
	</node>
	<node lat="64.10048055255206" lon="13.094636112793847" id="-35646">
		<tag k="name" v="Stormyra" />
		<tag k="name:no" v="Stormyra" />
		<tag k="natural" v="wetland" />
		<tag k="ssr:stedsnr" v="196976" />
	</node>
	<node lat="64.28657777435292" lon="12.264824992789682" id="-35660">
		<tag k="name" v="Støvermyra" />
		<tag k="name:no" v="Støvermyra" />
		<tag k="natural" v="wetland" />
		<tag k="ssr:stedsnr" v="211343" />
	</node>
	<node lat="64.22360277476837" lon="12.324402775901122" id="-35662">
		<tag k="name" v="Bjørnamyra" />
		<tag k="name:no" v="Bjørnamyra" />
		<tag k="natural" v="wetland" />
		<tag k="ssr:stedsnr" v="211392" />
	</node>
	<node lat="64.3039750017209" lon="12.516641676137235" id="-35666">
		<tag k="name" v="Smågjøtin" />
		<tag k="name:no" v="Smågjøtin" />
		<tag k="natural" v="wetland" />
		<tag k="ssr:stedsnr" v="230113" />
	</node>
	<node lat="64.28937221828302" lon="12.440580557925257" id="-35667">
		<tag k="name" v="Skogslåtta" />
		<tag k="name:no" v="Skogslåtta" />
		<tag k="natural" v="wetland" />
		<tag k="ssr:stedsnr" v="230002" />
	</node>
	<node lat="64.32846110835781" lon="12.525280548001938" id="-35670">
		<tag k="landuse" v="meadow" />
		<tag k="name" v="Stormyrslettet" />
		<tag k="name:no" v="Stormyrslettet" />
		<tag k="ssr:stedsnr" v="230080" />
	</node>
	<node lat="64.32874999757651" lon="12.510775009286597" id="-35671">
		<tag k="landuse" v="meadow" />
		<tag k="name" v="Skogengan" />
		<tag k="name:no" v="Skogengan" />
		<tag k="ssr:stedsnr" v="230088" />
	</node>
	<node lat="64.31605555652982" lon="12.48650277380735" id="-35673">
		<tag k="name" v="Kleivmyra" />
		<tag k="name:no" v="Kleivmyra" />
		<tag k="natural" v="wetland" />
		<tag k="ssr:stedsnr" v="230095" />
	</node>
	<node lat="64.31768333169143" lon="12.440441666919957" id="-35674">
		<tag k="name" v="Setermyra" />
		<tag k="name:no" v="Setermyra" />
		<tag k="natural" v="wetland" />
		<tag k="ssr:stedsnr" v="230097" />
	</node>
	<node lat="64.32821944126553" lon="12.603044440721945" id="-35675">
		<tag k="landuse" v="meadow" />
		<tag k="name" v="Nessislettet" />
		<tag k="name:no" v="Nessislettet" />
		<tag k="ssr:stedsnr" v="230279" />
	</node>
	<node lat="64.29891944862894" lon="12.318236120446842" id="-35677">
		<tag k="name" v="Stormyra" />
		<tag k="name:no" v="Stormyra" />
		<tag k="natural" v="wetland" />
		<tag k="ssr:stedsnr" v="230679" />
	</node>
	<node lat="64.31169166908205" lon="12.322180557516736" id="-35678">
		<tag k="name" v="Stormyra" />
		<tag k="name:no" v="Stormyra" />
		<tag k="natural" v="wetland" />
		<tag k="ssr:stedsnr" v="230691" />
	</node>
	<node lat="64.21923055913203" lon="12.509447222607935" id="-35682">
		<tag k="name" v="Olufseteren" />
		<tag k="name:no" v="Olufseteren" />
		<tag k="place" v="locality" />
		<tag k="ssr:stedsnr" v="231002" />
	</node>
	<node lat="64.1295416673743" lon="12.350558323809816" id="-35692">
		<tag k="landuse" v="meadow" />
		<tag k="name" v="Grubbslåtten" />
		<tag k="name:no" v="Grubbslåtten" />
		<tag k="ssr:stedsnr" v="231191" />
	</node>
	<node lat="64.37418055808274" lon="12.602322215227959" id="-35694">
		<tag k="landuse" v="meadow" />
		<tag k="name" v="Fosstakkenget" />
		<tag k="name:no" v="Fosstakkenget" />
		<tag k="ssr:stedsnr" v="231533" />
	</node>
	<node lat="64.16368611541756" lon="12.049919443837172" id="-35696">
		<tag k="name" v="Auster-Sørmyra" />
		<tag k="name:no" v="Auster-Sørmyra" />
		<tag k="natural" v="wetland" />
		<tag k="ssr:stedsnr" v="231516" />
	</node>
	<node lat="64.21703611460505" lon="12.025549992806" id="-35704">
		<tag k="name" v="Torvmyra" />
		<tag k="name:no" v="Torvmyra" />
		<tag k="natural" v="wetland" />
		<tag k="ssr:stedsnr" v="453978" />
	</node>
	<node lat="64.22086388968448" lon="12.013797218077798" id="-35705">
		<tag k="name" v="Djupdalsmyra" />
		<tag k="name:no" v="Djupdalsmyra" />
		<tag k="natural" v="wetland" />
		<tag k="ssr:stedsnr" v="453981" />
	</node>
	<node lat="64.21440832949524" lon="12.287008336416454" id="-35707">
		<tag k="name" v="Bergmyra" />
		<tag k="name:no" v="Bergmyra" />
		<tag k="natural" v="wetland" />
		<tag k="ssr:stedsnr" v="454325" />
	</node>
	<node lat="64.20754999836753" lon="12.249288883917998" id="-35709">
		<tag k="name" v="Torvmyra" />
		<tag k="name:no" v="Torvmyra" />
		<tag k="natural" v="wetland" />
		<tag k="ssr:stedsnr" v="454331" />
	</node>
	<node lat="64.20969722188438" lon="12.403394442948887" id="-35714">
		<tag k="name" v="Skansmyra" />
		<tag k="name:no" v="Skansmyra" />
		<tag k="natural" v="wetland" />
		<tag k="ssr:stedsnr" v="454431" />
	</node>
	<node lat="64.1946750000071" lon="12.176530547447815" id="-35715">
		<tag k="name" v="Lindberggjøta" />
		<tag k="name:no" v="Lindberggjøta" />
		<tag k="natural" v="wetland" />
		<tag k="ssr:stedsnr" v="454285" />
	</node>
	<node lat="64.22862499629447" lon="12.436072228064901" id="-35720">
		<tag k="name" v="Rundmyra" />
		<tag k="name:no" v="Rundmyra" />
		<tag k="natural" v="wetland" />
		<tag k="ssr:stedsnr" v="454485" />
	</node>
	<node lat="64.22779721862565" lon="12.487155561212075" id="-35722">
		<tag k="name" v="Oksmyra" />
		<tag k="name:no" v="Oksmyra" />
		<tag k="natural" v="wetland" />
		<tag k="ssr:stedsnr" v="454495" />
	</node>
	<node lat="64.24610833195496" lon="12.469969449346944" id="-35724">
		<tag k="name" v="Grønmyra" />
		<tag k="name:no" v="Grønmyra" />
		<tag k="natural" v="wetland" />
		<tag k="ssr:stedsnr" v="454522" />
	</node>
	<node lat="64.27624166629205" lon="12.346183339654559" id="-35730">
		<tag k="name" v="Småhagaberga" />
		<tag k="name:no" v="Småhagaberga" />
		<tag k="place" v="locality" />
		<tag k="ssr:stedsnr" v="454456" />
	</node>
	<node lat="64.27273610807964" lon="12.461752769359144" id="-35731">
		<tag k="name" v="Barstadmyrin" />
		<tag k="name:no" v="Barstadmyrin" />
		<tag k="natural" v="wetland" />
		<tag k="ssr:stedsnr" v="454580" />
	</node>
	<node lat="64.24860277856878" lon="12.493327779763838" id="-35735">
		<tag k="name" v="Rønningan" />
		<tag k="name:no" v="Rønningan" />
		<tag k="place" v="locality" />
		<tag k="ssr:stedsnr" v="454637" />
	</node>
	<node lat="64.20964166231985" lon="12.396716669121462" id="-35743">
		<tag k="name" v="Bergmyra" />
		<tag k="name:no" v="Bergmyra" />
		<tag k="natural" v="wetland" />
		<tag k="ssr:stedsnr" v="256481" />
	</node>
	<node lat="64.21453888614997" lon="12.332719439945219" id="-35744">
		<tag k="name" v="Svartåsmyran" />
		<tag k="name:no" v="Svartåsmyran" />
		<tag k="natural" v="wetland" />
		<tag k="ssr:stedsnr" v="256482" />
	</node>
	<node lat="64.23285555813327" lon="12.842469437611767" id="-35749">
		<tag k="alt_name:no" v="Seisjømyran" />
		<tag k="name" v="Seisjømyrin" />
		<tag k="name:no" v="Seisjømyrin" />
		<tag k="natural" v="wetland" />
		<tag k="ssr:stedsnr" v="256911" />
	</node>
	<node lat="64.3479249992874" lon="12.428200000180347" id="-35755">
		<tag k="name" v="Holbekkmyra" />
		<tag k="name:no" v="Holbekkmyra" />
		<tag k="natural" v="wetland" />
		<tag k="ssr:stedsnr" v="263310" />
	</node>
	<node lat="64.28503055796989" lon="12.314933340985824" id="-35759">
		<tag k="name" v="Myrskogmyrin" />
		<tag k="name:no" v="Myrskogmyrin" />
		<tag k="natural" v="wetland" />
		<tag k="ssr:stedsnr" v="272406" />
	</node>
	<node lat="64.2676222204853" lon="12.29399999060357" id="-35760">
		<tag k="name" v="Svedda" />
		<tag k="name:no" v="Svedda" />
		<tag k="place" v="locality" />
		<tag k="ssr:stedsnr" v="272408" />
	</node>
	<node lat="64.20339444508608" lon="12.368127784682233" id="-35762">
		<tag k="name" v="Persrønningen" />
		<tag k="name:no" v="Persrønningen" />
		<tag k="place" v="locality" />
		<tag k="ssr:stedsnr" v="272411" />
	</node>
	<node lat="64.20371111545049" lon="12.38893055530187" id="-35763">
		<tag k="name" v="Storslættet" />
		<tag k="name:no" v="Storslættet" />
		<tag k="natural" v="wetland" />
		<tag k="ssr:stedsnr" v="272412" />
	</node>
	<node lat="64.24262499615024" lon="12.34702222880101" id="-35768">
		<tag k="name" v="Prestgardsmyra" />
		<tag k="name:no" v="Prestgardsmyra" />
		<tag k="natural" v="wetland" />
		<tag k="ssr:stedsnr" v="272376" />
	</node>
	<node lat="64.26434721973615" lon="12.520930545195338" id="-35772">
		<tag k="name" v="Agleauna" />
		<tag k="name:no" v="Agleauna" />
		<tag k="place" v="locality" />
		<tag k="ssr:stedsnr" v="272575" />
	</node>
	<node lat="64.28214999885331" lon="12.558738891734754" id="-35775">
		<tag k="name" v="Eikmyra" />
		<tag k="name:no" v="Eikmyra" />
		<tag k="natural" v="wetland" />
		<tag k="ssr:stedsnr" v="272580" />
	</node>
	<node lat="64.33918888632729" lon="12.34445554806208" id="-35779">
		<tag k="name" v="Tjennaråsmyra" />
		<tag k="name:no" v="Tjennaråsmyra" />
		<tag k="natural" v="wetland" />
		<tag k="ssr:stedsnr" v="291027" />
	</node>
	<node lat="64.15554721881671" lon="12.46300833906834" id="-35784">
		<tag k="name" v="Åsamyra" />
		<tag k="name:no" v="Åsamyra" />
		<tag k="natural" v="wetland" />
		<tag k="ssr:stedsnr" v="291278" />
	</node>
	<node lat="64.23521944817784" lon="12.03582499995435" id="-35785">
		<tag k="name" v="Kråslettmyra" />
		<tag k="name:no" v="Kråslettmyra" />
		<tag k="natural" v="wetland" />
		<tag k="ssr:stedsnr" v="291403" />
	</node>
	<node lat="64.23833888641306" lon="12.054758330259427" id="-35786">
		<tag k="historic" v="shieling" />
		<tag k="name" v="Østvikseteren" />
		<tag k="name:no" v="Østvikseteren" />
		<tag k="place" v="locality" />
		<tag k="ssr:stedsnr" v="291404" />
	</node>
	<node lat="64.29800555316947" lon="12.378527770161822" id="-35790">
		<tag k="historic" v="shieling" />
		<tag k="name" v="Støvermoseteren" />
		<tag k="name:no" v="Støvermoseteren" />
		<tag k="place" v="locality" />
		<tag k="ssr:stedsnr" v="291686" />
	</node>
	<node lat="64.29796110861302" lon="12.400652769967541" id="-35791">
		<tag k="landuse" v="meadow" />
		<tag k="name" v="Slåtta" />
		<tag k="name:no" v="Slåtta" />
		<tag k="ssr:stedsnr" v="291694" />
	</node>
	<node lat="64.3215666637285" lon="12.326116674443755" id="-35793">
		<tag k="name" v="Kløyvmyra" />
		<tag k="name:no" v="Kløyvmyra" />
		<tag k="natural" v="wetland" />
		<tag k="ssr:stedsnr" v="291705" />
	</node>
	<node lat="64.16777221983234" lon="12.492302783919154" id="-35802">
		<tag k="name" v="Reithaugen" />
		<tag k="name:no" v="Reithaugen" />
		<tag k="place" v="locality" />
		<tag k="ssr:stedsnr" v="292182" />
	</node>
	<node lat="64.0581514605974" lon="12.874351922777254" id="-35831">
		<tag k="historic" v="shieling" />
		<tag k="name" v="Holdersseteren" />
		<tag k="name:no" v="Holdersseteren" />
		<tag k="place" v="locality" />
		<tag k="ssr:stedsnr" v="317703" />
	</node>
	<node lat="64.10407222609717" lon="13.106222215015126" id="-35838">
		<tag k="name" v="Flatmyra" />
		<tag k="name:no" v="Flatmyra" />
		<tag k="natural" v="wetland" />
		<tag k="ssr:stedsnr" v="317996" />
	</node>
	<node lat="64.27931944341547" lon="12.364563881736165" id="-35841">
		<tag k="name" v="Hellslættet" />
		<tag k="name:no" v="Hellslættet" />
		<tag k="natural" v="wetland" />
		<tag k="ssr:stedsnr" v="332447" />
	</node>
	<node lat="64.33162499803157" lon="12.351727783440023" id="-35856">
		<tag k="name" v="Hamptjønnmyra" />
		<tag k="name:no" v="Hamptjønnmyra" />
		<tag k="natural" v="wetland" />
		<tag k="ssr:stedsnr" v="473033" />
	</node>
	<node lat="64.2890388922399" lon="12.537383333648275" id="-35857">
		<tag k="name" v="Merkesmyra" />
		<tag k="name:no" v="Merkesmyra" />
		<tag k="natural" v="wetland" />
		<tag k="ssr:stedsnr" v="473039" />
	</node>
	<node lat="64.36001944786241" lon="12.396941660560227" id="-35858">
		<tag k="name" v="Råslåtta" />
		<tag k="name:no" v="Råslåtta" />
		<tag k="natural" v="wetland" />
		<tag k="ssr:stedsnr" v="473042" />
	</node>
	<node lat="64.106911108469" lon="13.09443055668233" id="-35861">
		<tag k="name" v="Langmyra" />
		<tag k="name:no" v="Langmyra" />
		<tag k="natural" v="wetland" />
		<tag k="ssr:stedsnr" v="473056" />
	</node>
	<node lat="64.18768889169407" lon="12.381141660710384" id="-35862">
		<tag k="name" v="Blakmyra" />
		<tag k="name:no" v="Blakmyra" />
		<tag k="natural" v="wetland" />
		<tag k="ssr:stedsnr" v="473057" />
	</node>
	<node lat="64.32332499737875" lon="12.550758329484465" id="-35865">
		<tag k="name" v="Nord Pemyra" />
		<tag k="name:no" v="Nord Pemyra" />
		<tag k="natural" v="wetland" />
		<tag k="ssr:stedsnr" v="473097" />
	</node>
	<node lat="64.28971944478083" lon="12.499408333530058" id="-35866">
		<tag k="historic" v="shieling" />
		<tag k="name" v="Bergsetseteren" />
		<tag k="name:no" v="Bergsetseteren" />
		<tag k="place" v="locality" />
		<tag k="ssr:stedsnr" v="473135" />
	</node>
	<node lat="64.13746944111035" lon="12.393502782961413" id="-35870">
		<tag k="name" v="Flåmyra" />
		<tag k="name:no" v="Flåmyra" />
		<tag k="natural" v="wetland" />
		<tag k="ssr:stedsnr" v="473247" />
	</node>
	<node lat="64.17004444499537" lon="12.34439444819611" id="-35871">
		<tag k="name" v="Elgmyra" />
		<tag k="name:no" v="Elgmyra" />
		<tag k="natural" v="wetland" />
		<tag k="ssr:stedsnr" v="473256" />
	</node>
	<node lat="64.26980277627875" lon="11.985963878842622" id="-35873">
		<tag k="name" v="Storsteingjøta" />
		<tag k="name:no" v="Storsteingjøta" />
		<tag k="natural" v="wetland" />
		<tag k="ssr:stedsnr" v="473184" />
	</node>
	<node lat="64.12121944320236" lon="12.340822220899103" id="-35874">
		<tag k="name" v="Homyra" />
		<tag k="name:no" v="Homyra" />
		<tag k="natural" v="wetland" />
		<tag k="ssr:stedsnr" v="473191" />
	</node>
	<node lat="64.26285555702499" lon="12.166527783057624" id="-35884">
		<tag k="landuse" v="meadow" />
		<tag k="name" v="Småengan" />
		<tag k="name:no" v="Småengan" />
		<tag k="ssr:stedsnr" v="473496" />
	</node>
	<node lat="64.29455277951114" lon="12.33886945142799" id="-35887">
		<tag k="landuse" v="meadow" />
		<tag k="name" v="Litlvollen" />
		<tag k="name:no" v="Litlvollen" />
		<tag k="ssr:stedsnr" v="473696" />
	</node>
	<node lat="64.29793888676281" lon="12.349897215256382" id="-35888">
		<tag k="historic" v="shieling" />
		<tag k="name" v="Karenseteren" />
		<tag k="name:no" v="Karenseteren" />
		<tag k="place" v="locality" />
		<tag k="ssr:stedsnr" v="473699" />
	</node>
	<node lat="64.35131666757532" lon="12.376688886046928" id="-35890">
		<tag k="name" v="Blakkmyra" />
		<tag k="name:no" v="Blakkmyra" />
		<tag k="natural" v="wetland" />
		<tag k="ssr:stedsnr" v="473813" />
	</node>
	<node lat="64.32172777605975" lon="12.455627769550706" id="-35896">
		<tag k="historic" v="shieling" />
		<tag k="name" v="Gammelseteren" />
		<tag k="name:no" v="Gammelseteren" />
		<tag k="place" v="locality" />
		<tag k="ssr:stedsnr" v="473915" />
	</node>
	<node lat="64.23659444685902" lon="12.105605550108734" id="-35897">
		<tag k="name" v="Stormyra" />
		<tag k="name:no" v="Stormyra" />
		<tag k="natural" v="wetland" />
		<tag k="ssr:stedsnr" v="351357" />
	</node>
	<node lat="64.3288833304743" lon="12.559702770892804" id="-35901">
		<tag k="name" v="Stor-Torkollmyran" />
		<tag k="name:no" v="Stor-Torkollmyran" />
		<tag k="natural" v="wetland" />
		<tag k="ssr:stedsnr" v="351258" />
	</node>
	<node lat="64.32521944739153" lon="12.393247225493033" id="-35902">
		<tag k="name" v="Bumyra" />
		<tag k="name:no" v="Bumyra" />
		<tag k="natural" v="wetland" />
		<tag k="ssr:stedsnr" v="351653" />
	</node>
	<node lat="64.16128055280154" lon="12.350797230522362" id="-35909">
		<tag k="historic" v="shieling" />
		<tag k="name" v="Bakkseteren" />
		<tag k="name:no" v="Bakkseteren" />
		<tag k="place" v="locality" />
		<tag k="ssr:stedsnr" v="352218" />
	</node>
	<node lat="64.24908611453972" lon="12.149544435657402" id="-35910">
		<tag k="name" v="Langmeisa" />
		<tag k="name:no" v="Langmeisa" />
		<tag k="natural" v="wetland" />
		<tag k="ssr:stedsnr" v="352272" />
	</node>
	<node lat="64.1035250001897" lon="12.231341667334839" id="-35912">
		<tag k="name" v="Sandstadseteren" />
		<tag k="name:no" v="Sandstadseteren" />
		<tag k="place" v="locality" />
		<tag k="ssr:stedsnr" v="352411" />
	</node>
	<node lat="64.14345833636006" lon="12.446286112719982" id="-35915">
		<tag k="name" v="Landa" />
		<tag k="name:no" v="Landa" />
		<tag k="natural" v="wetland" />
		<tag k="ssr:stedsnr" v="352356" />
	</node>
	<node lat="64.3146972196858" lon="12.652913886785694" id="-35917">
		<tag k="name" v="Naustlanda" />
		<tag k="name:no" v="Naustlanda" />
		<tag k="place" v="locality" />
		<tag k="ssr:stedsnr" v="474360" />
	</node>
	<node lat="64.31295555192072" lon="12.33821943592641" id="-35921">
		<tag k="name" v="Elgkjøttmyra" />
		<tag k="name:no" v="Elgkjøttmyra" />
		<tag k="natural" v="wetland" />
		<tag k="ssr:stedsnr" v="352711" />
	</node>
	<node lat="64.27530833623024" lon="12.7039444476691" id="-35927">
		<tag k="name" v="Holmslåtta" />
		<tag k="name:no" v="Holmslåtta" />
		<tag k="place" v="locality" />
		<tag k="ssr:stedsnr" v="474525" />
	</node>
	<node lat="64.28220556016689" lon="12.664174993362572" id="-35932">
		<tag k="landuse" v="meadow" />
		<tag k="name" v="Buslåtta" />
		<tag k="name:no" v="Buslåtta" />
		<tag k="ssr:stedsnr" v="474594" />
	</node>
	<node lat="64.3080083338301" lon="12.649375002923176" id="-35934">
		<tag k="name" v="Geilmyra" />
		<tag k="name:no" v="Geilmyra" />
		<tag k="natural" v="wetland" />
		<tag k="ssr:stedsnr" v="474690" />
	</node>
	<node lat="64.0609277807241" lon="12.878366674568438" id="-35947">
		<tag k="name" v="Kvernmyra" />
		<tag k="name:no" v="Kvernmyra" />
		<tag k="natural" v="wetland" />
		<tag k="ssr:stedsnr" v="378781" />
	</node>
	<node lat="64.27158055641416" lon="12.233933338777106" id="-35953">
		<tag k="name" v="Høgslættet" />
		<tag k="name:no" v="Høgslættet" />
		<tag k="natural" v="wetland" />
		<tag k="ssr:stedsnr" v="393337" />
	</node>
	<node lat="64.24240555205975" lon="12.40702499932417" id="-35954">
		<tag k="name" v="Kalsveddet" />
		<tag k="name:no" v="Kalsveddet" />
		<tag k="place" v="locality" />
		<tag k="ssr:stedsnr" v="393396" />
	</node>
	<node lat="64.25131944151697" lon="12.543327776465206" id="-35956">
		<tag k="name" v="Eikmyrin" />
		<tag k="name:no" v="Eikmyrin" />
		<tag k="natural" v="wetland" />
		<tag k="ssr:stedsnr" v="393520" />
	</node>
	<node lat="64.26971944825367" lon="12.355080563512304" id="-35960">
		<tag k="name" v="Sveddet" />
		<tag k="name:no" v="Sveddet" />
		<tag k="place" v="locality" />
		<tag k="ssr:stedsnr" v="393435" />
	</node>
	<node lat="64.22879166442844" lon="12.441961107182491" id="-35961">
		<tag k="name" v="Bumyra" />
		<tag k="name:no" v="Bumyra" />
		<tag k="natural" v="wetland" />
		<tag k="ssr:stedsnr" v="393481" />
	</node>
	<node lat="64.25265000415948" lon="12.52114444811051" id="-35964">
		<tag k="name" v="Sandmomyra" />
		<tag k="name:no" v="Sandmomyra" />
		<tag k="natural" v="wetland" />
		<tag k="ssr:stedsnr" v="393617" />
	</node>
	<node lat="64.33468610794824" lon="12.530830546528085" id="-35970">
		<tag k="name" v="Stormyra" />
		<tag k="name:no" v="Stormyra" />
		<tag k="natural" v="wetland" />
		<tag k="ssr:stedsnr" v="412986" />
	</node>
	<node lat="64.21114722141965" lon="12.509138895747391" id="-35973">
		<tag k="name" v="Einahevelslettet" />
		<tag k="name:no" v="Einahevelslettet" />
		<tag k="place" v="locality" />
		<tag k="ssr:stedsnr" v="413049" />
	</node>
	<node lat="64.16138611304586" lon="12.532841675714225" id="-35977">
		<tag k="name" v="Svartseteren" />
		<tag k="name:no" v="Svartseteren" />
		<tag k="place" v="locality" />
		<tag k="ssr:stedsnr" v="413187" />
	</node>
	<node lat="64.16571110803494" lon="12.510655548285902" id="-35978">
		<tag k="name" v="Gamseteren" />
		<tag k="name:no" v="Gamseteren" />
		<tag k="place" v="locality" />
		<tag k="ssr:stedsnr" v="413191" />
	</node>
	<node lat="64.12499999896306" lon="12.37028611047236" id="-35979">
		<tag k="name" v="Åsaslettet" />
		<tag k="name:no" v="Åsaslettet" />
		<tag k="natural" v="wetland" />
		<tag k="ssr:stedsnr" v="413192" />
	</node>
	<node lat="64.17871944370253" lon="12.235119438094701" id="-35983">
		<tag k="name" v="Tjurrudalsmyra" />
		<tag k="name:no" v="Tjurrudalsmyra" />
		<tag k="natural" v="wetland" />
		<tag k="ssr:stedsnr" v="413490" />
	</node>
	<node lat="64.16291110696496" lon="12.289419450141182" id="-35985">
		<tag k="historic" v="shieling" />
		<tag k="name" v="Peseteren" />
		<tag k="name:no" v="Peseteren" />
		<tag k="place" v="locality" />
		<tag k="ssr:stedsnr" v="413509" />
	</node>
	<node lat="64.16713888986793" lon="12.264830552281932" id="-35986">
		<tag k="historic" v="shieling" />
		<tag k="name" v="Svinryggseteren" />
		<tag k="name:no" v="Svinryggseteren" />
		<tag k="place" v="locality" />
		<tag k="ssr:stedsnr" v="413511" />
	</node>
	<node lat="64.28209166438484" lon="12.735383323855391" id="-35996">
		<tag k="name" v="Stormyra" />
		<tag k="name:no" v="Stormyra" />
		<tag k="natural" v="wetland" />
		<tag k="ssr:stedsnr" v="414526" />
	</node>
	<node lat="64.21647777824587" lon="12.421050007709189" id="-36027">
		<tag k="name" v="Geitbergmyra" />
		<tag k="name:no" v="Geitbergmyra" />
		<tag k="natural" v="wetland" />
		<tag k="ssr:stedsnr" v="272415" />
	</node>
	<node lat="64.27118610793246" lon="12.495930562537461" id="-36028">
		<tag k="name" v="Oksmyra" />
		<tag k="name:no" v="Oksmyra" />
		<tag k="natural" v="wetland" />
		<tag k="ssr:stedsnr" v="272489" />
	</node>
	<node lat="64.25041110876137" lon="12.46768611368514" id="-36031">
		<tag k="name" v="Revhimyra" />
		<tag k="name:no" v="Revhimyra" />
		<tag k="natural" v="wetland" />
		<tag k="ssr:stedsnr" v="272499" />
	</node>
	<node lat="64.22936666456538" lon="12.512936105404425" id="-36039">
		<tag k="name" v="Budalsmyra" />
		<tag k="name:no" v="Budalsmyra" />
		<tag k="natural" v="wetland" />
		<tag k="ssr:stedsnr" v="454503" />
	</node>
	<node lat="64.23293888813691" lon="12.515172216361952" id="-36040">
		<tag k="name" v="Raudkleivmyra" />
		<tag k="name:no" v="Raudkleivmyra" />
		<tag k="natural" v="wetland" />
		<tag k="ssr:stedsnr" v="454508" />
	</node>
	<node lat="64.25784166390642" lon="12.60214444616096" id="-36044">
		<tag k="name" v="Krokslættet" />
		<tag k="name:no" v="Krokslættet" />
		<tag k="natural" v="wetland" />
		<tag k="ssr:stedsnr" v="454613" />
	</node>
	<node lat="64.17174722670053" lon="12.3396305485949" id="-36049">
		<tag k="name" v="Stormyra" />
		<tag k="name:no" v="Stormyra" />
		<tag k="natural" v="wetland" />
		<tag k="ssr:stedsnr" v="473260" />
	</node>
	<node lat="64.14872499795078" lon="12.49543333501561" id="-36051">
		<tag k="alt_name:no" v="Kringlåtmyra" />
		<tag k="name" v="Kringlottmyra" />
		<tag k="name:no" v="Kringlottmyra" />
		<tag k="natural" v="wetland" />
		<tag k="ssr:stedsnr" v="473267" />
	</node>
	<node lat="64.32368333606968" lon="12.5846416634033" id="-36054">
		<tag k="name" v="Krokåtmyra" />
		<tag k="name:no" v="Krokåtmyra" />
		<tag k="natural" v="wetland" />
		<tag k="ssr:stedsnr" v="473321" />
	</node>
	<node lat="64.27954444037553" lon="12.220352779458475" id="-36057">
		<tag k="landuse" v="meadow" />
		<tag k="name" v="Trettslåtta" />
		<tag k="name:no" v="Trettslåtta" />
		<tag k="ssr:stedsnr" v="473520" />
	</node>
	<node lat="64.22795555873788" lon="11.968727772707446" id="-36058">
		<tag k="name" v="Svartmyra" />
		<tag k="name:no" v="Svartmyra" />
		<tag k="natural" v="wetland" />
		<tag k="ssr:stedsnr" v="473465" />
	</node>
	<node lat="64.32868888952163" lon="12.3900611191857" id="-36062">
		<tag k="historic" v="shieling" />
		<tag k="name" v="Auster Semseteren" />
		<tag k="name:no" v="Auster Semseteren" />
		<tag k="place" v="locality" />
		<tag k="ssr:stedsnr" v="473660" />
	</node>
	<node lat="64.34393611448183" lon="12.380019439846242" id="-36063">
		<tag k="name" v="Langdrolet" />
		<tag k="name:no" v="Langdrolet" />
		<tag k="natural" v="wetland" />
		<tag k="ssr:stedsnr" v="473805" />
	</node>
	<node lat="64.21740555867946" lon="12.521275003777635" id="-36064">
		<tag k="landuse" v="meadow" />
		<tag k="name" v="Sivertvollen" />
		<tag k="name:no" v="Sivertvollen" />
		<tag k="ssr:stedsnr" v="474015" />
	</node>
	<node lat="64.34804999693993" lon="12.52064444351248" id="-36066">
		<tag k="name" v="Årengmyrin" />
		<tag k="name:no" v="Årengmyrin" />
		<tag k="natural" v="wetland" />
		<tag k="ssr:stedsnr" v="473974" />
	</node>
	<node lat="64.16544166335227" lon="12.554494442125836" id="-36068">
		<tag k="name" v="Breivollen" />
		<tag k="name:no" v="Breivollen" />
		<tag k="place" v="locality" />
		<tag k="ssr:stedsnr" v="474170" />
	</node>
	<node lat="64.27713333307553" lon="12.240463892563966" id="-36080">
		<tag k="name" v="Bjørkslættet" />
		<tag k="name:no" v="Bjørkslættet" />
		<tag k="natural" v="wetland" />
		<tag k="ssr:stedsnr" v="272319" />
	</node>
	<node lat="64.2875650561473" lon="12.322125721994853" id="-36118">
		<tag k="historic" v="shieling" />
		<tag k="name" v="Moumsseteren" />
		<tag k="name:no" v="Moumsseteren" />
		<tag k="place" v="locality" />
		<tag k="ssr:stedsnr" v="681401" />
	</node>
	<node lat="64.19389167041709" lon="12.622688886897011" id="-36131">
		<tag k="name" v="Svøddumyran" />
		<tag k="name:no" v="Svøddumyran" />
		<tag k="natural" v="wetland" />
		<tag k="ssr:stedsnr" v="681545" />
	</node>
	<node lat="64.33594999902724" lon="12.41067500731633" id="-36162">
		<tag k="landuse" v="meadow" />
		<tag k="name" v="Mastuslåtten" />
		<tag k="name:no" v="Mastuslåtten" />
		<tag k="ssr:stedsnr" v="506308" />
	</node>
	<node lat="64.18059722026817" lon="12.337497230097172" id="-36165">
		<tag k="name" v="Austre Melmyra" />
		<tag k="name:no" v="Austre Melmyra" />
		<tag k="natural" v="wetland" />
		<tag k="ssr:stedsnr" v="272355" />
	</node>
	<node lat="64.18039444513003" lon="12.30899445451723" id="-36166">
		<tag k="name" v="Langmyra" />
		<tag k="name:no" v="Langmyra" />
		<tag k="natural" v="wetland" />
		<tag k="ssr:stedsnr" v="272358" />
	</node>
	<node lat="64.19145833242226" lon="12.225816658814338" id="-36169">
		<tag k="name" v="Nynesmelen" />
		<tag k="name:no" v="Nynesmelen" />
		<tag k="place" v="locality" />
		<tag k="ssr:stedsnr" v="514322" />
	</node>
	<node lat="64.24084166464814" lon="12.411233326828349" id="-36172">
		<tag k="name" v="Nikolairønningen" />
		<tag k="name:no" v="Nikolairønningen" />
		<tag k="place" v="locality" />
		<tag k="ssr:stedsnr" v="514415" />
	</node>
	<node lat="64.24395277530898" lon="12.310319449777174" id="-36174">
		<tag k="name" v="Småmyrin" />
		<tag k="name:no" v="Småmyrin" />
		<tag k="natural" v="wetland" />
		<tag k="ssr:stedsnr" v="514422" />
	</node>
	<node lat="64.2739499957963" lon="12.350013893677225" id="-36175">
		<tag k="name" v="Andasmyra" />
		<tag k="name:no" v="Andasmyra" />
		<tag k="natural" v="wetland" />
		<tag k="ssr:stedsnr" v="514469" />
	</node>
	<node lat="64.22641389223614" lon="12.503347228968407" id="-36179">
		<tag k="name" v="Bjørnbakken" />
		<tag k="name:no" v="Bjørnbakken" />
		<tag k="place" v="locality" />
		<tag k="ssr:stedsnr" v="514596" />
	</node>
	<node lat="64.22458333670224" lon="12.501499997714305" id="-36180">
		<tag k="name" v="Høgsetråbakken" />
		<tag k="name:no" v="Høgsetråbakken" />
		<tag k="place" v="locality" />
		<tag k="ssr:stedsnr" v="514597" />
	</node>
	<node lat="64.30957499976033" lon="12.54361110585426" id="-36181">
		<tag k="name" v="Myrsetmyrin" />
		<tag k="name:no" v="Myrsetmyrin" />
		<tag k="natural" v="wetland" />
		<tag k="ssr:stedsnr" v="533104" />
	</node>
	<node lat="64.22795833374343" lon="12.58288611857872" id="-36185">
		<tag k="name" v="Laurdagsslåtta" />
		<tag k="name:no" v="Laurdagsslåtta" />
		<tag k="place" v="locality" />
		<tag k="ssr:stedsnr" v="533980" />
	</node>
	<node lat="64.13275278097338" lon="12.341894439946149" id="-36191">
		<tag k="name" v="Bjønnlinesa" />
		<tag k="name:no" v="Bjønnlinesa" />
		<tag k="natural" v="wetland" />
		<tag k="ssr:stedsnr" v="534177" />
	</node>
	<node lat="64.162150001566" lon="12.556833332418192" id="-36192">
		<tag k="name" v="Megard og Buvoll statsskog" />
		<tag k="name:no" v="Megard og Buvoll statsskog" />
		<tag k="place" v="locality" />
		<tag k="ssr:stedsnr" v="534184" />
	</node>
	<node lat="64.2332333319711" lon="12.11689166918353" id="-36193">
		<tag k="name" v="Heimsjømyra" />
		<tag k="name:no" v="Heimsjømyra" />
		<tag k="natural" v="wetland" />
		<tag k="ssr:stedsnr" v="534385" />
	</node>
	<node lat="64.30016666590693" lon="12.389308332185191" id="-36197">
		<tag k="landuse" v="meadow" />
		<tag k="name" v="Langvasslåtta" />
		<tag k="name:no" v="Langvasslåtta" />
		<tag k="ssr:stedsnr" v="534706" />
	</node>
	<node lat="64.30789444540841" lon="12.348116676573147" id="-36199">
		<tag k="name" v="Vågsvollan" />
		<tag k="name:no" v="Vågsvollan" />
		<tag k="place" v="locality" />
		<tag k="ssr:stedsnr" v="534719" />
	</node>
	<node lat="64.30246666723042" lon="12.633622228723002" id="-36206">
		<tag k="historic" v="shieling" />
		<tag k="name" v="Svarvaseteren" />
		<tag k="name:no" v="Svarvaseteren" />
		<tag k="place" v="locality" />
		<tag k="ssr:stedsnr" v="535671" />
	</node>
	<node lat="64.23825833133664" lon="12.296511110440955" id="-36241">
		<tag k="alt_name:no" v="Storvassmyra" />
		<tag k="name" v="Vassmyra" />
		<tag k="name:no" v="Vassmyra" />
		<tag k="natural" v="wetland" />
		<tag k="ssr:stedsnr" v="560688" />
	</node>
	<node lat="64.27890833529189" lon="12.284352786494749" id="-36248">
		<tag k="name" v="Stammyra" />
		<tag k="name:no" v="Stammyra" />
		<tag k="natural" v="wetland" />
		<tag k="ssr:stedsnr" v="575303" />
	</node>
	<node lat="64.27833055405334" lon="12.230533334059684" id="-36249">
		<tag k="name" v="Litlmyra" />
		<tag k="name:no" v="Litlmyra" />
		<tag k="natural" v="wetland" />
		<tag k="ssr:stedsnr" v="575296" />
	</node>
	<node lat="64.26569444847922" lon="12.3631694476076" id="-36251">
		<tag k="name" v="Horjemsmyra" />
		<tag k="name:no" v="Horjemsmyra" />
		<tag k="natural" v="wetland" />
		<tag k="ssr:stedsnr" v="575451" />
	</node>
	<node lat="64.26091388774478" lon="12.399422218886476" id="-36252">
		<tag k="name" v="Kolhusmyra" />
		<tag k="name:no" v="Kolhusmyra" />
		<tag k="natural" v="wetland" />
		<tag k="ssr:stedsnr" v="575453" />
	</node>
	<node lat="64.25909722655642" lon="12.549161107129866" id="-36253">
		<tag k="name" v="Rønningen" />
		<tag k="name:no" v="Rønningen" />
		<tag k="place" v="locality" />
		<tag k="ssr:stedsnr" v="575496" />
	</node>
	<node lat="64.197424998915" lon="12.17961667090813" id="-36265">
		<tag k="name" v="Yttermyrin" />
		<tag k="name:no" v="Yttermyrin" />
		<tag k="natural" v="wetland" />
		<tag k="ssr:stedsnr" v="696288" />
	</node>
	<node lat="64.28156666236166" lon="12.244744441057948" id="-36270">
		<tag k="name" v="Holbekkmyra" />
		<tag k="name:no" v="Holbekkmyra" />
		<tag k="natural" v="wetland" />
		<tag k="ssr:stedsnr" v="696343" />
	</node>
	<node lat="64.27819444178532" lon="12.275127770575052" id="-36272">
		<tag k="name" v="Fuglslættet" />
		<tag k="name:no" v="Fuglslættet" />
		<tag k="natural" v="wetland" />
		<tag k="ssr:stedsnr" v="696352" />
	</node>
	<node lat="64.22536111005297" lon="12.33743056085812" id="-36275">
		<tag k="name" v="Rønningan" />
		<tag k="name:no" v="Rønningan" />
		<tag k="place" v="locality" />
		<tag k="ssr:stedsnr" v="696398" />
	</node>
	<node lat="64.20732777755374" lon="12.346013891131955" id="-36280">
		<tag k="name" v="Jorønningmyra" />
		<tag k="name:no" v="Jorønningmyra" />
		<tag k="natural" v="wetland" />
		<tag k="ssr:stedsnr" v="696433" />
	</node>
	<node lat="64.20785278157378" lon="12.3514333330556" id="-36281">
		<tag k="name" v="Langmyra" />
		<tag k="name:no" v="Langmyra" />
		<tag k="natural" v="wetland" />
		<tag k="ssr:stedsnr" v="696435" />
	</node>
	<node lat="64.26051389320813" lon="12.46450277502486" id="-36285">
		<tag k="name" v="Bomomyra" />
		<tag k="name:no" v="Bomomyra" />
		<tag k="natural" v="wetland" />
		<tag k="ssr:stedsnr" v="696552" />
	</node>
	<node lat="64.25935833716993" lon="12.563430547074638" id="-36287">
		<tag k="name" v="Myra" />
		<tag k="name:no" v="Myra" />
		<tag k="natural" v="wetland" />
		<tag k="ssr:stedsnr" v="696621" />
	</node>
	<node lat="64.29653611300023" lon="12.430236116902465" id="-36289">
		<tag k="name" v="Bekkneset" />
		<tag k="name:no" v="Bekkneset" />
		<tag k="natural" v="wetland" />
		<tag k="ssr:stedsnr" v="594013" />
	</node>
	<node lat="64.21752777729905" lon="12.489469434914952" id="-36297">
		<tag k="name" v="Råtjønnslettet" />
		<tag k="name:no" v="Råtjønnslettet" />
		<tag k="place" v="locality" />
		<tag k="ssr:stedsnr" v="594051" />
	</node>
	<node lat="64.16299444265056" lon="12.531961107848858" id="-36305">
		<tag k="name" v="Perønningen" />
		<tag k="name:no" v="Perønningen" />
		<tag k="place" v="locality" />
		<tag k="ssr:stedsnr" v="595157" />
	</node>
	<node lat="64.17486667003742" lon="12.51741110299656" id="-36307">
		<tag k="name" v="Brattslåtten" />
		<tag k="name:no" v="Brattslåtten" />
		<tag k="place" v="locality" />
		<tag k="ssr:stedsnr" v="595165" />
	</node>
	<node lat="64.28545277911365" lon="12.69570278734596" id="-36310">
		<tag k="name" v="Skogslåtta" />
		<tag k="name:no" v="Skogslåtta" />
		<tag k="place" v="locality" />
		<tag k="ssr:stedsnr" v="595504" />
	</node>
	<node lat="64.2858222254327" lon="12.700999996915522" id="-36311">
		<tag k="name" v="Tvartferkjerran" />
		<tag k="name:no" v="Tvartferkjerran" />
		<tag k="place" v="locality" />
		<tag k="ssr:stedsnr" v="595506" />
	</node>
	<node lat="64.27251944677703" lon="12.74657500828858" id="-36313">
		<tag k="name" v="Bjønngjøtbekken" />
		<tag k="name:no" v="Bjønngjøtbekken" />
		<tag k="natural" v="wetland" />
		<tag k="ssr:stedsnr" v="595515" />
	</node>
	<node lat="64.36604722478098" lon="12.779088879900897" id="-36315">
		<tag k="name" v="Dalvassmyran" />
		<tag k="name:no" v="Dalvassmyran" />
		<tag k="natural" v="wetland" />
		<tag k="ssr:stedsnr" v="595568" />
	</node>
	<node lat="64.16755555957346" lon="12.561886102330568" id="-36318">
		<tag k="landuse" v="meadow" />
		<tag k="name" v="Frostvollan" />
		<tag k="name:no" v="Frostvollan" />
		<tag k="ssr:stedsnr" v="595961" />
	</node>
	<node lat="64.18892500331185" lon="12.197941667581688" id="-36348">
		<tag k="name" v="Skallan" />
		<tag k="name:no" v="Skallan" />
		<tag k="place" v="locality" />
		<tag k="ssr:stedsnr" v="635285" />
	</node>
	<node lat="64.23711944207248" lon="12.381186109091834" id="-36352">
		<tag k="name" v="Martensmyra" />
		<tag k="name:no" v="Martensmyra" />
		<tag k="natural" v="wetland" />
		<tag k="ssr:stedsnr" v="635407" />
	</node>
	<node lat="64.23772500413634" lon="12.529233326007848" id="-36356">
		<tag k="name" v="Skauttjønnmyra" />
		<tag k="name:no" v="Skauttjønnmyra" />
		<tag k="natural" v="wetland" />
		<tag k="ssr:stedsnr" v="635513" />
	</node>
	<node lat="64.22063333598307" lon="12.497297230550826" id="-36359">
		<tag k="name" v="Langmyra" />
		<tag k="name:no" v="Langmyra" />
		<tag k="natural" v="wetland" />
		<tag k="ssr:stedsnr" v="655006" />
	</node>
	<node lat="64.29021111491916" lon="12.436572216705372" id="-36360">
		<tag k="name" v="Trettgjøta" />
		<tag k="name:no" v="Trettgjøta" />
		<tag k="natural" v="wetland" />
		<tag k="ssr:stedsnr" v="655009" />
	</node>
	<node lat="64.16441666928316" lon="12.517822216737756" id="-36368">
		<tag k="name" v="Trøavollen" />
		<tag k="name:no" v="Trøavollen" />
		<tag k="place" v="locality" />
		<tag k="ssr:stedsnr" v="655183" />
	</node>
	<node lat="64.16972777822889" lon="12.240127787788918" id="-36373">
		<tag k="name" v="Tjønnmyra" />
		<tag k="name:no" v="Tjønnmyra" />
		<tag k="natural" v="wetland" />
		<tag k="ssr:stedsnr" v="655442" />
	</node>
	<node lat="64.28560278044985" lon="12.215569443788954" id="-36374">
		<tag k="landuse" v="meadow" />
		<tag k="name" v="Høgslåtta" />
		<tag k="name:no" v="Høgslåtta" />
		<tag k="ssr:stedsnr" v="655616" />
	</node>
	<node lat="64.31321111244125" lon="12.344597226765314" id="-36383">
		<tag k="landuse" v="meadow" />
		<tag k="name" v="Abrahamrønningen" />
		<tag k="name:no" v="Abrahamrønningen" />
		<tag k="ssr:stedsnr" v="655707" />
	</node>
	<node lat="64.30758055516428" lon="12.320247219975187" id="-36385">
		<tag k="name" v="Gauslitjønnmyra" />
		<tag k="name:no" v="Gauslitjønnmyra" />
		<tag k="natural" v="wetland" />
		<tag k="ssr:stedsnr" v="655699" />
	</node>
	<node lat="64.30371944078281" lon="12.31940277045872" id="-36386">
		<tag k="landuse" v="meadow" />
		<tag k="name" v="Salbuenget" />
		<tag k="name:no" v="Salbuenget" />
		<tag k="ssr:stedsnr" v="655701" />
	</node>
	<node lat="64.33910277718107" lon="12.523913882432373" id="-36389">
		<tag k="name" v="Høgmåssåmyra" />
		<tag k="name:no" v="Høgmåssåmyra" />
		<tag k="natural" v="wetland" />
		<tag k="ssr:stedsnr" v="655986" />
	</node>
	<node lat="64.2769805541744" lon="12.692208335602219" id="-36393">
		<tag k="name" v="Stormyra" />
		<tag k="name:no" v="Stormyra" />
		<tag k="natural" v="wetland" />
		<tag k="ssr:stedsnr" v="656534" />
	</node>
	<node lat="64.23036944271784" lon="12.366758333401812" id="-36427">
		<tag k="name" v="Langmyra" />
		<tag k="name:no" v="Langmyra" />
		<tag k="natural" v="wetland" />
		<tag k="ssr:stedsnr" v="696411" />
	</node>
	<node lat="64.27881944122485" lon="12.302647216387621" id="-36431">
		<tag k="name" v="Langmyrin" />
		<tag k="name:no" v="Langmyrin" />
		<tag k="natural" v="wetland" />
		<tag k="ssr:stedsnr" v="696473" />
	</node>
	<node lat="64.26148333413748" lon="12.251911115764594" id="-36433">
		<tag k="name" v="Vegseturan" />
		<tag k="name:no" v="Vegseturan" />
		<tag k="natural" v="scree" />
		<tag k="ssr:stedsnr" v="696364" />
	</node>
	<node lat="64.24443055801466" lon="12.53372499583208" id="-36435">
		<tag k="name" v="Djupdalsmyra" />
		<tag k="name:no" v="Djupdalsmyra" />
		<tag k="natural" v="wetland" />
		<tag k="ssr:stedsnr" v="696530" />
	</node>
	<node lat="64.26819444374537" lon="12.446030547354653" id="-36436">
		<tag k="name" v="Hallbakkmyra" />
		<tag k="name:no" v="Hallbakkmyra" />
		<tag k="natural" v="wetland" />
		<tag k="ssr:stedsnr" v="696576" />
	</node>
	<node lat="64.26773333158253" lon="12.471486103681126" id="-36437">
		<tag k="name" v="Nordmarka" />
		<tag k="name:no" v="Nordmarka" />
		<tag k="place" v="locality" />
		<tag k="ssr:stedsnr" v="696577" />
	</node>
	<node lat="64.21944999694713" lon="11.999469452776294" id="-36438">
		<tag k="name" v="Trettgjøta" />
		<tag k="name:no" v="Trettgjøta" />
		<tag k="natural" v="wetland" />
		<tag k="ssr:stedsnr" v="696968" />
	</node>
	<node lat="64.31606666456435" lon="12.45386110936601" id="-36444">
		<tag k="name" v="Grubbslettet" />
		<tag k="name:no" v="Grubbslettet" />
		<tag k="natural" v="wetland" />
		<tag k="ssr:stedsnr" v="898089" />
	</node>
	<node lat="64.24336389236996" lon="12.130197229604038" id="-36447">
		<tag k="name" v="Nesslettet" />
		<tag k="name:no" v="Nesslettet" />
		<tag k="natural" v="wetland" />
		<tag k="ssr:stedsnr" v="898288" />
	</node>
	<node lat="64.24463333011055" lon="12.144127786948175" id="-36448">
		<tag k="name" v="Oksmyra" />
		<tag k="name:no" v="Oksmyra" />
		<tag k="natural" v="wetland" />
		<tag k="ssr:stedsnr" v="898290" />
	</node>
	<node lat="64.00098889250029" lon="12.340930557182519" id="-36452">
		<tag k="name" v="Storskjækermyrin" />
		<tag k="name:no" v="Storskjækermyrin" />
		<tag k="natural" v="wetland" />
		<tag k="ssr:stedsnr" v="898329" />
	</node>
	<node lat="64.22636110857479" lon="12.035544450215836" id="-36457">
		<tag k="name" v="Heimdalsmyra" />
		<tag k="name:no" v="Heimdalsmyra" />
		<tag k="natural" v="wetland" />
		<tag k="ssr:stedsnr" v="898389" />
	</node>
	<node lat="64.3152111131026" lon="12.321216672211943" id="-36458">
		<tag k="name" v="Rundtjønnmyra" />
		<tag k="name:no" v="Rundtjønnmyra" />
		<tag k="natural" v="wetland" />
		<tag k="ssr:stedsnr" v="898727" />
	</node>
	<node lat="64.24066667017617" lon="12.136797228462997" id="-36459">
		<tag k="historic" v="shieling" />
		<tag k="name" v="Holemsseteren" />
		<tag k="name:no" v="Holemsseteren" />
		<tag k="place" v="locality" />
		<tag k="ssr:stedsnr" v="898346" />
	</node>
	<node lat="64.25897499784689" lon="12.19991110116708" id="-36461">
		<tag k="name" v="Langmyrin" />
		<tag k="name:no" v="Langmyrin" />
		<tag k="natural" v="wetland" />
		<tag k="ssr:stedsnr" v="898499" />
	</node>
	<node lat="64.27424722092015" lon="12.223783327924847" id="-36464">
		<tag k="landuse" v="meadow" />
		<tag k="name" v="Kattislettet" />
		<tag k="name:no" v="Kattislettet" />
		<tag k="ssr:stedsnr" v="898601" />
	</node>
	<node lat="64.31338888952406" lon="12.398522217503706" id="-36465">
		<tag k="name" v="Litlmyra" />
		<tag k="name:no" v="Litlmyra" />
		<tag k="natural" v="wetland" />
		<tag k="ssr:stedsnr" v="898640" />
	</node>
	<node lat="64.36415555321814" lon="12.453391670731339" id="-36469">
		<tag k="landuse" v="meadow" />
		<tag k="name" v="Skogslåtta" />
		<tag k="name:no" v="Skogslåtta" />
		<tag k="ssr:stedsnr" v="898978" />
	</node>
	<node lat="64.33842778198427" lon="12.31983888040408" id="-36473">
		<tag k="name" v="Tjeldmyra" />
		<tag k="name:no" v="Tjeldmyra" />
		<tag k="natural" v="wetland" />
		<tag k="ssr:stedsnr" v="716016" />
	</node>
	<node lat="64.04435555642756" lon="12.24525278528465" id="-36484">
		<tag k="name" v="Jørstadslettet" />
		<tag k="name:no" v="Jørstadslettet" />
		<tag k="natural" v="wetland" />
		<tag k="ssr:stedsnr" v="716473" />
	</node>
	<node lat="64.22165000185191" lon="11.995302773170522" id="-36485">
		<tag k="name" v="Setermyra" />
		<tag k="name:no" v="Setermyra" />
		<tag k="natural" v="wetland" />
		<tag k="ssr:stedsnr" v="716484" />
	</node>
	<node lat="64.2893249993198" lon="12.258080561565844" id="-36490">
		<tag k="name" v="Posemurholet" />
		<tag k="name:no" v="Posemurholet" />
		<tag k="natural" v="wetland" />
		<tag k="ssr:stedsnr" v="716582" />
	</node>
	<node lat="64.23676666874552" lon="12.605233336640651" id="-36501">
		<tag k="name" v="Flintmyra" />
		<tag k="name:no" v="Flintmyra" />
		<tag k="natural" v="wetland" />
		<tag k="ssr:stedsnr" v="898989" />
	</node>
	<node lat="64.23867500274748" lon="12.660166668691518" id="-36503">
		<tag k="name" v="Gamseterslettet" />
		<tag k="name:no" v="Gamseterslettet" />
		<tag k="place" v="locality" />
		<tag k="ssr:stedsnr" v="898994" />
	</node>
	<node lat="64.24165555441675" lon="12.642811107161195" id="-36504">
		<tag k="name" v="Taraldslettet" />
		<tag k="name:no" v="Taraldslettet" />
		<tag k="place" v="locality" />
		<tag k="ssr:stedsnr" v="898995" />
	</node>
	<node lat="64.30301111203633" lon="12.579808331718736" id="-36511">
		<tag k="name" v="Merkesmyra" />
		<tag k="name:no" v="Merkesmyra" />
		<tag k="natural" v="wetland" />
		<tag k="ssr:stedsnr" v="717614" />
	</node>
	<node lat="64.17167500078956" lon="12.457261116681416" id="-36512">
		<tag k="name" v="Skjylslettet" />
		<tag k="name:no" v="Skjylslettet" />
		<tag k="natural" v="wetland" />
		<tag k="ssr:stedsnr" v="899233" />
	</node>
	<node lat="64.32821944126553" lon="12.603044440721945" id="-36516">
		<tag k="landuse" v="meadow" />
		<tag k="name" v="Sjysjøvollan" />
		<tag k="name:no" v="Sjysjøvollan" />
		<tag k="ssr:stedsnr" v="899281" />
	</node>
	<node lat="64.33075833353347" lon="12.682697213283378" id="-36517">
		<tag k="name" v="Agleseteren" />
		<tag k="name:no" v="Agleseteren" />
		<tag k="place" v="locality" />
		<tag k="ssr:stedsnr" v="899376" />
	</node>
	<node lat="64.14125832997769" lon="12.444602779149651" id="-36519">
		<tag k="name" v="Bårdrønningen" />
		<tag k="name:no" v="Bårdrønningen" />
		<tag k="place" v="locality" />
		<tag k="ssr:stedsnr" v="899384" />
	</node>
	<node lat="64.21691944047228" lon="12.050697231397931" id="-36522">
		<tag k="name" v="Torvmyra" />
		<tag k="name:no" v="Torvmyra" />
		<tag k="natural" v="wetland" />
		<tag k="ssr:stedsnr" v="899441" />
	</node>
	<node lat="64.30573055107874" lon="12.649463894079945" id="-36528">
		<tag k="name" v="Navlusnesa" />
		<tag k="name:no" v="Navlusnesa" />
		<tag k="natural" v="wetland" />
		<tag k="ssr:stedsnr" v="899697" />
	</node>
	<node lat="64.25623332928045" lon="12.780033332394266" id="-36532">
		<tag k="alt_name:no" v="Kråkselmyran" />
		<tag k="name" v="Kråkselmyra" />
		<tag k="name:no" v="Kråkselmyra" />
		<tag k="natural" v="wetland" />
		<tag k="ssr:stedsnr" v="741303" />
	</node>
	<node lat="64.23723333359793" lon="12.825338890844552" id="-36551">
		<tag k="name" v="Strokkmyra" />
		<tag k="name:no" v="Strokkmyra" />
		<tag k="natural" v="wetland" />
		<tag k="ssr:stedsnr" v="742881" />
	</node>
	<node lat="64.20343611392734" lon="12.20786666992648" id="-36566">
		<tag k="name" v="Eikmarka" />
		<tag k="name:no" v="Eikmarka" />
		<tag k="place" v="locality" />
		<tag k="ssr:stedsnr" v="757306" />
	</node>
	<node lat="64.21387778076213" lon="12.239244434711514" id="-36567">
		<tag k="name" v="Brumyra" />
		<tag k="name:no" v="Brumyra" />
		<tag k="natural" v="wetland" />
		<tag k="ssr:stedsnr" v="757318" />
	</node>
	<node lat="64.25379999918724" lon="12.549972225073713" id="-36571">
		<tag k="name" v="Brugjøtin" />
		<tag k="name:no" v="Brugjøtin" />
		<tag k="natural" v="wetland" />
		<tag k="ssr:stedsnr" v="757511" />
	</node>
	<node lat="64.28096666938642" lon="12.432374994573605" id="-36574">
		<tag k="name" v="Bevermyra" />
		<tag k="name:no" v="Bevermyra" />
		<tag k="natural" v="wetland" />
		<tag k="ssr:stedsnr" v="757557" />
	</node>
	<node lat="64.27566944870112" lon="12.367855551663514" id="-36578">
		<tag k="name" v="Grønmyra" />
		<tag k="name:no" v="Grønmyra" />
		<tag k="natural" v="wetland" />
		<tag k="ssr:stedsnr" v="757455" />
	</node>
	<node lat="64.26874444539148" lon="12.377005564471212" id="-36581">
		<tag k="name" v="Ekmyra" />
		<tag k="name:no" v="Ekmyra" />
		<tag k="natural" v="wetland" />
		<tag k="ssr:stedsnr" v="757462" />
	</node>
	<node lat="64.18095277671908" lon="12.370091670133702" id="-36590">
		<tag k="name" v="Stormyrsundet" />
		<tag k="name:no" v="Stormyrsundet" />
		<tag k="natural" v="wetland" />
		<tag k="ssr:stedsnr" v="776055" />
	</node>
	<node lat="64.31993333407527" lon="12.55235000356867" id="-36592">
		<tag k="name" v="Bonsenmyra" />
		<tag k="name:no" v="Bonsenmyra" />
		<tag k="natural" v="wetland" />
		<tag k="ssr:stedsnr" v="776070" />
	</node>
	<node lat="64.16506388715497" lon="12.538611110860177" id="-36597">
		<tag k="name" v="Litlaunet" />
		<tag k="name:no" v="Litlaunet" />
		<tag k="place" v="locality" />
		<tag k="ssr:stedsnr" v="777165" />
	</node>
	<node lat="64.14418055230692" lon="12.368855549571805" id="-36600">
		<tag k="name" v="Skarmyrin" />
		<tag k="name:no" v="Skarmyrin" />
		<tag k="natural" v="wetland" />
		<tag k="ssr:stedsnr" v="777208" />
	</node>
	<node lat="64.17844722473023" lon="12.249158333067871" id="-36606">
		<tag k="name" v="Ratmyra" />
		<tag k="name:no" v="Ratmyra" />
		<tag k="natural" v="wetland" />
		<tag k="ssr:stedsnr" v="777463" />
	</node>
	<node lat="64.21458611416799" lon="12.023605564365727" id="-36631">
		<tag k="name" v="Blakkmyra" />
		<tag k="name:no" v="Blakkmyra" />
		<tag k="natural" v="wetland" />
		<tag k="ssr:stedsnr" v="817984" />
	</node>
	<node lat="64.29995277790769" lon="12.441438891653197" id="-36653">
		<tag k="landuse" v="meadow" />
		<tag k="name" v="Slåtta" />
		<tag k="name:no" v="Slåtta" />
		<tag k="ssr:stedsnr" v="837010" />
	</node>
	<node lat="64.30002499661236" lon="12.499016658948607" id="-36657">
		<tag k="name" v="Tjønnmyra" />
		<tag k="name:no" v="Tjønnmyra" />
		<tag k="natural" v="wetland" />
		<tag k="ssr:stedsnr" v="837093" />
	</node>
	<node lat="64.37632222393236" lon="12.582738885876504" id="-36665">
		<tag k="name" v="Fosstakkenget" />
		<tag k="name:no" v="Fosstakkenget" />
		<tag k="natural" v="wetland" />
		<tag k="ssr:stedsnr" v="838085" />
	</node>
	<node lat="64.19567222244585" lon="12.52925278356681" id="-36667">
		<tag k="name" v="Gunnborgmyra" />
		<tag k="name:no" v="Gunnborgmyra" />
		<tag k="natural" v="wetland" />
		<tag k="ssr:stedsnr" v="838276" />
	</node>
	<node lat="64.21852499765782" lon="12.561208338331738" id="-36669">
		<tag k="name" v="Elgsbåsmyrin" />
		<tag k="name:no" v="Elgsbåsmyrin" />
		<tag k="natural" v="wetland" />
		<tag k="ssr:stedsnr" v="837982" />
	</node>
	<node lat="64.31914722597219" lon="12.473747228002768" id="-36671">
		<tag k="name" v="Holbekkmyra" />
		<tag k="name:no" v="Holbekkmyra" />
		<tag k="natural" v="wetland" />
		<tag k="ssr:stedsnr" v="838108" />
	</node>
	<node lat="64.3230944443701" lon="12.37015278474172" id="-36694">
		<tag k="name" v="Bjønnmyra" />
		<tag k="name:no" v="Bjønnmyra" />
		<tag k="natural" v="wetland" />
		<tag k="ssr:stedsnr" v="838683" />
	</node>
	<node lat="64.11690000031881" lon="12.226844434559316" id="-36695">
		<tag k="name" v="Merralimyran" />
		<tag k="name:no" v="Merralimyran" />
		<tag k="natural" v="wetland" />
		<tag k="ssr:stedsnr" v="924561" />
	</node>
	<node lat="64.34954166303011" lon="12.537224995078203" id="-36739">
		<tag k="alt_name:no" v="Flåmyrin" />
		<tag k="name" v="Flåmyra" />
		<tag k="name:no" v="Flåmyra" />
		<tag k="natural" v="wetland" />
		<tag k="ssr:stedsnr" v="863446" />
	</node>
</osm>
