<?xml version="1.0" encoding="UTF-8"?>
<osm version="0.6" generator="osmapis">
	<node lat="64.2739194413781" lon="12.329766675458885" id="-87072">
		<tag k="junction" v="yes" />
		<tag k="name" v="Åsmulen" />
		<tag k="place" v="locality" />
		<tag k="ssr:stedsnr" v="272426" />
	</node>
	<node lat="64.22520277571427" lon="11.981586101704414" id="-87367">
		<tag k="highway" v="path" />
		<tag k="name" v="Fiskløysbakken" />
		<tag k="ssr:stedsnr" v="473468" />
	</node>
	<node lat="64.26968055693459" lon="12.33947776894337" id="-87557">
		<tag k="highway" v="path" />
		<tag k="name" v="Brattkleiva" />
		<tag k="ssr:stedsnr" v="575418" />
	</node>
	<node lat="64.20659579326811" lon="12.242267156211886" id="-88015">
		<tag k="alt_name" v="Jørstad stasjon" />
		<tag k="name" v="Jørstad holdeplass" />
		<tag k="railway" v="station" />
		<tag k="ssr:stedsnr" v="924729" />
		<tag k="train" v="yes" />
	</node>
	<node lat="64.18296388891883" lon="12.17022222402904" id="-88123">
		<tag k="aeroway" v="aerodrome" />
		<tag k="name" v="Grønøra flyplass, Snåsa" />
		<tag k="old_name" v="Grønøra" />
		<tag k="ssr:stedsnr" v="924443" />
	</node>
	<node lat="64.31057222003798" lon="12.965666658017602" id="-88791">
		<tag k="highway" v="path" />
		<tag k="name" v="Limannvegen" />
		<tag k="ssr:stedsnr" v="291195" />
	</node>
	<node lat="64.2830250012837" lon="12.531208327684466" id="-89353">
		<tag k="name" v="Agle" />
		<tag k="railway" v="station" />
		<tag k="ssr:stedsnr" v="560381" />
		<tag k="train" v="yes" />
	</node>
	<node lat="64.22409167002576" lon="12.020166661571333" id="-89425">
		<tag k="ford" v="yes" />
		<tag k="name" v="Vadet" />
		<tag k="place" v="locality" />
		<tag k="ssr:stedsnr" v="594434" />
	</node>
	<node lat="64.26393889061941" lon="12.249163898767687" id="-89869">
		<tag k="highway" v="path" />
		<tag k="name" v="Gamvollstien" />
		<tag k="ssr:stedsnr" v="818360" />
	</node>
	<node lat="64.24616944472055" lon="12.380850007240243" id="-89881">
		<tag k="name" v="Snåsa stasjon" />
		<tag k="railway" v="station" />
		<tag k="ssr:stedsnr" v="818488" />
		<tag k="train" v="yes" />
	</node>
</osm>
