<?xml version="1.0" encoding="UTF-8"?>
<osm version="0.6" generator="osmapis">
	<node lat="64.25132777657261" lon="12.396780547593929" id="-84838">
		<tag k="name" v="Våttån" />
		<tag k="name:no" v="Våttån" />
		<tag k="place" v="locality" />
		<tag k="ssr:stedsnr" v="150470" />
	</node>
	<node lat="64.24739166504213" lon="12.35873610320417" id="-85305">
		<tag k="name" v="Saemien Sijte" />
		<tag k="name:no" v="Saemien Sijte" />
		<tag k="ssr:stedsnr" v="419413" />
		<tag k="tourism" v="museum" />
	</node>
	<node lat="64.33957499783006" lon="12.412405558183995" id="-86139">
		<tag k="name" v="Langleitet" />
		<tag k="name:no" v="Langleitet" />
		<tag k="ssr:stedsnr" v="931300" />
		<tag k="tourism" v="viewpoint" />
	</node>
	<node lat="64.24405833076315" lon="12.370533326817386" id="-86342">
		<tag k="amenity" v="place_of_worship" />
		<tag k="denomination" v="lutheran" />
		<tag k="loc_name:no" v="Vinje" />
		<tag k="name" v="Snåsa kirke" />
		<tag k="name:no" v="Snåsa kirke" />
		<tag k="religion" v="christian" />
		<tag k="ssr:stedsnr" v="26361" />
	</node>
</osm>
