<?xml version="1.0" encoding="UTF-8"?>
<<<<<<< HEAD
<osm version="0.6" generator="osmapis">
	<node lat="64.33658055802954" lon="12.1528222271153" id="-35274">
		<tag k="historic" v="shieling" />
		<tag k="name" v="Øyeseter" />
		<tag k="name:no" v="Øyeseter" />
		<tag k="place" v="isolated_dwelling" />
		<tag k="ssr:stedsnr" v="230177" />
	</node>
	<node lat="64.17133611435207" lon="12.538411118000889" id="-35315">
		<tag k="alt_name:no" v="Hyllmoseteren" />
		<tag k="historic" v="shieling" />
		<tag k="name" v="Hyllmoen" />
		<tag k="name:no" v="Hyllmoen" />
		<tag k="place" v="isolated_dwelling" />
		<tag k="ssr:stedsnr" v="13563" />
	</node>
	<node lat="64.3149999974814" lon="12.377333333625648" id="-35327">
		<tag k="historic" v="shieling" />
		<tag k="name" v="Sandnes-Omlia" />
		<tag k="name:no" v="Sandnes-Omlia" />
		<tag k="place" v="isolated_dwelling" />
		<tag k="ssr:stedsnr" v="14331" />
	</node>
	<node lat="64.31280555897963" lon="12.554383330764244" id="-35328">
		<tag k="name" v="Myrset" />
		<tag k="name:no" v="Myrset" />
		<tag k="place" v="isolated_dwelling" />
		<tag k="ssr:stedsnr" v="14334" />
	</node>
	<node lat="64.32342628141869" lon="12.66114700053934" id="-35329">
		<tag k="name" v="Aglseteren" />
		<tag k="name:no" v="Aglseteren" />
		<tag k="place" v="locality" />
		<tag k="ssr:stedsnr" v="14335" />
	</node>
	<node lat="64.36158611039207" lon="12.377061113752841" id="-35332">
		<tag k="name" v="Tjennaråsseteren" />
		<tag k="name:no" v="Tjennaråsseteren" />
		<tag k="place" v="locality" />
		<tag k="ssr:stedsnr" v="14379" />
	</node>
	<node lat="64.23476666866233" lon="12.908269446919215" id="-35338">
		<tag k="name" v="Storåsseteren" />
		<tag k="name:no" v="Storåsseteren" />
		<tag k="place" v="locality" />
		<tag k="ssr:stedsnr" v="14860" />
	</node>
	<node lat="64.13735836881368" lon="12.877058487142465" id="-35343">
		<tag k="name" v="Kaurinhytta" />
		<tag k="name:no" v="Kaurinhytta" />
		<tag k="place" v="isolated_dwelling" />
		<tag k="ssr:stedsnr" v="14956" />
	</node>
	<node lat="64.09185277586292" lon="12.848866661084388" id="-35344">
		<tag k="name" v="Storliseteren" />
		<tag k="name:no" v="Storliseteren" />
		<tag k="place" v="locality" />
		<tag k="ssr:stedsnr" v="14969" />
	</node>
	<node lat="64.26516388517238" lon="12.284033340437624" id="-35351">
		<tag k="name" v="Vegsetmoen" />
		<tag k="name:no" v="Vegsetmoen" />
		<tag k="place" v="farm" />
		<tag k="ssr:stedsnr" v="29366" />
	</node>
	<node lat="64.19354722371459" lon="12.301974995089152" id="-35352">
		<tag k="name" v="Gifstadberg" />
		<tag k="name:no" v="Gifstadberg" />
		<tag k="place" v="farm" />
		<tag k="ssr:stedsnr" v="29368" />
	</node>
	<node lat="64.19647222602045" lon="12.325238885360205" id="-35353">
		<tag k="name" v="Storlorntsrommet" />
		<tag k="name:no" v="Storlorntsrommet" />
		<tag k="place" v="locality" />
		<tag k="ssr:stedsnr" v="29369" />
	</node>
	<node lat="64.24288333486614" lon="12.355608340983672" id="-35356">
		<tag k="name" v="Vinjeberga" />
		<tag k="name:no" v="Vinjeberga" />
		<tag k="place" v="quarter" />
		<tag k="ssr:stedsnr" v="29384" />
	</node>
	<node lat="64.24879722441982" lon="12.399947216960813" id="-35358">
		<tag k="name" v="Reitvolllen" />
		<tag k="name:no" v="Reitvolllen" />
		<tag k="place" v="locality" />
		<tag k="ssr:stedsnr" v="29501" />
	</node>
	<node lat="64.24194999898742" lon="12.48873889779878" id="-35360">
		<tag k="name" v="Aunet" />
		<tag k="name:no" v="Aunet" />
		<tag k="place" v="farm" />
		<tag k="ssr:stedsnr" v="29507" />
	</node>
	<node lat="64.23455000355099" lon="12.460883340211199" id="-35361">
		<tag k="name" v="Eggenmoen" />
		<tag k="name:no" v="Eggenmoen" />
		<tag k="place" v="locality" />
		<tag k="ssr:stedsnr" v="29508" />
	</node>
	<node lat="64.2076833312735" lon="12.298930555838501" id="-35363">
		<tag k="name" v="Brorplassen" />
		<tag k="name:no" v="Brorplassen" />
		<tag k="place" v="locality" />
		<tag k="ssr:stedsnr" v="29417" />
	</node>
	<node lat="64.31495000255211" lon="12.35959167622557" id="-35385">
		<tag k="historic" v="shieling" />
		<tag k="name" v="Rønningseteren" />
		<tag k="name:no" v="Rønningseteren" />
		<tag k="place" v="isolated_dwelling" />
		<tag k="ssr:stedsnr" v="48614" />
	</node>
	<node lat="64.19953333256366" lon="12.25961666576513" id="-35395">
		<tag k="alt_name:no" v="Breide søre" />
		<tag k="name" v="Søre Breide" />
		<tag k="name:no" v="Søre Breide" />
=======
<osm generator="osmapis" version="0.6">
	<node id="-776192" lat="64.0904611137" lon="12.337591668">
		<tag k="historic" v="shieling" />
		<tag k="name" v="Kleivseteren" />
		<tag k="name:no" v="Kleivseteren" />
		<tag k="place" v="locality" />
		<tag k="ssr:stedsnr" v="863621" />
	</node>
	<node id="-774144" lat="64.2237472256" lon="12.402441657">
		<tag k="fixme" v="consider place=hamlet" />
		<tag k="name" v="Dæli" />
		<tag k="name:no" v="Dæli" />
		<tag k="old_name:no" v="Dal" />
		<tag k="place" v="farm" />
		<tag k="ssr:stedsnr" v="742722" />
	</node>
	<node id="-774142" lat="64.2332722184" lon="12.3523583355">
		<tag k="fixme" v="consider place=hamlet" />
		<tag k="name" v="Våg" />
		<tag k="name:no" v="Våg" />
		<tag k="place" v="farm" />
		<tag k="ssr:stedsnr" v="742704" />
	</node>
	<node id="-776188" lat="64.0860722248" lon="12.2901750104">
		<tag k="name" v="Ålnesseteren" />
		<tag k="name:no" v="Ålnesseteren" />
		<tag k="place" v="isolated_dwelling" />
		<tag k="ssr:stedsnr" v="863605" />
	</node>
	<node id="-774143" lat="64.2315479122" lon="12.32538609">
		<tag k="fixme" v="consider place=hamlet" />
		<tag k="name" v="Parnas" />
		<tag k="name:no" v="Parnas" />
		<tag k="place" v="farm" />
		<tag k="ssr:stedsnr" v="742710" />
	</node>
	<node id="-774134" lat="64.2707166671" lon="12.30819999">
		<tag k="alt_name:no" v="Vestre Moum;Moum vestre" />
		<tag k="name" v="Moum" />
		<tag k="name:no" v="Moum" />
		<tag k="place" v="farm" />
		<tag k="ssr:stedsnr" v="742360" />
	</node>
	<node id="-773801" lat="64.1642722233" lon="12.5355333347">
		<tag k="alt_name:no" v="Buvollseteren" />
		<tag k="historic" v="shieling" />
		<tag k="name" v="Kjenstadbuvollan" />
		<tag k="name:no" v="Kjenstadbuvollan" />
		<tag k="place" v="locality" />
		<tag k="ssr:stedsnr" v="559571" />
	</node>
	<node id="-774132" lat="64.2696444432" lon="12.7940472186">
		<tag k="name" v="Andortjønnseteren" />
		<tag k="name:no" v="Andortjønnseteren" />
		<tag k="place" v="isolated_dwelling" />
		<tag k="ssr:stedsnr" v="741310" />
	</node>
	<node id="-776178" lat="64.2649111103" lon="12.1653027741">
		<tag k="historic" v="shieling" />
		<tag k="name" v="Rennsetseteren" />
		<tag k="name:no" v="Rennsetseteren" />
		<tag k="place" v="locality" />
		<tag k="ssr:stedsnr" v="863528" />
	</node>
	<node id="-776177" lat="64.2610999991" lon="12.1531750068">
		<tag k="name" v="Mølnvikseteren" />
		<tag k="name:no" v="Mølnvikseteren" />
		<tag k="place" v="isolated_dwelling" />
		<tag k="ssr:stedsnr" v="863526" />
	</node>
	<node id="-776176" lat="64.2604666659" lon="11.98114445">
		<tag k="historic" v="shieling" />
		<tag k="name" v="Hammerseteren" />
		<tag k="name:no" v="Hammerseteren" />
		<tag k="place" v="locality" />
		<tag k="ssr:stedsnr" v="863525" />
	</node>
	<node id="-776175" lat="64.2008166653" lon="12.2020305536">
		<tag k="name" v="Jørstad" />
		<tag k="name:no" v="Jørstad" />
		<tag k="place" v="farm" />
		<tag k="ssr:stedsnr" v="863506" />
	</node>
	<node id="-773458" lat="64.261375001" lon="12.5703555482">
		<tag k="name" v="Mollan" />
		<tag k="name:no" v="Mollan" />
		<tag k="place" v="hamlet" />
		<tag k="ssr:stedsnr" v="332603" />
	</node>
	<node id="-776165" lat="64.2567833309" lon="12.5322222136">
		<tag k="name" v="Gåsmoen" />
		<tag k="name:no" v="Gåsmoen" />
		<tag k="place" v="farm" />
		<tag k="ssr:stedsnr" v="863352" />
	</node>
	<node id="-776163" lat="64.2573027818" lon="12.3796027708">
		<tag k="name" v="Reitan" />
		<tag k="name:no" v="Reitan" />
		<tag k="place" v="farm" />
		<tag k="ssr:stedsnr" v="863349" />
	</node>
	<node id="-776158" lat="64.1415888848" lon="12.1481361013">
		<tag k="historic" v="shieling" />
		<tag k="name" v="Ytterneset" />
		<tag k="name:no" v="Ytterneset" />
		<tag k="place" v="locality" />
		<tag k="ssr:stedsnr" v="863286" />
	</node>
	<node id="-776156" lat="64.1044194486" lon="13.0855555532">
		<tag k="name" v="Gjevsjøen" />
		<tag k="name:no" v="Gjevsjøen" />
		<tag k="old_name:no" v="Gjefsjøen" />
		<tag k="place" v="farm" />
		<tag k="ssr:stedsnr" v="849691" />
	</node>
	<node id="-776155" lat="64.3027638921" lon="13.0090694455">
		<tag k="name" v="Gressåmoen" />
		<tag k="name:no" v="Gressåmoen" />
>>>>>>> e1d4bc35ff8a6074a6f2e91616a996b547c36f15
		<tag k="place" v="farm" />
		<tag k="ssr:stedsnr" v="239736" />
	</node>
<<<<<<< HEAD
	<node lat="64.20681111106947" lon="12.28265832614324" id="-35396">
		<tag k="name" v="Sveberg" />
		<tag k="name:no" v="Sveberg" />
=======
	<node id="-776154" lat="64.1593629382" lon="12.4718125368">
		<tag k="name" v="Kjevlia" />
		<tag k="name:no" v="Kjevlia" />
>>>>>>> e1d4bc35ff8a6074a6f2e91616a996b547c36f15
		<tag k="place" v="farm" />
		<tag k="ssr:stedsnr" v="55607" />
	</node>
<<<<<<< HEAD
	<node lat="64.20343888650628" lon="12.251616666436362" id="-35397">
		<tag k="alt_name:no" v="Breide nordre" />
		<tag k="name" v="Nordre Breide" />
		<tag k="name:no" v="Nordre Breide" />
=======
	<node id="-776153" lat="64.2358666629" lon="12.1507972186">
		<tag k="name" v="Vestre Holem" />
		<tag k="name:no" v="Vestre Holem" />
>>>>>>> e1d4bc35ff8a6074a6f2e91616a996b547c36f15
		<tag k="place" v="farm" />
		<tag k="ssr:stedsnr" v="57708" />
	</node>
<<<<<<< HEAD
	<node lat="64.21050833404284" lon="12.229791668385541" id="-35398">
		<tag k="fixme" v="consider place=hamlet" />
		<tag k="name" v="Finnsås" />
		<tag k="name:no" v="Finnsås" />
		<tag k="place" v="farm" />
		<tag k="ssr:stedsnr" v="60616" />
	</node>
	<node lat="64.24005832937924" lon="12.471783322702292" id="-35399">
		<tag k="fixme" v="consider place=hamlet" />
		<tag k="name" v="Aun" />
		<tag k="name:no" v="Aun" />
		<tag k="place" v="farm" />
		<tag k="ssr:stedsnr" v="60673" />
	</node>
	<node lat="64.24214722380573" lon="12.507352770623339" id="-35400">
		<tag k="fixme" v="consider place=hamlet" />
		<tag k="name" v="Enga" />
		<tag k="name:no" v="Enga" />
		<tag k="place" v="farm" />
		<tag k="ssr:stedsnr" v="60675" />
	</node>
	<node lat="64.16382500279893" lon="12.482952776337699" id="-35401">
		<tag k="fixme" v="consider place=hamlet" />
		<tag k="name" v="Steinkjer" />
		<tag k="name:no" v="Steinkjer" />
=======
	<node id="-776152" lat="64.2702583305" lon="12.5104055487">
		<tag k="alt_name:no" v="Bøgset nedre" />
		<tag k="name" v="Nedre Bøgset" />
		<tag k="name:no" v="Nedre Bøgset" />
		<tag k="place" v="farm" />
		<tag k="ssr:stedsnr" v="849286" />
	</node>
	<node id="-776126" lat="64.2546499966" lon="12.2062583272">
		<tag k="name" v="Lysheim" />
		<tag k="name:no" v="Lysheim" />
		<tag k="place" v="farm" />
		<tag k="ssr:stedsnr" v="838503" />
	</node>
	<node id="-776124" lat="64.1578444417" lon="12.0398277708">
		<tag k="barrier" v="fence" />
		<tag k="name" v="Djupdalsleet" />
		<tag k="name:no" v="Djupdalsleet" />
		<tag k="ssr:stedsnr" v="838498" />
	</node>
	<node id="-774068" lat="64.3039222238" lon="12.5298666708">
		<tag k="historic" v="shieling" />
		<tag k="name" v="Myrsetseteren" />
		<tag k="name:no" v="Myrsetseteren" />
		<tag k="place" v="locality" />
		<tag k="ssr:stedsnr" v="898121" />
	</node>
	<node id="-776110" lat="64.2149527734" lon="12.0594527749">
		<tag k="name" v="Østre Østvik" />
		<tag k="name:no" v="Østre Østvik" />
		<tag k="place" v="farm" />
		<tag k="ssr:stedsnr" v="838464" />
	</node>
	<node id="-774049" lat="64.0134166627" lon="12.2868222175">
		<tag k="name" v="Nikolaivollen" />
		<tag k="name:no" v="Nikolaivollen" />
		<tag k="place" v="locality" />
		<tag k="ssr:stedsnr" v="716339" />
	</node>
	<node id="-774045" lat="64.3126694482" lon="12.5607944362">
		<tag k="name" v="Furset" />
		<tag k="name:no" v="Furset" />
		<tag k="place" v="farm" />
		<tag k="ssr:stedsnr" v="716312" />
	</node>
	<node id="-774041" lat="64.2973944469" lon="12.3453777682">
		<tag k="building" v="industrial" />
		<tag k="name" v="Snåsa vannkilde" />
		<tag k="name:no" v="Snåsa vannkilde" />
		<tag k="ssr:stedsnr" v="709265" />
	</node>
	<node id="-774035" lat="64.2410138908" lon="12.3517055467">
		<tag k="name" v="Hireiten" />
		<tag k="name:no" v="Hireiten" />
		<tag k="place" v="quarter" />
		<tag k="ssr:stedsnr" v="696405" />
	</node>
	<node id="-774032" lat="64.1987666692" lon="12.2781694459">
		<tag k="name" v="Minsås" />
		<tag k="name:no" v="Minsås" />
		<tag k="place" v="locality" />
		<tag k="ssr:stedsnr" v="696303" />
	</node>
	<node id="-774028" lat="64.210508334" lon="12.2297916684">
		<tag k="name" v="Finnsås" />
		<tag k="name:no" v="Finnsås" />
		<tag k="place" v="farm" />
		<tag k="ssr:stedsnr" v="681762" />
	</node>
	<node id="-774022" lat="64.2400916705" lon="12.4152555466">
		<tag k="name" v="Vestre Bergsmoen" />
		<tag k="name:no" v="Vestre Bergsmoen" />
		<tag k="place" v="farm" />
		<tag k="ssr:stedsnr" v="681704" />
	</node>
	<node id="-776068" lat="64.2045583334" lon="12.2301861117">
		<tag k="alt_name:no" v="Jørstad vestre" />
		<tag k="name" v="Vestre Jørstad" />
		<tag k="name:no" v="Vestre Jørstad" />
		<tag k="place" v="farm" />
		<tag k="ssr:stedsnr" v="818339" />
	</node>
	<node id="-773782" lat="64.2649305593" lon="12.355291659">
		<tag k="name" v="Bakketun" />
		<tag k="name:no" v="Bakketun" />
		<tag k="place" v="farm" />
		<tag k="ssr:stedsnr" v="696482" />
	</node>
	<node id="-776066" lat="64.2122444424" lon="12.2701944481">
		<tag k="name" v="Tangen" />
		<tag k="name:no" v="Tangen" />
		<tag k="place" v="locality" />
		<tag k="ssr:stedsnr" v="818328" />
	</node>
	<node id="-774015" lat="64.2605888896" lon="12.2443111098">
		<tag k="name" v="Oldervika" />
		<tag k="name:no" v="Oldervika" />
		<tag k="place" v="farm" />
		<tag k="ssr:stedsnr" v="681366" />
	</node>
	<node id="-776062" lat="64.2276416632" lon="12.4058500033">
		<tag k="name" v="Austli" />
		<tag k="name:no" v="Austli" />
		<tag k="place" v="farm" />
		<tag k="ssr:stedsnr" v="818392" />
	</node>
	<node id="-774013" lat="64.2755527809" lon="12.5518666617">
		<tag k="name" v="Gravbrøt" />
		<tag k="name:no" v="Gravbrøt" />
		<tag k="place" v="farm" />
		<tag k="ssr:stedsnr" v="681363" />
	</node>
	<node id="-774011" lat="64.262808337" lon="12.3666861044">
		<tag k="name" v="Elverheim" />
		<tag k="name:no" v="Elverheim" />
		<tag k="place" v="farm" />
		<tag k="ssr:stedsnr" v="681354" />
	</node>
	<node id="-774010" lat="64.3273250001" lon="12.7075499918">
		<tag k="name" v="Ryggvollseteren" />
		<tag k="name:no" v="Ryggvollseteren" />
		<tag k="place" v="isolated_dwelling" />
		<tag k="ssr:stedsnr" v="681419" />
	</node>
	<node id="-774009" lat="64.3232611115" lon="12.5932750095">
		<tag k="historic" v="shieling" />
		<tag k="name" v="Landsemseteren" />
		<tag k="name:no" v="Landsemseteren" />
		<tag k="place" v="locality" />
		<tag k="ssr:stedsnr" v="681415" />
	</node>
	<node id="-774008" lat="64.1379805578" lon="12.1787333278">
		<tag k="name" v="Mikalstuggu" />
		<tag k="name:no" v="Mikalstuggu" />
		<tag k="place" v="isolated_dwelling" />
		<tag k="ssr:stedsnr" v="681271" />
	</node>
	<node id="-774007" lat="64.3027638921" lon="13.0090694455">
		<tag k="fixme" v="consider place=hamlet" />
		<tag k="name" v="Gressåmoen" />
		<tag k="name:no" v="Gressåmoen" />
		<tag k="place" v="farm" />
		<tag k="ssr:stedsnr" v="681257" />
	</node>
	<node id="-776050" lat="64.2337500028" lon="12.751774992">
		<tag k="name" v="Øyingsseteren" />
		<tag k="name:no" v="Øyingsseteren" />
		<tag k="place" v="isolated_dwelling" />
		<tag k="ssr:stedsnr" v="803890" />
	</node>
	<node id="-776048" lat="64.2252380976" lon="12.3962582163">
		<tag k="fixme" v="consider place=hamlet" />
		<tag k="name" v="Vollen" />
		<tag k="name:no" v="Vollen" />
		<tag k="place" v="farm" />
		<tag k="ssr:stedsnr" v="803745" />
	</node>
	<node id="-776047" lat="64.216477782" lon="12.264652782">
		<tag k="name" v="Slåttan" />
		<tag k="name:no" v="Slåttan" />
		<tag k="place" v="farm" />
		<tag k="ssr:stedsnr" v="803736" />
	</node>
	<node id="-776046" lat="64.2394833349" lon="12.326052778">
		<tag k="name" v="Sandnesberga" />
		<tag k="name:no" v="Sandnesberga" />
		<tag k="place" v="farm" />
		<tag k="ssr:stedsnr" v="803700" />
	</node>
	<node id="-773995" lat="64.2463055515" lon="12.3781444419">
		<tag k="name" v="Bakkegrenda" />
		<tag k="name:no" v="Bakkegrenda" />
		<tag k="place" v="quarter" />
		<tag k="ssr:stedsnr" v="879445" />
	</node>
	<node id="-776040" lat="64.2001944459" lon="12.4319444474">
		<tag k="name" v="Buhaugseteren" />
		<tag k="name:no" v="Buhaugseteren" />
		<tag k="place" v="isolated_dwelling" />
		<tag k="ssr:stedsnr" v="803535" />
	</node>
	<node id="-776039" lat="64.1952333305" lon="12.2853277698">
		<tag k="alt_name:no" v="Haugdal" />
		<tag k="name" v="Kleivtrøa" />
		<tag k="name:no" v="Kleivtrøa" />
		<tag k="place" v="farm" />
		<tag k="ssr:stedsnr" v="803527" />
	</node>
	<node id="-776038" lat="64.2120833314" lon="12.3034944351">
		<tag k="fixme" v="consider place=hamlet" />
		<tag k="name" v="Mediås" />
		<tag k="name:no" v="Mediås" />
		<tag k="place" v="farm" />
		<tag k="ssr:stedsnr" v="803511" />
	</node>
	<node id="-776035" lat="64.2513499969" lon="12.1278805526">
		<tag k="name" v="Vestre Holemsseteren" />
		<tag k="name:no" v="Vestre Holemsseteren" />
		<tag k="place" v="isolated_dwelling" />
		<tag k="ssr:stedsnr" v="803501" />
	</node>
	<node id="-776032" lat="64.0511138896" lon="12.1826777879">
		<tag k="alt_name:no" v="Gifstadseteren" />
		<tag k="name" v="Langfjellseteren" />
		<tag k="name:no" v="Langfjellseteren" />
		<tag k="place" v="locality" />
		<tag k="ssr:stedsnr" v="803641" />
	</node>
	<node id="-776031" lat="64.0818499966" lon="12.3304611036">
		<tag k="historic" v="shieling" />
		<tag k="name" v="Kleivseteren" />
		<tag k="name:no" v="Kleivseteren" />
		<tag k="place" v="locality" />
		<tag k="ssr:stedsnr" v="803602" />
	</node>
	<node id="-773982" lat="64.229619443" lon="12.4013611061">
		<tag k="name" v="Nordhøy" />
		<tag k="name:no" v="Nordhøy" />
		<tag k="place" v="farm" />
		<tag k="ssr:stedsnr" v="879383" />
	</node>
	<node id="-773980" lat="64.2241222196" lon="12.3645416698">
		<tag k="name" v="Linvollen" />
		<tag k="name:no" v="Linvollen" />
		<tag k="place" v="locality" />
		<tag k="ssr:stedsnr" v="879379" />
	</node>
	<node id="-776027" lat="64.2788750004" lon="12.6844083395">
		<tag k="historic" v="shieling" />
		<tag k="name" v="Mollanseteren" />
		<tag k="name:no" v="Mollanseteren" />
		<tag k="place" v="locality" />
		<tag k="ssr:stedsnr" v="803377" />
	</node>
	<node id="-776023" lat="64.3469472224" lon="12.8245222291">
		<tag k="name" v="Bøgsetseteren" />
		<tag k="name:no" v="Bøgsetseteren" />
		<tag k="place" v="locality" />
		<tag k="ssr:stedsnr" v="803300" />
	</node>
	<node id="-776022" lat="64.2308361092" lon="12.3365944411">
		<tag k="alt_name:no" v="Tangen" />
		<tag k="name" v="Svarvtangen" />
		<tag k="name:no" v="Svarvtangen" />
		<tag k="place" v="farm" />
		<tag k="ssr:stedsnr" v="802749" />
	</node>
	<node id="-776020" lat="64.2428444432" lon="12.4361416591">
		<tag k="alt_name:no" v="Navlus, nedre" />
		<tag k="fixme" v="multiple name tags, choose one and add the other to alt_name" />
		<tag k="name" v="Navlusmoen;Nedre Navlus" />
		<tag k="name:no" v="Navlusmoen;Nedre Navlus" />
		<tag k="place" v="farm" />
		<tag k="ssr:stedsnr" v="802743" />
	</node>
	<node id="-773969" lat="64.2171305555" lon="12.2584083394">
		<tag k="name" v="Jørstad industriområde" />
		<tag k="name:no" v="Jørstad industriområde" />
		<tag k="place" v="quarter" />
		<tag k="ssr:stedsnr" v="879315" />
	</node>
	<node id="-773963" lat="64.2255972216" lon="12.2710333422">
		<tag k="name" v="Olausrønningen" />
		<tag k="name:no" v="Olausrønningen" />
		<tag k="place" v="locality" />
		<tag k="ssr:stedsnr" v="879299" />
	</node>
	<node id="-776009" lat="64.2634249963" lon="12.4678750031">
		<tag k="name" v="Skoglund" />
		<tag k="name:no" v="Skoglund" />
		<tag k="place" v="farm" />
		<tag k="ssr:stedsnr" v="802413" />
	</node>
	<node id="-773960" lat="64.2005250023" lon="12.2332944413">
		<tag k="alt_name:no" v="Jørstad søre" />
		<tag k="name" v="Søre Jørstad" />
		<tag k="name:no" v="Søre Jørstad" />
		<tag k="place" v="farm" />
		<tag k="ssr:stedsnr" v="879284" />
	</node>
	<node id="-773959" lat="64.1920805527" lon="12.1838111032">
		<tag k="name" v="Evjan" />
		<tag k="name:no" v="Evjan" />
		<tag k="place" v="farm" />
		<tag k="ssr:stedsnr" v="879277" />
	</node>
	<node id="-776006" lat="64.2391653492" lon="12.4527790788">
		<tag k="name" v="Mona" />
		<tag k="name:no" v="Mona" />
		<tag k="place" v="farm" />
		<tag k="ssr:stedsnr" v="788676" />
	</node>
	<node id="-776005" lat="64.2419583365" lon="12.4931638792">
		<tag k="fixme" v="consider place=hamlet" />
		<tag k="name" v="Skavlan" />
		<tag k="name:no" v="Skavlan" />
		<tag k="place" v="farm" />
		<tag k="ssr:stedsnr" v="788669" />
	</node>
	<node id="-776004" lat="64.2438333296" lon="12.4028777724">
		<tag k="fixme" v="consider place=hamlet" />
		<tag k="name" v="Forberg" />
		<tag k="name:no" v="Forberg" />
		<tag k="place" v="farm" />
		<tag k="ssr:stedsnr" v="788274" />
	</node>
	<node id="-773931" lat="64.2656805514" lon="12.2753500026">
		<tag k="name" v="Vegset" />
		<tag k="name:no" v="Vegset" />
		<tag k="place" v="farm" />
		<tag k="ssr:stedsnr" v="635359" />
	</node>
	<node id="-773929" lat="64.248574996" lon="12.359602777">
		<tag k="amenity" v="school" />
		<tag k="name" v="Åarjel-saemiej skuvle" />
		<tag k="name:no" v="Åarjel-saemiej skuvle" />
		<tag k="ssr:stedsnr" v="726227" />
	</node>
	<node id="-773923" lat="64.1768166628" lon="12.1273388968">
		<tag k="name" v="Fjellvang" />
		<tag k="name:no" v="Fjellvang" />
		<tag k="place" v="farm" />
		<tag k="ssr:stedsnr" v="620416" />
	</node>
	<node id="-773922" lat="64.3481305536" lon="12.4372555508">
		<tag k="historic" v="shieling" />
		<tag k="name" v="Grånåseteren" />
		<tag k="name:no" v="Grånåseteren" />
		<tag k="place" v="locality" />
		<tag k="ssr:stedsnr" v="620411" />
	</node>
	<node id="-773919" lat="64.2346555998" lon="12.324458123">
		<tag k="name" v="Fagerbakken" />
		<tag k="name:no" v="Fagerbakken" />
		<tag k="place" v="farm" />
		<tag k="ssr:stedsnr" v="606629" />
	</node>
	<node id="-773918" lat="64.187674997" lon="12.3138527862">
		<tag k="name" v="Gifstad" />
		<tag k="name:no" v="Gifstad" />
		<tag k="place" v="farm" />
		<tag k="ssr:stedsnr" v="606622" />
	</node>
	<node id="-775854" lat="64.1226000006" lon="12.3991083323">
		<tag k="fixme" v="consider place=hamlet" />
		<tag k="name" v="Hevdesåsen" />
		<tag k="name:no" v="Hevdesåsen" />
		<tag k="place" v="farm" />
		<tag k="ssr:stedsnr" v="742552" />
	</node>
	<node id="-773763" lat="64.198988885" lon="12.2887027689">
		<tag k="name" v="Kjerktrøan" />
		<tag k="name:no" v="Kjerktrøan" />
		<tag k="place" v="locality" />
		<tag k="ssr:stedsnr" v="696294" />
	</node>
	<node id="-775946" lat="64.2323333312" lon="12.1057361156">
		<tag k="name" v="Heimsjøvollen" />
		<tag k="name:no" v="Heimsjøvollen" />
		<tag k="place" v="isolated_dwelling" />
		<tag k="ssr:stedsnr" v="776361" />
	</node>
	<node id="-773891" lat="64.2387583316" lon="12.1542305645">
		<tag k="fixme" v="consider place=hamlet" />
		<tag k="name" v="Mølnvika" />
		<tag k="name:no" v="Mølnvika" />
		<tag k="place" v="farm" />
		<tag k="ssr:stedsnr" v="716372" />
	</node>
	<node id="-775937" lat="64.3078333301" lon="12.4820111071">
		<tag k="name" v="Larsrønningen" />
		<tag k="name:no" v="Larsrønningen" />
		<tag k="place" v="isolated_dwelling" />
		<tag k="ssr:stedsnr" v="776015" />
	</node>
	<node id="-775933" lat="64.277305557" lon="12.5912222198">
		<tag k="name" v="Botenmoen" />
		<tag k="name:no" v="Botenmoen" />
		<tag k="place" v="locality" />
		<tag k="ssr:stedsnr" v="757608" />
	</node>
	<node id="-775926" lat="64.2770638932" lon="12.5315305574">
		<tag k="alt_name:no" v="Agle østre" />
		<tag k="name" v="Østre Agle" />
		<tag k="name:no" v="Østre Agle" />
		<tag k="place" v="farm" />
		<tag k="ssr:stedsnr" v="757539" />
	</node>
	<node id="-773874" lat="64.3465833359" lon="12.7621833259">
		<tag k="historic" v="shieling" />
		<tag k="name" v="Mossetran" />
		<tag k="name:no" v="Mossetran" />
		<tag k="place" v="locality" />
		<tag k="ssr:stedsnr" v="716598" />
	</node>
	<node id="-775920" lat="64.2301888885" lon="12.4604277845">
		<tag k="name" v="Perønningen" />
		<tag k="name:no" v="Perønningen" />
		<tag k="place" v="locality" />
		<tag k="ssr:stedsnr" v="757484" />
	</node>
	<node id="-775909" lat="64.2669000019" lon="12.3455111104">
		<tag k="name" v="Horjem" />
		<tag k="name:no" v="Horjem" />
		<tag k="place" v="farm" />
		<tag k="ssr:stedsnr" v="757440" />
	</node>
	<node id="-775908" lat="64.2201083321" lon="12.356136101">
		<tag k="name" v="Andreasrønningen" />
		<tag k="name:no" v="Andreasrønningen" />
		<tag k="place" v="locality" />
		<tag k="ssr:stedsnr" v="757413" />
	</node>
	<node id="-773355" lat="64.3214138848" lon="12.4908138804">
		<tag k="name" v="Kolåsen" />
		<tag k="name:no" v="Kolåsen" />
		<tag k="place" v="farm" />
		<tag k="ssr:stedsnr" v="473146" />
	</node>
	<node id="-775903" lat="64.2632527747" lon="12.2687888858">
		<tag k="name" v="Vegset" />
		<tag k="name:no" v="Vegset" />
		<tag k="place" v="farm" />
		<tag k="ssr:stedsnr" v="757351" />
	</node>
	<node id="-775898" lat="64.2263027798" lon="12.2527944494">
		<tag k="name" v="Perønningen" />
		<tag k="name:no" v="Perønningen" />
		<tag k="place" v="locality" />
		<tag k="ssr:stedsnr" v="757305" />
	</node>
	<node id="-775895" lat="64.2227499995" lon="12.2457888899">
		<tag k="name" v="Svedda" />
		<tag k="name:no" v="Svedda" />
		<tag k="place" v="locality" />
		<tag k="ssr:stedsnr" v="757297" />
	</node>
	<node id="-775892" lat="64.1993166652" lon="12.2231666654">
		<tag k="name" v="Sandmo" />
		<tag k="name:no" v="Sandmo" />
		<tag k="place" v="farm" />
		<tag k="ssr:stedsnr" v="757277" />
	</node>
	<node id="-773833" lat="64.2762305519" lon="12.4822583331">
		<tag k="name" v="Småvollan" />
		<tag k="name:no" v="Småvollan" />
		<tag k="place" v="locality" />
		<tag k="ssr:stedsnr" v="575542" />
	</node>
	<node id="-775877" lat="64.0633046896" lon="12.8947642388">
		<tag k="fixme" v="consider tourism=alpine_hut or tourism=chalet" />
		<tag k="name" v="Holden fjellgård" />
		<tag k="name:no" v="Holden fjellgård" />
		<tag k="old_name:no" v="Holderen" />
		<tag k="ssr:stedsnr" v="742748" />
		<tag k="tourism" v="wilderness_hut" />
	</node>
	<node id="-773828" lat="64.2779361137" lon="12.5413138978">
		<tag k="name" v="Limomnan" />
		<tag k="name:no" v="Limomnan" />
		<tag k="place" v="farm" />
		<tag k="ssr:stedsnr" v="575522" />
	</node>
	<node id="-773827" lat="64.2530472202" lon="12.4401222192">
		<tag k="name" v="Tølløvtrøa" />
		<tag k="name:no" v="Tølløvtrøa" />
		<tag k="place" v="locality" />
		<tag k="ssr:stedsnr" v="575517" />
	</node>
	<node id="-775874" lat="64.2430444429" lon="12.3622333249">
		<tag k="fixme" v="consider place=hamlet" />
		<tag k="name" v="Vinje" />
		<tag k="name:no" v="Vinje" />
		<tag k="place" v="farm" />
		<tag k="ssr:stedsnr" v="742691" />
	</node>
	<node id="-775872" lat="64.1694527777" lon="12.7488194502">
		<tag k="historic" v="shieling" />
		<tag k="name" v="Prestseteren" />
		<tag k="name:no" v="Prestseteren" />
		<tag k="place" v="locality" />
		<tag k="ssr:stedsnr" v="742927" />
	</node>
	<node id="-775867" lat="64.0227333314" lon="12.3490333298">
		<tag k="name" v="Åsvasseteren" />
		<tag k="name:no" v="Åsvasseteren" />
		<tag k="place" v="isolated_dwelling" />
		<tag k="ssr:stedsnr" v="742887" />
	</node>
	<node id="-773814" lat="64.2470853657" lon="12.183308524">
		<tag k="fixme" v="consider place=hamlet" />
		<tag k="name" v="Rennset" />
		<tag k="name:no" v="Rennset" />
		<tag k="place" v="farm" />
		<tag k="ssr:stedsnr" v="560414" />
	</node>
	<node id="-773809" lat="64.0897944442" lon="12.2824027699">
		<tag k="name" v="Finnsåsseteren" />
		<tag k="name:no" v="Finnsåsseteren" />
		<tag k="place" v="isolated_dwelling" />
		<tag k="ssr:stedsnr" v="559612" />
	</node>
	<node id="-773807" lat="64.232016026" lon="12.4296778979">
		<tag k="fixme" v="consider place=hamlet" />
		<tag k="name" v="Husa" />
		<tag k="name:no" v="Husa" />
		<tag k="place" v="farm" />
		<tag k="ssr:stedsnr" v="559719" />
	</node>
	<node id="-773806" lat="64.2322416629" lon="12.3054916762">
		<tag k="alt_name:no" v="Gran;Gran vestre" />
		<tag k="name" v="Vestre Gran" />
		<tag k="name:no" v="Vestre Gran" />
		<tag k="place" v="farm" />
		<tag k="ssr:stedsnr" v="559713" />
	</node>
	<node id="-775853" lat="64.1502277774" lon="12.4227638862">
		<tag k="historic" v="shieling" />
		<tag k="name" v="Snøåssetran" />
		<tag k="name:no" v="Snøåssetran" />
		<tag k="place" v="locality" />
		<tag k="ssr:stedsnr" v="742545" />
	</node>
	<node id="-773804" lat="64.2476694467" lon="12.6117083432">
		<tag k="historic" v="shieling" />
		<tag k="name" v="Steinsengseteren" />
		<tag k="name:no" v="Steinsengseteren" />
		<tag k="place" v="locality" />
		<tag k="ssr:stedsnr" v="559707" />
	</node>
	<node id="-773803" lat="64.2374503812" lon="12.4588839993">
		<tag k="fixme" v="consider place=hamlet" />
		<tag k="name" v="Eggen" />
		<tag k="name:no" v="Eggen" />
		<tag k="place" v="farm" />
		<tag k="ssr:stedsnr" v="559703" />
	</node>
	<node id="-775849" lat="64.205725002" lon="12.3289972227">
		<tag k="name" v="Høgstad" />
		<tag k="name:no" v="Høgstad" />
		<tag k="place" v="farm" />
		<tag k="ssr:stedsnr" v="742492" />
	</node>
	<node id="-775847" lat="64.1018805595" lon="12.1971722195">
		<tag k="name" v="Raudbeinseteren" />
		<tag k="name:no" v="Raudbeinseteren" />
		<tag k="place" v="locality" />
		<tag k="ssr:stedsnr" v="742339" />
	</node>
	<node id="-773798" lat="64.1490222258" lon="12.5282611172">
		<tag k="name" v="Steinkjerseteren" />
		<tag k="name:no" v="Steinkjerseteren" />
		<tag k="place" v="isolated_dwelling" />
		<tag k="ssr:stedsnr" v="559561" />
	</node>
	<node id="-775844" lat="64.3282500044" lon="12.6658500016">
		<tag k="name" v="Aglseteren" />
		<tag k="name:no" v="Aglseteren" />
		<tag k="place" v="isolated_dwelling" />
		<tag k="ssr:stedsnr" v="742391" />
	</node>
	<node id="-775843" lat="64.3206999976" lon="12.571405565">
		<tag k="historic" v="shieling" />
		<tag k="name" v="Skartnesseteren" />
		<tag k="name:no" v="Skartnesseteren" />
		<tag k="place" v="locality" />
		<tag k="ssr:stedsnr" v="742389" />
	</node>
	<node id="-775842" lat="64.3096277789" lon="12.5093750086">
		<tag k="historic" v="shieling" />
		<tag k="name" v="Myrsetseteren" />
		<tag k="name:no" v="Myrsetseteren" />
		<tag k="place" v="locality" />
		<tag k="ssr:stedsnr" v="742387" />
	</node>
	<node id="-773792" lat="64.2143277791" lon="12.0566000022">
		<tag k="fixme" v="consider place=hamlet" />
		<tag k="name" v="Austvika" />
		<tag k="name:no" v="Austvika" />
		<tag k="place" v="farm" />
		<tag k="ssr:stedsnr" v="559369" />
	</node>
	<node id="-773791" lat="64.2995375523" lon="12.6585867653">
		<tag k="historic" v="shieling" />
		<tag k="name" v="Blomliseteren" />
		<tag k="name:no" v="Blomliseteren" />
		<tag k="place" v="locality" />
		<tag k="ssr:stedsnr" v="559362" />
	</node>
	<node id="-773787" lat="64.2755472205" lon="12.5162916697">
		<tag k="name" v="Nordheim" />
		<tag k="name:no" v="Nordheim" />
		<tag k="place" v="farm" />
		<tag k="ssr:stedsnr" v="696547" />
	</node>
	<node id="-773785" lat="64.2409583288" lon="12.4752638951">
		<tag k="name" v="Aun" />
		<tag k="name:no" v="Aun" />
		<tag k="place" v="farm" />
		<tag k="ssr:stedsnr" v="696529" />
	</node>
	<node id="-775832" lat="64.2041833346" lon="12.1627944366">
		<tag k="fixme" v="consider place=hamlet" />
		<tag k="name" v="Ålneset" />
		<tag k="name:no" v="Ålneset" />
		<tag k="place" v="farm" />
		<tag k="ssr:stedsnr" v="741575" />
	</node>
	<node id="-773783" lat="64.2523888919" lon="12.3705972252">
		<tag k="alt_name:no" v="Sem ytre" />
		<tag k="name" v="Ytre Sem" />
		<tag k="name:no" v="Ytre Sem" />
		<tag k="place" v="farm" />
		<tag k="ssr:stedsnr" v="696499" />
	</node>
	<node id="-775830" lat="64.2696305586" lon="12.5140277816">
		<tag k="fixme" v="consider place=hamlet" />
		<tag k="name" v="Bøgset" />
		<tag k="name:no" v="Bøgset" />
		<tag k="place" v="farm" />
		<tag k="ssr:stedsnr" v="741432" />
	</node>
	<node id="-773779" lat="64.2096083294" lon="12.2955305591">
		<tag k="name" v="Sagmoen" />
		<tag k="name:no" v="Sagmoen" />
		<tag k="place" v="locality" />
		<tag k="ssr:stedsnr" v="696440" />
	</node>
	<node id="-773769" lat="64.269930555" lon="12.3130972255">
		<tag k="alt_name:no" v="Moum østre" />
		<tag k="name" v="Østre Moum" />
		<tag k="name:no" v="Østre Moum" />
		<tag k="place" v="farm" />
		<tag k="ssr:stedsnr" v="696470" />
	</node>
	<node id="-773765" lat="64.2034388865" lon="12.2516166664">
		<tag k="alt_name:no" v="Breide vestre" />
		<tag k="name" v="Vestre Breide" />
		<tag k="name:no" v="Vestre Breide" />
		<tag k="place" v="farm" />
		<tag k="ssr:stedsnr" v="696336" />
	</node>
	<node id="-773764" lat="64.1923722239" lon="12.2604611181">
		<tag k="name" v="Øvermoen" />
		<tag k="name:no" v="Øvermoen" />
		<tag k="place" v="locality" />
		<tag k="ssr:stedsnr" v="696299" />
	</node>
	<node id="-775811" lat="64.2139666662" lon="12.0505333259">
		<tag k="name" v="Vestre Østvik" />
		<tag k="name:no" v="Vestre Østvik" />
		<tag k="place" v="farm" />
		<tag k="ssr:stedsnr" v="655418" />
	</node>
	<node id="-773755" lat="64.2547694402" lon="12.692344454">
		<tag k="historic" v="shieling" />
		<tag k="name" v="Tjurrudalen" />
		<tag k="name:no" v="Tjurrudalen" />
		<tag k="place" v="locality" />
		<tag k="ssr:stedsnr" v="535526" />
	</node>
	<node id="-775796" lat="64.2573944441" lon="12.4775833322">
		<tag k="name" v="Sørmoen" />
		<tag k="name:no" v="Sørmoen" />
		<tag k="place" v="farm" />
		<tag k="ssr:stedsnr" v="635537" />
	</node>
	<node id="-775792" lat="64.2631861097" lon="12.5561055649">
		<tag k="name" v="Ålmo" />
		<tag k="name:no" v="Ålmo" />
		<tag k="place" v="hamlet" />
		<tag k="ssr:stedsnr" v="635584" />
	</node>
	<node id="-775786" lat="64.20525833" lon="12.3632111011">
		<tag k="name" v="Jakobaunet" />
		<tag k="name:no" v="Jakobaunet" />
		<tag k="place" v="locality" />
		<tag k="ssr:stedsnr" v="635439" />
	</node>
	<node id="-775781" lat="64.2359333364" lon="12.3695222315">
		<tag k="name" v="Svarva" />
		<tag k="name:no" v="Svarva" />
		<tag k="place" v="farm" />
		<tag k="ssr:stedsnr" v="635404" />
	</node>
	<node id="-773729" lat="64.2451361125" lon="12.3352111203">
		<tag k="name" v="Kjerstimoen" />
		<tag k="name:no" v="Kjerstimoen" />
		<tag k="place" v="locality" />
		<tag k="ssr:stedsnr" v="514503" />
	</node>
	<node id="-775776" lat="64.2024861147" lon="12.2313305551">
		<tag k="alt_name:no" v="Jørstad vestre" />
		<tag k="name" v="Vestre Jørstad" />
		<tag k="name:no" v="Vestre Jørstad" />
		<tag k="place" v="farm" />
		<tag k="ssr:stedsnr" v="635328" />
	</node>
	<node id="-775769" lat="64.22762222" lon="12.5379333266">
		<tag k="name" v="Tomasrønningen" />
		<tag k="name:no" v="Tomasrønningen" />
		<tag k="place" v="locality" />
		<tag k="ssr:stedsnr" v="635502" />
	</node>
	<node id="-773714" lat="64.2372833356" lon="12.3654111088">
		<tag k="fixme" v="consider place=hamlet" />
		<tag k="name" v="Svarva" />
		<tag k="name:no" v="Svarva" />
		<tag k="place" v="farm" />
		<tag k="ssr:stedsnr" v="681841" />
	</node>
	<node id="-773709" lat="64.2280000037" lon="12.4199750015">
		<tag k="name" v="Vangen" />
		<tag k="name:no" v="Vangen" />
		<tag k="place" v="farm" />
		<tag k="ssr:stedsnr" v="681732" />
	</node>
	<node id="-773708" lat="64.2319083339" lon="12.3977833311">
		<tag k="fixme" v="consider place=hamlet" />
		<tag k="name" v="Ytre Sørbygda" />
		<tag k="name:no" v="Ytre Sørbygda" />
		<tag k="place" v="village" />
		<tag k="ssr:stedsnr" v="681730" />
	</node>
	<node id="-773707" lat="64.2276277751" lon="12.3951361109">
		<tag k="name" v="Ekker" />
		<tag k="name:no" v="Ekker" />
		<tag k="place" v="farm" />
		<tag k="ssr:stedsnr" v="681727" />
	</node>
	<node id="-773706" lat="64.2383722239" lon="12.3323138948">
		<tag k="name" v="Rønningen" />
		<tag k="name:no" v="Rønningen" />
		<tag k="place" v="farm" />
		<tag k="ssr:stedsnr" v="681702" />
	</node>
	<node id="-773701" lat="64.1747944431" lon="12.6004194399">
		<tag k="historic" v="shieling" />
		<tag k="name" v="Gavlen" />
		<tag k="name:no" v="Gavlen" />
		<tag k="place" v="locality" />
		<tag k="ssr:stedsnr" v="681552" />
	</node>
	<node id="-773700" lat="64.1668499967" lon="12.5462388901">
		<tag k="historic" v="shieling" />
		<tag k="name" v="Brønstadsetran" />
		<tag k="name:no" v="Brønstadsetran" />
		<tag k="place" v="locality" />
		<tag k="ssr:stedsnr" v="681548" />
	</node>
	<node id="-775747" lat="64.229299999" lon="12.594116659">
		<tag k="name" v="Skavlansetran" />
		<tag k="name:no" v="Skavlansetran" />
		<tag k="place" v="isolated_dwelling" />
		<tag k="ssr:stedsnr" v="620725" />
	</node>
	<node id="-775746" lat="64.2228888846" lon="12.2603250008">
		<tag k="name" v="Øversveddet" />
		<tag k="name:no" v="Øversveddet" />
		<tag k="place" v="farm" />
		<tag k="ssr:stedsnr" v="620719" />
	</node>
	<node id="-775744" lat="64.2387499971" lon="12.3624611192">
		<tag k="alt_name:no" v="Øvre Svarva;Svarva øvre" />
		<tag k="name" v="Svarva" />
		<tag k="name:no" v="Svarva" />
		<tag k="place" v="farm" />
		<tag k="ssr:stedsnr" v="620678" />
	</node>
	<node id="-775743" lat="64.2332222233" lon="12.29325834">
		<tag k="name" v="Granamoen" />
		<tag k="name:no" v="Granamoen" />
		<tag k="place" v="farm" />
		<tag k="ssr:stedsnr" v="620673" />
	</node>
	<node id="-775741" lat="64.2471303311" lon="12.4331957419">
		<tag k="fixme" v="consider place=hamlet" />
		<tag k="name" v="Navlus" />
		<tag k="name:no" v="Navlus" />
		<tag k="place" v="farm" />
		<tag k="ssr:stedsnr" v="620669" />
	</node>
	<node id="-775734" lat="64.1741166706" lon="12.5873333252">
		<tag k="name" v="Megard" />
		<tag k="name:no" v="Megard" />
		<tag k="place" v="isolated_dwelling" />
		<tag k="ssr:stedsnr" v="620534" />
	</node>
	<node id="-773685" lat="64.2204083304" lon="12.4276416751">
		<tag k="name" v="Smestad" />
		<tag k="name:no" v="Smestad" />
		<tag k="place" v="farm" />
		<tag k="ssr:stedsnr" v="499696" />
	</node>
	<node id="-773684" lat="64.2246416628" lon="12.4145277826">
		<tag k="name" v="Steine" />
		<tag k="name:no" v="Steine" />
		<tag k="place" v="farm" />
		<tag k="ssr:stedsnr" v="499694" />
	</node>
	<node id="-775731" lat="64.1793027778" lon="12.4222722128">
		<tag k="name" v="Kamseteren" />
		<tag k="name:no" v="Kamseteren" />
		<tag k="place" v="locality" />
		<tag k="ssr:stedsnr" v="620516" />
	</node>
	<node id="-775730" lat="64.2097111137" lon="12.5534611074">
		<tag k="historic" v="shieling" />
		<tag k="name" v="Svarttjønnseteren" />
		<tag k="name:no" v="Svarttjønnseteren" />
		<tag k="place" v="locality" />
		<tag k="ssr:stedsnr" v="620511" />
	</node>
	<node id="-773681" lat="64.2541777797" lon="12.3726555461">
		<tag k="fixme" v="consider place=hamlet" />
		<tag k="name" v="Sem" />
		<tag k="name:no" v="Sem" />
		<tag k="place" v="farm" />
		<tag k="ssr:stedsnr" v="681339" />
	</node>
	<node id="-775727" lat="64.1984916628" lon="12.2943916669">
		<tag k="alt_name:no" v="Kleiv østre;Østre Kleiv" />
		<tag k="name" v="Kleiv" />
		<tag k="name:no" v="Kleiv" />
		<tag k="place" v="farm" />
		<tag k="ssr:stedsnr" v="620482" />
	</node>
	<node id="-773676" lat="64.2603222184" lon="12.7643500024">
		<tag k="name" v="Nyseteren" />
		<tag k="name:no" v="Nyseteren" />
		<tag k="place" v="locality" />
		<tag k="ssr:stedsnr" v="681244" />
	</node>
	<node id="-775723" lat="64.3194499956" lon="12.6683000013">
		<tag k="historic" v="shieling" />
		<tag k="name" v="Skjørsjøhaugen" />
		<tag k="name:no" v="Skjørsjøhaugen" />
		<tag k="place" v="locality" />
		<tag k="ssr:stedsnr" v="620387" />
	</node>
	<node id="-775722" lat="64.3322750007" lon="12.6123083301">
		<tag k="historic" v="shieling" />
		<tag k="name" v="Ryggvollseteren" />
		<tag k="name:no" v="Ryggvollseteren" />
		<tag k="place" v="locality" />
		<tag k="ssr:stedsnr" v="620385" />
	</node>
	<node id="-775721" lat="64.3261222178" lon="12.3498138943">
		<tag k="name" v="Heiås" />
		<tag k="name:no" v="Heiås" />
		<tag k="place" v="farm" />
		<tag k="ssr:stedsnr" v="620383" />
	</node>
	<node id="-773672" lat="64.3359888878" lon="12.1544138866">
		<tag k="historic" v="shieling" />
		<tag k="name" v="Jøresseteren" />
		<tag k="name:no" v="Jøresseteren" />
		<tag k="place" v="locality" />
		<tag k="ssr:stedsnr" v="499531" />
	</node>
	<node id="-775719" lat="64.2227583349" lon="11.9977333392">
		<tag k="historic" v="shieling" />
		<tag k="name" v="Hammerseteren" />
		<tag k="name:no" v="Hammerseteren" />
		<tag k="place" v="locality" />
		<tag k="ssr:stedsnr" v="620371" />
	</node>
	<node id="-775718" lat="64.2929749979" lon="12.5660361025">
		<tag k="alt_name:no" v="Østerås" />
		<tag k="name" v="Austerås" />
		<tag k="name:no" v="Austerås" />
		<tag k="place" v="farm" />
		<tag k="ssr:stedsnr" v="620368" />
	</node>
	<node id="-775717" lat="64.2969527804" lon="12.6264055522">
		<tag k="historic" v="shieling" />
		<tag k="name" v="Aunsan" />
		<tag k="name:no" v="Aunsan" />
		<tag k="place" v="locality" />
		<tag k="ssr:stedsnr" v="620367" />
	</node>
	<node id="-773665" lat="64.2716999957" lon="12.5476805537">
		<tag k="name" v="Sagmoen" />
		<tag k="name:no" v="Sagmoen" />
		<tag k="place" v="farm" />
		<tag k="ssr:stedsnr" v="499304" />
	</node>
	<node id="-773659" lat="64.2123999963" lon="12.0420333263">
		<tag k="name" v="Nordre Hammer" />
		<tag k="name:no" v="Nordre Hammer" />
		<tag k="place" v="farm" />
		<tag k="ssr:stedsnr" v="667358" />
	</node>
	<node id="-773658" lat="64.2387583316" lon="12.1542305645">
		<tag k="name" v="Mølnvika" />
		<tag k="name:no" v="Mølnvika" />
		<tag k="place" v="farm" />
		<tag k="ssr:stedsnr" v="667356" />
	</node>
	<node id="-773657" lat="64.2476055558" lon="12.4334138805">
		<tag k="name" v="Navlus" />
		<tag k="name:no" v="Navlus" />
		<tag k="place" v="farm" />
		<tag k="ssr:stedsnr" v="664104" />
	</node>
	<node id="-775704" lat="64.280061115" lon="12.8655861052">
		<tag k="name" v="Damstuggu" />
		<tag k="name:no" v="Damstuggu" />
		<tag k="place" v="isolated_dwelling" />
		<tag k="ssr:stedsnr" v="620249" />
	</node>
	<node id="-775701" lat="64.2690555512" lon="12.7264027789">
		<tag k="name" v="Ålmoseteren" />
		<tag k="name:no" v="Ålmoseteren" />
		<tag k="place" v="isolated_dwelling" />
		<tag k="ssr:stedsnr" v="620246" />
	</node>
	<node id="-775699" lat="64.2728361132" lon="12.4456555536">
		<tag k="name" v="Løberg" />
		<tag k="name:no" v="Løberg" />
		<tag k="place" v="farm" />
		<tag k="ssr:stedsnr" v="620347" />
	</node>
	<node id="-775698" lat="64.2321388905" lon="12.429213894">
		<tag k="name" v="Husa" />
		<tag k="name:no" v="Husa" />
		<tag k="place" v="farm" />
		<tag k="ssr:stedsnr" v="606691" />
	</node>
	<node id="-775697" lat="64.202894448" lon="12.2352750007">
		<tag k="fixme" v="consider place=hamlet" />
		<tag k="name" v="Jørstad" />
		<tag k="name:no" v="Jørstad" />
		<tag k="place" v="farm" />
		<tag k="ssr:stedsnr" v="606639" />
	</node>
	<node id="-775696" lat="64.017058337" lon="12.6821916666">
		<tag k="name" v="Gaundalen" />
		<tag k="name:no" v="Gaundalen" />
		<tag k="place" v="farm" />
		<tag k="ssr:stedsnr" v="606632" />
	</node>
	<node id="-775695" lat="64.2442472188" lon="12.3789277764">
		<tag k="fixme" v="consider place=hamlet" />
		<tag k="name" v="Krossgarden" />
		<tag k="name:no" v="Krossgarden" />
		<tag k="place" v="farm" />
		<tag k="ssr:stedsnr" v="606274" />
	</node>
	<node id="-775694" lat="64.2607222195" lon="12.368680545">
		<tag k="name" v="Leiråa" />
		<tag k="name:no" v="Leiråa" />
		<tag k="old_name:no" v="Leiraaen" />
		<tag k="place" v="farm" />
		<tag k="ssr:stedsnr" v="603792" />
	</node>
	<node id="-775693" lat="64.2490444425" lon="12.4374944351">
		<tag k="name" v="Navlus" />
		<tag k="name:no" v="Navlus" />
		<tag k="place" v="farm" />
		<tag k="ssr:stedsnr" v="603095" />
	</node>
	<node id="-773641" lat="64.2080222253" lon="12.1785805514">
		<tag k="name" v="Sørvika" />
		<tag k="name:no" v="Sørvika" />
		<tag k="place" v="locality" />
		<tag k="ssr:stedsnr" v="454315" />
	</node>
	<node id="-773639" lat="64.1950888855" lon="12.2452194512">
		<tag k="name" v="Evjan" />
		<tag k="name:no" v="Evjan" />
		<tag k="place" v="locality" />
		<tag k="ssr:stedsnr" v="454302" />
	</node>
	<node id="-775684" lat="64.2984916698" lon="12.6315999966">
		<tag k="historic" v="shieling" />
		<tag k="name" v="Navlusseteren" />
		<tag k="name:no" v="Navlusseteren" />
		<tag k="place" v="locality" />
		<tag k="ssr:stedsnr" v="595587" />
	</node>
	<node id="-773623" lat="64.2608249957" lon="12.7849194442">
		<tag k="historic" v="shieling" />
		<tag k="name" v="Nyseteren" />
		<tag k="name:no" v="Nyseteren" />
		<tag k="place" v="locality" />
		<tag k="ssr:stedsnr" v="656549" />
	</node>
	<node id="-773612" lat="64.2280055574" lon="12.0242138948">
		<tag k="historic" v="shieling" />
		<tag k="name" v="Hammerseteren" />
		<tag k="name:no" v="Hammerseteren" />
		<tag k="place" v="locality" />
		<tag k="ssr:stedsnr" v="438371" />
	</node>
	<node id="-773611" lat="64.2652995158" lon="12.4886529838">
		<tag k="fixme" v="consider place=hamlet" />
		<tag k="name" v="Ryggvoll" />
		<tag k="name:no" v="Ryggvoll" />
		<tag k="place" v="farm" />
		<tag k="ssr:stedsnr" v="438361" />
	</node>
	<node id="-773610" lat="64.2714861152" lon="12.4390861199">
		<tag k="historic" v="shieling" />
		<tag k="name" v="Støvraseteren" />
		<tag k="name:no" v="Støvraseteren" />
		<tag k="place" v="locality" />
		<tag k="ssr:stedsnr" v="438360" />
	</node>
	<node id="-773608" lat="64.3179027794" lon="12.3691527849">
		<tag k="historic" v="shieling" />
		<tag k="name" v="Svarttjønnseteren" />
		<tag k="name:no" v="Svarttjønnseteren" />
		<tag k="place" v="locality" />
		<tag k="ssr:stedsnr" v="655649" />
	</node>
	<node id="-773607" lat="64.2240499961" lon="12.4089277725">
		<tag k="fixme" v="consider place=hamlet" />
		<tag k="name" v="Skjulet" />
		<tag k="name:no" v="Skjulet" />
		<tag k="place" v="farm" />
		<tag k="ssr:stedsnr" v="424607" />
	</node>
	<node id="-773371" lat="64.1405083316" lon="12.4335722286">
		<tag k="historic" v="shieling" />
		<tag k="name" v="Rossnesseteren" />
		<tag k="name:no" v="Rossnesseteren" />
		<tag k="place" v="locality" />
		<tag k="ssr:stedsnr" v="473369" />
	</node>
	<node id="-773595" lat="64.2661905986" lon="12.4905303007">
		<tag k="name" v="Ryggvoll" />
		<tag k="name:no" v="Ryggvoll" />
		<tag k="place" v="farm" />
		<tag k="ssr:stedsnr" v="514549" />
	</node>
	<node id="-773587" lat="64.2303666687" lon="12.3861305636">
		<tag k="name" v="Lauvmoen" />
		<tag k="name:no" v="Lauvmoen" />
		<tag k="place" v="locality" />
		<tag k="ssr:stedsnr" v="514420" />
	</node>
	<node id="-773585" lat="64.2274166649" lon="12.4021472243">
		<tag k="name" v="Sørhøy" />
		<tag k="name:no" v="Sørhøy" />
		<tag k="place" v="farm" />
		<tag k="ssr:stedsnr" v="514414" />
	</node>
	<node id="-773584" lat="64.2350361074" lon="12.3532166594">
		<tag k="alt_name:no" v="Våg nordre" />
		<tag k="name" v="Nordre Våg" />
		<tag k="name:no" v="Nordre Våg" />
		<tag k="place" v="farm" />
		<tag k="ssr:stedsnr" v="514403" />
	</node>
	<node id="-773581" lat="64.1865666684" lon="12.3309694456">
		<tag k="name" v="Kjenstad" />
		<tag k="name:no" v="Kjenstad" />
		<tag k="place" v="farm" />
		<tag k="ssr:stedsnr" v="514383" />
	</node>
	<node id="-773026" lat="64.338727776" lon="12.5573999929">
		<tag k="name" v="Krulhaugsetran" />
		<tag k="name:no" v="Krulhaugsetran" />
		<tag k="place" v="isolated_dwelling" />
		<tag k="ssr:stedsnr" v="135424" />
	</node>
	<node id="-773576" lat="64.226197221" lon="12.2861361171">
		<tag k="name" v="Brønstadberga" />
		<tag k="name:no" v="Brønstadberga" />
		<tag k="place" v="farm" />
		<tag k="ssr:stedsnr" v="514336" />
	</node>
	<node id="-773558" lat="64.1860166624" lon="12.3234638847">
		<tag k="alt_name:no" v="Kjenstad nedre" />
		<tag k="name" v="Nedre Kjenstad" />
		<tag k="name:no" v="Nedre Kjenstad" />
		<tag k="place" v="farm" />
		<tag k="ssr:stedsnr" v="407226" />
	</node>
	<node id="-773554" lat="64.2747861085" lon="12.4753388931">
		<tag k="name" v="Storrønningen" />
		<tag k="name:no" v="Storrønningen" />
		<tag k="place" v="locality" />
		<tag k="ssr:stedsnr" v="393561" />
	</node>
	<node id="-773553" lat="64.2578083363" lon="12.5538333416">
		<tag k="name" v="Petrøa" />
		<tag k="name:no" v="Petrøa" />
		<tag k="place" v="locality" />
		<tag k="ssr:stedsnr" v="393524" />
	</node>
	<node id="-773728" lat="64.2000555595" lon="12.2287805646">
		<tag k="name" v="Jørstad" />
		<tag k="name:no" v="Jørstad" />
		<tag k="place" v="farm" />
		<tag k="ssr:stedsnr" v="514312" />
	</node>
	<node id="-773546" lat="64.1896694483" lon="12.3160333418">
		<tag k="name" v="Nordmoen" />
		<tag k="name:no" v="Nordmoen" />
		<tag k="place" v="locality" />
		<tag k="ssr:stedsnr" v="393361" />
	</node>
	<node id="-773543" lat="64.2051055541" lon="12.1647111168">
		<tag k="name" v="Aune" />
		<tag k="name:no" v="Aune" />
		<tag k="place" v="locality" />
		<tag k="ssr:stedsnr" v="393309" />
	</node>
	<node id="-773542" lat="64.2097194421" lon="12.3812583364">
		<tag k="name" v="Lian" />
		<tag k="name:no" v="Lian" />
		<tag k="place" v="farm" />
		<tag k="ssr:stedsnr" v="385661" />
	</node>
	<node id="-775589" lat="64.2279055571" lon="12.2950444528">
		<tag k="alt_name:no" v="Brønstad vestre" />
		<tag k="name" v="Vestre Brønstad" />
		<tag k="name:no" v="Vestre Brønstad" />
		<tag k="place" v="farm" />
		<tag k="ssr:stedsnr" v="575343" />
	</node>
	<node id="-775587" lat="64.2312083359" lon="12.3106055596">
		<tag k="name" v="Gran" />
		<tag k="name:no" v="Gran" />
		<tag k="place" v="hamlet" />
		<tag k="ssr:stedsnr" v="575335" />
	</node>
	<node id="-773538" lat="64.151955559" lon="12.919536103">
		<tag k="name" v="Plukkutjønngrubba" />
		<tag k="name:no" v="Plukkutjønngrubba" />
		<tag k="place" v="isolated_dwelling" />
		<tag k="ssr:stedsnr" v="499953" />
	</node>
	<node id="-775577" lat="64.2627833326" lon="12.5787611178">
		<tag k="name" v="Sørstugumannen" />
		<tag k="name:no" v="Sørstugumannen" />
		<tag k="place" v="locality" />
		<tag k="ssr:stedsnr" v="575591" />
	</node>
	<node id="-775570" lat="64.1997444427" lon="12.2033472175">
		<tag k="name" v="Granmo" />
		<tag k="name:no" v="Granmo" />
		<tag k="place" v="farm" />
		<tag k="ssr:stedsnr" v="575265" />
	</node>
	<node id="-775566" lat="64.2825944439" lon="12.2137583403">
		<tag k="name" v="Småvassliseteren" />
		<tag k="name:no" v="Småvassliseteren" />
		<tag k="place" v="isolated_dwelling" />
		<tag k="ssr:stedsnr" v="572222" />
	</node>
	<node id="-773513" lat="64.219699997" lon="12.3450583383">
		<tag k="name" v="Brenna" />
		<tag k="name:no" v="Brenna" />
		<tag k="place" v="farm" />
		<tag k="ssr:stedsnr" v="499692" />
	</node>
	<node id="-775560" lat="64.2159805528" lon="12.5251222244">
		<tag k="historic" v="shieling" />
		<tag k="name" v="Belbumoseteren" />
		<tag k="name:no" v="Belbumoseteren" />
		<tag k="place" v="locality" />
		<tag k="ssr:stedsnr" v="655012" />
	</node>
	<node id="-773511" lat="64.1979833299" lon="12.476027778">
		<tag k="name" v="Liseteren" />
		<tag k="name:no" v="Liseteren" />
		<tag k="place" v="isolated_dwelling" />
		<tag k="ssr:stedsnr" v="499444" />
	</node>
	<node id="-773509" lat="64.2527027808" lon="12.2124611119">
		<tag k="fixme" v="consider place=hamlet" />
		<tag k="name" v="Langnes" />
		<tag k="name:no" v="Langnes" />
		<tag k="place" v="farm" />
		<tag k="ssr:stedsnr" v="499429" />
	</node>
	<node id="-773506" lat="64.3731499972" lon="12.47488333">
		<tag k="name" v="Åsvollseteren" />
		<tag k="name:no" v="Åsvollseteren" />
		<tag k="place" v="locality" />
		<tag k="ssr:stedsnr" v="499378" />
	</node>
	<node id="-775553" lat="64.2350844779" lon="12.325523398">
		<tag k="fixme" v="consider place=hamlet" />
		<tag k="name" v="Fagerbakken" />
		<tag k="name:no" v="Fagerbakken" />
		<tag k="place" v="farm" />
		<tag k="ssr:stedsnr" v="560690" />
	</node>
	<node id="-775550" lat="64.200550002" lon="12.3451388794">
		<tag k="fixme" v="consider place=hamlet" />
		<tag k="name" v="Holsing" />
		<tag k="name:no" v="Holsing" />
		<tag k="place" v="farm" />
		<tag k="ssr:stedsnr" v="560531" />
	</node>
	<node id="-775549" lat="64.1881027804" lon="12.3157750047">
		<tag k="fixme" v="consider place=hamlet" />
		<tag k="name" v="Gifstad" />
		<tag k="name:no" v="Gifstad" />
		<tag k="place" v="farm" />
		<tag k="ssr:stedsnr" v="560525" />
	</node>
	<node id="-775547" lat="64.2852833342" lon="12.5534583316">
		<tag k="name" v="Årenget" />
		<tag k="name:no" v="Årenget" />
		<tag k="place" v="farm" />
		<tag k="ssr:stedsnr" v="560384" />
	</node>
	<node id="-773695" lat="64.1653055558" lon="12.2407111171">
		<tag k="name" v="Breidesmoseteren" />
		<tag k="name:no" v="Breidesmoseteren" />
		<tag k="place" v="locality" />
		<tag k="ssr:stedsnr" v="681561" />
	</node>
	<node id="-773496" lat="64.3497943656" lon="12.7705593896">
		<tag k="name" v="Øvre Mosseteren" />
		<tag k="name:no" v="Øvre Mosseteren" />
		<tag k="place" v="locality" />
		<tag k="ssr:stedsnr" v="499232" />
	</node>
	<node id="-775541" lat="64.1235027821" lon="12.8116499996">
		<tag k="historic" v="shieling" />
		<tag k="name" v="Grøningsseteren" />
		<tag k="name:no" v="Grøningsseteren" />
		<tag k="place" v="locality" />
		<tag k="ssr:stedsnr" v="559949" />
	</node>
	<node id="-775536" lat="64.2102666656" lon="12.2493583384">
		<tag k="alt_name:no" v="Hagen" />
		<tag k="name" v="Hagan" />
		<tag k="name:no" v="Hagan" />
		<tag k="place" v="farm" />
		<tag k="ssr:stedsnr" v="559746" />
	</node>
	<node id="-773486" lat="64.2901361138" lon="12.2785583312">
		<tag k="alt_name:no" v="Bruvollseteren" />
		<tag k="historic" v="shieling" />
		<tag k="name" v="Mastudalseteren" />
		<tag k="name:no" v="Mastudalseteren" />
		<tag k="place" v="locality" />
		<tag k="ssr:stedsnr" v="499345" />
	</node>
	<node id="-773485" lat="64.2307722217" lon="12.1556388841">
		<tag k="alt_name:no" v="Holemsneset" />
		<tag k="name" v="Neset" />
		<tag k="name:no" v="Neset" />
		<tag k="place" v="farm" />
		<tag k="ssr:stedsnr" v="499342" />
	</node>
	<node id="-773484" lat="64.23699167" lon="12.1538861087">
		<tag k="fixme" v="consider place=hamlet" />
		<tag k="name" v="Holem" />
		<tag k="name:no" v="Holem" />
		<tag k="place" v="farm" />
		<tag k="ssr:stedsnr" v="499341" />
	</node>
	<node id="-773482" lat="64.2729611074" lon="12.3851111074">
		<tag k="name" v="Hegge" />
		<tag k="name:no" v="Hegge" />
		<tag k="place" v="farm" />
		<tag k="ssr:stedsnr" v="499333" />
	</node>
	<node id="-773480" lat="64.2747583309" lon="12.4157722265">
		<tag k="alt_name:no" v="Dravlan mellom" />
		<tag k="name" v="Dravlan" />
		<tag k="name:no" v="Dravlan" />
		<tag k="place" v="farm" />
		<tag k="ssr:stedsnr" v="499326" />
	</node>
	<node id="-773009" lat="64.2941972246" lon="12.6207861188">
		<tag k="historic" v="shieling" />
		<tag k="name" v="Aunsand" />
		<tag k="name:no" v="Aunsand" />
		<tag k="place" v="locality" />
		<tag k="ssr:stedsnr" v="110625" />
	</node>
	<node id="-775522" lat="64.2417166631" lon="12.4939194394">
		<tag k="name" v="Skavlan" />
		<tag k="name:no" v="Skavlan" />
		<tag k="place" v="farm" />
		<tag k="ssr:stedsnr" v="559697" />
	</node>
	<node id="-775521" lat="64.1570111136" lon="12.4498444418">
		<tag k="fixme" v="consider place=hamlet" />
		<tag k="name" v="Åsa" />
		<tag k="name:no" v="Åsa" />
		<tag k="place" v="farm" />
		<tag k="ssr:stedsnr" v="559543" />
	</node>
	<node id="-775519" lat="64.2113555546" lon="12.4913444448">
		<tag k="name" v="Telgsteinberget" />
		<tag k="name:no" v="Telgsteinberget" />
		<tag k="place" v="locality" />
		<tag k="ssr:stedsnr" v="559500" />
	</node>
	<node id="-773468" lat="64.3369361148" lon="12.1539388836">
		<tag k="name" v="Østre Bangsjøhytta" />
		<tag k="name:no" v="Østre Bangsjøhytta" />
		<tag k="place" v="isolated_dwelling" />
		<tag k="ssr:stedsnr" v="363663" />
	</node>
	<node id="-773467" lat="64.2566861086" lon="12.5319027738">
		<tag k="fixme" v="consider place=hamlet" />
		<tag k="name" v="Gåsmoen" />
		<tag k="name:no" v="Gåsmoen" />
		<tag k="place" v="farm" />
		<tag k="ssr:stedsnr" v="363710" />
	</node>
	<node id="-773466" lat="64.2472530588" lon="12.1846782377">
		<tag k="name" v="Rennset" />
		<tag k="name:no" v="Rennset" />
		<tag k="place" v="farm" />
		<tag k="ssr:stedsnr" v="363329" />
	</node>
	<node id="-773462" lat="64.2379624651" lon="12.4577286254">
		<tag k="name" v="Eggen" />
		<tag k="name:no" v="Eggen" />
		<tag k="place" v="farm" />
		<tag k="ssr:stedsnr" v="485642" />
	</node>
	<node id="-773461" lat="64.2522805571" lon="12.2118916681">
		<tag k="name" v="Langnes" />
		<tag k="name:no" v="Langnes" />
		<tag k="place" v="farm" />
		<tag k="ssr:stedsnr" v="485299" />
	</node>
	<node id="-775507" lat="64.2756972178" lon="12.5507916723">
		<tag k="fixme" v="consider place=hamlet" />
		<tag k="name" v="Gravbrøt" />
		<tag k="name:no" v="Gravbrøt" />
		<tag k="place" v="farm" />
		<tag k="ssr:stedsnr" v="545719" />
	</node>
	<node id="-775506" lat="64.2759555593" lon="12.5228749928">
		<tag k="fixme" v="consider place=hamlet" />
		<tag k="name" v="Agle" />
		<tag k="name:no" v="Agle" />
		<tag k="place" v="village" />
		<tag k="ssr:stedsnr" v="545708" />
	</node>
	<node id="-775505" lat="64.2248222746" lon="12.3958763874">
		<tag k="name" v="Vollen" />
		<tag k="name:no" v="Vollen" />
		<tag k="place" v="farm" />
		<tag k="ssr:stedsnr" v="545689" />
	</node>
	<node id="-775504" lat="64.3613722206" lon="12.5281944385">
		<tag k="historic" v="shieling" />
		<tag k="name" v="Lurugården" />
		<tag k="name:no" v="Lurugården" />
		<tag k="place" v="locality" />
		<tag k="ssr:stedsnr" v="545636" />
	</node>
	<node id="-773455" lat="64.2665277742" lon="12.5537888891">
		<tag k="name" v="Nordset" />
		<tag k="name:no" v="Nordset" />
		<tag k="place" v="farm" />
		<tag k="ssr:stedsnr" v="332508" />
	</node>
	<node id="-775502" lat="64.1716555522" lon="12.6629833424">
		<tag k="historic" v="shieling" />
		<tag k="name" v="Svartbakken" />
		<tag k="name:no" v="Svartbakken" />
		<tag k="place" v="locality" />
		<tag k="ssr:stedsnr" v="535947" />
	</node>
	<node id="-773453" lat="64.2087638881" lon="12.2839666726">
		<tag k="name" v="Sandheim" />
		<tag k="name:no" v="Sandheim" />
		<tag k="place" v="farm" />
		<tag k="ssr:stedsnr" v="332316" />
	</node>
	<node id="-773686" lat="64.2241027775" lon="12.4243138842">
		<tag k="name" v="Heimvegsmoen" />
		<tag k="name:no" v="Heimvegsmoen" />
		<tag k="place" v="farm" />
		<tag k="ssr:stedsnr" v="499697" />
	</node>
	<node id="-775733" lat="64.1558416675" lon="12.4409500047">
		<tag k="name" v="Vesterås" />
		<tag k="name:no" v="Vesterås" />
		<tag k="place" v="farm" />
		<tag k="ssr:stedsnr" v="620531" />
	</node>
	<node id="-773042" lat="64.2442472188" lon="12.3789277764">
		<tag k="name" v="Krossgarden" />
		<tag k="name:no" v="Krossgarden" />
		<tag k="place" v="farm" />
		<tag k="ssr:stedsnr" v="272389" />
	</node>
	<node id="-773683" lat="64.2036777768" lon="12.1797749913">
		<tag k="name" v="Lyngberg" />
		<tag k="name:no" v="Lyngberg" />
		<tag k="place" v="farm" />
		<tag k="ssr:stedsnr" v="681482" />
	</node>
	<node id="-775468" lat="64.2105055555" lon="12.0430194468">
		<tag k="name" v="Søre Hammer" />
		<tag k="name:no" v="Søre Hammer" />
		<tag k="place" v="farm" />
		<tag k="ssr:stedsnr" v="534441" />
	</node>
	<node id="-773416" lat="64.2359311047" lon="12.4835229298">
		<tag k="name" v="Belbu" />
		<tag k="name:no" v="Belbu" />
		<tag k="place" v="farm" />
		<tag k="ssr:stedsnr" v="317664" />
	</node>
	<node id="-773415" lat="64.233506758" lon="12.3615359015">
		<tag k="name" v="Haug" />
		<tag k="name:no" v="Haug" />
		<tag k="place" v="farm" />
		<tag k="ssr:stedsnr" v="317653" />
	</node>
	<node id="-776070" lat="64.2848638925" lon="12.2431000061">
		<tag k="historic" v="shieling" />
		<tag k="name" v="Sollia" />
		<tag k="name:no" v="Sollia" />
		<tag k="place" v="locality" />
		<tag k="ssr:stedsnr" v="818344" />
	</node>
	<node id="-773404" lat="64.3017111079" lon="12.9169083302">
		<tag k="name" v="Navlusseteren" />
		<tag k="name:no" v="Navlusseteren" />
		<tag k="place" v="locality" />
		<tag k="ssr:stedsnr" v="317257" />
	</node>
	<node id="-773403" lat="64.1642074308" lon="12.4832131852">
		<tag k="name" v="Steinkjer" />
		<tag k="name:no" v="Steinkjer" />
		<tag k="place" v="farm" />
		<tag k="ssr:stedsnr" v="317514" />
	</node>
	<node id="-773402" lat="64.1692833328" lon="12.699572232">
		<tag k="alt_name:no" v="Svartbakkseteren" />
		<tag k="historic" v="shieling" />
		<tag k="name" v="Heimvegseteren" />
		<tag k="name:no" v="Heimvegseteren" />
		<tag k="place" v="locality" />
		<tag k="ssr:stedsnr" v="317512" />
	</node>
	<node id="-773401" lat="64.3241111139" lon="12.327100008">
		<tag k="historic" v="shieling" />
		<tag k="name" v="Horjemsseteren" />
		<tag k="name:no" v="Horjemsseteren" />
		<tag k="place" v="locality" />
		<tag k="ssr:stedsnr" v="317368" />
	</node>
	<node id="-773400" lat="64.2870750034" lon="12.5619250056">
		<tag k="fixme" v="consider place=hamlet" />
		<tag k="name" v="Skartneset" />
		<tag k="name:no" v="Skartneset" />
		<tag k="place" v="farm" />
		<tag k="ssr:stedsnr" v="317352" />
	</node>
	<node id="-775438" lat="64.373038885" lon="12.7845777804">
		<tag k="name" v="Dalvasseteren" />
		<tag k="name:no" v="Dalvasseteren" />
		<tag k="place" v="locality" />
		<tag k="ssr:stedsnr" v="439285" />
	</node>
	<node id="-774018" lat="64.1909861122" lon="12.3495444498">
		<tag k="name" v="Kjenstadbakken" />
		<tag k="name:no" v="Kjenstadbakken" />
		<tag k="place" v="farm" />
		<tag k="ssr:stedsnr" v="681512" />
	</node>
	<node id="-775434" lat="64.017058337" lon="12.6821916666">
		<tag k="fixme" v="consider place=hamlet" />
		<tag k="name" v="Gaundalen" />
		<tag k="name:no" v="Gaundalen" />
		<tag k="place" v="farm" />
		<tag k="ssr:stedsnr" v="438893" />
	</node>
	<node id="-775428" lat="64.2253027753" lon="12.4217527803">
		<tag k="fixme" v="consider place=hamlet" />
		<tag k="name" v="Heimveg" />
		<tag k="name:no" v="Heimveg" />
		<tag k="place" v="farm" />
		<tag k="ssr:stedsnr" v="438723" />
	</node>
	<node id="-775427" lat="64.2417833324" lon="12.4517055638">
		<tag k="fixme" v="consider place=hamlet" />
		<tag k="name" v="Øvre Sørbygda" />
		<tag k="name:no" v="Øvre Sørbygda" />
		<tag k="place" v="village" />
		<tag k="ssr:stedsnr" v="438704" />
	</node>
	<node id="-775426" lat="64.2398694457" lon="12.4777861048">
		<tag k="name" v="Kolven" />
		<tag k="name:no" v="Kolven" />
		<tag k="place" v="farm" />
		<tag k="ssr:stedsnr" v="438703" />
	</node>
	<node id="-775425" lat="64.2364611137" lon="12.4218527717">
		<tag k="name" v="Øystre Bergsmoen" />
		<tag k="name:no" v="Øystre Bergsmoen" />
		<tag k="place" v="farm" />
		<tag k="ssr:stedsnr" v="438702" />
	</node>
	<node id="-775424" lat="64.2455666673" lon="12.3818055507">
		<tag k="alt_name:no" v="Snåase" />
		<tag k="name" v="Snåsa" />
		<tag k="name:no" v="Snåsa" />
		<tag k="place" v="village" />
		<tag k="ssr:stedsnr" v="438699" />
	</node>
	<node id="-773373" lat="64.2376166696" lon="12.1573055497">
		<tag k="name" v="Østre Holem" />
		<tag k="name:no" v="Østre Holem" />
		<tag k="place" v="farm" />
		<tag k="ssr:stedsnr" v="473378" />
	</node>
	<node id="-775419" lat="64.1000638917" lon="12.3073388862">
		<tag k="name" v="Jørstadsetran" />
		<tag k="name:no" v="Jørstadsetran" />
		<tag k="place" v="isolated_dwelling" />
		<tag k="ssr:stedsnr" v="438598" />
	</node>
	<node id="-775413" lat="64.1503999958" lon="12.432291672">
		<tag k="historic" v="shieling" />
		<tag k="name" v="Kleivsandseteren" />
		<tag k="name:no" v="Kleivsandseteren" />
		<tag k="place" v="locality" />
		<tag k="ssr:stedsnr" v="438557" />
	</node>
	<node id="-774014" lat="64.2648861089" lon="12.2715222175">
		<tag k="fixme" v="consider place=hamlet" />
		<tag k="name" v="Vegset" />
		<tag k="name:no" v="Vegset" />
		<tag k="place" v="farm" />
		<tag k="ssr:stedsnr" v="681365" />
	</node>
	<node id="-775720" lat="64.3209777816" lon="12.5302000104">
		<tag k="historic" v="shieling" />
		<tag k="name" v="Buråsseteren" />
		<tag k="name:no" v="Buråsseteren" />
		<tag k="place" v="locality" />
		<tag k="ssr:stedsnr" v="620380" />
	</node>
	<node id="-775405" lat="64.1747166642" lon="12.0858583402">
		<tag k="fixme" v="consider place=hamlet" />
		<tag k="name" v="Strindmoen" />
		<tag k="name:no" v="Strindmoen" />
		<tag k="place" v="farm" />
		<tag k="ssr:stedsnr" v="438433" />
	</node>
	<node id="-775403" lat="64.3293987691" lon="12.6623958851">
		<tag k="name" v="Småsetran" />
		<tag k="name:no" v="Småsetran" />
		<tag k="place" v="locality" />
		<tag k="ssr:stedsnr" v="438393" />
	</node>
	<node id="-775401" lat="64.2203749993" lon="12.0951944533">
		<tag k="name" v="Urstad" />
		<tag k="name:no" v="Urstad" />
		<tag k="place" v="farm" />
		<tag k="ssr:stedsnr" v="438380" />
	</node>
	<node id="-775399" lat="64.1339583365" lon="12.2073388988">
		<tag k="name" v="Tjønndalsseteren" />
		<tag k="name:no" v="Tjønndalsseteren" />
		<tag k="place" v="locality" />
		<tag k="ssr:stedsnr" v="438266" />
	</node>
	<node id="-775397" lat="64.2891805582" lon="12.9940611047">
		<tag k="name" v="Engaseteren" />
		<tag k="name:no" v="Engaseteren" />
		<tag k="place" v="locality" />
		<tag k="ssr:stedsnr" v="438250" />
	</node>
	<node id="-773670" lat="64.1626611114" lon="12.4742194415">
		<tag k="name" v="Hall" />
		<tag k="name:no" v="Hall" />
		<tag k="place" v="farm" />
		<tag k="ssr:stedsnr" v="499488" />
	</node>
	<node id="-775393" lat="64.0994055567" lon="13.1411083243">
		<tag k="name" v="Bjørkvollan" />
		<tag k="name:no" v="Bjørkvollan" />
		<tag k="place" v="locality" />
		<tag k="ssr:stedsnr" v="438977" />
	</node>
	<node id="-775391" lat="64.0958249992" lon="12.7890333327">
		<tag k="name" v="Heggsjøseteren" />
		<tag k="name:no" v="Heggsjøseteren" />
		<tag k="place" v="isolated_dwelling" />
		<tag k="ssr:stedsnr" v="438971" />
	</node>
	<node id="-775389" lat="64.124708333" lon="12.8409749899">
		<tag k="name" v="Schultshytta" />
		<tag k="name:no" v="Schultshytta" />
		<tag k="place" v="isolated_dwelling" />
		<tag k="ssr:stedsnr" v="438944" />
	</node>
	<node id="-775387" lat="64.2818472198" lon="12.59062223">
		<tag k="fixme" v="consider place=hamlet" />
		<tag k="name" v="Omlia" />
		<tag k="name:no" v="Omlia" />
		<tag k="place" v="farm" />
		<tag k="ssr:stedsnr" v="424721" />
	</node>
	<node id="-775386" lat="64.2964166627" lon="12.5673194428">
		<tag k="fixme" v="consider place=hamlet" />
		<tag k="name" v="Landsem" />
		<tag k="name:no" v="Landsem" />
		<tag k="place" v="farm" />
		<tag k="ssr:stedsnr" v="424715" />
	</node>
	<node id="-775385" lat="64.3214138848" lon="12.4908138804">
		<tag k="fixme" v="consider place=hamlet" />
		<tag k="name" v="Kolåsen" />
		<tag k="name:no" v="Kolåsen" />
		<tag k="place" v="farm" />
		<tag k="ssr:stedsnr" v="424710" />
	</node>
	<node id="-775384" lat="64.2362577409" lon="12.481832514">
		<tag k="fixme" v="consider place=hamlet" />
		<tag k="name" v="Belbu" />
		<tag k="name:no" v="Belbu" />
		<tag k="place" v="farm" />
		<tag k="ssr:stedsnr" v="424671" />
	</node>
	<node id="-773335" lat="64.2608566416" lon="12.4572971498">
		<tag k="fixme" v="consider place=hamlet" />
		<tag k="name" v="Bomo" />
		<tag k="name:no" v="Bomo" />
		<tag k="place" v="farm" />
		<tag k="ssr:stedsnr" v="303255" />
	</node>
	<node id="-773332" lat="64.1972027816" lon="12.1600305592">
		<tag k="name" v="Strandheim" />
		<tag k="name:no" v="Strandheim" />
		<tag k="place" v="isolated_dwelling" />
		<tag k="ssr:stedsnr" v="292423" />
	</node>
	<node id="-773328" lat="64.0655611118" lon="12.2303555576">
		<tag k="historic" v="shieling" />
		<tag k="name" v="Medjåseteren" />
		<tag k="name:no" v="Medjåseteren" />
		<tag k="place" v="locality" />
		<tag k="ssr:stedsnr" v="291468" />
	</node>
	<node id="-775371" lat="64.3297361137" lon="12.3524916685">
		<tag k="name" v="Fagerbakkseteren" />
		<tag k="name:no" v="Fagerbakkseteren" />
		<tag k="place" v="isolated_dwelling" />
		<tag k="ssr:stedsnr" v="413740" />
	</node>
	<node id="-773322" lat="64.2632916647" lon="12.5783972289">
		<tag k="name" v="Nordstugumannen" />
		<tag k="name:no" v="Nordstugumannen" />
		<tag k="place" v="locality" />
		<tag k="ssr:stedsnr" v="272566" />
	</node>
	<node id="-773320" lat="64.1904444413" lon="12.3326166689">
		<tag k="name" v="Larsmoen" />
		<tag k="name:no" v="Larsmoen" />
		<tag k="place" v="locality" />
		<tag k="ssr:stedsnr" v="272353" />
	</node>
	<node id="-773319" lat="64.2581111115" lon="12.389108331">
		<tag k="name" v="Østrem" />
		<tag k="name:no" v="Østrem" />
		<tag k="place" v="farm" />
		<tag k="ssr:stedsnr" v="272465" />
	</node>
	<node id="-775356" lat="64.2106555566" lon="12.0493750007">
		<tag k="name" v="Søre Østvik" />
		<tag k="name:no" v="Søre Østvik" />
		<tag k="place" v="farm" />
		<tag k="ssr:stedsnr" v="413448" />
	</node>
	<node id="-773307" lat="64.1652888861" lon="12.6735444503">
		<tag k="historic" v="shieling" />
		<tag k="name" v="Smørholet" />
		<tag k="name:no" v="Smørholet" />
		<tag k="place" v="locality" />
		<tag k="ssr:stedsnr" v="264626" />
	</node>
	<node id="-773306" lat="64.266944443" lon="12.4625111063">
		<tag k="name" v="Larstrøa" />
		<tag k="name:no" v="Larstrøa" />
		<tag k="place" v="locality" />
		<tag k="ssr:stedsnr" v="454586" />
	</node>
	<node id="-775353" lat="64.1527499981" lon="12.4428416601">
		<tag k="historic" v="shieling" />
		<tag k="name" v="Holmen" />
		<tag k="name:no" v="Holmen" />
		<tag k="place" v="locality" />
		<tag k="ssr:stedsnr" v="413383" />
	</node>
	<node id="-775340" lat="64.1726916656" lon="12.50733056">
		<tag k="name" v="Mediåsseteren" />
		<tag k="name:no" v="Mediåsseteren" />
		<tag k="place" v="locality" />
		<tag k="ssr:stedsnr" v="413204" />
	</node>
	<node id="-773291" lat="64.2316583365" lon="12.3509944544">
		<tag k="alt_name:no" v="Våg søre" />
		<tag k="name" v="Søre Våg" />
		<tag k="name:no" v="Søre Våg" />
		<tag k="place" v="farm" />
		<tag k="ssr:stedsnr" v="454385" />
	</node>
	<node id="-773289" lat="64.2655083352" lon="12.2749638862">
		<tag k="alt_name:no" v="Vegset nordre" />
		<tag k="name" v="Nordre Vegset" />
		<tag k="name:no" v="Nordre Vegset" />
		<tag k="place" v="farm" />
		<tag k="ssr:stedsnr" v="454356" />
	</node>
	<node id="-773287" lat="64.1913500034" lon="12.2645305605">
		<tag k="name" v="Sagmoen" />
		<tag k="name:no" v="Sagmoen" />
		<tag k="place" v="locality" />
		<tag k="ssr:stedsnr" v="454295" />
	</node>
	<node id="-774000" lat="64.2823944421" lon="12.4613027855">
		<tag k="name" v="Joplassen" />
		<tag k="name:no" v="Joplassen" />
		<tag k="place" v="locality" />
		<tag k="ssr:stedsnr" v="879532" />
	</node>
	<node id="-773277" lat="64.1925888909" lon="12.3911027758">
		<tag k="name" v="Tortåsseteren" />
		<tag k="name:no" v="Tortåsseteren" />
		<tag k="place" v="isolated_dwelling" />
		<tag k="ssr:stedsnr" v="257568" />
	</node>
	<node id="-773276" lat="64.1998805595" lon="12.5112361032">
		<tag k="name" v="Vargtjønnhaugen" />
		<tag k="name:no" v="Vargtjønnhaugen" />
		<tag k="place" v="isolated_dwelling" />
		<tag k="ssr:stedsnr" v="257563" />
	</node>
	<node id="-773275" lat="64.328405553" lon="12.8370083268">
		<tag k="name" v="Omliseteren" />
		<tag k="name:no" v="Omliseteren" />
		<tag k="place" v="locality" />
		<tag k="ssr:stedsnr" v="257312" />
	</node>
	<node id="-773272" lat="64.2754972194" lon="12.5632944393">
		<tag k="name" v="Vikkjilsmoen" />
		<tag k="name:no" v="Vikkjilsmoen" />
		<tag k="place" v="farm" />
		<tag k="ssr:stedsnr" v="257418" />
	</node>
	<node id="-773271" lat="64.2814083345" lon="12.5874749943">
		<tag k="name" v="Omlia" />
		<tag k="name:no" v="Omlia" />
		<tag k="place" v="farm" />
		<tag k="ssr:stedsnr" v="257417" />
	</node>
	<node id="-773269" lat="64.2770055529" lon="12.4902861051">
		<tag k="name" v="Korset" />
		<tag k="name:no" v="Korset" />
		<tag k="place" v="farm" />
		<tag k="ssr:stedsnr" v="257414" />
	</node>
	<node id="-773266" lat="64.2110722253" lon="12.925575002">
		<tag k="name" v="Seisjøseteren" />
		<tag k="name:no" v="Seisjøseteren" />
		<tag k="place" v="isolated_dwelling" />
		<tag k="ssr:stedsnr" v="256917" />
	</node>
	<node id="-773656" lat="63.9953749982" lon="12.3295305599">
		<tag k="fixme" v="consider tourism=alpine_hut or tourism=chalet" />
		<tag k="name" v="Skjækerhytta" />
		<tag k="name:no" v="Skjækerhytta" />
		<tag k="ssr:stedsnr" v="663161" />
		<tag k="tourism" v="wilderness_hut" />
	</node>
	<node id="-773261" lat="64.2220222259" lon="12.4148555512">
		<tag k="name" v="Vegnes" />
		<tag k="name:no" v="Vegnes" />
		<tag k="place" v="farm" />
		<tag k="ssr:stedsnr" v="256706" />
	</node>
	<node id="-773260" lat="64.2226666691" lon="12.3407527782">
		<tag k="name" v="Rosset" />
		<tag k="name:no" v="Rosset" />
		<tag k="place" v="farm" />
		<tag k="ssr:stedsnr" v="256704" />
	</node>
	<node id="-773258" lat="64.2020611113" lon="12.2376305646">
		<tag k="alt_name:no" v="Jørstad mellom" />
		<tag k="name" v="Jørstad" />
		<tag k="name:no" v="Jørstad" />
		<tag k="place" v="farm" />
		<tag k="ssr:stedsnr" v="256467" />
	</node>
	<node id="-773257" lat="64.2574009834" lon="12.1482288944">
		<tag k="name" v="Øystre Holemsseteren" />
		<tag k="name:no" v="Øystre Holemsseteren" />
		<tag k="place" v="isolated_dwelling" />
		<tag k="ssr:stedsnr" v="256465" />
	</node>
	<node id="-775300" lat="64.208722224" lon="12.2264916689">
		<tag k="name" v="Finnsås" />
		<tag k="name:no" v="Finnsås" />
		<tag k="place" v="hamlet" />
		<tag k="ssr:stedsnr" v="407814" />
	</node>
	<node id="-775299" lat="64.2644694486" lon="12.3520944382">
		<tag k="alt_name:no" v="Horjem østre" />
		<tag k="name" v="Østre Horjem" />
		<tag k="name:no" v="Østre Horjem" />
>>>>>>> e1d4bc35ff8a6074a6f2e91616a996b547c36f15
		<tag k="place" v="farm" />
		<tag k="ssr:stedsnr" v="242601" />
	</node>
<<<<<<< HEAD
	<node lat="64.23996944122455" lon="12.478255547137866" id="-35402">
		<tag k="fixme" v="consider place=hamlet" />
		<tag k="name" v="Kolven" />
		<tag k="name:no" v="Kolven" />
=======
	<node id="-773248" lat="64.2198388918" lon="12.2460166661">
		<tag k="name" v="Brønset" />
		<tag k="name:no" v="Brønset" />
>>>>>>> e1d4bc35ff8a6074a6f2e91616a996b547c36f15
		<tag k="place" v="farm" />
		<tag k="ssr:stedsnr" v="242650" />
	</node>
<<<<<<< HEAD
	<node lat="64.27429166959651" lon="12.518430548014962" id="-35403">
		<tag k="alt_name:no" v="Agle vestre" />
		<tag k="name" v="Vestre Agle" />
		<tag k="name:no" v="Vestre Agle" />
		<tag k="place" v="farm" />
		<tag k="ssr:stedsnr" v="242709" />
	</node>
	<node lat="64.33276666594801" lon="12.346755554365043" id="-35407">
		<tag k="fixme" v="consider place=hamlet" />
		<tag k="name" v="Tjennaråsen" />
		<tag k="name:no" v="Tjennaråsen" />
=======
	<node id="-775295" lat="64.2295361156" lon="12.452347218">
		<tag k="name" v="Pålbakkan" />
		<tag k="name:no" v="Pålbakkan" />
		<tag k="place" v="locality" />
		<tag k="ssr:stedsnr" v="393482" />
	</node>
	<node id="-775290" lat="64.2216583318" lon="12.3363527869">
		<tag k="name" v="Rossberget" />
		<tag k="name:no" v="Rossberget" />
>>>>>>> e1d4bc35ff8a6074a6f2e91616a996b547c36f15
		<tag k="place" v="farm" />
		<tag k="ssr:stedsnr" v="74406" />
	</node>
	<node lat="64.2664277814089" lon="12.553433331693578" id="-35409">
		<tag k="name" v="Almo fellesbeite" />
		<tag k="name:no" v="Almo fellesbeite" />
		<tag k="place" v="isolated_dwelling" />
		<tag k="ssr:stedsnr" v="74360" />
	</node>
<<<<<<< HEAD
	<node lat="64.20994166772347" lon="12.029825004113329" id="-35410">
		<tag k="name" v="Brunes" />
		<tag k="name:no" v="Brunes" />
=======
	<node id="-775284" lat="64.2706527754" lon="12.3781638973">
		<tag k="name" v="Heggland" />
		<tag k="name:no" v="Heggland" />
>>>>>>> e1d4bc35ff8a6074a6f2e91616a996b547c36f15
		<tag k="place" v="farm" />
		<tag k="ssr:stedsnr" v="74371" />
	</node>
<<<<<<< HEAD
	<node lat="64.26989166585571" lon="12.18492777449096" id="-35413">
		<tag k="name" v="Langnesseteren" />
		<tag k="name:no" v="Langnesseteren" />
		<tag k="place" v="isolated_dwelling" />
		<tag k="ssr:stedsnr" v="74515" />
	</node>
	<node lat="64.23107222011029" lon="12.620541674461123" id="-35419">
		<tag k="name" v="Gravslåttseteren" />
		<tag k="name:no" v="Gravslåttseteren" />
		<tag k="place" v="isolated_dwelling" />
		<tag k="ssr:stedsnr" v="74706" />
	</node>
	<node lat="64.30985000183546" lon="12.357274991140631" id="-35423">
		<tag k="name" v="Fokra" />
		<tag k="name:no" v="Fokra" />
=======
	<node id="-775279" lat="64.1980694485" lon="12.2471305655">
		<tag k="name" v="Lannan" />
		<tag k="name:no" v="Lannan" />
		<tag k="place" v="locality" />
		<tag k="ssr:stedsnr" v="393300" />
	</node>
	<node id="-775277" lat="64.200097224" lon="12.2444861037">
		<tag k="name" v="Leirahaugen" />
		<tag k="name:no" v="Leirahaugen" />
		<tag k="place" v="locality" />
		<tag k="ssr:stedsnr" v="393281" />
	</node>
	<node id="-775275" lat="64.1929888843" lon="12.1878722317">
		<tag k="name" v="Bruheim" />
		<tag k="name:no" v="Bruheim" />
>>>>>>> e1d4bc35ff8a6074a6f2e91616a996b547c36f15
		<tag k="place" v="farm" />
		<tag k="ssr:stedsnr" v="75303" />
	</node>
<<<<<<< HEAD
	<node lat="64.29409999606905" lon="12.592400004647478" id="-35429">
		<tag k="name" v="Skjermoen" />
		<tag k="name:no" v="Skjermoen" />
=======
	<node id="-775273" lat="64.2240499961" lon="12.4089277725">
		<tag k="name" v="Brodal" />
		<tag k="name:no" v="Brodal" />
>>>>>>> e1d4bc35ff8a6074a6f2e91616a996b547c36f15
		<tag k="place" v="farm" />
		<tag k="ssr:stedsnr" v="75418" />
	</node>
<<<<<<< HEAD
	<node lat="64.24979444809614" lon="12.440788891037382" id="-35438">
		<tag k="name" v="Navlus" />
		<tag k="name:no" v="Navlus" />
		<tag k="place" v="farm" />
		<tag k="ssr:stedsnr" v="75903" />
	</node>
	<node lat="64.21868889021204" lon="12.400944438328773" id="-35442">
		<tag k="name" v="Plassen" />
		<tag k="name:no" v="Plassen" />
=======
	<node id="-775271" lat="64.3334361151" lon="12.4212749936">
		<tag k="historic" v="shieling" />
		<tag k="name" v="Elenvollen" />
		<tag k="name:no" v="Elenvollen" />
>>>>>>> e1d4bc35ff8a6074a6f2e91616a996b547c36f15
		<tag k="place" v="locality" />
		<tag k="ssr:stedsnr" v="90415" />
	</node>
<<<<<<< HEAD
	<node lat="64.29419722457753" lon="12.620786118774612" id="-35487">
		<tag k="historic" v="shieling" />
		<tag k="name" v="Aunsand" />
		<tag k="name:no" v="Aunsand" />
=======
	<node id="-775269" lat="64.1452166666" lon="12.812594437">
		<tag k="name" v="Eggjaseteren" />
		<tag k="name:no" v="Eggjaseteren" />
>>>>>>> e1d4bc35ff8a6074a6f2e91616a996b547c36f15
		<tag k="place" v="isolated_dwelling" />
		<tag k="ssr:stedsnr" v="110625" />
	</node>
<<<<<<< HEAD
	<node lat="64.27414201802796" lon="12.63967320298229" id="-35493">
		<tag k="fixme" v="multiple name tags, choose one and add the other to alt_name" />
		<tag k="historic" v="shieling" />
		<tag k="name" v="Framgardsseteren;Ålmoseteren" />
		<tag k="name:no" v="Framgardsseteren;Ålmoseteren" />
		<tag k="old_name:no" v="Ålmosætra" />
=======
	<node id="-775264" lat="64.169869441" lon="12.7744583256">
		<tag k="name" v="Belbuseteren" />
		<tag k="name:no" v="Belbuseteren" />
>>>>>>> e1d4bc35ff8a6074a6f2e91616a996b547c36f15
		<tag k="place" v="isolated_dwelling" />
		<tag k="ssr:stedsnr" v="134412" />
	</node>
<<<<<<< HEAD
	<node lat="64.19598610801197" lon="12.271122230011347" id="-35527">
		<tag k="name" v="Kleivsand" />
		<tag k="name:no" v="Kleivsand" />
		<tag k="place" v="farm" />
		<tag k="ssr:stedsnr" v="150309" />
	</node>
	<node lat="64.21775000214656" lon="12.325127775198885" id="-35528">
		<tag k="name" v="Lauvbrenna" />
		<tag k="name:no" v="Lauvbrenna" />
=======
	<node id="-775263" lat="64.1703666702" lon="12.7864722175">
		<tag k="historic" v="shieling" />
		<tag k="name" v="Kolvseteren" />
		<tag k="name:no" v="Kolvseteren" />
>>>>>>> e1d4bc35ff8a6074a6f2e91616a996b547c36f15
		<tag k="place" v="locality" />
		<tag k="ssr:stedsnr" v="150413" />
	</node>
<<<<<<< HEAD
	<node lat="64.21031666809385" lon="12.259530549547344" id="-35533">
		<tag k="alt_name:no" v="Skavhaug" />
		<tag k="name" v="Skavhaugen" />
		<tag k="name:no" v="Skavhaugen" />
=======
	<node id="-773212" lat="64.1984777808" lon="12.3030861058">
		<tag k="name" v="Viem" />
		<tag k="name:no" v="Viem" />
>>>>>>> e1d4bc35ff8a6074a6f2e91616a996b547c36f15
		<tag k="place" v="farm" />
		<tag k="ssr:stedsnr" v="256484" />
	</node>
<<<<<<< HEAD
	<node lat="64.10408055953437" lon="12.920880561554581" id="-35540">
		<tag k="name" v="Holden statsskog" />
		<tag k="name:no" v="Holden statsskog" />
=======
	<node id="-773210" lat="64.3022500008" lon="12.2690749961">
		<tag k="historic" v="shieling" />
		<tag k="name" v="Trollvasseteren" />
		<tag k="name:no" v="Trollvasseteren" />
>>>>>>> e1d4bc35ff8a6074a6f2e91616a996b547c36f15
		<tag k="place" v="locality" />
		<tag k="ssr:stedsnr" v="150575" />
	</node>
<<<<<<< HEAD
	<node lat="64.2548333359715" lon="12.61767499165041" id="-35541">
		<tag k="historic" v="shieling" />
		<tag k="name" v="Mollanseteren" />
		<tag k="name:no" v="Mollanseteren" />
		<tag k="place" v="isolated_dwelling" />
		<tag k="ssr:stedsnr" v="256326" />
	</node>
	<node lat="64.25062499881491" lon="12.368133333925273" id="-35542">
		<tag k="fixme" v="consider place=suburb, village or hamlet" />
		<tag k="name" v="Viosen" />
		<tag k="name:no" v="Viosen" />
		<tag k="place" v="quarter" />
		<tag k="ssr:stedsnr" v="256331" />
	</node>
	<node lat="64.23366110801501" lon="12.341899996712186" id="-35552">
		<tag k="name" v="Saur" />
		<tag k="name:no" v="Saur" />
=======
	<node id="-775257" lat="64.2380333291" lon="12.3366944461">
		<tag k="name" v="Sandnesmoen" />
		<tag k="name:no" v="Sandnesmoen" />
		<tag k="place" v="farm" />
		<tag k="ssr:stedsnr" v="378723" />
	</node>
	<node id="-775256" lat="64.2419861113" lon="12.330786119">
		<tag k="fixme" v="consider place=hamlet" />
		<tag k="name" v="Sandnes" />
		<tag k="name:no" v="Sandnes" />
>>>>>>> e1d4bc35ff8a6074a6f2e91616a996b547c36f15
		<tag k="place" v="farm" />
		<tag k="ssr:stedsnr" v="256680" />
	</node>
<<<<<<< HEAD
	<node lat="64.23246110730136" lon="12.435302767756655" id="-35553">
		<tag k="name" v="Husåsen" />
		<tag k="name:no" v="Husåsen" />
=======
	<node id="-775254" lat="64.1796444448" lon="12.2732861057">
		<tag k="name" v="Fjellset" />
		<tag k="name:no" v="Fjellset" />
>>>>>>> e1d4bc35ff8a6074a6f2e91616a996b547c36f15
		<tag k="place" v="farm" />
		<tag k="ssr:stedsnr" v="256687" />
	</node>
<<<<<<< HEAD
	<node lat="64.23877222269249" lon="12.63172776919566" id="-35555">
		<tag k="historic" v="shieling" />
		<tag k="name" v="Movasseteren" />
		<tag k="name:no" v="Movasseteren" />
=======
	<node id="-775252" lat="64.2116611086" lon="12.290952768">
		<tag k="name" v="Rein" />
		<tag k="name:no" v="Rein" />
>>>>>>> e1d4bc35ff8a6074a6f2e91616a996b547c36f15
		<tag k="place" v="isolated_dwelling" />
		<tag k="ssr:stedsnr" v="256697" />
	</node>
<<<<<<< HEAD
	<node lat="64.22202222588614" lon="12.414855551178807" id="-35559">
		<tag k="name" v="Vegnes" />
		<tag k="name:no" v="Vegnes" />
=======
	<node id="-773987" lat="64.21595556" lon="12.3234972131">
		<tag k="name" v="Andreasheimen" />
		<tag k="name:no" v="Andreasheimen" />
		<tag k="place" v="locality" />
		<tag k="ssr:stedsnr" v="879408" />
	</node>
	<node id="-775243" lat="64.1044194486" lon="13.0855555532">
		<tag k="fixme" v="consider place=hamlet" />
		<tag k="name" v="Gjevsjøen" />
		<tag k="name:no" v="Gjevsjøen" />
		<tag k="old_name:no" v="Gjefsjøen" />
>>>>>>> e1d4bc35ff8a6074a6f2e91616a996b547c36f15
		<tag k="place" v="farm" />
		<tag k="ssr:stedsnr" v="256706" />
	</node>
<<<<<<< HEAD
	<node lat="64.21262222565488" lon="12.255538880471132" id="-35561">
		<tag k="name" v="Skjemstad" />
		<tag k="name:no" v="Skjemstad" />
		<tag k="place" v="farm" />
		<tag k="ssr:stedsnr" v="256721" />
	</node>
	<node lat="64.21107222529842" lon="12.925575001983317" id="-35562">
		<tag k="name" v="Seisjøseteren" />
		<tag k="name:no" v="Seisjøseteren" />
=======
	<node id="-773190" lat="64.230888885" lon="12.2874000095">
		<tag k="name" v="Vestvika" />
		<tag k="name:no" v="Vestvika" />
		<tag k="place" v="isolated_dwelling" />
		<tag k="ssr:stedsnr" v="196705" />
	</node>
	<node id="-775235" lat="64.0051277734" lon="12.3805527822">
		<tag k="name" v="Gomolia" />
		<tag k="name:no" v="Gomolia" />
>>>>>>> e1d4bc35ff8a6074a6f2e91616a996b547c36f15
		<tag k="place" v="isolated_dwelling" />
		<tag k="ssr:stedsnr" v="256917" />
	</node>
	<node lat="64.27700555294193" lon="12.49028610508561" id="-35572">
		<tag k="name" v="Korset" />
		<tag k="name:no" v="Korset" />
		<tag k="place" v="farm" />
		<tag k="ssr:stedsnr" v="257414" />
	</node>
<<<<<<< HEAD
	<node lat="64.28140833449658" lon="12.587474994330238" id="-35574">
		<tag k="name" v="Omlia" />
		<tag k="name:no" v="Omlia" />
=======
	<node id="-773185" lat="64.1606694432" lon="12.4579138812">
		<tag k="name" v="Nåsveddet" />
		<tag k="name:no" v="Nåsveddet" />
>>>>>>> e1d4bc35ff8a6074a6f2e91616a996b547c36f15
		<tag k="place" v="farm" />
		<tag k="ssr:stedsnr" v="257417" />
	</node>
<<<<<<< HEAD
	<node lat="64.27549721937551" lon="12.563294439265425" id="-35575">
		<tag k="name" v="Vikkjilsmoen" />
		<tag k="name:no" v="Vikkjilsmoen" />
=======
	<node id="-775232" lat="64.2255249984" lon="12.4271805581">
		<tag k="name" v="Austgard" />
		<tag k="name:no" v="Austgard" />
>>>>>>> e1d4bc35ff8a6074a6f2e91616a996b547c36f15
		<tag k="place" v="farm" />
		<tag k="ssr:stedsnr" v="257418" />
	</node>
<<<<<<< HEAD
	<node lat="64.26940000179879" lon="12.304633326729714" id="-35576">
		<tag k="name" v="Vistven" />
		<tag k="name:no" v="Vistven" />
=======
	<node id="-775231" lat="64.224636107" lon="12.3457583374">
		<tag k="name" v="Sandberg" />
		<tag k="name:no" v="Sandberg" />
>>>>>>> e1d4bc35ff8a6074a6f2e91616a996b547c36f15
		<tag k="place" v="farm" />
		<tag k="ssr:stedsnr" v="257427" />
	</node>
<<<<<<< HEAD
	<node lat="64.27438610962106" lon="12.463419454400029" id="-35577">
		<tag k="name" v="Barstad" />
		<tag k="name:no" v="Barstad" />
=======
	<node id="-775230" lat="64.2386998867" lon="12.4915307014">
		<tag k="alt_name:no" v="Belbu, austre;Austre Belbu" />
		<tag k="loc_name:no" v="Belbuåsen" />
		<tag k="name" v="Belbu" />
		<tag k="name:no" v="Belbu" />
>>>>>>> e1d4bc35ff8a6074a6f2e91616a996b547c36f15
		<tag k="place" v="farm" />
		<tag k="ssr:stedsnr" v="257438" />
	</node>
<<<<<<< HEAD
	<node lat="64.2844249979251" lon="12.571652785985886" id="-35578">
		<tag k="name" v="Netaunet" />
		<tag k="name:no" v="Netaunet" />
=======
	<node id="-775229" lat="64.2403027775" lon="12.4690472277">
		<tag k="name" v="Aun" />
		<tag k="name:no" v="Aun" />
>>>>>>> e1d4bc35ff8a6074a6f2e91616a996b547c36f15
		<tag k="place" v="farm" />
		<tag k="ssr:stedsnr" v="257446" />
	</node>
<<<<<<< HEAD
	<node lat="64.1998805595084" lon="12.51123610318915" id="-35579">
		<tag k="name" v="Vargtjønnhaugen" />
		<tag k="name:no" v="Vargtjønnhaugen" />
=======
	<node id="-775225" lat="64.2521499973" lon="12.162769448">
		<tag k="name" v="Fremre Rennsetseteren" />
		<tag k="name:no" v="Fremre Rennsetseteren" />
>>>>>>> e1d4bc35ff8a6074a6f2e91616a996b547c36f15
		<tag k="place" v="isolated_dwelling" />
		<tag k="ssr:stedsnr" v="257563" />
	</node>
<<<<<<< HEAD
	<node lat="64.19258889086808" lon="12.391102775804816" id="-35580">
		<tag k="name" v="Tortåsseteren" />
		<tag k="name:no" v="Tortåsseteren" />
		<tag k="place" v="isolated_dwelling" />
		<tag k="ssr:stedsnr" v="257568" />
	</node>
	<node lat="64.24654999998748" lon="12.414450007022062" id="-35585">
		<tag k="fixme" v="consider place=hamlet" />
		<tag k="name" v="Berg" />
		<tag k="name:no" v="Berg" />
=======
	<node id="-775219" lat="64.2322749998" lon="12.1517500013">
		<tag k="alt_name:no" v="Fallset" />
		<tag k="name" v="Falset" />
		<tag k="name:no" v="Falset" />
		<tag k="place" v="farm" />
		<tag k="ssr:stedsnr" v="377385" />
	</node>
	<node id="-775216" lat="64.2612835203" lon="12.4570913612">
		<tag k="name" v="Bomo" />
		<tag k="name:no" v="Bomo" />
>>>>>>> e1d4bc35ff8a6074a6f2e91616a996b547c36f15
		<tag k="place" v="farm" />
		<tag k="ssr:stedsnr" v="257730" />
	</node>
<<<<<<< HEAD
	<node lat="64.15910555544288" lon="12.451852767790127" id="-35605">
		<tag k="name" v="Åsa" />
		<tag k="name:no" v="Åsa" />
=======
	<node id="-775214" lat="64.250263889" lon="12.3877166627">
		<tag k="name" v="Støvra" />
		<tag k="name:no" v="Støvra" />
>>>>>>> e1d4bc35ff8a6074a6f2e91616a996b547c36f15
		<tag k="place" v="farm" />
		<tag k="ssr:stedsnr" v="170264" />
	</node>
<<<<<<< HEAD
	<node lat="64.24713488632133" lon="12.432136556558044" id="-35620">
		<tag k="name" v="Navlus" />
		<tag k="name:no" v="Navlus" />
		<tag k="place" v="farm" />
		<tag k="ssr:stedsnr" v="179120" />
	</node>
	<node lat="64.26329166473634" lon="12.578397228863011" id="-35621">
		<tag k="name" v="Nordstugumannen" />
		<tag k="name:no" v="Nordstugumannen" />
		<tag k="place" v="locality" />
		<tag k="ssr:stedsnr" v="272566" />
	</node>
	<node lat="64.16528888606179" lon="12.673544450315719" id="-35624">
=======
	<node id="-775211" lat="64.1359" lon="12.461475009">
		<tag k="name" v="Gamseteren" />
		<tag k="name:no" v="Gamseteren" />
		<tag k="place" v="locality" />
		<tag k="ssr:stedsnr" v="377577" />
	</node>
	<node id="-775210" lat="64.113694443" lon="12.225405556">
		<tag k="alt_name:no" v="Merraliseteren" />
		<tag k="name" v="Merralihytta" />
		<tag k="name:no" v="Merralihytta" />
		<tag k="place" v="isolated_dwelling" />
		<tag k="ssr:stedsnr" v="377567" />
	</node>
	<node id="-775208" lat="64.1425722227" lon="12.4124583363">
>>>>>>> e1d4bc35ff8a6074a6f2e91616a996b547c36f15
		<tag k="historic" v="shieling" />
		<tag k="name" v="Smørholet" />
		<tag k="name:no" v="Smørholet" />
		<tag k="place" v="isolated_dwelling" />
		<tag k="ssr:stedsnr" v="264626" />
	</node>
<<<<<<< HEAD
	<node lat="64.35790277652119" lon="12.637716676331847" id="-35632">
		<tag k="name" v="Bøgsetseteren" />
		<tag k="name:no" v="Bøgsetseteren" />
		<tag k="place" v="isolated_dwelling" />
		<tag k="ssr:stedsnr" v="196385" />
	</node>
	<node lat="64.10644722458197" lon="12.332552783310001" id="-35635">
		<tag k="name" v="Roktsjøseteren" />
		<tag k="name:no" v="Roktsjøseteren" />
		<tag k="place" v="locality" />
		<tag k="ssr:stedsnr" v="196566" />
	</node>
	<node lat="64.23088888496109" lon="12.287400009515355" id="-35636">
		<tag k="name" v="Vestvika" />
		<tag k="name:no" v="Vestvika" />
		<tag k="place" v="isolated_dwelling" />
		<tag k="ssr:stedsnr" v="196705" />
	</node>
	<node lat="64.05280555758716" lon="12.26891389511426" id="-35649">
		<tag k="alt_name:no" v="Sør-Medjåseteren" />
		<tag k="fixme" v="multiple name tags, choose one and add the other to alt_name" />
=======
	<node id="-775207" lat="64.2426305535" lon="12.3597249904">
		<tag k="name" v="Vinje" />
		<tag k="name:no" v="Vinje" />
		<tag k="place" v="farm" />
		<tag k="ssr:stedsnr" v="363609" />
	</node>
	<node id="-775206" lat="64.0632767256" lon="12.8966061252">
		<tag k="fixme" v="consider tourism=alpine_hut or tourism=chalet" />
		<tag k="name" v="Holden fjellgård" />
		<tag k="name:no" v="Holden fjellgård" />
		<tag k="old_name:no" v="Holderen" />
		<tag k="ssr:stedsnr" v="363593" />
		<tag k="tourism" v="wilderness_hut" />
	</node>
	<node id="-775205" lat="64.2126499977" lon="12.3025972292">
		<tag k="name" v="Mediås" />
		<tag k="name:no" v="Mediås" />
		<tag k="place" v="farm" />
		<tag k="ssr:stedsnr" v="363578" />
	</node>
	<node id="-775201" lat="64.2712500045" lon="12.7285166615">
>>>>>>> e1d4bc35ff8a6074a6f2e91616a996b547c36f15
		<tag k="historic" v="shieling" />
		<tag k="loc_name:no" v="Mediåsseteren" />
		<tag k="name" v="Sør-Medjåsseteren;Medjåsseteren" />
		<tag k="name:no" v="Sør-Medjåsseteren;Medjåsseteren" />
		<tag k="place" v="isolated_dwelling" />
		<tag k="ssr:stedsnr" v="269193" />
	</node>
<<<<<<< HEAD
	<node lat="64.19273055615349" lon="12.171952786719974" id="-35651">
=======
	<node id="-773140" lat="64.2917722206" lon="12.2926722239">
>>>>>>> e1d4bc35ff8a6074a6f2e91616a996b547c36f15
		<tag k="historic" v="shieling" />
		<tag k="name" v="Vikaseteren" />
		<tag k="name:no" v="Vikaseteren" />
		<tag k="place" v="isolated_dwelling" />
		<tag k="ssr:stedsnr" v="211284" />
	</node>
<<<<<<< HEAD
	<node lat="64.19543888570014" lon="12.278222222524448" id="-35652">
		<tag k="name" v="Vivollen" />
		<tag k="name:no" v="Vivollen" />
=======
	<node id="-773137" lat="64.306327774" lon="12.3668250095">
		<tag k="name" v="Åenget" />
		<tag k="name:no" v="Åenget" />
>>>>>>> e1d4bc35ff8a6074a6f2e91616a996b547c36f15
		<tag k="place" v="locality" />
		<tag k="ssr:stedsnr" v="211290" />
	</node>
<<<<<<< HEAD
	<node lat="64.22784722155755" lon="12.279055562186585" id="-35655">
		<tag k="name" v="Sveddet" />
		<tag k="name:no" v="Sveddet" />
		<tag k="place" v="locality" />
		<tag k="ssr:stedsnr" v="211313" />
	</node>
	<node lat="64.20084444762787" lon="12.271922219997817" id="-35656">
		<tag k="name" v="Mulen" />
		<tag k="name:no" v="Mulen" />
=======
	<node id="-773130" lat="64.3103972238" lon="12.2874361024">
		<tag k="name" v="Blautseteren" />
		<tag k="name:no" v="Blautseteren" />
		<tag k="place" v="isolated_dwelling" />
		<tag k="ssr:stedsnr" v="291608" />
	</node>
	<node id="-773975" lat="64.200680551" lon="12.3167861208">
		<tag k="name" v="Kariheimen" />
		<tag k="name:no" v="Kariheimen" />
		<tag k="place" v="locality" />
		<tag k="ssr:stedsnr" v="879348" />
	</node>
	<node id="-773127" lat="64.3854416689" lon="12.4346611124">
		<tag k="name" v="Melaseter" />
		<tag k="name:no" v="Melaseter" />
>>>>>>> e1d4bc35ff8a6074a6f2e91616a996b547c36f15
		<tag k="place" v="locality" />
		<tag k="ssr:stedsnr" v="211318" />
	</node>
<<<<<<< HEAD
	<node lat="64.20793888600295" lon="12.29138611720237" id="-35658">
		<tag k="name" v="Jonrommet" />
		<tag k="name:no" v="Jonrommet" />
=======
	<node id="-775174" lat="64.1355000045" lon="12.4394222133">
		<tag k="name" v="Nyseteren" />
		<tag k="name:no" v="Nyseteren" />
>>>>>>> e1d4bc35ff8a6074a6f2e91616a996b547c36f15
		<tag k="place" v="locality" />
		<tag k="ssr:stedsnr" v="211334" />
	</node>
<<<<<<< HEAD
	<node lat="64.21939444292772" lon="12.249658330313133" id="-35659">
		<tag k="name" v="Nyrud" />
		<tag k="name:no" v="Nyrud" />
		<tag k="place" v="farm" />
		<tag k="ssr:stedsnr" v="211336" />
	</node>
	<node lat="64.23713611018117" lon="12.310525000428154" id="-35661">
		<tag k="name" v="Jomoen" />
		<tag k="name:no" v="Jomoen" />
=======
	<node id="-773974" lat="64.2004972215" lon="12.3546500038">
		<tag k="name" v="Austermoen" />
		<tag k="name:no" v="Austermoen" />
		<tag k="place" v="locality" />
		<tag k="ssr:stedsnr" v="879347" />
	</node>
	<node id="-773972" lat="64.2658824017" lon="12.2922719974">
		<tag k="fixme" v="consider place=hamlet" />
		<tag k="name" v="Sagbakken" />
		<tag k="name:no" v="Sagbakken" />
		<tag k="place" v="farm" />
		<tag k="ssr:stedsnr" v="879337" />
	</node>
	<node id="-773108" lat="64.3216833364" lon="12.5335138797">
		<tag k="historic" v="shieling" />
		<tag k="name" v="Bolåsen" />
		<tag k="name:no" v="Bolåsen" />
>>>>>>> e1d4bc35ff8a6074a6f2e91616a996b547c36f15
		<tag k="place" v="locality" />
		<tag k="ssr:stedsnr" v="211380" />
	</node>
<<<<<<< HEAD
	<node lat="64.22838332918886" lon="12.026202777796248" id="-35676">
		<tag k="historic" v="shieling" />
		<tag k="name" v="Gammelvollen" />
		<tag k="name:no" v="Gammelvollen" />
=======
	<node id="-775154" lat="64.3440166675" lon="12.5270166611">
		<tag k="name" v="Sibirien" />
		<tag k="name:no" v="Sibirien" />
>>>>>>> e1d4bc35ff8a6074a6f2e91616a996b547c36f15
		<tag k="place" v="isolated_dwelling" />
		<tag k="ssr:stedsnr" v="230420" />
	</node>
<<<<<<< HEAD
	<node lat="64.21983889175613" lon="12.246016666082138" id="-35701">
		<tag k="name" v="Brønset" />
		<tag k="name:no" v="Brønset" />
=======
	<node id="-773095" lat="64.200550002" lon="12.3451388794">
		<tag k="name" v="Holsing" />
		<tag k="name:no" v="Holsing" />
>>>>>>> e1d4bc35ff8a6074a6f2e91616a996b547c36f15
		<tag k="place" v="farm" />
		<tag k="ssr:stedsnr" v="451234" />
	</node>
<<<<<<< HEAD
	<node lat="64.33276666594801" lon="12.346755554365043" id="-35703">
		<tag k="name" v="Tjennaråsen" />
		<tag k="name:no" v="Tjennaråsen" />
=======
	<node id="-773094" lat="64.2659138847" lon="12.2905722142">
		<tag k="name" v="Sagbakken" />
		<tag k="name:no" v="Sagbakken" />
>>>>>>> e1d4bc35ff8a6074a6f2e91616a996b547c36f15
		<tag k="place" v="farm" />
		<tag k="ssr:stedsnr" v="242327" />
	</node>
<<<<<<< HEAD
	<node lat="64.20802222533213" lon="12.178580551378928" id="-35706">
		<tag k="name" v="Sørvika" />
		<tag k="name:no" v="Sørvika" />
		<tag k="place" v="locality" />
		<tag k="ssr:stedsnr" v="454315" />
	</node>
	<node lat="64.19135000343036" lon="12.264530560455041" id="-35716">
		<tag k="name" v="Sagmoen" />
		<tag k="name:no" v="Sagmoen" />
		<tag k="place" v="locality" />
		<tag k="ssr:stedsnr" v="454295" />
	</node>
	<node lat="64.19508888547352" lon="12.245219451168785" id="-35717">
		<tag k="name" v="Evjan" />
		<tag k="name:no" v="Evjan" />
=======
	<node id="-773093" lat="64.2471348863" lon="12.4321365566">
		<tag k="name" v="Navlus" />
		<tag k="name:no" v="Navlus" />
		<tag k="place" v="farm" />
		<tag k="ssr:stedsnr" v="179120" />
	</node>
	<node id="-775138" lat="64.3031861089" lon="12.4406444487">
		<tag k="historic" v="shieling" />
		<tag k="name" v="Slåttseteren" />
		<tag k="name:no" v="Slåttseteren" />
>>>>>>> e1d4bc35ff8a6074a6f2e91616a996b547c36f15
		<tag k="place" v="locality" />
		<tag k="ssr:stedsnr" v="454302" />
	</node>
<<<<<<< HEAD
	<node lat="64.28441388558215" lon="12.551208340624031" id="-35732">
		<tag k="name" v="Årstad" />
		<tag k="name:no" v="Årstad" />
=======
	<node id="-775134" lat="64.2748861115" lon="12.5851250043">
		<tag k="name" v="Vestre Skromoen" />
		<tag k="name:no" v="Vestre Skromoen" />
>>>>>>> e1d4bc35ff8a6074a6f2e91616a996b547c36f15
		<tag k="place" v="farm" />
		<tag k="ssr:stedsnr" v="454560" />
	</node>
	<node lat="64.25495278103331" lon="12.952266670210603" id="-35736">
		<tag k="name" v="Gauptjønnseteren" />
		<tag k="name:no" v="Gauptjønnseteren" />
		<tag k="place" v="locality" />
		<tag k="ssr:stedsnr" v="256223" />
	</node>
<<<<<<< HEAD
	<node lat="64.23311666402371" lon="12.144866668095187" id="-35738">
		<tag k="alt_name:no" v="Fallstad" />
		<tag k="name" v="Falstad" />
		<tag k="name:no" v="Falstad" />
		<tag k="place" v="farm" />
		<tag k="ssr:stedsnr" v="256365" />
	</node>
	<node lat="64.307588887983" lon="12.677605550016866" id="-35739">
		<tag k="historic" v="shieling" />
		<tag k="name" v="Svarvaseteren" />
		<tag k="name:no" v="Svarvaseteren" />
		<tag k="place" v="isolated_dwelling" />
		<tag k="ssr:stedsnr" v="256369" />
	</node>
	<node lat="64.25740098344494" lon="12.148228894439809" id="-35741">
		<tag k="name" v="Øystre Holemsseteren" />
		<tag k="name:no" v="Øystre Holemsseteren" />
		<tag k="place" v="isolated_dwelling" />
		<tag k="ssr:stedsnr" v="256465" />
	</node>
	<node lat="64.20206111128597" lon="12.237630564595449" id="-35742">
		<tag k="alt_name:no" v="Jørstad mellom" />
		<tag k="name" v="Jørstad" />
		<tag k="name:no" v="Jørstad" />
=======
	<node id="-775124" lat="64.252891667" lon="12.3799861133">
		<tag k="name" v="Undshåggån" />
		<tag k="name:no" v="Undshåggån" />
		<tag k="place" v="locality" />
		<tag k="ssr:stedsnr" v="332457" />
	</node>
	<node id="-775123" lat="64.2697250028" lon="12.4043194548">
		<tag k="name" v="Dravlanhaugan" />
		<tag k="name:no" v="Dravlanhaugan" />
		<tag k="place" v="locality" />
		<tag k="ssr:stedsnr" v="332453" />
	</node>
	<node id="-775120" lat="64.1912527794" lon="12.2983472298">
		<tag k="name" v="Undset" />
		<tag k="name:no" v="Undset" />
>>>>>>> e1d4bc35ff8a6074a6f2e91616a996b547c36f15
		<tag k="place" v="farm" />
		<tag k="ssr:stedsnr" v="256467" />
	</node>
<<<<<<< HEAD
	<node lat="64.2226666691488" lon="12.340752778172545" id="-35746">
		<tag k="name" v="Rosset" />
		<tag k="name:no" v="Rosset" />
		<tag k="place" v="farm" />
		<tag k="ssr:stedsnr" v="256704" />
	</node>
	<node lat="64.3284055529543" lon="12.837008326838653" id="-35753">
		<tag k="name" v="Omliseteren" />
		<tag k="name:no" v="Omliseteren" />
=======
	<node id="-773070" lat="64.2177500021" lon="12.3251277752">
		<tag k="name" v="Lauvbrenna" />
		<tag k="name:no" v="Lauvbrenna" />
>>>>>>> e1d4bc35ff8a6074a6f2e91616a996b547c36f15
		<tag k="place" v="locality" />
		<tag k="ssr:stedsnr" v="257312" />
	</node>
<<<<<<< HEAD
	<node lat="64.23947500154671" lon="12.088644441444993" id="-35754">
		<tag k="historic" v="shieling" />
		<tag k="name" v="Austvikseteren" />
		<tag k="name:no" v="Austvikseteren" />
		<tag k="place" v="isolated_dwelling" />
		<tag k="ssr:stedsnr" v="257471" />
	</node>
	<node lat="64.18000555556046" lon="12.287158336806833" id="-35758">
		<tag k="name" v="Svenning" />
		<tag k="name:no" v="Svenning" />
=======
	<node id="-773065" lat="64.2278944446" lon="12.3532555583">
		<tag k="name" v="Brennmoen" />
		<tag k="name:no" v="Brennmoen" />
		<tag k="place" v="locality" />
		<tag k="ssr:stedsnr" v="150373" />
	</node>
	<node id="-773063" lat="64.179994444" lon="12.2911499898">
		<tag k="name" v="Sandstad" />
		<tag k="name:no" v="Sandstad" />
>>>>>>> e1d4bc35ff8a6074a6f2e91616a996b547c36f15
		<tag k="place" v="farm" />
		<tag k="ssr:stedsnr" v="272291" />
	</node>
<<<<<<< HEAD
	<node lat="64.24424721883359" lon="12.37892777636203" id="-35769">
		<tag k="name" v="Krossgarden" />
		<tag k="name:no" v="Krossgarden" />
=======
	<node id="-773061" lat="64.195986108" lon="12.27112223">
		<tag k="name" v="Kleivsand" />
		<tag k="name:no" v="Kleivsand" />
>>>>>>> e1d4bc35ff8a6074a6f2e91616a996b547c36f15
		<tag k="place" v="farm" />
		<tag k="ssr:stedsnr" v="272389" />
	</node>
<<<<<<< HEAD
	<node lat="64.23989999831659" lon="12.472466665841862" id="-35770">
=======
	<node id="-773055" lat="64.2398999983" lon="12.4724666658">
>>>>>>> e1d4bc35ff8a6074a6f2e91616a996b547c36f15
		<tag k="fixme" v="consider place=hamlet" />
		<tag k="name" v="Aun" />
		<tag k="name:no" v="Aun" />
		<tag k="place" v="village" />
		<tag k="ssr:stedsnr" v="272479" />
	</node>
<<<<<<< HEAD
	<node lat="64.28202778166899" lon="12.567475001746253" id="-35774">
=======
	<node id="-773054" lat="64.2004972228" lon="12.3320055639">
		<tag k="name" v="Sørås" />
		<tag k="name:no" v="Sørås" />
		<tag k="place" v="farm" />
		<tag k="ssr:stedsnr" v="272349" />
	</node>
	<node id="-775100" lat="64.2422333369" lon="12.5089944455">
		<tag k="name" v="Enga" />
		<tag k="name:no" v="Enga" />
		<tag k="place" v="farm" />
		<tag k="ssr:stedsnr" v="317644" />
	</node>
	<node id="-773050" lat="64.2820277817" lon="12.5674750017">
>>>>>>> e1d4bc35ff8a6074a6f2e91616a996b547c36f15
		<tag k="name" v="Netaunrønningen" />
		<tag k="name:no" v="Netaunrønningen" />
		<tag k="place" v="farm" />
		<tag k="ssr:stedsnr" v="272578" />
	</node>
<<<<<<< HEAD
	<node lat="64.20055000195012" lon="12.34513887941076" id="-35777">
		<tag k="name" v="Holsing" />
		<tag k="name:no" v="Holsing" />
=======
	<node id="-773048" lat="64.2652694428" lon="12.298000004">
		<tag k="name" v="Strand" />
		<tag k="name:no" v="Strand" />
		<tag k="place" v="farm" />
		<tag k="ssr:stedsnr" v="272447" />
	</node>
	<node id="-775093" lat="64.1858944421" lon="12.3301027744">
		<tag k="fixme" v="consider place=hamlet" />
		<tag k="name" v="Kjenstad" />
		<tag k="name:no" v="Kjenstad" />
		<tag k="place" v="farm" />
		<tag k="ssr:stedsnr" v="317501" />
	</node>
	<node id="-775091" lat="64.2005944461" lon="12.342316675">
		<tag k="name" v="Formo" />
		<tag k="name:no" v="Formo" />
		<tag k="place" v="farm" />
		<tag k="ssr:stedsnr" v="317484" />
	</node>
	<node id="-775090" lat="64.2007722189" lon="12.3230416743">
		<tag k="alt_name:no" v="Vimo" />
		<tag k="name" v="Vimoen" />
		<tag k="name:no" v="Vimoen" />
		<tag k="place" v="farm" />
		<tag k="ssr:stedsnr" v="317483" />
	</node>
	<node id="-773040" lat="64.2330916664" lon="12.3217499934">
		<tag k="name" v="Parnas" />
		<tag k="name:no" v="Parnas" />
		<tag k="place" v="farm" />
		<tag k="ssr:stedsnr" v="272362" />
	</node>
	<node id="-773037" lat="64.1800055556" lon="12.2871583368">
		<tag k="name" v="Svenning" />
		<tag k="name:no" v="Svenning" />
>>>>>>> e1d4bc35ff8a6074a6f2e91616a996b547c36f15
		<tag k="place" v="farm" />
		<tag k="ssr:stedsnr" v="285214" />
	</node>
<<<<<<< HEAD
	<node lat="64.29177222060589" lon="12.292672223914652" id="-35794">
=======
	<node id="-773036" lat="64.0528055576" lon="12.2689138951">
		<tag k="alt_name:no" v="Sør-Medjåseteren" />
		<tag k="fixme" v="multiple name tags, choose one and add the other to alt_name" />
>>>>>>> e1d4bc35ff8a6074a6f2e91616a996b547c36f15
		<tag k="historic" v="shieling" />
		<tag k="name" v="Bruvollseteren" />
		<tag k="name:no" v="Bruvollseteren" />
		<tag k="place" v="isolated_dwelling" />
		<tag k="ssr:stedsnr" v="291709" />
	</node>
<<<<<<< HEAD
	<node lat="64.24797777631838" lon="12.43785833219332" id="-35815">
		<tag k="name" v="Navlus" />
		<tag k="name:no" v="Navlus" />
		<tag k="place" v="farm" />
		<tag k="ssr:stedsnr" v="300130" />
	</node>
	<node lat="64.17677500047026" lon="12.146055550454061" id="-35818">
=======
	<node id="-775079" lat="64.274341665" lon="12.4706055557">
		<tag k="name" v="Heimdal" />
		<tag k="name:no" v="Heimdal" />
		<tag k="place" v="farm" />
		<tag k="ssr:stedsnr" v="317336" />
	</node>
	<node id="-775077" lat="64.2687666686" lon="12.4309500036">
		<tag k="historic" v="shieling" />
		<tag k="name" v="Semsseteren" />
		<tag k="name:no" v="Semsseteren" />
		<tag k="place" v="locality" />
		<tag k="ssr:stedsnr" v="317330" />
	</node>
	<node id="-775074" lat="64.1767750005" lon="12.1460555505">
>>>>>>> e1d4bc35ff8a6074a6f2e91616a996b547c36f15
		<tag k="name" v="Grønøra" />
		<tag k="name:no" v="Grønøra" />
		<tag k="place" v="farm" />
		<tag k="ssr:stedsnr" v="317393" />
	</node>
<<<<<<< HEAD
	<node lat="64.16928333279901" lon="12.699572232029729" id="-35822">
		<tag k="alt_name:no" v="Svartbakkseteren" />
		<tag k="historic" v="shieling" />
		<tag k="name" v="Heimvegseteren" />
		<tag k="name:no" v="Heimvegseteren" />
		<tag k="place" v="isolated_dwelling" />
		<tag k="ssr:stedsnr" v="317512" />
	</node>
	<node lat="64.16420743084507" lon="12.483213185209822" id="-35823">
		<tag k="name" v="Steinkjer" />
		<tag k="name:no" v="Steinkjer" />
		<tag k="place" v="farm" />
		<tag k="ssr:stedsnr" v="317514" />
	</node>
	<node lat="64.18589444205085" lon="12.330102774430806" id="-35828">
		<tag k="fixme" v="consider place=hamlet" />
		<tag k="name" v="Kjenstad" />
		<tag k="name:no" v="Kjenstad" />
=======
	<node id="-773023" lat="64.342874998" lon="12.3311055568">
		<tag k="name" v="Fjellstad" />
		<tag k="name:no" v="Fjellstad" />
		<tag k="place" v="farm" />
		<tag k="ssr:stedsnr" v="135415" />
	</node>
	<node id="-775070" lat="64.3609762267" lon="12.7850188035">
		<tag k="fixme" v="consider tourism=alpine_hut or tourism=chalet" />
		<tag k="name" v="Kleivstuggu" />
		<tag k="name:no" v="Kleivstuggu" />
		<tag k="ssr:stedsnr" v="317278" />
		<tag k="tourism" v="wilderness_hut" />
	</node>
	<node id="-773021" lat="64.2324277768" lon="12.3701777875">
		<tag k="name" v="Brennmoen" />
		<tag k="name:no" v="Brennmoen" />
>>>>>>> e1d4bc35ff8a6074a6f2e91616a996b547c36f15
		<tag k="place" v="farm" />
		<tag k="ssr:stedsnr" v="317501" />
	</node>
<<<<<<< HEAD
	<node lat="64.24223333690907" lon="12.508994445498807" id="-35837">
		<tag k="name" v="Enga" />
		<tag k="name:no" v="Enga" />
=======
	<node id="-773019" lat="64.246313893" lon="12.5299444379">
		<tag k="name" v="Engesmoen" />
		<tag k="name:no" v="Engesmoen" />
>>>>>>> e1d4bc35ff8a6074a6f2e91616a996b547c36f15
		<tag k="place" v="farm" />
		<tag k="ssr:stedsnr" v="317644" />
	</node>
<<<<<<< HEAD
	<node lat="64.26972500279098" lon="12.404319454778049" id="-35842">
		<tag k="name" v="Dravlanhaugan" />
		<tag k="name:no" v="Dravlanhaugan" />
=======
	<node id="-773016" lat="64.2741833291" lon="12.6395250054">
		<tag k="alt_name:no" v="Ålmoseteren" />
		<tag k="historic" v="shieling" />
		<tag k="name" v="Framgardsseteren" />
		<tag k="name:no" v="Framgardsseteren" />
		<tag k="old_name:no" v="Ålmosætra" />
>>>>>>> e1d4bc35ff8a6074a6f2e91616a996b547c36f15
		<tag k="place" v="locality" />
		<tag k="ssr:stedsnr" v="332453" />
	</node>
<<<<<<< HEAD
	<node lat="64.25289166697436" lon="12.379986113301966" id="-35843">
		<tag k="name" v="Undshåggån" />
		<tag k="name:no" v="Undshåggån" />
		<tag k="place" v="locality" />
		<tag k="ssr:stedsnr" v="332457" />
	</node>
	<node lat="64.20876388810842" lon="12.283966672560572" id="-35845">
		<tag k="name" v="Sandheim" />
		<tag k="name:no" v="Sandheim" />
=======
	<node id="-772960" lat="64.233661108" lon="12.3418999967">
		<tag k="name" v="Saur" />
		<tag k="name:no" v="Saur" />
		<tag k="place" v="farm" />
		<tag k="ssr:stedsnr" v="256680" />
	</node>
	<node id="-773010" lat="64.2479777763" lon="12.4378583322">
		<tag k="name" v="Navlus" />
		<tag k="name:no" v="Navlus" />
		<tag k="place" v="farm" />
		<tag k="ssr:stedsnr" v="300130" />
	</node>
	<node id="-775057" lat="64.2517777778" lon="12.3781416737">
		<tag k="alt_name:no" v="Sem østre" />
		<tag k="name" v="Østre Sem" />
		<tag k="name:no" v="Østre Sem" />
>>>>>>> e1d4bc35ff8a6074a6f2e91616a996b547c36f15
		<tag k="place" v="farm" />
		<tag k="ssr:stedsnr" v="332316" />
	</node>
<<<<<<< HEAD
	<node lat="64.19125277939726" lon="12.298347229761484" id="-35846">
		<tag k="name" v="Undset" />
		<tag k="name:no" v="Undset" />
		<tag k="place" v="farm" />
		<tag k="ssr:stedsnr" v="332350" />
	</node>
	<node lat="64.26137500095034" lon="12.570355548180553" id="-35852">
		<tag k="name" v="Mollan" />
		<tag k="name:no" v="Mollan" />
		<tag k="place" v="hamlet" />
		<tag k="ssr:stedsnr" v="332603" />
	</node>
	<node lat="64.32141388481092" lon="12.490813880433455" id="-35867">
		<tag k="name" v="Kolåsen" />
		<tag k="name:no" v="Kolåsen" />
		<tag k="place" v="farm" />
		<tag k="ssr:stedsnr" v="473146" />
	</node>
	<node lat="64.23761666962861" lon="12.15730554971949" id="-35876">
		<tag k="name" v="Østre Holem" />
		<tag k="name:no" v="Østre Holem" />
		<tag k="place" v="farm" />
		<tag k="ssr:stedsnr" v="473378" />
	</node>
	<node lat="64.27125000450162" lon="12.728516661510982" id="-35926">
=======
	<node id="-775049" lat="64.2371361102" lon="12.3105250004">
		<tag k="name" v="Jomoen" />
		<tag k="name:no" v="Jomoen" />
		<tag k="place" v="locality" />
		<tag k="ssr:stedsnr" v="211380" />
	</node>
	<node id="-775044" lat="64.1954388857" lon="12.2782222225">
		<tag k="name" v="Vivollen" />
		<tag k="name:no" v="Vivollen" />
		<tag k="place" v="locality" />
		<tag k="ssr:stedsnr" v="211290" />
	</node>
	<node id="-775043" lat="64.1927305562" lon="12.1719527867">
		<tag k="historic" v="shieling" />
		<tag k="name" v="Vikaseteren" />
		<tag k="name:no" v="Vikaseteren" />
		<tag k="place" v="locality" />
		<tag k="ssr:stedsnr" v="211284" />
	</node>
	<node id="-775041" lat="64.2193944429" lon="12.2496583303">
		<tag k="name" v="Nyrud" />
		<tag k="name:no" v="Nyrud" />
		<tag k="place" v="farm" />
		<tag k="ssr:stedsnr" v="211336" />
	</node>
	<node id="-775040" lat="64.207938886" lon="12.2913861172">
		<tag k="name" v="Jonrommet" />
		<tag k="name:no" v="Jonrommet" />
		<tag k="place" v="locality" />
		<tag k="ssr:stedsnr" v="211334" />
	</node>
	<node id="-775038" lat="64.2008444476" lon="12.27192222">
		<tag k="name" v="Mulen" />
		<tag k="name:no" v="Mulen" />
		<tag k="place" v="locality" />
		<tag k="ssr:stedsnr" v="211318" />
	</node>
	<node id="-775037" lat="64.2278472216" lon="12.2790555622">
		<tag k="name" v="Sveddet" />
		<tag k="name:no" v="Sveddet" />
		<tag k="place" v="locality" />
		<tag k="ssr:stedsnr" v="211313" />
	</node>
	<node id="-775035" lat="64.1086083355" lon="12.3678555626">
>>>>>>> e1d4bc35ff8a6074a6f2e91616a996b547c36f15
		<tag k="historic" v="shieling" />
		<tag k="name" v="Nordvollen" />
		<tag k="name:no" v="Nordvollen" />
		<tag k="place" v="isolated_dwelling" />
		<tag k="ssr:stedsnr" v="353543" />
	</node>
<<<<<<< HEAD
	<node lat="64.24263055353316" lon="12.359724990398918" id="-35939">
		<tag k="name" v="Vinje" />
		<tag k="name:no" v="Vinje" />
=======
	<node id="-775034" lat="64.2172222181" lon="12.2497999972">
		<tag k="fixme" v="multiple name tags, choose one and add the other to alt_name" />
		<tag k="name" v="Finnsåsåsan;Åsan" />
		<tag k="name:no" v="Finnsåsåsan;Åsan" />
>>>>>>> e1d4bc35ff8a6074a6f2e91616a996b547c36f15
		<tag k="place" v="farm" />
		<tag k="ssr:stedsnr" v="363609" />
	</node>
<<<<<<< HEAD
	<node lat="64.25668610857828" lon="12.531902773837052" id="-35940">
		<tag k="fixme" v="consider place=hamlet" />
		<tag k="name" v="Gåsmoen" />
		<tag k="name:no" v="Gåsmoen" />
		<tag k="place" v="farm" />
		<tag k="ssr:stedsnr" v="363710" />
	</node>
	<node lat="64.24198611130147" lon="12.330786119031607" id="-35944">
		<tag k="fixme" v="consider place=hamlet" />
		<tag k="name" v="Sandnes" />
		<tag k="name:no" v="Sandnes" />
=======
	<node id="-772980" lat="64.24655" lon="12.414450007">
		<tag k="fixme" v="consider place=hamlet" />
		<tag k="name" v="Berg" />
		<tag k="name:no" v="Berg" />
		<tag k="place" v="farm" />
		<tag k="ssr:stedsnr" v="257730" />
	</node>
	<node id="-772979" lat="64.2394750015" lon="12.0886444414">
		<tag k="historic" v="shieling" />
		<tag k="name" v="Austvikseteren" />
		<tag k="name:no" v="Austvikseteren" />
		<tag k="place" v="locality" />
		<tag k="ssr:stedsnr" v="257471" />
	</node>
	<node id="-772978" lat="64.2844249979" lon="12.571652786">
		<tag k="name" v="Netaunet" />
		<tag k="name:no" v="Netaunet" />
		<tag k="place" v="farm" />
		<tag k="ssr:stedsnr" v="257446" />
	</node>
	<node id="-772977" lat="64.2743861096" lon="12.4634194544">
		<tag k="name" v="Barstad" />
		<tag k="name:no" v="Barstad" />
		<tag k="place" v="farm" />
		<tag k="ssr:stedsnr" v="257438" />
	</node>
	<node id="-772976" lat="64.2694000018" lon="12.3046333267">
		<tag k="name" v="Vistven" />
		<tag k="name:no" v="Vistven" />
		<tag k="place" v="farm" />
		<tag k="ssr:stedsnr" v="257427" />
	</node>
	<node id="-775016" lat="64.2386583324" lon="12.3771611116">
		<tag k="name" v="Vinjehaugen" />
		<tag k="name:no" v="Vinjehaugen" />
		<tag k="place" v="farm" />
		<tag k="ssr:stedsnr" v="196680" />
	</node>
	<node id="-775014" lat="64.1970527744" lon="12.3231138924">
		<tag k="name" v="Nordstad" />
		<tag k="name:no" v="Nordstad" />
>>>>>>> e1d4bc35ff8a6074a6f2e91616a996b547c36f15
		<tag k="place" v="farm" />
		<tag k="ssr:stedsnr" v="378710" />
	</node>
<<<<<<< HEAD
	<node lat="64.2380333290523" lon="12.336694446085744" id="-35945">
		<tag k="name" v="Sandnesmoen" />
		<tag k="name:no" v="Sandnesmoen" />
=======
	<node id="-775012" lat="64.2068777773" lon="12.2757805461">
		<tag k="alt_name:no" v="Hylla" />
		<tag k="name" v="Hyllan" />
		<tag k="name:no" v="Hyllan" />
>>>>>>> e1d4bc35ff8a6074a6f2e91616a996b547c36f15
		<tag k="place" v="farm" />
		<tag k="ssr:stedsnr" v="378723" />
	</node>
<<<<<<< HEAD
	<node lat="64.33343611511587" lon="12.42127499356062" id="-35950">
=======
	<node id="-772963" lat="64.2387722227" lon="12.6317277692">
>>>>>>> e1d4bc35ff8a6074a6f2e91616a996b547c36f15
		<tag k="historic" v="shieling" />
		<tag k="name" v="Elenvollen" />
		<tag k="name:no" v="Elenvollen" />
		<tag k="place" v="isolated_dwelling" />
		<tag k="ssr:stedsnr" v="384297" />
	</node>
<<<<<<< HEAD
	<node lat="64.20510555413136" lon="12.164711116812521" id="-35952">
		<tag k="name" v="Aune" />
		<tag k="name:no" v="Aune" />
		<tag k="place" v="locality" />
		<tag k="ssr:stedsnr" v="393309" />
	</node>
	<node lat="64.25780833629497" lon="12.553833341640535" id="-35957">
		<tag k="name" v="Petrøa" />
		<tag k="name:no" v="Petrøa" />
		<tag k="place" v="locality" />
		<tag k="ssr:stedsnr" v="393524" />
	</node>
	<node lat="64.20009722400467" lon="12.244486103689846" id="-35959">
		<tag k="name" v="Leirahaugen" />
		<tag k="name:no" v="Leirahaugen" />
=======
	<node id="-772961" lat="64.2324611073" lon="12.4353027678">
		<tag k="name" v="Husåsen" />
		<tag k="name:no" v="Husåsen" />
		<tag k="place" v="farm" />
		<tag k="ssr:stedsnr" v="256687" />
	</node>
	<node id="-775008" lat="64.1949722182" lon="12.1878805457">
		<tag k="name" v="Elvheim" />
		<tag k="name:no" v="Elvheim" />
		<tag k="place" v="farm" />
		<tag k="ssr:stedsnr" v="196446" />
	</node>
	<node id="-773263" lat="64.2126222257" lon="12.2555388805">
		<tag k="name" v="Skjemstad" />
		<tag k="name:no" v="Skjemstad" />
		<tag k="place" v="farm" />
		<tag k="ssr:stedsnr" v="256721" />
	</node>
	<node id="-775000" lat="64.1064472246" lon="12.3325527833">
		<tag k="name" v="Roktsjøseteren" />
		<tag k="name:no" v="Roktsjøseteren" />
>>>>>>> e1d4bc35ff8a6074a6f2e91616a996b547c36f15
		<tag k="place" v="locality" />
		<tag k="ssr:stedsnr" v="393281" />
	</node>
<<<<<<< HEAD
	<node lat="64.2295361156424" lon="12.452347218007976" id="-35962">
		<tag k="name" v="Pålbakkan" />
		<tag k="name:no" v="Pålbakkan" />
		<tag k="place" v="locality" />
		<tag k="ssr:stedsnr" v="393482" />
	</node>
	<node lat="64.23796246505805" lon="12.457728625373099" id="-35965">
		<tag k="name" v="Eggen" />
		<tag k="name:no" v="Eggen" />
=======
	<node id="-774999" lat="64.1786000033" lon="12.140972224">
		<tag k="name" v="Midttun" />
		<tag k="name:no" v="Midttun" />
		<tag k="place" v="farm" />
		<tag k="ssr:stedsnr" v="196436" />
	</node>
	<node id="-772949" lat="64.2103166681" lon="12.2595305495">
		<tag k="alt_name:no" v="Skavhaug" />
		<tag k="name" v="Skavhaugen" />
		<tag k="name:no" v="Skavhaugen" />
>>>>>>> e1d4bc35ff8a6074a6f2e91616a996b547c36f15
		<tag k="place" v="farm" />
		<tag k="ssr:stedsnr" v="485642" />
	</node>
<<<<<<< HEAD
	<node lat="64.17269166556396" lon="12.50733055995439" id="-35975">
		<tag k="name" v="Mediåsseteren" />
		<tag k="name:no" v="Mediåsseteren" />
=======
	<node id="-774993" lat="64.3314555553" lon="12.9506888913">
		<tag k="name" v="Dravlanseteren" />
		<tag k="name:no" v="Dravlanseteren" />
>>>>>>> e1d4bc35ff8a6074a6f2e91616a996b547c36f15
		<tag k="place" v="locality" />
		<tag k="ssr:stedsnr" v="413204" />
	</node>
<<<<<<< HEAD
	<node lat="64.32973611367846" lon="12.352491668477908" id="-35990">
		<tag k="name" v="Fagerbakkseteren" />
		<tag k="name:no" v="Fagerbakkseteren" />
=======
	<node id="-774992" lat="64.3579027765" lon="12.6377166763">
		<tag k="name" v="Bøgsetseteren" />
		<tag k="name:no" v="Bøgsetseteren" />
>>>>>>> e1d4bc35ff8a6074a6f2e91616a996b547c36f15
		<tag k="place" v="isolated_dwelling" />
		<tag k="ssr:stedsnr" v="413740" />
	</node>
<<<<<<< HEAD
	<node lat="64.32141388481092" lon="12.490813880433455" id="-35998">
		<tag k="fixme" v="consider place=hamlet" />
		<tag k="name" v="Kolåsen" />
		<tag k="name:no" v="Kolåsen" />
		<tag k="place" v="farm" />
		<tag k="ssr:stedsnr" v="424710" />
	</node>
	<node lat="64.29641666270999" lon="12.567319442752758" id="-35999">
		<tag k="fixme" v="consider place=hamlet" />
		<tag k="name" v="Landsem" />
		<tag k="name:no" v="Landsem" />
		<tag k="place" v="farm" />
		<tag k="ssr:stedsnr" v="424715" />
	</node>
	<node lat="64.28918055824123" lon="12.994061104650173" id="-36001">
		<tag k="name" v="Engaseteren" />
		<tag k="name:no" v="Engaseteren" />
=======
	<node id="-772943" lat="64.2506249988" lon="12.3681333339">
		<tag k="fixme" v="consider place=suburb, village or hamlet" />
		<tag k="name" v="Viosen" />
		<tag k="name:no" v="Viosen" />
		<tag k="place" v="quarter" />
		<tag k="ssr:stedsnr" v="256331" />
	</node>
	<node id="-774990" lat="64.3078015023" lon="12.4665434096">
		<tag k="name" v="Langvatnet" />
		<tag k="name:no" v="Langvatnet" />
>>>>>>> e1d4bc35ff8a6074a6f2e91616a996b547c36f15
		<tag k="place" v="locality" />
		<tag k="ssr:stedsnr" v="438250" />
	</node>
<<<<<<< HEAD
	<node lat="64.27148611524379" lon="12.439086119859361" id="-36003">
=======
	<node id="-774989" lat="64.3228111138" lon="12.2327750065">
>>>>>>> e1d4bc35ff8a6074a6f2e91616a996b547c36f15
		<tag k="historic" v="shieling" />
		<tag k="name" v="Støvraseteren" />
		<tag k="name:no" v="Støvraseteren" />
		<tag k="place" v="isolated_dwelling" />
		<tag k="ssr:stedsnr" v="438360" />
	</node>
<<<<<<< HEAD
	<node lat="64.26529951578122" lon="12.488652983762769" id="-36004">
		<tag k="fixme" v="consider place=hamlet" />
		<tag k="name" v="Ryggvoll" />
		<tag k="name:no" v="Ryggvoll" />
=======
	<node id="-774988" lat="64.2986277817" lon="12.5627333309">
		<tag k="name" v="Landsem" />
		<tag k="name:no" v="Landsem" />
>>>>>>> e1d4bc35ff8a6074a6f2e91616a996b547c36f15
		<tag k="place" v="farm" />
		<tag k="ssr:stedsnr" v="438361" />
	</node>
<<<<<<< HEAD
	<node lat="64.22800555739836" lon="12.02421389483525" id="-36005">
=======
	<node id="-774987" lat="64.3008916694" lon="12.5958277831">
>>>>>>> e1d4bc35ff8a6074a6f2e91616a996b547c36f15
		<tag k="historic" v="shieling" />
		<tag k="name" v="Hammerseteren" />
		<tag k="name:no" v="Hammerseteren" />
		<tag k="place" v="isolated_dwelling" />
		<tag k="ssr:stedsnr" v="438371" />
	</node>
<<<<<<< HEAD
	<node lat="64.22037499932857" lon="12.095194453287403" id="-36007">
		<tag k="name" v="Urstad" />
		<tag k="name:no" v="Urstad" />
		<tag k="place" v="farm" />
		<tag k="ssr:stedsnr" v="438380" />
	</node>
	<node lat="64.19095278179681" lon="12.186319447796771" id="-36008">
		<tag k="name" v="Flekkan" />
		<tag k="name:no" v="Flekkan" />
		<tag k="place" v="farm" />
		<tag k="ssr:stedsnr" v="438467" />
	</node>
	<node lat="64.15039999578127" lon="12.432291672007802" id="-36013">
		<tag k="historic" v="shieling" />
		<tag k="name" v="Kleivsandseteren" />
		<tag k="name:no" v="Kleivsandseteren" />
		<tag k="place" v="isolated_dwelling" />
		<tag k="ssr:stedsnr" v="438557" />
	</node>
	<node lat="64.10006389171308" lon="12.307338886157412" id="-36017">
		<tag k="name" v="Jørstadsetran" />
		<tag k="name:no" v="Jørstadsetran" />
=======
	<node id="-772927" lat="64.2219388895" lon="12.2726416722">
		<tag k="name" v="Hognes" />
		<tag k="name:no" v="Hognes" />
		<tag k="place" v="farm" />
		<tag k="ssr:stedsnr" v="74711" />
	</node>
	<node id="-772926" lat="64.2310722201" lon="12.6205416745">
		<tag k="name" v="Gravslåttseteren" />
		<tag k="name:no" v="Gravslåttseteren" />
		<tag k="place" v="isolated_dwelling" />
		<tag k="ssr:stedsnr" v="74706" />
	</node>
	<node id="-774973" lat="64.2638802321" lon="12.6227972148">
		<tag k="alt_name:no" v="Mollanseteren" />
		<tag k="name" v="Nordgårdsseteren" />
		<tag k="name:no" v="Nordgårdsseteren" />
		<tag k="place" v="locality" />
		<tag k="ssr:stedsnr" v="195388" />
	</node>
	<node id="-774972" lat="64.2633055592" lon="11.9937555599">
		<tag k="name" v="Ytre Bangsjøhytta" />
		<tag k="name:no" v="Ytre Bangsjøhytta" />
>>>>>>> e1d4bc35ff8a6074a6f2e91616a996b547c36f15
		<tag k="place" v="isolated_dwelling" />
		<tag k="ssr:stedsnr" v="438598" />
	</node>
<<<<<<< HEAD
	<node lat="64.23646111374038" lon="12.421852771739694" id="-36018">
		<tag k="name" v="Øystre Bergsmoen" />
		<tag k="name:no" v="Øystre Bergsmoen" />
=======
	<node id="-774971" lat="64.2420499957" lon="12.3319472165">
		<tag k="name" v="Sandnes" />
		<tag k="name:no" v="Sandnes" />
>>>>>>> e1d4bc35ff8a6074a6f2e91616a996b547c36f15
		<tag k="place" v="farm" />
		<tag k="ssr:stedsnr" v="438702" />
	</node>
<<<<<<< HEAD
	<node lat="64.23986944572954" lon="12.47778610476683" id="-36019">
		<tag k="name" v="Kolven" />
		<tag k="name:no" v="Kolven" />
=======
	<node id="-774970" lat="64.2327694465" lon="12.3106694541">
		<tag k="fixme" v="consider place=hamlet" />
		<tag k="name" v="Gran" />
		<tag k="name:no" v="Gran" />
>>>>>>> e1d4bc35ff8a6074a6f2e91616a996b547c36f15
		<tag k="place" v="farm" />
		<tag k="ssr:stedsnr" v="438703" />
	</node>
<<<<<<< HEAD
	<node lat="64.24178333242946" lon="12.451705563835278" id="-36020">
=======
	<node id="-772920" lat="64.3327666659" lon="12.3467555544">
>>>>>>> e1d4bc35ff8a6074a6f2e91616a996b547c36f15
		<tag k="fixme" v="consider place=hamlet" />
		<tag k="name" v="Øvre Sørbygda" />
		<tag k="name:no" v="Øvre Sørbygda" />
		<tag k="place" v="village" />
		<tag k="ssr:stedsnr" v="438704" />
	</node>
<<<<<<< HEAD
	<node lat="64.24556666727398" lon="12.381805550680676" id="-36021">
		<tag k="name" v="Snåase - Snåsa" />
		<tag k="name:no" v="Snåsa" />
		<tag k="name:sma" v="Snåase" />
		<tag k="place" v="village" />
		<tag k="ssr:stedsnr" v="438699" />
	</node>
	<node lat="64.26550833521031" lon="12.274963886174024" id="-36036">
		<tag k="alt_name:no" v="Vegset nordre" />
		<tag k="name" v="Nordre Vegset" />
		<tag k="name:no" v="Nordre Vegset" />
=======
	<node id="-772916" lat="64.3327666659" lon="12.3467555544">
		<tag k="name" v="Tjennaråsen" />
		<tag k="name:no" v="Tjennaråsen" />
		<tag k="place" v="farm" />
		<tag k="ssr:stedsnr" v="242327" />
	</node>
	<node id="-772918" lat="64.1638250028" lon="12.4829527763">
		<tag k="fixme" v="consider place=hamlet" />
		<tag k="name" v="Steinkjer" />
		<tag k="name:no" v="Steinkjer" />
>>>>>>> e1d4bc35ff8a6074a6f2e91616a996b547c36f15
		<tag k="place" v="farm" />
		<tag k="ssr:stedsnr" v="454356" />
	</node>
<<<<<<< HEAD
	<node lat="64.23165833649699" lon="12.350994454371568" id="-36038">
		<tag k="alt_name:no" v="Våg søre" />
		<tag k="name" v="Søre Våg" />
		<tag k="name:no" v="Søre Våg" />
=======
	<node id="-772917" lat="64.2399694412" lon="12.4782555471">
		<tag k="fixme" v="consider place=hamlet" />
		<tag k="name" v="Kolven" />
		<tag k="name:no" v="Kolven" />
>>>>>>> e1d4bc35ff8a6074a6f2e91616a996b547c36f15
		<tag k="place" v="farm" />
		<tag k="ssr:stedsnr" v="454385" />
	</node>
<<<<<<< HEAD
	<node lat="64.26694444301343" lon="12.462511106342491" id="-36043">
		<tag k="name" v="Larstrøa" />
		<tag k="name:no" v="Larstrøa" />
		<tag k="place" v="locality" />
		<tag k="ssr:stedsnr" v="454586" />
	</node>
	<node lat="64.14050833164772" lon="12.433572228603275" id="-36055">
		<tag k="historic" v="shieling" />
		<tag k="name" v="Rossnesseteren" />
		<tag k="name:no" v="Rossnesseteren" />
		<tag k="place" v="isolated_dwelling" />
		<tag k="ssr:stedsnr" v="473369" />
	</node>
	<node lat="64.25228055713653" lon="12.211891668099623" id="-36077">
		<tag k="name" v="Langnes" />
		<tag k="name:no" v="Langnes" />
=======
	<node id="-774964" lat="64.2982277778" lon="12.6127249913">
		<tag k="historic" v="shieling" />
		<tag k="name" v="Frebergseteren" />
		<tag k="name:no" v="Frebergseteren" />
		<tag k="place" v="locality" />
		<tag k="ssr:stedsnr" v="171631" />
	</node>
	<node id="-772915" lat="64.1995333326" lon="12.2596166658">
		<tag k="alt_name:no" v="Breide søre" />
		<tag k="name" v="Søre Breide" />
		<tag k="name:no" v="Søre Breide" />
		<tag k="place" v="farm" />
		<tag k="ssr:stedsnr" v="239736" />
	</node>
	<node id="-775835" lat="64.1710638849" lon="12.5210111194">
		<tag k="historic" v="shieling" />
		<tag k="name" v="Hylla" />
		<tag k="name:no" v="Hylla" />
		<tag k="place" v="locality" />
		<tag k="ssr:stedsnr" v="741639" />
	</node>
	<node id="-772913" lat="64.2068111111" lon="12.2826583261">
		<tag k="name" v="Sveberg" />
		<tag k="name:no" v="Sveberg" />
>>>>>>> e1d4bc35ff8a6074a6f2e91616a996b547c36f15
		<tag k="place" v="farm" />
		<tag k="ssr:stedsnr" v="485299" />
	</node>
<<<<<<< HEAD
	<node lat="64.26032221838612" lon="12.764350002390277" id="-36082">
		<tag k="name" v="Nyseteren" />
		<tag k="name:no" v="Nyseteren" />
=======
	<node id="-774956" lat="64.3668944404" lon="12.5184888798">
		<tag k="historic" v="shieling" />
		<tag k="name" v="Lonseteren" />
		<tag k="name:no" v="Lonseteren" />
>>>>>>> e1d4bc35ff8a6074a6f2e91616a996b547c36f15
		<tag k="place" v="locality" />
		<tag k="ssr:stedsnr" v="681244" />
	</node>
<<<<<<< HEAD
	<node lat="64.25417777967675" lon="12.372655546123779" id="-36094">
		<tag k="fixme" v="consider place=hamlet" />
		<tag k="name" v="Sem" />
		<tag k="name:no" v="Sem" />
		<tag k="place" v="farm" />
		<tag k="ssr:stedsnr" v="681339" />
	</node>
	<node lat="64.19798332986699" lon="12.47602777798143" id="-36099">
		<tag k="name" v="Liseteren" />
		<tag k="name:no" v="Liseteren" />
		<tag k="place" v="isolated_dwelling" />
		<tag k="ssr:stedsnr" v="499444" />
	</node>
	<node lat="64.2716999957202" lon="12.54768055371936" id="-36101">
		<tag k="name" v="Sagmoen" />
		<tag k="name:no" v="Sagmoen" />
		<tag k="place" v="farm" />
		<tag k="ssr:stedsnr" v="499304" />
	</node>
	<node lat="64.23699167004435" lon="12.153886108709603" id="-36103">
		<tag k="fixme" v="consider place=hamlet" />
		<tag k="name" v="Holem" />
		<tag k="name:no" v="Holem" />
		<tag k="place" v="farm" />
		<tag k="ssr:stedsnr" v="499341" />
	</node>
	<node lat="64.23077222167534" lon="12.155638884129866" id="-36104">
		<tag k="alt_name:no" v="Holemsneset" />
		<tag k="name" v="Neset" />
		<tag k="name:no" v="Neset" />
		<tag k="place" v="farm" />
		<tag k="ssr:stedsnr" v="499342" />
	</node>
	<node lat="64.29013611381846" lon="12.278558331242582" id="-36105">
		<tag k="alt_name:no" v="Bruvollseteren" />
		<tag k="historic" v="shieling" />
		<tag k="name" v="Mastudalseteren" />
		<tag k="name:no" v="Mastudalseteren" />
		<tag k="place" v="isolated_dwelling" />
		<tag k="ssr:stedsnr" v="499345" />
	</node>
	<node lat="64.26280833697113" lon="12.366686104438816" id="-36108">
		<tag k="name" v="Elverheim" />
		<tag k="name:no" v="Elverheim" />
		<tag k="place" v="farm" />
		<tag k="ssr:stedsnr" v="681354" />
	</node>
	<node lat="64.16266111138172" lon="12.47421944148475" id="-36109">
		<tag k="name" v="Hall" />
		<tag k="name:no" v="Hall" />
		<tag k="place" v="farm" />
		<tag k="ssr:stedsnr" v="499488" />
	</node>
	<node lat="64.21969999702291" lon="12.345058338290725" id="-36112">
		<tag k="name" v="Brenna" />
		<tag k="name:no" v="Brenna" />
=======
	<node id="-772914" lat="64.263111112" lon="12.5558277739">
		<tag k="fixme" v="consider place=hamlet" />
		<tag k="name" v="Ålmo" />
		<tag k="name:no" v="Ålmo" />
		<tag k="place" v="farm" />
		<tag k="ssr:stedsnr" v="60755" />
	</node>
	<node id="-773979" lat="64.2345833306" lon="12.3286222251">
		<tag k="name" v="Hansheimen" />
		<tag k="name:no" v="Hansheimen" />
		<tag k="place" v="locality" />
		<tag k="ssr:stedsnr" v="879374" />
	</node>
	<node id="-773252" lat="64.307588888" lon="12.67760555">
		<tag k="historic" v="shieling" />
		<tag k="name" v="Svarvaseteren" />
		<tag k="name:no" v="Svarvaseteren" />
		<tag k="place" v="locality" />
		<tag k="ssr:stedsnr" v="256369" />
	</node>
	<node id="-773251" lat="64.233116664" lon="12.1448666681">
		<tag k="alt_name:no" v="Fallstad" />
		<tag k="name" v="Falstad" />
		<tag k="name:no" v="Falstad" />
		<tag k="place" v="farm" />
		<tag k="ssr:stedsnr" v="256365" />
	</node>
	<node id="-774922" lat="64.1591055554" lon="12.4518527678">
		<tag k="name" v="Åsa" />
		<tag k="name:no" v="Åsa" />
		<tag k="place" v="farm" />
		<tag k="ssr:stedsnr" v="170264" />
	</node>
	<node id="-772872" lat="64.2283833292" lon="12.0262027778">
		<tag k="historic" v="shieling" />
		<tag k="name" v="Gammelvollen" />
		<tag k="name:no" v="Gammelvollen" />
		<tag k="place" v="locality" />
		<tag k="ssr:stedsnr" v="230420" />
	</node>
	<node id="-772867" lat="64.336580558" lon="12.1528222271">
		<tag k="historic" v="shieling" />
		<tag k="name" v="Øyeseter" />
		<tag k="name:no" v="Øyeseter" />
		<tag k="place" v="locality" />
		<tag k="ssr:stedsnr" v="230177" />
	</node>
	<node id="-774955" lat="64.3613722206" lon="12.5281944385">
		<tag k="fixme" v="consider place=hamlet" />
		<tag k="name" v="Lurugården" />
		<tag k="name:no" v="Lurugården" />
		<tag k="place" v="farm" />
		<tag k="ssr:stedsnr" v="170983" />
	</node>
	<node id="-773247" lat="64.2742916696" lon="12.518430548">
		<tag k="alt_name:no" v="Agle vestre" />
		<tag k="name" v="Vestre Agle" />
		<tag k="name:no" v="Vestre Agle" />
		<tag k="place" v="farm" />
		<tag k="ssr:stedsnr" v="242709" />
	</node>
	<node id="-774888" lat="64.1040805595" lon="12.9208805616">
		<tag k="name" v="Holden statsskog" />
		<tag k="name:no" v="Holden statsskog" />
		<tag k="place" v="locality" />
		<tag k="ssr:stedsnr" v="150575" />
	</node>
	<node id="-774884" lat="64.249372221" lon="12.3856388897">
		<tag k="name" v="Åsvoll" />
		<tag k="name:no" v="Åsvoll" />
>>>>>>> e1d4bc35ff8a6074a6f2e91616a996b547c36f15
		<tag k="place" v="farm" />
		<tag k="ssr:stedsnr" v="499692" />
	</node>
<<<<<<< HEAD
	<node lat="64.22464166276411" lon="12.414527782579619" id="-36113">
		<tag k="name" v="Steine" />
		<tag k="name:no" v="Steine" />
=======
	<node id="-774881" lat="64.2484944404" lon="12.3563416603">
		<tag k="name" v="Bostad" />
		<tag k="name:no" v="Bostad" />
>>>>>>> e1d4bc35ff8a6074a6f2e91616a996b547c36f15
		<tag k="place" v="farm" />
		<tag k="ssr:stedsnr" v="499694" />
	</node>
<<<<<<< HEAD
	<node lat="64.2204083304033" lon="12.427641675139283" id="-36114">
		<tag k="name" v="Smestad" />
		<tag k="name:no" v="Smestad" />
=======
	<node id="-774880" lat="64.2439972249" lon="12.3666694384">
		<tag k="name" v="Vinje" />
		<tag k="name:no" v="Vinje" />
>>>>>>> e1d4bc35ff8a6074a6f2e91616a996b547c36f15
		<tag k="place" v="farm" />
		<tag k="ssr:stedsnr" v="499696" />
	</node>
<<<<<<< HEAD
	<node lat="64.22410277753248" lon="12.424313884184357" id="-36115">
		<tag k="name" v="Heimvegsmoen" />
		<tag k="name:no" v="Heimvegsmoen" />
=======
	<node id="-772829" lat="64.2090055563" lon="12.3183666704">
		<tag k="name" v="Lauvåsen" />
		<tag k="name:no" v="Lauvåsen" />
>>>>>>> e1d4bc35ff8a6074a6f2e91616a996b547c36f15
		<tag k="place" v="farm" />
		<tag k="ssr:stedsnr" v="499697" />
	</node>
<<<<<<< HEAD
	<node lat="64.2036777768204" lon="12.17977499125806" id="-36125">
		<tag k="name" v="Lyngberg" />
		<tag k="name:no" v="Lyngberg" />
=======
	<node id="-774876" lat="64.2333444483" lon="12.3508194411">
		<tag k="alt_name:no" v="Våg søre" />
		<tag k="name" v="Søre Våg" />
		<tag k="name:no" v="Søre Våg" />
>>>>>>> e1d4bc35ff8a6074a6f2e91616a996b547c36f15
		<tag k="place" v="farm" />
		<tag k="ssr:stedsnr" v="681482" />
	</node>
	<node lat="64.1668499967485" lon="12.5462388901249" id="-36132">
		<tag k="historic" v="shieling" />
		<tag k="name" v="Brønstadsetran" />
		<tag k="name:no" v="Brønstadsetran" />
		<tag k="place" v="isolated_dwelling" />
		<tag k="ssr:stedsnr" v="681548" />
	</node>
	<node lat="64.17479444311225" lon="12.600419439858959" id="-36133">
		<tag k="historic" v="shieling" />
		<tag k="name" v="Gavlen" />
		<tag k="name:no" v="Gavlen" />
		<tag k="place" v="isolated_dwelling" />
		<tag k="ssr:stedsnr" v="681552" />
	</node>
<<<<<<< HEAD
	<node lat="64.16530555575977" lon="12.240711117140581" id="-36135">
		<tag k="name" v="Breidesmoseteren" />
		<tag k="name:no" v="Breidesmoseteren" />
		<tag k="place" v="locality" />
		<tag k="ssr:stedsnr" v="681561" />
	</node>
	<node lat="64.23837222393296" lon="12.332313894820665" id="-36141">
		<tag k="name" v="Rønningen" />
		<tag k="name:no" v="Rønningen" />
=======
	<node id="-774874" lat="64.2631861118" lon="12.4747444413">
		<tag k="name" v="Moholt" />
		<tag k="name:no" v="Moholt" />
>>>>>>> e1d4bc35ff8a6074a6f2e91616a996b547c36f15
		<tag k="place" v="farm" />
		<tag k="ssr:stedsnr" v="681702" />
	</node>
<<<<<<< HEAD
	<node lat="64.23728333562332" lon="12.365411108848237" id="-36143">
		<tag k="fixme" v="consider place=hamlet" />
		<tag k="name" v="Svarva" />
		<tag k="name:no" v="Svarva" />
=======
	<node id="-772821" lat="64.2017444464" lon="12.1777055629">
		<tag k="name" v="Granås" />
		<tag k="name:no" v="Granås" />
>>>>>>> e1d4bc35ff8a6074a6f2e91616a996b547c36f15
		<tag k="place" v="farm" />
		<tag k="ssr:stedsnr" v="681841" />
	</node>
<<<<<<< HEAD
	<node lat="64.22762777512676" lon="12.395136110912865" id="-36150">
		<tag k="name" v="Ekker" />
		<tag k="name:no" v="Ekker" />
=======
	<node id="-774867" lat="64.2038500045" lon="12.2393722131">
		<tag k="alt_name:no" v="Jørstad nordre" />
		<tag k="name" v="Nordre Jørstad" />
		<tag k="name:no" v="Nordre Jørstad" />
>>>>>>> e1d4bc35ff8a6074a6f2e91616a996b547c36f15
		<tag k="place" v="farm" />
		<tag k="ssr:stedsnr" v="681727" />
	</node>
<<<<<<< HEAD
	<node lat="64.23190833394963" lon="12.39778333110789" id="-36151">
		<tag k="fixme" v="consider place=hamlet" />
		<tag k="name" v="Ytre Sørbygda" />
		<tag k="name:no" v="Ytre Sørbygda" />
		<tag k="place" v="village" />
		<tag k="ssr:stedsnr" v="681730" />
	</node>
	<node lat="64.22800000367606" lon="12.419975001524119" id="-36152">
		<tag k="name" v="Vangen" />
		<tag k="name:no" v="Vangen" />
		<tag k="place" v="farm" />
		<tag k="ssr:stedsnr" v="681732" />
	</node>
	<node lat="64.20049722282488" lon="12.33200556391245" id="-36163">
		<tag k="name" v="Sørås" />
		<tag k="name:no" v="Sørås" />
=======
	<node id="-775705" lat="64.1295444406" lon="12.1072805565">
		<tag k="name" v="Strindmoseteren" />
		<tag k="name:no" v="Strindmoseteren" />
		<tag k="place" v="locality" />
		<tag k="ssr:stedsnr" v="620251" />
	</node>
	<node id="-774864" lat="64.1967250011" lon="12.1934777816">
		<tag k="name" v="Lyngås" />
		<tag k="name:no" v="Lyngås" />
		<tag k="place" v="isolated_dwelling" />
		<tag k="ssr:stedsnr" v="150287" />
	</node>
	<node id="-774842" lat="64.1934138887" lon="12.3243666747">
		<tag k="alt_name:no" v="Kjenstadberg" />
		<tag k="name" v="Kjenstadberget" />
		<tag k="name:no" v="Kjenstadberget" />
>>>>>>> e1d4bc35ff8a6074a6f2e91616a996b547c36f15
		<tag k="place" v="farm" />
		<tag k="ssr:stedsnr" v="272349" />
	</node>
<<<<<<< HEAD
	<node lat="64.19044444128345" lon="12.332616668884164" id="-36164">
		<tag k="name" v="Larsmoen" />
		<tag k="name:no" v="Larsmoen" />
=======
	<node id="-774841" lat="64.1972944467" lon="12.3916361171">
		<tag k="historic" v="shieling" />
		<tag k="name" v="Drola" />
		<tag k="name:no" v="Drola" />
>>>>>>> e1d4bc35ff8a6074a6f2e91616a996b547c36f15
		<tag k="place" v="locality" />
		<tag k="ssr:stedsnr" v="272353" />
	</node>
<<<<<<< HEAD
	<node lat="64.23309166641447" lon="12.321749993431283" id="-36167">
		<tag k="name" v="Parnas" />
		<tag k="name:no" v="Parnas" />
=======
	<node id="-774834" lat="64.2003361077" lon="12.2578361148">
		<tag k="fixme" v="consider place=hamlet" />
		<tag k="name" v="Breide" />
		<tag k="name:no" v="Breide" />
>>>>>>> e1d4bc35ff8a6074a6f2e91616a996b547c36f15
		<tag k="place" v="farm" />
		<tag k="ssr:stedsnr" v="272362" />
	</node>
<<<<<<< HEAD
	<node lat="64.20005555948586" lon="12.22878056456908" id="-36168">
		<tag k="name" v="Jørstad" />
		<tag k="name:no" v="Jørstad" />
		<tag k="place" v="farm" />
		<tag k="ssr:stedsnr" v="514312" />
	</node>
	<node lat="64.2350361073656" lon="12.353216659356253" id="-36170">
		<tag k="alt_name:no" v="Våg nordre" />
		<tag k="name" v="Nordre Våg" />
		<tag k="name:no" v="Nordre Våg" />
		<tag k="place" v="farm" />
		<tag k="ssr:stedsnr" v="514403" />
	</node>
	<node lat="64.22741666486205" lon="12.402147224258956" id="-36171">
		<tag k="name" v="Sørhøy" />
		<tag k="name:no" v="Sørhøy" />
		<tag k="place" v="farm" />
		<tag k="ssr:stedsnr" v="514414" />
	</node>
	<node lat="64.23036666870543" lon="12.386130563632598" id="-36173">
		<tag k="name" v="Lauvmoen" />
		<tag k="name:no" v="Lauvmoen" />
=======
	<node id="-774832" lat="64.3564694483" lon="12.7835222288">
		<tag k="name" v="Kleiva" />
		<tag k="name:no" v="Kleiva" />
		<tag k="place" v="locality" />
		<tag k="ssr:stedsnr" v="135283" />
	</node>
	<node id="-774831" lat="64.3365593269" lon="12.7440663347">
		<tag k="name" v="Holmen" />
		<tag k="name:no" v="Holmen" />
>>>>>>> e1d4bc35ff8a6074a6f2e91616a996b547c36f15
		<tag k="place" v="locality" />
		<tag k="ssr:stedsnr" v="514420" />
	</node>
<<<<<<< HEAD
	<node lat="64.2451361125309" lon="12.335211120250989" id="-36177">
		<tag k="name" v="Kjerstimoen" />
		<tag k="name:no" v="Kjerstimoen" />
=======
	<node id="-774823" lat="64.2860499966" lon="12.3578999925">
		<tag k="historic" v="shieling" />
		<tag k="name" v="Støvraseteren" />
		<tag k="name:no" v="Støvraseteren" />
>>>>>>> e1d4bc35ff8a6074a6f2e91616a996b547c36f15
		<tag k="place" v="locality" />
		<tag k="ssr:stedsnr" v="514503" />
	</node>
<<<<<<< HEAD
	<node lat="64.21050555546815" lon="12.043019446831117" id="-36189">
		<tag k="name" v="Søre Hammer" />
		<tag k="name:no" v="Søre Hammer" />
=======
	<node id="-774821" lat="64.2792361076" lon="12.5958055457">
		<tag k="fixme" v="consider place=hamlet" />
		<tag k="name" v="Skromoen" />
		<tag k="name:no" v="Skromoen" />
>>>>>>> e1d4bc35ff8a6074a6f2e91616a996b547c36f15
		<tag k="place" v="farm" />
		<tag k="ssr:stedsnr" v="534441" />
	</node>
<<<<<<< HEAD
	<node lat="64.24741388952275" lon="12.363283329395802" id="-36209">
		<tag k="amenity" v="school" />
		<tag k="name" v="Snåsa skole" />
		<tag k="name:no" v="Snåsa skole" />
		<tag k="ssr:stedsnr" v="544219" />
	</node>
	<node lat="64.27595555925961" lon="12.5228749928369" id="-36210">
		<tag k="fixme" v="consider place=hamlet" />
		<tag k="name" v="Agle" />
		<tag k="name:no" v="Agle" />
		<tag k="place" v="village" />
		<tag k="ssr:stedsnr" v="545708" />
	</node>
	<node lat="64.27569721776976" lon="12.55079167229632" id="-36211">
		<tag k="fixme" v="consider place=hamlet" />
		<tag k="name" v="Gravbrøt" />
		<tag k="name:no" v="Gravbrøt" />
=======
	<node id="-775407" lat="64.1909527818" lon="12.1863194478">
		<tag k="name" v="Flekkan" />
		<tag k="name:no" v="Flekkan" />
		<tag k="place" v="farm" />
		<tag k="ssr:stedsnr" v="438467" />
	</node>
	<node id="-774813" lat="64.2508249966" lon="12.5034972164">
		<tag k="name" v="Haugan" />
		<tag k="name:no" v="Haugan" />
>>>>>>> e1d4bc35ff8a6074a6f2e91616a996b547c36f15
		<tag k="place" v="farm" />
		<tag k="ssr:stedsnr" v="545719" />
	</node>
<<<<<<< HEAD
	<node lat="64.15701111362894" lon="12.449844441837708" id="-36222">
		<tag k="fixme" v="consider place=hamlet" />
		<tag k="name" v="Åsa" />
		<tag k="name:no" v="Åsa" />
		<tag k="place" v="farm" />
		<tag k="ssr:stedsnr" v="559543" />
	</node>
	<node lat="64.21135555462197" lon="12.491344444793638" id="-36224">
		<tag k="name" v="Telgsteinberget" />
		<tag k="name:no" v="Telgsteinberget" />
=======
	<node id="-774812" lat="64.158913889" lon="12.8069333272">
		<tag k="historic" v="shieling" />
		<tag k="name" v="Husaseteren" />
		<tag k="name:no" v="Husaseteren" />
		<tag k="place" v="locality" />
		<tag k="ssr:stedsnr" v="134392" />
	</node>
	<node id="-774811" lat="64.2816138879" lon="12.7375166566">
		<tag k="name" v="Ålmoseteren" />
		<tag k="name:no" v="Ålmoseteren" />
>>>>>>> e1d4bc35ff8a6074a6f2e91616a996b547c36f15
		<tag k="place" v="locality" />
		<tag k="ssr:stedsnr" v="559500" />
	</node>
<<<<<<< HEAD
	<node lat="64.08979444423741" lon="12.282402769883335" id="-36226">
		<tag k="name" v="Finnsåsseteren" />
		<tag k="name:no" v="Finnsåsseteren" />
		<tag k="place" v="isolated_dwelling" />
		<tag k="ssr:stedsnr" v="559612" />
	</node>
	<node lat="64.23745038121658" lon="12.45888399933204" id="-36229">
		<tag k="fixme" v="consider place=hamlet" />
		<tag k="name" v="Eggen" />
		<tag k="name:no" v="Eggen" />
		<tag k="place" v="farm" />
		<tag k="ssr:stedsnr" v="559703" />
	</node>
	<node lat="64.2476694466907" lon="12.611708343159783" id="-36230">
		<tag k="historic" v="shieling" />
		<tag k="name" v="Steinsengseteren" />
		<tag k="name:no" v="Steinsengseteren" />
=======
	<node id="-774806" lat="64.1226000006" lon="12.3991083323">
		<tag k="name" v="Hevdesåsen" />
		<tag k="name:no" v="Hevdesåsen" />
>>>>>>> e1d4bc35ff8a6074a6f2e91616a996b547c36f15
		<tag k="place" v="isolated_dwelling" />
		<tag k="ssr:stedsnr" v="559707" />
	</node>
<<<<<<< HEAD
	<node lat="64.21026666555453" lon="12.249358338435222" id="-36234">
		<tag k="alt_name:no" v="Hagen" />
		<tag k="name" v="Hagan" />
		<tag k="name:no" v="Hagan" />
=======
	<node id="-774805" lat="64.1747166642" lon="12.0858583402">
		<tag k="name" v="Strindmoen" />
		<tag k="name:no" v="Strindmoen" />
>>>>>>> e1d4bc35ff8a6074a6f2e91616a996b547c36f15
		<tag k="place" v="farm" />
		<tag k="ssr:stedsnr" v="559746" />
	</node>
<<<<<<< HEAD
	<node lat="64.24171666311443" lon="12.493919439385728" id="-36235">
		<tag k="name" v="Skavlan" />
		<tag k="name:no" v="Skavlan" />
		<tag k="place" v="farm" />
		<tag k="ssr:stedsnr" v="559697" />
	</node>
	<node lat="64.28528333415517" lon="12.553458331589306" id="-36240">
		<tag k="name" v="Årenget" />
		<tag k="name:no" v="Årenget" />
		<tag k="place" v="farm" />
		<tag k="ssr:stedsnr" v="560384" />
	</node>
	<node lat="64.23508447794113" lon="12.325523398003698" id="-36242">
		<tag k="fixme" v="consider place=hamlet" />
		<tag k="name" v="Fagerbakken" />
		<tag k="name:no" v="Fagerbakken" />
		<tag k="place" v="farm" />
		<tag k="ssr:stedsnr" v="560690" />
	</node>
	<node lat="64.28259444391085" lon="12.213758340333095" id="-36247">
		<tag k="name" v="Småvassliseteren" />
		<tag k="name:no" v="Småvassliseteren" />
		<tag k="place" v="isolated_dwelling" />
		<tag k="ssr:stedsnr" v="572222" />
	</node>
	<node lat="64.25304722016408" lon="12.440122219165968" id="-36262">
		<tag k="name" v="Tølløvtrøa" />
		<tag k="name:no" v="Tølløvtrøa" />
		<tag k="place" v="locality" />
		<tag k="ssr:stedsnr" v="575517" />
	</node>
	<node lat="64.19898888502732" lon="12.288702768886587" id="-36267">
		<tag k="name" v="Kjerktrøan" />
		<tag k="name:no" v="Kjerktrøan" />
=======
	<node id="-774803" lat="64.1979805526" lon="12.6149250057">
		<tag k="name" v="Kvilalia" />
		<tag k="name:no" v="Kvilalia" />
		<tag k="place" v="isolated_dwelling" />
		<tag k="ssr:stedsnr" v="110965" />
	</node>
	<node id="-774253" lat="64.1801250017" lon="12.2780027845">
		<tag k="name" v="Sandstad" />
		<tag k="name:no" v="Sandstad" />
		<tag k="place" v="farm" />
		<tag k="ssr:stedsnr" v="803554" />
	</node>
	<node id="-773292" lat="64.2844138856" lon="12.5512083406">
		<tag k="name" v="Årstad" />
		<tag k="name:no" v="Årstad" />
		<tag k="place" v="farm" />
		<tag k="ssr:stedsnr" v="454560" />
	</node>
	<node id="-774250" lat="64.3108250005" lon="12.3857749904">
		<tag k="historic" v="shieling" />
		<tag k="name" v="Semsseteren" />
		<tag k="name:no" v="Semsseteren" />
		<tag k="place" v="locality" />
		<tag k="ssr:stedsnr" v="803423" />
	</node>
	<node id="-774769" lat="64.3464555565" lon="12.4360861119">
		<tag k="historic" v="shieling" />
		<tag k="name" v="Ner-Granaseteren" />
		<tag k="name:no" v="Ner-Granaseteren" />
>>>>>>> e1d4bc35ff8a6074a6f2e91616a996b547c36f15
		<tag k="place" v="locality" />
		<tag k="ssr:stedsnr" v="696294" />
	</node>
<<<<<<< HEAD
	<node lat="64.20343888650628" lon="12.251616666436362" id="-36268">
		<tag k="alt_name:no" v="Breide vestre" />
		<tag k="name" v="Vestre Breide" />
		<tag k="name:no" v="Vestre Breide" />
		<tag k="place" v="farm" />
		<tag k="ssr:stedsnr" v="696336" />
	</node>
	<node lat="64.19237222393691" lon="12.260461118072447" id="-36269">
		<tag k="name" v="Øvermoen" />
		<tag k="name:no" v="Øvermoen" />
		<tag k="place" v="locality" />
		<tag k="ssr:stedsnr" v="696299" />
	</node>
	<node lat="64.2523888918691" lon="12.370597225248611" id="-36277">
		<tag k="alt_name:no" v="Sem ytre" />
		<tag k="name" v="Ytre Sem" />
		<tag k="name:no" v="Ytre Sem" />
		<tag k="place" v="farm" />
		<tag k="ssr:stedsnr" v="696499" />
	</node>
	<node lat="64.20960832941529" lon="12.295530559106409" id="-36282">
		<tag k="name" v="Sagmoen" />
		<tag k="name:no" v="Sagmoen" />
=======
	<node id="-774731" lat="64.2755083365" lon="12.424975001">
		<tag k="alt_name:no" v="Dravlan østre" />
		<tag k="name" v="Indre Dravlan" />
		<tag k="name:no" v="Indre Dravlan" />
		<tag k="place" v="farm" />
		<tag k="ssr:stedsnr" v="90549" />
	</node>
	<node id="-774723" lat="64.2631611122" lon="12.4496166714">
		<tag k="name" v="Bomosveet" />
		<tag k="name:no" v="Bomosveet" />
		<tag k="place" v="locality" />
		<tag k="ssr:stedsnr" v="90512" />
	</node>
	<node id="-774721" lat="64.2414611126" lon="12.5511166705">
		<tag k="historic" v="shieling" />
		<tag k="name" v="Gamvollen" />
		<tag k="name:no" v="Gamvollen" />
>>>>>>> e1d4bc35ff8a6074a6f2e91616a996b547c36f15
		<tag k="place" v="locality" />
		<tag k="ssr:stedsnr" v="696440" />
	</node>
<<<<<<< HEAD
	<node lat="64.27554722050691" lon="12.516291669651348" id="-36284">
		<tag k="name" v="Nordheim" />
		<tag k="name:no" v="Nordheim" />
		<tag k="place" v="farm" />
		<tag k="ssr:stedsnr" v="696547" />
	</node>
	<node lat="64.26072221946555" lon="12.368680545010085" id="-36319">
		<tag k="name" v="Leiråa" />
		<tag k="name:no" v="Leiråa" />
		<tag k="old_name:no" v="Leiraaen" />
		<tag k="place" v="farm" />
		<tag k="ssr:stedsnr" v="603792" />
	</node>
	<node lat="64.18767499695349" lon="12.313852786249662" id="-36320">
		<tag k="name" v="Gifstad" />
		<tag k="name:no" v="Gifstad" />
		<tag k="place" v="farm" />
		<tag k="ssr:stedsnr" v="606622" />
	</node>
	<node lat="64.26526944279459" lon="12.298000003993506" id="-36321">
		<tag k="name" v="Strand" />
		<tag k="name:no" v="Strand" />
		<tag k="place" v="farm" />
		<tag k="ssr:stedsnr" v="272447" />
	</node>
	<node lat="64.25811111151602" lon="12.389108330957571" id="-36323">
		<tag k="name" v="Østrem" />
		<tag k="name:no" v="Østrem" />
		<tag k="place" v="farm" />
		<tag k="ssr:stedsnr" v="272465" />
	</node>
	<node lat="64.34813055359243" lon="12.437255550771276" id="-36329">
		<tag k="historic" v="shieling" />
		<tag k="name" v="Grånåseteren" />
		<tag k="name:no" v="Grånåseteren" />
		<tag k="place" v="isolated_dwelling" />
		<tag k="ssr:stedsnr" v="620411" />
	</node>
	<node lat="64.19849166283313" lon="12.29439166685225" id="-36332">
		<tag k="alt_name:no" v="Kleiv østre;Østre Kleiv" />
		<tag k="name" v="Kleiv" />
		<tag k="name:no" v="Kleiv" />
		<tag k="place" v="farm" />
		<tag k="ssr:stedsnr" v="620482" />
	</node>
	<node lat="64.29297499792523" lon="12.56603610254495" id="-36333">
		<tag k="alt_name:no" v="Østerås" />
		<tag k="name" v="Austerås" />
		<tag k="name:no" v="Austerås" />
=======
	<node id="-774717" lat="64.2482888912" lon="12.3619833301">
		<tag k="fixme" v="consider place=hamlet" />
		<tag k="name" v="Flatbostad" />
		<tag k="name:no" v="Flatbostad" />
		<tag k="place" v="village" />
		<tag k="ssr:stedsnr" v="90461" />
	</node>
	<node id="-774713" lat="64.2186888902" lon="12.4009444383">
		<tag k="name" v="Plassen" />
		<tag k="name:no" v="Plassen" />
		<tag k="place" v="locality" />
		<tag k="ssr:stedsnr" v="90415" />
	</node>
	<node id="-774704" lat="64.1927638898" lon="12.3087916605">
		<tag k="name" v="Sararommet" />
		<tag k="name:no" v="Sararommet" />
		<tag k="place" v="locality" />
		<tag k="ssr:stedsnr" v="90339" />
	</node>
	<node id="-774703" lat="64.2643722186" lon="12.2561638973">
		<tag k="name" v="Bursveddet" />
		<tag k="name:no" v="Bursveddet" />
		<tag k="place" v="locality" />
		<tag k="ssr:stedsnr" v="90333" />
	</node>
	<node id="-774702" lat="64.2634472255" lon="12.2344277681">
		<tag k="historic" v="shieling" />
		<tag k="name" v="Framseteren" />
		<tag k="name:no" v="Framseteren" />
		<tag k="place" v="locality" />
		<tag k="ssr:stedsnr" v="90327" />
	</node>
	<node id="-774701" lat="64.2720555599" lon="12.2421083424">
		<tag k="historic" v="shieling" />
		<tag k="name" v="Grubbseteren" />
		<tag k="name:no" v="Grubbseteren" />
		<tag k="place" v="locality" />
		<tag k="ssr:stedsnr" v="90320" />
	</node>
	<node id="-774698" lat="64.1919055537" lon="12.2743083285">
		<tag k="name" v="Andreastrøa" />
		<tag k="name:no" v="Andreastrøa" />
		<tag k="place" v="locality" />
		<tag k="ssr:stedsnr" v="90266" />
	</node>
	<node id="-774684" lat="64.2497944481" lon="12.440788891">
		<tag k="name" v="Navlus" />
		<tag k="name:no" v="Navlus" />
>>>>>>> e1d4bc35ff8a6074a6f2e91616a996b547c36f15
		<tag k="place" v="farm" />
		<tag k="ssr:stedsnr" v="620368" />
	</node>
<<<<<<< HEAD
	<node lat="64.22275833485686" lon="11.99773333916236" id="-36334">
=======
	<node id="-774677" lat="64.1972444413" lon="12.5502111111">
>>>>>>> e1d4bc35ff8a6074a6f2e91616a996b547c36f15
		<tag k="historic" v="shieling" />
		<tag k="name" v="Hammerseteren" />
		<tag k="name:no" v="Hammerseteren" />
		<tag k="place" v="isolated_dwelling" />
		<tag k="ssr:stedsnr" v="620371" />
	</node>
<<<<<<< HEAD
	<node lat="64.3209777816162" lon="12.530200010432793" id="-36335">
		<tag k="historic" v="shieling" />
		<tag k="name" v="Buråsseteren" />
		<tag k="name:no" v="Buråsseteren" />
		<tag k="place" v="isolated_dwelling" />
		<tag k="ssr:stedsnr" v="620380" />
	</node>
	<node lat="64.32612221776284" lon="12.349813894338148" id="-36336">
		<tag k="name" v="Heiås" />
		<tag k="name:no" v="Heiås" />
		<tag k="place" v="farm" />
		<tag k="ssr:stedsnr" v="620383" />
	</node>
	<node lat="64.33227500071223" lon="12.612308330112985" id="-36337">
=======
	<node id="-774672" lat="64.1925527811" lon="12.249630561">
		<tag k="name" v="Breidesmoen" />
		<tag k="name:no" v="Breidesmoen" />
		<tag k="place" v="farm" />
		<tag k="ssr:stedsnr" v="75540" />
	</node>
	<node id="-774671" lat="64.1944888872" lon="12.2934833239">
		<tag k="name" v="Bergheim" />
		<tag k="name:no" v="Bergheim" />
		<tag k="place" v="farm" />
		<tag k="ssr:stedsnr" v="75538" />
	</node>
	<node id="-774667" lat="64.3056500033" lon="12.3251250078">
		<tag k="historic" v="shieling" />
		<tag k="name" v="Gauslia" />
		<tag k="name:no" v="Gauslia" />
		<tag k="place" v="locality" />
		<tag k="ssr:stedsnr" v="75432" />
	</node>
	<node id="-774666" lat="64.2890777781" lon="12.2345083398">
		<tag k="alt_name:no" v="Vegsetseteren" />
>>>>>>> e1d4bc35ff8a6074a6f2e91616a996b547c36f15
		<tag k="historic" v="shieling" />
		<tag k="name" v="Ryggvollseteren" />
		<tag k="name:no" v="Ryggvollseteren" />
		<tag k="place" v="isolated_dwelling" />
		<tag k="ssr:stedsnr" v="620385" />
	</node>
<<<<<<< HEAD
	<node lat="64.31944999560785" lon="12.668300001298807" id="-36338">
		<tag k="historic" v="shieling" />
		<tag k="name" v="Skjørsjøhaugen" />
		<tag k="name:no" v="Skjørsjøhaugen" />
		<tag k="place" v="isolated_dwelling" />
		<tag k="ssr:stedsnr" v="620387" />
	</node>
	<node lat="64.20971111368515" lon="12.553461107365674" id="-36339">
		<tag k="historic" v="shieling" />
		<tag k="name" v="Svarttjønnseteren" />
		<tag k="name:no" v="Svarttjønnseteren" />
		<tag k="place" v="isolated_dwelling" />
		<tag k="ssr:stedsnr" v="620511" />
	</node>
	<node lat="64.24713033110045" lon="12.433195741857194" id="-36341">
=======
	<node id="-774665" lat="64.2940999961" lon="12.5924000046">
		<tag k="name" v="Skjermoen" />
		<tag k="name:no" v="Skjermoen" />
		<tag k="place" v="farm" />
		<tag k="ssr:stedsnr" v="75418" />
	</node>
	<node id="-773206" lat="64.2671361073" lon="12.3458666572">
		<tag k="fixme" v="consider place=hamlet" />
		<tag k="name" v="Horjem" />
		<tag k="name:no" v="Horjem" />
		<tag k="place" v="farm" />
		<tag k="ssr:stedsnr" v="439341" />
	</node>
	<node id="-774658" lat="64.2759583353" lon="12.5228749957">
>>>>>>> e1d4bc35ff8a6074a6f2e91616a996b547c36f15
		<tag k="fixme" v="consider place=hamlet" />
		<tag k="name" v="Navlus" />
		<tag k="name:no" v="Navlus" />
		<tag k="place" v="farm" />
		<tag k="ssr:stedsnr" v="620669" />
	</node>
<<<<<<< HEAD
	<node lat="64.23322222335" lon="12.293258340012017" id="-36343">
		<tag k="name" v="Granamoen" />
		<tag k="name:no" v="Granamoen" />
=======
	<node id="-774656" lat="64.3098500018" lon="12.3572749911">
		<tag k="name" v="Fokra" />
		<tag k="name:no" v="Fokra" />
>>>>>>> e1d4bc35ff8a6074a6f2e91616a996b547c36f15
		<tag k="place" v="farm" />
		<tag k="ssr:stedsnr" v="620673" />
	</node>
<<<<<<< HEAD
	<node lat="64.23874999707957" lon="12.362461119168401" id="-36344">
		<tag k="alt_name:no" v="Øvre Svarva;Svarva øvre" />
		<tag k="name" v="Svarva" />
		<tag k="name:no" v="Svarva" />
		<tag k="place" v="farm" />
		<tag k="ssr:stedsnr" v="620678" />
	</node>
	<node lat="64.22288888455526" lon="12.260325000773369" id="-36345">
		<tag k="name" v="Øversveddet" />
		<tag k="name:no" v="Øversveddet" />
		<tag k="place" v="farm" />
		<tag k="ssr:stedsnr" v="620719" />
	</node>
	<node lat="64.23593333640594" lon="12.369522231483405" id="-36351">
		<tag k="name" v="Svarva" />
		<tag k="name:no" v="Svarva" />
=======
	<node id="-774644" lat="64.2395361135" lon="12.6743305496">
		<tag k="historic" v="shieling" />
		<tag k="name" v="Kovasseteren" />
		<tag k="name:no" v="Kovasseteren" />
		<tag k="place" v="locality" />
		<tag k="ssr:stedsnr" v="74696" />
	</node>
	<node id="-774643" lat="64.2438333296" lon="12.4028777724">
		<tag k="name" v="Forberg" />
		<tag k="name:no" v="Forberg" />
>>>>>>> e1d4bc35ff8a6074a6f2e91616a996b547c36f15
		<tag k="place" v="farm" />
		<tag k="ssr:stedsnr" v="635404" />
	</node>
<<<<<<< HEAD
	<node lat="64.20525832998703" lon="12.363211101099328" id="-36354">
		<tag k="name" v="Jakobaunet" />
		<tag k="name:no" v="Jakobaunet" />
=======
	<node id="-774636" lat="64.0826055593" lon="12.2625888951">
		<tag k="name" v="Mediåsseteren" />
		<tag k="name:no" v="Mediåsseteren" />
>>>>>>> e1d4bc35ff8a6074a6f2e91616a996b547c36f15
		<tag k="place" v="locality" />
		<tag k="ssr:stedsnr" v="635439" />
	</node>
<<<<<<< HEAD
	<node lat="64.21598055281552" lon="12.525122224368541" id="-36361">
		<tag k="historic" v="shieling" />
		<tag k="name" v="Belbumoseteren" />
		<tag k="name:no" v="Belbumoseteren" />
=======
	<node id="-774631" lat="64.1733777773" lon="12.6826694512">
		<tag k="alt_name:no" v="Svartbakkseteren" />
		<tag k="historic" v="shieling" />
		<tag k="name" v="Aunseteren" />
		<tag k="name:no" v="Aunseteren" />
		<tag k="place" v="locality" />
		<tag k="ssr:stedsnr" v="74547" />
	</node>
	<node id="-774630" lat="64.2698916659" lon="12.1849277745">
		<tag k="name" v="Langnesseteren" />
		<tag k="name:no" v="Langnesseteren" />
>>>>>>> e1d4bc35ff8a6074a6f2e91616a996b547c36f15
		<tag k="place" v="isolated_dwelling" />
		<tag k="ssr:stedsnr" v="655012" />
	</node>
<<<<<<< HEAD
	<node lat="64.29739444688185" lon="12.345377768189223" id="-36399">
		<tag k="building" v="industrial" />
		<tag k="name" v="Snåsa vannkilde" />
		<tag k="name:no" v="Snåsa vannkilde" />
		<tag k="ssr:stedsnr" v="709265" />
	</node>
	<node lat="64.24760555583352" lon="12.433413880541824" id="-36400">
		<tag k="name" v="Navlus" />
		<tag k="name:no" v="Navlus" />
		<tag k="place" v="farm" />
		<tag k="ssr:stedsnr" v="664104" />
	</node>
	<node lat="64.27555278089746" lon="12.551866661723336" id="-36402">
		<tag k="name" v="Gravbrøt" />
		<tag k="name:no" v="Gravbrøt" />
		<tag k="place" v="farm" />
		<tag k="ssr:stedsnr" v="681363" />
	</node>
	<node lat="64.26488610887415" lon="12.271522217536853" id="-36403">
=======
	<node id="-774627" lat="64.1953749977" lon="12.1941638944">
		<tag k="name" v="Telneset" />
		<tag k="name:no" v="Telneset" />
		<tag k="place" v="farm" />
		<tag k="ssr:stedsnr" v="74498" />
	</node>
	<node id="-774625" lat="64.1767166672" lon="12.0984999997">
		<tag k="name" v="Austmoen" />
		<tag k="name:no" v="Austmoen" />
		<tag k="place" v="farm" />
		<tag k="ssr:stedsnr" v="74446" />
	</node>
	<node id="-774623" lat="64.227533332" lon="11.9692861073">
		<tag k="alt_name:no" v="Hammerseteren" />
		<tag k="historic" v="shieling" />
		<tag k="name" v="Bustadhaugen" />
		<tag k="name:no" v="Bustadhaugen" />
		<tag k="place" v="locality" />
		<tag k="ssr:stedsnr" v="74398" />
	</node>
	<node id="-774622" lat="64.2099416677" lon="12.0298250041">
		<tag k="name" v="Brunes" />
		<tag k="name:no" v="Brunes" />
		<tag k="place" v="farm" />
		<tag k="ssr:stedsnr" v="74371" />
	</node>
	<node id="-774621" lat="64.2664277814" lon="12.5534333317">
		<tag k="name" v="Almo fellesbeite" />
		<tag k="name:no" v="Almo fellesbeite" />
		<tag k="place" v="isolated_dwelling" />
		<tag k="ssr:stedsnr" v="74360" />
	</node>
	<node id="-774619" lat="64.2421472238" lon="12.5073527706">
>>>>>>> e1d4bc35ff8a6074a6f2e91616a996b547c36f15
		<tag k="fixme" v="consider place=hamlet" />
		<tag k="name" v="Vegset" />
		<tag k="name:no" v="Vegset" />
		<tag k="place" v="farm" />
		<tag k="ssr:stedsnr" v="681365" />
	</node>
<<<<<<< HEAD
	<node lat="64.26058888960884" lon="12.244311109773703" id="-36404">
		<tag k="name" v="Oldervika" />
		<tag k="name:no" v="Oldervika" />
=======
	<node id="-774618" lat="64.2400583294" lon="12.4717833227">
		<tag k="fixme" v="consider place=hamlet" />
		<tag k="name" v="Aun" />
		<tag k="name:no" v="Aun" />
>>>>>>> e1d4bc35ff8a6074a6f2e91616a996b547c36f15
		<tag k="place" v="farm" />
		<tag k="ssr:stedsnr" v="681366" />
	</node>
<<<<<<< HEAD
	<node lat="64.19098611219235" lon="12.349544449757754" id="-36407">
		<tag k="name" v="Kjenstadbakken" />
		<tag k="name:no" v="Kjenstadbakken" />
=======
	<node id="-774616" lat="64.210508334" lon="12.2297916684">
		<tag k="fixme" v="consider place=hamlet" />
		<tag k="name" v="Finnsås" />
		<tag k="name:no" v="Finnsås" />
>>>>>>> e1d4bc35ff8a6074a6f2e91616a996b547c36f15
		<tag k="place" v="farm" />
		<tag k="ssr:stedsnr" v="681512" />
	</node>
<<<<<<< HEAD
	<node lat="64.30276389210303" lon="13.009069445467757" id="-36408">
		<tag k="fixme" v="consider place=hamlet" />
		<tag k="name" v="Gressåmoen" />
		<tag k="name:no" v="Gressåmoen" />
		<tag k="place" v="farm" />
		<tag k="ssr:stedsnr" v="681257" />
	</node>
	<node lat="64.1379805578101" lon="12.178733327750198" id="-36409">
		<tag k="name" v="Mikalstuggu" />
		<tag k="name:no" v="Mikalstuggu" />
		<tag k="place" v="isolated_dwelling" />
		<tag k="ssr:stedsnr" v="681271" />
	</node>
	<node lat="64.32326111152425" lon="12.593275009510302" id="-36410">
=======
	<node id="-774615" lat="64.2721472235" lon="12.2960999916">
		<tag k="fixme" v="consider place=hamlet" />
		<tag k="name" v="Bruvollen" />
		<tag k="name:no" v="Bruvollen" />
		<tag k="place" v="farm" />
		<tag k="ssr:stedsnr" v="60360" />
	</node>
	<node id="-774614" lat="64.2034388865" lon="12.2516166664">
		<tag k="alt_name:no" v="Breide nordre" />
		<tag k="name" v="Nordre Breide" />
		<tag k="name:no" v="Nordre Breide" />
		<tag k="place" v="farm" />
		<tag k="ssr:stedsnr" v="57708" />
	</node>
	<node id="-774596" lat="64.1650555581" lon="12.2578083259">
		<tag k="name" v="Ratseteren" />
		<tag k="name:no" v="Ratseteren" />
		<tag k="place" v="isolated_dwelling" />
		<tag k="ssr:stedsnr" v="49517" />
	</node>
	<node id="-774566" lat="64.3149500026" lon="12.3595916762">
>>>>>>> e1d4bc35ff8a6074a6f2e91616a996b547c36f15
		<tag k="historic" v="shieling" />
		<tag k="name" v="Landsemseteren" />
		<tag k="name:no" v="Landsemseteren" />
		<tag k="place" v="isolated_dwelling" />
		<tag k="ssr:stedsnr" v="681415" />
	</node>
<<<<<<< HEAD
	<node lat="64.32732500014819" lon="12.707549991827653" id="-36411">
		<tag k="name" v="Ryggvollseteren" />
		<tag k="name:no" v="Ryggvollseteren" />
		<tag k="place" v="isolated_dwelling" />
		<tag k="ssr:stedsnr" v="681419" />
	</node>
	<node lat="64.24009167054436" lon="12.41525554663487" id="-36415">
		<tag k="name" v="Vestre Bergsmoen" />
		<tag k="name:no" v="Vestre Bergsmoen" />
		<tag k="place" v="farm" />
		<tag k="ssr:stedsnr" v="681704" />
	</node>
	<node lat="64.21050833404284" lon="12.229791668385541" id="-36417">
		<tag k="name" v="Finnsås" />
		<tag k="name:no" v="Finnsås" />
		<tag k="place" v="farm" />
		<tag k="ssr:stedsnr" v="681762" />
	</node>
	<node lat="64.19876666915097" lon="12.278169445936577" id="-36425">
		<tag k="name" v="Minsås" />
		<tag k="name:no" v="Minsås" />
=======
	<node id="-774529" lat="64.2345500036" lon="12.4608833402">
		<tag k="name" v="Eggenmoen" />
		<tag k="name:no" v="Eggenmoen" />
		<tag k="place" v="locality" />
		<tag k="ssr:stedsnr" v="29508" />
	</node>
	<node id="-774528" lat="64.241949999" lon="12.4887388978">
		<tag k="name" v="Aunet" />
		<tag k="name:no" v="Aunet" />
		<tag k="place" v="farm" />
		<tag k="ssr:stedsnr" v="29507" />
	</node>
	<node id="-773184" lat="64.1597416671" lon="12.2965000022">
		<tag k="name" v="Rennanseteren" />
		<tag k="name:no" v="Rennanseteren" />
		<tag k="place" v="locality" />
		<tag k="ssr:stedsnr" v="196506" />
	</node>
	<node id="-774526" lat="64.2487972244" lon="12.399947217">
		<tag k="name" v="Reitvolllen" />
		<tag k="name:no" v="Reitvolllen" />
		<tag k="place" v="locality" />
		<tag k="ssr:stedsnr" v="29501" />
	</node>
	<node id="-774522" lat="64.2076833313" lon="12.2989305558">
		<tag k="name" v="Brorplassen" />
		<tag k="name:no" v="Brorplassen" />
		<tag k="place" v="locality" />
		<tag k="ssr:stedsnr" v="29417" />
	</node>
	<node id="-772942" lat="64.254833336" lon="12.6176749917">
		<tag k="historic" v="shieling" />
		<tag k="name" v="Mollanseteren" />
		<tag k="name:no" v="Mollanseteren" />
		<tag k="place" v="locality" />
		<tag k="ssr:stedsnr" v="256326" />
	</node>
	<node id="-774520" lat="64.2288083364" lon="12.3130638983">
		<tag k="name" v="Granamoen" />
		<tag k="name:no" v="Granamoen" />
		<tag k="place" v="locality" />
		<tag k="ssr:stedsnr" v="29395" />
	</node>
	<node id="-774519" lat="64.234477774" lon="12.333530549">
		<tag k="name" v="Forset" />
		<tag k="name:no" v="Forset" />
>>>>>>> e1d4bc35ff8a6074a6f2e91616a996b547c36f15
		<tag k="place" v="locality" />
		<tag k="ssr:stedsnr" v="696303" />
	</node>
<<<<<<< HEAD
	<node lat="64.2410138908238" lon="12.351705546695037" id="-36426">
		<tag k="name" v="Hireiten" />
		<tag k="name:no" v="Hireiten" />
=======
	<node id="-774517" lat="64.2428833349" lon="12.355608341">
		<tag k="name" v="Vinjeberga" />
		<tag k="name:no" v="Vinjeberga" />
>>>>>>> e1d4bc35ff8a6074a6f2e91616a996b547c36f15
		<tag k="place" v="quarter" />
		<tag k="ssr:stedsnr" v="696405" />
	</node>
<<<<<<< HEAD
	<node lat="64.26993055502204" lon="12.313097225491685" id="-36429">
		<tag k="alt_name:no" v="Moum østre" />
		<tag k="name" v="Østre Moum" />
		<tag k="name:no" v="Østre Moum" />
		<tag k="place" v="farm" />
		<tag k="ssr:stedsnr" v="696470" />
	</node>
	<node lat="64.26493055927659" lon="12.355291659040166" id="-36432">
		<tag k="name" v="Bakketun" />
		<tag k="name:no" v="Bakketun" />
=======
	<node id="-774514" lat="64.196472226" lon="12.3252388854">
		<tag k="name" v="Storlorntsrommet" />
		<tag k="name:no" v="Storlorntsrommet" />
		<tag k="place" v="locality" />
		<tag k="ssr:stedsnr" v="29369" />
	</node>
	<node id="-774513" lat="64.1935472237" lon="12.3019749951">
		<tag k="name" v="Gifstadberg" />
		<tag k="name:no" v="Gifstadberg" />
>>>>>>> e1d4bc35ff8a6074a6f2e91616a996b547c36f15
		<tag k="place" v="farm" />
		<tag k="ssr:stedsnr" v="696482" />
	</node>
<<<<<<< HEAD
	<node lat="64.24095832875368" lon="12.475263895080541" id="-36434">
		<tag k="name" v="Aun" />
		<tag k="name:no" v="Aun" />
=======
	<node id="-774512" lat="64.2651638852" lon="12.2840333404">
		<tag k="name" v="Vegsetmoen" />
		<tag k="name:no" v="Vegsetmoen" />
>>>>>>> e1d4bc35ff8a6074a6f2e91616a996b547c36f15
		<tag k="place" v="farm" />
		<tag k="ssr:stedsnr" v="696529" />
	</node>
<<<<<<< HEAD
	<node lat="64.31266944824175" lon="12.5607944361746" id="-36479">
		<tag k="name" v="Furset" />
		<tag k="name:no" v="Furset" />
		<tag k="place" v="farm" />
		<tag k="ssr:stedsnr" v="716312" />
	</node>
	<node lat="64.01341666268331" lon="12.286822217540324" id="-36483">
		<tag k="name" v="Nikolaivollen" />
		<tag k="name:no" v="Nikolaivollen" />
=======
	<node id="-774511" lat="64.2707388893" lon="12.2638249937">
		<tag k="historic" v="shieling" />
		<tag k="name" v="Båsdalsvollen" />
		<tag k="name:no" v="Båsdalsvollen" />
>>>>>>> e1d4bc35ff8a6074a6f2e91616a996b547c36f15
		<tag k="place" v="locality" />
		<tag k="ssr:stedsnr" v="716339" />
	</node>
<<<<<<< HEAD
	<node lat="64.23875833156514" lon="12.15423056452719" id="-36489">
		<tag k="fixme" v="consider place=hamlet" />
		<tag k="name" v="Mølnvika" />
		<tag k="name:no" v="Mølnvika" />
=======
	<node id="-774502" lat="64.204008337" lon="12.3429500051">
		<tag k="name" v="Trøa" />
		<tag k="name:no" v="Trøa" />
>>>>>>> e1d4bc35ff8a6074a6f2e91616a996b547c36f15
		<tag k="place" v="farm" />
		<tag k="ssr:stedsnr" v="716372" />
	</node>
<<<<<<< HEAD
	<node lat="64.34658333591513" lon="12.76218332587123" id="-36494">
		<tag k="historic" v="shieling" />
		<tag k="name" v="Mossetran" />
		<tag k="name:no" v="Mossetran" />
=======
	<node id="-774497" lat="64.1706666652" lon="12.7355333364">
		<tag k="name" v="Skogmoseteren" />
		<tag k="name:no" v="Skogmoseteren" />
>>>>>>> e1d4bc35ff8a6074a6f2e91616a996b547c36f15
		<tag k="place" v="isolated_dwelling" />
		<tag k="ssr:stedsnr" v="716598" />
	</node>
<<<<<<< HEAD
	<node lat="64.26964444323023" lon="12.794047218573319" id="-36533">
		<tag k="name" v="Andortjønnseteren" />
		<tag k="name:no" v="Andortjønnseteren" />
		<tag k="place" v="isolated_dwelling" />
		<tag k="ssr:stedsnr" v="741310" />
	</node>
	<node lat="64.17106388492246" lon="12.521011119359914" id="-36534">
		<tag k="historic" v="shieling" />
		<tag k="name" v="Hylla" />
		<tag k="name:no" v="Hylla" />
=======
	<node id="-774494" lat="64.2347666687" lon="12.9082694469">
		<tag k="name" v="Storåsseteren" />
		<tag k="name:no" v="Storåsseteren" />
		<tag k="place" v="locality" />
		<tag k="ssr:stedsnr" v="14860" />
	</node>
	<node id="-774488" lat="64.0918527759" lon="12.8488666611">
		<tag k="name" v="Storliseteren" />
		<tag k="name:no" v="Storliseteren" />
		<tag k="place" v="locality" />
		<tag k="ssr:stedsnr" v="14969" />
	</node>
	<node id="-774487" lat="64.1373583688" lon="12.8770584871">
		<tag k="name" v="Kaurinhytta" />
		<tag k="name:no" v="Kaurinhytta" />
>>>>>>> e1d4bc35ff8a6074a6f2e91616a996b547c36f15
		<tag k="place" v="isolated_dwelling" />
		<tag k="ssr:stedsnr" v="741639" />
	</node>
	<node lat="64.10188055948723" lon="12.197172219469268" id="-36536">
		<tag k="name" v="Raudbeinseteren" />
		<tag k="name:no" v="Raudbeinseteren" />
		<tag k="place" v="locality" />
		<tag k="ssr:stedsnr" v="742339" />
	</node>
<<<<<<< HEAD
	<node lat="64.20572500204146" lon="12.328997222682245" id="-36538">
		<tag k="name" v="Høgstad" />
		<tag k="name:no" v="Høgstad" />
=======
	<node id="-774482" lat="64.24591111" lon="12.3596888861">
		<tag k="name" v="Vinjetrøa" />
		<tag k="name:no" v="Vinjetrøa" />
>>>>>>> e1d4bc35ff8a6074a6f2e91616a996b547c36f15
		<tag k="place" v="farm" />
		<tag k="ssr:stedsnr" v="742492" />
	</node>
<<<<<<< HEAD
	<node lat="64.23327221837755" lon="12.352358335534063" id="-36547">
		<tag k="fixme" v="consider place=hamlet" />
		<tag k="name" v="Våg" />
		<tag k="name:no" v="Våg" />
=======
	<node id="-774479" lat="64.2034194406" lon="12.3248055604">
		<tag k="name" v="Sørli" />
		<tag k="name:no" v="Sørli" />
>>>>>>> e1d4bc35ff8a6074a6f2e91616a996b547c36f15
		<tag k="place" v="farm" />
		<tag k="ssr:stedsnr" v="742704" />
	</node>
<<<<<<< HEAD
	<node lat="64.2315479122131" lon="12.32538608995054" id="-36548">
		<tag k="fixme" v="consider place=hamlet" />
		<tag k="name" v="Parnas" />
		<tag k="name:no" v="Parnas" />
		<tag k="place" v="farm" />
		<tag k="ssr:stedsnr" v="742710" />
	</node>
	<node lat="64.02273333136822" lon="12.349033329765296" id="-36553">
		<tag k="name" v="Åsvasseteren" />
		<tag k="name:no" v="Åsvasseteren" />
		<tag k="place" v="isolated_dwelling" />
		<tag k="ssr:stedsnr" v="742887" />
	</node>
	<node lat="64.22630277977036" lon="12.252794449416466" id="-36565">
		<tag k="name" v="Perønningen" />
		<tag k="name:no" v="Perønningen" />
		<tag k="place" v="locality" />
		<tag k="ssr:stedsnr" v="757305" />
	</node>
	<node lat="64.22274999947948" lon="12.245788889866704" id="-36568">
		<tag k="name" v="Svedda" />
		<tag k="name:no" v="Svedda" />
=======
	<node id="-774477" lat="64.1938861083" lon="12.2752694393">
		<tag k="name" v="Kleivmoen" />
		<tag k="name:no" v="Kleivmoen" />
		<tag k="place" v="farm" />
		<tag k="ssr:stedsnr" v="14450" />
	</node>
	<node id="-774476" lat="64.3615861104" lon="12.3770611138">
		<tag k="name" v="Tjennaråsseteren" />
		<tag k="name:no" v="Tjennaråsseteren" />
		<tag k="place" v="locality" />
		<tag k="ssr:stedsnr" v="14379" />
	</node>
	<node id="-772940" lat="64.254952781" lon="12.9522666702">
		<tag k="name" v="Gauptjønnseteren" />
		<tag k="name:no" v="Gauptjønnseteren" />
		<tag k="place" v="locality" />
		<tag k="ssr:stedsnr" v="256223" />
	</node>
	<node id="-774452" lat="64.3234262814" lon="12.6611470005">
		<tag k="name" v="Aglseteren" />
		<tag k="name:no" v="Aglseteren" />
		<tag k="place" v="locality" />
		<tag k="ssr:stedsnr" v="14335" />
	</node>
	<node id="-774451" lat="64.312805559" lon="12.5543833308">
		<tag k="name" v="Myrset" />
		<tag k="name:no" v="Myrset" />
		<tag k="place" v="isolated_dwelling" />
		<tag k="ssr:stedsnr" v="14334" />
	</node>
	<node id="-774450" lat="64.3149999975" lon="12.3773333336">
		<tag k="historic" v="shieling" />
		<tag k="name" v="Sandnes-Omlia" />
		<tag k="name:no" v="Sandnes-Omlia" />
>>>>>>> e1d4bc35ff8a6074a6f2e91616a996b547c36f15
		<tag k="place" v="locality" />
		<tag k="ssr:stedsnr" v="757297" />
	</node>
<<<<<<< HEAD
	<node lat="64.27730555700104" lon="12.591222219816364" id="-36584">
		<tag k="name" v="Botenmoen" />
		<tag k="name:no" v="Botenmoen" />
=======
	<node id="-774447" lat="64.1331166631" lon="12.8533083246">
		<tag k="historic" v="shieling" />
		<tag k="name" v="Langvasseteren" />
		<tag k="name:no" v="Langvasseteren" />
>>>>>>> e1d4bc35ff8a6074a6f2e91616a996b547c36f15
		<tag k="place" v="locality" />
		<tag k="ssr:stedsnr" v="757608" />
	</node>
<<<<<<< HEAD
	<node lat="64.30783333011507" lon="12.482011107057483" id="-36588">
		<tag k="name" v="Larsrønningen" />
		<tag k="name:no" v="Larsrønningen" />
		<tag k="place" v="isolated_dwelling" />
		<tag k="ssr:stedsnr" v="776015" />
	</node>
	<node lat="64.23233333115911" lon="12.105736115645904" id="-36593">
		<tag k="name" v="Heimsjøvollen" />
		<tag k="name:no" v="Heimsjøvollen" />
		<tag k="place" v="isolated_dwelling" />
		<tag k="ssr:stedsnr" v="776361" />
	</node>
	<node lat="64.27058611126778" lon="12.309933327650748" id="-36611">
=======
	<node id="-774443" lat="64.2259472254" lon="12.3968638946">
		<tag k="name" v="Vollsmoen" />
		<tag k="name:no" v="Vollsmoen" />
		<tag k="place" v="farm" />
		<tag k="ssr:stedsnr" v="13733" />
	</node>
	<node id="-774442" lat="64.2318361095" lon="12.3922083406">
		<tag k="name" v="Murbrekk" />
		<tag k="name:no" v="Murbrekk" />
		<tag k="place" v="farm" />
		<tag k="ssr:stedsnr" v="13729" />
	</node>
	<node id="-774440" lat="64.2591527785" lon="12.5714500023">
>>>>>>> e1d4bc35ff8a6074a6f2e91616a996b547c36f15
		<tag k="fixme" v="consider place=hamlet" />
		<tag k="name" v="Moum" />
		<tag k="name:no" v="Moum" />
		<tag k="place" v="farm" />
		<tag k="ssr:stedsnr" v="910355" />
	</node>
<<<<<<< HEAD
	<node lat="64.25026388901344" lon="12.387716662704007" id="-36612">
		<tag k="fixme" v="consider place=hamlet" />
		<tag k="name" v="Støvra" />
		<tag k="name:no" v="Støvra" />
=======
	<node id="-774438" lat="64.2518138904" lon="12.4547388992">
		<tag k="name" v="Lunde" />
		<tag k="name:no" v="Lunde" />
>>>>>>> e1d4bc35ff8a6074a6f2e91616a996b547c36f15
		<tag k="place" v="farm" />
		<tag k="ssr:stedsnr" v="910346" />
	</node>
<<<<<<< HEAD
	<node lat="64.2041833345708" lon="12.162794436632081" id="-36613">
		<tag k="name" v="Ålneset" />
		<tag k="name:no" v="Ålneset" />
		<tag k="place" v="farm" />
		<tag k="ssr:stedsnr" v="788615" />
	</node>
	<node lat="64.24195833649816" lon="12.493163879228804" id="-36614">
=======
	<node id="-774437" lat="64.1713361144" lon="12.538411118">
		<tag k="alt_name:no" v="Hyllmoseteren" />
		<tag k="historic" v="shieling" />
		<tag k="name" v="Hyllmoen" />
		<tag k="name:no" v="Hyllmoen" />
		<tag k="place" v="locality" />
		<tag k="ssr:stedsnr" v="13563" />
	</node>
	<node id="-774436" lat="64.1595220394" lon="12.4705711038">
>>>>>>> e1d4bc35ff8a6074a6f2e91616a996b547c36f15
		<tag k="fixme" v="consider place=hamlet" />
		<tag k="name" v="Skavlan" />
		<tag k="name:no" v="Skavlan" />
		<tag k="place" v="farm" />
		<tag k="ssr:stedsnr" v="788669" />
	</node>
<<<<<<< HEAD
	<node lat="64.25023332907809" lon="12.454969438353807" id="-36616">
		<tag k="name" v="Navlusaunet" />
		<tag k="name:no" v="Navlusaunet" />
		<tag k="place" v="farm" />
		<tag k="ssr:stedsnr" v="802403" />
	</node>
	<node lat="64.27887500044852" lon="12.684408339492686" id="-36621">
		<tag k="historic" v="shieling" />
		<tag k="name" v="Mollanseteren" />
		<tag k="name:no" v="Mollanseteren" />
		<tag k="place" v="isolated_dwelling" />
		<tag k="ssr:stedsnr" v="803377" />
	</node>
	<node lat="64.21208333135131" lon="12.303494435086309" id="-36624">
		<tag k="fixme" v="consider place=hamlet" />
		<tag k="name" v="Mediås" />
		<tag k="name:no" v="Mediås" />
		<tag k="place" v="farm" />
		<tag k="ssr:stedsnr" v="803511" />
	</node>
	<node lat="64.1953333363028" lon="12.231069447424124" id="-36632">
		<tag k="name" v="Trøan" />
		<tag k="name:no" v="Trøan" />
=======
	<node id="-774431" lat="64.2192747712" lon="12.9296700621">
		<tag k="fixme" v="consider tourism=alpine_hut or tourism=chalet" />
		<tag k="name" v="Seisjøen skogstue" />
		<tag k="ssr:stedsnr" v="982344" />
		<tag k="tourism" v="wilderness_hut" />
	</node>
	<node id="-774430" lat="64.2267002343" lon="12.9164716467">
		<tag k="fixme" v="consider tourism=alpine_hut or tourism=chalet" />
		<tag k="name" v="Seisjøen jaktstue" />
		<tag k="ssr:stedsnr" v="982338" />
		<tag k="tourism" v="wilderness_hut" />
	</node>
	<node id="-774408" lat="64.2688055592" lon="12.3862277687">
		<tag k="name" v="Åbakken" />
		<tag k="name:no" v="Åbakken" />
>>>>>>> e1d4bc35ff8a6074a6f2e91616a996b547c36f15
		<tag k="place" v="locality" />
		<tag k="ssr:stedsnr" v="818310" />
	</node>
<<<<<<< HEAD
	<node lat="64.20874721957395" lon="12.183352772415889" id="-36636">
		<tag k="name" v="Fjellvika" />
		<tag k="name:no" v="Fjellvika" />
=======
	<node id="-774405" lat="64.2352666673" lon="12.3773666763">
		<tag k="name" v="Prestmoen" />
		<tag k="name:no" v="Prestmoen" />
>>>>>>> e1d4bc35ff8a6074a6f2e91616a996b547c36f15
		<tag k="place" v="farm" />
		<tag k="ssr:stedsnr" v="924457" />
	</node>
<<<<<<< HEAD
	<node lat="64.13693055981412" lon="12.375113893192873" id="-36638">
		<tag k="name" v="Myrskardseteren" />
		<tag k="name:no" v="Myrskardseteren" />
		<tag k="place" v="isolated_dwelling" />
		<tag k="ssr:stedsnr" v="924543" />
	</node>
	<node lat="64.16050555628941" lon="12.63815554862944" id="-36639">
		<tag k="name" v="Grønliseteren" />
		<tag k="name:no" v="Grønliseteren" />
		<tag k="place" v="isolated_dwelling" />
		<tag k="ssr:stedsnr" v="924545" />
	</node>
	<node lat="64.12636388672703" lon="12.449202772240433" id="-36641">
=======
	<node id="-774404" lat="64.1582805523" lon="12.4644138912">
		<tag k="name" v="Åsheim" />
		<tag k="name:no" v="Åsheim" />
		<tag k="place" v="farm" />
		<tag k="ssr:stedsnr" v="936141" />
	</node>
	<node id="-774392" lat="64.1263638867" lon="12.4492027722">
>>>>>>> e1d4bc35ff8a6074a6f2e91616a996b547c36f15
		<tag k="name" v="Tangseteren" />
		<tag k="name:no" v="Tangseteren" />
		<tag k="place" v="locality" />
		<tag k="ssr:stedsnr" v="924556" />
	</node>
<<<<<<< HEAD
	<node lat="64.29830555415809" lon="12.340750001609232" id="-36659">
		<tag k="historic" v="shieling" />
		<tag k="name" v="Korsvollan" />
		<tag k="name:no" v="Korsvollan" />
		<tag k="place" v="isolated_dwelling" />
		<tag k="ssr:stedsnr" v="924368" />
	</node>
	<node lat="64.31858055923394" lon="12.701647225688337" id="-36661">
		<tag k="historic" v="shieling" />
		<tag k="name" v="Bomosetran" />
		<tag k="name:no" v="Bomosetran" />
		<tag k="place" v="isolated_dwelling" />
		<tag k="ssr:stedsnr" v="924379" />
	</node>
	<node lat="64.29725000228302" lon="12.573274995459222" id="-36668">
=======
	<node id="-774390" lat="64.250263889" lon="12.3877166627">
		<tag k="fixme" v="consider place=hamlet" />
		<tag k="name" v="Støvra" />
		<tag k="name:no" v="Støvra" />
		<tag k="place" v="farm" />
		<tag k="ssr:stedsnr" v="910346" />
	</node>
	<node id="-773502" lat="64.3265499968" lon="12.6323000038">
		<tag k="historic" v="shieling" />
		<tag k="name" v="Bergsseteren" />
		<tag k="name:no" v="Bergsseteren" />
		<tag k="place" v="locality" />
		<tag k="ssr:stedsnr" v="499354" />
	</node>
	<node id="-774360" lat="64.2792361092" lon="12.5958000046">
		<tag k="name" v="Østre Skromoen" />
		<tag k="name:no" v="Østre Skromoen" />
		<tag k="place" v="farm" />
		<tag k="ssr:stedsnr" v="886315" />
	</node>
	<node id="-774521" lat="64.2301083354" lon="12.3436250002">
		<tag k="name" v="Vågsmoen" />
		<tag k="name:no" v="Vågsmoen" />
		<tag k="place" v="locality" />
		<tag k="ssr:stedsnr" v="29399" />
	</node>
	<node id="-774354" lat="64.2455472193" lon="12.3834361099">
		<tag k="name" v="Rishaugen" />
		<tag k="name:no" v="Rishaugen" />
		<tag k="place" v="quarter" />
		<tag k="ssr:stedsnr" v="879462" />
	</node>
	<node id="-774351" lat="64.2775611116" lon="12.4344333308">
		<tag k="name" v="Solås" />
		<tag k="name:no" v="Solås" />
		<tag k="place" v="farm" />
		<tag k="ssr:stedsnr" v="864417" />
	</node>
	<node id="-774350" lat="64.2722111103" lon="12.393247224">
		<tag k="alt_name:no" v="Ytre Dravlan;Dravlan ytre" />
		<tag k="name" v="Dravlan" />
		<tag k="name:no" v="Dravlan" />
		<tag k="place" v="farm" />
		<tag k="ssr:stedsnr" v="864415" />
	</node>
	<node id="-773209" lat="64.2974833371" lon="12.3001583423">
		<tag k="historic" v="shieling" />
		<tag k="name" v="Moumsseteren" />
		<tag k="name:no" v="Moumsseteren" />
		<tag k="place" v="locality" />
		<tag k="ssr:stedsnr" v="439383" />
	</node>
	<node id="-774345" lat="64.2231638882" lon="12.5554972157">
>>>>>>> e1d4bc35ff8a6074a6f2e91616a996b547c36f15
		<tag k="historic" v="shieling" />
		<tag k="name" v="Frebergseteren" />
		<tag k="name:no" v="Frebergseteren" />
		<tag k="place" v="isolated_dwelling" />
		<tag k="ssr:stedsnr" v="924381" />
	</node>
<<<<<<< HEAD
	<node lat="64.23903333147683" lon="12.153325009047627" id="-36674">
		<tag k="name" v="Nordheim" />
		<tag k="name:no" v="Nordheim" />
		<tag k="place" v="isolated_dwelling" />
		<tag k="ssr:stedsnr" v="924401" />
	</node>
	<node lat="64.2546499966217" lon="12.20625832716556" id="-36676">
		<tag k="name" v="Lysheim" />
		<tag k="name:no" v="Lysheim" />
=======
	<node id="-774343" lat="64.2349861145" lon="12.4911249936">
		<tag k="name" v="Skogmo" />
		<tag k="name:no" v="Skogmo" />
>>>>>>> e1d4bc35ff8a6074a6f2e91616a996b547c36f15
		<tag k="place" v="farm" />
		<tag k="ssr:stedsnr" v="838503" />
	</node>
<<<<<<< HEAD
	<node lat="64.2721472234967" lon="12.296099991586628" id="-36681">
		<tag k="name" v="Bruvollen" />
		<tag k="name:no" v="Bruvollen" />
=======
	<node id="-774342" lat="64.2289722188" lon="12.4094805548">
		<tag k="name" v="Dælimoen" />
		<tag k="name:no" v="Dælimoen" />
>>>>>>> e1d4bc35ff8a6074a6f2e91616a996b547c36f15
		<tag k="place" v="farm" />
		<tag k="ssr:stedsnr" v="924354" />
	</node>
<<<<<<< HEAD
	<node lat="64.21133611199109" lon="12.042419451291023" id="-36683">
=======
	<node id="-774338" lat="64.2394859002" lon="12.452053844">
>>>>>>> e1d4bc35ff8a6074a6f2e91616a996b547c36f15
		<tag k="fixme" v="consider place=hamlet" />
		<tag k="name" v="Hammer" />
		<tag k="name:no" v="Hammer" />
		<tag k="place" v="farm" />
<<<<<<< HEAD
		<tag k="ssr:stedsnr" v="924358" />
	</node>
	<node lat="64.28767500185806" lon="12.670574990880562" id="-36684">
		<tag k="historic" v="shieling" />
		<tag k="name" v="Skromoseteren" />
		<tag k="name:no" v="Skromoseteren" />
		<tag k="place" v="isolated_dwelling" />
		<tag k="ssr:stedsnr" v="924360" />
	</node>
	<node lat="64.27398889121972" lon="12.287397231389347" id="-36685">
		<tag k="name" v="Melan" />
		<tag k="name:no" v="Melan" />
		<tag k="old_name:no" v="Mollan" />
=======
		<tag k="ssr:stedsnr" v="863703" />
	</node>
	<node id="-774331" lat="64.2805166686" lon="12.5182499908">
		<tag k="name" v="Aglemoen" />
		<tag k="name:no" v="Aglemoen" />
		<tag k="place" v="locality" />
		<tag k="ssr:stedsnr" v="939577" />
	</node>
	<node id="-774330" lat="64.2787194475" lon="12.527049998">
		<tag k="amenity" v="school" />
		<tag k="name" v="Snåsa montessoriskole" />
		<tag k="name:no" v="Snåsa montessoriskole" />
		<tag k="old_name:no" v="Agle skole" />
		<tag k="ssr:stedsnr" v="939576" />
	</node>
	<node id="-774322" lat="64.2277916673" lon="12.302505557">
		<tag k="alt_name:no" v="Brønstad østre" />
		<tag k="name" v="Østre Brønstad" />
		<tag k="name:no" v="Østre Brønstad" />
>>>>>>> e1d4bc35ff8a6074a6f2e91616a996b547c36f15
		<tag k="place" v="farm" />
		<tag k="ssr:stedsnr" v="924361" />
	</node>
<<<<<<< HEAD
	<node lat="64.22768333481754" lon="12.298091662664849" id="-36712">
		<tag k="fixme" v="consider place=hamlet" />
		<tag k="name" v="Brønstad" />
		<tag k="name:no" v="Brønstad" />
		<tag k="place" v="farm" />
		<tag k="ssr:stedsnr" v="924695" />
	</node>
	<node lat="64.23611944596307" lon="12.492550008274657" id="-36713">
		<tag k="name" v="Belbumoen" />
		<tag k="name:no" v="Belbumoen" />
		<tag k="place" v="farm" />
		<tag k="ssr:stedsnr" v="924701" />
	</node>
	<node lat="64.27025833049703" lon="12.510405548715799" id="-36725">
		<tag k="alt_name:no" v="Bøgset nedre" />
		<tag k="name" v="Nedre Bøgset" />
		<tag k="name:no" v="Nedre Bøgset" />
=======
	<node id="-774318" lat="64.1928444406" lon="12.3335472131">
		<tag k="name" v="Heiem" />
		<tag k="name:no" v="Heiem" />
		<tag k="place" v="farm" />
		<tag k="ssr:stedsnr" v="939376" />
	</node>
	<node id="-773208" lat="64.3033444451" lon="12.6670250099">
		<tag k="historic" v="shieling" />
		<tag k="name" v="Omliseteren" />
		<tag k="name:no" v="Omliseteren" />
		<tag k="place" v="locality" />
		<tag k="ssr:stedsnr" v="439379" />
	</node>
	<node id="-774313" lat="64.2031999983" lon="12.2538833366">
		<tag k="fixme" v="consider place=suburb, village or hamlet" />
		<tag k="name" v="Breide" />
		<tag k="name:no" v="Breide" />
		<tag k="place" v="quarter" />
		<tag k="ssr:stedsnr" v="939337" />
	</node>
	<node id="-774302" lat="64.2693583337" lon="12.514572214">
		<tag k="alt_name:no" v="Bøgset øvre" />
		<tag k="name" v="Øvre Bøgset" />
		<tag k="name:no" v="Øvre Bøgset" />
		<tag k="place" v="farm" />
		<tag k="ssr:stedsnr" v="939548" />
	</node>
	<node id="-776347" lat="64.2464894328" lon="12.5745661283">
		<tag k="alt_name" v="Søyringen" />
		<tag k="name" v="Søyringan" />
		<tag k="place" v="locality" />
		<tag k="ssr:stedsnr" v="985620" />
	</node>
	<node id="-776346" lat="64.0603362521" lon="12.6194236933">
		<tag k="name" v="Ryplihytta" />
		<tag k="name:no" v="Ryplihytta" />
		<tag k="place" v="locality" />
		<tag k="ssr:stedsnr" v="982823" />
	</node>
	<node id="-776343" lat="64.2633425587" lon="12.5535863842">
		<tag k="name" v="Almo nordre" />
		<tag k="name:no" v="Almo nordre" />
>>>>>>> e1d4bc35ff8a6074a6f2e91616a996b547c36f15
		<tag k="place" v="farm" />
		<tag k="ssr:stedsnr" v="849286" />
	</node>
<<<<<<< HEAD
	<node lat="64.23586666294614" lon="12.150797218610602" id="-36726">
		<tag k="name" v="Vestre Holem" />
		<tag k="name:no" v="Vestre Holem" />
		<tag k="place" v="farm" />
		<tag k="ssr:stedsnr" v="849380" />
	</node>
	<node lat="64.15936293821613" lon="12.471812536771331" id="-36727">
		<tag k="name" v="Kjevlia" />
		<tag k="name:no" v="Kjevlia" />
		<tag k="place" v="farm" />
		<tag k="ssr:stedsnr" v="849674" />
	</node>
	<node lat="64.30276389210303" lon="13.009069445467757" id="-36728">
		<tag k="name" v="Gressåmoen" />
		<tag k="name:no" v="Gressåmoen" />
		<tag k="place" v="farm" />
		<tag k="ssr:stedsnr" v="849690" />
	</node>
	<node lat="64.10441944861476" lon="13.085555553171316" id="-36729">
		<tag k="name" v="Gjevsjøen" />
		<tag k="name:no" v="Gjevsjøen" />
		<tag k="old_name:no" v="Gjefsjøen" />
		<tag k="place" v="farm" />
		<tag k="ssr:stedsnr" v="849691" />
	</node>
	<node lat="64.20081666527761" lon="12.202030553573403" id="-36732">
		<tag k="name" v="Jørstad" />
		<tag k="name:no" v="Jørstad" />
=======
	<node id="-776341" lat="64.2620853487" lon="12.5555322949">
		<tag k="name" v="Almo søndre" />
		<tag k="place" v="farm" />
		<tag k="ssr:stedsnr" v="976818" />
	</node>
	<node id="-774292" lat="64.1291138903" lon="12.4741583371">
		<tag k="name" v="Øverseteren" />
		<tag k="name:no" v="Øverseteren" />
		<tag k="place" v="locality" />
		<tag k="ssr:stedsnr" v="838369" />
	</node>
	<node id="-774275" lat="64.2777027756" lon="12.4912805491">
		<tag k="name" v="Kolhusmoen" />
		<tag k="name:no" v="Kolhusmoen" />
		<tag k="place" v="locality" />
		<tag k="ssr:stedsnr" v="818569" />
	</node>
	<node id="-776322" lat="64.1358464252" lon="12.8718152414">
		<tag k="fixme" v="consider tourism=alpine_hut or tourism=chalet" />
		<tag k="name" v="Langvasshytta" />
		<tag k="ssr:stedsnr" v="973405" />
		<tag k="tourism" v="wilderness_hut" />
	</node>
	<node id="-774269" lat="64.2043000031" lon="12.32780555">
		<tag k="name" v="Berglia" />
		<tag k="name:no" v="Berglia" />
		<tag k="place" v="farm" />
		<tag k="ssr:stedsnr" v="818409" />
	</node>
	<node id="-774266" lat="64.1878972225" lon="12.3135305616">
		<tag k="fixme" v="consider place=hamlet" />
		<tag k="name" v="Gifstad" />
		<tag k="name:no" v="Gifstad" />
		<tag k="place" v="village" />
		<tag k="ssr:stedsnr" v="818369" />
	</node>
	<node id="-774265" lat="64.1916861132" lon="12.3170999975">
		<tag k="name" v="Svendplassen" />
		<tag k="name:no" v="Svendplassen" />
		<tag k="place" v="locality" />
		<tag k="ssr:stedsnr" v="818364" />
	</node>
	<node id="-775503" lat="64.2474138895" lon="12.3632833294">
		<tag k="amenity" v="school" />
		<tag k="name" v="Snåsa skole" />
		<tag k="name:no" v="Snåsa skole" />
		<tag k="ssr:stedsnr" v="544219" />
	</node>
	<node id="-774261" lat="64.1953333363" lon="12.2310694474">
		<tag k="name" v="Trøan" />
		<tag k="name:no" v="Trøan" />
		<tag k="place" v="locality" />
		<tag k="ssr:stedsnr" v="818310" />
	</node>
	<node id="-774254" lat="64.1159808757" lon="12.3321228142">
		<tag k="name" v="Gifstadseteren" />
		<tag k="name:no" v="Gifstadseteren" />
		<tag k="place" v="locality" />
		<tag k="ssr:stedsnr" v="803592" />
	</node>
	<node id="-776301" lat="64.2746666665" lon="12.4056472323">
		<tag k="fixme" v="consider place=hamlet" />
		<tag k="name" v="Dravlan" />
		<tag k="name:no" v="Dravlan" />
		<tag k="place" v="farm" />
		<tag k="ssr:stedsnr" v="970536" />
	</node>
	<node id="-776300" lat="64.249372221" lon="12.3856388897">
		<tag k="fixme" v="consider place=hamlet" />
		<tag k="name" v="Åsvoll" />
		<tag k="name:no" v="Åsvoll" />
>>>>>>> e1d4bc35ff8a6074a6f2e91616a996b547c36f15
		<tag k="place" v="farm" />
		<tag k="ssr:stedsnr" v="863506" />
	</node>
<<<<<<< HEAD
	<node lat="64.26046666588132" lon="11.981144449960833" id="-36733">
		<tag k="historic" v="shieling" />
		<tag k="name" v="Hammerseteren" />
		<tag k="name:no" v="Hammerseteren" />
		<tag k="place" v="isolated_dwelling" />
		<tag k="ssr:stedsnr" v="863525" />
	</node>
	<node lat="64.2610999990586" lon="12.153175006818428" id="-36734">
		<tag k="name" v="Mølnvikseteren" />
		<tag k="name:no" v="Mølnvikseteren" />
		<tag k="place" v="isolated_dwelling" />
		<tag k="ssr:stedsnr" v="863526" />
	</node>
	<node lat="64.26491111033242" lon="12.165302774066575" id="-36735">
		<tag k="historic" v="shieling" />
		<tag k="name" v="Rennsetseteren" />
		<tag k="name:no" v="Rennsetseteren" />
		<tag k="place" v="isolated_dwelling" />
		<tag k="ssr:stedsnr" v="863528" />
	</node>
	<node lat="64.08607222478382" lon="12.290175010371925" id="-36740">
		<tag k="name" v="Ålnesseteren" />
		<tag k="name:no" v="Ålnesseteren" />
		<tag k="place" v="isolated_dwelling" />
		<tag k="ssr:stedsnr" v="863605" />
=======
	<node id="-776299" lat="64.2249333294" lon="12.4214166754">
		<tag k="name" v="Heimveg" />
		<tag k="name:no" v="Heimveg" />
		<tag k="place" v="farm" />
		<tag k="ssr:stedsnr" v="970298" />
	</node>
	<node id="-776298" lat="64.2870750034" lon="12.5619250056">
		<tag k="name" v="Skartneset" />
		<tag k="name:no" v="Skartneset" />
		<tag k="place" v="farm" />
		<tag k="ssr:stedsnr" v="970366" />
	</node>
	<node id="-776296" lat="64.2481388915" lon="12.4340361174">
		<tag k="name" v="Navlus" />
		<tag k="name:no" v="Navlus" />
		<tag k="place" v="farm" />
		<tag k="ssr:stedsnr" v="967097" />
>>>>>>> e1d4bc35ff8a6074a6f2e91616a996b547c36f15
	</node>
	<node id="-774245" lat="64.2502333291" lon="12.4549694384">
		<tag k="name" v="Navlusaunet" />
		<tag k="name:no" v="Navlusaunet" />
		<tag k="place" v="farm" />
		<tag k="ssr:stedsnr" v="802403" />
	</node>
	<node id="-774244" lat="64.0655444454" lon="12.1839944392">
		<tag k="name" v="Holsingseteren" />
		<tag k="name:no" v="Holsingseteren" />
		<tag k="place" v="locality" />
		<tag k="ssr:stedsnr" v="802378" />
	</node>
	<node id="-774225" lat="64.236119446" lon="12.4925500083">
		<tag k="name" v="Belbumoen" />
		<tag k="name:no" v="Belbumoen" />
		<tag k="place" v="farm" />
		<tag k="ssr:stedsnr" v="924701" />
	</node>
	<node id="-774224" lat="64.2276833348" lon="12.2980916627">
		<tag k="fixme" v="consider place=hamlet" />
		<tag k="name" v="Brønstad" />
		<tag k="name:no" v="Brønstad" />
		<tag k="place" v="farm" />
		<tag k="ssr:stedsnr" v="924695" />
	</node>
	<node id="-776270" lat="64.2108333328" lon="12.0336749902">
		<tag k="name" v="Vestre Hammer" />
		<tag k="name:no" v="Vestre Hammer" />
		<tag k="place" v="farm" />
		<tag k="ssr:stedsnr" v="959397" />
	</node>
	<node id="-774214" lat="64.1605055563" lon="12.6381555486">
		<tag k="name" v="Grønliseteren" />
		<tag k="name:no" v="Grønliseteren" />
		<tag k="place" v="isolated_dwelling" />
		<tag k="ssr:stedsnr" v="924545" />
	</node>
	<node id="-774213" lat="64.1369305598" lon="12.3751138932">
		<tag k="name" v="Myrskardseteren" />
		<tag k="name:no" v="Myrskardseteren" />
		<tag k="place" v="isolated_dwelling" />
		<tag k="ssr:stedsnr" v="924543" />
	</node>
	<node id="-776254" lat="64.161555551" lon="12.4676944532">
		<tag k="name" v="Gamgarden" />
		<tag k="name:no" v="Gamgarden" />
		<tag k="place" v="locality" />
		<tag k="ssr:stedsnr" v="959198" />
	</node>
	<node id="-774205" lat="64.2087472196" lon="12.1833527724">
		<tag k="name" v="Fjellvika" />
		<tag k="name:no" v="Fjellvika" />
		<tag k="place" v="farm" />
		<tag k="ssr:stedsnr" v="924457" />
	</node>
	<node id="-774200" lat="64.2390333315" lon="12.153325009">
		<tag k="name" v="Nordheim" />
		<tag k="name:no" v="Nordheim" />
		<tag k="place" v="isolated_dwelling" />
		<tag k="ssr:stedsnr" v="924401" />
	</node>
	<node id="-774197" lat="64.2972500023" lon="12.5732749955">
		<tag k="historic" v="shieling" />
		<tag k="name" v="Frebergseteren" />
		<tag k="name:no" v="Frebergseteren" />
		<tag k="place" v="locality" />
		<tag k="ssr:stedsnr" v="924381" />
	</node>
	<node id="-774196" lat="64.3185805592" lon="12.7016472257">
		<tag k="historic" v="shieling" />
		<tag k="name" v="Bomosetran" />
		<tag k="name:no" v="Bomosetran" />
		<tag k="place" v="locality" />
		<tag k="ssr:stedsnr" v="924379" />
	</node>
	<node id="-774194" lat="64.2983055542" lon="12.3407500016">
		<tag k="historic" v="shieling" />
		<tag k="name" v="Korsvollan" />
		<tag k="name:no" v="Korsvollan" />
		<tag k="place" v="locality" />
		<tag k="ssr:stedsnr" v="924368" />
	</node>
	<node id="-774193" lat="64.2739888912" lon="12.2873972314">
		<tag k="name" v="Melan" />
		<tag k="name:no" v="Melan" />
		<tag k="old_name:no" v="Mollan" />
		<tag k="place" v="farm" />
		<tag k="ssr:stedsnr" v="924361" />
	</node>
	<node id="-774192" lat="64.2876750019" lon="12.6705749909">
		<tag k="historic" v="shieling" />
		<tag k="name" v="Skromoseteren" />
		<tag k="name:no" v="Skromoseteren" />
		<tag k="place" v="locality" />
		<tag k="ssr:stedsnr" v="924360" />
	</node>
	<node id="-774191" lat="64.211336112" lon="12.0424194513">
		<tag k="fixme" v="consider place=hamlet" />
		<tag k="name" v="Hammer" />
		<tag k="name:no" v="Hammer" />
		<tag k="place" v="farm" />
		<tag k="ssr:stedsnr" v="924358" />
	</node>
	<node id="-774189" lat="64.2721472235" lon="12.2960999916">
		<tag k="name" v="Bruvollen" />
		<tag k="name:no" v="Bruvollen" />
		<tag k="place" v="farm" />
		<tag k="ssr:stedsnr" v="924354" />
	</node>
	<node id="-774185" lat="64.2626277737" lon="12.5572527872">
		<tag k="name" v="Ålmo" />
		<tag k="name:no" v="Ålmo" />
		<tag k="place" v="farm" />
		<tag k="ssr:stedsnr" v="924324" />
	</node>
	<node id="-774184" lat="64.2540138895" lon="12.4464472216">
		<tag k="name" v="Myrmoen" />
		<tag k="name:no" v="Myrmoen" />
		<tag k="place" v="farm" />
		<tag k="ssr:stedsnr" v="924320" />
	</node>
	<node id="-774172" lat="64.2041833346" lon="12.1627944366">
		<tag k="name" v="Ålneset" />
		<tag k="name:no" v="Ålneset" />
		<tag k="place" v="farm" />
		<tag k="ssr:stedsnr" v="788615" />
	</node>
	<node id="-776212" lat="64.211272224" lon="12.4303694462">
		<tag k="name" v="Småslættseteren" />
		<tag k="name:no" v="Småslættseteren" />
		<tag k="place" v="isolated_dwelling" />
		<tag k="ssr:stedsnr" v="864554" />
	</node>
	<node id="-776211" lat="64.216447223" lon="12.468841667">
		<tag k="historic" v="shieling" />
		<tag k="name" v="Nerseteren" />
		<tag k="name:no" v="Nerseteren" />
		<tag k="place" v="locality" />
		<tag k="ssr:stedsnr" v="864552" />
	</node>
	<node id="-776209" lat="64.2023138863" lon="12.2581916637">
		<tag k="fixme" v="consider place=hamlet" />
		<tag k="name" v="Vestbygda" />
		<tag k="name:no" v="Vestbygda" />
		<tag k="place" v="village" />
		<tag k="ssr:stedsnr" v="864545" />
	</node>
	<node id="-776208" lat="64.196350004" lon="12.2790083298">
		<tag k="fixme" v="consider place=hamlet" />
		<tag k="name" v="Kleiv" />
		<tag k="name:no" v="Kleiv" />
		<tag k="place" v="farm" />
		<tag k="ssr:stedsnr" v="864544" />
	</node>
	<node id="-776207" lat="64.3419555576" lon="12.8844138994">
		<tag k="name" v="Agleseteren" />
		<tag k="name:no" v="Agleseteren" />
		<tag k="place" v="locality" />
		<tag k="ssr:stedsnr" v="864303" />
	</node>
	<node id="-774155" lat="64.2705861113" lon="12.3099333277">
		<tag k="fixme" v="consider place=hamlet" />
		<tag k="name" v="Moum" />
		<tag k="name:no" v="Moum" />
		<tag k="place" v="farm" />
		<tag k="ssr:stedsnr" v="910355" />
	</node>
	<node id="-776200" lat="64.1329222267" lon="13.1503222165">
		<tag k="name" v="Semsseteren" />
		<tag k="name:no" v="Semsseteren" />
		<tag k="place" v="locality" />
		<tag k="ssr:stedsnr" v="863937" />
	</node>
	<node id="-776196" lat="64.2463527808" lon="12.8006583313">
		<tag k="name" v="Strokkstuggu" />
		<tag k="name:no" v="Strokkstuggu" />
		<tag k="place" v="isolated_dwelling" />
		<tag k="ssr:stedsnr" v="863866" />
	</node>
</osm>
