<?xml version="1.0" encoding="UTF-8"?>
<<<<<<< HEAD
<osm version="0.6" generator="osmapis">
	<node lat="60.423038890060035" lon="10.163608336598418" id="-14151">
		<tag k="name" v="Oksemyr" />
		<tag k="natural" v="wetland" />
		<tag k="ssr:stedsnr" v="6401" />
	</node>
	<node lat="60.56150000145152" lon="10.070891675336458" id="-14167">
		<tag k="alt_name" v="Jølsokmyra" />
		<tag k="name" v="Jølsokmyr" />
		<tag k="natural" v="wetland" />
		<tag k="ssr:stedsnr" v="7503" />
	</node>
	<node lat="60.18833055512131" lon="10.227808327891228" id="-14173">
		<tag k="name" v="Låvejordet" />
		<tag k="place" v="locality" />
		<tag k="ssr:stedsnr" v="24128" />
	</node>
	<node lat="60.18674722023421" lon="10.224769450754593" id="-14174">
		<tag k="name" v="Alléjordet" />
		<tag k="place" v="locality" />
		<tag k="ssr:stedsnr" v="24178" />
	</node>
	<node lat="60.538280559073186" lon="10.102002774599764" id="-14178">
		<tag k="name" v="Snøplogmyr" />
		<tag k="natural" v="wetland" />
		<tag k="ssr:stedsnr" v="25209" />
	</node>
	<node lat="60.13906666844991" lon="10.266288884132459" id="-14191">
		<tag k="name" v="Stabbursåkeren" />
		<tag k="place" v="locality" />
		<tag k="ssr:stedsnr" v="26912" />
	</node>
	<node lat="60.42077222154075" lon="10.14640833223094" id="-14193">
		<tag k="name" v="Balerotmyr" />
		<tag k="natural" v="wetland" />
		<tag k="ssr:stedsnr" v="26917" />
	</node>
	<node lat="60.499005551386546" lon="9.82447222766274" id="-14205">
		<tag k="name" v="Vidalen fellesbeite" />
		<tag k="place" v="locality" />
		<tag k="ssr:stedsnr" v="29401" />
	</node>
	<node lat="60.31992221816938" lon="9.932669449270813" id="-14222">
		<tag k="name" v="Krakamyr" />
		<tag k="natural" v="wetland" />
		<tag k="ssr:stedsnr" v="29973" />
	</node>
	<node lat="60.276561114403734" lon="9.814672226160305" id="-14226">
		<tag k="name" v="Bekkmyra" />
		<tag k="natural" v="wetland" />
		<tag k="ssr:stedsnr" v="30220" />
	</node>
	<node lat="60.3195972240514" lon="9.83518888027548" id="-14227">
		<tag k="name" v="Øvre Vollmyr" />
		<tag k="natural" v="wetland" />
		<tag k="ssr:stedsnr" v="30521" />
	</node>
	<node lat="60.219755552604575" lon="9.855822215366427" id="-14228">
		<tag k="name" v="Steinsmyr" />
		<tag k="natural" v="wetland" />
		<tag k="ssr:stedsnr" v="30721" />
	</node>
	<node lat="60.461255557631546" lon="10.086130548393298" id="-14262">
		<tag k="alt_name" v="Orremyra" />
		<tag k="name" v="Orremyr" />
		<tag k="natural" v="wetland" />
		<tag k="ssr:stedsnr" v="66504" />
	</node>
	<node lat="60.3036361120398" lon="10.12810832955366" id="-14278">
		<tag k="alt_name" v="Hornsætermyrene" />
		<tag k="name" v="Hornsetermyra" />
		<tag k="natural" v="wetland" />
		<tag k="ssr:stedsnr" v="67509" />
	</node>
	<node lat="60.29868055375135" lon="9.725966664114697" id="-14283">
		<tag k="alt_name" v="Dammyra" />
		<tag k="name" v="Dammyr" />
		<tag k="natural" v="wetland" />
		<tag k="ssr:stedsnr" v="67843" />
	</node>
	<node lat="60.56203888679142" lon="10.016219435632122" id="-14299">
		<tag k="name" v="Hustømmermyra" />
		<tag k="natural" v="wetland" />
		<tag k="ssr:stedsnr" v="86572" />
	</node>
	<node lat="60.165713891348894" lon="10.142233339802576" id="-14305">
		<tag k="name" v="Stormyra" />
		<tag k="natural" v="wetland" />
		<tag k="ssr:stedsnr" v="87338" />
	</node>
	<node lat="60.20758055483263" lon="10.187805546525825" id="-14308">
		<tag k="name" v="Djupdalsmyra" />
		<tag k="natural" v="wetland" />
		<tag k="ssr:stedsnr" v="87432" />
	</node>
	<node lat="60.40229166595404" lon="10.126108326212618" id="-14320">
		<tag k="name" v="Dugurdsmyr" />
		<tag k="natural" v="wetland" />
		<tag k="ssr:stedsnr" v="89876" />
	</node>
	<node lat="60.26973611124082" lon="10.062591668457603" id="-14321">
		<tag k="name" v="Karisnarmyr" />
		<tag k="natural" v="wetland" />
		<tag k="ssr:stedsnr" v="89879" />
	</node>
	<node lat="60.26286666522841" lon="10.070547229285356" id="-14322">
		<tag k="name" v="Steinhusmyrene" />
		<tag k="natural" v="wetland" />
		<tag k="ssr:stedsnr" v="89880" />
	</node>
	<node lat="60.302433332252704" lon="10.082113887870843" id="-14324">
		<tag k="name" v="Flåmyra" />
		<tag k="natural" v="wetland" />
		<tag k="ssr:stedsnr" v="89893" />
	</node>
	<node lat="60.4166361139363" lon="9.935330558348664" id="-14332">
		<tag k="name" v="Gundersrudmyrene" />
		<tag k="natural" v="wetland" />
		<tag k="ssr:stedsnr" v="90110" />
	</node>
	<node lat="60.503261113466195" lon="9.823033335863846" id="-14335">
		<tag k="name" v="Satamyr" />
		<tag k="natural" v="wetland" />
		<tag k="ssr:stedsnr" v="90366" />
	</node>
	<node lat="60.59085278040702" lon="9.93724165828765" id="-14339">
		<tag k="name" v="Mattea-Kanamyra" />
		<tag k="natural" v="wetland" />
		<tag k="ssr:stedsnr" v="90815" />
	</node>
	<node lat="60.527583335091585" lon="9.914350006877882" id="-14342">
		<tag k="name" v="Langmyr" />
		<tag k="natural" v="wetland" />
		<tag k="ssr:stedsnr" v="90768" />
	</node>
	<node lat="60.35449444708544" lon="9.865713896176947" id="-14348">
		<tag k="name" v="Husmyr" />
		<tag k="natural" v="wetland" />
		<tag k="ssr:stedsnr" v="90976" />
	</node>
	<node lat="60.29874444471033" lon="10.04266943584644" id="-14387">
		<tag k="name" v="Stormyrene" />
		<tag k="natural" v="wetland" />
		<tag k="ssr:stedsnr" v="248488" />
	</node>
	<node lat="60.29677499750788" lon="9.766774993541352" id="-14411">
		<tag k="name" v="Aslaugmyra" />
		<tag k="natural" v="wetland" />
		<tag k="ssr:stedsnr" v="249658" />
	</node>
	<node lat="60.621188890649336" lon="9.984699996561497" id="-14421">
		<tag k="alt_name" v="Stormyra" />
		<tag k="name" v="Stormyr" />
		<tag k="natural" v="wetland" />
		<tag k="ssr:stedsnr" v="249897" />
	</node>
	<node lat="60.29895833234651" lon="10.112511114636229" id="-14475">
		<tag k="alt_name" v="Sibekkmyra" />
		<tag k="name" v="Sibekklimyra" />
		<tag k="natural" v="wetland" />
		<tag k="ssr:stedsnr" v="127396" />
	</node>
	<node lat="60.41026944795421" lon="10.139772217924655" id="-14510">
		<tag k="historic" v="shieling" />
		<tag k="name" v="Bråtasetra" />
		<tag k="place" v="locality" />
		<tag k="ssr:stedsnr" v="146406" />
	</node>
	<node lat="60.410736114092174" lon="10.14596943889119" id="-14511">
		<tag k="name" v="Setermyr" />
		<tag k="natural" v="wetland" />
		<tag k="ssr:stedsnr" v="146408" />
	</node>
	<node lat="60.57185000305984" lon="10.021988889837779" id="-14513">
		<tag k="name" v="Veslesetermyra" />
		<tag k="natural" v="wetland" />
		<tag k="ssr:stedsnr" v="147172" />
	</node>
	<node lat="60.07724048506083" lon="10.405744474668545" id="-14515">
		<tag k="alt_name" v="Trygstadmyra" />
		<tag k="name" v="Trøgstadmyra" />
		<tag k="natural" v="wetland" />
		<tag k="ssr:stedsnr" v="147009" />
	</node>
	<node lat="60.59004166800785" lon="10.023255552258613" id="-14533">
		<tag k="name" v="Langemyr" />
=======
<osm generator="osmapis" version="0.6">
	<node id="-231424" lat="60.0910750022" lon="10.4820972266">
		<tag k="name" v="Tusenmyr" />
		<tag k="natural" v="wetland" />
		<tag k="ssr:stedsnr" v="754338" />
	</node>
	<node id="-227327" lat="60.3877888869" lon="10.1509638889">
		<tag k="name" v="Hesjamyr" />
		<tag k="natural" v="wetland" />
		<tag k="ssr:stedsnr" v="269271" />
	</node>
	<node id="-227322" lat="60.4349999975" lon="10.1510416586">
		<tag k="name" v="Storrmyr" />
		<tag k="natural" v="wetland" />
		<tag k="ssr:stedsnr" v="268755" />
	</node>
	<node id="-231417" lat="60.3838388928" lon="10.16780278">
		<tag k="name" v="Orremyr" />
		<tag k="natural" v="wetland" />
		<tag k="ssr:stedsnr" v="754266" />
	</node>
	<node id="-229368" lat="60.2705666668" lon="10.1585916669">
		<tag k="name" v="Skollerudmyra" />
		<tag k="natural" v="wetland" />
		<tag k="ssr:stedsnr" v="6454" />
	</node>
	<node id="-229367" lat="60.2760333362" lon="10.1811499956">
		<tag k="alt_name" v="Hvalsmyrene" />
		<tag k="name" v="Kirkemyra" />
		<tag k="natural" v="wetland" />
		<tag k="ssr:stedsnr" v="6452" />
	</node>
	<node id="-229366" lat="60.282080558" lon="10.1341305579">
		<tag k="alt_name" v="Kvernmyr" />
		<tag k="name" v="Kvernmyra" />
		<tag k="natural" v="wetland" />
		<tag k="ssr:stedsnr" v="6442" />
	</node>
	<node id="-229364" lat="60.3011166655" lon="10.2202333256">
		<tag k="name" v="Moltemyra" />
		<tag k="natural" v="wetland" />
		<tag k="ssr:stedsnr" v="6410" />
	</node>
	<node id="-229362" lat="60.4230388901" lon="10.1636083366">
		<tag k="name" v="Oksemyr" />
		<tag k="natural" v="wetland" />
		<tag k="ssr:stedsnr" v="6401" />
	</node>
	<node id="-231409" lat="60.1300972187" lon="10.312383337">
		<tag k="name" v="Brudenga" />
		<tag k="place" v="locality" />
		<tag k="ssr:stedsnr" v="754134" />
	</node>
	<node id="-227311" lat="60.2925861134" lon="9.76802221856">
		<tag k="name" v="Langemyr" />
		<tag k="natural" v="wetland" />
		<tag k="ssr:stedsnr" v="455862" />
	</node>
	<node id="-231406" lat="60.0983222179" lon="10.4188999971">
		<tag k="name" v="Kjempemyra" />
		<tag k="natural" v="wetland" />
		<tag k="ssr:stedsnr" v="754058" />
	</node>
	<node id="-231405" lat="60.1139083299" lon="10.408722231">
		<tag k="name" v="Hovmyrene" />
		<tag k="natural" v="wetland" />
		<tag k="ssr:stedsnr" v="754042" />
	</node>
	<node id="-227302" lat="60.2396138926" lon="9.83739722406">
		<tag k="name" v="Raukollmyra" />
		<tag k="natural" v="wetland" />
		<tag k="ssr:stedsnr" v="455131" />
	</node>
	<node id="-227295" lat="60.6095027774" lon="9.96626111125">
		<tag k="historic" v="shieling" />
		<tag k="name" v="Midtsetra" />
		<tag k="place" v="locality" />
		<tag k="ssr:stedsnr" v="454859" />
	</node>
	<node id="-227292" lat="60.5215694484" lon="9.93984722871">
		<tag k="name" v="Blåmyra" />
		<tag k="natural" v="wetland" />
		<tag k="ssr:stedsnr" v="454718" />
	</node>
	<node id="-231385" lat="60.5292361122" lon="10.1020777751">
		<tag k="name" v="Hyttemyr" />
		<tag k="natural" v="wetland" />
		<tag k="ssr:stedsnr" v="753157" />
	</node>
	<node id="-227286" lat="60.5899027766" lon="9.92273610499">
		<tag k="alt_name" v="Søndre Kastmyr" />
		<tag k="name" v="Søre Kastmyr" />
		<tag k="natural" v="wetland" />
		<tag k="ssr:stedsnr" v="454836" />
	</node>
	<node id="-227282" lat="60.5959555578" lon="9.97229999474">
		<tag k="name" v="Maurlandsmyra" />
		<tag k="natural" v="wetland" />
		<tag k="ssr:stedsnr" v="454787" />
	</node>
	<node id="-227281" lat="60.3184888917" lon="9.83879999647">
		<tag k="name" v="Nedre Vollmyr" />
		<tag k="natural" v="wetland" />
		<tag k="ssr:stedsnr" v="454558" />
	</node>
	<node id="-227320" lat="60.5676500002" lon="10.0048111075">
		<tag k="name" v="Bølemyr" />
		<tag k="natural" v="wetland" />
		<tag k="ssr:stedsnr" v="268524" />
	</node>
	<node id="-231371" lat="60.0679555512" lon="10.0429083357">
		<tag k="landuse" v="quarry" />
		<tag k="loc_name" v="Nikkelverket" />
		<tag k="name" v="Ringerike nikkelverk" />
		<tag k="ssr:stedsnr" v="654818" />
	</node>
	<node id="-227271" lat="60.5318555549" lon="9.89611945281">
		<tag k="historic" v="shieling" />
		<tag k="name" v="Hyttebakkvollen" />
		<tag k="place" v="locality" />
		<tag k="ssr:stedsnr" v="454290" />
	</node>
	<node id="-231414" lat="60.2747583365" lon="9.77401666655">
		<tag k="name" v="Breilisand" />
		<tag k="natural" v="beach" />
		<tag k="ssr:stedsnr" v="754233" />
		<tag k="surface" v="sand" />
	</node>
	<node id="-231360" lat="60.3653666668" lon="9.85463334227">
		<tag k="name" v="Bjørneskarmyr" />
		<tag k="natural" v="wetland" />
		<tag k="ssr:stedsnr" v="636980" />
	</node>
	<node id="-231359" lat="60.3401361123" lon="9.83741665896">
		<tag k="name" v="Siniumyra" />
		<tag k="natural" v="wetland" />
		<tag k="ssr:stedsnr" v="636976" />
	</node>
	<node id="-231358" lat="60.2211527822" lon="9.88301110685">
		<tag k="name" v="Malamyr" />
		<tag k="natural" v="wetland" />
		<tag k="ssr:stedsnr" v="636736" />
	</node>
	<node id="-231357" lat="60.4951555566" lon="9.824263883">
		<tag k="name" v="Leggmyra" />
		<tag k="natural" v="wetland" />
		<tag k="ssr:stedsnr" v="636335" />
	</node>
	<node id="-227255" lat="60.2945888848" lon="10.0880527779">
		<tag k="name" v="Grasmyr" />
		<tag k="natural" v="wetland" />
		<tag k="ssr:stedsnr" v="453887" />
	</node>
	<node id="-231346" lat="60.457894448" lon="10.0804416628">
		<tag k="name" v="Saltmyra" />
		<tag k="natural" v="wetland" />
		<tag k="ssr:stedsnr" v="635742" />
	</node>
	<node id="-227248" lat="60.4728527735" lon="10.0201777748">
		<tag k="name" v="Kvernbråten" />
		<tag k="place" v="locality" />
		<tag k="ssr:stedsnr" v="453830" />
	</node>
	<node id="-227245" lat="60.3446722187" lon="10.0495916666">
		<tag k="name" v="Sølvspennemyra" />
		<tag k="natural" v="wetland" />
		<tag k="ssr:stedsnr" v="453941" />
	</node>
	<node id="-227244" lat="60.4513666648" lon="10.0800972152">
		<tag k="name" v="Kleivmyra" />
		<tag k="natural" v="wetland" />
		<tag k="ssr:stedsnr" v="453674" />
	</node>
	<node id="-227243" lat="60.3751694474" lon="10.1086222173">
		<tag k="name" v="Hesjamyr" />
		<tag k="natural" v="wetland" />
		<tag k="ssr:stedsnr" v="453656" />
	</node>
	<node id="-227240" lat="60.3919499996" lon="10.1116250034">
		<tag k="name" v="Fuglestokkmyra" />
		<tag k="natural" v="wetland" />
		<tag k="ssr:stedsnr" v="453190" />
	</node>
	<node id="-227236" lat="60.5956444418" lon="10.0288111133">
		<tag k="name" v="Snøplogmyr" />
		<tag k="natural" v="wetland" />
		<tag k="ssr:stedsnr" v="452552" />
	</node>
	<node id="-231328" lat="60.451997224" lon="10.1214916615">
		<tag k="name" v="Stormyr" />
		<tag k="natural" v="wetland" />
		<tag k="ssr:stedsnr" v="635599" />
	</node>
	<node id="-229275" lat="60.3696611075" lon="9.94977777537">
		<tag k="historic" v="shieling" />
		<tag k="name" v="Leintjernsetra" />
		<tag k="place" v="locality" />
		<tag k="ssr:stedsnr" v="939095" />
	</node>
	<node id="-231407" lat="60.1237583332" lon="10.2621833406">
		<tag k="name" v="Løkken" />
		<tag k="place" v="locality" />
		<tag k="ssr:stedsnr" v="754118" />
	</node>
	<node id="-229270" lat="60.3896638864" lon="9.94516944057">
		<tag k="name" v="Reinsberg" />
		<tag k="place" v="locality" />
		<tag k="ssr:stedsnr" v="939067" />
	</node>
	<node id="-231315" lat="60.1682888847" lon="9.98501943689">
		<tag k="name" v="Brandmyr" />
		<tag k="natural" v="wetland" />
		<tag k="ssr:stedsnr" v="635330" />
	</node>
	<node id="-227215" lat="60.1182972198" lon="10.5535944359">
		<tag k="name" v="Kumyr" />
		<tag k="natural" v="wetland" />
		<tag k="ssr:stedsnr" v="451393" />
	</node>
	<node id="-229262" lat="60.4026888854" lon="10.1677749994">
		<tag k="name" v="Finnebrennmyr" />
>>>>>>> e1d4bc35ff8a6074a6f2e91616a996b547c36f15
		<tag k="natural" v="wetland" />
		<tag k="ssr:stedsnr" v="937316" />
	</node>
<<<<<<< HEAD
	<node lat="60.47689166350204" lon="10.030491665858127" id="-14539">
		<tag k="name" v="Skomakerstein" />
		<tag k="natural" v="stone" />
		<tag k="ssr:stedsnr" v="149823" />
	</node>
	<node lat="60.398627778993" lon="10.097930557082773" id="-14544">
		<tag k="name" v="Kollemyr" />
		<tag k="natural" v="wetland" />
		<tag k="ssr:stedsnr" v="149902" />
	</node>
	<node lat="60.44852222321629" lon="9.906311110744628" id="-14551">
		<tag k="name" v="Seterbrenna" />
		<tag k="place" v="locality" />
		<tag k="ssr:stedsnr" v="150116" />
	</node>
	<node lat="60.333422222668695" lon="9.822719452125153" id="-14558">
		<tag k="name" v="Neverdekkan" />
		<tag k="natural" v="wetland" />
		<tag k="ssr:stedsnr" v="150520" />
	</node>
	<node lat="60.30677499879814" lon="9.948544448459185" id="-14568">
		<tag k="name" v="Tuftmyra" />
		<tag k="natural" v="wetland" />
		<tag k="ssr:stedsnr" v="150960" />
	</node>
	<node lat="60.57097778148158" lon="9.898863892030928" id="-14569">
		<tag k="name" v="Liastormyr" />
		<tag k="natural" v="wetland" />
		<tag k="ssr:stedsnr" v="150971" />
	</node>
	<node lat="60.60503888930773" lon="9.957669446406415" id="-14570">
		<tag k="name" v="Rabbebråtamyra" />
		<tag k="natural" v="wetland" />
		<tag k="ssr:stedsnr" v="150807" />
	</node>
	<node lat="60.23015833104622" lon="9.835836115898589" id="-14575">
		<tag k="name" v="Fuglemyr" />
		<tag k="natural" v="wetland" />
		<tag k="ssr:stedsnr" v="151154" />
	</node>
	<node lat="60.296977781885126" lon="9.823719435938955" id="-14581">
		<tag k="name" v="Grønvollmyr" />
		<tag k="natural" v="wetland" />
		<tag k="ssr:stedsnr" v="151557" />
	</node>
	<node lat="60.29356666394188" lon="9.832424994876531" id="-14582">
		<tag k="name" v="Firehalsmyra" />
		<tag k="natural" v="wetland" />
		<tag k="ssr:stedsnr" v="151566" />
	</node>
	<node lat="60.288086107405896" lon="9.775149993753516" id="-14583">
		<tag k="name" v="Håmanmyr" />
		<tag k="natural" v="wetland" />
		<tag k="ssr:stedsnr" v="151865" />
	</node>
	<node lat="60.32081666247749" lon="10.052405561206841" id="-14627">
		<tag k="name" v="Resmyra" />
		<tag k="natural" v="wetland" />
		<tag k="ssr:stedsnr" v="188509" />
	</node>
	<node lat="60.316849997554435" lon="10.248663885453448" id="-14629">
		<tag k="name" v="Stormyra" />
		<tag k="natural" v="wetland" />
		<tag k="ssr:stedsnr" v="188517" />
	</node>
	<node lat="60.56765000021499" lon="10.004811107546088" id="-14656">
		<tag k="name" v="Bølemyr" />
		<tag k="natural" v="wetland" />
		<tag k="ssr:stedsnr" v="268524" />
	</node>
	<node lat="60.12209721904891" lon="10.439144440827711" id="-14666">
		<tag k="name" v="Geitmyra" />
		<tag k="natural" v="wetland" />
		<tag k="ssr:stedsnr" v="269486" />
	</node>
	<node lat="60.43499999745141" lon="10.151041658550932" id="-14670">
		<tag k="name" v="Storrmyr" />
		<tag k="natural" v="wetland" />
		<tag k="ssr:stedsnr" v="268755" />
	</node>
	<node lat="60.1935777810219" lon="10.280602784427158" id="-14671">
		<tag k="name" v="Nylendet" />
		<tag k="place" v="locality" />
		<tag k="ssr:stedsnr" v="207627" />
	</node>
	<node lat="60.19582778180429" lon="10.27911110244796" id="-14672">
		<tag k="landuse" v="meadow" />
		<tag k="name" v="Brattjordet" />
		<tag k="ssr:stedsnr" v="207632" />
	</node>
	<node lat="60.25926111506492" lon="9.766966667678936" id="-14683">
		<tag k="name" v="Pælemyra" />
		<tag k="natural" v="wetland" />
		<tag k="ssr:stedsnr" v="208284" />
	</node>
	<node lat="60.484749997015946" lon="10.152949995365201" id="-14688">
		<tag k="name" v="Setermyrene" />
		<tag k="natural" v="wetland" />
		<tag k="ssr:stedsnr" v="208805" />
	</node>
	<node lat="60.245536112078014" lon="10.240444452850493" id="-14702">
		<tag k="name" v="Oksemyr" />
		<tag k="natural" v="wetland" />
		<tag k="ssr:stedsnr" v="269300" />
	</node>
	<node lat="60.38778888688016" lon="10.150963888873662" id="-14705">
		<tag k="name" v="Hesjamyr" />
		<tag k="natural" v="wetland" />
		<tag k="ssr:stedsnr" v="269271" />
	</node>
	<node lat="60.43987500152648" lon="9.940291668774355" id="-14708">
		<tag k="name" v="Fuglemyr" />
		<tag k="natural" v="wetland" />
		<tag k="ssr:stedsnr" v="211130" />
	</node>
	<node lat="60.43038055335869" lon="10.007044438283035" id="-14712">
		<tag k="name" v="Vamyr" />
		<tag k="natural" v="wetland" />
		<tag k="ssr:stedsnr" v="211142" />
	</node>
	<node lat="60.4614805551773" lon="10.017355559285912" id="-14715">
		<tag k="name" v="Gjerdingen" />
		<tag k="place" v="locality" />
		<tag k="ssr:stedsnr" v="211182" />
	</node>
	<node lat="60.414669447764105" lon="10.005633329186052" id="-14716">
		<tag k="name" v="Storsteinmyr" />
		<tag k="natural" v="wetland" />
		<tag k="ssr:stedsnr" v="211191" />
	</node>
	<node lat="60.4279861087342" lon="10.056397227598287" id="-14720">
		<tag k="name" v="Eftasbråtemyra" />
		<tag k="natural" v="wetland" />
		<tag k="ssr:stedsnr" v="211427" />
	</node>
	<node lat="60.37997778086921" lon="10.127911114708379" id="-14729">
		<tag k="name" v="Stakamyr" />
		<tag k="natural" v="wetland" />
		<tag k="ssr:stedsnr" v="211575" />
	</node>
	<node lat="60.38075555253719" lon="10.103783331320557" id="-14730">
		<tag k="name" v="Grøftemyr" />
		<tag k="natural" v="wetland" />
		<tag k="ssr:stedsnr" v="211576" />
	</node>
	<node lat="60.39972500219998" lon="10.129855553134679" id="-14734">
		<tag k="name" v="Langmarimyr" />
		<tag k="natural" v="wetland" />
		<tag k="ssr:stedsnr" v="211879" />
	</node>
	<node lat="60.536574999655855" lon="9.923150007120888" id="-14744">
		<tag k="name" v="Bråtamyr" />
		<tag k="natural" v="wetland" />
		<tag k="ssr:stedsnr" v="211787" />
	</node>
	<node lat="60.35990000272943" lon="10.20196944792311" id="-14755">
		<tag k="name" v="Finnkvernmyra" />
		<tag k="natural" v="wetland" />
		<tag k="ssr:stedsnr" v="269984" />
	</node>
	<node lat="60.35842500125546" lon="10.21400555503732" id="-14756">
		<tag k="historic" v="shieling" />
		<tag k="name" v="Bråtasetra" />
		<tag k="place" v="locality" />
		<tag k="ssr:stedsnr" v="269989" />
	</node>
	<node lat="60.09567777379152" lon="10.049411114379879" id="-14761">
		<tag k="name" v="Pjåka skog" />
		<tag k="place" v="locality" />
		<tag k="ssr:stedsnr" v="271061" />
	</node>
	<node lat="60.38907500109303" lon="10.113127770507628" id="-14774">
		<tag k="name" v="Stormyr" />
		<tag k="natural" v="wetland" />
		<tag k="ssr:stedsnr" v="271633" />
	</node>
	<node lat="60.386816664549166" lon="10.135675001546062" id="-14776">
		<tag k="name" v="Tjuvhansura" />
		<tag k="natural" v="scree" />
		<tag k="ssr:stedsnr" v="271652" />
	</node>
	<node lat="60.18458610965464" lon="10.2273416689025" id="-14788">
		<tag k="name" v="Damjordet" />
		<tag k="place" v="locality" />
		<tag k="ssr:stedsnr" v="449198" />
	</node>
	<node lat="60.12029721924971" lon="10.390100004451828" id="-14798">
		<tag k="historic" v="shieling" />
		<tag k="name" v="Jammerklo" />
		<tag k="place" v="locality" />
		<tag k="ssr:stedsnr" v="450031" />
	</node>
	<node lat="60.10686110962563" lon="10.38277777281821" id="-14801">
		<tag k="name" v="Nedre Skardmyr" />
		<tag k="natural" v="wetland" />
		<tag k="ssr:stedsnr" v="450037" />
	</node>
	<node lat="60.19658055262246" lon="10.281697224181588" id="-14811">
		<tag k="landuse" v="meadow" />
		<tag k="name" v="Åkerpløya" />
		<tag k="ssr:stedsnr" v="450670" />
	</node>
	<node lat="60.58078055878001" lon="10.003424997674875" id="-14813">
		<tag k="name" v="Øvre Enga" />
		<tag k="place" v="locality" />
		<tag k="ssr:stedsnr" v="450534" />
	</node>
	<node lat="60.18379167100339" lon="10.255719453297644" id="-14822">
		<tag k="name" v="Storjordet" />
		<tag k="place" v="locality" />
		<tag k="ssr:stedsnr" v="451132" />
	</node>
	<node lat="60.18220277370564" lon="10.230802774549751" id="-14823">
		<tag k="name" v="Storjordet" />
		<tag k="place" v="locality" />
		<tag k="ssr:stedsnr" v="451140" />
	</node>
	<node lat="60.118297219767854" lon="10.553594435910933" id="-14835">
		<tag k="name" v="Kumyr" />
		<tag k="natural" v="wetland" />
		<tag k="ssr:stedsnr" v="451393" />
	</node>
	<node lat="60.5956444418258" lon="10.02881111328935" id="-14845">
		<tag k="name" v="Snøplogmyr" />
		<tag k="natural" v="wetland" />
		<tag k="ssr:stedsnr" v="452552" />
	</node>
	<node lat="60.147358329139905" lon="10.087466665987748" id="-14857">
		<tag k="name" v="Skjærsjømyra" />
		<tag k="natural" v="wetland" />
		<tag k="ssr:stedsnr" v="247607" />
	</node>
	<node lat="60.13497500016076" lon="10.058055547677712" id="-14860">
		<tag k="alt_name" v="Røssemyr" />
		<tag k="name" v="Røsimyra" />
		<tag k="natural" v="wetland" />
		<tag k="ssr:stedsnr" v="247657" />
	</node>
	<node lat="60.13745832936973" lon="10.484199991376116" id="-14864">
		<tag k="name" v="Karpemyra" />
		<tag k="natural" v="wetland" />
		<tag k="ssr:stedsnr" v="248073" />
	</node>
	<node lat="60.10886388690889" lon="10.41541389522206" id="-14867">
		<tag k="alt_name" v="Ringsmyrene" />
		<tag k="name" v="Ringsmyrane" />
		<tag k="natural" v="wetland" />
		<tag k="ssr:stedsnr" v="248163" />
	</node>
	<node lat="60.44248888521523" lon="9.951586114932681" id="-14885">
		<tag k="name" v="Venemyr" />
		<tag k="natural" v="wetland" />
		<tag k="ssr:stedsnr" v="248909" />
	</node>
	<node lat="60.39194999962278" lon="10.111625003375346" id="-14890">
		<tag k="name" v="Fuglestokkmyra" />
		<tag k="natural" v="wetland" />
		<tag k="ssr:stedsnr" v="453190" />
	</node>
	<node lat="60.43791666410735" lon="10.000755547796821" id="-14891">
		<tag k="name" v="Kipplunnmyra" />
		<tag k="natural" v="wetland" />
		<tag k="ssr:stedsnr" v="454095" />
	</node>
	<node lat="60.59595555775007" lon="9.972299994743592" id="-14894">
		<tag k="name" v="Maurlandsmyra" />
		<tag k="natural" v="wetland" />
		<tag k="ssr:stedsnr" v="454787" />
	</node>
	<node lat="60.47285277346128" lon="10.020177774789074" id="-14903">
		<tag k="name" v="Kvernbråten" />
		<tag k="place" v="locality" />
		<tag k="ssr:stedsnr" v="453830" />
	</node>
	<node lat="60.37516944744031" lon="10.108622217334158" id="-14904">
		<tag k="name" v="Hesjamyr" />
		<tag k="natural" v="wetland" />
		<tag k="ssr:stedsnr" v="453656" />
	</node>
	<node lat="60.29458888475383" lon="10.088052777933317" id="-14905">
		<tag k="name" v="Grasmyr" />
		<tag k="natural" v="wetland" />
		<tag k="ssr:stedsnr" v="453887" />
	</node>
	<node lat="60.34467221871309" lon="10.04959166658042" id="-14914">
		<tag k="name" v="Sølvspennemyra" />
		<tag k="natural" v="wetland" />
		<tag k="ssr:stedsnr" v="453941" />
	</node>
	<node lat="60.531855554879755" lon="9.896119452807257" id="-14927">
		<tag k="historic" v="shieling" />
		<tag k="name" v="Hyttebakkvollen" />
		<tag k="place" v="locality" />
		<tag k="ssr:stedsnr" v="454290" />
	</node>
	<node lat="60.318488891652464" lon="9.83879999647086" id="-14940">
		<tag k="name" v="Nedre Vollmyr" />
		<tag k="natural" v="wetland" />
		<tag k="ssr:stedsnr" v="454558" />
	</node>
	<node lat="60.52156944835376" lon="9.939847228708723" id="-14944">
		<tag k="name" v="Blåmyra" />
		<tag k="natural" v="wetland" />
		<tag k="ssr:stedsnr" v="454718" />
	</node>
	<node lat="60.58990277657081" lon="9.922736104991845" id="-14948">
		<tag k="alt_name" v="Søndre Kastmyr" />
		<tag k="name" v="Søre Kastmyr" />
		<tag k="natural" v="wetland" />
		<tag k="ssr:stedsnr" v="454836" />
	</node>
	<node lat="60.60950277739559" lon="9.966261111250626" id="-14950">
		<tag k="historic" v="shieling" />
		<tag k="name" v="Midtsetra" />
		<tag k="place" v="locality" />
		<tag k="ssr:stedsnr" v="454859" />
	</node>
	<node lat="60.30824166466447" lon="9.96144443878729" id="-14953">
		<tag k="name" v="Persbråtarøysa" />
		<tag k="natural" v="scree" />
		<tag k="ssr:stedsnr" v="454974" />
	</node>
	<node lat="60.33671944317885" lon="9.806480549353727" id="-14955">
		<tag k="name" v="Folemyr" />
		<tag k="natural" v="wetland" />
		<tag k="ssr:stedsnr" v="454986" />
	</node>
	<node lat="60.23961389262273" lon="9.837397224058883" id="-14957">
		<tag k="name" v="Raukollmyra" />
		<tag k="natural" v="wetland" />
		<tag k="ssr:stedsnr" v="455131" />
	</node>
	<node lat="60.19069444070783" lon="10.21201944678882" id="-14965">
		<tag k="name" v="Hagan" />
		<tag k="place" v="locality" />
		<tag k="ssr:stedsnr" v="267116" />
	</node>
	<node lat="60.54024444805192" lon="10.085991673153812" id="-14974">
		<tag k="name" v="Stakamyr" />
		<tag k="natural" v="wetland" />
		<tag k="ssr:stedsnr" v="268188" />
	</node>
	<node lat="60.268766662750366" lon="9.765913894487456" id="-14977">
		<tag k="name" v="Andersbråten" />
		<tag k="place" v="locality" />
		<tag k="ssr:stedsnr" v="268198" />
	</node>
	<node lat="60.10344166986501" lon="10.529575002849251" id="-14979">
		<tag k="name" v="Hestemyr" />
		<tag k="natural" v="wetland" />
		<tag k="ssr:stedsnr" v="268388" />
	</node>
	<node lat="60.572697218258426" lon="10.029155547347305" id="-14982">
		<tag k="name" v="Storkastmyra" />
		<tag k="natural" v="wetland" />
		<tag k="ssr:stedsnr" v="269176" />
	</node>
	<node lat="60.24955000015467" lon="10.302402770335258" id="-14991">
		<tag k="name" v="Prestrudmyr" />
		<tag k="natural" v="wetland" />
		<tag k="ssr:stedsnr" v="269806" />
	</node>
	<node lat="60.25591111517373" lon="10.305852781294325" id="-14992">
		<tag k="name" v="Delemyr" />
		<tag k="natural" v="wetland" />
		<tag k="ssr:stedsnr" v="269808" />
	</node>
	<node lat="60.55231388599102" lon="10.096574997098145" id="-15000">
		<tag k="name" v="Gamlesetermyr" />
		<tag k="natural" v="wetland" />
		<tag k="ssr:stedsnr" v="270484" />
	</node>
	<node lat="60.4861638871981" lon="10.105633336621606" id="-15011">
		<tag k="name" v="Klingemyrene" />
		<tag k="natural" v="wetland" />
		<tag k="ssr:stedsnr" v="271888" />
	</node>
	<node lat="60.38277499835684" lon="10.053302781803303" id="-15012">
		<tag k="name" v="Nedre Moen" />
		<tag k="place" v="locality" />
		<tag k="ssr:stedsnr" v="271890" />
	</node>
	<node lat="60.5766166670874" lon="9.943088889948871" id="-15026">
		<tag k="name" v="Geitbråtamyra" />
		<tag k="natural" v="wetland" />
		<tag k="ssr:stedsnr" v="272622" />
	</node>
	<node lat="60.33827221885992" lon="10.063466671793387" id="-15049">
		<tag k="name" v="Jacobsetermyr" />
		<tag k="natural" v="wetland" />
		<tag k="ssr:stedsnr" v="271949" />
	</node>
	<node lat="60.37317499805547" lon="10.135933340481774" id="-15068">
		<tag k="name" v="Gampetangmyra" />
		<tag k="natural" v="wetland" />
		<tag k="ssr:stedsnr" v="308590" />
	</node>
	<node lat="60.145483337159774" lon="10.463580548509285" id="-15079">
		<tag k="alt_name" v="Merramyr" />
		<tag k="name" v="Merramyra" />
		<tag k="natural" v="wetland" />
		<tag k="ssr:stedsnr" v="309098" />
	</node>
	<node lat="60.13677777401448" lon="10.18265833168949" id="-15142">
		<tag k="alt_name" v="Bjørkengen;Franserudenga" />
		<tag k="name" v="Bjørkenga" />
		<tag k="place" v="locality" />
		<tag k="ssr:stedsnr" v="331911" />
	</node>
	<node lat="60.477627777104175" lon="9.976888885037907" id="-15152">
		<tag k="name" v="Drakemyr" />
		<tag k="natural" v="wetland" />
		<tag k="ssr:stedsnr" v="332196" />
	</node>
	<node lat="60.54860555652692" lon="9.85036389194925" id="-15179">
		<tag k="name" v="Kastet" />
		<tag k="place" v="locality" />
		<tag k="ssr:stedsnr" v="333300" />
	</node>
	<node lat="60.590605552213795" lon="9.948333342153768" id="-15180">
		<tag k="name" v="Bjørnelimyr" />
		<tag k="natural" v="wetland" />
		<tag k="ssr:stedsnr" v="333818" />
	</node>
	<node lat="60.3397916701979" lon="10.075316667842591" id="-15199">
		<tag k="name" v="Maritura" />
		<tag k="natural" v="scree" />
		<tag k="ssr:stedsnr" v="271955" />
	</node>
	<node lat="60.12498611460715" lon="10.1072833349944" id="-15233">
		<tag k="alt_name" v="Hvitmyr" />
		<tag k="name" v="Kvitmyr" />
		<tag k="natural" v="wetland" />
		<tag k="ssr:stedsnr" v="369608" />
	</node>
	<node lat="60.0799472253149" lon="10.417561111096337" id="-15258">
		<tag k="name" v="Kulpmyr" />
=======
	<node id="-231309" lat="60.4527361102" lon="10.0131916684">
		<tag k="name" v="Liubråten" />
		<tag k="place" v="locality" />
		<tag k="ssr:stedsnr" v="635100" />
	</node>
	<node id="-231308" lat="60.4511944437" lon="9.97687776901">
		<tag k="name" v="Smerudmyra" />
		<tag k="natural" v="wetland" />
		<tag k="ssr:stedsnr" v="635097" />
	</node>
	<node id="-227211" lat="60.1822027737" lon="10.2308027745">
		<tag k="name" v="Storjordet" />
		<tag k="place" v="locality" />
		<tag k="ssr:stedsnr" v="451140" />
	</node>
	<node id="-227210" lat="60.183791671" lon="10.2557194533">
		<tag k="name" v="Storjordet" />
		<tag k="place" v="locality" />
		<tag k="ssr:stedsnr" v="451132" />
	</node>
	<node id="-227208" lat="60.3392916683" lon="10.2137277729">
		<tag k="name" v="Tomtemyr" />
		<tag k="natural" v="wetland" />
		<tag k="ssr:stedsnr" v="450979" />
	</node>
	<node id="-227203" lat="60.1965805526" lon="10.2816972242">
		<tag k="landuse" v="meadow" />
		<tag k="name" v="Åkerpløya" />
		<tag k="ssr:stedsnr" v="450670" />
	</node>
	<node id="-231298" lat="60.4308027805" lon="10.182038891">
		<tag k="name" v="Ådalsrøysa" />
		<tag k="natural" v="scree" />
		<tag k="ssr:stedsnr" v="633961" />
	</node>
	<node id="-231297" lat="60.2008611116" lon="10.2680444471">
		<tag k="name" v="Mellompløya" />
		<tag k="place" v="locality" />
		<tag k="ssr:stedsnr" v="633847" />
	</node>
	<node id="-229248" lat="60.2581388931" lon="9.88602499425">
		<tag k="name" v="Steinsmyr" />
		<tag k="natural" v="wetland" />
		<tag k="ssr:stedsnr" v="917728" />
	</node>
	<node id="-227194" lat="60.1068611096" lon="10.3827777728">
		<tag k="name" v="Nedre Skardmyr" />
		<tag k="natural" v="wetland" />
		<tag k="ssr:stedsnr" v="450037" />
	</node>
	<node id="-227189" lat="60.1202972192" lon="10.3901000045">
		<tag k="historic" v="shieling" />
		<tag k="name" v="Jammerklo" />
		<tag k="place" v="locality" />
		<tag k="ssr:stedsnr" v="450031" />
	</node>
	<node id="-231280" lat="60.5691805577" lon="10.0779750054">
		<tag k="name" v="Hesjamyr" />
		<tag k="natural" v="wetland" />
		<tag k="ssr:stedsnr" v="632379" />
	</node>
	<node id="-229231" lat="60.2857083351" lon="10.1219944441">
		<tag k="alt_name" v="Langmyra" />
		<tag k="name" v="Langmyr" />
		<tag k="natural" v="wetland" />
		<tag k="ssr:stedsnr" v="916416" />
	</node>
	<node id="-227182" lat="60.1845861097" lon="10.2273416689">
		<tag k="name" v="Damjordet" />
		<tag k="place" v="locality" />
		<tag k="ssr:stedsnr" v="449198" />
	</node>
	<node id="-231276" lat="60.2621916682" lon="9.7666305514">
		<tag k="name" v="Jutesetermyra" />
		<tag k="natural" v="wetland" />
		<tag k="ssr:stedsnr" v="632233" />
	</node>
	<node id="-231275" lat="60.4074555597" lon="10.1810305533">
		<tag k="historic" v="shieling" />
		<tag k="name" v="Lysknapphytta" />
		<tag k="place" v="locality" />
		<tag k="ssr:stedsnr" v="632469" />
	</node>
	<node id="-227163" lat="60.3153805552" lon="9.91334721386">
		<tag k="name" v="Kyrbråten" />
		<tag k="place" v="locality" />
		<tag k="ssr:stedsnr" v="211922" />
	</node>
	<node id="-227162" lat="60.2742722197" lon="10.0962361132">
		<tag k="name" v="Stormyr" />
		<tag k="natural" v="wetland" />
		<tag k="ssr:stedsnr" v="211839" />
	</node>
	<node id="-227156" lat="60.368908335" lon="10.117038888">
		<tag k="name" v="Gjertrudsmyr" />
		<tag k="natural" v="wetland" />
		<tag k="ssr:stedsnr" v="211602" />
	</node>
	<node id="-227152" lat="60.5191166652" lon="9.94919445211">
		<tag k="name" v="Albuekroken" />
		<tag k="natural" v="wetland" />
		<tag k="ssr:stedsnr" v="211713" />
	</node>
	<node id="-227146" lat="60.4303805534" lon="10.0070444383">
		<tag k="name" v="Vamyr" />
		<tag k="natural" v="wetland" />
		<tag k="ssr:stedsnr" v="211142" />
	</node>
	<node id="-229193" lat="60.331016668" lon="10.2162638893">
		<tag k="name" v="Haugmyrene" />
		<tag k="natural" v="wetland" />
		<tag k="old_name" v="Haugmyrne" />
		<tag k="ssr:stedsnr" v="875963" />
	</node>
	<node id="-227142" lat="60.4398750015" lon="9.94029166877">
		<tag k="name" v="Fuglemyr" />
		<tag k="natural" v="wetland" />
		<tag k="ssr:stedsnr" v="211130" />
	</node>
	<node id="-229186" lat="60.1970888867" lon="10.2728555531">
		<tag k="landuse" v="meadow" />
		<tag k="name" v="Fjøsåkeren" />
		<tag k="ssr:stedsnr" v="874665" />
	</node>
	<node id="-229185" lat="60.1961916694" lon="10.2834527822">
		<tag k="landuse" v="meadow" />
		<tag k="name" v="Rustilrud" />
		<tag k="ssr:stedsnr" v="874659" />
	</node>
	<node id="-227136" lat="60.0662527758" lon="10.5534055571">
		<tag k="name" v="Hornmyra" />
		<tag k="natural" v="wetland" />
		<tag k="ssr:stedsnr" v="208450" />
	</node>
	<node id="-227135" lat="60.1968027796" lon="10.1581611156">
		<tag k="name" v="Torsteinjordet" />
		<tag k="place" v="locality" />
		<tag k="ssr:stedsnr" v="207505" />
	</node>
	<node id="-231226" lat="60.0809472184" lon="10.4317777838">
		<tag k="name" v="Stormyra" />
		<tag k="natural" v="wetland" />
		<tag k="ssr:stedsnr" v="612258" />
	</node>
	<node id="-229953" lat="60.4544527806" lon="10.1165611061">
		<tag k="name" v="Orremyr" />
		<tag k="natural" v="wetland" />
		<tag k="ssr:stedsnr" v="149626" />
	</node>
	<node id="-231221" lat="60.296669442" lon="10.2460472145">
		<tag k="alt_name" v="Trettemyr" />
		<tag k="name" v="Trettemyra" />
		<tag k="natural" v="wetland" />
		<tag k="ssr:stedsnr" v="612402" />
	</node>
	<node id="-229683" lat="60.3890444451" lon="10.189694442">
		<tag k="name" v="Torvedam" />
		<tag k="natural" v="wetland" />
		<tag k="ssr:stedsnr" v="87222" />
	</node>
	<node id="-227115" lat="60.5486055565" lon="9.85036389195">
		<tag k="name" v="Kastet" />
		<tag k="place" v="locality" />
		<tag k="ssr:stedsnr" v="333300" />
	</node>
	<node id="-229161" lat="60.3022694449" lon="10.1830222283">
		<tag k="name" v="Tørrhardsmyra" />
		<tag k="natural" v="wetland" />
		<tag k="ssr:stedsnr" v="856418" />
	</node>
	<node id="-227107" lat="60.2969777819" lon="9.82371943594">
		<tag k="name" v="Grønvollmyr" />
		<tag k="natural" v="wetland" />
		<tag k="ssr:stedsnr" v="151557" />
	</node>
	<node id="-227105" lat="60.2800027776" lon="9.8442861032">
		<tag k="name" v="Trolljentemyra" />
		<tag k="natural" v="wetland" />
		<tag k="ssr:stedsnr" v="151229" />
	</node>
	<node id="-227099" lat="60.6050388893" lon="9.95766944641">
		<tag k="name" v="Rabbebråtamyra" />
		<tag k="natural" v="wetland" />
		<tag k="ssr:stedsnr" v="150807" />
	</node>
	<node id="-227091" lat="60.3334222227" lon="9.82271945213">
		<tag k="name" v="Neverdekkan" />
		<tag k="natural" v="wetland" />
		<tag k="ssr:stedsnr" v="150520" />
	</node>
	<node id="-227090" lat="60.5362527789" lon="9.8468333315">
		<tag k="historic" v="shieling" />
		<tag k="name" v="Hyttetomta" />
		<tag k="place" v="locality" />
		<tag k="ssr:stedsnr" v="150370" />
	</node>
	<node id="-229135" lat="60.180008335" lon="10.0541861098">
		<tag k="name" v="Tolvputtmyra" />
		<tag k="natural" v="wetland" />
		<tag k="ssr:stedsnr" v="854574" />
	</node>
	<node id="-227082" lat="60.4485222232" lon="9.90631111074">
		<tag k="name" v="Seterbrenna" />
		<tag k="place" v="locality" />
		<tag k="ssr:stedsnr" v="150116" />
	</node>
	<node id="-227078" lat="60.398627779" lon="10.0979305571">
		<tag k="name" v="Kollemyr" />
		<tag k="natural" v="wetland" />
		<tag k="ssr:stedsnr" v="149902" />
	</node>
	<node id="-226993" lat="60.3397916702" lon="10.0753166678">
		<tag k="name" v="Maritura" />
		<tag k="natural" v="scree" />
		<tag k="ssr:stedsnr" v="271955" />
	</node>
	<node id="-227072" lat="60.4768916635" lon="10.0304916659">
		<tag k="name" v="Skomakerstein" />
		<tag k="natural" v="stone" />
		<tag k="ssr:stedsnr" v="149823" />
	</node>
	<node id="-229119" lat="60.1930972219" lon="9.89073889029">
		<tag k="name" v="Geiteryggmyr" />
		<tag k="natural" v="wetland" />
		<tag k="ssr:stedsnr" v="940709" />
	</node>
	<node id="-227062" lat="60.5488222261" lon="10.0812249956">
		<tag k="name" v="Fernmyr" />
		<tag k="natural" v="wetland" />
		<tag k="ssr:stedsnr" v="148470" />
	</node>
	<node id="-231157" lat="60.3174361148" lon="9.75866388749">
		<tag k="name" v="Finnbråtamyra" />
		<tag k="natural" v="wetland" />
		<tag k="ssr:stedsnr" v="576801" />
	</node>
	<node id="-229108" lat="60.4068388875" lon="9.99010278569">
		<tag k="name" v="Gamlemannsmyra" />
		<tag k="natural" v="wetland" />
		<tag k="ssr:stedsnr" v="940079" />
	</node>
	<node id="-231154" lat="60.3566861118" lon="9.83599166719">
		<tag k="name" v="Puttemyr" />
		<tag k="natural" v="wetland" />
		<tag k="ssr:stedsnr" v="575988" />
	</node>
	<node id="-231153" lat="60.3581527743" lon="9.83102777448">
		<tag k="name" v="Sjolmyr" />
		<tag k="natural" v="wetland" />
		<tag k="ssr:stedsnr" v="575987" />
	</node>
	<node id="-231150" lat="60.2699416696" lon="9.87833889451">
		<tag k="name" v="Stormyr" />
		<tag k="natural" v="wetland" />
		<tag k="ssr:stedsnr" v="576153" />
	</node>
	<node id="-229098" lat="60.4813111132" lon="10.0890666673">
		<tag k="name" v="Brenntjernsmyrene" />
		<tag k="natural" v="wetland" />
		<tag k="ssr:stedsnr" v="939842" />
	</node>
	<node id="-229097" lat="60.6142444414" lon="10.0112888966">
		<tag k="name" v="Snarmyr" />
		<tag k="natural" v="wetland" />
		<tag k="ssr:stedsnr" v="939839" />
	</node>
	<node id="-229095" lat="60.612702781" lon="10.0109138823">
		<tag k="name" v="Bjørnestampmyr" />
		<tag k="natural" v="wetland" />
		<tag k="ssr:stedsnr" v="939835" />
	</node>
	<node id="-229094" lat="60.5985166623" lon="9.94672223037">
		<tag k="name" v="Veslemyr" />
		<tag k="natural" v="wetland" />
		<tag k="ssr:stedsnr" v="939833" />
	</node>
	<node id="-227045" lat="60.0774271387" lon="10.4057957707">
		<tag k="alt_name" v="Trøgstadmyra" />
		<tag k="name" v="Trygstadmyra" />
		<tag k="natural" v="wetland" />
		<tag k="ssr:stedsnr" v="147009" />
	</node>
	<node id="-231140" lat="60.3522611118" lon="9.86097777423">
		<tag k="name" v="Åsmyr" />
		<tag k="natural" v="wetland" />
		<tag k="ssr:stedsnr" v="575965" />
	</node>
	<node id="-229091" lat="60.5455111084" lon="9.90289722751">
		<tag k="name" v="Gaupemyr" />
		<tag k="natural" v="wetland" />
		<tag k="ssr:stedsnr" v="939790" />
	</node>
	<node id="-227039" lat="60.4107361141" lon="10.1459694389">
		<tag k="name" v="Setermyr" />
		<tag k="natural" v="wetland" />
		<tag k="ssr:stedsnr" v="146408" />
	</node>
	<node id="-227038" lat="60.410269448" lon="10.1397722179">
		<tag k="historic" v="shieling" />
		<tag k="name" v="Bråtasetra" />
		<tag k="place" v="locality" />
		<tag k="ssr:stedsnr" v="146406" />
	</node>
	<node id="-229085" lat="60.5152249986" lon="9.91459167523">
		<tag k="name" v="Fugleleikmyr" />
		<tag k="natural" v="wetland" />
		<tag k="ssr:stedsnr" v="939724" />
	</node>
	<node id="-227036" lat="60.299263888" lon="9.76932778302">
		<tag k="historic" v="shieling" />
		<tag k="name" v="Aslaugbråten" />
		<tag k="place" v="locality" />
		<tag k="ssr:stedsnr" v="273887" />
	</node>
	<node id="-231310" lat="60.4129194477" lon="10.0207944511">
		<tag k="name" v="Nedre Småtjernmyr" />
		<tag k="natural" v="wetland" />
		<tag k="ssr:stedsnr" v="635121" />
	</node>
	<node id="-227032" lat="60.2046944488" lon="9.81523610747">
		<tag k="name" v="Dyngemyr" />
		<tag k="natural" v="wetland" />
		<tag k="ssr:stedsnr" v="273140" />
	</node>
	<node id="-231126" lat="60.5240305549" lon="9.99074999881">
		<tag k="alt_name" v="Søndre Dobbelleggsmyr" />
		<tag k="name" v="Søre Dobbelleggsmyr" />
		<tag k="natural" v="wetland" />
		<tag k="ssr:stedsnr" v="575682" />
	</node>
	<node id="-231121" lat="60.5106694417" lon="9.8808388851">
		<tag k="name" v="Holtekollmyra" />
		<tag k="natural" v="wetland" />
		<tag k="ssr:stedsnr" v="575342" />
	</node>
	<node id="-229071" lat="60.4241833325" lon="10.0249083398">
		<tag k="name" v="Juvbakkmyrene" />
		<tag k="natural" v="wetland" />
		<tag k="ssr:stedsnr" v="939407" />
	</node>
	<node id="-229070" lat="60.1736277756" lon="9.96473056396">
		<tag k="name" v="Stormyr" />
		<tag k="natural" v="wetland" />
		<tag k="ssr:stedsnr" v="939405" />
	</node>
	<node id="-231116" lat="60.2986027742" lon="9.8093777745">
		<tag k="name" v="Sandåkerbunnene" />
		<tag k="natural" v="wetland" />
		<tag k="ssr:stedsnr" v="575551" />
	</node>
	<node id="-227019" lat="60.5766166671" lon="9.94308888995">
		<tag k="name" v="Geitbråtamyra" />
		<tag k="natural" v="wetland" />
		<tag k="ssr:stedsnr" v="272622" />
	</node>
	<node id="-229065" lat="60.1007861142" lon="10.0186722161">
		<tag k="name" v="Vælerstykket" />
		<tag k="place" v="locality" />
		<tag k="ssr:stedsnr" v="939368" />
	</node>
	<node id="-231111" lat="60.3385027813" lon="10.0986277793">
		<tag k="name" v="Klintemyra" />
		<tag k="natural" v="wetland" />
		<tag k="ssr:stedsnr" v="574982" />
	</node>
	<node id="-227014" lat="60.3054166631" lon="9.79298889496">
		<tag k="name" v="Kjellermyr" />
		<tag k="natural" v="wetland" />
		<tag k="ssr:stedsnr" v="272496" />
	</node>
	<node id="-229061" lat="60.4133083343" lon="10.0145972197">
		<tag k="name" v="Øvre Småtjernmyr" />
		<tag k="natural" v="wetland" />
		<tag k="old_name" v="Småtjernmyr" />
		<tag k="ssr:stedsnr" v="939197" />
	</node>
	<node id="-231108" lat="60.3406611141" lon="10.0409999979">
		<tag k="name" v="Gulrosmyr" />
		<tag k="natural" v="wetland" />
		<tag k="ssr:stedsnr" v="574958" />
	</node>
	<node id="-227006" lat="60.3382722189" lon="10.0634666718">
		<tag k="name" v="Jacobsetermyr" />
		<tag k="natural" v="wetland" />
		<tag k="ssr:stedsnr" v="271949" />
	</node>
	<node id="-231101" lat="60.3525083292" lon="10.0355555527">
		<tag k="name" v="Orremyrene" />
		<tag k="natural" v="wetland" />
		<tag k="ssr:stedsnr" v="574838" />
	</node>
	<node id="-227002" lat="60.3827749984" lon="10.0533027818">
		<tag k="name" v="Nedre Moen" />
		<tag k="place" v="locality" />
		<tag k="ssr:stedsnr" v="271890" />
	</node>
	<node id="-227001" lat="60.4861638872" lon="10.1056333366">
		<tag k="name" v="Klingemyrene" />
		<tag k="natural" v="wetland" />
		<tag k="ssr:stedsnr" v="271888" />
	</node>
	<node id="-231377" lat="60.1955333325" lon="10.2413999997">
		<tag k="name" v="Årbogen" />
		<tag k="place" v="locality" />
		<tag k="ssr:stedsnr" v="752178" />
	</node>
	<node id="-229046" lat="60.4061194424" lon="10.0210166664">
		<tag k="name" v="Stormyr" />
		<tag k="natural" v="wetland" />
		<tag k="ssr:stedsnr" v="939118" />
	</node>
	<node id="-229045" lat="60.4390111113" lon="10.0138361045">
		<tag k="name" v="Storlunnmyra" />
		<tag k="natural" v="wetland" />
		<tag k="ssr:stedsnr" v="939098" />
	</node>
	<node id="-229042" lat="60.5463083336" lon="10.0625944477">
		<tag k="alt_name" v="Håvervikvollen" />
		<tag k="name" v="Håvårvikvollen" />
		<tag k="place" v="locality" />
		<tag k="ssr:stedsnr" v="938490" />
	</node>
	<node id="-229041" lat="60.5573499986" lon="10.0776638955">
		<tag k="name" v="Sandbekkmyr" />
		<tag k="natural" v="wetland" />
		<tag k="ssr:stedsnr" v="938481" />
	</node>
	<node id="-229040" lat="60.5504222195" lon="10.0472916756">
		<tag k="name" v="Delebråten" />
		<tag k="place" v="locality" />
		<tag k="ssr:stedsnr" v="938371" />
	</node>
	<node id="-226990" lat="60.3890750011" lon="10.1131277705">
		<tag k="name" v="Stormyr" />
		<tag k="natural" v="wetland" />
		<tag k="ssr:stedsnr" v="271633" />
	</node>
	<node id="-231078" lat="60.5555166699" lon="10.0828583322">
		<tag k="name" v="Nedre Setermyr" />
		<tag k="natural" v="wetland" />
		<tag k="ssr:stedsnr" v="573462" />
	</node>
	<node id="-229024" lat="60.2539749997" lon="10.2312027812">
		<tag k="name" v="Kudalsmyrene" />
		<tag k="natural" v="wetland" />
		<tag k="ssr:stedsnr" v="937326" />
	</node>
	<node id="-231071" lat="60.1301611105" lon="10.4409555486">
		<tag k="name" v="Gravmyr" />
		<tag k="natural" v="wetland" />
		<tag k="ssr:stedsnr" v="572497" />
	</node>
	<node id="-226974" lat="60.552313886" lon="10.0965749971">
		<tag k="name" v="Gamlesetermyr" />
		<tag k="natural" v="wetland" />
		<tag k="ssr:stedsnr" v="270484" />
	</node>
	<node id="-226972" lat="60.3584250013" lon="10.214005555">
		<tag k="historic" v="shieling" />
		<tag k="name" v="Bråtasetra" />
		<tag k="place" v="locality" />
		<tag k="ssr:stedsnr" v="269989" />
	</node>
	<node id="-226971" lat="60.3599000027" lon="10.2019694479">
		<tag k="name" v="Finnkvernmyra" />
		<tag k="natural" v="wetland" />
		<tag k="ssr:stedsnr" v="269984" />
	</node>
	<node id="-226967" lat="60.122097219" lon="10.4391444408">
		<tag k="name" v="Geitmyra" />
		<tag k="natural" v="wetland" />
		<tag k="ssr:stedsnr" v="269486" />
	</node>
	<node id="-231061" lat="60.3102527783" lon="10.1466416683">
		<tag k="name" v="Kjeipsteinen" />
		<tag k="natural" v="stone" />
		<tag k="ssr:stedsnr" v="571626" />
	</node>
	<node id="-231057" lat="60.5743999955" lon="10.0115361159">
		<tag k="name" v="Fossbråten" />
		<tag k="place" v="locality" />
		<tag k="ssr:stedsnr" v="571523" />
	</node>
	<node id="-226957" lat="60.5726972183" lon="10.0291555473">
		<tag k="name" v="Storkastmyra" />
		<tag k="natural" v="wetland" />
		<tag k="ssr:stedsnr" v="269176" />
	</node>
	<node id="-231052" lat="60.2358833349" lon="9.76042777393">
		<tag k="alt_name" v="Tronbråten" />
		<tag k="name" v="Tronbråtan" />
		<tag k="place" v="locality" />
		<tag k="ssr:stedsnr" v="571288" />
	</node>
	<node id="-229003" lat="60.3869583307" lon="10.1603888919">
		<tag k="name" v="Fjølestokkmyr" />
>>>>>>> e1d4bc35ff8a6074a6f2e91616a996b547c36f15
		<tag k="natural" v="wetland" />
		<tag k="ssr:stedsnr" v="936213" />
	</node>
<<<<<<< HEAD
	<node lat="60.53667499571303" lon="10.088608340252227" id="-15261">
		<tag k="name" v="Briskemyr" />
		<tag k="natural" v="wetland" />
		<tag k="ssr:stedsnr" v="389189" />
	</node>
	<node lat="60.05891388797108" lon="10.440536116108774" id="-15265">
		<tag k="name" v="Sersjantmyra" />
		<tag k="natural" v="wetland" />
		<tag k="ssr:stedsnr" v="390005" />
	</node>
	<node lat="60.11293611035384" lon="10.456469439171226" id="-15268">
		<tag k="name" v="Raubærmyra" />
		<tag k="natural" v="wetland" />
		<tag k="ssr:stedsnr" v="390449" />
	</node>
	<node lat="60.566663887029016" lon="10.082730547264688" id="-15270">
		<tag k="name" v="Øvre Setermyr" />
		<tag k="natural" v="wetland" />
		<tag k="ssr:stedsnr" v="390337" />
	</node>
	<node lat="60.21118333369081" lon="10.3656055584154" id="-15274">
		<tag k="name" v="Hundlandet" />
		<tag k="place" v="locality" />
		<tag k="ssr:stedsnr" v="390744" />
	</node>
	<node lat="60.380427777592864" lon="9.936886109403297" id="-15284">
		<tag k="historic" v="shieling" />
		<tag k="name" v="Ulevassvollen" />
		<tag k="place" v="locality" />
		<tag k="ssr:stedsnr" v="393102" />
	</node>
	<node lat="60.356997219979995" lon="9.924449998144569" id="-15286">
		<tag k="name" v="Østbekkmyra" />
		<tag k="natural" v="wetland" />
		<tag k="ssr:stedsnr" v="393006" />
	</node>
	<node lat="60.47963333752868" lon="9.989030559100804" id="-15291">
		<tag k="name" v="Brøttberga" />
		<tag k="place" v="locality" />
		<tag k="ssr:stedsnr" v="393209" />
	</node>
	<node lat="60.61849722522454" lon="9.953116672603185" id="-15304">
		<tag k="name" v="Berggulmyra" />
		<tag k="natural" v="wetland" />
		<tag k="ssr:stedsnr" v="393930" />
	</node>
	<node lat="60.59398610725784" lon="9.939905553595013" id="-15305">
		<tag k="name" v="Elgsmyr" />
		<tag k="natural" v="wetland" />
		<tag k="ssr:stedsnr" v="393832" />
	</node>
	<node lat="60.14497222626362" lon="10.433930562278642" id="-15320">
		<tag k="alt_name" v="Viksætermyra" />
		<tag k="name" v="Viksetermyra" />
		<tag k="natural" v="wetland" />
		<tag k="ssr:stedsnr" v="418114" />
	</node>
	<node lat="60.227638891930475" lon="10.124411117045742" id="-15322">
		<tag k="name" v="Flåmyr" />
		<tag k="natural" v="wetland" />
		<tag k="ssr:stedsnr" v="489556" />
	</node>
	<node lat="60.23651111296239" lon="9.998175003643553" id="-15325">
		<tag k="alt_name" v="Monsemyr" />
		<tag k="name" v="Monsemyra" />
		<tag k="natural" v="wetland" />
		<tag k="ssr:stedsnr" v="489990" />
	</node>
	<node lat="60.18543333605494" lon="10.263519448436636" id="-15346">
		<tag k="name" v="Hovsmarka" />
		<tag k="place" v="locality" />
		<tag k="ssr:stedsnr" v="490562" />
	</node>
	<node lat="60.33929166825298" lon="10.21372777294284" id="-15452">
		<tag k="name" v="Tomtemyr" />
		<tag k="natural" v="wetland" />
		<tag k="ssr:stedsnr" v="450979" />
	</node>
	<node lat="60.578305555727326" lon="10.07918055753803" id="-15456">
		<tag k="name" v="Setermyra" />
		<tag k="natural" v="wetland" />
		<tag k="ssr:stedsnr" v="451363" />
	</node>
	<node lat="60.3057694430934" lon="9.814911107962278" id="-15465">
		<tag k="name" v="Hvilingsmyr" />
		<tag k="natural" v="wetland" />
		<tag k="ssr:stedsnr" v="272493" />
	</node>
	<node lat="60.30541666313324" lon="9.792988894958599" id="-15466">
		<tag k="name" v="Kjellermyr" />
		<tag k="natural" v="wetland" />
		<tag k="ssr:stedsnr" v="272496" />
	</node>
	<node lat="60.29517221912679" lon="9.836880558498699" id="-15467">
		<tag k="name" v="Eivindbråtamyra" />
		<tag k="natural" v="wetland" />
		<tag k="ssr:stedsnr" v="272520" />
	</node>
	<node lat="60.246491665193275" lon="10.302949998266339" id="-15468">
		<tag k="name" v="Mosemyr" />
		<tag k="natural" v="wetland" />
		<tag k="ssr:stedsnr" v="451812" />
	</node>
	<node lat="60.24135832976139" lon="10.048408332557141" id="-15478">
		<tag k="name" v="Slåttemyr" />
		<tag k="natural" v="wetland" />
		<tag k="ssr:stedsnr" v="671994" />
	</node>
	<node lat="60.451366664836385" lon="10.08009721517698" id="-15479">
		<tag k="name" v="Kleivmyra" />
		<tag k="natural" v="wetland" />
		<tag k="ssr:stedsnr" v="453674" />
	</node>
	<node lat="60.3674416684646" lon="10.057930558982346" id="-15480">
		<tag k="name" v="Kroksrud" />
		<tag k="place" v="locality" />
		<tag k="ssr:stedsnr" v="453802" />
	</node>
	<node lat="60.37919444163832" lon="9.929686110808484" id="-15487">
		<tag k="name" v="Indre Storleinamyr" />
		<tag k="natural" v="wetland" />
		<tag k="ssr:stedsnr" v="454083" />
	</node>
	<node lat="60.07008333072571" lon="9.97678056266173" id="-15499">
		<tag k="name" v="Fugleleikmyra" />
		<tag k="natural" v="wetland" />
		<tag k="ssr:stedsnr" v="672244" />
	</node>
	<node lat="60.58308888928141" lon="9.922172222083116" id="-15506">
		<tag k="name" v="Elgsmyr" />
		<tag k="natural" v="wetland" />
		<tag k="ssr:stedsnr" v="454669" />
	</node>
	<node lat="60.572466664537934" lon="9.91506944735595" id="-15507">
		<tag k="name" v="Akkordmyra" />
		<tag k="natural" v="wetland" />
		<tag k="ssr:stedsnr" v="454672" />
	</node>
	<node lat="60.16245555650108" lon="10.139300002383958" id="-15521">
		<tag k="name" v="Stormyra" />
		<tag k="natural" v="wetland" />
		<tag k="ssr:stedsnr" v="672569" />
	</node>
	<node lat="60.29258611337409" lon="9.768022218564974" id="-15531">
		<tag k="name" v="Langemyr" />
		<tag k="natural" v="wetland" />
		<tag k="ssr:stedsnr" v="455862" />
	</node>
	<node lat="60.31869167083643" lon="10.234594436827717" id="-15557">
		<tag k="name" v="Setermyra" />
		<tag k="natural" v="wetland" />
		<tag k="ssr:stedsnr" v="673486" />
	</node>
	<node lat="60.54014999808689" lon="10.101663896873104" id="-15585">
		<tag k="alt_name" v="Sørlitjernet" />
		<tag k="name" v="Sørlitjern" />
		<tag k="natural" v="wetland" />
		<tag k="ssr:stedsnr" v="674550" />
	</node>
	<node lat="60.037677776429156" lon="10.4943166695191" id="-15642">
		<tag k="name" v="Karlstadmyra" />
		<tag k="natural" v="wetland" />
		<tag k="ssr:stedsnr" v="490948" />
	</node>
	<node lat="60.14207222315363" lon="10.416372217332055" id="-15643">
		<tag k="name" v="Klotermyra" />
		<tag k="natural" v="wetland" />
		<tag k="ssr:stedsnr" v="491124" />
	</node>
	<node lat="60.47309722458638" lon="10.096300007992198" id="-15649">
		<tag k="alt_name" v="Igulsmyra" />
		<tag k="name" v="Igulsmyr" />
		<tag k="natural" v="wetland" />
		<tag k="ssr:stedsnr" v="491572" />
	</node>
	<node lat="60.3017833289761" lon="9.949711115431855" id="-15658">
		<tag k="name" v="Hvelvkastmyra" />
		<tag k="natural" v="wetland" />
		<tag k="ssr:stedsnr" v="491678" />
	</node>
	<node lat="60.364211112229036" lon="10.15971111648538" id="-15687">
		<tag k="name" v="Nedre Ringsetermyrene" />
		<tag k="natural" v="wetland" />
		<tag k="ssr:stedsnr" v="511214" />
	</node>
	<node lat="60.55555277398515" lon="10.032238895668565" id="-15689">
		<tag k="name" v="Rysjumyr" />
		<tag k="natural" v="wetland" />
		<tag k="ssr:stedsnr" v="511342" />
	</node>
	<node lat="60.10449166729967" lon="10.517252783777959" id="-15691">
		<tag k="name" v="Rumpemyrene" />
		<tag k="natural" v="wetland" />
		<tag k="ssr:stedsnr" v="511399" />
	</node>
	<node lat="60.43786666599803" lon="10.14784999371099" id="-15693">
		<tag k="name" v="Lomtjernmyrene" />
		<tag k="natural" v="wetland" />
		<tag k="ssr:stedsnr" v="511742" />
	</node>
	<node lat="60.435758335456526" lon="9.986916669588314" id="-15715">
		<tag k="name" v="Hestemyr" />
		<tag k="natural" v="wetland" />
		<tag k="ssr:stedsnr" v="514109" />
	</node>
	<node lat="60.144827781292584" lon="10.13390833102209" id="-15718">
		<tag k="name" v="Raukastmyra" />
		<tag k="natural" v="wetland" />
		<tag k="ssr:stedsnr" v="514280" />
	</node>
	<node lat="60.19246111560327" lon="9.903861107765383" id="-15743">
		<tag k="name" v="Sandakermyra" />
		<tag k="natural" v="wetland" />
		<tag k="ssr:stedsnr" v="515735" />
	</node>
	<node lat="60.287747219442316" lon="9.765541675317863" id="-15745">
		<tag k="name" v="Vintermyr" />
		<tag k="natural" v="wetland" />
		<tag k="ssr:stedsnr" v="515871" />
	</node>
	<node lat="60.03637367365763" lon="10.475352474031006" id="-15779">
		<tag k="name" v="Dammyra" />
		<tag k="natural" v="wetland" />
		<tag k="ssr:stedsnr" v="551940" />
	</node>
	<node lat="60.51922500333592" lon="10.002458327165717" id="-15803">
		<tag k="alt_name" v="Langmyra" />
		<tag k="name" v="Langmyr" />
		<tag k="natural" v="wetland" />
		<tag k="ssr:stedsnr" v="553537" />
	</node>
	<node lat="60.15671824901088" lon="10.263817529590874" id="-15806">
		<tag k="name" v="Schjongslunden" />
		<tag k="place" v="locality" />
		<tag k="ssr:stedsnr" v="692609" />
	</node>
	<node lat="60.09978611419717" lon="10.418600006019703" id="-15813">
		<tag k="name" v="Lauvliflaka" />
		<tag k="natural" v="wetland" />
		<tag k="ssr:stedsnr" v="693063" />
	</node>
	<node lat="60.57439999554302" lon="10.01153611591739" id="-15826">
		<tag k="name" v="Fossbråten" />
		<tag k="place" v="locality" />
		<tag k="ssr:stedsnr" v="571523" />
	</node>
	<node lat="60.34756944297939" lon="10.207874998973525" id="-15843">
		<tag k="name" v="Svingemyr" />
		<tag k="natural" v="wetland" />
		<tag k="ssr:stedsnr" v="693967" />
	</node>
	<node lat="60.11528333584416" lon="10.508033337927651" id="-15864">
		<tag k="historic" v="shieling" />
		<tag k="name" v="Vesleflåtasetervollen" />
		<tag k="place" v="locality" />
		<tag k="ssr:stedsnr" v="694344" />
	</node>
	<node lat="60.19896388492245" lon="10.214441668685621" id="-15866">
		<tag k="landuse" v="quarry" />
		<tag k="name" v="Vestsiden Pukkverk" />
		<tag k="ssr:stedsnr" v="694420" />
	</node>
	<node lat="60.34066111406691" lon="10.040999997909973" id="-15868">
		<tag k="name" v="Gulrosmyr" />
		<tag k="natural" v="wetland" />
		<tag k="ssr:stedsnr" v="574958" />
	</node>
	<node lat="60.12347222513373" lon="9.960983334860417" id="-15870">
		<tag k="name" v="Tretjernskogen" />
		<tag k="place" v="locality" />
		<tag k="ssr:stedsnr" v="575304" />
	</node>
	<node lat="60.32823333224055" lon="9.881694451869151" id="-15880">
		<tag k="name" v="Tjæreovnsmyra" />
		<tag k="natural" v="wetland" />
		<tag k="ssr:stedsnr" v="575513" />
	</node>
	<node lat="60.298602774193164" lon="9.809377774504261" id="-15881">
		<tag k="name" v="Sandåkerbunnene" />
		<tag k="natural" v="wetland" />
		<tag k="ssr:stedsnr" v="575551" />
	</node>
	<node lat="60.56744722040452" lon="9.954716669513427" id="-15887">
		<tag k="name" v="Torvmyra" />
		<tag k="natural" v="wetland" />
		<tag k="ssr:stedsnr" v="575649" />
	</node>
	<node lat="60.269941669636985" lon="9.878338894513849" id="-15892">
		<tag k="name" v="Stormyr" />
		<tag k="natural" v="wetland" />
		<tag k="ssr:stedsnr" v="576153" />
	</node>
	<node lat="60.317436114789984" lon="9.758663887491807" id="-15895">
		<tag k="name" v="Finnbråtamyra" />
		<tag k="natural" v="wetland" />
		<tag k="ssr:stedsnr" v="576801" />
	</node>
	<node lat="60.54335274833916" lon="10.038398045172114" id="-15899">
		<tag k="name" v="Fåstein" />
		<tag k="natural" v="stone" />
		<tag k="ssr:stedsnr" v="695495" />
	</node>
	<node lat="60.29595833533878" lon="10.019127777786974" id="-15916">
		<tag k="alt_name" v="Lurehøvlvollen" />
		<tag k="historic" v="shieling" />
		<tag k="name" v="Lurehølvollen" />
		<tag k="place" v="locality" />
		<tag k="ssr:stedsnr" v="696627" />
	</node>
	<node lat="60.37564444398354" lon="10.122408332315707" id="-15922">
		<tag k="name" v="Langsperillmyr" />
		<tag k="natural" v="wetland" />
		<tag k="ssr:stedsnr" v="696636" />
	</node>
	<node lat="60.495508335871385" lon="10.081038892211144" id="-15935">
		<tag k="name" v="Svea" />
		<tag k="place" v="locality" />
		<tag k="ssr:stedsnr" v="696841" />
	</node>
	<node lat="60.268205558461645" lon="9.859672228077597" id="-15952">
		<tag k="name" v="Kyrdokka" />
		<tag k="place" v="locality" />
		<tag k="ssr:stedsnr" v="697182" />
	</node>
	<node lat="60.228052777196474" lon="9.810561102122545" id="-15954">
		<tag k="name" v="Ringmyr" />
		<tag k="natural" v="wetland" />
		<tag k="ssr:stedsnr" v="697160" />
	</node>
	<node lat="60.17371111547267" lon="9.989872220014357" id="-15988">
		<tag k="name" v="Flåmyrene" />
		<tag k="natural" v="wetland" />
		<tag k="ssr:stedsnr" v="611628" />
	</node>
	<node lat="60.11090555863086" lon="10.259738890236072" id="-15996">
		<tag k="alt_name" v="Lamyra" />
		<tag k="name" v="Mosmyra" />
		<tag k="natural" v="wetland" />
		<tag k="ssr:stedsnr" v="611759" />
	</node>
	<node lat="60.04366944719189" lon="10.47422499980702" id="-16000">
		<tag k="name" v="Fuglemyra" />
		<tag k="natural" v="wetland" />
		<tag k="ssr:stedsnr" v="611965" />
	</node>
	<node lat="60.29666944204873" lon="10.24604721449821" id="-16004">
		<tag k="alt_name" v="Trettemyr" />
		<tag k="name" v="Trettemyra" />
		<tag k="natural" v="wetland" />
		<tag k="ssr:stedsnr" v="612402" />
	</node>
	<node lat="60.542397224584654" lon="9.963441674349408" id="-16036">
		<tag k="name" v="Løkebråtan" />
		<tag k="place" v="locality" />
		<tag k="ssr:stedsnr" v="631504" />
	</node>
	<node lat="60.26219166823037" lon="9.766630551403717" id="-16041">
		<tag k="name" v="Jutesetermyra" />
		<tag k="natural" v="wetland" />
		<tag k="ssr:stedsnr" v="632233" />
	</node>
	<node lat="60.25425832912857" lon="10.277997228126813" id="-16053">
		<tag k="name" v="Syvputtmyr" />
		<tag k="natural" v="wetland" />
		<tag k="ssr:stedsnr" v="633827" />
	</node>
	<node lat="60.16828888471436" lon="9.985019436888729" id="-16065">
		<tag k="name" v="Brandmyr" />
		<tag k="natural" v="wetland" />
		<tag k="ssr:stedsnr" v="635330" />
	</node>
	<node lat="60.4578944479809" lon="10.080441662831287" id="-16077">
		<tag k="name" v="Saltmyra" />
		<tag k="natural" v="wetland" />
		<tag k="ssr:stedsnr" v="635742" />
	</node>
	<node lat="60.55213333287791" lon="9.91943611989902" id="-16078">
		<tag k="name" v="Busemannmyra" />
		<tag k="natural" v="wetland" />
		<tag k="ssr:stedsnr" v="635776" />
	</node>
	<node lat="60.55334444045486" lon="9.935372219211763" id="-16080">
		<tag k="historic" v="shieling" />
		<tag k="name" v="Vestre Holtesetra" />
		<tag k="place" v="locality" />
		<tag k="ssr:stedsnr" v="635781" />
	</node>
	<node lat="60.26387777445502" lon="9.826791660996692" id="-16090">
		<tag k="name" v="Kolbotnmyr" />
		<tag k="natural" v="wetland" />
		<tag k="ssr:stedsnr" v="636209" />
	</node>
	<node lat="60.49515555656243" lon="9.824263883004487" id="-16094">
		<tag k="name" v="Leggmyra" />
		<tag k="natural" v="wetland" />
		<tag k="ssr:stedsnr" v="636335" />
	</node>
	<node lat="60.34013611229996" lon="9.8374166589645" id="-16098">
		<tag k="name" v="Siniumyra" />
		<tag k="natural" v="wetland" />
		<tag k="ssr:stedsnr" v="636976" />
	</node>
	<node lat="60.1230805521324" lon="10.056583340314102" id="-16120">
		<tag k="name" v="Stormyra" />
		<tag k="natural" v="wetland" />
		<tag k="ssr:stedsnr" v="671716" />
	</node>
	<node lat="60.21849999925292" lon="9.917302770159832" id="-16133">
		<tag k="landuse" v="meadow" />
		<tag k="name" v="Enga" />
		<tag k="ssr:stedsnr" v="672187" />
	</node>
	<node lat="60.07495833656145" lon="10.490988883749427" id="-16153">
		<tag k="name" v="Heimmyra" />
		<tag k="natural" v="wetland" />
		<tag k="ssr:stedsnr" v="673266" />
	</node>
	<node lat="60.50268611049379" lon="10.139625008623211" id="-16205">
		<tag k="name" v="Nedre Kollemyra" />
		<tag k="natural" v="wetland" />
		<tag k="ssr:stedsnr" v="694881" />
	</node>
	<node lat="60.368608337561405" lon="9.923127782479485" id="-16212">
		<tag k="name" v="Nedre Halendingsmyr" />
		<tag k="natural" v="wetland" />
		<tag k="ssr:stedsnr" v="696078" />
	</node>
	<node lat="60.42268333082146" lon="10.025097222708295" id="-16219">
		<tag k="name" v="Liamyra" />
		<tag k="natural" v="wetland" />
		<tag k="ssr:stedsnr" v="696418" />
	</node>
	<node lat="60.19859722261731" lon="9.933188891828928" id="-16225">
		<tag k="name" v="Korgerudrønningen" />
		<tag k="place" v="locality" />
		<tag k="ssr:stedsnr" v="696680" />
	</node>
	<node lat="60.341697223266316" lon="9.834666661602288" id="-16252">
		<tag k="name" v="Traneslåtta" />
		<tag k="place" v="locality" />
		<tag k="ssr:stedsnr" v="697979" />
	</node>
	<node lat="60.24893610713037" lon="9.999583329707168" id="-16285">
		<tag k="alt_name" v="Rørmyra" />
		<tag k="name" v="Rørmyr" />
		<tag k="natural" v="wetland" />
		<tag k="ssr:stedsnr" v="733964" />
	</node>
	<node lat="60.307602775827014" lon="10.24330000689235" id="-16301">
		<tag k="name" v="Langmyr" />
		<tag k="natural" v="wetland" />
		<tag k="ssr:stedsnr" v="734534" />
	</node>
	<node lat="60.52923611218204" lon="10.102077775108722" id="-16329">
		<tag k="name" v="Hyttemyr" />
		<tag k="natural" v="wetland" />
		<tag k="ssr:stedsnr" v="753157" />
	</node>
	<node lat="60.383838892761595" lon="10.167802779972167" id="-16344">
		<tag k="name" v="Orremyr" />
=======
	<node id="-229002" lat="60.1052055545" lon="10.3855500089">
		<tag k="name" v="Skardmyra" />
		<tag k="natural" v="wetland" />
		<tag k="ssr:stedsnr" v="936049" />
	</node>
	<node id="-229001" lat="60.5721416685" lon="10.0854666657">
		<tag k="name" v="Stormyr" />
		<tag k="natural" v="wetland" />
		<tag k="ssr:stedsnr" v="936326" />
	</node>
	<node id="-226952" lat="60.2455361121" lon="10.2404444529">
		<tag k="name" v="Oksemyr" />
		<tag k="natural" v="wetland" />
		<tag k="ssr:stedsnr" v="269300" />
	</node>
	<node id="-226943" lat="60.1034416699" lon="10.5295750028">
		<tag k="name" v="Hestemyr" />
		<tag k="natural" v="wetland" />
		<tag k="ssr:stedsnr" v="268388" />
	</node>
	<node id="-226941" lat="60.2687666628" lon="9.76591389449">
		<tag k="name" v="Andersbråten" />
		<tag k="place" v="locality" />
		<tag k="ssr:stedsnr" v="268198" />
	</node>
	<node id="-226938" lat="60.5402444481" lon="10.0859916732">
		<tag k="name" v="Stakamyr" />
		<tag k="natural" v="wetland" />
		<tag k="ssr:stedsnr" v="268188" />
	</node>
	<node id="-228985" lat="60.3366194418" lon="9.83004444644">
		<tag k="name" v="Hestemyr" />
		<tag k="natural" v="wetland" />
		<tag k="ssr:stedsnr" v="819974" />
	</node>
	<node id="-228984" lat="60.3438250033" lon="9.84327222482">
		<tag k="name" v="Gamlemannsstykket" />
		<tag k="place" v="locality" />
		<tag k="ssr:stedsnr" v="819972" />
	</node>
	<node id="-228983" lat="60.3427555578" lon="10.1236638891">
		<tag k="name" v="Midtmovollen" />
		<tag k="place" v="locality" />
		<tag k="ssr:stedsnr" v="818974" />
	</node>
	<node id="-227262" lat="60.3791944416" lon="9.92968611081">
		<tag k="name" v="Indre Storleinamyr" />
		<tag k="natural" v="wetland" />
		<tag k="ssr:stedsnr" v="454083" />
	</node>
	<node id="-226930" lat="60.1906944407" lon="10.2120194468">
		<tag k="name" v="Hagan" />
		<tag k="place" v="locality" />
		<tag k="ssr:stedsnr" v="267116" />
	</node>
	<node id="-228972" lat="60.5310666709" lon="9.93583611077">
		<tag k="name" v="Gladhaugmyra" />
		<tag k="natural" v="wetland" />
		<tag k="ssr:stedsnr" v="818715" />
	</node>
	<node id="-228959" lat="60.4406249966" lon="9.99775000441">
		<tag k="name" v="Stormyr" />
		<tag k="natural" v="wetland" />
		<tag k="ssr:stedsnr" v="818080" />
	</node>
	<node id="-228957" lat="60.372438887" lon="9.92100555671">
		<tag k="name" v="Øvre Halendingsmyr" />
		<tag k="natural" v="wetland" />
		<tag k="ssr:stedsnr" v="818057" />
	</node>
	<node id="-228953" lat="60.4006333373" lon="10.0220805477">
		<tag k="name" v="Moltemyr" />
		<tag k="natural" v="wetland" />
		<tag k="ssr:stedsnr" v="817511" />
	</node>
	<node id="-228952" lat="60.4525944406" lon="10.0434888863">
		<tag k="name" v="Vikerlund" />
		<tag k="place" v="locality" />
		<tag k="ssr:stedsnr" v="817317" />
	</node>
	<node id="-228946" lat="60.1715583366" lon="10.4051333349">
		<tag k="name" v="Bunningsmyra" />
		<tag k="natural" v="wetland" />
		<tag k="ssr:stedsnr" v="815259" />
	</node>
	<node id="-228943" lat="60.2656444475" lon="9.76118055532">
		<tag k="name" v="Paddetjernmyra" />
		<tag k="natural" v="wetland" />
		<tag k="ssr:stedsnr" v="815205" />
	</node>
	<node id="-228939" lat="60.1810166659" lon="10.2283333251">
		<tag k="name" v="Snippen" />
		<tag k="place" v="locality" />
		<tag k="ssr:stedsnr" v="813163" />
	</node>
	<node id="-230981" lat="60.0339472231" lon="10.4779750035">
		<tag k="name" v="Dammyra" />
		<tag k="natural" v="wetland" />
		<tag k="ssr:stedsnr" v="551940" />
	</node>
	<node id="-231032" lat="60.5192250033" lon="10.0024583272">
		<tag k="alt_name" v="Langmyra" />
		<tag k="name" v="Langmyr" />
		<tag k="natural" v="wetland" />
		<tag k="ssr:stedsnr" v="553537" />
	</node>
	<node id="-228924" lat="60.4334944424" lon="10.0031583326">
		<tag k="name" v="Hesjamyr" />
		<tag k="natural" v="wetland" />
		<tag k="ssr:stedsnr" v="795373" />
	</node>
	<node id="-230961" lat="60.108516667" lon="10.4432638917">
		<tag k="alt_name" v="Atjernsmyrene" />
		<tag k="name" v="Atjernmyrene" />
		<tag k="natural" v="wetland" />
		<tag k="ssr:stedsnr" v="551184" />
	</node>
	<node id="-226863" lat="60.6211888906" lon="9.98469999656">
		<tag k="alt_name" v="Stormyra" />
		<tag k="name" v="Stormyr" />
		<tag k="natural" v="wetland" />
		<tag k="ssr:stedsnr" v="249897" />
	</node>
	<node id="-230953" lat="60.1235361086" lon="10.4347444381">
		<tag k="name" v="Røssimyra" />
		<tag k="natural" v="wetland" />
		<tag k="ssr:stedsnr" v="551064" />
	</node>
	<node id="-226851" lat="60.2967749975" lon="9.76677499354">
		<tag k="name" v="Aslaugmyra" />
		<tag k="natural" v="wetland" />
		<tag k="ssr:stedsnr" v="249658" />
	</node>
	<node id="-230941" lat="60.1144027799" lon="9.97282777056">
		<tag k="name" v="Stormyra" />
		<tag k="natural" v="wetland" />
		<tag k="ssr:stedsnr" v="550681" />
	</node>
	<node id="-226839" lat="60.4424888852" lon="9.95158611493">
		<tag k="name" v="Venemyr" />
		<tag k="natural" v="wetland" />
		<tag k="ssr:stedsnr" v="248909" />
	</node>
	<node id="-228879" lat="60.5669447146" lon="9.8505968527">
		<tag k="alt_name" v="Slåttebråten" />
		<tag k="landuse" v="meadow" />
		<tag k="name" v="Slåttebråtan" />
		<tag k="ssr:stedsnr" v="917824" />
	</node>
	<node id="-226816" lat="60.2987444447" lon="10.0426694358">
		<tag k="name" v="Stormyrene" />
		<tag k="natural" v="wetland" />
		<tag k="ssr:stedsnr" v="248488" />
	</node>
	<node id="-226806" lat="60.1088638869" lon="10.4154138952">
		<tag k="alt_name" v="Ringsmyrene" />
		<tag k="name" v="Ringsmyrane" />
		<tag k="natural" v="wetland" />
		<tag k="ssr:stedsnr" v="248163" />
	</node>
	<node id="-228845" lat="60.2813250038" lon="10.0227444409">
		<tag k="name" v="Steinhusmyrene" />
		<tag k="natural" v="wetland" />
		<tag k="ssr:stedsnr" v="916430" />
	</node>
	<node id="-226796" lat="60.1374583294" lon="10.4841999914">
		<tag k="name" v="Karpemyra" />
		<tag k="natural" v="wetland" />
		<tag k="ssr:stedsnr" v="248073" />
	</node>
	<node id="-230994" lat="60.2964166631" lon="10.2063305631">
		<tag k="name" v="Dammyra" />
		<tag k="natural" v="wetland" />
		<tag k="ssr:stedsnr" v="552418" />
	</node>
	<node id="-226788" lat="60.1349750002" lon="10.0580555477">
		<tag k="alt_name" v="Røssemyr" />
		<tag k="name" v="Røsimyra" />
		<tag k="natural" v="wetland" />
		<tag k="ssr:stedsnr" v="247657" />
	</node>
	<node id="-228831" lat="60.0370138856" lon="10.4838194461">
		<tag k="name" v="Haramyra" />
		<tag k="natural" v="wetland" />
		<tag k="ssr:stedsnr" v="915940" />
	</node>
	<node id="-226782" lat="60.1473583291" lon="10.087466666">
		<tag k="name" v="Skjærsjømyra" />
		<tag k="natural" v="wetland" />
		<tag k="ssr:stedsnr" v="247607" />
	</node>
	<node id="-230875" lat="60.3439416665" lon="9.91460000565">
		<tag k="name" v="Tverrmyra" />
		<tag k="natural" v="wetland" />
		<tag k="ssr:stedsnr" v="431866" />
	</node>
	<node id="-226758" lat="60.2986805538" lon="9.72596666411">
		<tag k="alt_name" v="Dammyra" />
		<tag k="name" v="Dammyr" />
		<tag k="natural" v="wetland" />
		<tag k="ssr:stedsnr" v="67843" />
	</node>
	<node id="-226756" lat="60.5959722252" lon="9.93709722266">
		<tag k="alt_name" v="Stormyra" />
		<tag k="name" v="Store Trollemyr" />
		<tag k="natural" v="wetland" />
		<tag k="ssr:stedsnr" v="67935" />
	</node>
	<node id="-228803" lat="60.2910944485" lon="9.77412221702">
		<tag k="historic" v="shieling" />
		<tag k="name" v="Brattebakkbråten" />
		<tag k="place" v="locality" />
		<tag k="ssr:stedsnr" v="758869" />
	</node>
	<node id="-226753" lat="60.503544442" lon="10.0989833307">
		<tag k="alt_name" v="Stormyr" />
		<tag k="name" v="Stormyra" />
		<tag k="natural" v="wetland" />
		<tag k="ssr:stedsnr" v="67528" />
	</node>
	<node id="-228799" lat="60.2832583309" lon="10.0243527775">
		<tag k="name" v="Steinhusmyrene" />
		<tag k="natural" v="wetland" />
		<tag k="ssr:stedsnr" v="757884" />
	</node>
	<node id="-226750" lat="60.303636112" lon="10.1281083296">
		<tag k="alt_name" v="Hornsætermyrene" />
		<tag k="name" v="Hornsetermyra" />
		<tag k="natural" v="wetland" />
		<tag k="ssr:stedsnr" v="67509" />
	</node>
	<node id="-230843" lat="60.1185416664" lon="10.3583694465">
		<tag k="name" v="Haukemyra" />
		<tag k="natural" v="wetland" />
		<tag k="ssr:stedsnr" v="430071" />
	</node>
	<node id="-226745" lat="60.4612555576" lon="10.0861305484">
		<tag k="alt_name" v="Orremyra" />
		<tag k="name" v="Orremyr" />
		<tag k="natural" v="wetland" />
		<tag k="ssr:stedsnr" v="66504" />
	</node>
	<node id="-228791" lat="60.338827781" lon="10.0509083284">
		<tag k="name" v="Stormyr" />
		<tag k="natural" v="wetland" />
		<tag k="ssr:stedsnr" v="757938" />
	</node>
	<node id="-228786" lat="60.3204694444" lon="9.91184444566">
		<tag k="name" v="Brattebakkmyr" />
		<tag k="natural" v="wetland" />
		<tag k="ssr:stedsnr" v="757919" />
	</node>
	<node id="-226726" lat="60.0812249991" lon="10.3576777835">
		<tag k="name" v="Nordre Muggerudmyra" />
		<tag k="natural" v="wetland" />
		<tag k="ssr:stedsnr" v="65235" />
	</node>
	<node id="-226715" lat="60.4798222185" lon="9.82907221483">
		<tag k="alt_name" v="Kjørkemyra" />
		<tag k="name" v="Kyrkjemyra" />
		<tag k="natural" v="wetland" />
		<tag k="ssr:stedsnr" v="53916" />
	</node>
	<node id="-230806" lat="60.5939861073" lon="9.9399055536">
		<tag k="name" v="Elgsmyr" />
		<tag k="natural" v="wetland" />
		<tag k="ssr:stedsnr" v="393832" />
	</node>
	<node id="-226708" lat="60.2197555526" lon="9.85582221537">
		<tag k="name" v="Steinsmyr" />
		<tag k="natural" v="wetland" />
		<tag k="ssr:stedsnr" v="30721" />
	</node>
	<node id="-230803" lat="60.5306250017" lon="9.91862778538">
		<tag k="name" v="Bjørnhugumyra" />
		<tag k="natural" v="wetland" />
		<tag k="ssr:stedsnr" v="393775" />
	</node>
	<node id="-230802" lat="60.6184972252" lon="9.9531166726">
		<tag k="name" v="Berggulmyra" />
		<tag k="natural" v="wetland" />
		<tag k="ssr:stedsnr" v="393930" />
	</node>
	<node id="-230790" lat="60.0960833362" lon="9.96041111606">
		<tag k="alt_name" v="Kalbumyra" />
		<tag k="name" v="Kolbumyra" />
		<tag k="natural" v="wetland" />
		<tag k="ssr:stedsnr" v="393349" />
	</node>
	<node id="-230789" lat="60.563980559" lon="9.82386389416">
		<tag k="name" v="Tjernmyr" />
		<tag k="natural" v="wetland" />
		<tag k="ssr:stedsnr" v="393301" />
	</node>
	<node id="-226692" lat="60.4207722215" lon="10.1464083322">
		<tag k="name" v="Balerotmyr" />
		<tag k="natural" v="wetland" />
		<tag k="ssr:stedsnr" v="26917" />
	</node>
	<node id="-226690" lat="60.1390666684" lon="10.2662888841">
		<tag k="name" v="Stabbursåkeren" />
		<tag k="place" v="locality" />
		<tag k="ssr:stedsnr" v="26912" />
	</node>
	<node id="-230784" lat="60.4224083304" lon="10.0031861143">
		<tag k="name" v="Fiskejofurumyra" />
		<tag k="natural" v="wetland" />
		<tag k="ssr:stedsnr" v="393193" />
	</node>
	<node id="-226685" lat="60.1627311699" lon="10.2163853372">
		<tag k="name" v="Bakkerud" />
		<tag k="place" v="locality" />
		<tag k="ssr:stedsnr" v="26029" />
	</node>
	<node id="-228731" lat="60.2280527772" lon="9.81056110212">
		<tag k="name" v="Ringmyr" />
		<tag k="natural" v="wetland" />
		<tag k="ssr:stedsnr" v="697160" />
	</node>
	<node id="-226682" lat="60.2792472181" lon="10.2250277761">
		<tag k="name" v="Slåttemyrene" />
		<tag k="natural" v="wetland" />
		<tag k="ssr:stedsnr" v="25511" />
	</node>
	<node id="-226681" lat="60.5382805591" lon="10.1020027746">
		<tag k="name" v="Snøplogmyr" />
		<tag k="natural" v="wetland" />
		<tag k="ssr:stedsnr" v="25209" />
	</node>
	<node id="-226678" lat="60.1883305551" lon="10.2278083279">
		<tag k="name" v="Låvejordet" />
		<tag k="place" v="locality" />
		<tag k="ssr:stedsnr" v="24128" />
	</node>
	<node id="-226667" lat="60.3416611126" lon="9.91718054706">
		<tag k="name" v="Hyttemyra" />
		<tag k="natural" v="wetland" />
		<tag k="ssr:stedsnr" v="6850" />
	</node>
	<node id="-228710" lat="60.4226833308" lon="10.0250972227">
		<tag k="name" v="Liamyra" />
		<tag k="natural" v="wetland" />
		<tag k="ssr:stedsnr" v="696418" />
	</node>
	<node id="-230756" lat="60.2593499978" lon="10.2770749977">
		<tag k="name" v="Lundemyr" />
		<tag k="natural" v="wetland" />
		<tag k="ssr:stedsnr" v="390820" />
	</node>
	<node id="-230753" lat="60.2111833337" lon="10.3656055584">
		<tag k="name" v="Hundlandet" />
		<tag k="place" v="locality" />
		<tag k="ssr:stedsnr" v="390744" />
	</node>
	<node id="-230750" lat="60.1129361104" lon="10.4564694392">
		<tag k="name" v="Raubærmyra" />
		<tag k="natural" v="wetland" />
		<tag k="ssr:stedsnr" v="390449" />
	</node>
	<node id="-228700" lat="60.1989638849" lon="10.2144416687">
		<tag k="landuse" v="quarry" />
		<tag k="name" v="Vestsiden Pukkverk" />
		<tag k="ssr:stedsnr" v="694420" />
	</node>
	<node id="-228695" lat="60.347569443" lon="10.207874999">
		<tag k="name" v="Svingemyr" />
		<tag k="natural" v="wetland" />
		<tag k="ssr:stedsnr" v="693967" />
	</node>
	<node id="-230742" lat="60.566663887" lon="10.0827305473">
		<tag k="name" v="Øvre Setermyr" />
		<tag k="natural" v="wetland" />
		<tag k="ssr:stedsnr" v="390337" />
	</node>
	<node id="-227214" lat="60.5783055557" lon="10.0791805575">
		<tag k="name" v="Setermyra" />
		<tag k="natural" v="wetland" />
		<tag k="ssr:stedsnr" v="451363" />
	</node>
	<node id="-230735" lat="60.5652305553" lon="10.0106444411">
		<tag k="name" v="Krakamyr" />
		<tag k="natural" v="wetland" />
		<tag k="ssr:stedsnr" v="389546" />
	</node>
	<node id="-228678" lat="60.0997861142" lon="10.418600006">
		<tag k="name" v="Lauvliflaka" />
		<tag k="natural" v="wetland" />
		<tag k="ssr:stedsnr" v="693063" />
	</node>
	<node id="-229942" lat="60.5718500031" lon="10.0219888898">
		<tag k="name" v="Veslesetermyra" />
		<tag k="natural" v="wetland" />
		<tag k="ssr:stedsnr" v="147172" />
	</node>
	<node id="-230715" lat="60.3266583292" lon="9.92706110982">
		<tag k="name" v="Langmyra" />
		<tag k="natural" v="wetland" />
		<tag k="ssr:stedsnr" v="370879" />
	</node>
	<node id="-231296" lat="60.2542583291" lon="10.2779972281">
		<tag k="name" v="Syvputtmyr" />
		<tag k="natural" v="wetland" />
		<tag k="ssr:stedsnr" v="633827" />
	</node>
	<node id="-228653" lat="60.2209111084" lon="9.86917777227">
		<tag k="name" v="Langemyr" />
		<tag k="natural" v="wetland" />
		<tag k="ssr:stedsnr" v="880745" />
	</node>
	<node id="-228650" lat="60.2503361114" lon="9.85559166539">
		<tag k="name" v="Mosemyr" />
>>>>>>> e1d4bc35ff8a6074a6f2e91616a996b547c36f15
		<tag k="natural" v="wetland" />
		<tag k="ssr:stedsnr" v="880170" />
	</node>
<<<<<<< HEAD
	<node lat="60.38684722480967" lon="10.116688883642546" id="-16362">
		<tag k="name" v="Gullerudsetermyr" />
		<tag k="natural" v="wetland" />
		<tag k="ssr:stedsnr" v="757559" />
	</node>
	<node lat="60.508425002279346" lon="9.993313885786968" id="-16365">
		<tag k="name" v="Tyrilamyr" />
		<tag k="natural" v="wetland" />
		<tag k="ssr:stedsnr" v="757616" />
	</node>
	<node lat="60.320469444350614" lon="9.911844445659252" id="-16373">
		<tag k="name" v="Brattebakkmyr" />
		<tag k="natural" v="wetland" />
		<tag k="ssr:stedsnr" v="757919" />
	</node>
	<node lat="60.16118333238619" lon="10.201094451665487" id="-16395">
		<tag k="name" v="Sørumsmarka" />
		<tag k="place" v="locality" />
		<tag k="ssr:stedsnr" v="793677" />
	</node>
	<node lat="60.10935833695746" lon="10.055955558972613" id="-16398">
		<tag k="name" v="Bleikmyr" />
		<tag k="natural" v="wetland" />
		<tag k="ssr:stedsnr" v="793708" />
	</node>
	<node lat="60.037013885620475" lon="10.483819446083778" id="-16479">
		<tag k="name" v="Haramyra" />
		<tag k="natural" v="wetland" />
		<tag k="ssr:stedsnr" v="915940" />
	</node>
	<node lat="60.28132500379792" lon="10.022744440876131" id="-16491">
		<tag k="name" v="Steinhusmyrene" />
		<tag k="natural" v="wetland" />
		<tag k="ssr:stedsnr" v="916430" />
	</node>
	<node lat="60.258138893096415" lon="9.886024994252706" id="-16504">
		<tag k="name" v="Steinsmyr" />
		<tag k="natural" v="wetland" />
		<tag k="ssr:stedsnr" v="917728" />
	</node>
	<node lat="60.26564444750951" lon="9.761180555317674" id="-16517">
		<tag k="name" v="Paddetjernmyra" />
		<tag k="natural" v="wetland" />
		<tag k="ssr:stedsnr" v="815205" />
	</node>
	<node lat="60.13857499742725" lon="10.419302774995167" id="-16521">
		<tag k="name" v="Høgåsmyra" />
		<tag k="natural" v="wetland" />
		<tag k="ssr:stedsnr" v="815288" />
	</node>
	<node lat="60.45259444060358" lon="10.043488886257855" id="-16533">
		<tag k="name" v="Vikerlund" />
		<tag k="place" v="locality" />
		<tag k="ssr:stedsnr" v="817317" />
	</node>
	<node lat="60.46023333456729" lon="9.96109444228482" id="-16541">
		<tag k="name" v="Lauvskredmyra" />
		<tag k="natural" v="wetland" />
		<tag k="ssr:stedsnr" v="818173" />
	</node>
	<node lat="60.249869441065094" lon="9.821147215508956" id="-16546">
		<tag k="name" v="Langemyr" />
		<tag k="natural" v="wetland" />
		<tag k="ssr:stedsnr" v="819140" />
	</node>
	<node lat="60.2319444449538" lon="9.815749995912915" id="-16547">
		<tag k="name" v="Briskemyr" />
		<tag k="natural" v="wetland" />
		<tag k="ssr:stedsnr" v="819145" />
	</node>
	<node lat="60.34275555775722" lon="10.123663889126524" id="-16550">
		<tag k="name" v="Midtmovollen" />
		<tag k="place" v="locality" />
		<tag k="ssr:stedsnr" v="818974" />
	</node>
	<node lat="60.56285277689151" lon="9.901208326732146" id="-16551">
		<tag k="name" v="Rasmusbråtamyra" />
		<tag k="natural" v="wetland" />
		<tag k="old_name" v="Rasmusbråtamyr" />
		<tag k="ssr:stedsnr" v="818979" />
	</node>
	<node lat="60.34382500328549" lon="9.84327222482474" id="-16556">
		<tag k="name" v="Gamlemannsstykket" />
		<tag k="place" v="locality" />
		<tag k="ssr:stedsnr" v="819972" />
	</node>
	<node lat="60.33661944181742" lon="9.830044446438576" id="-16557">
		<tag k="name" v="Hestemyr" />
		<tag k="natural" v="wetland" />
		<tag k="ssr:stedsnr" v="819974" />
	</node>
	<node lat="60.07059166400761" lon="10.564108336087154" id="-16588">
		<tag k="name" v="Slottsmyra" />
		<tag k="natural" v="wetland" />
		<tag k="ssr:stedsnr" v="855225" />
	</node>
	<node lat="60.33101666802649" lon="10.216263889278467" id="-16624">
		<tag k="name" v="Haugmyrene" />
		<tag k="natural" v="wetland" />
		<tag k="old_name" v="Haugmyrne" />
		<tag k="ssr:stedsnr" v="875963" />
	</node>
	<node lat="60.5497194477273" lon="10.090719451387443" id="-16634">
		<tag k="name" v="Tjærehjell" />
		<tag k="natural" v="wetland" />
		<tag k="ssr:stedsnr" v="877462" />
	</node>
	<node lat="60.1818750032936" lon="10.041355561849782" id="-16636">
		<tag k="name" v="Skurvemyr" />
		<tag k="natural" v="wetland" />
		<tag k="ssr:stedsnr" v="878161" />
	</node>
	<node lat="60.44864721960804" lon="10.133263894912083" id="-16638">
		<tag k="name" v="Delemyra" />
		<tag k="natural" v="wetland" />
		<tag k="ssr:stedsnr" v="878662" />
	</node>
	<node lat="60.45024722428256" lon="10.099675002166169" id="-16639">
		<tag k="name" v="Jonebråtamyra" />
		<tag k="natural" v="wetland" />
		<tag k="ssr:stedsnr" v="878663" />
	</node>
	<node lat="60.46253055466754" lon="9.998238881783346" id="-16648">
		<tag k="name" v="Storrmyr" />
		<tag k="natural" v="wetland" />
		<tag k="ssr:stedsnr" v="879162" />
	</node>
	<node lat="60.293358329119535" lon="9.768072224102493" id="-16660">
		<tag k="name" v="Resbråten" />
		<tag k="place" v="locality" />
		<tag k="ssr:stedsnr" v="879858" />
	</node>
	<node lat="60.59181110832703" lon="9.918227773283977" id="-16662">
		<tag k="name" v="Nordre Kastmyr" />
		<tag k="natural" v="wetland" />
		<tag k="ssr:stedsnr" v="879805" />
	</node>
	<node lat="60.192069447352125" lon="9.84276111368297" id="-16663">
		<tag k="name" v="Elgemyr" />
		<tag k="natural" v="wetland" />
		<tag k="ssr:stedsnr" v="879806" />
	</node>
	<node lat="60.28570833508934" lon="10.121994444148685" id="-16707">
		<tag k="alt_name" v="Langmyra" />
		<tag k="name" v="Langmyr" />
		<tag k="natural" v="wetland" />
		<tag k="ssr:stedsnr" v="916416" />
	</node>
	<node lat="60.56694471460112" lon="9.850596852699823" id="-16743">
		<tag k="alt_name" v="Slåttebråten" />
		<tag k="landuse" v="meadow" />
		<tag k="name" v="Slåttebråtan" />
		<tag k="ssr:stedsnr" v="917824" />
	</node>
	<node lat="60.105205554490176" lon="10.385550008921768" id="-16750">
		<tag k="name" v="Skardmyra" />
		<tag k="natural" v="wetland" />
		<tag k="ssr:stedsnr" v="936049" />
	</node>
	<node lat="60.38695833068545" lon="10.160388891901215" id="-16752">
		<tag k="name" v="Fjølestokkmyr" />
		<tag k="natural" v="wetland" />
		<tag k="ssr:stedsnr" v="936213" />
	</node>
	<node lat="60.173627775637065" lon="9.96473056396459" id="-16779">
		<tag k="name" v="Stormyr" />
		<tag k="natural" v="wetland" />
		<tag k="ssr:stedsnr" v="939405" />
	</node>
	<node lat="60.42418333254461" lon="10.024908339778905" id="-16780">
		<tag k="name" v="Juvbakkmyrene" />
		<tag k="natural" v="wetland" />
		<tag k="ssr:stedsnr" v="939407" />
	</node>
	<node lat="60.598516662324705" lon="9.946722230372126" id="-16792">
		<tag k="name" v="Veslemyr" />
		<tag k="natural" v="wetland" />
		<tag k="ssr:stedsnr" v="939833" />
	</node>
	<node lat="60.612702780951025" lon="10.010913882277782" id="-16793">
		<tag k="name" v="Bjørnestampmyr" />
		<tag k="natural" v="wetland" />
		<tag k="ssr:stedsnr" v="939835" />
	</node>
	<node lat="60.61424444142371" lon="10.011288896595897" id="-16795">
		<tag k="name" v="Snarmyr" />
		<tag k="natural" v="wetland" />
		<tag k="ssr:stedsnr" v="939839" />
	</node>
	<node lat="60.481311113238746" lon="10.0890666672711" id="-16796">
		<tag k="name" v="Brenntjernsmyrene" />
		<tag k="natural" v="wetland" />
		<tag k="ssr:stedsnr" v="939842" />
	</node>
	<node lat="60.27603333620116" lon="10.181149995566605" id="-16902">
		<tag k="alt_name" v="Hvalsmyrene" />
		<tag k="name" v="Kirkemyra" />
		<tag k="natural" v="wetland" />
		<tag k="ssr:stedsnr" v="6452" />
	</node>
	<node lat="60.27056666676243" lon="10.158591666851484" id="-16903">
		<tag k="name" v="Skollerudmyra" />
		<tag k="natural" v="wetland" />
		<tag k="ssr:stedsnr" v="6454" />
	</node>
	<node lat="60.379805553454865" lon="10.115605559572884" id="-16905">
		<tag k="name" v="Mottakmyr" />
		<tag k="natural" v="wetland" />
		<tag k="ssr:stedsnr" v="6553" />
	</node>
	<node lat="60.301116665452085" lon="10.220233325625324" id="-16913">
		<tag k="name" v="Moltemyra" />
		<tag k="natural" v="wetland" />
		<tag k="ssr:stedsnr" v="6410" />
	</node>
	<node lat="60.282080557972606" lon="10.134130557915698" id="-16915">
		<tag k="alt_name" v="Kvernmyr" />
		<tag k="name" v="Kvernmyra" />
		<tag k="natural" v="wetland" />
		<tag k="ssr:stedsnr" v="6442" />
	</node>
	<node lat="60.34166111257249" lon="9.917180547056036" id="-16925">
		<tag k="name" v="Hyttemyra" />
		<tag k="natural" v="wetland" />
		<tag k="ssr:stedsnr" v="6850" />
	</node>
	<node lat="60.36803889214292" lon="9.895474999491148" id="-16927">
		<tag k="name" v="Venekollmyra" />
		<tag k="natural" v="wetland" />
		<tag k="ssr:stedsnr" v="6753" />
	</node>
	<node lat="60.570216668074174" lon="10.018302770457048" id="-16944">
		<tag k="name" v="Helgebråtamyra" />
		<tag k="natural" v="wetland" />
		<tag k="ssr:stedsnr" v="26199" />
	</node>
	<node lat="60.27924721812085" lon="10.225027776148604" id="-16948">
		<tag k="name" v="Slåttemyrene" />
		<tag k="natural" v="wetland" />
		<tag k="ssr:stedsnr" v="25511" />
	</node>
	<node lat="60.18999444756965" lon="10.266158332784682" id="-16949">
		<tag k="name" v="Havreslettskogen" />
		<tag k="place" v="locality" />
		<tag k="ssr:stedsnr" v="25657" />
	</node>
	<node lat="60.16273116988417" lon="10.216385337211918" id="-16958">
		<tag k="name" v="Bakkerud" />
		<tag k="place" v="locality" />
		<tag k="ssr:stedsnr" v="26029" />
	</node>
	<node lat="60.36176666320979" lon="10.148374994397042" id="-16963">
		<tag k="name" v="Øvre Ringsetermyra" />
		<tag k="natural" v="wetland" />
		<tag k="ssr:stedsnr" v="26238" />
	</node>
	<node lat="60.212022223542576" lon="10.24924722573054" id="-16967">
		<tag k="landuse" v="quarry" />
		<tag k="name" v="Heen Sandtak" />
		<tag k="ssr:stedsnr" v="26441" />
	</node>
	<node lat="60.387761111852775" lon="10.154933338783712" id="-16968">
		<tag k="name" v="Tollemyr" />
		<tag k="natural" v="wetland" />
		<tag k="ssr:stedsnr" v="26271" />
	</node>
	<node lat="60.486533337276065" lon="10.156922217600203" id="-16971">
		<tag k="name" v="Seksputtmyrene" />
		<tag k="natural" v="wetland" />
		<tag k="ssr:stedsnr" v="26752" />
	</node>
	<node lat="60.1382944463682" lon="10.26075555742049" id="-16973">
		<tag k="name" v="Storjordet" />
		<tag k="place" v="locality" />
		<tag k="ssr:stedsnr" v="26833" />
	</node>
	<node lat="60.50131462366467" lon="10.16190519658024" id="-16975">
		<tag k="name" v="Snellrøysa" />
		<tag k="natural" v="scree" />
		<tag k="ssr:stedsnr" v="26842" />
	</node>
	<node lat="60.334949998337514" lon="10.183988894217933" id="-16981">
		<tag k="name" v="Askemyr" />
		<tag k="natural" v="wetland" />
		<tag k="ssr:stedsnr" v="26968" />
	</node>
	<node lat="60.13984166932722" lon="10.239533337206199" id="-16990">
		<tag k="landuse" v="meadow" />
		<tag k="name" v="Nybrottet" />
		<tag k="ssr:stedsnr" v="27980" />
	</node>
	<node lat="60.13197222426562" lon="10.179894445255998" id="-16991">
		<tag k="landuse" v="meadow" />
		<tag k="name" v="Starrenga" />
		<tag k="ssr:stedsnr" v="27996" />
	</node>
	<node lat="60.43485833088863" lon="10.119830554264784" id="-17004">
		<tag k="name" v="Kastmyra" />
		<tag k="natural" v="wetland" />
		<tag k="ssr:stedsnr" v="28640" />
	</node>
	<node lat="60.498930555361596" lon="9.889222216753785" id="-17008">
		<tag k="name" v="Storstein" />
		<tag k="natural" v="stone" />
		<tag k="ssr:stedsnr" v="29396" />
	</node>
	<node lat="60.169005558276154" lon="10.004172217855338" id="-17010">
		<tag k="name" v="Setermyr" />
		<tag k="natural" v="wetland" />
		<tag k="ssr:stedsnr" v="29398" />
	</node>
	<node lat="60.495702781084844" lon="10.128741670367353" id="-17012">
		<tag k="name" v="Langemyr" />
		<tag k="natural" v="wetland" />
		<tag k="ssr:stedsnr" v="28880" />
	</node>
	<node lat="60.37961666714144" lon="9.937441665522087" id="-17019">
		<tag k="name" v="Ulevassvollmyra" />
		<tag k="natural" v="wetland" />
		<tag k="ssr:stedsnr" v="29089" />
	</node>
	<node lat="60.376147221736574" lon="9.929036102278454" id="-17020">
		<tag k="name" v="Ytre Storleinamyr" />
		<tag k="natural" v="wetland" />
		<tag k="old_name" v="Indre Storleinamyr" />
		<tag k="ssr:stedsnr" v="29090" />
	</node>
	<node lat="60.42313611183991" lon="9.992886116100637" id="-17027">
		<tag k="name" v="Fiskejofurumyra" />
		<tag k="natural" v="wetland" />
		<tag k="ssr:stedsnr" v="29188" />
	</node>
	<node lat="60.12410277334767" lon="9.986675002330767" id="-17035">
		<tag k="historic" v="shieling" />
		<tag k="name" v="Haugsvollen" />
		<tag k="place" v="locality" />
		<tag k="ssr:stedsnr" v="29357" />
	</node>
	<node lat="60.601786106948836" lon="9.984036114089049" id="-17041">
		<tag k="name" v="Padderud" />
		<tag k="natural" v="wetland" />
		<tag k="ssr:stedsnr" v="29777" />
	</node>
	<node lat="60.28967778115681" lon="10.08724166262294" id="-17050">
		<tag k="name" v="Holmemyr" />
		<tag k="natural" v="wetland" />
		<tag k="ssr:stedsnr" v="29864" />
	</node>
	<node lat="60.334372222122" lon="9.90746110417867" id="-17052">
		<tag k="historic" v="shieling" />
		<tag k="name" v="Svarttjernvollen" />
		<tag k="place" v="locality" />
		<tag k="ssr:stedsnr" v="29900" />
	</node>
	<node lat="60.618138885704774" lon="9.942819440581095" id="-17058">
		<tag k="name" v="Seterstømyra" />
		<tag k="natural" v="wetland" />
		<tag k="ssr:stedsnr" v="29937" />
	</node>
	<node lat="60.1921027736156" lon="9.85047500311301" id="-17061">
		<tag k="name" v="Gampemyr" />
		<tag k="natural" v="wetland" />
		<tag k="ssr:stedsnr" v="30827" />
	</node>
	<node lat="60.21098888451145" lon="9.880244445205689" id="-17064">
		<tag k="name" v="Onsmyr" />
		<tag k="natural" v="wetland" />
		<tag k="ssr:stedsnr" v="30153" />
	</node>
	<node lat="60.28982777441091" lon="9.824136106341376" id="-17066">
		<tag k="name" v="Ingersetersnaret" />
		<tag k="place" v="locality" />
		<tag k="ssr:stedsnr" v="30554" />
	</node>
	<node lat="60.479822218532654" lon="9.829072214827407" id="-17075">
		<tag k="alt_name" v="Kjørkemyra" />
		<tag k="name" v="Kyrkjemyra" />
		<tag k="natural" v="wetland" />
		<tag k="ssr:stedsnr" v="53916" />
	</node>
	<node lat="60.08122499906726" lon="10.357677783474609" id="-17089">
		<tag k="name" v="Nordre Muggerudmyra" />
		<tag k="natural" v="wetland" />
		<tag k="ssr:stedsnr" v="65235" />
	</node>
	<node lat="60.23994166464783" lon="10.093533338733547" id="-17106">
		<tag k="name" v="Breskemyra" />
		<tag k="natural" v="wetland" />
		<tag k="ssr:stedsnr" v="65986" />
	</node>
	<node lat="60.24772500237329" lon="10.065158326964259" id="-17108">
		<tag k="alt_name" v="Brandmyr" />
		<tag k="name" v="Brannmyr" />
		<tag k="natural" v="wetland" />
		<tag k="ssr:stedsnr" v="65996" />
	</node>
	<node lat="60.503544441972686" lon="10.098983330680163" id="-17135">
		<tag k="alt_name" v="Stormyr" />
		<tag k="name" v="Stormyra" />
		<tag k="natural" v="wetland" />
		<tag k="ssr:stedsnr" v="67528" />
	</node>
	<node lat="60.595972225192085" lon="9.937097222661565" id="-17149">
		<tag k="alt_name" v="Stormyra" />
		<tag k="name" v="Store Trollemyr" />
		<tag k="natural" v="wetland" />
		<tag k="ssr:stedsnr" v="67935" />
	</node>
	<node lat="60.23766111065654" lon="10.238275003412516" id="-17174">
		<tag k="name" v="Setervadmyra" />
		<tag k="natural" v="wetland" />
		<tag k="ssr:stedsnr" v="87455" />
	</node>
	<node lat="60.389044445062986" lon="10.18969444200806" id="-17176">
		<tag k="name" v="Torvedam" />
		<tag k="natural" v="wetland" />
		<tag k="ssr:stedsnr" v="87222" />
	</node>
	<node lat="60.25110000263975" lon="10.305572217482846" id="-17182">
		<tag k="name" v="Århanemyr" />
		<tag k="natural" v="wetland" />
		<tag k="ssr:stedsnr" v="87794" />
	</node>
	<node lat="60.44722222335522" lon="10.109205549182077" id="-17192">
		<tag k="name" v="Tjyrueldsmyra" />
		<tag k="natural" v="wetland" />
		<tag k="ssr:stedsnr" v="89639" />
	</node>
	<node lat="60.54808333378397" lon="9.883752785278512" id="-17196">
		<tag k="name" v="Hallebråtamyra" />
		<tag k="natural" v="wetland" />
		<tag k="ssr:stedsnr" v="90296" />
	</node>
	<node lat="60.355402776822245" lon="9.957155547596187" id="-17212">
		<tag k="name" v="Partisanersteinen" />
		<tag k="natural" v="stone" />
		<tag k="ssr:stedsnr" v="90035" />
	</node>
	<node lat="60.49235000124305" lon="9.98259166906715" id="-17216">
		<tag k="name" v="Hansemyr" />
		<tag k="natural" v="wetland" />
		<tag k="ssr:stedsnr" v="90163" />
	</node>
	<node lat="60.62825833383507" lon="9.98148056297829" id="-17226">
		<tag k="name" v="Vegamyr" />
		<tag k="natural" v="wetland" />
		<tag k="ssr:stedsnr" v="90868" />
	</node>
	<node lat="60.63327777949963" lon="9.948947219542182" id="-17228">
		<tag k="name" v="Hjellemyr" />
		<tag k="natural" v="wetland" />
		<tag k="ssr:stedsnr" v="90874" />
	</node>
	<node lat="60.63035832959523" lon="9.937783340769048" id="-17229">
		<tag k="name" v="Stormyr" />
		<tag k="natural" v="wetland" />
		<tag k="ssr:stedsnr" v="90876" />
	</node>
	<node lat="60.152161106824636" lon="10.108244444710376" id="-17268">
		<tag k="name" v="Store Askmyra" />
		<tag k="natural" v="wetland" />
		<tag k="ssr:stedsnr" v="125660" />
	</node>
	<node lat="60.21926667097855" lon="9.782402784056197" id="-17275">
		<tag k="alt_name" v="Stormyr" />
		<tag k="name" v="Stormyra" />
		<tag k="natural" v="wetland" />
		<tag k="ssr:stedsnr" v="126191" />
	</node>
	<node lat="60.1376250031661" lon="10.095283340371896" id="-17297">
		<tag k="name" v="Soknedalsmyra" />
		<tag k="natural" v="wetland" />
		<tag k="ssr:stedsnr" v="126677" />
	</node>
	<node lat="60.409055554449644" lon="9.81411666149023" id="-17323">
		<tag k="alt_name" v="Krokmyra" />
		<tag k="name" v="Krokmyr" />
		<tag k="natural" v="wetland" />
		<tag k="ssr:stedsnr" v="127957" />
	</node>
	<node lat="60.47876666387173" lon="9.981786104348284" id="-17328">
		<tag k="alt_name" v="Storemyr" />
		<tag k="name" v="Stormyr" />
		<tag k="natural" v="wetland" />
		<tag k="ssr:stedsnr" v="127736" />
	</node>
	<node lat="60.501358335948524" lon="10.10284444729073" id="-17349">
		<tag k="name" v="Hønemyr" />
		<tag k="natural" v="wetland" />
		<tag k="ssr:stedsnr" v="147195" />
	</node>
	<node lat="60.35656388582988" lon="10.214261105348314" id="-17362">
		<tag k="historic" v="shieling" />
		<tag k="name" v="Lystigsetra" />
		<tag k="place" v="locality" />
		<tag k="ssr:stedsnr" v="147987" />
	</node>
	<node lat="60.54882222606114" lon="10.081224995623202" id="-17367">
		<tag k="name" v="Fernmyr" />
		<tag k="natural" v="wetland" />
		<tag k="ssr:stedsnr" v="148470" />
	</node>
	<node lat="60.42268333274497" lon="10.03886388028239" id="-17376">
		<tag k="name" v="Gamlelimyra" />
		<tag k="natural" v="wetland" />
		<tag k="ssr:stedsnr" v="149395" />
	</node>
	<node lat="60.45445278063789" lon="10.116561106066305" id="-17379">
		<tag k="name" v="Orremyr" />
		<tag k="natural" v="wetland" />
		<tag k="ssr:stedsnr" v="149626" />
	</node>
	<node lat="60.4086388932301" lon="10.134502780226985" id="-17388">
		<tag k="name" v="Venemyr" />
=======
	<node id="-228647" lat="60.3181305546" lon="9.92122223029">
		<tag k="name" v="Rognlibråten" />
		<tag k="place" v="locality" />
		<tag k="ssr:stedsnr" v="879920" />
	</node>
	<node id="-228643" lat="60.6285972223" lon="10.0131999955">
		<tag k="name" v="Låvegolvsmyra" />
		<tag k="natural" v="wetland" />
		<tag k="ssr:stedsnr" v="879879" />
	</node>
	<node id="-228640" lat="60.2933583291" lon="9.7680722241">
		<tag k="name" v="Resbråten" />
		<tag k="place" v="locality" />
		<tag k="ssr:stedsnr" v="879858" />
	</node>
	<node id="-228636" lat="60.1920694474" lon="9.84276111368">
		<tag k="name" v="Elgemyr" />
		<tag k="natural" v="wetland" />
		<tag k="ssr:stedsnr" v="879806" />
	</node>
	<node id="-228635" lat="60.5918111083" lon="9.91822777328">
		<tag k="name" v="Nordre Kastmyr" />
		<tag k="natural" v="wetland" />
		<tag k="ssr:stedsnr" v="879805" />
	</node>
	<node id="-230675" lat="60.4111027786" lon="9.9968833296">
		<tag k="name" v="Tossevikmyrene" />
		<tag k="natural" v="wetland" />
		<tag k="ssr:stedsnr" v="370298" />
	</node>
	<node id="-227544" lat="60.301783329" lon="9.94971111543">
		<tag k="name" v="Hvelvkastmyra" />
		<tag k="natural" v="wetland" />
		<tag k="ssr:stedsnr" v="491678" />
	</node>
	<node id="-230671" lat="60.4458083374" lon="9.93568888626">
		<tag k="name" v="Lykkrosmyra" />
		<tag k="natural" v="wetland" />
		<tag k="ssr:stedsnr" v="369888" />
	</node>
	<node id="-228611" lat="60.3109083311" lon="9.8587500033">
		<tag k="name" v="Engermyrene" />
		<tag k="natural" v="wetland" />
		<tag k="ssr:stedsnr" v="879523" />
	</node>
	<node id="-228609" lat="60.5130416695" lon="9.87906389008">
		<tag k="name" v="Skyttermyra" />
		<tag k="natural" v="wetland" />
		<tag k="ssr:stedsnr" v="879329" />
	</node>
	<node id="-228607" lat="60.5434749972" lon="9.89620278596">
		<tag k="name" v="Fekjærbråtan" />
		<tag k="place" v="locality" />
		<tag k="ssr:stedsnr" v="879294" />
	</node>
	<node id="-228605" lat="60.5286250044" lon="9.87955832668">
		<tag k="name" v="Dammyra" />
		<tag k="natural" v="wetland" />
		<tag k="ssr:stedsnr" v="879279" />
	</node>
	<node id="-228602" lat="60.4212666635" lon="10.016444444">
		<tag k="name" v="Tronhusbergene" />
		<tag k="place" v="locality" />
		<tag k="ssr:stedsnr" v="879180" />
	</node>
	<node id="-228599" lat="60.4625305547" lon="9.99823888178">
		<tag k="name" v="Storrmyr" />
		<tag k="natural" v="wetland" />
		<tag k="ssr:stedsnr" v="879162" />
	</node>
	<node id="-228596" lat="60.4387000034" lon="9.91308610878">
		<tag k="name" v="Gurimyrene" />
		<tag k="natural" v="wetland" />
		<tag k="ssr:stedsnr" v="879121" />
	</node>
	<node id="-228592" lat="60.3950305597" lon="9.85811389221">
		<tag k="name" v="Puttemyr" />
		<tag k="natural" v="wetland" />
		<tag k="ssr:stedsnr" v="879071" />
	</node>
	<node id="-228220" lat="60.3725916709" lon="10.1098472277">
		<tag k="name" v="Kjerringrismyr" />
		<tag k="natural" v="wetland" />
		<tag k="ssr:stedsnr" v="574673" />
	</node>
	<node id="-228572" lat="60.3812694402" lon="10.0504888839">
		<tag k="name" v="Haugen" />
		<tag k="place" v="locality" />
		<tag k="ssr:stedsnr" v="878870" />
	</node>
	<node id="-228557" lat="60.4502472243" lon="10.0996750022">
		<tag k="name" v="Jonebråtamyra" />
		<tag k="natural" v="wetland" />
		<tag k="ssr:stedsnr" v="878663" />
	</node>
	<node id="-228556" lat="60.4486472196" lon="10.1332638949">
		<tag k="name" v="Delemyra" />
		<tag k="natural" v="wetland" />
		<tag k="ssr:stedsnr" v="878662" />
	</node>
	<node id="-228555" lat="60.389458331" lon="10.1065750074">
		<tag k="name" v="Brennåsmyra" />
		<tag k="natural" v="wetland" />
		<tag k="ssr:stedsnr" v="878640" />
	</node>
	<node id="-228544" lat="60.1818750033" lon="10.0413555618">
		<tag k="name" v="Skurvemyr" />
		<tag k="natural" v="wetland" />
		<tag k="ssr:stedsnr" v="878161" />
	</node>
	<node id="-228536" lat="60.5497194477" lon="10.0907194514">
		<tag k="name" v="Tjærehjell" />
		<tag k="natural" v="wetland" />
		<tag k="ssr:stedsnr" v="877462" />
	</node>
	<node id="-230576" lat="60.2281083367" lon="9.79682500852">
		<tag k="name" v="Leikmyr" />
		<tag k="natural" v="wetland" />
		<tag k="ssr:stedsnr" v="333144" />
	</node>
	<node id="-228525" lat="60.1396972258" lon="10.2615472193">
		<tag k="name" v="Fjøsåkeren" />
		<tag k="place" v="locality" />
		<tag k="ssr:stedsnr" v="876877" />
	</node>
	<node id="-228518" lat="60.1211999988" lon="10.4481777844">
		<tag k="name" v="Stormyra" />
		<tag k="natural" v="wetland" />
		<tag k="ssr:stedsnr" v="876498" />
	</node>
	<node id="-228511" lat="60.2513805572" lon="10.2350277781">
		<tag k="name" v="Mastedalsmyrene" />
		<tag k="natural" v="wetland" />
		<tag k="ssr:stedsnr" v="876281" />
	</node>
	<node id="-228509" lat="60.5175083339" lon="10.0221333371">
		<tag k="name" v="Hjertemyr" />
		<tag k="natural" v="wetland" />
		<tag k="ssr:stedsnr" v="876212" />
	</node>
	<node id="-230556" lat="60.3551749975" lon="10.0513333366">
		<tag k="name" v="Stillingsmyr" />
		<tag k="natural" v="wetland" />
		<tag k="ssr:stedsnr" v="332781" />
	</node>
	<node id="-230545" lat="60.5723305584" lon="9.94236110661">
		<tag k="name" v="Oksebråtan" />
		<tag k="place" v="locality" />
		<tag k="ssr:stedsnr" v="332665" />
	</node>
	<node id="-230541" lat="60.3766000018" lon="10.1131611096">
		<tag k="name" v="Blåbestemyr" />
		<tag k="natural" v="wetland" />
		<tag k="ssr:stedsnr" v="332629" />
	</node>
	<node id="-230935" lat="60.1557749971" lon="10.0663999924">
		<tag k="name" v="Hyttetjernmyra" />
		<tag k="natural" v="wetland" />
		<tag k="ssr:stedsnr" v="550591" />
	</node>
	<node id="-230534" lat="60.4315361108" lon="10.026299995">
		<tag k="name" v="Støvelmyr" />
		<tag k="natural" v="wetland" />
		<tag k="ssr:stedsnr" v="332386" />
	</node>
	<node id="-230533" lat="60.415408336" lon="10.0296611186">
		<tag k="name" v="Fugleleikmyra" />
		<tag k="natural" v="wetland" />
		<tag k="ssr:stedsnr" v="332382" />
	</node>
	<node id="-230528" lat="60.4776277771" lon="9.97688888504">
		<tag k="name" v="Drakemyr" />
		<tag k="natural" v="wetland" />
		<tag k="ssr:stedsnr" v="332196" />
	</node>
	<node id="-228466" lat="60.3076027758" lon="10.2433000069">
		<tag k="name" v="Langmyr" />
		<tag k="natural" v="wetland" />
		<tag k="ssr:stedsnr" v="734534" />
	</node>
	<node id="-230512" lat="60.4710944452" lon="9.97276389493">
		<tag k="name" v="Sauemyra" />
		<tag k="natural" v="wetland" />
		<tag k="ssr:stedsnr" v="332154" />
	</node>
	<node id="-230510" lat="60.3463638856" lon="10.1841472253">
		<tag k="name" v="Nersetermyra" />
		<tag k="natural" v="wetland" />
		<tag k="ssr:stedsnr" v="330987" />
	</node>
	<node id="-230508" lat="60.2696388911" lon="10.3077749977">
		<tag k="name" v="Nysetermyrene" />
		<tag k="natural" v="wetland" />
		<tag k="ssr:stedsnr" v="330881" />
	</node>
	<node id="-228448" lat="60.2540741795" lon="10.1662004689">
		<tag k="fixme" v="multiple name tags, choose one and add the other to alt_name" />
		<tag k="name" v="Døvlingsmyra;Hallingbymyrene" />
		<tag k="natural" v="wetland" />
		<tag k="ssr:stedsnr" v="734355" />
	</node>
	<node id="-230495" lat="60.4208888879" lon="10.140288893">
		<tag k="name" v="Stormyr" />
		<tag k="natural" v="wetland" />
		<tag k="ssr:stedsnr" v="329951" />
	</node>
	<node id="-230490" lat="60.4060916631" lon="10.1768611122">
		<tag k="historic" v="shieling" />
		<tag k="name" v="Støasetra" />
		<tag k="place" v="locality" />
		<tag k="ssr:stedsnr" v="329452" />
	</node>
	<node id="-228434" lat="60.2489361071" lon="9.99958332971">
		<tag k="alt_name" v="Rørmyra" />
		<tag k="name" v="Rørmyr" />
		<tag k="natural" v="wetland" />
		<tag k="ssr:stedsnr" v="733964" />
	</node>
	<node id="-230480" lat="60.5043833313" lon="10.1126500012">
		<tag k="name" v="Venhaugmyra" />
		<tag k="natural" v="wetland" />
		<tag k="ssr:stedsnr" v="329176" />
	</node>
	<node id="-230465" lat="60.5500277773" lon="9.97164722582">
		<tag k="name" v="Padderud" />
		<tag k="place" v="locality" />
		<tag k="ssr:stedsnr" v="328485" />
	</node>
	<node id="-230463" lat="60.2728194419" lon="10.2295444513">
		<tag k="name" v="Hågåssnarmyra" />
		<tag k="natural" v="wetland" />
		<tag k="ssr:stedsnr" v="328481" />
	</node>
	<node id="-228381" lat="60.3361972194" lon="9.88290555664">
		<tag k="name" v="Gråura" />
		<tag k="natural" v="scree" />
		<tag k="ssr:stedsnr" v="636524" />
	</node>
	<node id="-227263" lat="60.4379166641" lon="10.0007555478">
		<tag k="name" v="Kipplunnmyra" />
		<tag k="natural" v="wetland" />
		<tag k="ssr:stedsnr" v="454095" />
	</node>
	<node id="-228373" lat="60.2638777745" lon="9.826791661">
		<tag k="name" v="Kolbotnmyr" />
		<tag k="natural" v="wetland" />
		<tag k="ssr:stedsnr" v="636209" />
	</node>
	<node id="-228366" lat="60.5533444405" lon="9.93537221921">
		<tag k="historic" v="shieling" />
		<tag k="name" v="Vestre Holtesetra" />
		<tag k="place" v="locality" />
		<tag k="ssr:stedsnr" v="635781" />
	</node>
	<node id="-228364" lat="60.5521333329" lon="9.9194361199">
		<tag k="name" v="Busemannmyra" />
		<tag k="natural" v="wetland" />
		<tag k="ssr:stedsnr" v="635776" />
	</node>
	<node id="-228362" lat="60.5253000039" lon="9.92149999948">
		<tag k="name" v="Vinglegrasmyra" />
		<tag k="natural" v="wetland" />
		<tag k="ssr:stedsnr" v="635765" />
	</node>
	<node id="-228360" lat="60.2886222259" lon="9.80410277736">
		<tag k="loc_name" v="Kalvetræbråtan" />
		<tag k="name" v="Kalvetrebråten" />
		<tag k="place" v="locality" />
		<tag k="ssr:stedsnr" v="635565" />
	</node>
	<node id="-230404" lat="60.1393527819" lon="10.4038555505">
		<tag k="alt_name" v="Stormyr" />
		<tag k="name" v="Stormyra" />
		<tag k="natural" v="wetland" />
		<tag k="ssr:stedsnr" v="309109" />
	</node>
	<node id="-230402" lat="60.1454833372" lon="10.4635805485">
		<tag k="alt_name" v="Merramyr" />
		<tag k="name" v="Merramyra" />
		<tag k="natural" v="wetland" />
		<tag k="ssr:stedsnr" v="309098" />
	</node>
	<node id="-230387" lat="60.3731749981" lon="10.1359333405">
		<tag k="name" v="Gampetangmyra" />
		<tag k="natural" v="wetland" />
		<tag k="ssr:stedsnr" v="308590" />
	</node>
	<node id="-230384" lat="60.1657138865" lon="10.1484277718">
		<tag k="name" v="Fuglleikmyra" />
		<tag k="natural" v="wetland" />
		<tag k="ssr:stedsnr" v="308570" />
	</node>
	<node id="-229512" lat="60.1690055583" lon="10.0041722179">
		<tag k="name" v="Setermyr" />
		<tag k="natural" v="wetland" />
		<tag k="ssr:stedsnr" v="29398" />
	</node>
	<node id="-228324" lat="60.3776722199" lon="10.1613111066">
		<tag k="name" v="Jøthaugmyra" />
		<tag k="natural" v="wetland" />
		<tag k="ssr:stedsnr" v="632259" />
	</node>
	<node id="-230566" lat="60.400633334" lon="10.1183194384">
		<tag k="name" v="Blenkemyr" />
		<tag k="natural" v="wetland" />
		<tag k="ssr:stedsnr" v="332852" />
	</node>
	<node id="-228322" lat="60.1432361145" lon="10.4693861173">
		<tag k="name" v="Elgmyr" />
		<tag k="natural" v="wetland" />
		<tag k="ssr:stedsnr" v="632227" />
	</node>
	<node id="-228320" lat="60.2728944471" lon="9.77567778052">
		<tag k="name" v="Strandbråten" />
		<tag k="place" v="locality" />
		<tag k="ssr:stedsnr" v="632215" />
	</node>
	<node id="-230365" lat="60.2166749979" lon="10.0267249936">
		<tag k="name" v="Tubbemyra" />
		<tag k="natural" v="wetland" />
		<tag k="ssr:stedsnr" v="308467" />
	</node>
	<node id="-228311" lat="60.5423972246" lon="9.96344167435">
		<tag k="name" v="Løkebråtan" />
		<tag k="place" v="locality" />
		<tag k="ssr:stedsnr" v="631504" />
	</node>
	<node id="-230344" lat="60.1075527803" lon="10.5118583357">
		<tag k="name" v="Rumpa" />
		<tag k="natural" v="wetland" />
		<tag k="ssr:stedsnr" v="308137" />
	</node>
	<node id="-228293" lat="60.5036305532" lon="9.84363056311">
		<tag k="name" v="Gutusmyrane" />
		<tag k="natural" v="wetland" />
		<tag k="ssr:stedsnr" v="613740" />
	</node>
	<node id="-228279" lat="60.0436694472" lon="10.4742249998">
		<tag k="name" v="Fuglemyra" />
		<tag k="natural" v="wetland" />
		<tag k="ssr:stedsnr" v="611965" />
	</node>
	<node id="-228274" lat="60.1109055586" lon="10.2597388902">
		<tag k="alt_name" v="Lamyra" />
		<tag k="name" v="Mosmyra" />
		<tag k="natural" v="wetland" />
		<tag k="ssr:stedsnr" v="611759" />
	</node>
	<node id="-228268" lat="60.1737111155" lon="9.98987222001">
		<tag k="name" v="Flåmyrene" />
		<tag k="natural" v="wetland" />
		<tag k="ssr:stedsnr" v="611628" />
	</node>
	<node id="-230311" lat="60.5365749997" lon="9.92315000712">
		<tag k="name" v="Bråtamyr" />
		<tag k="natural" v="wetland" />
		<tag k="ssr:stedsnr" v="211787" />
	</node>
	<node id="-230307" lat="60.3723333374" lon="9.8658222215">
		<tag k="name" v="Bjørnelegermyra" />
		<tag k="natural" v="wetland" />
		<tag k="ssr:stedsnr" v="212021" />
	</node>
	<node id="-230303" lat="60.3997250022" lon="10.1298555531">
		<tag k="name" v="Langmarimyr" />
		<tag k="natural" v="wetland" />
		<tag k="ssr:stedsnr" v="211879" />
	</node>
	<node id="-228254" lat="60.5270666671" lon="9.94245000439">
		<tag k="name" v="Langhaugmyr" />
		<tag k="natural" v="wetland" />
		<tag k="ssr:stedsnr" v="757674" />
	</node>
	<node id="-230300" lat="60.5252527754" lon="9.985975006">
		<tag k="name" v="Nordre Dobbelleggsmyr" />
		<tag k="natural" v="wetland" />
		<tag k="ssr:stedsnr" v="211698" />
	</node>
	<node id="-230294" lat="60.2172194427" lon="10.0102972184">
		<tag k="name" v="Torvmyra" />
		<tag k="natural" v="wetland" />
		<tag k="ssr:stedsnr" v="211665" />
	</node>
	<node id="-230291" lat="60.2851222226" lon="10.0052416624">
		<tag k="historic" v="shieling" />
		<tag k="name" v="Solbergvollen" />
		<tag k="place" v="locality" />
		<tag k="ssr:stedsnr" v="211614" />
	</node>
	<node id="-228163" lat="60.4955083359" lon="10.0810388922">
		<tag k="name" v="Svea" />
		<tag k="place" v="locality" />
		<tag k="ssr:stedsnr" v="696841" />
	</node>
	<node id="-228238" lat="60.3415388928" lon="9.90055277583">
		<tag k="historic" v="shieling" />
		<tag k="name" v="Helgesvollen" />
		<tag k="place" v="locality" />
		<tag k="ssr:stedsnr" v="575493" />
	</node>
	<node id="-230284" lat="60.3807555525" lon="10.1037833313">
		<tag k="name" v="Grøftemyr" />
		<tag k="natural" v="wetland" />
		<tag k="ssr:stedsnr" v="211576" />
	</node>
	<node id="-230283" lat="60.3799777809" lon="10.1279111147">
		<tag k="name" v="Stakamyr" />
		<tag k="natural" v="wetland" />
		<tag k="ssr:stedsnr" v="211575" />
	</node>
	<node id="-228234" lat="60.3282333322" lon="9.88169445187">
		<tag k="name" v="Tjæreovnsmyra" />
		<tag k="natural" v="wetland" />
		<tag k="ssr:stedsnr" v="575513" />
	</node>
	<node id="-230280" lat="60.4279861087" lon="10.0563972276">
		<tag k="name" v="Eftasbråtemyra" />
		<tag k="natural" v="wetland" />
		<tag k="ssr:stedsnr" v="211427" />
	</node>
	<node id="-228230" lat="60.1234722251" lon="9.96098333486">
		<tag k="name" v="Tretjernskogen" />
		<tag k="place" v="locality" />
		<tag k="ssr:stedsnr" v="575304" />
	</node>
	<node id="-228226" lat="60.4272749957" lon="10.0102722198">
		<tag k="name" v="Killingmyr" />
		<tag k="natural" v="wetland" />
		<tag k="ssr:stedsnr" v="575118" />
	</node>
	<node id="-230273" lat="60.4146694478" lon="10.0056333292">
		<tag k="name" v="Storsteinmyr" />
		<tag k="natural" v="wetland" />
		<tag k="ssr:stedsnr" v="211191" />
	</node>
	<node id="-230272" lat="60.4614805552" lon="10.0173555593">
		<tag k="name" v="Gjerdingen" />
		<tag k="place" v="locality" />
		<tag k="ssr:stedsnr" v="211182" />
	</node>
	<node id="-230268" lat="60.1629000024" lon="10.1393833357">
		<tag k="name" v="Gruvemyr" />
		<tag k="natural" v="wetland" />
		<tag k="ssr:stedsnr" v="211155" />
	</node>
	<node id="-230266" lat="60.3701861127" lon="9.91827778563">
		<tag k="name" v="Midtre Halendingsmyr" />
		<tag k="natural" v="wetland" />
		<tag k="ssr:stedsnr" v="211072" />
	</node>
	<node id="-230265" lat="60.0932166671" lon="10.0594555538">
		<tag k="name" v="Pjåkamarka" />
		<tag k="place" v="locality" />
		<tag k="ssr:stedsnr" v="211058" />
	</node>
	<node id="-230260" lat="60.5971805573" lon="10.0323916695">
		<tag k="name" v="Gravåmyra" />
		<tag k="natural" v="wetland" />
		<tag k="ssr:stedsnr" v="210543" />
	</node>
	<node id="-230247" lat="60.5231555532" lon="10.0369527781">
		<tag k="name" v="Nilsebråtamyr" />
		<tag k="natural" v="wetland" />
		<tag k="ssr:stedsnr" v="208888" />
	</node>
	<node id="-228196" lat="60.2282944438" lon="10.1428055501">
		<tag k="name" v="Langmyr" />
		<tag k="natural" v="wetland" />
		<tag k="ssr:stedsnr" v="571475" />
	</node>
	<node id="-230242" lat="60.484749997" lon="10.1529499954">
		<tag k="name" v="Setermyrene" />
		<tag k="natural" v="wetland" />
		<tag k="ssr:stedsnr" v="208805" />
	</node>
	<node id="-228187" lat="60.3416972233" lon="9.8346666616">
		<tag k="name" v="Traneslåtta" />
		<tag k="place" v="locality" />
		<tag k="ssr:stedsnr" v="697979" />
	</node>
	<node id="-230233" lat="60.2592611151" lon="9.76696666768">
		<tag k="name" v="Pælemyra" />
		<tag k="natural" v="wetland" />
		<tag k="ssr:stedsnr" v="208284" />
	</node>
	<node id="-228182" lat="60.2682055585" lon="9.85967222808">
		<tag k="name" v="Kyrdokka" />
		<tag k="place" v="locality" />
		<tag k="ssr:stedsnr" v="697182" />
	</node>
	<node id="-230229" lat="60.1697999978" lon="10.391325001">
		<tag k="name" v="Ringkollmyra" />
		<tag k="natural" v="wetland" />
		<tag k="old_name" v="Ringkollmyramyra" />
		<tag k="ssr:stedsnr" v="208268" />
	</node>
	<node id="-230228" lat="60.3899666644" lon="10.1503805577">
		<tag k="name" v="Rajemyr" />
		<tag k="natural" v="wetland" />
		<tag k="ssr:stedsnr" v="208252" />
	</node>
	<node id="-230212" lat="60.1958277818" lon="10.2791111024">
		<tag k="landuse" v="meadow" />
		<tag k="name" v="Brattjordet" />
		<tag k="ssr:stedsnr" v="207632" />
	</node>
	<node id="-230211" lat="60.193577781" lon="10.2806027844">
		<tag k="name" v="Nylendet" />
		<tag k="place" v="locality" />
		<tag k="ssr:stedsnr" v="207627" />
	</node>
	<node id="-230202" lat="60.2391055593" lon="9.94956388344">
		<tag k="loc_name" v="Torvmyra" />
		<tag k="name" v="Torvmyr" />
		<tag k="natural" v="wetland" />
		<tag k="ssr:stedsnr" v="206841" />
	</node>
	<node id="-228145" lat="60.375644444" lon="10.1224083323">
		<tag k="name" v="Langsperillmyr" />
		<tag k="natural" v="wetland" />
		<tag k="ssr:stedsnr" v="696636" />
	</node>
	<node id="-228143" lat="60.2959583353" lon="10.0191277778">
		<tag k="alt_name" v="Lurehøvlvollen" />
		<tag k="historic" v="shieling" />
		<tag k="name" v="Lurehølvollen" />
		<tag k="place" v="locality" />
		<tag k="ssr:stedsnr" v="696627" />
	</node>
	<node id="-228137" lat="60.1985972226" lon="9.93318889183">
		<tag k="name" v="Korgerudrønningen" />
		<tag k="place" v="locality" />
		<tag k="ssr:stedsnr" v="696680" />
	</node>
	<node id="-229505" lat="60.1241027733" lon="9.98667500233">
		<tag k="historic" v="shieling" />
		<tag k="name" v="Haugsvollen" />
		<tag k="place" v="locality" />
		<tag k="ssr:stedsnr" v="29357" />
	</node>
	<node id="-228121" lat="60.3686083376" lon="9.92312778248">
		<tag k="name" v="Nedre Halendingsmyr" />
		<tag k="natural" v="wetland" />
		<tag k="ssr:stedsnr" v="696078" />
	</node>
	<node id="-228114" lat="60.5433527483" lon="10.0383980452">
		<tag k="name" v="Fåstein" />
		<tag k="natural" v="stone" />
		<tag k="ssr:stedsnr" v="695495" />
	</node>
	<node id="-228110" lat="60.5026861105" lon="10.1396250086">
		<tag k="name" v="Nedre Kollemyra" />
		<tag k="natural" v="wetland" />
		<tag k="ssr:stedsnr" v="694881" />
	</node>
	<node id="-228108" lat="60.1152833358" lon="10.5080333379">
		<tag k="historic" v="shieling" />
		<tag k="name" v="Vesleflåtasetervollen" />
		<tag k="place" v="locality" />
		<tag k="ssr:stedsnr" v="694344" />
	</node>
	<node id="-230151" lat="60.3168499976" lon="10.2486638855">
		<tag k="name" v="Stormyra" />
		<tag k="natural" v="wetland" />
		<tag k="ssr:stedsnr" v="188517" />
	</node>
	<node id="-230149" lat="60.3208166625" lon="10.0524055612">
		<tag k="name" v="Resmyra" />
		<tag k="natural" v="wetland" />
		<tag k="ssr:stedsnr" v="188509" />
	</node>
	<node id="-229845" lat="60.219266671" lon="9.78240278406">
		<tag k="alt_name" v="Stormyr" />
		<tag k="name" v="Stormyra" />
		<tag k="natural" v="wetland" />
		<tag k="ssr:stedsnr" v="126191" />
	</node>
	<node id="-228083" lat="60.156718249" lon="10.2638175296">
		<tag k="name" v="Schjongslunden" />
		<tag k="place" v="locality" />
		<tag k="ssr:stedsnr" v="692609" />
	</node>
	<node id="-230127" lat="60.0581027796" lon="10.4297638975">
		<tag k="name" v="Sersjantmyra" />
		<tag k="natural" v="wetland" />
		<tag k="ssr:stedsnr" v="188243" />
	</node>
	<node id="-228061" lat="60.4034916689" lon="10.1354305503">
		<tag k="name" v="Flåtjernlimyr" />
		<tag k="natural" v="wetland" />
		<tag k="ssr:stedsnr" v="514852" />
	</node>
	<node id="-228059" lat="60.4324138874" lon="10.0461666592">
		<tag k="name" v="Stigrudmyra" />
		<tag k="natural" v="wetland" />
		<tag k="ssr:stedsnr" v="514672" />
	</node>
	<node id="-228050" lat="60.4357583355" lon="9.98691666959">
		<tag k="name" v="Hestemyr" />
		<tag k="natural" v="wetland" />
		<tag k="ssr:stedsnr" v="514109" />
	</node>
	<node id="-227013" lat="60.3057694431" lon="9.81491110796">
		<tag k="name" v="Hvilingsmyr" />
>>>>>>> e1d4bc35ff8a6074a6f2e91616a996b547c36f15
		<tag k="natural" v="wetland" />
		<tag k="ssr:stedsnr" v="149901" />
	</node>
<<<<<<< HEAD
	<node lat="60.44239444042699" lon="10.013049998581677" id="-17392">
		<tag k="name" v="Bjørndalsmyra" />
		<tag k="natural" v="wetland" />
		<tag k="ssr:stedsnr" v="150093" />
	</node>
	<node lat="60.45472222519683" lon="10.000163897965347" id="-17397">
		<tag k="name" v="Ragnhildmyrene" />
		<tag k="natural" v="wetland" />
		<tag k="ssr:stedsnr" v="150095" />
	</node>
	<node lat="60.418730558581366" lon="10.002925008745585" id="-17402">
		<tag k="name" v="Skåpmyra" />
		<tag k="natural" v="wetland" />
		<tag k="ssr:stedsnr" v="150195" />
	</node>
	<node lat="60.53625277889824" lon="9.8468333314979" id="-17407">
		<tag k="historic" v="shieling" />
		<tag k="name" v="Hyttetomta" />
		<tag k="place" v="locality" />
		<tag k="ssr:stedsnr" v="150370" />
	</node>
	<node lat="60.590722222742706" lon="9.903002785475259" id="-17426">
		<tag k="name" v="Fugleleikmyra" />
		<tag k="natural" v="wetland" />
		<tag k="ssr:stedsnr" v="150801" />
	</node>
	<node lat="60.2800027776037" lon="9.844286103202277" id="-17434">
		<tag k="name" v="Trolljentemyra" />
		<tag k="natural" v="wetland" />
		<tag k="ssr:stedsnr" v="151229" />
	</node>
	<node lat="60.30998332941469" lon="9.915886103830054" id="-17438">
		<tag k="name" v="Lybråten" />
		<tag k="place" v="locality" />
		<tag k="ssr:stedsnr" v="272918" />
	</node>
	<node lat="60.158499999248775" lon="9.988530548566432" id="-17456">
		<tag k="alt_name" v="Fyrmyr" />
		<tag k="name" v="Fyrmyra" />
		<tag k="natural" v="wetland" />
		<tag k="ssr:stedsnr" v="186658" />
	</node>
	<node lat="60.1214888910374" lon="10.014599998511256" id="-17461">
		<tag k="name" v="Sandvollmyra" />
		<tag k="natural" v="wetland" />
		<tag k="ssr:stedsnr" v="186736" />
	</node>
	<node lat="60.05810277963471" lon="10.429763897514139" id="-17514">
		<tag k="name" v="Sersjantmyra" />
		<tag k="natural" v="wetland" />
		<tag k="ssr:stedsnr" v="188243" />
	</node>
	<node lat="60.25333055414482" lon="10.211338895667893" id="-17518">
		<tag k="name" v="Slåttemyr" />
		<tag k="natural" v="wetland" />
		<tag k="ssr:stedsnr" v="188348" />
	</node>
	<node lat="60.20469444882375" lon="9.815236107466298" id="-17543">
		<tag k="name" v="Dyngemyr" />
		<tag k="natural" v="wetland" />
		<tag k="ssr:stedsnr" v="273140" />
	</node>
	<node lat="60.196802779586214" lon="10.158161115566486" id="-17549">
		<tag k="name" v="Torsteinjordet" />
		<tag k="place" v="locality" />
		<tag k="ssr:stedsnr" v="207505" />
	</node>
	<node lat="60.38996666436256" lon="10.15038055774955" id="-17557">
		<tag k="name" v="Rajemyr" />
		<tag k="natural" v="wetland" />
		<tag k="ssr:stedsnr" v="208252" />
	</node>
	<node lat="60.16979999781699" lon="10.39132500102043" id="-17558">
		<tag k="name" v="Ringkollmyra" />
		<tag k="natural" v="wetland" />
		<tag k="old_name" v="Ringkollmyramyra" />
		<tag k="ssr:stedsnr" v="208268" />
	</node>
	<node lat="60.06625277577823" lon="10.55340555706359" id="-17563">
		<tag k="name" v="Hornmyra" />
		<tag k="natural" v="wetland" />
		<tag k="ssr:stedsnr" v="208450" />
	</node>
	<node lat="60.523155553184736" lon="10.036952778109871" id="-17566">
		<tag k="name" v="Nilsebråtamyr" />
		<tag k="natural" v="wetland" />
		<tag k="ssr:stedsnr" v="208888" />
	</node>
	<node lat="60.597180557321984" lon="10.032391669455833" id="-17578">
		<tag k="name" v="Gravåmyra" />
		<tag k="natural" v="wetland" />
		<tag k="ssr:stedsnr" v="210543" />
	</node>
	<node lat="60.1629000023857" lon="10.139383335651438" id="-17584">
		<tag k="name" v="Gruvemyr" />
		<tag k="natural" v="wetland" />
		<tag k="ssr:stedsnr" v="211155" />
	</node>
	<node lat="60.09321666714931" lon="10.059455553835555" id="-17588">
		<tag k="name" v="Pjåkamarka" />
		<tag k="place" v="locality" />
		<tag k="ssr:stedsnr" v="211058" />
	</node>
	<node lat="60.37018611268202" lon="9.918277785634094" id="-17589">
		<tag k="name" v="Midtre Halendingsmyr" />
		<tag k="natural" v="wetland" />
		<tag k="ssr:stedsnr" v="211072" />
	</node>
	<node lat="60.3689083349651" lon="10.117038888020026" id="-17600">
		<tag k="name" v="Gjertrudsmyr" />
		<tag k="natural" v="wetland" />
		<tag k="ssr:stedsnr" v="211602" />
	</node>
	<node lat="60.28512222256088" lon="10.005241662380243" id="-17603">
		<tag k="historic" v="shieling" />
		<tag k="name" v="Solbergvollen" />
		<tag k="place" v="locality" />
		<tag k="ssr:stedsnr" v="211614" />
	</node>
	<node lat="60.217219442687146" lon="10.010297218389296" id="-17605">
		<tag k="name" v="Torvmyra" />
		<tag k="natural" v="wetland" />
		<tag k="ssr:stedsnr" v="211665" />
	</node>
	<node lat="60.274272219669" lon="10.096236113225808" id="-17616">
		<tag k="name" v="Stormyr" />
		<tag k="natural" v="wetland" />
		<tag k="ssr:stedsnr" v="211839" />
	</node>
	<node lat="60.52525277538794" lon="9.985975006003612" id="-17619">
		<tag k="name" v="Nordre Dobbelleggsmyr" />
		<tag k="natural" v="wetland" />
		<tag k="ssr:stedsnr" v="211698" />
	</node>
	<node lat="60.51911666516345" lon="9.949194452108554" id="-17620">
		<tag k="name" v="Albuekroken" />
		<tag k="natural" v="wetland" />
		<tag k="ssr:stedsnr" v="211713" />
	</node>
	<node lat="60.31538055524396" lon="9.913347213856422" id="-17623">
		<tag k="name" v="Kyrbråten" />
		<tag k="place" v="locality" />
		<tag k="ssr:stedsnr" v="211922" />
	</node>
	<node lat="60.37233333744982" lon="9.865822221499217" id="-17625">
		<tag k="name" v="Bjørnelegermyra" />
		<tag k="natural" v="wetland" />
		<tag k="ssr:stedsnr" v="212021" />
	</node>
	<node lat="60.29926388803287" lon="9.769327783017221" id="-17633">
		<tag k="historic" v="shieling" />
		<tag k="name" v="Aslaugbråten" />
		<tag k="place" v="locality" />
		<tag k="ssr:stedsnr" v="273887" />
	</node>
	<node lat="60.165713886500036" lon="10.148427771757376" id="-17668">
		<tag k="name" v="Fuglleikmyra" />
		<tag k="natural" v="wetland" />
		<tag k="ssr:stedsnr" v="308570" />
	</node>
	<node lat="60.107552780294164" lon="10.511858335747286" id="-17673">
		<tag k="name" v="Rumpa" />
		<tag k="natural" v="wetland" />
		<tag k="ssr:stedsnr" v="308137" />
	</node>
	<node lat="60.216674997898174" lon="10.026724993582476" id="-17689">
		<tag k="name" v="Tubbemyra" />
		<tag k="natural" v="wetland" />
		<tag k="ssr:stedsnr" v="308467" />
	</node>
	<node lat="60.139352781870514" lon="10.403855550532016" id="-17706">
		<tag k="alt_name" v="Stormyr" />
		<tag k="name" v="Stormyra" />
		<tag k="natural" v="wetland" />
		<tag k="ssr:stedsnr" v="309109" />
	</node>
	<node lat="60.272819441939845" lon="10.229544451310147" id="-17732">
		<tag k="name" v="Hågåssnarmyra" />
		<tag k="natural" v="wetland" />
		<tag k="ssr:stedsnr" v="328481" />
	</node>
	<node lat="60.55002777734557" lon="9.971647225824249" id="-17734">
		<tag k="name" v="Padderud" />
		<tag k="place" v="locality" />
		<tag k="ssr:stedsnr" v="328485" />
	</node>
	<node lat="60.50438333125882" lon="10.112650001167031" id="-17745">
		<tag k="name" v="Venhaugmyra" />
		<tag k="natural" v="wetland" />
		<tag k="ssr:stedsnr" v="329176" />
	</node>
	<node lat="60.406091663148764" lon="10.176861112218049" id="-17755">
		<tag k="historic" v="shieling" />
		<tag k="name" v="Støasetra" />
		<tag k="place" v="locality" />
		<tag k="ssr:stedsnr" v="329452" />
	</node>
	<node lat="60.42088888793692" lon="10.140288893005177" id="-17758">
		<tag k="name" v="Stormyr" />
		<tag k="natural" v="wetland" />
		<tag k="ssr:stedsnr" v="329951" />
	</node>
	<node lat="60.269638891080916" lon="10.307774997729284" id="-17765">
		<tag k="name" v="Nysetermyrene" />
		<tag k="natural" v="wetland" />
		<tag k="ssr:stedsnr" v="330881" />
	</node>
	<node lat="60.34636388559028" lon="10.18414722533686" id="-17767">
		<tag k="name" v="Nersetermyra" />
		<tag k="natural" v="wetland" />
		<tag k="ssr:stedsnr" v="330987" />
	</node>
	<node lat="60.48734166571513" lon="10.003788894509501" id="-17774">
		<tag k="name" v="Kolsrud" />
		<tag k="place" v="locality" />
		<tag k="ssr:stedsnr" v="332205" />
	</node>
	<node lat="60.47922499983086" lon="10.008649992569486" id="-17775">
		<tag k="name" v="Kleivmyr" />
		<tag k="natural" v="wetland" />
		<tag k="ssr:stedsnr" v="332210" />
	</node>
	<node lat="60.4710944451753" lon="9.972763894932102" id="-17779">
		<tag k="name" v="Sauemyra" />
		<tag k="natural" v="wetland" />
		<tag k="ssr:stedsnr" v="332154" />
	</node>
	<node lat="60.57233055840144" lon="9.94236110660985" id="-17789">
		<tag k="name" v="Oksebråtan" />
		<tag k="place" v="locality" />
		<tag k="ssr:stedsnr" v="332665" />
	</node>
	<node lat="60.41540833599488" lon="10.02966111861665" id="-17790">
		<tag k="name" v="Fugleleikmyra" />
		<tag k="natural" v="wetland" />
		<tag k="ssr:stedsnr" v="332382" />
	</node>
	<node lat="60.431536110779255" lon="10.026299995037048" id="-17791">
		<tag k="name" v="Støvelmyr" />
		<tag k="natural" v="wetland" />
		<tag k="ssr:stedsnr" v="332386" />
	</node>
	<node lat="60.37660000175422" lon="10.113161109563963" id="-17797">
		<tag k="name" v="Blåbestemyr" />
		<tag k="natural" v="wetland" />
		<tag k="ssr:stedsnr" v="332629" />
	</node>
	<node lat="60.61841666784641" lon="9.98256945126458" id="-17800">
		<tag k="name" v="Veslemyr" />
		<tag k="natural" v="wetland" />
		<tag k="ssr:stedsnr" v="332824" />
	</node>
	<node lat="60.49751389062301" lon="10.126433326134498" id="-17801">
		<tag k="name" v="Persbråtamyra" />
		<tag k="natural" v="wetland" />
		<tag k="ssr:stedsnr" v="332826" />
	</node>
	<node lat="60.35517499745399" lon="10.051333336624248" id="-17810">
		<tag k="name" v="Stillingsmyr" />
		<tag k="natural" v="wetland" />
		<tag k="ssr:stedsnr" v="332781" />
	</node>
	<node lat="60.400633333966184" lon="10.118319438416547" id="-17818">
		<tag k="name" v="Blenkemyr" />
		<tag k="natural" v="wetland" />
		<tag k="ssr:stedsnr" v="332852" />
	</node>
	<node lat="60.3202583336616" lon="10.067574994945373" id="-17826">
		<tag k="name" v="Limyra" />
		<tag k="natural" v="wetland" />
		<tag k="ssr:stedsnr" v="332905" />
	</node>
	<node lat="60.345838888380214" lon="10.056522222115223" id="-17829">
		<tag k="name" v="Simenmarimyra" />
		<tag k="natural" v="wetland" />
		<tag k="ssr:stedsnr" v="332920" />
	</node>
	<node lat="60.22810833667761" lon="9.796825008522875" id="-17834">
		<tag k="name" v="Leikmyr" />
		<tag k="natural" v="wetland" />
		<tag k="ssr:stedsnr" v="333144" />
	</node>
	<node lat="60.44580833742633" lon="9.935688886260678" id="-17901">
		<tag k="name" v="Lykkrosmyra" />
		<tag k="natural" v="wetland" />
		<tag k="ssr:stedsnr" v="369888" />
	</node>
	<node lat="60.41110277861872" lon="9.996883329603934" id="-17902">
		<tag k="name" v="Tossevikmyrene" />
		<tag k="natural" v="wetland" />
		<tag k="ssr:stedsnr" v="370298" />
	</node>
	<node lat="60.32665832923198" lon="9.927061109816684" id="-17917">
		<tag k="name" v="Langmyra" />
		<tag k="natural" v="wetland" />
		<tag k="ssr:stedsnr" v="370879" />
	</node>
	<node lat="60.56523055531657" lon="10.01064444105498" id="-17941">
		<tag k="name" v="Krakamyr" />
		<tag k="natural" v="wetland" />
		<tag k="ssr:stedsnr" v="389546" />
	</node>
	<node lat="60.25934999782757" lon="10.277074997699447" id="-17966">
		<tag k="name" v="Lundemyr" />
		<tag k="natural" v="wetland" />
		<tag k="ssr:stedsnr" v="390820" />
	</node>
	<node lat="60.34845278187648" lon="10.057174991561268" id="-17983">
		<tag k="name" v="Styggedalsvollen" />
		<tag k="place" v="locality" />
		<tag k="ssr:stedsnr" v="392846" />
	</node>
	<node lat="60.38275278148474" lon="10.052308329407929" id="-17986">
		<tag k="name" v="Øvre Moen" />
		<tag k="place" v="locality" />
		<tag k="ssr:stedsnr" v="392872" />
	</node>
	<node lat="60.37068888593249" lon="10.043291666866763" id="-17987">
		<tag k="name" v="Hestemyr" />
		<tag k="natural" v="wetland" />
		<tag k="ssr:stedsnr" v="392875" />
	</node>
	<node lat="60.42240833040368" lon="10.00318611433126" id="-17993">
		<tag k="name" v="Fiskejofurumyra" />
		<tag k="natural" v="wetland" />
		<tag k="ssr:stedsnr" v="393193" />
	</node>
	<node lat="60.096083336161385" lon="9.960411116062641" id="-17998">
		<tag k="alt_name" v="Kalbumyra" />
		<tag k="name" v="Kolbumyra" />
		<tag k="natural" v="wetland" />
		<tag k="ssr:stedsnr" v="393349" />
	</node>
	<node lat="60.56398055895991" lon="9.823863894161432" id="-18000">
		<tag k="name" v="Tjernmyr" />
		<tag k="natural" v="wetland" />
		<tag k="ssr:stedsnr" v="393301" />
	</node>
	<node lat="60.53062500169277" lon="9.918627785380398" id="-18004">
		<tag k="name" v="Bjørnhugumyra" />
		<tag k="natural" v="wetland" />
		<tag k="ssr:stedsnr" v="393775" />
	</node>
	<node lat="60.1185416664351" lon="10.358369446532281" id="-18052">
		<tag k="name" v="Haukemyra" />
		<tag k="natural" v="wetland" />
		<tag k="ssr:stedsnr" v="430071" />
	</node>
	<node lat="60.34394166645107" lon="9.914600005646239" id="-18084">
		<tag k="name" v="Tverrmyra" />
		<tag k="natural" v="wetland" />
		<tag k="ssr:stedsnr" v="431866" />
	</node>
	<node lat="60.37976110734014" lon="10.182141660852338" id="-18118">
		<tag k="name" v="Stormyr" />
		<tag k="natural" v="wetland" />
		<tag k="ssr:stedsnr" v="511246" />
	</node>
	<node lat="60.315047223569074" lon="10.187647216841173" id="-18121">
		<tag k="name" v="Sørenga" />
		<tag k="place" v="locality" />
		<tag k="ssr:stedsnr" v="511633" />
	</node>
	<node lat="60.48784166382461" lon="10.1607361157472" id="-18128">
		<tag k="name" v="Fugleleikmyrene" />
		<tag k="natural" v="wetland" />
		<tag k="ssr:stedsnr" v="511770" />
	</node>
	<node lat="60.43039444108076" lon="10.16127221755329" id="-18131">
		<tag k="name" v="Tverråsmyr" />
		<tag k="natural" v="wetland" />
		<tag k="ssr:stedsnr" v="511930" />
	</node>
	<node lat="60.3286944419806" lon="9.919858333114956" id="-18144">
		<tag k="name" v="Lysåkrokmyra" />
		<tag k="natural" v="wetland" />
		<tag k="ssr:stedsnr" v="514892" />
	</node>
	<node lat="60.328374996464404" lon="9.946313887793146" id="-18145">
		<tag k="name" v="Saksentjernmyrene" />
		<tag k="natural" v="wetland" />
		<tag k="ssr:stedsnr" v="514896" />
	</node>
	<node lat="60.39556389307343" lon="10.099186105851633" id="-18154">
		<tag k="name" v="Harastokkmyr" />
		<tag k="natural" v="wetland" />
		<tag k="ssr:stedsnr" v="514188" />
	</node>
	<node lat="60.474999998050734" lon="10.010500005442765" id="-18156">
		<tag k="name" v="Stubbesteinbråten" />
		<tag k="place" v="locality" />
		<tag k="ssr:stedsnr" v="514198" />
	</node>
	<node lat="60.13809999568826" lon="9.99059165869679" id="-18157">
		<tag k="historic" v="shieling" />
		<tag k="name" v="Lutevollen" />
		<tag k="place" v="locality" />
		<tag k="ssr:stedsnr" v="514367" />
	</node>
	<node lat="60.30225833730371" lon="9.805902770039225" id="-18172">
		<tag k="name" v="Tverrmyr" />
		<tag k="natural" v="wetland" />
		<tag k="ssr:stedsnr" v="514606" />
	</node>
	<node lat="60.432413887404785" lon="10.046166659209982" id="-18173">
		<tag k="name" v="Stigrudmyra" />
		<tag k="natural" v="wetland" />
		<tag k="ssr:stedsnr" v="514672" />
	</node>
	<node lat="60.368543938449235" lon="10.107635425044366" id="-18175">
		<tag k="name" v="Kvigedalsrøysa" />
		<tag k="natural" v="scree" />
		<tag k="ssr:stedsnr" v="514634" />
	</node>
	<node lat="60.55463055340153" lon="9.920638880958503" id="-18180">
		<tag k="name" v="Brann" />
		<tag k="place" v="locality" />
		<tag k="ssr:stedsnr" v="514787" />
	</node>
	<node lat="60.40349166885468" lon="10.135430550264672" id="-18191">
		<tag k="name" v="Flåtjernlimyr" />
		<tag k="natural" v="wetland" />
		<tag k="ssr:stedsnr" v="514852" />
	</node>
	<node lat="60.19641944190499" lon="9.834816666908667" id="-18194">
		<tag k="name" v="Svolkemyr" />
		<tag k="natural" v="wetland" />
		<tag k="ssr:stedsnr" v="515152" />
	</node>
	<node lat="60.15577499712987" lon="10.066399992438301" id="-18223">
		<tag k="name" v="Hyttetjernmyra" />
		<tag k="natural" v="wetland" />
		<tag k="ssr:stedsnr" v="550591" />
	</node>
	<node lat="60.114402779910264" lon="9.972827770556245" id="-18225">
		<tag k="name" v="Stormyra" />
		<tag k="natural" v="wetland" />
		<tag k="ssr:stedsnr" v="550681" />
	</node>
	<node lat="60.10851666702295" lon="10.443263891712576" id="-18230">
		<tag k="alt_name" v="Atjernsmyrene" />
		<tag k="name" v="Atjernmyrene" />
		<tag k="natural" v="wetland" />
		<tag k="ssr:stedsnr" v="551184" />
	</node>
	<node lat="60.123536108639456" lon="10.434744438129098" id="-18237">
		<tag k="name" v="Røssimyra" />
		<tag k="natural" v="wetland" />
		<tag k="ssr:stedsnr" v="551064" />
	</node>
	<node lat="60.29641666306334" lon="10.206330563138884" id="-18245">
		<tag k="name" v="Dammyra" />
		<tag k="natural" v="wetland" />
		<tag k="ssr:stedsnr" v="552418" />
	</node>
	<node lat="60.23588333485198" lon="9.760427773925995" id="-18303">
		<tag k="alt_name" v="Tronbråten" />
		<tag k="name" v="Tronbråtan" />
		<tag k="place" v="locality" />
		<tag k="ssr:stedsnr" v="571288" />
	</node>
	<node lat="60.22829444376523" lon="10.14280555012707" id="-18305">
		<tag k="name" v="Langmyr" />
		<tag k="natural" v="wetland" />
		<tag k="ssr:stedsnr" v="571475" />
	</node>
	<node lat="60.31025277834172" lon="10.146641668306614" id="-18307">
		<tag k="name" v="Kjeipsteinen" />
		<tag k="natural" v="stone" />
		<tag k="ssr:stedsnr" v="571626" />
	</node>
	<node lat="60.13016111054257" lon="10.440955548607358" id="-18319">
		<tag k="name" v="Gravmyr" />
		<tag k="natural" v="wetland" />
		<tag k="ssr:stedsnr" v="572497" />
	</node>
	<node lat="60.555516669912755" lon="10.082858332190556" id="-18321">
		<tag k="name" v="Nedre Setermyr" />
		<tag k="natural" v="wetland" />
		<tag k="ssr:stedsnr" v="573462" />
	</node>
	<node lat="60.40680555145538" lon="10.03694166219542" id="-18343">
		<tag k="name" v="Hestemyr" />
		<tag k="natural" v="wetland" />
		<tag k="ssr:stedsnr" v="574560" />
	</node>
	<node lat="60.37259167092479" lon="10.109847227744643" id="-18345">
		<tag k="name" v="Kjerringrismyr" />
		<tag k="natural" v="wetland" />
		<tag k="ssr:stedsnr" v="574673" />
	</node>
	<node lat="60.43501389281934" lon="10.042127785385771" id="-18346">
		<tag k="name" v="Midtkollmyra" />
		<tag k="natural" v="wetland" />
		<tag k="ssr:stedsnr" v="574688" />
	</node>
	<node lat="60.35250832918716" lon="10.03555555266052" id="-18351">
		<tag k="name" v="Orremyrene" />
		<tag k="natural" v="wetland" />
		<tag k="ssr:stedsnr" v="574838" />
	</node>
	<node lat="60.477500004371535" lon="10.10486943673684" id="-18354">
		<tag k="name" v="Briskemyr" />
		<tag k="natural" v="wetland" />
		<tag k="ssr:stedsnr" v="574888" />
	</node>
	<node lat="60.33850278125232" lon="10.09862777928919" id="-18360">
		<tag k="name" v="Klintemyra" />
		<tag k="natural" v="wetland" />
		<tag k="ssr:stedsnr" v="574982" />
	</node>
	<node lat="60.42727499574235" lon="10.010272219762797" id="-18365">
		<tag k="name" v="Killingmyr" />
		<tag k="natural" v="wetland" />
		<tag k="ssr:stedsnr" v="575118" />
	</node>
	<node lat="60.51066944174753" lon="9.880838885101705" id="-18373">
		<tag k="name" v="Holtekollmyra" />
		<tag k="natural" v="wetland" />
		<tag k="ssr:stedsnr" v="575342" />
	</node>
	<node lat="60.34153889279018" lon="9.900552775829706" id="-18378">
		<tag k="historic" v="shieling" />
		<tag k="name" v="Helgesvollen" />
		<tag k="place" v="locality" />
		<tag k="ssr:stedsnr" v="575493" />
	</node>
	<node lat="60.52403055490564" lon="9.990749998809312" id="-18381">
		<tag k="alt_name" v="Søndre Dobbelleggsmyr" />
		<tag k="name" v="Søre Dobbelleggsmyr" />
		<tag k="natural" v="wetland" />
		<tag k="ssr:stedsnr" v="575682" />
	</node>
	<node lat="60.352261111814904" lon="9.86097777422737" id="-18385">
		<tag k="name" v="Åsmyr" />
		<tag k="natural" v="wetland" />
		<tag k="ssr:stedsnr" v="575965" />
	</node>
	<node lat="60.35815277434767" lon="9.831027774476233" id="-18388">
		<tag k="name" v="Sjolmyr" />
		<tag k="natural" v="wetland" />
		<tag k="ssr:stedsnr" v="575987" />
	</node>
	<node lat="60.35668611175313" lon="9.835991667193428" id="-18389">
		<tag k="name" v="Puttemyr" />
		<tag k="natural" v="wetland" />
		<tag k="ssr:stedsnr" v="575988" />
	</node>
	<node lat="60.080947218411396" lon="10.431777783844824" id="-18452">
		<tag k="name" v="Stormyra" />
		<tag k="natural" v="wetland" />
		<tag k="ssr:stedsnr" v="612258" />
	</node>
	<node lat="60.5036305531906" lon="9.843630563109782" id="-18479">
		<tag k="name" v="Gutusmyrane" />
		<tag k="natural" v="wetland" />
		<tag k="ssr:stedsnr" v="613740" />
	</node>
	<node lat="60.37767221994745" lon="10.161311106596056" id="-18499">
		<tag k="name" v="Jøthaugmyra" />
		<tag k="natural" v="wetland" />
		<tag k="ssr:stedsnr" v="632259" />
	</node>
	<node lat="60.272894447062185" lon="9.77567778051944" id="-18503">
		<tag k="name" v="Strandbråten" />
		<tag k="place" v="locality" />
		<tag k="ssr:stedsnr" v="632215" />
	</node>
	<node lat="60.14323611453492" lon="10.469386117252391" id="-18505">
		<tag k="name" v="Elgmyr" />
		<tag k="natural" v="wetland" />
		<tag k="ssr:stedsnr" v="632227" />
	</node>
	<node lat="60.56918055767397" lon="10.077975005387593" id="-18506">
		<tag k="name" v="Hesjamyr" />
		<tag k="natural" v="wetland" />
		<tag k="ssr:stedsnr" v="632379" />
	</node>
	<node lat="60.40745555968574" lon="10.181030553262717" id="-18507">
		<tag k="historic" v="shieling" />
		<tag k="name" v="Lysknapphytta" />
		<tag k="place" v="locality" />
		<tag k="ssr:stedsnr" v="632469" />
	</node>
	<node lat="60.200861111645054" lon="10.268044447140065" id="-18524">
		<tag k="name" v="Mellompløya" />
		<tag k="place" v="locality" />
		<tag k="ssr:stedsnr" v="633847" />
	</node>
	<node lat="60.43080278051333" lon="10.182038891010041" id="-18529">
		<tag k="name" v="Ådalsrøysa" />
		<tag k="natural" v="scree" />
		<tag k="ssr:stedsnr" v="633961" />
	</node>
	<node lat="60.45119444366834" lon="9.976877769010715" id="-18538">
		<tag k="name" v="Smerudmyra" />
		<tag k="natural" v="wetland" />
		<tag k="ssr:stedsnr" v="635097" />
	</node>
	<node lat="60.45273611022161" lon="10.0131916684033" id="-18539">
		<tag k="name" v="Liubråten" />
		<tag k="place" v="locality" />
		<tag k="ssr:stedsnr" v="635100" />
	</node>
	<node lat="60.4129194477314" lon="10.020794451118652" id="-18540">
		<tag k="name" v="Nedre Småtjernmyr" />
		<tag k="natural" v="wetland" />
		<tag k="ssr:stedsnr" v="635121" />
	</node>
	<node lat="60.28862222591676" lon="9.80410277736055" id="-18546">
		<tag k="loc_name" v="Kalvetræbråtan" />
		<tag k="name" v="Kalvetrebråten" />
		<tag k="place" v="locality" />
		<tag k="ssr:stedsnr" v="635565" />
	</node>
	<node lat="60.45199722398774" lon="10.121491661474895" id="-18557">
		<tag k="name" v="Stormyr" />
		<tag k="natural" v="wetland" />
		<tag k="ssr:stedsnr" v="635599" />
	</node>
	<node lat="60.52530000394609" lon="9.921499999484727" id="-18562">
		<tag k="name" v="Vinglegrasmyra" />
		<tag k="natural" v="wetland" />
		<tag k="ssr:stedsnr" v="635765" />
	</node>
	<node lat="60.365366666774634" lon="9.854633342265403" id="-18574">
		<tag k="name" v="Bjørneskarmyr" />
		<tag k="natural" v="wetland" />
		<tag k="ssr:stedsnr" v="636980" />
	</node>
	<node lat="60.33619721944686" lon="9.882905556635016" id="-18587">
		<tag k="name" v="Gråura" />
		<tag k="natural" v="scree" />
		<tag k="ssr:stedsnr" v="636524" />
	</node>
	<node lat="60.221152782238335" lon="9.883011106854687" id="-18590">
		<tag k="name" v="Malamyr" />
		<tag k="natural" v="wetland" />
		<tag k="ssr:stedsnr" v="636736" />
	</node>
	<node lat="60.06795555116623" lon="10.042908335705922" id="-18598">
		<tag k="landuse" v="quarry" />
		<tag k="loc_name" v="Nikkelverket" />
		<tag k="name" v="Ringerike nikkelverk" />
		<tag k="ssr:stedsnr" v="654818" />
	</node>
	<node lat="60.254074179520806" lon="10.166200468874347" id="-18659">
		<tag k="fixme" v="multiple name tags, choose one and add the other to alt_name" />
		<tag k="name" v="Døvlingsmyra;Hallingbymyrene" />
		<tag k="natural" v="wetland" />
		<tag k="ssr:stedsnr" v="734355" />
	</node>
	<node lat="60.1955333325267" lon="10.241399999731165" id="-18697">
		<tag k="name" v="Årbogen" />
		<tag k="place" v="locality" />
		<tag k="ssr:stedsnr" v="752178" />
	</node>
	<node lat="60.09107500224932" lon="10.482097226593053" id="-18711">
		<tag k="name" v="Tusenmyr" />
		<tag k="natural" v="wetland" />
		<tag k="ssr:stedsnr" v="754338" />
	</node>
	<node lat="60.11390832988051" lon="10.408722230970815" id="-18716">
		<tag k="name" v="Hovmyrene" />
		<tag k="natural" v="wetland" />
		<tag k="ssr:stedsnr" v="754042" />
	</node>
	<node lat="60.12375833319927" lon="10.262183340566917" id="-18717">
		<tag k="name" v="Løkken" />
		<tag k="place" v="locality" />
		<tag k="ssr:stedsnr" v="754118" />
	</node>
	<node lat="60.09832221794655" lon="10.41889999707551" id="-18719">
		<tag k="name" v="Kjempemyra" />
		<tag k="natural" v="wetland" />
		<tag k="ssr:stedsnr" v="754058" />
	</node>
	<node lat="60.13009721871783" lon="10.312383336991223" id="-18720">
		<tag k="name" v="Brudenga" />
		<tag k="place" v="locality" />
		<tag k="ssr:stedsnr" v="754134" />
	</node>
	<node lat="60.27475833650674" lon="9.774016666547952" id="-18722">
		<tag k="name" v="Breilisand" />
		<tag k="natural" v="beach" />
		<tag k="ssr:stedsnr" v="754233" />
		<tag k="surface" v="sand" />
	</node>
	<node lat="60.56735833532527" lon="10.077866664080718" id="-18728">
		<tag k="name" v="Gravmyr" />
		<tag k="natural" v="wetland" />
		<tag k="ssr:stedsnr" v="754394" />
	</node>
	<node lat="60.44575833132198" lon="10.156611116482278" id="-18736">
		<tag k="name" v="Kastmyra" />
		<tag k="natural" v="wetland" />
		<tag k="ssr:stedsnr" v="754776" />
	</node>
	<node lat="60.49006388509077" lon="10.148727780989216" id="-18738">
		<tag k="name" v="Huskemyr" />
		<tag k="natural" v="wetland" />
		<tag k="ssr:stedsnr" v="754791" />
	</node>
	<node lat="60.40188610948828" lon="10.043716661337184" id="-18758">
		<tag k="name" v="Høykastmyr" />
		<tag k="natural" v="wetland" />
		<tag k="ssr:stedsnr" v="756525" />
	</node>
	<node lat="60.33882778098349" lon="10.050908328367168" id="-18768">
		<tag k="name" v="Stormyr" />
		<tag k="natural" v="wetland" />
		<tag k="ssr:stedsnr" v="757938" />
	</node>
	<node lat="60.46165833766824" lon="10.09000555777189" id="-18770">
		<tag k="name" v="Svatormyra" />
		<tag k="natural" v="wetland" />
		<tag k="ssr:stedsnr" v="756784" />
	</node>
	<node lat="60.49241666884433" lon="10.101294435967015" id="-18771">
		<tag k="name" v="Askedalsmyra" />
		<tag k="natural" v="wetland" />
		<tag k="ssr:stedsnr" v="756873" />
	</node>
	<node lat="60.42758888756474" lon="9.832780564427798" id="-18787">
		<tag k="name" v="Trøstheimmyr" />
		<tag k="natural" v="wetland" />
		<tag k="ssr:stedsnr" v="757470" />
	</node>
	<node lat="60.2208611117929" lon="10.052797227085776" id="-18794">
		<tag k="historic" v="shieling" />
		<tag k="name" v="Pålejordet" />
		<tag k="place" v="locality" />
		<tag k="ssr:stedsnr" v="757812" />
	</node>
	<node lat="60.62056944029752" lon="9.980605563957456" id="-18796">
		<tag k="name" v="Hyttemyr" />
		<tag k="natural" v="wetland" />
		<tag k="ssr:stedsnr" v="757823" />
	</node>
	<node lat="60.29490833490679" lon="9.980000005472718" id="-18797">
		<tag k="name" v="Kvitmosemyr" />
		<tag k="natural" v="wetland" />
		<tag k="ssr:stedsnr" v="757589" />
	</node>
	<node lat="60.52706666709397" lon="9.942450004386027" id="-18801">
		<tag k="name" v="Langhaugmyr" />
		<tag k="natural" v="wetland" />
		<tag k="ssr:stedsnr" v="757674" />
	</node>
	<node lat="60.283258330897745" lon="10.024352777497544" id="-18809">
		<tag k="name" v="Steinhusmyrene" />
		<tag k="natural" v="wetland" />
		<tag k="ssr:stedsnr" v="757884" />
	</node>
	<node lat="60.20860277621902" lon="9.891816662493552" id="-18815">
		<tag k="name" v="Digremyr" />
		<tag k="natural" v="wetland" />
		<tag k="ssr:stedsnr" v="758173" />
	</node>
	<node lat="60.30228055943715" lon="9.824197229065609" id="-18817">
		<tag k="name" v="Martemyr" />
		<tag k="natural" v="wetland" />
		<tag k="ssr:stedsnr" v="758602" />
	</node>
	<node lat="60.29109444851092" lon="9.774122217021471" id="-18820">
		<tag k="historic" v="shieling" />
		<tag k="name" v="Brattebakkbråten" />
		<tag k="place" v="locality" />
		<tag k="ssr:stedsnr" v="758869" />
	</node>
	<node lat="60.3700777791559" lon="9.777677781086652" id="-18823">
		<tag k="name" v="Søya" />
		<tag k="natural" v="stone" />
		<tag k="ssr:stedsnr" v="768396" />
	</node>
	<node lat="60.078677775529684" lon="10.357358331232026" id="-18850">
=======
	<node id="-230078" lat="60.121488891" lon="10.0145999985">
		<tag k="name" v="Sandvollmyra" />
		<tag k="natural" v="wetland" />
		<tag k="ssr:stedsnr" v="186736" />
	</node>
	<node id="-228027" lat="60.0376777764" lon="10.4943166695">
		<tag k="name" v="Karlstadmyra" />
		<tag k="natural" v="wetland" />
		<tag k="ssr:stedsnr" v="490948" />
	</node>
	<node id="-230071" lat="60.1584999992" lon="9.98853054857">
		<tag k="alt_name" v="Fyrmyr" />
		<tag k="name" v="Fyrmyra" />
		<tag k="natural" v="wetland" />
		<tag k="ssr:stedsnr" v="186658" />
	</node>
	<node id="-228008" lat="60.5401499981" lon="10.1016638969">
		<tag k="alt_name" v="Sørlitjernet" />
		<tag k="name" v="Sørlitjern" />
		<tag k="natural" v="wetland" />
		<tag k="ssr:stedsnr" v="674550" />
	</node>
	<node id="-229488" lat="60.4957027811" lon="10.1287416704">
		<tag k="name" v="Langemyr" />
		<tag k="natural" v="wetland" />
		<tag k="ssr:stedsnr" v="28880" />
	</node>
	<node id="-230040" lat="60.2880861074" lon="9.77514999375">
		<tag k="name" v="Håmanmyr" />
		<tag k="natural" v="wetland" />
		<tag k="ssr:stedsnr" v="151865" />
	</node>
	<node id="-230035" lat="60.2935666639" lon="9.83242499488">
		<tag k="name" v="Firehalsmyra" />
		<tag k="natural" v="wetland" />
		<tag k="ssr:stedsnr" v="151566" />
	</node>
	<node id="-230032" lat="60.5709777815" lon="9.89886389203">
		<tag k="name" v="Liastormyr" />
		<tag k="natural" v="wetland" />
		<tag k="ssr:stedsnr" v="150971" />
	</node>
	<node id="-230031" lat="60.3067749988" lon="9.94854444846">
		<tag k="name" v="Tuftmyra" />
		<tag k="natural" v="wetland" />
		<tag k="ssr:stedsnr" v="150960" />
	</node>
	<node id="-227981" lat="60.3186916708" lon="10.2345944368">
		<tag k="name" v="Sætermyra" />
		<tag k="natural" v="wetland" />
		<tag k="ssr:stedsnr" v="673486" />
	</node>
	<node id="-230027" lat="60.230158331" lon="9.8358361159">
		<tag k="name" v="Fuglemyr" />
		<tag k="natural" v="wetland" />
		<tag k="ssr:stedsnr" v="151154" />
	</node>
	<node id="-230026" lat="60.5907222227" lon="9.90300278548">
		<tag k="name" v="Fugleleikmyra" />
		<tag k="natural" v="wetland" />
		<tag k="ssr:stedsnr" v="150801" />
	</node>
	<node id="-227974" lat="60.0749583366" lon="10.4909888837">
		<tag k="name" v="Heimmyra" />
		<tag k="natural" v="wetland" />
		<tag k="ssr:stedsnr" v="673266" />
	</node>
	<node id="-229995" lat="60.4187305586" lon="10.0029250087">
		<tag k="name" v="Skåpmyra" />
		<tag k="natural" v="wetland" />
		<tag k="ssr:stedsnr" v="150195" />
	</node>
	<node id="-229985" lat="60.4547222252" lon="10.000163898">
		<tag k="name" v="Ragnhildmyrene" />
		<tag k="natural" v="wetland" />
		<tag k="ssr:stedsnr" v="150095" />
	</node>
	<node id="-229984" lat="60.4423944404" lon="10.0130499986">
		<tag k="name" v="Bjørndalsmyra" />
		<tag k="natural" v="wetland" />
		<tag k="ssr:stedsnr" v="150093" />
	</node>
	<node id="-227934" lat="60.1624555565" lon="10.1393000024">
		<tag k="name" v="Stormyra" />
		<tag k="natural" v="wetland" />
		<tag k="ssr:stedsnr" v="672569" />
	</node>
	<node id="-229980" lat="60.4086388932" lon="10.1345027802">
		<tag k="name" v="Venemyr" />
		<tag k="natural" v="wetland" />
		<tag k="ssr:stedsnr" v="149901" />
	</node>
	<node id="-231524" lat="60.2208611118" lon="10.0527972271">
		<tag k="historic" v="shieling" />
		<tag k="name" v="Pålejordet" />
		<tag k="place" v="locality" />
		<tag k="ssr:stedsnr" v="757812" />
	</node>
	<node id="-229972" lat="60.590041668" lon="10.0232555523">
		<tag k="name" v="Langemyr" />
		<tag k="natural" v="wetland" />
		<tag k="ssr:stedsnr" v="149539" />
	</node>
	<node id="-229968" lat="60.4226833327" lon="10.0388638803">
		<tag k="name" v="Gamlelimyra" />
		<tag k="natural" v="wetland" />
		<tag k="ssr:stedsnr" v="149395" />
	</node>
	<node id="-227916" lat="60.0700833307" lon="9.97678056266">
		<tag k="name" v="Fugleleikmyra" />
		<tag k="natural" v="wetland" />
		<tag k="ssr:stedsnr" v="672244" />
	</node>
	<node id="-229498" lat="60.3761472217" lon="9.92903610228">
		<tag k="name" v="Ytre Storleinamyr" />
		<tag k="natural" v="wetland" />
		<tag k="old_name" v="Indre Storleinamyr" />
		<tag k="ssr:stedsnr" v="29090" />
	</node>
	<node id="-229959" lat="60.3565638858" lon="10.2142611053">
		<tag k="historic" v="shieling" />
		<tag k="name" v="Lystigsetra" />
		<tag k="place" v="locality" />
		<tag k="ssr:stedsnr" v="147987" />
	</node>
	<node id="-227905" lat="60.2184999993" lon="9.91730277016">
		<tag k="landuse" v="meadow" />
		<tag k="name" v="Enga" />
		<tag k="ssr:stedsnr" v="672187" />
	</node>
	<node id="-227896" lat="60.2413583298" lon="10.0484083326">
		<tag k="name" v="Slåttemyr" />
		<tag k="natural" v="wetland" />
		<tag k="ssr:stedsnr" v="671994" />
	</node>
	<node id="-227894" lat="60.1230805521" lon="10.0565833403">
		<tag k="name" v="Stormyra" />
		<tag k="natural" v="wetland" />
		<tag k="ssr:stedsnr" v="671716" />
	</node>
	<node id="-227880" lat="60.3367194432" lon="9.80648054935">
		<tag k="name" v="Folemyr" />
		<tag k="natural" v="wetland" />
		<tag k="ssr:stedsnr" v="454986" />
	</node>
	<node id="-227878" lat="60.3082416647" lon="9.96144443879">
		<tag k="name" v="Persbråtarøysa" />
		<tag k="natural" v="scree" />
		<tag k="ssr:stedsnr" v="454974" />
	</node>
	<node id="-227875" lat="60.5724666645" lon="9.91506944736">
		<tag k="name" v="Akkordmyra" />
		<tag k="natural" v="wetland" />
		<tag k="ssr:stedsnr" v="454672" />
	</node>
	<node id="-227874" lat="60.5830888893" lon="9.92217222208">
		<tag k="name" v="Elgsmyr" />
		<tag k="natural" v="wetland" />
		<tag k="ssr:stedsnr" v="454669" />
	</node>
	<node id="-229467" lat="60.1398416693" lon="10.2395333372">
		<tag k="landuse" v="meadow" />
		<tag k="name" v="Nybrottet" />
		<tag k="ssr:stedsnr" v="27980" />
	</node>
	<node id="-229918" lat="60.4090555544" lon="9.81411666149">
		<tag k="alt_name" v="Krokmyra" />
		<tag k="name" v="Krokmyr" />
		<tag k="natural" v="wetland" />
		<tag k="ssr:stedsnr" v="127957" />
	</node>
	<node id="-229903" lat="60.4787666639" lon="9.98178610435">
		<tag k="alt_name" v="Storemyr" />
		<tag k="name" v="Stormyr" />
		<tag k="natural" v="wetland" />
		<tag k="ssr:stedsnr" v="127736" />
	</node>
	<node id="-227853" lat="60.3674416685" lon="10.057930559">
		<tag k="name" v="Kroksrud" />
		<tag k="place" v="locality" />
		<tag k="ssr:stedsnr" v="453802" />
	</node>
	<node id="-227848" lat="60.2464916652" lon="10.3029499983">
		<tag k="name" v="Mosemyr" />
		<tag k="natural" v="wetland" />
		<tag k="ssr:stedsnr" v="451812" />
	</node>
	<node id="-229886" lat="60.2989583323" lon="10.1125111146">
		<tag k="alt_name" v="Sibekkmyra" />
		<tag k="name" v="Sibekklimyra" />
		<tag k="natural" v="wetland" />
		<tag k="ssr:stedsnr" v="127396" />
	</node>
	<node id="-227835" lat="60.5807805588" lon="10.0034249977">
		<tag k="name" v="Øvre Enga" />
		<tag k="place" v="locality" />
		<tag k="ssr:stedsnr" v="450534" />
	</node>
	<node id="-229871" lat="60.1376250032" lon="10.0952833404">
		<tag k="name" v="Soknedalsmyra" />
		<tag k="natural" v="wetland" />
		<tag k="ssr:stedsnr" v="126677" />
	</node>
	<node id="-229944" lat="60.5013583359" lon="10.1028444473">
		<tag k="name" v="Hønemyr" />
		<tag k="natural" v="wetland" />
		<tag k="ssr:stedsnr" v="147195" />
	</node>
	<node id="-229456" lat="60.3349499983" lon="10.1839888942">
		<tag k="name" v="Askemyr" />
		<tag k="natural" v="wetland" />
		<tag k="ssr:stedsnr" v="26968" />
	</node>
	<node id="-231893" lat="60.5790555548" lon="9.99934167186">
		<tag k="name" v="Nedre Enga" />
		<tag k="place" v="locality" />
		<tag k="ssr:stedsnr" v="875525" />
	</node>
	<node id="-231877" lat="60.5385527778" lon="10.094155559">
		<tag k="name" v="Steinkleivmyr" />
		<tag k="natural" v="wetland" />
		<tag k="ssr:stedsnr" v="874202" />
	</node>
	<node id="-227777" lat="60.2877472194" lon="9.76554167532">
		<tag k="name" v="Vintermyr" />
		<tag k="natural" v="wetland" />
		<tag k="ssr:stedsnr" v="515871" />
	</node>
	<node id="-229823" lat="60.1521611068" lon="10.1082444447">
		<tag k="name" v="Store Askmyra" />
		<tag k="natural" v="wetland" />
		<tag k="ssr:stedsnr" v="125660" />
	</node>
	<node id="-227774" lat="60.1924611156" lon="9.90386110777">
		<tag k="name" v="Sandakermyra" />
		<tag k="natural" v="wetland" />
		<tag k="ssr:stedsnr" v="515735" />
	</node>
	<node id="-229450" lat="60.5013146237" lon="10.1619051966">
		<tag k="name" v="Snellrøysa" />
		<tag k="natural" v="scree" />
		<tag k="ssr:stedsnr" v="26842" />
	</node>
	<node id="-227766" lat="60.1964194419" lon="9.83481666691">
		<tag k="name" v="Svolkemyr" />
		<tag k="natural" v="wetland" />
		<tag k="ssr:stedsnr" v="515152" />
	</node>
	<node id="-227763" lat="60.3283749965" lon="9.94631388779">
		<tag k="name" v="Saksentjernmyrene" />
		<tag k="natural" v="wetland" />
		<tag k="ssr:stedsnr" v="514896" />
	</node>
	<node id="-227762" lat="60.328694442" lon="9.91985833311">
		<tag k="name" v="Lysåkrokmyra" />
		<tag k="natural" v="wetland" />
		<tag k="ssr:stedsnr" v="514892" />
	</node>
	<node id="-230131" lat="60.2533305541" lon="10.2113388957">
		<tag k="name" v="Slåttemyr" />
		<tag k="natural" v="wetland" />
		<tag k="ssr:stedsnr" v="188348" />
	</node>
	<node id="-227752" lat="60.5546305534" lon="9.92063888096">
		<tag k="name" v="Brann" />
		<tag k="place" v="locality" />
		<tag k="ssr:stedsnr" v="514787" />
	</node>
	<node id="-227740" lat="60.3685439384" lon="10.107635425">
		<tag k="name" v="Kvigedalsrøysa" />
		<tag k="natural" v="scree" />
		<tag k="ssr:stedsnr" v="514634" />
	</node>
	<node id="-229786" lat="60.3544944471" lon="9.86571389618">
		<tag k="name" v="Husmyr" />
		<tag k="natural" v="wetland" />
		<tag k="ssr:stedsnr" v="90976" />
	</node>
	<node id="-227738" lat="60.3022583373" lon="9.80590277004">
		<tag k="name" v="Tverrmyr" />
		<tag k="natural" v="wetland" />
		<tag k="ssr:stedsnr" v="514606" />
	</node>
	<node id="-227734" lat="60.1380999957" lon="9.9905916587">
		<tag k="historic" v="shieling" />
		<tag k="name" v="Lutevollen" />
		<tag k="place" v="locality" />
		<tag k="ssr:stedsnr" v="514367" />
	</node>
	<node id="-229780" lat="60.6303583296" lon="9.93778334077">
		<tag k="name" v="Stormyr" />
		<tag k="natural" v="wetland" />
		<tag k="ssr:stedsnr" v="90876" />
	</node>
	<node id="-229779" lat="60.6332777795" lon="9.94894721954">
		<tag k="name" v="Hjellemyr" />
		<tag k="natural" v="wetland" />
		<tag k="ssr:stedsnr" v="90874" />
	</node>
	<node id="-229777" lat="60.6282583338" lon="9.98148056298">
		<tag k="name" v="Vegamyr" />
		<tag k="natural" v="wetland" />
		<tag k="ssr:stedsnr" v="90868" />
	</node>
	<node id="-229776" lat="60.5908527804" lon="9.93724165829">
		<tag k="name" v="Mattea-Kanamyra" />
		<tag k="natural" v="wetland" />
		<tag k="ssr:stedsnr" v="90815" />
	</node>
	<node id="-231823" lat="60.070591664" lon="10.5641083361">
		<tag k="name" v="Slottsmyra" />
		<tag k="natural" v="wetland" />
		<tag k="ssr:stedsnr" v="855225" />
	</node>
	<node id="-229773" lat="60.5275833351" lon="9.91435000688">
		<tag k="name" v="Langmyr" />
		<tag k="natural" v="wetland" />
		<tag k="ssr:stedsnr" v="90768" />
	</node>
	<node id="-227723" lat="60.4749999981" lon="10.0105000054">
		<tag k="name" v="Stubbesteinbråten" />
		<tag k="place" v="locality" />
		<tag k="ssr:stedsnr" v="514198" />
	</node>
	<node id="-227721" lat="60.3955638931" lon="10.0991861059">
		<tag k="name" v="Harastokkmyr" />
		<tag k="natural" v="wetland" />
		<tag k="ssr:stedsnr" v="514188" />
	</node>
	<node id="-227718" lat="60.1448277813" lon="10.133908331">
		<tag k="name" v="Raukastmyra" />
		<tag k="natural" v="wetland" />
		<tag k="ssr:stedsnr" v="514280" />
	</node>
	<node id="-227713" lat="60.1449722263" lon="10.4339305623">
		<tag k="alt_name" v="Viksætermyra" />
		<tag k="name" v="Viksetermyra" />
		<tag k="natural" v="wetland" />
		<tag k="ssr:stedsnr" v="418114" />
	</node>
	<node id="-231807" lat="60.1165500035" lon="10.2370166708">
		<tag k="name" v="Lamyra" />
		<tag k="natural" v="wetland" />
		<tag k="ssr:stedsnr" v="854683" />
	</node>
	<node id="-229752" lat="60.4923500012" lon="9.98259166907">
		<tag k="name" v="Hansemyr" />
		<tag k="natural" v="wetland" />
		<tag k="ssr:stedsnr" v="90163" />
	</node>
	<node id="-229749" lat="60.4166361139" lon="9.93533055835">
		<tag k="name" v="Gundersrudmyrene" />
		<tag k="natural" v="wetland" />
		<tag k="ssr:stedsnr" v="90110" />
	</node>
	<node id="-229744" lat="60.3554027768" lon="9.9571555476">
		<tag k="name" v="Partisanersteinen" />
		<tag k="natural" v="stone" />
		<tag k="ssr:stedsnr" v="90035" />
	</node>
	<node id="-227692" lat="60.4303944411" lon="10.1612722176">
		<tag k="name" v="Tverråsmyr" />
		<tag k="natural" v="wetland" />
		<tag k="ssr:stedsnr" v="511930" />
	</node>
	<node id="-229736" lat="60.3024333323" lon="10.0821138879">
		<tag k="name" v="Flåmyra" />
		<tag k="natural" v="wetland" />
		<tag k="ssr:stedsnr" v="89893" />
	</node>
	<node id="-227687" lat="60.4878416638" lon="10.1607361157">
		<tag k="name" v="Fugleleikmyrene" />
		<tag k="natural" v="wetland" />
		<tag k="ssr:stedsnr" v="511770" />
	</node>
	<node id="-229734" lat="60.2628666652" lon="10.0705472293">
		<tag k="name" v="Steinhusmyrene" />
		<tag k="natural" v="wetland" />
		<tag k="ssr:stedsnr" v="89880" />
	</node>
	<node id="-229733" lat="60.2697361112" lon="10.0625916685">
		<tag k="name" v="Karisnarmyr" />
		<tag k="natural" v="wetland" />
		<tag k="ssr:stedsnr" v="89879" />
	</node>
	<node id="-229732" lat="60.402291666" lon="10.1261083262">
		<tag k="name" v="Dugurdsmyr" />
		<tag k="natural" v="wetland" />
		<tag k="ssr:stedsnr" v="89876" />
	</node>
	<node id="-227683" lat="60.437866666" lon="10.1478499937">
		<tag k="name" v="Lomtjernmyrene" />
		<tag k="natural" v="wetland" />
		<tag k="ssr:stedsnr" v="511742" />
	</node>
	<node id="-227682" lat="60.3150472236" lon="10.1876472168">
		<tag k="name" v="Sørenga" />
		<tag k="place" v="locality" />
		<tag k="ssr:stedsnr" v="511633" />
	</node>
	<node id="-231770" lat="60.231944445" lon="9.81574999591">
		<tag k="name" v="Briskemyr" />
		<tag k="natural" v="wetland" />
		<tag k="ssr:stedsnr" v="819145" />
	</node>
	<node id="-231769" lat="60.2498694411" lon="9.82114721551">
		<tag k="name" v="Langemyr" />
		<tag k="natural" v="wetland" />
		<tag k="ssr:stedsnr" v="819140" />
	</node>
	<node id="-227671" lat="60.555552774" lon="10.0322388957">
		<tag k="name" v="Rysjumyr" />
		<tag k="natural" v="wetland" />
		<tag k="ssr:stedsnr" v="511342" />
	</node>
	<node id="-227670" lat="60.3797611073" lon="10.1821416609">
		<tag k="name" v="Stormyr" />
		<tag k="natural" v="wetland" />
		<tag k="ssr:stedsnr" v="511246" />
	</node>
	<node id="-229715" lat="60.4472222234" lon="10.1092055492">
		<tag k="name" v="Tjyrueldsmyra" />
		<tag k="natural" v="wetland" />
		<tag k="ssr:stedsnr" v="89639" />
	</node>
	<node id="-227666" lat="60.3642111122" lon="10.1597111165">
		<tag k="name" v="Nedre Ringsetermyrene" />
		<tag k="natural" v="wetland" />
		<tag k="ssr:stedsnr" v="511214" />
	</node>
	<node id="-231759" lat="60.5628527769" lon="9.90120832673">
		<tag k="name" v="Rasmusbråtamyra" />
		<tag k="natural" v="wetland" />
		<tag k="old_name" v="Rasmusbråtamyr" />
		<tag k="ssr:stedsnr" v="818979" />
	</node>
	<node id="-231749" lat="60.2873527752" lon="9.81613611366">
		<tag k="name" v="Stormyr" />
		<tag k="natural" v="wetland" />
		<tag k="ssr:stedsnr" v="818601" />
	</node>
	<node id="-231748" lat="60.2959138925" lon="9.79664722313">
		<tag k="name" v="Drågmyr" />
		<tag k="natural" v="wetland" />
		<tag k="ssr:stedsnr" v="818597" />
	</node>
	<node id="-231744" lat="60.2487027781" lon="9.9688944447">
		<tag k="name" v="Hallom" />
		<tag k="place" v="locality" />
		<tag k="ssr:stedsnr" v="818537" />
	</node>
	<node id="-229695" lat="60.2511000026" lon="10.3055722175">
		<tag k="name" v="Århanemyr" />
		<tag k="natural" v="wetland" />
		<tag k="ssr:stedsnr" v="87794" />
	</node>
	<node id="-231741" lat="60.5331666672" lon="9.88520277377">
		<tag k="name" v="Kyllemyr" />
		<tag k="natural" v="wetland" />
		<tag k="ssr:stedsnr" v="818295" />
	</node>
	<node id="-229692" lat="60.2376611107" lon="10.2382750034">
		<tag k="name" v="Setervadmyra" />
		<tag k="natural" v="wetland" />
		<tag k="ssr:stedsnr" v="87455" />
	</node>
	<node id="-231739" lat="60.1673972195" lon="9.94957499612">
		<tag k="name" v="Harakollmyr" />
		<tag k="natural" v="wetland" />
		<tag k="ssr:stedsnr" v="818385" />
	</node>
	<node id="-231738" lat="60.1677472211" lon="9.96353333427">
		<tag k="name" v="Flåmyrene" />
		<tag k="natural" v="wetland" />
		<tag k="ssr:stedsnr" v="818383" />
	</node>
	<node id="-229689" lat="60.2075805548" lon="10.1878055465">
		<tag k="name" v="Djupdalsmyra" />
		<tag k="natural" v="wetland" />
		<tag k="ssr:stedsnr" v="87432" />
	</node>
	<node id="-231736" lat="60.5506888909" lon="9.87658332712">
		<tag k="name" v="Slåttemyr" />
		<tag k="natural" v="wetland" />
		<tag k="ssr:stedsnr" v="818276" />
	</node>
	<node id="-231735" lat="60.1513749988" lon="10.0480916645">
		<tag k="name" v="Finnemyr" />
		<tag k="natural" v="wetland" />
		<tag k="ssr:stedsnr" v="818139" />
	</node>
	<node id="-231731" lat="60.4602333346" lon="9.96109444228">
		<tag k="name" v="Lauvskredmyra" />
		<tag k="natural" v="wetland" />
		<tag k="ssr:stedsnr" v="818173" />
	</node>
	<node id="-229682" lat="60.1657138913" lon="10.1422333398">
		<tag k="name" v="Stormyra" />
		<tag k="natural" v="wetland" />
		<tag k="ssr:stedsnr" v="87338" />
	</node>
	<node id="-227633" lat="60.3804277776" lon="9.9368861094">
		<tag k="historic" v="shieling" />
		<tag k="name" v="Ulevassvollen" />
		<tag k="place" v="locality" />
		<tag k="ssr:stedsnr" v="393102" />
	</node>
	<node id="-229680" lat="60.5620388868" lon="10.0162194356">
		<tag k="name" v="Hustømmermyra" />
		<tag k="natural" v="wetland" />
		<tag k="ssr:stedsnr" v="86572" />
	</node>
	<node id="-227631" lat="60.4796333375" lon="9.9890305591">
		<tag k="name" v="Brøttberga" />
		<tag k="place" v="locality" />
		<tag k="ssr:stedsnr" v="393209" />
	</node>
	<node id="-231133" lat="60.5674472204" lon="9.95471666951">
		<tag k="name" v="Torvmyra" />
		<tag k="natural" v="wetland" />
		<tag k="ssr:stedsnr" v="575649" />
	</node>
	<node id="-227628" lat="60.35699722" lon="9.92444999814">
		<tag k="name" v="Østbekkmyra" />
		<tag k="natural" v="wetland" />
		<tag k="ssr:stedsnr" v="393006" />
	</node>
	<node id="-229426" lat="60.1899944476" lon="10.2661583328">
		<tag k="name" v="Havreslettskogen" />
		<tag k="place" v="locality" />
		<tag k="ssr:stedsnr" v="25657" />
	</node>
	<node id="-227626" lat="60.3706888859" lon="10.0432916669">
		<tag k="name" v="Hestemyr" />
		<tag k="natural" v="wetland" />
		<tag k="ssr:stedsnr" v="392875" />
	</node>
	<node id="-227625" lat="60.3827527815" lon="10.0523083294">
		<tag k="name" v="Øvre Moen" />
		<tag k="place" v="locality" />
		<tag k="ssr:stedsnr" v="392872" />
	</node>
	<node id="-231712" lat="60.4442527796" lon="10.0224861182">
		<tag k="name" v="Svartskriua" />
		<tag k="natural" v="scree" />
		<tag k="place" v="locality" />
		<tag k="ssr:stedsnr" v="817327" />
	</node>
	<node id="-227607" lat="60.058913888" lon="10.4405361161">
		<tag k="name" v="Sersjantmyra" />
		<tag k="natural" v="wetland" />
		<tag k="ssr:stedsnr" v="390005" />
	</node>
	<node id="-227596" lat="60.5366749957" lon="10.0886083403">
		<tag k="name" v="Briskemyr" />
		<tag k="natural" v="wetland" />
		<tag k="ssr:stedsnr" v="389189" />
	</node>
	<node id="-227595" lat="60.0799472253" lon="10.4175611111">
		<tag k="name" v="Kulpmyr" />
		<tag k="natural" v="wetland" />
		<tag k="ssr:stedsnr" v="389011" />
	</node>
	<node id="-229761" lat="60.5032611135" lon="9.82303333586">
		<tag k="name" v="Satamyr" />
		<tag k="natural" v="wetland" />
		<tag k="ssr:stedsnr" v="90366" />
	</node>
	<node id="-231683" lat="60.1385749974" lon="10.419302775">
		<tag k="name" v="Høgåsmyra" />
		<tag k="natural" v="wetland" />
		<tag k="ssr:stedsnr" v="815288" />
	</node>
	<node id="-227586" lat="60.1249861146" lon="10.107283335">
		<tag k="alt_name" v="Hvitmyr" />
		<tag k="name" v="Kvitmyr" />
		<tag k="natural" v="wetland" />
		<tag k="ssr:stedsnr" v="369608" />
	</node>
	<node id="-231678" lat="60.5694611146" lon="10.0675750075">
		<tag k="name" v="Hviletjernsmyrene" />
		<tag k="natural" v="wetland" />
		<tag k="ssr:stedsnr" v="815178" />
	</node>
	<node id="-231677" lat="60.5695083364" lon="10.0218916685">
		<tag k="name" v="Purkemyr" />
		<tag k="natural" v="wetland" />
		<tag k="ssr:stedsnr" v="815177" />
	</node>
	<node id="-229759" lat="60.5480833338" lon="9.88375278528">
		<tag k="name" v="Hallebråtamyra" />
		<tag k="natural" v="wetland" />
		<tag k="ssr:stedsnr" v="90296" />
	</node>
	<node id="-231671" lat="60.5802194425" lon="10.013944446">
		<tag k="name" v="Stormyr" />
		<tag k="natural" v="wetland" />
		<tag k="ssr:stedsnr" v="814576" />
	</node>
	<node id="-231664" lat="60.4086027789" lon="10.1428666644">
		<tag k="name" v="Tyrihjellsmyr" />
		<tag k="natural" v="wetland" />
		<tag k="ssr:stedsnr" v="814477" />
	</node>
	<node id="-229606" lat="60.2477250024" lon="10.065158327">
		<tag k="alt_name" v="Brandmyr" />
		<tag k="name" v="Brannmyr" />
		<tag k="natural" v="wetland" />
		<tag k="ssr:stedsnr" v="65996" />
	</node>
	<node id="-229604" lat="60.2399416646" lon="10.0935333387">
		<tag k="name" v="Breskemyra" />
		<tag k="natural" v="wetland" />
		<tag k="ssr:stedsnr" v="65986" />
	</node>
	<node id="-227365" lat="60.3099833294" lon="9.91588610383">
		<tag k="name" v="Lybråten" />
		<tag k="place" v="locality" />
		<tag k="ssr:stedsnr" v="272918" />
	</node>
	<node id="-231640" lat="60.578466669" lon="10.0309138823">
		<tag k="name" v="Skardbråtåmyra" />
		<tag k="natural" v="wetland" />
		<tag k="ssr:stedsnr" v="796575" />
	</node>
	<node id="-227537" lat="60.4730972246" lon="10.096300008">
		<tag k="alt_name" v="Igulsmyra" />
		<tag k="name" v="Igulsmyr" />
		<tag k="natural" v="wetland" />
		<tag k="ssr:stedsnr" v="491572" />
	</node>
	<node id="-230774" lat="60.3484527819" lon="10.0571749916">
		<tag k="name" v="Styggedalsvollen" />
		<tag k="place" v="locality" />
		<tag k="ssr:stedsnr" v="392846" />
	</node>
	<node id="-229561" lat="60.1921027736" lon="9.85047500311">
		<tag k="name" v="Gampemyr" />
		<tag k="natural" v="wetland" />
		<tag k="ssr:stedsnr" v="30827" />
	</node>
	<node id="-229560" lat="60.2898277744" lon="9.82413610634">
		<tag k="name" v="Ingersetersnaret" />
		<tag k="place" v="locality" />
		<tag k="ssr:stedsnr" v="30554" />
	</node>
	<node id="-229559" lat="60.3195972241" lon="9.83518888028">
		<tag k="name" v="Øvre Vollmyr" />
		<tag k="natural" v="wetland" />
		<tag k="ssr:stedsnr" v="30521" />
	</node>
	<node id="-229558" lat="60.2765611144" lon="9.81467222616">
		<tag k="name" v="Bekkmyra" />
		<tag k="natural" v="wetland" />
		<tag k="ssr:stedsnr" v="30220" />
	</node>
	<node id="-227508" lat="60.1420722232" lon="10.4163722173">
		<tag k="name" v="Klotermyra" />
		<tag k="natural" v="wetland" />
		<tag k="ssr:stedsnr" v="491124" />
	</node>
	<node id="-229554" lat="60.3199222182" lon="9.93266944927">
		<tag k="name" v="Krakamyr" />
		<tag k="natural" v="wetland" />
		<tag k="ssr:stedsnr" v="29973" />
	</node>
	<node id="-229551" lat="60.6181388857" lon="9.94281944058">
		<tag k="name" v="Seterstømyra" />
		<tag k="natural" v="wetland" />
		<tag k="ssr:stedsnr" v="29937" />
	</node>
	<node id="-229545" lat="60.3343722221" lon="9.90746110418">
		<tag k="historic" v="shieling" />
		<tag k="name" v="Svarttjernvollen" />
		<tag k="place" v="locality" />
		<tag k="ssr:stedsnr" v="29900" />
	</node>
	<node id="-229541" lat="60.2896777812" lon="10.0872416626">
		<tag k="name" v="Holmemyr" />
		<tag k="natural" v="wetland" />
		<tag k="ssr:stedsnr" v="29864" />
	</node>
	<node id="-229403" lat="60.5615000015" lon="10.0708916753">
		<tag k="alt_name" v="Jølsokmyra" />
		<tag k="name" v="Jølsokmyr" />
		<tag k="natural" v="wetland" />
		<tag k="ssr:stedsnr" v="7503" />
	</node>
	<node id="-227485" lat="60.1854333361" lon="10.2635194484">
		<tag k="name" v="Hovsmarka" />
		<tag k="place" v="locality" />
		<tag k="ssr:stedsnr" v="490562" />
	</node>
	<node id="-229529" lat="60.6017861069" lon="9.98403611409">
		<tag k="name" v="Padderud" />
		<tag k="natural" v="wetland" />
		<tag k="ssr:stedsnr" v="29777" />
	</node>
	<node id="-231575" lat="60.109358337" lon="10.055955559">
		<tag k="name" v="Bleikmyr" />
		<tag k="natural" v="wetland" />
		<tag k="ssr:stedsnr" v="793708" />
	</node>
	<node id="-231571" lat="60.1611833324" lon="10.2010944517">
		<tag k="name" v="Sørumsmarka" />
		<tag k="place" v="locality" />
		<tag k="ssr:stedsnr" v="793677" />
	</node>
	<node id="-231461" lat="60.4018861095" lon="10.0437166613">
		<tag k="name" v="Høykastmyr" />
		<tag k="natural" v="wetland" />
		<tag k="ssr:stedsnr" v="756525" />
	</node>
	<node id="-229516" lat="60.2109888845" lon="9.88024444521">
		<tag k="name" v="Onsmyr" />
		<tag k="natural" v="wetland" />
		<tag k="ssr:stedsnr" v="30153" />
	</node>
	<node id="-229513" lat="60.4990055514" lon="9.82447222766">
		<tag k="name" v="Vidalen fellesbeite" />
		<tag k="place" v="locality" />
		<tag k="ssr:stedsnr" v="29401" />
	</node>
	<node id="-231560" lat="60.0786777755" lon="10.3573583312">
>>>>>>> e1d4bc35ff8a6074a6f2e91616a996b547c36f15
		<tag k="name" v="Søndre Muggerudmyra" />
		<tag k="natural" v="wetland" />
		<tag k="ssr:stedsnr" v="793246" />
	</node>
<<<<<<< HEAD
	<node lat="60.43349444235738" lon="10.003158332586555" id="-18886">
		<tag k="name" v="Hesjamyr" />
		<tag k="natural" v="wetland" />
		<tag k="ssr:stedsnr" v="795373" />
	</node>
	<node lat="60.578466669025836" lon="10.030913882293657" id="-18920">
		<tag k="name" v="Skardbråtåmyra" />
		<tag k="natural" v="wetland" />
		<tag k="ssr:stedsnr" v="796575" />
	</node>
	<node lat="60.569508336419624" lon="10.021891668518384" id="-18929">
		<tag k="name" v="Purkemyr" />
		<tag k="natural" v="wetland" />
		<tag k="ssr:stedsnr" v="815177" />
	</node>
	<node lat="60.56946111462806" lon="10.067575007547642" id="-18930">
		<tag k="name" v="Hviletjernsmyrene" />
		<tag k="natural" v="wetland" />
		<tag k="ssr:stedsnr" v="815178" />
	</node>
	<node lat="60.18101666589361" lon="10.228333325148416" id="-18931">
		<tag k="name" v="Snippen" />
		<tag k="place" v="locality" />
		<tag k="ssr:stedsnr" v="813163" />
	</node>
	<node lat="60.40860277889091" lon="10.142866664390946" id="-18937">
		<tag k="name" v="Tyrihjellsmyr" />
		<tag k="natural" v="wetland" />
		<tag k="ssr:stedsnr" v="814477" />
	</node>
	<node lat="60.580219442530364" lon="10.013944446008482" id="-18944">
		<tag k="name" v="Stormyr" />
		<tag k="natural" v="wetland" />
		<tag k="ssr:stedsnr" v="814576" />
	</node>
	<node lat="60.171558336623725" lon="10.405133334931604" id="-18957">
		<tag k="name" v="Bunningsmyra" />
		<tag k="natural" v="wetland" />
		<tag k="ssr:stedsnr" v="815259" />
	</node>
	<node lat="60.44425277958443" lon="10.022486118240856" id="-18976">
		<tag k="name" v="Svartskriua" />
		<tag k="natural" v="scree" />
		<tag k="place" v="locality" />
		<tag k="ssr:stedsnr" v="817327" />
	</node>
	<node lat="60.40063333727667" lon="10.022080547736476" id="-18977">
		<tag k="name" v="Moltemyr" />
		<tag k="natural" v="wetland" />
		<tag k="ssr:stedsnr" v="817511" />
	</node>
	<node lat="60.55068889087833" lon="9.87658332711926" id="-18979">
		<tag k="name" v="Slåttemyr" />
		<tag k="natural" v="wetland" />
		<tag k="ssr:stedsnr" v="818276" />
	</node>
	<node lat="60.53316666723458" lon="9.88520277377426" id="-18980">
		<tag k="name" v="Kyllemyr" />
		<tag k="natural" v="wetland" />
		<tag k="ssr:stedsnr" v="818295" />
	</node>
	<node lat="60.16774722114087" lon="9.963533334272814" id="-18981">
		<tag k="name" v="Flåmyrene" />
		<tag k="natural" v="wetland" />
		<tag k="ssr:stedsnr" v="818383" />
	</node>
	<node lat="60.16739721947728" lon="9.9495749961203" id="-18982">
		<tag k="name" v="Harakollmyr" />
		<tag k="natural" v="wetland" />
		<tag k="ssr:stedsnr" v="818385" />
	</node>
	<node lat="60.440624996647834" lon="9.997750004411033" id="-19000">
		<tag k="name" v="Stormyr" />
		<tag k="natural" v="wetland" />
		<tag k="ssr:stedsnr" v="818080" />
	</node>
	<node lat="60.15137499881849" lon="10.048091664465899" id="-19006">
		<tag k="name" v="Finnemyr" />
		<tag k="natural" v="wetland" />
		<tag k="ssr:stedsnr" v="818139" />
	</node>
	<node lat="60.37243888703114" lon="9.921005556710256" id="-19010">
		<tag k="name" v="Øvre Halendingsmyr" />
		<tag k="natural" v="wetland" />
		<tag k="ssr:stedsnr" v="818057" />
	</node>
	<node lat="60.2959138925163" lon="9.796647223125213" id="-19023">
		<tag k="name" v="Drågmyr" />
		<tag k="natural" v="wetland" />
		<tag k="ssr:stedsnr" v="818597" />
	</node>
	<node lat="60.28735277521211" lon="9.816136113663335" id="-19024">
		<tag k="name" v="Stormyr" />
		<tag k="natural" v="wetland" />
		<tag k="ssr:stedsnr" v="818601" />
	</node>
	<node lat="60.24870277810555" lon="9.968894444696629" id="-19028">
		<tag k="name" v="Hallom" />
		<tag k="place" v="locality" />
		<tag k="ssr:stedsnr" v="818537" />
	</node>
	<node lat="60.531066670861556" lon="9.935836110770351" id="-19037">
		<tag k="name" v="Gladhaugmyra" />
		<tag k="natural" v="wetland" />
		<tag k="ssr:stedsnr" v="818715" />
	</node>
	<node lat="60.18000833495559" lon="10.054186109775323" id="-19091">
		<tag k="name" v="Tolvputtmyra" />
		<tag k="natural" v="wetland" />
		<tag k="ssr:stedsnr" v="854574" />
	</node>
	<node lat="60.11655000349419" lon="10.23701667080162" id="-19092">
		<tag k="name" v="Lamyra" />
		<tag k="natural" v="wetland" />
		<tag k="ssr:stedsnr" v="854683" />
	</node>
	<node lat="60.30226944493308" lon="10.183022228314853" id="-19125">
		<tag k="name" v="Tørrhardsmyra" />
		<tag k="natural" v="wetland" />
		<tag k="ssr:stedsnr" v="856418" />
	</node>
	<node lat="60.538552777848295" lon="10.094155559004589" id="-19151">
		<tag k="name" v="Steinkleivmyr" />
		<tag k="natural" v="wetland" />
		<tag k="ssr:stedsnr" v="874202" />
	</node>
	<node lat="60.19619166942143" lon="10.2834527822266" id="-19155">
		<tag k="landuse" v="meadow" />
		<tag k="name" v="Rustilrud" />
		<tag k="ssr:stedsnr" v="874659" />
	</node>
	<node lat="60.1970888867292" lon="10.272855553130228" id="-19156">
		<tag k="landuse" v="meadow" />
		<tag k="name" v="Fjøsåkeren" />
		<tag k="ssr:stedsnr" v="874665" />
	</node>
	<node lat="60.57905555480966" lon="9.999341671863016" id="-19176">
		<tag k="name" v="Nedre Enga" />
		<tag k="place" v="locality" />
		<tag k="ssr:stedsnr" v="875525" />
	</node>
	<node lat="60.51750833390504" lon="10.022133337139035" id="-19180">
		<tag k="name" v="Hjertemyr" />
		<tag k="natural" v="wetland" />
		<tag k="ssr:stedsnr" v="876212" />
	</node>
	<node lat="60.44273611565772" lon="10.176336104399896" id="-19181">
		<tag k="name" v="Storlunnemyra" />
		<tag k="natural" v="wetland" />
		<tag k="ssr:stedsnr" v="875753" />
	</node>
	<node lat="60.25138055719588" lon="10.235027778096766" id="-19186">
		<tag k="name" v="Mastedalsmyrene" />
		<tag k="natural" v="wetland" />
		<tag k="ssr:stedsnr" v="876281" />
	</node>
	<node lat="60.1211999988342" lon="10.44817778439022" id="-19193">
		<tag k="name" v="Stormyra" />
		<tag k="natural" v="wetland" />
		<tag k="ssr:stedsnr" v="876498" />
	</node>
	<node lat="60.13969722584428" lon="10.261547219340025" id="-19197">
		<tag k="name" v="Fjøsåkeren" />
		<tag k="place" v="locality" />
		<tag k="ssr:stedsnr" v="876877" />
	</node>
	<node lat="60.438700003359344" lon="9.913086108782723" id="-19207">
		<tag k="name" v="Gurimyrene" />
		<tag k="natural" v="wetland" />
		<tag k="ssr:stedsnr" v="879121" />
	</node>
	<node lat="60.38945833098566" lon="10.106575007388805" id="-19218">
		<tag k="name" v="Brennåsmyra" />
		<tag k="natural" v="wetland" />
		<tag k="ssr:stedsnr" v="878640" />
	</node>
	<node lat="60.31090833111721" lon="9.85875000329664" id="-19220">
		<tag k="name" v="Engermyrene" />
		<tag k="natural" v="wetland" />
		<tag k="ssr:stedsnr" v="879523" />
	</node>
	<node lat="60.38126944024224" lon="10.05048888390276" id="-19236">
		<tag k="name" v="Haugen" />
		<tag k="place" v="locality" />
		<tag k="ssr:stedsnr" v="878870" />
	</node>
	<node lat="60.39503055973462" lon="9.85811389221461" id="-19251">
		<tag k="name" v="Puttemyr" />
		<tag k="natural" v="wetland" />
		<tag k="ssr:stedsnr" v="879071" />
	</node>
	<node lat="60.421266663547854" lon="10.016444443973569" id="-19257">
		<tag k="name" v="Tronhusbergene" />
		<tag k="place" v="locality" />
		<tag k="ssr:stedsnr" v="879180" />
	</node>
	<node lat="60.51304166951854" lon="9.879063890078235" id="-19259">
		<tag k="name" v="Skyttermyra" />
		<tag k="natural" v="wetland" />
		<tag k="ssr:stedsnr" v="879329" />
	</node>
	<node lat="60.52862500440364" lon="9.879558326683407" id="-19260">
		<tag k="name" v="Dammyra" />
		<tag k="natural" v="wetland" />
		<tag k="ssr:stedsnr" v="879279" />
	</node>
	<node lat="60.54347499715617" lon="9.896202785963323" id="-19262">
		<tag k="name" v="Fekjærbråtan" />
		<tag k="place" v="locality" />
		<tag k="ssr:stedsnr" v="879294" />
	</node>
	<node lat="60.62859722234958" lon="10.013199995469641" id="-19270">
		<tag k="name" v="Låvegolvsmyra" />
		<tag k="natural" v="wetland" />
		<tag k="ssr:stedsnr" v="879879" />
	</node>
	<node lat="60.318130554629896" lon="9.921222230285073" id="-19281">
		<tag k="name" v="Rognlibråten" />
		<tag k="place" v="locality" />
		<tag k="ssr:stedsnr" v="879920" />
	</node>
	<node lat="60.25033611138839" lon="9.855591665390506" id="-19284">
		<tag k="name" v="Mosemyr" />
		<tag k="natural" v="wetland" />
		<tag k="ssr:stedsnr" v="880170" />
	</node>
	<node lat="60.220911108427636" lon="9.869177772272549" id="-19287">
		<tag k="name" v="Langemyr" />
		<tag k="natural" v="wetland" />
		<tag k="ssr:stedsnr" v="880745" />
	</node>
	<node lat="60.5721416684859" lon="10.085466665712318" id="-19301">
		<tag k="name" v="Stormyr" />
		<tag k="natural" v="wetland" />
		<tag k="ssr:stedsnr" v="936326" />
	</node>
	<node lat="60.40268888541013" lon="10.167774999440441" id="-19314">
		<tag k="name" v="Finnebrennmyr" />
		<tag k="natural" v="wetland" />
		<tag k="ssr:stedsnr" v="937316" />
	</node>
	<node lat="60.25397499970818" lon="10.231202781212678" id="-19316">
		<tag k="name" v="Kudalsmyrene" />
		<tag k="natural" v="wetland" />
		<tag k="ssr:stedsnr" v="937326" />
	</node>
	<node lat="60.55734999856822" lon="10.077663895494767" id="-19326">
		<tag k="name" v="Sandbekkmyr" />
		<tag k="natural" v="wetland" />
		<tag k="ssr:stedsnr" v="938481" />
	</node>
	<node lat="60.55042221945648" lon="10.047291675622434" id="-19327">
		<tag k="name" v="Delebråten" />
		<tag k="place" v="locality" />
		<tag k="ssr:stedsnr" v="938371" />
	</node>
	<node lat="60.54630833363097" lon="10.062594447727907" id="-19328">
		<tag k="alt_name" v="Håvervikvollen" />
		<tag k="name" v="Håvårvikvollen" />
		<tag k="place" v="locality" />
		<tag k="ssr:stedsnr" v="938490" />
	</node>
	<node lat="60.36966110746208" lon="9.949777775370816" id="-19335">
		<tag k="historic" v="shieling" />
		<tag k="name" v="Leintjernsetra" />
		<tag k="place" v="locality" />
		<tag k="ssr:stedsnr" v="939095" />
	</node>
	<node lat="60.439011111277495" lon="10.013836104480555" id="-19336">
		<tag k="name" v="Storlunnmyra" />
		<tag k="natural" v="wetland" />
		<tag k="ssr:stedsnr" v="939098" />
	</node>
	<node lat="60.40611944235431" lon="10.021016666445735" id="-19338">
		<tag k="name" v="Stormyr" />
		<tag k="natural" v="wetland" />
		<tag k="ssr:stedsnr" v="939118" />
	</node>
	<node lat="60.41330833432665" lon="10.014597219668511" id="-19340">
		<tag k="name" v="Øvre Småtjernmyr" />
		<tag k="natural" v="wetland" />
		<tag k="old_name" v="Småtjernmyr" />
		<tag k="ssr:stedsnr" v="939197" />
	</node>
	<node lat="60.10078611419342" lon="10.018672216055299" id="-19343">
		<tag k="name" v="Vælerstykket" />
		<tag k="place" v="locality" />
		<tag k="ssr:stedsnr" v="939368" />
	</node>
	<node lat="60.389663886369775" lon="9.945169440565596" id="-19344">
		<tag k="name" v="Reinsberg" />
		<tag k="place" v="locality" />
		<tag k="ssr:stedsnr" v="939067" />
	</node>
	<node lat="60.515224998591" lon="9.914591675231625" id="-19358">
		<tag k="name" v="Fugleleikmyr" />
		<tag k="natural" v="wetland" />
		<tag k="ssr:stedsnr" v="939724" />
	</node>
	<node lat="60.54551110841699" lon="9.902897227507772" id="-19359">
		<tag k="name" v="Gaupemyr" />
		<tag k="natural" v="wetland" />
		<tag k="ssr:stedsnr" v="939790" />
	</node>
	<node lat="60.40683888746437" lon="9.990102785685776" id="-19375">
		<tag k="name" v="Gamlemannsmyra" />
		<tag k="natural" v="wetland" />
		<tag k="ssr:stedsnr" v="940079" />
	</node>
	<node lat="60.19309722187663" lon="9.890738890292981" id="-19387">
		<tag k="name" v="Geiteryggmyr" />
		<tag k="natural" v="wetland" />
		<tag k="ssr:stedsnr" v="940709" />
=======
	<node id="-229510" lat="60.4989305554" lon="9.88922221675">
		<tag k="name" v="Storstein" />
		<tag k="natural" v="stone" />
		<tag k="ssr:stedsnr" v="29396" />
	</node>
	<node id="-227457" lat="60.236511113" lon="9.99817500364">
		<tag k="alt_name" v="Monsemyr" />
		<tag k="name" v="Monsemyra" />
		<tag k="natural" v="wetland" />
		<tag k="ssr:stedsnr" v="489990" />
	</node>
	<node id="-231547" lat="60.4427361157" lon="10.1763361044">
		<tag k="name" v="Storlunnemyra" />
		<tag k="natural" v="wetland" />
		<tag k="ssr:stedsnr" v="875753" />
	</node>
	<node id="-227450" lat="60.2276388919" lon="10.124411117">
		<tag k="name" v="Flåmyr" />
		<tag k="natural" v="wetland" />
		<tag k="ssr:stedsnr" v="489556" />
	</node>
	<node id="-229497" lat="60.3796166671" lon="9.93744166552">
		<tag k="name" v="Ulevassvollmyra" />
		<tag k="natural" v="wetland" />
		<tag k="ssr:stedsnr" v="29089" />
	</node>
	<node id="-231540" lat="60.3700777792" lon="9.77767778109">
		<tag k="name" v="Søya" />
		<tag k="natural" v="stone" />
		<tag k="ssr:stedsnr" v="768396" />
	</node>
	<node id="-231536" lat="60.3022805594" lon="9.82419722907">
		<tag k="name" v="Martemyr" />
		<tag k="natural" v="wetland" />
		<tag k="ssr:stedsnr" v="758602" />
	</node>
	<node id="-229486" lat="60.4231361118" lon="9.9928861161">
		<tag k="name" v="Fiskejofurumyra" />
		<tag k="natural" v="wetland" />
		<tag k="ssr:stedsnr" v="29188" />
	</node>
	<node id="-231532" lat="60.2086027762" lon="9.89181666249">
		<tag k="name" v="Digremyr" />
		<tag k="natural" v="wetland" />
		<tag k="ssr:stedsnr" v="758173" />
	</node>
	<node id="-227432" lat="60.5906055522" lon="9.94833334215">
		<tag k="name" v="Bjørnelimyr" />
		<tag k="natural" v="wetland" />
		<tag k="ssr:stedsnr" v="333818" />
	</node>
	<node id="-231526" lat="60.6205694403" lon="9.98060556396">
		<tag k="name" v="Hyttemyr" />
		<tag k="natural" v="wetland" />
		<tag k="ssr:stedsnr" v="757823" />
	</node>
	<node id="-227428" lat="60.3458388884" lon="10.0565222221">
		<tag k="name" v="Simenmarimyra" />
		<tag k="natural" v="wetland" />
		<tag k="ssr:stedsnr" v="332920" />
	</node>
	<node id="-227425" lat="60.3202583337" lon="10.0675749949">
		<tag k="name" v="Limyra" />
		<tag k="natural" v="wetland" />
		<tag k="ssr:stedsnr" v="332905" />
	</node>
	<node id="-229472" lat="60.4348583309" lon="10.1198305543">
		<tag k="name" v="Kastmyra" />
		<tag k="natural" v="wetland" />
		<tag k="ssr:stedsnr" v="28640" />
	</node>
	<node id="-229468" lat="60.1319722243" lon="10.1798944453">
		<tag k="landuse" v="meadow" />
		<tag k="name" v="Starrenga" />
		<tag k="ssr:stedsnr" v="27996" />
	</node>
	<node id="-227419" lat="60.4975138906" lon="10.1264333261">
		<tag k="name" v="Persbråtamyra" />
		<tag k="natural" v="wetland" />
		<tag k="ssr:stedsnr" v="332826" />
	</node>
	<node id="-227418" lat="60.6184166678" lon="9.98256945126">
		<tag k="name" v="Veslemyr" />
		<tag k="natural" v="wetland" />
		<tag k="ssr:stedsnr" v="332824" />
	</node>
	<node id="-231097" lat="60.4775000044" lon="10.1048694367">
		<tag k="name" v="Briskemyr" />
		<tag k="natural" v="wetland" />
		<tag k="ssr:stedsnr" v="574888" />
	</node>
	<node id="-231507" lat="60.5084250023" lon="9.99331388579">
		<tag k="name" v="Tyrilamyr" />
		<tag k="natural" v="wetland" />
		<tag k="ssr:stedsnr" v="757616" />
	</node>
	<node id="-229413" lat="60.1867472202" lon="10.2247694508">
		<tag k="name" v="Alléjordet" />
		<tag k="place" v="locality" />
		<tag k="ssr:stedsnr" v="24178" />
	</node>
	<node id="-231504" lat="60.2949083349" lon="9.98000000547">
		<tag k="name" v="Kvitmosemyr" />
		<tag k="natural" v="wetland" />
		<tag k="ssr:stedsnr" v="757589" />
	</node>
	<node id="-231503" lat="60.3868472248" lon="10.1166888836">
		<tag k="name" v="Gullerudsetermyr" />
		<tag k="natural" v="wetland" />
		<tag k="ssr:stedsnr" v="757559" />
	</node>
	<node id="-227406" lat="60.4792249998" lon="10.0086499926">
		<tag k="name" v="Kleivmyr" />
		<tag k="natural" v="wetland" />
		<tag k="ssr:stedsnr" v="332210" />
	</node>
	<node id="-227405" lat="60.4873416657" lon="10.0037888945">
		<tag k="name" v="Kolsrud" />
		<tag k="place" v="locality" />
		<tag k="ssr:stedsnr" v="332205" />
	</node>
	<node id="-231500" lat="60.4275888876" lon="9.83278056443">
		<tag k="name" v="Trøstheimmyr" />
		<tag k="natural" v="wetland" />
		<tag k="ssr:stedsnr" v="757470" />
	</node>
	<node id="-227402" lat="60.136777774" lon="10.1826583317">
		<tag k="alt_name" v="Bjørkengen;Franserudenga" />
		<tag k="name" v="Bjørkenga" />
		<tag k="place" v="locality" />
		<tag k="ssr:stedsnr" v="331911" />
	</node>
	<node id="-229448" lat="60.1382944464" lon="10.2607555574">
		<tag k="name" v="Storjordet" />
		<tag k="place" v="locality" />
		<tag k="ssr:stedsnr" v="26833" />
	</node>
	<node id="-229445" lat="60.4865333373" lon="10.1569222176">
		<tag k="name" v="Seksputtmyrene" />
		<tag k="natural" v="wetland" />
		<tag k="ssr:stedsnr" v="26752" />
	</node>
	<node id="-229442" lat="60.2120222235" lon="10.2492472257">
		<tag k="landuse" v="quarry" />
		<tag k="name" v="Heen Sandtak" />
		<tag k="ssr:stedsnr" v="26441" />
	</node>
	<node id="-229439" lat="60.3877611119" lon="10.1549333388">
		<tag k="name" v="Tollemyr" />
		<tag k="natural" v="wetland" />
		<tag k="ssr:stedsnr" v="26271" />
	</node>
	<node id="-231093" lat="60.4068055515" lon="10.0369416622">
		<tag k="name" v="Hestemyr" />
		<tag k="natural" v="wetland" />
		<tag k="ssr:stedsnr" v="574560" />
	</node>
	<node id="-229436" lat="60.3617666632" lon="10.1483749944">
		<tag k="name" v="Øvre Ringsetermyra" />
		<tag k="natural" v="wetland" />
		<tag k="ssr:stedsnr" v="26238" />
	</node>
	<node id="-229432" lat="60.5702166681" lon="10.0183027705">
		<tag k="name" v="Helgebråtamyra" />
		<tag k="natural" v="wetland" />
		<tag k="ssr:stedsnr" v="26199" />
	</node>
	<node id="-231474" lat="60.4924166688" lon="10.101294436">
		<tag k="name" v="Askedalsmyra" />
		<tag k="natural" v="wetland" />
		<tag k="ssr:stedsnr" v="756873" />
	</node>
	<node id="-231467" lat="60.4616583377" lon="10.0900055578">
		<tag k="name" v="Svatormyra" />
		<tag k="natural" v="wetland" />
		<tag k="ssr:stedsnr" v="756784" />
	</node>
	<node id="-231089" lat="60.4350138928" lon="10.0421277854">
		<tag k="name" v="Midtkollmyra" />
		<tag k="natural" v="wetland" />
		<tag k="ssr:stedsnr" v="574688" />
	</node>
	<node id="-227360" lat="60.2951722191" lon="9.8368805585">
		<tag k="name" v="Eivindbråtamyra" />
		<tag k="natural" v="wetland" />
		<tag k="ssr:stedsnr" v="272520" />
	</node>
	<node id="-227674" lat="60.1044916673" lon="10.5172527838">
		<tag k="name" v="Rumpemyrene" />
		<tag k="natural" v="wetland" />
		<tag k="ssr:stedsnr" v="511399" />
	</node>
	<node id="-229394" lat="60.3680388921" lon="9.89547499949">
		<tag k="name" v="Venekollmyra" />
		<tag k="natural" v="wetland" />
		<tag k="ssr:stedsnr" v="6753" />
	</node>
	<node id="-229379" lat="60.3798055535" lon="10.1156055596">
		<tag k="name" v="Mottakmyr" />
		<tag k="natural" v="wetland" />
		<tag k="ssr:stedsnr" v="6553" />
	</node>
	<node id="-231438" lat="60.4900638851" lon="10.148727781">
		<tag k="name" v="Huskemyr" />
		<tag k="natural" v="wetland" />
		<tag k="ssr:stedsnr" v="754791" />
	</node>
	<node id="-231436" lat="60.4457583313" lon="10.1566111165">
		<tag k="name" v="Kastmyra" />
		<tag k="natural" v="wetland" />
		<tag k="ssr:stedsnr" v="754776" />
	</node>
	<node id="-227339" lat="60.3868166645" lon="10.1356750015">
		<tag k="name" v="Tjuvhansura" />
		<tag k="natural" v="scree" />
		<tag k="ssr:stedsnr" v="271652" />
	</node>
	<node id="-227336" lat="60.0956777738" lon="10.0494111144">
		<tag k="name" v="Pjåka skog" />
		<tag k="place" v="locality" />
		<tag k="ssr:stedsnr" v="271061" />
	</node>
	<node id="-227332" lat="60.2559111152" lon="10.3058527813">
		<tag k="name" v="Delemyr" />
		<tag k="natural" v="wetland" />
		<tag k="ssr:stedsnr" v="269808" />
	</node>
	<node id="-227331" lat="60.2495500002" lon="10.3024027703">
		<tag k="name" v="Prestrudmyr" />
		<tag k="natural" v="wetland" />
		<tag k="ssr:stedsnr" v="269806" />
	</node>
	<node id="-231426" lat="60.5673583353" lon="10.0778666641">
		<tag k="name" v="Gravmyr" />
		<tag k="natural" v="wetland" />
		<tag k="ssr:stedsnr" v="754394" />
>>>>>>> e1d4bc35ff8a6074a6f2e91616a996b547c36f15
	</node>
</osm>
