<?xml version="1.0" encoding="UTF-8"?>
<osm version="0.6" generator="osmapis">
	<node lat="60.203155557746626" lon="10.126844441608043" id="-24461">
		<tag k="bridge" v="yes" />
		<tag k="layer" v="1" />
		<tag k="name" v="Heggen" />
		<tag k="ssr:stedsnr" v="46869" />
	</node>
	<node lat="60.21171388499999" lon="10.25687778118169" id="-24462">
		<tag k="bridge" v="yes" />
		<tag k="layer" v="1" />
		<tag k="name" v="Nymoen" />
		<tag k="ssr:stedsnr" v="46871" />
	</node>
	<node lat="60.2025864873554" lon="10.094270912397974" id="-24463">
		<tag k="bridge" v="yes" />
		<tag k="layer" v="1" />
		<tag k="name" v="Nye Kvernvollen bru" />
		<tag k="ssr:stedsnr" v="46879" />
	</node>
	<node lat="60.23506111161732" lon="10.21160277164747" id="-24464">
		<tag k="bridge" v="yes" />
		<tag k="layer" v="1" />
		<tag k="name" v="Kudalen" />
		<tag k="ssr:stedsnr" v="46883" />
	</node>
	<node lat="60.322733330669124" lon="10.110955552248344" id="-24465">
		<tag k="bridge" v="yes" />
		<tag k="layer" v="1" />
		<tag k="name" v="Berg" />
		<tag k="ssr:stedsnr" v="46889" />
	</node>
	<node lat="60.52346666625858" lon="10.113725003090176" id="-24534">
		<tag k="name" v="Løkvelta" />
		<tag k="place" v="locality" />
		<tag k="ssr:stedsnr" v="86191" />
	</node>
	<node lat="60.39430833053549" lon="9.866788882190606" id="-24568">
		<tag k="ford" v="yes" />
		<tag k="name" v="Vadstein" />
		<tag k="place" v="locality" />
		<tag k="ssr:stedsnr" v="90002" />
	</node>
	<node lat="60.294755551820614" lon="9.746655558974002" id="-24593">
		<tag k="highway" v="path" />
		<tag k="name" v="Plassereset" />
		<tag k="ssr:stedsnr" v="91881" />
	</node>
	<node lat="60.16382777458497" lon="10.246144450487687" id="-24652">
		<tag k="bridge" v="yes" />
		<tag k="layer" v="1" />
		<tag k="name" v="Ring" />
		<tag k="ssr:stedsnr" v="107871" />
	</node>
	<node lat="60.35381111337166" lon="10.086574999816346" id="-24844">
		<tag k="bridge" v="yes" />
		<tag k="layer" v="1" />
		<tag k="name" v="Killingstrømmen" />
		<tag k="ssr:stedsnr" v="167860" />
	</node>
	<node lat="60.226266669892894" lon="9.83318333838708" id="-24845">
		<tag k="bridge" v="yes" />
		<tag k="layer" v="1" />
		<tag k="name" v="Langvassbråten" />
		<tag k="ssr:stedsnr" v="167873" />
	</node>
	<node lat="60.12324444794051" lon="10.241663880080075" id="-24846">
		<tag k="bridge" v="yes" />
		<tag k="layer" v="1" />
		<tag k="name" v="Lahaug nord" />
		<tag k="ssr:stedsnr" v="167874" />
	</node>
	<node lat="60.09336092335886" lon="10.124558228844743" id="-24854">
		<tag k="name" v="Tangen holdeplass" />
		<tag k="railway" v="halt" />
		<tag k="ssr:stedsnr" v="186283" />
		<tag k="train" v="yes" />
	</node>
	<node lat="60.07631801830825" lon="10.100736242971463" id="-24947">
		<tag k="bridge" v="yes" />
		<tag k="layer" v="1" />
		<tag k="name" v="Haga bru" />
		<tag k="ssr:stedsnr" v="207936" />
	</node>
	<node lat="60.16939167073403" lon="10.242774995405908" id="-24950">
		<tag k="name" v="Hønefoss stasjon" />
		<tag k="railway" v="station" />
		<tag k="ssr:stedsnr" v="208006" />
		<tag k="train" v="yes" />
	</node>
	<node lat="60.39731111059537" lon="9.87047777906417" id="-25016">
		<tag k="junction" v="yes" />
		<tag k="name" v="Olsern" />
		<tag k="place" v="locality" />
		<tag k="ssr:stedsnr" v="212010" />
	</node>
	<node lat="60.193866664664256" lon="10.23633610664411" id="-25069">
		<tag k="bridge" v="yes" />
		<tag k="layer" v="1" />
		<tag k="name" v="Begnamoen" />
		<tag k="ssr:stedsnr" v="228891" />
	</node>
	<node lat="60.17126707922848" lon="10.26317637736211" id="-25104">
		<tag k="bridge" v="yes" />
		<tag k="layer" v="1" />
		<tag k="loc_name" v="Hvitebrua" />
		<tag k="name" v="Overmannsund" />
		<tag k="ssr:stedsnr" v="450651" />
	</node>
	<node lat="60.13075793019463" lon="10.253580974618028" id="-25307">
		<tag k="alt_name" v="Busund" />
		<tag k="bridge" v="yes" />
		<tag k="layer" v="1" />
		<tag k="name" v="Busund bru" />
		<tag k="ssr:stedsnr" v="270290" />
	</node>
	<node lat="60.57330278130526" lon="9.93147778207788" id="-25338">
		<tag k="ford" v="yes" />
		<tag k="name" v="Veslesetervad" />
		<tag k="place" v="locality" />
		<tag k="ssr:stedsnr" v="272625" />
	</node>
	<node lat="60.55698889117532" lon="9.866738888303999" id="-25354">
		<tag k="bridge" v="yes" />
		<tag k="layer" v="1" />
		<tag k="name" v="Gildre" />
		<tag k="ssr:stedsnr" v="288878" />
	</node>
	<node lat="60.15638939459747" lon="10.37275681465782" id="-25391">
		<tag k="amenity" v="parking" />
		<tag k="name" v="Jaklefoss" />
		<tag k="ssr:stedsnr" v="309011" />
	</node>
	<node lat="60.36912722210894" lon="9.833448604791467" id="-25404">
		<tag k="alt_name" v="Huske bru" />
		<tag k="bridge" v="yes" />
		<tag k="layer" v="1" />
		<tag k="name" v="Huskebrua" />
		<tag k="ssr:stedsnr" v="309808" />
	</node>
	<node lat="60.19566666349736" lon="10.243319435387688" id="-25463">
		<tag k="bridge" v="yes" />
		<tag k="layer" v="1" />
		<tag k="name" v="Børdalsmoen" />
		<tag k="ssr:stedsnr" v="470881" />
	</node>
	<node lat="60.38235555326997" lon="9.843416666909421" id="-25492">
		<tag k="junction" v="yes" />
		<tag k="name" v="Hestefallet" />
		<tag k="place" v="locality" />
		<tag k="ssr:stedsnr" v="333017" />
	</node>
	<node lat="60.22800555916824" lon="9.967844439791943" id="-25506">
		<tag k="name" v="Skraperud" />
		<tag k="railway" v="halt" />
		<tag k="ssr:stedsnr" v="345560" />
		<tag k="train" v="yes" />
	</node>
	<node lat="60.17422222195893" lon="10.219619441184772" id="-25508">
		<tag k="bridge" v="yes" />
		<tag k="layer" v="1" />
		<tag k="name" v="Toppen" />
		<tag k="ssr:stedsnr" v="349802" />
	</node>
	<node lat="60.54655833277094" lon="10.053141670308431" id="-25509">
		<tag k="bridge" v="yes" />
		<tag k="layer" v="1" />
		<tag k="name" v="Gråbeinbekk" />
		<tag k="ssr:stedsnr" v="349914" />
	</node>
	<node lat="60.17413332986077" lon="10.342919451793191" id="-25510">
		<tag k="bridge" v="yes" />
		<tag k="layer" v="1" />
		<tag k="name" v="Furuset" />
		<tag k="ssr:stedsnr" v="349916" />
	</node>
	<node lat="60.288199462423904" lon="9.698970284662607" id="-25569">
		<tag k="layer" v="-1" />
		<tag k="name" v="Haverstingtunnelen" />
		<tag k="ssr:stedsnr" v="370668" />
		<tag k="tunnel" v="yes" />
	</node>
	<node lat="60.331669440060615" lon="10.118633340948051" id="-25656">
		<tag k="bridge" v="yes" />
		<tag k="layer" v="1" />
		<tag k="name" v="Kirstistu" />
		<tag k="ssr:stedsnr" v="410849" />
	</node>
	<node lat="60.34126676137523" lon="9.847095795058843" id="-25772">
		<tag k="bridge" v="yes" />
		<tag k="layer" v="1" />
		<tag k="name" v="Aure bru" />
		<tag k="ssr:stedsnr" v="491859" />
	</node>
	<node lat="60.318558329390925" lon="10.204594436662775" id="-25802">
		<tag k="bridge" v="yes" />
		<tag k="layer" v="1" />
		<tag k="name" v="Granbrua" />
		<tag k="ssr:stedsnr" v="451576" />
	</node>
	<node lat="60.38033889175135" lon="9.83423888644667" id="-25829">
		<tag k="name" v="Brattvelta" />
		<tag k="place" v="locality" />
		<tag k="ssr:stedsnr" v="454019" />
	</node>
	<node lat="60.12426388928831" lon="10.152533342098785" id="-25887">
		<tag k="name" v="Egge" />
		<tag k="railway" v="halt" />
		<tag k="ssr:stedsnr" v="672631" />
		<tag k="train" v="yes" />
	</node>
	<node lat="60.079324999988096" lon="10.093625008881993" id="-25940">
		<tag k="bridge" v="yes" />
		<tag k="layer" v="1" />
		<tag k="name" v="Trollborgen" />
		<tag k="ssr:stedsnr" v="470786" />
	</node>
	<node lat="60.12231667032724" lon="10.239688887134294" id="-25941">
		<tag k="bridge" v="yes" />
		<tag k="layer" v="1" />
		<tag k="name" v="Lahaug sør" />
		<tag k="ssr:stedsnr" v="470862" />
	</node>
	<node lat="60.62230277806202" lon="9.970572222303877" id="-26086">
		<tag k="name" v="Storvelta" />
		<tag k="place" v="locality" />
		<tag k="ssr:stedsnr" v="514909" />
	</node>
	<node lat="60.616269442396735" lon="9.941724994466819" id="-26088">
		<tag k="fixme" v="verify maritime location" />
		<tag k="mooring" v="yes" />
		<tag k="name" v="Seterstøa" />
		<tag k="place" v="locality" />
		<tag k="ssr:stedsnr" v="514924" />
	</node>
	<node lat="60.37862222187934" lon="9.832944452880472" id="-26090">
		<tag k="ford" v="yes" />
		<tag k="name" v="Tungevad" />
		<tag k="place" v="locality" />
		<tag k="ssr:stedsnr" v="515017" />
	</node>
	<node lat="60.14557499862069" lon="10.233361116107371" id="-26107">
		<tag k="bridge" v="yes" />
		<tag k="layer" v="1" />
		<tag k="name" v="Storelva" />
		<tag k="ssr:stedsnr" v="531791" />
	</node>
	<node lat="60.15326625268575" lon="10.257564191247926" id="-26108">
		<tag k="bridge" v="yes" />
		<tag k="layer" v="1" />
		<tag k="name" v="Dalsbråten" />
		<tag k="ssr:stedsnr" v="531902" />
	</node>
	<node lat="60.21880445389852" lon="10.226173519073068" id="-26114">
		<tag k="name" v="Hen stasjon" />
		<tag k="railway" v="station" />
		<tag k="ssr:stedsnr" v="550494" />
		<tag k="train" v="yes" />
	</node>
	<node lat="60.440394446840806" lon="10.179027774363508" id="-26208">
		<tag k="name" v="Storlunnelegga" />
		<tag k="place" v="locality" />
		<tag k="ssr:stedsnr" v="693787" />
	</node>
	<node lat="60.55690833288722" lon="9.867413881528101" id="-26346">
		<tag k="name" v="Tiurvelta" />
		<tag k="place" v="locality" />
		<tag k="ssr:stedsnr" v="697327" />
	</node>
	<node lat="60.52819722305984" lon="9.81563056388125" id="-26348">
		<tag k="highway" v="path" />
		<tag k="name" v="Angerskleiv" />
		<tag k="ssr:stedsnr" v="697362" />
	</node>
	<node lat="60.043472323921044" lon="10.057976286115386" id="-26372">
		<tag k="name" v="Nakkerud holdeplass" />
		<tag k="railway" v="halt" />
		<tag k="ssr:stedsnr" v="611319" />
		<tag k="train" v="yes" />
	</node>
	<node lat="60.125896727316196" lon="10.246463061595485" id="-26454">
		<tag k="alt_name" v="Oset" />
		<tag k="bridge" v="yes" />
		<tag k="layer" v="1" />
		<tag k="name" v="Osbrua" />
		<tag k="ssr:stedsnr" v="634314" />
	</node>
	<node lat="60.188075003789876" lon="10.296961103803524" id="-26503">
		<tag k="bridge" v="yes" />
		<tag k="layer" v="1" />
		<tag k="name" v="Hvalsmoen" />
		<tag k="ssr:stedsnr" v="652836" />
	</node>
	<node lat="60.20152499740469" lon="10.127213891641361" id="-26504">
		<tag k="bridge" v="yes" />
		<tag k="layer" v="1" />
		<tag k="name" v="Hegga" />
		<tag k="ssr:stedsnr" v="652837" />
	</node>
	<node lat="60.43604999576037" lon="10.098000002638251" id="-26505">
		<tag k="bridge" v="yes" />
		<tag k="layer" v="1" />
		<tag k="name" v="Rinna" />
		<tag k="ssr:stedsnr" v="652845" />
	</node>
	<node lat="60.26892499926407" lon="10.18475277769121" id="-26506">
		<tag k="bridge" v="yes" />
		<tag k="layer" v="1" />
		<tag k="name" v="Nilsedalen" />
		<tag k="ssr:stedsnr" v="652846" />
	</node>
	<node lat="60.33143947141514" lon="9.853576570882861" id="-26578">
		<tag k="bridge" v="yes" />
		<tag k="layer" v="1" />
		<tag k="name" v="Langebru" />
		<tag k="ssr:stedsnr" v="674867" />
	</node>
	<node lat="60.182521793002856" lon="9.963093603350629" id="-26637">
		<tag k="name" v="Stupbakka" />
		<tag k="place" v="locality" />
		<tag k="ssr:stedsnr" v="696675" />
	</node>
	<node lat="60.55383055930492" lon="9.812736112641808" id="-26662">
		<tag k="highway" v="path" />
		<tag k="name" v="Kleiva" />
		<tag k="ssr:stedsnr" v="697312" />
	</node>
	<node lat="60.49351667008148" lon="10.070816667797683" id="-26669">
		<tag k="bridge" v="yes" />
		<tag k="layer" v="1" />
		<tag k="name" v="Briskodden" />
		<tag k="ssr:stedsnr" v="713876" />
	</node>
	<node lat="60.076910351150524" lon="10.101360479944432" id="-26685">
		<tag k="name" v="Hagabru holdeplass" />
		<tag k="railway" v="halt" />
		<tag k="ssr:stedsnr" v="733240" />
		<tag k="train" v="yes" />
	</node>
	<node lat="60.16831927836967" lon="10.256686118852086" id="-26814">
		<tag k="alt_name" v="Hønefoss" />
		<tag k="bridge" v="yes" />
		<tag k="layer" v="1" />
		<tag k="name" v="Hønefoss bru" />
		<tag k="ssr:stedsnr" v="774865" />
	</node>
	<node lat="60.110913889879406" lon="10.140980549649406" id="-26912">
		<tag k="name" v="Veholt" />
		<tag k="railway" v="halt" />
		<tag k="ssr:stedsnr" v="915737" />
		<tag k="train" v="yes" />
	</node>
	<node lat="60.558727777750875" lon="9.8776027822935" id="-26993">
		<tag k="name" v="Liavelta" />
		<tag k="place" v="locality" />
		<tag k="ssr:stedsnr" v="818320" />
	</node>
	<node lat="60.087638888476846" lon="10.104308339652649" id="-27010">
		<tag k="bridge" v="yes" />
		<tag k="layer" v="1" />
		<tag k="name" v="Skjærdalen" />
		<tag k="ssr:stedsnr" v="835869" />
	</node>
	<node lat="60.14632222099065" lon="10.240594436705127" id="-27011">
		<tag k="bridge" v="yes" />
		<tag k="layer" v="1" />
		<tag k="name" v="Folefoss" />
		<tag k="ssr:stedsnr" v="835897" />
	</node>
	<node lat="60.41429166452678" lon="10.054133327212076" id="-27012">
		<tag k="bridge" v="yes" />
		<tag k="layer" v="1" />
		<tag k="name" v="Tossevikelva" />
		<tag k="ssr:stedsnr" v="835787" />
	</node>
	<node lat="60.17246944521801" lon="10.211438881932965" id="-27013">
		<tag k="bridge" v="yes" />
		<tag k="layer" v="1" />
		<tag k="name" v="Veshall" />
		<tag k="ssr:stedsnr" v="835789" />
	</node>
	<node lat="60.24407931941185" lon="9.874902700749017" id="-27014">
		<tag k="bridge" v="yes" />
		<tag k="layer" v="1" />
		<tag k="name" v="Ålde" />
		<tag k="ssr:stedsnr" v="835792" />
	</node>
	<node lat="60.16910833609566" lon="10.20302222462385" id="-27076">
		<tag k="landuse" v="industrial" />
		<tag k="name" v="Ringerike trafostasjon" />
		<tag k="power" v="plant" />
		<tag k="ssr:stedsnr" v="876003" />
	</node>
	<node lat="60.24146944308902" lon="9.921919436155953" id="-27129">
		<tag k="bridge" v="yes" />
		<tag k="layer" v="1" />
		<tag k="name" v="Sokna" />
		<tag k="ssr:stedsnr" v="895761" />
	</node>
	<node lat="60.56702499945596" lon="9.98284165965604" id="-27130">
		<tag k="bridge" v="yes" />
		<tag k="layer" v="1" />
		<tag k="name" v="Søkkmyr" />
		<tag k="ssr:stedsnr" v="895763" />
	</node>
	<node lat="60.17418333737394" lon="10.22005278563254" id="-27131">
		<tag k="bridge" v="yes" />
		<tag k="layer" v="1" />
		<tag k="name" v="Veien" />
		<tag k="ssr:stedsnr" v="895764" />
	</node>
	<node lat="60.231275002117314" lon="9.871525004882105" id="-27132">
		<tag k="bridge" v="yes" />
		<tag k="layer" v="1" />
		<tag k="name" v="Land" />
		<tag k="ssr:stedsnr" v="895852" />
	</node>
	<node lat="60.285586110941" lon="9.938258336326129" id="-27264">
		<tag k="name" v="Leiren" />
		<tag k="place" v="locality" />
		<tag k="ssr:stedsnr" v="939884" />
	</node>
	<node lat="60.26876666259494" lon="10.184794451715552" id="-27272">
		<tag k="bridge" v="yes" />
		<tag k="layer" v="1" />
		<tag k="name" v="Hallingby" />
		<tag k="ssr:stedsnr" v="956888" />
	</node>
	<node lat="60.19175833451704" lon="10.233191658762308" id="-27273">
		<tag k="bridge" v="yes" />
		<tag k="layer" v="1" />
		<tag k="name" v="Follum" />
		<tag k="ssr:stedsnr" v="956896" />
	</node>
	<node lat="60.21952222169347" lon="9.9757749949638" id="-27274">
		<tag k="bridge" v="yes" />
		<tag k="layer" v="1" />
		<tag k="name" v="Evju" />
		<tag k="ssr:stedsnr" v="956899" />
	</node>
	<node lat="60.12500833006681" lon="10.359608332498526" id="-27275">
		<tag k="bridge" v="yes" />
		<tag k="layer" v="1" />
		<tag k="name" v="Åsa" />
		<tag k="ssr:stedsnr" v="956791" />
	</node>
	<node lat="60.266591120618806" lon="9.7956400850901" id="-27295">
		<tag k="layer" v="-1" />
		<tag k="name" v="Rallerudtunnelen" />
		<tag k="ssr:stedsnr" v="976101" />
		<tag k="tunnel" v="yes" />
	</node>
	<node lat="60.29179020368688" lon="9.68309509597506" id="-27296">
		<tag k="layer" v="-1" />
		<tag k="name" v="Ørgenviktunnelen" />
		<tag k="ssr:stedsnr" v="976066" />
		<tag k="tunnel" v="yes" />
	</node>
	<node lat="60.25865169999764" lon="9.852434008151407" id="-27297">
		<tag k="bridge" v="yes" />
		<tag k="layer" v="1" />
		<tag k="name" v="Rudselvbrua" />
		<tag k="ssr:stedsnr" v="976108" />
	</node>
	<node lat="60.247984193495824" lon="10.101962719423598" id="-27354">
		<tag k="highway" v="path" />
		<tag k="name" v="Vassfarstien" />
		<tag k="ssr:stedsnr" v="988992" />
	</node>
	<node lat="60.13484722363797" lon="10.273688882916861" id="-27478">
		<tag k="junction" v="yes" />
		<tag k="name" v="Hønensvingen" />
		<tag k="place" v="locality" />
		<tag k="ssr:stedsnr" v="26830" />
	</node>
	<node lat="60.522872221442796" lon="10.11502223092087" id="-27582">
		<tag k="bridge" v="yes" />
		<tag k="layer" v="1" />
		<tag k="name" v="Kanalen" />
		<tag k="ssr:stedsnr" v="46858" />
	</node>
	<node lat="60.56021944186187" lon="9.944919436449812" id="-27583">
		<tag k="bridge" v="yes" />
		<tag k="layer" v="1" />
		<tag k="name" v="Jeggerudstad" />
		<tag k="ssr:stedsnr" v="46862" />
	</node>
	<node lat="60.283658330729914" lon="10.19515556126988" id="-27584">
		<tag k="bridge" v="yes" />
		<tag k="layer" v="1" />
		<tag k="name" v="Juterud" />
		<tag k="ssr:stedsnr" v="46863" />
	</node>
	<node lat="60.20572778094413" lon="10.03533332764087" id="-27586">
		<tag k="bridge" v="yes" />
		<tag k="layer" v="1" />
		<tag k="name" v="Støvern" />
		<tag k="ssr:stedsnr" v="46796" />
	</node>
	<node lat="60.21197679724195" lon="10.314076850484666" id="-27673">
		<tag k="aeroway" v="aerodrome" />
		<tag k="alt_name" v="Eggemoen" />
		<tag k="name" v="Hønefoss flyplass, Eggemoen" />
		<tag k="ssr:stedsnr" v="85439" />
	</node>
	<node lat="60.36137726007541" lon="9.915033383248593" id="-27747">
		<tag k="bridge" v="yes" />
		<tag k="layer" v="1" />
		<tag k="name" v="Halkinrudbrua" />
		<tag k="ssr:stedsnr" v="90029" />
	</node>
	<node lat="60.56837777696529" lon="9.937499993946957" id="-27769">
		<tag k="name" v="Fyrendrepen" />
		<tag k="place" v="locality" />
		<tag k="ssr:stedsnr" v="90643" />
	</node>
	<node lat="60.116797223706826" lon="10.572797221162604" id="-27779">
		<tag k="man_made" v="cairn" />
		<tag k="name" v="Sandbekkrøysa" />
		<tag k="place" v="locality" />
		<tag k="ssr:stedsnr" v="101595" />
	</node>
	<node lat="60.189008332764836" lon="10.232019436561128" id="-27785">
		<tag k="bridge" v="yes" />
		<tag k="layer" v="1" />
		<tag k="name" v="Glederud" />
		<tag k="ssr:stedsnr" v="107899" />
	</node>
	<node lat="60.13642500284835" lon="10.147158329725203" id="-27834">
		<tag k="name" v="Hjellebråtan" />
		<tag k="place" v="locality" />
		<tag k="ssr:stedsnr" v="126673" />
	</node>
	<node lat="60.47388888769297" lon="9.994622217147082" id="-27959">
		<tag k="name" v="Bjelkevelta" />
		<tag k="old_name" v="Bjørkevelta" />
		<tag k="place" v="locality" />
		<tag k="ssr:stedsnr" v="150178" />
	</node>
	<node lat="60.368063893072645" lon="9.926413893274395" id="-27993">
		<tag k="name" v="Leintjernvelta" />
		<tag k="place" v="locality" />
		<tag k="ssr:stedsnr" v="151027" />
	</node>
	<node lat="60.541105557328784" lon="10.11898888908201" id="-28002">
		<tag k="bridge" v="yes" />
		<tag k="layer" v="1" />
		<tag k="name" v="Auretjern" />
		<tag k="ssr:stedsnr" v="167879" />
	</node>
	<node lat="60.26773888503288" lon="10.147772218813387" id="-28003">
		<tag k="bridge" v="yes" />
		<tag k="layer" v="1" />
		<tag k="name" v="Skollerud" />
		<tag k="ssr:stedsnr" v="167788" />
	</node>
	<node lat="60.15580833597968" lon="10.218866660462815" id="-28004">
		<tag k="bridge" v="yes" />
		<tag k="layer" v="1" />
		<tag k="name" v="Sørumsmarka" />
		<tag k="ssr:stedsnr" v="167792" />
	</node>
	<node lat="60.20872092112615" lon="9.980342130737668" id="-28194">
		<tag k="alt_name" v="Bårnås" />
		<tag k="bridge" v="yes" />
		<tag k="layer" v="1" />
		<tag k="name" v="Bårnås bru" />
		<tag k="ssr:stedsnr" v="211662" />
	</node>
	<node lat="60.55267778023192" lon="9.915969438551379" id="-28211">
		<tag k="name" v="Veslevelta" />
		<tag k="place" v="locality" />
		<tag k="ssr:stedsnr" v="211818" />
	</node>
	<node lat="60.176888890783125" lon="10.345075002066816" id="-28228">
		<tag k="bridge" v="yes" />
		<tag k="layer" v="1" />
		<tag k="name" v="Smeden" />
		<tag k="ssr:stedsnr" v="288745" />
	</node>
	<node lat="60.23707499598238" lon="9.932897216571135" id="-28229">
		<tag k="bridge" v="yes" />
		<tag k="layer" v="1" />
		<tag k="name" v="Hovland" />
		<tag k="ssr:stedsnr" v="288845" />
	</node>
	<node lat="60.17222222155046" lon="10.22972777262479" id="-28230">
		<tag k="bridge" v="yes" />
		<tag k="layer" v="1" />
		<tag k="name" v="Skoleveien" />
		<tag k="ssr:stedsnr" v="288850" />
	</node>
	<node lat="60.13391944769657" lon="10.273963884478205" id="-28231">
		<tag k="bridge" v="yes" />
		<tag k="layer" v="1" />
		<tag k="name" v="Botilrud" />
		<tag k="ssr:stedsnr" v="288862" />
	</node>
	<node lat="60.205122220488946" lon="10.222500004963997" id="-28371">
		<tag k="highway" v="path" />
		<tag k="name" v="Torget" />
		<tag k="ssr:stedsnr" v="330474" />
	</node>
	<node lat="60.23184722469903" lon="10.23242223099812" id="-28466">
		<tag k="bridge" v="yes" />
		<tag k="layer" v="1" />
		<tag k="name" v="Hensmoen" />
		<tag k="ssr:stedsnr" v="349890" />
	</node>
	<node lat="60.20040833192725" lon="10.26042776981127" id="-28467">
		<tag k="bridge" v="yes" />
		<tag k="layer" v="1" />
		<tag k="name" v="Risesletta" />
		<tag k="ssr:stedsnr" v="349893" />
	</node>
	<node lat="60.41882222079476" lon="10.158750003508889" id="-28578">
		<tag k="ford" v="yes" />
		<tag k="name" v="Bergevadet" />
		<tag k="place" v="locality" />
		<tag k="ssr:stedsnr" v="389961" />
	</node>
	<node lat="60.55830895320626" lon="9.873804404436328" id="-28629">
		<tag k="bridge" v="yes" />
		<tag k="layer" v="1" />
		<tag k="name" v="Søtebekkbrua" />
		<tag k="ssr:stedsnr" v="393311" />
	</node>
	<node lat="60.22043582492531" lon="9.835575426270374" id="-28649">
		<tag k="name" v="Sollibakken" />
		<tag k="place" v="locality" />
		<tag k="ssr:stedsnr" v="394128" />
	</node>
	<node lat="60.30147499551781" lon="10.17254167258188" id="-28659">
		<tag k="bridge" v="yes" />
		<tag k="layer" v="1" />
		<tag k="name" v="Somma" />
		<tag k="ssr:stedsnr" v="410765" />
	</node>
	<node lat="60.17729444342525" lon="10.202086114732552" id="-28660">
		<tag k="bridge" v="yes" />
		<tag k="layer" v="1" />
		<tag k="name" v="Ramsrud" />
		<tag k="ssr:stedsnr" v="410857" />
	</node>
	<node lat="60.13921666322696" lon="10.182519439914508" id="-28661">
		<tag k="bridge" v="yes" />
		<tag k="layer" v="1" />
		<tag k="name" v="Bjerke" />
		<tag k="ssr:stedsnr" v="410867" />
	</node>
	<node lat="60.1782649802502" lon="10.182303971978092" id="-28693">
		<tag k="alt_name" v="Sandåker bru;Sandaker" />
		<tag k="bridge" v="yes" />
		<tag k="layer" v="1" />
		<tag k="name" v="Sandaker bru" />
		<tag k="ssr:stedsnr" v="430573" />
	</node>
	<node lat="60.1884500042959" lon="10.238205555367077" id="-28749">
		<tag k="landuse" v="industrial" />
		<tag k="name" v="Follum kraftstasjon" />
		<tag k="power" v="plant" />
		<tag k="ssr:stedsnr" v="510181" />
	</node>
	<node lat="60.26658611447277" lon="10.285797226461364" id="-28781">
		<tag k="man_made" v="cairn" />
		<tag k="name" v="Varden" />
		<tag k="place" v="locality" />
		<tag k="ssr:stedsnr" v="511790" />
	</node>
	<node lat="60.58222266086398" lon="9.924616132479734" id="-28831">
		<tag k="name" v="Bjørnstadbakkane" />
		<tag k="place" v="locality" />
		<tag k="ssr:stedsnr" v="514676" />
	</node>
	<node lat="60.30983888716204" lon="9.902977782897517" id="-28864">
		<tag k="bridge" v="yes" />
		<tag k="layer" v="1" />
		<tag k="name" v="Lyså" />
		<tag k="ssr:stedsnr" v="531879" />
	</node>
	<node lat="60.37675833357379" lon="10.153313893216271" id="-28982">
		<tag k="name" v="Vesle Samsjøvelta" />
		<tag k="place" v="locality" />
		<tag k="ssr:stedsnr" v="572271" />
	</node>
	<node lat="60.206479580776886" lon="10.027834230018888" id="-29007">
		<tag k="bridge" v="yes" />
		<tag k="layer" v="1" />
		<tag k="name" v="Verkensbrua" />
		<tag k="ssr:stedsnr" v="575778" />
	</node>
	<node lat="60.14524166757316" lon="10.258825005811536" id="-29073">
		<tag k="bridge" v="yes" />
		<tag k="layer" v="1" />
		<tag k="name" v="Hvervenkastet" />
		<tag k="ssr:stedsnr" v="591842" />
	</node>
	<node lat="60.17753055285619" lon="10.226572213655968" id="-29074">
		<tag k="bridge" v="yes" />
		<tag k="layer" v="1" />
		<tag k="name" v="Hallumsdalen" />
		<tag k="ssr:stedsnr" v="591866" />
	</node>
	<node lat="60.55553055324308" lon="9.89931388807847" id="-29075">
		<tag k="bridge" v="yes" />
		<tag k="layer" v="1" />
		<tag k="name" v="Flatbråten" />
		<tag k="ssr:stedsnr" v="591870" />
	</node>
	<node lat="60.546669443605495" lon="9.814944436066598" id="-29076">
		<tag k="bridge" v="yes" />
		<tag k="layer" v="1" />
		<tag k="name" v="Fesja" />
		<tag k="ssr:stedsnr" v="591871" />
	</node>
	<node lat="60.20095608760826" lon="9.792667919212287" id="-29216">
		<tag k="alt_name" v="Ørte" />
		<tag k="bridge" v="yes" />
		<tag k="layer" v="1" />
		<tag k="name" v="Ørtesbrua" />
		<tag k="ssr:stedsnr" v="633904" />
	</node>
	<node lat="60.393983329527416" lon="9.86155278325349" id="-29261">
		<tag k="junction" v="yes" />
		<tag k="name" v="Torvet" />
		<tag k="place" v="locality" />
		<tag k="ssr:stedsnr" v="636002" />
	</node>
	<node lat="60.211666668846696" lon="9.971538894200384" id="-29288">
		<tag k="bridge" v="yes" />
		<tag k="layer" v="1" />
		<tag k="name" v="Tranby" />
		<tag k="ssr:stedsnr" v="652760" />
	</node>
	<node lat="60.198436114965915" lon="10.28429167343679" id="-29289">
		<tag k="bridge" v="yes" />
		<tag k="layer" v="1" />
		<tag k="name" v="Haga" />
		<tag k="ssr:stedsnr" v="652859" />
	</node>
	<node lat="60.22570277947866" lon="10.250169438444722" id="-29290">
		<tag k="bridge" v="yes" />
		<tag k="layer" v="1" />
		<tag k="name" v="Geiteryggen" />
		<tag k="ssr:stedsnr" v="652862" />
	</node>
	<node lat="60.1902888931623" lon="10.159791668411076" id="-29303">
		<tag k="bridge" v="yes" />
		<tag k="layer" v="1" />
		<tag k="name" v="Sætra" />
		<tag k="ssr:stedsnr" v="713792" />
	</node>
	<node lat="60.26848055444683" lon="10.174280552264111" id="-29304">
		<tag k="bridge" v="yes" />
		<tag k="layer" v="1" />
		<tag k="name" v="Hval" />
		<tag k="ssr:stedsnr" v="713864" />
	</node>
	<node lat="60.16021943431483" lon="10.25710007755171" id="-29407">
		<tag k="alt_name" v="Kvernbergsund" />
		<tag k="bridge" v="yes" />
		<tag k="layer" v="1" />
		<tag k="name" v="Kvernbergsund bru" />
		<tag k="ssr:stedsnr" v="753596" />
	</node>
	<node lat="60.55440000016645" lon="9.93315832556139" id="-29521">
		<tag k="name" v="Langvelta" />
		<tag k="place" v="locality" />
		<tag k="ssr:stedsnr" v="757774" />
	</node>
	<node lat="60.52667222522373" lon="10.091158330787854" id="-29543">
		<tag k="bridge" v="yes" />
		<tag k="layer" v="1" />
		<tag k="name" v="Bjonevika" />
		<tag k="ssr:stedsnr" v="774880" />
	</node>
	<node lat="60.396547221524074" lon="10.048886106924446" id="-29544">
		<tag k="bridge" v="yes" />
		<tag k="layer" v="1" />
		<tag k="name" v="Gryteelva" />
		<tag k="ssr:stedsnr" v="774893" />
	</node>
	<node lat="60.57461944066793" lon="9.952316673762995" id="-29769">
		<tag k="name" v="Aurtjernslegga" />
		<tag k="place" v="locality" />
		<tag k="ssr:stedsnr" v="818678" />
	</node>
	<node lat="60.14728888710208" lon="10.249961118868793" id="-29790">
		<tag k="bridge" v="yes" />
		<tag k="layer" v="1" />
		<tag k="name" v="Hverven" />
		<tag k="ssr:stedsnr" v="835864" />
	</node>
	<node lat="60.24844166285444" lon="10.151647221383191" id="-29791">
		<tag k="bridge" v="yes" />
		<tag k="layer" v="1" />
		<tag k="name" v="Semmen" />
		<tag k="ssr:stedsnr" v="835867" />
	</node>
	<node lat="60.23614999745754" lon="10.24432500768569" id="-29943">
		<tag k="ford" v="yes" />
		<tag k="name" v="Setervad" />
		<tag k="place" v="locality" />
		<tag k="ssr:stedsnr" v="876476" />
	</node>
	<node lat="60.451863890318506" lon="10.0708611162761" id="-29963">
		<tag k="highway" v="path" />
		<tag k="name" v="Geitekleiva" />
		<tag k="ssr:stedsnr" v="878690" />
	</node>
	<node lat="60.42337221960758" lon="10.119163880010042" id="-30136">
		<tag k="bridge" v="yes" />
		<tag k="layer" v="1" />
		<tag k="name" v="Hølkloppa" />
		<tag k="ssr:stedsnr" v="939479" />
	</node>
	<node lat="60.167875003157214" lon="10.32636943979993" id="-30178">
		<tag k="bridge" v="yes" />
		<tag k="layer" v="1" />
		<tag k="name" v="Klekken" />
		<tag k="ssr:stedsnr" v="956855" />
	</node>
	<node lat="60.28596388649199" lon="9.927925000519366" id="-30179">
		<tag k="alt_name" v="Halvassbru" />
		<tag k="bridge" v="yes" />
		<tag k="layer" v="1" />
		<tag k="name" v="Halvassbrua" />
		<tag k="ssr:stedsnr" v="956863" />
	</node>
	<node lat="60.522866670378946" lon="10.115916668560484" id="-30180">
		<tag k="bridge" v="yes" />
		<tag k="layer" v="1" />
		<tag k="name" v="Bjoneelva" />
		<tag k="ssr:stedsnr" v="956876" />
	</node>
	<node lat="60.24257643607913" lon="9.917111837380494" id="-30213">
		<tag k="bridge" v="yes" />
		<tag k="layer" v="1" />
		<tag k="name" v="Verkenselvbrua" />
		<tag k="ssr:stedsnr" v="976103" />
	</node>
	<node lat="60.24810598378703" lon="9.907732195551947" id="-30214">
		<tag k="bridge" v="yes" />
		<tag k="layer" v="1" />
		<tag k="name" v="Øvergarden jernbanebru" />
		<tag k="ssr:stedsnr" v="976105" />
	</node>
	<node lat="60.260978292738194" lon="9.861051979114565" id="-30215">
		<tag k="bridge" v="yes" />
		<tag k="layer" v="1" />
		<tag k="name" v="Juvbrua" />
		<tag k="ssr:stedsnr" v="976107" />
	</node>
	<node lat="60.23817714916025" lon="10.206470675848815" id="-30304">
		<tag k="highway" v="bus_stop" />
		<tag k="name" v="Skårflågan" />
		<tag k="ssr:stedsnr" v="985798" />
	</node>
</osm>
