<?xml version="1.0" encoding="UTF-8"?>
<osm generator="osmapis" version="0.6">
	<node id="-31099" lat="60.1469583345" lon="10.3352277863">
		<tag k="fixme" v="consider boundary=protected_area and relevant protect_class if not nature reserve" />
		<tag k="leisure" v="nature_reserve" />
		<tag k="name" v="Ultvedttjern naturreservat" />
		<tag k="ssr:stedsnr" v="363815" />
	</node>
	<node id="-28519" lat="60.1258555539" lon="10.264313886">
		<tag k="fixme" v="consider boundary=protected_area and relevant protect_class if not nature reserve" />
		<tag k="leisure" v="nature_reserve" />
		<tag k="name" v="Juveren naturreservat" />
		<tag k="ssr:stedsnr" v="511092" />
	</node>
	<node id="-29030" lat="60.4213777795" lon="10.0394194532">
		<tag k="historic" v="boundary_stone" />
		<tag k="man_made" v="cairn" />
		<tag k="name" v="Neslesteinrøysa" />
		<tag k="place" v="locality" />
		<tag k="ssr:stedsnr" v="878462" />
	</node>
	<node id="-29022" lat="60.129161112" lon="10.2062611104">
		<tag k="fixme" v="consider boundary=protected_area and relevant protect_class if not nature reserve" />
		<tag k="leisure" v="nature_reserve" />
		<tag k="name" v="Synneren naturreservat" />
		<tag k="ssr:stedsnr" v="877992" />
	</node>
	<node id="-29392" lat="60.1437249989" lon="10.4755861147">
		<tag k="historic" v="boundary_stone" />
		<tag k="man_made" v="cairn" />
		<tag k="name" v="Øyangsrøysa" />
		<tag k="place" v="locality" />
		<tag k="ssr:stedsnr" v="794110" />
	</node>
	<node id="-31553" lat="60.5113611127" lon="10.0216305472">
		<tag k="historic" v="boundary_stone" />
		<tag k="man_made" v="cairn" />
		<tag k="name" v="Svarttjernrøysa" />
		<tag k="place" v="locality" />
		<tag k="ssr:stedsnr" v="572231" />
	</node>
	<node id="-28095" lat="60.1005666706" lon="10.1817944514">
		<tag k="fixme" v="consider boundary=protected_area and relevant protect_class if not nature reserve" />
		<tag k="leisure" v="nature_reserve" />
		<tag k="name" v="Averøya naturreservat" />
		<tag k="ssr:stedsnr" v="390609" />
	</node>
	<node id="-29752" lat="60.145211114" lon="10.3582583362">
		<tag k="fixme" v="specify shooting=range, clay_pigeon etc" />
		<tag k="leisure" v="pitch" />
		<tag k="name" v="Fleskerud skytebane" />
		<tag k="sport" v="shooting" />
		<tag k="ssr:stedsnr" v="937909" />
	</node>
	<node id="-32432" lat="60.0644394974" lon="10.4557065488">
		<tag k="fixme" v="consider boundary=protected_area and relevant protect_class if not nature reserve" />
		<tag k="leisure" v="nature_reserve" />
		<tag k="name" v="Krokskogen naturreservat" />
		<tag k="ssr:stedsnr" v="987926" />
	</node>
	<node id="-31790" lat="60.127680558" lon="10.1664166686">
		<tag k="fixme" v="consider boundary=protected_area and relevant protect_class if not nature reserve" />
		<tag k="leisure" v="nature_reserve" />
		<tag k="name" v="Karlsrudtangen naturreservat" />
		<tag k="ssr:stedsnr" v="635000" />
	</node>
	<node id="-28717" lat="60.4414583375" lon="9.88070833978">
		<tag k="fixme" v="consider boundary=protected_area and relevant protect_class if not nature reserve" />
		<tag k="leisure" v="nature_reserve" />
		<tag k="name" v="Sandvann naturreservat" />
		<tag k="ssr:stedsnr" v="575460" />
	</node>
	<node id="-32428" lat="60.07303972" lon="10.1046540282">
		<tag k="fixme" v="consider boundary=protected_area and relevant protect_class if not nature reserve" />
		<tag k="leisure" v="nature_reserve" />
		<tag k="name" v="Furuøyene biotopvernområde" />
		<tag k="ssr:stedsnr" v="985415" />
	</node>
	<node id="-32427" lat="60.0885036784" lon="10.0819007986">
		<tag k="fixme" v="consider boundary=protected_area and relevant protect_class if not nature reserve" />
		<tag k="leisure" v="nature_reserve" />
		<tag k="name" v="Solbergtjern naturreservat" />
		<tag k="ssr:stedsnr" v="985413" />
	</node>
	<node id="-32426" lat="60.1740260803" lon="10.2863677988">
		<tag k="fixme" v="consider boundary=protected_area and relevant protect_class if not nature reserve" />
		<tag k="leisure" v="nature_reserve" />
		<tag k="name" v="Hovsenga naturreservat" />
		<tag k="ssr:stedsnr" v="985412" />
	</node>
	<node id="-32425" lat="60.2365741204" lon="10.1845168606">
		<tag k="fixme" v="consider boundary=protected_area and relevant protect_class if not nature reserve" />
		<tag k="leisure" v="nature_reserve" />
		<tag k="name" v="Ådalselva naturreservat" />
		<tag k="ssr:stedsnr" v="985411" />
	</node>
	<node id="-32419" lat="60.21742662" lon="10.3431596556">
		<tag k="fixme" v="consider boundary=protected_area and relevant protect_class if not nature reserve" />
		<tag k="leisure" v="nature_reserve" />
		<tag k="name" v="Viulkastet naturreservat" />
		<tag k="ssr:stedsnr" v="982681" />
	</node>
	<node id="-32418" lat="60.2049307244" lon="10.3172331031">
		<tag k="fixme" v="consider boundary=protected_area and relevant protect_class if not nature reserve" />
		<tag k="leisure" v="nature_reserve" />
		<tag k="name" v="Rankedal naturreservat" />
		<tag k="ssr:stedsnr" v="982680" />
	</node>
	<node id="-32417" lat="60.4844876844" lon="9.90120419929">
		<tag k="fixme" v="consider boundary=protected_area and relevant protect_class if not nature reserve" />
		<tag k="leisure" v="nature_reserve" />
		<tag k="name" v="Vikerfjell naturreservat" />
		<tag k="ssr:stedsnr" v="982679" />
	</node>
	<node id="-28819" lat="60.145674996" lon="10.3579777792">
		<tag k="fixme" v="specify shooting=range, clay_pigeon etc" />
		<tag k="leisure" v="pitch" />
		<tag k="name" v="Fleskerud skytebane" />
		<tag k="sport" v="shooting" />
		<tag k="ssr:stedsnr" v="633921" />
	</node>
	<node id="-32429" lat="60.0976640568" lon="10.0350556723">
		<tag k="fixme" v="consider boundary=protected_area and relevant protect_class if not nature reserve" />
		<tag k="leisure" v="nature_reserve" />
		<tag k="name" v="Væleren biotopvernområde" />
		<tag k="ssr:stedsnr" v="985416" />
	</node>
	<node id="-32389" lat="60.5013222266" lon="10.1623777784">
		<tag k="historic" v="boundary_stone" />
		<tag k="man_made" v="cairn" />
		<tag k="name" v="Snellrøysa" />
		<tag k="place" v="locality" />
		<tag k="ssr:stedsnr" v="961071" />
	</node>
	<node id="-29188" lat="60.1178333317" lon="10.2645138917">
		<tag k="fixme" v="consider boundary=protected_area and relevant protect_class if not nature reserve" />
		<tag k="leisure" v="nature_reserve" />
		<tag k="name" v="Lamyra naturreservat" />
		<tag k="ssr:stedsnr" v="695311" />
	</node>
</osm>
