<?xml version="1.0" encoding="UTF-8"?>
<osm version="0.6" generator="osmapis">
	<node lat="60.22652500130519" lon="10.031450000603101" id="-12330">
		<tag k="name" v="Veslehovland" />
		<tag k="place" v="farm" />
		<tag k="ssr:stedsnr" v="4516" />
	</node>
	<node lat="60.216649999561994" lon="10.094674996555796" id="-12332">
		<tag k="name" v="Torsrud" />
		<tag k="place" v="farm" />
		<tag k="ssr:stedsnr" v="4503" />
	</node>
	<node lat="60.21955833412085" lon="10.263316664096182" id="-12333">
		<tag k="name" v="Høgfoss" />
		<tag k="place" v="farm" />
		<tag k="ssr:stedsnr" v="4507" />
	</node>
	<node lat="60.23209166440692" lon="10.16975833194337" id="-12334">
		<tag k="name" v="Korgerud" />
		<tag k="place" v="farm" />
		<tag k="ssr:stedsnr" v="4508" />
	</node>
	<node lat="60.20368333292068" lon="10.09224167444057" id="-12336">
		<tag k="name" v="Kvernvollen" />
		<tag k="place" v="hamlet" />
		<tag k="ssr:stedsnr" v="4530" />
	</node>
	<node lat="60.202652773540436" lon="10.147313888420221" id="-12337">
		<tag k="alt_name" v="Kjelda" />
		<tag k="name" v="Kjella" />
		<tag k="place" v="farm" />
		<tag k="ssr:stedsnr" v="4534" />
	</node>
	<node lat="60.16343807528329" lon="10.321867949582487" id="-12338">
		<tag k="alt_name" v="Børger" />
		<tag k="fixme" v="consider place=hamlet" />
		<tag k="name" v="Borger" />
		<tag k="place" v="farm" />
		<tag k="ssr:stedsnr" v="4603" />
	</node>
	<node lat="60.16415432132632" lon="10.302118195894916" id="-12339">
		<tag k="alt_name" v="Setrang" />
		<tag k="name" v="Nordre Sætrang" />
		<tag k="place" v="farm" />
		<tag k="ssr:stedsnr" v="4605" />
	</node>
	<node lat="60.11910993475966" lon="10.2700056059467" id="-12340">
		<tag k="fixme" v="consider place=hamlet" />
		<tag k="name" v="Berger" />
		<tag k="place" v="farm" />
		<tag k="ssr:stedsnr" v="4704" />
	</node>
	<node lat="60.115149999176396" lon="10.095327777965489" id="-12341">
		<tag k="name" v="Foss" />
		<tag k="place" v="farm" />
		<tag k="ssr:stedsnr" v="4770" />
	</node>
	<node lat="60.121841662745794" lon="10.555288886866588" id="-12343">
		<tag k="name" v="Styggedalshytta" />
		<tag k="place" v="isolated_dwelling" />
		<tag k="ssr:stedsnr" v="5065" />
	</node>
	<node lat="60.22657499969295" lon="9.925161117892939" id="-12344">
		<tag k="alt_name" v="Sandaker" />
		<tag k="name" v="Sandåker" />
		<tag k="place" v="farm" />
		<tag k="ssr:stedsnr" v="5217" />
	</node>
	<node lat="60.23364829097305" lon="9.9199152175249" id="-12345">
		<tag k="alt_name" v="Kallerud" />
		<tag k="name" v="Kalerud" />
		<tag k="place" v="farm" />
		<tag k="ssr:stedsnr" v="5218" />
	</node>
	<node lat="60.230343371518586" lon="9.859853450339306" id="-12346">
		<tag k="name" v="Sjåstad" />
		<tag k="place" v="isolated_dwelling" />
		<tag k="ssr:stedsnr" v="5223" />
	</node>
	<node lat="60.18924444625837" lon="9.879119437520899" id="-12348">
		<tag k="alt_name" v="Kovaholet" />
		<tag k="name" v="Kovahøl" />
		<tag k="place" v="isolated_dwelling" />
		<tag k="ssr:stedsnr" v="5125" />
	</node>
	<node lat="60.04543611174463" lon="10.066852769778448" id="-12351">
		<tag k="fixme" v="multiple name tags, choose one and add the other to alt_name" />
		<tag k="name" v="Nakkerudtangen;Tangen" />
		<tag k="place" v="farm" />
		<tag k="ssr:stedsnr" v="5357" />
	</node>
	<node lat="60.322305558494875" lon="10.133333338187999" id="-12361">
		<tag k="fixme" v="consider place=hamlet" />
		<tag k="name" v="Østre Bergsund" />
		<tag k="place" v="farm" />
		<tag k="ssr:stedsnr" v="6492" />
	</node>
	<node lat="60.51380556465205" lon="10.0483102419773" id="-12364">
		<tag k="name" v="Nordre Ramberget" />
		<tag k="place" v="farm" />
		<tag k="ssr:stedsnr" v="6511" />
	</node>
	<node lat="60.38529166787238" lon="9.909249993845751" id="-12368">
		<tag k="name" v="Godly" />
		<tag k="place" v="isolated_dwelling" />
		<tag k="ssr:stedsnr" v="6804" />
	</node>
	<node lat="60.38923889099608" lon="9.848400004472085" id="-12371">
		<tag k="name" v="Solskinnstua" />
		<tag k="place" v="isolated_dwelling" />
		<tag k="ssr:stedsnr" v="6974" />
	</node>
	<node lat="60.62926111434469" lon="9.963105548422604" id="-12378">
		<tag k="historic" v="shieling" />
		<tag k="name" v="Rundhølsetra" />
		<tag k="place" v="isolated_dwelling" />
		<tag k="ssr:stedsnr" v="272861" />
	</node>
	<node lat="60.19487091368965" lon="10.362134367575973" id="-12382">
		<tag k="fixme" v="consider place=hamlet" />
		<tag k="name" v="Tveiter-Ødegården" />
		<tag k="place" v="farm" />
		<tag k="ssr:stedsnr" v="24915" />
	</node>
	<node lat="60.17751667111766" lon="10.345897218359516" id="-12383">
		<tag k="name" v="Smeden" />
		<tag k="place" v="hamlet" />
		<tag k="ssr:stedsnr" v="24931" />
	</node>
	<node lat="60.19535555968871" lon="10.147405547319432" id="-12387">
		<tag k="name" v="Bratteberg" />
		<tag k="place" v="isolated_dwelling" />
		<tag k="ssr:stedsnr" v="25529" />
	</node>
	<node lat="60.28261908145343" lon="10.180877853979025" id="-12392">
		<tag k="name" v="Hval" />
		<tag k="old_name" v="Øvre Hval" />
		<tag k="place" v="farm" />
		<tag k="ssr:stedsnr" v="26305" />
	</node>
	<node lat="60.12600277617376" lon="10.317722227886266" id="-12394">
		<tag k="name" v="Tolpinrud" />
		<tag k="place" v="farm" />
		<tag k="ssr:stedsnr" v="26511" />
	</node>
	<node lat="60.13223353366434" lon="10.346407895416174" id="-12395">
		<tag k="fixme" v="multiple name tags, choose one and add the other to alt_name" />
		<tag k="name" v="Bjørnstad;Hurumkroken" />
		<tag k="place" v="farm" />
		<tag k="ssr:stedsnr" v="26514" />
	</node>
	<node lat="60.097183329670784" lon="10.119855562187595" id="-12400">
		<tag k="name" v="Engen" />
		<tag k="place" v="isolated_dwelling" />
		<tag k="ssr:stedsnr" v="27022" />
	</node>
	<node lat="60.12439722324422" lon="10.24544443598082" id="-12401">
		<tag k="name" v="Roligheten" />
		<tag k="place" v="farm" />
		<tag k="ssr:stedsnr" v="27295" />
	</node>
	<node lat="60.44150555230771" lon="10.054619440778655" id="-12403">
		<tag k="name" v="Hagen" />
		<tag k="place" v="farm" />
		<tag k="ssr:stedsnr" v="28325" />
	</node>
	<node lat="60.29160832956237" lon="9.996836108728433" id="-12413">
		<tag k="name" v="Strevheim" />
		<tag k="place" v="isolated_dwelling" />
		<tag k="ssr:stedsnr" v="29623" />
	</node>
	<node lat="60.179375000479205" lon="9.947466658075545" id="-12417">
		<tag k="name" v="Tranbysetra" />
		<tag k="place" v="locality" />
		<tag k="ssr:stedsnr" v="29671" />
	</node>
	<node lat="60.192674999230704" lon="9.96092500507105" id="-12419">
		<tag k="name" v="Brandbråten" />
		<tag k="place" v="locality" />
		<tag k="ssr:stedsnr" v="29676" />
	</node>
	<node lat="60.58351110953347" lon="9.945916658244007" id="-12420">
		<tag k="historic" v="shieling" />
		<tag k="name" v="Aurtjernsetra" />
		<tag k="place" v="isolated_dwelling" />
		<tag k="ssr:stedsnr" v="29679" />
	</node>
	<node lat="60.209158335374276" lon="9.969566669560878" id="-12421">
		<tag k="name" v="Myrvang" />
		<tag k="place" v="farm" />
		<tag k="ssr:stedsnr" v="29680" />
	</node>
	<node lat="60.143358337436226" lon="10.575161119842132" id="-12443">
		<tag k="historic" v="shieling" />
		<tag k="name" v="Fagerlisetra" />
		<tag k="place" v="isolated_dwelling" />
		<tag k="ssr:stedsnr" v="53107" />
	</node>
	<node lat="60.556286683101945" lon="10.006164291367785" id="-12444">
		<tag k="alt_name" v="Søndre Lunde" />
		<tag k="name" v="Søre Lunde" />
		<tag k="place" v="farm" />
		<tag k="ssr:stedsnr" v="60809" />
	</node>
	<node lat="60.23927395610306" lon="9.8878299939978" id="-12450">
		<tag k="fixme" v="consider place=hamlet" />
		<tag k="name" v="Kjos" />
		<tag k="place" v="farm" />
		<tag k="ssr:stedsnr" v="65225" />
	</node>
	<node lat="60.214093828600966" lon="9.774297964783242" id="-12451">
		<tag k="alt_name" v="Øveren" />
		<tag k="fixme" v="consider place=hamlet" />
		<tag k="name" v="Aure" />
		<tag k="place" v="farm" />
		<tag k="ssr:stedsnr" v="65181" />
	</node>
	<node lat="60.21564752217518" lon="9.922314740529087" id="-12452">
		<tag k="name" v="Høghaug" />
		<tag k="place" v="farm" />
		<tag k="ssr:stedsnr" v="65184" />
	</node>
	<node lat="60.22335074937917" lon="9.947223310305237" id="-12453">
		<tag k="alt_name" v="Flaskerud" />
		<tag k="name" v="Øvre Flaskerud" />
		<tag k="place" v="farm" />
		<tag k="ssr:stedsnr" v="65196" />
	</node>
	<node lat="60.14413333697067" lon="10.339311110092185" id="-12455">
		<tag k="name" v="Håkenstad" />
		<tag k="place" v="farm" />
		<tag k="ssr:stedsnr" v="65614" />
	</node>
	<node lat="60.150947217983095" lon="10.171227786591848" id="-12456">
		<tag k="name" v="Torgerud" />
		<tag k="place" v="farm" />
		<tag k="ssr:stedsnr" v="65626" />
	</node>
	<node lat="60.21719999947585" lon="10.115208326286169" id="-12457">
		<tag k="alt_name" v="Tveitsætra" />
		<tag k="name" v="Tveitsetra" />
		<tag k="place" v="farm" />
		<tag k="ssr:stedsnr" v="65501" />
	</node>
	<node lat="60.23725833306314" lon="10.19455832470038" id="-12458">
		<tag k="name" v="Svensrud" />
		<tag k="place" v="farm" />
		<tag k="ssr:stedsnr" v="65506" />
	</node>
	<node lat="60.20409146651099" lon="9.972466913445952" id="-12459">
		<tag k="alt_name" v="Sesserud" />
		<tag k="fixme" v="consider place=hamlet" />
		<tag k="name" v="Sessrud" />
		<tag k="place" v="farm" />
		<tag k="ssr:stedsnr" v="65524" />
	</node>
	<node lat="60.20669999599886" lon="10.049677772539233" id="-12460">
		<tag k="alt_name" v="Enga" />
		<tag k="name" v="Bente-Støveren" />
		<tag k="place" v="farm" />
		<tag k="ssr:stedsnr" v="65536" />
	</node>
	<node lat="60.11030402343323" lon="10.197792913764808" id="-12461">
		<tag k="name" v="Averøya" />
		<tag k="place" v="farm" />
		<tag k="ssr:stedsnr" v="65751" />
	</node>
	<node lat="60.223611109479016" lon="9.879652768891884" id="-12467">
		<tag k="name" v="Rundtom" />
		<tag k="place" v="locality" />
		<tag k="ssr:stedsnr" v="66209" />
	</node>
	<node lat="60.466927779550595" lon="10.061986115439721" id="-12469">
		<tag k="name" v="Nordre Enger" />
		<tag k="place" v="farm" />
		<tag k="ssr:stedsnr" v="66499" />
	</node>
	<node lat="60.40049166645881" lon="10.047763890693918" id="-12474">
		<tag k="name" v="Tømmervika" />
		<tag k="place" v="farm" />
		<tag k="ssr:stedsnr" v="67295" />
	</node>
	<node lat="60.40081389191414" lon="10.086041664939296" id="-12475">
		<tag k="alt_name" v="Bråtan" />
		<tag k="name" v="Haugerudbråtan" />
		<tag k="place" v="farm" />
		<tag k="ssr:stedsnr" v="67297" />
	</node>
	<node lat="60.276194444567466" lon="10.144144443861117" id="-12477">
		<tag k="name" v="Bjørnerud" />
		<tag k="place" v="farm" />
		<tag k="ssr:stedsnr" v="67436" />
	</node>
	<node lat="60.276558332756835" lon="10.150919438102282" id="-12478">
		<tag k="alt_name" v="Engebråten" />
		<tag k="name" v="Engebråtan" />
		<tag k="place" v="farm" />
		<tag k="ssr:stedsnr" v="67438" />
	</node>
	<node lat="60.25701666525697" lon="10.040483330108257" id="-12481">
		<tag k="alt_name" v="Gjuva" />
		<tag k="name" v="Juva" />
		<tag k="place" v="isolated_dwelling" />
		<tag k="ssr:stedsnr" v="67342" />
	</node>
	<node lat="60.305541668445144" lon="9.76449999112209" id="-12488">
		<tag k="name" v="Brekkehytta" />
		<tag k="place" v="isolated_dwelling" />
		<tag k="ssr:stedsnr" v="67691" />
	</node>
	<node lat="60.25575000082134" lon="9.96011111747016" id="-12490">
		<tag k="name" v="Tuftin" />
		<tag k="place" v="isolated_dwelling" />
		<tag k="ssr:stedsnr" v="67738" />
	</node>
	<node lat="60.25254352172643" lon="9.78901089516537" id="-12491">
		<tag k="fixme" v="consider place=hamlet" />
		<tag k="name" v="Havik" />
		<tag k="place" v="farm" />
		<tag k="ssr:stedsnr" v="67747" />
	</node>
	<node lat="60.482102778041416" lon="9.944558330131837" id="-12492">
		<tag k="name" v="Fjellihytta" />
		<tag k="place" v="isolated_dwelling" />
		<tag k="ssr:stedsnr" v="67889" />
	</node>
	<node lat="60.56087499562343" lon="9.987661116567562" id="-12496">
		<tag k="name" v="Mo" />
		<tag k="place" v="farm" />
		<tag k="ssr:stedsnr" v="68612" />
	</node>
	<node lat="60.62970000109909" lon="9.910308325034897" id="-12497">
		<tag k="name" v="Furuøya" />
		<tag k="place" v="farm" />
		<tag k="ssr:stedsnr" v="68991" />
	</node>
	<node lat="60.1409750043641" lon="10.305930551114121" id="-12498">
		<tag k="name" v="Tajeløkken" />
		<tag k="place" v="locality" />
		<tag k="ssr:stedsnr" v="85864" />
	</node>
	<node lat="60.2727972215167" lon="9.791097222708991" id="-12500">
		<tag k="name" v="Husefred" />
		<tag k="place" v="isolated_dwelling" />
		<tag k="ssr:stedsnr" v="86183" />
	</node>
	<node lat="60.210951872566845" lon="10.238918132583512" id="-12513">
		<tag k="name" v="Heen Mølle" />
		<tag k="place" v="locality" />
		<tag k="ssr:stedsnr" v="87423" />
	</node>
	<node lat="60.43481110696111" lon="10.104094453001188" id="-12517">
		<tag k="name" v="Tyttebærbråten" />
		<tag k="place" v="isolated_dwelling" />
		<tag k="ssr:stedsnr" v="89702" />
	</node>
	<node lat="60.446938886106516" lon="10.086966670460185" id="-12518">
		<tag k="name" v="Åsjordet" />
		<tag k="place" v="locality" />
		<tag k="ssr:stedsnr" v="89708" />
	</node>
	<node lat="60.20856667097938" lon="10.00368611776386" id="-12522">
		<tag k="alt_name" v="Barnås Søndre" />
		<tag k="name" v="Søndre Barnås" />
		<tag k="place" v="farm" />
		<tag k="ssr:stedsnr" v="89689" />
	</node>
	<node lat="60.376641671206016" lon="9.956580547005856" id="-12535">
		<tag k="historic" v="shieling" />
		<tag k="name" v="Øvre Leintjernsetra" />
		<tag k="place" v="isolated_dwelling" />
		<tag k="ssr:stedsnr" v="90082" />
	</node>
	<node lat="60.53495000024329" lon="10.008833331169987" id="-12544">
		<tag k="name" v="Brenna" />
		<tag k="place" v="farm" />
		<tag k="ssr:stedsnr" v="90684" />
	</node>
	<node lat="60.2234777780793" lon="10.247625006623599" id="-12558">
		<tag k="name" v="Hensmoen" />
		<tag k="place" v="quarter" />
		<tag k="ssr:stedsnr" v="247475" />
	</node>
	<node lat="60.23742500065403" lon="9.813355560531795" id="-12561">
		<tag k="name" v="Gildredalen" />
		<tag k="place" v="farm" />
		<tag k="ssr:stedsnr" v="247215" />
	</node>
	<node lat="60.04681011764467" lon="10.064416597990652" id="-12565">
		<tag k="fixme" v="consider place=hamlet" />
		<tag k="name" v="Nakkerud" />
		<tag k="place" v="farm" />
		<tag k="ssr:stedsnr" v="247355" />
	</node>
	<node lat="60.207802781098934" lon="10.206641672888821" id="-12566">
		<tag k="name" v="Jytemoen" />
		<tag k="place" v="locality" />
		<tag k="ssr:stedsnr" v="247532" />
	</node>
	<node lat="60.2328316418532" lon="10.22202385912859" id="-12567">
		<tag k="alt_name" v="Olabråten" />
		<tag k="name" v="Olabråtan" />
		<tag k="place" v="locality" />
		<tag k="ssr:stedsnr" v="247494" />
	</node>
	<node lat="60.15267500327778" lon="10.054661116943835" id="-12569">
		<tag k="historic" v="shieling" />
		<tag k="name" v="Veholtsetra" />
		<tag k="place" v="isolated_dwelling" />
		<tag k="ssr:stedsnr" v="247584" />
	</node>
	<node lat="60.164937488657635" lon="10.31809853283258" id="-12570">
		<tag k="fixme" v="consider place=hamlet" />
		<tag k="name" v="Klekken" />
		<tag k="place" v="farm" />
		<tag k="ssr:stedsnr" v="247589" />
	</node>
	<node lat="60.1529861127791" lon="10.188894444803786" id="-12572">
		<tag k="name" v="Dammen" />
		<tag k="place" v="farm" />
		<tag k="ssr:stedsnr" v="247632" />
	</node>
	<node lat="60.132194741919214" lon="10.303753371854759" id="-12573">
		<tag k="alt_name" v="Burud" />
		<tag k="fixme" v="consider place=hamlet" />
		<tag k="name" v="Bure" />
		<tag k="place" v="farm" />
		<tag k="ssr:stedsnr" v="247647" />
	</node>
	<node lat="60.11795277465135" lon="10.065930560772394" id="-12574">
		<tag k="name" v="Ulleren" />
		<tag k="place" v="farm" />
		<tag k="ssr:stedsnr" v="247696" />
	</node>
	<node lat="60.12313436061243" lon="9.979833850879286" id="-12575">
		<tag k="alt_name" v="Tromperudseter" />
		<tag k="name" v="Tromperud" />
		<tag k="place" v="locality" />
		<tag k="ssr:stedsnr" v="247699" />
	</node>
	<node lat="60.17855277772817" lon="10.359586112329747" id="-12578">
		<tag k="name" v="Kverndalen" />
		<tag k="place" v="farm" />
		<tag k="ssr:stedsnr" v="248035" />
	</node>
	<node lat="60.24885000081725" lon="10.158413894891586" id="-12580">
		<tag k="alt_name" v="Tangen;Tangen søndre" />
		<tag k="name" v="Søndre Tangen" />
		<tag k="place" v="farm" />
		<tag k="ssr:stedsnr" v="247999" />
	</node>
	<node lat="60.12828056001926" lon="10.368363883905396" id="-12581">
		<tag k="fixme" v="consider place=hamlet" />
		<tag k="name" v="Jonsrud" />
		<tag k="place" v="farm" />
		<tag k="ssr:stedsnr" v="248083" />
	</node>
	<node lat="60.13363889009261" lon="10.359963891320959" id="-12586">
		<tag k="alt_name" v="Tyrihjellen;Tjuruhjellen" />
		<tag k="name" v="Tjyruhjellen" />
		<tag k="place" v="farm" />
		<tag k="ssr:stedsnr" v="248101" />
	</node>
	<node lat="60.08460292632227" lon="10.47352296292975" id="-12589">
		<tag k="fixme" v="consider place=hamlet" />
		<tag k="name" v="Heggelia" />
		<tag k="place" v="farm" />
		<tag k="ssr:stedsnr" v="248136" />
	</node>
	<node lat="60.24828611490747" lon="9.747094438401087" id="-12591">
		<tag k="alt_name" v="Svendplassen Nedre;Nedre Svenplassen" />
		<tag k="name" v="Nedre Svendplassen" />
		<tag k="place" v="farm" />
		<tag k="ssr:stedsnr" v="100275" />
	</node>
	<node lat="60.1749499988679" lon="10.224550008437479" id="-12592">
		<tag k="loc_name" v="Nedre Veien" />
		<tag k="name" v="Veien" />
		<tag k="place" v="farm" />
		<tag k="ssr:stedsnr" v="101173" />
	</node>
	<node lat="60.48932500258085" lon="10.123269436719347" id="-12602">
		<tag k="name" v="Heimdal" />
		<tag k="place" v="isolated_dwelling" />
		<tag k="ssr:stedsnr" v="248730" />
	</node>
	<node lat="60.1300740899176" lon="10.068092548785627" id="-12603">
		<tag k="name" v="Tipparary" />
		<tag k="place" v="isolated_dwelling" />
		<tag k="ssr:stedsnr" v="248667" />
	</node>
	<node lat="60.13206110854705" lon="10.19049166929511" id="-12604">
		<tag k="name" v="Benterud" />
		<tag k="place" v="farm" />
		<tag k="ssr:stedsnr" v="248671" />
	</node>
	<node lat="60.413569440586784" lon="10.057761109413292" id="-12607">
		<tag k="name" v="Karlsrud" />
		<tag k="place" v="farm" />
		<tag k="ssr:stedsnr" v="249360" />
	</node>
	<node lat="60.262630557101616" lon="10.149022230921267" id="-12608">
		<tag k="alt_name" v="Finnbråten" />
		<tag k="name" v="Finnbråtan" />
		<tag k="place" v="farm" />
		<tag k="ssr:stedsnr" v="249445" />
	</node>
	<node lat="60.3166805548321" lon="10.236966674754653" id="-12610">
		<tag k="fixme" v="multiple name tags, choose one and add the other to alt_name" />
		<tag k="historic" v="shieling" />
		<tag k="name" v="Hvalssetra;Øvre Hvalssetra" />
		<tag k="place" v="isolated_dwelling" />
		<tag k="ssr:stedsnr" v="249485" />
	</node>
	<node lat="60.285608329704814" lon="9.753183326070031" id="-12616">
		<tag k="name" v="Nordtjernlia" />
		<tag k="place" v="farm" />
		<tag k="ssr:stedsnr" v="249657" />
	</node>
	<node lat="60.259124999793144" lon="9.874588893682215" id="-12620">
		<tag k="alt_name" v="Gjuvet" />
		<tag k="name" v="Juvet" />
		<tag k="place" v="farm" />
		<tag k="ssr:stedsnr" v="249726" />
	</node>
	<node lat="60.25197500131716" lon="9.786163883363669" id="-12621">
		<tag k="name" v="Havikskogen" />
		<tag k="place" v="hamlet" />
		<tag k="ssr:stedsnr" v="249732" />
	</node>
	<node lat="60.35135277401974" lon="9.824775003416388" id="-12624">
		<tag k="name" v="Skogli" />
		<tag k="place" v="farm" />
		<tag k="ssr:stedsnr" v="249753" />
	</node>
	<node lat="60.34124166718924" lon="9.847316669557864" id="-12625">
		<tag k="fixme" v="consider place=hamlet" />
		<tag k="name" v="Strømsoddbygda" />
		<tag k="old_name" v="Strømsaattbygda" />
		<tag k="place" v="village" />
		<tag k="ssr:stedsnr" v="249756" />
	</node>
	<node lat="60.142797222125644" lon="10.324650005604054" id="-12631">
		<tag k="alt_name" v="Ultvedt" />
		<tag k="name" v="Ultvet" />
		<tag k="place" v="farm" />
		<tag k="ssr:stedsnr" v="110695" />
	</node>
	<node lat="60.55481666285038" lon="9.983775002626803" id="-12634">
		<tag k="alt_name" v="Volden" />
		<tag k="name" v="Nesvollen" />
		<tag k="place" v="farm" />
		<tag k="ssr:stedsnr" v="250492" />
	</node>
	<node lat="60.52088582257536" lon="10.154156348754448" id="-12636">
		<tag k="alt_name" v="Vardehaug" />
		<tag k="name" v="Vardhugu" />
		<tag k="place" v="farm" />
		<tag k="ssr:stedsnr" v="250468" />
	</node>
	<node lat="60.53588333521395" lon="10.11461667450264" id="-12639">
		<tag k="alt_name" v="Gutubråten" />
		<tag k="name" v="Gutubråtån" />
		<tag k="place" v="farm" />
		<tag k="ssr:stedsnr" v="250521" />
	</node>
	<node lat="60.57457777390643" lon="9.9864361075652" id="-12641">
		<tag k="name" v="Øya" />
		<tag k="place" v="farm" />
		<tag k="ssr:stedsnr" v="250565" />
	</node>
	<node lat="60.573538884980046" lon="9.981405563763422" id="-12642">
		<tag k="name" v="Bråtåenga" />
		<tag k="place" v="farm" />
		<tag k="ssr:stedsnr" v="250627" />
	</node>
	<node lat="60.551689393656005" lon="9.903823192921372" id="-12643">
		<tag k="fixme" v="consider place=hamlet" />
		<tag k="name" v="Fossholm" />
		<tag k="place" v="farm" />
		<tag k="ssr:stedsnr" v="250826" />
	</node>
	<node lat="60.54298333502316" lon="9.91844722193343" id="-12644">
		<tag k="name" v="Øvre Høgfoss" />
		<tag k="place" v="isolated_dwelling" />
		<tag k="ssr:stedsnr" v="250837" />
	</node>
	<node lat="60.53050555191601" lon="9.821824992444391" id="-12645">
		<tag k="name" v="Sjåheim" />
		<tag k="place" v="isolated_dwelling" />
		<tag k="ssr:stedsnr" v="250839" />
	</node>
	<node lat="60.631659218020616" lon="9.911229122530383" id="-12646">
		<tag k="alt_name" v="Stenberg" />
		<tag k="name" v="Putten" />
		<tag k="place" v="farm" />
		<tag k="ssr:stedsnr" v="250993" />
	</node>
	<node lat="60.11250000292373" lon="10.13914722482537" id="-12651">
		<tag k="name" v="Veholt" />
		<tag k="place" v="farm" />
		<tag k="ssr:stedsnr" v="125762" />
	</node>
	<node lat="60.09812398382599" lon="10.342882140385866" id="-12655">
		<tag k="alt_name" v="Elvik" />
		<tag k="fixme" v="consider place=hamlet" />
		<tag k="name" v="Elvika" />
		<tag k="place" v="farm" />
		<tag k="ssr:stedsnr" v="126148" />
	</node>
	<node lat="60.101230552201955" lon="10.351666665832958" id="-12656">
		<tag k="alt_name" v="Gamlebråtan" />
		<tag k="name" v="Elvikbråtan" />
		<tag k="place" v="farm" />
		<tag k="ssr:stedsnr" v="126149" />
	</node>
	<node lat="60.05736227616579" lon="10.08221827245766" id="-12663">
		<tag k="name" v="Lauvli" />
		<tag k="place" v="farm" />
		<tag k="ssr:stedsnr" v="126353" />
	</node>
	<node lat="60.0596778274528" lon="10.083457615074915" id="-12664">
		<tag k="fixme" v="multiple name tags, choose one and add the other to alt_name" />
		<tag k="name" v="Haugsenga;Enga" />
		<tag k="place" v="farm" />
		<tag k="ssr:stedsnr" v="126355" />
	</node>
	<node lat="60.20044166712895" lon="10.332150006808147" id="-12665">
		<tag k="name" v="Viul" />
		<tag k="place" v="farm" />
		<tag k="ssr:stedsnr" v="126545" />
	</node>
	<node lat="60.37063888519853" lon="10.177216673631694" id="-12667">
		<tag k="name" v="Vika" />
		<tag k="place" v="isolated_dwelling" />
		<tag k="ssr:stedsnr" v="126605" />
	</node>
	<node lat="60.14847659526441" lon="10.29431786914706" id="-12668">
		<tag k="name" v="Brådalen" />
		<tag k="place" v="farm" />
		<tag k="ssr:stedsnr" v="126609" />
	</node>
	<node lat="60.13678888675197" lon="10.33207499236207" id="-12669">
		<tag k="fixme" v="consider place=hamlet" />
		<tag k="name" v="Nordby" />
		<tag k="place" v="farm" />
		<tag k="ssr:stedsnr" v="126649" />
	</node>
	<node lat="60.243955558026485" lon="10.067166670945383" id="-12673">
		<tag k="name" v="Kasino" />
		<tag k="place" v="isolated_dwelling" />
		<tag k="ssr:stedsnr" v="126996" />
	</node>
	<node lat="60.13363065239125" lon="10.354702638383324" id="-12674">
		<tag k="fixme" v="consider place=hamlet" />
		<tag k="name" v="Pålsrud" />
		<tag k="place" v="farm" />
		<tag k="ssr:stedsnr" v="127104" />
	</node>
	<node lat="60.46463703646924" lon="10.02172187197277" id="-12676">
		<tag k="fixme" v="consider place=hamlet" />
		<tag k="name" v="Elsrud" />
		<tag k="place" v="farm" />
		<tag k="ssr:stedsnr" v="127608" />
	</node>
	<node lat="60.25788943951662" lon="10.097280004461345" id="-12679">
		<tag k="alt_name" v="Ellingsætra" />
		<tag k="historic" v="shieling" />
		<tag k="name" v="Ellingsetra" />
		<tag k="place" v="isolated_dwelling" />
		<tag k="ssr:stedsnr" v="127347" />
	</node>
	<node lat="60.42138610884477" lon="10.157683324328953" id="-12680">
		<tag k="alt_name" v="Noahytta" />
		<tag k="name" v="Noa" />
		<tag k="place" v="isolated_dwelling" />
		<tag k="ssr:stedsnr" v="127395" />
	</node>
	<node lat="60.29962500294413" lon="10.157394445667023" id="-12682">
		<tag k="name" v="Haugland" />
		<tag k="place" v="farm" />
		<tag k="ssr:stedsnr" v="127397" />
	</node>
	<node lat="60.199515468577815" lon="10.368414563984466" id="-12684">
		<tag k="name" v="Gunnersby" />
		<tag k="place" v="farm" />
		<tag k="ssr:stedsnr" v="127513" />
	</node>
	<node lat="60.474663890070026" lon="10.129002773910106" id="-12687">
		<tag k="historic" v="shieling" />
		<tag k="name" v="Stormyrsetra" />
		<tag k="place" v="isolated_dwelling" />
		<tag k="ssr:stedsnr" v="127596" />
	</node>
	<node lat="60.31268333783143" lon="9.753011104788186" id="-12690">
		<tag k="name" v="Øvre Brekka" />
		<tag k="place" v="isolated_dwelling" />
		<tag k="ssr:stedsnr" v="127844" />
	</node>
	<node lat="60.45773333271137" lon="9.831380560162108" id="-12695">
		<tag k="name" v="Gravvasshytta" />
		<tag k="place" v="isolated_dwelling" />
		<tag k="ssr:stedsnr" v="127906" />
	</node>
	<node lat="60.41068611311775" lon="9.834811115898829" id="-12697">
		<tag k="name" v="Storkastet" />
		<tag k="place" v="isolated_dwelling" />
		<tag k="ssr:stedsnr" v="127954" />
	</node>
	<node lat="60.54452222189619" lon="9.969772227252275" id="-12699">
		<tag k="alt_name" v="Løken;Søndre Løken" />
		<tag k="name" v="Søre Løken" />
		<tag k="place" v="farm" />
		<tag k="ssr:stedsnr" v="128534" />
	</node>
	<node lat="60.557800002515556" lon="10.085863889419262" id="-12703">
		<tag k="name" v="Åsbråtån" />
		<tag k="place" v="isolated_dwelling" />
		<tag k="ssr:stedsnr" v="128501" />
	</node>
	<node lat="60.63616666572653" lon="9.971277780834038" id="-12704">
		<tag k="alt_name" v="Damhytta" />
		<tag k="name" v="Saghytta" />
		<tag k="place" v="isolated_dwelling" />
		<tag k="ssr:stedsnr" v="128610" />
	</node>
	<node lat="60.16913611049171" lon="10.49596666896437" id="-12709">
		<tag k="fixme" v="consider tourism=alpine_hut or tourism=chalet" />
		<tag k="name" v="Sinnerdammen" />
		<tag k="ssr:stedsnr" v="146123" />
		<tag k="tourism" v="wilderness_hut" />
	</node>
	<node lat="60.1629222196805" lon="10.301366659478859" id="-12712">
		<tag k="name" v="Søndre Sætrang" />
		<tag k="place" v="farm" />
		<tag k="ssr:stedsnr" v="146502" />
	</node>
	<node lat="60.129855553695" lon="10.260263880300274" id="-12718">
		<tag k="name" v="Haugen" />
		<tag k="place" v="isolated_dwelling" />
		<tag k="ssr:stedsnr" v="147106" />
	</node>
	<node lat="60.11094721908474" lon="10.138591663502615" id="-12728">
		<tag k="name" v="Øvre Veholt" />
		<tag k="place" v="farm" />
		<tag k="ssr:stedsnr" v="148010" />
	</node>
	<node lat="60.126933335497476" lon="10.217577783467245" id="-12734">
		<tag k="name" v="Seterstøa" />
		<tag k="place" v="locality" />
		<tag k="ssr:stedsnr" v="148309" />
	</node>
	<node lat="60.602755552463826" lon="10.039811108810163" id="-12738">
		<tag k="historic" v="shieling" />
		<tag k="name" v="Hengslesetra" />
		<tag k="place" v="isolated_dwelling" />
		<tag k="ssr:stedsnr" v="149537" />
	</node>
	<node lat="60.26868333012597" lon="10.187405561182857" id="-12748">
		<tag k="name" v="Dølerud" />
		<tag k="place" v="farm" />
		<tag k="ssr:stedsnr" v="149873" />
	</node>
	<node lat="60.442516665992365" lon="10.085491674105233" id="-12749">
		<tag k="name" v="Solhaug" />
		<tag k="place" v="farm" />
		<tag k="ssr:stedsnr" v="149702" />
	</node>
	<node lat="60.04194444669481" lon="10.026313882197753" id="-12752">
		<tag k="name" v="Bakken" />
		<tag k="place" v="farm" />
		<tag k="ssr:stedsnr" v="150075" />
	</node>
	<node lat="60.20211944766908" lon="10.065136105719551" id="-12770">
		<tag k="name" v="Åsland" />
		<tag k="place" v="farm" />
		<tag k="ssr:stedsnr" v="150775" />
	</node>
	<node lat="60.202722219690465" lon="9.895555546580232" id="-12783">
		<tag k="name" v="Mellomsetra" />
		<tag k="place" v="locality" />
		<tag k="ssr:stedsnr" v="151170" />
	</node>
	<node lat="60.15697222247767" lon="10.394077785358379" id="-12800">
		<tag k="historic" v="shieling" />
		<tag k="name" v="Ringkollsetra" />
		<tag k="place" v="isolated_dwelling" />
		<tag k="ssr:stedsnr" v="174008" />
	</node>
	<node lat="60.082510810477025" lon="10.101066893119373" id="-12808">
		<tag k="alt_name" v="Kinna;Kind" />
		<tag k="fixme" v="consider place=hamlet" />
		<tag k="name" v="Kinn" />
		<tag k="place" v="farm" />
		<tag k="ssr:stedsnr" v="186304" />
	</node>
	<node lat="60.151038892412835" lon="10.199702776880649" id="-12809">
		<tag k="loc_name" v="Smeden" />
		<tag k="name" v="Smedplassen" />
		<tag k="place" v="farm" />
		<tag k="ssr:stedsnr" v="186685" />
	</node>
	<node lat="60.213899997443185" lon="10.022525008027612" id="-12810">
		<tag k="name" v="Plassen" />
		<tag k="place" v="farm" />
		<tag k="ssr:stedsnr" v="186593" />
	</node>
	<node lat="60.1248274126005" lon="10.28089501123763" id="-12812">
		<tag k="fixme" v="consider place=hamlet" />
		<tag k="name" v="Gile" />
		<tag k="place" v="farm" />
		<tag k="ssr:stedsnr" v="186746" />
	</node>
	<node lat="60.24320833021845" lon="10.16782500662261" id="-12813">
		<tag k="name" v="Nordre Semmen" />
		<tag k="place" v="farm" />
		<tag k="ssr:stedsnr" v="186984" />
	</node>
	<node lat="60.18644092208747" lon="10.363134001194325" id="-12815">
		<tag k="fixme" v="consider place=hamlet" />
		<tag k="name" v="Stigsrud" />
		<tag k="place" v="farm" />
		<tag k="ssr:stedsnr" v="187028" />
	</node>
	<node lat="60.19639502509001" lon="10.18059940752838" id="-12818">
		<tag k="name" v="Granum" />
		<tag k="place" v="farm" />
		<tag k="ssr:stedsnr" v="187511" />
	</node>
	<node lat="60.19947777514479" lon="10.148725001387549" id="-12819">
		<tag k="alt_name" v="Tveiten" />
		<tag k="loc_name" v="Ner-Tveita" />
		<tag k="name" v="Tveita" />
		<tag k="place" v="farm" />
		<tag k="ssr:stedsnr" v="187514" />
	</node>
	<node lat="60.13778611558315" lon="10.210097215220536" id="-12820">
		<tag k="name" v="Korsdalen" />
		<tag k="place" v="farm" />
		<tag k="ssr:stedsnr" v="187640" />
	</node>
	<node lat="60.17594625658733" lon="9.882759889735066" id="-12821">
		<tag k="fixme" v="consider tourism=alpine_hut or tourism=chalet" />
		<tag k="name" v="Grønknutkoia" />
		<tag k="ssr:stedsnr" v="187730" />
		<tag k="tourism" v="wilderness_hut" />
	</node>
	<node lat="60.30401666673584" lon="10.177980553710187" id="-12823">
		<tag k="name" v="Tørrharden" />
		<tag k="place" v="farm" />
		<tag k="ssr:stedsnr" v="188417" />
	</node>
	<node lat="60.26773055871716" lon="10.009594450881504" id="-12825">
		<tag k="historic" v="shieling" />
		<tag k="name" v="Bårnåssetra" />
		<tag k="place" v="isolated_dwelling" />
		<tag k="ssr:stedsnr" v="188478" />
	</node>
	<node lat="60.44551388901339" lon="10.04911111944604" id="-12830">
		<tag k="name" v="Sandvika" />
		<tag k="place" v="farm" />
		<tag k="ssr:stedsnr" v="188377" />
	</node>
	<node lat="60.42416111440712" lon="10.066169438580761" id="-12831">
		<tag k="name" v="Støa" />
		<tag k="place" v="farm" />
		<tag k="ssr:stedsnr" v="188384" />
	</node>
	<node lat="60.37971431310302" lon="10.058484012202205" id="-12836">
		<tag k="fixme" v="consider place=hamlet" />
		<tag k="name" v="Gunbjørrud" />
		<tag k="place" v="farm" />
		<tag k="ssr:stedsnr" v="188568" />
	</node>
	<node lat="60.26843333715978" lon="9.886877773082016" id="-12840">
		<tag k="name" v="Myggbu" />
		<tag k="place" v="isolated_dwelling" />
		<tag k="ssr:stedsnr" v="188672" />
	</node>
	<node lat="60.3397777794476" lon="9.903502781351792" id="-12842">
		<tag k="name" v="Baklistua" />
		<tag k="place" v="isolated_dwelling" />
		<tag k="ssr:stedsnr" v="188880" />
	</node>
	<node lat="60.6048388873067" lon="9.972272217046545" id="-12853">
		<tag k="name" v="Fagernes" />
		<tag k="place" v="farm" />
		<tag k="ssr:stedsnr" v="189609" />
	</node>
	<node lat="60.56035833362557" lon="9.941727779523701" id="-12854">
		<tag k="alt_name" v="Heggerustad" />
		<tag k="name" v="Heggerudstad" />
		<tag k="place" v="farm" />
		<tag k="ssr:stedsnr" v="189819" />
	</node>
	<node lat="60.34502418840362" lon="9.854367991251287" id="-12856">
		<tag k="fixme" v="consider place=hamlet" />
		<tag k="name" v="Strømsodd" />
		<tag k="old_name" v="Strømsod" />
		<tag k="place" v="farm" />
		<tag k="ssr:stedsnr" v="265950" />
	</node>
	<node lat="60.307063885496376" lon="10.17373055663092" id="-12869">
		<tag k="alt_name" v="Somdalen østre" />
		<tag k="name" v="Østre Somdalen" />
		<tag k="place" v="farm" />
		<tag k="ssr:stedsnr" v="268649" />
	</node>
	<node lat="60.18214444422878" lon="10.328799999261866" id="-12870">
		<tag k="name" v="Møya" />
		<tag k="place" v="isolated_dwelling" />
		<tag k="ssr:stedsnr" v="206889" />
	</node>
	<node lat="60.23004444820722" lon="9.95907777964106" id="-12871">
		<tag k="name" v="Pukerudhagen" />
		<tag k="place" v="quarter" />
		<tag k="ssr:stedsnr" v="206851" />
	</node>
	<node lat="60.17278888876067" lon="10.221844451459402" id="-12881">
		<tag k="amenity" v="kindergarten" />
		<tag k="name" v="Veien barnehage" />
		<tag k="ssr:stedsnr" v="208003" />
	</node>
	<node lat="60.12215505797366" lon="10.39574705703332" id="-12883">
		<tag k="name" v="Nedre Stubbdal" />
		<tag k="place" v="farm" />
		<tag k="ssr:stedsnr" v="208043" />
	</node>
	<node lat="60.13104167068779" lon="10.268522216905883" id="-12884">
		<tag k="name" v="Prestegården" />
		<tag k="place" v="farm" />
		<tag k="ssr:stedsnr" v="208092" />
	</node>
	<node lat="60.50131944399339" lon="10.075788880176141" id="-12885">
		<tag k="name" v="Bekkevoll" />
		<tag k="place" v="farm" />
		<tag k="ssr:stedsnr" v="208192" />
	</node>
	<node lat="60.36173333176394" lon="10.212461117830552" id="-12899">
		<tag k="name" v="Kvernstusetra" />
		<tag k="place" v="locality" />
		<tag k="ssr:stedsnr" v="208990" />
	</node>
	<node lat="60.23356666430235" lon="10.166391671921566" id="-12900">
		<tag k="name" v="Abelgård" />
		<tag k="place" v="farm" />
		<tag k="ssr:stedsnr" v="269022" />
	</node>
	<node lat="60.58120832963851" lon="10.078155549157712" id="-12901">
		<tag k="historic" v="shieling" />
		<tag k="name" v="Granumsetra" />
		<tag k="place" v="isolated_dwelling" />
		<tag k="ssr:stedsnr" v="269139" />
	</node>
	<node lat="60.521822219094894" lon="10.087525003950052" id="-12906">
		<tag k="fixme" v="consider place=hamlet" />
		<tag k="name" v="Åset" />
		<tag k="place" v="farm" />
		<tag k="ssr:stedsnr" v="269221" />
	</node>
	<node lat="60.1520444408131" lon="10.33034722322457" id="-12912">
		<tag k="name" v="Vakermoen og Li skog" />
		<tag k="place" v="locality" />
		<tag k="ssr:stedsnr" v="269643" />
	</node>
	<node lat="60.42293055204665" lon="10.048661114583675" id="-12925">
		<tag k="name" v="Solumshytta" />
		<tag k="place" v="isolated_dwelling" />
		<tag k="ssr:stedsnr" v="211414" />
	</node>
	<node lat="60.22360278131914" lon="10.206363887419533" id="-12927">
		<tag k="name" v="Haugen" />
		<tag k="place" v="farm" />
		<tag k="ssr:stedsnr" v="269472" />
	</node>
	<node lat="60.44198611390523" lon="10.0357361059172" id="-12928">
		<tag k="name" v="Kokeplassen" />
		<tag k="place" v="isolated_dwelling" />
		<tag k="ssr:stedsnr" v="211339" />
	</node>
	<node lat="60.51909017242501" lon="9.845210580055275" id="-12929">
		<tag k="historic" v="shieling" />
		<tag k="name" v="Nedre Fjellsetra" />
		<tag k="place" v="isolated_dwelling" />
		<tag k="ssr:stedsnr" v="211342" />
	</node>
	<node lat="60.50564722580543" lon="9.825041674628231" id="-12931">
		<tag k="historic" v="shieling" />
		<tag k="name" v="Rullebu" />
		<tag k="place" v="isolated_dwelling" />
		<tag k="ssr:stedsnr" v="211395" />
	</node>
	<node lat="60.632250002585394" lon="9.909544438806302" id="-12941">
		<tag k="name" v="Oppheim" />
		<tag k="place" v="farm" />
		<tag k="ssr:stedsnr" v="211882" />
	</node>
	<node lat="60.193955556640184" lon="10.227038887990823" id="-12953">
		<tag k="name" v="Kileenga" />
		<tag k="place" v="isolated_dwelling" />
		<tag k="ssr:stedsnr" v="328151" />
	</node>
	<node lat="60.15223055696998" lon="10.30306943688469" id="-12959">
		<tag k="name" v="Heimsyn" />
		<tag k="place" v="farm" />
		<tag k="ssr:stedsnr" v="269886" />
	</node>
	<node lat="60.148479234904435" lon="10.30093711061197" id="-12960">
		<tag k="name" v="Gullerud" />
		<tag k="place" v="farm" />
		<tag k="ssr:stedsnr" v="269887" />
	</node>
	<node lat="60.596986110014484" lon="10.0621138964143" id="-12963">
		<tag k="name" v="Gravlimohytta" />
		<tag k="place" v="isolated_dwelling" />
		<tag k="ssr:stedsnr" v="270534" />
	</node>
	<node lat="60.12575277787001" lon="10.139716671145775" id="-12966">
		<tag k="name" v="Kornrud" />
		<tag k="place" v="farm" />
		<tag k="ssr:stedsnr" v="271042" />
	</node>
	<node lat="60.45349444528102" lon="10.021158339042417" id="-12973">
		<tag k="name" v="Storvikenga" />
		<tag k="place" v="locality" />
		<tag k="ssr:stedsnr" v="271368" />
	</node>
	<node lat="60.37251944880239" lon="10.083238884001744" id="-12981">
		<tag k="name" v="Nedre Vollen" />
		<tag k="place" v="farm" />
		<tag k="ssr:stedsnr" v="271643" />
	</node>
	<node lat="60.38185277891202" lon="10.082930560338019" id="-12983">
		<tag k="name" v="Lykkja" />
		<tag k="place" v="farm" />
		<tag k="ssr:stedsnr" v="271654" />
	</node>
	<node lat="60.45560555211406" lon="10.020750003480988" id="-12991">
		<tag k="name" v="Hansebråtahaugen" />
		<tag k="place" v="farm" />
		<tag k="ssr:stedsnr" v="271862" />
	</node>
	<node lat="60.20632500184648" lon="10.086430558253419" id="-12996">
		<tag k="fixme" v="consider place=hamlet" />
		<tag k="name" v="Veme" />
		<tag k="place" v="village" />
		<tag k="ssr:stedsnr" v="449512" />
	</node>
	<node lat="60.243422534888296" lon="9.962579993225276" id="-12997">
		<tag k="name" v="Søndre Røsby" />
		<tag k="place" v="farm" />
		<tag k="ssr:stedsnr" v="449835" />
	</node>
	<node lat="60.14151944875069" lon="10.313969445123838" id="-12998">
		<tag k="name" v="Grønli" />
		<tag k="place" v="isolated_dwelling" />
		<tag k="ssr:stedsnr" v="449849" />
	</node>
	<node lat="60.18710833410161" lon="10.329116664300033" id="-12999">
		<tag k="name" v="Knestang" />
		<tag k="place" v="farm" />
		<tag k="ssr:stedsnr" v="449854" />
	</node>
	<node lat="60.096941667411585" lon="10.41188612006274" id="-13005">
		<tag k="name" v="Kulpåshytta" />
		<tag k="place" v="isolated_dwelling" />
		<tag k="ssr:stedsnr" v="450033" />
	</node>
	<node lat="60.53247222053524" lon="10.089797222603421" id="-13010">
		<tag k="name" v="Bakken" />
		<tag k="place" v="farm" />
		<tag k="ssr:stedsnr" v="450193" />
	</node>
	<node lat="60.3723916705672" lon="9.906825004438586" id="-13012">
		<tag k="historic" v="shieling" />
		<tag k="name" v="Venekoll" />
		<tag k="place" v="isolated_dwelling" />
		<tag k="ssr:stedsnr" v="235813" />
	</node>
	<node lat="60.16167896045849" lon="10.2899740226055" id="-13021">
		<tag k="name" v="Krakstad" />
		<tag k="place" v="farm" />
		<tag k="ssr:stedsnr" v="450558" />
	</node>
	<node lat="60.137841668041" lon="10.297222228714146" id="-13025">
		<tag k="name" v="Vestre Vaker" />
		<tag k="place" v="farm" />
		<tag k="ssr:stedsnr" v="450892" />
	</node>
	<node lat="60.57161111091029" lon="10.041597231111975" id="-13030">
		<tag k="historic" v="shieling" />
		<tag k="name" v="Granumsetra" />
		<tag k="place" v="isolated_dwelling" />
		<tag k="ssr:stedsnr" v="451153" />
	</node>
	<node lat="60.21461944556425" lon="10.192922221780533" id="-13043">
		<tag k="name" v="Nygård" />
		<tag k="place" v="farm" />
		<tag k="ssr:stedsnr" v="451455" />
	</node>
	<node lat="60.20466698754118" lon="10.142270503153705" id="-13044">
		<tag k="alt_name" v="Kjeldero;Roa" />
		<tag k="loc_name" v="Kjellaroa" />
		<tag k="name" v="Kjellero" />
		<tag k="old_name" v="Kjellera" />
		<tag k="place" v="farm" />
		<tag k="ssr:stedsnr" v="451481" />
	</node>
	<node lat="60.18600832968229" lon="9.935113889474326" id="-13052">
		<tag k="name" v="Modalssetra" />
		<tag k="place" v="locality" />
		<tag k="ssr:stedsnr" v="247121" />
	</node>
	<node lat="60.08795833159112" lon="9.990874999733684" id="-13053">
		<tag k="historic" v="shieling" />
		<tag k="name" v="Vesetrudvollen" />
		<tag k="place" v="isolated_dwelling" />
		<tag k="ssr:stedsnr" v="247263" />
	</node>
	<node lat="60.083900001115985" lon="10.089858326678428" id="-13055">
		<tag k="name" v="Kinnsåsen" />
		<tag k="place" v="quarter" />
		<tag k="ssr:stedsnr" v="247280" />
	</node>
	<node lat="60.20481110773879" lon="10.02772499142185" id="-13056">
		<tag k="name" v="Gulstøveren" />
		<tag k="place" v="farm" />
		<tag k="ssr:stedsnr" v="247506" />
	</node>
	<node lat="60.20240833322927" lon="9.986838893692372" id="-13057">
		<tag k="name" v="Kittelsby" />
		<tag k="place" v="farm" />
		<tag k="ssr:stedsnr" v="247508" />
	</node>
	<node lat="60.19635068730002" lon="10.277661516913636" id="-13058">
		<tag k="fixme" v="consider place=hamlet" />
		<tag k="name" v="Nærstad" />
		<tag k="place" v="farm" />
		<tag k="ssr:stedsnr" v="247516" />
	</node>
	<node lat="60.18696807322081" lon="10.191836784794646" id="-13060">
		<tag k="fixme" v="consider place=hamlet" />
		<tag k="name" v="Heradsbygda" />
		<tag k="place" v="village" />
		<tag k="ssr:stedsnr" v="247557" />
	</node>
	<node lat="60.155319447138446" lon="10.30988889171313" id="-13064">
		<tag k="alt_name" v="Moløkken" />
		<tag k="name" v="Moløkka" />
		<tag k="place" v="farm" />
		<tag k="ssr:stedsnr" v="247615" />
	</node>
	<node lat="60.13356264180832" lon="10.271259859109215" id="-13065">
		<tag k="name" v="Ringvoll" />
		<tag k="place" v="farm" />
		<tag k="ssr:stedsnr" v="247656" />
	</node>
	<node lat="60.231044443226224" lon="9.916222216858365" id="-13071">
		<tag k="name" v="Jonerud" />
		<tag k="place" v="farm" />
		<tag k="ssr:stedsnr" v="248211" />
	</node>
	<node lat="60.29698055897827" lon="10.17564721389332" id="-13075">
		<tag k="alt_name" v="Vestre Odda" />
		<tag k="name" v="Odda" />
		<tag k="place" v="farm" />
		<tag k="ssr:stedsnr" v="248355" />
	</node>
	<node lat="60.33470833625879" lon="10.112916663332134" id="-13077">
		<tag k="name" v="Midthaug" />
		<tag k="place" v="farm" />
		<tag k="ssr:stedsnr" v="248429" />
	</node>
	<node lat="60.32090000226822" lon="10.141636103696412" id="-13078">
		<tag k="alt_name" v="Hvitmyr" />
		<tag k="name" v="Kvitmyr" />
		<tag k="place" v="farm" />
		<tag k="ssr:stedsnr" v="248467" />
	</node>
	<node lat="60.38716110847769" lon="10.140488886379607" id="-13079">
		<tag k="name" v="Villaen" />
		<tag k="place" v="isolated_dwelling" />
		<tag k="ssr:stedsnr" v="248500" />
	</node>
	<node lat="60.480966669507986" lon="10.07265277825721" id="-13082">
		<tag k="name" v="Persvoll" />
		<tag k="place" v="farm" />
		<tag k="ssr:stedsnr" v="248711" />
	</node>
	<node lat="60.30748146495874" lon="9.852816158020474" id="-13088">
		<tag k="fixme" v="consider place=hamlet" />
		<tag k="name" v="Enger" />
		<tag k="place" v="farm" />
		<tag k="ssr:stedsnr" v="248858" />
	</node>
	<node lat="60.25837500314952" lon="10.260130557845748" id="-13095">
		<tag k="name" v="Solheimhytta" />
		<tag k="place" v="isolated_dwelling" />
		<tag k="ssr:stedsnr" v="249328" />
	</node>
	<node lat="60.33713407612528" lon="9.919079437749343" id="-13105">
		<tag k="name" v="Viks hotell" />
		<tag k="place" v="isolated_dwelling" />
		<tag k="ssr:stedsnr" v="454909" />
	</node>
	<node lat="60.40205277497848" lon="10.072363880437143" id="-13107">
		<tag k="name" v="Bratli" />
		<tag k="place" v="farm" />
		<tag k="ssr:stedsnr" v="453528" />
	</node>
	<node lat="60.272653798364615" lon="10.143688010892511" id="-13108">
		<tag k="name" v="Heggen" />
		<tag k="place" v="farm" />
		<tag k="ssr:stedsnr" v="453827" />
	</node>
	<node lat="60.22910446966352" lon="9.934615234970899" id="-13118">
		<tag k="name" v="Hallinghaugen" />
		<tag k="place" v="farm" />
		<tag k="ssr:stedsnr" v="453858" />
	</node>
	<node lat="60.12710833205993" lon="10.13199165784877" id="-13123">
		<tag k="name" v="Skolemesterrud" />
		<tag k="place" v="farm" />
		<tag k="ssr:stedsnr" v="454035" />
	</node>
	<node lat="60.55561633013632" lon="9.897539215884532" id="-13127">
		<tag k="name" v="Flatbråten" />
		<tag k="place" v="farm" />
		<tag k="ssr:stedsnr" v="454312" />
	</node>
	<node lat="60.514352781466044" lon="9.9017916652206" id="-13130">
		<tag k="historic" v="shieling" />
		<tag k="name" v="Haugastøl" />
		<tag k="place" v="isolated_dwelling" />
		<tag k="ssr:stedsnr" v="454340" />
	</node>
	<node lat="60.27830277858652" lon="10.05471388865917" id="-13157">
		<tag k="name" v="Nilsevollen" />
		<tag k="place" v="locality" />
		<tag k="ssr:stedsnr" v="454860" />
	</node>
	<node lat="60.28213055434684" lon="9.88041944016635" id="-13162">
		<tag k="name" v="Kroksrudsetra" />
		<tag k="place" v="locality" />
		<tag k="ssr:stedsnr" v="455190" />
	</node>
	<node lat="60.10908055366046" lon="10.095777779503441" id="-13169">
		<tag k="name" v="Nordhagen" />
		<tag k="place" v="isolated_dwelling" />
		<tag k="ssr:stedsnr" v="267086" />
	</node>
	<node lat="60.19590832892642" lon="10.263497219040115" id="-13172">
		<tag k="name" v="Børdalen" />
		<tag k="place" v="isolated_dwelling" />
		<tag k="ssr:stedsnr" v="267628" />
	</node>
	<node lat="60.25082500401676" lon="9.93314125292095" id="-13174">
		<tag k="amenity" v="nursing_home" />
		<tag k="name" v="Sokna syke- og aldershjem" />
		<tag k="ssr:stedsnr" v="267880" />
	</node>
	<node lat="60.14098055209976" lon="10.3077111026008" id="-13175">
		<tag k="name" v="Øljordet" />
		<tag k="place" v="isolated_dwelling" />
		<tag k="ssr:stedsnr" v="267893" />
	</node>
	<node lat="60.13784892153836" lon="10.299928107361715" id="-13176">
		<tag k="alt_name" v="Store Vaker" />
		<tag k="name" v="Nordre Vaker" />
		<tag k="place" v="farm" />
		<tag k="ssr:stedsnr" v="267897" />
	</node>
	<node lat="60.1837369997363" lon="10.33564411074346" id="-13177">
		<tag k="name" v="Auren" />
		<tag k="place" v="farm" />
		<tag k="ssr:stedsnr" v="267902" />
	</node>
	<node lat="60.18567500197466" lon="10.342488880889475" id="-13178">
		<tag k="name" v="Kolhus" />
		<tag k="place" v="isolated_dwelling" />
		<tag k="ssr:stedsnr" v="267929" />
	</node>
	<node lat="60.529605555995985" lon="10.091158328703282" id="-13179">
		<tag k="name" v="Lundeløkka" />
		<tag k="place" v="farm" />
		<tag k="ssr:stedsnr" v="268203" />
	</node>
	<node lat="60.22210555529251" lon="10.179955552382568" id="-13187">
		<tag k="name" v="Bendikplassen" />
		<tag k="place" v="farm" />
		<tag k="ssr:stedsnr" v="269031" />
	</node>
	<node lat="60.202697222494585" lon="10.34111944709226" id="-13199">
		<tag k="building" v="industrial" />
		<tag k="industrial" v="factory" />
		<tag k="name" v="A/S Viul tresliperi" />
		<tag k="ssr:stedsnr" v="269786" />
	</node>
	<node lat="60.14342222433363" lon="10.277586114226906" id="-13201">
		<tag k="name" v="Granmoen" />
		<tag k="place" v="isolated_dwelling" />
		<tag k="ssr:stedsnr" v="269908" />
	</node>
	<node lat="60.15353888782968" lon="10.184322220649666" id="-13207">
		<tag k="name" v="Molstad" />
		<tag k="place" v="farm" />
		<tag k="ssr:stedsnr" v="270884" />
	</node>
	<node lat="60.12810833763435" lon="10.157163885046227" id="-13209">
		<tag k="name" v="Lindestrand" />
		<tag k="place" v="isolated_dwelling" />
		<tag k="ssr:stedsnr" v="270993" />
	</node>
	<node lat="60.11818610747022" lon="10.213611110749008" id="-13210">
		<tag k="name" v="Gomserud" />
		<tag k="place" v="farm" />
		<tag k="ssr:stedsnr" v="270999" />
	</node>
	<node lat="60.54930833719088" lon="9.832641671241992" id="-13227">
		<tag k="name" v="Lindelia" />
		<tag k="place" v="farm" />
		<tag k="ssr:stedsnr" v="272286" />
	</node>
	<node lat="60.20178610838829" lon="10.232766659720715" id="-13250">
		<tag k="name" v="Kilemoen" />
		<tag k="place" v="quarter" />
		<tag k="ssr:stedsnr" v="294616" />
	</node>
	<node lat="60.13536872999977" lon="10.168023546202562" id="-13251">
		<tag k="fixme" v="consider place=hamlet" />
		<tag k="name" v="Ask" />
		<tag k="place" v="village" />
		<tag k="ssr:stedsnr" v="294907" />
	</node>
	<node lat="60.215973883046516" lon="9.959240256213176" id="-13258">
		<tag k="fixme" v="consider place=hamlet" />
		<tag k="name" v="Modalen" />
		<tag k="place" v="farm" />
		<tag k="ssr:stedsnr" v="307197" />
	</node>
	<node lat="60.17276666996164" lon="10.187183339294073" id="-13261">
		<tag k="name" v="Buringrud" />
		<tag k="place" v="farm" />
		<tag k="ssr:stedsnr" v="307623" />
	</node>
	<node lat="60.23587500030146" lon="9.78450278481085" id="-13265">
		<tag k="name" v="Tangane" />
		<tag k="place" v="isolated_dwelling" />
		<tag k="ssr:stedsnr" v="308204" />
	</node>
	<node lat="60.23935141253985" lon="9.926948238034008" id="-13267">
		<tag k="name" v="Sokna" />
		<tag k="place" v="village" />
		<tag k="ssr:stedsnr" v="308208" />
	</node>
	<node lat="60.238223173818945" lon="9.938130856856239" id="-13268">
		<tag k="fixme" v="consider place=hamlet" />
		<tag k="name" v="Hovland" />
		<tag k="place" v="farm" />
		<tag k="ssr:stedsnr" v="308210" />
	</node>
	<node lat="60.2023250040503" lon="9.950649999137463" id="-13271">
		<tag k="name" v="Bekkely" />
		<tag k="place" v="isolated_dwelling" />
		<tag k="ssr:stedsnr" v="308145" />
	</node>
	<node lat="60.20631770111019" lon="10.293862188501341" id="-13273">
		<tag k="name" v="Hamborg" />
		<tag k="place" v="locality" />
		<tag k="ssr:stedsnr" v="308502" />
	</node>
	<node lat="60.223355799346194" lon="10.213224058260638" id="-13276">
		<tag k="alt_name" v="Hen Nordre" />
		<tag k="name" v="Hen" />
		<tag k="place" v="farm" />
		<tag k="ssr:stedsnr" v="308495" />
	</node>
	<node lat="60.20586666831423" lon="10.017577770594547" id="-13277">
		<tag k="alt_name" v="Rolve-Støveren" />
		<tag k="name" v="Rolvestøveren" />
		<tag k="place" v="farm" />
		<tag k="ssr:stedsnr" v="308498" />
	</node>
	<node lat="60.247752233939295" lon="10.192306714169602" id="-13279">
		<tag k="fixme" v="consider place=hamlet" />
		<tag k="name" v="Grønvoll" />
		<tag k="old_name" v="Grønval" />
		<tag k="place" v="farm" />
		<tag k="ssr:stedsnr" v="308991" />
	</node>
	<node lat="60.24925278000081" lon="10.171600002910598" id="-13281">
		<tag k="fixme" v="multiple name tags, choose one and add the other to alt_name" />
		<tag k="name" v="Døvleng;Domningen" />
		<tag k="place" v="farm" />
		<tag k="ssr:stedsnr" v="308999" />
	</node>
	<node lat="60.442079572682175" lon="10.088780050701562" id="-13286">
		<tag k="fixme" v="consider place=hamlet" />
		<tag k="name" v="Buttingsrud" />
		<tag k="place" v="farm" />
		<tag k="ssr:stedsnr" v="309382" />
	</node>
	<node lat="60.28768610919091" lon="10.170227783435264" id="-13289">
		<tag k="alt_name" v="Røste, søndre;Søndre Røste" />
		<tag k="name" v="Søre Røste" />
		<tag k="place" v="farm" />
		<tag k="ssr:stedsnr" v="309431" />
	</node>
	<node lat="60.47248055611341" lon="10.029638895130974" id="-13295">
		<tag k="name" v="Øya" />
		<tag k="place" v="farm" />
		<tag k="ssr:stedsnr" v="309700" />
	</node>
	<node lat="60.365781294581865" lon="9.839624016786875" id="-13297">
		<tag k="alt_name" v="Søndre Åmot" />
		<tag k="name" v="Søre Åmot" />
		<tag k="place" v="farm" />
		<tag k="ssr:stedsnr" v="309742" />
	</node>
	<node lat="60.51363889061322" lon="10.084977783068219" id="-13301">
		<tag k="name" v="Svartbekk" />
		<tag k="place" v="farm" />
		<tag k="ssr:stedsnr" v="310487" />
	</node>
	<node lat="60.56429166434232" lon="9.97873610686969" id="-13303">
		<tag k="alt_name" v="Holte" />
		<tag k="name" v="Nordre Holte" />
		<tag k="place" v="farm" />
		<tag k="ssr:stedsnr" v="310607" />
	</node>
	<node lat="60.54977222230099" lon="10.024136113964586" id="-13305">
		<tag k="name" v="Kvitsand" />
		<tag k="place" v="isolated_dwelling" />
		<tag k="ssr:stedsnr" v="310509" />
	</node>
	<node lat="60.55151388886705" lon="10.095505551631145" id="-13306">
		<tag k="alt_name" v="Gamlesætra" />
		<tag k="historic" v="shieling" />
		<tag k="name" v="Gamleseterhytta" />
		<tag k="place" v="isolated_dwelling" />
		<tag k="ssr:stedsnr" v="310512" />
	</node>
	<node lat="60.556813376874146" lon="10.005992609727997" id="-13307">
		<tag k="fixme" v="consider place=hamlet" />
		<tag k="name" v="Lunde" />
		<tag k="place" v="farm" />
		<tag k="ssr:stedsnr" v="310527" />
	</node>
	<node lat="60.59241666773922" lon="9.998933337860493" id="-13309">
		<tag k="alt_name" v="Gravbråten" />
		<tag k="name" v="Gravbråtån" />
		<tag k="place" v="farm" />
		<tag k="ssr:stedsnr" v="310589" />
	</node>
	<node lat="60.56398333227209" lon="9.874241673036513" id="-13312">
		<tag k="historic" v="shieling" />
		<tag k="name" v="Liasetra" />
		<tag k="place" v="isolated_dwelling" />
		<tag k="ssr:stedsnr" v="310829" />
	</node>
	<node lat="60.55911110876363" lon="9.967308335407425" id="-13313">
		<tag k="name" v="Vestre Holte" />
		<tag k="place" v="farm" />
		<tag k="ssr:stedsnr" v="310834" />
	</node>
	<node lat="60.550602774252475" lon="9.828880552578282" id="-13314">
		<tag k="name" v="Bakke" />
		<tag k="place" v="farm" />
		<tag k="ssr:stedsnr" v="310844" />
	</node>
	<node lat="60.18512405780666" lon="10.326787107559257" id="-13321">
		<tag k="fixme" v="consider place=hamlet" />
		<tag k="name" v="Søndre Hval" />
		<tag k="place" v="farm" />
		<tag k="ssr:stedsnr" v="327856" />
	</node>
	<node lat="60.1803527735754" lon="10.339361109624166" id="-13322">
		<tag k="name" v="Bertelstua" />
		<tag k="place" v="isolated_dwelling" />
		<tag k="ssr:stedsnr" v="327903" />
	</node>
	<node lat="60.06716454079599" lon="10.03743737345686" id="-13323">
		<tag k="name" v="Åsterud" />
		<tag k="place" v="farm" />
		<tag k="ssr:stedsnr" v="328557" />
	</node>
	<node lat="60.165036111176185" lon="10.259733332510729" id="-13324">
		<tag k="leisure" v="park" />
		<tag k="name" v="Livbanen" />
		<tag k="ssr:stedsnr" v="328624" />
	</node>
	<node lat="60.16095241688077" lon="10.283614730040416" id="-13325">
		<tag k="name" v="Krakstad" />
		<tag k="place" v="farm" />
		<tag k="ssr:stedsnr" v="328657" />
	</node>
	<node lat="60.1305194410049" lon="10.28693611956388" id="-13327">
		<tag k="name" v="Nordre Veisten" />
		<tag k="place" v="farm" />
		<tag k="ssr:stedsnr" v="329111" />
	</node>
	<node lat="60.1782694480182" lon="10.276502781188972" id="-13334">
		<tag k="amenity" v="school" />
		<tag k="name" v="Kongshaugen" />
		<tag k="ssr:stedsnr" v="329805" />
	</node>
	<node lat="60.182580556129864" lon="10.266730563062918" id="-13335">
		<tag k="amenity" v="school" />
		<tag k="name" v="Hov ungdomsskole" />
		<tag k="ssr:stedsnr" v="329806" />
	</node>
	<node lat="60.139005556474146" lon="10.318699995279834" id="-13336">
		<tag k="alt_name" v="Ultvedt" />
		<tag k="name" v="Ultvet" />
		<tag k="place" v="farm" />
		<tag k="ssr:stedsnr" v="329861" />
	</node>
	<node lat="60.09538610678341" lon="10.125477774990033" id="-13339">
		<tag k="name" v="Snaketangen" />
		<tag k="place" v="farm" />
		<tag k="ssr:stedsnr" v="330005" />
	</node>
	<node lat="60.04119166863123" lon="10.524763892574445" id="-13340">
		<tag k="alt_name" v="Gråsæterhytta" />
		<tag k="name" v="Nedre Gråseterhytta" />
		<tag k="place" v="isolated_dwelling" />
		<tag k="ssr:stedsnr" v="330480" />
	</node>
	<node lat="60.06407500418408" lon="10.542536114685493" id="-13342">
		<tag k="name" v="Korsbekkhytta" />
		<tag k="place" v="isolated_dwelling" />
		<tag k="ssr:stedsnr" v="330492" />
	</node>
	<node lat="60.12111666464318" lon="10.233727769621334" id="-13346">
		<tag k="name" v="Søndre Frok" />
		<tag k="place" v="farm" />
		<tag k="ssr:stedsnr" v="331286" />
	</node>
	<node lat="60.43654722652053" lon="9.92938055440562" id="-13352">
		<tag k="name" v="Annetjernshytta" />
		<tag k="place" v="isolated_dwelling" />
		<tag k="ssr:stedsnr" v="332109" />
	</node>
	<node lat="60.43316388498557" lon="10.097916664464666" id="-13356">
		<tag k="name" v="Bergli" />
		<tag k="place" v="isolated_dwelling" />
		<tag k="ssr:stedsnr" v="332455" />
	</node>
	<node lat="60.20108889088315" lon="10.136361104050154" id="-13367">
		<tag k="name" v="Berget" />
		<tag k="place" v="farm" />
		<tag k="ssr:stedsnr" v="332751" />
	</node>
	<node lat="60.388100001718854" lon="10.077586109242059" id="-13372">
		<tag k="name" v="Sør-Finnsand" />
		<tag k="place" v="farm" />
		<tag k="ssr:stedsnr" v="332806" />
	</node>
	<node lat="60.18723814989719" lon="10.285435224058856" id="-13389">
		<tag k="name" v="Nedre Alme" />
		<tag k="place" v="farm" />
		<tag k="ssr:stedsnr" v="344862" />
	</node>
	<node lat="60.16319062745052" lon="10.210137234883906" id="-13391">
		<tag k="alt_name" v="Sørum Søndre" />
		<tag k="name" v="Søndre Sørum" />
		<tag k="place" v="farm" />
		<tag k="ssr:stedsnr" v="345777" />
	</node>
	<node lat="60.12786110857134" lon="10.398983333905486" id="-13395">
		<tag k="historic" v="shieling" />
		<tag k="name" v="Ingeborgsetra" />
		<tag k="place" v="isolated_dwelling" />
		<tag k="ssr:stedsnr" v="539052" />
	</node>
	<node lat="60.1514916669944" lon="10.532300008869488" id="-13396">
		<tag k="historic" v="shieling" />
		<tag k="name" v="Finnerudsetra" />
		<tag k="place" v="isolated_dwelling" />
		<tag k="ssr:stedsnr" v="356116" />
	</node>
	<node lat="60.150152780097336" lon="10.41142500348557" id="-13398">
		<tag k="historic" v="shieling" />
		<tag k="name" v="Borgersetra" />
		<tag k="place" v="isolated_dwelling" />
		<tag k="ssr:stedsnr" v="357013" />
	</node>
	<node lat="60.21586666665207" lon="10.2039416703799" id="-13402">
		<tag k="fixme" v="multiple name tags, choose one and add the other to alt_name" />
		<tag k="name" v="Stavlundsstøen;Støa" />
		<tag k="place" v="farm" />
		<tag k="ssr:stedsnr" v="478552" />
	</node>
	<node lat="60.215049999072434" lon="9.929000002949993" id="-13407">
		<tag k="name" v="Dalen" />
		<tag k="place" v="isolated_dwelling" />
		<tag k="ssr:stedsnr" v="368208" />
	</node>
	<node lat="60.448852777164426" lon="9.95481111624284" id="-13409">
		<tag k="historic" v="shieling" />
		<tag k="name" v="Vikersetra" />
		<tag k="place" v="isolated_dwelling" />
		<tag k="ssr:stedsnr" v="478896" />
	</node>
	<node lat="60.062819440247665" lon="10.032036105338571" id="-13410">
		<tag k="name" v="Svenskerud" />
		<tag k="place" v="farm" />
		<tag k="ssr:stedsnr" v="368374" />
	</node>
	<node lat="60.206627777635106" lon="10.251055550312586" id="-13411">
		<tag k="name" v="Lafton" />
		<tag k="place" v="farm" />
		<tag k="ssr:stedsnr" v="368587" />
	</node>
	<node lat="60.14722499679221" lon="10.32100278307269" id="-13414">
		<tag k="name" v="Hagan" />
		<tag k="place" v="farm" />
		<tag k="ssr:stedsnr" v="368668" />
	</node>
	<node lat="60.15856944287886" lon="10.316997221100197" id="-13415">
		<tag k="name" v="Putten" />
		<tag k="place" v="farm" />
		<tag k="ssr:stedsnr" v="368678" />
	</node>
	<node lat="60.14491389286987" lon="10.074225008491323" id="-13417">
		<tag k="historic" v="shieling" />
		<tag k="name" v="Hagasetra" />
		<tag k="place" v="isolated_dwelling" />
		<tag k="ssr:stedsnr" v="368684" />
	</node>
	<node lat="60.15698055600397" lon="10.176241666252904" id="-13418">
		<tag k="alt_name" v="Nordengen" />
		<tag k="name" v="Nordenga" />
		<tag k="place" v="farm" />
		<tag k="ssr:stedsnr" v="368688" />
	</node>
	<node lat="60.15590833477769" lon="10.245349993224215" id="-13419">
		<tag k="fixme" v="consider place=hamlet" />
		<tag k="name" v="Eikli" />
		<tag k="place" v="farm" />
		<tag k="ssr:stedsnr" v="368694" />
	</node>
	<node lat="60.15209722209805" lon="10.223383332757296" id="-13420">
		<tag k="name" v="Bærenga" />
		<tag k="place" v="farm" />
		<tag k="ssr:stedsnr" v="368696" />
	</node>
	<node lat="60.1816583343855" lon="10.350174993323433" id="-13421">
		<tag k="fixme" v="consider place=hamlet" />
		<tag k="name" v="Bølgen" />
		<tag k="place" v="farm" />
		<tag k="ssr:stedsnr" v="369023" />
	</node>
	<node lat="60.13205277550789" lon="10.365730557206152" id="-13423">
		<tag k="alt_name" v="Småbråten" />
		<tag k="name" v="Småbråtan" />
		<tag k="place" v="farm" />
		<tag k="ssr:stedsnr" v="369102" />
	</node>
	<node lat="60.243517578006355" lon="9.839096521279473" id="-13427">
		<tag k="alt_name" v="Bråten" />
		<tag k="name" v="Bråtan" />
		<tag k="place" v="isolated_dwelling" />
		<tag k="ssr:stedsnr" v="369209" />
	</node>
	<node lat="60.2331083819472" lon="9.873814342394459" id="-13429">
		<tag k="alt_name" v="Land" />
		<tag k="name" v="Øvre Land" />
		<tag k="place" v="farm" />
		<tag k="ssr:stedsnr" v="369221" />
	</node>
	<node lat="60.185275001326424" lon="10.356472219866205" id="-13431">
		<tag k="name" v="Smedsbøle" />
		<tag k="place" v="farm" />
		<tag k="ssr:stedsnr" v="369369" />
	</node>
	<node lat="60.34942885914734" lon="10.106781932345323" id="-13433">
		<tag k="fixme" v="consider place=hamlet" />
		<tag k="name" v="Fjøsvika" />
		<tag k="place" v="farm" />
		<tag k="ssr:stedsnr" v="369521" />
	</node>
	<node lat="60.37477777662654" lon="10.198163890730045" id="-13435">
		<tag k="name" v="Nedre Finneplassen" />
		<tag k="place" v="farm" />
		<tag k="ssr:stedsnr" v="369567" />
	</node>
	<node lat="60.36677777604694" lon="10.142641669582286" id="-13436">
		<tag k="name" v="Brålihytta" />
		<tag k="place" v="isolated_dwelling" />
		<tag k="ssr:stedsnr" v="369569" />
	</node>
	<node lat="60.440226444163656" lon="9.847617279112532" id="-13440">
		<tag k="name" v="Sandvassplassen" />
		<tag k="place" v="locality" />
		<tag k="ssr:stedsnr" v="369972" />
	</node>
	<node lat="60.440004346913696" lon="9.867540448980975" id="-13441">
		<tag k="name" v="Fiskehytta" />
		<tag k="place" v="isolated_dwelling" />
		<tag k="ssr:stedsnr" v="369975" />
	</node>
	<node lat="60.39637500040537" lon="10.076438890536007" id="-13443">
		<tag k="name" v="Hagan" />
		<tag k="place" v="farm" />
		<tag k="ssr:stedsnr" v="370318" />
	</node>
	<node lat="60.43459580752794" lon="10.060440193860396" id="-13444">
		<tag k="fixme" v="consider place=hamlet" />
		<tag k="name" v="Strande" />
		<tag k="place" v="farm" />
		<tag k="ssr:stedsnr" v="370409" />
	</node>
	<node lat="60.30279444524947" lon="10.191997226294442" id="-13445">
		<tag k="name" v="Simarud" />
		<tag k="place" v="farm" />
		<tag k="ssr:stedsnr" v="370426" />
	</node>
	<node lat="60.27409444421302" lon="10.15448611928089" id="-13446">
		<tag k="alt_name" v="Halstenrud" />
		<tag k="name" v="Halsteinrud" />
		<tag k="place" v="farm" />
		<tag k="ssr:stedsnr" v="370462" />
	</node>
	<node lat="60.32596666993742" lon="10.113649999261952" id="-13447">
		<tag k="name" v="Tangstua" />
		<tag k="place" v="farm" />
		<tag k="ssr:stedsnr" v="370509" />
	</node>
	<node lat="60.341391669374325" lon="10.09747222743933" id="-13448">
		<tag k="alt_name" v="Hagltjernsbråten" />
		<tag k="name" v="Hagltjernsbråtan" />
		<tag k="place" v="farm" />
		<tag k="ssr:stedsnr" v="370585" />
	</node>
	<node lat="60.362852781599805" lon="9.824958341534714" id="-13449">
		<tag k="name" v="Haugen" />
		<tag k="place" v="farm" />
		<tag k="ssr:stedsnr" v="370767" />
	</node>
	<node lat="60.2892671606242" lon="9.903774141508181" id="-13451">
		<tag k="name" v="Krokstad" />
		<tag k="place" v="isolated_dwelling" />
		<tag k="ssr:stedsnr" v="370678" />
	</node>
	<node lat="60.34280238068392" lon="9.858110084892601" id="-13458">
		<tag k="name" v="Søre Strømsodd" />
		<tag k="place" v="farm" />
		<tag k="ssr:stedsnr" v="370864" />
	</node>
	<node lat="60.09053474272481" lon="10.42668704332664" id="-13460">
		<tag k="fixme" v="consider tourism=alpine_hut or tourism=chalet" />
		<tag k="name" v="Løvlia" />
		<tag k="ssr:stedsnr" v="388468" />
		<tag k="tourism" v="wilderness_hut" />
	</node>
	<node lat="60.06063611013587" lon="10.028683331615468" id="-13461">
		<tag k="name" v="Engen" />
		<tag k="place" v="farm" />
		<tag k="ssr:stedsnr" v="388543" />
	</node>
	<node lat="60.23453769674363" lon="9.964350559791244" id="-13462">
		<tag k="name" v="Nedre Halkinrud" />
		<tag k="place" v="farm" />
		<tag k="ssr:stedsnr" v="388839" />
	</node>
	<node lat="60.190383336482654" lon="10.360550004728939" id="-13463">
		<tag k="name" v="Hensrud" />
		<tag k="place" v="isolated_dwelling" />
		<tag k="ssr:stedsnr" v="388904" />
	</node>
	<node lat="60.206197222257245" lon="10.373377771801879" id="-13465">
		<tag k="amenity" v="nursing_home" />
		<tag k="name" v="Solborg" />
		<tag k="ssr:stedsnr" v="389245" />
	</node>
	<node lat="60.18585000427186" lon="10.247766661144176" id="-13466">
		<tag k="name" v="Rundtom" />
		<tag k="place" v="quarter" />
		<tag k="ssr:stedsnr" v="483108" />
	</node>
	<node lat="60.2150916694285" lon="10.200636106281278" id="-13478">
		<tag k="name" v="Haugen" />
		<tag k="place" v="isolated_dwelling" />
		<tag k="ssr:stedsnr" v="390397" />
	</node>
	<node lat="60.122261112554675" lon="10.237758325080891" id="-13483">
		<tag k="name" v="Håkenstad" />
		<tag k="place" v="farm" />
		<tag k="ssr:stedsnr" v="391294" />
	</node>
	<node lat="60.140535755257595" lon="10.209768684309061" id="-13485">
		<tag k="name" v="Øverhagen" />
		<tag k="place" v="farm" />
		<tag k="ssr:stedsnr" v="391992" />
	</node>
	<node lat="60.04623333669359" lon="10.019169450814548" id="-13495">
		<tag k="name" v="Fagerli" />
		<tag k="place" v="farm" />
		<tag k="ssr:stedsnr" v="393099" />
	</node>
	<node lat="60.28339722581259" lon="10.01361389605454" id="-13500">
		<tag k="name" v="Blekhus" />
		<tag k="place" v="isolated_dwelling" />
		<tag k="ssr:stedsnr" v="393533" />
	</node>
	<node lat="60.56870555207697" lon="9.925016658745792" id="-13503">
		<tag k="name" v="Allemannsbråten" />
		<tag k="place" v="locality" />
		<tag k="ssr:stedsnr" v="393642" />
	</node>
	<node lat="60.596080555972144" lon="9.97617499713746" id="-13504">
		<tag k="name" v="Maurland" />
		<tag k="place" v="isolated_dwelling" />
		<tag k="ssr:stedsnr" v="393736" />
	</node>
	<node lat="60.30541389324221" lon="10.035622224952679" id="-13507">
		<tag k="historic" v="shieling" />
		<tag k="name" v="Røstesetra" />
		<tag k="place" v="isolated_dwelling" />
		<tag k="ssr:stedsnr" v="393911" />
	</node>
	<node lat="60.48009999671007" lon="10.081266669499701" id="-13521">
		<tag k="alt_name" v="Søndre Persbråten" />
		<tag k="name" v="Søre Persbråten" />
		<tag k="place" v="farm" />
		<tag k="ssr:stedsnr" v="485768" />
	</node>
	<node lat="60.45781944380262" lon="10.016622220191314" id="-13522">
		<tag k="name" v="Slåttebråten" />
		<tag k="place" v="locality" />
		<tag k="ssr:stedsnr" v="272176" />
	</node>
	<node lat="60.17347208279012" lon="10.314264364712882" id="-13529">
		<tag k="fixme" v="consider place=hamlet" />
		<tag k="name" v="Løken" />
		<tag k="place" v="farm" />
		<tag k="ssr:stedsnr" v="489657" />
	</node>
	<node lat="60.242600001969635" lon="10.059066670013847" id="-13530">
		<tag k="fixme" v="multiple name tags, choose one and add the other to alt_name" />
		<tag k="name" v="Doktormarka;Doktorskogen" />
		<tag k="place" v="locality" />
		<tag k="ssr:stedsnr" v="489987" />
	</node>
	<node lat="60.09787222489098" lon="10.349983325155616" id="-13536">
		<tag k="name" v="Abrahamrud" />
		<tag k="place" v="farm" />
		<tag k="ssr:stedsnr" v="490161" />
	</node>
	<node lat="60.07179166857795" lon="10.051933337418527" id="-13539">
		<tag k="name" v="Tjernsli" />
		<tag k="place" v="farm" />
		<tag k="ssr:stedsnr" v="490245" />
	</node>
	<node lat="60.07092499766617" lon="10.027991657669366" id="-13540">
		<tag k="name" v="Kolherken" />
		<tag k="place" v="farm" />
		<tag k="ssr:stedsnr" v="490257" />
	</node>
	<node lat="60.213837804057114" lon="10.055793521119726" id="-13541">
		<tag k="alt_name" v="Fonkallsrud" />
		<tag k="fixme" v="consider place=hamlet" />
		<tag k="name" v="Fonkalsrud" />
		<tag k="place" v="farm" />
		<tag k="ssr:stedsnr" v="550533" />
	</node>
	<node lat="60.08309190235825" lon="10.070658985492056" id="-13542">
		<tag k="fixme" v="consider place=hamlet" />
		<tag k="name" v="Skamarka" />
		<tag k="place" v="farm" />
		<tag k="ssr:stedsnr" v="490288" />
	</node>
	<node lat="60.135377781115224" lon="10.17945555465191" id="-13544">
		<tag k="name" v="Franserud" />
		<tag k="place" v="farm" />
		<tag k="ssr:stedsnr" v="490684" />
	</node>
	<node lat="60.11545506374734" lon="10.08904288142115" id="-13545">
		<tag k="alt_name" v="Heiern" />
		<tag k="name" v="Øvre Heieren" />
		<tag k="place" v="farm" />
		<tag k="ssr:stedsnr" v="490687" />
	</node>
	<node lat="60.19926669743893" lon="10.295724839744754" id="-13548">
		<tag k="fixme" v="consider place=hamlet" />
		<tag k="name" v="Lundstad" />
		<tag k="place" v="farm" />
		<tag k="ssr:stedsnr" v="490525" />
	</node>
	<node lat="60.20848333111219" lon="10.110169441252756" id="-13549">
		<tag k="name" v="Øst-Veme" />
		<tag k="place" v="farm" />
		<tag k="ssr:stedsnr" v="490543" />
	</node>
	<node lat="60.185742971492836" lon="10.229926237047057" id="-13550">
		<tag k="alt_name" v="Folum" />
		<tag k="fixme" v="consider place=hamlet" />
		<tag k="name" v="Follum" />
		<tag k="place" v="farm" />
		<tag k="ssr:stedsnr" v="490547" />
	</node>
	<node lat="60.187891766596046" lon="10.284677697026899" id="-13553">
		<tag k="fixme" v="consider place=hamlet" />
		<tag k="name" v="Alme" />
		<tag k="place" v="farm" />
		<tag k="ssr:stedsnr" v="490563" />
	</node>
	<node lat="60.19212499836241" lon="10.293597220825212" id="-13554">
		<tag k="landuse" v="military" />
		<tag k="name" v="Hvalsmoen" />
		<tag k="ssr:stedsnr" v="490564" />
	</node>
	<node lat="60.16366290375627" lon="10.210662513206564" id="-13555">
		<tag k="fixme" v="consider place=hamlet" />
		<tag k="name" v="Sørum" />
		<tag k="old_name" v="Sørom" />
		<tag k="place" v="farm" />
		<tag k="ssr:stedsnr" v="490573" />
	</node>
	<node lat="60.13305453780604" lon="10.33306817878558" id="-13558">
		<tag k="name" v="Bjørnstad" />
		<tag k="place" v="farm" />
		<tag k="ssr:stedsnr" v="490667" />
	</node>
	<node lat="60.203593816434115" lon="10.074551037034247" id="-13561">
		<tag k="fixme" v="consider place=hamlet" />
		<tag k="name" v="Skotland" />
		<tag k="place" v="farm" />
		<tag k="ssr:stedsnr" v="429508" />
	</node>
	<node lat="60.15973055876537" lon="10.09187500317728" id="-13563">
		<tag k="name" v="Klamperud" />
		<tag k="place" v="isolated_dwelling" />
		<tag k="ssr:stedsnr" v="429591" />
	</node>
	<node lat="60.168988886177246" lon="10.227511108660442" id="-13564">
		<tag k="name" v="Branddalen" />
		<tag k="place" v="farm" />
		<tag k="ssr:stedsnr" v="429595" />
	</node>
	<node lat="60.169411114236475" lon="10.312613892150921" id="-13565">
		<tag k="fixme" v="multiple name tags, choose one and add the other to alt_name" />
		<tag k="name" v="Enger;Nordre Sætrang" />
		<tag k="place" v="farm" />
		<tag k="ssr:stedsnr" v="429608" />
	</node>
	<node lat="60.13735000209015" lon="9.962522227037104" id="-13566">
		<tag k="historic" v="shieling" />
		<tag k="name" v="Nakkerudvollen" />
		<tag k="place" v="isolated_dwelling" />
		<tag k="ssr:stedsnr" v="429813" />
	</node>
	<node lat="60.12486226100768" lon="10.475615260815934" id="-13567">
		<tag k="name" v="Storflåtan" />
		<tag k="place" v="farm" />
		<tag k="ssr:stedsnr" v="430059" />
	</node>
	<node lat="60.240572903319084" lon="9.891619473286307" id="-13572">
		<tag k="fixme" v="consider place=hamlet" />
		<tag k="name" v="Slette" />
		<tag k="place" v="farm" />
		<tag k="ssr:stedsnr" v="430227" />
	</node>
	<node lat="60.11278055503887" lon="10.362324992478912" id="-13577">
		<tag k="name" v="Østmo" />
		<tag k="place" v="farm" />
		<tag k="ssr:stedsnr" v="430164" />
	</node>
	<node lat="60.42374444428076" lon="9.983605559879225" id="-13580">
		<tag k="name" v="Halvorshytta" />
		<tag k="place" v="isolated_dwelling" />
		<tag k="ssr:stedsnr" v="491371" />
	</node>
	<node lat="60.20178888627865" lon="10.344311116164036" id="-13581">
		<tag k="name" v="Viul" />
		<tag k="place" v="hamlet" />
		<tag k="ssr:stedsnr" v="430544" />
	</node>
	<node lat="60.190572225198366" lon="10.250722228436763" id="-13582">
		<tag k="name" v="Tyrimyra" />
		<tag k="place" v="quarter" />
		<tag k="ssr:stedsnr" v="430594" />
	</node>
	<node lat="60.19364251379121" lon="10.355900034325899" id="-13584">
		<tag k="fixme" v="consider place=hamlet" />
		<tag k="name" v="Honerud" />
		<tag k="place" v="farm" />
		<tag k="ssr:stedsnr" v="491050" />
	</node>
	<node lat="60.12465350490789" lon="10.141316685376937" id="-13585">
		<tag k="fixme" v="consider place=hamlet" />
		<tag k="name" v="Ekornrud" />
		<tag k="place" v="farm" />
		<tag k="ssr:stedsnr" v="430651" />
	</node>
	<node lat="60.03448611202449" lon="10.514366663540802" id="-13586">
		<tag k="alt_name" v="Fjølhytta, øvre" />
		<tag k="name" v="Øvre Fjølhytta" />
		<tag k="place" v="isolated_dwelling" />
		<tag k="ssr:stedsnr" v="430944" />
	</node>
	<node lat="60.32864999664536" lon="10.116283336713622" id="-13591">
		<tag k="name" v="Teigen" />
		<tag k="place" v="farm" />
		<tag k="ssr:stedsnr" v="431502" />
	</node>
	<node lat="60.268416428060064" lon="10.100947929747184" id="-13595">
		<tag k="alt_name" v="Gulsplassætra" />
		<tag k="historic" v="shieling" />
		<tag k="name" v="Gulsplassetra" />
		<tag k="place" v="isolated_dwelling" />
		<tag k="ssr:stedsnr" v="431443" />
	</node>
	<node lat="60.328836114841984" lon="10.094713892636275" id="-13596">
		<tag k="name" v="Amundstua" />
		<tag k="place" v="farm" />
		<tag k="ssr:stedsnr" v="431496" />
	</node>
	<node lat="60.495321179599394" lon="10.074186011468916" id="-13603">
		<tag k="name" v="Nordre Skagnes" />
		<tag k="place" v="farm" />
		<tag k="ssr:stedsnr" v="431752" />
	</node>
	<node lat="60.307888889928954" lon="9.823661107579484" id="-13607">
		<tag k="name" v="Lauvkollhytta" />
		<tag k="place" v="isolated_dwelling" />
		<tag k="ssr:stedsnr" v="431847" />
	</node>
	<node lat="60.328883332648296" lon="9.846127786475556" id="-13612">
		<tag k="alt_name" v="Djupsåtthytta" />
		<tag k="name" v="Djupsoddhytta" />
		<tag k="place" v="isolated_dwelling" />
		<tag k="ssr:stedsnr" v="431894" />
	</node>
	<node lat="60.44473055367513" lon="10.044705558026376" id="-13614">
		<tag k="name" v="Helgestua" />
		<tag k="place" v="farm" />
		<tag k="ssr:stedsnr" v="491365" />
	</node>
	<node lat="60.42035000228977" lon="10.097952780111784" id="-13615">
		<tag k="name" v="Nordhaga" />
		<tag k="place" v="farm" />
		<tag k="ssr:stedsnr" v="491368" />
	</node>
	<node lat="60.28690729701084" lon="10.204942296963967" id="-13617">
		<tag k="name" v="Nygård" />
		<tag k="place" v="farm" />
		<tag k="ssr:stedsnr" v="491418" />
	</node>
	<node lat="60.27018610779951" lon="10.04136110543943" id="-13619">
		<tag k="name" v="Nordheim" />
		<tag k="place" v="isolated_dwelling" />
		<tag k="ssr:stedsnr" v="491435" />
	</node>
	<node lat="60.27297499749549" lon="10.136413891848669" id="-13620">
		<tag k="alt_name" v="Engdalsbråten" />
		<tag k="name" v="Engdalsbråtan" />
		<tag k="place" v="farm" />
		<tag k="ssr:stedsnr" v="491439" />
	</node>
	<node lat="60.52341389178562" lon="10.116088896743545" id="-13623">
		<tag k="name" v="Dammen" />
		<tag k="place" v="farm" />
		<tag k="ssr:stedsnr" v="432515" />
	</node>
	<node lat="60.52748321892433" lon="10.09181491149008" id="-13624">
		<tag k="name" v="Bjonevika" />
		<tag k="place" v="farm" />
		<tag k="ssr:stedsnr" v="432518" />
	</node>
	<node lat="60.572000004527894" lon="9.978258332080156" id="-13629">
		<tag k="name" v="Nesrud" />
		<tag k="place" v="farm" />
		<tag k="ssr:stedsnr" v="432604" />
	</node>
	<node lat="60.260613890196694" lon="9.96132500427682" id="-13632">
		<tag k="name" v="Solberg" />
		<tag k="place" v="farm" />
		<tag k="ssr:stedsnr" v="491636" />
	</node>
	<node lat="60.26401388858564" lon="9.812455548953709" id="-13633">
		<tag k="name" v="Kolbjørnjordet" />
		<tag k="place" v="farm" />
		<tag k="ssr:stedsnr" v="491646" />
	</node>
	<node lat="60.27735000423928" lon="9.810816659431516" id="-13634">
		<tag k="name" v="Bekken" />
		<tag k="place" v="farm" />
		<tag k="ssr:stedsnr" v="491651" />
	</node>
	<node lat="60.27024903255906" lon="9.840518667265835" id="-13635">
		<tag k="alt_name" v="Elgåsen" />
		<tag k="name" v="Elgås" />
		<tag k="place" v="isolated_dwelling" />
		<tag k="ssr:stedsnr" v="491652" />
	</node>
	<node lat="60.34760832925686" lon="9.851624997822679" id="-13639">
		<tag k="name" v="Nordli" />
		<tag k="place" v="farm" />
		<tag k="ssr:stedsnr" v="491841" />
	</node>
	<node lat="60.56442409000303" lon="9.996829082121597" id="-13642">
		<tag k="fixme" v="consider place=hamlet" />
		<tag k="name" v="Granum" />
		<tag k="place" v="farm" />
		<tag k="ssr:stedsnr" v="492476" />
	</node>
	<node lat="60.503780558901916" lon="10.084947223352055" id="-13643">
		<tag k="name" v="Flekkerud" />
		<tag k="place" v="farm" />
		<tag k="ssr:stedsnr" v="492451" />
	</node>
	<node lat="60.5765296951974" lon="9.990725168967414" id="-13645">
		<tag k="name" v="Tangen" />
		<tag k="place" v="farm" />
		<tag k="ssr:stedsnr" v="492533" />
	</node>
	<node lat="60.260927140592166" lon="9.809519727190237" id="-13650">
		<tag k="fixme" v="consider place=hamlet" />
		<tag k="name" v="Uggen" />
		<tag k="place" v="farm" />
		<tag k="ssr:stedsnr" v="492730" />
	</node>
	<node lat="60.09364733381645" lon="10.086713254497294" id="-13654">
		<tag k="name" v="Solberg" />
		<tag k="place" v="farm" />
		<tag k="ssr:stedsnr" v="450110" />
	</node>
	<node lat="60.04778055524483" lon="10.054675004147189" id="-13655">
		<tag k="name" v="Norderud" />
		<tag k="place" v="farm" />
		<tag k="ssr:stedsnr" v="450625" />
	</node>
	<node lat="60.1697863113582" lon="10.320618949950411" id="-13657">
		<tag k="name" v="Nedre Klekken" />
		<tag k="place" v="farm" />
		<tag k="ssr:stedsnr" v="450903" />
	</node>
	<node lat="60.25501111142148" lon="10.155711113310314" id="-13660">
		<tag k="name" v="Mikkelsrud" />
		<tag k="place" v="farm" />
		<tag k="ssr:stedsnr" v="451310" />
	</node>
	<node lat="60.11145833503368" lon="10.35478611172896" id="-13675">
		<tag k="fixme" v="consider place=hamlet" />
		<tag k="name" v="Bergeløkka" />
		<tag k="place" v="village" />
		<tag k="ssr:stedsnr" v="451928" />
	</node>
	<node lat="60.153508334510335" lon="10.226352773647015" id="-13680">
		<tag k="name" v="Sørmoen" />
		<tag k="place" v="locality" />
		<tag k="ssr:stedsnr" v="452980" />
	</node>
	<node lat="60.48229722371328" lon="10.06847777228647" id="-13687">
		<tag k="name" v="Trettodden" />
		<tag k="place" v="isolated_dwelling" />
		<tag k="ssr:stedsnr" v="453819" />
	</node>
	<node lat="60.112319098563326" lon="10.357888383570279" id="-13695">
		<tag k="fixme" v="consider place=hamlet" />
		<tag k="name" v="Gunnerenga" />
		<tag k="place" v="farm" />
		<tag k="ssr:stedsnr" v="672156" />
	</node>
	<node lat="60.24504844488178" lon="9.958516212163397" id="-13702">
		<tag k="alt_name" v="Røsby" />
		<tag k="name" v="Nordre Røsby" />
		<tag k="place" v="farm" />
		<tag k="ssr:stedsnr" v="672226" />
	</node>
	<node lat="60.06783333476174" lon="10.031025008587005" id="-13704">
		<tag k="name" v="Holte" />
		<tag k="place" v="farm" />
		<tag k="ssr:stedsnr" v="672239" />
	</node>
	<node lat="60.23402499656835" lon="9.855605564326135" id="-13708">
		<tag k="name" v="Veståker" />
		<tag k="place" v="farm" />
		<tag k="ssr:stedsnr" v="672201" />
	</node>
	<node lat="60.21974999928641" lon="10.086275002622054" id="-13718">
		<tag k="name" v="Steinsrud" />
		<tag k="place" v="isolated_dwelling" />
		<tag k="ssr:stedsnr" v="672467" />
	</node>
	<node lat="60.2218055583641" lon="10.182444449918222" id="-13722">
		<tag k="name" v="Solheim" />
		<tag k="place" v="farm" />
		<tag k="ssr:stedsnr" v="672473" />
	</node>
	<node lat="60.20760833138382" lon="9.973552769081186" id="-13723">
		<tag k="name" v="Tangerud" />
		<tag k="place" v="farm" />
		<tag k="ssr:stedsnr" v="672476" />
	</node>
	<node lat="60.16421666744139" lon="10.175363885180754" id="-13724">
		<tag k="name" v="Flaten" />
		<tag k="place" v="farm" />
		<tag k="ssr:stedsnr" v="672566" />
	</node>
	<node lat="60.364130557876194" lon="10.085111116086889" id="-13725">
		<tag k="name" v="Strømmen" />
		<tag k="place" v="isolated_dwelling" />
		<tag k="ssr:stedsnr" v="672567" />
	</node>
	<node lat="60.361066666692416" lon="10.039561110629744" id="-13728">
		<tag k="alt_name" v="Sæterbekkhytta" />
		<tag k="name" v="Seterbekkhytta" />
		<tag k="place" v="isolated_dwelling" />
		<tag k="ssr:stedsnr" v="672570" />
	</node>
	<node lat="60.20918888663434" lon="10.128777772495424" id="-13730">
		<tag k="alt_name" v="Bergom" />
		<tag k="name" v="Bergum" />
		<tag k="place" v="farm" />
		<tag k="ssr:stedsnr" v="672520" />
	</node>
	<node lat="60.18253930642539" lon="10.209385055197592" id="-13731">
		<tag k="fixme" v="consider place=hamlet" />
		<tag k="name" v="Oppen" />
		<tag k="place" v="farm" />
		<tag k="ssr:stedsnr" v="672523" />
	</node>
	<node lat="60.17751535832356" lon="10.21123507917598" id="-13732">
		<tag k="alt_name" v="Veshall;Vessal" />
		<tag k="fixme" v="consider place=hamlet" />
		<tag k="name" v="Veksal" />
		<tag k="place" v="farm" />
		<tag k="ssr:stedsnr" v="672528" />
	</node>
	<node lat="60.16111388466993" lon="10.04860833374082" id="-13733">
		<tag k="historic" v="shieling" />
		<tag k="name" v="Asksetra" />
		<tag k="place" v="isolated_dwelling" />
		<tag k="ssr:stedsnr" v="672574" />
	</node>
	<node lat="60.366382549367714" lon="10.197262504697331" id="-13734">
		<tag k="alt_name" v="Galten" />
		<tag k="name" v="Galtebu" />
		<tag k="place" v="isolated_dwelling" />
		<tag k="ssr:stedsnr" v="672583" />
	</node>
	<node lat="60.290419444893466" lon="9.742661105680337" id="-13738">
		<tag k="name" v="Ringvoll" />
		<tag k="place" v="isolated_dwelling" />
		<tag k="ssr:stedsnr" v="455870" />
	</node>
	<node lat="60.18508889295838" lon="10.198691662231878" id="-13739">
		<tag k="name" v="Oppenåsen" />
		<tag k="place" v="quarter" />
		<tag k="ssr:stedsnr" v="672541" />
	</node>
	<node lat="60.35516666573477" lon="10.09596389415074" id="-13741">
		<tag k="name" v="Ringmoen" />
		<tag k="place" v="hamlet" />
		<tag k="ssr:stedsnr" v="672543" />
	</node>
	<node lat="60.1854583324256" lon="10.022788890682431" id="-13743">
		<tag k="alt_name" v="Gulstøverensætra" />
		<tag k="historic" v="shieling" />
		<tag k="loc_name" v="Gulstøversetra" />
		<tag k="name" v="Gulstøverensetra" />
		<tag k="place" v="isolated_dwelling" />
		<tag k="ssr:stedsnr" v="672551" />
	</node>
	<node lat="60.14579166448461" lon="10.18560556370039" id="-13745">
		<tag k="name" v="Myra" />
		<tag k="place" v="farm" />
		<tag k="ssr:stedsnr" v="672608" />
	</node>
	<node lat="60.12893621430062" lon="10.185873233675524" id="-13749">
		<tag k="fixme" v="consider place=hamlet" />
		<tag k="name" v="Karlsrud" />
		<tag k="place" v="farm" />
		<tag k="ssr:stedsnr" v="672639" />
	</node>
	<node lat="60.13698140731914" lon="10.337698795404282" id="-13750">
		<tag k="fixme" v="consider place=hamlet" />
		<tag k="name" v="Rakkestad" />
		<tag k="place" v="farm" />
		<tag k="ssr:stedsnr" v="672641" />
	</node>
	<node lat="60.138120415089" lon="10.284600446620418" id="-13751">
		<tag k="fixme" v="consider place=hamlet" />
		<tag k="name" v="Hesleberg" />
		<tag k="place" v="farm" />
		<tag k="ssr:stedsnr" v="672643" />
	</node>
	<node lat="60.1370535985167" lon="10.236655266586952" id="-13754">
		<tag k="name" v="Slepa" />
		<tag k="place" v="isolated_dwelling" />
		<tag k="ssr:stedsnr" v="672658" />
	</node>
	<node lat="60.108705553140425" lon="10.090227784192388" id="-13756">
		<tag k="alt_name" v="Heiern" />
		<tag k="name" v="Nedre Heieren" />
		<tag k="place" v="farm" />
		<tag k="ssr:stedsnr" v="672745" />
	</node>
	<node lat="60.17685009163297" lon="9.910472839085614" id="-13757">
		<tag k="alt_name" v="Sandakersetra" />
		<tag k="historic" v="shieling" />
		<tag k="name" v="Sandåkersetra" />
		<tag k="place" v="isolated_dwelling" />
		<tag k="ssr:stedsnr" v="672748" />
	</node>
	<node lat="60.417775003787014" lon="10.065561108546499" id="-13761">
		<tag k="name" v="Bergodden" />
		<tag k="place" v="isolated_dwelling" />
		<tag k="ssr:stedsnr" v="673380" />
	</node>
	<node lat="60.46922777688837" lon="10.020394446019267" id="-13769">
		<tag k="fixme" v="multiple name tags, choose one and add the other to alt_name" />
		<tag k="name" v="Steinstad;Eidsmoen" />
		<tag k="place" v="farm" />
		<tag k="ssr:stedsnr" v="673688" />
	</node>
	<node lat="60.31300000312914" lon="9.739986110610891" id="-13770">
		<tag k="name" v="Haugen" />
		<tag k="place" v="farm" />
		<tag k="ssr:stedsnr" v="673840" />
	</node>
	<node lat="60.41956110666395" lon="9.864058339962295" id="-13776">
		<tag k="name" v="Kjølstad" />
		<tag k="place" v="isolated_dwelling" />
		<tag k="ssr:stedsnr" v="673991" />
	</node>
	<node lat="60.25108333263924" lon="10.279186113536108" id="-13777">
		<tag k="name" v="Fuglesanghytta" />
		<tag k="place" v="isolated_dwelling" />
		<tag k="ssr:stedsnr" v="674296" />
	</node>
	<node lat="60.28086493132002" lon="10.182384049753576" id="-13779">
		<tag k="name" v="Nedre Hval" />
		<tag k="place" v="farm" />
		<tag k="ssr:stedsnr" v="674381" />
	</node>
	<node lat="60.27078611269339" lon="10.02545278296219" id="-13780">
		<tag k="alt_name" v="Nordsætra" />
		<tag k="historic" v="shieling" />
		<tag k="name" v="Nordsetra" />
		<tag k="place" v="isolated_dwelling" />
		<tag k="ssr:stedsnr" v="674393" />
	</node>
	<node lat="60.271425003890634" lon="10.1845111163037" id="-13781">
		<tag k="name" v="Hallingby" />
		<tag k="place" v="village" />
		<tag k="ssr:stedsnr" v="674397" />
	</node>
	<node lat="60.273494442282875" lon="10.143869438581584" id="-13782">
		<tag k="fixme" v="multiple name tags, choose one and add the other to alt_name" />
		<tag k="name" v="Birkeland;Gulsplassen" />
		<tag k="place" v="farm" />
		<tag k="ssr:stedsnr" v="674399" />
	</node>
	<node lat="60.527521302350365" lon="10.13688087660637" id="-13784">
		<tag k="alt_name" v="Veren" />
		<tag k="name" v="Veern" />
		<tag k="place" v="isolated_dwelling" />
		<tag k="ssr:stedsnr" v="674470" />
	</node>
	<node lat="60.504191663801315" lon="10.128769447139074" id="-13787">
		<tag k="historic" v="shieling" />
		<tag k="name" v="Svartbekksetra" />
		<tag k="place" v="isolated_dwelling" />
		<tag k="ssr:stedsnr" v="674483" />
	</node>
	<node lat="60.17435277325034" lon="10.223050008404583" id="-13788">
		<tag k="loc_name" v="Øvre Veien" />
		<tag k="name" v="Veien" />
		<tag k="place" v="farm" />
		<tag k="ssr:stedsnr" v="465217" />
	</node>
	<node lat="60.52731944348979" lon="10.038158326103797" id="-13790">
		<tag k="historic" v="shieling" />
		<tag k="name" v="Mosetra" />
		<tag k="place" v="isolated_dwelling" />
		<tag k="ssr:stedsnr" v="674541" />
	</node>
	<node lat="60.18841110737716" lon="10.27310277846221" id="-13792">
		<tag k="name" v="Almemoen" />
		<tag k="place" v="quarter" />
		<tag k="ssr:stedsnr" v="465177" />
	</node>
	<node lat="60.27189999829137" lon="9.960458326346656" id="-13794">
		<tag k="name" v="Geitekastet" />
		<tag k="place" v="isolated_dwelling" />
		<tag k="ssr:stedsnr" v="674632" />
	</node>
	<node lat="60.38204938466358" lon="9.809475322799798" id="-13797">
		<tag k="fixme" v="consider place=hamlet" />
		<tag k="name" v="Vollen" />
		<tag k="place" v="farm" />
		<tag k="ssr:stedsnr" v="674778" />
	</node>
	<node lat="60.63325822164979" lon="9.940773428682036" id="-13800">
		<tag k="alt_name" v="Pettsetra" />
		<tag k="historic" v="shieling" />
		<tag k="loc_name" v="Puttesætra" />
		<tag k="name" v="Puttesetra" />
		<tag k="place" v="isolated_dwelling" />
		<tag k="ssr:stedsnr" v="674995" />
	</node>
	<node lat="60.208366667745736" lon="10.061799992253214" id="-13804">
		<tag k="name" v="Borglund" />
		<tag k="place" v="farm" />
		<tag k="ssr:stedsnr" v="472078" />
	</node>
	<node lat="60.28966110879021" lon="9.800269450829346" id="-13807">
		<tag k="historic" v="shieling" />
		<tag k="name" v="Rudssetra" />
		<tag k="place" v="isolated_dwelling" />
		<tag k="ssr:stedsnr" v="478679" />
	</node>
	<node lat="60.392249997340635" lon="9.886125007887701" id="-13809">
		<tag k="historic" v="shieling" />
		<tag k="name" v="Eidvassetra" />
		<tag k="place" v="isolated_dwelling" />
		<tag k="ssr:stedsnr" v="478956" />
	</node>
	<node lat="60.20914166374704" lon="10.030461112713448" id="-13811">
		<tag k="alt_name" v="Gardhamar Søndre" />
		<tag k="name" v="Søndre Gardhamar" />
		<tag k="place" v="farm" />
		<tag k="ssr:stedsnr" v="480104" />
	</node>
	<node lat="60.28149838186857" lon="10.180670389499756" id="-13812">
		<tag k="fixme" v="consider place=hamlet" />
		<tag k="name" v="Hval" />
		<tag k="place" v="farm" />
		<tag k="ssr:stedsnr" v="483515" />
	</node>
	<node lat="60.21347580286848" lon="9.845902836018237" id="-13813">
		<tag k="name" v="Sørli" />
		<tag k="place" v="isolated_dwelling" />
		<tag k="ssr:stedsnr" v="489205" />
	</node>
	<node lat="60.20860555657174" lon="9.95982500826081" id="-13815">
		<tag k="name" v="Øverby" />
		<tag k="place" v="farm" />
		<tag k="ssr:stedsnr" v="489210" />
	</node>
	<node lat="60.23706666674476" lon="10.173691671385244" id="-13816">
		<tag k="alt_name" v="Semmen" />
		<tag k="name" v="Søndre Semmen" />
		<tag k="place" v="farm" />
		<tag k="ssr:stedsnr" v="489539" />
	</node>
	<node lat="60.23030833100281" lon="10.035236105186078" id="-13819">
		<tag k="alt_name" v="Bråten" />
		<tag k="name" v="Bråtan" />
		<tag k="place" v="farm" />
		<tag k="ssr:stedsnr" v="489551" />
	</node>
	<node lat="60.12675278204521" lon="10.313313890099959" id="-13821">
		<tag k="name" v="Myra" />
		<tag k="place" v="farm" />
		<tag k="ssr:stedsnr" v="489737" />
	</node>
	<node lat="60.12920906331451" lon="10.269299281725731" id="-13822">
		<tag k="alt_name" v="Gusgården;Gusgarden" />
		<tag k="fixme" v="consider place=hamlet" />
		<tag k="name" v="Gussgarden" />
		<tag k="place" v="farm" />
		<tag k="ssr:stedsnr" v="489740" />
	</node>
	<node lat="60.172200003003084" lon="10.13439166665691" id="-13823">
		<tag k="name" v="Solbu" />
		<tag k="place" v="isolated_dwelling" />
		<tag k="ssr:stedsnr" v="489642" />
	</node>
	<node lat="60.23605000116753" lon="9.771680549621207" id="-13826">
		<tag k="name" v="Nipa" />
		<tag k="place" v="isolated_dwelling" />
		<tag k="ssr:stedsnr" v="490214" />
	</node>
	<node lat="60.23582192003456" lon="9.966291513343656" id="-13828">
		<tag k="name" v="Øvre Halkinrud" />
		<tag k="place" v="farm" />
		<tag k="ssr:stedsnr" v="490219" />
	</node>
	<node lat="60.13992064971474" lon="10.350569173414552" id="-13831">
		<tag k="fixme" v="consider place=hamlet" />
		<tag k="name" v="Fleskerud" />
		<tag k="place" v="farm" />
		<tag k="ssr:stedsnr" v="490122" />
	</node>
	<node lat="60.150177778252" lon="10.18238333738998" id="-13835">
		<tag k="alt_name" v="Bråten" />
		<tag k="name" v="Bråtan" />
		<tag k="place" v="farm" />
		<tag k="ssr:stedsnr" v="490631" />
	</node>
	<node lat="60.14220833412277" lon="10.18996388502608" id="-13836">
		<tag k="alt_name" v="Bjørkeenga" />
		<tag k="name" v="Bjørkenga" />
		<tag k="place" v="farm" />
		<tag k="ssr:stedsnr" v="490634" />
	</node>
	<node lat="60.216313888313614" lon="10.231019444627705" id="-13838">
		<tag k="name" v="Hen" />
		<tag k="place" v="village" />
		<tag k="ssr:stedsnr" v="490504" />
	</node>
	<node lat="60.200650003263426" lon="10.294000008542195" id="-13840">
		<tag k="amenity" v="nursing_home" />
		<tag k="name" v="Austjord" />
		<tag k="ssr:stedsnr" v="490528" />
	</node>
	<node lat="60.206385802618215" lon="10.057882632219172" id="-13841">
		<tag k="name" v="Bentestøveren" />
		<tag k="place" v="farm" />
		<tag k="ssr:stedsnr" v="490532" />
	</node>
	<node lat="60.20885559763177" lon="10.02423378256852" id="-13842">
		<tag k="fixme" v="consider place=hamlet" />
		<tag k="name" v="Gardhammar" />
		<tag k="old_name" v="Gaardhammer" />
		<tag k="place" v="farm" />
		<tag k="ssr:stedsnr" v="490534" />
	</node>
	<node lat="60.2104656950358" lon="10.065578315390562" id="-13843">
		<tag k="fixme" v="consider place=hamlet" />
		<tag k="name" v="Borgerud" />
		<tag k="place" v="farm" />
		<tag k="ssr:stedsnr" v="490537" />
	</node>
	<node lat="60.16813889291529" lon="10.339919453531563" id="-13844">
		<tag k="name" v="Berg" />
		<tag k="place" v="farm" />
		<tag k="ssr:stedsnr" v="490581" />
	</node>
	<node lat="60.36917500150129" lon="10.019652776919832" id="-13845">
		<tag k="historic" v="shieling" />
		<tag k="name" v="Gunbjørrudsetra" />
		<tag k="place" v="isolated_dwelling" />
		<tag k="ssr:stedsnr" v="490585" />
	</node>
	<node lat="60.09724999758298" lon="10.342813879854805" id="-13846">
		<tag k="name" v="Torsrud" />
		<tag k="place" v="farm" />
		<tag k="ssr:stedsnr" v="490729" />
	</node>
	<node lat="60.48009999671007" lon="10.081266669499701" id="-13856">
		<tag k="name" v="Persbråtan" />
		<tag k="place" v="locality" />
		<tag k="ssr:stedsnr" v="491705" />
	</node>
	<node lat="60.4971272972306" lon="10.010447090703144" id="-13858">
		<tag k="name" v="Skalerudhytta" />
		<tag k="place" v="isolated_dwelling" />
		<tag k="ssr:stedsnr" v="491725" />
	</node>
	<node lat="60.31964722593821" lon="10.18727778563621" id="-13861">
		<tag k="name" v="Kvernstua" />
		<tag k="place" v="farm" />
		<tag k="ssr:stedsnr" v="491493" />
	</node>
	<node lat="60.31375239469245" lon="10.139319549707187" id="-13862">
		<tag k="name" v="Strømmen" />
		<tag k="place" v="farm" />
		<tag k="ssr:stedsnr" v="491494" />
	</node>
	<node lat="60.25338611493731" lon="10.188952772889548" id="-13872">
		<tag k="name" v="Enga" />
		<tag k="place" v="isolated_dwelling" />
		<tag k="ssr:stedsnr" v="492290" />
	</node>
	<node lat="60.25955555276201" lon="10.18818334116177" id="-13876">
		<tag k="name" v="Farmen" />
		<tag k="place" v="farm" />
		<tag k="ssr:stedsnr" v="492407" />
	</node>
	<node lat="60.573833331782666" lon="10.003366673174213" id="-13879">
		<tag k="name" v="Hæl" />
		<tag k="place" v="farm" />
		<tag k="ssr:stedsnr" v="492586" />
	</node>
	<node lat="60.56831776018769" lon="9.996014311771209" id="-13880">
		<tag k="name" v="Olstad" />
		<tag k="place" v="farm" />
		<tag k="ssr:stedsnr" v="492588" />
	</node>
	<node lat="60.56094166498876" lon="9.961933341618415" id="-13887">
		<tag k="name" v="Stormyr" />
		<tag k="place" v="farm" />
		<tag k="ssr:stedsnr" v="510568" />
	</node>
	<node lat="60.13502970269454" lon="10.298978809791521" id="-13888">
		<tag k="name" v="Store Vaker" />
		<tag k="place" v="farm" />
		<tag k="ssr:stedsnr" v="510912" />
	</node>
	<node lat="60.10035552060934" lon="10.386556038153605" id="-13891">
		<tag k="historic" v="shieling" />
		<tag k="loc_name" v="Vardevolla" />
		<tag k="name" v="Vardevollen" />
		<tag k="place" v="isolated_dwelling" />
		<tag k="ssr:stedsnr" v="511054" />
	</node>
	<node lat="60.4385750028219" lon="10.16018889193231" id="-13901">
		<tag k="name" v="Jegerbu" />
		<tag k="place" v="isolated_dwelling" />
		<tag k="ssr:stedsnr" v="511754" />
	</node>
	<node lat="60.228011115553336" lon="10.2059638840057" id="-13909">
		<tag k="name" v="Pålerudbyen" />
		<tag k="place" v="quarter" />
		<tag k="ssr:stedsnr" v="512466" />
	</node>
	<node lat="60.22776666986909" lon="10.22243056147341" id="-13910">
		<tag k="name" v="Tajet" />
		<tag k="place" v="farm" />
		<tag k="ssr:stedsnr" v="512468" />
	</node>
	<node lat="60.198045303138805" lon="10.352120127153926" id="-13914">
		<tag k="fixme" v="consider place=hamlet" />
		<tag k="name" v="Askersrud" />
		<tag k="place" v="farm" />
		<tag k="ssr:stedsnr" v="512974" />
	</node>
	<node lat="60.14554722242189" lon="10.17513611218624" id="-13918">
		<tag k="name" v="Nedre Lerberg" />
		<tag k="place" v="farm" />
		<tag k="ssr:stedsnr" v="513921" />
	</node>
	<node lat="60.1724833349602" lon="10.01987777766622" id="-13925">
		<tag k="name" v="Klauvmyrhytta" />
		<tag k="place" v="isolated_dwelling" />
		<tag k="ssr:stedsnr" v="514406" />
	</node>
	<node lat="60.532205553587914" lon="10.004702781974334" id="-13927">
		<tag k="name" v="Seterbråten" />
		<tag k="place" v="locality" />
		<tag k="ssr:stedsnr" v="514712" />
	</node>
	<node lat="60.28316110726442" lon="10.077952779461215" id="-13932">
		<tag k="name" v="Veggersenhytta" />
		<tag k="place" v="isolated_dwelling" />
		<tag k="ssr:stedsnr" v="514884" />
	</node>
	<node lat="60.26293055710442" lon="9.850316661175611" id="-13940">
		<tag k="name" v="Sporet" />
		<tag k="place" v="isolated_dwelling" />
		<tag k="ssr:stedsnr" v="515208" />
	</node>
	<node lat="60.54634999603694" lon="9.83194721669857" id="-13944">
		<tag k="name" v="Brustad" />
		<tag k="place" v="farm" />
		<tag k="ssr:stedsnr" v="515304" />
	</node>
	<node lat="60.50529721854423" lon="9.827616662199034" id="-13945">
		<tag k="historic" v="shieling" />
		<tag k="name" v="Brennseterhytta" />
		<tag k="place" v="isolated_dwelling" />
		<tag k="ssr:stedsnr" v="515385" />
	</node>
	<node lat="60.179425003886585" lon="10.357319450402878" id="-13958">
		<tag k="name" v="Renilstua" />
		<tag k="place" v="isolated_dwelling" />
		<tag k="ssr:stedsnr" v="752921" />
	</node>
	<node lat="60.25864467099158" lon="9.94301525438107" id="-13959">
		<tag k="alt_name" v="Nilsebråten" />
		<tag k="name" v="Nilsebråtan" />
		<tag k="place" v="farm" />
		<tag k="ssr:stedsnr" v="539716" />
	</node>
	<node lat="60.338634038007584" lon="9.976431524091057" id="-13960">
		<tag k="fixme" v="consider tourism=alpine_hut or tourism=chalet" />
		<tag k="name" v="Tjuenborgkoia" />
		<tag k="old_name" v="Tjuvenborgkoia" />
		<tag k="ssr:stedsnr" v="540577" />
		<tag k="tourism" v="wilderness_hut" />
	</node>
	<node lat="60.27918611566228" lon="10.16587777415601" id="-13961">
		<tag k="name" v="Haug" />
		<tag k="place" v="farm" />
		<tag k="ssr:stedsnr" v="541775" />
	</node>
	<node lat="60.134151145709325" lon="10.152320006710253" id="-13964">
		<tag k="fixme" v="consider place=hamlet" />
		<tag k="name" v="Hjelle" />
		<tag k="place" v="farm" />
		<tag k="ssr:stedsnr" v="550663" />
	</node>
	<node lat="60.12372124688456" lon="10.326322168937262" id="-13965">
		<tag k="fixme" v="consider place=hamlet" />
		<tag k="name" v="Sjørvoll" />
		<tag k="place" v="farm" />
		<tag k="ssr:stedsnr" v="550701" />
	</node>
	<node lat="60.16691936787465" lon="10.287095900513997" id="-13968">
		<tag k="fixme" v="consider place=hamlet" />
		<tag k="name" v="Vesteren" />
		<tag k="place" v="farm" />
		<tag k="ssr:stedsnr" v="550595" />
	</node>
	<node lat="60.0984660449359" lon="10.125429723651122" id="-13970">
		<tag k="alt_name" v="Maurrud" />
		<tag k="fixme" v="consider place=hamlet" />
		<tag k="name" v="Maurerud" />
		<tag k="place" v="farm" />
		<tag k="ssr:stedsnr" v="550717" />
	</node>
	<node lat="60.08910555838085" lon="10.409638883273134" id="-13973">
		<tag k="name" v="Holemarkhytta" />
		<tag k="place" v="isolated_dwelling" />
		<tag k="ssr:stedsnr" v="551152" />
	</node>
	<node lat="60.1891055583572" lon="10.356722218424501" id="-13976">
		<tag k="name" v="Smedsbøle" />
		<tag k="place" v="farm" />
		<tag k="ssr:stedsnr" v="551044" />
	</node>
	<node lat="60.22927499740186" lon="9.948400004930793" id="-13978">
		<tag k="alt_name" v="Flaskerud" />
		<tag k="name" v="Nedre Flaskerud" />
		<tag k="place" v="farm" />
		<tag k="ssr:stedsnr" v="551209" />
	</node>
	<node lat="60.37382499969605" lon="9.811452769977207" id="-13986">
		<tag k="name" v="Nybu" />
		<tag k="place" v="isolated_dwelling" />
		<tag k="ssr:stedsnr" v="551818" />
	</node>
	<node lat="60.33073055194963" lon="9.997649998254238" id="-13991">
		<tag k="alt_name" v="Flåbekksætra" />
		<tag k="historic" v="shieling" />
		<tag k="name" v="Flåbekksetra" />
		<tag k="place" v="isolated_dwelling" />
		<tag k="ssr:stedsnr" v="552512" />
	</node>
	<node lat="60.317308335409585" lon="9.981599998851188" id="-13993">
		<tag k="name" v="Loppeborgen" />
		<tag k="place" v="isolated_dwelling" />
		<tag k="ssr:stedsnr" v="552525" />
	</node>
	<node lat="60.5164250041513" lon="9.973427777087865" id="-13995">
		<tag k="name" v="Lindlishytta" />
		<tag k="place" v="isolated_dwelling" />
		<tag k="ssr:stedsnr" v="552546" />
	</node>
	<node lat="60.33784999639979" lon="9.862727770537939" id="-14001">
		<tag k="name" v="Jonsrud" />
		<tag k="place" v="farm" />
		<tag k="ssr:stedsnr" v="552891" />
	</node>
	<node lat="60.60296110832187" lon="9.967355560397223" id="-14007">
		<tag k="name" v="Gulliksbråten" />
		<tag k="place" v="farm" />
		<tag k="ssr:stedsnr" v="552941" />
	</node>
	<node lat="60.13883084666192" lon="10.30627914248636" id="-14014">
		<tag k="name" v="Vestby" />
		<tag k="place" v="farm" />
		<tag k="ssr:stedsnr" v="692878" />
	</node>
	<node lat="60.18550833071939" lon="10.320016658885734" id="-14015">
		<tag k="name" v="Engen" />
		<tag k="place" v="farm" />
		<tag k="ssr:stedsnr" v="692894" />
	</node>
	<node lat="60.123661110265544" lon="10.377761105820552" id="-14018">
		<tag k="name" v="Brentlær" />
		<tag k="place" v="farm" />
		<tag k="ssr:stedsnr" v="693045" />
	</node>
	<node lat="60.189633330191455" lon="10.186458336302579" id="-14026">
		<tag k="name" v="Nedre Engen" />
		<tag k="place" v="farm" />
		<tag k="ssr:stedsnr" v="693562" />
	</node>
	<node lat="60.15985277989118" lon="10.295624992427294" id="-14027">
		<tag k="name" v="Skøyen" />
		<tag k="place" v="farm" />
		<tag k="ssr:stedsnr" v="693564" />
	</node>
	<node lat="60.17910000149972" lon="10.194233342363686" id="-14028">
		<tag k="name" v="Fredheim" />
		<tag k="place" v="farm" />
		<tag k="ssr:stedsnr" v="693565" />
	</node>
	<node lat="60.155847221677014" lon="10.311880550843536" id="-14030">
		<tag k="name" v="Dragehagen" />
		<tag k="place" v="isolated_dwelling" />
		<tag k="ssr:stedsnr" v="571550" />
	</node>
	<node lat="60.19664436811639" lon="10.17928680015426" id="-14031">
		<tag k="name" v="Hanserud" />
		<tag k="place" v="farm" />
		<tag k="ssr:stedsnr" v="571508" />
	</node>
	<node lat="60.04252499847672" lon="10.033058331012167" id="-14039">
		<tag k="name" v="Solberg" />
		<tag k="place" v="farm" />
		<tag k="ssr:stedsnr" v="693894" />
	</node>
	<node lat="60.16258888591621" lon="10.242638880083978" id="-14041">
		<tag k="amenity" v="school" />
		<tag k="name" v="Ringerike folkehøgskole" />
		<tag k="ssr:stedsnr" v="572004" />
	</node>
	<node lat="60.13692779094184" lon="10.350669768581804" id="-14045">
		<tag k="name" v="Østby" />
		<tag k="place" v="farm" />
		<tag k="ssr:stedsnr" v="572629" />
	</node>
	<node lat="60.097230551278436" lon="10.349116664300965" id="-14051">
		<tag k="name" v="Granheim" />
		<tag k="place" v="farm" />
		<tag k="ssr:stedsnr" v="572915" />
	</node>
	<node lat="60.16353333645438" lon="10.349822227300258" id="-14053">
		<tag k="name" v="Venner" />
		<tag k="place" v="farm" />
		<tag k="ssr:stedsnr" v="693992" />
	</node>
	<node lat="60.095130557883024" lon="10.07163610638414" id="-14055">
		<tag k="name" v="Pjåka" />
		<tag k="place" v="farm" />
		<tag k="ssr:stedsnr" v="574057" />
	</node>
	<node lat="60.4133333318064" lon="10.05385277304849" id="-14057">
		<tag k="name" v="Bråten" />
		<tag k="place" v="isolated_dwelling" />
		<tag k="ssr:stedsnr" v="574449" />
	</node>
	<node lat="60.240650003887815" lon="10.16519443784863" id="-14058">
		<tag k="name" v="Grindroa" />
		<tag k="place" v="hamlet" />
		<tag k="ssr:stedsnr" v="694256" />
	</node>
	<node lat="60.35004999821715" lon="10.080727783478093" id="-14063">
		<tag k="name" v="Kornbråten" />
		<tag k="place" v="farm" />
		<tag k="ssr:stedsnr" v="574660" />
	</node>
	<node lat="60.474880559604244" lon="10.07486389411576" id="-14065">
		<tag k="fixme" v="multiple name tags, choose one and add the other to alt_name" />
		<tag k="name" v="Nordåker;Blakstveit" />
		<tag k="place" v="farm" />
		<tag k="ssr:stedsnr" v="574814" />
	</node>
	<node lat="60.21692448850107" lon="9.936580528816096" id="-14071">
		<tag k="name" v="Sandum" />
		<tag k="place" v="farm" />
		<tag k="ssr:stedsnr" v="574717" />
	</node>
	<node lat="60.34244166709283" lon="9.878419450734755" id="-14084">
		<tag k="alt_name" v="Astridbråten" />
		<tag k="name" v="Astridbråtan" />
		<tag k="place" v="locality" />
		<tag k="ssr:stedsnr" v="575509" />
	</node>
	<node lat="60.21010277922079" lon="9.969977783054048" id="-14092">
		<tag k="name" v="Flattum" />
		<tag k="place" v="farm" />
		<tag k="ssr:stedsnr" v="575646" />
	</node>
	<node lat="60.514613892958714" lon="9.93704166932797" id="-14095">
		<tag k="historic" v="shieling" />
		<tag k="name" v="Nesmosetra" />
		<tag k="place" v="isolated_dwelling" />
		<tag k="ssr:stedsnr" v="575697" />
	</node>
	<node lat="60.588444443511165" lon="9.916927786105484" id="-14096">
		<tag k="historic" v="shieling" />
		<tag k="name" v="Kastsetra" />
		<tag k="place" v="isolated_dwelling" />
		<tag k="ssr:stedsnr" v="575819" />
	</node>
	<node lat="60.32539166848811" lon="9.953497221216447" id="-14097">
		<tag k="name" v="Lyngehytta" />
		<tag k="place" v="isolated_dwelling" />
		<tag k="ssr:stedsnr" v="575899" />
	</node>
	<node lat="60.20399166682167" lon="10.364025006720539" id="-14102">
		<tag k="name" v="Kværnhusløkka" />
		<tag k="place" v="farm" />
		<tag k="ssr:stedsnr" v="694758" />
	</node>
	<node lat="60.14447777765173" lon="10.1935833353019" id="-14106">
		<tag k="loc_name" v="Møller-Hon" />
		<tag k="name" v="Møllerhon" />
		<tag k="place" v="farm" />
		<tag k="ssr:stedsnr" v="695898" />
	</node>
	<node lat="60.14680555841361" lon="10.18803888403767" id="-14107">
		<tag k="name" v="Myra" />
		<tag k="place" v="farm" />
		<tag k="ssr:stedsnr" v="695899" />
	</node>
	<node lat="60.12372222456123" lon="10.147830550872278" id="-14110">
		<tag k="name" v="Langerud" />
		<tag k="place" v="farm" />
		<tag k="ssr:stedsnr" v="695995" />
	</node>
	<node lat="60.4347749998859" lon="9.960233335989392" id="-14112">
		<tag k="name" v="Aurtjernshytta" />
		<tag k="place" v="isolated_dwelling" />
		<tag k="ssr:stedsnr" v="696132" />
	</node>
	<node lat="60.123318757499774" lon="10.40599551325996" id="-14115">
		<tag k="fixme" v="multiple name tags, choose one and add the other to alt_name" />
		<tag k="historic" v="shieling" />
		<tag k="name" v="Stubbdalssetra;Stuvdal" />
		<tag k="place" v="isolated_dwelling" />
		<tag k="ssr:stedsnr" v="586048" />
	</node>
	<node lat="60.29136388665772" lon="10.009283329994837" id="-14121">
		<tag k="alt_name" v="Lurehøvlvillaen" />
		<tag k="name" v="Lurehølvillaen" />
		<tag k="place" v="isolated_dwelling" />
		<tag k="ssr:stedsnr" v="696625" />
	</node>
	<node lat="60.568877782190135" lon="9.902452770895591" id="-14129">
		<tag k="name" v="Tuppetjern" />
		<tag k="place" v="isolated_dwelling" />
		<tag k="ssr:stedsnr" v="696654" />
	</node>
	<node lat="60.47416388490629" lon="10.110069439600533" id="-14132">
		<tag k="name" v="Dalahytta" />
		<tag k="place" v="isolated_dwelling" />
		<tag k="ssr:stedsnr" v="696752" />
	</node>
	<node lat="60.46975555789746" lon="10.075038891686221" id="-14134">
		<tag k="name" v="Lundestad" />
		<tag k="place" v="farm" />
		<tag k="ssr:stedsnr" v="696757" />
	</node>
	<node lat="60.48164444009107" lon="10.076311110726017" id="-14136">
		<tag k="name" v="Løvskogen" />
		<tag k="place" v="isolated_dwelling" />
		<tag k="ssr:stedsnr" v="696797" />
	</node>
	<node lat="60.551397222626385" lon="9.909094442008529" id="-14138">
		<tag k="name" v="Strand" />
		<tag k="place" v="farm" />
		<tag k="ssr:stedsnr" v="696799" />
	</node>
	<node lat="60.53059166504847" lon="9.927572229912347" id="-14139">
		<tag k="name" v="Damhytta" />
		<tag k="place" v="isolated_dwelling" />
		<tag k="ssr:stedsnr" v="696710" />
	</node>
	<node lat="60.6171166626444" lon="10.012402778392968" id="-14140">
		<tag k="name" v="Snarmyrhytta" />
		<tag k="place" v="isolated_dwelling" />
		<tag k="ssr:stedsnr" v="696840" />
	</node>
	<node lat="60.28193333458155" lon="10.107025004000127" id="-14144">
		<tag k="name" v="Skjærsteinhytta" />
		<tag k="place" v="isolated_dwelling" />
		<tag k="ssr:stedsnr" v="696846" />
	</node>
	<node lat="60.311416668004156" lon="9.981813896429859" id="-14147">
		<tag k="historic" v="shieling" />
		<tag k="name" v="Ormesetra" />
		<tag k="place" v="isolated_dwelling" />
		<tag k="ssr:stedsnr" v="696930" />
	</node>
	<node lat="60.40898055327785" lon="9.8992749974293" id="-14151">
		<tag k="name" v="Halendingskoia" />
		<tag k="place" v="locality" />
		<tag k="ssr:stedsnr" v="697020" />
	</node>
	<node lat="60.199544443394274" lon="9.89265278376133" id="-14157">
		<tag k="name" v="Bjerkesetra" />
		<tag k="place" v="locality" />
		<tag k="ssr:stedsnr" v="697179" />
	</node>
	<node lat="60.22909444413084" lon="9.850886114179188" id="-14161">
		<tag k="name" v="Sjåstad" />
		<tag k="place" v="farm" />
		<tag k="ssr:stedsnr" v="697162" />
	</node>
	<node lat="60.208544446805504" lon="10.10780556248893" id="-14165">
		<tag k="name" v="Østre Veme" />
		<tag k="place" v="farm" />
		<tag k="ssr:stedsnr" v="594155" />
	</node>
	<node lat="60.11766389054803" lon="10.365783331372574" id="-14168">
		<tag k="alt_name" v="Kollebråten" />
		<tag k="name" v="Kallebråtan" />
		<tag k="place" v="farm" />
		<tag k="ssr:stedsnr" v="599166" />
	</node>
	<node lat="60.44758055293303" lon="9.901502770792055" id="-14169">
		<tag k="historic" v="shieling" />
		<tag k="name" v="Fjellsetra" />
		<tag k="place" v="isolated_dwelling" />
		<tag k="ssr:stedsnr" v="599898" />
	</node>
	<node lat="60.06292801745273" lon="10.07478307885353" id="-14170">
		<tag k="name" v="Haug" />
		<tag k="place" v="hamlet" />
		<tag k="ssr:stedsnr" v="604531" />
	</node>
	<node lat="60.24870165772194" lon="9.74549096481408" id="-14173">
		<tag k="alt_name" v="Svenplassen" />
		<tag k="fixme" v="consider place=hamlet" />
		<tag k="name" v="Svendplassen" />
		<tag k="place" v="farm" />
		<tag k="ssr:stedsnr" v="611005" />
	</node>
	<node lat="60.12266666359338" lon="10.392536105105652" id="-14174">
		<tag k="name" v="Persløkka" />
		<tag k="place" v="farm" />
		<tag k="ssr:stedsnr" v="611070" />
	</node>
	<node lat="60.12457352334484" lon="10.367600631636783" id="-14175">
		<tag k="fixme" v="consider place=hamlet" />
		<tag k="name" v="Pjåka" />
		<tag k="place" v="farm" />
		<tag k="ssr:stedsnr" v="611087" />
	</node>
	<node lat="60.125574085101164" lon="10.364113594745616" id="-14176">
		<tag k="fixme" v="consider place=hamlet" />
		<tag k="name" v="Åsa" />
		<tag k="place" v="farm" />
		<tag k="ssr:stedsnr" v="611088" />
	</node>
	<node lat="60.231612943839785" lon="9.841909321836683" id="-14177">
		<tag k="name" v="Mokastet" />
		<tag k="place" v="isolated_dwelling" />
		<tag k="ssr:stedsnr" v="611215" />
	</node>
	<node lat="60.235850001568785" lon="9.787241672700343" id="-14178">
		<tag k="name" v="Støa" />
		<tag k="place" v="isolated_dwelling" />
		<tag k="ssr:stedsnr" v="611222" />
	</node>
	<node lat="60.24029721797524" lon="9.804777777576856" id="-14179">
		<tag k="alt_name" v="Snekkerbråten" />
		<tag k="name" v="Snekkerbråtan" />
		<tag k="place" v="isolated_dwelling" />
		<tag k="ssr:stedsnr" v="611223" />
	</node>
	<node lat="60.23492777910193" lon="9.914525006598193" id="-14180">
		<tag k="fixme" v="multiple name tags, choose one and add the other to alt_name" />
		<tag k="name" v="Rosenlund;Bjørke" />
		<tag k="place" v="farm" />
		<tag k="ssr:stedsnr" v="611225" />
	</node>
	<node lat="60.234078529373264" lon="9.951475989411142" id="-14181">
		<tag k="fixme" v="consider place=hamlet" />
		<tag k="name" v="Pukerud" />
		<tag k="place" v="farm" />
		<tag k="ssr:stedsnr" v="611228" />
	</node>
	<node lat="60.21525683969916" lon="9.820045980942052" id="-14183">
		<tag k="fixme" v="consider place=hamlet" />
		<tag k="name" v="Bliksrud" />
		<tag k="place" v="farm" />
		<tag k="ssr:stedsnr" v="611170" />
	</node>
	<node lat="60.22107500357191" lon="9.825683324646247" id="-14186">
		<tag k="name" v="Langerud" />
		<tag k="place" v="farm" />
		<tag k="ssr:stedsnr" v="611191" />
	</node>
	<node lat="60.05315371157937" lon="10.054538796127371" id="-14188">
		<tag k="name" v="Grefsrud" />
		<tag k="place" v="farm" />
		<tag k="ssr:stedsnr" v="611374" />
	</node>
	<node lat="60.21532260505714" lon="10.20419209940144" id="-14189">
		<tag k="fixme" v="consider place=hamlet" />
		<tag k="name" v="Støa" />
		<tag k="place" v="farm" />
		<tag k="ssr:stedsnr" v="611508" />
	</node>
	<node lat="60.373266669205144" lon="10.084761117874844" id="-14192">
		<tag k="alt_name" v="Øvre Vollen" />
		<tag k="name" v="Øvrevollen" />
		<tag k="place" v="isolated_dwelling" />
		<tag k="ssr:stedsnr" v="611616" />
	</node>
	<node lat="60.17689166558843" lon="10.176508339956898" id="-14193">
		<tag k="name" v="Berget" />
		<tag k="place" v="farm" />
		<tag k="ssr:stedsnr" v="611620" />
	</node>
	<node lat="60.15690555817967" lon="10.126911119363639" id="-14195">
		<tag k="name" v="Ulveset" />
		<tag k="place" v="isolated_dwelling" />
		<tag k="ssr:stedsnr" v="611672" />
	</node>
	<node lat="60.10370600985697" lon="10.081159932484573" id="-14197">
		<tag k="alt_name" v="Bråten" />
		<tag k="name" v="Bråtan" />
		<tag k="place" v="farm" />
		<tag k="ssr:stedsnr" v="611691" />
	</node>
	<node lat="60.12617955217944" lon="10.281639659595216" id="-14201">
		<tag k="fixme" v="consider place=hamlet" />
		<tag k="name" v="Bråk" />
		<tag k="place" v="farm" />
		<tag k="ssr:stedsnr" v="611727" />
	</node>
	<node lat="60.17942499808565" lon="9.884955550332704" id="-14204">
		<tag k="name" v="Grytehytta" />
		<tag k="place" v="isolated_dwelling" />
		<tag k="ssr:stedsnr" v="611772" />
	</node>
	<node lat="60.09667942088817" lon="10.571021932425198" id="-14208">
		<tag k="historic" v="shieling" />
		<tag k="name" v="Langlia" />
		<tag k="place" v="isolated_dwelling" />
		<tag k="ssr:stedsnr" v="612166" />
	</node>
	<node lat="60.415644440496834" lon="10.055394438573657" id="-14214">
		<tag k="name" v="Maristua" />
		<tag k="place" v="farm" />
		<tag k="ssr:stedsnr" v="612385" />
	</node>
	<node lat="60.30835555502535" lon="10.185611103808125" id="-14216">
		<tag k="name" v="Haugset" />
		<tag k="place" v="farm" />
		<tag k="ssr:stedsnr" v="612516" />
	</node>
	<node lat="60.31281982324273" lon="10.170387622202275" id="-14217">
		<tag k="alt_name" v="Somdalen;Somdalen midtre" />
		<tag k="name" v="Midtre Somdalen" />
		<tag k="place" v="farm" />
		<tag k="ssr:stedsnr" v="612518" />
	</node>
	<node lat="60.2161861541295" lon="10.38311411564769" id="-14218">
		<tag k="fixme" v="consider place=hamlet" />
		<tag k="name" v="Gjørud" />
		<tag k="place" v="farm" />
		<tag k="ssr:stedsnr" v="612525" />
	</node>
	<node lat="60.4769249968494" lon="9.99973333064314" id="-14221">
		<tag k="name" v="Liahytta" />
		<tag k="place" v="isolated_dwelling" />
		<tag k="ssr:stedsnr" v="612715" />
	</node>
	<node lat="60.39394166776595" lon="10.049863887058267" id="-14223">
		<tag k="name" v="Gryte" />
		<tag k="place" v="farm" />
		<tag k="ssr:stedsnr" v="613263" />
	</node>
	<node lat="60.27795277935958" lon="10.19452778646475" id="-14224">
		<tag k="name" v="Bergkastet" />
		<tag k="place" v="farm" />
		<tag k="ssr:stedsnr" v="613417" />
	</node>
	<node lat="60.31927499674003" lon="9.873680560385147" id="-14232">
		<tag k="name" v="Krokbekkmoen" />
		<tag k="place" v="isolated_dwelling" />
		<tag k="ssr:stedsnr" v="613818" />
	</node>
	<node lat="60.556809243431886" lon="9.859052059919705" id="-14233">
		<tag k="alt_name" v="Urda" />
		<tag k="name" v="Ulen" />
		<tag k="place" v="locality" />
		<tag k="ssr:stedsnr" v="613824" />
	</node>
	<node lat="60.57776388901855" lon="9.992966662010943" id="-14243">
		<tag k="name" v="Tjernstua" />
		<tag k="place" v="farm" />
		<tag k="ssr:stedsnr" v="631501" />
	</node>
	<node lat="60.113143032036405" lon="10.405911855225089" id="-14245">
		<tag k="alt_name" v="Skjørvoldhytta" />
		<tag k="name" v="Sjørvollshytta" />
		<tag k="place" v="locality" />
		<tag k="ssr:stedsnr" v="632047" />
	</node>
	<node lat="60.185666666144925" lon="10.255658325226365" id="-14246">
		<tag k="amenity" v="sports_centre" />
		<tag k="name" v="Ringerikshallen" />
		<tag k="ssr:stedsnr" v="632130" />
	</node>
	<node lat="60.145099502039294" lon="10.275822042021408" id="-14252">
		<tag k="name" v="Lunden" />
		<tag k="place" v="farm" />
		<tag k="ssr:stedsnr" v="632895" />
	</node>
	<node lat="60.163258331022924" lon="10.346944449502168" id="-14253">
		<tag k="name" v="Tjernsbråten" />
		<tag k="place" v="farm" />
		<tag k="ssr:stedsnr" v="632991" />
	</node>
	<node lat="60.11405555688139" lon="10.515486116612974" id="-14256">
		<tag k="name" v="Haukehytta" />
		<tag k="place" v="isolated_dwelling" />
		<tag k="ssr:stedsnr" v="633413" />
	</node>
	<node lat="60.120369448353806" lon="10.238236107291874" id="-14262">
		<tag k="name" v="Snadden" />
		<tag k="place" v="farm" />
		<tag k="ssr:stedsnr" v="634305" />
	</node>
	<node lat="60.11849166264824" lon="10.04207222880301" id="-14264">
		<tag k="historic" v="shieling" />
		<tag k="name" v="Grotlia" />
		<tag k="place" v="isolated_dwelling" />
		<tag k="ssr:stedsnr" v="635003" />
	</node>
	<node lat="60.147580554481934" lon="10.220716658364676" id="-14265">
		<tag k="name" v="Nordre Dal" />
		<tag k="place" v="locality" />
		<tag k="ssr:stedsnr" v="634986" />
	</node>
	<node lat="60.454441668244954" lon="10.029950000162875" id="-14270">
		<tag k="name" v="Bergly" />
		<tag k="place" v="farm" />
		<tag k="ssr:stedsnr" v="635318" />
	</node>
	<node lat="60.47885277990873" lon="10.078130558443101" id="-14278">
		<tag k="name" v="Stakabråten" />
		<tag k="place" v="farm" />
		<tag k="ssr:stedsnr" v="635814" />
	</node>
	<node lat="60.47472777598492" lon="10.073086109585534" id="-14288">
		<tag k="fixme" v="multiple name tags, choose one and add the other to alt_name" />
		<tag k="name" v="Nordre Blakstveit;Nørdrestua" />
		<tag k="place" v="farm" />
		<tag k="ssr:stedsnr" v="635787" />
	</node>
	<node lat="60.55651944025835" lon="9.949616661248648" id="-14289">
		<tag k="name" v="Nybråtestykket" />
		<tag k="place" v="locality" />
		<tag k="ssr:stedsnr" v="635794" />
	</node>
	<node lat="60.240924996045905" lon="10.095825005405056" id="-14290">
		<tag k="historic" v="shieling" />
		<tag k="name" v="Hagåssetra" />
		<tag k="place" v="isolated_dwelling" />
		<tag k="ssr:stedsnr" v="635797" />
	</node>
	<node lat="60.54476944613287" lon="9.827513890953254" id="-14298">
		<tag k="name" v="Bakkeholmen" />
		<tag k="place" v="farm" />
		<tag k="ssr:stedsnr" v="636303" />
	</node>
	<node lat="60.54790277881441" lon="9.812988889004744" id="-14299">
		<tag k="name" v="Rud" />
		<tag k="place" v="farm" />
		<tag k="ssr:stedsnr" v="636305" />
	</node>
	<node lat="60.15871110669255" lon="10.495102778878627" id="-14313">
		<tag k="historic" v="shieling" />
		<tag k="name" v="Spålssetra" />
		<tag k="place" v="isolated_dwelling" />
		<tag k="ssr:stedsnr" v="659008" />
	</node>
	<node lat="60.15245277609187" lon="10.386644447957917" id="-14314">
		<tag k="historic" v="shieling" />
		<tag k="name" v="Håvardssetra" />
		<tag k="place" v="isolated_dwelling" />
		<tag k="ssr:stedsnr" v="660011" />
	</node>
	<node lat="60.123524999090634" lon="10.37477222065082" id="-14329">
		<tag k="name" v="Bakken" />
		<tag k="place" v="farm" />
		<tag k="ssr:stedsnr" v="672067" />
	</node>
	<node lat="60.241047781589224" lon="9.90847134089961" id="-14331">
		<tag k="fixme" v="consider place=hamlet" />
		<tag k="name" v="Berg" />
		<tag k="place" v="farm" />
		<tag k="ssr:stedsnr" v="672211" />
	</node>
	<node lat="60.20733107306244" lon="9.841953435438635" id="-14336">
		<tag k="name" v="Solbakken" />
		<tag k="place" v="farm" />
		<tag k="ssr:stedsnr" v="672169" />
	</node>
	<node lat="60.2141057771297" lon="9.845441904261126" id="-14337">
		<tag k="name" v="Kollen" />
		<tag k="place" v="locality" />
		<tag k="ssr:stedsnr" v="672172" />
	</node>
	<node lat="60.1159388930981" lon="10.363319452290034" id="-14338">
		<tag k="name" v="Fuglesangen" />
		<tag k="place" v="farm" />
		<tag k="ssr:stedsnr" v="672175" />
	</node>
	<node lat="60.22254999936388" lon="9.838725003576556" id="-14340">
		<tag k="name" v="Solli" />
		<tag k="place" v="farm" />
		<tag k="ssr:stedsnr" v="672188" />
	</node>
	<node lat="60.05521944622907" lon="10.009700000216245" id="-14341">
		<tag k="name" v="Karlsrud" />
		<tag k="place" v="farm" />
		<tag k="ssr:stedsnr" v="672308" />
	</node>
	<node lat="60.08557222425722" lon="10.112150002703569" id="-14344">
		<tag k="building" v="industrial" />
		<tag k="industrial" v="factory" />
		<tag k="name" v="Skjærdalen bruk" />
		<tag k="ssr:stedsnr" v="672265" />
	</node>
	<node lat="60.19762679534631" lon="10.161303180918848" id="-14345">
		<tag k="name" v="Nøkleby" />
		<tag k="place" v="farm" />
		<tag k="ssr:stedsnr" v="672504" />
	</node>
	<node lat="60.159425001047154" lon="10.290508335537577" id="-14347">
		<tag k="name" v="Skøyen" />
		<tag k="place" v="farm" />
		<tag k="ssr:stedsnr" v="672565" />
	</node>
	<node lat="60.10358611503642" lon="10.060161113918234" id="-14349">
		<tag k="name" v="Kvernvollen" />
		<tag k="place" v="farm" />
		<tag k="ssr:stedsnr" v="672732" />
	</node>
	<node lat="60.227792444669674" lon="10.114439510030753" id="-14353">
		<tag k="name" v="Heggelia" />
		<tag k="old_name" v="Hægglien;Heggelien" />
		<tag k="place" v="hamlet" />
		<tag k="ssr:stedsnr" v="890747" />
	</node>
	<node lat="60.14782500327952" lon="10.238786114063675" id="-14354">
		<tag k="alt_name" v="Folafoss" />
		<tag k="name" v="Folefoss" />
		<tag k="old_name" v="Faalefos" />
		<tag k="place" v="farm" />
		<tag k="ssr:stedsnr" v="672612" />
	</node>
	<node lat="60.146627778190975" lon="10.217833331082593" id="-14355">
		<tag k="alt_name" v="Dal" />
		<tag k="name" v="Øvre Dal" />
		<tag k="place" v="farm" />
		<tag k="ssr:stedsnr" v="672613" />
	</node>
	<node lat="60.09623888975789" lon="10.550719448753721" id="-14360">
		<tag k="alt_name" v="Svartvannskoia" />
		<tag k="name" v="Svartenkoia" />
		<tag k="place" v="isolated_dwelling" />
		<tag k="ssr:stedsnr" v="673166" />
	</node>
	<node lat="60.10377304910114" lon="10.39193974120686" id="-14362">
		<tag k="historic" v="shieling" />
		<tag k="name" v="Gyrihaugsetra" />
		<tag k="place" v="isolated_dwelling" />
		<tag k="ssr:stedsnr" v="673175" />
	</node>
	<node lat="60.29244444751038" lon="10.17269721714526" id="-14363">
		<tag k="name" v="Røstby" />
		<tag k="place" v="farm" />
		<tag k="ssr:stedsnr" v="673405" />
	</node>
	<node lat="60.20494126512103" lon="10.369988107274613" id="-14365">
		<tag k="fixme" v="consider place=hamlet" />
		<tag k="name" v="Kittelsby" />
		<tag k="place" v="farm" />
		<tag k="ssr:stedsnr" v="673464" />
	</node>
	<node lat="60.211780557270124" lon="10.381399992378864" id="-14366">
		<tag k="name" v="Ask" />
		<tag k="place" v="farm" />
		<tag k="ssr:stedsnr" v="673515" />
	</node>
	<node lat="60.344544444248314" lon="10.175636109356262" id="-14371">
		<tag k="name" v="Nersetra" />
		<tag k="place" v="farm" />
		<tag k="ssr:stedsnr" v="673578" />
	</node>
	<node lat="60.492155553458026" lon="10.148230559331841" id="-14372">
		<tag k="historic" v="shieling" />
		<tag k="name" v="Rustansetra" />
		<tag k="place" v="isolated_dwelling" />
		<tag k="ssr:stedsnr" v="673714" />
	</node>
	<node lat="60.48596007912225" lon="10.004301201236132" id="-14373">
		<tag k="alt_name" v="Skarrud" />
		<tag k="fixme" v="consider place=hamlet" />
		<tag k="loc_name" v="Skarderud" />
		<tag k="name" v="Skalerud" />
		<tag k="place" v="farm" />
		<tag k="ssr:stedsnr" v="673721" />
	</node>
	<node lat="60.264113885310366" lon="10.06710832546489" id="-14377">
		<tag k="alt_name" v="Nordvola" />
		<tag k="name" v="Nordvolla" />
		<tag k="place" v="isolated_dwelling" />
		<tag k="ssr:stedsnr" v="674412" />
	</node>
	<node lat="60.26416111541251" lon="10.293997217025092" id="-14379">
		<tag k="historic" v="shieling" />
		<tag k="name" v="Hovssetra" />
		<tag k="place" v="isolated_dwelling" />
		<tag k="ssr:stedsnr" v="674306" />
	</node>
	<node lat="60.5399944467759" lon="10.116188886027897" id="-14387">
		<tag k="name" v="Åsheim" />
		<tag k="place" v="farm" />
		<tag k="ssr:stedsnr" v="692178" />
	</node>
	<node lat="60.572472219191184" lon="9.990624994303186" id="-14388">
		<tag k="name" v="Nordre Øymoen" />
		<tag k="place" v="farm" />
		<tag k="ssr:stedsnr" v="692479" />
	</node>
	<node lat="60.546716664944185" lon="9.966858325218157" id="-14389">
		<tag k="name" v="Nordre Løken" />
		<tag k="place" v="isolated_dwelling" />
		<tag k="ssr:stedsnr" v="692482" />
	</node>
	<node lat="60.16749722443948" lon="10.303233332293155" id="-14390">
		<tag k="name" v="Nordre Sætrang" />
		<tag k="place" v="farm" />
		<tag k="ssr:stedsnr" v="692487" />
	</node>
	<node lat="60.18735277892135" lon="10.34827499705576" id="-14391">
		<tag k="name" v="Larsbråten" />
		<tag k="place" v="isolated_dwelling" />
		<tag k="ssr:stedsnr" v="692906" />
	</node>
	<node lat="60.17721388667773" lon="10.34995556104196" id="-14392">
		<tag k="name" v="Vesleenga" />
		<tag k="place" v="isolated_dwelling" />
		<tag k="ssr:stedsnr" v="692920" />
	</node>
	<node lat="60.51127222013109" lon="10.083275006687494" id="-14394">
		<tag k="name" v="Stensvoll" />
		<tag k="place" v="farm" />
		<tag k="ssr:stedsnr" v="693213" />
	</node>
	<node lat="60.1248418616079" lon="10.269743830824824" id="-14396">
		<tag k="name" v="Frok" />
		<tag k="place" v="farm" />
		<tag k="ssr:stedsnr" v="693103" />
	</node>
	<node lat="60.1241583299783" lon="10.263527771947372" id="-14397">
		<tag k="name" v="Juverly" />
		<tag k="place" v="isolated_dwelling" />
		<tag k="ssr:stedsnr" v="693104" />
	</node>
	<node lat="60.1289656059193" lon="10.351850138173646" id="-14400">
		<tag k="amenity" v="school" />
		<tag k="name" v="Steinsfjorden Montessoriskole" />
		<tag k="old_name" v="Vegård skole" />
		<tag k="ssr:stedsnr" v="693512" />
	</node>
	<node lat="60.232691662926065" lon="10.167761106411923" id="-14406">
		<tag k="name" v="Hovtun" />
		<tag k="place" v="farm" />
		<tag k="ssr:stedsnr" v="694019" />
	</node>
	<node lat="60.23178611465073" lon="10.267400001587081" id="-14409">
		<tag k="name" v="Nordli" />
		<tag k="place" v="farm" />
		<tag k="ssr:stedsnr" v="694767" />
	</node>
	<node lat="60.21259722514382" lon="10.370152785603052" id="-14410">
		<tag k="name" v="Haugerud" />
		<tag k="place" v="isolated_dwelling" />
		<tag k="ssr:stedsnr" v="694770" />
	</node>
	<node lat="60.0938749999916" lon="10.078194445506353" id="-14417">
		<tag k="name" v="Lauvli" />
		<tag k="place" v="farm" />
		<tag k="ssr:stedsnr" v="696068" />
	</node>
	<node lat="60.522311108050225" lon="9.931672221171654" id="-14429">
		<tag k="historic" v="shieling" />
		<tag k="name" v="Knappåsseter" />
		<tag k="place" v="isolated_dwelling" />
		<tag k="ssr:stedsnr" v="696704" />
	</node>
	<node lat="60.20156111495374" lon="9.975097216796943" id="-14430">
		<tag k="name" v="Skogheim" />
		<tag k="place" v="farm" />
		<tag k="ssr:stedsnr" v="696676" />
	</node>
	<node lat="60.553025001825844" lon="9.940852786181999" id="-14433">
		<tag k="name" v="Nordre Auren" />
		<tag k="place" v="farm" />
		<tag k="ssr:stedsnr" v="696807" />
	</node>
	<node lat="60.555288887274955" lon="9.929463896068569" id="-14434">
		<tag k="name" v="Amundfoss" />
		<tag k="place" v="isolated_dwelling" />
		<tag k="ssr:stedsnr" v="696813" />
	</node>
	<node lat="60.40899166961168" lon="10.082180550111545" id="-14436">
		<tag k="name" v="Bjørkeåsen" />
		<tag k="place" v="farm" />
		<tag k="ssr:stedsnr" v="696876" />
	</node>
	<node lat="60.27561389068538" lon="10.043580555786997" id="-14437">
		<tag k="name" v="Villaen" />
		<tag k="place" v="isolated_dwelling" />
		<tag k="ssr:stedsnr" v="696878" />
	</node>
	<node lat="60.20271388844794" lon="10.102738893391802" id="-14444">
		<tag k="name" v="Holmen" />
		<tag k="place" v="farm" />
		<tag k="ssr:stedsnr" v="696779" />
	</node>
	<node lat="60.20775875167734" lon="9.988820217665335" id="-14465">
		<tag k="fixme" v="consider place=hamlet" />
		<tag k="name" v="Bårnås" />
		<tag k="place" v="farm" />
		<tag k="ssr:stedsnr" v="732546" />
	</node>
	<node lat="60.18352221783019" lon="9.890161110043046" id="-14472">
		<tag k="name" v="Slettesetra" />
		<tag k="place" v="isolated_dwelling" />
		<tag k="ssr:stedsnr" v="733146" />
	</node>
	<node lat="60.19506944544559" lon="9.866533332646553" id="-14474">
		<tag k="alt_name" v="Sæteråsen" />
		<tag k="historic" v="shieling" />
		<tag k="name" v="Seteråsen" />
		<tag k="place" v="isolated_dwelling" />
		<tag k="ssr:stedsnr" v="733156" />
	</node>
	<node lat="60.04331276410222" lon="10.015244611911115" id="-14478">
		<tag k="fixme" v="consider place=hamlet" />
		<tag k="name" v="Solum" />
		<tag k="place" v="farm" />
		<tag k="ssr:stedsnr" v="733301" />
	</node>
	<node lat="60.21686655438463" lon="10.370850617851284" id="-14479">
		<tag k="name" v="Nordre Aslaksrud" />
		<tag k="place" v="farm" />
		<tag k="ssr:stedsnr" v="733455" />
	</node>
	<node lat="60.34526666326438" lon="10.035816671489394" id="-14480">
		<tag k="historic" v="shieling" />
		<tag k="name" v="Flaskerudsetra" />
		<tag k="place" v="isolated_dwelling" />
		<tag k="ssr:stedsnr" v="733535" />
	</node>
	<node lat="60.179134813601365" lon="10.175382210608385" id="-14481">
		<tag k="alt_name" v="Heiern" />
		<tag k="fixme" v="consider place=hamlet" />
		<tag k="name" v="Heieren" />
		<tag k="place" v="farm" />
		<tag k="ssr:stedsnr" v="733537" />
	</node>
	<node lat="60.20153333426122" lon="9.980325006237138" id="-14482">
		<tag k="name" v="Finnerud" />
		<tag k="place" v="farm" />
		<tag k="ssr:stedsnr" v="733505" />
	</node>
	<node lat="60.18116075042373" lon="10.279741054593323" id="-14483">
		<tag k="fixme" v="consider place=hamlet" />
		<tag k="name" v="Hov" />
		<tag k="place" v="farm" />
		<tag k="ssr:stedsnr" v="733543" />
	</node>
	<node lat="60.19675968566151" lon="10.133710282497029" id="-14484">
		<tag k="name" v="Lia" />
		<tag k="place" v="farm" />
		<tag k="ssr:stedsnr" v="733506" />
	</node>
	<node lat="60.14356944273003" lon="10.249063897551176" id="-14487">
		<tag k="alt_name" v="Kartverket" />
		<tag k="building" v="commercial" />
		<tag k="name" v="Statens kartverk" />
		<tag k="ssr:stedsnr" v="733591" />
	</node>
	<node lat="60.13650814453246" lon="10.300675433393069" id="-14489">
		<tag k="alt_name" v="Vaker" />
		<tag k="name" v="Søndre Vaker" />
		<tag k="place" v="farm" />
		<tag k="ssr:stedsnr" v="733635" />
	</node>
	<node lat="60.13883212140391" lon="10.352324550188023" id="-14494">
		<tag k="name" v="Østby" />
		<tag k="place" v="farm" />
		<tag k="ssr:stedsnr" v="734109" />
	</node>
	<node lat="60.09074002674368" lon="10.425223971446538" id="-14497">
		<tag k="historic" v="shieling" />
		<tag k="name" v="Lauvlia" />
		<tag k="place" v="isolated_dwelling" />
		<tag k="ssr:stedsnr" v="734150" />
	</node>
	<node lat="60.39961111315738" lon="10.071044437237864" id="-14498">
		<tag k="name" v="Renna" />
		<tag k="place" v="farm" />
		<tag k="ssr:stedsnr" v="734309" />
	</node>
	<node lat="60.42716111497773" lon="10.131477776709897" id="-14502">
		<tag k="alt_name" v="Nordhagasætra" />
		<tag k="historic" v="shieling" />
		<tag k="name" v="Nordhagasetra" />
		<tag k="place" v="isolated_dwelling" />
		<tag k="ssr:stedsnr" v="734407" />
	</node>
	<node lat="60.32556944661448" lon="10.16131944709428" id="-14504">
		<tag k="alt_name" v="Fjellbråten" />
		<tag k="name" v="Fjellbråtan" />
		<tag k="place" v="farm" />
		<tag k="ssr:stedsnr" v="734486" />
	</node>
	<node lat="60.32536944795615" lon="10.102130560364461" id="-14505">
		<tag k="alt_name" v="Lia" />
		<tag k="name" v="Nordre Lia" />
		<tag k="place" v="farm" />
		<tag k="ssr:stedsnr" v="734499" />
	</node>
	<node lat="60.307731377380534" lon="10.170476523214186" id="-14508">
		<tag k="alt_name" v="Somdalen;Somdalen nordre" />
		<tag k="name" v="Nordre Somdalen" />
		<tag k="place" v="farm" />
		<tag k="ssr:stedsnr" v="734536" />
	</node>
	<node lat="60.46568333297961" lon="10.077225002184075" id="-14509">
		<tag k="name" v="Engerlia" />
		<tag k="place" v="farm" />
		<tag k="ssr:stedsnr" v="734582" />
	</node>
	<node lat="60.48463055540173" lon="10.156958338532808" id="-14510">
		<tag k="historic" v="shieling" />
		<tag k="name" v="Blakstveitsetra" />
		<tag k="place" v="isolated_dwelling" />
		<tag k="ssr:stedsnr" v="734725" />
	</node>
	<node lat="60.488161910199885" lon="10.072926052934454" id="-14511">
		<tag k="fixme" v="consider place=hamlet" />
		<tag k="name" v="Rustan" />
		<tag k="place" v="farm" />
		<tag k="ssr:stedsnr" v="734727" />
	</node>
	<node lat="60.48722499563283" lon="10.027183331046993" id="-14512">
		<tag k="name" v="Simensrud" />
		<tag k="place" v="farm" />
		<tag k="ssr:stedsnr" v="734729" />
	</node>
	<node lat="60.2913000034127" lon="9.876552781134828" id="-14514">
		<tag k="name" v="Kikut" />
		<tag k="place" v="isolated_dwelling" />
		<tag k="ssr:stedsnr" v="734692" />
	</node>
	<node lat="60.29944166584189" lon="9.752074995532556" id="-14515">
		<tag k="name" v="Snaret" />
		<tag k="place" v="isolated_dwelling" />
		<tag k="ssr:stedsnr" v="734700" />
	</node>
	<node lat="60.3456384197552" lon="9.852210429927263" id="-14517">
		<tag k="name" v="Nordre Strømsodd" />
		<tag k="place" v="farm" />
		<tag k="ssr:stedsnr" v="734844" />
	</node>
	<node lat="60.46334166690649" lon="9.937250005830128" id="-14519">
		<tag k="name" v="Svarttjernshytta" />
		<tag k="place" v="isolated_dwelling" />
		<tag k="ssr:stedsnr" v="734896" />
	</node>
	<node lat="60.37881388567334" lon="9.822586105492862" id="-14521">
		<tag k="name" v="Hølen" />
		<tag k="place" v="farm" />
		<tag k="ssr:stedsnr" v="734783" />
	</node>
	<node lat="60.41543610909461" lon="9.838750008532415" id="-14523">
		<tag k="historic" v="shieling" />
		<tag k="name" v="Tungasetra" />
		<tag k="old_name" v="Tungaseter" />
		<tag k="place" v="isolated_dwelling" />
		<tag k="ssr:stedsnr" v="734999" />
	</node>
	<node lat="60.139955555403525" lon="10.441041665295524" id="-14528">
		<tag k="historic" v="shieling" />
		<tag k="name" v="Viksetra" />
		<tag k="place" v="isolated_dwelling" />
		<tag k="ssr:stedsnr" v="903086" />
	</node>
	<node lat="60.29799999901454" lon="9.799477777676085" id="-14529">
		<tag k="alt_name" v="Milebråten" />
		<tag k="name" v="Milebråtan" />
		<tag k="place" v="isolated_dwelling" />
		<tag k="ssr:stedsnr" v="903673" />
	</node>
	<node lat="60.18781111204455" lon="10.362363896960034" id="-14532">
		<tag k="name" v="Nedre Stigsrud" />
		<tag k="place" v="farm" />
		<tag k="ssr:stedsnr" v="752918" />
	</node>
	<node lat="60.24285555642487" lon="9.931347220442586" id="-14533">
		<tag k="amenity" v="school" />
		<tag k="name" v="Sokna skole" />
		<tag k="ssr:stedsnr" v="752863" />
	</node>
	<node lat="60.191494448230735" lon="10.331263896293388" id="-14534">
		<tag k="name" v="Enighet" />
		<tag k="place" v="isolated_dwelling" />
		<tag k="ssr:stedsnr" v="752866" />
	</node>
	<node lat="60.054008329274815" lon="10.048661118828239" id="-14539">
		<tag k="amenity" v="nursing_home" />
		<tag k="name" v="Tyribo" />
		<tag k="ssr:stedsnr" v="753574" />
	</node>
	<node lat="60.13920277745108" lon="10.308166660579845" id="-14541">
		<tag k="name" v="Haugerud" />
		<tag k="place" v="isolated_dwelling" />
		<tag k="ssr:stedsnr" v="753870" />
	</node>
	<node lat="60.14108889261196" lon="10.310877774303112" id="-14542">
		<tag k="name" v="Storløkken" />
		<tag k="place" v="isolated_dwelling" />
		<tag k="ssr:stedsnr" v="753871" />
	</node>
	<node lat="60.39410556003199" lon="10.184769437042107" id="-14545">
		<tag k="historic" v="shieling" />
		<tag k="name" v="Eivindsetra" />
		<tag k="place" v="isolated_dwelling" />
		<tag k="ssr:stedsnr" v="754319" />
	</node>
	<node lat="60.166522219448574" lon="10.388038897319241" id="-14546">
		<tag k="fixme" v="consider tourism=alpine_hut or tourism=chalet" />
		<tag k="name" v="Ringkollstua" />
		<tag k="ssr:stedsnr" v="754324" />
		<tag k="tourism" v="wilderness_hut" />
	</node>
	<node lat="60.50501944064941" lon="10.080172220698676" id="-14548">
		<tag k="name" v="Askemyr" />
		<tag k="place" v="farm" />
		<tag k="ssr:stedsnr" v="754224" />
	</node>
	<node lat="60.13920578400104" lon="10.272467164941837" id="-14551">
		<tag k="name" v="Øvre Tanberg" />
		<tag k="place" v="farm" />
		<tag k="ssr:stedsnr" v="754916" />
	</node>
	<node lat="60.097669446299676" lon="10.108216665303377" id="-14552">
		<tag k="name" v="Bergli" />
		<tag k="place" v="isolated_dwelling" />
		<tag k="ssr:stedsnr" v="755016" />
	</node>
	<node lat="60.391683329954084" lon="9.879819448398509" id="-14559">
		<tag k="name" v="Trollheim" />
		<tag k="place" v="isolated_dwelling" />
		<tag k="ssr:stedsnr" v="757010" />
	</node>
	<node lat="60.14562500062828" lon="10.074327783190412" id="-14563">
		<tag k="name" v="Skjærsjøstua" />
		<tag k="place" v="isolated_dwelling" />
		<tag k="ssr:stedsnr" v="757162" />
	</node>
	<node lat="60.45342499960807" lon="10.024300001542784" id="-14564">
		<tag k="name" v="Haugen" />
		<tag k="place" v="farm" />
		<tag k="ssr:stedsnr" v="757307" />
	</node>
	<node lat="60.33886666788514" lon="9.86901111007969" id="-14567">
		<tag k="name" v="Knuteplassen" />
		<tag k="place" v="farm" />
		<tag k="ssr:stedsnr" v="757519" />
	</node>
	<node lat="60.50538332951444" lon="9.912708329604097" id="-14570">
		<tag k="historic" v="shieling" />
		<tag k="name" v="Fjellsetra" />
		<tag k="place" v="isolated_dwelling" />
		<tag k="ssr:stedsnr" v="757716" />
	</node>
	<node lat="60.187091662930236" lon="10.46664999553985" id="-14588">
		<tag k="name" v="Kingehytta" />
		<tag k="place" v="isolated_dwelling" />
		<tag k="ssr:stedsnr" v="762591" />
	</node>
	<node lat="60.042577778751465" lon="10.030499993211413" id="-14594">
		<tag k="name" v="Bruvoll" />
		<tag k="place" v="farm" />
		<tag k="ssr:stedsnr" v="793330" />
	</node>
	<node lat="60.0634583371984" lon="10.060588881171629" id="-14595">
		<tag k="alt_name" v="Bråten" />
		<tag k="name" v="Sørli" />
		<tag k="place" v="farm" />
		<tag k="ssr:stedsnr" v="793280" />
	</node>
	<node lat="60.092202779230675" lon="10.109819440314784" id="-14596">
		<tag k="name" v="Fegri" />
		<tag k="place" v="farm" />
		<tag k="ssr:stedsnr" v="793287" />
	</node>
	<node lat="60.096636113074034" lon="10.083299993265463" id="-14597">
		<tag k="name" v="Smedsrud" />
		<tag k="place" v="farm" />
		<tag k="ssr:stedsnr" v="793290" />
	</node>
	<node lat="60.12774722316709" lon="10.2429138955558" id="-14602">
		<tag k="name" v="Busund" />
		<tag k="place" v="farm" />
		<tag k="ssr:stedsnr" v="793681" />
	</node>
	<node lat="60.20459722145869" lon="10.047161105555391" id="-14603">
		<tag k="alt_name" v="Halling-støveren" />
		<tag k="name" v="Hallingstøveren" />
		<tag k="old_name" v="Halling-Støverne" />
		<tag k="place" v="farm" />
		<tag k="ssr:stedsnr" v="793576" />
	</node>
	<node lat="60.11033610847247" lon="10.074786108956102" id="-14605">
		<tag k="name" v="Kauserud" />
		<tag k="place" v="farm" />
		<tag k="ssr:stedsnr" v="793709" />
	</node>
	<node lat="60.11783055307083" lon="10.216780563093995" id="-14606">
		<tag k="name" v="Gomserud" />
		<tag k="place" v="farm" />
		<tag k="ssr:stedsnr" v="793722" />
	</node>
	<node lat="60.22610842139959" lon="9.93702954139713" id="-14614">
		<tag k="fixme" v="consider place=hamlet" />
		<tag k="name" v="Leirfallet" />
		<tag k="place" v="farm" />
		<tag k="ssr:stedsnr" v="794179" />
	</node>
	<node lat="60.226038885056134" lon="9.956455564463075" id="-14615">
		<tag k="name" v="Strand" />
		<tag k="place" v="farm" />
		<tag k="ssr:stedsnr" v="794183" />
	</node>
	<node lat="60.21377221799735" lon="10.365680552397526" id="-14617">
		<tag k="alt_name" v="Aslaksrud" />
		<tag k="name" v="Søndre Aslaksrud" />
		<tag k="place" v="farm" />
		<tag k="ssr:stedsnr" v="794480" />
	</node>
	<node lat="60.38560000037308" lon="10.126461117344299" id="-14618">
		<tag k="historic" v="shieling" />
		<tag k="name" v="Gullerudsetra" />
		<tag k="place" v="isolated_dwelling" />
		<tag k="ssr:stedsnr" v="794484" />
	</node>
	<node lat="60.37527777420799" lon="10.112049996688402" id="-14620">
		<tag k="name" v="Einarhytta" />
		<tag k="place" v="isolated_dwelling" />
		<tag k="ssr:stedsnr" v="794623" />
	</node>
	<node lat="60.344013889426876" lon="10.059783333844347" id="-14623">
		<tag k="alt_name" v="Halvvegeshytta" />
		<tag k="name" v="Halvvegarhytta" />
		<tag k="old_name" v="Halvvegearhytta" />
		<tag k="place" v="isolated_dwelling" />
		<tag k="ssr:stedsnr" v="794563" />
	</node>
	<node lat="60.17958611319074" lon="10.310338880273136" id="-14624">
		<tag k="name" v="Toen" />
		<tag k="place" v="farm" />
		<tag k="ssr:stedsnr" v="794567" />
	</node>
	<node lat="60.35225833628797" lon="10.103002782441814" id="-14625">
		<tag k="name" v="Heia" />
		<tag k="place" v="farm" />
		<tag k="ssr:stedsnr" v="794570" />
	</node>
	<node lat="60.278874445063785" lon="10.15970724297195" id="-14636">
		<tag k="fixme" v="consider place=hamlet" />
		<tag k="name" v="Skollerud" />
		<tag k="place" v="farm" />
		<tag k="ssr:stedsnr" v="795459" />
	</node>
	<node lat="60.28652777366146" lon="9.926872213478523" id="-14638">
		<tag k="alt_name" v="Hallvadshytta" />
		<tag k="loc_name" v="Halvvadshytta" />
		<tag k="name" v="Halvasshytta" />
		<tag k="place" v="isolated_dwelling" />
		<tag k="ssr:stedsnr" v="795676" />
	</node>
	<node lat="60.33402500189547" lon="9.823108331618743" id="-14639">
		<tag k="name" v="Godthåp" />
		<tag k="place" v="isolated_dwelling" />
		<tag k="ssr:stedsnr" v="795856" />
	</node>
	<node lat="60.334161112158725" lon="9.8662750045527" id="-14640">
		<tag k="name" v="Kastet" />
		<tag k="place" v="farm" />
		<tag k="ssr:stedsnr" v="795872" />
	</node>
	<node lat="60.57133055238962" lon="9.989730562170932" id="-14647">
		<tag k="alt_name" v="Øymoen;Søndre Øymoen" />
		<tag k="name" v="Søre Øymoen" />
		<tag k="place" v="farm" />
		<tag k="ssr:stedsnr" v="796617" />
	</node>
	<node lat="60.60501111076517" lon="9.985299993716518" id="-14650">
		<tag k="name" v="Hella" />
		<tag k="place" v="farm" />
		<tag k="ssr:stedsnr" v="796660" />
	</node>
	<node lat="60.22960422111161" lon="9.968931409065844" id="-14653">
		<tag k="alt_name" v="Sørsdal nedre" />
		<tag k="fixme" v="multiple name tags, choose one and add the other to alt_name" />
		<tag k="name" v="Skraperud;Nedre Sørsdal" />
		<tag k="place" v="farm" />
		<tag k="ssr:stedsnr" v="914537" />
	</node>
	<node lat="60.170597221119166" lon="10.51356110658945" id="-14656">
		<tag k="name" v="Finnstad" />
		<tag k="place" v="farm" />
		<tag k="ssr:stedsnr" v="915015" />
	</node>
	<node lat="60.241428453455654" lon="9.870770932346828" id="-14659">
		<tag k="alt_name" v="Olle" />
		<tag k="name" v="Olde" />
		<tag k="place" v="farm" />
		<tag k="ssr:stedsnr" v="915201" />
	</node>
	<node lat="60.2422138865131" lon="9.854999997134861" id="-14662">
		<tag k="name" v="Sjåheim" />
		<tag k="place" v="farm" />
		<tag k="ssr:stedsnr" v="915209" />
	</node>
	<node lat="60.246452776326535" lon="9.78473055447664" id="-14663">
		<tag k="name" v="Bakkane" />
		<tag k="place" v="farm" />
		<tag k="ssr:stedsnr" v="915213" />
	</node>
	<node lat="60.22780555945287" lon="10.274502777766296" id="-14664">
		<tag k="name" v="Øvre Vågård" />
		<tag k="place" v="farm" />
		<tag k="ssr:stedsnr" v="915480" />
	</node>
	<node lat="60.10388188472686" lon="10.392056574656776" id="-14667">
		<tag k="alt_name" v="Huken seter" />
		<tag k="historic" v="shieling" />
		<tag k="name" v="Huken" />
		<tag k="place" v="isolated_dwelling" />
		<tag k="ssr:stedsnr" v="915165" />
	</node>
	<node lat="60.06656666891149" lon="10.031938880291865" id="-14669">
		<tag k="name" v="Bergan" />
		<tag k="place" v="farm" />
		<tag k="ssr:stedsnr" v="915258" />
	</node>
	<node lat="60.13309444415779" lon="10.282169443520035" id="-14670">
		<tag k="name" v="Ringåsen" />
		<tag k="place" v="quarter" />
		<tag k="ssr:stedsnr" v="915646" />
	</node>
	<node lat="60.137318068676784" lon="10.24127698322519" id="-14672">
		<tag k="name" v="Rasarud" />
		<tag k="place" v="locality" />
		<tag k="ssr:stedsnr" v="915660" />
	</node>
	<node lat="60.1325833340683" lon="10.232947222796222" id="-14673">
		<tag k="alt_name" v="Salmakerstua" />
		<tag k="name" v="Salmakerplassen" />
		<tag k="place" v="farm" />
		<tag k="ssr:stedsnr" v="915663" />
	</node>
	<node lat="60.21374533919908" lon="10.04219579846759" id="-14674">
		<tag k="fixme" v="consider place=hamlet" />
		<tag k="name" v="Jonsrud" />
		<tag k="place" v="farm" />
		<tag k="ssr:stedsnr" v="915525" />
	</node>
	<node lat="60.211502533947176" lon="9.997063834682406" id="-14675">
		<tag k="alt_name" v="Storebråten" />
		<tag k="name" v="Storebråtan" />
		<tag k="place" v="farm" />
		<tag k="ssr:stedsnr" v="915527" />
	</node>
	<node lat="60.21338221635984" lon="10.19593191338436" id="-14676">
		<tag k="name" v="Tutanrud" />
		<tag k="place" v="farm" />
		<tag k="ssr:stedsnr" v="915538" />
	</node>
	<node lat="60.18266388952344" lon="10.302158336941774" id="-14677">
		<tag k="name" v="Toenbakken" />
		<tag k="place" v="farm" />
		<tag k="ssr:stedsnr" v="915552" />
	</node>
	<node lat="60.184409625636924" lon="10.323452299512272" id="-14678">
		<tag k="name" v="Hval" />
		<tag k="place" v="hamlet" />
		<tag k="ssr:stedsnr" v="915555" />
	</node>
	<node lat="60.19084166654145" lon="10.22111388807666" id="-14679">
		<tag k="fixme" v="consider place=hamlet" />
		<tag k="name" v="Kile" />
		<tag k="place" v="farm" />
		<tag k="ssr:stedsnr" v="915557" />
	</node>
	<node lat="60.14007058961437" lon="10.174446347341572" id="-14681">
		<tag k="fixme" v="consider place=hamlet" />
		<tag k="name" v="Ask" />
		<tag k="place" v="farm" />
		<tag k="ssr:stedsnr" v="915671" />
	</node>
	<node lat="60.123449417181995" lon="10.269388988024227" id="-14682">
		<tag k="alt_name" v="Frok" />
		<tag k="name" v="Søndre Frok" />
		<tag k="place" v="farm" />
		<tag k="ssr:stedsnr" v="915676" />
	</node>
	<node lat="60.11933064722874" lon="10.22166115781879" id="-14684">
		<tag k="name" v="Mælingen" />
		<tag k="place" v="farm" />
		<tag k="ssr:stedsnr" v="915680" />
	</node>
	<node lat="60.141269443236226" lon="10.346000001673513" id="-14692">
		<tag k="fixme" v="consider place=hamlet" />
		<tag k="name" v="Deli" />
		<tag k="place" v="farm" />
		<tag k="ssr:stedsnr" v="916131" />
	</node>
	<node lat="60.30784166977848" lon="10.083750004801056" id="-14699">
		<tag k="name" v="Lisbu" />
		<tag k="place" v="isolated_dwelling" />
		<tag k="ssr:stedsnr" v="916498" />
	</node>
	<node lat="60.26050832935522" lon="9.949624993599999" id="-14703">
		<tag k="name" v="Nordmoen" />
		<tag k="place" v="farm" />
		<tag k="ssr:stedsnr" v="916657" />
	</node>
	<node lat="60.28262135644349" lon="10.174586390396126" id="-14705">
		<tag k="name" v="Verket" />
		<tag k="place" v="farm" />
		<tag k="ssr:stedsnr" v="916434" />
	</node>
	<node lat="60.29221388911909" lon="9.740402786145898" id="-14708">
		<tag k="name" v="Knuteplassen" />
		<tag k="place" v="farm" />
		<tag k="ssr:stedsnr" v="916696" />
	</node>
	<node lat="60.509052774377516" lon="9.823044449309032" id="-14717">
		<tag k="alt_name" v="Fossæterhytta" />
		<tag k="name" v="Snertingbu" />
		<tag k="place" v="isolated_dwelling" />
		<tag k="ssr:stedsnr" v="917743" />
	</node>
	<node lat="60.194777781063515" lon="10.369047219661779" id="-14719">
		<tag k="name" v="Granli" />
		<tag k="place" v="isolated_dwelling" />
		<tag k="ssr:stedsnr" v="813896" />
	</node>
	<node lat="60.06385555308406" lon="10.076272217204389" id="-14722">
		<tag k="name" v="Mellom-Haug" />
		<tag k="place" v="farm" />
		<tag k="ssr:stedsnr" v="814624" />
	</node>
	<node lat="60.114185029518715" lon="10.351244084981278" id="-14731">
		<tag k="name" v="Grønhella" />
		<tag k="place" v="farm" />
		<tag k="ssr:stedsnr" v="815485" />
	</node>
	<node lat="60.12226666318881" lon="10.369716658556026" id="-14732">
		<tag k="name" v="Søndre Pjåka" />
		<tag k="place" v="farm" />
		<tag k="ssr:stedsnr" v="815486" />
	</node>
	<node lat="60.2000083343686" lon="10.284680552824977" id="-14734">
		<tag k="name" v="Lundestadhagen" />
		<tag k="place" v="farm" />
		<tag k="ssr:stedsnr" v="815807" />
	</node>
	<node lat="60.59411667023191" lon="10.046794435983983" id="-14741">
		<tag k="historic" v="shieling" />
		<tag k="name" v="Gravlimosetra" />
		<tag k="place" v="isolated_dwelling" />
		<tag k="ssr:stedsnr" v="817531" />
	</node>
	<node lat="60.545738893228624" lon="9.829397214218211" id="-14751">
		<tag k="name" v="Solhaug" />
		<tag k="place" v="farm" />
		<tag k="ssr:stedsnr" v="818314" />
	</node>
	<node lat="60.32698332988243" lon="9.84705833134587" id="-14761">
		<tag k="name" v="Landstadland" />
		<tag k="place" v="isolated_dwelling" />
		<tag k="ssr:stedsnr" v="819524" />
	</node>
	<node lat="60.239270945874296" lon="10.171398161782744" id="-14768">
		<tag k="fixme" v="consider place=hamlet" />
		<tag k="name" v="Semmen" />
		<tag k="place" v="farm" />
		<tag k="ssr:stedsnr" v="831513" />
	</node>
	<node lat="60.09128012196392" lon="10.529588503995154" id="-14773">
		<tag k="alt_name" v="s Kuvelia;Søndre Oppkuvhytta" />
		<tag k="name" v="Søndre Kuvelia" />
		<tag k="old_name" v="Søndre Oppluvhytta" />
		<tag k="place" v="isolated_dwelling" />
		<tag k="ssr:stedsnr" v="842134" />
	</node>
	<node lat="60.47545528061142" lon="9.830339683751045" id="-14774">
		<tag k="fixme" v="multiple name tags, choose one and add the other to alt_name" />
		<tag k="historic" v="shieling" />
		<tag k="name" v="Bakkesetra;Aslakssetra" />
		<tag k="place" v="isolated_dwelling" />
		<tag k="ssr:stedsnr" v="842890" />
	</node>
	<node lat="60.371397972592824" lon="9.837360053527147" id="-14776">
		<tag k="alt_name" v="Sandvassbråten" />
		<tag k="fixme" v="consider place=hamlet" />
		<tag k="name" v="Sandvassbråtan" />
		<tag k="place" v="farm" />
		<tag k="ssr:stedsnr" v="842802" />
	</node>
	<node lat="60.05837946413221" lon="10.040036916042045" id="-14780">
		<tag k="name" v="Åsterud" />
		<tag k="place" v="farm" />
		<tag k="ssr:stedsnr" v="854317" />
	</node>
	<node lat="60.0518681957945" lon="10.024582404017027" id="-14781">
		<tag k="fixme" v="consider place=hamlet" />
		<tag k="name" v="Vesetrud" />
		<tag k="place" v="farm" />
		<tag k="ssr:stedsnr" v="854344" />
	</node>
	<node lat="60.050205559962684" lon="10.073880562744781" id="-14782">
		<tag k="alt_name" v="Midten" />
		<tag k="name" v="Mitten" />
		<tag k="place" v="isolated_dwelling" />
		<tag k="ssr:stedsnr" v="854345" />
	</node>
	<node lat="60.17612500258477" lon="10.213705557980335" id="-14783">
		<tag k="fixme" v="consider place=hamlet" />
		<tag k="name" v="Ve" />
		<tag k="place" v="farm" />
		<tag k="ssr:stedsnr" v="854593" />
	</node>
	<node lat="60.17814999614441" lon="10.084752783449495" id="-14784">
		<tag k="historic" v="shieling" />
		<tag k="name" v="Hjelmerudsetra" />
		<tag k="place" v="isolated_dwelling" />
		<tag k="ssr:stedsnr" v="854597" />
	</node>
	<node lat="60.10501666611209" lon="10.098038882008192" id="-14786">
		<tag k="name" v="Nyhus" />
		<tag k="place" v="farm" />
		<tag k="ssr:stedsnr" v="854716" />
	</node>
	<node lat="60.13754722521604" lon="10.34561388936664" id="-14788">
		<tag k="fixme" v="consider place=hamlet" />
		<tag k="name" v="Lerberg" />
		<tag k="place" v="farm" />
		<tag k="ssr:stedsnr" v="855108" />
	</node>
	<node lat="60.14781944383756" lon="10.347436113071813" id="-14790">
		<tag k="alt_name" v="Sandbråten" />
		<tag k="name" v="Sandbråtan" />
		<tag k="place" v="isolated_dwelling" />
		<tag k="ssr:stedsnr" v="855121" />
	</node>
	<node lat="60.131308334275694" lon="10.36026388610356" id="-14791">
		<tag k="name" v="Håkenrud" />
		<tag k="place" v="farm" />
		<tag k="ssr:stedsnr" v="855090" />
	</node>
	<node lat="60.391916668781356" lon="10.140533328035625" id="-14797">
		<tag k="alt_name" v="Finnsandsetra" />
		<tag k="historic" v="shieling" />
		<tag k="name" v="Monsonsetra" />
		<tag k="place" v="isolated_dwelling" />
		<tag k="ssr:stedsnr" v="855486" />
	</node>
	<node lat="60.38153055991569" lon="10.083513887288401" id="-14798">
		<tag k="name" v="Sørlykkja" />
		<tag k="place" v="farm" />
		<tag k="ssr:stedsnr" v="855494" />
	</node>
	<node lat="60.36121111095691" lon="10.069713892681136" id="-14803">
		<tag k="alt_name" v="Olsviken" />
		<tag k="name" v="Olsvika" />
		<tag k="place" v="farm" />
		<tag k="ssr:stedsnr" v="855602" />
	</node>
	<node lat="60.127819448224926" lon="10.200922229747688" id="-14804">
		<tag k="name" v="Røsholmen" />
		<tag k="place" v="farm" />
		<tag k="ssr:stedsnr" v="855685" />
	</node>
	<node lat="60.39981388514615" lon="10.006458330375493" id="-14805">
		<tag k="historic" v="shieling" />
		<tag k="name" v="Ringerudsetra" />
		<tag k="place" v="isolated_dwelling" />
		<tag k="ssr:stedsnr" v="856287" />
	</node>
	<node lat="60.399786082806344" lon="10.076553141663794" id="-14806">
		<tag k="fixme" v="consider place=hamlet" />
		<tag k="name" v="Haugerud" />
		<tag k="place" v="farm" />
		<tag k="ssr:stedsnr" v="856293" />
	</node>
	<node lat="60.33494843958442" lon="10.102695546656554" id="-14812">
		<tag k="fixme" v="consider place=hamlet" />
		<tag k="name" v="Busterud" />
		<tag k="place" v="farm" />
		<tag k="ssr:stedsnr" v="856503" />
	</node>
	<node lat="60.31931111127477" lon="10.184552780597102" id="-14814">
		<tag k="name" v="Lystig" />
		<tag k="place" v="farm" />
		<tag k="ssr:stedsnr" v="856531" />
	</node>
	<node lat="60.50567070063382" lon="10.085406129782074" id="-14817">
		<tag k="name" v="Skogli" />
		<tag k="place" v="farm" />
		<tag k="ssr:stedsnr" v="856544" />
	</node>
	<node lat="60.25018611541983" lon="9.863602770374078" id="-14818">
		<tag k="name" v="Trampen" />
		<tag k="place" v="locality" />
		<tag k="ssr:stedsnr" v="856740" />
	</node>
	<node lat="60.61140833496567" lon="9.959225007984967" id="-14824">
		<tag k="name" v="Bjørkodden" />
		<tag k="place" v="farm" />
		<tag k="ssr:stedsnr" v="856913" />
	</node>
	<node lat="60.56475000202024" lon="9.988180548896716" id="-14825">
		<tag k="name" v="Myra" />
		<tag k="place" v="farm" />
		<tag k="ssr:stedsnr" v="857523" />
	</node>
	<node lat="60.57657273800912" lon="9.993030828268523" id="-14827">
		<tag k="name" v="Plassen" />
		<tag k="place" v="farm" />
		<tag k="ssr:stedsnr" v="857588" />
	</node>
	<node lat="60.5715138860963" lon="10.029086106185026" id="-14828">
		<tag k="name" v="Storkastbrenna" />
		<tag k="place" v="isolated_dwelling" />
		<tag k="ssr:stedsnr" v="857625" />
	</node>
	<node lat="60.568511111677736" lon="10.007833332971538" id="-14829">
		<tag k="name" v="Dagli" />
		<tag k="place" v="isolated_dwelling" />
		<tag k="ssr:stedsnr" v="857627" />
	</node>
	<node lat="60.11994444204929" lon="10.265511110973483" id="-14833">
		<tag k="name" v="Søndre Frok" />
		<tag k="place" v="farm" />
		<tag k="ssr:stedsnr" v="876113" />
	</node>
	<node lat="60.10504999965618" lon="10.189574995754827" id="-14836">
		<tag k="name" v="Averøybråten" />
		<tag k="place" v="locality" />
		<tag k="ssr:stedsnr" v="876662" />
	</node>
	<node lat="60.59471666669429" lon="10.02512222958885" id="-14840">
		<tag k="name" v="Gravåhytta" />
		<tag k="place" v="locality" />
		<tag k="ssr:stedsnr" v="877557" />
	</node>
	<node lat="60.06883888613975" lon="10.01634999784738" id="-14842">
		<tag k="name" v="Sandum" />
		<tag k="place" v="farm" />
		<tag k="ssr:stedsnr" v="878111" />
	</node>
	<node lat="60.37547778052471" lon="10.060433342074408" id="-14852">
		<tag k="name" v="Bekkelund" />
		<tag k="place" v="isolated_dwelling" />
		<tag k="ssr:stedsnr" v="878866" />
	</node>
	<node lat="60.60925833623893" lon="9.970508338760379" id="-14873">
		<tag k="name" v="Bjørhuslandet" />
		<tag k="place" v="locality" />
		<tag k="ssr:stedsnr" v="879833" />
	</node>
	<node lat="60.18895833111042" lon="10.32925834020328" id="-14874">
		<tag k="name" v="Nordre Knestang" />
		<tag k="place" v="farm" />
		<tag k="ssr:stedsnr" v="934858" />
	</node>
	<node lat="60.1780055563464" lon="10.357461108765879" id="-14875">
		<tag k="name" v="Hytta" />
		<tag k="place" v="isolated_dwelling" />
		<tag k="ssr:stedsnr" v="934922" />
	</node>
	<node lat="60.09125277519374" lon="10.09503889716484" id="-14877">
		<tag k="name" v="Elvestad" />
		<tag k="place" v="farm" />
		<tag k="ssr:stedsnr" v="935115" />
	</node>
	<node lat="60.127106442584065" lon="10.354286096500093" id="-14890">
		<tag k="fixme" v="consider place=hamlet" />
		<tag k="name" v="Valbekken" />
		<tag k="place" v="farm" />
		<tag k="ssr:stedsnr" v="915096" />
	</node>
	<node lat="60.23546388572762" lon="9.912102773067964" id="-14891">
		<tag k="name" v="Solheim" />
		<tag k="place" v="farm" />
		<tag k="ssr:stedsnr" v="915203" />
	</node>
	<node lat="60.227675002836875" lon="9.844983325466846" id="-14896">
		<tag k="name" v="Gullsgard" />
		<tag k="place" v="farm" />
		<tag k="ssr:stedsnr" v="915195" />
	</node>
	<node lat="60.37122777868277" lon="10.082644445236925" id="-14899">
		<tag k="name" v="Strømsvollen" />
		<tag k="place" v="isolated_dwelling" />
		<tag k="ssr:stedsnr" v="915585" />
	</node>
	<node lat="60.098549777323676" lon="10.088340865936487" id="-14901">
		<tag k="alt_name" v="Opsal" />
		<tag k="fixme" v="consider place=hamlet" />
		<tag k="name" v="Oppsal" />
		<tag k="place" v="farm" />
		<tag k="ssr:stedsnr" v="915718" />
	</node>
	<node lat="60.102491684983214" lon="10.07022970072325" id="-14902">
		<tag k="fixme" v="consider place=hamlet" />
		<tag k="name" v="Pjåkerud" />
		<tag k="place" v="farm" />
		<tag k="ssr:stedsnr" v="915719" />
	</node>
	<node lat="60.101475002019306" lon="10.009105552279314" id="-14903">
		<tag k="name" v="Burevollen" />
		<tag k="place" v="isolated_dwelling" />
		<tag k="ssr:stedsnr" v="915726" />
	</node>
	<node lat="60.099299998164916" lon="9.986924996774716" id="-14904">
		<tag k="alt_name" v="Berggårdsvollen" />
		<tag k="name" v="Berggardsvollen" />
		<tag k="place" v="isolated_dwelling" />
		<tag k="ssr:stedsnr" v="915727" />
	</node>
	<node lat="60.14387500404459" lon="10.053802778639856" id="-14906">
		<tag k="historic" v="shieling" />
		<tag k="name" v="Breiensetra" />
		<tag k="place" v="isolated_dwelling" />
		<tag k="ssr:stedsnr" v="915624" />
	</node>
	<node lat="60.05545277933192" lon="10.425844446840431" id="-14910">
		<tag k="fixme" v="consider tourism=alpine_hut or tourism=chalet" />
		<tag k="name" v="Presthytta" />
		<tag k="ssr:stedsnr" v="916216" />
		<tag k="tourism" v="wilderness_hut" />
	</node>
	<node lat="60.289261111170774" lon="10.171377782865477" id="-14915">
		<tag k="name" v="Myre" />
		<tag k="place" v="farm" />
		<tag k="ssr:stedsnr" v="916419" />
	</node>
	<node lat="60.289097217823794" lon="10.263347220901558" id="-14916">
		<tag k="historic" v="shieling" />
		<tag k="name" v="Hvalssetra" />
		<tag k="place" v="isolated_dwelling" />
		<tag k="ssr:stedsnr" v="916426" />
	</node>
	<node lat="60.332202776676624" lon="10.085297227919495" id="-14918">
		<tag k="name" v="Flattum" />
		<tag k="place" v="farm" />
		<tag k="ssr:stedsnr" v="916470" />
	</node>
	<node lat="60.32861666747717" lon="10.223091663573442" id="-14920">
		<tag k="historic" v="shieling" />
		<tag k="name" v="Somdalssetra" />
		<tag k="place" v="isolated_dwelling" />
		<tag k="ssr:stedsnr" v="916478" />
	</node>
	<node lat="60.31407500157007" lon="10.181836109625863" id="-14921">
		<tag k="name" v="Bakken" />
		<tag k="place" v="farm" />
		<tag k="ssr:stedsnr" v="916490" />
	</node>
	<node lat="60.38817195145254" lon="10.076194368230802" id="-14922">
		<tag k="fixme" v="consider place=hamlet" />
		<tag k="name" v="Finnsand" />
		<tag k="place" v="farm" />
		<tag k="ssr:stedsnr" v="916530" />
	</node>
	<node lat="60.467736110328055" lon="10.071188882813537" id="-14923">
		<tag k="name" v="Haugen" />
		<tag k="place" v="farm" />
		<tag k="ssr:stedsnr" v="916570" />
	</node>
	<node lat="60.47332058187828" lon="10.075322816165997" id="-14924">
		<tag k="fixme" v="consider place=hamlet" />
		<tag k="name" v="Blakstveit" />
		<tag k="place" v="farm" />
		<tag k="ssr:stedsnr" v="916572" />
	</node>
	<node lat="60.479068556681554" lon="10.147028134414429" id="-14925">
		<tag k="historic" v="shieling" />
		<tag k="name" v="Persvollsetra" />
		<tag k="place" v="isolated_dwelling" />
		<tag k="ssr:stedsnr" v="916725" />
	</node>
	<node lat="60.475288886762215" lon="10.065188883791025" id="-14926">
		<tag k="name" v="Stabbursdalen" />
		<tag k="place" v="farm" />
		<tag k="ssr:stedsnr" v="916730" />
	</node>
	<node lat="60.44701935683079" lon="9.955945235517875" id="-14930">
		<tag k="fixme" v="consider tourism=alpine_hut or tourism=chalet" />
		<tag k="name" v="Vikerkoia" />
		<tag k="ssr:stedsnr" v="916909" />
		<tag k="tourism" v="wilderness_hut" />
	</node>
	<node lat="60.26739999993366" lon="9.78275278394864" id="-14931">
		<tag k="name" v="Dalen" />
		<tag k="place" v="farm" />
		<tag k="ssr:stedsnr" v="916668" />
	</node>
	<node lat="60.267327774037746" lon="9.80637500725353" id="-14932">
		<tag k="name" v="Steinsrud" />
		<tag k="place" v="farm" />
		<tag k="ssr:stedsnr" v="916672" />
	</node>
	<node lat="60.281591669974844" lon="9.761524993727965" id="-14933">
		<tag k="name" v="Sætra" />
		<tag k="place" v="farm" />
		<tag k="ssr:stedsnr" v="916688" />
	</node>
	<node lat="60.50881944858042" lon="10.08210000538838" id="-14936">
		<tag k="alt_name" v="Smerud" />
		<tag k="name" v="Smedrud" />
		<tag k="place" v="farm" />
		<tag k="ssr:stedsnr" v="917460" />
	</node>
	<node lat="60.508952779034345" lon="10.005183335347724" id="-14938">
		<tag k="alt_name" v="Vatnebråtån" />
		<tag k="name" v="Vatnebråtan" />
		<tag k="place" v="isolated_dwelling" />
		<tag k="ssr:stedsnr" v="917462" />
	</node>
	<node lat="60.50057778117001" lon="10.134022220010277" id="-14939">
		<tag k="historic" v="shieling" />
		<tag k="name" v="Søre Skagnessetra" />
		<tag k="place" v="isolated_dwelling" />
		<tag k="ssr:stedsnr" v="917464" />
	</node>
	<node lat="60.548527780284374" lon="10.033030564238718" id="-14941">
		<tag k="alt_name" v="Rysjubråten" />
		<tag k="name" v="Rysjubråtån" />
		<tag k="place" v="isolated_dwelling" />
		<tag k="ssr:stedsnr" v="917480" />
	</node>
	<node lat="60.53962777686662" lon="10.081941665476466" id="-14943">
		<tag k="historic" v="shieling" />
		<tag k="name" v="Nersetra" />
		<tag k="place" v="isolated_dwelling" />
		<tag k="ssr:stedsnr" v="917526" />
	</node>
	<node lat="60.32262887032492" lon="9.923209997552451" id="-14951">
		<tag k="alt_name" v="Øvre Luserud" />
		<tag k="name" v="Luserud" />
		<tag k="place" v="isolated_dwelling" />
		<tag k="ssr:stedsnr" v="917827" />
	</node>
	<node lat="60.07139722496808" lon="10.094533342186384" id="-14953">
		<tag k="amenity" v="prison" />
		<tag k="name" v="Ringerike fengsel" />
		<tag k="old_name" v="Ringerike kretsfengsel" />
		<tag k="ssr:stedsnr" v="934497" />
	</node>
	<node lat="60.19412222539966" lon="10.221502779297563" id="-14954">
		<tag k="name" v="Bråtan" />
		<tag k="place" v="isolated_dwelling" />
		<tag k="ssr:stedsnr" v="935145" />
	</node>
	<node lat="60.12912012602633" lon="10.316666242471479" id="-14963">
		<tag k="name" v="Grønvold" />
		<tag k="place" v="locality" />
		<tag k="ssr:stedsnr" v="936496" />
	</node>
	<node lat="60.096069443953645" lon="10.115994445212568" id="-14966">
		<tag k="name" v="Fegri" />
		<tag k="place" v="farm" />
		<tag k="ssr:stedsnr" v="937041" />
	</node>
	<node lat="60.14697777465997" lon="10.297411102766922" id="-14973">
		<tag k="name" v="Lundhaug" />
		<tag k="place" v="isolated_dwelling" />
		<tag k="ssr:stedsnr" v="937907" />
	</node>
	<node lat="60.14103888845221" lon="10.284672226375239" id="-14975">
		<tag k="name" v="Bjørklund" />
		<tag k="place" v="isolated_dwelling" />
		<tag k="ssr:stedsnr" v="937945" />
	</node>
	<node lat="60.147941665466924" lon="10.196011117466442" id="-14979">
		<tag k="name" v="Plassen" />
		<tag k="place" v="isolated_dwelling" />
		<tag k="ssr:stedsnr" v="938909" />
	</node>
	<node lat="60.450338886100695" lon="10.033055557763255" id="-14983">
		<tag k="name" v="Fossheim" />
		<tag k="place" v="farm" />
		<tag k="ssr:stedsnr" v="939335" />
	</node>
	<node lat="60.17817423401333" lon="10.198064858687578" id="-15024">
		<tag k="name" v="Nedre Bålerud" />
		<tag k="place" v="farm" />
		<tag k="ssr:stedsnr" v="977293" />
	</node>
	<node lat="60.199826211442684" lon="10.164606775212889" id="-15032">
		<tag k="name" v="Nøkleby" />
		<tag k="place" v="farm" />
		<tag k="ssr:stedsnr" v="980847" />
	</node>
	<node lat="60.21929864061719" lon="10.380606243833293" id="-15033">
		<tag k="name" v="Tyskland" />
		<tag k="place" v="farm" />
		<tag k="ssr:stedsnr" v="980993" />
	</node>
	<node lat="60.30355612816365" lon="10.153926572105076" id="-15039">
		<tag k="leisure" v="pitch" />
		<tag k="name" v="Eriksplassen motorsportanlegg" />
		<tag k="ssr:stedsnr" v="984195" />
	</node>
	<node lat="60.207443735260554" lon="10.178380411258203" id="-15042">
		<tag k="name" v="Midttjernhuken" />
		<tag k="place" v="locality" />
		<tag k="ssr:stedsnr" v="988110" />
	</node>
	<node lat="60.123685362474795" lon="10.268999315422015" id="-15043">
		<tag k="fixme" v="consider place=hamlet" />
		<tag k="name" v="Frok" />
		<tag k="place" v="farm" />
		<tag k="ssr:stedsnr" v="988624" />
	</node>
	<node lat="60.11208016049857" lon="10.13735823674197" id="-15044">
		<tag k="fixme" v="consider place=hamlet" />
		<tag k="name" v="Veholt" />
		<tag k="place" v="farm" />
		<tag k="ssr:stedsnr" v="988800" />
	</node>
	<node lat="60.22864497277494" lon="10.27072176764808" id="-15045">
		<tag k="fixme" v="consider place=hamlet" />
		<tag k="name" v="Vågård" />
		<tag k="place" v="farm" />
		<tag k="ssr:stedsnr" v="988801" />
	</node>
	<node lat="60.160975048449096" lon="10.286831969401089" id="-15046">
		<tag k="fixme" v="consider place=hamlet" />
		<tag k="name" v="Krakstad" />
		<tag k="place" v="farm" />
		<tag k="ssr:stedsnr" v="988802" />
	</node>
	<node lat="60.15976879117567" lon="10.29163445245983" id="-15047">
		<tag k="fixme" v="consider place=hamlet" />
		<tag k="name" v="Skøyen" />
		<tag k="place" v="farm" />
		<tag k="ssr:stedsnr" v="988803" />
	</node>
	<node lat="60.163716193022196" lon="10.300557414997446" id="-15048">
		<tag k="fixme" v="consider place=hamlet" />
		<tag k="name" v="Sætrang" />
		<tag k="place" v="farm" />
		<tag k="ssr:stedsnr" v="988804" />
	</node>
	<node lat="60.16713825254729" lon="10.33128022079374" id="-15049">
		<tag k="fixme" v="consider place=hamlet" />
		<tag k="name" v="Berg" />
		<tag k="place" v="farm" />
		<tag k="ssr:stedsnr" v="988808" />
	</node>
	<node lat="60.18805193030078" lon="10.356961682346812" id="-15050">
		<tag k="fixme" v="consider place=hamlet" />
		<tag k="name" v="Smedsbøle" />
		<tag k="place" v="farm" />
		<tag k="ssr:stedsnr" v="988809" />
	</node>
	<node lat="60.19992863771506" lon="10.365798238320046" id="-15051">
		<tag k="fixme" v="consider place=hamlet" />
		<tag k="name" v="Gunnersby" />
		<tag k="place" v="farm" />
		<tag k="ssr:stedsnr" v="988811" />
	</node>
	<node lat="60.215180471678025" lon="10.36825783368427" id="-15052">
		<tag k="fixme" v="consider place=hamlet" />
		<tag k="name" v="Aslaksrud" />
		<tag k="place" v="farm" />
		<tag k="ssr:stedsnr" v="988812" />
	</node>
	<node lat="60.19878759169715" lon="10.361198367748422" id="-15053">
		<tag k="fixme" v="consider place=hamlet" />
		<tag k="name" v="Åsterud" />
		<tag k="place" v="farm" />
		<tag k="ssr:stedsnr" v="988819" />
	</node>
	<node lat="60.188402644592614" lon="10.330534007311272" id="-15054">
		<tag k="fixme" v="consider place=hamlet" />
		<tag k="name" v="Knestang" />
		<tag k="place" v="farm" />
		<tag k="ssr:stedsnr" v="988840" />
	</node>
	<node lat="60.12458695767145" lon="10.476773845137162" id="-15055">
		<tag k="fixme" v="consider place=hamlet" />
		<tag k="name" v="Storflåtan" />
		<tag k="place" v="farm" />
		<tag k="ssr:stedsnr" v="988760" />
	</node>
	<node lat="60.13720623021058" lon="10.30008939174217" id="-15056">
		<tag k="fixme" v="consider place=hamlet" />
		<tag k="name" v="Vaker" />
		<tag k="place" v="farm" />
		<tag k="ssr:stedsnr" v="988770" />
	</node>
	<node lat="60.14811072527886" lon="10.299935106151985" id="-15057">
		<tag k="fixme" v="consider place=hamlet" />
		<tag k="name" v="Gullerud" />
		<tag k="place" v="farm" />
		<tag k="ssr:stedsnr" v="988771" />
	</node>
	<node lat="60.14761819085279" lon="10.293349130899921" id="-15058">
		<tag k="fixme" v="consider place=hamlet" />
		<tag k="name" v="Li" />
		<tag k="place" v="farm" />
		<tag k="ssr:stedsnr" v="988773" />
	</node>
	<node lat="60.13407577218736" lon="10.272822874865222" id="-15059">
		<tag k="fixme" v="consider place=hamlet" />
		<tag k="name" v="Østre Hønen" />
		<tag k="place" v="farm" />
		<tag k="ssr:stedsnr" v="988775" />
	</node>
	<node lat="60.130744476363255" lon="10.268296666079905" id="-15060">
		<tag k="fixme" v="consider place=hamlet" />
		<tag k="name" v="Norderhov prestegård" />
		<tag k="place" v="farm" />
		<tag k="ssr:stedsnr" v="988782" />
	</node>
	<node lat="60.18284593637027" lon="10.19787435937848" id="-15061">
		<tag k="fixme" v="consider place=hamlet" />
		<tag k="name" v="Helgerud" />
		<tag k="place" v="farm" />
		<tag k="ssr:stedsnr" v="988785" />
	</node>
	<node lat="60.30792005690143" lon="10.171250674644707" id="-15062">
		<tag k="fixme" v="consider place=hamlet" />
		<tag k="name" v="Somdalen" />
		<tag k="place" v="farm" />
		<tag k="ssr:stedsnr" v="988923" />
	</node>
	<node lat="60.32364969707828" lon="10.127179006833225" id="-15063">
		<tag k="name" v="Bergsund" />
		<tag k="place" v="hamlet" />
		<tag k="ssr:stedsnr" v="988924" />
	</node>
	<node lat="60.46342293327685" lon="10.061110656731966" id="-15064">
		<tag k="fixme" v="consider place=hamlet" />
		<tag k="name" v="Enger" />
		<tag k="place" v="farm" />
		<tag k="ssr:stedsnr" v="988933" />
	</node>
	<node lat="60.54995335594626" lon="9.836610944679014" id="-15065">
		<tag k="fixme" v="consider place=hamlet" />
		<tag k="name" v="Lindelia" />
		<tag k="place" v="farm" />
		<tag k="ssr:stedsnr" v="988939" />
	</node>
	<node lat="60.31055796581809" lon="9.754900847054598" id="-15066">
		<tag k="fixme" v="consider place=hamlet" />
		<tag k="name" v="Brekka" />
		<tag k="place" v="farm" />
		<tag k="ssr:stedsnr" v="988940" />
	</node>
	<node lat="60.128611641089336" lon="10.351459079598408" id="-15068">
		<tag k="fixme" v="consider tourism=alpine_hut or tourism=chalet" />
		<tag k="name" v="Friluftshuset i Åsa" />
		<tag k="ssr:stedsnr" v="988993" />
		<tag k="tourism" v="wilderness_hut" />
	</node>
	<node lat="60.22105000072313" lon="9.976605558727" id="-15070">
		<tag k="alt_name" v="Evja" />
		<tag k="name" v="Evjua" />
		<tag k="place" v="farm" />
		<tag k="ssr:stedsnr" v="4499" />
	</node>
	<node lat="60.17908270977073" lon="10.333086325025434" id="-15073">
		<tag k="fixme" v="consider place=hamlet" />
		<tag k="name" v="Lo" />
		<tag k="place" v="farm" />
		<tag k="ssr:stedsnr" v="4574" />
	</node>
	<node lat="60.246549996226335" lon="9.793374996170531" id="-15076">
		<tag k="name" v="Skuten" />
		<tag k="place" v="farm" />
		<tag k="ssr:stedsnr" v="4237" />
	</node>
	<node lat="60.20715338295638" lon="9.83642150836512" id="-15077">
		<tag k="name" v="Ørte" />
		<tag k="place" v="farm" />
		<tag k="ssr:stedsnr" v="4180" />
	</node>
	<node lat="60.21825833690637" lon="9.960699991169779" id="-15078">
		<tag k="alt_name" v="Ødegården" />
		<tag k="name" v="Øgarden" />
		<tag k="place" v="farm" />
		<tag k="ssr:stedsnr" v="4185" />
	</node>
	<node lat="60.0664027787123" lon="10.048916668275687" id="-15079">
		<tag k="alt_name" v="Ertlia" />
		<tag k="name" v="Ertelia" />
		<tag k="place" v="farm" />
		<tag k="ssr:stedsnr" v="4264" />
	</node>
	<node lat="60.09137037491374" lon="10.087694069458953" id="-15080">
		<tag k="name" v="Solberg" />
		<tag k="place" v="farm" />
		<tag k="ssr:stedsnr" v="4279" />
	</node>
	<node lat="60.153148743245644" lon="10.299734064028394" id="-15082">
		<tag k="fixme" v="consider place=hamlet" />
		<tag k="name" v="Kulerud" />
		<tag k="place" v="farm" />
		<tag k="ssr:stedsnr" v="4633" />
	</node>
	<node lat="60.156604062421955" lon="10.29491795989783" id="-15083">
		<tag k="alt_name" v="Øgarden" />
		<tag k="name" v="Ødegården" />
		<tag k="place" v="farm" />
		<tag k="ssr:stedsnr" v="4634" />
	</node>
	<node lat="60.06363055900817" lon="10.025324994487702" id="-15084">
		<tag k="name" v="Bjørkerud" />
		<tag k="place" v="farm" />
		<tag k="ssr:stedsnr" v="4263" />
	</node>
	<node lat="60.17036944073157" lon="10.181747220392504" id="-15087">
		<tag k="loc_name" v="Dumpa" />
		<tag k="name" v="Dompa" />
		<tag k="place" v="farm" />
		<tag k="ssr:stedsnr" v="4609" />
	</node>
	<node lat="60.11631666852394" lon="10.121547220293518" id="-15090">
		<tag k="name" v="Fjellheim" />
		<tag k="place" v="farm" />
		<tag k="ssr:stedsnr" v="4714" />
	</node>
	<node lat="60.11736387725083" lon="10.12445216944689" id="-15091">
		<tag k="name" v="Krokerud" />
		<tag k="place" v="farm" />
		<tag k="ssr:stedsnr" v="4716" />
	</node>
	<node lat="60.18803992707653" lon="10.348149947116688" id="-15095">
		<tag k="name" v="Torp" />
		<tag k="place" v="farm" />
		<tag k="ssr:stedsnr" v="5042" />
	</node>
	<node lat="60.1299288671613" lon="10.202974427109387" id="-15101">
		<tag k="alt_name" v="Øgarden" />
		<tag k="name" v="Ødegården" />
		<tag k="place" v="farm" />
		<tag k="ssr:stedsnr" v="5640" />
	</node>
	<node lat="60.136188887344986" lon="10.20224167099976" id="-15103">
		<tag k="name" v="Snyta" />
		<tag k="place" v="hamlet" />
		<tag k="ssr:stedsnr" v="5651" />
	</node>
	<node lat="60.05261566555253" lon="10.03478181426365" id="-15104">
		<tag k="fixme" v="consider place=hamlet" />
		<tag k="name" v="Stigsrud" />
		<tag k="place" v="farm" />
		<tag k="ssr:stedsnr" v="5349" />
	</node>
	<node lat="60.442550002277635" lon="9.997625005223986" id="-15106">
		<tag k="name" v="Skortebekk" />
		<tag k="place" v="isolated_dwelling" />
		<tag k="ssr:stedsnr" v="6335" />
	</node>
	<node lat="60.41426110684585" lon="10.084580556591407" id="-15108">
		<tag k="name" v="Nyhus" />
		<tag k="place" v="farm" />
		<tag k="ssr:stedsnr" v="6389" />
	</node>
	<node lat="60.45568055733676" lon="10.017549994101586" id="-15113">
		<tag k="name" v="Roli" />
		<tag k="place" v="farm" />
		<tag k="ssr:stedsnr" v="6555" />
	</node>
	<node lat="60.455769440898266" lon="10.003663897401367" id="-15114">
		<tag k="alt_name" v="Søndre Kolledalshytta;Søndre Kolldalshytta" />
		<tag k="name" v="Søre Kolledalshytta" />
		<tag k="place" v="isolated_dwelling" />
		<tag k="ssr:stedsnr" v="6556" />
	</node>
	<node lat="60.459499999994335" lon="10.139766659500042" id="-15117">
		<tag k="historic" v="shieling" />
		<tag k="name" v="Engersetra" />
		<tag k="place" v="isolated_dwelling" />
		<tag k="ssr:stedsnr" v="6574" />
	</node>
	<node lat="60.309427779164466" lon="10.006375005183946" id="-15124">
		<tag k="name" v="Kruggerudvollen" />
		<tag k="place" v="isolated_dwelling" />
		<tag k="ssr:stedsnr" v="6521" />
	</node>
	<node lat="60.50535199423378" lon="10.041854591477211" id="-15125">
		<tag k="alt_name" v="Søndre Ramberget" />
		<tag k="name" v="Søre Ramberget" />
		<tag k="place" v="farm" />
		<tag k="ssr:stedsnr" v="6532" />
	</node>
	<node lat="60.31088611342927" lon="10.160561117394266" id="-15126">
		<tag k="alt_name" v="Løvskogen" />
		<tag k="name" v="Lauvskogen" />
		<tag k="place" v="farm" />
		<tag k="ssr:stedsnr" v="6537" />
	</node>
	<node lat="60.251124998624334" lon="9.75468611137623" id="-15128">
		<tag k="name" v="Brattebakke" />
		<tag k="place" v="farm" />
		<tag k="ssr:stedsnr" v="6737" />
	</node>
	<node lat="60.253557094499264" lon="9.926859759642657" id="-15129">
		<tag k="name" v="Roa" />
		<tag k="place" v="isolated_dwelling" />
		<tag k="ssr:stedsnr" v="6742" />
	</node>
	<node lat="60.353358192504174" lon="9.932672818126989" id="-15140">
		<tag k="name" v="Bjørnelistua" />
		<tag k="place" v="isolated_dwelling" />
		<tag k="ssr:stedsnr" v="6787" />
	</node>
	<node lat="60.34651666879787" lon="9.824200008569171" id="-15142">
		<tag k="name" v="Plassen" />
		<tag k="place" v="farm" />
		<tag k="ssr:stedsnr" v="6855" />
	</node>
	<node lat="60.39630705610417" lon="9.831560495075756" id="-15144">
		<tag k="name" v="Øvre Tunga" />
		<tag k="place" v="isolated_dwelling" />
		<tag k="ssr:stedsnr" v="6957" />
	</node>
	<node lat="60.55086110742919" lon="9.840122227773197" id="-15145">
		<tag k="alt_name" v="Søndre Lindelia;Lindelia" />
		<tag k="name" v="Søre Lindelia" />
		<tag k="place" v="farm" />
		<tag k="ssr:stedsnr" v="7839" />
	</node>
	<node lat="60.598155556223915" lon="9.98485833005981" id="-15148">
		<tag k="alt_name" v="Nedre Hengslet" />
		<tag k="name" v="Hengslet" />
		<tag k="place" v="farm" />
		<tag k="ssr:stedsnr" v="7570" />
	</node>
	<node lat="60.5569680377717" lon="9.991571545469112" id="-15149">
		<tag k="fixme" v="consider place=hamlet" />
		<tag k="name" v="Nes" />
		<tag k="place" v="farm" />
		<tag k="ssr:stedsnr" v="7592" />
	</node>
	<node lat="60.18139999864097" lon="10.173094440369066" id="-15150">
		<tag k="name" v="Mikkelsplassen" />
		<tag k="place" v="farm" />
		<tag k="ssr:stedsnr" v="24124" />
	</node>
	<node lat="60.24402157449726" lon="9.91520148609041" id="-15153">
		<tag k="name" v="Nedre Lundesgarden" />
		<tag k="place" v="farm" />
		<tag k="ssr:stedsnr" v="24868" />
	</node>
	<node lat="60.18605382824819" lon="10.27738008005783" id="-15157">
		<tag k="fixme" v="consider place=hamlet" />
		<tag k="name" v="Rua" />
		<tag k="place" v="farm" />
		<tag k="ssr:stedsnr" v="25659" />
	</node>
	<node lat="60.19399444738912" lon="10.268175008190656" id="-15158">
		<tag k="name" v="Tørrjulstua" />
		<tag k="place" v="isolated_dwelling" />
		<tag k="ssr:stedsnr" v="25665" />
	</node>
	<node lat="60.05395555638421" lon="10.050744439883301" id="-15162">
		<tag k="name" v="Grefsrud" />
		<tag k="place" v="farm" />
		<tag k="ssr:stedsnr" v="25618" />
	</node>
	<node lat="60.18104444331748" lon="10.3043583306049" id="-15163">
		<tag k="name" v="Toverud" />
		<tag k="place" v="farm" />
		<tag k="ssr:stedsnr" v="25944" />
	</node>
	<node lat="60.17040832937454" lon="10.315411104241502" id="-15164">
		<tag k="name" v="Enger" />
		<tag k="place" v="farm" />
		<tag k="ssr:stedsnr" v="25968" />
	</node>
	<node lat="60.223433335980495" lon="10.179788884112563" id="-15166">
		<tag k="name" v="Iversplassen" />
		<tag k="place" v="farm" />
		<tag k="ssr:stedsnr" v="26034" />
	</node>
	<node lat="60.109066667472625" lon="10.374533336948057" id="-15167">
		<tag k="name" v="Raukleiva" />
		<tag k="place" v="isolated_dwelling" />
		<tag k="ssr:stedsnr" v="26063" />
	</node>
	<node lat="60.144408329724236" lon="10.198733324953178" id="-15189">
		<tag k="loc_name" v="Steinbekken" />
		<tag k="name" v="Stenbekken" />
		<tag k="place" v="farm" />
		<tag k="ssr:stedsnr" v="27891" />
	</node>
	<node lat="60.12606666269253" lon="10.32090555274321" id="-15199">
		<tag k="name" v="Nibiklo" />
		<tag k="place" v="farm" />
		<tag k="ssr:stedsnr" v="27999" />
	</node>
	<node lat="60.48844722135996" lon="10.068719437792353" id="-15206">
		<tag k="name" v="Sperillen fiskemotak" />
		<tag k="place" v="locality" />
		<tag k="ssr:stedsnr" v="28841" />
	</node>
	<node lat="60.493022878194004" lon="10.070987459866469" id="-15208">
		<tag k="name" v="Sandaker" />
		<tag k="place" v="farm" />
		<tag k="ssr:stedsnr" v="28843" />
	</node>
	<node lat="60.10327777635724" lon="10.055713894186534" id="-15210">
		<tag k="name" v="Skogli" />
		<tag k="place" v="farm" />
		<tag k="ssr:stedsnr" v="29051" />
	</node>
	<node lat="60.16700000075233" lon="9.934038890180355" id="-15213">
		<tag k="name" v="Johnsbu" />
		<tag k="place" v="isolated_dwelling" />
		<tag k="ssr:stedsnr" v="29388" />
	</node>
	<node lat="60.17395275584853" lon="9.95762525388804" id="-15216">
		<tag k="alt_name" v="Sesserudsetra" />
		<tag k="historic" v="shieling" />
		<tag k="name" v="Sessrudsetra" />
		<tag k="place" v="isolated_dwelling" />
		<tag k="ssr:stedsnr" v="29397" />
	</node>
	<node lat="60.48612777843192" lon="10.086280553648232" id="-15218">
		<tag k="name" v="Overen" />
		<tag k="place" v="farm" />
		<tag k="ssr:stedsnr" v="28877" />
	</node>
	<node lat="60.359152779330145" lon="9.912711112980341" id="-15222">
		<tag k="name" v="Ellingbu" />
		<tag k="place" v="isolated_dwelling" />
		<tag k="ssr:stedsnr" v="29022" />
	</node>
	<node lat="60.07528055519554" lon="10.05555555748532" id="-15225">
		<tag k="name" v="Bergheim" />
		<tag k="place" v="farm" />
		<tag k="ssr:stedsnr" v="29085" />
	</node>
	<node lat="60.195177773715585" lon="10.10360000555606" id="-15230">
		<tag k="name" v="Tronrudjordet" />
		<tag k="place" v="farm" />
		<tag k="ssr:stedsnr" v="29151" />
	</node>
	<node lat="60.10728611090269" lon="10.079947218420214" id="-15231">
		<tag k="alt_name" v="Opsal" />
		<tag k="name" v="Oppsal" />
		<tag k="place" v="farm" />
		<tag k="ssr:stedsnr" v="29054" />
	</node>
	<node lat="60.0934888855773" lon="10.081319442038343" id="-15232">
		<tag k="name" v="Grønvold" />
		<tag k="place" v="farm" />
		<tag k="ssr:stedsnr" v="29056" />
	</node>
	<node lat="60.52392777863191" lon="9.89078055193123" id="-15241">
		<tag k="name" v="Aslebrennhytta" />
		<tag k="place" v="isolated_dwelling" />
		<tag k="ssr:stedsnr" v="29293" />
	</node>
	<node lat="60.298897223694354" lon="10.001847223794181" id="-15246">
		<tag k="alt_name" v="Gåstjernshytta" />
		<tag k="name" v="Gåstjernhytta" />
		<tag k="place" v="isolated_dwelling" />
		<tag k="ssr:stedsnr" v="29627" />
	</node>
	<node lat="60.20355277635459" lon="10.113558333596405" id="-15250">
		<tag k="name" v="Sandum" />
		<tag k="place" v="farm" />
		<tag k="ssr:stedsnr" v="29781" />
	</node>
	<node lat="60.197347222722044" lon="10.112591658879483" id="-15253">
		<tag k="name" v="Liuhagan" />
		<tag k="place" v="farm" />
		<tag k="ssr:stedsnr" v="29763" />
	</node>
	<node lat="60.205230559086544" lon="10.119191658125096" id="-15254">
		<tag k="name" v="Smerud" />
		<tag k="place" v="farm" />
		<tag k="ssr:stedsnr" v="29764" />
	</node>
	<node lat="60.58259166517787" lon="9.838883337697776" id="-15258">
		<tag k="historic" v="shieling" />
		<tag k="name" v="Steffenrudseter" />
		<tag k="place" v="isolated_dwelling" />
		<tag k="ssr:stedsnr" v="29893" />
	</node>
	<node lat="60.336233332572846" lon="10.129938891961492" id="-15266">
		<tag k="historic" v="shieling" />
		<tag k="name" v="Bergsetra" />
		<tag k="place" v="isolated_dwelling" />
		<tag k="ssr:stedsnr" v="29961" />
	</node>
	<node lat="60.56347499953584" lon="9.987758328731934" id="-15274">
		<tag k="name" v="Nes" />
		<tag k="place" v="village" />
		<tag k="ssr:stedsnr" v="30746" />
	</node>
	<node lat="60.18905354075443" lon="10.282118665227324" id="-15280">
		<tag k="name" v="Nordre Alme" />
		<tag k="old_name" v="Øvre Alme" />
		<tag k="place" v="farm" />
		<tag k="ssr:stedsnr" v="41676" />
	</node>
	<node lat="60.38913333216565" lon="10.076036113122973" id="-15285">
		<tag k="name" v="Nord-Finnsand" />
		<tag k="place" v="farm" />
		<tag k="ssr:stedsnr" v="58263" />
	</node>
	<node lat="60.38349721948576" lon="10.143047227243546" id="-15293">
		<tag k="historic" v="shieling" />
		<tag k="name" v="Finnsandsetra" />
		<tag k="place" v="isolated_dwelling" />
		<tag k="ssr:stedsnr" v="60734" />
	</node>
	<node lat="60.19469444083369" lon="9.916488883976493" id="-15294">
		<tag k="historic" v="shieling" />
		<tag k="name" v="Haukedalssetra" />
		<tag k="place" v="isolated_dwelling" />
		<tag k="ssr:stedsnr" v="65142" />
	</node>
	<node lat="60.07385000299444" lon="10.074949993146292" id="-15297">
		<tag k="alt_name" v="Brattvold" />
		<tag k="name" v="Brattvoll" />
		<tag k="place" v="farm" />
		<tag k="ssr:stedsnr" v="65244" />
	</node>
	<node lat="60.061775325686774" lon="9.994251630417885" id="-15298">
		<tag k="alt_name" v="Lilleseteren" />
		<tag k="loc_name" v="Veslesetra" />
		<tag k="name" v="Veslesætra" />
		<tag k="place" v="farm" />
		<tag k="ssr:stedsnr" v="65325" />
	</node>
	<node lat="60.05648333124448" lon="10.066755552034126" id="-15300">
		<tag k="name" v="Kolbjørnrud" />
		<tag k="place" v="farm" />
		<tag k="ssr:stedsnr" v="65327" />
	</node>
	<node lat="60.059934379282936" lon="10.020113685519032" id="-15301">
		<tag k="alt_name" v="Berggården" />
		<tag k="fixme" v="consider place=hamlet" />
		<tag k="name" v="Berggarden" />
		<tag k="place" v="farm" />
		<tag k="ssr:stedsnr" v="65331" />
	</node>
	<node lat="60.0607638902343" lon="10.027980547669843" id="-15302">
		<tag k="alt_name" v="Engen" />
		<tag k="name" v="Enga" />
		<tag k="place" v="farm" />
		<tag k="ssr:stedsnr" v="65332" />
	</node>
	<node lat="60.21442499908428" lon="10.062111119100894" id="-15304">
		<tag k="name" v="Roa" />
		<tag k="place" v="farm" />
		<tag k="ssr:stedsnr" v="65498" />
	</node>
	<node lat="60.1409668276228" lon="10.217279607177867" id="-15307">
		<tag k="name" v="Madsplassen" />
		<tag k="place" v="farm" />
		<tag k="ssr:stedsnr" v="65663" />
	</node>
	<node lat="60.138060511538086" lon="10.270332568294418" id="-15310">
		<tag k="fixme" v="consider place=hamlet" />
		<tag k="name" v="Tanberg" />
		<tag k="old_name" v="Thanberg" />
		<tag k="place" v="farm" />
		<tag k="ssr:stedsnr" v="65671" />
	</node>
	<node lat="60.12153794330911" lon="10.272907074899926" id="-15312">
		<tag k="fixme" v="consider place=hamlet" />
		<tag k="name" v="Rå" />
		<tag k="place" v="farm" />
		<tag k="ssr:stedsnr" v="65695" />
	</node>
	<node lat="60.20933583546279" lon="10.376977122645728" id="-15323">
		<tag k="fixme" v="consider place=hamlet" />
		<tag k="name" v="Alm" />
		<tag k="place" v="farm" />
		<tag k="ssr:stedsnr" v="66420" />
	</node>
	<node lat="60.20227500404569" lon="10.34494443597125" id="-15324">
		<tag k="name" v="Viul" />
		<tag k="old_name" v="Viol" />
		<tag k="place" v="farm" />
		<tag k="ssr:stedsnr" v="66432" />
	</node>
	<node lat="60.18137082001002" lon="10.32471968844477" id="-15325">
		<tag k="name" v="Auren" />
		<tag k="place" v="farm" />
		<tag k="ssr:stedsnr" v="66556" />
	</node>
	<node lat="60.13195581381857" lon="10.01558548968967" id="-15327">
		<tag k="fixme" v="consider tourism=alpine_hut or tourism=chalet" />
		<tag k="name" v="Hovinkoia" />
		<tag k="ssr:stedsnr" v="66654" />
		<tag k="tourism" v="wilderness_hut" />
	</node>
	<node lat="60.31226388795478" lon="9.736277783867088" id="-15330">
		<tag k="name" v="Finnevollen" />
		<tag k="place" v="farm" />
		<tag k="ssr:stedsnr" v="66827" />
	</node>
	<node lat="60.35868333006955" lon="9.90699999817454" id="-15335">
		<tag k="name" v="Andersbu" />
		<tag k="place" v="isolated_dwelling" />
		<tag k="ssr:stedsnr" v="67773" />
	</node>
	<node lat="60.32875277899782" lon="10.020352772905003" id="-15339">
		<tag k="historic" v="shieling" />
		<tag k="name" v="Holmetjernsetra" />
		<tag k="place" v="isolated_dwelling" />
		<tag k="ssr:stedsnr" v="67485" />
	</node>
	<node lat="60.447969442983826" lon="10.032505561858123" id="-15343">
		<tag k="alt_name" v="Sørenga" />
		<tag k="name" v="Enga" />
		<tag k="place" v="farm" />
		<tag k="ssr:stedsnr" v="67363" />
	</node>
	<node lat="60.42484721985405" lon="10.053983328602087" id="-15345">
		<tag k="name" v="Solum" />
		<tag k="place" v="farm" />
		<tag k="ssr:stedsnr" v="67373" />
	</node>
	<node lat="60.2890111113651" lon="9.747947220322438" id="-15351">
		<tag k="name" v="Nordtjernlibråtan" />
		<tag k="place" v="farm" />
		<tag k="ssr:stedsnr" v="67678" />
	</node>
	<node lat="60.608983333133686" lon="9.988163897018168" id="-15358">
		<tag k="alt_name" v="Langbråten" />
		<tag k="name" v="Langbråtån" />
		<tag k="place" v="farm" />
		<tag k="ssr:stedsnr" v="68674" />
	</node>
	<node lat="60.08724166847969" lon="10.086308334239334" id="-15362">
		<tag k="name" v="Nordli" />
		<tag k="place" v="isolated_dwelling" />
		<tag k="ssr:stedsnr" v="86135" />
	</node>
	<node lat="60.35086110846226" lon="10.163183336734525" id="-15363">
		<tag k="historic" v="shieling" />
		<tag k="name" v="Gamle Busterudsetra" />
		<tag k="place" v="isolated_dwelling" />
		<tag k="ssr:stedsnr" v="86203" />
	</node>
	<node lat="60.148294441830046" lon="10.375700003319132" id="-15365">
		<tag k="name" v="Flaggstykket" />
		<tag k="place" v="locality" />
		<tag k="ssr:stedsnr" v="86216" />
	</node>
	<node lat="60.085660998849384" lon="10.444542152270307" id="-15367">
		<tag k="alt_name" v="Nibibu" />
		<tag k="name" v="Nibbibu" />
		<tag k="place" v="farm" />
		<tag k="ssr:stedsnr" v="86396" />
	</node>
	<node lat="60.19226111374995" lon="10.183872217669286" id="-15368">
		<tag k="name" v="Øvre Engen" />
		<tag k="place" v="farm" />
		<tag k="ssr:stedsnr" v="86514" />
	</node>
	<node lat="60.18968611458344" lon="10.158644446588355" id="-15370">
		<tag k="name" v="Sætra" />
		<tag k="place" v="farm" />
		<tag k="ssr:stedsnr" v="86555" />
	</node>
	<node lat="60.29494059993168" lon="10.182575664109658" id="-15371">
		<tag k="name" v="Myrvoll" />
		<tag k="place" v="farm" />
		<tag k="ssr:stedsnr" v="86570" />
	</node>
	<node lat="60.17151076481954" lon="10.227386387740381" id="-15375">
		<tag k="amenity" v="school" />
		<tag k="name" v="Veienmarka ungdomsskole" />
		<tag k="ssr:stedsnr" v="87001" />
	</node>
	<node lat="60.18286389204936" lon="10.312263893652807" id="-15377">
		<tag k="name" v="Hvalsengen" />
		<tag k="place" v="farm" />
		<tag k="ssr:stedsnr" v="86954" />
	</node>
	<node lat="60.1970305585787" lon="10.289100002785826" id="-15378">
		<tag k="name" v="Renna" />
		<tag k="place" v="isolated_dwelling" />
		<tag k="ssr:stedsnr" v="86970" />
	</node>
	<node lat="60.04125278194036" lon="10.524911112990036" id="-15379">
		<tag k="historic" v="shieling" />
		<tag k="name" v="Nedre Gråseterhytta" />
		<tag k="place" v="isolated_dwelling" />
		<tag k="ssr:stedsnr" v="87439" />
	</node>
	<node lat="60.23076389077751" lon="10.244547226961439" id="-15380">
		<tag k="name" v="Geiteryggen" />
		<tag k="place" v="quarter" />
		<tag k="ssr:stedsnr" v="87452" />
	</node>
	<node lat="60.22970649598187" lon="10.240999223005796" id="-15382">
		<tag k="name" v="Østlandske spennbetong" />
		<tag k="place" v="quarter" />
		<tag k="ssr:stedsnr" v="87465" />
	</node>
</osm>
