<?xml version="1.0" encoding="UTF-8"?>
<osm version="0.6" generator="osmapis">
	<node lat="60.27665000093264" lon="9.796136111480646" id="-12487">
		<tag k="amenity" v="community_centre" />
		<tag k="name" v="Breidablikk" />
		<tag k="ssr:stedsnr" v="67656" />
	</node>
	<node lat="60.40770555580587" lon="10.095216659927805" id="-12529">
		<tag k="name" v="Kirkesteinen" />
		<tag k="place" v="locality" />
		<tag k="ssr:stedsnr" v="89886" />
	</node>
	<node lat="60.17413334225544" lon="10.320062122158173" id="-12571">
		<tag k="alt_name" v="Haug" />
		<tag k="amenity" v="place_of_worship" />
		<tag k="denomination" v="lutheran" />
		<tag k="name" v="Haug kirke" />
		<tag k="religion" v="christian" />
		<tag k="ssr:stedsnr" v="247599" />
	</node>
	<node lat="60.267883329668976" lon="10.17478333768832" id="-12609">
		<tag k="alt_name" v="Hval" />
		<tag k="amenity" v="place_of_worship" />
		<tag k="denomination" v="lutheran" />
		<tag k="name" v="Hval kirke" />
		<tag k="old_name" v="Ytre Ådal" />
		<tag k="religion" v="christian" />
		<tag k="ssr:stedsnr" v="249453" />
	</node>
	<node lat="60.5638916675838" lon="9.985619439422207" id="-12640">
		<tag k="alt_name" v="Nes" />
		<tag k="amenity" v="place_of_worship" />
		<tag k="denomination" v="lutheran" />
		<tag k="name" v="Nes kirke" />
		<tag k="religion" v="christian" />
		<tag k="ssr:stedsnr" v="250600" />
	</node>
	<node lat="60.619055556318386" lon="9.961538893124004" id="-12771">
		<tag k="name" v="Russerleiren" />
		<tag k="place" v="locality" />
		<tag k="ssr:stedsnr" v="150903" />
	</node>
	<node lat="60.20679722303422" lon="10.085836114495825" id="-12811">
		<tag k="alt_name" v="Veme" />
		<tag k="amenity" v="place_of_worship" />
		<tag k="denomination" v="lutheran" />
		<tag k="name" v="Veme kirke" />
		<tag k="religion" v="christian" />
		<tag k="ssr:stedsnr" v="186595" />
	</node>
	<node lat="60.18024444375537" lon="10.258311103783464" id="-12896">
		<tag k="alt_name" v="Ullerål" />
		<tag k="amenity" v="place_of_worship" />
		<tag k="denomination" v="lutheran" />
		<tag k="name" v="Ullerål kirke" />
		<tag k="religion" v="christian" />
		<tag k="ssr:stedsnr" v="208816" />
	</node>
	<node lat="60.42257777970192" lon="10.111072227141547" id="-12979">
		<tag k="name" v="Roligkastet" />
		<tag k="place" v="locality" />
		<tag k="ssr:stedsnr" v="271536" />
	</node>
	<node lat="60.18929167087098" lon="10.348883338524141" id="-13000">
		<tag k="name" v="Guribråten" />
		<tag k="place" v="locality" />
		<tag k="ssr:stedsnr" v="449881" />
	</node>
	<node lat="60.425999999060544" lon="10.038605556883821" id="-13033">
		<tag k="name" v="Tobakkrullen" />
		<tag k="place" v="locality" />
		<tag k="ssr:stedsnr" v="453465" />
	</node>
	<node lat="60.33118889332026" lon="10.148172223095397" id="-13049">
		<tag k="name" v="Storglaneren" />
		<tag k="ssr:stedsnr" v="451969" />
		<tag k="tourism" v="viewpoint" />
	</node>
	<node lat="60.471766663762914" lon="10.063108330552733" id="-13083">
		<tag k="amenity" v="community_centre" />
		<tag k="name" v="Framnes" />
		<tag k="ssr:stedsnr" v="248698" />
	</node>
	<node lat="60.24622500415875" lon="10.171605556007195" id="-13194">
		<tag k="name" v="Gåsføtt" />
		<tag k="place" v="locality" />
		<tag k="ssr:stedsnr" v="269305" />
	</node>
	<node lat="60.44941944780331" lon="10.039966674319595" id="-13765">
		<tag k="alt_name" v="Viker" />
		<tag k="amenity" v="place_of_worship" />
		<tag k="denomination" v="lutheran" />
		<tag k="name" v="Viker kirke" />
		<tag k="religion" v="christian" />
		<tag k="ssr:stedsnr" v="673533" />
	</node>
	<node lat="60.121469440643864" lon="10.41436944873043" id="-14017">
		<tag k="loc_name" v="Hellerumshula" />
		<tag k="name" v="Helleramshula" />
		<tag k="place" v="locality" />
		<tag k="ssr:stedsnr" v="693043" />
	</node>
	<node lat="60.339633215555516" lon="9.843785231628662" id="-14235">
		<tag k="amenity" v="place_of_worship" />
		<tag k="denomination" v="lutheran" />
		<tag k="name" v="Strømsoddbygda kapell" />
		<tag k="old_name" v="Strømsoddbygda" />
		<tag k="religion" v="christian" />
		<tag k="ssr:stedsnr" v="613848" />
	</node>
	<node lat="60.44934722236292" lon="9.974400001239033" id="-14421">
		<tag k="name" v="Fisketjernfurua" />
		<tag k="place" v="locality" />
		<tag k="ssr:stedsnr" v="696117" />
	</node>
	<node lat="60.38020277474613" lon="10.042005557306533" id="-14744">
		<tag k="name" v="Bekkekroken" />
		<tag k="place" v="locality" />
		<tag k="ssr:stedsnr" v="817869" />
	</node>
	<node lat="60.08611944612672" lon="10.097591659121589" id="-14897">
		<tag k="alt_name" v="Tyristrand" />
		<tag k="amenity" v="place_of_worship" />
		<tag k="denomination" v="lutheran" />
		<tag k="name" v="Tyristrand kirke" />
		<tag k="religion" v="christian" />
		<tag k="ssr:stedsnr" v="915286" />
	</node>
	<node lat="60.241905554155146" lon="9.92842777032386" id="-15075">
		<tag k="alt_name" v="Lunder" />
		<tag k="amenity" v="place_of_worship" />
		<tag k="denomination" v="lutheran" />
		<tag k="name" v="Lunder kirke" />
		<tag k="religion" v="christian" />
		<tag k="ssr:stedsnr" v="4231" />
	</node>
</osm>
