<?xml version="1.0" encoding="UTF-8"?>
<osm version="0.6" generator="osmapis">
	<node lat="60.060700002089646" lon="10.001716672352158" id="-12349">
		<tag k="fixme" v="consider natural=peak for the most distinct mountains in the district" />
		<tag k="name" v="Høgåsen" />
		<tag k="natural" v="hill" />
		<tag k="place" v="locality" />
		<tag k="ssr:stedsnr" v="5413" />
	</node>
	<node lat="60.358766666648435" lon="10.124719440386883" id="-12354">
		<tag k="alt_name" v="Skardkollen" />
		<tag k="fixme" v="consider natural=peak for the most distinct mountains in the district" />
		<tag k="name" v="Skarkollen" />
		<tag k="natural" v="hill" />
		<tag k="place" v="locality" />
		<tag k="ssr:stedsnr" v="5582" />
	</node>
	<node lat="60.33230833779546" lon="10.206130549594379" id="-12359">
		<tag k="fixme" v="consider natural=peak for the most distinct mountains in the district" />
		<tag k="name" v="Julaleiken" />
		<tag k="natural" v="hill" />
		<tag k="place" v="locality" />
		<tag k="ssr:stedsnr" v="6473" />
	</node>
	<node lat="60.49301304529051" lon="9.990271021191912" id="-12365">
		<tag k="alt_name" v="Skarrudkollen" />
		<tag k="fixme" v="consider natural=peak for the most distinct mountains in the district" />
		<tag k="name" v="Skalerudkollen" />
		<tag k="natural" v="hill" />
		<tag k="place" v="locality" />
		<tag k="ssr:stedsnr" v="6723" />
	</node>
	<node lat="60.37768333529552" lon="9.863741663827563" id="-12367">
		<tag k="alt_name" v="Bjørnelegerdalen" />
		<tag k="name" v="Bjørnelægerdalen" />
		<tag k="natural" v="valley" />
		<tag k="place" v="locality" />
		<tag k="ssr:stedsnr" v="6801" />
	</node>
	<node lat="60.6185083346034" lon="10.03829166590767" id="-12374">
		<tag k="alt_name" v="Knutssæterhøgda" />
		<tag k="name" v="Knutseterhøgda" />
		<tag k="natural" v="hill" />
		<tag k="place" v="locality" />
		<tag k="ssr:stedsnr" v="7652" />
	</node>
	<node lat="60.5802749984068" lon="9.893999991379038" id="-12375">
		<tag k="alt_name" v="Persbråtakollen" />
		<tag k="fixme" v="consider natural=peak for the most distinct mountains in the district" />
		<tag k="name" v="Veslefjell" />
		<tag k="natural" v="hill" />
		<tag k="place" v="locality" />
		<tag k="ssr:stedsnr" v="7801" />
	</node>
	<node lat="60.18228333358229" lon="10.330688884557034" id="-12381">
		<tag k="name" v="Ødegårdshaugen" />
		<tag k="natural" v="hill" />
		<tag k="place" v="locality" />
		<tag k="ssr:stedsnr" v="24902" />
	</node>
	<node lat="60.53524166374909" lon="10.103466659560585" id="-12385">
		<tag k="name" v="Åbortjernkollen" />
		<tag k="natural" v="hill" />
		<tag k="place" v="locality" />
		<tag k="ssr:stedsnr" v="25190" />
	</node>
	<node lat="60.533738887710214" lon="10.114880555142042" id="-12386">
		<tag k="name" v="Gutubråtakollen" />
		<tag k="natural" v="hill" />
		<tag k="place" v="locality" />
		<tag k="ssr:stedsnr" v="25192" />
	</node>
	<node lat="60.079944445645125" lon="10.400744443592014" id="-12389">
		<tag k="name" v="Tandberglia" />
		<tag k="natural" v="slope" />
		<tag k="place" v="locality" />
		<tag k="ssr:stedsnr" v="26006" />
	</node>
	<node lat="60.28136666433258" lon="10.282055562496359" id="-12396">
		<tag k="name" v="Holene" />
		<tag k="natural" v="slope" />
		<tag k="place" v="locality" />
		<tag k="ssr:stedsnr" v="26773" />
	</node>
	<node lat="60.624441669853105" lon="10.027880557065625" id="-12404">
		<tag k="name" v="Vaskebekkdalen" />
		<tag k="natural" v="valley" />
		<tag k="place" v="locality" />
		<tag k="ssr:stedsnr" v="28469" />
	</node>
	<node lat="60.450724998972156" lon="10.105924993459036" id="-12406">
		<tag k="name" v="Gulsetjernbrenna" />
		<tag k="place" v="locality" />
		<tag k="ssr:stedsnr" v="28710" />
	</node>
	<node lat="60.46308889214355" lon="10.131713891338677" id="-12408">
		<tag k="name" v="Fjøsportdalen" />
		<tag k="natural" v="valley" />
		<tag k="place" v="locality" />
		<tag k="ssr:stedsnr" v="28817" />
	</node>
	<node lat="60.52787222326276" lon="9.854502779012169" id="-12410">
		<tag k="name" v="Brattbakken" />
		<tag k="natural" v="slope" />
		<tag k="place" v="locality" />
		<tag k="ssr:stedsnr" v="29379" />
	</node>
	<node lat="60.29967222326026" lon="9.80607499618817" id="-12414">
		<tag k="name" v="Bakkebråtahøgda" />
		<tag k="natural" v="hill" />
		<tag k="place" v="locality" />
		<tag k="ssr:stedsnr" v="29572" />
	</node>
	<node lat="60.3860722222437" lon="10.098297219553045" id="-12415">
		<tag k="name" v="Skarbråta" />
		<tag k="natural" v="ridge" />
		<tag k="place" v="locality" />
		<tag k="ssr:stedsnr" v="29586" />
	</node>
	<node lat="60.565741663548565" lon="9.938358328703744" id="-12418">
		<tag k="fixme" v="consider natural=peak for the most distinct mountains in the district" />
		<tag k="name" v="Heggerustbråtan" />
		<tag k="natural" v="hill" />
		<tag k="old_name" v="Hegerustbråtan" />
		<tag k="place" v="locality" />
		<tag k="ssr:stedsnr" v="29672" />
	</node>
	<node lat="60.21670728337493" lon="10.054191851067088" id="-12422">
		<tag k="name" v="Fonkalsrudkollen" />
		<tag k="natural" v="hill" />
		<tag k="place" v="locality" />
		<tag k="ssr:stedsnr" v="29805" />
	</node>
	<node lat="60.5870916697234" lon="9.913766660492183" id="-12424">
		<tag k="name" v="Johshølet" />
		<tag k="natural" v="valley" />
		<tag k="place" v="locality" />
		<tag k="ssr:stedsnr" v="29817" />
	</node>
	<node lat="60.58956110747456" lon="9.934666668579805" id="-12425">
		<tag k="name" v="Midtre Kallebrenna" />
		<tag k="natural" v="ridge" />
		<tag k="place" v="locality" />
		<tag k="ssr:stedsnr" v="29820" />
	</node>
	<node lat="60.29441388780003" lon="10.034602768891096" id="-12426">
		<tag k="alt_name" v="Stillingjuvet" />
		<tag k="name" v="Stillingsjuvet" />
		<tag k="natural" v="gorge" />
		<tag k="ssr:stedsnr" v="29877" />
	</node>
	<node lat="60.30125555924983" lon="10.072694441378285" id="-12427">
		<tag k="name" v="Flåmyrlia" />
		<tag k="natural" v="slope" />
		<tag k="place" v="locality" />
		<tag k="ssr:stedsnr" v="29880" />
	</node>
	<node lat="60.34120555992493" lon="10.129955547384135" id="-12429">
		<tag k="name" v="Harakollen" />
		<tag k="natural" v="hill" />
		<tag k="place" v="locality" />
		<tag k="ssr:stedsnr" v="29980" />
	</node>
	<node lat="60.279358335006535" lon="9.808213896633719" id="-12431">
		<tag k="name" v="Bekkhaugen" />
		<tag k="natural" v="hill" />
		<tag k="place" v="locality" />
		<tag k="ssr:stedsnr" v="30216" />
	</node>
	<node lat="60.361872221161484" lon="10.0181111182873" id="-12438">
		<tag k="alt_name" v="Søndre Rokotjern" />
		<tag k="name" v="Søre Rokotjern" />
		<tag k="natural" v="gorge" />
		<tag k="ssr:stedsnr" v="237374" />
	</node>
	<node lat="60.16622499936891" lon="10.052702768825647" id="-12454">
		<tag k="fixme" v="consider natural=peak for the most distinct mountains in the district" />
		<tag k="name" v="Lønndalsåsen" />
		<tag k="natural" v="hill" />
		<tag k="place" v="locality" />
		<tag k="ssr:stedsnr" v="65603" />
	</node>
	<node lat="60.099108329084764" lon="10.409833341879963" id="-12463">
		<tag k="fixme" v="consider natural=peak for the most distinct mountains in the district" />
		<tag k="name" v="Kulpåsen" />
		<tag k="natural" v="hill" />
		<tag k="place" v="locality" />
		<tag k="ssr:stedsnr" v="66149" />
	</node>
	<node lat="60.108863888994954" lon="10.54299167381048" id="-12464">
		<tag k="fixme" v="consider natural=peak for the most distinct mountains in the district" />
		<tag k="name" v="Butleråsen" />
		<tag k="natural" v="hill" />
		<tag k="place" v="locality" />
		<tag k="ssr:stedsnr" v="66154" />
	</node>
	<node lat="60.06198055553371" lon="10.551197228194333" id="-12466">
		<tag k="fixme" v="consider natural=peak for the most distinct mountains in the district" />
		<tag k="name" v="Hornet" />
		<tag k="natural" v="hill" />
		<tag k="place" v="locality" />
		<tag k="ssr:stedsnr" v="66196" />
	</node>
	<node lat="60.046863891712036" lon="10.483191674110042" id="-12472">
		<tag k="fixme" v="consider natural=peak for the most distinct mountains in the district" />
		<tag k="name" v="Søttjernberget" />
		<tag k="natural" v="hill" />
		<tag k="place" v="locality" />
		<tag k="ssr:stedsnr" v="66945" />
	</node>
	<node lat="60.39895000233073" lon="10.168794441469764" id="-12476">
		<tag k="name" v="Soltjernsbrenna" />
		<tag k="natural" v="hill" />
		<tag k="place" v="locality" />
		<tag k="ssr:stedsnr" v="67298" />
	</node>
	<node lat="60.31818333067361" lon="10.15489444920471" id="-12482">
		<tag k="fixme" v="consider natural=peak for the most distinct mountains in the district" />
		<tag k="name" v="Blekaberget" />
		<tag k="natural" v="hill" />
		<tag k="place" v="locality" />
		<tag k="ssr:stedsnr" v="67507" />
	</node>
	<node lat="60.31570000210966" lon="10.21632500286371" id="-12486">
		<tag k="fixme" v="consider natural=peak for the most distinct mountains in the district" />
		<tag k="name" v="Trollhaugane" />
		<tag k="natural" v="hill" />
		<tag k="place" v="locality" />
		<tag k="ssr:stedsnr" v="67500" />
	</node>
	<node lat="60.45965000315652" lon="9.953488879891204" id="-12493">
		<tag k="name" v="Knatten" />
		<tag k="natural" v="hill" />
		<tag k="place" v="locality" />
		<tag k="ssr:stedsnr" v="67900" />
	</node>
	<node lat="60.24881389197728" lon="9.748725003237679" id="-12499">
		<tag k="name" v="Bakkejuvet" />
		<tag k="natural" v="gorge" />
		<tag k="ssr:stedsnr" v="86287" />
	</node>
	<node lat="60.05229722379775" lon="10.485286114430878" id="-12510">
		<tag k="fixme" v="consider natural=peak for the most distinct mountains in the district" />
		<tag k="name" v="Surbakk" />
		<tag k="natural" v="hill" />
		<tag k="place" v="locality" />
		<tag k="ssr:stedsnr" v="87009" />
	</node>
	<node lat="60.421550001497714" lon="10.184044445255033" id="-12515">
		<tag k="name" v="Klokkelegeret" />
		<tag k="natural" v="hill" />
		<tag k="place" v="locality" />
		<tag k="ssr:stedsnr" v="88973" />
	</node>
	<node lat="60.42969166923507" lon="10.026624992207068" id="-12519">
		<tag k="name" v="Skrubberuddalen" />
		<tag k="natural" v="valley" />
		<tag k="place" v="locality" />
		<tag k="ssr:stedsnr" v="89479" />
	</node>
	<node lat="60.37136944308735" lon="10.131730564203917" id="-12520">
		<tag k="name" v="Svendsbråtalia" />
		<tag k="natural" v="slope" />
		<tag k="place" v="locality" />
		<tag k="ssr:stedsnr" v="89607" />
	</node>
	<node lat="60.37486110847903" lon="10.08694722102628" id="-12521">
		<tag k="name" v="Berghammerlia" />
		<tag k="natural" v="slope" />
		<tag k="place" v="locality" />
		<tag k="ssr:stedsnr" v="89608" />
	</node>
	<node lat="60.21315555466804" lon="10.012152781521833" id="-12523">
		<tag k="name" v="Siljudalen" />
		<tag k="natural" v="valley" />
		<tag k="place" v="locality" />
		<tag k="ssr:stedsnr" v="89690" />
	</node>
	<node lat="60.21396899523071" lon="9.912886412671176" id="-12524">
		<tag k="name" v="Varden" />
		<tag k="natural" v="hill" />
		<tag k="place" v="locality" />
		<tag k="ssr:stedsnr" v="89692" />
	</node>
	<node lat="60.35100833165959" lon="10.033502784038184" id="-12525">
		<tag k="name" v="Storsteinsberget" />
		<tag k="natural" v="hill" />
		<tag k="place" v="locality" />
		<tag k="ssr:stedsnr" v="89631" />
	</node>
	<node lat="60.13356388944367" lon="10.049300001579956" id="-12537">
		<tag k="fixme" v="consider natural=peak for the most distinct mountains in the district" />
		<tag k="name" v="Brenningsåsen" />
		<tag k="natural" v="hill" />
		<tag k="place" v="locality" />
		<tag k="ssr:stedsnr" v="90127" />
	</node>
	<node lat="60.278450000235686" lon="9.946841665582157" id="-12542">
		<tag k="name" v="Tyttebærmoen" />
		<tag k="place" v="locality" />
		<tag k="ssr:stedsnr" v="90511" />
	</node>
	<node lat="60.53133610953028" lon="9.96680832523377" id="-12543">
		<tag k="fixme" v="consider natural=peak for the most distinct mountains in the district" />
		<tag k="name" v="Storfurukollen" />
		<tag k="natural" v="hill" />
		<tag k="place" v="locality" />
		<tag k="ssr:stedsnr" v="90681" />
	</node>
	<node lat="60.5462250011673" lon="9.93117499809882" id="-12549">
		<tag k="name" v="Grasbråtakleivene" />
		<tag k="natural" v="slope" />
		<tag k="place" v="locality" />
		<tag k="ssr:stedsnr" v="90780" />
	</node>
	<node lat="60.57578055929566" lon="9.870638885164876" id="-12551">
		<tag k="name" v="Raufurubrenna" />
		<tag k="natural" v="ridge" />
		<tag k="place" v="locality" />
		<tag k="ssr:stedsnr" v="90964" />
	</node>
	<node lat="60.57072222568312" lon="9.881905563534447" id="-12552">
		<tag k="fixme" v="consider natural=peak for the most distinct mountains in the district" />
		<tag k="name" v="Granorhaugen" />
		<tag k="natural" v="hill" />
		<tag k="place" v="locality" />
		<tag k="ssr:stedsnr" v="90972" />
	</node>
	<node lat="60.27393333538789" lon="9.858449991823651" id="-12555">
		<tag k="fixme" v="consider natural=peak for the most distinct mountains in the district" />
		<tag k="name" v="Kastbråtaåsen" />
		<tag k="natural" v="hill" />
		<tag k="place" v="locality" />
		<tag k="ssr:stedsnr" v="91167" />
	</node>
	<node lat="60.247450000577665" lon="9.813797228549824" id="-12563">
		<tag k="name" v="Djupdalen" />
		<tag k="natural" v="valley" />
		<tag k="place" v="locality" />
		<tag k="ssr:stedsnr" v="247229" />
	</node>
	<node lat="60.140613887296034" lon="10.527377786366923" id="-12582">
		<tag k="fixme" v="consider natural=peak for the most distinct mountains in the district" />
		<tag k="name" v="Tvetjernshøgda" />
		<tag k="natural" v="hill" />
		<tag k="place" v="locality" />
		<tag k="ssr:stedsnr" v="248090" />
	</node>
	<node lat="60.05452777844807" lon="10.472552772390321" id="-12587">
		<tag k="fixme" v="consider natural=peak for the most distinct mountains in the district" />
		<tag k="name" v="Bærumskollen" />
		<tag k="natural" v="hill" />
		<tag k="place" v="locality" />
		<tag k="ssr:stedsnr" v="248196" />
	</node>
	<node lat="60.21994999729401" lon="9.80404722910572" id="-12588">
		<tag k="name" v="Kvernhusåsen" />
		<tag k="natural" v="hill" />
		<tag k="place" v="locality" />
		<tag k="ssr:stedsnr" v="248197" />
	</node>
	<node lat="60.45084166349519" lon="10.114225008842247" id="-12596">
		<tag k="name" v="Stallberghøgda" />
		<tag k="natural" v="hill" />
		<tag k="place" v="locality" />
		<tag k="ssr:stedsnr" v="248526" />
	</node>
	<node lat="60.45560555267559" lon="10.076288884034291" id="-12598">
		<tag k="name" v="Tretjernshøgda" />
		<tag k="natural" v="hill" />
		<tag k="place" v="locality" />
		<tag k="ssr:stedsnr" v="248537" />
	</node>
	<node lat="60.38412221972984" lon="10.153711106351148" id="-12601">
		<tag k="alt_name" v="Jøthauga" />
		<tag k="fixme" v="consider natural=peak for the most distinct mountains in the district" />
		<tag k="name" v="Gjøthaugane" />
		<tag k="natural" v="hill" />
		<tag k="place" v="locality" />
		<tag k="ssr:stedsnr" v="248636" />
	</node>
	<node lat="60.31040555387515" lon="9.723386110072045" id="-12605">
		<tag k="name" v="Finnevollåsen" />
		<tag k="natural" v="hill" />
		<tag k="place" v="locality" />
		<tag k="ssr:stedsnr" v="248845" />
	</node>
	<node lat="60.28708333412457" lon="9.846958329729523" id="-12613">
		<tag k="fixme" v="consider natural=peak for the most distinct mountains in the district" />
		<tag k="name" v="Rudskollen" />
		<tag k="natural" v="hill" />
		<tag k="place" v="locality" />
		<tag k="ssr:stedsnr" v="249645" />
	</node>
	<node lat="60.267649999984265" lon="9.859958324917255" id="-12614">
		<tag k="alt_name" v="Kaldebråtaåsen" />
		<tag k="fixme" v="consider natural=peak for the most distinct mountains in the district" />
		<tag k="name" v="Kallebråtaåsen" />
		<tag k="natural" v="hill" />
		<tag k="place" v="locality" />
		<tag k="ssr:stedsnr" v="249605" />
	</node>
	<node lat="60.35732222309813" lon="9.79972221359225" id="-12623">
		<tag k="fixme" v="consider natural=peak for the most distinct mountains in the district" />
		<tag k="name" v="Auretjernkollen" />
		<tag k="natural" v="hill" />
		<tag k="place" v="locality" />
		<tag k="ssr:stedsnr" v="249748" />
	</node>
	<node lat="60.39946666820754" lon="9.91977499649838" id="-12630">
		<tag k="alt_name" v="Ulevassfjellet" />
		<tag k="fixme" v="consider natural=peak for the most distinct mountains in the district" />
		<tag k="loc_name" v="Urdevassfjell" />
		<tag k="name" v="Urdevassfjellet" />
		<tag k="natural" v="hill" />
		<tag k="place" v="locality" />
		<tag k="ssr:stedsnr" v="249938" />
	</node>
	<node lat="60.550161109570844" lon="10.0672888802624" id="-12635">
		<tag k="alt_name" v="Håvervikbergene" />
		<tag k="name" v="Håvårvikberga" />
		<tag k="natural" v="hill" />
		<tag k="place" v="locality" />
		<tag k="ssr:stedsnr" v="250499" />
	</node>
	<node lat="60.209997576467494" lon="9.837586578122568" id="-12650">
		<tag k="alt_name" v="Ørtekollen" />
		<tag k="fixme" v="consider natural=peak for the most distinct mountains in the district" />
		<tag k="name" v="Ørteskollen" />
		<tag k="natural" v="hill" />
		<tag k="place" v="locality" />
		<tag k="ssr:stedsnr" v="125201" />
	</node>
	<node lat="60.185458337259426" lon="10.412850001417834" id="-12659">
		<tag k="fixme" v="consider natural=peak for the most distinct mountains in the district" />
		<tag k="name" v="Nyseteråsen" />
		<tag k="natural" v="hill" />
		<tag k="place" v="locality" />
		<tag k="ssr:stedsnr" v="126046" />
	</node>
	<node lat="60.06939722644609" lon="10.526458339271477" id="-12662">
		<tag k="name" v="Kjagdalen" />
		<tag k="natural" v="valley" />
		<tag k="place" v="locality" />
		<tag k="ssr:stedsnr" v="126223" />
	</node>
	<node lat="60.06671111171185" lon="9.97730556425965" id="-12666">
		<tag k="fixme" v="consider natural=peak for the most distinct mountains in the district" />
		<tag k="name" v="Fugleleiken" />
		<tag k="natural" v="hill" />
		<tag k="place" v="locality" />
		<tag k="ssr:stedsnr" v="126251" />
	</node>
	<node lat="60.13247777606782" lon="9.976900000373574" id="-12670">
		<tag k="fixme" v="consider natural=peak for the most distinct mountains in the district" />
		<tag k="name" v="Svartåsen" />
		<tag k="natural" v="hill" />
		<tag k="place" v="locality" />
		<tag k="ssr:stedsnr" v="126657" />
	</node>
	<node lat="60.34413055469391" lon="10.146022221587911" id="-12677">
		<tag k="alt_name" v="Kongsgårdskollen" />
		<tag k="fixme" v="consider natural=peak for the most distinct mountains in the district" />
		<tag k="name" v="Kongsgardskollen" />
		<tag k="natural" v="hill" />
		<tag k="place" v="locality" />
		<tag k="ssr:stedsnr" v="127615" />
	</node>
	<node lat="60.30309444197701" lon="10.207247223428663" id="-12683">
		<tag k="alt_name" v="Årefjellåsen" />
		<tag k="fixme" v="consider natural=peak for the most distinct mountains in the district" />
		<tag k="name" v="Årfjellsåsen" />
		<tag k="natural" v="hill" />
		<tag k="place" v="locality" />
		<tag k="ssr:stedsnr" v="127401" />
	</node>
	<node lat="60.45245555735964" lon="9.964299991262395" id="-12696">
		<tag k="name" v="Dyrbeintjernshøgda" />
		<tag k="natural" v="hill" />
		<tag k="place" v="locality" />
		<tag k="ssr:stedsnr" v="127910" />
	</node>
	<node lat="60.564369446494915" lon="10.05775832941753" id="-12700">
		<tag k="name" v="Treputthøgda" />
		<tag k="natural" v="hill" />
		<tag k="place" v="locality" />
		<tag k="ssr:stedsnr" v="128601" />
	</node>
	<node lat="60.2612000031315" lon="9.903724996992697" id="-12701">
		<tag k="name" v="Lyarberget" />
		<tag k="natural" v="hill" />
		<tag k="place" v="locality" />
		<tag k="ssr:stedsnr" v="128732" />
	</node>
	<node lat="60.55484166498618" lon="10.042808337206667" id="-12702">
		<tag k="alt_name" v="Lindskardsberget" />
		<tag k="name" v="Linskarbergene" />
		<tag k="natural" v="hill" />
		<tag k="place" v="locality" />
		<tag k="ssr:stedsnr" v="128487" />
	</node>
	<node lat="60.55348610702595" lon="9.82423056296017" id="-12705">
		<tag k="name" v="Bakkekollen" />
		<tag k="natural" v="hill" />
		<tag k="place" v="locality" />
		<tag k="ssr:stedsnr" v="128837" />
	</node>
	<node lat="60.626211107513754" lon="9.935577776458844" id="-12706">
		<tag k="name" v="Mauruskollen" />
		<tag k="natural" v="hill" />
		<tag k="place" v="locality" />
		<tag k="ssr:stedsnr" v="128886" />
	</node>
	<node lat="60.53114444358125" lon="10.116649996811711" id="-12707">
		<tag k="name" v="Storvikbråten" />
		<tag k="natural" v="slope" />
		<tag k="place" v="locality" />
		<tag k="ssr:stedsnr" v="146170" />
	</node>
	<node lat="60.40835833232376" lon="10.14648333290222" id="-12711">
		<tag k="name" v="Nordre Bakmeishaug" />
		<tag k="natural" v="hill" />
		<tag k="place" v="locality" />
		<tag k="ssr:stedsnr" v="146401" />
	</node>
	<node lat="60.567183333191736" lon="9.970558333532805" id="-12713">
		<tag k="name" v="Rennebråtalia" />
		<tag k="natural" v="slope" />
		<tag k="place" v="locality" />
		<tag k="ssr:stedsnr" v="146510" />
	</node>
	<node lat="60.56016666918393" lon="9.969425000905392" id="-12714">
		<tag k="name" v="Kollen" />
		<tag k="natural" v="hill" />
		<tag k="place" v="locality" />
		<tag k="ssr:stedsnr" v="146527" />
	</node>
	<node lat="60.16140000057825" lon="10.397816658865768" id="-12722">
		<tag k="name" v="Veslefjell" />
		<tag k="natural" v="hill" />
		<tag k="place" v="locality" />
		<tag k="ssr:stedsnr" v="147266" />
	</node>
	<node lat="60.09717500046848" lon="10.535327775313272" id="-12725">
		<tag k="name" v="Grønvolldalen" />
		<tag k="natural" v="valley" />
		<tag k="place" v="locality" />
		<tag k="ssr:stedsnr" v="147410" />
	</node>
	<node lat="60.57315555156485" lon="10.08178054865803" id="-12727">
		<tag k="name" v="Stormyrlia" />
		<tag k="natural" v="slope" />
		<tag k="place" v="locality" />
		<tag k="ssr:stedsnr" v="147361" />
	</node>
	<node lat="60.20063055948619" lon="10.315702783352195" id="-12730">
		<tag k="name" v="Veslemoen" />
		<tag k="place" v="locality" />
		<tag k="ssr:stedsnr" v="147762" />
	</node>
	<node lat="60.55876388519238" lon="10.02017500540712" id="-12736">
		<tag k="name" v="Kvitsanddalen" />
		<tag k="natural" v="valley" />
		<tag k="place" v="locality" />
		<tag k="ssr:stedsnr" v="149368" />
	</node>
	<node lat="60.556113892353466" lon="10.019794448278045" id="-12737">
		<tag k="name" v="Stålbogen" />
		<tag k="natural" v="ridge" />
		<tag k="place" v="locality" />
		<tag k="ssr:stedsnr" v="149373" />
	</node>
	<node lat="60.41823055266834" lon="10.050052784865313" id="-12740">
		<tag k="name" v="Langbråtene" />
		<tag k="natural" v="slope" />
		<tag k="place" v="locality" />
		<tag k="ssr:stedsnr" v="149405" />
	</node>
	<node lat="60.428002776094395" lon="10.064591671297265" id="-12742">
		<tag k="name" v="Bjørnerudhaugen" />
		<tag k="natural" v="hill" />
		<tag k="place" v="locality" />
		<tag k="ssr:stedsnr" v="149429" />
	</node>
	<node lat="60.393350002795174" lon="10.083086119526664" id="-12751">
		<tag k="name" v="Renneheimen" />
		<tag k="natural" v="slope" />
		<tag k="place" v="locality" />
		<tag k="ssr:stedsnr" v="149907" />
	</node>
	<node lat="60.44874722392839" lon="10.013538884969101" id="-12755">
		<tag k="name" v="Juvet" />
		<tag k="natural" v="gorge" />
		<tag k="ssr:stedsnr" v="150102" />
	</node>
	<node lat="60.40314166935543" lon="9.971188888881715" id="-12756">
		<tag k="fixme" v="consider natural=peak for the most distinct mountains in the district" />
		<tag k="name" v="Tossevikfjellet" />
		<tag k="natural" v="hill" />
		<tag k="place" v="locality" />
		<tag k="ssr:stedsnr" v="150110" />
	</node>
	<node lat="60.39286110809069" lon="10.114924997040745" id="-12759">
		<tag k="name" v="Fabrohælen" />
		<tag k="natural" v="valley" />
		<tag k="place" v="locality" />
		<tag k="ssr:stedsnr" v="150159" />
	</node>
	<node lat="60.42261388448985" lon="9.835613884467516" id="-12761">
		<tag k="name" v="Tungaseterhauga" />
		<tag k="natural" v="slope" />
		<tag k="place" v="locality" />
		<tag k="ssr:stedsnr" v="150473" />
	</node>
	<node lat="60.492591670755544" lon="9.937863892123652" id="-12762">
		<tag k="name" v="Torsteinsruddalen" />
		<tag k="natural" v="valley" />
		<tag k="place" v="locality" />
		<tag k="ssr:stedsnr" v="150621" />
	</node>
	<node lat="60.384863892315444" lon="10.0859722311404" id="-12767">
		<tag k="name" v="Morka" />
		<tag k="natural" v="slope" />
		<tag k="place" v="locality" />
		<tag k="ssr:stedsnr" v="150570" />
	</node>
	<node lat="60.520922221370064" lon="9.914288886845686" id="-12768">
		<tag k="name" v="Hanseposten" />
		<tag k="place" v="locality" />
		<tag k="ssr:stedsnr" v="150759" />
	</node>
	<node lat="60.544666667539246" lon="9.925477785060368" id="-12769">
		<tag k="name" v="Snaudalen" />
		<tag k="natural" v="valley" />
		<tag k="place" v="locality" />
		<tag k="ssr:stedsnr" v="150774" />
	</node>
	<node lat="60.29171666630971" lon="10.082088896943795" id="-12779">
		<tag k="name" v="Holmemyrjuvet" />
		<tag k="natural" v="gorge" />
		<tag k="ssr:stedsnr" v="150853" />
	</node>
	<node lat="60.27914444475555" lon="9.863322223378113" id="-12784">
		<tag k="name" v="Gjuvet" />
		<tag k="natural" v="gorge" />
		<tag k="ssr:stedsnr" v="151177" />
	</node>
	<node lat="60.20738055318089" lon="9.920208331770699" id="-12807">
		<tag k="fixme" v="consider natural=peak for the most distinct mountains in the district" />
		<tag k="name" v="Helgeåsen" />
		<tag k="natural" v="hill" />
		<tag k="place" v="locality" />
		<tag k="ssr:stedsnr" v="186179" />
	</node>
	<node lat="60.23353332901465" lon="10.00333889665834" id="-12814">
		<tag k="name" v="Jolinatten" />
		<tag k="natural" v="hill" />
		<tag k="place" v="locality" />
		<tag k="ssr:stedsnr" v="186991" />
	</node>
	<node lat="60.13465277621363" lon="10.485261117876254" id="-12816">
		<tag k="fixme" v="consider natural=peak for the most distinct mountains in the district" />
		<tag k="name" v="Storflåtaflaka" />
		<tag k="natural" v="hill" />
		<tag k="place" v="locality" />
		<tag k="ssr:stedsnr" v="187074" />
	</node>
	<node lat="60.25918333685726" lon="10.05916944855007" id="-12826">
		<tag k="alt_name" v="Stillingsås" />
		<tag k="fixme" v="consider natural=peak for the most distinct mountains in the district" />
		<tag k="name" v="Stillingsåsen" />
		<tag k="natural" v="hill" />
		<tag k="place" v="locality" />
		<tag k="ssr:stedsnr" v="188482" />
	</node>
	<node lat="60.330183335853775" lon="10.056708337446523" id="-12827">
		<tag k="fixme" v="consider natural=peak for the most distinct mountains in the district" />
		<tag k="name" v="Amundstukollen" />
		<tag k="natural" v="hill" />
		<tag k="place" v="locality" />
		<tag k="ssr:stedsnr" v="188491" />
	</node>
	<node lat="60.4640527749168" lon="9.9933749976797" id="-12828">
		<tag k="name" v="Kolldalen" />
		<tag k="natural" v="valley" />
		<tag k="place" v="locality" />
		<tag k="ssr:stedsnr" v="188607" />
	</node>
	<node lat="60.516652779496255" lon="9.895733326553154" id="-12843">
		<tag k="name" v="Aslebrennhøgda" />
		<tag k="natural" v="hill" />
		<tag k="place" v="locality" />
		<tag k="ssr:stedsnr" v="188881" />
	</node>
	<node lat="60.400366667847535" lon="9.819644450477778" id="-12846">
		<tag k="fixme" v="consider natural=peak for the most distinct mountains in the district" />
		<tag k="name" v="Tungehøgda" />
		<tag k="natural" v="hill" />
		<tag k="place" v="locality" />
		<tag k="ssr:stedsnr" v="188959" />
	</node>
	<node lat="60.58081944767358" lon="9.905249995709545" id="-12857">
		<tag k="name" v="Rotkjøvdalen" />
		<tag k="natural" v="valley" />
		<tag k="place" v="locality" />
		<tag k="ssr:stedsnr" v="272601" />
	</node>
	<node lat="60.12066740870891" lon="10.42050821718041" id="-12860">
		<tag k="fixme" v="consider natural=peak for the most distinct mountains in the district" />
		<tag k="name" v="Helleramsåsen" />
		<tag k="natural" v="hill" />
		<tag k="place" v="locality" />
		<tag k="ssr:stedsnr" v="268038" />
	</node>
	<node lat="60.08303610746295" lon="10.583719438067728" id="-12864">
		<tag k="name" v="Granshøgda" />
		<tag k="natural" v="hill" />
		<tag k="place" v="locality" />
		<tag k="ssr:stedsnr" v="268363" />
	</node>
	<node lat="60.10293055576628" lon="10.564238885346063" id="-12865">
		<tag k="name" v="Styggedalen" />
		<tag k="natural" v="valley" />
		<tag k="place" v="locality" />
		<tag k="ssr:stedsnr" v="268367" />
	</node>
	<node lat="60.23824444289723" lon="10.2025416674214" id="-12866">
		<tag k="name" v="Skårflågan" />
		<tag k="place" v="locality" />
		<tag k="ssr:stedsnr" v="268434" />
	</node>
	<node lat="60.32176388772978" lon="10.209583333934374" id="-12868">
		<tag k="name" v="Tiurdokka" />
		<tag k="natural" v="valley" />
		<tag k="place" v="locality" />
		<tag k="ssr:stedsnr" v="268559" />
	</node>
	<node lat="60.10976666882572" lon="10.111750006378477" id="-12873">
		<tag k="fixme" v="consider natural=peak for the most distinct mountains in the district" />
		<tag k="name" v="Korpeskarås" />
		<tag k="natural" v="hill" />
		<tag k="place" v="locality" />
		<tag k="ssr:stedsnr" v="207120" />
	</node>
	<node lat="60.52662778029835" lon="10.106108327269608" id="-12874">
		<tag k="fixme" v="consider natural=peak for the most distinct mountains in the district" />
		<tag k="name" v="Pruppkollen" />
		<tag k="natural" v="hill" />
		<tag k="place" v="locality" />
		<tag k="ssr:stedsnr" v="207182" />
	</node>
	<node lat="60.40627778126178" lon="10.148986114156395" id="-12875">
		<tag k="alt_name" v="Søndre Bakmeishaug" />
		<tag k="name" v="Søre Bakmeishaug" />
		<tag k="natural" v="hill" />
		<tag k="place" v="locality" />
		<tag k="ssr:stedsnr" v="207407" />
	</node>
	<node lat="60.41494722660231" lon="10.173791663458404" id="-12887">
		<tag k="name" v="Hansesnaret" />
		<tag k="natural" v="hill" />
		<tag k="place" v="locality" />
		<tag k="ssr:stedsnr" v="268972" />
	</node>
	<node lat="60.15710555321722" lon="10.439155547713437" id="-12890">
		<tag k="name" v="Varmbuhaug" />
		<tag k="natural" v="hill" />
		<tag k="place" v="locality" />
		<tag k="ssr:stedsnr" v="208288" />
	</node>
	<node lat="60.1632527736689" lon="10.421880557201039" id="-12891">
		<tag k="fixme" v="consider natural=peak for the most distinct mountains in the district" />
		<tag k="name" v="Merråsen" />
		<tag k="natural" v="hill" />
		<tag k="place" v="locality" />
		<tag k="ssr:stedsnr" v="208294" />
	</node>
	<node lat="60.21001944034841" lon="10.20364444932865" id="-12892">
		<tag k="name" v="Trehørningen" />
		<tag k="place" v="locality" />
		<tag k="ssr:stedsnr" v="208419" />
	</node>
	<node lat="60.13003888974962" lon="10.443975005387363" id="-12893">
		<tag k="name" v="Gravmyrhaugen" />
		<tag k="natural" v="hill" />
		<tag k="place" v="locality" />
		<tag k="ssr:stedsnr" v="208487" />
	</node>
	<node lat="60.20333889038113" lon="10.276449998806077" id="-12895">
		<tag k="name" v="Kjerringflata" />
		<tag k="place" v="locality" />
		<tag k="ssr:stedsnr" v="208808" />
	</node>
	<node lat="60.3416027764517" lon="10.167144443933099" id="-12898">
		<tag k="name" v="Trulsbrenna" />
		<tag k="place" v="locality" />
		<tag k="ssr:stedsnr" v="208978" />
	</node>
	<node lat="60.57991944620869" lon="10.079294441384217" id="-12902">
		<tag k="name" v="Rogndalen" />
		<tag k="natural" v="valley" />
		<tag k="place" v="locality" />
		<tag k="ssr:stedsnr" v="269140" />
	</node>
	<node lat="60.38997499736206" lon="10.156347225661941" id="-12910">
		<tag k="name" v="Tiurhammeren" />
		<tag k="natural" v="hill" />
		<tag k="place" v="locality" />
		<tag k="ssr:stedsnr" v="269269" />
	</node>
	<node lat="60.43683333116264" lon="9.950213890389072" id="-12915">
		<tag k="name" v="Elgsdalane" />
		<tag k="natural" v="valley" />
		<tag k="place" v="locality" />
		<tag k="ssr:stedsnr" v="211134" />
	</node>
	<node lat="60.42047777472269" lon="9.955411116601987" id="-12916">
		<tag k="name" v="Flåtjernsbrenna" />
		<tag k="natural" v="ridge" />
		<tag k="place" v="locality" />
		<tag k="ssr:stedsnr" v="211139" />
	</node>
	<node lat="60.42502500439169" lon="10.018194443022853" id="-12917">
		<tag k="name" v="Høgfosslia" />
		<tag k="natural" v="slope" />
		<tag k="place" v="locality" />
		<tag k="ssr:stedsnr" v="211141" />
	</node>
	<node lat="60.413486111853736" lon="9.96018610898328" id="-12919">
		<tag k="name" v="Lauvhaugen" />
		<tag k="natural" v="hill" />
		<tag k="place" v="locality" />
		<tag k="ssr:stedsnr" v="211145" />
	</node>
	<node lat="60.46418611139801" lon="10.007347226382846" id="-12920">
		<tag k="fixme" v="consider natural=peak for the most distinct mountains in the district" />
		<tag k="name" v="Skålebråten" />
		<tag k="natural" v="hill" />
		<tag k="place" v="locality" />
		<tag k="ssr:stedsnr" v="211180" />
	</node>
	<node lat="60.41678611553293" lon="10.01276110639134" id="-12923">
		<tag k="name" v="Hyttekastbergene" />
		<tag k="natural" v="hill" />
		<tag k="place" v="locality" />
		<tag k="ssr:stedsnr" v="211193" />
	</node>
	<node lat="60.066111109084446" lon="10.529219438261283" id="-12924">
		<tag k="name" v="Merrabakkane" />
		<tag k="natural" v="slope" />
		<tag k="place" v="locality" />
		<tag k="ssr:stedsnr" v="269468" />
	</node>
	<node lat="60.32844722442153" lon="9.821544441989012" id="-12932">
		<tag k="fixme" v="consider natural=peak for the most distinct mountains in the district" />
		<tag k="name" v="Stillingsåsen" />
		<tag k="natural" v="hill" />
		<tag k="place" v="locality" />
		<tag k="ssr:stedsnr" v="211524" />
	</node>
	<node lat="60.27483055555384" lon="9.957061109073877" id="-12934">
		<tag k="name" v="Rådalsmoen" />
		<tag k="place" v="locality" />
		<tag k="ssr:stedsnr" v="211534" />
	</node>
	<node lat="60.51001944078311" lon="10.000883342031308" id="-12937">
		<tag k="name" v="Helvetesporten" />
		<tag k="natural" v="valley" />
		<tag k="place" v="locality" />
		<tag k="ssr:stedsnr" v="211635" />
	</node>
	<node lat="60.2970777753204" lon="10.046663883372096" id="-12942">
		<tag k="name" v="Bjørndalsflåa" />
		<tag k="place" v="locality" />
		<tag k="ssr:stedsnr" v="211892" />
	</node>
	<node lat="60.57590833692496" lon="9.83776111994217" id="-12943">
		<tag k="name" v="Kallseterkollen" />
		<tag k="natural" v="hill" />
		<tag k="place" v="locality" />
		<tag k="ssr:stedsnr" v="211897" />
	</node>
	<node lat="60.3801555516045" lon="9.82344443810331" id="-12945">
		<tag k="name" v="Skansen" />
		<tag k="natural" v="cliff" />
		<tag k="ssr:stedsnr" v="212014" />
	</node>
	<node lat="60.3738416712232" lon="9.801558325824601" id="-12946">
		<tag k="name" v="Gampekollen" />
		<tag k="natural" v="hill" />
		<tag k="place" v="locality" />
		<tag k="ssr:stedsnr" v="212028" />
	</node>
	<node lat="60.5027388867687" lon="9.984819442084072" id="-12947">
		<tag k="alt_name" v="Veslevannslia" />
		<tag k="name" v="Veslevasslia" />
		<tag k="natural" v="slope" />
		<tag k="place" v="locality" />
		<tag k="ssr:stedsnr" v="211732" />
	</node>
	<node lat="60.3524750006735" lon="10.042819442891073" id="-12949">
		<tag k="name" v="Soverhaugbrøtta" />
		<tag k="place" v="locality" />
		<tag k="ssr:stedsnr" v="211783" />
	</node>
	<node lat="60.35156944199308" lon="10.024397224032368" id="-12951">
		<tag k="name" v="Gulltjernshøgda" />
		<tag k="natural" v="hill" />
		<tag k="place" v="locality" />
		<tag k="ssr:stedsnr" v="211788" />
	</node>
	<node lat="60.36748889023274" lon="9.812372222800628" id="-12952">
		<tag k="name" v="Seterbråten" />
		<tag k="natural" v="valley" />
		<tag k="place" v="locality" />
		<tag k="ssr:stedsnr" v="211982" />
	</node>
	<node lat="60.26970278051773" lon="9.861322224325708" id="-12954">
		<tag k="fixme" v="consider natural=peak for the most distinct mountains in the district" />
		<tag k="name" v="Steinbråtaåsen" />
		<tag k="natural" v="hill" />
		<tag k="place" v="locality" />
		<tag k="ssr:stedsnr" v="212174" />
	</node>
	<node lat="60.28408055686992" lon="9.855277773983035" id="-12955">
		<tag k="fixme" v="consider natural=peak for the most distinct mountains in the district" />
		<tag k="name" v="Skaråsen" />
		<tag k="natural" v="hill" />
		<tag k="place" v="locality" />
		<tag k="ssr:stedsnr" v="212206" />
	</node>
	<node lat="60.236213891922176" lon="9.897138881170896" id="-12957">
		<tag k="name" v="Vinterroa" />
		<tag k="natural" v="slope" />
		<tag k="place" v="locality" />
		<tag k="ssr:stedsnr" v="212713" />
	</node>
	<node lat="60.60383055172769" lon="10.009613892586268" id="-12969">
		<tag k="name" v="Bjørnebråtaberga" />
		<tag k="natural" v="cliff" />
		<tag k="ssr:stedsnr" v="272746" />
	</node>
	<node lat="60.41729166977687" lon="10.045191674943602" id="-12974">
		<tag k="name" v="Ulendebråten" />
		<tag k="natural" v="slope" />
		<tag k="place" v="locality" />
		<tag k="ssr:stedsnr" v="271449" />
	</node>
	<node lat="60.41546388754211" lon="10.032041675637762" id="-12975">
		<tag k="name" v="Snarhaugen" />
		<tag k="natural" v="hill" />
		<tag k="place" v="locality" />
		<tag k="ssr:stedsnr" v="271450" />
	</node>
	<node lat="60.42289166792425" lon="10.067002772197618" id="-12976">
		<tag k="name" v="Geiteryggen" />
		<tag k="natural" v="ridge" />
		<tag k="place" v="locality" />
		<tag k="ssr:stedsnr" v="271466" />
	</node>
	<node lat="60.26537499724919" lon="9.929222226945441" id="-12978">
		<tag k="name" v="Nilsebråtakleiva" />
		<tag k="natural" v="slope" />
		<tag k="place" v="locality" />
		<tag k="ssr:stedsnr" v="271593" />
	</node>
	<node lat="60.36844748781099" lon="10.107456380137894" id="-12984">
		<tag k="name" v="Skardet" />
		<tag k="natural" v="valley" />
		<tag k="place" v="locality" />
		<tag k="ssr:stedsnr" v="271665" />
	</node>
	<node lat="60.36277222203925" lon="10.130180558272116" id="-12985">
		<tag k="name" v="Fjellsnardalen" />
		<tag k="natural" v="valley" />
		<tag k="place" v="locality" />
		<tag k="ssr:stedsnr" v="271668" />
	</node>
	<node lat="60.438330559054435" lon="10.117188884595722" id="-12987">
		<tag k="name" v="Luriushøgda" />
		<tag k="natural" v="hill" />
		<tag k="place" v="locality" />
		<tag k="ssr:stedsnr" v="271745" />
	</node>
	<node lat="60.39241388780372" lon="10.093858333743501" id="-12990">
		<tag k="name" v="Damtjernlegga" />
		<tag k="place" v="locality" />
		<tag k="ssr:stedsnr" v="271917" />
	</node>
	<node lat="60.47121944816185" lon="10.032358341552362" id="-12993">
		<tag k="name" v="Landtangen" />
		<tag k="place" v="locality" />
		<tag k="ssr:stedsnr" v="271867" />
	</node>
	<node lat="60.06946388639556" lon="10.377286104812807" id="-13002">
		<tag k="name" v="Fjellseterbrenna" />
		<tag k="natural" v="slope" />
		<tag k="old_name" v="Flellseterbrenna" />
		<tag k="place" v="locality" />
		<tag k="ssr:stedsnr" v="450007" />
	</node>
	<node lat="60.105691269493384" lon="10.384673096504487" id="-13008">
		<tag k="name" v="Nordre Gaupeskardet" />
		<tag k="natural" v="valley" />
		<tag k="place" v="locality" />
		<tag k="ssr:stedsnr" v="235197" />
	</node>
	<node lat="60.53399722462701" lon="10.09232499233053" id="-13009">
		<tag k="name" v="Torkildsbråten" />
		<tag k="place" v="locality" />
		<tag k="ssr:stedsnr" v="450191" />
	</node>
	<node lat="60.253330552972116" lon="9.775086111931106" id="-13011">
		<tag k="name" v="Bakkebrenna" />
		<tag k="natural" v="slope" />
		<tag k="place" v="locality" />
		<tag k="ssr:stedsnr" v="450257" />
	</node>
	<node lat="60.18846111492078" lon="10.390744447386316" id="-13014">
		<tag k="name" v="Storhaug" />
		<tag k="natural" v="hill" />
		<tag k="place" v="locality" />
		<tag k="ssr:stedsnr" v="450366" />
	</node>
	<node lat="60.40816389070061" lon="10.157138889710525" id="-13015">
		<tag k="name" v="Kalveskinnet" />
		<tag k="place" v="locality" />
		<tag k="ssr:stedsnr" v="450437" />
	</node>
	<node lat="60.411752779546056" lon="10.148419450970499" id="-13016">
		<tag k="name" v="Angerfosshaugen" />
		<tag k="natural" v="hill" />
		<tag k="place" v="locality" />
		<tag k="ssr:stedsnr" v="450438" />
	</node>
	<node lat="60.2133166653317" lon="10.338580556430609" id="-13026">
		<tag k="name" v="Storkastet" />
		<tag k="natural" v="slope" />
		<tag k="place" v="locality" />
		<tag k="ssr:stedsnr" v="451798" />
	</node>
	<node lat="60.13207500131447" lon="10.31336667427374" id="-13027">
		<tag k="name" v="Bakåsen" />
		<tag k="natural" v="slope" />
		<tag k="place" v="locality" />
		<tag k="ssr:stedsnr" v="451126" />
	</node>
	<node lat="60.56357499740196" lon="10.035405559471446" id="-13038">
		<tag k="fixme" v="consider natural=peak for the most distinct mountains in the district" />
		<tag k="name" v="Rysjukollen" />
		<tag k="natural" v="hill" />
		<tag k="place" v="locality" />
		<tag k="ssr:stedsnr" v="451190" />
	</node>
	<node lat="60.50295278197775" lon="10.09350277998073" id="-13040">
		<tag k="name" v="Kleiva" />
		<tag k="natural" v="slope" />
		<tag k="place" v="locality" />
		<tag k="ssr:stedsnr" v="451210" />
	</node>
	<node lat="60.198452778905384" lon="10.201633339430394" id="-13042">
		<tag k="name" v="Djupdal" />
		<tag k="natural" v="valley" />
		<tag k="place" v="locality" />
		<tag k="ssr:stedsnr" v="451441" />
	</node>
	<node lat="60.11777499676049" lon="10.432747215960578" id="-13046">
		<tag k="name" v="Gudbrandsdal" />
		<tag k="natural" v="valley" />
		<tag k="place" v="locality" />
		<tag k="ssr:stedsnr" v="451495" />
	</node>
	<node lat="60.53109166931858" lon="10.037130561445172" id="-13047">
		<tag k="name" v="Ringdalen" />
		<tag k="natural" v="valley" />
		<tag k="place" v="locality" />
		<tag k="ssr:stedsnr" v="451898" />
	</node>
	<node lat="60.21402777619739" lon="10.138255557531224" id="-13059">
		<tag k="fixme" v="consider natural=peak for the most distinct mountains in the district" />
		<tag k="name" v="Anbjørgåsen" />
		<tag k="natural" v="hill" />
		<tag k="place" v="locality" />
		<tag k="ssr:stedsnr" v="247526" />
	</node>
	<node lat="60.18572500146006" lon="10.043261105039418" id="-13061">
		<tag k="fixme" v="consider natural=peak for the most distinct mountains in the district" />
		<tag k="name" v="Gunhildåsen" />
		<tag k="natural" v="hill" />
		<tag k="place" v="locality" />
		<tag k="ssr:stedsnr" v="247564" />
	</node>
	<node lat="60.17929722643762" lon="10.397747230243677" id="-13069">
		<tag k="fixme" v="consider natural=peak for the most distinct mountains in the district" />
		<tag k="name" v="Stigsrudåsen" />
		<tag k="natural" v="hill" />
		<tag k="place" v="locality" />
		<tag k="ssr:stedsnr" v="248028" />
	</node>
	<node lat="60.09601350887099" lon="10.368067551373777" id="-13072">
		<tag k="alt_name" v="Mørkganga" />
		<tag k="name" v="Mørkgonga" />
		<tag k="natural" v="gorge" />
		<tag k="ssr:stedsnr" v="248153" />
	</node>
	<node lat="60.042436111219274" lon="10.50242222813137" id="-13076">
		<tag k="fixme" v="consider natural=peak for the most distinct mountains in the district" />
		<tag k="name" v="Høgåsen" />
		<tag k="natural" v="hill" />
		<tag k="place" v="locality" />
		<tag k="ssr:stedsnr" v="248403" />
	</node>
	<node lat="60.36116667024067" lon="9.986341660990385" id="-13080">
		<tag k="fixme" v="consider natural=peak for the most distinct mountains in the district" />
		<tag k="name" v="Gullknappen" />
		<tag k="natural" v="hill" />
		<tag k="place" v="locality" />
		<tag k="ssr:stedsnr" v="248618" />
	</node>
	<node lat="60.30922500440889" lon="9.955199995212453" id="-13087">
		<tag k="name" v="Rognlihøgda" />
		<tag k="natural" v="hill" />
		<tag k="place" v="locality" />
		<tag k="ssr:stedsnr" v="248856" />
	</node>
	<node lat="60.58660833140125" lon="9.967255556449594" id="-13101">
		<tag k="name" v="Klinkenbergbråtan" />
		<tag k="natural" v="slope" />
		<tag k="place" v="locality" />
		<tag k="ssr:stedsnr" v="454793" />
	</node>
	<node lat="60.569547224950405" lon="9.828491673276071" id="-13104">
		<tag k="name" v="Storhaugen" />
		<tag k="natural" v="hill" />
		<tag k="place" v="locality" />
		<tag k="ssr:stedsnr" v="454906" />
	</node>
	<node lat="60.29902499721296" lon="10.105547216125036" id="-13112">
		<tag k="name" v="Stillingsdalen" />
		<tag k="natural" v="valley" />
		<tag k="place" v="locality" />
		<tag k="ssr:stedsnr" v="453896" />
	</node>
	<node lat="60.30163333457528" lon="10.110652775233302" id="-13113">
		<tag k="name" v="Høgbråtahallen" />
		<tag k="natural" v="slope" />
		<tag k="place" v="locality" />
		<tag k="ssr:stedsnr" v="453900" />
	</node>
	<node lat="60.46732499678652" lon="10.023713882173764" id="-13114">
		<tag k="name" v="Geitberget" />
		<tag k="natural" v="hill" />
		<tag k="place" v="locality" />
		<tag k="ssr:stedsnr" v="453832" />
	</node>
	<node lat="60.48472777398776" lon="10.073502779481235" id="-13115">
		<tag k="name" v="Gopledalen" />
		<tag k="natural" v="valley" />
		<tag k="place" v="locality" />
		<tag k="ssr:stedsnr" v="453852" />
	</node>
	<node lat="60.48556111409984" lon="10.097677778831649" id="-13116">
		<tag k="name" v="Totjernsdalen" />
		<tag k="natural" v="valley" />
		<tag k="place" v="locality" />
		<tag k="ssr:stedsnr" v="453855" />
	</node>
	<node lat="60.220000000604685" lon="9.951908340200463" id="-13117">
		<tag k="fixme" v="consider natural=peak for the most distinct mountains in the district" />
		<tag k="name" v="Andenrudåsen" />
		<tag k="natural" v="hill" />
		<tag k="place" v="locality" />
		<tag k="ssr:stedsnr" v="453856" />
	</node>
	<node lat="60.341797222180475" lon="10.072141658080442" id="-13121">
		<tag k="name" v="Larsbråtalia" />
		<tag k="natural" v="slope" />
		<tag k="place" v="locality" />
		<tag k="ssr:stedsnr" v="453948" />
	</node>
	<node lat="60.37031111171227" lon="9.8451527699861" id="-13122">
		<tag k="name" v="Åmotrabbene" />
		<tag k="natural" v="ridge" />
		<tag k="place" v="locality" />
		<tag k="ssr:stedsnr" v="454028" />
	</node>
	<node lat="60.4273388864298" lon="9.995780549076457" id="-13124">
		<tag k="name" v="Halvorsnaret" />
		<tag k="natural" v="slope" />
		<tag k="place" v="locality" />
		<tag k="ssr:stedsnr" v="454192" />
	</node>
	<node lat="60.48333611058743" lon="9.975169442090856" id="-13125">
		<tag k="name" v="Vestre Damtjernhaug" />
		<tag k="natural" v="hill" />
		<tag k="place" v="locality" />
		<tag k="ssr:stedsnr" v="454199" />
	</node>
	<node lat="60.55398889130767" lon="9.893541668789604" id="-13128">
		<tag k="name" v="Stubbmoen" />
		<tag k="place" v="locality" />
		<tag k="ssr:stedsnr" v="454313" />
	</node>
	<node lat="60.16460555123389" lon="9.976224991046632" id="-13129">
		<tag k="name" v="Tretjernshøgda" />
		<tag k="natural" v="hill" />
		<tag k="place" v="locality" />
		<tag k="ssr:stedsnr" v="454329" />
	</node>
	<node lat="60.419408337357375" lon="9.94409722151987" id="-13131">
		<tag k="name" v="Flåtjernhaugen" />
		<tag k="natural" v="hill" />
		<tag k="place" v="locality" />
		<tag k="ssr:stedsnr" v="454136" />
	</node>
	<node lat="60.32531666925017" lon="9.805927780343737" id="-13134">
		<tag k="name" v="Såtlia" />
		<tag k="natural" v="slope" />
		<tag k="place" v="locality" />
		<tag k="ssr:stedsnr" v="454520" />
	</node>
	<node lat="60.281530555613514" lon="9.961686113086653" id="-13135">
		<tag k="fixme" v="consider natural=peak for the most distinct mountains in the district" />
		<tag k="name" v="Ellefbråten" />
		<tag k="natural" v="hill" />
		<tag k="place" v="locality" />
		<tag k="ssr:stedsnr" v="454533" />
	</node>
	<node lat="60.30093332930272" lon="9.838891668464761" id="-13136">
		<tag k="name" v="Steinsnardalen" />
		<tag k="natural" v="valley" />
		<tag k="place" v="locality" />
		<tag k="ssr:stedsnr" v="454581" />
	</node>
	<node lat="60.294177777982334" lon="9.798522216859656" id="-13137">
		<tag k="name" v="Seterbråten" />
		<tag k="natural" v="valley" />
		<tag k="place" v="locality" />
		<tag k="ssr:stedsnr" v="454589" />
	</node>
	<node lat="60.299283331486" lon="9.793019445709149" id="-13138">
		<tag k="name" v="Kultesletta" />
		<tag k="place" v="locality" />
		<tag k="ssr:stedsnr" v="454590" />
	</node>
	<node lat="60.56490833269479" lon="9.950480564442286" id="-13139">
		<tag k="name" v="Heggerustkollen" />
		<tag k="natural" v="hill" />
		<tag k="place" v="locality" />
		<tag k="ssr:stedsnr" v="454692" />
	</node>
	<node lat="60.2807277799958" lon="9.9717916673602" id="-13141">
		<tag k="name" v="Prekarudlia" />
		<tag k="natural" v="slope" />
		<tag k="place" v="locality" />
		<tag k="ssr:stedsnr" v="454543" />
	</node>
	<node lat="60.26901944541685" lon="10.015394441353214" id="-13143">
		<tag k="name" v="Grønknuten" />
		<tag k="natural" v="hill" />
		<tag k="place" v="locality" />
		<tag k="ssr:stedsnr" v="454549" />
	</node>
	<node lat="60.3088499978547" lon="9.804219443877992" id="-13144">
		<tag k="name" v="Bjørnetjernåsen" />
		<tag k="natural" v="slope" />
		<tag k="place" v="locality" />
		<tag k="ssr:stedsnr" v="454551" />
	</node>
	<node lat="60.2637666703491" lon="9.970769451345221" id="-13145">
		<tag k="name" v="Siljedalkamlia" />
		<tag k="natural" v="slope" />
		<tag k="place" v="locality" />
		<tag k="ssr:stedsnr" v="454552" />
	</node>
	<node lat="60.302363886918535" lon="9.99240277798553" id="-13147">
		<tag k="name" v="Gåstjernhaugen" />
		<tag k="natural" v="hill" />
		<tag k="place" v="locality" />
		<tag k="ssr:stedsnr" v="454617" />
	</node>
	<node lat="60.47946944611122" lon="9.953033336441607" id="-13149">
		<tag k="name" v="Fjellia" />
		<tag k="natural" v="slope" />
		<tag k="place" v="locality" />
		<tag k="ssr:stedsnr" v="454657" />
	</node>
	<node lat="60.53104999789522" lon="9.950291662242977" id="-13151">
		<tag k="name" v="Løkelia" />
		<tag k="natural" v="slope" />
		<tag k="place" v="locality" />
		<tag k="ssr:stedsnr" v="454728" />
	</node>
	<node lat="60.586366667903114" lon="9.94950556328418" id="-13155">
		<tag k="fixme" v="consider natural=peak for the most distinct mountains in the district" />
		<tag k="name" v="Nordre Roli" />
		<tag k="natural" v="hill" />
		<tag k="place" v="locality" />
		<tag k="ssr:stedsnr" v="454853" />
	</node>
	<node lat="60.58440832945817" lon="9.880380563511729" id="-13160">
		<tag k="fixme" v="consider natural=peak for the most distinct mountains in the district" />
		<tag k="name" v="Veslefjellet" />
		<tag k="natural" v="hill" />
		<tag k="place" v="locality" />
		<tag k="ssr:stedsnr" v="454982" />
	</node>
	<node lat="60.59186666504598" lon="9.950105559229666" id="-13165">
		<tag k="name" v="Bjørnelirenna" />
		<tag k="natural" v="valley" />
		<tag k="place" v="locality" />
		<tag k="ssr:stedsnr" v="455822" />
	</node>
	<node lat="60.317983336603525" lon="9.771261103839755" id="-13166">
		<tag k="name" v="Grytebråten" />
		<tag k="natural" v="hill" />
		<tag k="place" v="locality" />
		<tag k="ssr:stedsnr" v="455772" />
	</node>
	<node lat="60.195799998339936" lon="10.20959444681176" id="-13170">
		<tag k="fixme" v="consider natural=peak for the most distinct mountains in the district" />
		<tag k="name" v="Ormekula" />
		<tag k="natural" v="hill" />
		<tag k="place" v="locality" />
		<tag k="ssr:stedsnr" v="267112" />
	</node>
	<node lat="60.562199995998185" lon="9.973316671481498" id="-13173">
		<tag k="fixme" v="consider natural=peak for the most distinct mountains in the district" />
		<tag k="name" v="Spellberget" />
		<tag k="natural" v="hill" />
		<tag k="place" v="locality" />
		<tag k="ssr:stedsnr" v="267514" />
	</node>
	<node lat="60.52720277364735" lon="10.100388889322472" id="-13181">
		<tag k="name" v="Høgkastkollen" />
		<tag k="natural" v="hill" />
		<tag k="old_name" v="Køgkastkollen" />
		<tag k="place" v="locality" />
		<tag k="ssr:stedsnr" v="268193" />
	</node>
	<node lat="60.10415277383994" lon="10.502819438914278" id="-13184">
		<tag k="name" v="Kuvlia" />
		<tag k="natural" v="slope" />
		<tag k="place" v="locality" />
		<tag k="ssr:stedsnr" v="268387" />
	</node>
	<node lat="60.56320555689587" lon="10.008191674899889" id="-13186">
		<tag k="name" v="Andersbråten" />
		<tag k="natural" v="slope" />
		<tag k="place" v="locality" />
		<tag k="ssr:stedsnr" v="268526" />
	</node>
	<node lat="60.50329166630936" lon="10.107897217281048" id="-13190">
		<tag k="name" v="Jansbråtasnaret" />
		<tag k="natural" v="slope" />
		<tag k="place" v="locality" />
		<tag k="ssr:stedsnr" v="269202" />
	</node>
	<node lat="60.38022500007222" lon="10.179558326600128" id="-13191">
		<tag k="name" v="Bjørndalen" />
		<tag k="natural" v="valley" />
		<tag k="place" v="locality" />
		<tag k="ssr:stedsnr" v="269248" />
	</node>
	<node lat="60.16825555667304" lon="10.37320000515344" id="-13192">
		<tag k="fixme" v="consider natural=peak for the most distinct mountains in the district" />
		<tag k="name" v="Mosetjernås" />
		<tag k="natural" v="hill" />
		<tag k="place" v="locality" />
		<tag k="ssr:stedsnr" v="269294" />
	</node>
	<node lat="60.162666669979615" lon="10.464699993489763" id="-13193">
		<tag k="fixme" v="consider natural=peak for the most distinct mountains in the district" />
		<tag k="name" v="Søndre Uglafjell" />
		<tag k="natural" v="hill" />
		<tag k="place" v="locality" />
		<tag k="ssr:stedsnr" v="269302" />
	</node>
	<node lat="60.22090555260903" lon="10.274119450915427" id="-13200">
		<tag k="name" v="Granli" />
		<tag k="natural" v="slope" />
		<tag k="place" v="locality" />
		<tag k="ssr:stedsnr" v="269793" />
	</node>
	<node lat="60.1028027761389" lon="10.358941666384926" id="-13202">
		<tag k="fixme" v="consider natural=peak for the most distinct mountains in the district" />
		<tag k="name" v="Gunnerengsberga" />
		<tag k="natural" v="hill" />
		<tag k="place" v="locality" />
		<tag k="ssr:stedsnr" v="269913" />
	</node>
	<node lat="60.121799998019554" lon="10.241886103051334" id="-13203">
		<tag k="name" v="Lahaugen" />
		<tag k="natural" v="hill" />
		<tag k="place" v="locality" />
		<tag k="ssr:stedsnr" v="270288" />
	</node>
	<node lat="60.561544447067874" lon="10.076813883768391" id="-13205">
		<tag k="name" v="Faksebrenna" />
		<tag k="natural" v="ridge" />
		<tag k="place" v="locality" />
		<tag k="ssr:stedsnr" v="270471" />
	</node>
	<node lat="60.434538889125676" lon="10.023344449527968" id="-13211">
		<tag k="name" v="Skrubberudbakken" />
		<tag k="natural" v="slope" />
		<tag k="place" v="locality" />
		<tag k="ssr:stedsnr" v="271382" />
	</node>
	<node lat="60.34868611215738" lon="10.1208194450434" id="-13214">
		<tag k="name" v="Hullberglia" />
		<tag k="natural" v="slope" />
		<tag k="place" v="locality" />
		<tag k="ssr:stedsnr" v="271671" />
	</node>
	<node lat="60.38408889158079" lon="9.837747223765943" id="-13219">
		<tag k="fixme" v="consider natural=peak for the most distinct mountains in the district" />
		<tag k="name" v="Knutebråten" />
		<tag k="natural" v="hill" />
		<tag k="place" v="locality" />
		<tag k="ssr:stedsnr" v="272021" />
	</node>
	<node lat="60.35401389110916" lon="10.019424998007997" id="-13220">
		<tag k="name" v="Karibrenna" />
		<tag k="natural" v="ridge" />
		<tag k="place" v="locality" />
		<tag k="ssr:stedsnr" v="272022" />
	</node>
	<node lat="60.377738888740254" lon="9.843441660367295" id="-13221">
		<tag k="name" v="Leirmodalen" />
		<tag k="natural" v="valley" />
		<tag k="place" v="locality" />
		<tag k="ssr:stedsnr" v="272029" />
	</node>
	<node lat="60.33232777516698" lon="10.123727781257069" id="-13222">
		<tag k="name" v="Korpeskåpet" />
		<tag k="natural" v="hill" />
		<tag k="place" v="locality" />
		<tag k="ssr:stedsnr" v="271971" />
	</node>
	<node lat="60.4013361144566" lon="9.964147216726747" id="-13225">
		<tag k="name" v="Holmetjernkraket" />
		<tag k="natural" v="slope" />
		<tag k="place" v="locality" />
		<tag k="ssr:stedsnr" v="272120" />
	</node>
	<node lat="60.53492221813479" lon="9.89547500069233" id="-13226">
		<tag k="name" v="Hyttebakklia" />
		<tag k="natural" v="slope" />
		<tag k="place" v="locality" />
		<tag k="ssr:stedsnr" v="272276" />
	</node>
	<node lat="60.33897222244987" lon="9.889738887344398" id="-13228">
		<tag k="name" v="Tungemannsrensla" />
		<tag k="natural" v="slope" />
		<tag k="place" v="locality" />
		<tag k="ssr:stedsnr" v="272485" />
	</node>
	<node lat="60.18779999816886" lon="9.936908338933536" id="-13230">
		<tag k="name" v="Nyseterlia" />
		<tag k="natural" v="slope" />
		<tag k="place" v="locality" />
		<tag k="ssr:stedsnr" v="272617" />
	</node>
	<node lat="60.57438610929353" lon="9.941124991223257" id="-13231">
		<tag k="fixme" v="consider natural=peak for the most distinct mountains in the district" />
		<tag k="name" v="Jøtunheimbråtan" />
		<tag k="natural" v="hill" />
		<tag k="place" v="locality" />
		<tag k="ssr:stedsnr" v="272621" />
	</node>
	<node lat="60.200258334151926" lon="10.043516673102427" id="-13236">
		<tag k="name" v="Støverlia" />
		<tag k="natural" v="slope" />
		<tag k="place" v="locality" />
		<tag k="ssr:stedsnr" v="272775" />
	</node>
	<node lat="60.358616670146674" lon="9.855708339639946" id="-13243">
		<tag k="name" v="Langbråten" />
		<tag k="natural" v="slope" />
		<tag k="place" v="locality" />
		<tag k="ssr:stedsnr" v="272982" />
	</node>
	<node lat="60.29035832909007" lon="10.108041665496264" id="-13252">
		<tag k="name" v="Sibekklia" />
		<tag k="natural" v="slope" />
		<tag k="place" v="locality" />
		<tag k="ssr:stedsnr" v="271925" />
	</node>
	<node lat="60.07645000442219" lon="10.561633324630542" id="-13260">
		<tag k="fixme" v="consider natural=peak for the most distinct mountains in the district" />
		<tag k="name" v="Slottsåsen" />
		<tag k="natural" v="hill" />
		<tag k="place" v="locality" />
		<tag k="ssr:stedsnr" v="307270" />
	</node>
	<node lat="60.18293333693173" lon="9.90255833675749" id="-13264">
		<tag k="fixme" v="consider natural=peak for the most distinct mountains in the district" />
		<tag k="name" v="Rudskollen" />
		<tag k="natural" v="hill" />
		<tag k="place" v="locality" />
		<tag k="ssr:stedsnr" v="308105" />
	</node>
	<node lat="60.10001090009544" lon="10.47789043428741" id="-13266">
		<tag k="name" v="Krokskogen" />
		<tag k="natural" v="wood" />
		<tag k="ssr:stedsnr" v="308206" />
	</node>
	<node lat="60.07176388498806" lon="10.5677222224314" id="-13272">
		<tag k="fixme" v="consider natural=peak for the most distinct mountains in the district" />
		<tag k="name" v="Slottet" />
		<tag k="natural" v="hill" />
		<tag k="place" v="locality" />
		<tag k="ssr:stedsnr" v="308199" />
	</node>
	<node lat="60.048352777929" lon="10.497213882792655" id="-13278">
		<tag k="alt_name" v="Kyrkeberget;Kyrkjeberget" />
		<tag k="name" v="Kjerkeberget" />
		<tag k="natural" v="hill" />
		<tag k="place" v="locality" />
		<tag k="ssr:stedsnr" v="308950" />
	</node>
	<node lat="60.24665000144465" lon="10.115274995174135" id="-13280">
		<tag k="name" v="Gulberget" />
		<tag k="natural" v="hill" />
		<tag k="place" v="locality" />
		<tag k="ssr:stedsnr" v="308997" />
	</node>
	<node lat="60.27942500138801" lon="10.247183332346868" id="-13290">
		<tag k="fixme" v="consider natural=peak for the most distinct mountains in the district" />
		<tag k="loc_name" v="Mårasteinshøgda" />
		<tag k="name" v="Slåtteberget" />
		<tag k="natural" v="hill" />
		<tag k="place" v="locality" />
		<tag k="ssr:stedsnr" v="309455" />
	</node>
	<node lat="60.27234205799937" lon="10.254920032259317" id="-13291">
		<tag k="fixme" v="consider natural=peak for the most distinct mountains in the district" />
		<tag k="loc_name" v="Gravliåsen" />
		<tag k="name" v="Gravaråsen" />
		<tag k="natural" v="hill" />
		<tag k="place" v="locality" />
		<tag k="ssr:stedsnr" v="309463" />
	</node>
	<node lat="60.330369441452014" lon="9.977791666342041" id="-13292">
		<tag k="alt_name" v="Tjuvenborg" />
		<tag k="name" v="Tjuvenborgen" />
		<tag k="natural" v="hill" />
		<tag k="place" v="locality" />
		<tag k="ssr:stedsnr" v="309490" />
	</node>
	<node lat="60.301152775137346" lon="9.77782499196818" id="-13294">
		<tag k="name" v="Brekkeåsen" />
		<tag k="natural" v="hill" />
		<tag k="place" v="locality" />
		<tag k="ssr:stedsnr" v="309693" />
	</node>
	<node lat="60.305977780575226" lon="9.92459999788613" id="-13296">
		<tag k="fixme" v="consider natural=peak for the most distinct mountains in the district" />
		<tag k="name" v="Lagmannskollen" />
		<tag k="natural" v="hill" />
		<tag k="place" v="locality" />
		<tag k="ssr:stedsnr" v="309840" />
	</node>
	<node lat="60.02909722415549" lon="10.486583341819024" id="-13300">
		<tag k="fixme" v="consider natural=peak for the most distinct mountains in the district" />
		<tag k="name" v="Vidvangshøgda" />
		<tag k="natural" v="hill" />
		<tag k="place" v="locality" />
		<tag k="ssr:stedsnr" v="309993" />
	</node>
	<node lat="60.5632944464421" lon="9.970022221963909" id="-13302">
		<tag k="name" v="Holtekollen" />
		<tag k="natural" v="hill" />
		<tag k="place" v="locality" />
		<tag k="ssr:stedsnr" v="310606" />
	</node>
	<node lat="60.578858337414395" lon="9.961055561128394" id="-13308">
		<tag k="name" v="Svarttjernkollen" />
		<tag k="natural" v="hill" />
		<tag k="place" v="locality" />
		<tag k="ssr:stedsnr" v="310587" />
	</node>
	<node lat="60.31677222026581" lon="9.943366667600307" id="-13311">
		<tag k="fixme" v="consider natural=peak for the most distinct mountains in the district" />
		<tag k="name" v="Luserudflata" />
		<tag k="natural" v="hill" />
		<tag k="place" v="locality" />
		<tag k="ssr:stedsnr" v="310826" />
	</node>
	<node lat="60.6249305517549" lon="9.947549995365584" id="-13315">
		<tag k="name" v="Linskardberget" />
		<tag k="natural" v="hill" />
		<tag k="place" v="locality" />
		<tag k="ssr:stedsnr" v="310878" />
	</node>
	<node lat="60.34000555955563" lon="10.206416659700254" id="-13326">
		<tag k="name" v="Gampedalen" />
		<tag k="natural" v="valley" />
		<tag k="place" v="locality" />
		<tag k="ssr:stedsnr" v="328954" />
	</node>
	<node lat="60.060111110873166" lon="10.467688886271025" id="-13328">
		<tag k="fixme" v="consider natural=peak for the most distinct mountains in the district" />
		<tag k="name" v="Nordre Bærumskollen" />
		<tag k="natural" v="hill" />
		<tag k="place" v="locality" />
		<tag k="ssr:stedsnr" v="329011" />
	</node>
	<node lat="60.579613892807444" lon="10.080722215532866" id="-13330">
		<tag k="name" v="Rogndalshøgda" />
		<tag k="natural" v="hill" />
		<tag k="place" v="locality" />
		<tag k="ssr:stedsnr" v="329353" />
	</node>
	<node lat="60.30741389036863" lon="10.157363881812568" id="-13333">
		<tag k="name" v="Høgkastet" />
		<tag k="natural" v="cliff" />
		<tag k="ssr:stedsnr" v="329660" />
	</node>
	<node lat="60.49517500091068" lon="10.154258328624032" id="-13338">
		<tag k="name" v="Flåen" />
		<tag k="place" v="locality" />
		<tag k="ssr:stedsnr" v="329769" />
	</node>
	<node lat="60.053097222595916" lon="10.529350003602344" id="-13343">
		<tag k="fixme" v="consider natural=peak for the most distinct mountains in the district" />
		<tag k="name" v="Burudbrunsåsen" />
		<tag k="natural" v="hill" />
		<tag k="place" v="locality" />
		<tag k="ssr:stedsnr" v="330495" />
	</node>
	<node lat="60.431391668768654" lon="10.181338884713638" id="-13345">
		<tag k="name" v="Ådalsdokka" />
		<tag k="natural" v="valley" />
		<tag k="place" v="locality" />
		<tag k="ssr:stedsnr" v="330969" />
	</node>
	<node lat="60.139427776630434" lon="10.166236111030733" id="-13349">
		<tag k="name" v="Kongehaugen" />
		<tag k="natural" v="hill" />
		<tag k="place" v="locality" />
		<tag k="ssr:stedsnr" v="331951" />
	</node>
	<node lat="60.37491666414331" lon="9.921402771318235" id="-13355">
		<tag k="name" v="Halendingsleiken" />
		<tag k="natural" v="hill" />
		<tag k="place" v="locality" />
		<tag k="ssr:stedsnr" v="332067" />
	</node>
	<node lat="60.33035000094014" lon="10.070052784073107" id="-13357">
		<tag k="name" v="Flatakollen" />
		<tag k="natural" v="hill" />
		<tag k="place" v="locality" />
		<tag k="ssr:stedsnr" v="271954" />
	</node>
	<node lat="60.435880551399315" lon="10.02413055355906" id="-13360">
		<tag k="name" v="Øvre Kløvstokken" />
		<tag k="natural" v="hill" />
		<tag k="place" v="locality" />
		<tag k="ssr:stedsnr" v="332314" />
	</node>
	<node lat="60.41539999699693" lon="10.043733329713843" id="-13361">
		<tag k="name" v="Middagsknatten" />
		<tag k="place" v="locality" />
		<tag k="ssr:stedsnr" v="332396" />
	</node>
	<node lat="60.359824997578954" lon="10.099633338811756" id="-13362">
		<tag k="name" v="Fluren" />
		<tag k="natural" v="hill" />
		<tag k="place" v="locality" />
		<tag k="ssr:stedsnr" v="332607" />
	</node>
	<node lat="60.578838887255024" lon="9.903352775007141" id="-13363">
		<tag k="name" v="Libråtahøgda" />
		<tag k="natural" v="hill" />
		<tag k="place" v="locality" />
		<tag k="ssr:stedsnr" v="332651" />
	</node>
	<node lat="60.53014444862264" lon="9.965261119722205" id="-13365">
		<tag k="name" v="Storfuruskaret" />
		<tag k="natural" v="valley" />
		<tag k="place" v="locality" />
		<tag k="ssr:stedsnr" v="332705" />
	</node>
	<node lat="60.466941669507506" lon="10.099347220817153" id="-13368">
		<tag k="name" v="Kjøftashaugen" />
		<tag k="natural" v="hill" />
		<tag k="place" v="locality" />
		<tag k="ssr:stedsnr" v="332752" />
	</node>
	<node lat="60.36727500133251" lon="10.064622217957474" id="-13369">
		<tag k="name" v="Cirkus" />
		<tag k="natural" v="hill" />
		<tag k="place" v="locality" />
		<tag k="ssr:stedsnr" v="332764" />
	</node>
	<node lat="60.36647222578976" lon="10.074569450697853" id="-13370">
		<tag k="name" v="Tangehaugen" />
		<tag k="natural" v="hill" />
		<tag k="place" v="locality" />
		<tag k="ssr:stedsnr" v="332766" />
	</node>
	<node lat="60.60292500104238" lon="9.948091660796443" id="-13373">
		<tag k="name" v="Arnebråtan" />
		<tag k="natural" v="slope" />
		<tag k="place" v="locality" />
		<tag k="ssr:stedsnr" v="332809" />
	</node>
	<node lat="60.58908611385729" lon="9.908419444224283" id="-13374">
		<tag k="name" v="Nordre Dalberg" />
		<tag k="natural" v="hill" />
		<tag k="place" v="locality" />
		<tag k="ssr:stedsnr" v="332812" />
	</node>
	<node lat="60.3965027779504" lon="9.86773611367302" id="-13375">
		<tag k="name" v="Svintejuv" />
		<tag k="natural" v="gorge" />
		<tag k="ssr:stedsnr" v="333013" />
	</node>
	<node lat="60.33703333627507" lon="10.10493610867781" id="-13378">
		<tag k="name" v="Busterudmoen" />
		<tag k="place" v="locality" />
		<tag k="ssr:stedsnr" v="332956" />
	</node>
	<node lat="60.21816666877827" lon="9.846558336029522" id="-13379">
		<tag k="name" v="Gruvedalen" />
		<tag k="natural" v="valley" />
		<tag k="place" v="locality" />
		<tag k="ssr:stedsnr" v="333154" />
	</node>
	<node lat="60.200913888387426" lon="9.866227779882681" id="-13382">
		<tag k="name" v="Kjostjernkleiva" />
		<tag k="natural" v="slope" />
		<tag k="place" v="locality" />
		<tag k="ssr:stedsnr" v="333165" />
	</node>
	<node lat="60.54541111040321" lon="9.887252781449774" id="-13383">
		<tag k="name" v="Kølabrumoen" />
		<tag k="place" v="locality" />
		<tag k="ssr:stedsnr" v="333356" />
	</node>
	<node lat="60.278694448449905" lon="9.813694447045979" id="-13384">
		<tag k="name" v="Heggedalen" />
		<tag k="natural" v="valley" />
		<tag k="place" v="locality" />
		<tag k="ssr:stedsnr" v="333248" />
	</node>
	<node lat="60.33908333744296" lon="10.078969438971471" id="-13406">
		<tag k="name" v="Saghaugen" />
		<tag k="natural" v="hill" />
		<tag k="place" v="locality" />
		<tag k="ssr:stedsnr" v="271963" />
	</node>
	<node lat="60.06856944826433" lon="10.054844446140622" id="-13408">
		<tag k="fixme" v="consider natural=peak for the most distinct mountains in the district" />
		<tag k="name" v="Sprettåsen" />
		<tag k="natural" v="hill" />
		<tag k="place" v="locality" />
		<tag k="ssr:stedsnr" v="368289" />
	</node>
	<node lat="60.11033333124382" lon="10.005550004079558" id="-13413">
		<tag k="fixme" v="consider natural=peak for the most distinct mountains in the district" />
		<tag k="name" v="Sølvfuruåsen" />
		<tag k="natural" v="hill" />
		<tag k="place" v="locality" />
		<tag k="ssr:stedsnr" v="368730" />
	</node>
	<node lat="60.06961388710328" lon="10.476147230390584" id="-13428">
		<tag k="fixme" v="consider natural=peak for the most distinct mountains in the district" />
		<tag k="name" v="Torpåsen" />
		<tag k="natural" v="hill" />
		<tag k="place" v="locality" />
		<tag k="ssr:stedsnr" v="369219" />
	</node>
	<node lat="60.19337500095091" lon="10.441469449358665" id="-13430">
		<tag k="alt_name" v="Tørkerudhøgda" />
		<tag k="fixme" v="consider natural=peak for the most distinct mountains in the district" />
		<tag k="name" v="Tørkerudhaugen" />
		<tag k="natural" v="hill" />
		<tag k="place" v="locality" />
		<tag k="ssr:stedsnr" v="369411" />
	</node>
	<node lat="60.17686944330604" lon="10.156552783473108" id="-13432">
		<tag k="fixme" v="consider natural=peak for the most distinct mountains in the district" />
		<tag k="name" v="Heieråsen" />
		<tag k="natural" v="hill" />
		<tag k="place" v="locality" />
		<tag k="ssr:stedsnr" v="369512" />
	</node>
	<node lat="60.2453250043607" lon="10.238122227140707" id="-13442">
		<tag k="fixme" v="consider natural=peak for the most distinct mountains in the district" />
		<tag k="name" v="Hensbrenna" />
		<tag k="natural" v="hill" />
		<tag k="place" v="locality" />
		<tag k="ssr:stedsnr" v="369991" />
	</node>
	<node lat="60.279030551586715" lon="9.901075001453144" id="-13450">
		<tag k="fixme" v="consider natural=peak for the most distinct mountains in the district" />
		<tag k="name" v="Kaståsen" />
		<tag k="natural" v="hill" />
		<tag k="place" v="locality" />
		<tag k="ssr:stedsnr" v="370661" />
	</node>
	<node lat="60.30101944713525" lon="9.961974995893577" id="-13452">
		<tag k="name" v="Lysknappen" />
		<tag k="natural" v="hill" />
		<tag k="place" v="locality" />
		<tag k="ssr:stedsnr" v="370681" />
	</node>
	<node lat="60.370022226376754" lon="9.777694444451885" id="-13454">
		<tag k="fixme" v="consider natural=peak for the most distinct mountains in the district" />
		<tag k="name" v="Bekaråsen" />
		<tag k="natural" v="hill" />
		<tag k="place" v="locality" />
		<tag k="ssr:stedsnr" v="370809" />
	</node>
	<node lat="60.36649722207468" lon="9.907366672053554" id="-13455">
		<tag k="alt_name" v="Kolsjøhaugen" />
		<tag k="name" v="Kollsjøhaugen" />
		<tag k="natural" v="hill" />
		<tag k="place" v="locality" />
		<tag k="ssr:stedsnr" v="370813" />
	</node>
	<node lat="60.514205555379284" lon="10.026566667098404" id="-13473">
		<tag k="name" v="Brennhøgda" />
		<tag k="natural" v="hill" />
		<tag k="place" v="locality" />
		<tag k="ssr:stedsnr" v="390212" />
	</node>
	<node lat="60.198972225804525" lon="10.230333339619877" id="-13477">
		<tag k="name" v="Brenninga" />
		<tag k="place" v="locality" />
		<tag k="ssr:stedsnr" v="390393" />
	</node>
	<node lat="60.22830000128241" lon="10.304430548905414" id="-13481">
		<tag k="name" v="Marigårdsmoen" />
		<tag k="place" v="locality" />
		<tag k="ssr:stedsnr" v="390750" />
	</node>
	<node lat="60.44834166307541" lon="10.048733335406876" id="-13486">
		<tag k="name" v="Kråkeberget" />
		<tag k="natural" v="hill" />
		<tag k="place" v="locality" />
		<tag k="ssr:stedsnr" v="392341" />
	</node>
	<node lat="60.426983333658974" lon="10.048299991137092" id="-13487">
		<tag k="name" v="Solumsdalen" />
		<tag k="natural" v="valley" />
		<tag k="place" v="locality" />
		<tag k="ssr:stedsnr" v="392492" />
	</node>
	<node lat="60.27070833316732" lon="9.920225003551229" id="-13488">
		<tag k="name" v="Djupdalshytta" />
		<tag k="place" v="locality" />
		<tag k="ssr:stedsnr" v="392597" />
	</node>
	<node lat="60.413119445542506" lon="9.948555548062908" id="-13491">
		<tag k="fixme" v="consider natural=peak for the most distinct mountains in the district" />
		<tag k="name" v="Østre Svarttjernhaugen" />
		<tag k="natural" v="hill" />
		<tag k="place" v="locality" />
		<tag k="ssr:stedsnr" v="393144" />
	</node>
	<node lat="60.36978055433896" lon="9.809491663443787" id="-13493">
		<tag k="name" v="Renslekollen" />
		<tag k="natural" v="ridge" />
		<tag k="place" v="locality" />
		<tag k="ssr:stedsnr" v="393033" />
	</node>
	<node lat="60.40226388797527" lon="10.006249995054" id="-13494">
		<tag k="name" v="Bernhatten" />
		<tag k="natural" v="hill" />
		<tag k="place" v="locality" />
		<tag k="ssr:stedsnr" v="393085" />
	</node>
	<node lat="60.48793610744505" lon="9.982058327974897" id="-13496">
		<tag k="name" v="Svarttjernshaugen" />
		<tag k="natural" v="hill" />
		<tag k="place" v="locality" />
		<tag k="ssr:stedsnr" v="393205" />
	</node>
	<node lat="60.25100555794585" lon="10.011894449287016" id="-13498">
		<tag k="name" v="Nordre Barlinddalen" />
		<tag k="natural" v="valley" />
		<tag k="place" v="locality" />
		<tag k="ssr:stedsnr" v="393514" />
	</node>
	<node lat="60.339766666270116" lon="9.875574992648614" id="-13499">
		<tag k="name" v="Seterhaugen" />
		<tag k="natural" v="hill" />
		<tag k="place" v="locality" />
		<tag k="ssr:stedsnr" v="393532" />
	</node>
	<node lat="60.53328333467732" lon="9.892205556690426" id="-13501">
		<tag k="name" v="Hyttebakkdalen" />
		<tag k="natural" v="valley" />
		<tag k="place" v="locality" />
		<tag k="ssr:stedsnr" v="393282" />
	</node>
	<node lat="60.606638887538054" lon="9.950047215947672" id="-13506">
		<tag k="name" v="Haugalia" />
		<tag k="natural" v="slope" />
		<tag k="place" v="locality" />
		<tag k="ssr:stedsnr" v="393906" />
	</node>
	<node lat="60.62849166489547" lon="9.946558325310123" id="-13508">
		<tag k="fixme" v="consider natural=peak for the most distinct mountains in the district" />
		<tag k="name" v="Grevlingkollen" />
		<tag k="natural" v="hill" />
		<tag k="place" v="locality" />
		<tag k="ssr:stedsnr" v="393922" />
	</node>
	<node lat="60.59666666815325" lon="9.92893889652615" id="-13512">
		<tag k="name" v="Trollemyrlia" />
		<tag k="natural" v="slope" />
		<tag k="place" v="locality" />
		<tag k="ssr:stedsnr" v="393840" />
	</node>
	<node lat="60.293558329152205" lon="9.864608329972826" id="-13514">
		<tag k="name" v="Lokkerberget" />
		<tag k="natural" v="hill" />
		<tag k="place" v="locality" />
		<tag k="ssr:stedsnr" v="394180" />
	</node>
	<node lat="60.322513887611876" lon="9.780974999131066" id="-13517">
		<tag k="fixme" v="consider natural=peak for the most distinct mountains in the district" />
		<tag k="name" v="Svendgrasingåsen" />
		<tag k="natural" v="hill" />
		<tag k="place" v="locality" />
		<tag k="ssr:stedsnr" v="394788" />
	</node>
	<node lat="60.31431944452377" lon="9.779491668885495" id="-13518">
		<tag k="name" v="Rundknappen" />
		<tag k="natural" v="hill" />
		<tag k="place" v="locality" />
		<tag k="ssr:stedsnr" v="394792" />
	</node>
	<node lat="60.293366666422095" lon="9.751833334697801" id="-13519">
		<tag k="name" v="Kryssenbråtaflata" />
		<tag k="place" v="locality" />
		<tag k="ssr:stedsnr" v="394887" />
	</node>
	<node lat="60.17219444088424" lon="10.373452785324448" id="-13533">
		<tag k="fixme" v="consider natural=peak for the most distinct mountains in the district" />
		<tag k="name" v="Damåshøgda" />
		<tag k="natural" v="hill" />
		<tag k="place" v="locality" />
		<tag k="ssr:stedsnr" v="490030" />
	</node>
	<node lat="60.112938381595626" lon="10.39386125062796" id="-13538">
		<tag k="fixme" v="multiple name tags, choose one and add the other to alt_name; consider natural=peak for the most distinct mountains in the district" />
		<tag k="loc_name" v="Klanta" />
		<tag k="name" v="Klantefjellet;Klantefjell" />
		<tag k="natural" v="hill" />
		<tag k="place" v="locality" />
		<tag k="ssr:stedsnr" v="490170" />
	</node>
	<node lat="60.16459166745236" lon="10.12591388638284" id="-13556">
		<tag k="fixme" v="consider natural=peak for the most distinct mountains in the district" />
		<tag k="name" v="Geiteryggen" />
		<tag k="natural" v="hill" />
		<tag k="place" v="locality" />
		<tag k="ssr:stedsnr" v="490575" />
	</node>
	<node lat="60.23377499949681" lon="9.835550000139063" id="-13570">
		<tag k="fixme" v="consider natural=peak for the most distinct mountains in the district" />
		<tag k="name" v="Blåbæråsen" />
		<tag k="natural" v="hill" />
		<tag k="place" v="locality" />
		<tag k="ssr:stedsnr" v="430218" />
	</node>
	<node lat="60.0692916696901" lon="10.519430549919331" id="-13571">
		<tag k="fixme" v="consider natural=peak for the most distinct mountains in the district" />
		<tag k="name" v="Langtjernbrenna" />
		<tag k="natural" v="hill" />
		<tag k="place" v="locality" />
		<tag k="ssr:stedsnr" v="430225" />
	</node>
	<node lat="60.15109999929876" lon="10.44271665906852" id="-13573">
		<tag k="alt_name" v="Svarthaugen" />
		<tag k="fixme" v="consider natural=peak for the most distinct mountains in the district" />
		<tag k="name" v="Svarthøgda" />
		<tag k="natural" v="hill" />
		<tag k="place" v="locality" />
		<tag k="ssr:stedsnr" v="430103" />
	</node>
	<node lat="60.09690833542616" lon="10.429700004750305" id="-13574">
		<tag k="fixme" v="consider natural=peak for the most distinct mountains in the district" />
		<tag k="name" v="Lauvlibrenna" />
		<tag k="natural" v="hill" />
		<tag k="place" v="locality" />
		<tag k="ssr:stedsnr" v="430146" />
	</node>
	<node lat="60.10696389008242" lon="10.52195555677801" id="-13576">
		<tag k="alt_name" v="Tupperåsen" />
		<tag k="fixme" v="consider natural=peak for the most distinct mountains in the district" />
		<tag k="name" v="Tupperen" />
		<tag k="natural" v="hill" />
		<tag k="place" v="locality" />
		<tag k="ssr:stedsnr" v="430155" />
	</node>
	<node lat="60.36107777402556" lon="10.14223889137198" id="-13579">
		<tag k="fixme" v="consider natural=peak for the most distinct mountains in the district" />
		<tag k="name" v="Ranihaugen" />
		<tag k="natural" v="hill" />
		<tag k="place" v="locality" />
		<tag k="ssr:stedsnr" v="430604" />
	</node>
	<node lat="60.24296389024718" lon="10.25783889067895" id="-13587">
		<tag k="fixme" v="consider natural=peak for the most distinct mountains in the district" />
		<tag k="name" v="Skjerpåsen" />
		<tag k="natural" v="hill" />
		<tag k="place" v="locality" />
		<tag k="ssr:stedsnr" v="430998" />
	</node>
	<node lat="60.08448055606913" lon="10.462599991764368" id="-13594">
		<tag k="fixme" v="consider natural=peak for the most distinct mountains in the district" />
		<tag k="name" v="Kjerringkollen" />
		<tag k="natural" v="hill" />
		<tag k="place" v="locality" />
		<tag k="ssr:stedsnr" v="491245" />
	</node>
	<node lat="60.34724444437932" lon="10.144599996967093" id="-13601">
		<tag k="fixme" v="consider natural=peak for the most distinct mountains in the district" />
		<tag k="name" v="Varden" />
		<tag k="natural" v="hill" />
		<tag k="place" v="locality" />
		<tag k="ssr:stedsnr" v="431588" />
	</node>
	<node lat="60.3388833368035" lon="9.973477784867146" id="-13602">
		<tag k="fixme" v="consider natural=peak for the most distinct mountains in the district" />
		<tag k="name" v="Hestebrenna" />
		<tag k="natural" v="hill" />
		<tag k="place" v="locality" />
		<tag k="ssr:stedsnr" v="431599" />
	</node>
	<node lat="60.377738886949516" lon="9.918466668035807" id="-13605">
		<tag k="name" v="Elgedalen" />
		<tag k="natural" v="valley" />
		<tag k="place" v="locality" />
		<tag k="ssr:stedsnr" v="431809" />
	</node>
	<node lat="60.46191388863933" lon="9.90500277546166" id="-13613">
		<tag k="name" v="Tronsefisen" />
		<tag k="natural" v="hill" />
		<tag k="place" v="locality" />
		<tag k="ssr:stedsnr" v="431898" />
	</node>
	<node lat="60.269066667844925" lon="10.001250006765867" id="-13622">
		<tag k="fixme" v="consider natural=peak for the most distinct mountains in the district" />
		<tag k="name" v="Smørkollen" />
		<tag k="natural" v="hill" />
		<tag k="place" v="locality" />
		<tag k="ssr:stedsnr" v="491448" />
	</node>
	<node lat="60.33886110816792" lon="10.219052783395243" id="-13626">
		<tag k="alt_name" v="Sæterdalen" />
		<tag k="name" v="Seterdalen" />
		<tag k="natural" v="valley" />
		<tag k="place" v="locality" />
		<tag k="ssr:stedsnr" v="491461" />
	</node>
	<node lat="60.29191111095775" lon="9.840336117342476" id="-13636">
		<tag k="name" v="Kollebråtaflaen" />
		<tag k="natural" v="hill" />
		<tag k="place" v="locality" />
		<tag k="ssr:stedsnr" v="491666" />
	</node>
	<node lat="60.47511389339162" lon="10.161288886518282" id="-13637">
		<tag k="fixme" v="consider natural=peak for the most distinct mountains in the district" />
		<tag k="name" v="Skålehøgda" />
		<tag k="natural" v="hill" />
		<tag k="place" v="locality" />
		<tag k="ssr:stedsnr" v="491698" />
	</node>
	<node lat="60.40102777544992" lon="10.102691675072192" id="-13641">
		<tag k="alt_name" v="Langevannshaugen" />
		<tag k="fixme" v="multiple name tags, choose one and add the other to alt_name; consider natural=peak for the most distinct mountains in the district" />
		<tag k="name" v="Kollen;Langvasshaugen" />
		<tag k="natural" v="hill" />
		<tag k="place" v="locality" />
		<tag k="ssr:stedsnr" v="492238" />
	</node>
	<node lat="60.58337499723033" lon="10.051330550914576" id="-13647">
		<tag k="name" v="Siketjernhøgda" />
		<tag k="natural" v="hill" />
		<tag k="place" v="locality" />
		<tag k="ssr:stedsnr" v="492551" />
	</node>
	<node lat="60.58817222641287" lon="10.033986108808048" id="-13648">
		<tag k="alt_name" v="Gamlesæterkollen" />
		<tag k="name" v="Gamleseterhøgda" />
		<tag k="natural" v="hill" />
		<tag k="place" v="locality" />
		<tag k="ssr:stedsnr" v="492552" />
	</node>
	<node lat="60.525474999519325" lon="9.909880558711993" id="-13651">
		<tag k="alt_name" v="Movollhaugen" />
		<tag k="name" v="Movalhaugen" />
		<tag k="natural" v="hill" />
		<tag k="place" v="locality" />
		<tag k="ssr:stedsnr" v="492854" />
	</node>
	<node lat="60.589436110044716" lon="9.960055553916497" id="-13652">
		<tag k="alt_name" v="Klinkenberg" />
		<tag k="name" v="Klinkenberga" />
		<tag k="natural" v="hill" />
		<tag k="place" v="locality" />
		<tag k="ssr:stedsnr" v="492921" />
	</node>
	<node lat="60.1296722246783" lon="10.394611110761412" id="-13653">
		<tag k="fixme" v="consider natural=peak for the most distinct mountains in the district" />
		<tag k="loc_name" v="Rokkemyrfjellet" />
		<tag k="name" v="Ingeborgseteråsen" />
		<tag k="natural" v="hill" />
		<tag k="place" v="locality" />
		<tag k="ssr:stedsnr" v="450022" />
	</node>
	<node lat="60.24825555237843" lon="10.225080555323052" id="-13659">
		<tag k="name" v="Svarttjernsdalen" />
		<tag k="natural" v="valley" />
		<tag k="place" v="locality" />
		<tag k="ssr:stedsnr" v="451306" />
	</node>
	<node lat="60.1591416631778" lon="10.416586118663552" id="-13661">
		<tag k="fixme" v="consider natural=peak for the most distinct mountains in the district" />
		<tag k="name" v="Femputtås" />
		<tag k="natural" v="hill" />
		<tag k="place" v="locality" />
		<tag k="ssr:stedsnr" v="451317" />
	</node>
	<node lat="60.5600999991389" lon="10.018341671814683" id="-13677">
		<tag k="name" v="Hustømmerhaugen" />
		<tag k="natural" v="hill" />
		<tag k="place" v="locality" />
		<tag k="ssr:stedsnr" v="452369" />
	</node>
	<node lat="60.555961114908484" lon="10.040233337347011" id="-13678">
		<tag k="name" v="Linskarrenna" />
		<tag k="natural" v="valley" />
		<tag k="place" v="locality" />
		<tag k="ssr:stedsnr" v="452371" />
	</node>
	<node lat="60.42741110696565" lon="10.17548610553641" id="-13679">
		<tag k="name" v="Bjørnehufsen" />
		<tag k="natural" v="cliff" />
		<tag k="ssr:stedsnr" v="452965" />
	</node>
	<node lat="60.41289166578254" lon="10.025441662967896" id="-13681">
		<tag k="name" v="Middagshaugen" />
		<tag k="natural" v="hill" />
		<tag k="place" v="locality" />
		<tag k="ssr:stedsnr" v="453403" />
	</node>
	<node lat="60.41976388794006" lon="10.02858055071351" id="-13682">
		<tag k="name" v="Demmesnarsletta" />
		<tag k="natural" v="hill" />
		<tag k="place" v="locality" />
		<tag k="ssr:stedsnr" v="453407" />
	</node>
	<node lat="60.179955556765805" lon="10.462408338967322" id="-13683">
		<tag k="fixme" v="consider natural=peak for the most distinct mountains in the district" />
		<tag k="name" v="Djupvasshøgda" />
		<tag k="natural" v="hill" />
		<tag k="place" v="locality" />
		<tag k="ssr:stedsnr" v="672038" />
	</node>
	<node lat="60.378149997800506" lon="10.025099995023314" id="-13688">
		<tag k="fixme" v="consider natural=peak for the most distinct mountains in the district" />
		<tag k="name" v="Hugeråsen" />
		<tag k="natural" v="hill" />
		<tag k="place" v="locality" />
		<tag k="ssr:stedsnr" v="453862" />
	</node>
	<node lat="60.37001944176487" lon="9.928172228304378" id="-13692">
		<tag k="name" v="Pussesandhaugen" />
		<tag k="natural" v="hill" />
		<tag k="place" v="locality" />
		<tag k="ssr:stedsnr" v="454080" />
	</node>
	<node lat="60.47738055428313" lon="9.994005554739454" id="-13694">
		<tag k="name" v="Godbråteskaret" />
		<tag k="natural" v="valley" />
		<tag k="place" v="locality" />
		<tag k="ssr:stedsnr" v="454204" />
	</node>
	<node lat="60.34538333396982" lon="10.091794440034672" id="-13696">
		<tag k="name" v="Kalvetremoen" />
		<tag k="place" v="locality" />
		<tag k="ssr:stedsnr" v="453973" />
	</node>
	<node lat="60.40634444829103" lon="9.979108331937445" id="-13697">
		<tag k="name" v="Toskillingsnaret" />
		<tag k="natural" v="slope" />
		<tag k="place" v="locality" />
		<tag k="ssr:stedsnr" v="454115" />
	</node>
	<node lat="60.4659111084493" lon="9.920180556805507" id="-13699">
		<tag k="name" v="Pikhaug" />
		<tag k="natural" v="hill" />
		<tag k="place" v="locality" />
		<tag k="ssr:stedsnr" v="454178" />
	</node>
	<node lat="60.52159999813814" lon="9.826630548290725" id="-13709">
		<tag k="name" v="Kvileberga" />
		<tag k="natural" v="hill" />
		<tag k="place" v="locality" />
		<tag k="ssr:stedsnr" v="454376" />
	</node>
	<node lat="60.192172225807866" lon="10.009180550648404" id="-13710">
		<tag k="name" v="Høgåsberget" />
		<tag k="natural" v="ridge" />
		<tag k="place" v="locality" />
		<tag k="ssr:stedsnr" v="454381" />
	</node>
	<node lat="60.58123888954864" lon="9.921686102870286" id="-13711">
		<tag k="name" v="Bryne" />
		<tag k="natural" v="hill" />
		<tag k="place" v="locality" />
		<tag k="ssr:stedsnr" v="454668" />
	</node>
	<node lat="60.57694722298931" lon="9.935616674984036" id="-13715">
		<tag k="name" v="Haukereiret" />
		<tag k="place" v="locality" />
		<tag k="ssr:stedsnr" v="454682" />
	</node>
	<node lat="60.45199166783621" lon="9.873486104129922" id="-13716">
		<tag k="name" v="Roligjuv" />
		<tag k="natural" v="gorge" />
		<tag k="ssr:stedsnr" v="454764" />
	</node>
	<node lat="60.228363889987556" lon="10.253119442819589" id="-13719">
		<tag k="fixme" v="consider natural=peak for the most distinct mountains in the district" />
		<tag k="name" v="Ulvenåsen" />
		<tag k="natural" v="hill" />
		<tag k="place" v="locality" />
		<tag k="ssr:stedsnr" v="672457" />
	</node>
	<node lat="60.16765000285229" lon="10.079630562328799" id="-13729">
		<tag k="fixme" v="consider natural=peak for the most distinct mountains in the district" />
		<tag k="name" v="Opptjernsåsen" />
		<tag k="natural" v="hill" />
		<tag k="place" v="locality" />
		<tag k="ssr:stedsnr" v="672572" />
	</node>
	<node lat="60.351002775890734" lon="10.057305546604054" id="-13742">
		<tag k="fixme" v="consider natural=peak for the most distinct mountains in the district" />
		<tag k="name" v="Rennetjernshøgda" />
		<tag k="natural" v="hill" />
		<tag k="place" v="locality" />
		<tag k="ssr:stedsnr" v="672549" />
	</node>
	<node lat="60.15007499788978" lon="10.039000001072157" id="-13744">
		<tag k="fixme" v="consider natural=peak for the most distinct mountains in the district" />
		<tag k="name" v="Bjørnehøgda" />
		<tag k="natural" v="hill" />
		<tag k="place" v="locality" />
		<tag k="ssr:stedsnr" v="672619" />
	</node>
	<node lat="60.15558333319318" lon="10.168124997196314" id="-13746">
		<tag k="fixme" v="consider natural=peak for the most distinct mountains in the district" />
		<tag k="name" v="Hagakollen" />
		<tag k="natural" v="hill" />
		<tag k="place" v="locality" />
		<tag k="ssr:stedsnr" v="672623" />
	</node>
	<node lat="60.1549555595925" lon="10.156136113859368" id="-13747">
		<tag k="name" v="Mastedalen" />
		<tag k="natural" v="valley" />
		<tag k="place" v="locality" />
		<tag k="ssr:stedsnr" v="672627" />
	</node>
	<node lat="60.126525001985634" lon="10.00783888734933" id="-13752">
		<tag k="fixme" v="consider natural=peak for the most distinct mountains in the district" />
		<tag k="name" v="Middagshaugen" />
		<tag k="natural" v="hill" />
		<tag k="place" v="locality" />
		<tag k="ssr:stedsnr" v="672646" />
	</node>
	<node lat="60.13546388657898" lon="10.218580554464447" id="-13753">
		<tag k="alt_name" v="Prestemoen" />
		<tag k="name" v="Prestmoen" />
		<tag k="place" v="locality" />
		<tag k="ssr:stedsnr" v="672650" />
	</node>
	<node lat="60.08624999749735" lon="10.524686117294202" id="-13759">
		<tag k="fixme" v="consider natural=peak for the most distinct mountains in the district" />
		<tag k="name" v="Såta" />
		<tag k="natural" v="hill" />
		<tag k="place" v="locality" />
		<tag k="ssr:stedsnr" v="673148" />
	</node>
	<node lat="60.28150833725633" lon="10.004219451988652" id="-13760">
		<tag k="alt_name" v="Blekkåsen" />
		<tag k="fixme" v="consider natural=peak for the most distinct mountains in the district" />
		<tag k="name" v="Blekåsen" />
		<tag k="natural" v="hill" />
		<tag k="place" v="locality" />
		<tag k="ssr:stedsnr" v="673423" />
	</node>
	<node lat="60.32352499749195" lon="9.977927769394588" id="-13762">
		<tag k="alt_name" v="Halkinrudsæteråsen" />
		<tag k="fixme" v="consider natural=peak for the most distinct mountains in the district" />
		<tag k="name" v="Halkinrudseteråsen" />
		<tag k="natural" v="hill" />
		<tag k="place" v="locality" />
		<tag k="ssr:stedsnr" v="673476" />
	</node>
	<node lat="60.379599998826905" lon="9.995391672143022" id="-13764">
		<tag k="alt_name" v="Høgfjellet" />
		<tag k="fixme" v="consider natural=peak for the most distinct mountains in the district" />
		<tag k="name" v="Høgfjell" />
		<tag k="natural" v="hill" />
		<tag k="place" v="locality" />
		<tag k="ssr:stedsnr" v="673528" />
	</node>
	<node lat="60.29398888588871" lon="9.946261115796533" id="-13767">
		<tag k="name" v="Hvelven" />
		<tag k="natural" v="slope" />
		<tag k="place" v="locality" />
		<tag k="ssr:stedsnr" v="673674" />
	</node>
	<node lat="60.4719908728444" lon="9.890365419839233" id="-13771">
		<tag k="fixme" v="consider natural=peak for the most distinct mountains in the district" />
		<tag k="name" v="Gyranfisen" />
		<tag k="natural" v="hill" />
		<tag k="old_name" v="Gjørenfisen" />
		<tag k="place" v="locality" />
		<tag k="ssr:stedsnr" v="673883" />
	</node>
	<node lat="60.25523055814572" lon="10.284030553549211" id="-13778">
		<tag k="fixme" v="consider natural=peak for the most distinct mountains in the district" />
		<tag k="name" v="Askelihøgda" />
		<tag k="natural" v="hill" />
		<tag k="place" v="locality" />
		<tag k="ssr:stedsnr" v="674298" />
	</node>
	<node lat="60.52511389266121" lon="10.138227784058648" id="-13783">
		<tag k="name" v="Veernkollen" />
		<tag k="natural" v="hill" />
		<tag k="place" v="locality" />
		<tag k="ssr:stedsnr" v="674469" />
	</node>
	<node lat="60.55699999571329" lon="10.018197228456934" id="-13785">
		<tag k="name" v="Stålbogen" />
		<tag k="natural" v="hill" />
		<tag k="place" v="locality" />
		<tag k="ssr:stedsnr" v="674517" />
	</node>
	<node lat="60.12510833696021" lon="10.582894438127775" id="-13795">
		<tag k="name" v="Velodalen" />
		<tag k="natural" v="valley" />
		<tag k="place" v="locality" />
		<tag k="ssr:stedsnr" v="465587" />
	</node>
	<node lat="60.27322778030032" lon="9.864508331051706" id="-13796">
		<tag k="alt_name" v="Store Helvete" />
		<tag k="name" v="Helvete" />
		<tag k="natural" v="gorge" />
		<tag k="ssr:stedsnr" v="674647" />
	</node>
	<node lat="60.522900000164874" lon="9.863933336417654" id="-13803">
		<tag k="fixme" v="consider natural=peak for the most distinct mountains in the district" />
		<tag k="name" v="Fossholmfjellet" />
		<tag k="natural" v="hill" />
		<tag k="place" v="locality" />
		<tag k="ssr:stedsnr" v="675870" />
	</node>
	<node lat="60.54915833332554" lon="9.862211111343504" id="-13806">
		<tag k="name" v="Juvbråten" />
		<tag k="natural" v="slope" />
		<tag k="place" v="locality" />
		<tag k="ssr:stedsnr" v="272259" />
	</node>
	<node lat="60.20672702787267" lon="9.86269946512622" id="-13814">
		<tag k="fixme" v="consider natural=peak for the most distinct mountains in the district" />
		<tag k="name" v="Løkenåsen" />
		<tag k="natural" v="hill" />
		<tag k="place" v="locality" />
		<tag k="ssr:stedsnr" v="489206" />
	</node>
	<node lat="60.23706666946764" lon="10.223263893838343" id="-13817">
		<tag k="name" v="Kudalen" />
		<tag k="natural" v="valley" />
		<tag k="place" v="locality" />
		<tag k="ssr:stedsnr" v="489545" />
	</node>
	<node lat="60.07056666635405" lon="10.398930551915782" id="-13827">
		<tag k="fixme" v="consider natural=peak for the most distinct mountains in the district" />
		<tag k="name" v="Ingjerdsbrenna" />
		<tag k="natural" v="hill" />
		<tag k="place" v="locality" />
		<tag k="ssr:stedsnr" v="490217" />
	</node>
	<node lat="60.079025003604514" lon="10.0187166588385" id="-13829">
		<tag k="fixme" v="consider natural=peak for the most distinct mountains in the district" />
		<tag k="name" v="Preståsen" />
		<tag k="natural" v="hill" />
		<tag k="place" v="locality" />
		<tag k="ssr:stedsnr" v="490242" />
	</node>
	<node lat="60.372061114790576" lon="10.103986109743243" id="-13833">
		<tag k="fixme" v="consider natural=peak for the most distinct mountains in the district" />
		<tag k="name" v="Strømsfjellet" />
		<tag k="natural" v="hill" />
		<tag k="place" v="locality" />
		<tag k="ssr:stedsnr" v="490609" />
	</node>
	<node lat="60.20380000038905" lon="10.4108416641114" id="-13837">
		<tag k="name" v="Styggdalen" />
		<tag k="natural" v="valley" />
		<tag k="place" v="locality" />
		<tag k="ssr:stedsnr" v="490396" />
	</node>
	<node lat="60.21071111305902" lon="10.302230556722282" id="-13839">
		<tag k="name" v="Eggemoen" />
		<tag k="place" v="locality" />
		<tag k="ssr:stedsnr" v="490509" />
	</node>
	<node lat="60.398588890895425" lon="10.192550001979253" id="-13852">
		<tag k="fixme" v="consider natural=peak for the most distinct mountains in the district" />
		<tag k="name" v="Tungeåsen" />
		<tag k="natural" v="hill" />
		<tag k="place" v="locality" />
		<tag k="ssr:stedsnr" v="491283" />
	</node>
	<node lat="60.47781389335997" lon="10.023449997852689" id="-13857">
		<tag k="alt_name" v="Øyberga" />
		<tag k="fixme" v="consider natural=peak for the most distinct mountains in the district" />
		<tag k="name" v="Øybergene" />
		<tag k="natural" v="hill" />
		<tag k="place" v="locality" />
		<tag k="ssr:stedsnr" v="491707" />
	</node>
	<node lat="60.19985277751143" lon="10.425391673666697" id="-13860">
		<tag k="fixme" v="consider natural=peak for the most distinct mountains in the district" />
		<tag k="name" v="Høgvolltoppen" />
		<tag k="natural" v="hill" />
		<tag k="place" v="locality" />
		<tag k="ssr:stedsnr" v="491483" />
	</node>
	<node lat="60.48349167028002" lon="9.85591389490389" id="-13871">
		<tag k="name" v="Deleknatten" />
		<tag k="natural" v="hill" />
		<tag k="place" v="locality" />
		<tag k="ssr:stedsnr" v="491882" />
	</node>
	<node lat="60.262633334679755" lon="10.07255278181146" id="-13884">
		<tag k="fixme" v="consider natural=peak for the most distinct mountains in the district" />
		<tag k="name" v="Rognekollen" />
		<tag k="natural" v="hill" />
		<tag k="place" v="locality" />
		<tag k="ssr:stedsnr" v="272848" />
	</node>
	<node lat="60.53921944232486" lon="9.813372231178175" id="-13885">
		<tag k="name" v="Veslesetermoen" />
		<tag k="place" v="locality" />
		<tag k="ssr:stedsnr" v="272352" />
	</node>
	<node lat="60.50534722140439" lon="10.021405550101782" id="-13894">
		<tag k="name" v="Svarttjernslia" />
		<tag k="natural" v="slope" />
		<tag k="place" v="locality" />
		<tag k="ssr:stedsnr" v="511197" />
	</node>
	<node lat="60.55432499941356" lon="10.029202782517656" id="-13896">
		<tag k="name" v="Midtbekkdalen" />
		<tag k="natural" v="valley" />
		<tag k="place" v="locality" />
		<tag k="ssr:stedsnr" v="511343" />
	</node>
	<node lat="60.28811944766443" lon="10.226933339812527" id="-13904">
		<tag k="name" v="Styggedalshøgda" />
		<tag k="natural" v="hill" />
		<tag k="place" v="locality" />
		<tag k="ssr:stedsnr" v="512273" />
	</node>
	<node lat="60.30351388544963" lon="10.20217778528288" id="-13905">
		<tag k="name" v="Meenkedalen" />
		<tag k="natural" v="valley" />
		<tag k="place" v="locality" />
		<tag k="ssr:stedsnr" v="512274" />
	</node>
	<node lat="60.25120555635592" lon="10.225841672799199" id="-13906">
		<tag k="name" v="Kudalshaugen" />
		<tag k="natural" v="hill" />
		<tag k="place" v="locality" />
		<tag k="ssr:stedsnr" v="512283" />
	</node>
	<node lat="60.25179722534226" lon="10.231719445974939" id="-13907">
		<tag k="name" v="Kudalskollen" />
		<tag k="natural" v="hill" />
		<tag k="place" v="locality" />
		<tag k="ssr:stedsnr" v="512286" />
	</node>
	<node lat="60.259302773619474" lon="10.239627772008316" id="-13908">
		<tag k="name" v="Sotdalen" />
		<tag k="natural" v="valley" />
		<tag k="place" v="locality" />
		<tag k="ssr:stedsnr" v="512287" />
	</node>
	<node lat="60.13138332914032" lon="10.469524991018526" id="-13911">
		<tag k="name" v="Åbortjernhaugen" />
		<tag k="natural" v="hill" />
		<tag k="place" v="locality" />
		<tag k="ssr:stedsnr" v="512486" />
	</node>
	<node lat="60.13336110778487" lon="10.476600008334884" id="-13912">
		<tag k="name" v="Korpmyrdalen" />
		<tag k="natural" v="valley" />
		<tag k="place" v="locality" />
		<tag k="ssr:stedsnr" v="512490" />
	</node>
	<node lat="60.03956111550187" lon="10.480766671897193" id="-13913">
		<tag k="name" v="Karlstadhøgda" />
		<tag k="natural" v="hill" />
		<tag k="place" v="locality" />
		<tag k="ssr:stedsnr" v="512966" />
	</node>
	<node lat="60.35094166706627" lon="10.012716673990507" id="-13919">
		<tag k="name" v="Grandalen" />
		<tag k="natural" v="valley" />
		<tag k="place" v="locality" />
		<tag k="ssr:stedsnr" v="514020" />
	</node>
	<node lat="60.35340833315565" lon="9.974602772508236" id="-13920">
		<tag k="name" v="Knappnålsskaret" />
		<tag k="natural" v="valley" />
		<tag k="place" v="locality" />
		<tag k="ssr:stedsnr" v="514021" />
	</node>
	<node lat="60.44484999813188" lon="10.001913894227512" id="-13922">
		<tag k="name" v="Svarttjernslegga" />
		<tag k="natural" v="valley" />
		<tag k="place" v="locality" />
		<tag k="ssr:stedsnr" v="514124" />
	</node>
	<node lat="60.17038333184139" lon="9.948994451622273" id="-13926">
		<tag k="name" v="Lauvkollen" />
		<tag k="natural" v="hill" />
		<tag k="place" v="locality" />
		<tag k="ssr:stedsnr" v="514408" />
	</node>
	<node lat="60.5276861087017" lon="10.01110276877008" id="-13928">
		<tag k="name" v="Klemmetsrudhaugen" />
		<tag k="natural" v="hill" />
		<tag k="place" v="locality" />
		<tag k="ssr:stedsnr" v="514715" />
	</node>
	<node lat="60.34480555376356" lon="9.977119435614577" id="-13929">
		<tag k="name" v="Rundkolltjern" />
		<tag k="natural" v="slope" />
		<tag k="place" v="locality" />
		<tag k="ssr:stedsnr" v="514874" />
	</node>
	<node lat="60.33464999806534" lon="9.989219453146786" id="-13930">
		<tag k="fixme" v="consider natural=peak for the most distinct mountains in the district" />
		<tag k="name" v="Flåbekkåsen" />
		<tag k="natural" v="hill" />
		<tag k="place" v="locality" />
		<tag k="ssr:stedsnr" v="514875" />
	</node>
	<node lat="60.30311944284575" lon="10.055150007370687" id="-13931">
		<tag k="name" v="Tandberghaugen" />
		<tag k="natural" v="hill" />
		<tag k="place" v="locality" />
		<tag k="ssr:stedsnr" v="514876" />
	</node>
	<node lat="60.61639166311775" lon="9.985594439367702" id="-13934">
		<tag k="name" v="Veslemyrdalen" />
		<tag k="natural" v="valley" />
		<tag k="place" v="locality" />
		<tag k="ssr:stedsnr" v="514817" />
	</node>
	<node lat="60.31793611240109" lon="9.995347227276781" id="-13938">
		<tag k="name" v="Dyttebulia" />
		<tag k="natural" v="slope" />
		<tag k="place" v="locality" />
		<tag k="ssr:stedsnr" v="514928" />
	</node>
	<node lat="60.28001389031122" lon="9.80217222986765" id="-13942">
		<tag k="name" v="Merradalen" />
		<tag k="natural" v="valley" />
		<tag k="place" v="locality" />
		<tag k="ssr:stedsnr" v="515226" />
	</node>
	<node lat="60.24104167076036" lon="9.892211119859994" id="-13943">
		<tag k="name" v="Lysthushaugen" />
		<tag k="natural" v="hill" />
		<tag k="place" v="locality" />
		<tag k="ssr:stedsnr" v="515180" />
	</node>
	<node lat="60.327816665772566" lon="9.828969452202573" id="-13946">
		<tag k="fixme" v="consider natural=peak for the most distinct mountains in the district" />
		<tag k="name" v="Isakbråtaåsen" />
		<tag k="natural" v="hill" />
		<tag k="place" v="locality" />
		<tag k="ssr:stedsnr" v="515508" />
	</node>
	<node lat="60.22415277670483" lon="9.86368054715459" id="-13947">
		<tag k="fixme" v="consider natural=peak for the most distinct mountains in the district" />
		<tag k="name" v="Langemyråsen" />
		<tag k="natural" v="hill" />
		<tag k="place" v="locality" />
		<tag k="ssr:stedsnr" v="515723" />
	</node>
	<node lat="60.174834547592084" lon="9.899139783159425" id="-13948">
		<tag k="name" v="Slottet" />
		<tag k="natural" v="hill" />
		<tag k="place" v="locality" />
		<tag k="ssr:stedsnr" v="515730" />
	</node>
	<node lat="60.28990833375262" lon="9.770213891914185" id="-13950">
		<tag k="fixme" v="consider natural=peak for the most distinct mountains in the district" />
		<tag k="name" v="Steinbråtaåsen" />
		<tag k="natural" v="hill" />
		<tag k="place" v="locality" />
		<tag k="ssr:stedsnr" v="515866" />
	</node>
	<node lat="60.289022219183224" lon="9.758016671718213" id="-13952">
		<tag k="name" v="Nordtjernsbakken" />
		<tag k="natural" v="slope" />
		<tag k="place" v="locality" />
		<tag k="ssr:stedsnr" v="515874" />
	</node>
	<node lat="60.288066663110044" lon="9.738013893946254" id="-13953">
		<tag k="name" v="Kviteberg" />
		<tag k="natural" v="slope" />
		<tag k="place" v="locality" />
		<tag k="ssr:stedsnr" v="515883" />
	</node>
	<node lat="60.20693610791452" lon="10.215608337834844" id="-13967">
		<tag k="name" v="Kilemoen" />
		<tag k="place" v="locality" />
		<tag k="ssr:stedsnr" v="550547" />
	</node>
	<node lat="60.153261109993245" lon="10.521644443463" id="-13972">
		<tag k="fixme" v="consider natural=peak for the most distinct mountains in the district" />
		<tag k="name" v="Spålshøgda" />
		<tag k="natural" v="hill" />
		<tag k="place" v="locality" />
		<tag k="ssr:stedsnr" v="551118" />
	</node>
	<node lat="60.08752986484501" lon="10.362895398996207" id="-13974">
		<tag k="name" v="Skardet" />
		<tag k="natural" v="valley" />
		<tag k="place" v="locality" />
		<tag k="ssr:stedsnr" v="551154" />
	</node>
	<node lat="60.34641666416101" lon="10.066127780711927" id="-13982">
		<tag k="name" v="Styggedalen" />
		<tag k="natural" v="valley" />
		<tag k="place" v="locality" />
		<tag k="ssr:stedsnr" v="551561" />
	</node>
	<node lat="60.259880557819535" lon="10.209591674180716" id="-13990">
		<tag k="fixme" v="consider natural=peak for the most distinct mountains in the district" />
		<tag k="name" v="Høgåsen" />
		<tag k="natural" v="hill" />
		<tag k="place" v="locality" />
		<tag k="ssr:stedsnr" v="552640" />
	</node>
	<node lat="60.51046111143593" lon="9.866641662895274" id="-14002">
		<tag k="name" v="Valdresdalen" />
		<tag k="natural" v="valley" />
		<tag k="place" v="locality" />
		<tag k="ssr:stedsnr" v="552892" />
	</node>
	<node lat="60.35058611308797" lon="9.86099444040509" id="-14004">
		<tag k="fixme" v="consider natural=peak for the most distinct mountains in the district" />
		<tag k="name" v="Strømsoddåsen" />
		<tag k="natural" v="hill" />
		<tag k="place" v="locality" />
		<tag k="ssr:stedsnr" v="552791" />
	</node>
	<node lat="60.58605000427319" lon="10.034305549651181" id="-14011">
		<tag k="alt_name" v="Nysæterkollen" />
		<tag k="name" v="Nyseterkollen" />
		<tag k="natural" v="hill" />
		<tag k="place" v="locality" />
		<tag k="ssr:stedsnr" v="553585" />
	</node>
	<node lat="60.182300001355244" lon="10.324399997038899" id="-14016">
		<tag k="name" v="Hvalhaugen" />
		<tag k="natural" v="hill" />
		<tag k="place" v="locality" />
		<tag k="ssr:stedsnr" v="692898" />
	</node>
	<node lat="60.568575000334405" lon="10.032069445032016" id="-14020">
		<tag k="name" v="Høgkastkollen" />
		<tag k="natural" v="hill" />
		<tag k="place" v="locality" />
		<tag k="ssr:stedsnr" v="693155" />
	</node>
	<node lat="60.36678888676454" lon="10.168455547329058" id="-14022">
		<tag k="name" v="Storbråtamoen" />
		<tag k="place" v="locality" />
		<tag k="ssr:stedsnr" v="693256" />
	</node>
	<node lat="60.43981001873113" lon="10.139001353765897" id="-14035">
		<tag k="alt_name" v="Rinneseterhaugen" />
		<tag k="name" v="Rindeseterhaugen" />
		<tag k="natural" v="hill" />
		<tag k="place" v="locality" />
		<tag k="ssr:stedsnr" v="693784" />
	</node>
	<node lat="60.44849444084216" lon="10.139633328631891" id="-14038">
		<tag k="name" v="Tronaringen" />
		<tag k="natural" v="hill" />
		<tag k="place" v="locality" />
		<tag k="ssr:stedsnr" v="571750" />
	</node>
	<node lat="60.24952222326748" lon="10.272772216378302" id="-14046">
		<tag k="loc_name" v="Rundhauga" />
		<tag k="name" v="Rundhaugen" />
		<tag k="natural" v="hill" />
		<tag k="place" v="locality" />
		<tag k="ssr:stedsnr" v="572807" />
	</node>
	<node lat="60.41556110805012" lon="10.139022215350954" id="-14047">
		<tag k="name" v="Øvre Seterhaugen" />
		<tag k="natural" v="hill" />
		<tag k="place" v="locality" />
		<tag k="ssr:stedsnr" v="693960" />
	</node>
	<node lat="60.0974416635514" lon="10.11190554868865" id="-14050">
		<tag k="name" v="Fegrihaugen" />
		<tag k="natural" v="hill" />
		<tag k="place" v="locality" />
		<tag k="ssr:stedsnr" v="694030" />
	</node>
	<node lat="60.41140833748847" lon="10.059036113482428" id="-14054">
		<tag k="name" v="Karlsrudhaugen" />
		<tag k="natural" v="hill" />
		<tag k="place" v="locality" />
		<tag k="ssr:stedsnr" v="574146" />
	</node>
	<node lat="60.41880278207028" lon="10.114555550420341" id="-14059">
		<tag k="name" v="Rolighøgda" />
		<tag k="natural" v="hill" />
		<tag k="place" v="locality" />
		<tag k="ssr:stedsnr" v="574514" />
	</node>
	<node lat="60.35846666536269" lon="10.10878888226268" id="-14061">
		<tag k="name" v="Tronremmen" />
		<tag k="natural" v="slope" />
		<tag k="place" v="locality" />
		<tag k="ssr:stedsnr" v="574656" />
	</node>
	<node lat="60.34852499565997" lon="10.135494451901012" id="-14064">
		<tag k="name" v="Trullerosdalen" />
		<tag k="natural" v="valley" />
		<tag k="place" v="locality" />
		<tag k="ssr:stedsnr" v="574664" />
	</node>
	<node lat="60.47871667002347" lon="10.02759722633304" id="-14067">
		<tag k="name" v="Bærdalen" />
		<tag k="natural" v="valley" />
		<tag k="place" v="locality" />
		<tag k="ssr:stedsnr" v="574846" />
	</node>
	<node lat="60.468825003326415" lon="10.041480546872092" id="-14068">
		<tag k="name" v="Gygersetsen" />
		<tag k="natural" v="hill" />
		<tag k="place" v="locality" />
		<tag k="ssr:stedsnr" v="574847" />
	</node>
	<node lat="60.33135555761136" lon="10.044616675485347" id="-14073">
		<tag k="name" v="Breitjernjuvet" />
		<tag k="natural" v="gorge" />
		<tag k="ssr:stedsnr" v="574956" />
	</node>
	<node lat="60.405422224292025" lon="9.93486388612604" id="-14075">
		<tag k="name" v="Ulevasskraket" />
		<tag k="natural" v="slope" />
		<tag k="old_name" v="Ulvevasskraket" />
		<tag k="place" v="locality" />
		<tag k="ssr:stedsnr" v="575106" />
	</node>
	<node lat="60.115338888957545" lon="9.992858335735395" id="-14077">
		<tag k="fixme" v="consider natural=peak for the most distinct mountains in the district" />
		<tag k="name" v="Sølvfuruåsen" />
		<tag k="natural" v="hill" />
		<tag k="place" v="locality" />
		<tag k="ssr:stedsnr" v="575299" />
	</node>
	<node lat="60.20622222234929" lon="10.148280558777156" id="-14079">
		<tag k="fixme" v="consider natural=peak for the most distinct mountains in the district" />
		<tag k="name" v="Tveitåsen" />
		<tag k="natural" v="hill" />
		<tag k="place" v="locality" />
		<tag k="ssr:stedsnr" v="694460" />
	</node>
	<node lat="60.51193889054809" lon="9.869308333991954" id="-14082">
		<tag k="name" v="Holtekollen" />
		<tag k="natural" v="hill" />
		<tag k="place" v="locality" />
		<tag k="ssr:stedsnr" v="575351" />
	</node>
	<node lat="60.28201111028837" lon="9.943761112530808" id="-14083">
		<tag k="name" v="Tyttebærmohytta" />
		<tag k="place" v="locality" />
		<tag k="ssr:stedsnr" v="575506" />
	</node>
	<node lat="60.331405555135284" lon="9.887958325252466" id="-14085">
		<tag k="name" v="Lunnegranskaret" />
		<tag k="natural" v="valley" />
		<tag k="place" v="locality" />
		<tag k="ssr:stedsnr" v="575511" />
	</node>
	<node lat="60.28211389018598" lon="9.793327770386158" id="-14088">
		<tag k="name" v="Stillingsberget" />
		<tag k="natural" v="hill" />
		<tag k="place" v="locality" />
		<tag k="ssr:stedsnr" v="575556" />
	</node>
	<node lat="60.284338887658585" lon="9.96914167241847" id="-14089">
		<tag k="fixme" v="consider natural=peak for the most distinct mountains in the district" />
		<tag k="name" v="Andersbråten" />
		<tag k="natural" v="hill" />
		<tag k="place" v="locality" />
		<tag k="ssr:stedsnr" v="575595" />
	</node>
	<node lat="60.294083335202885" lon="9.91858333911511" id="-14090">
		<tag k="name" v="Tjæreovnshøgda" />
		<tag k="natural" v="ridge" />
		<tag k="place" v="locality" />
		<tag k="ssr:stedsnr" v="575915" />
	</node>
	<node lat="60.564524996740964" lon="9.956691663944856" id="-14094">
		<tag k="name" v="Stormyrdalen" />
		<tag k="natural" v="valley" />
		<tag k="place" v="locality" />
		<tag k="ssr:stedsnr" v="575651" />
	</node>
	<node lat="60.25100555158096" lon="9.896763891574944" id="-14099">
		<tag k="fixme" v="consider natural=peak for the most distinct mountains in the district" />
		<tag k="name" v="Kroksrudåsen" />
		<tag k="natural" v="hill" />
		<tag k="place" v="locality" />
		<tag k="ssr:stedsnr" v="576156" />
	</node>
	<node lat="60.27680277689969" lon="9.840822215395415" id="-14100">
		<tag k="fixme" v="consider natural=peak for the most distinct mountains in the district" />
		<tag k="name" v="Høgås" />
		<tag k="natural" v="hill" />
		<tag k="place" v="locality" />
		<tag k="ssr:stedsnr" v="576208" />
	</node>
	<node lat="60.557041667849276" lon="10.049997227960517" id="-14103">
		<tag k="name" v="Maribrenna" />
		<tag k="natural" v="ridge" />
		<tag k="place" v="locality" />
		<tag k="ssr:stedsnr" v="695384" />
	</node>
	<node lat="60.284483332701534" lon="10.1072472156932" id="-14109">
		<tag k="name" v="Skjærsteinhøgda" />
		<tag k="natural" v="hill" />
		<tag k="place" v="locality" />
		<tag k="ssr:stedsnr" v="696891" />
	</node>
	<node lat="60.394977779711866" lon="10.009402785335634" id="-14111">
		<tag k="name" v="Goddalen" />
		<tag k="natural" v="valley" />
		<tag k="place" v="locality" />
		<tag k="ssr:stedsnr" v="696127" />
	</node>
	<node lat="60.166108334084" lon="10.131813892090936" id="-14113">
		<tag k="fixme" v="consider natural=peak for the most distinct mountains in the district" />
		<tag k="name" v="Gruveåsen" />
		<tag k="natural" v="hill" />
		<tag k="place" v="locality" />
		<tag k="ssr:stedsnr" v="696163" />
	</node>
	<node lat="60.423511108707515" lon="9.97303056414097" id="-14114">
		<tag k="name" v="Elgsdalane" />
		<tag k="natural" v="valley" />
		<tag k="place" v="locality" />
		<tag k="ssr:stedsnr" v="696195" />
	</node>
	<node lat="60.42090833253887" lon="10.046561115335143" id="-14117">
		<tag k="name" v="Kvernhaugen" />
		<tag k="natural" v="hill" />
		<tag k="place" v="locality" />
		<tag k="ssr:stedsnr" v="696426" />
	</node>
	<node lat="60.18815278068552" lon="9.986522220149439" id="-14118">
		<tag k="name" v="Bjørnefosshøgda" />
		<tag k="natural" v="hill" />
		<tag k="place" v="locality" />
		<tag k="ssr:stedsnr" v="696384" />
	</node>
	<node lat="60.41944722174116" lon="10.066452783340615" id="-14120">
		<tag k="name" v="Maiberget" />
		<tag k="natural" v="hill" />
		<tag k="place" v="locality" />
		<tag k="ssr:stedsnr" v="696443" />
	</node>
	<node lat="60.3865555599973" lon="10.096202775497284" id="-14124">
		<tag k="name" v="Lykkjeskaret" />
		<tag k="natural" v="valley" />
		<tag k="place" v="locality" />
		<tag k="ssr:stedsnr" v="696596" />
	</node>
	<node lat="60.56878055695157" lon="9.950394439305361" id="-14125">
		<tag k="name" v="Svarteputtbrenna" />
		<tag k="natural" v="ridge" />
		<tag k="place" v="locality" />
		<tag k="ssr:stedsnr" v="696684" />
	</node>
	<node lat="60.443766668110165" lon="10.13044166582334" id="-14126">
		<tag k="name" v="Briskebråtasnaret" />
		<tag k="natural" v="slope" />
		<tag k="place" v="locality" />
		<tag k="ssr:stedsnr" v="696688" />
	</node>
	<node lat="60.44979166388636" lon="10.090661108030922" id="-14127">
		<tag k="name" v="Sindrelia" />
		<tag k="natural" v="slope" />
		<tag k="place" v="locality" />
		<tag k="ssr:stedsnr" v="696697" />
	</node>
	<node lat="60.579963884529946" lon="9.945922213147812" id="-14130">
		<tag k="name" v="Aurtjerndalen" />
		<tag k="natural" v="valley" />
		<tag k="place" v="locality" />
		<tag k="ssr:stedsnr" v="696661" />
	</node>
	<node lat="60.51636666677984" lon="9.95184721684286" id="-14131">
		<tag k="name" v="Skålelia" />
		<tag k="natural" v="slope" />
		<tag k="place" v="locality" />
		<tag k="ssr:stedsnr" v="696726" />
	</node>
	<node lat="60.54698055452428" lon="9.92073054920827" id="-14135">
		<tag k="fixme" v="consider natural=peak for the most distinct mountains in the district" />
		<tag k="name" v="Allemannsbråten" />
		<tag k="natural" v="hill" />
		<tag k="place" v="locality" />
		<tag k="ssr:stedsnr" v="696795" />
	</node>
	<node lat="60.27697499603272" lon="10.120111115677037" id="-14142">
		<tag k="name" v="Godhaugsletta" />
		<tag k="place" v="locality" />
		<tag k="ssr:stedsnr" v="696843" />
	</node>
	<node lat="60.47677499815454" lon="10.109649991675147" id="-14143">
		<tag k="name" v="Klavahaugen" />
		<tag k="natural" v="hill" />
		<tag k="place" v="locality" />
		<tag k="ssr:stedsnr" v="696844" />
	</node>
	<node lat="60.27615277784647" lon="10.122494444767078" id="-14146">
		<tag k="name" v="Engedalshøgda" />
		<tag k="natural" v="hill" />
		<tag k="place" v="locality" />
		<tag k="ssr:stedsnr" v="696863" />
	</node>
	<node lat="60.33454999790847" lon="10.081013883485944" id="-14150">
		<tag k="name" v="Flatasnaret" />
		<tag k="natural" v="slope" />
		<tag k="place" v="locality" />
		<tag k="ssr:stedsnr" v="696958" />
	</node>
	<node lat="60.62775555881043" lon="9.932572225762192" id="-14152">
		<tag k="name" v="Oladokka" />
		<tag k="natural" v="valley" />
		<tag k="place" v="locality" />
		<tag k="ssr:stedsnr" v="696892" />
	</node>
	<node lat="60.21055277817662" lon="9.810275007193207" id="-14155">
		<tag k="name" v="Glaskollen" />
		<tag k="natural" v="hill" />
		<tag k="place" v="locality" />
		<tag k="ssr:stedsnr" v="697169" />
	</node>
	<node lat="60.2068416653418" lon="9.905030563880551" id="-14156">
		<tag k="name" v="Meyerseterdalen" />
		<tag k="natural" v="valley" />
		<tag k="old_name" v="Meierseterdalen" />
		<tag k="place" v="locality" />
		<tag k="ssr:stedsnr" v="697174" />
	</node>
	<node lat="60.485291663885825" lon="9.827652777333553" id="-14163">
		<tag k="alt_name" v="Fintoppsletta" />
		<tag k="name" v="Finntoppsletta" />
		<tag k="place" v="locality" />
		<tag k="ssr:stedsnr" v="697336" />
	</node>
	<node lat="60.10289166744025" lon="10.377925004416635" id="-14167">
		<tag k="name" v="Søndre Gaupeskardet" />
		<tag k="natural" v="valley" />
		<tag k="place" v="locality" />
		<tag k="ssr:stedsnr" v="598162" />
	</node>
	<node lat="60.420705557696415" lon="9.83325832572134" id="-14172">
		<tag k="name" v="Storejuv" />
		<tag k="natural" v="gorge" />
		<tag k="ssr:stedsnr" v="272463" />
	</node>
	<node lat="60.07984722253993" lon="10.077416670883299" id="-14182">
		<tag k="fixme" v="consider natural=peak for the most distinct mountains in the district" />
		<tag k="name" v="Steinrøysåsen" />
		<tag k="natural" v="hill" />
		<tag k="place" v="locality" />
		<tag k="ssr:stedsnr" v="611294" />
	</node>
	<node lat="60.11312499578063" lon="10.523691663230364" id="-14184">
		<tag k="fixme" v="consider natural=peak for the most distinct mountains in the district" />
		<tag k="name" v="Haukåsen" />
		<tag k="natural" v="hill" />
		<tag k="place" v="locality" />
		<tag k="ssr:stedsnr" v="611172" />
	</node>
	<node lat="60.12795832908597" lon="9.990424995627219" id="-14196">
		<tag k="fixme" v="consider natural=peak for the most distinct mountains in the district" />
		<tag k="name" v="Knadden" />
		<tag k="natural" v="hill" />
		<tag k="place" v="locality" />
		<tag k="ssr:stedsnr" v="611686" />
	</node>
	<node lat="60.11545833029727" lon="10.113500001915469" id="-14198">
		<tag k="name" v="Korset" />
		<tag k="place" v="locality" />
		<tag k="ssr:stedsnr" v="611706" />
	</node>
	<node lat="60.43708333195705" lon="10.042297229600425" id="-14213">
		<tag k="name" v="Midtkollen" />
		<tag k="natural" v="hill" />
		<tag k="place" v="locality" />
		<tag k="ssr:stedsnr" v="612383" />
	</node>
	<node lat="60.30496388575103" lon="9.867436104197461" id="-14219">
		<tag k="name" v="Brattkollen" />
		<tag k="natural" v="hill" />
		<tag k="place" v="locality" />
		<tag k="ssr:stedsnr" v="612686" />
	</node>
	<node lat="60.30398889026623" lon="9.818699998676598" id="-14220">
		<tag k="name" v="Kjosmyrhøgda" />
		<tag k="natural" v="hill" />
		<tag k="place" v="locality" />
		<tag k="ssr:stedsnr" v="612687" />
	</node>
	<node lat="60.454491665782385" lon="9.939944441846487" id="-14222">
		<tag k="name" v="Krakehaugen" />
		<tag k="natural" v="hill" />
		<tag k="place" v="locality" />
		<tag k="ssr:stedsnr" v="612916" />
	</node>
	<node lat="60.32887777966126" lon="9.901916672136217" id="-14237">
		<tag k="fixme" v="consider natural=peak for the most distinct mountains in the district" />
		<tag k="name" v="Grasåsen" />
		<tag k="natural" v="hill" />
		<tag k="place" v="locality" />
		<tag k="ssr:stedsnr" v="613865" />
	</node>
	<node lat="60.24779722584248" lon="9.944213890501581" id="-14240">
		<tag k="name" v="Hovlandsmoen" />
		<tag k="place" v="locality" />
		<tag k="ssr:stedsnr" v="630847" />
	</node>
	<node lat="60.092652774946124" lon="10.457286112410504" id="-14244">
		<tag k="fixme" v="consider natural=peak for the most distinct mountains in the district" />
		<tag k="name" v="Skipet" />
		<tag k="natural" v="hill" />
		<tag k="place" v="locality" />
		<tag k="ssr:stedsnr" v="632041" />
	</node>
	<node lat="60.227900002338316" lon="9.763477769229864" id="-14250">
		<tag k="name" v="Lønndokkrensla" />
		<tag k="natural" v="slope" />
		<tag k="place" v="locality" />
		<tag k="ssr:stedsnr" v="632341" />
	</node>
	<node lat="60.2660944464924" lon="10.270505558732898" id="-14251">
		<tag k="name" v="Kuberget" />
		<tag k="natural" v="hill" />
		<tag k="place" v="locality" />
		<tag k="ssr:stedsnr" v="632808" />
	</node>
	<node lat="60.15862499778354" lon="10.453441660737033" id="-14255">
		<tag k="name" v="Nordbrenna" />
		<tag k="natural" v="slope" />
		<tag k="place" v="locality" />
		<tag k="ssr:stedsnr" v="633314" />
	</node>
	<node lat="60.067997226019486" lon="10.562808326460937" id="-14257">
		<tag k="name" v="Vesleslottet" />
		<tag k="natural" v="hill" />
		<tag k="place" v="locality" />
		<tag k="ssr:stedsnr" v="633484" />
	</node>
	<node lat="60.3309361100604" lon="10.16091388888299" id="-14261">
		<tag k="fixme" v="consider natural=peak for the most distinct mountains in the district" />
		<tag k="name" v="Fjellbråtakollen" />
		<tag k="natural" v="hill" />
		<tag k="place" v="locality" />
		<tag k="ssr:stedsnr" v="633984" />
	</node>
	<node lat="60.424891669753286" lon="10.033011116865636" id="-14268">
		<tag k="name" v="Djupedalsbråten" />
		<tag k="natural" v="slope" />
		<tag k="place" v="locality" />
		<tag k="ssr:stedsnr" v="635440" />
	</node>
	<node lat="60.49223610798301" lon="9.996822227528359" id="-14269">
		<tag k="name" v="Skørra" />
		<tag k="natural" v="cliff" />
		<tag k="ssr:stedsnr" v="635191" />
	</node>
	<node lat="60.18936667069014" lon="9.974311106886171" id="-14272">
		<tag k="name" v="Guribråtalia" />
		<tag k="natural" v="slope" />
		<tag k="place" v="locality" />
		<tag k="ssr:stedsnr" v="635380" />
	</node>
	<node lat="60.2476138891453" lon="10.005683341730627" id="-14273">
		<tag k="name" v="Søndre Barlinddalen" />
		<tag k="natural" v="valley" />
		<tag k="place" v="locality" />
		<tag k="ssr:stedsnr" v="635526" />
	</node>
	<node lat="60.5784666661671" lon="9.933999991439359" id="-14274">
		<tag k="name" v="Bergenskollen" />
		<tag k="natural" v="hill" />
		<tag k="place" v="locality" />
		<tag k="ssr:stedsnr" v="635634" />
	</node>
	<node lat="60.589041667795875" lon="9.921652769887741" id="-14276">
		<tag k="fixme" v="consider natural=peak for the most distinct mountains in the district" />
		<tag k="name" v="Kastmyrhøgda" />
		<tag k="natural" v="hill" />
		<tag k="place" v="locality" />
		<tag k="ssr:stedsnr" v="635811" />
	</node>
	<node lat="60.59566388713375" lon="9.926097220908655" id="-14277">
		<tag k="name" v="Nordre Kallebrenna" />
		<tag k="natural" v="ridge" />
		<tag k="place" v="locality" />
		<tag k="ssr:stedsnr" v="635813" />
	</node>
	<node lat="60.48523611265131" lon="10.127005549846137" id="-14279">
		<tag k="name" v="Delehaugen" />
		<tag k="natural" v="hill" />
		<tag k="place" v="locality" />
		<tag k="ssr:stedsnr" v="635816" />
	</node>
	<node lat="60.5183055517343" lon="9.949536118524595" id="-14281">
		<tag k="fixme" v="consider natural=peak for the most distinct mountains in the district" />
		<tag k="name" v="Knappåsen" />
		<tag k="natural" v="hill" />
		<tag k="place" v="locality" />
		<tag k="ssr:stedsnr" v="635713" />
	</node>
	<node lat="60.3499583356285" lon="10.067324999386127" id="-14285">
		<tag k="name" v="Korpekollen" />
		<tag k="natural" v="hill" />
		<tag k="place" v="locality" />
		<tag k="ssr:stedsnr" v="635779" />
	</node>
	<node lat="60.249100002579404" lon="10.122611113083709" id="-14291">
		<tag k="name" v="Grevlinghaugen" />
		<tag k="natural" v="hill" />
		<tag k="place" v="locality" />
		<tag k="ssr:stedsnr" v="635798" />
	</node>
	<node lat="60.350222218171254" lon="9.971172227499336" id="-14292">
		<tag k="name" v="Rundkolljuvet" />
		<tag k="natural" v="gorge" />
		<tag k="ssr:stedsnr" v="635880" />
	</node>
	<node lat="60.33810556000516" lon="9.958558331195462" id="-14293">
		<tag k="name" v="Hestbrennjuvet" />
		<tag k="natural" v="gorge" />
		<tag k="ssr:stedsnr" v="635893" />
	</node>
	<node lat="60.323424997818655" lon="10.118261119245684" id="-14294">
		<tag k="name" v="Grindhaugen" />
		<tag k="natural" v="hill" />
		<tag k="place" v="locality" />
		<tag k="ssr:stedsnr" v="635895" />
	</node>
	<node lat="60.52750555735821" lon="9.893994435854848" id="-14301">
		<tag k="name" v="Triangelen" />
		<tag k="natural" v="slope" />
		<tag k="place" v="locality" />
		<tag k="ssr:stedsnr" v="636286" />
	</node>
	<node lat="60.304261109026505" lon="9.78656666965806" id="-14302">
		<tag k="name" v="Kjellermyråsen" />
		<tag k="natural" v="ridge" />
		<tag k="place" v="locality" />
		<tag k="ssr:stedsnr" v="636778" />
	</node>
	<node lat="60.31158888675551" lon="9.761822223186043" id="-14303">
		<tag k="name" v="Storejuv" />
		<tag k="natural" v="gorge" />
		<tag k="ssr:stedsnr" v="636788" />
	</node>
	<node lat="60.45378610812306" lon="9.89900278466131" id="-14317">
		<tag k="alt_name" v="Sæterkollen" />
		<tag k="name" v="Seterkollen" />
		<tag k="natural" v="hill" />
		<tag k="place" v="locality" />
		<tag k="ssr:stedsnr" v="660880" />
	</node>
	<node lat="60.11575000445907" lon="10.008858329388914" id="-14325">
		<tag k="fixme" v="consider natural=peak for the most distinct mountains in the district" />
		<tag k="name" v="Solbergåsen" />
		<tag k="natural" v="hill" />
		<tag k="place" v="locality" />
		<tag k="ssr:stedsnr" v="671714" />
	</node>
	<node lat="60.13002500380543" lon="10.304927772887494" id="-14327">
		<tag k="fixme" v="consider natural=peak for the most distinct mountains in the district" />
		<tag k="name" v="Burudåsen" />
		<tag k="natural" v="hill" />
		<tag k="place" v="locality" />
		<tag k="ssr:stedsnr" v="671717" />
	</node>
	<node lat="60.07329721822348" lon="10.573330554838817" id="-14330">
		<tag k="alt_name" v="Salthølshøgda" />
		<tag k="fixme" v="consider natural=peak for the most distinct mountains in the district" />
		<tag k="name" v="Saltholshøgda" />
		<tag k="natural" v="hill" />
		<tag k="place" v="locality" />
		<tag k="ssr:stedsnr" v="672206" />
	</node>
	<node lat="60.06786944789003" lon="10.496686116154411" id="-14332">
		<tag k="fixme" v="consider natural=peak for the most distinct mountains in the district" />
		<tag k="name" v="Gråberghaugen" />
		<tag k="natural" v="hill" />
		<tag k="place" v="locality" />
		<tag k="ssr:stedsnr" v="672216" />
	</node>
	<node lat="60.07100277404917" lon="10.54147499922948" id="-14334">
		<tag k="fixme" v="consider natural=peak for the most distinct mountains in the district" />
		<tag k="name" v="Lysebråna" />
		<tag k="natural" v="hill" />
		<tag k="place" v="locality" />
		<tag k="ssr:stedsnr" v="672218" />
	</node>
	<node lat="60.184595446191615" lon="9.95266071023641" id="-14335">
		<tag k="name" v="Sessrudkollen" />
		<tag k="natural" v="hill" />
		<tag k="place" v="locality" />
		<tag k="ssr:stedsnr" v="672117" />
	</node>
	<node lat="60.15850090394152" lon="10.53006091763891" id="-14357">
		<tag k="fixme" v="consider natural=peak for the most distinct mountains in the district" />
		<tag k="name" v="Prekestolen" />
		<tag k="natural" v="hill" />
		<tag k="place" v="locality" />
		<tag k="ssr:stedsnr" v="673003" />
	</node>
	<node lat="60.09758333680751" lon="10.478827782969297" id="-14361">
		<tag k="fixme" v="consider natural=peak for the most distinct mountains in the district" />
		<tag k="name" v="Skottehøgda" />
		<tag k="natural" v="hill" />
		<tag k="place" v="locality" />
		<tag k="ssr:stedsnr" v="673170" />
	</node>
	<node lat="60.44870555721305" lon="9.986141671660679" id="-14368">
		<tag k="alt_name" v="Endelaushaugane" />
		<tag k="fixme" v="consider natural=peak for the most distinct mountains in the district" />
		<tag k="name" v="Endelaushøgda" />
		<tag k="natural" v="hill" />
		<tag k="place" v="locality" />
		<tag k="ssr:stedsnr" v="673558" />
	</node>
	<node lat="60.47479999913717" lon="10.155869446397483" id="-14369">
		<tag k="name" v="Lykkebotdalen" />
		<tag k="natural" v="valley" />
		<tag k="place" v="locality" />
		<tag k="ssr:stedsnr" v="673564" />
	</node>
	<node lat="60.25910833367927" lon="10.02689165874995" id="-14374">
		<tag k="fixme" v="consider natural=peak for the most distinct mountains in the district" />
		<tag k="name" v="Rallerudåsen" />
		<tag k="natural" v="hill" />
		<tag k="place" v="locality" />
		<tag k="ssr:stedsnr" v="674403" />
	</node>
	<node lat="60.26587499904911" lon="10.003175003677155" id="-14375">
		<tag k="fixme" v="consider natural=peak for the most distinct mountains in the district" />
		<tag k="name" v="Bekaputthøgda" />
		<tag k="natural" v="hill" />
		<tag k="place" v="locality" />
		<tag k="ssr:stedsnr" v="674405" />
	</node>
	<node lat="60.51425277432967" lon="9.998166665106062" id="-14381">
		<tag k="name" v="Åteberget" />
		<tag k="natural" v="hill" />
		<tag k="place" v="locality" />
		<tag k="ssr:stedsnr" v="674464" />
	</node>
	<node lat="60.54616667048517" lon="10.095499992368762" id="-14382">
		<tag k="name" v="Skjærgraskollen" />
		<tag k="natural" v="hill" />
		<tag k="place" v="locality" />
		<tag k="ssr:stedsnr" v="674501" />
	</node>
	<node lat="60.3282527748113" lon="9.878955559514251" id="-14383">
		<tag k="name" v="Fuglehaugen" />
		<tag k="natural" v="hill" />
		<tag k="place" v="locality" />
		<tag k="ssr:stedsnr" v="674861" />
	</node>
	<node lat="60.50304999769013" lon="10.123111108094177" id="-14393">
		<tag k="name" v="Leikvollbakkane" />
		<tag k="natural" v="slope" />
		<tag k="place" v="locality" />
		<tag k="ssr:stedsnr" v="693209" />
	</node>
	<node lat="60.57549722497977" lon="9.974286114633014" id="-14401">
		<tag k="name" v="Brennhaugen" />
		<tag k="natural" v="hill" />
		<tag k="place" v="locality" />
		<tag k="ssr:stedsnr" v="693574" />
	</node>
	<node lat="60.09538610678341" lon="10.125477774990033" id="-14404">
		<tag k="fixme" v="consider natural=peak for the most distinct mountains in the district" />
		<tag k="name" v="Himåsen" />
		<tag k="natural" v="hill" />
		<tag k="place" v="locality" />
		<tag k="ssr:stedsnr" v="694009" />
	</node>
	<node lat="60.17453333221012" lon="10.414238881503772" id="-14407">
		<tag k="name" v="Kolltjernhaugen" />
		<tag k="natural" v="hill" />
		<tag k="place" v="locality" />
		<tag k="ssr:stedsnr" v="694269" />
	</node>
	<node lat="60.143661114009305" lon="10.31856667132332" id="-14408">
		<tag k="alt_name" v="Ultvedtåsen" />
		<tag k="fixme" v="consider natural=peak for the most distinct mountains in the district" />
		<tag k="name" v="Ultvetåsen" />
		<tag k="natural" v="hill" />
		<tag k="place" v="locality" />
		<tag k="ssr:stedsnr" v="694620" />
	</node>
	<node lat="60.54724444809739" lon="10.077902783677928" id="-14414">
		<tag k="name" v="Store Puttedalen" />
		<tag k="natural" v="valley" />
		<tag k="place" v="locality" />
		<tag k="ssr:stedsnr" v="695504" />
	</node>
	<node lat="60.5906583300453" lon="10.063205556468327" id="-14415">
		<tag k="name" v="Gravliseterhøgda" />
		<tag k="natural" v="hill" />
		<tag k="place" v="locality" />
		<tag k="ssr:stedsnr" v="695543" />
	</node>
	<node lat="60.27346666991201" lon="10.16502778505204" id="-14416">
		<tag k="name" v="Skollerudmoen" />
		<tag k="place" v="locality" />
		<tag k="ssr:stedsnr" v="695817" />
	</node>
	<node lat="60.43736389025611" lon="10.015655556352117" id="-14420">
		<tag k="fixme" v="consider natural=peak for the most distinct mountains in the district" />
		<tag k="name" v="Vassvellinghaugen" />
		<tag k="natural" v="hill" />
		<tag k="place" v="locality" />
		<tag k="ssr:stedsnr" v="696105" />
	</node>
	<node lat="60.471127780826095" lon="10.013138892508938" id="-14424">
		<tag k="name" v="Geithatten" />
		<tag k="natural" v="hill" />
		<tag k="place" v="locality" />
		<tag k="ssr:stedsnr" v="696184" />
	</node>
	<node lat="60.298297220061436" lon="9.988802771873326" id="-14426">
		<tag k="fixme" v="consider natural=peak for the most distinct mountains in the district" />
		<tag k="name" v="Håkenstadbråten" />
		<tag k="natural" v="hill" />
		<tag k="place" v="locality" />
		<tag k="ssr:stedsnr" v="696619" />
	</node>
	<node lat="60.53488055618273" lon="9.997441665787427" id="-14428">
		<tag k="fixme" v="consider natural=peak for the most distinct mountains in the district" />
		<tag k="name" v="Gråskallbråten" />
		<tag k="natural" v="hill" />
		<tag k="place" v="locality" />
		<tag k="ssr:stedsnr" v="696720" />
	</node>
	<node lat="60.354269446316486" lon="10.035897226031107" id="-14432">
		<tag k="name" v="Tordengranhaugen" />
		<tag k="natural" v="hill" />
		<tag k="place" v="locality" />
		<tag k="ssr:stedsnr" v="696805" />
	</node>
	<node lat="60.3655861149146" lon="10.05309443724267" id="-14440">
		<tag k="name" v="Kroksruddalen" />
		<tag k="natural" v="valley" />
		<tag k="place" v="locality" />
		<tag k="ssr:stedsnr" v="696765" />
	</node>
	<node lat="60.59036944639218" lon="10.008900005522456" id="-14442">
		<tag k="name" v="Knutsbråten" />
		<tag k="natural" v="slope" />
		<tag k="place" v="locality" />
		<tag k="ssr:stedsnr" v="696776" />
	</node>
	<node lat="60.35247222371947" lon="10.078541659619257" id="-14443">
		<tag k="name" v="Prærien" />
		<tag k="place" v="locality" />
		<tag k="ssr:stedsnr" v="696778" />
	</node>
	<node lat="60.34983611434539" lon="10.075188888899993" id="-14445">
		<tag k="name" v="Baktut" />
		<tag k="natural" v="slope" />
		<tag k="place" v="locality" />
		<tag k="ssr:stedsnr" v="696780" />
	</node>
	<node lat="60.53319444766404" lon="9.915855561880614" id="-14446">
		<tag k="name" v="Smedsrudlegga" />
		<tag k="natural" v="hill" />
		<tag k="place" v="locality" />
		<tag k="ssr:stedsnr" v="696783" />
	</node>
	<node lat="60.58308610660556" lon="9.88998334050383" id="-14452">
		<tag k="name" v="Nordre Leirskaret" />
		<tag k="natural" v="valley" />
		<tag k="place" v="locality" />
		<tag k="ssr:stedsnr" v="696973" />
	</node>
	<node lat="60.45153611344672" lon="9.89643333303974" id="-14455">
		<tag k="alt_name" v="Skjelvbekklia2" />
		<tag k="name" v="Skjelvbekklia" />
		<tag k="natural" v="slope" />
		<tag k="place" v="locality" />
		<tag k="ssr:stedsnr" v="697477" />
	</node>
	<node lat="60.344919441584" lon="9.893052778672148" id="-14456">
		<tag k="fixme" v="consider natural=peak for the most distinct mountains in the district" />
		<tag k="name" v="Bågåtjernåsen" />
		<tag k="natural" v="hill" />
		<tag k="place" v="locality" />
		<tag k="ssr:stedsnr" v="697503" />
	</node>
	<node lat="60.347419447938506" lon="9.897833341521013" id="-14457">
		<tag k="alt_name" v="Søndre Grandalen" />
		<tag k="name" v="Søre Grandalen" />
		<tag k="natural" v="valley" />
		<tag k="place" v="locality" />
		<tag k="ssr:stedsnr" v="697972" />
	</node>
	<node lat="60.3540444440487" lon="9.896711112608418" id="-14459">
		<tag k="name" v="Nordre Grandalen" />
		<tag k="natural" v="valley" />
		<tag k="place" v="locality" />
		<tag k="ssr:stedsnr" v="697986" />
	</node>
	<node lat="60.386425000444106" lon="9.943025008439148" id="-14460">
		<tag k="alt_name" v="Ulevassknappen" />
		<tag k="name" v="Urdevassknappen" />
		<tag k="natural" v="hill" />
		<tag k="place" v="locality" />
		<tag k="ssr:stedsnr" v="903955" />
	</node>
	<node lat="60.08185832920099" lon="10.547869440229084" id="-14464">
		<tag k="fixme" v="consider natural=peak for the most distinct mountains in the district" />
		<tag k="name" v="Stuevassåsen" />
		<tag k="natural" v="hill" />
		<tag k="place" v="locality" />
		<tag k="ssr:stedsnr" v="732251" />
	</node>
	<node lat="60.111933336201666" lon="10.06193888394671" id="-14468">
		<tag k="fixme" v="consider natural=peak for the most distinct mountains in the district" />
		<tag k="name" v="Brennåsen" />
		<tag k="natural" v="hill" />
		<tag k="place" v="locality" />
		<tag k="ssr:stedsnr" v="732704" />
	</node>
	<node lat="60.12178055300904" lon="10.107066668049544" id="-14469">
		<tag k="alt_name" v="Hvitmyråsen" />
		<tag k="fixme" v="consider natural=peak for the most distinct mountains in the district" />
		<tag k="name" v="Kvitmyråsen" />
		<tag k="natural" v="hill" />
		<tag k="place" v="locality" />
		<tag k="ssr:stedsnr" v="732720" />
	</node>
	<node lat="60.19261666388767" lon="9.93551388447728" id="-14473">
		<tag k="alt_name" v="Gjuvbråtaåsen" />
		<tag k="fixme" v="consider natural=peak for the most distinct mountains in the district" />
		<tag k="name" v="Juvbråtaåsen" />
		<tag k="natural" v="hill" />
		<tag k="place" v="locality" />
		<tag k="ssr:stedsnr" v="733151" />
	</node>
	<node lat="60.147080556949554" lon="10.276383324511368" id="-14488">
		<tag k="name" v="Tanbergmoen" />
		<tag k="place" v="locality" />
		<tag k="ssr:stedsnr" v="733594" />
	</node>
	<node lat="60.14869444479944" lon="10.470852772922907" id="-14492">
		<tag k="fixme" v="consider natural=peak for the most distinct mountains in the district" />
		<tag k="name" v="Steinbuåsen" />
		<tag k="natural" v="hill" />
		<tag k="place" v="locality" />
		<tag k="ssr:stedsnr" v="734095" />
	</node>
	<node lat="60.0517750009453" lon="10.521997229250438" id="-14493">
		<tag k="fixme" v="consider natural=peak for the most distinct mountains in the district" />
		<tag k="name" v="Evjeåsen" />
		<tag k="natural" v="hill" />
		<tag k="place" v="locality" />
		<tag k="ssr:stedsnr" v="734227" />
	</node>
	<node lat="60.07923333299167" lon="10.511736103339059" id="-14500">
		<tag k="fixme" v="consider natural=peak for the most distinct mountains in the district" />
		<tag k="name" v="Småflaka" />
		<tag k="natural" v="hill" />
		<tag k="place" v="locality" />
		<tag k="ssr:stedsnr" v="734280" />
	</node>
	<node lat="60.41082499922785" lon="10.02965832921776" id="-14501">
		<tag k="alt_name" v="Sæterhaugen" />
		<tag k="fixme" v="consider natural=peak for the most distinct mountains in the district" />
		<tag k="name" v="Seterhaugen" />
		<tag k="natural" v="hill" />
		<tag k="place" v="locality" />
		<tag k="ssr:stedsnr" v="734281" />
	</node>
	<node lat="60.463324999138464" lon="10.001861111542077" id="-14506">
		<tag k="fixme" v="consider natural=peak for the most distinct mountains in the district" />
		<tag k="name" v="Elsrudkollen" />
		<tag k="natural" v="hill" />
		<tag k="place" v="locality" />
		<tag k="ssr:stedsnr" v="734609" />
	</node>
	<node lat="60.28511111038755" lon="9.786399999179231" id="-14513">
		<tag k="name" v="Haltebråtaåsen" />
		<tag k="natural" v="hill" />
		<tag k="place" v="locality" />
		<tag k="ssr:stedsnr" v="734686" />
	</node>
	<node lat="60.382133337367335" lon="9.824738883748273" id="-14520">
		<tag k="name" v="Hølkollen" />
		<tag k="natural" v="hill" />
		<tag k="place" v="locality" />
		<tag k="ssr:stedsnr" v="734779" />
	</node>
	<node lat="60.36638055546592" lon="9.783438895620693" id="-14531">
		<tag k="alt_name" v="Rundtjernsæteråsen" />
		<tag k="fixme" v="consider natural=peak for the most distinct mountains in the district" />
		<tag k="name" v="Rundtjernseteråsen" />
		<tag k="natural" v="hill" />
		<tag k="place" v="locality" />
		<tag k="ssr:stedsnr" v="903795" />
	</node>
	<node lat="60.52737500059024" lon="10.097241661579485" id="-14536">
		<tag k="name" v="Vikkollen" />
		<tag k="natural" v="hill" />
		<tag k="old_name" v="Viokkollen" />
		<tag k="place" v="locality" />
		<tag k="ssr:stedsnr" v="753158" />
	</node>
	<node lat="60.18841110737716" lon="10.27310277846221" id="-14537">
		<tag k="name" v="Almebakken" />
		<tag k="natural" v="slope" />
		<tag k="place" v="locality" />
		<tag k="ssr:stedsnr" v="753611" />
	</node>
	<node lat="60.338833328996515" lon="10.235341657577175" id="-14540">
		<tag k="fixme" v="consider natural=peak for the most distinct mountains in the district" />
		<tag k="name" v="Langtjernåsen" />
		<tag k="natural" v="hill" />
		<tag k="place" v="locality" />
		<tag k="ssr:stedsnr" v="753953" />
	</node>
	<node lat="60.56691110873016" lon="10.038633341009602" id="-14544">
		<tag k="name" v="Nilskastlægeret" />
		<tag k="natural" v="cliff" />
		<tag k="ssr:stedsnr" v="754162" />
	</node>
	<node lat="60.13741389257706" lon="10.475605553624975" id="-14549">
		<tag k="name" v="Korpemyrdalen" />
		<tag k="natural" v="valley" />
		<tag k="place" v="locality" />
		<tag k="ssr:stedsnr" v="754249" />
	</node>
	<node lat="60.418216665008174" lon="10.176586107281105" id="-14555">
		<tag k="name" v="Lønnskorra" />
		<tag k="place" v="locality" />
		<tag k="ssr:stedsnr" v="755959" />
	</node>
	<node lat="60.385966668269866" lon="10.07789999561388" id="-14557">
		<tag k="name" v="Grindberget" />
		<tag k="natural" v="hill" />
		<tag k="place" v="locality" />
		<tag k="ssr:stedsnr" v="756849" />
	</node>
	<node lat="60.39710833573247" lon="9.984855564359018" id="-14561">
		<tag k="name" v="Mosekuven" />
		<tag k="natural" v="hill" />
		<tag k="place" v="locality" />
		<tag k="ssr:stedsnr" v="757113" />
	</node>
	<node lat="60.395808329397134" lon="10.1173555626408" id="-14562">
		<tag k="name" v="Slusarhaugen" />
		<tag k="natural" v="hill" />
		<tag k="place" v="locality" />
		<tag k="ssr:stedsnr" v="757159" />
	</node>
	<node lat="60.45341666927482" lon="10.099636118090373" id="-14574">
		<tag k="name" v="Jonebråtaberga" />
		<tag k="natural" v="hill" />
		<tag k="place" v="locality" />
		<tag k="ssr:stedsnr" v="757652" />
	</node>
	<node lat="60.27545555618647" lon="10.133133336841386" id="-14575">
		<tag k="name" v="Engehaugen" />
		<tag k="natural" v="hill" />
		<tag k="place" v="locality" />
		<tag k="ssr:stedsnr" v="757848" />
	</node>
	<node lat="60.3952555519014" lon="10.127941659533548" id="-14576">
		<tag k="name" v="Loppetjernshøgda" />
		<tag k="natural" v="hill" />
		<tag k="place" v="locality" />
		<tag k="ssr:stedsnr" v="757852" />
	</node>
	<node lat="60.2743055569493" lon="10.049249996104354" id="-14578">
		<tag k="name" v="Vælvasslia" />
		<tag k="natural" v="slope" />
		<tag k="place" v="locality" />
		<tag k="ssr:stedsnr" v="757864" />
	</node>
	<node lat="60.62382777779332" lon="9.927708324979912" id="-14580">
		<tag k="name" v="Blåbesta" />
		<tag k="place" v="locality" />
		<tag k="ssr:stedsnr" v="757924" />
	</node>
	<node lat="60.33860000236164" lon="10.069905547345002" id="-14583">
		<tag k="name" v="Eldmelkkollen" />
		<tag k="natural" v="hill" />
		<tag k="place" v="locality" />
		<tag k="ssr:stedsnr" v="757945" />
	</node>
	<node lat="60.346799999340014" lon="10.051377769350873" id="-14584">
		<tag k="name" v="Leiklibakka" />
		<tag k="natural" v="slope" />
		<tag k="place" v="locality" />
		<tag k="ssr:stedsnr" v="757949" />
	</node>
	<node lat="60.22125555276536" lon="9.899427780970424" id="-14586">
		<tag k="fixme" v="consider natural=peak for the most distinct mountains in the district" />
		<tag k="name" v="Korpebråten" />
		<tag k="natural" v="hill" />
		<tag k="place" v="locality" />
		<tag k="ssr:stedsnr" v="758720" />
	</node>
	<node lat="60.288141669013285" lon="9.836847228049836" id="-14587">
		<tag k="name" v="Stillingsdalen" />
		<tag k="natural" v="valley" />
		<tag k="place" v="locality" />
		<tag k="ssr:stedsnr" v="758606" />
	</node>
	<node lat="60.42502222488766" lon="9.914272228634378" id="-14589">
		<tag k="alt_name" v="Kjølfjell" />
		<tag k="fixme" v="consider natural=peak for the most distinct mountains in the district" />
		<tag k="name" v="Kjølfjellet" />
		<tag k="natural" v="hill" />
		<tag k="place" v="locality" />
		<tag k="ssr:stedsnr" v="906997" />
	</node>
	<node lat="60.189275001473824" lon="9.89672777416938" id="-14593">
		<tag k="name" v="Svartebuåsen" />
		<tag k="natural" v="hill" />
		<tag k="place" v="locality" />
		<tag k="ssr:stedsnr" v="793149" />
	</node>
	<node lat="60.13020833432277" lon="10.424652780725134" id="-14611">
		<tag k="fixme" v="consider natural=peak for the most distinct mountains in the district" />
		<tag k="name" v="Tolveråsen" />
		<tag k="natural" v="hill" />
		<tag k="place" v="locality" />
		<tag k="ssr:stedsnr" v="794107" />
	</node>
	<node lat="60.14894999648819" lon="10.047888897405965" id="-14616">
		<tag k="fixme" v="consider natural=peak for the most distinct mountains in the district" />
		<tag k="name" v="Høgås" />
		<tag k="natural" v="hill" />
		<tag k="place" v="locality" />
		<tag k="ssr:stedsnr" v="794417" />
	</node>
	<node lat="60.06428610842777" lon="10.558975005408929" id="-14621">
		<tag k="fixme" v="consider natural=peak for the most distinct mountains in the district" />
		<tag k="name" v="Barlindåsen" />
		<tag k="natural" v="hill" />
		<tag k="place" v="locality" />
		<tag k="ssr:stedsnr" v="794385" />
	</node>
	<node lat="60.06929999580358" lon="10.449230557431935" id="-14622">
		<tag k="fixme" v="consider natural=peak for the most distinct mountains in the district" />
		<tag k="name" v="Rolighaugen" />
		<tag k="natural" v="hill" />
		<tag k="place" v="locality" />
		<tag k="ssr:stedsnr" v="794386" />
	</node>
	<node lat="60.35541110973921" lon="10.030119442386237" id="-14627">
		<tag k="name" v="Rokovollen" />
		<tag k="natural" v="slope" />
		<tag k="place" v="locality" />
		<tag k="ssr:stedsnr" v="794576" />
	</node>
	<node lat="60.16577777522745" lon="9.940047218012984" id="-14628">
		<tag k="fixme" v="consider natural=peak for the most distinct mountains in the district" />
		<tag k="name" v="Harakollen" />
		<tag k="natural" v="hill" />
		<tag k="place" v="locality" />
		<tag k="ssr:stedsnr" v="794767" />
	</node>
	<node lat="60.0457944416604" lon="10.470441667606332" id="-14629">
		<tag k="fixme" v="consider natural=peak for the most distinct mountains in the district" />
		<tag k="name" v="Kampeknerten" />
		<tag k="natural" v="hill" />
		<tag k="place" v="locality" />
		<tag k="ssr:stedsnr" v="794967" />
	</node>
	<node lat="60.56987222301501" lon="9.974288887803395" id="-14648">
		<tag k="name" v="Posthaugen" />
		<tag k="natural" v="hill" />
		<tag k="place" v="locality" />
		<tag k="ssr:stedsnr" v="796623" />
	</node>
	<node lat="60.23950000174662" lon="9.79938056388052" id="-14658">
		<tag k="fixme" v="consider natural=peak for the most distinct mountains in the district" />
		<tag k="name" v="Bergsrudåsen" />
		<tag k="natural" v="hill" />
		<tag k="place" v="locality" />
		<tag k="ssr:stedsnr" v="915199" />
	</node>
	<node lat="60.07231389203719" lon="10.42198610577087" id="-14660">
		<tag k="alt_name" v="Søndagsbrenna" />
		<tag k="fixme" v="consider natural=peak for the most distinct mountains in the district" />
		<tag k="name" v="Syndagsbrenna" />
		<tag k="natural" v="hill" />
		<tag k="place" v="locality" />
		<tag k="ssr:stedsnr" v="915204" />
	</node>
	<node lat="60.13006388572937" lon="9.969047217691806" id="-14671">
		<tag k="name" v="Lenasnaret" />
		<tag k="place" v="locality" />
		<tag k="ssr:stedsnr" v="915654" />
	</node>
	<node lat="60.19004166750181" lon="10.340691675081018" id="-14680">
		<tag k="fixme" v="consider natural=peak for the most distinct mountains in the district" />
		<tag k="name" v="Knestangåsen" />
		<tag k="natural" v="hill" />
		<tag k="place" v="locality" />
		<tag k="ssr:stedsnr" v="915567" />
	</node>
	<node lat="60.48189166646827" lon="10.01287778381773" id="-14689">
		<tag k="alt_name" v="Hovdebergene" />
		<tag k="fixme" v="consider natural=peak for the most distinct mountains in the district" />
		<tag k="name" v="Hovdeberga" />
		<tag k="natural" v="hill" />
		<tag k="place" v="locality" />
		<tag k="ssr:stedsnr" v="916738" />
	</node>
	<node lat="60.0790833358782" lon="10.425549995105833" id="-14697">
		<tag k="fixme" v="consider natural=peak for the most distinct mountains in the district" />
		<tag k="name" v="Skansen" />
		<tag k="natural" v="hill" />
		<tag k="place" v="locality" />
		<tag k="ssr:stedsnr" v="916257" />
	</node>
	<node lat="60.30651389331668" lon="10.231469444258074" id="-14701">
		<tag k="fixme" v="consider natural=peak for the most distinct mountains in the district" />
		<tag k="name" v="Blekketjernshøgda" />
		<tag k="natural" v="hill" />
		<tag k="place" v="locality" />
		<tag k="ssr:stedsnr" v="916508" />
	</node>
	<node lat="60.26685000395397" lon="9.921066674640645" id="-14702">
		<tag k="name" v="Brøgåsen" />
		<tag k="natural" v="hill" />
		<tag k="place" v="locality" />
		<tag k="ssr:stedsnr" v="916655" />
	</node>
	<node lat="60.46417222405383" lon="9.850847216368662" id="-14704">
		<tag k="name" v="Dugurdsflåen" />
		<tag k="natural" v="hill" />
		<tag k="place" v="locality" />
		<tag k="ssr:stedsnr" v="916896" />
	</node>
	<node lat="60.26678251928118" lon="10.285707030431807" id="-14706">
		<tag k="alt_name" v="Hovsæterhøgda" />
		<tag k="fixme" v="consider natural=peak for the most distinct mountains in the district" />
		<tag k="name" v="Hovseterhøgda" />
		<tag k="natural" v="hill" />
		<tag k="place" v="locality" />
		<tag k="ssr:stedsnr" v="916451" />
	</node>
	<node lat="60.468099999237694" lon="10.138666671148254" id="-14707">
		<tag k="alt_name" v="Furutopphaugen" />
		<tag k="fixme" v="consider natural=peak for the most distinct mountains in the district" />
		<tag k="name" v="Furutopphøgda" />
		<tag k="natural" v="hill" />
		<tag k="place" v="locality" />
		<tag k="ssr:stedsnr" v="916577" />
	</node>
	<node lat="60.25393611215255" lon="9.799577785264047" id="-14712">
		<tag k="name" v="Havikkollen" />
		<tag k="natural" v="hill" />
		<tag k="place" v="locality" />
		<tag k="ssr:stedsnr" v="917738" />
	</node>
	<node lat="60.26007500225829" lon="9.773675001931274" id="-14713">
		<tag k="alt_name" v="Breidliåsen" />
		<tag k="name" v="Breiliåsen" />
		<tag k="natural" v="hill" />
		<tag k="place" v="locality" />
		<tag k="ssr:stedsnr" v="917740" />
	</node>
	<node lat="60.56241111229886" lon="10.027405561777718" id="-14716">
		<tag k="name" v="Munkhattkollen" />
		<tag k="natural" v="hill" />
		<tag k="place" v="locality" />
		<tag k="ssr:stedsnr" v="917594" />
	</node>
	<node lat="60.56093333311097" lon="9.913463894182424" id="-14718">
		<tag k="name" v="Vårlia" />
		<tag k="natural" v="slope" />
		<tag k="place" v="locality" />
		<tag k="ssr:stedsnr" v="917842" />
	</node>
	<node lat="60.55990833024869" lon="9.966461102123674" id="-14721">
		<tag k="fixme" v="consider natural=peak for the most distinct mountains in the district" />
		<tag k="name" v="Bestemorberget" />
		<tag k="natural" v="hill" />
		<tag k="place" v="locality" />
		<tag k="ssr:stedsnr" v="814592" />
	</node>
	<node lat="60.38075833438476" lon="10.160513884787315" id="-14726">
		<tag k="name" v="Dragdalen" />
		<tag k="natural" v="valley" />
		<tag k="place" v="locality" />
		<tag k="ssr:stedsnr" v="815220" />
	</node>
	<node lat="60.19978055608035" lon="10.32582777233098" id="-14733">
		<tag k="name" v="Bakkemoen" />
		<tag k="place" v="locality" />
		<tag k="ssr:stedsnr" v="815778" />
	</node>
	<node lat="60.531119442408574" lon="10.031847231040292" id="-14735">
		<tag k="name" v="Åtedalen" />
		<tag k="natural" v="valley" />
		<tag k="place" v="locality" />
		<tag k="ssr:stedsnr" v="815892" />
	</node>
	<node lat="60.329397225939346" lon="10.149755558479697" id="-14738">
		<tag k="fixme" v="consider natural=peak for the most distinct mountains in the district" />
		<tag k="name" v="Finnsandkollen" />
		<tag k="natural" v="hill" />
		<tag k="place" v="locality" />
		<tag k="ssr:stedsnr" v="815980" />
	</node>
	<node lat="60.44029166814655" lon="10.047983334765917" id="-14742">
		<tag k="name" v="Dalene" />
		<tag k="natural" v="slope" />
		<tag k="place" v="locality" />
		<tag k="ssr:stedsnr" v="817656" />
	</node>
	<node lat="60.37632222076642" lon="9.900966659738426" id="-14745">
		<tag k="name" v="Juvet" />
		<tag k="natural" v="cliff" />
		<tag k="ssr:stedsnr" v="818025" />
	</node>
	<node lat="60.49069721876315" lon="10.005547229060365" id="-14746">
		<tag k="name" v="Kolsrudlia" />
		<tag k="natural" v="slope" />
		<tag k="place" v="locality" />
		<tag k="ssr:stedsnr" v="818218" />
	</node>
	<node lat="60.480075004229036" lon="10.006766665202372" id="-14747">
		<tag k="name" v="Kastet" />
		<tag k="place" v="locality" />
		<tag k="ssr:stedsnr" v="818220" />
	</node>
	<node lat="60.483211108695514" lon="9.988358332805431" id="-14749">
		<tag k="name" v="Smilihaugen" />
		<tag k="natural" v="hill" />
		<tag k="place" v="locality" />
		<tag k="ssr:stedsnr" v="818191" />
	</node>
	<node lat="60.5795666642108" lon="9.883369445777422" id="-14756">
		<tag k="name" v="Veslefjellhytta" />
		<tag k="place" v="locality" />
		<tag k="ssr:stedsnr" v="818973" />
	</node>
	<node lat="60.36121388802725" lon="9.852694437123825" id="-14765">
		<tag k="name" v="Rensleberget" />
		<tag k="natural" v="cliff" />
		<tag k="ssr:stedsnr" v="819984" />
	</node>
	<node lat="60.460408330518575" lon="9.87472499713237" id="-14775">
		<tag k="alt_name" v="Rolifjell" />
		<tag k="fixme" v="consider natural=peak for the most distinct mountains in the district" />
		<tag k="loc_name" v="Roligfjell" />
		<tag k="name" v="Roligfjellet" />
		<tag k="natural" v="hill" />
		<tag k="place" v="locality" />
		<tag k="ssr:stedsnr" v="842893" />
	</node>
	<node lat="60.23470489397235" lon="9.754319393706446" id="-14779">
		<tag k="fixme" v="consider natural=peak for the most distinct mountains in the district" />
		<tag k="name" v="Høgnipa" />
		<tag k="natural" v="hill" />
		<tag k="place" v="locality" />
		<tag k="ssr:stedsnr" v="854208" />
	</node>
	<node lat="60.10267499640154" lon="9.980833336922721" id="-14787">
		<tag k="fixme" v="consider natural=peak for the most distinct mountains in the district" />
		<tag k="name" v="Gammalvollsåsen" />
		<tag k="natural" v="hill" />
		<tag k="place" v="locality" />
		<tag k="ssr:stedsnr" v="854720" />
	</node>
	<node lat="60.277583336158955" lon="9.849575005158849" id="-14809">
		<tag k="fixme" v="consider natural=peak for the most distinct mountains in the district" />
		<tag k="name" v="Stillingsåsen" />
		<tag k="natural" v="hill" />
		<tag k="place" v="locality" />
		<tag k="ssr:stedsnr" v="856616" />
	</node>
	<node lat="60.56180833756084" lon="10.09608054715249" id="-14826">
		<tag k="name" v="Gråflein" />
		<tag k="natural" v="hill" />
		<tag k="place" v="locality" />
		<tag k="ssr:stedsnr" v="857530" />
	</node>
	<node lat="60.62180277904185" lon="10.024372225243178" id="-14830">
		<tag k="alt_name" v="Skridudalshøgda" />
		<tag k="name" v="Øvre Skriudalshøgda" />
		<tag k="natural" v="hill" />
		<tag k="place" v="locality" />
		<tag k="ssr:stedsnr" v="931504" />
	</node>
	<node lat="60.20689444246311" lon="10.271405550490355" id="-14837">
		<tag k="name" v="Nedre Snaret" />
		<tag k="place" v="locality" />
		<tag k="ssr:stedsnr" v="876809" />
	</node>
	<node lat="60.11775832882544" lon="10.269388895657453" id="-14838">
		<tag k="name" v="Bergerhaugen" />
		<tag k="natural" v="hill" />
		<tag k="place" v="locality" />
		<tag k="ssr:stedsnr" v="876907" />
	</node>
	<node lat="60.548499999080256" lon="10.072408333124766" id="-14839">
		<tag k="name" v="Nedre Puttedalen" />
		<tag k="natural" v="valley" />
		<tag k="place" v="locality" />
		<tag k="ssr:stedsnr" v="877516" />
	</node>
	<node lat="60.284830555994866" lon="10.087338882069076" id="-14847">
		<tag k="name" v="Bjørnebakken" />
		<tag k="natural" v="slope" />
		<tag k="place" v="locality" />
		<tag k="ssr:stedsnr" v="878908" />
	</node>
	<node lat="60.3021500027393" lon="10.105558337226924" id="-14848">
		<tag k="name" v="Hyttedalen" />
		<tag k="natural" v="valley" />
		<tag k="place" v="locality" />
		<tag k="ssr:stedsnr" v="878913" />
	</node>
	<node lat="60.27403611093609" lon="10.130847230266651" id="-14853">
		<tag k="name" v="Engedalen" />
		<tag k="natural" v="valley" />
		<tag k="place" v="locality" />
		<tag k="ssr:stedsnr" v="878867" />
	</node>
	<node lat="60.46719999884623" lon="9.996836111724555" id="-14856">
		<tag k="name" v="Åteskåra" />
		<tag k="natural" v="cliff" />
		<tag k="ssr:stedsnr" v="879167" />
	</node>
	<node lat="60.46710555771877" lon="9.998652776954774" id="-14857">
		<tag k="name" v="Tutarberget" />
		<tag k="natural" v="hill" />
		<tag k="place" v="locality" />
		<tag k="ssr:stedsnr" v="879168" />
	</node>
	<node lat="60.183769440924074" lon="9.866574999356365" id="-14859">
		<tag k="fixme" v="consider natural=peak for the most distinct mountains in the district" />
		<tag k="name" v="Flagbråtaåsen" />
		<tag k="natural" v="hill" />
		<tag k="place" v="locality" />
		<tag k="ssr:stedsnr" v="879703" />
	</node>
	<node lat="60.23178611272146" lon="9.895572230119297" id="-14862">
		<tag k="name" v="Fintall" />
		<tag k="natural" v="slope" />
		<tag k="place" v="locality" />
		<tag k="ssr:stedsnr" v="879717" />
	</node>
	<node lat="60.31488333758523" lon="9.738652772374266" id="-14865">
		<tag k="name" v="Hauglia" />
		<tag k="natural" v="slope" />
		<tag k="place" v="locality" />
		<tag k="ssr:stedsnr" v="879760" />
	</node>
	<node lat="60.53606111086609" lon="9.911744435365996" id="-14866">
		<tag k="name" v="Bjørnhugulia" />
		<tag k="natural" v="slope" />
		<tag k="old_name" v="Bjørhhugulia" />
		<tag k="place" v="locality" />
		<tag k="ssr:stedsnr" v="879767" />
	</node>
	<node lat="60.29803610889172" lon="9.787249999793701" id="-14868">
		<tag k="name" v="Milebråtabrenna" />
		<tag k="natural" v="slope" />
		<tag k="place" v="locality" />
		<tag k="ssr:stedsnr" v="879860" />
	</node>
	<node lat="60.60923055504495" lon="10.002236105543346" id="-14871">
		<tag k="name" v="Gampedalen" />
		<tag k="natural" v="valley" />
		<tag k="place" v="locality" />
		<tag k="ssr:stedsnr" v="879813" />
	</node>
	<node lat="60.18187449773619" lon="9.926752271767022" id="-14892">
		<tag k="alt_name" v="Spillhaugkollen" />
		<tag k="fixme" v="consider natural=peak for the most distinct mountains in the district" />
		<tag k="name" v="Spelhaugkollen" />
		<tag k="natural" v="hill" />
		<tag k="place" v="locality" />
		<tag k="ssr:stedsnr" v="915123" />
	</node>
	<node lat="60.15573055652742" lon="10.115180549766027" id="-14908">
		<tag k="name" v="Møssmørberget" />
		<tag k="natural" v="ridge" />
		<tag k="place" v="locality" />
		<tag k="ssr:stedsnr" v="915627" />
	</node>
	<node lat="60.05792222227989" lon="10.53871944625708" id="-14911">
		<tag k="alt_name" v="Gopletjernsåsen" />
		<tag k="fixme" v="consider natural=peak for the most distinct mountains in the district" />
		<tag k="name" v="Gopletjernåsen" />
		<tag k="natural" v="hill" />
		<tag k="place" v="locality" />
		<tag k="ssr:stedsnr" v="916221" />
	</node>
	<node lat="60.33490302116925" lon="10.161048647210722" id="-14917">
		<tag k="fixme" v="consider natural=peak for the most distinct mountains in the district" />
		<tag k="name" v="Somdalskollen" />
		<tag k="natural" v="hill" />
		<tag k="place" v="locality" />
		<tag k="ssr:stedsnr" v="916466" />
	</node>
	<node lat="60.32597777488007" lon="10.145452769648147" id="-14919">
		<tag k="fixme" v="consider natural=peak for the most distinct mountains in the district" />
		<tag k="name" v="Fluråsen" />
		<tag k="natural" v="hill" />
		<tag k="place" v="locality" />
		<tag k="ssr:stedsnr" v="916476" />
	</node>
	<node lat="60.49356944584683" lon="10.107786118355994" id="-14927">
		<tag k="alt_name" v="Skagnestjernshøgda" />
		<tag k="fixme" v="consider natural=peak for the most distinct mountains in the district" />
		<tag k="name" v="Skagnestjernhøgda" />
		<tag k="natural" v="hill" />
		<tag k="place" v="locality" />
		<tag k="ssr:stedsnr" v="916761" />
	</node>
	<node lat="60.353074997844345" lon="9.871630563213913" id="-14928">
		<tag k="fixme" v="consider natural=peak for the most distinct mountains in the district" />
		<tag k="name" v="Snaråsen" />
		<tag k="natural" v="hill" />
		<tag k="place" v="locality" />
		<tag k="ssr:stedsnr" v="916784" />
	</node>
	<node lat="60.6320552472261" lon="10.035317250569499" id="-14942">
		<tag k="fixme" v="consider natural=peak for the most distinct mountains in the district" />
		<tag k="name" v="Øyvasskollen" />
		<tag k="natural" v="hill" />
		<tag k="place" v="locality" />
		<tag k="ssr:stedsnr" v="917607" />
	</node>
	<node lat="60.547377781421915" lon="10.042124996665079" id="-14944">
		<tag k="name" v="Fåsteinhaugen" />
		<tag k="natural" v="hill" />
		<tag k="place" v="locality" />
		<tag k="ssr:stedsnr" v="917529" />
	</node>
	<node lat="60.57368332968807" lon="10.053938887977955" id="-14945">
		<tag k="fixme" v="consider natural=peak for the most distinct mountains in the district" />
		<tag k="name" v="Tannfjell" />
		<tag k="natural" v="hill" />
		<tag k="place" v="locality" />
		<tag k="ssr:stedsnr" v="917554" />
	</node>
	<node lat="60.38578333550678" lon="9.849683340091447" id="-14947">
		<tag k="fixme" v="consider natural=peak for the most distinct mountains in the district" />
		<tag k="name" v="Beintannåsen" />
		<tag k="natural" v="hill" />
		<tag k="place" v="locality" />
		<tag k="ssr:stedsnr" v="917773" />
	</node>
	<node lat="60.13093611524327" lon="10.310788890238474" id="-14955">
		<tag k="name" v="Ringkollen" />
		<tag k="natural" v="hill" />
		<tag k="place" v="locality" />
		<tag k="ssr:stedsnr" v="936104" />
	</node>
	<node lat="60.22020555947237" lon="9.768374999234226" id="-14961">
		<tag k="fixme" v="consider natural=peak for the most distinct mountains in the district" />
		<tag k="name" v="Aureåsen" />
		<tag k="natural" v="hill" />
		<tag k="place" v="locality" />
		<tag k="ssr:stedsnr" v="936283" />
	</node>
	<node lat="60.102461114757695" lon="10.56943610259921" id="-14962">
		<tag k="fixme" v="consider natural=peak for the most distinct mountains in the district" />
		<tag k="name" v="Løkmyråsen" />
		<tag k="natural" v="hill" />
		<tag k="place" v="locality" />
		<tag k="ssr:stedsnr" v="936407" />
	</node>
	<node lat="60.27162777409013" lon="10.301144449283646" id="-14965">
		<tag k="name" v="Gørrtjernlia" />
		<tag k="natural" v="slope" />
		<tag k="place" v="locality" />
		<tag k="ssr:stedsnr" v="936785" />
	</node>
	<node lat="60.39476944279822" lon="10.191541657912813" id="-14967">
		<tag k="name" v="Sørenseterdalen" />
		<tag k="natural" v="valley" />
		<tag k="place" v="locality" />
		<tag k="ssr:stedsnr" v="937303" />
	</node>
	<node lat="60.173352777940735" lon="10.16135832919484" id="-14968">
		<tag k="fixme" v="consider natural=peak for the most distinct mountains in the district" />
		<tag k="name" v="Heieråsen" />
		<tag k="natural" v="hill" />
		<tag k="place" v="locality" />
		<tag k="ssr:stedsnr" v="937385" />
	</node>
	<node lat="60.1216055533679" lon="10.454691673235008" id="-14970">
		<tag k="name" v="Persbråtakastet" />
		<tag k="natural" v="cliff" />
		<tag k="ssr:stedsnr" v="937517" />
	</node>
	<node lat="60.52184444548946" lon="10.032863884760186" id="-14971">
		<tag k="name" v="Nilsebråtasnaret" />
		<tag k="natural" v="slope" />
		<tag k="place" v="locality" />
		<tag k="ssr:stedsnr" v="937903" />
	</node>
	<node lat="60.143213889315206" lon="10.28797499166307" id="-14972">
		<tag k="name" v="Lisletta" />
		<tag k="place" v="locality" />
		<tag k="ssr:stedsnr" v="937904" />
	</node>
	<node lat="60.33654721806449" lon="10.152833341501186" id="-14976">
		<tag k="fixme" v="consider natural=peak for the most distinct mountains in the district" />
		<tag k="name" v="Lusdalskollen" />
		<tag k="natural" v="hill" />
		<tag k="place" v="locality" />
		<tag k="ssr:stedsnr" v="937980" />
	</node>
	<node lat="60.58858888891614" lon="10.071586102611734" id="-14978">
		<tag k="name" v="Moltehalsen" />
		<tag k="natural" v="ridge" />
		<tag k="place" v="locality" />
		<tag k="ssr:stedsnr" v="938542" />
	</node>
	<node lat="60.351286115514256" lon="9.919155547473007" id="-14980">
		<tag k="name" v="Hegra" />
		<tag k="natural" v="hill" />
		<tag k="place" v="locality" />
		<tag k="ssr:stedsnr" v="939003" />
	</node>
	<node lat="60.117577778146085" lon="10.07835000267436" id="-14981">
		<tag k="name" v="Blokkhaugen" />
		<tag k="natural" v="hill" />
		<tag k="place" v="locality" />
		<tag k="ssr:stedsnr" v="939009" />
	</node>
	<node lat="60.36458888875156" lon="10.0200805597645" id="-14982">
		<tag k="name" v="Nordre Rokotjern" />
		<tag k="natural" v="gorge" />
		<tag k="ssr:stedsnr" v="939019" />
	</node>
	<node lat="60.18920277346789" lon="9.992844444057454" id="-14984">
		<tag k="fixme" v="consider natural=peak for the most distinct mountains in the district" />
		<tag k="name" v="Tubbemyråsen" />
		<tag k="natural" v="hill" />
		<tag k="place" v="locality" />
		<tag k="ssr:stedsnr" v="939386" />
	</node>
	<node lat="60.33536388601846" lon="9.81054165965277" id="-14989">
		<tag k="name" v="Milebråtalunnestaden" />
		<tag k="place" v="locality" />
		<tag k="ssr:stedsnr" v="939538" />
	</node>
	<node lat="60.339433336710385" lon="9.822055558125207" id="-14990">
		<tag k="name" v="Andersrudbråtan" />
		<tag k="natural" v="slope" />
		<tag k="place" v="locality" />
		<tag k="ssr:stedsnr" v="939540" />
	</node>
	<node lat="60.254013886770906" lon="9.98950554865262" id="-14991">
		<tag k="name" v="Åmotdalen" />
		<tag k="natural" v="valley" />
		<tag k="place" v="locality" />
		<tag k="ssr:stedsnr" v="939542" />
	</node>
	<node lat="60.29888888490388" lon="9.821019443190817" id="-14992">
		<tag k="name" v="Martemyrdalen" />
		<tag k="natural" v="valley" />
		<tag k="place" v="locality" />
		<tag k="ssr:stedsnr" v="939588" />
	</node>
	<node lat="60.370619443889076" lon="10.116355548059405" id="-14993">
		<tag k="name" v="Gjertrudshaugen" />
		<tag k="natural" v="hill" />
		<tag k="place" v="locality" />
		<tag k="ssr:stedsnr" v="939599" />
	</node>
	<node lat="60.44608888911894" lon="10.095461111092204" id="-14994">
		<tag k="name" v="Jonebråten" />
		<tag k="natural" v="slope" />
		<tag k="place" v="locality" />
		<tag k="ssr:stedsnr" v="939690" />
	</node>
	<node lat="60.448341667844616" lon="10.086866671459642" id="-14996">
		<tag k="name" v="Valdreskleiva" />
		<tag k="natural" v="slope" />
		<tag k="place" v="locality" />
		<tag k="ssr:stedsnr" v="939696" />
	</node>
	<node lat="60.62986666936371" lon="9.998380560528988" id="-15001">
		<tag k="name" v="Tørrsjøseterbråta" />
		<tag k="natural" v="slope" />
		<tag k="place" v="locality" />
		<tag k="ssr:stedsnr" v="939837" />
	</node>
	<node lat="60.58989166781086" lon="9.931133335740851" id="-15004">
		<tag k="name" v="Rognebråtadalen" />
		<tag k="natural" v="valley" />
		<tag k="place" v="locality" />
		<tag k="ssr:stedsnr" v="939843" />
	</node>
	<node lat="60.27820833049995" lon="10.112949998538747" id="-15005">
		<tag k="fixme" v="consider natural=peak for the most distinct mountains in the district" />
		<tag k="name" v="Bukkebråten" />
		<tag k="natural" v="hill" />
		<tag k="place" v="locality" />
		<tag k="ssr:stedsnr" v="939844" />
	</node>
	<node lat="60.30086944509806" lon="10.08534445217454" id="-15007">
		<tag k="name" v="Storeflåen" />
		<tag k="place" v="locality" />
		<tag k="ssr:stedsnr" v="939889" />
	</node>
	<node lat="60.30349722513957" lon="10.09449999700758" id="-15008">
		<tag k="name" v="Angersklev" />
		<tag k="natural" v="slope" />
		<tag k="place" v="locality" />
		<tag k="ssr:stedsnr" v="939892" />
	</node>
	<node lat="60.14982157599579" lon="10.216123059117024" id="-15040">
		<tag k="name" v="Styggdalsbakken" />
		<tag k="natural" v="slope" />
		<tag k="place" v="locality" />
		<tag k="ssr:stedsnr" v="984720" />
	</node>
	<node lat="60.22061944251692" lon="10.069202769036307" id="-15071">
		<tag k="name" v="Snaukollen" />
		<tag k="natural" v="hill" />
		<tag k="place" v="locality" />
		<tag k="ssr:stedsnr" v="4500" />
	</node>
	<node lat="60.17351944668055" lon="10.00722500170176" id="-15072">
		<tag k="alt_name" v="Sæteråsen" />
		<tag k="fixme" v="consider natural=peak for the most distinct mountains in the district" />
		<tag k="name" v="Seteråsen" />
		<tag k="natural" v="hill" />
		<tag k="place" v="locality" />
		<tag k="ssr:stedsnr" v="4565" />
	</node>
	<node lat="60.19514999580058" lon="9.846175003648787" id="-15074">
		<tag k="fixme" v="consider natural=peak for the most distinct mountains in the district" />
		<tag k="name" v="Gampåsen" />
		<tag k="natural" v="hill" />
		<tag k="place" v="locality" />
		<tag k="ssr:stedsnr" v="4140" />
	</node>
	<node lat="60.08585277797585" lon="10.048516672203396" id="-15081">
		<tag k="fixme" v="consider natural=peak for the most distinct mountains in the district" />
		<tag k="name" v="Pjåkåsen" />
		<tag k="natural" v="hill" />
		<tag k="place" v="locality" />
		<tag k="ssr:stedsnr" v="4300" />
	</node>
	<node lat="60.39637500170571" lon="9.976863896307364" id="-15086">
		<tag k="alt_name" v="Blankvannskollen" />
		<tag k="name" v="Blankvasskollen" />
		<tag k="natural" v="hill" />
		<tag k="place" v="locality" />
		<tag k="ssr:stedsnr" v="6299" />
	</node>
	<node lat="60.15266944268494" lon="9.987711117912752" id="-15088">
		<tag k="fixme" v="consider natural=peak for the most distinct mountains in the district" />
		<tag k="name" v="Flaget" />
		<tag k="natural" v="hill" />
		<tag k="place" v="locality" />
		<tag k="ssr:stedsnr" v="4637" />
	</node>
	<node lat="60.102174997926284" lon="10.076841666406196" id="-15092">
		<tag k="fixme" v="consider natural=peak for the most distinct mountains in the district" />
		<tag k="name" v="Knarten" />
		<tag k="natural" v="hill" />
		<tag k="place" v="locality" />
		<tag k="ssr:stedsnr" v="4755" />
	</node>
	<node lat="60.112941670049494" lon="10.55196111781283" id="-15093">
		<tag k="fixme" v="consider natural=peak for the most distinct mountains in the district" />
		<tag k="name" v="Ormtjernhøgda" />
		<tag k="natural" v="hill" />
		<tag k="place" v="locality" />
		<tag k="ssr:stedsnr" v="5188" />
	</node>
	<node lat="60.06825555248319" lon="10.546855556519935" id="-15098">
		<tag k="name" v="Stuevassdalen" />
		<tag k="natural" v="valley" />
		<tag k="place" v="locality" />
		<tag k="ssr:stedsnr" v="5236" />
	</node>
	<node lat="60.02750832902839" lon="10.49617221785149" id="-15105">
		<tag k="name" v="Dammyrdalen" />
		<tag k="natural" v="valley" />
		<tag k="place" v="locality" />
		<tag k="ssr:stedsnr" v="5988" />
	</node>
	<node lat="60.42698332958342" lon="10.114072215194778" id="-15107">
		<tag k="name" v="Holmetjernsbrenna" />
		<tag k="natural" v="hill" />
		<tag k="place" v="locality" />
		<tag k="ssr:stedsnr" v="6373" />
	</node>
	<node lat="60.461761113486105" lon="10.147775008354552" id="-15116">
		<tag k="alt_name" v="Steintjernshaugen" />
		<tag k="fixme" v="consider natural=peak for the most distinct mountains in the district" />
		<tag k="name" v="Steintjernshøgda" />
		<tag k="natural" v="hill" />
		<tag k="place" v="locality" />
		<tag k="ssr:stedsnr" v="6572" />
	</node>
	<node lat="60.3016666626558" lon="10.258963885954836" id="-15121">
		<tag k="name" v="Pålsbråtahøgda" />
		<tag k="natural" v="hill" />
		<tag k="place" v="locality" />
		<tag k="ssr:stedsnr" v="6411" />
	</node>
	<node lat="60.29655198293779" lon="9.708288695701478" id="-15131">
		<tag k="fixme" v="consider natural=peak for the most distinct mountains in the district" />
		<tag k="name" v="Dugurdsnatten" />
		<tag k="natural" v="hill" />
		<tag k="place" v="locality" />
		<tag k="ssr:stedsnr" v="6844" />
	</node>
	<node lat="60.296583336542774" lon="9.842483341212537" id="-15133">
		<tag k="name" v="Eivindbråtan" />
		<tag k="natural" v="slope" />
		<tag k="place" v="locality" />
		<tag k="ssr:stedsnr" v="6694" />
	</node>
	<node lat="60.36558055799531" lon="9.852458334121353" id="-15136">
		<tag k="name" v="Åmotskollen" />
		<tag k="natural" v="hill" />
		<tag k="place" v="locality" />
		<tag k="ssr:stedsnr" v="6756" />
	</node>
	<node lat="60.50753333551711" lon="9.86396111114634" id="-15137">
		<tag k="fixme" v="consider natural=peak for the most distinct mountains in the district" />
		<tag k="name" v="Treknatten" />
		<tag k="natural" v="hill" />
		<tag k="place" v="locality" />
		<tag k="ssr:stedsnr" v="6759" />
	</node>
	<node lat="60.351008330598575" lon="9.893141665597454" id="-15143">
		<tag k="fixme" v="consider natural=peak for the most distinct mountains in the district" />
		<tag k="name" v="Bågåtjernåsen" />
		<tag k="natural" v="hill" />
		<tag k="place" v="locality" />
		<tag k="ssr:stedsnr" v="6856" />
	</node>
	<node lat="60.39683055628701" lon="10.1750388850043" id="-15159">
		<tag k="name" v="Urdtjernsjuvet" />
		<tag k="natural" v="gorge" />
		<tag k="ssr:stedsnr" v="25439" />
	</node>
	<node lat="60.35006666736153" lon="10.151477786352139" id="-15169">
		<tag k="name" v="Ormekastlia" />
		<tag k="natural" v="slope" />
		<tag k="place" v="locality" />
		<tag k="ssr:stedsnr" v="26235" />
	</node>
	<node lat="60.372072222606526" lon="10.140380561074355" id="-15172">
		<tag k="name" v="Brålibrenna" />
		<tag k="natural" v="slope" />
		<tag k="place" v="locality" />
		<tag k="ssr:stedsnr" v="26267" />
	</node>
	<node lat="60.21585277959002" lon="10.211836111180581" id="-15173">
		<tag k="name" v="Engehaugen" />
		<tag k="natural" v="hill" />
		<tag k="place" v="locality" />
		<tag k="ssr:stedsnr" v="26439" />
	</node>
	<node lat="60.21350833374266" lon="10.348572220313171" id="-15176">
		<tag k="name" v="Aslaksrudmoen" />
		<tag k="place" v="locality" />
		<tag k="ssr:stedsnr" v="26744" />
	</node>
	<node lat="60.42653055566845" lon="10.137574995643705" id="-15184">
		<tag k="name" v="Bukketjernshaugene" />
		<tag k="natural" v="hill" />
		<tag k="place" v="locality" />
		<tag k="ssr:stedsnr" v="26947" />
	</node>
	<node lat="60.42861110770833" lon="10.145163895914562" id="-15186">
		<tag k="name" v="Fisketjernsbrenna" />
		<tag k="natural" v="ridge" />
		<tag k="place" v="locality" />
		<tag k="ssr:stedsnr" v="26958" />
	</node>
	<node lat="60.14469722656458" lon="10.344294450400591" id="-15195">
		<tag k="fixme" v="consider natural=peak for the most distinct mountains in the district" />
		<tag k="name" v="Trehørningsåsen" />
		<tag k="natural" v="hill" />
		<tag k="place" v="locality" />
		<tag k="ssr:stedsnr" v="27648" />
	</node>
	<node lat="60.15014444468051" lon="10.337552786422853" id="-15196">
		<tag k="name" v="Norddal" />
		<tag k="natural" v="valley" />
		<tag k="place" v="locality" />
		<tag k="ssr:stedsnr" v="27659" />
	</node>
	<node lat="60.42894721984034" lon="10.05993610676388" id="-15200">
		<tag k="name" v="Eftasbråtene" />
		<tag k="natural" v="slope" />
		<tag k="place" v="locality" />
		<tag k="ssr:stedsnr" v="28438" />
	</node>
	<node lat="60.426422220866094" lon="10.036074997990305" id="-15201">
		<tag k="name" v="Djupedal" />
		<tag k="natural" v="valley" />
		<tag k="place" v="locality" />
		<tag k="ssr:stedsnr" v="28463" />
	</node>
	<node lat="60.429658333671156" lon="10.033236117894788" id="-15202">
		<tag k="name" v="Storbråten" />
		<tag k="natural" v="slope" />
		<tag k="place" v="locality" />
		<tag k="ssr:stedsnr" v="28466" />
	</node>
	<node lat="60.39538888799901" lon="10.052094440479005" id="-15203">
		<tag k="name" v="Gullhaugen" />
		<tag k="natural" v="hill" />
		<tag k="place" v="locality" />
		<tag k="ssr:stedsnr" v="28531" />
	</node>
	<node lat="60.59533888541509" lon="10.047925004246784" id="-15204">
		<tag k="name" v="Gravlimoseterdalen" />
		<tag k="natural" v="valley" />
		<tag k="place" v="locality" />
		<tag k="ssr:stedsnr" v="28546" />
	</node>
	<node lat="60.60107321413287" lon="10.041654201920348" id="-15205">
		<tag k="name" v="Hengsleseterhallene" />
		<tag k="place" v="locality" />
		<tag k="ssr:stedsnr" v="28549" />
	</node>
	<node lat="60.16279722603242" lon="9.95008888537236" id="-15214">
		<tag k="name" v="Spirhalla" />
		<tag k="natural" v="slope" />
		<tag k="place" v="locality" />
		<tag k="ssr:stedsnr" v="29389" />
	</node>
	<node lat="60.37575833768091" lon="9.829897228097249" id="-15221">
		<tag k="name" v="Sagkollen" />
		<tag k="natural" v="hill" />
		<tag k="place" v="locality" />
		<tag k="ssr:stedsnr" v="29017" />
	</node>
	<node lat="60.37065833669487" lon="9.848444438851844" id="-15224">
		<tag k="name" v="Åmotsdalen" />
		<tag k="natural" v="valley" />
		<tag k="place" v="locality" />
		<tag k="ssr:stedsnr" v="29032" />
	</node>
	<node lat="60.433208331722675" lon="10.012019447287564" id="-15229">
		<tag k="name" v="Heimseterhøgda" />
		<tag k="natural" v="hill" />
		<tag k="place" v="locality" />
		<tag k="ssr:stedsnr" v="29128" />
	</node>
	<node lat="60.46303055297932" lon="9.958194439790152" id="-15233">
		<tag k="name" v="Hesteleina" />
		<tag k="natural" v="slope" />
		<tag k="place" v="locality" />
		<tag k="ssr:stedsnr" v="29185" />
	</node>
	<node lat="60.48028055118433" lon="9.998494451446387" id="-15235">
		<tag k="name" v="Torebråten" />
		<tag k="natural" v="slope" />
		<tag k="place" v="locality" />
		<tag k="ssr:stedsnr" v="29197" />
	</node>
	<node lat="60.14986666588658" lon="10.030513880295796" id="-15239">
		<tag k="name" v="Skogsmarka" />
		<tag k="natural" v="slope" />
		<tag k="place" v="locality" />
		<tag k="ssr:stedsnr" v="29156" />
	</node>
	<node lat="60.559794442296074" lon="9.896691662628669" id="-15240">
		<tag k="name" v="Flatbråtabakkane" />
		<tag k="natural" v="slope" />
		<tag k="place" v="locality" />
		<tag k="ssr:stedsnr" v="29285" />
	</node>
	<node lat="60.49606110726493" lon="9.95741389014944" id="-15247">
		<tag k="name" v="Ertsdalen" />
		<tag k="natural" v="valley" />
		<tag k="place" v="locality" />
		<tag k="ssr:stedsnr" v="29653" />
	</node>
	<node lat="60.58955833316365" lon="10.003105557971926" id="-15249">
		<tag k="name" v="Saghaugen" />
		<tag k="natural" v="hill" />
		<tag k="place" v="locality" />
		<tag k="ssr:stedsnr" v="29780" />
	</node>
	<node lat="60.5468861116786" lon="9.91622500412481" id="-15251">
		<tag k="name" v="Knappelvjuvet" />
		<tag k="natural" v="gorge" />
		<tag k="old_name" v="Knappeljuvet" />
		<tag k="ssr:stedsnr" v="29794" />
	</node>
	<node lat="60.549230555432715" lon="9.931516665713275" id="-15252">
		<tag k="name" v="Vindfallbakken" />
		<tag k="natural" v="slope" />
		<tag k="place" v="locality" />
		<tag k="ssr:stedsnr" v="29797" />
	</node>
	<node lat="60.60995555924344" lon="10.00830554672891" id="-15255">
		<tag k="name" v="Gråskurven" />
		<tag k="natural" v="cliff" />
		<tag k="ssr:stedsnr" v="29827" />
	</node>
	<node lat="60.26740833682442" lon="10.122186119051705" id="-15256">
		<tag k="name" v="Kjerstibrenna" />
		<tag k="natural" v="ridge" />
		<tag k="place" v="locality" />
		<tag k="ssr:stedsnr" v="29845" />
	</node>
	<node lat="60.34068889321901" lon="10.04427778140303" id="-15261">
		<tag k="name" v="Seterdalen" />
		<tag k="natural" v="valley" />
		<tag k="place" v="locality" />
		<tag k="ssr:stedsnr" v="29928" />
	</node>
	<node lat="60.34136944155391" lon="10.060200000371129" id="-15262">
		<tag k="name" v="Gampedalen" />
		<tag k="natural" v="valley" />
		<tag k="place" v="locality" />
		<tag k="ssr:stedsnr" v="29932" />
	</node>
	<node lat="60.3400444480514" lon="10.107597224274341" id="-15267">
		<tag k="name" v="Moberget" />
		<tag k="natural" v="hill" />
		<tag k="place" v="locality" />
		<tag k="ssr:stedsnr" v="29962" />
	</node>
	<node lat="60.209766670838036" lon="9.873372221652245" id="-15270">
		<tag k="name" v="Damhaugen" />
		<tag k="natural" v="hill" />
		<tag k="place" v="locality" />
		<tag k="ssr:stedsnr" v="30140" />
	</node>
	<node lat="60.36390833367826" lon="9.849791669426995" id="-15276">
		<tag k="name" v="Gabriellia" />
		<tag k="natural" v="slope" />
		<tag k="place" v="locality" />
		<tag k="ssr:stedsnr" v="30982" />
	</node>
	<node lat="60.15308888475107" lon="10.424825000452993" id="-15283">
		<tag k="alt_name" v="Rughaug" />
		<tag k="fixme" v="consider natural=peak for the most distinct mountains in the district" />
		<tag k="name" v="Rughaugen" />
		<tag k="natural" v="hill" />
		<tag k="place" v="locality" />
		<tag k="ssr:stedsnr" v="54013" />
	</node>
	<node lat="60.45112221961107" lon="9.896422218667295" id="-15284">
		<tag k="name" v="Skjelvebekklia" />
		<tag k="natural" v="slope" />
		<tag k="place" v="locality" />
		<tag k="ssr:stedsnr" v="55342" />
	</node>
	<node lat="60.184774997350274" lon="10.11909722578751" id="-15305">
		<tag k="name" v="Tronrudkollen" />
		<tag k="natural" v="hill" />
		<tag k="place" v="locality" />
		<tag k="ssr:stedsnr" v="65551" />
	</node>
	<node lat="60.11572778048648" lon="10.4531166636495" id="-15308">
		<tag k="name" v="Sandviksdalen" />
		<tag k="natural" v="valley" />
		<tag k="place" v="locality" />
		<tag k="ssr:stedsnr" v="66182" />
	</node>
	<node lat="60.38996388444979" lon="10.03048610920426" id="-15309">
		<tag k="fixme" v="consider natural=peak for the most distinct mountains in the district" />
		<tag k="name" v="Ringerudkollen" />
		<tag k="natural" v="hill" />
		<tag k="place" v="locality" />
		<tag k="ssr:stedsnr" v="66468" />
	</node>
	<node lat="60.245688888509555" lon="10.159261112525027" id="-15314">
		<tag k="name" v="Ådalen" />
		<tag k="natural" v="valley" />
		<tag k="place" v="locality" />
		<tag k="ssr:stedsnr" v="65988" />
	</node>
	<node lat="60.13762221800743" lon="10.55059167337538" id="-15317">
		<tag k="fixme" v="consider natural=peak for the most distinct mountains in the district" />
		<tag k="name" v="Brentebråtåsen" />
		<tag k="natural" v="hill" />
		<tag k="place" v="locality" />
		<tag k="ssr:stedsnr" v="66106" />
	</node>
	<node lat="60.085741663155616" lon="10.54261388405608" id="-15319">
		<tag k="name" v="Smeddalen" />
		<tag k="natural" v="valley" />
		<tag k="place" v="locality" />
		<tag k="ssr:stedsnr" v="66128" />
	</node>
	<node lat="60.1285194430153" lon="10.512347222595611" id="-15320">
		<tag k="fixme" v="consider natural=peak for the most distinct mountains in the district" />
		<tag k="name" v="Bleiksjøflaka" />
		<tag k="natural" v="hill" />
		<tag k="place" v="locality" />
		<tag k="ssr:stedsnr" v="66081" />
	</node>
	<node lat="60.079166670687904" lon="10.436105549310716" id="-15322">
		<tag k="fixme" v="consider natural=peak for the most distinct mountains in the district" />
		<tag k="name" v="Nybrenna" />
		<tag k="natural" v="hill" />
		<tag k="place" v="locality" />
		<tag k="ssr:stedsnr" v="66235" />
	</node>
	<node lat="60.48047499605743" lon="10.132569436056537" id="-15329">
		<tag k="fixme" v="consider natural=peak for the most distinct mountains in the district" />
		<tag k="name" v="Marivollhøgda" />
		<tag k="natural" v="hill" />
		<tag k="place" v="locality" />
		<tag k="ssr:stedsnr" v="66692" />
	</node>
	<node lat="60.33249166507789" lon="10.199616674457921" id="-15337">
		<tag k="name" v="Oksebrudalen" />
		<tag k="natural" v="valley" />
		<tag k="place" v="locality" />
		<tag k="ssr:stedsnr" v="67459" />
	</node>
	<node lat="60.33747777488922" lon="10.194566671658677" id="-15338">
		<tag k="alt_name" v="Karterudåsen" />
		<tag k="fixme" v="consider natural=peak for the most distinct mountains in the district" />
		<tag k="name" v="Karteråsen" />
		<tag k="natural" v="hill" />
		<tag k="place" v="locality" />
		<tag k="ssr:stedsnr" v="67460" />
	</node>
	<node lat="60.30640555744143" lon="10.19384445235028" id="-15341">
		<tag k="fixme" v="consider natural=peak for the most distinct mountains in the district" />
		<tag k="name" v="Simarudkollen" />
		<tag k="natural" v="hill" />
		<tag k="place" v="locality" />
		<tag k="ssr:stedsnr" v="67523" />
	</node>
	<node lat="60.43596389070108" lon="10.049813891855083" id="-15346">
		<tag k="fixme" v="consider natural=peak for the most distinct mountains in the district" />
		<tag k="name" v="Strandekollen" />
		<tag k="natural" v="hill" />
		<tag k="place" v="locality" />
		<tag k="ssr:stedsnr" v="67384" />
	</node>
	<node lat="60.31515000180697" lon="9.801524993107625" id="-15348">
		<tag k="name" v="Nybruåsen" />
		<tag k="natural" v="hill" />
		<tag k="place" v="locality" />
		<tag k="ssr:stedsnr" v="67826" />
	</node>
	<node lat="60.29333611346844" lon="9.787913881845808" id="-15352">
		<tag k="name" v="Fugleleikhaugen" />
		<tag k="natural" v="hill" />
		<tag k="place" v="locality" />
		<tag k="ssr:stedsnr" v="67682" />
	</node>
	<node lat="60.45323333093952" lon="9.87647777918973" id="-15355">
		<tag k="name" v="Roligknatten" />
		<tag k="natural" v="hill" />
		<tag k="place" v="locality" />
		<tag k="ssr:stedsnr" v="67908" />
	</node>
	<node lat="60.55229444025144" lon="9.881619452042699" id="-15359">
		<tag k="name" v="Slåttemyrkollen" />
		<tag k="natural" v="hill" />
		<tag k="place" v="locality" />
		<tag k="ssr:stedsnr" v="68841" />
	</node>
	<node lat="60.39882500374838" lon="10.152330550294113" id="-15366">
		<tag k="name" v="Kløfta" />
		<tag k="place" v="locality" />
		<tag k="ssr:stedsnr" v="86442" />
	</node>
	<node lat="60.566538888353286" lon="10.012111118045572" id="-15369">
		<tag k="name" v="Dobbeltlegga" />
		<tag k="natural" v="slope" />
		<tag k="place" v="locality" />
		<tag k="ssr:stedsnr" v="86540" />
	</node>
	<node lat="60.560644446362865" lon="10.017288894570909" id="-15372">
		<tag k="name" v="Hustømmerhaugen" />
		<tag k="natural" v="hill" />
		<tag k="place" v="locality" />
		<tag k="ssr:stedsnr" v="86571" />
	</node>
	<node lat="60.309794441677894" lon="10.195747228795364" id="-15373">
		<tag k="name" v="Bråtaberga" />
		<tag k="natural" v="hill" />
		<tag k="place" v="locality" />
		<tag k="ssr:stedsnr" v="86652" />
	</node>
	<node lat="60.441852774098834" lon="10.167216667763537" id="-15374">
		<tag k="name" v="Kaldalen" />
		<tag k="natural" v="valley" />
		<tag k="place" v="locality" />
		<tag k="ssr:stedsnr" v="86760" />
	</node>
</osm>
