<?xml version="1.0" encoding="UTF-8"?>
<osm version="0.6" generator="osmapis">
	<node lat="60.22894635068539" lon="10.083624262301727" id="-12331">
		<tag k="name" v="Ristjern" />
		<tag k="natural" v="water" />
		<tag k="ssr:stedsnr" v="4519" />
	</node>
	<node lat="60.23335555325693" lon="10.19850277875182" id="-12335">
		<tag k="name" v="Motjern" />
		<tag k="natural" v="water" />
		<tag k="ssr:stedsnr" v="4510" />
	</node>
	<node lat="60.16348611158805" lon="10.491355547606407" id="-12342">
		<tag k="alt_name" v="Auretjernet" />
		<tag k="name" v="Auretjern" />
		<tag k="natural" v="water" />
		<tag k="ssr:stedsnr" v="5004" />
	</node>
	<node lat="60.08510833615" lon="10.364275001693622" id="-12347">
		<tag k="name" v="Skardtjernet" />
		<tag k="natural" v="water" />
		<tag k="ssr:stedsnr" v="5122" />
	</node>
	<node lat="60.13998333462749" lon="10.01631667009241" id="-12350">
		<tag k="name" v="Govletjern" />
		<tag k="natural" v="water" />
		<tag k="ssr:stedsnr" v="5616" />
	</node>
	<node lat="60.3463916705753" lon="10.038516660001475" id="-12352">
		<tag k="alt_name" v="Sætertjern" />
		<tag k="name" v="Setertjern" />
		<tag k="natural" v="water" />
		<tag k="ssr:stedsnr" v="5559" />
	</node>
	<node lat="60.19302777408302" lon="10.310494442921833" id="-12353">
		<tag k="name" v="Randselva" />
		<tag k="ssr:stedsnr" v="5579" />
		<tag k="waterway" v="river" />
	</node>
	<node lat="60.14217500254912" lon="10.052127786481005" id="-12355">
		<tag k="name" v="Butjern" />
		<tag k="natural" v="water" />
		<tag k="ssr:stedsnr" v="5657" />
	</node>
	<node lat="60.414827779510745" lon="10.109297227410714" id="-12356">
		<tag k="alt_name" v="Vestre Kroktjern" />
		<tag k="name" v="Nordre Kroktjern" />
		<tag k="natural" v="water" />
		<tag k="ssr:stedsnr" v="6267" />
	</node>
	<node lat="60.428447223298726" lon="10.120544447296748" id="-12358">
		<tag k="alt_name" v="Langtjerna" />
		<tag k="name" v="Nordre Langtjern" />
		<tag k="natural" v="water" />
		<tag k="ssr:stedsnr" v="6403" />
	</node>
	<node lat="60.32962778061854" lon="10.231875003053885" id="-12360">
		<tag k="name" v="Grevtjern" />
		<tag k="natural" v="water" />
		<tag k="ssr:stedsnr" v="6484" />
	</node>
	<node lat="60.32546944880455" lon="10.135508341491342" id="-12362">
		<tag k="name" v="Kvernbekken" />
		<tag k="ssr:stedsnr" v="6603" />
		<tag k="waterway" v="stream" />
	</node>
	<node lat="60.25108055236342" lon="10.250627772389201" id="-12363">
		<tag k="name" v="Væla" />
		<tag k="ssr:stedsnr" v="6604" />
		<tag k="waterway" v="river" />
	</node>
	<node lat="60.48718332994924" lon="9.986216664471378" id="-12366">
		<tag k="name" v="Svarttjern" />
		<tag k="natural" v="water" />
		<tag k="ssr:stedsnr" v="6724" />
	</node>
	<node lat="60.37967777771065" lon="9.931505551632803" id="-12369">
		<tag k="name" v="Storleinabekken" />
		<tag k="ssr:stedsnr" v="6807" />
		<tag k="waterway" v="stream" />
	</node>
	<node lat="60.32433888548039" lon="9.873163896560031" id="-12370">
		<tag k="name" v="Kroktjern" />
		<tag k="natural" v="water" />
		<tag k="ssr:stedsnr" v="6885" />
	</node>
	<node lat="60.43138055509976" lon="9.860900003879438" id="-12372">
		<tag k="name" v="Sandungen" />
		<tag k="natural" v="water" />
		<tag k="ssr:stedsnr" v="6981" />
	</node>
	<node lat="60.542033335968874" lon="9.880083328869581" id="-12376">
		<tag k="name" v="Storbekken" />
		<tag k="ssr:stedsnr" v="7851" />
		<tag k="waterway" v="stream" />
	</node>
	<node lat="60.52495278016558" lon="9.93606388228633" id="-12377">
		<tag k="alt_name" v="Nordre Knappvannet" />
		<tag k="name" v="Nordre Knappvatnet" />
		<tag k="natural" v="water" />
		<tag k="ssr:stedsnr" v="7856" />
	</node>
	<node lat="60.546649999913754" lon="9.97427778595734" id="-12388">
		<tag k="name" v="Meungen" />
		<tag k="natural" v="water" />
		<tag k="ssr:stedsnr" v="25571" />
		<tag k="water" v="pond" />
	</node>
	<node lat="60.51750833453856" lon="10.133319437480601" id="-12390">
		<tag k="name" v="Roknesodden" />
		<tag k="natural" v="cape" />
		<tag k="ssr:stedsnr" v="26209" />
	</node>
	<node lat="60.49796111208092" lon="10.128069449805533" id="-12391">
		<tag k="name" v="Totjernsbekken" />
		<tag k="ssr:stedsnr" v="26215" />
		<tag k="waterway" v="stream" />
	</node>
	<node lat="60.12643333735497" lon="10.553041670832028" id="-12393">
		<tag k="name" v="Styggedalsbekken" />
		<tag k="ssr:stedsnr" v="26391" />
		<tag k="waterway" v="stream" />
	</node>
	<node lat="60.43043888599045" lon="10.140480548356994" id="-12398">
		<tag k="name" v="Østre Bukketjern" />
		<tag k="natural" v="water" />
		<tag k="ssr:stedsnr" v="26915" />
	</node>
	<node lat="60.39610864844201" lon="10.111071564636719" id="-12402">
		<tag k="name" v="Mummeltjern" />
		<tag k="natural" v="water" />
		<tag k="ssr:stedsnr" v="28173" />
	</node>
	<node lat="60.591988888664225" lon="10.022975001444184" id="-12405">
		<tag k="name" v="Toputta" />
		<tag k="natural" v="water" />
		<tag k="ssr:stedsnr" v="28587" />
	</node>
	<node lat="60.45347499753949" lon="10.063733340465133" id="-12407">
		<tag k="name" v="Grøterudkulpen" />
		<tag k="natural" v="water" />
		<tag k="ssr:stedsnr" v="28675" />
		<tag k="water" v="pond" />
	</node>
	<node lat="60.44093333762476" lon="9.970519453602268" id="-12409">
		<tag k="name" v="Strandeelva" />
		<tag k="ssr:stedsnr" v="29106" />
		<tag k="waterway" v="river" />
	</node>
	<node lat="60.29846110871472" lon="10.01721111052034" id="-12412">
		<tag k="name" v="Stillingsbekken" />
		<tag k="ssr:stedsnr" v="29615" />
		<tag k="waterway" v="stream" />
	</node>
	<node lat="60.54925555919283" lon="9.916327777391905" id="-12416">
		<tag k="name" v="Knappelva" />
		<tag k="ssr:stedsnr" v="29706" />
		<tag k="waterway" v="river" />
	</node>
	<node lat="60.23818669829557" lon="10.139571179400013" id="-12423">
		<tag k="name" v="Gørputten" />
		<tag k="natural" v="water" />
		<tag k="ssr:stedsnr" v="29809" />
	</node>
	<node lat="60.27542222536535" lon="9.8215861118372" id="-12430">
		<tag k="name" v="Langvika" />
		<tag k="natural" v="bay" />
		<tag k="ssr:stedsnr" v="30207" />
	</node>
	<node lat="60.28423333503576" lon="9.76596943783236" id="-12435">
		<tag k="name" v="Setertangen" />
		<tag k="natural" v="cape" />
		<tag k="ssr:stedsnr" v="30865" />
	</node>
	<node lat="60.138858331273894" lon="10.551788881643422" id="-12462">
		<tag k="name" v="Tvetjernputten" />
		<tag k="natural" v="water" />
		<tag k="ssr:stedsnr" v="66103" />
	</node>
	<node lat="60.105350001541076" lon="10.441472226605969" id="-12465">
		<tag k="name" v="Atjern" />
		<tag k="natural" v="water" />
		<tag k="old_name" v="Atjærn" />
		<tag k="ssr:stedsnr" v="66157" />
	</node>
	<node lat="60.13038333008345" lon="10.086824996603871" id="-12470">
		<tag k="name" v="Løken" />
		<tag k="natural" v="water" />
		<tag k="ssr:stedsnr" v="66644" />
	</node>
	<node lat="60.48078055250284" lon="10.007744441476017" id="-12471">
		<tag k="name" v="Vesleelva" />
		<tag k="ssr:stedsnr" v="66697" />
		<tag k="waterway" v="stream" />
	</node>
	<node lat="60.44458611408534" lon="9.920241675354202" id="-12473">
		<tag k="alt_name" v="Malotjernet" />
		<tag k="name" v="Malotjern" />
		<tag k="natural" v="water" />
		<tag k="ssr:stedsnr" v="66883" />
	</node>
	<node lat="60.4249361151598" lon="10.142644440043856" id="-12479">
		<tag k="name" v="Fisketjern" />
		<tag k="natural" v="water" />
		<tag k="ssr:stedsnr" v="67393" />
	</node>
	<node lat="60.28796111198829" lon="9.977208325065677" id="-12480">
		<tag k="alt_name" v="Store Fiskelaustjern" />
		<tag k="name" v="Store Fiskelaustjernet" />
		<tag k="natural" v="water" />
		<tag k="ssr:stedsnr" v="67400" />
	</node>
	<node lat="60.31016389188296" lon="10.088586119743079" id="-12483">
		<tag k="alt_name" v="Listjernet" />
		<tag k="name" v="Listjern" />
		<tag k="natural" v="water" />
		<tag k="ssr:stedsnr" v="67508" />
	</node>
	<node lat="60.31128055502629" lon="10.257900001066464" id="-12485">
		<tag k="name" v="Steinbekken" />
		<tag k="ssr:stedsnr" v="67517" />
		<tag k="waterway" v="stream" />
	</node>
	<node lat="60.522069441436855" lon="10.122694437833697" id="-12494">
		<tag k="name" v="Buholmen" />
		<tag k="place" v="island" />
		<tag k="ssr:stedsnr" v="68495" />
	</node>
	<node lat="60.51769722425739" lon="10.136241659209784" id="-12495">
		<tag k="name" v="Vardhugufjorden" />
		<tag k="natural" v="water" />
		<tag k="ssr:stedsnr" v="68498" />
	</node>
	<node lat="60.1885583356324" lon="10.37280833737073" id="-12503">
		<tag k="name" v="Aurdalsbekken" />
		<tag k="ssr:stedsnr" v="86380" />
		<tag k="waterway" v="stream" />
	</node>
	<node lat="60.12266111109692" lon="10.353127769874297" id="-12504">
		<tag k="name" v="Tangevika" />
		<tag k="natural" v="bay" />
		<tag k="ssr:stedsnr" v="86504" />
	</node>
	<node lat="60.174894447285446" lon="10.28721389090617" id="-12506">
		<tag k="name" v="Hovsenga" />
		<tag k="natural" v="cape" />
		<tag k="ssr:stedsnr" v="86703" />
	</node>
	<node lat="60.33018055855158" lon="10.222155546744125" id="-12507">
		<tag k="name" v="Nordre Seterputt" />
		<tag k="natural" v="water" />
		<tag k="ssr:stedsnr" v="86971" />
	</node>
	<node lat="60.34603333052377" lon="10.217363889303538" id="-12508">
		<tag k="name" v="Allergodtbekken" />
		<tag k="ssr:stedsnr" v="86972" />
		<tag k="waterway" v="stream" />
	</node>
	<node lat="60.58245555269755" lon="10.076233330715848" id="-12509">
		<tag k="name" v="Gravliseterbekken" />
		<tag k="ssr:stedsnr" v="87123" />
		<tag k="waterway" v="stream" />
	</node>
	<node lat="60.125752774956595" lon="10.457305550388481" id="-12512">
		<tag k="name" v="Furuøya" />
		<tag k="place" v="island" />
		<tag k="ssr:stedsnr" v="87473" />
	</node>
	<node lat="60.18575524136121" lon="10.017184574285672" id="-12516">
		<tag k="alt_name" v="Støvernputten" />
		<tag k="loc_name" v="Støverputten" />
		<tag k="name" v="Støverenputten" />
		<tag k="natural" v="water" />
		<tag k="ssr:stedsnr" v="89402" />
		<tag k="water" v="pond" />
	</node>
	<node lat="60.35211110896331" lon="9.923405546434505" id="-12532">
		<tag k="name" v="Steintjern" />
		<tag k="natural" v="water" />
		<tag k="ssr:stedsnr" v="90005" />
	</node>
	<node lat="60.39484722023891" lon="9.893949995742341" id="-12533">
		<tag k="name" v="Puttene" />
		<tag k="natural" v="water" />
		<tag k="ssr:stedsnr" v="90014" />
		<tag k="water" v="pond" />
	</node>
	<node lat="60.3769249993544" lon="10.01656667449082" id="-12534">
		<tag k="name" v="Seterputt" />
		<tag k="natural" v="water" />
		<tag k="ssr:stedsnr" v="90081" />
	</node>
	<node lat="60.33051388662411" lon="10.103902778371715" id="-12536">
		<tag k="name" v="Rapalen" />
		<tag k="natural" v="cape" />
		<tag k="ssr:stedsnr" v="89975" />
	</node>
	<node lat="60.42732499983857" lon="9.840202769329347" id="-12539">
		<tag k="name" v="Kvernputtane" />
		<tag k="natural" v="water" />
		<tag k="ssr:stedsnr" v="90453" />
		<tag k="water" v="pond" />
	</node>
	<node lat="60.497202781414316" lon="10.010863880928156" id="-12540">
		<tag k="name" v="Skarrudvassdammen" />
		<tag k="old_name" v="Skarrusvassdammen" />
		<tag k="ssr:stedsnr" v="90175" />
		<tag k="waterway" v="dam" />
	</node>
	<node lat="60.45946111120645" lon="9.854397218842314" id="-12546">
		<tag k="name" v="Putten" />
		<tag k="natural" v="water" />
		<tag k="ssr:stedsnr" v="90717" />
		<tag k="water" v="pond" />
	</node>
	<node lat="60.48816388999888" lon="9.866252777840183" id="-12547">
		<tag k="name" v="Øvre Deletjern" />
		<tag k="natural" v="water" />
		<tag k="ssr:stedsnr" v="90724" />
	</node>
	<node lat="60.62613888596641" lon="9.963997218110618" id="-12550">
		<tag k="name" v="Rundhølen" />
		<tag k="place" v="locality" />
		<tag k="ssr:stedsnr" v="90903" />
	</node>
	<node lat="60.35844166511717" lon="9.881205561524519" id="-12553">
		<tag k="name" v="Krokbekken" />
		<tag k="ssr:stedsnr" v="90973" />
		<tag k="waterway" v="stream" />
	</node>
	<node lat="60.22031666274529" lon="10.007013895831198" id="-12559">
		<tag k="name" v="Andtjern" />
		<tag k="natural" v="water" />
		<tag k="ssr:stedsnr" v="247478" />
	</node>
	<node lat="60.20007752090518" lon="9.858162262512442" id="-12560">
		<tag k="name" v="Kjostjern" />
		<tag k="natural" v="water" />
		<tag k="ssr:stedsnr" v="247169" />
	</node>
	<node lat="60.24732500323685" lon="9.853650006451852" id="-12562">
		<tag k="name" v="Øvre Trampetjern" />
		<tag k="natural" v="water" />
		<tag k="ssr:stedsnr" v="247228" />
	</node>
	<node lat="60.437261110008365" lon="10.132774999083686" id="-12564">
		<tag k="name" v="Kveldtjern" />
		<tag k="natural" v="water" />
		<tag k="ssr:stedsnr" v="248335" />
	</node>
	<node lat="60.150043196106964" lon="10.329336229821832" id="-12568">
		<tag k="name" v="Grunntjern" />
		<tag k="natural" v="water" />
		<tag k="ssr:stedsnr" v="247618" />
	</node>
	<node lat="60.24052499969961" lon="10.104513885131796" id="-12576">
		<tag k="alt_name" v="Kroktjernet" />
		<tag k="name" v="Kroktjern" />
		<tag k="natural" v="water" />
		<tag k="ssr:stedsnr" v="247985" />
	</node>
	<node lat="60.179180924528595" lon="10.446047882614456" id="-12577">
		<tag k="name" v="Merraputten" />
		<tag k="natural" v="water" />
		<tag k="ssr:stedsnr" v="248031" />
	</node>
	<node lat="60.14381388834489" lon="10.49008333214978" id="-12583">
		<tag k="name" v="Svartdulp" />
		<tag k="natural" v="water" />
		<tag k="ssr:stedsnr" v="248093" />
	</node>
	<node lat="60.14468460542975" lon="10.389828006172182" id="-12584">
		<tag k="alt_name" v="Langtjernet" />
		<tag k="name" v="Langtjern" />
		<tag k="natural" v="water" />
		<tag k="ssr:stedsnr" v="248121" />
	</node>
	<node lat="60.08895892971053" lon="10.443750406908764" id="-12585">
		<tag k="alt_name" v="Nibbitjernet" />
		<tag k="name" v="Nibbitjern" />
		<tag k="natural" v="water" />
		<tag k="ssr:stedsnr" v="248134" />
	</node>
	<node lat="60.09374158227114" lon="10.37311676049302" id="-12590">
		<tag k="alt_name" v="Migartjernet" />
		<tag k="name" v="Migartjern" />
		<tag k="natural" v="water" />
		<tag k="old_name" v="Migertjern" />
		<tag k="ssr:stedsnr" v="248141" />
	</node>
	<node lat="60.3889218714734" lon="9.974280494144695" id="-12594">
		<tag k="alt_name" v="Blankvannet" />
		<tag k="name" v="Blankvatnet" />
		<tag k="natural" v="water" />
		<tag k="ssr:stedsnr" v="248494" />
		<tag k="water" v="lake" />
	</node>
	<node lat="60.45390713128757" lon="10.138039573195872" id="-12595">
		<tag k="alt_name" v="Holmetjernet" />
		<tag k="name" v="Holmetjern" />
		<tag k="natural" v="water" />
		<tag k="ssr:stedsnr" v="248523" />
	</node>
	<node lat="60.45640555577309" lon="10.115694439766841" id="-12597">
		<tag k="alt_name" v="Bjørnlitjernet" />
		<tag k="name" v="Bjørnelitjern" />
		<tag k="natural" v="water" />
		<tag k="ssr:stedsnr" v="248528" />
	</node>
	<node lat="60.4655611083818" lon="10.028736103563672" id="-12599">
		<tag k="name" v="Elsrudvika" />
		<tag k="natural" v="bay" />
		<tag k="ssr:stedsnr" v="248538" />
	</node>
	<node lat="60.458356805938706" lon="10.162445054225048" id="-12600">
		<tag k="name" v="Trona" />
		<tag k="natural" v="water" />
		<tag k="ssr:stedsnr" v="248542" />
		<tag k="water" v="lake" />
	</node>
	<node lat="60.319655558303474" lon="9.808499993734873" id="-12606">
		<tag k="alt_name" v="Svarteputten" />
		<tag k="name" v="Svarteputt" />
		<tag k="natural" v="water" />
		<tag k="ssr:stedsnr" v="249805" />
	</node>
	<node lat="60.31205832939343" lon="10.044755546895214" id="-12611">
		<tag k="alt_name" v="Langtjernet" />
		<tag k="name" v="Langtjern" />
		<tag k="natural" v="water" />
		<tag k="ssr:stedsnr" v="249492" />
	</node>
	<node lat="60.50098888812602" lon="10.160052784003359" id="-12612">
		<tag k="alt_name" v="Snellerøystjernet" />
		<tag k="name" v="Snellerøystjern" />
		<tag k="natural" v="water" />
		<tag k="ssr:stedsnr" v="249498" />
	</node>
	<node lat="60.29551666831981" lon="9.860327775456021" id="-12618">
		<tag k="alt_name" v="Gjuvbekken" />
		<tag k="name" v="Juvbekken" />
		<tag k="ssr:stedsnr" v="249667" />
		<tag k="waterway" v="stream" />
	</node>
	<node lat="60.48401111380692" lon="9.981463885251507" id="-12619">
		<tag k="name" v="Damtjern" />
		<tag k="natural" v="water" />
		<tag k="ssr:stedsnr" v="249686" />
	</node>
	<node lat="60.251633336761074" lon="9.74743333367397" id="-12622">
		<tag k="name" v="Bakkebekken" />
		<tag k="ssr:stedsnr" v="249734" />
		<tag k="waterway" v="stream" />
	</node>
	<node lat="60.35293055270246" lon="9.914341670416622" id="-12626">
		<tag k="name" v="Steinbekken" />
		<tag k="ssr:stedsnr" v="249759" />
		<tag k="waterway" v="stream" />
	</node>
	<node lat="60.34081388491636" lon="9.893766669818536" id="-12628">
		<tag k="alt_name" v="Søndre Bågåtjern;Søndre Bågåtjernet;Søre Bågåtjernet" />
		<tag k="name" v="Søre Bågåtjern" />
		<tag k="natural" v="water" />
		<tag k="ssr:stedsnr" v="249864" />
	</node>
	<node lat="60.45577777782068" lon="9.907925000634984" id="-12629">
		<tag k="name" v="Fjellelva" />
		<tag k="ssr:stedsnr" v="249901" />
		<tag k="waterway" v="stream" />
	</node>
	<node lat="60.422875003886766" lon="9.879691674237923" id="-12632">
		<tag k="name" v="Tverrbekken" />
		<tag k="ssr:stedsnr" v="249998" />
		<tag k="waterway" v="stream" />
	</node>
	<node lat="60.271956771239424" lon="9.827036017053894" id="-12633">
		<tag k="alt_name" v="Langevannet" />
		<tag k="name" v="Langevatnet" />
		<tag k="natural" v="water" />
		<tag k="ssr:stedsnr" v="114604" />
		<tag k="water" v="lake" />
	</node>
	<node lat="60.54178611040758" lon="10.100913883948737" id="-12637">
		<tag k="name" v="Sørlitjernmyra" />
		<tag k="natural" v="water" />
		<tag k="ssr:stedsnr" v="250545" />
	</node>
	<node lat="60.53718811587046" lon="10.107283622782804" id="-12638">
		<tag k="alt_name" v="Åbortjernet" />
		<tag k="name" v="Åbortjern" />
		<tag k="natural" v="water" />
		<tag k="ssr:stedsnr" v="250547" />
	</node>
	<node lat="60.21586506148305" lon="9.814326968136438" id="-12649">
		<tag k="alt_name" v="Bliksrud-Langevannet" />
		<tag k="name" v="Langevatnet" />
		<tag k="natural" v="water" />
		<tag k="ssr:stedsnr" v="125197" />
		<tag k="water" v="lake" />
	</node>
	<node lat="60.151050002356286" lon="10.563586103102015" id="-12652">
		<tag k="name" v="Harpelandsvika" />
		<tag k="natural" v="bay" />
		<tag k="ssr:stedsnr" v="126115" />
	</node>
	<node lat="60.09448055399962" lon="10.55813610304008" id="-12653">
		<tag k="alt_name" v="Svartvannselva" />
		<tag k="name" v="Svartelva" />
		<tag k="ssr:stedsnr" v="126140" />
		<tag k="waterway" v="stream" />
	</node>
	<node lat="60.100719260064004" lon="10.395256658849446" id="-12654">
		<tag k="alt_name" v="Kapiteltjernet" />
		<tag k="name" v="Kapiteltjern" />
		<tag k="natural" v="water" />
		<tag k="ssr:stedsnr" v="126146" />
	</node>
	<node lat="60.19944999707987" lon="9.929497217462746" id="-12657">
		<tag k="name" v="Gravaskardbekken" />
		<tag k="ssr:stedsnr" v="126153" />
		<tag k="waterway" v="stream" />
	</node>
	<node lat="60.108274999987216" lon="10.493336111254472" id="-12658">
		<tag k="alt_name" v="Rundtjernet" />
		<tag k="name" v="Rundtjern" />
		<tag k="natural" v="water" />
		<tag k="ssr:stedsnr" v="126159" />
	</node>
	<node lat="60.117113521486225" lon="10.467826599904125" id="-12660">
		<tag k="name" v="Langtangen" />
		<tag k="natural" v="cape" />
		<tag k="ssr:stedsnr" v="126067" />
	</node>
	<node lat="60.240733388004784" lon="9.775360119080814" id="-12661">
		<tag k="alt_name" v="Bergsjøen" />
		<tag k="name" v="Bergsjø" />
		<tag k="natural" v="water" />
		<tag k="ssr:stedsnr" v="126218" />
		<tag k="water" v="lake" />
	</node>
	<node lat="60.14169759751313" lon="10.56974778361926" id="-12671">
		<tag k="alt_name" v="Auretjernet" />
		<tag k="name" v="Auretjern" />
		<tag k="natural" v="water" />
		<tag k="ssr:stedsnr" v="127097" />
	</node>
	<node lat="60.247566670760484" lon="10.294225008725226" id="-12672">
		<tag k="name" v="Vestre Buttentjern" />
		<tag k="natural" v="water" />
		<tag k="ssr:stedsnr" v="126991" />
	</node>
	<node lat="60.27619800827804" lon="10.084297387050931" id="-12675">
		<tag k="alt_name" v="Rørstjerna" />
		<tag k="name" v="Store Rørstjern" />
		<tag k="natural" v="water" />
		<tag k="ssr:stedsnr" v="127441" />
	</node>
	<node lat="60.34199999702773" lon="10.218811106399654" id="-12678">
		<tag k="alt_name" v="Svarttjernet" />
		<tag k="name" v="Svarttjern" />
		<tag k="natural" v="water" />
		<tag k="ssr:stedsnr" v="127616" />
	</node>
	<node lat="60.29695833750854" lon="9.9899916675043" id="-12685">
		<tag k="alt_name" v="Håkenstadtjerna" />
		<tag k="name" v="Øvre Håkenstadtjern" />
		<tag k="natural" v="water" />
		<tag k="ssr:stedsnr" v="127542" />
	</node>
	<node lat="60.389263890800066" lon="10.184525007403249" id="-12686">
		<tag k="alt_name" v="Karltjern" />
		<tag k="name" v="Karlstjern" />
		<tag k="natural" v="water" />
		<tag k="ssr:stedsnr" v="127554" />
	</node>
	<node lat="60.46885277755914" lon="10.170813890732273" id="-12688">
		<tag k="name" v="Kringla" />
		<tag k="natural" v="water" />
		<tag k="ssr:stedsnr" v="127600" />
	</node>
	<node lat="60.46944166996823" lon="10.147408330030972" id="-12689">
		<tag k="name" v="Magnustjern" />
		<tag k="natural" v="water" />
		<tag k="ssr:stedsnr" v="127601" />
	</node>
	<node lat="60.308630551520466" lon="9.719550007918107" id="-12691">
		<tag k="name" v="Fiskebekken" />
		<tag k="ssr:stedsnr" v="127848" />
		<tag k="waterway" v="stream" />
	</node>
	<node lat="60.34759166654194" lon="9.9331499913047" id="-12692">
		<tag k="alt_name" v="Elgelitjernet" />
		<tag k="name" v="Elgelitjern" />
		<tag k="natural" v="water" />
		<tag k="ssr:stedsnr" v="127857" />
	</node>
	<node lat="60.48658333281322" lon="9.825011104512942" id="-12693">
		<tag k="name" v="Vidøla" />
		<tag k="ssr:stedsnr" v="127897" />
		<tag k="waterway" v="river" />
	</node>
	<node lat="60.49107777935175" lon="10.113191660250367" id="-12694">
		<tag k="alt_name" v="Skagnestjernet" />
		<tag k="name" v="Skagnestjern" />
		<tag k="natural" v="water" />
		<tag k="ssr:stedsnr" v="127747" />
	</node>
	<node lat="60.530907915550806" lon="10.109797376663096" id="-12698">
		<tag k="alt_name" v="Totjerna" />
		<tag k="name" v="Totjern" />
		<tag k="natural" v="water" />
		<tag k="ssr:stedsnr" v="128517" />
		<tag k="water" v="lake" />
	</node>
	<node lat="60.08184999640656" lon="10.11364999467474" id="-12708">
		<tag k="name" v="Tangen" />
		<tag k="natural" v="cape" />
		<tag k="ssr:stedsnr" v="146116" />
	</node>
	<node lat="60.40871944131282" lon="10.154933337204485" id="-12710">
		<tag k="name" v="Kalvetjern" />
		<tag k="natural" v="water" />
		<tag k="ssr:stedsnr" v="146400" />
	</node>
	<node lat="60.41552777342914" lon="10.16499722933947" id="-12715">
		<tag k="name" v="Tretjernsbekken" />
		<tag k="ssr:stedsnr" v="146402" />
		<tag k="waterway" v="stream" />
	</node>
	<node lat="60.08605555962948" lon="10.423272223286201" id="-12720">
		<tag k="name" v="Lauvlibekken" />
		<tag k="ssr:stedsnr" v="147007" />
		<tag k="waterway" v="stream" />
	</node>
	<node lat="60.30282221987523" lon="10.250722225729051" id="-12724">
		<tag k="name" v="Granlibråtaputten" />
		<tag k="natural" v="water" />
		<tag k="ssr:stedsnr" v="147272" />
		<tag k="water" v="pond" />
	</node>
	<node lat="60.31523055963124" lon="10.141130554843128" id="-12726">
		<tag k="name" v="Strømsvika" />
		<tag k="natural" v="bay" />
		<tag k="ssr:stedsnr" v="147640" />
	</node>
	<node lat="60.43498610863619" lon="10.180280549567872" id="-12729">
		<tag k="name" v="Lille Galatipptjern" />
		<tag k="natural" v="water" />
		<tag k="ssr:stedsnr" v="147760" />
	</node>
	<node lat="60.47870833088674" lon="10.158858332048453" id="-12731">
		<tag k="name" v="Moserokktjern" />
		<tag k="natural" v="water" />
		<tag k="ssr:stedsnr" v="147768" />
	</node>
	<node lat="60.34541388688557" lon="10.191072219117089" id="-12732">
		<tag k="name" v="Holmen" />
		<tag k="place" v="island" />
		<tag k="ssr:stedsnr" v="147972" />
	</node>
	<node lat="60.10597222461637" lon="10.136074992492448" id="-12733">
		<tag k="name" v="Hagavika" />
		<tag k="natural" v="bay" />
		<tag k="ssr:stedsnr" v="148203" />
	</node>
	<node lat="60.470247226665435" lon="10.155658325027973" id="-12735">
		<tag k="name" v="Lykkebottjern" />
		<tag k="natural" v="water" />
		<tag k="ssr:stedsnr" v="148977" />
	</node>
	<node lat="60.43043332924489" lon="10.068213886356322" id="-12741">
		<tag k="name" v="Leiksandodden" />
		<tag k="natural" v="cape" />
		<tag k="ssr:stedsnr" v="149421" />
	</node>
	<node lat="60.62689166605432" lon="10.02631110282654" id="-12743">
		<tag k="name" v="Buttetjern" />
		<tag k="natural" v="water" />
		<tag k="ssr:stedsnr" v="149457" />
	</node>
	<node lat="60.410105552724254" lon="10.095794450997337" id="-12744">
		<tag k="name" v="Råtollsbekken" />
		<tag k="ssr:stedsnr" v="149463" />
		<tag k="waterway" v="stream" />
	</node>
	<node lat="60.22299722542064" lon="9.921669441407083" id="-12746">
		<tag k="alt_name" v="Sandakerbekken" />
		<tag k="name" v="Sandåkerbekken" />
		<tag k="ssr:stedsnr" v="149863" />
		<tag k="waterway" v="stream" />
	</node>
	<node lat="60.21953888453209" lon="9.960777775218535" id="-12747">
		<tag k="name" v="Andenrudbekken" />
		<tag k="ssr:stedsnr" v="149865" />
		<tag k="waterway" v="stream" />
	</node>
	<node lat="60.492491664356365" lon="9.964177773115033" id="-12753">
		<tag k="name" v="Seterbekken" />
		<tag k="ssr:stedsnr" v="150203" />
		<tag k="waterway" v="stream" />
	</node>
	<node lat="60.48478888612099" lon="9.971536114491428" id="-12754">
		<tag k="alt_name" v="Søndre Seterputt" />
		<tag k="name" v="Søre Seterputt" />
		<tag k="natural" v="water" />
		<tag k="ssr:stedsnr" v="150209" />
		<tag k="water" v="pond" />
	</node>
	<node lat="60.44441111423861" lon="9.92827778413825" id="-12758">
		<tag k="name" v="Malotjernsbekken" />
		<tag k="ssr:stedsnr" v="150120" />
		<tag k="waterway" v="stream" />
	</node>
	<node lat="60.54109166817791" lon="9.818213888965008" id="-12760">
		<tag k="name" v="Killingen" />
		<tag k="place" v="island" />
		<tag k="ssr:stedsnr" v="150303" />
	</node>
	<node lat="60.17700277733349" lon="9.948877775132617" id="-12763">
		<tag k="name" v="Tranbysetertjern" />
		<tag k="natural" v="water" />
		<tag k="ssr:stedsnr" v="150366" />
	</node>
	<node lat="60.33253889195344" lon="9.817588885857484" id="-12765">
		<tag k="name" v="Gunvaldbråtatjern" />
		<tag k="natural" v="water" />
		<tag k="ssr:stedsnr" v="150522" />
	</node>
	<node lat="60.294172220686285" lon="9.79334999435558" id="-12766">
		<tag k="name" v="Dyttebubekken" />
		<tag k="ssr:stedsnr" v="150561" />
		<tag k="waterway" v="stream" />
	</node>
	<node lat="60.62481388759606" lon="9.96715554794558" id="-12772">
		<tag k="name" v="Skreppehølen" />
		<tag k="place" v="locality" />
		<tag k="ssr:stedsnr" v="150907" />
	</node>
	<node lat="60.31361388597144" lon="10.007422223859209" id="-12773">
		<tag k="name" v="Holmetjernbekken" />
		<tag k="ssr:stedsnr" v="150923" />
		<tag k="waterway" v="stream" />
	</node>
	<node lat="60.62540277903732" lon="9.981466675784423" id="-12777">
		<tag k="name" v="Storveltebekken" />
		<tag k="ssr:stedsnr" v="150821" />
		<tag k="waterway" v="stream" />
	</node>
	<node lat="60.27291944073685" lon="10.031272213527236" id="-12778">
		<tag k="name" v="Båthusvika" />
		<tag k="natural" v="bay" />
		<tag k="ssr:stedsnr" v="150827" />
	</node>
	<node lat="60.63130278017892" lon="10.015022225717164" id="-12780">
		<tag k="name" v="Dritertjern" />
		<tag k="natural" v="water" />
		<tag k="ssr:stedsnr" v="150863" />
	</node>
	<node lat="60.36447714601835" lon="9.790056627848731" id="-12782">
		<tag k="name" v="Moltetjern" />
		<tag k="natural" v="water" />
		<tag k="ssr:stedsnr" v="151168" />
	</node>
	<node lat="60.2665777802103" lon="9.841899995018684" id="-12785">
		<tag k="name" v="Garnøya" />
		<tag k="place" v="island" />
		<tag k="ssr:stedsnr" v="151213" />
	</node>
	<node lat="60.26761388766673" lon="9.842574994738204" id="-12786">
		<tag k="name" v="Ospekollodden" />
		<tag k="natural" v="cape" />
		<tag k="ssr:stedsnr" v="151214" />
	</node>
	<node lat="60.16171201742805" lon="10.410737313967008" id="-12799">
		<tag k="alt_name" v="Femputtene" />
		<tag k="name" v="Femputtane" />
		<tag k="natural" v="water" />
		<tag k="ssr:stedsnr" v="174004" />
	</node>
	<node lat="60.29917548681971" lon="9.903221659660842" id="-12801">
		<tag k="alt_name" v="Sognevannet" />
		<tag k="name" v="Sognevatnet" />
		<tag k="natural" v="water" />
		<tag k="ssr:stedsnr" v="174712" />
		<tag k="water" v="lake" />
	</node>
	<node lat="60.460258332827934" lon="9.831027770473645" id="-12802">
		<tag k="alt_name" v="Gravvannet" />
		<tag k="name" v="Gravvatnet" />
		<tag k="natural" v="water" />
		<tag k="ssr:stedsnr" v="175878" />
	</node>
	<node lat="60.08441667004824" lon="9.997405553636597" id="-12806">
		<tag k="alt_name" v="Øvolltjernet" />
		<tag k="name" v="Øvolltjern" />
		<tag k="natural" v="water" />
		<tag k="ssr:stedsnr" v="186286" />
	</node>
	<node lat="60.13993093655757" lon="10.5407490207542" id="-12817">
		<tag k="name" v="Tvetjerna" />
		<tag k="natural" v="water" />
		<tag k="ssr:stedsnr" v="187094" />
		<tag k="water" v="lake" />
	</node>
	<node lat="60.029572219706836" lon="10.50181111102905" id="-12822">
		<tag k="name" v="Storbekken" />
		<tag k="ssr:stedsnr" v="187983" />
		<tag k="waterway" v="stream" />
	</node>
	<node lat="60.299199996242855" lon="10.271897228383153" id="-12824">
		<tag k="name" v="Maureroa" />
		<tag k="natural" v="water" />
		<tag k="ssr:stedsnr" v="188424" />
	</node>
	<node lat="60.439794441547" lon="10.151452782883005" id="-12829">
		<tag k="alt_name" v="Lomstjerna" />
		<tag k="name" v="Lomstjern" />
		<tag k="natural" v="water" />
		<tag k="ssr:stedsnr" v="188372" />
	</node>
	<node lat="60.32416944141725" lon="9.960675005723118" id="-12832">
		<tag k="name" v="Saksentjernbekken" />
		<tag k="ssr:stedsnr" v="188508" />
		<tag k="waterway" v="stream" />
	</node>
	<node lat="60.32066944661271" lon="10.039055558592056" id="-12834">
		<tag k="alt_name" v="Breidtjern" />
		<tag k="name" v="Breitjern" />
		<tag k="natural" v="water" />
		<tag k="ssr:stedsnr" v="188510" />
	</node>
	<node lat="60.447500002276605" lon="10.10161388193358" id="-12837">
		<tag k="alt_name" v="Åbortjernsbekken" />
		<tag k="name" v="Åbortjernbekken" />
		<tag k="ssr:stedsnr" v="188574" />
		<tag k="waterway" v="stream" />
	</node>
	<node lat="60.45891944530958" lon="10.040144439440555" id="-12838">
		<tag k="name" v="Jutulbrua" />
		<tag k="place" v="island" />
		<tag k="ssr:stedsnr" v="188584" />
	</node>
	<node lat="60.45358610961642" lon="9.983363886827897" id="-12839">
		<tag k="name" v="Hestetjern" />
		<tag k="natural" v="water" />
		<tag k="ssr:stedsnr" v="188592" />
	</node>
	<node lat="60.38398855331629" lon="9.812564317146567" id="-12841">
		<tag k="alt_name" v="Frisvannet" />
		<tag k="name" v="Frisvatnet" />
		<tag k="natural" v="water" />
		<tag k="ssr:stedsnr" v="188812" />
		<tag k="water" v="lake" />
	</node>
	<node lat="60.49400000205725" lon="9.894399996871561" id="-12844">
		<tag k="name" v="Greinebekken" />
		<tag k="ssr:stedsnr" v="188937" />
		<tag k="waterway" v="stream" />
	</node>
	<node lat="60.496491669646595" lon="9.877466668163855" id="-12845">
		<tag k="name" v="Nordre Fjellbekken" />
		<tag k="ssr:stedsnr" v="188943" />
		<tag k="waterway" v="stream" />
	</node>
	<node lat="60.411972220120624" lon="9.94601111539224" id="-12847">
		<tag k="alt_name" v="Svarttjernet" />
		<tag k="name" v="Svarttjern" />
		<tag k="natural" v="water" />
		<tag k="ssr:stedsnr" v="188966" />
	</node>
	<node lat="60.404750001739714" lon="9.842663890708565" id="-12848">
		<tag k="name" v="Solskinnsbekken" />
		<tag k="ssr:stedsnr" v="188967" />
		<tag k="waterway" v="stream" />
	</node>
	<node lat="60.41240000043755" lon="9.874833326064119" id="-12849">
		<tag k="name" v="Kjølbekken" />
		<tag k="ssr:stedsnr" v="188968" />
		<tag k="waterway" v="stream" />
	</node>
	<node lat="60.525224998973115" lon="10.103672222161306" id="-12850">
		<tag k="alt_name" v="Vestre Bjonelva" />
		<tag k="name" v="Bjonelva" />
		<tag k="ssr:stedsnr" v="189503" />
		<tag k="waterway" v="river" />
	</node>
	<node lat="60.54471666517465" lon="10.064122215788958" id="-12851">
		<tag k="alt_name" v="Håvervika" />
		<tag k="name" v="Håvårvika" />
		<tag k="natural" v="bay" />
		<tag k="ssr:stedsnr" v="189505" />
	</node>
	<node lat="60.54357731593121" lon="10.041286867370228" id="-12852">
		<tag k="name" v="Fåsteinodden" />
		<tag k="natural" v="cape" />
		<tag k="ssr:stedsnr" v="189509" />
	</node>
	<node lat="60.59600555455359" lon="9.94263055125483" id="-12855">
		<tag k="alt_name" v="Trollmyrputten" />
		<tag k="name" v="Trollemyrputten" />
		<tag k="natural" v="water" />
		<tag k="ssr:stedsnr" v="189926" />
		<tag k="water" v="pond" />
	</node>
	<node lat="60.51226389110678" lon="10.014083334832709" id="-12858">
		<tag k="name" v="Svarttjernputten" />
		<tag k="natural" v="water" />
		<tag k="ssr:stedsnr" v="272699" />
	</node>
	<node lat="60.54834444058961" lon="9.973727782434791" id="-12859">
		<tag k="name" v="Gamleelva" />
		<tag k="ssr:stedsnr" v="267466" />
		<tag k="waterway" v="river" />
	</node>
	<node lat="60.58355833698731" lon="9.990591672171561" id="-12861">
		<tag k="name" v="Odden" />
		<tag k="natural" v="cape" />
		<tag k="ssr:stedsnr" v="268521" />
	</node>
	<node lat="60.0874361131065" lon="10.548572218983944" id="-12863">
		<tag k="name" v="Smeddalsbekken" />
		<tag k="ssr:stedsnr" v="268362" />
		<tag k="waterway" v="stream" />
	</node>
	<node lat="60.41141666850999" lon="10.15626388382628" id="-12867">
		<tag k="name" v="Angerfoss" />
		<tag k="natural" v="waterfall" />
		<tag k="ssr:stedsnr" v="268436" />
	</node>
	<node lat="60.18190833504306" lon="10.291174993267393" id="-12879">
		<tag k="name" v="Toenøya" />
		<tag k="place" v="island" />
		<tag k="ssr:stedsnr" v="207934" />
	</node>
	<node lat="60.32685555881734" lon="10.224258337475831" id="-12880">
		<tag k="alt_name" v="Søndre Seterputt" />
		<tag k="name" v="Søre Seterputt" />
		<tag k="natural" v="water" />
		<tag k="ssr:stedsnr" v="207951" />
	</node>
	<node lat="60.27925833606688" lon="9.785941660673512" id="-12886">
		<tag k="name" v="Sandvika" />
		<tag k="natural" v="bay" />
		<tag k="ssr:stedsnr" v="208195" />
	</node>
	<node lat="60.256519440877035" lon="10.253852773391108" id="-12888">
		<tag k="name" v="Sledeputten" />
		<tag k="natural" v="water" />
		<tag k="ssr:stedsnr" v="208281" />
	</node>
	<node lat="60.21326666251587" lon="10.342549995746982" id="-12897">
		<tag k="name" v="Krokaren" />
		<tag k="natural" v="beach" />
		<tag k="ssr:stedsnr" v="208791" />
	</node>
	<node lat="60.51589722377695" lon="10.091788883771242" id="-12903">
		<tag k="name" v="Åsetbekken" />
		<tag k="ssr:stedsnr" v="269195" />
		<tag k="waterway" v="stream" />
	</node>
	<node lat="60.473349997553896" lon="10.110661119449176" id="-12904">
		<tag k="name" v="Dalabekken" />
		<tag k="ssr:stedsnr" v="269199" />
		<tag k="waterway" v="stream" />
	</node>
	<node lat="60.50024999681339" lon="10.023247221975423" id="-12905">
		<tag k="name" v="Lomtjern" />
		<tag k="natural" v="water" />
		<tag k="ssr:stedsnr" v="269212" />
	</node>
	<node lat="60.243958337806035" lon="10.247847215900265" id="-12907">
		<tag k="name" v="Albuen" />
		<tag k="natural" v="water" />
		<tag k="ssr:stedsnr" v="269298" />
		<tag k="water" v="lake" />
	</node>
	<node lat="60.36124721933118" lon="10.185327770851268" id="-12909">
		<tag k="name" v="Svartodden" />
		<tag k="place" v="islet" />
		<tag k="ssr:stedsnr" v="269257" />
	</node>
	<node lat="60.443919442219624" lon="10.000158336592717" id="-12913">
		<tag k="name" v="Svarttjern" />
		<tag k="natural" v="water" />
		<tag k="ssr:stedsnr" v="211118" />
	</node>
	<node lat="60.159739941136486" lon="9.963181484100547" id="-12930">
		<tag k="name" v="Nordre Tjuventjern" />
		<tag k="natural" v="water" />
		<tag k="ssr:stedsnr" v="211375" />
	</node>
	<node lat="60.444372219784285" lon="10.12263056339111" id="-12938">
		<tag k="name" v="Brentedammen" />
		<tag k="ssr:stedsnr" v="211678" />
		<tag k="waterway" v="dam" />
	</node>
	<node lat="60.38930555358885" lon="10.026183342206249" id="-12939">
		<tag k="name" v="Kolleputt" />
		<tag k="natural" v="water" />
		<tag k="ssr:stedsnr" v="211834" />
	</node>
	<node lat="60.5102472194157" lon="10.015861112916703" id="-12948">
		<tag k="name" v="Svarttjern" />
		<tag k="natural" v="water" />
		<tag k="ssr:stedsnr" v="211734" />
		<tag k="water" v="pond" />
	</node>
	<node lat="60.330222222017426" lon="9.84632499492761" id="-12956">
		<tag k="name" v="Tukthustangen" />
		<tag k="natural" v="cape" />
		<tag k="ssr:stedsnr" v="212502" />
	</node>
	<node lat="60.18055000117604" lon="9.902411107973181" id="-12958">
		<tag k="name" v="Gampedalstjern" />
		<tag k="natural" v="water" />
		<tag k="ssr:stedsnr" v="212724" />
	</node>
	<node lat="60.59586388623275" lon="10.024716669332738" id="-12964">
		<tag k="name" v="Gravåa" />
		<tag k="ssr:stedsnr" v="270536" />
		<tag k="waterway" v="river" />
	</node>
	<node lat="60.616113893320964" lon="10.021247217787595" id="-12977">
		<tag k="name" v="Treputtane" />
		<tag k="natural" v="water" />
		<tag k="ssr:stedsnr" v="271510" />
		<tag k="water" v="lake" />
	</node>
	<node lat="60.44134711279587" lon="10.109659636846892" id="-12986">
		<tag k="name" v="Rindebråtaputten" />
		<tag k="natural" v="water" />
		<tag k="ssr:stedsnr" v="271679" />
	</node>
	<node lat="60.435508333423904" lon="10.109805550492224" id="-12988">
		<tag k="name" v="Elvesvingen" />
		<tag k="ssr:stedsnr" v="271746" />
		<tag k="waterway" v="river" />
	</node>
	<node lat="60.38176111465091" lon="10.050097218127068" id="-12989">
		<tag k="name" v="Skilnadbekken" />
		<tag k="ssr:stedsnr" v="271882" />
		<tag k="waterway" v="stream" />
	</node>
	<node lat="60.46923333742963" lon="10.031652774564568" id="-12992">
		<tag k="name" v="Toreodden" />
		<tag k="place" v="islet" />
		<tag k="ssr:stedsnr" v="271863" />
	</node>
	<node lat="60.16141667020797" lon="10.321705556469894" id="-13001">
		<tag k="loc_name" v="Hestebekken" />
		<tag k="name" v="Tjernsbekken" />
		<tag k="ssr:stedsnr" v="449971" />
		<tag k="waterway" v="stream" />
	</node>
	<node lat="60.124067101223496" lon="10.419631973837426" id="-13003">
		<tag k="name" v="Rausteinbekkvika" />
		<tag k="natural" v="bay" />
		<tag k="ssr:stedsnr" v="450029" />
	</node>
	<node lat="60.095613884876805" lon="10.4192666614691" id="-13006">
		<tag k="name" v="Kjerringbekken" />
		<tag k="ssr:stedsnr" v="450035" />
		<tag k="waterway" v="stream" />
	</node>
	<node lat="60.162252779187256" lon="10.529233331672618" id="-13013">
		<tag k="alt_name" v="Døpefonten" />
		<tag k="name" v="Døypefonten" />
		<tag k="natural" v="water" />
		<tag k="ssr:stedsnr" v="236003" />
	</node>
	<node lat="60.32243333148965" lon="10.189111106705042" id="-13018">
		<tag k="name" v="Sagfossen" />
		<tag k="natural" v="waterfall" />
		<tag k="ssr:stedsnr" v="450672" />
	</node>
	<node lat="60.56373055861577" lon="10.00380277234403" id="-13020">
		<tag k="name" v="Oddebekken" />
		<tag k="ssr:stedsnr" v="450539" />
		<tag k="waterway" v="stream" />
	</node>
	<node lat="60.452436115404474" lon="10.146102784294312" id="-13023">
		<tag k="name" v="Bjørnetjern" />
		<tag k="natural" v="water" />
		<tag k="ssr:stedsnr" v="450763" />
	</node>
	<node lat="60.35129444204841" lon="10.180602784788011" id="-13035">
		<tag k="name" v="Sjulsbråtavika" />
		<tag k="natural" v="bay" />
		<tag k="ssr:stedsnr" v="451257" />
	</node>
	<node lat="60.349766664204445" lon="10.193613897633494" id="-13036">
		<tag k="name" v="Rundholmen" />
		<tag k="place" v="islet" />
		<tag k="ssr:stedsnr" v="451258" />
	</node>
	<node lat="60.23360555787748" lon="9.774338896731333" id="-13037">
		<tag k="name" v="Brenntangen" />
		<tag k="natural" v="cape" />
		<tag k="ssr:stedsnr" v="451334" />
	</node>
	<node lat="60.51088055876497" lon="10.104569441138873" id="-13039">
		<tag k="name" v="Øvre Svarttjern" />
		<tag k="natural" v="water" />
		<tag k="ssr:stedsnr" v="451207" />
	</node>
	<node lat="60.115194447596956" lon="10.476344446219558" id="-13045">
		<tag k="name" v="Rundtjernvika" />
		<tag k="natural" v="bay" />
		<tag k="ssr:stedsnr" v="451485" />
	</node>
	<node lat="60.532744447005356" lon="10.040883336808362" id="-13048">
		<tag k="name" v="Kristofferodden" />
		<tag k="natural" v="cape" />
		<tag k="ssr:stedsnr" v="451900" />
	</node>
	<node lat="60.3466138922994" lon="10.187308325076277" id="-13050">
		<tag k="name" v="Damodden" />
		<tag k="natural" v="cape" />
		<tag k="ssr:stedsnr" v="451972" />
	</node>
	<node lat="60.11993055830546" lon="10.333822220403656" id="-13054">
		<tag k="name" v="Steinsfjorden" />
		<tag k="natural" v="water" />
		<tag k="ssr:stedsnr" v="247269" />
	</node>
	<node lat="60.164216667305375" lon="10.080383329953385" id="-13062">
		<tag k="name" v="Opptjern" />
		<tag k="natural" v="water" />
		<tag k="ssr:stedsnr" v="247580" />
	</node>
	<node lat="60.13985833239708" lon="10.040424992219986" id="-13067">
		<tag k="name" v="Øytjern" />
		<tag k="natural" v="water" />
		<tag k="ssr:stedsnr" v="247658" />
	</node>
	<node lat="60.1203638882855" lon="10.3223916608375" id="-13068">
		<tag k="name" v="Sjørvollstangen" />
		<tag k="natural" v="cape" />
		<tag k="ssr:stedsnr" v="247671" />
	</node>
	<node lat="60.438138885588515" lon="10.126352768760915" id="-13074">
		<tag k="name" v="Damtjern" />
		<tag k="natural" v="water" />
		<tag k="ssr:stedsnr" v="248319" />
	</node>
	<node lat="60.46762629831468" lon="10.10594622934708" id="-13081">
		<tag k="name" v="Åbortjern" />
		<tag k="natural" v="water" />
		<tag k="ssr:stedsnr" v="248555" />
		<tag k="water" v="lake" />
	</node>
	<node lat="60.377505551137816" lon="9.81936111932986" id="-13084">
		<tag k="name" v="Hølhølen" />
		<tag k="place" v="locality" />
		<tag k="ssr:stedsnr" v="248813" />
	</node>
	<node lat="60.30788888983341" lon="9.713649999889697" id="-13085">
		<tag k="name" v="Kimetjernet" />
		<tag k="natural" v="water" />
		<tag k="ssr:stedsnr" v="248852" />
	</node>
	<node lat="60.31238888472037" lon="9.711916659503819" id="-13086">
		<tag k="name" v="Brekkeliputtane" />
		<tag k="natural" v="water" />
		<tag k="ssr:stedsnr" v="248853" />
		<tag k="water" v="lake" />
	</node>
	<node lat="60.454516667375444" lon="9.831375004619376" id="-13089">
		<tag k="name" v="Gravvassbekken" />
		<tag k="ssr:stedsnr" v="248899" />
		<tag k="waterway" v="stream" />
	</node>
	<node lat="60.50671667471671" lon="10.005990569426874" id="-13090">
		<tag k="alt_name" v="Skarrudvannet;Skarrudvatnet" />
		<tag k="name" v="Skalerudvatnet" />
		<tag k="natural" v="water" />
		<tag k="ssr:stedsnr" v="248749" />
		<tag k="water" v="lake" />
	</node>
	<node lat="60.122347224879455" lon="10.143266661049502" id="-13092">
		<tag k="name" v="Kvitmyrbekken" />
		<tag k="ssr:stedsnr" v="452995" />
		<tag k="waterway" v="stream" />
	</node>
	<node lat="60.39523055789906" lon="10.123691662200551" id="-13093">
		<tag k="name" v="Nordre Loppetjern" />
		<tag k="natural" v="water" />
		<tag k="ssr:stedsnr" v="249261" />
	</node>
	<node lat="60.25399999597196" lon="10.310705547081223" id="-13094">
		<tag k="alt_name" v="Buttentjernet" />
		<tag k="name" v="Østre Buttentjern" />
		<tag k="natural" v="water" />
		<tag k="ssr:stedsnr" v="249310" />
	</node>
	<node lat="60.43931666358134" lon="9.978047213834365" id="-13098">
		<tag k="name" v="Krokløken" />
		<tag k="natural" v="water" />
		<tag k="ssr:stedsnr" v="454104" />
		<tag k="water" v="lake" />
	</node>
	<node lat="60.45448055980986" lon="9.962386108152428" id="-13099">
		<tag k="alt_name" v="Dypentjern" />
		<tag k="name" v="Dyrbeintjern" />
		<tag k="natural" v="water" />
		<tag k="ssr:stedsnr" v="454107" />
	</node>
	<node lat="60.264097223842" lon="10.024794438460797" id="-13102">
		<tag k="name" v="Rausteinbekken" />
		<tag k="ssr:stedsnr" v="454889" />
		<tag k="waterway" v="stream" />
	</node>
	<node lat="60.328490832514575" lon="9.96669079148838" id="-13103">
		<tag k="name" v="Vestre Tjuvenborgtjern" />
		<tag k="natural" v="water" />
		<tag k="ssr:stedsnr" v="454895" />
	</node>
	<node lat="60.425294445715124" lon="10.119883326972063" id="-13106">
		<tag k="alt_name" v="Søndre Langtjern" />
		<tag k="name" v="Søre Langtjern" />
		<tag k="natural" v="water" />
		<tag k="ssr:stedsnr" v="453483" />
	</node>
	<node lat="60.316900001466166" lon="10.02964444425351" id="-13119">
		<tag k="name" v="Breitjernsputten" />
		<tag k="natural" v="water" />
		<tag k="ssr:stedsnr" v="453925" />
		<tag k="water" v="pond" />
	</node>
	<node lat="60.554794444638375" lon="9.89777500705238" id="-13126">
		<tag k="name" v="Flatbråtaøya" />
		<tag k="place" v="island" />
		<tag k="ssr:stedsnr" v="454311" />
	</node>
	<node lat="60.485608331972294" lon="10.015925001856326" id="-13132">
		<tag k="name" v="Høgfoss" />
		<tag k="natural" v="waterfall" />
		<tag k="ssr:stedsnr" v="454218" />
	</node>
	<node lat="60.319299998282624" lon="9.801977781015886" id="-13140">
		<tag k="name" v="Såtbekken" />
		<tag k="ssr:stedsnr" v="454542" />
		<tag k="waterway" v="stream" />
	</node>
	<node lat="60.277394440331285" lon="10.020738888021283" id="-13142">
		<tag k="name" v="Soknedalsvika" />
		<tag k="natural" v="bay" />
		<tag k="ssr:stedsnr" v="454548" />
	</node>
	<node lat="60.291683331423485" lon="9.99887778342546" id="-13148">
		<tag k="name" v="Gåstjernelva" />
		<tag k="ssr:stedsnr" v="454622" />
		<tag k="waterway" v="river" />
	</node>
	<node lat="60.26100000147087" lon="10.125988880182948" id="-13152">
		<tag k="name" v="Djuptjern" />
		<tag k="natural" v="water" />
		<tag k="old_name" v="Duptjern" />
		<tag k="ssr:stedsnr" v="454832" />
	</node>
	<node lat="60.23878055242223" lon="10.105686118840648" id="-13153">
		<tag k="name" v="Krokhølen" />
		<tag k="place" v="locality" />
		<tag k="ssr:stedsnr" v="454835" />
	</node>
	<node lat="60.616913887428915" lon="9.93406944049195" id="-13158">
		<tag k="name" v="Seterlandstjern" />
		<tag k="natural" v="water" />
		<tag k="ssr:stedsnr" v="454937" />
	</node>
	<node lat="60.21325833104773" lon="9.798052774155424" id="-13164">
		<tag k="name" v="Bergsjøelvtangen" />
		<tag k="natural" v="cape" />
		<tag k="ssr:stedsnr" v="455145" />
	</node>
	<node lat="60.17054166523954" lon="9.903741662469383" id="-13167">
		<tag k="name" v="Svarttjern" />
		<tag k="natural" v="water" />
		<tag k="ssr:stedsnr" v="455835" />
	</node>
	<node lat="60.28300833495876" lon="9.775261119158726" id="-13168">
		<tag k="name" v="Røyehølen" />
		<tag k="place" v="locality" />
		<tag k="ssr:stedsnr" v="455859" />
	</node>
	<node lat="60.54094166628561" lon="10.119958327106735" id="-13182">
		<tag k="name" v="Aurtjernselva" />
		<tag k="ssr:stedsnr" v="268197" />
		<tag k="waterway" v="river" />
	</node>
	<node lat="60.583205551905024" lon="10.025427771576426" id="-13189">
		<tag k="name" v="Puttane" />
		<tag k="natural" v="water" />
		<tag k="ssr:stedsnr" v="269178" />
		<tag k="water" v="lake" />
	</node>
	<node lat="60.25383611389593" lon="10.151569449015758" id="-13195">
		<tag k="name" v="Gulsrudbekken" />
		<tag k="ssr:stedsnr" v="269312" />
		<tag k="waterway" v="stream" />
	</node>
	<node lat="60.116480551630495" lon="10.498944437764925" id="-13196">
		<tag k="name" v="Pjåkavelta" />
		<tag k="natural" v="bay" />
		<tag k="ssr:stedsnr" v="269381" />
	</node>
	<node lat="60.63209722014603" lon="10.031205564100045" id="-13204">
		<tag k="name" v="Vaskebekk" />
		<tag k="ssr:stedsnr" v="270424" />
		<tag k="waterway" v="stream" />
	</node>
	<node lat="60.44224721970432" lon="10.135822219177582" id="-13212">
		<tag k="name" v="Seterbekken" />
		<tag k="ssr:stedsnr" v="271706" />
		<tag k="waterway" v="stream" />
	</node>
	<node lat="60.44913889212584" lon="10.065719450970947" id="-13213">
		<tag k="name" v="Grøterudodden" />
		<tag k="natural" v="cape" />
		<tag k="ssr:stedsnr" v="271716" />
	</node>
	<node lat="60.46192499798223" lon="10.028313883586586" id="-13215">
		<tag k="name" v="Garnodden" />
		<tag k="natural" v="cape" />
		<tag k="ssr:stedsnr" v="271823" />
	</node>
	<node lat="60.36483333348888" lon="10.049975007663194" id="-13216">
		<tag k="name" v="Rokofossen" />
		<tag k="natural" v="waterfall" />
		<tag k="ssr:stedsnr" v="271827" />
	</node>
	<node lat="60.37463055337304" lon="10.01847222272255" id="-13223">
		<tag k="name" v="Seterbekken" />
		<tag k="ssr:stedsnr" v="272102" />
		<tag k="waterway" v="stream" />
	</node>
	<node lat="60.446155559989236" lon="9.95986111577888" id="-13224">
		<tag k="name" v="Seterbekken" />
		<tag k="ssr:stedsnr" v="272112" />
		<tag k="waterway" v="stream" />
	</node>
	<node lat="60.5826277751403" lon="9.932111112890077" id="-13229">
		<tag k="name" v="Rognebråtabekken" />
		<tag k="ssr:stedsnr" v="272608" />
		<tag k="waterway" v="stream" />
	</node>
	<node lat="60.62490000145344" lon="10.010488895982562" id="-13234">
		<tag k="name" v="Okseputt" />
		<tag k="natural" v="water" />
		<tag k="ssr:stedsnr" v="272804" />
		<tag k="water" v="pond" />
	</node>
	<node lat="60.605561115465164" lon="9.983658340556236" id="-13235">
		<tag k="name" v="Kraktjern" />
		<tag k="natural" v="water" />
		<tag k="ssr:stedsnr" v="272813" />
		<tag k="water" v="lake" />
	</node>
	<node lat="60.23791666432159" lon="10.025444444772841" id="-13237">
		<tag k="name" v="Fisketjernbekken" />
		<tag k="ssr:stedsnr" v="272781" />
		<tag k="waterway" v="stream" />
	</node>
	<node lat="60.55477222580701" lon="9.950366666479503" id="-13238">
		<tag k="name" v="Briskeodden" />
		<tag k="natural" v="cape" />
		<tag k="ssr:stedsnr" v="272782" />
	</node>
	<node lat="60.61363055274699" lon="9.950252772970929" id="-13239">
		<tag k="name" v="Flatøyfjorden" />
		<tag k="natural" v="water" />
		<tag k="ssr:stedsnr" v="272925" />
		<tag k="water" v="lake" />
	</node>
	<node lat="60.57193611430793" lon="9.830999993658871" id="-13240">
		<tag k="name" v="Torgershølbekken" />
		<tag k="ssr:stedsnr" v="272880" />
		<tag k="waterway" v="stream" />
	</node>
	<node lat="60.33294166308015" lon="9.91991666673541" id="-13241">
		<tag k="name" v="Nedre Dammen" />
		<tag k="ssr:stedsnr" v="272884" />
		<tag k="waterway" v="dam" />
	</node>
	<node lat="60.34463888755805" lon="9.932416659390812" id="-13242">
		<tag k="name" v="Liljeputtene" />
		<tag k="natural" v="water" />
		<tag k="ssr:stedsnr" v="272891" />
		<tag k="water" v="pond" />
	</node>
	<node lat="60.27511388862968" lon="9.79689999920998" id="-13244">
		<tag k="name" v="Breivasselva" />
		<tag k="ssr:stedsnr" v="273223" />
		<tag k="waterway" v="river" />
	</node>
	<node lat="60.32590000055172" lon="10.11542777056846" id="-13253">
		<tag k="name" v="Veita" />
		<tag k="natural" v="water" />
		<tag k="ssr:stedsnr" v="271938" />
		<tag k="water" v="lake" />
	</node>
	<node lat="60.308961112153106" lon="10.050219443927936" id="-13254">
		<tag k="name" v="Langtjernsputten" />
		<tag k="natural" v="water" />
		<tag k="ssr:stedsnr" v="271945" />
		<tag k="water" v="pond" />
	</node>
	<node lat="60.07629444303832" lon="10.367602785953295" id="-13259">
		<tag k="name" v="Fiskebekken" />
		<tag k="ssr:stedsnr" v="307260" />
		<tag k="waterway" v="stream" />
	</node>
	<node lat="60.12022221798304" lon="10.530072218574961" id="-13262">
		<tag k="alt_name" v="Auretjernet" />
		<tag k="name" v="Auretjern" />
		<tag k="natural" v="water" />
		<tag k="ssr:stedsnr" v="308056" />
	</node>
	<node lat="60.16516035310534" lon="10.543902804485999" id="-13263">
		<tag k="name" v="Aklangen" />
		<tag k="natural" v="water" />
		<tag k="ssr:stedsnr" v="308022" />
		<tag k="water" v="lake" />
	</node>
	<node lat="60.24425000444703" lon="9.778850007854695" id="-13269">
		<tag k="name" v="Buodden" />
		<tag k="natural" v="cape" />
		<tag k="ssr:stedsnr" v="308220" />
	</node>
	<node lat="60.246527782193034" lon="9.862075001233492" id="-13270">
		<tag k="name" v="Nedre Trampetjern" />
		<tag k="natural" v="water" />
		<tag k="ssr:stedsnr" v="308221" />
	</node>
	<node lat="60.14389859848625" lon="10.123708568227135" id="-13275">
		<tag k="name" v="Aklangen" />
		<tag k="natural" v="water" />
		<tag k="ssr:stedsnr" v="308601" />
		<tag k="water" v="lake" />
	</node>
	<node lat="60.61495833306978" lon="9.93317776970039" id="-13282">
		<tag k="name" v="Begna" />
		<tag k="old_name" v="Bægna;Bejna;Bejnaelven" />
		<tag k="ssr:stedsnr" v="309000" />
		<tag k="waterway" v="river" />
	</node>
	<node lat="60.160491663900835" lon="10.557836119123454" id="-13284">
		<tag k="name" v="Ørneøya" />
		<tag k="place" v="islet" />
		<tag k="ssr:stedsnr" v="309015" />
	</node>
	<node lat="60.316872219029136" lon="10.191577770137323" id="-13287">
		<tag k="name" v="Tverrbekken" />
		<tag k="ssr:stedsnr" v="309505" />
		<tag k="waterway" v="stream" />
	</node>
	<node lat="60.31238333330337" lon="10.202175008422437" id="-13288">
		<tag k="name" v="Hvalstjern" />
		<tag k="natural" v="water" />
		<tag k="ssr:stedsnr" v="309508" />
	</node>
	<node lat="60.29195833272609" lon="9.735944439795384" id="-13293">
		<tag k="name" v="Plassebekken" />
		<tag k="ssr:stedsnr" v="309688" />
		<tag k="waterway" v="stream" />
	</node>
	<node lat="60.44785000192794" lon="9.86917500337418" id="-13298">
		<tag k="name" v="Bosoa" />
		<tag k="ssr:stedsnr" v="309903" />
		<tag k="waterway" v="stream" />
	</node>
	<node lat="60.43429540363934" lon="9.85083476882206" id="-13299">
		<tag k="name" v="Sandvassdammen" />
		<tag k="ssr:stedsnr" v="309981" />
		<tag k="waterway" v="dam" />
	</node>
	<node lat="60.55043611448756" lon="9.973574998355568" id="-13304">
		<tag k="fixme" v="multiple name tags, choose one and add the other to alt_name" />
		<tag k="name" v="Padderudlykkja;Torevika" />
		<tag k="natural" v="bay" />
		<tag k="ssr:stedsnr" v="310507" />
	</node>
	<node lat="60.57861666260302" lon="9.880766661438953" id="-13310">
		<tag k="name" v="Vesle Gildra" />
		<tag k="ssr:stedsnr" v="310817" />
		<tag k="waterway" v="stream" />
	</node>
	<node lat="60.36248055313393" lon="10.18795277272848" id="-13320">
		<tag k="name" v="Finnsandbuholmen" />
		<tag k="place" v="islet" />
		<tag k="ssr:stedsnr" v="511230" />
	</node>
	<node lat="60.50516524789409" lon="10.109190868381145" id="-13329">
		<tag k="name" v="Fugleleiktjernet" />
		<tag k="natural" v="water" />
		<tag k="ssr:stedsnr" v="329204" />
	</node>
	<node lat="60.39005000363641" lon="10.142180559598717" id="-13331">
		<tag k="name" v="Seterputt" />
		<tag k="natural" v="water" />
		<tag k="ssr:stedsnr" v="329255" />
	</node>
	<node lat="60.22113333689473" lon="10.199294438975816" id="-13332">
		<tag k="name" v="Henstjern" />
		<tag k="natural" v="water" />
		<tag k="ssr:stedsnr" v="329466" />
	</node>
	<node lat="60.49032778084687" lon="10.155855549304265" id="-13337">
		<tag k="name" v="Vestre Tiputten" />
		<tag k="natural" v="water" />
		<tag k="old_name" v="Vestre Tiputen" />
		<tag k="ssr:stedsnr" v="329754" />
	</node>
	<node lat="60.02942222453698" lon="10.496913888999742" id="-13341">
		<tag k="name" v="Dammyrdalsbekken" />
		<tag k="ssr:stedsnr" v="330489" />
		<tag k="waterway" v="stream" />
	</node>
	<node lat="60.12575555238414" lon="10.465116657870718" id="-13344">
		<tag k="name" v="Lauvøyene" />
		<tag k="place" v="island" />
		<tag k="ssr:stedsnr" v="330513" />
	</node>
	<node lat="60.11777777570491" lon="10.205702780146547" id="-13350">
		<tag k="name" v="Hengslet" />
		<tag k="natural" v="cape" />
		<tag k="ssr:stedsnr" v="331999" />
	</node>
	<node lat="60.450272219693915" lon="9.960455563353998" id="-13351">
		<tag k="name" v="Setertjern" />
		<tag k="natural" v="water" />
		<tag k="ssr:stedsnr" v="332104" />
	</node>
	<node lat="60.366130553543954" lon="9.948838883737732" id="-13353">
		<tag k="name" v="Leintjernbekken" />
		<tag k="ssr:stedsnr" v="332030" />
		<tag k="waterway" v="stream" />
	</node>
	<node lat="60.09173333311333" lon="10.039577781440753" id="-13354">
		<tag k="name" v="Høgøya" />
		<tag k="place" v="island" />
		<tag k="ssr:stedsnr" v="332059" />
	</node>
	<node lat="60.47961388708527" lon="9.978766668241837" id="-13359">
		<tag k="name" v="Drakemyrløken" />
		<tag k="place" v="locality" />
		<tag k="ssr:stedsnr" v="332197" />
	</node>
	<node lat="60.43386388992293" lon="10.067216661601439" id="-13364">
		<tag k="name" v="Strandeodden" />
		<tag k="natural" v="cape" />
		<tag k="ssr:stedsnr" v="332655" />
	</node>
	<node lat="60.45647777382834" lon="10.084413892884305" id="-13366">
		<tag k="name" v="Lortputten" />
		<tag k="natural" v="water" />
		<tag k="ssr:stedsnr" v="332750" />
	</node>
	<node lat="60.468797218558045" lon="10.034644440963357" id="-13371">
		<tag k="name" v="Liuodden" />
		<tag k="natural" v="cape" />
		<tag k="ssr:stedsnr" v="332799" />
	</node>
	<node lat="60.40132222108197" lon="9.855811108279244" id="-13377">
		<tag k="name" v="Grasdalsputt" />
		<tag k="natural" v="water" />
		<tag k="ssr:stedsnr" v="333058" />
		<tag k="water" v="pond" />
	</node>
	<node lat="60.20102222041057" lon="9.801886103410856" id="-13380">
		<tag k="name" v="Brenntangen" />
		<tag k="natural" v="cape" />
		<tag k="ssr:stedsnr" v="333156" />
	</node>
	<node lat="60.19963055220972" lon="9.818033342040609" id="-13381">
		<tag k="name" v="Dyngefossen" />
		<tag k="natural" v="waterfall" />
		<tag k="ssr:stedsnr" v="333162" />
	</node>
	<node lat="60.36979166773969" lon="9.791336114146839" id="-13397">
		<tag k="fixme" v="multiple name tags, choose one and add the other to alt_name" />
		<tag k="name" v="Rundtjernet;Rundsetertjern" />
		<tag k="natural" v="water" />
		<tag k="ssr:stedsnr" v="356802" />
	</node>
	<node lat="60.07251111014735" lon="10.517902774722055" id="-13401">
		<tag k="alt_name" v="Langtj vesle" />
		<tag k="name" v="Vesle Langtjern" />
		<tag k="natural" v="water" />
		<tag k="old_name" v="Vesle Oppkuvvann" />
		<tag k="ssr:stedsnr" v="478532" />
	</node>
	<node lat="60.14635555668858" lon="10.336330563788746" id="-13403">
		<tag k="alt_name" v="Ultveittjern;Ultvedttjern;Ultveitvatnet" />
		<tag k="name" v="Ultvettjern" />
		<tag k="natural" v="water" />
		<tag k="ssr:stedsnr" v="478651" />
	</node>
	<node lat="60.10708055802535" lon="10.030286119952601" id="-13412">
		<tag k="name" v="Geitøya" />
		<tag k="place" v="island" />
		<tag k="ssr:stedsnr" v="368727" />
	</node>
	<node lat="60.15178888895531" lon="10.31175277296082" id="-13416">
		<tag k="name" v="Gullerudtjernet" />
		<tag k="natural" v="water" />
		<tag k="ssr:stedsnr" v="368680" />
	</node>
	<node lat="60.1907138848608" lon="10.442724997170611" id="-13422">
		<tag k="alt_name" v="Tørkerudtjernet" />
		<tag k="name" v="Tørkerudtjern" />
		<tag k="natural" v="water" />
		<tag k="old_name" v="Torkerudtjern" />
		<tag k="ssr:stedsnr" v="369034" />
	</node>
	<node lat="60.11311666812765" lon="10.511391663478062" id="-13424">
		<tag k="name" v="Hauken" />
		<tag k="natural" v="water" />
		<tag k="ssr:stedsnr" v="369172" />
	</node>
	<node lat="60.13447838887844" lon="10.466383456895976" id="-13425">
		<tag k="alt_name" v="Store Åbortjernet" />
		<tag k="name" v="Store Åbortjern" />
		<tag k="natural" v="water" />
		<tag k="ssr:stedsnr" v="369070" />
	</node>
	<node lat="60.22920833158219" lon="9.770786119779677" id="-13426">
		<tag k="name" v="Vesle Bergsjø" />
		<tag k="natural" v="water" />
		<tag k="ssr:stedsnr" v="369208" />
	</node>
	<node lat="60.3530388846133" lon="10.131975001713474" id="-13434">
		<tag k="name" v="Damtjern" />
		<tag k="natural" v="water" />
		<tag k="ssr:stedsnr" v="369524" />
	</node>
	<node lat="60.36982500401543" lon="10.111138891561522" id="-13437">
		<tag k="alt_name" v="Skartjern" />
		<tag k="name" v="Skardtjern" />
		<tag k="natural" v="water" />
		<tag k="ssr:stedsnr" v="369571" />
	</node>
	<node lat="60.45934999590199" lon="10.031194452336363" id="-13438">
		<tag k="name" v="Vesleøya" />
		<tag k="place" v="island" />
		<tag k="ssr:stedsnr" v="369469" />
	</node>
	<node lat="60.30445277735512" lon="9.799688896684685" id="-13453">
		<tag k="alt_name" v="Nedre Bjørnetjernet" />
		<tag k="name" v="Nedre Bjørnetjern" />
		<tag k="natural" v="water" />
		<tag k="ssr:stedsnr" v="370689" />
	</node>
	<node lat="60.36072777933121" lon="9.779950008793335" id="-13456">
		<tag k="alt_name" v="Gampetjern" />
		<tag k="name" v="Gampetjernet" />
		<tag k="natural" v="water" />
		<tag k="ssr:stedsnr" v="370824" />
	</node>
	<node lat="60.349225003597425" lon="9.835938891242773" id="-13457">
		<tag k="alt_name" v="Auretjernet" />
		<tag k="name" v="Auretjern" />
		<tag k="natural" v="water" />
		<tag k="ssr:stedsnr" v="370859" />
	</node>
	<node lat="60.527305551660525" lon="10.01657223042346" id="-13459">
		<tag k="name" v="Brennbekken" />
		<tag k="ssr:stedsnr" v="371519" />
		<tag k="waterway" v="stream" />
	</node>
	<node lat="60.53530277859386" lon="10.123244442250034" id="-13468">
		<tag k="name" v="Gråskollen" />
		<tag k="place" v="island" />
		<tag k="ssr:stedsnr" v="389193" />
	</node>
	<node lat="60.080188886369314" lon="10.434072224840797" id="-13469">
		<tag k="name" v="Stormyrtjern" />
		<tag k="natural" v="water" />
		<tag k="ssr:stedsnr" v="389394" />
	</node>
	<node lat="60.17104721793508" lon="10.266186103502172" id="-13470">
		<tag k="name" v="Vesterntangen" />
		<tag k="natural" v="cape" />
		<tag k="ssr:stedsnr" v="389705" />
	</node>
	<node lat="60.50271388949172" lon="10.125666670486254" id="-13472">
		<tag k="name" v="Dalaenden" />
		<tag k="natural" v="bay" />
		<tag k="ssr:stedsnr" v="390196" />
	</node>
	<node lat="60.103486106983816" lon="10.186994441522053" id="-13475">
		<tag k="name" v="Strandingsevja" />
		<tag k="natural" v="bay" />
		<tag k="ssr:stedsnr" v="390608" />
	</node>
	<node lat="60.307452779812" lon="10.212274995742229" id="-13479">
		<tag k="name" v="Ferningsbekken" />
		<tag k="ssr:stedsnr" v="390544" />
		<tag k="waterway" v="stream" />
	</node>
	<node lat="60.12443055178517" lon="10.224666665034766" id="-13484">
		<tag k="name" v="Froksøya" />
		<tag k="place" v="island" />
		<tag k="ssr:stedsnr" v="391299" />
	</node>
	<node lat="60.43540555885518" lon="10.125208342116922" id="-13489">
		<tag k="alt_name" v="Langtjernbekken" />
		<tag k="name" v="Langtjernsbekken" />
		<tag k="ssr:stedsnr" v="392742" />
		<tag k="waterway" v="stream" />
	</node>
	<node lat="60.28703333635175" lon="9.96163055225446" id="-13502">
		<tag k="name" v="Kvitmosemyrbekken" />
		<tag k="ssr:stedsnr" v="393611" />
		<tag k="waterway" v="stream" />
	</node>
	<node lat="60.31947499901166" lon="10.116344444183913" id="-13505">
		<tag k="name" v="Svartbekk" />
		<tag k="ssr:stedsnr" v="393902" />
		<tag k="waterway" v="stream" />
	</node>
	<node lat="60.2858750004177" lon="9.913725000616294" id="-13509">
		<tag k="name" v="Skuggehølfossen" />
		<tag k="natural" v="waterfall" />
		<tag k="ssr:stedsnr" v="393926" />
	</node>
	<node lat="60.31898332991066" lon="10.100680546960247" id="-13513">
		<tag k="name" v="Småmyrene" />
		<tag k="ssr:stedsnr" v="393898" />
		<tag k="waterway" v="stream" />
	</node>
	<node lat="60.27875832901701" lon="9.798780562823758" id="-13515">
		<tag k="name" v="Vettertjernbekken" />
		<tag k="ssr:stedsnr" v="394202" />
		<tag k="waterway" v="stream" />
	</node>
	<node lat="60.280672219930295" lon="9.822008330644122" id="-13516">
		<tag k="name" v="Langvikbekken" />
		<tag k="ssr:stedsnr" v="394213" />
		<tag k="waterway" v="stream" />
	</node>
	<node lat="60.158944072204655" lon="9.960839942785736" id="-13524">
		<tag k="alt_name" v="Tjuentjerna;Tjuventjern" />
		<tag k="name" v="Tjuventjerna" />
		<tag k="natural" v="water" />
		<tag k="ssr:stedsnr" v="405284" />
		<tag k="water" v="lake" />
	</node>
	<node lat="60.160290307192945" lon="10.519487664455308" id="-13527">
		<tag k="alt_name" v="Finnvannet" />
		<tag k="name" v="Finnvatnet" />
		<tag k="natural" v="water" />
		<tag k="ssr:stedsnr" v="418004" />
	</node>
	<node lat="60.15890913295955" lon="10.420017430770924" id="-13532">
		<tag k="name" v="Svarttjerna" />
		<tag k="natural" v="water" />
		<tag k="ssr:stedsnr" v="490010" />
		<tag k="water" v="lake" />
	</node>
	<node lat="60.18288328095641" lon="9.872090687251074" id="-13534">
		<tag k="name" v="Sneisungen" />
		<tag k="natural" v="water" />
		<tag k="ssr:stedsnr" v="490127" />
	</node>
	<node lat="60.06655833048978" lon="10.561347220970742" id="-13535">
		<tag k="alt_name" v="Jonstjernet" />
		<tag k="name" v="Jonstjern" />
		<tag k="natural" v="water" />
		<tag k="ssr:stedsnr" v="490223" />
	</node>
	<node lat="60.10464690812986" lon="10.572890408473782" id="-13537">
		<tag k="name" v="Løkputtane" />
		<tag k="natural" v="water" />
		<tag k="ssr:stedsnr" v="490164" />
		<tag k="water" v="lake" />
	</node>
	<node lat="60.15226666954343" lon="10.024836103802246" id="-13543">
		<tag k="name" v="Baksjø" />
		<tag k="natural" v="water" />
		<tag k="ssr:stedsnr" v="490578" />
	</node>
	<node lat="60.10939668607253" lon="9.984572098366172" id="-13546">
		<tag k="name" v="Svarttjerna" />
		<tag k="natural" v="water" />
		<tag k="ssr:stedsnr" v="490689" />
		<tag k="water" v="lake" />
	</node>
	<node lat="60.10767500153253" lon="9.998916667699522" id="-13547">
		<tag k="name" v="Rønnestjern" />
		<tag k="natural" v="water" />
		<tag k="ssr:stedsnr" v="490693" />
	</node>
	<node lat="60.17878610912627" lon="10.126166673425232" id="-13551">
		<tag k="name" v="Holmetjern" />
		<tag k="natural" v="water" />
		<tag k="ssr:stedsnr" v="490550" />
	</node>
	<node lat="60.12773055498857" lon="10.030966674590625" id="-13559">
		<tag k="name" v="Lysingen" />
		<tag k="natural" v="water" />
		<tag k="ssr:stedsnr" v="490673" />
	</node>
	<node lat="60.08521666312435" lon="10.019436108769593" id="-13560">
		<tag k="alt_name" v="Stigsrudløken" />
		<tag k="name" v="Stigsrudløkane" />
		<tag k="natural" v="water" />
		<tag k="ssr:stedsnr" v="429262" />
		<tag k="water" v="lake" />
	</node>
	<node lat="60.2003777774909" lon="10.181511108948671" id="-13562">
		<tag k="alt_name" v="Gørrputt" />
		<tag k="name" v="Gørrputten" />
		<tag k="natural" v="water" />
		<tag k="ssr:stedsnr" v="429511" />
	</node>
	<node lat="60.12657221914498" lon="10.605411118288314" id="-13568">
		<tag k="name" v="Katnoselva" />
		<tag k="ssr:stedsnr" v="430067" />
		<tag k="waterway" v="river" />
	</node>
	<node lat="60.05971389308945" lon="10.530591663728547" id="-13569">
		<tag k="alt_name" v="Gopletjernet" />
		<tag k="name" v="Gopletjern" />
		<tag k="natural" v="water" />
		<tag k="ssr:stedsnr" v="430202" />
	</node>
	<node lat="60.09976644713251" lon="10.44377109327328" id="-13575">
		<tag k="alt_name" v="Gråbergtjernet" />
		<tag k="name" v="Gråbergtjern" />
		<tag k="natural" v="water" />
		<tag k="ssr:stedsnr" v="430147" />
	</node>
	<node lat="60.13803602788673" lon="10.595129640281579" id="-13578">
		<tag k="name" v="Lenseløken" />
		<tag k="natural" v="water" />
		<tag k="ssr:stedsnr" v="491101" />
	</node>
	<node lat="60.354652775258536" lon="9.96900554755959" id="-13583">
		<tag k="alt_name" v="Svarttjern" />
		<tag k="name" v="Svartevannet" />
		<tag k="natural" v="water" />
		<tag k="ssr:stedsnr" v="430596" />
	</node>
	<node lat="60.09048448956531" lon="10.525946387717719" id="-13588">
		<tag k="alt_name" v="Smaltjernet" />
		<tag k="name" v="Smaltjern" />
		<tag k="natural" v="water" />
		<tag k="ssr:stedsnr" v="491145" />
	</node>
	<node lat="60.09150555854934" lon="10.482111112132051" id="-13589">
		<tag k="name" v="Oppkuvbekken" />
		<tag k="ssr:stedsnr" v="491147" />
		<tag k="waterway" v="stream" />
	</node>
	<node lat="60.44560610020083" lon="9.975133886112214" id="-13590">
		<tag k="name" v="Fisketjern" />
		<tag k="natural" v="water" />
		<tag k="ssr:stedsnr" v="431340" />
	</node>
	<node lat="60.32353610859183" lon="10.084486114261578" id="-13592">
		<tag k="name" v="Amundstubekken" />
		<tag k="ssr:stedsnr" v="431504" />
		<tag k="waterway" v="stream" />
	</node>
	<node lat="60.0940749982223" lon="10.398308334472652" id="-13593">
		<tag k="name" v="Store Lomma" />
		<tag k="ssr:stedsnr" v="491244" />
		<tag k="waterway" v="river" />
	</node>
	<node lat="60.3301361077854" lon="10.036713882918283" id="-13597">
		<tag k="alt_name" v="Rantjernet" />
		<tag k="name" v="Rantjern" />
		<tag k="natural" v="water" />
		<tag k="ssr:stedsnr" v="431498" />
	</node>
	<node lat="60.33963611237694" lon="9.999827780173593" id="-13598">
		<tag k="name" v="Flåbekken" />
		<tag k="ssr:stedsnr" v="431602" />
		<tag k="waterway" v="stream" />
	</node>
	<node lat="60.409602780556476" lon="10.1199194524911" id="-13599">
		<tag k="alt_name" v="Flåtevannet" />
		<tag k="name" v="Flåtåvatnet" />
		<tag k="natural" v="water" />
		<tag k="ssr:stedsnr" v="491258" />
	</node>
	<node lat="60.405783336572426" lon="10.106355554582834" id="-13600">
		<tag k="name" v="Moltetjern" />
		<tag k="natural" v="water" />
		<tag k="ssr:stedsnr" v="491262" />
	</node>
	<node lat="60.37971110770676" lon="9.848691668149836" id="-13604">
		<tag k="name" v="Nordre Åmotsbekken" />
		<tag k="ssr:stedsnr" v="431805" />
		<tag k="waterway" v="stream" />
	</node>
	<node lat="60.378973007655134" lon="9.908099455962121" id="-13606">
		<tag k="alt_name" v="Godlitjernet" />
		<tag k="name" v="Godlitjern" />
		<tag k="natural" v="water" />
		<tag k="ssr:stedsnr" v="431810" />
	</node>
	<node lat="60.3360333331985" lon="9.890413887293617" id="-13608">
		<tag k="name" v="Svarteputt" />
		<tag k="natural" v="water" />
		<tag k="ssr:stedsnr" v="431888" />
	</node>
	<node lat="60.33224166981467" lon="9.907949991100876" id="-13609">
		<tag k="alt_name" v="Svarttjernet" />
		<tag k="name" v="Svarttjern" />
		<tag k="natural" v="water" />
		<tag k="ssr:stedsnr" v="431889" />
	</node>
	<node lat="60.32922778025394" lon="9.873949995365635" id="-13610">
		<tag k="name" v="Krokbekken" />
		<tag k="ssr:stedsnr" v="431891" />
		<tag k="waterway" v="stream" />
	</node>
	<node lat="60.5141222242928" lon="9.955474993099202" id="-13611">
		<tag k="alt_name" v="Kimetjernet" />
		<tag k="name" v="Kimetjern" />
		<tag k="natural" v="water" />
		<tag k="ssr:stedsnr" v="431893" />
	</node>
	<node lat="60.43528150242076" lon="10.138580961893947" id="-13616">
		<tag k="alt_name" v="Vestre Rindsætertjernet;Vestre Rindsetertjern;Vestre Rinnesetertjern" />
		<tag k="name" v="Vestre Rindesetertjern" />
		<tag k="natural" v="water" />
		<tag k="ssr:stedsnr" v="491380" />
	</node>
	<node lat="60.32836944787126" lon="10.187858340840538" id="-13618">
		<tag k="alt_name" v="Breidtjern" />
		<tag k="name" v="Breitjern" />
		<tag k="natural" v="water" />
		<tag k="ssr:stedsnr" v="491472" />
	</node>
	<node lat="60.26691666346694" lon="10.310611104404503" id="-13621">
		<tag k="name" v="Bikkjetjern" />
		<tag k="natural" v="water" />
		<tag k="ssr:stedsnr" v="491445" />
	</node>
	<node lat="60.57926944601539" lon="10.049761104678515" id="-13625">
		<tag k="alt_name" v="Helsdamtjern" />
		<tag k="name" v="Hældamtjernet" />
		<tag k="natural" v="water" />
		<tag k="ssr:stedsnr" v="432551" />
	</node>
	<node lat="60.56069999826331" lon="10.039200008682595" id="-13627">
		<tag k="alt_name" v="Hauketjernet" />
		<tag k="name" v="Hauketjern" />
		<tag k="natural" v="water" />
		<tag k="ssr:stedsnr" v="432488" />
	</node>
	<node lat="60.560516665620035" lon="10.090574999391732" id="-13628">
		<tag k="alt_name" v="Gråfleintjernet" />
		<tag k="name" v="Gråfleintjern" />
		<tag k="natural" v="water" />
		<tag k="ssr:stedsnr" v="432492" />
	</node>
	<node lat="60.62914444736913" lon="10.037527783783153" id="-13630">
		<tag k="alt_name" v="Gråhattjernet" />
		<tag k="name" v="Gråhattjern" />
		<tag k="natural" v="water" />
		<tag k="ssr:stedsnr" v="432611" />
	</node>
	<node lat="60.45072777639357" lon="10.08084721333779" id="-13631">
		<tag k="name" v="Kleivtjern" />
		<tag k="natural" v="water" />
		<tag k="ssr:stedsnr" v="491544" />
	</node>
	<node lat="60.36304495026413" lon="9.882521890959842" id="-13638">
		<tag k="name" v="Hagatjernet" />
		<tag k="natural" v="water" />
		<tag k="ssr:stedsnr" v="491744" />
	</node>
	<node lat="60.39922500213066" lon="9.880830546682425" id="-13640">
		<tag k="name" v="Svintegjuvbekken" />
		<tag k="ssr:stedsnr" v="491942" />
		<tag k="waterway" v="stream" />
	</node>
	<node lat="60.58475286417327" lon="10.055048531698182" id="-13644">
		<tag k="alt_name" v="Aurtjernet" />
		<tag k="name" v="Auretjern" />
		<tag k="natural" v="water" />
		<tag k="ssr:stedsnr" v="492527" />
	</node>
	<node lat="60.53646111168173" lon="10.12457222548001" id="-13646">
		<tag k="name" v="Brennodden" />
		<tag k="natural" v="cape" />
		<tag k="ssr:stedsnr" v="492500" />
	</node>
	<node lat="60.61487500379531" lon="9.990238891326761" id="-13649">
		<tag k="name" v="Bjørnestampbekken" />
		<tag k="ssr:stedsnr" v="492649" />
		<tag k="waterway" v="stream" />
	</node>
	<node lat="60.44718333360701" lon="10.151955561567243" id="-13656">
		<tag k="name" v="Åborputten" />
		<tag k="natural" v="water" />
		<tag k="ssr:stedsnr" v="450767" />
	</node>
	<node lat="60.08101944113439" lon="10.555450003191813" id="-13663">
		<tag k="name" v="Stuevassbekken" />
		<tag k="ssr:stedsnr" v="451409" />
		<tag k="waterway" v="stream" />
	</node>
	<node lat="60.10101666743466" lon="10.570647223635758" id="-13664">
		<tag k="name" v="Løkmyrbekken" />
		<tag k="ssr:stedsnr" v="451411" />
		<tag k="waterway" v="stream" />
	</node>
	<node lat="60.13222777953668" lon="10.462200004440255" id="-13665">
		<tag k="name" v="Kvernbekken" />
		<tag k="ssr:stedsnr" v="451507" />
		<tag k="waterway" v="stream" />
	</node>
	<node lat="60.31782777715889" lon="10.244000006127516" id="-13667">
		<tag k="name" v="Lokketjern" />
		<tag k="natural" v="water" />
		<tag k="ssr:stedsnr" v="451579" />
	</node>
	<node lat="60.055158329039365" lon="10.5092666652962" id="-13668">
		<tag k="name" v="Heggelidammen" />
		<tag k="ssr:stedsnr" v="451464" />
		<tag k="waterway" v="dam" />
	</node>
	<node lat="60.22016997141132" lon="10.235818866215096" id="-13669">
		<tag k="loc_name" v="Vesletjern" />
		<tag k="name" v="Lilletjern" />
		<tag k="natural" v="water" />
		<tag k="ssr:stedsnr" v="451469" />
	</node>
	<node lat="60.119166670170415" lon="10.47927499932744" id="-13670">
		<tag k="name" v="Flåtadammen" />
		<tag k="ssr:stedsnr" v="451476" />
		<tag k="waterway" v="dam" />
	</node>
	<node lat="60.161797224965355" lon="10.344836106976084" id="-13676">
		<tag k="name" v="Båntjern" />
		<tag k="natural" v="water" />
		<tag k="ssr:stedsnr" v="451993" />
	</node>
	<node lat="60.34923333331107" lon="9.909697219162792" id="-13689">
		<tag k="name" v="Øvre Dammen" />
		<tag k="ssr:stedsnr" v="454005" />
		<tag k="waterway" v="dam" />
	</node>
	<node lat="60.35095555624808" lon="9.965977785107986" id="-13691">
		<tag k="name" v="Sandtjern" />
		<tag k="natural" v="water" />
		<tag k="ssr:stedsnr" v="454022" />
	</node>
	<node lat="60.43920555487688" lon="9.961019439573056" id="-13698">
		<tag k="name" v="Nordre Aurtjern" />
		<tag k="natural" v="water" />
		<tag k="ssr:stedsnr" v="454122" />
	</node>
	<node lat="60.45664722512492" lon="9.957861108445112" id="-13700">
		<tag k="name" v="Rumpetjern" />
		<tag k="natural" v="water" />
		<tag k="ssr:stedsnr" v="454179" />
	</node>
	<node lat="60.427852782142615" lon="9.978611112471786" id="-13701">
		<tag k="name" v="Halvorsdammen" />
		<tag k="place" v="locality" />
		<tag k="ssr:stedsnr" v="454182" />
	</node>
	<node lat="60.07549999730105" lon="10.058558340466595" id="-13703">
		<tag k="name" v="Skiftingen" />
		<tag k="natural" v="water" />
		<tag k="ssr:stedsnr" v="672233" />
	</node>
	<node lat="60.12633055137661" lon="10.17187777192651" id="-13706">
		<tag k="name" v="Nordfjorden" />
		<tag k="natural" v="water" />
		<tag k="ssr:stedsnr" v="672258" />
	</node>
	<node lat="60.530252774774205" lon="9.87236945242675" id="-13707">
		<tag k="name" v="Svarteputt" />
		<tag k="natural" v="water" />
		<tag k="ssr:stedsnr" v="454281" />
		<tag k="water" v="pond" />
	</node>
	<node lat="60.181111107119925" lon="9.928047230086417" id="-13714">
		<tag k="alt_name" v="Spillhaugtjern" />
		<tag k="name" v="Spelhaugtjern" />
		<tag k="natural" v="water" />
		<tag k="ssr:stedsnr" v="454675" />
	</node>
	<node lat="60.21209722504103" lon="10.094427772775251" id="-13717">
		<tag k="name" v="Risa" />
		<tag k="ssr:stedsnr" v="672466" />
		<tag k="waterway" v="stream" />
	</node>
	<node lat="60.247302774472544" lon="9.897313884574135" id="-13721">
		<tag k="name" v="Kroksruddammen" />
		<tag k="ssr:stedsnr" v="455164" />
		<tag k="waterway" v="dam" />
	</node>
	<node lat="60.361968504257426" lon="10.01816210595534" id="-13726">
		<tag k="alt_name" v="Søndre Rokotjern" />
		<tag k="fixme" v="multiple name tags, choose one and add the other to alt_name" />
		<tag k="name" v="Rokovatna;Søre Rokotjern" />
		<tag k="natural" v="water" />
		<tag k="ssr:stedsnr" v="672568" />
	</node>
	<node lat="60.15283217539323" lon="10.085532417298143" id="-13735">
		<tag k="name" v="Skjærsjøen" />
		<tag k="natural" v="water" />
		<tag k="ssr:stedsnr" v="672603" />
		<tag k="water" v="lake" />
	</node>
	<node lat="60.145871890215226" lon="10.099526918300441" id="-13736">
		<tag k="alt_name" v="Engeln" />
		<tag k="name" v="Engelen" />
		<tag k="natural" v="water" />
		<tag k="ssr:stedsnr" v="672604" />
	</node>
	<node lat="60.35264166801416" lon="10.086038884697956" id="-13740">
		<tag k="name" v="Killingstrømmen" />
		<tag k="ssr:stedsnr" v="672542" />
		<tag k="waterway" v="dam" />
	</node>
	<node lat="60.107083337495816" lon="10.191749998159823" id="-13755">
		<tag k="name" v="Averøya" />
		<tag k="natural" v="cape" />
		<tag k="ssr:stedsnr" v="672742" />
	</node>
	<node lat="60.142180551876635" lon="10.58868889114129" id="-13758">
		<tag k="name" v="Krokløken" />
		<tag k="natural" v="water" />
		<tag k="ssr:stedsnr" v="673117" />
	</node>
	<node lat="60.458025002818474" lon="10.12371389020822" id="-13766">
		<tag k="alt_name" v="Engersætertjernet" />
		<tag k="name" v="Engersetertjern" />
		<tag k="natural" v="water" />
		<tag k="ssr:stedsnr" v="673552" />
	</node>
	<node lat="60.294233328922466" lon="9.719788882238355" id="-13768">
		<tag k="alt_name" v="Vaskarbekken" />
		<tag k="name" v="Vasskarbekken" />
		<tag k="ssr:stedsnr" v="673682" />
		<tag k="waterway" v="stream" />
	</node>
	<node lat="60.37523511423034" lon="9.86507676593602" id="-13772">
		<tag k="alt_name" v="Moltetjernet" />
		<tag k="name" v="Moltetjern" />
		<tag k="natural" v="water" />
		<tag k="ssr:stedsnr" v="673796" />
	</node>
	<node lat="60.4098805554322" lon="9.860041664862095" id="-13773">
		<tag k="name" v="Åsputtane" />
		<tag k="place" v="locality" />
		<tag k="ssr:stedsnr" v="673954" />
	</node>
	<node lat="60.41919780094326" lon="9.92244398764204" id="-13774">
		<tag k="name" v="Kjøltjern" />
		<tag k="natural" v="water" />
		<tag k="ssr:stedsnr" v="673989" />
	</node>
	<node lat="60.415183329174475" lon="9.88945277477261" id="-13775">
		<tag k="name" v="Lauvbekken" />
		<tag k="ssr:stedsnr" v="673990" />
		<tag k="waterway" v="stream" />
	</node>
	<node lat="60.50246944271943" lon="9.972116672260519" id="-13786">
		<tag k="name" v="Killingtjernelva" />
		<tag k="ssr:stedsnr" v="674480" />
		<tag k="waterway" v="stream" />
	</node>
	<node lat="60.528474996332186" lon="10.108227770380205" id="-13789">
		<tag k="alt_name" v="Svartputten" />
		<tag k="name" v="Svartputt" />
		<tag k="natural" v="water" />
		<tag k="ssr:stedsnr" v="674540" />
	</node>
	<node lat="60.60930555894356" lon="10.044983340314642" id="-13793">
		<tag k="alt_name" v="Søndre Knutsætertjernet;Søndre Knutsetertjern" />
		<tag k="name" v="Søre Knutsetertjern" />
		<tag k="natural" v="water" />
		<tag k="ssr:stedsnr" v="674677" />
	</node>
	<node lat="60.47329999660885" lon="9.980944439487057" id="-13805">
		<tag k="name" v="Killingtjern" />
		<tag k="natural" v="water" />
		<tag k="ssr:stedsnr" v="272165" />
	</node>
	<node lat="60.32179167078297" lon="9.800861112400591" id="-13808">
		<tag k="fixme" v="multiple name tags, choose one and add the other to alt_name" />
		<tag k="name" v="Store Såttjernet;Såttjern" />
		<tag k="natural" v="water" />
		<tag k="ssr:stedsnr" v="478811" />
	</node>
	<node lat="60.388013888406604" lon="9.878847219774244" id="-13810">
		<tag k="alt_name" v="Eivannet" />
		<tag k="name" v="Eidvatnet" />
		<tag k="natural" v="water" />
		<tag k="ssr:stedsnr" v="478961" />
		<tag k="water" v="lake" />
	</node>
	<node lat="60.238830552882064" lon="10.237727773055688" id="-13818">
		<tag k="alt_name" v="Sætervadtjernet;Sætervadtjern" />
		<tag k="name" v="Setervadtjern" />
		<tag k="natural" v="water" />
		<tag k="ssr:stedsnr" v="489546" />
	</node>
	<node lat="60.124813885390445" lon="10.023641660354171" id="-13820">
		<tag k="alt_name" v="Svartvann" />
		<tag k="name" v="Svartvatna" />
		<tag k="natural" v="water" />
		<tag k="ssr:stedsnr" v="489734" />
	</node>
	<node lat="60.156628547067285" lon="10.568213711368648" id="-13824">
		<tag k="loc_name" v="Kattnosa" />
		<tag k="name" v="Katnosa" />
		<tag k="natural" v="water" />
		<tag k="ssr:stedsnr" v="490002" />
		<tag k="water" v="lake" />
	</node>
	<node lat="60.308168903230566" lon="9.713213873739207" id="-13825">
		<tag k="name" v="Kjelen" />
		<tag k="natural" v="water" />
		<tag k="ssr:stedsnr" v="490212" />
	</node>
	<node lat="60.075594441328526" lon="10.009186116743065" id="-13830">
		<tag k="alt_name" v="Berggardsløken" />
		<tag k="name" v="Berggardsløkane" />
		<tag k="natural" v="water" />
		<tag k="ssr:stedsnr" v="490244" />
		<tag k="water" v="lake" />
	</node>
	<node lat="60.18707538333574" lon="9.847864311464916" id="-13832">
		<tag k="name" v="Gruvetjenn" />
		<tag k="natural" v="water" />
		<tag k="ssr:stedsnr" v="490125" />
	</node>
	<node lat="60.13991666637934" lon="10.004075004072334" id="-13834">
		<tag k="name" v="Ormetjern" />
		<tag k="natural" v="water" />
		<tag k="ssr:stedsnr" v="490627" />
	</node>
	<node lat="60.0983305594572" lon="10.329961119470273" id="-13847">
		<tag k="name" v="Avskjæret" />
		<tag k="place" v="islet" />
		<tag k="ssr:stedsnr" v="490734" />
	</node>
	<node lat="60.14032222231922" lon="10.392544437756172" id="-13850">
		<tag k="alt_name" v="Gullontjernet" />
		<tag k="name" v="Gullovtjern" />
		<tag k="natural" v="water" />
		<tag k="old_name" v="Gullov Tj." />
		<tag k="ssr:stedsnr" v="491126" />
	</node>
	<node lat="60.40995833225259" lon="10.173802773387534" id="-13851">
		<tag k="alt_name" v="Nordre Urtjern" />
		<tag k="name" v="Nordre Urdtjern" />
		<tag k="natural" v="water" />
		<tag k="ssr:stedsnr" v="491281" />
	</node>
	<node lat="60.29348611369874" lon="10.146702778596637" id="-13853">
		<tag k="name" v="Igletjern" />
		<tag k="natural" v="water" />
		<tag k="ssr:stedsnr" v="491413" />
	</node>
	<node lat="60.30791110958639" lon="10.000202783057349" id="-13854">
		<tag k="name" v="Kruggeruda" />
		<tag k="ssr:stedsnr" v="491505" />
		<tag k="waterway" v="stream" />
	</node>
	<node lat="60.31470833479291" lon="10.035699999259197" id="-13859">
		<tag k="name" v="Svarttjern" />
		<tag k="natural" v="water" />
		<tag k="ssr:stedsnr" v="491480" />
	</node>
	<node lat="60.29610555833288" lon="9.883730561564557" id="-13863">
		<tag k="name" v="Kolleputt" />
		<tag k="natural" v="water" />
		<tag k="ssr:stedsnr" v="491674" />
	</node>
	<node lat="60.36817500419292" lon="9.90140555949383" id="-13865">
		<tag k="name" v="Venekollbekken" />
		<tag k="ssr:stedsnr" v="491784" />
		<tag k="waterway" v="stream" />
	</node>
	<node lat="60.464725004007" lon="9.93423333292411" id="-13866">
		<tag k="alt_name" v="Svarttjernet" />
		<tag k="name" v="Svarttjern" />
		<tag k="natural" v="water" />
		<tag k="ssr:stedsnr" v="491907" />
	</node>
	<node lat="60.49033055150669" lon="9.872963886072808" id="-13867">
		<tag k="alt_name" v="Deletjerna" />
		<tag k="name" v="Midtre Deletjern" />
		<tag k="natural" v="water" />
		<tag k="ssr:stedsnr" v="491929" />
	</node>
	<node lat="60.42493610674953" lon="9.833358339606352" id="-13868">
		<tag k="loc_name" v="Storjuvbekken" />
		<tag k="name" v="Storgjuvbekken" />
		<tag k="ssr:stedsnr" v="491975" />
		<tag k="waterway" v="stream" />
	</node>
	<node lat="60.311036918013514" lon="9.800487478079273" id="-13869">
		<tag k="name" v="Øvre Bjørnetjernet" />
		<tag k="natural" v="water" />
		<tag k="ssr:stedsnr" v="491820" />
	</node>
	<node lat="60.325370658652304" lon="9.79870311683206" id="-13870">
		<tag k="name" v="Vesle Såttjernet" />
		<tag k="natural" v="water" />
		<tag k="ssr:stedsnr" v="491875" />
	</node>
	<node lat="60.255269441089425" lon="10.223949996268901" id="-13873">
		<tag k="name" v="Svarttjern" />
		<tag k="natural" v="water" />
		<tag k="ssr:stedsnr" v="492293" />
	</node>
	<node lat="60.252366668823306" lon="10.115000001099272" id="-13874">
		<tag k="alt_name" v="Totjerna" />
		<tag k="name" v="Søndre Totjern" />
		<tag k="natural" v="water" />
		<tag k="ssr:stedsnr" v="492298" />
	</node>
	<node lat="60.266287677296795" lon="10.100197618138578" id="-13875">
		<tag k="fixme" v="multiple name tags, choose one and add the other to alt_name" />
		<tag k="name" v="Holmetjern;Gulsplassetertjern" />
		<tag k="natural" v="water" />
		<tag k="ssr:stedsnr" v="492405" />
	</node>
	<node lat="60.316086109915574" lon="9.742219441053352" id="-13877">
		<tag k="name" v="Steinbekken" />
		<tag k="ssr:stedsnr" v="492810" />
		<tag k="waterway" v="stream" />
	</node>
	<node lat="60.31462778053213" lon="9.948333337556264" id="-13878">
		<tag k="alt_name" v="Andtjernet" />
		<tag k="name" v="Andtjern" />
		<tag k="natural" v="water" />
		<tag k="ssr:stedsnr" v="492817" />
	</node>
	<node lat="60.25813610718439" lon="9.789577778681208" id="-13881">
		<tag k="name" v="Rustebekken" />
		<tag k="ssr:stedsnr" v="492728" />
		<tag k="waterway" v="stream" />
	</node>
	<node lat="60.326988457098224" lon="9.953960465539222" id="-13882">
		<tag k="alt_name" v="Saksentjernet" />
		<tag k="name" v="Saksentjern" />
		<tag k="natural" v="water" />
		<tag k="ssr:stedsnr" v="492869" />
	</node>
	<node lat="60.545780552179906" lon="9.889633340965716" id="-13883">
		<tag k="name" v="Storbekken" />
		<tag k="ssr:stedsnr" v="272767" />
		<tag k="waterway" v="stream" />
	</node>
	<node lat="60.523944441127234" lon="10.110241666453357" id="-13886">
		<tag k="name" v="Løken" />
		<tag k="natural" v="water" />
		<tag k="ssr:stedsnr" v="510170" />
		<tag k="water" v="lake" />
	</node>
	<node lat="60.33969722408243" lon="10.225194452895627" id="-13889">
		<tag k="name" v="Langtjernbekken" />
		<tag k="ssr:stedsnr" v="510957" />
		<tag k="waterway" v="stream" />
	</node>
	<node lat="60.095766663843406" lon="10.4114638874837" id="-13890">
		<tag k="name" v="Kulpen" />
		<tag k="natural" v="water" />
		<tag k="ssr:stedsnr" v="511052" />
		<tag k="water" v="pond" />
	</node>
	<node lat="60.15075278112271" lon="10.435880554264314" id="-13892">
		<tag k="name" v="Svarttjern" />
		<tag k="natural" v="water" />
		<tag k="ssr:stedsnr" v="511209" />
	</node>
	<node lat="60.397205557568654" lon="10.155766667506095" id="-13898">
		<tag k="name" v="Haugerudelva" />
		<tag k="ssr:stedsnr" v="511445" />
		<tag k="waterway" v="river" />
	</node>
	<node lat="60.4428388883793" lon="10.147652785301528" id="-13900">
		<tag k="name" v="Seterputten" />
		<tag k="natural" v="water" />
		<tag k="ssr:stedsnr" v="511750" />
	</node>
	<node lat="60.169538890171864" lon="10.253741674007664" id="-13902">
		<tag k="name" v="Hønefossen" />
		<tag k="natural" v="waterfall" />
		<tag k="ssr:stedsnr" v="512004" />
	</node>
	<node lat="60.48725555555511" lon="10.1681666719182" id="-13903">
		<tag k="name" v="Valtjernodden" />
		<tag k="natural" v="cape" />
		<tag k="ssr:stedsnr" v="511774" />
	</node>
	<node lat="60.46241389345135" lon="10.168644439046155" id="-13915">
		<tag k="name" v="Tronåa" />
		<tag k="ssr:stedsnr" v="512982" />
		<tag k="waterway" v="river" />
	</node>
	<node lat="60.22158055758383" lon="10.001705558694509" id="-13916">
		<tag k="name" v="Sverriputten" />
		<tag k="natural" v="water" />
		<tag k="ssr:stedsnr" v="513565" />
		<tag k="water" v="pond" />
	</node>
	<node lat="60.60213333304213" lon="10.046541663349688" id="-13917">
		<tag k="name" v="Øvre Gravåtjern" />
		<tag k="natural" v="water" />
		<tag k="ssr:stedsnr" v="513572" />
	</node>
	<node lat="60.45063888979065" lon="10.02699444368327" id="-13923">
		<tag k="name" v="Fossbekken" />
		<tag k="ssr:stedsnr" v="514325" />
		<tag k="waterway" v="stream" />
	</node>
	<node lat="60.61768611341543" lon="9.978088898031489" id="-13933">
		<tag k="name" v="Veslemyrbekken" />
		<tag k="ssr:stedsnr" v="514815" />
		<tag k="waterway" v="stream" />
	</node>
	<node lat="60.29540000414406" lon="9.912525006850517" id="-13936">
		<tag k="name" v="Brennevinstjern" />
		<tag k="natural" v="water" />
		<tag k="ssr:stedsnr" v="514919" />
	</node>
	<node lat="60.2734583310527" lon="9.812336103847723" id="-13941">
		<tag k="name" v="Halvorøya" />
		<tag k="place" v="island" />
		<tag k="ssr:stedsnr" v="515221" />
	</node>
	<node lat="60.207541671137776" lon="10.177800004499852" id="-13966">
		<tag k="name" v="Midttjern" />
		<tag k="natural" v="water" />
		<tag k="ssr:stedsnr" v="550546" />
	</node>
	<node lat="60.09130126333146" lon="10.022193399738992" id="-13969">
		<tag k="name" v="Hyttetjern" />
		<tag k="natural" v="water" />
		<tag k="ssr:stedsnr" v="550706" />
	</node>
	<node lat="60.103599995840156" lon="10.014566664528532" id="-13971">
		<tag k="name" v="Butjern" />
		<tag k="natural" v="water" />
		<tag k="ssr:stedsnr" v="550723" />
	</node>
	<node lat="60.15861633835977" lon="10.555493979473527" id="-13975">
		<tag k="name" v="Breivika" />
		<tag k="natural" v="bay" />
		<tag k="ssr:stedsnr" v="551003" />
	</node>
	<node lat="60.12692452981232" lon="10.44598581802228" id="-13977">
		<tag k="name" v="Vassendvika" />
		<tag k="natural" v="bay" />
		<tag k="ssr:stedsnr" v="551061" />
	</node>
	<node lat="60.223125001706606" lon="9.778100005338638" id="-13979">
		<tag k="name" v="Bergsjøelva" />
		<tag k="ssr:stedsnr" v="551214" />
		<tag k="waterway" v="stream" />
	</node>
	<node lat="60.37629407722813" lon="10.156606621628516" id="-13980">
		<tag k="name" v="Vesle Samsjøelva" />
		<tag k="ssr:stedsnr" v="551502" />
		<tag k="waterway" v="river" />
	</node>
	<node lat="60.46752222375149" lon="9.977805559859624" id="-13981">
		<tag k="name" v="Hestetjernbekken" />
		<tag k="ssr:stedsnr" v="551557" />
		<tag k="waterway" v="stream" />
	</node>
	<node lat="60.35788039815127" lon="10.189708117339778" id="-13983">
		<tag k="name" v="Samsjøen" />
		<tag k="natural" v="water" />
		<tag k="ssr:stedsnr" v="551603" />
		<tag k="water" v="lake" />
	</node>
	<node lat="60.479413887300964" lon="10.097749999657273" id="-13984">
		<tag k="alt_name" v="Totjerna" />
		<tag k="name" v="Vestre Totjern" />
		<tag k="natural" v="water" />
		<tag k="ssr:stedsnr" v="551711" />
	</node>
	<node lat="60.282266662344604" lon="10.092416674537459" id="-13987">
		<tag k="alt_name" v="Vestre Damtjern" />
		<tag k="name" v="Øvre Damtjern" />
		<tag k="natural" v="water" />
		<tag k="ssr:stedsnr" v="552442" />
	</node>
	<node lat="60.347391671042004" lon="10.199511109869075" id="-13988">
		<tag k="name" v="Korpetangen" />
		<tag k="natural" v="cape" />
		<tag k="ssr:stedsnr" v="552621" />
	</node>
	<node lat="60.482055555772504" lon="9.994633332517136" id="-13989">
		<tag k="name" v="Bosoa" />
		<tag k="ssr:stedsnr" v="552637" />
		<tag k="waterway" v="stream" />
	</node>
	<node lat="60.31545000287354" lon="10.184236104506647" id="-13992">
		<tag k="name" v="Somma" />
		<tag k="ssr:stedsnr" v="552521" />
		<tag k="waterway" v="river" />
	</node>
	<node lat="60.31506944892156" lon="10.094580559597778" id="-13994">
		<tag k="name" v="Listjernbekken" />
		<tag k="ssr:stedsnr" v="552528" />
		<tag k="waterway" v="stream" />
	</node>
	<node lat="60.30621389197645" lon="10.059591672094658" id="-13996">
		<tag k="name" v="Nordre Leiktjern" />
		<tag k="natural" v="water" />
		<tag k="ssr:stedsnr" v="552550" />
	</node>
	<node lat="60.30633610999011" lon="10.033480558609904" id="-13997">
		<tag k="name" v="Røstesetertjern" />
		<tag k="natural" v="water" />
		<tag k="ssr:stedsnr" v="552553" />
	</node>
	<node lat="60.28518610914978" lon="9.759475005781262" id="-13998">
		<tag k="alt_name" v="Nordtjernet" />
		<tag k="name" v="Nordtjern" />
		<tag k="natural" v="water" />
		<tag k="ssr:stedsnr" v="552708" />
	</node>
	<node lat="60.287649998741976" lon="9.937550008648921" id="-13999">
		<tag k="alt_name" v="Hvelvtjernet" />
		<tag k="name" v="Hvelvtjern" />
		<tag k="natural" v="water" />
		<tag k="ssr:stedsnr" v="552712" />
	</node>
	<node lat="60.37996110994337" lon="9.817283324692228" id="-14000">
		<tag k="name" v="Frisvasselva" />
		<tag k="ssr:stedsnr" v="552808" />
		<tag k="waterway" v="river" />
	</node>
	<node lat="60.3581000024057" lon="9.851030564312419" id="-14003">
		<tag k="name" v="Kvernhusbekken" />
		<tag k="ssr:stedsnr" v="552788" />
		<tag k="waterway" v="stream" />
	</node>
	<node lat="60.4799666678844" lon="9.872988887268498" id="-14005">
		<tag k="alt_name" v="Auretjernet" />
		<tag k="name" v="Auretjern" />
		<tag k="natural" v="water" />
		<tag k="ssr:stedsnr" v="552910" />
	</node>
	<node lat="60.4794027780319" lon="9.906547219446205" id="-14006">
		<tag k="alt_name" v="Steintjernet" />
		<tag k="name" v="Steintjern" />
		<tag k="natural" v="water" />
		<tag k="ssr:stedsnr" v="552911" />
	</node>
	<node lat="60.529586115328954" lon="10.120583327604555" id="-14008">
		<tag k="name" v="Storvika" />
		<tag k="natural" v="bay" />
		<tag k="ssr:stedsnr" v="553529" />
	</node>
	<node lat="60.59781944869644" lon="10.057655557302155" id="-14010">
		<tag k="alt_name" v="Merratjernet" />
		<tag k="name" v="Merratjern" />
		<tag k="natural" v="water" />
		<tag k="ssr:stedsnr" v="553580" />
	</node>
	<node lat="60.278183337712655" lon="9.777080558558854" id="-14021">
		<tag k="name" v="Gjøteløken" />
		<tag k="natural" v="bay" />
		<tag k="ssr:stedsnr" v="693228" />
	</node>
	<node lat="60.5752194487849" lon="10.000738894140422" id="-14023">
		<tag k="name" v="Fossbråtabekken" />
		<tag k="ssr:stedsnr" v="693543" />
		<tag k="waterway" v="stream" />
	</node>
	<node lat="60.57892222353737" lon="9.981813887443833" id="-14024">
		<tag k="name" v="Lyvika" />
		<tag k="natural" v="bay" />
		<tag k="ssr:stedsnr" v="693548" />
	</node>
	<node lat="60.58331110815096" lon="9.985197221567718" id="-14033">
		<tag k="name" v="Mysutjern" />
		<tag k="natural" v="water" />
		<tag k="ssr:stedsnr" v="571530" />
	</node>
	<node lat="60.45246388789887" lon="10.146175006199078" id="-14034">
		<tag k="name" v="Bjørnelitjern" />
		<tag k="natural" v="water" />
		<tag k="ssr:stedsnr" v="693782" />
	</node>
	<node lat="60.4434388926872" lon="10.14315554690567" id="-14036">
		<tag k="name" v="Seterbekken" />
		<tag k="ssr:stedsnr" v="693786" />
		<tag k="waterway" v="stream" />
	</node>
	<node lat="60.06705833482953" lon="10.441724994179964" id="-14040">
		<tag k="name" v="Okseløken" />
		<tag k="natural" v="water" />
		<tag k="ssr:stedsnr" v="572003" />
		<tag k="water" v="pond" />
	</node>
	<node lat="60.36426667089206" lon="10.14514166168105" id="-14042">
		<tag k="name" v="Seterputten" />
		<tag k="natural" v="water" />
		<tag k="ssr:stedsnr" v="572263" />
	</node>
	<node lat="60.559961110251365" lon="10.061333334119299" id="-14043">
		<tag k="name" v="Damtjernbekken" />
		<tag k="ssr:stedsnr" v="572196" />
		<tag k="waterway" v="stream" />
	</node>
	<node lat="60.294238888437754" lon="10.251497229711967" id="-14044">
		<tag k="name" v="Seterputten" />
		<tag k="natural" v="water" />
		<tag k="ssr:stedsnr" v="572305" />
	</node>
	<node lat="60.33998333698929" lon="10.200800001606346" id="-14048">
		<tag k="name" v="Karterudtjern" />
		<tag k="natural" v="water" />
		<tag k="ssr:stedsnr" v="693963" />
	</node>
	<node lat="60.10318178482716" lon="10.346417210082047" id="-14052">
		<tag k="name" v="Elvika" />
		<tag k="natural" v="bay" />
		<tag k="ssr:stedsnr" v="572918" />
	</node>
	<node lat="60.178620493752284" lon="10.005579814461584" id="-14056">
		<tag k="name" v="Leetjern" />
		<tag k="natural" v="water" />
		<tag k="ssr:stedsnr" v="574417" />
	</node>
	<node lat="60.438630558057014" lon="10.09508332567713" id="-14060">
		<tag k="name" v="Åborbekkodden" />
		<tag k="natural" v="cape" />
		<tag k="ssr:stedsnr" v="574646" />
	</node>
	<node lat="60.357813893024925" lon="10.084252781140554" id="-14062">
		<tag k="name" v="Buodden" />
		<tag k="natural" v="cape" />
		<tag k="ssr:stedsnr" v="574657" />
	</node>
	<node lat="60.48578889332101" lon="10.070336108243103" id="-14066">
		<tag k="name" v="Kvernbekken" />
		<tag k="ssr:stedsnr" v="574845" />
		<tag k="waterway" v="stream" />
	</node>
	<node lat="60.26156944601179" lon="10.153580553385586" id="-14069">
		<tag k="name" v="Skollerudelva" />
		<tag k="ssr:stedsnr" v="574849" />
		<tag k="waterway" v="river" />
	</node>
	<node lat="60.17064166304333" lon="9.940330548770497" id="-14080">
		<tag k="name" v="Nedre Kvigetjern" />
		<tag k="natural" v="water" />
		<tag k="ssr:stedsnr" v="575345" />
	</node>
	<node lat="60.31680000368781" lon="9.93605556170037" id="-14091">
		<tag k="name" v="Åbortjernbekken" />
		<tag k="ssr:stedsnr" v="575962" />
		<tag k="waterway" v="stream" />
	</node>
	<node lat="60.126480558406676" lon="10.232822214619802" id="-14104">
		<tag k="name" v="Sandtangen" />
		<tag k="natural" v="cape" />
		<tag k="ssr:stedsnr" v="695299" />
	</node>
	<node lat="60.360088889129585" lon="9.924430561491578" id="-14108">
		<tag k="name" v="Ellingputtene" />
		<tag k="natural" v="water" />
		<tag k="ssr:stedsnr" v="696037" />
		<tag k="water" v="lake" />
	</node>
	<node lat="60.17450555512944" lon="9.915927770410285" id="-14116">
		<tag k="name" v="Østertjern" />
		<tag k="natural" v="water" />
		<tag k="ssr:stedsnr" v="696379" />
	</node>
	<node lat="60.16460832894939" lon="9.994811115186426" id="-14119">
		<tag k="name" v="Klomshuetjern" />
		<tag k="natural" v="water" />
		<tag k="ssr:stedsnr" v="696401" />
	</node>
	<node lat="60.36144166548472" lon="10.095922218334161" id="-14123">
		<tag k="name" v="Ringbekken" />
		<tag k="ssr:stedsnr" v="696628" />
		<tag k="waterway" v="stream" />
	</node>
	<node lat="60.46210000110555" lon="10.098511105575401" id="-14133">
		<tag k="name" v="Tretjerna" />
		<tag k="natural" v="water" />
		<tag k="ssr:stedsnr" v="696755" />
		<tag k="water" v="pond" />
	</node>
	<node lat="60.35100833165959" lon="10.033502784038184" id="-14137">
		<tag k="name" v="Onnodam" />
		<tag k="natural" v="water" />
		<tag k="ssr:stedsnr" v="696798" />
		<tag k="water" v="pond" />
	</node>
	<node lat="60.47923333758764" lon="10.103238880567215" id="-14145">
		<tag k="name" v="Svarttjern" />
		<tag k="natural" v="water" />
		<tag k="ssr:stedsnr" v="696848" />
	</node>
	<node lat="60.2975749959048" lon="9.909836110441217" id="-14148">
		<tag k="name" v="Trolltjern" />
		<tag k="natural" v="water" />
		<tag k="ssr:stedsnr" v="696943" />
	</node>
	<node lat="60.3160833324782" lon="10.019419436237326" id="-14149">
		<tag k="name" v="Venetjern" />
		<tag k="natural" v="water" />
		<tag k="ssr:stedsnr" v="696945" />
	</node>
	<node lat="60.345387331561454" lon="10.00374727127432" id="-14153">
		<tag k="name" v="Lortholotjern" />
		<tag k="natural" v="water" />
		<tag k="ssr:stedsnr" v="696893" />
		<tag k="water" v="lake" />
	</node>
	<node lat="60.26859722064885" lon="9.865683324673801" id="-14159">
		<tag k="name" v="Gjuvbekken" />
		<tag k="ssr:stedsnr" v="697184" />
		<tag k="waterway" v="stream" />
	</node>
	<node lat="60.45495555618088" lon="9.899308328812236" id="-14166">
		<tag k="name" v="Skjelvebekk" />
		<tag k="ssr:stedsnr" v="697735" />
		<tag k="waterway" v="stream" />
	</node>
	<node lat="60.13276388467703" lon="10.162438893627575" id="-14171">
		<tag k="name" v="Hjellebekken" />
		<tag k="ssr:stedsnr" v="605201" />
		<tag k="waterway" v="stream" />
	</node>
	<node lat="60.04850833476201" lon="10.535122216380424" id="-14185">
		<tag k="name" v="Sildekulpane" />
		<tag k="natural" v="water" />
		<tag k="old_name" v="Silleputten;Sillekulpa;Silleput" />
		<tag k="ssr:stedsnr" v="611180" />
		<tag k="water" v="pond" />
	</node>
	<node lat="60.365488891666196" lon="10.030769437964416" id="-14190">
		<tag k="alt_name" v="Sæterbekken" />
		<tag k="name" v="Seterbekken" />
		<tag k="ssr:stedsnr" v="611605" />
		<tag k="waterway" v="stream" />
	</node>
	<node lat="60.15553333646738" lon="10.050050000845607" id="-14191">
		<tag k="name" v="Kalvetjern" />
		<tag k="natural" v="water" />
		<tag k="ssr:stedsnr" v="611610" />
	</node>
	<node lat="60.12220555779099" lon="10.18849166839427" id="-14199">
		<tag k="name" v="Røsholmstranda" />
		<tag k="natural" v="beach" />
		<tag k="ssr:stedsnr" v="611708" />
	</node>
	<node lat="60.125226666714504" lon="10.259084703679079" id="-14200">
		<tag k="alt_name" v="Frokøya" />
		<tag k="name" v="Froksøya" />
		<tag k="place" v="island" />
		<tag k="ssr:stedsnr" v="611726" />
	</node>
	<node lat="60.174956701672194" lon="9.960485747267013" id="-14203">
		<tag k="alt_name" v="Sessrudtjern" />
		<tag k="name" v="Sessrudsetertjern" />
		<tag k="natural" v="water" />
		<tag k="ssr:stedsnr" v="611769" />
	</node>
	<node lat="60.17423496854286" lon="10.464085029843151" id="-14205">
		<tag k="alt_name" v="Uglavannet" />
		<tag k="name" v="Ugla" />
		<tag k="natural" v="water" />
		<tag k="ssr:stedsnr" v="612021" />
	</node>
	<node lat="60.15333055141397" lon="10.47898889521699" id="-14207">
		<tag k="name" v="Steinbutjern" />
		<tag k="natural" v="water" />
		<tag k="ssr:stedsnr" v="612131" />
	</node>
	<node lat="60.09436110671172" lon="10.476094443839285" id="-14209">
		<tag k="alt_name" v="Dalstjernet" />
		<tag k="name" v="Dalstjern" />
		<tag k="natural" v="water" />
		<tag k="ssr:stedsnr" v="612170" />
	</node>
	<node lat="60.444951449392484" lon="10.121817311043827" id="-14211">
		<tag k="name" v="Rindeelva" />
		<tag k="ssr:stedsnr" v="612367" />
		<tag k="waterway" v="stream" />
	</node>
	<node lat="60.428650002833315" lon="9.985588881745294" id="-14212">
		<tag k="name" v="Halvorselva" />
		<tag k="ssr:stedsnr" v="612378" />
		<tag k="waterway" v="stream" />
	</node>
	<node lat="60.41718888589894" lon="9.970425004961099" id="-14215">
		<tag k="name" v="Damtjern" />
		<tag k="natural" v="water" />
		<tag k="ssr:stedsnr" v="612386" />
	</node>
	<node lat="60.27761666418588" lon="10.003391657825713" id="-14225">
		<tag k="name" v="Rådalsputten" />
		<tag k="natural" v="water" />
		<tag k="ssr:stedsnr" v="613423" />
	</node>
	<node lat="60.57377135664974" lon="10.05784742133322" id="-14226">
		<tag k="alt_name" v="Søndre Damtjern;Lunddamtjernet" />
		<tag k="name" v="Søre Damtjern" />
		<tag k="natural" v="water" />
		<tag k="ssr:stedsnr" v="613604" />
	</node>
	<node lat="60.55129444815415" lon="10.056933326665096" id="-14227">
		<tag k="name" v="Gråbeinbekken" />
		<tag k="ssr:stedsnr" v="613508" />
		<tag k="waterway" v="stream" />
	</node>
	<node lat="60.56272500418768" lon="10.032852786162783" id="-14228">
		<tag k="name" v="Rysjutjern" />
		<tag k="natural" v="water" />
		<tag k="ssr:stedsnr" v="613523" />
	</node>
	<node lat="60.55058332940077" lon="10.034913889471676" id="-14229">
		<tag k="name" v="Rysjubekken" />
		<tag k="ssr:stedsnr" v="613524" />
		<tag k="waterway" v="stream" />
	</node>
	<node lat="60.55700278138695" lon="10.107202774435889" id="-14230">
		<tag k="name" v="Øyvasselva" />
		<tag k="ssr:stedsnr" v="613601" />
		<tag k="waterway" v="river" />
	</node>
	<node lat="60.318612151986926" lon="9.964597131656266" id="-14231">
		<tag k="alt_name" v="Vesle Saksentjernet" />
		<tag k="name" v="Vesle Saksentjern" />
		<tag k="natural" v="water" />
		<tag k="ssr:stedsnr" v="613816" />
	</node>
	<node lat="60.55731388749793" lon="9.880841664664908" id="-14234">
		<tag k="name" v="Urula" />
		<tag k="ssr:stedsnr" v="613844" />
		<tag k="waterway" v="river" />
	</node>
	<node lat="60.5352361097753" lon="9.82819445343476" id="-14236">
		<tag k="name" v="Saubekken" />
		<tag k="ssr:stedsnr" v="613859" />
		<tag k="waterway" v="stream" />
	</node>
	<node lat="60.40268182786752" lon="9.944687447007555" id="-14238">
		<tag k="alt_name" v="Nordre Ulevann" />
		<tag k="loc_name" v="Nørdre Urdevatnet" />
		<tag k="name" v="Nordre Urdevatnet" />
		<tag k="natural" v="water" />
		<tag k="old_name" v="Nordre Urdevatna" />
		<tag k="ssr:stedsnr" v="613935" />
		<tag k="water" v="lake" />
	</node>
	<node lat="60.572008335140666" lon="9.987680557580273" id="-14241">
		<tag k="name" v="Øymotjern" />
		<tag k="natural" v="water" />
		<tag k="ssr:stedsnr" v="631503" />
	</node>
	<node lat="60.14526111115508" lon="10.421336116731226" id="-14248">
		<tag k="name" v="Gjørudputten" />
		<tag k="natural" v="water" />
		<tag k="ssr:stedsnr" v="632237" />
		<tag k="water" v="pond" />
	</node>
	<node lat="60.216919446027774" lon="9.780522217408965" id="-14249">
		<tag k="name" v="Auresvingen" />
		<tag k="ssr:stedsnr" v="632339" />
		<tag k="waterway" v="river" />
	</node>
	<node lat="60.24816944145671" lon="10.21015556319959" id="-14254">
		<tag k="name" v="Slåttemyrbekken" />
		<tag k="ssr:stedsnr" v="633306" />
		<tag k="waterway" v="stream" />
	</node>
	<node lat="60.114091666049646" lon="10.472336116701886" id="-14258">
		<tag k="name" v="Langtangvika" />
		<tag k="natural" v="bay" />
		<tag k="ssr:stedsnr" v="633503" />
	</node>
	<node lat="60.46800278139867" lon="10.157405558646255" id="-14260">
		<tag k="name" v="Lykkebotbekken" />
		<tag k="ssr:stedsnr" v="633983" />
		<tag k="waterway" v="stream" />
	</node>
	<node lat="60.55186666692878" lon="10.100555563396927" id="-14263">
		<tag k="name" v="Heggebekken" />
		<tag k="ssr:stedsnr" v="634512" />
		<tag k="waterway" v="stream" />
	</node>
	<node lat="60.18538501746811" lon="10.055770156836418" id="-14266">
		<tag k="name" v="Tollputtan" />
		<tag k="natural" v="water" />
		<tag k="ssr:stedsnr" v="635125" />
	</node>
	<node lat="60.371747222966015" lon="10.01318055071094" id="-14267">
		<tag k="name" v="Fjellseterbekken" />
		<tag k="ssr:stedsnr" v="635077" />
		<tag k="waterway" v="stream" />
	</node>
	<node lat="60.5145055569767" lon="9.928113893629114" id="-14275">
		<tag k="name" v="Bea" />
		<tag k="ssr:stedsnr" v="635683" />
		<tag k="waterway" v="river" />
	</node>
	<node lat="60.27223333487596" lon="10.037344443440249" id="-14280">
		<tag k="name" v="Annammerodden" />
		<tag k="natural" v="cape" />
		<tag k="ssr:stedsnr" v="635827" />
	</node>
	<node lat="60.466236107706045" lon="10.117383327699752" id="-14282">
		<tag k="name" v="Stormstjern" />
		<tag k="natural" v="water" />
		<tag k="ssr:stedsnr" v="635738" />
	</node>
	<node lat="60.55570833630287" lon="9.957541667474272" id="-14287">
		<tag k="name" v="Sildefjorden" />
		<tag k="natural" v="water" />
		<tag k="ssr:stedsnr" v="635784" />
	</node>
	<node lat="60.41601389174509" lon="9.851205552283623" id="-14295">
		<tag k="name" v="Klemma" />
		<tag k="place" v="locality" />
		<tag k="ssr:stedsnr" v="636035" />
	</node>
	<node lat="60.26917500105538" lon="9.832675006614593" id="-14297">
		<tag k="name" v="Geitungøya" />
		<tag k="place" v="island" />
		<tag k="ssr:stedsnr" v="636212" />
	</node>
	<node lat="60.15561666318652" lon="10.490413884729367" id="-14315">
		<tag k="alt_name" v="Fagervann" />
		<tag k="name" v="Fagervatnet" />
		<tag k="natural" v="water" />
		<tag k="ssr:stedsnr" v="660105" />
	</node>
	<node lat="60.368025002673726" lon="9.846555559271824" id="-14316">
		<tag k="alt_name" v="Søndre Åmotsbekken" />
		<tag k="name" v="Søre Åmotsbekken" />
		<tag k="ssr:stedsnr" v="660769" />
		<tag k="waterway" v="stream" />
	</node>
	<node lat="60.50223055760555" lon="10.125394451257922" id="-14318">
		<tag k="name" v="Dalabekken" />
		<tag k="ssr:stedsnr" v="709142" />
		<tag k="waterway" v="stream" />
	</node>
	<node lat="60.367783329940806" lon="9.78005276950671" id="-14324">
		<tag k="name" v="Kriktjern" />
		<tag k="natural" v="water" />
		<tag k="ssr:stedsnr" v="890434" />
	</node>
	<node lat="60.16921111185757" lon="10.429741664624272" id="-14328">
		<tag k="name" v="Jonsetangen" />
		<tag k="natural" v="cape" />
		<tag k="ssr:stedsnr" v="672016" />
	</node>
	<node lat="60.06899016001521" lon="10.50389721640671" id="-14333">
		<tag k="alt_name" v="Halstjernet" />
		<tag k="name" v="Halstjern" />
		<tag k="natural" v="water" />
		<tag k="ssr:stedsnr" v="672217" />
	</node>
	<node lat="60.06080277826372" lon="10.089108332362686" id="-14342">
		<tag k="name" v="Haugstangen" />
		<tag k="natural" v="cape" />
		<tag k="ssr:stedsnr" v="672310" />
	</node>
	<node lat="60.44825555576956" lon="9.838852783089006" id="-14343">
		<tag k="name" v="Hestebekken" />
		<tag k="ssr:stedsnr" v="272470" />
		<tag k="waterway" v="stream" />
	</node>
	<node lat="60.20243610964569" lon="10.250861104421332" id="-14346">
		<tag k="name" v="Svinefoss" />
		<tag k="natural" v="waterfall" />
		<tag k="ssr:stedsnr" v="672511" />
	</node>
	<node lat="60.16086388496578" lon="9.877794445316939" id="-14348">
		<tag k="name" v="Mortenvatna" />
		<tag k="natural" v="water" />
		<tag k="ssr:stedsnr" v="672763" />
		<tag k="water" v="lake" />
	</node>
	<node lat="60.099138885924795" lon="10.007599998371445" id="-14350">
		<tag k="name" v="Bikkjetjern" />
		<tag k="natural" v="water" />
		<tag k="ssr:stedsnr" v="672735" />
	</node>
	<node lat="60.0302194480536" lon="10.514422217923132" id="-14351">
		<tag k="name" v="Heggelielva" />
		<tag k="ssr:stedsnr" v="672962" />
		<tag k="waterway" v="stream" />
	</node>
	<node lat="60.2449489749131" lon="9.99561662867769" id="-14352">
		<tag k="name" v="Veslesetertjernet" />
		<tag k="natural" v="water" />
		<tag k="ssr:stedsnr" v="672976" />
	</node>
	<node lat="60.11029999618803" lon="9.959450001305408" id="-14356">
		<tag k="name" v="Løkelva" />
		<tag k="ssr:stedsnr" v="672834" />
		<tag k="waterway" v="stream" />
	</node>
	<node lat="60.13722777388632" lon="10.501736116952616" id="-14358">
		<tag k="name" v="Langtjernbekken" />
		<tag k="ssr:stedsnr" v="673096" />
		<tag k="waterway" v="stream" />
	</node>
	<node lat="60.335552778850726" lon="10.233025006837282" id="-14364">
		<tag k="name" v="Langtjern" />
		<tag k="natural" v="water" />
		<tag k="ssr:stedsnr" v="673460" />
	</node>
	<node lat="60.30436436058614" lon="10.271260146726855" id="-14367">
		<tag k="name" v="Nordre Vælsvatnet" />
		<tag k="natural" v="water" />
		<tag k="ssr:stedsnr" v="673518" />
		<tag k="water" v="lake" />
	</node>
	<node lat="60.3458055524034" lon="10.116463897614953" id="-14370">
		<tag k="name" v="Urddalsbekken" />
		<tag k="ssr:stedsnr" v="673575" />
		<tag k="waterway" v="stream" />
	</node>
	<node lat="60.25946944372497" lon="10.102083336870026" id="-14376">
		<tag k="alt_name" v="Ellingsætertjernet" />
		<tag k="name" v="Ellingsetertjern" />
		<tag k="natural" v="water" />
		<tag k="ssr:stedsnr" v="674409" />
	</node>
	<node lat="60.262652782256644" lon="10.224194438142465" id="-14378">
		<tag k="alt_name" v="Øvre Damtjern" />
		<tag k="name" v="Søndre Damtjern" />
		<tag k="natural" v="water" />
		<tag k="ssr:stedsnr" v="674414" />
	</node>
	<node lat="60.517446379290654" lon="10.113260267420978" id="-14380">
		<tag k="alt_name" v="Åbortjernet" />
		<tag k="name" v="Åbortjern" />
		<tag k="natural" v="water" />
		<tag k="ssr:stedsnr" v="674461" />
	</node>
	<node lat="60.50051111459649" lon="10.068952769846677" id="-14395">
		<tag k="name" v="Skagnesodden" />
		<tag k="natural" v="cape" />
		<tag k="ssr:stedsnr" v="693225" />
	</node>
	<node lat="60.571116670019094" lon="10.068399995692904" id="-14398">
		<tag k="name" v="Hviletjern" />
		<tag k="natural" v="water" />
		<tag k="ssr:stedsnr" v="693193" />
	</node>
	<node lat="60.160216670829364" lon="10.376019439857528" id="-14399">
		<tag k="name" v="Lille Røstjern" />
		<tag k="natural" v="water" />
		<tag k="ssr:stedsnr" v="693316" />
	</node>
	<node lat="60.32103333078648" lon="10.231483340256908" id="-14402">
		<tag k="name" v="Bjørntjern" />
		<tag k="natural" v="water" />
		<tag k="ssr:stedsnr" v="693587" />
	</node>
	<node lat="60.417586114445854" lon="10.158788893715057" id="-14403">
		<tag k="name" v="Gamledammen" />
		<tag k="natural" v="water" />
		<tag k="ssr:stedsnr" v="693805" />
	</node>
	<node lat="60.10920833507984" lon="10.141122224628777" id="-14405">
		<tag k="name" v="Veholtvika" />
		<tag k="natural" v="bay" />
		<tag k="ssr:stedsnr" v="694011" />
	</node>
	<node lat="60.50943888832926" lon="10.155011108560032" id="-14412">
		<tag k="name" v="Snellrøysbekken" />
		<tag k="ssr:stedsnr" v="694882" />
		<tag k="waterway" v="stream" />
	</node>
	<node lat="60.33734722416335" lon="10.177955552327834" id="-14413">
		<tag k="name" v="Askemyrbekken" />
		<tag k="ssr:stedsnr" v="694983" />
		<tag k="waterway" v="stream" />
	</node>
	<node lat="60.376252773947435" lon="9.921927772579686" id="-14419">
		<tag k="name" v="Elgsdalputten" />
		<tag k="natural" v="water" />
		<tag k="ssr:stedsnr" v="696080" />
		<tag k="water" v="pond" />
	</node>
	<node lat="60.39926666515507" lon="9.97189166469182" id="-14422">
		<tag k="name" v="Andtjern" />
		<tag k="natural" v="water" />
		<tag k="ssr:stedsnr" v="696119" />
	</node>
	<node lat="60.39505555632821" lon="9.967319450465338" id="-14423">
		<tag k="name" v="Feletjern" />
		<tag k="natural" v="water" />
		<tag k="ssr:stedsnr" v="696123" />
	</node>
	<node lat="60.30493055389186" lon="9.874661108536074" id="-14427">
		<tag k="name" v="Engertjern" />
		<tag k="natural" v="water" />
		<tag k="ssr:stedsnr" v="696565" />
	</node>
	<node lat="60.20513055164259" lon="10.069744445872214" id="-14435">
		<tag k="name" v="Tjærebrenneriet" />
		<tag k="natural" v="cape" />
		<tag k="ssr:stedsnr" v="696817" />
	</node>
	<node lat="60.267908330549425" lon="10.03706111343358" id="-14438">
		<tag k="name" v="Rønningshølfossen" />
		<tag k="natural" v="waterfall" />
		<tag k="ssr:stedsnr" v="696879" />
	</node>
	<node lat="60.267150002614855" lon="10.024872229293852" id="-14439">
		<tag k="name" v="Kollebekken" />
		<tag k="ssr:stedsnr" v="696881" />
		<tag k="waterway" v="stream" />
	</node>
	<node lat="60.363383329052624" lon="10.074466672421716" id="-14441">
		<tag k="name" v="Dølatangen" />
		<tag k="natural" v="cape" />
		<tag k="ssr:stedsnr" v="696773" />
	</node>
	<node lat="60.32547777955925" lon="10.111724996369734" id="-14447">
		<tag k="name" v="Tangestutjernet" />
		<tag k="natural" v="water" />
		<tag k="ssr:stedsnr" v="696913" />
	</node>
	<node lat="60.30591666251192" lon="9.950447214917878" id="-14448">
		<tag k="name" v="Skjeivstøveltjern" />
		<tag k="natural" v="water" />
		<tag k="ssr:stedsnr" v="696965" />
	</node>
	<node lat="60.306219447099046" lon="9.953441665637461" id="-14449">
		<tag k="name" v="Sønstetjern" />
		<tag k="natural" v="water" />
		<tag k="ssr:stedsnr" v="696966" />
	</node>
	<node lat="60.32610833117631" lon="10.108166666205221" id="-14450">
		<tag k="name" v="Teigtjernet" />
		<tag k="natural" v="water" />
		<tag k="ssr:stedsnr" v="696967" />
	</node>
	<node lat="60.34037222050356" lon="10.114725002962475" id="-14451">
		<tag k="name" v="Dælabekken" />
		<tag k="ssr:stedsnr" v="696970" />
		<tag k="waterway" v="stream" />
	</node>
	<node lat="60.25215000176023" lon="9.796325005356653" id="-14453">
		<tag k="name" v="Haviktjern" />
		<tag k="natural" v="water" />
		<tag k="ssr:stedsnr" v="697206" />
	</node>
	<node lat="60.177925003930234" lon="9.988752775851744" id="-14466">
		<tag k="name" v="Steinbekken" />
		<tag k="ssr:stedsnr" v="732605" />
		<tag k="waterway" v="stream" />
	</node>
	<node lat="60.15539166720776" lon="10.0095750035685" id="-14467">
		<tag k="name" v="Karusetjernet" />
		<tag k="natural" v="water" />
		<tag k="ssr:stedsnr" v="732634" />
	</node>
	<node lat="60.15655555728861" lon="10.432524998293951" id="-14470">
		<tag k="name" v="Tvetjerna" />
		<tag k="natural" v="water" />
		<tag k="ssr:stedsnr" v="733013" />
		<tag k="water" v="lake" />
	</node>
	<node lat="60.17154543400159" lon="10.517527396044713" id="-14471">
		<tag k="alt_name" v="Finntjernet" />
		<tag k="name" v="Finntjern" />
		<tag k="natural" v="water" />
		<tag k="ssr:stedsnr" v="733043" />
	</node>
	<node lat="60.1298611110032" lon="10.169447230621046" id="-14475">
		<tag k="alt_name" v="Sokna" />
		<tag k="name" v="Sogna" />
		<tag k="old_name" v="Songa" />
		<tag k="ssr:stedsnr" v="733191" />
		<tag k="waterway" v="river" />
	</node>
	<node lat="60.039474997609815" lon="10.046802778821839" id="-14477">
		<tag k="alt_name" v="Henoa" />
		<tag k="name" v="Henåa" />
		<tag k="ssr:stedsnr" v="733300" />
		<tag k="waterway" v="river" />
	</node>
	<node lat="60.35058611016221" lon="9.997294451936192" id="-14485">
		<tag k="name" v="Strandvipetjern" />
		<tag k="natural" v="water" />
		<tag k="ssr:stedsnr" v="733550" />
	</node>
	<node lat="60.36859999651866" lon="10.123480552324288" id="-14486">
		<tag k="name" v="Svarttjern" />
		<tag k="natural" v="water" />
		<tag k="ssr:stedsnr" v="733588" />
	</node>
	<node lat="60.13041388743364" lon="10.016924995707647" id="-14490">
		<tag k="name" v="Sniken" />
		<tag k="natural" v="water" />
		<tag k="ssr:stedsnr" v="733637" />
	</node>
	<node lat="60.0887722242428" lon="10.566172218398492" id="-14495">
		<tag k="name" v="Kringla" />
		<tag k="natural" v="water" />
		<tag k="ssr:stedsnr" v="734142" />
	</node>
	<node lat="60.088380556808474" lon="10.523722225713808" id="-14496">
		<tag k="name" v="Såttjernet" />
		<tag k="natural" v="water" />
		<tag k="ssr:stedsnr" v="734144" />
	</node>
	<node lat="60.39403610893974" lon="10.163513896205131" id="-14499">
		<tag k="name" v="Soltjern" />
		<tag k="natural" v="water" />
		<tag k="ssr:stedsnr" v="734333" />
	</node>
	<node lat="60.42273611038486" lon="10.131000004030131" id="-14503">
		<tag k="alt_name" v="Elgtjern" />
		<tag k="name" v="Elgstjern" />
		<tag k="natural" v="water" />
		<tag k="ssr:stedsnr" v="734411" />
	</node>
	<node lat="60.313524999345155" lon="9.765383326976606" id="-14516">
		<tag k="name" v="Brekkebekken" />
		<tag k="ssr:stedsnr" v="734816" />
		<tag k="waterway" v="stream" />
	</node>
	<node lat="60.46933333082711" lon="9.83446111962525" id="-14518">
		<tag k="name" v="Godlibekken" />
		<tag k="ssr:stedsnr" v="734886" />
		<tag k="waterway" v="stream" />
	</node>
	<node lat="60.38198055596474" lon="9.884755558373016" id="-14522">
		<tag k="name" v="Nordre Putten" />
		<tag k="natural" v="water" />
		<tag k="ssr:stedsnr" v="734784" />
	</node>
	<node lat="60.518461114110224" lon="9.929408333325437" id="-14524">
		<tag k="name" v="Fløten" />
		<tag k="natural" v="water" />
		<tag k="ssr:stedsnr" v="735877" />
	</node>
	<node lat="60.16827400667478" lon="10.370062965164687" id="-14525">
		<tag k="alt_name" v="Mosetjern" />
		<tag k="name" v="Mosatjern" />
		<tag k="natural" v="water" />
		<tag k="old_name" v="Maasaatj" />
		<tag k="ssr:stedsnr" v="903023" />
	</node>
	<node lat="60.180102775437646" lon="10.47015000787992" id="-14526">
		<tag k="alt_name" v="Djupvannet" />
		<tag k="name" v="Djupvatnet" />
		<tag k="natural" v="water" />
		<tag k="ssr:stedsnr" v="903042" />
	</node>
	<node lat="60.136886113291375" lon="10.460461107851577" id="-14527">
		<tag k="alt_name" v="Vesle Åbortjernet;Lille Åbortjern" />
		<tag k="name" v="Vesle Åbortjern" />
		<tag k="natural" v="water" />
		<tag k="ssr:stedsnr" v="903071" />
	</node>
	<node lat="60.38111944060189" lon="9.943483331142286" id="-14530">
		<tag k="alt_name" v="Ulevasselva" />
		<tag k="name" v="Urdevasselva" />
		<tag k="ssr:stedsnr" v="903781" />
		<tag k="waterway" v="river" />
	</node>
	<node lat="60.55550833689314" lon="9.967619451713718" id="-14538">
		<tag k="name" v="Hengsleøya" />
		<tag k="place" v="island" />
		<tag k="ssr:stedsnr" v="753519" />
	</node>
	<node lat="60.076497225986714" lon="10.386319452990634" id="-14543">
		<tag k="name" v="Vesle-Lomma" />
		<tag k="ssr:stedsnr" v="754002" />
		<tag k="waterway" v="stream" />
	</node>
	<node lat="60.51975555308679" lon="10.135383341331957" id="-14547">
		<tag k="name" v="Sjursvika" />
		<tag k="natural" v="bay" />
		<tag k="ssr:stedsnr" v="754210" />
	</node>
	<node lat="60.25669444706883" lon="10.286133332569646" id="-14553">
		<tag k="name" v="Svarttjern" />
		<tag k="natural" v="water" />
		<tag k="ssr:stedsnr" v="755851" />
	</node>
	<node lat="60.25905833651775" lon="10.288719438518154" id="-14554">
		<tag k="name" v="Svartputt" />
		<tag k="natural" v="water" />
		<tag k="old_name" v="Svarttputt" />
		<tag k="ssr:stedsnr" v="755853" />
	</node>
	<node lat="60.50645833465017" lon="10.140194441718338" id="-14556">
		<tag k="name" v="Langvikbekken" />
		<tag k="ssr:stedsnr" v="755897" />
		<tag k="waterway" v="stream" />
	</node>
	<node lat="60.34760000311495" lon="9.917552774574526" id="-14558">
		<tag k="name" v="Øvre Kolsjøputtene" />
		<tag k="natural" v="water" />
		<tag k="ssr:stedsnr" v="757005" />
		<tag k="water" v="lake" />
	</node>
	<node lat="60.126348922199284" lon="10.047360930489106" id="-14560">
		<tag k="name" v="Orretjern" />
		<tag k="natural" v="water" />
		<tag k="ssr:stedsnr" v="757002" />
	</node>
	<node lat="60.50427777893481" lon="9.869266662661985" id="-14565">
		<tag k="name" v="Bekkevollbekken" />
		<tag k="ssr:stedsnr" v="757321" />
		<tag k="waterway" v="stream" />
	</node>
	<node lat="60.14323055458717" lon="9.958238890542006" id="-14566">
		<tag k="name" v="Kroktjern" />
		<tag k="natural" v="water" />
		<tag k="ssr:stedsnr" v="757346" />
	</node>
	<node lat="60.35782499639997" lon="10.08671666233734" id="-14569">
		<tag k="name" v="Ringvika" />
		<tag k="natural" v="bay" />
		<tag k="ssr:stedsnr" v="757601" />
	</node>
	<node lat="60.490049996812054" lon="9.942633337910843" id="-14572">
		<tag k="name" v="Firkanten" />
		<tag k="natural" v="water" />
		<tag k="ssr:stedsnr" v="757618" />
	</node>
	<node lat="60.281222223092605" lon="10.048802777321466" id="-14577">
		<tag k="name" v="Køladalsbekken" />
		<tag k="ssr:stedsnr" v="757863" />
		<tag k="waterway" v="stream" />
	</node>
	<node lat="60.62732222229965" lon="9.913261115536383" id="-14581">
		<tag k="name" v="Slarva" />
		<tag k="place" v="island" />
		<tag k="ssr:stedsnr" v="757925" />
	</node>
	<node lat="60.3343638890647" lon="10.048627783330526" id="-14582">
		<tag k="name" v="Vestre Damtjern" />
		<tag k="natural" v="water" />
		<tag k="ssr:stedsnr" v="757931" />
	</node>
	<node lat="60.34282499999678" lon="10.076758327638586" id="-14585">
		<tag k="name" v="Styggedalsbekken" />
		<tag k="ssr:stedsnr" v="757951" />
		<tag k="waterway" v="stream" />
	</node>
	<node lat="60.08943333228724" lon="10.080769443495711" id="-14598">
		<tag k="alt_name" v="Solbergtjernet" />
		<tag k="name" v="Solbergtjern" />
		<tag k="natural" v="water" />
		<tag k="ssr:stedsnr" v="793293" />
	</node>
	<node lat="60.17396388796018" lon="9.979250008491114" id="-14599">
		<tag k="name" v="Damtjern" />
		<tag k="natural" v="water" />
		<tag k="ssr:stedsnr" v="793605" />
	</node>
	<node lat="60.14950000201775" lon="9.96950000438139" id="-14600">
		<tag k="name" v="Blekkentjern" />
		<tag k="natural" v="water" />
		<tag k="ssr:stedsnr" v="793669" />
	</node>
	<node lat="60.17120555145554" lon="10.408630546501046" id="-14607">
		<tag k="alt_name" v="Kolltjernet" />
		<tag k="name" v="Kolltjern" />
		<tag k="natural" v="water" />
		<tag k="ssr:stedsnr" v="794020" />
	</node>
	<node lat="60.142637638402874" lon="10.502482192760434" id="-14608">
		<tag k="alt_name" v="Langtjernet" />
		<tag k="name" v="Langtjern" />
		<tag k="natural" v="water" />
		<tag k="ssr:stedsnr" v="794097" />
	</node>
	<node lat="60.230550000042776" lon="9.849877768785138" id="-14609">
		<tag k="name" v="Eidselva" />
		<tag k="ssr:stedsnr" v="794207" />
		<tag k="waterway" v="stream" />
	</node>
	<node lat="60.0667027757932" lon="10.4563861120273" id="-14610">
		<tag k="alt_name" v="Kusteintjernet" />
		<tag k="name" v="Kusteintjern" />
		<tag k="natural" v="water" />
		<tag k="ssr:stedsnr" v="794209" />
	</node>
	<node lat="60.15771111113314" lon="10.502444443604903" id="-14613">
		<tag k="name" v="Spålen" />
		<tag k="natural" v="water" />
		<tag k="ssr:stedsnr" v="794113" />
		<tag k="water" v="lake" />
	</node>
	<node lat="60.368236106814074" lon="10.149727786402492" id="-14619">
		<tag k="name" v="Brålibekken" />
		<tag k="ssr:stedsnr" v="794620" />
		<tag k="waterway" v="stream" />
	</node>
	<node lat="60.186194444819435" lon="10.237880559647438" id="-14626">
		<tag k="name" v="Hovsfoss" />
		<tag k="natural" v="waterfall" />
		<tag k="ssr:stedsnr" v="794573" />
	</node>
	<node lat="60.129736115549335" lon="10.172805547590722" id="-14630">
		<tag k="name" v="Karlsrudtangen" />
		<tag k="natural" v="cape" />
		<tag k="ssr:stedsnr" v="794672" />
	</node>
	<node lat="60.40625746412222" lon="10.150964804009815" id="-14631">
		<tag k="name" v="Nydammen" />
		<tag k="ssr:stedsnr" v="795292" />
		<tag k="waterway" v="dam" />
	</node>
	<node lat="60.30277499801068" lon="9.999619452179656" id="-14632">
		<tag k="name" v="Gåstjern" />
		<tag k="natural" v="water" />
		<tag k="ssr:stedsnr" v="795558" />
	</node>
	<node lat="60.489602775059694" lon="10.167994440012098" id="-14633">
		<tag k="alt_name" v="Vardtjernet" />
		<tag k="name" v="Valtjern" />
		<tag k="natural" v="water" />
		<tag k="ssr:stedsnr" v="795717" />
	</node>
	<node lat="60.489724995733496" lon="10.142702775842718" id="-14634">
		<tag k="alt_name" v="Fibeltjern" />
		<tag k="name" v="Fibertjern" />
		<tag k="natural" v="water" />
		<tag k="ssr:stedsnr" v="795720" />
	</node>
	<node lat="60.49023055716473" lon="10.158791666229536" id="-14635">
		<tag k="alt_name" v="Gramstjernet" />
		<tag k="name" v="Gramstjern" />
		<tag k="natural" v="water" />
		<tag k="ssr:stedsnr" v="795723" />
	</node>
	<node lat="60.32277699571627" lon="9.99003848919535" id="-14637">
		<tag k="name" v="Tjuvenborgbekken" />
		<tag k="ssr:stedsnr" v="795611" />
		<tag k="waterway" v="stream" />
	</node>
	<node lat="60.33645846843106" lon="9.915828804549456" id="-14641">
		<tag k="alt_name" v="Nedre Kolsjø" />
		<tag k="name" v="Nedre Kollsjø" />
		<tag k="natural" v="water" />
		<tag k="ssr:stedsnr" v="795875" />
	</node>
	<node lat="60.51829444020396" lon="9.91996943875844" id="-14642">
		<tag k="alt_name" v="Søndre Bukketjern;Søndre Bukketjernet" />
		<tag k="name" v="Søre Bukketjern" />
		<tag k="natural" v="water" />
		<tag k="ssr:stedsnr" v="795876" />
	</node>
	<node lat="60.49446111419692" lon="9.840500000279176" id="-14643">
		<tag k="name" v="Svabekken" />
		<tag k="ssr:stedsnr" v="795927" />
		<tag k="waterway" v="stream" />
	</node>
	<node lat="60.41317222090977" lon="9.93487499782857" id="-14644">
		<tag k="alt_name" v="Svarteputten" />
		<tag k="name" v="Svarteputt" />
		<tag k="place" v="locality" />
		<tag k="ssr:stedsnr" v="795956" />
	</node>
	<node lat="60.38899999565428" lon="9.857113882953596" id="-14645">
		<tag k="alt_name" v="Bårnåstjernet" />
		<tag k="name" v="Bårnåstjern" />
		<tag k="natural" v="water" />
		<tag k="ssr:stedsnr" v="795974" />
	</node>
	<node lat="60.57382364648163" lon="10.042807082016008" id="-14646">
		<tag k="alt_name" v="Åbortjernet" />
		<tag k="name" v="Åbortjern" />
		<tag k="natural" v="water" />
		<tag k="ssr:stedsnr" v="796612" />
	</node>
	<node lat="60.60600121119338" lon="10.022263991893949" id="-14649">
		<tag k="alt_name" v="Vestre Skjelnetjern" />
		<tag k="name" v="Nedre Deletjernet" />
		<tag k="natural" v="water" />
		<tag k="ssr:stedsnr" v="796656" />
	</node>
	<node lat="60.58542777406123" lon="10.071299995467978" id="-14651">
		<tag k="loc_name" v="Åbortjern" />
		<tag k="name" v="Gravlisetertjernet" />
		<tag k="natural" v="water" />
		<tag k="ssr:stedsnr" v="796567" />
	</node>
	<node lat="60.239511108724926" lon="10.190541669660268" id="-14652">
		<tag k="name" v="Svensrudtjernet" />
		<tag k="natural" v="water" />
		<tag k="ssr:stedsnr" v="914535" />
	</node>
	<node lat="60.163983337741016" lon="9.978477779725875" id="-14654">
		<tag k="name" v="Tretjerna" />
		<tag k="natural" v="water" />
		<tag k="ssr:stedsnr" v="914638" />
		<tag k="water" v="lake" />
	</node>
	<node lat="60.23832499924472" lon="10.024800008428848" id="-14655">
		<tag k="name" v="Fisketjernbekken" />
		<tag k="ssr:stedsnr" v="914991" />
		<tag k="waterway" v="stream" />
	</node>
	<node lat="60.17634722287692" lon="10.378416662452384" id="-14657">
		<tag k="name" v="Damåsbekken" />
		<tag k="ssr:stedsnr" v="915033" />
		<tag k="waterway" v="stream" />
	</node>
	<node lat="60.07127499677872" lon="10.42805556192554" id="-14661">
		<tag k="name" v="Fjerdingsbekken" />
		<tag k="ssr:stedsnr" v="915205" />
		<tag k="waterway" v="stream" />
	</node>
	<node lat="60.19281111507214" lon="9.83396110408126" id="-14665">
		<tag k="name" v="Skalpelielva" />
		<tag k="ssr:stedsnr" v="915142" />
		<tag k="waterway" v="stream" />
	</node>
	<node lat="60.1118699055674" lon="10.400790532276094" id="-14666">
		<tag k="alt_name" v="Kutjernet" />
		<tag k="name" v="Kutjern" />
		<tag k="natural" v="water" />
		<tag k="ssr:stedsnr" v="915164" />
	</node>
	<node lat="60.07163028266967" lon="10.05276730058401" id="-14668">
		<tag k="name" v="Tjernslitjernet" />
		<tag k="natural" v="water" />
		<tag k="ssr:stedsnr" v="915238" />
	</node>
	<node lat="60.11914999972459" lon="10.205736116323001" id="-14683">
		<tag k="name" v="Synneren" />
		<tag k="natural" v="water" />
		<tag k="ssr:stedsnr" v="915679" />
	</node>
	<node lat="60.24450633817072" lon="10.183145816520609" id="-14687">
		<tag k="name" v="Grønvollstjernet" />
		<tag k="natural" v="water" />
		<tag k="ssr:stedsnr" v="916000" />
	</node>
	<node lat="60.15798734456735" lon="10.56473698374279" id="-14688">
		<tag k="alt_name" v="Vesternøy" />
		<tag k="name" v="Vesternøya" />
		<tag k="place" v="island" />
		<tag k="ssr:stedsnr" v="916001" />
	</node>
	<node lat="60.49582499964363" lon="9.91554721502691" id="-14690">
		<tag k="alt_name" v="Søndre Fjellbekken" />
		<tag k="name" v="Søre Fjellbekken" />
		<tag k="ssr:stedsnr" v="916940" />
		<tag k="waterway" v="stream" />
	</node>
	<node lat="60.402280790506005" lon="9.958973158812219" id="-14691">
		<tag k="alt_name" v="Holmetjernet" />
		<tag k="name" v="Holmetjern" />
		<tag k="natural" v="water" />
		<tag k="ssr:stedsnr" v="916946" />
	</node>
	<node lat="60.0944022747003" lon="10.575526141260898" id="-14693">
		<tag k="alt_name" v="Heimtjernet" />
		<tag k="name" v="Heimtjern" />
		<tag k="natural" v="water" />
		<tag k="ssr:stedsnr" v="916146" />
	</node>
	<node lat="60.095497222344925" lon="10.46076666345953" id="-14694">
		<tag k="alt_name" v="Skambrekk" />
		<tag k="name" v="Skamrek" />
		<tag k="natural" v="water" />
		<tag k="ssr:stedsnr" v="916159" />
	</node>
	<node lat="60.060813887852476" lon="10.454691671422163" id="-14695">
		<tag k="alt_name" v="Prestputten" />
		<tag k="name" v="Prestputtane" />
		<tag k="natural" v="water" />
		<tag k="ssr:stedsnr" v="916235" />
	</node>
	<node lat="60.06545833041749" lon="10.439047226879534" id="-14696">
		<tag k="alt_name" v="Merratjernet" />
		<tag k="name" v="Merratjern" />
		<tag k="natural" v="water" />
		<tag k="ssr:stedsnr" v="916236" />
	</node>
	<node lat="60.310416669389085" lon="10.015886120076537" id="-14700">
		<tag k="alt_name" v="Breidtjernsbekken" />
		<tag k="name" v="Breitjernsbekken" />
		<tag k="ssr:stedsnr" v="916501" />
		<tag k="waterway" v="stream" />
	</node>
	<node lat="60.416302779537" lon="9.863774995297026" id="-14709">
		<tag k="name" v="Kjølbekkdammen" />
		<tag k="ssr:stedsnr" v="916991" />
		<tag k="waterway" v="dam" />
	</node>
	<node lat="60.60890000404615" lon="10.024219440878472" id="-14710">
		<tag k="alt_name" v="Øvre Deletjernet" />
		<tag k="name" v="Østre Skjelnetjern" />
		<tag k="natural" v="water" />
		<tag k="ssr:stedsnr" v="917635" />
	</node>
	<node lat="60.40161944293123" lon="9.861949999193385" id="-14714">
		<tag k="alt_name" v="Blanktjernet" />
		<tag k="name" v="Blanktjern" />
		<tag k="natural" v="water" />
		<tag k="ssr:stedsnr" v="916949" />
	</node>
	<node lat="60.39753055227146" lon="10.105477784202595" id="-14715">
		<tag k="name" v="Steintjern" />
		<tag k="natural" v="water" />
		<tag k="ssr:stedsnr" v="917238" />
	</node>
	<node lat="60.285080556226056" lon="10.290013896256218" id="-14720">
		<tag k="name" v="Gørrtjernbekken" />
		<tag k="ssr:stedsnr" v="814275" />
		<tag k="waterway" v="stream" />
	</node>
	<node lat="60.129247219696715" lon="10.295966674097915" id="-14723">
		<tag k="name" v="Vakerbekken" />
		<tag k="ssr:stedsnr" v="815105" />
		<tag k="waterway" v="stream" />
	</node>
	<node lat="60.37954999571746" lon="10.147119448908347" id="-14725">
		<tag k="name" v="Løken" />
		<tag k="natural" v="bay" />
		<tag k="ssr:stedsnr" v="815217" />
	</node>
	<node lat="60.24769167092435" lon="10.147577770563075" id="-14727">
		<tag k="name" v="Semmenelva" />
		<tag k="ssr:stedsnr" v="815287" />
		<tag k="waterway" v="river" />
	</node>
	<node lat="60.11236944445915" lon="10.515766663614682" id="-14729">
		<tag k="name" v="Haukesmalet" />
		<tag k="natural" v="strait" />
		<tag k="ssr:stedsnr" v="815404" />
	</node>
	<node lat="60.12918611450112" lon="10.328244443794384" id="-14730">
		<tag k="name" v="Svingen" />
		<tag k="natural" v="bay" />
		<tag k="ssr:stedsnr" v="815483" />
	</node>
	<node lat="60.53467222297342" lon="10.021497227995493" id="-14736">
		<tag k="name" v="Maritodden" />
		<tag k="natural" v="cape" />
		<tag k="ssr:stedsnr" v="815894" />
	</node>
	<node lat="60.53474999730361" lon="10.029311119288543" id="-14737">
		<tag k="name" v="Korsfuruodden" />
		<tag k="natural" v="cape" />
		<tag k="ssr:stedsnr" v="815895" />
	</node>
	<node lat="60.34209166435411" lon="10.148211105774788" id="-14739">
		<tag k="name" v="Sjutjerna" />
		<tag k="natural" v="water" />
		<tag k="ssr:stedsnr" v="815987" />
		<tag k="water" v="lake" />
	</node>
	<node lat="60.547605551819004" lon="9.840694445074801" id="-14750">
		<tag k="name" v="Svadamøya" />
		<tag k="place" v="island" />
		<tag k="ssr:stedsnr" v="818311" />
	</node>
	<node lat="60.34393889086497" lon="10.121233335596497" id="-14755">
		<tag k="name" v="Bukkeputtbekken" />
		<tag k="ssr:stedsnr" v="818968" />
		<tag k="waterway" v="stream" />
	</node>
	<node lat="60.571469446899336" lon="9.880175002922641" id="-14759">
		<tag k="name" v="Granortjern" />
		<tag k="natural" v="water" />
		<tag k="ssr:stedsnr" v="818981" />
		<tag k="water" v="pond" />
	</node>
	<node lat="60.33145555860557" lon="9.846883332395665" id="-14760">
		<tag k="name" v="Larstangen" />
		<tag k="natural" v="cape" />
		<tag k="ssr:stedsnr" v="819523" />
	</node>
	<node lat="60.29441388891222" lon="9.752669445929268" id="-14762">
		<tag k="name" v="Mattjernelva" />
		<tag k="ssr:stedsnr" v="819879" />
		<tag k="waterway" v="stream" />
	</node>
	<node lat="60.187605555886776" lon="9.902861106705025" id="-14778">
		<tag k="alt_name" v="Vesle Bergsvann" />
		<tag k="name" v="Vesle Bergsvatnet" />
		<tag k="natural" v="water" />
		<tag k="old_name" v="Vestre Bergsvatnet" />
		<tag k="ssr:stedsnr" v="854117" />
	</node>
	<node lat="60.089255551731654" lon="10.004127772396334" id="-14785">
		<tag k="alt_name" v="Fjellveggtjernet" />
		<tag k="name" v="Fjellveggtjern" />
		<tag k="natural" v="water" />
		<tag k="ssr:stedsnr" v="854703" />
	</node>
	<node lat="60.148886113403805" lon="10.536852784634396" id="-14789">
		<tag k="name" v="Spålselva" />
		<tag k="ssr:stedsnr" v="855113" />
		<tag k="waterway" v="river" />
	</node>
	<node lat="60.14587777593337" lon="10.47663610873658" id="-14792">
		<tag k="name" v="Steindulp" />
		<tag k="natural" v="water" />
		<tag k="ssr:stedsnr" v="855097" />
	</node>
	<node lat="60.06260000077599" lon="10.482219453354103" id="-14793">
		<tag k="name" v="Hellerøya" />
		<tag k="place" v="island" />
		<tag k="ssr:stedsnr" v="855218" />
	</node>
	<node lat="60.23133333183648" lon="9.783324997522632" id="-14794">
		<tag k="name" v="Fesundtangen" />
		<tag k="natural" v="cape" />
		<tag k="ssr:stedsnr" v="855219" />
	</node>
	<node lat="60.38812221946814" lon="10.082319449281378" id="-14796">
		<tag k="name" v="Kvernbekken" />
		<tag k="ssr:stedsnr" v="855483" />
		<tag k="waterway" v="stream" />
	</node>
	<node lat="60.35901110950459" lon="10.209783333489149" id="-14799">
		<tag k="name" v="Kløvtjern" />
		<tag k="natural" v="water" />
		<tag k="ssr:stedsnr" v="855614" />
	</node>
	<node lat="60.36460555233247" lon="10.18156389676929" id="-14800">
		<tag k="alt_name" v="Langtangen" />
		<tag k="name" v="Langetangen" />
		<tag k="natural" v="cape" />
		<tag k="ssr:stedsnr" v="855615" />
	</node>
	<node lat="60.381955558528254" lon="10.173447216896163" id="-14801">
		<tag k="alt_name" v="Kirketjern" />
		<tag k="name" v="Kjørketjern" />
		<tag k="natural" v="water" />
		<tag k="ssr:stedsnr" v="855623" />
	</node>
	<node lat="60.35070485177586" lon="9.971020019798123" id="-14802">
		<tag k="name" v="Rundkollbekken" />
		<tag k="ssr:stedsnr" v="855587" />
		<tag k="waterway" v="stream" />
	</node>
	<node lat="60.27528611015149" lon="10.233450000103133" id="-14807">
		<tag k="name" v="Hvalstjern" />
		<tag k="natural" v="water" />
		<tag k="ssr:stedsnr" v="856485" />
	</node>
	<node lat="60.33424938075801" lon="10.004514643652072" id="-14808">
		<tag k="name" v="Bjørntjern" />
		<tag k="natural" v="water" />
		<tag k="ssr:stedsnr" v="856609" />
	</node>
	<node lat="60.28355555699363" lon="9.76861943942647" id="-14810">
		<tag k="alt_name" v="Sætertjern;Sætertjernet" />
		<tag k="name" v="Setertjern" />
		<tag k="natural" v="water" />
		<tag k="ssr:stedsnr" v="856680" />
	</node>
	<node lat="60.42943355334042" lon="9.975619210741076" id="-14811">
		<tag k="name" v="Annefrutjern" />
		<tag k="natural" v="water" />
		<tag k="ssr:stedsnr" v="856393" />
	</node>
	<node lat="60.32973333111796" lon="10.010872223818689" id="-14813">
		<tag k="alt_name" v="Gjuvbekken" />
		<tag k="name" v="Juvbekken" />
		<tag k="ssr:stedsnr" v="856519" />
		<tag k="waterway" v="stream" />
	</node>
	<node lat="60.50813055624115" lon="9.987913884859125" id="-14815">
		<tag k="alt_name" v="Veslevannet" />
		<tag k="name" v="Veslevatnet" />
		<tag k="natural" v="water" />
		<tag k="ssr:stedsnr" v="856540" />
	</node>
	<node lat="60.50738333215144" lon="10.121002771806788" id="-14816">
		<tag k="alt_name" v="Vesletjernet" />
		<tag k="name" v="Vesletjern" />
		<tag k="natural" v="water" />
		<tag k="ssr:stedsnr" v="856542" />
	</node>
	<node lat="60.35661110802676" lon="9.926191658189719" id="-14819">
		<tag k="name" v="Østbekken" />
		<tag k="ssr:stedsnr" v="856785" />
		<tag k="waterway" v="stream" />
	</node>
	<node lat="60.35159999891958" lon="9.954727780975256" id="-14820">
		<tag k="alt_name" v="Steintjernet" />
		<tag k="name" v="Steintjern" />
		<tag k="natural" v="water" />
		<tag k="ssr:stedsnr" v="856786" />
	</node>
	<node lat="60.3560608614172" lon="9.95673839234905" id="-14821">
		<tag k="name" v="Totjerna" />
		<tag k="natural" v="water" />
		<tag k="ssr:stedsnr" v="856791" />
		<tag k="water" v="lake" />
	</node>
	<node lat="60.37771666985834" lon="9.894505556671513" id="-14822">
		<tag k="alt_name" v="Lomtjernet" />
		<tag k="name" v="Lomtjern" />
		<tag k="natural" v="water" />
		<tag k="ssr:stedsnr" v="856797" />
	</node>
	<node lat="60.484938885618845" lon="9.832933329323533" id="-14823">
		<tag k="name" v="Finntoppbekken" />
		<tag k="ssr:stedsnr" v="856905" />
		<tag k="waterway" v="stream" />
	</node>
	<node lat="60.42013055691253" lon="10.170924993035678" id="-14832">
		<tag k="name" v="Bjørnehufsbekken" />
		<tag k="ssr:stedsnr" v="875967" />
		<tag k="waterway" v="stream" />
	</node>
	<node lat="60.05186667117448" lon="10.516574993282163" id="-14835">
		<tag k="name" v="Evja" />
		<tag k="natural" v="bay" />
		<tag k="ssr:stedsnr" v="876466" />
	</node>
	<node lat="60.28754444533853" lon="10.080613885203007" id="-14849">
		<tag k="name" v="Seterputten" />
		<tag k="natural" v="water" />
		<tag k="ssr:stedsnr" v="878919" />
		<tag k="water" v="pond" />
	</node>
	<node lat="60.32398333392312" lon="10.12882222229685" id="-14850">
		<tag k="name" v="Stryken" />
		<tag k="ssr:stedsnr" v="878924" />
		<tag k="waterway" v="rapids" />
	</node>
	<node lat="60.3375472255681" lon="10.092180557777539" id="-14851">
		<tag k="name" v="Klinteodden" />
		<tag k="natural" v="cape" />
		<tag k="ssr:stedsnr" v="878969" />
	</node>
	<node lat="60.40998447278075" lon="10.11157217385887" id="-14854">
		<tag k="name" v="Stabbetjern" />
		<tag k="natural" v="water" />
		<tag k="ssr:stedsnr" v="878902" />
	</node>
	<node lat="60.55594722621156" lon="9.887977786525761" id="-14858">
		<tag k="name" v="Varpøya" />
		<tag k="place" v="island" />
		<tag k="ssr:stedsnr" v="879308" />
	</node>
	<node lat="60.189350000641575" lon="9.859055561877417" id="-14860">
		<tag k="name" v="Karussputten" />
		<tag k="natural" v="water" />
		<tag k="ssr:stedsnr" v="879705" />
	</node>
	<node lat="60.47452336013655" lon="9.838692183023294" id="-14861">
		<tag k="name" v="Delebekken" />
		<tag k="ssr:stedsnr" v="879713" />
		<tag k="waterway" v="stream" />
	</node>
	<node lat="60.47589722070934" lon="9.893666674409427" id="-14863">
		<tag k="name" v="Bjørneputt" />
		<tag k="natural" v="water" />
		<tag k="ssr:stedsnr" v="879729" />
		<tag k="water" v="pond" />
	</node>
	<node lat="60.60762777691094" lon="9.96737221606898" id="-14872">
		<tag k="name" v="Hågåvika" />
		<tag k="natural" v="bay" />
		<tag k="ssr:stedsnr" v="879830" />
	</node>
	<node lat="60.196225003266385" lon="10.325349997114218" id="-14876">
		<tag k="name" v="Svarthølen" />
		<tag k="place" v="locality" />
		<tag k="ssr:stedsnr" v="934924" />
	</node>
	<node lat="60.073813886625615" lon="10.101474998053723" id="-14878">
		<tag k="name" v="Skarvhellvika" />
		<tag k="natural" v="bay" />
		<tag k="ssr:stedsnr" v="935117" />
	</node>
	<node lat="60.52413055208729" lon="10.122163880996355" id="-14879">
		<tag k="name" v="Brura" />
		<tag k="natural" v="cape" />
		<tag k="ssr:stedsnr" v="935178" />
	</node>
	<node lat="60.163350433168404" lon="10.375053288666173" id="-14888">
		<tag k="fixme" v="multiple name tags, choose one and add the other to alt_name" />
		<tag k="loc_name" v="Røstjern" />
		<tag k="name" v="Store Røstjern;Røstjernet" />
		<tag k="natural" v="water" />
		<tag k="ssr:stedsnr" v="903010" />
	</node>
	<node lat="60.184449998777964" lon="9.922677779859356" id="-14893">
		<tag k="alt_name" v="Damtjern" />
		<tag k="name" v="Nedre Damtjern" />
		<tag k="natural" v="water" />
		<tag k="ssr:stedsnr" v="915128" />
	</node>
	<node lat="60.11591944868607" lon="10.577791657972327" id="-14894">
		<tag k="name" v="Sandbekken" />
		<tag k="ssr:stedsnr" v="915170" />
		<tag k="waterway" v="stream" />
	</node>
	<node lat="60.050161109570205" lon="10.502080554240472" id="-14895">
		<tag k="name" v="Skjorandkulp" />
		<tag k="natural" v="water" />
		<tag k="ssr:stedsnr" v="915174" />
	</node>
	<node lat="60.36416666889612" lon="10.070899995231901" id="-14898">
		<tag k="name" v="Olsvika" />
		<tag k="natural" v="bay" />
		<tag k="ssr:stedsnr" v="915569" />
	</node>
	<node lat="60.167724999474274" lon="10.047880559082007" id="-14900">
		<tag k="name" v="Nedre Sandtjern" />
		<tag k="natural" v="water" />
		<tag k="ssr:stedsnr" v="915593" />
	</node>
	<node lat="60.15036666733806" lon="10.11312500090997" id="-14905">
		<tag k="name" v="Govletjern" />
		<tag k="natural" v="water" />
		<tag k="ssr:stedsnr" v="915608" />
	</node>
	<node lat="60.15209722607927" lon="10.129941670322488" id="-14907">
		<tag k="name" v="Svarttjern" />
		<tag k="natural" v="water" />
		<tag k="ssr:stedsnr" v="915625" />
	</node>
	<node lat="60.241980552030796" lon="10.018138891356488" id="-14909">
		<tag k="name" v="Fisketjern" />
		<tag k="natural" v="water" />
		<tag k="ssr:stedsnr" v="915972" />
	</node>
	<node lat="60.43317500395613" lon="10.146675008519622" id="-14912">
		<tag k="name" v="Salbottjern" />
		<tag k="natural" v="water" />
		<tag k="ssr:stedsnr" v="916376" />
	</node>
	<node lat="60.430276600578864" lon="10.13897575961158" id="-14913">
		<tag k="alt_name" v="Vestre Bukketjern" />
		<tag k="name" v="Bukketjerna" />
		<tag k="natural" v="water" />
		<tag k="ssr:stedsnr" v="916377" />
		<tag k="water" v="lake" />
	</node>
	<node lat="60.35551200775437" lon="9.903967290008007" id="-14929">
		<tag k="alt_name" v="Andersbutjernet" />
		<tag k="name" v="Andersbutjern" />
		<tag k="natural" v="water" />
		<tag k="ssr:stedsnr" v="916785" />
	</node>
	<node lat="60.286263892926385" lon="9.736819448769824" id="-14934">
		<tag k="alt_name" v="Skardbekken" />
		<tag k="name" v="Skarbekken" />
		<tag k="ssr:stedsnr" v="916690" />
		<tag k="waterway" v="stream" />
	</node>
	<node lat="60.36579564611029" lon="9.773205087624946" id="-14935">
		<tag k="alt_name" v="Bekarputten" />
		<tag k="name" v="Bekarputt" />
		<tag k="natural" v="water" />
		<tag k="ssr:stedsnr" v="916825" />
	</node>
	<node lat="60.509230556772415" lon="10.01888056229349" id="-14937">
		<tag k="name" v="Svarttjernet" />
		<tag k="natural" v="water" />
		<tag k="ssr:stedsnr" v="917461" />
	</node>
	<node lat="60.51818263446818" lon="10.127592469996987" id="-14940">
		<tag k="name" v="Vestre Bjonevatnet" />
		<tag k="natural" v="water" />
		<tag k="ssr:stedsnr" v="917472" />
		<tag k="water" v="lake" />
	</node>
	<node lat="60.59500801474135" lon="10.072398304639549" id="-14946">
		<tag k="alt_name" v="Brisketjernet" />
		<tag k="name" v="Brisketjern" />
		<tag k="natural" v="water" />
		<tag k="ssr:stedsnr" v="917565" />
	</node>
	<node lat="60.379791668572985" lon="9.885711113147073" id="-14948">
		<tag k="alt_name" v="Søndre Putten" />
		<tag k="name" v="Søre Putten" />
		<tag k="natural" v="water" />
		<tag k="ssr:stedsnr" v="917776" />
	</node>
	<node lat="60.316833612090136" lon="9.797248691803194" id="-14949">
		<tag k="alt_name" v="Blanketjernet" />
		<tag k="name" v="Blanketjern" />
		<tag k="natural" v="water" />
		<tag k="ssr:stedsnr" v="917812" />
	</node>
	<node lat="60.31295277410441" lon="9.90511944133663" id="-14952">
		<tag k="name" v="Lysåa" />
		<tag k="ssr:stedsnr" v="917828" />
		<tag k="waterway" v="river" />
	</node>
	<node lat="60.12001000967571" lon="10.419361960927523" id="-14956">
		<tag k="name" v="Helleramsputten" />
		<tag k="natural" v="water" />
		<tag k="ssr:stedsnr" v="936039" />
		<tag k="water" v="pond" />
	</node>
	<node lat="60.390561112784304" lon="10.176558330166213" id="-14958">
		<tag k="name" v="Bekketjern" />
		<tag k="natural" v="water" />
		<tag k="ssr:stedsnr" v="936203" />
	</node>
	<node lat="60.17225833233137" lon="10.419927770233745" id="-14960">
		<tag k="name" v="Dalstøa" />
		<tag k="natural" v="bay" />
		<tag k="ssr:stedsnr" v="936245" />
	</node>
	<node lat="60.43896389180074" lon="10.175999998699375" id="-14964">
		<tag k="name" v="Store Galatipptjern" />
		<tag k="natural" v="water" />
		<tag k="ssr:stedsnr" v="936747" />
	</node>
	<node lat="60.15236111428272" lon="10.509052771990163" id="-14969">
		<tag k="name" v="Nautsundet" />
		<tag k="natural" v="strait" />
		<tag k="ssr:stedsnr" v="937396" />
	</node>
	<node lat="60.59636510726145" lon="10.037589648997024" id="-14977">
		<tag k="name" v="Dattatjern" />
		<tag k="natural" v="water" />
		<tag k="ssr:stedsnr" v="938534" />
	</node>
	<node lat="60.503274999842255" lon="9.89999167242069" id="-14985">
		<tag k="name" v="Veslefjellputten" />
		<tag k="natural" v="water" />
		<tag k="ssr:stedsnr" v="939394" />
		<tag k="water" v="pond" />
	</node>
	<node lat="60.42057777366648" lon="10.111622221229107" id="-14988">
		<tag k="name" v="Roligtjern" />
		<tag k="natural" v="water" />
		<tag k="ssr:stedsnr" v="939499" />
	</node>
	<node lat="60.43610722854253" lon="10.098367561619192" id="-14995">
		<tag k="name" v="Rindefossen" />
		<tag k="natural" v="waterfall" />
		<tag k="ssr:stedsnr" v="939694" />
	</node>
	<node lat="60.466480557236046" lon="10.037311102355083" id="-14997">
		<tag k="name" v="Johanneståen" />
		<tag k="natural" v="cape" />
		<tag k="old_name" v="Johannesåen" />
		<tag k="ssr:stedsnr" v="939803" />
	</node>
	<node lat="60.2103018288839" lon="10.049956216108944" id="-14998">
		<tag k="name" v="Vælstangen" />
		<tag k="natural" v="cape" />
		<tag k="ssr:stedsnr" v="939814" />
	</node>
	<node lat="60.632006485007516" lon="9.938779572817706" id="-15009">
		<tag k="name" v="Puttebekken" />
		<tag k="ssr:stedsnr" v="272866" />
		<tag k="waterway" v="stream" />
	</node>
	<node lat="60.2927793151587" lon="10.280426167141462" id="-15027">
		<tag k="name" v="Vælsvatna" />
		<tag k="natural" v="water" />
		<tag k="ssr:stedsnr" v="978099" />
		<tag k="water" v="lake" />
	</node>
	<node lat="60.3927750010595" lon="10.125749999552744" id="-15085">
		<tag k="alt_name" v="Søndre Loppetjern" />
		<tag k="name" v="Søre Loppetjern" />
		<tag k="natural" v="water" />
		<tag k="ssr:stedsnr" v="6286" />
	</node>
	<node lat="60.145208330970235" lon="10.057788884251119" id="-15089">
		<tag k="alt_name" v="Uletjern" />
		<tag k="name" v="Huldertjern" />
		<tag k="natural" v="water" />
		<tag k="ssr:stedsnr" v="4639" />
	</node>
	<node lat="60.11330278235114" lon="10.416052770964907" id="-15094">
		<tag k="name" v="Stubbdalstjernet" />
		<tag k="natural" v="water" />
		<tag k="old_name" v="Stuvdalstjern" />
		<tag k="ssr:stedsnr" v="5194" />
	</node>
	<node lat="60.1198608197505" lon="10.50781870322018" id="-15096">
		<tag k="name" v="Bleiksjøen" />
		<tag k="natural" v="water" />
		<tag k="ssr:stedsnr" v="5050" />
		<tag k="water" v="lake" />
	</node>
	<node lat="60.179858334689214" lon="9.93754721977215" id="-15097">
		<tag k="name" v="Stortjern" />
		<tag k="natural" v="water" />
		<tag k="ssr:stedsnr" v="5131" />
	</node>
	<node lat="60.07680278968456" lon="10.459666659107237" id="-15099">
		<tag k="name" v="Møkkalitjerna" />
		<tag k="natural" v="water" />
		<tag k="ssr:stedsnr" v="5251" />
		<tag k="water" v="lake" />
	</node>
	<node lat="60.471979880158756" lon="10.138868077751825" id="-15100">
		<tag k="name" v="Totjerna" />
		<tag k="natural" v="water" />
		<tag k="ssr:stedsnr" v="5547" />
		<tag k="water" v="lake" />
	</node>
	<node lat="60.15999722665587" lon="10.245991665728575" id="-15102">
		<tag k="name" v="Storelva" />
		<tag k="ssr:stedsnr" v="5650" />
		<tag k="waterway" v="river" />
	</node>
	<node lat="60.26499444311616" lon="10.214547230315409" id="-15111">
		<tag k="alt_name" v="Nedre Damtjern" />
		<tag k="name" v="Nordre Damtjern" />
		<tag k="natural" v="water" />
		<tag k="ssr:stedsnr" v="6465" />
	</node>
	<node lat="60.44965833517068" lon="10.16599165833525" id="-15115">
		<tag k="name" v="Posetjern" />
		<tag k="natural" v="water" />
		<tag k="ssr:stedsnr" v="6559" />
	</node>
	<node lat="60.28395555984978" lon="9.872413892970352" id="-15118">
		<tag k="alt_name" v="Igletjernet" />
		<tag k="name" v="Igletjern" />
		<tag k="natural" v="water" />
		<tag k="ssr:stedsnr" v="6667" />
	</node>
	<node lat="60.26463889308937" lon="10.317313883075911" id="-15119">
		<tag k="name" v="Ruggetjern" />
		<tag k="natural" v="water" />
		<tag k="ssr:stedsnr" v="6347" />
	</node>
	<node lat="60.51608888909424" lon="10.003783334909002" id="-15123">
		<tag k="alt_name" v="Vatnebråtåbekken" />
		<tag k="name" v="Vatnebråtabekken" />
		<tag k="ssr:stedsnr" v="6514" />
		<tag k="waterway" v="stream" />
	</node>
	<node lat="60.51411389088635" lon="10.10986944724525" id="-15127">
		<tag k="alt_name" v="Søndre Øytjernet;Søndre Øytjern" />
		<tag k="name" v="Søre Øytjern" />
		<tag k="natural" v="water" />
		<tag k="ssr:stedsnr" v="6541" />
	</node>
	<node lat="60.2577361150038" lon="9.855505553159485" id="-15130">
		<tag k="name" v="Rudselva" />
		<tag k="ssr:stedsnr" v="6744" />
		<tag k="waterway" v="stream" />
	</node>
	<node lat="60.50874444475548" lon="9.955002781677404" id="-15135">
		<tag k="alt_name" v="Guttormstjernet" />
		<tag k="name" v="Guttormstjern" />
		<tag k="natural" v="water" />
		<tag k="ssr:stedsnr" v="6755" />
	</node>
	<node lat="60.358220375936334" lon="9.747961778965845" id="-15138">
		<tag k="name" v="Pipantjerna" />
		<tag k="natural" v="water" />
		<tag k="ssr:stedsnr" v="6778" />
		<tag k="water" v="lake" />
	</node>
	<node lat="60.35474166889265" lon="9.874725000471543" id="-15139">
		<tag k="alt_name" v="Svarteputten" />
		<tag k="name" v="Svarteputt" />
		<tag k="place" v="locality" />
		<tag k="ssr:stedsnr" v="6780" />
	</node>
	<node lat="60.342222224849955" lon="9.94714443860067" id="-15141">
		<tag k="alt_name" v="Nedre Leintjernet" />
		<tag k="name" v="Nedre Leintjern" />
		<tag k="natural" v="water" />
		<tag k="ssr:stedsnr" v="6854" />
	</node>
	<node lat="60.528161114967595" lon="10.121699993194737" id="-15146">
		<tag k="name" v="Storvikodden" />
		<tag k="natural" v="cape" />
		<tag k="ssr:stedsnr" v="7532" />
	</node>
	<node lat="60.599358329533594" lon="10.035566674283936" id="-15147">
		<tag k="alt_name" v="Gravåtjernet" />
		<tag k="name" v="Gravåtjern" />
		<tag k="natural" v="water" />
		<tag k="ssr:stedsnr" v="7569" />
	</node>
	<node lat="60.24362500332392" lon="9.911505559010719" id="-15152">
		<tag k="name" v="Verkenselva" />
		<tag k="ssr:stedsnr" v="24859" />
		<tag k="waterway" v="river" />
	</node>
	<node lat="60.23134722505908" lon="10.153561119550139" id="-15154">
		<tag k="name" v="Løken" />
		<tag k="natural" v="bay" />
		<tag k="ssr:stedsnr" v="25430" />
	</node>
	<node lat="60.227330551454884" lon="10.190966675366962" id="-15160">
		<tag k="name" v="Fluetjern" />
		<tag k="natural" v="water" />
		<tag k="ssr:stedsnr" v="25453" />
	</node>
	<node lat="60.29164444702653" lon="10.182819453232959" id="-15161">
		<tag k="name" v="Heftingsevja" />
		<tag k="natural" v="bay" />
		<tag k="ssr:stedsnr" v="25559" />
	</node>
	<node lat="60.57632777866806" lon="10.018333325144424" id="-15168">
		<tag k="name" v="Fossbråtabekken" />
		<tag k="ssr:stedsnr" v="26154" />
		<tag k="waterway" v="stream" />
	</node>
	<node lat="60.366266663195994" lon="10.176783325281514" id="-15171">
		<tag k="name" v="Luktevika" />
		<tag k="natural" v="bay" />
		<tag k="ssr:stedsnr" v="26257" />
	</node>
	<node lat="60.43447789052863" lon="10.163471837660348" id="-15177">
		<tag k="name" v="Tverråstjern" />
		<tag k="natural" v="water" />
		<tag k="ssr:stedsnr" v="26749" />
	</node>
	<node lat="60.21599166224154" lon="9.789188885297367" id="-15181">
		<tag k="name" v="Lomtjern" />
		<tag k="natural" v="water" />
		<tag k="ssr:stedsnr" v="26834" />
	</node>
	<node lat="60.51778055332864" lon="10.141027775829734" id="-15183">
		<tag k="name" v="Storøya" />
		<tag k="place" v="island" />
		<tag k="ssr:stedsnr" v="26850" />
	</node>
	<node lat="60.42267222406552" lon="10.14553889072921" id="-15185">
		<tag k="name" v="Fisketjernsbekken" />
		<tag k="ssr:stedsnr" v="26955" />
		<tag k="waterway" v="stream" />
	</node>
	<node lat="60.432438889292825" lon="10.173494441158834" id="-15187">
		<tag k="name" v="Moltetjern" />
		<tag k="natural" v="water" />
		<tag k="ssr:stedsnr" v="26959" />
	</node>
	<node lat="60.3467555595918" lon="10.166205553766828" id="-15190">
		<tag k="name" v="Lekkemyrbekken" />
		<tag k="ssr:stedsnr" v="26973" />
		<tag k="waterway" v="stream" />
	</node>
	<node lat="60.344975003833234" lon="10.194805549106924" id="-15191">
		<tag k="name" v="Pintangen" />
		<tag k="place" v="island" />
		<tag k="ssr:stedsnr" v="26974" />
	</node>
	<node lat="60.34573055612777" lon="10.141688891311805" id="-15192">
		<tag k="name" v="Bukkeputtene" />
		<tag k="natural" v="water" />
		<tag k="ssr:stedsnr" v="26978" />
		<tag k="water" v="lake" />
	</node>
	<node lat="60.35404444633585" lon="10.20097222892835" id="-15193">
		<tag k="name" v="Brennøya" />
		<tag k="place" v="island" />
		<tag k="ssr:stedsnr" v="26980" />
	</node>
	<node lat="60.35159721876672" lon="10.201627785739635" id="-15194">
		<tag k="name" v="Røyekista" />
		<tag k="natural" v="bay" />
		<tag k="old_name" v="Røykekista" />
		<tag k="ssr:stedsnr" v="26981" />
	</node>
	<node lat="60.3514627952368" lon="10.022616874881217" id="-15207">
		<tag k="name" v="Gulltjern" />
		<tag k="natural" v="water" />
		<tag k="ssr:stedsnr" v="28842" />
	</node>
	<node lat="60.4622555572908" lon="10.05783056004801" id="-15209">
		<tag k="name" v="Sørengerodden" />
		<tag k="natural" v="cape" />
		<tag k="ssr:stedsnr" v="28846" />
	</node>
	<node lat="60.349574996542266" lon="10.09395832996475" id="-15212">
		<tag k="name" v="Dauingsvika" />
		<tag k="natural" v="bay" />
		<tag k="ssr:stedsnr" v="28648" />
	</node>
	<node lat="60.39047222112159" lon="10.134138885575116" id="-15220">
		<tag k="name" v="Godbekken" />
		<tag k="ssr:stedsnr" v="28908" />
		<tag k="waterway" v="stream" />
	</node>
	<node lat="60.37280555683016" lon="9.808025007676" id="-15223">
		<tag k="name" v="Granheimbekken" />
		<tag k="ssr:stedsnr" v="29031" />
		<tag k="waterway" v="stream" />
	</node>
	<node lat="60.43636944698897" lon="9.995019446195947" id="-15228">
		<tag k="name" v="Stormyrdammen" />
		<tag k="ssr:stedsnr" v="29097" />
		<tag k="waterway" v="dam" />
	</node>
	<node lat="60.53755000371038" lon="9.999747218374946" id="-15236">
		<tag k="name" v="Gråskallen" />
		<tag k="natural" v="cape" />
		<tag k="ssr:stedsnr" v="29723" />
	</node>
	<node lat="60.51101944693661" lon="9.904394452847248" id="-15237">
		<tag k="name" v="Greinebekken" />
		<tag k="ssr:stedsnr" v="29727" />
		<tag k="waterway" v="stream" />
	</node>
	<node lat="60.50865833205411" lon="9.937252776666952" id="-15238">
		<tag k="name" v="Huldreholmen" />
		<tag k="place" v="islet" />
		<tag k="ssr:stedsnr" v="29732" />
	</node>
	<node lat="60.12933019271698" lon="9.960336068959029" id="-15243">
		<tag k="name" v="Tretjerna" />
		<tag k="natural" v="water" />
		<tag k="ssr:stedsnr" v="29360" />
		<tag k="water" v="lake" />
	</node>
	<node lat="60.33255555923431" lon="9.874297213918792" id="-15244">
		<tag k="name" v="Pålsbråtefoss" />
		<tag k="natural" v="waterfall" />
		<tag k="ssr:stedsnr" v="29536" />
	</node>
	<node lat="60.31964166977534" lon="9.87961665783385" id="-15245">
		<tag k="name" v="Krokbekk" />
		<tag k="ssr:stedsnr" v="29560" />
		<tag k="waterway" v="stream" />
	</node>
	<node lat="60.32499166986769" lon="10.036241672883126" id="-15260">
		<tag k="name" v="Rantjernsbekken" />
		<tag k="ssr:stedsnr" v="29913" />
		<tag k="waterway" v="stream" />
	</node>
	<node lat="60.28313055409259" lon="9.943850007116563" id="-15263">
		<tag k="name" v="Stallhølen" />
		<tag k="place" v="locality" />
		<tag k="ssr:stedsnr" v="29933" />
	</node>
	<node lat="60.61180277376642" lon="9.952555558349035" id="-15264">
		<tag k="name" v="Flatøya" />
		<tag k="place" v="island" />
		<tag k="ssr:stedsnr" v="29934" />
	</node>
	<node lat="60.254241669657056" lon="9.808283327226885" id="-15272">
		<tag k="name" v="Delingsbekken" />
		<tag k="ssr:stedsnr" v="30197" />
		<tag k="waterway" v="stream" />
	</node>
	<node lat="60.30491111010431" lon="9.780594451536155" id="-15275">
		<tag k="name" v="Helgebråtabekken" />
		<tag k="ssr:stedsnr" v="30860" />
		<tag k="waterway" v="stream" />
	</node>
	<node lat="60.07625833343504" lon="10.552747223933247" id="-15295">
		<tag k="name" v="Stuevatnet" />
		<tag k="natural" v="water" />
		<tag k="ssr:stedsnr" v="65228" />
	</node>
	<node lat="60.083930552364635" lon="10.038605547705513" id="-15299">
		<tag k="name" v="Vælerauget" />
		<tag k="natural" v="bay" />
		<tag k="ssr:stedsnr" v="65292" />
	</node>
	<node lat="60.22321666611802" lon="10.231416674109402" id="-15303">
		<tag k="name" v="Storetjern" />
		<tag k="natural" v="water" />
		<tag k="ssr:stedsnr" v="65490" />
	</node>
	<node lat="60.17538235323754" lon="10.106028925312845" id="-15306">
		<tag k="alt_name" v="Bjønntjern" />
		<tag k="name" v="Bjørntjern" />
		<tag k="natural" v="water" />
		<tag k="ssr:stedsnr" v="65597" />
	</node>
	<node lat="60.141863891525354" lon="10.091427777673188" id="-15311">
		<tag k="name" v="Gampetjerna" />
		<tag k="natural" v="water" />
		<tag k="ssr:stedsnr" v="65677" />
		<tag k="water" v="lake" />
	</node>
	<node lat="60.17630000107917" lon="10.492499997430308" id="-15316">
		<tag k="alt_name" v="Store Sinnera;Sinnera" />
		<tag k="name" v="Store Sindera" />
		<tag k="natural" v="water" />
		<tag k="ssr:stedsnr" v="66036" />
	</node>
	<node lat="60.13718368392086" lon="10.3699047433511" id="-15318">
		<tag k="name" v="Valbekken" />
		<tag k="ssr:stedsnr" v="66112" />
		<tag k="waterway" v="stream" />
	</node>
	<node lat="60.13439877592038" lon="10.51867293154313" id="-15321">
		<tag k="alt_name" v="Ulutjernet" />
		<tag k="name" v="Ulutjern" />
		<tag k="natural" v="water" />
		<tag k="old_name" v="Ulu Tj." />
		<tag k="ssr:stedsnr" v="66084" />
	</node>
	<node lat="60.36792777978427" lon="10.080338881365751" id="-15326">
		<tag k="name" v="Kongsstrømmen" />
		<tag k="natural" v="strait" />
		<tag k="ssr:stedsnr" v="66587" />
	</node>
	<node lat="60.13176345914954" lon="9.999745650946014" id="-15328">
		<tag k="name" v="Grosketjern" />
		<tag k="natural" v="water" />
		<tag k="ssr:stedsnr" v="66657" />
	</node>
	<node lat="60.307416669200855" lon="9.747308332118383" id="-15331">
		<tag k="name" v="Haugelva" />
		<tag k="ssr:stedsnr" v="66829" />
		<tag k="waterway" v="stream" />
	</node>
	<node lat="60.436816667061386" lon="9.891461103628043" id="-15332">
		<tag k="alt_name" v="Ormetjernet" />
		<tag k="name" v="Ormetjern" />
		<tag k="natural" v="water" />
		<tag k="ssr:stedsnr" v="66974" />
	</node>
	<node lat="60.4360166708061" lon="9.928486110956383" id="-15333">
		<tag k="alt_name" v="Nordre Annetjernet" />
		<tag k="loc_name" v="Nordre Andetjern" />
		<tag k="name" v="Nordre Annetjern" />
		<tag k="natural" v="water" />
		<tag k="old_name" v="Annetj." />
		<tag k="ssr:stedsnr" v="66976" />
	</node>
	<node lat="60.40153055524067" lon="10.016072227517174" id="-15334">
		<tag k="name" v="Gryteelva" />
		<tag k="ssr:stedsnr" v="67281" />
		<tag k="waterway" v="stream" />
	</node>
	<node lat="60.257238892604526" lon="10.276788889039354" id="-15336">
		<tag k="name" v="Askelitjern" />
		<tag k="natural" v="water" />
		<tag k="ssr:stedsnr" v="67338" />
	</node>
	<node lat="60.327063885307446" lon="10.015127776169694" id="-15340">
		<tag k="alt_name" v="Holmetjernet" />
		<tag k="name" v="Holmetjern" />
		<tag k="natural" v="water" />
		<tag k="ssr:stedsnr" v="67486" />
	</node>
	<node lat="60.42413055250763" lon="10.114233335298" id="-15344">
		<tag k="name" v="Holmetjern" />
		<tag k="natural" v="water" />
		<tag k="ssr:stedsnr" v="67367" />
	</node>
	<node lat="60.42099444494148" lon="9.96636389366477" id="-15347">
		<tag k="name" v="Steintjern" />
		<tag k="natural" v="water" />
		<tag k="ssr:stedsnr" v="67386" />
	</node>
	<node lat="60.277405554306725" lon="9.927113887401477" id="-15349">
		<tag k="alt_name" v="Hallvadstjernet" />
		<tag k="loc_name" v="Halvvadstjern" />
		<tag k="name" v="Halvasstjern" />
		<tag k="natural" v="water" />
		<tag k="ssr:stedsnr" v="67661" />
	</node>
	<node lat="60.286495729117455" lon="9.795178718755352" id="-15350">
		<tag k="alt_name" v="Vettertjernet" />
		<tag k="name" v="Vettertjern" />
		<tag k="natural" v="water" />
		<tag k="ssr:stedsnr" v="67677" />
	</node>
	<node lat="60.29307499619874" lon="9.90512778082772" id="-15353">
		<tag k="name" v="Sognevassdammen" />
		<tag k="ssr:stedsnr" v="67684" />
		<tag k="waterway" v="dam" />
	</node>
	<node lat="60.57884166900056" lon="9.919830551687502" id="-15354">
		<tag k="name" v="Leira" />
		<tag k="ssr:stedsnr" v="67905" />
		<tag k="waterway" v="river" />
	</node>
	<node lat="60.528272225524" lon="10.051069436737121" id="-15357">
		<tag k="alt_name" v="Rambergsodden" />
		<tag k="name" v="Rambergodden" />
		<tag k="natural" v="cape" />
		<tag k="ssr:stedsnr" v="68559" />
	</node>
	<node lat="60.09833333072644" lon="10.439408330794542" id="-15361">
		<tag k="name" v="Gråbergtjernbekken" />
		<tag k="ssr:stedsnr" v="86034" />
		<tag k="waterway" v="stream" />
	</node>
	<node lat="60.35993055511273" lon="10.151269446438237" id="-15364">
		<tag k="name" v="Fjellhammerbekken" />
		<tag k="ssr:stedsnr" v="86205" />
		<tag k="waterway" v="stream" />
	</node>
	<node lat="60.19206944375134" lon="10.301458329126453" id="-15376">
		<tag k="name" v="Øya" />
		<tag k="place" v="island" />
		<tag k="ssr:stedsnr" v="86951" />
	</node>
</osm>
