<?xml version="1.0" encoding="UTF-8"?>
<osm version="0.6" generator="osmapis">
	<node lat="60.09611944031682" lon="6.115422220478719" id="-43588">
		<tag k="alt_name" v="Ænes" />
		<tag k="name" v="Ænes lykt" />
		<tag k="ssr:date" v="2019-12-27" />
		<tag k="ssr:gruppe" v="navigasjon" />
		<tag k="ssr:hovedgruppe" v="infrastruktur" />
		<tag k="ssr:stedsnr" v="4933" />
		<tag k="ssr:type" v="fyrlykt" />
	</node>
	<node lat="60.04114722106932" lon="5.9260972298154115" id="-43594">
		<tag k="alt_name" v="Fjæreflu" />
		<tag k="name" v="Fjæreflu lykt" />
		<tag k="old_name" v="Fjæraflua" />
		<tag k="ssr:date" v="2019-12-27" />
		<tag k="ssr:gruppe" v="navigasjon" />
		<tag k="ssr:hovedgruppe" v="infrastruktur" />
		<tag k="ssr:stedsnr" v="5964" />
		<tag k="ssr:type" v="fyrlykt" />
	</node>
	<node lat="59.730683335037206" lon="5.710080562784633" id="-43653">
		<tag k="alt_name" v="Fjelbergsund" />
		<tag k="name" v="Fjelbergsund&#09; lykt" />
		<tag k="ssr:date" v="2019-12-27" />
		<tag k="ssr:gruppe" v="navigasjon" />
		<tag k="ssr:hovedgruppe" v="infrastruktur" />
		<tag k="ssr:stedsnr" v="64109" />
		<tag k="ssr:type" v="fyrlykt" />
	</node>
	<node lat="60.11631388659524" lon="6.149011114984782" id="-43964">
		<tag k="name" v="Leirhola" />
		<tag k="ssr:date" v="2019-12-27" />
		<tag k="ssr:gruppe" v="sjøbunn" />
		<tag k="ssr:hovedgruppe" v="sjø" />
		<tag k="ssr:stedsnr" v="220504" />
		<tag k="ssr:type" v="søkkISjø" />
	</node>
	<node lat="59.87737221823337" lon="5.737905553118843" id="-44097">
		<tag k="alt_name" v="Hågarnsnes" />
		<tag k="name" v="Hågarnsnes lykt" />
		<tag k="ssr:date" v="2019-12-27" />
		<tag k="ssr:gruppe" v="navigasjon" />
		<tag k="ssr:hovedgruppe" v="infrastruktur" />
		<tag k="ssr:stedsnr" v="287610" />
		<tag k="ssr:type" v="fyrlykt" />
	</node>
	<node lat="59.82334722089242" lon="5.695827776561315" id="-44437">
		<tag k="alt_name" v="Bjellandsøy" />
		<tag k="name" v="Bjellandsøy lykt" />
		<tag k="ssr:date" v="2019-12-27" />
		<tag k="ssr:gruppe" v="navigasjon" />
		<tag k="ssr:hovedgruppe" v="infrastruktur" />
		<tag k="ssr:stedsnr" v="489376" />
		<tag k="ssr:type" v="fyrlykt" />
	</node>
	<node lat="59.73763333249528" lon="5.688125007295184" id="-44735">
		<tag k="alt_name" v="Nordre Fjelbergsund" />
		<tag k="name" v="Nordre Fjelbergsund lykt" />
		<tag k="old_name" v="Fjelbergsund, nordre" />
		<tag k="ssr:date" v="2019-12-27" />
		<tag k="ssr:gruppe" v="navigasjon" />
		<tag k="ssr:hovedgruppe" v="infrastruktur" />
		<tag k="ssr:stedsnr" v="549119" />
		<tag k="ssr:type" v="fyrlykt" />
	</node>
	<node lat="59.63050277750045" lon="5.958086118840962" id="-44782">
		<tag k="name" v="Sunnhordland" />
		<tag k="ssr:date" v="2019-12-27" />
		<tag k="ssr:gruppe" v="terrengområder" />
		<tag k="ssr:hovedgruppe" v="terreng" />
		<tag k="ssr:stedsnr" v="692498" />
		<tag k="ssr:type" v="landskapsområde" />
	</node>
	<node lat="59.8165611123964" lon="5.668466659133403" id="-45128">
		<tag k="name" v="Ikorntåa" />
		<tag k="ssr:date" v="2019-12-27" />
		<tag k="ssr:gruppe" v="navigasjon" />
		<tag k="ssr:hovedgruppe" v="infrastruktur" />
		<tag k="ssr:stedsnr" v="726022" />
		<tag k="ssr:type" v="fyrlykt" />
	</node>
	<node lat="60.11313610809762" lon="6.181933326958105" id="-45411">
		<tag k="name" v="Ramshola" />
		<tag k="ssr:date" v="2019-12-27" />
		<tag k="ssr:gruppe" v="sjøbunn" />
		<tag k="ssr:hovedgruppe" v="sjø" />
		<tag k="ssr:stedsnr" v="827375" />
		<tag k="ssr:type" v="søkkISjø" />
	</node>
	<node lat="60.20378888806672" lon="6.410669440890442" id="-46255">
		<tag k="name" v="Hardanger" />
		<tag k="ssr:date" v="2019-12-27" />
		<tag k="ssr:gruppe" v="terrengområder" />
		<tag k="ssr:hovedgruppe" v="terreng" />
		<tag k="ssr:stedsnr" v="206291" />
		<tag k="ssr:type" v="landskapsområde" />
	</node>
	<node lat="60.10763888684" lon="6.137972226643427" id="-46284">
		<tag k="name" v="Mortnahola" />
		<tag k="ssr:date" v="2019-12-27" />
		<tag k="ssr:gruppe" v="sjøbunn" />
		<tag k="ssr:hovedgruppe" v="sjø" />
		<tag k="ssr:stedsnr" v="220549" />
		<tag k="ssr:type" v="søkkISjø" />
	</node>
	<node lat="59.79550269440115" lon="5.800004254341231" id="-46441">
		<tag k="alt_name" v="Hillestadholmen" />
		<tag k="name" v="Hillestadholmen lykt" />
		<tag k="ssr:date" v="2020-09-08" />
		<tag k="ssr:gruppe" v="navigasjon" />
		<tag k="ssr:hovedgruppe" v="infrastruktur" />
		<tag k="ssr:stedsnr" v="307405" />
		<tag k="ssr:type" v="fyrlykt" />
	</node>
	<node lat="60.00203907454043" lon="5.7247811561916535" id="-46494">
		<tag k="alt_name" v="Hamarhaugflu;Hammarhaugfluena" />
		<tag k="name" v="Hamarhaugfluene lykt" />
		<tag k="ssr:date" v="2020-09-08" />
		<tag k="ssr:gruppe" v="navigasjon" />
		<tag k="ssr:hovedgruppe" v="infrastruktur" />
		<tag k="ssr:stedsnr" v="308677" />
		<tag k="ssr:type" v="fyrlykt" />
	</node>
	<node lat="59.984208333288706" lon="6.0122777864592045" id="-46845">
		<tag k="alt_name" v="Kvinnherad" />
		<tag k="name" v="Kvinnherad kommune" />
		<tag k="ssr:date" v="2019-12-27" />
		<tag k="ssr:gruppe" v="administrativeIndelinger" />
		<tag k="ssr:hovedgruppe" v="offentligAdministrasjon" />
		<tag k="ssr:stedsnr" v="449026" />
		<tag k="ssr:type" v="kommune" />
	</node>
	<node lat="60.04110555297677" lon="5.926352774794822" id="-47502">
		<tag k="name" v="Fjæraflua lykt" />
		<tag k="ssr:date" v="2019-12-27" />
		<tag k="ssr:gruppe" v="navigasjon" />
		<tag k="ssr:hovedgruppe" v="infrastruktur" />
		<tag k="ssr:stedsnr" v="827749" />
		<tag k="ssr:type" v="fyrlykt" />
	</node>
	<node lat="59.93352778126578" lon="5.792733340068694" id="-47588">
		<tag k="alt_name" v="Skorpen" />
		<tag k="name" v="Skorpen lykt" />
		<tag k="old_name" v="Skorpo" />
		<tag k="ssr:date" v="2019-12-27" />
		<tag k="ssr:gruppe" v="navigasjon" />
		<tag k="ssr:hovedgruppe" v="infrastruktur" />
		<tag k="ssr:stedsnr" v="854727" />
		<tag k="ssr:type" v="fyrlykt" />
	</node>
	<node lat="60.123727776170995" lon="6.296105555209082" id="-47747">
		<tag k="name" v="Saltkjelen" />
		<tag k="ssr:date" v="2019-12-27" />
		<tag k="ssr:gruppe" v="sjøbunn" />
		<tag k="ssr:hovedgruppe" v="sjø" />
		<tag k="ssr:stedsnr" v="949260" />
		<tag k="ssr:type" v="søkkISjø" />
	</node>
	<node lat="59.94607715978074" lon="5.98371875499611" id="-47782">
		<tag k="name" v="Vetleåsen" />
		<tag k="ssr:date" v="2019-12-27" />
		<tag k="ssr:gruppe" v="veg" />
		<tag k="ssr:hovedgruppe" v="infrastruktur" />
		<tag k="ssr:stedsnr" v="1037851" />
		<tag k="ssr:type" v="adressenavn" />
	</node>
	<node lat="59.984903840719234" lon="6.006492750237539" id="-47783">
		<tag k="name" v="Skålafjæro" />
		<tag k="ssr:date" v="2019-12-27" />
		<tag k="ssr:gruppe" v="veg" />
		<tag k="ssr:hovedgruppe" v="infrastruktur" />
		<tag k="ssr:stedsnr" v="1038008" />
		<tag k="ssr:type" v="adressenavn" />
	</node>
	<node lat="59.9655327366665" lon="5.89922052315438" id="-47784">
		<tag k="name" v="Vestre Snilstveitøy" />
		<tag k="ssr:date" v="2019-12-27" />
		<tag k="ssr:gruppe" v="veg" />
		<tag k="ssr:hovedgruppe" v="infrastruktur" />
		<tag k="ssr:stedsnr" v="1038295" />
		<tag k="ssr:type" v="adressenavn" />
	</node>
	<node lat="59.987259704845236" lon="5.949680462824606" id="-47785">
		<tag k="name" v="Kalven" />
		<tag k="ssr:date" v="2019-12-27" />
		<tag k="ssr:gruppe" v="veg" />
		<tag k="ssr:hovedgruppe" v="infrastruktur" />
		<tag k="ssr:stedsnr" v="1038296" />
		<tag k="ssr:type" v="adressenavn" />
	</node>
	<node lat="59.863874679118325" lon="5.744054156921764" id="-47786">
		<tag k="name" v="Såfura" />
		<tag k="ssr:date" v="2019-12-27" />
		<tag k="ssr:gruppe" v="veg" />
		<tag k="ssr:hovedgruppe" v="infrastruktur" />
		<tag k="ssr:stedsnr" v="1038298" />
		<tag k="ssr:type" v="adressenavn" />
	</node>
	<node lat="59.786719794714934" lon="5.673994819825296" id="-47787">
		<tag k="name" v="Breidvika" />
		<tag k="ssr:date" v="2019-12-27" />
		<tag k="ssr:gruppe" v="veg" />
		<tag k="ssr:hovedgruppe" v="infrastruktur" />
		<tag k="ssr:stedsnr" v="1038304" />
		<tag k="ssr:type" v="adressenavn" />
	</node>
	<node lat="59.7089938363443" lon="5.712914053961567" id="-47788">
		<tag k="name" v="Bjellebøvegen" />
		<tag k="ssr:date" v="2019-12-27" />
		<tag k="ssr:gruppe" v="veg" />
		<tag k="ssr:hovedgruppe" v="infrastruktur" />
		<tag k="ssr:stedsnr" v="1038316" />
		<tag k="ssr:type" v="adressenavn" />
	</node>
	<node lat="59.83263289804747" lon="5.758364927030688" id="-47789">
		<tag k="name" v="Porsvikneset" />
		<tag k="ssr:date" v="2019-12-27" />
		<tag k="ssr:gruppe" v="veg" />
		<tag k="ssr:hovedgruppe" v="infrastruktur" />
		<tag k="ssr:stedsnr" v="1038328" />
		<tag k="ssr:type" v="adressenavn" />
	</node>
	<node lat="59.997515727221824" lon="5.985098143688542" id="-47790">
		<tag k="name" v="Svarthammarlia" />
		<tag k="old_name" v="Svarthamarlio" />
		<tag k="ssr:date" v="2019-12-27" />
		<tag k="ssr:gruppe" v="veg" />
		<tag k="ssr:hovedgruppe" v="infrastruktur" />
		<tag k="ssr:stedsnr" v="1073618" />
		<tag k="ssr:type" v="adressenavn" />
	</node>
	<node lat="59.79603474183233" lon="5.664092787952625" id="-47791">
		<tag k="name" v="Olahagen" />
		<tag k="ssr:date" v="2020-01-16" />
		<tag k="ssr:gruppe" v="veg" />
		<tag k="ssr:hovedgruppe" v="infrastruktur" />
		<tag k="ssr:stedsnr" v="1073765" />
		<tag k="ssr:type" v="adressenavn" />
	</node>
	<node lat="60.38666587132831" lon="5.332557531214444" id="-47792">
		<tag k="name" v="Vestland fylke" />
		<tag k="ssr:date" v="2021-06-08" />
		<tag k="ssr:gruppe" v="administrativeIndelinger" />
		<tag k="ssr:hovedgruppe" v="offentligAdministrasjon" />
		<tag k="ssr:stedsnr" v="1074408" />
		<tag k="ssr:type" v="fylke" />
	</node>
	<node lat="60.02723533525848" lon="5.899236489959652" id="-47795">
		<tag k="name" v="Seltangen" />
		<tag k="ssr:date" v="2020-02-13" />
		<tag k="ssr:gruppe" v="veg" />
		<tag k="ssr:hovedgruppe" v="infrastruktur" />
		<tag k="ssr:stedsnr" v="1075101" />
		<tag k="ssr:type" v="adressenavn" />
	</node>
	<node lat="59.798023398896376" lon="5.7113354393061" id="-47798">
		<tag k="name" v="Veg 1331" />
		<tag k="ssr:date" v="2021-01-26" />
		<tag k="ssr:gruppe" v="veg" />
		<tag k="ssr:hovedgruppe" v="infrastruktur" />
		<tag k="ssr:stedsnr" v="1079759" />
		<tag k="ssr:type" v="adressenavn" />
	</node>
	<node lat="59.732057155665316" lon="5.690499764598054" id="-47807">
		<tag k="name" v="Vikenesvegen" />
		<tag k="ssr:date" v="2021-07-06" />
		<tag k="ssr:gruppe" v="veg" />
		<tag k="ssr:hovedgruppe" v="infrastruktur" />
		<tag k="ssr:stedsnr" v="1081768" />
		<tag k="ssr:type" v="adressenavn" />
	</node>
	<node lat="59.85671896718782" lon="5.741055857097173" id="-47808">
		<tag k="name" v="Smiehaugen" />
		<tag k="ssr:date" v="2021-07-06" />
		<tag k="ssr:gruppe" v="veg" />
		<tag k="ssr:hovedgruppe" v="infrastruktur" />
		<tag k="ssr:stedsnr" v="1081769" />
		<tag k="ssr:type" v="adressenavn" />
	</node>
</osm>
