<?xml version="1.0" encoding="UTF-8"?>
<osm version="0.6" generator="osmapis">
	<node lat="60.056283337097284" lon="6.025041660852041" id="-29244">
		<tag k="bridge" v="yes" />
		<tag k="layer" v="1" />
		<tag k="name" v="Årsneselv" />
		<tag k="ssr:date" v="2019-12-27" />
		<tag k="ssr:gruppe" v="samferdselsanlegg" />
		<tag k="ssr:hovedgruppe" v="infrastruktur" />
		<tag k="ssr:stedsnr" v="229861" />
		<tag k="ssr:type" v="bru" />
	</node>
	<node lat="59.95604444784003" lon="6.0344138898164985" id="-29245">
		<tag k="alt_name" v="Nottabekken" />
		<tag k="name" v="Natadalsbekken" />
		<tag k="ssr:date" v="2019-12-27" />
		<tag k="ssr:gruppe" v="rennendeVann" />
		<tag k="ssr:hovedgruppe" v="ferskvann" />
		<tag k="ssr:stedsnr" v="3007" />
		<tag k="ssr:type" v="bekk" />
		<tag k="waterway" v="stream" />
	</node>
	<node lat="59.95470000295188" lon="6.055294442386721" id="-29246">
		<tag k="historic" v="shieling" />
		<tag k="name" v="Guddalsfita" />
		<tag k="place" v="locality" />
		<tag k="ssr:date" v="2019-12-27" />
		<tag k="ssr:gruppe" v="dyrkamark" />
		<tag k="ssr:hovedgruppe" v="markslag" />
		<tag k="ssr:stedsnr" v="3010" />
		<tag k="ssr:type" v="setervoll" />
	</node>
	<node lat="59.70348656438646" lon="5.729790802652938" id="-29247">
		<tag k="alt_name" v="Kumla" />
		<tag k="fixme" v="consider seamark:type=rock or natural=shoal" />
		<tag k="name" v="Melskomla" />
		<tag k="place" v="islet" />
		<tag k="ssr:date" v="2021-07-08" />
		<tag k="ssr:gruppe" v="grunnerISjø" />
		<tag k="ssr:hovedgruppe" v="sjø" />
		<tag k="ssr:stedsnr" v="3070" />
		<tag k="ssr:type" v="skjærISjø" />
	</node>
	<node lat="59.71025277636564" lon="5.7207861156589646" id="-29248">
		<tag k="name" v="Labergsvika" />
		<tag k="natural" v="bay" />
		<tag k="ssr:date" v="2019-12-27" />
		<tag k="ssr:gruppe" v="kystkontur" />
		<tag k="ssr:hovedgruppe" v="sjø" />
		<tag k="ssr:stedsnr" v="3072" />
		<tag k="ssr:type" v="vikISjø" />
	</node>
	<node lat="59.967066664180756" lon="6.0800361184877" id="-29249">
		<tag k="fixme" v="consider natural=peak for the most distinct mountains in the district" />
		<tag k="name" v="Botnafjell" />
		<tag k="natural" v="hill" />
		<tag k="place" v="locality" />
		<tag k="ssr:date" v="2019-12-27" />
		<tag k="ssr:gruppe" v="høyder" />
		<tag k="ssr:hovedgruppe" v="terreng" />
		<tag k="ssr:stedsnr" v="3428" />
		<tag k="ssr:type" v="ås" />
	</node>
	<node lat="59.776130553294976" lon="5.731830558237623" id="-29250">
		<tag k="alt_name" v="Siranes" />
		<tag k="name" v="Siraneset" />
		<tag k="natural" v="cape" />
		<tag k="ssr:date" v="2019-12-27" />
		<tag k="ssr:gruppe" v="kystkontur" />
		<tag k="ssr:hovedgruppe" v="sjø" />
		<tag k="ssr:stedsnr" v="3375" />
		<tag k="ssr:type" v="nesISjø" />
	</node>
	<node lat="59.99258788200436" lon="5.784528763125478" id="-29251">
		<tag k="alt_name" v="Ølve" />
		<tag k="amenity" v="place_of_worship" />
		<tag k="denomination" v="lutheran" />
		<tag k="name" v="Ølve kyrkje" />
		<tag k="religion" v="christian" />
		<tag k="ssr:date" v="2019-12-27" />
		<tag k="ssr:gruppe" v="kulturinstitusjoner" />
		<tag k="ssr:hovedgruppe" v="kultur" />
		<tag k="ssr:stedsnr" v="3626" />
		<tag k="ssr:type" v="kirke" />
	</node>
	<node lat="59.99201666655329" lon="5.8019388822968505" id="-29252">
		<tag k="name" v="Husavågen" />
		<tag k="natural" v="bay" />
		<tag k="ssr:date" v="2019-12-27" />
		<tag k="ssr:gruppe" v="kystkontur" />
		<tag k="ssr:hovedgruppe" v="sjø" />
		<tag k="ssr:stedsnr" v="3639" />
		<tag k="ssr:type" v="vikISjø" />
	</node>
	<node lat="59.910616662528454" lon="5.825613893221317" id="-29253">
		<tag k="fixme" v="consider natural=peak for the most distinct mountains in the district" />
		<tag k="name" v="Nipen" />
		<tag k="natural" v="hill" />
		<tag k="place" v="locality" />
		<tag k="ssr:date" v="2019-12-27" />
		<tag k="ssr:gruppe" v="høyder" />
		<tag k="ssr:hovedgruppe" v="terreng" />
		<tag k="ssr:stedsnr" v="3679" />
		<tag k="ssr:type" v="ås" />
	</node>
	<node lat="59.87930555598624" lon="5.9818000088190715" id="-29254">
		<tag k="alt_name" v="Såta, nordre;Nordre Såta" />
		<tag k="name" v="Nordra Såta" />
		<tag k="natural" v="hill" />
		<tag k="place" v="locality" />
		<tag k="ssr:date" v="2019-12-27" />
		<tag k="ssr:gruppe" v="høyder" />
		<tag k="ssr:hovedgruppe" v="terreng" />
		<tag k="ssr:stedsnr" v="4114" />
		<tag k="ssr:type" v="berg" />
	</node>
	<node lat="60.103324996570414" lon="6.234511110649442" id="-29255">
		<tag k="alt_name" v="Krokagjelet" />
		<tag k="name" v="Krokagilet" />
		<tag k="natural" v="valley" />
		<tag k="place" v="locality" />
		<tag k="ssr:date" v="2019-12-27" />
		<tag k="ssr:gruppe" v="senkninger" />
		<tag k="ssr:hovedgruppe" v="terreng" />
		<tag k="ssr:stedsnr" v="4123" />
		<tag k="ssr:type" v="skar" />
	</node>
	<node lat="59.856593081631445" lon="6.017605401335675" id="-29256">
		<tag k="alt_name" v="Okstveit" />
		<tag k="fixme" v="consider place=hamlet" />
		<tag k="name" v="Opstveit" />
		<tag k="place" v="farm" />
		<tag k="ssr:date" v="2019-12-27" />
		<tag k="ssr:gruppe" v="gardsbebyggelse" />
		<tag k="ssr:hovedgruppe" v="bebyggelse" />
		<tag k="ssr:stedsnr" v="4166" />
		<tag k="ssr:type" v="gard" />
	</node>
	<node lat="59.85830827408747" lon="6.109811451451093" id="-29257">
		<tag k="name" v="Nesjastølsvatnet" />
		<tag k="natural" v="water" />
		<tag k="ssr:date" v="2019-12-27" />
		<tag k="ssr:gruppe" v="stilleståendeVann" />
		<tag k="ssr:hovedgruppe" v="ferskvann" />
		<tag k="ssr:stedsnr" v="4170" />
		<tag k="ssr:type" v="vann" />
		<tag k="water" v="lake" />
	</node>
	<node lat="59.8533999992584" lon="6.0714388946837685" id="-29258">
		<tag k="historic" v="shieling" />
		<tag k="name" v="Bjørkestølen" />
		<tag k="place" v="isolated_dwelling" />
		<tag k="ssr:date" v="2019-12-27" />
		<tag k="ssr:gruppe" v="gardsbebyggelse" />
		<tag k="ssr:hovedgruppe" v="bebyggelse" />
		<tag k="ssr:stedsnr" v="4173" />
		<tag k="ssr:type" v="seterStøl" />
	</node>
	<node lat="59.94747736625545" lon="5.99582195273879" id="-29259">
		<tag k="name" v="Åmvik" />
		<tag k="place" v="hamlet" />
		<tag k="ssr:date" v="2019-12-27" />
		<tag k="ssr:gruppe" v="gardsbebyggelse" />
		<tag k="ssr:hovedgruppe" v="bebyggelse" />
		<tag k="ssr:stedsnr" v="4015" />
		<tag k="ssr:type" v="navnegard" />
	</node>
	<node lat="59.96206666393559" lon="6.178099991814709" id="-29260">
		<tag k="fixme" v="consider natural=peak for the most distinct mountains in the district" />
		<tag k="name" v="Fossarusta" />
		<tag k="natural" v="hill" />
		<tag k="place" v="locality" />
		<tag k="ssr:date" v="2019-12-27" />
		<tag k="ssr:gruppe" v="høyder" />
		<tag k="ssr:hovedgruppe" v="terreng" />
		<tag k="ssr:stedsnr" v="4023" />
		<tag k="ssr:type" v="ås" />
	</node>
	<node lat="59.945705558416435" lon="5.890930561541794" id="-29261">
		<tag k="name" v="Rødsvågen" />
		<tag k="natural" v="bay" />
		<tag k="ssr:date" v="2019-12-27" />
		<tag k="ssr:gruppe" v="kystkontur" />
		<tag k="ssr:hovedgruppe" v="sjø" />
		<tag k="ssr:stedsnr" v="4026" />
		<tag k="ssr:type" v="vikISjø" />
	</node>
	<node lat="59.94713888939257" lon="5.959600005931269" id="-29262">
		<tag k="name" v="Grytevika" />
		<tag k="natural" v="bay" />
		<tag k="ssr:date" v="2019-12-27" />
		<tag k="ssr:gruppe" v="kystkontur" />
		<tag k="ssr:hovedgruppe" v="sjø" />
		<tag k="ssr:stedsnr" v="4030" />
		<tag k="ssr:type" v="vikISjø" />
	</node>
	<node lat="59.918300471940306" lon="6.163729051326178" id="-29263">
		<tag k="name" v="Blådalsvatnet" />
		<tag k="natural" v="water" />
		<tag k="ssr:date" v="2019-12-27" />
		<tag k="ssr:gruppe" v="stilleståendeVann" />
		<tag k="ssr:hovedgruppe" v="ferskvann" />
		<tag k="ssr:stedsnr" v="4070" />
		<tag k="ssr:type" v="vann" />
		<tag k="water" v="lake" />
	</node>
	<node lat="59.91736666694634" lon="5.937108332358855" id="-29264">
		<tag k="fixme" v="consider natural=peak for the most distinct mountains in the district" />
		<tag k="name" v="Hauglandsfjellet" />
		<tag k="natural" v="hill" />
		<tag k="place" v="locality" />
		<tag k="ssr:date" v="2019-12-27" />
		<tag k="ssr:gruppe" v="høyder" />
		<tag k="ssr:hovedgruppe" v="terreng" />
		<tag k="ssr:stedsnr" v="4077" />
		<tag k="ssr:type" v="ås" />
	</node>
	<node lat="59.91550555594531" lon="5.920833327542482" id="-29265">
		<tag k="name" v="Kleppabekken" />
		<tag k="ssr:date" v="2019-12-27" />
		<tag k="ssr:gruppe" v="rennendeVann" />
		<tag k="ssr:hovedgruppe" v="ferskvann" />
		<tag k="ssr:stedsnr" v="4085" />
		<tag k="ssr:type" v="bekk" />
		<tag k="waterway" v="stream" />
	</node>
	<node lat="59.91322500376908" lon="6.004936115649876" id="-29266">
		<tag k="name" v="Kyllarshaug" />
		<tag k="natural" v="hill" />
		<tag k="place" v="locality" />
		<tag k="ssr:date" v="2019-12-27" />
		<tag k="ssr:gruppe" v="høyder" />
		<tag k="ssr:hovedgruppe" v="terreng" />
		<tag k="ssr:stedsnr" v="4093" />
		<tag k="ssr:type" v="haug" />
	</node>
	<node lat="59.91298611178183" lon="6.0178194415418265" id="-29267">
		<tag k="name" v="Landaelva" />
		<tag k="ssr:date" v="2019-12-27" />
		<tag k="ssr:gruppe" v="rennendeVann" />
		<tag k="ssr:hovedgruppe" v="ferskvann" />
		<tag k="ssr:stedsnr" v="4094" />
		<tag k="ssr:type" v="bekk" />
		<tag k="waterway" v="stream" />
	</node>
	<node lat="59.79088889233795" lon="6.052175003479747" id="-29268">
		<tag k="name" v="Krakaheia" />
		<tag k="natural" v="hill" />
		<tag k="place" v="locality" />
		<tag k="ssr:date" v="2019-12-27" />
		<tag k="ssr:gruppe" v="høyder" />
		<tag k="ssr:hovedgruppe" v="terreng" />
		<tag k="ssr:stedsnr" v="4315" />
		<tag k="ssr:type" v="berg" />
	</node>
	<node lat="59.78125833104845" lon="6.025958330691742" id="-29269">
		<tag k="fixme" v="multiple name tags, choose one and add the other to alt_name; consider natural=peak for the most distinct mountains in the district" />
		<tag k="name" v="Galtaåsen;Foserhei" />
		<tag k="natural" v="hill" />
		<tag k="place" v="locality" />
		<tag k="ssr:date" v="2019-12-27" />
		<tag k="ssr:gruppe" v="høyder" />
		<tag k="ssr:hovedgruppe" v="terreng" />
		<tag k="ssr:stedsnr" v="4319" />
		<tag k="ssr:type" v="ås" />
	</node>
	<node lat="59.84199999931351" lon="5.772833325207641" id="-29270">
		<tag k="name" v="Teigalia" />
		<tag k="natural" v="slope" />
		<tag k="place" v="locality" />
		<tag k="ssr:date" v="2019-12-27" />
		<tag k="ssr:gruppe" v="skråninger" />
		<tag k="ssr:hovedgruppe" v="terreng" />
		<tag k="ssr:stedsnr" v="4321" />
		<tag k="ssr:type" v="li" />
	</node>
	<node lat="59.84378953003025" lon="5.7664523063768645" id="-29271">
		<tag k="fixme" v="consider place=hamlet" />
		<tag k="name" v="Teigen" />
		<tag k="place" v="farm" />
		<tag k="ssr:date" v="2019-12-27" />
		<tag k="ssr:gruppe" v="gardsbebyggelse" />
		<tag k="ssr:hovedgruppe" v="bebyggelse" />
		<tag k="ssr:stedsnr" v="4322" />
		<tag k="ssr:type" v="gard" />
	</node>
	<node lat="59.843318438418834" lon="5.689993257354956" id="-29272">
		<tag k="name" v="Bjellandstjørna" />
		<tag k="natural" v="water" />
		<tag k="ssr:date" v="2019-12-27" />
		<tag k="ssr:gruppe" v="stilleståendeVann" />
		<tag k="ssr:hovedgruppe" v="ferskvann" />
		<tag k="ssr:stedsnr" v="4323" />
		<tag k="ssr:type" v="tjern" />
	</node>
	<node lat="60.173141662864666" lon="6.3371805622834145" id="-29273">
		<tag k="fixme" v="consider natural=peak for the most distinct mountains in the district" />
		<tag k="name" v="Skramben" />
		<tag k="natural" v="hill" />
		<tag k="place" v="locality" />
		<tag k="ssr:date" v="2019-12-27" />
		<tag k="ssr:gruppe" v="høyder" />
		<tag k="ssr:hovedgruppe" v="terreng" />
		<tag k="ssr:stedsnr" v="4214" />
		<tag k="ssr:type" v="ås" />
	</node>
	<node lat="59.75453611388612" lon="5.722861112234983" id="-29274">
		<tag k="name" v="Brenneholmen" />
		<tag k="place" v="islet" />
		<tag k="ssr:date" v="2019-12-27" />
		<tag k="ssr:gruppe" v="kystkontur" />
		<tag k="ssr:hovedgruppe" v="sjø" />
		<tag k="ssr:stedsnr" v="4405" />
		<tag k="ssr:type" v="holmeISjø" />
	</node>
	<node lat="59.75097499759195" lon="5.7063277739229505" id="-29275">
		<tag k="name" v="Breidvika" />
		<tag k="natural" v="bay" />
		<tag k="ssr:date" v="2019-12-27" />
		<tag k="ssr:gruppe" v="kystkontur" />
		<tag k="ssr:hovedgruppe" v="sjø" />
		<tag k="ssr:stedsnr" v="4406" />
		<tag k="ssr:type" v="vikISjø" />
	</node>
	<node lat="59.756496816058934" lon="5.8364448301382525" id="-29276">
		<tag k="name" v="Børsdalsvika" />
		<tag k="natural" v="bay" />
		<tag k="ssr:date" v="2019-12-27" />
		<tag k="ssr:gruppe" v="kystkontur" />
		<tag k="ssr:hovedgruppe" v="sjø" />
		<tag k="ssr:stedsnr" v="4409" />
		<tag k="ssr:type" v="vikISjø" />
	</node>
	<node lat="59.9477027738783" lon="6.245508326599091" id="-29277">
		<tag k="name" v="Grøndalen" />
		<tag k="natural" v="valley" />
		<tag k="place" v="locality" />
		<tag k="ssr:date" v="2019-12-27" />
		<tag k="ssr:gruppe" v="senkninger" />
		<tag k="ssr:hovedgruppe" v="terreng" />
		<tag k="ssr:stedsnr" v="4425" />
		<tag k="ssr:type" v="dal" />
	</node>
	<node lat="59.9645638879019" lon="5.91676388626375" id="-29278">
		<tag k="alt_name" v="Eikeneset" />
		<tag k="name" v="Eiketeigneset" />
		<tag k="natural" v="cape" />
		<tag k="ssr:date" v="2019-12-27" />
		<tag k="ssr:gruppe" v="kystkontur" />
		<tag k="ssr:hovedgruppe" v="sjø" />
		<tag k="ssr:stedsnr" v="4471" />
		<tag k="ssr:type" v="nesISjø" />
	</node>
	<node lat="60.194349995838266" lon="6.341505560990457" id="-29279">
		<tag k="name" v="Skyrdalen" />
		<tag k="natural" v="valley" />
		<tag k="place" v="locality" />
		<tag k="ssr:date" v="2019-12-27" />
		<tag k="ssr:gruppe" v="senkninger" />
		<tag k="ssr:hovedgruppe" v="terreng" />
		<tag k="ssr:stedsnr" v="4862" />
		<tag k="ssr:type" v="dal" />
	</node>
	<node lat="60.02885000442563" lon="6.156588885332979" id="-29280">
		<tag k="name" v="Vatnastølsheia" />
		<tag k="natural" v="hill" />
		<tag k="place" v="locality" />
		<tag k="ssr:date" v="2019-12-27" />
		<tag k="ssr:gruppe" v="høyder" />
		<tag k="ssr:hovedgruppe" v="terreng" />
		<tag k="ssr:stedsnr" v="4772" />
		<tag k="ssr:type" v="haug" />
	</node>
	<node lat="60.02386388771433" lon="6.026141672580112" id="-29281">
		<tag k="fixme" v="consider natural=peak for the most distinct mountains in the district" />
		<tag k="loc_name" v="Øykjafjell" />
		<tag k="name" v="Øykjafjellet" />
		<tag k="natural" v="hill" />
		<tag k="place" v="locality" />
		<tag k="ssr:date" v="2019-12-27" />
		<tag k="ssr:gruppe" v="høyder" />
		<tag k="ssr:hovedgruppe" v="terreng" />
		<tag k="ssr:stedsnr" v="4775" />
		<tag k="ssr:type" v="ås" />
	</node>
	<node lat="60.09561666977662" lon="6.116452770065296" id="-29283">
		<tag k="name" v="Ænestangen" />
		<tag k="natural" v="cape" />
		<tag k="ssr:date" v="2019-12-27" />
		<tag k="ssr:gruppe" v="kystkontur" />
		<tag k="ssr:hovedgruppe" v="sjø" />
		<tag k="ssr:stedsnr" v="4935" />
		<tag k="ssr:type" v="nesISjø" />
	</node>
	<node lat="60.09050833277222" lon="6.113125006494708" id="-29284">
		<tag k="alt_name" v="Ænes" />
		<tag k="amenity" v="place_of_worship" />
		<tag k="denomination" v="lutheran" />
		<tag k="name" v="Ænes kyrkje" />
		<tag k="religion" v="christian" />
		<tag k="ssr:date" v="2019-12-27" />
		<tag k="ssr:gruppe" v="kulturinstitusjoner" />
		<tag k="ssr:hovedgruppe" v="kultur" />
		<tag k="ssr:stedsnr" v="4936" />
		<tag k="ssr:type" v="kirke" />
	</node>
	<node lat="60.05995000265222" lon="6.279763888639604" id="-29285">
		<tag k="name" v="Fossane" />
		<tag k="natural" v="slope" />
		<tag k="place" v="locality" />
		<tag k="ssr:date" v="2019-12-27" />
		<tag k="ssr:gruppe" v="skråninger" />
		<tag k="ssr:hovedgruppe" v="terreng" />
		<tag k="ssr:stedsnr" v="5079" />
		<tag k="ssr:type" v="li" />
	</node>
	<node lat="60.12466979942747" lon="5.93662158652087" id="-29286">
		<tag k="fixme" v="consider place=hamlet" />
		<tag k="name" v="Hisdalen" />
		<tag k="place" v="farm" />
		<tag k="ssr:date" v="2019-12-27" />
		<tag k="ssr:gruppe" v="gardsbebyggelse" />
		<tag k="ssr:hovedgruppe" v="bebyggelse" />
		<tag k="ssr:stedsnr" v="5863" />
		<tag k="ssr:type" v="gard" />
	</node>
	<node lat="60.07679444452432" lon="6.111983330673307" id="-29287">
		<tag k="name" v="Taklibekken" />
		<tag k="ssr:date" v="2019-12-27" />
		<tag k="ssr:gruppe" v="rennendeVann" />
		<tag k="ssr:hovedgruppe" v="ferskvann" />
		<tag k="ssr:stedsnr" v="5955" />
		<tag k="ssr:type" v="bekk" />
		<tag k="waterway" v="stream" />
	</node>
	<node lat="60.06845000063613" lon="6.125241674681029" id="-29289">
		<tag k="historic" v="shieling" />
		<tag k="name" v="Ænessætret" />
		<tag k="place" v="isolated_dwelling" />
		<tag k="ssr:date" v="2019-12-27" />
		<tag k="ssr:gruppe" v="gardsbebyggelse" />
		<tag k="ssr:hovedgruppe" v="bebyggelse" />
		<tag k="ssr:stedsnr" v="5966" />
		<tag k="ssr:type" v="seterStøl" />
	</node>
	<node lat="60.057810305120455" lon="5.91401463331853" id="-29290">
		<tag k="alt_name" v="Bogland" />
		<tag k="fixme" v="consider place=hamlet" />
		<tag k="name" v="Boland" />
		<tag k="place" v="farm" />
		<tag k="ssr:date" v="2019-12-27" />
		<tag k="ssr:gruppe" v="gardsbebyggelse" />
		<tag k="ssr:hovedgruppe" v="bebyggelse" />
		<tag k="ssr:stedsnr" v="5975" />
		<tag k="ssr:type" v="gard" />
	</node>
	<node lat="59.97827500054028" lon="6.005369445562604" id="-29291">
		<tag k="name" v="Kråkeneset" />
		<tag k="natural" v="cape" />
		<tag k="ssr:date" v="2019-12-27" />
		<tag k="ssr:gruppe" v="kystkontur" />
		<tag k="ssr:hovedgruppe" v="sjø" />
		<tag k="ssr:stedsnr" v="24003" />
		<tag k="ssr:type" v="nesISjø" />
	</node>
	<node lat="60.103097218614835" lon="5.914186111120805" id="-29292">
		<tag k="name" v="Bjørklund" />
		<tag k="place" v="farm" />
		<tag k="ssr:date" v="2019-12-27" />
		<tag k="ssr:gruppe" v="gardsbebyggelse" />
		<tag k="ssr:hovedgruppe" v="bebyggelse" />
		<tag k="ssr:stedsnr" v="24046" />
		<tag k="ssr:type" v="bruk" />
	</node>
	<node lat="60.03091388843474" lon="5.71461666708055" id="-29293">
		<tag k="name" v="Akslaneset" />
		<tag k="natural" v="cape" />
		<tag k="ssr:date" v="2019-12-27" />
		<tag k="ssr:gruppe" v="kystkontur" />
		<tag k="ssr:hovedgruppe" v="sjø" />
		<tag k="ssr:stedsnr" v="37858" />
		<tag k="ssr:type" v="nesISjø" />
	</node>
	<node lat="59.79365278156952" lon="5.8591138900489135" id="-29294">
		<tag k="fixme" v="consider natural=peak for the most distinct mountains in the district" />
		<tag k="name" v="Lindalsfjellet" />
		<tag k="natural" v="hill" />
		<tag k="place" v="locality" />
		<tag k="ssr:date" v="2019-12-27" />
		<tag k="ssr:gruppe" v="høyder" />
		<tag k="ssr:hovedgruppe" v="terreng" />
		<tag k="ssr:stedsnr" v="37862" />
		<tag k="ssr:type" v="fjell" />
	</node>
	<node lat="59.81361666406832" lon="6.064249997262856" id="-29295">
		<tag k="name" v="Abrahamhaugen" />
		<tag k="natural" v="hill" />
		<tag k="place" v="locality" />
		<tag k="ssr:date" v="2019-12-27" />
		<tag k="ssr:gruppe" v="høyder" />
		<tag k="ssr:hovedgruppe" v="terreng" />
		<tag k="ssr:stedsnr" v="37704" />
		<tag k="ssr:type" v="haug" />
	</node>
	<node lat="59.78795555354137" lon="6.065583329719068" id="-29296">
		<tag k="name" v="Storhaug" />
		<tag k="natural" v="hill" />
		<tag k="place" v="locality" />
		<tag k="ssr:date" v="2019-12-27" />
		<tag k="ssr:gruppe" v="høyder" />
		<tag k="ssr:hovedgruppe" v="terreng" />
		<tag k="ssr:stedsnr" v="37715" />
		<tag k="ssr:type" v="haug" />
	</node>
	<node lat="59.777380553795744" lon="6.064144450299414" id="-29297">
		<tag k="name" v="Årahaugen" />
		<tag k="natural" v="hill" />
		<tag k="place" v="locality" />
		<tag k="ssr:date" v="2019-12-27" />
		<tag k="ssr:gruppe" v="høyder" />
		<tag k="ssr:hovedgruppe" v="terreng" />
		<tag k="ssr:stedsnr" v="37725" />
		<tag k="ssr:type" v="haug" />
	</node>
	<node lat="60.10295000424443" lon="6.277788890715434" id="-29298">
		<tag k="name" v="Storeholmen" />
		<tag k="place" v="island" />
		<tag k="ssr:date" v="2019-12-27" />
		<tag k="ssr:gruppe" v="ferskvannskontur" />
		<tag k="ssr:hovedgruppe" v="ferskvann" />
		<tag k="ssr:stedsnr" v="38124" />
		<tag k="ssr:type" v="øy" />
	</node>
	<node lat="59.8053138918991" lon="6.060663890118193" id="-29299">
		<tag k="historic" v="shieling" />
		<tag k="name" v="Vetle Slottestølen" />
		<tag k="place" v="isolated_dwelling" />
		<tag k="ssr:date" v="2019-12-27" />
		<tag k="ssr:gruppe" v="gardsbebyggelse" />
		<tag k="ssr:hovedgruppe" v="bebyggelse" />
		<tag k="ssr:stedsnr" v="38169" />
		<tag k="ssr:type" v="seterStøl" />
	</node>
	<node lat="59.74251944516712" lon="5.652463894437812" id="-29300">
		<tag k="name" v="Fløneset" />
		<tag k="natural" v="cape" />
		<tag k="ssr:date" v="2019-12-27" />
		<tag k="ssr:gruppe" v="kystkontur" />
		<tag k="ssr:hovedgruppe" v="sjø" />
		<tag k="ssr:stedsnr" v="38010" />
		<tag k="ssr:type" v="nesISjø" />
	</node>
	<node lat="59.754861108093806" lon="5.838705550150538" id="-29301">
		<tag k="name" v="Klubben" />
		<tag k="natural" v="cape" />
		<tag k="ssr:date" v="2019-12-27" />
		<tag k="ssr:gruppe" v="kystkontur" />
		<tag k="ssr:hovedgruppe" v="sjø" />
		<tag k="ssr:stedsnr" v="38016" />
		<tag k="ssr:type" v="nesISjø" />
	</node>
	<node lat="59.76328333532876" lon="5.840111113812866" id="-29302">
		<tag k="name" v="Notavågen" />
		<tag k="natural" v="bay" />
		<tag k="ssr:date" v="2019-12-27" />
		<tag k="ssr:gruppe" v="kystkontur" />
		<tag k="ssr:hovedgruppe" v="sjø" />
		<tag k="ssr:stedsnr" v="38018" />
		<tag k="ssr:type" v="vågISjø" />
	</node>
	<node lat="59.76556388688334" lon="5.84098611554701" id="-29303">
		<tag k="name" v="Arnfinnsneset" />
		<tag k="natural" v="cape" />
		<tag k="ssr:date" v="2019-12-27" />
		<tag k="ssr:gruppe" v="kystkontur" />
		<tag k="ssr:hovedgruppe" v="sjø" />
		<tag k="ssr:stedsnr" v="38019" />
		<tag k="ssr:type" v="nesISjø" />
	</node>
	<node lat="59.82416666963206" lon="5.662363889589821" id="-29304">
		<tag k="name" v="Svinøyklubben" />
		<tag k="natural" v="cape" />
		<tag k="ssr:date" v="2019-12-27" />
		<tag k="ssr:gruppe" v="kystkontur" />
		<tag k="ssr:hovedgruppe" v="sjø" />
		<tag k="ssr:stedsnr" v="38020" />
		<tag k="ssr:type" v="nesISjø" />
	</node>
	<node lat="59.778083330297626" lon="5.786199993698765" id="-29305">
		<tag k="name" v="Kålhaug" />
		<tag k="natural" v="hill" />
		<tag k="place" v="locality" />
		<tag k="ssr:date" v="2019-12-27" />
		<tag k="ssr:gruppe" v="høyder" />
		<tag k="ssr:hovedgruppe" v="terreng" />
		<tag k="ssr:stedsnr" v="38058" />
		<tag k="ssr:type" v="haug" />
	</node>
	<node lat="59.77302499568629" lon="5.805961104999089" id="-29306">
		<tag k="name" v="Kolheller" />
		<tag k="natural" v="hill" />
		<tag k="place" v="locality" />
		<tag k="ssr:date" v="2019-12-27" />
		<tag k="ssr:gruppe" v="høyder" />
		<tag k="ssr:hovedgruppe" v="terreng" />
		<tag k="ssr:stedsnr" v="38063" />
		<tag k="ssr:type" v="høyde" />
	</node>
	<node lat="59.74013888590645" lon="5.768011110007927" id="-29307">
		<tag k="name" v="Buhildrane" />
		<tag k="place" v="locality" />
		<tag k="ssr:date" v="2019-12-27" />
		<tag k="ssr:gruppe" v="terrengdetaljer" />
		<tag k="ssr:hovedgruppe" v="terreng" />
		<tag k="ssr:stedsnr" v="38066" />
		<tag k="ssr:type" v="hylle" />
	</node>
	<node lat="59.77272221922339" lon="5.772394440368926" id="-29308">
		<tag k="name" v="Ørnahelleren" />
		<tag k="place" v="locality" />
		<tag k="ssr:date" v="2019-12-27" />
		<tag k="ssr:gruppe" v="terrengdetaljer" />
		<tag k="ssr:hovedgruppe" v="terreng" />
		<tag k="ssr:stedsnr" v="38070" />
		<tag k="ssr:type" v="hylle" />
	</node>
	<node lat="59.73675555590178" lon="5.66194445107204" id="-29309">
		<tag k="fixme" v="consider natural=peak for the most distinct mountains in the district" />
		<tag k="name" v="Nakkaheia" />
		<tag k="natural" v="hill" />
		<tag k="place" v="locality" />
		<tag k="ssr:date" v="2019-12-27" />
		<tag k="ssr:gruppe" v="høyder" />
		<tag k="ssr:hovedgruppe" v="terreng" />
		<tag k="ssr:stedsnr" v="38076" />
		<tag k="ssr:type" v="ås" />
	</node>
	<node lat="59.87305000244326" lon="5.985497222618285" id="-29310">
		<tag k="name" v="Åstigebakkane" />
		<tag k="natural" v="slope" />
		<tag k="place" v="locality" />
		<tag k="ssr:date" v="2019-12-27" />
		<tag k="ssr:gruppe" v="skråninger" />
		<tag k="ssr:hovedgruppe" v="terreng" />
		<tag k="ssr:stedsnr" v="38218" />
		<tag k="ssr:type" v="li" />
	</node>
	<node lat="59.84365000398621" lon="5.70615277862421" id="-29311">
		<tag k="name" v="Stølshaugen" />
		<tag k="natural" v="hill" />
		<tag k="place" v="locality" />
		<tag k="ssr:date" v="2019-12-27" />
		<tag k="ssr:gruppe" v="høyder" />
		<tag k="ssr:hovedgruppe" v="terreng" />
		<tag k="ssr:stedsnr" v="38301" />
		<tag k="ssr:type" v="haug" />
	</node>
	<node lat="60.13732222439978" lon="6.205322226721087" id="-29312">
		<tag k="name" v="Kilsdalen" />
		<tag k="natural" v="valley" />
		<tag k="place" v="locality" />
		<tag k="ssr:date" v="2019-12-27" />
		<tag k="ssr:gruppe" v="senkninger" />
		<tag k="ssr:hovedgruppe" v="terreng" />
		<tag k="ssr:stedsnr" v="38395" />
		<tag k="ssr:type" v="dal" />
	</node>
	<node lat="60.087841666657965" lon="6.099833327609485" id="-29313">
		<tag k="name" v="Staurahola" />
		<tag k="natural" v="valley" />
		<tag k="place" v="locality" />
		<tag k="ssr:date" v="2019-12-27" />
		<tag k="ssr:gruppe" v="senkninger" />
		<tag k="ssr:hovedgruppe" v="terreng" />
		<tag k="ssr:stedsnr" v="38505" />
		<tag k="ssr:type" v="søkk" />
	</node>
	<node lat="59.79107500305661" lon="5.9554361170422085" id="-29314">
		<tag k="name" v="Kalvavika" />
		<tag k="natural" v="bay" />
		<tag k="ssr:date" v="2019-12-27" />
		<tag k="ssr:gruppe" v="kystkontur" />
		<tag k="ssr:hovedgruppe" v="sjø" />
		<tag k="ssr:stedsnr" v="38517" />
		<tag k="ssr:type" v="vikISjø" />
	</node>
	<node lat="59.801858335976455" lon="5.995094447768261" id="-29315">
		<tag k="name" v="Liarstemma" />
		<tag k="ssr:date" v="2019-12-27" />
		<tag k="ssr:gruppe" v="stilleståendeVann" />
		<tag k="ssr:hovedgruppe" v="ferskvann" />
		<tag k="ssr:stedsnr" v="38520" />
		<tag k="ssr:type" v="dam" />
		<tag k="waterway" v="dam" />
	</node>
	<node lat="59.76157222637381" lon="6.0017027818586" id="-29316">
		<tag k="name" v="Tjørnahaugen" />
		<tag k="natural" v="hill" />
		<tag k="place" v="locality" />
		<tag k="ssr:date" v="2019-12-27" />
		<tag k="ssr:gruppe" v="høyder" />
		<tag k="ssr:hovedgruppe" v="terreng" />
		<tag k="ssr:stedsnr" v="38531" />
		<tag k="ssr:type" v="haug" />
	</node>
	<node lat="59.94927777511729" lon="5.842119442894472" id="-29317">
		<tag k="name" v="Vågareset" />
		<tag k="natural" v="ridge" />
		<tag k="place" v="locality" />
		<tag k="ssr:date" v="2019-12-27" />
		<tag k="ssr:gruppe" v="høyder" />
		<tag k="ssr:hovedgruppe" v="terreng" />
		<tag k="ssr:stedsnr" v="38541" />
		<tag k="ssr:type" v="rygg" />
	</node>
	<node lat="60.14298055230401" lon="6.237961111313518" id="-29318">
		<tag k="name" v="Elvahaugen" />
		<tag k="natural" v="hill" />
		<tag k="place" v="locality" />
		<tag k="ssr:date" v="2019-12-27" />
		<tag k="ssr:gruppe" v="høyder" />
		<tag k="ssr:hovedgruppe" v="terreng" />
		<tag k="ssr:stedsnr" v="38403" />
		<tag k="ssr:type" v="haug" />
	</node>
	<node lat="60.087369440647755" lon="6.167647228010545" id="-29319">
		<tag k="name" v="Dyrlia" />
		<tag k="natural" v="slope" />
		<tag k="place" v="locality" />
		<tag k="ssr:date" v="2019-12-27" />
		<tag k="ssr:gruppe" v="skråninger" />
		<tag k="ssr:hovedgruppe" v="terreng" />
		<tag k="ssr:stedsnr" v="38408" />
		<tag k="ssr:type" v="li" />
	</node>
	<node lat="60.07966944021745" lon="6.279436112935014" id="-29320">
		<tag k="name" v="Furehaugen" />
		<tag k="natural" v="hill" />
		<tag k="place" v="locality" />
		<tag k="ssr:date" v="2019-12-27" />
		<tag k="ssr:gruppe" v="høyder" />
		<tag k="ssr:hovedgruppe" v="terreng" />
		<tag k="ssr:stedsnr" v="38410" />
		<tag k="ssr:type" v="haug" />
	</node>
	<node lat="60.09860277341115" lon="6.207499991798657" id="-29321">
		<tag k="name" v="Geitatunga" />
		<tag k="natural" v="ridge" />
		<tag k="place" v="locality" />
		<tag k="ssr:date" v="2019-12-27" />
		<tag k="ssr:gruppe" v="høyder" />
		<tag k="ssr:hovedgruppe" v="terreng" />
		<tag k="ssr:stedsnr" v="38418" />
		<tag k="ssr:type" v="rygg" />
	</node>
	<node lat="60.103202777523755" lon="6.2008749967555135" id="-29322">
		<tag k="name" v="Tveitnesvika" />
		<tag k="natural" v="bay" />
		<tag k="ssr:date" v="2019-12-27" />
		<tag k="ssr:gruppe" v="kystkontur" />
		<tag k="ssr:hovedgruppe" v="sjø" />
		<tag k="ssr:stedsnr" v="38423" />
		<tag k="ssr:type" v="vikISjø" />
	</node>
	<node lat="59.83442222624977" lon="6.023022218521012" id="-29323">
		<tag k="name" v="Dyrshaug" />
		<tag k="natural" v="hill" />
		<tag k="place" v="locality" />
		<tag k="ssr:date" v="2019-12-27" />
		<tag k="ssr:gruppe" v="høyder" />
		<tag k="ssr:hovedgruppe" v="terreng" />
		<tag k="ssr:stedsnr" v="38606" />
		<tag k="ssr:type" v="haug" />
	</node>
	<node lat="59.91079999873254" lon="5.938341675055492" id="-29324">
		<tag k="name" v="Midtselet" />
		<tag k="place" v="locality" />
		<tag k="ssr:date" v="2019-12-27" />
		<tag k="ssr:gruppe" v="terrengdetaljer" />
		<tag k="ssr:hovedgruppe" v="terreng" />
		<tag k="ssr:stedsnr" v="38621" />
		<tag k="ssr:type" v="annenTerrengdetalj" />
	</node>
	<node lat="60.03664444821462" lon="5.728733330695387" id="-29325">
		<tag k="name" v="Trolladalshaugen" />
		<tag k="natural" v="hill" />
		<tag k="place" v="locality" />
		<tag k="ssr:date" v="2019-12-27" />
		<tag k="ssr:gruppe" v="høyder" />
		<tag k="ssr:hovedgruppe" v="terreng" />
		<tag k="ssr:stedsnr" v="38717" />
		<tag k="ssr:type" v="haug" />
	</node>
	<node lat="60.03736110867809" lon="6.106608328480664" id="-29326">
		<tag k="name" v="Storabrotet" />
		<tag k="natural" v="hill" />
		<tag k="place" v="locality" />
		<tag k="ssr:date" v="2019-12-27" />
		<tag k="ssr:gruppe" v="høyder" />
		<tag k="ssr:hovedgruppe" v="terreng" />
		<tag k="ssr:stedsnr" v="38771" />
		<tag k="ssr:type" v="berg" />
	</node>
	<node lat="60.04553055118452" lon="6.143647213858349" id="-29327">
		<tag k="name" v="Bytten" />
		<tag k="place" v="locality" />
		<tag k="ssr:date" v="2019-12-27" />
		<tag k="ssr:gruppe" v="terrengdetaljer" />
		<tag k="ssr:hovedgruppe" v="terreng" />
		<tag k="ssr:stedsnr" v="38781" />
		<tag k="ssr:type" v="annenTerrengdetalj" />
	</node>
	<node lat="60.135411114682825" lon="5.958169451273579" id="-29328">
		<tag k="name" v="Stongaskogen" />
		<tag k="place" v="locality" />
		<tag k="ssr:date" v="2019-12-27" />
		<tag k="ssr:gruppe" v="vegetasjon" />
		<tag k="ssr:hovedgruppe" v="markslag" />
		<tag k="ssr:stedsnr" v="38906" />
		<tag k="ssr:type" v="skog" />
	</node>
	<node lat="60.08955833767875" lon="5.967536112635755" id="-29329">
		<tag k="name" v="Langskipsnes" />
		<tag k="natural" v="cape" />
		<tag k="ssr:date" v="2019-12-27" />
		<tag k="ssr:gruppe" v="kystkontur" />
		<tag k="ssr:hovedgruppe" v="sjø" />
		<tag k="ssr:stedsnr" v="38916" />
		<tag k="ssr:type" v="nesISjø" />
	</node>
	<node lat="60.0781138859022" lon="5.967613891969513" id="-29330">
		<tag k="name" v="Pumpevik" />
		<tag k="natural" v="bay" />
		<tag k="ssr:date" v="2019-12-27" />
		<tag k="ssr:gruppe" v="kystkontur" />
		<tag k="ssr:hovedgruppe" v="sjø" />
		<tag k="ssr:stedsnr" v="38922" />
		<tag k="ssr:type" v="vikISjø" />
	</node>
	<node lat="60.08543889016275" lon="5.919780562508843" id="-29331">
		<tag k="name" v="Torevika" />
		<tag k="natural" v="bay" />
		<tag k="ssr:date" v="2019-12-27" />
		<tag k="ssr:gruppe" v="kystkontur" />
		<tag k="ssr:hovedgruppe" v="sjø" />
		<tag k="ssr:stedsnr" v="38802" />
		<tag k="ssr:type" v="vikISjø" />
	</node>
	<node lat="60.0734277757312" lon="5.886908328710836" id="-29332">
		<tag k="name" v="Klypet" />
		<tag k="natural" v="valley" />
		<tag k="place" v="locality" />
		<tag k="ssr:date" v="2019-12-27" />
		<tag k="ssr:gruppe" v="senkninger" />
		<tag k="ssr:hovedgruppe" v="terreng" />
		<tag k="ssr:stedsnr" v="38812" />
		<tag k="ssr:type" v="skar" />
	</node>
	<node lat="60.069944448140284" lon="5.86598334092892" id="-29333">
		<tag k="fixme" v="consider natural=peak for the most distinct mountains in the district" />
		<tag k="name" v="Nordåsen" />
		<tag k="natural" v="hill" />
		<tag k="place" v="locality" />
		<tag k="ssr:date" v="2019-12-27" />
		<tag k="ssr:gruppe" v="høyder" />
		<tag k="ssr:hovedgruppe" v="terreng" />
		<tag k="ssr:stedsnr" v="38825" />
		<tag k="ssr:type" v="ås" />
	</node>
	<node lat="59.988161109188965" lon="5.784080553383153" id="-29334">
		<tag k="name" v="Mjånes" />
		<tag k="natural" v="cape" />
		<tag k="ssr:date" v="2019-12-27" />
		<tag k="ssr:gruppe" v="kystkontur" />
		<tag k="ssr:hovedgruppe" v="sjø" />
		<tag k="ssr:stedsnr" v="38829" />
		<tag k="ssr:type" v="nesISjø" />
	</node>
	<node lat="60.01000277492778" lon="5.866041667514459" id="-29335">
		<tag k="highway" v="path" />
		<tag k="name" v="Grindastigen" />
		<tag k="ssr:date" v="2019-12-27" />
		<tag k="ssr:gruppe" v="veg" />
		<tag k="ssr:hovedgruppe" v="infrastruktur" />
		<tag k="ssr:stedsnr" v="38868" />
		<tag k="ssr:type" v="sti" />
	</node>
	<node lat="59.97818611510173" lon="5.928799992074962" id="-29336">
		<tag k="name" v="Midgardsdalen" />
		<tag k="natural" v="valley" />
		<tag k="place" v="locality" />
		<tag k="ssr:date" v="2019-12-27" />
		<tag k="ssr:gruppe" v="senkninger" />
		<tag k="ssr:hovedgruppe" v="terreng" />
		<tag k="ssr:stedsnr" v="38878" />
		<tag k="ssr:type" v="dal" />
	</node>
	<node lat="59.90681944793117" lon="5.7712333318123035" id="-29337">
		<tag k="name" v="Ilagemyr" />
		<tag k="natural" v="wetland" />
		<tag k="ssr:date" v="2019-12-27" />
		<tag k="ssr:gruppe" v="våtmark" />
		<tag k="ssr:hovedgruppe" v="markslag" />
		<tag k="ssr:stedsnr" v="38962" />
		<tag k="ssr:type" v="myr" />
	</node>
	<node lat="60.0895027773541" lon="6.294450001073385" id="-29338">
		<tag k="name" v="Sauabakkreset" />
		<tag k="natural" v="ridge" />
		<tag k="place" v="locality" />
		<tag k="ssr:date" v="2019-12-27" />
		<tag k="ssr:gruppe" v="høyder" />
		<tag k="ssr:hovedgruppe" v="terreng" />
		<tag k="ssr:stedsnr" v="39265" />
		<tag k="ssr:type" v="rygg" />
	</node>
	<node lat="59.989388888663065" lon="5.842830549303884" id="-29339">
		<tag k="name" v="Nausthaugen" />
		<tag k="natural" v="hill" />
		<tag k="place" v="locality" />
		<tag k="ssr:date" v="2019-12-27" />
		<tag k="ssr:gruppe" v="høyder" />
		<tag k="ssr:hovedgruppe" v="terreng" />
		<tag k="ssr:stedsnr" v="39807" />
		<tag k="ssr:type" v="haug" />
	</node>
	<node lat="59.99679444057181" lon="5.8322333273744595" id="-29340">
		<tag k="fixme" v="consider boundary=protected_area and relevant protect_class if not nature reserve" />
		<tag k="leisure" v="nature_reserve" />
		<tag k="name" v="Eggja naturreservat" />
		<tag k="ssr:date" v="2019-12-27" />
		<tag k="ssr:gruppe" v="verne-OgBruksområder" />
		<tag k="ssr:hovedgruppe" v="offentligAdministrasjon" />
		<tag k="ssr:stedsnr" v="39809" />
		<tag k="ssr:type" v="verneområde" />
	</node>
	<node lat="59.78528611421562" lon="6.1131194496194095" id="-29341">
		<tag k="name" v="Nesjavik" />
		<tag k="natural" v="bay" />
		<tag k="ssr:date" v="2019-12-27" />
		<tag k="ssr:gruppe" v="kystkontur" />
		<tag k="ssr:hovedgruppe" v="sjø" />
		<tag k="ssr:stedsnr" v="44891" />
		<tag k="ssr:type" v="vikISjø" />
	</node>
	<node lat="59.79556666623846" lon="5.599619442409992" id="-29342">
		<tag k="name" v="Nordre Hillegrunnen" />
		<tag k="natural" v="shoal" />
		<tag k="place" v="locality" />
		<tag k="ssr:date" v="2019-12-27" />
		<tag k="ssr:gruppe" v="grunnerISjø" />
		<tag k="ssr:hovedgruppe" v="sjø" />
		<tag k="ssr:stedsnr" v="44725" />
		<tag k="ssr:type" v="grunneISjø" />
	</node>
	<node lat="60.11751944418357" lon="6.268099997810122" id="-29343">
		<tag k="bridge" v="yes" />
		<tag k="layer" v="1" />
		<tag k="name" v="Sundal" />
		<tag k="ssr:date" v="2019-12-27" />
		<tag k="ssr:gruppe" v="samferdselsanlegg" />
		<tag k="ssr:hovedgruppe" v="infrastruktur" />
		<tag k="ssr:stedsnr" v="46901" />
		<tag k="ssr:type" v="bru" />
	</node>
	<node lat="59.84284721939738" lon="6.038800003153048" id="-29344">
		<tag k="fixme" v="consider natural=peak for the most distinct mountains in the district" />
		<tag k="name" v="Bergfjellet" />
		<tag k="natural" v="hill" />
		<tag k="place" v="locality" />
		<tag k="ssr:date" v="2019-12-27" />
		<tag k="ssr:gruppe" v="høyder" />
		<tag k="ssr:hovedgruppe" v="terreng" />
		<tag k="ssr:stedsnr" v="239642" />
		<tag k="ssr:type" v="fjell" />
	</node>
	<node lat="59.88865555642284" lon="6.086319438935439" id="-29345">
		<tag k="fixme" v="consider natural=peak for the most distinct mountains in the district" />
		<tag k="name" v="Jamtelandsegga" />
		<tag k="natural" v="hill" />
		<tag k="place" v="locality" />
		<tag k="ssr:date" v="2019-12-27" />
		<tag k="ssr:gruppe" v="høyder" />
		<tag k="ssr:hovedgruppe" v="terreng" />
		<tag k="ssr:stedsnr" v="64101" />
		<tag k="ssr:type" v="ås" />
	</node>
	<node lat="59.72763333103089" lon="5.6796277803145925" id="-29346">
		<tag k="name" v="Borgundøya" />
		<tag k="place" v="island" />
		<tag k="ssr:date" v="2019-12-27" />
		<tag k="ssr:gruppe" v="kystkontur" />
		<tag k="ssr:hovedgruppe" v="sjø" />
		<tag k="ssr:stedsnr" v="64105" />
		<tag k="ssr:type" v="øyISjø" />
	</node>
	<node lat="59.87793610043639" lon="5.90134640203292" id="-29348">
		<tag k="name" v="Vestredalsvatnet" />
		<tag k="natural" v="water" />
		<tag k="ssr:date" v="2019-12-27" />
		<tag k="ssr:gruppe" v="stilleståendeVann" />
		<tag k="ssr:hovedgruppe" v="ferskvann" />
		<tag k="ssr:stedsnr" v="64112" />
		<tag k="ssr:type" v="tjern" />
	</node>
	<node lat="59.87563611485208" lon="5.9935861190376745" id="-29349">
		<tag k="alt_name" v="Søre Gråfjellsenden" />
		<tag k="fixme" v="consider natural=peak for the most distinct mountains in the district" />
		<tag k="name" v="Gråfjellsenden" />
		<tag k="natural" v="hill" />
		<tag k="place" v="locality" />
		<tag k="ssr:date" v="2019-12-27" />
		<tag k="ssr:gruppe" v="høyder" />
		<tag k="ssr:hovedgruppe" v="terreng" />
		<tag k="ssr:stedsnr" v="64120" />
		<tag k="ssr:type" v="ås" />
	</node>
	<node lat="59.85524999716162" lon="6.058749998444644" id="-29350">
		<tag k="fixme" v="consider natural=peak for the most distinct mountains in the district" />
		<tag k="name" v="Lauvåsen" />
		<tag k="natural" v="hill" />
		<tag k="place" v="locality" />
		<tag k="ssr:date" v="2019-12-27" />
		<tag k="ssr:gruppe" v="høyder" />
		<tag k="ssr:hovedgruppe" v="terreng" />
		<tag k="ssr:stedsnr" v="64146" />
		<tag k="ssr:type" v="ås" />
	</node>
	<node lat="59.857763535346464" lon="6.088717440625285" id="-29351">
		<tag k="name" v="Grønlitjørn" />
		<tag k="natural" v="water" />
		<tag k="ssr:date" v="2019-12-27" />
		<tag k="ssr:gruppe" v="stilleståendeVann" />
		<tag k="ssr:hovedgruppe" v="ferskvann" />
		<tag k="ssr:stedsnr" v="64150" />
		<tag k="ssr:type" v="tjern" />
	</node>
	<node lat="59.85088611137441" lon="6.017361104312167" id="-29352">
		<tag k="name" v="Fossabekken" />
		<tag k="ssr:date" v="2019-12-27" />
		<tag k="ssr:gruppe" v="rennendeVann" />
		<tag k="ssr:hovedgruppe" v="ferskvann" />
		<tag k="ssr:stedsnr" v="64155" />
		<tag k="ssr:type" v="bekk" />
		<tag k="waterway" v="stream" />
	</node>
	<node lat="59.95258889116249" lon="5.976744451681984" id="-29353">
		<tag k="fixme" v="consider place=suburb, village or hamlet" />
		<tag k="name" v="Dimmelsvik" />
		<tag k="place" v="quarter" />
		<tag k="ssr:date" v="2019-12-27" />
		<tag k="ssr:gruppe" v="bebyggelsesområder" />
		<tag k="ssr:hovedgruppe" v="bebyggelse" />
		<tag k="ssr:stedsnr" v="64013" />
		<tag k="ssr:type" v="tettbebyggelse" />
	</node>
	<node lat="59.94462777418798" lon="5.894600008755031" id="-29354">
		<tag k="alt_name" v="Rød, in" />
		<tag k="name" v="Indre Rød" />
		<tag k="place" v="farm" />
		<tag k="ssr:date" v="2019-12-27" />
		<tag k="ssr:gruppe" v="gardsbebyggelse" />
		<tag k="ssr:hovedgruppe" v="bebyggelse" />
		<tag k="ssr:stedsnr" v="64023" />
		<tag k="ssr:type" v="bruk" />
	</node>
	<node lat="59.71775555397242" lon="5.809422220041793" id="-29355">
		<tag k="alt_name" v="Skåneviksfjorden" />
		<tag k="bay" v="fjord" />
		<tag k="name" v="Skånevikfjorden" />
		<tag k="natural" v="bay" />
		<tag k="ssr:date" v="2019-12-27" />
		<tag k="ssr:gruppe" v="farvann" />
		<tag k="ssr:hovedgruppe" v="sjø" />
		<tag k="ssr:stedsnr" v="64058" />
		<tag k="ssr:type" v="fjord" />
	</node>
	<node lat="59.90075000181219" lon="5.941502785290913" id="-29356">
		<tag k="alt_name" v="Musland, nedre;Musland" />
		<tag k="name" v="Nedre Musland" />
		<tag k="place" v="farm" />
		<tag k="ssr:date" v="2019-12-27" />
		<tag k="ssr:gruppe" v="gardsbebyggelse" />
		<tag k="ssr:hovedgruppe" v="bebyggelse" />
		<tag k="ssr:stedsnr" v="64067" />
		<tag k="ssr:type" v="bruk" />
	</node>
	<node lat="59.8963499985391" lon="5.875605563366552" id="-29357">
		<tag k="fixme" v="consider natural=peak for the most distinct mountains in the district" />
		<tag k="name" v="Englafjell" />
		<tag k="natural" v="hill" />
		<tag k="place" v="locality" />
		<tag k="ssr:date" v="2019-12-27" />
		<tag k="ssr:gruppe" v="høyder" />
		<tag k="ssr:hovedgruppe" v="terreng" />
		<tag k="ssr:stedsnr" v="64075" />
		<tag k="ssr:type" v="fjell" />
	</node>
	<node lat="59.9130666677069" lon="6.087380559566502" id="-29358">
		<tag k="fixme" v="consider natural=peak for the most distinct mountains in the district" />
		<tag k="name" v="Brattagrød" />
		<tag k="natural" v="hill" />
		<tag k="place" v="locality" />
		<tag k="ssr:date" v="2019-12-27" />
		<tag k="ssr:gruppe" v="høyder" />
		<tag k="ssr:hovedgruppe" v="terreng" />
		<tag k="ssr:stedsnr" v="64079" />
		<tag k="ssr:type" v="ås" />
	</node>
	<node lat="59.79692733033127" lon="5.888843427060629" id="-29359">
		<tag k="name" v="Krokavatnet" />
		<tag k="natural" v="water" />
		<tag k="ssr:date" v="2019-12-27" />
		<tag k="ssr:gruppe" v="stilleståendeVann" />
		<tag k="ssr:hovedgruppe" v="ferskvann" />
		<tag k="ssr:stedsnr" v="64260" />
		<tag k="ssr:type" v="tjern" />
	</node>
	<node lat="59.7971361148162" lon="5.911630548125777" id="-29360">
		<tag k="name" v="Tveit" />
		<tag k="place" v="farm" />
		<tag k="ssr:date" v="2019-12-27" />
		<tag k="ssr:gruppe" v="gardsbebyggelse" />
		<tag k="ssr:hovedgruppe" v="bebyggelse" />
		<tag k="ssr:stedsnr" v="64262" />
		<tag k="ssr:type" v="bruk" />
	</node>
	<node lat="59.89409722139637" lon="5.785466659356283" id="-29361">
		<tag k="fixme" v="multiple name tags, choose one and add the other to alt_name" />
		<tag k="name" v="Gråskallen;Slottet" />
		<tag k="natural" v="hill" />
		<tag k="place" v="locality" />
		<tag k="ssr:date" v="2019-12-27" />
		<tag k="ssr:gruppe" v="høyder" />
		<tag k="ssr:hovedgruppe" v="terreng" />
		<tag k="ssr:stedsnr" v="64264" />
		<tag k="ssr:type" v="haug" />
	</node>
	<node lat="59.9699111070055" lon="6.142286108894225" id="-29362">
		<tag k="fixme" v="consider natural=peak for the most distinct mountains in the district" />
		<tag k="name" v="Rusta" />
		<tag k="natural" v="hill" />
		<tag k="place" v="locality" />
		<tag k="ssr:date" v="2019-12-27" />
		<tag k="ssr:gruppe" v="høyder" />
		<tag k="ssr:hovedgruppe" v="terreng" />
		<tag k="ssr:stedsnr" v="64468" />
		<tag k="ssr:type" v="ås" />
	</node>
	<node lat="59.913824998519615" lon="5.776041672383465" id="-29363">
		<tag k="name" v="Torbergsvika" />
		<tag k="natural" v="bay" />
		<tag k="ssr:date" v="2019-12-27" />
		<tag k="ssr:gruppe" v="kystkontur" />
		<tag k="ssr:hovedgruppe" v="sjø" />
		<tag k="ssr:stedsnr" v="64714" />
		<tag k="ssr:type" v="vikISjø" />
	</node>
	<node lat="60.06116666294391" lon="6.310666668618979" id="-29364">
		<tag k="name" v="Bondhusbrea" />
		<tag k="natural" v="glacier" />
		<tag k="ssr:date" v="2019-12-27" />
		<tag k="ssr:gruppe" v="isOgPermafrost" />
		<tag k="ssr:hovedgruppe" v="markslag" />
		<tag k="ssr:stedsnr" v="65069" />
		<tag k="ssr:type" v="isbre" />
	</node>
	<node lat="60.13844722017715" lon="6.258802786872337" id="-29365">
		<tag k="alt_name" v="Blikneset" />
		<tag k="name" v="Blik" />
		<tag k="natural" v="cape" />
		<tag k="ssr:date" v="2019-12-27" />
		<tag k="ssr:gruppe" v="kystkontur" />
		<tag k="ssr:hovedgruppe" v="sjø" />
		<tag k="ssr:stedsnr" v="65203" />
		<tag k="ssr:type" v="nesISjø" />
	</node>
	<node lat="59.82933888965731" lon="6.037375004168345" id="-29366">
		<tag k="name" v="Fagerdalen" />
		<tag k="natural" v="valley" />
		<tag k="place" v="locality" />
		<tag k="ssr:date" v="2019-12-27" />
		<tag k="ssr:gruppe" v="senkninger" />
		<tag k="ssr:hovedgruppe" v="terreng" />
		<tag k="ssr:stedsnr" v="65210" />
		<tag k="ssr:type" v="dal" />
	</node>
	<node lat="60.15175000215051" lon="6.3205305527930715" id="-29367">
		<tag k="fixme" v="consider natural=peak for the most distinct mountains in the district" />
		<tag k="name" v="Bjørnhammar" />
		<tag k="natural" v="hill" />
		<tag k="place" v="locality" />
		<tag k="ssr:date" v="2019-12-27" />
		<tag k="ssr:gruppe" v="høyder" />
		<tag k="ssr:hovedgruppe" v="terreng" />
		<tag k="ssr:stedsnr" v="65216" />
		<tag k="ssr:type" v="ås" />
	</node>
	<node lat="60.16395555237841" lon="6.323683333905441" id="-29368">
		<tag k="name" v="Goddalselva" />
		<tag k="ssr:date" v="2019-12-27" />
		<tag k="ssr:gruppe" v="rennendeVann" />
		<tag k="ssr:hovedgruppe" v="ferskvann" />
		<tag k="ssr:stedsnr" v="65219" />
		<tag k="ssr:type" v="bekk" />
		<tag k="waterway" v="stream" />
	</node>
	<node lat="60.16705000278349" lon="6.34382499378436" id="-29369">
		<tag k="name" v="Botnagilet" />
		<tag k="natural" v="valley" />
		<tag k="place" v="locality" />
		<tag k="ssr:date" v="2019-12-27" />
		<tag k="ssr:gruppe" v="senkninger" />
		<tag k="ssr:hovedgruppe" v="terreng" />
		<tag k="ssr:stedsnr" v="65220" />
		<tag k="ssr:type" v="skar" />
	</node>
	<node lat="59.83347500290007" lon="5.9220083396969825" id="-29370">
		<tag k="name" v="Guriflota" />
		<tag k="place" v="locality" />
		<tag k="ssr:date" v="2019-12-27" />
		<tag k="ssr:gruppe" v="flater" />
		<tag k="ssr:hovedgruppe" v="terreng" />
		<tag k="ssr:stedsnr" v="65221" />
		<tag k="ssr:type" v="slette" />
	</node>
	<node lat="60.16304859032334" lon="6.237994772613205" id="-29371">
		<tag k="name" v="Norddalsvatnet" />
		<tag k="natural" v="water" />
		<tag k="ssr:date" v="2019-12-27" />
		<tag k="ssr:gruppe" v="stilleståendeVann" />
		<tag k="ssr:hovedgruppe" v="ferskvann" />
		<tag k="ssr:stedsnr" v="65223" />
		<tag k="ssr:type" v="tjern" />
	</node>
	<node lat="60.15803888872086" lon="6.306252770158936" id="-29372">
		<tag k="name" v="Øyreselva" />
		<tag k="old_name" v="Øyrelvi" />
		<tag k="ssr:date" v="2019-12-27" />
		<tag k="ssr:gruppe" v="rennendeVann" />
		<tag k="ssr:hovedgruppe" v="ferskvann" />
		<tag k="ssr:stedsnr" v="65226" />
		<tag k="ssr:type" v="bekk" />
		<tag k="waterway" v="stream" />
	</node>
	<node lat="60.098466669976645" lon="6.261944443235167" id="-29373">
		<tag k="alt_name" v="Langagjelskroa;Langagjelet" />
		<tag k="name" v="Langagilet" />
		<tag k="natural" v="valley" />
		<tag k="place" v="locality" />
		<tag k="ssr:date" v="2019-12-27" />
		<tag k="ssr:gruppe" v="senkninger" />
		<tag k="ssr:hovedgruppe" v="terreng" />
		<tag k="ssr:stedsnr" v="65116" />
		<tag k="ssr:type" v="skar" />
	</node>
	<node lat="60.09442044448533" lon="6.260769685153709" id="-29374">
		<tag k="name" v="Langagilsvatnet" />
		<tag k="natural" v="water" />
		<tag k="ssr:date" v="2019-12-27" />
		<tag k="ssr:gruppe" v="stilleståendeVann" />
		<tag k="ssr:hovedgruppe" v="ferskvann" />
		<tag k="ssr:stedsnr" v="65123" />
		<tag k="ssr:type" v="tjern" />
	</node>
	<node lat="59.880774999310574" lon="6.174238894639898" id="-29375">
		<tag k="name" v="Stutabotn" />
		<tag k="natural" v="valley" />
		<tag k="place" v="locality" />
		<tag k="ssr:date" v="2019-12-27" />
		<tag k="ssr:gruppe" v="senkninger" />
		<tag k="ssr:hovedgruppe" v="terreng" />
		<tag k="ssr:stedsnr" v="65125" />
		<tag k="ssr:type" v="botn" />
	</node>
	<node lat="59.849438892780654" lon="6.072355549057899" id="-29376">
		<tag k="fixme" v="consider natural=peak for the most distinct mountains in the district" />
		<tag k="name" v="Skorafjellsenden" />
		<tag k="natural" v="hill" />
		<tag k="place" v="locality" />
		<tag k="ssr:date" v="2019-12-27" />
		<tag k="ssr:gruppe" v="høyder" />
		<tag k="ssr:hovedgruppe" v="terreng" />
		<tag k="ssr:stedsnr" v="65179" />
		<tag k="ssr:type" v="ås" />
	</node>
	<node lat="59.84291347783658" lon="5.88016183283753" id="-29377">
		<tag k="name" v="Krokavatnet" />
		<tag k="natural" v="water" />
		<tag k="ssr:date" v="2019-12-27" />
		<tag k="ssr:gruppe" v="stilleståendeVann" />
		<tag k="ssr:hovedgruppe" v="ferskvann" />
		<tag k="ssr:stedsnr" v="65182" />
		<tag k="ssr:type" v="tjern" />
	</node>
	<node lat="60.131841668605496" lon="6.323427784094704" id="-29378">
		<tag k="fixme" v="consider place=hamlet" />
		<tag k="name" v="Øvrehus" />
		<tag k="place" v="farm" />
		<tag k="ssr:date" v="2019-12-27" />
		<tag k="ssr:gruppe" v="gardsbebyggelse" />
		<tag k="ssr:hovedgruppe" v="bebyggelse" />
		<tag k="ssr:stedsnr" v="65183" />
		<tag k="ssr:type" v="gard" />
	</node>
	<node lat="60.139872853541455" lon="6.244307754064031" id="-29379">
		<tag k="fixme" v="consider place=hamlet" />
		<tag k="name" v="Bakka" />
		<tag k="place" v="farm" />
		<tag k="ssr:date" v="2019-12-27" />
		<tag k="ssr:gruppe" v="gardsbebyggelse" />
		<tag k="ssr:hovedgruppe" v="bebyggelse" />
		<tag k="ssr:stedsnr" v="65200" />
		<tag k="ssr:type" v="gard" />
	</node>
	<node lat="60.155283336496574" lon="6.216683336814578" id="-29380">
		<tag k="historic" v="shieling" />
		<tag k="name" v="Goddalen" />
		<tag k="place" v="isolated_dwelling" />
		<tag k="ssr:date" v="2019-12-27" />
		<tag k="ssr:gruppe" v="gardsbebyggelse" />
		<tag k="ssr:hovedgruppe" v="bebyggelse" />
		<tag k="ssr:stedsnr" v="65605" />
		<tag k="ssr:type" v="seterStøl" />
	</node>
	<node lat="60.035328985509274" lon="5.786830085020839" id="-29381">
		<tag k="name" v="Brothølen" />
		<tag k="natural" v="water" />
		<tag k="ssr:date" v="2020-06-04" />
		<tag k="ssr:gruppe" v="stilleståendeVann" />
		<tag k="ssr:hovedgruppe" v="ferskvann" />
		<tag k="ssr:stedsnr" v="65619" />
		<tag k="ssr:type" v="vann" />
		<tag k="water" v="lake" />
	</node>
	<node lat="60.15182499699164" lon="6.042555560128296" id="-29382">
		<tag k="name" v="Volelva" />
		<tag k="ssr:date" v="2019-12-27" />
		<tag k="ssr:gruppe" v="rennendeVann" />
		<tag k="ssr:hovedgruppe" v="ferskvann" />
		<tag k="ssr:stedsnr" v="65598" />
		<tag k="ssr:type" v="bekk" />
		<tag k="waterway" v="stream" />
	</node>
	<node lat="59.923363892898784" lon="5.787574998746194" id="-29383">
		<tag k="name" v="Herøysundet" />
		<tag k="natural" v="strait" />
		<tag k="ssr:date" v="2019-12-27" />
		<tag k="ssr:gruppe" v="kystkontur" />
		<tag k="ssr:hovedgruppe" v="sjø" />
		<tag k="ssr:stedsnr" v="65752" />
		<tag k="ssr:type" v="sundISjø" />
	</node>
	<node lat="60.02775665797706" lon="6.0086121541495485" id="-29384">
		<tag k="fixme" v="consider place=hamlet" />
		<tag k="name" v="Helle" />
		<tag k="place" v="farm" />
		<tag k="ssr:date" v="2019-12-27" />
		<tag k="ssr:gruppe" v="gardsbebyggelse" />
		<tag k="ssr:hovedgruppe" v="bebyggelse" />
		<tag k="ssr:stedsnr" v="65766" />
		<tag k="ssr:type" v="gard" />
	</node>
	<node lat="60.07718333760133" lon="5.97898889182658" id="-29385">
		<tag k="name" v="Skjelnesodden" />
		<tag k="natural" v="cape" />
		<tag k="ssr:date" v="2019-12-27" />
		<tag k="ssr:gruppe" v="kystkontur" />
		<tag k="ssr:hovedgruppe" v="sjø" />
		<tag k="ssr:stedsnr" v="65957" />
		<tag k="ssr:type" v="nesISjø" />
	</node>
	<node lat="60.07425555546282" lon="6.177436114792797" id="-29386">
		<tag k="fixme" v="consider natural=peak for the most distinct mountains in the district" />
		<tag k="name" v="Dyrskardheia" />
		<tag k="natural" v="hill" />
		<tag k="place" v="locality" />
		<tag k="ssr:date" v="2019-12-27" />
		<tag k="ssr:gruppe" v="høyder" />
		<tag k="ssr:hovedgruppe" v="terreng" />
		<tag k="ssr:stedsnr" v="65964" />
		<tag k="ssr:type" v="ås" />
	</node>
	<node lat="60.072077777544784" lon="6.121455562769488" id="-29387">
		<tag k="name" v="Æneselva" />
		<tag k="ssr:date" v="2019-12-27" />
		<tag k="ssr:gruppe" v="rennendeVann" />
		<tag k="ssr:hovedgruppe" v="ferskvann" />
		<tag k="ssr:stedsnr" v="65966" />
		<tag k="ssr:type" v="elv" />
		<tag k="waterway" v="river" />
	</node>
	<node lat="60.059180554874104" lon="6.161599992558372" id="-29388">
		<tag k="fixme" v="consider natural=peak for the most distinct mountains in the district" />
		<tag k="name" v="Gygrastolen" />
		<tag k="natural" v="hill" />
		<tag k="place" v="locality" />
		<tag k="ssr:date" v="2019-12-27" />
		<tag k="ssr:gruppe" v="høyder" />
		<tag k="ssr:hovedgruppe" v="terreng" />
		<tag k="ssr:stedsnr" v="65968" />
		<tag k="ssr:type" v="fjell" />
	</node>
	<node lat="60.02083888469731" lon="5.74072778288558" id="-29389">
		<tag k="fixme" v="consider natural=peak for the most distinct mountains in the district" />
		<tag k="name" v="Lauvåsen" />
		<tag k="natural" v="hill" />
		<tag k="place" v="locality" />
		<tag k="ssr:date" v="2019-12-27" />
		<tag k="ssr:gruppe" v="høyder" />
		<tag k="ssr:hovedgruppe" v="terreng" />
		<tag k="ssr:stedsnr" v="66597" />
		<tag k="ssr:type" v="ås" />
	</node>
	<node lat="60.049350002223555" lon="6.094924999938928" id="-29390">
		<tag k="name" v="Rundehaugen" />
		<tag k="natural" v="hill" />
		<tag k="place" v="locality" />
		<tag k="ssr:date" v="2019-12-27" />
		<tag k="ssr:gruppe" v="høyder" />
		<tag k="ssr:hovedgruppe" v="terreng" />
		<tag k="ssr:stedsnr" v="66993" />
		<tag k="ssr:type" v="haug" />
	</node>
	<node lat="60.0492444428152" lon="6.132105561684648" id="-29391">
		<tag k="name" v="Hestabotnen" />
		<tag k="natural" v="valley" />
		<tag k="place" v="locality" />
		<tag k="ssr:date" v="2019-12-27" />
		<tag k="ssr:gruppe" v="senkninger" />
		<tag k="ssr:hovedgruppe" v="terreng" />
		<tag k="ssr:stedsnr" v="66994" />
		<tag k="ssr:type" v="botn" />
	</node>
	<node lat="60.13405068872891" lon="6.207046221480076" id="-29392">
		<tag k="name" v="Kilsdalsvatnet" />
		<tag k="natural" v="water" />
		<tag k="ssr:date" v="2019-12-27" />
		<tag k="ssr:gruppe" v="stilleståendeVann" />
		<tag k="ssr:hovedgruppe" v="ferskvann" />
		<tag k="ssr:stedsnr" v="66895" />
		<tag k="ssr:type" v="tjern" />
	</node>
	<node lat="59.95043888784866" lon="5.963008336491951" id="-29393">
		<tag k="name" v="Sandvikevika" />
		<tag k="natural" v="bay" />
		<tag k="ssr:date" v="2019-12-27" />
		<tag k="ssr:gruppe" v="kystkontur" />
		<tag k="ssr:hovedgruppe" v="sjø" />
		<tag k="ssr:stedsnr" v="85032" />
		<tag k="ssr:type" v="vikISjø" />
	</node>
	<node lat="59.71611388840398" lon="5.690733332166135" id="-29394">
		<tag k="name" v="Bøvika" />
		<tag k="natural" v="bay" />
		<tag k="ssr:date" v="2019-12-27" />
		<tag k="ssr:gruppe" v="kystkontur" />
		<tag k="ssr:hovedgruppe" v="sjø" />
		<tag k="ssr:stedsnr" v="246069" />
		<tag k="ssr:type" v="vikISjø" />
	</node>
	<node lat="59.70408222275016" lon="5.707215280944661" id="-29395">
		<tag k="alt_name" v="Bjellebøholmen" />
		<tag k="name" v="Bjøllebøholmen" />
		<tag k="place" v="islet" />
		<tag k="ssr:date" v="2021-07-08" />
		<tag k="ssr:gruppe" v="kystkontur" />
		<tag k="ssr:hovedgruppe" v="sjø" />
		<tag k="ssr:stedsnr" v="246076" />
		<tag k="ssr:type" v="holmeISjø" />
	</node>
	<node lat="59.9334527755198" lon="5.859225004364669" id="-29396">
		<tag k="name" v="Stølavika" />
		<tag k="natural" v="bay" />
		<tag k="ssr:date" v="2019-12-27" />
		<tag k="ssr:gruppe" v="kystkontur" />
		<tag k="ssr:hovedgruppe" v="sjø" />
		<tag k="ssr:stedsnr" v="246048" />
		<tag k="ssr:type" v="vikISjø" />
	</node>
	<node lat="59.765244448390355" lon="5.836708330954888" id="-29397">
		<tag k="alt_name" v="Djupaviki" />
		<tag k="name" v="Djupevika" />
		<tag k="place" v="farm" />
		<tag k="ssr:date" v="2019-12-27" />
		<tag k="ssr:gruppe" v="gardsbebyggelse" />
		<tag k="ssr:hovedgruppe" v="bebyggelse" />
		<tag k="ssr:stedsnr" v="246390" />
		<tag k="ssr:type" v="bruk" />
	</node>
	<node lat="59.9047888886813" lon="5.911736109464314" id="-29398">
		<tag k="name" v="Nosabekken" />
		<tag k="ssr:date" v="2019-12-27" />
		<tag k="ssr:gruppe" v="rennendeVann" />
		<tag k="ssr:hovedgruppe" v="ferskvann" />
		<tag k="ssr:stedsnr" v="246079" />
		<tag k="ssr:type" v="bekk" />
		<tag k="waterway" v="stream" />
	</node>
	<node lat="59.708388581811185" lon="5.714244111753651" id="-29399">
		<tag k="alt_name" v="Bjellebø" />
		<tag k="fixme" v="consider place=hamlet" />
		<tag k="name" v="Bjøllebø" />
		<tag k="place" v="farm" />
		<tag k="ssr:date" v="2019-12-27" />
		<tag k="ssr:gruppe" v="gardsbebyggelse" />
		<tag k="ssr:hovedgruppe" v="bebyggelse" />
		<tag k="ssr:stedsnr" v="246080" />
		<tag k="ssr:type" v="gard" />
	</node>
	<node lat="59.901849997972526" lon="5.975711102688003" id="-29400">
		<tag k="name" v="Vardahaugen" />
		<tag k="natural" v="hill" />
		<tag k="place" v="locality" />
		<tag k="ssr:date" v="2019-12-27" />
		<tag k="ssr:gruppe" v="høyder" />
		<tag k="ssr:hovedgruppe" v="terreng" />
		<tag k="ssr:stedsnr" v="246081" />
		<tag k="ssr:type" v="haug" />
	</node>
	<node lat="59.89628333174633" lon="6.110511113956109" id="-29401">
		<tag k="name" v="Grøningsdalsøyra" />
		<tag k="place" v="locality" />
		<tag k="ssr:date" v="2019-12-27" />
		<tag k="ssr:gruppe" v="flater" />
		<tag k="ssr:hovedgruppe" v="terreng" />
		<tag k="ssr:stedsnr" v="246098" />
		<tag k="ssr:type" v="slette" />
	</node>
	<node lat="59.891850001410575" lon="6.086344445833336" id="-29402">
		<tag k="name" v="Urdabotnvatnet" />
		<tag k="natural" v="water" />
		<tag k="ssr:date" v="2019-12-27" />
		<tag k="ssr:gruppe" v="stilleståendeVann" />
		<tag k="ssr:hovedgruppe" v="ferskvann" />
		<tag k="ssr:stedsnr" v="246099" />
		<tag k="ssr:type" v="vann" />
		<tag k="water" v="lake" />
	</node>
	<node lat="59.83094999581036" lon="5.875866669723488" id="-29403">
		<tag k="name" v="Ljosfoss" />
		<tag k="natural" v="waterfall" />
		<tag k="ssr:date" v="2019-12-27" />
		<tag k="ssr:gruppe" v="rennendeVann" />
		<tag k="ssr:hovedgruppe" v="ferskvann" />
		<tag k="ssr:stedsnr" v="246232" />
		<tag k="ssr:type" v="foss" />
	</node>
	<node lat="59.81807500306246" lon="6.09243889722325" id="-29404">
		<tag k="fixme" v="multiple name tags, choose one and add the other to alt_name" />
		<tag k="historic" v="shieling" />
		<tag k="name" v="Årtunsstølen;Gamlestølen" />
		<tag k="old_name" v="Årtunstølen" />
		<tag k="place" v="isolated_dwelling" />
		<tag k="ssr:date" v="2019-12-27" />
		<tag k="ssr:gruppe" v="gardsbebyggelse" />
		<tag k="ssr:hovedgruppe" v="bebyggelse" />
		<tag k="ssr:stedsnr" v="246235" />
		<tag k="ssr:type" v="seterStøl" />
	</node>
	<node lat="59.808786112205645" lon="6.049883337991851" id="-29405">
		<tag k="fixme" v="consider natural=peak for the most distinct mountains in the district" />
		<tag k="name" v="Veslafjellet" />
		<tag k="natural" v="hill" />
		<tag k="place" v="locality" />
		<tag k="ssr:date" v="2019-12-27" />
		<tag k="ssr:gruppe" v="høyder" />
		<tag k="ssr:hovedgruppe" v="terreng" />
		<tag k="ssr:stedsnr" v="246237" />
		<tag k="ssr:type" v="ås" />
	</node>
	<node lat="59.81333889346538" lon="6.008983336914119" id="-29406">
		<tag k="name" v="Øykjamyrhaugane" />
		<tag k="natural" v="hill" />
		<tag k="place" v="locality" />
		<tag k="ssr:date" v="2019-12-27" />
		<tag k="ssr:gruppe" v="høyder" />
		<tag k="ssr:hovedgruppe" v="terreng" />
		<tag k="ssr:stedsnr" v="246242" />
		<tag k="ssr:type" v="haug" />
	</node>
	<node lat="59.801238886430305" lon="5.939569436580193" id="-29407">
		<tag k="name" v="Svinalia" />
		<tag k="natural" v="slope" />
		<tag k="place" v="locality" />
		<tag k="ssr:date" v="2019-12-27" />
		<tag k="ssr:gruppe" v="skråninger" />
		<tag k="ssr:hovedgruppe" v="terreng" />
		<tag k="ssr:stedsnr" v="246249" />
		<tag k="ssr:type" v="li" />
	</node>
	<node lat="59.84221388969718" lon="5.773544438051424" id="-29408">
		<tag k="name" v="Kokkelberg" />
		<tag k="natural" v="hill" />
		<tag k="place" v="locality" />
		<tag k="ssr:date" v="2019-12-27" />
		<tag k="ssr:gruppe" v="høyder" />
		<tag k="ssr:hovedgruppe" v="terreng" />
		<tag k="ssr:stedsnr" v="246326" />
		<tag k="ssr:type" v="berg" />
	</node>
	<node lat="59.770905555782974" lon="5.886225003327526" id="-29409">
		<tag k="name" v="Straumsneset" />
		<tag k="natural" v="cape" />
		<tag k="ssr:date" v="2019-12-27" />
		<tag k="ssr:gruppe" v="kystkontur" />
		<tag k="ssr:hovedgruppe" v="sjø" />
		<tag k="ssr:stedsnr" v="246327" />
		<tag k="ssr:type" v="nesISjø" />
	</node>
	<node lat="59.84591388848241" lon="5.7522388880625375" id="-29410">
		<tag k="name" v="Torboneset" />
		<tag k="natural" v="cape" />
		<tag k="ssr:date" v="2019-12-27" />
		<tag k="ssr:gruppe" v="ferskvannskontur" />
		<tag k="ssr:hovedgruppe" v="ferskvann" />
		<tag k="ssr:stedsnr" v="246331" />
		<tag k="ssr:type" v="nes" />
	</node>
	<node lat="59.77515277678986" lon="5.993194453141507" id="-29411">
		<tag k="name" v="Apalehaugen" />
		<tag k="natural" v="hill" />
		<tag k="place" v="locality" />
		<tag k="ssr:date" v="2019-12-27" />
		<tag k="ssr:gruppe" v="høyder" />
		<tag k="ssr:hovedgruppe" v="terreng" />
		<tag k="ssr:stedsnr" v="246332" />
		<tag k="ssr:type" v="haug" />
	</node>
	<node lat="59.77251697634652" lon="5.873788243350733" id="-29412">
		<tag k="fixme" v="consider place=hamlet" />
		<tag k="name" v="Ølfernes" />
		<tag k="place" v="farm" />
		<tag k="ssr:date" v="2019-12-27" />
		<tag k="ssr:gruppe" v="gardsbebyggelse" />
		<tag k="ssr:hovedgruppe" v="bebyggelse" />
		<tag k="ssr:stedsnr" v="246334" />
		<tag k="ssr:type" v="gard" />
	</node>
	<node lat="59.78142222291843" lon="6.120580547887885" id="-29413">
		<tag k="alt_name" v="Bryllaskjær" />
		<tag k="fixme" v="consider seamark:type=rock or natural=shoal" />
		<tag k="name" v="Brøllaskjer" />
		<tag k="place" v="islet" />
		<tag k="ssr:date" v="2019-12-27" />
		<tag k="ssr:gruppe" v="grunnerISjø" />
		<tag k="ssr:hovedgruppe" v="sjø" />
		<tag k="ssr:stedsnr" v="246343" />
		<tag k="ssr:type" v="skjærISjø" />
	</node>
	<node lat="59.77861436156646" lon="6.089709005117831" id="-29414">
		<tag k="fixme" v="consider place=hamlet" />
		<tag k="name" v="Brekke" />
		<tag k="place" v="farm" />
		<tag k="ssr:date" v="2019-12-27" />
		<tag k="ssr:gruppe" v="gardsbebyggelse" />
		<tag k="ssr:hovedgruppe" v="bebyggelse" />
		<tag k="ssr:stedsnr" v="246348" />
		<tag k="ssr:type" v="gard" />
	</node>
	<node lat="59.776891670392516" lon="6.028286104570556" id="-29415">
		<tag k="historic" v="shieling" />
		<tag k="name" v="Kleivstølen" />
		<tag k="place" v="isolated_dwelling" />
		<tag k="ssr:date" v="2019-12-27" />
		<tag k="ssr:gruppe" v="gardsbebyggelse" />
		<tag k="ssr:hovedgruppe" v="bebyggelse" />
		<tag k="ssr:stedsnr" v="246351" />
		<tag k="ssr:type" v="seterStøl" />
	</node>
	<node lat="59.768005553399846" lon="5.977124994015997" id="-29416">
		<tag k="alt_name" v="Bodlarlaupen" />
		<tag k="name" v="Bollarelaupen" />
		<tag k="natural" v="slope" />
		<tag k="place" v="locality" />
		<tag k="ssr:date" v="2019-12-27" />
		<tag k="ssr:gruppe" v="skråninger" />
		<tag k="ssr:hovedgruppe" v="terreng" />
		<tag k="ssr:stedsnr" v="246358" />
		<tag k="ssr:type" v="li" />
	</node>
	<node lat="59.96488610996224" lon="5.996161120082032" id="-29417">
		<tag k="fixme" v="consider place=suburb, village or hamlet" />
		<tag k="name" v="Seimsfoss" />
		<tag k="place" v="quarter" />
		<tag k="ssr:date" v="2019-12-27" />
		<tag k="ssr:gruppe" v="bebyggelsesområder" />
		<tag k="ssr:hovedgruppe" v="bebyggelse" />
		<tag k="ssr:stedsnr" v="246430" />
		<tag k="ssr:type" v="tettbebyggelse" />
	</node>
	<node lat="59.96680833507497" lon="6.02871111805428" id="-29418">
		<tag k="name" v="Storegjuvbekken" />
		<tag k="ssr:date" v="2019-12-27" />
		<tag k="ssr:gruppe" v="rennendeVann" />
		<tag k="ssr:hovedgruppe" v="ferskvann" />
		<tag k="ssr:stedsnr" v="246446" />
		<tag k="ssr:type" v="bekk" />
		<tag k="waterway" v="stream" />
	</node>
	<node lat="59.944668832144025" lon="6.115684916391038" id="-29419">
		<tag k="name" v="Hildalsvatnet" />
		<tag k="natural" v="water" />
		<tag k="ssr:date" v="2019-12-27" />
		<tag k="ssr:gruppe" v="stilleståendeVann" />
		<tag k="ssr:hovedgruppe" v="ferskvann" />
		<tag k="ssr:stedsnr" v="247032" />
		<tag k="ssr:type" v="vann" />
		<tag k="water" v="lake" />
	</node>
	<node lat="59.92785277979849" lon="5.971641674828656" id="-29420">
		<tag k="name" v="Nonshaugen" />
		<tag k="natural" v="hill" />
		<tag k="place" v="locality" />
		<tag k="ssr:date" v="2019-12-27" />
		<tag k="ssr:gruppe" v="høyder" />
		<tag k="ssr:hovedgruppe" v="terreng" />
		<tag k="ssr:stedsnr" v="247052" />
		<tag k="ssr:type" v="haug" />
	</node>
	<node lat="60.10795277458231" lon="6.388950001980686" id="-29421">
		<tag k="fixme" v="consider natural=peak for the most distinct mountains in the district" />
		<tag k="name" v="Urdabotnshorga" />
		<tag k="natural" v="hill" />
		<tag k="place" v="locality" />
		<tag k="ssr:date" v="2019-12-27" />
		<tag k="ssr:gruppe" v="høyder" />
		<tag k="ssr:hovedgruppe" v="terreng" />
		<tag k="ssr:stedsnr" v="247134" />
		<tag k="ssr:type" v="ås" />
	</node>
	<node lat="59.87011630467221" lon="6.0626151217483075" id="-29422">
		<tag k="historic" v="shieling" />
		<tag k="name" v="Bjørnabøle" />
		<tag k="place" v="isolated_dwelling" />
		<tag k="ssr:date" v="2019-12-27" />
		<tag k="ssr:gruppe" v="gardsbebyggelse" />
		<tag k="ssr:hovedgruppe" v="bebyggelse" />
		<tag k="ssr:stedsnr" v="247145" />
		<tag k="ssr:type" v="seterStøl" />
	</node>
	<node lat="60.12317777918887" lon="6.322763884632297" id="-29423">
		<tag k="name" v="Fossabekken" />
		<tag k="ssr:date" v="2019-12-27" />
		<tag k="ssr:gruppe" v="rennendeVann" />
		<tag k="ssr:hovedgruppe" v="ferskvann" />
		<tag k="ssr:stedsnr" v="247147" />
		<tag k="ssr:type" v="bekk" />
		<tag k="waterway" v="stream" />
	</node>
	<node lat="60.12840000012145" lon="6.323586109224139" id="-29424">
		<tag k="name" v="Hålandsstølen" />
		<tag k="place" v="farm" />
		<tag k="ssr:date" v="2019-12-27" />
		<tag k="ssr:gruppe" v="gardsbebyggelse" />
		<tag k="ssr:hovedgruppe" v="bebyggelse" />
		<tag k="ssr:stedsnr" v="247149" />
		<tag k="ssr:type" v="bruk" />
	</node>
	<node lat="60.13284166702899" lon="6.231386104558837" id="-29425">
		<tag k="name" v="Dalelva" />
		<tag k="ssr:date" v="2019-12-27" />
		<tag k="ssr:gruppe" v="rennendeVann" />
		<tag k="ssr:hovedgruppe" v="ferskvann" />
		<tag k="ssr:stedsnr" v="247182" />
		<tag k="ssr:type" v="bekk" />
		<tag k="waterway" v="stream" />
	</node>
	<node lat="60.15038048073018" lon="6.392573235219891" id="-29426">
		<tag k="alt_name" v="Bukkaspelvatnet, insta" />
		<tag k="name" v="Insta Bukkaspelvatnet" />
		<tag k="natural" v="water" />
		<tag k="ssr:date" v="2020-02-19" />
		<tag k="ssr:gruppe" v="stilleståendeVann" />
		<tag k="ssr:hovedgruppe" v="ferskvann" />
		<tag k="ssr:stedsnr" v="247186" />
		<tag k="ssr:type" v="tjern" />
	</node>
	<node lat="60.14303889106051" lon="6.235502778135373" id="-29427">
		<tag k="name" v="Øvrabøskotet" />
		<tag k="natural" v="slope" />
		<tag k="place" v="locality" />
		<tag k="ssr:date" v="2019-12-27" />
		<tag k="ssr:gruppe" v="skråninger" />
		<tag k="ssr:hovedgruppe" v="terreng" />
		<tag k="ssr:stedsnr" v="247197" />
		<tag k="ssr:type" v="li" />
	</node>
	<node lat="60.13645277834288" lon="6.236669436165754" id="-29428">
		<tag k="name" v="Gjetingsdalen" />
		<tag k="natural" v="valley" />
		<tag k="place" v="locality" />
		<tag k="ssr:date" v="2019-12-27" />
		<tag k="ssr:gruppe" v="senkninger" />
		<tag k="ssr:hovedgruppe" v="terreng" />
		<tag k="ssr:stedsnr" v="247200" />
		<tag k="ssr:type" v="dal" />
	</node>
	<node lat="59.830362844091596" lon="6.076358183138569" id="-29429">
		<tag k="name" v="Tjørnane" />
		<tag k="natural" v="water" />
		<tag k="ssr:date" v="2019-12-27" />
		<tag k="ssr:gruppe" v="stilleståendeVann" />
		<tag k="ssr:hovedgruppe" v="ferskvann" />
		<tag k="ssr:stedsnr" v="247207" />
		<tag k="ssr:type" v="gruppeAvTjern" />
		<tag k="water" v="lake" />
	</node>
	<node lat="60.15311666754477" lon="6.355613896787953" id="-29430">
		<tag k="name" v="Juldalsgilet" />
		<tag k="natural" v="valley" />
		<tag k="place" v="locality" />
		<tag k="ssr:date" v="2019-12-27" />
		<tag k="ssr:gruppe" v="senkninger" />
		<tag k="ssr:hovedgruppe" v="terreng" />
		<tag k="ssr:stedsnr" v="247209" />
		<tag k="ssr:type" v="skar" />
	</node>
	<node lat="59.82570997167707" lon="5.988964295047401" id="-29431">
		<tag k="fixme" v="consider place=hamlet" />
		<tag k="name" v="Materstveit" />
		<tag k="place" v="farm" />
		<tag k="ssr:date" v="2019-12-27" />
		<tag k="ssr:gruppe" v="gardsbebyggelse" />
		<tag k="ssr:hovedgruppe" v="bebyggelse" />
		<tag k="ssr:stedsnr" v="247216" />
		<tag k="ssr:type" v="gard" />
	</node>
	<node lat="59.829863353793286" lon="6.019191366813937" id="-29432">
		<tag k="fixme" v="consider place=hamlet" />
		<tag k="name" v="Heggland" />
		<tag k="place" v="farm" />
		<tag k="ssr:date" v="2019-12-27" />
		<tag k="ssr:gruppe" v="gardsbebyggelse" />
		<tag k="ssr:hovedgruppe" v="bebyggelse" />
		<tag k="ssr:stedsnr" v="247217" />
		<tag k="ssr:type" v="gard" />
	</node>
	<node lat="60.155355554857955" lon="6.237313892652224" id="-29433">
		<tag k="alt_name" v="Heimeseterstølen" />
		<tag k="historic" v="shieling" />
		<tag k="name" v="Heimasætret" />
		<tag k="place" v="isolated_dwelling" />
		<tag k="ssr:date" v="2019-12-27" />
		<tag k="ssr:gruppe" v="gardsbebyggelse" />
		<tag k="ssr:hovedgruppe" v="bebyggelse" />
		<tag k="ssr:stedsnr" v="247221" />
		<tag k="ssr:type" v="seterStøl" />
	</node>
	<node lat="60.16866389293914" lon="6.2900694417624115" id="-29434">
		<tag k="name" v="Higraberget" />
		<tag k="natural" v="hill" />
		<tag k="place" v="locality" />
		<tag k="ssr:date" v="2019-12-27" />
		<tag k="ssr:gruppe" v="høyder" />
		<tag k="ssr:hovedgruppe" v="terreng" />
		<tag k="ssr:stedsnr" v="247241" />
		<tag k="ssr:type" v="berg" />
	</node>
	<node lat="59.80891558507465" lon="6.123409415913026" id="-29435">
		<tag k="name" v="Hagabekktjørna" />
		<tag k="natural" v="water" />
		<tag k="ssr:date" v="2019-12-27" />
		<tag k="ssr:gruppe" v="stilleståendeVann" />
		<tag k="ssr:hovedgruppe" v="ferskvann" />
		<tag k="ssr:stedsnr" v="247250" />
		<tag k="ssr:type" v="tjern" />
	</node>
	<node lat="59.804780557577814" lon="6.0425833257037445" id="-29436">
		<tag k="name" v="Snelldalen" />
		<tag k="natural" v="valley" />
		<tag k="place" v="locality" />
		<tag k="ssr:date" v="2019-12-27" />
		<tag k="ssr:gruppe" v="senkninger" />
		<tag k="ssr:hovedgruppe" v="terreng" />
		<tag k="ssr:stedsnr" v="247254" />
		<tag k="ssr:type" v="dal" />
	</node>
	<node lat="59.76011944171613" lon="6.064155552135372" id="-29437">
		<tag k="fixme" v="consider seamark:type=rock or natural=shoal" />
		<tag k="name" v="Alsåkerskjeret" />
		<tag k="place" v="islet" />
		<tag k="ssr:date" v="2019-12-27" />
		<tag k="ssr:gruppe" v="grunnerISjø" />
		<tag k="ssr:hovedgruppe" v="sjø" />
		<tag k="ssr:stedsnr" v="247382" />
		<tag k="ssr:type" v="skjærISjø" />
	</node>
	<node lat="59.796534118760185" lon="5.8191162848868565" id="-29438">
		<tag k="fixme" v="consider place=hamlet" />
		<tag k="name" v="Ersland" />
		<tag k="place" v="farm" />
		<tag k="ssr:date" v="2019-12-27" />
		<tag k="ssr:gruppe" v="gardsbebyggelse" />
		<tag k="ssr:hovedgruppe" v="bebyggelse" />
		<tag k="ssr:stedsnr" v="247390" />
		<tag k="ssr:type" v="gard" />
	</node>
	<node lat="59.80341384890099" lon="5.646253975416425" id="-29439">
		<tag k="name" v="Haugane" />
		<tag k="place" v="farm" />
		<tag k="ssr:date" v="2019-12-27" />
		<tag k="ssr:gruppe" v="gardsbebyggelse" />
		<tag k="ssr:hovedgruppe" v="bebyggelse" />
		<tag k="ssr:stedsnr" v="247317" />
		<tag k="ssr:type" v="bruk" />
	</node>
	<node lat="59.80511666892937" lon="5.681824998505573" id="-29440">
		<tag k="alt_name" v="Eidsnes" />
		<tag k="name" v="Eidsneset" />
		<tag k="natural" v="cape" />
		<tag k="ssr:date" v="2019-12-27" />
		<tag k="ssr:gruppe" v="kystkontur" />
		<tag k="ssr:hovedgruppe" v="sjø" />
		<tag k="ssr:stedsnr" v="247319" />
		<tag k="ssr:type" v="nesISjø" />
	</node>
	<node lat="59.812200001344806" lon="5.675500005630889" id="-29441">
		<tag k="name" v="Mørkavågen" />
		<tag k="natural" v="bay" />
		<tag k="ssr:date" v="2019-12-27" />
		<tag k="ssr:gruppe" v="kystkontur" />
		<tag k="ssr:hovedgruppe" v="sjø" />
		<tag k="ssr:stedsnr" v="247339" />
		<tag k="ssr:type" v="vikISjø" />
	</node>
	<node lat="59.812319446431665" lon="5.657877782599044" id="-29442">
		<tag k="alt_name" v="Ranavika ferjekai;Ranavik" />
		<tag k="amenity" v="ferry_terminal" />
		<tag k="name" v="Ranavik ferjekai" />
		<tag k="ssr:date" v="2019-12-27" />
		<tag k="ssr:gruppe" v="sjøfart" />
		<tag k="ssr:hovedgruppe" v="infrastruktur" />
		<tag k="ssr:stedsnr" v="247348" />
		<tag k="ssr:type" v="ferjekai" />
	</node>
	<node lat="59.768639595428496" lon="6.045858606204475" id="-29443">
		<tag k="name" v="Skrumstjørna" />
		<tag k="natural" v="water" />
		<tag k="ssr:date" v="2019-12-27" />
		<tag k="ssr:gruppe" v="stilleståendeVann" />
		<tag k="ssr:hovedgruppe" v="ferskvann" />
		<tag k="ssr:stedsnr" v="247350" />
		<tag k="ssr:type" v="tjern" />
	</node>
	<node lat="59.76451111535771" lon="6.020724996591948" id="-29444">
		<tag k="name" v="Amlandsheia" />
		<tag k="natural" v="hill" />
		<tag k="place" v="locality" />
		<tag k="ssr:date" v="2019-12-27" />
		<tag k="ssr:gruppe" v="høyder" />
		<tag k="ssr:hovedgruppe" v="terreng" />
		<tag k="ssr:stedsnr" v="247352" />
		<tag k="ssr:type" v="haug" />
	</node>
	<node lat="59.9946250039622" lon="5.982574996528655" id="-29445">
		<tag k="alt_name" v="Tånes" />
		<tag k="name" v="Tåneset" />
		<tag k="natural" v="cape" />
		<tag k="ssr:date" v="2019-12-27" />
		<tag k="ssr:gruppe" v="kystkontur" />
		<tag k="ssr:hovedgruppe" v="sjø" />
		<tag k="ssr:stedsnr" v="247442" />
		<tag k="ssr:type" v="nesISjø" />
	</node>
	<node lat="59.96553610995074" lon="5.903480559079728" id="-29446">
		<tag k="name" v="Eidsvika" />
		<tag k="natural" v="bay" />
		<tag k="ssr:date" v="2019-12-27" />
		<tag k="ssr:gruppe" v="kystkontur" />
		<tag k="ssr:hovedgruppe" v="sjø" />
		<tag k="ssr:stedsnr" v="247448" />
		<tag k="ssr:type" v="vikISjø" />
	</node>
	<node lat="60.16343888861472" lon="5.993388883065969" id="-29447">
		<tag k="name" v="Myrane" />
		<tag k="place" v="farm" />
		<tag k="ssr:date" v="2019-12-27" />
		<tag k="ssr:gruppe" v="gardsbebyggelse" />
		<tag k="ssr:hovedgruppe" v="bebyggelse" />
		<tag k="ssr:stedsnr" v="247535" />
		<tag k="ssr:type" v="bruk" />
	</node>
	<node lat="60.165441663573674" lon="6.017805546963722" id="-29448">
		<tag k="name" v="Varakjelen" />
		<tag k="natural" v="hill" />
		<tag k="place" v="locality" />
		<tag k="ssr:date" v="2019-12-27" />
		<tag k="ssr:gruppe" v="høyder" />
		<tag k="ssr:hovedgruppe" v="terreng" />
		<tag k="ssr:stedsnr" v="247539" />
		<tag k="ssr:type" v="haug" />
	</node>
	<node lat="59.75544444702561" lon="5.6995999980856515" id="-29449">
		<tag k="name" v="Kvernavika" />
		<tag k="natural" v="bay" />
		<tag k="ssr:date" v="2019-12-27" />
		<tag k="ssr:gruppe" v="kystkontur" />
		<tag k="ssr:hovedgruppe" v="sjø" />
		<tag k="ssr:stedsnr" v="247552" />
		<tag k="ssr:type" v="vikISjø" />
	</node>
	<node lat="60.13422671673333" lon="5.9986561540929655" id="-29450">
		<tag k="alt_name" v="Svartavatnet, stora" />
		<tag k="name" v="Stora Svartavatnet" />
		<tag k="natural" v="water" />
		<tag k="ssr:date" v="2019-12-27" />
		<tag k="ssr:gruppe" v="stilleståendeVann" />
		<tag k="ssr:hovedgruppe" v="ferskvann" />
		<tag k="ssr:stedsnr" v="247588" />
		<tag k="ssr:type" v="tjern" />
	</node>
	<node lat="60.143524998046026" lon="6.024163886127847" id="-29451">
		<tag k="name" v="Volavatna" />
		<tag k="natural" v="water" />
		<tag k="ssr:date" v="2020-08-25" />
		<tag k="ssr:gruppe" v="stilleståendeVann" />
		<tag k="ssr:hovedgruppe" v="ferskvann" />
		<tag k="ssr:stedsnr" v="247601" />
		<tag k="ssr:type" v="gruppeAvTjern" />
		<tag k="water" v="lake" />
	</node>
	<node lat="59.92787176941238" lon="5.837573476452996" id="-29452">
		<tag k="fixme" v="consider place=hamlet" />
		<tag k="name" v="Steinsletta" />
		<tag k="place" v="farm" />
		<tag k="ssr:date" v="2019-12-27" />
		<tag k="ssr:gruppe" v="gardsbebyggelse" />
		<tag k="ssr:hovedgruppe" v="bebyggelse" />
		<tag k="ssr:stedsnr" v="247681" />
		<tag k="ssr:type" v="gard" />
	</node>
	<node lat="60.04221110984097" lon="5.815980547844764" id="-29453">
		<tag k="alt_name" v="Setradalen" />
		<tag k="name" v="Sætradalen" />
		<tag k="natural" v="valley" />
		<tag k="place" v="locality" />
		<tag k="ssr:date" v="2019-12-27" />
		<tag k="ssr:gruppe" v="senkninger" />
		<tag k="ssr:hovedgruppe" v="terreng" />
		<tag k="ssr:stedsnr" v="247634" />
		<tag k="ssr:type" v="dal" />
	</node>
	<node lat="59.94308332886583" lon="5.822580554139865" id="-29454">
		<tag k="name" v="Skorpo" />
		<tag k="place" v="island" />
		<tag k="ssr:date" v="2019-12-27" />
		<tag k="ssr:gruppe" v="kystkontur" />
		<tag k="ssr:hovedgruppe" v="sjø" />
		<tag k="ssr:stedsnr" v="247726" />
		<tag k="ssr:type" v="øyISjø" />
	</node>
	<node lat="60.00630555933991" lon="5.82768889380858" id="-29455">
		<tag k="name" v="Tuftemarka" />
		<tag k="place" v="locality" />
		<tag k="ssr:date" v="2019-12-27" />
		<tag k="ssr:gruppe" v="vegetasjon" />
		<tag k="ssr:hovedgruppe" v="markslag" />
		<tag k="ssr:stedsnr" v="247684" />
		<tag k="ssr:type" v="skog" />
	</node>
	<node lat="60.013277774012955" lon="5.750861110493586" id="-29456">
		<tag k="fixme" v="consider natural=peak for the most distinct mountains in the district" />
		<tag k="name" v="Sjuråsen" />
		<tag k="natural" v="hill" />
		<tag k="place" v="locality" />
		<tag k="ssr:date" v="2019-12-27" />
		<tag k="ssr:gruppe" v="høyder" />
		<tag k="ssr:hovedgruppe" v="terreng" />
		<tag k="ssr:stedsnr" v="247701" />
		<tag k="ssr:type" v="ås" />
	</node>
	<node lat="60.07841111500119" lon="5.888822224348701" id="-29457">
		<tag k="name" v="Haukadalen" />
		<tag k="natural" v="valley" />
		<tag k="place" v="locality" />
		<tag k="ssr:date" v="2019-12-27" />
		<tag k="ssr:gruppe" v="senkninger" />
		<tag k="ssr:hovedgruppe" v="terreng" />
		<tag k="ssr:stedsnr" v="97829" />
		<tag k="ssr:type" v="dal" />
	</node>
	<node lat="59.85443888935971" lon="5.986980561407618" id="-29458">
		<tag k="name" v="Grohellernes" />
		<tag k="natural" v="cape" />
		<tag k="ssr:date" v="2019-12-27" />
		<tag k="ssr:gruppe" v="kystkontur" />
		<tag k="ssr:hovedgruppe" v="sjø" />
		<tag k="ssr:stedsnr" v="97559" />
		<tag k="ssr:type" v="nesISjø" />
	</node>
	<node lat="60.08696389136385" lon="5.89658611454262" id="-29459">
		<tag k="name" v="Svartavatnet" />
		<tag k="natural" v="water" />
		<tag k="ssr:date" v="2019-12-27" />
		<tag k="ssr:gruppe" v="stilleståendeVann" />
		<tag k="ssr:hovedgruppe" v="ferskvann" />
		<tag k="ssr:stedsnr" v="247929" />
		<tag k="ssr:type" v="tjern" />
	</node>
	<node lat="60.08865000287431" lon="5.965994445818351" id="-29460">
		<tag k="alt_name" v="Bygdavika" />
		<tag k="name" v="Bygdavågen" />
		<tag k="natural" v="bay" />
		<tag k="ssr:date" v="2019-12-27" />
		<tag k="ssr:gruppe" v="kystkontur" />
		<tag k="ssr:hovedgruppe" v="sjø" />
		<tag k="ssr:stedsnr" v="247931" />
		<tag k="ssr:type" v="vikISjø" />
	</node>
	<node lat="60.106594448347394" lon="6.2253250024051905" id="-29461">
		<tag k="name" v="Høgaberget" />
		<tag k="natural" v="hill" />
		<tag k="place" v="locality" />
		<tag k="ssr:date" v="2019-12-27" />
		<tag k="ssr:gruppe" v="høyder" />
		<tag k="ssr:hovedgruppe" v="terreng" />
		<tag k="ssr:stedsnr" v="98172" />
		<tag k="ssr:type" v="berg" />
	</node>
	<node lat="60.13176666377456" lon="6.037350008407864" id="-29462">
		<tag k="fixme" v="consider natural=peak for the most distinct mountains in the district" />
		<tag k="name" v="Øyefjellet" />
		<tag k="natural" v="hill" />
		<tag k="place" v="locality" />
		<tag k="ssr:date" v="2019-12-27" />
		<tag k="ssr:gruppe" v="høyder" />
		<tag k="ssr:hovedgruppe" v="terreng" />
		<tag k="ssr:stedsnr" v="247867" />
		<tag k="ssr:type" v="fjell" />
	</node>
	<node lat="60.12881389080141" lon="5.989291671670215" id="-29463">
		<tag k="name" v="Varaldsøy" />
		<tag k="place" v="island" />
		<tag k="ssr:date" v="2021-06-08" />
		<tag k="ssr:gruppe" v="kystkontur" />
		<tag k="ssr:hovedgruppe" v="sjø" />
		<tag k="ssr:stedsnr" v="247868" />
		<tag k="ssr:type" v="øyISjø" />
	</node>
	<node lat="59.911172226346594" lon="6.000550007756579" id="-29464">
		<tag k="name" v="Svartaberget" />
		<tag k="natural" v="hill" />
		<tag k="place" v="locality" />
		<tag k="ssr:date" v="2019-12-27" />
		<tag k="ssr:gruppe" v="høyder" />
		<tag k="ssr:hovedgruppe" v="terreng" />
		<tag k="ssr:stedsnr" v="98608" />
		<tag k="ssr:type" v="berg" />
	</node>
	<node lat="60.05386139838799" lon="6.0222960402191035" id="-29465">
		<tag k="name" v="Årsnes" />
		<tag k="place" v="hamlet" />
		<tag k="ssr:date" v="2019-12-27" />
		<tag k="ssr:gruppe" v="gardsbebyggelse" />
		<tag k="ssr:hovedgruppe" v="bebyggelse" />
		<tag k="ssr:stedsnr" v="247982" />
		<tag k="ssr:type" v="navnegard" />
	</node>
	<node lat="59.997816666409825" lon="6.019636117035912" id="-29466">
		<tag k="name" v="Gråten" />
		<tag k="place" v="farm" />
		<tag k="ssr:date" v="2019-12-27" />
		<tag k="ssr:gruppe" v="gardsbebyggelse" />
		<tag k="ssr:hovedgruppe" v="bebyggelse" />
		<tag k="ssr:stedsnr" v="98682" />
		<tag k="ssr:type" v="bruk" />
	</node>
	<node lat="59.99673888981514" lon="6.002608327640556" id="-29467">
		<tag k="fixme" v="consider natural=peak for the most distinct mountains in the district" />
		<tag k="name" v="Røssås" />
		<tag k="natural" v="hill" />
		<tag k="place" v="locality" />
		<tag k="ssr:date" v="2019-12-27" />
		<tag k="ssr:gruppe" v="høyder" />
		<tag k="ssr:hovedgruppe" v="terreng" />
		<tag k="ssr:stedsnr" v="98683" />
		<tag k="ssr:type" v="ås" />
	</node>
	<node lat="60.03696666961138" lon="5.8928888825283465" id="-29468">
		<tag k="fixme" v="consider natural=peak for the most distinct mountains in the district" />
		<tag k="name" v="Eikåsen" />
		<tag k="natural" v="hill" />
		<tag k="place" v="locality" />
		<tag k="ssr:date" v="2019-12-27" />
		<tag k="ssr:gruppe" v="høyder" />
		<tag k="ssr:hovedgruppe" v="terreng" />
		<tag k="ssr:stedsnr" v="98859" />
		<tag k="ssr:type" v="ås" />
	</node>
	<node lat="60.02999721827144" lon="5.897927771940326" id="-29469">
		<tag k="name" v="Skiparhaugen" />
		<tag k="natural" v="hill" />
		<tag k="place" v="locality" />
		<tag k="ssr:date" v="2019-12-27" />
		<tag k="ssr:gruppe" v="høyder" />
		<tag k="ssr:hovedgruppe" v="terreng" />
		<tag k="ssr:stedsnr" v="98865" />
		<tag k="ssr:type" v="haug" />
	</node>
	<node lat="59.828197224400945" lon="5.809258327083172" id="-29470">
		<tag k="name" v="Bjorkedalen" />
		<tag k="natural" v="valley" />
		<tag k="place" v="locality" />
		<tag k="ssr:date" v="2019-12-27" />
		<tag k="ssr:gruppe" v="senkninger" />
		<tag k="ssr:hovedgruppe" v="terreng" />
		<tag k="ssr:stedsnr" v="98866" />
		<tag k="ssr:type" v="dal" />
	</node>
	<node lat="59.816052775581774" lon="5.748999999171883" id="-29471">
		<tag k="name" v="Larsastøa" />
		<tag k="natural" v="bay" />
		<tag k="ssr:date" v="2019-12-27" />
		<tag k="ssr:gruppe" v="kystkontur" />
		<tag k="ssr:hovedgruppe" v="sjø" />
		<tag k="ssr:stedsnr" v="98872" />
		<tag k="ssr:type" v="vikISjø" />
	</node>
	<node lat="59.81516389210674" lon="5.730002782659852" id="-29472">
		<tag k="name" v="Blokkebærholmen" />
		<tag k="place" v="islet" />
		<tag k="ssr:date" v="2019-12-27" />
		<tag k="ssr:gruppe" v="kystkontur" />
		<tag k="ssr:hovedgruppe" v="sjø" />
		<tag k="ssr:stedsnr" v="98883" />
		<tag k="ssr:type" v="holmeISjø" />
	</node>
	<node lat="60.07059722073525" lon="5.891333324545155" id="-29473">
		<tag k="name" v="Årehaugen" />
		<tag k="natural" v="hill" />
		<tag k="place" v="locality" />
		<tag k="ssr:date" v="2019-12-27" />
		<tag k="ssr:gruppe" v="høyder" />
		<tag k="ssr:hovedgruppe" v="terreng" />
		<tag k="ssr:stedsnr" v="98760" />
		<tag k="ssr:type" v="haug" />
	</node>
	<node lat="60.07631639205044" lon="5.861985770356109" id="-29474">
		<tag k="name" v="Skuraneset" />
		<tag k="natural" v="cape" />
		<tag k="ssr:date" v="2019-12-27" />
		<tag k="ssr:gruppe" v="ferskvannskontur" />
		<tag k="ssr:hovedgruppe" v="ferskvann" />
		<tag k="ssr:stedsnr" v="98775" />
		<tag k="ssr:type" v="nes" />
	</node>
	<node lat="59.76032222625295" lon="5.7548833352223845" id="-29475">
		<tag k="name" v="Kastet" />
		<tag k="natural" v="hill" />
		<tag k="place" v="locality" />
		<tag k="ssr:date" v="2019-12-27" />
		<tag k="ssr:gruppe" v="høyder" />
		<tag k="ssr:hovedgruppe" v="terreng" />
		<tag k="ssr:stedsnr" v="99113" />
		<tag k="ssr:type" v="høyde" />
	</node>
	<node lat="60.075333335498456" lon="6.299561108027101" id="-29476">
		<tag k="name" v="Brufossøyrane" />
		<tag k="place" v="island" />
		<tag k="ssr:date" v="2019-12-27" />
		<tag k="ssr:gruppe" v="ferskvannskontur" />
		<tag k="ssr:hovedgruppe" v="ferskvann" />
		<tag k="ssr:stedsnr" v="99304" />
		<tag k="ssr:type" v="øygruppe" />
	</node>
	<node lat="60.08787070280287" lon="6.292348830662969" id="-29477">
		<tag k="name" v="Naustvika" />
		<tag k="natural" v="bay" />
		<tag k="ssr:date" v="2019-12-27" />
		<tag k="ssr:gruppe" v="ferskvannskontur" />
		<tag k="ssr:hovedgruppe" v="ferskvann" />
		<tag k="ssr:stedsnr" v="99323" />
		<tag k="ssr:type" v="vik" />
	</node>
	<node lat="60.129947220730145" lon="6.230269443113874" id="-29478">
		<tag k="highway" v="path" />
		<tag k="name" v="Sjoarsvegen" />
		<tag k="ssr:date" v="2019-12-27" />
		<tag k="ssr:gruppe" v="veg" />
		<tag k="ssr:hovedgruppe" v="infrastruktur" />
		<tag k="ssr:stedsnr" v="99359" />
		<tag k="ssr:type" v="sti" />
	</node>
	<node lat="60.132305558312105" lon="6.225888890969121" id="-29479">
		<tag k="name" v="Kolhaug" />
		<tag k="natural" v="hill" />
		<tag k="place" v="locality" />
		<tag k="ssr:date" v="2019-12-27" />
		<tag k="ssr:gruppe" v="høyder" />
		<tag k="ssr:hovedgruppe" v="terreng" />
		<tag k="ssr:stedsnr" v="99369" />
		<tag k="ssr:type" v="haug" />
	</node>
	<node lat="60.12628611195137" lon="6.220594449988042" id="-29480">
		<tag k="name" v="Skompegjelet" />
		<tag k="natural" v="gorge" />
		<tag k="ssr:date" v="2019-12-27" />
		<tag k="ssr:gruppe" v="senkninger" />
		<tag k="ssr:hovedgruppe" v="terreng" />
		<tag k="ssr:stedsnr" v="99378" />
		<tag k="ssr:type" v="juv" />
	</node>
	<node lat="59.77593055457164" lon="5.787461117791831" id="-29481">
		<tag k="fixme" v="consider natural=peak for the most distinct mountains in the district" />
		<tag k="name" v="Storarusta" />
		<tag k="natural" v="hill" />
		<tag k="place" v="locality" />
		<tag k="ssr:date" v="2019-12-27" />
		<tag k="ssr:gruppe" v="høyder" />
		<tag k="ssr:hovedgruppe" v="terreng" />
		<tag k="ssr:stedsnr" v="99063" />
		<tag k="ssr:type" v="ås" />
	</node>
	<node lat="59.78170555418269" lon="5.775966666392956" id="-29482">
		<tag k="name" v="Mjølkhaug" />
		<tag k="natural" v="hill" />
		<tag k="place" v="locality" />
		<tag k="ssr:date" v="2019-12-27" />
		<tag k="ssr:gruppe" v="høyder" />
		<tag k="ssr:hovedgruppe" v="terreng" />
		<tag k="ssr:stedsnr" v="99065" />
		<tag k="ssr:type" v="haug" />
	</node>
	<node lat="59.79120277378108" lon="5.672486119080458" id="-29483">
		<tag k="name" v="Småvikhaugane" />
		<tag k="natural" v="hill" />
		<tag k="place" v="locality" />
		<tag k="ssr:date" v="2019-12-27" />
		<tag k="ssr:gruppe" v="høyder" />
		<tag k="ssr:hovedgruppe" v="terreng" />
		<tag k="ssr:stedsnr" v="99082" />
		<tag k="ssr:type" v="haug" />
	</node>
	<node lat="59.7766916623678" lon="5.9665944372803015" id="-29484">
		<tag k="alt_name" v="Seglberget" />
		<tag k="name" v="Seilberg" />
		<tag k="natural" v="cape" />
		<tag k="ssr:date" v="2019-12-27" />
		<tag k="ssr:gruppe" v="kystkontur" />
		<tag k="ssr:hovedgruppe" v="sjø" />
		<tag k="ssr:stedsnr" v="99203" />
		<tag k="ssr:type" v="nesISjø" />
	</node>
	<node lat="60.09319722156628" lon="6.277661111111811" id="-29485">
		<tag k="name" v="Vasskredskorane" />
		<tag k="place" v="locality" />
		<tag k="ssr:date" v="2020-02-19" />
		<tag k="ssr:gruppe" v="terrengdetaljer" />
		<tag k="ssr:hovedgruppe" v="terreng" />
		<tag k="ssr:stedsnr" v="99259" />
		<tag k="ssr:type" v="hylle" />
	</node>
	<node lat="59.921713889601556" lon="5.890255548843838" id="-29486">
		<tag k="name" v="Langhaug" />
		<tag k="natural" v="hill" />
		<tag k="place" v="locality" />
		<tag k="ssr:date" v="2019-12-27" />
		<tag k="ssr:gruppe" v="høyder" />
		<tag k="ssr:hovedgruppe" v="terreng" />
		<tag k="ssr:stedsnr" v="99271" />
		<tag k="ssr:type" v="haug" />
	</node>
	<node lat="60.152588892451114" lon="6.243588892801649" id="-29487">
		<tag k="name" v="Raunelihaugen" />
		<tag k="natural" v="hill" />
		<tag k="place" v="locality" />
		<tag k="ssr:date" v="2019-12-27" />
		<tag k="ssr:gruppe" v="høyder" />
		<tag k="ssr:hovedgruppe" v="terreng" />
		<tag k="ssr:stedsnr" v="99402" />
		<tag k="ssr:type" v="haug" />
	</node>
	<node lat="60.11106110705455" lon="6.260283330658732" id="-29488">
		<tag k="name" v="Bråkali" />
		<tag k="natural" v="slope" />
		<tag k="place" v="locality" />
		<tag k="ssr:date" v="2019-12-27" />
		<tag k="ssr:gruppe" v="skråninger" />
		<tag k="ssr:hovedgruppe" v="terreng" />
		<tag k="ssr:stedsnr" v="99419" />
		<tag k="ssr:type" v="li" />
	</node>
	<node lat="60.07223611097845" lon="6.105611118481964" id="-29489">
		<tag k="name" v="Lunnamyrhaug" />
		<tag k="natural" v="hill" />
		<tag k="place" v="locality" />
		<tag k="ssr:date" v="2019-12-27" />
		<tag k="ssr:gruppe" v="høyder" />
		<tag k="ssr:hovedgruppe" v="terreng" />
		<tag k="ssr:stedsnr" v="99478" />
		<tag k="ssr:type" v="haug" />
	</node>
	<node lat="60.089488893052135" lon="6.1069916579812" id="-29490">
		<tag k="name" v="Ormabrotet" />
		<tag k="natural" v="slope" />
		<tag k="place" v="locality" />
		<tag k="ssr:date" v="2019-12-27" />
		<tag k="ssr:gruppe" v="skråninger" />
		<tag k="ssr:hovedgruppe" v="terreng" />
		<tag k="ssr:stedsnr" v="99507" />
		<tag k="ssr:type" v="bakke" />
	</node>
	<node lat="60.01070277691579" lon="5.884155563240531" id="-29491">
		<tag k="name" v="Bjørgane" />
		<tag k="natural" v="slope" />
		<tag k="place" v="locality" />
		<tag k="ssr:date" v="2019-12-27" />
		<tag k="ssr:gruppe" v="skråninger" />
		<tag k="ssr:hovedgruppe" v="terreng" />
		<tag k="ssr:stedsnr" v="99764" />
		<tag k="ssr:type" v="li" />
	</node>
	<node lat="60.010155686098706" lon="5.807230883867708" id="-29492">
		<tag k="loc_name" v="Dalssjøen" />
		<tag k="name" v="Dalsjøen" />
		<tag k="natural" v="bay" />
		<tag k="ssr:date" v="2020-01-10" />
		<tag k="ssr:gruppe" v="kystkontur" />
		<tag k="ssr:hovedgruppe" v="sjø" />
		<tag k="ssr:stedsnr" v="99825" />
		<tag k="ssr:type" v="vikISjø" />
	</node>
	<node lat="59.99953333603185" lon="5.834194447882874" id="-29493">
		<tag k="name" v="Midtskaret" />
		<tag k="natural" v="valley" />
		<tag k="place" v="locality" />
		<tag k="ssr:date" v="2019-12-27" />
		<tag k="ssr:gruppe" v="senkninger" />
		<tag k="ssr:hovedgruppe" v="terreng" />
		<tag k="ssr:stedsnr" v="99862" />
		<tag k="ssr:type" v="skar" />
	</node>
	<node lat="60.02072499962889" lon="5.897541662084387" id="-29494">
		<tag k="name" v="Djupedalen" />
		<tag k="natural" v="valley" />
		<tag k="place" v="locality" />
		<tag k="ssr:date" v="2019-12-27" />
		<tag k="ssr:gruppe" v="senkninger" />
		<tag k="ssr:hovedgruppe" v="terreng" />
		<tag k="ssr:stedsnr" v="99864" />
		<tag k="ssr:type" v="dal" />
	</node>
	<node lat="60.15849722280156" lon="6.323774991561207" id="-29495">
		<tag k="alt_name" v="Bjørkholm" />
		<tag k="name" v="Bjørkholmen" />
		<tag k="natural" v="cape" />
		<tag k="ssr:date" v="2019-12-27" />
		<tag k="ssr:gruppe" v="ferskvannskontur" />
		<tag k="ssr:hovedgruppe" v="ferskvann" />
		<tag k="ssr:stedsnr" v="99911" />
		<tag k="ssr:type" v="halvøy" />
	</node>
	<node lat="60.15727778205324" lon="6.325069449829004" id="-29496">
		<tag k="historic" v="shieling" />
		<tag k="name" v="Dalastøl" />
		<tag k="place" v="isolated_dwelling" />
		<tag k="ssr:date" v="2019-12-27" />
		<tag k="ssr:gruppe" v="gardsbebyggelse" />
		<tag k="ssr:hovedgruppe" v="bebyggelse" />
		<tag k="ssr:stedsnr" v="99912" />
		<tag k="ssr:type" v="seterStøl" />
	</node>
	<node lat="60.15720833523347" lon="6.290405555331928" id="-29497">
		<tag k="name" v="Køylebukta" />
		<tag k="natural" v="bay" />
		<tag k="ssr:date" v="2019-12-27" />
		<tag k="ssr:gruppe" v="kystkontur" />
		<tag k="ssr:hovedgruppe" v="sjø" />
		<tag k="ssr:stedsnr" v="99921" />
		<tag k="ssr:type" v="vågISjø" />
	</node>
	<node lat="60.12449721943911" lon="6.043852776269585" id="-29498">
		<tag k="name" v="Gjelpallen" />
		<tag k="natural" v="hill" />
		<tag k="place" v="locality" />
		<tag k="ssr:date" v="2019-12-27" />
		<tag k="ssr:gruppe" v="høyder" />
		<tag k="ssr:hovedgruppe" v="terreng" />
		<tag k="ssr:stedsnr" v="99922" />
		<tag k="ssr:type" v="haug" />
	</node>
	<node lat="59.73148888508897" lon="5.703247218263094" id="-29499">
		<tag k="name" v="Karteidklubben" />
		<tag k="natural" v="cape" />
		<tag k="ssr:date" v="2021-06-08" />
		<tag k="ssr:gruppe" v="kystkontur" />
		<tag k="ssr:hovedgruppe" v="sjø" />
		<tag k="ssr:stedsnr" v="99960" />
		<tag k="ssr:type" v="halvøyISjø" />
	</node>
	<node lat="59.76398561913552" lon="5.812723127755008" id="-29500">
		<tag k="name" v="Svartatjørn" />
		<tag k="natural" v="water" />
		<tag k="ssr:date" v="2019-12-27" />
		<tag k="ssr:gruppe" v="stilleståendeVann" />
		<tag k="ssr:hovedgruppe" v="ferskvann" />
		<tag k="ssr:stedsnr" v="99963" />
		<tag k="ssr:type" v="tjern" />
	</node>
	<node lat="59.91285555390327" lon="5.801999995506022" id="-29501">
		<tag k="name" v="Morhaug" />
		<tag k="natural" v="hill" />
		<tag k="place" v="locality" />
		<tag k="ssr:date" v="2019-12-27" />
		<tag k="ssr:gruppe" v="høyder" />
		<tag k="ssr:hovedgruppe" v="terreng" />
		<tag k="ssr:stedsnr" v="99966" />
		<tag k="ssr:type" v="haug" />
	</node>
	<node lat="59.75358333234701" lon="5.7675916736223485" id="-29502">
		<tag k="name" v="Øykjamarka" />
		<tag k="place" v="locality" />
		<tag k="ssr:date" v="2019-12-27" />
		<tag k="ssr:gruppe" v="dyrkamark" />
		<tag k="ssr:hovedgruppe" v="markslag" />
		<tag k="ssr:stedsnr" v="99968" />
		<tag k="ssr:type" v="utmark" />
	</node>
	<node lat="59.784633330138504" lon="5.893863887535515" id="-29503">
		<tag k="name" v="Stavarehaugen" />
		<tag k="natural" v="hill" />
		<tag k="place" v="locality" />
		<tag k="ssr:date" v="2019-12-27" />
		<tag k="ssr:gruppe" v="høyder" />
		<tag k="ssr:hovedgruppe" v="terreng" />
		<tag k="ssr:stedsnr" v="99969" />
		<tag k="ssr:type" v="haug" />
	</node>
	<node lat="59.8445361077095" lon="5.914663887851742" id="-29504">
		<tag k="name" v="Knutahusdal" />
		<tag k="natural" v="valley" />
		<tag k="place" v="locality" />
		<tag k="ssr:date" v="2019-12-27" />
		<tag k="ssr:gruppe" v="senkninger" />
		<tag k="ssr:hovedgruppe" v="terreng" />
		<tag k="ssr:stedsnr" v="99972" />
		<tag k="ssr:type" v="dal" />
	</node>
	<node lat="60.09496388716952" lon="5.996466665715893" id="-29505">
		<tag k="name" v="Høgestølen" />
		<tag k="natural" v="hill" />
		<tag k="place" v="locality" />
		<tag k="ssr:date" v="2019-12-27" />
		<tag k="ssr:gruppe" v="høyder" />
		<tag k="ssr:hovedgruppe" v="terreng" />
		<tag k="ssr:stedsnr" v="99973" />
		<tag k="ssr:type" v="haug" />
	</node>
	<node lat="59.81996111566269" lon="5.890444446902249" id="-29506">
		<tag k="name" v="Storhaugen" />
		<tag k="natural" v="hill" />
		<tag k="place" v="locality" />
		<tag k="ssr:date" v="2019-12-27" />
		<tag k="ssr:gruppe" v="høyder" />
		<tag k="ssr:hovedgruppe" v="terreng" />
		<tag k="ssr:stedsnr" v="99975" />
		<tag k="ssr:type" v="haug" />
	</node>
	<node lat="60.09055555754478" lon="5.965277785759936" id="-29507">
		<tag k="name" v="Vågsvikane" />
		<tag k="natural" v="bay" />
		<tag k="ssr:date" v="2019-12-27" />
		<tag k="ssr:gruppe" v="kystkontur" />
		<tag k="ssr:hovedgruppe" v="sjø" />
		<tag k="ssr:stedsnr" v="99976" />
		<tag k="ssr:type" v="vikISjø" />
	</node>
	<node lat="60.12888611246094" lon="6.039499990908613" id="-29508">
		<tag k="fixme" v="consider natural=peak for the most distinct mountains in the district" />
		<tag k="name" v="Varden" />
		<tag k="natural" v="hill" />
		<tag k="place" v="locality" />
		<tag k="ssr:date" v="2019-12-27" />
		<tag k="ssr:gruppe" v="høyder" />
		<tag k="ssr:hovedgruppe" v="terreng" />
		<tag k="ssr:stedsnr" v="248886" />
		<tag k="ssr:type" v="ås" />
	</node>
	<node lat="60.110019442415194" lon="5.944300004160982" id="-29509">
		<tag k="name" v="Utlebøen" />
		<tag k="place" v="farm" />
		<tag k="ssr:date" v="2019-12-27" />
		<tag k="ssr:gruppe" v="gardsbebyggelse" />
		<tag k="ssr:hovedgruppe" v="bebyggelse" />
		<tag k="ssr:stedsnr" v="248936" />
		<tag k="ssr:type" v="bruk" />
	</node>
	<node lat="59.831827778869474" lon="5.757449992727316" id="-29510">
		<tag k="alt_name" v="Porsvikneset" />
		<tag k="name" v="Porsneset" />
		<tag k="natural" v="cape" />
		<tag k="ssr:date" v="2019-12-27" />
		<tag k="ssr:gruppe" v="kystkontur" />
		<tag k="ssr:hovedgruppe" v="sjø" />
		<tag k="ssr:stedsnr" v="104574" />
		<tag k="ssr:type" v="nesISjø" />
	</node>
	<node lat="59.87340555614006" lon="5.7431222180257" id="-29511">
		<tag k="name" v="Bogsneset" />
		<tag k="natural" v="cape" />
		<tag k="ssr:date" v="2019-12-27" />
		<tag k="ssr:gruppe" v="kystkontur" />
		<tag k="ssr:hovedgruppe" v="sjø" />
		<tag k="ssr:stedsnr" v="105593" />
		<tag k="ssr:type" v="nesISjø" />
	</node>
	<node lat="59.786844441192144" lon="5.962661110513694" id="-29512">
		<tag k="name" v="Noddal" />
		<tag k="natural" v="valley" />
		<tag k="place" v="locality" />
		<tag k="ssr:date" v="2019-12-27" />
		<tag k="ssr:gruppe" v="senkninger" />
		<tag k="ssr:hovedgruppe" v="terreng" />
		<tag k="ssr:stedsnr" v="105914" />
		<tag k="ssr:type" v="dal" />
	</node>
	<node lat="59.80536388892462" lon="5.982233328723382" id="-29513">
		<tag k="bridge" v="yes" />
		<tag k="layer" v="1" />
		<tag k="name" v="Sunde" />
		<tag k="ssr:date" v="2019-12-27" />
		<tag k="ssr:gruppe" v="samferdselsanlegg" />
		<tag k="ssr:hovedgruppe" v="infrastruktur" />
		<tag k="ssr:stedsnr" v="107903" />
		<tag k="ssr:type" v="bru" />
	</node>
	<node lat="59.735808331528986" lon="5.717605560030625" id="-29514">
		<tag k="fixme" v="consider natural=peak for the most distinct mountains in the district" />
		<tag k="name" v="Aråsen" />
		<tag k="natural" v="hill" />
		<tag k="place" v="locality" />
		<tag k="ssr:date" v="2019-12-27" />
		<tag k="ssr:gruppe" v="høyder" />
		<tag k="ssr:hovedgruppe" v="terreng" />
		<tag k="ssr:stedsnr" v="124106" />
		<tag k="ssr:type" v="ås" />
	</node>
	<node lat="59.98706111314481" lon="5.758691675089642" id="-29515">
		<tag k="name" v="Terøysundet" />
		<tag k="natural" v="strait" />
		<tag k="ssr:date" v="2019-12-27" />
		<tag k="ssr:gruppe" v="kystkontur" />
		<tag k="ssr:hovedgruppe" v="sjø" />
		<tag k="ssr:stedsnr" v="124623" />
		<tag k="ssr:type" v="sundISjø" />
	</node>
	<node lat="59.91614023059496" lon="5.782284376014873" id="-29516">
		<tag k="fixme" v="consider place=hamlet" />
		<tag k="name" v="Hellvik" />
		<tag k="place" v="farm" />
		<tag k="ssr:date" v="2019-12-27" />
		<tag k="ssr:gruppe" v="gardsbebyggelse" />
		<tag k="ssr:hovedgruppe" v="bebyggelse" />
		<tag k="ssr:stedsnr" v="124662" />
		<tag k="ssr:type" v="gard" />
	</node>
	<node lat="59.956505559724405" lon="6.048433334570531" id="-29517">
		<tag k="name" v="Trolldalshaugen" />
		<tag k="natural" v="hill" />
		<tag k="place" v="locality" />
		<tag k="ssr:date" v="2019-12-27" />
		<tag k="ssr:gruppe" v="høyder" />
		<tag k="ssr:hovedgruppe" v="terreng" />
		<tag k="ssr:stedsnr" v="125002" />
		<tag k="ssr:type" v="haug" />
	</node>
	<node lat="59.943535099841526" lon="5.893101918891914" id="-29518">
		<tag k="fixme" v="consider place=hamlet" />
		<tag k="name" v="Rød" />
		<tag k="place" v="farm" />
		<tag k="ssr:date" v="2019-12-27" />
		<tag k="ssr:gruppe" v="gardsbebyggelse" />
		<tag k="ssr:hovedgruppe" v="bebyggelse" />
		<tag k="ssr:stedsnr" v="125027" />
		<tag k="ssr:type" v="gard" />
	</node>
	<node lat="59.9475179704152" lon="5.906889884715752" id="-29519">
		<tag k="alt_name" v="Vollen" />
		<tag k="fixme" v="consider place=hamlet" />
		<tag k="name" v="Voll" />
		<tag k="place" v="farm" />
		<tag k="ssr:date" v="2019-12-27" />
		<tag k="ssr:gruppe" v="gardsbebyggelse" />
		<tag k="ssr:hovedgruppe" v="bebyggelse" />
		<tag k="ssr:stedsnr" v="125028" />
		<tag k="ssr:type" v="gard" />
	</node>
	<node lat="59.92422499660773" lon="5.883669444053123" id="-29520">
		<tag k="alt_name" v="Døsland, øvre" />
		<tag k="name" v="Øvre Døsland" />
		<tag k="place" v="farm" />
		<tag k="ssr:date" v="2019-12-27" />
		<tag k="ssr:gruppe" v="gardsbebyggelse" />
		<tag k="ssr:hovedgruppe" v="bebyggelse" />
		<tag k="ssr:stedsnr" v="125058" />
		<tag k="ssr:type" v="bruk" />
	</node>
	<node lat="59.9538361135771" lon="6.01169444920714" id="-29521">
		<tag k="fixme" v="consider natural=peak for the most distinct mountains in the district" />
		<tag k="name" v="Seimsaksla" />
		<tag k="natural" v="hill" />
		<tag k="place" v="locality" />
		<tag k="ssr:date" v="2019-12-27" />
		<tag k="ssr:gruppe" v="høyder" />
		<tag k="ssr:hovedgruppe" v="terreng" />
		<tag k="ssr:stedsnr" v="125001" />
		<tag k="ssr:type" v="ås" />
	</node>
	<node lat="59.89610277881752" lon="6.160258333758454" id="-29522">
		<tag k="name" v="Slettavika" />
		<tag k="place" v="locality" />
		<tag k="ssr:date" v="2019-12-27" />
		<tag k="ssr:gruppe" v="flater" />
		<tag k="ssr:hovedgruppe" v="terreng" />
		<tag k="ssr:stedsnr" v="125106" />
		<tag k="ssr:type" v="slette" />
	</node>
	<node lat="59.89040000234716" lon="6.1269499980531394" id="-29523">
		<tag k="historic" v="shieling" />
		<tag k="name" v="Storbjørnlistølen" />
		<tag k="place" v="isolated_dwelling" />
		<tag k="ssr:date" v="2019-12-27" />
		<tag k="ssr:gruppe" v="gardsbebyggelse" />
		<tag k="ssr:hovedgruppe" v="bebyggelse" />
		<tag k="ssr:stedsnr" v="125108" />
		<tag k="ssr:type" v="seterStøl" />
	</node>
	<node lat="59.893830556509" lon="5.9269194403710985" id="-29524">
		<tag k="fixme" v="consider natural=peak for the most distinct mountains in the district" />
		<tag k="name" v="Vesletind" />
		<tag k="natural" v="hill" />
		<tag k="place" v="locality" />
		<tag k="ssr:date" v="2019-12-27" />
		<tag k="ssr:gruppe" v="høyder" />
		<tag k="ssr:hovedgruppe" v="terreng" />
		<tag k="ssr:stedsnr" v="125111" />
		<tag k="ssr:type" v="ås" />
	</node>
	<node lat="59.82979999832542" lon="5.943124996841064" id="-29525">
		<tag k="fixme" v="consider natural=peak for the most distinct mountains in the district" />
		<tag k="name" v="Skuleåsen" />
		<tag k="natural" v="hill" />
		<tag k="place" v="locality" />
		<tag k="ssr:date" v="2019-12-27" />
		<tag k="ssr:gruppe" v="høyder" />
		<tag k="ssr:hovedgruppe" v="terreng" />
		<tag k="ssr:stedsnr" v="125250" />
		<tag k="ssr:type" v="ås" />
	</node>
	<node lat="60.16767778149063" lon="6.392216669780296" id="-29526">
		<tag k="name" v="Svartedalen" />
		<tag k="natural" v="valley" />
		<tag k="place" v="locality" />
		<tag k="ssr:date" v="2019-12-27" />
		<tag k="ssr:gruppe" v="senkninger" />
		<tag k="ssr:hovedgruppe" v="terreng" />
		<tag k="ssr:stedsnr" v="125253" />
		<tag k="ssr:type" v="dal" />
	</node>
	<node lat="59.788650003672814" lon="5.831727784956797" id="-29527">
		<tag k="name" v="Storvik" />
		<tag k="place" v="farm" />
		<tag k="ssr:date" v="2019-12-27" />
		<tag k="ssr:gruppe" v="gardsbebyggelse" />
		<tag k="ssr:hovedgruppe" v="bebyggelse" />
		<tag k="ssr:stedsnr" v="125405" />
		<tag k="ssr:type" v="bruk" />
	</node>
	<node lat="59.789070731591224" lon="5.773865762527511" id="-29528">
		<tag k="fixme" v="consider place=hamlet" />
		<tag k="name" v="Gravdal" />
		<tag k="place" v="farm" />
		<tag k="ssr:date" v="2019-12-27" />
		<tag k="ssr:gruppe" v="gardsbebyggelse" />
		<tag k="ssr:hovedgruppe" v="bebyggelse" />
		<tag k="ssr:stedsnr" v="125407" />
		<tag k="ssr:type" v="gard" />
	</node>
	<node lat="59.7629192718822" lon="6.064719072910213" id="-29529">
		<tag k="fixme" v="consider place=hamlet" />
		<tag k="name" v="Alsåker" />
		<tag k="place" v="farm" />
		<tag k="ssr:date" v="2019-12-27" />
		<tag k="ssr:gruppe" v="gardsbebyggelse" />
		<tag k="ssr:hovedgruppe" v="bebyggelse" />
		<tag k="ssr:stedsnr" v="125412" />
		<tag k="ssr:type" v="gard" />
	</node>
	<node lat="59.759175002626954" lon="5.766816667416509" id="-29530">
		<tag k="name" v="Kjøberghaugen" />
		<tag k="natural" v="hill" />
		<tag k="place" v="locality" />
		<tag k="ssr:date" v="2019-12-27" />
		<tag k="ssr:gruppe" v="høyder" />
		<tag k="ssr:hovedgruppe" v="terreng" />
		<tag k="ssr:stedsnr" v="125429" />
		<tag k="ssr:type" v="haug" />
	</node>
	<node lat="59.75143332895067" lon="5.748152780579068" id="-29531">
		<tag k="name" v="Fatland" />
		<tag k="place" v="isolated_dwelling" />
		<tag k="ssr:date" v="2019-12-27" />
		<tag k="ssr:gruppe" v="bolighus" />
		<tag k="ssr:hovedgruppe" v="bebyggelse" />
		<tag k="ssr:stedsnr" v="125436" />
		<tag k="ssr:type" v="eneboligMindreBoligbygg" />
	</node>
	<node lat="59.983733334515904" lon="5.953805557627965" id="-29532">
		<tag k="name" v="Blåneset" />
		<tag k="natural" v="cape" />
		<tag k="ssr:date" v="2019-12-27" />
		<tag k="ssr:gruppe" v="kystkontur" />
		<tag k="ssr:hovedgruppe" v="sjø" />
		<tag k="ssr:stedsnr" v="125462" />
		<tag k="ssr:type" v="nesISjø" />
	</node>
	<node lat="59.84598888711749" lon="6.0856749929682215" id="-29533">
		<tag k="name" v="Fagnabotn" />
		<tag k="natural" v="valley" />
		<tag k="place" v="locality" />
		<tag k="ssr:date" v="2019-12-27" />
		<tag k="ssr:gruppe" v="senkninger" />
		<tag k="ssr:hovedgruppe" v="terreng" />
		<tag k="ssr:stedsnr" v="125190" />
		<tag k="ssr:type" v="botn" />
	</node>
	<node lat="59.791427777226275" lon="6.068974998794713" id="-29534">
		<tag k="name" v="Fureheia" />
		<tag k="natural" v="slope" />
		<tag k="place" v="locality" />
		<tag k="ssr:date" v="2019-12-27" />
		<tag k="ssr:gruppe" v="skråninger" />
		<tag k="ssr:hovedgruppe" v="terreng" />
		<tag k="ssr:stedsnr" v="125304" />
		<tag k="ssr:type" v="li" />
	</node>
	<node lat="59.785449997529376" lon="5.990555559833238" id="-29535">
		<tag k="fixme" v="consider natural=peak for the most distinct mountains in the district" />
		<tag k="name" v="Baugstrandsfjell" />
		<tag k="natural" v="hill" />
		<tag k="place" v="locality" />
		<tag k="ssr:date" v="2019-12-27" />
		<tag k="ssr:gruppe" v="høyder" />
		<tag k="ssr:hovedgruppe" v="terreng" />
		<tag k="ssr:stedsnr" v="125319" />
		<tag k="ssr:type" v="fjell" />
	</node>
	<node lat="59.864627774309696" lon="5.7392805553235045" id="-29536">
		<tag k="alt_name" v="Rysslandsvik" />
		<tag k="name" v="Røsslandsvika" />
		<tag k="natural" v="bay" />
		<tag k="ssr:date" v="2019-12-27" />
		<tag k="ssr:gruppe" v="kystkontur" />
		<tag k="ssr:hovedgruppe" v="sjø" />
		<tag k="ssr:stedsnr" v="125324" />
		<tag k="ssr:type" v="vikISjø" />
	</node>
	<node lat="59.794305552972354" lon="6.143913882293799" id="-29537">
		<tag k="name" v="Sollambarsfossen" />
		<tag k="ssr:date" v="2019-12-27" />
		<tag k="ssr:gruppe" v="rennendeVann" />
		<tag k="ssr:hovedgruppe" v="ferskvann" />
		<tag k="ssr:stedsnr" v="125327" />
		<tag k="ssr:type" v="bekk" />
		<tag k="waterway" v="stream" />
	</node>
	<node lat="59.797772222620814" lon="6.1220750073189185" id="-29538">
		<tag k="alt_name" v="Øvre Vågsstøl" />
		<tag k="historic" v="shieling" />
		<tag k="name" v="Oppivågsstølen" />
		<tag k="place" v="isolated_dwelling" />
		<tag k="ssr:date" v="2019-12-27" />
		<tag k="ssr:gruppe" v="gardsbebyggelse" />
		<tag k="ssr:hovedgruppe" v="bebyggelse" />
		<tag k="ssr:stedsnr" v="125333" />
		<tag k="ssr:type" v="seterStøl" />
	</node>
	<node lat="59.83706111153292" lon="5.686252784442918" id="-29539">
		<tag k="name" v="Tjuvaholet" />
		<tag k="natural" v="valley" />
		<tag k="place" v="locality" />
		<tag k="ssr:date" v="2019-12-27" />
		<tag k="ssr:gruppe" v="senkninger" />
		<tag k="ssr:hovedgruppe" v="terreng" />
		<tag k="ssr:stedsnr" v="125354" />
		<tag k="ssr:type" v="botn" />
	</node>
	<node lat="59.81344444193619" lon="5.72576388985113" id="-29540">
		<tag k="name" v="Øysteinsvik" />
		<tag k="natural" v="bay" />
		<tag k="ssr:date" v="2019-12-27" />
		<tag k="ssr:gruppe" v="kystkontur" />
		<tag k="ssr:hovedgruppe" v="sjø" />
		<tag k="ssr:stedsnr" v="125372" />
		<tag k="ssr:type" v="vikISjø" />
	</node>
	<node lat="59.781886111143436" lon="6.090880559394821" id="-29541">
		<tag k="name" v="Vikane" />
		<tag k="place" v="farm" />
		<tag k="ssr:date" v="2019-12-27" />
		<tag k="ssr:gruppe" v="gardsbebyggelse" />
		<tag k="ssr:hovedgruppe" v="bebyggelse" />
		<tag k="ssr:stedsnr" v="125373" />
		<tag k="ssr:type" v="bruk" />
	</node>
	<node lat="59.77348610904856" lon="6.065061117335893" id="-29542">
		<tag k="name" v="Høghaug" />
		<tag k="natural" v="hill" />
		<tag k="place" v="locality" />
		<tag k="ssr:date" v="2019-12-27" />
		<tag k="ssr:gruppe" v="høyder" />
		<tag k="ssr:hovedgruppe" v="terreng" />
		<tag k="ssr:stedsnr" v="125375" />
		<tag k="ssr:type" v="haug" />
	</node>
	<node lat="59.931013886661546" lon="5.8217833265469165" id="-29543">
		<tag k="alt_name" v="Lii" />
		<tag k="name" v="Lia" />
		<tag k="natural" v="slope" />
		<tag k="place" v="locality" />
		<tag k="ssr:date" v="2019-12-27" />
		<tag k="ssr:gruppe" v="skråninger" />
		<tag k="ssr:hovedgruppe" v="terreng" />
		<tag k="ssr:stedsnr" v="125760" />
		<tag k="ssr:type" v="li" />
	</node>
	<node lat="59.95043611502874" lon="5.874530562319305" id="-29544">
		<tag k="name" v="Storsundet" />
		<tag k="natural" v="strait" />
		<tag k="ssr:date" v="2019-12-27" />
		<tag k="ssr:gruppe" v="kystkontur" />
		<tag k="ssr:hovedgruppe" v="sjø" />
		<tag k="ssr:stedsnr" v="125761" />
		<tag k="ssr:type" v="sundISjø" />
	</node>
	<node lat="60.02730555829239" lon="6.08583610597027" id="-29545">
		<tag k="name" v="Nipeelva" />
		<tag k="ssr:date" v="2019-12-27" />
		<tag k="ssr:gruppe" v="rennendeVann" />
		<tag k="ssr:hovedgruppe" v="ferskvann" />
		<tag k="ssr:stedsnr" v="125764" />
		<tag k="ssr:type" v="bekk" />
		<tag k="waterway" v="stream" />
	</node>
	<node lat="60.03120277708736" lon="6.09898054854664" id="-29546">
		<tag k="fixme" v="consider natural=peak for the most distinct mountains in the district" />
		<tag k="name" v="Njotekruna" />
		<tag k="natural" v="hill" />
		<tag k="place" v="locality" />
		<tag k="ssr:date" v="2019-12-27" />
		<tag k="ssr:gruppe" v="høyder" />
		<tag k="ssr:hovedgruppe" v="terreng" />
		<tag k="ssr:stedsnr" v="125765" />
		<tag k="ssr:type" v="ås" />
	</node>
	<node lat="60.027894445792" lon="6.035424996899511" id="-29547">
		<tag k="alt_name" v="Skålafjellet" />
		<tag k="fixme" v="consider natural=peak for the most distinct mountains in the district" />
		<tag k="name" v="Skålefjell" />
		<tag k="natural" v="hill" />
		<tag k="place" v="locality" />
		<tag k="ssr:date" v="2019-12-27" />
		<tag k="ssr:gruppe" v="høyder" />
		<tag k="ssr:hovedgruppe" v="terreng" />
		<tag k="ssr:stedsnr" v="125769" />
		<tag k="ssr:type" v="ås" />
	</node>
	<node lat="59.982630559650694" lon="5.818144435343651" id="-29548">
		<tag k="alt_name" v="Grytneset" />
		<tag k="name" v="Grytnes" />
		<tag k="natural" v="cape" />
		<tag k="ssr:date" v="2019-12-27" />
		<tag k="ssr:gruppe" v="kystkontur" />
		<tag k="ssr:hovedgruppe" v="sjø" />
		<tag k="ssr:stedsnr" v="125653" />
		<tag k="ssr:type" v="nesISjø" />
	</node>
	<node lat="59.983788886235075" lon="5.831858331861268" id="-29549">
		<tag k="fixme" v="multiple name tags, choose one and add the other to alt_name" />
		<tag k="name" v="Fingergullvika;Gullvika" />
		<tag k="natural" v="bay" />
		<tag k="ssr:date" v="2019-12-27" />
		<tag k="ssr:gruppe" v="kystkontur" />
		<tag k="ssr:hovedgruppe" v="sjø" />
		<tag k="ssr:stedsnr" v="125654" />
		<tag k="ssr:type" v="vikISjø" />
	</node>
	<node lat="60.074049996696495" lon="6.259816661972244" id="-29550">
		<tag k="fixme" v="consider natural=peak for the most distinct mountains in the district" />
		<tag k="name" v="Knottaberget" />
		<tag k="natural" v="hill" />
		<tag k="place" v="locality" />
		<tag k="ssr:date" v="2019-12-27" />
		<tag k="ssr:gruppe" v="høyder" />
		<tag k="ssr:hovedgruppe" v="terreng" />
		<tag k="ssr:stedsnr" v="126107" />
		<tag k="ssr:type" v="ås" />
	</node>
	<node lat="60.0854749975442" lon="6.256691668454668" id="-29551">
		<tag k="name" v="Krokadalen" />
		<tag k="natural" v="valley" />
		<tag k="place" v="locality" />
		<tag k="ssr:date" v="2019-12-27" />
		<tag k="ssr:gruppe" v="senkninger" />
		<tag k="ssr:hovedgruppe" v="terreng" />
		<tag k="ssr:stedsnr" v="126112" />
		<tag k="ssr:type" v="dal" />
	</node>
	<node lat="60.076088890836004" lon="6.288180554487747" id="-29552">
		<tag k="alt_name" v="Hovden, nedste" />
		<tag k="name" v="Nedste Hovden" />
		<tag k="natural" v="hill" />
		<tag k="place" v="locality" />
		<tag k="ssr:date" v="2019-12-27" />
		<tag k="ssr:gruppe" v="høyder" />
		<tag k="ssr:hovedgruppe" v="terreng" />
		<tag k="ssr:stedsnr" v="126091" />
		<tag k="ssr:type" v="haug" />
	</node>
	<node lat="60.08292778052617" lon="6.311680557979285" id="-29553">
		<tag k="fixme" v="consider natural=peak for the most distinct mountains in the district" />
		<tag k="name" v="Det nauda" />
		<tag k="natural" v="hill" />
		<tag k="place" v="locality" />
		<tag k="ssr:date" v="2019-12-27" />
		<tag k="ssr:gruppe" v="høyder" />
		<tag k="ssr:hovedgruppe" v="terreng" />
		<tag k="ssr:stedsnr" v="126096" />
		<tag k="ssr:type" v="ås" />
	</node>
	<node lat="60.09078338732261" lon="6.1144492512293755" id="-29554">
		<tag k="fixme" v="consider place=hamlet" />
		<tag k="name" v="Ænes" />
		<tag k="place" v="farm" />
		<tag k="ssr:date" v="2019-12-27" />
		<tag k="ssr:gruppe" v="gardsbebyggelse" />
		<tag k="ssr:hovedgruppe" v="bebyggelse" />
		<tag k="ssr:stedsnr" v="126920" />
		<tag k="ssr:type" v="gard" />
	</node>
	<node lat="60.11729999898721" lon="5.9992583271670386" id="-29555">
		<tag k="name" v="Gjuvslandselva" />
		<tag k="ssr:date" v="2019-12-27" />
		<tag k="ssr:gruppe" v="rennendeVann" />
		<tag k="ssr:hovedgruppe" v="ferskvann" />
		<tag k="ssr:stedsnr" v="126891" />
		<tag k="ssr:type" v="bekk" />
		<tag k="waterway" v="stream" />
	</node>
	<node lat="60.078404309223735" lon="5.916381105924069" id="-29556">
		<tag k="alt_name" v="Femsteinevika" />
		<tag k="fixme" v="consider place=hamlet" />
		<tag k="name" v="Femsteinevik" />
		<tag k="place" v="farm" />
		<tag k="ssr:date" v="2019-12-27" />
		<tag k="ssr:gruppe" v="gardsbebyggelse" />
		<tag k="ssr:hovedgruppe" v="bebyggelse" />
		<tag k="ssr:stedsnr" v="126944" />
		<tag k="ssr:type" v="gard" />
	</node>
	<node lat="59.92502777451366" lon="5.7913000001486665" id="-29557">
		<tag k="name" v="Berget" />
		<tag k="natural" v="hill" />
		<tag k="place" v="locality" />
		<tag k="ssr:date" v="2019-12-27" />
		<tag k="ssr:gruppe" v="høyder" />
		<tag k="ssr:hovedgruppe" v="terreng" />
		<tag k="ssr:stedsnr" v="145143" />
		<tag k="ssr:type" v="berg" />
	</node>
	<node lat="59.73422499831193" lon="5.753552777395003" id="-29558">
		<tag k="name" v="Kallshammar" />
		<tag k="natural" v="hill" />
		<tag k="place" v="locality" />
		<tag k="ssr:date" v="2019-12-27" />
		<tag k="ssr:gruppe" v="høyder" />
		<tag k="ssr:hovedgruppe" v="terreng" />
		<tag k="ssr:stedsnr" v="159113" />
		<tag k="ssr:type" v="høyde" />
	</node>
	<node lat="59.74840000177252" lon="5.7697722211437386" id="-29559">
		<tag k="fixme" v="consider natural=peak for the most distinct mountains in the district" />
		<tag k="name" v="Nordåsen" />
		<tag k="natural" v="hill" />
		<tag k="place" v="locality" />
		<tag k="ssr:date" v="2019-12-27" />
		<tag k="ssr:gruppe" v="høyder" />
		<tag k="ssr:hovedgruppe" v="terreng" />
		<tag k="ssr:stedsnr" v="159119" />
		<tag k="ssr:type" v="ås" />
	</node>
	<node lat="59.75573610914924" lon="5.815911114432895" id="-29560">
		<tag k="name" v="Bruraberget" />
		<tag k="natural" v="hill" />
		<tag k="place" v="locality" />
		<tag k="ssr:date" v="2019-12-27" />
		<tag k="ssr:gruppe" v="høyder" />
		<tag k="ssr:hovedgruppe" v="terreng" />
		<tag k="ssr:stedsnr" v="159121" />
		<tag k="ssr:type" v="berg" />
	</node>
	<node lat="59.7381055573064" lon="5.713563895198772" id="-29561">
		<tag k="name" v="Sovarehaugen" />
		<tag k="natural" v="hill" />
		<tag k="place" v="locality" />
		<tag k="ssr:date" v="2019-12-27" />
		<tag k="ssr:gruppe" v="høyder" />
		<tag k="ssr:hovedgruppe" v="terreng" />
		<tag k="ssr:stedsnr" v="159124" />
		<tag k="ssr:type" v="haug" />
	</node>
	<node lat="59.93479166806098" lon="5.883763892154412" id="-29562">
		<tag k="name" v="Andersdalen" />
		<tag k="natural" v="valley" />
		<tag k="place" v="locality" />
		<tag k="ssr:date" v="2019-12-27" />
		<tag k="ssr:gruppe" v="senkninger" />
		<tag k="ssr:hovedgruppe" v="terreng" />
		<tag k="ssr:stedsnr" v="159149" />
		<tag k="ssr:type" v="dal" />
	</node>
	<node lat="59.79305555554674" lon="5.681958341599654" id="-29563">
		<tag k="name" v="Kobbebukta" />
		<tag k="natural" v="bay" />
		<tag k="ssr:date" v="2019-12-27" />
		<tag k="ssr:gruppe" v="kystkontur" />
		<tag k="ssr:hovedgruppe" v="sjø" />
		<tag k="ssr:stedsnr" v="159004" />
		<tag k="ssr:type" v="vikISjø" />
	</node>
	<node lat="59.71517778027458" lon="5.699369452887698" id="-29564">
		<tag k="name" v="Træsklubben" />
		<tag k="natural" v="cape" />
		<tag k="ssr:date" v="2019-12-27" />
		<tag k="ssr:gruppe" v="kystkontur" />
		<tag k="ssr:hovedgruppe" v="sjø" />
		<tag k="ssr:stedsnr" v="159048" />
		<tag k="ssr:type" v="nesISjø" />
	</node>
	<node lat="60.148869447587636" lon="6.209752771612251" id="-29565">
		<tag k="name" v="Rennedalen" />
		<tag k="natural" v="valley" />
		<tag k="place" v="locality" />
		<tag k="ssr:date" v="2019-12-27" />
		<tag k="ssr:gruppe" v="senkninger" />
		<tag k="ssr:hovedgruppe" v="terreng" />
		<tag k="ssr:stedsnr" v="159417" />
		<tag k="ssr:type" v="dal" />
	</node>
	<node lat="60.14569722638487" lon="6.212166665928666" id="-29566">
		<tag k="name" v="Sjåhaug" />
		<tag k="natural" v="hill" />
		<tag k="place" v="locality" />
		<tag k="ssr:date" v="2019-12-27" />
		<tag k="ssr:gruppe" v="høyder" />
		<tag k="ssr:hovedgruppe" v="terreng" />
		<tag k="ssr:stedsnr" v="159418" />
		<tag k="ssr:type" v="haug" />
	</node>
	<node lat="60.15495543896549" lon="6.25195369204982" id="-29567">
		<tag k="name" v="Kattatjørna" />
		<tag k="natural" v="water" />
		<tag k="ssr:date" v="2019-12-27" />
		<tag k="ssr:gruppe" v="stilleståendeVann" />
		<tag k="ssr:hovedgruppe" v="ferskvann" />
		<tag k="ssr:stedsnr" v="159425" />
		<tag k="ssr:type" v="tjern" />
	</node>
	<node lat="60.15361944211493" lon="6.285286119530634" id="-29568">
		<tag k="alt_name" v="Aursteinen" />
		<tag k="name" v="Aurstein" />
		<tag k="natural" v="cape" />
		<tag k="ssr:date" v="2019-12-27" />
		<tag k="ssr:gruppe" v="kystkontur" />
		<tag k="ssr:hovedgruppe" v="sjø" />
		<tag k="ssr:stedsnr" v="159311" />
		<tag k="ssr:type" v="nesISjø" />
	</node>
	<node lat="60.077294447089955" lon="6.285988880481919" id="-29569">
		<tag k="name" v="Hyttemyra" />
		<tag k="natural" v="wetland" />
		<tag k="ssr:date" v="2019-12-27" />
		<tag k="ssr:gruppe" v="våtmark" />
		<tag k="ssr:hovedgruppe" v="markslag" />
		<tag k="ssr:stedsnr" v="159320" />
		<tag k="ssr:type" v="myr" />
	</node>
	<node lat="60.07855833506154" lon="6.2887166654913225" id="-29570">
		<tag k="name" v="Kleivane" />
		<tag k="natural" v="slope" />
		<tag k="place" v="locality" />
		<tag k="ssr:date" v="2019-12-27" />
		<tag k="ssr:gruppe" v="skråninger" />
		<tag k="ssr:hovedgruppe" v="terreng" />
		<tag k="ssr:stedsnr" v="159321" />
		<tag k="ssr:type" v="bakke" />
	</node>
	<node lat="60.11894999716351" lon="6.266974995534052" id="-29571">
		<tag k="name" v="Osaholmen" />
		<tag k="place" v="islet" />
		<tag k="ssr:date" v="2019-12-27" />
		<tag k="ssr:gruppe" v="kystkontur" />
		<tag k="ssr:hovedgruppe" v="sjø" />
		<tag k="ssr:stedsnr" v="159348" />
		<tag k="ssr:type" v="holmeISjø" />
	</node>
	<node lat="60.11909999606546" lon="6.268519447214065" id="-29572">
		<tag k="name" v="Sunndalsvika" />
		<tag k="natural" v="bay" />
		<tag k="ssr:date" v="2019-12-27" />
		<tag k="ssr:gruppe" v="kystkontur" />
		<tag k="ssr:hovedgruppe" v="sjø" />
		<tag k="ssr:stedsnr" v="159353" />
		<tag k="ssr:type" v="vikISjø" />
	</node>
	<node lat="60.11308889169527" lon="6.244730548632037" id="-29573">
		<tag k="fixme" v="consider natural=peak for the most distinct mountains in the district" />
		<tag k="name" v="Blåhatten" />
		<tag k="natural" v="hill" />
		<tag k="place" v="locality" />
		<tag k="ssr:date" v="2019-12-27" />
		<tag k="ssr:gruppe" v="høyder" />
		<tag k="ssr:hovedgruppe" v="terreng" />
		<tag k="ssr:stedsnr" v="159357" />
		<tag k="ssr:type" v="topp" />
	</node>
	<node lat="60.11438333035458" lon="6.255786109166339" id="-29574">
		<tag k="name" v="Kjelde" />
		<tag k="natural" v="ridge" />
		<tag k="place" v="locality" />
		<tag k="ssr:date" v="2019-12-27" />
		<tag k="ssr:gruppe" v="høyder" />
		<tag k="ssr:hovedgruppe" v="terreng" />
		<tag k="ssr:stedsnr" v="159358" />
		<tag k="ssr:type" v="rygg" />
	</node>
	<node lat="60.13003889085336" lon="6.245797219829428" id="-29575">
		<tag k="alt_name" v="Snilsodden" />
		<tag k="name" v="Snilsodd" />
		<tag k="natural" v="cape" />
		<tag k="ssr:date" v="2019-12-27" />
		<tag k="ssr:gruppe" v="kystkontur" />
		<tag k="ssr:hovedgruppe" v="sjø" />
		<tag k="ssr:stedsnr" v="159360" />
		<tag k="ssr:type" v="nesISjø" />
	</node>
	<node lat="60.11946111094984" lon="6.25674721984314" id="-29576">
		<tag k="name" v="Musskjerneset" />
		<tag k="natural" v="cape" />
		<tag k="ssr:date" v="2019-12-27" />
		<tag k="ssr:gruppe" v="kystkontur" />
		<tag k="ssr:hovedgruppe" v="sjø" />
		<tag k="ssr:stedsnr" v="159366" />
		<tag k="ssr:type" v="nesISjø" />
	</node>
	<node lat="60.082369441971984" lon="6.100083328247961" id="-29577">
		<tag k="name" v="Kolabotnen" />
		<tag k="natural" v="valley" />
		<tag k="place" v="locality" />
		<tag k="ssr:date" v="2019-12-27" />
		<tag k="ssr:gruppe" v="senkninger" />
		<tag k="ssr:hovedgruppe" v="terreng" />
		<tag k="ssr:stedsnr" v="159517" />
		<tag k="ssr:type" v="botn" />
	</node>
	<node lat="59.83778610858152" lon="5.961624992906906" id="-29578">
		<tag k="name" v="Skjenstø" />
		<tag k="natural" v="hill" />
		<tag k="place" v="locality" />
		<tag k="ssr:date" v="2019-12-27" />
		<tag k="ssr:gruppe" v="høyder" />
		<tag k="ssr:hovedgruppe" v="terreng" />
		<tag k="ssr:stedsnr" v="159605" />
		<tag k="ssr:type" v="haug" />
	</node>
	<node lat="60.10751066154179" lon="6.136823279350208" id="-29579">
		<tag k="name" v="Gapandehamn" />
		<tag k="natural" v="bay" />
		<tag k="ssr:date" v="2020-02-07" />
		<tag k="ssr:gruppe" v="kystkontur" />
		<tag k="ssr:hovedgruppe" v="sjø" />
		<tag k="ssr:stedsnr" v="159549" />
		<tag k="ssr:type" v="vågISjø" />
	</node>
	<node lat="59.80680555911821" lon="6.112891669412055" id="-29580">
		<tag k="name" v="Bjørnshaugen" />
		<tag k="natural" v="hill" />
		<tag k="place" v="locality" />
		<tag k="ssr:date" v="2019-12-27" />
		<tag k="ssr:gruppe" v="høyder" />
		<tag k="ssr:hovedgruppe" v="terreng" />
		<tag k="ssr:stedsnr" v="159716" />
		<tag k="ssr:type" v="haug" />
	</node>
	<node lat="59.799952777732614" lon="6.0909222294174805" id="-29581">
		<tag k="name" v="Kolhaug" />
		<tag k="natural" v="hill" />
		<tag k="place" v="locality" />
		<tag k="ssr:date" v="2019-12-27" />
		<tag k="ssr:gruppe" v="høyder" />
		<tag k="ssr:hovedgruppe" v="terreng" />
		<tag k="ssr:stedsnr" v="159723" />
		<tag k="ssr:type" v="haug" />
	</node>
	<node lat="60.114225001279884" lon="6.17463056242603" id="-29582">
		<tag k="name" v="Hundasvoda" />
		<tag k="natural" v="slope" />
		<tag k="place" v="locality" />
		<tag k="ssr:date" v="2019-12-27" />
		<tag k="ssr:gruppe" v="skråninger" />
		<tag k="ssr:hovedgruppe" v="terreng" />
		<tag k="ssr:stedsnr" v="164518" />
		<tag k="ssr:type" v="li" />
	</node>
	<node lat="59.7234027771856" lon="5.7658416607256795" id="-29583">
		<tag k="name" v="Virdalsflua" />
		<tag k="place" v="locality" />
		<tag k="seamark:type" v="rock" />
		<tag k="ssr:date" v="2019-12-27" />
		<tag k="ssr:gruppe" v="grunnerISjø" />
		<tag k="ssr:hovedgruppe" v="sjø" />
		<tag k="ssr:stedsnr" v="164721" />
		<tag k="ssr:type" v="båeISjø" />
	</node>
	<node lat="59.93486389199772" lon="5.861672214566361" id="-29584">
		<tag k="name" v="Neset" />
		<tag k="natural" v="cape" />
		<tag k="ssr:date" v="2019-12-27" />
		<tag k="ssr:gruppe" v="kystkontur" />
		<tag k="ssr:hovedgruppe" v="sjø" />
		<tag k="ssr:stedsnr" v="165406" />
		<tag k="ssr:type" v="nesISjø" />
	</node>
	<node lat="59.78121850632514" lon="5.851499653276683" id="-29585">
		<tag k="name" v="Leirvik" />
		<tag k="natural" v="bay" />
		<tag k="ssr:date" v="2019-12-27" />
		<tag k="ssr:gruppe" v="kystkontur" />
		<tag k="ssr:hovedgruppe" v="sjø" />
		<tag k="ssr:stedsnr" v="165926" />
		<tag k="ssr:type" v="vikISjø" />
	</node>
	<node lat="60.164491665947615" lon="6.287500000545652" id="-29586">
		<tag k="bridge" v="yes" />
		<tag k="layer" v="1" />
		<tag k="name" v="Tveitelvo" />
		<tag k="ssr:date" v="2019-12-27" />
		<tag k="ssr:gruppe" v="samferdselsanlegg" />
		<tag k="ssr:hovedgruppe" v="infrastruktur" />
		<tag k="ssr:stedsnr" v="167863" />
		<tag k="ssr:type" v="bru" />
	</node>
	<node lat="59.7660277792116" lon="5.983988888055449" id="-29587">
		<tag k="bridge" v="yes" />
		<tag k="layer" v="1" />
		<tag k="name" v="Baugstø" />
		<tag k="ssr:date" v="2019-12-27" />
		<tag k="ssr:gruppe" v="samferdselsanlegg" />
		<tag k="ssr:hovedgruppe" v="infrastruktur" />
		<tag k="ssr:stedsnr" v="168824" />
		<tag k="ssr:type" v="bru" />
	</node>
	<node lat="59.89936666395929" lon="6.014069443056871" id="-29588">
		<tag k="name" v="Myklebustdalen" />
		<tag k="natural" v="valley" />
		<tag k="place" v="locality" />
		<tag k="ssr:date" v="2019-12-27" />
		<tag k="ssr:gruppe" v="senkninger" />
		<tag k="ssr:hovedgruppe" v="terreng" />
		<tag k="ssr:stedsnr" v="185103" />
		<tag k="ssr:type" v="dal" />
	</node>
	<node lat="59.90354999740588" lon="5.9995444487871294" id="-29589">
		<tag k="name" v="Dalsbekken" />
		<tag k="ssr:date" v="2019-12-27" />
		<tag k="ssr:gruppe" v="rennendeVann" />
		<tag k="ssr:hovedgruppe" v="ferskvann" />
		<tag k="ssr:stedsnr" v="185108" />
		<tag k="ssr:type" v="bekk" />
		<tag k="waterway" v="stream" />
	</node>
	<node lat="59.781691668975625" lon="6.077686109957508" id="-29590">
		<tag k="name" v="Ørnaberget" />
		<tag k="natural" v="hill" />
		<tag k="place" v="locality" />
		<tag k="ssr:date" v="2019-12-27" />
		<tag k="ssr:gruppe" v="høyder" />
		<tag k="ssr:hovedgruppe" v="terreng" />
		<tag k="ssr:stedsnr" v="185303" />
		<tag k="ssr:type" v="berg" />
	</node>
	<node lat="59.77583610919691" lon="5.862505554598093" id="-29591">
		<tag k="fixme" v="consider place=hamlet" />
		<tag k="name" v="Leirvika" />
		<tag k="place" v="farm" />
		<tag k="ssr:date" v="2019-12-27" />
		<tag k="ssr:gruppe" v="gardsbebyggelse" />
		<tag k="ssr:hovedgruppe" v="bebyggelse" />
		<tag k="ssr:stedsnr" v="185321" />
		<tag k="ssr:type" v="gard" />
	</node>
	<node lat="59.89755278171994" lon="6.111258335305098" id="-29592">
		<tag k="historic" v="shieling" />
		<tag k="name" v="Grøningen" />
		<tag k="place" v="isolated_dwelling" />
		<tag k="ssr:date" v="2019-12-27" />
		<tag k="ssr:gruppe" v="gardsbebyggelse" />
		<tag k="ssr:hovedgruppe" v="bebyggelse" />
		<tag k="ssr:stedsnr" v="185089" />
		<tag k="ssr:type" v="seterStøl" />
	</node>
	<node lat="59.731321227289506" lon="5.692473303549859" id="-29593">
		<tag k="fixme" v="consider place=hamlet" />
		<tag k="name" v="Dale" />
		<tag k="place" v="farm" />
		<tag k="ssr:date" v="2019-12-27" />
		<tag k="ssr:gruppe" v="gardsbebyggelse" />
		<tag k="ssr:hovedgruppe" v="bebyggelse" />
		<tag k="ssr:stedsnr" v="185091" />
		<tag k="ssr:type" v="gard" />
	</node>
	<node lat="59.73854178488244" lon="5.707019172286083" id="-29594">
		<tag k="alt_name" v="Fjelberg" />
		<tag k="amenity" v="place_of_worship" />
		<tag k="denomination" v="lutheran" />
		<tag k="name" v="Fjelberg kyrkje" />
		<tag k="religion" v="christian" />
		<tag k="ssr:date" v="2021-02-08" />
		<tag k="ssr:gruppe" v="kulturinstitusjoner" />
		<tag k="ssr:hovedgruppe" v="kultur" />
		<tag k="ssr:stedsnr" v="185095" />
		<tag k="ssr:type" v="kirke" />
	</node>
	<node lat="59.743473751465984" lon="5.784494594273551" id="-29595">
		<tag k="alt_name" v="Svanevika;Svanevik" />
		<tag k="fixme" v="consider place=hamlet" />
		<tag k="name" v="Svinavik" />
		<tag k="place" v="farm" />
		<tag k="ssr:date" v="2019-12-27" />
		<tag k="ssr:gruppe" v="gardsbebyggelse" />
		<tag k="ssr:hovedgruppe" v="bebyggelse" />
		<tag k="ssr:stedsnr" v="185101" />
		<tag k="ssr:type" v="gard" />
	</node>
	<node lat="59.80979999631934" lon="5.937799997909515" id="-29596">
		<tag k="fixme" v="consider natural=peak for the most distinct mountains in the district" />
		<tag k="name" v="Holmedalsfjellet" />
		<tag k="natural" v="hill" />
		<tag k="place" v="locality" />
		<tag k="ssr:date" v="2019-12-27" />
		<tag k="ssr:gruppe" v="høyder" />
		<tag k="ssr:hovedgruppe" v="terreng" />
		<tag k="ssr:stedsnr" v="185234" />
		<tag k="ssr:type" v="ås" />
	</node>
	<node lat="59.96701285667799" lon="6.0931819536203164" id="-29597">
		<tag k="name" v="Prestavatnet" />
		<tag k="natural" v="water" />
		<tag k="ssr:date" v="2019-12-27" />
		<tag k="ssr:gruppe" v="stilleståendeVann" />
		<tag k="ssr:hovedgruppe" v="ferskvann" />
		<tag k="ssr:stedsnr" v="185433" />
		<tag k="ssr:type" v="tjern" />
	</node>
	<node lat="59.96523888676405" lon="6.101936117284872" id="-29598">
		<tag k="name" v="Geitabudalen" />
		<tag k="natural" v="valley" />
		<tag k="place" v="locality" />
		<tag k="ssr:date" v="2019-12-27" />
		<tag k="ssr:gruppe" v="senkninger" />
		<tag k="ssr:hovedgruppe" v="terreng" />
		<tag k="ssr:stedsnr" v="185436" />
		<tag k="ssr:type" v="dal" />
	</node>
	<node lat="59.99788055593744" lon="5.8289472201465475" id="-29599">
		<tag k="fixme" v="consider natural=peak for the most distinct mountains in the district" />
		<tag k="name" v="Egga" />
		<tag k="natural" v="hill" />
		<tag k="place" v="locality" />
		<tag k="ssr:date" v="2019-12-27" />
		<tag k="ssr:gruppe" v="høyder" />
		<tag k="ssr:hovedgruppe" v="terreng" />
		<tag k="ssr:stedsnr" v="185637" />
		<tag k="ssr:type" v="ås" />
	</node>
	<node lat="59.99230596750399" lon="5.835639796873397" id="-29600">
		<tag k="name" v="Lønarhaugen" />
		<tag k="natural" v="hill" />
		<tag k="place" v="locality" />
		<tag k="ssr:date" v="2019-12-27" />
		<tag k="ssr:gruppe" v="høyder" />
		<tag k="ssr:hovedgruppe" v="terreng" />
		<tag k="ssr:stedsnr" v="185644" />
		<tag k="ssr:type" v="haug" />
	</node>
	<node lat="59.947125004095234" lon="6.034669440221279" id="-29601">
		<tag k="fixme" v="consider natural=peak for the most distinct mountains in the district" />
		<tag k="name" v="Botnarusta" />
		<tag k="natural" v="hill" />
		<tag k="place" v="locality" />
		<tag k="ssr:date" v="2019-12-27" />
		<tag k="ssr:gruppe" v="høyder" />
		<tag k="ssr:hovedgruppe" v="terreng" />
		<tag k="ssr:stedsnr" v="186021" />
		<tag k="ssr:type" v="ås" />
	</node>
	<node lat="59.93332777743927" lon="5.962044442506622" id="-29602">
		<tag k="alt_name" v="Kåredalen" />
		<tag k="name" v="Kåradalen" />
		<tag k="natural" v="valley" />
		<tag k="place" v="locality" />
		<tag k="ssr:date" v="2019-12-27" />
		<tag k="ssr:gruppe" v="senkninger" />
		<tag k="ssr:hovedgruppe" v="terreng" />
		<tag k="ssr:stedsnr" v="186041" />
		<tag k="ssr:type" v="dal" />
	</node>
	<node lat="59.925925002588635" lon="6.0419000017187425" id="-29603">
		<tag k="fixme" v="consider natural=peak for the most distinct mountains in the district" />
		<tag k="name" v="Kvannto" />
		<tag k="natural" v="hill" />
		<tag k="place" v="locality" />
		<tag k="ssr:date" v="2019-12-27" />
		<tag k="ssr:gruppe" v="høyder" />
		<tag k="ssr:hovedgruppe" v="terreng" />
		<tag k="ssr:stedsnr" v="186048" />
		<tag k="ssr:type" v="fjell" />
	</node>
	<node lat="60.0883293070405" lon="6.317784127956688" id="-29604">
		<tag k="name" v="Botnavatnet" />
		<tag k="natural" v="water" />
		<tag k="ssr:date" v="2020-04-16" />
		<tag k="ssr:gruppe" v="stilleståendeVann" />
		<tag k="ssr:hovedgruppe" v="ferskvann" />
		<tag k="ssr:stedsnr" v="186113" />
		<tag k="ssr:type" v="tjern" />
	</node>
	<node lat="59.89287500121053" lon="6.159549993976414" id="-29605">
		<tag k="name" v="Underlihaugen" />
		<tag k="natural" v="hill" />
		<tag k="place" v="locality" />
		<tag k="ssr:date" v="2019-12-27" />
		<tag k="ssr:gruppe" v="høyder" />
		<tag k="ssr:hovedgruppe" v="terreng" />
		<tag k="ssr:stedsnr" v="186119" />
		<tag k="ssr:type" v="haug" />
	</node>
	<node lat="59.91217778007266" lon="6.03036111602846" id="-29606">
		<tag k="name" v="Grutlebekken" />
		<tag k="ssr:date" v="2019-12-27" />
		<tag k="ssr:gruppe" v="rennendeVann" />
		<tag k="ssr:hovedgruppe" v="ferskvann" />
		<tag k="ssr:stedsnr" v="186080" />
		<tag k="ssr:type" v="bekk" />
		<tag k="waterway" v="stream" />
	</node>
	<node lat="60.15220833491006" lon="6.293700002384186" id="-29607">
		<tag k="fixme" v="consider natural=peak for the most distinct mountains in the district" />
		<tag k="name" v="Jeskos" />
		<tag k="natural" v="hill" />
		<tag k="place" v="locality" />
		<tag k="ssr:date" v="2019-12-27" />
		<tag k="ssr:gruppe" v="høyder" />
		<tag k="ssr:hovedgruppe" v="terreng" />
		<tag k="ssr:stedsnr" v="186211" />
		<tag k="ssr:type" v="ås" />
	</node>
	<node lat="60.16556678627562" lon="6.29386377068467" id="-29608">
		<tag k="fixme" v="consider place=hamlet" />
		<tag k="name" v="Flatebø" />
		<tag k="place" v="farm" />
		<tag k="ssr:date" v="2019-12-27" />
		<tag k="ssr:gruppe" v="gardsbebyggelse" />
		<tag k="ssr:hovedgruppe" v="bebyggelse" />
		<tag k="ssr:stedsnr" v="186212" />
		<tag k="ssr:type" v="gard" />
	</node>
	<node lat="59.80275663742332" lon="6.013141351098829" id="-29609">
		<tag k="name" v="Steinsvatnet" />
		<tag k="natural" v="water" />
		<tag k="ssr:date" v="2019-12-27" />
		<tag k="ssr:gruppe" v="stilleståendeVann" />
		<tag k="ssr:hovedgruppe" v="ferskvann" />
		<tag k="ssr:stedsnr" v="186275" />
		<tag k="ssr:type" v="tjern" />
	</node>
	<node lat="59.8013000018144" lon="6.036905557021257" id="-29610">
		<tag k="name" v="Fatlandsnuten" />
		<tag k="natural" v="hill" />
		<tag k="place" v="locality" />
		<tag k="ssr:date" v="2019-12-27" />
		<tag k="ssr:gruppe" v="høyder" />
		<tag k="ssr:hovedgruppe" v="terreng" />
		<tag k="ssr:stedsnr" v="186277" />
		<tag k="ssr:type" v="berg" />
	</node>
	<node lat="59.846330559349035" lon="5.693991658221076" id="-29611">
		<tag k="name" v="Åsgardsvika" />
		<tag k="natural" v="bay" />
		<tag k="ssr:date" v="2019-12-27" />
		<tag k="ssr:gruppe" v="kystkontur" />
		<tag k="ssr:hovedgruppe" v="sjø" />
		<tag k="ssr:stedsnr" v="186282" />
		<tag k="ssr:type" v="vikISjø" />
	</node>
	<node lat="60.15280837500842" lon="6.3916951387109275" id="-29612">
		<tag k="name" v="Bukkaspelvatna" />
		<tag k="natural" v="water" />
		<tag k="ssr:date" v="2020-08-20" />
		<tag k="ssr:gruppe" v="stilleståendeVann" />
		<tag k="ssr:hovedgruppe" v="ferskvann" />
		<tag k="ssr:stedsnr" v="186183" />
		<tag k="ssr:type" v="gruppeAvTjern" />
		<tag k="water" v="lake" />
	</node>
	<node lat="60.137516439636585" lon="6.238485489360236" id="-29613">
		<tag k="fixme" v="consider place=hamlet" />
		<tag k="name" v="Bråtun" />
		<tag k="place" v="farm" />
		<tag k="ssr:date" v="2019-12-27" />
		<tag k="ssr:gruppe" v="gardsbebyggelse" />
		<tag k="ssr:hovedgruppe" v="bebyggelse" />
		<tag k="ssr:stedsnr" v="186193" />
		<tag k="ssr:type" v="gard" />
	</node>
	<node lat="60.13953215654214" lon="6.241476291963841" id="-29614">
		<tag k="fixme" v="consider place=hamlet" />
		<tag k="name" v="Medhus" />
		<tag k="place" v="farm" />
		<tag k="ssr:date" v="2019-12-27" />
		<tag k="ssr:gruppe" v="gardsbebyggelse" />
		<tag k="ssr:hovedgruppe" v="bebyggelse" />
		<tag k="ssr:stedsnr" v="186196" />
		<tag k="ssr:type" v="gard" />
	</node>
	<node lat="60.16290833545541" lon="6.31718889115398" id="-29615">
		<tag k="fixme" v="consider natural=peak for the most distinct mountains in the district" />
		<tag k="name" v="Steinlaupefjellet" />
		<tag k="natural" v="hill" />
		<tag k="place" v="locality" />
		<tag k="ssr:date" v="2019-12-27" />
		<tag k="ssr:gruppe" v="høyder" />
		<tag k="ssr:hovedgruppe" v="terreng" />
		<tag k="ssr:stedsnr" v="186199" />
		<tag k="ssr:type" v="ås" />
	</node>
	<node lat="59.78544166817931" lon="5.879661103742655" id="-29616">
		<tag k="fixme" v="consider natural=peak for the most distinct mountains in the district" />
		<tag k="name" v="Jonåsen" />
		<tag k="natural" v="hill" />
		<tag k="place" v="locality" />
		<tag k="ssr:date" v="2019-12-27" />
		<tag k="ssr:gruppe" v="høyder" />
		<tag k="ssr:hovedgruppe" v="terreng" />
		<tag k="ssr:stedsnr" v="186316" />
		<tag k="ssr:type" v="ås" />
	</node>
	<node lat="59.991150000589826" lon="5.852675006308979" id="-29617">
		<tag k="name" v="Limbuneset" />
		<tag k="natural" v="cape" />
		<tag k="ssr:date" v="2019-12-27" />
		<tag k="ssr:gruppe" v="kystkontur" />
		<tag k="ssr:hovedgruppe" v="sjø" />
		<tag k="ssr:stedsnr" v="186506" />
		<tag k="ssr:type" v="nesISjø" />
	</node>
	<node lat="59.981775497257736" lon="5.942972994648022" id="-29618">
		<tag k="fixme" v="consider place=hamlet" />
		<tag k="name" v="Øye" />
		<tag k="place" v="farm" />
		<tag k="ssr:date" v="2019-12-27" />
		<tag k="ssr:gruppe" v="gardsbebyggelse" />
		<tag k="ssr:hovedgruppe" v="bebyggelse" />
		<tag k="ssr:stedsnr" v="186486" />
		<tag k="ssr:type" v="gard" />
	</node>
	<node lat="59.99738611362593" lon="6.174805559001937" id="-29619">
		<tag k="fixme" v="consider natural=peak for the most distinct mountains in the district" />
		<tag k="name" v="Blåhatten" />
		<tag k="natural" v="hill" />
		<tag k="place" v="locality" />
		<tag k="ssr:date" v="2019-12-27" />
		<tag k="ssr:gruppe" v="høyder" />
		<tag k="ssr:hovedgruppe" v="terreng" />
		<tag k="ssr:stedsnr" v="186489" />
		<tag k="ssr:type" v="fjell" />
	</node>
	<node lat="60.16232777866976" lon="6.026250006577836" id="-29620">
		<tag k="name" v="Ospevikane" />
		<tag k="natural" v="bay" />
		<tag k="ssr:date" v="2019-12-27" />
		<tag k="ssr:gruppe" v="kystkontur" />
		<tag k="ssr:hovedgruppe" v="sjø" />
		<tag k="ssr:stedsnr" v="186615" />
		<tag k="ssr:type" v="vikISjø" />
	</node>
	<node lat="59.964413891983945" lon="5.942369441157911" id="-29621">
		<tag k="name" v="Kvalen" />
		<tag k="natural" v="cape" />
		<tag k="ssr:date" v="2019-12-27" />
		<tag k="ssr:gruppe" v="kystkontur" />
		<tag k="ssr:hovedgruppe" v="sjø" />
		<tag k="ssr:stedsnr" v="186525" />
		<tag k="ssr:type" v="nesISjø" />
	</node>
	<node lat="59.962244447450566" lon="5.891266669189377" id="-29622">
		<tag k="fixme" v="consider natural=peak for the most distinct mountains in the district" />
		<tag k="name" v="Eidsvikåsen" />
		<tag k="natural" v="hill" />
		<tag k="place" v="locality" />
		<tag k="ssr:date" v="2019-12-27" />
		<tag k="ssr:gruppe" v="høyder" />
		<tag k="ssr:hovedgruppe" v="terreng" />
		<tag k="ssr:stedsnr" v="186533" />
		<tag k="ssr:type" v="ås" />
	</node>
	<node lat="59.96748884685398" lon="5.928504502842424" id="-29623">
		<tag k="fixme" v="consider place=hamlet" />
		<tag k="name" v="Barmen" />
		<tag k="place" v="farm" />
		<tag k="ssr:date" v="2019-12-27" />
		<tag k="ssr:gruppe" v="gardsbebyggelse" />
		<tag k="ssr:hovedgruppe" v="bebyggelse" />
		<tag k="ssr:stedsnr" v="186534" />
		<tag k="ssr:type" v="gard" />
	</node>
	<node lat="60.10625491162197" lon="6.006736641123435" id="-29624">
		<tag k="fixme" v="consider place=hamlet" />
		<tag k="name" v="Gjerde" />
		<tag k="place" v="farm" />
		<tag k="ssr:date" v="2019-12-27" />
		<tag k="ssr:gruppe" v="gardsbebyggelse" />
		<tag k="ssr:hovedgruppe" v="bebyggelse" />
		<tag k="ssr:stedsnr" v="186924" />
		<tag k="ssr:type" v="gard" />
	</node>
	<node lat="60.05933333485437" lon="6.252141668449867" id="-29625">
		<tag k="name" v="Bakdalen" />
		<tag k="natural" v="valley" />
		<tag k="place" v="locality" />
		<tag k="ssr:date" v="2019-12-27" />
		<tag k="ssr:gruppe" v="senkninger" />
		<tag k="ssr:hovedgruppe" v="terreng" />
		<tag k="ssr:stedsnr" v="187079" />
		<tag k="ssr:type" v="botn" />
	</node>
	<node lat="60.067523459676984" lon="6.319574383206341" id="-29626">
		<tag k="name" v="Holmavatnet" />
		<tag k="natural" v="water" />
		<tag k="ssr:date" v="2019-12-27" />
		<tag k="ssr:gruppe" v="stilleståendeVann" />
		<tag k="ssr:hovedgruppe" v="ferskvann" />
		<tag k="ssr:stedsnr" v="187089" />
		<tag k="ssr:type" v="tjern" />
	</node>
	<node lat="60.00827499721529" lon="5.7243416688941995" id="-29627">
		<tag k="alt_name" v="Gjerdsheimholmane" />
		<tag k="name" v="Gjersheimsholmane" />
		<tag k="place" v="islet" />
		<tag k="ssr:date" v="2019-12-27" />
		<tag k="ssr:gruppe" v="kystkontur" />
		<tag k="ssr:hovedgruppe" v="sjø" />
		<tag k="ssr:stedsnr" v="187677" />
		<tag k="ssr:type" v="holmeISjø" />
	</node>
	<node lat="60.12318611297344" lon="6.050583330911666" id="-29628">
		<tag k="alt_name" v="Ytterstø" />
		<tag k="name" v="Ytrestød" />
		<tag k="place" v="locality" />
		<tag k="ssr:date" v="2019-12-27" />
		<tag k="ssr:gruppe" v="gardsbebyggelse" />
		<tag k="ssr:hovedgruppe" v="bebyggelse" />
		<tag k="ssr:stedsnr" v="187871" />
		<tag k="ssr:type" v="byggForJordbrukFiskeOgFangst" />
	</node>
	<node lat="59.94142222296755" lon="5.825947220573475" id="-29629">
		<tag k="name" v="Urdadalen" />
		<tag k="natural" v="valley" />
		<tag k="place" v="locality" />
		<tag k="ssr:date" v="2019-12-27" />
		<tag k="ssr:gruppe" v="senkninger" />
		<tag k="ssr:hovedgruppe" v="terreng" />
		<tag k="ssr:stedsnr" v="267097" />
		<tag k="ssr:type" v="dal" />
	</node>
	<node lat="60.11334166451509" lon="5.910741668659791" id="-29630">
		<tag k="name" v="Sagholmen" />
		<tag k="place" v="farm" />
		<tag k="ssr:date" v="2019-12-27" />
		<tag k="ssr:gruppe" v="gardsbebyggelse" />
		<tag k="ssr:hovedgruppe" v="bebyggelse" />
		<tag k="ssr:stedsnr" v="267040" />
		<tag k="ssr:type" v="bruk" />
	</node>
	<node lat="60.01615555722634" lon="5.825672228234441" id="-29631">
		<tag k="name" v="Hauganeset" />
		<tag k="natural" v="cape" />
		<tag k="ssr:date" v="2019-12-27" />
		<tag k="ssr:gruppe" v="kystkontur" />
		<tag k="ssr:hovedgruppe" v="sjø" />
		<tag k="ssr:stedsnr" v="267196" />
		<tag k="ssr:type" v="nesISjø" />
	</node>
	<node lat="60.000624996172746" lon="5.866563893336618" id="-29632">
		<tag k="name" v="Støaneset" />
		<tag k="natural" v="cape" />
		<tag k="ssr:date" v="2019-12-27" />
		<tag k="ssr:gruppe" v="kystkontur" />
		<tag k="ssr:hovedgruppe" v="sjø" />
		<tag k="ssr:stedsnr" v="268149" />
		<tag k="ssr:type" v="nesISjø" />
	</node>
	<node lat="59.91920555631213" lon="5.790894446105971" id="-29633">
		<tag k="alt_name" v="Kroa" />
		<tag k="name" v="Kro" />
		<tag k="place" v="farm" />
		<tag k="ssr:date" v="2019-12-27" />
		<tag k="ssr:gruppe" v="gardsbebyggelse" />
		<tag k="ssr:hovedgruppe" v="bebyggelse" />
		<tag k="ssr:stedsnr" v="206136" />
		<tag k="ssr:type" v="bruk" />
	</node>
	<node lat="60.00152777453691" lon="5.981666672814754" id="-29634">
		<tag k="name" v="Kassatå" />
		<tag k="natural" v="cape" />
		<tag k="ssr:date" v="2019-12-27" />
		<tag k="ssr:gruppe" v="kystkontur" />
		<tag k="ssr:hovedgruppe" v="sjø" />
		<tag k="ssr:stedsnr" v="206110" />
		<tag k="ssr:type" v="nesISjø" />
	</node>
	<node lat="60.08293611558649" lon="5.922061112208677" id="-29635">
		<tag k="name" v="Grønevikneset" />
		<tag k="natural" v="cape" />
		<tag k="ssr:date" v="2019-12-27" />
		<tag k="ssr:gruppe" v="kystkontur" />
		<tag k="ssr:hovedgruppe" v="sjø" />
		<tag k="ssr:stedsnr" v="206081" />
		<tag k="ssr:type" v="nesISjø" />
	</node>
	<node lat="59.86056389000756" lon="5.9863027750289834" id="-29636">
		<tag k="name" v="Træa" />
		<tag k="place" v="locality" />
		<tag k="ssr:date" v="2019-12-27" />
		<tag k="ssr:gruppe" v="dyrkamark" />
		<tag k="ssr:hovedgruppe" v="markslag" />
		<tag k="ssr:stedsnr" v="219570" />
		<tag k="ssr:type" v="utmark" />
	</node>
	<node lat="59.86342222170014" lon="5.967594438578769" id="-29637">
		<tag k="name" v="Skarhaugen" />
		<tag k="natural" v="hill" />
		<tag k="place" v="locality" />
		<tag k="ssr:date" v="2019-12-27" />
		<tag k="ssr:gruppe" v="høyder" />
		<tag k="ssr:hovedgruppe" v="terreng" />
		<tag k="ssr:stedsnr" v="219571" />
		<tag k="ssr:type" v="haug" />
	</node>
	<node lat="59.85563055863367" lon="5.959772214036106" id="-29638">
		<tag k="name" v="Stølslia" />
		<tag k="natural" v="slope" />
		<tag k="place" v="locality" />
		<tag k="ssr:date" v="2019-12-27" />
		<tag k="ssr:gruppe" v="skråninger" />
		<tag k="ssr:hovedgruppe" v="terreng" />
		<tag k="ssr:stedsnr" v="219576" />
		<tag k="ssr:type" v="li" />
	</node>
	<node lat="59.88116388592497" lon="5.963758326484704" id="-29639">
		<tag k="name" v="Teinevadholmen" />
		<tag k="place" v="islet" />
		<tag k="ssr:date" v="2019-12-27" />
		<tag k="ssr:gruppe" v="ferskvannskontur" />
		<tag k="ssr:hovedgruppe" v="ferskvann" />
		<tag k="ssr:stedsnr" v="219581" />
		<tag k="ssr:type" v="holme" />
	</node>
	<node lat="59.87608888800195" lon="5.963747229436533" id="-29640">
		<tag k="name" v="Heielva" />
		<tag k="ssr:date" v="2019-12-27" />
		<tag k="ssr:gruppe" v="rennendeVann" />
		<tag k="ssr:hovedgruppe" v="ferskvann" />
		<tag k="ssr:stedsnr" v="219585" />
		<tag k="ssr:type" v="elv" />
		<tag k="waterway" v="river" />
	</node>
	<node lat="59.77510555843653" lon="5.974838882628391" id="-29641">
		<tag k="name" v="Kleivane" />
		<tag k="natural" v="slope" />
		<tag k="place" v="locality" />
		<tag k="ssr:date" v="2019-12-27" />
		<tag k="ssr:gruppe" v="skråninger" />
		<tag k="ssr:hovedgruppe" v="terreng" />
		<tag k="ssr:stedsnr" v="220119" />
		<tag k="ssr:type" v="bakke" />
	</node>
	<node lat="59.74075277863048" lon="5.742308336933526" id="-29642">
		<tag k="name" v="Stølshaugen" />
		<tag k="natural" v="hill" />
		<tag k="place" v="locality" />
		<tag k="ssr:date" v="2019-12-27" />
		<tag k="ssr:gruppe" v="høyder" />
		<tag k="ssr:hovedgruppe" v="terreng" />
		<tag k="ssr:stedsnr" v="220125" />
		<tag k="ssr:type" v="haug" />
	</node>
	<node lat="59.84990555243616" lon="5.787466663222528" id="-29643">
		<tag k="name" v="Storehammaren" />
		<tag k="natural" v="hill" />
		<tag k="place" v="locality" />
		<tag k="ssr:date" v="2019-12-27" />
		<tag k="ssr:gruppe" v="høyder" />
		<tag k="ssr:hovedgruppe" v="terreng" />
		<tag k="ssr:stedsnr" v="219874" />
		<tag k="ssr:type" v="haug" />
	</node>
	<node lat="59.78363611403091" lon="5.8731694493302395" id="-29644">
		<tag k="name" v="Høgestølen" />
		<tag k="natural" v="hill" />
		<tag k="place" v="locality" />
		<tag k="ssr:date" v="2019-12-27" />
		<tag k="ssr:gruppe" v="høyder" />
		<tag k="ssr:hovedgruppe" v="terreng" />
		<tag k="ssr:stedsnr" v="219881" />
		<tag k="ssr:type" v="haug" />
	</node>
	<node lat="60.17169444701152" lon="6.331716660422629" id="-29645">
		<tag k="name" v="Heia" />
		<tag k="natural" v="hill" />
		<tag k="place" v="locality" />
		<tag k="ssr:date" v="2019-12-27" />
		<tag k="ssr:gruppe" v="høyder" />
		<tag k="ssr:hovedgruppe" v="terreng" />
		<tag k="ssr:stedsnr" v="219892" />
		<tag k="ssr:type" v="hei" />
	</node>
	<node lat="59.754209501768976" lon="5.8368909356449805" id="-29646">
		<tag k="name" v="Holmasund" />
		<tag k="natural" v="strait" />
		<tag k="ssr:date" v="2019-12-27" />
		<tag k="ssr:gruppe" v="kystkontur" />
		<tag k="ssr:hovedgruppe" v="sjø" />
		<tag k="ssr:stedsnr" v="220023" />
		<tag k="ssr:type" v="sundISjø" />
	</node>
	<node lat="59.752069447389495" lon="5.831497222264096" id="-29647">
		<tag k="fixme" v="consider seamark:type=rock or natural=shoal" />
		<tag k="name" v="Bukkaskjeret" />
		<tag k="place" v="islet" />
		<tag k="ssr:date" v="2019-12-27" />
		<tag k="ssr:gruppe" v="grunnerISjø" />
		<tag k="ssr:hovedgruppe" v="sjø" />
		<tag k="ssr:stedsnr" v="220025" />
		<tag k="ssr:type" v="skjærISjø" />
	</node>
	<node lat="59.81587500432271" lon="5.647144447056277" id="-29648">
		<tag k="name" v="Vetla Kongsvika" />
		<tag k="natural" v="bay" />
		<tag k="ssr:date" v="2019-12-27" />
		<tag k="ssr:gruppe" v="kystkontur" />
		<tag k="ssr:hovedgruppe" v="sjø" />
		<tag k="ssr:stedsnr" v="220031" />
		<tag k="ssr:type" v="vikISjø" />
	</node>
	<node lat="59.7816111131759" lon="5.785833336869365" id="-29649">
		<tag k="name" v="Skatehatt" />
		<tag k="place" v="locality" />
		<tag k="ssr:date" v="2019-12-27" />
		<tag k="ssr:gruppe" v="terrengdetaljer" />
		<tag k="ssr:hovedgruppe" v="terreng" />
		<tag k="ssr:stedsnr" v="220083" />
		<tag k="ssr:type" v="annenTerrengdetalj" />
	</node>
	<node lat="60.178030927222814" lon="6.229590767460879" id="-29650">
		<tag k="name" v="Grønehaug" />
		<tag k="natural" v="hill" />
		<tag k="place" v="locality" />
		<tag k="ssr:date" v="2019-12-27" />
		<tag k="ssr:gruppe" v="høyder" />
		<tag k="ssr:hovedgruppe" v="terreng" />
		<tag k="ssr:stedsnr" v="220086" />
		<tag k="ssr:type" v="haug" />
	</node>
	<node lat="59.77211388866839" lon="5.790875006023324" id="-29651">
		<tag k="name" v="Røsskleiv" />
		<tag k="natural" v="slope" />
		<tag k="place" v="locality" />
		<tag k="ssr:date" v="2019-12-27" />
		<tag k="ssr:gruppe" v="skråninger" />
		<tag k="ssr:hovedgruppe" v="terreng" />
		<tag k="ssr:stedsnr" v="220093" />
		<tag k="ssr:type" v="li" />
	</node>
	<node lat="59.76584166974542" lon="5.824255562917728" id="-29652">
		<tag k="fixme" v="consider natural=peak for the most distinct mountains in the district" />
		<tag k="name" v="Troåsen" />
		<tag k="natural" v="hill" />
		<tag k="place" v="locality" />
		<tag k="ssr:date" v="2019-12-27" />
		<tag k="ssr:gruppe" v="høyder" />
		<tag k="ssr:hovedgruppe" v="terreng" />
		<tag k="ssr:stedsnr" v="220098" />
		<tag k="ssr:type" v="ås" />
	</node>
	<node lat="59.82514721926052" lon="5.825138889783487" id="-29653">
		<tag k="name" v="Tverrelva" />
		<tag k="ssr:date" v="2019-12-27" />
		<tag k="ssr:gruppe" v="rennendeVann" />
		<tag k="ssr:hovedgruppe" v="ferskvann" />
		<tag k="ssr:stedsnr" v="220174" />
		<tag k="ssr:type" v="elv" />
		<tag k="waterway" v="river" />
	</node>
	<node lat="60.12108611379314" lon="6.275397215699505" id="-29654">
		<tag k="name" v="Sandvika" />
		<tag k="natural" v="bay" />
		<tag k="ssr:date" v="2019-12-27" />
		<tag k="ssr:gruppe" v="kystkontur" />
		<tag k="ssr:hovedgruppe" v="sjø" />
		<tag k="ssr:stedsnr" v="220386" />
		<tag k="ssr:type" v="vikISjø" />
	</node>
	<node lat="60.11384444673371" lon="6.24628054752361" id="-29655">
		<tag k="name" v="Kovagjelet" />
		<tag k="natural" v="gorge" />
		<tag k="ssr:date" v="2019-12-27" />
		<tag k="ssr:gruppe" v="senkninger" />
		<tag k="ssr:hovedgruppe" v="terreng" />
		<tag k="ssr:stedsnr" v="220387" />
		<tag k="ssr:type" v="juv" />
	</node>
	<node lat="60.12774166885233" lon="6.2331361105109755" id="-29656">
		<tag k="name" v="Sagholmen" />
		<tag k="place" v="islet" />
		<tag k="ssr:date" v="2019-12-27" />
		<tag k="ssr:gruppe" v="kystkontur" />
		<tag k="ssr:hovedgruppe" v="sjø" />
		<tag k="ssr:stedsnr" v="220390" />
		<tag k="ssr:type" v="holmeISjø" />
	</node>
	<node lat="60.11754722128737" lon="6.249827781183657" id="-29657">
		<tag k="name" v="Koven" />
		<tag k="natural" v="valley" />
		<tag k="place" v="locality" />
		<tag k="ssr:date" v="2019-12-27" />
		<tag k="ssr:gruppe" v="senkninger" />
		<tag k="ssr:hovedgruppe" v="terreng" />
		<tag k="ssr:stedsnr" v="220396" />
		<tag k="ssr:type" v="søkk" />
	</node>
	<node lat="60.07741944494011" lon="6.103202775171229" id="-29659">
		<tag k="name" v="Taklimyr" />
		<tag k="natural" v="wetland" />
		<tag k="ssr:date" v="2019-12-27" />
		<tag k="ssr:gruppe" v="våtmark" />
		<tag k="ssr:hovedgruppe" v="markslag" />
		<tag k="ssr:stedsnr" v="220528" />
		<tag k="ssr:type" v="myr" />
	</node>
	<node lat="60.123680558056726" lon="6.203486105358701" id="-29660">
		<tag k="name" v="Gjordo" />
		<tag k="natural" v="valley" />
		<tag k="place" v="locality" />
		<tag k="ssr:date" v="2019-12-27" />
		<tag k="ssr:gruppe" v="senkninger" />
		<tag k="ssr:hovedgruppe" v="terreng" />
		<tag k="ssr:stedsnr" v="220404" />
		<tag k="ssr:type" v="botn" />
	</node>
	<node lat="60.13459999925053" lon="6.233250005895025" id="-29661">
		<tag k="name" v="Skulehushaugen" />
		<tag k="natural" v="hill" />
		<tag k="place" v="locality" />
		<tag k="ssr:date" v="2019-12-27" />
		<tag k="ssr:gruppe" v="høyder" />
		<tag k="ssr:hovedgruppe" v="terreng" />
		<tag k="ssr:stedsnr" v="220423" />
		<tag k="ssr:type" v="haug" />
	</node>
	<node lat="60.14866563837946" lon="6.200102069854053" id="-29662">
		<tag k="name" v="Vikadalstangane" />
		<tag k="natural" v="cape" />
		<tag k="ssr:date" v="2019-12-27" />
		<tag k="ssr:gruppe" v="ferskvannskontur" />
		<tag k="ssr:hovedgruppe" v="ferskvann" />
		<tag k="ssr:stedsnr" v="220427" />
		<tag k="ssr:type" v="nes" />
	</node>
	<node lat="59.86247500297978" lon="6.001569442549339" id="-29663">
		<tag k="name" v="Øykjahagen" />
		<tag k="place" v="locality" />
		<tag k="ssr:date" v="2019-12-27" />
		<tag k="ssr:gruppe" v="dyrkamark" />
		<tag k="ssr:hovedgruppe" v="markslag" />
		<tag k="ssr:stedsnr" v="220675" />
		<tag k="ssr:type" v="jorde" />
	</node>
	<node lat="60.16086666835395" lon="5.9880416692480924" id="-29664">
		<tag k="name" v="Monsvik" />
		<tag k="natural" v="bay" />
		<tag k="ssr:date" v="2019-12-27" />
		<tag k="ssr:gruppe" v="kystkontur" />
		<tag k="ssr:hovedgruppe" v="sjø" />
		<tag k="ssr:stedsnr" v="220803" />
		<tag k="ssr:type" v="vikISjø" />
	</node>
	<node lat="60.13640833672409" lon="6.059686115283883" id="-29665">
		<tag k="name" v="Kvitsandneset" />
		<tag k="natural" v="cape" />
		<tag k="ssr:date" v="2019-12-27" />
		<tag k="ssr:gruppe" v="kystkontur" />
		<tag k="ssr:hovedgruppe" v="sjø" />
		<tag k="ssr:stedsnr" v="220806" />
		<tag k="ssr:type" v="nesISjø" />
	</node>
	<node lat="60.06359722473928" lon="6.133155559753487" id="-29666">
		<tag k="name" v="Helleflotegjelet" />
		<tag k="natural" v="gorge" />
		<tag k="ssr:date" v="2019-12-27" />
		<tag k="ssr:gruppe" v="senkninger" />
		<tag k="ssr:hovedgruppe" v="terreng" />
		<tag k="ssr:stedsnr" v="220808" />
		<tag k="ssr:type" v="juv" />
	</node>
	<node lat="60.10335277628691" lon="5.982380562572752" id="-29667">
		<tag k="fixme" v="consider natural=peak for the most distinct mountains in the district" />
		<tag k="name" v="Hamrane" />
		<tag k="natural" v="hill" />
		<tag k="place" v="locality" />
		<tag k="ssr:date" v="2019-12-27" />
		<tag k="ssr:gruppe" v="høyder" />
		<tag k="ssr:hovedgruppe" v="terreng" />
		<tag k="ssr:stedsnr" v="220813" />
		<tag k="ssr:type" v="topp" />
	</node>
	<node lat="60.08027222657065" lon="5.92139444441674" id="-29668">
		<tag k="name" v="Femsteinane" />
		<tag k="natural" v="stone" />
		<tag k="ssr:date" v="2019-12-27" />
		<tag k="ssr:gruppe" v="løsmasseavsetninger" />
		<tag k="ssr:hovedgruppe" v="markslag" />
		<tag k="ssr:stedsnr" v="220816" />
		<tag k="ssr:type" v="stein" />
	</node>
	<node lat="60.03690555136332" lon="5.909522217469185" id="-29669">
		<tag k="name" v="Hellebergsvika" />
		<tag k="natural" v="bay" />
		<tag k="ssr:date" v="2019-12-27" />
		<tag k="ssr:gruppe" v="kystkontur" />
		<tag k="ssr:hovedgruppe" v="sjø" />
		<tag k="ssr:stedsnr" v="220870" />
		<tag k="ssr:type" v="vikISjø" />
	</node>
	<node lat="60.03991388602393" lon="5.915583333775028" id="-29670">
		<tag k="name" v="Hjortåsklubben" />
		<tag k="natural" v="cape" />
		<tag k="ssr:date" v="2019-12-27" />
		<tag k="ssr:gruppe" v="kystkontur" />
		<tag k="ssr:hovedgruppe" v="sjø" />
		<tag k="ssr:stedsnr" v="220872" />
		<tag k="ssr:type" v="nesISjø" />
	</node>
	<node lat="59.800127774292804" lon="5.9702333372381196" id="-29671">
		<tag k="name" v="Mjelkevika" />
		<tag k="natural" v="bay" />
		<tag k="ssr:date" v="2019-12-27" />
		<tag k="ssr:gruppe" v="kystkontur" />
		<tag k="ssr:hovedgruppe" v="sjø" />
		<tag k="ssr:stedsnr" v="220573" />
		<tag k="ssr:type" v="vikISjø" />
	</node>
	<node lat="60.01401389189006" lon="6.036433328556713" id="-29672">
		<tag k="name" v="Myrhovda" />
		<tag k="natural" v="hill" />
		<tag k="place" v="locality" />
		<tag k="ssr:date" v="2019-12-27" />
		<tag k="ssr:gruppe" v="høyder" />
		<tag k="ssr:hovedgruppe" v="terreng" />
		<tag k="ssr:stedsnr" v="220702" />
		<tag k="ssr:type" v="haug" />
	</node>
	<node lat="60.02338333694023" lon="6.047722220172822" id="-29673">
		<tag k="name" v="Heggdal" />
		<tag k="natural" v="valley" />
		<tag k="place" v="locality" />
		<tag k="ssr:date" v="2019-12-27" />
		<tag k="ssr:gruppe" v="senkninger" />
		<tag k="ssr:hovedgruppe" v="terreng" />
		<tag k="ssr:stedsnr" v="220704" />
		<tag k="ssr:type" v="dal" />
	</node>
	<node lat="59.965736113439135" lon="6.002049999664987" id="-29674">
		<tag k="name" v="Hundebærghaugen" />
		<tag k="natural" v="hill" />
		<tag k="place" v="locality" />
		<tag k="ssr:date" v="2019-12-27" />
		<tag k="ssr:gruppe" v="høyder" />
		<tag k="ssr:hovedgruppe" v="terreng" />
		<tag k="ssr:stedsnr" v="220706" />
		<tag k="ssr:type" v="haug" />
	</node>
	<node lat="59.9769000020746" lon="6.043238887962492" id="-29675">
		<tag k="name" v="Njoteslettene" />
		<tag k="natural" v="hill" />
		<tag k="place" v="locality" />
		<tag k="ssr:date" v="2019-12-27" />
		<tag k="ssr:gruppe" v="høyder" />
		<tag k="ssr:hovedgruppe" v="terreng" />
		<tag k="ssr:stedsnr" v="220710" />
		<tag k="ssr:type" v="berg" />
	</node>
	<node lat="60.028780553265925" lon="6.015574997755746" id="-29676">
		<tag k="name" v="Rugledalen" />
		<tag k="natural" v="valley" />
		<tag k="place" v="locality" />
		<tag k="ssr:date" v="2019-12-27" />
		<tag k="ssr:gruppe" v="senkninger" />
		<tag k="ssr:hovedgruppe" v="terreng" />
		<tag k="ssr:stedsnr" v="220724" />
		<tag k="ssr:type" v="dal" />
	</node>
	<node lat="60.02787221980426" lon="6.039544440622621" id="-29677">
		<tag k="name" v="Strandalegene" />
		<tag k="place" v="locality" />
		<tag k="ssr:date" v="2019-12-27" />
		<tag k="ssr:gruppe" v="terrengdetaljer" />
		<tag k="ssr:hovedgruppe" v="terreng" />
		<tag k="ssr:stedsnr" v="220726" />
		<tag k="ssr:type" v="annenTerrengdetalj" />
	</node>
	<node lat="60.138913886769956" lon="5.965702781898436" id="-29678">
		<tag k="name" v="Sveistongskaret" />
		<tag k="natural" v="valley" />
		<tag k="place" v="locality" />
		<tag k="ssr:date" v="2019-12-27" />
		<tag k="ssr:gruppe" v="senkninger" />
		<tag k="ssr:hovedgruppe" v="terreng" />
		<tag k="ssr:stedsnr" v="220772" />
		<tag k="ssr:type" v="skar" />
	</node>
	<node lat="60.12709444812141" lon="6.046727777670132" id="-29679">
		<tag k="name" v="Storskor" />
		<tag k="place" v="locality" />
		<tag k="ssr:date" v="2020-02-19" />
		<tag k="ssr:gruppe" v="terrengdetaljer" />
		<tag k="ssr:hovedgruppe" v="terreng" />
		<tag k="ssr:stedsnr" v="220774" />
		<tag k="ssr:type" v="hylle" />
	</node>
	<node lat="59.787333330766934" lon="6.105372214738321" id="-29680">
		<tag k="name" v="Klubben" />
		<tag k="natural" v="cape" />
		<tag k="ssr:date" v="2019-12-27" />
		<tag k="ssr:gruppe" v="kystkontur" />
		<tag k="ssr:hovedgruppe" v="sjø" />
		<tag k="ssr:stedsnr" v="220775" />
		<tag k="ssr:type" v="nesISjø" />
	</node>
	<node lat="60.03074722380298" lon="6.083672213767529" id="-29681">
		<tag k="historic" v="shieling" />
		<tag k="name" v="Nipestølen" />
		<tag k="place" v="isolated_dwelling" />
		<tag k="ssr:date" v="2019-12-27" />
		<tag k="ssr:gruppe" v="gardsbebyggelse" />
		<tag k="ssr:hovedgruppe" v="bebyggelse" />
		<tag k="ssr:stedsnr" v="220786" />
		<tag k="ssr:type" v="seterStøl" />
	</node>
	<node lat="60.12961389350783" lon="6.05860556157175" id="-29682">
		<tag k="name" v="Vikane" />
		<tag k="natural" v="bay" />
		<tag k="ssr:date" v="2019-12-27" />
		<tag k="ssr:gruppe" v="kystkontur" />
		<tag k="ssr:hovedgruppe" v="sjø" />
		<tag k="ssr:stedsnr" v="220788" />
		<tag k="ssr:type" v="vikISjø" />
	</node>
	<node lat="60.118455551068045" lon="6.069099991999077" id="-29683">
		<tag k="name" v="Terneholmen" />
		<tag k="place" v="islet" />
		<tag k="ssr:date" v="2019-12-27" />
		<tag k="ssr:gruppe" v="kystkontur" />
		<tag k="ssr:hovedgruppe" v="sjø" />
		<tag k="ssr:stedsnr" v="220791" />
		<tag k="ssr:type" v="holmeISjø" />
	</node>
	<node lat="59.86188333250173" lon="5.730152776917854" id="-29684">
		<tag k="name" v="Naustvik" />
		<tag k="natural" v="bay" />
		<tag k="ssr:date" v="2019-12-27" />
		<tag k="ssr:gruppe" v="kystkontur" />
		<tag k="ssr:hovedgruppe" v="sjø" />
		<tag k="ssr:stedsnr" v="220917" />
		<tag k="ssr:type" v="vikISjø" />
	</node>
	<node lat="59.82181666871938" lon="5.875830555033876" id="-29685">
		<tag k="name" v="Øyrane" />
		<tag k="place" v="locality" />
		<tag k="ssr:date" v="2019-12-27" />
		<tag k="ssr:gruppe" v="dyrkamark" />
		<tag k="ssr:hovedgruppe" v="markslag" />
		<tag k="ssr:stedsnr" v="220975" />
		<tag k="ssr:type" v="jorde" />
	</node>
	<node lat="59.82218055662357" lon="5.910124998375838" id="-29686">
		<tag k="name" v="Storemyr" />
		<tag k="natural" v="wetland" />
		<tag k="ssr:date" v="2019-12-27" />
		<tag k="ssr:gruppe" v="våtmark" />
		<tag k="ssr:hovedgruppe" v="markslag" />
		<tag k="ssr:stedsnr" v="220976" />
		<tag k="ssr:type" v="myr" />
	</node>
	<node lat="60.106002774164715" lon="6.035302774105886" id="-29687">
		<tag k="name" v="Oldervika" />
		<tag k="natural" v="bay" />
		<tag k="ssr:date" v="2019-12-27" />
		<tag k="ssr:gruppe" v="kystkontur" />
		<tag k="ssr:hovedgruppe" v="sjø" />
		<tag k="ssr:stedsnr" v="220977" />
		<tag k="ssr:type" v="vikISjø" />
	</node>
	<node lat="60.105441666548074" lon="6.035625002738127" id="-29688">
		<tag k="name" v="Olderviksnes" />
		<tag k="natural" v="cape" />
		<tag k="ssr:date" v="2019-12-27" />
		<tag k="ssr:gruppe" v="kystkontur" />
		<tag k="ssr:hovedgruppe" v="sjø" />
		<tag k="ssr:stedsnr" v="220978" />
		<tag k="ssr:type" v="nesISjø" />
	</node>
	<node lat="60.09453611453244" lon="6.009191673224547" id="-29689">
		<tag k="fixme" v="consider seamark:type=rock or natural=shoal" />
		<tag k="name" v="Liaskjeret" />
		<tag k="place" v="islet" />
		<tag k="ssr:date" v="2019-12-27" />
		<tag k="ssr:gruppe" v="grunnerISjø" />
		<tag k="ssr:hovedgruppe" v="sjø" />
		<tag k="ssr:stedsnr" v="220980" />
		<tag k="ssr:type" v="skjærISjø" />
	</node>
	<node lat="59.937174999490516" lon="5.875761114008251" id="-29690">
		<tag k="name" v="Kleivadalen" />
		<tag k="natural" v="valley" />
		<tag k="place" v="locality" />
		<tag k="ssr:date" v="2019-12-27" />
		<tag k="ssr:gruppe" v="senkninger" />
		<tag k="ssr:hovedgruppe" v="terreng" />
		<tag k="ssr:stedsnr" v="220981" />
		<tag k="ssr:type" v="dal" />
	</node>
	<node lat="59.93329722629353" lon="5.870555549370024" id="-29691">
		<tag k="historic" v="shieling" />
		<tag k="name" v="Stølen" />
		<tag k="place" v="isolated_dwelling" />
		<tag k="ssr:date" v="2019-12-27" />
		<tag k="ssr:gruppe" v="gardsbebyggelse" />
		<tag k="ssr:hovedgruppe" v="bebyggelse" />
		<tag k="ssr:stedsnr" v="220982" />
		<tag k="ssr:type" v="seterStøl" />
	</node>
	<node lat="59.92693056008068" lon="5.823494446808939" id="-29692">
		<tag k="name" v="Tereberg" />
		<tag k="natural" v="hill" />
		<tag k="place" v="locality" />
		<tag k="ssr:date" v="2019-12-27" />
		<tag k="ssr:gruppe" v="høyder" />
		<tag k="ssr:hovedgruppe" v="terreng" />
		<tag k="ssr:stedsnr" v="220983" />
		<tag k="ssr:type" v="berg" />
	</node>
	<node lat="59.92067221820211" lon="5.8586555643544145" id="-29693">
		<tag k="name" v="Øykjastøl" />
		<tag k="natural" v="ridge" />
		<tag k="place" v="locality" />
		<tag k="ssr:date" v="2019-12-27" />
		<tag k="ssr:gruppe" v="høyder" />
		<tag k="ssr:hovedgruppe" v="terreng" />
		<tag k="ssr:stedsnr" v="220991" />
		<tag k="ssr:type" v="rygg" />
	</node>
	<node lat="59.99117777549487" lon="5.830316659181196" id="-29694">
		<tag k="name" v="Purkhaug" />
		<tag k="natural" v="hill" />
		<tag k="place" v="locality" />
		<tag k="ssr:date" v="2019-12-27" />
		<tag k="ssr:gruppe" v="høyder" />
		<tag k="ssr:hovedgruppe" v="terreng" />
		<tag k="ssr:stedsnr" v="221802" />
		<tag k="ssr:type" v="haug" />
	</node>
	<node lat="60.02430277999733" lon="5.876786119120991" id="-29695">
		<tag k="name" v="Korskleiv" />
		<tag k="natural" v="valley" />
		<tag k="place" v="locality" />
		<tag k="ssr:date" v="2019-12-27" />
		<tag k="ssr:gruppe" v="senkninger" />
		<tag k="ssr:hovedgruppe" v="terreng" />
		<tag k="ssr:stedsnr" v="221812" />
		<tag k="ssr:type" v="skar" />
	</node>
	<node lat="59.79379166653649" lon="5.727213885295197" id="-29696">
		<tag k="name" v="Videvoll" />
		<tag k="place" v="farm" />
		<tag k="ssr:date" v="2019-12-27" />
		<tag k="ssr:gruppe" v="gardsbebyggelse" />
		<tag k="ssr:hovedgruppe" v="bebyggelse" />
		<tag k="ssr:stedsnr" v="225728" />
		<tag k="ssr:type" v="bruk" />
	</node>
	<node lat="59.8222472179462" lon="5.760363884829996" id="-29697">
		<tag k="alt_name" v="Trollskjæret" />
		<tag k="fixme" v="consider seamark:type=rock or natural=shoal" />
		<tag k="name" v="Trollskjeret" />
		<tag k="place" v="islet" />
		<tag k="ssr:date" v="2019-12-27" />
		<tag k="ssr:gruppe" v="grunnerISjø" />
		<tag k="ssr:hovedgruppe" v="sjø" />
		<tag k="ssr:stedsnr" v="225616" />
		<tag k="ssr:type" v="skjærISjø" />
	</node>
	<node lat="59.86517707280712" lon="5.776256071540611" id="-29698">
		<tag k="name" v="Ondarheimsøyri" />
		<tag k="place" v="locality" />
		<tag k="ssr:date" v="2019-12-27" />
		<tag k="ssr:gruppe" v="løsmasseavsetninger" />
		<tag k="ssr:hovedgruppe" v="markslag" />
		<tag k="ssr:stedsnr" v="226599" />
		<tag k="ssr:type" v="øyr" />
	</node>
	<node lat="59.78973611228033" lon="5.606327771064712" id="-29699">
		<tag k="fixme" v="consider seamark:type=rock or natural=shoal" />
		<tag k="name" v="Skarvaskjeret" />
		<tag k="place" v="islet" />
		<tag k="ssr:date" v="2019-12-27" />
		<tag k="ssr:gruppe" v="grunnerISjø" />
		<tag k="ssr:hovedgruppe" v="sjø" />
		<tag k="ssr:stedsnr" v="450840" />
		<tag k="ssr:type" v="skjærISjø" />
	</node>
	<node lat="59.9537750027451" lon="6.02429444470248" id="-29700">
		<tag k="name" v="Stigabekken" />
		<tag k="ssr:date" v="2019-12-27" />
		<tag k="ssr:gruppe" v="rennendeVann" />
		<tag k="ssr:hovedgruppe" v="ferskvann" />
		<tag k="ssr:stedsnr" v="246007" />
		<tag k="ssr:type" v="bekk" />
		<tag k="waterway" v="stream" />
	</node>
	<node lat="59.961144445275" lon="6.0803222267804395" id="-29701">
		<tag k="historic" v="shieling" />
		<tag k="name" v="Kuhammaren" />
		<tag k="place" v="isolated_dwelling" />
		<tag k="ssr:date" v="2019-12-27" />
		<tag k="ssr:gruppe" v="gardsbebyggelse" />
		<tag k="ssr:hovedgruppe" v="bebyggelse" />
		<tag k="ssr:stedsnr" v="246010" />
		<tag k="ssr:type" v="seterStøl" />
	</node>
	<node lat="59.946833337724435" lon="5.963733332654394" id="-29702">
		<tag k="alt_name" v="Leiteneset" />
		<tag k="name" v="Leitenes" />
		<tag k="natural" v="cape" />
		<tag k="ssr:date" v="2019-12-27" />
		<tag k="ssr:gruppe" v="kystkontur" />
		<tag k="ssr:hovedgruppe" v="sjø" />
		<tag k="ssr:stedsnr" v="246021" />
		<tag k="ssr:type" v="nesISjø" />
	</node>
	<node lat="59.94785833140419" lon="5.979325005263462" id="-29703">
		<tag k="fixme" v="consider natural=peak for the most distinct mountains in the district" />
		<tag k="name" v="Fitjaheia" />
		<tag k="natural" v="hill" />
		<tag k="place" v="locality" />
		<tag k="ssr:date" v="2019-12-27" />
		<tag k="ssr:gruppe" v="høyder" />
		<tag k="ssr:hovedgruppe" v="terreng" />
		<tag k="ssr:stedsnr" v="246024" />
		<tag k="ssr:type" v="ås" />
	</node>
	<node lat="59.94410555348628" lon="5.993749999971429" id="-29704">
		<tag k="name" v="Ognhaugen" />
		<tag k="place" v="farm" />
		<tag k="ssr:date" v="2019-12-27" />
		<tag k="ssr:gruppe" v="gardsbebyggelse" />
		<tag k="ssr:hovedgruppe" v="bebyggelse" />
		<tag k="ssr:stedsnr" v="246027" />
		<tag k="ssr:type" v="bruk" />
	</node>
	<node lat="59.891991667901614" lon="5.855911114615526" id="-29705">
		<tag k="name" v="Lomatjørna" />
		<tag k="natural" v="water" />
		<tag k="ssr:date" v="2019-12-27" />
		<tag k="ssr:gruppe" v="stilleståendeVann" />
		<tag k="ssr:hovedgruppe" v="ferskvann" />
		<tag k="ssr:stedsnr" v="246103" />
		<tag k="ssr:type" v="tjern" />
	</node>
	<node lat="59.90171110726155" lon="6.034016671488494" id="-29706">
		<tag k="historic" v="shieling" />
		<tag k="name" v="Aterstadsætra" />
		<tag k="place" v="isolated_dwelling" />
		<tag k="ssr:date" v="2019-12-27" />
		<tag k="ssr:gruppe" v="gardsbebyggelse" />
		<tag k="ssr:hovedgruppe" v="bebyggelse" />
		<tag k="ssr:stedsnr" v="246106" />
		<tag k="ssr:type" v="seterStøl" />
	</node>
	<node lat="59.745241668711834" lon="5.741786109352103" id="-29707">
		<tag k="name" v="Kikavika" />
		<tag k="natural" v="bay" />
		<tag k="ssr:date" v="2019-12-27" />
		<tag k="ssr:gruppe" v="kystkontur" />
		<tag k="ssr:hovedgruppe" v="sjø" />
		<tag k="ssr:stedsnr" v="246107" />
		<tag k="ssr:type" v="vikISjø" />
	</node>
	<node lat="59.7253750022352" lon="5.648905553572214" id="-29708">
		<tag k="name" v="Svinhagevika" />
		<tag k="natural" v="bay" />
		<tag k="ssr:date" v="2019-12-27" />
		<tag k="ssr:gruppe" v="kystkontur" />
		<tag k="ssr:hovedgruppe" v="sjø" />
		<tag k="ssr:stedsnr" v="246108" />
		<tag k="ssr:type" v="vikISjø" />
	</node>
	<node lat="59.829530555858234" lon="5.8956694460140815" id="-29709">
		<tag k="name" v="Tveitebotnvatnet" />
		<tag k="natural" v="water" />
		<tag k="ssr:date" v="2019-12-27" />
		<tag k="ssr:gruppe" v="stilleståendeVann" />
		<tag k="ssr:hovedgruppe" v="ferskvann" />
		<tag k="ssr:stedsnr" v="246222" />
		<tag k="ssr:type" v="tjern" />
	</node>
	<node lat="59.8044722220418" lon="5.957288890667481" id="-29710">
		<tag k="alt_name" v="Matrefjorden" />
		<tag k="bay" v="fjord" />
		<tag k="name" v="Matersfjorden" />
		<tag k="natural" v="bay" />
		<tag k="ssr:date" v="2019-12-27" />
		<tag k="ssr:gruppe" v="farvann" />
		<tag k="ssr:hovedgruppe" v="sjø" />
		<tag k="ssr:stedsnr" v="246228" />
		<tag k="ssr:type" v="fjord" />
	</node>
	<node lat="59.80537499998353" lon="6.001919443845009" id="-29711">
		<tag k="historic" v="shieling" />
		<tag k="name" v="Liarestølen" />
		<tag k="place" v="isolated_dwelling" />
		<tag k="ssr:date" v="2019-12-27" />
		<tag k="ssr:gruppe" v="gardsbebyggelse" />
		<tag k="ssr:hovedgruppe" v="bebyggelse" />
		<tag k="ssr:stedsnr" v="246269" />
		<tag k="ssr:type" v="seterStøl" />
	</node>
	<node lat="59.80224722188608" lon="5.996355564110436" id="-29712">
		<tag k="name" v="Liarestemmen" />
		<tag k="natural" v="bay" />
		<tag k="ssr:date" v="2019-12-27" />
		<tag k="ssr:gruppe" v="rennendeVann" />
		<tag k="ssr:hovedgruppe" v="ferskvann" />
		<tag k="ssr:stedsnr" v="246270" />
		<tag k="ssr:type" v="os" />
	</node>
	<node lat="59.80526771176158" lon="6.016651531808683" id="-29713">
		<tag k="alt_name" v="Tviløpetjørn" />
		<tag k="name" v="Tviløypene" />
		<tag k="natural" v="water" />
		<tag k="ssr:date" v="2019-12-27" />
		<tag k="ssr:gruppe" v="stilleståendeVann" />
		<tag k="ssr:hovedgruppe" v="ferskvann" />
		<tag k="ssr:stedsnr" v="246275" />
		<tag k="ssr:type" v="tjern" />
	</node>
	<node lat="59.76862464434482" lon="5.7886843723898895" id="-29714">
		<tag k="alt_name" v="Røen" />
		<tag k="fixme" v="consider place=hamlet" />
		<tag k="name" v="Røo" />
		<tag k="place" v="farm" />
		<tag k="ssr:date" v="2019-12-27" />
		<tag k="ssr:gruppe" v="gardsbebyggelse" />
		<tag k="ssr:hovedgruppe" v="bebyggelse" />
		<tag k="ssr:stedsnr" v="246404" />
		<tag k="ssr:type" v="gard" />
	</node>
	<node lat="59.9952416706413" lon="5.950430561798342" id="-29715">
		<tag k="name" v="Kalvtangen" />
		<tag k="natural" v="cape" />
		<tag k="ssr:date" v="2019-12-27" />
		<tag k="ssr:gruppe" v="kystkontur" />
		<tag k="ssr:hovedgruppe" v="sjø" />
		<tag k="ssr:stedsnr" v="246418" />
		<tag k="ssr:type" v="nesISjø" />
	</node>
	<node lat="59.86483610754479" lon="6.0848888943275945" id="-29716">
		<tag k="name" v="Småøyrane" />
		<tag k="place" v="locality" />
		<tag k="ssr:date" v="2019-12-27" />
		<tag k="ssr:gruppe" v="flater" />
		<tag k="ssr:hovedgruppe" v="terreng" />
		<tag k="ssr:stedsnr" v="246161" />
		<tag k="ssr:type" v="slette" />
	</node>
	<node lat="59.78557777679491" lon="6.114461113463667" id="-29717">
		<tag k="name" v="Nesheim" />
		<tag k="place" v="farm" />
		<tag k="ssr:date" v="2019-12-27" />
		<tag k="ssr:gruppe" v="gardsbebyggelse" />
		<tag k="ssr:hovedgruppe" v="bebyggelse" />
		<tag k="ssr:stedsnr" v="246303" />
		<tag k="ssr:type" v="bruk" />
	</node>
	<node lat="59.8341115307421" lon="5.8164903648268895" id="-29718">
		<tag k="name" v="Svartatjørna" />
		<tag k="natural" v="water" />
		<tag k="ssr:date" v="2019-12-27" />
		<tag k="ssr:gruppe" v="stilleståendeVann" />
		<tag k="ssr:hovedgruppe" v="ferskvann" />
		<tag k="ssr:stedsnr" v="246307" />
		<tag k="ssr:type" v="tjern" />
	</node>
	<node lat="59.78698610853588" lon="5.60847778620876" id="-29719">
		<tag k="alt_name" v="Passholmen" />
		<tag k="name" v="Pasholmen" />
		<tag k="place" v="islet" />
		<tag k="ssr:date" v="2019-12-27" />
		<tag k="ssr:gruppe" v="kystkontur" />
		<tag k="ssr:hovedgruppe" v="sjø" />
		<tag k="ssr:stedsnr" v="246374" />
		<tag k="ssr:type" v="holmeISjø" />
	</node>
	<node lat="59.791416668803095" lon="5.743099993055381" id="-29720">
		<tag k="name" v="Landasanden" />
		<tag k="natural" v="beach" />
		<tag k="ssr:date" v="2019-12-27" />
		<tag k="ssr:gruppe" v="kystkontur" />
		<tag k="ssr:hovedgruppe" v="sjø" />
		<tag k="ssr:stedsnr" v="246375" />
		<tag k="ssr:type" v="strandISjø" />
	</node>
	<node lat="59.99276423367138" lon="5.786679327626595" id="-29721">
		<tag k="fixme" v="consider place=hamlet" />
		<tag k="name" v="Presthus" />
		<tag k="place" v="farm" />
		<tag k="ssr:date" v="2019-12-27" />
		<tag k="ssr:gruppe" v="gardsbebyggelse" />
		<tag k="ssr:hovedgruppe" v="bebyggelse" />
		<tag k="ssr:stedsnr" v="246633" />
		<tag k="ssr:type" v="gard" />
	</node>
	<node lat="59.91907499789714" lon="5.886766660560092" id="-29722">
		<tag k="name" v="Skjørhaugen" />
		<tag k="natural" v="hill" />
		<tag k="place" v="locality" />
		<tag k="ssr:date" v="2019-12-27" />
		<tag k="ssr:gruppe" v="høyder" />
		<tag k="ssr:hovedgruppe" v="terreng" />
		<tag k="ssr:stedsnr" v="247065" />
		<tag k="ssr:type" v="haug" />
	</node>
	<node lat="60.07470838992443" lon="6.3297154619212925" id="-29723">
		<tag k="name" v="Brufossvatna" />
		<tag k="natural" v="water" />
		<tag k="ssr:date" v="2020-08-20" />
		<tag k="ssr:gruppe" v="stilleståendeVann" />
		<tag k="ssr:hovedgruppe" v="ferskvann" />
		<tag k="ssr:stedsnr" v="247080" />
		<tag k="ssr:type" v="gruppeAvTjern" />
		<tag k="water" v="lake" />
	</node>
	<node lat="60.076349999850535" lon="6.347563892658867" id="-29724">
		<tag k="fixme" v="consider tourism=alpine_hut or tourism=chalet" />
		<tag k="name" v="Fonnabu" />
		<tag k="ssr:date" v="2019-12-27" />
		<tag k="ssr:gruppe" v="næring" />
		<tag k="ssr:hovedgruppe" v="bebyggelse" />
		<tag k="ssr:stedsnr" v="247083" />
		<tag k="ssr:type" v="turisthytte" />
		<tag k="tourism" v="wilderness_hut" />
	</node>
	<node lat="60.07661784143154" lon="6.318505832788651" id="-29725">
		<tag k="alt_name" v="Brufossvatnet, heimsta" />
		<tag k="name" v="Heimsta Brufossvatnet" />
		<tag k="natural" v="water" />
		<tag k="ssr:date" v="2019-12-27" />
		<tag k="ssr:gruppe" v="stilleståendeVann" />
		<tag k="ssr:hovedgruppe" v="ferskvann" />
		<tag k="ssr:stedsnr" v="247084" />
		<tag k="ssr:type" v="tjern" />
	</node>
	<node lat="60.10535109717909" lon="6.320563778478829" id="-29726">
		<tag k="name" v="Middagsvatnet" />
		<tag k="natural" v="water" />
		<tag k="ssr:date" v="2019-12-27" />
		<tag k="ssr:gruppe" v="stilleståendeVann" />
		<tag k="ssr:hovedgruppe" v="ferskvann" />
		<tag k="ssr:stedsnr" v="247117" />
		<tag k="ssr:type" v="tjern" />
	</node>
	<node lat="59.798327120665306" lon="6.019648905688252" id="-29727">
		<tag k="name" v="Furdalstjørna" />
		<tag k="natural" v="water" />
		<tag k="ssr:date" v="2019-12-27" />
		<tag k="ssr:gruppe" v="stilleståendeVann" />
		<tag k="ssr:hovedgruppe" v="ferskvann" />
		<tag k="ssr:stedsnr" v="247260" />
		<tag k="ssr:type" v="tjern" />
	</node>
	<node lat="59.852022223520194" lon="5.676527780396855" id="-29728">
		<tag k="alt_name" v="Åskesholmen" />
		<tag k="name" v="Åsgardsholmen" />
		<tag k="place" v="islet" />
		<tag k="ssr:date" v="2019-12-27" />
		<tag k="ssr:gruppe" v="kystkontur" />
		<tag k="ssr:hovedgruppe" v="sjø" />
		<tag k="ssr:stedsnr" v="247261" />
		<tag k="ssr:type" v="holmeISjø" />
	</node>
	<node lat="59.795299997083035" lon="5.936974992507632" id="-29729">
		<tag k="alt_name" v="Lyngnes" />
		<tag k="name" v="Lyngneset" />
		<tag k="natural" v="cape" />
		<tag k="ssr:date" v="2019-12-27" />
		<tag k="ssr:gruppe" v="kystkontur" />
		<tag k="ssr:hovedgruppe" v="sjø" />
		<tag k="ssr:stedsnr" v="247264" />
		<tag k="ssr:type" v="nesISjø" />
	</node>
	<node lat="59.860973381039074" lon="5.733779060623123" id="-29730">
		<tag k="alt_name" v="Ryssland" />
		<tag k="fixme" v="consider place=hamlet" />
		<tag k="name" v="Røssland" />
		<tag k="place" v="farm" />
		<tag k="ssr:date" v="2019-12-27" />
		<tag k="ssr:gruppe" v="gardsbebyggelse" />
		<tag k="ssr:hovedgruppe" v="bebyggelse" />
		<tag k="ssr:stedsnr" v="247268" />
		<tag k="ssr:type" v="gard" />
	</node>
	<node lat="59.868186114232415" lon="5.773172222201106" id="-29731">
		<tag k="building" v="industrial" />
		<tag k="industrial" v="factory" />
		<tag k="name" v="Søral" />
		<tag k="ssr:date" v="2019-12-27" />
		<tag k="ssr:gruppe" v="næring" />
		<tag k="ssr:hovedgruppe" v="bebyggelse" />
		<tag k="ssr:stedsnr" v="247290" />
		<tag k="ssr:type" v="fabrikk" />
	</node>
	<node lat="59.972991668825436" lon="5.911783336699761" id="-29732">
		<tag k="name" v="Sætravika" />
		<tag k="natural" v="bay" />
		<tag k="ssr:date" v="2019-12-27" />
		<tag k="ssr:gruppe" v="kystkontur" />
		<tag k="ssr:hovedgruppe" v="sjø" />
		<tag k="ssr:stedsnr" v="247458" />
		<tag k="ssr:type" v="vikISjø" />
	</node>
	<node lat="59.96943611414482" lon="5.907705557784628" id="-29733">
		<tag k="name" v="Sætrahaugen" />
		<tag k="natural" v="hill" />
		<tag k="place" v="locality" />
		<tag k="ssr:date" v="2019-12-27" />
		<tag k="ssr:gruppe" v="høyder" />
		<tag k="ssr:hovedgruppe" v="terreng" />
		<tag k="ssr:stedsnr" v="247459" />
		<tag k="ssr:type" v="haug" />
	</node>
	<node lat="59.970366667559404" lon="6.014097220268641" id="-29734">
		<tag k="name" v="Håsæter" />
		<tag k="natural" v="slope" />
		<tag k="place" v="locality" />
		<tag k="ssr:date" v="2019-12-27" />
		<tag k="ssr:gruppe" v="skråninger" />
		<tag k="ssr:hovedgruppe" v="terreng" />
		<tag k="ssr:stedsnr" v="247469" />
		<tag k="ssr:type" v="li" />
	</node>
	<node lat="59.97386389121248" lon="6.067375005115518" id="-29735">
		<tag k="name" v="Markaskorane" />
		<tag k="natural" v="slope" />
		<tag k="place" v="locality" />
		<tag k="ssr:date" v="2019-12-27" />
		<tag k="ssr:gruppe" v="skråninger" />
		<tag k="ssr:hovedgruppe" v="terreng" />
		<tag k="ssr:stedsnr" v="247473" />
		<tag k="ssr:type" v="li" />
	</node>
	<node lat="59.81488889151558" lon="5.838763897391792" id="-29736">
		<tag k="fixme" v="consider natural=peak for the most distinct mountains in the district" />
		<tag k="name" v="Skarvalandsfjellet" />
		<tag k="natural" v="hill" />
		<tag k="place" v="locality" />
		<tag k="ssr:date" v="2019-12-27" />
		<tag k="ssr:gruppe" v="høyder" />
		<tag k="ssr:hovedgruppe" v="terreng" />
		<tag k="ssr:stedsnr" v="247376" />
		<tag k="ssr:type" v="ås" />
	</node>
	<node lat="59.78631944617818" lon="5.668505557474911" id="-29737">
		<tag k="name" v="Breidvika" />
		<tag k="natural" v="bay" />
		<tag k="ssr:date" v="2019-12-27" />
		<tag k="ssr:gruppe" v="kystkontur" />
		<tag k="ssr:hovedgruppe" v="sjø" />
		<tag k="ssr:stedsnr" v="247559" />
		<tag k="ssr:type" v="vikISjø" />
	</node>
	<node lat="60.13820277792011" lon="5.972094436277862" id="-29738">
		<tag k="name" v="Mosavatnet" />
		<tag k="natural" v="water" />
		<tag k="ssr:date" v="2019-12-27" />
		<tag k="ssr:gruppe" v="stilleståendeVann" />
		<tag k="ssr:hovedgruppe" v="ferskvann" />
		<tag k="ssr:stedsnr" v="247583" />
		<tag k="ssr:type" v="tjern" />
	</node>
	<node lat="60.00699286118712" lon="5.78742171588316" id="-29739">
		<tag k="fixme" v="consider natural=peak for the most distinct mountains in the district" />
		<tag k="name" v="Tråvikåsen" />
		<tag k="natural" v="hill" />
		<tag k="place" v="locality" />
		<tag k="ssr:date" v="2019-12-27" />
		<tag k="ssr:gruppe" v="høyder" />
		<tag k="ssr:hovedgruppe" v="terreng" />
		<tag k="ssr:stedsnr" v="247702" />
		<tag k="ssr:type" v="ås" />
	</node>
	<node lat="60.01336445415637" lon="5.807506589152665" id="-29740">
		<tag k="fixme" v="consider place=hamlet" />
		<tag k="name" v="Husa" />
		<tag k="place" v="farm" />
		<tag k="ssr:date" v="2019-12-27" />
		<tag k="ssr:gruppe" v="gardsbebyggelse" />
		<tag k="ssr:hovedgruppe" v="bebyggelse" />
		<tag k="ssr:stedsnr" v="247705" />
		<tag k="ssr:type" v="gard" />
	</node>
	<node lat="60.016799999426865" lon="6.026363885279719" id="-29741">
		<tag k="historic" v="shieling" />
		<tag k="loc_name" v="Kjeldestøl" />
		<tag k="name" v="Kjeldestølssætret" />
		<tag k="place" v="isolated_dwelling" />
		<tag k="ssr:date" v="2021-08-10" />
		<tag k="ssr:gruppe" v="gardsbebyggelse" />
		<tag k="ssr:hovedgruppe" v="bebyggelse" />
		<tag k="ssr:stedsnr" v="247755" />
		<tag k="ssr:type" v="seterStøl" />
	</node>
	<node lat="60.01623055984434" lon="6.0203500043585185" id="-29742">
		<tag k="fixme" v="consider natural=peak for the most distinct mountains in the district" />
		<tag k="name" v="Storhaug" />
		<tag k="natural" v="hill" />
		<tag k="place" v="locality" />
		<tag k="ssr:date" v="2019-12-27" />
		<tag k="ssr:gruppe" v="høyder" />
		<tag k="ssr:hovedgruppe" v="terreng" />
		<tag k="ssr:stedsnr" v="247757" />
		<tag k="ssr:type" v="ås" />
	</node>
	<node lat="60.02301348830919" lon="6.167844917829637" id="-29743">
		<tag k="name" v="Vatnastølsvatnet" />
		<tag k="natural" v="water" />
		<tag k="ssr:date" v="2019-12-27" />
		<tag k="ssr:gruppe" v="stilleståendeVann" />
		<tag k="ssr:hovedgruppe" v="ferskvann" />
		<tag k="ssr:stedsnr" v="247767" />
		<tag k="ssr:type" v="tjern" />
	</node>
	<node lat="60.10663888533797" lon="5.9889416745725566" id="-29744">
		<tag k="name" v="Bordmyr" />
		<tag k="natural" v="wetland" />
		<tag k="ssr:date" v="2019-12-27" />
		<tag k="ssr:gruppe" v="våtmark" />
		<tag k="ssr:hovedgruppe" v="markslag" />
		<tag k="ssr:stedsnr" v="247923" />
		<tag k="ssr:type" v="myr" />
	</node>
	<node lat="60.08111388479924" lon="5.893558334056792" id="-29745">
		<tag k="fixme" v="consider natural=peak for the most distinct mountains in the district" />
		<tag k="name" v="Dåsa" />
		<tag k="natural" v="hill" />
		<tag k="place" v="locality" />
		<tag k="ssr:date" v="2019-12-27" />
		<tag k="ssr:gruppe" v="høyder" />
		<tag k="ssr:hovedgruppe" v="terreng" />
		<tag k="ssr:stedsnr" v="247953" />
		<tag k="ssr:type" v="ås" />
	</node>
	<node lat="60.05813130574603" lon="5.908344261087374" id="-29746">
		<tag k="alt_name" v="Kirkhus" />
		<tag k="fixme" v="consider place=hamlet" />
		<tag k="name" v="Kyrkjehus" />
		<tag k="old_name" v="Bjørkhus" />
		<tag k="place" v="farm" />
		<tag k="ssr:date" v="2019-12-27" />
		<tag k="ssr:gruppe" v="gardsbebyggelse" />
		<tag k="ssr:hovedgruppe" v="bebyggelse" />
		<tag k="ssr:stedsnr" v="247957" />
		<tag k="ssr:type" v="gard" />
	</node>
	<node lat="60.03764443941461" lon="5.904600867561286" id="-29747">
		<tag k="alt_name" v="Nettland indre;Indrenettland" />
		<tag k="name" v="Indre Nettland" />
		<tag k="place" v="farm" />
		<tag k="ssr:date" v="2020-02-13" />
		<tag k="ssr:gruppe" v="gardsbebyggelse" />
		<tag k="ssr:hovedgruppe" v="bebyggelse" />
		<tag k="ssr:stedsnr" v="248999" />
		<tag k="ssr:type" v="bruk" />
	</node>
	<node lat="59.963652780663075" lon="5.874036111528281" id="-29748">
		<tag k="name" v="Straumsneset" />
		<tag k="natural" v="cape" />
		<tag k="ssr:date" v="2019-12-27" />
		<tag k="ssr:gruppe" v="kystkontur" />
		<tag k="ssr:hovedgruppe" v="sjø" />
		<tag k="ssr:stedsnr" v="267139" />
		<tag k="ssr:type" v="nesISjø" />
	</node>
	<node lat="60.01666111214617" lon="6.000249995174489" id="-29749">
		<tag k="name" v="Løfall" />
		<tag k="place" v="farm" />
		<tag k="ssr:date" v="2021-06-08" />
		<tag k="ssr:gruppe" v="gardsbebyggelse" />
		<tag k="ssr:hovedgruppe" v="bebyggelse" />
		<tag k="ssr:stedsnr" v="273079" />
		<tag k="ssr:type" v="bruk" />
	</node>
	<node lat="59.87001944807637" lon="5.9786138838741465" id="-29750">
		<tag k="historic" v="shieling" />
		<tag k="name" v="Stølane" />
		<tag k="place" v="isolated_dwelling" />
		<tag k="ssr:date" v="2019-12-27" />
		<tag k="ssr:gruppe" v="gardsbebyggelse" />
		<tag k="ssr:hovedgruppe" v="bebyggelse" />
		<tag k="ssr:stedsnr" v="280120" />
		<tag k="ssr:type" v="seterStøl" />
	</node>
	<node lat="59.775769440641" lon="5.9895250023414555" id="-29751">
		<tag k="name" v="Høgehaugen" />
		<tag k="natural" v="hill" />
		<tag k="place" v="locality" />
		<tag k="ssr:date" v="2019-12-27" />
		<tag k="ssr:gruppe" v="høyder" />
		<tag k="ssr:hovedgruppe" v="terreng" />
		<tag k="ssr:stedsnr" v="280575" />
		<tag k="ssr:type" v="haug" />
	</node>
	<node lat="59.804538891978034" lon="6.111225007032622" id="-29752">
		<tag k="name" v="Rindabergsnova" />
		<tag k="natural" v="ridge" />
		<tag k="place" v="locality" />
		<tag k="ssr:date" v="2019-12-27" />
		<tag k="ssr:gruppe" v="høyder" />
		<tag k="ssr:hovedgruppe" v="terreng" />
		<tag k="ssr:stedsnr" v="280671" />
		<tag k="ssr:type" v="rygg" />
	</node>
	<node lat="59.8206277789548" lon="6.103408328187826" id="-29753">
		<tag k="name" v="Etarehaugen" />
		<tag k="natural" v="hill" />
		<tag k="place" v="locality" />
		<tag k="ssr:date" v="2019-12-27" />
		<tag k="ssr:gruppe" v="høyder" />
		<tag k="ssr:hovedgruppe" v="terreng" />
		<tag k="ssr:stedsnr" v="280718" />
		<tag k="ssr:type" v="haug" />
	</node>
	<node lat="59.889305556584524" lon="5.771980551257615" id="-29754">
		<tag k="name" v="Aksnes" />
		<tag k="place" v="farm" />
		<tag k="ssr:date" v="2019-12-27" />
		<tag k="ssr:gruppe" v="gardsbebyggelse" />
		<tag k="ssr:hovedgruppe" v="bebyggelse" />
		<tag k="ssr:stedsnr" v="280918" />
		<tag k="ssr:type" v="bruk" />
	</node>
	<node lat="59.86493610972305" lon="5.740041662429297" id="-29755">
		<tag k="name" v="Korggardsvika" />
		<tag k="natural" v="bay" />
		<tag k="ssr:date" v="2019-12-27" />
		<tag k="ssr:gruppe" v="kystkontur" />
		<tag k="ssr:hovedgruppe" v="sjø" />
		<tag k="ssr:stedsnr" v="280921" />
		<tag k="ssr:type" v="vikISjø" />
	</node>
	<node lat="59.87066389285487" lon="5.734883330179054" id="-29756">
		<tag k="name" v="Eidet" />
		<tag k="place" v="locality" />
		<tag k="ssr:date" v="2019-12-27" />
		<tag k="ssr:gruppe" v="kystkontur" />
		<tag k="ssr:hovedgruppe" v="sjø" />
		<tag k="ssr:stedsnr" v="280923" />
		<tag k="ssr:type" v="eidISjø" />
	</node>
	<node lat="59.8084333365011" lon="5.6647694470580054" id="-29757">
		<tag k="name" v="Klubbholmsund" />
		<tag k="natural" v="strait" />
		<tag k="ssr:date" v="2019-12-27" />
		<tag k="ssr:gruppe" v="kystkontur" />
		<tag k="ssr:hovedgruppe" v="sjø" />
		<tag k="ssr:stedsnr" v="281002" />
		<tag k="ssr:type" v="sundISjø" />
	</node>
	<node lat="59.79769166517163" lon="5.648061109224346" id="-29758">
		<tag k="name" v="Sandsletta" />
		<tag k="natural" v="beach" />
		<tag k="ssr:date" v="2019-12-27" />
		<tag k="ssr:gruppe" v="kystkontur" />
		<tag k="ssr:hovedgruppe" v="sjø" />
		<tag k="ssr:stedsnr" v="281003" />
		<tag k="ssr:type" v="strandISjø" />
	</node>
	<node lat="59.801608332293824" lon="5.637450007072457" id="-29759">
		<tag k="name" v="Indersvika" />
		<tag k="natural" v="bay" />
		<tag k="ssr:date" v="2019-12-27" />
		<tag k="ssr:gruppe" v="kystkontur" />
		<tag k="ssr:hovedgruppe" v="sjø" />
		<tag k="ssr:stedsnr" v="281005" />
		<tag k="ssr:type" v="vikISjø" />
	</node>
	<node lat="59.81226944664443" lon="5.681208327899753" id="-29760">
		<tag k="name" v="Sandsund" />
		<tag k="natural" v="strait" />
		<tag k="ssr:date" v="2019-12-27" />
		<tag k="ssr:gruppe" v="kystkontur" />
		<tag k="ssr:hovedgruppe" v="sjø" />
		<tag k="ssr:stedsnr" v="281020" />
		<tag k="ssr:type" v="sundISjø" />
	</node>
	<node lat="59.72491110787451" lon="5.726952779339155" id="-29761">
		<tag k="alt_name" v="Bleikjo" />
		<tag k="name" v="Bleikja" />
		<tag k="place" v="island" />
		<tag k="ssr:date" v="2019-12-27" />
		<tag k="ssr:gruppe" v="kystkontur" />
		<tag k="ssr:hovedgruppe" v="sjø" />
		<tag k="ssr:stedsnr" v="281022" />
		<tag k="ssr:type" v="øyISjø" />
	</node>
	<node lat="59.725317061471785" lon="5.714318907820782" id="-29762">
		<tag k="name" v="Ramseidklubben" />
		<tag k="natural" v="cape" />
		<tag k="ssr:date" v="2019-12-27" />
		<tag k="ssr:gruppe" v="kystkontur" />
		<tag k="ssr:hovedgruppe" v="sjø" />
		<tag k="ssr:stedsnr" v="281023" />
		<tag k="ssr:type" v="nesISjø" />
	</node>
	<node lat="59.73814444728666" lon="5.7799777772734355" id="-29763">
		<tag k="name" v="Skotet" />
		<tag k="natural" v="hill" />
		<tag k="place" v="locality" />
		<tag k="ssr:date" v="2019-12-27" />
		<tag k="ssr:gruppe" v="høyder" />
		<tag k="ssr:hovedgruppe" v="terreng" />
		<tag k="ssr:stedsnr" v="281090" />
		<tag k="ssr:type" v="høyde" />
	</node>
	<node lat="59.74611944831866" lon="5.769880550131344" id="-29764">
		<tag k="fixme" v="consider natural=peak for the most distinct mountains in the district" />
		<tag k="name" v="Midtåsen" />
		<tag k="natural" v="hill" />
		<tag k="place" v="locality" />
		<tag k="ssr:date" v="2019-12-27" />
		<tag k="ssr:gruppe" v="høyder" />
		<tag k="ssr:hovedgruppe" v="terreng" />
		<tag k="ssr:stedsnr" v="281091" />
		<tag k="ssr:type" v="ås" />
	</node>
	<node lat="59.7552444434556" lon="5.789033342027179" id="-29765">
		<tag k="fixme" v="consider natural=peak for the most distinct mountains in the district" />
		<tag k="name" v="Sneåsen" />
		<tag k="natural" v="hill" />
		<tag k="place" v="locality" />
		<tag k="ssr:date" v="2019-12-27" />
		<tag k="ssr:gruppe" v="høyder" />
		<tag k="ssr:hovedgruppe" v="terreng" />
		<tag k="ssr:stedsnr" v="281096" />
		<tag k="ssr:type" v="ås" />
	</node>
	<node lat="60.06958055398774" lon="6.122644440673049" id="-29766">
		<tag k="name" v="Vaskeelva" />
		<tag k="ssr:date" v="2019-12-27" />
		<tag k="ssr:gruppe" v="rennendeVann" />
		<tag k="ssr:hovedgruppe" v="ferskvann" />
		<tag k="ssr:stedsnr" v="281121" />
		<tag k="ssr:type" v="elv" />
		<tag k="waterway" v="river" />
	</node>
	<node lat="60.11834722071634" lon="6.283108342444169" id="-29767">
		<tag k="name" v="Stegane" />
		<tag k="natural" v="slope" />
		<tag k="place" v="locality" />
		<tag k="ssr:date" v="2019-12-27" />
		<tag k="ssr:gruppe" v="skråninger" />
		<tag k="ssr:hovedgruppe" v="terreng" />
		<tag k="ssr:stedsnr" v="281309" />
		<tag k="ssr:type" v="li" />
	</node>
	<node lat="60.13442499691276" lon="6.304313894096685" id="-29768">
		<tag k="name" v="Furekamben" />
		<tag k="natural" v="ridge" />
		<tag k="place" v="locality" />
		<tag k="ssr:date" v="2019-12-27" />
		<tag k="ssr:gruppe" v="høyder" />
		<tag k="ssr:hovedgruppe" v="terreng" />
		<tag k="ssr:stedsnr" v="281321" />
		<tag k="ssr:type" v="rygg" />
	</node>
	<node lat="60.13343333387655" lon="6.234669451463787" id="-29769">
		<tag k="name" v="Leitehaugen" />
		<tag k="natural" v="hill" />
		<tag k="place" v="locality" />
		<tag k="ssr:date" v="2019-12-27" />
		<tag k="ssr:gruppe" v="høyder" />
		<tag k="ssr:hovedgruppe" v="terreng" />
		<tag k="ssr:stedsnr" v="281379" />
		<tag k="ssr:type" v="haug" />
	</node>
	<node lat="60.134822223654986" lon="6.209449993181183" id="-29770">
		<tag k="name" v="Storheller" />
		<tag k="place" v="locality" />
		<tag k="ssr:date" v="2019-12-27" />
		<tag k="ssr:gruppe" v="terrengdetaljer" />
		<tag k="ssr:hovedgruppe" v="terreng" />
		<tag k="ssr:stedsnr" v="281404" />
		<tag k="ssr:type" v="heller" />
	</node>
	<node lat="60.15223888695634" lon="6.231661117193843" id="-29771">
		<tag k="name" v="Ilagshaugen" />
		<tag k="natural" v="hill" />
		<tag k="place" v="locality" />
		<tag k="ssr:date" v="2019-12-27" />
		<tag k="ssr:gruppe" v="høyder" />
		<tag k="ssr:hovedgruppe" v="terreng" />
		<tag k="ssr:stedsnr" v="281417" />
		<tag k="ssr:type" v="haug" />
	</node>
	<node lat="60.073813890204754" lon="6.118588897124973" id="-29772">
		<tag k="name" v="Løkjene" />
		<tag k="ssr:date" v="2019-12-27" />
		<tag k="ssr:gruppe" v="rennendeVann" />
		<tag k="ssr:hovedgruppe" v="ferskvann" />
		<tag k="ssr:stedsnr" v="281467" />
		<tag k="ssr:type" v="bekk" />
		<tag k="waterway" v="stream" />
	</node>
	<node lat="60.08695555945309" lon="6.120897227295581" id="-29773">
		<tag k="name" v="Hatledalen" />
		<tag k="natural" v="valley" />
		<tag k="place" v="locality" />
		<tag k="ssr:date" v="2019-12-27" />
		<tag k="ssr:gruppe" v="senkninger" />
		<tag k="ssr:hovedgruppe" v="terreng" />
		<tag k="ssr:stedsnr" v="281489" />
		<tag k="ssr:type" v="dal" />
	</node>
	<node lat="60.083824995409415" lon="6.132086102789657" id="-29774">
		<tag k="name" v="Fossen" />
		<tag k="natural" v="waterfall" />
		<tag k="ssr:date" v="2019-12-27" />
		<tag k="ssr:gruppe" v="rennendeVann" />
		<tag k="ssr:hovedgruppe" v="ferskvann" />
		<tag k="ssr:stedsnr" v="281492" />
		<tag k="ssr:type" v="foss" />
	</node>
	<node lat="60.09376110831094" lon="6.143075006464038" id="-29775">
		<tag k="name" v="Hegjeholmen" />
		<tag k="place" v="islet" />
		<tag k="ssr:date" v="2019-12-27" />
		<tag k="ssr:gruppe" v="kystkontur" />
		<tag k="ssr:hovedgruppe" v="sjø" />
		<tag k="ssr:stedsnr" v="281507" />
		<tag k="ssr:type" v="holmeISjø" />
	</node>
	<node lat="59.77973611375318" lon="5.963541674342506" id="-29776">
		<tag k="alt_name" v="Auensneset" />
		<tag k="name" v="Øyvindsnes" />
		<tag k="natural" v="cape" />
		<tag k="ssr:date" v="2019-12-27" />
		<tag k="ssr:gruppe" v="kystkontur" />
		<tag k="ssr:hovedgruppe" v="sjø" />
		<tag k="ssr:stedsnr" v="281580" />
		<tag k="ssr:type" v="nesISjø" />
	</node>
	<node lat="60.03942221980692" lon="5.809641669808525" id="-29777">
		<tag k="name" v="Svekanken" />
		<tag k="natural" v="hill" />
		<tag k="place" v="locality" />
		<tag k="ssr:date" v="2019-12-27" />
		<tag k="ssr:gruppe" v="høyder" />
		<tag k="ssr:hovedgruppe" v="terreng" />
		<tag k="ssr:stedsnr" v="281726" />
		<tag k="ssr:type" v="haug" />
	</node>
	<node lat="60.00017774222329" lon="5.800353315789725" id="-29778">
		<tag k="fixme" v="consider seamark:type=rock or natural=shoal" />
		<tag k="name" v="Tråvikskjer" />
		<tag k="place" v="islet" />
		<tag k="ssr:date" v="2019-12-27" />
		<tag k="ssr:gruppe" v="grunnerISjø" />
		<tag k="ssr:hovedgruppe" v="sjø" />
		<tag k="ssr:stedsnr" v="281827" />
		<tag k="ssr:type" v="skjærISjø" />
	</node>
	<node lat="60.01818888601229" lon="5.8486194367836735" id="-29779">
		<tag k="name" v="Ambarevikholmen" />
		<tag k="place" v="islet" />
		<tag k="ssr:date" v="2019-12-27" />
		<tag k="ssr:gruppe" v="ferskvannskontur" />
		<tag k="ssr:hovedgruppe" v="ferskvann" />
		<tag k="ssr:stedsnr" v="281876" />
		<tag k="ssr:type" v="holme" />
	</node>
	<node lat="59.96984444322308" lon="5.935080552971549" id="-29780">
		<tag k="name" v="Lydaren" />
		<tag k="place" v="locality" />
		<tag k="ssr:date" v="2019-12-27" />
		<tag k="ssr:gruppe" v="terrengdetaljer" />
		<tag k="ssr:hovedgruppe" v="terreng" />
		<tag k="ssr:stedsnr" v="281879" />
		<tag k="ssr:type" v="annenTerrengdetalj" />
	</node>
</osm>
