<?xml version="1.0" encoding="UTF-8"?>
<osm generator="osmapis" version="0.6">
	<node id="-155645" lat="61.1847583362" lon="8.53279721632">
		<tag k="name" v="Øynadn" />
		<tag k="place" v="island" />
		<tag k="ssr:stedsnr" v="160743" />
	</node>
	<node id="-155640" lat="61.1045444417" lon="8.47207500865">
		<tag k="name" v="Tvørrgardsbekken" />
		<tag k="ssr:stedsnr" v="160348" />
		<tag k="waterway" v="stream" />
	</node>
	<node id="-155637" lat="61.1651527737" lon="8.40669166622">
		<tag k="name" v="Tangin" />
		<tag k="natural" v="cape" />
		<tag k="ssr:stedsnr" v="160336" />
	</node>
	<node id="-155626" lat="61.1079865553" lon="8.70211487908">
		<tag k="name" v="Tørpen" />
		<tag k="natural" v="cape" />
		<tag k="ssr:stedsnr" v="154901" />
	</node>
	<node id="-155623" lat="61.2115963453" lon="8.14329782348">
		<tag k="name" v="Austrefjorden" />
		<tag k="natural" v="water" />
		<tag k="ssr:stedsnr" v="131619" />
	</node>
	<node id="-155622" lat="61.2437939228" lon="8.16382976456">
		<tag k="name" v="Nedre Årdalsvatnet" />
		<tag k="natural" v="water" />
		<tag k="ssr:stedsnr" v="131586" />
		<tag k="water" v="lake" />
	</node>
	<node id="-155621" lat="61.1889027774" lon="8.2145416734">
		<tag k="alt_name" v="Otrøtjernet" />
		<tag k="name" v="Otrøi" />
		<tag k="place" v="locality" />
		<tag k="ssr:stedsnr" v="131562" />
	</node>
	<node id="-155620" lat="61.1933249979" lon="8.41655277698">
		<tag k="name" v="Skjervetjernet" />
		<tag k="natural" v="water" />
		<tag k="ssr:stedsnr" v="131561" />
	</node>
	<node id="-155618" lat="61.0614249956" lon="8.52895556102">
		<tag k="name" v="Smådøla" />
		<tag k="ssr:stedsnr" v="130621" />
		<tag k="waterway" v="river" />
	</node>
	<node id="-155617" lat="61.4006250027" lon="8.37901944945">
		<tag k="name" v="Høystakka" />
		<tag k="ssr:stedsnr" v="129842" />
		<tag k="waterway" v="river" />
	</node>
	<node id="-155613" lat="61.3740749958" lon="8.39011667137">
		<tag k="name" v="Tolorma" />
		<tag k="old_name" v="Tolorina" />
		<tag k="ssr:stedsnr" v="129824" />
		<tag k="waterway" v="stream" />
	</node>
	<node id="-155612" lat="61.3622999957" lon="8.38149999169">
		<tag k="name" v="Bygdin" />
		<tag k="natural" v="water" />
		<tag k="ssr:stedsnr" v="129821" />
		<tag k="water" v="lake" />
	</node>
	<node id="-155611" lat="61.3348262453" lon="8.41406514252">
		<tag k="name" v="Dryllin" />
		<tag k="natural" v="water" />
		<tag k="ssr:stedsnr" v="129815" />
		<tag k="water" v="lake" />
	</node>
	<node id="-155609" lat="61.0183333351" lon="8.71667499268">
		<tag k="name" v="Lange Tangen" />
		<tag k="natural" v="cape" />
		<tag k="ssr:stedsnr" v="129462" />
	</node>
	<node id="-155605" lat="61.2412249963" lon="8.69497500339">
		<tag k="name" v="Mugna" />
		<tag k="ssr:stedsnr" v="128698" />
		<tag k="waterway" v="river" />
	</node>
	<node id="-155600" lat="61.1775805572" lon="8.62750278">
		<tag k="name" v="Remmisåne" />
		<tag k="ssr:stedsnr" v="128678" />
		<tag k="waterway" v="stream" />
	</node>
	<node id="-155593" lat="61.0391583364" lon="8.67851666026">
		<tag k="name" v="Fossebekken" />
		<tag k="ssr:stedsnr" v="128418" />
		<tag k="waterway" v="stream" />
	</node>
	<node id="-155587" lat="61.081999996" lon="8.61581666982">
		<tag k="name" v="Lutabekken" />
		<tag k="ssr:stedsnr" v="128318" />
		<tag k="waterway" v="stream" />
	</node>
	<node id="-155575" lat="61.3289249998" lon="8.75097500029">
		<tag k="name" v="Bygdissundet" />
		<tag k="natural" v="strait" />
		<tag k="ssr:stedsnr" v="128128" />
	</node>
	<node id="-155570" lat="61.1191333325" lon="8.51233055105">
		<tag k="name" v="Halvarsbekken" />
		<tag k="ssr:stedsnr" v="119830" />
		<tag k="waterway" v="stream" />
	</node>
	<node id="-155560" lat="61.1316361107" lon="8.70060555664">
		<tag k="name" v="Gurohølen" />
		<tag k="place" v="locality" />
		<tag k="ssr:stedsnr" v="118947" />
	</node>
	<node id="-155559" lat="61.1357333323" lon="8.6739750002">
		<tag k="name" v="Pyttingstjernet" />
		<tag k="natural" v="water" />
		<tag k="ssr:stedsnr" v="118936" />
	</node>
	<node id="-155558" lat="61.1412777781" lon="8.72555832643">
		<tag k="name" v="Vasstrone" />
		<tag k="natural" v="spring" />
		<tag k="ssr:stedsnr" v="118934" />
	</node>
	<node id="-155557" lat="61.1572944463" lon="8.67123333278">
		<tag k="name" v="Mauretubbøddin" />
		<tag k="natural" v="cape" />
		<tag k="ssr:stedsnr" v="118920" />
	</node>
	<node id="-155556" lat="61.1078916679" lon="8.68733610268">
		<tag k="name" v="Pålssanden" />
		<tag k="natural" v="beach" />
		<tag k="ssr:stedsnr" v="118880" />
	</node>
	<node id="-155553" lat="61.1955944438" lon="8.51125833148">
		<tag k="name" v="Søre Tverråne" />
		<tag k="old_name" v="Søre Tvørråne" />
		<tag k="ssr:stedsnr" v="118794" />
		<tag k="waterway" v="stream" />
	</node>
	<node id="-155547" lat="61.0776694436" lon="8.59489722048">
		<tag k="name" v="Sanden" />
		<tag k="natural" v="beach" />
		<tag k="ssr:stedsnr" v="118537" />
	</node>
	<node id="-155543" lat="61.1537250018" lon="8.3496888925">
		<tag k="name" v="Galdreinsbekken" />
		<tag k="ssr:stedsnr" v="118255" />
		<tag k="waterway" v="stream" />
	</node>
	<node id="-155540" lat="61.1733555583" lon="8.20319165964">
		<tag k="name" v="Store hølen" />
		<tag k="place" v="locality" />
		<tag k="ssr:stedsnr" v="118215" />
	</node>
	<node id="-155536" lat="61.2034416675" lon="8.16467777798">
		<tag k="name" v="Sporen" />
		<tag k="natural" v="bay" />
		<tag k="ssr:stedsnr" v="118171" />
	</node>
	<node id="-155528" lat="61.3064444455" lon="8.68828888773">
		<tag k="name" v="Buarbekken" />
		<tag k="ssr:stedsnr" v="115154" />
		<tag k="waterway" v="stream" />
	</node>
	<node id="-155526" lat="61.1083194415" lon="8.66470833519">
		<tag k="name" v="Køltjernet" />
		<tag k="natural" v="water" />
		<tag k="ssr:stedsnr" v="113318" />
	</node>
	<node id="-155525" lat="61.2719416702" lon="8.17423610629">
		<tag k="name" v="Nedre Melviktjernet" />
		<tag k="natural" v="water" />
		<tag k="ssr:stedsnr" v="111474" />
	</node>
	<node id="-155524" lat="61.1775888887" lon="8.31191944185">
		<tag k="name" v="Kløvningstjernet" />
		<tag k="natural" v="water" />
		<tag k="ssr:stedsnr" v="110271" />
	</node>
	<node id="-155523" lat="61.3256805597" lon="8.37121944735">
		<tag k="name" v="Vennisdalstjernet" />
		<tag k="natural" v="water" />
		<tag k="ssr:stedsnr" v="110264" />
	</node>
	<node id="-155499" lat="61.1463111111" lon="8.5585249959">
		<tag k="name" v="Lundehamarn" />
		<tag k="natural" v="cape" />
		<tag k="ssr:stedsnr" v="100678" />
	</node>
	<node id="-156987" lat="61.372433332" lon="8.22866667028">
		<tag k="name" v="Nedre Rusteggvatnet" />
		<tag k="natural" v="water" />
		<tag k="ssr:stedsnr" v="857821" />
	</node>
	<node id="-155480" lat="61.2296138859" lon="8.63144723032">
		<tag k="name" v="Tverråntjernet" />
		<tag k="natural" v="water" />
		<tag k="old_name" v="Tvørråntjednet" />
		<tag k="ssr:stedsnr" v="100001" />
	</node>
	<node id="-155469" lat="61.1797416672" lon="8.06557776859">
		<tag k="name" v="Trettetjernet" />
		<tag k="natural" v="water" />
		<tag k="ssr:stedsnr" v="70874" />
	</node>
	<node id="-155468" lat="61.2065388851" lon="8.20317777557">
		<tag k="name" v="Bjørdøla" />
		<tag k="ssr:stedsnr" v="70611" />
		<tag k="waterway" v="river" />
	</node>
	<node id="-155464" lat="61.2048694478" lon="8.26726944907">
		<tag k="name" v="Fløgstrøndfjorden" />
		<tag k="natural" v="water" />
		<tag k="ssr:stedsnr" v="70539" />
	</node>
	<node id="-155463" lat="61.2914416636" lon="8.44173334102">
		<tag k="name" v="Yksna" />
		<tag k="ssr:stedsnr" v="69817" />
		<tag k="waterway" v="stream" />
	</node>
	<node id="-155460" lat="60.9593583372" lon="8.66868056348">
		<tag k="name" v="Grunka" />
		<tag k="ssr:stedsnr" v="69776" />
		<tag k="waterway" v="river" />
	</node>
	<node id="-155457" lat="61.3739555553" lon="8.26350556396">
		<tag k="name" v="Sløtabekken" />
		<tag k="ssr:stedsnr" v="68821" />
		<tag k="waterway" v="stream" />
	</node>
	<node id="-155453" lat="61.2160805521" lon="8.81341389138">
		<tag k="name" v="Kjeltjerne" />
		<tag k="natural" v="water" />
		<tag k="ssr:stedsnr" v="68756" />
		<tag k="water" v="lake" />
	</node>
	<node id="-155452" lat="61.0995111093" lon="8.33246110922">
		<tag k="name" v="Ursdalstjernet" />
		<tag k="natural" v="water" />
		<tag k="ssr:stedsnr" v="68694" />
	</node>
	<node id="-155451" lat="61.1042644688" lon="8.28449688183">
		<tag k="name" v="Langetjerne" />
		<tag k="natural" v="water" />
		<tag k="ssr:stedsnr" v="68691" />
		<tag k="water" v="lake" />
	</node>
	<node id="-155450" lat="61.1283076891" lon="8.15888439669">
		<tag k="alt_name" v="Sulevatnet, øvre" />
		<tag k="name" v="Øvre Sulevatnet" />
		<tag k="natural" v="water" />
		<tag k="ssr:stedsnr" v="68672" />
		<tag k="water" v="lake" />
	</node>
	<node id="-155446" lat="61.0115555557" lon="8.72571943739">
		<tag k="name" v="Runde Tangen" />
		<tag k="natural" v="cape" />
		<tag k="ssr:stedsnr" v="68436" />
	</node>
	<node id="-155445" lat="61.0080999956" lon="8.72935556379">
		<tag k="name" v="Strøsfjorden" />
		<tag k="natural" v="water" />
		<tag k="old_name" v="Strøssfjorden" />
		<tag k="ssr:stedsnr" v="68426" />
	</node>
	<node id="-155444" lat="61.0469027816" lon="8.65873611475">
		<tag k="name" v="Svørsåne" />
		<tag k="ssr:stedsnr" v="68401" />
		<tag k="waterway" v="stream" />
	</node>
	<node id="-155438" lat="61.1933805584" lon="8.52327499667">
		<tag k="name" v="Leineåne" />
		<tag k="ssr:stedsnr" v="68715" />
		<tag k="waterway" v="river" />
	</node>
	<node id="-155435" lat="61.3178861089" lon="8.81359444953">
		<tag k="name" v="Stavtjerne" />
		<tag k="natural" v="water" />
		<tag k="ssr:stedsnr" v="68188" />
		<tag k="water" v="lake" />
	</node>
	<node id="-155433" lat="61.2965662222" lon="8.54142846843">
		<tag k="name" v="Yksnin" />
		<tag k="natural" v="water" />
		<tag k="ssr:stedsnr" v="68171" />
		<tag k="water" v="lake" />
	</node>
	<node id="-155432" lat="61.3774527737" lon="8.59741111336">
		<tag k="name" v="Torfinnsdøla" />
		<tag k="ssr:stedsnr" v="68163" />
		<tag k="waterway" v="stream" />
	</node>
	<node id="-155429" lat="61.2351888913" lon="8.4951666649">
		<tag k="name" v="Svartetjernet" />
		<tag k="natural" v="water" />
		<tag k="ssr:stedsnr" v="67722" />
	</node>
	<node id="-155428" lat="61.1508027744" lon="8.33345277517">
		<tag k="alt_name" v="Listølåne" />
		<tag k="name" v="Jeisseåne" />
		<tag k="ssr:stedsnr" v="67685" />
		<tag k="waterway" v="river" />
	</node>
	<node id="-155420" lat="61.1044250001" lon="8.58879443882">
		<tag k="alt_name" v="Søvela" />
		<tag k="name" v="Søvella" />
		<tag k="ssr:stedsnr" v="67387" />
		<tag k="waterway" v="stream" />
	</node>
	<node id="-155413" lat="61.152804862" lon="8.68974726526">
		<tag k="name" v="Øyloøddin" />
		<tag k="natural" v="cape" />
		<tag k="ssr:stedsnr" v="58963" />
	</node>
	<node id="-155398" lat="61.1631611081" lon="8.81849444873">
		<tag k="name" v="Stormyrbekken" />
		<tag k="ssr:stedsnr" v="58411" />
		<tag k="waterway" v="stream" />
	</node>
	<node id="-155395" lat="61.2014750025" lon="8.29358889464">
		<tag k="name" v="Varpabekken" />
		<tag k="ssr:stedsnr" v="58384" />
		<tag k="waterway" v="stream" />
	</node>
	<node id="-155394" lat="61.2076777758" lon="8.3478722255">
		<tag k="name" v="Monsebekken" />
		<tag k="ssr:stedsnr" v="58360" />
		<tag k="waterway" v="stream" />
	</node>
	<node id="-155392" lat="61.180424997" lon="8.20885555135">
		<tag k="name" v="Raude Sandadn" />
		<tag k="natural" v="beach" />
		<tag k="ssr:stedsnr" v="58290" />
	</node>
	<node id="-155379" lat="61.1480111113" lon="8.76514444613">
		<tag k="name" v="Gardalsøyene" />
		<tag k="place" v="island" />
		<tag k="ssr:stedsnr" v="58192" />
	</node>
	<node id="-155374" lat="61.2217972236" lon="8.86785000729">
		<tag k="name" v="Stussnes" />
		<tag k="natural" v="cape" />
		<tag k="ssr:stedsnr" v="54948" />
	</node>
	<node id="-155371" lat="61.0837083372" lon="8.55868054815">
		<tag k="alt_name" v="Grøvsdøla" />
		<tag k="name" v="Grovsdøla" />
		<tag k="ssr:stedsnr" v="52315" />
		<tag k="waterway" v="stream" />
	</node>
	<node id="-155370" lat="61.1729055518" lon="8.26316389383">
		<tag k="name" v="Tenletjernet" />
		<tag k="natural" v="water" />
		<tag k="ssr:stedsnr" v="50520" />
	</node>
	<node id="-155353" lat="61.0349972206" lon="8.67691945039">
		<tag k="name" v="Låvesanden" />
		<tag k="natural" v="beach" />
		<tag k="ssr:stedsnr" v="39745" />
	</node>
	<node id="-155344" lat="61.1552833333" lon="8.55156944648">
		<tag k="name" v="Røykjedalsbekken" />
		<tag k="ssr:stedsnr" v="39648" />
		<tag k="waterway" v="stream" />
	</node>
	<node id="-155336" lat="61.1558083314" lon="8.48253889628">
		<tag k="name" v="Turtnesøddin" />
		<tag k="natural" v="cape" />
		<tag k="ssr:stedsnr" v="39415" />
	</node>
	<node id="-155333" lat="61.1679027773" lon="8.45682222971">
		<tag k="name" v="Stavnøyne" />
		<tag k="natural" v="beach" />
		<tag k="ssr:stedsnr" v="39374" />
	</node>
	<node id="-155330" lat="61.0898444481" lon="8.4546888801">
		<tag k="name" v="Haugesetåne" />
		<tag k="ssr:stedsnr" v="39340" />
		<tag k="waterway" v="stream" />
	</node>
	<node id="-155325" lat="61.1587833362" lon="8.39626667485">
		<tag k="name" v="Drøsjainbekken" />
		<tag k="ssr:stedsnr" v="39320" />
		<tag k="waterway" v="stream" />
	</node>
	<node id="-155317" lat="61.3345333296" lon="8.25255000764">
		<tag k="name" v="Fiskeøynane" />
		<tag k="place" v="islet" />
		<tag k="ssr:stedsnr" v="33519" />
	</node>
	<node id="-155316" lat="61.357995275" lon="8.1790148507">
		<tag k="loc_name" v="Køldedøla" />
		<tag k="name" v="Koldedøla" />
		<tag k="ssr:stedsnr" v="33318" />
		<tag k="waterway" v="river" />
	</node>
	<node id="-155309" lat="60.9477388912" lon="8.64301389067">
		<tag k="name" v="Lusterbekken" />
		<tag k="old_name" v="Lusteråne;Lusteråni" />
		<tag k="ssr:stedsnr" v="9750" />
		<tag k="waterway" v="stream" />
	</node>
	<node id="-155299" lat="61.2521750019" lon="8.55103333067">
		<tag k="name" v="Remmiskinntjernet" />
		<tag k="natural" v="water" />
		<tag k="ssr:stedsnr" v="7701" />
	</node>
	<node id="-155297" lat="61.2456750044" lon="8.63973056428">
		<tag k="name" v="Skavletjernet" />
		<tag k="natural" v="water" />
		<tag k="ssr:stedsnr" v="7698" />
	</node>
	<node id="-155295" lat="61.1838222186" lon="8.48059167527">
		<tag k="name" v="Tasabottjernet" />
		<tag k="natural" v="water" />
		<tag k="ssr:stedsnr" v="7665" />
	</node>
	<node id="-155291" lat="61.0160499969" lon="8.71767499181">
		<tag k="name" v="Tangeglupen" />
		<tag k="natural" v="strait" />
		<tag k="ssr:stedsnr" v="7416" />
	</node>
	<node id="-155288" lat="61.0857041781" lon="8.65147301798">
		<tag k="name" v="Høljesyndin" />
		<tag k="natural" v="water" />
		<tag k="ssr:stedsnr" v="7356" />
		<tag k="water" v="lake" />
	</node>
	<node id="-155286" lat="61.1258138917" lon="8.7147999982">
		<tag k="name" v="Langetjernet" />
		<tag k="natural" v="water" />
		<tag k="ssr:stedsnr" v="7332" />
	</node>
	<node id="-155285" lat="61.1312305571" lon="8.72765555824">
		<tag k="name" v="Røgnstjernet" />
		<tag k="natural" v="water" />
		<tag k="ssr:stedsnr" v="7331" />
	</node>
	<node id="-155280" lat="61.1436499969" lon="8.5659027838">
		<tag k="name" v="Sparstadodden" />
		<tag k="natural" v="cape" />
		<tag k="ssr:stedsnr" v="7264" />
	</node>
	<node id="-155277" lat="61.281549997" lon="8.7595055643">
		<tag k="name" v="Kvetjernet" />
		<tag k="natural" v="water" />
		<tag k="ssr:stedsnr" v="7196" />
	</node>
	<node id="-155264" lat="61.3764294225" lon="8.15021596511">
		<tag k="name" v="Koldedalsvatnet" />
		<tag k="natural" v="water" />
		<tag k="old_name" v="Køldedalsvatnet" />
		<tag k="ssr:stedsnr" v="371830" />
		<tag k="water" v="lake" />
	</node>
	<node id="-155247" lat="61.1367015673" lon="8.82502563549">
		<tag k="name" v="Ryfossen" />
		<tag k="natural" v="waterfall" />
		<tag k="ssr:stedsnr" v="58264" />
	</node>
	<node id="-155236" lat="61.1793444449" lon="8.53550555083">
		<tag k="name" v="Syrehølken" />
		<tag k="place" v="locality" />
		<tag k="ssr:stedsnr" v="889765" />
	</node>
	<node id="-155235" lat="61.1505444461" lon="8.56708889353">
		<tag k="name" v="Sparstadbekken" />
		<tag k="ssr:stedsnr" v="889733" />
		<tag k="waterway" v="stream" />
	</node>
	<node id="-155210" lat="61.1640250027" lon="8.39922222526">
		<tag k="name" v="Såbekken" />
		<tag k="ssr:stedsnr" v="889373" />
		<tag k="waterway" v="stream" />
	</node>
	<node id="-155201" lat="61.1100030527" lon="8.70077560831">
		<tag k="name" v="Buarøddin" />
		<tag k="natural" v="cape" />
		<tag k="ssr:stedsnr" v="888398" />
	</node>
	<node id="-155195" lat="61.3077833365" lon="8.64334166611">
		<tag k="name" v="Oleøddin" />
		<tag k="natural" v="cape" />
		<tag k="ssr:stedsnr" v="479146" />
	</node>
	<node id="-155194" lat="61.2199583332" lon="8.86503054944">
		<tag k="name" v="Bjørånvike" />
		<tag k="natural" v="bay" />
		<tag k="ssr:stedsnr" v="478936" />
	</node>
	<node id="-155191" lat="61.1549287336" lon="8.68491593021">
		<tag k="alt_name" v="Nørsvinsfjorden;Nørsvinfjorden" />
		<tag k="name" v="Norsvinsfjorden" />
		<tag k="natural" v="water" />
		<tag k="ssr:stedsnr" v="476253" />
	</node>
	<node id="-155190" lat="61.1868444452" lon="8.60478055225">
		<tag k="name" v="Søre Glupetjernet" />
		<tag k="natural" v="water" />
		<tag k="ssr:stedsnr" v="474366" />
	</node>
	<node id="-155189" lat="61.1278944426" lon="8.69404444616">
		<tag k="name" v="Ålasteintjernet" />
		<tag k="natural" v="water" />
		<tag k="ssr:stedsnr" v="413390" />
	</node>
	<node id="-155188" lat="61.1252250041" lon="8.73434443758">
		<tag k="name" v="Tretjernet" />
		<tag k="natural" v="water" />
		<tag k="ssr:stedsnr" v="413276" />
	</node>
	<node id="-155177" lat="61.2092027809" lon="8.50524445142">
		<tag k="name" v="Jeissåne" />
		<tag k="ssr:stedsnr" v="403802" />
		<tag k="waterway" v="stream" />
	</node>
	<node id="-155176" lat="61.1567555554" lon="8.60371388005">
		<tag k="name" v="Langåne" />
		<tag k="ssr:stedsnr" v="403720" />
		<tag k="waterway" v="stream" />
	</node>
	<node id="-155174" lat="61.1546222184" lon="8.55697222926">
		<tag k="name" v="Øldrebekken" />
		<tag k="ssr:stedsnr" v="403700" />
		<tag k="waterway" v="stream" />
	</node>
	<node id="-155173" lat="61.1563694429" lon="8.55857777764">
		<tag k="name" v="Djupedalsbekken" />
		<tag k="ssr:stedsnr" v="403696" />
		<tag k="waterway" v="stream" />
	</node>
	<node id="-155169" lat="61.1213611128" lon="8.53030000234">
		<tag k="name" v="Krøssfønnbekken" />
		<tag k="ssr:stedsnr" v="403641" />
		<tag k="waterway" v="stream" />
	</node>
	<node id="-155167" lat="61.1714194477" lon="8.3990749959">
		<tag k="name" v="Lundsfjorden" />
		<tag k="natural" v="water" />
		<tag k="ssr:stedsnr" v="403482" />
	</node>
	<node id="-155157" lat="61.197672226" lon="8.66153333661">
		<tag k="name" v="Brekkehølen" />
		<tag k="place" v="locality" />
		<tag k="ssr:stedsnr" v="403099" />
	</node>
	<node id="-155153" lat="61.2269277801" lon="8.63260000846">
		<tag k="name" v="Tvørra" />
		<tag k="ssr:stedsnr" v="403002" />
		<tag k="waterway" v="stream" />
	</node>
	<node id="-155152" lat="61.2101916681" lon="8.28070833995">
		<tag k="name" v="Ylja" />
		<tag k="ssr:stedsnr" v="393915" />
		<tag k="waterway" v="river" />
	</node>
	<node id="-155149" lat="61.245233329" lon="8.35551111491">
		<tag k="name" v="Nakketjernet" />
		<tag k="natural" v="water" />
		<tag k="ssr:stedsnr" v="374581" />
	</node>
	<node id="-155136" lat="61.1946055576" lon="8.63400555688">
		<tag k="name" v="Tjørobyttjernet" />
		<tag k="natural" v="water" />
		<tag k="ssr:stedsnr" v="371701" />
	</node>
	<node id="-155135" lat="61.1952083355" lon="8.6740083264">
		<tag k="alt_name" v="Ryssna" />
		<tag k="name" v="Rysna" />
		<tag k="ssr:stedsnr" v="371698" />
		<tag k="waterway" v="river" />
	</node>
	<node id="-155134" lat="61.116941668" lon="8.35168889367">
		<tag k="name" v="Sauebottjernet" />
		<tag k="natural" v="water" />
		<tag k="ssr:stedsnr" v="371690" />
	</node>
	<node id="-155133" lat="61.1206861143" lon="8.25278054724">
		<tag k="name" v="Steinurdalstjernet" />
		<tag k="natural" v="water" />
		<tag k="ssr:stedsnr" v="371687" />
	</node>
	<node id="-155126" lat="61.1267638907" lon="8.68513333771">
		<tag k="name" v="Søretjernet" />
		<tag k="natural" v="water" />
		<tag k="ssr:stedsnr" v="371319" />
	</node>
	<node id="-155117" lat="61.277116664" lon="8.5616166641">
		<tag k="name" v="Tverrdingla" />
		<tag k="ssr:stedsnr" v="371204" />
		<tag k="waterway" v="river" />
	</node>
	<node id="-155116" lat="61.2541638898" lon="8.49794999897">
		<tag k="name" v="Kvitetjernet" />
		<tag k="natural" v="water" />
		<tag k="ssr:stedsnr" v="371188" />
	</node>
	<node id="-155113" lat="61.3558694417" lon="8.76177777177">
		<tag k="name" v="Øystre Fagerdalstjernet" />
		<tag k="natural" v="water" />
		<tag k="ssr:stedsnr" v="371153" />
	</node>
	<node id="-155112" lat="61.3647694426" lon="8.66611388653">
		<tag k="name" v="Hestevollåne" />
		<tag k="ssr:stedsnr" v="371143" />
		<tag k="waterway" v="stream" />
	</node>
	<node id="-155111" lat="61.1379833289" lon="8.20074166574">
		<tag k="name" v="Svarteknipptjernet" />
		<tag k="natural" v="water" />
		<tag k="ssr:stedsnr" v="370669" />
	</node>
	<node id="-155110" lat="61.0751055562" lon="8.36344443523">
		<tag k="name" v="Kljåkinntjerne" />
		<tag k="natural" v="water" />
		<tag k="ssr:stedsnr" v="370652" />
		<tag k="water" v="lake" />
	</node>
	<node id="-155108" lat="61.1707388881" lon="8.28743611113">
		<tag k="name" v="Røtjernet" />
		<tag k="natural" v="water" />
		<tag k="ssr:stedsnr" v="370610" />
	</node>
	<node id="-157146" lat="61.1700388929" lon="8.34894444521">
		<tag k="name" v="Enggjibekken" />
		<tag k="ssr:stedsnr" v="968282" />
		<tag k="waterway" v="stream" />
	</node>
	<node id="-155093" lat="61.2679000024" lon="8.19290277316">
		<tag k="name" v="Melvikbekken" />
		<tag k="old_name" v="Mellvikbekken" />
		<tag k="ssr:stedsnr" v="361625" />
		<tag k="waterway" v="stream" />
	</node>
	<node id="-155092" lat="61.3798388873" lon="8.33504165909">
		<tag k="name" v="Brandbuødden" />
		<tag k="natural" v="cape" />
		<tag k="ssr:stedsnr" v="361622" />
	</node>
	<node id="-157139" lat="61.2241444477" lon="8.18126389533">
		<tag k="name" v="Gullringen" />
		<tag k="ssr:stedsnr" v="968236" />
		<tag k="waterway" v="stream" />
	</node>
	<node id="-157136" lat="61.1549249982" lon="8.75398888986">
		<tag k="name" v="Tveitahølen" />
		<tag k="place" v="locality" />
		<tag k="ssr:stedsnr" v="968190" />
	</node>
	<node id="-155086" lat="61.1582805516" lon="8.74715554733">
		<tag k="alt_name" v="Laglimsbekken" />
		<tag k="name" v="Ljøsno" />
		<tag k="ssr:stedsnr" v="361425" />
		<tag k="waterway" v="stream" />
	</node>
	<node id="-157130" lat="61.2929055551" lon="8.68679722231">
		<tag k="name" v="Augunshølen" />
		<tag k="place" v="locality" />
		<tag k="ssr:stedsnr" v="964154" />
	</node>
	<node id="-157127" lat="61.1744194446" lon="8.24113333992">
		<tag k="name" v="Børrenøstjernet" />
		<tag k="natural" v="water" />
		<tag k="ssr:stedsnr" v="960571" />
	</node>
	<node id="-155073" lat="61.2016111117" lon="8.2606277796">
		<tag k="loc_name" v="Fløgstrøndbekken;Flogstrondbekken" />
		<tag k="name" v="Fløkstrøndbekken" />
		<tag k="ssr:stedsnr" v="361243" />
		<tag k="waterway" v="stream" />
	</node>
	<node id="-155071" lat="61.2237444471" lon="8.23898333894">
		<tag k="name" v="Tyisbekken" />
		<tag k="ssr:stedsnr" v="361227" />
		<tag k="waterway" v="stream" />
	</node>
	<node id="-155065" lat="61.1568194447" lon="8.7857555518">
		<tag k="name" v="Varpebekken" />
		<tag k="ssr:stedsnr" v="361190" />
		<tag k="waterway" v="stream" />
	</node>
	<node id="-157111" lat="61.1750888901" lon="8.67178332664">
		<tag k="name" v="Austreimsføssen" />
		<tag k="natural" v="waterfall" />
		<tag k="ssr:stedsnr" v="949954" />
	</node>
	<node id="-155056" lat="61.2356611081" lon="8.72852221876">
		<tag k="name" v="Veslemugna" />
		<tag k="ssr:stedsnr" v="357243" />
		<tag k="waterway" v="stream" />
	</node>
	<node id="-155055" lat="61.3125972204" lon="8.67279722975">
		<tag k="name" v="Bergaåne" />
		<tag k="ssr:stedsnr" v="357130" />
		<tag k="waterway" v="stream" />
	</node>
	<node id="-155054" lat="61.2583138911" lon="8.70853054964">
		<tag k="name" v="Øddestølstjernet" />
		<tag k="natural" v="water" />
		<tag k="ssr:stedsnr" v="357122" />
	</node>
	<node id="-155053" lat="61.2905361068" lon="8.32691389688">
		<tag k="name" v="Møsaryggtjernet" />
		<tag k="natural" v="water" />
		<tag k="ssr:stedsnr" v="353511" />
	</node>
	<node id="-155052" lat="61.1117194477" lon="8.66803054744">
		<tag k="name" v="Pløggetjernet" />
		<tag k="natural" v="water" />
		<tag k="ssr:stedsnr" v="353313" />
	</node>
	<node id="-157093" lat="61.2418240179" lon="8.12840155579">
		<tag k="alt_name" v="Årdalsvatnet, øvre" />
		<tag k="name" v="Øvre Årdalsvatnet" />
		<tag k="natural" v="water" />
		<tag k="ssr:stedsnr" v="920597" />
		<tag k="water" v="lake" />
	</node>
	<node id="-155041" lat="61.0433166701" lon="8.65530277712">
		<tag k="name" v="Haugaøddin" />
		<tag k="natural" v="cape" />
		<tag k="ssr:stedsnr" v="342744" />
	</node>
	<node id="-157085" lat="61.2866305522" lon="8.23933610792">
		<tag k="name" v="Hittenes" />
		<tag k="natural" v="cape" />
		<tag k="ssr:stedsnr" v="918843" />
	</node>
	<node id="-157083" lat="61.2596249991" lon="8.56322500362">
		<tag k="name" v="Slettmarktjernet" />
		<tag k="natural" v="water" />
		<tag k="ssr:stedsnr" v="918237" />
	</node>
	<node id="-155034" lat="61.1494916637" lon="8.56221666963">
		<tag k="name" v="Svintebekken" />
		<tag k="ssr:stedsnr" v="342653" />
		<tag k="waterway" v="stream" />
	</node>
	<node id="-157080" lat="61.3104890642" lon="8.60047210865">
		<tag k="name" v="Skamdalsfjorden" />
		<tag k="natural" v="water" />
		<tag k="ssr:stedsnr" v="918208" />
	</node>
	<node id="-157079" lat="61.3111249406" lon="8.73375998863">
		<tag k="name" v="Seksin" />
		<tag k="natural" v="water" />
		<tag k="ssr:stedsnr" v="918206" />
		<tag k="water" v="lake" />
	</node>
	<node id="-155030" lat="61.1643499989" lon="8.49378332918">
		<tag k="name" v="Maureøddin" />
		<tag k="natural" v="cape" />
		<tag k="ssr:stedsnr" v="342403" />
	</node>
	<node id="-155029" lat="61.1969555583" lon="8.35281389063">
		<tag k="name" v="Jorisåne" />
		<tag k="ssr:stedsnr" v="342372" />
		<tag k="waterway" v="stream" />
	</node>
	<node id="-157067" lat="61.1646083366" lon="8.43455277193">
		<tag k="name" v="Vangsmjøse" />
		<tag k="natural" v="water" />
		<tag k="ssr:stedsnr" v="917639" />
		<tag k="water" v="lake" />
	</node>
	<node id="-157065" lat="61.0636944409" lon="8.40256110485">
		<tag k="name" v="Jødntjernet" />
		<tag k="natural" v="water" />
		<tag k="ssr:stedsnr" v="917601" />
	</node>
	<node id="-157055" lat="61.0926250033" lon="8.67893888129">
		<tag k="name" v="Gamlestølsvike" />
		<tag k="natural" v="bay" />
		<tag k="ssr:stedsnr" v="917331" />
	</node>
	<node id="-155005" lat="61.303944448" lon="8.27978332683">
		<tag k="name" v="Nørdre Geitrennbekken" />
		<tag k="ssr:stedsnr" v="311823" />
		<tag k="waterway" v="stream" />
	</node>
	<node id="-155004" lat="61.2711694439" lon="8.26147776957">
		<tag k="name" v="Målnestjernet" />
		<tag k="natural" v="water" />
		<tag k="ssr:stedsnr" v="311817" />
	</node>
	<node id="-155003" lat="61.275427775" lon="8.22541389297">
		<tag k="name" v="Målnesodden" />
		<tag k="natural" v="cape" />
		<tag k="ssr:stedsnr" v="311814" />
	</node>
	<node id="-155000" lat="61.2629833337" lon="8.44227499213">
		<tag k="name" v="Dingledalstjernet" />
		<tag k="natural" v="water" />
		<tag k="ssr:stedsnr" v="311809" />
	</node>
	<node id="-154998" lat="61.2886999998" lon="8.68559167274">
		<tag k="name" v="Oleåne" />
		<tag k="ssr:stedsnr" v="311252" />
		<tag k="waterway" v="river" />
	</node>
	<node id="-154997" lat="61.2825944489" lon="8.69801111527">
		<tag k="name" v="Åtjernet" />
		<tag k="natural" v="water" />
		<tag k="ssr:stedsnr" v="311244" />
	</node>
	<node id="-154996" lat="61.3147027051" lon="8.77655374937">
		<tag k="alt_name" v="Raufjorden" />
		<tag k="name" v="Raudfjorden" />
		<tag k="natural" v="water" />
		<tag k="ssr:stedsnr" v="311237" />
	</node>
	<node id="-154995" lat="61.3216845814" lon="8.76930543358">
		<tag k="name" v="Hålissundet" />
		<tag k="natural" v="strait" />
		<tag k="ssr:stedsnr" v="311236" />
	</node>
	<node id="-154993" lat="61.331769445" lon="8.53507222398">
		<tag k="name" v="Dyrdaltjernet" />
		<tag k="natural" v="water" />
		<tag k="ssr:stedsnr" v="311213" />
	</node>
	<node id="-154992" lat="61.3284111132" lon="8.80900278241">
		<tag k="name" v="Vinsteråne" />
		<tag k="ssr:stedsnr" v="311206" />
		<tag k="waterway" v="river" />
	</node>
	<node id="-154990" lat="61.2348944464" lon="8.73480277154">
		<tag k="name" v="Raftetjernet" />
		<tag k="natural" v="water" />
		<tag k="ssr:stedsnr" v="310755" />
	</node>
	<node id="-157035" lat="61.2077138918" lon="8.28365277367">
		<tag k="name" v="Yljeøyne" />
		<tag k="natural" v="bay" />
		<tag k="ssr:stedsnr" v="908354" />
	</node>
	<node id="-157031" lat="61.2319722263" lon="8.22187221857">
		<tag k="name" v="Galdsbekken" />
		<tag k="ssr:stedsnr" v="908219" />
		<tag k="waterway" v="stream" />
	</node>
	<node id="-154981" lat="61.0904666646" lon="8.28024443895">
		<tag k="name" v="Fossegrovtjernet" />
		<tag k="natural" v="water" />
		<tag k="ssr:stedsnr" v="310638" />
	</node>
	<node id="-154978" lat="61.0409500029" lon="8.57231111779">
		<tag k="name" v="Langetjernet" />
		<tag k="natural" v="water" />
		<tag k="ssr:stedsnr" v="310451" />
	</node>
	<node id="-154970" lat="61.1444777815" lon="8.77783610215">
		<tag k="name" v="Storåne" />
		<tag k="ssr:stedsnr" v="310313" />
		<tag k="waterway" v="river" />
	</node>
	<node id="-157017" lat="61.0871972227" lon="8.71903610597">
		<tag k="name" v="Brekkevike" />
		<tag k="natural" v="bay" />
		<tag k="ssr:stedsnr" v="907791" />
	</node>
	<node id="-157015" lat="61.1309138861" lon="8.54823333883">
		<tag k="name" v="Osen" />
		<tag k="natural" v="bay" />
		<tag k="ssr:stedsnr" v="907674" />
	</node>
	<node id="-154962" lat="61.1657211459" lon="8.74154406136">
		<tag k="name" v="Laglim" />
		<tag k="natural" v="water" />
		<tag k="ssr:stedsnr" v="310276" />
		<tag k="water" v="lake" />
	</node>
	<node id="-156999" lat="61.1820444423" lon="8.15257778562">
		<tag k="name" v="Kvednabekken" />
		<tag k="ssr:stedsnr" v="907170" />
		<tag k="waterway" v="stream" />
	</node>
	<node id="-156996" lat="61.1847416627" lon="8.33833888697">
		<tag k="name" v="Nonsvardtjernet" />
		<tag k="natural" v="water" />
		<tag k="ssr:stedsnr" v="899574" />
	</node>
	<node id="-156995" lat="61.142238889" lon="8.77739166519">
		<tag k="name" v="Røytjernet" />
		<tag k="natural" v="water" />
		<tag k="ssr:stedsnr" v="899568" />
	</node>
	<node id="-156994" lat="61.2622083306" lon="8.16365832414">
		<tag k="name" v="Korstjernet" />
		<tag k="natural" v="water" />
		<tag k="ssr:stedsnr" v="900499" />
	</node>
	<node id="-154944" lat="61.2022333291" lon="8.31244722354">
		<tag k="name" v="Grønebekken" />
		<tag k="ssr:stedsnr" v="301342" />
		<tag k="waterway" v="stream" />
	</node>
	<node id="-156990" lat="61.1882277772" lon="8.26667222143">
		<tag k="name" v="Nedre Bøastøltjernet" />
		<tag k="natural" v="water" />
		<tag k="ssr:stedsnr" v="859545" />
	</node>
	<node id="-154940" lat="61.1748305551" lon="8.1801194417">
		<tag k="name" v="Snauevike" />
		<tag k="natural" v="bay" />
		<tag k="ssr:stedsnr" v="301234" />
	</node>
	<node id="-154939" lat="61.2061305524" lon="8.23317222457">
		<tag k="name" v="Bjordalsbekken" />
		<tag k="ssr:stedsnr" v="301213" />
		<tag k="waterway" v="stream" />
	</node>
	<node id="-154934" lat="61.1086416647" lon="8.69379721608">
		<tag k="name" v="Myreøddin" />
		<tag k="natural" v="cape" />
		<tag k="ssr:stedsnr" v="300887" />
	</node>
	<node id="-156981" lat="61.1759916679" lon="8.48013888703">
		<tag k="alt_name" v="Tøsobekken" />
		<tag k="name" v="Tasabekken" />
		<tag k="ssr:stedsnr" v="857724" />
		<tag k="waterway" v="stream" />
	</node>
	<node id="-154930" lat="61.3806305519" lon="8.33893056329">
		<tag k="name" v="Brandbustrønde" />
		<tag k="natural" v="beach" />
		<tag k="ssr:stedsnr" v="300607" />
	</node>
	<node id="-156975" lat="61.0178000002" lon="8.72355834146">
		<tag k="name" v="Tangefjorden" />
		<tag k="natural" v="bay" />
		<tag k="ssr:stedsnr" v="857439" />
	</node>
	<node id="-156972" lat="61.1239305591" lon="8.48043610582">
		<tag k="name" v="Tverrgardsåne" />
		<tag k="ssr:stedsnr" v="857361" />
		<tag k="waterway" v="stream" />
	</node>
	<node id="-156969" lat="61.1224472217" lon="8.74980277343">
		<tag k="name" v="Bussetjernet" />
		<tag k="natural" v="water" />
		<tag k="ssr:stedsnr" v="857336" />
	</node>
	<node id="-154920" lat="61.1397527789" lon="8.82858889308">
		<tag k="name" v="Oksedalen" />
		<tag k="ssr:stedsnr" v="300232" />
		<tag k="waterway" v="stream" />
	</node>
	<node id="-156966" lat="61.2698583307" lon="8.57188054936">
		<tag k="name" v="Tverrdingletjernet" />
		<tag k="natural" v="water" />
		<tag k="ssr:stedsnr" v="857243" />
	</node>
	<node id="-156965" lat="61.2667638927" lon="8.73768888941">
		<tag k="name" v="Sandvike" />
		<tag k="natural" v="bay" />
		<tag k="ssr:stedsnr" v="857232" />
	</node>
	<node id="-156964" lat="61.3173027737" lon="8.66960277857">
		<tag k="name" v="Bergaåntjernet" />
		<tag k="natural" v="water" />
		<tag k="ssr:stedsnr" v="857193" />
	</node>
	<node id="-154915" lat="61.2328638919" lon="8.74060000831">
		<tag k="name" v="Kyrtjernet" />
		<tag k="natural" v="water" />
		<tag k="ssr:stedsnr" v="292705" />
	</node>
	<node id="-156958" lat="61.0510277767" lon="8.42594722645">
		<tag k="name" v="Bjørnatjernet" />
		<tag k="natural" v="water" />
		<tag k="ssr:stedsnr" v="856671" />
	</node>
	<node id="-156957" lat="61.0713833328" lon="8.68461944988">
		<tag k="name" v="Sauebekken" />
		<tag k="ssr:stedsnr" v="856451" />
		<tag k="waterway" v="stream" />
	</node>
	<node id="-156953" lat="61.0835305542" lon="8.71167500311">
		<tag k="name" v="Lauvøye" />
		<tag k="place" v="islet" />
		<tag k="ssr:stedsnr" v="856402" />
	</node>
	<node id="-156952" lat="61.0959388928" lon="8.68806666751">
		<tag k="name" v="Lange Tangen" />
		<tag k="natural" v="cape" />
		<tag k="ssr:stedsnr" v="856395" />
	</node>
	<node id="-156951" lat="61.0982805544" lon="8.63240554989">
		<tag k="name" v="Kvålstøltjerne" />
		<tag k="natural" v="water" />
		<tag k="ssr:stedsnr" v="856386" />
		<tag k="water" v="lake" />
	</node>
	<node id="-156950" lat="61.0966305601" lon="8.62504166927">
		<tag k="name" v="Kølåne" />
		<tag k="ssr:stedsnr" v="856384" />
		<tag k="waterway" v="stream" />
	</node>
	<node id="-154898" lat="61.1353527779" lon="8.59633054908">
		<tag k="name" v="Katteskjær" />
		<tag k="place" v="islet" />
		<tag k="ssr:stedsnr" v="282688" />
	</node>
	<node id="-154890" lat="61.1984666698" lon="8.49856667137">
		<tag k="name" v="Nørdre Tverråne" />
		<tag k="old_name" v="Nørdre Tvørråne" />
		<tag k="ssr:stedsnr" v="282531" />
		<tag k="waterway" v="stream" />
	</node>
	<node id="-154889" lat="61.1946805599" lon="8.39634999631">
		<tag k="name" v="Skjerva" />
		<tag k="ssr:stedsnr" v="282481" />
		<tag k="waterway" v="stream" />
	</node>
	<node id="-154884" lat="61.1731222201" lon="8.39183864263">
		<tag k="name" v="Kvamsfjorden" />
		<tag k="natural" v="water" />
		<tag k="ssr:stedsnr" v="282410" />
	</node>
	<node id="-154883" lat="61.1712472181" lon="8.40249445174">
		<tag k="name" v="Brandsøynadn" />
		<tag k="place" v="islet" />
		<tag k="ssr:stedsnr" v="282404" />
	</node>
	<node id="-154881" lat="61.2093055571" lon="8.35877222278">
		<tag k="name" v="Rabbesteinsbekken" />
		<tag k="ssr:stedsnr" v="282399" />
		<tag k="waterway" v="stream" />
	</node>
	<node id="-156928" lat="61.2100888904" lon="8.34414722232">
		<tag k="name" v="Sårbubekken" />
		<tag k="ssr:stedsnr" v="847363" />
		<tag k="waterway" v="stream" />
	</node>
	<node id="-156923" lat="61.194899998" lon="8.24633610451">
		<tag k="name" v="Vesleåne" />
		<tag k="ssr:stedsnr" v="847243" />
		<tag k="waterway" v="stream" />
	</node>
	<node id="-156921" lat="61.1768777787" lon="8.16910277197">
		<tag k="name" v="Øddin" />
		<tag k="natural" v="cape" />
		<tag k="ssr:stedsnr" v="847220" />
	</node>
	<node id="-154871" lat="61.2158583324" lon="8.7374833295">
		<tag k="name" v="Tverrbekken" />
		<tag k="old_name" v="Tvørrbekken" />
		<tag k="ssr:stedsnr" v="282016" />
		<tag k="waterway" v="stream" />
	</node>
	<node id="-156918" lat="61.1396833357" lon="8.79311388501">
		<tag k="name" v="Kvismohølen" />
		<tag k="place" v="locality" />
		<tag k="ssr:stedsnr" v="847026" />
	</node>
	<node id="-156915" lat="61.3075472261" lon="8.6807222257">
		<tag k="name" v="Maravike" />
		<tag k="natural" v="bay" />
		<tag k="ssr:stedsnr" v="843139" />
	</node>
	<node id="-156914" lat="61.2520333355" lon="8.7238749993">
		<tag k="name" v="Veavike" />
		<tag k="natural" v="bay" />
		<tag k="ssr:stedsnr" v="843127" />
	</node>
	<node id="-156911" lat="61.1956916694" lon="8.48446943908">
		<tag k="name" v="Tverråntjernet" />
		<tag k="natural" v="water" />
		<tag k="ssr:stedsnr" v="839591" />
	</node>
	<node id="-156899" lat="61.1733111111" lon="8.69354721729">
		<tag k="name" v="Fåkjeldbekken" />
		<tag k="ssr:stedsnr" v="828963" />
		<tag k="waterway" v="stream" />
	</node>
	<node id="-156889" lat="61.2221222192" lon="8.85974166507">
		<tag k="name" v="Naustevike" />
		<tag k="natural" v="bay" />
		<tag k="ssr:stedsnr" v="828459" />
	</node>
	<node id="-156882" lat="61.182925004" lon="8.38993332817">
		<tag k="name" v="Evangen" />
		<tag k="natural" v="cape" />
		<tag k="ssr:stedsnr" v="828398" />
	</node>
	<node id="-156880" lat="61.1234861107" lon="8.40599999552">
		<tag k="name" v="Storstølåne" />
		<tag k="ssr:stedsnr" v="828383" />
		<tag k="waterway" v="stream" />
	</node>
	<node id="-156864" lat="61.1842972228" lon="8.68993055379">
		<tag k="name" v="Sputrefossen" />
		<tag k="natural" v="waterfall" />
		<tag k="ssr:stedsnr" v="822710" />
	</node>
	<node id="-156860" lat="61.2459749971" lon="8.24039444583">
		<tag k="name" v="Lortevikodden" />
		<tag k="natural" v="cape" />
		<tag k="ssr:stedsnr" v="799623" />
	</node>
	<node id="-156859" lat="61.2301138915" lon="8.17955555997">
		<tag k="name" v="Gullringane" />
		<tag k="natural" v="water" />
		<tag k="ssr:stedsnr" v="799621" />
		<tag k="water" v="lake" />
	</node>
	<node id="-156855" lat="61.2713305533" lon="8.34759166155">
		<tag k="name" v="Langenes" />
		<tag k="natural" v="cape" />
		<tag k="ssr:stedsnr" v="797794" />
	</node>
	<node id="-156854" lat="60.9942249967" lon="8.71830277753">
		<tag k="name" v="Oksleåne" />
		<tag k="ssr:stedsnr" v="797790" />
		<tag k="waterway" v="stream" />
	</node>
	<node id="-156853" lat="60.9643750004" lon="8.63802500427">
		<tag k="name" v="Hydøla" />
		<tag k="ssr:stedsnr" v="797772" />
		<tag k="waterway" v="river" />
	</node>
	<node id="-156852" lat="61.4043333334" lon="8.37904166433">
		<tag k="loc_name" v="Grønebergtjernet" />
		<tag k="name" v="Grønebekktjernet" />
		<tag k="natural" v="water" />
		<tag k="old_name" v="Grønnebergtjernet" />
		<tag k="ssr:stedsnr" v="796849" />
	</node>
	<node id="-156851" lat="61.3911580391" lon="8.19034004492">
		<tag k="name" v="Kvitevatnet" />
		<tag k="natural" v="water" />
		<tag k="ssr:stedsnr" v="796846" />
		<tag k="water" v="lake" />
	</node>
	<node id="-156850" lat="61.3542750018" lon="8.44362500634">
		<tag k="name" v="Galdebergodden" />
		<tag k="natural" v="cape" />
		<tag k="ssr:stedsnr" v="796825" />
	</node>
	<node id="-156849" lat="61.3213944411" lon="8.31476389503">
		<tag k="name" v="Tvindehaugtjernet" />
		<tag k="natural" v="water" />
		<tag k="ssr:stedsnr" v="796818" />
	</node>
	<node id="-156847" lat="61.208902775" lon="8.50827777143">
		<tag k="name" v="Geitsåne" />
		<tag k="ssr:stedsnr" v="796755" />
		<tag k="waterway" v="stream" />
	</node>
	<node id="-156846" lat="61.1846222184" lon="8.64622499185">
		<tag k="name" v="Hensåne" />
		<tag k="ssr:stedsnr" v="796726" />
		<tag k="waterway" v="stream" />
	</node>
	<node id="-156839" lat="61.1063249987" lon="8.40534721393">
		<tag k="name" v="Skakadalsåne" />
		<tag k="ssr:stedsnr" v="796681" />
		<tag k="waterway" v="river" />
	</node>
	<node id="-156836" lat="61.0145333347" lon="8.53463055563">
		<tag k="name" v="Kulehøla" />
		<tag k="natural" v="water" />
		<tag k="ssr:stedsnr" v="796419" />
	</node>
	<node id="-156835" lat="61.1239083348" lon="8.66781944796">
		<tag k="name" v="Augunsettjernet" />
		<tag k="natural" v="water" />
		<tag k="ssr:stedsnr" v="796337" />
	</node>
	<node id="-156830" lat="61.2775055591" lon="8.63639443637">
		<tag k="name" v="Vesle Sendebottjernet" />
		<tag k="natural" v="water" />
		<tag k="ssr:stedsnr" v="796196" />
	</node>
	<node id="-156828" lat="61.285733336" lon="8.52278333852">
		<tag k="name" v="Djupebottjernet" />
		<tag k="natural" v="water" />
		<tag k="ssr:stedsnr" v="796179" />
	</node>
	<node id="-156827" lat="61.3184972251" lon="8.64692221491">
		<tag k="name" v="Rødningstjernet" />
		<tag k="natural" v="water" />
		<tag k="ssr:stedsnr" v="796164" />
	</node>
	<node id="-156821" lat="61.1756500014" lon="8.10894166401">
		<tag k="name" v="Kyrkjekilane" />
		<tag k="natural" v="water" />
		<tag k="ssr:stedsnr" v="795619" />
	</node>
	<node id="-156820" lat="61.0949194416" lon="8.6898388894">
		<tag k="name" v="Lomskjæret" />
		<tag k="place" v="islet" />
		<tag k="ssr:stedsnr" v="795407" />
	</node>
	<node id="-156819" lat="61.0919767594" lon="8.69442626264">
		<tag k="name" v="Nørdre Syndin" />
		<tag k="natural" v="water" />
		<tag k="ssr:stedsnr" v="795405" />
		<tag k="water" v="lake" />
	</node>
	<node id="-156818" lat="61.0949750027" lon="8.56922500456">
		<tag k="name" v="Bagetunåne" />
		<tag k="ssr:stedsnr" v="795402" />
		<tag k="waterway" v="stream" />
	</node>
	<node id="-156814" lat="61.1433688998" lon="8.58711337461">
		<tag k="name" v="Olsholmen" />
		<tag k="place" v="islet" />
		<tag k="ssr:stedsnr" v="795344" />
	</node>
	<node id="-156801" lat="61.1297472191" lon="8.63316666006">
		<tag k="name" v="Skårstølsbekken" />
		<tag k="ssr:stedsnr" v="786951" />
		<tag k="waterway" v="stream" />
	</node>
	<node id="-156794" lat="61.1060468325" lon="8.7038027263">
		<tag k="name" v="Uraøddin" />
		<tag k="natural" v="cape" />
		<tag k="ssr:stedsnr" v="786907" />
	</node>
	<node id="-156791" lat="61.2430500008" lon="8.21771667565">
		<tag k="name" v="Langødden" />
		<tag k="natural" v="cape" />
		<tag k="ssr:stedsnr" v="786639" />
	</node>
	<node id="-156783" lat="61.1922305547" lon="8.37881388112">
		<tag k="name" v="Fløgones" />
		<tag k="natural" v="cape" />
		<tag k="ssr:stedsnr" v="786489" />
	</node>
	<node id="-156765" lat="61.1925333364" lon="8.23065276909">
		<tag k="name" v="Kiladn" />
		<tag k="place" v="locality" />
		<tag k="ssr:stedsnr" v="786194" />
	</node>
	<node id="-156754" lat="61.2165027771" lon="8.86745555627">
		<tag k="name" v="Vetravike" />
		<tag k="natural" v="bay" />
		<tag k="ssr:stedsnr" v="782927" />
	</node>
	<node id="-156750" lat="61.1899450907" lon="8.38466321467">
		<tag k="alt_name" v="Strøndafjorden" />
		<tag k="name" v="Strondafjorden" />
		<tag k="natural" v="water" />
		<tag k="ssr:stedsnr" v="782539" />
		<tag k="water" v="lake" />
	</node>
	<node id="-156749" lat="61.1131833355" lon="8.65758333876">
		<tag k="name" v="Pyttingtjernet" />
		<tag k="natural" v="water" />
		<tag k="ssr:stedsnr" v="777277" />
	</node>
	<node id="-156738" lat="61.0779388849" lon="8.64677500493">
		<tag k="name" v="Halvardåne" />
		<tag k="ssr:stedsnr" v="767780" />
		<tag k="waterway" v="stream" />
	</node>
	<node id="-156736" lat="61.1442222232" lon="8.57720833963">
		<tag k="name" v="Strønde" />
		<tag k="natural" v="beach" />
		<tag k="ssr:stedsnr" v="767689" />
	</node>
	<node id="-156733" lat="61.1221833375" lon="8.60492778043">
		<tag k="name" v="Netrøstbekken" />
		<tag k="ssr:stedsnr" v="767667" />
		<tag k="waterway" v="stream" />
	</node>
	<node id="-156730" lat="61.2061333358" lon="8.48558888863">
		<tag k="name" v="Nordlandsåne" />
		<tag k="ssr:stedsnr" v="767531" />
		<tag k="waterway" v="stream" />
	</node>
	<node id="-156722" lat="61.1761638928" lon="8.77806110594">
		<tag k="name" v="Tippestadbekken" />
		<tag k="ssr:stedsnr" v="767237" />
		<tag k="waterway" v="stream" />
	</node>
	<node id="-156703" lat="61.2074890074" lon="8.07264346703">
		<tag k="name" v="Grønevatnet" />
		<tag k="natural" v="water" />
		<tag k="ssr:stedsnr" v="737904" />
		<tag k="water" v="lake" />
	</node>
	<node id="-156702" lat="60.9645361153" lon="8.67883055989">
		<tag k="name" v="Larsgardsbekken" />
		<tag k="ssr:stedsnr" v="737754" />
		<tag k="waterway" v="stream" />
	</node>
	<node id="-156700" lat="61.3961600038" lon="8.33453419737">
		<tag k="loc_name" v="Gravartjernet" />
		<tag k="name" v="Gravatjernet" />
		<tag k="natural" v="water" />
		<tag k="ssr:stedsnr" v="736847" />
	</node>
	<node id="-156699" lat="61.3611499976" lon="8.27890000603">
		<tag k="name" v="Eidet" />
		<tag k="natural" v="strait" />
		<tag k="ssr:stedsnr" v="736840" />
	</node>
	<node id="-156697" lat="61.2818416697" lon="8.19074167095">
		<tag k="name" v="Reikesteinodden" />
		<tag k="natural" v="cape" />
		<tag k="ssr:stedsnr" v="736808" />
	</node>
	<node id="-156694" lat="61.2227055583" lon="8.82307223071">
		<tag k="name" v="Sauebekken" />
		<tag k="ssr:stedsnr" v="735725" />
		<tag k="waterway" v="stream" />
	</node>
	<node id="-156693" lat="61.2071000036" lon="8.5166805619">
		<tag k="name" v="Gjartrudsåne" />
		<tag k="ssr:stedsnr" v="735723" />
		<tag k="waterway" v="stream" />
	</node>
	<node id="-156692" lat="61.234502776" lon="8.52670000161">
		<tag k="name" v="Langetjernet" />
		<tag k="natural" v="water" />
		<tag k="ssr:stedsnr" v="735706" />
	</node>
	<node id="-156685" lat="61.1413923081" lon="8.30412385913">
		<tag k="alt_name" v="Geitskinn, nedre" />
		<tag k="name" v="Nedre Geitskinn" />
		<tag k="natural" v="water" />
		<tag k="ssr:stedsnr" v="735649" />
		<tag k="water" v="lake" />
	</node>
	<node id="-156684" lat="61.1406209679" lon="8.28683628498">
		<tag k="alt_name" v="Geitskinn, øvre;Geitskinn" />
		<tag k="name" v="Øvre Geitskinn" />
		<tag k="natural" v="water" />
		<tag k="ssr:stedsnr" v="735648" />
		<tag k="water" v="lake" />
	</node>
	<node id="-156674" lat="61.0837999977" lon="8.52258056144">
		<tag k="name" v="Grindetjernet" />
		<tag k="natural" v="water" />
		<tag k="ssr:stedsnr" v="735354" />
	</node>
	<node id="-156673" lat="61.1188416666" lon="8.55074999603">
		<tag k="name" v="Åstadåne" />
		<tag k="ssr:stedsnr" v="735347" />
		<tag k="waterway" v="stream" />
	</node>
	<node id="-156669" lat="61.142994447" lon="8.52435000048">
		<tag k="name" v="Nordkjeldodden" />
		<tag k="natural" v="cape" />
		<tag k="ssr:stedsnr" v="735314" />
	</node>
	<node id="-156668" lat="61.1445027809" lon="8.61007221298">
		<tag k="name" v="Leirholssundet" />
		<tag k="natural" v="strait" />
		<tag k="ssr:stedsnr" v="735306" />
	</node>
	<node id="-156666" lat="61.1503611097" lon="8.66193056376">
		<tag k="name" v="Sauebekken" />
		<tag k="ssr:stedsnr" v="735297" />
		<tag k="waterway" v="stream" />
	</node>
	<node id="-156664" lat="61.1312416675" lon="8.58986111231">
		<tag k="name" v="Hamar" />
		<tag k="natural" v="cape" />
		<tag k="ssr:stedsnr" v="735287" />
	</node>
	<node id="-156663" lat="61.12925" lon="8.58713888449">
		<tag k="name" v="Søvellsanden" />
		<tag k="natural" v="beach" />
		<tag k="ssr:stedsnr" v="735286" />
	</node>
	<node id="-156660" lat="61.1576666624" lon="8.5853138952">
		<tag k="name" v="Knappetjernet" />
		<tag k="natural" v="water" />
		<tag k="ssr:stedsnr" v="735246" />
	</node>
	<node id="-156658" lat="61.2817999985" lon="8.70472221948">
		<tag k="name" v="Sleipa" />
		<tag k="place" v="locality" />
		<tag k="ssr:stedsnr" v="735193" />
	</node>
	<node id="-156654" lat="61.3295361083" lon="8.68836110572">
		<tag k="name" v="Marabottodden" />
		<tag k="natural" v="cape" />
		<tag k="ssr:stedsnr" v="735153" />
	</node>
	<node id="-156652" lat="61.3719277777" lon="8.5380500006">
		<tag k="name" v="Langedalsåne" />
		<tag k="ssr:stedsnr" v="735142" />
		<tag k="waterway" v="stream" />
	</node>
	<node id="-156651" lat="61.3531499957" lon="8.72582500488">
		<tag k="name" v="Breidløypa" />
		<tag k="ssr:stedsnr" v="735138" />
		<tag k="waterway" v="river" />
	</node>
	<node id="-156643" lat="61.2039138896" lon="8.26776110586">
		<tag k="loc_name" v="Fløgstrønde;Flogstronde" />
		<tag k="name" v="Fløkstrønde" />
		<tag k="natural" v="beach" />
		<tag k="ssr:stedsnr" v="726386" />
	</node>
	<node id="-156642" lat="61.2085194488" lon="8.34191944641">
		<tag k="name" v="Bandåne" />
		<tag k="ssr:stedsnr" v="726372" />
		<tag k="waterway" v="stream" />
	</node>
	<node id="-156634" lat="61.2258583301" lon="8.24405556364">
		<tag k="name" v="Otvea" />
		<tag k="natural" v="water" />
		<tag k="ssr:stedsnr" v="726229" />
	</node>
	<node id="-156631" lat="61.1476472259" lon="8.64493055836">
		<tag k="name" v="Støtabekken" />
		<tag k="ssr:stedsnr" v="725933" />
		<tag k="waterway" v="stream" />
	</node>
	<node id="-156626" lat="61.3881694455" lon="8.32183610362">
		<tag k="name" v="Gravabekken" />
		<tag k="ssr:stedsnr" v="725543" />
		<tag k="waterway" v="stream" />
	</node>
	<node id="-156615" lat="61.1744833378" lon="8.1943750033">
		<tag k="name" v="Tenleosen" />
		<tag k="natural" v="bay" />
		<tag k="ssr:stedsnr" v="725228" />
	</node>
	<node id="-156610" lat="61.1580472241" lon="8.79841944427">
		<tag k="name" v="Røssbekken" />
		<tag k="ssr:stedsnr" v="725162" />
		<tag k="waterway" v="stream" />
	</node>
	<node id="-156603" lat="61.2542444428" lon="8.72179166096">
		<tag k="name" v="Storøyne" />
		<tag k="place" v="islet" />
		<tag k="ssr:stedsnr" v="721114" />
	</node>
	<node id="-156602" lat="61.174000004" lon="8.30727499284">
		<tag k="name" v="Søre Geiteskardstjernet" />
		<tag k="natural" v="water" />
		<tag k="ssr:stedsnr" v="717564" />
	</node>
	<node id="-156601" lat="61.1757666622" lon="8.29247499897">
		<tag k="name" v="Nørdre Geiteskardstjernet" />
		<tag k="natural" v="water" />
		<tag k="ssr:stedsnr" v="717562" />
	</node>
	<node id="-156600" lat="61.1687277755" lon="8.27908055546">
		<tag k="name" v="Vesletjernet" />
		<tag k="natural" v="water" />
		<tag k="ssr:stedsnr" v="717559" />
	</node>
	<node id="-156599" lat="61.2697861103" lon="8.16370000488">
		<tag k="name" v="Øvre Melviktjernet" />
		<tag k="natural" v="water" />
		<tag k="ssr:stedsnr" v="717519" />
	</node>
	<node id="-156591" lat="61.1606333338" lon="8.61416112011">
		<tag k="name" v="Skiftisbekken" />
		<tag k="ssr:stedsnr" v="707731" />
		<tag k="waterway" v="stream" />
	</node>
	<node id="-156590" lat="61.1591583363" lon="8.51079999613">
		<tag k="name" v="Kløvningadn" />
		<tag k="natural" v="beach" />
		<tag k="ssr:stedsnr" v="707727" />
	</node>
	<node id="-156585" lat="61.1447361103" lon="8.58660832688">
		<tag k="name" v="Krokaøddin" />
		<tag k="natural" v="cape" />
		<tag k="ssr:stedsnr" v="707703" />
	</node>
	<node id="-156578" lat="61.1667388868" lon="8.49217500344">
		<tag k="name" v="Døttebekken" />
		<tag k="ssr:stedsnr" v="707464" />
		<tag k="waterway" v="stream" />
	</node>
	<node id="-156576" lat="61.1717888854" lon="8.42871388396">
		<tag k="name" v="Øndersurbekken" />
		<tag k="ssr:stedsnr" v="707437" />
		<tag k="waterway" v="stream" />
	</node>
	<node id="-157165" lat="61.1063583318" lon="8.64318611635">
		<tag k="name" v="Hølmin" />
		<tag k="place" v="islet" />
		<tag k="ssr:stedsnr" v="968884" />
	</node>
	<node id="-156556" lat="61.2039290206" lon="8.12033857259">
		<tag k="alt_name" v="Slettingen" />
		<tag k="name" v="Slettningen" />
		<tag k="natural" v="water" />
		<tag k="old_name" v="Sletningen" />
		<tag k="ssr:stedsnr" v="678623" />
		<tag k="water" v="lake" />
	</node>
	<node id="-156555" lat="61.2265499962" lon="8.13831111597">
		<tag k="name" v="Austrefjordtjerne" />
		<tag k="natural" v="water" />
		<tag k="ssr:stedsnr" v="678613" />
		<tag k="water" v="lake" />
	</node>
	<node id="-156554" lat="61.2431305539" lon="8.09639721343">
		<tag k="name" v="Svarteknipptjerne" />
		<tag k="natural" v="water" />
		<tag k="ssr:stedsnr" v="677931" />
		<tag k="water" v="lake" />
	</node>
	<node id="-156551" lat="60.9703861078" lon="8.6591999926">
		<tag k="name" v="Jørundgile" />
		<tag k="ssr:stedsnr" v="676757" />
		<tag k="waterway" v="stream" />
	</node>
	<node id="-156548" lat="61.379458337" lon="8.25765278357">
		<tag k="name" v="Sløtatjernet" />
		<tag k="natural" v="water" />
		<tag k="ssr:stedsnr" v="675844" />
	</node>
	<node id="-156546" lat="61.2465249987" lon="8.39855278602">
		<tag k="name" v="Kimbiltjernet" />
		<tag k="natural" v="water" />
		<tag k="ssr:stedsnr" v="675800" />
	</node>
	<node id="-156543" lat="61.2660326086" lon="8.7172739323">
		<tag k="name" v="Fleinsendin" />
		<tag k="natural" v="water" />
		<tag k="ssr:stedsnr" v="675239" />
		<tag k="water" v="lake" />
	</node>
	<node id="-156538" lat="61.3189111152" lon="8.76575000248">
		<tag k="name" v="Raudfjordodden" />
		<tag k="natural" v="cape" />
		<tag k="ssr:stedsnr" v="675212" />
	</node>
	<node id="-156537" lat="61.3031403471" lon="8.63597062263">
		<tag k="alt_name" v="Olevatn" />
		<tag k="name" v="Olefjorden" />
		<tag k="natural" v="water" />
		<tag k="ssr:stedsnr" v="675201" />
		<tag k="water" v="lake" />
	</node>
	<node id="-157161" lat="61.097194444" lon="8.70742222289">
		<tag k="name" v="Søvelsteinsanden" />
		<tag k="natural" v="beach" />
		<tag k="ssr:stedsnr" v="968834" />
	</node>
	<node id="-156528" lat="61.2067805541" lon="8.8223277779">
		<tag k="name" v="Bjøråne" />
		<tag k="ssr:stedsnr" v="674710" />
		<tag k="waterway" v="stream" />
	</node>
	<node id="-157160" lat="61.0894444418" lon="8.68167500108">
		<tag k="name" v="Klukkargardsøddin" />
		<tag k="natural" v="cape" />
		<tag k="ssr:stedsnr" v="968835" />
	</node>
	<node id="-156525" lat="61.1879472199" lon="8.32039721975">
		<tag k="name" v="Tverråntjernet" />
		<tag k="natural" v="water" />
		<tag k="ssr:stedsnr" v="674580" />
	</node>
	<node id="-156524" lat="61.179065594" lon="8.1865597841">
		<tag k="alt_name" v="Støgofjorden" />
		<tag k="name" v="Otrøvatnet" />
		<tag k="natural" v="water" />
		<tag k="old_name" v="Otrøyvatnet" />
		<tag k="ssr:stedsnr" v="674578" />
		<tag k="water" v="lake" />
	</node>
	<node id="-156520" lat="61.1319166626" lon="8.74383889027">
		<tag k="name" v="Tveitatjernet" />
		<tag k="natural" v="water" />
		<tag k="ssr:stedsnr" v="674319" />
	</node>
	<node id="-156519" lat="61.1118083361" lon="8.53897499307">
		<tag k="name" v="Grindeåne" />
		<tag k="ssr:stedsnr" v="674302" />
		<tag k="waterway" v="stream" />
	</node>
	<node id="-156505" lat="61.0513277817" lon="8.37990278451">
		<tag k="name" v="Hamarskredtjerne" />
		<tag k="natural" v="water" />
		<tag k="ssr:stedsnr" v="674652" />
		<tag k="water" v="lake" />
	</node>
	<node id="-156503" lat="61.1121250013" lon="8.55509722307">
		<tag k="name" v="Galgesetbekken" />
		<tag k="ssr:stedsnr" v="665825" />
		<tag k="waterway" v="stream" />
	</node>
	<node id="-156496" lat="61.1661999998" lon="8.23561666541">
		<tag k="name" v="Tenleosen" />
		<tag k="natural" v="bay" />
		<tag k="ssr:stedsnr" v="665305" />
	</node>
	<node id="-156495" lat="61.1654027803" lon="8.15069722323">
		<tag k="name" v="Skavlegilåne" />
		<tag k="ssr:stedsnr" v="665304" />
		<tag k="waterway" v="stream" />
	</node>
	<node id="-156493" lat="61.1537416702" lon="8.67524999749">
		<tag k="name" v="Hugavike" />
		<tag k="natural" v="bay" />
		<tag k="ssr:stedsnr" v="664936" />
	</node>
	<node id="-156491" lat="61.1606611156" lon="8.67083611835">
		<tag k="name" v="Hemsingbekken" />
		<tag k="ssr:stedsnr" v="664924" />
		<tag k="waterway" v="stream" />
	</node>
	<node id="-156483" lat="61.0957027782" lon="8.68870277073">
		<tag k="name" v="Skjæret" />
		<tag k="place" v="islet" />
		<tag k="ssr:stedsnr" v="664829" />
	</node>
	<node id="-156480" lat="61.2344833331" lon="8.2518000014">
		<tag k="name" v="Bryggjestølssanden" />
		<tag k="natural" v="beach" />
		<tag k="ssr:stedsnr" v="664586" />
	</node>
	<node id="-156475" lat="61.1781000024" lon="8.28376945277">
		<tag k="name" v="Puttadn" />
		<tag k="natural" v="water" />
		<tag k="ssr:stedsnr" v="664362" />
		<tag k="water" v="lake" />
	</node>
	<node id="-156466" lat="61.2217527816" lon="8.86273333116">
		<tag k="name" v="Kjøovike" />
		<tag k="natural" v="bay" />
		<tag k="ssr:stedsnr" v="660921" />
	</node>
	<node id="-156464" lat="61.1559194467" lon="8.18466387961">
		<tag k="name" v="Gamlestøgotjernet" />
		<tag k="natural" v="water" />
		<tag k="ssr:stedsnr" v="656578" />
	</node>
	<node id="-156463" lat="61.1262027808" lon="8.72771388517">
		<tag k="name" v="Lomstjernet" />
		<tag k="natural" v="water" />
		<tag k="ssr:stedsnr" v="656228" />
	</node>
	<node id="-156450" lat="61.2027944486" lon="8.66271110384">
		<tag k="name" v="Søre Klantetjernet" />
		<tag k="natural" v="water" />
		<tag k="ssr:stedsnr" v="646086" />
	</node>
	<node id="-156439" lat="61.2252972222" lon="8.85707222725">
		<tag k="name" v="Mørovike" />
		<tag k="natural" v="bay" />
		<tag k="ssr:stedsnr" v="645452" />
	</node>
	<node id="-156425" lat="61.1738527813" lon="8.64885834149">
		<tag k="name" v="Nefstadbekken" />
		<tag k="ssr:stedsnr" v="645090" />
		<tag k="waterway" v="stream" />
	</node>
	<node id="-156423" lat="61.2029222227" lon="8.6740972176">
		<tag k="name" v="Grønstølbekken" />
		<tag k="ssr:stedsnr" v="645080" />
		<tag k="waterway" v="stream" />
	</node>
	<node id="-156413" lat="61.2393861124" lon="8.29025833163">
		<tag k="name" v="Yljeosen" />
		<tag k="natural" v="water" />
		<tag k="ssr:stedsnr" v="617606" />
	</node>
	<node id="-156411" lat="61.2636249976" lon="8.69265000526">
		<tag k="name" v="Vegabekken" />
		<tag k="ssr:stedsnr" v="616786" />
		<tag k="waterway" v="stream" />
	</node>
	<node id="-156408" lat="60.9753999996" lon="8.65055555681">
		<tag k="name" v="Bøabekken" />
		<tag k="ssr:stedsnr" v="615752" />
		<tag k="waterway" v="stream" />
	</node>
	<node id="-156407" lat="61.4241083347" lon="8.31870555613">
		<tag k="name" v="Snøholsvatnet" />
		<tag k="natural" v="water" />
		<tag k="ssr:stedsnr" v="614851" />
		<tag k="water" v="lake" />
	</node>
	<node id="-156405" lat="61.3750135957" lon="8.20310075169">
		<tag k="name" v="Nedre Kvitevatnet" />
		<tag k="natural" v="water" />
		<tag k="ssr:stedsnr" v="614839" />
	</node>
	<node id="-156402" lat="61.3446833297" lon="8.27602499851">
		<tag k="name" v="Myrja" />
		<tag k="ssr:stedsnr" v="614834" />
		<tag k="waterway" v="stream" />
	</node>
	<node id="-156401" lat="61.3304611153" lon="8.27231665905">
		<tag k="name" v="Øynan" />
		<tag k="place" v="islet" />
		<tag k="ssr:stedsnr" v="614831" />
	</node>
	<node id="-156400" lat="61.2764166686" lon="8.13530000811">
		<tag k="name" v="Tyinosen" />
		<tag k="natural" v="bay" />
		<tag k="ssr:stedsnr" v="614816" />
	</node>
	<node id="-156397" lat="61.0254055536" lon="8.55441944043">
		<tag k="name" v="Tverråne" />
		<tag k="ssr:stedsnr" v="614468" />
		<tag k="waterway" v="river" />
	</node>
	<node id="-156394" lat="61.2800416685" lon="8.70023055956">
		<tag k="name" v="Buaråne" />
		<tag k="ssr:stedsnr" v="614196" />
		<tag k="waterway" v="stream" />
	</node>
	<node id="-156393" lat="61.2757805548" lon="8.53129445044">
		<tag k="name" v="Nedre Dingledalstjernet" />
		<tag k="natural" v="water" />
		<tag k="ssr:stedsnr" v="614189" />
	</node>
	<node id="-156387" lat="61.3400444431" lon="8.76886945107">
		<tag k="name" v="Heimre Fagerdalstjernet" />
		<tag k="natural" v="water" />
		<tag k="ssr:stedsnr" v="614166" />
	</node>
	<node id="-156384" lat="61.3817158278" lon="8.51193032905">
		<tag k="name" v="Langedalstjernet" />
		<tag k="natural" v="water" />
		<tag k="ssr:stedsnr" v="614142" />
	</node>
	<node id="-156380" lat="61.232919444" lon="8.7810166729">
		<tag k="name" v="Gipetjerne" />
		<tag k="natural" v="water" />
		<tag k="ssr:stedsnr" v="613731" />
		<tag k="water" v="lake" />
	</node>
	<node id="-156377" lat="61.243386109" lon="8.58307499764">
		<tag k="name" v="Rysntjernet" />
		<tag k="natural" v="water" />
		<tag k="ssr:stedsnr" v="613711" />
	</node>
	<node id="-156376" lat="61.2462194404" lon="8.79866111523">
		<tag k="name" v="Slurpane" />
		<tag k="natural" v="water" />
		<tag k="ssr:stedsnr" v="613704" />
	</node>
	<node id="-156374" lat="61.2046305576" lon="8.47501943762">
		<tag k="name" v="Nedre Nordlandstjernet" />
		<tag k="natural" v="water" />
		<tag k="ssr:stedsnr" v="613677" />
	</node>
	<node id="-156373" lat="61.1850611147" lon="8.58161665877">
		<tag k="name" v="Drøsjetjernet" />
		<tag k="natural" v="water" />
		<tag k="ssr:stedsnr" v="613675" />
	</node>
	<node id="-156368" lat="61.1418944441" lon="8.11531665928">
		<tag k="name" v="Nedre Sulevatnet" />
		<tag k="natural" v="water" />
		<tag k="ssr:stedsnr" v="613658" />
		<tag k="water" v="lake" />
	</node>
	<node id="-156361" lat="61.0954638887" lon="8.67303056278">
		<tag k="alt_name" v="Hellviki" />
		<tag k="name" v="Hellvike" />
		<tag k="natural" v="bay" />
		<tag k="ssr:stedsnr" v="613344" />
	</node>
	<node id="-156346" lat="61.2070277804" lon="8.30156944012">
		<tag k="name" v="Hømmestadøyadn" />
		<tag k="place" v="island" />
		<tag k="ssr:stedsnr" v="604338" />
	</node>
	<node id="-156338" lat="61.1753916709" lon="8.17859166514">
		<tag k="name" v="Nørdre Øddin" />
		<tag k="natural" v="cape" />
		<tag k="ssr:stedsnr" v="604212" />
	</node>
	<node id="-156309" lat="61.1882666692" lon="8.6234166654">
		<tag k="name" v="Nørdre Glupetjernet" />
		<tag k="natural" v="water" />
		<tag k="ssr:stedsnr" v="595340" />
	</node>
	<node id="-156304" lat="61.1766444474" lon="8.74020832884">
		<tag k="name" v="Heimstølbekken" />
		<tag k="ssr:stedsnr" v="585969" />
		<tag k="waterway" v="stream" />
	</node>
	<node id="-156298" lat="61.1468111139" lon="8.61549166802">
		<tag k="name" v="Killingnes" />
		<tag k="place" v="island" />
		<tag k="ssr:stedsnr" v="585703" />
	</node>
	<node id="-156290" lat="61.2071444448" lon="8.40386945187">
		<tag k="name" v="Jonskørbekken" />
		<tag k="ssr:stedsnr" v="585465" />
		<tag k="waterway" v="stream" />
	</node>
	<node id="-156282" lat="61.1966333372" lon="8.36083054797">
		<tag k="name" v="Øydgardsbekken" />
		<tag k="ssr:stedsnr" v="585383" />
		<tag k="waterway" v="stream" />
	</node>
	<node id="-156272" lat="61.1988694466" lon="8.69293889177">
		<tag k="name" v="Sandhødnbekkidn" />
		<tag k="ssr:stedsnr" v="585014" />
		<tag k="waterway" v="stream" />
	</node>
	<node id="-156255" lat="61.1896305517" lon="8.21883332958">
		<tag k="name" v="Begna" />
		<tag k="ssr:stedsnr" v="555532" />
		<tag k="waterway" v="river" />
	</node>
	<node id="-156252" lat="61.1864999987" lon="8.33314999206">
		<tag k="name" v="Veslemjøse" />
		<tag k="natural" v="water" />
		<tag k="ssr:stedsnr" v="555521" />
	</node>
	<node id="-156251" lat="61.1966750018" lon="8.10850276879">
		<tag k="name" v="Kyrkjeskardtjerne" />
		<tag k="natural" v="water" />
		<tag k="ssr:stedsnr" v="555515" />
		<tag k="water" v="lake" />
	</node>
	<node id="-156249" lat="61.3013611148" lon="8.27540000722">
		<tag k="name" v="Søre Geitrennbekken" />
		<tag k="ssr:stedsnr" v="554838" />
		<tag k="waterway" v="stream" />
	</node>
	<node id="-156247" lat="61.2704305562" lon="8.16478332549">
		<tag k="name" v="Melviktjerne" />
		<tag k="natural" v="water" />
		<tag k="ssr:stedsnr" v="554818" />
		<tag k="water" v="lake" />
	</node>
	<node id="-156246" lat="60.9961000011" lon="8.63503888669">
		<tag k="name" v="Storliåni" />
		<tag k="ssr:stedsnr" v="554816" />
		<tag k="waterway" v="stream" />
	</node>
	<node id="-156245" lat="61.3898472232" lon="8.37758610374">
		<tag k="name" v="Høystakktjernet" />
		<tag k="natural" v="water" />
		<tag k="ssr:stedsnr" v="553845" />
	</node>
	<node id="-156243" lat="61.3820305526" lon="8.22071945061">
		<tag k="name" v="Rusteggvatnet" />
		<tag k="natural" v="water" />
		<tag k="ssr:stedsnr" v="553833" />
	</node>
	<node id="-156240" lat="61.3038944473" lon="8.26891943756">
		<tag k="name" v="Geitrennvike" />
		<tag k="natural" v="bay" />
		<tag k="ssr:stedsnr" v="553799" />
	</node>
	<node id="-156239" lat="61.2255361082" lon="8.79331667049">
		<tag k="name" v="Gipa" />
		<tag k="ssr:stedsnr" v="553759" />
		<tag k="waterway" v="stream" />
	</node>
	<node id="-156235" lat="61.2042916631" lon="8.65790833606">
		<tag k="name" v="Klantetjernet" />
		<tag k="natural" v="water" />
		<tag k="ssr:stedsnr" v="553714" />
	</node>
	<node id="-156231" lat="61.0332472194" lon="8.49449165755">
		<tag k="name" v="Hestebottjernet" />
		<tag k="natural" v="water" />
		<tag k="ssr:stedsnr" v="553423" />
	</node>
	<node id="-156230" lat="61.0106499994" lon="8.7223805555">
		<tag k="name" v="Flåsanden" />
		<tag k="natural" v="beach" />
		<tag k="ssr:stedsnr" v="553414" />
	</node>
	<node id="-156229" lat="61.0497861129" lon="8.62231666994">
		<tag k="name" v="Helin" />
		<tag k="natural" v="water" />
		<tag k="ssr:stedsnr" v="553365" />
		<tag k="water" v="lake" />
	</node>
	<node id="-156225" lat="61.2660416705" lon="8.66436667454">
		<tag k="name" v="Kuletjernet" />
		<tag k="natural" v="water" />
		<tag k="ssr:stedsnr" v="553197" />
	</node>
	<node id="-156224" lat="61.2632500017" lon="8.72260000262">
		<tag k="name" v="Skjenaroddan" />
		<tag k="natural" v="cape" />
		<tag k="ssr:stedsnr" v="553192" />
	</node>
	<node id="-156223" lat="61.2560805593" lon="8.56137499655">
		<tag k="name" v="Tverrdingla" />
		<tag k="ssr:stedsnr" v="553189" />
		<tag k="waterway" v="stream" />
	</node>
	<node id="-156222" lat="61.3029361102" lon="8.77548333027">
		<tag k="name" v="Skjerva" />
		<tag k="ssr:stedsnr" v="553164" />
		<tag k="waterway" v="stream" />
	</node>
	<node id="-156218" lat="61.3388000021" lon="8.74728611568">
		<tag k="name" v="Synsbekk" />
		<tag k="ssr:stedsnr" v="553149" />
		<tag k="waterway" v="stream" />
	</node>
	<node id="-156217" lat="61.3221527781" lon="8.59707777446">
		<tag k="name" v="Systerbottjernet" />
		<tag k="natural" v="water" />
		<tag k="ssr:stedsnr" v="553142" />
	</node>
	<node id="-156213" lat="61.3538416663" lon="8.79290278248">
		<tag k="name" v="Rjupetjernet" />
		<tag k="natural" v="water" />
		<tag k="ssr:stedsnr" v="553132" />
	</node>
	<node id="-156210" lat="61.2510222192" lon="8.67838054948">
		<tag k="name" v="Mugnebottjernet" />
		<tag k="natural" v="water" />
		<tag k="ssr:stedsnr" v="552752" />
	</node>
	<node id="-156209" lat="61.2462972183" lon="8.74194167586">
		<tag k="alt_name" v="Raudøla" />
		<tag k="name" v="Rauddøla" />
		<tag k="ssr:stedsnr" v="552750" />
		<tag k="waterway" v="river" />
	</node>
	<node id="-156208" lat="61.1592916702" lon="8.13230277148">
		<tag k="name" v="Nedre Skavlegiltjernet" />
		<tag k="natural" v="water" />
		<tag k="ssr:stedsnr" v="552713" />
	</node>
	<node id="-156204" lat="61.1798750024" lon="8.25993333733">
		<tag k="name" v="Vesleåntjernet" />
		<tag k="natural" v="water" />
		<tag k="ssr:stedsnr" v="552642" />
	</node>
	<node id="-156197" lat="61.1452944448" lon="8.62849999092">
		<tag k="name" v="Vennisvike" />
		<tag k="natural" v="bay" />
		<tag k="ssr:stedsnr" v="552339" />
	</node>
	<node id="-156189" lat="61.1808055597" lon="8.3703055462">
		<tag k="name" v="Hagabekken" />
		<tag k="ssr:stedsnr" v="544385" />
		<tag k="waterway" v="stream" />
	</node>
	<node id="-156177" lat="61.0926166625" lon="8.70817499465">
		<tag k="name" v="Vesleøyne" />
		<tag k="place" v="islet" />
		<tag k="ssr:stedsnr" v="543810" />
	</node>
	<node id="-156169" lat="61.0594722267" lon="8.50993610678">
		<tag k="name" v="Trøngebøttåne" />
		<tag k="ssr:stedsnr" v="543564" />
		<tag k="waterway" v="stream" />
	</node>
	<node id="-156164" lat="61.1468166629" lon="8.81671111651">
		<tag k="name" v="Kvålstjern" />
		<tag k="natural" v="water" />
		<tag k="ssr:stedsnr" v="543341" />
		<tag k="water" v="pond" />
	</node>
	<node id="-156153" lat="61.2603388875" lon="8.71745834111">
		<tag k="name" v="Øddestølsodden" />
		<tag k="natural" v="cape" />
		<tag k="ssr:stedsnr" v="539111" />
	</node>
	<node id="-156152" lat="61.150966665" lon="8.14317778043">
		<tag k="name" v="Øvre Skavlegiltjernet" />
		<tag k="natural" v="water" />
		<tag k="ssr:stedsnr" v="535784" />
	</node>
	<node id="-156139" lat="61.2101250018" lon="8.6292305468">
		<tag k="name" v="Hellestølsbekken" />
		<tag k="ssr:stedsnr" v="525146" />
		<tag k="waterway" v="stream" />
	</node>
	<node id="-156135" lat="61.2115472209" lon="8.63675833081">
		<tag k="name" v="Øynadn" />
		<tag k="place" v="islet" />
		<tag k="ssr:stedsnr" v="525009" />
	</node>
	<node id="-156131" lat="61.228438887" lon="8.81391110487">
		<tag k="name" v="Hundetjern" />
		<tag k="natural" v="water" />
		<tag k="ssr:stedsnr" v="524417" />
		<tag k="water" v="pond" />
	</node>
	<node id="-156128" lat="61.1818194456" lon="8.38866944275">
		<tag k="name" v="Øyne" />
		<tag k="place" v="island" />
		<tag k="ssr:stedsnr" v="524373" />
	</node>
	<node id="-156121" lat="61.1963249997" lon="8.64753611547">
		<tag k="name" v="Tjørobyttbekken" />
		<tag k="ssr:stedsnr" v="524080" />
		<tag k="waterway" v="stream" />
	</node>
	<node id="-156119" lat="61.2404957554" lon="8.31771074956">
		<tag k="name" v="Øyangen" />
		<tag k="natural" v="water" />
		<tag k="ssr:stedsnr" v="509815" />
		<tag k="water" v="lake" />
	</node>
	<node id="-156112" lat="61.2513833321" lon="8.24443888395">
		<tag k="name" v="Lortevike" />
		<tag k="natural" v="bay" />
		<tag k="ssr:stedsnr" v="493808" />
	</node>
	<node id="-156110" lat="61.2646611126" lon="8.20656667384">
		<tag k="name" v="Melvikodden" />
		<tag k="natural" v="cape" />
		<tag k="ssr:stedsnr" v="493801" />
	</node>
	<node id="-156109" lat="61.2763861149" lon="8.59533055808">
		<tag k="name" v="Skjetnisbekken" />
		<tag k="ssr:stedsnr" v="493218" />
		<tag k="waterway" v="stream" />
	</node>
	<node id="-156107" lat="61.2947090127" lon="8.59184474468">
		<tag k="name" v="Skjetnin" />
		<tag k="natural" v="water" />
		<tag k="ssr:stedsnr" v="493187" />
	</node>
	<node id="-156095" lat="61.1636075889" lon="8.24822483984">
		<tag k="name" v="Tenlefjorden" />
		<tag k="natural" v="water" />
		<tag k="ssr:stedsnr" v="492550" />
		<tag k="water" v="lake" />
	</node>
	<node id="-156093" lat="61.1788749966" lon="8.39106110278">
		<tag k="name" v="Eidsfossen" />
		<tag k="natural" v="waterfall" />
		<tag k="ssr:stedsnr" v="492545" />
	</node>
	<node id="-156092" lat="61.1723027776" lon="8.2080333295">
		<tag k="name" v="Tenla" />
		<tag k="ssr:stedsnr" v="492542" />
		<tag k="waterway" v="river" />
	</node>
	<node id="-156088" lat="61.1112097064" lon="8.69930143206">
		<tag k="name" v="Alaosen" />
		<tag k="natural" v="bay" />
		<tag k="ssr:stedsnr" v="492345" />
	</node>
	<node id="-156076" lat="61.1574916628" lon="8.69686110966">
		<tag k="name" v="Skjetvike" />
		<tag k="natural" v="bay" />
		<tag k="ssr:stedsnr" v="492208" />
	</node>
	<node id="-156075" lat="61.319149999" lon="8.7233138935">
		<tag k="name" v="Vegabekken" />
		<tag k="ssr:stedsnr" v="492143" />
		<tag k="waterway" v="stream" />
	</node>
	<node id="-156074" lat="61.3441083349" lon="8.68872221513">
		<tag k="name" v="Dyrnesodden" />
		<tag k="natural" v="cape" />
		<tag k="ssr:stedsnr" v="492127" />
	</node>
	<node id="-156072" lat="61.3777472242" lon="8.47468333782">
		<tag k="name" v="Galdebergtjerne" />
		<tag k="natural" v="water" />
		<tag k="ssr:stedsnr" v="492112" />
		<tag k="water" v="lake" />
	</node>
	<node id="-156071" lat="61.3709500006" lon="8.72530832752">
		<tag k="name" v="Øystre Repefonnbekken" />
		<tag k="ssr:stedsnr" v="492107" />
		<tag k="waterway" v="stream" />
	</node>
	<node id="-156062" lat="61.1609833316" lon="8.21871944971">
		<tag k="name" v="Grøne Kiladn" />
		<tag k="ssr:stedsnr" v="483282" />
		<tag k="waterway" v="stream" />
	</node>
	<node id="-156046" lat="61.1631861092" lon="8.74509444988">
		<tag k="name" v="Ljøsneosen" />
		<tag k="natural" v="bay" />
		<tag k="ssr:stedsnr" v="482382" />
	</node>
	<node id="-156040" lat="61.1382666695" lon="8.82179444121">
		<tag k="name" v="Vesleåni" />
		<tag k="ssr:stedsnr" v="482211" />
		<tag k="waterway" v="stream" />
	</node>
	<node id="-156038" lat="61.1274583306" lon="8.74931110819">
		<tag k="name" v="Sandbekken" />
		<tag k="ssr:stedsnr" v="482028" />
		<tag k="waterway" v="stream" />
	</node>
	<node id="-156036" lat="61.1489361137" lon="8.60005833368">
		<tag k="name" v="Sandvike" />
		<tag k="natural" v="bay" />
		<tag k="ssr:stedsnr" v="471403" />
	</node>
	<node id="-157078" lat="61.3075583311" lon="8.49888888329">
		<tag k="name" v="Yksna" />
		<tag k="ssr:stedsnr" v="918201" />
		<tag k="waterway" v="river" />
	</node>
	<node id="-156029" lat="61.152813886" lon="8.4762888874">
		<tag k="name" v="Hagasteinbekken" />
		<tag k="ssr:stedsnr" v="464477" />
		<tag k="waterway" v="stream" />
	</node>
	<node id="-156024" lat="61.1143722225" lon="8.45511111694">
		<tag k="name" v="Skåleliåne" />
		<tag k="ssr:stedsnr" v="464408" />
		<tag k="waterway" v="stream" />
	</node>
	<node id="-156012" lat="61.1503638925" lon="8.56056943543">
		<tag k="name" v="Hamrisbekken" />
		<tag k="ssr:stedsnr" v="464718" />
		<tag k="waterway" v="stream" />
	</node>
	<node id="-156010" lat="61.2317972232" lon="8.20784722131">
		<tag k="name" v="Vesle Galdstjernet" />
		<tag k="natural" v="water" />
		<tag k="ssr:stedsnr" v="435643" />
	</node>
	<node id="-156006" lat="61.2417444479" lon="8.23146110698">
		<tag k="name" v="Tyin" />
		<tag k="natural" v="water" />
		<tag k="ssr:stedsnr" v="435631" />
		<tag k="water" v="lake" />
	</node>
	<node id="-156001" lat="61.1888250022" lon="8.08184167313">
		<tag k="name" v="Grøna" />
		<tag k="ssr:stedsnr" v="434875" />
		<tag k="waterway" v="river" />
	</node>
	<node id="-155999" lat="61.2087750001" lon="8.45549999384">
		<tag k="name" v="Øvre Nordlandstjernet" />
		<tag k="natural" v="water" />
		<tag k="ssr:stedsnr" v="434544" />
	</node>
	<node id="-155997" lat="61.3020694467" lon="8.35063611297">
		<tag k="name" v="Stordalstjerne" />
		<tag k="natural" v="water" />
		<tag k="ssr:stedsnr" v="433818" />
		<tag k="water" v="lake" />
	</node>
	<node id="-155996" lat="61.2738000042" lon="8.2345000029">
		<tag k="name" v="Målnesbekken" />
		<tag k="ssr:stedsnr" v="433813" />
		<tag k="waterway" v="stream" />
	</node>
	<node id="-155995" lat="61.2768499993" lon="8.2274500069">
		<tag k="name" v="Målnesvike" />
		<tag k="natural" v="bay" />
		<tag k="ssr:stedsnr" v="433811" />
	</node>
	<node id="-155994" lat="61.2863555537" lon="8.28362221913">
		<tag k="name" v="Geissmusstjernet" />
		<tag k="natural" v="water" />
		<tag k="ssr:stedsnr" v="433805" />
	</node>
	<node id="-155993" lat="61.2626972182" lon="8.28349166617">
		<tag k="name" v="Grytetjernet" />
		<tag k="natural" v="water" />
		<tag k="ssr:stedsnr" v="433798" />
	</node>
	<node id="-155992" lat="61.4104611108" lon="8.26143055396">
		<tag k="alt_name" v="Mjølkedalsvatnet, store;Mjølkedalsvatnet" />
		<tag k="name" v="Store Mjølkedalsvatnet" />
		<tag k="natural" v="water" />
		<tag k="ssr:stedsnr" v="432844" />
		<tag k="water" v="lake" />
	</node>
	<node id="-155990" lat="61.3906213399" lon="8.44648530167">
		<tag k="name" v="Uksedalstjernet" />
		<tag k="natural" v="water" />
		<tag k="ssr:stedsnr" v="432825" />
	</node>
	<node id="-155987" lat="61.3499444452" lon="8.25746944281">
		<tag k="name" v="Postvikodden" />
		<tag k="natural" v="cape" />
		<tag k="ssr:stedsnr" v="432809" />
	</node>
	<node id="-155986" lat="61.2196500002" lon="8.55048610789">
		<tag k="name" v="Geitskinntjernet" />
		<tag k="natural" v="water" />
		<tag k="ssr:stedsnr" v="432717" />
	</node>
	<node id="-155978" lat="61.1486972254" lon="8.62480000392">
		<tag k="name" v="Halsane" />
		<tag k="natural" v="bay" />
		<tag k="ssr:stedsnr" v="432282" />
	</node>
	<node id="-155976" lat="61.1462749965" lon="8.5107388879">
		<tag k="name" v="Hagastrønde" />
		<tag k="natural" v="beach" />
		<tag k="ssr:stedsnr" v="432247" />
	</node>
	<node id="-155972" lat="61.2987499959" lon="8.77020000383">
		<tag k="name" v="Skjervebottjernet" />
		<tag k="natural" v="water" />
		<tag k="ssr:stedsnr" v="432165" />
	</node>
	<node id="-155968" lat="61.1037027799" lon="8.67966111469">
		<tag k="name" v="Kælken" />
		<tag k="natural" v="bay" />
		<tag k="ssr:stedsnr" v="431399" />
	</node>
	<node id="-155964" lat="61.0932944448" lon="8.39921667013">
		<tag k="name" v="Ursdalsåne" />
		<tag k="ssr:stedsnr" v="432613" />
		<tag k="waterway" v="stream" />
	</node>
	<node id="-155961" lat="61.1111472265" lon="8.58075278507">
		<tag k="name" v="Baggetunåne" />
		<tag k="ssr:stedsnr" v="423823" />
		<tag k="waterway" v="stream" />
	</node>
	<node id="-155955" lat="61.2070222259" lon="8.28181388326">
		<tag k="name" v="Breivahølen" />
		<tag k="place" v="locality" />
		<tag k="ssr:stedsnr" v="423359" />
	</node>
	<node id="-155950" lat="61.1738722201" lon="8.18746666333">
		<tag k="name" v="Søre Øddin" />
		<tag k="natural" v="cape" />
		<tag k="ssr:stedsnr" v="423217" />
	</node>
	<node id="-155944" lat="61.0784027817" lon="8.69908332975">
		<tag k="name" v="Bøastølsåne" />
		<tag k="ssr:stedsnr" v="422833" />
		<tag k="waterway" v="stream" />
	</node>
	<node id="-155938" lat="61.210238886" lon="8.50145276946">
		<tag k="name" v="Sauebekken" />
		<tag k="ssr:stedsnr" v="422557" />
		<tag k="waterway" v="stream" />
	</node>
	<node id="-155932" lat="61.1506194407" lon="8.80606667504">
		<tag k="name" v="Kviesbekken" />
		<tag k="ssr:stedsnr" v="422330" />
		<tag k="waterway" v="stream" />
	</node>
	<node id="-155925" lat="61.1601888846" lon="8.35984167468">
		<tag k="name" v="Laugarhølen" />
		<tag k="place" v="locality" />
		<tag k="ssr:stedsnr" v="422251" />
	</node>
	<node id="-155920" lat="61.1574583318" lon="8.78516944187">
		<tag k="name" v="Kløppermyrbekken" />
		<tag k="ssr:stedsnr" v="422166" />
		<tag k="waterway" v="stream" />
	</node>
	<node id="-155918" lat="61.1507833311" lon="8.75921666577">
		<tag k="name" v="Kringlingane" />
		<tag k="natural" v="cape" />
		<tag k="ssr:stedsnr" v="422156" />
	</node>
	<node id="-155912" lat="61.2528916676" lon="8.7134500004">
		<tag k="name" v="Lortevike" />
		<tag k="natural" v="bay" />
		<tag k="ssr:stedsnr" v="418123" />
	</node>
	<node id="-155908" lat="61.2746444446" lon="8.30537777554">
		<tag k="name" v="Geissmusstjernet" />
		<tag k="natural" v="water" />
		<tag k="ssr:stedsnr" v="253795" />
	</node>
	<node id="-155906" lat="61.2103388921" lon="8.18833889243">
		<tag k="name" v="Bjørdalstjernet" />
		<tag k="natural" v="water" />
		<tag k="ssr:stedsnr" v="252581" />
	</node>
	<node id="-155905" lat="61.1820138853" lon="8.27697222685">
		<tag k="name" v="Øvre Bøastøltjernet" />
		<tag k="natural" v="water" />
		<tag k="ssr:stedsnr" v="252531" />
	</node>
	<node id="-155904" lat="61.1880972195" lon="8.1470416622">
		<tag k="name" v="Vesleskardtjerne" />
		<tag k="natural" v="water" />
		<tag k="ssr:stedsnr" v="252529" />
		<tag k="water" v="lake" />
	</node>
	<node id="-155902" lat="60.9551027791" lon="8.66708056335">
		<tag k="name" v="Nørdre Tjernet" />
		<tag k="natural" v="water" />
		<tag k="ssr:stedsnr" v="251786" />
	</node>
	<node id="-155901" lat="61.105877781" lon="8.73474999727">
		<tag k="name" v="Brekkåne" />
		<tag k="ssr:stedsnr" v="250881" />
		<tag k="waterway" v="stream" />
	</node>
	<node id="-155900" lat="61.3442444417" lon="8.29246944279">
		<tag k="name" v="Myrjetjernet" />
		<tag k="natural" v="water" />
		<tag k="ssr:stedsnr" v="250795" />
	</node>
	<node id="-155898" lat="61.265901196" lon="8.35180018583">
		<tag k="name" v="Steinbusjøen" />
		<tag k="natural" v="water" />
		<tag k="ssr:stedsnr" v="250774" />
		<tag k="water" v="lake" />
	</node>
	<node id="-155894" lat="61.1291222246" lon="8.44190832961">
		<tag k="name" v="Skålelitjernet" />
		<tag k="natural" v="water" />
		<tag k="ssr:stedsnr" v="250684" />
	</node>
	<node id="-155892" lat="61.1098138866" lon="8.2071694477">
		<tag k="name" v="Tysketjerne" />
		<tag k="natural" v="water" />
		<tag k="ssr:stedsnr" v="250670" />
		<tag k="water" v="lake" />
	</node>
	<node id="-155888" lat="61.1131694406" lon="8.67140555401">
		<tag k="name" v="Steinartjernet" />
		<tag k="natural" v="water" />
		<tag k="ssr:stedsnr" v="250331" />
	</node>
	<node id="-155884" lat="61.2795577041" lon="8.56012394013">
		<tag k="name" v="Dingla" />
		<tag k="ssr:stedsnr" v="250200" />
		<tag k="waterway" v="river" />
	</node>
	<node id="-155883" lat="61.3417638926" lon="8.60254166988">
		<tag k="name" v="Grønebergodden" />
		<tag k="natural" v="cape" />
		<tag k="ssr:stedsnr" v="250150" />
	</node>
	<node id="-155882" lat="61.3677499958" lon="8.70928610919">
		<tag k="name" v="Vestre Repefonnbekken" />
		<tag k="ssr:stedsnr" v="250147" />
		<tag k="waterway" v="stream" />
	</node>
	<node id="-155881" lat="61.246022222" lon="8.52179721578">
		<tag k="name" v="Meatjernet" />
		<tag k="natural" v="water" />
		<tag k="ssr:stedsnr" v="249708" />
	</node>
	<node id="-155876" lat="61.0270499969" lon="8.46159166947">
		<tag k="name" v="Vesle Hestebottjernet" />
		<tag k="natural" v="water" />
		<tag k="ssr:stedsnr" v="249636" />
	</node>
	<node id="-155874" lat="61.166991671" lon="8.34632777795">
		<tag k="name" v="Rødøla" />
		<tag k="ssr:stedsnr" v="249580" />
		<tag k="waterway" v="river" />
	</node>
	<node id="-157051" lat="61.1100277796" lon="8.47563333736">
		<tag k="name" v="Bergsåne" />
		<tag k="ssr:stedsnr" v="917293" />
		<tag k="waterway" v="river" />
	</node>
	<node id="-155871" lat="61.0568166693" lon="8.62623332771">
		<tag k="alt_name" v="Midstrandbekken;Midtstrøndsbekken" />
		<tag k="name" v="Midtstrondbekken" />
		<tag k="ssr:stedsnr" v="249395" />
		<tag k="waterway" v="stream" />
	</node>
	<node id="-155868" lat="61.1062666685" lon="8.64619999558">
		<tag k="name" v="Langetjernet" />
		<tag k="natural" v="water" />
		<tag k="ssr:stedsnr" v="249368" />
	</node>
	<node id="-155867" lat="61.0809666652" lon="8.60029444254">
		<tag k="name" v="Kinnebekken" />
		<tag k="ssr:stedsnr" v="249352" />
		<tag k="waterway" v="stream" />
	</node>
	<node id="-155857" lat="61.1658055542" lon="8.63277777957">
		<tag k="name" v="Møsåkerbekken" />
		<tag k="ssr:stedsnr" v="240932" />
		<tag k="waterway" v="stream" />
	</node>
	<node id="-155855" lat="61.1542222218" lon="8.68064166023">
		<tag k="name" v="Lange Skjæret" />
		<tag k="place" v="islet" />
		<tag k="ssr:stedsnr" v="240927" />
	</node>
	<node id="-155844" lat="61.2617694417" lon="8.20363888768">
		<tag k="name" v="Melvike" />
		<tag k="natural" v="bay" />
		<tag k="old_name" v="Mellvike" />
		<tag k="ssr:stedsnr" v="240631" />
	</node>
	<node id="-155828" lat="61.1852861118" lon="8.19230000465">
		<tag k="name" v="Myrevike" />
		<tag k="natural" v="bay" />
		<tag k="ssr:stedsnr" v="240266" />
	</node>
	<node id="-155827" lat="61.1094861081" lon="8.47657777139">
		<tag k="name" v="Gamlestølsåne" />
		<tag k="ssr:stedsnr" v="240713" />
		<tag k="waterway" v="stream" />
	</node>
	<node id="-155817" lat="61.2840694423" lon="8.66341945311">
		<tag k="name" v="Ryggibakkvike" />
		<tag k="natural" v="bay" />
		<tag k="ssr:stedsnr" v="236125" />
	</node>
	<node id="-155814" lat="61.1831138926" lon="8.28457221757">
		<tag k="name" v="Tverråntjernet" />
		<tag k="natural" v="water" />
		<tag k="ssr:stedsnr" v="231620" />
	</node>
	<node id="-157041" lat="61.3317305516" lon="8.67642221759">
		<tag k="name" v="Bygdisøyane" />
		<tag k="place" v="islet" />
		<tag k="ssr:stedsnr" v="917135" />
	</node>
	<node id="-155797" lat="61.1433833352" lon="8.56662221812">
		<tag k="name" v="Sparstadsanden" />
		<tag k="natural" v="beach" />
		<tag k="ssr:stedsnr" v="221655" />
	</node>
	<node id="-155776" lat="61.2099666646" lon="8.65280276967">
		<tag k="name" v="Øyestølsbekken" />
		<tag k="ssr:stedsnr" v="221107" />
		<tag k="waterway" v="stream" />
	</node>
	<node id="-155773" lat="61.2066749984" lon="8.66016111673">
		<tag k="name" v="Svarte Føssen" />
		<tag k="natural" v="waterfall" />
		<tag k="ssr:stedsnr" v="221086" />
	</node>
	<node id="-155769" lat="60.9535000044" lon="8.62287778039">
		<tag k="name" v="Søre Kaldåne" />
		<tag k="ssr:stedsnr" v="215338" />
		<tag k="waterway" v="stream" />
	</node>
	<node id="-155766" lat="61.2274166627" lon="8.21896388278">
		<tag k="name" v="Galdstjernet" />
		<tag k="natural" v="water" />
		<tag k="ssr:stedsnr" v="192646" />
	</node>
	<node id="-155764" lat="61.198611109" lon="8.3301944521">
		<tag k="name" v="Tverråne" />
		<tag k="ssr:stedsnr" v="192586" />
		<tag k="waterway" v="stream" />
	</node>
	<node id="-155761" lat="61.2775361084" lon="8.14285834255">
		<tag k="name" v="Årdalsfjorden" />
		<tag k="natural" v="bay" />
		<tag k="ssr:stedsnr" v="190832" />
	</node>
	<node id="-155760" lat="61.3085583368" lon="8.40048333824">
		<tag k="name" v="Vølodalstjerne" />
		<tag k="natural" v="water" />
		<tag k="ssr:stedsnr" v="190824" />
		<tag k="water" v="lake" />
	</node>
	<node id="-155759" lat="61.2563027794" lon="8.29779999325">
		<tag k="name" v="Grytesvikane" />
		<tag k="natural" v="bay" />
		<tag k="ssr:stedsnr" v="190812" />
	</node>
	<node id="-155755" lat="61.4157250021" lon="8.22988610935">
		<tag k="name" v="Mjølkedøla" />
		<tag k="ssr:stedsnr" v="189828" />
		<tag k="waterway" v="river" />
	</node>
	<node id="-155750" lat="61.1836999978" lon="8.68856111447">
		<tag k="name" v="Givrisfossen" />
		<tag k="natural" v="waterfall" />
		<tag k="ssr:stedsnr" v="189685" />
	</node>
	<node id="-155744" lat="61.0921249996" lon="8.2464583272">
		<tag k="name" v="Sulemarktjernet" />
		<tag k="natural" v="water" />
		<tag k="ssr:stedsnr" v="189590" />
	</node>
	<node id="-155742" lat="61.035430555" lon="8.66000832796">
		<tag k="name" v="Heletubba" />
		<tag k="place" v="islet" />
		<tag k="ssr:stedsnr" v="189411" />
	</node>
	<node id="-157029" lat="61.1708444449" lon="8.17966110806">
		<tag k="name" v="Store bekken" />
		<tag k="ssr:stedsnr" v="908201" />
		<tag k="waterway" v="stream" />
	</node>
	<node id="-155736" lat="61.0824750026" lon="8.62764166541">
		<tag k="name" v="Kringletjernet" />
		<tag k="natural" v="water" />
		<tag k="ssr:stedsnr" v="189330" />
	</node>
	<node id="-155735" lat="61.1246499994" lon="8.67654721551">
		<tag k="name" v="Midttjernet" />
		<tag k="natural" v="water" />
		<tag k="ssr:stedsnr" v="189289" />
	</node>
	<node id="-155733" lat="61.1410055533" lon="8.70795833035">
		<tag k="name" v="Ala" />
		<tag k="ssr:stedsnr" v="189252" />
		<tag k="waterway" v="stream" />
	</node>
	<node id="-155731" lat="61.1668361072" lon="8.59011944816">
		<tag k="name" v="Drøsja" />
		<tag k="ssr:stedsnr" v="189243" />
		<tag k="waterway" v="stream" />
	</node>
	<node id="-155726" lat="61.2802111152" lon="8.66435834134">
		<tag k="name" v="Sendebottjernet" />
		<tag k="natural" v="water" />
		<tag k="ssr:stedsnr" v="189178" />
	</node>
	<node id="-155725" lat="61.2836611075" lon="8.67854165952">
		<tag k="name" v="Tverråne" />
		<tag k="ssr:stedsnr" v="189176" />
		<tag k="waterway" v="stream" />
	</node>
	<node id="-155723" lat="61.2757638882" lon="8.48755555302">
		<tag k="name" v="Øvre Dingledalstjernet" />
		<tag k="natural" v="water" />
		<tag k="ssr:stedsnr" v="189168" />
	</node>
	<node id="-155722" lat="61.3209182548" lon="8.75506840318">
		<tag k="name" v="Kjelda" />
		<tag k="natural" v="water" />
		<tag k="ssr:stedsnr" v="189161" />
	</node>
	<node id="-155721" lat="61.3625999977" lon="8.64978889087">
		<tag k="name" v="Kalveåne" />
		<tag k="ssr:stedsnr" v="189126" />
		<tag k="waterway" v="stream" />
	</node>
	<node id="-155711" lat="61.1564249967" lon="8.59346944312">
		<tag k="name" v="Langåne" />
		<tag k="ssr:stedsnr" v="188279" />
		<tag k="waterway" v="stream" />
	</node>
	<node id="-155705" lat="61.2071472257" lon="8.30841665745">
		<tag k="name" v="Føssen" />
		<tag k="natural" v="waterfall" />
		<tag k="ssr:stedsnr" v="180332" />
	</node>
	<node id="-155704" lat="61.1670611127" lon="8.26329444173">
		<tag k="name" v="Vesle Tenla" />
		<tag k="natural" v="water" />
		<tag k="ssr:stedsnr" v="180259" />
	</node>
	<node id="-155696" lat="61.0957416685" lon="8.70672222674">
		<tag k="name" v="Kviestølsøddin" />
		<tag k="natural" v="cape" />
		<tag k="ssr:stedsnr" v="179823" />
	</node>
	<node id="-155694" lat="61.3502111114" lon="8.22615833478">
		<tag k="name" v="Koldedalsvike" />
		<tag k="natural" v="bay" />
		<tag k="ssr:stedsnr" v="179593" />
	</node>
	<node id="-155691" lat="61.0746722234" lon="8.58168611392">
		<tag k="name" v="Skåldungbekken" />
		<tag k="ssr:stedsnr" v="179574" />
		<tag k="waterway" v="stream" />
	</node>
	<node id="-155690" lat="61.0612472199" lon="8.60066110859">
		<tag k="name" v="Skålesanden" />
		<tag k="natural" v="beach" />
		<tag k="ssr:stedsnr" v="179572" />
	</node>
	<node id="-155683" lat="61.1626138857" lon="8.37774721683">
		<tag k="name" v="Kviteføssbekken" />
		<tag k="ssr:stedsnr" v="179292" />
		<tag k="waterway" v="stream" />
	</node>
	<node id="-155682" lat="61.1728916695" lon="8.19256388167">
		<tag k="name" v="Lundevikstjernet" />
		<tag k="natural" v="water" />
		<tag k="ssr:stedsnr" v="179248" />
		<tag k="water" v="pond" />
	</node>
	<node id="-155677" lat="61.1430361079" lon="8.77915834168">
		<tag k="name" v="Røykjednbekken" />
		<tag k="ssr:stedsnr" v="179023" />
		<tag k="waterway" v="stream" />
	</node>
	<node id="-155675" lat="61.3107916628" lon="8.65588889608">
		<tag k="name" v="Olevikje" />
		<tag k="natural" v="bay" />
		<tag k="ssr:stedsnr" v="175122" />
	</node>
	<node id="-155673" lat="61.2903777781" lon="8.64090555943">
		<tag k="name" v="Sendeåne" />
		<tag k="ssr:stedsnr" v="175105" />
		<tag k="waterway" v="stream" />
	</node>
	<node id="-155671" lat="61.1789305592" lon="8.50678611878">
		<tag k="name" v="Nordlandstjernet" />
		<tag k="natural" v="water" />
		<tag k="ssr:stedsnr" v="167968" />
	</node>
	<node id="-155665" lat="61.1718750011" lon="8.73828055875">
		<tag k="name" v="Jobekken" />
		<tag k="ssr:stedsnr" v="160973" />
		<tag k="waterway" v="stream" />
	</node>
	<node id="-155664" lat="60.9724277745" lon="8.66514444342">
		<tag k="name" v="Jørundgilbekken" />
		<tag k="ssr:stedsnr" v="160786" />
		<tag k="waterway" v="stream" />
	</node>
	<node id="-155663" lat="61.2095611093" lon="8.60304999952">
		<tag k="name" v="Trølla" />
		<tag k="natural" v="waterfall" />
		<tag k="ssr:stedsnr" v="160783" />
	</node>
	<node id="-155659" lat="61.1542861141" lon="8.53771111751">
		<tag k="name" v="Røssvike" />
		<tag k="natural" v="bay" />
		<tag k="ssr:stedsnr" v="160687" />
	</node>
	<node id="-155650" lat="61.2083916656" lon="8.38811110707">
		<tag k="name" v="Bøaåne" />
		<tag k="ssr:stedsnr" v="160443" />
		<tag k="waterway" v="stream" />
	</node>
</osm>
