<?xml version="1.0" encoding="UTF-8"?>
<osm generator="osmapis" version="0.6">
	<node id="-155648" lat="61.1844916645" lon="8.3688722287">
		<tag k="historic" v="shieling" />
		<tag k="name" v="Øvre Stølen" />
		<tag k="place" v="locality" />
		<tag k="ssr:stedsnr" v="119412" />
	</node>
	<node id="-155647" lat="61.2095583363" lon="8.31786111039">
		<tag k="name" v="Øvre Myre" />
		<tag k="natural" v="wetland" />
		<tag k="ssr:stedsnr" v="119356" />
	</node>
	<node id="-156670" lat="61.1577277774" lon="8.54820277532">
		<tag k="name" v="Nordlandskvenan" />
		<tag k="place" v="locality" />
		<tag k="ssr:stedsnr" v="707714" />
	</node>
	<node id="-157181" lat="61.1739500023" lon="8.3946916579">
		<tag k="name" v="Trettemyre" />
		<tag k="natural" v="wetland" />
		<tag k="ssr:stedsnr" v="949363" />
	</node>
	<node id="-157180" lat="61.2102277822" lon="8.3544194391">
		<tag k="name" v="Bulegudn" />
		<tag k="place" v="locality" />
		<tag k="ssr:stedsnr" v="949360" />
	</node>
	<node id="-156666" lat="61.1303388871" lon="8.53271666999">
		<tag k="name" v="Hagen" />
		<tag k="place" v="locality" />
		<tag k="ssr:stedsnr" v="707701" />
	</node>
	<node id="-155732" lat="61.2041749975" lon="8.39923610404">
		<tag k="name" v="Bulegudn" />
		<tag k="place" v="locality" />
		<tag k="ssr:stedsnr" v="160441" />
	</node>
	<node id="-155638" lat="61.1218861154" lon="8.70169721522">
		<tag k="name" v="Alaskogen" />
		<tag k="place" v="locality" />
		<tag k="ssr:stedsnr" v="118876" />
	</node>
	<node id="-157097" lat="61.0735138881" lon="8.69503332678">
		<tag k="name" v="Vergesteinmyra" />
		<tag k="natural" v="wetland" />
		<tag k="ssr:stedsnr" v="907785" />
	</node>
	<node id="-155124" lat="61.1723833369" lon="8.71721110274">
		<tag k="name" v="Løkreimsøynadn" />
		<tag k="place" v="locality" />
		<tag k="ssr:stedsnr" v="342962" />
	</node>
	<node id="-155123" lat="61.174672226" lon="8.66538611182">
		<tag k="name" v="Haugastølsslette" />
		<tag k="place" v="locality" />
		<tag k="ssr:stedsnr" v="342958" />
	</node>
	<node id="-156669" lat="61.134788891" lon="8.61109444248">
		<tag k="name" v="Bøkkadn" />
		<tag k="place" v="locality" />
		<tag k="ssr:stedsnr" v="707709" />
	</node>
	<node id="-156139" lat="61.1062638867" lon="8.52116665839">
		<tag k="name" v="Røven" />
		<tag k="place" v="locality" />
		<tag k="ssr:stedsnr" v="482670" />
	</node>
	<node id="-155815" lat="61.138444443" lon="8.72773888413">
		<tag k="name" v="Ørnemyre" />
		<tag k="natural" v="wetland" />
		<tag k="ssr:stedsnr" v="189251" />
	</node>
	<node id="-156136" lat="61.2110750036" lon="8.33672221747">
		<tag k="name" v="Gamlekve" />
		<tag k="place" v="locality" />
		<tag k="ssr:stedsnr" v="482432" />
	</node>
	<node id="-156647" lat="61.0179944406" lon="8.67970556019">
		<tag k="name" v="Ure" />
		<tag k="natural" v="scree" />
		<tag k="ssr:stedsnr" v="706406" />
	</node>
	<node id="-155110" lat="61.1357250024" lon="8.61738055947">
		<tag k="name" v="Trøadn" />
		<tag k="place" v="locality" />
		<tag k="ssr:stedsnr" v="342650" />
	</node>
	<node id="-156644" lat="61.1904888887" lon="8.68084444414">
		<tag k="name" v="Sindermyre" />
		<tag k="natural" v="wetland" />
		<tag k="ssr:stedsnr" v="706082" />
	</node>
	<node id="-155617" lat="61.1528972182" lon="8.74334444363">
		<tag k="name" v="Midtre-Myre" />
		<tag k="place" v="locality" />
		<tag k="ssr:stedsnr" v="118159" />
	</node>
	<node id="-156127" lat="61.1664277801" lon="8.37958611295">
		<tag k="name" v="Rødalsuksin" />
		<tag k="place" v="locality" />
		<tag k="ssr:stedsnr" v="482278" />
	</node>
	<node id="-155102" lat="61.1872916626" lon="8.77472221657">
		<tag k="name" v="Sjødaladn" />
		<tag k="place" v="locality" />
		<tag k="ssr:stedsnr" v="342228" />
	</node>
	<node id="-156581" lat="61.2078777815" lon="8.29881388823">
		<tag k="landuse" v="quarry" />
		<tag k="name" v="Varpahøla" />
		<tag k="ssr:stedsnr" v="665384" />
	</node>
	<node id="-157142" lat="61.0256194478" lon="8.6318416707">
		<tag k="name" v="Hallingsteinen" />
		<tag k="natural" v="stone" />
		<tag k="ssr:stedsnr" v="917384" />
	</node>
	<node id="-155726" lat="61.1852749986" lon="8.39735278134">
		<tag k="name" v="Mjølin" />
		<tag k="place" v="locality" />
		<tag k="ssr:stedsnr" v="160371" />
	</node>
	<node id="-155555" lat="61.1896861099" lon="8.72851111057">
		<tag k="historic" v="shieling" />
		<tag k="name" v="Løkreimstølen" />
		<tag k="place" v="locality" />
		<tag k="ssr:stedsnr" v="100045" />
	</node>
	<node id="-156106" lat="61.1093750025" lon="8.48054444355">
		<tag k="name" v="Gamlestølsmyre" />
		<tag k="natural" v="wetland" />
		<tag k="ssr:stedsnr" v="464406" />
	</node>
	<node id="-155589" lat="61.1838416691" lon="8.53487499769">
		<tag k="historic" v="shieling" />
		<tag k="name" v="Skeisstølen" />
		<tag k="place" v="locality" />
		<tag k="ssr:stedsnr" v="100729" />
	</node>
	<node id="-155588" lat="61.1713027771" lon="8.53487222059">
		<tag k="landuse" v="meadow" />
		<tag k="name" v="Tynneskrejordet" />
		<tag k="ssr:stedsnr" v="100727" />
	</node>
	<node id="-156150" lat="61.1544333331" lon="8.80604165816">
		<tag k="name" v="Smijorde" />
		<tag k="place" v="locality" />
		<tag k="ssr:stedsnr" v="483419" />
	</node>
	<node id="-156606" lat="61.2252499979" lon="8.84702499979">
		<tag k="name" v="Beitemyre" />
		<tag k="natural" v="wetland" />
		<tag k="ssr:stedsnr" v="674439" />
	</node>
	<node id="-157115" lat="61.1851000043" lon="8.18874999153">
		<tag k="name" v="Jutulstein" />
		<tag k="natural" v="stone" />
		<tag k="ssr:stedsnr" v="908271" />
	</node>
	<node id="-155577" lat="61.1511888903" lon="8.46310000001">
		<tag k="historic" v="shieling" />
		<tag k="name" v="Fjellstøladn" />
		<tag k="place" v="locality" />
		<tag k="ssr:stedsnr" v="100454" />
	</node>
	<node id="-155576" lat="61.1660888923" lon="8.48799444209">
		<tag k="name" v="Juvike" />
		<tag k="place" v="locality" />
		<tag k="ssr:stedsnr" v="100446" />
	</node>
	<node id="-156251" lat="61.2003416629" lon="8.3663138957">
		<tag k="name" v="Øygardsjorudn" />
		<tag k="place" v="locality" />
		<tag k="ssr:stedsnr" v="543443" />
	</node>
	<node id="-155059" lat="61.0344027753" lon="8.42550276912">
		<tag k="name" v="Storebottfonne" />
		<tag k="natural" v="glacier" />
		<tag k="ssr:stedsnr" v="310644" />
	</node>
	<node id="-155567" lat="61.1899250006" lon="8.71886389058">
		<tag k="historic" v="shieling" />
		<tag k="name" v="Belsheimstølen" />
		<tag k="place" v="locality" />
		<tag k="ssr:stedsnr" v="100044" />
	</node>
	<node id="-157100" lat="61.1195249958" lon="8.62325554841">
		<tag k="name" v="Kvilarstein" />
		<tag k="natural" v="stone" />
		<tag k="ssr:stedsnr" v="907854" />
	</node>
	<node id="-156587" lat="61.1293361132" lon="8.52606111493">
		<tag k="name" v="Hagfelludn" />
		<tag k="place" v="locality" />
		<tag k="ssr:stedsnr" v="666712" />
	</node>
	<node id="-155049" lat="61.1000305579" lon="8.59263611132">
		<tag k="name" v="Tunemyrane" />
		<tag k="natural" v="wetland" />
		<tag k="ssr:stedsnr" v="310373" />
	</node>
	<node id="-155558" lat="61.1682361154" lon="8.81757777043">
		<tag k="name" v="Tørvemyre" />
		<tag k="natural" v="wetland" />
		<tag k="ssr:stedsnr" v="99269" />
	</node>
	<node id="-157093" lat="61.0741777808" lon="8.61806666536">
		<tag k="name" v="Bleikefeten" />
		<tag k="place" v="locality" />
		<tag k="ssr:stedsnr" v="907545" />
	</node>
	<node id="-155432" lat="61.1543361147" lon="8.61677222878">
		<tag k="name" v="Mehagin" />
		<tag k="place" v="locality" />
		<tag k="ssr:stedsnr" v="39667" />
	</node>
	<node id="-155043" lat="61.1293802548" lon="8.54967594156">
		<tag k="name" v="Bøaflata" />
		<tag k="place" v="locality" />
		<tag k="ssr:stedsnr" v="310294" />
	</node>
	<node id="-157090" lat="61.2121277755" lon="8.32652499205">
		<tag k="historic" v="shieling" />
		<tag k="name" v="Elbertstøljordet" />
		<tag k="place" v="locality" />
		<tag k="ssr:stedsnr" v="907395" />
	</node>
	<node id="-156577" lat="61.173111113" lon="8.18230555001">
		<tag k="name" v="Bukkestein" />
		<tag k="natural" v="stone" />
		<tag k="ssr:stedsnr" v="665223" />
	</node>
	<node id="-156572" lat="61.1619972219" lon="8.64424721344">
		<tag k="name" v="Kyrkjebøno" />
		<tag k="place" v="locality" />
		<tag k="ssr:stedsnr" v="664921" />
	</node>
	<node id="-156571" lat="61.1390194473" lon="8.73425832842">
		<tag k="historic" v="shieling" />
		<tag k="name" v="Døkkestølen" />
		<tag k="place" v="locality" />
		<tag k="ssr:stedsnr" v="664898" />
	</node>
	<node id="-157082" lat="61.1683638875" lon="8.17217223119">
		<tag k="name" v="Brendemyre" />
		<tag k="natural" v="wetland" />
		<tag k="ssr:stedsnr" v="907181" />
	</node>
	<node id="-157081" lat="61.1692055521" lon="8.14951667092">
		<tag k="name" v="Skavlemyre" />
		<tag k="natural" v="wetland" />
		<tag k="ssr:stedsnr" v="907180" />
	</node>
	<node id="-156267" lat="61.2125694414" lon="8.23682222758">
		<tag k="name" v="Tørvetaket" />
		<tag k="natural" v="wetland" />
		<tag k="ssr:stedsnr" v="544210" />
	</node>
	<node id="-155542" lat="61.4220472231" lon="8.16309444264">
		<tag k="name" v="Uranosbreen" />
		<tag k="natural" v="glacier" />
		<tag k="ssr:stedsnr" v="68836" />
	</node>
	<node id="-156562" lat="61.1024805516" lon="8.61384165983">
		<tag k="historic" v="shieling" />
		<tag k="name" v="Haugastølen" />
		<tag k="place" v="locality" />
		<tag k="ssr:stedsnr" v="664579" />
	</node>
	<node id="-155023" lat="61.1535944477" lon="8.82189166553">
		<tag k="name" v="Kleivajordet" />
		<tag k="place" v="locality" />
		<tag k="ssr:stedsnr" v="301366" />
	</node>
	<node id="-155018" lat="61.1684972237" lon="8.21304721859">
		<tag k="name" v="Svarte Svøe" />
		<tag k="place" v="locality" />
		<tag k="ssr:stedsnr" v="301242" />
	</node>
	<node id="-156041" lat="61.1580999965" lon="8.81612221657">
		<tag k="name" v="Stallsmyr" />
		<tag k="natural" v="wetland" />
		<tag k="ssr:stedsnr" v="423429" />
	</node>
	<node id="-155015" lat="61.2228472201" lon="8.2382083407">
		<tag k="name" v="Myradn" />
		<tag k="natural" v="wetland" />
		<tag k="ssr:stedsnr" v="301194" />
	</node>
	<node id="-155481" lat="61.1569833323" lon="8.80568610726">
		<tag k="name" v="Steinsjorde" />
		<tag k="place" v="locality" />
		<tag k="ssr:stedsnr" v="58404" />
	</node>
	<node id="-155012" lat="61.1643833318" lon="8.67644444173">
		<tag k="name" v="Hensure" />
		<tag k="natural" v="scree" />
		<tag k="ssr:stedsnr" v="300917" />
	</node>
	<node id="-155010" lat="61.0982249976" lon="8.70832222863">
		<tag k="name" v="Kyrsteinadn" />
		<tag k="natural" v="stone" />
		<tag k="ssr:stedsnr" v="300876" />
	</node>
	<node id="-155009" lat="61.10609722" lon="8.52535555643">
		<tag k="name" v="Ryttaren" />
		<tag k="place" v="locality" />
		<tag k="ssr:stedsnr" v="300686" />
	</node>
	<node id="-155008" lat="61.107972218" lon="8.55933888024">
		<tag k="name" v="Tørvemyre" />
		<tag k="natural" v="wetland" />
		<tag k="ssr:stedsnr" v="300684" />
	</node>
	<node id="-156541" lat="61.1785777814" lon="8.66893334092">
		<tag k="historic" v="shieling" />
		<tag k="name" v="Rotestølen" />
		<tag k="place" v="locality" />
		<tag k="ssr:stedsnr" v="646957" />
	</node>
	<node id="-157052" lat="61.1247499997" lon="8.65251388518">
		<tag k="name" v="Tverrbrumyre" />
		<tag k="natural" v="wetland" />
		<tag k="ssr:stedsnr" v="857350" />
	</node>
	<node id="-155000" lat="61.1731749985" lon="8.31428055114">
		<tag k="name" v="Storurde" />
		<tag k="natural" v="scree" />
		<tag k="ssr:stedsnr" v="300396" />
	</node>
	<node id="-156532" lat="61.1615666711" lon="8.68765555131">
		<tag k="name" v="Grønolsmyre" />
		<tag k="natural" v="wetland" />
		<tag k="ssr:stedsnr" v="645962" />
	</node>
	<node id="-154994" lat="61.1736722202" lon="8.12837222872">
		<tag k="name" v="Kyrkjistølmyradn" />
		<tag k="natural" v="wetland" />
		<tag k="ssr:stedsnr" v="300149" />
	</node>
	<node id="-156010" lat="61.1626527808" lon="8.34265555772">
		<tag k="historic" v="shieling" />
		<tag k="name" v="Hølisstølen" />
		<tag k="place" v="locality" />
		<tag k="ssr:stedsnr" v="422262" />
	</node>
	<node id="-156517" lat="61.1548583356" lon="8.42286111726">
		<tag k="historic" v="shieling" />
		<tag k="name" v="Laramstøladn" />
		<tag k="place" v="locality" />
		<tag k="ssr:stedsnr" v="645369" />
	</node>
	<node id="-154980" lat="61.1772555595" lon="8.70726388014">
		<tag k="name" v="Liahagin" />
		<tag k="place" v="locality" />
		<tag k="ssr:stedsnr" v="282980" />
	</node>
	<node id="-156515" lat="61.1555055572" lon="8.41703056156">
		<tag k="historic" v="shieling" />
		<tag k="name" v="Dumbadøkke" />
		<tag k="place" v="locality" />
		<tag k="ssr:stedsnr" v="645364" />
	</node>
	<node id="-154978" lat="61.0282416661" lon="8.6449277783">
		<tag k="name" v="Baggetunsteinen" />
		<tag k="natural" v="stone" />
		<tag k="ssr:stedsnr" v="282762" />
	</node>
	<node id="-154977" lat="61.1747972233" lon="8.533255555">
		<tag k="name" v="Ilagsmyradn" />
		<tag k="natural" v="wetland" />
		<tag k="ssr:stedsnr" v="282740" />
	</node>
	<node id="-155488" lat="61.2114638858" lon="8.32245277943">
		<tag k="name" v="Kåldekkadn" />
		<tag k="place" v="locality" />
		<tag k="ssr:stedsnr" v="58481" />
	</node>
	<node id="-154974" lat="61.1282555552" lon="8.53385832843">
		<tag k="name" v="Storåkern" />
		<tag k="place" v="locality" />
		<tag k="ssr:stedsnr" v="282670" />
	</node>
	<node id="-155996" lat="61.1724972267" lon="8.86392499194">
		<tag k="name" v="Hålimyradn" />
		<tag k="natural" v="wetland" />
		<tag k="ssr:stedsnr" v="418953" />
	</node>
	<node id="-157019" lat="61.1329972265" lon="8.73461944916">
		<tag k="name" v="Gunnhildmyre" />
		<tag k="natural" v="wetland" />
		<tag k="ssr:stedsnr" v="847895" />
	</node>
	<node id="-156505" lat="61.2197861068" lon="8.62873889217">
		<tag k="name" v="Stupulen" />
		<tag k="natural" v="stone" />
		<tag k="ssr:stedsnr" v="645019" />
	</node>
	<node id="-157014" lat="61.0823027821" lon="8.56783610447">
		<tag k="name" v="Rundemyre" />
		<tag k="natural" v="wetland" />
		<tag k="ssr:stedsnr" v="847594" />
	</node>
	<node id="-156217" lat="61.1567722255" lon="8.7160111165">
		<tag k="name" v="Belsheimøynadn" />
		<tag k="place" v="locality" />
		<tag k="ssr:stedsnr" v="524980" />
	</node>
	<node id="-157012" lat="61.2000472249" lon="8.38359167333">
		<tag k="name" v="Klepp" />
		<tag k="place" v="locality" />
		<tag k="ssr:stedsnr" v="847474" />
	</node>
	<node id="-155790" lat="61.2095111121" lon="8.31594444388">
		<tag k="landuse" v="meadow" />
		<tag k="name" v="Flatajordet" />
		<tag k="ssr:stedsnr" v="180335" />
	</node>
	<node id="-156497" lat="61.2216138932" lon="8.42768055827">
		<tag k="name" v="Fagersetmyrane" />
		<tag k="natural" v="wetland" />
		<tag k="ssr:stedsnr" v="617615" />
	</node>
	<node id="-155471" lat="61.1698305519" lon="8.3721333292">
		<tag k="name" v="Versstein" />
		<tag k="natural" v="stone" />
		<tag k="ssr:stedsnr" v="58305" />
	</node>
	<node id="-155468" lat="61.1453249967" lon="8.80913333977">
		<tag k="name" v="Kråkemyr" />
		<tag k="natural" v="wetland" />
		<tag k="ssr:stedsnr" v="58229" />
	</node>
	<node id="-154954" lat="61.1456277808" lon="8.8510805488">
		<tag k="name" v="Teigen" />
		<tag k="place" v="locality" />
		<tag k="ssr:stedsnr" v="282269" />
	</node>
	<node id="-157000" lat="61.1323944445" lon="8.74181388514">
		<tag k="name" v="Hølojordet" />
		<tag k="place" v="locality" />
		<tag k="ssr:stedsnr" v="847042" />
	</node>
	<node id="-156998" lat="61.1375722249" lon="8.74280000477">
		<tag k="name" v="Stakkstø" />
		<tag k="place" v="locality" />
		<tag k="ssr:stedsnr" v="847022" />
	</node>
	<node id="-156042" lat="61.1705916656" lon="8.31473333938">
		<tag k="name" v="Bulegudn" />
		<tag k="place" v="locality" />
		<tag k="ssr:stedsnr" v="423434" />
	</node>
	<node id="-154938" lat="61.1596027762" lon="8.82550277518">
		<tag k="name" v="Prestengjordet" />
		<tag k="place" v="locality" />
		<tag k="ssr:stedsnr" v="281315" />
	</node>
	<node id="-154937" lat="61.1611611076" lon="8.83003888854">
		<tag k="name" v="Bakkejordet" />
		<tag k="place" v="locality" />
		<tag k="ssr:stedsnr" v="281314" />
	</node>
	<node id="-156981" lat="61.1717722199" lon="8.69949721949">
		<tag k="name" v="Fåkjeldmyre" />
		<tag k="natural" v="wetland" />
		<tag k="ssr:stedsnr" v="828974" />
	</node>
	<node id="-155443" lat="60.9729499999" lon="8.65877777387">
		<tag k="name" v="Hulebakksteinen" />
		<tag k="natural" v="stone" />
		<tag k="ssr:stedsnr" v="39780" />
	</node>
	<node id="-156979" lat="61.149697226" lon="8.57719443526">
		<tag k="historic" v="shieling" />
		<tag k="name" v="Rysseflat" />
		<tag k="place" v="locality" />
		<tag k="ssr:stedsnr" v="828719" />
	</node>
	<node id="-156125" lat="61.1598861124" lon="8.37079999263">
		<tag k="name" v="Dekkatn" />
		<tag k="place" v="locality" />
		<tag k="ssr:stedsnr" v="482256" />
	</node>
	<node id="-156458" lat="61.161536108" lon="8.51078055922">
		<tag k="name" v="Kviture" />
		<tag k="natural" v="scree" />
		<tag k="ssr:stedsnr" v="613693" />
	</node>
	<node id="-155433" lat="61.1594916641" lon="8.58695833201">
		<tag k="historic" v="shieling" />
		<tag k="name" v="Torsstølen" />
		<tag k="place" v="locality" />
		<tag k="ssr:stedsnr" v="39672" />
	</node>
	<node id="-155944" lat="61.1313972183" lon="8.63785554945">
		<tag k="historic" v="shieling" />
		<tag k="name" v="Trondsonstølen" />
		<tag k="place" v="locality" />
		<tag k="ssr:stedsnr" v="240944" />
	</node>
	<node id="-155943" lat="61.1308999991" lon="8.65810000308">
		<tag k="name" v="Stormyr" />
		<tag k="natural" v="wetland" />
		<tag k="ssr:stedsnr" v="240942" />
	</node>
	<node id="-156960" lat="61.1541194408" lon="8.42793055815">
		<tag k="historic" v="shieling" />
		<tag k="name" v="Prestedøkke" />
		<tag k="place" v="locality" />
		<tag k="ssr:stedsnr" v="828378" />
	</node>
	<node id="-156958" lat="61.1600388868" lon="8.40722777573">
		<tag k="historic" v="shieling" />
		<tag k="name" v="Endrestøl" />
		<tag k="place" v="locality" />
		<tag k="ssr:stedsnr" v="828376" />
	</node>
	<node id="-156956" lat="61.161911113" lon="8.42017500403">
		<tag k="name" v="Steindejordet" />
		<tag k="place" v="locality" />
		<tag k="ssr:stedsnr" v="828369" />
	</node>
	<node id="-155930" lat="61.1041472266" lon="8.6455611176">
		<tag k="name" v="Langetjernmyre" />
		<tag k="natural" v="wetland" />
		<tag k="old_name" v="Langetjednmyre" />
		<tag k="ssr:stedsnr" v="240879" />
	</node>
	<node id="-156207" lat="61.1574638877" lon="8.83778889502">
		<tag k="name" v="Hesjane" />
		<tag k="place" v="locality" />
		<tag k="ssr:stedsnr" v="524258" />
	</node>
	<node id="-155926" lat="61.0870000011" lon="8.52614443628">
		<tag k="historic" v="shieling" />
		<tag k="name" v="Grindestølen" />
		<tag k="place" v="locality" />
		<tag k="ssr:stedsnr" v="240617" />
	</node>
	<node id="-156510" lat="61.1931527817" lon="8.66857776931">
		<tag k="landuse" v="meadow" />
		<tag k="name" v="Synisløeenge" />
		<tag k="ssr:stedsnr" v="645092" />
	</node>
	<node id="-155410" lat="61.1668055573" lon="8.38948610547">
		<tag k="name" v="Føssekvene" />
		<tag k="place" v="locality" />
		<tag k="ssr:stedsnr" v="39322" />
	</node>
	<node id="-155406" lat="61.2100916623" lon="8.64757500332">
		<tag k="name" v="Søre Svøe" />
		<tag k="place" v="locality" />
		<tag k="ssr:stedsnr" v="39108" />
	</node>
	<node id="-156034" lat="61.2254916669" lon="8.23554999337">
		<tag k="historic" v="shieling" />
		<tag k="name" v="Gamle Skogstadstølen" />
		<tag k="place" v="locality" />
		<tag k="ssr:stedsnr" v="423227" />
	</node>
	<node id="-156423" lat="61.2143999984" lon="8.25268611191">
		<tag k="name" v="Svøe" />
		<tag k="place" v="locality" />
		<tag k="ssr:stedsnr" v="604222" />
	</node>
	<node id="-156422" lat="61.1735583323" lon="8.18180000855">
		<tag k="name" v="Storsteinmyre" />
		<tag k="natural" v="wetland" />
		<tag k="ssr:stedsnr" v="604214" />
	</node>
	<node id="-155870" lat="61.1520805525" lon="8.48425276994">
		<tag k="name" v="Urateigidn" />
		<tag k="place" v="locality" />
		<tag k="ssr:stedsnr" v="221438" />
	</node>
	<node id="-156419" lat="61.1421277814" lon="8.67078333588">
		<tag k="historic" v="shieling" />
		<tag k="name" v="Smalastølen" />
		<tag k="place" v="locality" />
		<tag k="ssr:stedsnr" v="603935" />
	</node>
	<node id="-156416" lat="61.1254916625" lon="8.70273610564">
		<tag k="name" v="Sandemyre" />
		<tag k="natural" v="wetland" />
		<tag k="ssr:stedsnr" v="603879" />
	</node>
	<node id="-156414" lat="61.1162666679" lon="8.63758888169">
		<tag k="historic" v="shieling" />
		<tag k="name" v="Øvrebølyrja" />
		<tag k="place" v="locality" />
		<tag k="ssr:stedsnr" v="603872" />
	</node>
	<node id="-156400" lat="61.1679555561" lon="8.33993333624">
		<tag k="historic" v="shieling" />
		<tag k="name" v="Einesete" />
		<tag k="place" v="locality" />
		<tag k="ssr:stedsnr" v="603237" />
	</node>
	<node id="-156399" lat="61.1709194423" lon="8.17544721543">
		<tag k="name" v="Tjernmyre" />
		<tag k="natural" v="wetland" />
		<tag k="ssr:stedsnr" v="603182" />
	</node>
	<node id="-156397" lat="61.1744888856" lon="8.15746667438">
		<tag k="name" v="Kiladn" />
		<tag k="natural" v="wetland" />
		<tag k="ssr:stedsnr" v="603173" />
	</node>
	<node id="-156395" lat="61.1800500016" lon="8.86177222358">
		<tag k="name" v="Høgsten" />
		<tag k="place" v="locality" />
		<tag k="ssr:stedsnr" v="599969" />
	</node>
	<node id="-155882" lat="61.15393333" lon="8.6113638946">
		<tag k="name" v="Skiftisure" />
		<tag k="natural" v="scree" />
		<tag k="ssr:stedsnr" v="221688" />
	</node>
	<node id="-156393" lat="61.1691666676" lon="8.30232499136">
		<tag k="name" v="Kisebrekkudn" />
		<tag k="place" v="locality" />
		<tag k="ssr:stedsnr" v="604410" />
	</node>
	<node id="-155877" lat="61.1134250024" lon="8.5686805574">
		<tag k="name" v="Tøffilmyre" />
		<tag k="natural" v="wetland" />
		<tag k="ssr:stedsnr" v="221633" />
	</node>
	<node id="-155876" lat="61.1235805574" lon="8.61286667543">
		<tag k="name" v="Kvisten" />
		<tag k="natural" v="stone" />
		<tag k="ssr:stedsnr" v="221627" />
	</node>
	<node id="-155875" lat="61.1240777779" lon="8.61030277662">
		<tag k="name" v="Teigen" />
		<tag k="place" v="locality" />
		<tag k="ssr:stedsnr" v="221626" />
	</node>
	<node id="-155874" lat="61.2058611153" lon="8.3966305633">
		<tag k="historic" v="shieling" />
		<tag k="name" v="Søre stølen" />
		<tag k="place" v="locality" />
		<tag k="ssr:stedsnr" v="221471" />
	</node>
	<node id="-156385" lat="61.1793555534" lon="8.54266111972">
		<tag k="historic" v="shieling" />
		<tag k="name" v="Hurrbakkstølen" />
		<tag k="place" v="locality" />
		<tag k="ssr:stedsnr" v="585739" />
	</node>
	<node id="-156383" lat="61.1597888868" lon="8.56556110702">
		<tag k="historic" v="shieling" />
		<tag k="name" v="Øldrestølen" />
		<tag k="place" v="locality" />
		<tag k="ssr:stedsnr" v="585709" />
	</node>
	<node id="-156382" lat="61.1529583359" lon="8.61365833855">
		<tag k="name" v="Kelvesteinadn" />
		<tag k="natural" v="stone" />
		<tag k="ssr:stedsnr" v="585702" />
	</node>
	<node id="-155867" lat="61.0940055556" lon="8.40160833397">
		<tag k="landuse" v="meadow" />
		<tag k="name" v="Syne" />
		<tag k="ssr:stedsnr" v="221378" />
	</node>
	<node id="-156377" lat="61.1204361081" lon="8.55853333116">
		<tag k="name" v="Plantefeltet" />
		<tag k="place" v="locality" />
		<tag k="ssr:stedsnr" v="585662" />
	</node>
	<node id="-155864" lat="61.1066027746" lon="8.44849443705">
		<tag k="historic" v="shieling" />
		<tag k="name" v="Gravutstølen" />
		<tag k="place" v="locality" />
		<tag k="ssr:stedsnr" v="221372" />
	</node>
	<node id="-155863" lat="61.1079194431" lon="8.45452221879">
		<tag k="historic" v="shieling" />
		<tag k="name" v="Preststølen" />
		<tag k="place" v="locality" />
		<tag k="ssr:stedsnr" v="221371" />
	</node>
	<node id="-156374" lat="61.1188583361" lon="8.55889722668">
		<tag k="landuse" v="meadow" />
		<tag k="name" v="Vangsløoenge" />
		<tag k="ssr:stedsnr" v="585648" />
	</node>
	<node id="-155858" lat="61.1854527768" lon="8.65982777405">
		<tag k="name" v="Stormyr" />
		<tag k="natural" v="wetland" />
		<tag k="ssr:stedsnr" v="221097" />
	</node>
	<node id="-156880" lat="61.150008333" lon="8.65375000867">
		<tag k="landuse" v="meadow" />
		<tag k="name" v="Grønolen" />
		<tag k="ssr:stedsnr" v="786933" />
	</node>
	<node id="-156872" lat="61.2373444452" lon="8.25230833056">
		<tag k="historic" v="shieling" />
		<tag k="name" v="Bryggjestølen" />
		<tag k="place" v="locality" />
		<tag k="ssr:stedsnr" v="786632" />
	</node>
	<node id="-156869" lat="61.0836944473" lon="8.57968611984">
		<tag k="name" v="Røvsmyre" />
		<tag k="natural" v="wetland" />
		<tag k="ssr:stedsnr" v="786607" />
	</node>
	<node id="-156354" lat="61.2142388845" lon="8.63212778163">
		<tag k="name" v="Svøe" />
		<tag k="place" v="locality" />
		<tag k="ssr:stedsnr" v="585010" />
	</node>
	<node id="-156864" lat="61.1708972256" lon="8.31891389242">
		<tag k="name" v="Budeikyrkja" />
		<tag k="natural" v="stone" />
		<tag k="ssr:stedsnr" v="786403" />
	</node>
	<node id="-156351" lat="61.1599277759" lon="8.83643054634">
		<tag k="name" v="Grådinjordet" />
		<tag k="place" v="locality" />
		<tag k="ssr:stedsnr" v="584305" />
	</node>
	<node id="-156856" lat="61.1669833335" lon="8.33462221451">
		<tag k="name" v="Bleiklimyradn" />
		<tag k="natural" v="wetland" />
		<tag k="ssr:stedsnr" v="786277" />
	</node>
	<node id="-156854" lat="61.1584500042" lon="8.3639472212">
		<tag k="historic" v="shieling" />
		<tag k="name" v="Nysete" />
		<tag k="place" v="locality" />
		<tag k="ssr:stedsnr" v="786268" />
	</node>
	<node id="-156853" lat="61.1699555585" lon="8.37453055129">
		<tag k="name" v="Langemyr" />
		<tag k="natural" v="wetland" />
		<tag k="ssr:stedsnr" v="786259" />
	</node>
	<node id="-156847" lat="61.1920305559" lon="8.23872500792">
		<tag k="name" v="Stormyr" />
		<tag k="natural" v="wetland" />
		<tag k="ssr:stedsnr" v="786192" />
	</node>
	<node id="-156846" lat="61.1952833331" lon="8.22771943698">
		<tag k="historic" v="shieling" />
		<tag k="name" v="Gamle Tørtidn" />
		<tag k="place" v="locality" />
		<tag k="ssr:stedsnr" v="786191" />
	</node>
	<node id="-155883" lat="61.1703888868" lon="8.53353055079">
		<tag k="landuse" v="meadow" />
		<tag k="name" v="Ilaget" />
		<tag k="ssr:stedsnr" v="221729" />
	</node>
	<node id="-155303" lat="61.1168722239" lon="8.52931667037">
		<tag k="historic" v="shieling" />
		<tag k="name" v="Krøssfønnstølen" />
		<tag k="place" v="locality" />
		<tag k="ssr:stedsnr" v="889662" />
	</node>
	<node id="-155302" lat="61.1133055561" lon="8.5417277699">
		<tag k="historic" v="shieling" />
		<tag k="name" v="Jonsstølen" />
		<tag k="place" v="locality" />
		<tag k="ssr:stedsnr" v="889654" />
	</node>
	<node id="-155301" lat="61.1175638929" lon="8.51941388144">
		<tag k="name" v="Storstein" />
		<tag k="natural" v="stone" />
		<tag k="ssr:stedsnr" v="889652" />
	</node>
	<node id="-155293" lat="61.157477774" lon="8.45061389006">
		<tag k="name" v="Langeleite" />
		<tag k="place" v="locality" />
		<tag k="ssr:stedsnr" v="889455" />
	</node>
	<node id="-156825" lat="61.138180557" lon="8.61045832912">
		<tag k="name" v="Bråkenhus" />
		<tag k="place" v="locality" />
		<tag k="ssr:stedsnr" v="768164" />
	</node>
	<node id="-156824" lat="61.1727666641" lon="8.68045278642">
		<tag k="name" v="Fyglissvaet" />
		<tag k="place" v="locality" />
		<tag k="ssr:stedsnr" v="767979" />
	</node>
	<node id="-156822" lat="61.1801305529" lon="8.68567500875">
		<tag k="name" v="Gråe Svaet" />
		<tag k="place" v="locality" />
		<tag k="ssr:stedsnr" v="767975" />
	</node>
	<node id="-155284" lat="61.1504722208" lon="8.73711389805">
		<tag k="name" v="Bleikfetadn" />
		<tag k="place" v="locality" />
		<tag k="ssr:stedsnr" v="888986" />
	</node>
	<node id="-156099" lat="61.1730194434" lon="8.83429166965">
		<tag k="landuse" v="meadow" />
		<tag k="name" v="Marken" />
		<tag k="ssr:stedsnr" v="463254" />
	</node>
	<node id="-155791" lat="61.1563055582" lon="8.80725555612">
		<tag k="name" v="Sandbakken" />
		<tag k="place" v="locality" />
		<tag k="ssr:stedsnr" v="180393" />
	</node>
	<node id="-156814" lat="61.1117055579" lon="8.51916666725">
		<tag k="name" v="Ure" />
		<tag k="natural" v="scree" />
		<tag k="ssr:stedsnr" v="767649" />
	</node>
	<node id="-155789" lat="61.2086916645" lon="8.30776110634">
		<tag k="name" v="Just" />
		<tag k="place" v="locality" />
		<tag k="ssr:stedsnr" v="180333" />
	</node>
	<node id="-155276" lat="61.156138889" lon="8.82294722611">
		<tag k="name" v="Gjertrudstølsjordet" />
		<tag k="place" v="locality" />
		<tag k="ssr:stedsnr" v="888250" />
	</node>
	<node id="-155275" lat="61.174538889" lon="8.79924722804">
		<tag k="name" v="Geitøstbakkaden" />
		<tag k="place" v="locality" />
		<tag k="ssr:stedsnr" v="888221" />
	</node>
	<node id="-157191" lat="61.1929694437" lon="8.52463611514">
		<tag k="name" v="Trøkastein" />
		<tag k="natural" v="stone" />
		<tag k="ssr:stedsnr" v="949785" />
	</node>
	<node id="-156804" lat="61.1798472209" lon="8.83494721382">
		<tag k="name" v="Bergsengjorde" />
		<tag k="place" v="locality" />
		<tag k="ssr:stedsnr" v="767225" />
	</node>
	<node id="-156360" lat="61.1924388904" lon="8.69891943889">
		<tag k="name" v="Åsejordet" />
		<tag k="place" v="locality" />
		<tag k="ssr:stedsnr" v="585066" />
	</node>
	<node id="-155775" lat="61.083947219" lon="8.58550554762">
		<tag k="name" v="Bleikefeten" />
		<tag k="place" v="locality" />
		<tag k="ssr:stedsnr" v="179587" />
	</node>
	<node id="-155256" lat="61.1719305519" lon="8.66558888065">
		<tag k="historic" v="shieling" />
		<tag k="name" v="Kvenadn" />
		<tag k="place" v="locality" />
		<tag k="ssr:stedsnr" v="404023" />
	</node>
	<node id="-155252" lat="61.1657888928" lon="8.53928888599">
		<tag k="historic" v="shieling" />
		<tag k="name" v="Lisete" />
		<tag k="place" v="locality" />
		<tag k="ssr:stedsnr" v="403704" />
	</node>
	<node id="-156094" lat="61.174008331" lon="8.72516388732">
		<tag k="name" v="Laglimsmyre" />
		<tag k="natural" v="wetland" />
		<tag k="ssr:stedsnr" v="463984" />
	</node>
	<node id="-155762" lat="61.1446277793" lon="8.85223612018">
		<tag k="name" v="Kubakkgøta" />
		<tag k="place" v="locality" />
		<tag k="ssr:stedsnr" v="179207" />
	</node>
	<node id="-156271" lat="61.1733194483" lon="8.36551389225">
		<tag k="name" v="Trøllstein" />
		<tag k="natural" v="stone" />
		<tag k="ssr:stedsnr" v="544280" />
	</node>
	<node id="-156270" lat="61.1714138911" lon="8.35064999359">
		<tag k="landuse" v="meadow" />
		<tag k="name" v="Biren" />
		<tag k="ssr:stedsnr" v="544278" />
	</node>
	<node id="-155649" lat="61.1790722218" lon="8.37865278081">
		<tag k="historic" v="shieling" />
		<tag k="name" v="Sjåheim" />
		<tag k="place" v="locality" />
		<tag k="ssr:stedsnr" v="119416" />
	</node>
	<node id="-156779" lat="61.4309027758" lon="8.18387222581">
		<tag k="name" v="Mjølkedalsbreen" />
		<tag k="natural" v="glacier" />
		<tag k="ssr:stedsnr" v="735851" />
	</node>
	<node id="-155242" lat="61.1778250027" lon="8.39807500624">
		<tag k="name" v="Bulegudn" />
		<tag k="place" v="locality" />
		<tag k="ssr:stedsnr" v="403409" />
	</node>
	<node id="-156265" lat="61.1381611082" lon="8.71945555802">
		<tag k="historic" v="shieling" />
		<tag k="name" v="Nye Stølen" />
		<tag k="place" v="locality" />
		<tag k="ssr:stedsnr" v="543933" />
	</node>
	<node id="-156264" lat="61.1634361094" lon="8.67385278302">
		<tag k="name" v="Brekkehølmadn" />
		<tag k="place" v="locality" />
		<tag k="ssr:stedsnr" v="543899" />
	</node>
	<node id="-155750" lat="61.1332777736" lon="8.59860000265">
		<tag k="name" v="Sæleikre" />
		<tag k="place" v="locality" />
		<tag k="ssr:stedsnr" v="161212" />
	</node>
	<node id="-155237" lat="61.1650333303" lon="8.82513333313">
		<tag k="name" v="Stormyr" />
		<tag k="natural" v="wetland" />
		<tag k="ssr:stedsnr" v="403267" />
	</node>
	<node id="-155236" lat="61.1699305516" lon="8.82321111902">
		<tag k="landuse" v="meadow" />
		<tag k="name" v="Bleikfet" />
		<tag k="ssr:stedsnr" v="403240" />
	</node>
	<node id="-155745" lat="61.2022861077" lon="8.51320000217">
		<tag k="landuse" v="meadow" />
		<tag k="name" v="Vølladn" />
		<tag k="ssr:stedsnr" v="160777" />
	</node>
	<node id="-155231" lat="61.2171472243" lon="8.63231943948">
		<tag k="name" v="Buhaugmyre" />
		<tag k="natural" v="wetland" />
		<tag k="ssr:stedsnr" v="403013" />
	</node>
	<node id="-156261" lat="61.1171277798" lon="8.66994721785">
		<tag k="name" v="Trøllermyre" />
		<tag k="natural" v="wetland" />
		<tag k="ssr:stedsnr" v="543856" />
	</node>
	<node id="-155739" lat="61.1189722205" lon="8.54463055793">
		<tag k="name" v="Kalsjordet" />
		<tag k="place" v="locality" />
		<tag k="ssr:stedsnr" v="160648" />
	</node>
	<node id="-156248" lat="61.1520305534" lon="8.81416389562">
		<tag k="name" v="Skjøssjorde" />
		<tag k="place" v="locality" />
		<tag k="ssr:stedsnr" v="543356" />
	</node>
	<node id="-155734" lat="61.1143583309" lon="8.5396388948">
		<tag k="historic" v="shieling" />
		<tag k="name" v="Lislestølen" />
		<tag k="place" v="locality" />
		<tag k="ssr:stedsnr" v="160618" />
	</node>
	<node id="-156244" lat="61.168666669" lon="8.32750277329">
		<tag k="historic" v="shieling" />
		<tag k="name" v="Nørdre Kjersteinsstøl" />
		<tag k="place" v="locality" />
		<tag k="ssr:stedsnr" v="543274" />
	</node>
	<node id="-155731" lat="61.2050527753" lon="8.39103334017">
		<tag k="name" v="Sauemyradn" />
		<tag k="natural" v="wetland" />
		<tag k="ssr:stedsnr" v="160442" />
	</node>
	<node id="-155730" lat="61.1930027819" lon="8.39450833916">
		<tag k="name" v="Skjervemarka" />
		<tag k="place" v="locality" />
		<tag k="ssr:stedsnr" v="160436" />
	</node>
	<node id="-155729" lat="61.0776833376" lon="8.67524999133">
		<tag k="name" v="Vea Syndinfjellet" />
		<tag k="place" v="locality" />
		<tag k="ssr:stedsnr" v="160764" />
	</node>
	<node id="-156238" lat="61.170061109" lon="8.86480000616">
		<tag k="name" v="Baklijorde" />
		<tag k="place" v="locality" />
		<tag k="ssr:stedsnr" v="539952" />
	</node>
	<node id="-155725" lat="61.2084444475" lon="8.36258611758">
		<tag k="name" v="Leinehaugen" />
		<tag k="place" v="locality" />
		<tag k="ssr:stedsnr" v="160368" />
	</node>
	<node id="-155719" lat="61.1643916675" lon="8.40253055014">
		<tag k="name" v="Markateigen" />
		<tag k="place" v="locality" />
		<tag k="ssr:stedsnr" v="160337" />
	</node>
	<node id="-156230" lat="61.1775777751" lon="8.67851388189">
		<tag k="historic" v="shieling" />
		<tag k="name" v="Katthamar" />
		<tag k="place" v="locality" />
		<tag k="ssr:stedsnr" v="525967" />
	</node>
	<node id="-155713" lat="61.1895472265" lon="8.73338054771">
		<tag k="historic" v="shieling" />
		<tag k="name" v="Haugastølen" />
		<tag k="place" v="locality" />
		<tag k="ssr:stedsnr" v="160039" />
	</node>
	<node id="-156736" lat="61.3782833317" lon="8.63778333667">
		<tag k="name" v="Kalvehøgdbreene" />
		<tag k="natural" v="glacier" />
		<tag k="ssr:stedsnr" v="735147" />
	</node>
	<node id="-156221" lat="61.1819500023" lon="8.67428055702">
		<tag k="historic" v="shieling" />
		<tag k="name" v="Torisstølen" />
		<tag k="place" v="locality" />
		<tag k="ssr:stedsnr" v="525123" />
	</node>
	<node id="-156220" lat="61.1910916678" lon="8.69643332501">
		<tag k="historic" v="shieling" />
		<tag k="name" v="Nørsvinsstølen" />
		<tag k="place" v="locality" />
		<tag k="ssr:stedsnr" v="525052" />
	</node>
	<node id="-156729" lat="61.16847778" lon="8.30552222351">
		<tag k="name" v="Grøne Kiladn" />
		<tag k="natural" v="wetland" />
		<tag k="ssr:stedsnr" v="726428" />
	</node>
	<node id="-157240" lat="61.080613887" lon="8.56982778525">
		<tag k="name" v="Skreddarmyradn" />
		<tag k="natural" v="wetland" />
		<tag k="ssr:stedsnr" v="968622" />
	</node>
	<node id="-156215" lat="61.1862388848" lon="8.53384445285">
		<tag k="name" v="Sandadn" />
		<tag k="natural" v="beach" />
		<tag k="ssr:stedsnr" v="524739" />
		<tag k="surface" v="sand" />
	</node>
	<node id="-155486" lat="61.1735638862" lon="8.3199861052">
		<tag k="name" v="Følastakkstøe" />
		<tag k="place" v="locality" />
		<tag k="ssr:stedsnr" v="58427" />
	</node>
	<node id="-156722" lat="61.1730500042" lon="8.35871389675">
		<tag k="name" v="Teigabøttadn" />
		<tag k="place" v="locality" />
		<tag k="ssr:stedsnr" v="726309" />
	</node>
	<node id="-157107" lat="61.1361527754" lon="8.68743611233">
		<tag k="historic" v="shieling" />
		<tag k="name" v="Gamlestølen" />
		<tag k="place" v="locality" />
		<tag k="ssr:stedsnr" v="907925" />
	</node>
	<node id="-157231" lat="61.1463805556" lon="8.80708889354">
		<tag k="name" v="Kråkemyre" />
		<tag k="natural" v="wetland" />
		<tag k="ssr:stedsnr" v="968338" />
	</node>
	<node id="-157230" lat="61.167983333" lon="8.34846389406">
		<tag k="landuse" v="meadow" />
		<tag k="name" v="Varpet" />
		<tag k="ssr:stedsnr" v="968292" />
	</node>
	<node id="-157229" lat="61.1695861084" lon="8.37436389356">
		<tag k="name" v="Sotstein" />
		<tag k="natural" v="stone" />
		<tag k="ssr:stedsnr" v="968287" />
	</node>
	<node id="-157228" lat="61.1684194421" lon="8.33099722882">
		<tag k="historic" v="shieling" />
		<tag k="name" v="Nye Brekkudn" />
		<tag k="place" v="locality" />
		<tag k="ssr:stedsnr" v="968285" />
	</node>
	<node id="-155179" lat="61.1557222261" lon="8.81594166415">
		<tag k="name" v="Dokken" />
		<tag k="place" v="locality" />
		<tag k="ssr:stedsnr" v="362403" />
	</node>
	<node id="-157226" lat="61.1710555545" lon="8.33123332778">
		<tag k="historic" v="shieling" />
		<tag k="name" v="Øvre Eltunsbøttadn" />
		<tag k="place" v="locality" />
		<tag k="ssr:stedsnr" v="968276" />
	</node>
	<node id="-157022" lat="61.1211249964" lon="8.57555278619">
		<tag k="name" v="Teigen" />
		<tag k="place" v="locality" />
		<tag k="ssr:stedsnr" v="848796" />
	</node>
	<node id="-156712" lat="61.1318111124" lon="8.71756945162">
		<tag k="name" v="Ålestein" />
		<tag k="natural" v="stone" />
		<tag k="ssr:stedsnr" v="725890" />
	</node>
	<node id="-156711" lat="61.1140527736" lon="8.69423889555">
		<tag k="name" v="Lagoformyre" />
		<tag k="natural" v="wetland" />
		<tag k="ssr:stedsnr" v="725884" />
	</node>
	<node id="-155172" lat="61.1083305548" lon="8.51720555914">
		<tag k="name" v="Krøssfønn" />
		<tag k="place" v="locality" />
		<tag k="ssr:stedsnr" v="361712" />
	</node>
	<node id="-156678" lat="61.180113891" lon="8.68056389302">
		<tag k="historic" v="shieling" />
		<tag k="name" v="Igdestølen" />
		<tag k="place" v="locality" />
		<tag k="ssr:stedsnr" v="707968" />
	</node>
	<node id="-156706" lat="61.2155888896" lon="8.37156944999">
		<tag k="historic" v="shieling" />
		<tag k="name" v="Breisete" />
		<tag k="place" v="locality" />
		<tag k="ssr:stedsnr" v="725404" />
	</node>
	<node id="-156705" lat="61.211797218" lon="8.31160555301">
		<tag k="name" v="Nedre Slain" />
		<tag k="place" v="locality" />
		<tag k="ssr:stedsnr" v="725400" />
	</node>
	<node id="-156704" lat="61.2128583296" lon="8.30012222794">
		<tag k="name" v="Øvre Slain" />
		<tag k="place" v="locality" />
		<tag k="ssr:stedsnr" v="725399" />
	</node>
	<node id="-155743" lat="61.1695916694" lon="8.53432776847">
		<tag k="landuse" v="meadow" />
		<tag k="name" v="Snørodøkke" />
		<tag k="ssr:stedsnr" v="160690" />
	</node>
	<node id="-156700" lat="61.1562749984" lon="8.3543083275">
		<tag k="historic" v="shieling" />
		<tag k="name" v="Galdreinsøyne" />
		<tag k="place" v="locality" />
		<tag k="ssr:stedsnr" v="725258" />
	</node>
	<node id="-155161" lat="61.2079361116" lon="8.30525000729">
		<tag k="name" v="Kyrkja" />
		<tag k="natural" v="stone" />
		<tag k="ssr:stedsnr" v="361375" />
	</node>
	<node id="-156695" lat="61.1594444486" lon="8.76232776878">
		<tag k="name" v="Alltingsvaet" />
		<tag k="place" v="locality" />
		<tag k="ssr:stedsnr" v="725169" />
	</node>
	<node id="-155157" lat="61.1581888874" lon="8.35880278536">
		<tag k="historic" v="shieling" />
		<tag k="name" v="Gamle Nigardsen" />
		<tag k="place" v="locality" />
		<tag k="ssr:stedsnr" v="361309" />
	</node>
	<node id="-155153" lat="61.1680694426" lon="8.33358056073">
		<tag k="historic" v="shieling" />
		<tag k="name" v="Sjegla" />
		<tag k="place" v="locality" />
		<tag k="ssr:stedsnr" v="361279" />
	</node>
	<node id="-156723" lat="61.2082222262" lon="8.31877500195">
		<tag k="name" v="Nedre Myre" />
		<tag k="natural" v="wetland" />
		<tag k="ssr:stedsnr" v="726369" />
	</node>
	<node id="-157190" lat="61.1885027776" lon="8.53103055412">
		<tag k="name" v="Løkenstein" />
		<tag k="natural" v="stone" />
		<tag k="ssr:stedsnr" v="949754" />
	</node>
	<node id="-155137" lat="61.1801055524" lon="8.13705555777">
		<tag k="historic" v="shieling" />
		<tag k="name" v="Øyestølen" />
		<tag k="place" v="locality" />
		<tag k="ssr:stedsnr" v="361146" />
	</node>
	<node id="-156676" lat="61.1946777822" lon="8.52259722719">
		<tag k="historic" v="shieling" />
		<tag k="name" v="Grøvstølen" />
		<tag k="place" v="locality" />
		<tag k="ssr:stedsnr" v="707817" />
	</node>
	<node id="-155139" lat="61.1517166683" lon="8.74884721637">
		<tag k="name" v="Dekko" />
		<tag k="place" v="locality" />
		<tag k="ssr:stedsnr" v="361173" />
	</node>
	<node id="-155650" lat="61.1795666698" lon="8.38234999158">
		<tag k="historic" v="shieling" />
		<tag k="name" v="Stordøkk" />
		<tag k="place" v="locality" />
		<tag k="ssr:stedsnr" v="119418" />
	</node>
	<node id="-157185" lat="61.1990583308" lon="8.38887499942">
		<tag k="historic" v="shieling" />
		<tag k="name" v="Øystølen" />
		<tag k="place" v="locality" />
		<tag k="ssr:stedsnr" v="949436" />
	</node>
</osm>
