<?xml version="1.0" encoding="UTF-8"?>
<osm version="0.6" generator="osmapis">
	<node id="94882468" lat="60.9955166" lon="8.9878577" version="5" timestamp="2022-04-02T15:04:02Z" changeset="119237685" uid="3497659" user="NKA">
		<tag k="name" v="Vaset" />
		<tag k="place" v="village" />
		<tag k="ssr:stedsnr" v="252057" />
	</node>
	<node id="285604967" lat="61.0872358" lon="8.8880942" version="3" timestamp="2022-01-31T06:16:31Z" changeset="116806593" uid="3497659" user="NKA">
		<tag k="junction" v="yes" />
		<tag k="name" v="Fjellstølkrysset" />
		<tag k="ssr:stedsnr" v="587428" />
	</node>
	<node id="285973670" lat="61.0332412" lon="9.0566533" version="5" timestamp="2022-04-02T15:04:02Z" changeset="119237685" uid="3497659" user="NKA">
		<tag k="name" v="Røn" />
		<tag k="place" v="village" />
		<tag k="population" v="260" />
		<tag k="population:date" v="2021-01-01" />
		<tag k="ref:ssb_tettsted" v="1721" />
		<tag k="source:population" v="SSB - befolkning i tettstedet" />
		<tag k="ssr:stedsnr" v="431845" />
	</node>
	<node id="393292987" lat="61.0879457" lon="8.9816042" version="7" timestamp="2022-04-02T15:04:02Z" changeset="119237685" uid="3497659" user="NKA">
		<tag k="name" v="Slidre" />
		<tag k="place" v="village" />
		<tag k="population" v="337" />
		<tag k="population:date" v="2021-01-01" />
		<tag k="ref:ssb_tettsted" v="1722" />
		<tag k="source:population" v="SSB - befolkning i tettstedet" />
		<tag k="ssr:stedsnr" v="698147" />
	</node>
	<node id="2397698084" lat="60.9784824" lon="8.8046531" version="2" timestamp="2022-04-02T15:04:02Z" changeset="119237685" uid="3497659" user="NKA">
		<tag k="alt_name" v="Gjeslangen" />
		<tag k="historic" v="shieling" />
		<tag k="name" v="Jaslangen" />
		<tag k="place" v="hamlet" />
		<tag k="ssr:stedsnr" v="191721" />
	</node>
	<node id="9631538060" lat="61.0050111" lon="9.0007277" version="1" timestamp="2022-04-02T15:04:02Z" changeset="119237685" uid="3497659" user="NKA">
		<tag k="historic" v="shieling" />
		<tag k="name" v="Nystøl" />
		<tag k="place" v="isolated_dwelling" />
		<tag k="ssr:stedsnr" v="464257" />
	</node>
	<node id="9631538061" lat="60.9185822" lon="8.8202622" version="1" timestamp="2022-04-02T15:04:02Z" changeset="119237685" uid="3497659" user="NKA">
		<tag k="historic" v="shieling" />
		<tag k="name" v="Tildheimstølen" />
		<tag k="place" v="isolated_dwelling" />
		<tag k="ssr:stedsnr" v="769757" />
	</node>
	<node id="9631538062" lat="61.07841" lon="8.994102" version="1" timestamp="2022-04-02T15:04:02Z" changeset="119237685" uid="3497659" user="NKA">
		<tag k="name" v="Einang" />
		<tag k="place" v="hamlet" />
		<tag k="ssr:stedsnr" v="553230" />
	</node>
	<node id="9631538063" lat="61.1081712" lon="8.9169841" version="1" timestamp="2022-04-02T15:04:02Z" changeset="119237685" uid="3497659" user="NKA">
		<tag k="name" v="Bakken" />
		<tag k="place" v="farm" />
		<tag k="ssr:stedsnr" v="128117" />
	</node>
	<node id="9631538064" lat="61.0412842" lon="9.0076742" version="1" timestamp="2022-04-02T15:04:02Z" changeset="119237685" uid="3497659" user="NKA">
		<tag k="name" v="Braka" />
		<tag k="place" v="hamlet" />
		<tag k="ssr:stedsnr" v="735796" />
	</node>
	<node id="9631538065" lat="61.0114166" lon="8.9369805" version="1" timestamp="2022-04-02T15:04:02Z" changeset="119237685" uid="3497659" user="NKA">
		<tag k="alt_name" v="Øyestøladn" />
		<tag k="historic" v="shieling" />
		<tag k="name" v="Øyestølen" />
		<tag k="place" v="isolated_dwelling" />
		<tag k="ssr:stedsnr" v="128774" />
	</node>
	<node id="9631538066" lat="60.9826851" lon="8.90379" version="1" timestamp="2022-04-02T15:04:02Z" changeset="119237685" uid="3497659" user="NKA">
		<tag k="historic" v="shieling" />
		<tag k="name" v="Magistadstølen" />
		<tag k="place" v="isolated_dwelling" />
		<tag k="ssr:stedsnr" v="41483" />
	</node>
	<node id="9631538067" lat="61.1250833" lon="8.9635056" version="1" timestamp="2022-04-02T15:04:02Z" changeset="119237685" uid="3497659" user="NKA">
		<tag k="alt_name" v="Thune" />
		<tag k="name" v="Tune" />
		<tag k="place" v="farm" />
		<tag k="ssr:stedsnr" v="492104" />
	</node>
	<node id="9631538068" lat="61.1627583" lon="8.8990639" version="1" timestamp="2022-04-02T15:04:02Z" changeset="119237685" uid="3497659" user="NKA">
		<tag k="historic" v="shieling" />
		<tag k="name" v="Eggestølane" />
		<tag k="place" v="isolated_dwelling" />
		<tag k="ssr:stedsnr" v="613045" />
	</node>
	<node id="9631538069" lat="61.1100123" lon="8.9569871" version="1" timestamp="2022-04-02T15:04:02Z" changeset="119237685" uid="3497659" user="NKA">
		<tag k="alt_name" v="Haugo, nordre;Haugadn;Haugene" />
		<tag k="name" v="Nørdre Haugo" />
		<tag k="place" v="farm" />
		<tag k="ssr:stedsnr" v="674147" />
	</node>
	<node id="9631538070" lat="61.1127861" lon="8.8121444" version="1" timestamp="2022-04-02T15:04:02Z" changeset="119237685" uid="3497659" user="NKA">
		<tag k="name" v="Bakkestølen" />
		<tag k="place" v="isolated_dwelling" />
		<tag k="ssr:stedsnr" v="492343" />
	</node>
	<node id="9631538071" lat="60.9840667" lon="8.9171584" version="1" timestamp="2022-04-02T15:04:02Z" changeset="119237685" uid="3497659" user="NKA">
		<tag k="historic" v="shieling" />
		<tag k="name" v="Sørengstølen" />
		<tag k="place" v="isolated_dwelling" />
		<tag k="ssr:stedsnr" v="102560" />
	</node>
	<node id="9631538072" lat="61.1212844" lon="8.892655" version="1" timestamp="2022-04-02T15:04:02Z" changeset="119237685" uid="3497659" user="NKA">
		<tag k="name" v="Haugen" />
		<tag k="place" v="farm" />
		<tag k="ssr:stedsnr" v="371118" />
	</node>
	<node id="9631538073" lat="61.091326" lon="9.0058974" version="1" timestamp="2022-04-02T15:04:02Z" changeset="119237685" uid="3497659" user="NKA">
		<tag k="alt_name" v="Brøtin" />
		<tag k="name" v="Bråten" />
		<tag k="place" v="farm" />
		<tag k="ssr:stedsnr" v="6209" />
	</node>
	<node id="9631538074" lat="61.0178961" lon="9.0633325" version="1" timestamp="2022-04-02T15:04:02Z" changeset="119237685" uid="3497659" user="NKA">
		<tag k="name" v="Haugen" />
		<tag k="place" v="farm" />
		<tag k="ssr:stedsnr" v="524817" />
	</node>
	<node id="9631538075" lat="61.0226084" lon="8.929686" version="1" timestamp="2022-04-02T15:04:02Z" changeset="119237685" uid="3497659" user="NKA">
		<tag k="historic" v="shieling" />
		<tag k="name" v="Haraldset" />
		<tag k="place" v="isolated_dwelling" />
		<tag k="ssr:stedsnr" v="917777" />
	</node>
	<node id="9631538076" lat="61.0047091" lon="8.9209613" version="1" timestamp="2022-04-02T15:04:02Z" changeset="119237685" uid="3497659" user="NKA">
		<tag k="historic" v="shieling" />
		<tag k="name" v="Sælistølen" />
		<tag k="place" v="isolated_dwelling" />
		<tag k="ssr:stedsnr" v="830465" />
	</node>
	<node id="9631538077" lat="61.1032872" lon="8.9199539" version="1" timestamp="2022-04-02T15:04:02Z" changeset="119237685" uid="3497659" user="NKA">
		<tag k="name" v="Fredheim" />
		<tag k="place" v="isolated_dwelling" />
		<tag k="ssr:stedsnr" v="344419" />
	</node>
	<node id="9631538078" lat="61.044073" lon="9.0714095" version="1" timestamp="2022-04-02T15:04:02Z" changeset="119237685" uid="3497659" user="NKA">
		<tag k="name" v="Fystro" />
		<tag k="place" v="farm" />
		<tag k="ssr:stedsnr" v="674796" />
	</node>
	<node id="9631538079" lat="61.116075" lon="8.8143168" version="1" timestamp="2022-04-02T15:04:02Z" changeset="119237685" uid="3497659" user="NKA">
		<tag k="alt_name" v="Høymisstøl" />
		<tag k="historic" v="shieling" />
		<tag k="name" v="Høymestølane" />
		<tag k="place" v="isolated_dwelling" />
		<tag k="ssr:stedsnr" v="856406" />
	</node>
	<node id="9631538080" lat="61.0887319" lon="8.9544163" version="1" timestamp="2022-04-02T15:04:02Z" changeset="119237685" uid="3497659" user="NKA">
		<tag k="name" v="Skoland" />
		<tag k="place" v="isolated_dwelling" />
		<tag k="ssr:stedsnr" v="223428" />
	</node>
	<node id="9631538081" lat="61.1403361" lon="8.934086" version="1" timestamp="2022-04-02T15:04:02Z" changeset="119237685" uid="3497659" user="NKA">
		<tag k="historic" v="shieling" />
		<tag k="name" v="Haugsstølen" />
		<tag k="place" v="isolated_dwelling" />
		<tag k="ssr:stedsnr" v="735091" />
	</node>
	<node id="9631538082" lat="61.0068527" lon="8.9118806" version="1" timestamp="2022-04-02T15:04:02Z" changeset="119237685" uid="3497659" user="NKA">
		<tag k="alt_name" v="Murkelie" />
		<tag k="name" v="Murkelii" />
		<tag k="place" v="hamlet" />
		<tag k="ssr:stedsnr" v="371775" />
	</node>
	<node id="9631538083" lat="61.1743139" lon="8.8772194" version="1" timestamp="2022-04-02T15:04:02Z" changeset="119237685" uid="3497659" user="NKA">
		<tag k="historic" v="shieling" />
		<tag k="name" v="Einebu" />
		<tag k="place" v="isolated_dwelling" />
		<tag k="ssr:stedsnr" v="67043" />
	</node>
	<node id="9631538084" lat="61.1340237" lon="8.8657405" version="1" timestamp="2022-04-02T15:04:02Z" changeset="119237685" uid="3497659" user="NKA">
		<tag k="name" v="Moen" />
		<tag k="place" v="farm" />
		<tag k="ssr:stedsnr" v="431122" />
	</node>
	<node id="9631538085" lat="61.0603278" lon="8.8833111" version="1" timestamp="2022-04-02T15:04:02Z" changeset="119237685" uid="3497659" user="NKA">
		<tag k="historic" v="shieling" />
		<tag k="name" v="Preststølen" />
		<tag k="place" v="isolated_dwelling" />
		<tag k="ssr:stedsnr" v="613840" />
	</node>
	<node id="9631538086" lat="61.10595" lon="8.97115" version="1" timestamp="2022-04-02T15:04:02Z" changeset="119237685" uid="3497659" user="NKA">
		<tag k="name" v="Hakkestad" />
		<tag k="place" v="farm" />
		<tag k="ssr:stedsnr" v="128153" />
	</node>
	<node id="9631538087" lat="61.0560311" lon="8.9912333" version="1" timestamp="2022-04-02T15:04:02Z" changeset="119237685" uid="3497659" user="NKA">
		<tag k="name" v="Mosbråten" />
		<tag k="place" v="farm" />
		<tag k="ssr:stedsnr" v="370848" />
	</node>
	<node id="9631538088" lat="61.107575" lon="8.877664" version="1" timestamp="2022-04-02T15:04:02Z" changeset="119237685" uid="3497659" user="NKA">
		<tag k="historic" v="shieling" />
		<tag k="name" v="Lykkjestølen" />
		<tag k="place" v="isolated_dwelling" />
		<tag k="ssr:stedsnr" v="189136" />
	</node>
	<node id="9631538089" lat="61.060095" lon="8.7484203" version="1" timestamp="2022-04-02T15:04:02Z" changeset="119237685" uid="3497659" user="NKA">
		<tag k="alt_name" v="Ristestølen" />
		<tag k="historic" v="shieling" />
		<tag k="name" v="Ristegili" />
		<tag k="place" v="hamlet" />
		<tag k="ssr:stedsnr" v="432354" />
	</node>
	<node id="9631538090" lat="61.1097876" lon="8.9223659" version="1" timestamp="2022-04-02T15:04:02Z" changeset="119237685" uid="3497659" user="NKA">
		<tag k="name" v="Jome" />
		<tag k="place" v="hamlet" />
		<tag k="ssr:stedsnr" v="128115" />
	</node>
	<node id="9631538091" lat="60.9470695" lon="8.7757055" version="1" timestamp="2022-04-02T15:04:02Z" changeset="119237685" uid="3497659" user="NKA">
		<tag k="historic" v="shieling" />
		<tag k="name" v="Semelengstølen" />
		<tag k="place" v="isolated_dwelling" />
		<tag k="ssr:stedsnr" v="769745" />
	</node>
	<node id="9631538092" lat="61.0246984" lon="9.0493189" version="1" timestamp="2022-04-02T15:04:02Z" changeset="119237685" uid="3497659" user="NKA">
		<tag k="alt_name" v="Sørengen" />
		<tag k="name" v="Sørengi" />
		<tag k="place" v="farm" />
		<tag k="ssr:stedsnr" v="856795" />
	</node>
	<node id="9631538093" lat="61.1521805" lon="9.0001" version="1" timestamp="2022-04-02T15:04:02Z" changeset="119237685" uid="3497659" user="NKA">
		<tag k="name" v="Kvålsage" />
		<tag k="place" v="locality" />
		<tag k="ssr:stedsnr" v="418166" />
	</node>
	<node id="9631538094" lat="61.0683719" lon="8.777288" version="1" timestamp="2022-04-02T15:04:02Z" changeset="119237685" uid="3497659" user="NKA">
		<tag k="historic" v="shieling" />
		<tag k="name" v="Lostøl" />
		<tag k="place" v="isolated_dwelling" />
		<tag k="ssr:stedsnr" v="525356" />
	</node>
	<node id="9631538095" lat="61.1054459" lon="8.9618262" version="1" timestamp="2022-04-02T15:04:02Z" changeset="119237685" uid="3497659" user="NKA">
		<tag k="alt_name" v="Hausåker, nordre" />
		<tag k="name" v="Nørdre Hausåker" />
		<tag k="place" v="farm" />
		<tag k="ssr:stedsnr" v="310172" />
	</node>
	<node id="9631538096" lat="61.1290429" lon="8.9410992" version="1" timestamp="2022-04-02T15:04:02Z" changeset="119237685" uid="3497659" user="NKA">
		<tag k="name" v="Midtre Løkje" />
		<tag k="place" v="farm" />
		<tag k="ssr:stedsnr" v="707110" />
	</node>
	<node id="9631538097" lat="60.9703527" lon="8.7759638" version="1" timestamp="2022-04-02T15:04:02Z" changeset="119237685" uid="3497659" user="NKA">
		<tag k="historic" v="shieling" />
		<tag k="name" v="Halvorstølen" />
		<tag k="place" v="isolated_dwelling" />
		<tag k="ssr:stedsnr" v="858791" />
	</node>
	<node id="9631538098" lat="61.0456611" lon="8.8766639" version="1" timestamp="2022-04-02T15:04:02Z" changeset="119237685" uid="3497659" user="NKA">
		<tag k="historic" v="shieling" />
		<tag k="name" v="Liastølen" />
		<tag k="place" v="isolated_dwelling" />
		<tag k="ssr:stedsnr" v="128810" />
	</node>
	<node id="9631538099" lat="61.1129161" lon="8.9648792" version="1" timestamp="2022-04-02T15:04:02Z" changeset="119237685" uid="3497659" user="NKA">
		<tag k="name" v="Øygarden" />
		<tag k="place" v="farm" />
		<tag k="ssr:stedsnr" v="796143" />
	</node>
	<node id="9631538100" lat="61.0896389" lon="8.9172444" version="1" timestamp="2022-04-02T15:04:02Z" changeset="119237685" uid="3497659" user="NKA">
		<tag k="historic" v="shieling" />
		<tag k="name" v="Hagastølen" />
		<tag k="place" v="isolated_dwelling" />
		<tag k="ssr:stedsnr" v="492163" />
	</node>
	<node id="9631538101" lat="61.0257083" lon="8.9332222" version="1" timestamp="2022-04-02T15:04:02Z" changeset="119237685" uid="3497659" user="NKA">
		<tag k="historic" v="shieling" />
		<tag k="name" v="Semelengstølen" />
		<tag k="place" v="isolated_dwelling" />
		<tag k="ssr:stedsnr" v="189761" />
	</node>
	<node id="9631538102" lat="61.0669061" lon="8.9791523" version="1" timestamp="2022-04-02T15:04:02Z" changeset="119237685" uid="3497659" user="NKA">
		<tag k="name" v="Haugland" />
		<tag k="place" v="farm" />
		<tag k="ssr:stedsnr" v="830949" />
	</node>
	<node id="9631538103" lat="61.02894" lon="8.8846228" version="1" timestamp="2022-04-02T15:04:02Z" changeset="119237685" uid="3497659" user="NKA">
		<tag k="historic" v="shieling" />
		<tag k="name" v="Solvollstølen" />
		<tag k="place" v="isolated_dwelling" />
		<tag k="ssr:stedsnr" v="647446" />
	</node>
	<node id="9631538104" lat="61.1148815" lon="8.9268453" version="1" timestamp="2022-04-02T15:04:02Z" changeset="119237685" uid="3497659" user="NKA">
		<tag k="name" v="Haugrud" />
		<tag k="place" v="farm" />
		<tag k="ssr:stedsnr" v="830373" />
	</node>
	<node id="9631538105" lat="61.113359" lon="8.9391832" version="1" timestamp="2022-04-02T15:04:02Z" changeset="119237685" uid="3497659" user="NKA">
		<tag k="name" v="Steinsrud" />
		<tag k="place" v="farm" />
		<tag k="ssr:stedsnr" v="735134" />
	</node>
	<node id="9631538106" lat="60.994866" lon="8.9470316" version="1" timestamp="2022-04-02T15:04:02Z" changeset="119237685" uid="3497659" user="NKA">
		<tag k="historic" v="shieling" />
		<tag k="name" v="Ringsrudstølen" />
		<tag k="place" v="isolated_dwelling" />
		<tag k="ssr:stedsnr" v="223492" />
	</node>
	<node id="9631538107" lat="61.1279325" lon="8.9494565" version="1" timestamp="2022-04-02T15:04:02Z" changeset="119237685" uid="3497659" user="NKA">
		<tag k="alt_name" v="Ørmestadmarke" />
		<tag k="name" v="Marki" />
		<tag k="place" v="farm" />
		<tag k="ssr:stedsnr" v="249107" />
	</node>
	<node id="9631538108" lat="61.0324305" lon="9.0586061" version="1" timestamp="2022-04-02T15:04:02Z" changeset="119237685" uid="3497659" user="NKA">
		<tag k="name" v="Storhaug" />
		<tag k="place" v="farm" />
		<tag k="ssr:stedsnr" v="102831" />
	</node>
	<node id="9631538109" lat="61.073701" lon="9.0300935" version="1" timestamp="2022-04-02T15:04:02Z" changeset="119237685" uid="3497659" user="NKA">
		<tag k="name" v="Ringerud" />
		<tag k="place" v="farm" />
		<tag k="ssr:stedsnr" v="917198" />
	</node>
	<node id="9631538110" lat="61.0035722" lon="9.0108765" version="1" timestamp="2022-04-02T15:04:02Z" changeset="119237685" uid="3497659" user="NKA">
		<tag k="name" v="Snorrebu" />
		<tag k="old_name" v="Knutbakken" />
		<tag k="place" v="farm" />
		<tag k="ssr:stedsnr" v="1083324" />
	</node>
	<node id="9631538111" lat="61.0933272" lon="8.982148" version="1" timestamp="2022-04-02T15:04:02Z" changeset="119237685" uid="3497659" user="NKA">
		<tag k="name" v="Søre Fulkji" />
		<tag k="place" v="farm" />
		<tag k="ssr:stedsnr" v="830993" />
	</node>
	<node id="9631538112" lat="61.0591617" lon="8.7464103" version="1" timestamp="2022-04-02T15:04:02Z" changeset="119237685" uid="3497659" user="NKA">
		<tag k="historic" v="shieling" />
		<tag k="name" v="Lomurstølen" />
		<tag k="place" v="isolated_dwelling" />
		<tag k="ssr:stedsnr" v="889343" />
	</node>
	<node id="9631538113" lat="61.0512305" lon="8.8982389" version="1" timestamp="2022-04-02T15:04:02Z" changeset="119237685" uid="3497659" user="NKA">
		<tag k="name" v="Lehovd" />
		<tag k="place" v="hamlet" />
		<tag k="ssr:stedsnr" v="67835" />
	</node>
	<node id="9631538114" lat="61.1039302" lon="8.9636872" version="1" timestamp="2022-04-02T15:04:02Z" changeset="119237685" uid="3497659" user="NKA">
		<tag k="alt_name" v="Hausåker, søre" />
		<tag k="name" v="Søre Hausåker" />
		<tag k="place" v="farm" />
		<tag k="ssr:stedsnr" v="735184" />
	</node>
	<node id="9631538115" lat="61.0770611" lon="8.7293111" version="1" timestamp="2022-04-02T15:04:02Z" changeset="119237685" uid="3497659" user="NKA">
		<tag k="name" v="Pyttingen" />
		<tag k="place" v="hamlet" />
		<tag k="ssr:stedsnr" v="249409" />
	</node>
	<node id="9631538116" lat="61.0300084" lon="8.7576194" version="1" timestamp="2022-04-02T15:04:02Z" changeset="119237685" uid="3497659" user="NKA">
		<tag k="alt_name" v="Nosastølen" />
		<tag k="name" v="Nørdre Nøsen" />
		<tag k="place" v="hamlet" />
		<tag k="ssr:stedsnr" v="674406" />
	</node>
	<node id="9631539617" lat="61.0687288" lon="9.0136224" version="1" timestamp="2022-04-02T15:04:02Z" changeset="119237685" uid="3497659" user="NKA">
		<tag k="name" v="Nørdre Hande" />
		<tag k="place" v="farm" />
		<tag k="ssr:stedsnr" v="891972" />
	</node>
	<node id="9631539618" lat="61.0887373" lon="8.8544328" version="1" timestamp="2022-04-02T15:04:02Z" changeset="119237685" uid="3497659" user="NKA">
		<tag k="historic" v="shieling" />
		<tag k="name" v="Fjellstølane" />
		<tag k="place" v="isolated_dwelling" />
		<tag k="ssr:stedsnr" v="432187" />
	</node>
	<node id="9631539619" lat="61.049" lon="8.9855445" version="1" timestamp="2022-04-02T15:04:02Z" changeset="119237685" uid="3497659" user="NKA">
		<tag k="name" v="Lyngstad" />
		<tag k="place" v="farm" />
		<tag k="ssr:stedsnr" v="917831" />
	</node>
	<node id="9631539620" lat="61.0863861" lon="8.9910056" version="1" timestamp="2022-04-02T15:04:02Z" changeset="119237685" uid="3497659" user="NKA">
		<tag k="alt_name" v="Tvenge, øvre;Øvre Plassen" />
		<tag k="name" v="Øvre Tvenge" />
		<tag k="place" v="farm" />
		<tag k="ssr:stedsnr" v="674202" />
	</node>
	<node id="9631539621" lat="60.8972806" lon="8.8731667" version="1" timestamp="2022-04-02T15:04:02Z" changeset="119237685" uid="3497659" user="NKA">
		<tag k="historic" v="shieling" />
		<tag k="name" v="Kvålestølen" />
		<tag k="place" v="isolated_dwelling" />
		<tag k="ssr:stedsnr" v="494401" />
	</node>
	<node id="9631539622" lat="61.1080056" lon="8.997789" version="1" timestamp="2022-04-02T15:04:02Z" changeset="119237685" uid="3497659" user="NKA">
		<tag k="alt_name" v="Slidrestøladn" />
		<tag k="historic" v="shieling" />
		<tag k="name" v="Slidrestølen" />
		<tag k="place" v="isolated_dwelling" />
		<tag k="ssr:stedsnr" v="189146" />
	</node>
	<node id="9631539623" lat="61.0729751" lon="8.7618566" version="1" timestamp="2022-04-02T15:04:02Z" changeset="119237685" uid="3497659" user="NKA">
		<tag k="historic" v="shieling" />
		<tag k="name" v="Høymestølen" />
		<tag k="place" v="isolated_dwelling" />
		<tag k="ssr:stedsnr" v="735394" />
	</node>
	<node id="9631539624" lat="61.0285452" lon="8.7573883" version="1" timestamp="2022-04-02T15:04:02Z" changeset="119237685" uid="3497659" user="NKA">
		<tag k="alt_name" v="Ringestadstølen" />
		<tag k="historic" v="shieling" />
		<tag k="name" v="Rengistadstølen" />
		<tag k="place" v="isolated_dwelling" />
		<tag k="ssr:stedsnr" v="476057" />
	</node>
	<node id="9631539625" lat="60.9677639" lon="8.9269535" version="1" timestamp="2022-04-02T15:04:02Z" changeset="119237685" uid="3497659" user="NKA">
		<tag k="historic" v="shieling" />
		<tag k="name" v="Raundokkstølen" />
		<tag k="place" v="isolated_dwelling" />
		<tag k="ssr:stedsnr" v="39430" />
	</node>
	<node id="9631539626" lat="60.9991321" lon="8.9418034" version="1" timestamp="2022-04-02T15:04:02Z" changeset="119237685" uid="3497659" user="NKA">
		<tag k="historic" v="shieling" />
		<tag k="name" v="Svingastølen" />
		<tag k="place" v="isolated_dwelling" />
		<tag k="ssr:stedsnr" v="41471" />
	</node>
	<node id="9631539627" lat="61.152515" lon="8.8730134" version="1" timestamp="2022-04-02T15:04:02Z" changeset="119237685" uid="3497659" user="NKA">
		<tag k="historic" v="shieling" />
		<tag k="name" v="Ellestadstølen" />
		<tag k="place" v="isolated_dwelling" />
		<tag k="ssr:stedsnr" v="68070" />
	</node>
	<node id="9631539628" lat="61.150775" lon="8.8857083" version="1" timestamp="2022-04-02T15:04:02Z" changeset="119237685" uid="3497659" user="NKA">
		<tag k="alt_name" v="Rødvangstøl" />
		<tag k="historic" v="shieling" />
		<tag k="name" v="Rødvangstølen" />
		<tag k="place" v="isolated_dwelling" />
		<tag k="ssr:stedsnr" v="674085" />
	</node>
	<node id="9631539629" lat="61.0566619" lon="9.0145286" version="1" timestamp="2022-04-02T15:04:02Z" changeset="119237685" uid="3497659" user="NKA">
		<tag k="alt_name" v="Viken" />
		<tag k="name" v="Viki" />
		<tag k="place" v="farm" />
		<tag k="ssr:stedsnr" v="492832" />
	</node>
	<node id="9631539630" lat="61.1436997" lon="8.9791425" version="1" timestamp="2022-04-02T15:04:02Z" changeset="119237685" uid="3497659" user="NKA">
		<tag k="alt_name" v="Øvre Bjerset" />
		<tag k="name" v="Bjerset" />
		<tag k="place" v="locality" />
		<tag k="ssr:stedsnr" v="128058" />
	</node>
	<node id="9631539631" lat="60.9347583" lon="8.6728083" version="1" timestamp="2022-04-02T15:04:02Z" changeset="119237685" uid="3497659" user="NKA">
		<tag k="name" v="Bjørneslettstølen" />
		<tag k="place" v="locality" />
		<tag k="ssr:stedsnr" v="615859" />
	</node>
	<node id="9631539632" lat="61.1330319" lon="8.9245225" version="1" timestamp="2022-04-02T15:04:02Z" changeset="119237685" uid="3497659" user="NKA">
		<tag k="name" v="Lome" />
		<tag k="place" v="hamlet" />
		<tag k="ssr:stedsnr" v="67122" />
	</node>
	<node id="9631539633" lat="61.132238" lon="8.9323305" version="1" timestamp="2022-04-02T15:04:02Z" changeset="119237685" uid="3497659" user="NKA">
		<tag k="alt_name" v="Hauge, nedre" />
		<tag k="name" v="Nedre Hauge" />
		<tag k="place" v="farm" />
		<tag k="ssr:stedsnr" v="6108" />
	</node>
	<node id="9631539634" lat="61.0673611" lon="8.9011833" version="1" timestamp="2022-04-02T15:04:02Z" changeset="119237685" uid="3497659" user="NKA">
		<tag k="historic" v="shieling" />
		<tag k="name" v="Grokinn" />
		<tag k="place" v="hamlet" />
		<tag k="ssr:stedsnr" v="917871" />
	</node>
	<node id="9631539635" lat="61.0619387" lon="8.742201" version="1" timestamp="2022-04-02T15:04:02Z" changeset="119237685" uid="3497659" user="NKA">
		<tag k="historic" v="shieling" />
		<tag k="name" v="Forohaugstølen" />
		<tag k="place" v="isolated_dwelling" />
		<tag k="ssr:stedsnr" v="990991" />
	</node>
	<node id="9631539636" lat="61.1023222" lon="8.9245444" version="1" timestamp="2022-04-02T15:04:02Z" changeset="119237685" uid="3497659" user="NKA">
		<tag k="name" v="Skogstad" />
		<tag k="place" v="farm" />
		<tag k="ssr:stedsnr" v="735152" />
	</node>
	<node id="9631539637" lat="61.0873771" lon="8.9855252" version="1" timestamp="2022-04-02T15:04:02Z" changeset="119237685" uid="3497659" user="NKA">
		<tag k="name" v="Skogen" />
		<tag k="place" v="isolated_dwelling" />
		<tag k="ssr:stedsnr" v="223968" />
	</node>
	<node id="9631539638" lat="60.9971776" lon="8.9466712" version="1" timestamp="2022-04-02T15:04:02Z" changeset="119237685" uid="3497659" user="NKA">
		<tag k="alt_name" v="Røvshalin;Revsalin" />
		<tag k="historic" v="shieling" />
		<tag k="name" v="Revshalen" />
		<tag k="place" v="isolated_dwelling" />
		<tag k="ssr:stedsnr" v="373051" />
	</node>
	<node id="9631539639" lat="61.1210529" lon="8.8683665" version="1" timestamp="2022-04-02T15:04:02Z" changeset="119237685" uid="3497659" user="NKA">
		<tag k="alt_name" v="Øvre Kvisl;Kvisl, øvre;Kvissel;Kvisl søndre" />
		<tag k="name" v="Søre Kvisl" />
		<tag k="old_name" v="Kvistøl, øvre" />
		<tag k="place" v="farm" />
		<tag k="ssr:stedsnr" v="856114" />
	</node>
	<node id="9631539640" lat="61.1238445" lon="8.9586417" version="1" timestamp="2022-04-02T15:04:02Z" changeset="119237685" uid="3497659" user="NKA">
		<tag k="name" v="Jordet" />
		<tag k="place" v="farm" />
		<tag k="ssr:stedsnr" v="856137" />
	</node>
	<node id="9631539641" lat="61.0654722" lon="8.9579056" version="1" timestamp="2022-04-02T15:04:02Z" changeset="119237685" uid="3497659" user="NKA">
		<tag k="historic" v="shieling" />
		<tag k="name" v="Egge" />
		<tag k="place" v="isolated_dwelling" />
		<tag k="ssr:stedsnr" v="647432" />
	</node>
	<node id="9631539642" lat="61.108025" lon="8.9600749" version="1" timestamp="2022-04-02T15:04:02Z" changeset="119237685" uid="3497659" user="NKA">
		<tag k="alt_name" v="Haugo, søre;Hjellehaugen" />
		<tag k="name" v="Søre Haugo" />
		<tag k="place" v="farm" />
		<tag k="ssr:stedsnr" v="735136" />
	</node>
	<node id="9631539643" lat="61.097769" lon="8.9861372" version="1" timestamp="2022-04-02T15:04:02Z" changeset="119237685" uid="3497659" user="NKA">
		<tag k="alt_name" v="Skori, søre;Søre Skøre" />
		<tag k="name" v="Søre Skori" />
		<tag k="place" v="farm" />
		<tag k="ssr:stedsnr" v="67207" />
	</node>
	<node id="9631539644" lat="61.0182991" lon="9.0893265" version="1" timestamp="2022-04-02T15:04:02Z" changeset="119237685" uid="3497659" user="NKA">
		<tag k="name" v="Bergsgård" />
		<tag k="place" v="farm" />
		<tag k="ssr:stedsnr" v="524815" />
	</node>
	<node id="9631539645" lat="61.1294274" lon="8.8011101" version="1" timestamp="2022-04-02T15:04:02Z" changeset="119237685" uid="3497659" user="NKA">
		<tag k="name" v="Åstad" />
		<tag k="place" v="farm" />
		<tag k="ssr:stedsnr" v="250342" />
	</node>
	<node id="9631539646" lat="61.0559278" lon="8.8436" version="1" timestamp="2022-04-02T15:04:02Z" changeset="119237685" uid="3497659" user="NKA">
		<tag k="historic" v="shieling" />
		<tag k="name" v="Haugsstølen" />
		<tag k="place" v="isolated_dwelling" />
		<tag k="ssr:stedsnr" v="492837" />
	</node>
	<node id="9631539647" lat="60.934475" lon="8.7357889" version="1" timestamp="2022-04-02T15:04:02Z" changeset="119237685" uid="3497659" user="NKA">
		<tag k="historic" v="shieling" />
		<tag k="name" v="Raudbekkstølen" />
		<tag k="place" v="isolated_dwelling" />
		<tag k="ssr:stedsnr" v="858876" />
	</node>
	<node id="9631539648" lat="61.04945" lon="9.0171139" version="1" timestamp="2022-04-02T15:04:02Z" changeset="119237685" uid="3497659" user="NKA">
		<tag k="name" v="Steinsrud" />
		<tag k="place" v="farm" />
		<tag k="ssr:stedsnr" v="552846" />
	</node>
	<node id="9631539649" lat="61.0316331" lon="9.0436353" version="1" timestamp="2022-04-02T15:04:02Z" changeset="119237685" uid="3497659" user="NKA">
		<tag k="name" v="Tølshaug" />
		<tag k="place" v="farm" />
		<tag k="ssr:stedsnr" v="284852" />
	</node>
	<node id="9631539650" lat="61.061771" lon="9.0299523" version="1" timestamp="2022-04-02T15:04:02Z" changeset="119237685" uid="3497659" user="NKA">
		<tag k="name" v="Reitun" />
		<tag k="place" v="farm" />
		<tag k="ssr:stedsnr" v="951964" />
	</node>
	<node id="9631539651" lat="60.9446032" lon="8.8018955" version="1" timestamp="2022-04-02T15:04:02Z" changeset="119237685" uid="3497659" user="NKA">
		<tag k="historic" v="shieling" />
		<tag k="name" v="Ulvenstølen" />
		<tag k="place" v="isolated_dwelling" />
		<tag k="ssr:stedsnr" v="708755" />
	</node>
	<node id="9631539652" lat="61.0757611" lon="8.9693647" version="1" timestamp="2022-04-02T15:04:02Z" changeset="119237685" uid="3497659" user="NKA">
		<tag k="name" v="Varnes" />
		<tag k="place" v="locality" />
		<tag k="ssr:stedsnr" v="708414" />
	</node>
	<node id="9631539653" lat="61.0307361" lon="9.0676304" version="1" timestamp="2022-04-02T15:04:02Z" changeset="119237685" uid="3497659" user="NKA">
		<tag k="name" v="Fjordheim" />
		<tag k="place" v="farm" />
		<tag k="ssr:stedsnr" v="767817" />
	</node>
	<node id="9631539654" lat="61.0260835" lon="8.8683194" version="1" timestamp="2022-04-02T15:04:02Z" changeset="119237685" uid="3497659" user="NKA">
		<tag k="historic" v="shieling" />
		<tag k="name" v="Trønastølen" />
		<tag k="place" v="isolated_dwelling" />
		<tag k="ssr:stedsnr" v="526419" />
	</node>
	<node id="9631539655" lat="61.0804912" lon="9.002075" version="1" timestamp="2022-04-02T15:04:02Z" changeset="119237685" uid="3497659" user="NKA">
		<tag k="name" v="Rødningen" />
		<tag k="place" v="farm" />
		<tag k="ssr:stedsnr" v="162967" />
	</node>
	<node id="9631539656" lat="60.984104" lon="8.9496752" version="1" timestamp="2022-04-02T15:04:02Z" changeset="119237685" uid="3497659" user="NKA">
		<tag k="historic" v="shieling" />
		<tag k="name" v="Snortheimstølen" />
		<tag k="place" v="isolated_dwelling" />
		<tag k="ssr:stedsnr" v="769495" />
	</node>
	<node id="9631539657" lat="60.9555971" lon="8.8902571" version="1" timestamp="2022-04-02T15:04:02Z" changeset="119237685" uid="3497659" user="NKA">
		<tag k="historic" v="shieling" />
		<tag k="name" v="Øygardstølen" />
		<tag k="place" v="isolated_dwelling" />
		<tag k="ssr:stedsnr" v="951262" />
	</node>
	<node id="9631539658" lat="60.9661313" lon="8.9127013" version="1" timestamp="2022-04-02T15:04:02Z" changeset="119237685" uid="3497659" user="NKA">
		<tag k="historic" v="shieling" />
		<tag k="name" v="Fauskestølen" />
		<tag k="place" v="isolated_dwelling" />
		<tag k="ssr:stedsnr" v="466515" />
	</node>
	<node id="9631539659" lat="61.0125667" lon="8.9420639" version="1" timestamp="2022-04-02T15:04:02Z" changeset="119237685" uid="3497659" user="NKA">
		<tag k="historic" v="shieling" />
		<tag k="name" v="Ulset" />
		<tag k="place" v="isolated_dwelling" />
		<tag k="ssr:stedsnr" v="7768" />
	</node>
	<node id="9631539660" lat="60.9173417" lon="8.8881722" version="1" timestamp="2022-04-02T15:04:02Z" changeset="119237685" uid="3497659" user="NKA">
		<tag k="alt_name" v="Flyin" />
		<tag k="historic" v="shieling" />
		<tag k="name" v="Flyi" />
		<tag k="place" v="hamlet" />
		<tag k="ssr:stedsnr" v="191352" />
	</node>
	<node id="9631539661" lat="61.0476761" lon="9.0010663" version="1" timestamp="2022-04-02T15:04:02Z" changeset="119237685" uid="3497659" user="NKA">
		<tag k="name" v="Dokken" />
		<tag k="place" v="farm" />
		<tag k="ssr:stedsnr" v="830892" />
	</node>
	<node id="9631539662" lat="61.1200499" lon="8.9050281" version="1" timestamp="2022-04-02T15:04:02Z" changeset="119237685" uid="3497659" user="NKA">
		<tag k="alt_name" v="Garvik" />
		<tag k="name" v="Gardvik" />
		<tag k="place" v="hamlet" />
		<tag k="ssr:stedsnr" v="613124" />
	</node>
	<node id="9631539663" lat="61.0247633" lon="9.052294" version="1" timestamp="2022-04-02T15:04:02Z" changeset="119237685" uid="3497659" user="NKA">
		<tag k="name" v="Svingen" />
		<tag k="place" v="farm" />
		<tag k="ssr:stedsnr" v="769809" />
	</node>
	<node id="9631539664" lat="61.1338467" lon="8.9324731" version="1" timestamp="2022-04-02T15:04:02Z" changeset="119237685" uid="3497659" user="NKA">
		<tag k="name" v="Hauge" />
		<tag k="place" v="farm" />
		<tag k="ssr:stedsnr" v="986850" />
	</node>
	<node id="9631539665" lat="61.0920641" lon="8.9264383" version="1" timestamp="2022-04-02T15:04:02Z" changeset="119237685" uid="3497659" user="NKA">
		<tag k="name" v="Øygarden" />
		<tag k="place" v="isolated_dwelling" />
		<tag k="ssr:stedsnr" v="917156" />
	</node>
	<node id="9631539666" lat="61.1518028" lon="8.9617806" version="1" timestamp="2022-04-02T15:04:02Z" changeset="119237685" uid="3497659" user="NKA">
		<tag k="alt_name" v="Ringstadstøl" />
		<tag k="historic" v="shieling" />
		<tag k="loc_name" v="Rengistadstølen;Ringestadstølen" />
		<tag k="name" v="Rengistadstøl" />
		<tag k="place" v="isolated_dwelling" />
		<tag k="ssr:stedsnr" v="477082" />
	</node>
	<node id="9631539667" lat="60.9890833" lon="8.9531417" version="1" timestamp="2022-04-02T15:04:02Z" changeset="119237685" uid="3497659" user="NKA">
		<tag k="historic" v="shieling" />
		<tag k="name" v="Lahaugstølen" />
		<tag k="place" v="isolated_dwelling" />
		<tag k="ssr:stedsnr" v="587516" />
	</node>
	<node id="9631539668" lat="60.9818949" lon="8.8997772" version="1" timestamp="2022-04-02T15:04:02Z" changeset="119237685" uid="3497659" user="NKA">
		<tag k="historic" v="shieling" />
		<tag k="name" v="Reiestølen" />
		<tag k="place" v="isolated_dwelling" />
		<tag k="ssr:stedsnr" v="223500" />
	</node>
	<node id="9631539669" lat="61.1117161" lon="8.9288939" version="1" timestamp="2022-04-02T15:04:02Z" changeset="119237685" uid="3497659" user="NKA">
		<tag k="name" v="Rud" />
		<tag k="place" v="farm" />
		<tag k="ssr:stedsnr" v="405409" />
	</node>
	<node id="9631539670" lat="61.0639851" lon="9.0462333" version="1" timestamp="2022-04-02T15:04:02Z" changeset="119237685" uid="3497659" user="NKA">
		<tag k="name" v="Hodne" />
		<tag k="place" v="farm" />
		<tag k="ssr:stedsnr" v="128866" />
	</node>
	<node id="9631539671" lat="61.0451233" lon="9.0098958" version="1" timestamp="2022-04-02T15:04:02Z" changeset="119237685" uid="3497659" user="NKA">
		<tag k="name" v="Midtre Semeleng" />
		<tag k="place" v="farm" />
		<tag k="ssr:stedsnr" v="830893" />
	</node>
	<node id="9631539672" lat="61.008516" lon="8.9462245" version="1" timestamp="2022-04-02T15:04:02Z" changeset="119237685" uid="3497659" user="NKA">
		<tag k="historic" v="shieling" />
		<tag k="name" v="Ødestøladn" />
		<tag k="place" v="isolated_dwelling" />
		<tag k="ssr:stedsnr" v="708481" />
	</node>
	<node id="9631539673" lat="61.1102809" lon="8.969031" version="1" timestamp="2022-04-02T15:04:02Z" changeset="119237685" uid="3497659" user="NKA">
		<tag k="name" v="Hjelle" />
		<tag k="place" v="hamlet" />
		<tag k="ssr:stedsnr" v="371148" />
	</node>
	<node id="9631539674" lat="61.0374325" lon="9.0654196" version="1" timestamp="2022-04-02T15:04:02Z" changeset="119237685" uid="3497659" user="NKA">
		<tag k="name" v="Grefsrud" />
		<tag k="place" v="farm" />
		<tag k="ssr:stedsnr" v="249794" />
	</node>
	<node id="9631539675" lat="61.1278672" lon="8.8243532" version="1" timestamp="2022-04-02T15:04:02Z" changeset="119237685" uid="3497659" user="NKA">
		<tag k="name" v="Eikra" />
		<tag k="place" v="farm" />
		<tag k="ssr:stedsnr" v="7339" />
	</node>
	<node id="9631539676" lat="61.0410489" lon="9.0222563" version="1" timestamp="2022-04-02T15:04:02Z" changeset="119237685" uid="3497659" user="NKA">
		<tag k="name" v="Ulve" />
		<tag k="place" v="farm" />
		<tag k="ssr:stedsnr" v="856817" />
	</node>
	<node id="9631539677" lat="60.90495" lon="8.8331056" version="1" timestamp="2022-04-02T15:04:02Z" changeset="119237685" uid="3497659" user="NKA">
		<tag k="alt_name" v="Lykkjastølen" />
		<tag k="historic" v="shieling" />
		<tag k="name" v="Lykkjestølen" />
		<tag k="place" v="isolated_dwelling" />
		<tag k="ssr:stedsnr" v="372862" />
	</node>
	<node id="9631539678" lat="61.027144" lon="9.0988101" version="1" timestamp="2022-04-02T15:04:02Z" changeset="119237685" uid="3497659" user="NKA">
		<tag k="alt_name" v="Ødegarden" />
		<tag k="name" v="Øygarden" />
		<tag k="place" v="farm" />
		<tag k="ssr:stedsnr" v="128789" />
	</node>
	<node id="9631539679" lat="61.1478917" lon="8.89835" version="1" timestamp="2022-04-02T15:04:02Z" changeset="119237685" uid="3497659" user="NKA">
		<tag k="historic" v="shieling" />
		<tag k="name" v="Eggestølen" />
		<tag k="place" v="isolated_dwelling" />
		<tag k="ssr:stedsnr" v="189073" />
	</node>
	<node id="9631539680" lat="61.0343699" lon="9.1577953" version="1" timestamp="2022-04-02T15:04:02Z" changeset="119237685" uid="3497659" user="NKA">
		<tag k="alt_name" v="Rogndokken" />
		<tag k="name" v="Raundokken" />
		<tag k="place" v="farm" />
		<tag k="ssr:stedsnr" v="40992" />
	</node>
	<node id="9631539681" lat="61.063732" lon="8.8131512" version="1" timestamp="2022-04-02T15:04:02Z" changeset="119237685" uid="3497659" user="NKA">
		<tag k="historic" v="shieling" />
		<tag k="name" v="Trøsvikstølen" />
		<tag k="old_name" v="Trøstvikstølen" />
		<tag k="place" v="isolated_dwelling" />
		<tag k="ssr:stedsnr" v="492373" />
	</node>
	<node id="9631539682" lat="61.0420659" lon="9.0132109" version="1" timestamp="2022-04-02T15:04:02Z" changeset="119237685" uid="3497659" user="NKA">
		<tag k="name" v="Øye" />
		<tag k="place" v="farm" />
		<tag k="ssr:stedsnr" v="986877" />
	</node>
	<node id="9631539683" lat="61.0644778" lon="8.8101944" version="1" timestamp="2022-04-02T15:04:02Z" changeset="119237685" uid="3497659" user="NKA">
		<tag k="alt_name" v="Kvislastøl" />
		<tag k="historic" v="shieling" />
		<tag k="name" v="Kvislastølane" />
		<tag k="place" v="isolated_dwelling" />
		<tag k="ssr:stedsnr" v="613394" />
	</node>
	<node id="9631539684" lat="61.021943" lon="8.8989306" version="1" timestamp="2022-04-02T15:04:02Z" changeset="119237685" uid="3497659" user="NKA">
		<tag k="historic" v="shieling" />
		<tag k="name" v="Kvålstølen" />
		<tag k="place" v="isolated_dwelling" />
		<tag k="ssr:stedsnr" v="708450" />
	</node>
	<node id="9631539685" lat="61.0156881" lon="8.9252533" version="1" timestamp="2022-04-02T15:04:02Z" changeset="119237685" uid="3497659" user="NKA">
		<tag k="historic" v="shieling" />
		<tag k="name" v="Duntestølen" />
		<tag k="place" v="isolated_dwelling" />
		<tag k="ssr:stedsnr" v="891488" />
	</node>
	<node id="9631539686" lat="61.1080344" lon="8.9226662" version="1" timestamp="2022-04-02T15:04:02Z" changeset="119237685" uid="3497659" user="NKA">
		<tag k="name" v="Jordet" />
		<tag k="place" v="farm" />
		<tag k="ssr:stedsnr" v="466430" />
	</node>
	<node id="9631539687" lat="60.9085833" lon="8.8470528" version="1" timestamp="2022-04-02T15:04:02Z" changeset="119237685" uid="3497659" user="NKA">
		<tag k="historic" v="shieling" />
		<tag k="name" v="Fossheimstølen" />
		<tag k="place" v="isolated_dwelling" />
		<tag k="ssr:stedsnr" v="373373" />
	</node>
	<node id="9631539688" lat="61.1326503" lon="8.7964151" version="1" timestamp="2022-04-02T15:04:02Z" changeset="119237685" uid="3497659" user="NKA">
		<tag k="name" v="Vollheim" />
		<tag k="place" v="farm" />
		<tag k="ssr:stedsnr" v="725211" />
	</node>
	<node id="9631539689" lat="60.9221863" lon="8.8625281" version="1" timestamp="2022-04-02T15:04:02Z" changeset="119237685" uid="3497659" user="NKA">
		<tag k="historic" v="shieling" />
		<tag k="name" v="Hamarsnesstølen" />
		<tag k="place" v="isolated_dwelling" />
		<tag k="ssr:stedsnr" v="160195" />
	</node>
	<node id="9631539690" lat="60.9858864" lon="8.9391824" version="1" timestamp="2022-04-02T15:04:02Z" changeset="119237685" uid="3497659" user="NKA">
		<tag k="historic" v="shieling" />
		<tag k="name" v="Lagrudstølen" />
		<tag k="place" v="isolated_dwelling" />
		<tag k="ssr:stedsnr" v="405515" />
	</node>
	<node id="9631539691" lat="61.1026861" lon="8.8659999" version="1" timestamp="2022-04-02T15:04:02Z" changeset="119237685" uid="3497659" user="NKA">
		<tag k="historic" v="shieling" />
		<tag k="name" v="Kinn" />
		<tag k="place" v="isolated_dwelling" />
		<tag k="ssr:stedsnr" v="674160" />
	</node>
	<node id="9631539692" lat="61.0587942" lon="8.9952063" version="1" timestamp="2022-04-02T15:04:02Z" changeset="119237685" uid="3497659" user="NKA">
		<tag k="name" v="Løten" />
		<tag k="place" v="farm" />
		<tag k="ssr:stedsnr" v="466970" />
	</node>
	<node id="9631539693" lat="61.1521361" lon="8.9419388" version="1" timestamp="2022-04-02T15:04:02Z" changeset="119237685" uid="3497659" user="NKA">
		<tag k="alt_name" v="Haugsstøl" />
		<tag k="historic" v="shieling" />
		<tag k="name" v="Haugslii" />
		<tag k="place" v="isolated_dwelling" />
		<tag k="ssr:stedsnr" v="128060" />
	</node>
	<node id="9631539694" lat="60.9887972" lon="8.9782805" version="1" timestamp="2022-04-02T15:04:02Z" changeset="119237685" uid="3497659" user="NKA">
		<tag k="historic" v="shieling" />
		<tag k="name" v="Stubbeset" />
		<tag k="place" v="isolated_dwelling" />
		<tag k="ssr:stedsnr" v="373058" />
	</node>
	<node id="9631539695" lat="61.1285173" lon="8.8114225" version="1" timestamp="2022-04-02T15:04:02Z" changeset="119237685" uid="3497659" user="NKA">
		<tag k="name" v="Gryte" />
		<tag k="place" v="hamlet" />
		<tag k="ssr:stedsnr" v="68353" />
	</node>
	<node id="9631539696" lat="61.054112" lon="8.8478312" version="1" timestamp="2022-04-02T15:04:02Z" changeset="119237685" uid="3497659" user="NKA">
		<tag k="historic" v="shieling" />
		<tag k="name" v="Hagenstølen" />
		<tag k="place" v="isolated_dwelling" />
		<tag k="ssr:stedsnr" v="403317" />
	</node>
	<node id="9631539697" lat="61.1351759" lon="8.9045821" version="1" timestamp="2022-04-02T15:04:02Z" changeset="119237685" uid="3497659" user="NKA">
		<tag k="alt_name" v="Bakko" />
		<tag k="name" v="Bakkane" />
		<tag k="place" v="farm" />
		<tag k="ssr:stedsnr" v="795131" />
	</node>
	<node id="9631539698" lat="61.0520693" lon="9.041413" version="1" timestamp="2022-04-02T15:04:02Z" changeset="119237685" uid="3497659" user="NKA">
		<tag k="name" v="Viker" />
		<tag k="place" v="farm" />
		<tag k="ssr:stedsnr" v="828869" />
	</node>
	<node id="9631539699" lat="61.048289" lon="9.0054363" version="1" timestamp="2022-04-02T15:04:02Z" changeset="119237685" uid="3497659" user="NKA">
		<tag k="name" v="Skarsbakken" />
		<tag k="place" v="farm" />
		<tag k="ssr:stedsnr" v="223907" />
	</node>
	<node id="9631539700" lat="61.0952581" lon="8.9761981" version="1" timestamp="2022-04-02T15:04:02Z" changeset="119237685" uid="3497659" user="NKA">
		<tag k="name" v="Nørdre Fulkji" />
		<tag k="place" v="farm" />
		<tag k="ssr:stedsnr" v="102457" />
	</node>
	<node id="9631539701" lat="61.1209077" lon="8.8541075" version="1" timestamp="2022-04-02T15:04:02Z" changeset="119237685" uid="3497659" user="NKA">
		<tag k="name" v="Hovda" />
		<tag k="place" v="farm" />
		<tag k="ssr:stedsnr" v="7131" />
	</node>
	<node id="9631539702" lat="61.0699639" lon="9.0366556" version="1" timestamp="2022-04-02T15:04:02Z" changeset="119237685" uid="3497659" user="NKA">
		<tag k="name" v="Nørdre Berge" />
		<tag k="place" v="farm" />
		<tag k="ssr:stedsnr" v="587963" />
	</node>
	<node id="9631539703" lat="61.1216865" lon="8.8717515" version="1" timestamp="2022-04-02T15:04:02Z" changeset="119237685" uid="3497659" user="NKA">
		<tag k="alt_name" v="Kvissel" />
		<tag k="name" v="Kvisl" />
		<tag k="place" v="hamlet" />
		<tag k="ssr:stedsnr" v="986826" />
	</node>
	<node id="9631539704" lat="60.9957204" lon="8.7678792" version="1" timestamp="2022-04-02T15:04:02Z" changeset="119237685" uid="3497659" user="NKA">
		<tag k="historic" v="shieling" />
		<tag k="name" v="Flikja" />
		<tag k="place" v="isolated_dwelling" />
		<tag k="ssr:stedsnr" v="223673" />
	</node>
	<node id="9631539705" lat="61.0940694" lon="8.9004138" version="1" timestamp="2022-04-02T15:04:02Z" changeset="119237685" uid="3497659" user="NKA">
		<tag k="historic" v="shieling" />
		<tag k="name" v="Haugerudstølen" />
		<tag k="place" v="isolated_dwelling" />
		<tag k="ssr:stedsnr" v="188229" />
	</node>
	<node id="9631539706" lat="61.0292445" lon="9.0758054" version="1" timestamp="2022-04-02T15:04:02Z" changeset="119237685" uid="3497659" user="NKA">
		<tag k="name" v="Nordviste" />
		<tag k="place" v="farm" />
		<tag k="ssr:stedsnr" v="587836" />
	</node>
	<node id="9631539707" lat="61.0686499" lon="9.0364773" version="1" timestamp="2022-04-02T15:04:02Z" changeset="119237685" uid="3497659" user="NKA">
		<tag k="name" v="Berge" />
		<tag k="place" v="farm" />
		<tag k="ssr:stedsnr" v="917865" />
	</node>
	<node id="9631539708" lat="61.0711678" lon="9.0167013" version="1" timestamp="2022-04-02T15:04:02Z" changeset="119237685" uid="3497659" user="NKA">
		<tag k="name" v="Hamro" />
		<tag k="place" v="farm" />
		<tag k="ssr:stedsnr" v="162961" />
	</node>
	<node id="9631539709" lat="61.1373222" lon="8.9473917" version="1" timestamp="2022-04-02T15:04:02Z" changeset="119237685" uid="3497659" user="NKA">
		<tag k="name" v="Tørisgarden" />
		<tag k="place" v="locality" />
		<tag k="ssr:stedsnr" v="889098" />
	</node>
	<node id="9631539710" lat="61.0873444" lon="8.899175" version="1" timestamp="2022-04-02T15:04:02Z" changeset="119237685" uid="3497659" user="NKA">
		<tag k="historic" v="shieling" />
		<tag k="name" v="Bakkestølen" />
		<tag k="place" v="isolated_dwelling" />
		<tag k="ssr:stedsnr" v="371193" />
	</node>
	<node id="9631539711" lat="61.0437862" lon="9.011505" version="1" timestamp="2022-04-02T15:04:02Z" changeset="119237685" uid="3497659" user="NKA">
		<tag k="name" v="Nedre Semeleng" />
		<tag k="place" v="farm" />
		<tag k="ssr:stedsnr" v="466904" />
	</node>
	<node id="9631539712" lat="61.0402393" lon="9.0805293" version="1" timestamp="2022-04-02T15:04:02Z" changeset="119237685" uid="3497659" user="NKA">
		<tag k="name" v="Fystro" />
		<tag k="place" v="farm" />
		<tag k="ssr:stedsnr" v="718697" />
	</node>
	<node id="9631539713" lat="61.0860984" lon="8.9609651" version="1" timestamp="2022-04-02T15:04:02Z" changeset="119237685" uid="3497659" user="NKA">
		<tag k="name" v="Hamre" />
		<tag k="place" v="hamlet" />
		<tag k="ssr:stedsnr" v="7214" />
	</node>
	<node id="9631539714" lat="60.9130422" lon="8.8809649" version="1" timestamp="2022-04-02T15:04:02Z" changeset="119237685" uid="3497659" user="NKA">
		<tag k="name" v="Bjole" />
		<tag k="place" v="isolated_dwelling" />
		<tag k="ssr:stedsnr" v="282917" />
	</node>
	<node id="9631539715" lat="61.0453639" lon="8.8309334" version="1" timestamp="2022-04-02T15:04:02Z" changeset="119237685" uid="3497659" user="NKA">
		<tag k="name" v="Jomssyndin" />
		<tag k="place" v="hamlet" />
		<tag k="ssr:stedsnr" v="371415" />
	</node>
	<node id="9631539716" lat="61.036263" lon="9.1572855" version="1" timestamp="2022-04-02T15:04:02Z" changeset="119237685" uid="3497659" user="NKA">
		<tag k="alt_name" v="Sælid" />
		<tag k="name" v="Sæli" />
		<tag k="place" v="farm" />
		<tag k="ssr:stedsnr" v="674799" />
	</node>
	<node id="9631539717" lat="61.1338661" lon="8.9015114" version="1" timestamp="2022-04-02T15:04:02Z" changeset="119237685" uid="3497659" user="NKA">
		<tag k="name" v="Høve" />
		<tag k="place" v="farm" />
		<tag k="ssr:stedsnr" v="587082" />
	</node>
	<node id="9631539718" lat="61.0602833" lon="8.9987756" version="1" timestamp="2022-04-02T15:04:02Z" changeset="119237685" uid="3497659" user="NKA">
		<tag k="name" v="Dalbø" />
		<tag k="place" v="farm" />
		<tag k="ssr:stedsnr" v="492831" />
	</node>
	<node id="9631539719" lat="61.1646111" lon="8.8819778" version="1" timestamp="2022-04-02T15:04:02Z" changeset="119237685" uid="3497659" user="NKA">
		<tag k="historic" v="shieling" />
		<tag k="name" v="Høynesstølen" />
		<tag k="place" v="isolated_dwelling" />
		<tag k="ssr:stedsnr" v="735036" />
	</node>
	<node id="9631539720" lat="61.1030972" lon="8.9277951" version="1" timestamp="2022-04-02T15:04:02Z" changeset="119237685" uid="3497659" user="NKA">
		<tag k="name" v="Trøyflat" />
		<tag k="place" v="farm" />
		<tag k="ssr:stedsnr" v="432155" />
	</node>
	<node id="9631539721" lat="60.9245278" lon="8.8381862" version="1" timestamp="2022-04-02T15:04:02Z" changeset="119237685" uid="3497659" user="NKA">
		<tag k="historic" v="shieling" />
		<tag k="name" v="Fauskehaugen" />
		<tag k="place" v="isolated_dwelling" />
		<tag k="ssr:stedsnr" v="433861" />
	</node>
	<node id="9631539722" lat="61.0944318" lon="8.9533869" version="1" timestamp="2022-04-02T15:04:02Z" changeset="119237685" uid="3497659" user="NKA">
		<tag k="alt_name" v="Frigstad" />
		<tag k="name" v="Frikstad" />
		<tag k="place" v="farm" />
		<tag k="ssr:stedsnr" v="735205" />
	</node>
	<node id="9631539723" lat="60.9224859" lon="8.8916023" version="1" timestamp="2022-04-02T15:04:02Z" changeset="119237685" uid="3497659" user="NKA">
		<tag k="historic" v="shieling" />
		<tag k="name" v="Fystrostølen" />
		<tag k="place" v="isolated_dwelling" />
		<tag k="ssr:stedsnr" v="100220" />
	</node>
	<node id="9631539724" lat="61.1060834" lon="8.8511417" version="1" timestamp="2022-04-02T15:04:02Z" changeset="119237685" uid="3497659" user="NKA">
		<tag k="historic" v="shieling" />
		<tag k="name" v="Førstølen" />
		<tag k="place" v="isolated_dwelling" />
		<tag k="ssr:stedsnr" v="917128" />
	</node>
	<node id="9631539725" lat="61.0423232" lon="8.9137381" version="1" timestamp="2022-04-02T15:04:02Z" changeset="119237685" uid="3497659" user="NKA">
		<tag k="historic" v="shieling" />
		<tag k="name" v="Nestestølen" />
		<tag k="place" v="isolated_dwelling" />
		<tag k="ssr:stedsnr" v="917811" />
	</node>
	<node id="9631539726" lat="61.0777551" lon="8.9986312" version="1" timestamp="2022-04-02T15:04:02Z" changeset="119237685" uid="3497659" user="NKA">
		<tag k="name" v="Solberg" />
		<tag k="place" v="farm" />
		<tag k="ssr:stedsnr" v="951947" />
	</node>
	<node id="9631539727" lat="61.0389611" lon="9.0100023" version="1" timestamp="2022-04-02T15:04:02Z" changeset="119237685" uid="3497659" user="NKA">
		<tag k="name" v="Gilhus" />
		<tag k="place" v="farm" />
		<tag k="ssr:stedsnr" v="917798" />
	</node>
	<node id="9631539728" lat="60.9169889" lon="8.8747027" version="1" timestamp="2022-04-02T15:04:02Z" changeset="119237685" uid="3497659" user="NKA">
		<tag k="historic" v="shieling" />
		<tag k="name" v="Hagastølen" />
		<tag k="place" v="isolated_dwelling" />
		<tag k="ssr:stedsnr" v="828207" />
	</node>
	<node id="9631539729" lat="61.060275" lon="8.8925917" version="1" timestamp="2022-04-02T15:04:02Z" changeset="119237685" uid="3497659" user="NKA">
		<tag k="alt_name" v="Ulastølen" />
		<tag k="historic" v="shieling" />
		<tag k="name" v="Olastølen" />
		<tag k="place" v="isolated_dwelling" />
		<tag k="ssr:stedsnr" v="674842" />
	</node>
	<node id="9631539730" lat="61.1200432" lon="8.7975149" version="1" timestamp="2022-04-02T15:04:02Z" changeset="119237685" uid="3497659" user="NKA">
		<tag k="historic" v="shieling" />
		<tag k="name" v="Gullhaugstølen" />
		<tag k="place" v="isolated_dwelling" />
		<tag k="ssr:stedsnr" v="464033" />
	</node>
	<node id="9631539731" lat="60.9634139" lon="8.9071612" version="1" timestamp="2022-04-02T15:04:02Z" changeset="119237685" uid="3497659" user="NKA">
		<tag k="alt_name" v="Grønlie" />
		<tag k="historic" v="shieling" />
		<tag k="name" v="Grønlii" />
		<tag k="place" v="isolated_dwelling" />
		<tag k="ssr:stedsnr" v="554126" />
	</node>
	<node id="9631539732" lat="61.066933" lon="9.0268287" version="1" timestamp="2022-04-02T15:04:02Z" changeset="119237685" uid="3497659" user="NKA">
		<tag k="name" v="Hande" />
		<tag k="place" v="hamlet" />
		<tag k="ssr:stedsnr" v="986855" />
	</node>
	<node id="9631539733" lat="61.1216334" lon="8.8442389" version="1" timestamp="2022-04-02T15:04:02Z" changeset="119237685" uid="3497659" user="NKA">
		<tag k="name" v="Bråten" />
		<tag k="place" v="farm" />
		<tag k="ssr:stedsnr" v="405324" />
	</node>
	<node id="9631539734" lat="61.0471639" lon="9.0683453" version="1" timestamp="2022-04-02T15:04:02Z" changeset="119237685" uid="3497659" user="NKA">
		<tag k="alt_name" v="Tuvmarken" />
		<tag k="name" v="Tuvmarki" />
		<tag k="place" v="farm" />
		<tag k="ssr:stedsnr" v="67821" />
	</node>
	<node id="9631539735" lat="61.0222932" lon="9.0624926" version="1" timestamp="2022-04-02T15:04:02Z" changeset="119237685" uid="3497659" user="NKA">
		<tag k="name" v="Kåta" />
		<tag k="place" v="farm" />
		<tag k="ssr:stedsnr" v="432769" />
	</node>
	<node id="9631539736" lat="61.072047" lon="9.0134456" version="1" timestamp="2022-04-02T15:04:02Z" changeset="119237685" uid="3497659" user="NKA">
		<tag k="alt_name" v="Jarstadmarken" />
		<tag k="name" v="Jarstadmarki" />
		<tag k="place" v="farm" />
		<tag k="ssr:stedsnr" v="68251" />
	</node>
	<node id="9631539737" lat="61.0363604" lon="9.0600602" version="1" timestamp="2022-04-02T15:04:02Z" changeset="119237685" uid="3497659" user="NKA">
		<tag k="name" v="Røneberg" />
		<tag k="place" v="neighbourhood" />
		<tag k="ssr:stedsnr" v="162685" />
	</node>
	<node id="9631539738" lat="61.0379548" lon="9.0275471" version="1" timestamp="2022-04-02T15:04:02Z" changeset="119237685" uid="3497659" user="NKA">
		<tag k="name" v="Hole" />
		<tag k="place" v="farm" />
		<tag k="ssr:stedsnr" v="41882" />
	</node>
	<node id="9631539739" lat="61.0701167" lon="8.8075445" version="1" timestamp="2022-04-02T15:04:02Z" changeset="119237685" uid="3497659" user="NKA">
		<tag k="historic" v="shieling" />
		<tag k="name" v="Mohaugen" />
		<tag k="place" v="isolated_dwelling" />
		<tag k="ssr:stedsnr" v="128365" />
	</node>
	<node id="9631539740" lat="61.0903191" lon="8.9468249" version="1" timestamp="2022-04-02T15:04:02Z" changeset="119237685" uid="3497659" user="NKA">
		<tag k="alt_name" v="Nedre Frigstadplassen" />
		<tag k="name" v="Frikstadplassen" />
		<tag k="place" v="farm" />
		<tag k="ssr:stedsnr" v="674198" />
	</node>
	<node id="9631539741" lat="61.0297583" lon="9.0362861" version="1" timestamp="2022-04-02T15:04:02Z" changeset="119237685" uid="3497659" user="NKA">
		<tag k="name" v="Reina" />
		<tag k="place" v="farm" />
		<tag k="ssr:stedsnr" v="189769" />
	</node>
	<node id="9631539742" lat="61.0245611" lon="9.0921083" version="1" timestamp="2022-04-02T15:04:02Z" changeset="119237685" uid="3497659" user="NKA">
		<tag k="name" v="Kvenene" />
		<tag k="place" v="farm" />
		<tag k="ssr:stedsnr" v="828813" />
	</node>
	<node id="9631539743" lat="61.097344" lon="9.0000408" version="1" timestamp="2022-04-02T15:04:02Z" changeset="119237685" uid="3497659" user="NKA">
		<tag k="name" v="Finneberg" />
		<tag k="place" v="farm" />
		<tag k="ssr:stedsnr" v="188222" />
	</node>
	<node id="9631539744" lat="61.0407211" lon="9.0795014" version="1" timestamp="2022-04-02T15:04:02Z" changeset="119237685" uid="3497659" user="NKA">
		<tag k="name" v="Nordåker" />
		<tag k="place" v="farm" />
		<tag k="ssr:stedsnr" v="189778" />
	</node>
	<node id="9631539745" lat="61.1232604" lon="8.8171339" version="1" timestamp="2022-04-02T15:04:02Z" changeset="119237685" uid="3497659" user="NKA">
		<tag k="alt_name" v="Høyme" />
		<tag k="name" v="Øvre Høyme" />
		<tag k="place" v="farm" />
		<tag k="ssr:stedsnr" v="492297" />
	</node>
	<node id="9631539746" lat="61.070216" lon="9.0145177" version="1" timestamp="2022-04-02T15:04:02Z" changeset="119237685" uid="3497659" user="NKA">
		<tag k="name" v="Hagajordet" />
		<tag k="place" v="farm" />
		<tag k="ssr:stedsnr" v="432864" />
	</node>
	<node id="9631539747" lat="61.1249061" lon="8.8424562" version="1" timestamp="2022-04-02T15:04:02Z" changeset="119237685" uid="3497659" user="NKA">
		<tag k="name" v="Nedre Riste" />
		<tag k="place" v="farm" />
		<tag k="ssr:stedsnr" v="118197" />
	</node>
	<node id="9631539748" lat="61.1125796" lon="8.9177128" version="1" timestamp="2022-04-02T15:04:02Z" changeset="119237685" uid="3497659" user="NKA">
		<tag k="alt_name" v="Haugtun" />
		<tag k="name" v="Hagen" />
		<tag k="place" v="farm" />
		<tag k="ssr:stedsnr" v="310137" />
	</node>
	<node id="9631539749" lat="61.0681611" lon="8.9498194" version="1" timestamp="2022-04-02T15:04:02Z" changeset="119237685" uid="3497659" user="NKA">
		<tag k="alt_name" v="Håvrudstølen;Hoverudstølen" />
		<tag k="historic" v="shieling" />
		<tag k="name" v="Håverudstølen" />
		<tag k="place" v="isolated_dwelling" />
		<tag k="ssr:stedsnr" v="189867" />
	</node>
	<node id="9631539750" lat="61.0583181" lon="9.0421987" version="1" timestamp="2022-04-02T15:04:02Z" changeset="119237685" uid="3497659" user="NKA">
		<tag k="name" v="Reistad" />
		<tag k="place" v="farm" />
		<tag k="ssr:stedsnr" v="949860" />
	</node>
	<node id="9631539751" lat="61.0495271" lon="9.0110148" version="1" timestamp="2022-04-02T15:04:02Z" changeset="119237685" uid="3497659" user="NKA">
		<tag k="name" v="Landsrud" />
		<tag k="place" v="farm" />
		<tag k="ssr:stedsnr" v="128816" />
	</node>
	<node id="9631539752" lat="60.9427371" lon="8.8465275" version="1" timestamp="2022-04-02T15:04:02Z" changeset="119237685" uid="3497659" user="NKA">
		<tag k="historic" v="shieling" />
		<tag k="name" v="Tuvmarkstølen" />
		<tag k="place" v="isolated_dwelling" />
		<tag k="ssr:stedsnr" v="526771" />
	</node>
	<node id="9631539753" lat="61.0777751" lon="8.7209982" version="1" timestamp="2022-04-02T15:04:02Z" changeset="119237685" uid="3497659" user="NKA">
		<tag k="name" v="Storøyne" />
		<tag k="place" v="isolated_dwelling" />
		<tag k="ssr:stedsnr" v="58831" />
	</node>
	<node id="9631539754" lat="61.0762993" lon="8.9655432" version="1" timestamp="2022-04-02T15:04:02Z" changeset="119237685" uid="3497659" user="NKA">
		<tag k="alt_name" v="Hovrud;Hoverud" />
		<tag k="name" v="Håverud" />
		<tag k="old_name" v="Haaverud" />
		<tag k="place" v="farm" />
		<tag k="ssr:stedsnr" v="857248" />
	</node>
	<node id="9631539755" lat="61.020281" lon="9.1013784" version="1" timestamp="2022-04-02T15:04:02Z" changeset="119237685" uid="3497659" user="NKA">
		<tag k="name" v="Lagrud" />
		<tag k="place" v="farm" />
		<tag k="ssr:stedsnr" v="917769" />
	</node>
	<node id="9631539756" lat="61.1266134" lon="8.8201732" version="1" timestamp="2022-04-02T15:04:02Z" changeset="119237685" uid="3497659" user="NKA">
		<tag k="name" v="Høyme" />
		<tag k="place" v="hamlet" />
		<tag k="ssr:stedsnr" v="613339" />
	</node>
	<node id="9631539757" lat="61.0845669" lon="8.9868709" version="1" timestamp="2022-04-02T15:04:02Z" changeset="119237685" uid="3497659" user="NKA">
		<tag k="alt_name" v="Tvenge, nedre;Tvenge" />
		<tag k="name" v="Nedre Tvenge" />
		<tag k="place" v="farm" />
		<tag k="ssr:stedsnr" v="613199" />
	</node>
	<node id="9631539758" lat="61.1062834" lon="8.9054583" version="1" timestamp="2022-04-02T15:04:02Z" changeset="119237685" uid="3497659" user="NKA">
		<tag k="name" v="Øyane" />
		<tag k="place" v="isolated_dwelling" />
		<tag k="ssr:stedsnr" v="432154" />
	</node>
	<node id="9631539759" lat="60.9852659" lon="8.9557194" version="1" timestamp="2022-04-02T15:04:02Z" changeset="119237685" uid="3497659" user="NKA">
		<tag k="historic" v="shieling" />
		<tag k="name" v="Dalastølen" />
		<tag k="place" v="isolated_dwelling" />
		<tag k="ssr:stedsnr" v="891516" />
	</node>
	<node id="9631539760" lat="61.089462" lon="8.898344" version="1" timestamp="2022-04-02T15:04:02Z" changeset="119237685" uid="3497659" user="NKA">
		<tag k="alt_name" v="Dokkstølen" />
		<tag k="historic" v="shieling" />
		<tag k="name" v="Dokkestølen" />
		<tag k="place" v="isolated_dwelling" />
		<tag k="ssr:stedsnr" v="796216" />
	</node>
	<node id="9631539761" lat="60.9563063" lon="8.7033518" version="1" timestamp="2022-04-02T15:04:02Z" changeset="119237685" uid="3497659" user="NKA">
		<tag k="historic" v="shieling" />
		<tag k="name" v="Nystøl" />
		<tag k="place" v="isolated_dwelling" />
		<tag k="ssr:stedsnr" v="284779" />
	</node>
	<node id="9631539762" lat="61.047241" lon="8.9961987" version="1" timestamp="2022-04-02T15:04:02Z" changeset="119237685" uid="3497659" user="NKA">
		<tag k="name" v="Dalheim" />
		<tag k="place" v="farm" />
		<tag k="ssr:stedsnr" v="526901" />
	</node>
	<node id="9631539763" lat="61.1411695" lon="8.888216" version="1" timestamp="2022-04-02T15:04:02Z" changeset="119237685" uid="3497659" user="NKA">
		<tag k="name" v="Egge" />
		<tag k="place" v="farm" />
		<tag k="ssr:stedsnr" v="986829" />
	</node>
	<node id="9631539764" lat="61.0222852" lon="9.0516764" version="1" timestamp="2022-04-02T15:04:02Z" changeset="119237685" uid="3497659" user="NKA">
		<tag k="name" v="Haugen" />
		<tag k="place" v="farm" />
		<tag k="ssr:stedsnr" v="405205" />
	</node>
	<node id="9631539765" lat="61.117048" lon="8.9303048" version="1" timestamp="2022-04-02T15:04:02Z" changeset="119237685" uid="3497659" user="NKA">
		<tag k="alt_name" v="Henrud" />
		<tag k="name" v="Henderud" />
		<tag k="place" v="farm" />
		<tag k="ssr:stedsnr" v="796137" />
	</node>
	<node id="9631539766" lat="61.1003931" lon="8.9746582" version="1" timestamp="2022-04-02T15:04:02Z" changeset="119237685" uid="3497659" user="NKA">
		<tag k="alt_name" v="Ule" />
		<tag k="name" v="Urdi" />
		<tag k="place" v="farm" />
		<tag k="ssr:stedsnr" v="188211" />
	</node>
	<node id="9631539767" lat="61.0207111" lon="9.0552723" version="1" timestamp="2022-04-02T15:04:02Z" changeset="119237685" uid="3497659" user="NKA">
		<tag k="name" v="Nordeng" />
		<tag k="place" v="farm" />
		<tag k="ssr:stedsnr" v="708206" />
	</node>
	<node id="9631539768" lat="61.1234864" lon="8.8537751" version="1" timestamp="2022-04-02T15:04:02Z" changeset="119237685" uid="3497659" user="NKA">
		<tag k="name" v="Korsmo" />
		<tag k="place" v="farm" />
		<tag k="ssr:stedsnr" v="891354" />
	</node>
	<node id="9631539769" lat="61.0639" lon="8.961" version="1" timestamp="2022-04-02T15:04:02Z" changeset="119237685" uid="3497659" user="NKA">
		<tag k="historic" v="shieling" />
		<tag k="name" v="Vikastølen" />
		<tag k="place" v="isolated_dwelling" />
		<tag k="ssr:stedsnr" v="796892" />
	</node>
	<node id="9631539770" lat="61.1141889" lon="8.9830556" version="1" timestamp="2022-04-02T15:04:02Z" changeset="119237685" uid="3497659" user="NKA">
		<tag k="alt_name" v="Hjellestøladn" />
		<tag k="name" v="Hjellestølen" />
		<tag k="place" v="isolated_dwelling" />
		<tag k="ssr:stedsnr" v="735132" />
	</node>
	<node id="9631539771" lat="61.0482513" lon="9.1372091" version="1" timestamp="2022-04-02T15:04:02Z" changeset="119237685" uid="3497659" user="NKA">
		<tag k="name" v="Grunkeøygarden" />
		<tag k="place" v="isolated_dwelling" />
		<tag k="ssr:stedsnr" v="917807" />
	</node>
	<node id="9631539772" lat="61.0958791" lon="8.9926528" version="1" timestamp="2022-04-02T15:04:02Z" changeset="119237685" uid="3497659" user="NKA">
		<tag k="name" v="Oppslidre" />
		<tag k="place" v="farm" />
		<tag k="ssr:stedsnr" v="67227" />
	</node>
	<node id="9631539773" lat="61.0280161" lon="9.0765215" version="1" timestamp="2022-04-02T15:04:02Z" changeset="119237685" uid="3497659" user="NKA">
		<tag k="name" v="Solvang" />
		<tag k="place" v="farm" />
		<tag k="ssr:stedsnr" v="405851" />
	</node>
	<node id="9631539774" lat="61.0634224" lon="9.099019" version="1" timestamp="2022-04-02T15:04:02Z" changeset="119237685" uid="3497659" user="NKA">
		<tag k="alt_name" v="Sletten" />
		<tag k="name" v="Sletti" />
		<tag k="place" v="farm" />
		<tag k="ssr:stedsnr" v="250848" />
	</node>
	<node id="9631539775" lat="61.0675913" lon="8.8116426" version="1" timestamp="2022-04-02T15:04:02Z" changeset="119237685" uid="3497659" user="NKA">
		<tag k="historic" v="shieling" />
		<tag k="name" v="Førstølen" />
		<tag k="place" v="isolated_dwelling" />
		<tag k="ssr:stedsnr" v="100321" />
	</node>
	<node id="9631539776" lat="61.0867951" lon="8.9649954" version="1" timestamp="2022-04-02T15:04:02Z" changeset="119237685" uid="3497659" user="NKA">
		<tag k="name" v="Borgnes" />
		<tag k="place" v="farm" />
		<tag k="ssr:stedsnr" v="102468" />
	</node>
	<node id="9631539777" lat="61.1464471" lon="8.8658394" version="1" timestamp="2022-04-02T15:04:02Z" changeset="119237685" uid="3497659" user="NKA">
		<tag k="name" v="Ellestadbygde" />
		<tag k="place" v="hamlet" />
		<tag k="ssr:stedsnr" v="357966" />
	</node>
	<node id="9631539778" lat="61.0637916" lon="9.1170834" version="1" timestamp="2022-04-02T15:04:02Z" changeset="119237685" uid="3497659" user="NKA">
		<tag k="name" v="Hovda" />
		<tag k="place" v="farm" />
		<tag k="ssr:stedsnr" v="735847" />
	</node>
	<node id="9631539779" lat="61.0167083" lon="9.0556778" version="1" timestamp="2022-04-02T15:04:02Z" changeset="119237685" uid="3497659" user="NKA">
		<tag k="alt_name" v="Prøven" />
		<tag k="name" v="Bråten" />
		<tag k="place" v="farm" />
		<tag k="ssr:stedsnr" v="735770" />
	</node>
	<node id="9631539780" lat="61.0643155" lon="9.0289946" version="1" timestamp="2022-04-02T15:04:02Z" changeset="119237685" uid="3497659" user="NKA">
		<tag k="name" v="Vangen" />
		<tag k="place" v="farm" />
		<tag k="ssr:stedsnr" v="344971" />
	</node>
	<node id="9631539781" lat="60.9602081" lon="8.8157084" version="1" timestamp="2022-04-02T15:04:02Z" changeset="119237685" uid="3497659" user="NKA">
		<tag k="historic" v="shieling" />
		<tag k="name" v="Ulvestadstølane" />
		<tag k="place" v="isolated_dwelling" />
		<tag k="ssr:stedsnr" v="466663" />
	</node>
	<node id="9631539782" lat="61.1007001" lon="8.9797782" version="1" timestamp="2022-04-02T15:04:02Z" changeset="119237685" uid="3497659" user="NKA">
		<tag k="alt_name" v="Skori, nordre;Nørdre Skøre" />
		<tag k="name" v="Nørdre Skori" />
		<tag k="place" v="farm" />
		<tag k="ssr:stedsnr" v="492142" />
	</node>
	<node id="9631539783" lat="61.0922528" lon="8.9941416" version="1" timestamp="2022-04-02T15:04:02Z" changeset="119237685" uid="3497659" user="NKA">
		<tag k="name" v="Sponbakkadn" />
		<tag k="place" v="neighbourhood" />
		<tag k="ssr:stedsnr" v="647958" />
	</node>
	<node id="9631539784" lat="61.0252754" lon="9.0844131" version="1" timestamp="2022-04-02T15:04:02Z" changeset="119237685" uid="3497659" user="NKA">
		<tag k="name" v="Viste" />
		<tag k="place" v="hamlet" />
		<tag k="ssr:stedsnr" v="917774" />
	</node>
	<node id="9631539785" lat="61.0530321" lon="8.851801" version="1" timestamp="2022-04-02T15:04:02Z" changeset="119237685" uid="3497659" user="NKA">
		<tag k="name" v="Grumbua" />
		<tag k="place" v="isolated_dwelling" />
		<tag k="ssr:stedsnr" v="589579" />
	</node>
	<node id="9631539786" lat="61.0715305" lon="8.9338584" version="1" timestamp="2022-04-02T15:04:02Z" changeset="119237685" uid="3497659" user="NKA">
		<tag k="alt_name" v="Gamlestøladn" />
		<tag k="historic" v="shieling" />
		<tag k="name" v="Gamlestølane" />
		<tag k="place" v="isolated_dwelling" />
		<tag k="ssr:stedsnr" v="432878" />
	</node>
	<node id="9631539787" lat="61.0054861" lon="9.0005694" version="1" timestamp="2022-04-02T15:04:02Z" changeset="119237685" uid="3497659" user="NKA">
		<tag k="name" v="Fossheimsæter" />
		<tag k="place" v="farm" />
		<tag k="ssr:stedsnr" v="492756" />
	</node>
	<node id="9631539788" lat="61.1435941" lon="8.9833884" version="1" timestamp="2022-04-02T15:04:02Z" changeset="119237685" uid="3497659" user="NKA">
		<tag k="historic" v="shieling" />
		<tag k="name" v="Nedre Bjerset" />
		<tag k="place" v="isolated_dwelling" />
		<tag k="ssr:stedsnr" v="479272" />
	</node>
	<node id="9631539789" lat="60.9852228" lon="8.9344922" version="1" timestamp="2022-04-02T15:04:02Z" changeset="119237685" uid="3497659" user="NKA">
		<tag k="historic" v="shieling" />
		<tag k="name" v="Storhaugstølen" />
		<tag k="place" v="isolated_dwelling" />
		<tag k="ssr:stedsnr" v="769497" />
	</node>
	<node id="9631539790" lat="61.0602532" lon="8.7415043" version="1" timestamp="2022-04-02T15:04:02Z" changeset="119237685" uid="3497659" user="NKA">
		<tag k="alt_name" v="Teigstølen" />
		<tag k="historic" v="shieling" />
		<tag k="name" v="Teigstolstølen" />
		<tag k="place" v="isolated_dwelling" />
		<tag k="ssr:stedsnr" v="7377" />
	</node>
	<node id="9631539791" lat="61.1296722" lon="8.8248491" version="1" timestamp="2022-04-02T15:04:02Z" changeset="119237685" uid="3497659" user="NKA">
		<tag k="name" v="Neståker" />
		<tag k="place" v="farm" />
		<tag k="ssr:stedsnr" v="492317" />
	</node>
	<node id="9631539792" lat="60.9190333" lon="8.8161389" version="1" timestamp="2022-04-02T15:04:02Z" changeset="119237685" uid="3497659" user="NKA">
		<tag k="historic" v="shieling" />
		<tag k="name" v="Haugastølen" />
		<tag k="place" v="isolated_dwelling" />
		<tag k="ssr:stedsnr" v="69875" />
	</node>
	<node id="9631539793" lat="61.1173581" lon="8.9036784" version="1" timestamp="2022-04-02T15:04:02Z" changeset="119237685" uid="3497659" user="NKA">
		<tag k="name" v="Nordli" />
		<tag k="place" v="farm" />
		<tag k="ssr:stedsnr" v="282356" />
	</node>
	<node id="9631539794" lat="61.1514778" lon="8.959125" version="1" timestamp="2022-04-02T15:04:02Z" changeset="119237685" uid="3497659" user="NKA">
		<tag k="alt_name" v="Haslebrekkstøl" />
		<tag k="historic" v="shieling" />
		<tag k="name" v="Haslebrekklii" />
		<tag k="place" v="isolated_dwelling" />
		<tag k="ssr:stedsnr" v="68076" />
	</node>
	<node id="9631539795" lat="60.9163739" lon="8.8788543" version="1" timestamp="2022-04-02T15:04:02Z" changeset="119237685" uid="3497659" user="NKA">
		<tag k="historic" v="shieling" />
		<tag k="name" v="Vistestølen" />
		<tag k="place" v="isolated_dwelling" />
		<tag k="ssr:stedsnr" v="282216" />
	</node>
	<node id="9631539796" lat="61.1395373" lon="8.8825325" version="1" timestamp="2022-04-02T15:04:02Z" changeset="119237685" uid="3497659" user="NKA">
		<tag k="alt_name" v="Krøssengen" />
		<tag k="name" v="Krossengi" />
		<tag k="place" v="farm" />
		<tag k="ssr:stedsnr" v="917077" />
	</node>
	<node id="9631539797" lat="61.0620453" lon="9.0338729" version="1" timestamp="2022-04-02T15:04:02Z" changeset="119237685" uid="3497659" user="NKA">
		<tag k="name" v="Reie" />
		<tag k="place" v="farm" />
		<tag k="ssr:stedsnr" v="613836" />
	</node>
	<node id="9631539798" lat="61.1248156" lon="8.9559643" version="1" timestamp="2022-04-02T15:04:02Z" changeset="119237685" uid="3497659" user="NKA">
		<tag k="name" v="Kvåle" />
		<tag k="place" v="farm" />
		<tag k="ssr:stedsnr" v="525105" />
	</node>
	<node id="9631539799" lat="60.9507584" lon="8.9215393" version="1" timestamp="2022-04-02T15:04:02Z" changeset="119237685" uid="3497659" user="NKA">
		<tag k="historic" v="shieling" />
		<tag k="name" v="Snortheimstølen" />
		<tag k="place" v="isolated_dwelling" />
		<tag k="ssr:stedsnr" v="951258" />
	</node>
	<node id="9631539800" lat="61.0581252" lon="9.1132894" version="1" timestamp="2022-04-02T15:04:02Z" changeset="119237685" uid="3497659" user="NKA">
		<tag k="alt_name" v="Sørmo" />
		<tag k="name" v="Midislette" />
		<tag k="place" v="farm" />
		<tag k="ssr:stedsnr" v="370849" />
	</node>
	<node id="9631539801" lat="61.0804639" lon="8.9571417" version="1" timestamp="2022-04-02T15:04:02Z" changeset="119237685" uid="3497659" user="NKA">
		<tag k="alt_name" v="Hansegarden, midtre" />
		<tag k="name" v="Midtre Hansegarden" />
		<tag k="place" v="farm" />
		<tag k="ssr:stedsnr" v="7210" />
	</node>
	<node id="9631539802" lat="61.0607936" lon="9.0523805" version="1" timestamp="2022-04-02T15:04:02Z" changeset="119237685" uid="3497659" user="NKA">
		<tag k="alt_name" v="Magistad, øvre" />
		<tag k="name" v="Øvre Magistad" />
		<tag k="place" v="farm" />
		<tag k="ssr:stedsnr" v="189813" />
	</node>
	<node id="9631539803" lat="61.0272143" lon="9.0799751" version="1" timestamp="2022-04-02T15:04:02Z" changeset="119237685" uid="3497659" user="NKA">
		<tag k="name" v="Vistemyren" />
		<tag k="place" v="farm" />
		<tag k="ssr:stedsnr" v="949814" />
	</node>
	<node id="9631539804" lat="61.057625" lon="8.8406278" version="1" timestamp="2022-04-02T15:04:02Z" changeset="119237685" uid="3497659" user="NKA">
		<tag k="alt_name" v="Øråkerstølen" />
		<tag k="historic" v="shieling" />
		<tag k="name" v="Øyråkerstølen" />
		<tag k="place" v="isolated_dwelling" />
		<tag k="ssr:stedsnr" v="857413" />
	</node>
	<node id="9631539805" lat="61.1319652" lon="8.7945292" version="1" timestamp="2022-04-02T15:04:02Z" changeset="119237685" uid="3497659" user="NKA">
		<tag k="name" v="Åstadvollen" />
		<tag k="place" v="farm" />
		<tag k="ssr:stedsnr" v="189310" />
	</node>
	<node id="9631539806" lat="61.062509" lon="9.0993792" version="1" timestamp="2022-04-02T15:04:02Z" changeset="119237685" uid="3497659" user="NKA">
		<tag k="name" v="Holte" />
		<tag k="place" v="farm" />
		<tag k="ssr:stedsnr" v="492835" />
	</node>
	<node id="9631539807" lat="61.123597" lon="8.8296592" version="1" timestamp="2022-04-02T15:04:02Z" changeset="119237685" uid="3497659" user="NKA">
		<tag k="alt_name" v="Kildeskogen" />
		<tag k="name" v="Kjeldeskogen" />
		<tag k="place" v="farm" />
		<tag k="ssr:stedsnr" v="128296" />
	</node>
	<node id="9631539808" lat="61.0893561" lon="8.9534494" version="1" timestamp="2022-04-02T15:04:02Z" changeset="119237685" uid="3497659" user="NKA">
		<tag k="alt_name" v="Heggeland" />
		<tag k="name" v="Heggland" />
		<tag k="place" v="farm" />
		<tag k="ssr:stedsnr" v="856219" />
	</node>
	<node id="9631539809" lat="61.1053694" lon="8.9327723" version="1" timestamp="2022-04-02T15:04:02Z" changeset="119237685" uid="3497659" user="NKA">
		<tag k="name" v="Viklund" />
		<tag k="place" v="farm" />
		<tag k="ssr:stedsnr" v="951401" />
	</node>
	<node id="9631539810" lat="61.0484528" lon="9.0735639" version="1" timestamp="2022-04-02T15:04:02Z" changeset="119237685" uid="3497659" user="NKA">
		<tag k="name" v="Haugen" />
		<tag k="place" v="farm" />
		<tag k="ssr:stedsnr" v="613815" />
	</node>
	<node id="9631539811" lat="61.040825" lon="8.7789001" version="1" timestamp="2022-04-02T15:04:02Z" changeset="119237685" uid="3497659" user="NKA">
		<tag k="alt_name" v="Svultstølen" />
		<tag k="historic" v="shieling" />
		<tag k="name" v="Svult" />
		<tag k="place" v="isolated_dwelling" />
		<tag k="ssr:stedsnr" v="371416" />
	</node>
	<node id="9631539812" lat="61.0206972" lon="9.0644309" version="1" timestamp="2022-04-02T15:04:02Z" changeset="119237685" uid="3497659" user="NKA">
		<tag k="alt_name" v="Tildheim" />
		<tag k="name" v="Søre Tildheim" />
		<tag k="place" v="farm" />
		<tag k="ssr:stedsnr" v="128782" />
	</node>
	<node id="9631539813" lat="61.0514" lon="8.8647" version="1" timestamp="2022-04-02T15:04:02Z" changeset="119237685" uid="3497659" user="NKA">
		<tag k="name" v="Viksyndin" />
		<tag k="place" v="hamlet" />
		<tag k="ssr:stedsnr" v="249848" />
	</node>
	<node id="9631539814" lat="61.0864012" lon="8.8680142" version="1" timestamp="2022-04-02T15:04:02Z" changeset="119237685" uid="3497659" user="NKA">
		<tag k="historic" v="shieling" />
		<tag k="name" v="Fjellstøladn" />
		<tag k="place" v="isolated_dwelling" />
		<tag k="ssr:stedsnr" v="344431" />
	</node>
	<node id="9631539815" lat="61.1020392" lon="8.940332" version="1" timestamp="2022-04-02T15:04:02Z" changeset="119237685" uid="3497659" user="NKA">
		<tag k="name" v="Hagalund" />
		<tag k="place" v="farm" />
		<tag k="ssr:stedsnr" v="41401" />
	</node>
	<node id="9631539816" lat="61.1263779" lon="8.8681692" version="1" timestamp="2022-04-02T15:04:02Z" changeset="119237685" uid="3497659" user="NKA">
		<tag k="alt_name" v="Haugene" />
		<tag k="name" v="Haugane" />
		<tag k="place" v="farm" />
		<tag k="ssr:stedsnr" v="128078" />
	</node>
	<node id="9631539817" lat="61.0727278" lon="8.7202612" version="1" timestamp="2022-04-02T15:04:02Z" changeset="119237685" uid="3497659" user="NKA">
		<tag k="alt_name" v="Gilen" />
		<tag k="historic" v="shieling" />
		<tag k="name" v="Gilastølane" />
		<tag k="place" v="hamlet" />
		<tag k="ssr:stedsnr" v="371384" />
	</node>
	<node id="9631539818" lat="61.1289896" lon="8.8249383" version="1" timestamp="2022-04-02T15:04:02Z" changeset="119237685" uid="3497659" user="NKA">
		<tag k="name" v="Gilabu" />
		<tag k="place" v="farm" />
		<tag k="ssr:stedsnr" v="189317" />
	</node>
	<node id="9631539819" lat="61.024545" lon="9.0594706" version="1" timestamp="2022-04-02T15:04:02Z" changeset="119237685" uid="3497659" user="NKA">
		<tag k="name" v="Hamarsnes" />
		<tag k="place" v="hamlet" />
		<tag k="ssr:stedsnr" v="986878" />
	</node>
	<node id="9631539820" lat="61.1290262" lon="8.9430986" version="1" timestamp="2022-04-02T15:04:02Z" changeset="119237685" uid="3497659" user="NKA">
		<tag k="name" v="Søre Løkje" />
		<tag k="place" v="farm" />
		<tag k="ssr:stedsnr" v="100097" />
	</node>
	<node id="9631539821" lat="60.95035" lon="8.830911" version="1" timestamp="2022-04-02T15:04:02Z" changeset="119237685" uid="3497659" user="NKA">
		<tag k="alt_name" v="Buodden" />
		<tag k="historic" v="shieling" />
		<tag k="name" v="Buoddestølen" />
		<tag k="place" v="isolated_dwelling" />
		<tag k="ssr:stedsnr" v="797866" />
	</node>
	<node id="9631539822" lat="61.1566971" lon="8.9216851" version="1" timestamp="2022-04-02T15:04:02Z" changeset="119237685" uid="3497659" user="NKA">
		<tag k="historic" v="shieling" />
		<tag k="name" v="Lomisstøl" />
		<tag k="place" v="isolated_dwelling" />
		<tag k="ssr:stedsnr" v="357791" />
	</node>
	<node id="9631539823" lat="60.957475" lon="8.6842111" version="1" timestamp="2022-04-02T15:04:02Z" changeset="119237685" uid="3497659" user="NKA">
		<tag k="historic" v="shieling" />
		<tag k="name" v="Tjørnstølen" />
		<tag k="place" v="isolated_dwelling" />
		<tag k="ssr:stedsnr" v="9756" />
	</node>
	<node id="9631539824" lat="61.0347152" lon="9.0907592" version="1" timestamp="2022-04-02T15:04:02Z" changeset="119237685" uid="3497659" user="NKA">
		<tag k="name" v="Myrvoll" />
		<tag k="place" v="farm" />
		<tag k="ssr:stedsnr" v="552820" />
	</node>
	<node id="9631539825" lat="61.0448806" lon="8.8322166" version="1" timestamp="2022-04-02T15:04:02Z" changeset="119237685" uid="3497659" user="NKA">
		<tag k="historic" v="shieling" />
		<tag k="name" v="Jomsstølen" />
		<tag k="place" v="isolated_dwelling" />
		<tag k="ssr:stedsnr" v="828338" />
	</node>
	<node id="9631539826" lat="61.0393062" lon="9.0345151" version="1" timestamp="2022-04-02T15:04:02Z" changeset="119237685" uid="3497659" user="NKA">
		<tag k="name" v="Myrtun" />
		<tag k="place" v="farm" />
		<tag k="ssr:stedsnr" v="587893" />
	</node>
	<node id="9631539827" lat="61.1185291" lon="8.8835573" version="1" timestamp="2022-04-02T15:04:02Z" changeset="119237685" uid="3497659" user="NKA">
		<tag k="name" v="Listad" />
		<tag k="place" v="farm" />
		<tag k="ssr:stedsnr" v="310120" />
	</node>
	<node id="9631539828" lat="61.0775702" lon="9.0059841" version="1" timestamp="2022-04-02T15:04:02Z" changeset="119237685" uid="3497659" user="NKA">
		<tag k="name" v="Trøen" />
		<tag k="place" v="farm" />
		<tag k="ssr:stedsnr" v="613241" />
	</node>
	<node id="9631539829" lat="60.9478536" lon="8.7238422" version="1" timestamp="2022-04-02T15:04:02Z" changeset="119237685" uid="3497659" user="NKA">
		<tag k="alt_name" v="Grunkestølen" />
		<tag k="historic" v="shieling" />
		<tag k="name" v="Søre Grunke" />
		<tag k="place" v="hamlet" />
		<tag k="ssr:stedsnr" v="919859" />
	</node>
	<node id="9631539830" lat="61.0450549" lon="9.0426471" version="1" timestamp="2022-04-02T15:04:02Z" changeset="119237685" uid="3497659" user="NKA">
		<tag k="name" v="Bergsund" />
		<tag k="place" v="farm" />
		<tag k="ssr:stedsnr" v="647895" />
	</node>
	<node id="9631539831" lat="61.1919944" lon="8.8813361" version="1" timestamp="2022-04-02T15:04:02Z" changeset="119237685" uid="3497659" user="NKA">
		<tag k="historic" v="shieling" />
		<tag k="name" v="Ulvildsete" />
		<tag k="place" v="hamlet" />
		<tag k="ssr:stedsnr" v="67007" />
	</node>
	<node id="9631539832" lat="61.0470972" lon="8.7600445" version="1" timestamp="2022-04-02T15:04:02Z" changeset="119237685" uid="3497659" user="NKA">
		<tag k="historic" v="shieling" />
		<tag k="name" v="Haslebrekkstølen" />
		<tag k="old_name" v="Haslebrekk" />
		<tag k="place" v="isolated_dwelling" />
		<tag k="ssr:stedsnr" v="796429" />
	</node>
	<node id="9631539833" lat="61.1335142" lon="8.937534" version="1" timestamp="2022-04-02T15:04:02Z" changeset="119237685" uid="3497659" user="NKA">
		<tag k="alt_name" v="Ringestad" />
		<tag k="name" v="Rengistad" />
		<tag k="place" v="farm" />
		<tag k="ssr:stedsnr" v="431114" />
	</node>
	<node id="9631539834" lat="61.1382722" lon="8.8946527" version="1" timestamp="2022-04-02T15:04:02Z" changeset="119237685" uid="3497659" user="NKA">
		<tag k="name" v="Solbu" />
		<tag k="place" v="farm" />
		<tag k="ssr:stedsnr" v="344071" />
	</node>
	<node id="9631539835" lat="61.0069969" lon="8.9072955" version="1" timestamp="2022-04-02T15:04:02Z" changeset="119237685" uid="3497659" user="NKA">
		<tag k="historic" v="shieling" />
		<tag k="name" v="Wiknesstølen" />
		<tag k="place" v="isolated_dwelling" />
		<tag k="ssr:stedsnr" v="587510" />
	</node>
	<node id="9631539836" lat="61.0280382" lon="8.8672502" version="1" timestamp="2022-04-02T15:04:02Z" changeset="119237685" uid="3497659" user="NKA">
		<tag k="historic" v="shieling" />
		<tag k="name" v="Vøllastølen" />
		<tag k="place" v="isolated_dwelling" />
		<tag k="ssr:stedsnr" v="223446" />
	</node>
	<node id="9631539837" lat="61.0943694" lon="8.9751694" version="1" timestamp="2022-04-02T15:04:02Z" changeset="119237685" uid="3497659" user="NKA">
		<tag k="name" v="Vollen" />
		<tag k="place" v="hamlet" />
		<tag k="ssr:stedsnr" v="795237" />
	</node>
	<node id="9631539838" lat="61.1443101" lon="8.8761908" version="1" timestamp="2022-04-02T15:04:02Z" changeset="119237685" uid="3497659" user="NKA">
		<tag k="name" v="Ellestad" />
		<tag k="place" v="farm" />
		<tag k="ssr:stedsnr" v="587687" />
	</node>
	<node id="9631539839" lat="61.033522" lon="9.08789" version="1" timestamp="2022-04-02T15:04:02Z" changeset="119237685" uid="3497659" user="NKA">
		<tag k="alt_name" v="Kirkeengen" />
		<tag k="loc_name" v="Kyrkjeenge" />
		<tag k="name" v="Kyrkengi" />
		<tag k="place" v="farm" />
		<tag k="ssr:stedsnr" v="221788" />
	</node>
	<node id="9631539840" lat="61.1045321" lon="8.9230238" version="1" timestamp="2022-04-02T15:04:02Z" changeset="119237685" uid="3497659" user="NKA">
		<tag k="name" v="Nygård" />
		<tag k="place" v="farm" />
		<tag k="ssr:stedsnr" v="405418" />
	</node>
	<node id="9631539841" lat="61.0516452" lon="9.0593636" version="1" timestamp="2022-04-02T15:04:02Z" changeset="119237685" uid="3497659" user="NKA">
		<tag k="name" v="Snortheim" />
		<tag k="place" v="farm" />
		<tag k="ssr:stedsnr" v="67822" />
	</node>
	<node id="9631539842" lat="61.0711324" lon="9.0380943" version="1" timestamp="2022-04-02T15:04:02Z" changeset="119237685" uid="3497659" user="NKA">
		<tag k="name" v="Lahaug" />
		<tag k="place" v="farm" />
		<tag k="ssr:stedsnr" v="796248" />
	</node>
	<node id="9631539843" lat="61.0013167" lon="8.963164" version="1" timestamp="2022-04-02T15:04:02Z" changeset="119237685" uid="3497659" user="NKA">
		<tag k="name" v="Dalastølen" />
		<tag k="place" v="isolated_dwelling" />
		<tag k="ssr:stedsnr" v="128759" />
	</node>
	<node id="9631539844" lat="61.1308033" lon="8.9323619" version="1" timestamp="2022-04-02T15:04:02Z" changeset="119237685" uid="3497659" user="NKA">
		<tag k="name" v="Bergo" />
		<tag k="place" v="isolated_dwelling" />
		<tag k="ssr:stedsnr" v="828067" />
	</node>
	<node id="9631539845" lat="61.1253194" lon="8.9719861" version="1" timestamp="2022-04-02T15:04:02Z" changeset="119237685" uid="3497659" user="NKA">
		<tag k="historic" v="shieling" />
		<tag k="name" v="Kvålsstøladn" />
		<tag k="place" v="isolated_dwelling" />
		<tag k="ssr:stedsnr" v="344674" />
	</node>
	<node id="9631539846" lat="61.0600744" lon="9.0471992" version="1" timestamp="2022-04-02T15:04:02Z" changeset="119237685" uid="3497659" user="NKA">
		<tag k="alt_name" v="Magistad, nedre" />
		<tag k="name" v="Nedre Magistad" />
		<tag k="place" v="farm" />
		<tag k="ssr:stedsnr" v="917838" />
	</node>
	<node id="9631539847" lat="61.1011903" lon="8.9422966" version="1" timestamp="2022-04-02T15:04:02Z" changeset="119237685" uid="3497659" user="NKA">
		<tag k="name" v="Hagen" />
		<tag k="place" v="farm" />
		<tag k="ssr:stedsnr" v="310171" />
	</node>
	<node id="9631539848" lat="60.9581611" lon="8.81915" version="1" timestamp="2022-04-02T15:04:02Z" changeset="119237685" uid="3497659" user="NKA">
		<tag k="alt_name" v="Svensken" />
		<tag k="historic" v="shieling" />
		<tag k="name" v="Svenskestølen" />
		<tag k="place" v="hamlet" />
		<tag k="ssr:stedsnr" v="251783" />
	</node>
	<node id="9631539849" lat="61.11875" lon="8.7726918" version="1" timestamp="2022-04-02T15:04:02Z" changeset="119237685" uid="3497659" user="NKA">
		<tag k="historic" v="shieling" />
		<tag k="name" v="Myrestølen" />
		<tag k="place" v="isolated_dwelling" />
		<tag k="ssr:stedsnr" v="553300" />
	</node>
	<node id="9631539850" lat="61.0810162" lon="9.0045833" version="1" timestamp="2022-04-02T15:04:02Z" changeset="119237685" uid="3497659" user="NKA">
		<tag k="name" v="Ringen" />
		<tag k="place" v="farm" />
		<tag k="ssr:stedsnr" v="613203" />
	</node>
	<node id="9631539851" lat="61.0169062" lon="9.0596965" version="1" timestamp="2022-04-02T15:04:02Z" changeset="119237685" uid="3497659" user="NKA">
		<tag k="name" v="Asplund" />
		<tag k="place" v="farm" />
		<tag k="ssr:stedsnr" v="344209" />
	</node>
	<node id="9631539852" lat="61.1118582" lon="8.8225743" version="1" timestamp="2022-04-02T15:04:02Z" changeset="119237685" uid="3497659" user="NKA">
		<tag k="alt_name" v="Ristestøl" />
		<tag k="name" v="Ystad" />
		<tag k="place" v="isolated_dwelling" />
		<tag k="ssr:stedsnr" v="431396" />
	</node>
	<node id="9631539853" lat="61.0730805" lon="8.9712333" version="1" timestamp="2022-04-02T15:04:02Z" changeset="119237685" uid="3497659" user="NKA">
		<tag k="alt_name" v="Dokken" />
		<tag k="name" v="Dokki" />
		<tag k="place" v="farm" />
		<tag k="ssr:stedsnr" v="674232" />
	</node>
	<node id="9631539854" lat="61.112" lon="8.8348972" version="1" timestamp="2022-04-02T15:04:02Z" changeset="119237685" uid="3497659" user="NKA">
		<tag k="historic" v="shieling" />
		<tag k="name" v="Ristestølane" />
		<tag k="place" v="isolated_dwelling" />
		<tag k="ssr:stedsnr" v="310367" />
	</node>
	<node id="9631539855" lat="61.0107333" lon="8.8054251" version="1" timestamp="2022-04-02T15:04:02Z" changeset="119237685" uid="3497659" user="NKA">
		<tag k="alt_name" v="Grønsenn" />
		<tag k="historic" v="shieling" />
		<tag k="name" v="Grønsennstølane" />
		<tag k="place" v="hamlet" />
		<tag k="ssr:stedsnr" v="674387" />
	</node>
	<node id="9631539856" lat="60.9241084" lon="8.837675" version="1" timestamp="2022-04-02T15:04:02Z" changeset="119237685" uid="3497659" user="NKA">
		<tag k="historic" v="shieling" />
		<tag k="name" v="Vistemyrstølen" />
		<tag k="place" v="isolated_dwelling" />
		<tag k="ssr:stedsnr" v="587779" />
	</node>
	<node id="9631539857" lat="61.108792" lon="8.9586542" version="1" timestamp="2022-04-02T15:04:02Z" changeset="119237685" uid="3497659" user="NKA">
		<tag k="name" v="Haugo" />
		<tag k="place" v="locality" />
		<tag k="ssr:stedsnr" v="1079706" />
	</node>
	<node id="9631539858" lat="61.0265389" lon="8.8579888" version="1" timestamp="2022-04-02T15:04:02Z" changeset="119237685" uid="3497659" user="NKA">
		<tag k="historic" v="shieling" />
		<tag k="name" v="Hausåkerstølen" />
		<tag k="place" v="isolated_dwelling" />
		<tag k="ssr:stedsnr" v="464344" />
	</node>
	<node id="9631539859" lat="61.08215" lon="9.0239333" version="1" timestamp="2022-04-02T15:04:02Z" changeset="119237685" uid="3497659" user="NKA">
		<tag k="name" v="Solvoll" />
		<tag k="place" v="farm" />
		<tag k="ssr:stedsnr" v="735213" />
	</node>
	<node id="9631539860" lat="61.1105414" lon="8.9251789" version="1" timestamp="2022-04-02T15:04:02Z" changeset="119237685" uid="3497659" user="NKA">
		<tag k="name" v="Sandaker" />
		<tag k="place" v="farm" />
		<tag k="ssr:stedsnr" v="162410" />
	</node>
	<node id="9631539861" lat="61.0846237" lon="9.0165994" version="1" timestamp="2022-04-02T15:04:02Z" changeset="119237685" uid="3497659" user="NKA">
		<tag k="name" v="Bekkevoll" />
		<tag k="place" v="farm" />
		<tag k="ssr:stedsnr" v="856211" />
	</node>
	<node id="9631539862" lat="60.9469695" lon="8.9272025" version="1" timestamp="2022-04-02T15:04:02Z" changeset="119237685" uid="3497659" user="NKA">
		<tag k="historic" v="shieling" />
		<tag k="name" v="Hodnestølen" />
		<tag k="place" v="isolated_dwelling" />
		<tag k="ssr:stedsnr" v="405271" />
	</node>
	<node id="9631539863" lat="61.1735444" lon="8.8708083" version="1" timestamp="2022-04-02T15:04:02Z" changeset="119237685" uid="3497659" user="NKA">
		<tag k="historic" v="shieling" />
		<tag k="name" v="Haldorsøygarden" />
		<tag k="place" v="isolated_dwelling" />
		<tag k="ssr:stedsnr" v="735026" />
	</node>
	<node id="9631539864" lat="61.0877201" lon="9.0127065" version="1" timestamp="2022-04-02T15:04:02Z" changeset="119237685" uid="3497659" user="NKA">
		<tag k="name" v="Garberg" />
		<tag k="place" v="isolated_dwelling" />
		<tag k="ssr:stedsnr" v="769955" />
	</node>
	<node id="9631539865" lat="61.1019921" lon="8.9697675" version="1" timestamp="2022-04-02T15:04:02Z" changeset="119237685" uid="3497659" user="NKA">
		<tag k="name" v="Fjellberg" />
		<tag k="place" v="farm" />
		<tag k="ssr:stedsnr" v="526589" />
	</node>
	<node id="9631539866" lat="60.9925392" lon="8.9805344" version="1" timestamp="2022-04-02T15:04:02Z" changeset="119237685" uid="3497659" user="NKA">
		<tag k="historic" v="shieling" />
		<tag k="name" v="Vistestølen" />
		<tag k="place" v="isolated_dwelling" />
		<tag k="ssr:stedsnr" v="769198" />
	</node>
	<node id="9631539867" lat="60.9508526" lon="8.8587986" version="1" timestamp="2022-04-02T15:04:02Z" changeset="119237685" uid="3497659" user="NKA">
		<tag k="alt_name" v="Tuvmarkenstølen" />
		<tag k="historic" v="shieling" />
		<tag k="name" v="Tuvmarkstølen" />
		<tag k="place" v="isolated_dwelling" />
		<tag k="ssr:stedsnr" v="405277" />
	</node>
	<node id="9631539868" lat="61.0211461" lon="9.0516774" version="1" timestamp="2022-04-02T15:04:02Z" changeset="119237685" uid="3497659" user="NKA">
		<tag k="name" v="Nygård" />
		<tag k="place" v="farm" />
		<tag k="ssr:stedsnr" v="466226" />
	</node>
	<node id="9631539869" lat="61.0459584" lon="9.0112288" version="1" timestamp="2022-04-02T15:04:02Z" changeset="119237685" uid="3497659" user="NKA">
		<tag k="name" v="Semeleng" />
		<tag k="place" v="hamlet" />
		<tag k="ssr:stedsnr" v="986876" />
	</node>
	<node id="9631539870" lat="61.0040306" lon="8.9160666" version="1" timestamp="2022-04-02T15:04:02Z" changeset="119237685" uid="3497659" user="NKA">
		<tag k="historic" v="shieling" />
		<tag k="name" v="Solsteinstølen" />
		<tag k="place" v="isolated_dwelling" />
		<tag k="ssr:stedsnr" v="769487" />
	</node>
	<node id="9631539871" lat="61.034408" lon="9.1501484" version="1" timestamp="2022-04-02T15:04:02Z" changeset="119237685" uid="3497659" user="NKA">
		<tag k="alt_name" v="Rogndokken;Raundokken" />
		<tag k="name" v="Raundokki" />
		<tag k="place" v="farm" />
		<tag k="ssr:stedsnr" v="856799" />
	</node>
	<node id="9631539872" lat="61.037205" lon="9.0781067" version="1" timestamp="2022-04-02T15:04:02Z" changeset="119237685" uid="3497659" user="NKA">
		<tag k="name" v="Oldrum" />
		<tag k="place" v="farm" />
		<tag k="ssr:stedsnr" v="613796" />
	</node>
	<node id="9631539873" lat="61.0419492" lon="8.8425035" version="1" timestamp="2022-04-02T15:04:02Z" changeset="119237685" uid="3497659" user="NKA">
		<tag k="historic" v="shieling" />
		<tag k="name" v="Myhrestølen" />
		<tag k="place" v="isolated_dwelling" />
		<tag k="ssr:stedsnr" v="889336" />
	</node>
	<node id="9631539874" lat="61.0953201" lon="8.9888152" version="1" timestamp="2022-04-02T15:04:02Z" changeset="119237685" uid="3497659" user="NKA">
		<tag k="name" v="Solheim" />
		<tag k="place" v="farm" />
		<tag k="ssr:stedsnr" v="223997" />
	</node>
	<node id="9631539875" lat="61.118533" lon="8.7910254" version="1" timestamp="2022-04-02T15:04:02Z" changeset="119237685" uid="3497659" user="NKA">
		<tag k="historic" v="shieling" />
		<tag k="name" v="Robølestøl" />
		<tag k="place" v="isolated_dwelling" />
		<tag k="ssr:stedsnr" v="786037" />
	</node>
	<node id="9631539876" lat="61.1120164" lon="8.961451" version="1" timestamp="2022-04-02T15:04:02Z" changeset="119237685" uid="3497659" user="NKA">
		<tag k="name" v="Bråten" />
		<tag k="place" v="farm" />
		<tag k="ssr:stedsnr" v="371149" />
	</node>
	<node id="9631539877" lat="61.035893" lon="9.0255527" version="1" timestamp="2022-04-02T15:04:02Z" changeset="119237685" uid="3497659" user="NKA">
		<tag k="name" v="Linjordet" />
		<tag k="place" v="farm" />
		<tag k="ssr:stedsnr" v="466902" />
	</node>
	<node id="9631539878" lat="61.0572032" lon="9.0492149" version="1" timestamp="2022-04-02T15:04:02Z" changeset="119237685" uid="3497659" user="NKA">
		<tag k="name" v="Rå" />
		<tag k="place" v="farm" />
		<tag k="ssr:stedsnr" v="431853" />
	</node>
	<node id="9631539879" lat="61.1206985" lon="8.88673" version="1" timestamp="2022-04-02T15:04:02Z" changeset="119237685" uid="3497659" user="NKA">
		<tag k="alt_name" v="Lykkja, nordre;Lykkja" />
		<tag k="name" v="Nørdre Lykkja" />
		<tag k="place" v="farm" />
		<tag k="ssr:stedsnr" v="249117" />
	</node>
	<node id="9631539880" lat="61.0172722" lon="8.9342529" version="1" timestamp="2022-04-02T15:04:02Z" changeset="119237685" uid="3497659" user="NKA">
		<tag k="name" v="Brakastølen" />
		<tag k="place" v="hamlet" />
		<tag k="ssr:stedsnr" v="613771" />
	</node>
	<node id="9631539881" lat="61.1463359" lon="8.8694925" version="1" timestamp="2022-04-02T15:04:02Z" changeset="119237685" uid="3497659" user="NKA">
		<tag k="alt_name" v="Ødegård;Ødegården" />
		<tag k="name" v="Øygarden" />
		<tag k="place" v="farm" />
		<tag k="ssr:stedsnr" v="250077" />
	</node>
	<node id="9631539882" lat="61.0512278" lon="8.9871972" version="1" timestamp="2022-04-02T15:04:02Z" changeset="119237685" uid="3497659" user="NKA">
		<tag k="alt_name" v="Mørken" />
		<tag k="name" v="Morki" />
		<tag k="place" v="farm" />
		<tag k="ssr:stedsnr" v="370846" />
	</node>
	<node id="9631539883" lat="61.0662667" lon="9.0475389" version="1" timestamp="2022-04-02T15:04:02Z" changeset="119237685" uid="3497659" user="NKA">
		<tag k="name" v="Reieshaugen" />
		<tag k="place" v="farm" />
		<tag k="ssr:stedsnr" v="371856" />
	</node>
	<node id="9631539884" lat="61.0517771" lon="8.8083143" version="1" timestamp="2022-04-02T15:04:02Z" changeset="119237685" uid="3497659" user="NKA">
		<tag k="alt_name" v="Soleikro" />
		<tag k="historic" v="shieling" />
		<tag k="name" v="Soleikrostølen" />
		<tag k="place" v="isolated_dwelling" />
		<tag k="ssr:stedsnr" v="432346" />
	</node>
	<node id="9631539885" lat="61.0561222" lon="8.9864556" version="1" timestamp="2022-04-02T15:04:02Z" changeset="119237685" uid="3497659" user="NKA">
		<tag k="name" v="Åsheim" />
		<tag k="place" v="hamlet" />
		<tag k="ssr:stedsnr" v="249852" />
	</node>
	<node id="9631539886" lat="60.9185944" lon="8.8763444" version="1" timestamp="2022-04-02T15:04:02Z" changeset="119237685" uid="3497659" user="NKA">
		<tag k="historic" v="shieling" />
		<tag k="name" v="Haugastølen" />
		<tag k="place" v="isolated_dwelling" />
		<tag k="ssr:stedsnr" v="828209" />
	</node>
	<node id="9631539887" lat="61.0783253" lon="8.7156346" version="1" timestamp="2022-04-02T15:04:02Z" changeset="119237685" uid="3497659" user="NKA">
		<tag k="historic" v="shieling" />
		<tag k="name" v="Tjednstølen" />
		<tag k="place" v="isolated_dwelling" />
		<tag k="ssr:stedsnr" v="128387" />
	</node>
	<node id="9631539888" lat="61.0241649" lon="8.9361272" version="1" timestamp="2022-04-02T15:04:02Z" changeset="119237685" uid="3497659" user="NKA">
		<tag k="historic" v="shieling" />
		<tag k="name" v="Hyllestølen" />
		<tag k="place" v="isolated_dwelling" />
		<tag k="ssr:stedsnr" v="41434" />
	</node>
	<node id="9631539889" lat="61.1262108" lon="8.814578" version="1" timestamp="2022-04-02T15:04:02Z" changeset="119237685" uid="3497659" user="NKA">
		<tag k="name" v="Bakke" />
		<tag k="place" v="farm" />
		<tag k="ssr:stedsnr" v="553329" />
	</node>
	<node id="9631539890" lat="61.1353306" lon="8.8164166" version="1" timestamp="2022-04-02T15:04:02Z" changeset="119237685" uid="3497659" user="NKA">
		<tag k="name" v="Lomen industriområde" />
		<tag k="place" v="neighbourhood" />
		<tag k="ssr:stedsnr" v="786226" />
	</node>
	<node id="9631539891" lat="61.030275" lon="8.9293916" version="1" timestamp="2022-04-02T15:04:02Z" changeset="119237685" uid="3497659" user="NKA">
		<tag k="historic" v="shieling" />
		<tag k="name" v="Steinsrudstølen" />
		<tag k="place" v="isolated_dwelling" />
		<tag k="ssr:stedsnr" v="249784" />
	</node>
	<node id="9631539892" lat="61.0673442" lon="8.7360459" version="1" timestamp="2022-04-02T15:04:02Z" changeset="119237685" uid="3497659" user="NKA">
		<tag k="historic" v="shieling" />
		<tag k="name" v="Båthaugen" />
		<tag k="place" v="isolated_dwelling" />
		<tag k="ssr:stedsnr" v="725801" />
	</node>
	<node id="9631539893" lat="61.1310921" lon="8.9491245" version="1" timestamp="2022-04-02T15:04:02Z" changeset="119237685" uid="3497659" user="NKA">
		<tag k="name" v="Haslebrekk" />
		<tag k="place" v="farm" />
		<tag k="ssr:stedsnr" v="613112" />
	</node>
	<node id="9631539894" lat="61.0076" lon="8.9478999" version="1" timestamp="2022-04-02T15:04:02Z" changeset="119237685" uid="3497659" user="NKA">
		<tag k="historic" v="shieling" />
		<tag k="name" v="Pålset" />
		<tag k="place" v="isolated_dwelling" />
		<tag k="ssr:stedsnr" v="67769" />
	</node>
	<node id="9631539895" lat="60.9569083" lon="8.8850722" version="1" timestamp="2022-04-02T15:04:02Z" changeset="119237685" uid="3497659" user="NKA">
		<tag k="historic" v="shieling" />
		<tag k="name" v="Lisjordstølen" />
		<tag k="place" v="isolated_dwelling" />
		<tag k="ssr:stedsnr" v="708271" />
	</node>
	<node id="9631539896" lat="61.0722664" lon="8.9965964" version="1" timestamp="2022-04-02T15:04:02Z" changeset="119237685" uid="3497659" user="NKA">
		<tag k="name" v="Ådnestøe" />
		<tag k="place" v="isolated_dwelling" />
		<tag k="ssr:stedsnr" v="769949" />
	</node>
	<node id="9631539897" lat="60.9855433" lon="8.9311442" version="1" timestamp="2022-04-02T15:04:02Z" changeset="119237685" uid="3497659" user="NKA">
		<tag k="historic" v="shieling" />
		<tag k="name" v="Opheimstølen" />
		<tag k="place" v="isolated_dwelling" />
		<tag k="ssr:stedsnr" v="102559" />
	</node>
	<node id="9631539898" lat="61.0854881" lon="9.0138872" version="1" timestamp="2022-04-02T15:04:02Z" changeset="119237685" uid="3497659" user="NKA">
		<tag k="name" v="Nesjabråten" />
		<tag k="place" v="isolated_dwelling" />
		<tag k="ssr:stedsnr" v="162968" />
	</node>
	<node id="9631539899" lat="61.0766891" lon="9.001236" version="1" timestamp="2022-04-02T15:04:02Z" changeset="119237685" uid="3497659" user="NKA">
		<tag k="name" v="Nesja" />
		<tag k="place" v="farm" />
		<tag k="ssr:stedsnr" v="917193" />
	</node>
	<node id="9631539900" lat="61.034226" lon="8.8943195" version="1" timestamp="2022-04-02T15:04:02Z" changeset="119237685" uid="3497659" user="NKA">
		<tag k="historic" v="shieling" />
		<tag k="name" v="Bakkastølen" />
		<tag k="place" v="isolated_dwelling" />
		<tag k="ssr:stedsnr" v="223450" />
	</node>
	<node id="9631539901" lat="61.0824841" lon="8.9923213" version="1" timestamp="2022-04-02T15:04:02Z" changeset="119237685" uid="3497659" user="NKA">
		<tag k="alt_name" v="Tun" />
		<tag k="name" v="Marenplassen" />
		<tag k="place" v="farm" />
		<tag k="ssr:stedsnr" v="917171" />
	</node>
	<node id="9631539902" lat="61.124729" lon="8.8360861" version="1" timestamp="2022-04-02T15:04:02Z" changeset="119237685" uid="3497659" user="NKA">
		<tag k="alt_name" v="Riste" />
		<tag k="name" v="Øvre Riste" />
		<tag k="place" v="farm" />
		<tag k="ssr:stedsnr" v="735325" />
	</node>
	<node id="9631539903" lat="60.9482687" lon="8.8659485" version="1" timestamp="2022-04-02T15:04:02Z" changeset="119237685" uid="3497659" user="NKA">
		<tag k="historic" v="shieling" />
		<tag k="name" v="Holtestølen" />
		<tag k="place" v="isolated_dwelling" />
		<tag k="ssr:stedsnr" v="223275" />
	</node>
	<node id="9631539904" lat="61.0518778" lon="8.8161916" version="1" timestamp="2022-04-02T15:04:02Z" changeset="119237685" uid="3497659" user="NKA">
		<tag k="historic" v="shieling" />
		<tag k="name" v="Haugostølen" />
		<tag k="place" v="isolated_dwelling" />
		<tag k="ssr:stedsnr" v="282306" />
	</node>
	<node id="9631539905" lat="61.0301559" lon="9.0428145" version="1" timestamp="2022-04-02T15:04:02Z" changeset="119237685" uid="3497659" user="NKA">
		<tag k="name" v="Fossheim" />
		<tag k="place" v="hamlet" />
		<tag k="ssr:stedsnr" v="249776" />
	</node>
	<node id="9631539906" lat="61.074745" lon="9.0146916" version="1" timestamp="2022-04-02T15:04:02Z" changeset="119237685" uid="3497659" user="NKA">
		<tag k="name" v="Bergheim" />
		<tag k="place" v="farm" />
		<tag k="ssr:stedsnr" v="917194" />
	</node>
	<node id="9631539907" lat="61.0872111" lon="8.9984194" version="1" timestamp="2022-04-02T15:04:02Z" changeset="119237685" uid="3497659" user="NKA">
		<tag k="name" v="Torsgarden" />
		<tag k="place" v="locality" />
		<tag k="ssr:stedsnr" v="162958" />
	</node>
	<node id="9631539908" lat="61.0327991" lon="9.1656314" version="1" timestamp="2022-04-02T15:04:02Z" changeset="119237685" uid="3497659" user="NKA">
		<tag k="name" v="Rognstad" />
		<tag k="place" v="farm" />
		<tag k="ssr:stedsnr" v="465980" />
	</node>
	<node id="9631539909" lat="61.0683111" lon="8.7775" version="1" timestamp="2022-04-02T15:04:02Z" changeset="119237685" uid="3497659" user="NKA">
		<tag k="historic" v="shieling" />
		<tag k="name" v="Holostølen" />
		<tag k="place" v="isolated_dwelling" />
		<tag k="ssr:stedsnr" v="492378" />
	</node>
	<node id="9631539910" lat="61.0362252" lon="9.0789741" version="1" timestamp="2022-04-02T15:04:02Z" changeset="119237685" uid="3497659" user="NKA">
		<tag k="name" v="Rudvang" />
		<tag k="place" v="farm" />
		<tag k="ssr:stedsnr" v="828787" />
	</node>
	<node id="9631539911" lat="61.1087252" lon="8.9289967" version="1" timestamp="2022-04-02T15:04:02Z" changeset="119237685" uid="3497659" user="NKA">
		<tag k="alt_name" v="Dokken" />
		<tag k="name" v="Dokki" />
		<tag k="place" v="farm" />
		<tag k="ssr:stedsnr" v="857161" />
	</node>
	<node id="9631539912" lat="61.0428953" lon="8.7618508" version="1" timestamp="2022-04-02T15:04:02Z" changeset="119237685" uid="3497659" user="NKA">
		<tag k="name" v="Sandbu" />
		<tag k="place" v="isolated_dwelling" />
		<tag k="ssr:stedsnr" v="221338" />
	</node>
	<node id="9631539913" lat="60.948025" lon="8.770214" version="1" timestamp="2022-04-02T15:04:02Z" changeset="119237685" uid="3497659" user="NKA">
		<tag k="alt_name" v="Bukono" />
		<tag k="historic" v="shieling" />
		<tag k="name" v="Bukonestølen" />
		<tag k="place" v="hamlet" />
		<tag k="ssr:stedsnr" v="433873" />
	</node>
	<node id="9631539914" lat="61.1185237" lon="8.8554055" version="1" timestamp="2022-04-02T15:04:02Z" changeset="119237685" uid="3497659" user="NKA">
		<tag k="name" v="Haugen" />
		<tag k="place" v="farm" />
		<tag k="ssr:stedsnr" v="371115" />
	</node>
	<node id="9631539915" lat="61.0373306" lon="9.165261" version="1" timestamp="2022-04-02T15:04:02Z" changeset="119237685" uid="3497659" user="NKA">
		<tag k="alt_name" v="Sælsbrøtadn" />
		<tag k="name" v="Ålund" />
		<tag k="place" v="farm" />
		<tag k="ssr:stedsnr" v="67803" />
	</node>
	<node id="9631539916" lat="61.0717305" lon="8.7665055" version="1" timestamp="2022-04-02T15:04:02Z" changeset="119237685" uid="3497659" user="NKA">
		<tag k="historic" v="shieling" />
		<tag k="name" v="Hagastølen" />
		<tag k="place" v="isolated_dwelling" />
		<tag k="ssr:stedsnr" v="310399" />
	</node>
	<node id="9631539917" lat="61.0483833" lon="8.8609997" version="1" timestamp="2022-04-02T15:04:02Z" changeset="119237685" uid="3497659" user="NKA">
		<tag k="historic" v="shieling" />
		<tag k="name" v="Dokkestølen" />
		<tag k="place" v="isolated_dwelling" />
		<tag k="ssr:stedsnr" v="780156" />
	</node>
	<node id="9631539918" lat="61.0793641" lon="8.9579966" version="1" timestamp="2022-04-02T15:04:02Z" changeset="119237685" uid="3497659" user="NKA">
		<tag k="alt_name" v="Hansegarden, søre;Hansegarden" />
		<tag k="name" v="Søre Hansegarden" />
		<tag k="place" v="farm" />
		<tag k="ssr:stedsnr" v="552225" />
	</node>
	<node id="9631539919" lat="61.127457" lon="8.8636111" version="1" timestamp="2022-04-02T15:04:02Z" changeset="119237685" uid="3497659" user="NKA">
		<tag k="name" v="Haugen" />
		<tag k="place" v="farm" />
		<tag k="ssr:stedsnr" v="587086" />
	</node>
	<node id="9631539920" lat="61.045979" lon="9.0073978" version="1" timestamp="2022-04-02T15:04:02Z" changeset="119237685" uid="3497659" user="NKA">
		<tag k="alt_name" v="Semelenge" />
		<tag k="name" v="Øvre Semeleng" />
		<tag k="place" v="farm" />
		<tag k="ssr:stedsnr" v="492812" />
	</node>
	<node id="9631539921" lat="61.030875" lon="9.08975" version="1" timestamp="2022-04-02T15:04:02Z" changeset="119237685" uid="3497659" user="NKA">
		<tag k="name" v="Ringbu" />
		<tag k="place" v="farm" />
		<tag k="ssr:stedsnr" v="585777" />
	</node>
	<node id="9631539922" lat="61.129593" lon="8.9562943" version="1" timestamp="2022-04-02T15:04:02Z" changeset="119237685" uid="3497659" user="NKA">
		<tag k="alt_name" v="Ørmestad" />
		<tag k="name" v="Ormestad" />
		<tag k="place" v="farm" />
		<tag k="ssr:stedsnr" v="674114" />
	</node>
	<node id="9631539923" lat="61.1159923" lon="8.918917" version="1" timestamp="2022-04-02T15:04:02Z" changeset="119237685" uid="3497659" user="NKA">
		<tag k="name" v="Hauge" />
		<tag k="place" v="farm" />
		<tag k="ssr:stedsnr" v="50648" />
	</node>
	<node id="9631539924" lat="60.9673283" lon="8.7764091" version="1" timestamp="2022-04-02T15:04:02Z" changeset="119237685" uid="3497659" user="NKA">
		<tag k="historic" v="shieling" />
		<tag k="name" v="Vikastølen" />
		<tag k="place" v="isolated_dwelling" />
		<tag k="ssr:stedsnr" v="41647" />
	</node>
	<node id="9631539925" lat="60.9370904" lon="8.9068437" version="1" timestamp="2022-04-02T15:04:02Z" changeset="119237685" uid="3497659" user="NKA">
		<tag k="historic" v="shieling" />
		<tag k="name" v="Lomtjernstølen" />
		<tag k="place" v="isolated_dwelling" />
		<tag k="ssr:stedsnr" v="405276" />
	</node>
	<node id="9631539926" lat="61.1549" lon="8.9222028" version="1" timestamp="2022-04-02T15:04:02Z" changeset="119237685" uid="3497659" user="NKA">
		<tag k="historic" v="shieling" />
		<tag k="name" v="Lomeslii" />
		<tag k="place" v="isolated_dwelling" />
		<tag k="ssr:stedsnr" v="492041" />
	</node>
	<node id="9631539927" lat="61.1128924" lon="8.9227291" version="1" timestamp="2022-04-02T15:04:02Z" changeset="119237685" uid="3497659" user="NKA">
		<tag k="name" v="Dalen" />
		<tag k="place" v="farm" />
		<tag k="ssr:stedsnr" v="674150" />
	</node>
	<node id="9631539928" lat="61.1237514" lon="8.8801731" version="1" timestamp="2022-04-02T15:04:02Z" changeset="119237685" uid="3497659" user="NKA">
		<tag k="alt_name" v="Trøsvik" />
		<tag k="name" v="Trosvik" />
		<tag k="place" v="farm" />
		<tag k="ssr:stedsnr" v="128087" />
	</node>
	<node id="9631539929" lat="60.9888194" lon="8.9807195" version="1" timestamp="2022-04-02T15:04:02Z" changeset="119237685" uid="3497659" user="NKA">
		<tag k="historic" v="shieling" />
		<tag k="name" v="Kvålsstølen" />
		<tag k="place" v="isolated_dwelling" />
		<tag k="ssr:stedsnr" v="891238" />
	</node>
	<node id="9631539930" lat="61.134936" lon="8.9161852" version="1" timestamp="2022-04-02T15:04:02Z" changeset="119237685" uid="3497659" user="NKA">
		<tag k="name" v="Lomur" />
		<tag k="place" v="farm" />
		<tag k="ssr:stedsnr" v="647103" />
	</node>
	<node id="9631539931" lat="61.1333624" lon="8.9152155" version="1" timestamp="2022-04-02T15:04:02Z" changeset="119237685" uid="3497659" user="NKA">
		<tag k="name" v="Lome" />
		<tag k="place" v="farm" />
		<tag k="ssr:stedsnr" v="41082" />
	</node>
	<node id="9631539932" lat="61.0199418" lon="9.0710006" version="1" timestamp="2022-04-02T15:04:02Z" changeset="119237685" uid="3497659" user="NKA">
		<tag k="name" v="Viken" />
		<tag k="place" v="isolated_dwelling" />
		<tag k="ssr:stedsnr" v="767842" />
	</node>
	<node id="9631539933" lat="61.12415" lon="8.8416996" version="1" timestamp="2022-04-02T15:04:02Z" changeset="119237685" uid="3497659" user="NKA">
		<tag k="name" v="Riste" />
		<tag k="place" v="farm" />
		<tag k="ssr:stedsnr" v="986820" />
	</node>
	<node id="9631539934" lat="61.0870089" lon="8.9025088" version="1" timestamp="2022-04-02T15:04:02Z" changeset="119237685" uid="3497659" user="NKA">
		<tag k="historic" v="shieling" />
		<tag k="name" v="Vikstølen" />
		<tag k="place" v="isolated_dwelling" />
		<tag k="ssr:stedsnr" v="674211" />
	</node>
	<node id="9631539935" lat="61.0339659" lon="9.1644201" version="1" timestamp="2022-04-02T15:04:02Z" changeset="119237685" uid="3497659" user="NKA">
		<tag k="name" v="Voll" />
		<tag k="place" v="farm" />
		<tag k="ssr:stedsnr" v="161969" />
	</node>
	<node id="9631539936" lat="61.0017698" lon="8.9345056" version="1" timestamp="2022-04-02T15:04:02Z" changeset="119237685" uid="3497659" user="NKA">
		<tag k="historic" v="shieling" />
		<tag k="name" v="Dalastølen" />
		<tag k="place" v="isolated_dwelling" />
		<tag k="ssr:stedsnr" v="526465" />
	</node>
	<node id="9631539937" lat="61.0850306" lon="8.8687417" version="1" timestamp="2022-04-02T15:04:02Z" changeset="119237685" uid="3497659" user="NKA">
		<tag k="historic" v="shieling" />
		<tag k="name" v="Haugstølen" />
		<tag k="place" v="isolated_dwelling" />
		<tag k="ssr:stedsnr" v="613208" />
	</node>
	<node id="9631539938" lat="61.1130239" lon="8.9579116" version="1" timestamp="2022-04-02T15:04:02Z" changeset="119237685" uid="3497659" user="NKA">
		<tag k="name" v="Bjerke" />
		<tag k="place" v="farm" />
		<tag k="ssr:stedsnr" v="344413" />
	</node>
	<node id="9631539939" lat="61.0463872" lon="8.8290291" version="1" timestamp="2022-04-02T15:04:02Z" changeset="119237685" uid="3497659" user="NKA">
		<tag k="historic" v="shieling" />
		<tag k="name" v="Kvålsstølen" />
		<tag k="place" v="isolated_dwelling" />
		<tag k="ssr:stedsnr" v="707370" />
	</node>
	<node id="9631539940" lat="61.1428805" lon="8.9581556" version="1" timestamp="2022-04-02T15:04:02Z" changeset="119237685" uid="3497659" user="NKA">
		<tag k="name" v="Perstølen" />
		<tag k="place" v="locality" />
		<tag k="ssr:stedsnr" v="370122" />
	</node>
	<node id="9631539941" lat="61.0379592" lon="9.086734" version="1" timestamp="2022-04-02T15:04:02Z" changeset="119237685" uid="3497659" user="NKA">
		<tag k="name" v="Sjåheim" />
		<tag k="place" v="locality" />
		<tag k="ssr:stedsnr" v="830907" />
	</node>
	<node id="9631539942" lat="61.0417283" lon="9.0641399" version="1" timestamp="2022-04-02T15:04:02Z" changeset="119237685" uid="3497659" user="NKA">
		<tag k="name" v="Rønheim" />
		<tag k="place" v="farm" />
		<tag k="ssr:stedsnr" v="466918" />
	</node>
	<node id="9631539943" lat="61.1355229" lon="8.8342983" version="1" timestamp="2022-04-02T15:04:02Z" changeset="119237685" uid="3497659" user="NKA">
		<tag k="name" v="Lo" />
		<tag k="place" v="hamlet" />
		<tag k="ssr:stedsnr" v="310278" />
	</node>
	<node id="9631539944" lat="61.0038439" lon="9.0126822" version="1" timestamp="2022-04-02T15:04:02Z" changeset="119237685" uid="3497659" user="NKA">
		<tag k="historic" v="shieling" />
		<tag k="name" v="Solli" />
		<tag k="place" v="isolated_dwelling" />
		<tag k="ssr:stedsnr" v="464258" />
	</node>
	<node id="9631539945" lat="61.1197911" lon="8.9567658" version="1" timestamp="2022-04-02T15:04:02Z" changeset="119237685" uid="3497659" user="NKA">
		<tag k="alt_name" v="Bygselen" />
		<tag k="name" v="Bygslet" />
		<tag k="place" v="farm" />
		<tag k="ssr:stedsnr" v="371138" />
	</node>
	<node id="9631539946" lat="61.119676" lon="8.7966929" version="1" timestamp="2022-04-02T15:04:02Z" changeset="119237685" uid="3497659" user="NKA">
		<tag k="historic" v="shieling" />
		<tag k="name" v="Grytestølen" />
		<tag k="place" v="isolated_dwelling" />
		<tag k="ssr:stedsnr" v="189294" />
	</node>
	<node id="9631539947" lat="61.0277119" lon="8.755907" version="1" timestamp="2022-04-02T15:04:02Z" changeset="119237685" uid="3497659" user="NKA">
		<tag k="historic" v="shieling" />
		<tag k="name" v="Høvsstølen" />
		<tag k="place" v="isolated_dwelling" />
		<tag k="ssr:stedsnr" v="476054" />
	</node>
	<node id="9631539948" lat="61.0496098" lon="8.9913812" version="1" timestamp="2022-04-02T15:04:02Z" changeset="119237685" uid="3497659" user="NKA">
		<tag k="name" v="Haugrud" />
		<tag k="place" v="farm" />
		<tag k="ssr:stedsnr" v="128818" />
	</node>
	<node id="9631539949" lat="60.951325" lon="8.8312112" version="1" timestamp="2022-04-02T15:04:02Z" changeset="119237685" uid="3497659" user="NKA">
		<tag k="historic" v="shieling" />
		<tag k="name" v="Rønsstølane" />
		<tag k="place" v="isolated_dwelling" />
		<tag k="ssr:stedsnr" v="223786" />
	</node>
	<node id="9631539950" lat="61.0548601" lon="8.982673" version="1" timestamp="2022-04-02T15:04:02Z" changeset="119237685" uid="3497659" user="NKA">
		<tag k="name" v="Granli" />
		<tag k="place" v="farm" />
		<tag k="ssr:stedsnr" v="856865" />
	</node>
	<node id="9631539951" lat="61.0373369" lon="9.0193067" version="1" timestamp="2022-04-02T15:04:02Z" changeset="119237685" uid="3497659" user="NKA">
		<tag k="name" v="Øde" />
		<tag k="place" v="hamlet" />
		<tag k="ssr:stedsnr" v="371811" />
	</node>
	<node id="9631539952" lat="61.0894271" lon="8.8594912" version="1" timestamp="2022-04-02T15:04:02Z" changeset="119237685" uid="3497659" user="NKA">
		<tag k="name" v="Bekkestua" />
		<tag k="place" v="isolated_dwelling" />
		<tag k="ssr:stedsnr" v="526228" />
	</node>
	<node id="9631539953" lat="61.0618778" lon="8.9969944" version="1" timestamp="2022-04-02T15:04:02Z" changeset="119237685" uid="3497659" user="NKA">
		<tag k="name" v="Bradden" />
		<tag k="place" v="farm" />
		<tag k="ssr:stedsnr" v="249853" />
	</node>
	<node id="9631539954" lat="61.1508746" lon="8.9755343" version="1" timestamp="2022-04-02T15:04:02Z" changeset="119237685" uid="3497659" user="NKA">
		<tag k="name" v="Løkjesjordet" />
		<tag k="place" v="locality" />
		<tag k="ssr:stedsnr" v="674080" />
	</node>
	<node id="9631539955" lat="61.0247122" lon="9.0581017" version="1" timestamp="2022-04-02T15:04:02Z" changeset="119237685" uid="3497659" user="NKA">
		<tag k="alt_name" v="Hammarsnes" />
		<tag k="name" v="Nørdre Hamarsnes" />
		<tag k="place" v="farm" />
		<tag k="ssr:stedsnr" v="674779" />
	</node>
	<node id="9631539956" lat="60.9332361" lon="8.7753555" version="1" timestamp="2022-04-02T15:04:02Z" changeset="119237685" uid="3497659" user="NKA">
		<tag k="historic" v="shieling" />
		<tag k="name" v="Lisetstølen" />
		<tag k="place" v="isolated_dwelling" />
		<tag k="ssr:stedsnr" v="130840" />
	</node>
	<node id="9631539957" lat="61.0456141" lon="9.026946" version="1" timestamp="2022-04-02T15:04:02Z" changeset="119237685" uid="3497659" user="NKA">
		<tag k="alt_name" v="Hølli, nedre;Nedre Holden" />
		<tag k="name" v="Nedre Hølli" />
		<tag k="place" v="farm" />
		<tag k="ssr:stedsnr" v="189800" />
	</node>
	<node id="9631539958" lat="60.9621068" lon="8.9076184" version="1" timestamp="2022-04-02T15:04:02Z" changeset="119237685" uid="3497659" user="NKA">
		<tag k="historic" v="shieling" />
		<tag k="name" v="Nordåkerstølen" />
		<tag k="place" v="isolated_dwelling" />
		<tag k="ssr:stedsnr" v="708274" />
	</node>
	<node id="9631539959" lat="61.1083" lon="8.8425971" version="1" timestamp="2022-04-02T15:04:02Z" changeset="119237685" uid="3497659" user="NKA">
		<tag k="historic" v="shieling" />
		<tag k="name" v="Hovdastølen" />
		<tag k="place" v="isolated_dwelling" />
		<tag k="ssr:stedsnr" v="917348" />
	</node>
	<node id="9631539960" lat="61.1045694" lon="8.9384011" version="1" timestamp="2022-04-02T15:04:02Z" changeset="119237685" uid="3497659" user="NKA">
		<tag k="name" v="Vik" />
		<tag k="place" v="hamlet" />
		<tag k="ssr:stedsnr" v="735181" />
	</node>
	<node id="9631539961" lat="61.121183" lon="8.9569004" version="1" timestamp="2022-04-02T15:04:02Z" changeset="119237685" uid="3497659" user="NKA">
		<tag k="name" v="Kvåle" />
		<tag k="place" v="hamlet" />
		<tag k="ssr:stedsnr" v="67157" />
	</node>
	<node id="9631539962" lat="61.0597672" lon="8.9919922" version="1" timestamp="2022-04-02T15:04:02Z" changeset="119237685" uid="3497659" user="NKA">
		<tag k="name" v="Jordheim" />
		<tag k="place" v="farm" />
		<tag k="ssr:stedsnr" v="917856" />
	</node>
	<node id="9631539963" lat="61.1240081" lon="8.8613132" version="1" timestamp="2022-04-02T15:04:02Z" changeset="119237685" uid="3497659" user="NKA">
		<tag k="name" v="Førshaugen" />
		<tag k="place" v="farm" />
		<tag k="ssr:stedsnr" v="708103" />
	</node>
	<node id="9631539964" lat="61.0756241" lon="9.0244521" version="1" timestamp="2022-04-02T15:04:02Z" changeset="119237685" uid="3497659" user="NKA">
		<tag k="name" v="Handestølen" />
		<tag k="place" v="farm" />
		<tag k="ssr:stedsnr" v="796245" />
	</node>
	<node id="9631539965" lat="61.1255188" lon="8.97102" version="1" timestamp="2022-04-02T15:04:02Z" changeset="119237685" uid="3497659" user="NKA">
		<tag k="alt_name" v="Kvålsstøladn" />
		<tag k="historic" v="shieling" />
		<tag k="name" v="Kvålsstølane" />
		<tag k="place" v="isolated_dwelling" />
		<tag k="ssr:stedsnr" v="674140" />
	</node>
	<node id="9631539966" lat="60.9915722" lon="8.9643495" version="1" timestamp="2022-04-02T15:04:02Z" changeset="119237685" uid="3497659" user="NKA">
		<tag k="historic" v="shieling" />
		<tag k="name" v="Vistestølen" />
		<tag k="place" v="isolated_dwelling" />
		<tag k="ssr:stedsnr" v="494076" />
	</node>
	<node id="9631539967" lat="61.0634219" lon="8.9970605" version="1" timestamp="2022-04-02T15:04:02Z" changeset="119237685" uid="3497659" user="NKA">
		<tag k="name" v="Mo" />
		<tag k="place" v="hamlet" />
		<tag k="ssr:stedsnr" v="68850" />
	</node>
	<node id="9631539968" lat="61.042189" lon="9.0313524" version="1" timestamp="2022-04-02T15:04:02Z" changeset="119237685" uid="3497659" user="NKA">
		<tag k="name" v="Bergtun" />
		<tag k="place" v="isolated_dwelling" />
		<tag k="ssr:stedsnr" v="41879" />
	</node>
	<node id="9631539969" lat="61.0269101" lon="9.0456643" version="1" timestamp="2022-04-02T15:04:02Z" changeset="119237685" uid="3497659" user="NKA">
		<tag k="name" v="Reina" />
		<tag k="place" v="farm" />
		<tag k="ssr:stedsnr" v="526836" />
	</node>
	<node id="9631539970" lat="61.0235378" lon="9.0574727" version="1" timestamp="2022-04-02T15:04:02Z" changeset="119237685" uid="3497659" user="NKA">
		<tag k="name" v="Hagen" />
		<tag k="place" v="farm" />
		<tag k="ssr:stedsnr" v="830838" />
	</node>
	<node id="9631539971" lat="61.0786783" lon="8.9662742" version="1" timestamp="2022-04-02T15:04:02Z" changeset="119237685" uid="3497659" user="NKA">
		<tag k="name" v="Eng" />
		<tag k="place" v="farm" />
		<tag k="ssr:stedsnr" v="7237" />
	</node>
	<node id="9631539972" lat="61.0489834" lon="8.859713" version="1" timestamp="2022-04-02T15:04:02Z" changeset="119237685" uid="3497659" user="NKA">
		<tag k="historic" v="shieling" />
		<tag k="name" v="Bakkestølen" />
		<tag k="place" v="isolated_dwelling" />
		<tag k="ssr:stedsnr" v="597147" />
	</node>
	<node id="9631539973" lat="60.9586361" lon="8.8907972" version="1" timestamp="2022-04-02T15:04:02Z" changeset="119237685" uid="3497659" user="NKA">
		<tag k="alt_name" v="Rensenn" />
		<tag k="historic" v="shieling" />
		<tag k="name" v="Reinsenn" />
		<tag k="place" v="hamlet" />
		<tag k="ssr:stedsnr" v="373103" />
	</node>
	<node id="9631539974" lat="61.1035241" lon="8.8832623" version="1" timestamp="2022-04-02T15:04:02Z" changeset="119237685" uid="3497659" user="NKA">
		<tag k="historic" v="shieling" />
		<tag k="name" v="Haldorset" />
		<tag k="place" v="isolated_dwelling" />
		<tag k="ssr:stedsnr" v="128127" />
	</node>
	<node id="9631539975" lat="61.065535" lon="9.0270623" version="1" timestamp="2022-04-02T15:04:02Z" changeset="119237685" uid="3497659" user="NKA">
		<tag k="name" v="Søre Hande" />
		<tag k="place" v="farm" />
		<tag k="ssr:stedsnr" v="891977" />
	</node>
	<node id="9631539976" lat="61.0714999" lon="8.7217886" version="1" timestamp="2022-04-02T15:04:02Z" changeset="119237685" uid="3497659" user="NKA">
		<tag k="historic" v="shieling" />
		<tag k="name" v="Langhaug" />
		<tag k="place" v="isolated_dwelling" />
		<tag k="ssr:stedsnr" v="422842" />
	</node>
	<node id="9631539977" lat="61.1337461" lon="8.8923084" version="1" timestamp="2022-04-02T15:04:02Z" changeset="119237685" uid="3497659" user="NKA">
		<tag k="alt_name" v="Hove" />
		<tag k="name" v="Høve" />
		<tag k="place" v="farm" />
		<tag k="ssr:stedsnr" v="310106" />
	</node>
	<node id="9631539978" lat="61.0197629" lon="9.0531148" version="1" timestamp="2022-04-02T15:04:02Z" changeset="119237685" uid="3497659" user="NKA">
		<tag k="name" v="Oppheim" />
		<tag k="place" v="farm" />
		<tag k="ssr:stedsnr" v="7777" />
	</node>
	<node id="9631539979" lat="61.1271389" lon="8.8124234" version="1" timestamp="2022-04-02T15:04:02Z" changeset="119237685" uid="3497659" user="NKA">
		<tag k="name" v="Gullhaug" />
		<tag k="place" v="farm" />
		<tag k="ssr:stedsnr" v="492315" />
	</node>
	<node id="9631539980" lat="61.0594556" lon="8.9561139" version="1" timestamp="2022-04-02T15:04:02Z" changeset="119237685" uid="3497659" user="NKA">
		<tag k="historic" v="shieling" />
		<tag k="name" v="Hauglandstølen" />
		<tag k="place" v="isolated_dwelling" />
		<tag k="ssr:stedsnr" v="917855" />
	</node>
	<node id="9631539981" lat="60.9230445" lon="8.8685082" version="1" timestamp="2022-04-02T15:04:02Z" changeset="119237685" uid="3497659" user="NKA">
		<tag k="historic" v="shieling" />
		<tag k="name" v="Flisøystølan" />
		<tag k="place" v="hamlet" />
		<tag k="ssr:stedsnr" v="494347" />
	</node>
	<node id="9631539982" lat="61.1191476" lon="8.8953685" version="1" timestamp="2022-04-02T15:04:02Z" changeset="119237685" uid="3497659" user="NKA">
		<tag k="name" v="Vestli" />
		<tag k="place" v="farm" />
		<tag k="ssr:stedsnr" v="249119" />
	</node>
	<node id="9631539983" lat="61.0286834" lon="9.0986917" version="1" timestamp="2022-04-02T15:04:02Z" changeset="119237685" uid="3497659" user="NKA">
		<tag k="name" v="Solheim" />
		<tag k="place" v="farm" />
		<tag k="ssr:stedsnr" v="735783" />
	</node>
	<node id="9631539984" lat="60.949125" lon="8.680425" version="1" timestamp="2022-04-02T15:04:02Z" changeset="119237685" uid="3497659" user="NKA">
		<tag k="historic" v="shieling" />
		<tag k="name" v="Pikhaugstølen" />
		<tag k="place" v="isolated_dwelling" />
		<tag k="ssr:stedsnr" v="372884" />
	</node>
	<node id="9631539985" lat="61.0785202" lon="8.7364998" version="1" timestamp="2022-04-02T15:04:02Z" changeset="119237685" uid="3497659" user="NKA">
		<tag k="name" v="Gammelstogo" />
		<tag k="place" v="isolated_dwelling" />
		<tag k="ssr:stedsnr" v="718530" />
	</node>
	<node id="9631539986" lat="61.0602997" lon="9.0499641" version="1" timestamp="2022-04-02T15:04:02Z" changeset="119237685" uid="3497659" user="NKA">
		<tag k="name" v="Magistad" />
		<tag k="place" v="hamlet" />
		<tag k="ssr:stedsnr" v="1080340" />
	</node>
	<node id="9631539987" lat="61.0681404" lon="9.0261179" version="1" timestamp="2022-04-02T15:04:02Z" changeset="119237685" uid="3497659" user="NKA">
		<tag k="alt_name" v="Hande;Hande, øvre" />
		<tag k="name" v="Øvre Hande" />
		<tag k="place" v="farm" />
		<tag k="ssr:stedsnr" v="7860" />
	</node>
	<node id="9631539988" lat="61.1287025" lon="8.8533262" version="1" timestamp="2022-04-02T15:04:02Z" changeset="119237685" uid="3497659" user="NKA">
		<tag k="alt_name" v="Feet" />
		<tag k="name" v="Fet" />
		<tag k="place" v="farm" />
		<tag k="ssr:stedsnr" v="735098" />
	</node>
	<node id="9631539989" lat="61.0659816" lon="8.9918552" version="1" timestamp="2022-04-02T15:04:02Z" changeset="119237685" uid="3497659" user="NKA">
		<tag k="name" v="Nerstad" />
		<tag k="place" v="farm" />
		<tag k="ssr:stedsnr" v="492855" />
	</node>
	<node id="9631539990" lat="61.1279202" lon="8.9470342" version="1" timestamp="2022-04-02T15:04:02Z" changeset="119237685" uid="3497659" user="NKA">
		<tag k="name" v="Teigstolen" />
		<tag k="place" v="farm" />
		<tag k="ssr:stedsnr" v="100093" />
	</node>
	<node id="9631539991" lat="60.959725" lon="8.6898583" version="1" timestamp="2022-04-02T15:04:02Z" changeset="119237685" uid="3497659" user="NKA">
		<tag k="name" v="Larsgarden" />
		<tag k="place" v="isolated_dwelling" />
		<tag k="ssr:stedsnr" v="797766" />
	</node>
	<node id="9631539992" lat="61.1287423" lon="8.9392941" version="1" timestamp="2022-04-02T15:04:02Z" changeset="119237685" uid="3497659" user="NKA">
		<tag k="alt_name" v="Løken" />
		<tag k="name" v="Løkje" />
		<tag k="place" v="hamlet" />
		<tag k="ssr:stedsnr" v="100096" />
	</node>
	<node id="9631539993" lat="61.0006198" lon="8.9642604" version="1" timestamp="2022-04-02T15:04:02Z" changeset="119237685" uid="3497659" user="NKA">
		<tag k="name" v="Pålset hyttegrend" />
		<tag k="place" v="neighbourhood" />
		<tag k="ssr:stedsnr" v="1079893" />
	</node>
	<node id="9631539994" lat="61.0647111" lon="8.7828416" version="1" timestamp="2022-04-02T15:04:02Z" changeset="119237685" uid="3497659" user="NKA">
		<tag k="historic" v="shieling" />
		<tag k="name" v="Ristestølen" />
		<tag k="place" v="isolated_dwelling" />
		<tag k="ssr:stedsnr" v="917367" />
	</node>
	<node id="9631539995" lat="61.0227559" lon="9.0579171" version="1" timestamp="2022-04-02T15:04:02Z" changeset="119237685" uid="3497659" user="NKA">
		<tag k="name" v="Hamarstad" />
		<tag k="place" v="farm" />
		<tag k="ssr:stedsnr" v="888823" />
	</node>
	<node id="9631539996" lat="61.1111098" lon="8.9282229" version="1" timestamp="2022-04-02T15:04:02Z" changeset="119237685" uid="3497659" user="NKA">
		<tag k="alt_name" v="Myren" />
		<tag k="name" v="Myri" />
		<tag k="place" v="farm" />
		<tag k="ssr:stedsnr" v="796151" />
	</node>
	<node id="9631539997" lat="61.1248819" lon="8.9502064" version="1" timestamp="2022-04-02T15:04:02Z" changeset="119237685" uid="3497659" user="NKA">
		<tag k="name" v="Forohaugen" />
		<tag k="place" v="farm" />
		<tag k="ssr:stedsnr" v="100089" />
	</node>
	<node id="9631539998" lat="61.1048035" lon="8.9613381" version="1" timestamp="2022-04-02T15:04:02Z" changeset="119237685" uid="3497659" user="NKA">
		<tag k="name" v="Hausåker" />
		<tag k="place" v="farm" />
		<tag k="ssr:stedsnr" v="986851" />
	</node>
	<node id="9631539999" lat="61.1176642" lon="8.9556252" version="1" timestamp="2022-04-02T15:04:02Z" changeset="119237685" uid="3497659" user="NKA">
		<tag k="name" v="Bråten" />
		<tag k="place" v="farm" />
		<tag k="ssr:stedsnr" v="856139" />
	</node>
	<node id="9631540000" lat="61.1168286" lon="8.9142062" version="1" timestamp="2022-04-02T15:04:02Z" changeset="119237685" uid="3497659" user="NKA">
		<tag k="name" v="Øyråker" />
		<tag k="place" v="hamlet" />
		<tag k="ssr:stedsnr" v="986828" />
	</node>
	<node id="9631540001" lat="61.0206202" lon="9.0626189" version="1" timestamp="2022-04-02T15:04:02Z" changeset="119237685" uid="3497659" user="NKA">
		<tag k="name" v="Øvre Tildheim" />
		<tag k="place" v="farm" />
		<tag k="ssr:stedsnr" v="403842" />
	</node>
	<node id="9631540002" lat="61.1347214" lon="8.9312783" version="1" timestamp="2022-04-02T15:04:02Z" changeset="119237685" uid="3497659" user="NKA">
		<tag k="alt_name" v="Hauge, øvre" />
		<tag k="name" v="Øvre Hauge" />
		<tag k="place" v="farm" />
		<tag k="ssr:stedsnr" v="67114" />
	</node>
	<node id="9631540003" lat="61.0295292" lon="9.094368" version="1" timestamp="2022-04-02T15:04:02Z" changeset="119237685" uid="3497659" user="NKA">
		<tag k="name" v="Ødegården" />
		<tag k="place" v="farm" />
		<tag k="ssr:stedsnr" v="584840" />
	</node>
	<node id="9631540004" lat="61.0416742" lon="8.9057473" version="1" timestamp="2022-04-02T15:04:02Z" changeset="119237685" uid="3497659" user="NKA">
		<tag k="historic" v="shieling" />
		<tag k="name" v="Trillestølen" />
		<tag k="place" v="hamlet" />
		<tag k="ssr:stedsnr" v="310816" />
	</node>
	<node id="9631540005" lat="61.0463445" lon="8.9930014" version="1" timestamp="2022-04-02T15:04:02Z" changeset="119237685" uid="3497659" user="NKA">
		<tag k="name" v="Anfinnplassen" />
		<tag k="place" v="farm" />
		<tag k="ssr:stedsnr" v="405898" />
	</node>
	<node id="9631540006" lat="61.026525" lon="8.8676" version="1" timestamp="2022-04-02T15:04:02Z" changeset="119237685" uid="3497659" user="NKA">
		<tag k="alt_name" v="Trollhovd, nordre;Trollhovd" />
		<tag k="name" v="Nørdre Trollhovd" />
		<tag k="place" v="hamlet" />
		<tag k="ssr:stedsnr" v="67797" />
	</node>
	<node id="9631540007" lat="61.074025" lon="9.0264778" version="1" timestamp="2022-04-02T15:04:02Z" changeset="119237685" uid="3497659" user="NKA">
		<tag k="name" v="Skogheim" />
		<tag k="place" v="farm" />
		<tag k="ssr:stedsnr" v="834068" />
	</node>
	<node id="9631540008" lat="61.1098955" lon="8.9185163" version="1" timestamp="2022-04-02T15:04:02Z" changeset="119237685" uid="3497659" user="NKA">
		<tag k="name" v="Moen" />
		<tag k="place" v="farm" />
		<tag k="ssr:stedsnr" v="189133" />
	</node>
	<node id="9631540009" lat="61.0390662" lon="9.0746143" version="1" timestamp="2022-04-02T15:04:02Z" changeset="119237685" uid="3497659" user="NKA">
		<tag k="name" v="Hagabekk" />
		<tag k="place" v="farm" />
		<tag k="ssr:stedsnr" v="708898" />
	</node>
	<node id="9631540010" lat="61.0675131" lon="9.0193814" version="1" timestamp="2022-04-02T15:04:02Z" changeset="119237685" uid="3497659" user="NKA">
		<tag k="name" v="Hande-Myre" />
		<tag k="place" v="farm" />
		<tag k="ssr:stedsnr" v="405972" />
	</node>
	<node id="9631540011" lat="60.9210999" lon="8.8657933" version="1" timestamp="2022-04-02T15:04:02Z" changeset="119237685" uid="3497659" user="NKA">
		<tag k="historic" v="shieling" />
		<tag k="name" v="Bergastølen" />
		<tag k="place" v="isolated_dwelling" />
		<tag k="ssr:stedsnr" v="221208" />
	</node>
	<node id="9631540012" lat="61.0384073" lon="9.035559" version="1" timestamp="2022-04-02T15:04:02Z" changeset="119237685" uid="3497659" user="NKA">
		<tag k="name" v="Haugen" />
		<tag k="place" v="farm" />
		<tag k="ssr:stedsnr" v="708868" />
	</node>
	<node id="9631540013" lat="61.0185917" lon="8.8991278" version="1" timestamp="2022-04-02T15:04:02Z" changeset="119237685" uid="3497659" user="NKA">
		<tag k="historic" v="shieling" />
		<tag k="name" v="Handestølen" />
		<tag k="place" v="isolated_dwelling" />
		<tag k="ssr:stedsnr" v="526427" />
	</node>
	<node id="9631540014" lat="61.1271778" lon="8.965875" version="1" timestamp="2022-04-02T15:04:02Z" changeset="119237685" uid="3497659" user="NKA">
		<tag k="alt_name" v="Kvålsbrøtadn" />
		<tag k="name" v="Kvålsbråten" />
		<tag k="place" v="farm" />
		<tag k="ssr:stedsnr" v="432103" />
	</node>
	<node id="9631540015" lat="61.0914233" lon="8.9888373" version="1" timestamp="2022-04-02T15:04:02Z" changeset="119237685" uid="3497659" user="NKA">
		<tag k="name" v="Prestegårdsskogen" />
		<tag k="place" v="neighbourhood" />
		<tag k="ssr:stedsnr" v="769953" />
	</node>
	<node id="9631540016" lat="61.0203977" lon="9.0943509" version="1" timestamp="2022-04-02T15:04:02Z" changeset="119237685" uid="3497659" user="NKA">
		<tag k="name" v="Kvåle" />
		<tag k="place" v="hamlet" />
		<tag k="ssr:stedsnr" v="492773" />
	</node>
	<node id="9631540017" lat="60.9184141" lon="8.8875585" version="1" timestamp="2022-04-02T15:04:02Z" changeset="119237685" uid="3497659" user="NKA">
		<tag k="historic" v="shieling" />
		<tag k="name" v="Fauskestølen" />
		<tag k="place" v="isolated_dwelling" />
		<tag k="ssr:stedsnr" v="767268" />
	</node>
	<node id="9631540018" lat="61.0267438" lon="8.9352176" version="1" timestamp="2022-04-02T15:04:02Z" changeset="119237685" uid="3497659" user="NKA">
		<tag k="historic" v="shieling" />
		<tag k="name" v="Høyset" />
		<tag k="place" v="isolated_dwelling" />
		<tag k="ssr:stedsnr" v="856796" />
	</node>
	<node id="9631540019" lat="60.9448" lon="8.7978112" version="1" timestamp="2022-04-02T15:04:02Z" changeset="119237685" uid="3497659" user="NKA">
		<tag k="alt_name" v="Hanafjorden" />
		<tag k="historic" v="shieling" />
		<tag k="name" v="Hanafjordsstølen" />
		<tag k="place" v="isolated_dwelling" />
		<tag k="ssr:stedsnr" v="69876" />
	</node>
	<node id="9631540020" lat="61.1133986" lon="8.8055165" version="1" timestamp="2022-04-02T15:04:02Z" changeset="119237685" uid="3497659" user="NKA">
		<tag k="historic" v="shieling" />
		<tag k="name" v="Nystøl" />
		<tag k="place" v="isolated_dwelling" />
		<tag k="ssr:stedsnr" v="830298" />
	</node>
	<node id="9631540021" lat="61.107672" lon="8.935576" version="1" timestamp="2022-04-02T15:04:02Z" changeset="119237685" uid="3497659" user="NKA">
		<tag k="alt_name" v="Vikbakken" />
		<tag k="name" v="Bakken" />
		<tag k="place" v="farm" />
		<tag k="ssr:stedsnr" v="492119" />
	</node>
	<node id="9631540022" lat="61.0416451" lon="9.0397456" version="1" timestamp="2022-04-02T15:04:02Z" changeset="119237685" uid="3497659" user="NKA">
		<tag k="name" v="Bergstrøm" />
		<tag k="place" v="farm" />
		<tag k="ssr:stedsnr" v="891908" />
	</node>
	<node id="9631540023" lat="61.0458517" lon="9.0241654" version="1" timestamp="2022-04-02T15:04:02Z" changeset="119237685" uid="3497659" user="NKA">
		<tag k="name" v="Hølli" />
		<tag k="place" v="hamlet" />
		<tag k="ssr:stedsnr" v="986874" />
	</node>
	<node id="9631540024" lat="61.022292" lon="8.8956984" version="1" timestamp="2022-04-02T15:04:02Z" changeset="119237685" uid="3497659" user="NKA">
		<tag k="historic" v="shieling" />
		<tag k="name" v="Ulastølen" />
		<tag k="place" v="isolated_dwelling" />
		<tag k="ssr:stedsnr" v="647448" />
	</node>
	<node id="9631540025" lat="61.0443306" lon="9.0006334" version="1" timestamp="2022-04-02T15:04:02Z" changeset="119237685" uid="3497659" user="NKA">
		<tag k="name" v="Hylla" />
		<tag k="place" v="farm" />
		<tag k="ssr:stedsnr" v="674801" />
	</node>
	<node id="9631540026" lat="61.1187757" lon="8.8601174" version="1" timestamp="2022-04-02T15:04:02Z" changeset="119237685" uid="3497659" user="NKA">
		<tag k="name" v="Rusiskallen" />
		<tag k="place" v="locality" />
		<tag k="ssr:stedsnr" v="466351" />
	</node>
	<node id="9631540027" lat="60.9828833" lon="8.8994916" version="1" timestamp="2022-04-02T15:04:02Z" changeset="119237685" uid="3497659" user="NKA">
		<tag k="alt_name" v="Bjørnahovd;Bjødnhøvd" />
		<tag k="name" v="Bjørnhovd" />
		<tag k="place" v="hamlet" />
		<tag k="ssr:stedsnr" v="313073" />
	</node>
	<node id="9631540028" lat="60.9473314" lon="8.8554599" version="1" timestamp="2022-04-02T15:04:02Z" changeset="119237685" uid="3497659" user="NKA">
		<tag k="historic" v="shieling" />
		<tag k="name" v="Fystrostølen" />
		<tag k="place" v="isolated_dwelling" />
		<tag k="ssr:stedsnr" v="223780" />
	</node>
	<node id="9631540029" lat="61.0825003" lon="9.0171872" version="1" timestamp="2022-04-02T15:04:02Z" changeset="119237685" uid="3497659" user="NKA">
		<tag k="name" v="Jarstadbråten" />
		<tag k="place" v="locality" />
		<tag k="ssr:stedsnr" v="41944" />
	</node>
	<node id="9631540030" lat="61.0240971" lon="9.0590582" version="1" timestamp="2022-04-02T15:04:02Z" changeset="119237685" uid="3497659" user="NKA">
		<tag k="name" v="Søre Hamarsnes" />
		<tag k="place" v="farm" />
		<tag k="ssr:stedsnr" v="951839" />
	</node>
	<node id="9631540031" lat="61.0164271" lon="9.0607227" version="1" timestamp="2022-04-02T15:04:02Z" changeset="119237685" uid="3497659" user="NKA">
		<tag k="name" v="Lyseng" />
		<tag k="place" v="farm" />
		<tag k="ssr:stedsnr" v="432760" />
	</node>
	<node id="9631540032" lat="61.0386473" lon="8.9169389" version="1" timestamp="2022-04-02T15:04:02Z" changeset="119237685" uid="3497659" user="NKA">
		<tag k="name" v="Sisselset" />
		<tag k="place" v="hamlet" />
		<tag k="ssr:stedsnr" v="718273" />
	</node>
	<node id="9631540033" lat="61.0913776" lon="8.9790149" version="1" timestamp="2022-04-02T15:04:02Z" changeset="119237685" uid="3497659" user="NKA">
		<tag k="name" v="Slidre prestegard" />
		<tag k="place" v="farm" />
		<tag k="ssr:stedsnr" v="405997" />
	</node>
	<node id="9631540034" lat="61.0707753" lon="9.0413275" version="1" timestamp="2022-04-02T15:04:02Z" changeset="119237685" uid="3497659" user="NKA">
		<tag k="name" v="Bergseng" />
		<tag k="place" v="farm" />
		<tag k="ssr:stedsnr" v="327047" />
	</node>
	<node id="9631540035" lat="61.1044501" lon="8.8485039" version="1" timestamp="2022-04-02T15:04:02Z" changeset="119237685" uid="3497659" user="NKA">
		<tag k="historic" v="shieling" />
		<tag k="name" v="Lykkjestølen" />
		<tag k="place" v="isolated_dwelling" />
		<tag k="ssr:stedsnr" v="68167" />
	</node>
	<node id="9631540036" lat="61.1081972" lon="8.9321858" version="1" timestamp="2022-04-02T15:04:02Z" changeset="119237685" uid="3497659" user="NKA">
		<tag k="name" v="Dokkehaugen" />
		<tag k="place" v="farm" />
		<tag k="ssr:stedsnr" v="91422" />
	</node>
	<node id="9631540037" lat="60.979962" lon="8.9794801" version="1" timestamp="2022-04-02T15:04:02Z" changeset="119237685" uid="3497659" user="NKA">
		<tag k="historic" v="shieling" />
		<tag k="name" v="Prøvastølen" />
		<tag k="place" v="isolated_dwelling" />
		<tag k="ssr:stedsnr" v="223209" />
	</node>
	<node id="9631540038" lat="61.0448449" lon="9.0735453" version="1" timestamp="2022-04-02T15:04:02Z" changeset="119237685" uid="3497659" user="NKA">
		<tag k="name" v="Hagaberg" />
		<tag k="place" v="farm" />
		<tag k="ssr:stedsnr" v="344903" />
	</node>
	<node id="9631540039" lat="61.044199" lon="8.91098" version="1" timestamp="2022-04-02T15:04:02Z" changeset="119237685" uid="3497659" user="NKA">
		<tag k="historic" v="shieling" />
		<tag k="name" v="Knippeset" />
		<tag k="place" v="isolated_dwelling" />
		<tag k="ssr:stedsnr" v="172276" />
	</node>
	<node id="9631540040" lat="61.05935" lon="9.1334583" version="1" timestamp="2022-04-02T15:04:02Z" changeset="119237685" uid="3497659" user="NKA">
		<tag k="name" v="Kotaplassen" />
		<tag k="place" v="locality" />
		<tag k="ssr:stedsnr" v="128829" />
	</node>
	<node id="9631540041" lat="61.1352419" lon="8.8843255" version="1" timestamp="2022-04-02T15:04:02Z" changeset="119237685" uid="3497659" user="NKA">
		<tag k="name" v="Stee" />
		<tag k="place" v="hamlet" />
		<tag k="ssr:stedsnr" v="483342" />
	</node>
	<node id="9631540042" lat="61.0765528" lon="8.751925" version="1" timestamp="2022-04-02T15:04:02Z" changeset="119237685" uid="3497659" user="NKA">
		<tag k="alt_name" v="Grytestøl" />
		<tag k="historic" v="shieling" />
		<tag k="name" v="Grytestølane" />
		<tag k="place" v="hamlet" />
		<tag k="ssr:stedsnr" v="613409" />
	</node>
	<node id="9631540043" lat="60.9661291" lon="8.9291105" version="1" timestamp="2022-04-02T15:04:02Z" changeset="119237685" uid="3497659" user="NKA">
		<tag k="historic" v="shieling" />
		<tag k="name" v="Øyestølen" />
		<tag k="place" v="isolated_dwelling" />
		<tag k="ssr:stedsnr" v="160423" />
	</node>
	<node id="9631540044" lat="60.9851722" lon="8.9420445" version="1" timestamp="2022-04-02T15:04:02Z" changeset="119237685" uid="3497659" user="NKA">
		<tag k="alt_name" v="Kvålsstølen" />
		<tag k="name" v="Kvålestølen" />
		<tag k="place" v="hamlet" />
		<tag k="ssr:stedsnr" v="859062" />
	</node>
	<node id="9631540045" lat="61.0707824" lon="8.9782344" version="1" timestamp="2022-04-02T15:04:02Z" changeset="119237685" uid="3497659" user="NKA">
		<tag k="name" v="Vika" />
		<tag k="place" v="hamlet" />
		<tag k="ssr:stedsnr" v="189869" />
	</node>
	<node id="9631540046" lat="60.9497028" lon="8.859736" version="1" timestamp="2022-04-02T15:04:02Z" changeset="119237685" uid="3497659" user="NKA">
		<tag k="historic" v="shieling" />
		<tag k="name" v="Hagabekkstølen" />
		<tag k="place" v="isolated_dwelling" />
		<tag k="ssr:stedsnr" v="587302" />
	</node>
	<node id="9631540047" lat="61.0865621" lon="8.9878063" version="1" timestamp="2022-04-02T15:04:02Z" changeset="119237685" uid="3497659" user="NKA">
		<tag k="alt_name" v="Tvenge, midtre;Nedre Plassen" />
		<tag k="name" v="Midtre Tvenge" />
		<tag k="place" v="farm" />
		<tag k="ssr:stedsnr" v="128178" />
	</node>
	<node id="9631540048" lat="60.9161556" lon="8.8195112" version="1" timestamp="2022-04-02T15:04:02Z" changeset="119237685" uid="3497659" user="NKA">
		<tag k="historic" v="shieling" />
		<tag k="name" v="Handestølen" />
		<tag k="place" v="isolated_dwelling" />
		<tag k="ssr:stedsnr" v="676836" />
	</node>
	<node id="9631540049" lat="61.1177028" lon="8.7855612" version="1" timestamp="2022-04-02T15:04:02Z" changeset="119237685" uid="3497659" user="NKA">
		<tag k="historic" v="shieling" />
		<tag k="name" v="Robølsstølen" />
		<tag k="place" v="isolated_dwelling" />
		<tag k="ssr:stedsnr" v="68332" />
	</node>
	<node id="9631540050" lat="61.1068457" lon="8.9707822" version="1" timestamp="2022-04-02T15:04:02Z" changeset="119237685" uid="3497659" user="NKA">
		<tag k="alt_name" v="Hjellemarken" />
		<tag k="name" v="Hjellemarki" />
		<tag k="place" v="farm" />
		<tag k="ssr:stedsnr" v="857156" />
	</node>
	<node id="9631540051" lat="61.0596935" lon="9.1120656" version="1" timestamp="2022-04-02T15:04:02Z" changeset="119237685" uid="3497659" user="NKA">
		<tag k="name" v="Tuv" />
		<tag k="place" v="hamlet" />
		<tag k="ssr:stedsnr" v="552869" />
	</node>
	<node id="9631540052" lat="61.05615" lon="8.8428944" version="1" timestamp="2022-04-02T15:04:02Z" changeset="119237685" uid="3497659" user="NKA">
		<tag k="historic" v="shieling" />
		<tag k="name" v="Haugstølen" />
		<tag k="place" v="isolated_dwelling" />
		<tag k="ssr:stedsnr" v="613389" />
	</node>
	<node id="9631540053" lat="61.125363" lon="8.9518613" version="1" timestamp="2022-04-02T15:04:02Z" changeset="119237685" uid="3497659" user="NKA">
		<tag k="name" v="Skjølde" />
		<tag k="place" v="farm" />
		<tag k="ssr:stedsnr" v="552118" />
	</node>
	<node id="9631540054" lat="61.1206031" lon="8.8742505" version="1" timestamp="2022-04-02T15:04:02Z" changeset="119237685" uid="3497659" user="NKA">
		<tag k="alt_name" v="Kvisl, nedre;Kvissel" />
		<tag k="name" v="Nedre Kvisl" />
		<tag k="old_name" v="Kvistøl, nedre" />
		<tag k="place" v="farm" />
		<tag k="ssr:stedsnr" v="310116" />
	</node>
	<node id="9631540055" lat="60.9874979" lon="8.9698196" version="1" timestamp="2022-04-02T15:04:02Z" changeset="119237685" uid="3497659" user="NKA">
		<tag k="historic" v="shieling" />
		<tag k="name" v="Røynestølen" />
		<tag k="old_name" v="Røinestølen" />
		<tag k="place" v="isolated_dwelling" />
		<tag k="ssr:stedsnr" v="284495" />
	</node>
	<node id="9631540056" lat="61.1071444" lon="8.86075" version="1" timestamp="2022-04-02T15:04:02Z" changeset="119237685" uid="3497659" user="NKA">
		<tag k="historic" v="shieling" />
		<tag k="name" v="Holte" />
		<tag k="place" v="isolated_dwelling" />
		<tag k="ssr:stedsnr" v="857167" />
	</node>
	<node id="9631540057" lat="60.9588827" lon="8.6920277" version="1" timestamp="2022-04-02T15:04:02Z" changeset="119237685" uid="3497659" user="NKA">
		<tag k="historic" v="shieling" />
		<tag k="name" v="Høllastølen" />
		<tag k="place" v="isolated_dwelling" />
		<tag k="ssr:stedsnr" v="708737" />
	</node>
	<node id="9631540058" lat="61.0192904" lon="9.0572177" version="1" timestamp="2022-04-02T15:04:02Z" changeset="119237685" uid="3497659" user="NKA">
		<tag k="name" v="Mostad" />
		<tag k="place" v="farm" />
		<tag k="ssr:stedsnr" v="587220" />
	</node>
	<node id="9631540059" lat="61.0075198" lon="8.8011916" version="1" timestamp="2022-04-02T15:04:02Z" changeset="119237685" uid="3497659" user="NKA">
		<tag k="historic" v="shieling" />
		<tag k="name" v="Einangstølen" />
		<tag k="place" v="isolated_dwelling" />
		<tag k="ssr:stedsnr" v="830650" />
	</node>
	<node id="9631540060" lat="61.0530008" lon="9.052763" version="1" timestamp="2022-04-02T15:04:02Z" changeset="119237685" uid="3497659" user="NKA">
		<tag k="name" v="Bratvold" />
		<tag k="place" v="farm" />
		<tag k="ssr:stedsnr" v="403893" />
	</node>
	<node id="9631540061" lat="60.948304" lon="8.9270045" version="1" timestamp="2022-04-02T15:04:02Z" changeset="119237685" uid="3497659" user="NKA">
		<tag k="historic" v="shieling" />
		<tag k="name" v="Snortheimstølane" />
		<tag k="place" v="isolated_dwelling" />
		<tag k="ssr:stedsnr" v="891318" />
	</node>
	<node id="9631540062" lat="61.0781437" lon="8.9664615" version="1" timestamp="2022-04-02T15:04:02Z" changeset="119237685" uid="3497659" user="NKA">
		<tag k="name" v="Brattli" />
		<tag k="place" v="farm" />
		<tag k="ssr:stedsnr" v="189203" />
	</node>
	<node id="9631540063" lat="61.0042111" lon="9.0155111" version="1" timestamp="2022-04-02T15:04:02Z" changeset="119237685" uid="3497659" user="NKA">
		<tag k="name" v="Nordeng" />
		<tag k="place" v="farm" />
		<tag k="ssr:stedsnr" v="735759" />
	</node>
	<node id="9631540064" lat="61.0979611" lon="8.8458028" version="1" timestamp="2022-04-02T15:04:02Z" changeset="119237685" uid="3497659" user="NKA">
		<tag k="alt_name" v="Liastøladn" />
		<tag k="historic" v="shieling" />
		<tag k="name" v="Liastølane" />
		<tag k="place" v="isolated_dwelling" />
		<tag k="ssr:stedsnr" v="6214" />
	</node>
	<node id="9631540065" lat="61.0410281" lon="8.9116014" version="1" timestamp="2022-04-02T15:04:02Z" changeset="119237685" uid="3497659" user="NKA">
		<tag k="name" v="Bestebo" />
		<tag k="old_name" v="Karistua" />
		<tag k="place" v="farm" />
		<tag k="ssr:stedsnr" v="718284" />
	</node>
	<node id="9631540066" lat="61.1072592" lon="8.925159" version="1" timestamp="2022-04-02T15:04:02Z" changeset="119237685" uid="3497659" user="NKA">
		<tag k="name" v="Istad" />
		<tag k="place" v="farm" />
		<tag k="ssr:stedsnr" v="613154" />
	</node>
	<node id="9631540067" lat="60.9640881" lon="8.7886313" version="1" timestamp="2022-04-02T15:04:02Z" changeset="119237685" uid="3497659" user="NKA">
		<tag k="historic" v="shieling" />
		<tag k="name" v="Hjartrudslett" />
		<tag k="place" v="isolated_dwelling" />
		<tag k="ssr:stedsnr" v="223684" />
	</node>
	<node id="9631540068" lat="61.0924396" lon="8.8958918" version="1" timestamp="2022-04-02T15:04:02Z" changeset="119237685" uid="3497659" user="NKA">
		<tag k="alt_name" v="Jomsstølane" />
		<tag k="historic" v="shieling" />
		<tag k="name" v="Jomsstølen" />
		<tag k="place" v="isolated_dwelling" />
		<tag k="ssr:stedsnr" v="188230" />
	</node>
	<node id="9631540069" lat="61.0544616" lon="9.0458281" version="1" timestamp="2022-04-02T15:04:02Z" changeset="119237685" uid="3497659" user="NKA">
		<tag k="name" v="Ulvestad" />
		<tag k="place" v="farm" />
		<tag k="ssr:stedsnr" v="674835" />
	</node>
	<node id="9631540070" lat="61.0650578" lon="9.0226834" version="1" timestamp="2022-04-02T15:04:02Z" changeset="119237685" uid="3497659" user="NKA">
		<tag k="alt_name" v="Hande, nedre" />
		<tag k="name" v="Nedre Hande" />
		<tag k="place" v="farm" />
		<tag k="ssr:stedsnr" v="68854" />
	</node>
	<node id="9631540071" lat="61.0293695" lon="8.8595639" version="1" timestamp="2022-04-02T15:04:02Z" changeset="119237685" uid="3497659" user="NKA">
		<tag k="historic" v="shieling" />
		<tag k="name" v="Hakkestadstølen" />
		<tag k="place" v="isolated_dwelling" />
		<tag k="ssr:stedsnr" v="41426" />
	</node>
	<node id="9631540072" lat="61.0262585" lon="8.9319012" version="1" timestamp="2022-04-02T15:04:02Z" changeset="119237685" uid="3497659" user="NKA">
		<tag k="historic" v="shieling" />
		<tag k="name" v="Haugrudstølen" />
		<tag k="place" v="isolated_dwelling" />
		<tag k="ssr:stedsnr" v="856793" />
	</node>
	<node id="9631540073" lat="61.0375839" lon="8.9565964" version="1" timestamp="2022-04-02T15:04:02Z" changeset="119237685" uid="3497659" user="NKA">
		<tag k="name" v="Arvebu" />
		<tag k="place" v="isolated_dwelling" />
		<tag k="ssr:stedsnr" v="840186" />
	</node>
	<node id="9631540074" lat="61.0347905" lon="9.0322037" version="1" timestamp="2022-04-02T15:04:02Z" changeset="119237685" uid="3497659" user="NKA">
		<tag k="name" v="Fere" />
		<tag k="old_name" v="Færden" />
		<tag k="place" v="farm" />
		<tag k="ssr:stedsnr" v="735787" />
	</node>
	<node id="9631540075" lat="61.0318253" lon="9.0869294" version="1" timestamp="2022-04-02T15:04:02Z" changeset="119237685" uid="3497659" user="NKA">
		<tag k="alt_name" v="Rebne" />
		<tag k="name" v="Revne" />
		<tag k="place" v="hamlet" />
		<tag k="ssr:stedsnr" v="735789" />
	</node>
	<node id="9631540076" lat="61.1006655" lon="8.9446228" version="1" timestamp="2022-04-02T15:04:02Z" changeset="119237685" uid="3497659" user="NKA">
		<tag k="name" v="Kollvik" />
		<tag k="place" v="farm" />
		<tag k="ssr:stedsnr" v="526403" />
	</node>
	<node id="9631540077" lat="60.9531122" lon="8.8587335" version="1" timestamp="2022-04-02T15:04:02Z" changeset="119237685" uid="3497659" user="NKA">
		<tag k="historic" v="shieling" />
		<tag k="name" v="Tuvstølen" />
		<tag k="place" v="isolated_dwelling" />
		<tag k="ssr:stedsnr" v="162266" />
	</node>
	<node id="9631540078" lat="61.1642141" lon="8.8852581" version="1" timestamp="2022-04-02T15:04:02Z" changeset="119237685" uid="3497659" user="NKA">
		<tag k="name" v="Ellestadstølen" />
		<tag k="place" v="locality" />
		<tag k="ssr:stedsnr" v="371032" />
	</node>
	<node id="9631540079" lat="61.0312821" lon="9.0485665" version="1" timestamp="2022-04-02T15:04:02Z" changeset="119237685" uid="3497659" user="NKA">
		<tag k="alt_name" v="Lunden" />
		<tag k="name" v="Lundin" />
		<tag k="place" v="farm" />
		<tag k="ssr:stedsnr" v="405845" />
	</node>
	<node id="9631540080" lat="61.0732611" lon="8.8754249" version="1" timestamp="2022-04-02T15:04:02Z" changeset="119237685" uid="3497659" user="NKA">
		<tag k="historic" v="shieling" />
		<tag k="name" v="Fjellbakkadn" />
		<tag k="place" v="isolated_dwelling" />
		<tag k="ssr:stedsnr" v="587440" />
	</node>
	<node id="9631540081" lat="61.1147662" lon="8.9332339" version="1" timestamp="2022-04-02T15:04:02Z" changeset="119237685" uid="3497659" user="NKA">
		<tag k="name" v="Steine" />
		<tag k="place" v="farm" />
		<tag k="ssr:stedsnr" v="250154" />
	</node>
	<node id="9631540082" lat="61.0499129" lon="8.9874422" version="1" timestamp="2022-04-02T15:04:02Z" changeset="119237685" uid="3497659" user="NKA">
		<tag k="name" v="Skoglund" />
		<tag k="place" v="farm" />
		<tag k="ssr:stedsnr" v="769878" />
	</node>
	<node id="9631540083" lat="61.0079806" lon="8.7461529" version="1" timestamp="2022-04-02T15:04:02Z" changeset="119237685" uid="3497659" user="NKA">
		<tag k="alt_name" v="Strøsstølane;Strø" />
		<tag k="name" v="Strøstølane" />
		<tag k="place" v="hamlet" />
		<tag k="ssr:stedsnr" v="371393" />
	</node>
	<node id="9631540084" lat="60.9463083" lon="8.8596277" version="1" timestamp="2022-04-02T15:04:02Z" changeset="119237685" uid="3497659" user="NKA">
		<tag k="alt_name" v="Nosi" />
		<tag k="name" v="Nøsen" />
		<tag k="place" v="hamlet" />
		<tag k="ssr:stedsnr" v="312097" />
	</node>
	<node id="9631540085" lat="61.0684322" lon="8.988744" version="1" timestamp="2022-04-02T15:04:02Z" changeset="119237685" uid="3497659" user="NKA">
		<tag k="name" v="Neste" />
		<tag k="place" v="hamlet" />
		<tag k="ssr:stedsnr" v="189847" />
	</node>
	<node id="9631540086" lat="60.950015" lon="8.8549943" version="1" timestamp="2022-04-02T15:04:02Z" changeset="119237685" uid="3497659" user="NKA">
		<tag k="historic" v="shieling" />
		<tag k="name" v="Magistadstølen" />
		<tag k="place" v="isolated_dwelling" />
		<tag k="ssr:stedsnr" v="41754" />
	</node>
	<node id="9631540087" lat="61.1286834" lon="8.8047011" version="1" timestamp="2022-04-02T15:04:02Z" changeset="119237685" uid="3497659" user="NKA">
		<tag k="name" v="Robøle" />
		<tag k="place" v="farm" />
		<tag k="ssr:stedsnr" v="300228" />
	</node>
	<node id="9631540088" lat="60.9479944" lon="8.9270861" version="1" timestamp="2022-04-02T15:04:02Z" changeset="119237685" uid="3497659" user="NKA">
		<tag k="historic" v="shieling" />
		<tag k="name" v="Kinnholt" />
		<tag k="place" v="hamlet" />
		<tag k="ssr:stedsnr" v="615102" />
	</node>
	<node id="9631540089" lat="60.9868861" lon="8.9409528" version="1" timestamp="2022-04-02T15:04:02Z" changeset="119237685" uid="3497659" user="NKA">
		<tag k="historic" v="shieling" />
		<tag k="name" v="Kvålsstølen" />
		<tag k="place" v="isolated_dwelling" />
		<tag k="ssr:stedsnr" v="162502" />
	</node>
	<node id="9631540090" lat="61.0383256" lon="9.0261369" version="1" timestamp="2022-04-02T15:04:02Z" changeset="119237685" uid="3497659" user="NKA">
		<tag k="name" v="Øystad" />
		<tag k="place" v="farm" />
		<tag k="ssr:stedsnr" v="951883" />
	</node>
	<node id="9631540091" lat="61.0380913" lon="9.043731" version="1" timestamp="2022-04-02T15:04:02Z" changeset="119237685" uid="3497659" user="NKA">
		<tag k="name" v="Pjåten" />
		<tag k="place" v="locality" />
		<tag k="ssr:stedsnr" v="951902" />
	</node>
	<node id="9631540092" lat="61.0559549" lon="8.9888398" version="1" timestamp="2022-04-02T15:04:02Z" changeset="119237685" uid="3497659" user="NKA">
		<tag k="name" v="Skogsbakke" />
		<tag k="place" v="farm" />
		<tag k="ssr:stedsnr" v="951886" />
	</node>
	<node id="9631540093" lat="61.121826" lon="8.9542296" version="1" timestamp="2022-04-02T15:04:02Z" changeset="119237685" uid="3497659" user="NKA">
		<tag k="name" v="Nygård" />
		<tag k="place" v="farm" />
		<tag k="ssr:stedsnr" v="466424" />
	</node>
	<node id="9631540094" lat="61.0699722" lon="8.989975" version="1" timestamp="2022-04-02T15:04:02Z" changeset="119237685" uid="3497659" user="NKA">
		<tag k="name" v="Bondeby" />
		<tag k="place" v="locality" />
		<tag k="ssr:stedsnr" v="891950" />
	</node>
	<node id="9631540095" lat="61.1167669" lon="8.9568051" version="1" timestamp="2022-04-02T15:04:02Z" changeset="119237685" uid="3497659" user="NKA">
		<tag k="name" v="Olstad" />
		<tag k="place" v="farm" />
		<tag k="ssr:stedsnr" v="68151" />
	</node>
	<node id="9631540096" lat="61.088263" lon="8.9817568" version="1" timestamp="2022-04-02T15:04:02Z" changeset="119237685" uid="3497659" user="NKA">
		<tag k="name" v="Slidretun" />
		<tag k="place" v="farm" />
		<tag k="ssr:stedsnr" v="7208" />
	</node>
	<node id="9631540097" lat="61.046389" lon="9.0487496" version="1" timestamp="2022-04-02T15:04:02Z" changeset="119237685" uid="3497659" user="NKA">
		<tag k="name" v="Røn" />
		<tag k="place" v="hamlet" />
		<tag k="ssr:stedsnr" v="284899" />
	</node>
	<node id="9631540098" lat="61.0537111" lon="9.0595751" version="1" timestamp="2022-04-02T15:04:02Z" changeset="119237685" uid="3497659" user="NKA">
		<tag k="name" v="Snortheimsmarki" />
		<tag k="place" v="farm" />
		<tag k="ssr:stedsnr" v="917845" />
	</node>
	<node id="9631540099" lat="61.0794012" lon="9.021269" version="1" timestamp="2022-04-02T15:04:02Z" changeset="119237685" uid="3497659" user="NKA">
		<tag k="name" v="Granbø" />
		<tag k="place" v="farm" />
		<tag k="ssr:stedsnr" v="7262" />
	</node>
	<node id="9631540100" lat="61.0835973" lon="9.0169867" version="1" timestamp="2022-04-02T15:04:02Z" changeset="119237685" uid="3497659" user="NKA">
		<tag k="historic" v="shieling" />
		<tag k="name" v="Trøenstølen" />
		<tag k="place" v="isolated_dwelling" />
		<tag k="ssr:stedsnr" v="223973" />
	</node>
	<node id="9631540101" lat="61.060443" lon="9.1041288" version="1" timestamp="2022-04-02T15:04:02Z" changeset="119237685" uid="3497659" user="NKA">
		<tag k="name" v="Moen" />
		<tag k="place" v="farm" />
		<tag k="ssr:stedsnr" v="431857" />
	</node>
	<node id="9631540102" lat="61.0359293" lon="8.8049724" version="1" timestamp="2022-04-02T15:04:02Z" changeset="119237685" uid="3497659" user="NKA">
		<tag k="historic" v="shieling" />
		<tag k="name" v="Ormestadstølen" />
		<tag k="place" v="isolated_dwelling" />
		<tag k="ssr:stedsnr" v="128414" />
	</node>
	<node id="9631540103" lat="61.0816814" lon="8.9549872" version="1" timestamp="2022-04-02T15:04:02Z" changeset="119237685" uid="3497659" user="NKA">
		<tag k="alt_name" v="Hansegarden, nordre;Hansegarden" />
		<tag k="name" v="Nørdre Hansegarden" />
		<tag k="place" v="farm" />
		<tag k="ssr:stedsnr" v="796215" />
	</node>
	<node id="9631540104" lat="61.0406079" lon="9.0145557" version="1" timestamp="2022-04-02T15:04:02Z" changeset="119237685" uid="3497659" user="NKA">
		<tag k="name" v="Enger" />
		<tag k="place" v="farm" />
		<tag k="ssr:stedsnr" v="189783" />
	</node>
	<node id="9631540105" lat="61.1125862" lon="8.9248242" version="1" timestamp="2022-04-02T15:04:02Z" changeset="119237685" uid="3497659" user="NKA">
		<tag k="name" v="Sandhaugo" />
		<tag k="place" v="farm" />
		<tag k="ssr:stedsnr" v="189134" />
	</node>
	<node id="9631540106" lat="61.0275542" lon="9.077904" version="1" timestamp="2022-04-02T15:04:02Z" changeset="119237685" uid="3497659" user="NKA">
		<tag k="name" v="Vistehagen" />
		<tag k="place" v="farm" />
		<tag k="ssr:stedsnr" v="39811" />
	</node>
	<node id="9631540107" lat="61.1187092" lon="8.89115" version="1" timestamp="2022-04-02T15:04:02Z" changeset="119237685" uid="3497659" user="NKA">
		<tag k="alt_name" v="Mørken" />
		<tag k="name" v="Morki" />
		<tag k="place" v="farm" />
		<tag k="ssr:stedsnr" v="310118" />
	</node>
	<node id="9631540108" lat="61.0518338" lon="9.0031121" version="1" timestamp="2022-04-02T15:04:02Z" changeset="119237685" uid="3497659" user="NKA">
		<tag k="name" v="Bakke" />
		<tag k="place" v="farm" />
		<tag k="ssr:stedsnr" v="431839" />
	</node>
	<node id="9631540109" lat="61.0342278" lon="8.7576362" version="1" timestamp="2022-04-02T15:04:02Z" changeset="119237685" uid="3497659" user="NKA">
		<tag k="historic" v="shieling" />
		<tag k="name" v="Haugstølen" />
		<tag k="place" v="isolated_dwelling" />
		<tag k="ssr:stedsnr" v="39308" />
	</node>
	<node id="9631540110" lat="61.066425" lon="8.9583084" version="1" timestamp="2022-04-02T15:04:02Z" changeset="119237685" uid="3497659" user="NKA">
		<tag k="historic" v="shieling" />
		<tag k="name" v="Vikruststølen" />
		<tag k="place" v="isolated_dwelling" />
		<tag k="ssr:stedsnr" v="250858" />
	</node>
	<node id="9631540111" lat="61.0888058" lon="9.0523047" version="1" timestamp="2022-04-02T15:04:02Z" changeset="119237685" uid="3497659" user="NKA">
		<tag k="name" v="Handesletti" />
		<tag k="place" v="isolated_dwelling" />
		<tag k="ssr:stedsnr" v="796208" />
	</node>
	<node id="9631540112" lat="61.0210293" lon="9.0645278" version="1" timestamp="2022-04-02T15:04:02Z" changeset="119237685" uid="3497659" user="NKA">
		<tag k="name" v="Tildheim" />
		<tag k="place" v="farm" />
		<tag k="ssr:stedsnr" v="986880" />
	</node>
	<node id="9631540113" lat="61.0236371" lon="8.8730865" version="1" timestamp="2022-04-02T15:04:02Z" changeset="119237685" uid="3497659" user="NKA">
		<tag k="historic" v="shieling" />
		<tag k="name" v="Brøtastølen" />
		<tag k="place" v="isolated_dwelling" />
		<tag k="ssr:stedsnr" v="102510" />
	</node>
	<node id="9631540114" lat="60.9259528" lon="8.7850556" version="1" timestamp="2022-04-02T15:04:02Z" changeset="119237685" uid="3497659" user="NKA">
		<tag k="historic" v="shieling" />
		<tag k="name" v="Skruvla" />
		<tag k="place" v="hamlet" />
		<tag k="ssr:stedsnr" v="312839" />
	</node>
	<node id="9631540115" lat="61.089455" lon="8.7399307" version="1" timestamp="2022-04-02T15:04:02Z" changeset="119237685" uid="3497659" user="NKA">
		<tag k="alt_name" v="Åstadstølen" />
		<tag k="historic" v="shieling" />
		<tag k="name" v="Åstadstølane" />
		<tag k="place" v="hamlet" />
		<tag k="ssr:stedsnr" v="552389" />
	</node>
	<node id="9631540116" lat="61.0619028" lon="8.98025" version="1" timestamp="2022-04-02T15:04:02Z" changeset="119237685" uid="3497659" user="NKA">
		<tag k="name" v="Bratteng" />
		<tag k="place" v="locality" />
		<tag k="ssr:stedsnr" v="708972" />
	</node>
	<node id="9631540117" lat="61.033139" lon="9.0956203" version="1" timestamp="2022-04-02T15:04:02Z" changeset="119237685" uid="3497659" user="NKA">
		<tag k="alt_name" v="Rebnesmyren" />
		<tag k="name" v="Revnesmyri" />
		<tag k="place" v="farm" />
		<tag k="ssr:stedsnr" v="917786" />
	</node>
	<node id="9631540118" lat="61.1189732" lon="8.7826371" version="1" timestamp="2022-04-02T15:04:02Z" changeset="119237685" uid="3497659" user="NKA">
		<tag k="alt_name" v="Åstadstølen" />
		<tag k="historic" v="shieling" />
		<tag k="name" v="Åstadsholmen" />
		<tag k="place" v="isolated_dwelling" />
		<tag k="ssr:stedsnr" v="796323" />
	</node>
	<node id="9631540119" lat="61.1210663" lon="8.8889712" version="1" timestamp="2022-04-02T15:04:02Z" changeset="119237685" uid="3497659" user="NKA">
		<tag k="alt_name" v="Lykkja, søre" />
		<tag k="name" v="Søre Lykkja" />
		<tag k="place" v="farm" />
		<tag k="ssr:stedsnr" v="674120" />
	</node>
	<node id="9631540120" lat="61.1157718" lon="8.9627472" version="1" timestamp="2022-04-02T15:04:02Z" changeset="119237685" uid="3497659" user="NKA">
		<tag k="name" v="Delebekk" />
		<tag k="place" v="farm" />
		<tag k="ssr:stedsnr" v="250148" />
	</node>
	<node id="9631540121" lat="60.9656945" lon="8.9223" version="1" timestamp="2022-04-02T15:04:02Z" changeset="119237685" uid="3497659" user="NKA">
		<tag k="historic" v="shieling" />
		<tag k="name" v="Krististølen" />
		<tag k="place" v="hamlet" />
		<tag k="ssr:stedsnr" v="313119" />
	</node>
	<node id="9631540122" lat="61.1350531" lon="8.9389972" version="1" timestamp="2022-04-02T15:04:02Z" changeset="119237685" uid="3497659" user="NKA">
		<tag k="name" v="Rengistadtunet" />
		<tag k="place" v="farm" />
		<tag k="ssr:stedsnr" v="828064" />
	</node>
	<node id="9631540123" lat="60.9464257" lon="8.7456244" version="1" timestamp="2022-04-02T15:04:02Z" changeset="119237685" uid="3497659" user="NKA">
		<tag k="alt_name" v="Feristølen" />
		<tag k="historic" v="shieling" />
		<tag k="name" v="Ferisstølen" />
		<tag k="old_name" v="Feriestølen" />
		<tag k="place" v="isolated_dwelling" />
		<tag k="ssr:stedsnr" v="796776" />
	</node>
	<node id="9631540124" lat="61.0685111" lon="8.8056861" version="1" timestamp="2022-04-02T15:04:02Z" changeset="119237685" uid="3497659" user="NKA">
		<tag k="name" v="Kvislasyndin" />
		<tag k="place" v="hamlet" />
		<tag k="ssr:stedsnr" v="403305" />
	</node>
	<node id="9631540125" lat="61.0253902" lon="9.0531457" version="1" timestamp="2022-04-02T15:04:02Z" changeset="119237685" uid="3497659" user="NKA">
		<tag k="name" v="Fuglei" />
		<tag k="place" v="farm" />
		<tag k="ssr:stedsnr" v="284858" />
	</node>
	<node id="9631540126" lat="61.0356553" lon="9.0618722" version="1" timestamp="2022-04-02T15:04:02Z" changeset="119237685" uid="3497659" user="NKA">
		<tag k="name" v="Væla" />
		<tag k="place" v="farm" />
		<tag k="ssr:stedsnr" v="162838" />
	</node>
	<node id="9631540127" lat="61.1556028" lon="8.9261777" version="1" timestamp="2022-04-02T15:04:02Z" changeset="119237685" uid="3497659" user="NKA">
		<tag k="historic" v="shieling" />
		<tag k="name" v="Flisejordet" />
		<tag k="place" v="isolated_dwelling" />
		<tag k="ssr:stedsnr" v="250068" />
	</node>
	<node id="9631540128" lat="61.0495389" lon="9.1671889" version="1" timestamp="2022-04-02T15:04:02Z" changeset="119237685" uid="3497659" user="NKA">
		<tag k="alt_name" v="Rebnisberge" />
		<tag k="name" v="Bergo" />
		<tag k="place" v="locality" />
		<tag k="ssr:stedsnr" v="492803" />
	</node>
	<node id="9631540129" lat="60.9800122" lon="8.7946052" version="1" timestamp="2022-04-02T15:04:02Z" changeset="119237685" uid="3497659" user="NKA">
		<tag k="historic" v="shieling" />
		<tag k="name" v="Søre Jarstadstølen" />
		<tag k="place" v="isolated_dwelling" />
		<tag k="ssr:stedsnr" v="223679" />
	</node>
	<node id="9631540130" lat="61.110925" lon="8.9949305" version="1" timestamp="2022-04-02T15:04:02Z" changeset="119237685" uid="3497659" user="NKA">
		<tag k="alt_name" v="Krosshaugstøladn" />
		<tag k="historic" v="shieling" />
		<tag k="name" v="Krosshaugstølen" />
		<tag k="place" v="isolated_dwelling" />
		<tag k="ssr:stedsnr" v="796141" />
	</node>
	<node id="9631540131" lat="61.009035" lon="8.8062162" version="1" timestamp="2022-04-02T15:04:02Z" changeset="119237685" uid="3497659" user="NKA">
		<tag k="historic" v="shieling" />
		<tag k="name" v="Hjellestølen" />
		<tag k="place" v="isolated_dwelling" />
		<tag k="ssr:stedsnr" v="344655" />
	</node>
	<node id="9631540132" lat="61.0659862" lon="9.0255101" version="1" timestamp="2022-04-02T15:04:02Z" changeset="119237685" uid="3497659" user="NKA">
		<tag k="name" v="Midtre Hande" />
		<tag k="place" v="farm" />
		<tag k="ssr:stedsnr" v="830964" />
	</node>
	<node id="9631540133" lat="61.0229371" lon="9.0851356" version="1" timestamp="2022-04-02T15:04:02Z" changeset="119237685" uid="3497659" user="NKA">
		<tag k="name" v="Solvik" />
		<tag k="place" v="farm" />
		<tag k="ssr:stedsnr" v="160816" />
	</node>
	<node id="9631540134" lat="61.1452959" lon="9.0158737" version="1" timestamp="2022-04-02T15:04:02Z" changeset="119237685" uid="3497659" user="NKA">
		<tag k="name" v="Kvålsnaustet" />
		<tag k="place" v="locality" />
		<tag k="ssr:stedsnr" v="296140" />
	</node>
	<node id="9631540135" lat="61.0729167" lon="8.9734889" version="1" timestamp="2022-04-02T15:04:02Z" changeset="119237685" uid="3497659" user="NKA">
		<tag k="name" v="Vikrust" />
		<tag k="place" v="farm" />
		<tag k="ssr:stedsnr" v="128217" />
	</node>
	<node id="9631540136" lat="61.0616058" lon="8.9849753" version="1" timestamp="2022-04-02T15:04:02Z" changeset="119237685" uid="3497659" user="NKA">
		<tag k="name" v="Bradden" />
		<tag k="place" v="farm" />
		<tag k="ssr:stedsnr" v="405966" />
	</node>
	<node id="9631540137" lat="61.0698" lon="8.9404416" version="1" timestamp="2022-04-02T15:04:02Z" changeset="119237685" uid="3497659" user="NKA">
		<tag k="alt_name" v="Tørgarstølen" />
		<tag k="historic" v="shieling" />
		<tag k="name" v="Torgarstølen" />
		<tag k="place" v="isolated_dwelling" />
		<tag k="ssr:stedsnr" v="553878" />
	</node>
	<node id="9631540138" lat="61.0610923" lon="9.1102784" version="1" timestamp="2022-04-02T15:04:02Z" changeset="119237685" uid="3497659" user="NKA">
		<tag k="name" v="Ruud" />
		<tag k="place" v="farm" />
		<tag k="ssr:stedsnr" v="903524" />
	</node>
	<node id="9631540139" lat="61.0275501" lon="9.0882142" version="1" timestamp="2022-04-02T15:04:02Z" changeset="119237685" uid="3497659" user="NKA">
		<tag k="name" v="Hagalund" />
		<tag k="place" v="farm" />
		<tag k="ssr:stedsnr" v="767834" />
	</node>
	<node id="9631540140" lat="61.1287856" lon="8.9573" version="1" timestamp="2022-04-02T15:04:02Z" changeset="119237685" uid="3497659" user="NKA">
		<tag k="name" v="Yrstad" />
		<tag k="place" v="farm" />
		<tag k="ssr:stedsnr" v="67127" />
	</node>
	<node id="9631540141" lat="60.9461121" lon="8.8645675" version="1" timestamp="2022-04-02T15:04:02Z" changeset="119237685" uid="3497659" user="NKA">
		<tag k="historic" v="shieling" />
		<tag k="name" v="Hagabergstølen" />
		<tag k="place" v="isolated_dwelling" />
		<tag k="ssr:stedsnr" v="102327" />
	</node>
	<node id="9631540142" lat="61.0363223" lon="8.9182388" version="1" timestamp="2022-04-02T15:04:02Z" changeset="119237685" uid="3497659" user="NKA">
		<tag k="alt_name" v="Mostølen" />
		<tag k="historic" v="shieling" />
		<tag k="name" v="Mosstølen" />
		<tag k="place" v="isolated_dwelling" />
		<tag k="ssr:stedsnr" v="492806" />
	</node>
	<node id="9631540143" lat="61.0642941" lon="8.9892961" version="1" timestamp="2022-04-02T15:04:02Z" changeset="119237685" uid="3497659" user="NKA">
		<tag k="name" v="Nordli" />
		<tag k="place" v="farm" />
		<tag k="ssr:stedsnr" v="647969" />
	</node>
	<node id="9631540144" lat="61.0211944" lon="8.9018501" version="1" timestamp="2022-04-02T15:04:02Z" changeset="119237685" uid="3497659" user="NKA">
		<tag k="alt_name" v="Trollhovd, søre" />
		<tag k="name" v="Søre Trollhovd" />
		<tag k="place" v="hamlet" />
		<tag k="ssr:stedsnr" v="371793" />
	</node>
	<node id="9631540145" lat="61.0598211" lon="8.8344653" version="1" timestamp="2022-04-02T15:04:02Z" changeset="119237685" uid="3497659" user="NKA">
		<tag k="alt_name" v="Garvikstølen" />
		<tag k="historic" v="shieling" />
		<tag k="name" v="Gardvikstølen" />
		<tag k="place" v="isolated_dwelling" />
		<tag k="ssr:stedsnr" v="613388" />
	</node>
	<node id="9631540146" lat="61.0537666" lon="9.0116444" version="1" timestamp="2022-04-02T15:04:02Z" changeset="119237685" uid="3497659" user="NKA">
		<tag k="alt_name" v="Skrøviken" />
		<tag k="name" v="Skrøviki" />
		<tag k="place" v="farm" />
		<tag k="ssr:stedsnr" v="917818" />
	</node>
	<node id="9631540147" lat="61.1410204" lon="8.893663" version="1" timestamp="2022-04-02T15:04:02Z" changeset="119237685" uid="3497659" user="NKA">
		<tag k="alt_name" v="Eggebakkan" />
		<tag k="name" v="Eggebakken" />
		<tag k="place" v="farm" />
		<tag k="ssr:stedsnr" v="492068" />
	</node>
	<node id="9631540148" lat="61.0998727" lon="8.9471281" version="1" timestamp="2022-04-02T15:04:02Z" changeset="119237685" uid="3497659" user="NKA">
		<tag k="alt_name" v="Kølljordet" />
		<tag k="name" v="Kolljordet" />
		<tag k="place" v="farm" />
		<tag k="ssr:stedsnr" v="796182" />
	</node>
	<node id="9631540149" lat="60.9471781" lon="8.9202897" version="1" timestamp="2022-04-02T15:04:02Z" changeset="119237685" uid="3497659" user="NKA">
		<tag k="historic" v="shieling" />
		<tag k="name" v="Råstølen" />
		<tag k="place" v="isolated_dwelling" />
		<tag k="ssr:stedsnr" v="830237" />
	</node>
	<node id="9631540150" lat="61.1128306" lon="8.81905" version="1" timestamp="2022-04-02T15:04:02Z" changeset="119237685" uid="3497659" user="NKA">
		<tag k="name" v="Haugen" />
		<tag k="place" v="isolated_dwelling" />
		<tag k="ssr:stedsnr" v="128333" />
	</node>
	<node id="9631540151" lat="61.1499528" lon="8.8820695" version="1" timestamp="2022-04-02T15:04:02Z" changeset="119237685" uid="3497659" user="NKA">
		<tag k="alt_name" v="Høynestøl" />
		<tag k="historic" v="shieling" />
		<tag k="name" v="Høynesstølen" />
		<tag k="place" v="isolated_dwelling" />
		<tag k="ssr:stedsnr" v="674086" />
	</node>
	<node id="9631540152" lat="61.0962341" lon="8.9495851" version="1" timestamp="2022-04-02T15:04:02Z" changeset="119237685" uid="3497659" user="NKA">
		<tag k="name" v="Fredstad" />
		<tag k="place" v="farm" />
		<tag k="ssr:stedsnr" v="587413" />
	</node>
	<node id="9631540153" lat="61.1161991" lon="8.915874" version="1" timestamp="2022-04-02T15:04:02Z" changeset="119237685" uid="3497659" user="NKA">
		<tag k="alt_name" v="Øyråker, nedre;Øyråker" />
		<tag k="name" v="Nedre Øyråker" />
		<tag k="place" v="farm" />
		<tag k="ssr:stedsnr" v="552135" />
	</node>
	<node id="9631540154" lat="61.0265074" lon="8.8521769" version="1" timestamp="2022-04-02T15:04:02Z" changeset="119237685" uid="3497659" user="NKA">
		<tag k="historic" v="shieling" />
		<tag k="name" v="Haugostølen" />
		<tag k="place" v="isolated_dwelling" />
		<tag k="ssr:stedsnr" v="160304" />
	</node>
	<node id="9631540155" lat="61.0478639" lon="8.9940527" version="1" timestamp="2022-04-02T15:04:02Z" changeset="119237685" uid="3497659" user="NKA">
		<tag k="name" v="Bakken" />
		<tag k="place" v="farm" />
		<tag k="ssr:stedsnr" v="7809" />
	</node>
	<node id="9631540156" lat="61.032625" lon="8.9268694" version="1" timestamp="2022-04-02T15:04:02Z" changeset="119237685" uid="3497659" user="NKA">
		<tag k="historic" v="shieling" />
		<tag k="name" v="Skrøvikstølen" />
		<tag k="place" v="isolated_dwelling" />
		<tag k="ssr:stedsnr" v="917792" />
	</node>
	<node id="9631540157" lat="61.1174032" lon="8.9113459" version="1" timestamp="2022-04-02T15:04:02Z" changeset="119237685" uid="3497659" user="NKA">
		<tag k="alt_name" v="Øyråker, øvre;Øyråker" />
		<tag k="name" v="Øvre Øyråker" />
		<tag k="place" v="farm" />
		<tag k="ssr:stedsnr" v="735114" />
	</node>
	<node id="9631540158" lat="61.1571805" lon="8.8960361" version="1" timestamp="2022-04-02T15:04:02Z" changeset="119237685" uid="3497659" user="NKA">
		<tag k="historic" v="shieling" />
		<tag k="name" v="Røvangstølen" />
		<tag k="place" v="isolated_dwelling" />
		<tag k="ssr:stedsnr" v="674056" />
	</node>
	<node id="9631540159" lat="60.9171278" lon="8.883386" version="1" timestamp="2022-04-02T15:04:02Z" changeset="119237685" uid="3497659" user="NKA">
		<tag k="historic" v="shieling" />
		<tag k="name" v="Tildheimstølen" />
		<tag k="place" v="isolated_dwelling" />
		<tag k="ssr:stedsnr" v="949259" />
	</node>
	<node id="9631540160" lat="61.1408917" lon="8.878339" version="1" timestamp="2022-04-02T15:04:02Z" changeset="119237685" uid="3497659" user="NKA">
		<tag k="name" v="Høyne" />
		<tag k="place" v="farm" />
		<tag k="ssr:stedsnr" v="856087" />
	</node>
	<node id="9631540161" lat="61.0463721" lon="9.0219492" version="1" timestamp="2022-04-02T15:04:02Z" changeset="119237685" uid="3497659" user="NKA">
		<tag k="alt_name" v="Hølli, øvre;Hølli;Øvre Holden" />
		<tag k="name" v="Øvre Hølli" />
		<tag k="place" v="farm" />
		<tag k="ssr:stedsnr" v="7807" />
	</node>
	<node id="9631540162" lat="61.027724" lon="9.090588" version="1" timestamp="2022-04-02T15:04:02Z" changeset="119237685" uid="3497659" user="NKA">
		<tag k="name" v="Hagene" />
		<tag k="place" v="farm" />
		<tag k="ssr:stedsnr" v="949817" />
	</node>
	<node id="9631540163" lat="61.0466223" lon="9.0639138" version="1" timestamp="2022-04-02T15:04:02Z" changeset="119237685" uid="3497659" user="NKA">
		<tag k="name" v="Tuv" />
		<tag k="place" v="farm" />
		<tag k="ssr:stedsnr" v="492818" />
	</node>
	<node id="9631540164" lat="61.0262981" lon="8.8634255" version="1" timestamp="2022-04-02T15:04:02Z" changeset="119237685" uid="3497659" user="NKA">
		<tag k="historic" v="shieling" />
		<tag k="name" v="Øygardstølen" />
		<tag k="place" v="isolated_dwelling" />
		<tag k="ssr:stedsnr" v="891442" />
	</node>
	<node id="9631540165" lat="61.122426" lon="8.9558241" version="1" timestamp="2022-04-02T15:04:02Z" changeset="119237685" uid="3497659" user="NKA">
		<tag k="name" v="Nørdre Bakkadn" />
		<tag k="place" v="farm" />
		<tag k="ssr:stedsnr" v="223416" />
	</node>
	<node id="9631540166" lat="61.0259004" lon="9.0463007" version="1" timestamp="2022-04-02T15:04:02Z" changeset="119237685" uid="3497659" user="NKA">
		<tag k="name" v="Paulsrud" />
		<tag k="place" v="farm" />
		<tag k="ssr:stedsnr" v="587830" />
	</node>
	<node id="9631540167" lat="61.085525" lon="8.858989" version="1" timestamp="2022-04-02T15:04:02Z" changeset="119237685" uid="3497659" user="NKA">
		<tag k="historic" v="shieling" />
		<tag k="name" v="Øyråkerstølane" />
		<tag k="place" v="isolated_dwelling" />
		<tag k="ssr:stedsnr" v="128181" />
	</node>
	<node id="9631540168" lat="61.1222682" lon="8.9533221" version="1" timestamp="2022-04-02T15:04:02Z" changeset="119237685" uid="3497659" user="NKA">
		<tag k="name" v="Kvåletun" />
		<tag k="place" v="farm" />
		<tag k="ssr:stedsnr" v="344414" />
	</node>
	<node id="9631540169" lat="61.1220448" lon="8.9596131" version="1" timestamp="2022-04-02T15:04:02Z" changeset="119237685" uid="3497659" user="NKA">
		<tag k="name" v="Søre Bakkadn" />
		<tag k="place" v="farm" />
		<tag k="ssr:stedsnr" v="951394" />
	</node>
	<node id="9631540170" lat="61.0646528" lon="8.8013749" version="1" timestamp="2022-04-02T15:04:02Z" changeset="119237685" uid="3497659" user="NKA">
		<tag k="alt_name" v="Kårstadstøladn" />
		<tag k="historic" v="shieling" />
		<tag k="name" v="Kårstadstølane" />
		<tag k="place" v="hamlet" />
		<tag k="ssr:stedsnr" v="371370" />
	</node>
	<node id="9631540171" lat="61.154225" lon="8.8733779" version="1" timestamp="2022-04-02T15:04:02Z" changeset="119237685" uid="3497659" user="NKA">
		<tag k="historic" v="shieling" />
		<tag k="name" v="Nystølen" />
		<tag k="place" v="isolated_dwelling" />
		<tag k="ssr:stedsnr" v="371045" />
	</node>
	<node id="9631540172" lat="61.0592" lon="9.0991527" version="1" timestamp="2022-04-02T15:04:02Z" changeset="119237685" uid="3497659" user="NKA">
		<tag k="name" v="Stølen" />
		<tag k="place" v="isolated_dwelling" />
		<tag k="ssr:stedsnr" v="310832" />
	</node>
	<node id="9631540173" lat="61.1362203" lon="8.8760301" version="1" timestamp="2022-04-02T15:04:02Z" changeset="119237685" uid="3497659" user="NKA">
		<tag k="name" v="Rødvang" />
		<tag k="place" v="farm" />
		<tag k="ssr:stedsnr" v="249093" />
	</node>
	<node id="9631540174" lat="61.0921861" lon="8.903" version="1" timestamp="2022-04-02T15:04:02Z" changeset="119237685" uid="3497659" user="NKA">
		<tag k="alt_name" v="Flaten" />
		<tag k="historic" v="shieling" />
		<tag k="name" v="Flati" />
		<tag k="place" v="isolated_dwelling" />
		<tag k="ssr:stedsnr" v="249179" />
	</node>
	<node id="9631540175" lat="61.0062138" lon="8.9136445" version="1" timestamp="2022-04-02T15:04:02Z" changeset="119237685" uid="3497659" user="NKA">
		<tag k="historic" v="shieling" />
		<tag k="name" v="Raundokkstølen" />
		<tag k="place" v="isolated_dwelling" />
		<tag k="ssr:stedsnr" v="284490" />
	</node>
	<node id="9631540176" lat="61.0351932" lon="9.0738271" version="1" timestamp="2022-04-02T15:04:02Z" changeset="119237685" uid="3497659" user="NKA">
		<tag k="name" v="Forset" />
		<tag k="place" v="farm" />
		<tag k="ssr:stedsnr" v="160789" />
	</node>
	<node id="9631540177" lat="61.1302641" lon="8.9387144" version="1" timestamp="2022-04-02T15:04:02Z" changeset="119237685" uid="3497659" user="NKA">
		<tag k="alt_name" v="Løkje" />
		<tag k="name" v="Øvre Løkje" />
		<tag k="place" v="farm" />
		<tag k="ssr:stedsnr" v="189098" />
	</node>
	<node id="9631540178" lat="61.0553881" lon="9.0413417" version="1" timestamp="2022-04-02T15:04:02Z" changeset="119237685" uid="3497659" user="NKA">
		<tag k="name" v="Hagali" />
		<tag k="place" v="farm" />
		<tag k="ssr:stedsnr" v="917837" />
	</node>
	<node id="9631540179" lat="61.088625" lon="8.9519083" version="1" timestamp="2022-04-02T15:04:02Z" changeset="119237685" uid="3497659" user="NKA">
		<tag k="name" v="Fosslund" />
		<tag k="place" v="locality" />
		<tag k="ssr:stedsnr" v="162421" />
	</node>
	<node id="9631540180" lat="61.1422838" lon="8.8842184" version="1" timestamp="2022-04-02T15:04:02Z" changeset="119237685" uid="3497659" user="NKA">
		<tag k="alt_name" v="Egge, øvre;Egge" />
		<tag k="name" v="Øvre Egge" />
		<tag k="place" v="farm" />
		<tag k="ssr:stedsnr" v="370113" />
	</node>
	<node id="9631540181" lat="61.0894333" lon="8.7384945" version="1" timestamp="2022-04-02T15:04:02Z" changeset="119237685" uid="3497659" user="NKA">
		<tag k="historic" v="shieling" />
		<tag k="name" v="Åstadvollstølen" />
		<tag k="place" v="isolated_dwelling" />
		<tag k="ssr:stedsnr" v="598422" />
	</node>
	<node id="9631540182" lat="61.0654806" lon="8.9200139" version="1" timestamp="2022-04-02T15:04:02Z" changeset="119237685" uid="3497659" user="NKA">
		<tag k="historic" v="shieling" />
		<tag k="name" v="Tjernstølen" />
		<tag k="place" v="isolated_dwelling" />
		<tag k="ssr:stedsnr" v="371870" />
	</node>
	<node id="9631540183" lat="61.033782" lon="9.0765405" version="1" timestamp="2022-04-02T15:04:02Z" changeset="119237685" uid="3497659" user="NKA">
		<tag k="name" v="Fauske" />
		<tag k="place" v="hamlet" />
		<tag k="ssr:stedsnr" v="917788" />
	</node>
	<node id="9631540184" lat="60.9747742" lon="8.8019215" version="1" timestamp="2022-04-02T15:04:02Z" changeset="119237685" uid="3497659" user="NKA">
		<tag k="historic" v="shieling" />
		<tag k="name" v="Nørdre Jarstadstølen" />
		<tag k="place" v="isolated_dwelling" />
		<tag k="ssr:stedsnr" v="769637" />
	</node>
	<node id="9631540185" lat="61.1072305" lon="8.9789027" version="1" timestamp="2022-04-02T15:04:02Z" changeset="119237685" uid="3497659" user="NKA">
		<tag k="alt_name" v="Klukkargarden" />
		<tag k="name" v="Klokkargarden" />
		<tag k="place" v="farm" />
		<tag k="ssr:stedsnr" v="613173" />
	</node>
	<node id="9631540186" lat="61.1103305" lon="8.870714" version="1" timestamp="2022-04-02T15:04:02Z" changeset="119237685" uid="3497659" user="NKA">
		<tag k="historic" v="shieling" />
		<tag k="name" v="Veslestølen" />
		<tag k="place" v="isolated_dwelling" />
		<tag k="ssr:stedsnr" v="735141" />
	</node>
	<node id="9631540187" lat="61.15945" lon="8.894189" version="1" timestamp="2022-04-02T15:04:02Z" changeset="119237685" uid="3497659" user="NKA">
		<tag k="alt_name" v="Krøssengstøl" />
		<tag k="historic" v="shieling" />
		<tag k="name" v="Krossengstølen" />
		<tag k="place" v="isolated_dwelling" />
		<tag k="ssr:stedsnr" v="674057" />
	</node>
	<node id="9631540188" lat="60.9589889" lon="8.6904083" version="1" timestamp="2022-04-02T15:04:02Z" changeset="119237685" uid="3497659" user="NKA">
		<tag k="alt_name" v="Grunke" />
		<tag k="historic" v="shieling" />
		<tag k="name" v="Nørdre Grunke" />
		<tag k="place" v="isolated_dwelling" />
		<tag k="ssr:stedsnr" v="251788" />
	</node>
	<node id="9631540189" lat="61.1218397" lon="8.859281" version="1" timestamp="2022-04-02T15:04:02Z" changeset="119237685" uid="3497659" user="NKA">
		<tag k="name" v="Før" />
		<tag k="place" v="hamlet" />
		<tag k="ssr:stedsnr" v="189108" />
	</node>
	<node id="9631540190" lat="61.1288723" lon="8.8479611" version="1" timestamp="2022-04-02T15:04:02Z" changeset="119237685" uid="3497659" user="NKA">
		<tag k="name" v="Birkelund" />
		<tag k="place" v="farm" />
		<tag k="ssr:stedsnr" v="968250" />
	</node>
	<node id="9631540191" lat="61.1071639" lon="8.8396916" version="1" timestamp="2022-04-02T15:04:02Z" changeset="119237685" uid="3497659" user="NKA">
		<tag k="historic" v="shieling" />
		<tag k="name" v="Kårstadstølane" />
		<tag k="place" v="isolated_dwelling" />
		<tag k="ssr:stedsnr" v="795426" />
	</node>
	<node id="9631540192" lat="60.9638306" lon="8.9077584" version="1" timestamp="2022-04-02T15:04:02Z" changeset="119237685" uid="3497659" user="NKA">
		<tag k="historic" v="shieling" />
		<tag k="name" v="Vistestølen" />
		<tag k="place" v="isolated_dwelling" />
		<tag k="ssr:stedsnr" v="102333" />
	</node>
	<node id="9631540193" lat="61.1254251" lon="8.8464412" version="1" timestamp="2022-04-02T15:04:02Z" changeset="119237685" uid="3497659" user="NKA">
		<tag k="name" v="Kårstad" />
		<tag k="place" v="hamlet" />
		<tag k="ssr:stedsnr" v="189106" />
	</node>
	<node id="9631540194" lat="61.0907611" lon="8.943125" version="1" timestamp="2022-04-02T15:04:02Z" changeset="119237685" uid="3497659" user="NKA">
		<tag k="name" v="Øvre Frigstadplassen" />
		<tag k="place" v="locality" />
		<tag k="ssr:stedsnr" v="951424" />
	</node>
	<node id="9631540195" lat="61.0370908" lon="8.8524765" version="1" timestamp="2022-04-02T15:04:02Z" changeset="119237685" uid="3497659" user="NKA">
		<tag k="historic" v="shieling" />
		<tag k="name" v="Lomtjernstølane" />
		<tag k="place" v="isolated_dwelling" />
		<tag k="ssr:stedsnr" v="221325" />
	</node>
	<node id="9631540196" lat="61.0727383" lon="9.0056241" version="1" timestamp="2022-04-02T15:04:02Z" changeset="119237685" uid="3497659" user="NKA">
		<tag k="name" v="Jarstad" />
		<tag k="place" v="farm" />
		<tag k="ssr:stedsnr" v="796880" />
	</node>
	<node id="9631540197" lat="61.1403946" lon="8.8874543" version="1" timestamp="2022-04-02T15:04:02Z" changeset="119237685" uid="3497659" user="NKA">
		<tag k="alt_name" v="Egge, nedre;Egge" />
		<tag k="name" v="Nedre Egge" />
		<tag k="place" v="farm" />
		<tag k="ssr:stedsnr" v="735087" />
	</node>
	<node id="9631540198" lat="60.982041" lon="8.80591" version="1" timestamp="2022-04-02T15:04:02Z" changeset="119237685" uid="3497659" user="NKA">
		<tag k="alt_name" v="Mostølen" />
		<tag k="historic" v="shieling" />
		<tag k="name" v="Mosstølen" />
		<tag k="place" v="isolated_dwelling" />
		<tag k="ssr:stedsnr" v="344654" />
	</node>
	<node id="9631540199" lat="61.0571909" lon="8.9980764" version="1" timestamp="2022-04-02T15:04:02Z" changeset="119237685" uid="3497659" user="NKA">
		<tag k="name" v="Skogtun" />
		<tag k="place" v="farm" />
		<tag k="ssr:stedsnr" v="41885" />
	</node>
	<node id="9631540200" lat="61.0745616" lon="8.7569868" version="1" timestamp="2022-04-02T15:04:02Z" changeset="119237685" uid="3497659" user="NKA">
		<tag k="historic" v="shieling" />
		<tag k="name" v="Høymissyndin" />
		<tag k="place" v="isolated_dwelling" />
		<tag k="ssr:stedsnr" v="403327" />
	</node>
	<node id="9631540201" lat="61.0276832" lon="8.8766826" version="1" timestamp="2022-04-02T15:04:02Z" changeset="119237685" uid="3497659" user="NKA">
		<tag k="historic" v="shieling" />
		<tag k="name" v="Klukkergardstølen" />
		<tag k="place" v="isolated_dwelling" />
		<tag k="ssr:stedsnr" v="102490" />
	</node>
	<node id="9631540202" lat="61.0942888" lon="8.9793242" version="1" timestamp="2022-04-02T15:04:02Z" changeset="119237685" uid="3497659" user="NKA">
		<tag k="alt_name" v="Fylki" />
		<tag k="name" v="Fulkji" />
		<tag k="place" v="farm" />
		<tag k="ssr:stedsnr" v="6215" />
	</node>
	<node id="9631540203" lat="61.0430679" lon="9.1489269" version="1" timestamp="2022-04-02T15:04:02Z" changeset="119237685" uid="3497659" user="NKA">
		<tag k="name" v="Brenna" />
		<tag k="place" v="farm" />
		<tag k="ssr:stedsnr" v="492792" />
	</node>
	<node id="9631540204" lat="60.996175" lon="8.750175" version="1" timestamp="2022-04-02T15:04:02Z" changeset="119237685" uid="3497659" user="NKA">
		<tag k="name" v="Kvithaug" />
		<tag k="place" v="isolated_dwelling" />
		<tag k="ssr:stedsnr" v="433792" />
	</node>
	<node id="9631540205" lat="61.0651976" lon="9.0441526" version="1" timestamp="2022-04-02T15:04:02Z" changeset="119237685" uid="3497659" user="NKA">
		<tag k="name" v="Hagen" />
		<tag k="place" v="farm" />
		<tag k="ssr:stedsnr" v="796886" />
	</node>
	<node id="9631540206" lat="61.058807" lon="8.7512161" version="1" timestamp="2022-04-02T15:04:02Z" changeset="119237685" uid="3497659" user="NKA">
		<tag k="historic" v="shieling" />
		<tag k="name" v="Løkjistølen" />
		<tag k="place" v="isolated_dwelling" />
		<tag k="ssr:stedsnr" v="403330" />
	</node>
	<node id="9631540207" lat="61.068025" lon="8.9769639" version="1" timestamp="2022-04-02T15:04:02Z" changeset="119237685" uid="3497659" user="NKA">
		<tag k="name" v="Vikabråten" />
		<tag k="place" v="farm" />
		<tag k="ssr:stedsnr" v="492877" />
	</node>
	<node id="9631540208" lat="61.0689993" lon="8.9811074" version="1" timestamp="2022-04-02T15:04:02Z" changeset="119237685" uid="3497659" user="NKA">
		<tag k="name" v="Olvik" />
		<tag k="place" v="farm" />
		<tag k="ssr:stedsnr" v="371851" />
	</node>
	<node id="9631540209" lat="61.0233497" lon="9.1026391" version="1" timestamp="2022-04-02T15:04:02Z" changeset="119237685" uid="3497659" user="NKA">
		<tag k="name" v="Solstein" />
		<tag k="place" v="farm" />
		<tag k="ssr:stedsnr" v="613778" />
	</node>
	<node id="9631540210" lat="61.1658417" lon="8.8720501" version="1" timestamp="2022-04-02T15:04:02Z" changeset="119237685" uid="3497659" user="NKA">
		<tag k="alt_name" v="Moavolden" />
		<tag k="historic" v="shieling" />
		<tag k="name" v="Moastølen" />
		<tag k="place" v="isolated_dwelling" />
		<tag k="ssr:stedsnr" v="432029" />
	</node>
	<node id="9631540211" lat="61.0655782" lon="8.8147541" version="1" timestamp="2022-04-02T15:04:02Z" changeset="119237685" uid="3497659" user="NKA">
		<tag k="name" v="Geiteberg" />
		<tag k="place" v="isolated_dwelling" />
		<tag k="ssr:stedsnr" v="597488" />
	</node>
	<node id="9631540212" lat="61.159125" lon="8.9133111" version="1" timestamp="2022-04-02T15:04:02Z" changeset="119237685" uid="3497659" user="NKA">
		<tag k="alt_name" v="Høvsstøl" />
		<tag k="historic" v="shieling" />
		<tag k="name" v="Hovsstølane" />
		<tag k="place" v="isolated_dwelling" />
		<tag k="ssr:stedsnr" v="492043" />
	</node>
</osm>
