<?xml version="1.0" encoding="UTF-8"?>
<osm generator="osmapis" version="0.6">
	<node id="-12288" lat="62.0228583327" lon="6.38502499567">
		<tag k="name" v="Koppeelva" />
		<tag k="ssr:stedsnr" v="104957" />
		<tag k="waterway" v="stream" />
	</node>
	<node id="-12284" lat="62.0862749981" lon="6.04025000305">
		<tag k="name" v="Rumpene" />
		<tag k="natural" v="cape" />
		<tag k="ssr:stedsnr" v="104885" />
	</node>
	<node id="-12277" lat="62.136180552" lon="6.11412500573">
		<tag k="name" v="Storefureneset" />
		<tag k="natural" v="cape" />
		<tag k="ssr:stedsnr" v="104676" />
	</node>
	<node id="-12271" lat="62.0296888862" lon="6.08760000923">
		<tag k="name" v="Skarsvatnet" />
		<tag k="ssr:stedsnr" v="104637" />
		<tag k="waterway" v="stream" />
	</node>
	<node id="-12267" lat="61.9690055556" lon="6.10923610852">
		<tag k="name" v="Litledalselva" />
		<tag k="ssr:stedsnr" v="104594" />
		<tag k="waterway" v="stream" />
	</node>
	<node id="-10917" lat="62.041819448" lon="5.95375833843">
		<tag k="name" v="Skalaelva" />
		<tag k="ssr:stedsnr" v="468964" />
		<tag k="waterway" v="stream" />
	</node>
	<node id="-12246" lat="61.9786861116" lon="6.27557500566">
		<tag k="name" v="Grønestranda" />
		<tag k="natural" v="beach" />
		<tag k="ssr:stedsnr" v="104117" />
	</node>
	<node id="-12245" lat="62.1033416666" lon="6.15583055389">
		<tag k="name" v="Vadsteinelva" />
		<tag k="ssr:stedsnr" v="104095" />
		<tag k="waterway" v="stream" />
	</node>
	<node id="-12240" lat="62.0733305554" lon="6.17522500501">
		<tag k="name" v="Litlevatnet" />
		<tag k="natural" v="water" />
		<tag k="ssr:stedsnr" v="103418" />
	</node>
	<node id="-12236" lat="62.0230972219" lon="5.84046944001">
		<tag k="name" v="Mårstølelva" />
		<tag k="ssr:stedsnr" v="103321" />
		<tag k="waterway" v="stream" />
	</node>
	<node id="-12233" lat="61.9948388849" lon="5.79241110746">
		<tag k="name" v="Litlevatnet" />
		<tag k="natural" v="water" />
		<tag k="ssr:stedsnr" v="103046" />
	</node>
	<node id="-11252" lat="62.006025004" lon="6.29874721809">
		<tag k="name" v="Skarevatnet" />
		<tag k="natural" v="water" />
		<tag k="ssr:stedsnr" v="496699" />
	</node>
	<node id="-12202" lat="61.9526666643" lon="6.45644443647">
		<tag k="name" v="Urvika" />
		<tag k="natural" v="bay" />
		<tag k="ssr:stedsnr" v="92285" />
	</node>
	<node id="-12201" lat="61.9751388866" lon="6.51882778641">
		<tag k="name" v="Kvitla" />
		<tag k="ssr:stedsnr" v="92264" />
		<tag k="waterway" v="river" />
	</node>
	<node id="-12200" lat="62.0189222198" lon="6.58776111142">
		<tag k="name" v="Krokgrova" />
		<tag k="ssr:stedsnr" v="92253" />
		<tag k="waterway" v="stream" />
	</node>
	<node id="-12188" lat="62.0026638862" lon="6.05308611971">
		<tag k="name" v="Elvika" />
		<tag k="natural" v="bay" />
		<tag k="ssr:stedsnr" v="81331" />
	</node>
	<node id="-12186" lat="62.0138250006" lon="6.03979723112">
		<tag k="name" v="Store Sandvika" />
		<tag k="natural" v="bay" />
		<tag k="ssr:stedsnr" v="81307" />
	</node>
	<node id="-12179" lat="62.0160249995" lon="5.88988610907">
		<tag k="name" v="Furnesvatnet" />
		<tag k="natural" v="water" />
		<tag k="ssr:stedsnr" v="71993" />
	</node>
	<node id="-12170" lat="61.9603694478" lon="6.3177249932">
		<tag k="name" v="Skarvatnet" />
		<tag k="natural" v="water" />
		<tag k="ssr:stedsnr" v="71881" />
	</node>
	<node id="-12169" lat="62.1090999987" lon="5.90913334256">
		<tag k="name" v="Syrevadselva" />
		<tag k="ssr:stedsnr" v="71869" />
		<tag k="waterway" v="stream" />
	</node>
	<node id="-12166" lat="61.9869861094" lon="6.25074444652">
		<tag k="name" v="Litlevatnet" />
		<tag k="natural" v="water" />
		<tag k="ssr:stedsnr" v="71857" />
	</node>
	<node id="-12161" lat="62.0799194438" lon="6.37982776928">
		<tag k="name" v="Klingretevatnet" />
		<tag k="natural" v="water" />
		<tag k="ssr:stedsnr" v="71679" />
	</node>
	<node id="-12155" lat="62.0572944434" lon="6.67330833093">
		<tag k="name" v="Store Luka" />
		<tag k="natural" v="water" />
		<tag k="ssr:stedsnr" v="71744" />
	</node>
	<node id="-12140" lat="62.0783999978" lon="6.52092222461">
		<tag k="name" v="Litleelva" />
		<tag k="ssr:stedsnr" v="45978" />
		<tag k="waterway" v="stream" />
	</node>
	<node id="-12139" lat="62.1188194415" lon="6.53520278442">
		<tag k="name" v="Deplane" />
		<tag k="natural" v="water" />
		<tag k="ssr:stedsnr" v="45953" />
		<tag k="water" v="pond" />
	</node>
	<node id="-12135" lat="62.097261115" lon="6.55456388676">
		<tag k="name" v="Langeskredgrova" />
		<tag k="ssr:stedsnr" v="45946" />
		<tag k="waterway" v="stream" />
	</node>
	<node id="-12134" lat="62.1350111128" lon="6.64578055884">
		<tag k="name" v="Heimste Sæterelva" />
		<tag k="ssr:stedsnr" v="45826" />
		<tag k="waterway" v="stream" />
	</node>
	<node id="-12133" lat="62.1347694458" lon="6.63699723041">
		<tag k="name" v="Molsvora" />
		<tag k="ssr:stedsnr" v="45823" />
		<tag k="waterway" v="stream" />
	</node>
	<node id="-12131" lat="62.1520250009" lon="6.56351945373">
		<tag k="name" v="Alldysja" />
		<tag k="ssr:stedsnr" v="44990" />
		<tag k="waterway" v="stream" />
	</node>
	<node id="-11579" lat="62.0410888875" lon="6.40440833228">
		<tag k="name" v="Kleivaneset" />
		<tag k="natural" v="cape" />
		<tag k="ssr:stedsnr" v="885867" />
	</node>
	<node id="-12112" lat="62.128955559" lon="6.18345555062">
		<tag k="name" v="Vadsteinelva" />
		<tag k="ssr:stedsnr" v="43761" />
		<tag k="waterway" v="stream" />
	</node>
	<node id="-12111" lat="62.1249416652" lon="6.1960472283">
		<tag k="name" v="Angsteielva" />
		<tag k="ssr:stedsnr" v="43753" />
		<tag k="waterway" v="stream" />
	</node>
	<node id="-12110" lat="62.004547226" lon="5.98041667433">
		<tag k="name" v="Torelva" />
		<tag k="ssr:stedsnr" v="43725" />
		<tag k="waterway" v="stream" />
	</node>
	<node id="-12105" lat="62.0148222261" lon="6.07045832643">
		<tag k="name" v="Fureåkreelva" />
		<tag k="ssr:stedsnr" v="43655" />
		<tag k="waterway" v="stream" />
	</node>
	<node id="-12099" lat="61.9688083325" lon="6.05314443835">
		<tag k="name" v="Brekkegrova" />
		<tag k="ssr:stedsnr" v="43613" />
		<tag k="waterway" v="stream" />
	</node>
	<node id="-12095" lat="62.0951861087" lon="6.20598056397">
		<tag k="name" v="Hjartåelva" />
		<tag k="old_name" v="Hjarthaugelva" />
		<tag k="ssr:stedsnr" v="43549" />
		<tag k="waterway" v="stream" />
	</node>
	<node id="-12093" lat="61.9892611147" lon="6.33742499591">
		<tag k="name" v="Tverelvosen" />
		<tag k="natural" v="bay" />
		<tag k="ssr:stedsnr" v="43515" />
	</node>
	<node id="-12091" lat="62.1066194472" lon="6.22809999665">
		<tag k="name" v="Aldalsvatnet" />
		<tag k="natural" v="water" />
		<tag k="ssr:stedsnr" v="43495" />
		<tag k="water" v="lake" />
	</node>
	<node id="-10548" lat="61.9652499972" lon="6.3339750032">
		<tag k="name" v="Erkevatnet" />
		<tag k="natural" v="water" />
		<tag k="ssr:stedsnr" v="131907" />
	</node>
	<node id="-12084" lat="62.0346194458" lon="5.89254722115">
		<tag k="alt_name" v="Eissa" />
		<tag k="name" v="Eidsetelva" />
		<tag k="ssr:stedsnr" v="43322" />
		<tag k="waterway" v="stream" />
	</node>
	<node id="-12075" lat="62.0203416638" lon="5.87814722203">
		<tag k="name" v="Alsværelva" />
		<tag k="ssr:stedsnr" v="43246" />
		<tag k="waterway" v="stream" />
	</node>
	<node id="-12061" lat="62.1664972247" lon="5.92019444911">
		<tag k="name" v="Litleelva" />
		<tag k="ssr:stedsnr" v="43030" />
		<tag k="waterway" v="stream" />
	</node>
	<node id="-12039" lat="62.0391694483" lon="6.39353333495">
		<tag k="name" v="Kasteneset" />
		<tag k="natural" v="cape" />
		<tag k="ssr:stedsnr" v="35900" />
	</node>
	<node id="-12038" lat="62.040316667" lon="6.42545833324">
		<tag k="name" v="Setreelva" />
		<tag k="ssr:stedsnr" v="35899" />
		<tag k="waterway" v="river" />
	</node>
	<node id="-12037" lat="62.142863886" lon="6.15027499668">
		<tag k="name" v="Donkafossen" />
		<tag k="natural" v="waterfall" />
		<tag k="ssr:stedsnr" v="35893" />
	</node>
	<node id="-12012" lat="61.9452305537" lon="6.47248333957">
		<tag k="name" v="Smellen" />
		<tag k="natural" v="beach" />
		<tag k="ssr:stedsnr" v="32270" />
	</node>
	<node id="-12010" lat="61.979297218" lon="6.45514722707">
		<tag k="name" v="Otredalsstranda" />
		<tag k="natural" v="beach" />
		<tag k="ssr:stedsnr" v="32249" />
	</node>
	<node id="-12009" lat="61.9771638889" lon="6.45894723">
		<tag k="name" v="Høgefloggrova" />
		<tag k="ssr:stedsnr" v="32248" />
		<tag k="waterway" v="stream" />
	</node>
	<node id="-12008" lat="61.9853555569" lon="6.45892777398">
		<tag k="name" v="Strekegrova" />
		<tag k="ssr:stedsnr" v="32243" />
		<tag k="waterway" v="stream" />
	</node>
	<node id="-12007" lat="61.9373305576" lon="6.52487499867">
		<tag k="name" v="Botnagrova" />
		<tag k="ssr:stedsnr" v="32241" />
		<tag k="waterway" v="stream" />
	</node>
	<node id="-11999" lat="62.0503833332" lon="5.94277499432">
		<tag k="alt_name" v="Storelva" />
		<tag k="name" v="Dalselva" />
		<tag k="ssr:stedsnr" v="11894" />
		<tag k="waterway" v="river" />
	</node>
	<node id="-11995" lat="62.0605027761" lon="5.99117222362">
		<tag k="name" v="Litlebøvatnet" />
		<tag k="natural" v="water" />
		<tag k="ssr:stedsnr" v="11881" />
		<tag k="water" v="lake" />
	</node>
	<node id="-11987" lat="62.1306388898" lon="6.541319448">
		<tag k="name" v="Kvamsetelva" />
		<tag k="ssr:stedsnr" v="11681" />
		<tag k="waterway" v="stream" />
	</node>
	<node id="-11986" lat="62.1239166703" lon="6.66609166609">
		<tag k="name" v="Litlehornvatnet" />
		<tag k="natural" v="water" />
		<tag k="ssr:stedsnr" v="11677" />
	</node>
	<node id="-11979" lat="62.0049333289" lon="6.33682777631">
		<tag k="name" v="Vassdalsvatnet" />
		<tag k="natural" v="water" />
		<tag k="ssr:stedsnr" v="11251" />
	</node>
	<node id="-11961" lat="62.1016805556" lon="6.67084722906">
		<tag k="name" v="Kvitelvsdalsvatnet" />
		<tag k="natural" v="water" />
		<tag k="ssr:stedsnr" v="10670" />
		<tag k="water" v="lake" />
	</node>
	<node id="-11958" lat="61.9878249991" lon="5.99318610272">
		<tag k="name" v="Koppelva" />
		<tag k="ssr:stedsnr" v="10283" />
		<tag k="waterway" v="stream" />
	</node>
	<node id="-11956" lat="61.9689055511" lon="6.08269999714">
		<tag k="name" v="Langevatnet" />
		<tag k="natural" v="water" />
		<tag k="ssr:stedsnr" v="10260" />
	</node>
	<node id="-10525" lat="62.186725" lon="5.99024722698">
		<tag k="name" v="Fossane" />
		<tag k="natural" v="waterfall" />
		<tag k="ssr:stedsnr" v="96960" />
	</node>
	<node id="-11940" lat="62.0318888887" lon="6.21604445161">
		<tag k="name" v="Osen" />
		<tag k="natural" v="bay" />
		<tag k="ssr:stedsnr" v="954013" />
	</node>
	<node id="-11939" lat="62.0416583348" lon="6.22557500089">
		<tag k="name" v="Stillakroken" />
		<tag k="natural" v="water" />
		<tag k="ssr:stedsnr" v="954008" />
		<tag k="water" v="lake" />
	</node>
	<node id="-11926" lat="61.9953972241" lon="5.78956110563">
		<tag k="name" v="Øvste Litlevatnet" />
		<tag k="natural" v="water" />
		<tag k="ssr:stedsnr" v="892037" />
	</node>
	<node id="-11918" lat="62.1550944462" lon="6.13257777519">
		<tag k="name" v="Røytehølen" />
		<tag k="place" v="locality" />
		<tag k="ssr:stedsnr" v="885854" />
	</node>
	<node id="-11905" lat="62.1695333368" lon="6.03777500561">
		<tag k="name" v="Sagelva" />
		<tag k="ssr:stedsnr" v="946927" />
		<tag k="waterway" v="stream" />
	</node>
	<node id="-11903" lat="61.992366669" lon="6.25751666838">
		<tag k="name" v="Hattemakartjønna" />
		<tag k="natural" v="water" />
		<tag k="ssr:stedsnr" v="860866" />
	</node>
	<node id="-10353" lat="62.0933361119" lon="5.91556666401">
		<tag k="name" v="Fossane" />
		<tag k="natural" v="waterfall" />
		<tag k="ssr:stedsnr" v="225308" />
	</node>
	<node id="-11898" lat="62.1057000037" lon="6.63308610946">
		<tag k="name" v="Kårdalsvatnet" />
		<tag k="natural" v="water" />
		<tag k="ssr:stedsnr" v="860703" />
	</node>
	<node id="-11896" lat="61.9905388887" lon="6.65083055772">
		<tag k="name" v="Storegrova" />
		<tag k="ssr:stedsnr" v="860265" />
		<tag k="waterway" v="stream" />
	</node>
	<node id="-11895" lat="61.981547218" lon="6.6299999927">
		<tag k="name" v="Holskarelva" />
		<tag k="ssr:stedsnr" v="860260" />
		<tag k="waterway" v="stream" />
	</node>
	<node id="-11894" lat="62.1854694485" lon="5.8686666578">
		<tag k="name" v="Storelva" />
		<tag k="ssr:stedsnr" v="860128" />
		<tag k="waterway" v="stream" />
	</node>
	<node id="-11875" lat="62.0025277747" lon="6.6036999963">
		<tag k="name" v="Bakketjønna" />
		<tag k="natural" v="water" />
		<tag k="ssr:stedsnr" v="942264" />
	</node>
	<node id="-11874" lat="61.9715861107" lon="6.53107221684">
		<tag k="name" v="Kirkhornselva" />
		<tag k="ssr:stedsnr" v="942245" />
		<tag k="waterway" v="river" />
	</node>
	<node id="-11873" lat="62.0263972228" lon="6.54505555531">
		<tag k="name" v="Guridøla" />
		<tag k="ssr:stedsnr" v="942237" />
		<tag k="waterway" v="river" />
	</node>
	<node id="-11868" lat="62.1367166687" lon="5.85424722325">
		<tag k="name" v="Feirdalsbruvatnet" />
		<tag k="natural" v="water" />
		<tag k="ssr:stedsnr" v="940410" />
	</node>
	<node id="-11865" lat="61.9455263144" lon="6.47045562856">
		<tag k="name" v="Hamnen" />
		<tag k="natural" v="bay" />
		<tag k="ssr:stedsnr" v="938267" />
	</node>
	<node id="-11864" lat="61.986238891" lon="6.34527222175">
		<tag k="name" v="Osdalselva" />
		<tag k="ssr:stedsnr" v="938196" />
		<tag k="waterway" v="river" />
	</node>
	<node id="-11862" lat="62.0753138847" lon="6.52535278015">
		<tag k="name" v="Lauadalselva" />
		<tag k="ssr:stedsnr" v="834971" />
		<tag k="waterway" v="stream" />
	</node>
	<node id="-11861" lat="62.0947138855" lon="6.55662778103">
		<tag k="name" v="Ljosåna" />
		<tag k="ssr:stedsnr" v="834955" />
		<tag k="waterway" v="stream" />
	</node>
	<node id="-11860" lat="62.1012861072" lon="5.96986111723">
		<tag k="name" v="Mjeltefjellelva" />
		<tag k="ssr:stedsnr" v="938001" />
		<tag k="waterway" v="stream" />
	</node>
	<node id="-11238" lat="61.9809499988" lon="6.09447500193">
		<tag k="name" v="Urfjellelva" />
		<tag k="ssr:stedsnr" v="495259" />
		<tag k="waterway" v="stream" />
	</node>
	<node id="-11853" lat="62.1370222212" lon="6.62603611998">
		<tag k="name" v="Rauden" />
		<tag k="ssr:stedsnr" v="833919" />
		<tag k="waterway" v="stream" />
	</node>
	<node id="-11834" lat="62.0057944428" lon="6.64047222008">
		<tag k="name" v="Kvernhusgrova" />
		<tag k="ssr:stedsnr" v="821253" />
		<tag k="waterway" v="stream" />
	</node>
	<node id="-11833" lat="61.9892861074" lon="6.09811110982">
		<tag k="name" v="Gamlolaholmen" />
		<tag k="place" v="islet" />
		<tag k="ssr:stedsnr" v="931331" />
	</node>
	<node id="-11832" lat="62.0311972186" lon="6.04907222425">
		<tag k="name" v="Svartevika" />
		<tag k="natural" v="bay" />
		<tag k="ssr:stedsnr" v="931281" />
	</node>
	<node id="-11188" lat="62.0609194411" lon="5.89341943968">
		<tag k="name" v="Otertjønna" />
		<tag k="natural" v="water" />
		<tag k="ssr:stedsnr" v="467306" />
	</node>
	<node id="-11826" lat="62.1841000037" lon="5.86519999471">
		<tag k="name" v="Skålaelva" />
		<tag k="ssr:stedsnr" v="800008" />
		<tag k="waterway" v="stream" />
	</node>
	<node id="-11825" lat="61.9272916695" lon="6.50863055653">
		<tag k="name" v="Bakketjønna" />
		<tag k="natural" v="water" />
		<tag k="ssr:stedsnr" v="799973" />
	</node>
	<node id="-11821" lat="62.1240250021" lon="6.16155832675">
		<tag k="name" v="Vardevatnet" />
		<tag k="natural" v="water" />
		<tag k="ssr:stedsnr" v="799796" />
	</node>
	<node id="-11812" lat="62.0262388924" lon="6.08663610419">
		<tag k="name" v="Skardsvatna" />
		<tag k="natural" v="water" />
		<tag k="ssr:stedsnr" v="921940" />
	</node>
	<node id="-11810" lat="62.0074000042" lon="5.78306111186">
		<tag k="name" v="Trongedalsvatnet" />
		<tag k="natural" v="water" />
		<tag k="ssr:stedsnr" v="921927" />
	</node>
	<node id="-11809" lat="62.0632527797" lon="5.93917777078">
		<tag k="name" v="Sollifossen" />
		<tag k="natural" v="waterfall" />
		<tag k="ssr:stedsnr" v="921922" />
	</node>
	<node id="-11804" lat="62.1065472182" lon="5.87395554937">
		<tag k="name" v="Skålavatnet" />
		<tag k="natural" v="water" />
		<tag k="ssr:stedsnr" v="921855" />
	</node>
	<node id="-11802" lat="62.1397083329" lon="6.11293332589">
		<tag k="name" v="Rotevatnet" />
		<tag k="natural" v="water" />
		<tag k="ssr:stedsnr" v="921810" />
		<tag k="water" v="lake" />
	</node>
	<node id="-11183" lat="62.0727444458" lon="5.86412500302">
		<tag k="name" v="Lomholmen" />
		<tag k="place" v="islet" />
		<tag k="ssr:stedsnr" v="455304" />
	</node>
	<node id="-11798" lat="62.120544447" lon="5.90955833645">
		<tag k="name" v="Dravlauselva" />
		<tag k="ssr:stedsnr" v="921778" />
		<tag k="waterway" v="stream" />
	</node>
	<node id="-11787" lat="62.0301111089" lon="6.6635222217">
		<tag k="name" v="Kringdøla" />
		<tag k="ssr:stedsnr" v="921714" />
		<tag k="waterway" v="stream" />
	</node>
	<node id="-11784" lat="62.0207194453" lon="6.72310277163">
		<tag k="name" v="Terdøla" />
		<tag k="ssr:stedsnr" v="921506" />
		<tag k="waterway" v="stream" />
	</node>
	<node id="-11778" lat="62.1697333292" lon="6.12954999322">
		<tag k="name" v="Dinglavatnet" />
		<tag k="natural" v="water" />
		<tag k="ssr:stedsnr" v="921042" />
	</node>
	<node id="-11776" lat="61.9355388896" lon="6.51573611084">
		<tag k="name" v="Kjøsapollen" />
		<tag k="natural" v="bay" />
		<tag k="ssr:stedsnr" v="920933" />
	</node>
	<node id="-11178" lat="62.0600694414" lon="6.21037778613">
		<tag k="name" v="Øydgardselva" />
		<tag k="ssr:stedsnr" v="436887" />
		<tag k="waterway" v="river" />
	</node>
	<node id="-11768" lat="61.9976472267" lon="6.49451389285">
		<tag k="name" v="Kvivselva" />
		<tag k="ssr:stedsnr" v="920834" />
		<tag k="waterway" v="stream" />
	</node>
	<node id="-11766" lat="61.9881916626" lon="6.27664722358">
		<tag k="name" v="Grøndalselva" />
		<tag k="ssr:stedsnr" v="920825" />
		<tag k="waterway" v="stream" />
	</node>
	<node id="-11765" lat="62.1509415879" lon="5.93905971563">
		<tag k="name" v="Sæsselva" />
		<tag k="ssr:stedsnr" v="920795" />
		<tag k="waterway" v="stream" />
	</node>
	<node id="-11759" lat="62.0955222256" lon="6.54529444932">
		<tag k="name" v="Saursvatnet" />
		<tag k="natural" v="water" />
		<tag k="ssr:stedsnr" v="921658" />
	</node>
	<node id="-11756" lat="61.989711115" lon="5.87344443543">
		<tag k="name" v="Tungeelva" />
		<tag k="ssr:stedsnr" v="920289" />
		<tag k="waterway" v="stream" />
	</node>
	<node id="-11755" lat="61.9937444415" lon="5.94784166892">
		<tag k="alt_name" v="Ljosurvatnet" />
		<tag k="name" v="Det runde vatnet" />
		<tag k="natural" v="water" />
		<tag k="ssr:stedsnr" v="920283" />
	</node>
	<node id="-11754" lat="61.9781444484" lon="6.0906527842">
		<tag k="name" v="Mørkevatnet" />
		<tag k="natural" v="water" />
		<tag k="ssr:stedsnr" v="920240" />
	</node>
	<node id="-11751" lat="61.9874194433" lon="6.76131110956">
		<tag k="name" v="Terdalsvatnet" />
		<tag k="natural" v="water" />
		<tag k="ssr:stedsnr" v="920207" />
	</node>
	<node id="-10491" lat="61.9692611141" lon="6.43072499127">
		<tag k="name" v="Nakkebryggja" />
		<tag k="natural" v="cape" />
		<tag k="ssr:stedsnr" v="253904" />
	</node>
	<node id="-11732" lat="62.0598888847" lon="6.24634722818">
		<tag k="name" v="Svadelva" />
		<tag k="ssr:stedsnr" v="771283" />
		<tag k="waterway" v="stream" />
	</node>
	<node id="-11713" lat="62.1225527779" lon="5.85800277532">
		<tag k="name" v="Daletverrelva" />
		<tag k="ssr:stedsnr" v="758333" />
		<tag k="waterway" v="river" />
	</node>
	<node id="-11711" lat="61.9896616899" lon="6.44429800273">
		<tag k="name" v="Brattegjølfossen" />
		<tag k="natural" v="waterfall" />
		<tag k="ssr:stedsnr" v="756161" />
	</node>
	<node id="-11710" lat="62.0125694459" lon="6.04004721425">
		<tag k="name" v="Lisje Sandvika" />
		<tag k="natural" v="bay" />
		<tag k="ssr:stedsnr" v="749314" />
	</node>
	<node id="-11689" lat="62.0957027789" lon="6.44008889211">
		<tag k="name" v="Krokfonna" />
		<tag k="ssr:stedsnr" v="894665" />
		<tag k="waterway" v="stream" />
	</node>
	<node id="-11682" lat="62.0012722197" lon="6.1325194476">
		<tag k="name" v="Store Skålelva" />
		<tag k="ssr:stedsnr" v="711620" />
		<tag k="waterway" v="stream" />
	</node>
	<node id="-11664" lat="62.0753305535" lon="6.31495556193">
		<tag k="name" v="Osen" />
		<tag k="natural" v="bay" />
		<tag k="ssr:stedsnr" v="893948" />
	</node>
	<node id="-11656" lat="62.1314499998" lon="6.19120832783">
		<tag k="name" v="Løkane" />
		<tag k="ssr:stedsnr" v="893752" />
		<tag k="waterway" v="stream" />
	</node>
	<node id="-13694" lat="61.9454722225" lon="6.57419166542">
		<tag k="name" v="Småskorvatnet" />
		<tag k="natural" v="water" />
		<tag k="ssr:stedsnr" v="859908" />
	</node>
	<node id="-10890" lat="62.0357361149" lon="5.89638332387">
		<tag k="name" v="Litleneselva" />
		<tag k="ssr:stedsnr" v="468294" />
		<tag k="waterway" v="stream" />
	</node>
	<node id="-11635" lat="62.0674555562" lon="6.19305000042">
		<tag k="name" v="Seterelva" />
		<tag k="ssr:stedsnr" v="893319" />
		<tag k="waterway" v="stream" />
	</node>
	<node id="-11631" lat="62.0634472189" lon="6.29018333681">
		<tag k="name" v="Bakkevatnet" />
		<tag k="natural" v="water" />
		<tag k="ssr:stedsnr" v="893282" />
	</node>
	<node id="-11627" lat="62.0776166661" lon="5.93632221543">
		<tag k="name" v="Skarveneset" />
		<tag k="natural" v="cape" />
		<tag k="ssr:stedsnr" v="893237" />
	</node>
	<node id="-13674" lat="61.9873488108" lon="6.51679190448">
		<tag k="name" v="Lønsøyane" />
		<tag k="natural" v="cape" />
		<tag k="ssr:stedsnr" v="976749" />
	</node>
	<node id="-11621" lat="61.9878999986" lon="5.82072500335">
		<tag k="name" v="Bjørnskredelva" />
		<tag k="ssr:stedsnr" v="893164" />
		<tag k="waterway" v="stream" />
	</node>
	<node id="-13664" lat="62.1329611152" lon="6.66128610854">
		<tag k="name" v="Tverelva" />
		<tag k="ssr:stedsnr" v="955845" />
		<tag k="waterway" v="stream" />
	</node>
	<node id="-13663" lat="62.131819448" lon="6.56335277553">
		<tag k="name" v="Ormesanden" />
		<tag k="ssr:stedsnr" v="955834" />
		<tag k="waterway" v="stream" />
	</node>
	<node id="-11611" lat="62.0844083359" lon="5.98379443853">
		<tag k="name" v="Trætteelva" />
		<tag k="ssr:stedsnr" v="892260" />
		<tag k="waterway" v="stream" />
	</node>
	<node id="-13650" lat="62.1563916673" lon="6.60706110821">
		<tag k="name" v="Miendå" />
		<tag k="ssr:stedsnr" v="954909" />
		<tag k="waterway" v="stream" />
	</node>
	<node id="-11600" lat="61.9894333332" lon="6.62584721397">
		<tag k="name" v="Engagrova" />
		<tag k="ssr:stedsnr" v="699253" />
		<tag k="waterway" v="stream" />
	</node>
	<node id="-13646" lat="62.0952833335" lon="6.54024999295">
		<tag k="name" v="Strandaplassen" />
		<tag k="natural" v="beach" />
		<tag k="ssr:stedsnr" v="954663" />
	</node>
	<node id="-13639" lat="62.0160083303" lon="6.102061115">
		<tag k="name" v="Hesjeelva" />
		<tag k="ssr:stedsnr" v="953680" />
		<tag k="waterway" v="stream" />
	</node>
	<node id="-13635" lat="62.013375001" lon="6.11689166509">
		<tag k="name" v="Sagelva" />
		<tag k="ssr:stedsnr" v="953609" />
		<tag k="waterway" v="stream" />
	</node>
	<node id="-13633" lat="61.9976694482" lon="6.36233055921">
		<tag k="name" v="Osdalselva" />
		<tag k="ssr:stedsnr" v="953571" />
		<tag k="waterway" v="stream" />
	</node>
	<node id="-11583" lat="62.1840361116" lon="6.04260833725">
		<tag k="name" v="Lindåsneset" />
		<tag k="natural" v="cape" />
		<tag k="ssr:stedsnr" v="885888" />
	</node>
	<node id="-13628" lat="62.0289972256" lon="6.3077999943">
		<tag k="name" v="Trollvatnet" />
		<tag k="natural" v="water" />
		<tag k="ssr:stedsnr" v="953972" />
	</node>
	<node id="-13627" lat="61.9854972263" lon="6.33895555732">
		<tag k="name" v="Tverelva" />
		<tag k="ssr:stedsnr" v="953967" />
		<tag k="waterway" v="stream" />
	</node>
	<node id="-13624" lat="62.0759611127" lon="5.87313334119">
		<tag k="name" v="Gløsavatnet" />
		<tag k="natural" v="water" />
		<tag k="ssr:stedsnr" v="953261" />
	</node>
	<node id="-11575" lat="62.0064361144" lon="5.73849723012">
		<tag k="name" v="Vaskarvatnet" />
		<tag k="natural" v="water" />
		<tag k="ssr:stedsnr" v="678922" />
	</node>
	<node id="-13622" lat="62.075288886" lon="6.17290000644">
		<tag k="name" v="Nykkedalselva" />
		<tag k="ssr:stedsnr" v="953169" />
		<tag k="waterway" v="stream" />
	</node>
	<node id="-11572" lat="62.0024944406" lon="6.5165694369">
		<tag k="name" v="Fosselva" />
		<tag k="ssr:stedsnr" v="678808" />
		<tag k="waterway" v="stream" />
	</node>
	<node id="-11571" lat="62.1067055595" lon="6.32376110187">
		<tag k="name" v="Blæjavatnet" />
		<tag k="natural" v="water" />
		<tag k="ssr:stedsnr" v="678669" />
	</node>
	<node id="-11565" lat="62.0127805533" lon="6.52727222462">
		<tag k="alt_name" v="Dammane" />
		<tag k="name" v="Hingardsvatna" />
		<tag k="natural" v="water" />
		<tag k="ssr:stedsnr" v="678270" />
		<tag k="water" v="lake" />
	</node>
	<node id="-13611" lat="61.9819194416" lon="5.75422222973">
		<tag k="name" v="Trongedalsvatnet" />
		<tag k="natural" v="water" />
		<tag k="ssr:stedsnr" v="953010" />
	</node>
	<node id="-13607" lat="62.074863888" lon="5.89269444032">
		<tag k="name" v="Koppeelva" />
		<tag k="ssr:stedsnr" v="953341" />
		<tag k="waterway" v="stream" />
	</node>
	<node id="-11558" lat="61.984836111" lon="6.70518333927">
		<tag k="name" v="Knutsdøla" />
		<tag k="ssr:stedsnr" v="677219" />
		<tag k="waterway" v="river" />
	</node>
	<node id="-11546" lat="61.9937888902" lon="6.57480832825">
		<tag k="name" v="Krokaøya" />
		<tag k="place" v="islet" />
		<tag k="ssr:stedsnr" v="882253" />
	</node>
	<node id="-11545" lat="61.9826416635" lon="6.50796943783">
		<tag k="name" v="Brokøya" />
		<tag k="natural" v="cape" />
		<tag k="ssr:stedsnr" v="882245" />
	</node>
	<node id="-11544" lat="61.9720666624" lon="6.47226389097">
		<tag k="name" v="Merkingsgjølet" />
		<tag k="ssr:stedsnr" v="882244" />
		<tag k="waterway" v="stream" />
	</node>
	<node id="-13589" lat="62.1066999957" lon="6.22905554834">
		<tag k="name" v="Ullalandsvatnet" />
		<tag k="natural" v="water" />
		<tag k="ssr:stedsnr" v="861629" />
		<tag k="water" v="lake" />
	</node>
	<node id="-13582" lat="62.0640416699" lon="6.02725833845">
		<tag k="name" v="Langevatna" />
		<tag k="natural" v="water" />
		<tag k="ssr:stedsnr" v="860946" />
	</node>
	<node id="-13581" lat="62.072977777" lon="6.05392499872">
		<tag k="name" v="Straumselva" />
		<tag k="ssr:stedsnr" v="860945" />
		<tag k="waterway" v="stream" />
	</node>
	<node id="-11531" lat="61.9948222215" lon="6.37126665997">
		<tag k="name" v="Lemelva" />
		<tag k="ssr:stedsnr" v="877218" />
		<tag k="waterway" v="stream" />
	</node>
	<node id="-13577" lat="62.0448277791" lon="6.47339722916">
		<tag k="name" v="Eggjadalsvatnet" />
		<tag k="natural" v="water" />
		<tag k="ssr:stedsnr" v="860742" />
	</node>
	<node id="-13573" lat="62.0850750005" lon="6.52106388451">
		<tag k="name" v="Raudstadvatnet" />
		<tag k="natural" v="water" />
		<tag k="ssr:stedsnr" v="860684" />
		<tag k="water" v="lake" />
	</node>
	<node id="-13570" lat="61.999097223" lon="5.9210555483">
		<tag k="name" v="Blåfjellvatnet" />
		<tag k="natural" v="water" />
		<tag k="ssr:stedsnr" v="860350" />
	</node>
	<node id="-13566" lat="61.9836916633" lon="6.69236945422">
		<tag k="name" v="Tverrelva" />
		<tag k="ssr:stedsnr" v="860285" />
		<tag k="waterway" v="stream" />
	</node>
	<node id="-13564" lat="61.9867888911" lon="5.76200832798">
		<tag k="name" v="Bjørndalsvatnet" />
		<tag k="natural" v="water" />
		<tag k="ssr:stedsnr" v="859022" />
	</node>
	<node id="-13563" lat="61.9917194463" lon="5.7776249916">
		<tag k="name" v="Tryftavatnet" />
		<tag k="natural" v="water" />
		<tag k="ssr:stedsnr" v="859020" />
	</node>
	<node id="-13554" lat="62.0209527794" lon="6.17846111143">
		<tag k="name" v="Feirdalselva" />
		<tag k="ssr:stedsnr" v="833006" />
		<tag k="waterway" v="stream" />
	</node>
	<node id="-13553" lat="62.0241999999" lon="6.30560277166">
		<tag k="name" v="Grønevatnet" />
		<tag k="natural" v="water" />
		<tag k="ssr:stedsnr" v="832976" />
	</node>
	<node id="-13549" lat="62.1750222241" lon="5.88881111025">
		<tag k="name" v="Stordalselva" />
		<tag k="ssr:stedsnr" v="832925" />
		<tag k="waterway" v="stream" />
	</node>
	<node id="-11488" lat="61.9923611085" lon="6.64789167369">
		<tag k="name" v="Storegrova" />
		<tag k="ssr:stedsnr" v="638245" />
		<tag k="waterway" v="stream" />
	</node>
	<node id="-11487" lat="61.9624499965" lon="6.54084722966">
		<tag k="name" v="Megrova" />
		<tag k="ssr:stedsnr" v="638241" />
		<tag k="waterway" v="stream" />
	</node>
	<node id="-11484" lat="62.0254000042" lon="6.16653889244">
		<tag k="name" v="Sorpstøda" />
		<tag k="place" v="locality" />
		<tag k="ssr:stedsnr" v="627310" />
	</node>
	<node id="-13530" lat="62.0058305545" lon="6.07600833978">
		<tag k="name" v="Brendholmen" />
		<tag k="place" v="islet" />
		<tag k="ssr:stedsnr" v="832591" />
	</node>
	<node id="-13525" lat="61.9909166648" lon="6.36113888101">
		<tag k="name" v="Navelsakerelva" />
		<tag k="ssr:stedsnr" v="832564" />
		<tag k="waterway" v="stream" />
	</node>
	<node id="-11476" lat="62.0717777792" lon="6.45405832797">
		<tag k="name" v="Sleddalselva" />
		<tag k="ssr:stedsnr" v="617768" />
		<tag k="waterway" v="stream" />
	</node>
	<node id="-11469" lat="61.9662472252" lon="6.64103888662">
		<tag k="name" v="Holskarvatnet" />
		<tag k="natural" v="water" />
		<tag k="ssr:stedsnr" v="616172" />
	</node>
	<node id="-13515" lat="62.0717749998" lon="5.87669721353">
		<tag k="fixme" v="multiple name tags, choose one and add the other to alt_name" />
		<tag k="name" v="Trangedalsvatna;Trangedalsvatnet" />
		<tag k="natural" v="water" />
		<tag k="ssr:stedsnr" v="832356" />
		<tag k="water" v="lake" />
	</node>
	<node id="-13512" lat="62.096566671" lon="6.28511666554">
		<tag k="name" v="Aurstadsætervatnet" />
		<tag k="natural" v="water" />
		<tag k="ssr:stedsnr" v="832328" />
	</node>
	<node id="-11461" lat="62.1508055533" lon="6.5686583409">
		<tag k="name" v="Sannfonna" />
		<tag k="ssr:stedsnr" v="711994" />
		<tag k="waterway" v="stream" />
	</node>
	<node id="-13508" lat="61.996005557" lon="5.80789721473">
		<tag k="name" v="Kopna" />
		<tag k="ssr:stedsnr" v="832138" />
		<tag k="waterway" v="stream" />
	</node>
	<node id="-11455" lat="62.1572777802" lon="6.17684165867">
		<tag k="name" v="Storeraudelva" />
		<tag k="ssr:stedsnr" v="711986" />
		<tag k="waterway" v="stream" />
	</node>
	<node id="-13502" lat="62.0550527813" lon="6.09196666403">
		<tag k="name" v="Botnaelva" />
		<tag k="ssr:stedsnr" v="832069" />
		<tag k="waterway" v="stream" />
	</node>
	<node id="-11451" lat="62.1434666667" lon="5.93071111331">
		<tag k="name" v="Djupedalselva" />
		<tag k="ssr:stedsnr" v="711689" />
		<tag k="waterway" v="stream" />
	</node>
	<node id="-11450" lat="62.1383250027" lon="5.93243889277">
		<tag k="name" v="Kvannelva" />
		<tag k="ssr:stedsnr" v="711688" />
		<tag k="waterway" v="stream" />
	</node>
	<node id="-13489" lat="62.0762388896" lon="6.48073055254">
		<tag k="name" v="Storefonna" />
		<tag k="ssr:stedsnr" v="826614" />
		<tag k="waterway" v="stream" />
	</node>
	<node id="-11434" lat="61.9839888857" lon="6.30710556222">
		<tag k="name" v="Litlevassdalselva" />
		<tag k="ssr:stedsnr" v="589514" />
		<tag k="waterway" v="stream" />
	</node>
	<node id="-13481" lat="62.1447694432" lon="6.07630277647">
		<tag k="name" v="Øyraelva" />
		<tag k="ssr:stedsnr" v="824942" />
		<tag k="waterway" v="river" />
	</node>
	<node id="-11431" lat="62.1048222179" lon="6.23036944096">
		<tag k="name" v="Storeneset" />
		<tag k="natural" v="cape" />
		<tag k="ssr:stedsnr" v="589503" />
	</node>
	<node id="-11423" lat="61.986494443" lon="6.27934999107">
		<tag k="name" v="Kvislane" />
		<tag k="ssr:stedsnr" v="589123" />
		<tag k="waterway" v="stream" />
	</node>
	<node id="-11460" lat="62.0319972226" lon="5.95513055237">
		<tag k="name" v="Bredvellselva" />
		<tag k="ssr:stedsnr" v="711942" />
		<tag k="waterway" v="stream" />
	</node>
	<node id="-13460" lat="61.9491194432" lon="6.46353610574">
		<tag k="name" v="Kongsviksaga" />
		<tag k="natural" v="bay" />
		<tag k="ssr:stedsnr" v="821291" />
	</node>
	<node id="-13458" lat="61.9729722228" lon="6.51133610154">
		<tag k="name" v="Storebryggja" />
		<tag k="natural" v="bay" />
		<tag k="ssr:stedsnr" v="821281" />
	</node>
	<node id="-13457" lat="61.9715194403" lon="6.49611389324">
		<tag k="name" v="Ytre-hornstranda" />
		<tag k="natural" v="beach" />
		<tag k="ssr:stedsnr" v="821278" />
	</node>
	<node id="-13456" lat="61.9712805515" lon="6.47588888126">
		<tag k="name" v="Grytegjølet" />
		<tag k="ssr:stedsnr" v="821251" />
		<tag k="waterway" v="stream" />
	</node>
	<node id="-13455" lat="61.9908583319" lon="6.69787777122">
		<tag k="name" v="Knutsdøla" />
		<tag k="ssr:stedsnr" v="821246" />
		<tag k="waterway" v="river" />
	</node>
	<node id="-11399" lat="62.0941055517" lon="5.96516389509">
		<tag k="name" v="Storelva" />
		<tag k="ssr:stedsnr" v="710530" />
		<tag k="waterway" v="stream" />
	</node>
	<node id="-13445" lat="62.0027527788" lon="6.05671389025">
		<tag k="name" v="Sivertneset" />
		<tag k="natural" v="cape" />
		<tag k="ssr:stedsnr" v="810306" />
	</node>
	<node id="-13444" lat="62.0338888932" lon="6.04639721475">
		<tag k="name" v="Midvassosen" />
		<tag k="natural" v="bay" />
		<tag k="ssr:stedsnr" v="810275" />
	</node>
	<node id="-11394" lat="62.1102388874" lon="6.02847777631">
		<tag k="name" v="Floteelva" />
		<tag k="ssr:stedsnr" v="710399" />
		<tag k="waterway" v="stream" />
	</node>
	<node id="-13441" lat="62.0305916705" lon="6.04584444771">
		<tag k="name" v="Midvatnet" />
		<tag k="natural" v="water" />
		<tag k="ssr:stedsnr" v="800999" />
	</node>
	<node id="-13439" lat="62.069830556" lon="6.17516111238">
		<tag k="name" v="Nykkjedalsvatnet" />
		<tag k="natural" v="water" />
		<tag k="ssr:stedsnr" v="800926" />
	</node>
	<node id="-13437" lat="62.0460972254" lon="6.08138611806">
		<tag k="name" v="Heideelva" />
		<tag k="ssr:stedsnr" v="800968" />
		<tag k="waterway" v="stream" />
	</node>
	<node id="-13436" lat="62.0146138905" lon="6.21751666776">
		<tag k="name" v="Rinddalsvatnet" />
		<tag k="natural" v="water" />
		<tag k="ssr:stedsnr" v="800966" />
	</node>
	<node id="-13431" lat="62.063572222" lon="6.54406389113">
		<tag k="name" v="Lauvadalsvatnet" />
		<tag k="natural" v="water" />
		<tag k="ssr:stedsnr" v="800695" />
	</node>
	<node id="-11382" lat="61.9879249961" lon="5.82433055956">
		<tag k="name" v="Vassbakkedalselva" />
		<tag k="ssr:stedsnr" v="710169" />
		<tag k="waterway" v="river" />
	</node>
	<node id="-13428" lat="62.0414388895" lon="6.22254444733">
		<tag k="name" v="Storelva" />
		<tag k="ssr:stedsnr" v="800684" />
		<tag k="waterway" v="river" />
	</node>
	<node id="-10472" lat="62.0598307263" lon="6.61572615461">
		<tag k="name" v="Tyssekupa" />
		<tag k="natural" v="water" />
		<tag k="ssr:stedsnr" v="253737" />
	</node>
	<node id="-11375" lat="62.0057277752" lon="6.64676110486">
		<tag k="name" v="Raftevoldgrova" />
		<tag k="ssr:stedsnr" v="578252" />
		<tag k="waterway" v="stream" />
	</node>
	<node id="-13420" lat="62.1076944431" lon="6.51586111315">
		<tag k="name" v="Sætreelva" />
		<tag k="ssr:stedsnr" v="800657" />
		<tag k="waterway" v="river" />
	</node>
	<node id="-11371" lat="62.0190444457" lon="6.55996667391">
		<tag k="name" v="Guridøla" />
		<tag k="ssr:stedsnr" v="578234" />
		<tag k="waterway" v="river" />
	</node>
	<node id="-11370" lat="62.0251916624" lon="6.72178888973">
		<tag k="name" v="Gjølsgrova" />
		<tag k="ssr:stedsnr" v="578225" />
		<tag k="waterway" v="stream" />
	</node>
	<node id="-13416" lat="62.1110861101" lon="6.16620000428">
		<tag k="name" v="Sætrevatnet" />
		<tag k="natural" v="water" />
		<tag k="ssr:stedsnr" v="799903" />
	</node>
	<node id="-11363" lat="62.0735000029" lon="6.48715834064">
		<tag k="name" v="Timbreløken" />
		<tag k="ssr:stedsnr" v="704587" />
		<tag k="waterway" v="stream" />
	</node>
	<node id="-11360" lat="62.0311722241" lon="6.38333888037">
		<tag k="name" v="Kopeelva" />
		<tag k="ssr:stedsnr" v="703953" />
		<tag k="waterway" v="river" />
	</node>
	<node id="-13407" lat="62.1185777797" lon="6.1758583296">
		<tag k="alt_name" v="Vadsteinvatnet" />
		<tag k="name" v="Vassteinvatnet" />
		<tag k="natural" v="water" />
		<tag k="ssr:stedsnr" v="799886" />
	</node>
	<node id="-11353" lat="62.1477277757" lon="6.1247083324">
		<tag k="name" v="Elvadalen" />
		<tag k="ssr:stedsnr" v="703896" />
		<tag k="waterway" v="stream" />
	</node>
	<node id="-13398" lat="62.0998972266" lon="6.32514722184">
		<tag k="name" v="Kløftetjønna" />
		<tag k="natural" v="water" />
		<tag k="ssr:stedsnr" v="799689" />
	</node>
	<node id="-13395" lat="62.1006611114" lon="6.56676667483">
		<tag k="name" v="Tyssa" />
		<tag k="ssr:stedsnr" v="799663" />
		<tag k="waterway" v="river" />
	</node>
	<node id="-11344" lat="62.0105805565" lon="6.14973333781">
		<tag k="name" v="Tverrelvdalsvatnet" />
		<tag k="natural" v="water" />
		<tag k="ssr:stedsnr" v="556963" />
	</node>
	<node id="-13384" lat="62.0715666655" lon="6.47681943513">
		<tag k="name" v="Kvislane" />
		<tag k="ssr:stedsnr" v="787913" />
		<tag k="waterway" v="stream" />
	</node>
	<node id="-11335" lat="61.9750027806" lon="6.33016388453">
		<tag k="fixme" v="multiple name tags, choose one and add the other to alt_name" />
		<tag k="name" v="Botnatjønna;Melheimstjønna" />
		<tag k="natural" v="water" />
		<tag k="ssr:stedsnr" v="556875" />
	</node>
	<node id="-11332" lat="62.107475003" lon="5.84523055498">
		<tag k="fixme" v="multiple name tags, choose one and add the other to alt_name" />
		<tag k="name" v="Trollholvatnet;Trollvatnet" />
		<tag k="natural" v="water" />
		<tag k="ssr:stedsnr" v="556857" />
	</node>
	<node id="-11331" lat="62.0921138887" lon="6.00346666166">
		<tag k="fixme" v="multiple name tags, choose one and add the other to alt_name" />
		<tag k="name" v="Folkestadvatnet;Folkestaddalsvatnet" />
		<tag k="natural" v="water" />
		<tag k="old_name" v="Folkestad-dals-vatnet" />
		<tag k="ssr:stedsnr" v="556828" />
		<tag k="water" v="lake" />
	</node>
	<node id="-11330" lat="61.9965388921" lon="6.44408054824">
		<tag k="name" v="Bjørnholgrova" />
		<tag k="ssr:stedsnr" v="556827" />
		<tag k="waterway" v="stream" />
	</node>
	<node id="-11328" lat="61.9916694434" lon="6.33609444512">
		<tag k="name" v="Storevassdalsvatnet" />
		<tag k="natural" v="water" />
		<tag k="ssr:stedsnr" v="556823" />
	</node>
	<node id="-11327" lat="62.021619444" lon="6.67786943634">
		<tag k="name" v="Sætreelva" />
		<tag k="ssr:stedsnr" v="556714" />
		<tag k="waterway" v="river" />
	</node>
	<node id="-13374" lat="62.1157583334" lon="6.54262499133">
		<tag k="name" v="Ryseåna" />
		<tag k="ssr:stedsnr" v="773966" />
		<tag k="waterway" v="stream" />
	</node>
	<node id="-13372" lat="62.0885944474" lon="6.53078333498">
		<tag k="name" v="Arneset" />
		<tag k="natural" v="cape" />
		<tag k="ssr:stedsnr" v="773587" />
	</node>
	<node id="-13369" lat="61.992900002" lon="6.03661944158">
		<tag k="name" v="Tverelva" />
		<tag k="ssr:stedsnr" v="772581" />
		<tag k="waterway" v="stream" />
	</node>
	<node id="-11315" lat="62.0472388864" lon="6.666058324">
		<tag k="name" v="Litlelukegrova" />
		<tag k="ssr:stedsnr" v="699242" />
		<tag k="waterway" v="stream" />
	</node>
	<node id="-10419" lat="62.0273944476" lon="6.58761388013">
		<tag k="name" v="Blabredøla" />
		<tag k="ssr:stedsnr" v="32217" />
		<tag k="waterway" v="river" />
	</node>
	<node id="-13358" lat="62.1074749979" lon="6.22450277712">
		<tag k="name" v="Grønemyrneset" />
		<tag k="natural" v="cape" />
		<tag k="ssr:stedsnr" v="771544" />
	</node>
	<node id="-11309" lat="61.9783722211" lon="6.44332778352">
		<tag k="name" v="Litleneset" />
		<tag k="natural" v="cape" />
		<tag k="ssr:stedsnr" v="699282" />
	</node>
	<node id="-11308" lat="61.9470694461" lon="6.46391944552">
		<tag k="name" v="Ragnhildneset" />
		<tag k="ssr:stedsnr" v="699280" />
		<tag k="waterway" v="stream" />
	</node>
	<node id="-11307" lat="61.9566500014" lon="6.47658888367">
		<tag k="name" v="Vinkjellaren" />
		<tag k="natural" v="beach" />
		<tag k="ssr:stedsnr" v="699278" />
	</node>
	<node id="-11306" lat="61.9706827984" lon="6.51946861993">
		<tag k="name" v="Fiktøyna" />
		<tag k="natural" v="cape" />
		<tag k="ssr:stedsnr" v="699270" />
	</node>
	<node id="-11303" lat="62.1389166663" lon="5.86204722177">
		<tag k="name" v="Lille Mørkevatnet" />
		<tag k="natural" v="water" />
		<tag k="ssr:stedsnr" v="695837" />
	</node>
	<node id="-11301" lat="62.055872226" lon="5.86876944833">
		<tag k="name" v="Keipedalsvatnet" />
		<tag k="natural" v="water" />
		<tag k="ssr:stedsnr" v="695042" />
	</node>
	<node id="-13345" lat="62.0583777782" lon="6.29008611001">
		<tag k="name" v="Skinnvikelva" />
		<tag k="ssr:stedsnr" v="771140" />
		<tag k="waterway" v="stream" />
	</node>
	<node id="-13344" lat="62.1115000003" lon="5.87079167412">
		<tag k="name" v="Tverelva" />
		<tag k="ssr:stedsnr" v="771122" />
		<tag k="waterway" v="stream" />
	</node>
	<node id="-11286" lat="62.0330666635" lon="6.22739999771">
		<tag k="name" v="Varelivatnet" />
		<tag k="natural" v="water" />
		<tag k="ssr:stedsnr" v="529013" />
	</node>
	<node id="-11285" lat="62.0165638847" lon="6.22207499234">
		<tag k="name" v="Reinevika" />
		<tag k="natural" v="bay" />
		<tag k="ssr:stedsnr" v="529004" />
	</node>
	<node id="-13332" lat="62.0756250028" lon="6.4904416644">
		<tag k="name" v="Svinekvisla" />
		<tag k="ssr:stedsnr" v="765597" />
		<tag k="waterway" v="stream" />
	</node>
	<node id="-11281" lat="62.1127611071" lon="6.23145000499">
		<tag k="name" v="Evjevatnet" />
		<tag k="natural" v="water" />
		<tag k="ssr:stedsnr" v="528559" />
	</node>
	<node id="-13327" lat="62.0458222196" lon="6.42726667241">
		<tag k="name" v="Løkelva" />
		<tag k="ssr:stedsnr" v="763938" />
		<tag k="waterway" v="stream" />
	</node>
	<node id="-13323" lat="62.0411888901" lon="6.42524166159">
		<tag k="name" v="Leiteelva" />
		<tag k="ssr:stedsnr" v="763895" />
		<tag k="waterway" v="stream" />
	</node>
	<node id="-13321" lat="62.0486527766" lon="6.39421110766">
		<tag k="name" v="Kolfossen" />
		<tag k="natural" v="waterfall" />
		<tag k="ssr:stedsnr" v="763888" />
	</node>
	<node id="-11271" lat="62.0264305514" lon="6.04183611534">
		<tag k="name" v="Vassendelva" />
		<tag k="ssr:stedsnr" v="688295" />
		<tag k="waterway" v="river" />
	</node>
	<node id="-11270" lat="62.0470777819" lon="6.04390833176">
		<tag k="name" v="Støda" />
		<tag k="place" v="locality" />
		<tag k="ssr:stedsnr" v="688292" />
	</node>
	<node id="-13317" lat="62.1553666662" lon="6.081852769">
		<tag k="name" v="Håmyrelva" />
		<tag k="ssr:stedsnr" v="763009" />
		<tag k="waterway" v="stream" />
	</node>
	<node id="-11267" lat="61.9642833355" lon="6.10292222493">
		<tag k="name" v="Skjenstøvatnet" />
		<tag k="natural" v="water" />
		<tag k="ssr:stedsnr" v="687494" />
		<tag k="water" v="lake" />
	</node>
	<node id="-11266" lat="62.1188638931" lon="5.84405833151">
		<tag k="name" v="Blåhamreelva" />
		<tag k="ssr:stedsnr" v="515309" />
		<tag k="waterway" v="river" />
	</node>
	<node id="-10400" lat="61.976952775" lon="6.30292776988">
		<tag k="name" v="Tylevika" />
		<tag k="natural" v="bay" />
		<tag k="ssr:stedsnr" v="225979" />
	</node>
	<node id="-11261" lat="62.0614666636" lon="6.15798055862">
		<tag k="name" v="Grøndalsvatnet" />
		<tag k="natural" v="water" />
		<tag k="ssr:stedsnr" v="496870" />
	</node>
	<node id="-11260" lat="62.0743638893" lon="5.88977777583">
		<tag k="name" v="Øygardselva" />
		<tag k="ssr:stedsnr" v="496906" />
		<tag k="waterway" v="stream" />
	</node>
	<node id="-11259" lat="62.0123749998" lon="6.00838888059">
		<tag k="name" v="Tverrelva" />
		<tag k="ssr:stedsnr" v="496733" />
		<tag k="waterway" v="stream" />
	</node>
	<node id="-13303" lat="61.9931000017" lon="6.44813333598">
		<tag k="name" v="Litlevassgrova" />
		<tag k="ssr:stedsnr" v="760291" />
		<tag k="waterway" v="stream" />
	</node>
	<node id="-13302" lat="61.9880000044" lon="6.44148889401">
		<tag k="name" v="Rabbegrova" />
		<tag k="ssr:stedsnr" v="760289" />
		<tag k="waterway" v="stream" />
	</node>
	<node id="-13301" lat="61.9817416669" lon="6.62612499524">
		<tag k="name" v="Steinvadet" />
		<tag k="ssr:stedsnr" v="760281" />
		<tag k="waterway" v="stream" />
	</node>
	<node id="-13300" lat="61.95281389" lon="6.56422221974">
		<tag k="name" v="Småskorelva" />
		<tag k="ssr:stedsnr" v="760274" />
		<tag k="waterway" v="stream" />
	</node>
	<node id="-13299" lat="62.0136611118" lon="6.64033055691">
		<tag k="name" v="Svågreinene" />
		<tag k="ssr:stedsnr" v="760273" />
		<tag k="waterway" v="stream" />
	</node>
	<node id="-11247" lat="62.0021999957" lon="6.28916944955">
		<tag k="name" v="Fantekrålvatnet" />
		<tag k="natural" v="water" />
		<tag k="ssr:stedsnr" v="496266" />
	</node>
	<node id="-11246" lat="61.9574444433" lon="6.54178610587">
		<tag k="fixme" v="multiple name tags, choose one and add the other to alt_name" />
		<tag k="name" v="Vikaelva;Åresvora" />
		<tag k="ssr:stedsnr" v="495907" />
		<tag k="waterway" v="stream" />
	</node>
	<node id="-11239" lat="61.9680666635" lon="6.04506111865">
		<tag k="name" v="Svartedalsvatnet" />
		<tag k="natural" v="water" />
		<tag k="ssr:stedsnr" v="495277" />
	</node>
	<node id="-13286" lat="62.0905583317" lon="5.91636944865">
		<tag k="name" v="Midnakkelva" />
		<tag k="ssr:stedsnr" v="753394" />
		<tag k="waterway" v="stream" />
	</node>
	<node id="-11231" lat="62.0507333376" lon="6.03120000483">
		<tag k="name" v="Støylselva" />
		<tag k="ssr:stedsnr" v="678884" />
		<tag k="waterway" v="stream" />
	</node>
	<node id="-13278" lat="62.086375001" lon="6.04741388932">
		<tag k="name" v="Ljøshaugvatnet" />
		<tag k="natural" v="water" />
		<tag k="ssr:stedsnr" v="739840" />
	</node>
	<node id="-13273" lat="62.0749722182" lon="6.48885555232">
		<tag k="name" v="Morkaelva" />
		<tag k="ssr:stedsnr" v="739741" />
		<tag k="waterway" v="river" />
	</node>
	<node id="-13271" lat="62.0553944467" lon="6.36306945054">
		<tag k="name" v="Storevatnet" />
		<tag k="natural" v="water" />
		<tag k="ssr:stedsnr" v="739734" />
		<tag k="water" v="lake" />
	</node>
	<node id="-13270" lat="62.0546749985" lon="6.39761943909">
		<tag k="name" v="Eidsvatnet" />
		<tag k="natural" v="water" />
		<tag k="ssr:stedsnr" v="739732" />
	</node>
	<node id="-11221" lat="62.0634611135" lon="6.33784721822">
		<tag k="name" v="Litlevatnet" />
		<tag k="natural" v="water" />
		<tag k="ssr:stedsnr" v="678723" />
	</node>
	<node id="-13267" lat="62.0634722229" lon="6.65624165885">
		<tag k="name" v="Blåvatnet" />
		<tag k="natural" v="water" />
		<tag k="ssr:stedsnr" v="739725" />
	</node>
	<node id="-13266" lat="62.0552888923" lon="6.48301667398">
		<tag k="alt_name" v="Skipedalsvatnet, litle" />
		<tag k="name" v="Litle Skipedalsvatnet" />
		<tag k="natural" v="water" />
		<tag k="ssr:stedsnr" v="739719" />
	</node>
	<node id="-13264" lat="62.0246361155" lon="6.30566110575">
		<tag k="name" v="Sunndalssætrevatnet" />
		<tag k="natural" v="water" />
		<tag k="ssr:stedsnr" v="739691" />
	</node>
	<node id="-13263" lat="62.081480553" lon="6.36042500944">
		<tag k="name" v="Langevatnet" />
		<tag k="natural" v="water" />
		<tag k="ssr:stedsnr" v="739644" />
	</node>
	<node id="-13262" lat="62.0833277758" lon="6.32802499439">
		<tag k="name" v="Geitvikelva" />
		<tag k="ssr:stedsnr" v="739640" />
		<tag k="waterway" v="stream" />
	</node>
	<node id="-11213" lat="61.9921861093" lon="6.36907222897">
		<tag k="name" v="Remelva" />
		<tag k="ssr:stedsnr" v="678802" />
		<tag k="waterway" v="stream" />
	</node>
	<node id="-11210" lat="62.1616750034" lon="6.11925000424">
		<tag k="name" v="Skitnevatnet" />
		<tag k="natural" v="water" />
		<tag k="ssr:stedsnr" v="678779" />
	</node>
	<node id="-13257" lat="62.0071555562" lon="6.65162500231">
		<tag k="name" v="Svåna" />
		<tag k="ssr:stedsnr" v="739244" />
		<tag k="waterway" v="stream" />
	</node>
	<node id="-11208" lat="62.0769555558" lon="6.36945556417">
		<tag k="name" v="Øyravatnet" />
		<tag k="natural" v="water" />
		<tag k="ssr:stedsnr" v="678629" />
	</node>
	<node id="-13249" lat="62.1770138892" lon="6.0301555621">
		<tag k="alt_name" v="Håskolltjønna" />
		<tag k="name" v="Tjørna" />
		<tag k="natural" v="water" />
		<tag k="ssr:stedsnr" v="739012" />
	</node>
	<node id="-13248" lat="62.1789027747" lon="5.8850694427">
		<tag k="name" v="Koppevatnet" />
		<tag k="natural" v="water" />
		<tag k="ssr:stedsnr" v="739004" />
	</node>
	<node id="-11199" lat="61.9693111141" lon="6.02400278162">
		<tag k="name" v="Lomtjønna" />
		<tag k="natural" v="water" />
		<tag k="ssr:stedsnr" v="677241" />
	</node>
	<node id="-11198" lat="61.9962611099" lon="5.84190000595">
		<tag k="name" v="Vassbakkevatnet" />
		<tag k="natural" v="water" />
		<tag k="ssr:stedsnr" v="677039" />
	</node>
	<node id="-13237" lat="62.16086389" lon="6.17446944927">
		<tag k="name" v="Raudelva" />
		<tag k="ssr:stedsnr" v="738810" />
		<tag k="waterway" v="stream" />
	</node>
	<node id="-13236" lat="62.1536388896" lon="6.10726388785">
		<tag k="name" v="Heltneelva" />
		<tag k="ssr:stedsnr" v="738804" />
		<tag k="waterway" v="stream" />
	</node>
	<node id="-11186" lat="62.1237305594" lon="5.88637222461">
		<tag k="name" v="Godeelva" />
		<tag k="ssr:stedsnr" v="467214" />
		<tag k="waterway" v="stream" />
	</node>
	<node id="-11185" lat="61.9953777785" lon="5.85713333667">
		<tag k="name" v="Håstøylneset" />
		<tag k="natural" v="cape" />
		<tag k="ssr:stedsnr" v="467212" />
	</node>
	<node id="-13231" lat="62.1231305559" lon="5.83725277523">
		<tag k="name" v="Blåhamrevatna" />
		<tag k="natural" v="water" />
		<tag k="ssr:stedsnr" v="738759" />
	</node>
	<node id="-13229" lat="62.1024249989" lon="6.48561389572">
		<tag k="name" v="Bakkedalsvatnet" />
		<tag k="natural" v="water" />
		<tag k="ssr:stedsnr" v="738663" />
	</node>
	<node id="-13226" lat="61.9873888865" lon="6.08589444689">
		<tag k="name" v="Tverrelva" />
		<tag k="ssr:stedsnr" v="738320" />
		<tag k="waterway" v="stream" />
	</node>
	<node id="-13225" lat="61.989288886" lon="6.09761111375">
		<tag k="name" v="Stigedalselva" />
		<tag k="ssr:stedsnr" v="738317" />
		<tag k="waterway" v="river" />
	</node>
	<node id="-13222" lat="61.995733337" lon="6.60298889274">
		<tag k="name" v="Storelva" />
		<tag k="ssr:stedsnr" v="738232" />
		<tag k="waterway" v="river" />
	</node>
	<node id="-11173" lat="62.0277555569" lon="6.41047499316">
		<tag k="name" v="Svadagrova" />
		<tag k="ssr:stedsnr" v="435719" />
		<tag k="waterway" v="stream" />
	</node>
	<node id="-11171" lat="62.0998361108" lon="6.15634721506">
		<tag k="name" v="Ervikvatnet" />
		<tag k="natural" v="water" />
		<tag k="ssr:stedsnr" v="435851" />
	</node>
	<node id="-11166" lat="62.0863277779" lon="5.86975278372">
		<tag k="name" v="Feirdalsvatna" />
		<tag k="natural" v="water" />
		<tag k="ssr:stedsnr" v="435841" />
	</node>
	<node id="-13213" lat="62.1164444414" lon="6.60185554889">
		<tag k="name" v="Kårdalselva" />
		<tag k="ssr:stedsnr" v="651214" />
		<tag k="waterway" v="stream" />
	</node>
	<node id="-13208" lat="62.0235305599" lon="6.37355277219">
		<tag k="name" v="Bjørneneset" />
		<tag k="natural" v="cape" />
		<tag k="ssr:stedsnr" v="650964" />
	</node>
	<node id="-13203" lat="62.1043777811" lon="6.49565832945">
		<tag k="name" v="Ljosagrova" />
		<tag k="ssr:stedsnr" v="650638" />
		<tag k="waterway" v="stream" />
	</node>
	<node id="-13202" lat="62.103019445" lon="6.49954445168">
		<tag k="name" v="Syrevasskrokane" />
		<tag k="ssr:stedsnr" v="650635" />
		<tag k="waterway" v="stream" />
	</node>
	<node id="-11153" lat="61.9914944412" lon="5.8328638821">
		<tag k="name" v="Fremstevatnet" />
		<tag k="natural" v="water" />
		<tag k="ssr:stedsnr" v="434025" />
	</node>
	<node id="-13194" lat="62.0267944463" lon="6.04964443815">
		<tag k="name" v="Sanden" />
		<tag k="natural" v="beach" />
		<tag k="ssr:stedsnr" v="650773" />
	</node>
	<node id="-13191" lat="62.1633805574" lon="6.12663055796">
		<tag k="name" v="Lomtjørna" />
		<tag k="natural" v="water" />
		<tag k="ssr:stedsnr" v="650536" />
	</node>
	<node id="-11136" lat="61.9900473669" lon="6.54670960502">
		<tag k="name" v="Sagøyna" />
		<tag k="place" v="island" />
		<tag k="ssr:stedsnr" v="517267" />
	</node>
	<node id="-11135" lat="61.9887333335" lon="6.43274722282">
		<tag k="name" v="Svartefjellgrova" />
		<tag k="ssr:stedsnr" v="517257" />
		<tag k="waterway" v="stream" />
	</node>
	<node id="-11134" lat="61.9515250039" lon="6.47441943471">
		<tag k="name" v="Grova" />
		<tag k="ssr:stedsnr" v="517252" />
		<tag k="waterway" v="stream" />
	</node>
	<node id="-13179" lat="61.9845444415" lon="6.09224721361">
		<tag k="name" v="Hjellgrova" />
		<tag k="ssr:stedsnr" v="649636" />
		<tag k="waterway" v="stream" />
	</node>
	<node id="-13178" lat="62.0077611072" lon="6.07373888897">
		<tag k="name" v="Langholmen" />
		<tag k="place" v="islet" />
		<tag k="ssr:stedsnr" v="649577" />
	</node>
	<node id="-13177" lat="61.995119442" lon="6.36747777299">
		<tag k="name" v="Lærneelva" />
		<tag k="ssr:stedsnr" v="649562" />
		<tag k="waterway" v="stream" />
	</node>
	<node id="-13173" lat="62.1057055555" lon="6.22506945185">
		<tag k="name" v="Buskeholmen" />
		<tag k="place" v="islet" />
		<tag k="ssr:stedsnr" v="649557" />
	</node>
	<node id="-11118" lat="62.1168638929" lon="6.12884166764">
		<tag k="name" v="Daletjørna" />
		<tag k="natural" v="water" />
		<tag k="ssr:stedsnr" v="407710" />
	</node>
	<node id="-13165" lat="62.1065361142" lon="6.00883055508">
		<tag k="name" v="Storelva" />
		<tag k="ssr:stedsnr" v="649412" />
		<tag k="waterway" v="stream" />
	</node>
	<node id="-11116" lat="61.9732611157" lon="6.10462778336">
		<tag k="name" v="Fossedalselva" />
		<tag k="ssr:stedsnr" v="407663" />
		<tag k="waterway" v="stream" />
	</node>
	<node id="-13116" lat="62.1412166631" lon="5.8642833352">
		<tag k="name" v="Vasshola" />
		<tag k="natural" v="water" />
		<tag k="ssr:stedsnr" v="636424" />
	</node>
	<node id="-11109" lat="62.1020277772" lon="6.18248056339">
		<tag k="name" v="Kviteskjerve" />
		<tag k="ssr:stedsnr" v="407563" />
		<tag k="waterway" v="stream" />
	</node>
	<node id="-10726" lat="62.1219499964" lon="6.58681666217">
		<tag k="name" v="Litleelva" />
		<tag k="ssr:stedsnr" v="288192" />
		<tag k="waterway" v="stream" />
	</node>
	<node id="-11104" lat="62.0764416663" lon="5.93540832712">
		<tag k="name" v="Hegreneset" />
		<tag k="natural" v="cape" />
		<tag k="ssr:stedsnr" v="407274" />
	</node>
	<node id="-11100" lat="62.110802778" lon="6.16186944532">
		<tag k="name" v="Skornatjønna" />
		<tag k="natural" v="water" />
		<tag k="ssr:stedsnr" v="407116" />
	</node>
	<node id="-11094" lat="61.9792222241" lon="6.11068054865">
		<tag k="name" v="Vassosen" />
		<tag k="natural" v="bay" />
		<tag k="ssr:stedsnr" v="506328" />
	</node>
	<node id="-13140" lat="62.042447223" lon="6.40314444775">
		<tag k="name" v="Vikavågen" />
		<tag k="natural" v="water" />
		<tag k="ssr:stedsnr" v="642880" />
	</node>
	<node id="-11091" lat="62.1999972252" lon="5.99758611874">
		<tag k="name" v="Gjøla" />
		<tag k="ssr:stedsnr" v="399942" />
		<tag k="waterway" v="stream" />
	</node>
	<node id="-11081" lat="62.0649833376" lon="5.96037777736">
		<tag k="name" v="Litlebøelva" />
		<tag k="ssr:stedsnr" v="505149" />
		<tag k="waterway" v="river" />
	</node>
	<node id="-10379" lat="62.1363027791" lon="6.15047499994">
		<tag k="name" v="Svarteelva" />
		<tag k="ssr:stedsnr" v="225687" />
		<tag k="waterway" v="stream" />
	</node>
	<node id="-13120" lat="61.9613416658" lon="6.49995000808">
		<tag k="name" v="Skavika" />
		<tag k="natural" v="bay" />
		<tag k="ssr:stedsnr" v="638254" />
	</node>
	<node id="-11071" lat="62.0561194425" lon="6.38520832525">
		<tag k="name" v="Bulingen" />
		<tag k="natural" v="water" />
		<tag k="ssr:stedsnr" v="375712" />
	</node>
	<node id="-11069" lat="62.0196277771" lon="6.34106667602">
		<tag k="name" v="Nipavatnet" />
		<tag k="natural" v="water" />
		<tag k="ssr:stedsnr" v="375667" />
	</node>
	<node id="-11068" lat="62.017886111" lon="6.37249165958">
		<tag k="name" v="Osdalsvatnet" />
		<tag k="natural" v="water" />
		<tag k="ssr:stedsnr" v="375664" />
		<tag k="water" v="lake" />
	</node>
	<node id="-13115" lat="62.0992916639" lon="5.86726666991">
		<tag k="name" v="Sanddalsvatnet" />
		<tag k="natural" v="water" />
		<tag k="ssr:stedsnr" v="636276" />
		<tag k="water" v="lake" />
	</node>
	<node id="-10719" lat="61.9758777751" lon="6.32534445002">
		<tag k="name" v="Melheimsdalselva" />
		<tag k="ssr:stedsnr" v="286978" />
		<tag k="waterway" v="stream" />
	</node>
	<node id="-11064" lat="62.008602777" lon="5.87194999432">
		<tag k="fixme" v="multiple name tags, choose one and add the other to alt_name" />
		<tag k="name" v="Brokhamreelva;Bråkhamreelva" />
		<tag k="ssr:stedsnr" v="374957" />
		<tag k="waterway" v="stream" />
	</node>
	<node id="-13109" lat="61.9978882402" lon="6.09792117041">
		<tag k="name" v="Fladalselva" />
		<tag k="ssr:stedsnr" v="626534" />
		<tag k="waterway" v="river" />
	</node>
	<node id="-13108" lat="62.1533222237" lon="5.88017222942">
		<tag k="name" v="Tverrelva" />
		<tag k="ssr:stedsnr" v="626184" />
		<tag k="waterway" v="river" />
	</node>
	<node id="-13105" lat="62.0286888916" lon="6.21615278313">
		<tag k="alt_name" v="Rinddalsvatnet, heimste" />
		<tag k="name" v="Heimste Rinddalsvatnet" />
		<tag k="natural" v="water" />
		<tag k="ssr:stedsnr" v="617942" />
	</node>
	<node id="-13104" lat="62.0148166672" lon="6.01537499727">
		<tag k="name" v="Sandvikselva" />
		<tag k="ssr:stedsnr" v="617938" />
		<tag k="waterway" v="stream" />
	</node>
	<node id="-13103" lat="62.0116861107" lon="5.79771110724">
		<tag k="name" v="Sarpavatnet" />
		<tag k="natural" v="water" />
		<tag k="ssr:stedsnr" v="617933" />
	</node>
	<node id="-13099" lat="62.0533416665" lon="6.4402361168">
		<tag k="name" v="Buvatnet" />
		<tag k="natural" v="water" />
		<tag k="ssr:stedsnr" v="617748" />
	</node>
	<node id="-11049" lat="61.9969666626" lon="6.06771111106">
		<tag k="name" v="Bjørkedalsvatnet" />
		<tag k="natural" v="water" />
		<tag k="ssr:stedsnr" v="374326" />
		<tag k="water" v="lake" />
	</node>
	<node id="-11048" lat="61.9966888912" lon="5.89945832723">
		<tag k="name" v="Trevassdalsvatna" />
		<tag k="natural" v="water" />
		<tag k="ssr:stedsnr" v="374317" />
	</node>
	<node id="-13092" lat="62.0511666704" lon="6.51332222486">
		<tag k="alt_name" v="Skipedalsvatnet, Store" />
		<tag k="name" v="Store Skipedalsvatnet" />
		<tag k="natural" v="water" />
		<tag k="ssr:stedsnr" v="617725" />
		<tag k="water" v="lake" />
	</node>
	<node id="-13088" lat="62.0221083358" lon="6.48183888109">
		<tag k="name" v="Kvivsvatnet" />
		<tag k="natural" v="water" />
		<tag k="ssr:stedsnr" v="617701" />
	</node>
	<node id="-13085" lat="62.1008055558" lon="6.37768055468">
		<tag k="name" v="Kvanndalstjønna" />
		<tag k="natural" v="water" />
		<tag k="ssr:stedsnr" v="617671" />
	</node>
	<node id="-13083" lat="62.1016555513" lon="6.55185277965">
		<tag k="name" v="Vikelva" />
		<tag k="ssr:stedsnr" v="617664" />
		<tag k="waterway" v="river" />
	</node>
	<node id="-13068" lat="61.9681805569" lon="6.09387500381">
		<tag k="name" v="Tretjønna" />
		<tag k="natural" v="water" />
		<tag k="ssr:stedsnr" v="617306" />
	</node>
	<node id="-11017" lat="61.9736750032" lon="5.77819444214">
		<tag k="name" v="Svartevatnet" />
		<tag k="natural" v="water" />
		<tag k="ssr:stedsnr" v="495849" />
	</node>
	<node id="-11016" lat="61.9795500005" lon="5.82840834159">
		<tag k="name" v="Trollvatnet" />
		<tag k="natural" v="water" />
		<tag k="ssr:stedsnr" v="495848" />
	</node>
	<node id="-13061" lat="62.1659083348" lon="5.93676389569">
		<tag k="name" v="Ulvestadelva" />
		<tag k="ssr:stedsnr" v="617077" />
		<tag k="waterway" v="stream" />
	</node>
	<node id="-13059" lat="61.9512805527" lon="6.45256666315">
		<tag k="name" v="Skjerneset" />
		<tag k="natural" v="cape" />
		<tag k="ssr:stedsnr" v="616899" />
	</node>
	<node id="-11010" lat="61.9717619902" lon="6.67901326314">
		<tag k="loc_name" v="Litlekupa" />
		<tag k="name" v="Litlekupane" />
		<tag k="natural" v="water" />
		<tag k="ssr:stedsnr" v="495247" />
		<tag k="water" v="lake" />
	</node>
	<node id="-11009" lat="61.9598583348" lon="6.70513333739">
		<tag k="name" v="Natakupvatnet" />
		<tag k="natural" v="water" />
		<tag k="ssr:stedsnr" v="495209" />
	</node>
	<node id="-11008" lat="61.987402778" lon="5.77708888217">
		<tag k="name" v="Jolgrøvatnet" />
		<tag k="natural" v="water" />
		<tag k="ssr:stedsnr" v="495041" />
	</node>
	<node id="-11007" lat="61.9988583347" lon="5.74058055839">
		<tag k="name" v="Storlidvatnet" />
		<tag k="natural" v="water" />
		<tag k="ssr:stedsnr" v="495082" />
		<tag k="water" v="lake" />
	</node>
	<node id="-13054" lat="61.9792582027" lon="6.28903560428">
		<tag k="alt_name" v="Grønedalsvatnet" />
		<tag k="name" v="Grøndalsvatnet" />
		<tag k="natural" v="water" />
		<tag k="ssr:stedsnr" v="616870" />
		<tag k="water" v="lake" />
	</node>
	<node id="-13051" lat="62.1684833337" lon="6.09379722193">
		<tag k="name" v="Lomtjørna" />
		<tag k="natural" v="water" />
		<tag k="ssr:stedsnr" v="617047" />
	</node>
	<node id="-10999" lat="61.9918888844" lon="6.06871110453">
		<tag k="name" v="Fonnelva" />
		<tag k="ssr:stedsnr" v="347525" />
		<tag k="waterway" v="stream" />
	</node>
	<node id="-10994" lat="61.9693361149" lon="6.02416667205">
		<tag k="name" v="Vasslitjørna" />
		<tag k="natural" v="water" />
		<tag k="ssr:stedsnr" v="346908" />
	</node>
	<node id="-13041" lat="62.0874583332" lon="6.52975000625">
		<tag k="name" v="Storekvineset" />
		<tag k="natural" v="cape" />
		<tag k="ssr:stedsnr" v="591580" />
	</node>
	<node id="-10974" lat="61.9773777775" lon="5.76637777326">
		<tag k="name" v="Brotabekken" />
		<tag k="ssr:stedsnr" v="346019" />
		<tag k="waterway" v="stream" />
	</node>
	<node id="-10973" lat="62.1744916658" lon="5.90988889649">
		<tag k="name" v="Gjøsdalelva" />
		<tag k="ssr:stedsnr" v="346016" />
		<tag k="waterway" v="stream" />
	</node>
	<node id="-10970" lat="62.1344027805" lon="5.88119444297">
		<tag k="name" v="Litlevatnet" />
		<tag k="natural" v="water" />
		<tag k="ssr:stedsnr" v="345217" />
	</node>
	<node id="-13017" lat="62.1315611079" lon="5.93306111171">
		<tag k="name" v="Skrubbebeselva" />
		<tag k="ssr:stedsnr" v="589497" />
		<tag k="waterway" v="stream" />
	</node>
	<node id="-11072" lat="62.0654749986" lon="6.19272221797">
		<tag k="name" v="Heidaelva" />
		<tag k="ssr:stedsnr" v="375863" />
		<tag k="waterway" v="stream" />
	</node>
	<node id="-10954" lat="62.1430138848" lon="6.16816944239">
		<tag k="alt_name" v="Storeelva" />
		<tag k="name" v="Storelva" />
		<tag k="ssr:stedsnr" v="314758" />
		<tag k="waterway" v="stream" />
	</node>
	<node id="-12998" lat="62.0073833375" lon="5.83065834089">
		<tag k="name" v="Åmela" />
		<tag k="ssr:stedsnr" v="588359" />
		<tag k="waterway" v="stream" />
	</node>
	<node id="-12997" lat="62.1087750013" lon="6.01775277801">
		<tag k="name" v="Tverelva" />
		<tag k="ssr:stedsnr" v="588351" />
		<tag k="waterway" v="stream" />
	</node>
	<node id="-12994" lat="62.0742055545" lon="5.94263054624">
		<tag k="name" v="Øyraelva" />
		<tag k="ssr:stedsnr" v="588231" />
		<tag k="waterway" v="stream" />
	</node>
	<node id="-10943" lat="62.064000001" lon="6.12401110393">
		<tag k="name" v="Langevatnet" />
		<tag k="natural" v="water" />
		<tag k="ssr:stedsnr" v="314859" />
	</node>
	<node id="-10942" lat="62.0972888908" lon="5.90289723008">
		<tag k="name" v="Fossaelva" />
		<tag k="ssr:stedsnr" v="314853" />
		<tag k="waterway" v="stream" />
	</node>
	<node id="-10941" lat="62.0996916682" lon="6.2097416658">
		<tag k="name" v="Kvernaelva" />
		<tag k="ssr:stedsnr" v="314827" />
		<tag k="waterway" v="stream" />
	</node>
	<node id="-12987" lat="62.1251583372" lon="5.91869444487">
		<tag k="name" v="Tverrelva" />
		<tag k="ssr:stedsnr" v="588204" />
		<tag k="waterway" v="stream" />
	</node>
	<node id="-10938" lat="62.1011500024" lon="6.40586389783">
		<tag k="name" v="Helvetesvatnet" />
		<tag k="natural" v="water" />
		<tag k="ssr:stedsnr" v="314672" />
	</node>
	<node id="-10937" lat="62.0835305575" lon="6.6295833348">
		<tag k="name" v="Tyssevatnet" />
		<tag k="natural" v="water" />
		<tag k="ssr:stedsnr" v="314658" />
		<tag k="water" v="lake" />
	</node>
	<node id="-12977" lat="62.0510166652" lon="6.39557500032">
		<tag k="name" v="Kolfosselva" />
		<tag k="ssr:stedsnr" v="581903" />
		<tag k="waterway" v="river" />
	</node>
	<node id="-12976" lat="62.0316527746" lon="6.40714722502">
		<tag k="name" v="Svaragrovelva" />
		<tag k="ssr:stedsnr" v="581900" />
		<tag k="waterway" v="stream" />
	</node>
	<node id="-12965" lat="61.9822333373" lon="6.51066665905">
		<tag k="name" v="Bruøya" />
		<tag k="natural" v="cape" />
		<tag k="ssr:stedsnr" v="578274" />
	</node>
	<node id="-12964" lat="62.0080611155" lon="6.52846111529">
		<tag k="alt_name" v="Svadagrova" />
		<tag k="name" v="Svadgrova" />
		<tag k="ssr:stedsnr" v="578265" />
		<tag k="waterway" v="stream" />
	</node>
	<node id="-11035" lat="62.0319555554" lon="6.11670832813">
		<tag k="alt_name" v="Julegrøsvatnet" />
		<tag k="name" v="Jolgrøsvatnet" />
		<tag k="natural" v="water" />
		<tag k="ssr:stedsnr" v="496980" />
		<tag k="water" v="lake" />
	</node>
	<node id="-12955" lat="62.1016611142" lon="5.86731110966">
		<tag k="name" v="Sanddalselva" />
		<tag k="ssr:stedsnr" v="576251" />
		<tag k="waterway" v="stream" />
	</node>
	<node id="-12945" lat="61.9603583365" lon="6.49824166913">
		<tag k="name" v="Skavika" />
		<tag k="natural" v="bay" />
		<tag k="ssr:stedsnr" v="573165" />
	</node>
	<node id="-10895" lat="62.0172194422" lon="6.06818610207">
		<tag k="name" v="Smiegrova" />
		<tag k="ssr:stedsnr" v="468644" />
		<tag k="waterway" v="stream" />
	</node>
	<node id="-12942" lat="62.0284138912" lon="6.04276943643">
		<tag k="name" v="Ranvika" />
		<tag k="natural" v="bay" />
		<tag k="ssr:stedsnr" v="567271" />
	</node>
	<node id="-10891" lat="62.0178138931" lon="6.09576111978">
		<tag k="name" v="Slettestøvlelva" />
		<tag k="ssr:stedsnr" v="468616" />
		<tag k="waterway" v="stream" />
	</node>
	<node id="-12938" lat="62.0457749958" lon="6.19088333736">
		<tag k="name" v="Joldalselva" />
		<tag k="ssr:stedsnr" v="565120" />
		<tag k="waterway" v="river" />
	</node>
	<node id="-12937" lat="62.0095499994" lon="6.14598610898">
		<tag k="name" v="Tverrelva" />
		<tag k="ssr:stedsnr" v="557701" />
		<tag k="waterway" v="stream" />
	</node>
	<node id="-12932" lat="62.1675500021" lon="5.85109444461">
		<tag k="name" v="Skålavatnet" />
		<tag k="natural" v="water" />
		<tag k="ssr:stedsnr" v="557018" />
	</node>
	<node id="-10883" lat="62.0372527739" lon="6.20760834043">
		<tag k="name" v="Feirdalsfossen" />
		<tag k="natural" v="waterfall" />
		<tag k="ssr:stedsnr" v="468014" />
	</node>
	<node id="-12928" lat="62.0932861088" lon="6.07372777287">
		<tag k="name" v="Mekelva" />
		<tag k="ssr:stedsnr" v="556838" />
		<tag k="waterway" v="stream" />
	</node>
	<node id="-12925" lat="62.1170416629" lon="5.83218889633">
		<tag k="fixme" v="multiple name tags, choose one and add the other to alt_name" />
		<tag k="name" v="Storåa;Storåvasselva" />
		<tag k="ssr:stedsnr" v="556774" />
		<tag k="waterway" v="stream" />
	</node>
	<node id="-10875" lat="62.0740027813" lon="5.9008666603">
		<tag k="name" v="Nyfonnelva" />
		<tag k="ssr:stedsnr" v="467329" />
		<tag k="waterway" v="river" />
	</node>
	<node id="-12922" lat="62.0480972259" lon="6.09568055797">
		<tag k="name" v="Litledalsvatnet" />
		<tag k="natural" v="water" />
		<tag k="ssr:stedsnr" v="556892" />
	</node>
	<node id="-12918" lat="62.040972223" lon="6.33000276971">
		<tag k="name" v="Sunndalselva" />
		<tag k="ssr:stedsnr" v="556726" />
		<tag k="waterway" v="stream" />
	</node>
	<node id="-12917" lat="62.0431000004" lon="6.42480555914">
		<tag k="name" v="Bueidstjønna" />
		<tag k="natural" v="water" />
		<tag k="ssr:stedsnr" v="556723" />
	</node>
	<node id="-12916" lat="62.0362555537" lon="6.40108888901">
		<tag k="name" v="Kalvassvatnet" />
		<tag k="natural" v="water" />
		<tag k="ssr:stedsnr" v="556721" />
		<tag k="water" v="lake" />
	</node>
	<node id="-12915" lat="62.0390472203" lon="6.28655833974">
		<tag k="name" v="Småvatna" />
		<tag k="natural" v="water" />
		<tag k="ssr:stedsnr" v="556719" />
	</node>
	<node id="-12914" lat="62.040700003" lon="6.6712111096">
		<tag k="name" v="Buvatnet" />
		<tag k="natural" v="water" />
		<tag k="ssr:stedsnr" v="556717" />
	</node>
	<node id="-10864" lat="62.1049972221" lon="6.57070000618">
		<tag k="name" v="Stigrova" />
		<tag k="ssr:stedsnr" v="288972" />
		<tag k="waterway" v="stream" />
	</node>
	<node id="-12909" lat="62.0965388872" lon="6.6498000022">
		<tag k="name" v="Kvitelva" />
		<tag k="ssr:stedsnr" v="556666" />
		<tag k="waterway" v="stream" />
	</node>
	<node id="-12904" lat="61.9304305588" lon="6.52331667247">
		<tag k="name" v="Jutdalstjønna" />
		<tag k="natural" v="water" />
		<tag k="ssr:stedsnr" v="555891" />
	</node>
	<node id="-12903" lat="61.9740305514" lon="6.78030834083">
		<tag k="name" v="Fossevatnet" />
		<tag k="natural" v="water" />
		<tag k="ssr:stedsnr" v="555194" />
	</node>
	<node id="-12902" lat="61.9853336406" lon="5.76783010731">
		<tag k="name" v="Svartevatnet" />
		<tag k="natural" v="water" />
		<tag k="ssr:stedsnr" v="555019" />
	</node>
	<node id="-10853" lat="62.0826666633" lon="6.00592222607">
		<tag k="name" v="Daleelva" />
		<tag k="ssr:stedsnr" v="286908" />
		<tag k="waterway" v="stream" />
	</node>
	<node id="-12898" lat="62.1032999998" lon="6.56148055008">
		<tag k="name" v="Røfsneset" />
		<tag k="natural" v="cape" />
		<tag k="ssr:stedsnr" v="530946" />
	</node>
	<node id="-10845" lat="62.0011277787" lon="5.99723889233">
		<tag k="name" v="Grøvrene" />
		<tag k="ssr:stedsnr" v="286610" />
		<tag k="waterway" v="stream" />
	</node>
	<node id="-10842" lat="61.9913833325" lon="5.86229167314">
		<tag k="name" v="Dørstokkelva" />
		<tag k="ssr:stedsnr" v="286215" />
		<tag k="waterway" v="stream" />
	</node>
	<node id="-12889" lat="62.1370444431" lon="6.66911389321">
		<tag k="name" v="Tverelva" />
		<tag k="ssr:stedsnr" v="530039" />
		<tag k="waterway" v="river" />
	</node>
	<node id="-10840" lat="62.0527083306" lon="6.1029000053">
		<tag k="name" v="Brundalselva" />
		<tag k="ssr:stedsnr" v="286069" />
		<tag k="waterway" v="stream" />
	</node>
	<node id="-12885" lat="62.0156138931" lon="6.36722778417">
		<tag k="name" v="Blomneset" />
		<tag k="natural" v="cape" />
		<tag k="ssr:stedsnr" v="529983" />
	</node>
	<node id="-10821" lat="61.9801999973" lon="6.51649167375">
		<tag k="name" v="Prestegardsøyane" />
		<tag k="natural" v="strait" />
		<tag k="ssr:stedsnr" v="275269" />
	</node>
	<node id="-10820" lat="61.9806944454" lon="6.4444000055">
		<tag k="name" v="Vika" />
		<tag k="place" v="islet" />
		<tag k="ssr:stedsnr" v="275265" />
	</node>
	<node id="-12858" lat="62.2208750028" lon="5.96608887923">
		<tag k="name" v="Hoggardselva" />
		<tag k="ssr:stedsnr" v="528723" />
		<tag k="waterway" v="stream" />
	</node>
	<node id="-12853" lat="62.1412111148" lon="5.90232500913">
		<tag k="name" v="Vardelva" />
		<tag k="ssr:stedsnr" v="528825" />
		<tag k="waterway" v="stream" />
	</node>
	<node id="-12849" lat="62.0536222179" lon="5.87619444432">
		<tag k="name" v="Klongstøylelva" />
		<tag k="ssr:stedsnr" v="528326" />
		<tag k="waterway" v="stream" />
	</node>
	<node id="-12842" lat="62.0001888903" lon="5.754022218">
		<tag k="name" v="Småvatna" />
		<tag k="natural" v="water" />
		<tag k="ssr:stedsnr" v="528043" />
	</node>
	<node id="-12841" lat="62.1788888878" lon="5.9034361036">
		<tag k="name" v="Kalvegrova" />
		<tag k="ssr:stedsnr" v="528032" />
		<tag k="waterway" v="stream" />
	</node>
	<node id="-10791" lat="62.0084860972" lon="6.51161323407">
		<tag k="loc_name" v="Demma" />
		<tag k="name" v="Demmevatn" />
		<tag k="natural" v="water" />
		<tag k="ssr:stedsnr" v="457269" />
		<tag k="water" v="lake" />
	</node>
	<node id="-10790" lat="61.9843027769" lon="6.43289166855">
		<tag k="name" v="Remgrova" />
		<tag k="ssr:stedsnr" v="457260" />
		<tag k="waterway" v="stream" />
	</node>
	<node id="-10789" lat="62.000674998" lon="6.59813333517">
		<tag k="name" v="Ryggjagrova" />
		<tag k="ssr:stedsnr" v="457252" />
		<tag k="waterway" v="stream" />
	</node>
	<node id="-10788" lat="62.0384611134" lon="6.67065556031">
		<tag k="name" v="Osane" />
		<tag k="natural" v="bay" />
		<tag k="ssr:stedsnr" v="457243" />
	</node>
	<node id="-10780" lat="62.1103861137" lon="5.85745000636">
		<tag k="name" v="Klokkargylet" />
		<tag k="ssr:stedsnr" v="455240" />
		<tag k="waterway" v="stream" />
	</node>
	<node id="-12827" lat="62.0342777762" lon="6.38293055815">
		<tag k="name" v="Tvergrovelva" />
		<tag k="ssr:stedsnr" v="521897" />
		<tag k="waterway" v="stream" />
	</node>
	<node id="-12823" lat="62.1470666666" lon="6.0815194378">
		<tag k="name" v="Djupegrova" />
		<tag k="ssr:stedsnr" v="521018" />
		<tag k="waterway" v="stream" />
	</node>
	<node id="-10771" lat="62.0232916665" lon="6.04277221581">
		<tag k="name" v="Havsneset" />
		<tag k="natural" v="cape" />
		<tag k="ssr:stedsnr" v="446298" />
	</node>
	<node id="-12817" lat="62.0290222232" lon="5.95061943596">
		<tag k="name" v="Brevellselva" />
		<tag k="ssr:stedsnr" v="436998" />
		<tag k="waterway" v="stream" />
	</node>
	<node id="-10767" lat="62.0838611132" lon="6.32589722011">
		<tag k="name" v="Brusvadelva" />
		<tag k="ssr:stedsnr" v="225925" />
		<tag k="waterway" v="stream" />
	</node>
	<node id="-12807" lat="62.0440666625" lon="6.11041388306">
		<tag k="name" v="Jolgrøselva" />
		<tag k="ssr:stedsnr" v="436963" />
		<tag k="waterway" v="stream" />
	</node>
	<node id="-12799" lat="62.0130472259" lon="6.10380000901">
		<tag k="name" v="Foråkerelva" />
		<tag k="ssr:stedsnr" v="435984" />
		<tag k="waterway" v="stream" />
	</node>
	<node id="-10748" lat="62.1702027783" lon="5.85392778712">
		<tag k="name" v="Skålelva" />
		<tag k="ssr:stedsnr" v="212627" />
		<tag k="waterway" v="stream" />
	</node>
	<node id="-12794" lat="62.0715833294" lon="6.02834166773">
		<tag k="name" v="Straumsvatnet" />
		<tag k="natural" v="water" />
		<tag k="ssr:stedsnr" v="435923" />
	</node>
	<node id="-12791" lat="61.98775" lon="6.36387778276">
		<tag k="name" v="Navelsakergrova" />
		<tag k="ssr:stedsnr" v="435884" />
		<tag k="waterway" v="stream" />
	</node>
	<node id="-10742" lat="62.0655888898" lon="6.39812221817">
		<tag k="name" v="Langvasselvane" />
		<tag k="ssr:stedsnr" v="193712" />
		<tag k="waterway" v="stream" />
	</node>
	<node id="-10739" lat="62.1670333308" lon="6.07916387954">
		<tag k="name" v="Stavtjørna" />
		<tag k="natural" v="water" />
		<tag k="ssr:stedsnr" v="193040" />
	</node>
	<node id="-10737" lat="62.1833138885" lon="5.88753610159">
		<tag k="name" v="Høystøylsvatnet" />
		<tag k="natural" v="water" />
		<tag k="ssr:stedsnr" v="193003" />
	</node>
	<node id="-10735" lat="61.9273166684" lon="6.28519444514">
		<tag k="alt_name" v="Horninsdalsvatnet" />
		<tag k="name" v="Hornindalsvatnet" />
		<tag k="natural" v="water" />
		<tag k="ssr:stedsnr" v="192617" />
		<tag k="water" v="lake" />
	</node>
	<node id="-10734" lat="61.9921166701" lon="6.15405277355">
		<tag k="name" v="Ramnegrøvatnet" />
		<tag k="natural" v="water" />
		<tag k="ssr:stedsnr" v="192334" />
	</node>
	<node id="-12776" lat="61.9700361136" lon="6.06151666164">
		<tag k="name" v="Lisje Svartedalsvatnet" />
		<tag k="natural" v="water" />
		<tag k="ssr:stedsnr" v="435299" />
	</node>
	<node id="-12775" lat="61.9739944452" lon="6.03165832811">
		<tag k="name" v="Vasslidvatnet" />
		<tag k="natural" v="water" />
		<tag k="ssr:stedsnr" v="435276" />
	</node>
	<node id="-13056" lat="61.9919833339" lon="6.56436389668">
		<tag k="name" v="Horndøla" />
		<tag k="ssr:stedsnr" v="616886" />
		<tag k="waterway" v="river" />
	</node>
	<node id="-10723" lat="62.1810083314" lon="6.5802861144">
		<tag k="name" v="Fossane" />
		<tag k="natural" v="waterfall" />
		<tag k="ssr:stedsnr" v="287737" />
	</node>
	<node id="-10721" lat="62.109649996" lon="6.51343333825">
		<tag k="name" v="Åreskrida" />
		<tag k="ssr:stedsnr" v="287695" />
		<tag k="waterway" v="stream" />
	</node>
	<node id="-12767" lat="62.0971055524" lon="6.58410278284">
		<tag k="name" v="Litletyssa" />
		<tag k="ssr:stedsnr" v="409958" />
		<tag k="waterway" v="stream" />
	</node>
	<node id="-10715" lat="62.1542777742" lon="5.92055555316">
		<tag k="name" v="Grova" />
		<tag k="ssr:stedsnr" v="286846" />
		<tag k="waterway" v="stream" />
	</node>
	<node id="-12762" lat="62.0266249967" lon="6.41490278024">
		<tag k="name" v="Svaragrovelva" />
		<tag k="ssr:stedsnr" v="408976" />
		<tag k="waterway" v="stream" />
	</node>
	<node id="-11200" lat="62.1594333339" lon="5.89221943726">
		<tag k="name" v="Fonnelva" />
		<tag k="ssr:stedsnr" v="678042" />
		<tag k="waterway" v="stream" />
	</node>
	<node id="-10708" lat="62.1267583374" lon="6.13457499941">
		<tag k="name" v="Høgedalselva" />
		<tag k="ssr:stedsnr" v="286695" />
		<tag k="waterway" v="stream" />
	</node>
	<node id="-10706" lat="61.9838666698" lon="6.05369723117">
		<tag k="name" v="Koppegrova" />
		<tag k="ssr:stedsnr" v="286641" />
		<tag k="waterway" v="stream" />
	</node>
	<node id="-10705" lat="62.0066944413" lon="6.35988332849">
		<tag k="name" v="Strupeelva" />
		<tag k="ssr:stedsnr" v="286537" />
		<tag k="waterway" v="stream" />
	</node>
	<node id="-12751" lat="62.0887333329" lon="6.00742221272">
		<tag k="name" v="Litledalselva" />
		<tag k="ssr:stedsnr" v="408897" />
		<tag k="waterway" v="stream" />
	</node>
	<node id="-12747" lat="61.9893666696" lon="6.04392777194">
		<tag k="name" v="Øgardselva" />
		<tag k="ssr:stedsnr" v="408594" />
		<tag k="waterway" v="stream" />
	</node>
	<node id="-12742" lat="62.039352776" lon="6.03255555928">
		<tag k="name" v="Grøtvadelva" />
		<tag k="ssr:stedsnr" v="407978" />
		<tag k="waterway" v="stream" />
	</node>
	<node id="-12729" lat="62.1095055547" lon="5.98614721651">
		<tag k="name" v="Småvatna" />
		<tag k="natural" v="water" />
		<tag k="ssr:stedsnr" v="407550" />
	</node>
	<node id="-10680" lat="62.0654138915" lon="6.12355556327">
		<tag k="name" v="Fureneset" />
		<tag k="natural" v="cape" />
		<tag k="ssr:stedsnr" v="286107" />
	</node>
	<node id="-12721" lat="62.0082055563" lon="6.14803611907">
		<tag k="name" v="Nyseterelva" />
		<tag k="ssr:stedsnr" v="407682" />
		<tag k="waterway" v="stream" />
	</node>
	<node id="-12717" lat="62.1215083335" lon="6.02635833344">
		<tag k="name" v="Børelva" />
		<tag k="ssr:stedsnr" v="407591" />
		<tag k="waterway" v="stream" />
	</node>
	<node id="-10656" lat="62.0815555555" lon="6.50809167408">
		<tag k="name" v="Odden" />
		<tag k="natural" v="cape" />
		<tag k="ssr:stedsnr" v="280623" />
	</node>
	<node id="-12698" lat="62.0762388854" lon="6.48071111514">
		<tag k="name" v="Kvitefossen" />
		<tag k="natural" v="waterfall" />
		<tag k="ssr:stedsnr" v="401611" />
	</node>
	<node id="-12692" lat="62.1421111097" lon="6.1455638815">
		<tag k="name" v="Hanshølen" />
		<tag k="place" v="locality" />
		<tag k="ssr:stedsnr" v="399873" />
	</node>
	<node id="-12691" lat="62.1463305567" lon="6.1710944356">
		<tag k="name" v="Svartegrova" />
		<tag k="ssr:stedsnr" v="399864" />
		<tag k="waterway" v="stream" />
	</node>
	<node id="-10630" lat="62.0557333369" lon="6.21284165972">
		<tag k="name" v="Kvislene" />
		<tag k="ssr:stedsnr" v="164305" />
		<tag k="waterway" v="stream" />
	</node>
	<node id="-10624" lat="62.0738777797" lon="6.13614444155">
		<tag k="name" v="Stølselva" />
		<tag k="ssr:stedsnr" v="164102" />
		<tag k="waterway" v="stream" />
	</node>
	<node id="-12669" lat="62.0033055588" lon="6.56407778669">
		<tag k="name" v="Såpegrova" />
		<tag k="ssr:stedsnr" v="396235" />
		<tag k="waterway" v="stream" />
	</node>
	<node id="-12668" lat="62.0078805564" lon="6.65234999819">
		<tag k="name" v="Gamlehjellgjølet" />
		<tag k="ssr:stedsnr" v="396222" />
		<tag k="waterway" v="stream" />
	</node>
	<node id="-12667" lat="62.0121305597" lon="6.55816111771">
		<tag k="name" v="Tverrelvane" />
		<tag k="ssr:stedsnr" v="396216" />
		<tag k="waterway" v="stream" />
	</node>
	<node id="-12663" lat="61.9858861116" lon="5.74218333597">
		<tag k="name" v="Nordre Løysingvatnet" />
		<tag k="natural" v="water" />
		<tag k="ssr:stedsnr" v="394001" />
		<tag k="water" v="lake" />
	</node>
	<node id="-12659" lat="62.0232999962" lon="6.0416250009">
		<tag k="name" v="Bårdneset" />
		<tag k="natural" v="cape" />
		<tag k="ssr:stedsnr" v="384298" />
	</node>
	<node id="-10610" lat="62.1412111117" lon="6.12532221285">
		<tag k="name" v="Bukta" />
		<tag k="natural" v="bay" />
		<tag k="ssr:stedsnr" v="278960" />
	</node>
	<node id="-10643" lat="62.033861113" lon="6.19937500456">
		<tag k="name" v="Dansarholmane" />
		<tag k="place" v="islet" />
		<tag k="ssr:stedsnr" v="165018" />
	</node>
	<node id="-12656" lat="62.0258916624" lon="5.91681666083">
		<tag k="name" v="Joldalsfossen" />
		<tag k="natural" v="waterfall" />
		<tag k="ssr:stedsnr" v="375997" />
	</node>
	<node id="-10607" lat="62.1751527738" lon="6.0062416708">
		<tag k="name" v="Eitreåna" />
		<tag k="ssr:stedsnr" v="278944" />
		<tag k="waterway" v="stream" />
	</node>
	<node id="-10605" lat="62.1423749972" lon="6.12124165879">
		<tag k="name" v="Rotevasselva" />
		<tag k="ssr:stedsnr" v="278935" />
		<tag k="waterway" v="stream" />
	</node>
	<node id="-12651" lat="62.04722778" lon="5.99292500016">
		<tag k="name" v="Trollvatnet" />
		<tag k="natural" v="water" />
		<tag k="ssr:stedsnr" v="375890" />
	</node>
	<node id="-10602" lat="62.0529027798" lon="6.36038054986">
		<tag k="name" v="Krokastranda" />
		<tag k="natural" v="beach" />
		<tag k="ssr:stedsnr" v="278922" />
	</node>
	<node id="-10599" lat="62.0361055555" lon="6.41316111222">
		<tag k="name" v="Nøre Kalvatnelva" />
		<tag k="ssr:stedsnr" v="278912" />
		<tag k="waterway" v="river" />
	</node>
	<node id="-10598" lat="62.0401638889" lon="6.39769166099">
		<tag k="name" v="Månaneset" />
		<tag k="natural" v="cape" />
		<tag k="ssr:stedsnr" v="278904" />
	</node>
	<node id="-12636" lat="62.0354444438" lon="6.13711388615">
		<tag k="name" v="Snødalsvatnet" />
		<tag k="natural" v="water" />
		<tag k="ssr:stedsnr" v="374987" />
	</node>
	<node id="-12634" lat="61.9743388853" lon="6.34696111257">
		<tag k="loc_name" v="Firetjønna" />
		<tag k="name" v="Navledalstjønna" />
		<tag k="natural" v="water" />
		<tag k="ssr:stedsnr" v="374894" />
	</node>
	<node id="-10584" lat="61.9641249975" lon="6.52164722738">
		<tag k="name" v="Vikaelva" />
		<tag k="ssr:stedsnr" v="275248" />
		<tag k="waterway" v="river" />
	</node>
	<node id="-12631" lat="61.9868444427" lon="6.45626666864">
		<tag k="name" v="Furegjølgrova" />
		<tag k="ssr:stedsnr" v="374883" />
		<tag k="waterway" v="stream" />
	</node>
	<node id="-12630" lat="61.9806305598" lon="6.32535555647">
		<tag k="name" v="Osdalssætrevatnet" />
		<tag k="natural" v="water" />
		<tag k="ssr:stedsnr" v="374880" />
	</node>
	<node id="-12627" lat="62.1184388925" lon="6.15379444087">
		<tag k="name" v="Horndalsvatnet" />
		<tag k="natural" v="water" />
		<tag k="ssr:stedsnr" v="374788" />
	</node>
	<node id="-10574" lat="61.9565361132" lon="6.46825554941">
		<tag k="name" v="Svorastranda" />
		<tag k="natural" v="beach" />
		<tag k="ssr:stedsnr" v="275277" />
	</node>
	<node id="-10570" lat="62.0698749971" lon="6.02276389382">
		<tag k="name" v="Litlevatnet" />
		<tag k="natural" v="water" />
		<tag k="ssr:stedsnr" v="149006" />
	</node>
	<node id="-12610" lat="62.0649194457" lon="5.94578332583">
		<tag k="name" v="Tverelva" />
		<tag k="old_name" v="Tver-elva" />
		<tag k="ssr:stedsnr" v="347933" />
		<tag k="waterway" v="stream" />
	</node>
	<node id="-12603" lat="62.0361222187" lon="6.34448888594">
		<tag k="name" v="Haraldedalsvatnet" />
		<tag k="natural" v="water" />
		<tag k="ssr:stedsnr" v="346972" />
	</node>
	<node id="-12602" lat="62.042019441" lon="6.03572778479">
		<tag k="name" v="Sveiafossen" />
		<tag k="natural" v="waterfall" />
		<tag k="ssr:stedsnr" v="346971" />
	</node>
	<node id="-12596" lat="62.0461138928" lon="6.10468611775">
		<tag k="name" v="Fossane" />
		<tag k="natural" v="waterfall" />
		<tag k="ssr:stedsnr" v="346692" />
	</node>
	<node id="-10541" lat="61.9735000008" lon="5.79303056415">
		<tag k="name" v="Nipedalsvatnet" />
		<tag k="natural" v="water" />
		<tag k="ssr:stedsnr" v="131005" />
	</node>
	<node id="-10537" lat="62.1446555525" lon="6.09825277508">
		<tag k="name" v="Årneset" />
		<tag k="natural" v="cape" />
		<tag k="ssr:stedsnr" v="262154" />
	</node>
	<node id="-12583" lat="62.1079361103" lon="6.052516668">
		<tag k="name" v="Krumsvikelva" />
		<tag k="ssr:stedsnr" v="346380" />
		<tag k="waterway" v="stream" />
	</node>
	<node id="-12573" lat="61.9989361077" lon="5.81081111947">
		<tag k="name" v="Tverrelva" />
		<tag k="ssr:stedsnr" v="346136" />
		<tag k="waterway" v="stream" />
	</node>
	<node id="-12567" lat="62.0766638893" lon="6.49722778255">
		<tag k="name" v="Vaulen" />
		<tag k="place" v="islet" />
		<tag k="ssr:stedsnr" v="340624" />
	</node>
	<node id="-10517" lat="62.0375111092" lon="6.04798610673">
		<tag k="name" v="Nedstevatnet" />
		<tag k="natural" v="water" />
		<tag k="ssr:stedsnr" v="254976" />
	</node>
	<node id="-12564" lat="62.0940388902" lon="6.52083610976">
		<tag k="name" v="Saursoddegjølet" />
		<tag k="ssr:stedsnr" v="340602" />
		<tag k="waterway" v="stream" />
	</node>
	<node id="-10511" lat="62.1325555529" lon="6.55020000641">
		<tag k="name" v="Mjølfossen" />
		<tag k="natural" v="waterfall" />
		<tag k="ssr:stedsnr" v="254650" />
	</node>
	<node id="-10506" lat="62.0354583327" lon="6.08121944635">
		<tag k="name" v="Sulvatnet" />
		<tag k="natural" v="water" />
		<tag k="ssr:stedsnr" v="253999" />
		<tag k="water" v="lake" />
	</node>
	<node id="-10505" lat="62.0147083325" lon="5.80204166649">
		<tag k="name" v="Dansavatnet" />
		<tag k="natural" v="water" />
		<tag k="ssr:stedsnr" v="253991" />
	</node>
	<node id="-10501" lat="62.0180555549" lon="6.17916110174">
		<tag k="name" v="Feirdalsvatnet" />
		<tag k="natural" v="water" />
		<tag k="ssr:stedsnr" v="253972" />
	</node>
	<node id="-12544" lat="61.9947803662" lon="6.45392537268">
		<tag k="name" v="Litlevatnet" />
		<tag k="natural" v="water" />
		<tag k="ssr:stedsnr" v="335296" />
		<tag k="water" v="lake" />
	</node>
	<node id="-12543" lat="61.9743027786" lon="6.46254722942">
		<tag k="name" v="Ormetua" />
		<tag k="natural" v="cape" />
		<tag k="ssr:stedsnr" v="335285" />
	</node>
	<node id="-12542" lat="61.9588805583" lon="6.57135555095">
		<tag k="name" v="Fossen" />
		<tag k="natural" v="waterfall" />
		<tag k="ssr:stedsnr" v="335267" />
	</node>
	<node id="-12541" lat="62.0090055572" lon="6.65497222485">
		<tag k="name" v="Furegrova" />
		<tag k="ssr:stedsnr" v="335261" />
		<tag k="waterway" v="stream" />
	</node>
	<node id="-12540" lat="62.0269944482" lon="6.70220554695">
		<tag k="name" v="Kvernhusgrova" />
		<tag k="ssr:stedsnr" v="335257" />
		<tag k="waterway" v="stream" />
	</node>
	<node id="-12539" lat="62.0250388917" lon="6.5561583301">
		<tag k="name" v="Litledalselva" />
		<tag k="ssr:stedsnr" v="335256" />
		<tag k="waterway" v="river" />
	</node>
	<node id="-10482" lat="61.9927583319" lon="6.31306111962">
		<tag k="name" v="Litlevassdalsvatnet" />
		<tag k="natural" v="water" />
		<tag k="ssr:stedsnr" v="253831" />
	</node>
	<node id="-12528" lat="62.1346666669" lon="5.82841944284">
		<tag k="name" v="Litledalsvatnet" />
		<tag k="natural" v="water" />
		<tag k="ssr:stedsnr" v="333334" />
	</node>
	<node id="-10479" lat="62.1503361122" lon="6.17746666327">
		<tag k="name" v="Krøvelseidet" />
		<tag k="natural" v="strait" />
		<tag k="ssr:stedsnr" v="253822" />
	</node>
	<node id="-10476" lat="62.1294666625" lon="5.92453611916">
		<tag k="name" v="Skrubbenestjørna" />
		<tag k="natural" v="water" />
		<tag k="ssr:stedsnr" v="253773" />
	</node>
	<node id="-10474" lat="62.0612611131" lon="6.34577499998">
		<tag k="alt_name" v="Fyrdselva" />
		<tag k="name" v="Damfosselva" />
		<tag k="ssr:stedsnr" v="253751" />
		<tag k="waterway" v="river" />
	</node>
	<node id="-12520" lat="62.0319694462" lon="6.09385278239">
		<tag k="name" v="Svartevatna" />
		<tag k="natural" v="water" />
		<tag k="ssr:stedsnr" v="315000" />
	</node>
	<node id="-12519" lat="62.0212750033" lon="5.92003888676">
		<tag k="name" v="Joldalsvatnet" />
		<tag k="natural" v="water" />
		<tag k="ssr:stedsnr" v="314984" />
		<tag k="water" v="lake" />
	</node>
	<node id="-12511" lat="62.1364750011" lon="6.65459166465">
		<tag k="name" v="Viddalselva" />
		<tag k="ssr:stedsnr" v="314688" />
		<tag k="waterway" v="river" />
	</node>
	<node id="-10454" lat="61.9591555561" lon="6.48827221359">
		<tag k="name" v="Svorastranda" />
		<tag k="natural" v="beach" />
		<tag k="ssr:stedsnr" v="252876" />
	</node>
	<node id="-10452" lat="61.9783380616" lon="5.7442405971">
		<tag k="name" v="Løysingvatna" />
		<tag k="natural" v="water" />
		<tag k="ssr:stedsnr" v="252018" />
		<tag k="water" v="lake" />
	</node>
	<node id="-12493" lat="61.9970583359" lon="6.42967222403">
		<tag k="alt_name" v="Kalveskredegrøvene" />
		<tag k="name" v="Kalveskredgrova" />
		<tag k="ssr:stedsnr" v="313841" />
		<tag k="waterway" v="stream" />
	</node>
	<node id="-10437" lat="61.9689583312" lon="6.33954723055">
		<tag k="name" v="Rundevatnet" />
		<tag k="natural" v="water" />
		<tag k="ssr:stedsnr" v="71925" />
	</node>
	<node id="-10433" lat="62.1373222251" lon="5.91781110137">
		<tag k="name" v="Kvernaelva" />
		<tag k="ssr:stedsnr" v="71832" />
		<tag k="waterway" v="stream" />
	</node>
	<node id="-12480" lat="62.0018000006" lon="6.4433083244">
		<tag k="name" v="Måseggegrova" />
		<tag k="ssr:stedsnr" v="214255" />
		<tag k="waterway" v="stream" />
	</node>
	<node id="-12479" lat="61.9943888923" lon="6.5891166717">
		<tag k="name" v="Havrevadgrova" />
		<tag k="ssr:stedsnr" v="214253" />
		<tag k="waterway" v="stream" />
	</node>
	<node id="-12478" lat="62.0258333326" lon="6.59321388307">
		<tag k="name" v="Smalelva" />
		<tag k="ssr:stedsnr" v="214235" />
		<tag k="waterway" v="river" />
	</node>
	<node id="-12467" lat="62.021608335" lon="5.77540277487">
		<tag k="name" v="Jolgrøvatnet" />
		<tag k="natural" v="water" />
		<tag k="ssr:stedsnr" v="193969" />
		<tag k="water" v="lake" />
	</node>
	<node id="-12466" lat="62.0239305576" lon="5.80998333639">
		<tag k="name" v="Danselva" />
		<tag k="ssr:stedsnr" v="193968" />
		<tag k="waterway" v="stream" />
	</node>
	<node id="-12465" lat="62.0410555591" lon="6.16884166513">
		<tag k="name" v="Joldalsvatnet" />
		<tag k="natural" v="water" />
		<tag k="ssr:stedsnr" v="193965" />
	</node>
	<node id="-12464" lat="62.0060027798" lon="5.79851666448">
		<tag k="name" v="Steinkvivatnet" />
		<tag k="natural" v="water" />
		<tag k="ssr:stedsnr" v="193961" />
	</node>
	<node id="-12462" lat="62.0120222227" lon="6.16960832488">
		<tag k="name" v="Vassdalsvatnet" />
		<tag k="natural" v="water" />
		<tag k="ssr:stedsnr" v="193956" />
	</node>
	<node id="-10413" lat="62.1347194486" lon="6.65283056387">
		<tag k="name" v="Fosselva" />
		<tag k="ssr:stedsnr" v="227834" />
		<tag k="waterway" v="stream" />
	</node>
	<node id="-12458" lat="62.0066027806" lon="6.0343944353">
		<tag k="name" v="Laurdalselva" />
		<tag k="ssr:stedsnr" v="193945" />
		<tag k="waterway" v="stream" />
	</node>
	<node id="-12481" lat="61.9730083322" lon="6.43600556503">
		<tag k="name" v="Svagrova" />
		<tag k="ssr:stedsnr" v="214258" />
		<tag k="waterway" v="stream" />
	</node>
	<node id="-12452" lat="62.0554944438" lon="6.11254444667">
		<tag k="name" v="Brundalsvatnet" />
		<tag k="natural" v="water" />
		<tag k="ssr:stedsnr" v="193876" />
	</node>
	<node id="-10950" lat="62.0563805543" lon="6.65948610411">
		<tag k="name" v="Litle Luka" />
		<tag k="natural" v="water" />
		<tag k="ssr:stedsnr" v="314716" />
	</node>
	<node id="-10402" lat="62.0885472202" lon="6.54691667461">
		<tag k="name" v="Grufså" />
		<tag k="ssr:stedsnr" v="226259" />
		<tag k="waterway" v="stream" />
	</node>
	<node id="-12448" lat="62.043472786" lon="6.60991173127">
		<tag k="name" v="Tussevatna" />
		<tag k="natural" v="water" />
		<tag k="ssr:stedsnr" v="193674" />
		<tag k="water" v="lake" />
	</node>
	<node id="-10392" lat="62.064688893" lon="5.94869166567">
		<tag k="name" v="Tongeelva" />
		<tag k="ssr:stedsnr" v="225882" />
		<tag k="waterway" v="stream" />
	</node>
	<node id="-10391" lat="62.059744448" lon="5.94788611103">
		<tag k="name" v="Øvstegardgrova" />
		<tag k="ssr:stedsnr" v="225881" />
		<tag k="waterway" v="stream" />
	</node>
	<node id="-12438" lat="61.9851083379" lon="6.42853056208">
		<tag k="name" v="Svartfjellgrova" />
		<tag k="ssr:stedsnr" v="192892" />
		<tag k="waterway" v="stream" />
	</node>
	<node id="-10389" lat="62.0883888913" lon="5.99683889518">
		<tag k="name" v="Trætteelva" />
		<tag k="ssr:stedsnr" v="225875" />
		<tag k="waterway" v="stream" />
	</node>
	<node id="-10384" lat="62.1904444423" lon="5.87289999645">
		<tag k="name" v="Tverelva" />
		<tag k="ssr:stedsnr" v="225767" />
		<tag k="waterway" v="stream" />
	</node>
	<node id="-10383" lat="62.0253472257" lon="6.04236665946">
		<tag k="name" v="Sorpstøda" />
		<tag k="natural" v="bay" />
		<tag k="ssr:stedsnr" v="225765" />
	</node>
	<node id="-12429" lat="62.1580194475" lon="6.13258054793">
		<tag k="name" v="Rotevasselva" />
		<tag k="ssr:stedsnr" v="192817" />
		<tag k="waterway" v="stream" />
	</node>
	<node id="-12427" lat="61.9822361119" lon="6.59740554983">
		<tag k="name" v="Sætregrova" />
		<tag k="ssr:stedsnr" v="192271" />
		<tag k="waterway" v="stream" />
	</node>
	<node id="-12423" lat="61.9910250011" lon="5.83902500537">
		<tag k="name" v="Tverrelva" />
		<tag k="ssr:stedsnr" v="192050" />
		<tag k="waterway" v="stream" />
	</node>
	<node id="-12422" lat="61.9892638855" lon="5.79097499764">
		<tag k="name" v="Trollvatnet" />
		<tag k="natural" v="water" />
		<tag k="ssr:stedsnr" v="192048" />
	</node>
	<node id="-12421" lat="61.9795250034" lon="5.7663499989">
		<tag k="name" v="Brotavatnet" />
		<tag k="natural" v="water" />
		<tag k="ssr:stedsnr" v="192018" />
	</node>
	<node id="-10302" lat="62.0363527757" lon="6.41497778243">
		<tag k="name" v="Koppelva" />
		<tag k="ssr:stedsnr" v="217944" />
		<tag k="waterway" v="stream" />
	</node>
	<node id="-12414" lat="62.1346694445" lon="6.64809444981">
		<tag k="name" v="Fremste Sæterelva" />
		<tag k="ssr:stedsnr" v="166829" />
		<tag k="waterway" v="stream" />
	</node>
	<node id="-11284" lat="62.0280388914" lon="6.21623333922">
		<tag k="name" v="Osvatnet" />
		<tag k="natural" v="water" />
		<tag k="ssr:stedsnr" v="529002" />
	</node>
	<node id="-12406" lat="62.1109611116" lon="6.16537500825">
		<tag k="name" v="Stølsvatnet" />
		<tag k="natural" v="water" />
		<tag k="ssr:stedsnr" v="165093" />
	</node>
	<node id="-12401" lat="62.000750004" lon="6.08522499898">
		<tag k="name" v="Hunnesvika" />
		<tag k="natural" v="bay" />
		<tag k="ssr:stedsnr" v="164622" />
	</node>
	<node id="-10341" lat="62.0664833299" lon="6.13773055912">
		<tag k="name" v="Vardalselva" />
		<tag k="ssr:stedsnr" v="225115" />
		<tag k="waterway" v="stream" />
	</node>
	<node id="-10338" lat="61.9927083374" lon="5.77233610944">
		<tag k="name" v="Eggavatnet" />
		<tag k="natural" v="water" />
		<tag k="ssr:stedsnr" v="225055" />
	</node>
	<node id="-12382" lat="62.0961749963" lon="5.91804166893">
		<tag k="name" v="Transelva" />
		<tag k="ssr:stedsnr" v="164180" />
		<tag k="waterway" v="stream" />
	</node>
	<node id="-12377" lat="62.0776999969" lon="6.49548334258">
		<tag k="name" v="Bruaneset" />
		<tag k="natural" v="cape" />
		<tag k="ssr:stedsnr" v="158626" />
	</node>
	<node id="-10315" lat="61.9797666663" lon="6.44944443509">
		<tag k="name" v="Otredalsbukta" />
		<tag k="natural" v="bay" />
		<tag k="ssr:stedsnr" v="10854" />
	</node>
	<node id="-12350" lat="61.9733194467" lon="6.7180083425">
		<tag k="name" v="Natakupelva" />
		<tag k="ssr:stedsnr" v="153259" />
		<tag k="waterway" v="river" />
	</node>
	<node id="-12348" lat="62.0096777808" lon="5.76011388749">
		<tag k="name" v="Fossadalselva" />
		<tag k="ssr:stedsnr" v="151696" />
		<tag k="waterway" v="stream" />
	</node>
	<node id="-12347" lat="62.1425527782" lon="5.85016111077">
		<tag k="name" v="Hellevatnet" />
		<tag k="natural" v="water" />
		<tag k="ssr:stedsnr" v="151438" />
	</node>
	<node id="-10296" lat="62.1519861134" lon="6.16636944484">
		<tag k="name" v="Litleraudelva" />
		<tag k="ssr:stedsnr" v="217863" />
		<tag k="waterway" v="stream" />
	</node>
	<node id="-12339" lat="62.0284138912" lon="6.04276943643">
		<tag k="name" v="Storebåtstøda" />
		<tag k="place" v="locality" />
		<tag k="ssr:stedsnr" v="142282" />
	</node>
	<node id="-12330" lat="62.0878361105" lon="6.67468611656">
		<tag k="name" v="Blådalsvatna" />
		<tag k="natural" v="water" />
		<tag k="ssr:stedsnr" v="132738" />
		<tag k="water" v="lake" />
	</node>
	<node id="-12319" lat="62.0140722267" lon="6.61646944864">
		<tag k="name" v="Litledalsvatnet" />
		<tag k="natural" v="water" />
		<tag k="ssr:stedsnr" v="132243" />
	</node>
	<node id="-11269" lat="62.0510277785" lon="6.05270277863">
		<tag k="name" v="Fugleneset" />
		<tag k="natural" v="cape" />
		<tag k="ssr:stedsnr" v="688291" />
	</node>
	<node id="-12309" lat="62.1350861068" lon="5.80120555841">
		<tag k="alt_name" v="Skoravatnet" />
		<tag k="name" v="Myrkevatnet" />
		<tag k="natural" v="water" />
		<tag k="ssr:stedsnr" v="131832" />
		<tag k="water" v="lake" />
	</node>
	<node id="-12303" lat="61.9814666682" lon="6.12650000661">
		<tag k="name" v="Tuevatnet" />
		<tag k="natural" v="water" />
		<tag k="ssr:stedsnr" v="131241" />
	</node>
	<node id="-12302" lat="61.9770305575" lon="6.11153056283">
		<tag k="name" v="Stigedalsvatnet" />
		<tag k="natural" v="water" />
		<tag k="ssr:stedsnr" v="131239" />
	</node>
	<node id="-12301" lat="61.9631777739" lon="6.74471667256">
		<tag k="name" v="Botnavatnet" />
		<tag k="natural" v="water" />
		<tag k="ssr:stedsnr" v="131187" />
	</node>
	<node id="-10583" lat="62.0166555591" lon="6.5826333353">
		<tag k="name" v="Jolegrova" />
		<tag k="ssr:stedsnr" v="275238" />
		<tag k="waterway" v="stream" />
	</node>
	<node id="-12292" lat="62.0433249983" lon="6.33606944796">
		<tag k="name" v="Haraldedalselva" />
		<tag k="ssr:stedsnr" v="104972" />
		<tag k="waterway" v="stream" />
	</node>
</osm>
