<?xml version="1.0" encoding="UTF-8"?>
<osm version="0.6" generator="osmapis">
	<node lat="61.97877777941677" lon="6.71957222583586" id="-10807">
		<tag k="alt_name" v="Strynesetra" />
		<tag k="historic" v="shieling" />
		<tag k="name" v="Strynesætra" />
		<tag k="place" v="isolated_dwelling" />
		<tag k="ssr:stedsnr" v="10243" />
	</node>
	<node lat="62.09549999777879" lon="6.271088889378533" id="-10810">
		<tag k="historic" v="shieling" />
		<tag k="name" v="Årsetsætra" />
		<tag k="place" v="isolated_dwelling" />
		<tag k="ssr:stedsnr" v="10680" />
	</node>
	<node lat="62.10333570422946" lon="6.141581423521031" id="-10813">
		<tag k="fixme" v="consider place=hamlet" />
		<tag k="name" v="Homborset" />
		<tag k="place" v="farm" />
		<tag k="ssr:stedsnr" v="10880" />
	</node>
	<node lat="62.18073610754115" lon="5.88115000665857" id="-10815">
		<tag k="historic" v="shieling" />
		<tag k="name" v="Koppesætra" />
		<tag k="place" v="isolated_dwelling" />
		<tag k="ssr:stedsnr" v="11006" />
	</node>
	<node lat="62.011042746155006" lon="5.8440390578762225" id="-10819">
		<tag k="alt_name" v="Ytre Åmelfot;Åmelfoten" />
		<tag k="fixme" v="consider place=hamlet" />
		<tag k="name" v="Ytre Åmelfoten" />
		<tag k="place" v="farm" />
		<tag k="ssr:stedsnr" v="10943" />
	</node>
	<node lat="62.01569722026381" lon="5.8176888860500515" id="-10821">
		<tag k="historic" v="shieling" />
		<tag k="name" v="Dansen" />
		<tag k="place" v="isolated_dwelling" />
		<tag k="ssr:stedsnr" v="10988" />
	</node>
	<node lat="62.00044022260787" lon="6.575615352320031" id="-10826">
		<tag k="fixme" v="consider place=hamlet" />
		<tag k="name" v="Engebø" />
		<tag k="place" v="farm" />
		<tag k="ssr:stedsnr" v="11710" />
	</node>
	<node lat="62.13720233941641" lon="6.137032289728413" id="-10833">
		<tag k="name" v="Holen" />
		<tag k="place" v="farm" />
		<tag k="ssr:stedsnr" v="28918" />
	</node>
	<node lat="62.18431746452745" lon="5.917891166815148" id="-10896">
		<tag k="fixme" v="consider place=hamlet" />
		<tag k="name" v="Tilset" />
		<tag k="place" v="farm" />
		<tag k="ssr:stedsnr" v="71006" />
	</node>
	<node lat="62.18208611176925" lon="5.861402775837662" id="-10897">
		<tag k="historic" v="shieling" />
		<tag k="name" v="Velsviksætra" />
		<tag k="place" v="isolated_dwelling" />
		<tag k="ssr:stedsnr" v="71007" />
	</node>
	<node lat="61.99713888653642" lon="6.581216661486042" id="-10902">
		<tag k="name" v="Lyngstad" />
		<tag k="place" v="farm" />
		<tag k="ssr:stedsnr" v="71837" />
	</node>
	<node lat="62.069969442937264" lon="5.8984999987365505" id="-10911">
		<tag k="name" v="Nyheim" />
		<tag k="place" v="isolated_dwelling" />
		<tag k="ssr:stedsnr" v="71934" />
	</node>
	<node lat="61.93823333196536" lon="6.515211104615121" id="-10913">
		<tag k="name" v="Hagvik" />
		<tag k="place" v="farm" />
		<tag k="ssr:stedsnr" v="71950" />
	</node>
	<node lat="62.00522499590075" lon="6.039266671728126" id="-10914">
		<tag k="name" v="Vonheim" />
		<tag k="place" v="farm" />
		<tag k="ssr:stedsnr" v="71974" />
	</node>
	<node lat="62.051291666431496" lon="6.281713893746449" id="-10919">
		<tag k="historic" v="shieling" />
		<tag k="name" v="Skinnviksætra" />
		<tag k="place" v="isolated_dwelling" />
		<tag k="ssr:stedsnr" v="72710" />
	</node>
	<node lat="62.150794443510655" lon="6.123247218615656" id="-10946">
		<tag k="name" v="Hagen" />
		<tag k="place" v="farm" />
		<tag k="ssr:stedsnr" v="96965" />
	</node>
	<node lat="62.14956388756899" lon="6.117211103795235" id="-10947">
		<tag k="name" v="Kriken" />
		<tag k="place" v="farm" />
		<tag k="ssr:stedsnr" v="96966" />
	</node>
	<node lat="62.05684444138762" lon="6.261699995713448" id="-10958">
		<tag k="historic" v="shieling" />
		<tag k="name" v="Håvikseter" />
		<tag k="place" v="isolated_dwelling" />
		<tag k="ssr:stedsnr" v="104273" />
	</node>
	<node lat="62.1502750027706" lon="5.941422231115687" id="-10968">
		<tag k="alt_name" v="Setre" />
		<tag k="name" v="Sætre" />
		<tag k="place" v="farm" />
		<tag k="ssr:stedsnr" v="104692" />
	</node>
	<node lat="61.998466663687616" lon="6.602716662125488" id="-10979">
		<tag k="fixme" v="consider place=hamlet" />
		<tag k="name" v="Indre Hornindal" />
		<tag k="place" v="village" />
		<tag k="ssr:stedsnr" v="131214" />
	</node>
	<node lat="61.999326376099056" lon="6.628824800747134" id="-10980">
		<tag k="fixme" v="consider place=hamlet" />
		<tag k="name" v="Brendefur" />
		<tag k="place" v="farm" />
		<tag k="ssr:stedsnr" v="131216" />
	</node>
	<node lat="62.11680277527399" lon="5.937655551067199" id="-10983">
		<tag k="name" v="Myra" />
		<tag k="place" v="farm" />
		<tag k="ssr:stedsnr" v="131805" />
	</node>
	<node lat="61.996620340150024" lon="6.526839799774226" id="-10984">
		<tag k="fixme" v="consider place=hamlet" />
		<tag k="name" v="Haugen" />
		<tag k="place" v="farm" />
		<tag k="ssr:stedsnr" v="131864" />
	</node>
	<node lat="62.17215555431518" lon="6.014702773718938" id="-10985">
		<tag k="name" v="Haugen" />
		<tag k="place" v="farm" />
		<tag k="ssr:stedsnr" v="132012" />
	</node>
	<node lat="62.09834412848328" lon="6.173941907556837" id="-10996">
		<tag k="fixme" v="consider place=hamlet" />
		<tag k="name" v="Reitane" />
		<tag k="place" v="farm" />
		<tag k="ssr:stedsnr" v="132822" />
	</node>
	<node lat="62.07379999782792" lon="6.17159444058895" id="-10998">
		<tag k="historic" v="shieling" />
		<tag k="name" v="Nesasætra" />
		<tag k="place" v="isolated_dwelling" />
		<tag k="ssr:stedsnr" v="132924" />
	</node>
	<node lat="62.06976010022499" lon="6.197046362188929" id="-10999">
		<tag k="alt_name" v="Øysteberget" />
		<tag k="fixme" v="consider place=hamlet" />
		<tag k="name" v="Øvsteberget" />
		<tag k="place" v="farm" />
		<tag k="ssr:stedsnr" v="132926" />
	</node>
	<node lat="62.10213882732068" lon="6.150964639414919" id="-11002">
		<tag k="alt_name" v="Vadstein" />
		<tag k="fixme" v="consider place=hamlet" />
		<tag k="name" v="Vassteinen" />
		<tag k="place" v="farm" />
		<tag k="ssr:stedsnr" v="132864" />
	</node>
	<node lat="62.08206646032413" lon="6.2603053490232865" id="-11009">
		<tag k="fixme" v="consider place=hamlet" />
		<tag k="name" v="Årset" />
		<tag k="place" v="farm" />
		<tag k="ssr:stedsnr" v="253667" />
	</node>
	<node lat="62.08725277807529" lon="6.23031110449003" id="-11010">
		<tag k="name" v="Skjeret" />
		<tag k="place" v="farm" />
		<tag k="ssr:stedsnr" v="253673" />
	</node>
	<node lat="62.15265206001711" lon="6.125452057778415" id="-11012">
		<tag k="fixme" v="consider place=hamlet" />
		<tag k="name" v="Bratteberget" />
		<tag k="place" v="farm" />
		<tag k="ssr:stedsnr" v="253811" />
	</node>
	<node lat="62.09343040053638" lon="6.147929440759816" id="-11015">
		<tag k="fixme" v="consider place=hamlet" />
		<tag k="name" v="Furnes" />
		<tag k="place" v="farm" />
		<tag k="ssr:stedsnr" v="253857" />
	</node>
	<node lat="62.08996111281952" lon="6.086408339142797" id="-11016">
		<tag k="name" v="Storemek" />
		<tag k="place" v="farm" />
		<tag k="ssr:stedsnr" v="253860" />
	</node>
	<node lat="62.063516051788724" lon="5.896452722444604" id="-11020">
		<tag k="fixme" v="consider place=hamlet" />
		<tag k="name" v="Innselset" />
		<tag k="place" v="farm" />
		<tag k="ssr:stedsnr" v="253936" />
	</node>
	<node lat="62.06713055122105" lon="5.896127769537426" id="-11021">
		<tag k="name" v="Skoglund" />
		<tag k="place" v="isolated_dwelling" />
		<tag k="ssr:stedsnr" v="253937" />
	</node>
	<node lat="62.0756500017424" lon="6.049586101796434" id="-11027">
		<tag k="historic" v="shieling" />
		<tag k="name" v="Straumssætra" />
		<tag k="place" v="isolated_dwelling" />
		<tag k="ssr:stedsnr" v="253913" />
	</node>
	<node lat="62.07591666587292" lon="6.104666659798605" id="-11028">
		<tag k="name" v="Lineberget" />
		<tag k="place" v="farm" />
		<tag k="ssr:stedsnr" v="253919" />
	</node>
	<node lat="62.16186388800566" lon="5.922591673958331" id="-11029">
		<tag k="loc_name" v="Lisjemyra" />
		<tag k="name" v="Nybakk" />
		<tag k="place" v="farm" />
		<tag k="ssr:stedsnr" v="254034" />
	</node>
	<node lat="62.11938610779221" lon="6.548408339320848" id="-11032">
		<tag k="fixme" v="consider place=hamlet" />
		<tag k="name" v="Finnes" />
		<tag k="place" v="village" />
		<tag k="ssr:stedsnr" v="254640" />
	</node>
	<node lat="61.972402781432265" lon="6.563938880628522" id="-11048">
		<tag k="historic" v="shieling" />
		<tag k="name" v="Gamlesetra" />
		<tag k="place" v="isolated_dwelling" />
		<tag k="ssr:stedsnr" v="153653" />
	</node>
	<node lat="62.07319166940795" lon="6.072858333773192" id="-11073">
		<tag k="name" v="Årviknes" />
		<tag k="old_name" v="Aarviknes" />
		<tag k="place" v="farm" />
		<tag k="ssr:stedsnr" v="164228" />
	</node>
	<node lat="62.20912500031098" lon="5.960397223968657" id="-11079">
		<tag k="name" v="Indre Lid" />
		<tag k="old_name" v="Lid-indre" />
		<tag k="place" v="farm" />
		<tag k="ssr:stedsnr" v="164705" />
	</node>
	<node lat="62.07397777608031" lon="6.171958325468163" id="-11088">
		<tag k="historic" v="shieling" />
		<tag k="name" v="Nykkedalsstølen" />
		<tag k="place" v="isolated_dwelling" />
		<tag k="ssr:stedsnr" v="165162" />
	</node>
	<node lat="62.143025468588846" lon="6.075412247357286" id="-11123">
		<tag k="fixme" v="consider place=hamlet" />
		<tag k="loc_name" v="Øyra" />
		<tag k="name" v="Prestegarden" />
		<tag k="place" v="farm" />
		<tag k="ssr:stedsnr" v="217016" />
	</node>
	<node lat="62.08959444282833" lon="6.5268944460872484" id="-11130">
		<tag k="historic" v="shieling" />
		<tag k="name" v="Nykvistøylen" />
		<tag k="place" v="isolated_dwelling" />
		<tag k="ssr:stedsnr" v="219622" />
	</node>
	<node lat="62.1468531993033" lon="5.939298889919428" id="-11159">
		<tag k="fixme" v="consider place=hamlet" />
		<tag k="name" v="Kvangardsnes" />
		<tag k="place" v="farm" />
		<tag k="ssr:stedsnr" v="225692" />
	</node>
	<node lat="62.05566666991996" lon="5.932355558445176" id="-11162">
		<tag k="name" v="Hjelle" />
		<tag k="place" v="farm" />
		<tag k="ssr:stedsnr" v="225908" />
	</node>
	<node lat="62.060444442336895" lon="6.357597228514916" id="-11188">
		<tag k="name" v="Bjørkly" />
		<tag k="place" v="farm" />
		<tag k="ssr:stedsnr" v="253747" />
	</node>
	<node lat="62.14274721862919" lon="6.130780553508386" id="-11192">
		<tag k="name" v="Nybø" />
		<tag k="place" v="farm" />
		<tag k="ssr:stedsnr" v="253777" />
	</node>
	<node lat="62.1676109572267" lon="5.932973225176719" id="-11199">
		<tag k="fixme" v="consider place=hamlet" />
		<tag k="name" v="Ulvestad" />
		<tag k="place" v="farm" />
		<tag k="ssr:stedsnr" v="254022" />
	</node>
	<node lat="62.012397225836736" lon="6.068005563171976" id="-11202">
		<tag k="name" v="Torgarden" />
		<tag k="place" v="farm" />
		<tag k="ssr:stedsnr" v="253976" />
	</node>
	<node lat="62.06113782252242" lon="6.376300512831185" id="-11207">
		<tag k="fixme" v="consider place=hamlet" />
		<tag k="name" v="Nes" />
		<tag k="place" v="farm" />
		<tag k="ssr:stedsnr" v="254680" />
	</node>
	<node lat="61.999566664918085" lon="6.491763888623007" id="-11212">
		<tag k="historic" v="shieling" />
		<tag k="name" v="Midtsetra" />
		<tag k="place" v="isolated_dwelling" />
		<tag k="ssr:stedsnr" v="457214" />
	</node>
	<node lat="61.998080559367615" lon="6.572236105624875" id="-11213">
		<tag k="name" v="Krokabakk" />
		<tag k="place" v="farm" />
		<tag k="ssr:stedsnr" v="457219" />
	</node>
	<node lat="61.989980863298655" lon="6.508888220811102" id="-11219">
		<tag k="name" v="Kipaplassen" />
		<tag k="place" v="locality" />
		<tag k="ssr:stedsnr" v="457387" />
	</node>
	<node lat="62.05971123613116" lon="6.316659388240742" id="-11231">
		<tag k="alt_name" v="Holsvik" />
		<tag k="fixme" v="consider place=hamlet" />
		<tag k="name" v="Hollsvik" />
		<tag k="place" v="farm" />
		<tag k="ssr:stedsnr" v="270910" />
	</node>
	<node lat="61.94953611552473" lon="6.548105561624956" id="-11237">
		<tag k="historic" v="shieling" />
		<tag k="name" v="Per i svorsetra" />
		<tag k="place" v="isolated_dwelling" />
		<tag k="ssr:stedsnr" v="275224" />
	</node>
	<node lat="62.18043055256286" lon="6.037675006268026" id="-11251">
		<tag k="name" v="Ytrestøylen" />
		<tag k="place" v="farm" />
		<tag k="ssr:stedsnr" v="460935" />
	</node>
	<node lat="62.165305556163034" lon="6.033433326794596" id="-11254">
		<tag k="name" v="Reset" />
		<tag k="place" v="quarter" />
		<tag k="ssr:stedsnr" v="460954" />
	</node>
	<node lat="62.156136111670705" lon="6.0895027832579585" id="-11255">
		<tag k="historic" v="shieling" />
		<tag k="name" v="Prestesætra" />
		<tag k="place" v="isolated_dwelling" />
		<tag k="ssr:stedsnr" v="460978" />
	</node>
	<node lat="62.05710555716188" lon="5.92753056393283" id="-11257">
		<tag k="name" v="Bøen" />
		<tag k="place" v="farm" />
		<tag k="ssr:stedsnr" v="285292" />
	</node>
	<node lat="62.09398610812857" lon="6.606638881133333" id="-11279">
		<tag k="fixme" v="consider tourism=alpine_hut or tourism=chalet" />
		<tag k="name" v="Tyssenaustet" />
		<tag k="ssr:stedsnr" v="461280" />
		<tag k="tourism" v="wilderness_hut" />
	</node>
	<node lat="62.17051111010858" lon="5.92807222565533" id="-11309">
		<tag k="loc_name" v="Krikane" />
		<tag k="name" v="Krekane" />
		<tag k="place" v="farm" />
		<tag k="ssr:stedsnr" v="314014" />
	</node>
	<node lat="62.15253565663748" lon="5.9452545167322866" id="-11310">
		<tag k="fixme" v="consider place=hamlet" />
		<tag k="name" v="Sætre" />
		<tag k="place" v="farm" />
		<tag k="ssr:stedsnr" v="314058" />
	</node>
	<node lat="62.19387565705755" lon="5.875858086693518" id="-11314">
		<tag k="fixme" v="consider place=hamlet" />
		<tag k="name" v="Koppen" />
		<tag k="place" v="farm" />
		<tag k="ssr:stedsnr" v="314113" />
	</node>
	<node lat="62.04689746190305" lon="6.4269548977311475" id="-11315">
		<tag k="alt_name" v="Bueide" />
		<tag k="fixme" v="consider place=hamlet" />
		<tag k="name" v="Bueidet" />
		<tag k="place" v="farm" />
		<tag k="ssr:stedsnr" v="314711" />
	</node>
	<node lat="62.13832872154839" lon="6.08022114274473" id="-11316">
		<tag k="fixme" v="consider place=hamlet" />
		<tag k="name" v="Rotset" />
		<tag k="place" v="farm" />
		<tag k="ssr:stedsnr" v="314805" />
	</node>
	<node lat="62.071352219651175" lon="5.901889470337642" id="-11331">
		<tag k="fixme" v="consider place=hamlet" />
		<tag k="name" v="Aksnesseter" />
		<tag k="place" v="farm" />
		<tag k="ssr:stedsnr" v="467331" />
	</node>
	<node lat="62.054722225352926" lon="6.114583323534453" id="-11333">
		<tag k="historic" v="shieling" />
		<tag k="name" v="Brundalstølen" />
		<tag k="place" v="isolated_dwelling" />
		<tag k="ssr:stedsnr" v="468087" />
	</node>
	<node lat="62.00509444688007" lon="6.038500003009185" id="-11340">
		<tag k="name" v="Koppen" />
		<tag k="place" v="farm" />
		<tag k="ssr:stedsnr" v="468555" />
	</node>
	<node lat="62.05985277931323" lon="5.959933329190031" id="-11346">
		<tag k="historic" v="shieling" />
		<tag k="name" v="Heida" />
		<tag k="place" v="isolated_dwelling" />
		<tag k="ssr:stedsnr" v="468891" />
	</node>
	<node lat="62.158063892076456" lon="6.101211118167261" id="-11363">
		<tag k="historic" v="shieling" />
		<tag k="name" v="Ullastøylen" />
		<tag k="place" v="isolated_dwelling" />
		<tag k="ssr:stedsnr" v="338944" />
	</node>
	<node lat="62.16998894769814" lon="6.053157969041864" id="-11364">
		<tag k="fixme" v="consider place=hamlet" />
		<tag k="name" v="Liaskaret" />
		<tag k="place" v="farm" />
		<tag k="ssr:stedsnr" v="338945" />
	</node>
	<node lat="62.10550555136249" lon="5.9344888949481795" id="-11378">
		<tag k="name" v="Løvik" />
		<tag k="place" v="hamlet" />
		<tag k="ssr:stedsnr" v="346522" />
	</node>
	<node lat="62.212836115558666" lon="5.9547527751346125" id="-11382">
		<tag k="name" v="Leite" />
		<tag k="place" v="farm" />
		<tag k="ssr:stedsnr" v="346664" />
	</node>
	<node lat="62.03205277576491" lon="6.317111108231624" id="-11410">
		<tag k="historic" v="shieling" />
		<tag k="name" v="Sunndalssætra" />
		<tag k="place" v="isolated_dwelling" />
		<tag k="ssr:stedsnr" v="374702" />
	</node>
	<node lat="62.05034155349545" lon="6.39066793343104" id="-11411">
		<tag k="alt_name" v="Hjellebø" />
		<tag k="fixme" v="consider place=hamlet" />
		<tag k="name" v="Hjellane" />
		<tag k="place" v="farm" />
		<tag k="ssr:stedsnr" v="374710" />
	</node>
	<node lat="62.151922221507014" lon="6.13185277017615" id="-11419">
		<tag k="name" v="Dalen" />
		<tag k="place" v="farm" />
		<tag k="ssr:stedsnr" v="374811" />
	</node>
	<node lat="62.09158888949551" lon="6.070844437891633" id="-11420">
		<tag k="name" v="Meksætra" />
		<tag k="place" v="isolated_dwelling" />
		<tag k="ssr:stedsnr" v="374849" />
	</node>
	<node lat="62.03802846925776" lon="5.892902173638892" id="-11430">
		<tag k="name" v="Litleneset" />
		<tag k="place" v="farm" />
		<tag k="ssr:stedsnr" v="375976" />
	</node>
	<node lat="62.00261944302096" lon="6.550274991224429" id="-11440">
		<tag k="name" v="Harevadet" />
		<tag k="place" v="neighbourhood" />
		<tag k="ssr:stedsnr" v="483887" />
	</node>
	<node lat="61.998613886215786" lon="6.656477784609566" id="-11456">
		<tag k="historic" v="shieling" />
		<tag k="name" v="Gards-stølane" />
		<tag k="place" v="isolated_dwelling" />
		<tag k="ssr:stedsnr" v="396612" />
	</node>
	<node lat="62.1440777765773" lon="6.080797221696833" id="-11458">
		<tag k="name" v="Sagebakken" />
		<tag k="place" v="farm" />
		<tag k="ssr:stedsnr" v="399010" />
	</node>
	<node lat="62.14554166948272" lon="6.0834722262617555" id="-11463">
		<tag k="name" v="Kvernabakken" />
		<tag k="place" v="farm" />
		<tag k="ssr:stedsnr" v="399895" />
	</node>
	<node lat="62.14836666494918" lon="6.102580548152646" id="-11464">
		<tag k="name" v="Hammaren" />
		<tag k="place" v="farm" />
		<tag k="ssr:stedsnr" v="399926" />
	</node>
	<node lat="62.14651388695157" lon="6.139297229804703" id="-11465">
		<tag k="name" v="Kleppen" />
		<tag k="place" v="farm" />
		<tag k="ssr:stedsnr" v="399976" />
	</node>
	<node lat="62.07012499798997" lon="5.899797222107673" id="-11476">
		<tag k="amenity" v="school" />
		<tag k="name" v="Innselset skole" />
		<tag k="ssr:stedsnr" v="407347" />
	</node>
	<node lat="62.123605557926496" lon="6.017866660015659" id="-11484">
		<tag k="alt_name" v="Folkestadås" />
		<tag k="name" v="Folkestadåsen" />
		<tag k="place" v="farm" />
		<tag k="ssr:stedsnr" v="407596" />
	</node>
	<node lat="62.116394440783985" lon="6.023797215137372" id="-11485">
		<tag k="name" v="Holte" />
		<tag k="place" v="farm" />
		<tag k="ssr:stedsnr" v="407601" />
	</node>
	<node lat="62.050247218680965" lon="6.069213895215357" id="-11491">
		<tag k="historic" v="shieling" />
		<tag k="name" v="Liasetra" />
		<tag k="place" v="isolated_dwelling" />
		<tag k="ssr:stedsnr" v="407721" />
	</node>
	<node lat="62.05916388843204" lon="5.929530553408954" id="-11504">
		<tag k="name" v="Brune" />
		<tag k="place" v="farm" />
		<tag k="ssr:stedsnr" v="408935" />
	</node>
	<node lat="61.96947777421207" lon="6.019494443967422" id="-11505">
		<tag k="historic" v="shieling" />
		<tag k="name" v="Ossetra" />
		<tag k="place" v="isolated_dwelling" />
		<tag k="ssr:stedsnr" v="408936" />
	</node>
	<node lat="62.061599779994914" lon="5.935987324867455" id="-11513">
		<tag k="name" v="Myra" />
		<tag k="place" v="farm" />
		<tag k="ssr:stedsnr" v="419042" />
	</node>
	<node lat="61.96006988951545" lon="6.508161394781703" id="-11516">
		<tag k="alt_name" v="Svor, yt" />
		<tag k="fixme" v="consider place=hamlet" />
		<tag k="name" v="Ytre Svor" />
		<tag k="place" v="farm" />
		<tag k="ssr:stedsnr" v="434874" />
	</node>
	<node lat="61.962775002431464" lon="6.530883334098361" id="-11517">
		<tag k="name" v="Lund" />
		<tag k="place" v="farm" />
		<tag k="ssr:stedsnr" v="434876" />
	</node>
	<node lat="62.07468685370551" lon="6.221860647601961" id="-11521">
		<tag k="fixme" v="consider place=hamlet" />
		<tag k="name" v="Høydalsvika" />
		<tag k="place" v="farm" />
		<tag k="ssr:stedsnr" v="435664" />
	</node>
	<node lat="62.11792916562305" lon="5.929264859542613" id="-11527">
		<tag k="fixme" v="consider place=hamlet" />
		<tag k="name" v="Dravlauslida" />
		<tag k="place" v="farm" />
		<tag k="ssr:stedsnr" v="435785" />
	</node>
	<node lat="62.14894930837214" lon="6.103623183208067" id="-11528">
		<tag k="alt_name" v="Heltne" />
		<tag k="fixme" v="consider place=hamlet" />
		<tag k="name" v="Heltnane" />
		<tag k="place" v="farm" />
		<tag k="ssr:stedsnr" v="435808" />
	</node>
	<node lat="62.14840555882055" lon="5.882041656912812" id="-11529">
		<tag k="historic" v="shieling" />
		<tag k="name" v="Ulvestadsætra" />
		<tag k="place" v="isolated_dwelling" />
		<tag k="ssr:stedsnr" v="435811" />
	</node>
	<node lat="62.1144666670154" lon="6.131519439801858" id="-11532">
		<tag k="historic" v="shieling" />
		<tag k="name" v="Homborsetsætra" />
		<tag k="place" v="isolated_dwelling" />
		<tag k="ssr:stedsnr" v="435880" />
	</node>
	<node lat="62.150830559195164" lon="6.105444443975335" id="-11558">
		<tag k="name" v="Gjerdet" />
		<tag k="place" v="farm" />
		<tag k="ssr:stedsnr" v="460971" />
	</node>
	<node lat="62.11491118902186" lon="5.934906876496517" id="-11570">
		<tag k="name" v="Reite" />
		<tag k="place" v="farm" />
		<tag k="ssr:stedsnr" v="467517" />
	</node>
	<node lat="62.2198638924374" lon="5.938894442294106" id="-11581">
		<tag k="name" v="Birkenes" />
		<tag k="place" v="hamlet" />
		<tag k="ssr:stedsnr" v="468605" />
	</node>
	<node lat="62.195613890171565" lon="5.873408327249277" id="-11590">
		<tag k="amenity" v="school" />
		<tag k="name" v="Velsvik skole" />
		<tag k="ssr:stedsnr" v="468777" />
	</node>
	<node lat="62.056550001521266" lon="6.391719442206443" id="-11606">
		<tag k="alt_name" v="Vindåsen" />
		<tag k="name" v="Vindsåsen" />
		<tag k="place" v="farm" />
		<tag k="ssr:stedsnr" v="678719" />
	</node>
	<node lat="62.15660277913351" lon="5.948286103793967" id="-11611">
		<tag k="name" v="Molvikgarden" />
		<tag k="place" v="farm" />
		<tag k="ssr:stedsnr" v="678064" />
	</node>
	<node lat="61.99913671392301" lon="6.6519395334964315" id="-11614">
		<tag k="fixme" v="consider place=hamlet" />
		<tag k="name" v="Nygard" />
		<tag k="place" v="farm" />
		<tag k="ssr:stedsnr" v="678253" />
	</node>
	<node lat="62.08192221920308" lon="6.446122215732862" id="-11618">
		<tag k="fixme" v="multiple name tags, choose one and add the other to alt_name" />
		<tag k="historic" v="shieling" />
		<tag k="name" v="Skjåstadsætra;Skjåstadstølen" />
		<tag k="place" v="isolated_dwelling" />
		<tag k="ssr:stedsnr" v="678637" />
	</node>
	<node lat="62.133287528807735" lon="6.009464394312895" id="-11624">
		<tag k="fixme" v="consider place=hamlet" />
		<tag k="name" v="Løndalen" />
		<tag k="place" v="farm" />
		<tag k="ssr:stedsnr" v="678756" />
	</node>
	<node lat="62.11379918813274" lon="5.934809895782661" id="-11626">
		<tag k="fixme" v="consider place=hamlet" />
		<tag k="name" v="Reitane" />
		<tag k="place" v="farm" />
		<tag k="ssr:stedsnr" v="678835" />
	</node>
	<node lat="62.00586111405317" lon="6.080002780515337" id="-11633">
		<tag k="name" v="Austheim" />
		<tag k="place" v="farm" />
		<tag k="ssr:stedsnr" v="678943" />
	</node>
	<node lat="62.101486109506105" lon="6.556888881359401" id="-11643">
		<tag k="fixme" v="consider place=hamlet" />
		<tag k="name" v="Bjørke" />
		<tag k="place" v="village" />
		<tag k="ssr:stedsnr" v="495656" />
	</node>
	<node lat="61.9782073460094" lon="6.512477977006757" id="-11647">
		<tag k="fixme" v="consider place=hamlet" />
		<tag k="name" v="Vellene" />
		<tag k="place" v="farm" />
		<tag k="ssr:stedsnr" v="495865" />
	</node>
	<node lat="62.15309166746745" lon="5.89671110222783" id="-11650">
		<tag k="name" v="Gamlesætra" />
		<tag k="place" v="locality" />
		<tag k="ssr:stedsnr" v="496060" />
	</node>
	<node lat="62.14179444890327" lon="6.134711110596362" id="-11655">
		<tag k="name" v="Dalheim" />
		<tag k="place" v="farm" />
		<tag k="ssr:stedsnr" v="496756" />
	</node>
	<node lat="62.112525004108946" lon="6.1646083391093" id="-11659">
		<tag k="alt_name" v="Vadsteinsætra" />
		<tag k="historic" v="shieling" />
		<tag k="name" v="Vassteinsætra" />
		<tag k="place" v="isolated_dwelling" />
		<tag k="ssr:stedsnr" v="496847" />
	</node>
	<node lat="62.139088884956614" lon="6.135066661215987" id="-11684">
		<tag k="name" v="Bøen" />
		<tag k="place" v="farm" />
		<tag k="ssr:stedsnr" v="521966" />
	</node>
	<node lat="62.0190861114569" lon="5.813702783422595" id="-11696">
		<tag k="name" v="Dansamarka" />
		<tag k="place" v="locality" />
		<tag k="ssr:stedsnr" v="528414" />
	</node>
	<node lat="62.13364444420914" lon="6.126483335130167" id="-11698">
		<tag k="historic" v="shieling" />
		<tag k="name" v="Litlesætra" />
		<tag k="place" v="isolated_dwelling" />
		<tag k="ssr:stedsnr" v="528675" />
	</node>
	<node lat="62.084513891881365" lon="6.340161118300674" id="-11723">
		<tag k="historic" v="shieling" />
		<tag k="name" v="Fjellstøylen" />
		<tag k="place" v="isolated_dwelling" />
		<tag k="ssr:stedsnr" v="529960" />
	</node>
	<node lat="62.19840833172125" lon="5.851747215541558" id="-11734">
		<tag k="name" v="Plassen" />
		<tag k="place" v="isolated_dwelling" />
		<tag k="ssr:stedsnr" v="556110" />
	</node>
	<node lat="62.00005555559822" lon="6.630802781211977" id="-11735">
		<tag k="name" v="Birkeland" />
		<tag k="place" v="farm" />
		<tag k="ssr:stedsnr" v="556315" />
	</node>
	<node lat="62.065669443326165" lon="6.182038882181885" id="-11746">
		<tag k="historic" v="shieling" />
		<tag k="name" v="Lauvhaugsætra" />
		<tag k="place" v="isolated_dwelling" />
		<tag k="ssr:stedsnr" v="556877" />
	</node>
	<node lat="62.1738437697758" lon="6.0047406186685" id="-11747">
		<tag k="alt_name" v="Eikreim" />
		<tag k="fixme" v="consider place=hamlet" />
		<tag k="name" v="Eikrem" />
		<tag k="place" v="farm" />
		<tag k="ssr:stedsnr" v="557010" />
	</node>
	<node lat="62.07551984139954" lon="6.067221186645888" id="-11751">
		<tag k="fixme" v="consider place=hamlet" />
		<tag k="name" v="Årvika" />
		<tag k="place" v="farm" />
		<tag k="ssr:stedsnr" v="556909" />
	</node>
	<node lat="62.06659721888292" lon="5.944705550026411" id="-11752">
		<tag k="historic" v="shieling" />
		<tag k="name" v="Raudegotene" />
		<tag k="place" v="isolated_dwelling" />
		<tag k="ssr:stedsnr" v="556936" />
	</node>
	<node lat="61.98471944654592" lon="6.517250007746656" id="-11778">
		<tag k="name" v="Løvoll" />
		<tag k="place" v="farm" />
		<tag k="ssr:stedsnr" v="578218" />
	</node>
	<node lat="62.04789213566365" lon="6.333300316600053" id="-11787">
		<tag k="fixme" v="consider place=hamlet" />
		<tag k="name" v="Høybakk" />
		<tag k="place" v="farm" />
		<tag k="ssr:stedsnr" v="695894" />
	</node>
	<node lat="61.99593455265191" lon="6.571752373406606" id="-11836">
		<tag k="fixme" v="consider place=hamlet" />
		<tag k="name" v="Kroken" />
		<tag k="place" v="farm" />
		<tag k="ssr:stedsnr" v="616846" />
	</node>
	<node lat="61.95068487447319" lon="6.4667895722642825" id="-11839">
		<tag k="fixme" v="consider place=hamlet" />
		<tag k="name" v="Kongsvik" />
		<tag k="place" v="farm" />
		<tag k="ssr:stedsnr" v="616897" />
	</node>
	<node lat="62.16990494785621" lon="6.025809728006462" id="-11842">
		<tag k="name" v="Mork" />
		<tag k="place" v="hamlet" />
		<tag k="ssr:stedsnr" v="617054" />
	</node>
	<node lat="62.16276867170361" lon="6.029845833292354" id="-11843">
		<tag k="alt_name" v="Nedre Ekset" />
		<tag k="fixme" v="consider place=hamlet" />
		<tag k="name" v="Ekset" />
		<tag k="place" v="farm" />
		<tag k="ssr:stedsnr" v="617056" />
	</node>
	<node lat="62.13920632322549" lon="6.635601007959206" id="-11849">
		<tag k="name" v="Telset" />
		<tag k="place" v="locality" />
		<tag k="ssr:stedsnr" v="617694" />
	</node>
	<node lat="62.16315277395816" lon="6.170375000336487" id="-11851">
		<tag k="name" v="Kleppesætra" />
		<tag k="place" v="isolated_dwelling" />
		<tag k="ssr:stedsnr" v="617803" />
	</node>
	<node lat="62.05674999983139" lon="6.047841660054861" id="-11854">
		<tag k="name" v="Mjeltevika" />
		<tag k="place" v="farm" />
		<tag k="ssr:stedsnr" v="617879" />
	</node>
	<node lat="62.056066163210645" lon="6.307876677470977" id="-11868">
		<tag k="fixme" v="consider place=hamlet" />
		<tag k="name" v="Åselid" />
		<tag k="place" v="farm" />
		<tag k="ssr:stedsnr" v="703951" />
	</node>
	<node lat="62.0825583365461" lon="5.9446527814525565" id="-11878">
		<tag k="name" v="Dalbergstranda" />
		<tag k="place" v="farm" />
		<tag k="ssr:stedsnr" v="634108" />
	</node>
	<node lat="61.99863888652296" lon="6.688269436923034" id="-11887">
		<tag k="historic" v="shieling" />
		<tag k="name" v="Litleknutsdalssetra" />
		<tag k="place" v="isolated_dwelling" />
		<tag k="ssr:stedsnr" v="638624" />
	</node>
	<node lat="62.171220586101676" lon="6.031560231079853" id="-11898">
		<tag k="fixme" v="consider place=hamlet" />
		<tag k="name" v="Store-Mork" />
		<tag k="place" v="farm" />
		<tag k="ssr:stedsnr" v="642886" />
	</node>
	<node lat="62.004669445183815" lon="5.8201749929296485" id="-11904">
		<tag k="name" v="Dal" />
		<tag k="place" v="farm" />
		<tag k="ssr:stedsnr" v="649137" />
	</node>
	<node lat="62.12008055386672" lon="5.976747213630355" id="-11932">
		<tag k="name" v="Nordre Rossetvik" />
		<tag k="place" v="locality" />
		<tag k="ssr:stedsnr" v="708134" />
	</node>
	<node lat="62.10844444666557" lon="6.127355551419384" id="-11949">
		<tag k="name" v="Løvik" />
		<tag k="place" v="isolated_dwelling" />
		<tag k="ssr:stedsnr" v="890484" />
	</node>
	<node lat="61.93667499791058" lon="6.521438884912791" id="-11955">
		<tag k="name" v="Røvik" />
		<tag k="place" v="farm" />
		<tag k="ssr:stedsnr" v="677921" />
	</node>
	<node lat="62.18200833115998" lon="6.025936106693868" id="-11956">
		<tag k="name" v="Kleiva" />
		<tag k="place" v="farm" />
		<tag k="ssr:stedsnr" v="678004" />
	</node>
	<node lat="62.05467500371413" lon="6.115530551108745" id="-11967">
		<tag k="historic" v="shieling" />
		<tag k="name" v="Innstøylen" />
		<tag k="place" v="isolated_dwelling" />
		<tag k="ssr:stedsnr" v="678882" />
	</node>
	<node lat="62.15152100273627" lon="6.154943627527083" id="-11973">
		<tag k="fixme" v="consider place=hamlet" />
		<tag k="name" v="Fremmerlida" />
		<tag k="place" v="farm" />
		<tag k="ssr:stedsnr" v="678793" />
	</node>
	<node lat="62.207752775276106" lon="5.976233327499035" id="-11979">
		<tag k="name" v="Gjerdet" />
		<tag k="place" v="farm" />
		<tag k="ssr:stedsnr" v="892711" />
	</node>
	<node lat="62.09839272288019" lon="6.168244751131691" id="-11981">
		<tag k="fixme" v="consider place=hamlet" />
		<tag k="name" v="Åsen" />
		<tag k="place" v="farm" />
		<tag k="ssr:stedsnr" v="893077" />
	</node>
	<node lat="62.16958055139737" lon="5.931088881815379" id="-11990">
		<tag k="name" v="Ulvestad" />
		<tag k="place" v="hamlet" />
		<tag k="ssr:stedsnr" v="893932" />
	</node>
	<node lat="61.9936722264058" lon="6.5535722221252115" id="-12036">
		<tag k="name" v="Fannemel" />
		<tag k="place" v="quarter" />
		<tag k="ssr:stedsnr" v="707858" />
	</node>
	<node lat="61.98624444810954" lon="6.047458331473457" id="-12061">
		<tag k="historic" v="shieling" />
		<tag k="name" v="Løsetsetra" />
		<tag k="place" v="isolated_dwelling" />
		<tag k="ssr:stedsnr" v="711578" />
	</node>
	<node lat="62.00403611473307" lon="6.041022217979572" id="-12064">
		<tag k="name" v="Storegjære" />
		<tag k="place" v="farm" />
		<tag k="ssr:stedsnr" v="711589" />
	</node>
	<node lat="62.073049997858256" lon="6.2910500071688205" id="-12090">
		<tag k="name" v="Leirvika" />
		<tag k="place" v="farm" />
		<tag k="ssr:stedsnr" v="739631" />
	</node>
	<node lat="62.072730559957414" lon="6.362619444903762" id="-12091">
		<tag k="historic" v="shieling" />
		<tag k="name" v="Høgestøylen" />
		<tag k="place" v="isolated_dwelling" />
		<tag k="ssr:stedsnr" v="739633" />
	</node>
	<node lat="62.07843493567023" lon="5.938169883550075" id="-12103">
		<tag k="fixme" v="consider place=hamlet" />
		<tag k="name" v="Dalberget" />
		<tag k="place" v="farm" />
		<tag k="ssr:stedsnr" v="739898" />
	</node>
	<node lat="61.99611666777543" lon="6.494947230095618" id="-12116">
		<tag k="historic" v="shieling" />
		<tag k="name" v="Gamlesetra" />
		<tag k="place" v="isolated_dwelling" />
		<tag k="ssr:stedsnr" v="760245" />
	</node>
	<node lat="62.001636110124586" lon="6.572938894443431" id="-12117">
		<tag k="name" v="Engelund" />
		<tag k="place" v="farm" />
		<tag k="ssr:stedsnr" v="760251" />
	</node>
	<node lat="61.99447499603584" lon="6.694063887596977" id="-12119">
		<tag k="historic" v="shieling" />
		<tag k="name" v="Fellessetra" />
		<tag k="place" v="isolated_dwelling" />
		<tag k="ssr:stedsnr" v="760644" />
	</node>
	<node lat="62.14738900106001" lon="6.0705653560376005" id="-12127">
		<tag k="fixme" v="consider place=hamlet" />
		<tag k="name" v="Hallkjellsvik" />
		<tag k="place" v="farm" />
		<tag k="ssr:stedsnr" v="763900" />
	</node>
	<node lat="62.14350833184435" lon="6.129327782238323" id="-12131">
		<tag k="name" v="Nybø" />
		<tag k="place" v="farm" />
		<tag k="ssr:stedsnr" v="769196" />
	</node>
	<node lat="62.07731110825699" lon="5.912941660249305" id="-12137">
		<tag k="name" v="Aksnes" />
		<tag k="place" v="hamlet" />
		<tag k="ssr:stedsnr" v="771310" />
	</node>
	<node lat="62.10672222314496" lon="6.511069435701644" id="-12152">
		<tag k="historic" v="shieling" />
		<tag k="name" v="Seljerimstøylen" />
		<tag k="place" v="isolated_dwelling" />
		<tag k="ssr:stedsnr" v="772673" />
	</node>
	<node lat="62.14820326728074" lon="6.1057657930431715" id="-12159">
		<tag k="name" v="Kolbeingarden" />
		<tag k="place" v="farm" />
		<tag k="ssr:stedsnr" v="780490" />
	</node>
	<node lat="62.05953888584309" lon="6.071288884173976" id="-12160">
		<tag k="alt_name" v="Fylsvik" />
		<tag k="name" v="Fylsvika" />
		<tag k="place" v="farm" />
		<tag k="ssr:stedsnr" v="784151" />
	</node>
	<node lat="61.99758611329821" lon="6.689416669371102" id="-12164">
		<tag k="alt_name" v="Knutsdalsetra" />
		<tag k="name" v="Knutsdalssætra" />
		<tag k="place" v="locality" />
		<tag k="ssr:stedsnr" v="799236" />
	</node>
	<node lat="62.130525696231" lon="6.018937133595029" id="-12166">
		<tag k="fixme" v="consider place=hamlet" />
		<tag k="name" v="Rønstad" />
		<tag k="place" v="farm" />
		<tag k="ssr:stedsnr" v="799786" />
	</node>
	<node lat="62.11145797912599" lon="6.031381786950174" id="-12170">
		<tag k="name" v="Flotane" />
		<tag k="place" v="hamlet" />
		<tag k="ssr:stedsnr" v="799884" />
	</node>
	<node lat="61.99186903970137" lon="6.52136434330456" id="-12172">
		<tag k="fixme" v="consider place=hamlet" />
		<tag k="name" v="Lødemel" />
		<tag k="place" v="farm" />
		<tag k="ssr:stedsnr" v="799894" />
	</node>
	<node lat="62.098972226307836" lon="5.906694436890179" id="-12173">
		<tag k="historic" v="shieling" />
		<tag k="name" v="Fossastøylen" />
		<tag k="place" v="isolated_dwelling" />
		<tag k="ssr:stedsnr" v="799895" />
	</node>
	<node lat="61.99128253001855" lon="6.531877340896322" id="-12175">
		<tag k="fixme" v="consider place=hamlet" />
		<tag k="name" v="Gausemel" />
		<tag k="place" v="farm" />
		<tag k="ssr:stedsnr" v="799899" />
	</node>
	<node lat="62.07687222107084" lon="6.334699993188407" id="-12178">
		<tag k="fixme" v="multiple name tags, choose one and add the other to alt_name" />
		<tag k="historic" v="shieling" />
		<tag k="name" v="Litledalssætra;Litledalsstølen" />
		<tag k="place" v="isolated_dwelling" />
		<tag k="ssr:stedsnr" v="800631" />
	</node>
	<node lat="61.96175833121665" lon="6.512783329747064" id="-12193">
		<tag k="name" v="Midtre Svor" />
		<tag k="place" v="farm" />
		<tag k="ssr:stedsnr" v="920902" />
	</node>
	<node lat="61.99142972622607" lon="6.515251032752357" id="-12208">
		<tag k="name" v="Kringla" />
		<tag k="place" v="farm" />
		<tag k="ssr:stedsnr" v="821406" />
	</node>
	<node lat="62.14919166865598" lon="6.137566657945019" id="-12220">
		<tag k="name" v="Bakkane" />
		<tag k="place" v="farm" />
		<tag k="ssr:stedsnr" v="824965" />
	</node>
	<node lat="62.145155553416316" lon="6.086447220122767" id="-12221">
		<tag k="name" v="Nordtun" />
		<tag k="place" v="farm" />
		<tag k="ssr:stedsnr" v="824966" />
	</node>
	<node lat="62.14785555378578" lon="6.121197219551064" id="-12222">
		<tag k="name" v="Slettebakk" />
		<tag k="place" v="farm" />
		<tag k="ssr:stedsnr" v="824974" />
	</node>
	<node lat="62.084908330415665" lon="6.446791674377211" id="-12223">
		<tag k="historic" v="shieling" />
		<tag k="name" v="Bjørkesætra" />
		<tag k="place" v="isolated_dwelling" />
		<tag k="ssr:stedsnr" v="921650" />
	</node>
	<node lat="62.10470555598785" lon="6.565905556544114" id="-12227">
		<tag k="name" v="Erikgarden" />
		<tag k="place" v="farm" />
		<tag k="ssr:stedsnr" v="921671" />
	</node>
	<node lat="62.121616794326414" lon="6.0271420569800425" id="-12232">
		<tag k="fixme" v="consider place=hamlet" />
		<tag k="name" v="Reitane" />
		<tag k="place" v="farm" />
		<tag k="ssr:stedsnr" v="921785" />
	</node>
	<node lat="62.117030554866965" lon="5.940663893422657" id="-12233">
		<tag k="name" v="Holen" />
		<tag k="place" v="farm" />
		<tag k="ssr:stedsnr" v="921791" />
	</node>
	<node lat="62.11599384488023" lon="6.026145928347793" id="-12236">
		<tag k="fixme" v="consider place=hamlet" />
		<tag k="name" v="Holen" />
		<tag k="place" v="farm" />
		<tag k="ssr:stedsnr" v="921858" />
	</node>
	<node lat="62.131728947465426" lon="5.939620266410406" id="-12238">
		<tag k="fixme" v="consider place=hamlet" />
		<tag k="name" v="Nesheim" />
		<tag k="place" v="farm" />
		<tag k="ssr:stedsnr" v="921764" />
	</node>
	<node lat="62.12819166726456" lon="6.014313887224673" id="-12240">
		<tag k="name" v="Bøen" />
		<tag k="place" v="farm" />
		<tag k="ssr:stedsnr" v="921773" />
	</node>
	<node lat="62.0345892879733" lon="5.8881534898738845" id="-12247">
		<tag k="alt_name" v="Eidset" />
		<tag k="fixme" v="consider place=hamlet" />
		<tag k="name" v="Eisset" />
		<tag k="place" v="farm" />
		<tag k="ssr:stedsnr" v="921972" />
	</node>
	<node lat="62.119205735930116" lon="6.097484091893862" id="-12252">
		<tag k="fixme" v="consider place=hamlet" />
		<tag k="name" v="Greivsnes" />
		<tag k="place" v="farm" />
		<tag k="ssr:stedsnr" v="830469" />
	</node>
	<node lat="62.11093888612717" lon="6.032958331141479" id="-12263">
		<tag k="name" v="Flote indre" />
		<tag k="place" v="farm" />
		<tag k="ssr:stedsnr" v="832409" />
	</node>
	<node lat="62.12505555737734" lon="6.007038889469847" id="-12266">
		<tag k="name" v="Sollid" />
		<tag k="place" v="farm" />
		<tag k="ssr:stedsnr" v="832584" />
	</node>
	<node lat="62.119621488314564" lon="6.021516000042564" id="-12267">
		<tag k="fixme" v="consider place=hamlet" />
		<tag k="name" v="Brenne" />
		<tag k="place" v="farm" />
		<tag k="ssr:stedsnr" v="832590" />
	</node>
	<node lat="62.0958916659987" lon="6.083933329057657" id="-12271">
		<tag k="alt_name" v="Mek Lille" />
		<tag k="name" v="Litle Mek" />
		<tag k="place" v="farm" />
		<tag k="ssr:stedsnr" v="832709" />
	</node>
	<node lat="62.14038610859872" lon="6.174816665794201" id="-12282">
		<tag k="historic" v="shieling" />
		<tag k="name" v="Storesætra" />
		<tag k="place" v="isolated_dwelling" />
		<tag k="ssr:stedsnr" v="833232" />
	</node>
	<node lat="62.21294722555078" lon="5.954411112972697" id="-12291">
		<tag k="name" v="Bøen" />
		<tag k="place" v="farm" />
		<tag k="ssr:stedsnr" v="860103" />
	</node>
	<node lat="62.07458333185801" lon="6.288172220180863" id="-12298">
		<tag k="fixme" v="consider place=hamlet" />
		<tag k="name" v="Hamre" />
		<tag k="place" v="farm" />
		<tag k="ssr:stedsnr" v="860681" />
	</node>
	<node lat="62.0242611092792" lon="5.826738888309743" id="-12308">
		<tag k="historic" v="shieling" />
		<tag k="name" v="Muren" />
		<tag k="place" v="isolated_dwelling" />
		<tag k="ssr:stedsnr" v="861995" />
	</node>
	<node lat="62.15775555917709" lon="6.130002780418637" id="-12329">
		<tag k="alt_name" v="Bergs-sætra" />
		<tag k="historic" v="shieling" />
		<tag k="name" v="Bergssætra" />
		<tag k="place" v="isolated_dwelling" />
		<tag k="ssr:stedsnr" v="885961" />
	</node>
	<node lat="62.14992556052602" lon="6.109533224644845" id="-12330">
		<tag k="alt_name" v="Plassen;Ura" />
		<tag k="name" v="Ura - Plassen" />
		<tag k="old_name" v="LITLEBØ;Litlebø" />
		<tag k="place" v="farm" />
		<tag k="ssr:stedsnr" v="885963" />
	</node>
	<node lat="62.06870555109163" lon="6.201824991040389" id="-12334">
		<tag k="name" v="Berg" />
		<tag k="place" v="farm" />
		<tag k="ssr:stedsnr" v="890712" />
	</node>
	<node lat="62.03780833000306" lon="5.895263882504384" id="-12345">
		<tag k="historic" v="shieling" />
		<tag k="name" v="Dalsgjerde" />
		<tag k="place" v="isolated_dwelling" />
		<tag k="ssr:stedsnr" v="893325" />
	</node>
	<node lat="61.99253565593476" lon="6.6123893137394" id="-12376">
		<tag k="fixme" v="consider place=hamlet" />
		<tag k="loc_name" v="Taranset" />
		<tag k="name" v="Taraldset" />
		<tag k="place" v="farm" />
		<tag k="ssr:stedsnr" v="920213" />
	</node>
	<node lat="61.98564166422354" lon="6.28806388224742" id="-12382">
		<tag k="historic" v="shieling" />
		<tag k="loc_name" v="Grøndalsstøylen" />
		<tag k="name" v="Grøndalsstølen" />
		<tag k="place" v="isolated_dwelling" />
		<tag k="ssr:stedsnr" v="920835" />
	</node>
	<node lat="62.05913174336988" lon="6.299920948153051" id="-12393">
		<tag k="fixme" v="consider place=hamlet" />
		<tag k="name" v="Juvika" />
		<tag k="place" v="farm" />
		<tag k="ssr:stedsnr" v="921736" />
	</node>
	<node lat="62.122369447950724" lon="6.586794436812271" id="-12398">
		<tag k="name" v="Leira" />
		<tag k="place" v="hamlet" />
		<tag k="ssr:stedsnr" v="921692" />
	</node>
	<node lat="62.07290278032281" lon="6.206897226230341" id="-12401">
		<tag k="name" v="Bøen" />
		<tag k="place" v="farm" />
		<tag k="ssr:stedsnr" v="921906" />
	</node>
	<node lat="62.09356417177361" lon="6.087180993005123" id="-12408">
		<tag k="name" v="Mek" />
		<tag k="place" v="hamlet" />
		<tag k="ssr:stedsnr" v="930146" />
	</node>
	<node lat="62.1242666665409" lon="5.9737250013204894" id="-12410">
		<tag k="name" v="Gråneset" />
		<tag k="place" v="farm" />
		<tag k="ssr:stedsnr" v="938215" />
	</node>
	<node lat="62.06476809863061" lon="5.926232093148114" id="-12421">
		<tag k="fixme" v="consider place=hamlet" />
		<tag k="name" v="Ytre Dale" />
		<tag k="old_name" v="Dale-ytre" />
		<tag k="place" v="farm" />
		<tag k="ssr:stedsnr" v="953311" />
	</node>
	<node lat="62.11459134282015" lon="6.031264205490924" id="-12429">
		<tag k="alt_name" v="Folkestad indre" />
		<tag k="fixme" v="consider place=hamlet" />
		<tag k="name" v="Indre Folkestad" />
		<tag k="place" v="farm" />
		<tag k="ssr:stedsnr" v="953404" />
	</node>
	<node lat="62.136769447956524" lon="6.6456222222546835" id="-12442">
		<tag k="historic" v="shieling" />
		<tag k="name" v="Holssætra" />
		<tag k="place" v="isolated_dwelling" />
		<tag k="ssr:stedsnr" v="954893" />
	</node>
	<node lat="62.11810246764187" lon="6.026476196297688" id="-12453">
		<tag k="name" v="Folkestad" />
		<tag k="place" v="hamlet" />
		<tag k="ssr:stedsnr" v="983034" />
	</node>
	<node lat="62.11837076213315" lon="6.014508168140813" id="-12467">
		<tag k="fixme" v="consider place=hamlet" />
		<tag k="name" v="Bjørnanakken" />
		<tag k="place" v="farm" />
		<tag k="ssr:stedsnr" v="10792" />
	</node>
	<node lat="62.1241601265273" lon="5.941305599106489" id="-12468">
		<tag k="alt_name" v="Dravlaus ytre;Dravlaus" />
		<tag k="fixme" v="consider place=hamlet" />
		<tag k="name" v="Ytre Dravlaus" />
		<tag k="place" v="farm" />
		<tag k="ssr:stedsnr" v="10797" />
	</node>
	<node lat="62.15120278071262" lon="5.9429527698164275" id="-12469">
		<tag k="fixme" v="multiple name tags, choose one and add the other to alt_name" />
		<tag k="name" v="Sætre;Nilsgarden" />
		<tag k="place" v="farm" />
		<tag k="ssr:stedsnr" v="10811" />
	</node>
	<node lat="61.98033611114763" lon="6.524594448799661" id="-12474">
		<tag k="name" v="Løvland" />
		<tag k="place" v="farm" />
		<tag k="ssr:stedsnr" v="10859" />
	</node>
	<node lat="62.09964444571488" lon="6.050897221139946" id="-12476">
		<tag k="historic" v="shieling" />
		<tag k="name" v="Krumsviksætra" />
		<tag k="place" v="isolated_dwelling" />
		<tag k="ssr:stedsnr" v="10875" />
	</node>
	<node lat="62.163170675226546" lon="5.918396677886598" id="-12477">
		<tag k="fixme" v="consider place=hamlet" />
		<tag k="name" v="Haugen" />
		<tag k="place" v="farm" />
		<tag k="ssr:stedsnr" v="11026" />
	</node>
	<node lat="62.055689628015095" lon="6.086193129437511" id="-12494">
		<tag k="alt_name" v="Store botn" />
		<tag k="fixme" v="multiple name tags, choose one and add the other to alt_name; consider place=hamlet" />
		<tag k="name" v="Botnen;Storebotnen" />
		<tag k="place" v="farm" />
		<tag k="ssr:stedsnr" v="11889" />
	</node>
	<node lat="62.07716944535513" lon="5.889066665777977" id="-12496">
		<tag k="historic" v="shieling" />
		<tag k="name" v="Hovlida" />
		<tag k="place" v="isolated_dwelling" />
		<tag k="ssr:stedsnr" v="11913" />
	</node>
	<node lat="62.004413893248014" lon="6.1227750027033085" id="-12497">
		<tag k="fixme" v="multiple name tags, choose one and add the other to alt_name" />
		<tag k="historic" v="shieling" />
		<tag k="name" v="Flatdalssætra;Fladalssetra" />
		<tag k="place" v="isolated_dwelling" />
		<tag k="ssr:stedsnr" v="11963" />
	</node>
	<node lat="62.03441944178257" lon="6.412319435733975" id="-12520">
		<tag k="name" v="Nørekalvatn" />
		<tag k="place" v="farm" />
		<tag k="ssr:stedsnr" v="35663" />
	</node>
	<node lat="62.14935833287775" lon="6.146694439159609" id="-12521">
		<tag k="name" v="Lidabakkane" />
		<tag k="place" v="farm" />
		<tag k="ssr:stedsnr" v="35889" />
	</node>
	<node lat="62.04081576795948" lon="6.408913617890179" id="-12527">
		<tag k="fixme" v="consider place=hamlet" />
		<tag k="name" v="Kalvassvik" />
		<tag k="place" v="farm" />
		<tag k="ssr:stedsnr" v="35966" />
	</node>
	<node lat="62.03017499731115" lon="6.39903055167107" id="-12528">
		<tag k="name" v="Bøen" />
		<tag k="place" v="farm" />
		<tag k="ssr:stedsnr" v="35967" />
	</node>
	<node lat="62.18310277863047" lon="6.010666663804083" id="-12529">
		<tag k="historic" v="shieling" />
		<tag k="name" v="Nagestøylen" />
		<tag k="place" v="isolated_dwelling" />
		<tag k="ssr:stedsnr" v="35975" />
	</node>
	<node lat="62.20143889323086" lon="5.978711118987105" id="-12539">
		<tag k="name" v="Einebakken" />
		<tag k="place" v="farm" />
		<tag k="ssr:stedsnr" v="42682" />
	</node>
	<node lat="62.17603333686428" lon="5.917502778272899" id="-12554">
		<tag k="historic" v="shieling" />
		<tag k="name" v="Torviksetra" />
		<tag k="place" v="isolated_dwelling" />
		<tag k="ssr:stedsnr" v="43037" />
	</node>
	<node lat="62.05618055309186" lon="6.272997213169861" id="-12564">
		<tag k="historic" v="shieling" />
		<tag k="name" v="Botnastølen" />
		<tag k="place" v="isolated_dwelling" />
		<tag k="ssr:stedsnr" v="43347" />
	</node>
	<node lat="62.093274124915226" lon="5.962873951825135" id="-12573">
		<tag k="alt_name" v="Rossetvik" />
		<tag k="fixme" v="consider place=hamlet" />
		<tag k="name" v="Rossetvikane" />
		<tag k="place" v="farm" />
		<tag k="ssr:stedsnr" v="43460" />
	</node>
	<node lat="62.1204694431652" lon="6.545786111172392" id="-12591">
		<tag k="historic" v="shieling" />
		<tag k="name" v="Støylen" />
		<tag k="place" v="isolated_dwelling" />
		<tag k="ssr:stedsnr" v="45196" />
	</node>
	<node lat="61.94982222632019" lon="6.475308328614998" id="-12598">
		<tag k="name" v="Kongsvik" />
		<tag k="place" v="farm" />
		<tag k="ssr:stedsnr" v="53457" />
	</node>
	<node lat="62.11826944015255" lon="5.938122225257192" id="-12599">
		<tag k="alt_name" v="Myren" />
		<tag k="name" v="Lisjemyra" />
		<tag k="place" v="farm" />
		<tag k="ssr:stedsnr" v="55449" />
	</node>
	<node lat="62.2108777759644" lon="5.959622220626284" id="-12603">
		<tag k="name" v="Lystad" />
		<tag k="place" v="farm" />
		<tag k="ssr:stedsnr" v="71085" />
	</node>
	<node lat="62.17974166691385" lon="6.035058332734639" id="-12620">
		<tag k="name" v="Gjøsstøylen" />
		<tag k="place" v="farm" />
		<tag k="ssr:stedsnr" v="72031" />
	</node>
	<node lat="62.164686107412976" lon="6.022874995901251" id="-12622">
		<tag k="alt_name" v="Ryde" />
		<tag k="name" v="Rydet" />
		<tag k="place" v="farm" />
		<tag k="ssr:stedsnr" v="72048" />
	</node>
	<node lat="62.140238891949" lon="6.615152773490058" id="-12625">
		<tag k="fixme" v="consider place=hamlet" />
		<tag k="name" v="Viddal" />
		<tag k="place" v="village" />
		<tag k="ssr:stedsnr" v="72661" />
	</node>
	<node lat="62.04784444076808" lon="6.079841667644554" id="-12626">
		<tag k="historic" v="shieling" />
		<tag k="name" v="Heida" />
		<tag k="place" v="isolated_dwelling" />
		<tag k="ssr:stedsnr" v="72887" />
	</node>
	<node lat="61.998266668851095" lon="6.59098055794915" id="-12643">
		<tag k="fixme" v="consider place=hamlet" />
		<tag k="name" v="Dobakk" />
		<tag k="place" v="farm" />
		<tag k="ssr:stedsnr" v="92374" />
	</node>
	<node lat="62.05620353138239" lon="6.31772525694346" id="-12654">
		<tag k="fixme" v="consider place=hamlet" />
		<tag k="name" v="Sunndalsåsen" />
		<tag k="place" v="farm" />
		<tag k="ssr:stedsnr" v="96890" />
	</node>
	<node lat="62.15145277929899" lon="6.129638880457471" id="-12655">
		<tag k="name" v="Fransplassen" />
		<tag k="place" v="farm" />
		<tag k="ssr:stedsnr" v="96898" />
	</node>
	<node lat="62.1226242129198" lon="6.021861803003396" id="-12680">
		<tag k="fixme" v="consider place=hamlet" />
		<tag k="name" v="Kongsvoll" />
		<tag k="place" v="farm" />
		<tag k="ssr:stedsnr" v="104545" />
	</node>
	<node lat="62.1327861148417" lon="6.116841664403997" id="-12704">
		<tag k="historic" v="shieling" />
		<tag k="name" v="Gamlesætra" />
		<tag k="place" v="isolated_dwelling" />
		<tag k="ssr:stedsnr" v="104670" />
	</node>
	<node lat="62.12356944669059" lon="5.9396416689085045" id="-12717">
		<tag k="name" v="Dravlaus" />
		<tag k="place" v="hamlet" />
		<tag k="ssr:stedsnr" v="115160" />
	</node>
	<node lat="62.09184545922334" lon="6.232564395069941" id="-12721">
		<tag k="fixme" v="consider place=hamlet" />
		<tag k="name" v="Ullaland" />
		<tag k="place" v="farm" />
		<tag k="ssr:stedsnr" v="131656" />
	</node>
	<node lat="62.14764149440356" lon="6.1487083774007845" id="-12726">
		<tag k="fixme" v="consider place=hamlet" />
		<tag k="name" v="Nedrelida" />
		<tag k="place" v="farm" />
		<tag k="ssr:stedsnr" v="131841" />
	</node>
	<node lat="61.95943611495945" lon="6.547775007001655" id="-12730">
		<tag k="name" v="Solli" />
		<tag k="place" v="farm" />
		<tag k="ssr:stedsnr" v="131928" />
	</node>
	<node lat="62.161411113229434" lon="5.943172213411936" id="-12731">
		<tag k="name" v="Bjørkvoll" />
		<tag k="place" v="farm" />
		<tag k="ssr:stedsnr" v="132027" />
	</node>
	<node lat="62.16535885331766" lon="5.937126490818299" id="-12732">
		<tag k="fixme" v="consider place=hamlet" />
		<tag k="name" v="Lauvstad" />
		<tag k="place" v="village" />
		<tag k="ssr:stedsnr" v="132028" />
	</node>
	<node lat="62.00370555369497" lon="6.488841673213335" id="-12735">
		<tag k="alt_name" v="Lillestølsetra" />
		<tag k="historic" v="shieling" />
		<tag k="loc_name" v="Litlestølssetra" />
		<tag k="name" v="Litlestølssætra" />
		<tag k="place" v="isolated_dwelling" />
		<tag k="ssr:stedsnr" v="132245" />
	</node>
	<node lat="62.06732608776217" lon="6.291704701536337" id="-12738">
		<tag k="fixme" v="consider place=hamlet" />
		<tag k="name" v="Løfolla" />
		<tag k="place" v="farm" />
		<tag k="ssr:stedsnr" v="132641" />
	</node>
	<node lat="62.06724444335852" lon="6.065225003507891" id="-12742">
		<tag k="fixme" v="consider place=hamlet" />
		<tag k="name" v="Straume" />
		<tag k="place" v="farm" />
		<tag k="ssr:stedsnr" v="132930" />
	</node>
	<node lat="62.04682492551127" lon="5.943438477604727" id="-12744">
		<tag k="name" v="Byrkjestøylen" />
		<tag k="place" v="locality" />
		<tag k="ssr:stedsnr" v="132894" />
	</node>
	<node lat="62.063296158162444" lon="6.212264345472462" id="-12745">
		<tag k="fixme" v="consider place=hamlet" />
		<tag k="name" v="Høydalsdalen" />
		<tag k="place" v="farm" />
		<tag k="ssr:stedsnr" v="132899" />
	</node>
	<node lat="62.17177777411076" lon="6.041872227305798" id="-12747">
		<tag k="name" v="Furene" />
		<tag k="place" v="quarter" />
		<tag k="ssr:stedsnr" v="140133" />
	</node>
	<node lat="62.0622897075698" lon="5.924360874753911" id="-12797">
		<tag k="fixme" v="consider place=hamlet" />
		<tag k="name" v="Indre Dale" />
		<tag k="old_name" v="Dale-indre" />
		<tag k="place" v="farm" />
		<tag k="ssr:stedsnr" v="164339" />
	</node>
	<node lat="62.16431110744709" lon="6.03420832616732" id="-12825">
		<tag k="name" v="Rot" />
		<tag k="place" v="farm" />
		<tag k="ssr:stedsnr" v="173300" />
	</node>
	<node lat="61.9987827282591" lon="6.617556686887752" id="-12830">
		<tag k="fixme" v="consider place=hamlet" />
		<tag k="name" v="Solheim" />
		<tag k="place" v="farm" />
		<tag k="ssr:stedsnr" v="192241" />
	</node>
	<node lat="62.14166388560053" lon="6.18921666082865" id="-12837">
		<tag k="name" v="Kroken" />
		<tag k="place" v="isolated_dwelling" />
		<tag k="ssr:stedsnr" v="192778" />
	</node>
	<node lat="62.11805277906712" lon="5.882572215588524" id="-12838">
		<tag k="historic" v="shieling" />
		<tag k="name" v="Gamlestøylen" />
		<tag k="place" v="isolated_dwelling" />
		<tag k="ssr:stedsnr" v="192788" />
	</node>
	<node lat="62.125296447195126" lon="6.006113016155757" id="-12840">
		<tag k="fixme" v="consider place=hamlet" />
		<tag k="name" v="Sollida" />
		<tag k="place" v="farm" />
		<tag k="ssr:stedsnr" v="192807" />
	</node>
	<node lat="62.14416389271388" lon="6.08856666590203" id="-12842">
		<tag k="alt_name" v="Nymarka" />
		<tag k="name" v="Nymark" />
		<tag k="place" v="farm" />
		<tag k="ssr:stedsnr" v="192836" />
	</node>
	<node lat="62.00744777202295" lon="5.82583772522149" id="-12843">
		<tag k="alt_name" v="Åmelfotseter" />
		<tag k="fixme" v="consider place=hamlet" />
		<tag k="name" v="Åmelfotsætra" />
		<tag k="place" v="farm" />
		<tag k="ssr:stedsnr" v="192947" />
	</node>
	<node lat="61.96301273839679" lon="6.519049438194017" id="-12852">
		<tag k="alt_name" v="Svor, in" />
		<tag k="fixme" v="consider place=hamlet" />
		<tag k="name" v="Indre Svor" />
		<tag k="place" v="farm" />
		<tag k="ssr:stedsnr" v="192909" />
	</node>
	<node lat="62.1674808839144" lon="5.9147683782855385" id="-12854">
		<tag k="fixme" v="consider place=hamlet" />
		<tag k="name" v="Espenakken" />
		<tag k="place" v="farm" />
		<tag k="ssr:stedsnr" v="193027" />
	</node>
	<node lat="62.155429887271815" lon="5.925000683220485" id="-12856">
		<tag k="fixme" v="consider place=hamlet" />
		<tag k="name" v="Løndalen" />
		<tag k="place" v="farm" />
		<tag k="ssr:stedsnr" v="193064" />
	</node>
	<node lat="62.04874622720536" lon="6.396616940128521" id="-12860">
		<tag k="fixme" v="consider place=hamlet" />
		<tag k="name" v="Eide" />
		<tag k="place" v="farm" />
		<tag k="ssr:stedsnr" v="193689" />
	</node>
	<node lat="62.07350832979045" lon="6.529569438579944" id="-12863">
		<tag k="historic" v="shieling" />
		<tag k="name" v="Raudstadsætra" />
		<tag k="place" v="isolated_dwelling" />
		<tag k="ssr:stedsnr" v="193716" />
	</node>
	<node lat="62.059119442991104" lon="6.115761109477493" id="-12865">
		<tag k="alt_name" v="Bjørnasetsætra" />
		<tag k="historic" v="shieling" />
		<tag k="name" v="Bjørnesetsætra" />
		<tag k="place" v="isolated_dwelling" />
		<tag k="ssr:stedsnr" v="193879" />
	</node>
	<node lat="62.06068332942492" lon="5.960425008197194" id="-12866">
		<tag k="historic" v="shieling" />
		<tag k="name" v="Litlebøsætra" />
		<tag k="place" v="isolated_dwelling" />
		<tag k="ssr:stedsnr" v="193880" />
	</node>
	<node lat="62.04691471998925" lon="5.9499890462370635" id="-12872">
		<tag k="fixme" v="consider place=hamlet" />
		<tag k="name" v="Hesteflotene" />
		<tag k="place" v="farm" />
		<tag k="ssr:stedsnr" v="193892" />
	</node>
	<node lat="62.00343889124458" lon="6.042247221736562" id="-12874">
		<tag k="name" v="Kjellstad" />
		<tag k="place" v="farm" />
		<tag k="ssr:stedsnr" v="193948" />
	</node>
	<node lat="62.0043500016525" lon="6.1543277863629635" id="-12875">
		<tag k="historic" v="shieling" />
		<tag k="name" v="Nysætra" />
		<tag k="place" v="isolated_dwelling" />
		<tag k="ssr:stedsnr" v="193952" />
	</node>
	<node lat="62.008513884740616" lon="6.077594454108376" id="-12876">
		<tag k="name" v="Holmevik" />
		<tag k="place" v="farm" />
		<tag k="ssr:stedsnr" v="193953" />
	</node>
	<node lat="62.000744928739714" lon="5.847398672908446" id="-12878">
		<tag k="fixme" v="consider place=hamlet" />
		<tag k="name" v="Vassbakkane" />
		<tag k="place" v="farm" />
		<tag k="ssr:stedsnr" v="193957" />
	</node>
	<node lat="62.040975807656004" lon="5.899463173510031" id="-12883">
		<tag k="name" v="Fjøsneset" />
		<tag k="place" v="farm" />
		<tag k="ssr:stedsnr" v="193973" />
	</node>
	<node lat="62.0677777760906" lon="6.064994448750488" id="-12886">
		<tag k="name" v="Straumshamn" />
		<tag k="place" v="farm" />
		<tag k="ssr:stedsnr" v="193923" />
	</node>
	<node lat="62.093016663616126" lon="5.959788884808839" id="-12887">
		<tag k="name" v="Rossetvika" />
		<tag k="old_name" v="Rossetvikane" />
		<tag k="place" v="farm" />
		<tag k="ssr:stedsnr" v="207965" />
	</node>
	<node lat="62.186394446952846" lon="5.864150003844836" id="-12891">
		<tag k="historic" v="shieling" />
		<tag k="name" v="Litlesetra" />
		<tag k="place" v="isolated_dwelling" />
		<tag k="ssr:stedsnr" v="212820" />
	</node>
	<node lat="62.06053899848874" lon="6.357659415349587" id="-12917">
		<tag k="fixme" v="consider place=hamlet" />
		<tag k="name" v="Aursnes" />
		<tag k="place" v="farm" />
		<tag k="ssr:stedsnr" v="217955" />
	</node>
	<node lat="62.05931944283906" lon="6.315947220548812" id="-12918">
		<tag k="name" v="Hollsvik" />
		<tag k="place" v="farm" />
		<tag k="ssr:stedsnr" v="217958" />
	</node>
	<node lat="62.0557438599688" lon="6.379278061255909" id="-12919">
		<tag k="fixme" v="consider place=hamlet" />
		<tag k="name" v="Langenes" />
		<tag k="place" v="farm" />
		<tag k="ssr:stedsnr" v="217963" />
	</node>
	<node lat="62.02764999925621" lon="5.904161101975768" id="-12934">
		<tag k="historic" v="shieling" />
		<tag k="name" v="Stølen" />
		<tag k="place" v="isolated_dwelling" />
		<tag k="ssr:stedsnr" v="225277" />
	</node>
	<node lat="62.035144445102716" lon="6.392094449018815" id="-12996">
		<tag k="name" v="Bruabakken" />
		<tag k="place" v="farm" />
		<tag k="ssr:stedsnr" v="278913" />
	</node>
	<node lat="62.07460833151716" lon="6.231230556216478" id="-13020">
		<tag k="historic" v="shieling" />
		<tag k="name" v="Vikesæter" />
		<tag k="place" v="isolated_dwelling" />
		<tag k="ssr:stedsnr" v="285498" />
	</node>
	<node lat="62.07735404575569" lon="5.912566390874706" id="-13035">
		<tag k="fixme" v="consider place=hamlet" />
		<tag k="name" v="Aksnes" />
		<tag k="place" v="farm" />
		<tag k="ssr:stedsnr" v="286283" />
	</node>
	<node lat="62.10251389131823" lon="6.151611118734822" id="-13073">
		<tag k="alt_name" v="Vasstein" />
		<tag k="name" v="Vassteinen" />
		<tag k="place" v="farm" />
		<tag k="ssr:stedsnr" v="299445" />
	</node>
	<node lat="62.17699444259202" lon="5.903388883923864" id="-13079">
		<tag k="historic" v="shieling" />
		<tag k="name" v="Tilsetsætra" />
		<tag k="place" v="isolated_dwelling" />
		<tag k="ssr:stedsnr" v="314017" />
	</node>
	<node lat="61.993847220573926" lon="6.697955560621069" id="-13080">
		<tag k="historic" v="shieling" />
		<tag k="name" v="Sandgrova" />
		<tag k="place" v="isolated_dwelling" />
		<tag k="ssr:stedsnr" v="314246" />
	</node>
	<node lat="62.2088560310941" lon="5.985368694565628" id="-13081">
		<tag k="alt_name" v="Eidheim" />
		<tag k="fixme" v="consider place=hamlet" />
		<tag k="name" v="Eideim" />
		<tag k="place" v="farm" />
		<tag k="ssr:stedsnr" v="314086" />
	</node>
	<node lat="62.211664136752844" lon="5.956023113160231" id="-13082">
		<tag k="alt_name" v="Lid ytre;Lid" />
		<tag k="name" v="Ytre Lid" />
		<tag k="place" v="farm" />
		<tag k="ssr:stedsnr" v="314088" />
	</node>
	<node lat="62.147236114167676" lon="6.12029722958265" id="-13088">
		<tag k="fixme" v="consider place=hamlet" />
		<tag k="name" v="Vikebygda" />
		<tag k="place" v="village" />
		<tag k="ssr:stedsnr" v="314787" />
	</node>
	<node lat="62.14599722355195" lon="6.071077774824151" id="-13089">
		<tag k="name" v="Volda" />
		<tag k="place" v="village" />
		<tag k="ssr:stedsnr" v="314796" />
	</node>
	<node lat="62.11395442379866" lon="6.531243446393997" id="-13094">
		<tag k="name" v="Bakken" />
		<tag k="place" v="locality" />
		<tag k="ssr:stedsnr" v="314678" />
	</node>
	<node lat="62.05644444079435" lon="6.478997226928238" id="-13101">
		<tag k="name" v="Skipedalssætra" />
		<tag k="place" v="locality" />
		<tag k="ssr:stedsnr" v="314721" />
	</node>
	<node lat="62.059736113464275" lon="6.3267472219164445" id="-13102">
		<tag k="name" v="Fossheim" />
		<tag k="place" v="farm" />
		<tag k="ssr:stedsnr" v="314725" />
	</node>
	<node lat="62.05530268581478" lon="5.9337455991944585" id="-13110">
		<tag k="fixme" v="consider place=hamlet" />
		<tag k="name" v="Hjellane" />
		<tag k="place" v="farm" />
		<tag k="ssr:stedsnr" v="314866" />
	</node>
	<node lat="62.05865122444736" lon="5.92826520504987" id="-13111">
		<tag k="fixme" v="consider place=hamlet" />
		<tag k="name" v="Brunene" />
		<tag k="place" v="farm" />
		<tag k="ssr:stedsnr" v="314869" />
	</node>
	<node lat="62.05442808033977" lon="6.060699400012101" id="-13112">
		<tag k="fixme" v="consider place=hamlet" />
		<tag k="name" v="Søvika" />
		<tag k="place" v="farm" />
		<tag k="ssr:stedsnr" v="314877" />
	</node>
	<node lat="62.07087388780773" lon="6.201941454445274" id="-13114">
		<tag k="alt_name" v="Røsten" />
		<tag k="fixme" v="consider place=hamlet" />
		<tag k="name" v="Rysta" />
		<tag k="place" v="farm" />
		<tag k="ssr:stedsnr" v="314893" />
	</node>
	<node lat="62.002677775196084" lon="5.8539833401122054" id="-13118">
		<tag k="name" v="Steinsvika" />
		<tag k="place" v="village" />
		<tag k="ssr:stedsnr" v="314953" />
	</node>
	<node lat="61.95881111319296" lon="6.542588879419214" id="-13133">
		<tag k="name" v="Hogden" />
		<tag k="place" v="farm" />
		<tag k="ssr:stedsnr" v="335238" />
	</node>
	<node lat="62.0458567783938" lon="6.397808847962904" id="-13151">
		<tag k="fixme" v="consider place=hamlet" />
		<tag k="name" v="Måna" />
		<tag k="place" v="farm" />
		<tag k="ssr:stedsnr" v="338939" />
	</node>
	<node lat="62.061162515483396" lon="6.3285994757766435" id="-13152">
		<tag k="alt_name" v="Førdesreite" />
		<tag k="fixme" v="consider place=hamlet" />
		<tag k="name" v="Fyrdsreitane" />
		<tag k="place" v="farm" />
		<tag k="ssr:stedsnr" v="338957" />
	</node>
	<node lat="62.143930551456776" lon="6.16769167396381" id="-13153">
		<tag k="historic" v="shieling" />
		<tag k="name" v="Timannsætra" />
		<tag k="place" v="isolated_dwelling" />
		<tag k="ssr:stedsnr" v="338960" />
	</node>
	<node lat="62.11884166278809" lon="6.015497218596299" id="-13159">
		<tag k="name" v="Bjørnenakk" />
		<tag k="place" v="farm" />
		<tag k="ssr:stedsnr" v="346564" />
	</node>
	<node lat="62.10544722205774" lon="6.216622229633476" id="-13177">
		<tag k="historic" v="shieling" />
		<tag k="name" v="Aldalsstøylen" />
		<tag k="place" v="isolated_dwelling" />
		<tag k="ssr:stedsnr" v="346544" />
	</node>
	<node lat="61.99854444491324" lon="6.085641660536606" id="-13185">
		<tag k="name" v="Sanden" />
		<tag k="place" v="farm" />
		<tag k="ssr:stedsnr" v="346572" />
	</node>
	<node lat="62.010680557272345" lon="5.84307222861468" id="-13207">
		<tag k="alt_name" v="Peragarden" />
		<tag k="name" v="Ytre Åmelfot" />
		<tag k="place" v="farm" />
		<tag k="ssr:stedsnr" v="359137" />
	</node>
	<node lat="62.18704212257282" lon="5.881891883006798" id="-13211">
		<tag k="fixme" v="consider place=hamlet" />
		<tag k="name" v="Høystøylen" />
		<tag k="place" v="farm" />
		<tag k="ssr:stedsnr" v="374126" />
	</node>
	<node lat="61.956572226553206" lon="6.5593666738771725" id="-13212">
		<tag k="name" v="Liskog" />
		<tag k="place" v="farm" />
		<tag k="ssr:stedsnr" v="373881" />
	</node>
	<node lat="62.12916666820153" lon="6.190452783452667" id="-13217">
		<tag k="historic" v="shieling" />
		<tag k="name" v="Rotevassætra" />
		<tag k="place" v="isolated_dwelling" />
		<tag k="ssr:stedsnr" v="374771" />
	</node>
	<node lat="62.09614444040933" lon="6.084013891405776" id="-13227">
		<tag k="name" v="Litlemek" />
		<tag k="place" v="farm" />
		<tag k="ssr:stedsnr" v="374850" />
	</node>
	<node lat="62.114691667181305" lon="5.941341669288752" id="-13229">
		<tag k="name" v="Garden" />
		<tag k="place" v="farm" />
		<tag k="ssr:stedsnr" v="374869" />
	</node>
	<node lat="62.019441663138146" lon="6.05958333796603" id="-13234">
		<tag k="name" v="Byrkjely" />
		<tag k="place" v="farm" />
		<tag k="ssr:stedsnr" v="374962" />
	</node>
	<node lat="62.120728504810266" lon="5.939874578670116" id="-13239">
		<tag k="alt_name" v="Drabløsvik" />
		<tag k="fixme" v="multiple name tags, choose one and add the other to alt_name; consider place=hamlet" />
		<tag k="name" v="Vika;Dravlausvik" />
		<tag k="place" v="farm" />
		<tag k="ssr:stedsnr" v="374794" />
	</node>
	<node lat="62.05698055440287" lon="5.927908336225574" id="-13244">
		<tag k="name" v="Haukåsen" />
		<tag k="place" v="farm" />
		<tag k="ssr:stedsnr" v="374901" />
	</node>
	<node lat="62.07175277961178" lon="5.901055564551665" id="-13245">
		<tag k="name" v="Hatlen" />
		<tag k="place" v="farm" />
		<tag k="ssr:stedsnr" v="374922" />
	</node>
	<node lat="62.06270555473841" lon="6.068591672236943" id="-13251">
		<tag k="name" v="Brauta" />
		<tag k="place" v="farm" />
		<tag k="ssr:stedsnr" v="375870" />
	</node>
	<node lat="62.13702222582709" lon="6.149752785249483" id="-13285">
		<tag k="historic" v="shieling" />
		<tag k="name" v="Skinstøylen" />
		<tag k="place" v="isolated_dwelling" />
		<tag k="ssr:stedsnr" v="399966" />
	</node>
	<node lat="62.09870924044327" lon="6.1728931802690274" id="-13296">
		<tag k="name" v="Reite" />
		<tag k="place" v="farm" />
		<tag k="ssr:stedsnr" v="407083" />
	</node>
	<node lat="62.0095972181548" lon="5.843733337083119" id="-13301">
		<tag k="alt_name" v="Indre Åmelfot;Åmelfot;Åmelfoten" />
		<tag k="fixme" v="consider place=hamlet" />
		<tag k="name" v="Indre Åmelfoten" />
		<tag k="place" v="farm" />
		<tag k="ssr:stedsnr" v="407383" />
	</node>
	<node lat="62.06981944053795" lon="6.212569452343214" id="-13302">
		<tag k="historic" v="shieling" />
		<tag k="name" v="Midtgardseter" />
		<tag k="place" v="isolated_dwelling" />
		<tag k="ssr:stedsnr" v="407291" />
	</node>
	<node lat="62.11435277594059" lon="6.5861861071943935" id="-13335">
		<tag k="historic" v="shieling" />
		<tag k="name" v="Grønestøylen" />
		<tag k="place" v="isolated_dwelling" />
		<tag k="ssr:stedsnr" v="409231" />
	</node>
	<node lat="62.14851228250492" lon="6.155992984710167" id="-13340">
		<tag k="fixme" v="consider place=hamlet" />
		<tag k="name" v="Tømmerbakken" />
		<tag k="place" v="farm" />
		<tag k="ssr:stedsnr" v="420528" />
	</node>
	<node lat="61.9998055529984" lon="6.056738883229543" id="-13352">
		<tag k="name" v="Skogly" />
		<tag k="place" v="farm" />
		<tag k="ssr:stedsnr" v="435582" />
	</node>
	<node lat="62.11879722412616" lon="6.03317222018273" id="-13353">
		<tag k="name" v="Folkestad" />
		<tag k="place" v="village" />
		<tag k="ssr:stedsnr" v="435791" />
	</node>
	<node lat="62.12035220677579" lon="6.016834295434729" id="-13354">
		<tag k="fixme" v="consider place=hamlet" />
		<tag k="name" v="Åsebøen" />
		<tag k="place" v="farm" />
		<tag k="ssr:stedsnr" v="435794" />
	</node>
	<node lat="62.14880555317868" lon="6.157530552547235" id="-13361">
		<tag k="name" v="Tømmerbakken" />
		<tag k="place" v="farm" />
		<tag k="ssr:stedsnr" v="435825" />
	</node>
	<node lat="62.14644148031588" lon="6.1311519988748024" id="-13362">
		<tag k="alt_name" v="Hoggen" />
		<tag k="fixme" v="consider place=hamlet" />
		<tag k="name" v="Hogga" />
		<tag k="place" v="farm" />
		<tag k="ssr:stedsnr" v="435829" />
	</node>
	<node lat="62.144663404964255" lon="6.121342228342535" id="-13363">
		<tag k="fixme" v="consider place=hamlet" />
		<tag k="name" v="Rotevatn" />
		<tag k="place" v="farm" />
		<tag k="ssr:stedsnr" v="435832" />
	</node>
	<node lat="62.133969440456795" lon="5.978222230463163" id="-13365">
		<tag k="name" v="Gamlegjerdet" />
		<tag k="place" v="farm" />
		<tag k="ssr:stedsnr" v="435836" />
	</node>
	<node lat="62.0938527771495" lon="5.974508329421106" id="-13370">
		<tag k="name" v="Vikestøylen" />
		<tag k="place" v="isolated_dwelling" />
		<tag k="ssr:stedsnr" v="435849" />
	</node>
	<node lat="62.15433314929406" lon="5.938930444057285" id="-13375">
		<tag k="fixme" v="consider place=hamlet" />
		<tag k="name" v="Grøtholen" />
		<tag k="place" v="farm" />
		<tag k="ssr:stedsnr" v="436055" />
	</node>
	<node lat="62.02617498324676" lon="6.711310629551695" id="-13380">
		<tag k="fixme" v="consider place=hamlet" />
		<tag k="name" v="Støverstein" />
		<tag k="place" v="farm" />
		<tag k="ssr:stedsnr" v="436679" />
	</node>
	<node lat="61.99458459383726" lon="6.5587545813225585" id="-13393">
		<tag k="fixme" v="consider place=hamlet" />
		<tag k="name" v="Fannemel" />
		<tag k="place" v="farm" />
		<tag k="ssr:stedsnr" v="495892" />
	</node>
	<node lat="62.176353143448935" lon="5.929512016745143" id="-13400">
		<tag k="fixme" v="consider place=hamlet" />
		<tag k="name" v="Stigen" />
		<tag k="place" v="farm" />
		<tag k="ssr:stedsnr" v="496012" />
	</node>
	<node lat="62.19618332982837" lon="5.8634583310205155" id="-13403">
		<tag k="name" v="Sjurgarden" />
		<tag k="place" v="farm" />
		<tag k="ssr:stedsnr" v="496092" />
	</node>
	<node lat="62.09081944262637" lon="6.2620055466589095" id="-13410">
		<tag k="fixme" v="multiple name tags, choose one and add the other to alt_name" />
		<tag k="historic" v="shieling" />
		<tag k="name" v="Litlesætra;Støylane" />
		<tag k="place" v="isolated_dwelling" />
		<tag k="ssr:stedsnr" v="496661" />
	</node>
	<node lat="62.11729722312262" lon="5.870586117819672" id="-13413">
		<tag k="historic" v="shieling" />
		<tag k="name" v="Nystøylen" />
		<tag k="place" v="isolated_dwelling" />
		<tag k="ssr:stedsnr" v="496776" />
	</node>
	<node lat="62.05643889171029" lon="6.077236111312887" id="-13414">
		<tag k="name" v="Leirosen" />
		<tag k="place" v="farm" />
		<tag k="ssr:stedsnr" v="496872" />
	</node>
	<node lat="62.05868069330352" lon="6.085723896529262" id="-13415">
		<tag k="fixme" v="consider place=hamlet" />
		<tag k="name" v="Litlebotnen" />
		<tag k="place" v="farm" />
		<tag k="ssr:stedsnr" v="496874" />
	</node>
	<node lat="62.01320000229901" lon="6.039541666675513" id="-13420">
		<tag k="name" v="Sandvika" />
		<tag k="place" v="farm" />
		<tag k="ssr:stedsnr" v="496942" />
	</node>
	<node lat="62.05837777392435" lon="6.32970556212327" id="-13451">
		<tag k="name" v="Sunndalskleiva" />
		<tag k="place" v="farm" />
		<tag k="ssr:stedsnr" v="521893" />
	</node>
	<node lat="62.07252837877843" lon="6.20711122783413" id="-13459">
		<tag k="alt_name" v="Høydal ytre" />
		<tag k="name" v="Ytre Høydal" />
		<tag k="place" v="farm" />
		<tag k="ssr:stedsnr" v="527497" />
	</node>
	<node lat="62.0742777818769" lon="6.06296665756798" id="-13463">
		<tag k="historic" v="shieling" />
		<tag k="name" v="Aarøyane" />
		<tag k="place" v="isolated_dwelling" />
		<tag k="ssr:stedsnr" v="528214" />
	</node>
	<node lat="62.09562222621902" lon="6.000538890259083" id="-13466">
		<tag k="name" v="Hamna" />
		<tag k="place" v="isolated_dwelling" />
		<tag k="ssr:stedsnr" v="528431" />
	</node>
	<node lat="61.9861333360305" lon="6.286825001728856" id="-13483">
		<tag k="historic" v="shieling" />
		<tag k="name" v="Grøndalsstølen" />
		<tag k="place" v="isolated_dwelling" />
		<tag k="ssr:stedsnr" v="529093" />
	</node>
	<node lat="62.008755555299985" lon="6.559947217015959" id="-13510">
		<tag k="aerialway" v="drag_lift" />
		<tag k="fixme" v="consider the other aerialway types" />
		<tag k="name" v="Hornindal Skisenter" />
		<tag k="ssr:stedsnr" v="544598" />
	</node>
	<node lat="62.1195944415353" lon="5.880074992554107" id="-13520">
		<tag k="historic" v="shieling" />
		<tag k="name" v="Dravlausstøylen" />
		<tag k="place" v="isolated_dwelling" />
		<tag k="ssr:stedsnr" v="556772" />
	</node>
	<node lat="61.983805551092466" lon="6.639561103414908" id="-13524">
		<tag k="alt_name" v="Tomasgardsetra" />
		<tag k="historic" v="shieling" />
		<tag k="name" v="Tomasgardsætra" />
		<tag k="place" v="isolated_dwelling" />
		<tag k="ssr:stedsnr" v="556299" />
	</node>
	<node lat="62.09898906003301" lon="6.16504694299527" id="-13536">
		<tag k="fixme" v="consider place=hamlet" />
		<tag k="name" v="Ervika" />
		<tag k="place" v="farm" />
		<tag k="ssr:stedsnr" v="556834" />
	</node>
	<node lat="62.05405193968723" lon="5.944471368022794" id="-13538">
		<tag k="fixme" v="consider place=hamlet" />
		<tag k="name" v="Rangsætra" />
		<tag k="place" v="farm" />
		<tag k="ssr:stedsnr" v="556885" />
	</node>
	<node lat="62.05684722531531" lon="5.869188897730748" id="-13539">
		<tag k="historic" v="shieling" />
		<tag k="name" v="Keipedalen" />
		<tag k="place" v="isolated_dwelling" />
		<tag k="ssr:stedsnr" v="556886" />
	</node>
	<node lat="62.154202194191576" lon="6.062443640809483" id="-13542">
		<tag k="fixme" v="consider place=hamlet" />
		<tag k="name" v="Klepp" />
		<tag k="place" v="farm" />
		<tag k="ssr:stedsnr" v="557056" />
	</node>
	<node lat="62.16012777477449" lon="6.091163887374565" id="-13547">
		<tag k="name" v="Ullastøylen" />
		<tag k="place" v="isolated_dwelling" />
		<tag k="ssr:stedsnr" v="557767" />
	</node>
	<node lat="62.06276110687998" lon="6.181022224789418" id="-13551">
		<tag k="historic" v="shieling" />
		<tag k="name" v="Heiddalsstøylen" />
		<tag k="place" v="isolated_dwelling" />
		<tag k="ssr:stedsnr" v="565121" />
	</node>
	<node lat="62.057286115105455" lon="6.332622214861463" id="-13586">
		<tag k="name" v="Holebø" />
		<tag k="place" v="farm" />
		<tag k="ssr:stedsnr" v="581967" />
	</node>
	<node lat="62.169031980839065" lon="6.021080713614486" id="-13587">
		<tag k="fixme" v="consider place=hamlet" />
		<tag k="name" v="Litle-Mork" />
		<tag k="place" v="farm" />
		<tag k="ssr:stedsnr" v="581977" />
	</node>
	<node lat="62.11046944338222" lon="5.9393138924737885" id="-13626">
		<tag k="name" v="Osen" />
		<tag k="place" v="farm" />
		<tag k="ssr:stedsnr" v="589480" />
	</node>
	<node lat="62.13505555860714" lon="6.674344436825426" id="-13652">
		<tag k="historic" v="shieling" />
		<tag k="name" v="Elbertstøylen" />
		<tag k="place" v="isolated_dwelling" />
		<tag k="ssr:stedsnr" v="590023" />
	</node>
	<node lat="62.15983709749714" lon="5.933007922890544" id="-13670">
		<tag k="fixme" v="consider place=hamlet" />
		<tag k="name" v="Nakken" />
		<tag k="place" v="farm" />
		<tag k="ssr:stedsnr" v="617079" />
	</node>
	<node lat="62.072192581245325" lon="6.237288622365721" id="-13672">
		<tag k="alt_name" v="Stranda" />
		<tag k="fixme" v="consider place=hamlet" />
		<tag k="name" v="Vikestranda" />
		<tag k="place" v="farm" />
		<tag k="ssr:stedsnr" v="617640" />
	</node>
	<node lat="62.08330783445411" lon="6.291227337022674" id="-13673">
		<tag k="fixme" v="consider place=hamlet" />
		<tag k="name" v="Aurstad" />
		<tag k="place" v="farm" />
		<tag k="ssr:stedsnr" v="617649" />
	</node>
	<node lat="62.15090660701149" lon="6.139652388702285" id="-13681">
		<tag k="alt_name" v="Driveklepp" />
		<tag k="fixme" v="consider place=hamlet" />
		<tag k="name" v="Drivklepp" />
		<tag k="place" v="farm" />
		<tag k="ssr:stedsnr" v="617820" />
	</node>
	<node lat="62.07337499913122" lon="6.102094445261463" id="-13682">
		<tag k="name" v="Medgarden" />
		<tag k="place" v="farm" />
		<tag k="ssr:stedsnr" v="617920" />
	</node>
	<node lat="62.11623055826805" lon="6.020438883535441" id="-13697">
		<tag k="name" v="Nybø" />
		<tag k="place" v="farm" />
		<tag k="ssr:stedsnr" v="617859" />
	</node>
	<node lat="61.999991666876404" lon="5.763608330131241" id="-13701">
		<tag k="historic" v="shieling" />
		<tag k="name" v="Storlisætra" />
		<tag k="place" v="isolated_dwelling" />
		<tag k="ssr:stedsnr" v="617965" />
	</node>
	<node lat="62.0044361139545" lon="5.8193055535783405" id="-13702">
		<tag k="alt_name" v="Dal" />
		<tag k="fixme" v="consider place=hamlet" />
		<tag k="name" v="Dalen" />
		<tag k="place" v="farm" />
		<tag k="ssr:stedsnr" v="617968" />
	</node>
	<node lat="61.99707492067045" lon="6.597776945053874" id="-13725">
		<tag k="fixme" v="consider place=hamlet" />
		<tag k="name" v="Rygg" />
		<tag k="place" v="farm" />
		<tag k="ssr:stedsnr" v="638351" />
	</node>
	<node lat="62.14715277348028" lon="6.073924998743987" id="-13734">
		<tag k="name" v="Skjerva" />
		<tag k="place" v="farm" />
		<tag k="ssr:stedsnr" v="642922" />
	</node>
	<node lat="62.140769443924036" lon="5.925622221817557" id="-13770">
		<tag k="historic" v="shieling" />
		<tag k="name" v="Sessetra" />
		<tag k="place" v="isolated_dwelling" />
		<tag k="ssr:stedsnr" v="649833" />
	</node>
	<node lat="62.12193055115368" lon="6.026147216509637" id="-13808">
		<tag k="alt_name" v="Folkestad-Reiten" />
		<tag k="name" v="Folkestadreite" />
		<tag k="place" v="farm" />
		<tag k="ssr:stedsnr" v="711542" />
	</node>
	<node lat="62.09686111328823" lon="6.290477776200681" id="-13835">
		<tag k="historic" v="shieling" />
		<tag k="name" v="Austadsætra" />
		<tag k="place" v="isolated_dwelling" />
		<tag k="ssr:stedsnr" v="738670" />
	</node>
	<node lat="62.137342239590666" lon="6.134387889074707" id="-13838">
		<tag k="fixme" v="consider place=hamlet" />
		<tag k="name" v="Vassbotnen" />
		<tag k="place" v="farm" />
		<tag k="ssr:stedsnr" v="738764" />
	</node>
	<node lat="62.12697777617517" lon="6.023027786057658" id="-13840">
		<tag k="name" v="Hagen" />
		<tag k="place" v="farm" />
		<tag k="ssr:stedsnr" v="738771" />
	</node>
	<node lat="62.12344279478712" lon="6.01819642880204" id="-13841">
		<tag k="alt_name" v="Folkestadåsen" />
		<tag k="fixme" v="consider place=hamlet" />
		<tag k="name" v="Åsen" />
		<tag k="place" v="farm" />
		<tag k="ssr:stedsnr" v="738794" />
	</node>
	<node lat="62.02143875658625" lon="5.847541126325582" id="-13845">
		<tag k="alt_name" v="Mårstøl" />
		<tag k="fixme" v="consider place=hamlet" />
		<tag k="name" v="Morstøylen" />
		<tag k="place" v="farm" />
		<tag k="ssr:stedsnr" v="738993" />
	</node>
	<node lat="62.165124995931" lon="6.124011113909814" id="-13848">
		<tag k="name" v="Turnhytta" />
		<tag k="place" v="isolated_dwelling" />
		<tag k="ssr:stedsnr" v="739047" />
	</node>
	<node lat="62.01128333255805" lon="6.215041658284793" id="-13853">
		<tag k="historic" v="shieling" />
		<tag k="name" v="Rinddalssætra" />
		<tag k="place" v="isolated_dwelling" />
		<tag k="ssr:stedsnr" v="739557" />
	</node>
	<node lat="62.056605551240246" lon="5.9385138800596815" id="-13857">
		<tag k="name" v="Vonheim" />
		<tag k="place" v="farm" />
		<tag k="ssr:stedsnr" v="739870" />
	</node>
	<node lat="62.0295250004098" lon="5.96357499933016" id="-13859">
		<tag k="historic" v="shieling" />
		<tag k="name" v="Sanden" />
		<tag k="place" v="isolated_dwelling" />
		<tag k="ssr:stedsnr" v="739997" />
	</node>
	<node lat="62.00559722383721" lon="5.99861945263434" id="-13863">
		<tag k="historic" v="shieling" />
		<tag k="name" v="Laurdalssætra" />
		<tag k="place" v="isolated_dwelling" />
		<tag k="ssr:stedsnr" v="739938" />
	</node>
	<node lat="62.035497634971826" lon="5.861231147749079" id="-13865">
		<tag k="alt_name" v="Stranda" />
		<tag k="fixme" v="consider place=hamlet" />
		<tag k="name" v="Jostranda" />
		<tag k="place" v="farm" />
		<tag k="ssr:stedsnr" v="739970" />
	</node>
	<node lat="62.0447075104256" lon="6.044015170911329" id="-13867">
		<tag k="fixme" v="consider place=hamlet" />
		<tag k="name" v="Kile" />
		<tag k="place" v="farm" />
		<tag k="ssr:stedsnr" v="739981" />
	</node>
	<node lat="61.96921110962669" lon="6.52418056511867" id="-13878">
		<tag k="name" v="Hornindal" />
		<tag k="place" v="village" />
		<tag k="ssr:stedsnr" v="759662" />
	</node>
	<node lat="62.1595472187375" lon="5.9466777744275126" id="-13892">
		<tag k="name" v="Bakkeland" />
		<tag k="place" v="farm" />
		<tag k="ssr:stedsnr" v="763029" />
	</node>
	<node lat="62.06502893667416" lon="6.320415951358687" id="-13894">
		<tag k="alt_name" v="Leite" />
		<tag k="fixme" v="consider place=hamlet" />
		<tag k="name" v="Leitet" />
		<tag k="place" v="farm" />
		<tag k="ssr:stedsnr" v="763935" />
	</node>
	<node lat="62.07326944530608" lon="6.217027780805555" id="-13905">
		<tag k="alt_name" v="Høydal indre" />
		<tag k="name" v="Indre Høydal" />
		<tag k="place" v="farm" />
		<tag k="ssr:stedsnr" v="770481" />
	</node>
	<node lat="62.06956666454495" lon="6.198147214655792" id="-13906">
		<tag k="alt_name" v="Øygarden" />
		<tag k="name" v="Ødegård" />
		<tag k="place" v="farm" />
		<tag k="ssr:stedsnr" v="771340" />
	</node>
	<node lat="62.062125001658416" lon="6.292219435035508" id="-13915">
		<tag k="name" v="Høgset" />
		<tag k="place" v="farm" />
		<tag k="ssr:stedsnr" v="771296" />
	</node>
	<node lat="62.111583331585" lon="5.937408336308945" id="-13917">
		<tag k="name" v="Haugane" />
		<tag k="place" v="farm" />
		<tag k="ssr:stedsnr" v="771525" />
	</node>
	<node lat="62.10773888860547" lon="6.050677785638144" id="-13924">
		<tag k="alt_name" v="Krumsvik store" />
		<tag k="name" v="Store Krumsvik" />
		<tag k="place" v="farm" />
		<tag k="ssr:stedsnr" v="771395" />
	</node>
	<node lat="62.11285000320993" lon="6.031655554154676" id="-13925">
		<tag k="name" v="Flote ytre" />
		<tag k="place" v="farm" />
		<tag k="ssr:stedsnr" v="771400" />
	</node>
	<node lat="62.08090363717458" lon="6.3011723287828785" id="-13926">
		<tag k="alt_name" v="Stornes" />
		<tag k="fixme" v="consider place=hamlet" />
		<tag k="name" v="Storenes" />
		<tag k="place" v="farm" />
		<tag k="ssr:stedsnr" v="771934" />
	</node>
	<node lat="62.20908332971969" lon="5.9630861030614755" id="-13931">
		<tag k="amenity" v="school" />
		<tag k="name" v="Lid skule" />
		<tag k="ssr:stedsnr" v="771664" />
	</node>
	<node lat="62.13070277849107" lon="6.164161120082867" id="-13933">
		<tag k="historic" v="shieling" />
		<tag k="name" v="Botnasætra" />
		<tag k="place" v="isolated_dwelling" />
		<tag k="ssr:stedsnr" v="771672" />
	</node>
	<node lat="62.14925555247813" lon="5.915766658887108" id="-13937">
		<tag k="historic" v="shieling" />
		<tag k="name" v="Åsesetra" />
		<tag k="place" v="isolated_dwelling" />
		<tag k="ssr:stedsnr" v="771840" />
	</node>
	<node lat="62.09007222375497" lon="6.006463879815248" id="-13941">
		<tag k="historic" v="shieling" />
		<tag k="name" v="Innaforsetra" />
		<tag k="place" v="isolated_dwelling" />
		<tag k="ssr:stedsnr" v="771888" />
	</node>
	<node lat="61.95944444625139" lon="6.51694166593674" id="-13951">
		<tag k="name" v="Svor" />
		<tag k="place" v="locality" />
		<tag k="ssr:stedsnr" v="781744" />
	</node>
	<node lat="62.15881667076099" lon="6.0427916638328725" id="-13952">
		<tag k="fixme" v="multiple name tags, choose one and add the other to alt_name" />
		<tag k="name" v="Ekset;Jogarden" />
		<tag k="place" v="farm" />
		<tag k="ssr:stedsnr" v="784186" />
	</node>
	<node lat="62.1023807694089" lon="6.150229998752852" id="-13953">
		<tag k="alt_name" v="Vasstein" />
		<tag k="name" v="Vassteinen" />
		<tag k="place" v="farm" />
		<tag k="ssr:stedsnr" v="785380" />
	</node>
	<node lat="61.93772499881312" lon="6.492111106447359" id="-13963">
		<tag k="name" v="Innerhola" />
		<tag k="place" v="farm" />
		<tag k="ssr:stedsnr" v="799922" />
	</node>
	<node lat="62.152474333503946" lon="5.932399050224573" id="-13964">
		<tag k="alt_name" v="Åsen" />
		<tag k="fixme" v="consider place=hamlet" />
		<tag k="name" v="Sætreåsen" />
		<tag k="place" v="farm" />
		<tag k="ssr:stedsnr" v="800056" />
	</node>
	<node lat="62.15570379997023" lon="6.054677185318115" id="-13965">
		<tag k="alt_name" v="Nordalen" />
		<tag k="fixme" v="consider place=hamlet" />
		<tag k="name" v="Norddalen" />
		<tag k="place" v="farm" />
		<tag k="ssr:stedsnr" v="800058" />
	</node>
	<node lat="62.160783335124314" lon="5.936627770014863" id="-13966">
		<tag k="alt_name" v="Skaret" />
		<tag k="name" v="Skarde" />
		<tag k="place" v="farm" />
		<tag k="ssr:stedsnr" v="800060" />
	</node>
	<node lat="62.14979192660559" lon="6.066887525644941" id="-13968">
		<tag k="fixme" v="consider place=hamlet" />
		<tag k="name" v="Engeset" />
		<tag k="place" v="farm" />
		<tag k="ssr:stedsnr" v="799814" />
	</node>
	<node lat="62.134525001783494" lon="6.1328638823990635" id="-13971">
		<tag k="name" v="Nymarka" />
		<tag k="place" v="farm" />
		<tag k="ssr:stedsnr" v="799779" />
	</node>
	<node lat="62.14250833443086" lon="6.091855548051959" id="-13980">
		<tag k="name" v="Leitet" />
		<tag k="place" v="farm" />
		<tag k="ssr:stedsnr" v="799829" />
	</node>
	<node lat="62.001225003060796" lon="6.161708339369903" id="-13981">
		<tag k="historic" v="shieling" />
		<tag k="name" v="Helsetsætra" />
		<tag k="place" v="isolated_dwelling" />
		<tag k="ssr:stedsnr" v="800553" />
	</node>
	<node lat="62.056674168767415" lon="6.379439169604378" id="-13982">
		<tag k="name" v="Langeneset" />
		<tag k="place" v="farm" />
		<tag k="ssr:stedsnr" v="800706" />
	</node>
	<node lat="62.05980644752817" lon="6.0705134612937135" id="-13990">
		<tag k="fixme" v="consider place=hamlet" />
		<tag k="name" v="Fylsvika" />
		<tag k="place" v="farm" />
		<tag k="ssr:stedsnr" v="800873" />
	</node>
	<node lat="61.990089429208396" lon="6.52735246264203" id="-14009">
		<tag k="name" v="Hingarden" />
		<tag k="place" v="locality" />
		<tag k="ssr:stedsnr" v="821229" />
	</node>
	<node lat="62.008919446736776" lon="6.570805545836897" id="-14026">
		<tag k="historic" v="shieling" />
		<tag k="name" v="Gamlesetra" />
		<tag k="place" v="isolated_dwelling" />
		<tag k="ssr:stedsnr" v="821645" />
	</node>
	<node lat="62.06918611411508" lon="6.192424999546414" id="-14049">
		<tag k="historic" v="shieling" />
		<tag k="name" v="Rangseter" />
		<tag k="place" v="isolated_dwelling" />
		<tag k="ssr:stedsnr" v="832353" />
	</node>
	<node lat="62.14779999881016" lon="5.881711114311872" id="-14063">
		<tag k="historic" v="shieling" />
		<tag k="name" v="Lauvstadsetra" />
		<tag k="place" v="isolated_dwelling" />
		<tag k="ssr:stedsnr" v="832859" />
	</node>
	<node lat="62.16263056011054" lon="5.926758335329192" id="-14104">
		<tag k="name" v="Gjerdet" />
		<tag k="place" v="farm" />
		<tag k="ssr:stedsnr" v="861030" />
	</node>
	<node lat="62.14786666303718" lon="6.106905547254645" id="-14146">
		<tag k="name" v="Heltnesundet" />
		<tag k="place" v="farm" />
		<tag k="ssr:stedsnr" v="885970" />
	</node>
	<node lat="61.99831388676755" lon="6.604066664927463" id="-14162">
		<tag k="name" v="Ljosvang" />
		<tag k="place" v="farm" />
		<tag k="ssr:stedsnr" v="942224" />
	</node>
	<node lat="62.00516110791567" lon="6.587958328742359" id="-14163">
		<tag k="historic" v="shieling" />
		<tag k="name" v="Dovesetra" />
		<tag k="place" v="isolated_dwelling" />
		<tag k="ssr:stedsnr" v="942225" />
	</node>
	<node lat="62.03904444814373" lon="5.947616668361595" id="-14221">
		<tag k="historic" v="shieling" />
		<tag k="name" v="Brunesetra" />
		<tag k="place" v="isolated_dwelling" />
		<tag k="ssr:stedsnr" v="954925" />
	</node>
	<node lat="62.134447225853116" lon="6.61045832973659" id="-14228">
		<tag k="name" v="Seljebakkplassen" />
		<tag k="place" v="locality" />
		<tag k="ssr:stedsnr" v="955850" />
	</node>
	<node lat="62.11639332468856" lon="5.939810020904269" id="-14230">
		<tag k="alt_name" v="Dravlaus indre" />
		<tag k="fixme" v="consider place=hamlet" />
		<tag k="name" v="Indre Dravlaus" />
		<tag k="place" v="farm" />
		<tag k="ssr:stedsnr" v="965131" />
	</node>
	<node lat="62.060547224571785" lon="6.088183323878954" id="-14231">
		<tag k="name" v="Lisjebakken" />
		<tag k="place" v="farm" />
		<tag k="ssr:stedsnr" v="966147" />
	</node>
	<node lat="61.99805160384669" lon="6.39353047704938" id="-14232">
		<tag k="fixme" v="consider tourism=alpine_hut or tourism=chalet" />
		<tag k="name" v="Glimmerdalshytta" />
		<tag k="ssr:stedsnr" v="975481" />
		<tag k="tourism" v="wilderness_hut" />
	</node>
	<node lat="61.998078249075874" lon="6.612561702860219" id="-14234">
		<tag k="fixme" v="consider place=hamlet" />
		<tag k="name" v="Bakke" />
		<tag k="place" v="farm" />
		<tag k="ssr:stedsnr" v="978087" />
	</node>
	<node lat="62.121678355231445" lon="5.93939565844168" id="-14235">
		<tag k="name" v="Dravlaus" />
		<tag k="place" v="hamlet" />
		<tag k="ssr:stedsnr" v="983079" />
	</node>
	<node lat="62.16572333412664" lon="5.9405661475472735" id="-14236">
		<tag k="fixme" v="consider place=hamlet" />
		<tag k="name" v="Lauvstad" />
		<tag k="place" v="farm" />
		<tag k="ssr:stedsnr" v="983093" />
	</node>
	<node lat="62.21187040069302" lon="5.960627149478604" id="-14238">
		<tag k="name" v="Lid" />
		<tag k="place" v="hamlet" />
		<tag k="ssr:stedsnr" v="982921" />
	</node>
	<node lat="62.18041950051502" lon="5.921353517156375" id="-14239">
		<tag k="name" v="Gjøsdal" />
		<tag k="place" v="locality" />
		<tag k="ssr:stedsnr" v="983099" />
	</node>
	<node lat="61.99030130353961" lon="6.518700103084036" id="-14570">
		<tag k="name" v="Kongsjord" />
		<tag k="place" v="farm" />
		<tag k="ssr:stedsnr" v="1073916" />
	</node>
</osm>
