<?xml version="1.0" encoding="UTF-8"?>
<osm generator="osmapis" version="0.6">
	<node id="-89541" lat="62.1574722266" lon="6.12146389677">
		<tag k="name" v="Kortemyra" />
		<tag k="natural" v="wetland" />
		<tag k="ssr:stedsnr" v="763872" />
	</node>
	<node id="-90109" lat="62.0583583332" lon="6.03944445028">
		<tag k="name" v="Urdene" />
		<tag k="natural" v="scree" />
		<tag k="ssr:stedsnr" v="104899" />
	</node>
	<node id="-90099" lat="62.1252472198" lon="6.13698610951">
		<tag k="name" v="Høgedalsstøylen" />
		<tag k="place" v="locality" />
		<tag k="ssr:stedsnr" v="104665" />
	</node>
	<node id="-89745" lat="62.1426805545" lon="6.12215277497">
		<tag k="name" v="Vollane" />
		<tag k="place" v="locality" />
		<tag k="ssr:stedsnr" v="885916" />
	</node>
	<node id="-90087" lat="62.1166472196" lon="6.00393055201">
		<tag k="name" v="Årskogane" />
		<tag k="place" v="locality" />
		<tag k="ssr:stedsnr" v="104550" />
	</node>
	<node id="-91107" lat="62.0179972257" lon="6.03628054867">
		<tag k="name" v="Breidefonna" />
		<tag k="place" v="locality" />
		<tag k="ssr:stedsnr" v="749299" />
	</node>
	<node id="-88540" lat="62.0529583293" lon="5.93494721563">
		<tag k="name" v="Holen" />
		<tag k="place" v="locality" />
		<tag k="ssr:stedsnr" v="286939" />
	</node>
	<node id="-90585" lat="62.0800527775" lon="6.31266111471">
		<tag k="name" v="Urane" />
		<tag k="natural" v="scree" />
		<tag k="ssr:stedsnr" v="408961" />
	</node>
	<node id="-88530" lat="62.1200694482" lon="6.1387166656">
		<tag k="name" v="Fonnane" />
		<tag k="place" v="locality" />
		<tag k="ssr:stedsnr" v="286689" />
	</node>
	<node id="-90574" lat="62.0544666644" lon="6.04306111898">
		<tag k="name" v="Tulleplassen" />
		<tag k="place" v="locality" />
		<tag k="ssr:stedsnr" v="408893" />
	</node>
	<node id="-90565" lat="62.0456666707" lon="5.93698333512">
		<tag k="name" v="Høgemyra" />
		<tag k="natural" v="wetland" />
		<tag k="ssr:stedsnr" v="407961" />
	</node>
	<node id="-88514" lat="62.1476611103" lon="6.1764166619">
		<tag k="name" v="Langemyra" />
		<tag k="natural" v="wetland" />
		<tag k="ssr:stedsnr" v="286235" />
	</node>
	<node id="-91381" lat="62.0730722208" lon="6.45063055223">
		<tag k="name" v="Leitet" />
		<tag k="natural" v="wetland" />
		<tag k="ssr:stedsnr" v="833947" />
	</node>
	<node id="-90044" lat="62.0317388906" lon="6.39056666293">
		<tag k="name" v="Langemyra" />
		<tag k="natural" v="wetland" />
		<tag k="ssr:stedsnr" v="96880" />
	</node>
	<node id="-90554" lat="62.1660750029" lon="6.11690832881">
		<tag k="name" v="Daurmålssteinen" />
		<tag k="natural" v="stone" />
		<tag k="ssr:stedsnr" v="407632" />
	</node>
	<node id="-91039" lat="62.1079777787" lon="6.55594444755">
		<tag k="name" v="Tysseøyra" />
		<tag k="place" v="locality" />
		<tag k="ssr:stedsnr" v="651962" />
	</node>
	<node id="-90040" lat="62.0012333344" lon="6.5274722157">
		<tag k="name" v="Slettebjørkmyra" />
		<tag k="natural" v="wetland" />
		<tag k="ssr:stedsnr" v="93209" />
	</node>
	<node id="-90546" lat="62.047538891" lon="5.8767833379">
		<tag k="name" v="Sjølvskaturda" />
		<tag k="natural" v="scree" />
		<tag k="ssr:stedsnr" v="407325" />
	</node>
	<node id="-90696" lat="62.1401055549" lon="6.63100277367">
		<tag k="name" v="Steingarden" />
		<tag k="place" v="locality" />
		<tag k="ssr:stedsnr" v="529924" />
	</node>
	<node id="-90030" lat="62.0111777802" lon="6.63656111218">
		<tag k="name" v="Kyrkjesteinen" />
		<tag k="natural" v="stone" />
		<tag k="ssr:stedsnr" v="92334" />
	</node>
	<node id="-88221" lat="62.0421138854" lon="5.9507972154">
		<tag k="name" v="Stormyra" />
		<tag k="natural" v="wetland" />
		<tag k="ssr:stedsnr" v="225971" />
	</node>
	<node id="-90538" lat="62.0520249983" lon="6.2745333332">
		<tag k="name" v="Seterskogen" />
		<tag k="place" v="locality" />
		<tag k="ssr:stedsnr" v="407395" />
	</node>
	<node id="-90023" lat="61.9838722262" lon="6.71447221621">
		<tag k="name" v="Steinmyrteigane" />
		<tag k="natural" v="wetland" />
		<tag k="ssr:stedsnr" v="92251" />
	</node>
	<node id="-90022" lat="62.0207861151" lon="6.68333056303">
		<tag k="name" v="Horndalslimyra" />
		<tag k="natural" v="wetland" />
		<tag k="ssr:stedsnr" v="92243" />
	</node>
	<node id="-90021" lat="62.0199027771" lon="6.69025834183">
		<tag k="name" v="Haralflotmyra" />
		<tag k="natural" v="wetland" />
		<tag k="ssr:stedsnr" v="92242" />
	</node>
	<node id="-90237" lat="62.188299997" lon="6.56416388667">
		<tag k="name" v="Jaktfonna" />
		<tag k="place" v="locality" />
		<tag k="ssr:stedsnr" v="166693" />
	</node>
	<node id="-88483" lat="62.1017944443" lon="6.56333054916">
		<tag k="name" v="Tyssemyrane" />
		<tag k="natural" v="wetland" />
		<tag k="ssr:stedsnr" v="166960" />
	</node>
	<node id="-91035" lat="62.0101388899" lon="6.03484999481">
		<tag k="name" v="Breidemyra" />
		<tag k="natural" v="wetland" />
		<tag k="ssr:stedsnr" v="650984" />
	</node>
	<node id="-89503" lat="62.0477611086" lon="6.02750278351">
		<tag k="name" v="Sandfonna" />
		<tag k="place" v="locality" />
		<tag k="ssr:stedsnr" v="710974" />
	</node>
	<node id="-88477" lat="62.1173249989" lon="6.56161665933">
		<tag k="name" v="Kalnesurdene" />
		<tag k="natural" v="scree" />
		<tag k="ssr:stedsnr" v="166217" />
	</node>
	<node id="-90011" lat="62.0208666627" lon="6.03484722201">
		<tag k="name" v="Nedstefonna" />
		<tag k="place" v="locality" />
		<tag k="ssr:stedsnr" v="81310" />
	</node>
	<node id="-89493" lat="62.041813887" lon="5.95679721481">
		<tag k="name" v="Legene" />
		<tag k="place" v="locality" />
		<tag k="ssr:stedsnr" v="893973" />
	</node>
	<node id="-89325" lat="62.0694583353" lon="6.24516667206">
		<tag k="name" v="Lyngura" />
		<tag k="natural" v="scree" />
		<tag k="ssr:stedsnr" v="647714" />
	</node>
	<node id="-88456" lat="62.068666666" lon="6.23835000386">
		<tag k="name" v="Store urda" />
		<tag k="natural" v="scree" />
		<tag k="ssr:stedsnr" v="164324" />
	</node>
	<node id="-88455" lat="62.0559555527" lon="6.20506110626">
		<tag k="name" v="Øggardsfonna" />
		<tag k="place" v="locality" />
		<tag k="ssr:stedsnr" v="164315" />
	</node>
	<node id="-88454" lat="62.0267944449" lon="5.89963889472">
		<tag k="name" v="Høgemyra" />
		<tag k="natural" v="wetland" />
		<tag k="ssr:stedsnr" v="164306" />
	</node>
	<node id="-91011" lat="62.038652781" lon="6.20944999241">
		<tag k="name" v="Gråurda" />
		<tag k="natural" v="scree" />
		<tag k="ssr:stedsnr" v="650010" />
	</node>
	<node id="-88241" lat="62.0046805563" lon="6.597924994">
		<tag k="name" v="Storelademyrane" />
		<tag k="natural" v="wetland" />
		<tag k="ssr:stedsnr" v="32214" />
	</node>
	<node id="-88957" lat="62.1433055542" lon="5.86798888101">
		<tag k="name" v="Vassholmyrane" />
		<tag k="natural" v="wetland" />
		<tag k="ssr:stedsnr" v="515437" />
	</node>
	<node id="-88956" lat="62.0419138915" lon="5.8583361057">
		<tag k="name" v="Styggefonna" />
		<tag k="natural" v="scree" />
		<tag k="ssr:stedsnr" v="515190" />
	</node>
	<node id="-90490" lat="62.0014888907" lon="6.48953889522">
		<tag k="name" v="Skitnemyrane" />
		<tag k="natural" v="wetland" />
		<tag k="ssr:stedsnr" v="396206" />
	</node>
	<node id="-89462" lat="62.0846444407" lon="6.25498055919">
		<tag k="name" v="Myrane" />
		<tag k="natural" v="wetland" />
		<tag k="ssr:stedsnr" v="893342" />
	</node>
	<node id="-88437" lat="62.1936305551" lon="6.00416388778">
		<tag k="name" v="Skridene" />
		<tag k="place" v="locality" />
		<tag k="ssr:stedsnr" v="278974" />
	</node>
	<node id="-90995" lat="62.1042611087" lon="6.22494721575">
		<tag k="name" v="Skinøyra" />
		<tag k="place" v="locality" />
		<tag k="ssr:stedsnr" v="649556" />
	</node>
	<node id="-88427" lat="62.1708111132" lon="6.03859166737">
		<tag k="name" v="Morkafurene" />
		<tag k="place" v="locality" />
		<tag k="ssr:stedsnr" v="278933" />
	</node>
	<node id="-89446" lat="61.9976388894" lon="5.83975278298">
		<tag k="name" v="Geiteura" />
		<tag k="natural" v="scree" />
		<tag k="ssr:stedsnr" v="893182" />
	</node>
	<node id="-91493" lat="62.1487138896" lon="6.57615277019">
		<tag k="name" v="Utåløyra" />
		<tag k="place" v="locality" />
		<tag k="ssr:stedsnr" v="962778" />
	</node>
	<node id="-88930" lat="62.0254138854" lon="5.85275277443">
		<tag k="name" v="Legene" />
		<tag k="place" v="locality" />
		<tag k="ssr:stedsnr" v="407361" />
	</node>
	<node id="-89951" lat="62.1415444411" lon="6.62832499999">
		<tag k="name" v="Brøsbakkura" />
		<tag k="natural" v="scree" />
		<tag k="ssr:stedsnr" v="44895" />
	</node>
	<node id="-88926" lat="61.9943472251" lon="5.83468055147">
		<tag k="name" v="Storeura" />
		<tag k="natural" v="scree" />
		<tag k="ssr:stedsnr" v="407219" />
	</node>
	<node id="-88920" lat="62.2048916706" lon="5.97889443663">
		<tag k="name" v="Dekkjene" />
		<tag k="place" v="locality" />
		<tag k="ssr:stedsnr" v="406721" />
	</node>
	<node id="-89943" lat="62.0807666696" lon="6.30463054995">
		<tag k="name" v="Instebøen" />
		<tag k="place" v="locality" />
		<tag k="ssr:stedsnr" v="43952" />
	</node>
	<node id="-88405" lat="62.0223944431" lon="6.55068332974">
		<tag k="name" v="Ryggjamyra" />
		<tag k="natural" v="wetland" />
		<tag k="ssr:stedsnr" v="275235" />
	</node>
	<node id="-88404" lat="62.0004027787" lon="6.6640000001">
		<tag k="name" v="Stubbediket" />
		<tag k="natural" v="wetland" />
		<tag k="ssr:stedsnr" v="275230" />
	</node>
	<node id="-88905" lat="62.1499666664" lon="6.15985833985">
		<tag k="name" v="Nyland" />
		<tag k="place" v="locality" />
		<tag k="ssr:stedsnr" v="505157" />
	</node>
	<node id="-88392" lat="61.9880361097" lon="6.45313055651">
		<tag k="name" v="Kjøsastrekane" />
		<tag k="place" v="locality" />
		<tag k="ssr:stedsnr" v="274379" />
	</node>
	<node id="-90435" lat="62.0382555528" lon="5.96221667325">
		<tag k="name" v="Gråura" />
		<tag k="natural" v="scree" />
		<tag k="ssr:stedsnr" v="347946" />
	</node>
	<node id="-89409" lat="62.1592833356" lon="6.10455555458">
		<tag k="name" v="Ullastøylmyrane" />
		<tag k="natural" v="wetland" />
		<tag k="ssr:stedsnr" v="885900" />
	</node>
	<node id="-89408" lat="62.1662805533" lon="6.05703610363">
		<tag k="historic" v="shieling" />
		<tag k="name" v="Liaskarsætra" />
		<tag k="place" v="locality" />
		<tag k="ssr:stedsnr" v="885890" />
	</node>
	<node id="-89401" lat="62.0447888894" lon="6.39235278387">
		<tag k="name" v="Kviå" />
		<tag k="place" v="locality" />
		<tag k="ssr:stedsnr" v="885934" />
	</node>
	<node id="-90846" lat="62.16440833" lon="6.17051666136">
		<tag k="name" v="Damane" />
		<tag k="natural" v="wetland" />
		<tag k="ssr:stedsnr" v="589545" />
	</node>
	<node id="-91442" lat="62.1045111109" lon="6.13651111584">
		<tag k="name" v="Storerøysa" />
		<tag k="natural" v="scree" />
		<tag k="ssr:stedsnr" v="953088" />
	</node>
	<node id="-90418" lat="62.1584333306" lon="6.16011389588">
		<tag k="name" v="Nygarden" />
		<tag k="place" v="locality" />
		<tag k="ssr:stedsnr" v="346594" />
	</node>
	<node id="-88358" lat="62.1608333319" lon="5.91904999844">
		<tag k="name" v="Nymarka" />
		<tag k="place" v="locality" />
		<tag k="ssr:stedsnr" v="104039" />
	</node>
	<node id="-90396" lat="62.1082361142" lon="6.15052222165">
		<tag k="name" v="Haukarsteinen" />
		<tag k="natural" v="stone" />
		<tag k="ssr:stedsnr" v="346094" />
	</node>
	<node id="-88343" lat="62.1478194439" lon="6.08877777129">
		<tag k="name" v="Røysmyrane" />
		<tag k="natural" v="wetland" />
		<tag k="ssr:stedsnr" v="96907" />
	</node>
	<node id="-88337" lat="62.0567666704" lon="6.57666944609">
		<tag k="name" v="Blåbreden" />
		<tag k="natural" v="glacier" />
		<tag k="ssr:stedsnr" v="254681" />
	</node>
	<node id="-89870" lat="62.1707500034" lon="6.01665000855">
		<tag k="name" v="Skitøya" />
		<tag k="natural" v="wetland" />
		<tag k="ssr:stedsnr" v="35953" />
	</node>
	<node id="-89869" lat="62.1964722244" lon="5.98138888262">
		<tag k="name" v="Sæmyrane" />
		<tag k="natural" v="wetland" />
		<tag k="ssr:stedsnr" v="35936" />
	</node>
	<node id="-90380" lat="62.1457888887" lon="6.10264444815">
		<tag k="name" v="Gråten" />
		<tag k="place" v="locality" />
		<tag k="ssr:stedsnr" v="338927" />
	</node>
	<node id="-89866" lat="62.1659000013" lon="6.04362777223">
		<tag k="name" v="Kråvegane" />
		<tag k="place" v="locality" />
		<tag k="ssr:stedsnr" v="35915" />
	</node>
	<node id="-89865" lat="62.0447527813" lon="6.43430554907">
		<tag k="name" v="Leitemarka" />
		<tag k="place" v="locality" />
		<tag k="ssr:stedsnr" v="35907" />
	</node>
	<node id="-89864" lat="62.0422805521" lon="6.39041389091">
		<tag k="name" v="Rystekvia" />
		<tag k="place" v="locality" />
		<tag k="ssr:stedsnr" v="35901" />
	</node>
	<node id="-88220" lat="62.0103722191" lon="6.37175555033">
		<tag k="name" v="Telefonna" />
		<tag k="place" v="locality" />
		<tag k="ssr:stedsnr" v="225968" />
	</node>
	<node id="-90369" lat="61.9979666648" lon="6.5001583418">
		<tag k="name" v="Ladansteinen" />
		<tag k="natural" v="stone" />
		<tag k="ssr:stedsnr" v="335432" />
	</node>
	<node id="-88829" lat="62.0976277743" lon="6.54409721584">
		<tag k="name" v="Urene" />
		<tag k="natural" v="scree" />
		<tag k="ssr:stedsnr" v="348977" />
	</node>
	<node id="-88828" lat="62.0842333374" lon="6.30345276861">
		<tag k="name" v="Langesvadet" />
		<tag k="place" v="locality" />
		<tag k="ssr:stedsnr" v="347960" />
	</node>
	<node id="-88827" lat="62.090913887" lon="6.35593611897">
		<tag k="name" v="Nordalsmyrane" />
		<tag k="natural" v="wetland" />
		<tag k="ssr:stedsnr" v="347956" />
	</node>
	<node id="-90362" lat="61.996324997" lon="6.65052777516">
		<tag k="name" v="Svortemyra" />
		<tag k="natural" v="wetland" />
		<tag k="ssr:stedsnr" v="335250" />
	</node>
	<node id="-88821" lat="61.989694446" lon="6.28164443934">
		<tag k="name" v="Risbakkmyrane" />
		<tag k="natural" v="wetland" />
		<tag k="ssr:stedsnr" v="347113" />
	</node>
	<node id="-90351" lat="62.0225444426" lon="6.17898610368">
		<tag k="historic" v="shieling" />
		<tag k="name" v="Gamlestølen" />
		<tag k="place" v="locality" />
		<tag k="ssr:stedsnr" v="331387" />
	</node>
	<node id="-90862" lat="62.1796444468" lon="6.57559721712">
		<tag k="name" v="Gallsteinane" />
		<tag k="natural" v="stone" />
		<tag k="ssr:stedsnr" v="590718" />
	</node>
	<node id="-88813" lat="62.1569055599" lon="5.90297222997">
		<tag k="name" v="Setregarden" />
		<tag k="place" v="locality" />
		<tag k="ssr:stedsnr" v="346823" />
	</node>
	<node id="-90066" lat="62.084983332" lon="6.00563055215">
		<tag k="name" v="Gossesteinane" />
		<tag k="natural" v="stone" />
		<tag k="ssr:stedsnr" v="103876" />
	</node>
	<node id="-89830" lat="62.0125555516" lon="5.80399999405">
		<tag k="name" v="Dansamyrane" />
		<tag k="natural" v="wetland" />
		<tag k="ssr:stedsnr" v="30683" />
	</node>
	<node id="-89310" lat="62.021836109" lon="6.70962500141">
		<tag k="name" v="Per-Ratevollmyra" />
		<tag k="natural" v="wetland" />
		<tag k="ssr:stedsnr" v="638219" />
	</node>
	<node id="-91357" lat="62.0265861143" lon="6.07711111299">
		<tag k="name" v="Skarsmyrane" />
		<tag k="natural" v="wetland" />
		<tag k="ssr:stedsnr" v="832686" />
	</node>
	<node id="-91355" lat="62.1584805535" lon="6.1543027707">
		<tag k="name" v="Revura" />
		<tag k="natural" v="scree" />
		<tag k="ssr:stedsnr" v="832598" />
	</node>
	<node id="-88792" lat="62.0698249989" lon="6.27496665825">
		<tag k="name" v="Storura" />
		<tag k="natural" v="scree" />
		<tag k="ssr:stedsnr" v="344721" />
	</node>
	<node id="-91347" lat="62.1270138888" lon="5.97472222453">
		<tag k="name" v="Gråura" />
		<tag k="natural" v="scree" />
		<tag k="ssr:stedsnr" v="832563" />
	</node>
	<node id="-90425" lat="62.2097166669" lon="5.97355833873">
		<tag k="name" v="Lidamyrane" />
		<tag k="natural" v="wetland" />
		<tag k="ssr:stedsnr" v="346749" />
	</node>
	<node id="-91345" lat="62.097936115" lon="5.96557222715">
		<tag k="name" v="Sandgyløyra" />
		<tag k="place" v="locality" />
		<tag k="ssr:stedsnr" v="832544" />
	</node>
	<node id="-90828" lat="62.0512555515" lon="6.10461667255">
		<tag k="name" v="Nysetmyrane" />
		<tag k="natural" v="wetland" />
		<tag k="ssr:stedsnr" v="589091" />
	</node>
	<node id="-90826" lat="62.1630166689" lon="5.91063611721">
		<tag k="name" v="Haugebøen" />
		<tag k="place" v="locality" />
		<tag k="ssr:stedsnr" v="589049" />
	</node>
	<node id="-91330" lat="61.9954972235" lon="5.80860555109">
		<tag k="name" v="Kopnamyra" />
		<tag k="natural" v="wetland" />
		<tag k="ssr:stedsnr" v="832137" />
	</node>
	<node id="-90299" lat="62.1882805539" lon="5.85224999886">
		<tag k="name" v="Storemyra" />
		<tag k="natural" v="wetland" />
		<tag k="ssr:stedsnr" v="212819" />
	</node>
	<node id="-89272" lat="62.009819448" lon="6.09674444467">
		<tag k="name" v="Langmyra" />
		<tag k="natural" v="wetland" />
		<tag k="ssr:stedsnr" v="711646" />
	</node>
	<node id="-88246" lat="62.0460944476" lon="6.04185833647">
		<tag k="name" v="Øyra" />
		<tag k="place" v="locality" />
		<tag k="ssr:stedsnr" v="42963" />
	</node>
	<node id="-91313" lat="62.0761722255" lon="6.48813332684">
		<tag k="name" v="Litlebøen" />
		<tag k="place" v="locality" />
		<tag k="ssr:stedsnr" v="826623" />
	</node>
	<node id="-88240" lat="62.0134277784" lon="6.67508887976">
		<tag k="name" v="Orremyra" />
		<tag k="natural" v="wetland" />
		<tag k="ssr:stedsnr" v="32202" />
	</node>
	<node id="-91310" lat="62.1510944464" lon="6.14985278439">
		<tag k="name" v="Kapalsteinen" />
		<tag k="natural" v="stone" />
		<tag k="ssr:stedsnr" v="824895" />
	</node>
	<node id="-88233" lat="62.118874998" lon="6.17776111164">
		<tag k="name" v="Skinøyra" />
		<tag k="place" v="locality" />
		<tag k="ssr:stedsnr" v="226798" />
	</node>
	<node id="-91302" lat="62.1796361135" lon="6.00756110765">
		<tag k="name" v="Gråmyra" />
		<tag k="natural" v="wetland" />
		<tag k="ssr:stedsnr" v="824931" />
	</node>
	<node id="-89765" lat="62.1034611102" lon="6.46355000032">
		<tag k="name" v="Lidaskogen" />
		<tag k="place" v="locality" />
		<tag k="ssr:stedsnr" v="954619" />
	</node>
	<node id="-88739" lat="62.0727249995" lon="6.32059444791">
		<tag k="name" v="Nymarka" />
		<tag k="place" v="locality" />
		<tag k="ssr:stedsnr" v="468938" />
	</node>
	<node id="-89246" lat="62.0574777796" lon="6.13059444033">
		<tag k="name" v="Fonna" />
		<tag k="place" v="locality" />
		<tag k="ssr:stedsnr" v="589118" />
	</node>
	<node id="-91293" lat="61.9953972196" lon="6.49787500506">
		<tag k="name" v="Kalvesteinane" />
		<tag k="natural" v="stone" />
		<tag k="ssr:stedsnr" v="821429" />
	</node>
	<node id="-89244" lat="62.0747361147" lon="6.15644443667">
		<tag k="name" v="Storefonna" />
		<tag k="place" v="locality" />
		<tag k="ssr:stedsnr" v="589103" />
	</node>
	<node id="-91290" lat="62.0285666681" lon="6.71954166236">
		<tag k="name" v="Støversteinen" />
		<tag k="natural" v="stone" />
		<tag k="ssr:stedsnr" v="821494" />
	</node>
	<node id="-90774" lat="62.0353722236" lon="5.84546387942">
		<tag k="name" v="Gråura" />
		<tag k="natural" v="scree" />
		<tag k="ssr:stedsnr" v="576167" />
	</node>
	<node id="-88721" lat="62.0071999964" lon="6.12113612096">
		<tag k="name" v="Løken" />
		<tag k="natural" v="wetland" />
		<tag k="ssr:stedsnr" v="468475" />
	</node>
	<node id="-91277" lat="62.0002166672" lon="6.67515832749">
		<tag k="name" v="Brubakkemyra" />
		<tag k="natural" v="wetland" />
		<tag k="ssr:stedsnr" v="821239" />
	</node>
	<node id="-91276" lat="62.0062083311" lon="6.55636110637">
		<tag k="name" v="Myrane" />
		<tag k="natural" v="wetland" />
		<tag k="ssr:stedsnr" v="821238" />
	</node>
	<node id="-88715" lat="62.2190555577" lon="5.95738610396">
		<tag k="name" v="Tuemyra" />
		<tag k="natural" v="wetland" />
		<tag k="ssr:stedsnr" v="468631" />
	</node>
	<node id="-89367" lat="62.0486305599" lon="6.67204722346">
		<tag k="name" v="Svedene" />
		<tag k="place" v="locality" />
		<tag k="ssr:stedsnr" v="882223" />
	</node>
	<node id="-88197" lat="61.9738083293" lon="6.09976666533">
		<tag k="name" v="Smålødemyra" />
		<tag k="natural" v="wetland" />
		<tag k="ssr:stedsnr" v="225644" />
	</node>
	<node id="-88707" lat="62.0839944444" lon="6.07492777982">
		<tag k="name" v="Mekurdene" />
		<tag k="natural" v="scree" />
		<tag k="ssr:stedsnr" v="468178" />
	</node>
	<node id="-90240" lat="62.0782944482" lon="6.51173611008">
		<tag k="name" v="Liltlebøen" />
		<tag k="place" v="locality" />
		<tag k="ssr:stedsnr" v="166995" />
	</node>
	<node id="-90517" lat="62.0435499973" lon="6.4380555531">
		<tag k="name" v="Bueidmarka" />
		<tag k="place" v="locality" />
		<tag k="ssr:stedsnr" v="399888" />
	</node>
	<node id="-89212" lat="62.0743583344" lon="5.93499721839">
		<tag k="name" v="Øyra" />
		<tag k="place" v="locality" />
		<tag k="ssr:stedsnr" v="710263" />
	</node>
	<node id="-89209" lat="62.0799472239" lon="6.07861944987">
		<tag k="name" v="Skarvesteinen" />
		<tag k="natural" v="stone" />
		<tag k="ssr:stedsnr" v="710206" />
	</node>
	<node id="-88183" lat="62.0266750038" lon="5.85635555007">
		<tag k="name" v="Espenesgjerdet" />
		<tag k="place" v="locality" />
		<tag k="ssr:stedsnr" v="225351" />
	</node>
	<node id="-88180" lat="62.0677138881" lon="6.18484444643">
		<tag k="name" v="Setermyra" />
		<tag k="natural" v="wetland" />
		<tag k="ssr:stedsnr" v="225335" />
	</node>
	<node id="-90222" lat="62.1023805558" lon="6.07264167419">
		<tag k="name" v="Støylen" />
		<tag k="place" v="locality" />
		<tag k="ssr:stedsnr" v="164733" />
	</node>
	<node id="-90219" lat="62.000916667" lon="6.12158055376">
		<tag k="name" v="Setremyrane" />
		<tag k="natural" v="wetland" />
		<tag k="ssr:stedsnr" v="164588" />
	</node>
	<node id="-90216" lat="62.097527778" lon="6.00664444285">
		<tag k="name" v="Raudesanden" />
		<tag k="place" v="locality" />
		<tag k="ssr:stedsnr" v="164446" />
	</node>
	<node id="-89696" lat="62.0054250024" lon="6.67172499993">
		<tag k="name" v="Øyemyrane" />
		<tag k="natural" v="wetland" />
		<tag k="ssr:stedsnr" v="942234" />
	</node>
	<node id="-89693" lat="62.0080833358" lon="5.77421666512">
		<tag k="name" v="Tåteurdene" />
		<tag k="natural" v="scree" />
		<tag k="ssr:stedsnr" v="941678" />
	</node>
	<node id="-88664" lat="62.0965722227" lon="6.16291110609">
		<tag k="name" v="Åsemyra" />
		<tag k="natural" v="wetland" />
		<tag k="ssr:stedsnr" v="286073" />
	</node>
	<node id="-89687" lat="62.1137083309" lon="6.54379999681">
		<tag k="name" v="Tufta" />
		<tag k="place" v="locality" />
		<tag k="ssr:stedsnr" v="834973" />
	</node>
	<node id="-90706" lat="62.0720527752" lon="6.32093334237">
		<tag k="name" v="Hagen" />
		<tag k="place" v="locality" />
		<tag k="ssr:stedsnr" v="529967" />
	</node>
	<node id="-90193" lat="62.1594861079" lon="6.07826665777">
		<tag k="historic" v="shieling" />
		<tag k="name" v="Kleppesætra" />
		<tag k="place" v="locality" />
		<tag k="ssr:stedsnr" v="156916" />
	</node>
	<node id="-89679" lat="62.0200277773" lon="6.36349167041">
		<tag k="name" v="Fonnene" />
		<tag k="place" v="locality" />
		<tag k="ssr:stedsnr" v="833976" />
	</node>
	<node id="-90381" lat="62.1386805535" lon="6.09528333444">
		<tag k="name" v="Nygarden" />
		<tag k="place" v="locality" />
		<tag k="ssr:stedsnr" v="338930" />
	</node>
	<node id="-89675" lat="62.0530555579" lon="6.03988610512">
		<tag k="name" v="Groftamyrane" />
		<tag k="natural" v="wetland" />
		<tag k="ssr:stedsnr" v="833905" />
	</node>
	<node id="-88649" lat="62.0454555594" lon="6.38423610206">
		<tag k="name" v="Selsteinen" />
		<tag k="natural" v="stone" />
		<tag k="ssr:stedsnr" v="460914" />
	</node>
	<node id="-88648" lat="62.1739500003" lon="6.03038333205">
		<tag k="name" v="Langemyra" />
		<tag k="natural" v="wetland" />
		<tag k="ssr:stedsnr" v="460038" />
	</node>
	<node id="-89671" lat="62.056175001" lon="6.40698889297">
		<tag k="name" v="Fonnagjølet" />
		<tag k="place" v="locality" />
		<tag k="ssr:stedsnr" v="824913" />
	</node>
	<node id="-88638" lat="62.1165111106" lon="5.8211055545">
		<tag k="name" v="Storåvassleitet" />
		<tag k="natural" v="wetland" />
		<tag k="ssr:stedsnr" v="273291" />
	</node>
	<node id="-89661" lat="61.9752944416" lon="6.46131666937">
		<tag k="name" v="Hidsteinen" />
		<tag k="natural" v="stone" />
		<tag k="ssr:stedsnr" v="821416" />
	</node>
	<node id="-89660" lat="61.9966583349" lon="6.51068055427">
		<tag k="name" v="Uklesteinen" />
		<tag k="natural" v="stone" />
		<tag k="ssr:stedsnr" v="821407" />
	</node>
	<node id="-88123" lat="62.1593694403" lon="6.09004722065">
		<tag k="name" v="Osskarmyra" />
		<tag k="natural" v="wetland" />
		<tag k="ssr:stedsnr" v="217925" />
	</node>
	<node id="-88121" lat="62.143391665" lon="6.17160833873">
		<tag k="name" v="Storesteinen" />
		<tag k="natural" v="stone" />
		<tag k="ssr:stedsnr" v="217870" />
	</node>
	<node id="-88118" lat="62.1537916685" lon="6.16949444099">
		<tag k="name" v="Dyrdeigjerdet" />
		<tag k="place" v="locality" />
		<tag k="ssr:stedsnr" v="217862" />
	</node>
	<node id="-90165" lat="61.9743750006" lon="6.12058888878">
		<tag k="name" v="Alflotteigane" />
		<tag k="place" v="locality" />
		<tag k="ssr:stedsnr" v="142302" />
	</node>
	<node id="-88628" lat="62.00386651" lon="6.57618257778">
		<tag k="landuse" v="meadow" />
		<tag k="name" v="Engakroken" />
		<tag k="ssr:stedsnr" v="457366" />
	</node>
	<node id="-89138" lat="61.9999555522" lon="6.44503333984">
		<tag k="name" v="Storehaugmyra" />
		<tag k="natural" v="wetland" />
		<tag k="ssr:stedsnr" v="699231" />
	</node>
	<node id="-90670" lat="62.0655305567" lon="6.20633334009">
		<tag k="name" v="Bømyrane" />
		<tag k="natural" v="wetland" />
		<tag k="ssr:stedsnr" v="528297" />
	</node>
	<node id="-88157" lat="62.0436972226" lon="6.23026944263">
		<tag k="name" v="Langedalsfonna" />
		<tag k="place" v="locality" />
		<tag k="ssr:stedsnr" v="225015" />
	</node>
	<node id="-90801" lat="62.1732333339" lon="6.00702777391">
		<tag k="name" v="Trøda" />
		<tag k="place" v="locality" />
		<tag k="ssr:stedsnr" v="581935" />
	</node>
	<node id="-91171" lat="62.0925194485" lon="6.06915277337">
		<tag k="name" v="Langemyra" />
		<tag k="natural" v="wetland" />
		<tag k="ssr:stedsnr" v="771203" />
	</node>
	<node id="-91169" lat="62.1020333292" lon="5.90866943652">
		<tag k="name" v="Myrane" />
		<tag k="natural" v="wetland" />
		<tag k="ssr:stedsnr" v="771145" />
	</node>
	<node id="-90655" lat="62.0902222241" lon="6.52994722962">
		<tag k="name" v="Oddemyra" />
		<tag k="natural" v="wetland" />
		<tag k="ssr:stedsnr" v="522596" />
	</node>
	<node id="-90377" lat="62.1753055539" lon="6.04953888935">
		<tag k="name" v="Bjørnarysta" />
		<tag k="place" v="locality" />
		<tag k="ssr:stedsnr" v="338027" />
	</node>
	<node id="-90200" lat="62.0844666624" lon="6.53873611741">
		<tag k="name" v="Mossvådene" />
		<tag k="place" v="locality" />
		<tag k="ssr:stedsnr" v="158607" />
	</node>
	<node id="-90967" lat="62.1528388875" lon="6.08111945258">
		<tag k="name" v="Håmyra" />
		<tag k="natural" v="wetland" />
		<tag k="ssr:stedsnr" v="642919" />
	</node>
	<node id="-88584" lat="62.1546388869" lon="6.09655555906">
		<tag k="name" v="Raudemyra" />
		<tag k="natural" v="wetland" />
		<tag k="ssr:stedsnr" v="217018" />
	</node>
</osm>
