<?xml version="1.0" encoding="UTF-8"?>
<osm generator="osmapis" version="0.6">
	<node id="-93182" lat="62.1186722241" lon="6.03278332779">
		<tag k="bridge" v="yes" />
		<tag k="layer" v="1" />
		<tag k="name" v="Folkestadbrua" />
		<tag k="ssr:stedsnr" v="148683" />
	</node>
	<node id="-93181" lat="62.0929527798" lon="5.91902221431">
		<tag k="bridge" v="yes" />
		<tag k="layer" v="1" />
		<tag k="name" v="Fosselvbrua" />
		<tag k="ssr:stedsnr" v="148749" />
	</node>
	<node id="-92667" lat="62.0127777751" lon="6.04033055091">
		<tag k="bridge" v="yes" />
		<tag k="layer" v="1" />
		<tag k="name" v="Sandviksbrua" />
		<tag k="ssr:stedsnr" v="816708" />
	</node>
	<node id="-92650" lat="62.0267361134" lon="6.04186110247">
		<tag k="bridge" v="yes" />
		<tag k="layer" v="1" />
		<tag k="name" v="Vassendbrua" />
		<tag k="ssr:stedsnr" v="921943" />
	</node>
	<node id="-92137" lat="62.0956944455" lon="6.20893056237">
		<tag k="bridge" v="yes" />
		<tag k="layer" v="1" />
		<tag k="name" v="Hjartåbrua" />
		<tag k="ssr:stedsnr" v="694743" />
	</node>
	<node id="-92136" lat="62.1225361107" lon="6.59120000084">
		<tag k="bridge" v="yes" />
		<tag k="layer" v="1" />
		<tag k="name" v="Kårdalsbrua" />
		<tag k="ssr:stedsnr" v="694590" />
	</node>
	<node id="-92135" lat="62.1089194434" lon="6.55904999953">
		<tag k="bridge" v="yes" />
		<tag k="layer" v="1" />
		<tag k="name" v="Tussa Kraft-brua" />
		<tag k="ssr:stedsnr" v="694588" />
	</node>
	<node id="-91611" lat="62.1025638925" lon="6.55003888697">
		<tag k="bridge" v="yes" />
		<tag k="layer" v="1" />
		<tag k="name" v="Vikelvbrua" />
		<tag k="ssr:stedsnr" v="452633" />
	</node>
	<node id="-94170" lat="62.124533331" lon="5.89631389547">
		<tag k="highway" v="path" />
		<tag k="name" v="Stigen" />
		<tag k="ssr:stedsnr" v="770192" />
	</node>
	<node id="-91609" lat="62.0988861088" lon="6.552011105">
		<tag k="bridge" v="yes" />
		<tag k="layer" v="1" />
		<tag k="name" v="Bruslettebrua" />
		<tag k="ssr:stedsnr" v="452630" />
	</node>
	<node id="-93655" lat="62.1440388896" lon="6.15553889232">
		<tag k="bridge" v="yes" />
		<tag k="layer" v="1" />
		<tag k="name" v="Storebrua" />
		<tag k="ssr:stedsnr" v="520912" />
	</node>
	<node id="-93654" lat="62.1442666685" lon="6.06472499745">
		<tag k="amenity" v="ferry_terminal" />
		<tag k="name" v="Volda ferjekai" />
		<tag k="ssr:stedsnr" v="520317" />
	</node>
	<node id="-93136" lat="62.1074472237" lon="6.56643332936">
		<tag k="highway" v="path" />
		<tag k="name" v="Drageveien" />
		<tag k="ssr:stedsnr" v="106975" />
	</node>
	<node id="-92101" lat="62.0718777779" lon="6.47910277339">
		<tag k="bridge" v="yes" />
		<tag k="layer" v="1" />
		<tag k="name" v="Skjåstadbrua" />
		<tag k="ssr:stedsnr" v="512664" />
	</node>
	<node id="-94132" lat="62.0760111129" lon="6.31670833687">
		<tag k="bridge" v="yes" />
		<tag k="layer" v="1" />
		<tag k="name" v="Geitvikbrua" />
		<tag k="ssr:stedsnr" v="755774" />
	</node>
	<node id="-94131" lat="62.0619027795" lon="6.32756388625">
		<tag k="bridge" v="yes" />
		<tag k="layer" v="1" />
		<tag k="name" v="Fyrdsbrua" />
		<tag k="ssr:stedsnr" v="755770" />
	</node>
	<node id="-94130" lat="62.0743305546" lon="6.21133610317">
		<tag k="bridge" v="yes" />
		<tag k="layer" v="1" />
		<tag k="name" v="Høydalsbrua" />
		<tag k="ssr:stedsnr" v="755764" />
	</node>
	<node id="-94129" lat="62.1457777789" lon="6.08778610625">
		<tag k="bridge" v="yes" />
		<tag k="layer" v="1" />
		<tag k="name" v="Mylnebrua" />
		<tag k="ssr:stedsnr" v="755758" />
	</node>
	<node id="-94128" lat="62.0358222198" lon="5.88622223019">
		<tag k="bridge" v="yes" />
		<tag k="layer" v="1" />
		<tag k="name" v="Eidsetbrua" />
		<tag k="ssr:stedsnr" v="755727" />
	</node>
	<node id="-94127" lat="61.9795999966" lon="6.31088333259">
		<tag k="bridge" v="yes" />
		<tag k="layer" v="1" />
		<tag k="name" v="Grøndalsbrua" />
		<tag k="ssr:stedsnr" v="755721" />
	</node>
	<node id="-94126" lat="62.1322083337" lon="5.93786111867">
		<tag k="bridge" v="yes" />
		<tag k="layer" v="1" />
		<tag k="name" v="Dalsbygdbrua" />
		<tag k="ssr:stedsnr" v="755718" />
	</node>
	<node id="-94125" lat="62.1469027814" lon="6.12380277541">
		<tag k="bridge" v="yes" />
		<tag k="layer" v="1" />
		<tag k="name" v="Rotevassgangbrua" />
		<tag k="ssr:stedsnr" v="755717" />
	</node>
	<node id="-94124" lat="62.0034805564" lon="6.05058612015">
		<tag k="bridge" v="yes" />
		<tag k="layer" v="1" />
		<tag k="name" v="Elviksbrua" />
		<tag k="ssr:stedsnr" v="755652" />
	</node>
	<node id="-94123" lat="61.9995138863" lon="6.05816388645">
		<tag k="bridge" v="yes" />
		<tag k="layer" v="1" />
		<tag k="name" v="Aurstadbrua" />
		<tag k="ssr:stedsnr" v="755642" />
	</node>
	<node id="-91552" lat="61.9669388918" lon="6.01987778175">
		<tag k="ford" v="yes" />
		<tag k="name" v="Steinvadet" />
		<tag k="place" v="locality" />
		<tag k="ssr:stedsnr" v="286934" />
	</node>
	<node id="-93589" lat="62.1415861133" lon="6.61613054796">
		<tag k="highway" v="path" />
		<tag k="name" v="Grønegotane" />
		<tag k="ssr:stedsnr" v="408903" />
	</node>
	<node id="-93063" lat="62.1678416708" lon="6.03344166679">
		<tag k="junction" v="yes" />
		<tag k="name" v="Korsen" />
		<tag k="place" v="locality" />
		<tag k="ssr:stedsnr" v="96927" />
	</node>
	<node id="-93572" lat="62.045849999" lon="6.07437221421">
		<tag k="highway" v="path" />
		<tag k="name" v="Trollstiga" />
		<tag k="ssr:stedsnr" v="407722" />
	</node>
	<node id="-92030" lat="62.0634083332" lon="6.24654165718">
		<tag k="highway" v="path" />
		<tag k="name" v="Daudenokvegen" />
		<tag k="ssr:stedsnr" v="468249" />
	</node>
	<node id="-92541" lat="61.9987500001" lon="6.64069166432">
		<tag k="bridge" v="yes" />
		<tag k="layer" v="1" />
		<tag k="name" v="Seljeset" />
		<tag k="ssr:stedsnr" v="897681" />
	</node>
	<node id="-93052" lat="62.0120861113" lon="6.56547499678">
		<tag k="highway" v="path" />
		<tag k="name" v="Rjømestegen" />
		<tag k="ssr:stedsnr" v="92652" />
	</node>
	<node id="-92018" lat="62.1322083337" lon="5.93786111867">
		<tag k="bridge" v="yes" />
		<tag k="layer" v="1" />
		<tag k="name" v="Skrubbenesbrua" />
		<tag k="ssr:stedsnr" v="452732" />
	</node>
	<node id="-91650" lat="62.0668611109" lon="6.06704445013">
		<tag k="bridge" v="yes" />
		<tag k="layer" v="1" />
		<tag k="name" v="Straumselvbrua" />
		<tag k="ssr:stedsnr" v="270666" />
	</node>
	<node id="-93028" lat="62.0604000036" lon="6.32601945314">
		<tag k="bridge" v="yes" />
		<tag k="layer" v="1" />
		<tag k="name" v="Reitebrua" />
		<tag k="ssr:stedsnr" v="88731" />
	</node>
	<node id="-93027" lat="62.0606222239" lon="6.29272776849">
		<tag k="bridge" v="yes" />
		<tag k="layer" v="1" />
		<tag k="name" v="Skinvikbrua" />
		<tag k="ssr:stedsnr" v="88729" />
	</node>
	<node id="-93026" lat="62.122416664" lon="6.58715555683">
		<tag k="bridge" v="yes" />
		<tag k="layer" v="1" />
		<tag k="name" v="Leirabrua" />
		<tag k="ssr:stedsnr" v="88557" />
	</node>
	<node id="-92510" lat="62.1494777797" lon="5.88793610962">
		<tag k="ford" v="yes" />
		<tag k="name" v="Krokvadet" />
		<tag k="place" v="locality" />
		<tag k="ssr:stedsnr" v="710846" />
	</node>
	<node id="-92509" lat="62.1990361118" lon="5.86289721806">
		<tag k="man_made" v="quay" />
		<tag k="name" v="Velsvik kai" />
		<tag k="place" v="locality" />
		<tag k="ssr:stedsnr" v="710844" />
	</node>
	<node id="-92500" lat="62.0637611081" lon="5.93224721545">
		<tag k="bridge" v="yes" />
		<tag k="layer" v="1" />
		<tag k="name" v="Kyrkjebrua" />
		<tag k="ssr:stedsnr" v="893898" />
	</node>
	<node id="-92365" lat="62.1437333301" lon="6.07305833335">
		<tag k="bridge" v="yes" />
		<tag k="layer" v="1" />
		<tag k="name" v="Prestegardsbrua" />
		<tag k="ssr:stedsnr" v="876652" />
	</node>
	<node id="-91964" lat="62.1956305538" lon="5.86792221973">
		<tag k="bridge" v="yes" />
		<tag k="layer" v="1" />
		<tag k="name" v="Velsvikbrua" />
		<tag k="ssr:stedsnr" v="512781" />
	</node>
	<node id="-91963" lat="62.041244448" lon="6.42214721819">
		<tag k="bridge" v="yes" />
		<tag k="layer" v="1" />
		<tag k="name" v="Stigebrua" />
		<tag k="ssr:stedsnr" v="512741" />
	</node>
	<node id="-91962" lat="62.1469833346" lon="6.12389722474">
		<tag k="bridge" v="yes" />
		<tag k="layer" v="1" />
		<tag k="name" v="Gamle Rotevassbrua" />
		<tag k="ssr:stedsnr" v="512734" />
	</node>
	<node id="-91961" lat="62.1084805581" lon="6.55881388377">
		<tag k="bridge" v="yes" />
		<tag k="layer" v="1" />
		<tag k="name" v="Naustbrua" />
		<tag k="ssr:stedsnr" v="512634" />
	</node>
	<node id="-92982" lat="62.0723944423" lon="6.47344443936">
		<tag k="ford" v="yes" />
		<tag k="name" v="Feirvadet" />
		<tag k="place" v="locality" />
		<tag k="ssr:stedsnr" v="59916" />
	</node>
	<node id="-92981" lat="62.0725222181" lon="6.47886110217">
		<tag k="ford" v="yes" />
		<tag k="name" v="Buvadet" />
		<tag k="place" v="locality" />
		<tag k="ssr:stedsnr" v="59913" />
	</node>
	<node id="-92960" lat="62.093380553" lon="6.53531667057">
		<tag k="fixme" v="verify maritime location" />
		<tag k="mooring" v="yes" />
		<tag k="name" v="Røysa" />
		<tag k="place" v="locality" />
		<tag k="ssr:stedsnr" v="44674" />
	</node>
	<node id="-92446" lat="62.0833694465" lon="6.26350278596">
		<tag k="fixme" v="verify maritime location" />
		<tag k="mooring" v="yes" />
		<tag k="name" v="Trongstøa" />
		<tag k="place" v="locality" />
		<tag k="ssr:stedsnr" v="891630" />
	</node>
	<node id="-94492" lat="62.1636749959" lon="6.59180556252">
		<tag k="highway" v="path" />
		<tag k="name" v="Ulvestien" />
		<tag k="ssr:stedsnr" v="954981" />
	</node>
	<node id="-91610" lat="62.1074666667" lon="6.55603889395">
		<tag k="bridge" v="yes" />
		<tag k="layer" v="1" />
		<tag k="name" v="Tyssebrua" />
		<tag k="ssr:stedsnr" v="452632" />
	</node>
	<node id="-93972" lat="62.1201638901" lon="6.03296945312">
		<tag k="amenity" v="ferry_terminal" />
		<tag k="name" v="Folkestad ferjekai" />
		<tag k="ssr:stedsnr" v="641378" />
	</node>
	<node id="-93971" lat="61.9923361083" lon="6.59143334256">
		<tag k="highway" v="path" />
		<tag k="name" v="Gamlevegen" />
		<tag k="ssr:stedsnr" v="638627" />
	</node>
	<node id="-92428" lat="62.1177694413" lon="5.86360834159">
		<tag k="ford" v="yes" />
		<tag k="name" v="Vadet" />
		<tag k="place" v="locality" />
		<tag k="ssr:stedsnr" v="697324" />
	</node>
	<node id="-91403" lat="61.9951472238" lon="6.36081388065">
		<tag k="bridge" v="yes" />
		<tag k="layer" v="1" />
		<tag k="name" v="Osdalsbrua" />
		<tag k="ssr:stedsnr" v="148731" />
	</node>
	<node id="-92424" lat="62.0102000016" lon="5.8439444418">
		<tag k="bridge" v="yes" />
		<tag k="layer" v="1" />
		<tag k="name" v="Åmelfotbrua" />
		<tag k="ssr:stedsnr" v="694704" />
	</node>
	<node id="-91395" lat="62.1800138921" lon="5.92473611495">
		<tag k="bridge" v="yes" />
		<tag k="layer" v="1" />
		<tag k="name" v="Gjøsdalsbrua" />
		<tag k="ssr:stedsnr" v="270745" />
	</node>
	<node id="-93954" lat="62.2199583299" lon="5.94008056255">
		<tag k="layer" v="-1" />
		<tag k="name" v="Berknestunnelen" />
		<tag k="ssr:stedsnr" v="637708" />
		<tag k="tunnel" v="yes" />
	</node>
	<node id="-93950" lat="62.0746666648" lon="6.20881389242">
		<tag k="bridge" v="yes" />
		<tag k="layer" v="1" />
		<tag k="name" v="Naustvegbrua" />
		<tag k="ssr:stedsnr" v="633786" />
	</node>
	<node id="-93949" lat="62.0578444402" lon="6.08597222456">
		<tag k="bridge" v="yes" />
		<tag k="layer" v="1" />
		<tag k="name" v="Botnabrua" />
		<tag k="ssr:stedsnr" v="633785" />
	</node>
	<node id="-93948" lat="62.0361527795" lon="6.41287778589">
		<tag k="bridge" v="yes" />
		<tag k="layer" v="1" />
		<tag k="name" v="Kalvassbrua" />
		<tag k="ssr:stedsnr" v="633741" />
	</node>
	<node id="-93426" lat="62.1345250008" lon="5.97178888635">
		<tag k="highway" v="path" />
		<tag k="name" v="Raudevegen" />
		<tag k="ssr:stedsnr" v="346549" />
	</node>
	<node id="-92907" lat="62.091827776" lon="6.08040832547">
		<tag k="highway" v="path" />
		<tag k="name" v="Stigen" />
		<tag k="ssr:stedsnr" v="43169" />
	</node>
	<node id="-92540" lat="61.9330525586" lon="6.52237918443">
		<tag k="bridge" v="yes" />
		<tag k="layer" v="1" />
		<tag k="name" v="Øyebakken" />
		<tag k="ssr:stedsnr" v="897679" />
	</node>
	<node id="-93413" lat="62.0689388923" lon="6.17970277233">
		<tag k="highway" v="path" />
		<tag k="name" v="Stigen" />
		<tag k="ssr:stedsnr" v="346328" />
	</node>
	<node id="-92367" lat="62.1452972194" lon="6.06184167213">
		<tag k="bridge" v="yes" />
		<tag k="layer" v="1" />
		<tag k="name" v="Voldsbrua" />
		<tag k="ssr:stedsnr" v="876771" />
	</node>
	<node id="-92366" lat="61.9995138863" lon="6.05816388645">
		<tag k="bridge" v="yes" />
		<tag k="layer" v="1" />
		<tag k="name" v="Øygardsbrua" />
		<tag k="ssr:stedsnr" v="876669" />
	</node>
	<node id="-93389" lat="62.1796888883" lon="6.0134388898">
		<tag k="ford" v="yes" />
		<tag k="name" v="Ellingsbruvadet" />
		<tag k="place" v="locality" />
		<tag k="ssr:stedsnr" v="338022" />
	</node>
	<node id="-92871" lat="62.1554277808" lon="6.08573611415">
		<tag k="highway" v="path" />
		<tag k="name" v="Sætrevegen" />
		<tag k="ssr:stedsnr" v="35012" />
	</node>
	<node id="-91837" lat="61.9846555513" lon="6.04286110479">
		<tag k="bridge" v="yes" />
		<tag k="layer" v="1" />
		<tag k="name" v="Langedalsbrua" />
		<tag k="ssr:stedsnr" v="347569" />
	</node>
	<node id="-93883" lat="61.991222221" lon="6.53834167577">
		<tag k="bridge" v="yes" />
		<tag k="layer" v="1" />
		<tag k="name" v="Gausemel" />
		<tag k="ssr:stedsnr" v="593658" />
	</node>
	<node id="-93882" lat="61.9643055593" lon="6.52109999573">
		<tag k="bridge" v="yes" />
		<tag k="layer" v="1" />
		<tag k="name" v="Svor" />
		<tag k="ssr:stedsnr" v="593655" />
	</node>
	<node id="-93362" lat="62.0813000019" lon="5.91320000409">
		<tag k="bridge" v="yes" />
		<tag k="layer" v="1" />
		<tag k="name" v="Kroknesbrua" />
		<tag k="ssr:stedsnr" v="330765" />
	</node>
	<node id="-93361" lat="62.0957361114" lon="6.20888056341">
		<tag k="bridge" v="yes" />
		<tag k="layer" v="1" />
		<tag k="name" v="Ullalandsbrua" />
		<tag k="ssr:stedsnr" v="330745" />
	</node>
	<node id="-92839" lat="62.1083555584" lon="6.05233334208">
		<tag k="bridge" v="yes" />
		<tag k="layer" v="1" />
		<tag k="name" v="Krumsvikbrua" />
		<tag k="ssr:stedsnr" v="27677" />
	</node>
	<node id="-92838" lat="62.098155558" lon="6.19485832626">
		<tag k="bridge" v="yes" />
		<tag k="layer" v="1" />
		<tag k="name" v="Espenakkbrua" />
		<tag k="ssr:stedsnr" v="27668" />
	</node>
	<node id="-91286" lat="62.0953416676" lon="6.08386111505">
		<tag k="bridge" v="yes" />
		<tag k="layer" v="1" />
		<tag k="name" v="Mekbrua" />
		<tag k="ssr:stedsnr" v="88607" />
	</node>
	<node id="-93842" lat="62.1150416644" lon="6.12849166238">
		<tag k="highway" v="path" />
		<tag k="name" v="Gjølstigen" />
		<tag k="ssr:stedsnr" v="589097" />
	</node>
	<node id="-93308" lat="62.1420083298" lon="6.08893333438">
		<tag k="bridge" v="yes" />
		<tag k="layer" v="1" />
		<tag k="name" v="Rotevassporten" />
		<tag k="ssr:stedsnr" v="209764" />
	</node>
	<node id="-91659" lat="62.1648583376" lon="5.94244166714">
		<tag k="amenity" v="ferry_terminal" />
		<tag k="name" v="Lauvstad ferjekai" />
		<tag k="ssr:stedsnr" v="277302" />
	</node>
	<node id="-91746" lat="62.1433888852" lon="5.87149722033">
		<tag k="highway" v="path" />
		<tag k="name" v="Hornvegråsa" />
		<tag k="ssr:stedsnr" v="468865" />
	</node>
	<node id="-93785" lat="62.1838722246" lon="5.91680833247">
		<tag k="bridge" v="yes" />
		<tag k="layer" v="1" />
		<tag k="name" v="Tilsetbrua" />
		<tag k="ssr:stedsnr" v="573748" />
	</node>
	<node id="-93784" lat="62.1693250005" lon="5.93098056448">
		<tag k="bridge" v="yes" />
		<tag k="layer" v="1" />
		<tag k="name" v="Ulvestadbrua" />
		<tag k="ssr:stedsnr" v="573745" />
	</node>
	<node id="-93783" lat="62.0796472248" lon="6.51055554785">
		<tag k="bridge" v="yes" />
		<tag k="layer" v="1" />
		<tag k="name" v="Raudstadbrua" />
		<tag k="ssr:stedsnr" v="573597" />
	</node>
	<node id="-93782" lat="62.094069441" lon="5.92082222768">
		<tag k="bridge" v="yes" />
		<tag k="layer" v="1" />
		<tag k="name" v="Transelvbrua" />
		<tag k="ssr:stedsnr" v="573719" />
	</node>
	<node id="-92754" lat="62.1400749984" lon="6.07502222023">
		<tag k="man_made" v="quay" />
		<tag k="name" v="Garvarbryggja" />
		<tag k="place" v="locality" />
		<tag k="ssr:stedsnr" v="885011" />
	</node>
	<node id="-94285" lat="62.0664611157" lon="6.06819167574">
		<tag k="bridge" v="yes" />
		<tag k="layer" v="1" />
		<tag k="name" v="Straumshamnbrua" />
		<tag k="ssr:stedsnr" v="816697" />
	</node>
	<node id="-94284" lat="62.1460444419" lon="6.0902805506">
		<tag k="bridge" v="yes" />
		<tag k="layer" v="1" />
		<tag k="name" v="Torvsælda" />
		<tag k="ssr:stedsnr" v="816779" />
	</node>
	<node id="-93451" lat="62.1282722252" lon="6.5466194423">
		<tag k="ford" v="yes" />
		<tag k="name" v="Bjønnevadet" />
		<tag k="place" v="locality" />
		<tag k="ssr:stedsnr" v="348797" />
	</node>
	<node id="-91198" lat="61.9957444426" lon="5.86903888418">
		<tag k="highway" v="path" />
		<tag k="name" v="Flogstigen" />
		<tag k="ssr:stedsnr" v="225387" />
	</node>
	<node id="-91708" lat="62.1096527769" lon="5.92654166398">
		<tag k="highway" v="path" />
		<tag k="name" v="Stigen" />
		<tag k="ssr:stedsnr" v="467121" />
	</node>
	<node id="-91703" lat="61.9401416645" lon="6.49281943558">
		<tag k="bridge" v="yes" />
		<tag k="layer" v="1" />
		<tag k="name" v="Kjøs" />
		<tag k="ssr:stedsnr" v="290657" />
	</node>
	<node id="-91702" lat="62.003302775" lon="6.65522500914">
		<tag k="bridge" v="yes" />
		<tag k="layer" v="1" />
		<tag k="name" v="Sva" />
		<tag k="ssr:stedsnr" v="290656" />
	</node>
	<node id="-93228" lat="62.1068999997" lon="6.01723888672">
		<tag k="ford" v="yes" />
		<tag k="name" v="Tvervadet" />
		<tag k="place" v="locality" />
		<tag k="ssr:stedsnr" v="164439" />
	</node>
	<node id="-93735" lat="61.9697305559" lon="6.5239777787">
		<tag k="bridge" v="yes" />
		<tag k="layer" v="1" />
		<tag k="name" v="Grodås" />
		<tag k="ssr:stedsnr" v="533724" />
	</node>
	<node id="-91173" lat="62.1613472187" lon="5.91916388096">
		<tag k="fixme" v="consider highway=path" />
		<tag k="highway" v="track" />
		<tag k="name" v="Dalevegen" />
		<tag k="ssr:stedsnr" v="225053" />
	</node>
	<node id="-92685" lat="62.0044277739" lon="5.84871665979">
		<tag k="bridge" v="yes" />
		<tag k="layer" v="1" />
		<tag k="name" v="Steinsvikbrua" />
		<tag k="ssr:stedsnr" v="937751" />
	</node>
	<node id="-92683" lat="62.15570556" lon="6.08121389078">
		<tag k="highway" v="path" />
		<tag k="name" v="Snøydevegen" />
		<tag k="ssr:stedsnr" v="824016" />
	</node>
	<node id="-93186" lat="62.1916166641" lon="5.86425000488">
		<tag k="ford" v="yes" />
		<tag k="name" v="Dyrevadet" />
		<tag k="place" v="locality" />
		<tag k="ssr:stedsnr" v="151821" />
	</node>
</osm>
