<?xml version="1.0" encoding="UTF-8"?>
<osm generator="osmapis" version="0.6">
	<node id="-12798" lat="62.0729777744" lon="6.07470556423">
		<tag k="name" v="Åshammaren" />
		<tag k="natural" v="cape" />
		<tag k="ssr:stedsnr" v="435951" />
	</node>
	<node id="-10747" lat="62.2219833338" lon="5.880433331">
		<tag k="name" v="Ausefluda" />
		<tag k="natural" v="shoal" />
		<tag k="place" v="locality" />
		<tag k="ssr:stedsnr" v="294341" />
	</node>
	<node id="-12793" lat="62.108061115" lon="6.12506944332">
		<tag k="alt_name" v="Løvikneset" />
		<tag k="name" v="Løviknes" />
		<tag k="natural" v="cape" />
		<tag k="ssr:stedsnr" v="435894" />
	</node>
	<node id="-13304" lat="61.9367861102" lon="6.50697500794">
		<tag k="name" v="Litleholmen" />
		<tag k="place" v="islet" />
		<tag k="ssr:stedsnr" v="760303" />
	</node>
	<node id="-12272" lat="62.2170222251" lon="5.93811110608">
		<tag k="name" v="Berknesvika" />
		<tag k="natural" v="bay" />
		<tag k="ssr:stedsnr" v="104653" />
	</node>
	<node id="-12782" lat="62.1322277793" lon="5.94047499801">
		<tag k="name" v="Skrubbeneset" />
		<tag k="natural" v="cape" />
		<tag k="ssr:stedsnr" v="435762" />
	</node>
	<node id="-12259" lat="62.1340861153" lon="5.93709443462">
		<tag k="name" v="Hjellen" />
		<tag k="natural" v="cape" />
		<tag k="ssr:stedsnr" v="104514" />
	</node>
	<node id="-12770" lat="62.1191555519" lon="6.55262776983">
		<tag k="name" v="Revet" />
		<tag k="natural" v="shoal" />
		<tag k="place" v="locality" />
		<tag k="ssr:stedsnr" v="416788" />
	</node>
	<node id="-12768" lat="62.1073222186" lon="6.54361944717">
		<tag k="name" v="Storegjølneset" />
		<tag k="natural" v="cape" />
		<tag k="ssr:stedsnr" v="409977" />
	</node>
	<node id="-10832" lat="62.1815333366" lon="5.99206388161">
		<tag k="name" v="Åreneset" />
		<tag k="natural" v="cape" />
		<tag k="ssr:stedsnr" v="460966" />
	</node>
	<node id="-10703" lat="62.1236111105" lon="5.94539444604">
		<tag k="name" v="Køyleneset" />
		<tag k="natural" v="cape" />
		<tag k="ssr:stedsnr" v="286519" />
	</node>
	<node id="-10702" lat="62.0977972216" lon="6.17911110669">
		<tag k="alt_name" v="Hjartåbogen" />
		<tag k="name" v="Hjartåbugen" />
		<tag k="natural" v="bay" />
		<tag k="ssr:stedsnr" v="286518" />
	</node>
	<node id="-11211" lat="62.1462583301" lon="5.94126389224">
		<tag k="name" v="Kvanngardsneset" />
		<tag k="natural" v="cape" />
		<tag k="ssr:stedsnr" v="678785" />
	</node>
	<node id="-11720" lat="62.0699388884" lon="6.29986666877">
		<tag k="name" v="Kjeneset" />
		<tag k="natural" v="cape" />
		<tag k="ssr:stedsnr" v="769705" />
	</node>
	<node id="-13255" lat="62.2229277758" lon="5.87933333812">
		<tag k="fixme" v="consider seamark:type=rock or natural=shoal" />
		<tag k="name" v="Ausa" />
		<tag k="place" v="islet" />
		<tag k="ssr:stedsnr" v="739174" />
	</node>
	<node id="-13254" lat="62.2052499994" lon="5.96355277316">
		<tag k="name" v="Berkvika" />
		<tag k="natural" v="bay" />
		<tag k="ssr:stedsnr" v="739081" />
	</node>
	<node id="-11205" lat="62.2007388854" lon="5.88412777295">
		<tag k="name" v="Svinvikneset" />
		<tag k="natural" v="cape" />
		<tag k="ssr:stedsnr" v="678099" />
	</node>
	<node id="-12227" lat="62.0592944475" lon="6.31051666438">
		<tag k="name" v="Holmen" />
		<tag k="place" v="islet" />
		<tag k="ssr:stedsnr" v="96937" />
	</node>
	<node id="-12736" lat="62.1073805591" lon="6.05898888033">
		<tag k="name" v="Krumsvika" />
		<tag k="natural" v="bay" />
		<tag k="ssr:stedsnr" v="407739" />
	</node>
	<node id="-10683" lat="62.0999333359" lon="6.13981110361">
		<tag k="alt_name" v="Vadsteinvikane" />
		<tag k="name" v="Vassteinvikane" />
		<tag k="natural" v="bay" />
		<tag k="ssr:stedsnr" v="286101" />
	</node>
	<node id="-10655" lat="62.116977775" lon="6.55852777018">
		<tag k="name" v="Instevika" />
		<tag k="natural" v="bay" />
		<tag k="ssr:stedsnr" v="166224" />
	</node>
	<node id="-13240" lat="62.1352527738" lon="5.9635083254">
		<tag k="name" v="Nautvikneset" />
		<tag k="natural" v="cape" />
		<tag k="ssr:stedsnr" v="738828" />
	</node>
	<node id="-13239" lat="62.1396416658" lon="6.00925000293">
		<tag k="name" v="Espedalsneset" />
		<tag k="natural" v="cape" />
		<tag k="ssr:stedsnr" v="738827" />
	</node>
	<node id="-11190" lat="62.0845750023" lon="6.27454444579">
		<tag k="fixme" v="consider seamark:type=rock or natural=shoal" />
		<tag k="name" v="Andaskjæret" />
		<tag k="place" v="islet" />
		<tag k="ssr:stedsnr" v="467361" />
	</node>
	<node id="-11189" lat="62.0539305564" lon="5.91823332587">
		<tag k="name" v="Dalsstranda" />
		<tag k="natural" v="beach" />
		<tag k="old_name" v="Dals-stranda" />
		<tag k="place" v="locality" />
		<tag k="ssr:stedsnr" v="467315" />
	</node>
	<node id="-10676" lat="62.2035249988" lon="5.95699444296">
		<tag k="name" v="Litlsstranda" />
		<tag k="natural" v="beach" />
		<tag k="place" v="locality" />
		<tag k="ssr:stedsnr" v="285711" />
	</node>
	<node id="-13233" lat="62.131308331" lon="6.07535276867">
		<tag k="name" v="Andaneset" />
		<tag k="natural" v="cape" />
		<tag k="ssr:stedsnr" v="738765" />
	</node>
	<node id="-12375" lat="62.2113166649" lon="5.95053611545">
		<tag k="name" v="Lidvika" />
		<tag k="natural" v="bay" />
		<tag k="ssr:stedsnr" v="158297" />
	</node>
	<node id="-11179" lat="62.1575277796" lon="6.59705000584">
		<tag k="name" v="Heggnesvika" />
		<tag k="natural" v="bay" />
		<tag k="ssr:stedsnr" v="658776" />
	</node>
	<node id="-10908" lat="62.1986555543" lon="5.89538332763">
		<tag k="name" v="Ridneset" />
		<tag k="natural" v="cape" />
		<tag k="ssr:stedsnr" v="468782" />
	</node>
	<node id="-11096" lat="62.0772861089" lon="6.19703333531">
		<tag k="name" v="Bøstranda" />
		<tag k="natural" v="beach" />
		<tag k="place" v="locality" />
		<tag k="ssr:stedsnr" v="406415" />
	</node>
	<node id="-10822" lat="61.9380250044" lon="6.50581667024">
		<tag k="name" v="Båtevikneset" />
		<tag k="natural" v="cape" />
		<tag k="ssr:stedsnr" v="275273" />
	</node>
	<node id="-11680" lat="62.0819833317" lon="6.17275277103">
		<tag k="fixme" v="multiple name tags, choose one and add the other to alt_name" />
		<tag k="name" v="Hammaren;Neshamaren" />
		<tag k="natural" v="cape" />
		<tag k="ssr:stedsnr" v="711183" />
	</node>
	<node id="-12703" lat="62.0862027781" lon="6.24119445055">
		<tag k="name" v="Kallebugen" />
		<tag k="natural" v="bay" />
		<tag k="ssr:stedsnr" v="406392" />
	</node>
	<node id="-10653" lat="62.1228222207" lon="6.58194443638">
		<tag k="name" v="Engevika" />
		<tag k="natural" v="bay" />
		<tag k="ssr:stedsnr" v="166214" />
	</node>
	<node id="-10652" lat="62.0786000028" lon="6.31295556115">
		<tag k="name" v="Bugen" />
		<tag k="natural" v="bay" />
		<tag k="ssr:stedsnr" v="165960" />
	</node>
	<node id="-13210" lat="62.1433888925" lon="6.57919443863">
		<tag k="name" v="Storeremvika" />
		<tag k="natural" v="bay" />
		<tag k="ssr:stedsnr" v="650979" />
	</node>
	<node id="-10649" lat="62.0719444415" lon="5.93408610221">
		<tag k="name" v="Kobbevika" />
		<tag k="natural" v="bay" />
		<tag k="ssr:stedsnr" v="165913" />
	</node>
	<node id="-10646" lat="62.1408388894" lon="6.60959722189">
		<tag k="name" v="Uraneset" />
		<tag k="natural" v="cape" />
		<tag k="ssr:stedsnr" v="165905" />
	</node>
	<node id="-13205" lat="62.1408472216" lon="5.93292776921">
		<tag k="name" v="Stranda" />
		<tag k="natural" v="beach" />
		<tag k="place" v="locality" />
		<tag k="ssr:stedsnr" v="650650" />
	</node>
	<node id="-12180" lat="62.2255583366" lon="5.88362500815">
		<tag k="alt_name" v="Båtvika" />
		<tag k="name" v="Batvika" />
		<tag k="natural" v="bay" />
		<tag k="ssr:stedsnr" v="72175" />
	</node>
	<node id="-12270" lat="62.1378916661" lon="5.96447500529">
		<tag k="name" v="Kasteneset" />
		<tag k="natural" v="cape" />
		<tag k="ssr:stedsnr" v="104627" />
	</node>
	<node id="-11334" lat="62.1069694475" lon="6.06536944341">
		<tag k="name" v="Krumsvikneset" />
		<tag k="natural" v="cape" />
		<tag k="ssr:stedsnr" v="556874" />
	</node>
	<node id="-12175" lat="62.2102027764" lon="5.85944444111">
		<tag k="bay" v="fjord" />
		<tag k="name" v="Voldsfjorden" />
		<tag k="natural" v="bay" />
		<tag k="ssr:stedsnr" v="72044" />
	</node>
	<node id="-10634" lat="62.0760444413" lon="5.91535834152">
		<tag k="name" v="Selsvika" />
		<tag k="natural" v="bay" />
		<tag k="ssr:stedsnr" v="164370" />
	</node>
	<node id="-13516" lat="62.0433916668" lon="5.90425276854">
		<tag k="name" v="Tobbeneset" />
		<tag k="natural" v="cape" />
		<tag k="ssr:stedsnr" v="832363" />
	</node>
	<node id="-12167" lat="62.0818999976" lon="6.08076389028">
		<tag k="name" v="Årvikstranda" />
		<tag k="natural" v="beach" />
		<tag k="place" v="locality" />
		<tag k="ssr:stedsnr" v="71860" />
	</node>
	<node id="-11651" lat="62.2220027773" lon="5.93953610905">
		<tag k="alt_name" v="Holdvika" />
		<tag k="name" v="Holvika" />
		<tag k="natural" v="bay" />
		<tag k="ssr:stedsnr" v="893639" />
	</node>
	<node id="-13697" lat="62.0667085953" lon="6.06824055051">
		<tag k="name" v="Kilsstraumen" />
		<tag k="natural" v="strait" />
		<tag k="ssr:stedsnr" v="1078250" />
	</node>
	<node id="-10617" lat="62.0768722187" lon="6.30495834203">
		<tag k="name" v="Hølen" />
		<tag k="natural" v="bay" />
		<tag k="ssr:stedsnr" v="162721" />
	</node>
	<node id="-11640" lat="62.0141500037" lon="5.86279443899">
		<tag k="name" v="Brandeneset" />
		<tag k="natural" v="cape" />
		<tag k="ssr:stedsnr" v="893476" />
	</node>
	<node id="-10615" lat="62.0581805598" lon="6.08394165797">
		<tag k="name" v="Sagneset" />
		<tag k="natural" v="cape" />
		<tag k="ssr:stedsnr" v="162716" />
	</node>
	<node id="-13459" lat="61.9402527757" lon="6.49579999744">
		<tag k="name" v="Plassaneset" />
		<tag k="natural" v="cape" />
		<tag k="ssr:stedsnr" v="821286" />
	</node>
	<node id="-11626" lat="62.0048111132" lon="5.8475277706">
		<tag k="name" v="Vaulebugen" />
		<tag k="natural" v="bay" />
		<tag k="ssr:stedsnr" v="893199" />
	</node>
	<node id="-12649" lat="62.2306166674" lon="5.88362221744">
		<tag k="alt_name" v="Litleøya" />
		<tag k="name" v="Litløyna" />
		<tag k="natural" v="cape" />
		<tag k="ssr:stedsnr" v="375131" />
	</node>
	<node id="-11110" lat="62.1163333292" lon="5.94433054782">
		<tag k="name" v="Holehalsen" />
		<tag k="natural" v="cape" />
		<tag k="ssr:stedsnr" v="407565" />
	</node>
	<node id="-13669" lat="62.1798305511" lon="6.57500832816">
		<tag k="name" v="Gallsteinneset" />
		<tag k="natural" v="cape" />
		<tag k="ssr:stedsnr" v="962771" />
	</node>
	<node id="-10595" lat="62.1401555541" lon="5.99742221818">
		<tag k="name" v="Kornbergstranda" />
		<tag k="natural" v="beach" />
		<tag k="place" v="locality" />
		<tag k="ssr:stedsnr" v="156003" />
	</node>
	<node id="-11618" lat="62.0704722235" lon="6.0899249999">
		<tag k="name" v="Leirvikneset" />
		<tag k="natural" v="cape" />
		<tag k="ssr:stedsnr" v="893103" />
	</node>
	<node id="-12129" lat="62.1604972217" lon="6.59207499427">
		<tag k="name" v="Heggneset" />
		<tag k="natural" v="cape" />
		<tag k="ssr:stedsnr" v="44977" />
	</node>
	<node id="-13152" lat="62.0705861072" lon="6.08941666402">
		<tag k="name" v="Goleneset" />
		<tag k="natural" v="cape" />
		<tag k="ssr:stedsnr" v="647702" />
	</node>
	<node id="-13151" lat="62.0940055531" lon="6.16327499774">
		<tag k="name" v="Kråkevika" />
		<tag k="natural" v="bay" />
		<tag k="ssr:stedsnr" v="647033" />
	</node>
	<node id="-11102" lat="62.0057694458" lon="5.84578332661">
		<tag k="name" v="Vaulestranda" />
		<tag k="natural" v="beach" />
		<tag k="place" v="locality" />
		<tag k="ssr:stedsnr" v="407214" />
	</node>
	<node id="-13660" lat="62.1186833353" lon="6.56026110412">
		<tag k="name" v="Ytstevika" />
		<tag k="natural" v="bay" />
		<tag k="ssr:stedsnr" v="955202" />
	</node>
	<node id="-11608" lat="62.0875166693" lon="6.24806943478">
		<tag k="name" v="Djupebogen" />
		<tag k="natural" v="bay" />
		<tag k="ssr:stedsnr" v="891629" />
	</node>
	<node id="-11095" lat="62.081105554" lon="6.22470554985">
		<tag k="fixme" v="consider seamark:type=rock or natural=shoal" />
		<tag k="name" v="Vikaskjæret" />
		<tag k="place" v="islet" />
		<tag k="ssr:stedsnr" v="405722" />
	</node>
	<node id="-11606" lat="62.0797055598" lon="6.16775000034">
		<tag k="name" v="Lokkviene" />
		<tag k="natural" v="cape" />
		<tag k="ssr:stedsnr" v="890730" />
	</node>
	<node id="-11605" lat="62.0592749975" lon="6.31318054802">
		<tag k="name" v="Holsvika" />
		<tag k="natural" v="bay" />
		<tag k="ssr:stedsnr" v="890726" />
	</node>
	<node id="-13651" lat="62.0479416701" lon="6.03847499604">
		<tag k="name" v="Kilspollen" />
		<tag k="natural" v="shoal" />
		<tag k="place" v="locality" />
		<tag k="ssr:stedsnr" v="954911" />
	</node>
	<node id="-12108" lat="62.0999222251" lon="6.08119999159">
		<tag k="fixme" v="consider seamark:type=rock or natural=shoal" />
		<tag k="name" v="Skjervikskjeret" />
		<tag k="place" v="islet" />
		<tag k="ssr:stedsnr" v="43692" />
	</node>
	<node id="-11079" lat="62.2010694405" lon="5.85356666215">
		<tag k="name" v="Nesja" />
		<tag k="natural" v="cape" />
		<tag k="ssr:stedsnr" v="394806" />
	</node>
	<node id="-12600" lat="62.0949388844" lon="6.08722499174">
		<tag k="name" v="Skutvika" />
		<tag k="natural" v="bay" />
		<tag k="ssr:stedsnr" v="346726" />
	</node>
	<node id="-10551" lat="62.0834500045" lon="6.18711389089">
		<tag k="name" v="Høydalsneset" />
		<tag k="natural" v="cape" />
		<tag k="ssr:stedsnr" v="132903" />
	</node>
	<node id="-12598" lat="62.1042916673" lon="6.07250833588">
		<tag k="name" v="Fantehamna" />
		<tag k="natural" v="bay" />
		<tag k="ssr:stedsnr" v="346715" />
	</node>
	<node id="-12079" lat="62.0788527779" lon="5.91473334036">
		<tag k="name" v="Aksnesbugen" />
		<tag k="natural" v="bay" />
		<tag k="ssr:stedsnr" v="43274" />
	</node>
	<node id="-13101" lat="62.0631694421" lon="6.05617777179">
		<tag k="name" v="Småvikane" />
		<tag k="natural" v="cape" />
		<tag k="ssr:stedsnr" v="617880" />
	</node>
	<node id="-11051" lat="62.1800861151" lon="6.57775277201">
		<tag k="name" v="Gallsteinane" />
		<tag k="natural" v="beach" />
		<tag k="place" v="locality" />
		<tag k="ssr:stedsnr" v="374563" />
	</node>
	<node id="-13609" lat="62.0083611072" lon="5.84524999924">
		<tag k="name" v="Verpe" />
		<tag k="natural" v="bay" />
		<tag k="ssr:stedsnr" v="953385" />
	</node>
	<node id="-12581" lat="62.0670166626" lon="6.25687221476">
		<tag k="name" v="Stranda" />
		<tag k="natural" v="beach" />
		<tag k="place" v="locality" />
		<tag k="ssr:stedsnr" v="346279" />
	</node>
	<node id="-11398" lat="62.1074805525" lon="5.9362416676">
		<tag k="name" v="Bugen" />
		<tag k="natural" v="bay" />
		<tag k="ssr:stedsnr" v="710519" />
	</node>
	<node id="-11042" lat="62.1990138872" lon="5.89488333485">
		<tag k="name" v="Riseneset" />
		<tag k="natural" v="cape" />
		<tag k="ssr:stedsnr" v="374105" />
	</node>
	<node id="-13601" lat="62.0793194448" lon="6.23008888551">
		<tag k="name" v="Angslaneset" />
		<tag k="natural" v="cape" />
		<tag k="ssr:stedsnr" v="952497" />
	</node>
	<node id="-13599" lat="62.0171222222" lon="5.866105553">
		<tag k="name" v="Steinsurstranda" />
		<tag k="natural" v="beach" />
		<tag k="place" v="locality" />
		<tag k="ssr:stedsnr" v="951743" />
	</node>
	<node id="-11547" lat="61.9361361118" lon="6.50840555771">
		<tag k="name" v="Storeholmen" />
		<tag k="place" v="islet" />
		<tag k="ssr:stedsnr" v="882259" />
	</node>
	<node id="-10522" lat="62.1735444433" lon="5.93407499852">
		<tag k="name" v="Torvika" />
		<tag k="natural" v="bay" />
		<tag k="ssr:stedsnr" v="96918" />
	</node>
	<node id="-13081" lat="62.0794833293" lon="6.23036944482">
		<tag k="alt_name" v="Vikaneset" />
		<tag k="name" v="Vikeneset" />
		<tag k="natural" v="cape" />
		<tag k="ssr:stedsnr" v="617653" />
	</node>
	<node id="-11908" lat="62.0591083335" lon="6.30319165875">
		<tag k="name" v="Djupvika" />
		<tag k="natural" v="bay" />
		<tag k="ssr:stedsnr" v="946943" />
	</node>
	<node id="-10518" lat="62.1988944441" lon="5.95388055101">
		<tag k="name" v="Volkilneset" />
		<tag k="natural" v="cape" />
		<tag k="ssr:stedsnr" v="96006" />
	</node>
	<node id="-12052" lat="62.0615527781" lon="5.92178055764">
		<tag k="name" v="Dalsvika" />
		<tag k="natural" v="bay" />
		<tag k="ssr:stedsnr" v="41688" />
	</node>
	<node id="-11026" lat="62.0799083318" lon="6.27156943706">
		<tag k="name" v="Skorneset" />
		<tag k="natural" v="cape" />
		<tag k="ssr:stedsnr" v="496641" />
	</node>
	<node id="-11790" lat="62.0912305581" lon="5.93140000364">
		<tag k="bay" v="fjord" />
		<tag k="name" v="Dalsfjorden" />
		<tag k="natural" v="bay" />
		<tag k="ssr:stedsnr" v="921738" />
	</node>
	<node id="-10509" lat="62.1586972245" lon="5.94963056017">
		<tag k="alt_name" v="Dysaodden" />
		<tag k="name" v="Døsaodden" />
		<tag k="natural" v="cape" />
		<tag k="ssr:stedsnr" v="254049" />
	</node>
	<node id="-13579" lat="62.1051861131" lon="5.93875277114">
		<tag k="name" v="Løvikneset" />
		<tag k="natural" v="cape" />
		<tag k="ssr:stedsnr" v="860886" />
	</node>
	<node id="-13063" lat="62.2084305529" lon="5.94878610713">
		<tag k="name" v="Lidaholmen" />
		<tag k="place" v="islet" />
		<tag k="ssr:stedsnr" v="617117" />
	</node>
	<node id="-10625" lat="62.2220777741" lon="5.93010555051">
		<tag k="name" v="Jukelen" />
		<tag k="natural" v="shoal" />
		<tag k="place" v="locality" />
		<tag k="ssr:stedsnr" v="280221" />
	</node>
	<node id="-11522" lat="62.2233750015" lon="5.94883610271">
		<tag k="name" v="Flåskjervika" />
		<tag k="natural" v="bay" />
		<tag k="ssr:stedsnr" v="650710" />
	</node>
	<node id="-11392" lat="62.0654472247" lon="5.89790833774">
		<tag k="name" v="Floteneset" />
		<tag k="natural" v="cape" />
		<tag k="ssr:stedsnr" v="710332" />
	</node>
	<node id="-11518" lat="62.1528111112" lon="5.9477222274">
		<tag k="fixme" v="consider seamark:type=rock or natural=shoal" />
		<tag k="name" v="Skjæret" />
		<tag k="place" v="islet" />
		<tag k="ssr:stedsnr" v="650674" />
	</node>
	<node id="-13562" lat="62.1229055563" lon="6.57833056178">
		<tag k="name" v="Engeneset" />
		<tag k="natural" v="cape" />
		<tag k="ssr:stedsnr" v="841801" />
	</node>
	<node id="-13561" lat="62.15441111" lon="6.60108055247">
		<tag k="name" v="Miendneset" />
		<tag k="natural" v="cape" />
		<tag k="ssr:stedsnr" v="841778" />
	</node>
	<node id="-10997" lat="62.095347226" lon="6.16598889345">
		<tag k="name" v="Reitastranda" />
		<tag k="natural" v="beach" />
		<tag k="place" v="locality" />
		<tag k="ssr:stedsnr" v="347072" />
	</node>
	<node id="-10483" lat="62.0871250004" lon="6.16073611294">
		<tag k="bay" v="fjord" />
		<tag k="name" v="Austefjorden" />
		<tag k="natural" v="bay" />
		<tag k="ssr:stedsnr" v="253856" />
	</node>
	<node id="-13552" lat="62.0460472266" lon="6.03453889346">
		<tag k="name" v="Vikane" />
		<tag k="natural" v="bay" />
		<tag k="ssr:stedsnr" v="832974" />
	</node>
	<node id="-10991" lat="62.1899694415" lon="5.91133056258">
		<tag k="alt_name" v="Tilsetstranda" />
		<tag k="name" v="Telsetstranda" />
		<tag k="natural" v="beach" />
		<tag k="place" v="locality" />
		<tag k="ssr:stedsnr" v="346864" />
	</node>
	<node id="-11500" lat="62.0792388903" lon="6.28268333802">
		<tag k="name" v="Hamrefluda" />
		<tag k="natural" v="shoal" />
		<tag k="place" v="locality" />
		<tag k="ssr:stedsnr" v="647708" />
	</node>
	<node id="-12011" lat="61.93903056" lon="6.50397223062">
		<tag k="name" v="Båtevika" />
		<tag k="natural" v="bay" />
		<tag k="ssr:stedsnr" v="32262" />
	</node>
	<node id="-10986" lat="62.028275001" lon="5.87815833007">
		<tag k="name" v="Langeneset" />
		<tag k="natural" v="cape" />
		<tag k="ssr:stedsnr" v="346268" />
	</node>
	<node id="-13032" lat="62.1864583328" lon="5.91584167316">
		<tag k="name" v="Naustvika" />
		<tag k="natural" v="bay" />
		<tag k="ssr:stedsnr" v="589896" />
	</node>
	<node id="-10982" lat="62.1217444472" lon="6.0308611163">
		<tag k="name" v="Børneset" />
		<tag k="natural" v="cape" />
		<tag k="ssr:stedsnr" v="346566" />
	</node>
	<node id="-10978" lat="62.0156138908" lon="5.86461943972">
		<tag k="name" v="Illurnesa" />
		<tag k="natural" v="cape" />
		<tag k="ssr:stedsnr" v="346502" />
	</node>
	<node id="-10465" lat="62.0756388859" lon="6.25745554723">
		<tag k="name" v="Årsetøya" />
		<tag k="place" v="islet" />
		<tag k="ssr:stedsnr" v="253652" />
	</node>
	<node id="-11472" lat="62.2248444433" lon="5.93775276829">
		<tag k="name" v="Vindfarholmen" />
		<tag k="place" v="islet" />
		<tag k="ssr:stedsnr" v="617207" />
	</node>
	<node id="-12507" lat="62.1468611086" lon="6.58011944882">
		<tag k="name" v="Skarvhammaren" />
		<tag k="natural" v="cape" />
		<tag k="ssr:stedsnr" v="314597" />
	</node>
	<node id="-13018" lat="62.1309027752" lon="5.94128612079">
		<tag k="name" v="Hagardsneset" />
		<tag k="natural" v="cape" />
		<tag k="ssr:stedsnr" v="589498" />
	</node>
	<node id="-10457" lat="62.1878888886" lon="5.9153472135">
		<tag k="alt_name" v="Løeneset" />
		<tag k="name" v="Lødeneset" />
		<tag k="natural" v="cape" />
		<tag k="ssr:stedsnr" v="253128" />
	</node>
	<node id="-10456" lat="62.2027472186" lon="5.85335278654">
		<tag k="name" v="Furneset" />
		<tag k="natural" v="cape" />
		<tag k="ssr:stedsnr" v="253081" />
	</node>
	<node id="-12503" lat="62.0247916665" lon="5.8739777765">
		<tag k="name" v="Furneset" />
		<tag k="natural" v="cape" />
		<tag k="ssr:stedsnr" v="314731" />
	</node>
	<node id="-13012" lat="62.0906583343" lon="6.08959445335">
		<tag k="name" v="Mekneset" />
		<tag k="natural" v="cape" />
		<tag k="ssr:stedsnr" v="589203" />
	</node>
	<node id="-11985" lat="62.1184250044" lon="6.55709444059">
		<tag k="name" v="Kalnes" />
		<tag k="natural" v="cape" />
		<tag k="ssr:stedsnr" v="11670" />
	</node>
	<node id="-12496" lat="62.2162194408" lon="5.93373889582">
		<tag k="name" v="Niseneset" />
		<tag k="natural" v="cape" />
		<tag k="ssr:stedsnr" v="314075" />
	</node>
	<node id="-10616" lat="62.0676666703" lon="6.31429444271">
		<tag k="name" v="Trosvika" />
		<tag k="natural" v="bay" />
		<tag k="ssr:stedsnr" v="162719" />
	</node>
	<node id="-11468" lat="62.1244833321" lon="6.59571666101">
		<tag k="name" v="Årvikneset" />
		<tag k="natural" v="cape" />
		<tag k="ssr:stedsnr" v="719783" />
	</node>
	<node id="-12578" lat="62.0225833336" lon="5.85120555532">
		<tag k="name" v="Åneset" />
		<tag k="natural" v="cape" />
		<tag k="ssr:stedsnr" v="346340" />
	</node>
	<node id="-11464" lat="62.1239722216" lon="6.54685832867">
		<tag k="alt_name" v="Kyrevika" />
		<tag k="name" v="Kyrivika" />
		<tag k="natural" v="bay" />
		<tag k="ssr:stedsnr" v="591806" />
	</node>
	<node id="-10956" lat="62.1182222205" lon="6.09541110759">
		<tag k="alt_name" v="Greivsneset" />
		<tag k="fixme" v="multiple name tags, choose one and add the other to alt_name" />
		<tag k="name" v="Greifsneset;Greivsnes" />
		<tag k="natural" v="cape" />
		<tag k="ssr:stedsnr" v="314774" />
	</node>
	<node id="-10438" lat="62.0776277809" lon="6.15283055181">
		<tag k="name" v="Hesteneset" />
		<tag k="natural" v="cape" />
		<tag k="ssr:stedsnr" v="71933" />
	</node>
	<node id="-12995" lat="62.076813893" lon="6.22460277517">
		<tag k="name" v="Vikebugen" />
		<tag k="natural" v="bay" />
		<tag k="ssr:stedsnr" v="588484" />
	</node>
	<node id="-11467" lat="62.1236694469" lon="6.59177221268">
		<tag k="name" v="Leiravika" />
		<tag k="natural" v="bay" />
		<tag k="ssr:stedsnr" v="719780" />
	</node>
	<node id="-13503" lat="62.0676166651" lon="6.08786944341">
		<tag k="name" v="Skoravika" />
		<tag k="natural" v="bay" />
		<tag k="ssr:stedsnr" v="832071" />
	</node>
	<node id="-11454" lat="62.1706638895" lon="6.58259999383">
		<tag k="alt_name" v="Ytre Sævågvika" />
		<tag k="name" v="Ytstevikja" />
		<tag k="natural" v="bay" />
		<tag k="ssr:stedsnr" v="711984" />
	</node>
	<node id="-10427" lat="62.1659805534" lon="6.58827500807">
		<tag k="name" v="Indre Sævågvika" />
		<tag k="natural" v="bay" />
		<tag k="ssr:stedsnr" v="52773" />
	</node>
	<node id="-12985" lat="62.0705750002" lon="6.31834723164">
		<tag k="name" v="Engjabogen" />
		<tag k="natural" v="bay" />
		<tag k="ssr:stedsnr" v="586698" />
	</node>
	<node id="-13495" lat="62.0813333372" lon="6.24652222373">
		<tag k="name" v="Leitehammaren" />
		<tag k="natural" v="cape" />
		<tag k="ssr:stedsnr" v="830622" />
	</node>
	<node id="-13493" lat="62.1182999967" lon="5.97533333465">
		<tag k="name" v="Nautvikstranda" />
		<tag k="natural" v="beach" />
		<tag k="place" v="locality" />
		<tag k="ssr:stedsnr" v="830087" />
	</node>
	<node id="-10420" lat="62.0869638851" lon="6.21813611881">
		<tag k="name" v="Hunneset" />
		<tag k="natural" v="cape" />
		<tag k="ssr:stedsnr" v="41701" />
	</node>
	<node id="-13491" lat="62.1203083289" lon="5.94281944251">
		<tag k="fixme" v="multiple name tags, choose one and add the other to alt_name" />
		<tag k="name" v="Dravlausvika;Vikabegen" />
		<tag k="natural" v="bay" />
		<tag k="ssr:stedsnr" v="828470" />
	</node>
	<node id="-11951" lat="62.2217305567" lon="5.93194721648">
		<tag k="name" v="Saltholmen" />
		<tag k="place" v="islet" />
		<tag k="ssr:stedsnr" v="10086" />
	</node>
	<node id="-11719" lat="62.1997388917" lon="5.89040555252">
		<tag k="name" v="Voldsneset" />
		<tag k="natural" v="cape" />
		<tag k="ssr:stedsnr" v="766877" />
	</node>
	<node id="-12455" lat="62.0533944415" lon="6.0497000048">
		<tag k="name" v="Kilspollen" />
		<tag k="natural" v="bay" />
		<tag k="ssr:stedsnr" v="193891" />
	</node>
	<node id="-13388" lat="62.2015583311" lon="5.9516333282">
		<tag k="fixme" v="multiple name tags, choose one and add the other to alt_name" />
		<tag k="name" v="Kolsneset;Kulsneset" />
		<tag k="natural" v="cape" />
		<tag k="ssr:stedsnr" v="799105" />
	</node>
	<node id="-11429" lat="62.0500222262" lon="5.88294444333">
		<tag k="name" v="Klubbeneset" />
		<tag k="natural" v="cape" />
		<tag k="ssr:stedsnr" v="589292" />
	</node>
	<node id="-10403" lat="62.0816749978" lon="6.2885250036">
		<tag k="name" v="Naustbugen" />
		<tag k="natural" v="bay" />
		<tag k="ssr:stedsnr" v="226382" />
	</node>
	<node id="-10352" lat="62.0647722258" lon="6.29290833464">
		<tag k="name" v="Follabugen" />
		<tag k="natural" v="bay" />
		<tag k="ssr:stedsnr" v="225303" />
	</node>
	<node id="-11932" lat="62.1964999987" lon="5.89698889177">
		<tag k="name" v="Sandvika" />
		<tag k="natural" v="bay" />
		<tag k="ssr:stedsnr" v="921108" />
	</node>
	<node id="-10907" lat="62.1985333309" lon="5.87577222093">
		<tag k="name" v="Litlestrand" />
		<tag k="natural" v="beach" />
		<tag k="place" v="locality" />
		<tag k="ssr:stedsnr" v="468780" />
	</node>
	<node id="-10394" lat="62.0709749988" lon="5.93349722477">
		<tag k="name" v="Bakkestranda" />
		<tag k="natural" v="beach" />
		<tag k="place" v="locality" />
		<tag k="ssr:stedsnr" v="225894" />
	</node>
	<node id="-10905" lat="62.2221305511" lon="5.93153610791">
		<tag k="fixme" v="consider seamark:type=rock or natural=shoal" />
		<tag k="name" v="Småskjera" />
		<tag k="place" v="islet" />
		<tag k="ssr:stedsnr" v="468648" />
	</node>
	<node id="-12440" lat="62.1011083324" lon="6.07835832892">
		<tag k="name" v="Mekstranda" />
		<tag k="natural" v="beach" />
		<tag k="place" v="locality" />
		<tag k="ssr:stedsnr" v="192894" />
	</node>
	<node id="-12439" lat="62.0973638915" lon="5.93081944307">
		<tag k="name" v="Lyngneset" />
		<tag k="natural" v="cape" />
		<tag k="ssr:stedsnr" v="192893" />
	</node>
	<node id="-10777" lat="62.2292138886" lon="5.89595556394">
		<tag k="name" v="Ellingsvika" />
		<tag k="natural" v="bay" />
		<tag k="ssr:stedsnr" v="254150" />
	</node>
	<node id="-12435" lat="62.141911111" lon="5.98170833582">
		<tag k="name" v="Rysteneset" />
		<tag k="natural" v="cape" />
		<tag k="ssr:stedsnr" v="192845" />
	</node>
	<node id="-11155" lat="62.21244167" lon="5.9457444522">
		<tag k="name" v="Kråkeneset" />
		<tag k="natural" v="cape" />
		<tag k="ssr:stedsnr" v="435110" />
	</node>
	<node id="-11919" lat="62.1445305571" lon="6.06237499244">
		<tag k="name" v="Vikeneset" />
		<tag k="natural" v="cape" />
		<tag k="ssr:stedsnr" v="885857" />
	</node>
	<node id="-11403" lat="62.1352166636" lon="5.96228055375">
		<tag k="name" v="Indreneset" />
		<tag k="natural" v="cape" />
		<tag k="ssr:stedsnr" v="710553" />
	</node>
	<node id="-13450" lat="62.0928111103" lon="5.92103333321">
		<tag k="name" v="Fossaøyra" />
		<tag k="natural" v="cape" />
		<tag k="ssr:stedsnr" v="817227" />
	</node>
	<node id="-10899" lat="62.1277166626" lon="5.94064722056">
		<tag k="name" v="Brudaneset" />
		<tag k="natural" v="cape" />
		<tag k="ssr:stedsnr" v="468477" />
	</node>
	<node id="-10376" lat="62.2205138913" lon="5.92990833148">
		<tag k="name" v="Taskå" />
		<tag k="natural" v="cape" />
		<tag k="ssr:stedsnr" v="225676" />
	</node>
	<node id="-12934" lat="62.1626833357" lon="6.02207222321">
		<tag k="name" v="Åseneset" />
		<tag k="natural" v="cape" />
		<tag k="ssr:stedsnr" v="557039" />
	</node>
	<node id="-10885" lat="62.0640944477" lon="6.05699722464">
		<tag k="name" v="Mjeltevikstranda" />
		<tag k="natural" v="beach" />
		<tag k="place" v="locality" />
		<tag k="ssr:stedsnr" v="468080" />
	</node>
	<node id="-12420" lat="62.1419111104" lon="6.58003611097">
		<tag k="name" v="Pløsevika" />
		<tag k="natural" v="bay" />
		<tag k="ssr:stedsnr" v="173796" />
	</node>
	<node id="-12419" lat="62.1359999965" lon="6.60892499621">
		<tag k="name" v="Holsvika" />
		<tag k="natural" v="bay" />
		<tag k="ssr:stedsnr" v="173769" />
	</node>
	<node id="-10369" lat="62.1335583376" lon="5.9655055617">
		<tag k="name" v="Nautvika" />
		<tag k="natural" v="bay" />
		<tag k="ssr:stedsnr" v="225556" />
	</node>
	<node id="-13440" lat="62.0633333344" lon="6.07955832658">
		<tag k="name" v="Botnavika" />
		<tag k="natural" v="bay" />
		<tag k="ssr:stedsnr" v="800933" />
	</node>
	<node id="-11390" lat="62.0671111091" lon="5.92811943654">
		<tag k="name" v="Feldavika" />
		<tag k="natural" v="bay" />
		<tag k="ssr:stedsnr" v="710302" />
	</node>
	<node id="-10694" lat="62.0392972239" lon="5.89565554797">
		<tag k="name" v="Litlenessanden" />
		<tag k="natural" v="beach" />
		<tag k="place" v="locality" />
		<tag k="ssr:stedsnr" v="286335" />
	</node>
	<node id="-11384" lat="62.0848999971" lon="6.08417222196">
		<tag k="name" v="Mekstranda" />
		<tag k="natural" v="beach" />
		<tag k="place" v="locality" />
		<tag k="ssr:stedsnr" v="710200" />
	</node>
	<node id="-10359" lat="62.0480777805" lon="5.91177499888">
		<tag k="name" v="Kjineset" />
		<tag k="natural" v="cape" />
		<tag k="ssr:stedsnr" v="225344" />
	</node>
	<node id="-10358" lat="62.0416694432" lon="5.89926111615">
		<tag k="alt_name" v="Fjordnes" />
		<tag k="name" v="Fjøsneset" />
		<tag k="natural" v="cape" />
		<tag k="ssr:stedsnr" v="225337" />
	</node>
	<node id="-10865" lat="62.1110777744" lon="6.55708888163">
		<tag k="name" v="Urdaneset" />
		<tag k="natural" v="cape" />
		<tag k="ssr:stedsnr" v="288975" />
	</node>
	<node id="-11376" lat="62.0687027791" lon="6.3166916703">
		<tag k="name" v="Trosvikneset" />
		<tag k="natural" v="cape" />
		<tag k="ssr:stedsnr" v="708692" />
	</node>
	<node id="-13423" lat="62.1405388861" lon="6.57922499253">
		<tag k="name" v="Nesset" />
		<tag k="natural" v="cape" />
		<tag k="ssr:stedsnr" v="800670" />
	</node>
	<node id="-10349" lat="62.0270444412" lon="5.87736388843">
		<tag k="name" v="Eidsetstranda" />
		<tag k="natural" v="beach" />
		<tag k="place" v="locality" />
		<tag k="ssr:stedsnr" v="225289" />
	</node>
	<node id="-11366" lat="62.1477888924" lon="5.94188610292">
		<tag k="name" v="Nesebugen" />
		<tag k="natural" v="bay" />
		<tag k="ssr:stedsnr" v="573920" />
	</node>
	<node id="-11364" lat="62.1776388851" lon="5.9285611074">
		<tag k="name" v="Stiganeset" />
		<tag k="natural" v="cape" />
		<tag k="ssr:stedsnr" v="705881" />
	</node>
	<node id="-12895" lat="62.1173500034" lon="6.54443332465">
		<tag k="name" v="Vågen" />
		<tag k="natural" v="bay" />
		<tag k="ssr:stedsnr" v="530254" />
	</node>
	<node id="-12645" lat="62.0769749995" lon="5.91556388566">
		<tag k="name" v="Aksneset" />
		<tag k="natural" v="cape" />
		<tag k="ssr:stedsnr" v="374923" />
	</node>
	<node id="-10331" lat="62.0831777748" lon="6.25047222743">
		<tag k="fixme" v="consider seamark:type=rock or natural=shoal" />
		<tag k="name" v="Matskjæret" />
		<tag k="place" v="islet" />
		<tag k="ssr:stedsnr" v="224360" />
	</node>
	<node id="-11866" lat="62.1384861099" lon="6.1036944531">
		<tag k="name" v="Rotsetstranda" />
		<tag k="natural" v="beach" />
		<tag k="place" v="locality" />
		<tag k="ssr:stedsnr" v="946875" />
	</node>
	<node id="-10328" lat="62.0743277817" lon="6.09817500725">
		<tag k="name" v="Kobbsteinane" />
		<tag k="place" v="locality" />
		<tag k="seamark:type" v="rock" />
		<tag k="ssr:stedsnr" v="223720" />
	</node>
	<node id="-12900" lat="62.1818944461" lon="5.99231110962">
		<tag k="name" v="Eikreimstranda" />
		<tag k="natural" v="beach" />
		<tag k="place" v="locality" />
		<tag k="ssr:stedsnr" v="537305" />
	</node>
	<node id="-10326" lat="62.1080555578" lon="6.05970556097">
		<tag k="name" v="Krumsvika" />
		<tag k="natural" v="bay" />
		<tag k="ssr:stedsnr" v="223103" />
	</node>
	<node id="-10837" lat="62.2169388934" lon="5.92441111222">
		<tag k="name" v="Berknesfluda" />
		<tag k="natural" v="shoal" />
		<tag k="place" v="locality" />
		<tag k="ssr:stedsnr" v="462237" />
	</node>
	<node id="-10836" lat="62.230311113" lon="5.92175832429">
		<tag k="name" v="Eikeskallen" />
		<tag k="natural" v="shoal" />
		<tag k="place" v="locality" />
		<tag k="ssr:stedsnr" v="462236" />
	</node>
	<node id="-11347" lat="62.227996516" lon="5.88942335986">
		<tag k="name" v="Yksnøya" />
		<tag k="place" v="island" />
		<tag k="ssr:stedsnr" v="557165" />
	</node>
	<node id="-12880" lat="62.1551027754" lon="5.95005556046">
		<tag k="name" v="Grynnene" />
		<tag k="natural" v="shoal" />
		<tag k="place" v="locality" />
		<tag k="ssr:stedsnr" v="529698" />
	</node>
	<node id="-11912" lat="62.223458331" lon="5.95032777158">
		<tag k="name" v="Flåskjerberget" />
		<tag k="natural" v="cape" />
		<tag k="ssr:stedsnr" v="947287" />
	</node>
	<node id="-10317" lat="62.0077055581" lon="5.85656111438">
		<tag k="fixme" v="multiple name tags, choose one and add the other to alt_name" />
		<tag k="name" v="Treneset;Trædneset" />
		<tag k="natural" v="cape" />
		<tag k="ssr:stedsnr" v="10942" />
	</node>
	<node id="-11340" lat="62.0805361125" lon="6.17196388369">
		<tag k="name" v="Sætervika" />
		<tag k="natural" v="bay" />
		<tag k="ssr:stedsnr" v="556905" />
	</node>
	<node id="-13387" lat="62.2206135842" lon="5.93561730401">
		<tag k="name" v="Berkneset" />
		<tag k="natural" v="cape" />
		<tag k="ssr:stedsnr" v="799080" />
	</node>
	<node id="-10314" lat="62.0933083359" lon="5.95993888063">
		<tag k="name" v="Rossetvikane" />
		<tag k="natural" v="bay" />
		<tag k="ssr:stedsnr" v="10834" />
	</node>
	<node id="-13043" lat="62.1044611075" lon="6.55035277629">
		<tag k="name" v="Bjørkevika" />
		<tag k="natural" v="bay" />
		<tag k="ssr:stedsnr" v="591969" />
	</node>
	<node id="-12870" lat="62.1496750007" lon="6.6056555561">
		<tag k="name" v="Vuvika" />
		<tag k="natural" v="bay" />
		<tag k="ssr:stedsnr" v="529913" />
	</node>
	<node id="-10309" lat="62.227158337" lon="5.92019167054">
		<tag k="name" v="Gnullen" />
		<tag k="natural" v="shoal" />
		<tag k="place" v="locality" />
		<tag k="ssr:stedsnr" v="219280" />
	</node>
	<node id="-10308" lat="62.2144611099" lon="5.93222499675">
		<tag k="name" v="Tiljefluda" />
		<tag k="natural" v="shoal" />
		<tag k="place" v="locality" />
		<tag k="ssr:stedsnr" v="219276" />
	</node>
	<node id="-10368" lat="62.1294944421" lon="5.94121389858">
		<tag k="name" v="Nesåkreneset" />
		<tag k="natural" v="cape" />
		<tag k="ssr:stedsnr" v="225547" />
	</node>
	<node id="-12469" lat="62.080791671" lon="6.08855278161">
		<tag k="bay" v="fjord" />
		<tag k="name" v="Kilsfjorden" />
		<tag k="natural" v="bay" />
		<tag k="ssr:stedsnr" v="207241" />
	</node>
	<node id="-12378" lat="62.1696416643" lon="5.94024721719">
		<tag k="name" v="Ulvestadhammaren" />
		<tag k="natural" v="cape" />
		<tag k="ssr:stedsnr" v="159887" />
	</node>
	<node id="-11902" lat="62.0787666648" lon="6.11979721539">
		<tag k="name" v="Skardsteinane" />
		<tag k="natural" v="cape" />
		<tag k="ssr:stedsnr" v="860923" />
	</node>
	<node id="-12993" lat="62.0168972251" lon="5.84603054675">
		<tag k="name" v="Hatlenesvika" />
		<tag k="natural" v="bay" />
		<tag k="ssr:stedsnr" v="588320" />
	</node>
	<node id="-11817" lat="62.01735833" lon="5.84692222518">
		<tag k="name" v="Hatleneset" />
		<tag k="natural" v="cape" />
		<tag k="ssr:stedsnr" v="921989" />
	</node>
	<node id="-12324" lat="62.0804444459" lon="6.29896945173">
		<tag k="name" v="Storneset" />
		<tag k="natural" v="cape" />
		<tag k="ssr:stedsnr" v="132648" />
	</node>
	<node id="-12835" lat="62.0447499989" lon="5.90675555777">
		<tag k="name" v="Heggeneset" />
		<tag k="natural" v="cape" />
		<tag k="ssr:stedsnr" v="526727" />
	</node>
	<node id="-12834" lat="62.0572611084" lon="6.08324444613">
		<tag k="name" v="Mjølvika" />
		<tag k="natural" v="bay" />
		<tag k="ssr:stedsnr" v="526698" />
	</node>
	<node id="-12833" lat="62.2006722191" lon="5.87080556029">
		<tag k="name" v="Velsvika" />
		<tag k="natural" v="bay" />
		<tag k="ssr:stedsnr" v="523883" />
	</node>
	<node id="-11807" lat="62.0429333298" lon="5.87209445196">
		<tag k="name" v="Gjøtteneset" />
		<tag k="natural" v="cape" />
		<tag k="ssr:stedsnr" v="921887" />
	</node>
	<node id="-13341" lat="62.0652055599" lon="6.06910555606">
		<tag k="name" v="Neset" />
		<tag k="natural" v="cape" />
		<tag k="ssr:stedsnr" v="771076" />
	</node>
	<node id="-13340" lat="62.0360027811" lon="5.88558610437">
		<tag k="name" v="Eidsetodden" />
		<tag k="natural" v="cape" />
		<tag k="ssr:stedsnr" v="771361" />
	</node>
	<node id="-11354" lat="62.1613527797" lon="6.02960554713">
		<tag k="name" v="Eksetvika" />
		<tag k="natural" v="bay" />
		<tag k="ssr:stedsnr" v="703917" />
	</node>
	<node id="-11801" lat="62.1436805588" lon="6.0669416715">
		<tag k="name" v="Hallkjellsvika" />
		<tag k="natural" v="bay" />
		<tag k="ssr:stedsnr" v="921809" />
	</node>
	<node id="-13336" lat="62.0825666709" lon="6.24503333906">
		<tag k="name" v="Fluda" />
		<tag k="natural" v="shoal" />
		<tag k="place" v="locality" />
		<tag k="ssr:stedsnr" v="770387" />
	</node>
	<node id="-12822" lat="62.1946833366" lon="5.96445834001">
		<tag k="name" v="Storevika" />
		<tag k="natural" v="bay" />
		<tag k="ssr:stedsnr" v="521009" />
	</node>
	<node id="-12308" lat="62.1495222257" lon="6.0560083295">
		<tag k="name" v="Klokkarvika" />
		<tag k="natural" v="bay" />
		<tag k="ssr:stedsnr" v="131830" />
	</node>
	<node id="-10769" lat="62.1047444444" lon="6.54451666455">
		<tag k="name" v="Vikestranda" />
		<tag k="natural" v="beach" />
		<tag k="place" v="locality" />
		<tag k="ssr:stedsnr" v="227966" />
	</node>
	<node id="-12815" lat="62.0267222181" lon="5.85771389316">
		<tag k="name" v="Espeneset" />
		<tag k="natural" v="cape" />
		<tag k="ssr:stedsnr" v="436728" />
	</node>
	<node id="-12814" lat="62.0810527786" lon="5.91558889216">
		<tag k="name" v="Kroknes" />
		<tag k="natural" v="cape" />
		<tag k="ssr:stedsnr" v="436722" />
	</node>
	<node id="-11276" lat="62.0464361096" lon="5.90983888996">
		<tag k="name" v="Båtneset" />
		<tag k="natural" v="cape" />
		<tag k="ssr:stedsnr" v="528368" />
	</node>
	<node id="-12809" lat="62.1343527784" lon="6.57473055633">
		<tag k="name" v="Kolsjeneset" />
		<tag k="natural" v="cape" />
		<tag k="ssr:stedsnr" v="436653" />
	</node>
	<node id="-12296" lat="62.1186777773" lon="6.55692776936">
		<tag k="name" v="Kalneset" />
		<tag k="natural" v="bay" />
		<tag k="ssr:stedsnr" v="106201" />
	</node>
	<node id="-10759" lat="62.1961472251" lon="5.96005833047">
		<tag k="name" v="Kongshamna" />
		<tag k="natural" v="bay" />
		<tag k="ssr:stedsnr" v="217009" />
	</node>
	<node id="-12806" lat="62.1670361111" lon="6.59114721486">
		<tag k="name" v="Sævåg" />
		<tag k="natural" v="beach" />
		<tag k="place" v="locality" />
		<tag k="ssr:stedsnr" v="436536" />
	</node>
	<node id="-12805" lat="62.1536500021" lon="6.57758055891">
		<tag k="bay" v="fjord" />
		<tag k="name" v="Storfjorden" />
		<tag k="natural" v="bay" />
		<tag k="ssr:stedsnr" v="436535" />
	</node>
	<node id="-12801" lat="62.1649111148" lon="6.01914444582">
		<tag k="alt_name" v="Morkabogen" />
		<tag k="name" v="Morkavika" />
		<tag k="natural" v="bay" />
		<tag k="ssr:stedsnr" v="436041" />
	</node>
</osm>
