<?xml version="1.0" encoding="UTF-8"?>
<osm version="0.6" generator="osmapis">
	<node lat="67.2981444445787" lon="14.716699998744277" id="-5928">
		<tag k="name" v="Sennvika" />
		<tag k="ssr:date" v="2016-05-10" />
		<tag k="ssr:gruppe" v="navigasjon" />
		<tag k="ssr:hovedgruppe" v="infrastruktur" />
		<tag k="ssr:stedsnr" v="25281" />
		<tag k="ssr:type" v="fyrlykt" />
	</node>
	<node lat="67.24063969636563" lon="14.514668370190826" id="-6057">
		<tag k="fixme" v="multiple name tags, choose one and add the other to alt_name" />
		<tag k="name" v="Seivågskagen;Skagodden lykt" />
		<tag k="ssr:date" v="2020-09-15" />
		<tag k="ssr:gruppe" v="navigasjon" />
		<tag k="ssr:hovedgruppe" v="infrastruktur" />
		<tag k="ssr:stedsnr" v="77021" />
		<tag k="ssr:type" v="fyrlykt" />
	</node>
	<node lat="67.38996111572193" lon="13.84608610673314" id="-6061">
		<tag k="name" v="Grytøy" />
		<tag k="ssr:date" v="2016-05-10" />
		<tag k="ssr:gruppe" v="navigasjon" />
		<tag k="ssr:hovedgruppe" v="infrastruktur" />
		<tag k="ssr:stedsnr" v="77050" />
		<tag k="ssr:type" v="fyrlykt" />
	</node>
	<node lat="67.43361111064588" lon="13.998827774673197" id="-6065">
		<tag k="name" v="Undersholmen" />
		<tag k="old_name" v="Unnersholmen" />
		<tag k="ssr:date" v="2016-05-10" />
		<tag k="ssr:gruppe" v="navigasjon" />
		<tag k="ssr:hovedgruppe" v="infrastruktur" />
		<tag k="ssr:stedsnr" v="77106" />
		<tag k="ssr:type" v="fyrlykt" />
	</node>
	<node lat="67.41657500198254" lon="14.046105550176948" id="-6455">
		<tag k="name" v="Lyngesøy" />
		<tag k="ssr:date" v="2016-05-10" />
		<tag k="ssr:gruppe" v="navigasjon" />
		<tag k="ssr:hovedgruppe" v="infrastruktur" />
		<tag k="ssr:stedsnr" v="198059" />
		<tag k="ssr:type" v="fyrlykt" />
	</node>
	<node lat="67.29630632578812" lon="14.372015908996955" id="-6505">
		<tag k="name" v="Lille Hjartøy, Nordøstpynt" />
		<tag k="old_name" v="Hjartøy NA, l;Lille Hjartøy, NØ" />
		<tag k="ssr:date" v="2020-09-15" />
		<tag k="ssr:gruppe" v="navigasjon" />
		<tag k="ssr:hovedgruppe" v="infrastruktur" />
		<tag k="ssr:stedsnr" v="198707" />
		<tag k="ssr:type" v="fyrlykt" />
	</node>
	<node lat="67.23152778182924" lon="14.615441656254678" id="-6597">
		<tag k="name" v="Saltstraumen" />
		<tag k="ssr:date" v="2016-05-10" />
		<tag k="ssr:gruppe" v="navigasjon" />
		<tag k="ssr:hovedgruppe" v="infrastruktur" />
		<tag k="ssr:stedsnr" v="450258" />
		<tag k="ssr:type" v="fyrlykt" />
	</node>
	<node lat="67.52456749251533" lon="14.624904874192511" id="-7173">
		<tag k="name" v="Kvitingen" />
		<tag k="ssr:date" v="2020-09-15" />
		<tag k="ssr:gruppe" v="navigasjon" />
		<tag k="ssr:hovedgruppe" v="infrastruktur" />
		<tag k="ssr:stedsnr" v="441495" />
		<tag k="ssr:type" v="fyrlykt" />
	</node>
	<node lat="67.26545277860508" lon="14.301555552702718" id="-7189">
		<tag k="name" v="Røsøyskjær" />
		<tag k="old_name" v="Røssøyskjeret" />
		<tag k="ssr:date" v="2016-05-10" />
		<tag k="ssr:gruppe" v="navigasjon" />
		<tag k="ssr:hovedgruppe" v="infrastruktur" />
		<tag k="ssr:stedsnr" v="441737" />
		<tag k="ssr:type" v="fyrlykt" />
	</node>
	<node lat="67.18821989544405" lon="15.35216757872598" id="-7381">
		<tag k="name" v="Helgevikbakkan" />
		<tag k="ssr:date" v="2019-12-27" />
		<tag k="ssr:gruppe" v="sjøbunn" />
		<tag k="ssr:hovedgruppe" v="sjø" />
		<tag k="ssr:stedsnr" v="511806" />
		<tag k="ssr:type" v="bakkeISjø" />
	</node>
	<node lat="67.21876110798252" lon="13.934436106661025" id="-7411">
		<tag k="name" v="Voksholmen" />
		<tag k="ssr:date" v="2016-05-11" />
		<tag k="ssr:gruppe" v="navigasjon" />
		<tag k="ssr:hovedgruppe" v="infrastruktur" />
		<tag k="ssr:stedsnr" v="683941" />
		<tag k="ssr:type" v="fyrlykt" />
	</node>
	<node lat="67.44807841893282" lon="14.380795013639732" id="-8332">
		<tag k="alt_name" v="Landegode Fyr" />
		<tag k="name" v="Landegode" />
		<tag k="ssr:date" v="2020-09-01" />
		<tag k="ssr:gruppe" v="navigasjon" />
		<tag k="ssr:hovedgruppe" v="infrastruktur" />
		<tag k="ssr:stedsnr" v="926423" />
		<tag k="ssr:type" v="fyrstasjon" />
	</node>
	<node lat="67.52424722322898" lon="14.76194167697214" id="-8374">
		<tag k="name" v="Kjerringøy" />
		<tag k="ssr:date" v="2016-05-11" />
		<tag k="ssr:gruppe" v="navigasjon" />
		<tag k="ssr:hovedgruppe" v="infrastruktur" />
		<tag k="ssr:stedsnr" v="927147" />
		<tag k="ssr:type" v="fyrlykt" />
	</node>
	<node lat="67.2163121347477" lon="14.701109031634154" id="-8509">
		<tag k="name" v="Buneset" />
		<tag k="ssr:date" v="2020-09-17" />
		<tag k="ssr:gruppe" v="navigasjon" />
		<tag k="ssr:hovedgruppe" v="infrastruktur" />
		<tag k="ssr:stedsnr" v="926104" />
		<tag k="ssr:type" v="fyrlykt" />
	</node>
	<node lat="67.31032814406886" lon="14.436397058524117" id="-8594">
		<tag k="name" v="Skivik molo" />
		<tag k="ssr:date" v="2020-09-17" />
		<tag k="ssr:gruppe" v="navigasjon" />
		<tag k="ssr:hovedgruppe" v="infrastruktur" />
		<tag k="ssr:stedsnr" v="965299" />
		<tag k="ssr:type" v="fyrlykt" />
	</node>
	<node lat="67.29033248875076" lon="14.62856597218967" id="-8608">
		<tag k="name" v="Åssjyen" />
		<tag k="ssr:date" v="2019-05-30" />
		<tag k="ssr:gruppe" v="veg" />
		<tag k="ssr:hovedgruppe" v="infrastruktur" />
		<tag k="ssr:stedsnr" v="998621" />
		<tag k="ssr:type" v="adressenavn" />
	</node>
	<node lat="67.48535665646227" lon="14.777623133488115" id="-8609">
		<tag k="name" v="Storseng" />
		<tag k="ssr:date" v="2019-05-30" />
		<tag k="ssr:gruppe" v="veg" />
		<tag k="ssr:hovedgruppe" v="infrastruktur" />
		<tag k="ssr:stedsnr" v="998514" />
		<tag k="ssr:type" v="adressenavn" />
	</node>
	<node lat="67.05897267284242" lon="15.062418412363462" id="-8610">
		<tag k="name" v="Treholmvatn" />
		<tag k="old_name" v="Vei 1558" />
		<tag k="ssr:date" v="2019-05-30" />
		<tag k="ssr:gruppe" v="veg" />
		<tag k="ssr:hovedgruppe" v="infrastruktur" />
		<tag k="ssr:stedsnr" v="999131" />
		<tag k="ssr:type" v="adressenavn" />
	</node>
	<node lat="67.367658528458" lon="14.966071336953949" id="-8611">
		<tag k="name" v="Heggmovatnet" />
		<tag k="old_name" v="Vei 1559" />
		<tag k="ssr:date" v="2019-05-30" />
		<tag k="ssr:gruppe" v="veg" />
		<tag k="ssr:hovedgruppe" v="infrastruktur" />
		<tag k="ssr:stedsnr" v="999132" />
		<tag k="ssr:type" v="adressenavn" />
	</node>
	<node lat="67.31990480130217" lon="14.46253586862451" id="-8612">
		<tag k="name" v="Vei 1560" />
		<tag k="ssr:date" v="2019-05-30" />
		<tag k="ssr:gruppe" v="veg" />
		<tag k="ssr:hovedgruppe" v="infrastruktur" />
		<tag k="ssr:stedsnr" v="999133" />
		<tag k="ssr:type" v="adressenavn" />
	</node>
	<node lat="67.30904539763243" lon="14.437392996444924" id="-8613">
		<tag k="name" v="Merraftastuvo" />
		<tag k="old_name" v="Vei 1561" />
		<tag k="ssr:date" v="2019-05-30" />
		<tag k="ssr:gruppe" v="veg" />
		<tag k="ssr:hovedgruppe" v="infrastruktur" />
		<tag k="ssr:stedsnr" v="999134" />
		<tag k="ssr:type" v="adressenavn" />
	</node>
	<node lat="67.22719093681235" lon="15.081712825493431" id="-8614">
		<tag k="name" v="Sandnesvatn" />
		<tag k="old_name" v="Vei 1555" />
		<tag k="ssr:date" v="2019-05-30" />
		<tag k="ssr:gruppe" v="veg" />
		<tag k="ssr:hovedgruppe" v="infrastruktur" />
		<tag k="ssr:stedsnr" v="999136" />
		<tag k="ssr:type" v="adressenavn" />
	</node>
	<node lat="67.0918701946523" lon="15.071870527643666" id="-8615">
		<tag k="name" v="Blånakkvatn" />
		<tag k="old_name" v="Vei 1556" />
		<tag k="ssr:date" v="2019-05-30" />
		<tag k="ssr:gruppe" v="veg" />
		<tag k="ssr:hovedgruppe" v="infrastruktur" />
		<tag k="ssr:stedsnr" v="999137" />
		<tag k="ssr:type" v="adressenavn" />
	</node>
	<node lat="67.07669950130848" lon="15.111050262833366" id="-8616">
		<tag k="name" v="Charlesvatnan" />
		<tag k="old_name" v="Vei 1557" />
		<tag k="ssr:date" v="2019-05-30" />
		<tag k="ssr:gruppe" v="veg" />
		<tag k="ssr:hovedgruppe" v="infrastruktur" />
		<tag k="ssr:stedsnr" v="999138" />
		<tag k="ssr:type" v="adressenavn" />
	</node>
	<node lat="67.31844925628752" lon="14.68976048174973" id="-8617">
		<tag k="name" v="Malmveien" />
		<tag k="old_name" v="Vei 1551" />
		<tag k="ssr:date" v="2020-11-26" />
		<tag k="ssr:gruppe" v="veg" />
		<tag k="ssr:hovedgruppe" v="infrastruktur" />
		<tag k="ssr:stedsnr" v="999139" />
		<tag k="ssr:type" v="adressenavn" />
	</node>
	<node lat="67.44802003410977" lon="14.380299659813884" id="-8618">
		<tag k="name" v="Eggløysa" />
		<tag k="ssr:date" v="2019-05-30" />
		<tag k="ssr:gruppe" v="veg" />
		<tag k="ssr:hovedgruppe" v="infrastruktur" />
		<tag k="ssr:stedsnr" v="999140" />
		<tag k="ssr:type" v="adressenavn" />
	</node>
	<node lat="67.31489532296122" lon="14.554650497120818" id="-8619">
		<tag k="name" v="Musøya" />
		<tag k="ssr:date" v="2019-05-30" />
		<tag k="ssr:gruppe" v="veg" />
		<tag k="ssr:hovedgruppe" v="infrastruktur" />
		<tag k="ssr:stedsnr" v="999166" />
		<tag k="ssr:type" v="adressenavn" />
	</node>
	<node lat="67.10728067762048" lon="15.08230552733058" id="-8620">
		<tag k="name" v="Tirillfjellvatnet" />
		<tag k="ssr:date" v="2019-05-30" />
		<tag k="ssr:gruppe" v="veg" />
		<tag k="ssr:hovedgruppe" v="infrastruktur" />
		<tag k="ssr:stedsnr" v="999170" />
		<tag k="ssr:type" v="adressenavn" />
	</node>
	<node lat="67.10496326950275" lon="15.114881364522034" id="-8621">
		<tag k="name" v="Andrevatn" />
		<tag k="ssr:date" v="2019-05-30" />
		<tag k="ssr:gruppe" v="veg" />
		<tag k="ssr:hovedgruppe" v="infrastruktur" />
		<tag k="ssr:stedsnr" v="999171" />
		<tag k="ssr:type" v="adressenavn" />
	</node>
	<node lat="67.08238192961699" lon="14.899323030604917" id="-8622">
		<tag k="name" v="Jordbruvatnet" />
		<tag k="ssr:date" v="2019-05-30" />
		<tag k="ssr:gruppe" v="veg" />
		<tag k="ssr:hovedgruppe" v="infrastruktur" />
		<tag k="ssr:stedsnr" v="999173" />
		<tag k="ssr:type" v="adressenavn" />
	</node>
	<node lat="67.09113274944737" lon="14.910251450031854" id="-8623">
		<tag k="name" v="Hellvadvatnet" />
		<tag k="ssr:date" v="2019-05-30" />
		<tag k="ssr:gruppe" v="veg" />
		<tag k="ssr:hovedgruppe" v="infrastruktur" />
		<tag k="ssr:stedsnr" v="999174" />
		<tag k="ssr:type" v="adressenavn" />
	</node>
	<node lat="67.31443329106592" lon="14.632291314571342" id="-8624">
		<tag k="name" v="Frosktjønna" />
		<tag k="ssr:date" v="2019-05-30" />
		<tag k="ssr:gruppe" v="veg" />
		<tag k="ssr:hovedgruppe" v="infrastruktur" />
		<tag k="ssr:stedsnr" v="999218" />
		<tag k="ssr:type" v="adressenavn" />
	</node>
	<node lat="67.31637682482533" lon="14.558654195773347" id="-8625">
		<tag k="name" v="Kalvøya" />
		<tag k="ssr:date" v="2019-05-30" />
		<tag k="ssr:gruppe" v="veg" />
		<tag k="ssr:hovedgruppe" v="infrastruktur" />
		<tag k="ssr:stedsnr" v="999229" />
		<tag k="ssr:type" v="adressenavn" />
	</node>
	<node lat="67.29454781724358" lon="14.815395582074004" id="-8626">
		<tag k="name" v="Vågsbotn" />
		<tag k="ssr:date" v="2019-05-30" />
		<tag k="ssr:gruppe" v="veg" />
		<tag k="ssr:hovedgruppe" v="infrastruktur" />
		<tag k="ssr:stedsnr" v="999231" />
		<tag k="ssr:type" v="adressenavn" />
	</node>
	<node lat="67.37039455268169" lon="14.539380419895913" id="-8627">
		<tag k="name" v="Vågøya" />
		<tag k="ssr:date" v="2019-05-30" />
		<tag k="ssr:gruppe" v="veg" />
		<tag k="ssr:hovedgruppe" v="infrastruktur" />
		<tag k="ssr:stedsnr" v="999265" />
		<tag k="ssr:type" v="adressenavn" />
	</node>
	<node lat="67.37000793419529" lon="14.523644174006163" id="-8628">
		<tag k="name" v="Lisjvågøya" />
		<tag k="ssr:date" v="2019-05-30" />
		<tag k="ssr:gruppe" v="veg" />
		<tag k="ssr:hovedgruppe" v="infrastruktur" />
		<tag k="ssr:stedsnr" v="999266" />
		<tag k="ssr:type" v="adressenavn" />
	</node>
	<node lat="67.3928467681937" lon="13.948156610470818" id="-8629">
		<tag k="name" v="Prestøya" />
		<tag k="ssr:date" v="2019-05-30" />
		<tag k="ssr:gruppe" v="veg" />
		<tag k="ssr:hovedgruppe" v="infrastruktur" />
		<tag k="ssr:stedsnr" v="999268" />
		<tag k="ssr:type" v="adressenavn" />
	</node>
	<node lat="67.40328097017648" lon="13.88159557244026" id="-8630">
		<tag k="name" v="Beiskøya" />
		<tag k="ssr:date" v="2019-05-30" />
		<tag k="ssr:gruppe" v="veg" />
		<tag k="ssr:hovedgruppe" v="infrastruktur" />
		<tag k="ssr:stedsnr" v="999271" />
		<tag k="ssr:type" v="adressenavn" />
	</node>
	<node lat="67.41319052180339" lon="13.894110693414671" id="-8631">
		<tag k="name" v="Brønnøya" />
		<tag k="ssr:date" v="2019-05-30" />
		<tag k="ssr:gruppe" v="veg" />
		<tag k="ssr:hovedgruppe" v="infrastruktur" />
		<tag k="ssr:stedsnr" v="999272" />
		<tag k="ssr:type" v="adressenavn" />
	</node>
	<node lat="67.42349351646125" lon="13.933121912676437" id="-8632">
		<tag k="name" v="Storsørøya" />
		<tag k="ssr:date" v="2019-05-30" />
		<tag k="ssr:gruppe" v="veg" />
		<tag k="ssr:hovedgruppe" v="infrastruktur" />
		<tag k="ssr:stedsnr" v="999273" />
		<tag k="ssr:type" v="adressenavn" />
	</node>
	<node lat="67.26181666835429" lon="13.947077771871244" id="-8644">
		<tag k="name" v="Hjelmøy" />
		<tag k="ssr:date" v="2016-05-10" />
		<tag k="ssr:gruppe" v="navigasjon" />
		<tag k="ssr:hovedgruppe" v="infrastruktur" />
		<tag k="ssr:stedsnr" v="16444" />
		<tag k="ssr:type" v="fyrlykt" />
	</node>
	<node lat="67.3722694432212" lon="14.200024992089014" id="-8652">
		<tag k="name" v="Fenesodden" />
		<tag k="ssr:date" v="2016-05-10" />
		<tag k="ssr:gruppe" v="navigasjon" />
		<tag k="ssr:hovedgruppe" v="infrastruktur" />
		<tag k="ssr:stedsnr" v="16033" />
		<tag k="ssr:type" v="fyrlykt" />
	</node>
	<node lat="67.61208889047671" lon="14.775688880850657" id="-8832">
		<tag k="name" v="Helløyskjer" />
		<tag k="ssr:date" v="2016-05-10" />
		<tag k="ssr:gruppe" v="navigasjon" />
		<tag k="ssr:hovedgruppe" v="infrastruktur" />
		<tag k="ssr:stedsnr" v="77057" />
		<tag k="ssr:type" v="fyrlykt" />
	</node>
</osm>
