<?xml version="1.0" encoding="UTF-8"?>
<osm version="0.6" generator="osmapis">
	<node lat="59.63634166484837" lon="5.41610000544137" id="-32729">
		<tag k="alt_name" v="Førdespollen" />
		<tag k="name" v="Førdespollen&#09; lykt" />
		<tag k="ssr:date" v="2019-12-27" />
		<tag k="ssr:gruppe" v="navigasjon" />
		<tag k="ssr:hovedgruppe" v="infrastruktur" />
		<tag k="ssr:stedsnr" v="269443" />
		<tag k="ssr:type" v="fyrlykt" />
	</node>
	<node lat="59.593706252051724" lon="5.5256839844293015" id="-32863">
		<tag k="alt_name" v="Ålfjord" />
		<tag k="name" v="Ålfjord lykt" />
		<tag k="ssr:date" v="2020-09-03" />
		<tag k="ssr:gruppe" v="navigasjon" />
		<tag k="ssr:hovedgruppe" v="infrastruktur" />
		<tag k="ssr:stedsnr" v="367324" />
		<tag k="ssr:type" v="fyrlykt" />
	</node>
	<node lat="59.64137531134315" lon="5.338493545137477" id="-32924">
		<tag k="alt_name" v="Nappholmen" />
		<tag k="name" v="Nappholmen lykt" />
		<tag k="ssr:date" v="2020-09-08" />
		<tag k="ssr:gruppe" v="navigasjon" />
		<tag k="ssr:hovedgruppe" v="infrastruktur" />
		<tag k="ssr:stedsnr" v="488930" />
		<tag k="ssr:type" v="fyrlykt" />
	</node>
	<node lat="59.54302499724488" lon="5.354102775312073" id="-33036">
		<tag k="alt_name" v="Sveio" />
		<tag k="name" v="Sveio kommune" />
		<tag k="ssr:date" v="2019-12-27" />
		<tag k="ssr:gruppe" v="administrativeIndelinger" />
		<tag k="ssr:hovedgruppe" v="offentligAdministrasjon" />
		<tag k="ssr:stedsnr" v="570670" />
		<tag k="ssr:type" v="kommune" />
	</node>
	<node lat="59.52224492252716" lon="5.2520265872206" id="-33279">
		<tag k="alt_name" v="Mølstrevågen" />
		<tag k="name" v="Mølstrevågen lykt" />
		<tag k="old_name" v="Mylstrevåg" />
		<tag k="ssr:date" v="2019-12-27" />
		<tag k="ssr:gruppe" v="navigasjon" />
		<tag k="ssr:hovedgruppe" v="infrastruktur" />
		<tag k="ssr:stedsnr" v="935399" />
		<tag k="ssr:type" v="fyrlykt" />
	</node>
	<node lat="59.526947845417986" lon="5.2251667332553415" id="-33330">
		<tag k="alt_name" v="Ryvarden;Ryvarden lykt" />
		<tag k="name" v="Ryvarden fyr" />
		<tag k="ssr:date" v="2020-09-01" />
		<tag k="ssr:gruppe" v="navigasjon" />
		<tag k="ssr:hovedgruppe" v="infrastruktur" />
		<tag k="ssr:stedsnr" v="3146" />
		<tag k="ssr:type" v="fyrstasjon" />
	</node>
	<node lat="59.548505558325566" lon="5.238474999290611" id="-34005">
		<tag k="alt_name" v="Håskru" />
		<tag k="name" v="Håskru lykt" />
		<tag k="ssr:date" v="2019-12-27" />
		<tag k="ssr:gruppe" v="navigasjon" />
		<tag k="ssr:hovedgruppe" v="infrastruktur" />
		<tag k="ssr:stedsnr" v="791235" />
		<tag k="ssr:type" v="fyrlykt" />
	</node>
	<node lat="59.7172722221749" lon="5.467402779374295" id="-34047">
		<tag k="name" v="Kjekseskallen" />
		<tag k="ssr:date" v="2021-05-07" />
		<tag k="ssr:gruppe" v="sjøbunn" />
		<tag k="ssr:hovedgruppe" v="sjø" />
		<tag k="ssr:stedsnr" v="815554" />
		<tag k="ssr:type" v="bankeISjø" />
	</node>
	<node lat="59.54180554964329" lon="5.340039966917484" id="-34197">
		<tag k="name" v="Gjermundshaugen" />
		<tag k="ssr:date" v="2019-12-27" />
		<tag k="ssr:gruppe" v="veg" />
		<tag k="ssr:hovedgruppe" v="infrastruktur" />
		<tag k="ssr:stedsnr" v="1037354" />
		<tag k="ssr:type" v="adressenavn" />
	</node>
	<node lat="59.676883624617076" lon="5.485983559274706" id="-34198">
		<tag k="name" v="Tråvås" />
		<tag k="ssr:date" v="2019-12-27" />
		<tag k="ssr:gruppe" v="veg" />
		<tag k="ssr:hovedgruppe" v="infrastruktur" />
		<tag k="ssr:stedsnr" v="1037356" />
		<tag k="ssr:type" v="adressenavn" />
	</node>
	<node lat="59.48420913508152" lon="5.315159723355796" id="-34199">
		<tag k="name" v="Nordhadlo" />
		<tag k="ssr:date" v="2019-12-27" />
		<tag k="ssr:gruppe" v="veg" />
		<tag k="ssr:hovedgruppe" v="infrastruktur" />
		<tag k="ssr:stedsnr" v="1037365" />
		<tag k="ssr:type" v="adressenavn" />
	</node>
	<node lat="60.38666587132831" lon="5.332557531214444" id="-34200">
		<tag k="name" v="Vestland fylke" />
		<tag k="ssr:date" v="2021-06-08" />
		<tag k="ssr:gruppe" v="administrativeIndelinger" />
		<tag k="ssr:hovedgruppe" v="offentligAdministrasjon" />
		<tag k="ssr:stedsnr" v="1074408" />
		<tag k="ssr:type" v="fylke" />
	</node>
	<node lat="59.713716711730974" lon="5.5203871293742655" id="-34201">
		<tag k="name" v="Gardhaug" />
		<tag k="ssr:date" v="2020-12-18" />
		<tag k="ssr:gruppe" v="veg" />
		<tag k="ssr:hovedgruppe" v="infrastruktur" />
		<tag k="ssr:stedsnr" v="1079411" />
		<tag k="ssr:type" v="adressenavn" />
	</node>
	<node lat="59.59391406920047" lon="5.311534038334452" id="-34202">
		<tag k="name" v="Kvitaneset" />
		<tag k="ssr:date" v="2020-12-21" />
		<tag k="ssr:gruppe" v="veg" />
		<tag k="ssr:hovedgruppe" v="infrastruktur" />
		<tag k="ssr:stedsnr" v="1079437" />
		<tag k="ssr:type" v="adressenavn" />
	</node>
</osm>
