<?xml version="1.0" encoding="UTF-8"?>
<osm version="0.6" generator="osmapis">
	<node id="25877332" lat="60.5181905" lon="5.2403768" version="10" timestamp="2022-08-25T15:08:29Z" changeset="125366839" uid="3497659" user="NKA">
		<tag k="name" v="Frekhaug" />
		<tag k="place" v="village" />
		<tag k="population" v="3169" />
		<tag k="population:date" v="2021-01-01" />
		<tag k="ref:ssb_tettsted" v="5321" />
		<tag k="source:population" v="SSB - befolkning i tettstedet" />
		<tag k="ssr:stedsnr" v="249497" />
	</node>
	<node id="25877687" lat="60.5405378" lon="5.1881939" version="6" timestamp="2022-08-25T15:08:29Z" changeset="125366839" uid="3497659" user="NKA">
		<tag k="name" v="Meland" />
		<tag k="place" v="hamlet" />
		<tag k="ssr:stedsnr" v="955049" />
	</node>
	<node id="35487217" lat="60.5461492" lon="5.285399" version="11" timestamp="2022-08-25T15:08:29Z" changeset="125366839" uid="3497659" user="NKA">
		<tag k="name" v="Knarvik" />
		<tag k="place" v="town" />
		<tag k="population" v="6359" />
		<tag k="population:date" v="2021-01-01" />
		<tag k="ref:ssb_tettsted" v="5245" />
		<tag k="source:population" v="SSB - befolkning i tettstedet" />
		<tag k="ssr:stedsnr" v="249433" />
		<tag k="wikidata" v="Q1016083" />
	</node>
	<node id="295688534" lat="60.6865162" lon="5.5988003" version="3" timestamp="2022-08-25T15:08:29Z" changeset="125366839" uid="3497659" user="NKA">
		<tag k="disused" v="yes" />
		<tag k="name" v="Liabakken" />
		<tag k="place" v="farm" />
		<tag k="ssr:stedsnr" v="66342" />
	</node>
	<node id="385665891" lat="60.6398351" lon="5.0693539" version="3" timestamp="2022-08-25T15:08:29Z" changeset="125366839" uid="3497659" user="NKA">
		<tag k="name" v="Nøttveit" />
		<tag k="place" v="hamlet" />
		<tag k="ssr:stedsnr" v="734965" />
	</node>
	<node id="385666626" lat="60.6412787" lon="5.0414999" version="12" timestamp="2022-08-25T15:08:29Z" changeset="125366839" uid="3497659" user="NKA">
		<tag k="name" v="Manger" />
		<tag k="place" v="village" />
		<tag k="population" v="1166" />
		<tag k="population:date" v="2021-01-01" />
		<tag k="ref:ssb_tettsted" v="5232" />
		<tag k="source:population" v="SSB - befolkning i tettstedet" />
		<tag k="ssr:stedsnr" v="673967" />
	</node>
	<node id="506142940" lat="60.7283129" lon="5.644299" version="2" timestamp="2022-08-25T15:08:29Z" changeset="125366839" uid="3497659" user="NKA">
		<tag k="name" v="Romarheim" />
		<tag k="place" v="hamlet" />
		<tag k="ssr:stedsnr" v="287999" />
	</node>
	<node id="678180173" lat="60.6852773" lon="5.390378" version="3" timestamp="2022-08-25T15:08:29Z" changeset="125366839" uid="3497659" user="NKA">
		<tag k="name" v="Rødland" />
		<tag k="place" v="hamlet" />
		<tag k="ssr:stedsnr" v="916151" />
	</node>
	<node id="678315650" lat="60.6938581" lon="5.4072813" version="2" timestamp="2022-08-25T15:08:29Z" changeset="125366839" uid="3497659" user="NKA">
		<tag k="name" v="Nesbø" />
		<tag k="place" v="hamlet" />
		<tag k="ssr:stedsnr" v="856157" />
	</node>
	<node id="678967412" lat="60.678127" lon="5.3958235" version="2" timestamp="2022-08-25T15:08:29Z" changeset="125366839" uid="3497659" user="NKA">
		<tag k="name" v="Veland" />
		<tag k="place" v="hamlet" />
		<tag k="ssr:stedsnr" v="104070" />
	</node>
	<node id="687010849" lat="60.6619583" lon="5.4211539" version="2" timestamp="2022-08-25T15:08:29Z" changeset="125366839" uid="3497659" user="NKA">
		<tag k="name" v="Askelandsvågen" />
		<tag k="place" v="hamlet" />
		<tag k="ssr:stedsnr" v="287287" />
	</node>
	<node id="1414517249" lat="60.5258327" lon="5.1546936" version="3" timestamp="2022-08-25T15:08:29Z" changeset="125366839" uid="3497659" user="NKA">
		<tag k="name" v="Holmeknappen" />
		<tag k="place" v="neighbourhood" />
		<tag k="ssr:stedsnr" v="753539" />
	</node>
	<node id="1893069529" lat="60.5630517" lon="5.192108" version="2" timestamp="2022-08-25T15:08:29Z" changeset="125366839" uid="3497659" user="NKA">
		<tag k="name" v="Espetveit" />
		<tag k="place" v="hamlet" />
		<tag k="ssr:stedsnr" v="309069" />
	</node>
	<node id="1927796161" lat="60.6553711" lon="5.1734625" version="2" timestamp="2022-08-25T15:08:29Z" changeset="125366839" uid="3497659" user="NKA">
		<tag k="alt_name" v="Bergås" />
		<tag k="name" v="Berås" />
		<tag k="place" v="farm" />
		<tag k="ssr:stedsnr" v="552261" />
	</node>
	<node id="1948892132" lat="60.6683023" lon="5.0235286" version="3" timestamp="2022-08-25T15:08:29Z" changeset="125366839" uid="3497659" user="NKA">
		<tag k="name" v="Helland" />
		<tag k="place" v="hamlet" />
		<tag k="ssr:stedsnr" v="916983" />
	</node>
	<node id="1948892135" lat="60.6801212" lon="4.996337" version="2" timestamp="2022-08-25T15:08:29Z" changeset="125366839" uid="3497659" user="NKA">
		<tag k="name" v="Myking" />
		<tag k="place" v="hamlet" />
		<tag k="ssr:stedsnr" v="370986" />
	</node>
	<node id="1948892140" lat="60.6243208" lon="5.1478297" version="3" timestamp="2022-08-25T15:08:29Z" changeset="125366839" uid="3497659" user="NKA">
		<tag k="name" v="Olsvoll" />
		<tag k="place" v="hamlet" />
		<tag k="ssr:stedsnr" v="612039" />
	</node>
	<node id="1949001914" lat="60.6354943" lon="5.1233812" version="2" timestamp="2022-08-25T15:08:29Z" changeset="125366839" uid="3497659" user="NKA">
		<tag k="name" v="Lunde" />
		<tag k="place" v="hamlet" />
		<tag k="ssr:stedsnr" v="491216" />
	</node>
	<node id="1949001915" lat="60.6137411" lon="5.1534305" version="2" timestamp="2022-08-25T15:08:29Z" changeset="125366839" uid="3497659" user="NKA">
		<tag k="name" v="Sæbø" />
		<tag k="place" v="village" />
		<tag k="ssr:stedsnr" v="856062" />
	</node>
	<node id="1949001916" lat="60.5916063" lon="5.180176" version="2" timestamp="2022-08-25T15:08:29Z" changeset="125366839" uid="3497659" user="NKA">
		<tag k="name" v="Vettås" />
		<tag k="place" v="hamlet" />
		<tag k="ssr:stedsnr" v="856094" />
	</node>
	<node id="3104497653" lat="60.6188478" lon="5.2704727" version="4" timestamp="2022-08-25T15:08:29Z" changeset="125366839" uid="3497659" user="NKA">
		<tag k="name" v="Seim" />
		<tag k="place" v="village" />
		<tag k="population" v="402" />
		<tag k="population:date" v="2021-01-01" />
		<tag k="ref:ssb_tettsted" v="5247" />
		<tag k="source:population" v="SSB - befolkning i tettstedet" />
		<tag k="ssr:stedsnr" v="491010" />
	</node>
	<node id="3104514879" lat="60.567684" lon="5.2713356" version="2" timestamp="2022-08-25T15:08:29Z" changeset="125366839" uid="3497659" user="NKA">
		<tag k="name" v="Isdal" />
		<tag k="place" v="hamlet" />
		<tag k="ssr:stedsnr" v="734079" />
	</node>
	<node id="3104514880" lat="60.5553217" lon="5.2693625" version="2" timestamp="2022-08-25T15:08:29Z" changeset="125366839" uid="3497659" user="NKA">
		<tag k="alt_name" v="Isdalsstø" />
		<tag k="name" v="Isdalstø" />
		<tag k="place" v="quarter" />
		<tag k="ssr:stedsnr" v="657089" />
	</node>
	<node id="3104514881" lat="60.5760059" lon="5.2867659" version="2" timestamp="2022-08-25T15:08:29Z" changeset="125366839" uid="3497659" user="NKA">
		<tag k="name" v="Åse" />
		<tag k="place" v="hamlet" />
		<tag k="ssr:stedsnr" v="6066" />
	</node>
	<node id="3104517311" lat="60.5711002" lon="5.2347922" version="3" timestamp="2022-08-25T15:08:29Z" changeset="125366839" uid="3497659" user="NKA">
		<tag k="name" v="Alversund" />
		<tag k="place" v="village" />
		<tag k="ssr:stedsnr" v="773117" />
		<tag k="wikidata" v="Q4737996" />
		<tag k="wikipedia" v="en:Alversund" />
	</node>
	<node id="3104517312" lat="60.5792243" lon="5.248633" version="2" timestamp="2022-08-25T15:08:29Z" changeset="125366839" uid="3497659" user="NKA">
		<tag k="name" v="Erstad" />
		<tag k="place" v="hamlet" />
		<tag k="ssr:stedsnr" v="127113" />
	</node>
	<node id="3104527694" lat="60.658956" lon="5.1372331" version="2" timestamp="2022-08-25T15:08:29Z" changeset="125366839" uid="3497659" user="NKA">
		<tag k="alt_name" v="Festå" />
		<tag k="name" v="Festo" />
		<tag k="place" v="hamlet" />
		<tag k="ssr:stedsnr" v="309258" />
	</node>
	<node id="3104527695" lat="60.6902035" lon="5.1185343" version="2" timestamp="2022-08-25T15:08:29Z" changeset="125366839" uid="3497659" user="NKA">
		<tag k="name" v="Lygra" />
		<tag k="place" v="hamlet" />
		<tag k="ssr:stedsnr" v="773111" />
	</node>
	<node id="3104527696" lat="60.6438836" lon="5.2367255" version="2" timestamp="2022-08-25T15:08:29Z" changeset="125366839" uid="3497659" user="NKA">
		<tag k="name" v="Neset" />
		<tag k="place" v="hamlet" />
		<tag k="ssr:stedsnr" v="431219" />
	</node>
	<node id="3104535893" lat="60.7363494" lon="5.1614412" version="5" timestamp="2022-08-25T15:08:29Z" changeset="125366839" uid="3497659" user="NKA">
		<tag k="name" v="Lindås" />
		<tag k="place" v="village" />
		<tag k="population" v="1366" />
		<tag k="population:date" v="2021-01-01" />
		<tag k="ref:ssb_tettsted" v="5241" />
		<tag k="source:population" v="SSB - befolkning i tettstedet" />
		<tag k="ssr:stedsnr" v="674686" />
	</node>
	<node id="3104551436" lat="60.5561819" lon="5.3073458" version="2" timestamp="2022-08-25T15:08:29Z" changeset="125366839" uid="3497659" user="NKA">
		<tag k="alt_name" v="Gjervik" />
		<tag k="name" v="Gjerdviki" />
		<tag k="place" v="hamlet" />
		<tag k="ssr:stedsnr" v="989484" />
	</node>
	<node id="3104551437" lat="60.5829366" lon="5.3639766" version="2" timestamp="2022-08-25T15:08:29Z" changeset="125366839" uid="3497659" user="NKA">
		<tag k="name" v="Hellesvåg" />
		<tag k="place" v="village" />
		<tag k="ssr:stedsnr" v="894767" />
	</node>
	<node id="3104551438" lat="60.5926143" lon="5.3635604" version="3" timestamp="2022-08-25T15:08:29Z" changeset="125366839" uid="3497659" user="NKA">
		<tag k="name" v="Hjelmås" />
		<tag k="place" v="village" />
		<tag k="ssr:stedsnr" v="530316" />
	</node>
	<node id="3104551439" lat="60.5719965" lon="5.3763904" version="6" timestamp="2022-08-25T15:08:29Z" changeset="125366839" uid="3497659" user="NKA">
		<tag k="name" v="Leknes" />
		<tag k="place" v="village" />
		<tag k="population" v="1111" />
		<tag k="population:date" v="2021-01-01" />
		<tag k="ref:ssb_tettsted" v="5246" />
		<tag k="source:population" v="SSB - befolkning i tettstedet" />
		<tag k="ssr:stedsnr" v="856077" />
	</node>
	<node id="3137738542" lat="60.6852112" lon="5.0511145" version="4" timestamp="2022-08-25T15:08:29Z" changeset="125366839" uid="3497659" user="NKA">
		<tag k="name" v="Sletta" />
		<tag k="place" v="hamlet" />
		<tag k="ssr:stedsnr" v="795783" />
	</node>
	<node id="3434306432" lat="60.6990491" lon="4.9284468" version="5" timestamp="2022-08-25T15:08:29Z" changeset="125366839" uid="3497659" user="NKA">
		<tag k="name" v="Bøvågen" />
		<tag k="place" v="village" />
		<tag k="population" v="452" />
		<tag k="population:date" v="2021-01-01" />
		<tag k="ref:ssb_tettsted" v="5231" />
		<tag k="source:population" v="SSB - befolkning i tettstedet" />
		<tag k="ssr:stedsnr" v="431820" />
	</node>
	<node id="3796242191" lat="60.8013277" lon="5.6373805" version="2" timestamp="2022-08-25T15:08:29Z" changeset="125366839" uid="3497659" user="NKA">
		<tag k="alt_name" v="Dyrkolbotn;Dyrkollbotn" />
		<tag k="name" v="Dyrkollebotnen" />
		<tag k="old_name" v="Dyrkollbotnen" />
		<tag k="place" v="hamlet" />
		<tag k="ssr:stedsnr" v="251503" />
	</node>
	<node id="4076587520" lat="60.6622033" lon="4.9659993" version="3" timestamp="2022-08-25T15:08:29Z" changeset="125366839" uid="3497659" user="NKA">
		<tag k="name" v="Nordnaustet" />
		<tag k="place" v="locality" />
		<tag k="ssr:stedsnr" v="206239" />
	</node>
	<node id="4219443003" lat="60.6264618" lon="5.4742848" version="3" timestamp="2022-08-25T15:08:29Z" changeset="125366839" uid="3497659" user="NKA">
		<tag k="name" v="Ostereidet" />
		<tag k="place" v="village" />
		<tag k="ssr:stedsnr" v="712590" />
	</node>
	<node id="4239820637" lat="60.5669908" lon="5.3716147" version="2" timestamp="2022-08-25T15:08:29Z" changeset="125366839" uid="3497659" user="NKA">
		<tag k="name" v="Munndal" />
		<tag k="place" v="hamlet" />
		<tag k="ssr:stedsnr" v="552092" />
	</node>
	<node id="4348274282" lat="60.699133" lon="5.5829311" version="4" timestamp="2022-08-25T15:08:29Z" changeset="125366839" uid="3497659" user="NKA">
		<tag k="alt_name" v="Vikanes" />
		<tag k="name" v="Vikaneset" />
		<tag k="place" v="hamlet" />
		<tag k="ssr:stedsnr" v="491252" />
	</node>
	<node id="4626026237" lat="60.5754208" lon="5.2362179" version="3" timestamp="2022-08-25T15:08:29Z" changeset="125366839" uid="3497659" user="NKA">
		<tag k="name" v="Tveiten" />
		<tag k="place" v="hamlet" />
		<tag k="ssr:stedsnr" v="370086" />
	</node>
	<node id="4815395304" lat="60.6777948" lon="4.9506135" version="2" timestamp="2022-08-25T15:08:29Z" changeset="125366839" uid="3497659" user="NKA">
		<tag k="alt_name" v="Vågenes Øvre" />
		<tag k="name" v="Øvre Vågenes" />
		<tag k="place" v="farm" />
		<tag k="ssr:stedsnr" v="833425" />
	</node>
	<node id="4815395305" lat="60.6732778" lon="4.9525757" version="2" timestamp="2022-08-25T15:08:29Z" changeset="125366839" uid="3497659" user="NKA">
		<tag k="alt_name" v="Vågenes Nedre" />
		<tag k="name" v="Nedre Vågenes" />
		<tag k="place" v="farm" />
		<tag k="ssr:stedsnr" v="226467" />
	</node>
	<node id="4815395306" lat="60.6741389" lon="4.9588267" version="2" timestamp="2022-08-25T15:08:29Z" changeset="125366839" uid="3497659" user="NKA">
		<tag k="name" v="Håland" />
		<tag k="place" v="hamlet" />
		<tag k="ssr:stedsnr" v="917781" />
	</node>
	<node id="4868208459" lat="60.5623119" lon="5.0508917" version="5" timestamp="2022-08-25T15:08:29Z" changeset="125366839" uid="3497659" user="NKA">
		<tag k="name" v="Vikebø" />
		<tag k="place" v="village" />
		<tag k="population" v="332" />
		<tag k="population:date" v="2021-01-01" />
		<tag k="ref:ssb_tettsted" v="5326" />
		<tag k="source:population" v="SSB - befolkning i tettstedet" />
		<tag k="ssr:stedsnr" v="590100" />
	</node>
	<node id="6219460044" lat="60.7004243" lon="5.3255554" version="2" timestamp="2022-08-25T15:08:29Z" changeset="125366839" uid="3497659" user="NKA">
		<tag k="name" v="Myking" />
		<tag k="place" v="village" />
		<tag k="ssr:stedsnr" v="673191" />
	</node>
	<node id="6219460057" lat="60.6336279" lon="5.2181005" version="2" timestamp="2022-08-25T15:08:29Z" changeset="125366839" uid="3497659" user="NKA">
		<tag k="alt_name" v="Monstad" />
		<tag k="name" v="Mongstad" />
		<tag k="place" v="hamlet" />
		<tag k="ssr:stedsnr" v="188051" />
	</node>
	<node id="6219460071" lat="60.6757824" lon="5.2177455" version="2" timestamp="2022-08-25T15:08:29Z" changeset="125366839" uid="3497659" user="NKA">
		<tag k="alt_name" v="Hundven" />
		<tag k="name" v="Hundvin" />
		<tag k="place" v="hamlet" />
		<tag k="ssr:stedsnr" v="6238" />
	</node>
	<node id="6219461187" lat="60.6052248" lon="5.3988006" version="2" timestamp="2022-08-25T15:08:29Z" changeset="125366839" uid="3497659" user="NKA">
		<tag k="name" v="Eikangervåg" />
		<tag k="place" v="village" />
		<tag k="ssr:stedsnr" v="917088" />
	</node>
	<node id="6219461190" lat="60.6109434" lon="5.1452049" version="2" timestamp="2022-08-25T15:08:29Z" changeset="125366839" uid="3497659" user="NKA">
		<tag k="name" v="Sæbøvågen" />
		<tag k="place" v="isolated_dwelling" />
		<tag k="ssr:stedsnr" v="431019" />
	</node>
	<node id="7104131436" lat="60.5300498" lon="5.156994" version="4" timestamp="2022-08-25T15:08:29Z" changeset="125366839" uid="3497659" user="NKA">
		<tag k="name" v="Holme" />
		<tag k="place" v="village" />
		<tag k="population" v="941" />
		<tag k="population:date" v="2021-01-01" />
		<tag k="ref:ssb_tettsted" v="5323" />
		<tag k="source:population" v="SSB - befolkning i tettstedet" />
		<tag k="ssr:stedsnr" v="955156" />
	</node>
	<node id="7104131437" lat="60.5347261" lon="5.2595025" version="4" timestamp="2022-08-25T15:08:29Z" changeset="125366839" uid="3497659" user="NKA">
		<tag k="name" v="Flatøy" />
		<tag k="place" v="village" />
		<tag k="population" v="492" />
		<tag k="population:date" v="2021-01-01" />
		<tag k="ref:ssb_tettsted" v="5322" />
		<tag k="source:population" v="SSB - befolkning i tettstedet" />
		<tag k="ssr:stedsnr" v="24526" />
	</node>
	<node id="7104131438" lat="60.5469777" lon="5.2150326" version="4" timestamp="2022-08-25T15:08:29Z" changeset="125366839" uid="3497659" user="NKA">
		<tag k="name" v="Moldekleiv" />
		<tag k="place" v="hamlet" />
		<tag k="population" v="596" />
		<tag k="population:date" v="2021-01-01" />
		<tag k="ref:ssb_tettsted" v="5325" />
		<tag k="source:population" v="SSB - befolkning i tettstedet" />
		<tag k="ssr:stedsnr" v="166130" />
	</node>
	<node id="7104131439" lat="60.5139833" lon="5.1948589" version="4" timestamp="2022-08-25T15:08:29Z" changeset="125366839" uid="3497659" user="NKA">
		<tag k="name" v="Dalemarka" />
		<tag k="place" v="neighbourhood" />
		<tag k="population" v="226" />
		<tag k="population:date" v="2021-01-01" />
		<tag k="ref:ssb_tettsted" v="5324" />
		<tag k="source:population" v="SSB - befolkning i tettstedet" />
		<tag k="ssr:stedsnr" v="404045" />
	</node>
	<node id="7104131440" lat="60.6188004" lon="5.1804982" version="4" timestamp="2022-08-25T15:08:29Z" changeset="125366839" uid="3497659" user="NKA">
		<tag k="name" v="Austmarka" />
		<tag k="place" v="village" />
		<tag k="population" v="402" />
		<tag k="population:date" v="2021-01-01" />
		<tag k="ref:ssb_tettsted" v="5233" />
		<tag k="source:population" v="SSB - befolkning i tettstedet" />
		<tag k="ssr:stedsnr" v="612065" />
	</node>
	<node id="9396290751" lat="60.5445861" lon="5.3180528" version="1" timestamp="2022-01-06T08:52:10Z" changeset="115826984" uid="14343746" user="harahu_import">
		<tag k="bay" v="fjord" />
		<tag k="name" v="Osterfjorden" />
		<tag k="natural" v="bay" />
		<tag k="ssr:stedsnr" v="795102" />
	</node>
	<node id="9977325451" lat="60.6685954" lon="5.0115583" version="1" timestamp="2022-08-25T15:08:29Z" changeset="125366839" uid="3497659" user="NKA">
		<tag k="name" v="Dalland" />
		<tag k="place" v="hamlet" />
		<tag k="ssr:stedsnr" v="491985" />
	</node>
	<node id="9977325452" lat="60.6931958" lon="5.031665" version="1" timestamp="2022-08-25T15:08:29Z" changeset="125366839" uid="3497659" user="NKA">
		<tag k="name" v="Gjerde" />
		<tag k="place" v="farm" />
		<tag k="ssr:stedsnr" v="309780" />
	</node>
	<node id="9977325453" lat="60.634467" lon="5.3611527" version="1" timestamp="2022-08-25T15:08:29Z" changeset="125366839" uid="3497659" user="NKA">
		<tag k="name" v="Høyland" />
		<tag k="place" v="hamlet" />
		<tag k="ssr:stedsnr" v="795082" />
	</node>
	<node id="9977325454" lat="60.6584972" lon="4.9949757" version="1" timestamp="2022-08-25T15:08:29Z" changeset="125366839" uid="3497659" user="NKA">
		<tag k="name" v="Skutehamni" />
		<tag k="place" v="farm" />
		<tag k="ssr:stedsnr" v="492762" />
	</node>
	<node id="9977325455" lat="60.6761159" lon="5.0018788" version="1" timestamp="2022-08-25T15:08:29Z" changeset="125366839" uid="3497659" user="NKA">
		<tag k="name" v="Sætre" />
		<tag k="place" v="hamlet" />
		<tag k="ssr:stedsnr" v="856987" />
	</node>
	<node id="9977325456" lat="60.7277777" lon="5.0142896" version="1" timestamp="2022-08-25T15:08:29Z" changeset="125366839" uid="3497659" user="NKA">
		<tag k="name" v="Nilsegarden" />
		<tag k="place" v="farm" />
		<tag k="ssr:stedsnr" v="651691" />
	</node>
	<node id="9977325457" lat="60.6510527" lon="5.5472866" version="1" timestamp="2022-08-25T15:08:29Z" changeset="125366839" uid="3497659" user="NKA">
		<tag k="historic" v="shieling" />
		<tag k="name" v="Gamlesetra" />
		<tag k="place" v="isolated_dwelling" />
		<tag k="ssr:stedsnr" v="834631" />
	</node>
	<node id="9977325458" lat="60.7269722" lon="5.0092869" version="1" timestamp="2022-08-25T15:08:29Z" changeset="125366839" uid="3497659" user="NKA">
		<tag k="name" v="Tongegarden" />
		<tag k="place" v="farm" />
		<tag k="ssr:stedsnr" v="590712" />
	</node>
	<node id="9977325459" lat="60.6748833" lon="5.0175062" version="1" timestamp="2022-08-25T15:08:29Z" changeset="125366839" uid="3497659" user="NKA">
		<tag k="name" v="Rindane" />
		<tag k="place" v="farm" />
		<tag k="ssr:stedsnr" v="6991" />
	</node>
	<node id="9977325460" lat="60.7287939" lon="5.2363735" version="1" timestamp="2022-08-25T15:08:29Z" changeset="125366839" uid="3497659" user="NKA">
		<tag k="historic" v="shieling" />
		<tag k="name" v="Vabøstølen" />
		<tag k="place" v="isolated_dwelling" />
		<tag k="ssr:stedsnr" v="469162" />
	</node>
	<node id="9977325461" lat="60.5270611" lon="5.2036311" version="1" timestamp="2022-08-25T15:08:29Z" changeset="125366839" uid="3497659" user="NKA">
		<tag k="name" v="Stallen" />
		<tag k="place" v="farm" />
		<tag k="ssr:stedsnr" v="835414" />
	</node>
	<node id="9977325462" lat="60.7221389" lon="5.0264813" version="1" timestamp="2022-08-25T15:08:29Z" changeset="125366839" uid="3497659" user="NKA">
		<tag k="name" v="Sanden" />
		<tag k="place" v="farm" />
		<tag k="ssr:stedsnr" v="590707" />
	</node>
	<node id="9977325463" lat="60.6787053" lon="4.9849032" version="1" timestamp="2022-08-25T15:08:29Z" changeset="125366839" uid="3497659" user="NKA">
		<tag k="alt_name" v="Grindeim" />
		<tag k="name" v="Grindheim" />
		<tag k="place" v="hamlet" />
		<tag k="ssr:stedsnr" v="552817" />
	</node>
	<node id="9977325464" lat="60.6624958" lon="5.0292474" version="1" timestamp="2022-08-25T15:08:29Z" changeset="125366839" uid="3497659" user="NKA">
		<tag k="alt_name" v="Tveiten nedre" />
		<tag k="name" v="Nedre Tveiten" />
		<tag k="place" v="farm" />
		<tag k="ssr:stedsnr" v="288494" />
	</node>
	<node id="9977325465" lat="60.7117313" lon="4.9752858" version="1" timestamp="2022-08-25T15:08:29Z" changeset="125366839" uid="3497659" user="NKA">
		<tag k="name" v="Bakken" />
		<tag k="place" v="farm" />
		<tag k="ssr:stedsnr" v="348451" />
	</node>
	<node id="9977325466" lat="60.7177417" lon="5.5661837" version="1" timestamp="2022-08-25T15:08:29Z" changeset="125366839" uid="3497659" user="NKA">
		<tag k="alt_name" v="Vikesetra" />
		<tag k="historic" v="shieling" />
		<tag k="name" v="Vikasætra" />
		<tag k="place" v="isolated_dwelling" />
		<tag k="ssr:stedsnr" v="370347" />
	</node>
	<node id="9977325467" lat="60.5979856" lon="5.0035484" version="1" timestamp="2022-08-25T15:08:29Z" changeset="125366839" uid="3497659" user="NKA">
		<tag k="name" v="Brotshaug" />
		<tag k="place" v="hamlet" />
		<tag k="ssr:stedsnr" v="772195" />
	</node>
	<node id="9977325468" lat="60.6622438" lon="4.9848953" version="1" timestamp="2022-08-25T15:08:29Z" changeset="125366839" uid="3497659" user="NKA">
		<tag k="alt_name" v="Hella" />
		<tag k="name" v="Innhella" />
		<tag k="place" v="farm" />
		<tag k="ssr:stedsnr" v="188819" />
	</node>
	<node id="9977325469" lat="60.5302681" lon="5.1429799" version="1" timestamp="2022-08-25T15:08:29Z" changeset="125366839" uid="3497659" user="NKA">
		<tag k="name" v="Hjartås" />
		<tag k="place" v="hamlet" />
		<tag k="ssr:stedsnr" v="674382" />
	</node>
	<node id="9977325470" lat="60.554021" lon="5.0075589" version="1" timestamp="2022-08-25T15:08:29Z" changeset="125366839" uid="3497659" user="NKA">
		<tag k="name" v="Øpso" />
		<tag k="place" v="hamlet" />
		<tag k="ssr:stedsnr" v="287108" />
	</node>
	<node id="9977325471" lat="60.5433052" lon="5.1572854" version="1" timestamp="2022-08-25T15:08:29Z" changeset="125366839" uid="3497659" user="NKA">
		<tag k="name" v="Nedre Tveit" />
		<tag k="place" v="farm" />
		<tag k="ssr:stedsnr" v="89652" />
	</node>
	<node id="9977325472" lat="60.5419824" lon="5.1590977" version="1" timestamp="2022-08-25T15:08:29Z" changeset="125366839" uid="3497659" user="NKA">
		<tag k="name" v="Tveiten" />
		<tag k="place" v="farm" />
		<tag k="ssr:stedsnr" v="287094" />
	</node>
	<node id="9977325473" lat="60.5439796" lon="5.123119" version="1" timestamp="2022-08-25T15:08:29Z" changeset="125366839" uid="3497659" user="NKA">
		<tag k="name" v="Brakstad" />
		<tag k="place" v="hamlet" />
		<tag k="ssr:stedsnr" v="856488" />
	</node>
	<node id="9977325474" lat="60.5971695" lon="5.0571924" version="1" timestamp="2022-08-25T15:08:29Z" changeset="125366839" uid="3497659" user="NKA">
		<tag k="historic" v="shieling" />
		<tag k="name" v="Heststølen" />
		<tag k="place" v="isolated_dwelling" />
		<tag k="ssr:stedsnr" v="167363" />
	</node>
	<node id="9977325475" lat="60.5441651" lon="5.1508288" version="1" timestamp="2022-08-25T15:08:29Z" changeset="125366839" uid="3497659" user="NKA">
		<tag k="name" v="Øvre Tveit" />
		<tag k="place" v="farm" />
		<tag k="ssr:stedsnr" v="393680" />
	</node>
	<node id="9977325476" lat="60.5434432" lon="5.119371" version="1" timestamp="2022-08-25T15:08:29Z" changeset="125366839" uid="3497659" user="NKA">
		<tag k="name" v="Ytre-Brakstad" />
		<tag k="place" v="farm" />
		<tag k="ssr:stedsnr" v="955033" />
	</node>
	<node id="9977325477" lat="60.5382302" lon="5.1100574" version="1" timestamp="2022-08-25T15:08:29Z" changeset="125366839" uid="3497659" user="NKA">
		<tag k="name" v="Storåsen" />
		<tag k="place" v="neighbourhood" />
		<tag k="ssr:stedsnr" v="586043" />
	</node>
	<node id="9977325478" lat="60.7118917" lon="4.981575" version="1" timestamp="2022-08-25T15:08:29Z" changeset="125366839" uid="3497659" user="NKA">
		<tag k="name" v="Norangsvågen" />
		<tag k="place" v="hamlet" />
		<tag k="ssr:stedsnr" v="206209" />
	</node>
	<node id="9977325479" lat="60.7289316" lon="5.2606131" version="1" timestamp="2022-08-25T15:08:29Z" changeset="125366839" uid="3497659" user="NKA">
		<tag k="name" v="Natås" />
		<tag k="place" v="farm" />
		<tag k="ssr:stedsnr" v="552695" />
	</node>
	<node id="9977325480" lat="60.541877" lon="5.0865161" version="1" timestamp="2022-08-25T15:08:29Z" changeset="125366839" uid="3497659" user="NKA">
		<tag k="name" v="Leirvik" />
		<tag k="place" v="hamlet" />
		<tag k="ssr:stedsnr" v="795904" />
	</node>
	<node id="9977325481" lat="60.5420496" lon="5.0621009" version="1" timestamp="2022-08-25T15:08:29Z" changeset="125366839" uid="3497659" user="NKA">
		<tag k="name" v="Beitingen" />
		<tag k="place" v="hamlet" />
		<tag k="ssr:stedsnr" v="835489" />
	</node>
	<node id="9977325482" lat="60.5849634" lon="5.1370208" version="1" timestamp="2022-08-25T15:08:29Z" changeset="125366839" uid="3497659" user="NKA">
		<tag k="name" v="Søre Ådland" />
		<tag k="place" v="farm" />
		<tag k="ssr:stedsnr" v="29637" />
	</node>
	<node id="9977325483" lat="60.5393083" lon="5.0958506" version="1" timestamp="2022-08-25T15:08:29Z" changeset="125366839" uid="3497659" user="NKA">
		<tag k="name" v="Træna" />
		<tag k="place" v="farm" />
		<tag k="ssr:stedsnr" v="895268" />
	</node>
	<node id="9977325484" lat="60.6456277" lon="5.0398646" version="1" timestamp="2022-08-25T15:08:29Z" changeset="125366839" uid="3497659" user="NKA">
		<tag k="historic" v="shieling" />
		<tag k="name" v="Mangerstølane" />
		<tag k="place" v="isolated_dwelling" />
		<tag k="ssr:stedsnr" v="834803" />
	</node>
	<node id="9977325485" lat="60.6439642" lon="5.1268233" version="1" timestamp="2022-08-25T15:08:29Z" changeset="125366839" uid="3497659" user="NKA">
		<tag k="name" v="Askeland" />
		<tag k="place" v="hamlet" />
		<tag k="ssr:stedsnr" v="552205" />
	</node>
	<node id="9977325486" lat="60.5431828" lon="5.0514721" version="1" timestamp="2022-08-25T15:08:29Z" changeset="125366839" uid="3497659" user="NKA">
		<tag k="name" v="Nyheim" />
		<tag k="place" v="farm" />
		<tag k="ssr:stedsnr" v="591339" />
	</node>
	<node id="9977325487" lat="60.5506072" lon="5.0408546" version="1" timestamp="2022-08-25T15:08:29Z" changeset="125366839" uid="3497659" user="NKA">
		<tag k="name" v="Eikeland" />
		<tag k="place" v="hamlet" />
		<tag k="ssr:stedsnr" v="6918" />
	</node>
	<node id="9977325488" lat="60.5579176" lon="5.1121964" version="1" timestamp="2022-08-25T15:08:29Z" changeset="125366839" uid="3497659" user="NKA">
		<tag k="name" v="Bjørndal" />
		<tag k="place" v="farm" />
		<tag k="ssr:stedsnr" v="67087" />
	</node>
	<node id="9977325489" lat="60.5561694" lon="5.060659" version="1" timestamp="2022-08-25T15:08:29Z" changeset="125366839" uid="3497659" user="NKA">
		<tag k="name" v="Ryland" />
		<tag k="place" v="farm" />
		<tag k="ssr:stedsnr" v="895442" />
	</node>
	<node id="9977325490" lat="60.5591528" lon="5.1365006" version="1" timestamp="2022-08-25T15:08:29Z" changeset="125366839" uid="3497659" user="NKA">
		<tag k="name" v="Klubben" />
		<tag k="place" v="farm" />
		<tag k="ssr:stedsnr" v="894034" />
	</node>
	<node id="9977325491" lat="60.6709611" lon="5.3340171" version="1" timestamp="2022-08-25T15:08:29Z" changeset="125366839" uid="3497659" user="NKA">
		<tag k="alt_name" v="Myri" />
		<tag k="name" v="Myr" />
		<tag k="place" v="farm" />
		<tag k="ssr:stedsnr" v="734256" />
	</node>
	<node id="9977325492" lat="60.7074503" lon="5.1964759" version="1" timestamp="2022-08-25T15:08:29Z" changeset="125366839" uid="3497659" user="NKA">
		<tag k="name" v="Haugsmyr" />
		<tag k="place" v="farm" />
		<tag k="ssr:stedsnr" v="989430" />
	</node>
	<node id="9977325493" lat="60.5858551" lon="5.1396778" version="1" timestamp="2022-08-25T15:08:29Z" changeset="125366839" uid="3497659" user="NKA">
		<tag k="name" v="Ådland" />
		<tag k="place" v="hamlet" />
		<tag k="ssr:stedsnr" v="491100" />
	</node>
	<node id="9977325494" lat="60.7088528" lon="5.5564754" version="1" timestamp="2022-08-25T15:08:29Z" changeset="125366839" uid="3497659" user="NKA">
		<tag k="historic" v="shieling" />
		<tag k="name" v="Klenlistølen" />
		<tag k="place" v="isolated_dwelling" />
		<tag k="ssr:stedsnr" v="954742" />
	</node>
	<node id="9977325495" lat="60.7081425" lon="5.2101396" version="1" timestamp="2022-08-25T15:08:29Z" changeset="125366839" uid="3497659" user="NKA">
		<tag k="name" v="Brunnsland" />
		<tag k="place" v="hamlet" />
		<tag k="ssr:stedsnr" v="127200" />
	</node>
	<node id="9977325496" lat="60.5218834" lon="5.1933617" version="1" timestamp="2022-08-25T15:08:29Z" changeset="125366839" uid="3497659" user="NKA">
		<tag k="alt_name" v="Bjørkevoll" />
		<tag k="name" v="Burkevellene" />
		<tag k="place" v="farm" />
		<tag k="ssr:stedsnr" v="309415" />
	</node>
	<node id="9977325497" lat="60.7714584" lon="5.5311754" version="1" timestamp="2022-08-25T15:08:29Z" changeset="125366839" uid="3497659" user="NKA">
		<tag k="historic" v="shieling" />
		<tag k="name" v="Liasetra" />
		<tag k="place" v="isolated_dwelling" />
		<tag k="ssr:stedsnr" v="166844" />
	</node>
	<node id="9977325498" lat="60.6339166" lon="5.0684201" version="1" timestamp="2022-08-25T15:08:29Z" changeset="125366839" uid="3497659" user="NKA">
		<tag k="alt_name" v="Morken Ytre" />
		<tag k="name" v="Ytre Morken" />
		<tag k="place" v="farm" />
		<tag k="ssr:stedsnr" v="288555" />
	</node>
	<node id="9977325499" lat="60.6778335" lon="5.2164966" version="1" timestamp="2022-08-25T15:08:29Z" changeset="125366839" uid="3497659" user="NKA">
		<tag k="name" v="Skarvberget" />
		<tag k="place" v="farm" />
		<tag k="ssr:stedsnr" v="509308" />
	</node>
	<node id="9977325500" lat="60.6250223" lon="5.2683087" version="1" timestamp="2022-08-25T15:08:29Z" changeset="125366839" uid="3497659" user="NKA">
		<tag k="alt_name" v="Rydland" />
		<tag k="name" v="Ryland" />
		<tag k="place" v="farm" />
		<tag k="ssr:stedsnr" v="309041" />
	</node>
	<node id="9977325501" lat="60.5415028" lon="5.2337895" version="1" timestamp="2022-08-25T15:08:29Z" changeset="125366839" uid="3497659" user="NKA">
		<tag k="name" v="Sunde" />
		<tag k="place" v="farm" />
		<tag k="ssr:stedsnr" v="955070" />
	</node>
	<node id="9977325502" lat="60.6455419" lon="5.2020545" version="1" timestamp="2022-08-25T15:08:29Z" changeset="125366839" uid="3497659" user="NKA">
		<tag k="name" v="Litloksa" />
		<tag k="place" v="farm" />
		<tag k="ssr:stedsnr" v="795228" />
	</node>
	<node id="9977325503" lat="60.7538321" lon="5.6060199" version="1" timestamp="2022-08-25T15:08:29Z" changeset="125366839" uid="3497659" user="NKA">
		<tag k="name" v="Stussdalen" />
		<tag k="place" v="hamlet" />
		<tag k="ssr:stedsnr" v="615051" />
	</node>
	<node id="9977325504" lat="60.7643834" lon="5.5340892" version="1" timestamp="2022-08-25T15:08:29Z" changeset="125366839" uid="3497659" user="NKA">
		<tag k="historic" v="shieling" />
		<tag k="name" v="Paddøysetra" />
		<tag k="place" v="isolated_dwelling" />
		<tag k="ssr:stedsnr" v="894871" />
	</node>
	<node id="9977325505" lat="60.5871686" lon="5.1507767" version="1" timestamp="2022-08-25T15:08:29Z" changeset="125366839" uid="3497659" user="NKA">
		<tag k="alt_name" v="Refskar" />
		<tag k="name" v="Revskard" />
		<tag k="place" v="farm" />
		<tag k="ssr:stedsnr" v="916103" />
	</node>
	<node id="9977325506" lat="60.5816582" lon="5.2111373" version="1" timestamp="2022-08-25T15:08:29Z" changeset="125366839" uid="3497659" user="NKA">
		<tag k="name" v="Soltveit" />
		<tag k="place" v="hamlet" />
		<tag k="ssr:stedsnr" v="6125" />
	</node>
	<node id="9977325507" lat="60.5727312" lon="5.1770874" version="1" timestamp="2022-08-25T15:08:29Z" changeset="125366839" uid="3497659" user="NKA">
		<tag k="name" v="Gaustad" />
		<tag k="place" v="hamlet" />
		<tag k="ssr:stedsnr" v="491121" />
	</node>
	<node id="9977325508" lat="60.5990889" lon="5.2032728" version="1" timestamp="2022-08-25T15:08:29Z" changeset="125366839" uid="3497659" user="NKA">
		<tag k="name" v="Kallneset" />
		<tag k="place" v="farm" />
		<tag k="ssr:stedsnr" v="67045" />
	</node>
	<node id="9977325509" lat="60.677325" lon="5.2989034" version="1" timestamp="2022-08-25T15:08:29Z" changeset="125366839" uid="3497659" user="NKA">
		<tag k="historic" v="shieling" />
		<tag k="name" v="Tveitasetra" />
		<tag k="place" v="isolated_dwelling" />
		<tag k="ssr:stedsnr" v="773190" />
	</node>
	<node id="9977325510" lat="60.6894541" lon="5.4513488" version="1" timestamp="2022-08-25T15:08:29Z" changeset="125366839" uid="3497659" user="NKA">
		<tag k="name" v="Dyrdal" />
		<tag k="place" v="hamlet" />
		<tag k="ssr:stedsnr" v="673155" />
	</node>
	<node id="9977325511" lat="60.6915667" lon="5.5492393" version="1" timestamp="2022-08-25T15:08:29Z" changeset="125366839" uid="3497659" user="NKA">
		<tag k="historic" v="shieling" />
		<tag k="name" v="Vetlaløa" />
		<tag k="place" v="isolated_dwelling" />
		<tag k="ssr:stedsnr" v="834640" />
	</node>
	<node id="9977325512" lat="60.6014043" lon="5.1796441" version="1" timestamp="2022-08-25T15:08:29Z" changeset="125366839" uid="3497659" user="NKA">
		<tag k="alt_name" v="Haukeland" />
		<tag k="name" v="Haukland" />
		<tag k="place" v="hamlet" />
		<tag k="ssr:stedsnr" v="552023" />
	</node>
	<node id="9977325513" lat="60.6234778" lon="5.3807587" version="1" timestamp="2022-08-25T15:08:29Z" changeset="125366839" uid="3497659" user="NKA">
		<tag k="name" v="Myr" />
		<tag k="place" v="farm" />
		<tag k="ssr:stedsnr" v="673005" />
	</node>
	<node id="9977325514" lat="60.6471587" lon="5.2757835" version="1" timestamp="2022-08-25T15:08:29Z" changeset="125366839" uid="3497659" user="NKA">
		<tag k="name" v="Nystølen" />
		<tag k="place" v="farm" />
		<tag k="ssr:stedsnr" v="492154" />
	</node>
	<node id="9977325515" lat="60.5952695" lon="5.2014089" version="1" timestamp="2022-08-25T15:08:29Z" changeset="125366839" uid="3497659" user="NKA">
		<tag k="name" v="Botnane" />
		<tag k="place" v="farm" />
		<tag k="ssr:stedsnr" v="590766" />
	</node>
	<node id="9977325516" lat="60.634375" lon="5.5597394" version="1" timestamp="2022-08-25T15:08:29Z" changeset="125366839" uid="3497659" user="NKA">
		<tag k="historic" v="shieling" />
		<tag k="name" v="Øvrestølen" />
		<tag k="place" v="isolated_dwelling" />
		<tag k="ssr:stedsnr" v="773547" />
	</node>
	<node id="9977326417" lat="60.6601472" lon="5.4301699" version="1" timestamp="2022-08-25T15:08:29Z" changeset="125366839" uid="3497659" user="NKA">
		<tag k="name" v="Askeland" />
		<tag k="place" v="hamlet" />
		<tag k="ssr:stedsnr" v="431228" />
	</node>
	<node id="9977326418" lat="60.6436795" lon="5.5120277" version="1" timestamp="2022-08-25T15:08:29Z" changeset="125366839" uid="3497659" user="NKA">
		<tag k="name" v="Husdalen" />
		<tag k="place" v="farm" />
		<tag k="ssr:stedsnr" v="552707" />
	</node>
	<node id="9977326419" lat="60.5800611" lon="5.21352" version="1" timestamp="2022-08-25T15:08:29Z" changeset="125366839" uid="3497659" user="NKA">
		<tag k="alt_name" v="Soltveit søre" />
		<tag k="name" v="Søre Soltveit" />
		<tag k="place" v="farm" />
		<tag k="ssr:stedsnr" v="166408" />
	</node>
	<node id="9977326420" lat="60.6797788" lon="5.3931329" version="1" timestamp="2022-08-25T15:08:29Z" changeset="125366839" uid="3497659" user="NKA">
		<tag k="alt_name" v="Veland, nedre;Veland" />
		<tag k="name" v="Nedre Veland" />
		<tag k="place" v="farm" />
		<tag k="ssr:stedsnr" v="491225" />
	</node>
	<node id="9977326421" lat="60.6142611" lon="5.3868477" version="1" timestamp="2022-08-25T15:08:29Z" changeset="125366839" uid="3497659" user="NKA">
		<tag k="alt_name" v="Eikanger øvre" />
		<tag k="name" v="Øvre Eikanger" />
		<tag k="place" v="farm" />
		<tag k="ssr:stedsnr" v="287333" />
	</node>
	<node id="9977326422" lat="60.5905611" lon="4.9962618" version="1" timestamp="2022-08-25T15:08:29Z" changeset="125366839" uid="3497659" user="NKA">
		<tag k="name" v="Hundskjeften" />
		<tag k="place" v="farm" />
		<tag k="ssr:stedsnr" v="713325" />
	</node>
	<node id="9977326423" lat="60.631451" lon="5.5572536" version="1" timestamp="2022-08-25T15:08:29Z" changeset="125366839" uid="3497659" user="NKA">
		<tag k="alt_name" v="Molviki" />
		<tag k="name" v="Molvik" />
		<tag k="place" v="farm" />
		<tag k="ssr:stedsnr" v="839719" />
	</node>
	<node id="9977326424" lat="60.6049121" lon="5.2914321" version="1" timestamp="2022-08-25T15:08:29Z" changeset="125366839" uid="3497659" user="NKA">
		<tag k="alt_name" v="Vatne" />
		<tag k="name" v="Votno" />
		<tag k="place" v="farm" />
		<tag k="ssr:stedsnr" v="127031" />
	</node>
	<node id="9977326425" lat="60.6675139" lon="5.3421173" version="1" timestamp="2022-08-25T15:08:29Z" changeset="125366839" uid="3497659" user="NKA">
		<tag k="name" v="Hauge" />
		<tag k="place" v="hamlet" />
		<tag k="ssr:stedsnr" v="127275" />
	</node>
	<node id="9977326426" lat="60.6442139" lon="5.3809366" version="1" timestamp="2022-08-25T15:08:29Z" changeset="125366839" uid="3497659" user="NKA">
		<tag k="name" v="Svindal" />
		<tag k="place" v="farm" />
		<tag k="ssr:stedsnr" v="127230" />
	</node>
	<node id="9977326427" lat="60.5533554" lon="5.2778759" version="1" timestamp="2022-08-25T15:08:29Z" changeset="125366839" uid="3497659" user="NKA">
		<tag k="name" v="Juvikstølen" />
		<tag k="place" v="neighbourhood" />
		<tag k="ssr:stedsnr" v="56789" />
	</node>
	<node id="9977326428" lat="60.554244" lon="5.0289388" version="1" timestamp="2022-08-25T15:08:29Z" changeset="125366839" uid="3497659" user="NKA">
		<tag k="name" v="Fløholmen" />
		<tag k="place" v="locality" />
		<tag k="ssr:stedsnr" v="631589" />
	</node>
	<node id="9977326429" lat="60.7629416" lon="5.642981" version="1" timestamp="2022-08-25T15:08:29Z" changeset="125366839" uid="3497659" user="NKA">
		<tag k="historic" v="shieling" />
		<tag k="name" v="Høseløena" />
		<tag k="place" v="isolated_dwelling" />
		<tag k="ssr:stedsnr" v="591917" />
	</node>
	<node id="9977326430" lat="60.7536027" lon="5.6287949" version="1" timestamp="2022-08-25T15:08:29Z" changeset="125366839" uid="3497659" user="NKA">
		<tag k="historic" v="shieling" />
		<tag k="name" v="Gamlesetra" />
		<tag k="place" v="isolated_dwelling" />
		<tag k="ssr:stedsnr" v="834817" />
	</node>
	<node id="9977326431" lat="60.6044392" lon="4.9936354" version="1" timestamp="2022-08-25T15:08:29Z" changeset="125366839" uid="3497659" user="NKA">
		<tag k="name" v="Husebø" />
		<tag k="place" v="hamlet" />
		<tag k="ssr:stedsnr" v="370943" />
	</node>
	<node id="9977326432" lat="60.7681835" lon="5.4983895" version="1" timestamp="2022-08-25T15:08:29Z" changeset="125366839" uid="3497659" user="NKA">
		<tag k="historic" v="shieling" />
		<tag k="name" v="Kalvedalen" />
		<tag k="place" v="isolated_dwelling" />
		<tag k="ssr:stedsnr" v="433441" />
	</node>
	<node id="9977326433" lat="60.5948555" lon="5.282928" version="1" timestamp="2022-08-25T15:08:29Z" changeset="125366839" uid="3497659" user="NKA">
		<tag k="name" v="Espeland" />
		<tag k="place" v="farm" />
		<tag k="ssr:stedsnr" v="6118" />
	</node>
	<node id="9977326434" lat="60.5778388" lon="5.2184271" version="1" timestamp="2022-08-25T15:08:29Z" changeset="125366839" uid="3497659" user="NKA">
		<tag k="name" v="Alverstraumen" />
		<tag k="place" v="quarter" />
		<tag k="ssr:stedsnr" v="795159" />
	</node>
	<node id="9977326435" lat="60.5976112" lon="5.2221338" version="1" timestamp="2022-08-25T15:08:29Z" changeset="125366839" uid="3497659" user="NKA">
		<tag k="alt_name" v="Fosse, in;Fosse" />
		<tag k="name" v="Indre Fosse" />
		<tag k="place" v="farm" />
		<tag k="ssr:stedsnr" v="491030" />
	</node>
	<node id="9977326436" lat="60.70705" lon="5.5200449" version="1" timestamp="2022-08-25T15:08:29Z" changeset="125366839" uid="3497659" user="NKA">
		<tag k="historic" v="shieling" />
		<tag k="name" v="Eikefetsætra" />
		<tag k="place" v="isolated_dwelling" />
		<tag k="ssr:stedsnr" v="309319" />
	</node>
	<node id="9977326437" lat="60.5091113" lon="5.2268783" version="1" timestamp="2022-08-25T15:08:29Z" changeset="125366839" uid="3497659" user="NKA">
		<tag k="name" v="Frekhaugmarka" />
		<tag k="place" v="neighbourhood" />
		<tag k="ssr:stedsnr" v="222006" />
	</node>
	<node id="9977326438" lat="60.5878808" lon="5.2296865" version="1" timestamp="2022-08-25T15:08:29Z" changeset="125366839" uid="3497659" user="NKA">
		<tag k="name" v="Furhovden" />
		<tag k="place" v="farm" />
		<tag k="ssr:stedsnr" v="712349" />
	</node>
	<node id="9977326439" lat="60.5092462" lon="5.2146738" version="1" timestamp="2022-08-25T15:08:29Z" changeset="125366839" uid="3497659" user="NKA">
		<tag k="alt_name" v="Mjåtveitstø" />
		<tag k="name" v="Mjåtveitstøi" />
		<tag k="place" v="farm" />
		<tag k="ssr:stedsnr" v="188544" />
	</node>
	<node id="9977326440" lat="60.5726917" lon="5.2215199" version="1" timestamp="2022-08-25T15:08:29Z" changeset="125366839" uid="3497659" user="NKA">
		<tag k="name" v="Hilland" />
		<tag k="place" v="neighbourhood" />
		<tag k="ssr:stedsnr" v="541787" />
	</node>
	<node id="9977326441" lat="60.6595261" lon="5.072864" version="1" timestamp="2022-08-25T15:08:29Z" changeset="125366839" uid="3497659" user="NKA">
		<tag k="alt_name" v="Kjeseter;Kjesæter" />
		<tag k="name" v="Kjeset" />
		<tag k="place" v="farm" />
		<tag k="ssr:stedsnr" v="734982" />
	</node>
	<node id="9977326442" lat="60.659525" lon="4.9910285" version="1" timestamp="2022-08-25T15:08:29Z" changeset="125366839" uid="3497659" user="NKA">
		<tag k="alt_name" v="Hella Indre" />
		<tag k="name" v="Indre Hella" />
		<tag k="place" v="farm" />
		<tag k="ssr:stedsnr" v="591251" />
	</node>
	<node id="9977326443" lat="60.7515778" lon="5.5270505" version="1" timestamp="2022-08-25T15:08:29Z" changeset="125366839" uid="3497659" user="NKA">
		<tag k="historic" v="shieling" />
		<tag k="name" v="Rauneholsetra" />
		<tag k="place" v="isolated_dwelling" />
		<tag k="ssr:stedsnr" v="955663" />
	</node>
	<node id="9977326444" lat="60.5882" lon="5.1292616" version="1" timestamp="2022-08-25T15:08:29Z" changeset="125366839" uid="3497659" user="NKA">
		<tag k="name" v="Øyjordi" />
		<tag k="place" v="farm" />
		<tag k="ssr:stedsnr" v="734101" />
	</node>
	<node id="9977326445" lat="60.7383167" lon="5.6345504" version="1" timestamp="2022-08-25T15:08:29Z" changeset="125366839" uid="3497659" user="NKA">
		<tag k="name" v="Soltun" />
		<tag k="place" v="farm" />
		<tag k="ssr:stedsnr" v="834761" />
	</node>
	<node id="9977326446" lat="60.5583188" lon="5.0680772" version="1" timestamp="2022-08-25T15:08:29Z" changeset="125366839" uid="3497659" user="NKA">
		<tag k="name" v="Skintveit" />
		<tag k="place" v="hamlet" />
		<tag k="ssr:stedsnr" v="491919" />
	</node>
	<node id="9977326447" lat="60.7957305" lon="5.6412449" version="1" timestamp="2022-08-25T15:08:29Z" changeset="125366839" uid="3497659" user="NKA">
		<tag k="name" v="Stranda" />
		<tag k="place" v="farm" />
		<tag k="ssr:stedsnr" v="773853" />
	</node>
	<node id="9977326448" lat="60.6032029" lon="5.0617498" version="1" timestamp="2022-08-25T15:08:29Z" changeset="125366839" uid="3497659" user="NKA">
		<tag k="name" v="Landsvik" />
		<tag k="old_name" v="Nordra Landsvik;Søra Landsvik" />
		<tag k="place" v="hamlet" />
		<tag k="ssr:stedsnr" v="431945" />
	</node>
	<node id="9977326449" lat="60.706875" lon="5.5208727" version="1" timestamp="2022-08-25T15:08:29Z" changeset="125366839" uid="3497659" user="NKA">
		<tag k="historic" v="shieling" />
		<tag k="name" v="Fitjasetra" />
		<tag k="place" v="isolated_dwelling" />
		<tag k="ssr:stedsnr" v="833714" />
	</node>
	<node id="9977326450" lat="60.5708702" lon="5.0410027" version="1" timestamp="2022-08-25T15:08:29Z" changeset="125366839" uid="3497659" user="NKA">
		<tag k="name" v="Skurtveit" />
		<tag k="place" v="hamlet" />
		<tag k="ssr:stedsnr" v="894132" />
	</node>
	<node id="9977326451" lat="60.6055034" lon="5.026993" version="1" timestamp="2022-08-25T15:08:29Z" changeset="125366839" uid="3497659" user="NKA">
		<tag k="name" v="Kårbø" />
		<tag k="place" v="hamlet" />
		<tag k="ssr:stedsnr" v="469157" />
	</node>
	<node id="9977326452" lat="60.764075" lon="5.5343449" version="1" timestamp="2022-08-25T15:08:29Z" changeset="125366839" uid="3497659" user="NKA">
		<tag k="historic" v="shieling" />
		<tag k="name" v="Paddesætret" />
		<tag k="place" v="isolated_dwelling" />
		<tag k="ssr:stedsnr" v="615034" />
	</node>
	<node id="9977326453" lat="60.75485" lon="5.4915643" version="1" timestamp="2022-08-25T15:08:29Z" changeset="125366839" uid="3497659" user="NKA">
		<tag k="historic" v="shieling" />
		<tag k="name" v="Norddalssetra" />
		<tag k="place" v="isolated_dwelling" />
		<tag k="ssr:stedsnr" v="712620" />
	</node>
	<node id="9977326454" lat="60.6570199" lon="4.9560802" version="1" timestamp="2022-08-25T15:08:29Z" changeset="125366839" uid="3497659" user="NKA">
		<tag k="alt_name" v="Flone" />
		<tag k="name" v="Floni" />
		<tag k="place" v="farm" />
		<tag k="ssr:stedsnr" v="248989" />
	</node>
	<node id="9977326455" lat="60.7363278" lon="5.5502059" version="1" timestamp="2022-08-25T15:08:29Z" changeset="125366839" uid="3497659" user="NKA">
		<tag k="historic" v="shieling" />
		<tag k="name" v="Store-Aurdalssætra" />
		<tag k="place" v="isolated_dwelling" />
		<tag k="ssr:stedsnr" v="370483" />
	</node>
	<node id="9977326456" lat="60.7691389" lon="5.6347393" version="1" timestamp="2022-08-25T15:08:29Z" changeset="125366839" uid="3497659" user="NKA">
		<tag k="alt_name" v="Svartholsetra" />
		<tag k="historic" v="shieling" />
		<tag k="name" v="Svartholet" />
		<tag k="old_name" v="Svartholsetri" />
		<tag k="place" v="isolated_dwelling" />
		<tag k="ssr:stedsnr" v="433431" />
	</node>
	<node id="9977326457" lat="60.7854802" lon="5.6222812" version="1" timestamp="2022-08-25T15:08:29Z" changeset="125366839" uid="3497659" user="NKA">
		<tag k="name" v="Nipa" />
		<tag k="place" v="farm" />
		<tag k="ssr:stedsnr" v="554477" />
	</node>
	<node id="9977326458" lat="60.6410714" lon="4.9707992" version="1" timestamp="2022-08-25T15:08:29Z" changeset="125366839" uid="3497659" user="NKA">
		<tag k="name" v="Toska" />
		<tag k="place" v="hamlet" />
		<tag k="ssr:stedsnr" v="188984" />
	</node>
	<node id="9977326459" lat="60.7545333" lon="5.4925837" version="1" timestamp="2022-08-25T15:08:29Z" changeset="125366839" uid="3497659" user="NKA">
		<tag k="historic" v="shieling" />
		<tag k="name" v="Norddalen" />
		<tag k="place" v="isolated_dwelling" />
		<tag k="ssr:stedsnr" v="554038" />
	</node>
	<node id="9977326460" lat="60.7004383" lon="5.5965054" version="1" timestamp="2022-08-25T15:08:29Z" changeset="125366839" uid="3497659" user="NKA">
		<tag k="alt_name" v="Vikesund" />
		<tag k="name" v="Vikasund" />
		<tag k="place" v="farm" />
		<tag k="ssr:stedsnr" v="67288" />
	</node>
	<node id="9977326461" lat="60.6651242" lon="5.1757398" version="1" timestamp="2022-08-25T15:08:29Z" changeset="125366839" uid="3497659" user="NKA">
		<tag k="alt_name" v="Tofting" />
		<tag k="name" v="Toptingi" />
		<tag k="place" v="farm" />
		<tag k="ssr:stedsnr" v="734270" />
	</node>
	<node id="9977326462" lat="60.6126778" lon="5.167045" version="1" timestamp="2022-08-25T15:08:29Z" changeset="125366839" uid="3497659" user="NKA">
		<tag k="alt_name" v="Tjore Midtre" />
		<tag k="name" v="Midtre Tjore" />
		<tag k="place" v="farm" />
		<tag k="ssr:stedsnr" v="955731" />
	</node>
	<node id="9977326463" lat="60.7630695" lon="5.5722699" version="1" timestamp="2022-08-25T15:08:29Z" changeset="125366839" uid="3497659" user="NKA">
		<tag k="name" v="Bjørn West-hytta" />
		<tag k="place" v="isolated_dwelling" />
		<tag k="ssr:stedsnr" v="106863" />
	</node>
	<node id="9977326464" lat="60.6502472" lon="5.1301644" version="1" timestamp="2022-08-25T15:08:29Z" changeset="125366839" uid="3497659" user="NKA">
		<tag k="name" v="Pesvik" />
		<tag k="place" v="isolated_dwelling" />
		<tag k="ssr:stedsnr" v="327280" />
	</node>
	<node id="9977326465" lat="60.6824629" lon="5.2187093" version="1" timestamp="2022-08-25T15:08:29Z" changeset="125366839" uid="3497659" user="NKA">
		<tag k="name" v="Tveitarås" />
		<tag k="place" v="farm" />
		<tag k="ssr:stedsnr" v="328288" />
	</node>
	<node id="9977326466" lat="60.642124" lon="5.1794599" version="1" timestamp="2022-08-25T15:08:29Z" changeset="125366839" uid="3497659" user="NKA">
		<tag k="name" v="Smørdal" />
		<tag k="place" v="farm" />
		<tag k="ssr:stedsnr" v="431212" />
	</node>
	<node id="9977326467" lat="60.7781139" lon="5.631542" version="1" timestamp="2022-08-25T15:08:29Z" changeset="125366839" uid="3497659" user="NKA">
		<tag k="historic" v="shieling" />
		<tag k="name" v="Nysetra" />
		<tag k="place" v="isolated_dwelling" />
		<tag k="ssr:stedsnr" v="530903" />
	</node>
	<node id="9977326468" lat="60.6553096" lon="5.1822019" version="1" timestamp="2022-08-25T15:08:29Z" changeset="125366839" uid="3497659" user="NKA">
		<tag k="name" v="Øvre Myksvoll" />
		<tag k="place" v="farm" />
		<tag k="ssr:stedsnr" v="227342" />
	</node>
	<node id="9977326469" lat="60.6016167" lon="5.2168894" version="1" timestamp="2022-08-25T15:08:29Z" changeset="125366839" uid="3497659" user="NKA">
		<tag k="alt_name" v="Fosse, yt" />
		<tag k="name" v="Ytre Fosse" />
		<tag k="place" v="farm" />
		<tag k="ssr:stedsnr" v="916027" />
	</node>
	<node id="9977326470" lat="60.6079361" lon="5.2463534" version="1" timestamp="2022-08-25T15:08:29Z" changeset="125366839" uid="3497659" user="NKA">
		<tag k="historic" v="shieling" />
		<tag k="name" v="Gullstølen" />
		<tag k="place" v="isolated_dwelling" />
		<tag k="ssr:stedsnr" v="287036" />
	</node>
	<node id="9977326471" lat="60.6070611" lon="5.24492" version="1" timestamp="2022-08-25T15:08:29Z" changeset="125366839" uid="3497659" user="NKA">
		<tag k="alt_name" v="Elsås Søre" />
		<tag k="name" v="Søre Elsås" />
		<tag k="place" v="farm" />
		<tag k="ssr:stedsnr" v="166047" />
	</node>
	<node id="9977326472" lat="60.6126583" lon="5.1480423" version="1" timestamp="2022-08-25T15:08:29Z" changeset="125366839" uid="3497659" user="NKA">
		<tag k="alt_name" v="Sæbø Ytre" />
		<tag k="name" v="Ytre Sæbø" />
		<tag k="place" v="farm" />
		<tag k="ssr:stedsnr" v="105740" />
	</node>
	<node id="9977326473" lat="60.6046614" lon="5.1750801" version="1" timestamp="2022-08-25T15:08:29Z" changeset="125366839" uid="3497659" user="NKA">
		<tag k="alt_name" v="Storheim" />
		<tag k="name" v="Storeim" />
		<tag k="place" v="farm" />
		<tag k="ssr:stedsnr" v="249010" />
	</node>
	<node id="9977326474" lat="60.6129861" lon="5.1650534" version="1" timestamp="2022-08-25T15:08:29Z" changeset="125366839" uid="3497659" user="NKA">
		<tag k="alt_name" v="Tjore Nedre" />
		<tag k="name" v="Nedre Tjore" />
		<tag k="place" v="farm" />
		<tag k="ssr:stedsnr" v="469761" />
	</node>
	<node id="9977326475" lat="60.6068583" lon="5.1328394" version="1" timestamp="2022-08-25T15:08:29Z" changeset="125366839" uid="3497659" user="NKA">
		<tag k="alt_name" v="Kvalvik" />
		<tag k="name" v="Kvalviki" />
		<tag k="place" v="farm" />
		<tag k="ssr:stedsnr" v="127018" />
	</node>
	<node id="9977326476" lat="60.5889916" lon="5.2875394" version="1" timestamp="2022-08-25T15:08:29Z" changeset="125366839" uid="3497659" user="NKA">
		<tag k="historic" v="shieling" />
		<tag k="name" v="Slåstølen" />
		<tag k="place" v="isolated_dwelling" />
		<tag k="ssr:stedsnr" v="105033" />
	</node>
	<node id="9977326477" lat="60.6114639" lon="5.1695005" version="1" timestamp="2022-08-25T15:08:29Z" changeset="125366839" uid="3497659" user="NKA">
		<tag k="alt_name" v="Tjore Indre" />
		<tag k="name" v="Indre Tjore" />
		<tag k="place" v="farm" />
		<tag k="ssr:stedsnr" v="773706" />
	</node>
	<node id="9977326478" lat="60.6635167" lon="4.9744285" version="1" timestamp="2022-08-25T15:08:29Z" changeset="125366839" uid="3497659" user="NKA">
		<tag k="historic" v="shieling" />
		<tag k="name" v="Stølen" />
		<tag k="place" v="isolated_dwelling" />
		<tag k="ssr:stedsnr" v="348257" />
	</node>
	<node id="9977326479" lat="60.6635735" lon="4.9815823" version="1" timestamp="2022-08-25T15:08:29Z" changeset="125366839" uid="3497659" user="NKA">
		<tag k="name" v="Hella" />
		<tag k="place" v="hamlet" />
		<tag k="ssr:stedsnr" v="6808" />
	</node>
	<node id="9977326480" lat="60.5931916" lon="4.9900757" version="1" timestamp="2022-08-25T15:08:29Z" changeset="125366839" uid="3497659" user="NKA">
		<tag k="name" v="Sætre" />
		<tag k="place" v="hamlet" />
		<tag k="ssr:stedsnr" v="188944" />
	</node>
	<node id="9977326481" lat="60.7510396" lon="5.1005964" version="1" timestamp="2022-08-25T15:08:29Z" changeset="125366839" uid="3497659" user="NKA">
		<tag k="name" v="Verås" />
		<tag k="place" v="farm" />
		<tag k="ssr:stedsnr" v="615710" />
	</node>
	<node id="9977326482" lat="60.621965" lon="5.0838991" version="1" timestamp="2022-08-25T15:08:29Z" changeset="125366839" uid="3497659" user="NKA">
		<tag k="name" v="Bogehamn" />
		<tag k="place" v="hamlet" />
		<tag k="ssr:stedsnr" v="207612" />
	</node>
	<node id="9977326483" lat="60.6236037" lon="5.1384403" version="1" timestamp="2022-08-25T15:08:29Z" changeset="125366839" uid="3497659" user="NKA">
		<tag k="name" v="Holo" />
		<tag k="place" v="farm" />
		<tag k="ssr:stedsnr" v="67049" />
	</node>
	<node id="9977326484" lat="60.6035056" lon="5.2201783" version="1" timestamp="2022-08-25T15:08:29Z" changeset="125366839" uid="3497659" user="NKA">
		<tag k="historic" v="shieling" />
		<tag k="name" v="Stølane" />
		<tag k="place" v="isolated_dwelling" />
		<tag k="ssr:stedsnr" v="895345" />
	</node>
	<node id="9977326485" lat="60.7533417" lon="5.066284" version="1" timestamp="2022-08-25T15:08:29Z" changeset="125366839" uid="3497659" user="NKA">
		<tag k="name" v="Rissundet" />
		<tag k="place" v="neighbourhood" />
		<tag k="ssr:stedsnr" v="117788" />
	</node>
	<node id="9977326486" lat="60.6108222" lon="5.154484" version="1" timestamp="2022-08-25T15:08:29Z" changeset="125366839" uid="3497659" user="NKA">
		<tag k="alt_name" v="Sæbø Indre" />
		<tag k="name" v="Indre Sæbø" />
		<tag k="place" v="farm" />
		<tag k="ssr:stedsnr" v="894748" />
	</node>
	<node id="9977326487" lat="60.6524785" lon="5.182925" version="1" timestamp="2022-08-25T15:08:29Z" changeset="125366839" uid="3497659" user="NKA">
		<tag k="alt_name" v="Nedre Myksvoll" />
		<tag k="name" v="Myksvoll" />
		<tag k="place" v="hamlet" />
		<tag k="ssr:stedsnr" v="6253" />
	</node>
	<node id="9977326488" lat="60.67944" lon="5.0644614" version="1" timestamp="2022-08-25T15:08:29Z" changeset="125366839" uid="3497659" user="NKA">
		<tag k="name" v="Sletten" />
		<tag k="place" v="farm" />
		<tag k="ssr:stedsnr" v="651666" />
	</node>
	<node id="9977326489" lat="60.5910234" lon="5.2070996" version="1" timestamp="2022-08-25T15:08:29Z" changeset="125366839" uid="3497659" user="NKA">
		<tag k="alt_name" v="Remme" />
		<tag k="name" v="Rimmo" />
		<tag k="place" v="farm" />
		<tag k="ssr:stedsnr" v="6115" />
	</node>
	<node id="9977326490" lat="60.5707027" lon="5.077995" version="1" timestamp="2022-08-25T15:08:29Z" changeset="125366839" uid="3497659" user="NKA">
		<tag k="name" v="Åsebø" />
		<tag k="place" v="hamlet" />
		<tag k="ssr:stedsnr" v="590110" />
	</node>
	<node id="9977326491" lat="60.7791584" lon="5.0706312" version="1" timestamp="2022-08-25T15:08:29Z" changeset="125366839" uid="3497659" user="NKA">
		<tag k="name" v="Hellestveit" />
		<tag k="place" v="farm" />
		<tag k="ssr:stedsnr" v="493205" />
	</node>
	<node id="9977326492" lat="60.5929567" lon="5.184418" version="1" timestamp="2022-08-25T15:08:29Z" changeset="125366839" uid="3497659" user="NKA">
		<tag k="alt_name" v="Vetås Søre" />
		<tag k="name" v="Søre Vetås" />
		<tag k="place" v="farm" />
		<tag k="ssr:stedsnr" v="712755" />
	</node>
	<node id="9977326493" lat="60.643225" lon="5.2036283" version="1" timestamp="2022-08-25T15:08:29Z" changeset="125366839" uid="3497659" user="NKA">
		<tag k="name" v="Mykletun" />
		<tag k="place" v="farm" />
		<tag k="ssr:stedsnr" v="651323" />
	</node>
	<node id="9977326494" lat="60.6169778" lon="5.1469701" version="1" timestamp="2022-08-25T15:08:29Z" changeset="125366839" uid="3497659" user="NKA">
		<tag k="name" v="Dalen" />
		<tag k="place" v="farm" />
		<tag k="ssr:stedsnr" v="651745" />
	</node>
	<node id="9977326495" lat="60.6906639" lon="5.232434" version="1" timestamp="2022-08-25T15:08:29Z" changeset="125366839" uid="3497659" user="NKA">
		<tag k="alt_name" v="Skodven, nedre;Skodven" />
		<tag k="name" v="Nedre Skodven" />
		<tag k="place" v="farm" />
		<tag k="ssr:stedsnr" v="856125" />
	</node>
	<node id="9977326496" lat="60.599925" lon="5.1789117" version="1" timestamp="2022-08-25T15:08:29Z" changeset="125366839" uid="3497659" user="NKA">
		<tag k="alt_name" v="Haukeland Søre" />
		<tag k="name" v="Søre Haukeland" />
		<tag k="place" v="farm" />
		<tag k="ssr:stedsnr" v="590762" />
	</node>
	<node id="9977326497" lat="60.6044" lon="5.1939006" version="1" timestamp="2022-08-25T15:08:29Z" changeset="125366839" uid="3497659" user="NKA">
		<tag k="name" v="Storheim" />
		<tag k="place" v="farm" />
		<tag k="ssr:stedsnr" v="712749" />
	</node>
	<node id="9977326498" lat="60.6403889" lon="5.0411729" version="1" timestamp="2022-08-25T15:08:29Z" changeset="125366839" uid="3497659" user="NKA">
		<tag k="alt_name" v="Manger Nedre" />
		<tag k="name" v="Nedre Manger" />
		<tag k="place" v="farm" />
		<tag k="ssr:stedsnr" v="166566" />
	</node>
	<node id="9977326499" lat="60.6203555" lon="5.2428644" version="1" timestamp="2022-08-25T15:08:29Z" changeset="125366839" uid="3497659" user="NKA">
		<tag k="name" v="Søre Li" />
		<tag k="place" v="farm" />
		<tag k="ssr:stedsnr" v="894054" />
	</node>
	<node id="9977326500" lat="60.6360859" lon="5.2061484" version="1" timestamp="2022-08-25T15:08:29Z" changeset="125366839" uid="3497659" user="NKA">
		<tag k="name" v="Storoksa" />
		<tag k="place" v="farm" />
		<tag k="ssr:stedsnr" v="491205" />
	</node>
	<node id="9977326501" lat="60.710277" lon="5.0370406" version="1" timestamp="2022-08-25T15:08:29Z" changeset="125366839" uid="3497659" user="NKA">
		<tag k="name" v="Vallersneset" />
		<tag k="place" v="hamlet" />
		<tag k="ssr:stedsnr" v="309828" />
	</node>
	<node id="9977326502" lat="60.5624722" lon="5.0468506" version="1" timestamp="2022-08-25T15:08:29Z" changeset="125366839" uid="3497659" user="NKA">
		<tag k="name" v="Kvernhaugen" />
		<tag k="place" v="neighbourhood" />
		<tag k="ssr:stedsnr" v="646050" />
	</node>
	<node id="9977326503" lat="60.6489694" lon="5.1959339" version="1" timestamp="2022-08-25T15:08:29Z" changeset="125366839" uid="3497659" user="NKA">
		<tag k="historic" v="shieling" />
		<tag k="name" v="Høgstølen" />
		<tag k="place" v="isolated_dwelling" />
		<tag k="ssr:stedsnr" v="834346" />
	</node>
	<node id="9977326504" lat="60.5891472" lon="5.2962782" version="1" timestamp="2022-08-25T15:08:29Z" changeset="125366839" uid="3497659" user="NKA">
		<tag k="alt_name" v="Kopperdal Nordre" />
		<tag k="name" v="Nordre Kopperdal" />
		<tag k="place" v="farm" />
		<tag k="ssr:stedsnr" v="955135" />
	</node>
	<node id="9977326505" lat="60.6606447" lon="5.0244222" version="1" timestamp="2022-08-25T15:08:29Z" changeset="125366839" uid="3497659" user="NKA">
		<tag k="alt_name" v="Tveiten øvre" />
		<tag k="name" v="Øvre Tveiten" />
		<tag k="place" v="farm" />
		<tag k="ssr:stedsnr" v="409541" />
	</node>
	<node id="9977326506" lat="60.5635917" lon="5.2486921" version="1" timestamp="2022-08-25T15:08:29Z" changeset="125366839" uid="3497659" user="NKA">
		<tag k="name" v="Steingard" />
		<tag k="place" v="farm" />
		<tag k="ssr:stedsnr" v="916081" />
	</node>
	<node id="9977326507" lat="60.5909597" lon="5.2825275" version="1" timestamp="2022-08-25T15:08:29Z" changeset="125366839" uid="3497659" user="NKA">
		<tag k="name" v="Hjelmtveit" />
		<tag k="place" v="hamlet" />
		<tag k="ssr:stedsnr" v="310104" />
	</node>
	<node id="9977326508" lat="60.661198" lon="5.0275532" version="1" timestamp="2022-08-25T15:08:29Z" changeset="125366839" uid="3497659" user="NKA">
		<tag k="name" v="Tveiten" />
		<tag k="place" v="hamlet" />
		<tag k="ssr:stedsnr" v="188979" />
	</node>
	<node id="9977326509" lat="60.5870833" lon="5.299881" version="1" timestamp="2022-08-25T15:08:29Z" changeset="125366839" uid="3497659" user="NKA">
		<tag k="alt_name" v="Kopperdal Søre" />
		<tag k="name" v="Søre Kopperdal" />
		<tag k="place" v="farm" />
		<tag k="ssr:stedsnr" v="773143" />
	</node>
	<node id="9977326510" lat="60.5845312" lon="5.1930531" version="1" timestamp="2022-08-25T15:08:29Z" changeset="125366839" uid="3497659" user="NKA">
		<tag k="alt_name" v="Fjellsende" />
		<tag k="name" v="Fjellsenda" />
		<tag k="place" v="farm" />
		<tag k="ssr:stedsnr" v="431128" />
	</node>
	<node id="9977326511" lat="60.6143556" lon="5.2524311" version="1" timestamp="2022-08-25T15:08:29Z" changeset="125366839" uid="3497659" user="NKA">
		<tag k="name" v="Nymark" />
		<tag k="place" v="farm" />
		<tag k="ssr:stedsnr" v="309012" />
	</node>
	<node id="9977326512" lat="60.5903722" lon="5.2853616" version="1" timestamp="2022-08-25T15:08:29Z" changeset="125366839" uid="3497659" user="NKA">
		<tag k="historic" v="shieling" />
		<tag k="name" v="Høgstølen" />
		<tag k="place" v="isolated_dwelling" />
		<tag k="ssr:stedsnr" v="712035" />
	</node>
	<node id="9977326513" lat="60.6105573" lon="5.2111677" version="1" timestamp="2022-08-25T15:08:29Z" changeset="125366839" uid="3497659" user="NKA">
		<tag k="name" v="Selevoll" />
		<tag k="place" v="hamlet" />
		<tag k="ssr:stedsnr" v="309014" />
	</node>
	<node id="9977326514" lat="60.7924204" lon="5.0658814" version="1" timestamp="2022-08-25T15:08:29Z" changeset="125366839" uid="3497659" user="NKA">
		<tag k="name" v="Mongstad Base" />
		<tag k="place" v="neighbourhood" />
		<tag k="ssr:stedsnr" v="905654" />
	</node>
	<node id="9977326515" lat="60.7291553" lon="5.1848372" version="1" timestamp="2022-08-25T15:08:29Z" changeset="125366839" uid="3497659" user="NKA">
		<tag k="name" v="Haukås" />
		<tag k="place" v="farm" />
		<tag k="ssr:stedsnr" v="268894" />
	</node>
	<node id="9977326516" lat="60.6584083" lon="5.322356" version="1" timestamp="2022-08-25T15:08:29Z" changeset="125366839" uid="3497659" user="NKA">
		<tag k="name" v="Øvretveit" />
		<tag k="place" v="farm" />
		<tag k="ssr:stedsnr" v="955085" />
	</node>
	<node id="9977326517" lat="60.7501222" lon="5.0713034" version="1" timestamp="2022-08-25T15:08:29Z" changeset="125366839" uid="3497659" user="NKA">
		<tag k="name" v="Skireidet" />
		<tag k="place" v="farm" />
		<tag k="ssr:stedsnr" v="955495" />
	</node>
	<node id="9977326518" lat="60.7235912" lon="5.0244614" version="1" timestamp="2022-08-25T15:08:29Z" changeset="125366839" uid="3497659" user="NKA">
		<tag k="name" v="Østli" />
		<tag k="place" v="farm" />
		<tag k="ssr:stedsnr" v="1077945" />
	</node>
	<node id="9977326519" lat="60.6210052" lon="5.2758668" version="1" timestamp="2022-08-25T15:08:29Z" changeset="125366839" uid="3497659" user="NKA">
		<tag k="name" v="Hopland" />
		<tag k="place" v="farm" />
		<tag k="ssr:stedsnr" v="188068" />
	</node>
	<node id="9977326520" lat="60.6341429" lon="5.4918276" version="1" timestamp="2022-08-25T15:08:29Z" changeset="125366839" uid="3497659" user="NKA">
		<tag k="alt_name" v="Bjørsviki" />
		<tag k="name" v="Bjørsvik" />
		<tag k="place" v="hamlet" />
		<tag k="ssr:stedsnr" v="795692" />
	</node>
	<node id="9977326521" lat="60.6134277" lon="5.2812142" version="1" timestamp="2022-08-25T15:08:29Z" changeset="125366839" uid="3497659" user="NKA">
		<tag k="name" v="Seim" />
		<tag k="place" v="farm" />
		<tag k="ssr:stedsnr" v="188069" />
	</node>
	<node id="9977326522" lat="60.5776052" lon="5.3588441" version="1" timestamp="2022-08-25T15:08:29Z" changeset="125366839" uid="3497659" user="NKA">
		<tag k="alt_name" v="Øvstegård" />
		<tag k="name" v="Øvstegarden" />
		<tag k="place" v="farm" />
		<tag k="ssr:stedsnr" v="916076" />
	</node>
	<node id="9977326523" lat="60.5872551" lon="5.3428743" version="1" timestamp="2022-08-25T15:08:29Z" changeset="125366839" uid="3497659" user="NKA">
		<tag k="name" v="Hodnesdal" />
		<tag k="place" v="farm" />
		<tag k="ssr:stedsnr" v="795149" />
	</node>
	<node id="9977326524" lat="60.6713982" lon="5.2770479" version="1" timestamp="2022-08-25T15:08:29Z" changeset="125366839" uid="3497659" user="NKA">
		<tag k="name" v="Vik" />
		<tag k="place" v="farm" />
		<tag k="ssr:stedsnr" v="188260" />
	</node>
	<node id="9977326525" lat="60.7414167" lon="5.0569479" version="1" timestamp="2022-08-25T15:08:29Z" changeset="125366839" uid="3497659" user="NKA">
		<tag k="name" v="Midthagen" />
		<tag k="place" v="farm" />
		<tag k="ssr:stedsnr" v="409481" />
	</node>
	<node id="9977326526" lat="60.6397218" lon="5.1773072" version="1" timestamp="2022-08-25T15:08:29Z" changeset="125366839" uid="3497659" user="NKA">
		<tag k="name" v="Titland" />
		<tag k="place" v="hamlet" />
		<tag k="ssr:stedsnr" v="188235" />
	</node>
	<node id="9977326527" lat="60.6305441" lon="5.2155571" version="1" timestamp="2022-08-25T15:08:29Z" changeset="125366839" uid="3497659" user="NKA">
		<tag k="name" v="Bøkevoll" />
		<tag k="place" v="farm" />
		<tag k="ssr:stedsnr" v="67060" />
	</node>
	<node id="9977326528" lat="60.6161284" lon="5.1586459" version="1" timestamp="2022-08-25T15:08:29Z" changeset="125366839" uid="3497659" user="NKA">
		<tag k="name" v="Solheim" />
		<tag k="place" v="hamlet" />
		<tag k="ssr:stedsnr" v="67072" />
	</node>
	<node id="9977326529" lat="60.6731031" lon="5.3309908" version="1" timestamp="2022-08-25T15:08:29Z" changeset="125366839" uid="3497659" user="NKA">
		<tag k="name" v="Li" />
		<tag k="place" v="hamlet" />
		<tag k="ssr:stedsnr" v="612248" />
	</node>
	<node id="9977326530" lat="60.6175211" lon="5.3805195" version="1" timestamp="2022-08-25T15:08:29Z" changeset="125366839" uid="3497659" user="NKA">
		<tag k="name" v="Li" />
		<tag k="place" v="farm" />
		<tag k="ssr:stedsnr" v="734027" />
	</node>
	<node id="9977326531" lat="60.6141161" lon="5.3621943" version="1" timestamp="2022-08-25T15:08:29Z" changeset="125366839" uid="3497659" user="NKA">
		<tag k="name" v="Stykket" />
		<tag k="place" v="farm" />
		<tag k="ssr:stedsnr" v="734028" />
	</node>
	<node id="9977326532" lat="60.5985954" lon="5.2922218" version="1" timestamp="2022-08-25T15:08:29Z" changeset="125366839" uid="3497659" user="NKA">
		<tag k="name" v="Eikeland" />
		<tag k="place" v="hamlet" />
		<tag k="ssr:stedsnr" v="674024" />
	</node>
	<node id="9977326533" lat="60.6155417" lon="5.1542645" version="1" timestamp="2022-08-25T15:08:29Z" changeset="125366839" uid="3497659" user="NKA">
		<tag k="alt_name" v="Solheim Vestre" />
		<tag k="name" v="Vestre Solheim" />
		<tag k="place" v="farm" />
		<tag k="ssr:stedsnr" v="44738" />
	</node>
	<node id="9977326534" lat="60.6189666" lon="5.3496256" version="1" timestamp="2022-08-25T15:08:29Z" changeset="125366839" uid="3497659" user="NKA">
		<tag k="name" v="Vassbygdi" />
		<tag k="place" v="hamlet" />
		<tag k="ssr:stedsnr" v="431057" />
	</node>
	<node id="9977326535" lat="60.651325" lon="5.3861422" version="1" timestamp="2022-08-25T15:08:29Z" changeset="125366839" uid="3497659" user="NKA">
		<tag k="name" v="Asgard" />
		<tag k="place" v="farm" />
		<tag k="ssr:stedsnr" v="612236" />
	</node>
	<node id="9977326536" lat="60.5600257" lon="5.3181888" version="1" timestamp="2022-08-25T15:08:29Z" changeset="125366839" uid="3497659" user="NKA">
		<tag k="alt_name" v="Grøttveit" />
		<tag k="name" v="Grottveit" />
		<tag k="place" v="farm" />
		<tag k="ssr:stedsnr" v="67456" />
	</node>
	<node id="9977326537" lat="60.5344786" lon="5.1997799" version="1" timestamp="2022-08-25T15:08:29Z" changeset="125366839" uid="3497659" user="NKA">
		<tag k="name" v="Øvre Sagstad" />
		<tag k="place" v="farm" />
		<tag k="ssr:stedsnr" v="29636" />
	</node>
	<node id="9977326538" lat="60.5871519" lon="5.2315858" version="1" timestamp="2022-08-25T15:08:29Z" changeset="125366839" uid="3497659" user="NKA">
		<tag k="name" v="Kvamsvåg" />
		<tag k="place" v="hamlet" />
		<tag k="ssr:stedsnr" v="44223" />
	</node>
	<node id="9977326539" lat="60.5720139" lon="5.3707033" version="1" timestamp="2022-08-25T15:08:29Z" changeset="125366839" uid="3497659" user="NKA">
		<tag k="historic" v="shieling" />
		<tag k="name" v="Eikelistølen" />
		<tag k="place" v="isolated_dwelling" />
		<tag k="ssr:stedsnr" v="651329" />
	</node>
	<node id="9977326540" lat="60.5573218" lon="5.3096547" version="1" timestamp="2022-08-25T15:08:29Z" changeset="125366839" uid="3497659" user="NKA">
		<tag k="alt_name" v="Gjerdviki, in" />
		<tag k="name" v="Indre Gjerdviki" />
		<tag k="place" v="farm" />
		<tag k="ssr:stedsnr" v="6467" />
	</node>
	<node id="9977326541" lat="60.6426334" lon="5.1109335" version="1" timestamp="2022-08-25T15:08:29Z" changeset="125366839" uid="3497659" user="NKA">
		<tag k="name" v="Brattaule" />
		<tag k="place" v="farm" />
		<tag k="ssr:stedsnr" v="856198" />
	</node>
	<node id="9977326542" lat="60.5529514" lon="5.2167271" version="1" timestamp="2022-08-25T15:08:29Z" changeset="125366839" uid="3497659" user="NKA">
		<tag k="name" v="Heiane" />
		<tag k="place" v="neighbourhood" />
		<tag k="ssr:stedsnr" v="890016" />
	</node>
	<node id="9977326543" lat="60.6317141" lon="5.2530711" version="1" timestamp="2022-08-25T15:08:29Z" changeset="125366839" uid="3497659" user="NKA">
		<tag k="name" v="Skor" />
		<tag k="place" v="hamlet" />
		<tag k="ssr:stedsnr" v="795071" />
	</node>
	<node id="9977326544" lat="60.6715528" lon="5.40917" version="1" timestamp="2022-08-25T15:08:29Z" changeset="125366839" uid="3497659" user="NKA">
		<tag k="alt_name" v="Øvreås" />
		<tag k="name" v="Øvrås" />
		<tag k="place" v="farm" />
		<tag k="ssr:stedsnr" v="127265" />
	</node>
	<node id="9977326545" lat="60.682156" lon="5.3928399" version="1" timestamp="2022-08-25T15:08:29Z" changeset="125366839" uid="3497659" user="NKA">
		<tag k="alt_name" v="Hølleland" />
		<tag k="name" v="Hølland" />
		<tag k="place" v="hamlet" />
		<tag k="ssr:stedsnr" v="127150" />
	</node>
	<node id="9977326546" lat="60.6146639" lon="5.3755422" version="1" timestamp="2022-08-25T15:08:29Z" changeset="125366839" uid="3497659" user="NKA">
		<tag k="name" v="Eikevoll" />
		<tag k="place" v="farm" />
		<tag k="ssr:stedsnr" v="105346" />
	</node>
	<node id="9977326547" lat="60.6205639" lon="5.3398421" version="1" timestamp="2022-08-25T15:08:29Z" changeset="125366839" uid="3497659" user="NKA">
		<tag k="name" v="Øvre Hageseter" />
		<tag k="place" v="farm" />
		<tag k="ssr:stedsnr" v="894068" />
	</node>
	<node id="9977326548" lat="60.6051364" lon="5.3532174" version="1" timestamp="2022-08-25T15:08:29Z" changeset="125366839" uid="3497659" user="NKA">
		<tag k="alt_name" v="Fyllingen" />
		<tag k="name" v="Fylingen" />
		<tag k="place" v="farm" />
		<tag k="ssr:stedsnr" v="127030" />
	</node>
	<node id="9977326549" lat="60.7809233" lon="5.0954399" version="1" timestamp="2022-08-25T15:08:29Z" changeset="125366839" uid="3497659" user="NKA">
		<tag k="name" v="Tvibergøyna" />
		<tag k="place" v="farm" />
		<tag k="ssr:stedsnr" v="433674" />
	</node>
	<node id="9977326550" lat="60.5907584" lon="5.3483311" version="1" timestamp="2022-08-25T15:08:29Z" changeset="125366839" uid="3497659" user="NKA">
		<tag k="alt_name" v="Haukås" />
		<tag k="name" v="Haukåsen" />
		<tag k="place" v="farm" />
		<tag k="ssr:stedsnr" v="370134" />
	</node>
	<node id="9977326551" lat="60.5677981" lon="5.0534966" version="1" timestamp="2022-08-25T15:08:29Z" changeset="125366839" uid="3497659" user="NKA">
		<tag k="name" v="Rossland" />
		<tag k="place" v="hamlet" />
		<tag k="ssr:stedsnr" v="288130" />
	</node>
	<node id="9977326552" lat="60.5982612" lon="5.329149" version="1" timestamp="2022-08-25T15:08:29Z" changeset="125366839" uid="3497659" user="NKA">
		<tag k="alt_name" v="Sjurseter" />
		<tag k="name" v="Sjauset" />
		<tag k="place" v="farm" />
		<tag k="ssr:stedsnr" v="67040" />
	</node>
	<node id="9977326553" lat="60.6652333" lon="5.4212504" version="1" timestamp="2022-08-25T15:08:29Z" changeset="125366839" uid="3497659" user="NKA">
		<tag k="name" v="Ås" />
		<tag k="place" v="farm" />
		<tag k="ssr:stedsnr" v="6246" />
	</node>
	<node id="9977326554" lat="60.604893" lon="5.4185813" version="1" timestamp="2022-08-25T15:08:29Z" changeset="125366839" uid="3497659" user="NKA">
		<tag k="name" v="Eidsnes" />
		<tag k="place" v="hamlet" />
		<tag k="ssr:stedsnr" v="1080307" />
	</node>
	<node id="9977326555" lat="60.6139826" lon="5.3074509" version="1" timestamp="2022-08-25T15:08:29Z" changeset="125366839" uid="3497659" user="NKA">
		<tag k="name" v="Kleivdal" />
		<tag k="place" v="farm" />
		<tag k="ssr:stedsnr" v="370012" />
	</node>
	<node id="9977326556" lat="60.6103611" lon="5.3886025" version="1" timestamp="2022-08-25T15:08:29Z" changeset="125366839" uid="3497659" user="NKA">
		<tag k="name" v="Eikanger" />
		<tag k="place" v="quarter" />
		<tag k="ssr:stedsnr" v="188022" />
	</node>
	<node id="9977326557" lat="60.6760762" lon="5.3328783" version="1" timestamp="2022-08-25T15:08:29Z" changeset="125366839" uid="3497659" user="NKA">
		<tag k="name" v="Kleivi" />
		<tag k="place" v="farm" />
		<tag k="ssr:stedsnr" v="856243" />
	</node>
	<node id="9977326558" lat="60.6180892" lon="5.3426565" version="1" timestamp="2022-08-25T15:08:29Z" changeset="125366839" uid="3497659" user="NKA">
		<tag k="name" v="Hakset" />
		<tag k="place" v="farm" />
		<tag k="ssr:stedsnr" v="127010" />
	</node>
	<node id="9977326559" lat="60.6168861" lon="5.3435699" version="1" timestamp="2022-08-25T15:08:29Z" changeset="125366839" uid="3497659" user="NKA">
		<tag k="historic" v="shieling" />
		<tag k="name" v="Hageseter" />
		<tag k="place" v="isolated_dwelling" />
		<tag k="ssr:stedsnr" v="712048" />
	</node>
	<node id="9977326560" lat="60.6093138" lon="5.3825699" version="1" timestamp="2022-08-25T15:08:29Z" changeset="125366839" uid="3497659" user="NKA">
		<tag k="historic" v="shieling" />
		<tag k="name" v="Litlestølen" />
		<tag k="place" v="isolated_dwelling" />
		<tag k="ssr:stedsnr" v="44311" />
	</node>
	<node id="9977326561" lat="60.5873139" lon="5.3525393" version="1" timestamp="2022-08-25T15:08:29Z" changeset="125366839" uid="3497659" user="NKA">
		<tag k="name" v="Teviki" />
		<tag k="place" v="farm" />
		<tag k="ssr:stedsnr" v="105306" />
	</node>
	<node id="9977326562" lat="60.6081223" lon="5.321656" version="1" timestamp="2022-08-25T15:08:29Z" changeset="125366839" uid="3497659" user="NKA">
		<tag k="name" v="Halsteindal" />
		<tag k="place" v="farm" />
		<tag k="ssr:stedsnr" v="44064" />
	</node>
	<node id="9977326563" lat="60.6373805" lon="5.4319337" version="1" timestamp="2022-08-25T15:08:29Z" changeset="125366839" uid="3497659" user="NKA">
		<tag k="name" v="Bjørgetræ" />
		<tag k="place" v="farm" />
		<tag k="ssr:stedsnr" v="895417" />
	</node>
	<node id="9977326564" lat="60.5877055" lon="5.3605726" version="1" timestamp="2022-08-25T15:08:29Z" changeset="125366839" uid="3497659" user="NKA">
		<tag k="name" v="Apalen" />
		<tag k="place" v="farm" />
		<tag k="ssr:stedsnr" v="44281" />
	</node>
	<node id="9977326565" lat="60.6626806" lon="5.4255922" version="1" timestamp="2022-08-25T15:08:29Z" changeset="125366839" uid="3497659" user="NKA">
		<tag k="alt_name" v="Askeland nordre" />
		<tag k="name" v="Nordre Askeland" />
		<tag k="place" v="farm" />
		<tag k="ssr:stedsnr" v="590504" />
	</node>
	<node id="9977326566" lat="60.6460778" lon="5.058384" version="1" timestamp="2022-08-25T15:08:29Z" changeset="125366839" uid="3497659" user="NKA">
		<tag k="alt_name" v="Solend Nordre" />
		<tag k="name" v="Nordre Solend" />
		<tag k="place" v="farm" />
		<tag k="ssr:stedsnr" v="895559" />
	</node>
	<node id="9977326567" lat="60.6280278" lon="5.3696172" version="1" timestamp="2022-08-25T15:08:29Z" changeset="125366839" uid="3497659" user="NKA">
		<tag k="name" v="Træ" />
		<tag k="place" v="farm" />
		<tag k="ssr:stedsnr" v="895436" />
	</node>
	<node id="9977326568" lat="60.7710833" lon="5.5330949" version="1" timestamp="2022-08-25T15:08:29Z" changeset="125366839" uid="3497659" user="NKA">
		<tag k="historic" v="shieling" />
		<tag k="name" v="Torsheimsetra" />
		<tag k="place" v="isolated_dwelling" />
		<tag k="ssr:stedsnr" v="45835" />
	</node>
	<node id="9977326569" lat="60.7429718" lon="5.1554413" version="1" timestamp="2022-08-25T15:08:29Z" changeset="125366839" uid="3497659" user="NKA">
		<tag k="name" v="Kolås" />
		<tag k="place" v="quarter" />
		<tag k="ssr:stedsnr" v="67694" />
	</node>
	<node id="9977326570" lat="60.6279688" lon="5.4169686" version="1" timestamp="2022-08-25T15:08:29Z" changeset="125366839" uid="3497659" user="NKA">
		<tag k="alt_name" v="Eidsheim" />
		<tag k="name" v="Æse" />
		<tag k="place" v="hamlet" />
		<tag k="ssr:stedsnr" v="370002" />
	</node>
	<node id="9977326571" lat="60.6912479" lon="4.9694132" version="1" timestamp="2022-08-25T15:08:29Z" changeset="125366839" uid="3497659" user="NKA">
		<tag k="name" v="Listveiten" />
		<tag k="place" v="hamlet" />
		<tag k="ssr:stedsnr" v="188815" />
	</node>
	<node id="9977326572" lat="60.6583862" lon="5.4300255" version="1" timestamp="2022-08-25T15:08:29Z" changeset="125366839" uid="3497659" user="NKA">
		<tag k="alt_name" v="Askeland søre" />
		<tag k="name" v="Søre Askeland" />
		<tag k="place" v="farm" />
		<tag k="ssr:stedsnr" v="288144" />
	</node>
	<node id="9977326573" lat="60.7411166" lon="5.1653007" version="1" timestamp="2022-08-25T15:08:29Z" changeset="125366839" uid="3497659" user="NKA">
		<tag k="name" v="Åtun" />
		<tag k="place" v="farm" />
		<tag k="ssr:stedsnr" v="45240" />
	</node>
	<node id="9977326574" lat="60.7600778" lon="5.1798312" version="1" timestamp="2022-08-25T15:08:29Z" changeset="125366839" uid="3497659" user="NKA">
		<tag k="alt_name" v="Fanebustsjøen" />
		<tag k="name" v="Fonnebostsjøen" />
		<tag k="place" v="hamlet" />
		<tag k="ssr:stedsnr" v="712143" />
	</node>
	<node id="9977326575" lat="60.6347976" lon="5.4909587" version="1" timestamp="2022-08-25T15:08:29Z" changeset="125366839" uid="3497659" user="NKA">
		<tag k="name" v="Vågen" />
		<tag k="place" v="farm" />
		<tag k="ssr:stedsnr" v="348505" />
	</node>
	<node id="9977326576" lat="60.7539111" lon="5.6291559" version="1" timestamp="2022-08-25T15:08:29Z" changeset="125366839" uid="3497659" user="NKA">
		<tag k="name" v="Gamlesætri" />
		<tag k="place" v="farm" />
		<tag k="ssr:stedsnr" v="251058" />
	</node>
	<node id="9977326577" lat="60.6289897" lon="5.4352665" version="1" timestamp="2022-08-25T15:08:29Z" changeset="125366839" uid="3497659" user="NKA">
		<tag k="name" v="Bjørgetrædet" />
		<tag k="place" v="farm" />
		<tag k="ssr:stedsnr" v="249004" />
	</node>
	<node id="9977326578" lat="60.6639695" lon="5.3472033" version="1" timestamp="2022-08-25T15:08:29Z" changeset="125366839" uid="3497659" user="NKA">
		<tag k="name" v="Vangen" />
		<tag k="place" v="farm" />
		<tag k="ssr:stedsnr" v="348070" />
	</node>
	<node id="9977326579" lat="60.6687369" lon="5.3826398" version="1" timestamp="2022-08-25T15:08:29Z" changeset="125366839" uid="3497659" user="NKA">
		<tag k="alt_name" v="Hindnes, yt;Hindenes ytre;Ytre Hindenes" />
		<tag k="name" v="Ytre Hindnes" />
		<tag k="place" v="farm" />
		<tag k="ssr:stedsnr" v="226539" />
	</node>
	<node id="9977326580" lat="60.6897722" lon="4.9276452" version="1" timestamp="2022-08-25T15:08:29Z" changeset="125366839" uid="3497659" user="NKA">
		<tag k="name" v="Vaulen" />
		<tag k="place" v="farm" />
		<tag k="ssr:stedsnr" v="166264" />
	</node>
	<node id="9977326581" lat="60.622925" lon="5.4182005" version="1" timestamp="2022-08-25T15:08:29Z" changeset="125366839" uid="3497659" user="NKA">
		<tag k="name" v="Vasshelle" />
		<tag k="place" v="farm" />
		<tag k="ssr:stedsnr" v="166305" />
	</node>
	<node id="9977326582" lat="60.6043391" lon="5.4483967" version="1" timestamp="2022-08-25T15:08:29Z" changeset="125366839" uid="3497659" user="NKA">
		<tag k="alt_name" v="Eiknes" />
		<tag k="name" v="Eknes" />
		<tag k="place" v="village" />
		<tag k="ssr:stedsnr" v="188113" />
	</node>
	<node id="9977326583" lat="60.7809972" lon="5.6573614" version="1" timestamp="2022-08-25T15:08:29Z" changeset="125366839" uid="3497659" user="NKA">
		<tag k="historic" v="shieling" />
		<tag k="name" v="Heimste Stølen" />
		<tag k="place" v="isolated_dwelling" />
		<tag k="ssr:stedsnr" v="834890" />
	</node>
	<node id="9977326584" lat="60.5954684" lon="5.3598554" version="1" timestamp="2022-08-25T15:08:29Z" changeset="125366839" uid="3497659" user="NKA">
		<tag k="alt_name" v="Hjelmås" />
		<tag k="name" v="Hjelmåsen" />
		<tag k="place" v="farm" />
		<tag k="ssr:stedsnr" v="127106" />
	</node>
	<node id="9977326585" lat="60.777425" lon="5.6332282" version="1" timestamp="2022-08-25T15:08:29Z" changeset="125366839" uid="3497659" user="NKA">
		<tag k="historic" v="shieling" />
		<tag k="name" v="Nysætret" />
		<tag k="place" v="isolated_dwelling" />
		<tag k="ssr:stedsnr" v="372462" />
	</node>
	<node id="9977326586" lat="60.6043651" lon="5.4143241" version="1" timestamp="2022-08-25T15:08:29Z" changeset="125366839" uid="3497659" user="NKA">
		<tag k="alt_name" v="Eidsnes, yt" />
		<tag k="name" v="Ytre Eidsnes" />
		<tag k="place" v="farm" />
		<tag k="ssr:stedsnr" v="188109" />
	</node>
	<node id="9977326587" lat="60.5262917" lon="5.20412" version="1" timestamp="2022-08-25T15:08:29Z" changeset="125366839" uid="3497659" user="NKA">
		<tag k="name" v="Sakstad" />
		<tag k="place" v="hamlet" />
		<tag k="ssr:stedsnr" v="613398" />
	</node>
	<node id="9977326588" lat="60.7695278" lon="5.6097864" version="1" timestamp="2022-08-25T15:08:29Z" changeset="125366839" uid="3497659" user="NKA">
		<tag k="historic" v="shieling" />
		<tag k="name" v="Laksebotnen" />
		<tag k="place" v="isolated_dwelling" />
		<tag k="ssr:stedsnr" v="190464" />
	</node>
	<node id="9977326589" lat="60.6740917" lon="5.6056394" version="1" timestamp="2022-08-25T15:08:29Z" changeset="125366839" uid="3497659" user="NKA">
		<tag k="name" v="Pynten" />
		<tag k="place" v="farm" />
		<tag k="ssr:stedsnr" v="188380" />
	</node>
	<node id="9977326590" lat="60.7073418" lon="4.894182" version="1" timestamp="2022-08-25T15:08:29Z" changeset="125366839" uid="3497659" user="NKA">
		<tag k="name" v="Marøy" />
		<tag k="place" v="hamlet" />
		<tag k="ssr:stedsnr" v="627785" />
	</node>
	<node id="9977326591" lat="60.5119833" lon="5.2037367" version="1" timestamp="2022-08-25T15:08:29Z" changeset="125366839" uid="3497659" user="NKA">
		<tag k="name" v="Dalstøi" />
		<tag k="place" v="farm" />
		<tag k="ssr:stedsnr" v="712159" />
	</node>
	<node id="9977326592" lat="60.6833837" lon="4.9350318" version="1" timestamp="2022-08-25T15:08:29Z" changeset="125366839" uid="3497659" user="NKA">
		<tag k="name" v="Brømstø" />
		<tag k="place" v="locality" />
		<tag k="ssr:stedsnr" v="935218" />
	</node>
	<node id="9977326593" lat="60.7222639" lon="5.6363642" version="1" timestamp="2022-08-25T15:08:29Z" changeset="125366839" uid="3497659" user="NKA">
		<tag k="name" v="Floten" />
		<tag k="place" v="farm" />
		<tag k="ssr:stedsnr" v="856312" />
	</node>
	<node id="9977326594" lat="60.6966952" lon="5.2037679" version="1" timestamp="2022-08-25T15:08:29Z" changeset="125366839" uid="3497659" user="NKA">
		<tag k="alt_name" v="Træland" />
		<tag k="name" v="Trælland" />
		<tag k="place" v="hamlet" />
		<tag k="ssr:stedsnr" v="127182" />
	</node>
	<node id="9977326595" lat="60.7355722" lon="5.6377531" version="1" timestamp="2022-08-25T15:08:29Z" changeset="125366839" uid="3497659" user="NKA">
		<tag k="name" v="Træi" />
		<tag k="place" v="farm" />
		<tag k="ssr:stedsnr" v="712956" />
	</node>
	<node id="9977326596" lat="60.6218391" lon="5.1097869" version="1" timestamp="2022-08-25T15:08:29Z" changeset="125366839" uid="3497659" user="NKA">
		<tag k="name" v="Ulvatn" />
		<tag k="place" v="farm" />
		<tag k="ssr:stedsnr" v="895485" />
	</node>
	<node id="9977326597" lat="60.6743278" lon="5.1051256" version="1" timestamp="2022-08-25T15:08:29Z" changeset="125366839" uid="3497659" user="NKA">
		<tag k="name" v="Hovden" />
		<tag k="place" v="farm" />
		<tag k="ssr:stedsnr" v="712531" />
	</node>
	<node id="9977326598" lat="60.7186277" lon="4.9216479" version="1" timestamp="2022-08-25T15:08:29Z" changeset="125366839" uid="3497659" user="NKA">
		<tag k="name" v="Aalen" />
		<tag k="place" v="farm" />
		<tag k="ssr:stedsnr" v="166490" />
	</node>
	<node id="9977326599" lat="60.5561493" lon="5.3030559" version="1" timestamp="2022-08-25T15:08:29Z" changeset="125366839" uid="3497659" user="NKA">
		<tag k="alt_name" v="Gjerdviki, yt;Gjervik" />
		<tag k="name" v="Ytre Gjerdviki" />
		<tag k="old_name" v="Gjerdviki" />
		<tag k="place" v="farm" />
		<tag k="ssr:stedsnr" v="552099" />
	</node>
	<node id="9977326600" lat="60.7270684" lon="4.9141409" version="1" timestamp="2022-08-25T15:08:29Z" changeset="125366839" uid="3497659" user="NKA">
		<tag k="name" v="Risnes" />
		<tag k="place" v="hamlet" />
		<tag k="ssr:stedsnr" v="431882" />
	</node>
	<node id="9977326601" lat="60.7381038" lon="5.1191203" version="1" timestamp="2022-08-25T15:08:29Z" changeset="125366839" uid="3497659" user="NKA">
		<tag k="name" v="Syslok" />
		<tag k="place" v="hamlet" />
		<tag k="ssr:stedsnr" v="128661" />
	</node>
	<node id="9977326602" lat="60.6989455" lon="5.2463941" version="1" timestamp="2022-08-25T15:08:29Z" changeset="125366839" uid="3497659" user="NKA">
		<tag k="alt_name" v="Skodven, øvre" />
		<tag k="name" v="Øvre Skodven" />
		<tag k="place" v="farm" />
		<tag k="ssr:stedsnr" v="127184" />
	</node>
	<node id="9977326603" lat="60.7144825" lon="5.3067618" version="1" timestamp="2022-08-25T15:08:29Z" changeset="125366839" uid="3497659" user="NKA">
		<tag k="name" v="Hodnakvamme" />
		<tag k="place" v="hamlet" />
		<tag k="ssr:stedsnr" v="916194" />
	</node>
	<node id="9977326604" lat="60.5501917" lon="5.035709" version="1" timestamp="2022-08-25T15:08:29Z" changeset="125366839" uid="3497659" user="NKA">
		<tag k="name" v="Nausthøyen" />
		<tag k="place" v="farm" />
		<tag k="ssr:stedsnr" v="107364" />
	</node>
	<node id="9977326605" lat="60.6511927" lon="5.3403329" version="1" timestamp="2022-08-25T15:08:29Z" changeset="125366839" uid="3497659" user="NKA">
		<tag k="name" v="Fammestad" />
		<tag k="place" v="hamlet" />
		<tag k="ssr:stedsnr" v="795241" />
	</node>
	<node id="9977326606" lat="60.5608752" lon="5.021383" version="1" timestamp="2022-08-25T15:08:29Z" changeset="125366839" uid="3497659" user="NKA">
		<tag k="name" v="Io" />
		<tag k="place" v="hamlet" />
		<tag k="ssr:stedsnr" v="6922" />
	</node>
	<node id="9977326607" lat="60.65335" lon="5.3237005" version="1" timestamp="2022-08-25T15:08:29Z" changeset="125366839" uid="3497659" user="NKA">
		<tag k="alt_name" v="Grov" />
		<tag k="name" v="Grovi" />
		<tag k="place" v="farm" />
		<tag k="ssr:stedsnr" v="795247" />
	</node>
	<node id="9977326608" lat="60.6232722" lon="5.3357671" version="1" timestamp="2022-08-25T15:08:29Z" changeset="125366839" uid="3497659" user="NKA">
		<tag k="name" v="Noraledet" />
		<tag k="place" v="farm" />
		<tag k="ssr:stedsnr" v="590065" />
	</node>
	<node id="9977326609" lat="60.6666476" lon="5.3848901" version="1" timestamp="2022-08-25T15:08:29Z" changeset="125366839" uid="3497659" user="NKA">
		<tag k="name" v="Hindnes" />
		<tag k="place" v="hamlet" />
		<tag k="ssr:stedsnr" v="613234" />
	</node>
	<node id="9977326610" lat="60.6215721" lon="5.3165964" version="1" timestamp="2022-08-25T15:08:29Z" changeset="125366839" uid="3497659" user="NKA">
		<tag k="name" v="Gausereid" />
		<tag k="place" v="farm" />
		<tag k="ssr:stedsnr" v="552009" />
	</node>
	<node id="9977326611" lat="60.6856561" lon="5.3396017" version="1" timestamp="2022-08-25T15:08:29Z" changeset="125366839" uid="3497659" user="NKA">
		<tag k="name" v="Jordal" />
		<tag k="place" v="hamlet" />
		<tag k="ssr:stedsnr" v="249135" />
	</node>
	<node id="9977326612" lat="60.6574494" lon="5.1128238" version="1" timestamp="2022-08-25T15:08:29Z" changeset="125366839" uid="3497659" user="NKA">
		<tag k="alt_name" v="Bruknapsundsholmen" />
		<tag k="loc_name" v="Bruknappsundsholmen" />
		<tag k="name" v="Fargarholmen" />
		<tag k="place" v="farm" />
		<tag k="ssr:stedsnr" v="1075659" />
	</node>
	<node id="9977326613" lat="60.702707" lon="4.9277827" version="1" timestamp="2022-08-25T15:08:29Z" changeset="125366839" uid="3497659" user="NKA">
		<tag k="name" v="Nordbø" />
		<tag k="place" v="farm" />
		<tag k="ssr:stedsnr" v="267198" />
	</node>
	<node id="9977326614" lat="60.5789028" lon="5.2309172" version="1" timestamp="2022-08-25T15:08:29Z" changeset="125366839" uid="3497659" user="NKA">
		<tag k="alt_name" v="Tveiten nedre" />
		<tag k="name" v="Nedre Tveiten" />
		<tag k="place" v="farm" />
		<tag k="ssr:stedsnr" v="166414" />
	</node>
	<node id="9977326615" lat="60.7031007" lon="5.0781139" version="1" timestamp="2022-08-25T15:08:29Z" changeset="125366839" uid="3497659" user="NKA">
		<tag k="name" v="Stongi" />
		<tag k="place" v="locality" />
		<tag k="ssr:stedsnr" v="955533" />
	</node>
	<node id="9977326616" lat="60.7454411" lon="5.1725431" version="1" timestamp="2022-08-25T15:08:29Z" changeset="125366839" uid="3497659" user="NKA">
		<tag k="alt_name" v="Fonnebust" />
		<tag k="name" v="Fonnebost" />
		<tag k="place" v="hamlet" />
		<tag k="ssr:stedsnr" v="287233" />
	</node>
	<node id="9977326617" lat="60.7257913" lon="4.9754612" version="1" timestamp="2022-08-25T15:08:29Z" changeset="125366839" uid="3497659" user="NKA">
		<tag k="name" v="Straume" />
		<tag k="place" v="hamlet" />
		<tag k="ssr:stedsnr" v="249836" />
	</node>
	<node id="9977326618" lat="60.6124484" lon="5.4676526" version="1" timestamp="2022-08-25T15:08:29Z" changeset="125366839" uid="3497659" user="NKA">
		<tag k="alt_name" v="Askvik" />
		<tag k="name" v="Askviki" />
		<tag k="place" v="farm" />
		<tag k="ssr:stedsnr" v="127771" />
	</node>
	<node id="9977326619" lat="60.7071046" lon="4.9950893" version="1" timestamp="2022-08-25T15:08:29Z" changeset="125366839" uid="3497659" user="NKA">
		<tag k="name" v="Eideshaug" />
		<tag k="place" v="farm" />
		<tag k="ssr:stedsnr" v="328199" />
	</node>
	<node id="9977326620" lat="60.6780972" lon="5.1098729" version="1" timestamp="2022-08-25T15:08:29Z" changeset="125366839" uid="3497659" user="NKA">
		<tag k="name" v="Lygresteinen" />
		<tag k="place" v="farm" />
		<tag k="ssr:stedsnr" v="834551" />
	</node>
	<node id="9977326621" lat="60.6444954" lon="5.0579722" version="1" timestamp="2022-08-25T15:08:29Z" changeset="125366839" uid="3497659" user="NKA">
		<tag k="alt_name" v="Solheim" />
		<tag k="name" v="Solend" />
		<tag k="place" v="hamlet" />
		<tag k="ssr:stedsnr" v="916974" />
	</node>
	<node id="9977326622" lat="60.6420369" lon="5.0489964" version="1" timestamp="2022-08-25T15:08:29Z" changeset="125366839" uid="3497659" user="NKA">
		<tag k="name" v="Hesthaugen" />
		<tag k="place" v="farm" />
		<tag k="ssr:stedsnr" v="82223" />
	</node>
	<node id="9977326623" lat="60.6799916" lon="5.0899867" version="1" timestamp="2022-08-25T15:08:29Z" changeset="125366839" uid="3497659" user="NKA">
		<tag k="name" v="Klumpane" />
		<tag k="place" v="farm" />
		<tag k="ssr:stedsnr" v="955548" />
	</node>
	<node id="9977326624" lat="60.7539639" lon="5.6377087" version="1" timestamp="2022-08-25T15:08:29Z" changeset="125366839" uid="3497659" user="NKA">
		<tag k="name" v="Nymark" />
		<tag k="place" v="farm" />
		<tag k="ssr:stedsnr" v="130041" />
	</node>
	<node id="9977326625" lat="60.7326738" lon="5.1051622" version="1" timestamp="2022-08-25T15:08:29Z" changeset="125366839" uid="3497659" user="NKA">
		<tag k="name" v="Skorneset" />
		<tag k="place" v="farm" />
		<tag k="ssr:stedsnr" v="916699" />
	</node>
	<node id="9977326626" lat="60.6999574" lon="5.5758327" version="1" timestamp="2022-08-25T15:08:29Z" changeset="125366839" uid="3497659" user="NKA">
		<tag k="alt_name" v="Vike" />
		<tag k="name" v="Viko" />
		<tag k="place" v="farm" />
		<tag k="ssr:stedsnr" v="127280" />
	</node>
	<node id="9977326627" lat="60.6315584" lon="5.0709172" version="1" timestamp="2022-08-25T15:08:29Z" changeset="125366839" uid="3497659" user="NKA">
		<tag k="alt_name" v="Morken Indre" />
		<tag k="name" v="Indre Morken" />
		<tag k="place" v="farm" />
		<tag k="ssr:stedsnr" v="591570" />
	</node>
	<node id="9977326628" lat="60.7867867" lon="5.0390942" version="1" timestamp="2022-08-25T15:08:29Z" changeset="125366839" uid="3497659" user="NKA">
		<tag k="name" v="Hope" />
		<tag k="place" v="hamlet" />
		<tag k="ssr:stedsnr" v="858233" />
	</node>
	<node id="9977326629" lat="60.7703808" lon="5.0350003" version="1" timestamp="2022-08-25T15:08:29Z" changeset="125366839" uid="3497659" user="NKA">
		<tag k="name" v="Keilegavlen" />
		<tag k="place" v="farm" />
		<tag k="ssr:stedsnr" v="433188" />
	</node>
	<node id="9977326630" lat="60.6363778" lon="5.4436589" version="1" timestamp="2022-08-25T15:08:29Z" changeset="125366839" uid="3497659" user="NKA">
		<tag k="name" v="Heltveit" />
		<tag k="place" v="farm" />
		<tag k="ssr:stedsnr" v="67069" />
	</node>
	<node id="9977326631" lat="60.6712139" lon="5.0972978" version="1" timestamp="2022-08-25T15:08:29Z" changeset="125366839" uid="3497659" user="NKA">
		<tag k="name" v="Grøna" />
		<tag k="place" v="farm" />
		<tag k="ssr:stedsnr" v="530569" />
	</node>
	<node id="9977326632" lat="60.6376408" lon="5.3416536" version="1" timestamp="2022-08-25T15:08:29Z" changeset="125366839" uid="3497659" user="NKA">
		<tag k="alt_name" v="Heggernes" />
		<tag k="name" v="Hegernes" />
		<tag k="place" v="farm" />
		<tag k="ssr:stedsnr" v="612224" />
	</node>
	<node id="9977326633" lat="60.6806147" lon="5.0602457" version="1" timestamp="2022-08-25T15:08:29Z" changeset="125366839" uid="3497659" user="NKA">
		<tag k="name" v="Pletten" />
		<tag k="place" v="farm" />
		<tag k="ssr:stedsnr" v="492755" />
	</node>
	<node id="9977326634" lat="60.7589183" lon="5.0924932" version="1" timestamp="2022-08-25T15:08:29Z" changeset="125366839" uid="3497659" user="NKA">
		<tag k="name" v="Kårdal" />
		<tag k="place" v="hamlet" />
		<tag k="ssr:stedsnr" v="494156" />
	</node>
	<node id="9977326635" lat="60.6340706" lon="5.3407167" version="1" timestamp="2022-08-25T15:08:29Z" changeset="125366839" uid="3497659" user="NKA">
		<tag k="alt_name" v="Heggertveit" />
		<tag k="name" v="Hegertveit" />
		<tag k="place" v="farm" />
		<tag k="ssr:stedsnr" v="795078" />
	</node>
	<node id="9977326636" lat="60.6372969" lon="5.1226182" version="1" timestamp="2022-08-25T15:08:29Z" changeset="125366839" uid="3497659" user="NKA">
		<tag k="name" v="Vågstaule" />
		<tag k="place" v="farm" />
		<tag k="ssr:stedsnr" v="491215" />
	</node>
	<node id="9977326637" lat="60.7219972" lon="5.5503698" version="1" timestamp="2022-08-25T15:08:29Z" changeset="125366839" uid="3497659" user="NKA">
		<tag k="historic" v="shieling" />
		<tag k="name" v="Gamlesetra" />
		<tag k="place" v="isolated_dwelling" />
		<tag k="ssr:stedsnr" v="955847" />
	</node>
	<node id="9977326638" lat="60.7019696" lon="5.0398331" version="1" timestamp="2022-08-25T15:08:29Z" changeset="125366839" uid="3497659" user="NKA">
		<tag k="name" v="Skjelvik" />
		<tag k="place" v="hamlet" />
		<tag k="ssr:stedsnr" v="491795" />
	</node>
	<node id="9977326639" lat="60.6563242" lon="5.2824334" version="1" timestamp="2022-08-25T15:08:29Z" changeset="125366839" uid="3497659" user="NKA">
		<tag k="alt_name" v="Leivestad, nordre;Leivestad" />
		<tag k="name" v="Nordre Leivestad" />
		<tag k="place" v="farm" />
		<tag k="ssr:stedsnr" v="431224" />
	</node>
	<node id="9977326640" lat="60.6762" lon="5.4104505" version="1" timestamp="2022-08-25T15:08:29Z" changeset="125366839" uid="3497659" user="NKA">
		<tag k="alt_name" v="Veland, øvre;Veland" />
		<tag k="name" v="Øvre Veland" />
		<tag k="place" v="farm" />
		<tag k="ssr:stedsnr" v="249200" />
	</node>
	<node id="9977326641" lat="60.6097279" lon="5.0945331" version="1" timestamp="2022-08-25T15:08:29Z" changeset="125366839" uid="3497659" user="NKA">
		<tag k="name" v="Kvitstein" />
		<tag k="place" v="farm" />
		<tag k="ssr:stedsnr" v="734003" />
	</node>
	<node id="9977326642" lat="60.745884" lon="5.0651653" version="1" timestamp="2022-08-25T15:08:29Z" changeset="125366839" uid="3497659" user="NKA">
		<tag k="name" v="Risøy" />
		<tag k="place" v="farm" />
		<tag k="ssr:stedsnr" v="328152" />
	</node>
	<node id="9977326643" lat="60.6647654" lon="5.4227707" version="1" timestamp="2022-08-25T15:08:29Z" changeset="125366839" uid="3497659" user="NKA">
		<tag k="name" v="Rød" />
		<tag k="place" v="farm" />
		<tag k="ssr:stedsnr" v="249219" />
	</node>
	<node id="9977326644" lat="60.5882247" lon="5.1293029" version="1" timestamp="2022-08-25T15:08:29Z" changeset="125366839" uid="3497659" user="NKA">
		<tag k="name" v="Nordre Ådland" />
		<tag k="place" v="farm" />
		<tag k="ssr:stedsnr" v="635621" />
	</node>
	<node id="9977326645" lat="60.620528" lon="5.1441458" version="1" timestamp="2022-08-25T15:08:29Z" changeset="125366839" uid="3497659" user="NKA">
		<tag k="name" v="Nordnes" />
		<tag k="place" v="farm" />
		<tag k="ssr:stedsnr" v="651708" />
	</node>
	<node id="9977326646" lat="60.7816094" lon="5.077136" version="1" timestamp="2022-08-25T15:08:29Z" changeset="125366839" uid="3497659" user="NKA">
		<tag k="alt_name" v="Knarrviki;Knarvik" />
		<tag k="name" v="Knarrvik" />
		<tag k="place" v="hamlet" />
		<tag k="ssr:stedsnr" v="251261" />
	</node>
	<node id="9977326647" lat="60.6381" lon="5.1130507" version="1" timestamp="2022-08-25T15:08:29Z" changeset="125366839" uid="3497659" user="NKA">
		<tag k="name" v="Namtveit" />
		<tag k="place" v="farm" />
		<tag k="ssr:stedsnr" v="227596" />
	</node>
	<node id="9977326648" lat="60.5421808" lon="5.1998212" version="1" timestamp="2022-08-25T15:08:29Z" changeset="125366839" uid="3497659" user="NKA">
		<tag k="name" v="Bjørnestad" />
		<tag k="place" v="farm" />
		<tag k="ssr:stedsnr" v="795486" />
	</node>
	<node id="9977326649" lat="60.6597565" lon="5.1157509" version="1" timestamp="2022-08-25T15:08:29Z" changeset="125366839" uid="3497659" user="NKA">
		<tag k="name" v="Bruknappen" />
		<tag k="place" v="farm" />
		<tag k="ssr:stedsnr" v="795263" />
	</node>
	<node id="9977326650" lat="60.6858445" lon="5.4612616" version="1" timestamp="2022-08-25T15:08:29Z" changeset="125366839" uid="3497659" user="NKA">
		<tag k="historic" v="shieling" />
		<tag k="name" v="Auststølen" />
		<tag k="place" v="isolated_dwelling" />
		<tag k="ssr:stedsnr" v="105616" />
	</node>
	<node id="9977326651" lat="60.7610681" lon="5.0693864" version="1" timestamp="2022-08-25T15:08:29Z" changeset="125366839" uid="3497659" user="NKA">
		<tag k="name" v="Risa" />
		<tag k="place" v="hamlet" />
		<tag k="ssr:stedsnr" v="69192" />
	</node>
	<node id="9977326652" lat="60.5441044" lon="5.1444766" version="1" timestamp="2022-08-25T15:08:29Z" changeset="125366839" uid="3497659" user="NKA">
		<tag k="name" v="Vollo" />
		<tag k="place" v="farm" />
		<tag k="ssr:stedsnr" v="431456" />
	</node>
	<node id="9977326653" lat="60.6848906" lon="5.0542059" version="1" timestamp="2022-08-25T15:08:29Z" changeset="125366839" uid="3497659" user="NKA">
		<tag k="name" v="Mellingen" />
		<tag k="place" v="farm" />
		<tag k="ssr:stedsnr" v="856784" />
	</node>
	<node id="9977326654" lat="60.7350722" lon="5.6419143" version="1" timestamp="2022-08-25T15:08:29Z" changeset="125366839" uid="3497659" user="NKA">
		<tag k="name" v="Trædi" />
		<tag k="place" v="farm" />
		<tag k="ssr:stedsnr" v="44984" />
	</node>
	<node id="9977326655" lat="60.6400107" lon="5.0971109" version="1" timestamp="2022-08-25T15:08:29Z" changeset="125366839" uid="3497659" user="NKA">
		<tag k="name" v="Kolås" />
		<tag k="place" v="farm" />
		<tag k="ssr:stedsnr" v="916203" />
	</node>
	<node id="9977326656" lat="60.6875624" lon="5.4124171" version="1" timestamp="2022-08-25T15:08:29Z" changeset="125366839" uid="3497659" user="NKA">
		<tag k="alt_name" v="Gjelsvik" />
		<tag k="name" v="Gjelsvika" />
		<tag k="old_name" v="Gjelsviki" />
		<tag k="place" v="farm" />
		<tag k="ssr:stedsnr" v="67160" />
	</node>
	<node id="9977326657" lat="60.6792239" lon="5.0634856" version="1" timestamp="2022-08-25T15:08:29Z" changeset="125366839" uid="3497659" user="NKA">
		<tag k="name" v="Nesbø" />
		<tag k="place" v="hamlet" />
		<tag k="ssr:stedsnr" v="856782" />
	</node>
	<node id="9977326658" lat="60.768895" lon="5.1026558" version="1" timestamp="2022-08-25T15:08:29Z" changeset="125366839" uid="3497659" user="NKA">
		<tag k="name" v="Lauvås" />
		<tag k="place" v="hamlet" />
		<tag k="ssr:stedsnr" v="191647" />
	</node>
	<node id="9977326659" lat="60.5322528" lon="5.1913923" version="1" timestamp="2022-08-25T15:08:29Z" changeset="125366839" uid="3497659" user="NKA">
		<tag k="name" v="Dale" />
		<tag k="place" v="hamlet" />
		<tag k="ssr:stedsnr" v="310410" />
	</node>
	<node id="9977326660" lat="60.5699194" lon="5.1864812" version="1" timestamp="2022-08-25T15:08:29Z" changeset="125366839" uid="3497659" user="NKA">
		<tag k="name" v="Nymark" />
		<tag k="place" v="farm" />
		<tag k="ssr:stedsnr" v="309134" />
	</node>
	<node id="9977326661" lat="60.5512227" lon="5.1931328" version="1" timestamp="2022-08-25T15:08:29Z" changeset="125366839" uid="3497659" user="NKA">
		<tag k="name" v="Grasdal" />
		<tag k="place" v="farm" />
		<tag k="ssr:stedsnr" v="249087" />
	</node>
	<node id="9977326662" lat="60.5424472" lon="5.1600916" version="1" timestamp="2022-08-25T15:08:29Z" changeset="125366839" uid="3497659" user="NKA">
		<tag k="name" v="Tveit" />
		<tag k="old_name" v="Tveiten" />
		<tag k="place" v="hamlet" />
		<tag k="ssr:stedsnr" v="249440" />
	</node>
	<node id="9977326663" lat="60.7326917" lon="5.106245" version="1" timestamp="2022-08-25T15:08:29Z" changeset="125366839" uid="3497659" user="NKA">
		<tag k="name" v="Skornes" />
		<tag k="place" v="farm" />
		<tag k="ssr:stedsnr" v="207139" />
	</node>
	<node id="9977326664" lat="60.5660417" lon="5.1267646" version="1" timestamp="2022-08-25T15:08:29Z" changeset="125366839" uid="3497659" user="NKA">
		<tag k="alt_name" v="Gripsgård;Gripsgard" />
		<tag k="name" v="Gripen" />
		<tag k="place" v="farm" />
		<tag k="ssr:stedsnr" v="248065" />
	</node>
	<node id="9977326665" lat="60.5301278" lon="5.1339312" version="1" timestamp="2022-08-25T15:08:29Z" changeset="125366839" uid="3497659" user="NKA">
		<tag k="name" v="Orrhøyen" />
		<tag k="place" v="neighbourhood" />
		<tag k="ssr:stedsnr" v="40061" />
	</node>
	<node id="9977326666" lat="60.6751111" lon="5.4135255" version="1" timestamp="2022-08-25T15:08:29Z" changeset="125366839" uid="3497659" user="NKA">
		<tag k="name" v="Velandstræ" />
		<tag k="place" v="farm" />
		<tag k="ssr:stedsnr" v="651608" />
	</node>
	<node id="9977326667" lat="60.6469834" lon="5.1084701" version="1" timestamp="2022-08-25T15:08:29Z" changeset="125366839" uid="3497659" user="NKA">
		<tag k="name" v="Nordtaule" />
		<tag k="place" v="farm" />
		<tag k="ssr:stedsnr" v="651614" />
	</node>
	<node id="9977326668" lat="60.5801889" lon="5.1645395" version="1" timestamp="2022-08-25T15:08:29Z" changeset="125366839" uid="3497659" user="NKA">
		<tag k="name" v="Einhøyen" />
		<tag k="place" v="farm" />
		<tag k="ssr:stedsnr" v="6124" />
	</node>
	<node id="9977326669" lat="60.5556129" lon="5.2136083" version="1" timestamp="2022-08-25T15:08:29Z" changeset="125366839" uid="3497659" user="NKA">
		<tag k="name" v="Skarpeneset" />
		<tag k="place" v="hamlet" />
		<tag k="ssr:stedsnr" v="67105" />
	</node>
	<node id="9977326670" lat="60.6570378" lon="5.0893686" version="1" timestamp="2022-08-25T15:08:29Z" changeset="125366839" uid="3497659" user="NKA">
		<tag k="name" v="Haugstad" />
		<tag k="place" v="hamlet" />
		<tag k="ssr:stedsnr" v="491746" />
	</node>
	<node id="9977326671" lat="60.7679361" lon="5.4983782" version="1" timestamp="2022-08-25T15:08:29Z" changeset="125366839" uid="3497659" user="NKA">
		<tag k="historic" v="shieling" />
		<tag k="name" v="Kalvedalssetra" />
		<tag k="place" v="isolated_dwelling" />
		<tag k="ssr:stedsnr" v="895854" />
	</node>
	<node id="9977326672" lat="60.5491361" lon="5.2137421" version="1" timestamp="2022-08-25T15:08:29Z" changeset="125366839" uid="3497659" user="NKA">
		<tag k="name" v="Hammaren" />
		<tag k="place" v="neighbourhood" />
		<tag k="ssr:stedsnr" v="646001" />
	</node>
	<node id="9977326673" lat="60.555699" lon="5.1649179" version="1" timestamp="2022-08-25T15:08:29Z" changeset="125366839" uid="3497659" user="NKA">
		<tag k="name" v="Hestdal" />
		<tag k="place" v="farm" />
		<tag k="ssr:stedsnr" v="734091" />
	</node>
	<node id="9977326674" lat="60.7328611" lon="5.1035034" version="1" timestamp="2022-08-25T15:08:29Z" changeset="125366839" uid="3497659" user="NKA">
		<tag k="name" v="Skårnes" />
		<tag k="place" v="farm" />
		<tag k="ssr:stedsnr" v="894531" />
	</node>
	<node id="9977326675" lat="60.6458194" lon="5.0835146" version="1" timestamp="2022-08-25T15:08:29Z" changeset="125366839" uid="3497659" user="NKA">
		<tag k="name" v="Sævdal" />
		<tag k="place" v="farm" />
		<tag k="ssr:stedsnr" v="370967" />
	</node>
	<node id="9977326676" lat="60.6450611" lon="5.109684" version="1" timestamp="2022-08-25T15:08:29Z" changeset="125366839" uid="3497659" user="NKA">
		<tag k="name" v="Tuftena" />
		<tag k="place" v="farm" />
		<tag k="ssr:stedsnr" v="288567" />
	</node>
	<node id="9977326677" lat="60.545464" lon="5.2276265" version="1" timestamp="2022-08-25T15:08:29Z" changeset="125366839" uid="3497659" user="NKA">
		<tag k="name" v="Fredheim" />
		<tag k="place" v="farm" />
		<tag k="ssr:stedsnr" v="570468" />
	</node>
	<node id="9977326678" lat="60.5178639" lon="5.2281616" version="1" timestamp="2022-08-25T15:08:29Z" changeset="125366839" uid="3497659" user="NKA">
		<tag k="historic" v="shieling" />
		<tag k="name" v="Bustølen" />
		<tag k="place" v="isolated_dwelling" />
		<tag k="ssr:stedsnr" v="834008" />
	</node>
	<node id="9977326679" lat="60.6534639" lon="5.3296681" version="1" timestamp="2022-08-25T15:08:29Z" changeset="125366839" uid="3497659" user="NKA">
		<tag k="alt_name" v="Nedretveit" />
		<tag k="name" v="Nedretveito" />
		<tag k="place" v="farm" />
		<tag k="ssr:stedsnr" v="370240" />
	</node>
	<node id="9977326680" lat="60.5281696" lon="5.1760526" version="1" timestamp="2022-08-25T15:08:29Z" changeset="125366839" uid="3497659" user="NKA">
		<tag k="name" v="Hopland" />
		<tag k="place" v="farm" />
		<tag k="ssr:stedsnr" v="310397" />
	</node>
	<node id="9977326681" lat="60.6765222" lon="5.3313395" version="1" timestamp="2022-08-25T15:08:29Z" changeset="125366839" uid="3497659" user="NKA">
		<tag k="name" v="Kleiva" />
		<tag k="place" v="farm" />
		<tag k="ssr:stedsnr" v="287211" />
	</node>
	<node id="9977326682" lat="60.5419" lon="5.1805367" version="1" timestamp="2022-08-25T15:08:29Z" changeset="125366839" uid="3497659" user="NKA">
		<tag k="historic" v="shieling" />
		<tag k="name" v="Husstølen" />
		<tag k="place" v="isolated_dwelling" />
		<tag k="ssr:stedsnr" v="287066" />
	</node>
	<node id="9977326683" lat="60.7325444" lon="5.0577007" version="1" timestamp="2022-08-25T15:08:29Z" changeset="125366839" uid="3497659" user="NKA">
		<tag k="name" v="Skansen" />
		<tag k="place" v="farm" />
		<tag k="ssr:stedsnr" v="530519" />
	</node>
	<node id="9977326684" lat="60.6922722" lon="5.3360561" version="1" timestamp="2022-08-25T15:08:29Z" changeset="125366839" uid="3497659" user="NKA">
		<tag k="name" v="Jordal" />
		<tag k="place" v="farm" />
		<tag k="ssr:stedsnr" v="287256" />
	</node>
	<node id="9977326685" lat="60.512616" lon="5.2038442" version="1" timestamp="2022-08-25T15:08:29Z" changeset="125366839" uid="3497659" user="NKA">
		<tag k="alt_name" v="Dalsstøi" />
		<tag k="name" v="Dalstø" />
		<tag k="old_name" v="Dalstøi" />
		<tag k="place" v="hamlet" />
		<tag k="ssr:stedsnr" v="188541" />
	</node>
	<node id="9977326686" lat="60.6570583" lon="5.3774949" version="1" timestamp="2022-08-25T15:08:29Z" changeset="125366839" uid="3497659" user="NKA">
		<tag k="name" v="Skogheim" />
		<tag k="place" v="farm" />
		<tag k="ssr:stedsnr" v="287545" />
	</node>
	<node id="9977326687" lat="60.5238167" lon="5.2183755" version="1" timestamp="2022-08-25T15:08:29Z" changeset="125366839" uid="3497659" user="NKA">
		<tag k="name" v="Solhaug" />
		<tag k="place" v="farm" />
		<tag k="ssr:stedsnr" v="107377" />
	</node>
	<node id="9977326688" lat="60.5593481" lon="5.1689744" version="1" timestamp="2022-08-25T15:08:29Z" changeset="125366839" uid="3497659" user="NKA">
		<tag k="name" v="Hestnes" />
		<tag k="place" v="hamlet" />
		<tag k="ssr:stedsnr" v="188103" />
	</node>
	<node id="9977326689" lat="60.7151861" lon="5.5259504" version="1" timestamp="2022-08-25T15:08:29Z" changeset="125366839" uid="3497659" user="NKA">
		<tag k="name" v="Sætre" />
		<tag k="place" v="farm" />
		<tag k="ssr:stedsnr" v="916294" />
	</node>
	<node id="9977326690" lat="60.6685417" lon="5.4135559" version="1" timestamp="2022-08-25T15:08:29Z" changeset="125366839" uid="3497659" user="NKA">
		<tag k="alt_name" v="Nedreås" />
		<tag k="name" v="Nedrås" />
		<tag k="place" v="farm" />
		<tag k="ssr:stedsnr" v="188265" />
	</node>
	<node id="9977326691" lat="60.6645276" lon="5.3860044" version="1" timestamp="2022-08-25T15:08:29Z" changeset="125366839" uid="3497659" user="NKA">
		<tag k="alt_name" v="Indre Hindenes;Hindenes indre;Hindnes, in" />
		<tag k="name" v="Indre Hindnes" />
		<tag k="place" v="farm" />
		<tag k="ssr:stedsnr" v="67265" />
	</node>
	<node id="9977326692" lat="60.6702926" lon="5.2671212" version="1" timestamp="2022-08-25T15:08:29Z" changeset="125366839" uid="3497659" user="NKA">
		<tag k="name" v="Berge" />
		<tag k="place" v="farm" />
		<tag k="ssr:stedsnr" v="612247" />
	</node>
	<node id="9977326693" lat="60.6464473" lon="5.3481839" version="1" timestamp="2022-08-25T15:08:29Z" changeset="125366839" uid="3497659" user="NKA">
		<tag k="name" v="Husebø" />
		<tag k="place" v="farm" />
		<tag k="ssr:stedsnr" v="45015" />
	</node>
	<node id="9977326694" lat="60.5562806" lon="5.2158255" version="1" timestamp="2022-08-25T15:08:29Z" changeset="125366839" uid="3497659" user="NKA">
		<tag k="name" v="Skolten" />
		<tag k="place" v="farm" />
		<tag k="ssr:stedsnr" v="44056" />
	</node>
	<node id="9977326695" lat="60.6335633" lon="5.3284251" version="1" timestamp="2022-08-25T15:08:29Z" changeset="125366839" uid="3497659" user="NKA">
		<tag k="alt_name" v="Kalsås" />
		<tag k="name" v="Kallsås" />
		<tag k="place" v="hamlet" />
		<tag k="ssr:stedsnr" v="734045" />
	</node>
	<node id="9977326696" lat="60.6562389" lon="5.3259756" version="1" timestamp="2022-08-25T15:08:29Z" changeset="125366839" uid="3497659" user="NKA">
		<tag k="loc_name" v="Tveito" />
		<tag k="name" v="Øvretveito" />
		<tag k="place" v="farm" />
		<tag k="ssr:stedsnr" v="431222" />
	</node>
	<node id="9977326697" lat="60.6407084" lon="5.1346562" version="1" timestamp="2022-08-25T15:08:29Z" changeset="125366839" uid="3497659" user="NKA">
		<tag k="name" v="Nøtlevågen" />
		<tag k="place" v="farm" />
		<tag k="ssr:stedsnr" v="431216" />
	</node>
	<node id="9977326698" lat="60.6429861" lon="5.2827811" version="1" timestamp="2022-08-25T15:08:29Z" changeset="125366839" uid="3497659" user="NKA">
		<tag k="name" v="Kjenes" />
		<tag k="place" v="farm" />
		<tag k="ssr:stedsnr" v="431239" />
	</node>
	<node id="9977326699" lat="60.6683566" lon="5.1549163" version="1" timestamp="2022-08-25T15:08:29Z" changeset="125366839" uid="3497659" user="NKA">
		<tag k="name" v="Skotsund" />
		<tag k="place" v="farm" />
		<tag k="ssr:stedsnr" v="431254" />
	</node>
	<node id="9977326700" lat="60.6813841" lon="5.0580367" version="1" timestamp="2022-08-25T15:08:29Z" changeset="125366839" uid="3497659" user="NKA">
		<tag k="name" v="Instebø" />
		<tag k="place" v="hamlet" />
		<tag k="ssr:stedsnr" v="370786" />
	</node>
	<node id="9977326701" lat="60.7028242" lon="5.5489906" version="1" timestamp="2022-08-25T15:08:29Z" changeset="125366839" uid="3497659" user="NKA">
		<tag k="name" v="Eikefet" />
		<tag k="place" v="hamlet" />
		<tag k="ssr:stedsnr" v="673274" />
	</node>
	<node id="9977326702" lat="60.6919988" lon="5.0381033" version="1" timestamp="2022-08-25T15:08:29Z" changeset="125366839" uid="3497659" user="NKA">
		<tag k="alt_name" v="Ytstebø" />
		<tag k="name" v="Ystebø" />
		<tag k="place" v="hamlet" />
		<tag k="ssr:stedsnr" v="358780" />
	</node>
	<node id="9977326703" lat="60.64285" lon="5.0628285" version="1" timestamp="2022-08-25T15:08:29Z" changeset="125366839" uid="3497659" user="NKA">
		<tag k="alt_name" v="Solend Søre" />
		<tag k="name" v="Søre Solend" />
		<tag k="place" v="farm" />
		<tag k="ssr:stedsnr" v="348580" />
	</node>
	<node id="9977326704" lat="60.6365339" lon="5.0262518" version="1" timestamp="2022-08-25T15:08:29Z" changeset="125366839" uid="3497659" user="NKA">
		<tag k="name" v="Selfallet" />
		<tag k="place" v="neighbourhood" />
		<tag k="ssr:stedsnr" v="210539" />
	</node>
	<node id="9977326705" lat="60.5161444" lon="5.2056895" version="1" timestamp="2022-08-25T15:08:29Z" changeset="125366839" uid="3497659" user="NKA">
		<tag k="name" v="Porshaugen" />
		<tag k="place" v="farm" />
		<tag k="ssr:stedsnr" v="510588" />
	</node>
	<node id="9977326706" lat="60.6979775" lon="5.4309041" version="1" timestamp="2022-08-25T15:08:29Z" changeset="125366839" uid="3497659" user="NKA">
		<tag k="alt_name" v="Skår" />
		<tag k="name" v="Skor" />
		<tag k="place" v="farm" />
		<tag k="ssr:stedsnr" v="612168" />
	</node>
	<node id="9977326707" lat="60.664738" lon="5.3242846" version="1" timestamp="2022-08-25T15:08:29Z" changeset="125366839" uid="3497659" user="NKA">
		<tag k="name" v="Reikerås" />
		<tag k="place" v="farm" />
		<tag k="ssr:stedsnr" v="249230" />
	</node>
	<node id="9977326708" lat="60.6886" lon="5.2132867" version="1" timestamp="2022-08-25T15:08:29Z" changeset="125366839" uid="3497659" user="NKA">
		<tag k="name" v="Træland" />
		<tag k="place" v="farm" />
		<tag k="ssr:stedsnr" v="469223" />
	</node>
	<node id="9977326709" lat="60.7005694" lon="5.5605698" version="1" timestamp="2022-08-25T15:08:29Z" changeset="125366839" uid="3497659" user="NKA">
		<tag k="name" v="Viki" />
		<tag k="place" v="farm" />
		<tag k="ssr:stedsnr" v="590727" />
	</node>
	<node id="9977326710" lat="60.6388195" lon="5.11442" version="1" timestamp="2022-08-25T15:08:29Z" changeset="125366839" uid="3497659" user="NKA">
		<tag k="name" v="Namntveit" />
		<tag k="place" v="hamlet" />
		<tag k="ssr:stedsnr" v="127212" />
	</node>
	<node id="9977326711" lat="60.7274584" lon="5.2810231" version="1" timestamp="2022-08-25T15:08:29Z" changeset="125366839" uid="3497659" user="NKA">
		<tag k="alt_name" v="Ringås" />
		<tag k="name" v="Ringåsen" />
		<tag k="place" v="farm" />
		<tag k="ssr:stedsnr" v="673663" />
	</node>
	<node id="9977326712" lat="60.6324005" lon="5.0699396" version="1" timestamp="2022-08-25T15:08:29Z" changeset="125366839" uid="3497659" user="NKA">
		<tag k="name" v="Morki" />
		<tag k="place" v="hamlet" />
		<tag k="ssr:stedsnr" v="67958" />
	</node>
	<node id="9977326713" lat="60.689725" lon="5.37232" version="1" timestamp="2022-08-25T15:08:29Z" changeset="125366839" uid="3497659" user="NKA">
		<tag k="name" v="Storvik" />
		<tag k="place" v="farm" />
		<tag k="ssr:stedsnr" v="773567" />
	</node>
	<node id="9977326714" lat="60.6314502" lon="5.1279451" version="1" timestamp="2022-08-25T15:08:29Z" changeset="125366839" uid="3497659" user="NKA">
		<tag k="alt_name" v="Indre Taule" />
		<tag k="name" v="Taule" />
		<tag k="place" v="farm" />
		<tag k="ssr:stedsnr" v="6227" />
	</node>
	<node id="9977326715" lat="60.6229472" lon="5.2376812" version="1" timestamp="2022-08-25T15:08:29Z" changeset="125366839" uid="3497659" user="NKA">
		<tag k="name" v="Nordre Li" />
		<tag k="place" v="farm" />
		<tag k="ssr:stedsnr" v="773056" />
	</node>
	<node id="9977326716" lat="60.6453627" lon="5.0735318" version="1" timestamp="2022-08-25T15:08:29Z" changeset="125366839" uid="3497659" user="NKA">
		<tag k="name" v="Sørli" />
		<tag k="place" v="farm" />
		<tag k="ssr:stedsnr" v="895561" />
	</node>
	<node id="9977326717" lat="60.6936384" lon="5.5944101" version="1" timestamp="2022-08-25T15:08:29Z" changeset="125366839" uid="3497659" user="NKA">
		<tag k="name" v="Hokøyni" />
		<tag k="place" v="farm" />
		<tag k="ssr:stedsnr" v="431400" />
	</node>
	<node id="9977326718" lat="60.5903032" lon="5.3933751" version="1" timestamp="2022-08-25T15:08:29Z" changeset="125366839" uid="3497659" user="NKA">
		<tag k="alt_name" v="Fylingsnes" />
		<tag k="name" v="Fylingsneset" />
		<tag k="place" v="hamlet" />
		<tag k="ssr:stedsnr" v="674095" />
	</node>
	<node id="9977326719" lat="60.6449916" lon="5.0497951" version="1" timestamp="2022-08-25T15:08:29Z" changeset="125366839" uid="3497659" user="NKA">
		<tag k="alt_name" v="Manger Øvre" />
		<tag k="name" v="Øvre Manger" />
		<tag k="place" v="farm" />
		<tag k="ssr:stedsnr" v="591562" />
	</node>
	<node id="9977326720" lat="60.5579273" lon="5.0519685" version="1" timestamp="2022-08-25T15:08:29Z" changeset="125366839" uid="3497659" user="NKA">
		<tag k="name" v="Ryland" />
		<tag k="place" v="hamlet" />
		<tag k="ssr:stedsnr" v="955111" />
	</node>
	<node id="9977326721" lat="60.6232411" lon="5.0851689" version="1" timestamp="2022-08-25T15:08:29Z" changeset="125366839" uid="3497659" user="NKA">
		<tag k="alt_name" v="Boge" />
		<tag k="name" v="Boga" />
		<tag k="place" v="farm" />
		<tag k="ssr:stedsnr" v="734951" />
	</node>
	<node id="9977326722" lat="60.628347" lon="5.0820511" version="1" timestamp="2022-08-25T15:08:29Z" changeset="125366839" uid="3497659" user="NKA">
		<tag k="name" v="Kollstad" />
		<tag k="place" v="hamlet" />
		<tag k="ssr:stedsnr" v="612952" />
	</node>
	<node id="9977326723" lat="60.5434499" lon="5.1328547" version="1" timestamp="2022-08-25T15:08:29Z" changeset="125366839" uid="3497659" user="NKA">
		<tag k="name" v="Indre-Brakstad" />
		<tag k="place" v="farm" />
		<tag k="ssr:stedsnr" v="772030" />
	</node>
	<node id="9977326724" lat="60.6838611" lon="5.3134783" version="1" timestamp="2022-08-25T15:08:29Z" changeset="125366839" uid="3497659" user="NKA">
		<tag k="historic" v="shieling" />
		<tag k="name" v="Austsetra" />
		<tag k="place" v="isolated_dwelling" />
		<tag k="ssr:stedsnr" v="834191" />
	</node>
	<node id="9977326725" lat="60.5383188" lon="5.1017222" version="1" timestamp="2022-08-25T15:08:29Z" changeset="125366839" uid="3497659" user="NKA">
		<tag k="name" v="Fløksand" />
		<tag k="place" v="hamlet" />
		<tag k="ssr:stedsnr" v="431442" />
	</node>
	<node id="9977326726" lat="60.6309373" lon="5.0482243" version="1" timestamp="2022-08-25T15:08:29Z" changeset="125366839" uid="3497659" user="NKA">
		<tag k="name" v="Mangersneset" />
		<tag k="place" v="hamlet" />
		<tag k="ssr:stedsnr" v="409583" />
	</node>
	<node id="9977326727" lat="60.6434595" lon="5.4691472" version="1" timestamp="2022-08-25T15:08:29Z" changeset="125366839" uid="3497659" user="NKA">
		<tag k="name" v="Storset" />
		<tag k="place" v="farm" />
		<tag k="ssr:stedsnr" v="674672" />
	</node>
	<node id="9977326728" lat="60.7363278" lon="5.5497004" version="1" timestamp="2022-08-25T15:08:29Z" changeset="125366839" uid="3497659" user="NKA">
		<tag k="historic" v="shieling" />
		<tag k="name" v="Store Urdalssetra" />
		<tag k="place" v="isolated_dwelling" />
		<tag k="ssr:stedsnr" v="530659" />
	</node>
	<node id="9977326729" lat="60.5787778" lon="5.3398395" version="1" timestamp="2022-08-25T15:08:29Z" changeset="125366839" uid="3497659" user="NKA">
		<tag k="name" v="Hopsdal" />
		<tag k="place" v="farm" />
		<tag k="ssr:stedsnr" v="734072" />
	</node>
	<node id="9977326730" lat="60.6325434" lon="5.5572058" version="1" timestamp="2022-08-25T15:08:29Z" changeset="125366839" uid="3497659" user="NKA">
		<tag k="name" v="Molvikagrendi" />
		<tag k="place" v="hamlet" />
		<tag k="ssr:stedsnr" v="673700" />
	</node>
	<node id="9977326731" lat="60.6717861" lon="5.250045" version="1" timestamp="2022-08-25T15:08:29Z" changeset="125366839" uid="3497659" user="NKA">
		<tag k="name" v="Søre Grimstad" />
		<tag k="place" v="farm" />
		<tag k="ssr:stedsnr" v="287229" />
	</node>
	<node id="9977326732" lat="60.633982" lon="5.3057315" version="1" timestamp="2022-08-25T15:08:29Z" changeset="125366839" uid="3497659" user="NKA">
		<tag k="name" v="Toskheim" />
		<tag k="place" v="farm" />
		<tag k="ssr:stedsnr" v="408063" />
	</node>
	<node id="9977326733" lat="60.6991195" lon="5.4384699" version="1" timestamp="2022-08-25T15:08:29Z" changeset="125366839" uid="3497659" user="NKA">
		<tag k="historic" v="shieling" />
		<tag k="name" v="Gamlesetra" />
		<tag k="place" v="isolated_dwelling" />
		<tag k="ssr:stedsnr" v="227403" />
	</node>
	<node id="9977326734" lat="60.5753397" lon="5.3637172" version="1" timestamp="2022-08-25T15:08:29Z" changeset="125366839" uid="3497659" user="NKA">
		<tag k="alt_name" v="Midtgård" />
		<tag k="name" v="Midgarden" />
		<tag k="place" v="farm" />
		<tag k="ssr:stedsnr" v="612080" />
	</node>
	<node id="9977326735" lat="60.5298878" lon="5.2364996" version="1" timestamp="2022-08-25T15:08:29Z" changeset="125366839" uid="3497659" user="NKA">
		<tag k="name" v="Fosse" />
		<tag k="place" v="hamlet" />
		<tag k="ssr:stedsnr" v="492376" />
	</node>
	<node id="9977326736" lat="60.6704445" lon="5.117395" version="1" timestamp="2022-08-25T15:08:29Z" changeset="125366839" uid="3497659" user="NKA">
		<tag k="historic" v="shieling" />
		<tag k="name" v="Stølane" />
		<tag k="place" v="isolated_dwelling" />
		<tag k="ssr:stedsnr" v="347252" />
	</node>
	<node id="9977326737" lat="60.7704222" lon="5.5745282" version="1" timestamp="2022-08-25T15:08:29Z" changeset="125366839" uid="3497659" user="NKA">
		<tag k="historic" v="shieling" />
		<tag k="name" v="Stussdalssetra" />
		<tag k="place" v="isolated_dwelling" />
		<tag k="ssr:stedsnr" v="605466" />
	</node>
	<node id="9977326738" lat="60.6180833" lon="5.3486866" version="1" timestamp="2022-08-25T15:08:29Z" changeset="125366839" uid="3497659" user="NKA">
		<tag k="name" v="Sandvik" />
		<tag k="place" v="farm" />
		<tag k="ssr:stedsnr" v="166043" />
	</node>
	<node id="9977326739" lat="60.7306543" lon="5.2987419" version="1" timestamp="2022-08-25T15:08:29Z" changeset="125366839" uid="3497659" user="NKA">
		<tag k="name" v="Hodneland" />
		<tag k="place" v="hamlet" />
		<tag k="ssr:stedsnr" v="612650" />
	</node>
	<node id="9977326740" lat="60.6741467" lon="5.0265668" version="1" timestamp="2022-08-25T15:08:29Z" changeset="125366839" uid="3497659" user="NKA">
		<tag k="name" v="Kløvheim" />
		<tag k="place" v="farm" />
		<tag k="ssr:stedsnr" v="916982" />
	</node>
	<node id="9977326741" lat="60.7224083" lon="5.3219282" version="1" timestamp="2022-08-25T15:08:29Z" changeset="125366839" uid="3497659" user="NKA">
		<tag k="name" v="Hodnalii" />
		<tag k="place" v="farm" />
		<tag k="ssr:stedsnr" v="612184" />
	</node>
	<node id="9977326742" lat="60.7742583" lon="5.5293337" version="1" timestamp="2022-08-25T15:08:29Z" changeset="125366839" uid="3497659" user="NKA">
		<tag k="historic" v="shieling" />
		<tag k="name" v="Steinsedalssetra" />
		<tag k="place" v="isolated_dwelling" />
		<tag k="ssr:stedsnr" v="773821" />
	</node>
	<node id="9977326743" lat="60.6160583" lon="5.1839922" version="1" timestamp="2022-08-25T15:08:29Z" changeset="125366839" uid="3497659" user="NKA">
		<tag k="name" v="Solstrand" />
		<tag k="place" v="farm" />
		<tag k="ssr:stedsnr" v="188073" />
	</node>
	<node id="9977326744" lat="60.6690471" lon="4.9695871" version="1" timestamp="2022-08-25T15:08:29Z" changeset="125366839" uid="3497659" user="NKA">
		<tag k="name" v="Krossen" />
		<tag k="place" v="farm" />
		<tag k="ssr:stedsnr" v="795789" />
	</node>
	<node id="9977326745" lat="60.6942005" lon="5.3146149" version="1" timestamp="2022-08-25T15:08:29Z" changeset="125366839" uid="3497659" user="NKA">
		<tag k="name" v="Nævdal" />
		<tag k="place" v="hamlet" />
		<tag k="ssr:stedsnr" v="552139" />
	</node>
	<node id="9977326746" lat="60.6459092" lon="5.0977373" version="1" timestamp="2022-08-25T15:08:29Z" changeset="125366839" uid="3497659" user="NKA">
		<tag k="name" v="Marås" />
		<tag k="place" v="farm" />
		<tag k="ssr:stedsnr" v="67058" />
	</node>
	<node id="9977326747" lat="60.7688617" lon="5.1522532" version="1" timestamp="2022-08-25T15:08:29Z" changeset="125366839" uid="3497659" user="NKA">
		<tag k="name" v="Sundsbø" />
		<tag k="place" v="hamlet" />
		<tag k="ssr:stedsnr" v="676701" />
	</node>
	<node id="9977326748" lat="60.6600084" lon="5.24337" version="1" timestamp="2022-08-25T15:08:29Z" changeset="125366839" uid="3497659" user="NKA">
		<tag k="historic" v="shieling" />
		<tag k="name" v="Setre" />
		<tag k="place" v="isolated_dwelling" />
		<tag k="ssr:stedsnr" v="44135" />
	</node>
	<node id="9977326749" lat="60.6845947" lon="5.2330949" version="1" timestamp="2022-08-25T15:08:29Z" changeset="125366839" uid="3497659" user="NKA">
		<tag k="name" v="Konglevoll" />
		<tag k="place" v="hamlet" />
		<tag k="ssr:stedsnr" v="348206" />
	</node>
	<node id="9977326750" lat="60.6995172" lon="5.196292" version="1" timestamp="2022-08-25T15:08:29Z" changeset="125366839" uid="3497659" user="NKA">
		<tag k="name" v="Lyngbø" />
		<tag k="place" v="farm" />
		<tag k="ssr:stedsnr" v="551186" />
	</node>
	<node id="9977326751" lat="60.6124346" lon="5.1686972" version="1" timestamp="2022-08-25T15:08:29Z" changeset="125366839" uid="3497659" user="NKA">
		<tag k="alt_name" v="Tjore" />
		<tag k="name" v="Tjoro" />
		<tag k="place" v="hamlet" />
		<tag k="ssr:stedsnr" v="67019" />
	</node>
	<node id="9977326752" lat="60.6094992" lon="5.2661597" version="1" timestamp="2022-08-25T15:08:29Z" changeset="125366839" uid="3497659" user="NKA">
		<tag k="name" v="Fiskeset" />
		<tag k="place" v="hamlet" />
		<tag k="ssr:stedsnr" v="6011" />
	</node>
	<node id="9977326753" lat="60.6852277" lon="4.939452" version="1" timestamp="2022-08-25T15:08:29Z" changeset="125366839" uid="3497659" user="NKA">
		<tag k="name" v="Nedre Kvalheim" />
		<tag k="place" v="farm" />
		<tag k="ssr:stedsnr" v="145233" />
	</node>
	<node id="9977326754" lat="60.5707704" lon="5.2382181" version="1" timestamp="2022-08-25T15:08:29Z" changeset="125366839" uid="3497659" user="NKA">
		<tag k="name" v="Alver" />
		<tag k="place" v="farm" />
		<tag k="ssr:stedsnr" v="146551" />
	</node>
	<node id="9977326755" lat="60.5279611" lon="5.1970866" version="1" timestamp="2022-08-25T15:08:29Z" changeset="125366839" uid="3497659" user="NKA">
		<tag k="historic" v="shieling" />
		<tag k="name" v="Stølane" />
		<tag k="place" v="isolated_dwelling" />
		<tag k="ssr:stedsnr" v="956423" />
	</node>
	<node id="9977326756" lat="60.6622778" lon="5.2783033" version="1" timestamp="2022-08-25T15:08:29Z" changeset="125366839" uid="3497659" user="NKA">
		<tag k="name" v="Djupviki" />
		<tag k="place" v="farm" />
		<tag k="ssr:stedsnr" v="6257" />
	</node>
	<node id="9977326757" lat="60.5362048" lon="5.1929248" version="1" timestamp="2022-08-25T15:08:29Z" changeset="125366839" uid="3497659" user="NKA">
		<tag k="name" v="Nedre Dale" />
		<tag k="place" v="farm" />
		<tag k="ssr:stedsnr" v="939649" />
	</node>
	<node id="9977326758" lat="60.7148639" lon="4.9893423" version="1" timestamp="2022-08-25T15:08:29Z" changeset="125366839" uid="3497659" user="NKA">
		<tag k="name" v="Hovet" />
		<tag k="place" v="farm" />
		<tag k="ssr:stedsnr" v="673832" />
	</node>
	<node id="9977326759" lat="60.6993561" lon="5.1687759" version="1" timestamp="2022-08-25T15:08:29Z" changeset="125366839" uid="3497659" user="NKA">
		<tag k="alt_name" v="Kvalvåggrend" />
		<tag k="name" v="Kvalvågen" />
		<tag k="place" v="hamlet" />
		<tag k="ssr:stedsnr" v="855171" />
	</node>
	<node id="9977326760" lat="60.6863805" lon="5.13487" version="1" timestamp="2022-08-25T15:08:29Z" changeset="125366839" uid="3497659" user="NKA">
		<tag k="alt_name" v="Grønås" />
		<tag k="name" v="Grønåsen" />
		<tag k="place" v="farm" />
		<tag k="ssr:stedsnr" v="673146" />
	</node>
	<node id="9977326761" lat="60.5562978" lon="5.1378052" version="1" timestamp="2022-08-25T15:08:29Z" changeset="125366839" uid="3497659" user="NKA">
		<tag k="alt_name" v="Mørtveit;Mortveit" />
		<tag k="name" v="Myrtveit" />
		<tag k="place" v="farm" />
		<tag k="ssr:stedsnr" v="309090" />
	</node>
	<node id="9977326762" lat="60.6118278" lon="5.3832199" version="1" timestamp="2022-08-25T15:08:29Z" changeset="125366839" uid="3497659" user="NKA">
		<tag k="alt_name" v="Eikanger nedre" />
		<tag k="name" v="Nedre Eikanger" />
		<tag k="place" v="farm" />
		<tag k="ssr:stedsnr" v="712130" />
	</node>
	<node id="9977326763" lat="60.6504722" lon="5.1820979" version="1" timestamp="2022-08-25T15:08:29Z" changeset="125366839" uid="3497659" user="NKA">
		<tag k="name" v="Nedre Myksvoll" />
		<tag k="place" v="farm" />
		<tag k="ssr:stedsnr" v="591319" />
	</node>
	<node id="9977326764" lat="60.7128248" lon="5.057087" version="1" timestamp="2022-08-25T15:08:29Z" changeset="125366839" uid="3497659" user="NKA">
		<tag k="name" v="Kalven" />
		<tag k="place" v="locality" />
		<tag k="ssr:stedsnr" v="469537" />
	</node>
	<node id="9977326765" lat="60.6170539" lon="5.1607249" version="1" timestamp="2022-08-25T15:08:29Z" changeset="125366839" uid="3497659" user="NKA">
		<tag k="alt_name" v="Solheim Austre" />
		<tag k="name" v="Austre Solheim" />
		<tag k="place" v="farm" />
		<tag k="ssr:stedsnr" v="651739" />
	</node>
	<node id="9977326766" lat="60.739913" lon="4.9128291" version="1" timestamp="2022-08-25T15:08:29Z" changeset="125366839" uid="3497659" user="NKA">
		<tag k="name" v="Svena" />
		<tag k="place" v="farm" />
		<tag k="ssr:stedsnr" v="590417" />
	</node>
	<node id="9977326767" lat="60.6734685" lon="5.1287207" version="1" timestamp="2022-08-25T15:08:29Z" changeset="125366839" uid="3497659" user="NKA">
		<tag k="name" v="Langenes" />
		<tag k="place" v="farm" />
		<tag k="ssr:stedsnr" v="989428" />
	</node>
	<node id="9977326768" lat="60.5830155" lon="5.2088096" version="1" timestamp="2022-08-25T15:08:29Z" changeset="125366839" uid="3497659" user="NKA">
		<tag k="alt_name" v="Soltveit nordre" />
		<tag k="name" v="Nordre Soltveit" />
		<tag k="place" v="farm" />
		<tag k="ssr:stedsnr" v="287434" />
	</node>
	<node id="9977326769" lat="60.5983922" lon="5.2185755" version="1" timestamp="2022-08-25T15:08:29Z" changeset="125366839" uid="3497659" user="NKA">
		<tag k="name" v="Fosse" />
		<tag k="place" v="hamlet" />
		<tag k="ssr:stedsnr" v="989459" />
	</node>
	<node id="9977326770" lat="60.6612512" lon="5.0624478" version="1" timestamp="2022-08-25T15:08:29Z" changeset="125366839" uid="3497659" user="NKA">
		<tag k="name" v="Lervik" />
		<tag k="place" v="farm" />
		<tag k="ssr:stedsnr" v="916972" />
	</node>
	<node id="9977326771" lat="60.5415195" lon="5.1553117" version="1" timestamp="2022-08-25T15:08:29Z" changeset="125366839" uid="3497659" user="NKA">
		<tag k="name" v="Kletten" />
		<tag k="place" v="farm" />
		<tag k="ssr:stedsnr" v="955025" />
	</node>
	<node id="9977326772" lat="60.6591952" lon="5.3501017" version="1" timestamp="2022-08-25T15:08:29Z" changeset="125366839" uid="3497659" user="NKA">
		<tag k="name" v="Kløvheim" />
		<tag k="place" v="hamlet" />
		<tag k="ssr:stedsnr" v="288086" />
	</node>
	<node id="9977326773" lat="60.6161361" lon="5.1548423" version="1" timestamp="2022-08-25T15:08:29Z" changeset="125366839" uid="3497659" user="NKA">
		<tag k="name" v="Kråa" />
		<tag k="place" v="farm" />
		<tag k="ssr:stedsnr" v="408759" />
	</node>
	<node id="9977326774" lat="60.5545" lon="5.1699395" version="1" timestamp="2022-08-25T15:08:29Z" changeset="125366839" uid="3497659" user="NKA">
		<tag k="name" v="Hestnes" />
		<tag k="place" v="farm" />
		<tag k="ssr:stedsnr" v="356301" />
	</node>
	<node id="9977326775" lat="60.5165849" lon="5.2197611" version="1" timestamp="2022-08-25T15:08:29Z" changeset="125366839" uid="3497659" user="NKA">
		<tag k="name" v="Mjåtveit" />
		<tag k="place" v="hamlet" />
		<tag k="ssr:stedsnr" v="795434" />
	</node>
	<node id="9977326776" lat="60.6022" lon="5.1783894" version="1" timestamp="2022-08-25T15:08:29Z" changeset="125366839" uid="3497659" user="NKA">
		<tag k="name" v="Nordre Haukeland" />
		<tag k="place" v="farm" />
		<tag k="ssr:stedsnr" v="287788" />
	</node>
	<node id="9977326777" lat="60.5698528" lon="5.2368588" version="1" timestamp="2022-08-25T15:08:29Z" changeset="125366839" uid="3497659" user="NKA">
		<tag k="alt_name" v="Alver nedre" />
		<tag k="name" v="Nedre Alver" />
		<tag k="place" v="farm" />
		<tag k="ssr:stedsnr" v="348099" />
	</node>
	<node id="9977326778" lat="60.5941417" lon="5.1672311" version="1" timestamp="2022-08-25T15:08:29Z" changeset="125366839" uid="3497659" user="NKA">
		<tag k="name" v="Galteneset" />
		<tag k="place" v="farm" />
		<tag k="ssr:stedsnr" v="469795" />
	</node>
	<node id="9977326779" lat="60.6393639" lon="5.1707755" version="1" timestamp="2022-08-25T15:08:29Z" changeset="125366839" uid="3497659" user="NKA">
		<tag k="historic" v="shieling" />
		<tag k="name" v="Grønstølen" />
		<tag k="place" v="isolated_dwelling" />
		<tag k="ssr:stedsnr" v="348331" />
	</node>
	<node id="9977326780" lat="60.5947049" lon="5.1844959" version="1" timestamp="2022-08-25T15:08:29Z" changeset="125366839" uid="3497659" user="NKA">
		<tag k="alt_name" v="Vetås Nordre" />
		<tag k="name" v="Nordre Vetås" />
		<tag k="place" v="farm" />
		<tag k="ssr:stedsnr" v="772783" />
	</node>
	<node id="9977326781" lat="60.6365131" lon="5.2459547" version="1" timestamp="2022-08-25T15:08:29Z" changeset="125366839" uid="3497659" user="NKA">
		<tag k="name" v="Spurkeland" />
		<tag k="place" v="hamlet" />
		<tag k="ssr:stedsnr" v="309239" />
	</node>
	<node id="9977326782" lat="60.5402074" lon="5.2372347" version="1" timestamp="2022-08-25T15:08:29Z" changeset="125366839" uid="3497659" user="NKA">
		<tag k="name" v="Litlebergen" />
		<tag k="place" v="hamlet" />
		<tag k="ssr:stedsnr" v="431437" />
	</node>
	<node id="9977326783" lat="60.6483541" lon="5.0796883" version="1" timestamp="2022-08-25T15:08:29Z" changeset="125366839" uid="3497659" user="NKA">
		<tag k="name" v="Halland" />
		<tag k="place" v="hamlet" />
		<tag k="ssr:stedsnr" v="309963" />
	</node>
	<node id="9977326784" lat="60.5337778" lon="5.2598117" version="1" timestamp="2022-08-25T15:08:29Z" changeset="125366839" uid="3497659" user="NKA">
		<tag k="name" v="Øyni" />
		<tag k="place" v="farm" />
		<tag k="ssr:stedsnr" v="127412" />
	</node>
	<node id="9977326785" lat="60.7301176" lon="4.9170919" version="1" timestamp="2022-08-25T15:08:29Z" changeset="125366839" uid="3497659" user="NKA">
		<tag k="name" v="Villanger" />
		<tag k="place" v="hamlet" />
		<tag k="ssr:stedsnr" v="734851" />
	</node>
	<node id="9977326786" lat="60.556869" lon="5.2681766" version="1" timestamp="2022-08-25T15:08:29Z" changeset="125366839" uid="3497659" user="NKA">
		<tag k="name" v="Nygarden" />
		<tag k="place" v="farm" />
		<tag k="ssr:stedsnr" v="309095" />
	</node>
	<node id="9977326787" lat="60.5119195" lon="5.2291034" version="1" timestamp="2022-08-25T15:08:29Z" changeset="125366839" uid="3497659" user="NKA">
		<tag k="name" v="Vikane" />
		<tag k="place" v="quarter" />
		<tag k="ssr:stedsnr" v="67516" />
	</node>
	<node id="9977326788" lat="60.5367397" lon="5.2670458" version="1" timestamp="2022-08-25T15:08:29Z" changeset="125366839" uid="3497659" user="NKA">
		<tag k="name" v="Austegarden" />
		<tag k="place" v="hamlet" />
		<tag k="ssr:stedsnr" v="127428" />
	</node>
	<node id="9977326789" lat="60.5414207" lon="5.2802973" version="1" timestamp="2022-08-25T15:08:29Z" changeset="125366839" uid="3497659" user="NKA">
		<tag k="name" v="Klubben" />
		<tag k="place" v="neighbourhood" />
		<tag k="ssr:stedsnr" v="906807" />
	</node>
	<node id="9977326790" lat="60.5118678" lon="5.2401311" version="1" timestamp="2022-08-25T15:08:29Z" changeset="125366839" uid="3497659" user="NKA">
		<tag k="name" v="Jonsokgrenda" />
		<tag k="place" v="neighbourhood" />
		<tag k="ssr:stedsnr" v="404008" />
	</node>
	<node id="9977326791" lat="60.67475" lon="5.2475339" version="1" timestamp="2022-08-25T15:08:29Z" changeset="125366839" uid="3497659" user="NKA">
		<tag k="name" v="Nordre Grimstad" />
		<tag k="place" v="farm" />
		<tag k="ssr:stedsnr" v="712184" />
	</node>
	<node id="9977326792" lat="60.7080972" lon="4.9860451" version="1" timestamp="2022-08-25T15:08:29Z" changeset="125366839" uid="3497659" user="NKA">
		<tag k="name" v="Noranger" />
		<tag k="place" v="hamlet" />
		<tag k="ssr:stedsnr" v="673823" />
	</node>
	<node id="9977326793" lat="60.6994111" lon="4.9215619" version="1" timestamp="2022-08-25T15:08:29Z" changeset="125366839" uid="3497659" user="NKA">
		<tag k="name" v="Skarneset" />
		<tag k="place" v="farm" />
		<tag k="ssr:stedsnr" v="530381" />
	</node>
	<node id="9977326794" lat="60.7192384" lon="4.9205483" version="1" timestamp="2022-08-25T15:08:29Z" changeset="125366839" uid="3497659" user="NKA">
		<tag k="name" v="Utsylta" />
		<tag k="place" v="farm" />
		<tag k="ssr:stedsnr" v="491826" />
	</node>
	<node id="9977326795" lat="60.6829778" lon="4.9357814" version="1" timestamp="2022-08-25T15:08:29Z" changeset="125366839" uid="3497659" user="NKA">
		<tag k="name" v="Brømstølen" />
		<tag k="place" v="farm" />
		<tag k="ssr:stedsnr" v="468298" />
	</node>
	<node id="9977326796" lat="60.6511485" lon="5.2838148" version="1" timestamp="2022-08-25T15:08:29Z" changeset="125366839" uid="3497659" user="NKA">
		<tag k="alt_name" v="Leivestad, s;Leivestad Søre" />
		<tag k="name" v="Søre Leivestad" />
		<tag k="place" v="farm" />
		<tag k="ssr:stedsnr" v="552215" />
	</node>
	<node id="9977326797" lat="60.5657528" lon="5.365106" version="1" timestamp="2022-08-25T15:08:29Z" changeset="125366839" uid="3497659" user="NKA">
		<tag k="name" v="Munndalsstøi" />
		<tag k="place" v="farm" />
		<tag k="ssr:stedsnr" v="67096" />
	</node>
	<node id="9977326798" lat="60.5861145" lon="5.2390296" version="1" timestamp="2022-08-25T15:08:29Z" changeset="125366839" uid="3497659" user="NKA">
		<tag k="name" v="Kvamme" />
		<tag k="place" v="hamlet" />
		<tag k="ssr:stedsnr" v="551120" />
	</node>
	<node id="9977326799" lat="60.6738575" lon="4.9459954" version="1" timestamp="2022-08-25T15:08:29Z" changeset="125366839" uid="3497659" user="NKA">
		<tag k="name" v="Nordre Vågenes" />
		<tag k="place" v="farm" />
		<tag k="ssr:stedsnr" v="449240" />
	</node>
	<node id="9977326800" lat="60.7169141" lon="4.9198186" version="1" timestamp="2022-08-25T15:08:29Z" changeset="125366839" uid="3497659" user="NKA">
		<tag k="name" v="Sylta" />
		<tag k="place" v="hamlet" />
		<tag k="ssr:stedsnr" v="370855" />
	</node>
	<node id="9977326801" lat="60.5208363" lon="5.231588" version="1" timestamp="2022-08-25T15:08:29Z" changeset="125366839" uid="3497659" user="NKA">
		<tag k="name" v="Langeland" />
		<tag k="place" v="farm" />
		<tag k="ssr:stedsnr" v="66364" />
	</node>
	<node id="9977326802" lat="60.5601778" lon="5.3173089" version="1" timestamp="2022-08-25T15:08:29Z" changeset="125366839" uid="3497659" user="NKA">
		<tag k="name" v="Grøttveit" />
		<tag k="place" v="farm" />
		<tag k="ssr:stedsnr" v="44106" />
	</node>
	<node id="9977326803" lat="60.6863516" lon="5.128481" version="1" timestamp="2022-08-25T15:08:29Z" changeset="125366839" uid="3497659" user="NKA">
		<tag k="name" v="Innluro" />
		<tag k="place" v="farm" />
		<tag k="ssr:stedsnr" v="431157" />
	</node>
	<node id="9977326804" lat="60.7132098" lon="4.9234889" version="1" timestamp="2022-08-25T15:08:29Z" changeset="125366839" uid="3497659" user="NKA">
		<tag k="name" v="Innsylta" />
		<tag k="place" v="farm" />
		<tag k="ssr:stedsnr" v="431856" />
	</node>
	<node id="9977326805" lat="60.7083334" lon="4.9312216" version="1" timestamp="2022-08-25T15:08:29Z" changeset="125366839" uid="3497659" user="NKA">
		<tag k="name" v="Rikstad" />
		<tag k="place" v="hamlet" />
		<tag k="ssr:stedsnr" v="249818" />
	</node>
	<node id="9977326806" lat="60.5999342" lon="5.2845353" version="1" timestamp="2022-08-25T15:08:29Z" changeset="125366839" uid="3497659" user="NKA">
		<tag k="name" v="Herland" />
		<tag k="place" v="hamlet" />
		<tag k="ssr:stedsnr" v="734031" />
	</node>
	<node id="9977326807" lat="60.6944227" lon="4.9334333" version="1" timestamp="2022-08-25T15:08:29Z" changeset="125366839" uid="3497659" user="NKA">
		<tag k="name" v="Haugland" />
		<tag k="place" v="hamlet" />
		<tag k="ssr:stedsnr" v="127813" />
	</node>
	<node id="9977326808" lat="60.773545" lon="5.6643624" version="1" timestamp="2022-08-25T15:08:29Z" changeset="125366839" uid="3497659" user="NKA">
		<tag k="name" v="Eiterdalen" />
		<tag k="place" v="farm" />
		<tag k="ssr:stedsnr" v="129447" />
	</node>
	<node id="9977326809" lat="60.6595542" lon="5.4741384" version="1" timestamp="2022-08-25T15:08:29Z" changeset="125366839" uid="3497659" user="NKA">
		<tag k="name" v="Stalltræet" />
		<tag k="place" v="farm" />
		<tag k="ssr:stedsnr" v="673353" />
	</node>
	<node id="9977326810" lat="60.6399205" lon="5.4300377" version="1" timestamp="2022-08-25T15:08:29Z" changeset="125366839" uid="3497659" user="NKA">
		<tag k="name" v="Bjørgo" />
		<tag k="place" v="hamlet" />
		<tag k="ssr:stedsnr" v="673041" />
	</node>
	<node id="9977326811" lat="60.6542111" lon="5.3817171" version="1" timestamp="2022-08-25T15:08:29Z" changeset="125366839" uid="3497659" user="NKA">
		<tag k="name" v="Åsgård" />
		<tag k="place" v="farm" />
		<tag k="ssr:stedsnr" v="529494" />
	</node>
	<node id="9977326812" lat="60.5528639" lon="5.0402923" version="1" timestamp="2022-08-25T15:08:29Z" changeset="125366839" uid="3497659" user="NKA">
		<tag k="historic" v="shieling" />
		<tag k="name" v="Bustølen" />
		<tag k="place" v="isolated_dwelling" />
		<tag k="ssr:stedsnr" v="652320" />
	</node>
	<node id="9977326813" lat="60.629302" lon="5.2652728" version="1" timestamp="2022-08-25T15:08:29Z" changeset="125366839" uid="3497659" user="NKA">
		<tag k="name" v="Totland" />
		<tag k="place" v="farm" />
		<tag k="ssr:stedsnr" v="673052" />
	</node>
	<node id="9977326814" lat="60.6240905" lon="5.4778613" version="1" timestamp="2022-08-25T15:08:29Z" changeset="125366839" uid="3497659" user="NKA">
		<tag k="alt_name" v="Eido;Ostereido" />
		<tag k="name" v="Eide" />
		<tag k="place" v="hamlet" />
		<tag k="ssr:stedsnr" v="491714" />
	</node>
	<node id="9977326815" lat="60.7576817" lon="5.0617094" version="1" timestamp="2022-08-25T15:08:29Z" changeset="125366839" uid="3497659" user="NKA">
		<tag k="name" v="Risasjøen" />
		<tag k="place" v="hamlet" />
		<tag k="ssr:stedsnr" v="737166" />
	</node>
	<node id="9977326816" lat="60.670875" lon="5.0283729" version="1" timestamp="2022-08-25T15:08:29Z" changeset="125366839" uid="3497659" user="NKA">
		<tag k="name" v="Duva" />
		<tag k="place" v="farm" />
		<tag k="ssr:stedsnr" v="856989" />
	</node>
	<node id="9977326817" lat="60.6868111" lon="4.9358789" version="1" timestamp="2022-08-25T15:08:29Z" changeset="125366839" uid="3497659" user="NKA">
		<tag k="alt_name" v="Kvaleim" />
		<tag k="name" v="Kvalheim" />
		<tag k="place" v="hamlet" />
		<tag k="ssr:stedsnr" v="916809" />
	</node>
	<node id="9977326818" lat="60.5681379" lon="5.3604458" version="1" timestamp="2022-08-25T15:08:29Z" changeset="125366839" uid="3497659" user="NKA">
		<tag k="name" v="Munndal" />
		<tag k="place" v="hamlet" />
		<tag k="ssr:stedsnr" v="989485" />
	</node>
	<node id="9977326819" lat="60.6362056" lon="5.5220949" version="1" timestamp="2022-08-25T15:08:29Z" changeset="125366839" uid="3497659" user="NKA">
		<tag k="name" v="Skåratræet" />
		<tag k="place" v="farm" />
		<tag k="ssr:stedsnr" v="955525" />
	</node>
	<node id="9977326820" lat="60.7426778" lon="5.5922281" version="1" timestamp="2022-08-25T15:08:29Z" changeset="125366839" uid="3497659" user="NKA">
		<tag k="historic" v="shieling" />
		<tag k="name" v="Vetleurdalsetra" />
		<tag k="place" v="isolated_dwelling" />
		<tag k="ssr:stedsnr" v="955798" />
	</node>
	<node id="9977326821" lat="60.7041077" lon="5.0051859" version="1" timestamp="2022-08-25T15:08:29Z" changeset="125366839" uid="3497659" user="NKA">
		<tag k="name" v="Soltveit" />
		<tag k="place" v="hamlet" />
		<tag k="ssr:stedsnr" v="856815" />
	</node>
	<node id="9977326822" lat="60.7167383" lon="5.6209189" version="1" timestamp="2022-08-25T15:08:29Z" changeset="125366839" uid="3497659" user="NKA">
		<tag k="alt_name" v="Litle Aurdal;Vetleurdal" />
		<tag k="name" v="Vetle-Aurdal" />
		<tag k="place" v="hamlet" />
		<tag k="ssr:stedsnr" v="249288" />
	</node>
	<node id="9977326823" lat="60.7858542" lon="5.009412" version="1" timestamp="2022-08-25T15:08:29Z" changeset="125366839" uid="3497659" user="NKA">
		<tag k="alt_name" v="Indra Keila;Keilo" />
		<tag k="name" v="Keila" />
		<tag k="place" v="hamlet" />
		<tag k="ssr:stedsnr" v="797227" />
	</node>
	<node id="9977326824" lat="60.7526592" lon="5.1767339" version="1" timestamp="2022-08-25T15:08:29Z" changeset="125366839" uid="3497659" user="NKA">
		<tag k="name" v="Fonnebost" />
		<tag k="place" v="hamlet" />
		<tag k="ssr:stedsnr" v="676731" />
	</node>
	<node id="9977326825" lat="60.6900562" lon="4.9346735" version="1" timestamp="2022-08-25T15:08:29Z" changeset="125366839" uid="3497659" user="NKA">
		<tag k="name" v="Øvre Kvalheim" />
		<tag k="place" v="farm" />
		<tag k="ssr:stedsnr" v="388204" />
	</node>
	<node id="9977326826" lat="60.6982055" lon="4.9221146" version="1" timestamp="2022-08-25T15:08:29Z" changeset="125366839" uid="3497659" user="NKA">
		<tag k="name" v="Brattholmen" />
		<tag k="place" v="farm" />
		<tag k="ssr:stedsnr" v="348345" />
	</node>
	<node id="9977326827" lat="60.7008527" lon="4.9297934" version="1" timestamp="2022-08-25T15:08:29Z" changeset="125366839" uid="3497659" user="NKA">
		<tag k="name" v="Bø" />
		<tag k="place" v="neighbourhood" />
		<tag k="ssr:stedsnr" v="288228" />
	</node>
	<node id="9977326828" lat="60.6696745" lon="5.2709607" version="1" timestamp="2022-08-25T15:08:29Z" changeset="125366839" uid="3497659" user="NKA">
		<tag k="name" v="Seli" />
		<tag k="place" v="farm" />
		<tag k="ssr:stedsnr" v="491248" />
	</node>
	<node id="9977326829" lat="60.6669858" lon="4.9760144" version="1" timestamp="2022-08-25T15:08:29Z" changeset="125366839" uid="3497659" user="NKA">
		<tag k="name" v="Uthella" />
		<tag k="place" v="farm" />
		<tag k="ssr:stedsnr" v="188820" />
	</node>
	<node id="9977326830" lat="60.5630558" lon="5.1398596" version="1" timestamp="2022-08-25T15:08:29Z" changeset="125366839" uid="3497659" user="NKA">
		<tag k="name" v="Håtuft" />
		<tag k="place" v="hamlet" />
		<tag k="ssr:stedsnr" v="491071" />
	</node>
	<node id="9977326831" lat="60.6578361" lon="4.9236507" version="1" timestamp="2022-08-25T15:08:29Z" changeset="125366839" uid="3497659" user="NKA">
		<tag k="name" v="Uttoska" />
		<tag k="place" v="farm" />
		<tag k="ssr:stedsnr" v="166309" />
	</node>
	<node id="9977326832" lat="60.7381445" lon="5.1556172" version="1" timestamp="2022-08-25T15:08:29Z" changeset="125366839" uid="3497659" user="NKA">
		<tag k="name" v="Kvalen" />
		<tag k="place" v="farm" />
		<tag k="ssr:stedsnr" v="955197" />
	</node>
	<node id="9977326833" lat="60.5739556" lon="5.233231" version="1" timestamp="2022-08-25T15:08:29Z" changeset="125366839" uid="3497659" user="NKA">
		<tag k="alt_name" v="Tveiten øvre" />
		<tag k="name" v="Øvre Tveiten" />
		<tag k="place" v="farm" />
		<tag k="ssr:stedsnr" v="469431" />
	</node>
	<node id="9977326834" lat="60.6040665" lon="5.2785456" version="1" timestamp="2022-08-25T15:08:29Z" changeset="125366839" uid="3497659" user="NKA">
		<tag k="name" v="Nyland" />
		<tag k="place" v="farm" />
		<tag k="ssr:stedsnr" v="491029" />
	</node>
	<node id="9977326835" lat="60.6227338" lon="5.2123857" version="1" timestamp="2022-08-25T15:08:29Z" changeset="125366839" uid="3497659" user="NKA">
		<tag k="alt_name" v="Litleskaret" />
		<tag k="name" v="Litleskardet" />
		<tag k="place" v="farm" />
		<tag k="ssr:stedsnr" v="491047" />
	</node>
	<node id="9977326836" lat="60.5331422" lon="5.2075065" version="1" timestamp="2022-08-25T15:08:29Z" changeset="125366839" uid="3497659" user="NKA">
		<tag k="name" v="Nedre Sagstad" />
		<tag k="place" v="farm" />
		<tag k="ssr:stedsnr" v="393630" />
	</node>
	<node id="9977326837" lat="60.5453278" lon="5.1411562" version="1" timestamp="2022-08-25T15:08:29Z" changeset="125366839" uid="3497659" user="NKA">
		<tag k="name" v="Nordre Fløyen" />
		<tag k="place" v="farm" />
		<tag k="ssr:stedsnr" v="590015" />
	</node>
	<node id="9977326838" lat="60.5528028" lon="5.1801172" version="1" timestamp="2022-08-25T15:08:29Z" changeset="125366839" uid="3497659" user="NKA">
		<tag k="name" v="Myrvollane" />
		<tag k="place" v="farm" />
		<tag k="ssr:stedsnr" v="712044" />
	</node>
	<node id="9977326839" lat="60.6879633" lon="5.3246449" version="1" timestamp="2022-08-25T15:08:29Z" changeset="125366839" uid="3497659" user="NKA">
		<tag k="name" v="Bjørnevoll" />
		<tag k="place" v="farm" />
		<tag k="ssr:stedsnr" v="249134" />
	</node>
	<node id="9977326840" lat="60.5460184" lon="5.1656873" version="1" timestamp="2022-08-25T15:08:29Z" changeset="125366839" uid="3497659" user="NKA">
		<tag k="name" v="Røyset" />
		<tag k="place" v="hamlet" />
		<tag k="ssr:stedsnr" v="856486" />
	</node>
	<node id="9977326841" lat="60.7008945" lon="5.1652451" version="1" timestamp="2022-08-25T15:08:29Z" changeset="125366839" uid="3497659" user="NKA">
		<tag k="name" v="Kvalvåg" />
		<tag k="place" v="farm" />
		<tag k="ssr:stedsnr" v="772318" />
	</node>
	<node id="9977326842" lat="60.7380427" lon="5.6391783" version="1" timestamp="2022-08-25T15:08:29Z" changeset="125366839" uid="3497659" user="NKA">
		<tag k="name" v="Nordli" />
		<tag k="place" v="farm" />
		<tag k="ssr:stedsnr" v="248434" />
	</node>
	<node id="9977326843" lat="60.5595111" lon="5.0453895" version="1" timestamp="2022-08-25T15:08:29Z" changeset="125366839" uid="3497659" user="NKA">
		<tag k="name" v="Stekkane" />
		<tag k="place" v="farm" />
		<tag k="ssr:stedsnr" v="591344" />
	</node>
	<node id="9977326844" lat="60.6875937" lon="5.2607322" version="1" timestamp="2022-08-25T15:08:29Z" changeset="125366839" uid="3497659" user="NKA">
		<tag k="name" v="Revsdalen" />
		<tag k="place" v="farm" />
		<tag k="ssr:stedsnr" v="127133" />
	</node>
	<node id="9977326845" lat="60.6904519" lon="5.2214722" version="1" timestamp="2022-08-25T15:08:29Z" changeset="125366839" uid="3497659" user="NKA">
		<tag k="alt_name" v="Hetlehovde" />
		<tag k="name" v="Hetlehovda" />
		<tag k="place" v="farm" />
		<tag k="ssr:stedsnr" v="856123" />
	</node>
	<node id="9977326846" lat="60.6640064" lon="5.5965109" version="1" timestamp="2022-08-25T15:08:29Z" changeset="125366839" uid="3497659" user="NKA">
		<tag k="alt_name" v="Paddøyni" />
		<tag k="name" v="Padøy" />
		<tag k="place" v="farm" />
		<tag k="ssr:stedsnr" v="6655" />
	</node>
	<node id="9977326847" lat="60.645775" lon="5.202295" version="1" timestamp="2022-08-25T15:08:29Z" changeset="125366839" uid="3497659" user="NKA">
		<tag k="name" v="Litleoksa" />
		<tag k="place" v="farm" />
		<tag k="ssr:stedsnr" v="348321" />
	</node>
	<node id="9977326848" lat="60.617763" lon="5.1473692" version="1" timestamp="2022-08-25T15:08:29Z" changeset="125366839" uid="3497659" user="NKA">
		<tag k="name" v="Kvamme" />
		<tag k="place" v="farm" />
		<tag k="ssr:stedsnr" v="249048" />
	</node>
	<node id="9977326849" lat="60.7323344" lon="5.2736117" version="1" timestamp="2022-08-25T15:08:29Z" changeset="125366839" uid="3497659" user="NKA">
		<tag k="name" v="Sævrås" />
		<tag k="place" v="hamlet" />
		<tag k="ssr:stedsnr" v="370645" />
	</node>
	<node id="9977326850" lat="60.6218611" lon="5.1412894" version="1" timestamp="2022-08-25T15:08:29Z" changeset="125366839" uid="3497659" user="NKA">
		<tag k="name" v="Hole" />
		<tag k="place" v="farm" />
		<tag k="ssr:stedsnr" v="409718" />
	</node>
	<node id="9977326851" lat="60.6487528" lon="5.4468588" version="1" timestamp="2022-08-25T15:08:29Z" changeset="125366839" uid="3497659" user="NKA">
		<tag k="name" v="Toft" />
		<tag k="place" v="farm" />
		<tag k="ssr:stedsnr" v="712399" />
	</node>
	<node id="9977326852" lat="60.6764055" lon="5.5379531" version="1" timestamp="2022-08-25T15:08:29Z" changeset="125366839" uid="3497659" user="NKA">
		<tag k="historic" v="shieling" />
		<tag k="name" v="Eknessetra" />
		<tag k="place" v="isolated_dwelling" />
		<tag k="ssr:stedsnr" v="651757" />
	</node>
	<node id="9977326853" lat="60.6287823" lon="5.145333" version="1" timestamp="2022-08-25T15:08:29Z" changeset="125366839" uid="3497659" user="NKA">
		<tag k="name" v="Tolleshaug" />
		<tag k="place" v="farm" />
		<tag k="ssr:stedsnr" v="309032" />
	</node>
	<node id="9977326854" lat="60.6296869" lon="5.1400964" version="1" timestamp="2022-08-25T15:08:29Z" changeset="125366839" uid="3497659" user="NKA">
		<tag k="name" v="Dale" />
		<tag k="place" v="farm" />
		<tag k="ssr:stedsnr" v="248030" />
	</node>
	<node id="9977326855" lat="60.7272954" lon="5.1976127" version="1" timestamp="2022-08-25T15:08:29Z" changeset="125366839" uid="3497659" user="NKA">
		<tag k="name" v="Fjellanger" />
		<tag k="place" v="hamlet" />
		<tag k="ssr:stedsnr" v="855667" />
	</node>
	<node id="9977326856" lat="60.6225222" lon="5.3797283" version="1" timestamp="2022-08-25T15:08:29Z" changeset="125366839" uid="3497659" user="NKA">
		<tag k="name" v="Haugen" />
		<tag k="place" v="farm" />
		<tag k="ssr:stedsnr" v="226370" />
	</node>
	<node id="9977326857" lat="60.666161" lon="5.1371163" version="1" timestamp="2022-08-25T15:08:29Z" changeset="125366839" uid="3497659" user="NKA">
		<tag k="alt_name" v="Bergfjord" />
		<tag k="name" v="Berfjord" />
		<tag k="place" v="hamlet" />
		<tag k="ssr:stedsnr" v="856235" />
	</node>
	<node id="9977326858" lat="60.6242389" lon="5.1390283" version="1" timestamp="2022-08-25T15:08:29Z" changeset="125366839" uid="3497659" user="NKA">
		<tag k="name" v="Balen" />
		<tag k="place" v="farm" />
		<tag k="ssr:stedsnr" v="712744" />
	</node>
	<node id="9977326859" lat="60.7807805" lon="5.0396174" version="1" timestamp="2022-08-25T15:08:29Z" changeset="125366839" uid="3497659" user="NKA">
		<tag k="name" v="Utgjerdet" />
		<tag k="place" v="farm" />
		<tag k="ssr:stedsnr" v="615212" />
	</node>
	<node id="9977326860" lat="60.6054333" lon="5.1965367" version="1" timestamp="2022-08-25T15:08:29Z" changeset="125366839" uid="3497659" user="NKA">
		<tag k="name" v="Storsandane" />
		<tag k="place" v="farm" />
		<tag k="ssr:stedsnr" v="795047" />
	</node>
	<node id="9977326861" lat="60.7278497" lon="5.164198" version="1" timestamp="2022-08-25T15:08:29Z" changeset="125366839" uid="3497659" user="NKA">
		<tag k="alt_name" v="Spjeldnes" />
		<tag k="name" v="Spjeldneset" />
		<tag k="place" v="farm" />
		<tag k="ssr:stedsnr" v="552700" />
	</node>
	<node id="9977326862" lat="60.6580861" lon="5.1387867" version="1" timestamp="2022-08-25T15:08:29Z" changeset="125366839" uid="3497659" user="NKA">
		<tag k="alt_name" v="Feste Søre" />
		<tag k="name" v="Søre Feste" />
		<tag k="place" v="farm" />
		<tag k="ssr:stedsnr" v="347380" />
	</node>
	<node id="9977326863" lat="60.6440008" lon="5.1751211" version="1" timestamp="2022-08-25T15:08:29Z" changeset="125366839" uid="3497659" user="NKA">
		<tag k="historic" v="shieling" />
		<tag k="name" v="Smørdalstølen" />
		<tag k="place" v="locality" />
		<tag k="ssr:stedsnr" v="227327" />
	</node>
	<node id="9977326864" lat="60.7100883" lon="5.2252543" version="1" timestamp="2022-08-25T15:08:29Z" changeset="125366839" uid="3497659" user="NKA">
		<tag k="name" v="Løtveit" />
		<tag k="place" v="hamlet" />
		<tag k="ssr:stedsnr" v="734205" />
	</node>
	<node id="9977326865" lat="60.5575821" lon="5.0536952" version="1" timestamp="2022-08-25T15:08:29Z" changeset="125366839" uid="3497659" user="NKA">
		<tag k="name" v="Rylandshøgda" />
		<tag k="place" v="neighbourhood" />
		<tag k="ssr:stedsnr" v="890068" />
	</node>
	<node id="9977326866" lat="60.6935324" lon="5.2411419" version="1" timestamp="2022-08-25T15:08:29Z" changeset="125366839" uid="3497659" user="NKA">
		<tag k="name" v="Skodven" />
		<tag k="place" v="hamlet" />
		<tag k="ssr:stedsnr" v="989431" />
	</node>
	<node id="9977326867" lat="60.7225569" lon="5.2162058" version="1" timestamp="2022-08-25T15:08:29Z" changeset="125366839" uid="3497659" user="NKA">
		<tag k="name" v="Vågseidet" />
		<tag k="place" v="hamlet" />
		<tag k="ssr:stedsnr" v="955186" />
	</node>
	<node id="9977326868" lat="60.734916" lon="5.133893" version="1" timestamp="2022-08-25T15:08:29Z" changeset="125366839" uid="3497659" user="NKA">
		<tag k="name" v="Saltnes" />
		<tag k="place" v="farm" />
		<tag k="ssr:stedsnr" v="328143" />
	</node>
	<node id="9977326869" lat="60.7433259" lon="5.0809592" version="1" timestamp="2022-08-25T15:08:29Z" changeset="125366839" uid="3497659" user="NKA">
		<tag k="name" v="Finnesbø" />
		<tag k="place" v="farm" />
		<tag k="ssr:stedsnr" v="249740" />
	</node>
	<node id="9977326870" lat="60.7404139" lon="5.137584" version="1" timestamp="2022-08-25T15:08:29Z" changeset="125366839" uid="3497659" user="NKA">
		<tag k="historic" v="shieling" />
		<tag k="name" v="Skjerjestølane" />
		<tag k="place" v="isolated_dwelling" />
		<tag k="ssr:stedsnr" v="955242" />
	</node>
	<node id="9977326871" lat="60.6183027" lon="5.2528117" version="1" timestamp="2022-08-25T15:08:29Z" changeset="125366839" uid="3497659" user="NKA">
		<tag k="name" v="Gardviki" />
		<tag k="place" v="farm" />
		<tag k="ssr:stedsnr" v="734060" />
	</node>
	<node id="9977326872" lat="60.6467905" lon="5.0724418" version="1" timestamp="2022-08-25T15:08:29Z" changeset="125366839" uid="3497659" user="NKA">
		<tag k="name" v="Nordli" />
		<tag k="place" v="farm" />
		<tag k="ssr:stedsnr" v="166590" />
	</node>
	<node id="9977326873" lat="60.7411661" lon="5.1019557" version="1" timestamp="2022-08-25T15:08:29Z" changeset="125366839" uid="3497659" user="NKA">
		<tag k="name" v="Lyngbø" />
		<tag k="place" v="farm" />
		<tag k="ssr:stedsnr" v="128664" />
	</node>
	<node id="9977326874" lat="60.6920833" lon="5.1118283" version="1" timestamp="2022-08-25T15:08:29Z" changeset="125366839" uid="3497659" user="NKA">
		<tag k="alt_name" v="Lygren ytre" />
		<tag k="name" v="Ytre Lygren" />
		<tag k="place" v="farm" />
		<tag k="ssr:stedsnr" v="773510" />
	</node>
	<node id="9977326875" lat="60.6295916" lon="5.0781924" version="1" timestamp="2022-08-25T15:08:29Z" changeset="125366839" uid="3497659" user="NKA">
		<tag k="name" v="Kolstad" />
		<tag k="place" v="farm" />
		<tag k="ssr:stedsnr" v="712577" />
	</node>
	<node id="9977326876" lat="60.6927542" lon="5.1115214" version="1" timestamp="2022-08-25T15:08:29Z" changeset="125366839" uid="3497659" user="NKA">
		<tag k="name" v="Utluro" />
		<tag k="place" v="farm" />
		<tag k="ssr:stedsnr" v="6195" />
	</node>
	<node id="9977326877" lat="60.714521" lon="5.2824832" version="1" timestamp="2022-08-25T15:08:29Z" changeset="125366839" uid="3497659" user="NKA">
		<tag k="name" v="Uglåsen" />
		<tag k="place" v="farm" />
		<tag k="ssr:stedsnr" v="734200" />
	</node>
	<node id="9977326878" lat="60.6806056" lon="5.2222784" version="1" timestamp="2022-08-25T15:08:29Z" changeset="125366839" uid="3497659" user="NKA">
		<tag k="name" v="Bruvoll" />
		<tag k="place" v="farm" />
		<tag k="ssr:stedsnr" v="529218" />
	</node>
	<node id="9977326879" lat="60.6597084" lon="5.1332117" version="1" timestamp="2022-08-25T15:08:29Z" changeset="125366839" uid="3497659" user="NKA">
		<tag k="alt_name" v="Feste Nordre" />
		<tag k="name" v="Nordre Feste" />
		<tag k="place" v="farm" />
		<tag k="ssr:stedsnr" v="712342" />
	</node>
	<node id="9977326880" lat="60.6951478" lon="5.2608268" version="1" timestamp="2022-08-25T15:08:29Z" changeset="125366839" uid="3497659" user="NKA">
		<tag k="name" v="Søre Fjellsbø" />
		<tag k="place" v="farm" />
		<tag k="ssr:stedsnr" v="590026" />
	</node>
	<node id="9977326881" lat="60.7414475" lon="5.2344891" version="1" timestamp="2022-08-25T15:08:29Z" changeset="125366839" uid="3497659" user="NKA">
		<tag k="name" v="Vadbu" />
		<tag k="place" v="hamlet" />
		<tag k="ssr:stedsnr" v="492651" />
	</node>
	<node id="9977326882" lat="60.7406951" lon="5.2519771" version="1" timestamp="2022-08-25T15:08:29Z" changeset="125366839" uid="3497659" user="NKA">
		<tag k="name" v="Vabøneset" />
		<tag k="place" v="farm" />
		<tag k="ssr:stedsnr" v="348143" />
	</node>
	<node id="9977326883" lat="60.6736852" lon="5.2502494" version="1" timestamp="2022-08-25T15:08:29Z" changeset="125366839" uid="3497659" user="NKA">
		<tag k="name" v="Grimstad" />
		<tag k="place" v="hamlet" />
		<tag k="ssr:stedsnr" v="127254" />
	</node>
	<node id="9977326884" lat="60.7267788" lon="5.2352333" version="1" timestamp="2022-08-25T15:08:29Z" changeset="125366839" uid="3497659" user="NKA">
		<tag k="alt_name" v="Fjellsende" />
		<tag k="name" v="Fjellsenda" />
		<tag k="place" v="farm" />
		<tag k="ssr:stedsnr" v="431674" />
	</node>
	<node id="9977326885" lat="60.7141243" lon="5.2660797" version="1" timestamp="2022-08-25T15:08:29Z" changeset="125366839" uid="3497659" user="NKA">
		<tag k="loc_name" v="Skauno" />
		<tag k="name" v="Skauo" />
		<tag k="place" v="hamlet" />
		<tag k="ssr:stedsnr" v="916171" />
	</node>
	<node id="9977326886" lat="60.6390434" lon="5.2090737" version="1" timestamp="2022-08-25T15:08:29Z" changeset="125366839" uid="3497659" user="NKA">
		<tag k="name" v="Vollo" />
		<tag k="place" v="farm" />
		<tag k="ssr:stedsnr" v="6220" />
	</node>
	<node id="9977326887" lat="60.6698381" lon="5.2651471" version="1" timestamp="2022-08-25T15:08:29Z" changeset="125366839" uid="3497659" user="NKA">
		<tag k="name" v="Seljedal" />
		<tag k="place" v="farm" />
		<tag k="ssr:stedsnr" v="105233" />
	</node>
	<node id="9977326888" lat="60.7406611" lon="5.0933174" version="1" timestamp="2022-08-25T15:08:29Z" changeset="125366839" uid="3497659" user="NKA">
		<tag k="name" v="Straumsvik" />
		<tag k="place" v="farm" />
		<tag k="ssr:stedsnr" v="834481" />
	</node>
	<node id="9977326889" lat="60.6214567" lon="5.2399673" version="1" timestamp="2022-08-25T15:08:29Z" changeset="125366839" uid="3497659" user="NKA">
		<tag k="name" v="Li" />
		<tag k="place" v="farm" />
		<tag k="ssr:stedsnr" v="856064" />
	</node>
	<node id="9977326890" lat="60.5650361" lon="5.1001395" version="1" timestamp="2022-08-25T15:08:29Z" changeset="125366839" uid="3497659" user="NKA">
		<tag k="name" v="Oneset" />
		<tag k="place" v="farm" />
		<tag k="ssr:stedsnr" v="409097" />
	</node>
	<node id="9977326891" lat="60.6270837" lon="5.2129799" version="1" timestamp="2022-08-25T15:08:29Z" changeset="125366839" uid="3497659" user="NKA">
		<tag k="alt_name" v="Skare" />
		<tag k="name" v="Skardet" />
		<tag k="place" v="farm" />
		<tag k="ssr:stedsnr" v="856044" />
	</node>
	<node id="9977326892" lat="60.6057055" lon="5.0852173" version="1" timestamp="2022-08-25T15:08:29Z" changeset="125366839" uid="3497659" user="NKA">
		<tag k="name" v="Lindeviki" />
		<tag k="place" v="isolated_dwelling" />
		<tag k="ssr:stedsnr" v="370957" />
	</node>
	<node id="9977326893" lat="60.7125892" lon="5.1251306" version="1" timestamp="2022-08-25T15:08:29Z" changeset="125366839" uid="3497659" user="NKA">
		<tag k="name" v="Kvalvågneset" />
		<tag k="place" v="hamlet" />
		<tag k="ssr:stedsnr" v="370653" />
	</node>
	<node id="9977326894" lat="60.6389028" lon="5.2091506" version="1" timestamp="2022-08-25T15:08:29Z" changeset="125366839" uid="3497659" user="NKA">
		<tag k="name" v="Valle" />
		<tag k="place" v="farm" />
		<tag k="ssr:stedsnr" v="895299" />
	</node>
	<node id="9977326895" lat="60.7002796" lon="5.2775825" version="1" timestamp="2022-08-25T15:08:29Z" changeset="125366839" uid="3497659" user="NKA">
		<tag k="name" v="Tveiten" />
		<tag k="place" v="farm" />
		<tag k="ssr:stedsnr" v="855168" />
	</node>
	<node id="9977326896" lat="60.6277097" lon="5.0996591" version="1" timestamp="2022-08-25T15:08:29Z" changeset="125366839" uid="3497659" user="NKA">
		<tag k="name" v="Kartveit" />
		<tag k="place" v="farm" />
		<tag k="ssr:stedsnr" v="370041" />
	</node>
	<node id="9977326897" lat="60.730075" lon="5.2665977" version="1" timestamp="2022-08-25T15:08:29Z" changeset="125366839" uid="3497659" user="NKA">
		<tag k="historic" v="shieling" />
		<tag k="name" v="Stølen" />
		<tag k="place" v="isolated_dwelling" />
		<tag k="ssr:stedsnr" v="834174" />
	</node>
	<node id="9977326898" lat="60.5551546" lon="5.1307458" version="1" timestamp="2022-08-25T15:08:29Z" changeset="125366839" uid="3497659" user="NKA">
		<tag k="name" v="Sjurdal" />
		<tag k="place" v="farm" />
		<tag k="ssr:stedsnr" v="67098" />
	</node>
	<node id="9977326899" lat="60.7032694" lon="5.5151588" version="1" timestamp="2022-08-25T15:08:29Z" changeset="125366839" uid="3497659" user="NKA">
		<tag k="historic" v="shieling" />
		<tag k="name" v="Gamlesetra" />
		<tag k="place" v="isolated_dwelling" />
		<tag k="ssr:stedsnr" v="469718" />
	</node>
	<node id="9977326900" lat="60.6990197" lon="5.5644421" version="1" timestamp="2022-08-25T15:08:29Z" changeset="125366839" uid="3497659" user="NKA">
		<tag k="alt_name" v="Store-Urdal" />
		<tag k="name" v="Store-Aurdal" />
		<tag k="place" v="farm" />
		<tag k="ssr:stedsnr" v="431274" />
	</node>
	<node id="9977326901" lat="60.6983021" lon="5.2627483" version="1" timestamp="2022-08-25T15:08:29Z" changeset="125366839" uid="3497659" user="NKA">
		<tag k="name" v="Nordre Fjellsbø" />
		<tag k="place" v="farm" />
		<tag k="ssr:stedsnr" v="287027" />
	</node>
	<node id="9977326902" lat="60.6325305" lon="5.5110754" version="1" timestamp="2022-08-25T15:08:29Z" changeset="125366839" uid="3497659" user="NKA">
		<tag k="alt_name" v="Skår" />
		<tag k="name" v="Skor" />
		<tag k="old_name" v="Skori" />
		<tag k="place" v="farm" />
		<tag k="ssr:stedsnr" v="916729" />
	</node>
	<node id="9977326903" lat="60.6329249" lon="5.4612075" version="1" timestamp="2022-08-25T15:08:29Z" changeset="125366839" uid="3497659" user="NKA">
		<tag k="alt_name" v="Eidetræ;Eidatrædet" />
		<tag k="name" v="Eidatræet" />
		<tag k="place" v="hamlet" />
		<tag k="ssr:stedsnr" v="795073" />
	</node>
	<node id="9977326904" lat="60.7024556" lon="5.5661781" version="1" timestamp="2022-08-25T15:08:29Z" changeset="125366839" uid="3497659" user="NKA">
		<tag k="name" v="Stormyr" />
		<tag k="place" v="farm" />
		<tag k="ssr:stedsnr" v="309289" />
	</node>
	<node id="9977326905" lat="60.6137502" lon="5.4559599" version="1" timestamp="2022-08-25T15:08:29Z" changeset="125366839" uid="3497659" user="NKA">
		<tag k="name" v="Totland" />
		<tag k="place" v="farm" />
		<tag k="ssr:stedsnr" v="916019" />
	</node>
	<node id="9977326906" lat="60.7117981" lon="5.5412793" version="1" timestamp="2022-08-25T15:08:29Z" changeset="125366839" uid="3497659" user="NKA">
		<tag k="name" v="Eikemo" />
		<tag k="place" v="hamlet" />
		<tag k="ssr:stedsnr" v="309333" />
	</node>
	<node id="9977326907" lat="60.6383278" lon="5.4887421" version="1" timestamp="2022-08-25T15:08:29Z" changeset="125366839" uid="3497659" user="NKA">
		<tag k="name" v="Storbotnen" />
		<tag k="place" v="farm" />
		<tag k="ssr:stedsnr" v="613649" />
	</node>
	<node id="9977326908" lat="60.6615585" lon="5.4705499" version="1" timestamp="2022-08-25T15:08:29Z" changeset="125366839" uid="3497659" user="NKA">
		<tag k="name" v="Stallen" />
		<tag k="place" v="farm" />
		<tag k="ssr:stedsnr" v="552361" />
	</node>
	<node id="9977326909" lat="60.6179673" lon="5.4310916" version="1" timestamp="2022-08-25T15:08:29Z" changeset="125366839" uid="3497659" user="NKA">
		<tag k="name" v="Bjørndal" />
		<tag k="place" v="hamlet" />
		<tag k="ssr:stedsnr" v="309021" />
	</node>
	<node id="9977326910" lat="60.6718501" lon="5.4728143" version="1" timestamp="2022-08-25T15:08:29Z" changeset="125366839" uid="3497659" user="NKA">
		<tag k="alt_name" v="Andås" />
		<tag k="name" v="Odnåsen" />
		<tag k="place" v="farm" />
		<tag k="ssr:stedsnr" v="248320" />
	</node>
	<node id="9977326911" lat="60.6784861" lon="5.4829115" version="1" timestamp="2022-08-25T15:08:29Z" changeset="125366839" uid="3497659" user="NKA">
		<tag k="historic" v="shieling" />
		<tag k="name" v="Basttoløa" />
		<tag k="place" v="isolated_dwelling" />
		<tag k="ssr:stedsnr" v="895722" />
	</node>
	<node id="9977326912" lat="60.7204751" lon="5.5179867" version="1" timestamp="2022-08-25T15:08:29Z" changeset="125366839" uid="3497659" user="NKA">
		<tag k="alt_name" v="Eikemosetra" />
		<tag k="historic" v="shieling" />
		<tag k="name" v="Eikemosætra" />
		<tag k="place" v="isolated_dwelling" />
		<tag k="ssr:stedsnr" v="491298" />
	</node>
	<node id="9977326913" lat="60.6225787" lon="5.4208346" version="1" timestamp="2022-08-25T15:08:29Z" changeset="125366839" uid="3497659" user="NKA">
		<tag k="loc_name" v="Vessel" />
		<tag k="name" v="Vassel" />
		<tag k="place" v="hamlet" />
		<tag k="ssr:stedsnr" v="734005" />
	</node>
	<node id="9977326914" lat="60.6252666" lon="5.4812783" version="1" timestamp="2022-08-25T15:08:29Z" changeset="125366839" uid="3497659" user="NKA">
		<tag k="name" v="Indre Eide" />
		<tag k="place" v="farm" />
		<tag k="ssr:stedsnr" v="894641" />
	</node>
	<node id="9977326915" lat="60.6223853" lon="5.4741025" version="1" timestamp="2022-08-25T15:08:29Z" changeset="125366839" uid="3497659" user="NKA">
		<tag k="alt_name" v="Eide ytre" />
		<tag k="name" v="Ytre Eide" />
		<tag k="place" v="farm" />
		<tag k="ssr:stedsnr" v="590613" />
	</node>
	<node id="9977326916" lat="60.6637139" lon="5.5414115" version="1" timestamp="2022-08-25T15:08:29Z" changeset="125366839" uid="3497659" user="NKA">
		<tag k="alt_name" v="Molviksetra" />
		<tag k="historic" v="shieling" />
		<tag k="name" v="Molviksætra" />
		<tag k="place" v="isolated_dwelling" />
		<tag k="ssr:stedsnr" v="552682" />
	</node>
	<node id="9977326917" lat="60.6305583" lon="5.3708671" version="1" timestamp="2022-08-25T15:08:29Z" changeset="125366839" uid="3497659" user="NKA">
		<tag k="name" v="Apalhaug" />
		<tag k="place" v="farm" />
		<tag k="ssr:stedsnr" v="856054" />
	</node>
	<node id="9977326918" lat="60.706875" lon="5.4947782" version="1" timestamp="2022-08-25T15:08:29Z" changeset="125366839" uid="3497659" user="NKA">
		<tag k="historic" v="shieling" />
		<tag k="name" v="Rødlandssetra" />
		<tag k="place" v="isolated_dwelling" />
		<tag k="ssr:stedsnr" v="469712" />
	</node>
	<node id="9977326919" lat="60.61675" lon="5.3792699" version="1" timestamp="2022-08-25T15:08:29Z" changeset="125366839" uid="3497659" user="NKA">
		<tag k="name" v="Eikangerlid" />
		<tag k="place" v="farm" />
		<tag k="ssr:stedsnr" v="166327" />
	</node>
	<node id="9977326920" lat="60.7635223" lon="5.5346699" version="1" timestamp="2022-08-25T15:08:29Z" changeset="125366839" uid="3497659" user="NKA">
		<tag k="name" v="Maurstad" />
		<tag k="place" v="farm" />
		<tag k="ssr:stedsnr" v="348830" />
	</node>
	<node id="9977326921" lat="60.6539527" lon="5.3596088" version="1" timestamp="2022-08-25T15:08:29Z" changeset="125366839" uid="3497659" user="NKA">
		<tag k="name" v="Olderhaugen" />
		<tag k="place" v="farm" />
		<tag k="ssr:stedsnr" v="6216" />
	</node>
	<node id="9977326922" lat="60.667875" lon="5.594556" version="1" timestamp="2022-08-25T15:08:29Z" changeset="125366839" uid="3497659" user="NKA">
		<tag k="alt_name" v="Hamn;Paddøyhavnen" />
		<tag k="name" v="Paddøyhamn" />
		<tag k="place" v="farm" />
		<tag k="ssr:stedsnr" v="673654" />
	</node>
	<node id="9977326923" lat="60.6902833" lon="5.5870892" version="1" timestamp="2022-08-25T15:08:29Z" changeset="125366839" uid="3497659" user="NKA">
		<tag k="name" v="Hatlehaug" />
		<tag k="place" v="farm" />
		<tag k="ssr:stedsnr" v="67390" />
	</node>
	<node id="9977326924" lat="60.6966111" lon="5.5176282" version="1" timestamp="2022-08-25T15:08:29Z" changeset="125366839" uid="3497659" user="NKA">
		<tag k="historic" v="shieling" />
		<tag k="name" v="Stølane" />
		<tag k="place" v="isolated_dwelling" />
		<tag k="ssr:stedsnr" v="348541" />
	</node>
	<node id="9977326925" lat="60.6010083" lon="4.9650474" version="1" timestamp="2022-08-25T15:08:29Z" changeset="125366839" uid="3497659" user="NKA">
		<tag k="name" v="Skjeljanger" />
		<tag k="place" v="hamlet" />
		<tag k="ssr:stedsnr" v="188957" />
	</node>
	<node id="9977326926" lat="60.7374477" lon="5.5350437" version="1" timestamp="2022-08-25T15:08:29Z" changeset="125366839" uid="3497659" user="NKA">
		<tag k="alt_name" v="Fjelle" />
		<tag k="name" v="Fjellet" />
		<tag k="place" v="farm" />
		<tag k="ssr:stedsnr" v="66419" />
	</node>
	<node id="9977326927" lat="60.7739056" lon="5.5304532" version="1" timestamp="2022-08-25T15:08:29Z" changeset="125366839" uid="3497659" user="NKA">
		<tag k="historic" v="shieling" />
		<tag k="name" v="Steinsetdalssætret" />
		<tag k="place" v="isolated_dwelling" />
		<tag k="ssr:stedsnr" v="614453" />
	</node>
	<node id="9977326928" lat="60.6975597" lon="5.283638" version="1" timestamp="2022-08-25T15:08:29Z" changeset="125366839" uid="3497659" user="NKA">
		<tag k="name" v="Vedfjell" />
		<tag k="place" v="farm" />
		<tag k="ssr:stedsnr" v="551187" />
	</node>
	<node id="9977326929" lat="60.6767278" lon="5.5397199" version="1" timestamp="2022-08-25T15:08:29Z" changeset="125366839" uid="3497659" user="NKA">
		<tag k="historic" v="shieling" />
		<tag k="name" v="Eiknessætra" />
		<tag k="place" v="isolated_dwelling" />
		<tag k="ssr:stedsnr" v="431366" />
	</node>
	<node id="9977326930" lat="60.7522583" lon="5.4935504" version="1" timestamp="2022-08-25T15:08:29Z" changeset="125366839" uid="3497659" user="NKA">
		<tag k="historic" v="shieling" />
		<tag k="name" v="Gamlesetra" />
		<tag k="place" v="isolated_dwelling" />
		<tag k="ssr:stedsnr" v="45608" />
	</node>
	<node id="9977326931" lat="60.6837028" lon="5.5576754" version="1" timestamp="2022-08-25T15:08:29Z" changeset="125366839" uid="3497659" user="NKA">
		<tag k="historic" v="shieling" />
		<tag k="name" v="Haukøysetra" />
		<tag k="place" v="isolated_dwelling" />
		<tag k="ssr:stedsnr" v="712604" />
	</node>
	<node id="9977326932" lat="60.626775" lon="5.5441087" version="1" timestamp="2022-08-25T15:08:29Z" changeset="125366839" uid="3497659" user="NKA">
		<tag k="name" v="Mulen" />
		<tag k="place" v="farm" />
		<tag k="ssr:stedsnr" v="856726" />
	</node>
	<node id="9977326933" lat="60.7426557" lon="4.9037116" version="1" timestamp="2022-08-25T15:08:29Z" changeset="125366839" uid="3497659" user="NKA">
		<tag k="name" v="Rossnes" />
		<tag k="place" v="hamlet" />
		<tag k="ssr:stedsnr" v="989307" />
	</node>
	<node id="9977326934" lat="60.696166" lon="5.2631851" version="1" timestamp="2022-08-25T15:08:29Z" changeset="125366839" uid="3497659" user="NKA">
		<tag k="name" v="Fjellsbø" />
		<tag k="place" v="hamlet" />
		<tag k="ssr:stedsnr" v="795169" />
	</node>
	<node id="9977326935" lat="60.6052326" lon="5.4232795" version="1" timestamp="2022-08-25T15:08:29Z" changeset="125366839" uid="3497659" user="NKA">
		<tag k="alt_name" v="Eidsnes, in" />
		<tag k="name" v="Indre Eidsnes" />
		<tag k="place" v="farm" />
		<tag k="ssr:stedsnr" v="6107" />
	</node>
	<node id="9977326936" lat="60.6670944" lon="5.4965504" version="1" timestamp="2022-08-25T15:08:29Z" changeset="125366839" uid="3497659" user="NKA">
		<tag k="historic" v="shieling" />
		<tag k="name" v="Andåssetra" />
		<tag k="place" v="isolated_dwelling" />
		<tag k="ssr:stedsnr" v="45575" />
	</node>
	<node id="9977326937" lat="60.6022806" lon="5.3348172" version="1" timestamp="2022-08-25T15:08:29Z" changeset="125366839" uid="3497659" user="NKA">
		<tag k="name" v="Sætre" />
		<tag k="place" v="farm" />
		<tag k="ssr:stedsnr" v="856030" />
	</node>
	<node id="9977326938" lat="60.5163583" lon="5.2463145" version="1" timestamp="2022-08-25T15:08:29Z" changeset="125366839" uid="3497659" user="NKA">
		<tag k="name" v="Friborg" />
		<tag k="place" v="farm" />
		<tag k="ssr:stedsnr" v="956284" />
	</node>
	<node id="9977326939" lat="60.6920711" lon="5.3007807" version="1" timestamp="2022-08-25T15:08:29Z" changeset="125366839" uid="3497659" user="NKA">
		<tag k="name" v="Smørdal" />
		<tag k="place" v="farm" />
		<tag k="ssr:stedsnr" v="856122" />
	</node>
	<node id="9977326940" lat="60.6478667" lon="5.3302754" version="1" timestamp="2022-08-25T15:08:29Z" changeset="125366839" uid="3497659" user="NKA">
		<tag k="name" v="Trædet" />
		<tag k="place" v="farm" />
		<tag k="ssr:stedsnr" v="734240" />
	</node>
	<node id="9977326941" lat="60.6543446" lon="5.2818906" version="1" timestamp="2022-08-25T15:08:29Z" changeset="125366839" uid="3497659" user="NKA">
		<tag k="name" v="Leivestad" />
		<tag k="place" v="hamlet" />
		<tag k="ssr:stedsnr" v="989482" />
	</node>
	<node id="9977326942" lat="60.5452944" lon="5.2461755" version="1" timestamp="2022-08-25T15:08:29Z" changeset="125366839" uid="3497659" user="NKA">
		<tag k="historic" v="shieling" />
		<tag k="name" v="Stølane" />
		<tag k="place" v="isolated_dwelling" />
		<tag k="ssr:stedsnr" v="956274" />
	</node>
	<node id="9977326943" lat="60.5311195" lon="5.2443617" version="1" timestamp="2022-08-25T15:08:29Z" changeset="125366839" uid="3497659" user="NKA">
		<tag k="name" v="Utgjerdet" />
		<tag k="place" v="farm" />
		<tag k="ssr:stedsnr" v="652250" />
	</node>
	<node id="9977326944" lat="60.6885917" lon="5.2591255" version="1" timestamp="2022-08-25T15:08:29Z" changeset="125366839" uid="3497659" user="NKA">
		<tag k="name" v="Refsdal" />
		<tag k="place" v="farm" />
		<tag k="ssr:stedsnr" v="894239" />
	</node>
	<node id="9977326945" lat="60.7403462" lon="5.253696" version="1" timestamp="2022-08-25T15:08:29Z" changeset="125366839" uid="3497659" user="NKA">
		<tag k="alt_name" v="Vabunes" />
		<tag k="name" v="Vadbuneset" />
		<tag k="place" v="farm" />
		<tag k="ssr:stedsnr" v="917653" />
	</node>
	<node id="9977326946" lat="60.5288972" lon="5.2462951" version="1" timestamp="2022-08-25T15:08:29Z" changeset="125366839" uid="3497659" user="NKA">
		<tag k="name" v="Øvrebøen" />
		<tag k="place" v="neighbourhood" />
		<tag k="ssr:stedsnr" v="950059" />
	</node>
	<node id="9977326947" lat="60.5637861" lon="5.2523506" version="1" timestamp="2022-08-25T15:08:29Z" changeset="125366839" uid="3497659" user="NKA">
		<tag k="name" v="Alver næringsområde" />
		<tag k="place" v="neighbourhood" />
		<tag k="ssr:stedsnr" v="582321" />
	</node>
	<node id="9977326948" lat="60.6044944" lon="5.3475477" version="1" timestamp="2022-08-25T15:08:29Z" changeset="125366839" uid="3497659" user="NKA">
		<tag k="name" v="Fyllingatræet" />
		<tag k="place" v="farm" />
		<tag k="ssr:stedsnr" v="955121" />
	</node>
	<node id="9977326949" lat="60.6122491" lon="5.2468047" version="1" timestamp="2022-08-25T15:08:29Z" changeset="125366839" uid="3497659" user="NKA">
		<tag k="alt_name" v="Otterås" />
		<tag k="name" v="Odderås" />
		<tag k="place" v="farm" />
		<tag k="ssr:stedsnr" v="491013" />
	</node>
	<node id="9977326950" lat="60.5655167" lon="5.2474617" version="1" timestamp="2022-08-25T15:08:29Z" changeset="125366839" uid="3497659" user="NKA">
		<tag k="name" v="Steingarden" />
		<tag k="place" v="farm" />
		<tag k="ssr:stedsnr" v="348093" />
	</node>
	<node id="9977326951" lat="60.7074244" lon="5.19996" version="1" timestamp="2022-08-25T15:08:29Z" changeset="125366839" uid="3497659" user="NKA">
		<tag k="name" v="Hauge" />
		<tag k="place" v="farm" />
		<tag k="ssr:stedsnr" v="917122" />
	</node>
	<node id="9977326952" lat="60.5683722" lon="5.2481199" version="1" timestamp="2022-08-25T15:08:29Z" changeset="125366839" uid="3497659" user="NKA">
		<tag k="historic" v="shieling" />
		<tag k="name" v="Grønstølen" />
		<tag k="place" v="isolated_dwelling" />
		<tag k="ssr:stedsnr" v="469117" />
	</node>
	<node id="9977326953" lat="60.6538596" lon="5.4403076" version="1" timestamp="2022-08-25T15:08:29Z" changeset="125366839" uid="3497659" user="NKA">
		<tag k="alt_name" v="Toft" />
		<tag k="name" v="Tofto" />
		<tag k="place" v="farm" />
		<tag k="ssr:stedsnr" v="795253" />
	</node>
	<node id="9977326954" lat="60.6501164" lon="5.1475249" version="1" timestamp="2022-08-25T15:08:29Z" changeset="125366839" uid="3497659" user="NKA">
		<tag k="name" v="Haukås" />
		<tag k="place" v="farm" />
		<tag k="ssr:stedsnr" v="795273" />
	</node>
	<node id="9977326955" lat="60.6476953" lon="5.1065384" version="1" timestamp="2022-08-25T15:08:29Z" changeset="125366839" uid="3497659" user="NKA">
		<tag k="name" v="Frotaule" />
		<tag k="place" v="farm" />
		<tag k="ssr:stedsnr" v="795270" />
	</node>
	<node id="9977326956" lat="60.6409418" lon="5.4643934" version="1" timestamp="2022-08-25T15:08:29Z" changeset="125366839" uid="3497659" user="NKA">
		<tag k="alt_name" v="Kvamme" />
		<tag k="name" v="Kvommo" />
		<tag k="place" v="farm" />
		<tag k="ssr:stedsnr" v="795053" />
	</node>
	<node id="9977326957" lat="60.6581056" lon="5.3220949" version="1" timestamp="2022-08-25T15:08:29Z" changeset="125366839" uid="3497659" user="NKA">
		<tag k="name" v="Opptun" />
		<tag k="place" v="farm" />
		<tag k="ssr:stedsnr" v="795230" />
	</node>
	<node id="9977326958" lat="60.6713638" lon="5.3755422" version="1" timestamp="2022-08-25T15:08:29Z" changeset="125366839" uid="3497659" user="NKA">
		<tag k="name" v="Hindenes" />
		<tag k="place" v="farm" />
		<tag k="ssr:stedsnr" v="773569" />
	</node>
	<node id="9977326959" lat="60.5129139" lon="5.2435616" version="1" timestamp="2022-08-25T15:08:29Z" changeset="125366839" uid="3497659" user="NKA">
		<tag k="name" v="Skansen" />
		<tag k="place" v="farm" />
		<tag k="ssr:stedsnr" v="167279" />
	</node>
	<node id="9977326960" lat="60.5921198" lon="5.2712951" version="1" timestamp="2022-08-25T15:08:29Z" changeset="125366839" uid="3497659" user="NKA">
		<tag k="name" v="Sletta" />
		<tag k="place" v="farm" />
		<tag k="ssr:stedsnr" v="6119" />
	</node>
	<node id="9977326961" lat="60.6823222" lon="5.462431" version="1" timestamp="2022-08-25T15:08:29Z" changeset="125366839" uid="3497659" user="NKA">
		<tag k="historic" v="shieling" />
		<tag k="name" v="Dyrdalssetra" />
		<tag k="place" v="isolated_dwelling" />
		<tag k="ssr:stedsnr" v="773590" />
	</node>
	<node id="9977326962" lat="60.5874834" lon="5.2623616" version="1" timestamp="2022-08-25T15:08:29Z" changeset="125366839" uid="3497659" user="NKA">
		<tag k="historic" v="shieling" />
		<tag k="name" v="Skarpesetra" />
		<tag k="place" v="isolated_dwelling" />
		<tag k="ssr:stedsnr" v="712010" />
	</node>
	<node id="9977326963" lat="60.5571334" lon="5.2989727" version="1" timestamp="2022-08-25T15:08:29Z" changeset="125366839" uid="3497659" user="NKA">
		<tag k="historic" v="shieling" />
		<tag k="name" v="Stølen" />
		<tag k="place" v="isolated_dwelling" />
		<tag k="ssr:stedsnr" v="712098" />
	</node>
	<node id="9977326964" lat="60.7110019" lon="5.1883701" version="1" timestamp="2022-08-25T15:08:29Z" changeset="125366839" uid="3497659" user="NKA">
		<tag k="name" v="Marås" />
		<tag k="place" v="farm" />
		<tag k="ssr:stedsnr" v="753856" />
	</node>
	<node id="9977326965" lat="60.7060061" lon="5.1672543" version="1" timestamp="2022-08-25T15:08:29Z" changeset="125366839" uid="3497659" user="NKA">
		<tag k="name" v="Ones" />
		<tag k="place" v="farm" />
		<tag k="ssr:stedsnr" v="795192" />
	</node>
	<node id="9977326966" lat="60.5902673" lon="5.2360033" version="1" timestamp="2022-08-25T15:08:29Z" changeset="125366839" uid="3497659" user="NKA">
		<tag k="name" v="Håland" />
		<tag k="place" v="farm" />
		<tag k="ssr:stedsnr" v="491103" />
	</node>
	<node id="9977326967" lat="60.5686834" lon="5.2424279" version="1" timestamp="2022-08-25T15:08:29Z" changeset="125366839" uid="3497659" user="NKA">
		<tag k="alt_name" v="Alver øvre" />
		<tag k="name" v="Øvre Alver" />
		<tag k="place" v="farm" />
		<tag k="ssr:stedsnr" v="834123" />
	</node>
	<node id="9977326968" lat="60.6306556" lon="5.1811145" version="1" timestamp="2022-08-25T15:08:29Z" changeset="125366839" uid="3497659" user="NKA">
		<tag k="loc_name" v="Nappane" />
		<tag k="name" v="Nappen" />
		<tag k="place" v="hamlet" />
		<tag k="ssr:stedsnr" v="248041" />
	</node>
	<node id="9977326969" lat="60.7100472" lon="5.3152933" version="1" timestamp="2022-08-25T15:08:29Z" changeset="125366839" uid="3497659" user="NKA">
		<tag k="alt_name" v="Hodne" />
		<tag k="name" v="Hodno" />
		<tag k="place" v="farm" />
		<tag k="ssr:stedsnr" v="673196" />
	</node>
	<node id="9977326970" lat="60.6096861" lon="5.2414839" version="1" timestamp="2022-08-25T15:08:29Z" changeset="125366839" uid="3497659" user="NKA">
		<tag k="alt_name" v="Elsås Nordre" />
		<tag k="name" v="Nordre Elsås" />
		<tag k="place" v="farm" />
		<tag k="ssr:stedsnr" v="409065" />
	</node>
	<node id="9977326971" lat="60.5336028" lon="5.2662867" version="1" timestamp="2022-08-25T15:08:29Z" changeset="125366839" uid="3497659" user="NKA">
		<tag k="name" v="Høgdena" />
		<tag k="place" v="farm" />
		<tag k="ssr:stedsnr" v="288272" />
	</node>
	<node id="9977326972" lat="60.742825" lon="5.5940448" version="1" timestamp="2022-08-25T15:08:29Z" changeset="125366839" uid="3497659" user="NKA">
		<tag k="historic" v="shieling" />
		<tag k="name" v="Vetle-Aurdalssætra" />
		<tag k="place" v="isolated_dwelling" />
		<tag k="ssr:stedsnr" v="795518" />
	</node>
	<node id="9977326973" lat="60.7387" lon="5.1402618" version="1" timestamp="2022-08-25T15:08:29Z" changeset="125366839" uid="3497659" user="NKA">
		<tag k="name" v="Skjerje" />
		<tag k="place" v="farm" />
		<tag k="ssr:stedsnr" v="166210" />
	</node>
	<node id="9977326974" lat="60.748125" lon="5.1725589" version="1" timestamp="2022-08-25T15:08:29Z" changeset="125366839" uid="3497659" user="NKA">
		<tag k="name" v="Jordgamme" />
		<tag k="place" v="locality" />
		<tag k="ssr:stedsnr" v="166228" />
	</node>
	<node id="9977326975" lat="60.7560778" lon="5.1909367" version="1" timestamp="2022-08-25T15:08:29Z" changeset="125366839" uid="3497659" user="NKA">
		<tag k="name" v="Fossane" />
		<tag k="place" v="farm" />
		<tag k="ssr:stedsnr" v="130675" />
	</node>
	<node id="9977326977" lat="60.6088782" lon="5.2430614" version="1" timestamp="2022-08-25T15:08:29Z" changeset="125366839" uid="3497659" user="NKA">
		<tag k="name" v="Elsås" />
		<tag k="place" v="hamlet" />
		<tag k="ssr:stedsnr" v="188013" />
	</node>
	<node id="9977326978" lat="60.5435639" lon="5.2418284" version="1" timestamp="2022-08-25T15:08:29Z" changeset="125366839" uid="3497659" user="NKA">
		<tag k="name" v="Hillena" />
		<tag k="place" v="farm" />
		<tag k="ssr:stedsnr" v="227265" />
	</node>
	<node id="9977326979" lat="60.6924472" lon="4.9320368" version="1" timestamp="2022-08-25T15:08:29Z" changeset="125366839" uid="3497659" user="NKA">
		<tag k="name" v="Bøleite" />
		<tag k="place" v="farm" />
		<tag k="ssr:stedsnr" v="834353" />
	</node>
	<node id="9977326980" lat="60.7119527" lon="5.2629867" version="1" timestamp="2022-08-25T15:08:29Z" changeset="125366839" uid="3497659" user="NKA">
		<tag k="name" v="Skauge" />
		<tag k="place" v="farm" />
		<tag k="ssr:stedsnr" v="166025" />
	</node>
	<node id="9977326981" lat="60.7416784" lon="5.1818212" version="1" timestamp="2022-08-25T15:08:29Z" changeset="125366839" uid="3497659" user="NKA">
		<tag k="name" v="Holmås" />
		<tag k="place" v="hamlet" />
		<tag k="ssr:stedsnr" v="128656" />
	</node>
	<node id="9977326982" lat="60.5630031" lon="5.3155635" version="1" timestamp="2022-08-25T15:08:29Z" changeset="125366839" uid="3497659" user="NKA">
		<tag k="name" v="Nepstad" />
		<tag k="place" v="farm" />
		<tag k="ssr:stedsnr" v="673450" />
	</node>
	<node id="9977326983" lat="60.7109873" lon="4.9779896" version="1" timestamp="2022-08-25T15:08:29Z" changeset="125366839" uid="3497659" user="NKA">
		<tag k="name" v="Mjøs" />
		<tag k="place" v="hamlet" />
		<tag k="ssr:stedsnr" v="795820" />
	</node>
	<node id="9977326984" lat="60.5800111" lon="5.3555893" version="1" timestamp="2022-08-25T15:08:29Z" changeset="125366839" uid="3497659" user="NKA">
		<tag k="historic" v="shieling" />
		<tag k="name" v="Eikestølen" />
		<tag k="place" v="isolated_dwelling" />
		<tag k="ssr:stedsnr" v="773349" />
	</node>
	<node id="9977326985" lat="60.5685444" lon="5.3408366" version="1" timestamp="2022-08-25T15:08:29Z" changeset="125366839" uid="3497659" user="NKA">
		<tag k="historic" v="shieling" />
		<tag k="name" v="Setret" />
		<tag k="place" v="isolated_dwelling" />
		<tag k="ssr:stedsnr" v="469134" />
	</node>
	<node id="9977326986" lat="60.6080028" lon="5.0180507" version="1" timestamp="2022-08-25T15:08:29Z" changeset="125366839" uid="3497659" user="NKA">
		<tag k="name" v="Kårbøneset" />
		<tag k="place" v="neighbourhood" />
		<tag k="ssr:stedsnr" v="161070" />
	</node>
	<node id="9977326987" lat="60.5610708" lon="5.3301444" version="1" timestamp="2022-08-25T15:08:29Z" changeset="125366839" uid="3497659" user="NKA">
		<tag k="name" v="Neset" />
		<tag k="place" v="farm" />
		<tag k="ssr:stedsnr" v="127472" />
	</node>
	<node id="9977326988" lat="60.6372027" lon="5.0274062" version="1" timestamp="2022-08-25T15:08:29Z" changeset="125366839" uid="3497659" user="NKA">
		<tag k="name" v="Urhaug" />
		<tag k="place" v="farm" />
		<tag k="ssr:stedsnr" v="166796" />
	</node>
	<node id="9977326989" lat="60.7119044" lon="5.2135684" version="1" timestamp="2022-08-25T15:08:29Z" changeset="125366839" uid="3497659" user="NKA">
		<tag k="name" v="Gaulen" />
		<tag k="place" v="farm" />
		<tag k="ssr:stedsnr" v="875857" />
	</node>
	<node id="9977326990" lat="60.5753167" lon="5.3457033" version="1" timestamp="2022-08-25T15:08:29Z" changeset="125366839" uid="3497659" user="NKA">
		<tag k="name" v="Dalabygdi" />
		<tag k="place" v="hamlet" />
		<tag k="ssr:stedsnr" v="6070" />
	</node>
	<node id="9977326991" lat="60.7530222" lon="5.1200533" version="1" timestamp="2022-08-25T15:08:29Z" changeset="125366839" uid="3497659" user="NKA">
		<tag k="name" v="Osterhus" />
		<tag k="place" v="farm" />
		<tag k="ssr:stedsnr" v="651250" />
	</node>
	<node id="9977326992" lat="60.5598694" lon="5.3256782" version="1" timestamp="2022-08-25T15:08:29Z" changeset="125366839" uid="3497659" user="NKA">
		<tag k="name" v="Øyjord" />
		<tag k="place" v="farm" />
		<tag k="ssr:stedsnr" v="712095" />
	</node>
	<node id="9977326993" lat="60.7068094" lon="5.2729947" version="1" timestamp="2022-08-25T15:08:29Z" changeset="125366839" uid="3497659" user="NKA">
		<tag k="name" v="Sletten" />
		<tag k="place" v="farm" />
		<tag k="ssr:stedsnr" v="734209" />
	</node>
	<node id="9977326994" lat="60.7075778" lon="5.2352506" version="1" timestamp="2022-08-25T15:08:29Z" changeset="125366839" uid="3497659" user="NKA">
		<tag k="name" v="Løtveit" />
		<tag k="place" v="farm" />
		<tag k="ssr:stedsnr" v="894001" />
	</node>
	<node id="9977326995" lat="60.7175664" lon="4.9985809" version="1" timestamp="2022-08-25T15:08:29Z" changeset="125366839" uid="3497659" user="NKA">
		<tag k="name" v="Åsheim" />
		<tag k="place" v="farm" />
		<tag k="ssr:stedsnr" v="105696" />
	</node>
	<node id="9977326996" lat="60.7523333" lon="5.11682" version="1" timestamp="2022-08-25T15:08:29Z" changeset="125366839" uid="3497659" user="NKA">
		<tag k="name" v="Gjerdevågshus" />
		<tag k="place" v="farm" />
		<tag k="ssr:stedsnr" v="834252" />
	</node>
	<node id="9977326997" lat="60.6652028" lon="5.171745" version="1" timestamp="2022-08-25T15:08:29Z" changeset="125366839" uid="3497659" user="NKA">
		<tag k="name" v="Tofting" />
		<tag k="place" v="farm" />
		<tag k="ssr:stedsnr" v="45358" />
	</node>
	<node id="9977326998" lat="60.5667945" lon="5.3644228" version="1" timestamp="2022-08-25T15:08:29Z" changeset="125366839" uid="3497659" user="NKA">
		<tag k="alt_name" v="Mundal nedre" />
		<tag k="name" v="Nedre Mundal" />
		<tag k="place" v="farm" />
		<tag k="ssr:stedsnr" v="227336" />
	</node>
	<node id="9977326999" lat="60.756582" lon="5.1277637" version="1" timestamp="2022-08-25T15:08:29Z" changeset="125366839" uid="3497659" user="NKA">
		<tag k="name" v="Rossnes" />
		<tag k="place" v="hamlet" />
		<tag k="ssr:stedsnr" v="312707" />
	</node>
	<node id="9977327000" lat="60.7157417" lon="5.3059867" version="1" timestamp="2022-08-25T15:08:29Z" changeset="125366839" uid="3497659" user="NKA">
		<tag k="name" v="Hodnekvam" />
		<tag k="place" v="farm" />
		<tag k="ssr:stedsnr" v="409350" />
	</node>
	<node id="9977327001" lat="60.570065" lon="5.3554789" version="1" timestamp="2022-08-25T15:08:29Z" changeset="125366839" uid="3497659" user="NKA">
		<tag k="alt_name" v="Mundal øvre" />
		<tag k="name" v="Øvre Mundal" />
		<tag k="place" v="farm" />
		<tag k="ssr:stedsnr" v="105371" />
	</node>
	<node id="9977327002" lat="60.7423139" lon="5.2360422" version="1" timestamp="2022-08-25T15:08:29Z" changeset="125366839" uid="3497659" user="NKA">
		<tag k="name" v="Vabø" />
		<tag k="place" v="farm" />
		<tag k="ssr:stedsnr" v="287213" />
	</node>
	<node id="9977327003" lat="60.7204082" lon="5.214789" version="1" timestamp="2022-08-25T15:08:29Z" changeset="125366839" uid="3497659" user="NKA">
		<tag k="name" v="Våge" />
		<tag k="place" v="farm" />
		<tag k="ssr:stedsnr" v="188205" />
	</node>
	<node id="9977327004" lat="60.7506371" lon="5.1374314" version="1" timestamp="2022-08-25T15:08:29Z" changeset="125366839" uid="3497659" user="NKA">
		<tag k="name" v="Tjukkhetla" />
		<tag k="place" v="hamlet" />
		<tag k="ssr:stedsnr" v="191677" />
	</node>
	<node id="9977327005" lat="60.7146361" lon="5.1249922" version="1" timestamp="2022-08-25T15:08:29Z" changeset="125366839" uid="3497659" user="NKA">
		<tag k="name" v="Kvalvågnes" />
		<tag k="place" v="farm" />
		<tag k="ssr:stedsnr" v="287201" />
	</node>
	<node id="9977327006" lat="60.77345" lon="5.1115535" version="1" timestamp="2022-08-25T15:08:29Z" changeset="125366839" uid="3497659" user="NKA">
		<tag k="name" v="Tvibergneset" />
		<tag k="place" v="farm" />
		<tag k="ssr:stedsnr" v="173527" />
	</node>
	<node id="9977327007" lat="60.7485316" lon="5.1582881" version="1" timestamp="2022-08-25T15:08:29Z" changeset="125366839" uid="3497659" user="NKA">
		<tag k="name" v="Kolås" />
		<tag k="place" v="farm" />
		<tag k="ssr:stedsnr" v="45241" />
	</node>
	<node id="9977327008" lat="60.5418445" lon="5.183411" version="1" timestamp="2022-08-25T15:08:29Z" changeset="125366839" uid="3497659" user="NKA">
		<tag k="name" v="Erstad" />
		<tag k="place" v="farm" />
		<tag k="ssr:stedsnr" v="552479" />
	</node>
	<node id="9977327009" lat="60.5337512" lon="5.1898473" version="1" timestamp="2022-08-25T15:08:29Z" changeset="125366839" uid="3497659" user="NKA">
		<tag k="name" v="Øvre Dale" />
		<tag k="place" v="farm" />
		<tag k="ssr:stedsnr" v="757617" />
	</node>
	<node id="9977327010" lat="60.6547109" lon="5.0154216" version="1" timestamp="2022-08-25T15:08:29Z" changeset="125366839" uid="3497659" user="NKA">
		<tag k="alt_name" v="Birkeland" />
		<tag k="name" v="Byrkjeland" />
		<tag k="place" v="hamlet" />
		<tag k="ssr:stedsnr" v="795986" />
	</node>
	<node id="9977327011" lat="60.7482651" lon="5.0964649" version="1" timestamp="2022-08-25T15:08:29Z" changeset="125366839" uid="3497659" user="NKA">
		<tag k="name" v="Sirset" />
		<tag k="place" v="hamlet" />
		<tag k="ssr:stedsnr" v="856697" />
	</node>
</osm>
