<?xml version="1.0" encoding="UTF-8"?>
<osm version="0.6" generator="osmapis">
	<node id="279056068" lat="68.7186964" lon="14.6016194" version="2" timestamp="2022-07-02T06:06:57Z" changeset="123108184" uid="3497659" user="NKA">
		<tag k="name" v="Asterset" />
		<tag k="place" v="farm" />
		<tag k="ssr:stedsnr" v="581331" />
	</node>
	<node id="279056069" lat="68.70205" lon="14.5917084" version="2" timestamp="2022-07-02T06:06:57Z" changeset="123108184" uid="3497659" user="NKA">
		<tag k="name" v="Veggemoa" />
		<tag k="place" v="hamlet" />
		<tag k="ssr:stedsnr" v="624306" />
	</node>
	<node id="283114755" lat="68.6189812" lon="14.579651" version="2" timestamp="2022-07-02T06:06:57Z" changeset="123108184" uid="3497659" user="NKA">
		<tag k="name" v="Lokkøya" />
		<tag k="place" v="hamlet" />
		<tag k="ssr:stedsnr" v="1076732" />
	</node>
	<node id="283114756" lat="68.616846" lon="14.5420517" version="3" timestamp="2022-07-02T06:06:57Z" changeset="123108184" uid="3497659" user="NKA">
		<tag k="loc_name:se" v="Bievvá" />
		<tag k="name" v="Bø" />
		<tag k="name:no" v="Bø" />
		<tag k="place" v="hamlet" />
		<tag k="ssr:stedsnr" v="389734" />
	</node>
	<node id="283114757" lat="68.6332821" lon="14.6253039" version="3" timestamp="2022-07-02T06:06:57Z" changeset="123108184" uid="3497659" user="NKA">
		<tag k="name" v="Ramberg" />
		<tag k="place" v="hamlet" />
		<tag k="ssr:stedsnr" v="200558" />
	</node>
	<node id="283114758" lat="68.6261975" lon="14.6085043" version="2" timestamp="2022-07-02T06:06:57Z" changeset="123108184" uid="3497659" user="NKA">
		<tag k="name" v="Snarset" />
		<tag k="place" v="hamlet" />
		<tag k="ssr:stedsnr" v="624525" />
	</node>
	<node id="283114759" lat="68.6099986" lon="14.4930473" version="3" timestamp="2022-07-02T06:06:57Z" changeset="123108184" uid="3497659" user="NKA">
		<tag k="name" v="Steinsvik" />
		<tag k="place" v="hamlet" />
		<tag k="ssr:stedsnr" v="745499" />
	</node>
	<node id="283114761" lat="68.6091444" lon="14.5265907" version="3" timestamp="2022-07-02T06:06:57Z" changeset="123108184" uid="3497659" user="NKA">
		<tag k="name" v="Mårsund" />
		<tag k="place" v="hamlet" />
		<tag k="ssr:stedsnr" v="867608" />
	</node>
	<node id="283114763" lat="68.659595" lon="14.6053305" version="2" timestamp="2022-07-02T06:06:57Z" changeset="123108184" uid="3497659" user="NKA">
		<tag k="name" v="Pollen" />
		<tag k="place" v="farm" />
		<tag k="ssr:stedsnr" v="886494" />
	</node>
	<node id="283243057" lat="68.7200056" lon="14.565476" version="5" timestamp="2022-07-02T06:06:57Z" changeset="123108184" uid="3497659" user="NKA">
		<tag k="name" v="Skålbrekka" />
		<tag k="place" v="farm" />
		<tag k="ssr:stedsnr" v="321265" />
	</node>
	<node id="298743746" lat="68.6889563" lon="14.4716441" version="7" timestamp="2022-07-02T06:06:57Z" changeset="123108184" uid="3497659" user="NKA">
		<tag k="name" v="Straume" />
		<tag k="place" v="village" />
		<tag k="population" v="343" />
		<tag k="population:date" v="2021-01-01" />
		<tag k="ref:ssb_tettsted" v="7832" />
		<tag k="source:population" v="SSB - befolkning i tettstedet" />
		<tag k="ssr:stedsnr" v="199690" />
	</node>
	<node id="298743748" lat="68.6785547" lon="14.5653626" version="3" timestamp="2022-07-02T06:06:57Z" changeset="123108184" uid="3497659" user="NKA">
		<tag k="name" v="Vea" />
		<tag k="place" v="hamlet" />
		<tag k="ssr:stedsnr" v="503594" />
	</node>
	<node id="319823701" lat="68.6159877" lon="14.4757072" version="4" timestamp="2022-07-02T06:06:57Z" changeset="123108184" uid="3497659" user="NKA">
		<tag k="name" v="Steine" />
		<tag k="place" v="quarter" />
		<tag k="ssr:stedsnr" v="200539" />
	</node>
	<node id="319883499" lat="68.6492008" lon="14.6384131" version="2" timestamp="2022-07-02T06:06:57Z" changeset="123108184" uid="3497659" user="NKA">
		<tag k="name" v="Straumsnes" />
		<tag k="place" v="hamlet" />
		<tag k="ssr:stedsnr" v="321671" />
	</node>
	<node id="319883500" lat="68.6552194" lon="14.6371688" version="3" timestamp="2022-07-02T06:06:57Z" changeset="123108184" uid="3497659" user="NKA">
		<tag k="name" v="Ringstad" />
		<tag k="place" v="hamlet" />
		<tag k="ssr:stedsnr" v="868677" />
	</node>
	<node id="319883501" lat="68.6957543" lon="14.6713465" version="2" timestamp="2022-07-02T06:06:57Z" changeset="123108184" uid="3497659" user="NKA">
		<tag k="alt_name" v="Klakkjorda" />
		<tag k="name" v="Klakksjorda" />
		<tag k="old_name" v="Klaksjord" />
		<tag k="place" v="hamlet" />
		<tag k="ssr:stedsnr" v="745699" />
	</node>
	<node id="320527758" lat="68.725783" lon="14.6005335" version="3" timestamp="2022-07-02T06:06:57Z" changeset="123108184" uid="3497659" user="NKA">
		<tag k="name" v="Rise" />
		<tag k="place" v="hamlet" />
		<tag k="ssr:stedsnr" v="685254" />
	</node>
	<node id="476691395" lat="68.6667771" lon="14.420178" version="2" timestamp="2022-07-02T06:06:57Z" changeset="123108184" uid="3497659" user="NKA">
		<tag k="name" v="Søberg" />
		<tag k="place" v="hamlet" />
		<tag k="ssr:stedsnr" v="200627" />
	</node>
	<node id="476691396" lat="68.6812923" lon="14.4104441" version="3" timestamp="2022-07-02T06:06:57Z" changeset="123108184" uid="3497659" user="NKA">
		<tag k="name" v="Skårvågen" />
		<tag k="name:ru" v="Скорвоген" />
		<tag k="place" v="hamlet" />
		<tag k="ssr:stedsnr" v="745639" />
	</node>
	<node id="476691397" lat="68.6947074" lon="14.4658427" version="3" timestamp="2022-07-02T06:06:57Z" changeset="123108184" uid="3497659" user="NKA">
		<tag k="name" v="Straumsjøen" />
		<tag k="place" v="quarter" />
		<tag k="ssr:stedsnr" v="199691" />
	</node>
	<node id="476691398" lat="68.6855897" lon="14.5062035" version="2" timestamp="2022-07-02T06:06:57Z" changeset="123108184" uid="3497659" user="NKA">
		<tag k="name" v="Øyjorda" />
		<tag k="place" v="farm" />
		<tag k="ssr:stedsnr" v="685645" />
	</node>
	<node id="853152097" lat="68.6635421" lon="14.6692258" version="3" timestamp="2022-07-02T06:06:57Z" changeset="123108184" uid="3497659" user="NKA">
		<tag k="name" v="Auvåg" />
		<tag k="place" v="hamlet" />
		<tag k="ssr:stedsnr" v="382709" />
	</node>
	<node id="857215234" lat="68.724436" lon="14.5438135" version="3" timestamp="2022-07-02T06:06:57Z" changeset="123108184" uid="3497659" user="NKA">
		<tag k="name" v="Husvågen" />
		<tag k="place" v="hamlet" />
		<tag k="ssr:stedsnr" v="685281" />
	</node>
	<node id="906322814" lat="68.7768124" lon="14.4728025" version="2" timestamp="2022-07-02T06:06:57Z" changeset="123108184" uid="3497659" user="NKA">
		<tag k="name" v="Nykvåg" />
		<tag k="place" v="village" />
		<tag k="ssr:stedsnr" v="685995" />
	</node>
	<node id="906322816" lat="68.8126516" lon="14.5525092" version="3" timestamp="2022-07-02T06:06:57Z" changeset="123108184" uid="3497659" user="NKA">
		<tag k="name" v="Hovden" />
		<tag k="name:ru" v="Ховден" />
		<tag k="place" v="village" />
		<tag k="ssr:stedsnr" v="200872" />
	</node>
	<node id="1066081353" lat="68.6214731" lon="14.4549914" version="3" timestamp="2022-07-02T06:06:57Z" changeset="123108184" uid="3497659" user="NKA">
		<tag k="name" v="Vinje" />
		<tag k="place" v="quarter" />
		<tag k="ssr:stedsnr" v="442526" />
	</node>
	<node id="1066081384" lat="68.6264309" lon="14.4410622" version="2" timestamp="2022-07-02T06:06:57Z" changeset="123108184" uid="3497659" user="NKA">
		<tag k="name" v="Toften" />
		<tag k="place" v="farm" />
		<tag k="ssr:stedsnr" v="284097" />
	</node>
	<node id="1362056927" lat="68.6515698" lon="14.4467703" version="3" timestamp="2022-07-02T06:06:57Z" changeset="123108184" uid="3497659" user="NKA">
		<tag k="name" v="Fjærvoll" />
		<tag k="name:ru" v="Фьярвол" />
		<tag k="place" v="hamlet" />
		<tag k="ssr:stedsnr" v="138731" />
	</node>
	<node id="1362056928" lat="68.6762963" lon="14.4642376" version="2" timestamp="2022-07-02T06:06:57Z" changeset="123108184" uid="3497659" user="NKA">
		<tag k="name" v="Forøya" />
		<tag k="place" v="hamlet" />
		<tag k="ssr:stedsnr" v="685634" />
	</node>
	<node id="1362056938" lat="68.6392097" lon="14.441063" version="2" timestamp="2022-07-02T06:06:57Z" changeset="123108184" uid="3497659" user="NKA">
		<tag k="name" v="Gimstad" />
		<tag k="place" v="hamlet" />
		<tag k="ssr:stedsnr" v="867705" />
	</node>
	<node id="1362056940" lat="68.6685716" lon="14.4880293" version="2" timestamp="2022-07-02T06:06:57Z" changeset="123108184" uid="3497659" user="NKA">
		<tag k="name" v="Hole" />
		<tag k="place" v="farm" />
		<tag k="ssr:stedsnr" v="423203" />
	</node>
	<node id="1362056943" lat="68.6888015" lon="14.4973536" version="2" timestamp="2022-07-02T06:06:57Z" changeset="123108184" uid="3497659" user="NKA">
		<tag k="name" v="Nilsåsen" />
		<tag k="place" v="farm" />
		<tag k="ssr:stedsnr" v="745671" />
	</node>
	<node id="1695044510" lat="68.664345" lon="14.7587436" version="2" timestamp="2022-07-02T06:06:57Z" changeset="123108184" uid="3497659" user="NKA">
		<tag k="name" v="Guvåg" />
		<tag k="place" v="quarter" />
		<tag k="ssr:stedsnr" v="868697" />
	</node>
	<node id="3012555257" lat="68.7982983" lon="14.6368109" version="2" timestamp="2022-07-02T06:06:57Z" changeset="123108184" uid="3497659" user="NKA">
		<tag k="alt_name" v="Utskår" />
		<tag k="name" v="Utskor" />
		<tag k="place" v="hamlet" />
		<tag k="ssr:stedsnr" v="868912" />
	</node>
	<node id="5322787111" lat="68.6630045" lon="14.6348993" version="2" timestamp="2022-01-26T06:22:04Z" changeset="116610177" uid="3497659" user="NKA">
		<tag k="junction" v="yes" />
		<tag k="name" v="Vegskiftet" />
		<tag k="ssr:stedsnr" v="844396" />
	</node>
	<node id="9861707504" lat="68.7476512" lon="14.5282206" version="1" timestamp="2022-07-02T06:06:57Z" changeset="123108184" uid="3497659" user="NKA">
		<tag k="name" v="Gustad" />
		<tag k="place" v="farm" />
		<tag k="ssr:stedsnr" v="199334" />
	</node>
	<node id="9861707505" lat="68.8108333" lon="14.5535373" version="1" timestamp="2022-07-02T06:06:57Z" changeset="123108184" uid="3497659" user="NKA">
		<tag k="name" v="Grindvik" />
		<tag k="place" v="farm" />
		<tag k="ssr:stedsnr" v="461269" />
	</node>
	<node id="9861707506" lat="68.7113528" lon="14.6744667" version="1" timestamp="2022-07-02T06:06:57Z" changeset="123108184" uid="3497659" user="NKA">
		<tag k="name" v="Oppsåta" />
		<tag k="place" v="farm" />
		<tag k="ssr:stedsnr" v="79264" />
	</node>
	<node id="9861707507" lat="68.6812194" lon="14.4488833" version="1" timestamp="2022-07-02T06:06:57Z" changeset="123108184" uid="3497659" user="NKA">
		<tag k="name" v="Storhaugen" />
		<tag k="place" v="locality" />
		<tag k="ssr:stedsnr" v="506212" />
	</node>
	<node id="9861707508" lat="68.6626394" lon="14.7297248" version="1" timestamp="2022-07-02T06:06:57Z" changeset="123108184" uid="3497659" user="NKA">
		<tag k="name" v="Vasvik" />
		<tag k="place" v="farm" />
		<tag k="ssr:stedsnr" v="503684" />
	</node>
	<node id="9861707509" lat="68.7798306" lon="14.4873443" version="1" timestamp="2022-07-02T06:06:57Z" changeset="123108184" uid="3497659" user="NKA">
		<tag k="name" v="Storhaugen" />
		<tag k="place" v="farm" />
		<tag k="ssr:stedsnr" v="279284" />
	</node>
	<node id="9861707510" lat="68.6138327" lon="14.45531" version="1" timestamp="2022-07-02T06:06:57Z" changeset="123108184" uid="3497659" user="NKA">
		<tag k="name" v="Rabben" />
		<tag k="place" v="farm" />
		<tag k="ssr:stedsnr" v="157156" />
	</node>
	<node id="9861707511" lat="68.7514579" lon="14.5775282" version="1" timestamp="2022-07-02T06:06:57Z" changeset="123108184" uid="3497659" user="NKA">
		<tag k="name" v="Grimstad" />
		<tag k="place" v="hamlet" />
		<tag k="ssr:stedsnr" v="685676" />
	</node>
	<node id="9861707512" lat="68.7007553" lon="14.707373" version="1" timestamp="2022-07-02T06:06:57Z" changeset="123108184" uid="3497659" user="NKA">
		<tag k="name" v="Kvernfjorden" />
		<tag k="place" v="hamlet" />
		<tag k="ssr:stedsnr" v="746292" />
	</node>
	<node id="9861707513" lat="68.6013861" lon="14.4961082" version="1" timestamp="2022-07-02T06:06:57Z" changeset="123108184" uid="3497659" user="NKA">
		<tag k="alt_name" v="Sandjord" />
		<tag k="name" v="Sandjorda" />
		<tag k="place" v="farm" />
		<tag k="ssr:stedsnr" v="17620" />
	</node>
	<node id="9861707514" lat="68.7378071" lon="14.5835544" version="1" timestamp="2022-07-02T06:06:57Z" changeset="123108184" uid="3497659" user="NKA">
		<tag k="name" v="Eidsvoll" />
		<tag k="place" v="farm" />
		<tag k="ssr:stedsnr" v="709306" />
	</node>
	<node id="9861707515" lat="68.6757623" lon="14.5069902" version="1" timestamp="2022-07-02T06:06:57Z" changeset="123108184" uid="3497659" user="NKA">
		<tag k="name" v="Fagerhaugen" />
		<tag k="place" v="farm" />
		<tag k="ssr:stedsnr" v="503603" />
	</node>
	<node id="9861707516" lat="68.7422131" lon="14.6270577" version="1" timestamp="2022-07-02T06:06:57Z" changeset="123108184" uid="3497659" user="NKA">
		<tag k="name" v="Sund" />
		<tag k="place" v="hamlet" />
		<tag k="ssr:stedsnr" v="867387" />
	</node>
	<node id="9861731317" lat="68.6341818" lon="14.6297875" version="1" timestamp="2022-07-02T06:06:57Z" changeset="123108184" uid="3497659" user="NKA">
		<tag k="name" v="Remman" />
		<tag k="place" v="farm" />
		<tag k="ssr:stedsnr" v="604227" />
	</node>
	<node id="9861731318" lat="68.7278889" lon="14.6218694" version="1" timestamp="2022-07-02T06:06:57Z" changeset="123108184" uid="3497659" user="NKA">
		<tag k="name" v="Rottåsen" />
		<tag k="place" v="farm" />
		<tag k="ssr:stedsnr" v="867307" />
	</node>
	<node id="9861731319" lat="68.7796361" lon="14.4835489" version="1" timestamp="2022-07-02T06:06:57Z" changeset="123108184" uid="3497659" user="NKA">
		<tag k="name" v="Nyke" />
		<tag k="place" v="hamlet" />
		<tag k="ssr:stedsnr" v="139972" />
	</node>
	<node id="9861731320" lat="68.6122528" lon="14.4946862" version="1" timestamp="2022-07-02T06:06:57Z" changeset="123108184" uid="3497659" user="NKA">
		<tag k="name" v="Litljorda" />
		<tag k="place" v="farm" />
		<tag k="ssr:stedsnr" v="36516" />
	</node>
	<node id="9861731321" lat="68.6193846" lon="14.3369912" version="1" timestamp="2022-07-02T06:06:57Z" changeset="123108184" uid="3497659" user="NKA">
		<tag k="name" v="Nakling" />
		<tag k="place" v="locality" />
		<tag k="ssr:stedsnr" v="97364" />
	</node>
	<node id="9861731322" lat="68.7957556" lon="14.6351028" version="1" timestamp="2022-07-02T06:06:57Z" changeset="123108184" uid="3497659" user="NKA">
		<tag k="name" v="Buvika" />
		<tag k="place" v="farm" />
		<tag k="ssr:stedsnr" v="846314" />
	</node>
	<node id="9861731323" lat="68.6099167" lon="14.4479445" version="1" timestamp="2022-07-02T06:06:57Z" changeset="123108184" uid="3497659" user="NKA">
		<tag k="alt_name" v="Skagen" />
		<tag k="name" v="Skagan" />
		<tag k="place" v="hamlet" />
		<tag k="ssr:stedsnr" v="868508" />
	</node>
	<node id="9861731324" lat="68.671341" lon="14.5042709" version="1" timestamp="2022-07-02T06:06:57Z" changeset="123108184" uid="3497659" user="NKA">
		<tag k="name" v="Sjurtofta" />
		<tag k="place" v="farm" />
		<tag k="ssr:stedsnr" v="362197" />
	</node>
	<node id="9861731325" lat="68.7940444" lon="14.5853334" version="1" timestamp="2022-07-02T06:06:57Z" changeset="123108184" uid="3497659" user="NKA">
		<tag k="name" v="Røsshagan" />
		<tag k="place" v="locality" />
		<tag k="ssr:stedsnr" v="624953" />
	</node>
	<node id="9861731326" lat="68.7485954" lon="14.6971073" version="1" timestamp="2022-07-02T06:06:57Z" changeset="123108184" uid="3497659" user="NKA">
		<tag k="name" v="Sommarland" />
		<tag k="place" v="farm" />
		<tag k="ssr:stedsnr" v="17384" />
	</node>
	<node id="9861731327" lat="68.7426139" lon="14.5755944" version="1" timestamp="2022-07-02T06:06:57Z" changeset="123108184" uid="3497659" user="NKA">
		<tag k="name" v="Eidet" />
		<tag k="place" v="farm" />
		<tag k="ssr:stedsnr" v="587310" />
	</node>
	<node id="9861731328" lat="68.6592972" lon="14.4437611" version="1" timestamp="2022-07-02T06:06:57Z" changeset="123108184" uid="3497659" user="NKA">
		<tag k="name" v="Gammelgården" />
		<tag k="place" v="farm" />
		<tag k="ssr:stedsnr" v="886263" />
	</node>
	<node id="9861731329" lat="68.7872357" lon="14.6400446" version="1" timestamp="2022-07-02T06:06:57Z" changeset="123108184" uid="3497659" user="NKA">
		<tag k="name" v="Hysjorda" />
		<tag k="place" v="farm" />
		<tag k="ssr:stedsnr" v="563982" />
	</node>
	<node id="9861731330" lat="68.6389139" lon="14.4478584" version="1" timestamp="2022-07-02T06:06:57Z" changeset="123108184" uid="3497659" user="NKA">
		<tag k="name" v="Presteidet" />
		<tag k="place" v="farm" />
		<tag k="ssr:stedsnr" v="886245" />
	</node>
	<node id="9861731331" lat="68.7470582" lon="14.5813792" version="1" timestamp="2022-07-02T06:06:57Z" changeset="123108184" uid="3497659" user="NKA">
		<tag k="alt_name" v="Bøen" />
		<tag k="name" v="Bøna" />
		<tag k="place" v="farm" />
		<tag k="ssr:stedsnr" v="623364" />
	</node>
	<node id="9861731332" lat="68.7974307" lon="14.6396498" version="1" timestamp="2022-07-02T06:06:57Z" changeset="123108184" uid="3497659" user="NKA">
		<tag k="name" v="Elvebakken" />
		<tag k="place" v="farm" />
		<tag k="ssr:stedsnr" v="967307" />
	</node>
	<node id="9861731333" lat="68.7292111" lon="14.6558666" version="1" timestamp="2022-07-02T06:06:57Z" changeset="123108184" uid="3497659" user="NKA">
		<tag k="name" v="Haugen" />
		<tag k="place" v="farm" />
		<tag k="ssr:stedsnr" v="624271" />
	</node>
	<node id="9861731334" lat="68.7414722" lon="14.5677306" version="1" timestamp="2022-07-02T06:06:57Z" changeset="123108184" uid="3497659" user="NKA">
		<tag k="name" v="Solheim" />
		<tag k="place" v="locality" />
		<tag k="ssr:stedsnr" v="946598" />
	</node>
	<node id="9861731335" lat="68.8287583" lon="14.6969522" version="1" timestamp="2022-07-02T06:06:57Z" changeset="123108184" uid="3497659" user="NKA">
		<tag k="name" v="Sundan" />
		<tag k="place" v="locality" />
		<tag k="ssr:stedsnr" v="260905" />
	</node>
	<node id="9861731336" lat="68.7282028" lon="14.7089751" version="1" timestamp="2022-07-02T06:06:57Z" changeset="123108184" uid="3497659" user="NKA">
		<tag k="alt_name" v="Jørland, øvre" />
		<tag k="name" v="Øvre Jørland" />
		<tag k="place" v="farm" />
		<tag k="ssr:stedsnr" v="260316" />
	</node>
	<node id="9861731337" lat="68.6752528" lon="14.4636193" version="1" timestamp="2022-07-02T06:06:57Z" changeset="123108184" uid="3497659" user="NKA">
		<tag k="name" v="Tofta" />
		<tag k="place" v="farm" />
		<tag k="ssr:stedsnr" v="157495" />
	</node>
	<node id="9861731338" lat="68.7359315" lon="14.643163" version="1" timestamp="2022-07-02T06:06:57Z" changeset="123108184" uid="3497659" user="NKA">
		<tag k="name" v="Nordbakken" />
		<tag k="place" v="farm" />
		<tag k="ssr:stedsnr" v="176493" />
	</node>
	<node id="9861731339" lat="68.7437334" lon="14.7260166" version="1" timestamp="2022-07-02T06:06:57Z" changeset="123108184" uid="3497659" user="NKA">
		<tag k="name" v="Kråkhaugen" />
		<tag k="place" v="farm" />
		<tag k="ssr:stedsnr" v="381370" />
	</node>
	<node id="9861731340" lat="68.7027199" lon="14.4395496" version="1" timestamp="2022-07-02T06:06:57Z" changeset="123108184" uid="3497659" user="NKA">
		<tag k="alt_name" v="Stua" />
		<tag k="name" v="Gammelgården" />
		<tag k="place" v="farm" />
		<tag k="ssr:stedsnr" v="567142" />
	</node>
	<node id="9861731341" lat="68.7686806" lon="14.6147862" version="1" timestamp="2022-07-02T06:06:57Z" changeset="123108184" uid="3497659" user="NKA">
		<tag k="name" v="Jennøya" />
		<tag k="place" v="farm" />
		<tag k="ssr:stedsnr" v="422407" />
	</node>
	<node id="9861731342" lat="68.7777945" lon="14.4897167" version="1" timestamp="2022-07-02T06:06:57Z" changeset="123108184" uid="3497659" user="NKA">
		<tag k="name" v="Moen" />
		<tag k="place" v="isolated_dwelling" />
		<tag k="ssr:stedsnr" v="967299" />
	</node>
	<node id="9861731343" lat="68.781945" lon="14.6833906" version="1" timestamp="2022-07-02T06:06:57Z" changeset="123108184" uid="3497659" user="NKA">
		<tag k="name" v="Solbakken" />
		<tag k="place" v="farm" />
		<tag k="ssr:stedsnr" v="358606" />
	</node>
	<node id="9861731344" lat="68.7663604" lon="14.7575887" version="1" timestamp="2022-07-02T06:06:57Z" changeset="123108184" uid="3497659" user="NKA">
		<tag k="name" v="Pollen" />
		<tag k="place" v="locality" />
		<tag k="ssr:stedsnr" v="279547" />
	</node>
	<node id="9861731345" lat="68.7253778" lon="14.5261082" version="1" timestamp="2022-07-02T06:06:57Z" changeset="123108184" uid="3497659" user="NKA">
		<tag k="name" v="Spjelkvågen" />
		<tag k="place" v="locality" />
		<tag k="ssr:stedsnr" v="419252" />
	</node>
	<node id="9861731346" lat="68.6715975" lon="14.5867313" version="1" timestamp="2022-07-02T06:06:57Z" changeset="123108184" uid="3497659" user="NKA">
		<tag k="name" v="Solevang" />
		<tag k="place" v="farm" />
		<tag k="ssr:stedsnr" v="746681" />
	</node>
	<node id="9861731347" lat="68.6189781" lon="14.4631995" version="1" timestamp="2022-07-02T06:06:57Z" changeset="123108184" uid="3497659" user="NKA">
		<tag k="name" v="Skagan idrettsplass" />
		<tag k="place" v="farm" />
		<tag k="ssr:stedsnr" v="362443" />
	</node>
	<node id="9861731348" lat="68.7595166" lon="14.6627306" version="1" timestamp="2022-07-02T06:06:57Z" changeset="123108184" uid="3497659" user="NKA">
		<tag k="name" v="Møkland" />
		<tag k="place" v="farm" />
		<tag k="ssr:stedsnr" v="783495" />
	</node>
	<node id="9861731349" lat="68.6942778" lon="14.469225" version="1" timestamp="2022-07-02T06:06:57Z" changeset="123108184" uid="3497659" user="NKA">
		<tag k="name" v="Mellajorda" />
		<tag k="place" v="farm" />
		<tag k="ssr:stedsnr" v="385053" />
	</node>
	<node id="9861731350" lat="68.8086491" lon="14.6248042" version="1" timestamp="2022-07-02T06:06:57Z" changeset="123108184" uid="3497659" user="NKA">
		<tag k="name" v="Godvika" />
		<tag k="place" v="locality" />
		<tag k="ssr:stedsnr" v="563932" />
	</node>
	<node id="9861731351" lat="68.7018884" lon="14.6316385" version="1" timestamp="2022-07-02T06:06:57Z" changeset="123108184" uid="3497659" user="NKA">
		<tag k="name" v="Gåsland" />
		<tag k="place" v="farm" />
		<tag k="ssr:stedsnr" v="685294" />
	</node>
	<node id="9861731352" lat="68.7373531" lon="14.7183501" version="1" timestamp="2022-07-02T06:06:57Z" changeset="123108184" uid="3497659" user="NKA">
		<tag k="name" v="Solheim" />
		<tag k="place" v="farm" />
		<tag k="ssr:stedsnr" v="601570" />
	</node>
	<node id="9861731353" lat="68.5937624" lon="14.3101456" version="1" timestamp="2022-07-02T06:06:57Z" changeset="123108184" uid="3497659" user="NKA">
		<tag k="name" v="Litløya" />
		<tag k="place" v="locality" />
		<tag k="ssr:stedsnr" v="1076735" />
	</node>
	<node id="9861731354" lat="68.7726389" lon="14.6860445" version="1" timestamp="2022-07-02T06:06:57Z" changeset="123108184" uid="3497659" user="NKA">
		<tag k="name" v="Møkland" />
		<tag k="place" v="hamlet" />
		<tag k="ssr:stedsnr" v="199519" />
	</node>
	<node id="9861731355" lat="68.6176278" lon="14.4806777" version="1" timestamp="2022-07-02T06:06:57Z" changeset="123108184" uid="3497659" user="NKA">
		<tag k="name" v="Langekra" />
		<tag k="place" v="farm" />
		<tag k="ssr:stedsnr" v="642560" />
	</node>
	<node id="9861731356" lat="68.7524259" lon="14.4675155" version="1" timestamp="2022-07-02T06:06:57Z" changeset="123108184" uid="3497659" user="NKA">
		<tag k="name" v="Sandvika" />
		<tag k="place" v="farm" />
		<tag k="ssr:stedsnr" v="382532" />
	</node>
	<node id="9861731357" lat="68.7847621" lon="14.6869763" version="1" timestamp="2022-07-02T06:06:57Z" changeset="123108184" uid="3497659" user="NKA">
		<tag k="name" v="Sletten" />
		<tag k="place" v="farm" />
		<tag k="ssr:stedsnr" v="138972" />
	</node>
	<node id="9861731358" lat="68.6724734" lon="14.7439642" version="1" timestamp="2022-07-02T06:06:57Z" changeset="123108184" uid="3497659" user="NKA">
		<tag k="name" v="Vassbotn" />
		<tag k="place" v="farm" />
		<tag k="ssr:stedsnr" v="55375" />
	</node>
	<node id="9861731359" lat="68.625274" lon="14.4415244" version="1" timestamp="2022-07-02T06:06:57Z" changeset="123108184" uid="3497659" user="NKA">
		<tag k="name" v="Vinje" />
		<tag k="place" v="farm" />
		<tag k="ssr:stedsnr" v="526090" />
	</node>
	<node id="9861731360" lat="68.6626901" lon="14.4623703" version="1" timestamp="2022-07-02T06:06:57Z" changeset="123108184" uid="3497659" user="NKA">
		<tag k="name" v="Føre" />
		<tag k="place" v="hamlet" />
		<tag k="ssr:stedsnr" v="503586" />
	</node>
	<node id="9861731361" lat="68.6185578" lon="14.3423666" version="1" timestamp="2022-07-02T06:06:57Z" changeset="123108184" uid="3497659" user="NKA">
		<tag k="name" v="Været" />
		<tag k="place" v="locality" />
		<tag k="ssr:stedsnr" v="17451" />
	</node>
	<node id="9861731362" lat="68.6190563" lon="14.5920744" version="1" timestamp="2022-07-02T06:06:57Z" changeset="123108184" uid="3497659" user="NKA">
		<tag k="name" v="Storhaugen" />
		<tag k="place" v="farm" />
		<tag k="ssr:stedsnr" v="302712" />
	</node>
	<node id="9861731363" lat="68.6741883" lon="14.7365149" version="1" timestamp="2022-07-02T06:06:57Z" changeset="123108184" uid="3497659" user="NKA">
		<tag k="name" v="Røsnes" />
		<tag k="place" v="hamlet" />
		<tag k="ssr:stedsnr" v="867764" />
	</node>
	<node id="9861731364" lat="68.6095083" lon="14.4612332" version="1" timestamp="2022-07-02T06:06:57Z" changeset="123108184" uid="3497659" user="NKA">
		<tag k="name" v="Steinesjøen" />
		<tag k="place" v="hamlet" />
		<tag k="ssr:stedsnr" v="382510" />
	</node>
	<node id="9861731365" lat="68.6992106" lon="14.5827473" version="1" timestamp="2022-07-02T06:06:57Z" changeset="123108184" uid="3497659" user="NKA">
		<tag k="name" v="Veggemo" />
		<tag k="place" v="farm" />
		<tag k="ssr:stedsnr" v="298180" />
	</node>
	<node id="9861731366" lat="68.6340639" lon="14.6419639" version="1" timestamp="2022-07-02T06:06:57Z" changeset="123108184" uid="3497659" user="NKA">
		<tag k="name" v="Nesan" />
		<tag k="place" v="farm" />
		<tag k="ssr:stedsnr" v="601408" />
	</node>
	<node id="9861731367" lat="68.7207344" lon="14.5783532" version="1" timestamp="2022-07-02T06:06:57Z" changeset="123108184" uid="3497659" user="NKA">
		<tag k="name" v="Olset" />
		<tag k="place" v="farm" />
		<tag k="ssr:stedsnr" v="321257" />
	</node>
	<node id="9861731368" lat="68.6832832" lon="14.4154878" version="1" timestamp="2022-07-02T06:06:57Z" changeset="123108184" uid="3497659" user="NKA">
		<tag k="name" v="Gunnarstø" />
		<tag k="place" v="farm" />
		<tag k="ssr:stedsnr" v="264042" />
	</node>
	<node id="9861731369" lat="68.7996309" lon="14.6361117" version="1" timestamp="2022-07-02T06:06:57Z" changeset="123108184" uid="3497659" user="NKA">
		<tag k="name" v="Utskår" />
		<tag k="place" v="farm" />
		<tag k="ssr:stedsnr" v="481348" />
	</node>
	<node id="9861731370" lat="68.7586583" lon="14.6641583" version="1" timestamp="2022-07-02T06:06:57Z" changeset="123108184" uid="3497659" user="NKA">
		<tag k="name" v="Skoglund" />
		<tag k="place" v="farm" />
		<tag k="ssr:stedsnr" v="139550" />
	</node>
	<node id="9861731371" lat="68.6707335" lon="14.4994645" version="1" timestamp="2022-07-02T06:06:57Z" changeset="123108184" uid="3497659" user="NKA">
		<tag k="name" v="Remman" />
		<tag k="place" v="farm" />
		<tag k="ssr:stedsnr" v="59186" />
	</node>
	<node id="9861731372" lat="68.703355" lon="14.4390924" version="1" timestamp="2022-07-02T06:06:57Z" changeset="123108184" uid="3497659" user="NKA">
		<tag k="name" v="Vikan" />
		<tag k="place" v="farm" />
		<tag k="ssr:stedsnr" v="261319" />
	</node>
	<node id="9861731373" lat="68.6850806" lon="14.7296721" version="1" timestamp="2022-07-02T06:06:57Z" changeset="123108184" uid="3497659" user="NKA">
		<tag k="name" v="Bogen" />
		<tag k="place" v="farm" />
		<tag k="ssr:stedsnr" v="886512" />
	</node>
	<node id="9861731374" lat="68.6254514" lon="14.4089067" version="1" timestamp="2022-07-02T06:06:57Z" changeset="123108184" uid="3497659" user="NKA">
		<tag k="name" v="Svinøya" />
		<tag k="place" v="farm" />
		<tag k="ssr:stedsnr" v="1076737" />
	</node>
	<node id="9861731375" lat="68.6334048" lon="14.445992" version="1" timestamp="2022-07-02T06:06:57Z" changeset="123108184" uid="3497659" user="NKA">
		<tag k="name" v="Kleppelva" />
		<tag k="place" v="farm" />
		<tag k="ssr:stedsnr" v="1076738" />
	</node>
	<node id="9861731376" lat="68.6563351" lon="14.4439038" version="1" timestamp="2022-07-02T06:06:57Z" changeset="123108184" uid="3497659" user="NKA">
		<tag k="name" v="Gaza" />
		<tag k="place" v="isolated_dwelling" />
		<tag k="ssr:stedsnr" v="461284" />
	</node>
	<node id="9861731377" lat="68.7548194" lon="14.5814832" version="1" timestamp="2022-07-02T06:06:57Z" changeset="123108184" uid="3497659" user="NKA">
		<tag k="name" v="Grubbelva" />
		<tag k="place" v="farm" />
		<tag k="ssr:stedsnr" v="382538" />
	</node>
	<node id="9861731378" lat="68.7414861" lon="14.5956832" version="1" timestamp="2022-07-02T06:06:57Z" changeset="123108184" uid="3497659" user="NKA">
		<tag k="name" v="Øra" />
		<tag k="place" v="farm" />
		<tag k="ssr:stedsnr" v="321351" />
	</node>
	<node id="9861731379" lat="68.6606484" lon="14.6055971" version="1" timestamp="2022-07-02T06:06:57Z" changeset="123108184" uid="3497659" user="NKA">
		<tag k="name" v="Pollåsen" />
		<tag k="place" v="hamlet" />
		<tag k="ssr:stedsnr" v="79674" />
	</node>
	<node id="9861731380" lat="68.751185" lon="14.713133" version="1" timestamp="2022-07-02T06:06:57Z" changeset="123108184" uid="3497659" user="NKA">
		<tag k="alt_name" v="Sør-Rygge" />
		<tag k="name" v="Sørrygge" />
		<tag k="place" v="farm" />
		<tag k="ssr:stedsnr" v="321554" />
	</node>
	<node id="9861731381" lat="68.6831687" lon="14.7129793" version="1" timestamp="2022-07-02T06:06:57Z" changeset="123108184" uid="3497659" user="NKA">
		<tag k="name" v="Haugsnes" />
		<tag k="place" v="hamlet" />
		<tag k="ssr:stedsnr" v="176432" />
	</node>
	<node id="9861731382" lat="68.6920681" lon="14.4663531" version="1" timestamp="2022-07-02T06:06:57Z" changeset="123108184" uid="3497659" user="NKA">
		<tag k="name" v="Nygård" />
		<tag k="place" v="farm" />
		<tag k="ssr:stedsnr" v="264194" />
	</node>
	<node id="9861731383" lat="68.6703666" lon="14.4969522" version="1" timestamp="2022-07-02T06:06:57Z" changeset="123108184" uid="3497659" user="NKA">
		<tag k="name" v="Lynghaugen" />
		<tag k="place" v="farm" />
		<tag k="ssr:stedsnr" v="18587" />
	</node>
	<node id="9861731384" lat="68.6825701" lon="14.5217395" version="1" timestamp="2022-07-02T06:06:57Z" changeset="123108184" uid="3497659" user="NKA">
		<tag k="name" v="Børge" />
		<tag k="place" v="farm" />
		<tag k="ssr:stedsnr" v="381682" />
	</node>
	<node id="9861731385" lat="68.6775861" lon="14.4674332" version="1" timestamp="2022-07-02T06:06:57Z" changeset="123108184" uid="3497659" user="NKA">
		<tag k="name" v="Gården" />
		<tag k="place" v="farm" />
		<tag k="ssr:stedsnr" v="931205" />
	</node>
	<node id="9861731386" lat="68.7648556" lon="14.6864723" version="1" timestamp="2022-07-02T06:06:57Z" changeset="123108184" uid="3497659" user="NKA">
		<tag k="name" v="Oshaug" />
		<tag k="place" v="farm" />
		<tag k="ssr:stedsnr" v="946507" />
	</node>
	<node id="9861731387" lat="68.7531806" lon="14.688764" version="1" timestamp="2022-07-02T06:06:57Z" changeset="123108184" uid="3497659" user="NKA">
		<tag k="name" v="Kobbhaugen" />
		<tag k="place" v="farm" />
		<tag k="ssr:stedsnr" v="218519" />
	</node>
	<node id="9861731388" lat="68.6830389" lon="14.5744555" version="1" timestamp="2022-07-02T06:06:57Z" changeset="123108184" uid="3497659" user="NKA">
		<tag k="name" v="Geitneset" />
		<tag k="place" v="farm" />
		<tag k="ssr:stedsnr" v="321208" />
	</node>
	<node id="9861731389" lat="68.6979135" lon="14.6917745" version="1" timestamp="2022-07-02T06:06:57Z" changeset="123108184" uid="3497659" user="NKA">
		<tag k="name" v="Skorpa" />
		<tag k="place" v="farm" />
		<tag k="ssr:stedsnr" v="867677" />
	</node>
	<node id="9861731390" lat="68.6899861" lon="14.483339" version="1" timestamp="2022-07-02T06:06:57Z" changeset="123108184" uid="3497659" user="NKA">
		<tag k="name" v="Rabben" />
		<tag k="place" v="farm" />
		<tag k="ssr:stedsnr" v="339324" />
	</node>
	<node id="9861731391" lat="68.7177084" lon="14.6794055" version="1" timestamp="2022-07-02T06:06:57Z" changeset="123108184" uid="3497659" user="NKA">
		<tag k="alt_name" v="Verhalsen, nedre" />
		<tag k="name" v="Nedre Verhalsen" />
		<tag k="place" v="farm" />
		<tag k="ssr:stedsnr" v="867325" />
	</node>
	<node id="9861731392" lat="68.6186769" lon="14.4412007" version="1" timestamp="2022-07-02T06:06:57Z" changeset="123108184" uid="3497659" user="NKA">
		<tag k="name" v="Borgstubakken" />
		<tag k="place" v="isolated_dwelling" />
		<tag k="ssr:stedsnr" v="36101" />
	</node>
	<node id="9861731393" lat="68.681596" lon="14.409516" version="1" timestamp="2022-07-02T06:06:57Z" changeset="123108184" uid="3497659" user="NKA">
		<tag k="name" v="Høgtofta" />
		<tag k="place" v="farm" />
		<tag k="ssr:stedsnr" v="688035" />
	</node>
	<node id="9861731394" lat="68.695325" lon="14.4898" version="1" timestamp="2022-07-02T06:06:57Z" changeset="123108184" uid="3497659" user="NKA">
		<tag k="name" v="Småskogan" />
		<tag k="place" v="farm" />
		<tag k="ssr:stedsnr" v="78674" />
	</node>
	<node id="9861731395" lat="68.7295167" lon="14.4851638" version="1" timestamp="2022-07-02T06:06:57Z" changeset="123108184" uid="3497659" user="NKA">
		<tag k="name" v="Åsand" />
		<tag k="place" v="locality" />
		<tag k="ssr:stedsnr" v="260314" />
	</node>
	<node id="9861731396" lat="68.6882815" lon="14.4701909" version="1" timestamp="2022-07-02T06:06:57Z" changeset="123108184" uid="3497659" user="NKA">
		<tag k="name" v="Gammelgården" />
		<tag k="place" v="farm" />
		<tag k="ssr:stedsnr" v="203080" />
	</node>
	<node id="9861731397" lat="68.7775695" lon="14.4658667" version="1" timestamp="2022-07-02T06:06:57Z" changeset="123108184" uid="3497659" user="NKA">
		<tag k="name" v="Vågen" />
		<tag k="place" v="hamlet" />
		<tag k="ssr:stedsnr" v="461290" />
	</node>
	<node id="9861731398" lat="68.7727683" lon="14.6878774" version="1" timestamp="2022-07-02T06:06:57Z" changeset="123108184" uid="3497659" user="NKA">
		<tag k="name" v="Nordre Møkland" />
		<tag k="old_name" v="Møkland nordre" />
		<tag k="place" v="farm" />
		<tag k="ssr:stedsnr" v="464022" />
	</node>
	<node id="9861731399" lat="68.7241193" lon="14.6344258" version="1" timestamp="2022-07-02T06:06:57Z" changeset="123108184" uid="3497659" user="NKA">
		<tag k="name" v="Reinshaugen" />
		<tag k="place" v="farm" />
		<tag k="ssr:stedsnr" v="928228" />
	</node>
	<node id="9861731400" lat="68.682425" lon="14.48355" version="1" timestamp="2022-07-02T06:06:57Z" changeset="123108184" uid="3497659" user="NKA">
		<tag k="name" v="Langåsen" />
		<tag k="place" v="farm" />
		<tag k="ssr:stedsnr" v="17693" />
	</node>
	<node id="9861731401" lat="68.6987389" lon="14.4604612" version="1" timestamp="2022-07-02T06:06:57Z" changeset="123108184" uid="3497659" user="NKA">
		<tag k="name" v="Handkleppan" />
		<tag k="place" v="farm" />
		<tag k="ssr:stedsnr" v="79298" />
	</node>
	<node id="9861731402" lat="68.7249097" lon="14.7022304" version="1" timestamp="2022-07-02T06:06:57Z" changeset="123108184" uid="3497659" user="NKA">
		<tag k="name" v="Jørland" />
		<tag k="place" v="hamlet" />
		<tag k="ssr:stedsnr" v="116582" />
	</node>
	<node id="9861731403" lat="68.7017487" lon="14.5080468" version="1" timestamp="2022-07-02T06:06:57Z" changeset="123108184" uid="3497659" user="NKA">
		<tag k="name" v="Hesthagen" />
		<tag k="place" v="farm" />
		<tag k="ssr:stedsnr" v="79299" />
	</node>
	<node id="9861731404" lat="68.6943784" lon="14.4731062" version="1" timestamp="2022-07-02T06:06:57Z" changeset="123108184" uid="3497659" user="NKA">
		<tag k="name" v="Høyfjell" />
		<tag k="place" v="neighbourhood" />
		<tag k="ssr:stedsnr" v="688213" />
	</node>
	<node id="9861731405" lat="68.7306139" lon="14.6828305" version="1" timestamp="2022-07-02T06:06:57Z" changeset="123108184" uid="3497659" user="NKA">
		<tag k="name" v="Nordverhalsen" />
		<tag k="place" v="locality" />
		<tag k="ssr:stedsnr" v="200248" />
	</node>
	<node id="9861731406" lat="68.6081164" lon="14.3184641" version="1" timestamp="2022-07-02T06:06:57Z" changeset="123108184" uid="3497659" user="NKA">
		<tag k="name" v="Skjerdingstad" />
		<tag k="place" v="locality" />
		<tag k="ssr:stedsnr" v="806324" />
	</node>
	<node id="9861731407" lat="68.7218834" lon="14.6957861" version="1" timestamp="2022-07-02T06:06:57Z" changeset="123108184" uid="3497659" user="NKA">
		<tag k="alt_name" v="Jørland, nedre" />
		<tag k="name" v="Nedre Jørland" />
		<tag k="place" v="farm" />
		<tag k="ssr:stedsnr" v="624274" />
	</node>
	<node id="9861731408" lat="68.6934723" lon="14.4727083" version="1" timestamp="2022-07-02T06:06:57Z" changeset="123108184" uid="3497659" user="NKA">
		<tag k="name" v="Utsikten" />
		<tag k="place" v="neighbourhood" />
		<tag k="ssr:stedsnr" v="871175" />
	</node>
	<node id="9861731409" lat="68.7603567" lon="14.6975948" version="1" timestamp="2022-07-02T06:06:57Z" changeset="123108184" uid="3497659" user="NKA">
		<tag k="name" v="Kråkberget" />
		<tag k="place" v="hamlet" />
		<tag k="ssr:stedsnr" v="260575" />
	</node>
	<node id="9861731410" lat="68.7637194" lon="14.6107416" version="1" timestamp="2022-07-02T06:06:57Z" changeset="123108184" uid="3497659" user="NKA">
		<tag k="name" v="Skatjorda" />
		<tag k="place" v="locality" />
		<tag k="ssr:stedsnr" v="239332" />
	</node>
	<node id="9861731411" lat="68.7333517" lon="14.6568035" version="1" timestamp="2022-07-02T06:06:57Z" changeset="123108184" uid="3497659" user="NKA">
		<tag k="alt_name" v="Oksebøl" />
		<tag k="name" v="Oksbøl" />
		<tag k="place" v="farm" />
		<tag k="ssr:stedsnr" v="1076748" />
	</node>
	<node id="9861731412" lat="68.7674501" lon="14.6182284" version="1" timestamp="2022-07-02T06:06:57Z" changeset="123108184" uid="3497659" user="NKA">
		<tag k="name" v="Jennen" />
		<tag k="place" v="locality" />
		<tag k="ssr:stedsnr" v="764733" />
	</node>
	<node id="9861731413" lat="68.7497989" lon="14.5139562" version="1" timestamp="2022-07-02T06:06:57Z" changeset="123108184" uid="3497659" user="NKA">
		<tag k="name" v="Kvalvika" />
		<tag k="place" v="farm" />
		<tag k="ssr:stedsnr" v="885607" />
	</node>
	<node id="9861731414" lat="68.7660955" lon="14.7449318" version="1" timestamp="2022-07-02T06:06:57Z" changeset="123108184" uid="3497659" user="NKA">
		<tag k="name" v="Nordrygge" />
		<tag k="place" v="farm" />
		<tag k="ssr:stedsnr" v="260576" />
	</node>
	<node id="9861731415" lat="68.7160207" lon="14.6805867" version="1" timestamp="2022-07-02T06:06:57Z" changeset="123108184" uid="3497659" user="NKA">
		<tag k="name" v="Verhalsen" />
		<tag k="place" v="hamlet" />
		<tag k="ssr:stedsnr" v="329758" />
	</node>
	<node id="9861731416" lat="68.6631195" lon="14.4699944" version="1" timestamp="2022-07-02T06:06:57Z" changeset="123108184" uid="3497659" user="NKA">
		<tag k="name" v="Hundskilda" />
		<tag k="place" v="farm" />
		<tag k="ssr:stedsnr" v="825527" />
	</node>
	<node id="9861731417" lat="68.6842912" lon="14.4695459" version="1" timestamp="2022-07-02T06:06:57Z" changeset="123108184" uid="3497659" user="NKA">
		<tag k="name" v="Notvollan" />
		<tag k="place" v="farm" />
		<tag k="ssr:stedsnr" v="627210" />
	</node>
	<node id="9861731418" lat="68.6039833" lon="14.5287667" version="1" timestamp="2022-07-02T06:06:57Z" changeset="123108184" uid="3497659" user="NKA">
		<tag k="name" v="Gjerdesjøen" />
		<tag k="place" v="farm" />
		<tag k="ssr:stedsnr" v="582268" />
	</node>
	<node id="9861731419" lat="68.6747277" lon="14.5064583" version="1" timestamp="2022-07-02T06:06:57Z" changeset="123108184" uid="3497659" user="NKA">
		<tag k="name" v="Gammelgården" />
		<tag k="place" v="farm" />
		<tag k="ssr:stedsnr" v="969066" />
	</node>
	<node id="9861731420" lat="68.7382444" lon="14.5857305" version="1" timestamp="2022-07-02T06:06:57Z" changeset="123108184" uid="3497659" user="NKA">
		<tag k="alt_name" v="Eide" />
		<tag k="name" v="Eidet" />
		<tag k="place" v="quarter" />
		<tag k="ssr:stedsnr" v="503351" />
	</node>
	<node id="9861731421" lat="68.6682472" lon="14.4228721" version="1" timestamp="2022-07-02T06:06:57Z" changeset="123108184" uid="3497659" user="NKA">
		<tag k="name" v="Monstoften" />
		<tag k="place" v="isolated_dwelling" />
		<tag k="ssr:stedsnr" v="886533" />
	</node>
	<node id="9861731422" lat="68.6648305" lon="14.4740381" version="1" timestamp="2022-07-02T06:06:57Z" changeset="123108184" uid="3497659" user="NKA">
		<tag k="name" v="Førraen" />
		<tag k="place" v="isolated_dwelling" />
		<tag k="ssr:stedsnr" v="886562" />
	</node>
	<node id="9861731423" lat="68.7247611" lon="14.6808832" version="1" timestamp="2022-07-02T06:06:57Z" changeset="123108184" uid="3497659" user="NKA">
		<tag k="alt_name" v="Verhalsen, øvre" />
		<tag k="name" v="Øvre Verhalsen" />
		<tag k="place" v="farm" />
		<tag k="ssr:stedsnr" v="381293" />
	</node>
	<node id="9861731424" lat="68.6931506" lon="14.6072211" version="1" timestamp="2022-07-02T06:06:57Z" changeset="123108184" uid="3497659" user="NKA">
		<tag k="name" v="Langmoa" />
		<tag k="place" v="farm" />
		<tag k="ssr:stedsnr" v="661180" />
	</node>
	<node id="9861731425" lat="68.7378889" lon="14.646939" version="1" timestamp="2022-07-02T06:06:57Z" changeset="123108184" uid="3497659" user="NKA">
		<tag k="alt_name" v="Kjerringtofta" />
		<tag k="name" v="Tofta" />
		<tag k="place" v="farm" />
		<tag k="ssr:stedsnr" v="442378" />
	</node>
	<node id="9861731426" lat="68.7736464" lon="14.583695" version="1" timestamp="2022-07-02T06:06:57Z" changeset="123108184" uid="3497659" user="NKA">
		<tag k="name" v="Selvåg" />
		<tag k="place" v="locality" />
		<tag k="ssr:stedsnr" v="1076747" />
	</node>
	<node id="9861731427" lat="68.7779417" lon="14.4602161" version="1" timestamp="2022-07-02T06:06:57Z" changeset="123108184" uid="3497659" user="NKA">
		<tag k="name" v="Nykvåg" />
		<tag k="place" v="farm" />
		<tag k="ssr:stedsnr" v="1076741" />
	</node>
	<node id="9861731428" lat="68.7275018" lon="14.6251709" version="1" timestamp="2022-07-02T06:06:57Z" changeset="123108184" uid="3497659" user="NKA">
		<tag k="name" v="Rottesnes" />
		<tag k="place" v="farm" />
		<tag k="ssr:stedsnr" v="1076749" />
	</node>
	<node id="9861731429" lat="68.6932473" lon="14.475086" version="1" timestamp="2022-07-02T06:06:57Z" changeset="123108184" uid="3497659" user="NKA">
		<tag k="name" v="Risvika" />
		<tag k="place" v="farm" />
		<tag k="ssr:stedsnr" v="567202" />
	</node>
	<node id="9861731430" lat="68.7608111" lon="14.7348889" version="1" timestamp="2022-07-02T06:06:57Z" changeset="123108184" uid="3497659" user="NKA">
		<tag k="name" v="Solbakken" />
		<tag k="place" v="locality" />
		<tag k="ssr:stedsnr" v="764536" />
	</node>
	<node id="9861731431" lat="68.8061179" lon="14.5569176" version="1" timestamp="2022-07-02T06:06:57Z" changeset="123108184" uid="3497659" user="NKA">
		<tag k="name" v="Malnes" />
		<tag k="place" v="hamlet" />
		<tag k="ssr:stedsnr" v="200925" />
	</node>
	<node id="9861731432" lat="68.6636639" lon="14.4636249" version="1" timestamp="2022-07-02T06:06:57Z" changeset="123108184" uid="3497659" user="NKA">
		<tag k="name" v="Sarabakken" />
		<tag k="place" v="farm" />
		<tag k="ssr:stedsnr" v="642562" />
	</node>
	<node id="9861731433" lat="68.7062639" lon="14.6766111" version="1" timestamp="2022-07-02T06:06:57Z" changeset="123108184" uid="3497659" user="NKA">
		<tag k="name" v="Hundnes" />
		<tag k="place" v="farm" />
		<tag k="ssr:stedsnr" v="261303" />
	</node>
	<node id="9861731434" lat="68.7949084" lon="14.697286" version="1" timestamp="2022-07-02T06:06:57Z" changeset="123108184" uid="3497659" user="NKA">
		<tag k="alt_name" v="Andsletten" />
		<tag k="name" v="Andsletta" />
		<tag k="place" v="farm" />
		<tag k="ssr:stedsnr" v="18965" />
	</node>
	<node id="9861731435" lat="68.7972695" lon="14.641075" version="1" timestamp="2022-07-02T06:06:57Z" changeset="123108184" uid="3497659" user="NKA">
		<tag k="loc_name" v="Restoften" />
		<tag k="name" v="Restofta" />
		<tag k="place" v="farm" />
		<tag k="ssr:stedsnr" v="200922" />
	</node>
</osm>
