<?xml version="1.0" encoding="UTF-8"?>
<<<<<<< HEAD
<osm version="0.6" generator="osmapis">
	<node lat="68.25431111285609" lon="14.047919450977506" id="-10558">
		<tag k="name" v="Langøyra" />
		<tag k="place" v="locality" />
		<tag k="ssr:stedsnr" v="16134" />
	</node>
	<node lat="68.06523888782695" lon="13.534083344084744" id="-10577">
		<tag k="name" v="Spannsteinen" />
		<tag k="natural" v="stone" />
		<tag k="ssr:stedsnr" v="17733" />
	</node>
	<node lat="68.15874444027338" lon="13.57768611305048" id="-10594">
		<tag k="historic" v="shieling" />
		<tag k="name" v="Melkeplassen" />
		<tag k="place" v="locality" />
		<tag k="ssr:stedsnr" v="21091" />
	</node>
	<node lat="68.151963885777" lon="13.587641668782828" id="-10595">
		<tag k="name" v="Hallviksteinen" />
		<tag k="natural" v="stone" />
		<tag k="ssr:stedsnr" v="21094" />
	</node>
	<node lat="68.17439166806749" lon="13.572530544621845" id="-10619">
		<tag k="name" v="Finnsteinan" />
		<tag k="natural" v="stone" />
		<tag k="ssr:stedsnr" v="22383" />
	</node>
	<node lat="68.2111138853771" lon="13.91491943231969" id="-10635">
		<tag k="name" v="Binnlivollen" />
=======
<osm generator="osmapis" version="0.6">
	<node id="-190463" lat="68.1614972234" lon="13.6962250003">
		<tag k="name" v="Koven" />
		<tag k="place" v="locality" />
		<tag k="ssr:stedsnr" v="87524" />
	</node>
	<node id="-191485" lat="68.16053611" lon="13.4894805537">
		<tag k="name" v="Storsteinan" />
		<tag k="natural" v="stone" />
		<tag k="ssr:stedsnr" v="623962" />
	</node>
	<node id="-189435" lat="68.2222222204" lon="14.0679972243">
		<tag k="name" v="Tindmyran" />
		<tag k="natural" v="wetland" />
		<tag k="ssr:stedsnr" v="480781" />
	</node>
	<node id="-191992" lat="68.2589361091" lon="14.0163194423">
		<tag k="name" v="Klubbøyra" />
		<tag k="place" v="locality" />
		<tag k="ssr:stedsnr" v="871752" />
	</node>
	<node id="-188918" lat="68.2285805589" lon="13.8553527678">
		<tag k="name" v="Marthaura" />
		<tag k="natural" v="scree" />
		<tag k="ssr:stedsnr" v="298131" />
	</node>
	<node id="-191401" lat="68.3090527809" lon="13.9560666581">
		<tag k="name" v="Skjåura" />
>>>>>>> e1d4bc35ff8a6074a6f2e91616a996b547c36f15
		<tag k="natural" v="scree" />
		<tag k="ssr:stedsnr" v="237060" />
	</node>
<<<<<<< HEAD
	<node lat="68.29922500107261" lon="13.97537222732796" id="-10652">
		<tag k="name" v="Revsteinan" />
		<tag k="natural" v="scree" />
		<tag k="ssr:stedsnr" v="238133" />
	</node>
	<node lat="68.3164861083341" lon="13.931761117565925" id="-10682">
		<tag k="name" v="Lillejorda" />
		<tag k="place" v="locality" />
		<tag k="ssr:stedsnr" v="56110" />
	</node>
	<node lat="68.236569440585" lon="13.879752770217545" id="-10688">
		<tag k="name" v="Dalskogen" />
		<tag k="place" v="locality" />
		<tag k="ssr:stedsnr" v="56098" />
	</node>
	<node lat="68.3186305582264" lon="13.99393056216461" id="-10698">
		<tag k="name" v="Revsteinan" />
		<tag k="natural" v="scree" />
		<tag k="ssr:stedsnr" v="56985" />
	</node>
	<node lat="68.29851666853794" lon="13.713169447962933" id="-10744">
		<tag k="name" v="Ølkonna" />
		<tag k="natural" v="stone" />
		<tag k="ssr:stedsnr" v="86585" />
	</node>
	<node lat="68.1614972233626" lon="13.696225000342643" id="-10746">
		<tag k="name" v="Koven" />
		<tag k="place" v="locality" />
		<tag k="ssr:stedsnr" v="87524" />
	</node>
	<node lat="68.2033416625607" lon="13.879350005454045" id="-10764">
		<tag k="name" v="Skjellmyra" />
		<tag k="natural" v="wetland" />
		<tag k="ssr:stedsnr" v="116424" />
	</node>
	<node lat="68.25083333184536" lon="13.73113055138637" id="-10775">
		<tag k="name" v="Presthagen" />
		<tag k="place" v="locality" />
		<tag k="ssr:stedsnr" v="137927" />
	</node>
	<node lat="68.28245833431093" lon="13.831097213905622" id="-10783">
		<tag k="name" v="Kallhaugmyra" />
		<tag k="natural" v="wetland" />
		<tag k="ssr:stedsnr" v="138217" />
	</node>
	<node lat="68.22685000386412" lon="13.76842777937496" id="-10786">
		<tag k="name" v="Trettmyra" />
		<tag k="natural" v="wetland" />
		<tag k="ssr:stedsnr" v="138108" />
	</node>
	<node lat="68.24771388515087" lon="13.864108332957118" id="-10788">
		<tag k="name" v="Borgfjordmyran" />
		<tag k="natural" v="wetland" />
		<tag k="ssr:stedsnr" v="138501" />
	</node>
	<node lat="68.18663055226664" lon="13.66984167246552" id="-10808">
		<tag k="name" v="Storura" />
		<tag k="natural" v="scree" />
		<tag k="ssr:stedsnr" v="142384" />
	</node>
	<node lat="68.11489999739565" lon="13.574797222899857" id="-10819">
		<tag k="name" v="Kleppen" />
		<tag k="place" v="locality" />
		<tag k="ssr:stedsnr" v="146205" />
	</node>
	<node lat="68.11279166769336" lon="13.549702779501805" id="-10820">
		<tag k="name" v="Stormyra" />
		<tag k="natural" v="wetland" />
		<tag k="ssr:stedsnr" v="146211" />
	</node>
	<node lat="68.30431111463946" lon="13.990052772367433" id="-10857">
		<tag k="name" v="Blåura" />
		<tag k="natural" v="scree" />
		<tag k="ssr:stedsnr" v="260025" />
	</node>
	<node lat="68.12180000059915" lon="13.652041673282914" id="-10994">
		<tag k="name" v="Bergsmyra" />
		<tag k="natural" v="wetland" />
		<tag k="ssr:stedsnr" v="203447" />
	</node>
	<node lat="68.30350555798704" lon="13.69297222383708" id="-11007">
		<tag k="name" v="Kroken" />
		<tag k="place" v="locality" />
		<tag k="ssr:stedsnr" v="208593" />
	</node>
	<node lat="68.21054722424678" lon="13.589988879057785" id="-11019">
		<tag k="name" v="Skogen" />
		<tag k="place" v="locality" />
		<tag k="ssr:stedsnr" v="221721" />
	</node>
	<node lat="68.30331944574262" lon="13.701836107604976" id="-11037">
		<tag k="name" v="Høgsteinen" />
		<tag k="natural" v="stone" />
		<tag k="ssr:stedsnr" v="450599" />
	</node>
	<node lat="68.20826388904757" lon="13.90037777442336" id="-11043">
		<tag k="name" v="Kongsjordmarka" />
		<tag k="place" v="locality" />
		<tag k="ssr:stedsnr" v="238029" />
	</node>
	<node lat="68.11906944779192" lon="13.653888890002138" id="-11108">
		<tag k="name" v="Vollen" />
		<tag k="place" v="locality" />
		<tag k="ssr:stedsnr" v="270497" />
	</node>
	<node lat="68.2285805589357" lon="13.855352767795265" id="-11127">
		<tag k="name" v="Marthaura" />
		<tag k="natural" v="scree" />
		<tag k="ssr:stedsnr" v="298131" />
	</node>
	<node lat="68.11724444221203" lon="13.495855546360428" id="-11139">
		<tag k="name" v="Ringåsmyra" />
		<tag k="natural" v="wetland" />
		<tag k="ssr:stedsnr" v="466277" />
	</node>
	<node lat="68.28122222559708" lon="13.729636101435966" id="-11143">
		<tag k="name" v="Straumøyra" />
		<tag k="place" v="locality" />
		<tag k="ssr:stedsnr" v="466527" />
	</node>
	<node lat="68.22701666338625" lon="13.774105558432959" id="-11150">
		<tag k="name" v="Svartmola" />
=======
	<node id="-188916" lat="68.2423944404" lon="13.8722138909">
		<tag k="name" v="Nordskogen" />
		<tag k="place" v="locality" />
		<tag k="ssr:stedsnr" v="298123" />
	</node>
	<node id="-188912" lat="68.2244416628" lon="13.9469499953">
		<tag k="name" v="Skjåmarka" />
		<tag k="place" v="locality" />
		<tag k="ssr:stedsnr" v="298064" />
	</node>
	<node id="-188910" lat="68.2067388854" lon="13.8474166618">
		<tag k="name" v="Momarka" />
		<tag k="place" v="locality" />
		<tag k="ssr:stedsnr" v="298026" />
	</node>
	<node id="-190973" lat="68.306105552" lon="13.6899722151">
		<tag k="name" v="Mikkelstellet" />
		<tag k="natural" v="stone" />
		<tag k="ssr:stedsnr" v="330669" />
	</node>
	<node id="-189418" lat="68.1172444422" lon="13.4958555464">
		<tag k="name" v="Ringåsmyra" />
		<tag k="natural" v="wetland" />
		<tag k="ssr:stedsnr" v="466277" />
	</node>
	<node id="-190440" lat="68.2208055537" lon="13.7525194493">
		<tag k="name" v="Nubbdalsmyra" />
		<tag k="natural" v="wetland" />
		<tag k="ssr:stedsnr" v="82451" />
	</node>
	<node id="-188902" lat="68.2404444433" lon="13.7622777858">
		<tag k="name" v="Høllimyran" />
		<tag k="natural" v="wetland" />
		<tag k="ssr:stedsnr" v="203467" />
	</node>
	<node id="-190949" lat="68.2884166634" lon="13.9348944469">
		<tag k="landuse" v="meadow" />
		<tag k="name" v="Skredvollen" />
		<tag k="ssr:stedsnr" v="324813" />
	</node>
	<node id="-189412" lat="68.3282055563" lon="13.9989416657">
		<tag k="landuse" v="meadow" />
		<tag k="name" v="Hopenenga" />
		<tag k="ssr:stedsnr" v="662985" />
	</node>
	<node id="-191971" lat="68.1843444449" lon="13.6201277806">
		<tag k="name" v="Rødsandmyra" />
		<tag k="natural" v="wetland" />
		<tag k="ssr:stedsnr" v="867914" />
	</node>
	<node id="-188923" lat="68.3341499992" lon="13.9221222155">
		<tag k="name" v="Huldersteinen" />
		<tag k="natural" v="stone" />
		<tag k="ssr:stedsnr" v="298215" />
	</node>
	<node id="-191452" lat="68.1441250018" lon="13.8118416627">
		<tag k="name" v="Hellmyran" />
		<tag k="natural" v="wetland" />
		<tag k="ssr:stedsnr" v="623792" />
	</node>
	<node id="-189910" lat="68.2279555543" lon="13.6237833382">
		<tag k="name" v="Sløkjeura" />
		<tag k="natural" v="scree" />
		<tag k="ssr:stedsnr" v="767735" />
	</node>
	<node id="-189736" lat="68.2082916653" lon="13.5842111148">
		<tag k="name" v="Stormyra" />
		<tag k="natural" v="wetland" />
		<tag k="ssr:stedsnr" v="646721" />
	</node>
	<node id="-191054" lat="68.2966888866" lon="13.8946888945">
		<tag k="name" v="Ellstadmyran" />
		<tag k="natural" v="wetland" />
		<tag k="ssr:stedsnr" v="381047" />
	</node>
	<node id="-190456" lat="68.0841222233" lon="13.5281305675">
		<tag k="name" v="Auna" />
		<tag k="place" v="locality" />
		<tag k="ssr:stedsnr" v="85122" />
	</node>
	<node id="-189821" lat="68.2066249981" lon="13.9049694412">
		<tag k="name" v="Bakkmarka" />
		<tag k="place" v="locality" />
		<tag k="ssr:stedsnr" v="723035" />
	</node>
	<node id="-189378" lat="68.1055111111" lon="13.5308638929">
		<tag k="name" v="Skoren" />
		<tag k="place" v="locality" />
		<tag k="ssr:stedsnr" v="450214" />
	</node>
	<node id="-189365" lat="68.1262861125" lon="13.4906416595">
		<tag k="name" v="Nonssteinan" />
		<tag k="natural" v="stone" />
		<tag k="ssr:stedsnr" v="446011" />
	</node>
	<node id="-189971" lat="68.2544194425" lon="13.5448499927">
		<tag k="name" v="Storura" />
		<tag k="natural" v="scree" />
		<tag k="ssr:stedsnr" v="805957" />
	</node>
	<node id="-190893" lat="68.1315722258" lon="13.6141027732">
		<tag k="name" v="Jomyra" />
		<tag k="natural" v="wetland" />
		<tag k="ssr:stedsnr" v="320765" />
	</node>
	<node id="-189868" lat="68.3397194426" lon="13.9602194453">
		<tag k="name" v="Storura" />
		<tag k="natural" v="scree" />
		<tag k="ssr:stedsnr" v="906142" />
	</node>
	<node id="-190377" lat="68.2314305515" lon="13.7184305627">
		<tag k="name" v="Vestermarka" />
		<tag k="place" v="locality" />
		<tag k="ssr:stedsnr" v="78088" />
	</node>
	<node id="-189863" lat="68.271855552" lon="14.0846611219">
		<tag k="name" v="Storsteinen" />
		<tag k="natural" v="stone" />
		<tag k="ssr:stedsnr" v="905998" />
	</node>
	<node id="-188837" lat="68.2202305582" lon="13.5333972307">
		<tag k="name" v="Pussesteinen" />
		<tag k="natural" v="stone" />
		<tag k="ssr:stedsnr" v="282745" />
	</node>
	<node id="-189858" lat="68.2150194443" lon="14.0439250039">
		<tag k="name" v="Bjørnsteinan" />
		<tag k="natural" v="stone" />
		<tag k="ssr:stedsnr" v="905797" />
	</node>
	<node id="-191387" lat="68.2331055512" lon="13.8363250065">
		<tag k="name" v="Skjellura" />
		<tag k="natural" v="scree" />
		<tag k="ssr:stedsnr" v="601105" />
	</node>
	<node id="-189850" lat="68.2136277736" lon="13.9005055604">
		<tag k="name" v="Nypan" />
		<tag k="natural" v="wetland" />
		<tag k="ssr:stedsnr" v="905048" />
	</node>
	<node id="-191385" lat="68.184022221" lon="13.8572861084">
		<tag k="name" v="Stormyra" />
>>>>>>> e1d4bc35ff8a6074a6f2e91616a996b547c36f15
		<tag k="natural" v="wetland" />
		<tag k="ssr:stedsnr" v="601075" />
	</node>
<<<<<<< HEAD
	<node lat="68.21404166363209" lon="13.776272221269815" id="-11154">
		<tag k="name" v="Stormyra" />
		<tag k="natural" v="wetland" />
		<tag k="ssr:stedsnr" v="320116" />
	</node>
	<node lat="68.20208610829081" lon="13.871397228362467" id="-11170">
		<tag k="name" v="Biskopsjordmarka" />
		<tag k="place" v="locality" />
		<tag k="ssr:stedsnr" v="320457" />
	</node>
	<node lat="68.20143889103562" lon="13.537558329273903" id="-11215">
		<tag k="name" v="Kløvningsteinen" />
		<tag k="natural" v="stone" />
		<tag k="ssr:stedsnr" v="325377" />
	</node>
	<node lat="68.25634166548129" lon="13.572794432462162" id="-11230">
		<tag k="name" v="Dynan" />
		<tag k="natural" v="stone" />
		<tag k="ssr:stedsnr" v="342743" />
	</node>
	<node lat="68.22222222043632" lon="14.067997224303525" id="-11278">
		<tag k="name" v="Tindmyran" />
		<tag k="natural" v="wetland" />
		<tag k="ssr:stedsnr" v="480781" />
	</node>
	<node lat="68.13378888874165" lon="13.70503611142995" id="-11292">
		<tag k="alt_name" v="Tindjorda" />
		<tag k="name" v="Tindsjorda" />
		<tag k="place" v="locality" />
		<tag k="ssr:stedsnr" v="380769" />
	</node>
	<node lat="68.17925000295706" lon="13.622363877662545" id="-11313">
		<tag k="name" v="Pottan" />
		<tag k="natural" v="wetland" />
		<tag k="ssr:stedsnr" v="381903" />
	</node>
	<node lat="68.18548332928238" lon="13.662513887336328" id="-11324">
		<tag k="name" v="Litlura" />
		<tag k="natural" v="scree" />
		<tag k="ssr:stedsnr" v="385394" />
	</node>
	<node lat="68.24301111518655" lon="13.568958342121235" id="-11346">
		<tag k="name" v="Jorda" />
		<tag k="place" v="locality" />
		<tag k="ssr:stedsnr" v="403134" />
	</node>
	<node lat="68.19442222583957" lon="13.723802766474423" id="-11351">
		<tag k="name" v="Piksteinen" />
		<tag k="natural" v="stone" />
		<tag k="ssr:stedsnr" v="405914" />
	</node>
	<node lat="68.30189166409916" lon="13.857177780188042" id="-11383">
		<tag k="name" v="Valmyran" />
		<tag k="natural" v="wetland" />
		<tag k="ssr:stedsnr" v="442008" />
	</node>
	<node lat="68.2056111096568" lon="13.634649988490079" id="-11415">
		<tag k="name" v="Ruta" />
		<tag k="natural" v="stone" />
		<tag k="ssr:stedsnr" v="446400" />
	</node>
	<node lat="68.15526110992998" lon="13.82426111805998" id="-11423">
		<tag k="name" v="Myklevikmarka" />
		<tag k="place" v="locality" />
		<tag k="ssr:stedsnr" v="447275" />
	</node>
	<node lat="68.1055111110704" lon="13.530863892937996" id="-11425">
		<tag k="name" v="Skoren" />
		<tag k="place" v="locality" />
		<tag k="ssr:stedsnr" v="450214" />
	</node>
	<node lat="68.21292778233163" lon="13.872433329711264" id="-11441">
		<tag k="name" v="Abelslåtta" />
		<tag k="place" v="locality" />
		<tag k="ssr:stedsnr" v="480023" />
	</node>
	<node lat="68.23821388827461" lon="13.843533322846495" id="-11475">
		<tag k="name" v="Limyran" />
		<tag k="natural" v="wetland" />
		<tag k="ssr:stedsnr" v="502604" />
	</node>
	<node lat="68.12435832976266" lon="13.521338893553404" id="-11488">
		<tag k="name" v="Legdmyran" />
		<tag k="natural" v="wetland" />
		<tag k="ssr:stedsnr" v="502775" />
	</node>
	<node lat="68.19708333669901" lon="13.73489723492678" id="-11494">
		<tag k="name" v="Rognura" />
		<tag k="natural" v="scree" />
		<tag k="ssr:stedsnr" v="502905" />
	</node>
	<node lat="68.29720833744675" lon="13.709797227405494" id="-11528">
		<tag k="name" v="Finnhellaren" />
		<tag k="natural" v="stone" />
		<tag k="ssr:stedsnr" v="512673" />
	</node>
	<node lat="68.20410278071823" lon="14.031588888320119" id="-11546">
		<tag k="name" v="Dalsmyran" />
		<tag k="natural" v="wetland" />
		<tag k="ssr:stedsnr" v="684450" />
	</node>
	<node lat="68.20186666730471" lon="13.94591666755324" id="-11549">
		<tag k="name" v="Ånesan" />
		<tag k="natural" v="wetland" />
		<tag k="ssr:stedsnr" v="684445" />
	</node>
	<node lat="68.24651666309109" lon="13.547941659351572" id="-11583">
		<tag k="name" v="Storura" />
		<tag k="natural" v="scree" />
		<tag k="ssr:stedsnr" v="524112" />
	</node>
	<node lat="68.20819999859219" lon="13.886788890423022" id="-11599">
		<tag k="landuse" v="meadow" />
		<tag k="name" v="Toftan" />
		<tag k="ssr:stedsnr" v="541037" />
	</node>
	<node lat="68.20620277440982" lon="13.884811111837738" id="-11600">
		<tag k="landuse" v="meadow" />
		<tag k="name" v="Elvteigen" />
		<tag k="ssr:stedsnr" v="541038" />
	</node>
	<node lat="68.20935833436882" lon="13.865922222069814" id="-11601">
		<tag k="name" v="Storura" />
		<tag k="natural" v="scree" />
		<tag k="ssr:stedsnr" v="541043" />
	</node>
	<node lat="68.13873888607553" lon="13.57958889788771" id="-11613">
		<tag k="name" v="Rønsvollmyra" />
		<tag k="natural" v="wetland" />
		<tag k="ssr:stedsnr" v="688062" />
	</node>
	<node lat="68.12603611531361" lon="13.686669437980813" id="-11659">
		<tag k="name" v="Kvannta" />
		<tag k="place" v="locality" />
		<tag k="ssr:stedsnr" v="694542" />
	</node>
	<node lat="68.23310555124891" lon="13.836325006465179" id="-11672">
		<tag k="name" v="Skjellura" />
		<tag k="natural" v="scree" />
		<tag k="ssr:stedsnr" v="601105" />
	</node>
	<node lat="68.16053611002262" lon="13.48948055370503" id="-11723">
		<tag k="name" v="Storsteinan" />
		<tag k="natural" v="stone" />
		<tag k="ssr:stedsnr" v="623962" />
	</node>
	<node lat="68.20531111549066" lon="13.629263886399587" id="-11736">
		<tag k="name" v="Loftsteinen" />
		<tag k="natural" v="stone" />
		<tag k="ssr:stedsnr" v="627400" />
	</node>
	<node lat="68.208291665337" lon="13.584211114831454" id="-11750">
		<tag k="name" v="Stormyra" />
		<tag k="natural" v="wetland" />
		<tag k="ssr:stedsnr" v="646721" />
	</node>
	<node lat="68.21150555922661" lon="13.525963891773328" id="-11762">
		<tag k="name" v="Heststeinan" />
		<tag k="natural" v="stone" />
		<tag k="ssr:stedsnr" v="707756" />
	</node>
	<node lat="68.2200722213218" lon="13.523722221004501" id="-11768">
		<tag k="name" v="Loftsteinen" />
		<tag k="natural" v="stone" />
		<tag k="ssr:stedsnr" v="708183" />
	</node>
	<node lat="68.21696110968249" lon="13.816472220331795" id="-11773">
		<tag k="name" v="Vesteinen" />
		<tag k="natural" v="stone" />
		<tag k="ssr:stedsnr" v="708978" />
	</node>
	<node lat="68.32820555627339" lon="13.998941665695002" id="-11795">
		<tag k="landuse" v="meadow" />
		<tag k="name" v="Hopenenga" />
		<tag k="ssr:stedsnr" v="662985" />
	</node>
	<node lat="68.13711944845043" lon="13.573961100731808" id="-11847">
		<tag k="name" v="Vassteinen" />
		<tag k="natural" v="stone" />
		<tag k="ssr:stedsnr" v="688425" />
	</node>
	<node lat="68.30063611316541" lon="13.857919433855693" id="-11852">
		<tag k="name" v="Hauklandsmyran" />
		<tag k="natural" v="wetland" />
		<tag k="ssr:stedsnr" v="688846" />
	</node>
	<node lat="68.19414444805552" lon="13.846119442006648" id="-11890">
		<tag k="name" v="Greisjorda" />
		<tag k="place" v="locality" />
		<tag k="ssr:stedsnr" v="723410" />
	</node>
	<node lat="68.24433055221866" lon="14.052830551125362" id="-11892">
		<tag k="name" v="Stormyra" />
		<tag k="natural" v="wetland" />
		<tag k="ssr:stedsnr" v="723814" />
	</node>
	<node lat="68.14608055776678" lon="13.789519444591903" id="-11927">
		<tag k="name" v="Gongskarmyra" />
=======
	<node id="-189334" lat="68.1944222258" lon="13.7238027665">
		<tag k="name" v="Piksteinen" />
		<tag k="natural" v="stone" />
		<tag k="ssr:stedsnr" v="405914" />
	</node>
	<node id="-188819" lat="68.1127916677" lon="13.5497027795">
		<tag k="name" v="Stormyra" />
		<tag k="natural" v="wetland" />
		<tag k="ssr:stedsnr" v="146211" />
	</node>
	<node id="-188818" lat="68.1148999974" lon="13.5747972229">
		<tag k="name" v="Kleppen" />
		<tag k="place" v="locality" />
		<tag k="ssr:stedsnr" v="146205" />
	</node>
	<node id="-190865" lat="68.2020861083" lon="13.8713972284">
		<tag k="name" v="Biskopsjordmarka" />
		<tag k="place" v="locality" />
		<tag k="ssr:stedsnr" v="320457" />
	</node>
	<node id="-190957" lat="68.201438891" lon="13.5375583293">
		<tag k="name" v="Kløvningsteinen" />
		<tag k="natural" v="stone" />
		<tag k="ssr:stedsnr" v="325377" />
	</node>
	<node id="-189833" lat="68.2443305522" lon="14.0528305511">
		<tag k="name" v="Stormyra" />
		<tag k="natural" v="wetland" />
		<tag k="ssr:stedsnr" v="723814" />
	</node>
	<node id="-190855" lat="68.2140416636" lon="13.7762722213">
		<tag k="name" v="Stormyra" />
		<tag k="natural" v="wetland" />
		<tag k="ssr:stedsnr" v="320116" />
	</node>
	<node id="-190342" lat="68.3186305582" lon="13.9939305622">
		<tag k="name" v="Revsteinan" />
		<tag k="natural" v="scree" />
		<tag k="ssr:stedsnr" v="56985" />
	</node>
	<node id="-189828" lat="68.1941444481" lon="13.846119442">
		<tag k="name" v="Greisjorda" />
		<tag k="place" v="locality" />
		<tag k="ssr:stedsnr" v="723410" />
	</node>
	<node id="-188803" lat="68.2824583343" lon="13.8310972139">
		<tag k="name" v="Kallhaugmyra" />
		<tag k="natural" v="wetland" />
		<tag k="ssr:stedsnr" v="138217" />
	</node>
	<node id="-189825" lat="68.2034916671" lon="14.0424027881">
		<tag k="name" v="Gåsspaumyra" />
		<tag k="natural" v="wetland" />
		<tag k="ssr:stedsnr" v="723175" />
	</node>
	<node id="-190335" lat="68.20460278" lon="13.9055722162">
		<tag k="name" v="Bakkmarka" />
		<tag k="place" v="locality" />
		<tag k="ssr:stedsnr" v="56446" />
	</node>
	<node id="-190845" lat="68.2834333371" lon="13.8432555498">
		<tag k="alt_name" v="Hynnmyra" />
		<tag k="name" v="Hyrnmyra" />
		<tag k="natural" v="wetland" />
		<tag k="ssr:stedsnr" v="320042" />
	</node>
	<node id="-191356" lat="68.2948583308" lon="13.7161666777">
		<tag k="name" v="Resteinen" />
		<tag k="natural" v="stone" />
		<tag k="ssr:stedsnr" v="571575" />
	</node>
	<node id="-190326" lat="68.3445333342" lon="13.9438749882">
		<tag k="name" v="Nevsteinen" />
		<tag k="natural" v="stone" />
		<tag k="ssr:stedsnr" v="56132" />
	</node>
	<node id="-189301" lat="68.2551249976" lon="13.7302000115">
		<tag k="name" v="Trælvollsmyran" />
		<tag k="natural" v="wetland" />
		<tag k="ssr:stedsnr" v="390553" />
	</node>
	<node id="-190324" lat="68.3164861083" lon="13.9317611176">
		<tag k="name" v="Lillejorda" />
		<tag k="place" v="locality" />
		<tag k="ssr:stedsnr" v="56110" />
	</node>
	<node id="-190833" lat="68.303505558" lon="13.6929722238">
		<tag k="name" v="Kroken" />
		<tag k="place" v="locality" />
		<tag k="ssr:stedsnr" v="208593" />
	</node>
	<node id="-189928" lat="68.2134166711" lon="13.7622499988">
		<tag k="name" v="Kringelskogen" />
		<tag k="place" v="locality" />
		<tag k="ssr:stedsnr" v="927121" />
	</node>
	<node id="-191339" lat="68.1885611103" lon="13.5298361147">
		<tag k="name" v="Vågasteinan" />
		<tag k="natural" v="stone" />
		<tag k="ssr:stedsnr" v="567354" />
	</node>
	<node id="-188522" lat="68.2271555547" lon="13.8042749998">
		<tag k="name" v="Lillekvantmyra" />
		<tag k="natural" v="wetland" />
		<tag k="ssr:stedsnr" v="223999" />
	</node>
	<node id="-189289" lat="68.1988750042" lon="13.6393999944">
		<tag k="name" v="Middagsmyra" />
		<tag k="natural" v="wetland" />
		<tag k="ssr:stedsnr" v="385384" />
	</node>
	<node id="-188817" lat="68.1190694478" lon="13.65388889">
		<tag k="name" v="Vollen" />
		<tag k="place" v="locality" />
		<tag k="ssr:stedsnr" v="270497" />
	</node>
	<node id="-189796" lat="68.2225027771" lon="13.5359833445">
		<tag k="name" v="Loftsteinen" />
		<tag k="natural" v="stone" />
		<tag k="ssr:stedsnr" v="889762" />
	</node>
	<node id="-190815" lat="68.2168666686" lon="13.6999777729">
		<tag k="name" v="Vassmyran" />
		<tag k="natural" v="wetland" />
		<tag k="ssr:stedsnr" v="203477" />
	</node>
	<node id="-190812" lat="68.1218000006" lon="13.6520416733">
		<tag k="name" v="Bergsmyra" />
		<tag k="natural" v="wetland" />
		<tag k="ssr:stedsnr" v="203447" />
	</node>
	<node id="-190810" lat="68.1693638854" lon="13.5926888842">
		<tag k="name" v="Kalvnesmyra" />
>>>>>>> e1d4bc35ff8a6074a6f2e91616a996b547c36f15
		<tag k="natural" v="wetland" />
		<tag k="ssr:stedsnr" v="203432" />
	</node>
<<<<<<< HEAD
	<node lat="68.305086108269" lon="13.694894434582146" id="-11967">
		<tag k="name" v="Grovan" />
		<tag k="place" v="locality" />
		<tag k="ssr:stedsnr" v="754615" />
	</node>
	<node lat="68.21501944430814" lon="14.043925003884166" id="-11984">
		<tag k="name" v="Bjørnsteinan" />
		<tag k="natural" v="stone" />
		<tag k="ssr:stedsnr" v="905797" />
	</node>
	<node lat="68.27185555201797" lon="14.084661121934852" id="-11989">
		<tag k="name" v="Storsteinen" />
		<tag k="natural" v="stone" />
		<tag k="ssr:stedsnr" v="905998" />
	</node>
	<node lat="68.3397194425602" lon="13.960219445297264" id="-11993">
		<tag k="name" v="Storura" />
		<tag k="natural" v="scree" />
		<tag k="ssr:stedsnr" v="906142" />
	</node>
	<node lat="68.3054388903345" lon="13.694319453430147" id="-12053">
		<tag k="name" v="Melan" />
		<tag k="place" v="locality" />
		<tag k="ssr:stedsnr" v="815581" />
	</node>
	<node lat="68.21029722472848" lon="13.849916664878656" id="-12077">
		<tag k="name" v="Steinbakkmarka" />
		<tag k="place" v="locality" />
		<tag k="ssr:stedsnr" v="845024" />
	</node>
	<node lat="68.17660833662605" lon="13.544358337748188" id="-12125">
		<tag k="name" v="Hesthagan" />
		<tag k="place" v="locality" />
		<tag k="ssr:stedsnr" v="927899" />
	</node>
	<node lat="68.11936111374784" lon="13.652524993095998" id="-12133">
		<tag k="name" v="Myra" />
		<tag k="natural" v="wetland" />
		<tag k="ssr:stedsnr" v="870104" />
	</node>
	<node lat="68.20532222458581" lon="13.568975007031923" id="-12154">
		<tag k="name" v="Solstad" />
		<tag k="place" v="locality" />
		<tag k="ssr:stedsnr" v="931461" />
	</node>
	<node lat="68.21693888761894" lon="13.712722230073068" id="-12156">
		<tag k="name" v="Lomtjønnmyra" />
		<tag k="natural" v="wetland" />
		<tag k="ssr:stedsnr" v="931477" />
	</node>
	<node lat="68.21887500199428" lon="13.70607776722146" id="-12157">
		<tag k="name" v="Sædingsøra" />
		<tag k="place" v="locality" />
		<tag k="ssr:stedsnr" v="931487" />
	</node>
	<node lat="68.21362777360059" lon="13.900505560371052" id="-12186">
		<tag k="name" v="Nypan" />
		<tag k="natural" v="wetland" />
		<tag k="ssr:stedsnr" v="905048" />
	</node>
	<node lat="68.26275277930567" lon="13.848027774442624" id="-12193">
		<tag k="name" v="Kovmyra" />
		<tag k="natural" v="wetland" />
		<tag k="ssr:stedsnr" v="905211" />
	</node>
	<node lat="68.21341667105064" lon="13.762249998796355" id="-12206">
		<tag k="name" v="Kringelskogen" />
		<tag k="place" v="locality" />
		<tag k="ssr:stedsnr" v="927121" />
	</node>
	<node lat="68.09664444655073" lon="13.561863885866625" id="-12260">
		<tag k="name" v="Resmålskogan" />
		<tag k="place" v="locality" />
		<tag k="ssr:stedsnr" v="936118" />
	</node>
	<node lat="68.2161527812814" lon="13.538947211419336" id="-12268">
		<tag k="name" v="Kjerksteinen" />
		<tag k="natural" v="stone" />
		<tag k="ssr:stedsnr" v="949736" />
	</node>
	<node lat="68.31578333545434" lon="13.883261117627537" id="-12281">
		<tag k="name" v="Sandmyran" />
		<tag k="natural" v="wetland" />
		<tag k="ssr:stedsnr" v="17117" />
	</node>
	<node lat="68.17794167030695" lon="13.502922229713636" id="-12347">
		<tag k="name" v="Kreppelteigen" />
=======
	<node id="-188759" lat="68.2431611129" lon="14.0638083297">
		<tag k="name" v="Slåttkålen" />
		<tag k="place" v="locality" />
		<tag k="ssr:stedsnr" v="116844" />
	</node>
	<node id="-191827" lat="68.207722224" lon="13.5808416635">
		<tag k="name" v="Storesteinen" />
		<tag k="natural" v="stone" />
		<tag k="ssr:stedsnr" v="828726" />
	</node>
	<node id="-190947" lat="68.2299472211" lon="13.7806750104">
		<tag k="name" v="Stormyra" />
		<tag k="natural" v="wetland" />
		<tag k="ssr:stedsnr" v="324499" />
	</node>
	<node id="-188752" lat="68.2033416626" lon="13.8793500055">
		<tag k="name" v="Skjellmyra" />
		<tag k="natural" v="wetland" />
		<tag k="ssr:stedsnr" v="116424" />
	</node>
	<node id="-191815" lat="68.3054388903" lon="13.6943194534">
		<tag k="name" v="Melan" />
		<tag k="place" v="locality" />
		<tag k="ssr:stedsnr" v="815581" />
	</node>
	<node id="-190276" lat="68.0978583345" lon="13.5432722147">
		<tag k="name" v="Kopparløyken" />
		<tag k="place" v="locality" />
		<tag k="ssr:stedsnr" v="25153" />
	</node>
	<node id="-191299" lat="68.2303083297" lon="14.1129277778">
		<tag k="name" v="Malnesmyran" />
		<tag k="natural" v="wetland" />
		<tag k="ssr:stedsnr" v="563586" />
	</node>
	<node id="-190274" lat="68.2677777811" lon="13.928905556">
		<tag k="name" v="Damman" />
		<tag k="natural" v="wetland" />
		<tag k="ssr:stedsnr" v="22860" />
	</node>
	<node id="-190271" lat="68.1743916681" lon="13.5725305446">
		<tag k="name" v="Finnsteinan" />
		<tag k="natural" v="stone" />
		<tag k="ssr:stedsnr" v="22383" />
	</node>
	<node id="-188732" lat="68.1313555544" lon="13.7756416588">
		<tag k="historic" v="shieling" />
		<tag k="name" v="Gravvollan" />
		<tag k="place" v="locality" />
		<tag k="ssr:stedsnr" v="108610" />
	</node>
	<node id="-189237" lat="68.2382138883" lon="13.8435333228">
		<tag k="name" v="Limyran" />
		<tag k="natural" v="wetland" />
		<tag k="ssr:stedsnr" v="502604" />
	</node>
	<node id="-191793" lat="68.2191333309" lon="13.7343500017">
		<tag k="name" v="Potthaugmyra" />
		<tag k="natural" v="wetland" />
		<tag k="ssr:stedsnr" v="810457" />
	</node>
	<node id="-191280" lat="68.2319138856" lon="13.6306027851">
		<tag k="name" v="Osen" />
		<tag k="place" v="locality" />
		<tag k="ssr:stedsnr" v="563093" />
	</node>
	<node id="-190253" lat="68.2049777742" lon="13.6374361149">
		<tag k="name" v="Hellmosteinen" />
		<tag k="natural" v="stone" />
		<tag k="ssr:stedsnr" v="21399" />
	</node>
	<node id="-190249" lat="68.1519638858" lon="13.5876416688">
		<tag k="name" v="Hallviksteinen" />
		<tag k="natural" v="stone" />
		<tag k="ssr:stedsnr" v="21094" />
	</node>
	<node id="-190248" lat="68.1587444403" lon="13.5776861131">
		<tag k="historic" v="shieling" />
		<tag k="name" v="Melkeplassen" />
>>>>>>> e1d4bc35ff8a6074a6f2e91616a996b547c36f15
		<tag k="place" v="locality" />
		<tag k="ssr:stedsnr" v="21128" />
	</node>
<<<<<<< HEAD
	<node lat="68.20497777416946" lon="13.637436114939355" id="-12349">
		<tag k="name" v="Hellmosteinen" />
		<tag k="natural" v="stone" />
		<tag k="ssr:stedsnr" v="21399" />
	</node>
	<node lat="68.26777778111735" lon="13.928905555959776" id="-12373">
		<tag k="name" v="Damman" />
		<tag k="natural" v="wetland" />
		<tag k="ssr:stedsnr" v="22860" />
	</node>
	<node lat="68.09785833452123" lon="13.543272214713703" id="-12375">
		<tag k="name" v="Kopparløyken" />
		<tag k="place" v="locality" />
		<tag k="ssr:stedsnr" v="25153" />
	</node>
	<node lat="68.2104888918702" lon="13.528588898951412" id="-12389">
		<tag k="name" v="Økjesteinan" />
		<tag k="natural" v="stone" />
		<tag k="ssr:stedsnr" v="39698" />
	</node>
	<node lat="68.20460277997526" lon="13.905572216194823" id="-12409">
		<tag k="name" v="Bakkmarka" />
		<tag k="place" v="locality" />
		<tag k="ssr:stedsnr" v="56446" />
	</node>
	<node lat="68.344533334169" lon="13.943874988153075" id="-12418">
		<tag k="name" v="Nevsteinen" />
		<tag k="natural" v="stone" />
		<tag k="ssr:stedsnr" v="56132" />
	</node>
	<node lat="68.23143055154937" lon="13.718430562672411" id="-12445">
		<tag k="name" v="Vestermarka" />
		<tag k="place" v="locality" />
		<tag k="ssr:stedsnr" v="78088" />
	</node>
	<node lat="68.22080555372818" lon="13.752519449263245" id="-12497">
		<tag k="name" v="Nubbdalsmyra" />
		<tag k="natural" v="wetland" />
		<tag k="ssr:stedsnr" v="82451" />
	</node>
	<node lat="68.08412222329379" lon="13.5281305675495" id="-12515">
		<tag k="name" v="Auna" />
		<tag k="place" v="locality" />
		<tag k="ssr:stedsnr" v="85122" />
	</node>
	<node lat="68.21754444814385" lon="13.520986123063105" id="-12531">
		<tag k="landuse" v="meadow" />
		<tag k="name" v="Gullbakken" />
		<tag k="ssr:stedsnr" v="102192" />
	</node>
	<node lat="68.21787222389212" lon="13.524538879173992" id="-12532">
		<tag k="name" v="Vargsteinen" />
		<tag k="natural" v="stone" />
		<tag k="ssr:stedsnr" v="102193" />
	</node>
	<node lat="68.20951666386537" lon="13.49426944665369" id="-12533">
		<tag k="name" v="Stulura" />
=======
	<node id="-188708" lat="68.3043111146" lon="13.9900527724">
		<tag k="name" v="Blåura" />
		<tag k="natural" v="scree" />
		<tag k="ssr:stedsnr" v="260025" />
	</node>
	<node id="-191779" lat="68.2038083379" lon="13.6317944354">
		<tag k="name" v="Bjørksteinen" />
		<tag k="natural" v="stone" />
		<tag k="ssr:stedsnr" v="810368" />
	</node>
	<node id="-191778" lat="68.2040833299" lon="13.6401000105">
		<tag k="name" v="Klokksteinen" />
		<tag k="natural" v="stone" />
		<tag k="ssr:stedsnr" v="810367" />
	</node>
	<node id="-189726" lat="68.0987472244" lon="13.5599500041">
		<tag k="name" v="Kjølstad" />
		<tag k="place" v="locality" />
		<tag k="ssr:stedsnr" v="632158" />
	</node>
	<node id="-189724" lat="68.1149999986" lon="13.5561527752">
		<tag k="name" v="Klokkarjorda" />
		<tag k="place" v="locality" />
		<tag k="ssr:stedsnr" v="631203" />
	</node>
	<node id="-191253" lat="68.2455194444" lon="13.8701999998">
		<tag k="alt_name" v="Lauvdalsmyran" />
		<tag k="name" v="Løvdalsmyran" />
		<tag k="natural" v="wetland" />
		<tag k="ssr:stedsnr" v="562495" />
	</node>
	<node id="-189229" lat="68.1243583298" lon="13.5213388936">
		<tag k="name" v="Legdmyran" />
		<tag k="natural" v="wetland" />
		<tag k="ssr:stedsnr" v="502775" />
	</node>
	<node id="-189569" lat="68.1371194485" lon="13.5739611007">
		<tag k="name" v="Vassteinen" />
		<tag k="natural" v="stone" />
		<tag k="ssr:stedsnr" v="688425" />
	</node>
	<node id="-191303" lat="68.067438887" lon="13.5221833311">
		<tag k="historic" v="shieling" />
		<tag k="name" v="Sætra" />
		<tag k="place" v="locality" />
		<tag k="ssr:stedsnr" v="563725" />
	</node>
	<node id="-190201" lat="68.3157833355" lon="13.8832611176">
		<tag k="name" v="Sandmyran" />
		<tag k="natural" v="wetland" />
		<tag k="ssr:stedsnr" v="17117" />
	</node>
	<node id="-191222" lat="68.2922833344" lon="13.9270555454">
		<tag k="name" v="Garnes" />
		<tag k="place" v="locality" />
		<tag k="ssr:stedsnr" v="541135" />
	</node>
	<node id="-189054" lat="68.1552611099" lon="13.8242611181">
		<tag k="name" v="Myklevikmarka" />
		<tag k="place" v="locality" />
		<tag k="ssr:stedsnr" v="447275" />
	</node>
	<node id="-191215" lat="68.2093583344" lon="13.8659222221">
		<tag k="name" v="Storura" />
		<tag k="natural" v="scree" />
		<tag k="ssr:stedsnr" v="541043" />
	</node>
	<node id="-191214" lat="68.2062027744" lon="13.8848111118">
		<tag k="landuse" v="meadow" />
		<tag k="name" v="Elvteigen" />
		<tag k="ssr:stedsnr" v="541038" />
	</node>
	<node id="-191213" lat="68.2081999986" lon="13.8867888904">
		<tag k="landuse" v="meadow" />
		<tag k="name" v="Toftan" />
		<tag k="ssr:stedsnr" v="541037" />
	</node>
	<node id="-189820" lat="68.2338555563" lon="13.9807638894">
		<tag k="name" v="Slåttan" />
		<tag k="place" v="locality" />
		<tag k="ssr:stedsnr" v="723030" />
	</node>
	<node id="-190075" lat="68.306194446" lon="13.6559916748">
		<tag k="name" v="Utgardsmyra" />
		<tag k="natural" v="wetland" />
		<tag k="ssr:stedsnr" v="949848" />
	</node>
	<node id="-190461" lat="68.2985166685" lon="13.713169448">
		<tag k="name" v="Ølkonna" />
		<tag k="natural" v="stone" />
		<tag k="ssr:stedsnr" v="86585" />
	</node>
	<node id="-189149" lat="68.2129277823" lon="13.8724333297">
		<tag k="name" v="Abelslåtta" />
		<tag k="place" v="locality" />
		<tag k="ssr:stedsnr" v="480023" />
	</node>
	<node id="-191193" lat="68.2133861091" lon="13.7686750017">
		<tag k="name" v="Nuphaugmyra" />
		<tag k="natural" v="wetland" />
		<tag k="ssr:stedsnr" v="526979" />
	</node>
	<node id="-189656" lat="68.2169611097" lon="13.8164722203">
		<tag k="name" v="Vesteinen" />
		<tag k="natural" v="stone" />
		<tag k="ssr:stedsnr" v="708978" />
	</node>
	<node id="-189141" lat="68.1177305522" lon="13.7942472222">
		<tag k="name" v="Keipen" />
		<tag k="natural" v="stone" />
		<tag k="ssr:stedsnr" v="324323" />
	</node>
	<node id="-188626" lat="68.2992250011" lon="13.9753722273">
		<tag k="name" v="Revsteinan" />
>>>>>>> e1d4bc35ff8a6074a6f2e91616a996b547c36f15
		<tag k="natural" v="scree" />
		<tag k="ssr:stedsnr" v="238133" />
	</node>
<<<<<<< HEAD
	<node lat="68.21640555918643" lon="13.524030559388644" id="-12534">
		<tag k="name" v="Lauvdalssteinen" />
		<tag k="natural" v="stone" />
		<tag k="ssr:stedsnr" v="102195" />
	</node>
	<node lat="68.1313555544412" lon="13.775641658816783" id="-12541">
		<tag k="historic" v="shieling" />
		<tag k="name" v="Gravvollan" />
		<tag k="place" v="locality" />
		<tag k="ssr:stedsnr" v="108610" />
	</node>
	<node lat="68.21069721800927" lon="13.888791659549243" id="-12555">
		<tag k="name" v="Eidisslåtta" />
		<tag k="place" v="locality" />
		<tag k="ssr:stedsnr" v="116052" />
	</node>
	<node lat="68.24316111292164" lon="14.063808329707946" id="-12572">
		<tag k="name" v="Slåttkålen" />
		<tag k="place" v="locality" />
		<tag k="ssr:stedsnr" v="116844" />
	</node>
	<node lat="68.29922499948006" lon="13.99027778891664" id="-12574">
		<tag k="name" v="Daljorda" />
		<tag k="place" v="locality" />
		<tag k="ssr:stedsnr" v="117158" />
	</node>
	<node lat="68.09154999864766" lon="13.707275007592926" id="-12614">
		<tag k="name" v="Myran" />
		<tag k="natural" v="wetland" />
		<tag k="ssr:stedsnr" v="138665" />
	</node>
	<node lat="68.13398888743205" lon="13.637491677138808" id="-12621">
		<tag k="name" v="Spengeren" />
		<tag k="natural" v="wetland" />
		<tag k="ssr:stedsnr" v="138767" />
	</node>
	<node lat="68.0979972203647" lon="13.530138898456332" id="-12656">
		<tag k="name" v="Eintindmyran" />
		<tag k="natural" v="wetland" />
		<tag k="ssr:stedsnr" v="146138" />
	</node>
	<node lat="68.16936388537664" lon="13.592688884217994" id="-12780">
		<tag k="name" v="Kalvnesmyra" />
		<tag k="natural" v="wetland" />
		<tag k="ssr:stedsnr" v="203432" />
	</node>
	<node lat="68.24044444327372" lon="13.762277785764505" id="-12788">
		<tag k="name" v="Høllimyran" />
		<tag k="natural" v="wetland" />
		<tag k="ssr:stedsnr" v="203467" />
	</node>
	<node lat="68.21686666857642" lon="13.699977772866562" id="-12790">
		<tag k="name" v="Vassmyran" />
		<tag k="natural" v="wetland" />
		<tag k="ssr:stedsnr" v="203477" />
	</node>
	<node lat="68.22715555469938" lon="13.80427499978421" id="-12825">
		<tag k="name" v="Lillekvantmyra" />
		<tag k="natural" v="wetland" />
		<tag k="ssr:stedsnr" v="223999" />
	</node>
	<node lat="68.22023055817223" lon="13.533397230651355" id="-12826">
		<tag k="name" v="Pussesteinen" />
		<tag k="natural" v="stone" />
		<tag k="ssr:stedsnr" v="282745" />
	</node>
	<node lat="68.12039999987152" lon="13.519627769585234" id="-12829">
		<tag k="name" v="Myran" />
		<tag k="natural" v="wetland" />
		<tag k="ssr:stedsnr" v="284261" />
	</node>
	<node lat="68.33414999915392" lon="13.922122215486977" id="-12841">
		<tag k="name" v="Huldersteinen" />
		<tag k="natural" v="stone" />
		<tag k="ssr:stedsnr" v="298215" />
	</node>
	<node lat="68.20673888536012" lon="13.847416661820928" id="-12842">
		<tag k="name" v="Momarka" />
		<tag k="place" v="locality" />
		<tag k="ssr:stedsnr" v="298026" />
	</node>
	<node lat="68.22444166281302" lon="13.946949995329835" id="-12844">
		<tag k="name" v="Skjåmarka" />
=======
	<node id="-189048" lat="68.2056111097" lon="13.6346499885">
		<tag k="name" v="Ruta" />
		<tag k="natural" v="stone" />
		<tag k="ssr:stedsnr" v="446400" />
	</node>
	<node id="-189645" lat="68.2200722213" lon="13.523722221">
		<tag k="name" v="Loftsteinen" />
		<tag k="natural" v="stone" />
		<tag k="ssr:stedsnr" v="708183" />
	</node>
	<node id="-188619" lat="68.208263889" lon="13.9003777744">
		<tag k="name" v="Kongsjordmarka" />
		<tag k="place" v="locality" />
		<tag k="ssr:stedsnr" v="238029" />
	</node>
	<node id="-189636" lat="68.2115055592" lon="13.5259638918">
		<tag k="name" v="Heststeinan" />
		<tag k="natural" v="stone" />
		<tag k="ssr:stedsnr" v="707756" />
	</node>
	<node id="-190140" lat="68.0966444466" lon="13.5618638859">
		<tag k="name" v="Resmålskogan" />
		<tag k="place" v="locality" />
		<tag k="ssr:stedsnr" v="936118" />
	</node>
	<node id="-189115" lat="68.2270166634" lon="13.7741055584">
		<tag k="name" v="Svartmola" />
		<tag k="natural" v="wetland" />
		<tag k="ssr:stedsnr" v="466997" />
	</node>
	<node id="-188597" lat="68.2111138854" lon="13.9149194323">
		<tag k="name" v="Binnlivollen" />
		<tag k="natural" v="scree" />
		<tag k="ssr:stedsnr" v="237060" />
	</node>
	<node id="-190289" lat="68.2104888919" lon="13.528588899">
		<tag k="name" v="Økjesteinan" />
		<tag k="natural" v="stone" />
		<tag k="ssr:stedsnr" v="39698" />
	</node>
	<node id="-189615" lat="68.1260361153" lon="13.686669438">
		<tag k="name" v="Kvannta" />
		<tag k="place" v="locality" />
		<tag k="ssr:stedsnr" v="694542" />
	</node>
	<node id="-189098" lat="68.1203999999" lon="13.5196277696">
		<tag k="name" v="Myran" />
		<tag k="natural" v="wetland" />
		<tag k="ssr:stedsnr" v="284261" />
	</node>
	<node id="-191143" lat="68.2430111152" lon="13.5689583421">
		<tag k="name" v="Jorda" />
		<tag k="place" v="locality" />
		<tag k="ssr:stedsnr" v="403134" />
	</node>
	<node id="-190630" lat="68.1866305523" lon="13.6698416725">
		<tag k="name" v="Storura" />
		<tag k="natural" v="scree" />
		<tag k="ssr:stedsnr" v="142384" />
	</node>
	<node id="-190321" lat="68.2365694406" lon="13.8797527702">
		<tag k="name" v="Dalskogen" />
		<tag k="place" v="locality" />
		<tag k="ssr:stedsnr" v="56098" />
	</node>
	<node id="-191644" lat="68.227425004" lon="13.5538388784">
		<tag k="name" v="Alusura" />
		<tag k="natural" v="scree" />
		<tag k="ssr:stedsnr" v="767758" />
	</node>
	<node id="-191638" lat="68.3050861083" lon="13.6948944346">
		<tag k="name" v="Grovan" />
>>>>>>> e1d4bc35ff8a6074a6f2e91616a996b547c36f15
		<tag k="place" v="locality" />
		<tag k="ssr:stedsnr" v="754615" />
	</node>
	<node id="-189585" lat="68.3006361132" lon="13.8579194339">
		<tag k="name" v="Hauklandsmyran" />
		<tag k="natural" v="wetland" />
		<tag k="ssr:stedsnr" v="688846" />
	</node>
<<<<<<< HEAD
	<node lat="68.242394440438" lon="13.872213890873898" id="-12845">
		<tag k="name" v="Nordskogen" />
		<tag k="place" v="locality" />
		<tag k="ssr:stedsnr" v="298123" />
	</node>
	<node lat="68.28343333709255" lon="13.843255549800357" id="-12867">
		<tag k="alt_name" v="Hynnmyra" />
		<tag k="name" v="Hyrnmyra" />
		<tag k="natural" v="wetland" />
		<tag k="ssr:stedsnr" v="320042" />
	</node>
	<node lat="68.13157222584152" lon="13.614102773150028" id="-12886">
		<tag k="name" v="Jomyra" />
		<tag k="natural" v="wetland" />
		<tag k="ssr:stedsnr" v="320765" />
	</node>
	<node lat="68.11773055224033" lon="13.79424722220048" id="-12915">
		<tag k="name" v="Keipen" />
		<tag k="natural" v="stone" />
		<tag k="ssr:stedsnr" v="324323" />
	</node>
	<node lat="68.22994722106499" lon="13.780675010443334" id="-12920">
		<tag k="name" v="Stormyra" />
		<tag k="natural" v="wetland" />
		<tag k="ssr:stedsnr" v="324499" />
	</node>
	<node lat="68.28841666344599" lon="13.934894446896383" id="-12922">
		<tag k="landuse" v="meadow" />
		<tag k="name" v="Skredvollen" />
		<tag k="ssr:stedsnr" v="324813" />
	</node>
	<node lat="68.3061055519519" lon="13.689972215121289" id="-12943">
		<tag k="name" v="Mikkelstellet" />
		<tag k="natural" v="stone" />
		<tag k="ssr:stedsnr" v="330669" />
	</node>
	<node lat="68.22227500036348" lon="13.677633331683872" id="-12949">
		<tag k="name" v="Ostadskogen" />
		<tag k="place" v="locality" />
		<tag k="ssr:stedsnr" v="342771" />
	</node>
	<node lat="68.23199722333955" lon="13.606519450392103" id="-13005">
		<tag k="name" v="Tindsteinen" />
		<tag k="natural" v="stone" />
		<tag k="ssr:stedsnr" v="381106" />
	</node>
	<node lat="68.29668888664487" lon="13.89468889447241" id="-13006">
		<tag k="name" v="Ellstadmyran" />
		<tag k="natural" v="wetland" />
		<tag k="ssr:stedsnr" v="381047" />
	</node>
	<node lat="68.1988750041902" lon="13.639399994433505" id="-13055">
		<tag k="name" v="Middagsmyra" />
		<tag k="natural" v="wetland" />
		<tag k="ssr:stedsnr" v="385384" />
	</node>
	<node lat="68.25512499756151" lon="13.73020001146023" id="-13076">
		<tag k="name" v="Trælvollsmyran" />
		<tag k="natural" v="wetland" />
		<tag k="ssr:stedsnr" v="390553" />
	</node>
	<node lat="68.16629166455131" lon="13.651263885758668" id="-13127">
		<tag k="name" v="Himmelsteinmyra" />
		<tag k="natural" v="wetland" />
		<tag k="ssr:stedsnr" v="441977" />
	</node>
	<node lat="68.12628611252858" lon="13.490641659541126" id="-13158">
		<tag k="name" v="Nonssteinan" />
		<tag k="natural" v="stone" />
		<tag k="ssr:stedsnr" v="446011" />
	</node>
	<node lat="68.22241388630518" lon="13.728822217710915" id="-13247">
		<tag k="name" v="Skjerpmyra" />
		<tag k="natural" v="wetland" />
		<tag k="ssr:stedsnr" v="506456" />
	</node>
	<node lat="68.25102499883938" lon="13.925244454725853" id="-13258">
		<tag k="name" v="Brynnedalsmyra" />
		<tag k="natural" v="wetland" />
		<tag k="ssr:stedsnr" v="507877" />
	</node>
	<node lat="68.21338610907816" lon="13.768675001732372" id="-13280">
		<tag k="name" v="Nuphaugmyra" />
		<tag k="natural" v="wetland" />
		<tag k="ssr:stedsnr" v="526979" />
	</node>
	<node lat="68.2922833343621" lon="13.927055545354042" id="-13295">
		<tag k="name" v="Garnes" />
		<tag k="place" v="locality" />
		<tag k="ssr:stedsnr" v="541135" />
	</node>
	<node lat="68.24551944444943" lon="13.870199999780187" id="-13326">
		<tag k="alt_name" v="Lauvdalsmyran" />
		<tag k="name" v="Løvdalsmyran" />
		<tag k="natural" v="wetland" />
		<tag k="ssr:stedsnr" v="562495" />
	</node>
	<node lat="68.23191388560424" lon="13.630602785100143" id="-13366">
		<tag k="name" v="Osen" />
		<tag k="place" v="locality" />
		<tag k="ssr:stedsnr" v="563093" />
	</node>
	<node lat="68.23030832970916" lon="14.112927777811421" id="-13381">
		<tag k="name" v="Malnesmyran" />
		<tag k="natural" v="wetland" />
		<tag k="ssr:stedsnr" v="563586" />
	</node>
	<node lat="68.06743888697703" lon="13.52218333111359" id="-13387">
		<tag k="historic" v="shieling" />
		<tag k="name" v="Sætra" />
		<tag k="place" v="locality" />
		<tag k="ssr:stedsnr" v="563725" />
	</node>
	<node lat="68.1885611102632" lon="13.529836114683945" id="-13417">
		<tag k="name" v="Vågasteinan" />
		<tag k="natural" v="stone" />
		<tag k="ssr:stedsnr" v="567354" />
	</node>
	<node lat="68.29485833078368" lon="13.716166677683113" id="-13429">
		<tag k="name" v="Resteinen" />
		<tag k="natural" v="stone" />
		<tag k="ssr:stedsnr" v="571575" />
	</node>
	<node lat="68.1840222210301" lon="13.857286108445694" id="-13449">
		<tag k="name" v="Stormyra" />
=======
	<node id="-191631" lat="68.0916722213" lon="13.5464999903">
		<tag k="name" v="Skotnesmyran" />
		<tag k="natural" v="wetland" />
		<tag k="ssr:stedsnr" v="753134" />
	</node>
	<node id="-191625" lat="68.2007638887" lon="13.534533338">
		<tag k="name" v="Kornsteinan" />
		<tag k="natural" v="stone" />
		<tag k="ssr:stedsnr" v="750352" />
	</node>
	<node id="-188552" lat="68.1779416703" lon="13.5029222297">
		<tag k="name" v="Kreppelteigen" />
		<tag k="place" v="locality" />
		<tag k="ssr:stedsnr" v="21128" />
	</node>
	<node id="-189061" lat="68.3033194457" lon="13.7018361076">
		<tag k="name" v="Høgsteinen" />
		<tag k="natural" v="stone" />
		<tag k="ssr:stedsnr" v="450599" />
	</node>
	<node id="-191851" lat="68.2102972247" lon="13.8499166649">
		<tag k="name" v="Steinbakkmarka" />
		<tag k="place" v="locality" />
		<tag k="ssr:stedsnr" v="845024" />
	</node>
	<node id="-190590" lat="68.1339888874" lon="13.6374916771">
		<tag k="name" v="Spengeren" />
		<tag k="natural" v="wetland" />
		<tag k="ssr:stedsnr" v="138767" />
	</node>
	<node id="-191099" lat="68.179250003" lon="13.6223638777">
		<tag k="name" v="Pottan" />
		<tag k="natural" v="wetland" />
		<tag k="ssr:stedsnr" v="381903" />
	</node>
	<node id="-189562" lat="68.2465166631" lon="13.5479416594">
		<tag k="name" v="Storura" />
		<tag k="natural" v="scree" />
		<tag k="ssr:stedsnr" v="524112" />
	</node>
	<node id="-190072" lat="68.2161527813" lon="13.5389472114">
		<tag k="name" v="Kjerksteinen" />
		<tag k="natural" v="stone" />
		<tag k="ssr:stedsnr" v="949736" />
	</node>
	<node id="-190070" lat="68.1193611137" lon="13.6525249931">
		<tag k="name" v="Myra" />
		<tag k="natural" v="wetland" />
		<tag k="ssr:stedsnr" v="870104" />
	</node>
	<node id="-189557" lat="68.1387388861" lon="13.5795888979">
		<tag k="name" v="Rønsvollmyra" />
		<tag k="natural" v="wetland" />
		<tag k="ssr:stedsnr" v="688062" />
	</node>
	<node id="-188530" lat="68.0652388878" lon="13.5340833441">
		<tag k="name" v="Spannsteinen" />
		<tag k="natural" v="stone" />
		<tag k="ssr:stedsnr" v="17733" />
	</node>
	<node id="-189553" lat="68.2972083374" lon="13.7097972274">
		<tag k="name" v="Finnhellaren" />
		<tag k="natural" v="stone" />
		<tag k="ssr:stedsnr" v="512673" />
	</node>
	<node id="-190576" lat="68.2477138852" lon="13.864108333">
		<tag k="name" v="Borgfjordmyran" />
		<tag k="natural" v="wetland" />
		<tag k="ssr:stedsnr" v="138501" />
	</node>
	<node id="-191594" lat="68.1888055553" lon="13.6387972226">
		<tag k="name" v="Bøøra" />
		<tag k="place" v="locality" />
		<tag k="ssr:stedsnr" v="745930" />
	</node>
	<node id="-188519" lat="68.2543111129" lon="14.047919451">
		<tag k="name" v="Langøyra" />
		<tag k="place" v="locality" />
		<tag k="ssr:stedsnr" v="16134" />
	</node>
	<node id="-190652" lat="68.0979972204" lon="13.5301388985">
		<tag k="name" v="Eintindmyran" />
		<tag k="natural" v="wetland" />
		<tag k="ssr:stedsnr" v="146138" />
	</node>
	<node id="-190565" lat="68.0915499986" lon="13.7072750076">
		<tag k="name" v="Myran" />
		<tag k="natural" v="wetland" />
		<tag k="ssr:stedsnr" v="138665" />
	</node>
	<node id="-190563" lat="68.2268500039" lon="13.7684277794">
		<tag k="name" v="Trettmyra" />
		<tag k="natural" v="wetland" />
		<tag k="ssr:stedsnr" v="138108" />
	</node>
	<node id="-191583" lat="68.1470111086" lon="13.5707694336">
		<tag k="name" v="Storeidmyran" />
		<tag k="natural" v="wetland" />
		<tag k="ssr:stedsnr" v="745834" />
	</node>
	<node id="-191582" lat="68.1460805578" lon="13.7895194446">
		<tag k="name" v="Gongskarmyra" />
		<tag k="natural" v="wetland" />
		<tag k="ssr:stedsnr" v="745823" />
	</node>
	<node id="-190044" lat="68.218875002" lon="13.7060777672">
		<tag k="name" v="Sædingsøra" />
		<tag k="place" v="locality" />
		<tag k="ssr:stedsnr" v="931487" />
	</node>
	<node id="-190043" lat="68.2169388876" lon="13.7127222301">
		<tag k="name" v="Lomtjønnmyra" />
		<tag k="natural" v="wetland" />
		<tag k="ssr:stedsnr" v="931477" />
	</node>
	<node id="-190041" lat="68.2053222246" lon="13.568975007">
		<tag k="name" v="Solstad" />
		<tag k="place" v="locality" />
		<tag k="ssr:stedsnr" v="931461" />
	</node>
	<node id="-191059" lat="68.2319972233" lon="13.6065194504">
		<tag k="name" v="Tindsteinen" />
		<tag k="natural" v="stone" />
		<tag k="ssr:stedsnr" v="381106" />
	</node>
	<node id="-188497" lat="68.2105472242" lon="13.5899888791">
		<tag k="name" v="Skogen" />
		<tag k="place" v="locality" />
		<tag k="ssr:stedsnr" v="221721" />
	</node>
	<node id="-190542" lat="68.2508333318" lon="13.7311305514">
		<tag k="name" v="Presthagen" />
		<tag k="place" v="locality" />
		<tag k="ssr:stedsnr" v="137927" />
	</node>
	<node id="-191121" lat="68.1854833293" lon="13.6625138873">
		<tag k="name" v="Litlura" />
		<tag k="natural" v="scree" />
		<tag k="ssr:stedsnr" v="385394" />
	</node>
	<node id="-191559" lat="68.2136805531" lon="13.6923055557">
		<tag k="name" v="Ostadmyran" />
		<tag k="natural" v="wetland" />
		<tag k="ssr:stedsnr" v="745145" />
	</node>
	<node id="-191043" lat="68.1337888887" lon="13.7050361114">
		<tag k="alt_name" v="Tindjorda" />
		<tag k="name" v="Tindsjorda" />
		<tag k="place" v="locality" />
		<tag k="ssr:stedsnr" v="380769" />
	</node>
	<node id="-189505" lat="68.2041027807" lon="14.0315888883">
		<tag k="name" v="Dalsmyran" />
>>>>>>> e1d4bc35ff8a6074a6f2e91616a996b547c36f15
		<tag k="natural" v="wetland" />
		<tag k="ssr:stedsnr" v="684450" />
	</node>
<<<<<<< HEAD
	<node lat="68.30905278085982" lon="13.956066658069895" id="-13468">
		<tag k="name" v="Skjåura" />
		<tag k="natural" v="scree" />
		<tag k="ssr:stedsnr" v="623017" />
	</node>
	<node lat="68.14412500183319" lon="13.811841662705376" id="-13485">
		<tag k="name" v="Hellmyran" />
		<tag k="natural" v="wetland" />
		<tag k="ssr:stedsnr" v="623792" />
	</node>
	<node lat="68.13120555393063" lon="13.647858341217013" id="-13532">
		<tag k="name" v="Kjerran" />
		<tag k="place" v="locality" />
		<tag k="ssr:stedsnr" v="627441" />
	</node>
	<node lat="68.11499999859615" lon="13.556152775199198" id="-13546">
		<tag k="name" v="Klokkarjorda" />
		<tag k="place" v="locality" />
		<tag k="ssr:stedsnr" v="631203" />
	</node>
	<node lat="68.09874722442972" lon="13.559950004146602" id="-13548">
		<tag k="name" v="Kjølstad" />
		<tag k="place" v="locality" />
		<tag k="ssr:stedsnr" v="632158" />
	</node>
	<node lat="68.20349166710255" lon="14.042402788091648" id="-13607">
		<tag k="name" v="Gåsspaumyra" />
		<tag k="natural" v="wetland" />
		<tag k="ssr:stedsnr" v="723175" />
	</node>
	<node lat="68.23385555634846" lon="13.980763889353952" id="-13616">
		<tag k="name" v="Slåttan" />
		<tag k="place" v="locality" />
		<tag k="ssr:stedsnr" v="723030" />
	</node>
	<node lat="68.20662499811111" lon="13.904969441198539" id="-13617">
		<tag k="name" v="Bakkmarka" />
		<tag k="place" v="locality" />
		<tag k="ssr:stedsnr" v="723035" />
	</node>
	<node lat="68.21368055307101" lon="13.692305555657981" id="-13641">
		<tag k="name" v="Ostadmyran" />
		<tag k="natural" v="wetland" />
		<tag k="ssr:stedsnr" v="745145" />
	</node>
	<node lat="68.14701110855565" lon="13.570769433620116" id="-13655">
		<tag k="name" v="Storeidmyran" />
		<tag k="natural" v="wetland" />
		<tag k="ssr:stedsnr" v="745834" />
	</node>
	<node lat="68.18880555530161" lon="13.638797222643051" id="-13666">
		<tag k="name" v="Bøøra" />
		<tag k="place" v="locality" />
		<tag k="ssr:stedsnr" v="745930" />
	</node>
	<node lat="68.2007638886925" lon="13.5345333379934" id="-13684">
		<tag k="name" v="Kornsteinan" />
		<tag k="natural" v="stone" />
		<tag k="ssr:stedsnr" v="750352" />
	</node>
	<node lat="68.09167222132847" lon="13.546499990260699" id="-13690">
		<tag k="name" v="Skotnesmyran" />
		<tag k="natural" v="wetland" />
		<tag k="ssr:stedsnr" v="753134" />
	</node>
	<node lat="68.22250277710381" lon="13.535983344479472" id="-13700">
		<tag k="name" v="Loftsteinen" />
		<tag k="natural" v="stone" />
		<tag k="ssr:stedsnr" v="889762" />
	</node>
	<node lat="68.22795555431051" lon="13.623783338204522" id="-13703">
		<tag k="name" v="Sløkjeura" />
		<tag k="natural" v="scree" />
		<tag k="ssr:stedsnr" v="767735" />
	</node>
	<node lat="68.22742500395789" lon="13.553838878433575" id="-13704">
		<tag k="name" v="Alusura" />
		<tag k="natural" v="scree" />
		<tag k="ssr:stedsnr" v="767758" />
	</node>
	<node lat="68.25441944249089" lon="13.544849992729699" id="-13744">
		<tag k="name" v="Storura" />
		<tag k="natural" v="scree" />
		<tag k="ssr:stedsnr" v="805957" />
	</node>
	<node lat="68.15014999867815" lon="13.5553305589117" id="-13809">
		<tag k="name" v="Litleidmyran" />
		<tag k="natural" v="wetland" />
		<tag k="ssr:stedsnr" v="806830" />
	</node>
	<node lat="68.2040833298641" lon="13.640100010462746" id="-13828">
		<tag k="name" v="Klokksteinen" />
		<tag k="natural" v="stone" />
		<tag k="ssr:stedsnr" v="810367" />
	</node>
	<node lat="68.20380833792495" lon="13.631794435393818" id="-13829">
		<tag k="name" v="Bjørksteinen" />
		<tag k="natural" v="stone" />
		<tag k="ssr:stedsnr" v="810368" />
	</node>
	<node lat="68.21913333094805" lon="13.73435000174815" id="-13842">
		<tag k="name" v="Potthaugmyra" />
		<tag k="natural" v="wetland" />
		<tag k="ssr:stedsnr" v="810457" />
	</node>
	<node lat="68.20772222403772" lon="13.58084166345001" id="-13864">
		<tag k="name" v="Storesteinen" />
		<tag k="natural" v="stone" />
		<tag k="ssr:stedsnr" v="828726" />
	</node>
	<node lat="68.18434444492785" lon="13.620127780601829" id="-13957">
		<tag k="name" v="Rødsandmyra" />
		<tag k="natural" v="wetland" />
		<tag k="ssr:stedsnr" v="867914" />
	</node>
	<node lat="68.2589361091141" lon="14.016319442324649" id="-14003">
		<tag k="name" v="Klubbøyra" />
		<tag k="place" v="locality" />
		<tag k="ssr:stedsnr" v="871752" />
	</node>
	<node lat="68.30619444600522" lon="13.655991674837832" id="-14038">
		<tag k="name" v="Utgardsmyra" />
		<tag k="natural" v="wetland" />
		<tag k="ssr:stedsnr" v="949848" />
	</node>
	<node lat="68.10760277833131" lon="13.497133330805694" id="-14040">
=======
	<node id="-189504" lat="68.2018666673" lon="13.9459166676">
		<tag k="name" v="Ånesan" />
		<tag k="natural" v="wetland" />
		<tag k="ssr:stedsnr" v="684445" />
	</node>
	<node id="-190527" lat="68.2992249995" lon="13.9902777889">
		<tag k="name" v="Daljorda" />
		<tag k="place" v="locality" />
		<tag k="ssr:stedsnr" v="117158" />
	</node>
	<node id="-190023" lat="68.1501499987" lon="13.5553305589">
		<tag k="name" v="Litleidmyran" />
		<tag k="natural" v="wetland" />
		<tag k="ssr:stedsnr" v="806830" />
	</node>
	<node id="-189107" lat="68.2812222256" lon="13.7296361014">
		<tag k="name" v="Straumøyra" />
		<tag k="place" v="locality" />
		<tag k="ssr:stedsnr" v="466527" />
	</node>
	<node id="-190510" lat="68.210697218" lon="13.8887916595">
		<tag k="name" v="Eidisslåtta" />
		<tag k="place" v="locality" />
		<tag k="ssr:stedsnr" v="116052" />
	</node>
	<node id="-190097" lat="68.2627527793" lon="13.8480277744">
		<tag k="name" v="Kovmyra" />
		<tag k="natural" v="wetland" />
		<tag k="ssr:stedsnr" v="905211" />
	</node>
	<node id="-189995" lat="68.1766083366" lon="13.5443583377">
		<tag k="name" v="Hesthagan" />
		<tag k="place" v="locality" />
		<tag k="ssr:stedsnr" v="927899" />
	</node>
	<node id="-189475" lat="68.2224138863" lon="13.7288222177">
		<tag k="name" v="Skjerpmyra" />
		<tag k="natural" v="wetland" />
		<tag k="ssr:stedsnr" v="506456" />
	</node>
	<node id="-188961" lat="68.3018916641" lon="13.8571777802">
		<tag k="name" v="Valmyran" />
		<tag k="natural" v="wetland" />
		<tag k="ssr:stedsnr" v="442008" />
	</node>
	<node id="-188957" lat="68.1662916646" lon="13.6512638858">
		<tag k="name" v="Himmelsteinmyra" />
		<tag k="natural" v="wetland" />
		<tag k="ssr:stedsnr" v="441977" />
	</node>
	<node id="-189463" lat="68.1970833367" lon="13.7348972349">
		<tag k="name" v="Rognura" />
		<tag k="natural" v="scree" />
		<tag k="ssr:stedsnr" v="502905" />
	</node>
	<node id="-189329" lat="68.2510249988" lon="13.9252444547">
		<tag k="name" v="Brynnedalsmyra" />
		<tag k="natural" v="wetland" />
		<tag k="ssr:stedsnr" v="507877" />
	</node>
	<node id="-191507" lat="68.1312055539" lon="13.6478583412">
		<tag k="name" v="Kjerran" />
		<tag k="place" v="locality" />
		<tag k="ssr:stedsnr" v="627441" />
	</node>
	<node id="-190481" lat="68.2164055592" lon="13.5240305594">
		<tag k="name" v="Lauvdalssteinen" />
		<tag k="natural" v="stone" />
		<tag k="ssr:stedsnr" v="102195" />
	</node>
	<node id="-190480" lat="68.2095166639" lon="13.4942694467">
		<tag k="name" v="Stulura" />
		<tag k="natural" v="scree" />
		<tag k="ssr:stedsnr" v="102194" />
	</node>
	<node id="-190479" lat="68.2178722239" lon="13.5245388792">
		<tag k="name" v="Vargsteinen" />
		<tag k="natural" v="stone" />
		<tag k="ssr:stedsnr" v="102193" />
	</node>
	<node id="-190478" lat="68.2175444481" lon="13.5209861231">
		<tag k="landuse" v="meadow" />
		<tag k="name" v="Gullbakken" />
		<tag k="ssr:stedsnr" v="102192" />
	</node>
	<node id="-191500" lat="68.2053111155" lon="13.6292638864">
		<tag k="name" v="Loftsteinen" />
		<tag k="natural" v="stone" />
		<tag k="ssr:stedsnr" v="627400" />
	</node>
	<node id="-190983" lat="68.2222750004" lon="13.6776333317">
		<tag k="name" v="Ostadskogen" />
		<tag k="place" v="locality" />
		<tag k="ssr:stedsnr" v="342771" />
	</node>
	<node id="-190981" lat="68.2563416655" lon="13.5727944325">
		<tag k="name" v="Dynan" />
		<tag k="natural" v="stone" />
		<tag k="ssr:stedsnr" v="342743" />
	</node>
	<node id="-192004" lat="68.1076027783" lon="13.4971333308">
>>>>>>> e1d4bc35ff8a6074a6f2e91616a996b547c36f15
		<tag k="name" v="Ennelimyra" />
		<tag k="natural" v="wetland" />
		<tag k="ssr:stedsnr" v="951230" />
	</node>
</osm>
