<?xml version="1.0" encoding="UTF-8"?>
<osm version="0.6" generator="osmapis">
	<node lat="68.2577500029266" lon="14.077072216336886" id="-20764">
		<tag k="name" v="Håtindvatnet" />
		<tag k="natural" v="water" />
		<tag k="ssr:stedsnr" v="16133" />
	</node>
	<node lat="68.28530277387911" lon="13.873947223353797" id="-20772">
		<tag k="alt_name" v="Lille Geitvatnet" />
		<tag k="fixme" v="multiple name tags, choose one and add the other to alt_name" />
		<tag k="name" v="Budalsvatnet;Litlgeitvatnet" />
		<tag k="natural" v="water" />
		<tag k="ssr:stedsnr" v="17067" />
	</node>
	<node lat="68.24509166799106" lon="13.569697224254895" id="-20839">
		<tag k="name" v="Jordtjønna" />
		<tag k="natural" v="water" />
		<tag k="ssr:stedsnr" v="39119" />
	</node>
	<node lat="68.26834444111908" lon="13.590730562729274" id="-20844">
		<tag k="name" v="Øvertjønna" />
		<tag k="natural" v="water" />
		<tag k="ssr:stedsnr" v="39757" />
	</node>
	<node lat="68.21311110991279" lon="13.83135277100495" id="-20856">
		<tag k="name" v="Grønnbakkløken" />
		<tag k="ssr:stedsnr" v="41978" />
		<tag k="waterway" v="stream" />
	</node>
	<node lat="68.19365000198374" lon="13.895022212123468" id="-20863">
		<tag k="name" v="Mølna" />
		<tag k="natural" v="bay" />
		<tag k="ssr:stedsnr" v="238062" />
	</node>
	<node lat="68.25608610816653" lon="13.861863894952156" id="-20873">
		<tag k="name" v="Lillebuløken" />
		<tag k="ssr:stedsnr" v="238220" />
		<tag k="waterway" v="stream" />
	</node>
	<node lat="68.25192221938366" lon="13.85800832281942" id="-20874">
		<tag k="name" v="Teinelva" />
		<tag k="ssr:stedsnr" v="238221" />
		<tag k="waterway" v="stream" />
	</node>
	<node lat="68.25536389112996" lon="13.874574991285836" id="-20875">
		<tag k="name" v="Djupgrovelva" />
		<tag k="ssr:stedsnr" v="238227" />
		<tag k="waterway" v="stream" />
	</node>
	<node lat="68.2242361156103" lon="14.011122216840734" id="-20881">
		<tag k="name" v="Øvre Trolldalsvatnet" />
		<tag k="natural" v="water" />
		<tag k="ssr:stedsnr" v="238814" />
	</node>
	<node lat="68.2161861108807" lon="14.028952778972858" id="-20882">
		<tag k="name" v="Tverrelva" />
		<tag k="ssr:stedsnr" v="238823" />
		<tag k="waterway" v="stream" />
	</node>
	<node lat="68.2263111122621" lon="14.022533344092523" id="-20883">
		<tag k="name" v="Nedre Trolldalsvatnet" />
		<tag k="natural" v="water" />
		<tag k="ssr:stedsnr" v="238844" />
		<tag k="water" v="lake" />
	</node>
	<node lat="68.26975555137781" lon="14.13107222240412" id="-20884">
		<tag k="name" v="Kilskartjønna" />
		<tag k="natural" v="water" />
		<tag k="ssr:stedsnr" v="238994" />
	</node>
	<node lat="68.2643416621042" lon="14.131738896725604" id="-20888">
		<tag k="name" v="Tverråstjønna" />
		<tag k="natural" v="water" />
		<tag k="ssr:stedsnr" v="238964" />
	</node>
	<node lat="68.32109722553204" lon="13.99978889448402" id="-20889">
		<tag k="name" v="Rekdalselva" />
		<tag k="ssr:stedsnr" v="238971" />
		<tag k="waterway" v="stream" />
	</node>
	<node lat="68.30001111223838" lon="13.9823638807352" id="-20895">
		<tag k="name" v="Kutjønna" />
		<tag k="natural" v="water" />
		<tag k="ssr:stedsnr" v="56123" />
	</node>
	<node lat="68.23583888682525" lon="13.872441676780022" id="-20901">
		<tag k="name" v="Skredteigløken" />
		<tag k="ssr:stedsnr" v="56099" />
		<tag k="waterway" v="stream" />
	</node>
	<node lat="68.26529444210688" lon="14.125288898762255" id="-20908">
		<tag k="name" v="Tverråsløken" />
		<tag k="ssr:stedsnr" v="56974" />
		<tag k="waterway" v="stream" />
	</node>
	<node lat="68.19414167030847" lon="13.949158339536067" id="-20949">
		<tag k="name" v="Kutjønna" />
		<tag k="natural" v="water" />
		<tag k="ssr:stedsnr" v="85305" />
	</node>
	<node lat="68.1878277768636" lon="13.911349987735095" id="-20951">
		<tag k="name" v="Skåldalsvatnet" />
		<tag k="natural" v="water" />
		<tag k="ssr:stedsnr" v="85482" />
	</node>
	<node lat="68.08520833138573" lon="13.564983325093616" id="-20954">
		<tag k="name" v="Storosen" />
		<tag k="natural" v="bay" />
		<tag k="ssr:stedsnr" v="86179" />
	</node>
	<node lat="68.21522777638621" lon="14.007672226832783" id="-20985">
		<tag k="name" v="Dalselva" />
		<tag k="ssr:stedsnr" v="116784" />
		<tag k="waterway" v="stream" />
	</node>
	<node lat="68.2191861110461" lon="13.781574999689356" id="-21003">
		<tag k="name" v="Slydalselva" />
		<tag k="ssr:stedsnr" v="138104" />
		<tag k="waterway" v="river" />
	</node>
	<node lat="68.22591110877138" lon="13.93125277095032" id="-21010">
		<tag k="name" v="Lomtjønna" />
		<tag k="natural" v="water" />
		<tag k="ssr:stedsnr" v="138613" />
	</node>
	<node lat="68.20830277899658" lon="13.799675004028304" id="-21055">
		<tag k="alt_name" v="Tinnløken" />
		<tag k="name" v="Tindløken" />
		<tag k="ssr:stedsnr" v="259096" />
		<tag k="waterway" v="stream" />
	</node>
	<node lat="68.07947221995403" lon="13.513466668270343" id="-21071">
		<tag k="name" v="Lågvatnet" />
		<tag k="natural" v="water" />
		<tag k="ssr:stedsnr" v="259726" />
	</node>
	<node lat="68.23058333317113" lon="13.899330563558578" id="-21079">
		<tag k="name" v="Grønåsgrova" />
		<tag k="ssr:stedsnr" v="259588" />
		<tag k="waterway" v="stream" />
	</node>
	<node lat="68.29696110776243" lon="13.98378611390679" id="-21086">
		<tag k="name" v="Smedvikvatnet" />
		<tag k="natural" v="water" />
		<tag k="ssr:stedsnr" v="260044" />
	</node>
	<node lat="68.2768361133462" lon="13.86773055778726" id="-21097">
		<tag k="fixme" v="multiple name tags, choose one and add the other to alt_name" />
		<tag k="name" v="Geitvatnet;Storgeitvatnet" />
		<tag k="natural" v="water" />
		<tag k="ssr:stedsnr" v="260240" />
	</node>
	<node lat="68.27843888974105" lon="13.586391674036708" id="-21124">
		<tag k="name" v="Norddalselva" />
		<tag k="ssr:stedsnr" v="260989" />
		<tag k="waterway" v="stream" />
	</node>
	<node lat="68.18829166607284" lon="13.85738612279179" id="-21135">
		<tag k="name" v="Kløvningan" />
		<tag k="natural" v="water" />
		<tag k="ssr:stedsnr" v="177062" />
		<tag k="water" v="lake" />
	</node>
	<node lat="68.26414722316578" lon="13.843213880091403" id="-21136">
		<tag k="name" v="Kovløken" />
		<tag k="ssr:stedsnr" v="177202" />
		<tag k="waterway" v="stream" />
	</node>
	<node lat="68.28799722450213" lon="13.873186103920217" id="-21179">
		<tag k="name" v="Geitelva" />
		<tag k="ssr:stedsnr" v="199204" />
		<tag k="waterway" v="stream" />
	</node>
	<node lat="68.21454721853132" lon="13.889038891155371" id="-21184">
		<tag k="name" v="Tjønndalstjønna" />
		<tag k="natural" v="water" />
		<tag k="ssr:stedsnr" v="199568" />
	</node>
	<node lat="68.23529444157082" lon="13.906258344571274" id="-21189">
		<tag k="alt_name" v="Lauvdalsvatnet" />
		<tag k="name" v="Løvdalsvatn" />
		<tag k="natural" v="water" />
		<tag k="ssr:stedsnr" v="199621" />
	</node>
	<node lat="68.09488055867239" lon="13.5334111215388" id="-21232">
		<tag k="name" v="Skogneset" />
		<tag k="natural" v="cape" />
		<tag k="ssr:stedsnr" v="207141" />
	</node>
	<node lat="68.08966388712066" lon="13.519463883428191" id="-21256">
		<tag k="name" v="Erikelva" />
		<tag k="ssr:stedsnr" v="223205" />
		<tag k="waterway" v="stream" />
	</node>
	<node lat="68.17092499705218" lon="13.794113884287707" id="-21261">
		<tag k="name" v="Austerdalselva" />
		<tag k="ssr:stedsnr" v="223935" />
		<tag k="waterway" v="stream" />
	</node>
	<node lat="68.21368333306778" lon="14.022441673001241" id="-21274">
		<tag k="name" v="Røddiket" />
		<tag k="ssr:stedsnr" v="237780" />
		<tag k="waterway" v="stream" />
	</node>
	<node lat="68.23420555131943" lon="13.880136113593808" id="-21276">
		<tag k="name" v="Drykkiløken" />
		<tag k="ssr:stedsnr" v="238014" />
		<tag k="waterway" v="stream" />
	</node>
	<node lat="68.20673055895699" lon="13.884227779752688" id="-21280">
		<tag k="name" v="Blåbærneset" />
		<tag k="natural" v="cape" />
		<tag k="ssr:stedsnr" v="238035" />
	</node>
	<node lat="68.1723944457681" lon="13.686338890989704" id="-21311">
		<tag k="alt_name" v="Høgpikåstjørna" />
		<tag k="name" v="Høgpiggsåstjønnan" />
		<tag k="natural" v="water" />
		<tag k="ssr:stedsnr" v="259968" />
	</node>
	<node lat="68.14951388794961" lon="13.733449994742553" id="-21344">
		<tag k="name" v="Sætrantjønna" />
		<tag k="natural" v="water" />
		<tag k="ssr:stedsnr" v="269537" />
		<tag k="water" v="lake" />
	</node>
	<node lat="68.2391833301954" lon="13.973297216193588" id="-21370">
		<tag k="name" v="Gurinaelva" />
		<tag k="ssr:stedsnr" v="298005" />
		<tag k="waterway" v="stream" />
	</node>
	<node lat="68.23143611338885" lon="13.92006945406343" id="-21371">
		<tag k="name" v="Lilleelva" />
		<tag k="ssr:stedsnr" v="298014" />
		<tag k="waterway" v="stream" />
	</node>
	<node lat="68.27344999782906" lon="13.84196943428998" id="-21375">
		<tag k="name" v="Trongmarksholmen" />
		<tag k="place" v="islet" />
		<tag k="ssr:stedsnr" v="298187" />
	</node>
	<node lat="68.11933055196566" lon="13.49656111038496" id="-21386">
		<tag k="name" v="Sundselva" />
		<tag k="ssr:stedsnr" v="466278" />
		<tag k="waterway" v="stream" />
	</node>
	<node lat="68.25166389320967" lon="13.867447225501145" id="-21403">
		<tag k="alt_name" v="Lauvdalselva" />
		<tag k="name" v="Løvdalselva" />
		<tag k="ssr:stedsnr" v="320137" />
		<tag k="waterway" v="stream" />
	</node>
	<node lat="68.2800805565636" lon="14.004780557713058" id="-21411">
		<tag k="name" v="Lomtjønna" />
		<tag k="natural" v="water" />
		<tag k="ssr:stedsnr" v="320186" />
	</node>
	<node lat="68.20813610872453" lon="13.962666660230308" id="-21415">
		<tag k="name" v="Bjørnskardalsvatnet" />
		<tag k="natural" v="water" />
		<tag k="ssr:stedsnr" v="320451" />
	</node>
	<node lat="68.2252666693632" lon="14.052822230353238" id="-21418">
		<tag k="fixme" v="multiple name tags, choose one and add the other to alt_name" />
		<tag k="name" v="Svarttjørna;Hornstindtjønna" />
		<tag k="natural" v="water" />
		<tag k="ssr:stedsnr" v="320605" />
	</node>
	<node lat="68.0864027741284" lon="13.503052777192114" id="-21483">
		<tag k="name" v="Skjellelva" />
		<tag k="ssr:stedsnr" v="344204" />
		<tag k="waterway" v="stream" />
	</node>
	<node lat="68.24091666616964" lon="14.102094455996719" id="-21508">
		<tag k="name" v="Molandselva" />
		<tag k="ssr:stedsnr" v="359819" />
		<tag k="waterway" v="stream" />
	</node>
	<node lat="68.24528888970845" lon="13.993455567481174" id="-21509">
		<tag k="name" v="Hellosvatnet" />
		<tag k="natural" v="bay" />
		<tag k="ssr:stedsnr" v="359857" />
	</node>
	<node lat="68.239600003964" lon="13.991577772551283" id="-21510">
		<tag k="name" v="Ålen" />
		<tag k="ssr:stedsnr" v="359860" />
		<tag k="waterway" v="stream" />
	</node>
	<node lat="68.2041611097042" lon="14.000886119285834" id="-21520">
		<tag k="name" v="Mølnelva" />
		<tag k="ssr:stedsnr" v="480128" />
		<tag k="waterway" v="stream" />
	</node>
	<node lat="68.23021111035523" lon="14.008519452864064" id="-21537">
		<tag k="name" v="Trolldalsvatnet" />
		<tag k="natural" v="water" />
		<tag k="ssr:stedsnr" v="480853" />
	</node>
	<node lat="68.09334999718865" lon="13.532655553385872" id="-21553">
		<tag k="name" v="Storvatnet" />
		<tag k="natural" v="water" />
		<tag k="ssr:stedsnr" v="381707" />
		<tag k="water" v="lake" />
	</node>
	<node lat="68.19295277385073" lon="13.948180544103009" id="-21586">
		<tag k="name" v="Holmtjønna" />
		<tag k="natural" v="water" />
		<tag k="ssr:stedsnr" v="388349" />
	</node>
	<node lat="68.19201388983107" lon="13.902627785359295" id="-21613">
		<tag k="name" v="Ståldalselva" />
		<tag k="ssr:stedsnr" v="420044" />
		<tag k="waterway" v="stream" />
	</node>
	<node lat="68.2198500004836" lon="13.673155544422052" id="-21620">
		<tag k="fixme" v="multiple name tags, choose one and add the other to alt_name" />
		<tag k="name" v="Riselva;Ostadelva" />
		<tag k="ssr:stedsnr" v="441096" />
		<tag k="waterway" v="stream" />
	</node>
	<node lat="68.21958611012865" lon="13.92958889032933" id="-21651">
		<tag k="name" v="Pålvatnet" />
		<tag k="natural" v="water" />
		<tag k="ssr:stedsnr" v="442583" />
	</node>
	<node lat="68.28438055669551" lon="13.776377782612284" id="-21658">
		<tag k="name" v="Brutjønna" />
		<tag k="natural" v="water" />
		<tag k="ssr:stedsnr" v="442997" />
	</node>
	<node lat="68.24378055834768" lon="13.935350005304123" id="-21702">
		<tag k="name" v="Tverrelva" />
		<tag k="ssr:stedsnr" v="480005" />
		<tag k="waterway" v="stream" />
	</node>
	<node lat="68.21931666962932" lon="14.041377772615887" id="-21714">
		<tag k="name" v="Tortendalsvatnet" />
		<tag k="natural" v="water" />
		<tag k="ssr:stedsnr" v="480803" />
	</node>
	<node lat="68.24693610882264" lon="13.995705543380437" id="-21719">
		<tag k="name" v="Bruan" />
		<tag k="natural" v="cape" />
		<tag k="ssr:stedsnr" v="480865" />
	</node>
	<node lat="68.30764166369875" lon="13.946702783291014" id="-21722">
		<tag k="name" v="Vesterdalsvatnet" />
		<tag k="natural" v="water" />
		<tag k="ssr:stedsnr" v="502012" />
	</node>
	<node lat="68.26852500088413" lon="14.11555833095137" id="-21726">
		<tag k="name" v="Haugvatnet" />
		<tag k="natural" v="water" />
		<tag k="ssr:stedsnr" v="502209" />
	</node>
	<node lat="68.26683056022975" lon="14.076027767525526" id="-21727">
		<tag k="name" v="Lomtjønna" />
		<tag k="natural" v="water" />
		<tag k="ssr:stedsnr" v="502213" />
	</node>
	<node lat="68.26646666263939" lon="13.638941657922606" id="-21761">
		<tag k="alt_name" v="Monsjohantjernet" />
		<tag k="name" v="Mons Johantjønna" />
		<tag k="natural" v="water" />
		<tag k="ssr:stedsnr" v="502974" />
	</node>
	<node lat="68.29855278026926" lon="13.65527777001461" id="-21831">
		<tag k="alt_name" v="Heimredalsvatnet, nedre" />
		<tag k="fixme" v="multiple name tags, choose one and add the other to alt_name" />
		<tag k="name" v="Heimerdalsvatnet;Nedre Heimredalsvatnet" />
		<tag k="natural" v="water" />
		<tag k="ssr:stedsnr" v="684782" />
		<tag k="water" v="lake" />
	</node>
	<node lat="68.17860555804371" lon="13.742211113839506" id="-21850">
		<tag k="name" v="Tjønnan" />
		<tag k="natural" v="water" />
		<tag k="ssr:stedsnr" v="684989" />
	</node>
	<node lat="68.08181666434335" lon="13.530002788230936" id="-21857">
		<tag k="name" v="Sjøvatnet" />
		<tag k="natural" v="water" />
		<tag k="ssr:stedsnr" v="685632" />
	</node>
	<node lat="68.08199444650444" lon="13.535491664187003" id="-21920">
		<tag k="name" v="Lakselva" />
		<tag k="ssr:stedsnr" v="571161" />
		<tag k="waterway" v="river" />
	</node>
	<node lat="68.26225277956688" lon="13.659252780027765" id="-21940">
		<tag k="name" v="Vassvika" />
		<tag k="natural" v="bay" />
		<tag k="ssr:stedsnr" v="585822" />
	</node>
	<node lat="68.16894999808449" lon="13.751983321518047" id="-22011">
		<tag k="name" v="Almenningsvatnan" />
		<tag k="natural" v="water" />
		<tag k="ssr:stedsnr" v="623975" />
	</node>
	<node lat="68.26301389016905" lon="13.552869437793046" id="-22054">
		<tag k="name" v="Lågen" />
		<tag k="natural" v="water" />
		<tag k="ssr:stedsnr" v="707802" />
		<tag k="water" v="pond" />
	</node>
	<node lat="68.21336944217435" lon="13.509494440543497" id="-22060">
		<tag k="name" v="Kveldsetelva" />
		<tag k="ssr:stedsnr" v="708184" />
		<tag k="waterway" v="stream" />
	</node>
	<node lat="68.23523889310519" lon="13.917038885210218" id="-22071">
		<tag k="name" v="Mørkfjellelva" />
		<tag k="ssr:stedsnr" v="662032" />
		<tag k="waterway" v="stream" />
	</node>
	<node lat="68.17853610914905" lon="13.8476249964926" id="-22074">
		<tag k="name" v="Trolldalselva" />
		<tag k="ssr:stedsnr" v="662076" />
		<tag k="waterway" v="stream" />
	</node>
	<node lat="68.28585555417592" lon="13.903061119437146" id="-22078">
		<tag k="name" v="Tøymhella" />
		<tag k="natural" v="bay" />
		<tag k="ssr:stedsnr" v="662180" />
	</node>
	<node lat="68.23228333045388" lon="14.020391655289853" id="-22083">
		<tag k="name" v="Olaløken" />
		<tag k="ssr:stedsnr" v="662835" />
		<tag k="waterway" v="stream" />
	</node>
	<node lat="68.09509721925303" lon="13.689455560881498" id="-22113">
		<tag k="name" v="Urevatnet" />
		<tag k="natural" v="water" />
		<tag k="ssr:stedsnr" v="684606" />
	</node>
	<node lat="68.09153333589862" lon="13.516052777602019" id="-22117">
		<tag k="name" v="Dalsvatnet" />
		<tag k="natural" v="water" />
		<tag k="ssr:stedsnr" v="684664" />
	</node>
	<node lat="68.18592222392964" lon="13.752099995711392" id="-22129">
		<tag k="alt_name" v="Kringlebotnsvatnet, store" />
		<tag k="fixme" v="multiple name tags, choose one and add the other to alt_name" />
		<tag k="name" v="Kringbotnsvatnet;Store Kringlebotnsvatnet" />
		<tag k="natural" v="water" />
		<tag k="ssr:stedsnr" v="684905" />
	</node>
	<node lat="68.08302777546822" lon="13.524827767621975" id="-22153">
		<tag k="name" v="Mølnelva" />
		<tag k="ssr:stedsnr" v="693191" />
		<tag k="waterway" v="river" />
	</node>
	<node lat="68.23056666960056" lon="13.874077789538601" id="-22184">
		<tag k="name" v="Grønliløken" />
		<tag k="ssr:stedsnr" v="723014" />
		<tag k="waterway" v="stream" />
	</node>
	<node lat="68.23135277437585" lon="13.90325554434097" id="-22185">
		<tag k="name" v="Grønåsløken" />
		<tag k="ssr:stedsnr" v="723016" />
		<tag k="waterway" v="stream" />
	</node>
	<node lat="68.19952499786159" lon="13.874636105433126" id="-22273">
		<tag k="name" v="Røyrtægran" />
		<tag k="ssr:stedsnr" v="905410" />
		<tag k="waterway" v="stream" />
	</node>
	<node lat="68.24378611133895" lon="13.85645554874206" id="-22295">
		<tag k="name" v="Liosløken" />
		<tag k="ssr:stedsnr" v="906091" />
		<tag k="waterway" v="stream" />
	</node>
	<node lat="68.17257222205276" lon="13.782338882523767" id="-22307">
		<tag k="name" v="Vesterdalselva" />
		<tag k="ssr:stedsnr" v="769903" />
		<tag k="waterway" v="stream" />
	</node>
	<node lat="68.18214166614959" lon="13.865649992450171" id="-22316">
		<tag k="name" v="Lomstjønna" />
		<tag k="natural" v="water" />
		<tag k="ssr:stedsnr" v="783064" />
	</node>
	<node lat="68.2157194449765" lon="14.048702782528064" id="-22319">
		<tag k="name" v="Hornselva" />
		<tag k="ssr:stedsnr" v="783805" />
		<tag k="waterway" v="stream" />
	</node>
	<node lat="68.21147222687222" lon="13.838099995834362" id="-22320">
		<tag k="name" v="Forsan" />
		<tag k="natural" v="waterfall" />
		<tag k="ssr:stedsnr" v="784014" />
	</node>
	<node lat="68.2846416645182" lon="13.91203333044324" id="-22321">
		<tag k="name" v="Skarvsteinan" />
		<tag k="place" v="islet" />
		<tag k="ssr:stedsnr" v="784212" />
	</node>
	<node lat="68.09441388614394" lon="13.529058322120529" id="-22354">
		<tag k="name" v="Marenholmen" />
		<tag k="natural" v="cape" />
		<tag k="ssr:stedsnr" v="814175" />
	</node>
	<node lat="68.24428055716216" lon="13.569433323044613" id="-22369">
		<tag k="name" v="Revtjønna" />
		<tag k="natural" v="water" />
		<tag k="ssr:stedsnr" v="828126" />
	</node>
	<node lat="68.22153333053242" lon="13.762997215499807" id="-22375">
		<tag k="name" v="Sørfjelltjønna" />
		<tag k="natural" v="water" />
		<tag k="ssr:stedsnr" v="831000" />
	</node>
	<node lat="68.242174998442" lon="13.96547499539774" id="-22384">
		<tag k="name" v="Svartdalselva" />
		<tag k="ssr:stedsnr" v="845003" />
		<tag k="waterway" v="stream" />
	</node>
	<node lat="68.2021472210883" lon="14.037849988282462" id="-22387">
		<tag k="name" v="Nertjønna" />
		<tag k="natural" v="water" />
		<tag k="ssr:stedsnr" v="845184" />
	</node>
	<node lat="68.25821388448026" lon="13.846852784228844" id="-22392">
		<tag k="name" v="Møtringselva" />
		<tag k="ssr:stedsnr" v="845227" />
		<tag k="waterway" v="stream" />
	</node>
	<node lat="68.26128333281567" lon="14.11007778149129" id="-22403">
		<tag k="name" v="Molandstjønna" />
		<tag k="natural" v="water" />
		<tag k="ssr:stedsnr" v="927141" />
	</node>
	<node lat="68.32805277463699" lon="13.970749997114554" id="-22404">
		<tag k="alt_name" v="Øvrevatnet" />
		<tag k="name" v="Øvervatnet" />
		<tag k="natural" v="water" />
		<tag k="ssr:stedsnr" v="927078" />
	</node>
	<node lat="68.2662055577696" lon="14.08142778121257" id="-22407">
		<tag k="name" v="Skogelva" />
		<tag k="ssr:stedsnr" v="927239" />
		<tag k="waterway" v="stream" />
	</node>
	<node lat="68.10876389164164" lon="13.48967776998255" id="-22501">
		<tag k="name" v="Mølnelva" />
		<tag k="ssr:stedsnr" v="891274" />
		<tag k="waterway" v="stream" />
	</node>
	<node lat="68.23213055878989" lon="13.909333344677817" id="-22506">
		<tag k="name" v="Storelva" />
		<tag k="ssr:stedsnr" v="905011" />
		<tag k="waterway" v="stream" />
	</node>
	<node lat="68.23359444726697" lon="13.878908335496076" id="-22507">
		<tag k="name" v="Langliløken" />
		<tag k="ssr:stedsnr" v="905017" />
		<tag k="waterway" v="stream" />
	</node>
	<node lat="68.2072777756976" lon="13.869791654983619" id="-22511">
		<tag k="name" v="Kuhola" />
		<tag k="natural" v="water" />
		<tag k="ssr:stedsnr" v="905051" />
		<tag k="water" v="lake" />
	</node>
	<node lat="68.21618888648688" lon="14.011011114264123" id="-22520">
		<tag k="name" v="Kalvlielva" />
		<tag k="ssr:stedsnr" v="905806" />
		<tag k="waterway" v="stream" />
	</node>
	<node lat="68.21848055270871" lon="14.019074997830945" id="-22521">
		<tag k="name" v="Grønlielva" />
		<tag k="ssr:stedsnr" v="905809" />
		<tag k="waterway" v="stream" />
	</node>
	<node lat="68.23715000146102" lon="14.024366674736592" id="-22523">
		<tag k="name" v="Jensløken" />
		<tag k="ssr:stedsnr" v="905853" />
		<tag k="waterway" v="stream" />
	</node>
	<node lat="68.271224997983" lon="13.880136103236207" id="-22534">
		<tag k="name" v="Knutstadtjønnan" />
		<tag k="natural" v="water" />
		<tag k="ssr:stedsnr" v="927212" />
	</node>
	<node lat="68.26059444384974" lon="14.007080553466237" id="-22577">
		<tag k="name" v="Rydnes" />
		<tag k="natural" v="water" />
		<tag k="ssr:stedsnr" v="931811" />
	</node>
	<node lat="68.07888055343848" lon="13.527341673837295" id="-22581">
		<tag k="name" v="Neset" />
		<tag k="natural" v="cape" />
		<tag k="ssr:stedsnr" v="935143" />
	</node>
	<node lat="68.20678333604245" lon="14.037702778180503" id="-22597">
		<tag k="name" v="Lumptjønna" />
		<tag k="natural" v="water" />
		<tag k="ssr:stedsnr" v="965791" />
	</node>
	<node lat="68.20747221979235" lon="13.86548333804557" id="-22599">
		<tag k="name" v="Ånesan" />
		<tag k="natural" v="cape" />
		<tag k="ssr:stedsnr" v="966034" />
	</node>
	<node lat="68.22454166546831" lon="14.09457222594516" id="-22642">
		<tag k="name" v="Malnesosen" />
		<tag k="natural" v="bay" />
		<tag k="ssr:stedsnr" v="17584" />
	</node>
	<node lat="68.21981944608851" lon="13.842505558347712" id="-22645">
		<tag k="fixme" v="multiple name tags, choose one and add the other to alt_name" />
		<tag k="name" v="Lomptjønna;Stortjønna" />
		<tag k="natural" v="water" />
		<tag k="ssr:stedsnr" v="17630" />
	</node>
	<node lat="68.2255694456477" lon="14.018047222126196" id="-22646">
		<tag k="name" v="Trolldalsvatnan" />
		<tag k="natural" v="water" />
		<tag k="ssr:stedsnr" v="17637" />
		<tag k="water" v="lake" />
	</node>
	<node lat="68.20839444423987" lon="13.831713884486753" id="-22653">
		<tag k="name" v="Tjuvhusdalsvatnet" />
		<tag k="natural" v="water" />
		<tag k="ssr:stedsnr" v="17481" />
	</node>
	<node lat="68.21446944424677" lon="13.514108335694303" id="-22737">
		<tag k="name" v="Lauvdalselva" />
		<tag k="ssr:stedsnr" v="41173" />
		<tag k="waterway" v="stream" />
	</node>
	<node lat="68.11946666733444" lon="13.517572233678607" id="-22740">
		<tag k="name" v="Trolldalselva" />
		<tag k="ssr:stedsnr" v="41242" />
		<tag k="waterway" v="stream" />
	</node>
	<node lat="68.20090833591625" lon="14.033075003250316" id="-22764">
		<tag k="name" v="Budalstjønna" />
		<tag k="natural" v="water" />
		<tag k="ssr:stedsnr" v="56159" />
	</node>
	<node lat="68.23928055487865" lon="14.043783340635445" id="-22768">
		<tag k="name" v="Langodden" />
		<tag k="natural" v="cape" />
		<tag k="ssr:stedsnr" v="56853" />
	</node>
	<node lat="68.22689444041482" lon="13.833180552940204" id="-22795">
		<tag k="name" v="Litlvatnet" />
		<tag k="natural" v="water" />
		<tag k="ssr:stedsnr" v="78608" />
	</node>
	<node lat="68.12545277967747" lon="13.71827498901152" id="-22866">
		<tag k="name" v="Tavatnet" />
		<tag k="natural" v="water" />
		<tag k="ssr:stedsnr" v="87544" />
		<tag k="water" v="lake" />
	</node>
	<node lat="68.265008329786" lon="13.658316663404081" id="-22878">
		<tag k="name" v="Grytdalselva" />
		<tag k="ssr:stedsnr" v="100818" />
		<tag k="waterway" v="stream" />
	</node>
	<node lat="68.28721111070577" lon="13.838338888501202" id="-22903">
		<tag k="name" v="Hestosløken" />
		<tag k="ssr:stedsnr" v="116172" />
		<tag k="waterway" v="stream" />
	</node>
	<node lat="68.25643333422535" lon="13.790430557146506" id="-22942">
		<tag k="name" v="Sevtjønna" />
		<tag k="natural" v="water" />
		<tag k="ssr:stedsnr" v="137941" />
	</node>
	<node lat="68.33298055376879" lon="13.968561101269898" id="-22948">
		<tag k="alt_name" v="Nedrevatnet" />
		<tag k="name" v="Nervatnet" />
		<tag k="natural" v="water" />
		<tag k="ssr:stedsnr" v="138081" />
	</node>
	<node lat="68.27806389113714" lon="14.10801943527459" id="-22949">
		<tag k="name" v="Haugelva" />
		<tag k="ssr:stedsnr" v="138246" />
		<tag k="waterway" v="stream" />
	</node>
	<node lat="68.26075555467531" lon="13.854905564844563" id="-22953">
		<tag k="alt_name" v="Slottfjelløken" />
		<tag k="name" v="Slåttfjellløken" />
		<tag k="ssr:stedsnr" v="138280" />
		<tag k="waterway" v="stream" />
	</node>
	<node lat="68.24237499830022" lon="14.099886118232892" id="-22963">
		<tag k="name" v="Molandsvatnet" />
		<tag k="natural" v="water" />
		<tag k="ssr:stedsnr" v="138529" />
	</node>
	<node lat="68.24435555313134" lon="14.020141673303296" id="-22965">
		<tag k="alt_name" v="Kvanndalvatnet" />
		<tag k="name" v="Kvanndalsvatnet" />
		<tag k="natural" v="water" />
		<tag k="ssr:stedsnr" v="138535" />
	</node>
	<node lat="68.24752777664074" lon="13.953674993294396" id="-22967">
		<tag k="fixme" v="multiple name tags, choose one and add the other to alt_name" />
		<tag k="name" v="Øvretjørna;Tjønnan" />
		<tag k="natural" v="water" />
		<tag k="ssr:stedsnr" v="138539" />
	</node>
	<node lat="68.20352222311315" lon="13.76477499707916" id="-22986">
		<tag k="name" v="Dalelva" />
		<tag k="ssr:stedsnr" v="138878" />
		<tag k="waterway" v="stream" />
	</node>
	<node lat="68.20304722207308" lon="13.744347223183805" id="-22991">
		<tag k="alt_name" v="Grønlivatnet" />
		<tag k="name" v="Grønnlivatnet" />
		<tag k="natural" v="water" />
		<tag k="ssr:stedsnr" v="138935" />
	</node>
	<node lat="68.08475277433081" lon="13.531858324642126" id="-23013">
		<tag k="name" v="Dillerelva" />
		<tag k="ssr:stedsnr" v="146148" />
		<tag k="waterway" v="river" />
	</node>
	<node lat="68.13192222392877" lon="13.7103083427431" id="-23020">
		<tag k="name" v="Nesvatnet" />
		<tag k="natural" v="water" />
		<tag k="ssr:stedsnr" v="148599" />
		<tag k="water" v="lake" />
	</node>
	<node lat="68.20943333354191" lon="13.66159444842735" id="-23035">
		<tag k="name" v="Lilleelva" />
		<tag k="ssr:stedsnr" v="160780" />
		<tag k="waterway" v="stream" />
	</node>
	<node lat="68.3016722264464" lon="13.641544450161316" id="-23036">
		<tag k="name" v="Vassholmen" />
		<tag k="place" v="islet" />
		<tag k="ssr:stedsnr" v="160865" />
	</node>
	<node lat="68.1968249993377" lon="13.811838891180411" id="-23044">
		<tag k="name" v="Kvanndalselva" />
		<tag k="ssr:stedsnr" v="162934" />
		<tag k="waterway" v="stream" />
	</node>
	<node lat="68.20905277946409" lon="13.833488894447278" id="-23047">
		<tag k="name" v="Tjuvhusdalsløken" />
		<tag k="ssr:stedsnr" v="162983" />
		<tag k="waterway" v="stream" />
	</node>
	<node lat="68.216738890425" lon="13.786875002021615" id="-23050">
		<tag k="name" v="Tolltjønna" />
		<tag k="natural" v="water" />
		<tag k="ssr:stedsnr" v="162996" />
		<tag k="water" v="pond" />
	</node>
	<node lat="68.2728416706933" lon="14.063633326883119" id="-23115">
		<tag k="name" v="Gårdsvatnet" />
		<tag k="natural" v="water" />
		<tag k="ssr:stedsnr" v="199251" />
	</node>
	<node lat="68.1778805597259" lon="13.852599989935468" id="-23119">
		<tag k="name" v="Trolldalstjønna" />
		<tag k="natural" v="water" />
		<tag k="ssr:stedsnr" v="199398" />
	</node>
	<node lat="68.24439444462301" lon="13.980388880484467" id="-23124">
		<tag k="name" v="Storvatnet" />
		<tag k="natural" v="water" />
		<tag k="ssr:stedsnr" v="199531" />
		<tag k="water" v="lake" />
	</node>
	<node lat="68.08861666434447" lon="13.532677772761" id="-23174">
		<tag k="name" v="Skotnesvatnet" />
		<tag k="natural" v="water" />
		<tag k="ssr:stedsnr" v="207151" />
		<tag k="water" v="lake" />
	</node>
	<node lat="68.2181527804697" lon="13.805999991472893" id="-23206">
		<tag k="name" v="Melkbekken" />
		<tag k="ssr:stedsnr" v="223990" />
		<tag k="waterway" v="stream" />
	</node>
	<node lat="68.25920833558338" lon="13.608497219330156" id="-23215">
		<tag k="name" v="Skredelva" />
		<tag k="ssr:stedsnr" v="282829" />
		<tag k="waterway" v="stream" />
	</node>
	<node lat="68.2531472234829" lon="13.704319436559874" id="-23218">
		<tag k="name" v="Klevstadelva" />
		<tag k="ssr:stedsnr" v="284538" />
		<tag k="waterway" v="stream" />
	</node>
	<node lat="68.20779722599788" lon="14.05484721208285" id="-23236">
		<tag k="name" v="Ostjønna" />
		<tag k="natural" v="water" />
		<tag k="ssr:stedsnr" v="298740" />
	</node>
	<node lat="68.27865000126768" lon="14.075405565031947" id="-23243">
		<tag k="name" v="Ressmålselva" />
		<tag k="ssr:stedsnr" v="298996" />
		<tag k="waterway" v="stream" />
	</node>
	<node lat="68.089144442288" lon="13.515797219203343" id="-23260">
		<tag k="name" v="Ramnflogvatnet" />
		<tag k="natural" v="water" />
		<tag k="ssr:stedsnr" v="320626" />
	</node>
	<node lat="68.21312777619032" lon="13.932427771066639" id="-23263">
		<tag k="fixme" v="multiple name tags, choose one and add the other to alt_name" />
		<tag k="name" v="Forsvatnet;Blåtinddalsvatnet" />
		<tag k="natural" v="water" />
		<tag k="ssr:stedsnr" v="320575" />
	</node>
	<node lat="68.10634166593746" lon="13.534469450619493" id="-23276">
		<tag k="alt_name" v="Jerstadelva" />
		<tag k="name" v="Gjerstadelva" />
		<tag k="ssr:stedsnr" v="320830" />
		<tag k="waterway" v="stream" />
	</node>
	<node lat="68.19571944477532" lon="13.961194452420148" id="-23323">
		<tag k="name" v="Kutjønna" />
		<tag k="natural" v="water" />
		<tag k="ssr:stedsnr" v="329559" />
	</node>
	<node lat="68.16701667024566" lon="13.75689445085337" id="-23353">
		<tag k="name" v="Brasetdalstjønna" />
		<tag k="natural" v="water" />
		<tag k="ssr:stedsnr" v="344938" />
	</node>
	<node lat="68.28305833740676" lon="13.89089167215917" id="-23358">
		<tag k="name" v="Bogelva" />
		<tag k="ssr:stedsnr" v="359189" />
		<tag k="waterway" v="stream" />
	</node>
	<node lat="68.22481111159242" lon="14.067383322780184" id="-23361">
		<tag k="name" v="Vikelva" />
		<tag k="ssr:stedsnr" v="358774" />
		<tag k="waterway" v="stream" />
	</node>
	<node lat="68.2133694462351" lon="13.887311122315799" id="-23367">
		<tag k="name" v="Tjønndalselva" />
		<tag k="ssr:stedsnr" v="359042" />
		<tag k="waterway" v="stream" />
	</node>
	<node lat="68.24184166929633" lon="14.038138887969774" id="-23384">
		<tag k="name" v="Sildtynnodden" />
		<tag k="natural" v="cape" />
		<tag k="ssr:stedsnr" v="359847" />
	</node>
	<node lat="68.26041666314933" lon="14.088772228981352" id="-23385">
		<tag k="name" v="Håtindelva" />
		<tag k="ssr:stedsnr" v="359976" />
		<tag k="waterway" v="stream" />
	</node>
	<node lat="68.31985278183224" lon="13.921050010570383" id="-23393">
		<tag k="name" v="Bøelva" />
		<tag k="ssr:stedsnr" v="380076" />
		<tag k="waterway" v="stream" />
	</node>
	<node lat="68.25817777459731" lon="13.557991662112954" id="-23401">
		<tag k="name" v="Utdalsvatnet" />
		<tag k="natural" v="water" />
		<tag k="ssr:stedsnr" v="380947" />
	</node>
	<node lat="68.28003055862733" lon="13.891788879529406" id="-23408">
		<tag k="name" v="Mørkdalsvatnet" />
		<tag k="natural" v="water" />
		<tag k="ssr:stedsnr" v="381223" />
	</node>
	<node lat="68.24761389189194" lon="14.108263894658858" id="-23414">
		<tag k="name" v="Forsdalsvatnet" />
		<tag k="natural" v="water" />
		<tag k="ssr:stedsnr" v="381518" />
	</node>
	<node lat="68.17506110691198" lon="13.778036108283711" id="-23436">
		<tag k="alt_name" v="Vesterdalsvatnet" />
		<tag k="name" v="Vestredalsvatnet" />
		<tag k="natural" v="water" />
		<tag k="ssr:stedsnr" v="381984" />
	</node>
	<node lat="68.26473055925216" lon="13.656058332663642" id="-23485">
		<tag k="name" v="Ånesan" />
		<tag k="natural" v="cape" />
		<tag k="ssr:stedsnr" v="403853" />
	</node>
	<node lat="68.21925555321499" lon="13.80362500189949" id="-23486">
		<tag k="name" v="Bruløken" />
		<tag k="ssr:stedsnr" v="405985" />
		<tag k="waterway" v="stream" />
	</node>
	<node lat="68.2092388892783" lon="14.023355557444873" id="-23507">
		<tag k="name" v="Kroktjønna" />
		<tag k="natural" v="water" />
		<tag k="ssr:stedsnr" v="420806" />
	</node>
	<node lat="68.22513610856363" lon="14.040627772585452" id="-23513">
		<tag k="name" v="Lamtjønna" />
		<tag k="natural" v="water" />
		<tag k="ssr:stedsnr" v="420827" />
	</node>
	<node lat="68.27496111158275" lon="14.060738890170699" id="-23515">
		<tag k="name" v="Grunstadelva" />
		<tag k="ssr:stedsnr" v="420770" />
		<tag k="waterway" v="stream" />
	</node>
	<node lat="68.24869444212125" lon="14.14662499572298" id="-23522">
		<tag k="name" v="Nakkelva" />
		<tag k="ssr:stedsnr" v="420983" />
		<tag k="waterway" v="stream" />
	</node>
	<node lat="68.2086833315903" lon="13.852363883351563" id="-23527">
		<tag k="name" v="Steinbakkelva" />
		<tag k="ssr:stedsnr" v="441459" />
		<tag k="waterway" v="stream" />
	</node>
	<node lat="68.1641166661129" lon="13.758955547317042" id="-23556">
		<tag k="name" v="Brasetdalsvatnet" />
		<tag k="natural" v="water" />
		<tag k="ssr:stedsnr" v="442947" />
	</node>
	<node lat="68.26154721968234" lon="13.653897211357066" id="-23565">
		<tag k="name" v="Skrådalsvatnet" />
		<tag k="natural" v="water" />
		<tag k="ssr:stedsnr" v="442968" />
	</node>
	<node lat="68.28397777502366" lon="13.899808321474389" id="-23598">
		<tag k="fixme" v="multiple name tags, choose one and add the other to alt_name" />
		<tag k="name" v="Bogtjørna;Lomtjønna" />
		<tag k="natural" v="water" />
		<tag k="ssr:stedsnr" v="502052" />
	</node>
	<node lat="68.1839833334827" lon="13.767333339464326" id="-23610">
		<tag k="alt_name" v="Kringlebotnsvatnet, l" />
		<tag k="name" v="Litle Kringlebotnsvatnet" />
		<tag k="natural" v="water" />
		<tag k="ssr:stedsnr" v="502911" />
	</node>
	<node lat="68.1590249969007" lon="13.742619440681779" id="-23638">
		<tag k="alt_name" v="Storfjordvatnet øv" />
		<tag k="fixme" v="multiple name tags, choose one and add the other to alt_name" />
		<tag k="name" v="Storfjordvatnet;Øvre Storfjordvatnet" />
		<tag k="natural" v="water" />
		<tag k="ssr:stedsnr" v="502941" />
	</node>
	<node lat="68.30018333387265" lon="13.703730556120915" id="-23674">
		<tag k="name" v="Simonelva" />
		<tag k="ssr:stedsnr" v="511557" />
		<tag k="waterway" v="river" />
	</node>
	<node lat="68.25437778157723" lon="13.665933328577724" id="-23694">
		<tag k="name" v="Langlielva" />
		<tag k="ssr:stedsnr" v="524857" />
		<tag k="waterway" v="stream" />
	</node>
	<node lat="68.23411944319517" lon="13.84146945224814" id="-23698">
		<tag k="name" v="Vendalsjordelva" />
		<tag k="ssr:stedsnr" v="525739" />
		<tag k="waterway" v="stream" />
	</node>
	<node lat="68.25456388952195" lon="13.69170833332699" id="-23702">
		<tag k="name" v="Krogtoftselva" />
		<tag k="ssr:stedsnr" v="526541" />
		<tag k="waterway" v="stream" />
	</node>
	<node lat="68.31935555349949" lon="13.92733333012762" id="-23717">
		<tag k="name" v="Vasshalsen" />
		<tag k="natural" v="bay" />
		<tag k="ssr:stedsnr" v="541125" />
	</node>
	<node lat="68.24748889140197" lon="13.86033334117573" id="-23725">
		<tag k="name" v="Oterløken" />
		<tag k="ssr:stedsnr" v="541100" />
		<tag k="waterway" v="stream" />
	</node>
	<node lat="68.23045000042974" lon="14.052366661001136" id="-23734">
		<tag k="name" v="Rødbergselva" />
		<tag k="ssr:stedsnr" v="541857" />
		<tag k="waterway" v="stream" />
	</node>
	<node lat="68.29625833630939" lon="13.996344454834466" id="-23736">
		<tag k="name" v="Smedvikelva" />
		<tag k="ssr:stedsnr" v="541961" />
		<tag k="waterway" v="stream" />
	</node>
	<node lat="68.31570277544462" lon="13.94385277110414" id="-23743">
		<tag k="fixme" v="multiple name tags, choose one and add the other to alt_name" />
		<tag k="name" v="Bøvatnet;Dalvatnet" />
		<tag k="natural" v="water" />
		<tag k="ssr:stedsnr" v="562097" />
	</node>
	<node lat="68.2522166623064" lon="14.135561117471411" id="-23746">
		<tag k="name" v="Nakkvatnet" />
		<tag k="natural" v="water" />
		<tag k="ssr:stedsnr" v="562136" />
	</node>
	<node lat="68.23916388622082" lon="13.701233343152872" id="-23780">
		<tag k="alt_name" v="Holddalslivatnet" />
		<tag k="name" v="Holddalsvatnet" />
		<tag k="natural" v="water" />
		<tag k="ssr:stedsnr" v="563079" />
		<tag k="water" v="lake" />
	</node>
	<node lat="68.15957222444398" lon="13.614269452615224" id="-23783">
		<tag k="name" v="Kretjønna" />
		<tag k="natural" v="water" />
		<tag k="ssr:stedsnr" v="562956" />
	</node>
	<node lat="68.22893333459979" lon="13.664383327874779" id="-23788">
		<tag k="name" v="Heivatnet" />
		<tag k="natural" v="water" />
		<tag k="ssr:stedsnr" v="563089" />
	</node>
	<node lat="68.23494166913751" lon="14.033038897556807" id="-23803">
		<tag k="alt_name" v="Lyngedalsvatnet, in" />
		<tag k="fixme" v="multiple name tags, choose one and add the other to alt_name" />
		<tag k="name" v="Innervatnet;Indre Lyngedalsvatnet" />
		<tag k="natural" v="water" />
		<tag k="ssr:stedsnr" v="563582" />
	</node>
	<node lat="68.22883611473641" lon="14.041463883590001" id="-23805">
		<tag k="name" v="Urtjønna" />
		<tag k="natural" v="water" />
		<tag k="ssr:stedsnr" v="563601" />
	</node>
	<node lat="68.1446111096285" lon="13.55293055490665" id="-23813">
		<tag k="name" v="Lomtjønna" />
		<tag k="natural" v="water" />
		<tag k="ssr:stedsnr" v="563809" />
	</node>
	<node lat="68.27628333592625" lon="13.718263889628679" id="-23824">
		<tag k="name" v="Keilvatnet" />
		<tag k="natural" v="water" />
		<tag k="ssr:stedsnr" v="563983" />
	</node>
	<node lat="68.24367499698538" lon="13.969880544049428" id="-23885">
		<tag k="name" v="Ølkonna" />
		<tag k="natural" v="cape" />
		<tag k="ssr:stedsnr" v="601001" />
	</node>
	<node lat="68.29134166808898" lon="13.892911112833906" id="-23890">
		<tag k="name" v="Eidet" />
		<tag k="place" v="locality" />
		<tag k="ssr:stedsnr" v="601179" />
	</node>
	<node lat="68.25867221971258" lon="14.088405558655541" id="-23959">
		<tag k="name" v="Trolltjønna" />
		<tag k="natural" v="water" />
		<tag k="ssr:stedsnr" v="624244" />
	</node>
	<node lat="68.12193055566448" lon="13.72959166654498" id="-23993">
		<tag k="name" v="Taelva" />
		<tag k="ssr:stedsnr" v="633576" />
		<tag k="waterway" v="river" />
	</node>
	<node lat="68.26899166491194" lon="13.660333320861096" id="-24012">
		<tag k="name" v="Forsan" />
		<tag k="natural" v="waterfall" />
		<tag k="ssr:stedsnr" v="646766" />
	</node>
	<node lat="68.09061388906144" lon="13.522572217306477" id="-24014">
		<tag k="name" v="Halsanelva" />
		<tag k="ssr:stedsnr" v="647220" />
		<tag k="waterway" v="stream" />
	</node>
	<node lat="68.28617222357434" lon="13.777252787595994" id="-24019">
		<tag k="name" v="Brutjønnan" />
		<tag k="natural" v="water" />
		<tag k="ssr:stedsnr" v="658222" />
		<tag k="water" v="lake" />
	</node>
	<node lat="68.20976110930287" lon="13.930436113217498" id="-24035">
		<tag k="name" v="Bakkista" />
		<tag k="ssr:stedsnr" v="662048" />
		<tag k="waterway" v="stream" />
	</node>
	<node lat="68.33988889229302" lon="13.973008335069077" id="-24038">
		<tag k="name" v="Kvalneselva" />
		<tag k="ssr:stedsnr" v="662152" />
		<tag k="waterway" v="stream" />
	</node>
	<node lat="68.27179444474652" lon="14.058833332151199" id="-24077">
		<tag k="name" v="Ringbukt" />
		<tag k="natural" v="bay" />
		<tag k="ssr:stedsnr" v="723742" />
	</node>
	<node lat="68.26276944521256" lon="14.102591672673483" id="-24081">
		<tag k="name" v="Molandselva" />
		<tag k="ssr:stedsnr" v="723953" />
		<tag k="waterway" v="stream" />
	</node>
	<node lat="68.29331111420827" lon="13.622897222194968" id="-24099">
		<tag k="name" v="Utdalsvatnet" />
		<tag k="natural" v="water" />
		<tag k="ssr:stedsnr" v="745800" />
	</node>
	<node lat="68.08602500395597" lon="13.527338877931031" id="-24103">
		<tag k="name" v="Bruhaugvatnet" />
		<tag k="natural" v="water" />
		<tag k="ssr:stedsnr" v="745645" />
	</node>
	<node lat="68.2043444447827" lon="13.510563894047618" id="-24118">
		<tag k="name" v="Vasskarvatnet" />
		<tag k="natural" v="water" />
		<tag k="ssr:stedsnr" v="745936" />
	</node>
	<node lat="68.25814722208212" lon="13.748241663387438" id="-24119">
		<tag k="name" v="Vervatnet" />
		<tag k="natural" v="water" />
		<tag k="ssr:stedsnr" v="745950" />
	</node>
	<node lat="68.16695555240932" lon="13.587205557725616" id="-24127">
		<tag k="name" v="Leirtjønnan" />
		<tag k="natural" v="water" />
		<tag k="ssr:stedsnr" v="749425" />
	</node>
	<node lat="68.27516666346456" lon="13.692394432639988" id="-24171">
		<tag k="name" v="Straumelva" />
		<tag k="ssr:stedsnr" v="769981" />
		<tag k="waterway" v="stream" />
	</node>
	<node lat="68.22453333668712" lon="13.779311100919847" id="-24172">
		<tag k="name" v="Forsen" />
		<tag k="natural" v="waterfall" />
		<tag k="ssr:stedsnr" v="770000" />
	</node>
	<node lat="68.20754444571475" lon="13.94029165682262" id="-24177">
		<tag k="name" v="Ånesan" />
		<tag k="natural" v="cape" />
		<tag k="ssr:stedsnr" v="783038" />
	</node>
	<node lat="68.22352777772014" lon="14.072002781593714" id="-24179">
		<tag k="name" v="Vikelvtjønnen" />
		<tag k="natural" v="water" />
		<tag k="ssr:stedsnr" v="783780" />
	</node>
	<node lat="68.24263611344864" lon="14.022294450380638" id="-24192">
		<tag k="name" v="Slåttelva" />
		<tag k="ssr:stedsnr" v="784870" />
		<tag k="waterway" v="stream" />
	</node>
	<node lat="68.24674721859584" lon="14.021319449112626" id="-24193">
		<tag k="name" v="Kvannløken" />
		<tag k="ssr:stedsnr" v="784871" />
		<tag k="waterway" v="stream" />
	</node>
	<node lat="68.24606110773374" lon="14.118361112285594" id="-24194">
		<tag k="name" v="Forsdalselva" />
		<tag k="ssr:stedsnr" v="784839" />
		<tag k="waterway" v="stream" />
	</node>
	<node lat="68.23448611504517" lon="13.97539444592754" id="-24239">
		<tag k="alt_name" v="Indrevatnet" />
		<tag k="name" v="Innervatnet" />
		<tag k="natural" v="water" />
		<tag k="ssr:stedsnr" v="806578" />
	</node>
	<node lat="68.22616666884228" lon="14.062619440124301" id="-24244">
		<tag k="alt_name" v="Vikjordvatnet" />
		<tag k="name" v="Vikvatnet" />
		<tag k="natural" v="water" />
		<tag k="ssr:stedsnr" v="806605" />
	</node>
	<node lat="68.19528611236805" lon="13.752444448534433" id="-24272">
		<tag k="alt_name" v="Grønlielva" />
		<tag k="name" v="Grønnlielva" />
		<tag k="ssr:stedsnr" v="806902" />
		<tag k="waterway" v="stream" />
	</node>
	<node lat="68.26961389073809" lon="13.616022231614602" id="-24283">
		<tag k="name" v="Norddalsvatnet" />
		<tag k="natural" v="water" />
		<tag k="ssr:stedsnr" v="806974" />
	</node>
	<node lat="68.28662500022273" lon="13.67463887911119" id="-24285">
		<tag k="alt_name" v="Heimredalsvatna, øvre" />
		<tag k="name" v="Øvre Heimredalsvatna" />
		<tag k="natural" v="water" />
		<tag k="ssr:stedsnr" v="806991" />
	</node>
	<node lat="68.19984444021178" lon="13.80140277913431" id="-24309">
		<tag k="name" v="Kvanndalsvatnet" />
		<tag k="natural" v="water" />
		<tag k="ssr:stedsnr" v="813854" />
	</node>
	<node lat="68.081894441382" lon="13.540650001635187" id="-24311">
		<tag k="name" v="Osen" />
		<tag k="natural" v="bay" />
		<tag k="ssr:stedsnr" v="814198" />
	</node>
	<node lat="68.25636389244903" lon="13.655147225996025" id="-24336">
		<tag k="name" v="Skrådalselva" />
		<tag k="ssr:stedsnr" v="828859" />
		<tag k="waterway" v="stream" />
	</node>
	<node lat="68.2464027760016" lon="13.980422231987337" id="-24346">
		<tag k="name" v="Røyrneset" />
		<tag k="natural" v="cape" />
		<tag k="ssr:stedsnr" v="845002" />
	</node>
	<node lat="68.23069166851114" lon="13.97508054720551" id="-24350">
		<tag k="name" v="Dalelva" />
		<tag k="ssr:stedsnr" v="845037" />
		<tag k="waterway" v="stream" />
	</node>
	<node lat="68.23063333703008" lon="14.059269440516188" id="-24356">
		<tag k="name" v="Kroktjønna" />
		<tag k="natural" v="water" />
		<tag k="ssr:stedsnr" v="845871" />
	</node>
	<node lat="68.16745278031674" lon="13.78661110082462" id="-24401">
		<tag k="name" v="Justadvatnet" />
		<tag k="natural" v="water" />
		<tag k="ssr:stedsnr" v="866983" />
	</node>
	<node lat="68.26348332929982" lon="14.09198889774115" id="-24416">
		<tag k="name" v="Skimtvatnet" />
		<tag k="natural" v="water" />
		<tag k="ssr:stedsnr" v="867167" />
	</node>
	<node lat="68.2887527809627" lon="13.760955561631736" id="-24431">
		<tag k="name" v="Stortjønna" />
		<tag k="natural" v="water" />
		<tag k="ssr:stedsnr" v="867999" />
	</node>
	<node lat="68.27736944732995" lon="13.821647220141386" id="-24432">
		<tag k="alt_name" v="Nerdalsvatnet" />
		<tag k="name" v="Nedredalsvatnet" />
		<tag k="natural" v="water" />
		<tag k="ssr:stedsnr" v="867233" />
	</node>
	<node lat="68.2203277752253" lon="14.029838882216088" id="-24445">
		<tag k="name" v="Penningvatnet" />
		<tag k="natural" v="water" />
		<tag k="ssr:stedsnr" v="867602" />
	</node>
	<node lat="68.26541666487765" lon="13.574597225376486" id="-24531">
		<tag k="name" v="Grunnvaet" />
		<tag k="ssr:stedsnr" v="949761" />
		<tag k="waterway" v="stream" />
	</node>
	<node lat="68.30730555120645" lon="13.658255556288038" id="-24535">
		<tag k="name" v="Utgardsvatnet" />
		<tag k="natural" v="water" />
		<tag k="ssr:stedsnr" v="949850" />
	</node>
	<node lat="68.26887500011895" lon="13.727975004601292" id="-24538">
		<tag k="name" v="Evjeelva" />
		<tag k="ssr:stedsnr" v="951527" />
		<tag k="waterway" v="stream" />
	</node>
	<node lat="68.28623055946842" lon="13.843063882896521" id="-24547">
		<tag k="name" v="Skrovtjønna" />
		<tag k="natural" v="water" />
		<tag k="ssr:stedsnr" v="965197" />
	</node>
	<node lat="68.24749722544253" lon="14.059230556001731" id="-24568">
		<tag k="name" v="Kvannelva" />
		<tag k="ssr:stedsnr" v="966867" />
		<tag k="waterway" v="stream" />
	</node>
	<node lat="68.23897500224504" lon="14.034272219885452" id="-24570">
		<tag k="name" v="Teielva" />
		<tag k="ssr:stedsnr" v="966870" />
		<tag k="waterway" v="stream" />
	</node>
	<node lat="68.2644333325879" lon="14.078691660261065" id="-24576">
		<tag k="name" v="Mossløken" />
		<tag k="ssr:stedsnr" v="966973" />
		<tag k="waterway" v="stream" />
	</node>
</osm>
