<?xml version="1.0" encoding="UTF-8"?>
<<<<<<< HEAD
<osm version="0.6" generator="osmapis">
	<node lat="68.20765555420564" lon="13.586713891861278" id="-10630">
		<tag k="highway" v="path" />
		<tag k="name" v="Stormyrvegen" />
		<tag k="ssr:stedsnr" v="39682" />
	</node>
	<node lat="68.28022222034183" lon="13.836999989788183" id="-10660">
=======
<osm generator="osmapis" version="0.6">
	<node id="-189792" lat="68.0932000021" lon="13.5581888795">
		<tag k="highway" v="path" />
		<tag k="name" v="Revegan" />
		<tag k="ssr:stedsnr" v="693219" />
	</node>
	<node id="-190684" lat="68.1278861067" lon="13.5721000019">
		<tag k="man_made" v="quay" />
		<tag k="name" v="Leknes Havn" />
		<tag k="place" v="locality" />
		<tag k="ssr:stedsnr" v="168909" />
	</node>
	<node id="-188632" lat="68.2802222203" lon="13.8369999898">
>>>>>>> e1d4bc35ff8a6074a6f2e91616a996b547c36f15
		<tag k="highway" v="path" />
		<tag k="name" v="Kallhaugvegen" />
		<tag k="ssr:stedsnr" v="238195" />
	</node>
<<<<<<< HEAD
	<node lat="68.07400833320368" lon="13.532469447213611" id="-10754">
		<tag k="landuse" v="harbour" />
		<tag k="name" v="Ballstad hamn" />
		<tag k="seamark:type" v="harbour" />
		<tag k="ssr:stedsnr" v="102219" />
	</node>
	<node lat="68.12788610669344" lon="13.572100001946666" id="-10883">
		<tag k="man_made" v="quay" />
		<tag k="name" v="Leknes Havn" />
		<tag k="place" v="locality" />
		<tag k="ssr:stedsnr" v="168909" />
	</node>
	<node lat="68.0772777740753" lon="13.637513882714329" id="-11107">
		<tag k="name" v="Gullholmleia" />
		<tag k="place" v="locality" />
		<tag k="ssr:stedsnr" v="270481" />
	</node>
	<node lat="68.33345277666724" lon="13.994366665089196" id="-11363">
=======
	<node id="-189014" lat="68.1520333363" lon="13.608611117">
		<tag k="aeroway" v="aerodrome" />
		<tag k="alt_name" v="Leknes" />
		<tag k="name" v="Leknes lufthavn" />
		<tag k="old_name" v="Leknes lufthamn" />
		<tag k="ssr:stedsnr" v="442961" />
	</node>
	<node id="-190288" lat="68.2076555542" lon="13.5867138919">
		<tag k="highway" v="path" />
		<tag k="name" v="Stormyrvegen" />
		<tag k="ssr:stedsnr" v="39682" />
	</node>
	<node id="-191183" lat="68.3334527767" lon="13.9943666651">
>>>>>>> e1d4bc35ff8a6074a6f2e91616a996b547c36f15
		<tag k="landuse" v="harbour" />
		<tag k="name" v="Kleivan hamn" />
		<tag k="seamark:type" v="harbour" />
		<tag k="ssr:stedsnr" v="420986" />
	</node>
<<<<<<< HEAD
	<node lat="68.12051389148155" lon="13.55632778245593" id="-11424">
=======
	<node id="-191822" lat="68.0763305592" lon="13.6461805661">
		<tag k="name" v="Skarvbergleia" />
		<tag k="place" v="locality" />
		<tag k="ssr:stedsnr" v="816522" />
	</node>
	<node id="-188616" lat="68.2313416682" lon="14.0481972205">
		<tag k="highway" v="path" />
		<tag k="name" v="Snøvegen" />
		<tag k="ssr:stedsnr" v="56844" />
	</node>
	<node id="-190532" lat="68.2588777737" lon="14.1523666709">
		<tag k="man_made" v="tower" />
		<tag k="name" v="Linkstasjon" />
		<tag k="ssr:stedsnr" v="117958" />
		<tag k="tower:type" v="communications" />
	</node>
	<node id="-189635" lat="68.0749972264" lon="13.6621805529">
		<tag k="name" v="Stabbleia" />
		<tag k="place" v="locality" />
		<tag k="ssr:stedsnr" v="572502" />
	</node>
	<node id="-189377" lat="68.1205138915" lon="13.5563277825">
>>>>>>> e1d4bc35ff8a6074a6f2e91616a996b547c36f15
		<tag k="landuse" v="harbour" />
		<tag k="name" v="Hamn" />
		<tag k="seamark:type" v="harbour" />
		<tag k="ssr:stedsnr" v="449217" />
	</node>
<<<<<<< HEAD
	<node lat="68.22766666870557" lon="13.735025009372059" id="-11621">
		<tag k="junction" v="yes" />
		<tag k="name" v="Steinfjordkrysset" />
=======
	<node id="-191543" lat="68.3354027799" lon="13.7165944387">
		<tag k="name" v="Silveita" />
>>>>>>> e1d4bc35ff8a6074a6f2e91616a996b547c36f15
		<tag k="place" v="locality" />
		<tag k="ssr:stedsnr" v="688463" />
	</node>
<<<<<<< HEAD
	<node lat="68.0749972263532" lon="13.662180552914185" id="-11653">
		<tag k="name" v="Stabbleia" />
=======
	<node id="-191796" lat="68.2408916648" lon="13.6889749937">
		<tag k="junction" v="yes" />
		<tag k="name" v="Elltoftkrysset" />
>>>>>>> e1d4bc35ff8a6074a6f2e91616a996b547c36f15
		<tag k="place" v="locality" />
		<tag k="ssr:stedsnr" v="572502" />
	</node>
<<<<<<< HEAD
	<node lat="68.07703333215997" lon="13.641061103264185" id="-11657">
=======
	<node id="-189616" lat="68.0770333322" lon="13.6410611033">
>>>>>>> e1d4bc35ff8a6074a6f2e91616a996b547c36f15
		<tag k="name" v="Maritholmleia" />
		<tag k="place" v="locality" />
		<tag k="ssr:stedsnr" v="694452" />
	</node>
<<<<<<< HEAD
	<node lat="68.07586944472138" lon="13.671699996316619" id="-11744">
=======
	<node id="-191662" lat="68.3495138895" lon="13.7849027659">
		<tag k="name" v="Borgleia" />
		<tag k="place" v="locality" />
		<tag k="ssr:stedsnr" v="775759" />
	</node>
	<node id="-191525" lat="68.0758694447" lon="13.6716999963">
>>>>>>> e1d4bc35ff8a6074a6f2e91616a996b547c36f15
		<tag k="name" v="Moholmleia" />
		<tag k="place" v="locality" />
		<tag k="ssr:stedsnr" v="633493" />
	</node>
<<<<<<< HEAD
	<node lat="68.33540277989691" lon="13.716594438715527" id="-11767">
		<tag k="name" v="Silveita" />
=======
	<node id="-190500" lat="68.2661388891" lon="14.1568638926">
		<tag k="man_made" v="quay" />
		<tag k="name" v="Mariloft" />
>>>>>>> e1d4bc35ff8a6074a6f2e91616a996b547c36f15
		<tag k="place" v="locality" />
		<tag k="ssr:stedsnr" v="653899" />
	</node>
<<<<<<< HEAD
	<node lat="68.09320000206715" lon="13.558188879471794" id="-11861">
		<tag k="highway" v="path" />
		<tag k="name" v="Revegan" />
		<tag k="ssr:stedsnr" v="693219" />
	</node>
	<node lat="68.34951388951178" lon="13.784902765944759" id="-12009">
		<tag k="name" v="Borgleia" />
		<tag k="place" v="locality" />
		<tag k="ssr:stedsnr" v="775759" />
	</node>
	<node lat="68.07633055920665" lon="13.646180566128312" id="-12057">
		<tag k="name" v="Skarvbergleia" />
		<tag k="place" v="locality" />
		<tag k="ssr:stedsnr" v="816522" />
	</node>
	<node lat="68.19745832929803" lon="13.963061102902245" id="-12171">
=======
	<node id="-189573" lat="68.2276666687" lon="13.7350250094">
		<tag k="junction" v="yes" />
		<tag k="name" v="Steinfjordkrysset" />
		<tag k="place" v="locality" />
		<tag k="ssr:stedsnr" v="688463" />
	</node>
	<node id="-190485" lat="68.0740083332" lon="13.5324694472">
		<tag k="landuse" v="harbour" />
		<tag k="name" v="Ballstad hamn" />
		<tag k="seamark:type" v="harbour" />
		<tag k="ssr:stedsnr" v="102219" />
	</node>
	<node id="-190126" lat="68.1722305556" lon="13.5733166553">
		<tag k="fixme" v="verify maritime location" />
		<tag k="mooring" v="yes" />
		<tag k="name" v="Storbåtnaustet" />
		<tag k="place" v="locality" />
		<tag k="ssr:stedsnr" v="931429" />
	</node>
	<node id="-188816" lat="68.0772777741" lon="13.6375138827">
		<tag k="name" v="Gullholmleia" />
		<tag k="place" v="locality" />
		<tag k="ssr:stedsnr" v="270481" />
	</node>
	<node id="-190085" lat="68.1974583293" lon="13.9630611029">
>>>>>>> e1d4bc35ff8a6074a6f2e91616a996b547c36f15
		<tag k="junction" v="yes" />
		<tag k="name" v="Dragkrysset" />
		<tag k="place" v="locality" />
		<tag k="ssr:stedsnr" v="875554" />
	</node>
<<<<<<< HEAD
	<node lat="68.17223055563161" lon="13.573316655259347" id="-12251">
		<tag k="fixme" v="verify maritime location" />
		<tag k="mooring" v="yes" />
		<tag k="name" v="Storbåtnaustet" />
		<tag k="place" v="locality" />
		<tag k="ssr:stedsnr" v="931429" />
	</node>
	<node lat="68.2313416681885" lon="14.048197220452927" id="-12422">
		<tag k="highway" v="path" />
		<tag k="name" v="Snøvegen" />
		<tag k="ssr:stedsnr" v="56844" />
	</node>
	<node lat="68.26613888911963" lon="14.15686389263127" id="-12543">
		<tag k="man_made" v="quay" />
		<tag k="name" v="Mariloft" />
		<tag k="place" v="locality" />
		<tag k="ssr:stedsnr" v="108900" />
	</node>
	<node lat="68.25887777368085" lon="14.152366670933079" id="-12578">
		<tag k="man_made" v="tower" />
		<tag k="name" v="Linkstasjon" />
		<tag k="ssr:stedsnr" v="117958" />
		<tag k="tower:type" v="communications" />
	</node>
	<node lat="68.15203333629425" lon="13.60861111700757" id="-13155">
		<tag k="aeroway" v="aerodrome" />
		<tag k="alt_name" v="Leknes" />
		<tag k="name" v="Leknes lufthavn" />
		<tag k="old_name" v="Leknes lufthamn" />
		<tag k="ssr:stedsnr" v="442961" />
	</node>
	<node lat="68.24089166476517" lon="13.688974993710858" id="-13845">
		<tag k="junction" v="yes" />
		<tag k="name" v="Elltoftkrysset" />
		<tag k="place" v="locality" />
		<tag k="ssr:stedsnr" v="810476" />
	</node>
=======
>>>>>>> e1d4bc35ff8a6074a6f2e91616a996b547c36f15
</osm>
