<?xml version="1.0" encoding="UTF-8"?>
<<<<<<< HEAD
<osm version="0.6" generator="osmapis">
	<node lat="68.32088888757724" lon="14.01122498815771" id="-10699">
		<tag k="name" v="Stien" />
		<tag k="place" v="locality" />
		<tag k="ssr:stedsnr" v="56989" />
	</node>
	<node lat="68.13872776062286" lon="13.642168563672168" id="-10889">
		<tag k="alt_name" v="Hol" />
=======
<osm generator="osmapis" version="0.6">
	<node id="-188736" lat="68.1386833294" lon="13.6421583256">
		<tag k="alt_name" v="Hol kirke" />
		<tag k="amenity" v="place_of_worship" />
		<tag k="denomination" v="lutheran" />
		<tag k="name" v="Hol" />
		<tag k="religion" v="christian" />
		<tag k="ssr:stedsnr" v="260822" />
	</node>
	<node id="-192030" lat="68.2323805579" lon="14.1110805474">
		<tag k="cemetery" v="grave" />
		<tag k="name" v="Malnes kirkegård" />
		<tag k="place" v="locality" />
		<tag k="ssr:stedsnr" v="966841" />
	</node>
	<node id="-191687" lat="68.2054999968" lon="13.8882472197">
		<tag k="name" v="Jensnausttomta" />
		<tag k="place" v="locality" />
		<tag k="ssr:stedsnr" v="784454" />
	</node>
	<node id="-191512" lat="68.2728972177" lon="13.9329361183">
>>>>>>> e1d4bc35ff8a6074a6f2e91616a996b547c36f15
		<tag k="amenity" v="place_of_worship" />
		<tag k="denomination" v="lutheran" />
		<tag k="name" v="Hol kirke" />
		<tag k="religion" v="christian" />
<<<<<<< HEAD
		<tag k="ssr:stedsnr" v="260822" />
	</node>
	<node lat="68.27365278149998" lon="13.73700555834487" id="-11115">
		<tag k="amenity" v="place_of_worship" />
		<tag k="fixme" v="specify religion=*, denomination=*, building=* etc" />
		<tag k="name" v="Evjen bedehus" />
		<tag k="ssr:stedsnr" v="284529" />
	</node>
	<node lat="68.19215809823793" lon="13.942106876674579" id="-12008">
		<tag k="alt_name" v="Valberg" />
		<tag k="amenity" v="place_of_worship" />
		<tag k="denomination" v="lutheran" />
		<tag k="name" v="Valberg kirke" />
		<tag k="religion" v="christian" />
		<tag k="ssr:stedsnr" v="775662" />
	</node>
	<node lat="68.10199167020096" lon="13.6568833384788" id="-12134">
=======
		<tag k="ssr:stedsnr" v="627832" />
	</node>
	<node id="-190071" lat="68.1019916702" lon="13.6568833385">
		<tag k="cemetery" v="grave" />
		<tag k="name" v="Pettvika kirkegård" />
		<tag k="place" v="locality" />
		<tag k="ssr:stedsnr" v="870107" />
	</node>
	<node id="-190934" lat="68.1447888919" lon="13.6449638847">
		<tag k="name" v="Vestvågøy museum" />
		<tag k="ssr:stedsnr" v="324062" />
		<tag k="tourism" v="museum" />
	</node>
	<node id="-191637" lat="68.1994138929" lon="13.9648611066">
		<tag k="amenity" v="community_centre" />
		<tag k="name" v="Skogstjerna ungdomshus" />
		<tag k="ssr:stedsnr" v="754592" />
	</node>
	<node id="-189918" lat="68.1921580982" lon="13.9421068767">
		<tag k="amenity" v="place_of_worship" />
		<tag k="denomination" v="lutheran" />
		<tag k="name" v="Valberg" />
		<tag k="religion" v="christian" />
		<tag k="ssr:stedsnr" v="775662" />
	</node>
	<node id="-190099" lat="68.3146861127" lon="13.8617527711">
>>>>>>> e1d4bc35ff8a6074a6f2e91616a996b547c36f15
		<tag k="cemetery" v="grave" />
		<tag k="name" v="Pettvika kirkegård" />
		<tag k="place" v="locality" />
		<tag k="ssr:stedsnr" v="870107" />
	</node>
<<<<<<< HEAD
	<node lat="68.314686112748" lon="13.86175277108934" id="-12195">
		<tag k="cemetery" v="grave" />
		<tag k="name" v="Sand kirkegård" />
		<tag k="place" v="locality" />
		<tag k="ssr:stedsnr" v="905224" />
	</node>
	<node lat="68.14478889187997" lon="13.644963884698122" id="-12912">
		<tag k="name" v="Vestvågøy museum" />
		<tag k="ssr:stedsnr" v="324062" />
		<tag k="tourism" v="museum" />
	</node>
	<node lat="68.21976666509755" lon="14.065030564038002" id="-12964">
=======
	<node id="-188845" lat="68.2736527815" lon="13.7370055583">
		<tag k="amenity" v="place_of_worship" />
		<tag k="fixme" v="specify religion=*, denomination=*, building=* etc" />
		<tag k="name" v="Evjen bedehus" />
		<tag k="ssr:stedsnr" v="284529" />
	</node>
	<node id="-190999" lat="68.2197666651" lon="14.065030564">
>>>>>>> e1d4bc35ff8a6074a6f2e91616a996b547c36f15
		<tag k="amenity" v="community_centre" />
		<tag k="name" v="Nordlys ungdomshus" />
		<tag k="ssr:stedsnr" v="358792" />
	</node>
<<<<<<< HEAD
	<node lat="68.24476377713559" lon="13.770807427196623" id="-13191">
		<tag k="alt_name" v="Borge" />
=======
	<node id="-190343" lat="68.3208888876" lon="14.0112249882">
		<tag k="name" v="Stien" />
		<tag k="place" v="locality" />
		<tag k="ssr:stedsnr" v="56989" />
	</node>
	<node id="-191750" lat="68.1171527758" lon="13.5603333362">
>>>>>>> e1d4bc35ff8a6074a6f2e91616a996b547c36f15
		<tag k="amenity" v="place_of_worship" />
		<tag k="denomination" v="lutheran" />
		<tag k="name" v="Borge kirke" />
		<tag k="religion" v="christian" />
<<<<<<< HEAD
		<tag k="ssr:stedsnr" v="502062" />
	</node>
	<node lat="68.14395000118702" lon="13.83919999988082" id="-13476">
		<tag k="amenity" v="place_of_worship" />
		<tag k="denomination" v="lutheran" />
		<tag k="name" v="Stamsund kirke" />
		<tag k="religion" v="christian" />
		<tag k="ssr:stedsnr" v="623346" />
	</node>
	<node lat="68.27289721773909" lon="13.932936118263413" id="-13538">
		<tag k="amenity" v="place_of_worship" />
		<tag k="denomination" v="lutheran" />
		<tag k="name" v="Knutstad kapell" />
		<tag k="religion" v="christian" />
		<tag k="ssr:stedsnr" v="627832" />
	</node>
	<node lat="68.19941389288907" lon="13.964861106612695" id="-13696">
		<tag k="amenity" v="community_centre" />
		<tag k="name" v="Skogstjerna ungdomshus" />
		<tag k="ssr:stedsnr" v="754592" />
	</node>
	<node lat="68.20549999682878" lon="13.888247219653973" id="-13729">
		<tag k="name" v="Jensnausttomta" />
		<tag k="place" v="locality" />
		<tag k="ssr:stedsnr" v="784454" />
	</node>
	<node lat="68.11715683017913" lon="13.56029915109286" id="-13804">
		<tag k="alt_name" v="Buksnes" />
		<tag k="amenity" v="place_of_worship" />
		<tag k="denomination" v="lutheran" />
		<tag k="name" v="Buksnes kirke" />
		<tag k="religion" v="christian" />
		<tag k="ssr:stedsnr" v="806879" />
	</node>
	<node lat="68.23238055788948" lon="14.11108054741072" id="-14069">
		<tag k="cemetery" v="grave" />
		<tag k="name" v="Malnes kirkegård" />
		<tag k="place" v="locality" />
		<tag k="ssr:stedsnr" v="966841" />
=======
		<tag k="ssr:stedsnr" v="806879" />
	</node>
	<node id="-189443" lat="68.2447694425" lon="13.7708083443">
		<tag k="alt_name" v="Borge kirke" />
		<tag k="amenity" v="place_of_worship" />
		<tag k="denomination" v="lutheran" />
		<tag k="name" v="Borge" />
		<tag k="religion" v="christian" />
		<tag k="ssr:stedsnr" v="502062" />
	</node>
	<node id="-191425" lat="68.1439500012" lon="13.8391999999">
		<tag k="amenity" v="place_of_worship" />
		<tag k="denomination" v="lutheran" />
		<tag k="name" v="Stamsund kirke" />
		<tag k="religion" v="christian" />
		<tag k="ssr:stedsnr" v="623346" />
>>>>>>> e1d4bc35ff8a6074a6f2e91616a996b547c36f15
	</node>
</osm>
