<?xml version="1.0" encoding="UTF-8"?>
<osm generator="osmapis" version="0.6">
	<node id="-704504" lat="68.1944777755" lon="13.8236388904">
		<tag k="alt_name" v="Kartfjord" />
		<tag k="name" v="Kartfjorden" />
		<tag k="place" v="farm" />
		<tag k="ssr:stedsnr" v="927447" />
	</node>
	<node id="-702454" lat="68.0842166672" lon="13.6483416705">
		<tag k="name" v="Buvika" />
		<tag k="place" v="isolated_dwelling" />
		<tag k="ssr:stedsnr" v="203108" />
	</node>
	<node id="-702452" lat="68.1707000027" lon="13.6224555498">
		<tag k="name" v="Skullbru" />
		<tag k="place" v="hamlet" />
		<tag k="ssr:stedsnr" v="199977" />
	</node>
	<node id="-704494" lat="68.267636115" lon="13.9404499995">
		<tag k="name" v="Alstad" />
		<tag k="place" v="farm" />
		<tag k="ssr:stedsnr" v="927249" />
	</node>
	<node id="-702444" lat="68.1923583353" lon="13.5997777757">
		<tag k="name" v="Repp" />
		<tag k="place" v="hamlet" />
		<tag k="ssr:stedsnr" v="199926" />
	</node>
	<node id="-704490" lat="68.2809055542" lon="14.0796249947">
		<tag k="alt_name" v="Slettene" />
		<tag k="name" v="Sletten" />
		<tag k="place" v="farm" />
		<tag k="ssr:stedsnr" v="927201" />
	</node>
	<node id="-704489" lat="68.2649055554" lon="14.1588111219">
		<tag k="name" v="Smorten" />
		<tag k="place" v="farm" />
		<tag k="ssr:stedsnr" v="927159" />
	</node>
	<node id="-704483" lat="68.2187972234" lon="13.6916499926">
		<tag k="name" v="Ostad" />
		<tag k="place" v="farm" />
		<tag k="ssr:stedsnr" v="927110" />
	</node>
	<node id="-704482" lat="68.2237555546" lon="13.7298138933">
		<tag k="name" v="Taen" />
		<tag k="place" v="farm" />
		<tag k="ssr:stedsnr" v="927105" />
	</node>
	<node id="-702432" lat="68.1792388855" lon="13.6113444408">
		<tag k="name" v="Oppdøl" />
		<tag k="place" v="farm" />
		<tag k="ssr:stedsnr" v="199885" />
	</node>
	<node id="-704478" lat="68.2462888899" lon="13.7757805545">
		<tag k="name" v="Borgsjøen" />
		<tag k="place" v="farm" />
		<tag k="ssr:stedsnr" v="927058" />
	</node>
	<node id="-702429" lat="68.1261138875" lon="13.6343500011">
		<tag k="name" v="Båtneset" />
		<tag k="place" v="farm" />
		<tag k="ssr:stedsnr" v="199863" />
	</node>
	<node id="-704476" lat="68.1158527787" lon="13.6497222227">
		<tag k="name" v="Bakkejord" />
		<tag k="place" v="farm" />
		<tag k="ssr:stedsnr" v="927847" />
	</node>
	<node id="-704469" lat="68.1549138921" lon="13.7420666754">
		<tag k="name" v="Skogset" />
		<tag k="place" v="farm" />
		<tag k="ssr:stedsnr" v="927811" />
	</node>
	<node id="-702419" lat="68.3080722207" lon="13.6845416742">
		<tag k="fixme" v="consider place=suburb, village or hamlet" />
		<tag k="name" v="Eggum" />
		<tag k="place" v="quarter" />
		<tag k="ssr:stedsnr" v="199791" />
	</node>
	<node id="-702403" lat="68.2380083293" lon="13.8631499952">
		<tag k="alt_name" v="Lie" />
		<tag k="name" v="Li" />
		<tag k="place" v="farm" />
		<tag k="ssr:stedsnr" v="199492" />
	</node>
	<node id="-702402" lat="68.1953055586" lon="14.0329388879">
		<tag k="name" v="Klauva" />
		<tag k="place" v="farm" />
		<tag k="ssr:stedsnr" v="199489" />
	</node>
	<node id="-702401" lat="68.2049361068" lon="13.8843166639">
		<tag k="name" v="Strandslett" />
		<tag k="place" v="isolated_dwelling" />
		<tag k="ssr:stedsnr" v="199447" />
	</node>
	<node id="-702400" lat="68.2054861067" lon="13.8916750097">
		<tag k="alt_name" v="Kongsjord" />
		<tag k="fixme" v="multiple name tags, choose one and add the other to alt_name" />
		<tag k="name" v="Kongsjorden;Nedre Kongsjorden" />
		<tag k="place" v="farm" />
		<tag k="ssr:stedsnr" v="199438" />
	</node>
	<node id="-702396" lat="68.1301305528" lon="13.8493249951">
		<tag k="name" v="Stamsund" />
		<tag k="place" v="village" />
		<tag k="ssr:stedsnr" v="199329" />
	</node>
	<node id="-702393" lat="68.2638361072" lon="13.8183999946">
		<tag k="alt_name" v="Sletteng" />
		<tag k="name" v="Slettenga" />
		<tag k="place" v="farm" />
		<tag k="ssr:stedsnr" v="199274" />
	</node>
	<node id="-702392" lat="68.2593000046" lon="13.9932972162">
		<tag k="name" v="Skogheim" />
		<tag k="place" v="farm" />
		<tag k="ssr:stedsnr" v="199264" />
	</node>
	<node id="-702381" lat="68.108666664" lon="13.6311777855">
		<tag k="name" v="Stormyra" />
		<tag k="place" v="farm" />
		<tag k="ssr:stedsnr" v="199669" />
	</node>
	<node id="-702373" lat="68.2367305555" lon="14.0383361021">
		<tag k="name" v="Finnvollen" />
		<tag k="place" v="locality" />
		<tag k="ssr:stedsnr" v="199606" />
	</node>
	<node id="-702372" lat="68.2424384544" lon="13.704569609">
		<tag k="alt_name" v="Holdal" />
		<tag k="fixme" v="consider place=hamlet" />
		<tag k="name" v="Holddal" />
		<tag k="place" v="farm" />
		<tag k="ssr:stedsnr" v="199100" />
	</node>
	<node id="-702371" lat="68.3340277759" lon="13.9921888824">
		<tag k="name" v="Kleivan" />
		<tag k="place" v="farm" />
		<tag k="ssr:stedsnr" v="199098" />
	</node>
	<node id="-702370" lat="68.2388555542" lon="13.8056111132">
		<tag k="alt_name" v="Handberg" />
		<tag k="name" v="Handberget" />
		<tag k="place" v="farm" />
		<tag k="ssr:stedsnr" v="199095" />
	</node>
	<node id="-702366" lat="68.2485388928" lon="13.6862500109">
		<tag k="fixme" v="consider place=hamlet" />
		<tag k="name" v="Kråktoft" />
		<tag k="place" v="farm" />
		<tag k="ssr:stedsnr" v="199070" />
	</node>
	<node id="-702362" lat="68.2985527734" lon="14.0020611094">
		<tag k="alt_name" v="Smedvika, yt" />
		<tag k="name" v="Smedvik ytre" />
		<tag k="place" v="farm" />
		<tag k="ssr:stedsnr" v="199046" />
	</node>
	<node id="-704402" lat="68.1922277761" lon="13.9396694486">
		<tag k="name" v="Valberg gard" />
		<tag k="place" v="farm" />
		<tag k="ssr:stedsnr" v="874397" />
	</node>
	<node id="-702350" lat="68.3196111134" lon="14.0108916775">
		<tag k="name" v="Halsan" />
		<tag k="place" v="farm" />
		<tag k="ssr:stedsnr" v="199112" />
	</node>
	<node id="-704395" lat="68.2978666675" lon="13.8689388818">
		<tag k="amenity" v="school" />
		<tag k="name" v="Haukland skole" />
		<tag k="ssr:stedsnr" v="871825" />
	</node>
	<node id="-704525" lat="68.1427055567" lon="13.7596277803">
		<tag k="name" v="Arholmen" />
		<tag k="place" v="farm" />
		<tag k="ssr:stedsnr" v="927777" />
	</node>
	<node id="-704380" lat="68.1221055548" lon="13.6374083245">
		<tag k="name" v="Sandberg" />
		<tag k="place" v="farm" />
		<tag k="ssr:stedsnr" v="870439" />
	</node>
	<node id="-704379" lat="68.1243666647" lon="13.6403833271">
		<tag k="name" v="Sandosan" />
		<tag k="place" v="farm" />
		<tag k="ssr:stedsnr" v="870437" />
	</node>
	<node id="-702328" lat="68.1487499991" lon="13.8483472303">
		<tag k="fixme" v="consider place=hamlet" />
		<tag k="name" v="Myklevika" />
		<tag k="place" v="village" />
		<tag k="ssr:stedsnr" v="177439" />
	</node>
	<node id="-704047" lat="68.2775305536" lon="14.0677500074">
		<tag k="name" v="Moen" />
		<tag k="place" v="farm" />
		<tag k="ssr:stedsnr" v="784780" />
	</node>
	<node id="-704364" lat="68.3395222208" lon="13.9254555667">
		<tag k="name" v="Tøa" />
		<tag k="place" v="farm" />
		<tag k="ssr:stedsnr" v="867904" />
	</node>
	<node id="-704363" lat="68.3417027794" lon="13.9732666565">
		<tag k="fixme" v="consider place=hamlet" />
		<tag k="name" v="Kvalnes" />
		<tag k="place" v="village" />
		<tag k="ssr:stedsnr" v="867903" />
	</node>
	<node id="-704362" lat="68.1717055587" lon="13.5652777866">
		<tag k="name" v="Valberget" />
		<tag k="place" v="hamlet" />
		<tag k="ssr:stedsnr" v="867902" />
	</node>
	<node id="-704361" lat="68.1737999991" lon="13.5285305462">
		<tag k="name" v="Høgtaen" />
		<tag k="place" v="farm" />
		<tag k="ssr:stedsnr" v="867899" />
	</node>
	<node id="-704360" lat="68.1748249967" lon="13.6483527831">
		<tag k="name" v="Nyrud" />
		<tag k="place" v="farm" />
		<tag k="ssr:stedsnr" v="867898" />
	</node>
	<node id="-704358" lat="68.3319249971" lon="13.8772499965">
		<tag k="name" v="Stranda" />
		<tag k="place" v="farm" />
		<tag k="ssr:stedsnr" v="867893" />
	</node>
	<node id="-704355" lat="68.1122527811" lon="13.7080749902">
		<tag k="alt_name" v="Sennesvika" />
		<tag k="name" v="Sennesvik" />
		<tag k="place" v="hamlet" />
		<tag k="ssr:stedsnr" v="867847" />
	</node>
	<node id="-704353" lat="68.14173889" lon="13.6103361161">
		<tag k="name" v="Nakken" />
		<tag k="place" v="farm" />
		<tag k="ssr:stedsnr" v="867804" />
	</node>
	<node id="-702299" lat="68.1111527796" lon="13.6401166713">
		<tag k="name" v="Skomakerstranda" />
		<tag k="place" v="isolated_dwelling" />
		<tag k="ssr:stedsnr" v="168910" />
	</node>
	<node id="-702296" lat="68.1550333365" lon="13.7473555659">
		<tag k="name" v="Finnesvik" />
		<tag k="place" v="farm" />
		<tag k="ssr:stedsnr" v="168606" />
	</node>
	<node id="-704337" lat="68.2129388917" lon="13.9940555641">
		<tag k="alt_name" v="Dal nedre" />
		<tag k="name" v="Nedredal" />
		<tag k="place" v="farm" />
		<tag k="ssr:stedsnr" v="867468" />
	</node>
	<node id="-704330" lat="68.2753277744" lon="14.1351944488">
		<tag k="alt_name" v="Kilvik" />
		<tag k="name" v="Kilvika" />
		<tag k="place" v="farm" />
		<tag k="ssr:stedsnr" v="867261" />
	</node>
	<node id="-702281" lat="68.3247527792" lon="13.8041555536">
		<tag k="name" v="Borgvær hovedgård" />
		<tag k="place" v="farm" />
		<tag k="ssr:stedsnr" v="162545" />
	</node>
	<node id="-702273" lat="68.2114555579" lon="13.5142555661">
		<tag k="name" v="Slettvoll" />
		<tag k="place" v="farm" />
		<tag k="ssr:stedsnr" v="162169" />
	</node>
	<node id="-702272" lat="68.2104944436" lon="13.5221416769">
		<tag k="name" v="Storekra" />
		<tag k="place" v="farm" />
		<tag k="ssr:stedsnr" v="162168" />
	</node>
	<node id="-702264" lat="68.118108331" lon="13.4894972335">
		<tag k="amenity" v="school" />
		<tag k="name" v="Sund skole" />
		<tag k="ssr:stedsnr" v="160178" />
	</node>
	<node id="-704306" lat="68.1702277783" lon="13.6521722178">
		<tag k="name" v="Myrvang" />
		<tag k="place" v="farm" />
		<tag k="ssr:stedsnr" v="866980" />
	</node>
	<node id="-704301" lat="68.1208861078" lon="13.4840944414">
		<tag k="name" v="Hattan" />
		<tag k="place" v="hamlet" />
		<tag k="ssr:stedsnr" v="866851" />
	</node>
	<node id="-702245" lat="68.238969448" lon="13.7460555503">
		<tag k="name" v="Borg" />
		<tag k="place" v="isolated_dwelling" />
		<tag k="ssr:stedsnr" v="143483" />
	</node>
	<node id="-704292" lat="68.1351944455" lon="13.6108027841">
		<tag k="name" v="Leknessjøen" />
		<tag k="place" v="isolated_dwelling" />
		<tag k="ssr:stedsnr" v="866746" />
	</node>
	<node id="-702240" lat="68.1525749986" lon="13.7632944448">
		<tag k="name" v="Blixheim" />
		<tag k="place" v="isolated_dwelling" />
		<tag k="ssr:stedsnr" v="143271" />
	</node>
	<node id="-704287" lat="68.0617333365" lon="13.4904749915">
		<tag k="name" v="Sørgræna" />
		<tag k="place" v="isolated_dwelling" />
		<tag k="ssr:stedsnr" v="866672" />
	</node>
	<node id="-702237" lat="68.1182694433" lon="13.6549333355">
		<tag k="name" v="Lidarheim" />
		<tag k="place" v="farm" />
		<tag k="ssr:stedsnr" v="143094" />
	</node>
	<node id="-702235" lat="68.2577944443" lon="14.0409944371">
		<tag k="name" v="Høgda" />
		<tag k="place" v="isolated_dwelling" />
		<tag k="ssr:stedsnr" v="142793" />
	</node>
	<node id="-704278" lat="68.3098333298" lon="13.8631583415">
		<tag k="fixme" v="consider place=hamlet" />
		<tag k="name" v="Vestersand" />
		<tag k="place" v="village" />
		<tag k="ssr:stedsnr" v="866077" />
	</node>
	<node id="-704276" lat="68.3239166634" lon="14.0044944474">
		<tag k="alt_name" v="Rekdal" />
		<tag k="name" v="Rekdalen" />
		<tag k="place" v="farm" />
		<tag k="ssr:stedsnr" v="866055" />
	</node>
	<node id="-704275" lat="68.1998888853" lon="13.6646305572">
		<tag k="fixme" v="multiple name tags, choose one and add the other to alt_name" />
		<tag k="name" v="Selje;Sølje" />
		<tag k="place" v="farm" />
		<tag k="ssr:stedsnr" v="866942" />
	</node>
	<node id="-702226" lat="68.2024305581" lon="13.6685083346">
		<tag k="name" v="Engen" />
		<tag k="place" v="isolated_dwelling" />
		<tag k="ssr:stedsnr" v="142376" />
	</node>
	<node id="-704267" lat="68.2683777786" lon="14.0945777769">
		<tag k="name" v="Seter" />
		<tag k="place" v="locality" />
		<tag k="ssr:stedsnr" v="845968" />
	</node>
	<node id="-702213" lat="68.1793805545" lon="13.6386138954">
		<tag k="name" v="Høybakkmoa" />
		<tag k="place" v="hamlet" />
		<tag k="ssr:stedsnr" v="138891" />
	</node>
	<node id="-702202" lat="68.1474555535" lon="13.6115083374">
		<tag k="name" v="Leknes" />
		<tag k="place" v="town" />
		<tag k="ssr:stedsnr" v="138811" />
	</node>
	<node id="-702201" lat="68.1485750017" lon="13.7360999899">
		<tag k="name" v="Sætran" />
		<tag k="place" v="farm" />
		<tag k="ssr:stedsnr" v="138808" />
	</node>
	<node id="-704248" lat="68.1953138903" lon="14.0016083413">
		<tag k="name" v="Elvlia" />
		<tag k="place" v="isolated_dwelling" />
		<tag k="ssr:stedsnr" v="845180" />
	</node>
	<node id="-702199" lat="68.140705557" lon="13.6634277886">
		<tag k="name" v="Holsdalen" />
		<tag k="place" v="farm" />
		<tag k="ssr:stedsnr" v="138791" />
	</node>
	<node id="-702194" lat="68.1308499984" lon="13.4961722126">
		<tag k="name" v="Horn" />
		<tag k="place" v="hamlet" />
		<tag k="ssr:stedsnr" v="138778" />
	</node>
	<node id="-702184" lat="68.1979888865" lon="13.6773444549">
		<tag k="alt_name" v="Voll, midtre" />
		<tag k="name" v="Midtre Voll" />
		<tag k="place" v="farm" />
		<tag k="ssr:stedsnr" v="138914" />
	</node>
	<node id="-704231" lat="68.1429333342" lon="13.7692722276">
		<tag k="name" v="Løkhaugen" />
		<tag k="place" v="farm" />
		<tag k="ssr:stedsnr" v="836582" />
	</node>
	<node id="-702182" lat="68.1850583338" lon="13.6415027704">
		<tag k="name" v="Vian" />
		<tag k="place" v="hamlet" />
		<tag k="ssr:stedsnr" v="138905" />
	</node>
	<node id="-704226" lat="68.1637333324" lon="13.8029972307">
		<tag k="name" v="Justad Nedre" />
		<tag k="place" v="farm" />
		<tag k="ssr:stedsnr" v="830936" />
	</node>
	<node id="-702177" lat="68.236822224" lon="14.1116333255">
		<tag k="name" v="Moland" />
		<tag k="place" v="farm" />
		<tag k="ssr:stedsnr" v="138602" />
	</node>
	<node id="-704221" lat="68.2848472259" lon="13.8059055512">
		<tag k="name" v="Langvågen" />
		<tag k="place" v="isolated_dwelling" />
		<tag k="ssr:stedsnr" v="830496" />
	</node>
	<node id="-702166" lat="68.1893305559" lon="13.8929638877">
		<tag k="alt_name" v="Bakjord" />
		<tag k="name" v="Bakjorden" />
		<tag k="place" v="farm" />
		<tag k="ssr:stedsnr" v="138477" />
	</node>
	<node id="-702157" lat="68.2615416624" lon="14.0066527761">
		<tag k="name" v="Hellossjøen" />
		<tag k="place" v="farm" />
		<tag k="ssr:stedsnr" v="138266" />
	</node>
	<node id="-702156" lat="68.2705805568" lon="14.0553027759">
		<tag k="name" v="Grundstad" />
		<tag k="place" v="farm" />
		<tag k="ssr:stedsnr" v="138255" />
	</node>
	<node id="-704198" lat="68.1199166632" lon="13.5368750064">
		<tag k="amenity" v="hospital" />
		<tag k="name" v="Gravdal sykehus" />
		<tag k="ssr:stedsnr" v="814270" />
	</node>
	<node id="-704193" lat="68.109783332" lon="13.683219433">
		<tag k="name" v="Nyheim" />
		<tag k="place" v="farm" />
		<tag k="ssr:stedsnr" v="813859" />
	</node>
	<node id="-704191" lat="68.1077249969" lon="13.5490083282">
		<tag k="name" v="Brekka" />
		<tag k="place" v="hamlet" />
		<tag k="ssr:stedsnr" v="813178" />
	</node>
	<node id="-702139" lat="68.2862000016" lon="14.0931222303">
		<tag k="name" v="Strandhaug" />
		<tag k="place" v="farm" />
		<tag k="ssr:stedsnr" v="138065" />
	</node>
	<node id="-704174" lat="68.1415194483" lon="13.6066500125">
		<tag k="name" v="Storvollen" />
		<tag k="place" v="farm" />
		<tag k="ssr:stedsnr" v="810430" />
	</node>
	<node id="-704163" lat="68.1616055528" lon="13.7953166658">
		<tag k="name" v="Kråklisjøen" />
		<tag k="place" v="farm" />
		<tag k="ssr:stedsnr" v="810311" />
	</node>
	<node id="-704161" lat="68.1183750011" lon="13.79125833">
		<tag k="name" v="Inner-Steine" />
		<tag k="place" v="hamlet" />
		<tag k="ssr:stedsnr" v="810308" />
	</node>
	<node id="-704159" lat="68.1381805529" lon="13.8345444386">
		<tag k="amenity" v="school" />
		<tag k="name" v="Svarholt skole" />
		<tag k="ssr:stedsnr" v="810269" />
	</node>
	<node id="-704153" lat="68.1433527782" lon="13.5877749992">
		<tag k="name" v="Dønnvoll" />
		<tag k="place" v="quarter" />
		<tag k="ssr:stedsnr" v="810099" />
	</node>
	<node id="-704148" lat="68.2841694466" lon="13.7300777875">
		<tag k="name" v="Nesjeøya" />
		<tag k="place" v="farm" />
		<tag k="ssr:stedsnr" v="806999" />
	</node>
	<node id="-704142" lat="68.2068999996" lon="13.7282500095">
		<tag k="name" v="Nykmarka" />
		<tag k="place" v="farm" />
		<tag k="ssr:stedsnr" v="806938" />
	</node>
	<node id="-704134" lat="68.1806194411" lon="13.5218944461">
		<tag k="name" v="Vågan" />
		<tag k="place" v="farm" />
		<tag k="ssr:stedsnr" v="806895" />
	</node>
	<node id="-702079" lat="68.1145916643" lon="13.5607583229">
		<tag k="name" v="Klokkergården" />
		<tag k="place" v="locality" />
		<tag k="ssr:stedsnr" v="108910" />
	</node>
	<node id="-704118" lat="68.1446722203" lon="13.6547000057">
		<tag k="name" v="Elvhaugen" />
		<tag k="place" v="farm" />
		<tag k="ssr:stedsnr" v="806798" />
	</node>
	<node id="-702066" lat="68.2000194483" lon="13.6890055533">
		<tag k="name" v="Nymoen" />
		<tag k="place" v="farm" />
		<tag k="ssr:stedsnr" v="102904" />
	</node>
	<node id="-704108" lat="68.1016194442" lon="13.6553444446">
		<tag k="name" v="Pettvika" />
		<tag k="place" v="hamlet" />
		<tag k="ssr:stedsnr" v="806700" />
	</node>
	<node id="-704105" lat="68.1092722247" lon="13.6983694469">
		<tag k="name" v="Raen" />
		<tag k="place" v="farm" />
		<tag k="ssr:stedsnr" v="806679" />
	</node>
	<node id="-704103" lat="68.0908027805" lon="13.4681777889">
		<tag k="alt_name" v="Vitting s;Sørvetting" />
		<tag k="name" v="Søndre Vitting" />
		<tag k="place" v="farm" />
		<tag k="ssr:stedsnr" v="806633" />
	</node>
	<node id="-702054" lat="68.0769055579" lon="13.5276027763">
		<tag k="name" v="Rekstrand" />
		<tag k="place" v="farm" />
		<tag k="ssr:stedsnr" v="102187" />
	</node>
	<node id="-704088" lat="68.1979500016" lon="13.8941638907">
		<tag k="name" v="Selnes" />
		<tag k="place" v="farm" />
		<tag k="ssr:stedsnr" v="806426" />
	</node>
	<node id="-704086" lat="68.2585361124" lon="13.8205777889">
		<tag k="name" v="Straumgård" />
		<tag k="place" v="farm" />
		<tag k="ssr:stedsnr" v="806266" />
	</node>
	<node id="-704081" lat="68.2762000023" lon="14.0687722166">
		<tag k="name" v="Hellarhaugen" />
		<tag k="place" v="farm" />
		<tag k="ssr:stedsnr" v="806184" />
	</node>
	<node id="-704080" lat="68.2516527806" lon="14.003580558">
		<tag k="name" v="Reinhaugen" />
		<tag k="place" v="farm" />
		<tag k="ssr:stedsnr" v="806118" />
	</node>
	<node id="-704078" lat="68.317916669" lon="13.873769457">
		<tag k="name" v="Sand" />
		<tag k="place" v="farm" />
		<tag k="ssr:stedsnr" v="806096" />
	</node>
	<node id="-702029" lat="68.1937805532" lon="13.9326777887">
		<tag k="fixme" v="consider place=hamlet" />
		<tag k="name" v="Øvre Valberg" />
		<tag k="place" v="village" />
		<tag k="ssr:stedsnr" v="85309" />
	</node>
	<node id="-704075" lat="68.2477861141" lon="13.7057861101">
		<tag k="name" v="Klevstad" />
		<tag k="place" v="farm" />
		<tag k="ssr:stedsnr" v="806056" />
	</node>
	<node id="-704074" lat="68.248011108" lon="13.604558325">
		<tag k="name" v="Halsan" />
		<tag k="place" v="farm" />
		<tag k="ssr:stedsnr" v="806054" />
	</node>
	<node id="-704066" lat="68.2560805517" lon="13.7814527855">
		<tag k="fixme" v="consider place=suburb, village or hamlet" />
		<tag k="name" v="Hagvågen" />
		<tag k="place" v="quarter" />
		<tag k="ssr:stedsnr" v="805935" />
	</node>
	<node id="-704060" lat="68.2139333333" lon="13.5946583323">
		<tag k="name" v="Pottjorda" />
		<tag k="place" v="farm" />
		<tag k="ssr:stedsnr" v="805106" />
	</node>
	<node id="-704058" lat="68.2143638932" lon="13.6711361126">
		<tag k="name" v="Himmelbjør" />
		<tag k="place" v="farm" />
		<tag k="ssr:stedsnr" v="805104" />
	</node>
	<node id="-704055" lat="68.2852944445" lon="13.7921972319">
		<tag k="name" v="Vågen" />
		<tag k="place" v="isolated_dwelling" />
		<tag k="ssr:stedsnr" v="792503" />
	</node>
	<node id="-702003" lat="68.2088777758" lon="13.7065916704">
		<tag k="name" v="Brottneset" />
		<tag k="place" v="locality" />
		<tag k="ssr:stedsnr" v="82277" />
	</node>
	<node id="-702000" lat="68.1475777753" lon="13.7620694437">
		<tag k="name" v="Fagerjord" />
		<tag k="place" v="farm" />
		<tag k="ssr:stedsnr" v="82252" />
	</node>
	<node id="-703752" lat="68.1066888914" lon="13.7296416681">
		<tag k="name" v="Nygård" />
		<tag k="place" v="farm" />
		<tag k="ssr:stedsnr" v="692902" />
	</node>
	<node id="-701998" lat="68.1211583334" lon="13.7826749949">
		<tag k="name" v="Øver-Steine" />
		<tag k="place" v="hamlet" />
		<tag k="ssr:stedsnr" v="82245" />
	</node>
	<node id="-704044" lat="68.2054999968" lon="13.8882472197">
		<tag k="name" v="Jensnausttomta" />
		<tag k="place" v="locality" />
		<tag k="ssr:stedsnr" v="784454" />
	</node>
	<node id="-701989" lat="68.2694222265" lon="13.7396583396">
		<tag k="alt_name" v="Evjen, nedre" />
		<tag k="name" v="Nedre Evjen" />
		<tag k="place" v="farm" />
		<tag k="ssr:stedsnr" v="78971" />
	</node>
	<node id="-701986" lat="68.1574777788" lon="13.7671916639">
		<tag k="name" v="Karijorda" />
		<tag k="place" v="farm" />
		<tag k="ssr:stedsnr" v="78952" />
	</node>
	<node id="-701983" lat="68.1902666688" lon="13.6312694493">
		<tag k="name" v="Bø" />
		<tag k="place" v="hamlet" />
		<tag k="ssr:stedsnr" v="78932" />
	</node>
	<node id="-701980" lat="68.1977583368" lon="13.5356083449">
		<tag k="name" v="Sjøbakken" />
		<tag k="place" v="farm" />
		<tag k="ssr:stedsnr" v="78922" />
	</node>
	<node id="-701978" lat="68.1890416696" lon="13.5909722281">
		<tag k="name" v="Kjellbogen" />
		<tag k="place" v="hamlet" />
		<tag k="ssr:stedsnr" v="78915" />
	</node>
	<node id="-701974" lat="68.335477779" lon="13.8826583455">
		<tag k="alt_name" v="Sandøy" />
		<tag k="name" v="Sandøya" />
		<tag k="place" v="farm" />
		<tag k="ssr:stedsnr" v="78893" />
	</node>
	<node id="-701971" lat="68.1183250018" lon="13.5533888902">
		<tag k="name" v="Gravdal" />
		<tag k="place" v="village" />
		<tag k="ssr:stedsnr" v="78885" />
	</node>
	<node id="-704005" lat="68.2057305513" lon="13.7315500037">
		<tag k="name" v="Nykmark" />
		<tag k="place" v="farm" />
		<tag k="ssr:stedsnr" v="769883" />
	</node>
	<node id="-701954" lat="68.0820194465" lon="13.5225944349">
		<tag k="name" v="Reine" />
		<tag k="place" v="farm" />
		<tag k="ssr:stedsnr" v="78631" />
	</node>
	<node id="-703994" lat="68.2085388933" lon="13.671908325">
		<tag k="name" v="Slettvoll" />
		<tag k="place" v="farm" />
		<tag k="ssr:stedsnr" v="767806" />
	</node>
	<node id="-701938" lat="68.2778111157" lon="14.1058027743">
		<tag k="name" v="Skoglund" />
		<tag k="place" v="farm" />
		<tag k="ssr:stedsnr" v="78241" />
	</node>
	<node id="-701937" lat="68.2752444406" lon="13.9504750096">
		<tag k="name" v="Steira" />
		<tag k="place" v="hamlet" />
		<tag k="ssr:stedsnr" v="78209" />
	</node>
	<node id="-701934" lat="68.234763889" lon="13.7343416695">
		<tag k="name" v="Øver-Liland" />
		<tag k="place" v="farm" />
		<tag k="ssr:stedsnr" v="78085" />
	</node>
	<node id="-701933" lat="68.2306388881" lon="13.7355611227">
		<tag k="name" v="Ner-Liland" />
		<tag k="place" v="farm" />
		<tag k="ssr:stedsnr" v="78083" />
	</node>
	<node id="-701932" lat="68.2398611075" lon="13.6348416573">
		<tag k="name" v="Tangvåg" />
		<tag k="place" v="hamlet" />
		<tag k="ssr:stedsnr" v="78080" />
	</node>
	<node id="-701931" lat="68.242350004" lon="13.6463555495">
		<tag k="name" v="Tangstad" />
		<tag k="place" v="farm" />
		<tag k="ssr:stedsnr" v="78074" />
	</node>
	<node id="-701930" lat="68.2382500004" lon="13.7831472114">
		<tag k="name" v="Rystad" />
		<tag k="place" v="farm" />
		<tag k="ssr:stedsnr" v="78072" />
	</node>
	<node id="-703967" lat="68.1515638917" lon="13.765844452">
		<tag k="name" v="Moholt" />
		<tag k="place" v="farm" />
		<tag k="ssr:stedsnr" v="750273" />
	</node>
	<node id="-703966" lat="68.1490027747" lon="13.7622222184">
		<tag k="name" v="Solvang" />
		<tag k="place" v="farm" />
		<tag k="ssr:stedsnr" v="750272" />
	</node>
	<node id="-703965" lat="68.1525722187" lon="13.7644972327">
		<tag k="name" v="Kveldro" />
		<tag k="place" v="isolated_dwelling" />
		<tag k="ssr:stedsnr" v="750270" />
	</node>
	<node id="-701913" lat="68.2125611117" lon="14.0330888831">
		<tag k="alt_name" v="Dal øvre" />
		<tag k="name" v="Øvredal" />
		<tag k="place" v="farm" />
		<tag k="ssr:stedsnr" v="77465" />
	</node>
	<node id="-703954" lat="68.139577777" lon="13.6123194513">
		<tag k="name" v="Toften" />
		<tag k="place" v="farm" />
		<tag k="ssr:stedsnr" v="749442" />
	</node>
	<node id="-703945" lat="68.1721250036" lon="13.5158583323">
		<tag k="name" v="Gammelgården" />
		<tag k="place" v="locality" />
		<tag k="ssr:stedsnr" v="749105" />
	</node>
	<node id="-703942" lat="68.0846722266" lon="13.6454944492">
		<tag k="name" v="Vassvika" />
		<tag k="place" v="isolated_dwelling" />
		<tag k="ssr:stedsnr" v="749075" />
	</node>
	<node id="-703939" lat="68.1445111092" lon="13.6506277709">
		<tag k="name" v="Hol" />
		<tag k="place" v="hamlet" />
		<tag k="ssr:stedsnr" v="749060" />
	</node>
	<node id="-703935" lat="68.2872499976" lon="13.7223972298">
		<tag k="alt_name" v="Hjellvoll" />
		<tag k="name" v="Jellvoll" />
		<tag k="place" v="farm" />
		<tag k="ssr:stedsnr" v="745998" />
	</node>
	<node id="-703928" lat="68.147486109" lon="13.4856805436">
		<tag k="name" v="Ytter-Flesa" />
		<tag k="place" v="isolated_dwelling" />
		<tag k="ssr:stedsnr" v="745958" />
	</node>
	<node id="-703921" lat="68.1729222241" lon="13.6058944542">
		<tag k="name" v="Skullbrusjøen" />
		<tag k="place" v="farm" />
		<tag k="ssr:stedsnr" v="745907" />
	</node>
	<node id="-701871" lat="68.2365916666" lon="13.9098694437">
		<tag k="name" v="Løvdalen" />
		<tag k="place" v="farm" />
		<tag k="ssr:stedsnr" v="56012" />
	</node>
	<node id="-703916" lat="68.1188583291" lon="13.4871388819">
		<tag k="name" v="Rishaugen" />
		<tag k="place" v="farm" />
		<tag k="ssr:stedsnr" v="745888" />
	</node>
	<node id="-701857" lat="68.1506972203" lon="13.7481222189">
		<tag k="name" v="Åsen" />
		<tag k="place" v="farm" />
		<tag k="ssr:stedsnr" v="47606" />
	</node>
	<node id="-703904" lat="68.1307749957" lon="13.7773666631">
		<tag k="name" v="Solvoll" />
		<tag k="place" v="isolated_dwelling" />
		<tag k="ssr:stedsnr" v="745801" />
	</node>
	<node id="-701853" lat="68.2503722246" lon="13.704066659">
		<tag k="name" v="Klevstad" />
		<tag k="place" v="farm" />
		<tag k="ssr:stedsnr" v="41991" />
	</node>
	<node id="-703900" lat="68.0840805541" lon="13.6364222191">
		<tag k="fixme" v="consider place=suburb, village or hamlet" />
		<tag k="name" v="Mortsund" />
		<tag k="place" v="quarter" />
		<tag k="ssr:stedsnr" v="745782" />
	</node>
	<node id="-703887" lat="68.1949805562" lon="13.9403638857">
		<tag k="fixme" v="consider place=hamlet" />
		<tag k="name" v="Valberg" />
		<tag k="place" v="village" />
		<tag k="ssr:stedsnr" v="745482" />
	</node>
	<node id="-703884" lat="68.2635222213" lon="13.9841777893">
		<tag k="name" v="Risjorden" />
		<tag k="place" v="farm" />
		<tag k="ssr:stedsnr" v="745272" />
	</node>
	<node id="-701833" lat="68.2098805575" lon="13.5278305547">
		<tag k="name" v="Haugen" />
		<tag k="place" v="isolated_dwelling" />
		<tag k="ssr:stedsnr" v="39713" />
	</node>
	<node id="-701812" lat="68.0847361125" lon="13.5716972322">
		<tag k="name" v="Bergland" />
		<tag k="place" v="farm" />
		<tag k="ssr:stedsnr" v="25166" />
	</node>
	<node id="-701810" lat="68.0990972212" lon="13.5504472293">
		<tag k="name" v="Gjerstad" />
		<tag k="place" v="farm" />
		<tag k="ssr:stedsnr" v="25152" />
	</node>
	<node id="-701801" lat="68.2392944489" lon="13.7519805497">
		<tag k="amenity" v="school" />
		<tag k="name" v="Bøstad skole" />
		<tag k="ssr:stedsnr" v="22457" />
	</node>
	<node id="-703845" lat="68.3137416702" lon="14.0164083427">
		<tag k="name" v="Valle" />
		<tag k="place" v="farm" />
		<tag k="ssr:stedsnr" v="723959" />
	</node>
	<node id="-701796" lat="68.2125527748" lon="13.739561108">
		<tag k="name" v="Nyheim" />
		<tag k="place" v="farm" />
		<tag k="ssr:stedsnr" v="22276" />
	</node>
	<node id="-701792" lat="68.2590472236" lon="14.0417166782">
		<tag k="name" v="Gammelgården" />
		<tag k="place" v="farm" />
		<tag k="ssr:stedsnr" v="21778" />
	</node>
	<node id="-701789" lat="68.1755444471" lon="13.6360361162">
		<tag k="name" v="Storå" />
		<tag k="place" v="farm" />
		<tag k="ssr:stedsnr" v="21515" />
	</node>
	<node id="-701775" lat="68.1396944481" lon="13.6361444563">
		<tag k="name" v="Skrivarneset" />
		<tag k="place" v="hamlet" />
		<tag k="ssr:stedsnr" v="21439" />
	</node>
	<node id="-703811" lat="68.2946249979" lon="13.9119194432">
		<tag k="name" v="Ellstad" />
		<tag k="place" v="farm" />
		<tag k="ssr:stedsnr" v="723138" />
	</node>
	<node id="-703712" lat="68.2143722214" lon="14.0580777655">
		<tag k="name" v="Horn" />
		<tag k="place" v="farm" />
		<tag k="ssr:stedsnr" v="685586" />
	</node>
	<node id="-701751" lat="68.2903972222" lon="13.7531361149">
		<tag k="name" v="Nesje" />
		<tag k="place" v="isolated_dwelling" />
		<tag k="ssr:stedsnr" v="17998" />
	</node>
	<node id="-701747" lat="68.2079777801" lon="13.6566583299">
		<tag k="alt_name" v="Rise, l;Rise" />
		<tag k="name" v="Lillerise" />
		<tag k="place" v="farm" />
		<tag k="ssr:stedsnr" v="17952" />
	</node>
	<node id="-701733" lat="68.1093638912" lon="13.5598055517">
		<tag k="alt_name" v="Klauvstranda;Klausstranda" />
		<tag k="name" v="Klaustrand" />
		<tag k="place" v="farm" />
		<tag k="ssr:stedsnr" v="17844" />
	</node>
	<node id="-701730" lat="68.1464333297" lon="13.6378416626">
		<tag k="fixme" v="consider place=suburb, village or hamlet" />
		<tag k="name" v="Fygle" />
		<tag k="place" v="quarter" />
		<tag k="ssr:stedsnr" v="17831" />
	</node>
	<node id="-703776" lat="68.2987722189" lon="13.8342861106">
		<tag k="fixme" v="consider place=hamlet" />
		<tag k="name" v="Ramberg" />
		<tag k="place" v="farm" />
		<tag k="ssr:stedsnr" v="706593" />
	</node>
	<node id="-701723" lat="68.2891166658" lon="13.7911694398">
		<tag k="name" v="Borgvåg" />
		<tag k="place" v="isolated_dwelling" />
		<tag k="ssr:stedsnr" v="17792" />
	</node>
	<node id="-701721" lat="68.1302499969" lon="13.6473250028">
		<tag k="name" v="Berg" />
		<tag k="place" v="farm" />
		<tag k="ssr:stedsnr" v="17784" />
	</node>
	<node id="-701657" lat="68.2947333316" lon="13.8448305607">
		<tag k="name" v="Ramberg" />
		<tag k="place" v="farm" />
		<tag k="ssr:stedsnr" v="17030" />
	</node>
	<node id="-701714" lat="68.0957194406" lon="13.4692194518">
		<tag k="alt_name" v="Vitting n;Nordvetting" />
		<tag k="name" v="Nordre Vitting" />
		<tag k="place" v="farm" />
		<tag k="ssr:stedsnr" v="17707" />
	</node>
	<node id="-701712" lat="68.1023916659" lon="13.5639138931">
		<tag k="alt_name" v="Jerstad, øvre;Gjerstad øvre" />
		<tag k="name" v="Øvre Gjerstad" />
		<tag k="place" v="farm" />
		<tag k="ssr:stedsnr" v="17692" />
	</node>
	<node id="-701704" lat="68.2309032156" lon="14.0822188525">
		<tag k="name" v="Vikjorden" />
		<tag k="place" v="farm" />
		<tag k="ssr:stedsnr" v="17617" />
	</node>
	<node id="-703751" lat="68.1086333363" lon="13.7090222203">
		<tag k="name" v="Haugen" />
		<tag k="place" v="farm" />
		<tag k="ssr:stedsnr" v="692886" />
	</node>
	<node id="-703746" lat="68.1171722253" lon="13.5634888871">
		<tag k="name" v="Prestegården" />
		<tag k="place" v="isolated_dwelling" />
		<tag k="ssr:stedsnr" v="692197" />
	</node>
	<node id="-701693" lat="68.1973333368" lon="13.9367805547">
		<tag k="name" v="Dalmo" />
		<tag k="place" v="farm" />
		<tag k="ssr:stedsnr" v="17508" />
	</node>
	<node id="-701688" lat="68.2085611088" lon="13.875352786">
		<tag k="name" v="Steinbakkan" />
		<tag k="place" v="farm" />
		<tag k="ssr:stedsnr" v="17480" />
	</node>
	<node id="-703734" lat="68.1847222199" lon="13.6122444484">
		<tag k="name" v="Lakselvhaugen" />
		<tag k="place" v="farm" />
		<tag k="ssr:stedsnr" v="688482" />
	</node>
	<node id="-701678" lat="68.271605556" lon="13.9282194511">
		<tag k="name" v="Knutstad" />
		<tag k="place" v="farm" />
		<tag k="ssr:stedsnr" v="17242" />
	</node>
	<node id="-701675" lat="68.2774805524" lon="13.9821805439">
		<tag k="name" v="Limstranden" />
		<tag k="place" v="hamlet" />
		<tag k="ssr:stedsnr" v="17221" />
	</node>
	<node id="-701674" lat="68.2581805548" lon="14.1654555483">
		<tag k="name" v="Smorten" />
		<tag k="place" v="farm" />
		<tag k="ssr:stedsnr" v="17149" />
	</node>
	<node id="-701664" lat="68.2877666652" lon="13.9968638986">
		<tag k="name" v="Leitet" />
		<tag k="place" v="farm" />
		<tag k="ssr:stedsnr" v="17069" />
	</node>
	<node id="-701662" lat="68.2522305556" lon="13.6347333441">
		<tag k="name" v="Mærvoll" />
		<tag k="place" v="hamlet" />
		<tag k="ssr:stedsnr" v="17065" />
	</node>
	<node id="-701658" lat="68.2925805521" lon="13.9997055504">
		<tag k="alt_name" v="Smedvika, in" />
		<tag k="fixme" v="multiple name tags, choose one and add the other to alt_name" />
		<tag k="name" v="Smedvik indre;Smedvika" />
		<tag k="place" v="hamlet" />
		<tag k="ssr:stedsnr" v="17036" />
	</node>
	<node id="-703705" lat="68.1634611118" lon="13.5905638809">
		<tag k="name" v="Bolle" />
		<tag k="place" v="hamlet" />
		<tag k="ssr:stedsnr" v="684976" />
	</node>
	<node id="-701655" lat="68.1171472267" lon="13.5504861071">
		<tag k="amenity" v="school" />
		<tag k="name" v="Fiskarfagskolen" />
		<tag k="ssr:stedsnr" v="25225" />
	</node>
	<node id="-703696" lat="68.1998416647" lon="13.5413527856">
		<tag k="name" v="Haukland" />
		<tag k="place" v="hamlet" />
		<tag k="ssr:stedsnr" v="684914" />
	</node>
	<node id="-701647" lat="68.3207333323" lon="13.9116944549">
		<tag k="name" v="Bø" />
		<tag k="place" v="farm" />
		<tag k="ssr:stedsnr" v="16061" />
	</node>
	<node id="-703691" lat="68.1769583338" lon="13.5871194421">
		<tag k="name" v="Holand" />
		<tag k="place" v="hamlet" />
		<tag k="ssr:stedsnr" v="684895" />
	</node>
	<node id="-701640" lat="68.2674770047" lon="13.587520292">
		<tag k="fixme" v="consider place=hamlet" />
		<tag k="name" v="Unstad" />
		<tag k="place" v="farm" />
		<tag k="ssr:stedsnr" v="986090" />
	</node>
	<node id="-703686" lat="68.1736972238" lon="13.5104083423">
		<tag k="name" v="Inner-Vågje" />
		<tag k="place" v="farm" />
		<tag k="ssr:stedsnr" v="684875" />
	</node>
	<node id="-703685" lat="68.1202277798" lon="13.7204305582">
		<tag k="name" v="Taen" />
		<tag k="place" v="farm" />
		<tag k="ssr:stedsnr" v="684861" />
	</node>
	<node id="-703682" lat="68.1473222222" lon="13.7646055479">
		<tag k="name" v="Harteigen" />
		<tag k="place" v="farm" />
		<tag k="ssr:stedsnr" v="684813" />
	</node>
	<node id="-703680" lat="68.1368416673" lon="13.6664916735">
		<tag k="name" v="Bergsdalen" />
		<tag k="place" v="farm" />
		<tag k="ssr:stedsnr" v="684786" />
	</node>
	<node id="-703676" lat="68.1372083361" lon="13.5273222176">
		<tag k="name" v="Haug" />
		<tag k="place" v="hamlet" />
		<tag k="ssr:stedsnr" v="684769" />
	</node>
	<node id="-701637" lat="68.2322960995" lon="14.0899681391">
		<tag k="name" v="Vikjord Nedre" />
		<tag k="place" v="farm" />
		<tag k="ssr:stedsnr" v="1071964" />
	</node>
	<node id="-703666" lat="68.094199996" lon="13.5742500042">
		<tag k="alt_name" v="Skardsjøen" />
		<tag k="name" v="Skarsjøen" />
		<tag k="place" v="farm" />
		<tag k="ssr:stedsnr" v="684671" />
	</node>
	<node id="-701613" lat="68.2536972191" lon="13.6470777877">
		<tag k="name" v="Saupstad" />
		<tag k="place" v="hamlet" />
		<tag k="ssr:stedsnr" v="889776" />
	</node>
	<node id="-703653" lat="68.1881333304" lon="13.9612305456">
		<tag k="name" v="Odden" />
		<tag k="place" v="farm" />
		<tag k="ssr:stedsnr" v="684458" />
	</node>
	<node id="-701597" lat="68.1197972184" lon="13.7333999991">
		<tag k="name" v="Vollen" />
		<tag k="place" v="locality" />
		<tag k="ssr:stedsnr" v="411585" />
	</node>
	<node id="-703642" lat="68.2842194424" lon="14.1016055435">
		<tag k="name" v="Haugen" />
		<tag k="place" v="farm" />
		<tag k="ssr:stedsnr" v="684213" />
	</node>
	<node id="-703638" lat="68.2176416693" lon="13.7265916681">
		<tag k="alt_name" v="Skjerpen øv" />
		<tag k="name" v="Øvre Skjerpen" />
		<tag k="place" v="farm" />
		<tag k="ssr:stedsnr" v="684113" />
	</node>
	<node id="-703633" lat="68.3138055518" lon="13.8907055436">
		<tag k="name" v="Vassbogan" />
		<tag k="place" v="farm" />
		<tag k="ssr:stedsnr" v="684097" />
	</node>
	<node id="-703623" lat="68.2986222258" lon="13.8687138873">
		<tag k="name" v="Haukland" />
		<tag k="place" v="farm" />
		<tag k="ssr:stedsnr" v="684024" />
	</node>
	<node id="-701567" lat="68.1073499997" lon="13.7300388779">
		<tag k="name" v="Svensgård" />
		<tag k="place" v="farm" />
		<tag k="ssr:stedsnr" v="388874" />
	</node>
	<node id="-701558" lat="68.2928055513" lon="13.8657916705">
		<tag k="name" v="Vonheim" />
		<tag k="place" v="farm" />
		<tag k="ssr:stedsnr" v="385845" />
	</node>
	<node id="-701541" lat="68.1911333304" lon="13.6650110988">
		<tag k="name" v="Fridheim" />
		<tag k="place" v="isolated_dwelling" />
		<tag k="ssr:stedsnr" v="385392" />
	</node>
	<node id="-701540" lat="68.1947388896" lon="13.6188777724">
		<tag k="name" v="Haugan" />
		<tag k="place" v="locality" />
		<tag k="ssr:stedsnr" v="385390" />
	</node>
	<node id="-703582" lat="68.2087916693" lon="13.8853361127">
		<tag k="name" v="Øvre Kongsjorden" />
		<tag k="place" v="farm" />
		<tag k="ssr:stedsnr" v="662025" />
	</node>
	<node id="-703575" lat="68.136808333" lon="13.7397805607">
		<tag k="name" v="Myra" />
		<tag k="place" v="farm" />
		<tag k="ssr:stedsnr" v="654592" />
	</node>
	<node id="-701519" lat="68.1615083327" lon="13.7234750008">
		<tag k="name" v="Nordmarka" />
		<tag k="place" v="locality" />
		<tag k="ssr:stedsnr" v="381970" />
	</node>
	<node id="-701516" lat="68.1635416686" lon="13.7866000024">
		<tag k="alt_name" v="Kråklia in;Kråkli Indre" />
		<tag k="fixme" v="multiple name tags, choose one and add the other to alt_name" />
		<tag k="name" v="Kråklia;Inner-Kråklia" />
		<tag k="place" v="farm" />
		<tag k="ssr:stedsnr" v="381948" />
	</node>
	<node id="-703558" lat="68.2171222245" lon="13.6785111033">
		<tag k="name" v="Ostad" />
		<tag k="place" v="farm" />
		<tag k="ssr:stedsnr" v="646786" />
	</node>
	<node id="-701506" lat="68.1256583318" lon="13.7767111138">
		<tag k="name" v="Grindøya" />
		<tag k="place" v="isolated_dwelling" />
		<tag k="ssr:stedsnr" v="381879" />
	</node>
	<node id="-701502" lat="68.1139805566" lon="13.4842611223">
		<tag k="name" v="Sund" />
		<tag k="place" v="farm" />
		<tag k="ssr:stedsnr" v="381861" />
	</node>
	<node id="-701499" lat="68.1163388935" lon="13.6542777681">
		<tag k="name" v="Ramsvika" />
		<tag k="place" v="hamlet" />
		<tag k="ssr:stedsnr" v="381850" />
	</node>
	<node id="-701497" lat="68.1553277731" lon="13.7639333431">
		<tag k="alt_name" v="Storfjord gård" />
		<tag k="name" v="Storfjorden" />
		<tag k="place" v="farm" />
		<tag k="ssr:stedsnr" v="381828" />
	</node>
	<node id="-701490" lat="68.0743083318" lon="13.5451472143">
		<tag k="name" v="Ballstad" />
		<tag k="place" v="village" />
		<tag k="ssr:stedsnr" v="381719" />
	</node>
	<node id="-703536" lat="68.1015083343" lon="13.5776083377">
		<tag k="name" v="Nystad" />
		<tag k="place" v="isolated_dwelling" />
		<tag k="ssr:stedsnr" v="631347" />
	</node>
	<node id="-703533" lat="68.110188892" lon="13.7037444507">
		<tag k="amenity" v="school" />
		<tag k="name" v="Sennesvik skole" />
		<tag k="ssr:stedsnr" v="630850" />
	</node>
	<node id="-701484" lat="68.2325694483" lon="13.9147972284">
		<tag k="alt_name" v="Lauvdalen" />
		<tag k="name" v="Løvdal" />
		<tag k="place" v="farm" />
		<tag k="ssr:stedsnr" v="381609" />
	</node>
	<node id="-701483" lat="68.2317083363" lon="13.8588472157">
		<tag k="alt_name" v="Vendalsjord" />
		<tag k="name" v="Vendalsjorden" />
		<tag k="place" v="farm" />
		<tag k="ssr:stedsnr" v="381607" />
	</node>
	<node id="-703525" lat="68.1450055538" lon="13.7667722309">
		<tag k="name" v="Arhaugen" />
		<tag k="place" v="farm" />
		<tag k="ssr:stedsnr" v="628248" />
	</node>
	<node id="-704347" lat="68.0967500033" lon="13.6571111118">
		<tag k="alt_name" v="Seteren" />
		<tag k="name" v="Sætrene" />
		<tag k="place" v="isolated_dwelling" />
		<tag k="ssr:stedsnr" v="867693" />
	</node>
	<node id="-701469" lat="68.2802388845" lon="13.948663888">
		<tag k="name" v="Selnes" />
		<tag k="place" v="farm" />
		<tag k="ssr:stedsnr" v="381215" />
	</node>
	<node id="-701463" lat="68.2925777751" lon="13.8941111146">
		<tag k="name" v="Ellstadeidet" />
		<tag k="place" v="farm" />
		<tag k="ssr:stedsnr" v="381067" />
	</node>
	<node id="-703510" lat="68.1767944478" lon="13.5556999999">
		<tag k="name" v="Solbakken" />
		<tag k="place" v="farm" />
		<tag k="ssr:stedsnr" v="627422" />
	</node>
	<node id="-703661" lat="68.1025611124" lon="13.6350472234">
		<tag k="name" v="Helldalen" />
		<tag k="place" v="farm" />
		<tag k="ssr:stedsnr" v="684636" />
	</node>
	<node id="-703500" lat="68.0954305563" lon="13.7250277756">
		<tag k="fixme" v="consider place=hamlet" />
		<tag k="name" v="Ure" />
		<tag k="place" v="village" />
		<tag k="ssr:stedsnr" v="624620" />
	</node>
	<node id="-701271" lat="68.1234277741" lon="13.6485499947">
		<tag k="name" v="Nedreås" />
		<tag k="place" v="farm" />
		<tag k="ssr:stedsnr" v="320875" />
	</node>
	<node id="-701448" lat="68.2038055551" lon="13.8992888774">
		<tag k="name" v="Bakkan" />
		<tag k="place" v="farm" />
		<tag k="ssr:stedsnr" v="380475" />
	</node>
	<node id="-703494" lat="68.1678805582" lon="13.5576611169">
		<tag k="name" v="Solberg" />
		<tag k="place" v="farm" />
		<tag k="ssr:stedsnr" v="623998" />
	</node>
	<node id="-703490" lat="68.1530611145" lon="13.6684611196">
		<tag k="name" v="Ner-Hag" />
		<tag k="place" v="hamlet" />
		<tag k="ssr:stedsnr" v="623965" />
	</node>
	<node id="-703489" lat="68.2697222239" lon="13.7282666763">
		<tag k="alt_name" v="Evjen, øvre" />
		<tag k="fixme" v="multiple name tags, choose one and add the other to alt_name" />
		<tag k="name" v="Evjen;Øvre Evjen" />
		<tag k="place" v="farm" />
		<tag k="ssr:stedsnr" v="623963" />
	</node>
	<node id="-701435" lat="68.3199555563" lon="13.9946722191">
		<tag k="name" v="Daljorda" />
		<tag k="place" v="farm" />
		<tag k="ssr:stedsnr" v="359977" />
	</node>
	<node id="-703478" lat="68.1871361096" lon="13.5969749989">
		<tag k="name" v="Leitet" />
		<tag k="place" v="hamlet" />
		<tag k="ssr:stedsnr" v="623910" />
	</node>
	<node id="-703475" lat="68.3392749994" lon="13.9255944446">
		<tag k="name" v="Høynes" />
		<tag k="place" v="farm" />
		<tag k="ssr:stedsnr" v="623903" />
	</node>
	<node id="-703467" lat="68.1479805559" lon="13.539163888">
		<tag k="name" v="Tussan" />
		<tag k="place" v="farm" />
		<tag k="ssr:stedsnr" v="623834" />
	</node>
	<node id="-703435" lat="68.199499998" lon="13.8832055477">
		<tag k="alt_name" v="Biskopsjord" />
		<tag k="name" v="Biskopsjorden" />
		<tag k="place" v="farm" />
		<tag k="ssr:stedsnr" v="623451" />
	</node>
	<node id="-703434" lat="68.1919944469" lon="13.8636194454">
		<tag k="name" v="Straumen" />
		<tag k="place" v="farm" />
		<tag k="ssr:stedsnr" v="623449" />
	</node>
	<node id="-701384" lat="68.2572638933" lon="13.7851611072">
		<tag k="name" v="Nygård" />
		<tag k="place" v="isolated_dwelling" />
		<tag k="ssr:stedsnr" v="350914" />
	</node>
	<node id="-701383" lat="68.149263885" lon="13.7411916733">
		<tag k="name" v="Myra" />
		<tag k="place" v="farm" />
		<tag k="ssr:stedsnr" v="350852" />
	</node>
	<node id="-703428" lat="68.1459416708" lon="13.8364166604">
		<tag k="name" v="Myklevika" />
		<tag k="place" v="farm" />
		<tag k="ssr:stedsnr" v="623348" />
	</node>
	<node id="-703426" lat="68.1397305523" lon="13.8349111011">
		<tag k="name" v="Helle" />
		<tag k="place" v="hamlet" />
		<tag k="ssr:stedsnr" v="623345" />
	</node>
	<node id="-701373" lat="68.1993499959" lon="13.5198416737">
		<tag k="name" v="Garden" />
		<tag k="place" v="locality" />
		<tag k="ssr:stedsnr" v="344218" />
	</node>
	<node id="-703415" lat="68.2324555546" lon="13.6330805664">
		<tag k="name" v="Bjørnsand" />
		<tag k="place" v="farm" />
		<tag k="ssr:stedsnr" v="623111" />
	</node>
	<node id="-701364" lat="68.2652277772" lon="13.5913111136">
		<tag k="amenity" v="school" />
		<tag k="name" v="Unstad skole" />
		<tag k="ssr:stedsnr" v="342737" />
	</node>
	<node id="-703407" lat="68.2458777748" lon="13.5892861044">
		<tag k="name" v="Sortland" />
		<tag k="place" v="farm" />
		<tag k="ssr:stedsnr" v="623062" />
	</node>
	<node id="-703645" lat="68.1353166643" lon="13.8400194376">
		<tag k="name" v="Svarholt" />
		<tag k="place" v="quarter" />
		<tag k="ssr:stedsnr" v="684327" />
	</node>
	<node id="-703404" lat="68.2961861078" lon="13.9161361071">
		<tag k="alt_name" v="Elstad" />
		<tag k="name" v="Ellstad" />
		<tag k="place" v="farm" />
		<tag k="ssr:stedsnr" v="623039" />
	</node>
	<node id="-703403" lat="68.3094083327" lon="14.0159166648">
		<tag k="name" v="Valle" />
		<tag k="place" v="farm" />
		<tag k="ssr:stedsnr" v="623018" />
	</node>
	<node id="-701343" lat="68.1191000008" lon="13.71650278">
		<tag k="name" v="Sennesvik gamle" />
		<tag k="place" v="hamlet" />
		<tag k="ssr:stedsnr" v="327866" />
	</node>
	<node id="-701253" lat="68.2922555524" lon="13.7153555468">
		<tag k="alt_name" v="Urda" />
		<tag k="name" v="Ura" />
		<tag k="place" v="isolated_dwelling" />
		<tag k="ssr:stedsnr" v="320760" />
	</node>
	<node id="-701331" lat="68.1462361083" lon="13.7633361125">
		<tag k="name" v="Arbakken" />
		<tag k="place" v="farm" />
		<tag k="ssr:stedsnr" v="325277" />
	</node>
	<node id="-703741" lat="68.1344194481" lon="13.8500361137">
		<tag k="name" v="Svarholtåsen" />
		<tag k="place" v="quarter" />
		<tag k="ssr:stedsnr" v="689270" />
	</node>
	<node id="-701308" lat="68.119605556" lon="13.782708341">
		<tag k="name" v="Stranda" />
		<tag k="place" v="quarter" />
		<tag k="ssr:stedsnr" v="324310" />
	</node>
	<node id="-701292" lat="68.2826666654" lon="13.719163894">
		<tag k="alt_name" v="Strømnes" />
		<tag k="name" v="Straumnes" />
		<tag k="place" v="farm" />
		<tag k="ssr:stedsnr" v="320982" />
	</node>
	<node id="-703339" lat="68.1887250035" lon="13.9652360997">
		<tag k="name" v="Holmstad" />
		<tag k="place" v="farm" />
		<tag k="ssr:stedsnr" v="572573" />
	</node>
	<node id="-701290" lat="68.1569638884" lon="13.6701000107">
		<tag k="name" v="Øver-Hag" />
		<tag k="place" v="hamlet" />
		<tag k="ssr:stedsnr" v="320970" />
	</node>
	<node id="-703337" lat="68.2449694422" lon="13.5954361127">
		<tag k="name" v="Sortland" />
		<tag k="place" v="hamlet" />
		<tag k="ssr:stedsnr" v="572558" />
	</node>
	<node id="-701288" lat="68.2703972207" lon="13.7986722309">
		<tag k="alt_name" v="Borgfjord, yt;Borgfjord ytre" />
		<tag k="name" v="Ytre Borgfjord" />
		<tag k="place" v="farm" />
		<tag k="ssr:stedsnr" v="320969" />
	</node>
	<node id="-701287" lat="68.1603194446" lon="13.6407250017">
		<tag k="name" v="Himmelstein" />
		<tag k="place" v="farm" />
		<tag k="ssr:stedsnr" v="320966" />
	</node>
	<node id="-701282" lat="68.2050055533" lon="13.6379250009">
		<tag k="name" v="Hellan" />
		<tag k="place" v="farm" />
		<tag k="ssr:stedsnr" v="320945" />
	</node>
	<node id="-703324" lat="68.2698444481" lon="13.9315833341">
		<tag k="name" v="Erterbakkan" />
		<tag k="place" v="farm" />
		<tag k="ssr:stedsnr" v="567878" />
	</node>
	<node id="-703319" lat="68.2301000018" lon="13.7377222343">
		<tag k="name" v="Liland" />
		<tag k="place" v="hamlet" />
		<tag k="ssr:stedsnr" v="567470" />
	</node>
	<node id="-703314" lat="68.1211722216" lon="13.6233055608">
		<tag k="name" v="Bergsøy" />
		<tag k="place" v="locality" />
		<tag k="ssr:stedsnr" v="567398" />
	</node>
	<node id="-701262" lat="68.1407138867" lon="13.6498777745">
		<tag k="name" v="Hol" />
		<tag k="place" v="farm" />
		<tag k="ssr:stedsnr" v="320791" />
	</node>
	<node id="-703308" lat="68.1327666663" lon="13.843827783">
		<tag k="name" v="Ytter-Svarholt" />
		<tag k="place" v="quarter" />
		<tag k="ssr:stedsnr" v="567256" />
	</node>
	<node id="-701258" lat="68.1362888894" lon="13.5604361161">
		<tag k="name" v="Storeid" />
		<tag k="place" v="hamlet" />
		<tag k="ssr:stedsnr" v="320770" />
	</node>
	<node id="-703302" lat="68.1095638928" lon="13.6373972118">
		<tag k="name" v="Solstrand" />
		<tag k="place" v="farm" />
		<tag k="ssr:stedsnr" v="567103" />
	</node>
	<node id="-703301" lat="68.1169861154" lon="13.6552444375">
		<tag k="name" v="Gjerdhaugen" />
		<tag k="place" v="isolated_dwelling" />
		<tag k="ssr:stedsnr" v="567101" />
	</node>
	<node id="-701245" lat="68.09485278" lon="13.5521139012">
		<tag k="alt_name" v="Skotnes øv" />
		<tag k="name" v="Øver Skotnes" />
		<tag k="place" v="hamlet" />
		<tag k="ssr:stedsnr" v="320672" />
	</node>
	<node id="-703289" lat="68.1997499993" lon="13.6969361228">
		<tag k="name" v="Kvervelåsen" />
		<tag k="place" v="farm" />
		<tag k="ssr:stedsnr" v="563939" />
	</node>
	<node id="-703288" lat="68.1929194409" lon="13.6703249924">
		<tag k="name" v="Nervollen" />
		<tag k="place" v="hamlet" />
		<tag k="ssr:stedsnr" v="563936" />
	</node>
	<node id="-703285" lat="68.1753222231" lon="13.5054305512">
		<tag k="name" v="Ytter-Vågje" />
		<tag k="place" v="farm" />
		<tag k="ssr:stedsnr" v="563900" />
	</node>
	<node id="-701236" lat="68.2188833312" lon="14.1102027667">
		<tag k="name" v="Malnes" />
		<tag k="place" v="farm" />
		<tag k="ssr:stedsnr" v="320582" />
	</node>
	<node id="-701918" lat="68.1349111089" lon="13.6556555438">
		<tag k="name" v="Toftan" />
		<tag k="place" v="farm" />
		<tag k="ssr:stedsnr" v="77769" />
	</node>
	<node id="-703282" lat="68.1116194471" lon="13.7024055465">
		<tag k="name" v="Damman" />
		<tag k="place" v="farm" />
		<tag k="ssr:stedsnr" v="563856" />
	</node>
	<node id="-703281" lat="68.1126833293" lon="13.7001944393">
		<tag k="name" v="Tægan" />
		<tag k="place" v="farm" />
		<tag k="ssr:stedsnr" v="563850" />
	</node>
	<node id="-703279" lat="68.1551388913" lon="13.7870999962">
		<tag k="name" v="Skifjorden" />
		<tag k="place" v="farm" />
		<tag k="ssr:stedsnr" v="563824" />
	</node>
	<node id="-701223" lat="68.2605027746" lon="14.0454527732">
		<tag k="name" v="Lyngedal" />
		<tag k="place" v="farm" />
		<tag k="ssr:stedsnr" v="320252" />
	</node>
	<node id="-701217" lat="68.2149305543" lon="13.7369583262">
		<tag k="alt_name" v="Skjerpen ned" />
		<tag k="fixme" v="multiple name tags, choose one and add the other to alt_name" />
		<tag k="name" v="Skjerpen;Nedre Skjerpen" />
		<tag k="place" v="farm" />
		<tag k="ssr:stedsnr" v="320119" />
	</node>
	<node id="-701214" lat="68.2199222205" lon="13.6886138979">
		<tag k="name" v="Toftan" />
		<tag k="place" v="farm" />
		<tag k="ssr:stedsnr" v="320100" />
	</node>
	<node id="-703256" lat="68.2685416629" lon="13.8351888884">
		<tag k="name" v="Torvdalen" />
		<tag k="place" v="farm" />
		<tag k="ssr:stedsnr" v="563217" />
	</node>
	<node id="-701207" lat="68.2849222254" lon="13.893297231">
		<tag k="fixme" v="multiple name tags, choose one and add the other to alt_name" />
		<tag k="name" v="Bogen;Tarvaldsbogen" />
		<tag k="place" v="farm" />
		<tag k="ssr:stedsnr" v="320048" />
	</node>
	<node id="-701200" lat="68.1962555516" lon="14.0367222301">
		<tag k="building" v="commercial" />
		<tag k="name" v="Valberg handel" />
		<tag k="ssr:stedsnr" v="299162" />
	</node>
	<node id="-703247" lat="68.2896361116" lon="13.9311527677">
		<tag k="name" v="Gardnes" />
		<tag k="place" v="locality" />
		<tag k="ssr:stedsnr" v="563048" />
	</node>
	<node id="-703239" lat="68.254483333" lon="13.6503083364">
		<tag k="name" v="Saupstad" />
		<tag k="place" v="farm" />
		<tag k="ssr:stedsnr" v="562942" />
	</node>
	<node id="-703232" lat="68.3366888895" lon="13.9882944349">
		<tag k="name" v="Auran" />
		<tag k="place" v="farm" />
		<tag k="ssr:stedsnr" v="562879" />
	</node>
	<node id="-703231" lat="68.1236972205" lon="13.7407611018">
		<tag k="name" v="Kylpesnes" />
		<tag k="place" v="farm" />
		<tag k="ssr:stedsnr" v="562853" />
	</node>
	<node id="-703230" lat="68.1064444425" lon="13.480311103">
		<tag k="alt_name" v="Vevika" />
		<tag k="name" v="Vedvika" />
		<tag k="place" v="farm" />
		<tag k="ssr:stedsnr" v="562820" />
	</node>
	<node id="-701180" lat="68.339422221" lon="13.9120138869">
		<tag k="fixme" v="consider place=hamlet" />
		<tag k="name" v="Høynes" />
		<tag k="place" v="village" />
		<tag k="ssr:stedsnr" v="298211" />
	</node>
	<node id="-701172" lat="68.1819305516" lon="13.8702416601">
		<tag k="name" v="Jensgammen" />
		<tag k="place" v="locality" />
		<tag k="ssr:stedsnr" v="298099" />
	</node>
	<node id="-701169" lat="68.2270027756" lon="13.8710388972">
		<tag k="fixme" v="consider place=hamlet" />
		<tag k="name" v="Vendalsjord" />
		<tag k="place" v="farm" />
		<tag k="ssr:stedsnr" v="298033" />
	</node>
	<node id="-701167" lat="68.2331527759" lon="13.9042083414">
		<tag k="name" v="Jentofthytta" />
		<tag k="place" v="isolated_dwelling" />
		<tag k="ssr:stedsnr" v="298019" />
	</node>
	<node id="-703214" lat="68.238772224" lon="13.9794805515">
		<tag k="alt_name" v="Hellos" />
		<tag k="name" v="Hellosan" />
		<tag k="place" v="farm" />
		<tag k="ssr:stedsnr" v="562519" />
	</node>
	<node id="-701163" lat="68.0938722213" lon="13.5048027813">
		<tag k="name" v="Kylling" />
		<tag k="place" v="farm" />
		<tag k="ssr:stedsnr" v="290900" />
	</node>
	<node id="-701161" lat="68.1059527786" lon="13.5454583364">
		<tag k="alt_name" v="Elvhaug" />
		<tag k="name" v="Elvhaugen" />
		<tag k="place" v="isolated_dwelling" />
		<tag k="ssr:stedsnr" v="290896" />
	</node>
	<node id="-703208" lat="68.2125687404" lon="13.5204681742">
		<tag k="fixme" v="consider place=hamlet" />
		<tag k="name" v="Utakleiv" />
		<tag k="place" v="farm" />
		<tag k="ssr:stedsnr" v="562104" />
	</node>
	<node id="-701153" lat="68.2426388875" lon="13.6136638974">
		<tag k="name" v="Stein" />
		<tag k="place" v="isolated_dwelling" />
		<tag k="ssr:stedsnr" v="291460" />
	</node>
	<node id="-703191" lat="68.2262111089" lon="14.0753722198">
		<tag k="fixme" v="consider place=hamlet" />
		<tag k="name" v="Vikjord" />
		<tag k="place" v="farm" />
		<tag k="ssr:stedsnr" v="541786" />
	</node>
	<node id="-704629" lat="68.2196027759" lon="13.8131944502">
		<tag k="name" v="Finnsætran" />
		<tag k="place" v="locality" />
		<tag k="ssr:stedsnr" v="951976" />
	</node>
	<node id="-703159" lat="68.1973916678" lon="13.8924055446">
		<tag k="name" v="Straumnes" />
		<tag k="place" v="isolated_dwelling" />
		<tag k="ssr:stedsnr" v="532616" />
	</node>
	<node id="-703149" lat="68.1984361078" lon="13.6852111049">
		<tag k="name" v="Mevoll" />
		<tag k="place" v="farm" />
		<tag k="ssr:stedsnr" v="526908" />
	</node>
	<node id="-703143" lat="68.2072472251" lon="13.6773916757">
		<tag k="name" v="Elvenes" />
		<tag k="place" v="farm" />
		<tag k="ssr:stedsnr" v="525800" />
	</node>
	<node id="-703138" lat="68.120624996" lon="13.4908722195">
		<tag k="name" v="Einås" />
		<tag k="place" v="farm" />
		<tag k="ssr:stedsnr" v="525247" />
	</node>
	<node id="-703119" lat="68.1952611075" lon="13.9390916649">
		<tag k="amenity" v="school" />
		<tag k="name" v="Valberg skole" />
		<tag k="ssr:stedsnr" v="510375" />
	</node>
	<node id="-703115" lat="68.1555194416" lon="13.7789138876">
		<tag k="name" v="Korstun" />
		<tag k="place" v="isolated_dwelling" />
		<tag k="ssr:stedsnr" v="508310" />
	</node>
	<node id="-703107" lat="68.1313944455" lon="13.8410611087">
		<tag k="name" v="Nybyen" />
		<tag k="place" v="quarter" />
		<tag k="ssr:stedsnr" v="507237" />
	</node>
	<node id="-703099" lat="68.1673555585" lon="13.6124555619">
		<tag k="name" v="Bollehaugan" />
		<tag k="place" v="isolated_dwelling" />
		<tag k="ssr:stedsnr" v="506475" />
	</node>
	<node id="-703071" lat="68.2673222189" lon="13.5875777722">
		<tag k="alt_name" v="Unnstad" />
		<tag k="name" v="Unstad" />
		<tag k="place" v="hamlet" />
		<tag k="ssr:stedsnr" v="502967" />
	</node>
	<node id="-703048" lat="68.1106972265" lon="13.5584055643">
		<tag k="alt_name" v="Sillsandvika" />
		<tag k="name" v="Sildsandvik" />
		<tag k="place" v="farm" />
		<tag k="ssr:stedsnr" v="502857" />
	</node>
	<node id="-703041" lat="68.1368944435" lon="13.6291361019">
		<tag k="name" v="Holsmoa" />
		<tag k="place" v="farm" />
		<tag k="ssr:stedsnr" v="502795" />
	</node>
	<node id="-703024" lat="68.0980194421" lon="13.6325055581">
		<tag k="name" v="Selnes" />
		<tag k="place" v="farm" />
		<tag k="ssr:stedsnr" v="502695" />
	</node>
	<node id="-703023" lat="68.1037166679" lon="13.7304388983">
		<tag k="alt_name" v="Leirvika" />
		<tag k="name" v="Leirvik" />
		<tag k="place" v="farm" />
		<tag k="ssr:stedsnr" v="502680" />
	</node>
	<node id="-703022" lat="68.1064500046" lon="13.7295749945">
		<tag k="name" v="Skaftnes" />
		<tag k="place" v="farm" />
		<tag k="ssr:stedsnr" v="502678" />
	</node>
	<node id="-703020" lat="68.0879777791" lon="13.641963896">
		<tag k="name" v="Sandsund" />
		<tag k="place" v="hamlet" />
		<tag k="ssr:stedsnr" v="502662" />
	</node>
	<node id="-703018" lat="68.0830638874" lon="13.5554805621">
		<tag k="name" v="Skotnessjøen" />
		<tag k="place" v="farm" />
		<tag k="ssr:stedsnr" v="502649" />
	</node>
	<node id="-703017" lat="68.0854277785" lon="13.5529444464">
		<tag k="alt_name" v="Skotnes ned" />
		<tag k="fixme" v="multiple name tags, choose one and add the other to alt_name" />
		<tag k="name" v="Skotnes;Nedre Skotnes" />
		<tag k="place" v="farm" />
		<tag k="ssr:stedsnr" v="502647" />
	</node>
	<node id="-703007" lat="68.2018055522" lon="13.9937888908">
		<tag k="name" v="Skokkelvika" />
		<tag k="place" v="farm" />
		<tag k="ssr:stedsnr" v="502457" />
	</node>
	<node id="-703005" lat="68.1672277737" lon="13.8389638873">
		<tag k="alt_name" v="Kangerurden;Kangerurda" />
		<tag k="name" v="Kangerura" />
		<tag k="place" v="farm" />
		<tag k="ssr:stedsnr" v="502433" />
	</node>
	<node id="-702999" lat="68.1511888905" lon="13.8557388776">
		<tag k="name" v="Langstranda" />
		<tag k="place" v="farm" />
		<tag k="ssr:stedsnr" v="502316" />
	</node>
	<node id="-702996" lat="68.2568083348" lon="13.9195750049">
		<tag k="name" v="Polljorda" />
		<tag k="place" v="farm" />
		<tag k="ssr:stedsnr" v="502230" />
	</node>
	<node id="-702984" lat="68.2392027801" lon="13.6762944391">
		<tag k="alt_name" v="Elltoft" />
		<tag k="name" v="Eltoft" />
		<tag k="place" v="farm" />
		<tag k="ssr:stedsnr" v="502069" />
	</node>
	<node id="-702978" lat="68.3067027754" lon="13.8628777791">
		<tag k="name" v="Val" />
		<tag k="place" v="farm" />
		<tag k="ssr:stedsnr" v="502008" />
	</node>
	<node id="-702962" lat="68.2017861074" lon="13.8813083431">
		<tag k="name" v="Skettenbogen" />
		<tag k="place" v="farm" />
		<tag k="ssr:stedsnr" v="480409" />
	</node>
	<node id="-702959" lat="68.1382499961" lon="13.7429249945">
		<tag k="name" v="Vollen" />
		<tag k="place" v="isolated_dwelling" />
		<tag k="ssr:stedsnr" v="472580" />
	</node>
	<node id="-702922" lat="68.1291416712" lon="13.7429999921">
		<tag k="name" v="Sørfjell" />
		<tag k="place" v="farm" />
		<tag k="ssr:stedsnr" v="451559" />
	</node>
	<node id="-702907" lat="68.2762055593" lon="13.9263111039">
		<tag k="name" v="Moan" />
		<tag k="place" v="farm" />
		<tag k="ssr:stedsnr" v="446814" />
	</node>
	<node id="-702904" lat="68.2452194459" lon="13.7660166779">
		<tag k="name" v="Borge prestegård" />
		<tag k="place" v="farm" />
		<tag k="ssr:stedsnr" v="446491" />
	</node>
	<node id="-702895" lat="68.2357277793" lon="13.7789805462">
		<tag k="name" v="Ålgreva" />
		<tag k="place" v="farm" />
		<tag k="ssr:stedsnr" v="446445" />
	</node>
	<node id="-702893" lat="68.1268972203" lon="13.5335083355">
		<tag k="name" v="Haug" />
		<tag k="place" v="quarter" />
		<tag k="ssr:stedsnr" v="446430" />
	</node>
	<node id="-702891" lat="68.1707722216" lon="13.6225833294">
		<tag k="name" v="Skullbru" />
		<tag k="place" v="farm" />
		<tag k="ssr:stedsnr" v="446427" />
	</node>
	<node id="-702887" lat="68.1561694451" lon="13.7745250104">
		<tag k="name" v="Eidisbakken" />
		<tag k="place" v="farm" />
		<tag k="ssr:stedsnr" v="446336" />
	</node>
	<node id="-702885" lat="68.2161388873" lon="13.6815694463">
		<tag k="name" v="Forsmo" />
		<tag k="place" v="farm" />
		<tag k="ssr:stedsnr" v="446326" />
	</node>
	<node id="-702884" lat="68.2116027787" lon="13.7223333226">
		<tag k="name" v="Tråsletta" />
		<tag k="place" v="farm" />
		<tag k="ssr:stedsnr" v="446323" />
	</node>
	<node id="-702882" lat="68.1294805538" lon="13.849427783">
		<tag k="name" v="Hartvågen" />
		<tag k="place" v="quarter" />
		<tag k="ssr:stedsnr" v="446287" />
	</node>
	<node id="-702880" lat="68.2079361109" lon="13.6625750057">
		<tag k="name" v="Ris" />
		<tag k="place" v="hamlet" />
		<tag k="ssr:stedsnr" v="446410" />
	</node>
	<node id="-702873" lat="68.1100833361" lon="13.6476194492">
		<tag k="name" v="Torvskjåvollen" />
		<tag k="place" v="farm" />
		<tag k="ssr:stedsnr" v="446113" />
	</node>
	<node id="-702861" lat="68.2026388887" lon="13.6946305578">
		<tag k="alt_name" v="Voll, øvre" />
		<tag k="fixme" v="multiple name tags, choose one and add the other to alt_name" />
		<tag k="name" v="Voll;Øvre Voll" />
		<tag k="place" v="farm" />
		<tag k="ssr:stedsnr" v="442944" />
	</node>
	<node id="-702860" lat="68.1906027809" lon="13.662211114">
		<tag k="name" v="Farstad" />
		<tag k="place" v="hamlet" />
		<tag k="ssr:stedsnr" v="442929" />
	</node>
	<node id="-702859" lat="68.1947083376" lon="13.5488944416">
		<tag k="name" v="Vik" />
		<tag k="place" v="hamlet" />
		<tag k="ssr:stedsnr" v="442922" />
	</node>
	<node id="-702848" lat="68.1183055578" lon="13.7874083375">
		<tag k="fixme" v="consider place=hamlet" />
		<tag k="name" v="Steine" />
		<tag k="place" v="village" />
		<tag k="ssr:stedsnr" v="442845" />
	</node>
	<node id="-702847" lat="68.1474944478" lon="13.4948638929">
		<tag k="name" v="Inner-Flesa" />
		<tag k="place" v="isolated_dwelling" />
		<tag k="ssr:stedsnr" v="442833" />
	</node>
	<node id="-702823" lat="68.2570861154" lon="14.0073666671">
		<tag k="name" v="Bjørnhaugen" />
		<tag k="place" v="farm" />
		<tag k="ssr:stedsnr" v="442174" />
	</node>
	<node id="-702809" lat="68.2783416674" lon="13.9217055446">
		<tag k="name" v="Skogneset" />
		<tag k="place" v="farm" />
		<tag k="ssr:stedsnr" v="442002" />
	</node>
	<node id="-702800" lat="68.1382361086" lon="13.7673555645">
		<tag k="name" v="Apnes" />
		<tag k="place" v="farm" />
		<tag k="ssr:stedsnr" v="441758" />
	</node>
	<node id="-702795" lat="68.2097166669" lon="13.8814277863">
		<tag k="alt_name" v="Øverjord" />
		<tag k="name" v="Øvrejorden" />
		<tag k="place" v="farm" />
		<tag k="ssr:stedsnr" v="441449" />
	</node>
	<node id="-702793" lat="68.1440916698" lon="13.8260472193">
		<tag k="name" v="Taen" />
		<tag k="place" v="farm" />
		<tag k="ssr:stedsnr" v="441348" />
	</node>
	<node id="-702783" lat="68.2182250028" lon="13.7975194362">
		<tag k="name" v="Slydalen" />
		<tag k="place" v="farm" />
		<tag k="ssr:stedsnr" v="441089" />
	</node>
	<node id="-702779" lat="68.3123805588" lon="13.8641472262">
		<tag k="name" v="Sand" />
		<tag k="place" v="farm" />
		<tag k="ssr:stedsnr" v="480185" />
	</node>
	<node id="-702715" lat="68.120033333" lon="13.5264444362">
		<tag k="name" v="Skjønstu" />
		<tag k="place" v="farm" />
		<tag k="ssr:stedsnr" v="267180" />
	</node>
	<node id="-702714" lat="68.1421138915" lon="13.7765694543">
		<tag k="name" v="Grønnlia" />
		<tag k="place" v="farm" />
		<tag k="ssr:stedsnr" v="265324" />
	</node>
	<node id="-702710" lat="68.2607500018" lon="13.925930558">
		<tag k="name" v="Gjerdan" />
		<tag k="place" v="isolated_dwelling" />
		<tag k="ssr:stedsnr" v="264846" />
	</node>
	<node id="-702707" lat="68.1191277802" lon="13.6379555631">
		<tag k="name" v="Solbakk" />
		<tag k="place" v="farm" />
		<tag k="ssr:stedsnr" v="264476" />
	</node>
	<node id="-702696" lat="68.1469916631" lon="13.7659305463">
		<tag k="name" v="Myrland" />
		<tag k="place" v="farm" />
		<tag k="ssr:stedsnr" v="264298" />
	</node>
	<node id="-702693" lat="68.2496111086" lon="13.7670388824">
		<tag k="name" v="Tøa" />
		<tag k="place" v="farm" />
		<tag k="ssr:stedsnr" v="264286" />
	</node>
	<node id="-702690" lat="68.1435861111" lon="13.8271805582">
		<tag k="name" v="Tabakken" />
		<tag k="place" v="hamlet" />
		<tag k="ssr:stedsnr" v="264253" />
	</node>
	<node id="-702684" lat="68.1191166649" lon="13.6461999972">
		<tag k="name" v="Haugen" />
		<tag k="place" v="farm" />
		<tag k="ssr:stedsnr" v="264110" />
	</node>
	<node id="-702683" lat="68.1605111149" lon="13.551372227">
		<tag k="name" v="Hestneset" />
		<tag k="place" v="farm" />
		<tag k="ssr:stedsnr" v="264076" />
	</node>
	<node id="-702674" lat="68.2801611122" lon="13.7231805637">
		<tag k="alt_name" v="Strøm" />
		<tag k="fixme" v="consider place=hamlet" />
		<tag k="name" v="Straume" />
		<tag k="place" v="farm" />
		<tag k="ssr:stedsnr" v="260982" />
	</node>
	<node id="-702670" lat="68.110130559" lon="13.4842499933">
		<tag k="alt_name" v="Graviktaen;Gravitaen" />
		<tag k="name" v="Graveidtaen" />
		<tag k="place" v="farm" />
		<tag k="ssr:stedsnr" v="260870" />
	</node>
	<node id="-702667" lat="68.13968889" lon="13.5338638883">
		<tag k="name" v="Litleid" />
		<tag k="place" v="farm" />
		<tag k="ssr:stedsnr" v="260824" />
	</node>
	<node id="-702665" lat="68.1411833301" lon="13.7450999992">
		<tag k="alt_name" v="Finstad" />
		<tag k="name" v="Finnstad" />
		<tag k="place" v="hamlet" />
		<tag k="ssr:stedsnr" v="260815" />
	</node>
	<node id="-702661" lat="68.0906305555" lon="13.5338805518">
		<tag k="name" v="Hestneset" />
		<tag k="place" v="farm" />
		<tag k="ssr:stedsnr" v="260663" />
	</node>
	<node id="-702648" lat="68.2556305557" lon="13.8491611001">
		<tag k="name" v="Borgfjord Indre" />
		<tag k="old_name" v="Borgfjorden, in;Indre Borgfjord" />
		<tag k="place" v="farm" />
		<tag k="ssr:stedsnr" v="260300" />
	</node>
	<node id="-702647" lat="68.2682361119" lon="13.9193249971">
		<tag k="name" v="Lia" />
		<tag k="place" v="farm" />
		<tag k="ssr:stedsnr" v="260261" />
	</node>
	<node id="-702626" lat="68.1662027774" lon="13.7948444483">
		<tag k="alt_name" v="Justad Øvre" />
		<tag k="name" v="Justad" />
		<tag k="place" v="farm" />
		<tag k="ssr:stedsnr" v="259974" />
	</node>
	<node id="-702621" lat="68.1565972226" lon="13.5271166632">
		<tag k="name" v="Offersøya" />
		<tag k="place" v="hamlet" />
		<tag k="ssr:stedsnr" v="259959" />
	</node>
	<node id="-702609" lat="68.0673805584" lon="13.489747225">
		<tag k="name" v="Norgræna" />
		<tag k="place" v="isolated_dwelling" />
		<tag k="ssr:stedsnr" v="259683" />
	</node>
	<node id="-702608" lat="68.1600833378" lon="13.7798916641">
		<tag k="name" v="Ytter-Kråklia" />
		<tag k="place" v="farm" />
		<tag k="ssr:stedsnr" v="259936" />
	</node>
	<node id="-702607" lat="68.2517972182" lon="13.7687361023">
		<tag k="name" v="Bøstad" />
		<tag k="place" v="farm" />
		<tag k="ssr:stedsnr" v="259935" />
	</node>
	<node id="-702600" lat="68.239827782" lon="13.8253472237">
		<tag k="name" v="Veiberg" />
		<tag k="place" v="farm" />
		<tag k="ssr:stedsnr" v="259490" />
	</node>
	<node id="-704635" lat="68.1300416706" lon="13.5704750093">
		<tag k="name" v="Storeidøya Industriområde" />
		<tag k="place" v="quarter" />
		<tag k="ssr:stedsnr" v="957894" />
	</node>
	<node id="-702585" lat="68.1502749985" lon="13.8444444478">
		<tag k="name" v="Stor-Osneset" />
		<tag k="place" v="farm" />
		<tag k="ssr:stedsnr" v="259318" />
	</node>
	<node id="-702581" lat="68.2711027806" lon="14.0733138992">
		<tag k="name" v="Fossen" />
		<tag k="place" v="isolated_dwelling" />
		<tag k="ssr:stedsnr" v="238998" />
	</node>
	<node id="-704622" lat="68.2114222215" lon="13.5236500092">
		<tag k="name" v="Toftan" />
		<tag k="place" v="farm" />
		<tag k="ssr:stedsnr" v="951182" />
	</node>
	<node id="-704611" lat="68.1569916635" lon="13.7034027763">
		<tag k="name" v="Hagstua" />
		<tag k="place" v="isolated_dwelling" />
		<tag k="ssr:stedsnr" v="937579" />
	</node>
	<node id="-702552" lat="68.2178999992" lon="13.8940694467">
		<tag k="name" v="Vollan" />
		<tag k="place" v="farm" />
		<tag k="ssr:stedsnr" v="238022" />
	</node>
	<node id="-704589" lat="68.1384833291" lon="13.8277444446">
		<tag k="name" v="Fredheim" />
		<tag k="place" v="isolated_dwelling" />
		<tag k="ssr:stedsnr" v="932257" />
	</node>
	<node id="-702535" lat="68.123125" lon="13.5476916688">
		<tag k="name" v="Leirdalen" />
		<tag k="place" v="isolated_dwelling" />
		<tag k="ssr:stedsnr" v="230012" />
	</node>
	<node id="-704563" lat="68.1376333303" lon="13.6268638919">
		<tag k="name" v="Moneset" />
		<tag k="place" v="hamlet" />
		<tag k="ssr:stedsnr" v="931436" />
	</node>
	<node id="-702511" lat="68.251144446" lon="13.7546944568">
		<tag k="name" v="Bøstad" />
		<tag k="place" v="farm" />
		<tag k="ssr:stedsnr" v="223559" />
	</node>
	<node id="-702500" lat="68.1583277822" lon="13.7539416585">
		<tag k="name" v="Storfjord" />
		<tag k="place" v="farm" />
		<tag k="ssr:stedsnr" v="209554" />
	</node>
	<node id="-702493" lat="68.0843888903" lon="13.538955548">
		<tag k="amenity" v="school" />
		<tag k="name" v="Ballstad skole" />
		<tag k="ssr:stedsnr" v="207156" />
	</node>
	<node id="-702483" lat="68.100527781" lon="13.6435027712">
		<tag k="name" v="Kvalvik" />
		<tag k="place" v="isolated_dwelling" />
		<tag k="ssr:stedsnr" v="204082" />
	</node>
	<node id="-702477" lat="68.1761777787" lon="13.6117138996">
		<tag k="name" v="Svean" />
		<tag k="place" v="locality" />
		<tag k="ssr:stedsnr" v="203492" />
	</node>
	<node id="-701442" lat="68.2112277797" lon="13.6680333367">
		<tag k="alt_name" v="Rise, store;Storerise" />
		<tag k="name" v="Store Rise" />
		<tag k="place" v="farm" />
		<tag k="ssr:stedsnr" v="380119" />
	</node>
	<node id="-704519" lat="68.1054833354" lon="13.5590833222">
		<tag k="alt_name" v="Jerstad, nedre" />
		<tag k="fixme" v="multiple name tags, choose one and add the other to alt_name" />
		<tag k="name" v="Jerstad;Nergjerstad" />
		<tag k="place" v="farm" />
		<tag k="ssr:stedsnr" v="927654" />
	</node>
	<node id="-702467" lat="68.1661444419" lon="13.55017501">
		<tag k="name" v="Ørntuva" />
		<tag k="place" v="isolated_dwelling" />
		<tag k="ssr:stedsnr" v="203431" />
	</node>
	<node id="-704513" lat="68.2171499973" lon="13.8890361083">
		<tag k="alt_name" v="Tjørndalen" />
		<tag k="name" v="Tjønndalen" />
		<tag k="place" v="farm" />
		<tag k="ssr:stedsnr" v="927569" />
	</node>
</osm>
