<?xml version="1.0" encoding="UTF-8"?>
<<<<<<< HEAD
<osm version="0.6" generator="osmapis">
	<node lat="61.11771944060204" lon="10.059888884838045" id="-18308">
		<tag k="highway" v="path" />
		<tag k="name" v="Mjogsjøråket" />
		<tag k="ssr:stedsnr" v="231857" />
	</node>
	<node lat="61.153891670577885" lon="10.392127779989105" id="-18364">
		<tag k="bridge" v="yes" />
		<tag k="layer" v="1" />
		<tag k="name" v="Jørstadmoen" />
		<tag k="ssr:stedsnr" v="107327" />
	</node>
	<node lat="61.10481666748001" lon="10.287316673413532" id="-18437">
		<tag k="ford" v="yes" />
		<tag k="name" v="Myrkloppa" />
		<tag k="place" v="locality" />
		<tag k="ssr:stedsnr" v="162826" />
	</node>
	<node lat="61.03446667054909" lon="10.241241668816535" id="-18442">
		<tag k="highway" v="path" />
		<tag k="name" v="Nyseterråket" />
		<tag k="ssr:stedsnr" v="176956" />
	</node>
	<node lat="61.21974722516714" lon="10.439038880666814" id="-18463">
		<tag k="landuse" v="industrial" />
		<tag k="name" v="Hunderfossen" />
		<tag k="power" v="plant" />
		<tag k="ssr:stedsnr" v="190175" />
	</node>
	<node lat="61.03573610726391" lon="10.336833339930957" id="-18494">
		<tag k="highway" v="path" />
		<tag k="name" v="Moslivegen" />
		<tag k="ssr:stedsnr" v="284196" />
	</node>
	<node lat="61.04733888652041" lon="10.434658333259486" id="-18495">
		<tag k="bridge" v="yes" />
		<tag k="layer" v="1" />
		<tag k="name" v="Vingrom" />
		<tag k="ssr:stedsnr" v="289309" />
	</node>
	<node lat="61.124655556408804" lon="10.471344447157325" id="-18496">
		<tag k="bridge" v="yes" />
		<tag k="layer" v="1" />
		<tag k="name" v="Hallbrua" />
		<tag k="ssr:stedsnr" v="289335" />
	</node>
	<node lat="61.1832166675528" lon="10.524011106883803" id="-18546">
		<tag k="highway" v="path" />
		<tag k="name" v="Gamle Reinaråket" />
		<tag k="ssr:stedsnr" v="325720" />
	</node>
	<node lat="61.22650555906951" lon="10.428033328252056" id="-18548">
		<tag k="bridge" v="yes" />
		<tag k="layer" v="1" />
		<tag k="name" v="Porten" />
		<tag k="ssr:stedsnr" v="471319" />
	</node>
	<node lat="61.15497500410269" lon="10.413372224552033" id="-18549">
		<tag k="bridge" v="yes" />
		<tag k="layer" v="1" />
		<tag k="name" v="Nord-Hove" />
		<tag k="ssr:stedsnr" v="471320" />
	</node>
	<node lat="61.190808334185654" lon="10.274661109462937" id="-18550">
		<tag k="bridge" v="yes" />
		<tag k="layer" v="1" />
		<tag k="name" v="Ingridå" />
		<tag k="ssr:stedsnr" v="471332" />
	</node>
	<node lat="61.16595421555636" lon="10.398507344265731" id="-18551">
		<tag k="bridge" v="yes" />
		<tag k="layer" v="1" />
		<tag k="loc_name" v="Brunlaugbrua" />
		<tag k="name" v="Brunlaug" />
		<tag k="ssr:stedsnr" v="471339" />
	</node>
	<node lat="61.10369166979766" lon="10.077099994700717" id="-18566">
		<tag k="highway" v="path" />
		<tag k="name" v="Gaustumseterråket" />
		<tag k="ssr:stedsnr" v="473841" />
	</node>
	<node lat="61.08859166609724" lon="10.177997217671065" id="-18569">
		<tag k="highway" v="path" />
		<tag k="name" v="Gamle Åltjernsvegen" />
		<tag k="ssr:stedsnr" v="474793" />
	</node>
	<node lat="61.176147219985204" lon="10.523388879741205" id="-18600">
		<tag k="highway" v="path" />
		<tag k="name" v="Gropråket" />
		<tag k="ssr:stedsnr" v="480755" />
	</node>
	<node lat="61.04236666575517" lon="10.219849999915407" id="-18606">
		<tag k="highway" v="path" />
		<tag k="name" v="Nyseterråket" />
		<tag k="ssr:stedsnr" v="405194" />
	</node>
	<node lat="61.092438886368136" lon="10.433924996513852" id="-18610">
		<tag k="bridge" v="yes" />
		<tag k="layer" v="1" />
		<tag k="name" v="Øyre" />
		<tag k="ssr:stedsnr" v="410325" />
	</node>
	<node lat="61.045041667417394" lon="10.433802773335017" id="-18611">
		<tag k="bridge" v="yes" />
		<tag k="layer" v="1" />
		<tag k="name" v="Vingrom" />
		<tag k="ssr:stedsnr" v="410331" />
	</node>
	<node lat="61.105338885133804" lon="10.076783340345685" id="-18612">
		<tag k="highway" v="path" />
		<tag k="name" v="Endreliråket" />
		<tag k="ssr:stedsnr" v="412793" />
	</node>
	<node lat="61.17992777740201" lon="10.490374997285082" id="-18615">
		<tag k="highway" v="path" />
		<tag k="name" v="Kneet" />
		<tag k="ssr:stedsnr" v="420744" />
	</node>
	<node lat="61.148627775294955" lon="10.425124993183438" id="-18681">
		<tag k="bridge" v="yes" />
		<tag k="layer" v="1" />
		<tag k="name" v="Stor-Hove" />
		<tag k="ssr:stedsnr" v="471306" />
	</node>
	<node lat="61.15881111553298" lon="10.43518333544867" id="-18762">
		<tag k="fixme" v="consider highway=path" />
		<tag k="highway" v="track" />
		<tag k="name" v="Vardhøgdvegen" />
		<tag k="ssr:stedsnr" v="586861" />
	</node>
	<node lat="61.115363884703115" lon="10.451263883039957" id="-18797">
		<tag k="bridge" v="yes" />
		<tag k="layer" v="1" />
		<tag k="name" v="Mesnadalen" />
		<tag k="ssr:stedsnr" v="653308" />
	</node>
	<node lat="61.12687777736328" lon="10.404047225740344" id="-18798">
		<tag k="bridge" v="yes" />
		<tag k="layer" v="1" />
		<tag k="name" v="Kollefall" />
		<tag k="ssr:stedsnr" v="653312" />
	</node>
	<node lat="61.15710833163571" lon="10.392552771199163" id="-18799">
		<tag k="bridge" v="yes" />
		<tag k="layer" v="1" />
		<tag k="name" v="Jorekstad" />
		<tag k="ssr:stedsnr" v="653319" />
	</node>
	<node lat="61.077602775539646" lon="10.430238893978775" id="-18800">
		<tag k="bridge" v="yes" />
		<tag k="layer" v="1" />
		<tag k="name" v="Hov" />
		<tag k="ssr:stedsnr" v="653320" />
	</node>
	<node lat="61.11665277586588" lon="10.445986111217087" id="-18801">
		<tag k="bridge" v="yes" />
		<tag k="layer" v="1" />
		<tag k="name" v="Busmoen" />
		<tag k="ssr:stedsnr" v="653331" />
	</node>
	<node lat="61.035888891451386" lon="10.296705559273088" id="-18806">
		<tag k="highway" v="path" />
		<tag k="name" v="Nyseterråket" />
		<tag k="ssr:stedsnr" v="708402" />
	</node>
	<node lat="61.115286113572814" lon="10.285222227338572" id="-18855">
		<tag k="bridge" v="yes" />
		<tag k="layer" v="1" />
		<tag k="name" v="Ulland" />
		<tag k="ssr:stedsnr" v="896323" />
	</node>
	<node lat="61.13156111067258" lon="10.434219444407955" id="-18856">
		<tag k="bridge" v="yes" />
		<tag k="layer" v="1" />
		<tag k="name" v="Korgvegen" />
		<tag k="ssr:stedsnr" v="896337" />
	</node>
	<node lat="61.12576666838595" lon="10.228425004049035" id="-18857">
		<tag k="bridge" v="yes" />
		<tag k="layer" v="1" />
		<tag k="name" v="Berg" />
		<tag k="ssr:stedsnr" v="896353" />
	</node>
	<node lat="61.116355559044905" lon="10.445952784532015" id="-18864">
		<tag k="bridge" v="yes" />
		<tag k="layer" v="1" />
		<tag k="name" v="Strandtorget" />
		<tag k="ssr:stedsnr" v="714276" />
	</node>
	<node lat="61.1598388862901" lon="10.331224995281502" id="-18865">
=======
<osm generator="osmapis" version="0.6">
	<node id="-303616" lat="61.1177194406" lon="10.0598888848">
		<tag k="highway" v="path" />
		<tag k="name" v="Mjogsjøråket" />
		<tag k="ssr:stedsnr" v="231857" />
	</node>
	<node id="-303615" lat="61.1479527791" lon="10.4142083347">
>>>>>>> e1d4bc35ff8a6074a6f2e91616a996b547c36f15
		<tag k="bridge" v="yes" />
		<tag k="layer" v="1" />
		<tag k="name" v="Sagbekken" />
		<tag k="ssr:stedsnr" v="714280" />
	</node>
<<<<<<< HEAD
	<node lat="61.171291667690845" lon="10.609841665638228" id="-18866">
=======
	<node id="-303614" lat="61.1301277776" lon="10.44506388">
>>>>>>> e1d4bc35ff8a6074a6f2e91616a996b547c36f15
		<tag k="bridge" v="yes" />
		<tag k="layer" v="1" />
		<tag k="name" v="Nevra" />
		<tag k="ssr:stedsnr" v="714286" />
	</node>
<<<<<<< HEAD
	<node lat="61.1031500036947" lon="10.49083333507202" id="-18867">
=======
	<node id="-303613" lat="61.115005552" lon="10.4544944453">
>>>>>>> e1d4bc35ff8a6074a6f2e91616a996b547c36f15
		<tag k="bridge" v="yes" />
		<tag k="layer" v="1" />
		<tag k="name" v="Langsethsvingen" />
		<tag k="ssr:stedsnr" v="714288" />
	</node>
<<<<<<< HEAD
	<node lat="61.1816277754548" lon="10.611424994541418" id="-18906">
=======
	<node id="-304119" lat="61.1812555573" lon="10.6127055495">
>>>>>>> e1d4bc35ff8a6074a6f2e91616a996b547c36f15
		<tag k="highway" v="path" />
		<tag k="name" v="Krøtterråket" />
		<tag k="ssr:stedsnr" v="906549" />
	</node>
<<<<<<< HEAD
	<node lat="61.07066111069784" lon="10.18845000061707" id="-18952">
=======
	<node id="-304118" lat="61.1803833375" lon="10.6306833413">
>>>>>>> e1d4bc35ff8a6074a6f2e91616a996b547c36f15
		<tag k="highway" v="path" />
		<tag k="name" v="Gamle Vismundsvegen" />
		<tag k="ssr:stedsnr" v="830169" />
	</node>
<<<<<<< HEAD
	<node lat="61.03711388692089" lon="10.425494441148144" id="-18985">
		<tag k="highway" v="path" />
		<tag k="name" v="Moslivegen" />
		<tag k="ssr:stedsnr" v="890400" />
	</node>
	<node lat="61.09056389001525" lon="10.082938896795874" id="-19026">
=======
	<node id="-304112" lat="61.0502527806" lon="10.2002972153">
		<tag k="highway" v="path" />
		<tag k="name" v="Sjoghaugråket" />
		<tag k="ssr:stedsnr" v="965972" />
	</node>
	<node id="-304106" lat="61.107583337" lon="10.4426472142">
		<tag k="bridge" v="yes" />
		<tag k="layer" v="1" />
		<tag k="name" v="Jørstadmovegen" />
		<tag k="ssr:stedsnr" v="957318" />
	</node>
	<node id="-303593" lat="61.1123611072" lon="10.1165472216">
>>>>>>> e1d4bc35ff8a6074a6f2e91616a996b547c36f15
		<tag k="highway" v="path" />
		<tag k="name" v="Dølvegen" />
		<tag k="ssr:stedsnr" v="292823" />
	</node>
<<<<<<< HEAD
	<node lat="61.10758333702666" lon="10.44264721422289" id="-19029">
		<tag k="bridge" v="yes" />
		<tag k="layer" v="1" />
		<tag k="name" v="Jørstadmovegen" />
		<tag k="ssr:stedsnr" v="957318" />
	</node>
	<node lat="61.223474338003555" lon="10.438542116544667" id="-19049">
		<tag k="name" v="Hunderfossen holdeplass" />
		<tag k="railway" v="halt" />
		<tag k="ssr:stedsnr" v="989633" />
		<tag k="train" v="yes" />
	</node>
	<node lat="61.17093278475633" lon="10.405129347120596" id="-19050">
		<tag k="name" v="Fåberg stasjon" />
		<tag k="railway" v="station" />
		<tag k="ssr:stedsnr" v="989652" />
		<tag k="train" v="yes" />
	</node>
	<node lat="61.126772219518294" lon="10.3930555468937" id="-19082">
=======
	<node id="-303587" lat="61.1246555564" lon="10.4713444472">
		<tag k="bridge" v="yes" />
		<tag k="layer" v="1" />
		<tag k="name" v="Hallbrua" />
		<tag k="ssr:stedsnr" v="289335" />
	</node>
	<node id="-303586" lat="61.0977361094" lon="10.437638882">
		<tag k="bridge" v="yes" />
		<tag k="layer" v="1" />
		<tag k="name" v="Rise" />
		<tag k="ssr:stedsnr" v="289324" />
	</node>
	<node id="-303572" lat="61.0357361073" lon="10.3368333399">
		<tag k="highway" v="path" />
		<tag k="name" v="Moslivegen" />
		<tag k="ssr:stedsnr" v="284196" />
	</node>
	<node id="-304580" lat="61.0995944486" lon="10.5109777824">
		<tag k="bridge" v="yes" />
		<tag k="layer" v="1" />
		<tag k="name" v="Askjellrud" />
		<tag k="ssr:stedsnr" v="532316" />
	</node>
	<node id="-304579" lat="61.1335416647" lon="10.4273694525">
>>>>>>> e1d4bc35ff8a6074a6f2e91616a996b547c36f15
		<tag k="bridge" v="yes" />
		<tag k="layer" v="1" />
		<tag k="name" v="Skvalbekken" />
		<tag k="ssr:stedsnr" v="46335" />
	</node>
<<<<<<< HEAD
	<node lat="61.06864721850422" lon="10.430583337432099" id="-19083">
=======
	<node id="-304578" lat="61.1566916667" lon="10.3171527712">
>>>>>>> e1d4bc35ff8a6074a6f2e91616a996b547c36f15
		<tag k="bridge" v="yes" />
		<tag k="layer" v="1" />
		<tag k="name" v="Røine" />
		<tag k="ssr:stedsnr" v="46339" />
	</node>
<<<<<<< HEAD
	<node lat="61.149775001482865" lon="10.341349992071521" id="-19084">
=======
	<node id="-304577" lat="61.1006666699" lon="10.4394250013">
>>>>>>> e1d4bc35ff8a6074a6f2e91616a996b547c36f15
		<tag k="bridge" v="yes" />
		<tag k="layer" v="1" />
		<tag k="name" v="Djupå" />
		<tag k="ssr:stedsnr" v="46356" />
	</node>
<<<<<<< HEAD
	<node lat="61.19183055178205" lon="10.580891670263844" id="-19119">
		<tag k="highway" v="path" />
		<tag k="name" v="Gamle Reinaråket" />
		<tag k="ssr:stedsnr" v="101265" />
	</node>
	<node lat="61.199675000531414" lon="10.406674994433484" id="-19125">
=======
	<node id="-304576" lat="61.1023277782" lon="10.4767361113">
		<tag k="bridge" v="yes" />
		<tag k="layer" v="1" />
		<tag k="name" v="Åretta" />
		<tag k="ssr:stedsnr" v="532287" />
	</node>
	<node id="-304575" lat="61.102805552" lon="10.4770944487">
>>>>>>> e1d4bc35ff8a6074a6f2e91616a996b547c36f15
		<tag k="bridge" v="yes" />
		<tag k="layer" v="1" />
		<tag k="name" v="Å bru" />
		<tag k="ssr:stedsnr" v="107308" />
	</node>
<<<<<<< HEAD
	<node lat="61.05831110819496" lon="10.431483333571244" id="-19126">
		<tag k="bridge" v="yes" />
		<tag k="layer" v="1" />
		<tag k="name" v="Roligheten" />
		<tag k="ssr:stedsnr" v="107318" />
	</node>
	<node lat="61.12618055837781" lon="10.25371111330279" id="-19169">
=======
	<node id="-304045" lat="61.1681111088" lon="10.4035500013">
		<tag k="bridge" v="yes" />
		<tag k="layer" v="1" />
		<tag k="name" v="Fåberg" />
		<tag k="ssr:stedsnr" v="835354" />
	</node>
	<node id="-304527" lat="61.1799277774" lon="10.4903749973">
		<tag k="highway" v="path" />
		<tag k="name" v="Kneet" />
		<tag k="ssr:stedsnr" v="420744" />
	</node>
	<node id="-304512" lat="61.1053388851" lon="10.0767833403">
>>>>>>> e1d4bc35ff8a6074a6f2e91616a996b547c36f15
		<tag k="highway" v="path" />
		<tag k="name" v="Gammelvegen" />
		<tag k="ssr:stedsnr" v="162127" />
	</node>
<<<<<<< HEAD
	<node lat="61.120972222210575" lon="10.444730564040198" id="-19181">
=======
	<node id="-304511" lat="61.1170138924" lon="10.4610277816">
>>>>>>> e1d4bc35ff8a6074a6f2e91616a996b547c36f15
		<tag k="bridge" v="yes" />
		<tag k="layer" v="1" />
		<tag k="name" v="Skurva" />
		<tag k="ssr:stedsnr" v="167334" />
	</node>
<<<<<<< HEAD
	<node lat="61.046427777650024" lon="10.430097219871737" id="-19182">
=======
	<node id="-304510" lat="61.157502774" lon="10.3920666736">
>>>>>>> e1d4bc35ff8a6074a6f2e91616a996b547c36f15
		<tag k="bridge" v="yes" />
		<tag k="layer" v="1" />
		<tag k="name" v="Rinna" />
		<tag k="ssr:stedsnr" v="167337" />
	</node>
<<<<<<< HEAD
	<node lat="61.10232499675112" lon="10.487177770990911" id="-19183">
		<tag k="alt_name" v="Langseth" />
=======
	<node id="-304509" lat="61.0450416674" lon="10.4338027733">
>>>>>>> e1d4bc35ff8a6074a6f2e91616a996b547c36f15
		<tag k="bridge" v="yes" />
		<tag k="layer" v="1" />
		<tag k="name" v="Langset" />
		<tag k="ssr:stedsnr" v="167347" />
	</node>
<<<<<<< HEAD
	<node lat="61.22963055785004" lon="10.427372223919658" id="-19184">
		<tag k="bridge" v="yes" />
		<tag k="layer" v="1" />
		<tag k="name" v="Gruva" />
		<tag k="ssr:stedsnr" v="168336" />
	</node>
	<node lat="61.152566379751974" lon="10.404473728037072" id="-19233">
=======
	<node id="-304508" lat="61.0924388864" lon="10.4339249965">
		<tag k="bridge" v="yes" />
		<tag k="layer" v="1" />
		<tag k="name" v="Øyre" />
		<tag k="ssr:stedsnr" v="410325" />
	</node>
	<node id="-304506" lat="61.1066055523" lon="10.1704833304">
		<tag k="highway" v="path" />
		<tag k="name" v="Storstøråket" />
		<tag k="ssr:stedsnr" v="405459" />
	</node>
	<node id="-304504" lat="61.0423666658" lon="10.2198499999">
		<tag k="highway" v="path" />
		<tag k="name" v="Nyseterråket" />
		<tag k="ssr:stedsnr" v="405194" />
	</node>
	<node id="-304105" lat="61.09056389" lon="10.0829388968">
		<tag k="highway" v="path" />
		<tag k="name" v="Dølvegen" />
		<tag k="ssr:stedsnr" v="951904" />
	</node>
	<node id="-303980" lat="61.1257666684" lon="10.228425004">
>>>>>>> e1d4bc35ff8a6074a6f2e91616a996b547c36f15
		<tag k="bridge" v="yes" />
		<tag k="layer" v="1" />
		<tag k="name" v="Sundgården bru" />
		<tag k="ssr:stedsnr" v="228339" />
	</node>
<<<<<<< HEAD
	<node lat="61.11500555202455" lon="10.454494445343542" id="-19234">
=======
	<node id="-303979" lat="61.1315611107" lon="10.4342194444">
>>>>>>> e1d4bc35ff8a6074a6f2e91616a996b547c36f15
		<tag k="bridge" v="yes" />
		<tag k="layer" v="1" />
		<tag k="name" v="Knappefabrikken" />
		<tag k="ssr:stedsnr" v="228361" />
	</node>
<<<<<<< HEAD
	<node lat="61.130127777612955" lon="10.44506388002956" id="-19235">
		<tag k="bridge" v="yes" />
		<tag k="layer" v="1" />
		<tag k="name" v="Industrigata" />
		<tag k="ssr:stedsnr" v="228364" />
	</node>
	<node lat="61.14795277914751" lon="10.414208334710192" id="-19236">
		<tag k="bridge" v="yes" />
		<tag k="layer" v="1" />
		<tag k="name" v="Gausdalsarmen" />
		<tag k="ssr:stedsnr" v="228368" />
	</node>
	<node lat="61.132724997784436" lon="10.44416944557276" id="-19251">
=======
	<node id="-303978" lat="61.1152861136" lon="10.2852222273">
		<tag k="bridge" v="yes" />
		<tag k="layer" v="1" />
		<tag k="name" v="Ulland" />
		<tag k="ssr:stedsnr" v="896323" />
	</node>
	<node id="-303976" lat="61.1137277768" lon="10.0806888931">
		<tag k="highway" v="path" />
		<tag k="name" v="Mjogsjøråket" />
		<tag k="ssr:stedsnr" v="716817" />
	</node>
	<node id="-303452" lat="61.1527583329" lon="10.4061222157">
		<tag k="bridge" v="yes" />
		<tag k="layer" v="1" />
		<tag k="name" v="Sundgården" />
		<tag k="ssr:stedsnr" v="228339" />
	</node>
	<node id="-303957" lat="61.0371138869" lon="10.4254944411">
		<tag k="highway" v="path" />
		<tag k="name" v="Moslivegen" />
		<tag k="ssr:stedsnr" v="890400" />
	</node>
	<node id="-304454" lat="61.1878777807" lon="10.2996611061">
>>>>>>> e1d4bc35ff8a6074a6f2e91616a996b547c36f15
		<tag k="bridge" v="yes" />
		<tag k="layer" v="1" />
		<tag k="name" v="Smestadvegen" />
		<tag k="ssr:stedsnr" v="289316" />
	</node>
<<<<<<< HEAD
	<node lat="61.09773610943053" lon="10.437638882003396" id="-19252">
		<tag k="bridge" v="yes" />
		<tag k="layer" v="1" />
		<tag k="name" v="Rise" />
		<tag k="ssr:stedsnr" v="289324" />
	</node>
	<node lat="61.11236110721736" lon="10.116547221600854" id="-19253">
		<tag k="highway" v="path" />
		<tag k="name" v="Dølvegen" />
		<tag k="ssr:stedsnr" v="292823" />
	</node>
	<node lat="61.120769442353115" lon="10.265822222938779" id="-19302">
=======
	<node id="-304453" lat="61.0726916666" lon="10.3716916726">
		<tag k="bridge" v="yes" />
		<tag k="layer" v="1" />
		<tag k="name" v="Døsen" />
		<tag k="ssr:stedsnr" v="349397" />
	</node>
	<node id="-304451" lat="61.1207694424" lon="10.2658222229">
		<tag k="highway" v="path" />
		<tag k="name" v="Gamle Saksumdalsvegen" />
		<tag k="ssr:stedsnr" v="344946" />
	</node>
	<node id="-304438" lat="61.1832166676" lon="10.5240111069">
>>>>>>> e1d4bc35ff8a6074a6f2e91616a996b547c36f15
		<tag k="highway" v="path" />
		<tag k="name" v="Gamle Saksumdalsvegen" />
		<tag k="ssr:stedsnr" v="344946" />
	</node>
<<<<<<< HEAD
	<node lat="61.072691666569334" lon="10.371691672597638" id="-19303">
=======
	<node id="-303835" lat="61.1588111155" lon="10.4351833354">
		<tag k="fixme" v="consider highway=path" />
		<tag k="highway" v="track" />
		<tag k="name" v="Vardhøgdvegen" />
		<tag k="ssr:stedsnr" v="586861" />
	</node>
	<node id="-303900" lat="61.1153638847" lon="10.451263883">
>>>>>>> e1d4bc35ff8a6074a6f2e91616a996b547c36f15
		<tag k="bridge" v="yes" />
		<tag k="layer" v="1" />
		<tag k="name" v="Døsen" />
		<tag k="ssr:stedsnr" v="349397" />
	</node>
<<<<<<< HEAD
	<node lat="61.18787778067124" lon="10.299661106134137" id="-19304">
=======
	<node id="-303894" lat="61.0925833312" lon="10.4336444387">
>>>>>>> e1d4bc35ff8a6074a6f2e91616a996b547c36f15
		<tag k="bridge" v="yes" />
		<tag k="layer" v="1" />
		<tag k="name" v="Arlien" />
		<tag k="ssr:stedsnr" v="349401" />
	</node>
<<<<<<< HEAD
	<node lat="61.10660555227448" lon="10.170483330371798" id="-19349">
		<tag k="highway" v="path" />
		<tag k="name" v="Storstøråket" />
		<tag k="ssr:stedsnr" v="405459" />
	</node>
	<node lat="61.15750277398799" lon="10.392066673636121" id="-19352">
		<tag k="bridge" v="yes" />
		<tag k="layer" v="1" />
		<tag k="name" v="Gausa" />
		<tag k="ssr:stedsnr" v="410354" />
	</node>
	<node lat="61.117013892373926" lon="10.461027781626372" id="-19353">
=======
	<node id="-303878" lat="61.1281027764" lon="10.5252916741">
		<tag k="highway" v="path" />
		<tag k="name" v="Birkebeinerløypa" />
		<tag k="ssr:stedsnr" v="723790" />
	</node>
	<node id="-304377" lat="61.2197472252" lon="10.4390388807">
		<tag k="landuse" v="industrial" />
		<tag k="name" v="Hunderfossen" />
		<tag k="power" v="plant" />
		<tag k="ssr:stedsnr" v="190175" />
	</node>
	<node id="-304874" lat="61.1145657279" lon="10.4615222769">
		<tag k="name" v="Lillehammer stasjon" />
		<tag k="railway" v="station" />
		<tag k="ssr:stedsnr" v="989993" />
		<tag k="train" v="yes" />
	</node>
	<node id="-303849" lat="61.2270361088" lon="10.7274972245">
		<tag k="highway" v="path" />
		<tag k="name" v="Aksjøråket" />
		<tag k="ssr:stedsnr" v="601575" />
	</node>
	<node id="-304872" lat="61.1709327848" lon="10.4051293471">
		<tag k="name" v="Fåberg stasjon" />
		<tag k="railway" v="station" />
		<tag k="ssr:stedsnr" v="989652" />
		<tag k="train" v="yes" />
	</node>
	<node id="-304871" lat="61.223474338" lon="10.4385421165">
		<tag k="name" v="Hunderfossen holdeplass" />
		<tag k="railway" v="halt" />
		<tag k="ssr:stedsnr" v="989633" />
		<tag k="train" v="yes" />
	</node>
	<node id="-303845" lat="61.1567305538" lon="10.3409555537">
>>>>>>> e1d4bc35ff8a6074a6f2e91616a996b547c36f15
		<tag k="bridge" v="yes" />
		<tag k="layer" v="1" />
		<tag k="name" v="Brufoss" />
		<tag k="ssr:stedsnr" v="410355" />
	</node>
	<node lat="61.09221111077753" lon="10.195211118861936" id="-19403">
		<tag k="highway" v="path" />
		<tag k="name" v="Gamle Åltjernsvegen" />
		<tag k="ssr:stedsnr" v="526153" />
	</node>
<<<<<<< HEAD
	<node lat="61.10280555202534" lon="10.477094448655153" id="-19407">
=======
	<node id="-303844" lat="61.116102782" lon="10.4483333306">
>>>>>>> e1d4bc35ff8a6074a6f2e91616a996b547c36f15
		<tag k="bridge" v="yes" />
		<tag k="layer" v="1" />
		<tag k="name" v="Åretta" />
		<tag k="ssr:stedsnr" v="532286" />
	</node>
<<<<<<< HEAD
	<node lat="61.102327778204554" lon="10.476736111272261" id="-19408">
=======
	<node id="-303843" lat="61.1031500037" lon="10.4908333351">
>>>>>>> e1d4bc35ff8a6074a6f2e91616a996b547c36f15
		<tag k="bridge" v="yes" />
		<tag k="layer" v="1" />
		<tag k="name" v="Åretta" />
		<tag k="ssr:stedsnr" v="532287" />
	</node>
<<<<<<< HEAD
	<node lat="61.100666669918084" lon="10.43942500131969" id="-19409">
=======
	<node id="-303842" lat="61.1712916677" lon="10.6098416656">
>>>>>>> e1d4bc35ff8a6074a6f2e91616a996b547c36f15
		<tag k="bridge" v="yes" />
		<tag k="layer" v="1" />
		<tag k="name" v="Strand" />
		<tag k="ssr:stedsnr" v="532297" />
	</node>
<<<<<<< HEAD
	<node lat="61.15669166673715" lon="10.317152771219638" id="-19410">
=======
	<node id="-303841" lat="61.1598388863" lon="10.3312249953">
>>>>>>> e1d4bc35ff8a6074a6f2e91616a996b547c36f15
		<tag k="bridge" v="yes" />
		<tag k="layer" v="1" />
		<tag k="name" v="Sagbekken" />
		<tag k="ssr:stedsnr" v="532299" />
	</node>
<<<<<<< HEAD
	<node lat="61.13354166467332" lon="10.427369452479466" id="-19411">
=======
	<node id="-303840" lat="61.116355559" lon="10.4459527845">
>>>>>>> e1d4bc35ff8a6074a6f2e91616a996b547c36f15
		<tag k="bridge" v="yes" />
		<tag k="layer" v="1" />
		<tag k="name" v="Skikstadgutua" />
		<tag k="ssr:stedsnr" v="532300" />
	</node>
<<<<<<< HEAD
	<node lat="61.09959444855723" lon="10.51097778240278" id="-19412">
=======
	<node id="-303839" lat="61.1521638883" lon="10.416163886">
>>>>>>> e1d4bc35ff8a6074a6f2e91616a996b547c36f15
		<tag k="bridge" v="yes" />
		<tag k="layer" v="1" />
		<tag k="name" v="Askjellrud" />
		<tag k="ssr:stedsnr" v="532316" />
	</node>
<<<<<<< HEAD
	<node lat="61.04722777399596" lon="10.434583325151873" id="-19456">
		<tag k="bridge" v="yes" />
		<tag k="layer" v="1" />
		<tag k="name" v="Vingromdammen" />
		<tag k="ssr:stedsnr" v="592326" />
	</node>
	<node lat="61.1066722219529" lon="10.477563890378041" id="-19457">
=======
	<node id="-303994" lat="61.1816277755" lon="10.6114249945">
		<tag k="highway" v="path" />
		<tag k="name" v="Krøtterråket" />
		<tag k="ssr:stedsnr" v="906549" />
	</node>
	<node id="-304852" lat="61.0258861086" lon="10.4476083243">
>>>>>>> e1d4bc35ff8a6074a6f2e91616a996b547c36f15
		<tag k="bridge" v="yes" />
		<tag k="layer" v="1" />
		<tag k="name" v="Trararo" />
		<tag k="ssr:stedsnr" v="592327" />
	</node>
<<<<<<< HEAD
	<node lat="61.134063892607735" lon="10.386969444348013" id="-19458">
=======
	<node id="-304851" lat="61.161711108" lon="10.4092111019">
>>>>>>> e1d4bc35ff8a6074a6f2e91616a996b547c36f15
		<tag k="bridge" v="yes" />
		<tag k="layer" v="1" />
		<tag k="name" v="Nordlien" />
		<tag k="ssr:stedsnr" v="592336" />
	</node>
<<<<<<< HEAD
	<node lat="61.116597224673306" lon="10.446477779476929" id="-19459">
=======
	<node id="-304850" lat="61.0919583301" lon="10.4334944408">
>>>>>>> e1d4bc35ff8a6074a6f2e91616a996b547c36f15
		<tag k="bridge" v="yes" />
		<tag k="layer" v="1" />
		<tag k="name" v="Mesna rampebru" />
		<tag k="ssr:stedsnr" v="592338" />
	</node>
<<<<<<< HEAD
	<node lat="61.12415833621959" lon="10.398141659113527" id="-19460">
		<tag k="bridge" v="yes" />
		<tag k="layer" v="1" />
		<tag k="name" v="Kollefall" />
		<tag k="ssr:stedsnr" v="592343" />
	</node>
	<node lat="61.22703610879665" lon="10.72749722452938" id="-19467">
=======
	<node id="-303823" lat="61.0358888915" lon="10.2967055593">
		<tag k="highway" v="path" />
		<tag k="name" v="Nyseterråket" />
		<tag k="ssr:stedsnr" v="708402" />
	</node>
	<node id="-304330" lat="61.0344666705" lon="10.2412416688">
>>>>>>> e1d4bc35ff8a6074a6f2e91616a996b547c36f15
		<tag k="highway" v="path" />
		<tag k="name" v="Aksjøråket" />
		<tag k="ssr:stedsnr" v="601575" />
	</node>
<<<<<<< HEAD
	<node lat="61.0925833311654" lon="10.433644438682554" id="-19513">
		<tag k="bridge" v="yes" />
		<tag k="layer" v="1" />
		<tag k="name" v="Øyre" />
		<tag k="ssr:stedsnr" v="653285" />
	</node>
	<node lat="61.17680555540843" lon="10.412988897987443" id="-19514">
=======
	<node id="-304328" lat="61.2296305579" lon="10.4273722239">
>>>>>>> e1d4bc35ff8a6074a6f2e91616a996b547c36f15
		<tag k="bridge" v="yes" />
		<tag k="layer" v="1" />
		<tag k="name" v="Skog" />
		<tag k="ssr:stedsnr" v="653298" />
	</node>
<<<<<<< HEAD
	<node lat="61.158152778826455" lon="10.604075004863436" id="-19525">
		<tag k="highway" v="path" />
		<tag k="name" v="Vintervegen" />
		<tag k="ssr:stedsnr" v="662644" />
	</node>
	<node lat="61.152163888265406" lon="10.41616388601498" id="-19530">
=======
	<node id="-304327" lat="61.1023249968" lon="10.487177771">
		<tag k="alt_name" v="Langseth" />
>>>>>>> e1d4bc35ff8a6074a6f2e91616a996b547c36f15
		<tag k="bridge" v="yes" />
		<tag k="layer" v="1" />
		<tag k="name" v="Vormstuen" />
		<tag k="ssr:stedsnr" v="714270" />
	</node>
<<<<<<< HEAD
	<node lat="61.11610278198257" lon="10.448333330646589" id="-19531">
=======
	<node id="-304326" lat="61.0464277777" lon="10.4300972199">
>>>>>>> e1d4bc35ff8a6074a6f2e91616a996b547c36f15
		<tag k="bridge" v="yes" />
		<tag k="layer" v="1" />
		<tag k="name" v="Kartongen" />
		<tag k="ssr:stedsnr" v="714296" />
	</node>
<<<<<<< HEAD
	<node lat="61.15673055376924" lon="10.340955553656027" id="-19532">
=======
	<node id="-304325" lat="61.1209722222" lon="10.444730564">
>>>>>>> e1d4bc35ff8a6074a6f2e91616a996b547c36f15
		<tag k="bridge" v="yes" />
		<tag k="layer" v="1" />
		<tag k="name" v="Djupå" />
		<tag k="ssr:stedsnr" v="714298" />
	</node>
<<<<<<< HEAD
	<node lat="61.11372777677071" lon="10.080688893104675" id="-19535">
=======
	<node id="-304311" lat="61.1261805584" lon="10.2537111133">
>>>>>>> e1d4bc35ff8a6074a6f2e91616a996b547c36f15
		<tag k="highway" v="path" />
		<tag k="name" v="Mjogsjøråket" />
		<tag k="ssr:stedsnr" v="716817" />
	</node>
<<<<<<< HEAD
	<node lat="61.128102776440876" lon="10.52529167407139" id="-19544">
=======
	<node id="-303797" lat="61.0922111108" lon="10.1952111189">
>>>>>>> e1d4bc35ff8a6074a6f2e91616a996b547c36f15
		<tag k="highway" v="path" />
		<tag k="name" v="Birkebeinerløypa" />
		<tag k="ssr:stedsnr" v="723790" />
	</node>
<<<<<<< HEAD
	<node lat="61.08605833491447" lon="10.124633327153903" id="-19578">
=======
	<node id="-303779" lat="61.17614722" lon="10.5233888797">
>>>>>>> e1d4bc35ff8a6074a6f2e91616a996b547c36f15
		<tag k="highway" v="path" />
		<tag k="name" v="Svartdalsseter-råket" />
		<tag k="ssr:stedsnr" v="769899" />
	</node>
<<<<<<< HEAD
	<node lat="61.192922223784805" lon="10.289830554718058" id="-19579">
		<tag k="bridge" v="yes" />
		<tag k="layer" v="1" />
		<tag k="name" v="Ingridå" />
		<tag k="ssr:stedsnr" v="774384" />
	</node>
	<node lat="61.13933610805092" lon="10.432797222959797" id="-19580">
		<tag k="bridge" v="yes" />
		<tag k="layer" v="1" />
		<tag k="name" v="Bæla" />
		<tag k="ssr:stedsnr" v="774394" />
	</node>
	<node lat="61.168111108795564" lon="10.403550001259918" id="-19641">
=======
	<node id="-304793" lat="61.0706611107" lon="10.1884500006">
		<tag k="highway" v="path" />
		<tag k="name" v="Gamle Vismundsvegen" />
		<tag k="ssr:stedsnr" v="830169" />
	</node>
	<node id="-303555" lat="61.1048166675" lon="10.2873166734">
		<tag k="ford" v="yes" />
		<tag k="name" v="Myrkloppa" />
		<tag k="place" v="locality" />
		<tag k="ssr:stedsnr" v="162826" />
	</node>
	<node id="-303760" lat="61.1581527788" lon="10.6040750049">
		<tag k="highway" v="path" />
		<tag k="name" v="Vintervegen" />
		<tag k="ssr:stedsnr" v="662644" />
	</node>
	<node id="-304259" lat="61.1538916706" lon="10.39212778">
>>>>>>> e1d4bc35ff8a6074a6f2e91616a996b547c36f15
		<tag k="bridge" v="yes" />
		<tag k="layer" v="1" />
		<tag k="name" v="Fåberg" />
		<tag k="ssr:stedsnr" v="835354" />
	</node>
<<<<<<< HEAD
	<node lat="61.09195833007719" lon="10.43349444082019" id="-19684">
=======
	<node id="-304258" lat="61.0583111082" lon="10.4314833336">
>>>>>>> e1d4bc35ff8a6074a6f2e91616a996b547c36f15
		<tag k="bridge" v="yes" />
		<tag k="layer" v="1" />
		<tag k="name" v="Øyre" />
		<tag k="ssr:stedsnr" v="956355" />
	</node>
<<<<<<< HEAD
	<node lat="61.16171110799354" lon="10.409211101937514" id="-19685">
=======
	<node id="-304257" lat="61.1996750005" lon="10.4066749944">
>>>>>>> e1d4bc35ff8a6074a6f2e91616a996b547c36f15
		<tag k="bridge" v="yes" />
		<tag k="layer" v="1" />
		<tag k="name" v="Smerud" />
		<tag k="ssr:stedsnr" v="956358" />
	</node>
	<node lat="61.025886108618295" lon="10.447608324336755" id="-19686">
		<tag k="bridge" v="yes" />
		<tag k="layer" v="1" />
		<tag k="name" v="Bjørnstad" />
		<tag k="ssr:stedsnr" v="956382" />
	</node>
<<<<<<< HEAD
	<node lat="61.050252780591954" lon="10.200297215333734" id="-19693">
=======
	<node id="-304873" lat="61.1395322783" lon="10.4216274627">
		<tag k="name" v="Hove stasjon" />
		<tag k="railway" v="station" />
		<tag k="ssr:stedsnr" v="989990" />
		<tag k="train" v="yes" />
	</node>
	<node id="-304244" lat="61.1918305518" lon="10.5808916703">
>>>>>>> e1d4bc35ff8a6074a6f2e91616a996b547c36f15
		<tag k="highway" v="path" />
		<tag k="name" v="Sjoghaugråket" />
		<tag k="ssr:stedsnr" v="965972" />
	</node>
	<node lat="61.180383337535474" lon="10.630683341324222" id="-19700">
		<tag k="highway" v="path" />
		<tag k="name" v="Sjusjøråket" />
		<tag k="ssr:stedsnr" v="966555" />
	</node>
	<node lat="61.18125555734014" lon="10.612705549510915" id="-19701">
		<tag k="highway" v="path" />
		<tag k="name" v="Geitstigen" />
		<tag k="ssr:stedsnr" v="966561" />
	</node>
	<node lat="61.139532278304074" lon="10.421627462718723" id="-19726">
		<tag k="name" v="Hove stasjon" />
		<tag k="railway" v="station" />
		<tag k="ssr:stedsnr" v="989990" />
		<tag k="train" v="yes" />
	</node>
	<node lat="61.11456572786583" lon="10.461522276884807" id="-19727">
		<tag k="name" v="Lillehammer stasjon" />
		<tag k="railway" v="station" />
		<tag k="ssr:stedsnr" v="989993" />
		<tag k="train" v="yes" />
	</node>
	<node id="-304747" lat="61.1393361081" lon="10.432797223">
		<tag k="bridge" v="yes" />
		<tag k="layer" v="1" />
		<tag k="name" v="Bæla" />
		<tag k="ssr:stedsnr" v="774394" />
	</node>
	<node id="-304746" lat="61.1929222238" lon="10.2898305547">
		<tag k="bridge" v="yes" />
		<tag k="layer" v="1" />
		<tag k="name" v="Ingridå" />
		<tag k="ssr:stedsnr" v="774384" />
	</node>
	<node id="-304745" lat="61.0860583349" lon="10.1246333272">
		<tag k="highway" v="path" />
		<tag k="name" v="Svartdalsseter-råket" />
		<tag k="ssr:stedsnr" v="769899" />
	</node>
	<node id="-304717" lat="61.1166527759" lon="10.4459861112">
		<tag k="bridge" v="yes" />
		<tag k="layer" v="1" />
		<tag k="name" v="Busmoen" />
		<tag k="ssr:stedsnr" v="653331" />
	</node>
	<node id="-304716" lat="61.0776027755" lon="10.430238894">
		<tag k="bridge" v="yes" />
		<tag k="layer" v="1" />
		<tag k="name" v="Hov" />
		<tag k="ssr:stedsnr" v="653320" />
	</node>
	<node id="-304715" lat="61.1571083316" lon="10.3925527712">
		<tag k="bridge" v="yes" />
		<tag k="layer" v="1" />
		<tag k="name" v="Jorekstad" />
		<tag k="ssr:stedsnr" v="653319" />
	</node>
	<node id="-304714" lat="61.1268777774" lon="10.4040472257">
		<tag k="bridge" v="yes" />
		<tag k="layer" v="1" />
		<tag k="name" v="Kollefall" />
		<tag k="ssr:stedsnr" v="653312" />
	</node>
	<node id="-304713" lat="61.1768055554" lon="10.412988898">
		<tag k="bridge" v="yes" />
		<tag k="layer" v="1" />
		<tag k="name" v="Skog" />
		<tag k="ssr:stedsnr" v="653298" />
	</node>
	<node id="-304191" lat="61.1497750015" lon="10.3413499921">
		<tag k="bridge" v="yes" />
		<tag k="layer" v="1" />
		<tag k="name" v="Djupå" />
		<tag k="ssr:stedsnr" v="46356" />
	</node>
	<node id="-304190" lat="61.0686472185" lon="10.4305833374">
		<tag k="bridge" v="yes" />
		<tag k="layer" v="1" />
		<tag k="name" v="Røine" />
		<tag k="ssr:stedsnr" v="46339" />
	</node>
	<node id="-304189" lat="61.1267722195" lon="10.3930555469">
		<tag k="bridge" v="yes" />
		<tag k="layer" v="1" />
		<tag k="name" v="Skvalbekken" />
		<tag k="ssr:stedsnr" v="46335" />
	</node>
	<node id="-303643" lat="61.0885916661" lon="10.1779972177">
		<tag k="highway" v="path" />
		<tag k="name" v="Gamle Åltjernsvegen" />
		<tag k="ssr:stedsnr" v="474793" />
	</node>
	<node id="-303640" lat="61.1036916698" lon="10.0770999947">
		<tag k="highway" v="path" />
		<tag k="name" v="Gaustumseterråket" />
		<tag k="ssr:stedsnr" v="473841" />
	</node>
	<node id="-303633" lat="61.1659542156" lon="10.3985073443">
		<tag k="bridge" v="yes" />
		<tag k="layer" v="1" />
		<tag k="loc_name" v="Brunlaugbrua" />
		<tag k="name" v="Brunlaug" />
		<tag k="ssr:stedsnr" v="471339" />
	</node>
	<node id="-303632" lat="61.1908083342" lon="10.2746611095">
		<tag k="bridge" v="yes" />
		<tag k="layer" v="1" />
		<tag k="name" v="Ingridå" />
		<tag k="ssr:stedsnr" v="471332" />
	</node>
	<node id="-303631" lat="61.1549750041" lon="10.4133722246">
		<tag k="bridge" v="yes" />
		<tag k="layer" v="1" />
		<tag k="name" v="Nord-Hove" />
		<tag k="ssr:stedsnr" v="471320" />
	</node>
	<node id="-303630" lat="61.2265055591" lon="10.4280333283">
		<tag k="bridge" v="yes" />
		<tag k="layer" v="1" />
		<tag k="name" v="Porten" />
		<tag k="ssr:stedsnr" v="471319" />
	</node>
	<node id="-303629" lat="61.1486277753" lon="10.4251249932">
		<tag k="bridge" v="yes" />
		<tag k="layer" v="1" />
		<tag k="name" v="Stor-Hove" />
		<tag k="ssr:stedsnr" v="471306" />
	</node>
	<node id="-304651" lat="61.1241583362" lon="10.3981416591">
		<tag k="bridge" v="yes" />
		<tag k="layer" v="1" />
		<tag k="name" v="Kollefall" />
		<tag k="ssr:stedsnr" v="592343" />
	</node>
	<node id="-304650" lat="61.1165972247" lon="10.4464777795">
		<tag k="bridge" v="yes" />
		<tag k="layer" v="1" />
		<tag k="name" v="Mesna rampebru" />
		<tag k="ssr:stedsnr" v="592338" />
	</node>
	<node id="-304649" lat="61.1340638926" lon="10.3869694443">
		<tag k="bridge" v="yes" />
		<tag k="layer" v="1" />
		<tag k="name" v="Nordlien" />
		<tag k="ssr:stedsnr" v="592336" />
	</node>
	<node id="-304648" lat="61.106672222" lon="10.4775638904">
		<tag k="bridge" v="yes" />
		<tag k="layer" v="1" />
		<tag k="name" v="Trararo" />
		<tag k="ssr:stedsnr" v="592327" />
	</node>
	<node id="-304647" lat="61.047227774" lon="10.4345833252">
		<tag k="bridge" v="yes" />
		<tag k="layer" v="1" />
		<tag k="name" v="Vingromdammen" />
		<tag k="ssr:stedsnr" v="592326" />
	</node>
	<node id="-303620" lat="61.1327249978" lon="10.4441694456">
		<tag k="bridge" v="yes" />
		<tag k="layer" v="1" />
		<tag k="name" v="Smestadvegen" />
		<tag k="ssr:stedsnr" v="289316" />
	</node>
	<node id="-303619" lat="61.0473388865" lon="10.4346583333">
		<tag k="bridge" v="yes" />
		<tag k="layer" v="1" />
		<tag k="name" v="Vingrom" />
		<tag k="ssr:stedsnr" v="289309" />
	</node>
</osm>
