<?xml version="1.0" encoding="UTF-8"?>
<<<<<<< HEAD
<osm version="0.6" generator="osmapis">
	<node lat="61.11347222498501" lon="10.306191666893678" id="-18338">
		<tag k="amenity" v="place_of_worship" />
		<tag k="denomination" v="lutheran" />
		<tag k="name" v="Saksumdal kirke" />
		<tag k="old_name" v="Saksumsdal" />
		<tag k="religion" v="christian" />
		<tag k="ssr:stedsnr" v="68012" />
	</node>
	<node lat="61.15574722387011" lon="10.391466666796912" id="-18357">
		<tag k="amenity" v="community_centre" />
		<tag k="name" v="Jorekstad" />
		<tag k="ssr:stedsnr" v="101567" />
	</node>
	<node lat="61.08570555633058" lon="10.503463892795605" id="-18376">
		<tag k="name" v="Ellingsrud" />
=======
<osm generator="osmapis" version="0.6">
	<node id="-304671" lat="61.1114777734" lon="10.4641222182">
		<tag k="amenity" v="place_of_worship" />
		<tag k="denomination" v="lutheran" />
		<tag k="name" v="Lillehammer kirke" />
		<tag k="religion" v="christian" />
		<tag k="ssr:stedsnr" v="602306" />
	</node>
	<node id="-303646" lat="61.0970000002" lon="10.5582194431">
		<tag k="amenity" v="community_centre" />
		<tag k="name" v="Krokvang" />
		<tag k="ssr:stedsnr" v="480092" />
	</node>
	<node id="-303805" lat="61.1223777746" lon="10.4698611131">
		<tag k="name" v="Bjerkebekk" />
		<tag k="ssr:stedsnr" v="541303" />
		<tag k="tourism" v="museum" />
	</node>
	<node id="-303981" lat="61.0841277799" lon="10.5008111164">
		<tag k="name" v="Galterudsveringen" />
>>>>>>> e1d4bc35ff8a6074a6f2e91616a996b547c36f15
		<tag k="place" v="locality" />
		<tag k="ssr:stedsnr" v="116018" />
	</node>
<<<<<<< HEAD
	<node lat="61.14049166851659" lon="10.390758328063262" id="-18436">
		<tag k="name" v="Kasterudborgen" />
		<tag k="place" v="locality" />
		<tag k="ssr:stedsnr" v="162809" />
	</node>
	<node lat="61.09700000018377" lon="10.558219443143049" id="-18595">
		<tag k="amenity" v="community_centre" />
		<tag k="name" v="Krokvang" />
		<tag k="ssr:stedsnr" v="480092" />
	</node>
	<node lat="61.12237777463572" lon="10.469861113110095" id="-18728">
		<tag k="name" v="Bjerkebekk" />
		<tag k="ssr:stedsnr" v="541303" />
		<tag k="tourism" v="museum" />
	</node>
	<node lat="61.22693332986888" lon="10.43111666192628" id="-18764">
		<tag k="name" v="Norsk vegmuseum" />
		<tag k="ssr:stedsnr" v="592911" />
		<tag k="tourism" v="attraction" />
	</node>
	<node lat="61.100336115116775" lon="10.423591664321924" id="-18768">
=======
	<node id="-304250" lat="61.1557472239" lon="10.3914666668">
		<tag k="amenity" v="community_centre" />
		<tag k="name" v="Jorekstad" />
		<tag k="ssr:stedsnr" v="101567" />
	</node>
	<node id="-303999" lat="61.0723055595" lon="10.4299333396">
		<tag k="amenity" v="place_of_worship" />
		<tag k="denomination" v="lutheran" />
		<tag k="name" v="Vingrom kirke" />
		<tag k="religion" v="christian" />
		<tag k="ssr:stedsnr" v="917840" />
	</node>
	<node id="-304631" lat="61.1602777758" lon="10.3717444424">
		<tag k="amenity" v="place_of_worship" />
		<tag k="denomination" v="lutheran" />
		<tag k="name" v="Fåberg kirke" />
		<tag k="religion" v="christian" />
		<tag k="ssr:stedsnr" v="554919" />
	</node>
	<node id="-303529" lat="61.0857055563" lon="10.5034638928">
		<tag k="name" v="Ellingsrud" />
		<tag k="place" v="locality" />
		<tag k="ssr:stedsnr" v="116018" />
	</node>
	<node id="-304660" lat="61.1003361151" lon="10.4235916643">
>>>>>>> e1d4bc35ff8a6074a6f2e91616a996b547c36f15
		<tag k="amenity" v="community_centre" />
		<tag k="name" v="Heimtun" />
		<tag k="ssr:stedsnr" v="601650" />
	</node>
<<<<<<< HEAD
	<node lat="61.111477773407664" lon="10.464122218158852" id="-18772">
=======
	<node id="-303763" lat="61.1109222253" lon="10.4763444457">
>>>>>>> e1d4bc35ff8a6074a6f2e91616a996b547c36f15
		<tag k="amenity" v="place_of_worship" />
		<tag k="denomination" v="lutheran" />
		<tag k="name" v="Lillehammer kirke" />
		<tag k="religion" v="christian" />
		<tag k="ssr:stedsnr" v="602306" />
	</node>
<<<<<<< HEAD
	<node lat="61.07230555953812" lon="10.429933339565622" id="-18933">
		<tag k="amenity" v="place_of_worship" />
		<tag k="denomination" v="lutheran" />
		<tag k="name" v="Vingrom kirke" />
		<tag k="religion" v="christian" />
		<tag k="ssr:stedsnr" v="917840" />
	</node>
	<node lat="61.09007222532843" lon="10.474650000857435" id="-18934">
		<tag k="amenity" v="place_of_worship" />
		<tag k="denomination" v="lutheran" />
		<tag k="name" v="Søre Ål kirke" />
		<tag k="religion" v="christian" />
		<tag k="ssr:stedsnr" v="917854" />
	</node>
	<node lat="61.120625001686975" lon="10.517913892870226" id="-18947">
		<tag k="name" v="Kroken" />
		<tag k="place" v="locality" />
		<tag k="ssr:stedsnr" v="918837" />
	</node>
	<node lat="61.11098888603765" lon="10.476830560824075" id="-19162">
=======
	<node id="-304210" lat="61.113472225" lon="10.3061916669">
		<tag k="amenity" v="place_of_worship" />
		<tag k="denomination" v="lutheran" />
		<tag k="name" v="Saksumdal kirke" />
		<tag k="old_name" v="Saksumsdal" />
		<tag k="religion" v="christian" />
		<tag k="ssr:stedsnr" v="68012" />
	</node>
	<node id="-304755" lat="61.1353416628" lon="10.4691444499">
		<tag k="amenity" v="place_of_worship" />
		<tag k="denomination" v="lutheran" />
		<tag k="name" v="Nordre Ål kirke" />
		<tag k="religion" v="christian" />
		<tag k="ssr:stedsnr" v="784175" />
	</node>
	<node id="-304303" lat="61.110988886" lon="10.4768305608">
>>>>>>> e1d4bc35ff8a6074a6f2e91616a996b547c36f15
		<tag k="name" v="Maihaugen" />
		<tag k="ssr:stedsnr" v="129801" />
		<tag k="tourism" v="museum" />
	</node>
<<<<<<< HEAD
	<node lat="61.085136107248296" lon="10.48667499855587" id="-19255">
=======
	<node id="-303597" lat="61.0851361072" lon="10.4866749986">
>>>>>>> e1d4bc35ff8a6074a6f2e91616a996b547c36f15
		<tag k="name" v="Vatninga" />
		<tag k="place" v="locality" />
		<tag k="ssr:stedsnr" v="298029" />
	</node>
<<<<<<< HEAD
	<node lat="61.15871782588261" lon="10.52032509725219" id="-19398">
		<tag k="name" v="Jomotsvea" />
		<tag k="place" v="locality" />
		<tag k="ssr:stedsnr" v="433979" />
	</node>
	<node lat="61.16027777584941" lon="10.371744442426321" id="-19446">
		<tag k="amenity" v="place_of_worship" />
		<tag k="denomination" v="lutheran" />
		<tag k="name" v="Fåberg kirke" />
		<tag k="religion" v="christian" />
		<tag k="ssr:stedsnr" v="554919" />
	</node>
	<node lat="61.11092222528472" lon="10.47634444565611" id="-19529">
		<tag k="amenity" v="place_of_worship" />
		<tag k="denomination" v="lutheran" />
		<tag k="name" v="Garmo stavkirke" />
		<tag k="religion" v="christian" />
		<tag k="ssr:stedsnr" v="666367" />
	</node>
	<node lat="61.0841277799088" lon="10.500811116383382" id="-19539">
		<tag k="name" v="Galterudsveringen" />
		<tag k="place" v="locality" />
		<tag k="ssr:stedsnr" v="723025" />
	</node>
	<node lat="61.175327777417046" lon="10.617202783299962" id="-19582">
=======
	<node id="-304652" lat="61.2269333299" lon="10.4311166619">
		<tag k="name" v="Norsk vegmuseum" />
		<tag k="ssr:stedsnr" v="592911" />
		<tag k="tourism" v="attraction" />
	</node>
	<node id="-304875" lat="61.1108650515" lon="10.4792349084">
		<tag k="amenity" v="place_of_worship" />
		<tag k="denomination" v="lutheran" />
		<tag k="name" v="Fiskerkapellet" />
		<tag k="religion" v="christian" />
		<tag k="ssr:stedsnr" v="991034" />
	</node>
	<node id="-304749" lat="61.1753277774" lon="10.6172027833">
		<tag k="amenity" v="place_of_worship" />
		<tag k="denomination" v="lutheran" />
		<tag k="name" v="Nordseter fjellkirke" />
		<tag k="religion" v="christian" />
		<tag k="ssr:stedsnr" v="779727" />
	</node>
	<node id="-304009" lat="61.1206250017" lon="10.5179138929">
		<tag k="name" v="Kroken" />
		<tag k="place" v="locality" />
		<tag k="ssr:stedsnr" v="918837" />
	</node>
	<node id="-304081" lat="61.0900722253" lon="10.4746500009">
>>>>>>> e1d4bc35ff8a6074a6f2e91616a996b547c36f15
		<tag k="amenity" v="place_of_worship" />
		<tag k="denomination" v="lutheran" />
		<tag k="name" v="Nordseter fjellkirke" />
		<tag k="religion" v="christian" />
		<tag k="ssr:stedsnr" v="779727" />
	</node>
<<<<<<< HEAD
	<node lat="61.13534166277982" lon="10.46914444990894" id="-19588">
		<tag k="amenity" v="place_of_worship" />
		<tag k="denomination" v="lutheran" />
		<tag k="name" v="Nordre Ål kirke" />
		<tag k="religion" v="christian" />
		<tag k="ssr:stedsnr" v="784175" />
	</node>
	<node lat="61.11086505149747" lon="10.47923490839694" id="-19728">
		<tag k="amenity" v="place_of_worship" />
		<tag k="denomination" v="lutheran" />
		<tag k="name" v="Fiskerkapellet" />
		<tag k="religion" v="christian" />
		<tag k="ssr:stedsnr" v="991034" />
=======
	<node id="-303554" lat="61.1404916685" lon="10.3907583281">
		<tag k="name" v="Kasterudborgen" />
		<tag k="place" v="locality" />
		<tag k="ssr:stedsnr" v="162809" />
>>>>>>> e1d4bc35ff8a6074a6f2e91616a996b547c36f15
	</node>
</osm>
