<?xml version="1.0" encoding="UTF-8"?>
<osm generator="osmapis" version="0.6">
	<node id="-30718" lat="61.0912388875" lon="10.5184722223">
		<tag k="name" v="Røyslitjernet" />
		<tag k="natural" v="water" />
		<tag k="ssr:stedsnr" v="552789" />
	</node>
	<node id="-30205" lat="61.1636500004" lon="10.1482277838">
		<tag k="name" v="Augga" />
		<tag k="ssr:stedsnr" v="918477" />
		<tag k="waterway" v="river" />
	</node>
	<node id="-29781" lat="61.0750416626" lon="10.1212777714">
		<tag k="name" v="Lunkebekkoset" />
		<tag k="natural" v="bay" />
		<tag k="ssr:stedsnr" v="344864" />
	</node>
	<node id="-29687" lat="61.1292277778" lon="10.416872225">
		<tag k="name" v="Sandvavika" />
		<tag k="natural" v="bay" />
		<tag k="ssr:stedsnr" v="283787" />
	</node>
	<node id="-29686" lat="61.1288583368" lon="10.4093361073">
		<tag k="name" v="Blåpullen" />
		<tag k="natural" v="bay" />
		<tag k="ssr:stedsnr" v="283782" />
	</node>
	<node id="-29826" lat="61.1345361083" lon="10.5186166744">
		<tag k="name" v="Abbortjernet" />
		<tag k="natural" v="water" />
		<tag k="ssr:stedsnr" v="493958" />
	</node>
	<node id="-30707" lat="61.2191166645" lon="10.356669441">
		<tag k="name" v="Svarttjernsbekken" />
		<tag k="ssr:stedsnr" v="539214" />
		<tag k="waterway" v="stream" />
	</node>
	<node id="-30803" lat="61.0927305543" lon="10.4353416706">
		<tag k="alt_name" v="Odden" />
		<tag k="name" v="Øyresodden" />
		<tag k="natural" v="cape" />
		<tag k="ssr:stedsnr" v="613774" />
	</node>
	<node id="-30704" lat="61.1170805537" lon="10.1125027867">
		<tag k="name" v="Storhaugvika" />
		<tag k="natural" v="bay" />
		<tag k="ssr:stedsnr" v="534840" />
	</node>
	<node id="-30703" lat="61.1147972223" lon="10.1117916609">
		<tag k="name" v="Storhaugodden" />
		<tag k="natural" v="cape" />
		<tag k="ssr:stedsnr" v="534834" />
	</node>
	<node id="-30702" lat="61.1165027737" lon="10.1039250065">
		<tag k="name" v="Sandodden" />
		<tag k="natural" v="cape" />
		<tag k="ssr:stedsnr" v="534831" />
	</node>
	<node id="-29693" lat="61.1989055518" lon="10.4126305463">
		<tag k="name" v="Bruholoa" />
		<tag k="place" v="locality" />
		<tag k="ssr:stedsnr" v="284245" />
	</node>
	<node id="-29863" lat="61.239369442" lon="10.3905777763">
		<tag k="name" v="Langtjernet" />
		<tag k="natural" v="water" />
		<tag k="ssr:stedsnr" v="736145" />
	</node>
	<node id="-30184" lat="61.2261055534" lon="10.3820777772">
		<tag k="name" v="Kroktjernsbekken" />
		<tag k="ssr:stedsnr" v="858173" />
		<tag k="waterway" v="stream" />
	</node>
	<node id="-30183" lat="61.2289750003" lon="10.3656055467">
		<tag k="name" v="Slaggtjernet" />
		<tag k="natural" v="water" />
		<tag k="ssr:stedsnr" v="858158" />
	</node>
	<node id="-30693" lat="61.0972111154" lon="10.0892138885">
		<tag k="name" v="Bleikjebekken" />
		<tag k="ssr:stedsnr" v="526915" />
		<tag k="waterway" v="stream" />
	</node>
	<node id="-30692" lat="61.1315000001" lon="10.4004666589">
		<tag k="name" v="Ringen" />
		<tag k="place" v="locality" />
		<tag k="ssr:stedsnr" v="526851" />
	</node>
	<node id="-30178" lat="61.026499997" lon="10.4154638875">
		<tag k="name" v="Bjørnstadelva" />
		<tag k="ssr:stedsnr" v="857757" />
		<tag k="waterway" v="stream" />
	</node>
	<node id="-29776" lat="61.1506472206" lon="10.408802777">
		<tag k="name" v="Balbergsevjua" />
		<tag k="place" v="locality" />
		<tag k="ssr:stedsnr" v="344620" />
	</node>
	<node id="-30173" lat="61.2366944471" lon="10.3613777765">
		<tag k="name" v="Kroktjernet" />
		<tag k="natural" v="water" />
		<tag k="ssr:stedsnr" v="857154" />
	</node>
	<node id="-30679" lat="61.148777776" lon="10.5179583248">
		<tag k="name" v="Skurva" />
		<tag k="ssr:stedsnr" v="432988" />
		<tag k="waterway" v="river" />
	</node>
	<node id="-30166" lat="61.0402194488" lon="10.4244500007">
		<tag k="name" v="Jevnedammen" />
		<tag k="natural" v="water" />
		<tag k="ssr:stedsnr" v="845319" />
	</node>
	<node id="-30677" lat="61.1277916683" lon="10.5628361024">
		<tag k="name" v="Langstraumen" />
		<tag k="ssr:stedsnr" v="432967" />
		<tag k="waterway" v="rapids" />
	</node>
	<node id="-30674" lat="61.1347833367" lon="10.4007416699">
		<tag k="name" v="Storvollen" />
		<tag k="place" v="island" />
		<tag k="ssr:stedsnr" v="432939" />
	</node>
	<node id="-29646" lat="61.1292027742" lon="10.4013472182">
		<tag k="name" v="Kolbergstugua" />
		<tag k="place" v="locality" />
		<tag k="ssr:stedsnr" v="101868" />
	</node>
	<node id="-30155" lat="61.1136027747" lon="10.6373027711">
		<tag k="name" v="Nord-Mesna" />
		<tag k="natural" v="water" />
		<tag k="ssr:stedsnr" v="796798" />
		<tag k="water" v="lake" />
	</node>
	<node id="-30154" lat="61.1249055523" lon="10.5214416697">
		<tag k="name" v="Kantholmen" />
		<tag k="place" v="islet" />
		<tag k="ssr:stedsnr" v="796797" />
	</node>
	<node id="-30149" lat="61.2165638881" lon="10.6676111058">
		<tag k="name" v="Lomtjernet" />
		<tag k="natural" v="water" />
		<tag k="ssr:stedsnr" v="796174" />
	</node>
	<node id="-30660" lat="61.1231000045" lon="10.372483329">
		<tag k="name" v="Skvalabekken" />
		<tag k="ssr:stedsnr" v="432779" />
		<tag k="waterway" v="stream" />
	</node>
	<node id="-30659" lat="61.1187305594" lon="10.502816658">
		<tag k="name" v="Mesna" />
		<tag k="ssr:stedsnr" v="432771" />
		<tag k="waterway" v="river" />
	</node>
	<node id="-30139" lat="61.0902166659" lon="10.0971861114">
		<tag k="name" v="Lunken" />
		<tag k="natural" v="water" />
		<tag k="ssr:stedsnr" v="795034" />
	</node>
	<node id="-29940" lat="61.161475002" lon="10.2094638826">
		<tag k="name" v="Nordre Rinnåstjern" />
		<tag k="natural" v="water" />
		<tag k="ssr:stedsnr" v="708255" />
	</node>
	<node id="-30725" lat="61.0595194466" lon="10.2739750056">
		<tag k="alt_name" v="Elgtjernet" />
		<tag k="name" v="Erstjernet" />
		<tag k="natural" v="water" />
		<tag k="ssr:stedsnr" v="553044" />
	</node>
	<node id="-29618" lat="61.030188888" lon="10.3735388906">
		<tag k="name" v="Klengesvebekken" />
		<tag k="ssr:stedsnr" v="250629" />
		<tag k="waterway" v="stream" />
	</node>
	<node id="-30641" lat="61.0720027751" lon="10.4322722268">
		<tag k="name" v="Borudodden" />
		<tag k="natural" v="cape" />
		<tag k="ssr:stedsnr" v="420823" />
	</node>
	<node id="-29613" lat="61.2108055585" lon="10.6917500029">
		<tag k="alt_name" v="Koltjernsbekken, nedre" />
		<tag k="name" v="Nedre Koltjernsbekken" />
		<tag k="ssr:stedsnr" v="250178" />
		<tag k="waterway" v="stream" />
	</node>
	<node id="-29612" lat="61.2244499976" lon="10.714877774">
		<tag k="name" v="Agntjernet" />
		<tag k="natural" v="water" />
		<tag k="ssr:stedsnr" v="250177" />
	</node>
	<node id="-30635" lat="61.116738889" lon="10.4279500022">
		<tag k="name" v="Bakkomstuvarpet" />
		<tag k="place" v="locality" />
		<tag k="ssr:stedsnr" v="420264" />
	</node>
	<node id="-29607" lat="61.0819055541" lon="10.0987916714">
		<tag k="name" v="Lunkebekken" />
		<tag k="ssr:stedsnr" v="249045" />
		<tag k="waterway" v="stream" />
	</node>
	<node id="-30892" lat="61.1299027791" lon="10.5861500033">
		<tag k="name" v="Lomtjernet" />
		<tag k="natural" v="water" />
		<tag k="ssr:stedsnr" v="796966" />
	</node>
	<node id="-30116" lat="61.1319111079" lon="10.2765166687">
		<tag k="name" v="Ullandsbekken" />
		<tag k="ssr:stedsnr" v="769130" />
		<tag k="waterway" v="stream" />
	</node>
	<node id="-29611" lat="61.0519777776" lon="10.3398500042">
		<tag k="name" v="Djupdalsbekken" />
		<tag k="ssr:stedsnr" v="250052" />
		<tag k="waterway" v="stream" />
	</node>
	<node id="-29601" lat="61.130058335" lon="10.3059277706">
		<tag k="name" v="Ruktjernet" />
		<tag k="natural" v="water" />
		<tag k="ssr:stedsnr" v="68105" />
	</node>
	<node id="-30624" lat="61.1849416681" lon="10.4586000084">
		<tag k="name" v="Kvæsa" />
		<tag k="ssr:stedsnr" v="405225" />
		<tag k="waterway" v="stream" />
	</node>
	<node id="-29680" lat="61.1577416655" lon="10.3801083287">
		<tag k="name" v="Langøya" />
		<tag k="place" v="island" />
		<tag k="ssr:stedsnr" v="283510" />
	</node>
	<node id="-29598" lat="61.074544444" lon="10.4598777707">
		<tag k="name" v="Smebekken" />
		<tag k="ssr:stedsnr" v="238818" />
		<tag k="waterway" v="stream" />
	</node>
	<node id="-30109" lat="61.0906277796" lon="10.424566667">
		<tag k="name" v="Bulungsbekken" />
		<tag k="ssr:stedsnr" v="905681" />
		<tag k="waterway" v="stream" />
	</node>
	<node id="-30618" lat="60.9976833376" lon="10.3155388963">
		<tag k="name" v="Vismunda" />
		<tag k="ssr:stedsnr" v="373149" />
		<tag k="waterway" v="river" />
	</node>
	<node id="-30191" lat="61.1132222206" lon="10.1033111089">
		<tag k="name" v="Nygårdsvika" />
		<tag k="natural" v="bay" />
		<tag k="ssr:stedsnr" v="899856" />
	</node>
	<node id="-30104" lat="61.0558972256" lon="10.1916944488">
		<tag k="name" v="Tverråa" />
		<tag k="ssr:stedsnr" v="904973" />
		<tag k="waterway" v="stream" />
	</node>
	<node id="-29589" lat="61.1173194403" lon="10.4281805484">
		<tag k="name" v="Bekkskjeggrud" />
		<tag k="place" v="locality" />
		<tag k="ssr:stedsnr" v="238269" />
	</node>
	<node id="-30190" lat="61.1189888898" lon="10.1063694507">
		<tag k="name" v="Jensodden" />
		<tag k="natural" v="cape" />
		<tag k="ssr:stedsnr" v="899853" />
	</node>
	<node id="-29585" lat="61.1661805554" lon="10.5844611051">
		<tag k="name" v="Gjestebudsbekken" />
		<tag k="ssr:stedsnr" v="237833" />
		<tag k="waterway" v="stream" />
	</node>
	<node id="-30096" lat="61.1071444431" lon="10.0720777784">
		<tag k="name" v="Endrelivatnet" />
		<tag k="natural" v="water" />
		<tag k="ssr:stedsnr" v="716818" />
	</node>
	<node id="-30094" lat="61.1084499959" lon="10.1071527787">
		<tag k="name" v="Skjellbreidsbekken" />
		<tag k="ssr:stedsnr" v="716814" />
		<tag k="waterway" v="river" />
	</node>
	<node id="-30093" lat="61.086033336" lon="10.1369805547">
		<tag k="name" v="Igletjernet" />
		<tag k="natural" v="water" />
		<tag k="ssr:stedsnr" v="716805" />
	</node>
	<node id="-30604" lat="61.1175472261" lon="10.5009305614">
		<tag k="name" v="Åveita" />
		<tag k="ssr:stedsnr" v="371792" />
		<tag k="waterway" v="stream" />
	</node>
	<node id="-30603" lat="61.2330555565" lon="10.7266916585">
		<tag k="alt_name" v="Matfartjørnet" />
		<tag k="name" v="Matfartjernet" />
		<tag k="natural" v="water" />
		<tag k="ssr:stedsnr" v="371700" />
	</node>
	<node id="-29578" lat="61.1563055572" lon="10.2151583256">
		<tag k="name" v="Søre Rinnåstjønn" />
		<tag k="natural" v="water" />
		<tag k="ssr:stedsnr" v="41259" />
	</node>
	<node id="-29577" lat="61.131672218" lon="10.4063972201">
		<tag k="name" v="Midttuva" />
		<tag k="place" v="islet" />
		<tag k="ssr:stedsnr" v="40814" />
	</node>
	<node id="-30087" lat="61.1284305598" lon="10.407311114">
		<tag k="name" v="Våløya" />
		<tag k="place" v="locality" />
		<tag k="ssr:stedsnr" v="890860" />
	</node>
	<node id="-30086" lat="61.1268033022" lon="10.3988589558">
		<tag k="name" v="Kolbergsbekken" />
		<tag k="ssr:stedsnr" v="890853" />
		<tag k="waterway" v="stream" />
	</node>
	<node id="-30085" lat="61.1263416654" lon="10.4190999908">
		<tag k="name" v="Trossetsanden" />
		<tag k="natural" v="shoal" />
		<tag k="place" v="locality" />
		<tag k="ssr:stedsnr" v="890818" />
	</node>
	<node id="-30084" lat="61.1381250026" lon="10.3979722217">
		<tag k="name" v="Øvre Graverhølet" />
		<tag k="place" v="locality" />
		<tag k="ssr:stedsnr" v="890811" />
	</node>
	<node id="-30594" lat="61.0879000015" lon="10.117744441">
		<tag k="alt_name" v="Vismundsvatnet" />
		<tag k="name" v="Vismundvatnet" />
		<tag k="natural" v="water" />
		<tag k="ssr:stedsnr" v="370028" />
	</node>
	<node id="-29569" lat="61.1285833335" lon="10.413297223">
		<tag k="name" v="Vesleøya" />
		<tag k="place" v="islet" />
		<tag k="ssr:stedsnr" v="223820" />
	</node>
	<node id="-30080" lat="61.2072305565" lon="10.3944472214">
		<tag k="name" v="Gristjernet" />
		<tag k="natural" v="water" />
		<tag k="ssr:stedsnr" v="890611" />
		<tag k="water" v="pond" />
	</node>
	<node id="-30590" lat="61.2227361092" lon="10.3520027777">
		<tag k="name" v="Svartdalsbekken" />
		<tag k="ssr:stedsnr" v="359696" />
		<tag k="waterway" v="stream" />
	</node>
	<node id="-30077" lat="61.1546694485" lon="10.3975333278">
		<tag k="name" v="Vesleelva" />
		<tag k="place" v="locality" />
		<tag k="ssr:stedsnr" v="890585" />
	</node>
	<node id="-29563" lat="61.1350388845" lon="10.3953666679">
		<tag k="name" v="Krakkøyra" />
		<tag k="place" v="locality" />
		<tag k="ssr:stedsnr" v="222836" />
	</node>
	<node id="-30074" lat="61.2052694418" lon="10.6222166635">
		<tag k="name" v="Reinsvika" />
		<tag k="natural" v="bay" />
		<tag k="ssr:stedsnr" v="299934" />
	</node>
	<node id="-30073" lat="61.1301416643" lon="10.5387583384">
		<tag k="alt_name" v="Køyta, nedre" />
		<tag k="name" v="Nedre Køyta" />
		<tag k="place" v="locality" />
		<tag k="ssr:stedsnr" v="675979" />
	</node>
	<node id="-29560" lat="61.0338944432" lon="10.2812944436">
		<tag k="name" v="Høgkloppbekken" />
		<tag k="ssr:stedsnr" v="222366" />
		<tag k="waterway" v="stream" />
	</node>
	<node id="-29559" lat="61.1638805591" lon="10.5582083421">
		<tag k="alt_name" v="Tritjerna" />
		<tag k="name" v="Tretjerna" />
		<tag k="natural" v="water" />
		<tag k="ssr:stedsnr" v="8902" />
		<tag k="water" v="lake" />
	</node>
	<node id="-30581" lat="61.1158166691" lon="10.4278333404">
		<tag k="name" v="Bestefarsvarpet" />
		<tag k="place" v="locality" />
		<tag k="ssr:stedsnr" v="359274" />
	</node>
	<node id="-30579" lat="61.2202111082" lon="10.4417972278">
		<tag k="name" v="Hunderfossen" />
		<tag k="natural" v="waterfall" />
		<tag k="ssr:stedsnr" v="359334" />
	</node>
	<node id="-30066" lat="61.2066333367" lon="10.6956999916">
		<tag k="name" v="Bukkholmen" />
		<tag k="place" v="islet" />
		<tag k="ssr:stedsnr" v="675919" />
	</node>
	<node id="-29553" lat="61.0724083294" lon="10.3716111174">
		<tag k="alt_name" v="Døselva" />
		<tag k="name" v="Døsbekken" />
		<tag k="ssr:stedsnr" v="6826" />
		<tag k="waterway" v="stream" />
	</node>
	<node id="-30064" lat="61.1631111105" lon="10.5803833369">
		<tag k="name" v="Erikstjernet" />
		<tag k="natural" v="water" />
		<tag k="ssr:stedsnr" v="675904" />
	</node>
	<node id="-30440" lat="61.1321583318" lon="10.3994916737">
		<tag k="name" v="Kroken" />
		<tag k="place" v="locality" />
		<tag k="ssr:stedsnr" v="162863" />
	</node>
	<node id="-30574" lat="61.1205666641" lon="10.096736105">
		<tag k="name" v="Hindalssjøbekken" />
		<tag k="ssr:stedsnr" v="352804" />
		<tag k="waterway" v="stream" />
	</node>
	<node id="-30439" lat="61.1270194469" lon="10.4056694475">
		<tag k="name" v="Rosa" />
		<tag k="place" v="locality" />
		<tag k="ssr:stedsnr" v="162858" />
	</node>
	<node id="-29933" lat="61.0640638894" lon="10.4314888899">
		<tag k="name" v="Bøsodden" />
		<tag k="natural" v="cape" />
		<tag k="ssr:stedsnr" v="541819" />
	</node>
	<node id="-30055" lat="61.1839888922" lon="10.2619222132">
		<tag k="alt_name" v="Ingridåa" />
		<tag k="name" v="Hellbekken" />
		<tag k="ssr:stedsnr" v="675408" />
		<tag k="waterway" v="stream" />
	</node>
	<node id="-30566" lat="61.1630805549" lon="10.3934277811">
		<tag k="name" v="Rundtomevja" />
		<tag k="natural" v="water" />
		<tag k="ssr:stedsnr" v="344599" />
		<tag k="water" v="lake" />
	</node>
	<node id="-30050" lat="61.2173055543" lon="10.68688611">
		<tag k="name" v="Koltjernet" />
		<tag k="natural" v="water" />
		<tag k="ssr:stedsnr" v="675204" />
	</node>
	<node id="-30561" lat="61.0514361123" lon="10.2336250054">
		<tag k="name" v="Vivelsjøbekken" />
		<tag k="ssr:stedsnr" v="344199" />
		<tag k="waterway" v="stream" />
	</node>
	<node id="-30559" lat="61.0775138889" lon="10.2144916751">
		<tag k="name" v="Nordbekken" />
		<tag k="ssr:stedsnr" v="344187" />
		<tag k="waterway" v="stream" />
	</node>
	<node id="-30235" lat="61.1205388874" lon="10.422608332">
		<tag k="name" v="Nedre Landvarpet" />
		<tag k="place" v="locality" />
		<tag k="ssr:stedsnr" v="966259" />
	</node>
	<node id="-30552" lat="61.1897305527" lon="10.3706972175">
		<tag k="name" v="Stortjernet" />
		<tag k="natural" v="water" />
		<tag k="ssr:stedsnr" v="311955" />
	</node>
	<node id="-30551" lat="61.1909138844" lon="10.6685861146">
		<tag k="name" v="Grønbekken" />
		<tag k="ssr:stedsnr" v="311952" />
		<tag k="waterway" v="stream" />
	</node>
	<node id="-30550" lat="61.1923111114" lon="10.4853611168">
		<tag k="name" v="Kruggrudbekken" />
		<tag k="ssr:stedsnr" v="311946" />
		<tag k="waterway" v="stream" />
	</node>
	<node id="-30548" lat="61.2038083338" lon="10.3698583268">
		<tag k="name" v="Halvtjernet" />
		<tag k="natural" v="water" />
		<tag k="ssr:stedsnr" v="311931" />
	</node>
	<node id="-30540" lat="61.1096444421" lon="10.4383166576">
		<tag k="name" v="Leirvika" />
		<tag k="natural" v="bay" />
		<tag k="ssr:stedsnr" v="311819" />
	</node>
	<node id="-29922" lat="61.1249055573" lon="10.4120916618">
		<tag k="name" v="Øvre Landvarpet" />
		<tag k="place" v="locality" />
		<tag k="ssr:stedsnr" v="526848" />
	</node>
	<node id="-30535" lat="61.0753694472" lon="10.5423111154">
		<tag k="name" v="Svartbekken" />
		<tag k="ssr:stedsnr" v="311515" />
		<tag k="waterway" v="stream" />
	</node>
	<node id="-30021" lat="61.1299444455" lon="10.5434472131">
		<tag k="alt_name" v="Køyta, øvre" />
		<tag k="name" v="Øvre Køyta" />
		<tag k="natural" v="water" />
		<tag k="ssr:stedsnr" v="735969" />
		<tag k="water" v="lake" />
	</node>
	<node id="-30018" lat="61.1963532059" lon="10.6124073254">
		<tag k="name" v="Nevelvatnet" />
		<tag k="natural" v="water" />
		<tag k="ssr:stedsnr" v="735927" />
		<tag k="water" v="lake" />
	</node>
	<node id="-30017" lat="61.1936972267" lon="10.3751861046">
		<tag k="name" v="Vesletjernet" />
		<tag k="natural" v="water" />
		<tag k="ssr:stedsnr" v="735922" />
	</node>
	<node id="-31035" lat="61.1761557544" lon="10.6074497478">
		<tag k="name" v="Landetjernet" />
		<tag k="natural" v="water" />
		<tag k="ssr:stedsnr" v="1072160" />
	</node>
	<node id="-29795" lat="61.0728277774" lon="10.5291166661">
		<tag k="name" v="Vesletjernet" />
		<tag k="natural" v="water" />
		<tag k="ssr:stedsnr" v="492821" />
	</node>
	<node id="-30004" lat="61.2199027768" lon="10.6936055586">
		<tag k="alt_name" v="Koltjernsbekken, øvre" />
		<tag k="name" v="Øvre Koltjernsbekken" />
		<tag k="ssr:stedsnr" v="735173" />
		<tag k="waterway" v="stream" />
	</node>
	<node id="-30512" lat="61.0288111077" lon="10.2800694472">
		<tag k="alt_name" v="Fløytbekken;Fløyten" />
		<tag k="name" v="Fløyta" />
		<tag k="ssr:stedsnr" v="310204" />
		<tag k="waterway" v="stream" />
	</node>
	<node id="-30511" lat="61.0386972182" lon="10.2450888879">
		<tag k="name" v="Langmyrbekken" />
		<tag k="ssr:stedsnr" v="310187" />
		<tag k="waterway" v="stream" />
	</node>
	<node id="-30509" lat="61.0774166629" lon="10.3286722172">
		<tag k="name" v="Ringflatdammen" />
		<tag k="ssr:stedsnr" v="310028" />
		<tag k="waterway" v="dam" />
	</node>
	<node id="-30508" lat="61.1710861087" lon="10.5671361023">
		<tag k="alt_name" v="Aboraksjøen" />
		<tag k="name" v="Abbor-Akksjøen" />
		<tag k="natural" v="water" />
		<tag k="ssr:stedsnr" v="190899" />
	</node>
	<node id="-30289" lat="61.1087611096" lon="10.0878111107">
		<tag k="name" v="Fjellbekken" />
		<tag k="ssr:stedsnr" v="8001" />
		<tag k="waterway" v="stream" />
	</node>
	<node id="-29948" lat="61.1891666627" lon="10.4132361074">
		<tag k="name" v="Steinbrua" />
		<tag k="place" v="locality" />
		<tag k="ssr:stedsnr" v="708642" />
	</node>
	<node id="-29575" lat="61.0279638913" lon="10.4487944386">
		<tag k="name" v="Sveavika" />
		<tag k="natural" v="bay" />
		<tag k="ssr:stedsnr" v="40551" />
	</node>
	<node id="-29989" lat="61.121899999" lon="10.4340111136">
		<tag k="name" v="Sleoveita" />
		<tag k="place" v="locality" />
		<tag k="ssr:stedsnr" v="723261" />
	</node>
	<node id="-29988" lat="61.1242083353" lon="10.4288444398">
		<tag k="name" v="Storsanden" />
		<tag k="natural" v="shoal" />
		<tag k="place" v="locality" />
		<tag k="ssr:stedsnr" v="723259" />
	</node>
	<node id="-30291" lat="61.0961888903" lon="10.1528138905">
		<tag k="name" v="Dingbekken" />
		<tag k="ssr:stedsnr" v="8021" />
		<tag k="waterway" v="stream" />
	</node>
	<node id="-30491" lat="61.158902782" lon="10.2971583265">
		<tag k="name" v="Sagåa" />
		<tag k="ssr:stedsnr" v="190082" />
		<tag k="waterway" v="stream" />
	</node>
	<node id="-30490" lat="61.1016222188" lon="10.1089527723">
		<tag k="name" v="Bjørtjernet" />
		<tag k="natural" v="water" />
		<tag k="ssr:stedsnr" v="190029" />
	</node>
	<node id="-30487" lat="61.0965833325" lon="10.1230416742">
		<tag k="name" v="Haugstjernet" />
		<tag k="natural" v="water" />
		<tag k="ssr:stedsnr" v="190018" />
	</node>
	<node id="-30481" lat="61.1291222226" lon="10.5338055644">
		<tag k="name" v="Grytflø" />
		<tag k="natural" v="water" />
		<tag k="ssr:stedsnr" v="189953" />
		<tag k="water" v="lake" />
	</node>
	<node id="-30753" lat="61.1593999988" lon="10.5600500066">
		<tag k="name" v="Stortjernet" />
		<tag k="natural" v="water" />
		<tag k="ssr:stedsnr" v="554990" />
	</node>
	<node id="-29572" lat="61.1168" lon="10.0726638961">
		<tag k="name" v="Rævskorotjernet" />
		<tag k="natural" v="water" />
		<tag k="ssr:stedsnr" v="230801" />
	</node>
	<node id="-30338" lat="61.0547944473" lon="10.4352944415">
		<tag k="alt_name" v="Ullhammaren" />
		<tag k="name" v="Ullhammeren" />
		<tag k="natural" v="cape" />
		<tag k="ssr:stedsnr" v="68668" />
	</node>
	<node id="-30474" lat="61.1894166633" lon="10.647802778">
		<tag k="name" v="Skjerketjerna" />
		<tag k="natural" v="water" />
		<tag k="ssr:stedsnr" v="189922" />
		<tag k="water" v="lake" />
	</node>
	<node id="-29996" lat="61.1416083351" lon="10.5197944376">
		<tag k="name" v="Skryftgangen" />
		<tag k="ssr:stedsnr" v="723780" />
		<tag k="waterway" v="stream" />
	</node>
	<node id="-30337" lat="61.2027305541" lon="10.3997750076">
		<tag k="name" v="Sagåa" />
		<tag k="ssr:stedsnr" v="68494" />
		<tag k="waterway" v="stream" />
	</node>
	<node id="-30049" lat="61.1000500015" lon="10.3002194479">
		<tag k="alt_name" v="Rinna" />
		<tag k="name" v="Rinda" />
		<tag k="ssr:stedsnr" v="675017" />
		<tag k="waterway" v="river" />
	</node>
	<node id="-30978" lat="61.1093583341" lon="10.4424250001">
		<tag k="name" v="Fløyterodden" />
		<tag k="natural" v="cape" />
		<tag k="ssr:stedsnr" v="966294" />
	</node>
	<node id="-30977" lat="61.1217611113" lon="10.4420249966">
		<tag k="name" v="Mosodden" />
		<tag k="natural" v="cape" />
		<tag k="ssr:stedsnr" v="966291" />
	</node>
	<node id="-29951" lat="61.1280361138" lon="10.4030611178">
		<tag k="name" v="Kolbergsevja" />
		<tag k="place" v="locality" />
		<tag k="ssr:stedsnr" v="708833" />
	</node>
	<node id="-29950" lat="61.1369527737" lon="10.3967500082">
		<tag k="name" v="Nedre Graverhølet" />
		<tag k="place" v="locality" />
		<tag k="ssr:stedsnr" v="708791" />
	</node>
	<node id="-30461" lat="61.0729327144" lon="10.2336305535">
		<tag k="alt_name" v="Sjogevatnet, nordre;Nordre Sjogvatnet" />
		<tag k="name" v="Nordre Sjogevatnet" />
		<tag k="natural" v="water" />
		<tag k="ssr:stedsnr" v="188041" />
		<tag k="water" v="lake" />
	</node>
	<node id="-30972" lat="61.1002194433" lon="10.1748666604">
		<tag k="name" v="Svartbekken" />
		<tag k="ssr:stedsnr" v="959800" />
		<tag k="waterway" v="stream" />
	</node>
	<node id="-30459" lat="61.0828833338" lon="10.2794194515">
		<tag k="name" v="Bubekken" />
		<tag k="ssr:stedsnr" v="188035" />
		<tag k="waterway" v="stream" />
	</node>
	<node id="-30458" lat="61.0780305547" lon="10.266672223">
		<tag k="alt_name" v="Flogoa" />
		<tag k="name" v="Floka" />
		<tag k="ssr:stedsnr" v="188033" />
		<tag k="waterway" v="river" />
	</node>
	<node id="-30335" lat="61.1708944449" lon="10.2122055521">
		<tag k="alt_name" v="Hesttjønnsbekken" />
		<tag k="name" v="Hesttjønnbekken" />
		<tag k="ssr:stedsnr" v="68455" />
		<tag k="waterway" v="stream" />
	</node>
	<node id="-30968" lat="61.0818888903" lon="10.0742277826">
		<tag k="name" v="Brurvollflågan" />
		<tag k="natural" v="water" />
		<tag k="ssr:stedsnr" v="951879" />
		<tag k="water" v="pond" />
	</node>
	<node id="-29861" lat="61.0902972243" lon="10.1297166701">
		<tag k="name" v="Åltjernet" />
		<tag k="natural" v="water" />
		<tag k="ssr:stedsnr" v="655798" />
	</node>
	<node id="-30505" lat="61.1542194434" lon="10.4540416692">
		<tag k="name" v="Bæla" />
		<tag k="ssr:stedsnr" v="190963" />
		<tag k="waterway" v="river" />
	</node>
	<node id="-30964" lat="61.1305333312" lon="10.4019999964">
		<tag k="name" v="Lissanden" />
		<tag k="place" v="locality" />
		<tag k="ssr:stedsnr" v="951849" />
	</node>
	<node id="-30451" lat="61.0910583353" lon="10.4195222204">
		<tag k="name" v="Vottestadbekken" />
		<tag k="ssr:stedsnr" v="177484" />
		<tag k="waterway" v="stream" />
	</node>
	<node id="-30961" lat="61.1465166627" lon="10.4062027852">
		<tag k="name" v="Knipskitt" />
		<tag k="place" v="locality" />
		<tag k="ssr:stedsnr" v="951589" />
	</node>
	<node id="-29936" lat="61.1213722211" lon="10.5178749999">
		<tag k="name" v="Krokflø" />
		<tag k="natural" v="water" />
		<tag k="ssr:stedsnr" v="541761" />
		<tag k="water" v="lake" />
	</node>
	<node id="-29934" lat="61.073708337" lon="10.4322750005">
		<tag k="name" v="Hyttevarpet" />
		<tag k="place" v="locality" />
		<tag k="ssr:stedsnr" v="541823" />
	</node>
	<node id="-30957" lat="61.1679666707" lon="10.225216666">
		<tag k="name" v="Hesttjernet" />
		<tag k="natural" v="water" />
		<tag k="ssr:stedsnr" v="951243" />
	</node>
	<node id="-29931" lat="61.2044000028" lon="10.6780499942">
		<tag k="name" v="Lortvika" />
		<tag k="natural" v="bay" />
		<tag k="ssr:stedsnr" v="541562" />
	</node>
	<node id="-30952" lat="61.0336472225" lon="10.3975750046">
		<tag k="fixme" v="multiple name tags, choose one and add the other to alt_name" />
		<tag k="name" v="Bjørnstadbekken;Fjellsbekken" />
		<tag k="ssr:stedsnr" v="858647" />
		<tag k="waterway" v="stream" />
	</node>
	<node id="-30951" lat="61.1412722237" lon="10.6444194481">
		<tag k="name" v="Svartbekken" />
		<tag k="ssr:stedsnr" v="857945" />
		<tag k="waterway" v="stream" />
	</node>
	<node id="-30437" lat="61.1855916649" lon="10.2901833303">
		<tag k="name" v="Arlibekken" />
		<tag k="ssr:stedsnr" v="162734" />
		<tag k="waterway" v="stream" />
	</node>
	<node id="-29923" lat="61.1136583298" lon="10.1115638811">
		<tag k="name" v="Veslehaugodden" />
		<tag k="natural" v="cape" />
		<tag k="ssr:stedsnr" v="534822" />
	</node>
	<node id="-30946" lat="61.1234749962" lon="10.6018694506">
		<tag k="name" v="Øyåa" />
		<tag k="ssr:stedsnr" v="857790" />
		<tag k="waterway" v="river" />
	</node>
	<node id="-29921" lat="61.160322222" lon="10.3989916716">
		<tag k="name" v="Veita" />
		<tag k="place" v="locality" />
		<tag k="ssr:stedsnr" v="526577" />
	</node>
	<node id="-30942" lat="61.2002749971" lon="10.647625008">
		<tag k="name" v="Lomtjernet" />
		<tag k="natural" v="water" />
		<tag k="ssr:stedsnr" v="857487" />
	</node>
	<node id="-30939" lat="61.090541666" lon="10.2854222279">
		<tag k="name" v="Purkebekken" />
		<tag k="ssr:stedsnr" v="857020" />
		<tag k="waterway" v="stream" />
	</node>
	<node id="-29914" lat="61.0928111102" lon="10.0589444466">
		<tag k="name" v="Korstjernet" />
		<tag k="natural" v="water" />
		<tag k="ssr:stedsnr" v="492015" />
	</node>
	<node id="-30937" lat="61.0955111139" lon="10.3110333382">
		<tag k="alt_name" v="Ødegårdsdammen" />
		<tag k="name" v="Øygardsdammen" />
		<tag k="ssr:stedsnr" v="857016" />
		<tag k="waterway" v="dam" />
	</node>
	<node id="-30421" lat="61.1242777778" lon="10.5150444461">
		<tag k="alt_name" v="Bottelflø" />
		<tag k="name" v="Bottilflø" />
		<tag k="natural" v="water" />
		<tag k="ssr:stedsnr" v="129790" />
		<tag k="water" v="lake" />
	</node>
	<node id="-29587" lat="61.071550003" lon="10.4318444375">
		<tag k="name" v="Borudvika" />
		<tag k="natural" v="bay" />
		<tag k="ssr:stedsnr" v="56815" />
	</node>
	<node id="-30415" lat="61.2163333361" lon="10.2475833297">
		<tag k="loc_name" v="Veslelva;Vesleelva" />
		<tag k="name" v="Gausa" />
		<tag k="ssr:stedsnr" v="129479" />
		<tag k="waterway" v="river" />
	</node>
	<node id="-30413" lat="61.2327416711" lon="10.437061112">
		<tag k="loc_name" v="Gudbrandsdalslågen" />
		<tag k="name" v="Lågen" />
		<tag k="ssr:stedsnr" v="129173" />
		<tag k="waterway" v="river" />
	</node>
	<node id="-29899" lat="61.1301138858" lon="10.5498249993">
		<tag k="name" v="Øvstedalsfossen" />
		<tag k="ssr:stedsnr" v="480791" />
		<tag k="waterway" v="rapids" />
	</node>
	<node id="-30408" lat="61.1306111088" lon="10.5378638865">
		<tag k="name" v="Langflø" />
		<tag k="natural" v="water" />
		<tag k="ssr:stedsnr" v="128963" />
		<tag k="water" v="lake" />
	</node>
	<node id="-29893" lat="61.1194749982" lon="10.4249166657">
		<tag k="name" v="Svinerompa" />
		<tag k="place" v="locality" />
		<tag k="ssr:stedsnr" v="480221" />
	</node>
	<node id="-30404" lat="61.1495805521" lon="10.2611222132">
		<tag k="alt_name" v="Demtjernet" />
		<tag k="name" v="Demmtjernet" />
		<tag k="natural" v="water" />
		<tag k="ssr:stedsnr" v="129085" />
	</node>
	<node id="-30402" lat="61.2152888919" lon="10.6586305519">
		<tag k="name" v="Nordåa" />
		<tag k="ssr:stedsnr" v="128895" />
		<tag k="waterway" v="stream" />
	</node>
	<node id="-30401" lat="61.0902222223" lon="10.3627749912">
		<tag k="name" v="Stortjernet" />
		<tag k="natural" v="water" />
		<tag k="ssr:stedsnr" v="128859" />
		<tag k="water" v="lake" />
	</node>
	<node id="-30911" lat="61.2435555575" lon="10.3611888855">
		<tag k="name" v="Nordre Blekketjern" />
		<tag k="natural" v="water" />
		<tag k="ssr:stedsnr" v="830153" />
	</node>
	<node id="-29886" lat="61.1300333312" lon="10.3991194366">
		<tag k="name" v="Sørlisevja" />
		<tag k="place" v="locality" />
		<tag k="ssr:stedsnr" v="465857" />
	</node>
	<node id="-30069" lat="61.1427416634" lon="10.5251249935">
		<tag k="name" v="Blisterbekken" />
		<tag k="ssr:stedsnr" v="675956" />
		<tag k="waterway" v="stream" />
	</node>
	<node id="-29884" lat="61.1646611098" lon="10.3786638935">
		<tag k="name" v="Mælumsbekken" />
		<tag k="ssr:stedsnr" v="465557" />
		<tag k="waterway" v="stream" />
	</node>
	<node id="-30395" lat="61.0871611142" lon="10.3267444442">
		<tag k="name" v="Åsbekken" />
		<tag k="ssr:stedsnr" v="128032" />
		<tag k="waterway" v="stream" />
	</node>
	<node id="-30903" lat="61.1480527799" lon="10.6095000043">
		<tag k="name" v="Nevla" />
		<tag k="ssr:stedsnr" v="796984" />
		<tag k="waterway" v="river" />
	</node>
	<node id="-30901" lat="61.1959500043" lon="10.7075777693">
		<tag k="name" v="Stuva" />
		<tag k="ssr:stedsnr" v="796927" />
		<tag k="waterway" v="stream" />
	</node>
	<node id="-29874" lat="61.0641666705" lon="10.4548777825">
		<tag k="name" v="Skogsodden" />
		<tag k="natural" v="cape" />
		<tag k="ssr:stedsnr" v="662803" />
	</node>
	<node id="-30067" lat="61.1941222184" lon="10.3525249986">
		<tag k="name" v="Malbekken" />
		<tag k="ssr:stedsnr" v="675931" />
		<tag k="waterway" v="stream" />
	</node>
	<node id="-30383" lat="61.0953472195" lon="10.4358333387">
		<tag k="name" v="Brettengsvika" />
		<tag k="natural" v="bay" />
		<tag k="ssr:stedsnr" v="116663" />
	</node>
	<node id="-29870" lat="61.1291166707" lon="10.424905561">
		<tag k="name" v="Korgevika" />
		<tag k="natural" v="bay" />
		<tag k="ssr:stedsnr" v="662155" />
	</node>
	<node id="-30381" lat="61.1285555563" lon="10.5588083308">
		<tag k="name" v="Golon" />
		<tag k="natural" v="water" />
		<tag k="ssr:stedsnr" v="116775" />
		<tag k="water" v="lake" />
	</node>
	<node id="-29671" lat="61.1963805529" lon="10.3665777761">
		<tag k="name" v="Lønnmyrbekken" />
		<tag k="ssr:stedsnr" v="162608" />
		<tag k="waterway" v="stream" />
	</node>
	<node id="-30379" lat="61.1127166674" lon="10.1079499923">
		<tag k="name" v="Skjørostodden" />
		<tag k="natural" v="cape" />
		<tag k="ssr:stedsnr" v="110848" />
	</node>
	<node id="-29865" lat="61.1229999975" lon="10.4234416583">
		<tag k="name" v="Yttersanden" />
		<tag k="place" v="locality" />
		<tag k="ssr:stedsnr" v="299293" />
	</node>
	<node id="-30888" lat="61.0839777781" lon="10.3660111186">
		<tag k="name" v="Vesletjernet" />
		<tag k="natural" v="water" />
		<tag k="ssr:stedsnr" v="795866" />
	</node>
	<node id="-30887" lat="61.0915527742" lon="10.1720222283">
		<tag k="name" v="Auggevatnet" />
		<tag k="natural" v="water" />
		<tag k="ssr:stedsnr" v="795065" />
	</node>
	<node id="-29707" lat="61.2114888871" lon="10.6150166655">
		<tag k="name" v="Reinsvatnet" />
		<tag k="natural" v="water" />
		<tag k="ssr:stedsnr" v="189152" />
		<tag k="water" v="lake" />
	</node>
	<node id="-30373" lat="61.227238893" lon="10.3967666759">
		<tag k="name" v="Hoknabekken" />
		<tag k="ssr:stedsnr" v="102232" />
		<tag k="waterway" v="stream" />
	</node>
	<node id="-30372" lat="61.0360222235" lon="10.2727722215">
		<tag k="name" v="Haugerfløyten" />
		<tag k="ssr:stedsnr" v="101992" />
		<tag k="waterway" v="stream" />
	</node>
	<node id="-30371" lat="61.1352722194" lon="10.4031388834">
		<tag k="name" v="Moshølveita" />
		<tag k="place" v="locality" />
		<tag k="ssr:stedsnr" v="101796" />
	</node>
	<node id="-29857" lat="61.1157805527" lon="10.1079277861">
		<tag k="alt_name" v="Skjellbreidsvatnet" />
		<tag k="name" v="Skjellbreidvatnet" />
		<tag k="natural" v="water" />
		<tag k="ssr:stedsnr" v="432110" />
		<tag k="water" v="lake" />
	</node>
	<node id="-29856" lat="60.4806388919" lon="11.1954055554">
		<tag k="name" v="Mjøsa" />
		<tag k="natural" v="water" />
		<tag k="ssr:stedsnr" v="431452" />
		<tag k="water" v="lake" />
	</node>
	<node id="-30523" lat="61.2240833314" lon="10.3556166693">
		<tag k="name" v="Svarttjernet" />
		<tag k="natural" v="water" />
		<tag k="ssr:stedsnr" v="311211" />
	</node>
	<node id="-30917" lat="61.1931777752" lon="10.4073888905">
		<tag k="name" v="Attogfram" />
		<tag k="place" v="locality" />
		<tag k="ssr:stedsnr" v="830644" />
	</node>
	<node id="-29852" lat="61.1086388907" lon="10.3592805542">
		<tag k="name" v="Tjernshaugtjernet" />
		<tag k="natural" v="water" />
		<tag k="ssr:stedsnr" v="420650" />
	</node>
	<node id="-30873" lat="61.1295583333" lon="10.4214916664">
		<tag k="name" v="Langvika" />
		<tag k="natural" v="bay" />
		<tag k="ssr:stedsnr" v="784166" />
	</node>
	<node id="-29847" lat="61.0988555589" lon="10.2974805596">
		<tag k="name" v="Hølbekken" />
		<tag k="ssr:stedsnr" v="405665" />
		<tag k="waterway" v="stream" />
	</node>
	<node id="-29568" lat="61.1404027766" lon="10.3967361107">
		<tag k="name" v="Mælumspullen" />
		<tag k="natural" v="water" />
		<tag k="ssr:stedsnr" v="223809" />
		<tag k="water" v="pond" />
	</node>
	<node id="-30745" lat="61.2347500031" lon="10.3910250033">
		<tag k="name" v="Gammeltjernet" />
		<tag k="natural" v="water" />
		<tag k="ssr:stedsnr" v="554154" />
	</node>
	<node id="-29843" lat="61.0664971217" lon="10.2382025482">
		<tag k="alt_name" v="Sjogevatnet" />
		<tag k="name" v="Sjogevatna" />
		<tag k="natural" v="water" />
		<tag k="ssr:stedsnr" v="299079" />
		<tag k="water" v="lake" />
	</node>
	<node id="-30863" lat="61.090549999" lon="10.0757611071">
		<tag k="name" v="Hitjern" />
		<tag k="natural" v="water" />
		<tag k="ssr:stedsnr" v="769891" />
	</node>
	<node id="-30862" lat="61.1009777784" lon="10.2688527833">
		<tag k="name" v="Amerikabekken" />
		<tag k="ssr:stedsnr" v="769636" />
		<tag k="waterway" v="stream" />
	</node>
	<node id="-30861" lat="61.1599361132" lon="10.3970805542">
		<tag k="name" v="Killian" />
		<tag k="place" v="island" />
		<tag k="ssr:stedsnr" v="769584" />
	</node>
	<node id="-29836" lat="61.1263555597" lon="10.5298305509">
		<tag k="name" v="Tuveitflø" />
		<tag k="natural" v="water" />
		<tag k="ssr:stedsnr" v="371953" />
		<tag k="water" v="lake" />
	</node>
	<node id="-30858" lat="61.1402111155" lon="10.4013888823">
		<tag k="name" v="Moshølvarpet" />
		<tag k="place" v="locality" />
		<tag k="ssr:stedsnr" v="768814" />
	</node>
	<node id="-30857" lat="61.1280583347" lon="10.4162250009">
		<tag k="name" v="Sandvaodden" />
		<tag k="natural" v="cape" />
		<tag k="ssr:stedsnr" v="768810" />
	</node>
	<node id="-30855" lat="61.1480388888" lon="10.4033527865">
		<tag k="name" v="Knuvelen" />
		<tag k="place" v="locality" />
		<tag k="ssr:stedsnr" v="768544" />
	</node>
	<node id="-30829" lat="61.1578805592" lon="10.3671777859">
		<tag k="name" v="Romsdalsøya" />
		<tag k="place" v="island" />
		<tag k="ssr:stedsnr" v="647581" />
	</node>
	<node id="-30850" lat="61.1529277786" lon="10.5344611108">
		<tag k="alt_name" v="Karustjernet" />
		<tag k="name" v="Karusstjernet" />
		<tag k="natural" v="water" />
		<tag k="ssr:stedsnr" v="736981" />
	</node>
	<node id="-30849" lat="61.1478305563" lon="10.4061111022">
		<tag k="name" v="Øyra" />
		<tag k="place" v="island" />
		<tag k="ssr:stedsnr" v="736977" />
	</node>
	<node id="-30848" lat="61.1286305565" lon="10.6122138916">
		<tag k="name" v="Avskåkån" />
		<tag k="natural" v="water" />
		<tag k="ssr:stedsnr" v="736964" />
		<tag k="water" v="lake" />
	</node>
	<node id="-30847" lat="61.1664388908" lon="10.5768527727">
		<tag k="alt_name" v="Gjestebudstjernet" />
		<tag k="name" v="Gjestbodtjernet" />
		<tag k="natural" v="water" />
		<tag k="ssr:stedsnr" v="736897" />
	</node>
	<node id="-30846" lat="61.1755999976" lon="10.4952277851">
		<tag k="name" v="Vesletjernet" />
		<tag k="natural" v="water" />
		<tag k="ssr:stedsnr" v="736885" />
	</node>
	<node id="-29819" lat="61.1206138867" lon="10.4216583288">
		<tag k="alt_name" v="Tråssetstranda" />
		<tag k="name" v="Trossetstranda" />
		<tag k="natural" v="beach" />
		<tag k="ssr:stedsnr" v="493816" />
	</node>
	<node id="-30233" lat="61.1222027745" lon="10.4291805611">
		<tag k="name" v="Sleovarpet" />
		<tag k="place" v="locality" />
		<tag k="ssr:stedsnr" v="966255" />
	</node>
	<node id="-29815" lat="61.0635055572" lon="10.3765805644">
		<tag k="name" v="Båntjernet" />
		<tag k="natural" v="water" />
		<tag k="ssr:stedsnr" v="493694" />
	</node>
	<node id="-30326" lat="61.0963222213" lon="10.4268250075">
		<tag k="alt_name" v="Øyreselva" />
		<tag k="name" v="Øyresbekken" />
		<tag k="ssr:stedsnr" v="67774" />
		<tag k="waterway" v="stream" />
	</node>
	<node id="-29801" lat="61.2075416628" lon="10.683280563">
		<tag k="name" v="Mellsjøen" />
		<tag k="natural" v="water" />
		<tag k="ssr:stedsnr" v="492897" />
		<tag k="water" v="lake" />
	</node>
	<node id="-30831" lat="61.129111113" lon="10.4194833362">
		<tag k="name" v="Langvikodden" />
		<tag k="natural" v="cape" />
		<tag k="ssr:stedsnr" v="647815" />
	</node>
	<node id="-29806" lat="61.1425000003" lon="10.3348805609">
		<tag k="alt_name" v="Djupåa" />
		<tag k="name" v="Djupa" />
		<tag k="ssr:stedsnr" v="493097" />
		<tag k="waterway" v="stream" />
	</node>
	<node id="-29885" lat="61.140294447" lon="10.3992750035">
		<tag k="name" v="Moshølrevet" />
		<tag k="place" v="locality" />
		<tag k="ssr:stedsnr" v="465808" />
	</node>
	<node id="-30828" lat="61.1616916676" lon="10.395799991">
		<tag k="name" v="Revet" />
		<tag k="place" v="locality" />
		<tag k="ssr:stedsnr" v="647574" />
	</node>
	<node id="-29803" lat="61.1407194444" lon="10.3930527772">
		<tag k="name" v="Svartevjua" />
		<tag k="natural" v="bay" />
		<tag k="ssr:stedsnr" v="493000" />
	</node>
	<node id="-29737" lat="61.1574444486" lon="10.3941444458">
		<tag k="name" v="Bronsøya" />
		<tag k="place" v="island" />
		<tag k="ssr:stedsnr" v="463494" />
	</node>
	<node id="-30313" lat="61.0679972204" lon="10.1367416659">
		<tag k="name" v="Vismunda" />
		<tag k="ssr:stedsnr" v="54078" />
		<tag k="waterway" v="river" />
	</node>
	<node id="-30824" lat="61.1330305574" lon="10.3827055551">
		<tag k="alt_name" v="Nordlisbekken" />
		<tag k="name" v="Nordlibekken" />
		<tag k="ssr:stedsnr" v="614947" />
		<tag k="waterway" v="stream" />
	</node>
	<node id="-29805" lat="61.1544166711" lon="10.3172666627">
		<tag k="name" v="Guribekken" />
		<tag k="ssr:stedsnr" v="493075" />
		<tag k="waterway" v="stream" />
	</node>
	<node id="-30819" lat="61.1585750014" lon="10.3740666576">
		<tag k="name" v="Gausa" />
		<tag k="ssr:stedsnr" v="614902" />
		<tag k="waterway" v="river" />
	</node>
	<node id="-29790" lat="61.0641666705" lon="10.4548777825">
		<tag k="name" v="Bårdsengodden" />
		<tag k="natural" v="cape" />
		<tag k="ssr:stedsnr" v="359810" />
	</node>
	<node id="-30298" lat="61.1727027751" lon="10.5095027785">
		<tag k="name" v="Lomtjernet" />
		<tag k="natural" v="water" />
		<tag k="ssr:stedsnr" v="8886" />
	</node>
	<node id="-29711" lat="61.1237416689" lon="10.6155472214">
		<tag k="name" v="Motjernet" />
		<tag k="natural" v="water" />
		<tag k="ssr:stedsnr" v="190813" />
	</node>
	<node id="-30805" lat="61.0953833323" lon="10.1174888886">
		<tag k="alt_name" v="Sesukla" />
		<tag k="name" v="Sisukla" />
		<tag k="ssr:stedsnr" v="614024" />
		<tag k="waterway" v="river" />
	</node>
	<node id="-29779" lat="61.1321000037" lon="10.4050777869">
		<tag k="name" v="Midtvadet" />
		<tag k="place" v="locality" />
		<tag k="ssr:stedsnr" v="344857" />
	</node>
	<node id="-30801" lat="61.0652916692" lon="10.3114694436">
		<tag k="name" v="Storbekken" />
		<tag k="ssr:stedsnr" v="613060" />
		<tag k="waterway" v="stream" />
	</node>
	<node id="-30800" lat="61.0538277749" lon="10.2167277828">
		<tag k="alt_name" v="Vivelsjøen" />
		<tag k="name" v="Viveisjøen" />
		<tag k="natural" v="water" />
		<tag k="ssr:stedsnr" v="613057" />
	</node>
	<node id="-30799" lat="61.0568444417" lon="10.1569777775">
		<tag k="alt_name" v="Goåsdammen" />
		<tag k="name" v="Godåsdammen" />
		<tag k="ssr:stedsnr" v="613056" />
		<tag k="waterway" v="dam" />
	</node>
	<node id="-30221" lat="61.2037444482" lon="10.4119916668">
		<tag k="name" v="Verkstedbekken" />
		<tag k="ssr:stedsnr" v="951607" />
		<tag k="waterway" v="stream" />
	</node>
	<node id="-30284" lat="61.1273749977" lon="10.4188666744">
		<tag k="name" v="Tjuvholmen" />
		<tag k="place" v="islet" />
		<tag k="ssr:stedsnr" v="7960" />
	</node>
	<node id="-30283" lat="61.1297944464" lon="10.4074083321">
		<tag k="alt_name" v="Veslevollen" />
		<tag k="name" v="Våløya" />
		<tag k="place" v="island" />
		<tag k="ssr:stedsnr" v="7952" />
	</node>
	<node id="-29768" lat="61.1199666677" lon="10.574850006">
		<tag k="name" v="Harrflø" />
		<tag k="natural" v="water" />
		<tag k="ssr:stedsnr" v="480371" />
		<tag k="water" v="lake" />
	</node>
	<node id="-29766" lat="61.1283333349" lon="10.4225499995">
		<tag k="name" v="Korgevollen" />
		<tag k="place" v="islet" />
		<tag k="ssr:stedsnr" v="480127" />
	</node>
	<node id="-30789" lat="61.1030944413" lon="10.4420833378">
		<tag k="name" v="Vingnesvika" />
		<tag k="natural" v="bay" />
		<tag k="ssr:stedsnr" v="602299" />
	</node>
	<node id="-30876" lat="61.1186750033" lon="10.4267000047">
		<tag k="name" v="Snekkerstuvarpet" />
		<tag k="place" v="locality" />
		<tag k="ssr:stedsnr" v="784287" />
	</node>
	<node id="-30272" lat="61.0972805575" lon="10.5195027823">
		<tag k="name" v="Åretta" />
		<tag k="ssr:stedsnr" v="6783" />
		<tag k="waterway" v="stream" />
	</node>
	<node id="-30783" lat="61.0723222241" lon="10.4868166575">
		<tag k="name" v="Torsvebekken" />
		<tag k="ssr:stedsnr" v="601790" />
		<tag k="waterway" v="stream" />
	</node>
	<node id="-30389" lat="61.2049833349" lon="10.7125527797">
		<tag k="name" v="Latroa" />
		<tag k="natural" v="bay" />
		<tag k="ssr:stedsnr" v="117557" />
	</node>
	<node id="-30778" lat="61.0914083351" lon="10.4624138803">
		<tag k="name" v="Kråkberget" />
		<tag k="natural" v="cape" />
		<tag k="ssr:stedsnr" v="601646" />
	</node>
	<node id="-29753" lat="61.1054722254" lon="10.1340055576">
		<tag k="name" v="Dingen" />
		<tag k="natural" v="water" />
		<tag k="ssr:stedsnr" v="311006" />
	</node>
	<node id="-30125" lat="61.2426194437" lon="10.3826722287">
		<tag k="name" v="Lønstøltjernet" />
		<tag k="natural" v="water" />
		<tag k="ssr:stedsnr" v="918148" />
	</node>
	<node id="-30774" lat="61.1215749994" lon="10.1086138826">
		<tag k="name" v="Erstjernsbekken" />
		<tag k="ssr:stedsnr" v="595798" />
		<tag k="waterway" v="stream" />
	</node>
	<node id="-30773" lat="61.0437972188" lon="10.2661416738">
		<tag k="name" v="Fløytvatnet" />
		<tag k="natural" v="water" />
		<tag k="ssr:stedsnr" v="594833" />
	</node>
	<node id="-29747" lat="61.1285333347" lon="10.4308777751">
		<tag k="name" v="Haugvika" />
		<tag k="natural" v="bay" />
		<tag k="ssr:stedsnr" v="299149" />
	</node>
	<node id="-29746" lat="61.1372527785" lon="10.3939777748">
		<tag k="name" v="Rånnerudspullen" />
		<tag k="natural" v="water" />
		<tag k="ssr:stedsnr" v="466801" />
		<tag k="water" v="pond" />
	</node>
	<node id="-29745" lat="61.1781888861" lon="10.203855552">
		<tag k="name" v="Brennombekken" />
		<tag k="ssr:stedsnr" v="466284" />
		<tag k="waterway" v="stream" />
	</node>
	<node id="-30216" lat="61.2344055597" lon="10.3949027791">
		<tag k="name" v="Hoknetjernet" />
		<tag k="natural" v="water" />
		<tag k="ssr:stedsnr" v="951170" />
	</node>
	<node id="-30761" lat="61.1906472197" lon="10.409861118">
		<tag k="name" v="Langteinlaget" />
		<tag k="place" v="locality" />
		<tag k="ssr:stedsnr" v="586631" />
	</node>
	<node id="-30760" lat="61.1055694415" lon="10.1276444404">
		<tag k="name" v="Øvre Dingbekken" />
		<tag k="ssr:stedsnr" v="586435" />
		<tag k="waterway" v="stream" />
	</node>
	<node id="-30129" lat="61.1249444425" lon="10.4204305603">
		<tag k="name" v="Trossetvollen" />
		<tag k="place" v="island" />
		<tag k="ssr:stedsnr" v="918848" />
	</node>
	<node id="-30195" lat="61.1247055522" lon="10.5225277842">
		<tag k="name" v="Styggrevet" />
		<tag k="natural" v="water" />
		<tag k="ssr:stedsnr" v="905815" />
		<tag k="water" v="lake" />
	</node>
	<node id="-30242" lat="61.0999805528" lon="10.0548444411">
		<tag k="name" v="Grautauget" />
		<tag k="natural" v="water" />
		<tag k="ssr:stedsnr" v="967557" />
	</node>
	<node id="-30241" lat="61.0914722238" lon="10.049774999">
		<tag k="name" v="Korstjernsbekken" />
		<tag k="ssr:stedsnr" v="967556" />
		<tag k="waterway" v="stream" />
	</node>
	<node id="-30240" lat="61.0982277766" lon="10.0594972195">
		<tag k="name" v="Grautaugbekken" />
		<tag k="ssr:stedsnr" v="967555" />
		<tag k="waterway" v="stream" />
	</node>
	<node id="-29725" lat="61.1250249987" lon="10.5676194527">
		<tag k="name" v="Maurfossen" />
		<tag k="ssr:stedsnr" v="298742" />
		<tag k="waterway" v="rapids" />
	</node>
	<node id="-30397" lat="61.059943147" lon="10.250814095">
		<tag k="alt_name" v="Sjogevatnet, s;Søre Sjogvatnet" />
		<tag k="name" v="Søre Sjogevatnet" />
		<tag k="natural" v="water" />
		<tag k="ssr:stedsnr" v="128050" />
		<tag k="water" v="lake" />
	</node>
	<node id="-30234" lat="61.1203194465" lon="10.4340694465">
		<tag k="name" v="Vesleveita" />
		<tag k="place" v="locality" />
		<tag k="ssr:stedsnr" v="966257" />
	</node>
	<node id="-30895" lat="61.0915805577" lon="10.4336777712">
		<tag k="name" v="Øyresvika" />
		<tag k="natural" v="bay" />
		<tag k="ssr:stedsnr" v="796873" />
	</node>
	<node id="-29562" lat="61.1253111078" lon="10.4006749968">
		<tag k="name" v="Kollefall" />
		<tag k="ssr:stedsnr" v="222832" />
		<tag k="waterway" v="stream" />
	</node>
	<node id="-30741" lat="61.1972027734" lon="10.6852138809">
		<tag k="name" v="Mjogsjøen" />
		<tag k="natural" v="water" />
		<tag k="ssr:stedsnr" v="553924" />
	</node>
	<node id="-30739" lat="61.1880861099" lon="10.6377527752">
		<tag k="name" v="Raudtjernet" />
		<tag k="natural" v="water" />
		<tag k="ssr:stedsnr" v="553888" />
	</node>
	<node id="-30737" lat="61.1236805589" lon="10.5706499934">
		<tag k="name" v="Djupsaugflø" />
		<tag k="natural" v="water" />
		<tag k="ssr:stedsnr" v="553788" />
		<tag k="water" v="lake" />
	</node>
	<node id="-30075" lat="61.1000777812" lon="10.2014250025">
		<tag k="name" v="Svartåsbekken" />
		<tag k="ssr:stedsnr" v="890169" />
		<tag k="waterway" v="stream" />
	</node>
	<node id="-30223" lat="61.1395611121" lon="10.4016777767">
		<tag k="name" v="Tuva" />
		<tag k="place" v="locality" />
		<tag k="ssr:stedsnr" v="951816" />
	</node>
	<node id="-30893" lat="61.1287666668" lon="10.5561083279">
		<tag k="name" v="Steinflø" />
		<tag k="natural" v="water" />
		<tag k="ssr:stedsnr" v="796969" />
		<tag k="water" v="lake" />
	</node>
	<node id="-30062" lat="61.1155861122" lon="10.5983722204">
		<tag k="name" v="Langholmen" />
		<tag k="place" v="islet" />
		<tag k="ssr:stedsnr" v="675825" />
	</node>
	<node id="-30728" lat="61.1866611134" lon="10.2477416727">
		<tag k="name" v="Stutshusbekken" />
		<tag k="ssr:stedsnr" v="553390" />
		<tag k="waterway" v="stream" />
	</node>
	<node id="-30636" lat="61.1133194486" lon="10.4321749988">
		<tag k="name" v="Tangen" />
		<tag k="place" v="locality" />
		<tag k="ssr:stedsnr" v="420266" />
	</node>
	<node id="-29853" lat="61.0808194444" lon="10.5067000023">
		<tag k="name" v="Igletjernet" />
		<tag k="natural" v="water" />
		<tag k="ssr:stedsnr" v="420815" />
	</node>
	<node id="-29699" lat="61.1181277749" lon="10.5815888824">
		<tag k="name" v="Danielsflø" />
		<tag k="natural" v="water" />
		<tag k="ssr:stedsnr" v="177404" />
		<tag k="water" v="lake" />
	</node>
	<node id="-29698" lat="61.0710861091" lon="10.2935277704">
		<tag k="name" v="Elgtjernsbekken" />
		<tag k="ssr:stedsnr" v="284785" />
		<tag k="waterway" v="stream" />
	</node>
	<node id="-30123" lat="61.2250527812" lon="10.3653611151">
		<tag k="name" v="Gåstjernet" />
		<tag k="natural" v="water" />
		<tag k="ssr:stedsnr" v="918177" />
	</node>
</osm>
